"STATION","DATE","SOURCE","LATITUDE","LONGITUDE","ELEVATION","NAME","REPORT_TYPE","CALL_SIGN","QUALITY_CONTROL","WND","CIG","VIS","TMP","DEW","SLP","AA1","AA2","AA3","AY1","AY2","GA1","GA2","GA3","GF1","GJ1","IA1","IA2","KA1","KA2","MA1","MD1","ME1","MW1","REM","EQD"
"76373099999","2005-01-03T12:00:00","4","25.35","-105.75","1967.0","TEPEHUANES DGO., MX","FM-12","99999","V020","999,9,C,0000,1","06000,1,9,N","001000,1,N,1","+0020,1","+9999,9","10207,1","06,0000,9,1","24,0000,9,1",,,,"06,1,+06000,1,02,1",,,"06,99,1,00,1,00,1,99999,9,00,1,07,1",,"09,9","999,-0010,1","120,N,+0005,1","240,M,+0228,1","99999,9,08230,1",,,,"SYN118AAXX  03121 76373 32910 60000 10020 2//// 38230 40207 5//// 80007 91155 333 10228 20005 31010 56006 58/// 70000 86270;","Q01  00002PRCP06"
"76373099999","2005-01-03T15:00:00","4","25.35","-105.75","1967.0","TEPEHUANES DGO., MX","FM-12","99999","V020","270,1,N,0010,1","09000,1,C,N","070000,1,N,1","+0022,1","+9999,9","10248,1","06,0000,9,1",,,,,"01,1,+00900,1,00,1",,,"08,99,1,01,1,01,1,00450,1,00,1,07,1",,"01,9",,,,"99999,9,08244,1","2,1,014,1,+016,1",,,"SYN106AAXX  03151 76373 32488 82701 10022 2//// 38244 40248 52014 81107 91455 333 30/// 56606 58016 81030 87270;","Q01  00002PRCP06"
"76373099999","2005-01-04T15:00:00","4","25.35","-105.75","1967.0","TEPEHUANES DGO., MX","FM-12","99999","V020","999,9,C,0000,1","22000,1,9,N","070000,1,N,1","+0030,1","+9999,9","10207,1","06,0000,9,1",,,,,"00,1,+99999,9,99,9",,,"00,99,1,00,1,00,1,99999,9,00,1,00,1",,"01,9",,,,"99999,9,08215,1","3,1,002,1,-029,1",,,"SYN082AAXX  04151 76373 32988 00000 10030 2//// 38215 40207 53002 91455 333 30/// 59029;","Q01  00002PRCP06"
"76373099999","2005-01-04T18:00:00","4","25.35","-105.75","1967.0","TEPEHUANES DGO., MX","FM-12","99999","V020","240,1,N,0060,1","22000,1,9,N","070000,1,N,1","+0196,2","+9999,9","10186,1","06,0000,9,1",,,,,"02,1,+00360,1,08,1",,,"02,99,1,02,1,01,1,00450,1,00,1,00,1",,"01,9",,"120,M,+0210,1","240,N,+0005,1","99999,9,08209,1","7,1,006,1,-035,1",,,"SYN112AAXX  04181 76373 32488 22406 10196 2//// 38209 40186 57006 82100 91755 333 10210 20005 30/// 56600 59035 82812;","Q01  00002PRCP06"
"76373099999","2005-01-05T00:00:00","4","25.35","-105.75","1967.0","TEPEHUANES DGO., MX","FM-12","99999","V020","240,1,N,0030,1","22000,1,9,N","070000,1,N,1","+0164,1","+9999,9","10109,1","06,0000,9,1","24,0000,9,1",,,,,,,"03,99,1,03,1,02,1,00250,1,00,1,00,1",,"01,9",,"120,M,+0228,1","180,N,+0005,1","99999,9,08190,1","6,1,002,1,-017,1",,,"SYN124AAXX  05001 76373 32388 32403 10164 2//// 38190 40109 56002 83200 92355 333 10228 20005 30/// 50350 56600 59017 70000 83820;","Q01  00002PRCP06"
"76373099999","2005-01-05T15:00:00","4","25.35","-105.75","1967.0","TEPEHUANES DGO., MX","FM-12","99999","V020","140,1,N,0010,1","09000,1,C,N","070000,1,N,1","+0086,1","+9999,9","10162,1","06,0000,9,1",,,,,"03,1,+00900,1,08,1",,,"07,99,1,03,1,01,1,00450,1,00,1,08,1",,"01,9",,,,"99999,9,08214,1","2,1,017,1,+001,1",,,"SYN106AAXX  05151 76373 32488 71401 10086 2//// 38214 40162 52017 83108 91455 333 30/// 56606 58001 83830 82470;","Q01  00002PRCP06"
"76373099999","2005-01-05T21:00:00","4","25.35","-105.75","1967.0","TEPEHUANES DGO., MX","FM-12","99999","V020","240,1,N,0040,1","06000,1,9,N","070000,1,N,1","+0224,1","+9999,9","10102,1","06,0000,9,1",,,,,"08,1,+06000,1,02,1",,,"99,99,9,00,1,00,1,99999,9,00,1,08,1",,"01,9",,,,"99999,9,08183,1","6,1,031,1,-009,1",,,"SYN100AAXX  05211 76373 32988 72404 10224 2//// 38183 40102 56031 80008 92055 333 30/// 56006 59009 88270;","Q01  00002PRCP06"
"76373099999","2005-01-06T00:00:00","4","25.35","-105.75","1967.0","TEPEHUANES DGO., MX","FM-12","99999","V020","220,1,N,0030,1","09000,1,9,N","070000,1,N,1","+0204,1","+9999,9","10076,1","06,0000,9,1","24,0000,9,1",,,,"08,1,+09000,1,02,1",,,"08,99,1,00,1,00,1,99999,9,00,1,06,1",,"01,9",,"120,M,+0240,1","180,N,+0066,1","99999,9,08179,1","6,1,004,1,+011,1",,,"SYN118AAXX  06001 76373 32388 82203 10204 2//// 38179 40076 56004 80006 92355 333 10240 20066 30/// 50360 58011 70000 88280;","Q01  00002PRCP06"
"76373099999","2005-01-06T12:00:00","4","25.35","-105.75","1967.0","TEPEHUANES DGO., MX","FM-12","99999","V020","999,9,C,0000,1","06000,1,9,N","001000,1,N,1","+0030,1","+9999,9","10142,1","06,0000,9,1","24,0000,9,1",,,,"08,1,+06000,1,02,1",,,"08,99,1,00,1,00,1,99999,9,00,1,08,1",,"01,9","999,+0000,1","120,N,+0015,1","240,M,+0240,1","99999,9,08185,1","9,9,999,9,-012,1",,,"SYN118AAXX  06121 76373 32910 80000 10030 2//// 38185 40142 5//// 80008 91158 333 10240 20015 30000 56006 59012 70000 88270;","Q01  00002PRCP06"
"76373099999","2005-01-06T15:00:00","4","25.35","-105.75","1967.0","TEPEHUANES DGO., MX","FM-12","99999","V020","999,9,C,0000,1","09000,1,C,N","070000,1,N,1","+0030,1","+9999,9","10170,1","06,0000,9,1",,,,,"04,1,+03000,1,03,1","02,1,+03000,1,04,1",,"08,99,1,04,1,00,1,01250,1,05,1,02,1",,"01,9",,,,"99999,9,08188,1","1,1,003,1,-026,1",,,"SYN112AAXX  06151 76373 32688 80000 10030 2//// 38188 40170 51003 84052 91455 333 30/// 56066 59026 84360 82460 82070;","Q01  00002PRCP06"
"76373099999","2005-01-06T18:00:00","4","25.35","-105.75","1967.0","TEPEHUANES DGO., MX","FM-12","99999","V020","300,1,N,0020,1","06000,1,9,N","070000,1,N,1","+0140,2","+9999,9","10167,1","06,0000,9,1",,,,,"01,1,+03000,1,03,1","08,1,+06000,1,02,1",,"08,99,1,01,1,00,1,01250,1,03,1,07,1",,"01,9",,"120,M,+0160,1","240,N,+0010,1","99999,9,08190,1","2,1,002,1,-024,1",,,"SYN124AAXX  06181 76373 32688 83002 10140 2//// 38190 40167 52002 81037 91755 333 10160 20010 30/// 56066 59024 81360 88270 99020;","Q01  00002PRCP06"
"76373099999","2005-01-07T15:00:00","4","25.35","-105.75","1967.0","TEPEHUANES DGO., MX","FM-12","99999","V020","999,9,C,0000,1","22000,1,9,N","070000,1,N,1","+0010,1","+9999,9","10184,1","06,0000,9,1",,,,,"01,1,+06000,1,00,1",,,"01,99,1,00,1,00,1,99999,9,00,1,02,1",,"01,9",,,,"99999,9,08194,1","2,1,013,1,+006,1",,,"SYN100AAXX  07151 76373 32988 10000 10010 2//// 38194 40184 52013 80002 91455 333 30/// 56006 58006 81070;","Q01  00002PRCP06"
"76373099999","2005-01-07T18:00:00","4","25.35","-105.75","1967.0","TEPEHUANES DGO., MX","FM-12","99999","V020","030,1,N,0010,1","22000,1,9,N","070000,1,N,1","+0176,2","+9999,9","10186,1","06,0000,9,1",,,,,"00,1,+99999,9,99,9",,,"00,99,1,00,1,00,1,99999,9,00,1,00,1",,"01,9",,"120,M,+0200,1","240,N,-0014,1","99999,9,08200,1","2,1,006,1,+010,1",,,"SYN094AAXX  07181 76373 32988 00301 10176 2//// 38200 40186 52006 91755 333 10200 21014 30/// 58010;","Q01  00002PRCP06"
"76373099999","2005-01-07T21:00:00","4","25.35","-105.75","1967.0","TEPEHUANES DGO., MX","FM-12","99999","V020","310,1,N,0080,1","22000,1,9,N","070000,1,N,1","+0236,2","+9999,9","10120,2","06,0000,9,1",,,,,"00,1,+99999,9,99,9",,,"00,99,1,00,1,00,1,99999,9,00,1,00,1",,"01,9",,,,"99999,9,08175,1","7,1,025,1,+024,1",,,"SYN082AAXX  07211 76373 32988 03108 10236 2//// 38175 40120 57025 92055 333 30/// 58024;","Q01  00002PRCP06"
"76373099999","2005-01-08T00:00:00","4","25.35","-105.75","1967.0","TEPEHUANES DGO., MX","FM-12","99999","V020","310,1,N,0040,1","22000,1,9,N","070000,1,N,1","+0204,1","+9999,9","10106,1","06,0000,9,1","24,0000,9,1",,,,"00,1,+99999,9,99,9",,,"00,99,1,00,1,00,1,99999,9,00,1,00,1",,"01,9",,"120,M,+0248,1","180,N,-0014,1","99999,9,08191,1","2,1,016,1,+035,1",,,"SYN106AAXX  08001 76373 32988 03104 10204 2//// 38191 40106 52016 92358 333 10248 21014 30/// 50460 58035 70000;","Q01  00002PRCP06Q02  00002PRCP24"
"76373099999","2005-01-10T18:00:00","4","25.35","-105.75","1967.0","TEPEHUANES DGO., MX","FM-12","99999","V020","120,1,N,0010,1","03000,1,9,N","070000,1,N,1","+0160,1","+9999,9","10214,1","06,0000,9,1",,,,,"05,1,+03000,1,03,1",,,"08,99,1,05,1,00,1,01250,1,03,1,02,1",,"01,9",,"120,M,+0180,1","240,N,+0044,1","99999,9,08244,1","7,1,004,1,+999,9",,,"SYN118AAXX  10181 76373 32688 81201 10160 2//// 38244 40214 57004 85032 91755 333 10180 20044 30/// 56066 58/// 85360 83070;","Q01  00002PRCP06"
"76373099999","2005-01-11T15:00:00","4","25.35","-105.75","1967.0","TEPEHUANES DGO., MX","FM-12","99999","V020","999,9,C,0000,1","06000,1,9,N","070000,1,N,1","-0006,1","+9999,9","10240,1","06,0000,9,1",,,,,"06,1,+06000,1,02,1",,,"06,99,1,00,1,00,1,99999,9,00,1,08,1",,"01,9",,,,"99999,9,08229,1","2,1,010,1,-019,1",,,"SYN100AAXX  11151 76373 32988 60000 11006 2//// 38229 40240 52010 80008 91455 333 30/// 56006 59019 86270;","Q01  00002PRCP06"
"76373099999","2005-01-11T18:00:00","4","25.35","-105.75","1967.0","TEPEHUANES DGO., MX","FM-12","99999","V020","120,1,N,0010,1","09000,1,C,N","070000,1,N,1","+0138,2","+9999,9","10230,1","06,0000,9,1",,,,,"01,1,+03000,1,03,1",,,"05,99,1,01,1,00,1,01250,1,03,1,02,1",,"01,9",,"120,M,+0158,1","240,N,-0026,1","99999,9,08226,1","8,1,003,1,-018,1",,,"SYN118AAXX  11181 76373 32688 51201 10138 2//// 38226 40230 58003 81032 91755 333 10158 21026 30/// 56066 59018 81360 84070;","Q01  00002PRCP06"
"76373099999","2005-01-12T12:00:00","4","25.35","-105.75","1967.0","TEPEHUANES DGO., MX","FM-12","99999","V020","280,1,N,0010,1","22000,1,9,N","001000,1,N,1","+0004,1","+9999,9","10120,1","06,0000,9,1","24,0000,9,1",,,,"00,1,+99999,9,99,9",,,"00,99,1,00,1,00,1,99999,9,00,1,00,1",,"09,9","999,-0025,1","120,N,-0010,1","240,M,+0272,1","99999,9,08155,1","9,9,999,9,-064,1",,,"SYN100AAXX  12121 76373 32910 02801 10004 2//// 38155 40120 5//// 91155 333 10272 21010 31025 59064 70000;","Q01  00002PRCP06Q02  00002PRCP24"
"76373099999","2005-01-13T12:00:00","4","25.35","-105.75","1967.0","TEPEHUANES DGO., MX","FM-12","99999","V020","240,1,N,0010,1","22000,1,9,N","001000,1,N,1","-0028,1","+9999,9","10184,1","06,0000,9,1","24,0000,9,1",,,,"00,1,+99999,9,99,9",,,"00,99,1,00,1,00,1,99999,9,00,1,00,1",,"09,9","999,-0070,1","120,N,-0046,1","240,M,+0214,1","99999,9,08194,1","9,9,999,9,+039,1",,,"SYN100AAXX  13121 76373 32910 02401 11028 2//// 38194 40184 5//// 91158 333 10214 21046 31070 58039 70000;","Q01  00002PRCP06Q02  00002PRCP24"
"76373099999","2005-01-13T18:00:00","4","25.35","-105.75","1967.0","TEPEHUANES DGO., MX","FM-12","99999","V020","120,1,N,0010,1","22000,1,9,N","070000,1,N,1","+0094,1","+9999,9","10240,1","06,0000,9,1",,,,,"00,1,+99999,9,99,9",,,"00,99,1,00,1,00,1,99999,9,00,1,00,1",,"01,9",,"120,M,+0120,1","240,N,-0052,1","99999,9,08220,1","2,1,006,1,+082,1",,,"SYN094AAXX  13181 76373 32988 01201 10094 2//// 38220 40240 52006 91755 333 10120 21052 30/// 58082;","Q01  00002PRCP06"
"76373099999","2005-01-14T18:00:00","4","25.35","-105.75","1967.0","TEPEHUANES DGO., MX","FM-12","99999","V020","110,1,N,0010,1","06000,1,9,N","070000,1,N,1","+0086,1","+9999,9","10318,1","06,0000,9,1",,,,,"05,1,+06000,1,00,1",,,"05,99,1,00,1,00,1,99999,9,00,1,06,1",,"01,9",,"120,M,+0110,1","240,N,-0070,1","99999,9,08256,1","4,1,000,1,+036,1",,,"SYN112AAXX  14181 76373 32988 51101 10086 2//// 38256 40318 54000 80006 91755 333 10110 21070 30/// 56006 58036 85070;","Q01  00002PRCP06"
"76373099999","2005-01-14T21:00:00","4","25.35","-105.75","1967.0","TEPEHUANES DGO., MX","FM-12","99999","V020","120,1,N,0040,1","22000,1,9,N","070000,1,N,1","+0168,1","+9999,9","10219,2","06,0000,9,1",,,,,"02,1,+06000,1,00,1",,,"02,99,1,00,1,00,1,99999,9,00,1,02,1",,"01,9",,,,"99999,9,08212,1","7,1,044,1,+025,1",,,"SYN100AAXX  14211 76373 32988 21204 10168 2//// 38212 40219 57044 80002 92055 333 30/// 56006 58025 82070;","Q01  00002PRCP06"
"76373099999","2005-01-15T18:00:00","4","25.35","-105.75","1967.0","TEPEHUANES DGO., MX","FM-12","99999","V020","270,1,N,0010,1","00600,1,9,N","070000,1,N,1","+0110,1","+9999,9","10294,1","06,0000,9,1",,,,,"08,1,+00600,1,03,1",,,"08,99,1,08,1,00,1,01250,1,03,1,00,1",,"01,9",,"120,M,+0202,1","240,N,-0034,1","99999,9,08272,1","2,1,007,1,+016,1",,,"SYN112AAXX  15181 76373 32688 82701 10110 2//// 38272 40294 52007 88030 91750 333 10202 21034 30/// 56060 58016 88320;","Q01  00002PRCP06"
"76373099999","2005-01-16T15:00:00","4","25.35","-105.75","1967.0","TEPEHUANES DGO., MX","FM-12","99999","V020","999,9,C,0000,1","22000,1,9,N","070000,1,N,1","-0022,1","+9999,9","10330,1","06,0000,9,1",,,,,"02,1,+03000,1,03,1",,,"02,99,1,02,1,00,1,01250,1,03,1,00,1",,"01,9",,,,"99999,9,08292,1","9,9,999,9,+027,1",,,"SYN100AAXX  16151 76373 32688 20000 11022 2//// 38292 40330 5//// 82030 91450 333 30/// 56060 58027 82360;","Q01  00002PRCP06"
"76373099999","2005-01-16T18:00:00","4","25.35","-105.75","1967.0","TEPEHUANES DGO., MX","FM-12","99999","V020","180,1,N,0010,1","09000,1,9,N","070000,1,N,1","+0124,1","+9999,9","10311,1","06,0000,9,1",,,,,"08,1,+09000,1,00,1",,,"08,99,1,00,1,00,1,99999,9,00,1,04,1",,"01,9",,"120,M,+0156,1","240,N,-0048,1","99999,9,08277,1","2,1,015,1,+005,1",,,"SYN112AAXX  16181 76373 32988 81801 10124 2//// 38277 40311 52015 80004 91750 333 10156 21048 30/// 56006 58005 88080;","Q01  00002PRCP06"
"76373099999","2005-01-16T21:00:00","4","25.35","-105.75","1967.0","TEPEHUANES DGO., MX","FM-12","99999","V020","130,1,N,0060,1","22000,1,9,N","070000,1,N,1","+0176,1","+9999,9","10251,2","06,0000,9,1",,,,,"00,1,+99999,9,99,9",,,"00,99,1,00,1,00,1,99999,9,00,1,00,1",,"01,9",,,,"99999,9,08252,1","6,1,025,1,+007,1",,,"SYN082AAXX  16211 76373 32988 01306 10176 2//// 38252 40251 56025 92050 333 30/// 58007;","Q01  00002PRCP06"
"76373099999","2005-01-17T00:00:00","4","25.35","-105.75","1967.0","TEPEHUANES DGO., MX","FM-12","99999","V020","120,1,N,0050,1","22000,1,9,N","070000,1,N,1","+0174,1","+9999,9","10195,1","06,0000,9,1","24,0000,9,1",,,,,,,"01,99,1,01,1,00,1,01250,1,03,1,00,1",,"01,9",,"120,M,+0200,1","180,N,-0048,1","99999,9,08234,1","5,1,018,1,-002,1",,,"SYN124AAXX  17001 76373 32688 11205 10174 2//// 38234 40195 55018 81030 92355 333 10200 21048 30/// 50370 56060 59002 70000 81360;","Q01  00002PRCP06"
"76373099999","2005-01-17T12:00:00","4","25.35","-105.75","1967.0","TEPEHUANES DGO., MX","FM-12","99999","V020","999,9,C,0000,1","22000,1,9,N","001000,1,N,1","-0016,1","+9999,9","10266,1","06,0000,9,1","24,0000,9,1",,,,"00,1,+99999,9,99,9",,,"00,99,1,00,1,00,1,99999,9,00,1,00,1",,"09,9","999,-0050,1","120,N,-0030,1","240,M,+0200,1","99999,9,08249,1","9,9,999,9,-041,1",,,"SYN100AAXX  17121 76373 32910 00000 11016 2//// 38249 40266 5//// 91158 333 10200 21030 31050 59041 70000;","Q01  00002PRCP06Q02  00002PRCP24"
"76373099999","2005-01-17T18:00:00","4","25.35","-105.75","1967.0","TEPEHUANES DGO., MX","FM-12","99999","V020","090,1,N,0010,1","22000,1,9,N","070000,1,N,1","+0120,1","+9999,9","10282,1","06,0000,9,1",,,,,"02,1,+06000,1,00,1",,,"02,99,1,00,1,00,1,99999,9,00,1,02,1",,"01,9",,"120,M,+0140,1","240,N,-0038,1","99999,9,08258,1","7,1,001,1,-019,1",,,"SYN112AAXX  17181 76373 32988 20901 10120 2//// 38258 40282 57001 80002 91755 333 10140 21038 30/// 56006 59019 82070;","Q01  00002PRCP06"
"76373099999","2005-01-17T21:00:00","4","25.35","-105.75","1967.0","TEPEHUANES DGO., MX","FM-12","99999","V020","190,1,N,0030,1","09000,1,C,N","070000,1,N,1","+0198,1","+9999,9","10198,2","06,0000,9,1",,,,,"02,1,+00900,1,08,1",,,"08,99,1,02,1,01,1,00450,1,00,1,08,1",,"01,9",,,,"99999,9,08213,1","6,1,045,1,-039,1",,,"SYN106AAXX  17211 76373 32488 81903 10198 2//// 38213 40198 56045 82108 92055 333 30/// 56606 59039 82830 86270;","Q01  00002PRCP06"
"76373099999","2005-01-18T12:00:00","4","25.35","-105.75","1967.0","TEPEHUANES DGO., MX","FM-12","99999","V020","999,9,C,0000,1","22000,1,9,N","070000,1,N,1","+0048,1","+9999,9","10200,1","06,0000,9,1","24,0000,9,1",,,,"04,1,+06000,1,02,1",,,"04,99,1,00,1,00,1,99999,9,00,1,08,1",,"01,9","999,+0015,1","120,N,+0028,1","240,M,+0230,1","99999,9,08236,1","9,9,999,9,-013,1",,,"SYN118AAXX  18121 76373 32988 40000 10048 2//// 38236 40200 5//// 80008 91155 333 10230 20028 30015 56006 59013 70000 84270;","Q01  00002PRCP06"
"76373099999","2005-01-19T12:00:00","4","25.35","-105.75","1967.0","TEPEHUANES DGO., MX","FM-12","99999","V020","999,9,C,0000,1","06000,1,9,N","001000,1,N,1","+0042,1","+9999,9","10233,1","06,0000,9,1","24,0000,9,1",,,,"06,1,+06000,1,02,1",,,"06,99,1,00,1,00,1,99999,9,00,1,08,1",,"01,9","999,+0000,1","120,N,+0020,1","240,M,+0180,1","99999,9,08260,1","9,9,999,9,+034,1",,,"SYN118AAXX  19121 76373 32910 60000 10042 2//// 38260 40233 5//// 80008 91155 333 10180 20020 30000 56006 58034 70000 86270;","Q01  00002PRCP06"
"76373099999","2005-01-19T21:00:00","4","25.35","-105.75","1967.0","TEPEHUANES DGO., MX","FM-12","99999","V020","120,1,N,0020,1","03000,1,9,N","070000,1,N,1","+0162,1","+9999,9","10226,1","06,0000,9,1",,,,,"05,1,+03000,1,04,1",,,"08,99,1,99,9,00,1,01250,1,02,1,00,1",,"01,9",,,,"99999,9,08247,1","7,1,039,1,+003,1",,,"SYN106AAXX  19211 76373 32688 81202 10162 2//// 38247 40226 57039 85020 92055 333 30/// 56060 58003 85460 83260;","Q01  00002PRCP06"
"76373099999","2005-01-20T00:00:00","4","25.35","-105.75","1967.0","TEPEHUANES DGO., MX","FM-12","99999","V020","150,1,N,0030,1","01200,1,9,N","070000,1,N,1","+0152,1","+9999,9","10204,1","06,0000,9,1","24,0000,9,1",,,,,,,"08,99,1,08,1,00,1,01250,1,02,1,00,1",,"01,9",,"120,M,+0186,1",,"99999,9,08250,1","2,1,003,1,+000,1",,,"SYN118AAXX  20001 76373 32688 81503 10152 2//// 38250 40204 52003 88020 92355 333 10186 30/// 50230 56060 58000 70000 88560;","Q01  00002PRCP06"
"76373099999","2005-01-20T21:00:00","4","25.35","-105.75","1967.0","TEPEHUANES DGO., MX","FM-12","99999","V020","310,1,N,0010,1","03600,1,C,N","070000,1,N,1","+0198,1","+9999,9","10181,1","06,0000,9,1",,,,,"01,1,+00600,1,08,1","03,1,+03000,1,03,1",,"08,99,1,01,1,01,1,00450,1,03,1,02,1",,"01,9",,,,"99999,9,08208,1","6,1,044,1,+039,1",,,"SYN112AAXX  20211 76373 32488 83101 10198 2//// 38208 40181 56044 81132 92055 333 30/// 56555 58039 81820 83360 84070;","Q01  00002PRCP06"
"76373099999","2005-01-21T00:00:00","4","25.35","-105.75","1967.0","TEPEHUANES DGO., MX","FM-12","99999","V020","250,1,N,0010,1","03000,1,9,N","070000,1,N,1","+0194,1","+9999,9","10144,1","06,0000,9,1","24,0000,9,1",,,,"08,1,+03000,1,04,1",,,"08,99,1,08,1,00,1,01250,1,02,1,00,1",,"01,9",,"120,M,+0224,1",,"99999,9,08199,1","6,1,009,1,-056,1",,,"SYN112AAXX  21001 76373 32688 82501 10194 2//// 38199 40144 56009 88020 92355 333 10224 30/// 56050 59056 70000 88460;","Q01  00002PRCP06"
"76373099999","2005-01-21T18:00:00","4","25.35","-105.75","1967.0","TEPEHUANES DGO., MX","FM-12","99999","V020","300,1,N,0020,1","00300,1,9,N","070000,1,N,1","+0158,1","+9999,9","10167,1","01,0000,2,1",,,"5,1,06,1","5,1,06,1","07,1,+00300,1,06,1",,,"08,99,1,07,1,07,1,00250,1,03,1,00,1",,"09,9",,"120,M,+0172,1","240,N,+0070,1","99999,9,08215,1","2,1,002,1,+037,1",,"50,1","SYN136AAXX  21181 76373 01388 83002 10158 2//// 38215 40167 52002 69905 75055 87730 91755 333 10172 20070 31/// 56660 58037 69905 87610 81360;",
"76373099999","2005-01-21T21:00:00","4","25.35","-105.75","1967.0","TEPEHUANES DGO., MX","FM-12","99999","V020","230,1,N,0050,1","00600,1,9,N","070000,1,N,1","+0186,1","+9999,9","10123,1","03,0010,9,1",,,,,"06,1,+00600,1,06,1",,,"06,99,1,06,1,04,1,00450,1,00,1,00,1",,"09,9",,,,"99999,9,08188,1","6,1,027,1,-020,1",,,"SYN106AAXX  21211 76373 22488 62305 10186 2//// 38188 40123 56027 86400 92055 333 31/// 56600 59020 60017 86620;",
"76373099999","2005-01-22T18:00:00","4","25.35","-105.75","1967.0","TEPEHUANES DGO., MX","FM-12","99999","V020","020,1,N,0010,1","03000,1,9,N","070000,1,N,1","+0120,1","+9999,9","10237,1","06,0000,9,1",,,,,"08,1,+03000,1,03,1",,,"08,99,1,08,1,00,1,01250,1,06,1,00,1",,"01,9",,"120,M,+0126,1","240,N,+0004,1","99999,9,08242,1","2,1,021,1,+029,1",,,"SYN112AAXX  22181 76373 32688 80201 10120 2//// 38242 40237 52021 88060 91755 333 10126 20004 30/// 56060 58029 88360;","Q01  00002PRCP06"
"76373099999","2005-01-23T00:00:00","4","25.35","-105.75","1967.0","TEPEHUANES DGO., MX","FM-12","99999","V020","060,1,N,0030,1","00210,1,9,N","070000,1,N,1","+0164,1","+9999,9","10160,1","03,0020,9,2","24,0015,9,2",,"5,1,06,1","5,1,06,1",,,,"08,99,1,08,1,00,1,00250,1,07,1,00,1",,"09,9",,"120,M,+0190,1","180,N,+0004,1","99999,9,08215,1","2,1,003,1,+028,1",,"50,1","SYN142AAXX  23001 76373 01388 80603 10164 2//// 38215 40160 52003 60027 75055 88070 92350 333 10190 20004 31/// 50110 56060 58028 60027 70015 88760;",
"76373099999","2005-01-23T18:00:00","4","25.35","-105.75","1967.0","TEPEHUANES DGO., MX","FM-12","99999","V020","240,1,N,0010,1","00450,1,9,N","030000,1,N,1","+0088,1","+9999,9","10214,1","01,0040,9,1",,,"5,1,06,1","5,1,06,1","08,1,+00450,1,06,1",,,"08,99,1,08,1,06,1,00150,1,00,1,00,1",,"11,9",,"120,M,+0098,1","240,N,+0058,1","99999,9,08246,1","2,1,003,1,+004,1",,"50,1","SYN130AAXX  23181 76373 01280 82401 10088 2//// 38246 40214 52003 60045 75055 88600 91740 333 10098 20058 32/// 56600 58004 60045 88615;",
"76373099999","2005-01-25T00:00:00","4","25.35","-105.75","1967.0","TEPEHUANES DGO., MX","FM-12","99999","V020","270,1,N,0020,1","22000,1,9,N","070000,1,N,1","+0188,1","+9999,9","10158,1","06,0000,9,1","24,0178,9,1",,,,,,,"02,99,1,02,1,03,1,00250,1,00,1,00,1",,"01,9",,"120,M,+0200,1","180,N,+0060,1","99999,9,08123,1","6,1,013,1,-007,1",,,"SYN124AAXX  25001 76373 32388 22702 10188 2//// 38123 40158 56013 82300 92358 333 10200 20060 30/// 5//// 56600 59007 70178 82920;","Q01  00002PRCP06"
"76373099999","2005-01-25T15:00:00","4","25.35","-105.75","1967.0","TEPEHUANES DGO., MX","FM-12","99999","V020","999,9,C,0000,1","22000,1,9,N","070000,1,N,1","+0030,1","+9999,9","10245,1","06,0000,9,1",,,,,"01,1,+06000,1,00,1",,,"01,99,1,00,1,00,1,99999,9,00,1,02,1",,"09,9",,,,"99999,9,08250,1","2,1,011,1,-010,1",,,"SYN100AAXX  25151 76373 32988 10000 10030 2//// 38250 40245 52011 80002 91455 333 31/// 56006 59010 81070;","Q01  00002PRCP06"
"76373099999","2005-01-26T18:00:00","4","25.35","-105.75","1967.0","TEPEHUANES DGO., MX","FM-12","99999","V020","170,1,N,0010,1","03600,1,C,N","070000,1,N,1","+0118,1","+9999,9","10188,1","06,0000,9,1",,,,,"02,1,+00300,1,08,1",,,"08,99,1,02,1,01,1,00450,1,07,1,00,1",,"01,9",,"120,M,+0142,1","240,N,+0060,1","99999,9,08221,1","7,1,003,1,-026,1",,,"SYN118AAXX  26181 76373 32488 81701 10118 2//// 38221 40188 57003 82170 91755 333 10142 20060 30/// 56660 59026 82810 87270;","Q01  00002PRCP06"
"76373099999","2005-01-27T12:00:00","4","25.35","-105.75","1967.0","TEPEHUANES DGO., MX","FM-12","99999","V020","999,9,C,0000,1","00600,1,9,N","005000,1,N,1","+0076,1","+9999,9","10139,1","06,0008,9,1","12,0008,9,1","24,0008,9,1",,,"06,1,+00600,1,06,1",,,"06,99,1,06,1,04,1,00450,1,00,1,00,1",,"01,9","999,+0070,1","120,N,+0075,1","240,M,+0150,1","99999,9,08189,1","9,9,999,9,-015,1",,,"SYN130AAXX  27121 76373 02450 60000 10076 2//// 38189 40139 5//// 69982 86400 91155 333 10150 20075 30070 56600 59015 69981 70008 86620;",
"76373099999","2005-01-27T21:00:00","4","25.35","-105.75","1967.0","TEPEHUANES DGO., MX","FM-12","99999","V020","270,1,N,0070,1","22000,1,9,N","070000,1,N,1","+0186,1","+9999,9","10118,1","06,0000,9,1",,,,,"01,1,+00900,1,08,1",,,"01,99,1,01,1,01,1,00450,1,00,1,00,1",,"01,9",,,,"99999,9,08182,1","7,1,025,1,-012,1",,,"SYN100AAXX  27211 76373 32488 12707 10186 2//// 38182 40118 57025 81100 92055 333 30/// 56600 59012 81830;","Q01  00002PRCP06"
"76373099999","2005-01-28T15:00:00","4","25.35","-105.75","1967.0","TEPEHUANES DGO., MX","FM-12","99999","V020","999,9,C,0000,1","22000,1,9,N","070000,1,N,1","+0006,1","+9999,9","10235,1","06,0000,9,1",,,,,"00,1,+99999,9,99,9",,,"00,99,1,00,1,00,1,99999,9,00,1,00,1",,"01,9",,,,"99999,9,08221,1","1,1,008,1,+023,1",,,"SYN082AAXX  28151 76373 32988 00000 10006 2//// 38221 40235 51008 91455 333 30/// 58023;","Q01  00002PRCP06"
"76373099999","2005-01-28T21:00:00","4","25.35","-105.75","1967.0","TEPEHUANES DGO., MX","FM-12","99999","V020","160,1,N,0020,1","22000,1,9,N","070000,1,N,1","+0190,2","+9999,9","10158,1","06,0000,9,1",,,,,"00,1,+99999,9,99,9",,,"00,99,1,00,1,00,1,99999,9,00,1,00,1",,"01,9",,,,"99999,9,08182,1","7,1,037,1,+000,1",,,"SYN082AAXX  28211 76373 32988 01602 10190 2//// 38182 40158 57037 92055 333 30/// 58000;","Q01  00002PRCP06"
"76373099999","2005-01-29T00:00:00","4","25.35","-105.75","1967.0","TEPEHUANES DGO., MX","FM-12","99999","V020","210,1,N,0040,1","22000,1,9,N","070000,1,N,1","+0226,1","+9999,9","10109,1","06,0000,9,1","24,0000,9,1",,,,"00,1,+99999,9,99,9",,,"00,99,1,00,1,00,1,99999,9,00,1,00,1",,"01,9",,"120,M,+0245,1","180,N,-0028,1","99999,9,08178,1","5,1,004,1,-013,1",,,"SYN106AAXX  29001 76373 32988 02104 10226 2//// 38178 40109 55004 92358 333 10245 21028 30/// 50290 59013 70000;","Q01  00002PRCP06Q02  00002PRCP24"
"76373099999","2005-01-30T21:00:00","4","25.35","-105.75","1967.0","TEPEHUANES DGO., MX","FM-12","99999","V020","270,1,N,0090,1","22000,1,9,N","070000,1,N,1","+0224,1","+9999,9","10444,1","06,0000,9,1",,,,,"02,1,+09000,1,00,1",,,"02,99,1,00,1,00,1,99999,9,00,1,04,1",,"01,9",,,,"99999,9,08154,1","6,1,022,1,+999,9",,,"SYN100AAXX  30211 76373 32988 22709 10224 2//// 38154 40444 56022 80004 92055 333 30/// 56006 58/// 82080;","Q01  00002PRCP06"
"76373099999","2005-01-31T15:00:00","4","25.35","-105.75","1967.0","TEPEHUANES DGO., MX","FM-12","99999","V020","999,9,C,0000,1","22000,1,9,N","070000,1,N,1","-0014,1","+9999,9","10195,1","06,0000,9,1",,,,,"01,1,+03000,1,03,1",,,"03,99,1,01,1,00,1,01250,1,03,1,01,1",,"01,9",,,,"99999,9,08177,1","0,1,007,1,-008,1",,,"SYN106AAXX  31151 76373 32688 30000 11014 2//// 38177 40195 50007 81031 91455 333 30/// 56066 59008 81360 82070;","Q01  00002PRCP06"
"76373099999","2005-01-31T18:00:00","4","25.35","-105.75","1967.0","TEPEHUANES DGO., MX","FM-12","99999","V020","090,1,N,0010,1","22000,1,9,N","070000,1,N,1","+0130,2","+9999,9","10177,1","06,0000,9,1",,,,,"01,1,+03000,1,03,1",,,"04,99,1,01,1,00,1,01250,1,03,1,02,1",,"01,9",,"120,M,+0162,1","240,N,-0038,1","99999,9,08173,1","7,1,004,1,-003,1",,,"SYN118AAXX  31181 76373 32688 40901 10130 2//// 38173 40177 57004 81032 91755 333 10162 21038 30/// 56076 59003 81360 83070;","Q01  00002PRCP06"
"76373099999","2005-02-01T18:00:00","4","25.35","-105.75","1967.0","TEPEHUANES DGO., MX","FM-12","99999","V020","270,1,N,0070,1","06000,1,9,N","070000,1,N,1","+0148,1","+9999,9","10113,1","06,0000,9,1",,,,,"08,1,+06000,1,02,1",,,"08,99,1,00,1,00,1,99999,9,00,1,07,1",,"09,9",,"120,M,+0170,1","240,N,+0038,1","99999,9,08162,1","2,1,002,1,-011,1",,,"SYN118AAXX  01181 76373 32988 82707 10148 2//// 38162 40113 52002 80007 91755 333 10170 20038 31/// 56006 59011 88270 99020;","Q01  00002PRCP06"
"76373099999","2005-02-02T00:00:00","4","25.35","-105.75","1967.0","TEPEHUANES DGO., MX","FM-12","99999","V020","280,1,N,0060,1","09000,1,9,N","070000,1,N,1","+0152,1","+9999,9","10064,1","06,0000,9,1","24,0038,9,1",,,,,,,"08,99,1,04,1,00,1,01250,1,06,1,04,1",,"01,9",,"120,M,+0246,1","180,N,+0038,1","99999,9,08151,1","6,1,011,1,-006,1",,,"SYN130AAXX  02001 76373 32688 82806 10152 2//// 38151 40064 56011 84064 92355 333 10246 20038 30/// 50140 56606 59006 57020 70038 83080;","Q01  00002PRCP06"
"76373099999","2005-02-02T12:00:00","4","25.35","-105.75","1967.0","TEPEHUANES DGO., MX","FM-12","99999","V020","999,9,C,0000,1","03000,1,9,N","000200,1,N,1","+0010,1","+9999,9","10183,1","06,0000,9,1","24,0000,9,1",,,,"08,1,+03000,1,04,1",,,"08,99,1,08,1,00,1,01250,1,02,1,99,9",,"09,9","999,-0018,1","120,N,-0005,1","240,M,+0246,1","99999,9,08190,1","9,9,999,9,+043,1",,,"SYN118AAXX  02121 76373 32602 80000 10010 2//// 38190 40183 5//// 8802/ 91155 333 10246 21005 31018 5606/ 58043 70000 88460;","Q01  00002PRCP06"
"76373099999","2005-02-02T18:00:00","4","25.35","-105.75","1967.0","TEPEHUANES DGO., MX","FM-12","99999","V020","150,1,N,0020,1","03600,1,C,N","070000,1,N,1","+0084,1","+9999,9","10212,1","06,0000,9,1",,,,,"01,1,+00300,1,08,1","02,1,+03000,1,03,1",,"07,99,1,01,1,01,1,00450,1,03,1,04,1",,"01,9",,"120,M,+0100,1","240,N,-0008,1","99999,9,09204,2","2,1,003,1,+042,1",,,"SYN124AAXX  02181 76373 32488 71502 10084 2//// 39204 40212 52003 81134 91755 333 10100 21008 30/// 56666 58042 81810 82360 84070;","Q01  00002PRCP06"
"76373099999","2005-02-03T12:00:00","4","25.35","-105.75","1967.0","TEPEHUANES DGO., MX","FM-12","99999","V020","999,9,C,0000,1","03000,1,9,N","000200,1,N,1","+0034,1","+9999,9","10193,1","06,0000,9,1","24,0000,9,1",,,,"06,1,+03000,1,02,1",,,"06,99,1,06,1,00,1,01250,1,03,1,99,9",,"01,9","999,+0000,1","120,N,+0018,1","240,M,+0150,1","99999,9,08213,1","9,9,999,9,+023,1",,,"SYN118AAXX  03121 76373 32602 60000 10034 2//// 38213 40193 5//// 86030 91155 333 10150 20018 30000 56060 58023 70000 86260;","Q01  00002PRCP06"
"76373099999","2005-02-04T12:00:00","4","25.35","-105.75","1967.0","TEPEHUANES DGO., MX","FM-12","99999","V020","060,1,N,0010,1","00300,1,9,N","000100,1,N,1","+0060,1","+9999,9","10214,1","06,0000,9,1","24,0000,9,1",,,,"08,1,+00300,1,07,1",,,"08,99,1,08,1,06,1,00250,1,99,9,99,9",,"01,9","999,+0048,1","120,N,+0050,1","240,M,+0114,1","99999,9,08226,1","9,9,999,9,+013,1",,,"SYN118AAXX  04121 76373 32301 80601 10060 2//// 38226 40214 5//// 886// 91155 333 10114 20050 30048 566// 58013 70000 88710;","Q01  00002PRCP06"
"76373099999","2005-02-04T18:00:00","4","25.35","-105.75","1967.0","TEPEHUANES DGO., MX","FM-12","99999","V020","130,1,N,0030,1","00300,1,9,N","006000,1,N,1","+0076,1","+9999,9","10216,1","03,0010,9,1",,,"6,1,06,1","5,1,06,1","08,1,+00300,1,06,1",,,"08,99,1,08,1,07,1,00250,1,99,9,99,9",,"09,9",,"120,M,+0082,1","240,N,+0048,1","99999,9,08232,1","4,1,000,1,-014,1",,"50,1","SYN130AAXX  04181 76373 01356 81303 10076 2//// 38232 40216 54000 60017 75065 887// 91755 333 10082 20048 31/// 562// 59014 60017 88610;",
"76373099999","2005-02-05T15:00:00","4","25.35","-105.75","1967.0","TEPEHUANES DGO., MX","FM-12","99999","V020","120,1,N,0400,2","03000,1,9,N","070000,1,N,1","+0084,1","+9999,9","10114,1","06,0000,9,1",,,,,"08,1,+03000,1,03,1",,,"08,99,1,08,1,00,1,00250,1,06,1,00,1",,"01,9",,,,"99999,9,08154,1","6,1,003,1,+078,1",,,"SYN100AAXX  05151 76373 32388 81240 10084 2//// 38154 40114 56003 88060 91450 333 30/// 56060 58078 88360;","Q01  00002PRCP06"
"76373099999","2005-02-06T15:00:00","4","25.35","-105.75","1967.0","TEPEHUANES DGO., MX","FM-12","99999","V020","999,9,C,0000,1","22000,1,9,N","070000,1,N,1","+0030,1","+9999,9","10181,1","06,0000,9,1",,,,,"01,1,+09000,1,02,1",,,"01,99,1,00,1,00,1,99999,9,00,1,08,1",,"09,9",,,,"99999,9,08179,1","9,9,999,9,+025,1",,,"SYN100AAXX  06151 76373 32988 10000 10030 2//// 38179 40181 5//// 80008 91455 333 31/// 56006 58025 81280;","Q01  00002PRCP06"
"76373099999","2005-02-06T18:00:00","4","25.35","-105.75","1967.0","TEPEHUANES DGO., MX","FM-12","99999","V020","320,1,N,0020,1","22000,1,9,N","070000,1,N,1","+0148,1","+9999,9","10183,1","06,0000,9,1",,,,,"01,1,+09000,1,00,1",,,"02,99,1,00,1,00,1,99999,9,00,1,04,1",,"09,9",,"120,M,+0160,1","240,N,-0007,1","99999,9,08191,1","2,1,012,1,+035,1",,,"SYN112AAXX  06181 76373 32988 23202 10148 2//// 38191 40183 52012 80004 91750 333 10160 21007 31/// 56006 58035 81080;","Q01  00002PRCP06"
"76373099999","2005-02-06T21:00:00","4","25.35","-105.75","1967.0","TEPEHUANES DGO., MX","FM-12","99999","V020","200,1,N,0060,1","22000,1,9,N","070000,1,N,1","+0188,1","+9999,9","10151,1","06,0000,9,1",,,,,"01,1,+09000,1,00,1",,,"01,99,1,00,1,00,1,99999,9,00,1,04,1",,"09,9",,,,"99999,9,08188,1","6,1,003,1,+054,1",,,"SYN100AAXX  06211 76373 32988 12006 10188 2//// 38188 40151 56003 80004 92050 333 31/// 56006 58054 81080;","Q01  00002PRCP06"
"76373099999","2005-02-07T15:00:00","4","25.35","-105.75","1967.0","TEPEHUANES DGO., MX","FM-12","99999","V020","999,9,C,0000,1","22000,1,C,N","070000,1,N,1","-0032,1","+9999,9","10264,1","06,0000,9,1",,,,,"02,1,+03000,1,03,1",,,"06,99,1,02,1,00,1,01250,1,03,1,04,1",,"01,9",,,,"99999,9,08227,1","1,1,014,1,+048,1",,,"SYN106AAXX  07151 76373 32688 60000 11032 2//// 38227 40264 51014 82034 91455 333 30/// 56066 58048 82360 84070;","Q01  00002PRCP06"
"76373099999","2005-02-07T18:00:00","4","25.35","-105.75","1967.0","TEPEHUANES DGO., MX","FM-12","99999","V020","999,9,C,0000,1","06000,1,9,N","070000,1,N,1","+0094,2","+9999,9","10254,1","06,0000,9,1",,,,,"01,1,+03000,1,03,1","01,1,+06000,1,01,1","06,1,+06000,1,02,1","08,99,1,01,1,00,1,01250,1,03,1,07,1",,"09,9",,"120,M,+0112,1","240,N,-0050,1","99999,9,08223,1","7,1,004,1,+032,1",,,"SYN130AAXX  07181 76373 32688 80000 10094 2//// 38223 40254 57004 81037 91755 333 10112 21050 31/// 56066 58032 81360 81170 86270 99050;","Q01  00002PRCP06"
"76373099999","2005-02-08T12:00:00","4","25.35","-105.75","1967.0","TEPEHUANES DGO., MX","FM-12","99999","V020","999,9,C,0000,1","22000,1,9,N","000200,1,N,1","+0010,1","+9999,9","10158,1","06,0000,9,1","24,0000,9,1",,,,"04,1,+06000,1,00,1",,,"99,99,9,00,1,00,1,99999,9,00,1,02,1",,"09,9","999,-0020,1","120,N,-0008,1","240,M,+0214,1","99999,9,08187,1","9,9,999,9,-026,1",,,"SYN118AAXX  08121 76373 32902 20000 10010 2//// 38187 40158 5//// 80002 91158 333 10214 21008 31020 56006 59026 70000 84070;","Q01  00002PRCP06"
"76373099999","2005-02-08T15:00:00","4","25.35","-105.75","1967.0","TEPEHUANES DGO., MX","FM-12","99999","V020","270,1,N,0010,1","22000,1,C,N","070000,1,N,1","+0006,1","+9999,9","10200,1","06,0000,9,1",,,,,"02,1,+03000,1,03,1",,,"06,99,1,02,1,00,1,01250,1,03,1,04,1",,"01,9",,,,"99999,9,08198,1","2,1,011,1,-029,1",,,"SYN106AAXX  08151 76373 32688 62701 10006 2//// 38198 40200 52011 82034 91455 333 30/// 56066 59029 82360 84070;","Q01  00002PRCP06"
"76373099999","2005-02-09T15:00:00","4","25.35","-105.75","1967.0","TEPEHUANES DGO., MX","FM-12","99999","V020","999,9,C,0000,1","03600,1,C,N","070000,1,N,1","+0064,1","+9999,9","10188,1","06,0000,9,1",,,,,"01,1,+00900,1,08,1","02,1,+03000,1,05,1",,"08,99,1,01,1,01,1,00450,1,02,1,08,1",,"01,9",,,,"99999,9,08214,1","3,1,011,1,+016,1",,,"SYN112AAXX  09151 76373 32488 80000 10064 2//// 38214 40188 53011 81128 91458 333 30/// 56666 58016 81830 82560 85270;","Q01  00002PRCP06"
"76373099999","2005-02-09T18:00:00","4","25.35","-105.75","1967.0","TEPEHUANES DGO., MX","FM-12","99999","V020","270,1,N,0010,1","06000,1,9,N","070000,1,N,1","+0136,1","+9999,9","10181,1","06,0000,9,1",,,,,"02,1,+03000,1,03,1","07,1,+06000,1,02,1",,"08,99,1,02,1,00,1,01250,1,03,1,07,1",,"01,9",,"120,M,+0160,1","240,N,+0040,1","99999,9,08213,1","7,1,001,1,+018,1",,,"SYN124AAXX  09181 76373 32688 82701 10136 2//// 38213 40181 57001 82037 91755 333 10160 20040 30/// 56066 58018 82360 87270 99020;","Q01  00002PRCP06"
"76373099999","2005-02-10T00:00:00","4","25.35","-105.75","1967.0","TEPEHUANES DGO., MX","FM-12","99999","V020","270,1,N,0030,1","09000,1,9,N","070000,1,N,1","+0220,1","+9999,9","10092,1","06,0000,9,1","24,0000,9,1",,,,"02,1,+03000,1,03,1",,,"08,99,1,02,1,00,1,01250,1,03,1,04,1",,"01,9",,"120,M,+0246,1","180,N,+0040,1","99999,9,08186,1","6,1,003,1,-006,1",,,"SYN130AAXX  10001 76373 32688 82703 10220 2//// 38186 40092 56003 82034 92350 333 10246 20040 30/// 50330 56606 59006 70000 82360 86080;","Q01  00002PRCP06"
"76373099999","2005-02-10T18:00:00","4","25.35","-105.75","1967.0","TEPEHUANES DGO., MX","FM-12","99999","V020","060,1,N,0010,1","06000,1,9,N","070000,1,N,1","+0146,1","+9999,9","10200,1","06,0000,9,1",,,,,"01,1,+03000,1,05,1","08,1,+06000,1,02,1",,"08,99,1,01,1,00,1,01250,1,02,1,07,1",,"01,9",,"120,M,+0160,1","240,N,+0052,1","99999,9,08235,1","2,1,002,1,+022,1",,,"SYN124AAXX  10181 76373 32688 80601 10146 2//// 38235 40200 52002 81027 91755 333 10160 20052 30/// 56066 58022 81560 88270 99020;","Q01  00002PRCP06"
"76373099999","2005-02-10T21:00:00","4","25.35","-105.75","1967.0","TEPEHUANES DGO., MX","FM-12","99999","V020","140,1,N,0030,1","03600,1,C,N","070000,1,N,1","+0224,1","+9999,9","10120,2","06,0000,9,1",,,,,"01,1,+00900,1,08,1","02,1,+03000,1,03,1",,"08,99,1,01,1,01,1,00450,1,03,1,08,1",,"01,9",,,,"99999,9,08189,1","6,1,046,1,+000,1",,,"SYN112AAXX  10211 76373 32488 81403 10224 2//// 38189 40120 56046 81138 92053 333 30/// 56666 58000 81830 82360 85270;","Q01  00002PRCP06"
"76373099999","2005-02-11T15:00:00","4","25.35","-105.75","1967.0","TEPEHUANES DGO., MX","FM-12","99999","V020","999,9,C,0000,1","06000,1,9,N","070000,1,N,1","+0080,1","+9999,9","10188,1","06,0000,9,1",,,,,"06,1,+06000,1,02,1",,,"06,99,1,00,1,00,1,99999,9,00,1,08,1",,"01,9",,,,"99999,9,08232,1","3,1,011,1,-001,1",,,"SYN100AAXX  11151 76373 32988 60000 10080 2//// 38232 40188 53011 80008 91458 333 30/// 56006 59001 86270;","Q01  00002PRCP06"
"76373099999","2005-02-11T21:00:00","4","25.35","-105.75","1967.0","TEPEHUANES DGO., MX","FM-12","99999","V020","170,1,N,0070,1","09000,1,C,N","070000,1,N,1","+0248,1","+9999,9","10111,1","06,0000,9,1",,,,,"01,1,+00900,1,08,1",,,"08,99,1,01,1,01,1,00450,1,00,1,07,1",,"01,9",,,,"99999,9,08192,1","6,1,028,1,+003,1",,,"SYN106AAXX  11211 76373 32488 81707 10248 2//// 38192 40111 56028 81107 92055 333 30/// 56404 58003 81830 87270;","Q01  00002PRCP06"
"76373099999","2005-02-12T18:00:00","4","25.35","-105.75","1967.0","TEPEHUANES DGO., MX","FM-12","99999","V020","030,1,N,0010,1","01500,1,9,N","070000,1,N,1","+0116,1","+9999,9","10139,1","03,0030,9,1","06,0080,9,1",,"5,1,06,1","2,1,06,1","08,1,+01500,1,07,1",,,"08,99,1,08,1,99,9,01250,1,02,1,99,9",,"11,9",,"120,M,+0120,1","240,N,+0089,1","99999,9,08211,1","2,1,006,1,-009,1",,"51,1","SYN130AAXX  12181 76373 01688 80301 10116 2//// 38211 40139 52006 60037 75152 8802/ 91745 333 10120 20089 32/// 56060 59009 60081 88750;",
"76373099999","2005-02-13T00:00:00","4","25.35","-105.75","1967.0","TEPEHUANES DGO., MX","FM-12","99999","V020","270,1,N,0060,1","03600,1,9,N","070000,1,N,1","+0158,1","+9999,9","10127,1","06,0000,2,1","24,0094,9,1",,,,"01,1,+00600,1,08,1",,,"05,99,1,01,1,01,1,00250,1,06,1,00,1",,"09,9",,"120,M,+0164,1","180,N,+0089,1","99999,9,08198,1","5,1,002,1,+005,1",,,"SYN130AAXX  13001 76373 32388 52706 10158 2//// 38198 40127 55002 81160 92350 333 10164 20089 31/// 50300 56660 58005 70094 81820 84360;",
"76373099999","2005-02-13T15:00:00","4","25.35","-105.75","1967.0","TEPEHUANES DGO., MX","FM-12","99999","V020","999,9,C,0000,1","22000,1,9,N","070000,1,N,1","+0022,1","+9999,9","10195,1","06,0000,9,1",,,,,"00,1,+99999,9,99,9",,,"00,99,1,00,1,00,1,99999,9,00,1,00,1",,"09,9",,,,"99999,9,08212,1","9,9,999,9,+007,1",,,"SYN082AAXX  13151 76373 32988 00000 10022 2//// 38212 40195 5//// 91450 333 31/// 58007;","Q01  00002PRCP06"
"76373099999","2005-02-13T18:00:00","4","25.35","-105.75","1967.0","TEPEHUANES DGO., MX","FM-12","99999","V020","999,9,C,0000,1","22000,1,9,N","070000,1,N,1","+0140,2","+9999,9","10207,1","06,0000,9,1",,,,,"00,1,+99999,9,99,9",,,"00,99,1,00,1,00,1,99999,9,00,1,00,1",,"09,9",,"120,M,+0160,1","240,N,-0018,1","99999,9,08218,1","6,1,006,1,+007,1",,,"SYN094AAXX  13181 76373 32988 00000 10140 2//// 38218 40207 56006 91750 333 10160 21018 31/// 58007;","Q01  00002PRCP06"
"76373099999","2005-02-14T18:00:00","4","25.35","-105.75","1967.0","TEPEHUANES DGO., MX","FM-12","99999","V020","150,1,N,0010,1","22000,1,9,N","070000,1,N,1","+0138,1","+9999,9","10212,1","06,0000,9,1",,,,,"00,1,+99999,9,99,9",,,"00,99,1,00,1,00,1,99999,9,00,1,00,1",,"01,9",,"120,M,+0160,1","240,N,-0022,1","99999,9,08235,1","9,9,999,9,+017,1",,,"SYN094AAXX  14181 76373 32988 01501 10138 2//// 38235 40212 5//// 91755 333 10160 21022 30/// 58017;","Q01  00002PRCP06"
"76373099999","2005-02-14T21:00:00","4","25.35","-105.75","1967.0","TEPEHUANES DGO., MX","FM-12","99999","V020","150,1,N,0010,1","22000,1,9,N","070000,1,N,1","+0218,1","+9999,9","10148,2","06,0000,9,1",,,,,"00,1,+99999,9,99,9",,,"00,99,1,00,1,00,1,99999,9,00,1,00,1",,"01,9",,,,"99999,9,08199,1","6,1,016,1,+004,1",,,"SYN082AAXX  14211 76373 32988 01501 10218 2//// 38199 40148 56016 92055 333 30/// 58004;","Q01  00002PRCP06"
"76373099999","2005-02-15T00:00:00","4","25.35","-105.75","1967.0","TEPEHUANES DGO., MX","FM-12","99999","V020","999,9,C,0000,1","22000,1,9,N","070000,1,N,1","+0254,1","+9999,9","10104,1","06,0000,9,1","24,0000,9,1",,,,"00,1,+99999,9,99,9",,,"00,99,1,00,1,00,1,99999,9,00,1,00,1",,"01,9",,"120,M,+0264,1","180,N,-0022,1","99999,9,08192,1","6,1,007,1,+020,1",,,"SYN106AAXX  15001 76373 32988 00000 10254 2//// 38192 40104 56007 92350 333 10264 21022 30/// 50340 58020 70000;","Q01  00002PRCP06Q02  00002PRCP24"
"76373099999","2005-02-15T12:00:00","4","25.35","-105.75","1967.0","TEPEHUANES DGO., MX","FM-12","99999","V020","999,9,C,0000,1","22000,1,9,N","000300,1,N,1","+0034,1","+9999,9","10184,1","06,0000,9,1","24,0000,9,1",,,,"00,1,+99999,9,99,9",,,"00,99,1,00,1,00,1,99999,9,00,1,00,1",,"01,9","999,+0000,1","120,N,+0018,1","240,M,+0264,1","99999,9,08222,1",,,,"SYN100AAXX  15121 76373 32903 00000 10034 2//// 38222 40184 5//// 91154 333 10264 20018 30000 58/// 70000;","Q01  00002PRCP06Q02  00002PRCP24"
"76373099999","2005-02-15T15:00:00","4","25.35","-105.75","1967.0","TEPEHUANES DGO., MX","FM-12","99999","V020","290,1,N,0010,1","22000,1,9,N","070000,1,N,1","+0044,1","+9999,9","10233,1","06,0000,9,1",,,,,"00,1,+99999,9,99,9",,,"00,99,1,00,1,00,1,99999,9,00,1,00,1",,"01,9",,,,"99999,9,08239,1","2,1,017,1,+999,9",,,"SYN082AAXX  15151 76373 32988 02901 10044 2//// 38239 40233 52017 91453 333 30/// 58///;","Q01  00002PRCP06"
"76373099999","2005-02-15T21:00:00","4","25.35","-105.75","1967.0","TEPEHUANES DGO., MX","FM-12","99999","V020","240,1,N,0030,1","22000,1,9,N","070000,1,N,1","+0266,2","+9999,9","10141,2","06,0000,9,1",,,,,"02,1,+06000,1,00,1",,,"02,99,1,00,1,00,1,99999,9,00,1,02,1",,"01,9",,,,"99999,9,08201,1","7,1,034,1,+002,1",,,"SYN100AAXX  15211 76373 32988 22403 10266 2//// 38201 40141 57034 80002 92058 333 30/// 56006 58002 82070;","Q01  00002PRCP06"
"76373099999","2005-02-16T00:00:00","4","25.35","-105.75","1967.0","TEPEHUANES DGO., MX","FM-12","99999","V020","250,1,N,0030,1","22000,1,9,N","070000,1,N,1","+0234,1","+9999,9","10102,1","06,0000,9,1","24,0000,9,1",,,,"00,1,+99999,9,99,9",,,"00,99,1,00,1,00,1,99999,9,00,1,00,1",,"01,9",,"120,M,+0282,1","180,N,+0012,1","99999,9,08201,1","5,1,000,1,+009,1",,,"SYN106AAXX  16001 76373 32988 02503 10234 2//// 38201 40102 55000 92358 333 10282 20012 30/// 50460 58009 70000;","Q01  00002PRCP06Q02  00002PRCP24"
"76373099999","2005-02-16T12:00:00","4","25.35","-105.75","1967.0","TEPEHUANES DGO., MX","FM-12","99999","V020","999,9,C,0000,1","22000,1,9,N","000300,1,N,1","+0028,1","+9999,9","10174,1","06,0000,9,1","24,0000,9,1",,,,"00,1,+99999,9,99,9",,,"00,99,1,00,1,00,1,99999,9,00,1,00,1",,"09,9","999,-0010,1","120,N,+0010,1","240,M,+0282,1","99999,9,08215,1","9,9,999,9,-007,1",,,"SYN100AAXX  16121 76373 32903 00000 10028 2//// 38215 40174 5//// 91158 333 10282 20010 31010 59007 70000;","Q01  00002PRCP06Q02  00002PRCP24"
"76373099999","2005-02-16T15:00:00","4","25.35","-105.75","1967.0","TEPEHUANES DGO., MX","FM-12","99999","V020","999,9,C,0000,1","22000,1,9,N","070000,1,N,1","+0042,1","+9999,9","10214,1","06,0000,9,1",,,,,"01,1,+06000,1,00,1",,,"01,99,1,00,1,00,1,99999,9,00,1,02,1",,"01,9",,,,"99999,9,08227,1","2,1,012,1,-012,1",,,"SYN100AAXX  16151 76373 32988 10000 10042 2//// 38227 40214 52012 80002 91457 333 30/// 56006 59012 81070;","Q01  00002PRCP06"
"76373099999","2005-02-16T18:00:00","4","25.35","-105.75","1967.0","TEPEHUANES DGO., MX","FM-12","99999","V020","150,1,N,0010,1","22000,1,9,N","070000,1,N,1","+0166,1","+9999,9","10197,1","06,0000,9,1",,,,,"00,1,+99999,9,99,9",,,"00,99,1,00,1,00,1,99999,9,00,1,00,1",,"01,9",,"120,M,+0190,1","240,N,+0000,1","99999,9,08217,1","8,1,010,1,-018,1",,,"SYN094AAXX  16181 76373 32988 01501 10166 2//// 38217 40197 58010 91755 333 10190 20000 30/// 59018;","Q01  00002PRCP06"
"76373099999","2005-02-16T21:00:00","4","25.35","-105.75","1967.0","TEPEHUANES DGO., MX","FM-12","99999","V020","060,1,N,0020,1","22000,1,9,N","070000,1,N,1","+0242,2","+9999,9","10113,2","06,0000,9,1",,,,,"00,1,+99999,9,99,9",,,"00,99,1,00,1,00,1,99999,9,00,1,00,1",,"01,9",,,,"99999,9,08174,1","7,1,043,1,-027,1",,,"SYN082AAXX  16211 76373 32988 00602 10242 2//// 38174 40113 57043 92054 333 30/// 59027;","Q01  00002PRCP06"
"76373099999","2005-02-17T00:00:00","4","25.35","-105.75","1967.0","TEPEHUANES DGO., MX","FM-12","99999","V020","220,1,N,0050,1","22000,1,9,N","070000,1,N,1","+0226,1","+9999,9","10074,2","06,0000,9,1","24,0000,9,1",,,,"00,1,+99999,9,99,9",,,"00,99,1,00,1,00,1,99999,9,00,1,00,1",,"01,9",,"120,M,+0275,1","180,N,+0000,1","99999,9,08173,1","5,1,001,1,-028,1",,,"SYN106AAXX  17001 76373 32988 02205 10226 2//// 38173 40074 55001 92352 333 10275 20000 30/// 50480 59028 70000;","Q01  00002PRCP06Q02  00002PRCP24"
"76373099999","2005-02-17T12:00:00","4","25.35","-105.75","1967.0","TEPEHUANES DGO., MX","FM-12","99999","V020","280,1,N,0010,1","22000,1,9,N","000200,1,N,1","+0016,1","+9999,9","10170,1","06,0000,9,1","24,0000,9,1",,,,"00,1,+99999,9,99,9",,,"00,99,1,00,1,00,1,99999,9,00,1,00,1",,"09,9","999,-0018,1","120,N,-0005,1","240,M,+0275,1","99999,9,08207,1","9,9,999,9,-008,1",,,"SYN100AAXX  17121 76373 32902 02801 10016 2//// 38207 40170 5//// 91155 333 10275 21005 31018 59008 70000;","Q01  00002PRCP06Q02  00002PRCP24"
"76373099999","2005-02-17T15:00:00","4","25.35","-105.75","1967.0","TEPEHUANES DGO., MX","FM-12","99999","V020","999,9,C,0000,1","22000,1,9,N","070000,1,N,1","+0038,1","+9999,9","10212,1","06,0000,9,1",,,,,"00,1,+99999,9,99,9",,,"00,99,1,00,1,00,1,99999,9,00,1,00,1",,"01,9",,,,"99999,9,08218,1","1,1,011,1,-009,1",,,"SYN082AAXX  17151 76373 32988 00000 10038 2//// 38218 40212 51011 91455 333 30/// 59009;","Q01  00002PRCP06"
"76373099999","2005-02-17T18:00:00","4","25.35","-105.75","1967.0","TEPEHUANES DGO., MX","FM-12","99999","V020","999,9,C,0000,1","22000,1,9,N","070000,1,N,1","+0174,1","+9999,9","10191,1","06,0000,9,1",,,,,"00,1,+99999,9,99,9",,,"00,99,1,00,1,00,1,99999,9,00,1,00,1",,"01,9",,"120,M,+0194,1","240,N,-0012,1","99999,9,08208,1","6,1,010,1,-009,1",,,"SYN094AAXX  17181 76373 32988 00000 10174 2//// 38208 40191 56010 91750 333 10194 21012 30/// 59009;","Q01  00002PRCP06"
"76373099999","2005-02-17T21:00:00","4","25.35","-105.75","1967.0","TEPEHUANES DGO., MX","FM-12","99999","V020","120,1,N,0040,1","22000,1,9,N","070000,1,N,1","+0242,2","+9999,9","10123,1","06,0000,9,1",,,,,"01,1,+00900,1,08,1",,,"01,99,1,01,1,01,1,00450,1,00,1,00,1",,"01,9",,,,"99999,9,08179,1","6,1,029,1,+005,1",,,"SYN100AAXX  17211 76373 32488 11204 10242 2//// 38179 40123 56029 81100 92055 333 30/// 56600 58005 81830;","Q01  00002PRCP06"
"76373099999","2005-02-18T00:00:00","4","25.35","-105.75","1967.0","TEPEHUANES DGO., MX","FM-12","99999","V020","200,1,N,0040,1","22000,1,9,N","070000,1,N,1","+0228,1","+9999,9","10083,1","06,0000,9,1","24,0000,9,1",,,,"00,1,+99999,9,99,9",,,"00,99,1,00,1,00,1,99999,9,00,1,00,1",,"01,9",,"120,M,+0262,1","180,N,-0012,1","99999,9,08178,1","5,1,001,1,+005,1",,,"SYN124AAXX  18001 76373 32488 02004 10228 2//// 38178 40083 55001 81100 92355 333 10262 21012 30/// 50490 56600 58005 70000 81830;","Q01  00002PRCP06"
"76373099999","2005-02-18T12:00:00","4","25.35","-105.75","1967.0","TEPEHUANES DGO., MX","FM-12","99999","V020","999,9,C,0000,1","22000,1,9,N","000300,1,N,1","+0026,1","+9999,9","10174,1","06,0000,9,1","24,0000,9,1",,,,"00,1,+99999,9,99,9",,,"00,99,1,00,1,00,1,99999,9,00,1,00,1",,"09,9","999,-0015,1","120,N,+0010,1","240,M,+0262,1","99999,9,08215,1","9,9,999,9,+008,1",,,"SYN100AAXX  18121 76373 32903 00000 10026 2//// 38215 40174 5//// 91155 333 10262 20010 31015 58008 70000;","Q01  00002PRCP06Q02  00002PRCP24"
"76373099999","2005-02-19T00:00:00","4","25.35","-105.75","1967.0","TEPEHUANES DGO., MX","FM-12","99999","V020","210,1,N,0060,1","22000,1,9,N","070000,1,N,1","+0218,1","+9999,9","10093,1","06,0000,9,1","24,0000,9,1",,,,"01,1,+00900,1,08,1",,,"02,99,1,01,1,01,1,00450,1,00,1,02,1",,"01,9",,"120,M,+0266,1","180,N,+0000,1","99999,9,08189,1","5,1,000,1,+001,1",,,"SYN130AAXX  19001 76373 32488 22106 10218 2//// 38189 40093 55000 81102 92355 333 10266 20000 30/// 50510 56606 58001 70000 81830 81070;","Q01  00002PRCP06"
"76373099999","2005-02-19T18:00:00","4","25.35","-105.75","1967.0","TEPEHUANES DGO., MX","FM-12","99999","V020","999,9,C,0000,1","03000,1,9,N","070000,1,N,1","+0166,1","+9999,9","10181,1","06,0000,9,1",,,,,"08,1,+03000,1,03,1",,,"08,99,1,08,1,00,1,01250,1,03,1,00,1",,"01,9",,"120,M,+0180,1","240,N,+0048,1","99999,9,08224,1","2,1,011,1,+001,1",,,"SYN112AAXX  19181 76373 32688 80000 10166 2//// 38224 40181 52011 88030 91750 333 10180 20048 30/// 56060 58001 88360;","Q01  00002PRCP06"
"76373099999","2005-02-19T21:00:00","4","25.35","-105.75","1967.0","TEPEHUANES DGO., MX","FM-12","99999","V020","180,1,N,0030,1","03000,1,9,N","070000,1,N,1","+0222,1","+9999,9","10067,2","06,0000,9,1",,,,,"08,1,+03000,1,03,1",,,"08,99,1,08,1,00,1,01250,1,03,1,00,1",,"01,9",,,,"99999,9,08202,1","6,1,019,1,-013,1",,,"SYN100AAXX  19211 76373 32688 81803 10222 2//// 38202 40067 56019 88030 92050 333 30/// 56060 59013 88360;","Q01  00002PRCP06"
"76373099999","2005-02-20T00:00:00","4","25.35","-105.75","1967.0","TEPEHUANES DGO., MX","FM-12","99999","V020","210,1,N,0050,1","01200,1,9,N","070000,1,N,1","+0206,1","+9999,9","10106,1","06,0000,9,1","24,0000,9,1",,,,,,,"08,99,1,08,1,00,1,01250,1,03,1,00,1",,"01,9",,"120,M,+0242,1","180,N,+0048,1","99999,9,08198,1","6,1,004,1,+017,1",,,"SYN124AAXX  20001 76373 32688 82105 10206 2//// 38198 40106 56004 88030 92350 333 10242 20048 30/// 50400 56060 58017 70000 88360;","Q01  00002PRCP06"
"76373099999","2005-02-21T12:00:00","4","25.35","-105.75","1967.0","TEPEHUANES DGO., MX","FM-12","99999","V020","260,1,N,0010,1","22000,1,9,N","000600,1,N,1","+0034,1","+9999,9","10195,1","06,0000,9,1","24,0000,9,1",,,,"04,1,+06000,1,00,1",,,"04,99,1,00,1,00,1,99999,9,00,1,02,1",,"01,9","999,+0000,1","120,N,+0018,1","240,M,+0232,1","99999,9,08229,1",,,,"SYN118AAXX  21121 76373 32906 42601 10034 2//// 38229 40195 5//// 80002 91155 333 10232 20018 30000 56006 58/// 70000 84070;","Q01  00002PRCP06"
"76373099999","2005-02-21T18:00:00","4","25.35","-105.75","1967.0","TEPEHUANES DGO., MX","FM-12","99999","V020","130,1,N,0030,1","22000,1,9,N","070000,1,N,1","+0164,1","+9999,9","10214,1","06,0000,9,1",,,,,"01,1,+06000,1,00,1",,,"01,99,1,00,1,00,1,99999,9,00,1,05,1",,"01,9",,"120,M,+0188,1","240,N,-0005,1","99999,9,08230,1","8,1,009,1,+002,1",,,"SYN112AAXX  21181 76373 32988 11303 10164 2//// 38230 40214 58009 80005 91750 333 10188 21005 30/// 56006 58002 81070;","Q01  00002PRCP06"
"76373099999","2005-02-22T00:00:00","4","25.35","-105.75","1967.0","TEPEHUANES DGO., MX","FM-12","99999","V020","250,1,N,0060,1","22000,1,9,N","070000,1,N,1","+0224,1","+9999,9","10099,1","06,0000,9,1","24,0000,9,1",,,,,,,"01,99,1,01,1,02,1,00250,1,00,1,00,1",,"01,9",,"120,M,+0266,1","180,N,-0005,1","99999,9,08190,1","4,1,000,1,-017,1",,,"SYN124AAXX  22001 76373 32388 12506 10224 2//// 38190 40099 54000 81200 92355 333 10266 21005 30/// 50460 56600 59017 70000 81820;","Q01  00002PRCP06"
"76373099999","2005-02-22T12:00:00","4","25.35","-105.75","1967.0","TEPEHUANES DGO., MX","FM-12","99999","V020","999,9,C,0000,1","03600,1,C,N","000200,1,N,1","+0070,1","+9999,9","10155,1","06,0000,9,1","24,0000,9,1",,,,"04,1,+00600,1,06,1",,,"08,99,1,04,1,05,1,00450,1,02,1,99,9",,"01,9","999,+0045,1","120,N,+0056,1","240,M,+0262,1","99999,9,08211,1","9,9,999,9,-018,1",,,"SYN124AAXX  22121 76373 32402 80000 10070 2//// 38211 40155 5//// 8452/ 91156 333 10262 20056 30045 5666/ 59018 70000 84620 84560;","Q01  00002PRCP06"
"76373099999","2005-02-22T15:00:00","4","25.35","-105.75","1967.0","TEPEHUANES DGO., MX","FM-12","99999","V020","999,9,C,0000,1","03600,1,C,N","070000,1,N,1","+0072,1","+9999,9","10191,1","06,0000,9,1",,,,,"04,1,+00600,1,06,1",,,"08,99,1,04,1,05,1,00450,1,02,1,00,1",,"01,9",,,,"99999,9,08224,1","2,1,013,1,-015,1",,,"SYN106AAXX  22151 76373 32488 80000 10072 2//// 38224 40191 52013 84520 91458 333 30/// 56660 59015 84620 84460;","Q01  00002PRCP06"
"76373099999","2005-02-22T21:00:00","4","25.35","-105.75","1967.0","TEPEHUANES DGO., MX","FM-12","99999","V020","250,1,N,0060,1","03600,1,C,N","070000,1,N,1","+0198,1","+9999,9","10137,1","06,0000,9,1",,,,,"03,1,+00600,1,08,1",,,"08,99,1,03,1,02,1,00450,1,02,1,00,1",,"01,9",,,,"99999,9,08203,1","6,1,025,1,-013,1",,,"SYN106AAXX  22211 76373 32488 82506 10198 2//// 38203 40137 56025 83220 92058 333 30/// 56660 59013 83820 85460;","Q01  00002PRCP06"
"76373099999","2005-02-23T00:00:00","4","25.35","-105.75","1967.0","TEPEHUANES DGO., MX","FM-12","99999","V020","210,1,N,0040,1","03600,1,9,N","070000,1,N,1","+0162,1","+9999,9","10108,1","06,0000,9,1","24,0000,9,1",,,,"04,1,+00600,1,08,1",,,"08,99,1,04,1,02,1,00250,1,06,1,00,1",,"01,9",,"120,M,+0226,1","180,N,+0046,1","99999,9,08197,1","6,1,006,1,-007,1",,,"SYN130AAXX  23001 76373 32388 82104 10162 2//// 38197 40108 56006 84260 92350 333 10226 20046 30/// 50300 56660 59007 70000 84820 84360;","Q01  00002PRCP06"
"76373099999","2005-02-23T12:00:00","4","25.35","-105.75","1967.0","TEPEHUANES DGO., MX","FM-12","99999","V020","999,9,C,0000,1","22000,1,9,N","000400,1,N,1","+0014,1","+9999,9","10188,1","06,0000,9,1","24,0000,9,1",,,,"00,1,+99999,9,99,9",,,"00,99,1,00,1,00,1,99999,9,00,1,00,1",,"09,9","999,-0025,1","120,N,-0005,1","240,M,+0226,1","99999,9,08210,1","9,9,999,9,-001,1",,,"SYN100AAXX  23121 76373 32904 00000 10014 2//// 38210 40188 5//// 91155 333 10226 21005 31025 59001 70000;","Q01  00002PRCP06Q02  00002PRCP24"
"76373099999","2005-02-23T15:00:00","4","25.35","-105.75","1967.0","TEPEHUANES DGO., MX","FM-12","99999","V020","310,1,N,0010,1","22000,1,9,N","070000,1,N,1","+0030,1","+9999,9","10224,1","06,0000,9,1",,,,,"01,1,+03000,1,03,1",,,"01,99,1,01,1,00,1,01250,1,04,1,00,1",,"01,9",,,,"99999,9,08220,1","2,1,010,1,-004,1",,,"SYN100AAXX  23151 76373 32688 13101 10030 2//// 38220 40224 52010 81040 91455 333 30/// 56060 59004 81360;","Q01  00002PRCP06"
"76373099999","2005-02-23T21:00:00","4","25.35","-105.75","1967.0","TEPEHUANES DGO., MX","FM-12","99999","V020","300,1,N,0060,1","00300,1,9,N","070000,1,N,1","+0100,1","+9999,9","10178,1","01,0050,9,1",,,"5,1,03,1","9,1,03,1","08,1,+00300,1,07,1",,,"08,99,1,08,1,07,1,00450,1,99,9,99,9",,"09,9",,,,"99999,9,08208,1","5,1,000,1,-003,1",,"50,1","SYN112AAXX  23211 76373 21488 83006 10100 2//// 38208 40178 55000 75059 887// 92055 333 31/// 566// 59003 60055 88710;",
"76373099999","2005-02-24T00:00:00","4","25.35","-105.75","1967.0","TEPEHUANES DGO., MX","FM-12","99999","V020","999,9,C,0000,1","00210,1,9,N","070000,1,N,1","+0100,1","+9999,9","10146,1","24,9999,2,9",,,,,,,,"08,99,1,08,1,05,1,00250,1,00,1,00,1",,"09,9",,"120,M,+0216,1","180,N,-0015,1","99999,9,08195,1","6,1,013,1,-002,1",,,"SYN124AAXX  24001 76373 32388 80000 10100 2//// 38195 40146 56013 88500 92350 333 10216 21015 31/// 50360 56600 59002 79999 88620;","Q01  00002PRCP06"
"76373099999","2005-02-24T12:00:00","4","25.35","-105.75","1967.0","TEPEHUANES DGO., MX","FM-12","99999","V020","999,9,C,0000,1","22000,1,9,N","001000,1,N,1","+0020,1","+9999,9","10162,1","06,0000,9,1","24,0000,9,1",,,,"04,1,+00600,1,06,1",,,"04,99,1,04,1,03,1,00250,1,00,1,00,1",,"09,9","999,-0005,1","120,N,+0008,1","240,M,+0216,1","99999,9,08182,1","9,9,999,9,-028,1",,,"SYN118AAXX  24121 76373 32310 40000 10020 2//// 38182 40162 5//// 84300 91155 333 10216 20008 31005 56600 59028 70000 84620;","Q01  00002PRCP06"
"76373099999","2005-02-24T18:00:00","4","25.35","-105.75","1967.0","TEPEHUANES DGO., MX","FM-12","99999","V020","060,1,N,0010,1","99999,9,9,N","070000,1,N,1","+0124,1","+9999,9","10167,1","06,0000,9,1",,,,,"04,1,+00300,1,08,1",,,"06,99,1,04,1,06,1,00250,1,00,1,00,1",,"01,9",,"120,M,+0146,1","240,N,+0008,1","99999,9,08184,1","6,1,009,1,-024,1",,,"SYN118AAXX  24181 76373 32388 60601 10124 2//// 38184 40167 56009 84600 91750 333 10146 20008 30/// 56600 59024 84810 82910;","Q01  00002PRCP06"
"76373099999","2005-02-24T21:00:00","4","25.35","-105.75","1967.0","TEPEHUANES DGO., MX","FM-12","99999","V020","260,1,N,0050,1","99999,9,9,N","070000,1,N,1","+0198,1","+9999,9","10111,1","06,0000,9,1",,,,,"04,1,+00300,1,09,1",,,"06,99,1,04,1,03,1,00450,1,00,1,00,1",,"01,9",,,,"99999,9,08160,1","6,1,024,1,-048,1",,,"SYN106AAXX  24211 76373 32488 62605 10198 2//// 38160 40111 56024 84300 92058 333 30/// 56600 59048 84910 82810;","Q01  00002PRCP06"
"76373099999","2005-02-25T00:00:00","4","25.35","-105.75","1967.0","TEPEHUANES DGO., MX","FM-12","99999","V020","240,1,N,0060,1","22000,1,9,N","070000,1,N,1","+0160,1","+9999,9","10083,1","06,0000,9,1","24,0000,9,1",,,,"03,1,+00300,1,08,1",,,"04,99,1,04,1,02,1,00450,1,03,1,00,1",,"01,9",,"120,M,+0210,1","180,N,+0008,1","99999,9,08161,1","3,1,001,1,-034,1",,,"SYN130AAXX  25001 76373 32488 42406 10160 2//// 38161 40083 53001 84230 92355 333 10210 20008 30/// 50340 56660 59034 70000 83810 81360;","Q01  00002PRCP06"
"76373099999","2005-02-25T12:00:00","4","25.35","-105.75","1967.0","TEPEHUANES DGO., MX","FM-12","99999","V020","999,9,C,0000,1","00300,1,9,N","000200,1,N,1","+0040,1","+9999,9","10186,1","06,0000,9,1","24,0000,9,1",,,,"08,1,+00300,1,07,1",,,"08,99,1,08,1,06,1,00450,1,99,9,99,9",,"01,9","999,+0015,1","120,N,+0025,1","240,M,+0210,1","99999,9,08211,1","9,9,999,9,-029,1",,,"SYN118AAXX  25121 76373 32402 80000 10040 2//// 38211 40186 5//// 886// 91155 333 10210 20025 30015 566// 59029 70000 88710;","Q01  00002PRCP06"
"76373099999","2005-02-25T18:00:00","4","25.35","-105.75","1967.0","TEPEHUANES DGO., MX","FM-12","99999","V020","090,1,N,0010,1","00300,1,9,N","070000,1,N,1","+0124,1","+9999,9","10144,1","06,0000,9,1",,,,,"08,1,+00300,1,06,1",,,"08,99,1,08,1,06,1,00450,1,99,9,99,9",,"01,9",,"120,M,+0136,1","240,N,+0025,1","99999,9,08171,1","2,1,004,1,-013,1",,,"SYN112AAXX  25181 76373 32488 80901 10124 2//// 38171 40144 52004 886// 91750 333 10136 20025 30/// 566// 59013 88610;","Q01  00002PRCP06"
"76373099999","2005-02-25T21:00:00","4","25.35","-105.75","1967.0","TEPEHUANES DGO., MX","FM-12","99999","V020","240,1,N,0040,1","00300,1,9,N","070000,1,N,1","+0130,1","+9999,9","10111,1","06,0000,9,1",,,,,"08,1,+00300,1,06,1",,,"08,99,1,08,1,06,1,00450,1,99,9,99,9",,"01,9",,,,"99999,9,08156,1","6,1,015,1,-004,1",,,"SYN100AAXX  25211 76373 32488 82404 10130 2//// 38156 40111 56015 886// 92050 333 30/// 566// 59004 88610;","Q01  00002PRCP06"
"76373099999","2005-02-26T00:00:00","4","25.35","-105.75","1967.0","TEPEHUANES DGO., MX","FM-12","99999","V020","220,1,N,0030,1","03600,1,C,N","070000,1,N,1","+0112,1","+9999,9","10102,1","06,0000,9,1","24,0000,9,1",,,,"04,1,+00300,1,06,1",,,"08,99,1,04,1,06,1,00450,1,07,1,99,9",,"01,9",,"120,M,+0148,1","180,N,+0025,1","99999,9,08159,1","2,1,003,1,-002,1",,,"SYN124AAXX  26001 76373 32488 82203 10112 2//// 38159 40102 52003 8467/ 92350 333 10148 20025 30/// 5666/ 59002 70000 84610 88360;","Q01  00002PRCP06"
"76373099999","2005-02-26T15:00:00","4","25.35","-105.75","1967.0","TEPEHUANES DGO., MX","FM-12","99999","V020","999,9,C,0000,1","99999,9,9,N","030000,1,N,1","+0050,1","+9999,9","10139,1","03,0071,9,1",,,"5,1,03,1","2,1,03,1","02,1,+00300,1,07,1",,,"08,99,1,99,9,99,9,00250,1,99,9,99,9",,"11,9",,,,"99999,9,08168,1","9,9,999,9,-002,1",,"20,1","SYN112AAXX  26151 76373 12380 80000 10050 2//// 38168 40139 5//// 60077 72052 91450 333 32/// 56660 59002 82710 86360;",
"76373099999","2005-02-27T00:00:00","4","25.35","-105.75","1967.0","TEPEHUANES DGO., MX","FM-12","99999","V020","270,1,N,0030,1","22000,1,9,N","070000,1,N,1","+0118,1","+9999,9","10090,1","06,0000,9,1","24,0065,9,1",,,,,,,"03,99,1,03,1,03,1,00250,1,99,9,99,9",,"09,9",,"120,M,+0176,1","180,N,+0040,1","99999,9,08149,1","2,1,001,1,-010,1",,,"SYN124AAXX  27001 76373 32388 32703 10118 2//// 38149 40090 52001 833// 92350 333 10176 20040 31/// 50150 566// 59010 70065 83920;","Q01  00002PRCP06"
"76373099999","2005-02-27T15:00:00","4","25.35","-105.75","1967.0","TEPEHUANES DGO., MX","FM-12","99999","V020","999,9,C,0000,1","22000,1,9,N","070000,1,N,1","+0018,1","+9999,9","10199,1","06,0000,9,1",,,,,"00,1,+99999,9,99,9",,,"00,99,1,00,1,00,1,99999,9,00,1,00,1",,"01,9",,,,"99999,9,08192,1","9,9,999,9,+024,1",,,"SYN082AAXX  27151 76373 32988 00000 10018 2//// 38192 40199 5//// 91450 333 30/// 58024;","Q01  00002PRCP06"
"76373099999","2005-02-27T18:00:00","4","25.35","-105.75","1967.0","TEPEHUANES DGO., MX","FM-12","99999","V020","999,9,C,0000,1","09000,1,9,N","070000,1,N,1","+0102,1","+9999,9","10186,1","06,0000,9,1",,,,,"08,1,+09000,1,00,1",,,"08,99,1,00,1,00,1,99999,9,00,1,04,1",,"01,9",,"120,M,+0144,1","240,N,-0024,1","99999,9,08187,1","6,1,005,1,+006,1",,,"SYN112AAXX  27181 76373 32988 80000 10102 2//// 38187 40186 56005 80004 91750 333 10144 21024 30/// 56006 58006 88080;","Q01  00002PRCP06"
"76373099999","2005-02-27T21:00:00","4","25.35","-105.75","1967.0","TEPEHUANES DGO., MX","FM-12","99999","V020","300,1,N,0060,1","09000,1,9,N","070000,1,N,1","+0178,1","+9999,9","10129,1","06,0000,9,1",,,,,"08,1,+09000,1,00,1",,,"08,99,1,00,1,00,1,99999,9,00,1,04,1",,"01,9",,,,"99999,9,08163,1","6,1,024,1,+015,1",,,"SYN100AAXX  27211 76373 32988 83006 10178 2//// 38163 40129 56024 80004 92055 333 30/// 56006 58015 88080;","Q01  00002PRCP06"
"76373099999","2005-02-28T00:00:00","4","25.35","-105.75","1967.0","TEPEHUANES DGO., MX","FM-12","99999","V020","300,1,N,0060,1","99999,9,9,N","070000,1,N,1","+0168,1","+9999,9","10083,1","06,0000,9,1","24,0000,9,1",,,,,,,"08,99,1,00,1,00,1,99999,9,00,1,04,1",,"01,9",,"120,M,+0204,1","180,N,-0024,1","99999,9,08147,1","6,1,016,1,-002,1",,,"SYN124AAXX  28001 76373 32988 83006 10168 2//// 38147 40083 56016 80004 92350 333 10204 21024 30/// 50340 56006 59002 70000 88080;","Q01  00002PRCP06"
"76373099999","2005-02-28T12:00:00","4","25.35","-105.75","1967.0","TEPEHUANES DGO., MX","FM-12","99999","V020","999,9,C,0000,1","22000,1,9,N","000200,1,N,1","+0000,1","+9999,9","10193,1","06,0000,9,1","24,0000,9,1",,,,"00,1,+99999,9,99,9",,,"00,99,1,00,1,00,1,99999,9,00,1,00,1",,"09,9","999,-0030,1","120,N,-0018,1","240,M,+0204,1","99999,9,08206,1",,,,"SYN100AAXX  28121 76373 32902 00000 10000 2//// 38206 40193 5//// 91150 333 10204 21018 31030 58/// 70000;","Q01  00002PRCP06Q02  00002PRCP24"
"76373099999","2005-02-28T18:00:00","4","25.35","-105.75","1967.0","TEPEHUANES DGO., MX","FM-12","99999","V020","120,1,N,0030,1","06000,1,9,N","030000,1,N,1","+0124,1","+9999,9","10219,1","06,0000,9,1",,,,,"08,1,+06000,1,02,1",,,"08,99,1,00,1,00,1,99999,9,00,1,07,1",,"01,9",,"120,M,+0146,1","240,N,-0025,1","99999,9,08215,1","6,1,010,1,+031,1",,,"SYN118AAXX  28181 76373 32980 81203 10124 2//// 38215 40219 56010 80007 91750 333 10146 21025 30/// 56006 58031 88270 99020;","Q01  00002PRCP06"
"76373099999","2005-02-28T21:00:00","4","25.35","-105.75","1967.0","TEPEHUANES DGO., MX","FM-12","99999","V020","999,9,C,0000,1","99999,9,9,N","070000,1,N,1","+0176,1","+9999,9","10148,2","06,0000,9,1",,,,,"02,1,+03000,1,03,1",,,"08,99,1,02,1,00,1,99999,9,03,1,08,1",,"01,9",,,,"99999,9,08178,1","7,1,037,1,+015,1",,,"SYN106AAXX  28211 76373 32988 80000 10176 2//// 38178 40148 57037 82038 92055 333 30/// 56066 58015 82360 86270;","Q01  00002PRCP06"
"76373099999","2005-03-01T00:00:00","4","25.35","-105.75","1967.0","TEPEHUANES DGO., MX","FM-12","99999","V020","999,9,C,0000,1","99999,9,9,N","070000,1,N,1","+0190,1","+9999,9","10090,2","06,0000,9,1","24,0000,9,1",,,,,,,"08,99,1,00,1,00,1,99999,9,00,1,04,1",,"01,9",,"120,M,+0208,1","180,N,-0025,1","99999,9,08160,1","6,1,018,1,+013,1",,,"SYN124AAXX  01001 76373 32988 80000 10190 2//// 38160 40090 56018 80004 92345 333 10208 21025 30/// 50460 56006 58013 70000 88080;","Q01  00002PRCP06"
"76373099999","2005-03-01T12:00:00","4","25.35","-105.75","1967.0","TEPEHUANES DGO., MX","FM-12","99999","V020","220,1,N,0010,1","22000,1,9,N","000400,1,N,1","+0010,1","+9999,9","10146,1","06,0000,9,1","24,0000,9,1",,,,"00,1,+99999,9,99,9",,,"00,99,1,00,1,00,1,99999,9,00,1,00,1",,"09,9","999,-0025,1","120,N,-0005,1","240,M,+0208,1","99999,9,08180,1","9,9,999,9,-026,1",,,"SYN100AAXX  01121 76373 32904 02201 10010 2//// 38180 40146 5//// 91150 333 10208 21005 31025 59026 70000;","Q01  00002PRCP06Q02  00002PRCP24"
"76373099999","2005-03-01T15:00:00","4","25.35","-105.75","1967.0","TEPEHUANES DGO., MX","FM-12","99999","V020","999,9,C,0000,1","22000,1,9,N","070000,1,N,1","+0026,1","+9999,9","10198,1","06,0000,9,1",,,,,"01,1,+03000,1,03,1",,,"02,99,1,01,1,00,1,01250,1,03,1,02,1",,"01,9",,,,"99999,9,08199,1","2,1,019,1,-026,1",,,"SYN106AAXX  01151 76373 32688 20000 10026 2//// 38199 40198 52019 81032 91453 333 30/// 56066 59026 81360 81070;","Q01  00002PRCP06"
"76373099999","2005-03-01T18:00:00","4","25.35","-105.75","1967.0","TEPEHUANES DGO., MX","FM-12","99999","V020","300,1,N,0020,1","22000,1,9,N","070000,1,N,1","+0266,2","+9999,9","10172,1","06,0000,9,1",,,,,"01,1,+03000,1,03,1",,,"02,99,1,01,1,00,1,01250,1,03,1,02,1",,"01,9",,"120,M,+9999,9","240,N,-0015,1","99999,9,08182,1","6,1,017,1,-033,1",,,"SYN118AAXX  01181 76373 32688 23002 10266 2//// 38182 40172 56017 81032 91750 333 10184 21015 30/// 56066 59033 81360 81070;","Q01  00002PRCP06Q02 +01842ATMX  "
"76373099999","2005-03-01T21:00:00","4","25.35","-105.75","1967.0","TEPEHUANES DGO., MX","FM-12","99999","V020","270,1,N,0060,1","09000,1,C,N","070000,1,N,1","+0216,2","+9999,9","10106,2","06,0000,9,1",,,,,"04,1,+03000,1,03,1",,,"06,99,1,04,1,00,1,01250,1,03,1,02,1",,"01,9",,,,"99999,9,08159,1","7,1,023,1,-019,1",,,"SYN106AAXX  01211 76373 32688 62706 10216 2//// 38159 40106 57023 84032 92055 333 30/// 56066 59019 84360 82070;","Q01  00002PRCP06"
"76373099999","2005-03-02T00:00:00","4","25.35","-105.75","1967.0","TEPEHUANES DGO., MX","FM-12","99999","V020","270,1,N,0060,1","01200,1,9,N","070000,1,N,1","+0190,1","+9999,9","10060,1","06,0000,9,1","24,0000,9,1",,,,,,,"08,99,1,08,1,00,1,01250,1,03,1,00,1",,"01,9",,"120,M,+0232,1","180,N,-0015,1","99999,9,08148,1","6,1,011,1,-012,1",,,"SYN124AAXX  02001 76373 32688 82706 10190 2//// 38148 40060 56011 88030 92350 333 10232 21015 30/// 50600 56060 59012 70000 88360;","Q01  00002PRCP06"
"76373099999","2005-03-02T12:00:00","4","25.35","-105.75","1967.0","TEPEHUANES DGO., MX","FM-12","99999","V020","210,1,N,0010,1","03000,1,9,N","000100,1,N,1","+0094,1","+9999,9","10106,1","06,0000,9,1","24,0000,9,1",,,,"08,1,+03000,1,05,1",,,"08,99,1,08,1,00,1,01250,1,02,1,99,9",,"01,9","999,+0065,1","120,N,+0070,1","240,M,+0232,1","99999,9,08178,1","9,9,999,9,-002,1",,,"SYN118AAXX  02121 76373 32601 82101 10094 2//// 38178 40106 5//// 8802/ 91155 333 10232 20070 30065 5606/ 59002 70000 88560;","Q01  00002PRCP06"
"76373099999","2005-03-02T15:00:00","4","25.35","-105.75","1967.0","TEPEHUANES DGO., MX","FM-12","99999","V020","240,1,N,0020,1","00300,1,9,N","070000,1,N,1","+0094,1","+9999,9","10148,1","02,9999,2,9",,,"5,1,03,1","2,1,03,1","08,1,+00300,1,07,1",,,"08,99,1,08,1,07,1,00250,1,99,9,99,9",,"09,9",,,,"99999,9,08202,1","2,1,024,1,+003,1",,"50,1","SYN112AAXX  02151 76373 21388 82402 10094 2//// 38202 40148 52024 75052 887// 91455 333 31/// 566// 58003 69906 88710;",
"76373099999","2005-03-02T18:00:00","4","25.35","-105.75","1967.0","TEPEHUANES DGO., MX","FM-12","99999","V020","210,1,N,0010,1","00300,1,9,N","006000,1,N,1","+0094,1","+9999,9","10162,1","03,0010,9,1",,,"6,1,06,1","5,1,06,1","08,1,+00300,1,06,1",,,"08,99,1,08,1,07,1,00250,1,99,9,99,9",,"09,9",,"120,M,+0104,1","240,N,+0070,1","99999,9,08205,1","2,1,003,1,+017,1",,"51,1","SYN130AAXX  02181 76373 01356 82101 10094 2//// 38205 40162 52003 60017 75165 887// 91750 333 10104 20070 31/// 566// 58017 60017 88610;",
"76373099999","2005-03-03T00:00:00","4","25.35","-105.75","1967.0","TEPEHUANES DGO., MX","FM-12","99999","V020","240,1,N,0020,1","00210,1,9,N","070000,1,N,1","+0122,1","+9999,9","10113,1","06,0000,2,1","24,0011,9,1",,,,,,,"08,99,1,08,1,07,1,00250,1,99,9,99,9",,"09,9",,"120,M,+0138,1","180,N,+0070,1","99999,9,08169,1","6,1,018,1,+020,1",,,"SYN124AAXX  03001 76373 32388 82402 10122 2//// 38169 40113 56018 887// 92350 333 10138 20070 31/// 50200 566// 58020 70011 88710;",
"76373099999","2005-03-03T12:00:00","4","25.35","-105.75","1967.0","TEPEHUANES DGO., MX","FM-12","99999","V020","999,9,C,0000,1","22000,1,9,N","000200,1,N,1","-0006,1","+9999,9","10207,1","06,0000,9,1","24,0000,9,1",,,,"01,1,+06000,1,00,1",,,"01,99,1,00,1,00,1,99999,9,00,1,02,1",,"09,9","999,-0045,1","120,N,-0022,1","240,M,+0138,1","99999,9,08214,1","9,9,999,9,+036,1",,,"SYN118AAXX  03121 76373 32902 10000 11006 2//// 38214 40207 5//// 80002 91158 333 10138 21022 31045 56006 58036 70000 81070;","Q01  00002PRCP06"
"76373099999","2005-03-03T15:00:00","4","25.35","-105.75","1967.0","TEPEHUANES DGO., MX","FM-12","99999","V020","999,9,C,0000,1","22000,1,9,N","070000,1,N,1","+0030,1","+9999,9","10245,1","06,0000,9,1",,,,,"00,1,+99999,9,99,9",,,"00,99,1,00,1,00,1,99999,9,00,1,00,1",,"01,9",,,,"99999,9,08229,1","2,1,015,1,+027,1",,,"SYN082AAXX  03151 76373 32988 00000 10030 2//// 38229 40245 52015 91450 333 30/// 58027;","Q01  00002PRCP06"
"76373099999","2005-03-03T21:00:00","4","25.35","-105.75","1967.0","TEPEHUANES DGO., MX","FM-12","99999","V020","020,1,N,0030,1","22000,1,9,N","070000,1,N,1","+0202,2","+9999,9","10148,2","06,0000,9,1",,,,,"01,1,+06000,1,00,1",,,"01,99,1,00,1,00,1,99999,9,00,1,02,1",,"01,9",,,,"99999,9,08178,1","7,1,043,1,-009,1",,,"SYN100AAXX  03211 76373 32988 10203 10202 2//// 38178 40148 57043 80002 92058 333 30/// 56006 59009 81070;","Q01  00002PRCP06"
"76373099999","2005-03-04T12:00:00","4","25.35","-105.75","1967.0","TEPEHUANES DGO., MX","FM-12","99999","V020","999,9,C,0000,1","06000,1,9,N","000200,1,N,1","+0018,1","+9999,9","10172,1","06,0000,9,1","24,0000,9,1",,,,"08,1,+06000,1,02,1",,,"08,99,1,00,1,00,1,99999,9,00,1,07,1",,"09,9","999,-0015,1","120,N,+0002,1","240,M,+0236,1","99999,9,08199,1","9,9,999,9,-015,1",,,"SYN118AAXX  04121 76373 32902 80000 10018 2//// 38199 40172 5//// 80007 91155 333 10236 20002 31015 56006 59015 70000 88270;","Q01  00002PRCP06"
"76373099999","2005-03-04T15:00:00","4","25.35","-105.75","1967.0","TEPEHUANES DGO., MX","FM-12","99999","V020","999,9,C,0000,1","00900,1,9,N","070000,1,N,1","+0030,1","+9999,9","10207,1","06,0000,9,1",,,,,"08,1,+00900,1,07,1",,,"08,99,1,08,1,06,1,00450,1,99,9,99,9",,"01,9",,,,"99999,9,08210,1","2,1,011,1,-019,1",,,"SYN100AAXX  04151 76373 32488 80000 10030 2//// 38210 40207 52011 886// 91455 333 30/// 560// 59019 88730;","Q01  00002PRCP06"
"76373099999","2005-03-04T18:00:00","4","25.35","-105.75","1967.0","TEPEHUANES DGO., MX","FM-12","99999","V020","180,1,N,0010,1","03000,1,9,N","070000,1,N,1","+0116,1","+9999,9","10195,1","06,0000,9,1",,,,,"08,1,+03000,1,03,1",,,"08,99,1,08,1,00,1,01250,1,07,1,00,1",,"01,9",,"120,M,+0136,1","240,N,+0002,1","99999,9,08203,1","8,1,007,1,-018,1",,,"SYN112AAXX  04181 76373 32688 81801 10116 2//// 38203 40195 58007 88070 91750 333 10136 20002 30/// 56060 59018 88360;","Q01  00002PRCP06"
"76373099999","2005-03-04T21:00:00","4","25.35","-105.75","1967.0","TEPEHUANES DGO., MX","FM-12","99999","V020","320,1,N,0010,1","03000,1,9,N","070000,1,N,1","+0160,1","+9999,9","10153,1","06,0000,9,1",,,,,"08,1,+03000,1,04,1",,,"08,99,1,08,1,00,1,01250,1,02,1,00,1",,"01,9",,,,"99999,9,08184,1","6,1,019,1,+006,1",,,"SYN100AAXX  04211 76373 32688 83201 10160 2//// 38184 40153 56019 88020 92050 333 30/// 56060 58006 88460;","Q01  00002PRCP06"
"76373099999","2005-03-05T00:00:00","4","25.35","-105.75","1967.0","TEPEHUANES DGO., MX","FM-12","99999","V020","280,1,N,0030,1","03000,1,C,N","070000,1,N,1","+0180,1","+9999,9","10106,1","06,0000,9,1","24,0000,9,1",,,,"07,1,+03000,1,03,1",,,"08,99,1,08,1,00,1,01250,1,03,1,02,1",,"01,9",,"120,M,+0196,1","180,N,+0002,1","99999,9,08170,1","7,1,014,1,-001,1",,,"SYN130AAXX  05001 76373 32688 82803 10180 2//// 38170 40106 57014 88032 92350 333 10196 20002 30/// 50450 56066 59001 70000 87360 81070;","Q01  00002PRCP06"
"76373099999","2005-03-05T18:00:00","4","25.35","-105.75","1967.0","TEPEHUANES DGO., MX","FM-12","99999","V020","999,9,C,0000,1","03000,1,9,N","070000,1,N,1","+0126,1","+9999,9","10167,1","06,0000,9,1",,,,,"08,1,+03000,1,04,1",,,"08,99,1,08,1,00,1,01250,1,01,1,99,9",,"01,9",,"120,M,+0138,1","240,N,+0052,1","99999,9,08216,1","6,1,006,1,+013,1",,,"SYN112AAXX  05181 76373 32688 80000 10126 2//// 38216 40167 56006 8801/ 91750 333 10138 20052 30/// 5606/ 58013 88460;","Q01  00002PRCP06"
"76373099999","2005-03-05T21:00:00","4","25.35","-105.75","1967.0","TEPEHUANES DGO., MX","FM-12","99999","V020","360,1,N,0010,1","03600,1,C,N","070000,1,N,1","+0172,1","+9999,9","10139,1","06,0000,9,1",,,,,"04,1,+00600,1,08,1",,,"08,99,1,04,1,02,1,00250,1,01,1,00,1",,"01,9",,,,"99999,9,08201,1","6,1,015,1,+017,1",,,"SYN106AAXX  05211 76373 32388 83601 10172 2//// 38201 40139 56015 84210 92050 333 30/// 56660 58017 84820 84460;","Q01  00002PRCP06"
"76373099999","2005-03-06T00:00:00","4","25.35","-105.75","1967.0","TEPEHUANES DGO., MX","FM-12","99999","V020","210,1,N,0040,1","03600,1,9,N","070000,1,N,1","+0166,1","+9999,9","10111,1","06,0000,9,1","24,0000,9,1",,,,"03,1,+00600,1,08,1","01,1,+03000,1,03,1",,"08,99,1,03,1,02,1,00250,1,03,1,06,1",,"01,9",,"120,M,+0198,1","180,N,+0052,1","99999,9,08187,1","6,1,014,1,+017,1",,,"SYN136AAXX  06001 76373 32388 82104 10166 2//// 38187 40111 56014 83236 92355 333 10198 20052 30/// 50170 56666 58017 70000 83820 81360 84080;","Q01  00002PRCP06"
"76373099999","2005-03-06T15:00:00","4","25.35","-105.75","1967.0","TEPEHUANES DGO., MX","FM-12","99999","V020","999,9,C,0000,1","22000,1,9,N","070000,1,N,1","+0056,1","+9999,9","10172,1","06,0000,9,1",,,,,"00,1,+99999,9,99,9",,,"00,99,1,00,1,00,1,99999,9,00,1,00,1",,"01,9",,,,"99999,9,08199,1","9,9,999,9,-023,1",,,"SYN082AAXX  06151 76373 32988 00000 10056 2//// 38199 40172 5//// 91450 333 30/// 59023;","Q01  00002PRCP06"
"76373099999","2005-03-06T18:00:00","4","25.35","-105.75","1967.0","TEPEHUANES DGO., MX","FM-12","99999","V020","250,1,N,0080,1","22000,1,9,N","070000,1,N,1","+0148,1","+9999,9","10148,1","06,0000,9,1",,,,,"04,1,+09000,1,00,1",,,"04,99,1,00,1,00,1,99999,9,00,1,04,1",,"01,9",,"120,M,+0168,1","240,N,-0012,1","99999,9,08181,1","6,1,018,1,-035,1",,,"SYN112AAXX  06181 76373 32988 42508 10148 2//// 38181 40148 56018 80004 91750 333 10168 21012 30/// 56006 59035 84080;","Q01  00002PRCP06"
"76373099999","2005-03-07T12:00:00","4","25.35","-105.75","1967.0","TEPEHUANES DGO., MX","FM-12","99999","V020","999,9,C,0000,1","22000,1,9,N","000300,1,N,1","+0014,1","+9999,9","10151,1","06,0000,9,1","24,0000,9,1",,,,"00,1,+99999,9,99,9",,,"00,99,1,00,1,00,1,99999,9,00,1,00,1",,"09,9","999,-0022,1","120,N,-0005,1","240,M,+0228,1","99999,9,08181,1",,,,"SYN100AAXX  07121 76373 32903 00000 10014 2//// 38181 40151 5//// 91158 333 10228 21005 31022 58/// 70000;","Q01  00002PRCP06Q02  00002PRCP24"
"76373099999","2005-03-07T15:00:00","4","25.35","-105.75","1967.0","TEPEHUANES DGO., MX","FM-12","99999","V020","310,1,N,0010,1","22000,1,9,N","070000,1,N,1","+0036,1","+9999,9","10193,1","06,0000,9,1",,,,,"00,1,+99999,9,99,9",,,"00,99,1,00,1,00,1,99999,9,00,1,00,1",,"01,9",,,,"99999,9,08197,1","2,1,016,1,-006,1",,,"SYN082AAXX  07151 76373 32988 03101 10036 2//// 38197 40193 52016 91459 333 30/// 59006;","Q01  00002PRCP06"
"76373099999","2005-03-07T18:00:00","4","25.35","-105.75","1967.0","TEPEHUANES DGO., MX","FM-12","99999","V020","300,1,N,0020,1","22000,1,9,N","070000,1,N,1","+0154,2","+9999,9","10170,1","06,0000,9,1",,,,,"00,1,+99999,9,99,9",,,"00,99,1,00,1,00,1,99999,9,00,1,00,1",,"01,9",,"120,M,+0170,1","240,N,-0014,1","99999,9,08188,1","8,1,009,1,+007,1",,,"SYN094AAXX  07181 76373 32988 03002 10154 2//// 38188 40170 58009 91750 333 10170 21014 30/// 58007;","Q01  00002PRCP06"
"76373099999","2005-03-08T12:00:00","4","25.35","-105.75","1967.0","TEPEHUANES DGO., MX","FM-12","99999","V020","999,9,C,0000,1","22000,1,9,N","000300,1,N,1","-0010,1","+9999,9","10130,1","06,0000,9,1","24,0000,9,1",,,,"00,1,+99999,9,99,9",,,"00,99,1,00,1,00,1,99999,9,00,1,00,1",,"09,9","999,-0040,1","120,N,-0024,1","240,M,+0228,1","99999,9,08173,1","9,9,999,9,-008,1",,,"SYN100AAXX  08121 76373 32903 00000 11010 2//// 38173 40130 5//// 91145 333 10228 21024 31040 59008 70000;","Q01  00002PRCP06Q02  00002PRCP24"
"76373099999","2005-03-08T15:00:00","4","25.35","-105.75","1967.0","TEPEHUANES DGO., MX","FM-12","99999","V020","999,9,C,0000,1","03000,1,9,N","070000,1,N,1","+0024,1","+9999,9","10191,2","06,0000,9,1",,,,,"03,1,+00600,1,06,1","04,1,+03000,1,03,1",,"08,99,1,03,1,04,1,00450,1,03,1,00,1",,"01,9",,,,"99999,9,08185,1","2,1,012,1,-012,1",,,"SYN112AAXX  08151 76373 32488 80000 10024 2//// 38185 40191 52012 83430 91450 333 30/// 56660 59012 83620 84360 81560;","Q01  00002PRCP06"
"76373099999","2005-03-08T21:00:00","4","25.35","-105.75","1967.0","TEPEHUANES DGO., MX","FM-12","99999","V020","240,1,N,0020,1","09000,1,C,N","070000,1,N,1","+0154,1","+9999,9","10125,1","06,0000,9,1",,,,,"04,1,+00300,1,07,1",,,"08,99,1,04,1,06,1,00450,1,00,1,02,1",,"01,9",,,,"99999,9,08155,1","6,1,025,1,-008,1",,,"SYN106AAXX  08211 76373 32488 82402 10154 2//// 38155 40125 56025 84602 92050 333 30/// 56606 59008 84710 84070;","Q01  00002PRCP06"
"76373099999","2005-03-09T15:00:00","4","25.35","-105.75","1967.0","TEPEHUANES DGO., MX","FM-12","99999","V020","999,9,C,0000,1","22000,1,9,N","070000,1,N,1","+0016,1","+9999,9","10233,1","06,0000,9,1",,,,,"00,1,+99999,9,99,9",,,"00,99,1,00,1,00,1,99999,9,00,1,00,1",,"01,9",,,,"99999,9,08215,1","2,1,011,1,+030,1",,,"SYN082AAXX  09151 76373 32988 00000 10016 2//// 38215 40233 52011 91445 333 30/// 58030;","Q01  00002PRCP06"
"76373099999","2005-03-09T18:00:00","4","25.35","-105.75","1967.0","TEPEHUANES DGO., MX","FM-12","99999","V020","150,1,N,0030,1","22000,1,9,N","070000,1,N,1","+0148,1","+9999,9","10214,1","06,0000,9,1",,,,,"03,1,+00300,1,08,1",,,"03,99,1,03,1,01,1,00250,1,00,1,00,1",,"01,9",,"120,M,+0166,1","240,N,-0030,1","99999,9,08212,1","8,1,003,1,+032,1",,,"SYN112AAXX  09181 76373 32388 31503 10148 2//// 38212 40214 58003 83100 91750 333 10166 21030 30/// 56600 58032 83810;","Q01  00002PRCP06"
"76373099999","2005-03-09T21:00:00","4","25.35","-105.75","1967.0","TEPEHUANES DGO., MX","FM-12","99999","V020","050,1,N,0020,1","00600,1,9,N","070000,1,N,1","+0180,1","+9999,9","10158,1","06,0000,9,1",,,,,"06,1,+00600,1,08,1",,,"06,99,1,06,1,02,1,00450,1,00,1,00,1",,"01,9",,,,"99999,9,08190,1","7,1,022,1,+035,1",,,"SYN100AAXX  09211 76373 32488 60502 10180 2//// 38190 40158 57022 86200 92045 333 30/// 56600 58035 86820;","Q01  00002PRCP06"
"76373099999","2005-03-10T12:00:00","4","25.35","-105.75","1967.0","TEPEHUANES DGO., MX","FM-12","99999","V020","999,9,C,0000,1","22000,1,9,N","000300,1,N,1","+0004,1","+9999,9","10188,1","06,0000,9,1","24,0000,9,1",,,,"00,1,+99999,9,99,9",,,"00,99,1,00,1,00,1,99999,9,00,1,00,1",,"09,9","999,-0035,1","120,N,-0016,1","240,M,+0206,1","99999,9,08208,1","9,9,999,9,+004,1",,,"SYN100AAXX  10121 76373 32903 00000 10004 2//// 38208 40188 5//// 91148 333 10206 21016 31035 58004 70000;","Q01  00002PRCP06Q02  00002PRCP24"
"76373099999","2005-03-10T15:00:00","4","25.35","-105.75","1967.0","TEPEHUANES DGO., MX","FM-12","99999","V020","999,9,C,0000,1","22000,1,9,N","070000,1,N,1","+0034,1","+9999,9","10221,1","06,0000,9,1",,,,,"00,1,+99999,9,99,9",,,"00,99,1,00,1,00,1,99999,9,00,1,00,1",,"01,9",,,,"99999,9,08216,1","3,1,008,1,+001,1",,,"SYN082AAXX  10151 76373 32988 00000 10034 2//// 38216 40221 53008 91448 333 30/// 58001;","Q01  00002PRCP06"
"76373099999","2005-03-10T18:00:00","4","25.35","-105.75","1967.0","TEPEHUANES DGO., MX","FM-12","99999","V020","120,1,N,0040,1","22000,1,9,N","070000,1,N,1","+0162,1","+9999,9","10195,1","06,0000,9,1",,,,,"00,1,+99999,9,99,9",,,"00,99,1,00,1,00,1,99999,9,00,1,00,1",,"01,9",,"120,M,+0178,1","240,N,-0022,1","99999,9,08205,1","6,1,011,1,-007,1",,,"SYN094AAXX  10181 76373 32988 01204 10162 2//// 38205 40195 56011 91750 333 10178 21022 30/// 59007;","Q01  00002PRCP06"
"76373099999","2005-03-11T18:00:00","4","25.35","-105.75","1967.0","TEPEHUANES DGO., MX","FM-12","99999","V020","150,1,N,0010,1","22000,1,9,N","070000,1,N,1","+0176,1","+9999,9","10181,1","06,0000,9,1",,,,,"02,1,+00300,1,08,1",,,"02,99,1,02,1,01,1,00450,1,00,1,00,1",,"01,9",,"120,M,+0198,1","240,N,+0003,1","99999,9,08210,1","8,1,002,1,+005,1",,,"SYN112AAXX  11181 76373 32488 21501 10176 2//// 38210 40181 58002 82100 91750 333 10198 20003 30/// 56600 58005 82810;","Q01  00002PRCP06"
"76373099999","2005-03-11T21:00:00","4","25.35","-105.75","1967.0","TEPEHUANES DGO., MX","FM-12","99999","V020","130,1,N,0040,1","99999,9,9,N","070000,1,N,1","+0222,1","+9999,9","10125,1","06,0000,9,1",,,,,"03,1,+00300,1,09,1",,,"06,99,1,03,1,03,1,00450,1,00,1,00,1",,"01,9",,,,"99999,9,08188,1","6,1,022,1,+023,1",,,"SYN106AAXX  11211 76373 32488 61304 10222 2//// 38188 40125 56022 83300 92050 333 30/// 56600 58023 83910 83810;","Q01  00002PRCP06"
"76373099999","2005-03-12T00:00:00","4","25.35","-105.75","1967.0","TEPEHUANES DGO., MX","FM-12","99999","V020","060,1,N,0020,1","00300,1,C,N","070000,1,N,1","+0196,1","+9999,9","10086,1","03,0000,2,1","24,9999,2,9",,"9,1,06,1","5,1,06,1","03,1,+00300,1,09,1","03,1,+00300,1,08,1",,"08,99,1,99,9,07,1,00450,1,03,1,00,1",,"01,9",,"120,M,+0240,1","180,N,+0003,1","99999,9,08182,1","6,1,006,1,+028,1",,"50,1","SYN154AAXX  12001 76373 01488 80602 10196 2//// 38182 40086 56006 69907 75095 88730 92355 333 10240 20003 30/// 50400 56660 58028 69907 79999 83910 83810 82360;",
"76373099999","2005-03-12T15:00:00","4","25.35","-105.75","1967.0","TEPEHUANES DGO., MX","FM-12","99999","V020","999,9,C,0000,1","22000,1,9,N","070000,1,N,1","+0044,1","+9999,9","10200,1","06,0000,9,1",,,,,"00,1,+99999,9,99,9",,,"00,99,1,00,1,00,1,99999,9,00,1,00,1",,"01,9",,,,"99999,9,08212,1","9,9,999,9,+000,1",,,"SYN082AAXX  12151 76373 32988 00000 10044 2//// 38212 40200 5//// 91440 333 30/// 58000;","Q01  00002PRCP06"
"76373099999","2005-03-12T18:00:00","4","25.35","-105.75","1967.0","TEPEHUANES DGO., MX","FM-12","99999","V020","999,9,C,0000,1","22000,1,9,N","070000,1,N,1","+0174,1","+9999,9","10188,1","06,0000,9,1",,,,,"00,1,+99999,9,99,9",,,"00,99,1,00,1,00,1,99999,9,00,1,00,1",,"01,9",,"120,M,+0196,1","240,N,-0004,1","99999,9,08206,1","6,1,006,1,-004,1",,,"SYN094AAXX  12181 76373 32988 00000 10174 2//// 38206 40188 56006 91750 333 10196 21004 30/// 59004;","Q01  00002PRCP06"
"76373099999","2005-03-12T21:00:00","4","25.35","-105.75","1967.0","TEPEHUANES DGO., MX","FM-12","99999","V020","240,1,N,0050,1","22000,1,9,N","070000,1,N,1","+0236,1","+9999,9","10144,1","06,0000,9,1",,,,,"00,1,+99999,9,99,9",,,"00,99,1,00,1,00,1,99999,9,00,1,00,1",,"01,9",,,,"99999,9,08183,1","6,1,023,1,-005,1",,,"SYN082AAXX  12211 76373 32988 02405 10236 2//// 38183 40144 56023 92050 333 30/// 59005;","Q01  00002PRCP06"
"76373099999","2005-03-13T00:00:00","4","25.35","-105.75","1967.0","TEPEHUANES DGO., MX","FM-12","99999","V020","270,1,N,0090,1","22000,1,9,N","070000,1,N,1","+0202,1","+9999,9","10086,1","06,0000,9,1","24,0000,9,1",,,,,,,"01,99,1,00,1,00,1,99999,9,00,1,04,1",,"01,9",,"120,M,+0254,1","180,N,-0004,1","99999,9,08169,1","6,1,014,1,-013,1",,,"SYN124AAXX  13001 76373 32988 12709 10202 2//// 38169 40086 56014 80004 92350 333 10254 21004 30/// 50490 56006 59013 70000 81080;","Q01  00002PRCP06"
"76373099999","2005-03-13T15:00:00","4","25.35","-105.75","1967.0","TEPEHUANES DGO., MX","FM-12","99999","V020","320,1,N,0010,1","22000,1,9,N","070000,1,N,1","+0040,1","+9999,9","10171,1","06,0000,9,1",,,,,"02,1,+09000,1,00,1",,,"02,99,1,00,1,00,1,99999,9,00,1,04,1",,"01,9",,,,"99999,9,08210,1","9,9,999,9,-002,1",,,"SYN100AAXX  13151 76373 32988 23201 10040 2//// 38210 40171 5//// 80004 91440 333 30/// 56006 59002 82080;","Q01  00002PRCP06"
"76373099999","2005-03-13T18:00:00","4","25.35","-105.75","1967.0","TEPEHUANES DGO., MX","FM-12","99999","V020","030,1,N,0020,1","22000,1,9,N","070000,1,N,1","+0152,1","+9999,9","10079,1","06,0000,9,1",,,,,"00,1,+99999,9,99,9",,,"00,99,1,00,1,00,1,99999,9,00,1,00,1",,"01,9",,"120,M,+0200,1","240,N,+0006,1","99999,9,08208,1","6,1,004,1,+002,1",,,"SYN094AAXX  13181 76373 32988 00302 10152 2//// 38208 40079 56004 91740 333 10200 20006 30/// 58002;","Q01  00002PRCP06"
"76373099999","2005-03-13T21:00:00","4","25.35","-105.75","1967.0","TEPEHUANES DGO., MX","FM-12","99999","V020","210,1,N,0050,1","22000,1,9,N","070000,1,N,1","+0238,2","+9999,9","10111,1","06,0000,9,1",,,,,"00,1,+99999,9,99,9",,,"00,99,1,00,1,00,1,99999,9,00,1,00,1",,"01,9",,,,"99999,9,08175,1","6,1,033,1,-008,1",,,"SYN082AAXX  13211 76373 32988 02105 10238 2//// 38175 40111 56033 92050 333 30/// 59008;","Q01  00002PRCP06"
"76373099999","2005-03-14T00:00:00","4","25.35","-105.75","1967.0","TEPEHUANES DGO., MX","FM-12","99999","V020","240,1,N,0030,1","22000,1,9,N","070000,1,N,1","+0228,1","+9999,9","10074,1","06,0000,9,1","24,0000,9,1",,,,"00,1,+99999,9,99,9",,,"00,99,1,00,1,00,1,99999,9,00,1,00,1",,"01,9",,"120,M,+0256,1","180,N,+0006,1","99999,9,08170,1","6,1,005,1,+001,1",,,"SYN106AAXX  14001 76373 32988 02403 10228 2//// 38170 40074 56005 92350 333 10256 20006 30/// 50760 58001 70000;","Q01  00002PRCP06Q02  00002PRCP24"
"76373099999","2005-03-14T21:00:00","4","25.35","-105.75","1967.0","TEPEHUANES DGO., MX","FM-12","99999","V020","240,1,N,0080,1","22000,1,9,N","070000,1,N,1","+0216,1","+9999,9","10069,1","06,0000,9,1",,,,,"01,1,+00300,1,08,1",,,"01,99,1,01,1,01,1,00450,1,00,1,00,1",,"01,9",,,,"99999,9,08144,1","6,1,016,1,-031,1",,,"SYN100AAXX  14211 76373 32488 12408 10216 2//// 38144 40069 56016 81100 92055 333 30/// 56200 59031 81810;","Q01  00002PRCP06"
"76373099999","2005-03-15T00:00:00","4","25.35","-105.75","1967.0","TEPEHUANES DGO., MX","FM-12","99999","V020","240,1,N,0060,1","22000,1,9,N","070000,1,N,1","+0174,1","+9999,9","10042,1","06,0000,9,1","24,0000,9,1",,,,"02,1,+00600,1,08,1",,,"03,99,1,02,1,02,1,00250,1,00,1,05,1",,"01,9",,"120,M,+0234,1","180,N,-0018,1","99999,9,08144,1","4,1,000,1,-026,1",,,"SYN130AAXX  15001 76373 32388 32406 10174 2//// 38144 40042 54000 82205 92355 333 10234 21018 30/// 50710 56606 59026 70000 82820 81080;","Q01  00002PRCP06"
"76373099999","2005-03-15T12:00:00","4","25.35","-105.75","1967.0","TEPEHUANES DGO., MX","FM-12","99999","V020","999,9,C,0000,1","22000,1,9,N","000200,1,N,1","+0010,1","+9999,9","10083,1","06,0000,9,1","24,0000,9,5",,,,"00,1,+99999,9,99,9",,,"00,99,1,00,1,00,1,99999,9,00,1,00,1",,,,"120,N,-0005,1","240,M,+0234,1","99999,9,08129,1","9,9,999,9,-047,1",,,"SYN100AAXX  15121 76373 32902 00000 10010 2//// 38129 40083 5//// 91145 333 10234 21005 21025 59047 70000;","Q01  00002PRCP06"
"76373099999","2005-03-15T15:00:00","4","25.35","-105.75","1967.0","TEPEHUANES DGO., MX","FM-12","99999","V020","999,9,C,0000,1","22000,1,9,N","070000,1,N,1","+0052,1","+9999,9","10118,1","06,0000,9,1",,,,,"02,1,+00300,1,08,1",,,"03,99,1,02,1,01,1,00450,1,00,1,02,1",,"01,9",,,,"99999,9,08138,1","1,1,009,1,+999,9",,,"SYN106AAXX  15151 76373 32488 30000 10052 2//// 38138 40118 51009 82102 91445 333 30/// 56006 58/// 82810 81070;","Q01  00002PRCP06"
"76373099999","2005-03-15T18:00:00","4","25.35","-105.75","1967.0","TEPEHUANES DGO., MX","FM-12","99999","V020","230,1,N,0070,1","22000,1,9,N","070000,1,N,1","+0190,1","+9999,9","10093,1","06,0000,9,1",,,,,"03,1,+00300,1,08,1",,,"03,99,1,03,1,01,1,00450,1,00,1,00,1",,"01,9",,"120,M,+0204,1","240,N,-0010,1","99999,9,08133,1","7,1,005,1,-027,1",,,"SYN112AAXX  15181 76373 32488 32307 10190 2//// 38133 40093 57005 83100 91750 333 10204 21010 30/// 56500 59027 83810;","Q01  00002PRCP06"
"76373099999","2005-03-15T21:00:00","4","25.35","-105.75","1967.0","TEPEHUANES DGO., MX","FM-12","99999","V020","250,1,N,0080,1","22000,1,9,N","070000,1,N,1","+0194,1","+9999,9","10053,1","06,0000,9,1",,,,,"01,1,+00300,1,08,1",,,"01,99,1,01,1,01,1,00450,1,00,1,00,1",,"01,9",,,,"99999,9,08120,1","6,1,013,1,-024,1",,,"SYN100AAXX  15211 76373 32488 12508 10194 2//// 38120 40053 56013 81100 92045 333 30/// 56600 59024 81810;","Q01  00002PRCP06"
"76373099999","2005-03-16T12:00:00","4","25.35","-105.75","1967.0","TEPEHUANES DGO., MX","FM-12","99999","V020","999,9,C,0000,1","03000,1,9,N","000200,1,N,1","+0068,1","+9999,9","10109,1","06,0000,9,1","24,0000,9,1",,,,"08,1,+03000,1,04,1",,,"08,99,1,08,1,00,1,01250,1,02,1,99,9",,"01,9","999,+0035,1","120,N,+0056,1","240,M,+0216,1","99999,9,08158,1","9,9,999,9,+029,1",,,"SYN118AAXX  16121 76373 32602 80000 10068 2//// 38158 40109 5//// 8802/ 91147 333 10216 20056 30035 5606/ 58029 70000 88460;","Q01  00002PRCP06"
"76373099999","2005-03-16T15:00:00","4","25.35","-105.75","1967.0","TEPEHUANES DGO., MX","FM-12","99999","V020","060,1,N,0010,1","00300,1,9,N","070000,1,N,1","+0078,1","+9999,9","10134,1","06,0000,9,1",,,,,"07,1,+00300,1,07,1",,,"07,99,1,07,1,06,1,00450,1,00,1,00,1",,"01,9",,,,"99999,9,08172,1","2,1,014,1,+034,1",,,"SYN100AAXX  16151 76373 32488 70601 10078 2//// 38172 40134 52014 87600 91447 333 30/// 56600 58034 87710;","Q01  00002PRCP06"
"76373099999","2005-03-16T18:00:00","4","25.35","-105.75","1967.0","TEPEHUANES DGO., MX","FM-12","99999","V020","240,1,N,0020,1","00300,1,9,N","070000,1,N,1","+0104,1","+9999,9","10130,1","03,0004,9,1",,,"6,1,06,1","5,1,06,1","05,1,+00300,1,08,1",,,"06,99,1,05,1,02,1,00450,1,00,1,00,1",,"01,9",,"120,M,+0124,1","240,N,+0056,1","99999,9,08173,1","2,1,001,1,+040,1",,"01,1","SYN136AAXX  16181 76373 01488 62402 10104 2//// 38173 40130 52001 69947 70165 85200 91750 333 10124 20056 30/// 56300 58040 69947 85810 81910;",
"76373099999","2005-03-16T21:00:00","4","25.35","-105.75","1967.0","TEPEHUANES DGO., MX","FM-12","99999","V020","120,1,N,0040,1","00300,1,9,N","070000,1,N,1","+0138,1","+9999,9","10100,1",,,,,,"06,1,+00300,1,08,1",,,"06,99,1,06,1,01,1,00450,1,00,1,00,1",,"01,9",,,,"99999,9,08154,1","6,1,019,1,+034,1",,,"SYN100AAXX  16211 76373 32488 61204 10138 2//// 38154 40100 56019 86100 92048 333 30/// 56300 58034 86810;","Q01  00002PRCP06Q02  00002PRCP06"
"76373099999","2005-03-17T12:00:00","4","25.35","-105.75","1967.0","TEPEHUANES DGO., MX","FM-12","99999","V020","999,9,C,0000,1","22000,1,9,N","000200,1,N,1","+0008,1","+9999,9","10198,1","12,0030,9,1","24,0030,9,1",,,,"00,1,+99999,9,99,9",,,"00,99,1,00,1,00,1,99999,9,00,1,00,1",,"09,9","999,-0018,1","120,N,-0008,1","240,M,+0158,1","99999,9,08200,1","9,9,999,9,+042,1",,,"SYN112AAXX  17121 76373 02902 00000 10008 2//// 38200 40198 5//// 60032 91148 333 10158 21008 31018 58042 60032 70031;",
"76373099999","2005-03-17T18:00:00","4","25.35","-105.75","1967.0","TEPEHUANES DGO., MX","FM-12","99999","V020","150,1,N,0020,1","22000,1,9,N","070000,1,N,1","+0098,1","+9999,9","10205,1","06,0000,9,1",,,,,"01,1,+00300,1,08,1",,,"01,99,1,01,1,01,1,00450,1,00,1,00,1",,"09,9",,"120,M,+0116,1","240,N,-0015,1","99999,9,08205,1","8,1,006,1,+032,1",,,"SYN112AAXX  17181 76373 32488 11502 10098 2//// 38205 40205 58006 81100 91750 333 10116 21015 31/// 56600 58032 81810;","Q01  00002PRCP06"
"76373099999","2005-03-17T21:00:00","4","25.35","-105.75","1967.0","TEPEHUANES DGO., MX","FM-12","99999","V020","050,1,N,0010,1","22000,1,9,N","070000,1,N,1","+0168,1","+9999,9","10141,1","06,0000,9,1",,,,,"00,1,+99999,9,99,9",,,"00,99,1,00,1,00,1,99999,9,00,1,00,1",,"01,9",,,,"99999,9,08169,1","7,1,036,1,+015,1",,,"SYN082AAXX  17211 76373 32988 00501 10168 2//// 38169 40141 57036 92050 333 30/// 58015;","Q01  00002PRCP06"
"76373099999","2005-03-18T00:00:00","4","25.35","-105.75","1967.0","TEPEHUANES DGO., MX","FM-12","99999","V020","260,1,N,0040,1","22000,1,9,N","070000,1,N,1","+0204,1","+9999,9","10079,2","06,0000,9,1","24,0030,9,1",,,,"00,1,+99999,9,99,9",,,"00,99,1,00,1,00,1,99999,9,00,1,00,1",,"01,9",,"120,M,+0226,1","180,N,-0015,1","99999,9,08147,1","6,1,022,1,-008,1",,,"SYN106AAXX  18001 76373 32988 02604 10204 2//// 38147 40079 56022 92350 333 10226 21015 30/// 50300 59008 70031;","Q01  00002PRCP06"
"76373099999","2005-03-18T12:00:00","4","25.35","-105.75","1967.0","TEPEHUANES DGO., MX","FM-12","99999","V020","999,9,C,0000,1","22000,1,9,N","000200,1,N,1","+0022,1","+9999,9","10141,1","06,0000,9,1","24,0000,9,1",,,,"00,1,+99999,9,99,9",,,"00,99,1,00,1,00,1,99999,9,00,1,00,1",,"09,9","999,-0010,1","120,N,-0012,1","240,M,+0226,1","99999,9,08179,1","9,9,999,9,-021,1",,,"SYN100AAXX  18121 76373 32902 00000 10022 2//// 38179 40141 5//// 91150 333 10226 21012 31010 59021 70000;","Q01  00002PRCP06Q02  00002PRCP24"
"76373099999","2005-03-18T15:00:00","4","25.35","-105.75","1967.0","TEPEHUANES DGO., MX","FM-12","99999","V020","320,1,N,0020,1","22000,1,9,N","070000,1,N,1","+0040,1","+9999,9","10184,1","06,0000,9,1",,,,,"01,1,+03000,1,03,1",,,"01,99,1,01,1,00,1,01250,1,03,1,00,1",,"01,9",,,,"99999,9,08192,1","2,1,013,1,-019,1",,,"SYN100AAXX  18151 76373 32688 13202 10040 2//// 38192 40184 52013 81030 91448 333 30/// 56060 59019 81360;","Q01  00002PRCP06"
"76373099999","2005-03-18T18:00:00","4","25.35","-105.75","1967.0","TEPEHUANES DGO., MX","FM-12","99999","V020","300,1,N,0010,1","22000,1,9,N","070000,1,N,1","+0182,1","+9999,9","10144,1","06,0000,9,1",,,,,"00,1,+99999,9,99,9",,,"00,99,1,00,1,00,1,99999,9,00,1,00,1",,"01,9",,"120,M,+0208,1","240,N,-0010,1","99999,9,08173,1","6,1,019,1,-032,1",,,"SYN094AAXX  18181 76373 32988 03001 10182 2//// 38173 40144 56019 91750 333 10208 21010 30/// 59032;","Q01  00002PRCP06"
"76373099999","2005-03-18T21:00:00","4","25.35","-105.75","1967.0","TEPEHUANES DGO., MX","FM-12","99999","V020","320,1,N,0060,1","09000,1,C,N","070000,1,N,1","+0228,2","+9999,9","10097,1","06,0000,9,1",,,,,"04,1,+03000,1,03,1",,,"06,99,1,04,1,00,1,01250,1,03,1,05,1",,"01,9",,,,"99999,9,08161,1","3,1,014,1,-008,1",,,"SYN106AAXX  18211 76373 32688 63206 10228 2//// 38161 40097 53014 84035 92045 333 30/// 56066 59008 84360 82070;","Q01  00002PRCP06"
"76373099999","2005-03-19T00:00:00","4","25.35","-105.75","1967.0","TEPEHUANES DGO., MX","FM-12","99999","V020","240,1,N,0060,1","22000,1,9,N","070000,1,N,1","+0210,1","+9999,9","10062,1","06,0000,9,1","24,0000,9,1",,,,"01,1,+00600,1,08,1",,,"02,99,1,01,1,02,1,00450,1,04,1,00,1",,"01,9",,"120,M,+0255,1","180,N,-0010,1","99999,9,08160,1","8,1,001,1,+013,1",,,"SYN130AAXX  19001 76373 32488 22406 10210 2//// 38160 40062 58001 81240 92350 333 10255 21010 30/// 50660 56660 58013 70000 81820 81360;","Q01  00002PRCP06"
"76373099999","2005-03-19T18:00:00","4","25.35","-105.75","1967.0","TEPEHUANES DGO., MX","FM-12","99999","V020","270,1,N,0100,1","00330,1,9,N","070000,1,N,1","+0218,1","+9999,9","10127,1","06,0000,9,1",,,,,"06,1,+00330,1,00,1",,,"06,99,1,00,1,00,1,99999,9,00,1,04,1",,"01,9",,"120,M,+0230,1","240,N,-0012,1","99999,9,08184,1","6,1,011,1,+009,1",,,"SYN112AAXX  19181 76373 32988 62710 10218 2//// 38184 40127 56011 80004 91755 333 10230 21012 30/// 56006 58009 86011;","Q01  00002PRCP06"
"76373099999","2005-03-19T21:00:00","4","25.35","-105.75","1967.0","TEPEHUANES DGO., MX","FM-12","99999","V020","270,1,N,0280,1","22000,1,9,N","070000,1,N,1","+0226,1","+0092,1","99999,9","06,0000,9,1",,,,,,,,"02,99,1,99,9,99,9,99999,9,99,9,99,9",,"01,9",,,,"99999,9,08180,1","4,1,000,1,-019,1",,,"SYN100AAXX  19211 76373 32988 22728 10226 20092 38180 40804 54000 58008 92055 333 30/// 56006 59019 82280;","Q01  00002PRCP06Q02 108043APOSLP"
"76373099999","2005-03-20T00:00:00","4","25.35","-105.75","1967.0","TEPEHUANES DGO., MX","FM-12","99999","V020","270,1,N,0060,1","22000,1,9,N","070000,1,N,1","+0208,1","-0082,2","10074,2","06,0000,9,1","24,0000,9,1",,,,"00,1,+99999,9,99,9",,,"00,99,1,00,1,00,1,99999,9,00,1,00,1",,"01,9",,"120,M,+0240,1","180,N,-0012,1","99999,9,08177,1","8,1,002,1,+017,1",,,"SYN106AAXX  20001 76373 32988 02706 10208 21082 38177 40074 58002 92358 333 10240 21012 30/// 50750 58017 70000;","Q01  00002PRCP06Q02  00002PRCP24"
"76373099999","2005-03-20T18:00:00","4","25.35","-105.75","1967.0","TEPEHUANES DGO., MX","FM-12","99999","V020","100,1,N,0030,1","22000,1,9,N","070000,1,N,1","+0190,1","-0098,1","10162,1","06,0000,9,1",,,,,"00,1,+99999,9,99,9",,,"00,99,1,00,1,00,1,99999,9,00,1,00,1",,"01,9",,"120,M,+0222,1","240,N,-0024,1","99999,9,08187,1","6,1,024,1,+003,1",,,"SYN094AAXX  20181 76373 32988 01003 10190 21098 38187 40162 56024 91750 333 10222 21024 30/// 58003;","Q01  00002PRCP06"
"76373099999","2005-03-20T21:00:00","4","25.35","-105.75","1967.0","TEPEHUANES DGO., MX","FM-12","99999","V020","300,1,N,0070,1","22000,1,9,N","070000,1,N,1","+0256,1","-0022,1","10095,2","06,0000,9,1",,,,,"00,1,+99999,9,99,9",,,"00,99,1,00,1,00,1,99999,9,00,1,00,1",,"01,9",,,,"99999,9,08162,1","6,1,025,1,+018,1",,,"SYN082AAXX  20211 76373 32988 03007 10256 21022 38162 40095 56025 92050 333 30/// 58018;","Q01  00002PRCP06"
"76373099999","2005-03-21T00:00:00","4","25.35","-105.75","1967.0","TEPEHUANES DGO., MX","FM-12","99999","V020","270,1,N,0060,1","22000,1,9,N","070000,1,N,1","+0242,1","-0155,2","10065,1","06,0000,9,1","24,0000,9,1",,,,"00,1,+99999,9,99,9",,,"00,99,1,00,1,00,1,99999,9,00,1,00,1",,"01,9",,"120,M,+0282,1","180,N,-0024,1","99999,9,08168,1","1,1,006,1,-012,1",,,"SYN106AAXX  21001 76373 32988 02706 10242 21155 38168 40065 51006 92355 333 10282 21024 30/// 50690 59012 70000;","Q01  00002PRCP06Q02  00002PRCP24"
"76373099999","2005-03-21T12:00:00","4","25.35","-105.75","1967.0","TEPEHUANES DGO., MX","FM-12","99999","V020","999,9,C,0000,1","22000,1,9,N","000200,1,N,1","+0022,1","-0023,1","10137,1","06,0000,9,1","24,0000,9,1",,,,"00,1,+99999,9,99,9",,,"00,99,1,00,1,00,1,99999,9,00,1,00,1",,"09,9","999,-0020,1","120,N,+0015,1","240,M,+0282,1","99999,9,08189,1",,,,"SYN100AAXX  21121 76373 32902 00000 10022 21023 38189 40137 5//// 91155 333 10282 20015 31020 58/// 70000;","Q01  00002PRCP06Q02  00002PRCP24"
"76373099999","2005-03-21T15:00:00","4","25.35","-105.75","1967.0","TEPEHUANES DGO., MX","FM-12","99999","V020","999,9,C,0000,1","22000,1,9,N","070000,1,N,1","+0066,1","-0020,1","10164,1","06,0000,9,1",,,,,"01,1,+03000,1,03,1",,,"03,99,1,01,1,00,1,01250,1,03,1,02,1",,"01,9",,,,"99999,9,08189,1","4,1,000,1,-022,1",,,"SYN106AAXX  21151 76373 32688 30000 10066 21020 38189 40164 54000 81032 91450 333 30/// 56066 59022 81360 82070;","Q01  00002PRCP06"
"76373099999","2005-03-21T18:00:00","4","25.35","-105.75","1967.0","TEPEHUANES DGO., MX","FM-12","99999","V020","280,1,N,0080,1","22000,1,9,N","070000,1,N,1","+0222,1","-0077,1","10127,1","06,0000,9,1",,,,,"01,1,+06000,1,00,1",,,"01,99,1,00,1,00,1,99999,9,00,1,05,1",,"01,9",,"120,M,+0236,1","240,N,+0002,1","99999,9,08171,1","6,1,018,1,-016,1",,,"SYN112AAXX  21181 76373 32988 12808 10222 21077 38171 40127 56018 80005 91750 333 10236 20002 30/// 56006 59016 81070;","Q01  00002PRCP06"
"76373099999","2005-03-21T21:00:00","4","25.35","-105.75","1967.0","TEPEHUANES DGO., MX","FM-12","99999","V020","270,1,N,0070,1","22000,1,9,N","070000,1,N,1","+0244,2","-0108,1","10076,1","06,0000,9,1",,,,,"00,1,+99999,9,99,9",,,"00,99,1,00,1,00,1,99999,9,00,1,00,1",,"01,9",,,,"99999,9,08153,1","7,1,018,1,-009,1",,,"SYN082AAXX  21211 76373 32988 02707 10244 21108 38153 40076 57018 92053 333 30/// 59009;","Q01  00002PRCP06"
"76373099999","2005-03-22T12:00:00","4","25.35","-105.75","1967.0","TEPEHUANES DGO., MX","FM-12","99999","V020","999,9,C,0000,1","22000,1,9,N","000200,1,N,1","+0012,1","-0014,1","10134,1","06,0000,9,1","24,0000,9,1",,,,"00,1,+99999,9,99,9",,,"00,99,1,00,1,00,1,99999,9,00,1,00,1",,"09,9","999,-0028,1","120,N,+0005,1","240,M,+0262,1","99999,9,08179,1","9,9,999,9,-010,1",,,"SYN100AAXX  22121 76373 32902 00000 10012 21014 38179 40134 5//// 91150 333 10262 20005 31028 59010 70000;","Q01  00002PRCP06Q02  00002PRCP24"
"76373099999","2005-03-22T18:00:00","4","25.35","-105.75","1967.0","TEPEHUANES DGO., MX","FM-12","99999","V020","120,1,N,0030,1","22000,1,9,N","070000,1,N,1","+0184,2","-0051,1","10151,1","06,0000,9,1",,,,,"00,1,+99999,9,99,9",,,"00,99,1,00,1,00,1,99999,9,00,1,00,1",,"01,9",,"120,M,+0206,1","240,N,-0012,1","99999,9,08183,1","6,1,012,1,+012,1",,,"SYN094AAXX  22181 76373 32988 01203 10184 21051 38183 40151 56012 91750 333 10206 21012 30/// 58012;","Q01  00002PRCP06"
"76373099999","2005-03-23T00:00:00","4","25.35","-105.75","1967.0","TEPEHUANES DGO., MX","FM-12","99999","V020","270,1,N,0030,1","22000,1,9,N","070000,1,N,1","+0250,1","-0107,1","10025,2","06,0000,9,1","24,0000,9,1",,,,,,,"02,99,1,00,1,00,1,99999,9,00,1,04,1",,"01,9",,"120,M,+0280,1","180,N,-0012,1","99999,9,08138,1","6,1,011,1,-008,1",,,"SYN124AAXX  23001 76373 32988 22703 10250 21107 38138 40025 56011 80004 92350 333 10280 21012 30/// 50550 56006 59008 70000 82080;","Q01  00002PRCP06"
"76373099999","2005-03-23T15:00:00","4","25.35","-105.75","1967.0","TEPEHUANES DGO., MX","FM-12","99999","V020","300,1,N,0010,1","22000,1,9,N","070000,1,N,1","+0070,1","-0002,1","10197,1","06,0000,9,1",,,,,"01,1,+06000,1,00,1",,,"01,99,1,00,1,00,1,99999,9,00,1,01,1",,"01,9",,,,"99999,9,08190,1","2,1,012,1,-005,1",,,"SYN100AAXX  23151 76373 32988 13001 10070 21002 38190 40197 52012 80001 91450 333 30/// 56006 59005 81070;","Q01  00002PRCP06"
"76373099999","2005-03-23T21:00:00","4","25.35","-105.75","1967.0","TEPEHUANES DGO., MX","FM-12","99999","V020","280,1,N,0070,1","22000,1,9,N","070000,1,N,1","+0256,2","-0136,1","10081,1","06,0000,9,1",,,,,"00,1,+99999,9,99,9",,,"00,99,1,00,1,00,1,99999,9,00,1,00,1",,"01,9",,,,"99999,9,08161,1","6,1,021,1,+012,1",,,"SYN082AAXX  23211 76373 32988 02807 10256 21136 38161 40081 56021 92058 333 30/// 58012;","Q01  00002PRCP06"
"76373099999","2005-03-24T12:00:00","4","25.35","-105.75","1967.0","TEPEHUANES DGO., MX","FM-12","99999","V020","999,9,C,0000,1","22000,1,9,N","000400,1,N,1","+0034,1","+0007,1","10141,1","06,0000,9,1","24,0000,9,1",,,,,,,"01,99,1,00,1,00,1,99999,9,00,1,01,1",,"09,9","999,-0010,1","120,N,+0018,1","240,M,+0268,1","99999,9,08194,1","9,9,999,9,+016,1",,,"SYN112AAXX  24121 76373 32904 10000 10034 20007 38194 40141 5//// 80001 91158 333 10268 20018 31010 56006 58016 70000;","Q01  00002PRCP06Q02  00002PRCP24"
"76373099999","2005-03-24T15:00:00","4","25.35","-105.75","1967.0","TEPEHUANES DGO., MX","FM-12","99999","V020","999,9,C,0000,1","22000,1,9,N","070000,1,N,1","+0088,1","+0025,1","10167,1","06,0000,9,1",,,,,"02,1,+06000,1,00,1",,,"02,99,1,00,1,00,1,99999,9,00,1,05,1",,"01,9",,,,"99999,9,08198,1","1,1,004,1,+008,1",,,"SYN100AAXX  24151 76373 32988 20000 10088 20025 38198 40167 51004 80005 91452 333 30/// 56006 58008 82070;","Q01  00002PRCP06"
"76373099999","2005-03-24T18:00:00","4","25.35","-105.75","1967.0","TEPEHUANES DGO., MX","FM-12","99999","V020","200,1,N,0060,1","06000,1,9,N","070000,1,N,1","+0226,1","-0087,1","10141,1","06,0000,9,1",,,,,"05,1,+06000,1,00,1",,,"05,99,1,00,1,00,1,99999,9,00,1,04,1",,"01,9",,"120,M,+0250,1","240,N,+0005,1","99999,9,08191,1","6,1,007,1,+009,1",,,"SYN112AAXX  24181 76373 32988 52006 10226 21087 38191 40141 56007 80004 91750 333 10250 20005 30/// 56006 58009 85070;","Q01  00002PRCP06"
"76373099999","2005-03-24T21:00:00","4","25.35","-105.75","1967.0","TEPEHUANES DGO., MX","FM-12","99999","V020","290,1,N,0080,1","06000,1,9,N","070000,1,N,1","+0240,1","-0103,1","10095,1","06,0000,9,1",,,,,"08,1,+06000,1,00,1",,,"08,99,1,00,1,00,1,99999,9,00,1,07,1",,"01,9",,,,"99999,9,08175,1","7,1,016,1,+014,1",,,"SYN100AAXX  24211 76373 32988 82908 10240 21103 38175 40095 57016 80007 92045 333 30/// 56006 58014 88070;","Q01  00002PRCP06"
"76373099999","2005-03-25T00:00:00","4","25.35","-105.75","1967.0","TEPEHUANES DGO., MX","FM-12","99999","V020","240,1,N,0070,1","99999,9,9,N","070000,1,N,1","+0220,1","-0041,1","10055,1","06,0000,9,1","24,0000,9,1",,,,,,,"08,99,1,00,1,00,1,99999,9,00,1,07,1",,"01,9",,"120,M,+0256,1","180,N,+0005,1","99999,9,08172,1","3,1,003,1,+010,1",,,"SYN124AAXX  25001 76373 32988 82407 10220 21041 38172 40055 53003 80007 92350 333 10256 20005 30/// 50780 56006 58010 70000 88270;","Q01  00002PRCP06"
"76373099999","2005-03-25T12:00:00","4","25.35","-105.75","1967.0","TEPEHUANES DGO., MX","FM-12","99999","V020","999,9,C,0000,1","22000,1,9,N","000400,1,N,1","+0022,1","-0022,1","10146,1","06,0000,9,1","24,0000,9,1",,,,"03,1,+06000,1,00,1",,,"03,99,1,00,1,00,1,99999,9,00,1,01,1",,"09,9","999,-0015,1","120,N,+0010,1","240,M,+0256,1","99999,9,08194,1","9,9,999,9,+000,1",,,"SYN118AAXX  25121 76373 32904 30000 10022 21022 38194 40146 5//// 80001 91148 333 10256 20010 31015 56006 58000 70000 83070;","Q01  00002PRCP06"
"76373099999","2005-03-25T15:00:00","4","25.35","-105.75","1967.0","TEPEHUANES DGO., MX","FM-12","99999","V020","320,1,N,0010,1","22000,1,9,N","070000,1,N,1","+0060,1","-0009,1","10179,1","06,0000,9,1",,,,,"04,1,+06000,1,00,1",,,"04,99,1,00,1,00,1,99999,9,00,1,04,1",,"01,9",,,,"99999,9,08200,1","3,1,006,1,+002,1",,,"SYN100AAXX  25151 76373 32988 43201 10060 21009 38200 40179 53006 80004 91452 333 30/// 56006 58002 84070;","Q01  00002PRCP06"
"76373099999","2005-03-25T18:00:00","4","25.35","-105.75","1967.0","TEPEHUANES DGO., MX","FM-12","99999","V020","240,1,N,0040,1","22000,1,9,N","070000,1,N,1","+0230,2","-0087,1","10143,1","06,0000,9,1",,,,,"01,1,+03000,1,03,1",,,"03,99,1,01,1,00,1,01250,1,03,1,02,1",,"01,9",,"120,M,+0240,1","240,N,+0005,1","99999,9,08186,1","6,1,014,1,-005,1",,,"SYN118AAXX  25181 76373 32688 32404 10230 21087 38186 40143 56014 81032 91750 333 10240 20005 30/// 56066 59005 81360 82070;","Q01  00002PRCP06"
"76373099999","2005-03-26T00:00:00","4","25.35","-105.75","1967.0","TEPEHUANES DGO., MX","FM-12","99999","V020","250,1,N,0070,1","22000,1,9,N","070000,1,N,1","+0226,1","-0067,1","10053,1","06,0000,9,1","24,0000,9,1",,,,"02,1,+03000,1,03,1",,,"04,99,1,02,1,00,1,01250,1,03,1,02,1",,"01,9",,"120,M,+0260,1","180,N,+0005,1","99999,9,08166,1","5,1,003,1,-006,1",,,"SYN130AAXX  26001 76373 32688 42507 10226 21067 38166 40053 55003 82032 92345 333 10260 20005 30/// 50740 56066 59006 70000 82360 82070;","Q01  00002PRCP06"
"76373099999","2005-03-26T15:00:00","4","25.35","-105.75","1967.0","TEPEHUANES DGO., MX","FM-12","99999","V020","999,9,C,0000,1","22000,1,9,N","070000,1,N,1","+0074,1","-0003,1","10170,1","06,0000,9,1",,,,,"01,1,+06000,1,00,1",,,"01,99,1,00,1,00,1,99999,9,00,1,02,1",,"01,9",,,,"99999,9,08188,1","9,9,999,9,-012,1",,,"SYN100AAXX  26151 76373 32988 10000 10074 21003 38188 40170 5//// 80002 91455 333 30/// 56006 59012 81070;","Q01  00002PRCP06"
"76373099999","2005-03-26T18:00:00","4","25.35","-105.75","1967.0","TEPEHUANES DGO., MX","FM-12","99999","V020","300,1,N,0030,1","22000,1,9,N","070000,1,N,1","+0224,1","-0082,1","10123,1","06,0000,9,1",,,,,"01,1,+06000,1,00,1",,,"01,99,1,00,1,00,1,99999,9,00,1,02,1",,"01,9",,"120,M,+0242,1","240,N,-0008,1","99999,9,08170,1","8,1,018,1,-016,1",,,"SYN112AAXX  26181 76373 32988 13003 10224 21082 38170 40123 58018 80002 91750 333 10242 21008 30/// 56006 59016 81070;","Q01  00002PRCP06"
"76373099999","2005-03-26T21:00:00","4","25.35","-105.75","1967.0","TEPEHUANES DGO., MX","FM-12","99999","V020","260,1,N,0080,1","22000,1,9,N","070000,1,N,1","+0260,2","-0099,1","10076,1","06,0000,9,1",,,,,"02,1,+06000,1,00,1",,,"02,99,1,00,1,00,1,99999,9,00,1,02,1",,"01,9",,,,"99999,9,08155,1","7,1,015,1,-014,1",,,"SYN100AAXX  26211 76373 32988 22608 10260 21099 38155 40076 57015 80002 92055 333 30/// 56006 59014 82070;","Q01  00002PRCP06"
"76373099999","2005-03-27T15:00:00","4","25.35","-105.75","1967.0","TEPEHUANES DGO., MX","FM-12","99999","V020","999,9,C,0000,1","22000,1,9,N","070000,1,N,1","+0058,1","-0071,1","10242,1","06,0000,9,1",,,,,"01,1,+09000,1,00,1",,,"01,99,1,00,1,00,1,99999,9,00,1,05,1",,"01,9",,,,"99999,9,08236,1","9,9,999,9,+048,1",,,"SYN100AAXX  27151 76373 32988 10000 10058 21071 38236 40242 5//// 80005 91450 333 30/// 56006 58048 81080;","Q01  00002PRCP06"
"76373099999","2005-03-27T18:00:00","4","25.35","-105.75","1967.0","TEPEHUANES DGO., MX","FM-12","99999","V020","130,1,N,0010,1","22000,1,9,N","070000,1,N,1","+0162,1","-0030,1","10202,1","06,0000,9,1",,,,,"00,1,+99999,9,99,9",,,"00,99,1,00,1,00,1,99999,9,00,1,00,1",,"01,9",,"120,M,+0182,1",,"99999,9,08221,1","6,1,015,1,+051,1",,,"SYN088AAXX  27181 76373 32988 01301 10162 21030 38221 40202 56015 91750 333 10182 30/// 58051;","Q01  00002PRCP06"
"76373099999","2005-03-27T21:00:00","4","25.35","-105.75","1967.0","TEPEHUANES DGO., MX","FM-12","99999","V020","120,1,N,0030,1","22000,1,9,N","070000,1,N,1","+0234,1","-0133,1","10129,2","06,0000,9,1",,,,,"00,1,+99999,9,99,9",,,"00,99,1,00,1,00,1,99999,9,00,1,00,1",,"01,9",,,,"99999,9,08184,1","6,1,037,1,+029,1",,,"SYN082AAXX  27211 76373 32988 01203 10234 21133 38184 40129 56037 92050 333 30/// 58029;","Q01  00002PRCP06"
"76373099999","2005-03-28T12:00:00","4","25.35","-105.75","1967.0","TEPEHUANES DGO., MX","FM-12","99999","V020","999,9,C,0000,1","22000,1,9,N","000300,1,N,1","+0014,1","-0008,1","10154,1","06,0000,9,1","24,0000,9,1",,,,"00,1,+99999,9,99,9",,,"00,99,1,00,1,00,1,99999,9,00,1,00,1",,"09,9","999,-0028,1","120,N,+0003,1","240,M,+0248,1","99999,9,08195,1",,,,"SYN100AAXX  28121 76373 32903 00000 10014 21008 38195 40154 5//// 91158 333 10248 20003 31028 58/// 70000;","Q01  00002PRCP06Q02  00002PRCP24"
"76373099999","2005-03-28T15:00:00","4","25.35","-105.75","1967.0","TEPEHUANES DGO., MX","FM-12","99999","V020","999,9,C,0000,1","22000,1,9,N","070000,1,N,1","+0072,1","-0040,1","10186,1","06,0000,9,1",,,,,"00,1,+99999,9,99,9",,,"00,99,1,00,1,00,1,99999,9,00,1,00,1",,"01,9",,,,"99999,9,08200,1","2,1,005,1,-036,1",,,"SYN082AAXX  28151 76373 32988 00000 10072 21040 38200 40186 52005 91450 333 30/// 59036;","Q01  00002PRCP06"
"76373099999","2005-03-28T18:00:00","4","25.35","-105.75","1967.0","TEPEHUANES DGO., MX","FM-12","99999","V020","090,1,N,0010,1","22000,1,9,N","070000,1,N,1","+0226,1","-0052,1","10146,1","06,0000,9,1",,,,,"00,1,+99999,9,99,9",,,"00,99,1,00,1,00,1,99999,9,00,1,00,1",,"01,9",,"120,M,+0250,1","240,N,-0010,1","99999,9,08185,1","6,1,015,1,-036,1",,,"SYN094AAXX  28181 76373 32988 00901 10226 21052 38185 40146 56015 91750 333 10250 21010 30/// 59036;","Q01  00002PRCP06"
"76373099999","2005-03-28T21:00:00","4","25.35","-105.75","1967.0","TEPEHUANES DGO., MX","FM-12","99999","V020","280,1,N,0060,1","22000,1,9,N","070000,1,N,1","+0290,2","-0089,1","10074,1","06,0000,9,1",,,,,"00,1,+99999,9,99,9",,,"00,99,1,00,1,00,1,99999,9,00,1,00,1",,"01,9",,,,"99999,9,08154,1","6,1,031,1,-030,1",,,"SYN082AAXX  28211 76373 32988 02806 10290 21089 38154 40074 56031 92058 333 30/// 59030;","Q01  00002PRCP06"
"76373099999","2005-03-29T00:00:00","4","25.35","-105.75","1967.0","TEPEHUANES DGO., MX","FM-12","99999","V020","250,1,N,0040,1","22000,1,9,N","070000,1,N,1","+0214,1","-0057,1","10039,1","06,0000,9,1","24,0000,9,1",,,,,,,"01,99,1,00,1,00,1,99999,9,00,1,04,1",,"01,9",,"120,M,+0310,1","180,N,-0010,1","99999,9,08168,1","6,1,014,1,-003,1",,,"SYN124AAXX  29001 76373 32988 12504 10214 21057 38168 40039 56014 80004 92355 333 10310 21010 30/// 50810 56006 59003 70000 81080;","Q01  00002PRCP06"
"76373099999","2005-03-29T12:00:00","4","25.35","-105.75","1967.0","TEPEHUANES DGO., MX","FM-12","99999","V020","320,1,N,0010,1","22000,1,9,N","000400,1,N,1","+0050,1","-0026,1","10109,1","06,0000,9,1","24,0000,9,1",,,,"02,1,+06000,1,00,1",,,"02,99,1,00,1,00,1,99999,9,00,1,01,1",,"01,9","999,+0000,1","120,N,+0040,1","240,M,+0310,1","99999,9,08179,1","9,9,999,9,+005,1",,,"SYN118AAXX  29121 76373 32904 23201 10050 21026 38179 40109 5//// 80001 91150 333 10310 20040 30000 56006 58005 70000 82070;","Q01  00002PRCP06"
"76373099999","2005-03-29T15:00:00","4","25.35","-105.75","1967.0","TEPEHUANES DGO., MX","FM-12","99999","V020","330,1,N,0010,1","09000,1,C,N","070000,1,N,1","+0080,1","-0014,1","10146,1","06,0000,9,1",,,,,"03,1,+03000,1,03,1",,,"06,99,1,03,1,00,1,01250,1,03,1,03,1",,"01,9",,,,"99999,9,08188,1","2,1,011,1,-012,1",,,"SYN106AAXX  29151 76373 32688 63301 10080 21014 38188 40146 52011 83033 91450 333 30/// 56066 59012 83360 83070;","Q01  00002PRCP06"
"76373099999","2005-03-29T18:00:00","4","25.35","-105.75","1967.0","TEPEHUANES DGO., MX","FM-12","99999","V020","270,1,N,0070,1","06000,1,9,N","070000,1,N,1","+0222,2","-0072,1","10127,1","06,0000,9,1",,,,,"06,1,+06000,1,02,1",,,"06,99,1,00,1,00,1,99999,9,00,1,08,1",,"01,9",,"120,M,+0240,1","240,N,+0022,1","99999,9,08183,1","6,1,005,1,-002,1",,,"SYN112AAXX  29181 76373 32988 62707 10222 21072 38183 40127 56005 80008 91750 333 10240 20022 30/// 56006 59002 86270;","Q01  00002PRCP06"
"76373099999","2005-03-30T00:00:00","4","25.35","-105.75","1967.0","TEPEHUANES DGO., MX","FM-12","99999","V020","270,1,N,0080,1","22000,1,9,N","070000,1,N,1","+0212,1","-0099,1","10044,1","06,0000,9,1","24,0000,9,1",,,,"00,1,+99999,9,99,9",,,"00,99,1,00,1,00,1,99999,9,00,1,00,1",,"01,9",,"120,M,+0260,1","180,N,+0022,1","99999,9,08160,1","6,1,006,1,-008,1",,,"SYN106AAXX  30001 76373 32988 02708 10212 21099 38160 40044 56006 92350 333 10260 20022 30/// 50860 59008 70000;","Q01  00002PRCP06Q02  00002PRCP24"
"76373099999","2005-03-30T12:00:00","4","25.35","-105.75","1967.0","TEPEHUANES DGO., MX","FM-12","99999","V020","999,9,C,0000,1","22000,1,9,N","000400,1,N,1","+0022,1","-0049,1","10141,1","06,0000,9,1","24,0000,9,1",,,,"00,1,+99999,9,99,9",,,"00,99,1,00,1,00,1,99999,9,00,1,00,1",,"09,9","999,-0022,1","120,N,+0005,1","240,M,+0260,1","99999,9,08187,1","9,9,999,9,+008,1",,,"SYN100AAXX  30121 76373 32904 00000 10022 21049 38187 40141 5//// 91153 333 10260 20005 31022 58008 70000;","Q01  00002PRCP06Q02  00002PRCP24"
"76373099999","2005-03-30T18:00:00","4","25.35","-105.75","1967.0","TEPEHUANES DGO., MX","FM-12","99999","V020","090,1,N,0010,1","22000,1,9,N","070000,1,N,1","+0206,1","-0105,1","10151,1","06,0000,9,1",,,,,"00,1,+99999,9,99,9",,,"00,99,1,00,1,00,1,99999,9,00,1,00,1",,"01,9",,"120,M,+0226,1","240,N,-0010,1","99999,9,08187,1","6,1,011,1,+004,1",,,"SYN094AAXX  30181 76373 32988 00901 10206 21105 38187 40151 56011 91750 333 10226 21010 30/// 58004;","Q01  00002PRCP06"
"76373099999","2005-03-30T21:00:00","4","25.35","-105.75","1967.0","TEPEHUANES DGO., MX","FM-12","99999","V020","280,1,N,0060,1","22000,1,9,N","070000,1,N,1","+0264,1","-0098,1","10088,1","06,0000,9,1",,,,,"00,1,+99999,9,99,9",,,"00,99,1,00,1,00,1,99999,9,00,1,00,1",,"01,9",,,,"99999,9,08165,1","6,1,022,1,-001,1",,,"SYN082AAXX  30211 76373 32988 02806 10264 21098 38165 40088 56022 92050 333 30/// 59001;","Q01  00002PRCP06"
"76373099999","2005-03-31T00:00:00","4","25.35","-105.75","1967.0","TEPEHUANES DGO., MX","FM-12","99999","V020","240,1,N,0060,1","22000,1,9,N","070000,1,N,1","+0238,1","-0081,1","10053,1","06,0000,9,1","24,0000,9,1",,,,"00,1,+99999,9,99,9",,,"00,99,1,00,1,00,1,99999,9,00,1,00,1",,"01,9",,"120,M,+0290,1","180,N,-0010,1","99999,9,08169,1","7,1,004,1,+009,1",,,"SYN106AAXX  31001 76373 32988 02406 10238 21081 38169 40053 57004 92355 333 10290 21010 30/// 50740 58009 70000;","Q01  00002PRCP06Q02  00002PRCP24"
"76373099999","2005-03-31T12:00:00","4","25.35","-105.75","1967.0","TEPEHUANES DGO., MX","FM-12","99999","V020","999,9,C,0000,1","06000,1,9,N","000400,1,N,1","+0008,1","-0065,1","10148,1","06,0000,9,1","24,0000,9,1",,,,"06,1,+06000,1,02,1",,,"06,99,1,00,1,00,1,99999,9,00,1,08,1",,"09,9","999,-0032,1","120,N,-0005,1","240,M,+0290,1","99999,9,08194,1","9,9,999,9,+007,1",,,"SYN118AAXX  31121 76373 32904 60000 10008 21065 38194 40148 5//// 80008 91152 333 10290 21005 31032 56006 58007 70000 86270;","Q01  00002PRCP06"
"76373099999","2005-03-31T18:00:00","4","25.35","-105.75","1967.0","TEPEHUANES DGO., MX","FM-12","99999","V020","120,1,N,0010,1","06000,1,9,N","070000,1,N,1","+0212,1","-0067,1","10153,1","06,0000,9,1",,,,,"06,1,+06000,1,02,1",,,"06,99,1,00,1,00,1,99999,9,00,1,08,1",,"01,9",,"120,M,+0234,1","240,N,-0008,1","99999,9,08188,1","6,1,017,1,+001,1",,,"SYN112AAXX  31181 76373 32988 61201 10212 21067 38188 40153 56017 80008 91750 333 10234 21008 30/// 56006 58001 86270;","Q01  00002PRCP06"
"76373099999","2005-03-31T21:00:00","4","25.35","-105.75","1967.0","TEPEHUANES DGO., MX","FM-12","99999","V020","310,1,N,0080,1","22000,1,9,N","070000,1,N,1","+0270,1","-0093,1","10088,2","06,0000,9,1",,,,,"01,1,+03000,1,03,1",,,"03,99,1,01,1,00,1,01250,1,03,1,02,1",,"01,9",,,,"99999,9,08165,1","6,1,023,1,+000,1",,,"SYN106AAXX  31211 76373 32688 33108 10270 21093 38165 40088 56023 81032 92052 333 30/// 56066 58000 81360 82070;","Q01  00002PRCP06"
"76373099999","2005-04-03T15:00:00","4","25.35","-105.75","1967.0","TEPEHUANES DGO., MX","FM-12","99999","V020","330,1,N,0010,1","22000,1,9,N","070000,1,N,1","+0106,1","-0005,1","10172,1","06,0000,9,1",,,,,"00,1,+99999,9,99,9",,,"00,99,1,00,1,00,1,99999,9,00,1,00,1",,"01,9",,,,"99999,9,08223,1",,,,"SYN082AAXX  03151 76373 32988 03301 10106 21005 38223 40172 5//// 91420 333 30/// 58///;","Q01  00002PRCP06"
"76373099999","2005-04-03T18:00:00","4","25.35","-105.75","1967.0","TEPEHUANES DGO., MX","FM-12","99999","V020","270,1,N,0080,1","09000,1,9,N","070000,1,N,1","+0242,1","-0005,1","10160,1","06,0000,9,1",,,,,"05,1,+09000,1,00,1",,,"05,99,1,99,9,99,9,99999,9,99,9,99,9",,"01,9",,"120,M,+0280,1","240,N,+0016,1","99999,9,08211,1","6,1,012,1,+999,9",,,"SYN106AAXX  03181 76373 32988 52708 10242 21005 38211 40160 56012 91750 333 10280 20016 30/// 56006 58/// 85080;","Q01  00002PRCP06"
"76373099999","2005-04-03T21:00:00","4","25.35","-105.75","1967.0","TEPEHUANES DGO., MX","FM-12","99999","V020","210,1,N,0080,1","09000,1,9,N","070000,1,N,1","+0270,1","-0007,1","10109,1","06,0000,9,1",,,,,"08,1,+09000,1,02,1",,,"08,99,1,00,1,00,1,99999,9,00,1,07,1",,"01,9",,,,"99999,9,08193,1","6,1,018,1,+000,1",,,"SYN100AAXX  03211 76373 32988 82108 10270 21007 38193 40109 56018 80007 92050 333 30/// 56006 58000 88280;","Q01  00002PRCP06"
"76373099999","2005-04-04T00:00:00","4","25.35","-105.75","1967.0","TEPEHUANES DGO., MX","FM-12","99999","V020","240,1,N,0060,1","99999,9,9,N","070000,1,N,1","+0252,1","+0020,1","10072,1","06,0000,9,1","24,0000,9,1",,,,,,,"08,99,1,00,1,00,1,99999,9,00,1,07,1",,"01,9",,"120,M,+0296,1","180,N,+0016,1","99999,9,08191,1","2,1,008,1,-001,1",,,"SYN124AAXX  04001 76373 32988 82406 10252 20020 38191 40072 52008 80007 92350 333 10296 20016 30/// 50700 56006 59001 70000 88280;","Q01  00002PRCP06"
"76373099999","2005-04-04T15:00:00","4","25.35","-105.75","1967.0","TEPEHUANES DGO., MX","FM-12","99999","V020","330,1,N,0010,1","22000,1,C,N","070000,1,N,1","+0114,1","-0020,1","10188,1","06,0000,9,1",,,,,"02,1,+03000,1,03,1",,,"06,99,1,02,1,00,1,01250,1,03,1,06,1",,"01,9",,,,"99999,9,08226,1","2,1,010,1,+003,1",,,"SYN106AAXX  04151 76373 32688 63301 10114 21020 38226 40188 52010 82036 91458 333 30/// 56066 58003 82360 84070;","Q01  00002PRCP06"
"76373099999","2005-04-04T18:00:00","4","25.35","-105.75","1967.0","TEPEHUANES DGO., MX","FM-12","99999","V020","310,1,N,0050,1","22000,1,9,N","070000,1,N,1","+0238,2","-0056,1","10158,1","06,0000,9,1",,,,,"03,1,+03000,1,03,1",,,"04,99,1,03,1,00,1,01250,1,03,1,02,1",,"01,9",,"120,M,+0252,1","240,N,+0026,1","99999,9,08208,1","6,1,018,1,-003,1",,,"SYN118AAXX  04181 76373 32688 43105 10238 21056 38208 40158 56018 83032 91750 333 10252 20026 30/// 56066 59003 83360 81070;","Q01  00002PRCP06"
"76373099999","2005-04-05T00:00:00","4","25.35","-105.75","1967.0","TEPEHUANES DGO., MX","FM-12","99999","V020","240,1,N,0060,1","09000,1,9,N","070000,1,N,1","+0240,1","-0060,1","10067,1","06,0000,9,1","24,0000,9,1",,,,"03,1,+03000,1,03,1",,,"05,99,1,03,1,00,1,01250,1,03,1,02,1",,"01,9",,"120,M,+0268,1","180,N,+0026,1","99999,9,08187,1","6,1,006,1,-004,1",,,"SYN130AAXX  05001 76373 32688 52406 10240 21060 38187 40067 56006 83032 92358 333 10268 20026 30/// 50700 56066 59004 70000 83360 82070;","Q01  00002PRCP06"
"76373099999","2005-04-05T15:00:00","4","25.35","-105.75","1967.0","TEPEHUANES DGO., MX","FM-12","99999","V020","330,1,N,0010,1","22000,1,9,N","070000,1,N,1","+0096,1","-0031,1","10195,1","06,0000,9,1",,,,,"01,1,+03000,1,03,1",,,"02,99,1,01,1,00,1,01250,1,03,1,02,1",,"01,9",,,,"99999,9,08226,1","2,1,011,1,+000,1",,,"SYN106AAXX  05151 76373 32688 23301 10096 21031 38226 40195 52011 81032 91455 333 30/// 56066 58000 81360 81070;","Q01  00002PRCP06"
"76373099999","2005-04-05T21:00:00","4","25.35","-105.75","1967.0","TEPEHUANES DGO., MX","FM-12","99999","V020","290,1,N,0040,1","22000,1,9,N","070000,1,N,1","+0286,2","-0050,1","10086,2","06,0000,9,1",,,,,"00,1,+99999,9,99,9",,,"00,99,1,00,1,00,1,99999,9,00,1,00,1",,"01,9",,,,"99999,9,08177,1","7,1,031,1,-016,1",,,"SYN082AAXX  05211 76373 32988 02904 10286 21050 38177 40086 57031 92052 333 30/// 59016;","Q01  00002PRCP06"
"76373099999","2005-04-06T00:00:00","4","25.35","-105.75","1967.0","TEPEHUANES DGO., MX","FM-12","99999","V020","270,1,N,0050,1","22000,1,9,N","070000,1,N,1","+0270,1","-0041,1","10030,1","06,0000,9,1","24,0000,9,1",,,,"00,1,+99999,9,99,9",,,"00,99,1,00,1,00,1,99999,9,00,1,00,1",,"01,9",,"120,M,+0310,1","180,N,+0016,1","99999,9,08167,1","6,1,010,1,-020,1",,,"SYN106AAXX  06001 76373 32988 02705 10270 21041 38167 40030 56010 92350 333 10310 20016 30/// 50800 59020 70000;","Q01  00002PRCP06Q02  00002PRCP24"
"76373099999","2005-04-06T12:00:00","4","25.35","-105.75","1967.0","TEPEHUANES DGO., MX","FM-12","99999","V020","999,9,C,0000,1","22000,1,9,N","000400,1,N,1","+0034,1","-0034,1","10155,1","06,0000,9,1","24,0000,9,1",,,,"00,1,+99999,9,99,9",,,"00,99,1,00,1,00,1,99999,9,00,1,00,1",,"09,9","999,-0010,1","120,N,+0022,1","240,M,+0310,1","99999,9,08215,1","9,9,999,9,+000,1",,,"SYN100AAXX  06121 76373 32904 00000 10034 21034 38215 40155 5//// 91155 333 10310 20022 31010 58000 70000;","Q01  00002PRCP06Q02  00002PRCP24"
"76373099999","2005-04-06T15:00:00","4","25.35","-105.75","1967.0","TEPEHUANES DGO., MX","FM-12","99999","V020","999,9,C,0000,1","22000,1,9,N","070000,1,N,1","+0092,1","-0013,1","10207,1","06,0000,9,1",,,,,"00,1,+99999,9,99,9",,,"00,99,1,00,1,00,1,99999,9,00,1,00,1",,"01,9",,,,"99999,9,08234,1","6,1,019,1,-008,1",,,"SYN082AAXX  06151 76373 32988 00000 10092 21013 38234 40207 56019 91454 333 30/// 59008;","Q01  00002PRCP06"
"76373099999","2005-04-06T18:00:00","4","25.35","-105.75","1967.0","TEPEHUANES DGO., MX","FM-12","99999","V020","090,1,N,0010,1","22000,1,9,N","070000,1,N,1","+0228,1","-0025,1","10188,1","06,0000,9,1",,,,,"00,1,+99999,9,99,9",,,"00,99,1,00,1,00,1,99999,9,00,1,00,1",,"01,9",,"120,M,+0258,1","240,N,+0014,1","99999,9,08228,1","7,1,006,1,-020,1",,,"SYN094AAXX  06181 76373 32988 00901 10228 21025 38228 40188 57006 91750 333 10258 20014 30/// 59020;","Q01  00002PRCP06"
"76373099999","2005-04-06T21:00:00","4","25.35","-105.75","1967.0","TEPEHUANES DGO., MX","FM-12","99999","V020","120,1,N,0040,1","22000,1,9,N","070000,1,N,1","+0274,2","-0097,1","10123,2","06,0000,9,1",,,,,"00,1,+99999,9,99,9",,,"00,99,1,00,1,00,1,99999,9,00,1,00,1",,"01,9",,,,"99999,9,08201,1","6,1,027,1,+024,1",,,"SYN082AAXX  06211 76373 32988 01204 10274 21097 38201 40123 56027 92051 333 30/// 58024;","Q01  00002PRCP06"
"76373099999","2005-04-07T12:00:00","4","25.35","-105.75","1967.0","TEPEHUANES DGO., MX","FM-12","99999","V020","999,9,C,0000,1","22000,1,9,N","000400,1,N,1","+0044,1","-0045,1","10181,1","06,0000,9,1","24,0000,9,1",,,,"00,1,+99999,9,99,9",,,"00,99,1,00,1,00,1,99999,9,00,1,00,1",,"01,9","999,+0005,1","120,N,+0034,1","240,M,+0302,1","99999,9,08237,1",,,,"SYN100AAXX  07121 76373 32904 00000 10044 21045 38237 40181 5//// 91157 333 10302 20034 30005 56022 70000;","Q01  00002PRCP06Q02  00002PRCP24"
"76373099999","2005-04-07T15:00:00","4","25.35","-105.75","1967.0","TEPEHUANES DGO., MX","FM-12","99999","V020","999,9,C,0000,1","22000,1,9,N","070000,1,N,1","+0096,1","-0025,1","10221,1","06,0000,9,1",,,,,"01,1,+06000,1,00,1",,,"01,99,1,00,1,00,1,99999,9,00,1,01,1",,"01,9",,,,"99999,9,08248,1","2,1,011,1,+014,1",,,"SYN100AAXX  07151 76373 32988 10000 10096 21025 38248 40221 52011 80001 91455 333 30/// 56006 58014 81070;","Q01  00002PRCP06"
"76373099999","2005-04-07T21:00:00","4","25.35","-105.75","1967.0","TEPEHUANES DGO., MX","FM-12","99999","V020","130,1,N,0040,1","06000,1,9,N","070000,1,N,1","+0270,2","-0065,1","10120,2","06,0000,9,1",,,,,"05,1,+06000,1,00,1",,,"05,99,1,00,1,00,1,99999,9,00,1,07,1",,"01,9",,,,"99999,9,08200,1","6,1,040,1,-001,1",,,"SYN100AAXX  07211 76373 32988 51304 10270 21065 38200 40120 56040 80007 92050 333 30/// 56006 59001 85070;","Q01  00002PRCP06"
"76373099999","2005-04-08T00:00:00","4","25.35","-105.75","1967.0","TEPEHUANES DGO., MX","FM-12","99999","V020","120,1,N,0040,1","22000,1,9,N","070000,1,N,1","+0292,1","-0069,1","10048,2","06,0000,9,1","24,0000,9,1",,,,,,,"01,99,1,00,1,00,1,99999,9,00,1,02,1",,"01,9",,"120,M,+0305,1","180,N,+0026,1","99999,9,08175,1","6,1,025,1,-017,1",,,"SYN124AAXX  08001 76373 32988 11204 10292 21069 38175 40048 56025 80002 92345 333 10305 20026 30/// 50790 56006 59017 70000 81070;","Q01  00002PRCP06"
"76373099999","2005-04-08T12:00:00","4","25.35","-105.75","1967.0","TEPEHUANES DGO., MX","FM-12","99999","V020","999,9,C,0000,1","22000,1,9,N","000600,1,N,1","+0072,1","-0010,1","10118,1","06,0000,9,1","24,0000,9,1",,,,"03,1,+06000,1,00,1",,,"03,99,1,00,1,00,1,99999,9,00,1,02,1",,"01,9","999,+0032,1","120,N,+0038,1","240,M,+0305,1","99999,9,08200,1","9,9,999,9,-037,1",,,"SYN118AAXX  08121 76373 32906 30000 10072 21010 38200 40118 5//// 80002 91158 333 10305 20038 30032 56006 59037 70000 83070;","Q01  00002PRCP06"
"76373099999","2005-04-08T18:00:00","4","25.35","-105.75","1967.0","TEPEHUANES DGO., MX","FM-12","99999","V020","300,1,N,0020,1","06000,1,9,N","070000,1,N,1","+0242,2","-0012,1","10118,1","06,0000,9,1",,,,,"08,1,+06000,1,02,1",,,"08,99,1,00,1,00,1,99999,9,00,1,07,1",,"01,9",,"120,M,+0276,1","240,N,+0025,1","99999,9,08188,1","6,1,016,1,-052,1",,,"SYN118AAXX  08181 76373 32988 83002 10242 21012 38188 40118 56016 80007 91750 333 10276 20025 30/// 56006 59052 88270 99020;","Q01  00002PRCP06"
"76373099999","2005-04-09T18:00:00","4","25.35","-105.75","1967.0","TEPEHUANES DGO., MX","FM-12","99999","V020","240,1,N,0060,1","22000,1,C,N","070000,1,N,1","+0254,1","-0057,1","10100,1","06,0000,9,1",,,,,"02,1,+03000,1,03,1",,,"06,99,1,02,1,00,1,01250,1,03,1,01,1",,"01,9",,"120,M,+0270,1","240,N,+0028,1","99999,9,08161,1","7,1,015,1,-032,1",,,"SYN118AAXX  09181 76373 32688 62406 10254 21057 38161 40100 57015 82031 91750 333 10270 20028 30/// 56066 59032 82360 84070;","Q01  00002PRCP06"
"76373099999","2005-04-10T15:00:00","4","25.35","-105.75","1967.0","TEPEHUANES DGO., MX","FM-12","99999","V020","300,1,N,0020,1","22000,1,9,N","070000,1,N,1","+0154,1","-0051,1","10053,1","06,0000,9,1",,,,,"00,1,+99999,9,99,9",,,"00,99,1,00,1,00,1,99999,9,00,1,00,1",,"01,9",,,,"99999,9,08549,1","9,9,999,9,-079,1",,,"SYN082AAXX  10151 76373 32988 03002 10154 21051 38549 40053 5//// 91450 333 30/// 59079;","Q01  00002PRCP06"
"76373099999","2005-04-10T18:00:00","4","25.35","-105.75","1967.0","TEPEHUANES DGO., MX","FM-12","99999","V020","250,1,N,0090,1","22000,1,9,N","070000,1,N,1","+0224,1","-0118,1","10046,1","06,0000,9,1",,,,,"00,1,+99999,9,99,9",,,"00,99,1,00,1,00,1,99999,9,00,1,00,1",,"01,9",,"120,M,+0246,1","240,N,+0042,1","99999,9,08142,2","6,1,007,1,-019,1",,,"SYN094AAXX  10181 76373 32988 02509 10224 21118 38142 40046 56007 91750 333 10246 20042 30/// 59019;","Q01  00002PRCP06"
"76373099999","2005-04-10T21:00:00","4","25.35","-105.75","1967.0","TEPEHUANES DGO., MX","FM-12","99999","V020","240,1,N,0070,1","22000,1,9,N","070000,1,N,1","+0244,1","-0059,1","10023,1","06,0000,9,1",,,,,"00,1,+99999,9,99,9",,,"00,99,1,00,1,00,1,99999,9,00,1,00,1",,"01,9",,,,"99999,9,08141,2","6,1,001,1,-007,1",,,"SYN082AAXX  10211 76373 32988 02407 10244 21059 38141 40023 56001 92050 333 30/// 59007;","Q01  00002PRCP06"
"76373099999","2005-04-11T12:00:00","4","25.35","-105.75","1967.0","TEPEHUANES DGO., MX","FM-12","99999","V020","999,9,C,0000,1","22000,1,9,N","000600,1,N,1","+0026,1","-0005,1","10134,1","06,0000,9,1","24,0000,9,1",,,,"00,1,+99999,9,99,9",,,"00,99,1,00,1,00,1,99999,9,00,1,00,1",,"09,9","999,-0025,1","120,N,+0000,1","240,M,+0258,1","99999,9,08177,1",,,,"SYN100AAXX  11121 76373 32906 00000 10026 21005 38177 40134 5//// 91156 333 10258 20000 31025 58/// 70000;","Q01  00002PRCP06Q02  00002PRCP24"
"76373099999","2005-04-11T15:00:00","4","25.35","-105.75","1967.0","TEPEHUANES DGO., MX","FM-12","99999","V020","270,1,N,0010,1","22000,1,9,N","070000,1,N,1","+0094,1","-0028,1","10160,1","06,0000,9,1",,,,,"00,1,+99999,9,99,9",,,"00,99,1,00,1,00,1,99999,9,00,1,00,1",,"01,9",,,,"99999,9,08184,1","1,1,007,1,+035,1",,,"SYN082AAXX  11151 76373 32988 02701 10094 21028 38184 40160 51007 91458 333 30/// 58035;","Q01  00002PRCP06"
"76373099999","2005-04-11T18:00:00","4","25.35","-105.75","1967.0","TEPEHUANES DGO., MX","FM-12","99999","V020","120,1,N,0010,1","22000,1,9,N","070000,1,N,1","+0198,1","-0051,1","10125,1","06,0000,9,1",,,,,"00,1,+99999,9,99,9",,,"00,99,1,00,1,00,1,99999,9,00,1,00,1",,"01,9",,"120,M,+0220,1","240,N,-0010,1","99999,9,08170,1","7,1,014,1,-022,1",,,"SYN094AAXX  11181 76373 32988 01201 10198 21051 38170 40125 57014 91750 333 10220 21010 30/// 59022;","Q01  00002PRCP06"
"76373099999","2005-04-11T21:00:00","4","25.35","-105.75","1967.0","TEPEHUANES DGO., MX","FM-12","99999","V020","280,1,N,0060,1","99999,9,9,N","070000,1,N,1","+0276,1","-0126,1","10058,2","06,0000,9,1",,,,,,,,"08,99,1,99,9,99,9,99999,9,99,9,99,9",,"01,9",,,,"99999,9,08141,1","6,1,029,1,+000,1",,,"SYN082AAXX  11211 76373 32988 82806 10276 21126 38141 40058 56029 92058 333 30/// 58000;","Q01  00002PRCP06"
"76373099999","2005-04-12T12:00:00","4","25.35","-105.75","1967.0","TEPEHUANES DGO., MX","FM-12","99999","V020","999,9,C,0000,1","22000,1,9,N","000600,1,N,1","+0022,1","-0040,1","10120,1","06,0000,9,1","24,0000,9,1",,,,"00,1,+99999,9,99,9",,,"00,99,1,00,1,00,1,99999,9,00,1,00,1",,"09,9","999,-0012,1","120,N,+0015,1","240,M,+0298,1","99999,9,08182,1","9,9,999,9,+005,1",,,"SYN100AAXX  12121 76373 32906 00000 10022 21040 38182 40120 5//// 91146 333 10298 20015 31012 58005 70000;","Q01  00002PRCP06Q02  00002PRCP24"
"76373099999","2005-04-12T15:00:00","4","25.35","-105.75","1967.0","TEPEHUANES DGO., MX","FM-12","99999","V020","330,1,N,0010,1","22000,1,9,N","070000,1,N,1","+0082,1","-0032,1","10162,1","06,0000,9,1",,,,,"00,1,+99999,9,99,9",,,"00,99,1,00,1,00,1,99999,9,00,1,00,1",,"01,9",,,,"99999,9,08191,1","0,1,009,1,+007,1",,,"SYN082AAXX  12151 76373 32988 03301 10082 21032 38191 40162 50009 91457 333 30/// 58007;","Q01  00002PRCP06"
"76373099999","2005-04-12T18:00:00","4","25.35","-105.75","1967.0","TEPEHUANES DGO., MX","FM-12","99999","V020","090,1,N,0020,1","22000,1,9,N","070000,1,N,1","+0220,1","-0037,1","10137,1","06,0000,9,1",,,,,"00,1,+99999,9,99,9",,,"00,99,1,00,1,00,1,99999,9,00,1,00,1",,"01,9",,"120,M,+0250,1","240,N,+0000,1","99999,9,08181,1","6,1,010,1,+011,1",,,"SYN094AAXX  12181 76373 32988 00902 10220 21037 38181 40137 56010 91750 333 10250 20000 30/// 58011;","Q01  00002PRCP06"
"76373099999","2005-04-12T21:00:00","4","25.35","-105.75","1967.0","TEPEHUANES DGO., MX","FM-12","99999","V020","190,1,N,0030,1","22000,1,9,N","070000,1,N,1","+0292,1","-0069,1","10065,2","06,0000,9,1",,,,,"00,1,+99999,9,99,9",,,"00,99,1,00,1,00,1,99999,9,00,1,00,1",,"01,9",,,,"99999,9,08153,1","7,1,028,1,+012,1",,,"SYN082AAXX  12211 76373 32988 01903 10292 21069 38153 40065 57028 92048 333 30/// 58012;","Q01  00002PRCP06"
"76373099999","2005-04-13T00:00:00","4","25.35","-105.75","1967.0","TEPEHUANES DGO., MX","FM-12","99999","V020","270,1,N,0050,1","22000,1,9,N","070000,1,N,1","+0278,1","-0057,1","10007,2","06,0000,9,1","24,0000,9,1",,,,,,,"04,99,1,00,1,00,1,99999,9,00,1,05,1",,"01,9",,"120,M,+0318,1","180,N,+0000,1","99999,9,08143,1","6,1,010,1,+003,1",,,"SYN124AAXX  13001 76373 32988 42705 10278 21057 38143 40007 56010 80005 92355 333 10318 20000 30/// 50740 56006 58003 70000 84080;","Q01  00002PRCP06"
"76373099999","2005-04-13T12:00:00","4","25.35","-105.75","1967.0","TEPEHUANES DGO., MX","FM-12","99999","V020","999,9,C,0000,1","22000,1,9,N","000600,1,N,1","+0044,1","-0054,1","10120,1","06,0000,9,1","24,0000,9,1",,,,"00,1,+99999,9,99,9",,,"00,99,1,00,1,00,1,99999,9,00,1,00,1",,"09,9","999,-0003,1","120,N,+0036,1","240,M,+0318,1","99999,9,08191,1","9,9,999,9,-009,1",,,"SYN100AAXX  13121 76373 32906 00000 10044 21054 38191 40120 5//// 91145 333 10318 20036 31003 59009 70000;","Q01  00002PRCP06Q02  00002PRCP24"
"76373099999","2005-04-13T15:00:00","4","25.35","-105.75","1967.0","TEPEHUANES DGO., MX","FM-12","99999","V020","320,1,N,0010,1","22000,1,9,N","070000,1,N,1","+0110,1","-0006,1","10165,1","06,0000,9,1",,,,,"04,1,+06000,1,00,1",,,"04,99,1,00,1,00,1,99999,9,00,1,02,1",,"01,9",,,,"99999,9,08203,1","1,1,012,1,+012,1",,,"SYN100AAXX  13151 76373 32988 43201 10110 21006 38203 40165 51012 80002 91453 333 30/// 56006 58012 84070;","Q01  00002PRCP06"
"76373099999","2005-04-13T21:00:00","4","25.35","-105.75","1967.0","TEPEHUANES DGO., MX","FM-12","99999","V020","090,1,N,0010,1","06000,1,9,N","070000,1,N,1","+0296,2","-0090,1","10067,2","06,0000,9,1",,,,,"06,1,+06000,1,02,1",,,"06,99,1,00,1,00,1,99999,9,00,1,07,1",,"01,9",,,,"99999,9,08162,1","7,1,030,1,+009,1",,,"SYN100AAXX  13211 76373 32988 60901 10296 21090 38162 40067 57030 80007 92056 333 30/// 56006 58009 86270;","Q01  00002PRCP06"
"76373099999","2005-04-14T00:00:00","4","25.35","-105.75","1967.0","TEPEHUANES DGO., MX","FM-12","99999","V020","250,1,N,0060,1","99999,9,9,N","070000,1,N,1","+0288,1","-0121,1","10023,1","06,0000,9,1","24,0000,9,1",,,,,,,"08,99,1,00,1,00,1,99999,9,00,1,07,1",,"01,9",,"120,M,+0326,1","180,N,+0020,1","99999,9,08186,1","2,1,004,1,+023,1",,,"SYN124AAXX  14001 76373 32988 82506 10288 21121 38186 40023 52004 80007 92355 333 10326 20020 30/// 50680 56006 58023 70000 88280;","Q01  00002PRCP06"
"76373099999","2005-04-14T12:00:00","4","25.35","-105.75","1967.0","TEPEHUANES DGO., MX","FM-12","99999","V020","300,1,N,0010,1","22000,1,9,N","000600,1,N,1","+0062,1","-0031,1","10116,1","06,0000,9,1","24,0000,9,1",,,,"03,1,+06000,1,00,1",,,"03,99,1,00,1,00,1,99999,9,00,1,02,1",,"01,9","999,+0020,1","120,N,+0048,1","240,M,+0326,1","99999,9,08197,1","9,9,999,9,+006,1",,,"SYN118AAXX  14121 76373 32906 33001 10062 21031 38197 40116 5//// 80002 91150 333 10326 20048 30020 56006 58006 70000 83070;","Q01  00002PRCP06"
"76373099999","2005-04-14T15:00:00","4","25.35","-105.75","1967.0","TEPEHUANES DGO., MX","FM-12","99999","V020","290,1,N,0010,1","09000,1,C,N","070000,1,N,1","+0114,1","-0014,1","10155,1","06,0000,9,1",,,,,"01,1,+03000,1,03,1",,,"08,99,1,01,1,00,1,01250,1,03,1,07,1",,"01,9",,,,"99999,9,08203,1","0,1,006,1,+000,1",,,"SYN106AAXX  14151 76373 32688 82901 10114 21014 38203 40155 50006 81037 91450 333 30/// 56066 58000 81360 87270;","Q01  00002PRCP06"
"76373099999","2005-04-14T18:00:00","4","25.35","-105.75","1967.0","TEPEHUANES DGO., MX","FM-12","99999","V020","060,1,N,0020,1","06000,1,9,N","070000,1,N,1","+0252,1","-0072,1","10118,1","06,0000,9,1",,,,,"07,1,+06000,1,02,1",,,"07,99,1,00,1,00,1,99999,9,00,1,07,1",,"01,9",,"120,M,+0272,1","240,N,+0040,1","99999,9,08187,1","6,1,016,1,+005,1",,,"SYN112AAXX  14181 76373 32988 70602 10252 21072 38187 40118 56016 80007 91750 333 10272 20040 30/// 56006 58005 87270;","Q01  00002PRCP06"
"76373099999","2005-04-14T21:00:00","4","25.35","-105.75","1967.0","TEPEHUANES DGO., MX","FM-12","99999","V020","290,1,N,0040,1","06000,1,9,N","070000,1,N,1","+0290,2","-0086,1","10055,2","06,0000,9,1",,,,,"08,1,+06000,1,02,1",,,"08,99,1,00,1,00,1,99999,9,00,1,07,1",,"01,9",,,,"99999,9,08159,1","7,1,028,1,-003,1",,,"SYN100AAXX  14211 76373 32988 82904 10290 21086 38159 40055 57028 80007 92058 333 30/// 56006 59003 88270;","Q01  00002PRCP06"
"76373099999","2005-04-15T12:00:00","4","25.35","-105.75","1967.0","TEPEHUANES DGO., MX","FM-12","99999","V020","280,1,N,0030,1","22000,1,9,N","000400,1,N,1","+0116,1","-0012,1","10069,1","06,0000,9,1","24,0000,9,1",,,,"00,1,+99999,9,99,9",,,"00,99,1,00,1,00,1,99999,9,00,1,00,1",,"01,9","999,+0072,1","120,N,+0106,1","240,M,+0312,1","99999,9,08185,1","9,9,999,9,-012,1",,,"SYN100AAXX  15121 76373 32904 02803 10116 21012 38185 40069 5//// 91150 333 10312 20106 30072 59012 70000;","Q01  00002PRCP06Q02  00002PRCP24"
"76373099999","2005-04-15T15:00:00","4","25.35","-105.75","1967.0","TEPEHUANES DGO., MX","FM-12","99999","V020","060,1,N,0010,1","22000,1,9,N","070000,1,N,1","+0140,1","+0022,1","10109,1","06,0000,9,1",,,,,"02,1,+03000,1,03,1",,,"03,99,1,02,1,00,1,01250,1,03,1,02,1",,"01,9",,,,"99999,9,08200,1","1,1,015,1,-003,1",,,"SYN106AAXX  15151 76373 32688 30601 10140 20022 38200 40109 51015 82032 91450 333 30/// 56066 59003 82360 81070;","Q01  00002PRCP06"
"76373099999","2005-04-15T18:00:00","4","25.35","-105.75","1967.0","TEPEHUANES DGO., MX","FM-12","99999","V020","120,1,N,0050,1","09000,1,C,N","070000,1,N,1","+0258,2","+0005,1","10086,1","06,0000,9,1",,,,,"03,1,+03000,1,03,1",,,"06,99,1,03,1,00,1,01250,1,03,1,02,1",,"01,9",,"120,M,+0272,1","240,N,+0080,1","99999,9,08190,1","6,1,010,1,+003,1",,,"SYN118AAXX  15181 76373 32688 61205 10258 20005 38190 40086 56010 83032 91750 333 10272 20080 30/// 56066 58003 83360 83070;","Q01  00002PRCP06"
"76373099999","2005-04-17T15:00:00","4","25.35","-105.75","1967.0","TEPEHUANES DGO., MX","FM-12","99999","V020","270,1,N,0010,1","03000,1,9,N","070000,1,N,1","+0136,1","+0025,1","10158,1","06,0000,9,1",,,,,"08,1,+03000,1,04,1",,,"08,99,1,08,1,00,1,01250,1,02,1,00,1",,"01,9",,,,"99999,9,08226,1",,,,"SYN100AAXX  17151 76373 32688 82701 10136 20025 38226 40158 5//// 88020 91450 333 30/// 56060 58/// 88460;","Q01  00002PRCP06"
"76373099999","2005-04-17T18:00:00","4","25.35","-105.75","1967.0","TEPEHUANES DGO., MX","FM-12","99999","V020","060,1,N,0010,1","03000,1,9,N","070000,1,N,1","+0218,1","-0002,1","10155,1","06,0000,9,1",,,,,"08,1,+03000,1,03,1",,,"08,99,1,08,1,00,1,01250,1,03,1,00,1",,"01,9",,"120,M,+0230,1","240,N,+0098,1","99999,9,08232,1","2,1,006,1,+999,9",,,"SYN112AAXX  17181 76373 32688 80601 10218 21002 38232 40155 52006 88030 91750 333 10230 20098 30/// 56060 58/// 88360;","Q01  00002PRCP06"
"76373099999","2005-04-17T21:00:00","4","25.35","-105.75","1967.0","TEPEHUANES DGO., MX","FM-12","99999","V020","060,1,N,0020,1","03000,1,9,N","070000,1,N,1","+0264,1","-0008,1","10086,2","06,0000,9,1",,,,,"08,1,+03000,1,03,1",,,"08,99,1,08,1,00,1,01250,1,06,1,00,1",,"01,9",,,,"99999,9,08192,1","6,1,040,1,+999,9",,,"SYN100AAXX  17211 76373 32688 80602 10264 21008 38192 40086 56040 88060 92050 333 30/// 56060 58/// 88360;","Q01  00002PRCP06"
"76373099999","2005-04-18T15:00:00","4","25.35","-105.75","1967.0","TEPEHUANES DGO., MX","FM-12","99999","V020","330,1,N,0010,1","99999,9,9,N","070000,1,N,1","+0130,1","+0046,1","10177,1","06,0000,9,1",,,,,"02,1,+06000,1,01,1",,,"08,99,1,00,1,00,1,99999,9,00,1,08,1",,"01,9",,,,"99999,9,08222,1","9,9,999,9,-004,1",,,"SYN106AAXX  18151 76373 32988 83301 10130 20046 38222 40177 5//// 80008 91450 333 30/// 56006 59004 82170 86270;","Q01  00002PRCP06"
"76373099999","2005-04-18T18:00:00","4","25.35","-105.75","1967.0","TEPEHUANES DGO., MX","FM-12","99999","V020","280,1,N,0060,1","03600,1,C,N","070000,1,N,1","+0262,2","+0014,1","10139,1","06,0000,9,1",,,,,"01,1,+00300,1,08,1","03,1,+03000,1,03,1",,"08,99,1,01,1,01,1,00250,1,03,1,02,1",,"01,9",,"120,M,+0278,1","240,N,+0072,1","99999,9,08208,1","6,1,014,1,-024,1",,,"SYN124AAXX  18181 76373 32388 82806 10262 20014 38208 40139 56014 81132 91750 333 10278 20072 30/// 56666 59024 81810 83360 84070;","Q01  00002PRCP06"
"76373099999","2005-04-19T15:00:00","4","25.35","-105.75","1967.0","TEPEHUANES DGO., MX","FM-12","99999","V020","300,1,N,0020,1","22000,1,9,N","070000,1,N,1","+0118,1","+0047,1","10151,1","06,0000,9,1",,,,,"01,1,+03000,1,03,1",,,"02,99,1,01,1,00,1,01250,1,03,1,02,1",,"01,9",,,,"99999,9,08215,1","9,9,999,9,-007,1",,,"SYN106AAXX  19151 76373 32688 23002 10118 20047 38215 40151 5//// 81032 91450 333 30/// 56066 59007 81360 81070;","Q01  00002PRCP06"
"76373099999","2005-04-19T18:00:00","4","25.35","-105.75","1967.0","TEPEHUANES DGO., MX","FM-12","99999","V020","240,1,N,0060,1","22000,1,9,N","070000,1,N,1","+0252,2","+0036,1","10125,1","06,0000,9,1",,,,,"02,1,+00300,1,08,1","01,1,+03000,1,03,1",,"04,99,1,02,1,01,1,00250,1,03,1,02,1",,"01,9",,"120,M,+0270,1","240,N,+0064,1","99999,9,08204,1","6,1,011,1,-004,1",,,"SYN124AAXX  19181 76373 32388 42406 10252 20036 38204 40125 56011 82132 91750 333 10270 20064 30/// 56666 59004 82810 81360 81070;","Q01  00002PRCP06"
"76373099999","2005-04-21T00:00:00","4","25.35","-105.75","1967.0","TEPEHUANES DGO., MX","FM-12","99999","V020","270,1,N,0050,1","03600,1,9,N","070000,1,N,1","+0270,1","-0028,1","10035,1","06,0000,9,1","24,0000,9,1",,,,"02,1,+00600,1,08,1",,,"07,99,1,02,1,02,1,00250,1,03,1,00,1",,"01,9",,"120,M,+0300,1","180,N,+0052,1","99999,9,08174,1","6,1,009,1,-004,1",,,"SYN130AAXX  21001 76373 32388 72705 10270 21028 38174 40035 56009 82230 92350 333 10300 20052 30/// 50170 56660 59004 70000 82820 85360;","Q01  00002PRCP06"
"76373099999","2005-04-21T12:00:00","4","25.35","-105.75","1967.0","TEPEHUANES DGO., MX","FM-12","99999","V020","999,9,C,0000,1","22000,1,9,N","001000,1,N,1","+0090,1","+0004,1","10116,1","06,0000,9,1","24,0000,9,1",,,,"01,1,+03000,1,03,1",,,"01,99,1,01,1,00,1,01250,1,03,1,00,1",,"01,9","999,+0045,1","120,N,+0080,1","240,M,+0300,1","99999,9,08209,1","9,9,999,9,+009,1",,,"SYN118AAXX  21121 76373 32610 10000 10090 20004 38209 40116 5//// 81030 91158 333 10300 20080 30045 56060 58009 70000 81360;","Q01  00002PRCP06"
"76373099999","2005-04-21T15:00:00","4","25.35","-105.75","1967.0","TEPEHUANES DGO., MX","FM-12","99999","V020","300,1,N,0010,1","06000,1,9,N","070000,1,N,1","+0124,1","+0037,1","10155,1","06,0000,9,1",,,,,"08,1,+06000,1,02,1",,,"08,99,1,00,1,00,1,99999,9,00,1,08,1",,"01,9",,,,"99999,9,08222,1","2,1,013,1,+015,1",,,"SYN100AAXX  21151 76373 32988 83001 10124 20037 38222 40155 52013 80008 91447 333 30/// 56006 58015 88270;","Q01  00002PRCP06"
"76373099999","2005-04-21T18:00:00","4","25.35","-105.75","1967.0","TEPEHUANES DGO., MX","FM-12","99999","V020","290,1,N,0060,1","09000,1,C,N","070000,1,N,1","+0262,1","+0013,1","10130,1","06,0000,9,1",,,,,"02,1,+03000,1,03,1",,,"08,99,1,02,1,00,1,01250,1,03,1,08,1",,"01,9",,"120,M,+0278,1","240,N,+0065,1","99999,9,08211,1","6,1,011,1,-012,1",,,"SYN118AAXX  21181 76373 32688 82906 10262 20013 38211 40130 56011 82038 91750 333 10278 20065 30/// 56066 59012 82360 86270;","Q01  00002PRCP06"
"76373099999","2005-04-21T21:00:00","4","25.35","-105.75","1967.0","TEPEHUANES DGO., MX","FM-12","99999","V020","290,1,N,0030,1","06000,1,9,N","070000,1,N,1","+0280,1","-0034,1","10088,1","06,0000,9,1",,,,,"06,1,+06000,1,02,1",,,"06,99,1,00,1,00,1,99999,9,00,1,07,1",,"01,9",,,,"99999,9,08194,1","6,1,017,1,+011,1",,,"SYN106AAXX  21211 76373 32988 62903 10280 21034 38194 40088 56017 80007 92046 333 30/// 56006 58011 86270 99020;","Q01  00002PRCP06"
"76373099999","2005-04-22T00:00:00","4","25.35","-105.75","1967.0","TEPEHUANES DGO., MX","FM-12","99999","V020","320,1,N,0060,1","22000,1,9,N","070000,1,N,1","+0278,1","-0051,1","10042,1","06,0000,9,1","24,0000,9,1",,,,,,,"04,99,1,00,1,00,1,99999,9,00,1,02,1",,"01,9",,"120,M,+0308,1","180,N,+0065,1","99999,9,08185,1","6,1,009,1,+011,1",,,"SYN124AAXX  22001 76373 32988 43206 10278 21051 38185 40042 56009 80002 92345 333 10308 20065 30/// 50880 56006 58011 70000 84070;","Q01  00002PRCP06"
"76373099999","2005-04-22T12:00:00","4","25.35","-105.75","1967.0","TEPEHUANES DGO., MX","FM-12","99999","V020","999,9,C,0000,1","03000,1,9,N","001000,1,N,1","+0094,1","+0003,1","10130,1","06,0000,9,1","24,0000,9,1",,,,"07,1,+03000,1,03,1",,,"07,99,1,07,1,00,1,01250,1,03,1,00,1",,"01,9","999,+0058,1","120,N,+0084,1","240,M,+0308,1","99999,9,08217,1","9,9,999,9,+008,1",,,"SYN118AAXX  22121 76373 32610 70000 10094 20003 38217 40130 5//// 87030 91150 333 10308 20084 30058 56060 58008 70000 87360;","Q01  00002PRCP06"
"76373099999","2005-04-22T15:00:00","4","25.35","-105.75","1967.0","TEPEHUANES DGO., MX","FM-12","99999","V020","999,9,C,0000,1","09000,1,C,N","070000,1,N,1","+0150,1","+0016,1","10160,1","06,0000,9,1",,,,,"02,1,+03000,1,03,1",,,"06,99,1,02,1,00,1,01250,1,03,1,02,1",,"01,9",,,,"99999,9,08226,1","2,1,009,1,+004,1",,,"SYN106AAXX  22151 76373 32688 60000 10150 20016 38226 40160 52009 82032 91448 333 30/// 56066 58004 82360 84070;","Q01  00002PRCP06"
"76373099999","2005-04-22T18:00:00","4","25.35","-105.75","1967.0","TEPEHUANES DGO., MX","FM-12","99999","V020","300,1,N,0020,1","09000,1,C,N","070000,1,N,1","+0264,1","-0026,1","10132,1","06,0000,9,1",,,,,"03,1,+03000,1,03,1",,,"08,99,1,03,1,00,1,01250,1,03,1,02,1",,"01,9",,"120,M,+0284,1","240,N,+0075,1","99999,9,08216,1","6,1,010,1,-005,1",,,"SYN118AAXX  22181 76373 32688 83002 10264 21026 38216 40132 56010 83032 91750 333 10284 20075 30/// 56066 59005 83360 85070;","Q01  00002PRCP06"
"76373099999","2005-04-22T21:00:00","4","25.35","-105.75","1967.0","TEPEHUANES DGO., MX","FM-12","99999","V020","240,1,N,0010,1","09000,1,C,N","070000,1,N,1","+0290,1","-0040,1","10076,1","06,0000,9,1",,,,,"02,1,+03000,1,03,1",,,"08,99,1,02,1,00,1,01250,1,03,1,08,1",,"01,9",,,,"99999,9,08190,1","7,1,026,1,-004,1",,,"SYN106AAXX  22211 76373 32688 82401 10290 21040 38190 40076 57026 82038 92050 333 30/// 56066 59004 82360 86270;","Q01  00002PRCP06"
"76373099999","2005-04-23T00:00:00","4","25.35","-105.75","1967.0","TEPEHUANES DGO., MX","FM-12","99999","V020","150,1,N,0040,1","03000,1,C,N","070000,1,N,1","+0286,1","-0028,1","10023,1","06,0000,9,1","24,0000,9,1",,,,"05,1,+03000,1,03,1",,,"08,99,1,05,1,00,1,01250,1,03,1,02,1",,"01,9",,"120,M,+0320,1","180,N,+0065,1","99999,9,08173,1","6,1,017,1,-012,1",,,"SYN130AAXX  23001 76373 32688 81504 10286 21028 38173 40023 56017 85032 92345 333 10320 20065 30/// 50860 56066 59012 70000 85360 83070;","Q01  00002PRCP06"
"76373099999","2005-04-23T15:00:00","4","25.35","-105.75","1967.0","TEPEHUANES DGO., MX","FM-12","99999","V020","999,9,C,0000,1","03000,1,9,N","070000,1,N,1","+0164,1","+0011,1","10132,1","06,0000,9,1",,,,,"08,1,+03000,1,03,1",,,"08,99,1,08,1,00,1,01250,1,06,1,00,1",,"01,9",,,,"99999,9,08210,1","9,9,999,9,-016,1",,,"SYN100AAXX  23151 76373 32688 80000 10164 20011 38210 40132 5//// 88060 91445 333 30/// 56060 59016 88360;","Q01  00002PRCP06"
"76373099999","2005-04-23T18:00:00","4","25.35","-105.75","1967.0","TEPEHUANES DGO., MX","FM-12","99999","V020","350,1,N,0030,1","22000,1,9,N","070000,1,N,1","+0234,1","-0057,1","10127,1","06,0000,9,1",,,,,"08,1,+03000,1,03,1",,,"99,99,9,08,1,00,1,01250,1,06,1,00,1",,"01,9",,"120,M,+0250,1","240,N,+0102,1","99999,9,08213,1","2,1,003,1,-003,1",,,"SYN112AAXX  23181 76373 32688 13503 10234 21057 38213 40127 52003 88060 91755 333 10250 20102 30/// 56060 59003 88360;","Q01  00002PRCP06"
"76373099999","2005-04-23T21:00:00","4","25.35","-105.75","1967.0","TEPEHUANES DGO., MX","FM-12","99999","V020","270,1,N,0060,1","03000,1,9,N","070000,1,N,1","+0236,1","+0024,1","10097,1","06,0000,9,1",,,,,"08,1,+03000,1,03,1",,,"08,99,1,08,1,00,1,01250,1,06,1,00,1",,"01,9",,,,"99999,9,08203,1","6,1,007,1,+013,1",,,"SYN100AAXX  23211 76373 32688 82706 10236 20024 38203 40097 56007 88060 92050 333 30/// 56060 58013 88360;","Q01  00002PRCP06"
"76373099999","2005-04-24T00:00:00","4","25.35","-105.75","1967.0","TEPEHUANES DGO., MX","FM-12","99999","V020","320,1,N,0080,1","01200,1,9,N","070000,1,N,1","+0240,1","+0031,1","09906,2","06,0000,9,1","24,0000,9,1",,,,,,,"08,99,1,08,1,00,1,01250,1,06,1,00,1",,"01,9",,"120,M,+0288,1","180,N,+0102,1","99999,9,08178,1","6,1,025,1,+005,1",,,"SYN124AAXX  24001 76373 32688 83208 10240 20031 38178 49906 56025 88060 92340 333 10288 20102 30/// 50510 56060 58005 70000 88360;","Q01  00002PRCP06"
"76373099999","2005-04-24T15:00:00","4","25.35","-105.75","1967.0","TEPEHUANES DGO., MX","FM-12","99999","V020","330,1,N,0010,1","03000,1,9,N","070000,1,N,1","+0162,1","+0134,1","10097,1","15,0002,9,1",,,,,"06,1,+03000,1,03,1",,,"06,99,1,06,1,00,1,01250,1,06,1,00,1",,"01,9","999,+0110,1",,,"99999,9,08202,1","9,9,999,9,-008,1",,,"SYN106AAXX  24151 76373 22688 63301 10162 20134 38202 40097 5//// 86060 91450 333 30110 56060 59008 69929 86360;",
"76373099999","2005-04-24T18:00:00","4","25.35","-105.75","1967.0","TEPEHUANES DGO., MX","FM-12","99999","V020","270,1,N,0060,1","22000,1,9,N","070000,1,N,1","+0242,1","+0052,1","99999,9","06,0000,9,1",,,,,"03,1,+00600,1,08,1",,,"03,99,1,03,1,02,1,00250,1,00,1,00,1",,"01,9",,"120,M,+0255,1","240,N,+0122,1","99999,9,08196,1","6,1,006,1,-017,1",,,"SYN112AAXX  24181 76373 32388 32706 10242 20052 38196 40209 56006 83200 91740 333 10255 20122 30/// 56600 59017 83820;","Q01  00002PRCP06Q02 102093APOSLP"
"76373099999","2005-04-25T00:00:00","4","25.35","-105.75","1967.0","TEPEHUANES DGO., MX","FM-12","99999","V020","270,1,N,0060,1","22000,1,9,N","070000,1,N,1","+0236,1","+0035,1","10018,1","06,0000,9,1","24,0002,9,1",,,,,,,"01,99,1,01,1,02,1,00250,1,00,1,00,1",,"01,9",,"120,M,+0288,1","180,N,+0122,1","99999,9,08165,1","6,1,010,1,-013,1",,,"SYN124AAXX  25001 76373 32388 12706 10236 20035 38165 40018 56010 81200 92350 333 10288 20122 30/// 50790 56600 59013 70002 81820;","Q01  00002PRCP06"
"76373099999","2005-04-25T12:00:00","4","25.35","-105.75","1967.0","TEPEHUANES DGO., MX","FM-12","99999","V020","290,1,N,0040,1","22000,1,9,N","002000,1,N,1","+0300,1","-0013,1","10064,1","06,0000,9,1","24,0000,9,1",,,,"00,1,+99999,9,99,9",,,"00,99,1,00,1,00,1,99999,9,00,1,00,1",,"01,9","999,+0102,1","120,N,+0122,1","240,M,+9999,9","99999,9,08163,1",,,,"SYN100AAXX  25121 76373 32920 02904 10300 21013 38163 40064 5//// 91152 333 10288 20122 30102 58/// 70000;","Q01  00002PRCP06Q02  00002PRCP24Q03 +02882ATMX  "
"76373099999","2005-04-25T15:00:00","4","25.35","-105.75","1967.0","TEPEHUANES DGO., MX","FM-12","99999","V020","280,1,N,0060,1","22000,1,9,N","070000,1,N,1","+0174,1","-0013,1","10074,1","06,0000,9,1",,,,,"00,1,+99999,9,99,9",,,"00,99,1,00,1,00,1,99999,9,00,1,00,1",,"01,9",,,,"99999,9,08166,1","0,1,003,1,-032,1",,,"SYN082AAXX  25151 76373 32988 02806 10174 21013 38166 40074 50003 91454 333 30/// 59032;","Q01  00002PRCP06"
"76373099999","2005-04-25T18:00:00","4","25.35","-105.75","1967.0","TEPEHUANES DGO., MX","FM-12","99999","V020","240,1,N,0080,1","22000,1,9,N","070000,1,N,1","+0232,1","-0018,1","10062,1","06,0000,9,1",,,,,"01,1,+06000,1,03,1",,,"01,99,1,01,1,00,1,01250,1,03,1,00,1",,"01,9",,"120,M,+0246,1","240,N,+0102,1","99999,9,08166,1","4,1,000,1,-030,1",,,"SYN112AAXX  25181 76373 32688 12408 10232 21018 38166 40062 54000 81030 91750 333 10246 20102 30/// 56060 59030 81370;","Q01  00002PRCP06"
"76373099999","2005-04-26T00:00:00","4","25.35","-105.75","1967.0","TEPEHUANES DGO., MX","FM-12","99999","V020","260,1,N,0090,1","99999,9,9,N","070000,1,N,1","+0208,1","-0001,1","10000,1","06,0000,9,1","24,0000,9,1",,,,,,,"08,99,1,00,1,00,1,99999,9,00,1,07,1",,"01,9",,"120,M,+0262,1","180,N,+0102,1","99999,9,08150,1","2,1,002,1,+015,1",,,"SYN124AAXX  26001 76373 32988 82609 10208 21001 38150 40000 52002 80007 92350 333 10262 20102 30/// 50103 56006 58015 70000 88280;","Q01  00002PRCP06"
"76373099999","2005-04-26T12:00:00","4","25.35","-105.75","1967.0","TEPEHUANES DGO., MX","FM-12","99999","V020","999,9,C,0000,1","09000,1,C,N","002000,1,N,1","+0048,1","-0004,1","10134,1","06,0000,9,1","24,0000,9,1",,,,"04,1,+03000,1,03,1",,,"06,99,1,04,1,00,1,01250,1,03,1,02,1",,"01,9","999,+0010,1","120,N,+0038,1","240,M,+0262,1","99999,9,08190,1","9,9,999,9,+027,1",,,"SYN124AAXX  26121 76373 32620 60000 10048 21004 38190 40134 5//// 84032 91153 333 10262 20038 30010 56066 58027 70000 84360 82070;","Q01  00002PRCP06"
"76373099999","2005-04-26T18:00:00","4","25.35","-105.75","1967.0","TEPEHUANES DGO., MX","FM-12","99999","V020","090,1,N,0010,1","06000,1,9,N","070000,1,N,1","+0206,1","-0051,1","10148,1","06,0000,9,1",,,,,"08,1,+06000,1,02,1",,,"08,99,1,00,1,00,1,99999,9,00,1,07,1",,"01,9",,"120,M,+0226,1","240,N,+0030,1","99999,9,08195,1","7,1,009,1,-029,1",,,"SYN118AAXX  26181 76373 32988 80901 10206 21051 38195 40148 57009 80007 91750 333 10226 20030 30/// 56006 59029 88270 99020;","Q01  00002PRCP06"
"76373099999","2005-04-27T00:00:00","4","25.35","-105.75","1967.0","TEPEHUANES DGO., MX","FM-12","99999","V020","250,1,N,0050,1","99999,9,9,N","070000,1,N,1","+0236,1","-0087,1","10069,1","06,0000,9,1","24,0000,9,1",,,,,,,"06,99,1,00,1,00,1,99999,9,00,1,04,1",,"01,9",,"120,M,+0280,1","180,N,+0030,1","99999,9,08170,1","2,1,002,1,+020,1",,,"SYN124AAXX  27001 76373 32988 62505 10236 21087 38170 40069 52002 80004 92350 333 10280 20030 30/// 50840 56006 58020 70000 86080;","Q01  00002PRCP06"
"76373099999","2005-04-27T15:00:00","4","25.35","-105.75","1967.0","TEPEHUANES DGO., MX","FM-12","99999","V020","330,1,N,0010,1","03000,1,9,N","070000,1,N,1","+0136,1","-0016,1","10170,1","06,0000,9,1",,,,,"05,1,+03000,1,03,1",,,"07,99,1,05,1,00,1,01250,1,03,1,02,1",,"01,9",,,,"99999,9,08222,1","2,1,004,1,+018,1",,,"SYN106AAXX  27151 76373 32688 73301 10136 21016 38222 40170 52004 85032 91450 333 30/// 56066 58018 85360 82070;","Q01  00002PRCP06"
"76373099999","2005-04-27T18:00:00","4","25.35","-105.75","1967.0","TEPEHUANES DGO., MX","FM-12","99999","V020","040,1,N,0020,1","06000,1,9,N","070000,1,N,1","+0230,1","-0043,1","10141,1","06,0000,9,1",,,,,"08,1,+06000,1,02,1",,,"08,99,1,00,1,00,1,99999,9,00,1,07,1",,"01,9",,"120,M,+0254,1","240,N,+0064,1","99999,9,08212,1","8,1,010,1,+017,1",,,"SYN118AAXX  27181 76373 32988 80402 10230 21043 38212 40141 58010 80007 91750 333 10254 20064 30/// 56006 58017 88270 99020;","Q01  00002PRCP06"
"76373099999","2005-04-27T21:00:00","4","25.35","-105.75","1967.0","TEPEHUANES DGO., MX","FM-12","99999","V020","290,1,N,0060,1","06000,1,9,N","070000,1,N,1","+0292,1","-0102,1","10079,2","06,0000,9,1",,,,,"08,1,+06000,1,02,1",,,"08,99,1,00,1,00,1,99999,9,00,1,07,1",,"01,9",,,,"99999,9,08186,1","6,1,026,1,+018,1",,,"SYN106AAXX  27211 76373 32988 82906 10292 21102 38186 40079 56026 80007 92044 333 30/// 56006 58018 88270 99020;","Q01  00002PRCP06"
"76373099999","2005-04-28T00:00:00","4","25.35","-105.75","1967.0","TEPEHUANES DGO., MX","FM-12","99999","V020","230,1,N,0050,1","99999,9,9,N","070000,1,N,1","+0254,1","-0057,1","10044,1","06,0000,9,1","24,0000,9,1",,,,,,,"08,99,1,00,1,00,1,99999,9,00,1,07,1",,"01,9",,"120,M,+0310,1","180,N,+0064,1","99999,9,08182,1","6,1,004,1,+012,1",,,"SYN124AAXX  28001 76373 32988 82305 10254 21057 38182 40044 56004 80007 92350 333 10310 20064 30/// 50660 56006 58012 70000 88280;","Q01  00002PRCP06"
"76373099999","2005-04-28T12:00:00","4","25.35","-105.75","1967.0","TEPEHUANES DGO., MX","FM-12","99999","V020","300,1,N,0010,1","09000,1,C,N","002000,1,N,1","+0080,1","-0054,1","10141,1","06,0000,9,1","24,0000,9,1",,,,"01,1,+03000,1,03,1",,,"07,99,1,01,1,00,1,01250,1,03,1,08,1",,"01,9","999,+0028,1","120,N,+0060,1","240,M,+0310,1","99999,9,08221,1","9,9,999,9,+003,1",,,"SYN124AAXX  28121 76373 32620 73001 10080 21054 38221 40141 5//// 81038 91155 333 10310 20060 30028 56066 58003 70000 81360 86270;","Q01  00002PRCP06"
"76373099999","2005-04-28T18:00:00","4","25.35","-105.75","1967.0","TEPEHUANES DGO., MX","FM-12","99999","V020","040,1,N,0030,1","06000,1,9,N","070000,1,N,1","+0268,1","-0055,1","10132,1","06,0000,9,1",,,,,"08,1,+06000,1,02,1",,,"08,99,1,00,1,00,1,99999,9,00,1,07,1",,"01,9",,"120,M,+0290,1","240,N,+0036,1","99999,9,08210,1","6,1,014,1,+002,1",,,"SYN118AAXX  28181 76373 32988 80403 10268 21055 38210 40132 56014 80007 91755 333 10290 20036 30/// 56006 58002 88270 99020;","Q01  00002PRCP06"
"76373099999","2005-04-28T21:00:00","4","25.35","-105.75","1967.0","TEPEHUANES DGO., MX","FM-12","99999","V020","230,1,N,0070,1","06000,1,9,N","070000,1,N,1","+0302,1","-0078,1","10086,1","06,0000,9,1",,,,,"08,1,+06000,1,02,1",,,"08,99,1,00,1,00,1,99999,9,00,1,07,1",,"01,9",,,,"99999,9,08195,1","6,1,015,1,+009,1",,,"SYN106AAXX  28211 76373 32988 82307 10302 21078 38195 40086 56015 80007 92048 333 30/// 56006 58009 88270 99020;","Q01  00002PRCP06"
"76373099999","2005-04-29T00:00:00","4","25.35","-105.75","1967.0","TEPEHUANES DGO., MX","FM-12","99999","V020","270,1,N,0060,1","99999,9,9,N","070000,1,N,1","+0280,1","-0096,1","10048,1","06,0000,9,1","24,0000,9,1",,,,,,,"08,99,1,00,1,00,1,99999,9,00,1,08,1",,"01,9",,"120,M,+0332,1","180,N,+0056,1","99999,9,08191,1","5,1,004,1,+009,1",,,"SYN124AAXX  29001 76373 32988 82706 10280 21096 38191 40048 55004 80008 92345 333 10332 20056 30/// 50990 56006 58009 70000 88270;","Q01  00002PRCP06"
"76373099999","2005-04-29T12:00:00","4","25.35","-105.75","1967.0","TEPEHUANES DGO., MX","FM-12","99999","V020","999,9,C,0000,1","22000,1,9,N","002000,1,N,1","+0076,1","-0040,1","10123,1","06,0000,9,1","24,0000,9,1",,,,"00,1,+99999,9,99,9",,,"00,99,1,00,1,00,1,99999,9,00,1,00,1",,"01,9","999,+0016,1","120,N,+0054,1","240,M,+0332,1","99999,9,08210,1","9,9,999,9,-011,1",,,"SYN100AAXX  29121 76373 32920 00000 10076 21040 38210 40123 5//// 91153 333 10332 20054 30016 59011 70000;","Q01  00002PRCP06Q02  00002PRCP24"
"76373099999","2005-04-29T15:00:00","4","25.35","-105.75","1967.0","TEPEHUANES DGO., MX","FM-12","99999","V020","999,9,C,0000,1","22000,1,9,N","070000,1,N,1","+0132,1","-0041,1","10148,1","06,0000,9,1",,,,,"01,1,+03000,1,03,1",,,"01,99,1,01,1,00,1,01250,1,03,1,00,1",,"01,9",,,,"99999,9,08211,1","0,1,001,1,-013,1",,,"SYN100AAXX  29151 76373 32688 10000 10132 21041 38211 40148 50001 81030 91445 333 30/// 56060 59013 81360;","Q01  00002PRCP06"
"76373099999","2005-04-29T18:00:00","4","25.35","-105.75","1967.0","TEPEHUANES DGO., MX","FM-12","99999","V020","300,1,N,0110,1","22000,1,9,N","070000,1,N,1","+0274,1","-0032,1","10111,1","06,0000,9,1",,,,,"02,1,+06000,1,00,1",,,"02,99,1,00,1,00,1,99999,9,00,1,02,1",,"01,9",,"120,M,+0290,1","240,N,+0044,1","99999,9,08198,1","6,1,013,1,-012,1",,,"SYN112AAXX  29181 76373 32988 23011 10274 21032 38198 40111 56013 80002 91750 333 10290 20044 30/// 56002 59012 82070;","Q01  00002PRCP06"
"76373099999","2005-04-29T21:00:00","4","25.35","-105.75","1967.0","TEPEHUANES DGO., MX","FM-12","99999","V020","300,1,N,0080,1","22000,1,9,N","070000,1,N,1","+0286,1","-0114,1","10067,1","06,0000,9,1",,,,,"02,1,+06000,1,00,1",,,"02,99,1,00,1,00,1,99999,9,00,1,02,1",,"01,9",,,,"99999,9,08180,1","7,1,018,1,-015,1",,,"SYN100AAXX  29211 76373 32988 23008 10286 21114 38180 40067 57018 80002 92045 333 30/// 56006 59015 82070;","Q01  00002PRCP06"
"76373099999","2005-04-30T00:00:00","4","25.35","-105.75","1967.0","TEPEHUANES DGO., MX","FM-12","99999","V020","280,1,N,0070,1","22000,1,9,N","070000,1,N,1","+0272,1","-0092,1","10035,1","06,0000,9,1","24,0000,9,1",,,,,,,"03,99,1,00,1,00,1,99999,9,00,1,02,1",,"01,9",,"120,M,+0305,1","180,N,+0044,1","99999,9,08178,1","5,1,002,1,-013,1",,,"SYN124AAXX  30001 76373 32988 32807 10272 21092 38178 40035 55002 80002 92345 333 10305 20044 30/// 51190 56006 59013 70000 83070;","Q01  00002PRCP06"
"76373099999","2005-05-02T12:00:00","4","25.35","-105.75","1967.0","TEPEHUANES DGO., MX","FM-12","99999","V020","999,9,C,0000,1","22000,1,9,N","004000,1,N,1","+0048,1","-0022,1","10137,1","06,0000,9,1","24,0000,9,1",,,,"00,1,+99999,9,99,9",,,"00,99,1,00,1,00,1,99999,9,00,1,00,1",,"09,9","999,-0005,1","120,N,+0036,1","240,M,+0334,1","99999,9,08208,1",,,,"SYN100AAXX  02121 76373 32940 00000 10048 21022 38208 40137 5//// 91155 333 10334 20036 31005 58/// 70000;","Q01  00002PRCP06Q02  00002PRCP24"
"76373099999","2005-05-02T15:00:00","4","25.35","-105.75","1967.0","TEPEHUANES DGO., MX","FM-12","99999","V020","130,1,N,0010,1","22000,1,9,N","070000,1,N,1","+0110,1","-0014,1","10174,1","06,0000,9,1",,,,,"01,1,+06000,1,00,1",,,"01,99,1,00,1,00,1,99999,9,00,1,02,1",,"01,9",,,,"99999,9,08215,1","1,1,007,1,+999,9",,,"SYN100AAXX  02151 76373 32988 11301 10110 21014 38215 40174 51007 80002 91500 333 30/// 56006 58/// 81070;","Q01  00002PRCP06"
"76373099999","2005-05-02T18:00:00","4","25.35","-105.75","1967.0","TEPEHUANES DGO., MX","FM-12","99999","V020","030,1,N,0020,1","22000,1,9,N","070000,1,N,1","+0250,2","-0067,1","10134,1","06,0000,9,1",,,,,"00,1,+99999,9,99,9",,,"00,99,1,00,1,00,1,99999,9,00,1,00,1",,"01,9",,"120,M,+0264,1","240,N,+0030,1","99999,9,08196,1","6,1,019,1,+999,9",,,"SYN094AAXX  02181 76373 32988 00302 10250 21067 38196 40134 56019 91750 333 10264 20030 30/// 58///;","Q01  00002PRCP06"
"76373099999","2005-05-03T12:00:00","4","25.35","-105.75","1967.0","TEPEHUANES DGO., MX","FM-12","99999","V020","999,9,C,0000,1","22000,1,9,N","004000,1,N,1","+0050,1","-0015,1","10130,1","06,0000,9,1","24,0000,9,1",,,,"00,1,+99999,9,99,9",,,"00,99,1,00,1,00,1,99999,9,00,1,00,1",,"01,9","999,+0000,1","120,N,+0036,1","240,M,+0305,1","99999,9,08198,1","9,9,999,9,-010,1",,,"SYN100AAXX  03121 76373 32940 00000 10050 21015 38198 40130 5//// 91150 333 10305 20036 30000 59010 70000;","Q01  00002PRCP06Q02  00002PRCP24"
"76373099999","2005-05-03T18:00:00","4","25.35","-105.75","1967.0","TEPEHUANES DGO., MX","FM-12","99999","V020","090,1,N,0010,1","22000,1,9,N","070000,1,N,1","+0234,1","-0056,1","10137,1","06,0000,9,1",,,,,"00,1,+99999,9,99,9",,,"00,99,1,00,1,00,1,99999,9,00,1,00,1",,"01,9",,"120,M,+0248,1","240,N,+0028,1","99999,9,08196,1","6,1,011,1,+000,1",,,"SYN094AAXX  03181 76373 32988 00901 10234 21056 38196 40137 56011 91750 333 10248 20028 30/// 58000;","Q01  00002PRCP06"
"76373099999","2005-05-03T21:00:00","4","25.35","-105.75","1967.0","TEPEHUANES DGO., MX","FM-12","99999","V020","250,1,N,0070,1","22000,1,9,N","070000,1,N,1","+0290,1","-0069,1","10064,2","06,0000,9,1",,,,,"00,1,+99999,9,99,9",,,"00,99,1,00,1,00,1,99999,9,00,1,00,1",,"01,9",,,,"99999,9,08166,1","7,1,030,1,-008,1",,,"SYN082AAXX  03211 76373 32988 02507 10290 21069 38166 40064 57030 92050 333 30/// 59008;","Q01  00002PRCP06"
"76373099999","2005-05-04T12:00:00","4","25.35","-105.75","1967.0","TEPEHUANES DGO., MX","FM-12","99999","V020","999,9,C,0000,1","22000,1,9,N","004000,1,N,1","+0044,1","-0039,1","10148,1","06,0000,9,1","24,0000,9,1",,,,"00,1,+99999,9,99,9",,,"00,99,1,00,1,00,1,99999,9,00,1,00,1",,"01,9","999,+0002,1","120,N,+0034,1","240,M,+0308,1","99999,9,08209,1","9,9,999,9,+011,1",,,"SYN100AAXX  04121 76373 32940 00000 10044 21039 38209 40148 5//// 91154 333 10308 20034 30002 58011 70000;","Q01  00002PRCP06Q02  00002PRCP24"
"76373099999","2005-05-04T15:00:00","4","25.35","-105.75","1967.0","TEPEHUANES DGO., MX","FM-12","99999","V020","320,1,N,0010,1","22000,1,9,N","070000,1,N,1","+0114,1","-0025,1","10188,1","06,0000,9,1",,,,,"00,1,+99999,9,99,9",,,"00,99,1,00,1,00,1,99999,9,00,1,00,1",,"01,9",,,,"99999,9,08222,1","1,1,013,1,+015,1",,,"SYN082AAXX  04151 76373 32988 03201 10114 21025 38222 40188 51013 91456 333 30/// 58015;","Q01  00002PRCP06"
"76373099999","2005-05-04T18:00:00","4","25.35","-105.75","1967.0","TEPEHUANES DGO., MX","FM-12","99999","V020","150,1,N,0040,1","22000,1,9,N","070000,1,N,1","+0236,2","+0013,1","10172,1","06,0000,9,1",,,,,"00,1,+99999,9,99,9",,,"00,99,1,00,1,00,1,99999,9,00,1,00,1",,"01,9",,"120,M,+0252,1","240,N,+0032,1","99999,9,08212,1","6,1,010,1,+016,1",,,"SYN094AAXX  04181 76373 32988 01504 10236 20013 38212 40172 56010 91750 333 10252 20032 30/// 58016;","Q01  00002PRCP06"
"76373099999","2005-05-05T15:00:00","4","25.35","-105.75","1967.0","TEPEHUANES DGO., MX","FM-12","99999","V020","140,1,N,0010,1","22000,1,9,N","070000,1,N,1","+0130,1","+0013,1","10160,1","06,0000,9,1",,,,,"03,1,+06000,1,00,1",,,"03,99,1,00,1,00,1,99999,9,00,1,02,1",,"01,9",,,,"99999,9,08220,1","2,1,007,1,-002,1",,,"SYN100AAXX  05151 76373 32988 31401 10130 20013 38220 40160 52007 80002 91454 333 30/// 56006 59002 83070;","Q01  00002PRCP06"
"76373099999","2005-05-05T18:00:00","4","25.35","-105.75","1967.0","TEPEHUANES DGO., MX","FM-12","99999","V020","300,1,N,0020,1","06000,1,9,N","070000,1,N,1","+0272,2","-0023,1","10139,1","06,0000,9,1",,,,,"06,1,+06000,1,02,1",,,"06,99,1,00,1,00,1,99999,9,00,1,08,1",,"01,9",,"120,M,+0278,1","240,N,+0048,1","99999,9,08210,1","8,1,010,1,-002,1",,,"SYN112AAXX  05181 76373 32988 63002 10272 21023 38210 40139 58010 80008 91750 333 10278 20048 30/// 56006 59002 86270;","Q01  00002PRCP06"
"76373099999","2005-05-06T12:00:00","4","25.35","-105.75","1967.0","TEPEHUANES DGO., MX","FM-12","99999","V020","999,9,C,0000,1","06000,1,9,N","000600,1,N,1","+0062,1","-0012,1","10137,1","06,0000,9,1","24,0000,9,1",,,,"08,1,+06000,1,02,1",,,"08,99,1,00,1,00,1,99999,9,00,1,08,1",,"01,9","999,+0015,1","120,N,+0050,1","240,M,+0322,1","99999,9,08215,1","9,9,999,9,+002,1",,,"SYN118AAXX  06121 76373 32906 80000 10062 21012 38215 40137 5//// 80008 91158 333 10322 20050 30015 56006 58002 70000 88270;","Q01  00002PRCP06"
"76373099999","2005-05-06T15:00:00","4","25.35","-105.75","1967.0","TEPEHUANES DGO., MX","FM-12","99999","V020","290,1,N,0010,1","09000,1,C,N","070000,1,N,1","+0126,1","+0011,1","10167,1","06,0000,9,1",,,,,"02,1,+03000,1,03,1",,,"08,99,1,02,1,00,1,01250,1,01,1,08,1",,"01,9",,,,"99999,9,08218,1","0,1,003,1,-002,1",,,"SYN106AAXX  06151 76373 32688 82901 10126 20011 38218 40167 50003 82018 91452 333 30/// 56066 59002 82360 86270;","Q01  00002PRCP06"
"76373099999","2005-05-06T18:00:00","4","25.35","-105.75","1967.0","TEPEHUANES DGO., MX","FM-12","99999","V020","210,1,N,0050,1","09000,1,C,N","070000,1,N,1","+0266,1","-0029,1","10134,1","06,0000,9,1",,,,,"02,1,+03000,1,03,1",,,"08,99,1,02,1,00,1,01250,1,03,1,08,1",,"01,9",,"120,M,+0284,1","240,N,+0044,1","99999,9,08204,1","6,1,014,1,-006,1",,,"SYN118AAXX  06181 76373 32688 82105 10266 21029 38204 40134 56014 82038 91750 333 10284 20044 30/// 56066 59006 82360 87270;","Q01  00002PRCP06"
"76373099999","2005-05-06T21:00:00","4","25.35","-105.75","1967.0","TEPEHUANES DGO., MX","FM-12","99999","V020","270,1,N,0060,1","06000,1,9,N","070000,1,N,1","+0270,1","-0059,1","10090,1","06,0000,9,1",,,,,"07,1,+06000,1,02,1",,,"07,99,1,00,1,00,1,99999,9,00,1,07,1",,"01,9",,,,"99999,9,08191,1","7,1,015,1,+005,1",,,"SYN100AAXX  06211 76373 32988 72706 10270 21059 38191 40090 57015 80007 92045 333 30/// 56006 58005 87270;","Q01  00002PRCP06"
"76373099999","2005-05-07T00:00:00","4","25.35","-105.75","1967.0","TEPEHUANES DGO., MX","FM-12","99999","V020","280,1,N,0060,1","22000,1,9,N","070000,1,N,1","+0266,1","-0060,1","10044,1","06,0000,9,1","24,0000,9,1",,,,,,,"02,99,1,00,1,00,1,99999,9,00,1,02,1",,"01,9",,"120,M,+0294,1","180,N,+0044,1","99999,9,08180,1","5,1,011,1,-003,1",,,"SYN124AAXX  07001 76373 32988 22806 10266 21060 38180 40044 55011 80002 92350 333 10294 20044 30/// 50910 56006 59003 70000 82070;","Q01  00002PRCP06"
"76373099999","2005-05-09T12:00:00","4","25.35","-105.75","1967.0","TEPEHUANES DGO., MX","FM-12","99999","V020","999,9,C,0000,1","22000,1,9,N","003000,1,N,1","+0042,1","-0051,1","10151,1","06,0000,9,1","24,0000,9,1",,,,"00,1,+99999,9,99,9",,,"00,99,1,00,1,00,1,99999,9,00,1,00,1",,"09,9","999,-0026,1","120,N,+0026,1","240,M,+0292,1","99999,9,08206,1",,,,"SYN100AAXX  09121 76373 32930 00000 10042 21051 38206 40151 5//// 91150 333 10292 20026 31026 58/// 70000;","Q01  00002PRCP06Q02  00002PRCP24"
"76373099999","2005-05-09T15:00:00","4","25.35","-105.75","1967.0","TEPEHUANES DGO., MX","FM-12","99999","V020","330,1,N,0010,1","22000,1,9,N","070000,1,N,1","+0124,1","-0018,1","10177,1","06,0000,9,1",,,,,"00,1,+99999,9,99,9",,,"00,99,1,00,1,00,1,99999,9,00,1,00,1",,"01,9",,,,"99999,9,08210,1","0,1,004,1,+999,9",,,"SYN082AAXX  09151 76373 32988 03301 10124 21018 38210 40177 50004 91455 333 30/// 58///;","Q01  00002PRCP06"
"76373099999","2005-05-09T21:00:00","4","25.35","-105.75","1967.0","TEPEHUANES DGO., MX","FM-12","99999","V020","300,1,N,0030,1","22000,1,9,N","070000,1,N,1","+0300,2","-0097,1","10065,2","06,0000,9,1",,,,,"00,1,+99999,9,99,9",,,"00,99,1,00,1,00,1,99999,9,00,1,00,1",,"01,9",,,,"99999,9,08166,1","7,1,029,1,+999,9",,,"SYN082AAXX  09211 76373 32988 03003 10300 21097 38166 40065 57029 92054 333 30/// 58///;","Q01  00002PRCP06"
"76373099999","2005-05-10T15:00:00","4","25.35","-105.75","1967.0","TEPEHUANES DGO., MX","FM-12","99999","V020","330,1,N,0030,1","22000,1,9,N","070000,1,N,1","+0146,1","+0005,1","10134,1","06,0000,9,1",,,,,"04,1,+06000,1,00,1",,,"04,99,1,00,1,00,1,99999,9,00,1,04,1",,"01,9",,,,"99999,9,08194,1","0,1,005,1,-016,1",,,"SYN100AAXX  10151 76373 32988 43303 10146 20005 38194 40134 50005 80004 91448 333 30/// 56006 59016 84070;","Q01  00002PRCP06"
"76373099999","2005-05-10T18:00:00","4","25.35","-105.75","1967.0","TEPEHUANES DGO., MX","FM-12","99999","V020","330,1,N,0050,1","22000,1,9,N","070000,1,N,1","+0268,1","-0017,1","10099,1","06,0000,9,1",,,,,"03,1,+06000,1,00,1",,,"03,99,1,00,1,00,1,99999,9,00,1,02,1",,"01,9",,"120,M,+0290,1","240,N,+0044,1","99999,9,08179,1","6,1,015,1,-016,1",,,"SYN112AAXX  10181 76373 32988 33305 10268 21017 38179 40099 56015 80002 91750 333 10290 20044 30/// 56006 59016 83070;","Q01  00002PRCP06"
"76373099999","2005-05-10T21:00:00","4","25.35","-105.75","1967.0","TEPEHUANES DGO., MX","FM-12","99999","V020","200,1,N,0060,1","22000,1,9,N","070000,1,N,1","+0310,1","-0074,1","10044,1","06,0000,9,1",,,,,"01,1,+06000,1,00,1",,,"01,99,1,00,1,00,1,99999,9,00,1,01,1",,"01,9",,,,"99999,9,08161,1","7,1,018,1,-005,1",,,"SYN100AAXX  10211 76373 32988 12006 10310 21074 38161 40044 57018 80001 92050 333 30/// 56006 59005 81070;","Q01  00002PRCP06"
"76373099999","2005-05-11T12:00:00","4","25.35","-105.75","1967.0","TEPEHUANES DGO., MX","FM-12","99999","V020","999,9,C,0000,1","22000,1,9,N","015000,1,N,1","+0062,1","-0015,1","10093,1","06,0000,9,1","24,0000,9,1",,,,"00,1,+99999,9,99,9",,,"00,99,1,00,1,00,1,99999,9,00,1,00,1",,"01,9","999,+0015,1","120,N,+0046,1","240,M,+0328,1","99999,9,08178,1","9,9,999,9,-011,1",,,"SYN100AAXX  11121 76373 32965 00000 10062 21015 38178 40093 5//// 91152 333 10328 20046 30015 59011 70000;","Q01  00002PRCP06Q02  00002PRCP24"
"76373099999","2005-05-11T15:00:00","4","25.35","-105.75","1967.0","TEPEHUANES DGO., MX","FM-12","99999","V020","070,1,N,0010,1","22000,1,9,N","070000,1,N,1","+0138,1","+0016,1","10120,1","06,0000,9,1",,,,,"00,1,+99999,9,99,9",,,"00,99,1,00,1,00,1,99999,9,00,1,00,1",,"01,9",,,,"99999,9,08180,1","0,1,002,1,-014,1",,,"SYN082AAXX  11151 76373 32988 00701 10138 20016 38180 40120 50002 91453 333 30/// 59014;","Q01  00002PRCP06"
"76373099999","2005-05-11T18:00:00","4","25.35","-105.75","1967.0","TEPEHUANES DGO., MX","FM-12","99999","V020","330,1,N,0030,1","22000,1,9,N","070000,1,N,1","+0258,1","-0012,1","10088,1","06,0000,9,1",,,,,"00,1,+99999,9,99,9",,,"00,99,1,00,1,00,1,99999,9,00,1,00,1",,"01,9",,"120,M,+0282,1","240,N,+0042,1","99999,9,08167,1","6,1,013,1,-012,1",,,"SYN094AAXX  11181 76373 32988 03303 10258 21012 38167 40088 56013 91750 333 10282 20042 30/// 59012;","Q01  00002PRCP06"
"76373099999","2005-05-11T21:00:00","4","25.35","-105.75","1967.0","TEPEHUANES DGO., MX","FM-12","99999","V020","200,1,N,0060,1","22000,1,9,N","070000,1,N,1","+0300,1","-0110,1","10035,1","06,0000,9,1",,,,,"00,1,+99999,9,99,9",,,"00,99,1,00,1,00,1,99999,9,00,1,00,1",,"01,9",,,,"99999,9,08151,1","6,1,016,1,-010,1",,,"SYN082AAXX  11211 76373 32988 02006 10300 21110 38151 40035 56016 92046 333 30/// 59010;","Q01  00002PRCP06"
"76373099999","2005-05-12T12:00:00","4","25.35","-105.75","1967.0","TEPEHUANES DGO., MX","FM-12","99999","V020","300,1,N,0010,1","22000,1,9,N","015000,1,N,1","+0058,1","-0019,1","10111,1","06,0000,9,1","24,0000,9,1",,,,"00,1,+99999,9,99,9",,,"00,99,1,00,1,00,1,99999,9,00,1,00,1",,"01,9","999,+0010,1","120,N,+0046,1","240,M,+0324,1","99999,9,08191,1","9,9,999,9,-013,1",,,"SYN100AAXX  12121 76373 32965 03001 10058 21019 38191 40111 5//// 91152 333 10324 20046 30010 59013 70000;","Q01  00002PRCP06Q02  00002PRCP24"
"76373099999","2005-05-12T18:00:00","4","25.35","-105.75","1967.0","TEPEHUANES DGO., MX","FM-12","99999","V020","120,1,N,0040,1","22000,1,9,N","070000,1,N,1","+0250,1","+0004,1","10120,1","06,0000,9,1",,,,,"00,1,+99999,9,99,9",,,"00,99,1,00,1,00,1,99999,9,00,1,00,1",,"01,9",,"120,M,+0280,1","240,N,+0044,1","99999,9,08191,1","6,1,011,1,+024,1",,,"SYN094AAXX  12181 76373 32988 01204 10250 20004 38191 40120 56011 91750 333 10280 20044 30/// 58024;","Q01  00002PRCP06"
"76373099999","2005-05-12T21:00:00","4","25.35","-105.75","1967.0","TEPEHUANES DGO., MX","FM-12","99999","V020","210,1,N,0050,1","22000,1,9,N","070000,1,N,1","+0302,1","-0116,2","10051,2","06,0000,9,1",,,,,"00,1,+99999,9,99,9",,,"00,99,1,00,1,00,1,99999,9,00,1,00,1",,"01,9",,,,"99999,9,08159,1","6,1,032,1,+999,9",,,"SYN082AAXX  12211 76373 32988 02105 10302 21116 38159 40051 56032 92045 333 30/// 56008;","Q01  00002PRCP06"
"76373099999","2005-05-13T00:00:00","4","25.35","-105.75","1967.0","TEPEHUANES DGO., MX","FM-12","99999","V020","280,1,N,0040,1","22000,1,9,N","070000,1,N,1","+0286,1","-0044,1","10012,1","06,0000,9,1","24,0000,9,1",,,,"00,1,+99999,9,99,9",,,"00,99,1,00,1,00,1,99999,9,00,1,00,1",,"01,9",,"120,M,+0324,1","180,N,+0044,1","99999,9,08155,1","6,1,004,1,+999,9",,,"SYN106AAXX  13001 76373 32988 02804 10286 21044 38155 40012 56004 92345 333 10324 20044 30/// 50790 58/// 70000;","Q01  00002PRCP06Q02  00002PRCP24"
"76373099999","2005-05-13T12:00:00","4","25.35","-105.75","1967.0","TEPEHUANES DGO., MX","FM-12","99999","V020","999,9,C,0000,1","22000,1,9,N","015000,1,N,1","+0066,1","+0003,1","10109,1","06,0000,9,1","24,0000,9,1",,,,"03,1,+06000,1,00,1",,,"03,99,1,00,1,00,1,99999,9,00,1,02,1",,"01,9","999,+0022,1","120,N,+0056,1","240,M,+0324,1","99999,9,08196,1","9,9,999,9,+005,1",,,"SYN118AAXX  13121 76373 32965 30000 10066 20003 38196 40109 5//// 80002 91152 333 10324 20056 30022 56006 58005 70000 83070;","Q01  00002PRCP06"
"76373099999","2005-05-13T15:00:00","4","25.35","-105.75","1967.0","TEPEHUANES DGO., MX","FM-12","99999","V020","999,9,C,0000,1","22000,1,9,N","070000,1,N,1","+0152,1","+0023,1","10144,1","06,0000,9,1",,,,,"04,1,+06000,1,00,1",,,"04,99,1,00,1,00,1,99999,9,00,1,04,1",,"01,9",,,,"99999,9,08205,1","7,1,009,1,+003,1",,,"SYN100AAXX  13151 76373 32988 40000 10152 20023 38205 40144 57009 80004 91450 333 30/// 56006 58003 84070;","Q01  00002PRCP06"
"76373099999","2005-05-13T18:00:00","4","25.35","-105.75","1967.0","TEPEHUANES DGO., MX","FM-12","99999","V020","120,1,N,0020,1","06000,1,9,N","070000,1,N,1","+0262,1","-0055,1","10111,1","06,0000,9,1",,,,,"07,1,+06000,1,02,1",,,"07,99,1,00,1,00,1,99999,9,00,1,07,1",,"01,9",,"120,M,+0278,1","240,N,+0052,1","99999,9,08188,1","7,1,017,1,-003,1",,,"SYN118AAXX  13181 76373 32988 71202 10262 21055 38188 40111 57017 80007 91750 333 10278 20052 30/// 56006 59003 87270 99020;","Q01  00002PRCP06"
"76373099999","2005-05-13T21:00:00","4","25.35","-105.75","1967.0","TEPEHUANES DGO., MX","FM-12","99999","V020","330,1,N,0030,1","06000,1,9,N","070000,1,N,1","+0298,1","-0004,1","10051,2","06,0000,9,1",,,,,"05,1,+06000,1,00,1",,,"05,99,1,00,1,00,1,99999,9,00,1,06,1",,"01,9",,,,"99999,9,08163,1","6,1,023,1,+004,1",,,"SYN100AAXX  13211 76373 32988 53303 10298 21004 38163 40051 56023 80006 92050 333 30/// 56006 58004 85070;","Q01  00002PRCP06"
"76373099999","2005-05-14T00:00:00","4","25.35","-105.75","1967.0","TEPEHUANES DGO., MX","FM-12","99999","V020","260,1,N,0060,1","06000,1,C,N","070000,1,N,1","+0286,1","-0081,1","10002,1","06,0000,9,1","24,0000,9,1",,,,"01,1,+00300,1,08,1","07,1,+06000,1,02,1",,"08,99,1,01,1,02,1,00450,1,00,1,07,1",,"01,9",,"120,M,+0326,1","180,N,+0052,1","99999,9,08154,1","5,1,009,1,-001,1",,,"SYN136AAXX  14001 76373 32488 82606 10286 21081 38154 40002 55009 81207 92346 333 10326 20052 30/// 50790 56606 59001 70000 81810 87270 99020;","Q01  00002PRCP06"
"76373099999","2005-05-16T12:00:00","4","25.35","-105.75","1967.0","TEPEHUANES DGO., MX","FM-12","99999","V020","999,9,C,0000,1","22000,1,9,N","015000,1,N,1","+0060,1","+0039,1","10127,1","15,0020,9,1","24,0023,9,1",,,,"00,1,+99999,9,99,9",,,"00,99,1,00,1,00,1,99999,9,00,1,00,1",,"01,9","999,+0030,1","120,N,+0052,1","240,M,+0302,1","99999,9,08191,1",,,,"SYN112AAXX  16121 76373 02965 00000 10060 20039 38191 40127 5//// 60029 91148 333 10302 20052 30030 58/// 60029 70023;",
"76373099999","2005-05-16T21:00:00","4","25.35","-105.75","1967.0","TEPEHUANES DGO., MX","FM-12","99999","V020","030,1,N,0010,1","22000,1,9,N","070000,1,N,1","+0272,1","+0002,1","10048,1","06,0000,9,1",,,,,"03,1,+00300,1,08,1",,,"03,99,1,03,1,01,1,00450,1,00,1,00,1",,"01,9",,,,"99999,9,08152,1","7,1,028,1,+999,9",,,"SYN100AAXX  16211 76373 32488 30301 10272 20002 38152 40048 57028 83100 92050 333 30/// 56600 58/// 83810;","Q01  00002PRCP06"
"76373099999","2005-05-17T12:00:00","4","25.35","-105.75","1967.0","TEPEHUANES DGO., MX","FM-12","99999","V020","999,9,C,0000,1","22000,1,9,N","020000,1,N,1","+0078,1","+0002,1","10088,1","06,0000,9,1","24,0000,9,1",,,,"00,1,+99999,9,99,9",,,"00,99,1,00,1,00,1,99999,9,00,1,00,1",,"01,9","999,+0025,1","120,N,+0060,1","240,M,+0318,1","99999,9,08178,1","9,9,999,9,-013,1",,,"SYN100AAXX  17121 76373 32970 00000 10078 20002 38178 40088 5//// 91150 333 10318 20060 30025 59013 70000;","Q01  00002PRCP06Q02  00002PRCP24"
"76373099999","2005-05-17T18:00:00","4","25.35","-105.75","1967.0","TEPEHUANES DGO., MX","FM-12","99999","V020","090,1,N,0030,1","22000,1,9,N","070000,1,N,1","+0274,2","+0019,1","10079,1","06,0000,9,1",,,,,"00,1,+99999,9,99,9",,,"00,99,1,00,1,00,1,99999,9,00,1,00,1",,"01,9",,"120,M,+0290,1","240,N,+0060,1","99999,9,08165,1","6,1,022,1,-015,1",,,"SYN094AAXX  17181 76373 32988 00903 10274 20019 38165 40079 56022 91750 333 10290 20060 30/// 59015;","Q01  00002PRCP06"
"76373099999","2005-05-17T21:00:00","4","25.35","-105.75","1967.0","TEPEHUANES DGO., MX","FM-12","99999","V020","220,1,N,0060,1","22000,1,9,N","070000,1,N,1","+0314,1","-0013,1","10021,1","06,0000,9,1",,,,,"02,1,+00300,1,08,1",,,"02,99,1,01,1,01,1,00450,1,00,1,00,1",,"01,9",,,,"99999,9,08144,1","6,1,021,1,-011,1",,,"SYN100AAXX  17211 76373 32488 22206 10314 21013 38144 40021 56021 81100 92050 333 30/// 56600 59011 82810;","Q01  00002PRCP06"
"76373099999","2005-05-18T00:00:00","4","25.35","-105.75","1967.0","TEPEHUANES DGO., MX","FM-12","99999","V020","240,1,N,0060,1","22000,1,9,N","070000,1,N,1","+0280,1","-0034,1","09998,1","06,0000,9,1","24,0000,9,1",,,,,,,"01,99,1,01,1,01,1,00250,1,00,1,00,1",,"01,9",,"120,M,+0335,1","180,N,+0060,1","99999,9,08145,1","2,1,001,1,+999,9",,,"SYN124AAXX  18001 76373 32388 12406 10280 21034 38145 49998 52001 81100 92359 333 10335 20060 30/// 50770 56606 58/// 70000 81820;","Q01  00002PRCP06"
"76373099999","2005-05-18T12:00:00","4","25.35","-105.75","1967.0","TEPEHUANES DGO., MX","FM-12","99999","V020","300,1,N,0010,1","22000,1,9,N","020000,1,N,1","+0080,1","+0010,1","10088,1","06,0000,9,1","24,0000,9,1",,,,"03,1,+06000,1,00,1",,,"03,99,1,00,1,00,1,99999,9,00,1,01,1",,"01,9","999,+0036,1","120,N,+0068,1","240,M,+0335,1","99999,9,08183,1","9,9,999,9,+005,1",,,"SYN118AAXX  18121 76373 32970 33001 10080 20010 38183 40088 5//// 80001 91154 333 10335 20068 30036 56006 58005 70000 83070;","Q01  00002PRCP06"
"76373099999","2005-05-18T15:00:00","4","25.35","-105.75","1967.0","TEPEHUANES DGO., MX","FM-12","99999","V020","999,9,C,0000,1","22000,1,9,N","070000,1,N,1","+0150,1","+0031,1","10122,1","06,0000,9,1",,,,,"04,1,+06000,1,00,1",,,"04,99,1,00,1,00,1,99999,9,00,1,06,1",,"01,9",,,,"99999,9,08194,1","1,1,011,1,+007,1",,,"SYN100AAXX  18151 76373 32988 40000 10150 20031 38194 40122 51011 80006 91452 333 30/// 56006 58007 84070;","Q01  00002PRCP06"
"76373099999","2005-05-18T18:00:00","4","25.35","-105.75","1967.0","TEPEHUANES DGO., MX","FM-12","99999","V020","080,1,N,0020,1","22000,1,9,N","070000,1,N,1","+0266,1","-0010,1","10093,1","06,0000,9,1",,,,,"03,1,+06000,1,00,1",,,"03,99,1,00,1,00,1,99999,9,00,1,05,1",,"01,9",,"120,M,+0290,1","240,N,+0068,1","99999,9,08180,1","6,1,014,1,+015,1",,,"SYN112AAXX  18181 76373 32988 30802 10266 21010 38180 40093 56014 80005 91750 333 10290 20068 30/// 56006 58015 83070;","Q01  00002PRCP06"
"76373099999","2005-05-18T21:00:00","4","25.35","-105.75","1967.0","TEPEHUANES DGO., MX","FM-12","99999","V020","080,1,N,0010,1","22000,1,9,N","070000,1,N,1","+0320,2","-0027,1","10030,2","06,0000,9,1",,,,,"01,1,+06000,1,00,1",,,"01,99,1,00,1,00,1,99999,9,00,1,01,1",,"01,9",,,,"99999,9,08152,1","7,1,019,1,+008,1",,,"SYN100AAXX  18211 76373 32988 10801 10320 21027 38152 40030 57019 80001 92045 333 30/// 56006 58008 81070;","Q01  00002PRCP06"
"76373099999","2005-05-19T00:00:00","4","25.35","-105.75","1967.0","TEPEHUANES DGO., MX","FM-12","99999","V020","270,1,N,0060,1","22000,1,9,N","070000,1,N,1","+0298,1","-0003,1","09991,1","06,0000,9,1","24,0000,9,1",,,,"00,1,+99999,9,99,9",,,"00,99,1,00,1,00,1,99999,9,00,1,00,1",,"01,9",,"120,M,+0352,1","180,N,+0068,1","99999,9,08145,1","6,1,007,1,-006,1",,,"SYN106AAXX  19001 76373 32988 02706 10298 21003 38145 49991 56007 92350 333 10352 20068 30/// 50900 59006 70000;","Q01  00002PRCP06Q02  00002PRCP24"
"76373099999","2005-05-19T12:00:00","4","25.35","-105.75","1967.0","TEPEHUANES DGO., MX","FM-12","99999","V020","999,9,C,0000,1","22000,1,9,N","020000,1,N,1","+0086,1","+0035,1","10111,1","06,0000,9,1","24,0000,9,1",,,,"01,1,+06000,1,00,1",,,"01,99,1,00,1,00,1,99999,9,00,1,01,1",,"01,9","999,+0042,1","120,N,+0076,1","240,M,+0352,1","99999,9,08194,1","9,9,999,9,+011,1",,,"SYN118AAXX  19121 76373 32970 10000 10086 20035 38194 40111 5//// 80001 91150 333 10352 20076 30042 56006 58011 70000 81070;","Q01  00002PRCP06"
"76373099999","2005-05-19T15:00:00","4","25.35","-105.75","1967.0","TEPEHUANES DGO., MX","FM-12","99999","V020","020,1,N,0010,1","22000,1,9,N","070000,1,N,1","+0168,1","+0042,1","10123,1","06,0000,9,1",,,,,"00,1,+99999,9,99,9",,,"00,99,1,00,1,00,1,99999,9,00,1,00,1",,"01,9",,,,,"0,1,006,1,+006,1",,,"SYN082AAXX  19151 76373 32988 00201 10168 20042 38100 40123 50006 91450 333 30/// 58006;","Q01  00002PRCP06"
"76373099999","2005-05-19T18:00:00","4","25.35","-105.75","1967.0","TEPEHUANES DGO., MX","FM-12","99999","V020","090,1,N,0020,1","22000,1,9,N","070000,1,N,1","+0284,2","+0044,1","10099,1","06,0000,9,1",,,,,"02,1,+06000,1,00,1",,,"02,99,1,00,1,00,1,99999,9,00,1,02,1",,"01,9",,"120,M,+0306,1","240,N,+0076,1","99999,9,08192,1","6,1,008,1,+012,1",,,"SYN112AAXX  19181 76373 32988 20902 10284 20044 38192 40099 56008 80002 91750 333 10306 20076 30/// 56006 58012 82070;","Q01  00002PRCP06"
"76373099999","2005-05-20T12:00:00","4","25.35","-105.75","1967.0","TEPEHUANES DGO., MX","FM-12","99999","V020","999,9,C,0000,1","22000,1,9,N","020000,1,N,1","+0102,1","+0024,1","10079,1","06,0000,9,1","24,0000,9,1",,,,"02,1,+06000,1,00,1",,,"02,99,1,00,1,00,1,99999,9,00,1,02,1",,"01,9","999,+0045,1","120,N,+0094,1","240,M,+0362,1","99999,9,08192,1","9,9,999,9,-002,1",,,"SYN118AAXX  20121 76373 32970 20000 10102 20024 38192 40079 5//// 80002 91150 333 10362 20094 30045 56006 59002 70000 82070;","Q01  00002PRCP06"
"76373099999","2005-05-20T15:00:00","4","25.35","-105.75","1967.0","TEPEHUANES DGO., MX","FM-12","99999","V020","999,9,C,0000,1","22000,1,9,N","070000,1,N,1","+0184,1","+0031,1","10109,1","06,0000,9,1",,,,,"01,1,+06000,1,00,1",,,"01,99,1,00,1,00,1,99999,9,00,1,01,1",,"01,9",,,,"99999,9,08198,1","0,1,006,1,-002,1",,,"SYN100AAXX  20151 76373 32988 10000 10184 20031 38198 40109 50006 80001 91448 333 30/// 56006 59002 81070;","Q01  00002PRCP06"
"76373099999","2005-05-20T18:00:00","4","25.35","-105.75","1967.0","TEPEHUANES DGO., MX","FM-12","99999","V020","120,1,N,0040,1","22000,1,9,N","070000,1,N,1","+0298,1","+0042,1","10086,1","06,0000,9,1",,,,,"00,1,+99999,9,99,9",,,"00,99,1,00,1,00,1,99999,9,00,1,00,1",,"01,9",,"120,M,+0320,1","240,N,+0088,1","99999,9,08189,1","6,1,009,1,-003,1",,,"SYN094AAXX  20181 76373 32988 01204 10298 20042 38189 40086 56009 91750 333 10320 20088 30/// 59003;","Q01  00002PRCP06"
"76373099999","2005-05-20T21:00:00","4","25.35","-105.75","1967.0","TEPEHUANES DGO., MX","FM-12","99999","V020","150,1,N,0040,1","22000,1,9,N","070000,1,N,1","+0312,1","+0027,1","10032,1","06,0000,9,1",,,,,"03,1,+00300,1,08,1",,,"03,99,1,03,1,01,1,00450,1,00,1,00,1",,"01,9",,,,"99999,9,08170,1","7,1,019,1,+004,1",,,"SYN100AAXX  20211 76373 32488 31504 10312 20027 38170 40032 57019 83100 92050 333 30/// 56600 58004 83810;","Q01  00002PRCP06"
"76373099999","2005-05-21T00:00:00","4","25.35","-105.75","1967.0","TEPEHUANES DGO., MX","FM-12","99999","V020","080,1,N,0040,1","00420,1,9,N","070000,1,N,1","+0320,1","+0026,1","10000,1","06,0000,9,1","24,0000,9,1",,,,,,,"05,99,1,05,1,04,1,00450,1,00,1,00,1",,"01,9",,"120,M,+0352,1","180,N,+0088,1","99999,9,08161,1","6,1,009,1,+011,1",,,"SYN124AAXX  21001 76373 32488 50804 10320 20026 38161 40000 56009 85400 92350 333 10352 20088 30/// 50900 56200 58011 70000 85810;","Q01  00002PRCP06"
"76373099999","2005-05-21T15:00:00","4","25.35","-105.75","1967.0","TEPEHUANES DGO., MX","FM-12","99999","V020","360,1,N,0010,1","22000,1,9,N","070000,1,N,1","+0204,1","-0064,1","10072,1","06,0000,9,1",,,,,"00,1,+99999,9,99,9",,,"00,99,1,00,1,00,1,99999,9,00,1,00,1",,"01,9",,,,"99999,9,08205,1","9,9,999,9,+007,1",,,"SYN082AAXX  21151 76373 32988 03601 10204 21064 38205 40072 5//// 91455 333 30/// 58007;","Q01  00002PRCP06"
"76373099999","2005-05-21T18:00:00","4","25.35","-105.75","1967.0","TEPEHUANES DGO., MX","FM-12","99999","V020","170,1,N,0020,1","22000,1,9,N","070000,1,N,1","+0300,1","+0034,1","10060,1","06,0000,9,1",,,,,"01,1,+00600,1,08,1",,,"01,99,1,01,1,01,1,00250,1,00,1,00,1",,"01,9",,"120,M,+0320,1","240,N,+0108,1","99999,9,08195,1","6,1,010,1,+006,1",,,"SYN112AAXX  21181 76373 32388 11702 10300 20034 38195 40060 56010 81100 91750 333 10320 20108 30/// 56600 58006 81820;","Q01  00002PRCP06"
"76373099999","2005-05-21T21:00:00","4","25.35","-105.75","1967.0","TEPEHUANES DGO., MX","FM-12","99999","V020","300,1,N,0040,1","22000,1,9,N","070000,1,N,1","+0328,1","+0036,1","10032,1","06,0000,9,1",,,,,"02,1,+00600,1,08,1",,,"02,99,1,02,1,01,1,00250,1,00,1,00,1",,"01,9",,,,"99999,9,08180,1","6,1,015,1,+010,1",,,"SYN100AAXX  21211 76373 32388 23004 10328 20036 38180 40032 56015 82100 92055 333 30/// 56600 58010 82820;","Q01  00002PRCP06"
"76373099999","2005-05-22T15:00:00","4","25.35","-105.75","1967.0","TEPEHUANES DGO., MX","FM-12","99999","V020","340,1,N,0010,1","22000,1,9,N","070000,1,N,1","+0194,1","+0051,1","10074,1","06,0000,9,1",,,,,"00,1,+99999,9,99,9",,,"00,99,1,00,1,00,1,99999,9,00,1,00,1",,"01,9",,,,"99999,9,08201,1","9,9,999,9,-004,1",,,"SYN082AAXX  22151 76373 32988 03401 10194 20051 38201 40074 5//// 91445 333 30/// 59004;","Q01  00002PRCP06"
"76373099999","2005-05-22T18:00:00","4","25.35","-105.75","1967.0","TEPEHUANES DGO., MX","FM-12","99999","V020","150,1,N,0030,1","22000,1,9,N","070000,1,N,1","+0306,1","+0015,1","10058,1","06,0000,9,1",,,,,"00,1,+99999,9,99,9",,,"00,99,1,00,1,00,1,99999,9,00,1,00,1",,"01,9",,"120,M,+0326,1","240,N,+0098,1","99999,9,08189,1","6,1,012,1,-006,1",,,"SYN094AAXX  22181 76373 32988 01503 10306 20015 38189 40058 56012 91750 333 10326 20098 30/// 59006;","Q01  00002PRCP06"
"76373099999","2005-05-22T21:00:00","4","25.35","-105.75","1967.0","TEPEHUANES DGO., MX","FM-12","99999","V020","180,1,N,0060,1","22000,1,9,N","070000,1,N,1","+0330,1","-0012,1","10028,1","06,0000,9,1",,,,,"00,1,+99999,9,99,9",,,"00,99,1,00,1,00,1,99999,9,00,1,00,1",,"01,9",,,,"99999,9,08175,1","6,1,014,1,-055,1",,,"SYN082AAXX  22211 76373 32988 01806 10330 21012 38175 40028 56014 92050 333 30/// 59055;","Q01  00002PRCP06"
"76373099999","2005-05-23T12:00:00","4","25.35","-105.75","1967.0","TEPEHUANES DGO., MX","FM-12","99999","V020","999,9,C,0000,1","22000,1,9,N","020000,1,N,1","+0118,1","+0065,1","10058,1","06,0000,9,1","24,0000,9,1",,,,"00,1,+99999,9,99,9",,,"00,99,1,00,1,00,1,99999,9,00,1,00,1",,"01,9","999,+0073,1","120,N,+0110,1","240,M,+0374,1","99999,9,08185,1",,,,"SYN100AAXX  23121 76373 32970 00000 10118 20065 38185 40058 5//// 91155 333 10374 20110 30073 58/// 70000;","Q01  00002PRCP06Q02  00002PRCP24"
"76373099999","2005-05-23T15:00:00","4","25.35","-105.75","1967.0","TEPEHUANES DGO., MX","FM-12","99999","V020","020,1,N,0010,1","22000,1,9,N","070000,1,N,1","+0216,1","+0089,1","10086,1","06,0000,9,1",,,,,"00,1,+99999,9,99,9",,,"00,99,1,00,1,00,1,99999,9,00,1,00,1",,"01,9",,,,"99999,9,08190,1","1,1,005,1,-011,1",,,"SYN082AAXX  23151 76373 32988 00201 10216 20089 38190 40086 51005 91448 333 30/// 59011;","Q01  00002PRCP06"
"76373099999","2005-05-23T18:00:00","4","25.35","-105.75","1967.0","TEPEHUANES DGO., MX","FM-12","99999","V020","060,1,N,0030,1","22000,1,9,N","070000,1,N,1","+0308,1","+0032,1","10055,1","06,0000,9,1",,,,,"01,1,+00300,1,08,1",,,"01,99,1,01,1,01,1,00450,1,00,1,00,1",,"01,9",,"120,M,+0330,1","240,N,+0102,1","99999,9,08176,1","6,1,027,1,-013,1",,,"SYN112AAXX  23181 76373 32488 10603 10308 20032 38176 40055 56027 81100 91750 333 10330 20102 30/// 56600 59013 81810;","Q01  00002PRCP06"
"76373099999","2005-05-23T21:00:00","4","25.35","-105.75","1967.0","TEPEHUANES DGO., MX","FM-12","99999","V020","170,1,N,0020,1","22000,1,9,N","070000,1,N,1","+0338,1","+0036,1","10005,1","06,0000,9,1",,,,,"02,1,+00300,1,08,1",,,"03,99,1,03,1,04,1,00450,1,00,1,00,1",,"01,9",,,,"99999,9,08154,1","7,1,022,1,-021,1",,,"SYN100AAXX  23211 76373 32488 31702 10338 20036 38154 40005 57022 83400 92045 333 30/// 56200 59021 82810;","Q01  00002PRCP06"
"76373099999","2005-05-24T00:00:00","4","25.35","-105.75","1967.0","TEPEHUANES DGO., MX","FM-12","99999","V020","240,1,N,0060,1","22000,1,9,N","070000,1,N,1","+0320,1","-0031,1","09952,1","06,0000,9,1","24,0000,9,1",,,,,,,"04,99,1,04,1,03,1,00250,1,00,1,00,1",,"01,9",,"120,M,+0365,1","180,N,+0102,1","99999,9,08140,1","6,1,014,1,-016,1",,,"SYN124AAXX  24001 76373 32388 42406 10320 21031 38140 49952 56014 84300 92350 333 10365 20102 30/// 50102 56200 59016 70000 84920;","Q01  00002PRCP06"
"76373099999","2005-05-24T12:00:00","4","25.35","-105.75","1967.0","TEPEHUANES DGO., MX","FM-12","99999","V020","300,1,N,0020,1","22000,1,9,N","020000,1,N,1","+0130,1","+0093,1","10072,1","06,0000,9,1","24,0000,9,1",,,,"00,1,+99999,9,99,9",,,"00,99,1,00,1,00,1,99999,9,00,1,00,1",,"01,9","999,+0106,1","120,N,+0122,1","240,M,+0365,1","99999,9,08190,1","9,9,999,9,+005,1",,,"SYN100AAXX  24121 76373 32970 03002 10130 20093 38190 40072 5//// 91154 333 10365 20122 30106 58005 70000;","Q01  00002PRCP06Q02  00002PRCP24"
"76373099999","2005-05-24T15:00:00","4","25.35","-105.75","1967.0","TEPEHUANES DGO., MX","FM-12","99999","V020","340,1,N,0020,1","22000,1,9,N","070000,1,N,1","+0188,1","+0109,1","10093,1","06,0000,9,1",,,,,"00,1,+99999,9,99,9",,,"00,99,1,00,1,00,1,99999,9,00,1,00,1",,"01,9",,,,"99999,9,08193,1","1,1,003,1,+003,1",,,"SYN082AAXX  24151 76373 32988 03402 10188 20109 38193 40093 51003 91450 333 30/// 58003;","Q01  00002PRCP06"
"76373099999","2005-05-24T18:00:00","4","25.35","-105.75","1967.0","TEPEHUANES DGO., MX","FM-12","99999","V020","120,1,N,0020,1","22000,1,9,N","070000,1,N,1","+0298,1","+0082,1","10062,1","06,0000,9,1",,,,,"00,1,+99999,9,99,9",,,"00,99,1,00,1,00,1,99999,9,00,1,00,1",,"01,9",,"120,M,+0322,1","240,N,+0112,1","99999,9,08180,1","6,1,013,1,+004,1",,,"SYN094AAXX  24181 76373 32988 01202 10298 20082 38180 40062 56013 91750 333 10322 20112 30/// 58004;","Q01  00002PRCP06"
"76373099999","2005-05-24T21:00:00","4","25.35","-105.75","1967.0","TEPEHUANES DGO., MX","FM-12","99999","V020","030,1,N,0030,1","22000,1,9,N","070000,1,N,1","+0348,1","-0013,1","10012,1","06,0000,9,1",,,,,"03,1,+00300,1,09,1",,,"04,99,1,03,1,03,1,00450,1,00,1,01,1",,"01,9",,,,"99999,9,08161,1","6,1,019,1,+007,1",,,"SYN106AAXX  24211 76373 32488 40303 10348 21013 38161 40012 56019 83301 92050 333 30/// 56202 58007 83910 81070;","Q01  00002PRCP06"
"76373099999","2005-05-25T12:00:00","4","25.35","-105.75","1967.0","TEPEHUANES DGO., MX","FM-12","99999","V020","999,9,C,0000,1","22000,1,9,N","070000,1,N,1","+0132,1","+0101,1","10079,1","06,0000,9,1","24,0000,9,1",,,,"01,1,+06000,1,00,1",,,"01,99,1,00,1,00,1,99999,9,00,1,01,1",,"01,9","999,+0096,1","120,N,+0122,1","240,M,+0366,1","99999,9,08194,1","9,9,999,9,+004,1",,,"SYN118AAXX  25121 76373 32988 10000 10132 20101 38194 40079 5//// 80001 91152 333 10366 20122 30096 56006 58004 70000 81070;","Q01  00002PRCP06"
"76373099999","2005-05-25T15:00:00","4","25.35","-105.75","1967.0","TEPEHUANES DGO., MX","FM-12","99999","V020","290,1,N,0020,1","22000,1,9,N","070000,1,N,1","+0196,1","+0112,1","10102,1","06,0000,9,1",,,,,"00,1,+99999,9,99,9",,,"00,99,1,00,1,00,1,99999,9,00,1,00,1",,"01,9",,,,"99999,9,08200,1","0,1,006,1,+007,1",,,"SYN082AAXX  25151 76373 32988 02902 10196 20112 38200 40102 50006 91452 333 30/// 58007;","Q01  00002PRCP06"
"76373099999","2005-05-25T18:00:00","4","25.35","-105.75","1967.0","TEPEHUANES DGO., MX","FM-12","99999","V020","090,1,N,0010,1","22000,1,9,N","070000,1,N,1","+0302,1","+0098,1","10072,1","06,0000,9,1",,,,,"01,1,+00300,1,08,1",,,"01,99,1,01,1,01,1,00250,1,00,1,00,1",,"01,9",,"120,M,+0322,1","240,N,+0115,1","99999,9,08188,1","6,1,012,1,+008,1",,,"SYN112AAXX  25181 76373 32388 10901 10302 20098 38188 40072 56012 81100 91750 333 10322 20115 30/// 56200 58008 81810;","Q01  00002PRCP06"
"76373099999","2005-05-25T21:00:00","4","25.35","-105.75","1967.0","TEPEHUANES DGO., MX","FM-12","99999","V020","110,1,N,0070,1","22000,1,9,N","070000,1,N,1","+0326,1","-0016,2","10014,1","06,0000,9,1",,,,,"04,1,+00300,1,09,1",,,"04,99,1,04,1,03,1,00450,1,00,1,00,1",,"01,9",,,,"99999,9,08163,1","7,1,025,1,+002,1",,,"SYN100AAXX  25211 76373 32488 41107 10326 21016 38163 40014 57025 84300 92050 333 30/// 56200 58002 84910;","Q01  00002PRCP06"
"76373099999","2005-05-26T12:00:00","4","25.35","-105.75","1967.0","TEPEHUANES DGO., MX","FM-12","99999","V020","300,1,N,0020,1","09000,1,C,N","020000,1,N,1","+0146,1","+0093,1","10087,1","06,0000,9,1","24,0000,9,1",,,,"02,1,+03000,1,03,1",,,"08,99,1,02,1,00,1,01250,1,08,1,07,1",,"01,9","999,+0110,1","120,N,+0128,1","240,M,+0362,1","99999,9,08203,1","9,9,999,9,+009,1",,,"SYN124AAXX  26121 76373 32670 83002 10146 20093 38203 40087 5//// 82087 91200 333 10362 20128 30110 56066 58009 70000 82360 86270;","Q01  00002PRCP06"
"76373099999","2005-05-26T15:00:00","4","25.35","-105.75","1967.0","TEPEHUANES DGO., MX","FM-12","99999","V020","999,9,C,0000,1","03000,1,9,N","070000,1,N,1","+0182,1","+0099,1","10106,1","06,0000,9,1",,,,,"07,1,+03000,1,03,1",,,"07,99,1,07,1,04,1,01250,1,99,9,00,1",,"01,9",,,,"99999,9,08207,1","1,1,004,1,-007,1",,,"SYN100AAXX  26151 76373 32688 70000 10182 20099 38207 40106 51004 87400 91455 333 30/// 56020 59007 87360;","Q01  00002PRCP06"
"76373099999","2005-05-26T18:00:00","4","25.35","-105.75","1967.0","TEPEHUANES DGO., MX","FM-12","99999","V020","030,1,N,0010,1","22000,1,9,N","070000,1,N,1","+0280,1","+0086,1","10072,1","06,0000,9,1",,,,,"02,1,+00300,1,09,1",,,"04,99,1,02,1,03,1,00450,1,03,1,00,1",,"01,9",,"120,M,+0302,1","240,N,+0128,1","99999,9,08190,1","7,1,017,1,+002,1",,,"SYN118AAXX  26181 76373 32488 40301 10280 20086 38190 40072 57017 82330 91750 333 10302 20128 30/// 56220 58002 82910 82360;","Q01  00002PRCP06"
"76373099999","2005-05-26T21:00:00","4","25.35","-105.75","1967.0","TEPEHUANES DGO., MX","FM-12","99999","V020","110,1,N,0030,1","00300,1,9,N","020000,1,N,1","+0218,1","+0095,1","10055,1","01,0020,9,1",,,"6,1,03,1","2,1,03,1","08,1,+00300,1,09,1",,,"08,99,1,08,1,03,1,00450,1,00,1,00,1",,"09,9",,,,"99999,9,08188,1","3,1,002,1,+025,1",,"52,1","SYN112AAXX  26211 76373 21470 81103 10218 20095 38188 40055 53002 75262 88300 92059 333 31/// 56300 58025 60025 88910;",
"76373099999","2005-05-27T12:00:00","4","25.35","-105.75","1967.0","TEPEHUANES DGO., MX","FM-12","99999","V020","999,9,C,0000,1","22000,1,9,N","020000,1,N,1","+0084,1","+0077,1","10151,1","06,0000,9,1","24,0000,2,1",,,,"00,1,+99999,9,99,9",,,"00,99,1,00,1,00,1,99999,9,00,1,00,1",,"01,9","999,+0062,1","120,N,+0074,1","240,M,+0328,1","99999,9,08213,1","9,9,999,9,-010,1",,,"SYN100AAXX  27121 76373 32970 00000 10084 20077 38213 40151 5//// 91147 333 10328 20074 30062 59010 70000;","Q01  00002PRCP06"
"76373099999","2005-05-27T15:00:00","4","25.35","-105.75","1967.0","TEPEHUANES DGO., MX","FM-12","99999","V020","999,9,C,0000,1","22000,1,9,N","070000,1,N,1","+0136,1","+0103,1","10158,1","06,0000,9,1",,,,,"00,1,+99999,9,99,9",,,"00,99,1,00,1,00,1,99999,9,00,1,00,1",,"09,9",,,,"99999,9,08213,1","0,1,000,1,+006,1",,,"SYN082AAXX  27151 76373 32988 00000 10136 20103 38213 40158 50000 91448 333 31/// 58006;","Q01  00002PRCP06"
"76373099999","2005-05-27T18:00:00","4","25.35","-105.75","1967.0","TEPEHUANES DGO., MX","FM-12","99999","V020","110,1,N,0030,1","22000,1,9,N","070000,1,N,1","+0240,1","+0113,1","10125,1","06,0000,9,1",,,,,"02,1,+00300,1,08,1",,,"02,99,1,02,1,01,1,00450,1,00,1,00,1",,"01,9",,"120,M,+0266,1","240,N,+0070,1","99999,9,08200,1","8,1,003,1,+010,1",,,"SYN112AAXX  27181 76373 32488 21103 10240 20113 38200 40125 58003 82100 91750 333 10266 20070 30/// 56200 58010 82810;","Q01  00002PRCP06"
"76373099999","2005-05-27T21:00:00","4","25.35","-105.75","1967.0","TEPEHUANES DGO., MX","FM-12","99999","V020","240,1,N,0050,1","22000,1,9,N","070000,1,N,1","+0304,1","+0018,1","10065,2","06,0000,9,1",,,,,"01,1,+00300,1,09,1","02,1,+00300,1,08,1",,"04,99,1,02,1,02,1,00450,1,00,1,01,1",,"01,9",,,,"99999,9,08177,1","6,1,023,1,-011,1",,,"SYN112AAXX  27211 76373 32488 42405 10304 20018 38177 40065 56023 82201 92055 333 30/// 56202 59011 81910 82810 81070;","Q01  00002PRCP06"
"76373099999","2005-05-28T15:00:00","4","25.35","-105.75","1967.0","TEPEHUANES DGO., MX","FM-12","99999","V020","270,1,N,0010,1","22000,1,9,N","070000,1,N,1","+0156,1","+0086,1","10109,1","06,0000,9,1",,,,,"02,1,+03000,1,03,1",,,"02,99,1,02,1,00,1,01250,1,03,1,00,1",,"01,9",,,,"99999,9,08214,1","9,9,999,9,+001,1",,,"SYN100AAXX  28151 76373 32688 22701 10156 20086 38214 40109 5//// 82030 91450 333 30/// 56030 58001 82360;","Q01  00002PRCP06"
"76373099999","2005-05-28T18:00:00","4","25.35","-105.75","1967.0","TEPEHUANES DGO., MX","FM-12","99999","V020","300,1,N,0010,1","22000,1,9,N","070000,1,N,1","+0252,1","+0051,1","10092,1","06,0000,9,1",,,,,"03,1,+00600,1,08,1",,,"03,99,1,03,1,02,1,00250,1,00,1,00,1",,"01,9",,"120,M,+0284,1","240,N,+0090,1","99999,9,08200,1","6,1,014,1,+000,1",,,"SYN112AAXX  28181 76373 32388 33001 10252 20051 38200 40092 56014 83200 91745 333 10284 20090 30/// 56300 58000 83820;","Q01  00002PRCP06"
"76373099999","2005-05-28T21:00:00","4","25.35","-105.75","1967.0","TEPEHUANES DGO., MX","FM-12","99999","V020","240,1,N,0070,1","00600,1,9,N","070000,1,N,1","+0290,1","-0032,1","10044,1","06,0000,9,1",,,,,"06,1,+00600,1,08,1",,,"06,99,1,06,1,02,1,00250,1,00,1,00,1",,"01,9",,,,"99999,9,08177,1","6,1,013,1,+000,1",,,"SYN100AAXX  28211 76373 32388 62407 10290 21032 38177 40044 56013 86200 92050 333 30/// 56300 58000 86820;","Q01  00002PRCP06"
"76373099999","2005-05-29T15:00:00","4","25.35","-105.75","1967.0","TEPEHUANES DGO., MX","FM-12","99999","V020","340,1,N,0010,1","22000,1,9,N","070000,1,N,1","+0138,1","+0060,1","10111,1","06,0000,9,1",,,,,"00,1,+99999,9,99,9",,,"00,99,1,00,1,00,1,99999,9,00,1,00,1",,"01,9",,,,"99999,9,08205,1","9,9,999,9,-009,1",,,"SYN082AAXX  29151 76373 32988 03401 10138 20060 38205 40111 5//// 91445 333 30/// 59009;","Q01  00002PRCP06"
"76373099999","2005-05-29T18:00:00","4","25.35","-105.75","1967.0","TEPEHUANES DGO., MX","FM-12","99999","V020","300,1,N,0070,1","22000,1,9,N","070000,1,N,1","+0266,1","+0036,1","10081,1","06,0000,9,1",,,,,"00,1,+99999,9,99,9",,,"00,99,1,00,1,00,1,99999,9,00,1,00,1",,"01,9",,"120,M,+0282,1","240,N,+0066,1","99999,9,08183,1","6,1,022,1,-007,1",,,"SYN094AAXX  29181 76373 32988 03007 10266 20036 38183 40081 56022 91745 333 10282 20066 30/// 59007;","Q01  00002PRCP06"
"76373099999","2005-05-29T21:00:00","4","25.35","-105.75","1967.0","TEPEHUANES DGO., MX","FM-12","99999","V020","350,1,N,0100,1","22000,1,9,N","070000,1,N,1","+0286,1","-0013,1","10063,1","06,0000,9,1",,,,,"00,1,+99999,9,99,9",,,"00,99,1,00,1,00,1,99999,9,00,1,00,1",,"01,9",,,,"99999,9,08174,1","6,1,009,1,-003,1",,,"SYN082AAXX  29211 76373 32988 03510 10286 21013 38174 40063 56009 92050 333 30/// 59003;","Q01  00002PRCP06"
"76373099999","2005-05-30T00:00:00","4","25.35","-105.75","1967.0","TEPEHUANES DGO., MX","FM-12","99999","V020","300,1,N,0080,1","22000,1,9,N","070000,1,N,1","+0266,1","-0006,1","10016,1","06,0000,9,1","24,0000,9,1",,,,,,,"03,99,1,03,1,01,1,00250,1,00,1,00,1",,"01,9",,"120,M,+0300,1","180,N,+0066,1","99999,9,08164,1","6,1,010,1,-012,1",,,"SYN124AAXX  30001 76373 32388 33008 10266 21006 38164 40016 56010 83100 92345 333 10300 20066 30/// 50990 56200 59012 70000 83820;","Q01  00002PRCP06"
"76373099999","2005-05-30T15:00:00","4","25.35","-105.75","1967.0","TEPEHUANES DGO., MX","FM-12","99999","V020","320,1,N,0010,1","22000,1,9,N","070000,1,N,1","+0152,1","+0068,1","10134,1","06,0000,9,1",,,,,"00,1,+99999,9,99,9",,,"00,99,1,00,1,00,1,99999,9,00,1,00,1",,"01,9",,,,"99999,9,08208,1","9,9,999,9,+003,1",,,"SYN082AAXX  30151 76373 32988 03201 10152 20068 38208 40134 5//// 91450 333 30/// 58003;","Q01  00002PRCP06"
"76373099999","2005-05-30T18:00:00","4","25.35","-105.75","1967.0","TEPEHUANES DGO., MX","FM-12","99999","V020","090,1,N,0030,1","22000,1,9,N","070000,1,N,1","+0270,1","+0011,1","10099,1","06,0000,9,1",,,,,"00,1,+99999,9,99,9",,,"00,99,1,00,1,00,1,99999,9,00,1,00,1",,"01,9",,"120,M,+0288,1","240,N,+0064,1","99999,9,08190,1","6,1,018,1,+007,1",,,"SYN094AAXX  30181 76373 32988 00903 10270 20011 38190 40099 56018 91758 333 10288 20064 30/// 58007;","Q01  00002PRCP06"
"76373099999","2005-05-30T21:00:00","4","25.35","-105.75","1967.0","TEPEHUANES DGO., MX","FM-12","99999","V020","310,1,N,0060,1","22000,1,9,N","070000,1,N,1","+0316,1","-0056,1","10042,1","06,0000,9,1",,,,,"00,1,+99999,9,99,9",,,"00,99,1,00,1,00,1,99999,9,00,1,00,1",,"01,9",,,,"99999,9,08165,1","6,1,025,1,-009,1",,,"SYN082AAXX  30211 76373 32988 03106 10316 21056 38165 40042 56025 92050 333 30/// 59009;","Q01  00002PRCP06"
"76373099999","2005-05-31T12:00:00","4","25.35","-105.75","1967.0","TEPEHUANES DGO., MX","FM-12","99999","V020","290,1,N,0020,1","22000,1,9,N","020000,1,N,1","+0106,1","+0042,1","10088,1","06,0000,9,1","24,0000,9,1",,,,"01,1,+06000,1,00,1",,,"01,99,1,00,1,00,1,99999,9,00,1,01,1",,"01,9","999,+0060,1","120,N,+0088,1","240,M,+0335,1","99999,9,08194,1",,,,"SYN118AAXX  31121 76373 32970 12902 10106 20042 38194 40088 5//// 80001 91145 333 10335 20088 30060 56002 58/// 70000 81070;","Q01  00002PRCP06"
"76373099999","2005-05-31T15:00:00","4","25.35","-105.75","1967.0","TEPEHUANES DGO., MX","FM-12","99999","V020","320,1,N,0010,1","22000,1,9,N","070000,1,N,1","+0168,1","+0060,1","10113,1","06,0000,9,1",,,,,"03,1,+06000,1,00,1",,,"03,99,1,00,1,00,1,99999,9,00,1,04,1",,"01,9",,,,"99999,9,08199,1","1,1,005,1,-009,1",,,"SYN100AAXX  31151 76373 32988 33201 10168 20060 38199 40113 51005 80004 91446 333 30/// 56002 59009 83070;","Q01  00002PRCP06"
"76373099999","2005-05-31T18:00:00","4","25.35","-105.75","1967.0","TEPEHUANES DGO., MX","FM-12","99999","V020","040,1,N,0030,1","22000,1,9,N","070000,1,N,1","+0286,2","+0056,1","10086,1","06,0000,9,1",,,,,"01,1,+00300,1,08,1",,,"02,99,1,01,1,01,1,00450,1,00,1,02,1",,"01,9",,"120,M,+0302,1","240,N,+0088,1","99999,9,08187,1","6,1,012,1,-003,1",,,"SYN118AAXX  31181 76373 32488 20403 10286 20056 38187 40086 56012 81102 91750 333 10302 20088 30/// 56606 59003 81810 81070;","Q01  00002PRCP06"
"76373099999","2005-05-31T21:00:00","4","25.35","-105.75","1967.0","TEPEHUANES DGO., MX","FM-12","99999","V020","290,1,N,0040,1","22000,1,C,N","070000,1,N,1","+0332,1","+0005,1","10028,1","06,0000,9,1",,,,,"01,1,+00300,1,08,1",,,"05,99,1,01,1,01,1,00450,1,00,1,01,1",,"01,9",,,,"99999,9,08163,1","6,1,024,1,-002,1",,,"SYN106AAXX  31211 76373 32488 52904 10332 20005 38163 40028 56024 81101 92050 333 30/// 56606 59002 81810 84070;","Q01  00002PRCP06"
"76373099999","2005-06-01T00:00:00","4","25.35","-105.75","1967.0","TEPEHUANES DGO., MX","FM-12","99999","V020","300,1,N,0060,1","22000,1,C,N","070000,1,N,1","+0328,1","-0024,1","09977,1","06,0000,9,1","24,0000,9,1",,,,"03,1,+00600,1,08,1",,,"08,99,1,03,1,02,1,00250,1,00,1,04,1",,"01,9",,"120,M,+0354,1","180,N,+0088,1","99999,9,08152,1","6,1,011,1,-005,1",,,"SYN130AAXX  01001 76373 32388 83006 10328 21024 38152 49977 56011 83204 92355 333 10354 20088 30/// 50100 56606 59005 70000 83820 85080;","Q01  00002PRCP06"
"76373099999","2005-06-01T12:00:00","4","25.35","-105.75","1967.0","TEPEHUANES DGO., MX","FM-12","99999","V020","999,9,C,0000,1","22000,1,9,N","070000,1,N,1","+0128,1","+0059,1","10067,1","06,0000,9,1","24,0000,9,1",,,,"04,1,+06000,1,00,1",,,"04,99,1,00,1,00,1,99999,9,00,1,04,1",,"01,9","999,+0085,1","120,N,+0116,1","240,M,+0354,1","99999,9,08189,1","9,9,999,9,-004,1",,,"SYN118AAXX  01121 76373 32988 40000 10128 20059 38189 40067 5//// 80004 91152 333 10354 20116 30085 56006 59004 70000 84070;","Q01  00002PRCP06"
"76373099999","2005-06-01T15:00:00","4","25.35","-105.75","1967.0","TEPEHUANES DGO., MX","FM-12","99999","V020","030,1,N,0010,1","06000,1,9,N","070000,1,N,1","+0192,1","+0096,1","10093,1","06,0000,9,1",,,,,"07,1,+06000,1,02,1",,,"99,99,9,00,1,00,1,99999,9,00,1,08,1",,"01,9",,,,"99999,9,08192,1","1,1,003,1,-007,1",,,"SYN100AAXX  01151 76373 32988 60301 10192 20096 38192 40093 51003 80008 91450 333 30/// 56006 59007 87270;","Q01  00002PRCP06"
"76373099999","2005-06-01T18:00:00","4","25.35","-105.75","1967.0","TEPEHUANES DGO., MX","FM-12","99999","V020","090,1,N,0030,1","09000,1,C,N","070000,1,N,1","+0304,1","+0062,1","10062,1","06,0000,9,1",,,,,"01,1,+00300,1,08,1",,,"07,99,1,01,1,01,1,00450,1,00,1,08,1",,"01,9",,"120,M,+0320,1","240,N,+0104,1","99999,9,08178,1","6,1,014,1,+001,1",,,"SYN118AAXX  01181 76373 32488 70903 10304 20062 38178 40062 56014 81108 91750 333 10320 20104 30/// 56606 58001 81810 86270;","Q01  00002PRCP06"
"76373099999","2005-06-01T21:00:00","4","25.35","-105.75","1967.0","TEPEHUANES DGO., MX","FM-12","99999","V020","280,1,N,0030,1","09000,1,C,N","070000,1,N,1","+0354,1","-0014,1","10000,2","06,0000,9,1",,,,,"02,1,+00300,1,08,1",,,"08,99,1,02,1,01,1,00450,1,00,1,08,1",,"01,9",,,,"99999,9,08151,1","7,1,027,1,-012,1",,,"SYN106AAXX  01211 76373 32488 82803 10354 21014 38151 40000 57027 82108 92055 333 30/// 56606 59012 82810 86270;","Q01  00002PRCP06"
"76373099999","2005-06-02T00:00:00","4","25.35","-105.75","1967.0","TEPEHUANES DGO., MX","FM-12","99999","V020","270,1,N,0070,1","09000,1,9,N","070000,1,N,1","+0326,1","+0075,1","09952,1","06,0000,9,1","24,0000,9,1",,,,"04,1,+00600,1,08,1",,,"08,99,1,04,1,02,1,00250,1,00,1,07,1",,"01,9",,"120,M,+0380,1","180,N,+0104,1","99999,9,08140,1","6,1,011,1,-012,1",,,"SYN130AAXX  02001 76373 32388 82707 10326 20075 38140 49952 56011 84207 92350 333 10380 20104 30/// 50810 56606 59012 70000 84820 83280;","Q01  00002PRCP06"
"76373099999","2005-06-02T12:00:00","4","25.35","-105.75","1967.0","TEPEHUANES DGO., MX","FM-12","99999","V020","290,1,N,0010,1","22000,1,9,N","020000,1,N,1","+0130,1","+0098,1","10053,1","06,0000,9,1","24,0000,9,1",,,,"00,1,+99999,9,99,9",,,"00,99,1,00,1,00,1,99999,9,00,1,00,1",,"01,9","999,+0055,1","120,N,+0100,1","240,M,+0380,1","99999,9,08182,1","9,9,999,9,+008,1",,,"SYN100AAXX  02121 76373 32970 02901 10130 20098 38182 40053 5//// 91155 333 10380 20100 30055 58008 70000;","Q01  00002PRCP06Q02  00002PRCP24"
"76373099999","2005-06-02T15:00:00","4","25.35","-105.75","1967.0","TEPEHUANES DGO., MX","FM-12","99999","V020","320,1,N,0010,1","22000,1,9,N","070000,1,N,1","+0186,1","+0103,1","10081,1","06,0000,9,1",,,,,"00,1,+99999,9,99,9",,,"00,99,1,00,1,00,1,99999,9,00,1,00,1",,"01,9",,,,"99999,9,08186,1","0,1,004,1,-006,1",,,"SYN082AAXX  02151 76373 32988 03201 10186 20103 38186 40081 50004 91448 333 30/// 59006;","Q01  00002PRCP06"
"76373099999","2005-06-02T18:00:00","4","25.35","-105.75","1967.0","TEPEHUANES DGO., MX","FM-12","99999","V020","270,1,N,0050,1","22000,1,9,N","070000,1,N,1","+0310,2","+0042,1","10046,1","06,0000,9,1",,,,,"00,1,+99999,9,99,9",,,"00,99,1,00,1,00,1,99999,9,00,1,00,1",,,,"120,M,+0328,1","240,N,+0098,1","99999,9,08168,1","6,1,035,1,-010,1",,,"SYN088AAXX  02181 76373 32988 02705 10310 20042 38168 40046 56035 91750 333 10328 20098 59010;","Q01  00002PRCP06"
"76373099999","2005-06-03T00:00:00","4","25.35","-105.75","1967.0","TEPEHUANES DGO., MX","FM-12","99999","V020","300,1,N,0060,1","22000,1,9,N","070000,1,N,1","+0298,1","+0015,1","09968,1","06,0000,9,1","24,0000,9,1",,,,,,,"02,99,1,00,1,00,1,99999,9,00,1,09,1",,"01,9",,"120,M,+0352,1","180,N,+0098,1","99999,9,08147,1","7,1,015,1,+007,1",,,"SYN124AAXX  03001 76373 32988 23006 10298 20015 38147 49968 57015 80009 92355 333 10352 20098 30/// 50950 56006 58007 70000 82170;","Q01  00002PRCP06"
"76373099999","2005-06-03T12:00:00","4","25.35","-105.75","1967.0","TEPEHUANES DGO., MX","FM-12","99999","V020","999,9,C,0000,1","22000,1,9,N","070000,1,N,1","+0110,1","+0082,1","10055,1","06,0000,9,1","24,0000,9,1",,,,"00,1,+99999,9,99,9",,,"00,99,1,00,1,00,1,99999,9,00,1,00,1",,"01,9","999,+0056,1","120,N,+0102,1","240,M,+0352,1","99999,9,08169,1","9,9,999,9,-013,1",,,"SYN100AAXX  03121 76373 32988 00000 10110 20082 38169 40055 5//// 91152 333 10352 20102 30056 59013 70000;","Q01  00002PRCP06Q02  00002PRCP24"
"76373099999","2005-06-03T15:00:00","4","25.35","-105.75","1967.0","TEPEHUANES DGO., MX","FM-12","99999","V020","340,1,N,0010,1","22000,1,9,N","070000,1,N,1","+0190,1","+0072,1","10088,1","06,0000,9,1",,,,,"00,1,+99999,9,99,9",,,"00,99,1,00,1,00,1,99999,9,00,1,00,1",,"01,9",,,,"99999,9,08181,1","6,1,012,1,-005,1",,,"SYN082AAXX  03151 76373 32988 03401 10190 20072 38181 40088 56012 91448 333 30/// 59005;","Q01  00002PRCP06"
"76373099999","2005-06-03T18:00:00","4","25.35","-105.75","1967.0","TEPEHUANES DGO., MX","FM-12","99999","V020","300,1,N,0060,1","22000,1,9,N","070000,1,N,1","+0292,1","+0018,1","10053,1","06,0000,9,1",,,,,"00,1,+99999,9,99,9",,,"00,99,1,00,1,00,1,99999,9,00,1,00,1",,"01,9",,"120,M,+0306,1","240,N,+0092,1","99999,9,08164,1","6,1,017,1,-004,1",,,"SYN094AAXX  03181 76373 32988 03006 10292 20018 38164 40053 56017 91750 333 10306 20092 30/// 59004;","Q01  00002PRCP06"
"76373099999","2005-06-03T21:00:00","4","25.35","-105.75","1967.0","TEPEHUANES DGO., MX","FM-12","99999","V020","250,1,N,0070,1","22000,1,9,N","070000,1,N,1","+0324,1","-0063,1","10005,1","06,0000,9,1",,,,,"00,1,+99999,9,99,9",,,"00,99,1,00,1,00,1,99999,9,00,1,00,1",,"01,9",,,,"99999,9,08147,1","6,1,017,1,-015,1",,,"SYN082AAXX  03211 76373 32988 02507 10324 21063 38147 40005 56017 92053 333 30/// 59015;","Q01  00002PRCP06"
"76373099999","2005-06-04T00:00:00","4","25.35","-105.75","1967.0","TEPEHUANES DGO., MX","FM-12","99999","V020","240,1,N,0060,1","22000,1,9,N","070000,1,N,1","+0310,1","-0010,1","09959,1","06,0000,9,1","24,0000,9,1",,,,"00,1,+99999,9,99,9",,,"00,99,1,00,1,00,1,99999,9,00,1,00,1",,"01,9",,"120,M,+0348,1","180,N,+0092,1","99999,9,08139,1","6,1,008,1,-008,1",,,"SYN106AAXX  04001 76373 32988 02406 10310 21010 38139 49959 56008 92348 333 10348 20092 30/// 50850 59008 70000;","Q01  00002PRCP06Q02  00002PRCP24"
"76373099999","2005-06-04T18:00:00","4","25.35","-105.75","1967.0","TEPEHUANES DGO., MX","FM-12","99999","V020","330,1,N,0060,1","22000,1,9,N","070000,1,N,1","+0284,1","-0066,1","10051,1","06,0000,9,1",,,,,"00,1,+99999,9,99,9",,,"00,99,1,00,1,00,1,99999,9,00,1,00,1",,"01,9",,"120,M,+0310,1","240,N,+0108,1","99999,9,08161,1","6,1,004,1,+007,1",,,"SYN094AAXX  04181 76373 32988 03306 10284 21066 38161 40051 56004 91745 333 10310 20108 30/// 58007;","Q01  00002PRCP06"
"76373099999","2005-06-04T21:00:00","4","25.35","-105.75","1967.0","TEPEHUANES DGO., MX","FM-12","99999","V020","240,1,N,0040,1","22000,1,9,N","070000,1,N,1","+0314,1","-0062,1","10012,1","06,0000,9,1",,,,,"00,1,+99999,9,99,9",,,"00,99,1,00,1,00,1,99999,9,00,1,00,1",,"01,9",,,,"99999,9,08153,1","6,1,018,1,+006,1",,,"SYN082AAXX  04211 76373 32988 02404 10314 21062 38153 40012 56018 92045 333 30/// 58006;","Q01  00002PRCP06"
"76373099999","2005-06-05T00:00:00","4","25.35","-105.75","1967.0","TEPEHUANES DGO., MX","FM-12","99999","V020","300,1,N,0060,1","22000,1,9,N","070000,1,N,1","+0300,1","-0077,1","09975,1","06,0000,9,1","24,0000,9,1",,,,"00,1,+99999,9,99,9",,,"00,99,1,00,1,00,1,99999,9,00,1,00,1",,"01,9",,"120,M,+0340,1","180,N,+0108,1","99999,9,08147,1","6,1,006,1,+008,1",,,"SYN106AAXX  05001 76373 32988 03006 10300 21077 38147 49975 56006 92350 333 10340 20108 30/// 50780 58008 70000;","Q01  00002PRCP06Q02  00002PRCP24"
"76373099999","2005-06-05T15:00:00","4","25.35","-105.75","1967.0","TEPEHUANES DGO., MX","FM-12","99999","V020","300,1,N,0010,1","22000,1,9,N","070000,1,N,1","+0152,1","+0019,1","10099,1","06,0000,9,1",,,,,"00,1,+99999,9,99,9",,,"00,99,1,00,1,00,1,99999,9,00,1,00,1",,"01,9",,,,"99999,9,08188,1","9,9,999,9,+013,1",,,"SYN082AAXX  05151 76373 32988 03001 10152 20019 38188 40099 5//// 91445 333 30/// 58013;","Q01  00002PRCP06"
"76373099999","2005-06-05T18:00:00","4","25.35","-105.75","1967.0","TEPEHUANES DGO., MX","FM-12","99999","V020","020,1,N,0010,1","22000,1,9,N","070000,1,N,1","+0272,1","-0045,1","10081,1","06,0000,9,1",,,,,"00,1,+99999,9,99,9",,,"00,99,1,00,1,00,1,99999,9,00,1,00,1",,"01,9",,"120,M,+0308,1","240,N,+0065,1","99999,9,08176,1","6,1,001,1,+005,1",,,"SYN094AAXX  05181 76373 32988 00201 10272 21045 38176 40081 56001 91750 333 10308 20065 30/// 58005;","Q01  00002PRCP06"
"76373099999","2005-06-05T21:00:00","4","25.35","-105.75","1967.0","TEPEHUANES DGO., MX","FM-12","99999","V020","180,1,N,0020,1","22000,1,9,N","070000,1,N,1","+0332,1","+0044,1","10025,1","06,0000,9,1",,,,,"00,1,+99999,9,99,9",,,"00,99,1,00,1,00,1,99999,9,00,1,00,1",,"01,9",,,,"99999,9,08153,1","6,1,023,1,+000,1",,,"SYN082AAXX  05211 76373 32988 01802 10332 20044 38153 40025 56023 92045 333 30/// 58000;","Q01  00002PRCP06"
"76373099999","2005-06-06T00:00:00","4","25.35","-105.75","1967.0","TEPEHUANES DGO., MX","FM-12","99999","V020","260,1,N,0050,1","22000,1,9,N","070000,1,N,1","+0306,1","-0076,2","09998,1","06,0000,9,1","24,0000,9,1",,,,"00,1,+99999,9,99,9",,,"00,99,1,00,1,00,1,99999,9,00,1,00,1",,"01,9",,"120,M,+0354,1","180,N,+0065,1","99999,9,08158,1","2,1,005,1,+011,1",,,"SYN106AAXX  06001 76373 32988 02605 10306 21076 38158 49998 52005 82345 333 10354 20065 30/// 50890 58011 70000;","Q01  00002PRCP06Q02  00002PRCP24"
"76373099999","2005-06-06T12:00:00","4","25.35","-105.75","1967.0","TEPEHUANES DGO., MX","FM-12","99999","V020","999,9,C,0000,1","22000,1,9,N","070000,1,N,1","+0072,1","-0010,1","10130,1","06,0000,9,1","24,0000,9,1",,,,"00,1,+99999,9,99,9",,,"00,99,1,00,1,00,1,99999,9,00,1,00,1",,"01,9","999,+0022,1","120,N,+0066,1","240,M,+0354,1","99999,9,08185,1",,,,"SYN100AAXX  06121 76373 32988 00000 10072 21010 38185 40130 5//// 91158 333 10354 20066 30022 58/// 70000;","Q01  00002PRCP06Q02  00002PRCP24"
"76373099999","2005-06-06T18:00:00","4","25.35","-105.75","1967.0","TEPEHUANES DGO., MX","FM-12","99999","V020","120,1,N,0010,1","22000,1,9,N","070000,1,N,1","+0292,1","+0006,1","10086,1","06,0000,9,1",,,,,"01,1,+06000,1,00,1",,,"01,99,1,00,1,00,1,99999,9,00,1,05,1",,"01,9",,"120,M,+0310,1","240,N,+0052,1","99999,9,08178,1","6,1,018,1,+002,1",,,"SYN112AAXX  06181 76373 32988 11201 10292 20006 38178 40086 56018 80005 91750 333 10310 20052 30/// 56006 58002 81070;","Q01  00002PRCP06"
"76373099999","2005-06-06T21:00:00","4","25.35","-105.75","1967.0","TEPEHUANES DGO., MX","FM-12","99999","V020","290,1,N,0070,1","22000,1,9,N","070000,1,N,1","+0334,1","-0102,1","10032,1","06,0000,9,1",,,,,"02,1,+06000,1,00,1",,,"02,99,1,00,1,00,1,99999,9,00,1,02,1",,"01,9",,,,"99999,9,08162,1","6,1,016,1,+009,1",,,"SYN100AAXX  06211 76373 32988 22907 10334 21102 38162 40032 56016 80002 92059 333 30/// 56006 58009 82070;","Q01  00002PRCP06"
"76373099999","2005-06-07T12:00:00","4","25.35","-105.75","1967.0","TEPEHUANES DGO., MX","FM-12","99999","V020","290,1,N,0010,1","22000,1,9,N","070000,1,N,1","+0090,1","+0016,1","10083,1","06,0000,9,1","24,0000,9,1",,,,"00,1,+99999,9,99,9",,,"00,99,1,00,1,00,1,99999,9,00,1,00,1",,"01,9","999,+0038,1","120,N,+0080,1","240,M,+0360,1","99999,9,08187,1","9,9,999,9,+002,1",,,"SYN100AAXX  07121 76373 32988 02901 10090 20016 38187 40083 5//// 91150 333 10360 20080 30038 58002 70000;","Q01  00002PRCP06Q02  00002PRCP24"
"76373099999","2005-06-07T15:00:00","4","25.35","-105.75","1967.0","TEPEHUANES DGO., MX","FM-12","99999","V020","340,1,N,0010,1","22000,1,9,N","070000,1,N,1","+0176,1","+0033,1","10111,1","06,0000,9,1",,,,,"01,1,+03000,1,03,1",,,"01,99,1,01,1,00,1,01250,1,04,1,00,1",,"01,9",,,,"99999,9,08190,1","1,1,003,1,-006,1",,,"SYN100AAXX  07151 76373 32688 13401 10176 20033 38190 40111 51003 81040 91446 333 30/// 56060 59006 81360;","Q01  00002PRCP06"
"76373099999","2005-06-07T18:00:00","4","25.35","-105.75","1967.0","TEPEHUANES DGO., MX","FM-12","99999","V020","120,1,N,0010,1","22000,1,9,N","070000,1,N,1","+0292,1","-0044,1","10083,1","06,0000,9,1",,,,,"01,1,+06000,1,00,1",,,"01,99,1,00,1,00,1,99999,9,00,1,01,1",,"01,9",,"120,M,+0314,1","240,N,+0078,1","99999,9,08182,1","6,1,008,1,+004,1",,,"SYN112AAXX  07181 76373 32988 11201 10292 21044 38182 40083 56008 80001 91750 333 10314 20078 30/// 56006 58004 81070;","Q01  00002PRCP06"
"76373099999","2005-06-08T00:00:00","4","25.35","-105.75","1967.0","TEPEHUANES DGO., MX","FM-12","99999","V020","280,1,N,0070,1","22000,1,9,N","070000,1,N,1","+0340,1","-0067,1","09959,2","06,0000,9,1","24,0000,9,1",,,,"00,1,+99999,9,99,9",,,"00,99,1,00,1,00,1,99999,9,00,1,00,1",,"01,9",,"120,M,+0376,1","180,N,+0078,1","99999,9,08143,1","6,1,014,1,-019,1",,,"SYN106AAXX  08001 76373 32988 02807 10340 21067 38143 49959 56014 92350 333 10376 20078 30/// 50880 59019 70000;","Q01  00002PRCP06Q02  00002PRCP24"
"76373099999","2005-06-08T12:00:00","4","25.35","-105.75","1967.0","TEPEHUANES DGO., MX","FM-12","99999","V020","999,9,C,0000,1","22000,1,9,N","070000,1,N,1","+0090,1","-0002,1","10062,1","06,0000,9,1","24,0000,9,1",,,,"00,1,+99999,9,99,9",,,"00,99,1,00,1,00,1,99999,9,00,1,00,1",,"01,9","999,+0032,1","120,N,+0080,1","240,M,+0376,1","99999,9,08182,1","9,9,999,9,+005,1",,,"SYN100AAXX  08121 76373 32988 00000 10090 21002 38182 40062 5//// 91145 333 10376 20080 30032 58005 70000;","Q01  00002PRCP06Q02  00002PRCP24"
"76373099999","2005-06-08T15:00:00","4","25.35","-105.75","1967.0","TEPEHUANES DGO., MX","FM-12","99999","V020","999,9,C,0000,1","22000,1,9,N","070000,1,N,1","+0186,1","+0013,1","10100,1","06,0000,9,1",,,,,"00,1,+99999,9,99,9",,,"00,99,1,00,1,00,1,99999,9,00,1,00,1",,"01,9",,,,"99999,9,08189,1","1,1,007,1,-001,1",,,"SYN082AAXX  08151 76373 32988 00000 10186 20013 38189 40100 51007 91450 333 30/// 59001;","Q01  00002PRCP06"
"76373099999","2005-06-08T18:00:00","4","25.35","-105.75","1967.0","TEPEHUANES DGO., MX","FM-12","99999","V020","110,1,N,0020,1","22000,1,9,N","070000,1,N,1","+0312,1","+0001,1","10067,1","06,0000,9,1",,,,,"00,1,+99999,9,99,9",,,"00,99,1,00,1,00,1,99999,9,00,1,00,1",,"01,9",,"120,M,+0330,1","240,N,+0074,1","99999,9,08175,1","6,1,024,1,-007,1",,,"SYN094AAXX  08181 76373 32988 01102 10312 20001 38175 40067 56024 91750 333 10330 20074 30/// 59007;","Q01  00002PRCP06"
"76373099999","2005-06-08T21:00:00","4","25.35","-105.75","1967.0","TEPEHUANES DGO., MX","FM-12","99999","V020","310,1,N,0050,1","22000,1,9,N","070000,1,N,1","+0370,2","-0027,1","10000,2","06,0000,9,1",,,,,"00,1,+99999,9,99,9",,,"00,99,1,00,1,00,1,99999,9,00,1,00,1",,"01,9",,,,"99999,9,08146,1","7,1,029,1,-011,1",,,"SYN082AAXX  08211 76373 32988 03105 10370 21027 38146 40000 57029 92050 333 30/// 59011;","Q01  00002PRCP06"
"76373099999","2005-06-09T00:00:00","4","25.35","-105.75","1967.0","TEPEHUANES DGO., MX","FM-12","99999","V020","300,1,N,0060,1","22000,1,9,N","070000,1,N,1","+0344,1","-0104,1","09949,1","06,0000,9,1","24,0000,9,1",,,,"00,1,+99999,9,99,9",,,"00,99,1,00,1,00,1,99999,9,00,1,00,1",,"01,9",,"120,M,+0388,1","180,N,+0074,1","99999,9,08138,1","6,1,008,1,+005,1",,,"SYN106AAXX  09001 76373 32988 03006 10344 21104 38138 49949 56008 92350 333 10388 20074 30/// 50890 58005 70000;","Q01  00002PRCP06Q02  00002PRCP24"
"76373099999","2005-06-09T12:00:00","4","25.35","-105.75","1967.0","TEPEHUANES DGO., MX","FM-12","99999","V020","999,9,C,0000,1","22000,1,9,N","070000,1,N,1","+0104,1","+0022,1","10048,1","06,0000,9,1","24,0000,9,1",,,,"00,1,+99999,9,99,9",,,"00,99,1,00,1,00,1,99999,9,00,1,00,1",,"01,9","999,+0062,1","120,N,+0098,1","240,M,+0388,1","99999,9,08178,1","9,9,999,9,-004,1",,,"SYN100AAXX  09121 76373 32988 00000 10104 20022 38178 40048 5//// 91152 333 10388 20098 30062 59004 70000;","Q01  00002PRCP06Q02  00002PRCP24"
"76373099999","2005-06-09T15:00:00","4","25.35","-105.75","1967.0","TEPEHUANES DGO., MX","FM-12","99999","V020","300,1,N,0010,1","22000,1,9,N","070000,1,N,1","+0190,1","+0050,1","10083,1","06,0000,9,1",,,,,"00,1,+99999,9,99,9",,,"00,99,1,00,1,00,1,99999,9,00,1,00,1",,"01,9",,,,"99999,9,08185,1","1,1,007,1,-004,1",,,"SYN082AAXX  09151 76373 32988 03001 10190 20050 38185 40083 51007 91455 333 30/// 59004;","Q01  00002PRCP06"
"76373099999","2005-06-09T18:00:00","4","25.35","-105.75","1967.0","TEPEHUANES DGO., MX","FM-12","99999","V020","090,1,N,0010,1","22000,1,9,N","070000,1,N,1","+0312,1","-0042,1","10048,1","06,0000,9,1",,,,,"00,1,+99999,9,99,9",,,"00,99,1,00,1,00,1,99999,9,00,1,00,1",,"01,9",,"120,M,+0336,1","240,N,+0084,1","99999,9,08166,1","6,1,019,1,-009,1",,,"SYN094AAXX  09181 76373 32988 00901 10312 21042 38166 40048 56019 91750 333 10336 20084 30/// 59009;","Q01  00002PRCP06"
"76373099999","2005-06-09T21:00:00","4","25.35","-105.75","1967.0","TEPEHUANES DGO., MX","FM-12","99999","V020","270,1,N,0060,1","22000,1,9,N","070000,1,N,1","+0369,2","-0115,1","09986,2","06,0000,9,1",,,,,"00,1,+99999,9,99,9",,,"00,99,1,00,1,00,1,99999,9,00,1,00,1",,"01,9",,,,"99999,9,08138,1","7,1,028,1,-008,1",,,"SYN082AAXX  09211 76373 32988 02706 10369 21115 38138 49986 57028 92046 333 30/// 59008;","Q01  00002PRCP06"
"76373099999","2005-06-10T15:00:00","4","25.35","-105.75","1967.0","TEPEHUANES DGO., MX","FM-12","99999","V020","290,1,N,0010,1","22000,1,9,N","070000,1,N,1","+0192,1","+0038,1","10067,1","06,0000,9,1",,,,,"00,1,+99999,9,99,9",,,"00,99,1,00,1,00,1,99999,9,00,1,00,1",,"01,9",,,,"99999,9,08169,1","0,1,007,1,-016,1",,,"SYN082AAXX  10151 76373 32988 02901 10192 20038 38169 40067 50007 91448 333 30/// 59016;","Q01  00002PRCP06"
"76373099999","2005-06-10T18:00:00","4","25.35","-105.75","1967.0","TEPEHUANES DGO., MX","FM-12","99999","V020","300,1,N,0070,1","22000,1,9,N","070000,1,N,1","+0310,1","-0064,1","10037,1","06,0000,9,1",,,,,"00,1,+99999,9,99,9",,,"00,99,1,00,1,00,1,99999,9,00,1,00,1",,"01,9",,"120,M,+0328,1","240,N,+0098,1","99999,9,08155,1","6,1,014,1,+003,1",,,"SYN094AAXX  10181 76373 32988 03007 10310 21064 38155 40037 56014 91750 333 10328 20098 30/// 58003;","Q01  00002PRCP06"
"76373099999","2005-06-10T21:00:00","4","25.35","-105.75","1967.0","TEPEHUANES DGO., MX","FM-12","99999","V020","280,1,N,0090,1","22000,1,9,N","070000,1,N,1","+0322,1","-0123,1","09993,1","06,0000,9,1",,,,,"00,1,+99999,9,99,9",,,"00,99,1,00,1,00,1,99999,9,00,1,00,1",,"01,9",,,,"99999,9,08142,1","7,1,013,1,+004,1",,,"SYN082AAXX  10211 76373 32988 02809 10322 21123 38142 49993 57013 92055 333 30/// 58004;","Q01  00002PRCP06"
"76373099999","2005-06-11T00:00:00","4","25.35","-105.75","1967.0","TEPEHUANES DGO., MX","FM-12","99999","V020","180,1,N,0070,1","22000,1,9,N","070000,1,N,1","+0306,1","-0032,1","09956,1","06,0000,9,1","24,0000,9,1",,,,"00,1,+99999,9,99,9",,,"00,99,1,00,1,00,1,99999,9,00,1,00,1",,"01,9",,"120,M,+0345,1","180,N,+0098,1","99999,9,08139,1","5,1,003,1,-004,1",,,"SYN106AAXX  11001 76373 32988 01807 10306 21032 38139 49956 55003 92346 333 10345 20098 30/// 50930 59004 70000;","Q01  00002PRCP06Q02  00002PRCP24"
"76373099999","2005-06-11T15:00:00","4","25.35","-105.75","1967.0","TEPEHUANES DGO., MX","FM-12","99999","V020","330,1,N,0010,1","22000,1,9,N","070000,1,N,1","+0108,1","+0065,1","10053,1","06,0000,9,1",,,,,"00,1,+99999,9,99,9",,,"00,99,1,00,1,00,1,99999,9,00,1,00,1",,"01,9",,,,"99999,9,08163,1","9,9,999,9,-022,1",,,"SYN082AAXX  11151 76373 32988 03301 10108 20065 38163 40053 5//// 91445 333 30/// 59022;","Q01  00002PRCP06"
"76373099999","2005-06-11T21:00:00","4","25.35","-105.75","1967.0","TEPEHUANES DGO., MX","FM-12","99999","V020","280,1,N,0060,1","22000,1,9,N","070000,1,N,1","+0316,2","+0018,1","10018,1","06,0000,9,1",,,,,"00,1,+99999,9,99,9",,,"00,99,1,00,1,00,1,99999,9,00,1,00,1",,"01,9",,,,"99999,9,08148,1","6,1,011,1,-006,1",,,"SYN082AAXX  11211 76373 32988 02806 10316 20018 38148 40018 56011 92050 333 30/// 59006;","Q01  00002PRCP06"
"76373099999","2005-06-12T12:00:00","4","25.35","-105.75","1967.0","TEPEHUANES DGO., MX","FM-12","99999","V020","999,9,C,0000,1","22000,1,9,N","020000,1,N,1","+0082,1","+0040,1","10067,1","06,0000,9,1","24,0000,9,1",,,,"00,1,+99999,9,99,9",,,"00,99,1,00,1,00,1,99999,9,00,1,00,1",,"01,9","999,+0042,1","120,N,+0070,1","240,M,+0345,1","99999,9,08180,1",,,,"SYN100AAXX  12121 76373 32970 00000 10082 20040 38180 40067 5//// 91145 333 10345 20070 30042 58/// 70000;","Q01  00002PRCP06Q02  00002PRCP24"
"76373099999","2005-06-12T15:00:00","4","25.35","-105.75","1967.0","TEPEHUANES DGO., MX","FM-12","99999","V020","310,1,N,0020,1","22000,1,9,N","070000,1,N,1","+0160,1","+0042,1","10108,1","06,0000,9,1",,,,,"00,1,+99999,9,99,9",,,"00,99,1,00,1,00,1,99999,9,00,1,00,1",,"01,9",,,,"99999,9,08190,1","2,1,010,1,+027,1",,,"SYN082AAXX  12151 76373 32988 03102 10160 20042 38190 40108 52010 91445 333 30/// 58027;","Q01  00002PRCP06"
"76373099999","2005-06-12T18:00:00","4","25.35","-105.75","1967.0","TEPEHUANES DGO., MX","FM-12","99999","V020","030,1,N,0020,1","22000,1,9,N","070000,1,N,1","+0280,1","-0026,1","10090,1","06,0000,9,1",,,,,"00,1,+99999,9,99,9",,,"00,99,1,00,1,00,1,99999,9,00,1,00,1",,"01,9",,"120,M,+0298,1","240,N,+0062,1","99999,9,08173,1","7,1,017,1,+014,1",,,"SYN094AAXX  12181 76373 32988 00302 10280 21026 38173 40090 57017 91740 333 10298 20062 30/// 58014;","Q01  00002PRCP06"
"76373099999","2005-06-12T21:00:00","4","25.35","-105.75","1967.0","TEPEHUANES DGO., MX","FM-12","99999","V020","250,1,N,0040,1","22000,1,9,N","070000,1,N,1","+0330,1","-0078,1","10039,1","06,0000,9,1",,,,,"00,1,+99999,9,99,9",,,"00,99,1,00,1,00,1,99999,9,00,1,00,1",,"01,9",,,,"99999,9,08156,1","7,1,017,1,+008,1",,,"SYN082AAXX  12211 76373 32988 02504 10330 21078 38156 40039 57017 92045 333 30/// 58008;","Q01  00002PRCP06"
"76373099999","2005-06-13T00:00:00","4","25.35","-105.75","1967.0","TEPEHUANES DGO., MX","FM-12","99999","V020","290,1,N,0030,1","22000,1,9,N","070000,1,N,1","+0330,1","-0051,1","09995,1","06,0000,9,1","24,0000,9,1",,,,"00,1,+99999,9,99,9",,,"00,99,1,00,1,00,1,99999,9,00,1,00,1",,"01,9",,"120,M,+0360,1","180,N,+0062,1","99999,9,08154,1","7,1,002,1,-004,1",,,"SYN106AAXX  13001 76373 32988 02903 10330 21051 38154 49995 57002 92345 333 10360 20062 30/// 50620 59004 70000;","Q01  00002PRCP06Q02  00002PRCP24"
"76373099999","2005-06-13T03:00:00","4","25.35","-105.75","1967.0","TEPEHUANES DGO., MX","FM-12","99999","V020","250,1,N,0020,1","22000,1,9,N","020000,1,N,1","+0244,1","+0078,2","09977,1","06,0000,9,1",,,,,"00,1,+99999,9,99,9",,,"00,99,1,00,1,00,1,99999,9,00,1,00,1",,"01,9",,,,"99999,9,08165,1","2,1,011,1,-002,1",,,"SYN082AAXX  13031 76373 32970 02502 10244 20078 38165 49977 52011 90245 333 30/// 59002;","Q01  00002PRCP06"
"76373099999","2005-06-13T06:00:00","4","25.35","-105.75","1967.0","TEPEHUANES DGO., MX","FM-12","99999","V020","999,9,C,0000,1","22000,1,9,N","010000,1,N,1","+0178,1","+0073,1","09904,2","06,0000,9,1",,,,,"00,1,+99999,9,99,9",,,"00,99,1,00,1,00,1,99999,9,00,1,00,1","0774,9","01,9",,"240,M,+0360,1","240,N,+0062,1","99999,9,08181,1","2,1,016,1,+005,1",,,"SYN100AAXX  13061 76373 32960 00000 10178 20073 38181 49904 52016 90550 333 10360 20062 30/// 55129 58005;","Q01  00002PRCP06"
"76373099999","2005-06-13T21:00:00","4","25.35","-105.75","1967.0","TEPEHUANES DGO., MX","FM-12","99999","V020","110,1,N,0030,1","22000,1,9,N","070000,1,N,1","+0336,1","-0029,1","10012,1","06,0000,9,1",,,,,"00,1,+99999,9,99,9",,,"00,99,1,00,1,00,1,99999,9,00,1,00,1",,"01,9",,,,"99999,9,08157,1","7,1,022,1,-001,1",,,"SYN082AAXX  13211 76373 32988 01103 10336 21029 38157 40012 57022 92050 333 30/// 59001;","Q01  00002PRCP06"
"76373099999","2005-06-14T00:00:00","4","25.35","-105.75","1967.0","TEPEHUANES DGO., MX","FM-12","99999","V020","140,1,N,0020,1","22000,1,9,N","070000,1,N,1","+0336,1","-0021,1","09947,2","06,0000,9,1","24,0000,9,1",,,,"00,1,+99999,9,99,9",,,"00,99,1,00,1,00,1,99999,9,00,1,00,1",,"01,9",,"120,M,+0365,1","180,N,+0070,1","99999,9,08135,1","6,1,022,1,-019,1",,,"SYN106AAXX  14001 76373 32988 01402 10336 21021 38135 49947 56022 92345 333 10365 20070 30/// 50780 59019 70000;","Q01  00002PRCP06Q02  00002PRCP24"
"76373099999","2005-06-14T03:00:00","4","25.35","-105.75","1967.0","TEPEHUANES DGO., MX","FM-12","99999","V020","270,1,N,0020,1","22000,1,9,N","070000,1,N,1","+0270,1","+0061,1","09956,1","06,0000,9,1",,,,,"03,1,+03000,1,03,1",,,"03,99,1,03,1,00,1,01250,1,03,1,00,1",,"01,9",,,,"99999,9,08143,1","2,1,008,1,-033,1",,,"SYN094AAXX  14031 76373 32688 32702 10270 20061 38143 49956 52008 83030 90240 333 30/// 59033 83360;","Q01  00002PRCP06"
"76373099999","2005-06-14T06:00:00","4","25.35","-105.75","1967.0","TEPEHUANES DGO., MX","FM-12","99999","V020","999,9,C,0000,1","99999,9,9,N","010000,1,N,1","+0210,1","+0109,1","09986,1","06,0000,9,1",,,,,,,,,,"01,9",,"240,M,+0365,1","240,N,+0070,1","99999,9,08179,1","2,1,036,1,-002,1",,,"SYN106AAXX  14061 76373 32960 /0000 10210 20109 38179 49986 52036 8//// 90540 333 10365 20070 30/// 56/// 59002;","Q01  00002PRCP06"
"76373099999","2005-06-14T15:00:00","4","25.35","-105.75","1967.0","TEPEHUANES DGO., MX","FM-12","99999","V020","050,1,N,0010,1","22000,1,9,N","070000,1,N,1","+0202,1","+0089,1","10074,1","06,0000,9,1",,,,,"00,1,+99999,9,99,9",,,"00,99,1,00,1,00,1,99999,9,00,1,00,1",,"01,9",,,,"99999,9,08189,1","1,1,008,1,-002,1",,,"SYN082AAXX  14151 76373 32988 00501 10202 20089 38189 40074 51008 91450 333 30/// 59002;","Q01  00002PRCP06"
"76373099999","2005-06-14T18:00:00","4","25.35","-105.75","1967.0","TEPEHUANES DGO., MX","FM-12","99999","V020","120,1,N,0040,1","22000,1,9,N","070000,1,N,1","+0318,2","+0077,1","10053,1","06,0000,9,1",,,,,"01,1,+00300,1,09,1",,,"01,99,1,01,1,03,1,00450,1,00,1,00,1",,"01,9",,"120,M,+0340,1","240,N,+0132,1","99999,9,08182,1","6,1,007,1,+003,1",,,"SYN112AAXX  14181 76373 32488 11204 10318 20077 38182 40053 56007 81300 91750 333 10340 20132 30/// 56600 58003 81910;","Q01  00002PRCP06"
"76373099999","2005-06-14T21:00:00","4","25.35","-105.75","1967.0","TEPEHUANES DGO., MX","FM-12","99999","V020","120,1,N,0090,1","00300,1,9,N","070000,1,N,1","+0314,1","+0020,1","10017,1","06,0000,9,1",,,,,"06,1,+00300,1,09,1",,,"06,99,1,06,1,09,1,00450,1,00,1,00,1",,"01,9",,,,"99999,9,08168,1","7,1,014,1,+011,1",,,"SYN100AAXX  14211 76373 32488 61209 10314 20020 38168 40017 57014 86900 92050 333 30/// 56600 58011 86910;","Q01  00002PRCP06"
"76373099999","2005-06-15T00:00:00","4","25.35","-105.75","1967.0","TEPEHUANES DGO., MX","FM-12","99999","V020","350,1,N,0040,1","03600,1,9,N","070000,1,N,1","+0282,1","+0050,1","09991,1","06,0000,9,1","24,0000,9,1",,,,"04,1,+00600,1,09,1",,,"08,99,1,04,1,03,1,00250,1,06,1,00,1",,"01,9",,"120,M,+0352,1","180,N,+0132,1","99999,9,08169,1","6,1,001,1,+034,1",,,"SYN130AAXX  15001 76373 32388 83504 10282 20050 38169 49991 56001 84360 92345 333 10352 20132 30/// 50690 56660 58034 70000 84920 84260;","Q01  00002PRCP06"
"76373099999","2005-06-15T06:00:00","4","25.35","-105.75","1967.0","TEPEHUANES DGO., MX","FM-12","99999","V020","999,9,C,0000,1","99999,9,9,N","010000,1,N,1","+0174,1","-0072,1","10041,1","06,0000,9,1",,,,,,,,,,"01,9",,"240,M,+0352,1","240,N,+0132,1","99999,9,08203,1","2,1,021,1,+024,1",,,"SYN106AAXX  15061 76373 32660 /0000 10174 21072 38203 40041 52021 8//// 90550 333 10352 20132 30/// 56/// 58024;","Q01  00002PRCP06"
"76373099999","2005-06-15T12:00:00","4","25.35","-105.75","1967.0","TEPEHUANES DGO., MX","FM-12","99999","V020","999,9,C,0000,1","22000,1,9,N","070000,1,N,1","+0132,1","+0071,1","10111,1","06,0000,9,1","24,0000,9,1",,,,"04,1,+06000,1,00,1",,,"04,99,1,00,1,00,1,99999,9,00,1,05,1",,"01,9","999,+0080,1","120,N,+0125,1","240,M,+0352,1","99999,9,08214,1","9,9,999,9,+033,1",,,"SYN118AAXX  15121 76373 32988 40000 10132 20071 38214 40111 5//// 80005 91150 333 10352 20125 30080 56006 58033 70000 84070;","Q01  00002PRCP06"
"76373099999","2005-06-15T15:00:00","4","25.35","-105.75","1967.0","TEPEHUANES DGO., MX","FM-12","99999","V020","100,1,N,0010,1","03000,1,9,N","070000,1,N,1","+0192,1","+0091,1","10127,1","06,0000,9,1",,,,,"06,1,+03000,1,03,1",,,"06,99,1,06,1,00,1,01250,1,03,1,00,1",,"01,9",,,,"99999,9,08216,1","1,1,002,1,+027,1",,,"SYN100AAXX  15151 76373 32688 61001 10192 20091 38216 40127 51002 86030 91450 333 30/// 56010 58027 86360;","Q01  00002PRCP06"
"76373099999","2005-06-15T18:00:00","4","25.35","-105.75","1967.0","TEPEHUANES DGO., MX","FM-12","99999","V020","120,1,N,0030,1","22000,1,9,N","070000,1,N,1","+0292,1","+0090,1","10090,1","06,0000,9,1",,,,,"01,1,+00300,1,09,1",,,"02,99,1,01,1,03,1,00450,1,03,1,00,1",,"01,9",,"120,M,+0318,1","240,N,+0124,1","99999,9,08203,1","6,1,013,1,+021,1",,,"SYN118AAXX  15181 76373 32488 21203 10292 20090 38203 40090 56013 81330 91750 333 10318 20124 30/// 56220 58021 81910 81360;","Q01  00002PRCP06"
"76373099999","2005-06-15T21:00:00","4","25.35","-105.75","1967.0","TEPEHUANES DGO., MX","FM-12","99999","V020","090,1,N,0010,1","03000,1,9,N","070000,1,N,1","+0298,1","+0063,1","10051,1","06,0000,9,1",,,,,"03,1,+00300,1,09,1","02,1,+03000,1,05,1",,"06,99,1,03,1,03,1,00450,1,02,1,01,1",,"01,9",,,,"99999,9,08186,1","7,1,017,1,+018,1",,,"SYN112AAXX  15211 76373 32488 60901 10298 20063 38186 40051 57017 83321 92050 333 30/// 56222 58018 83910 82560 81070;","Q01  00002PRCP06"
"76373099999","2005-06-16T00:00:00","4","25.35","-105.75","1967.0","TEPEHUANES DGO., MX","FM-12","99999","V020","320,1,N,0020,1","03600,1,9,N","070000,1,N,1","+0286,1","+0073,1","10002,1","06,0000,9,1","24,9999,9,9",,,,"03,1,+00600,1,09,1",,,"08,99,1,03,1,09,1,00250,1,06,1,00,1",,"01,9",,"120,M,+0354,1","180,N,+0124,1","99999,9,08169,1","6,1,017,1,+000,1",,,"SYN130AAXX  16001 76373 32388 83202 10286 20073 38169 40002 56017 83960 92345 333 10354 20124 30/// 50030 56220 58000 79999 83920 85360;","Q01  00002PRCP06Q02  99992PRCP24"
"76373099999","2005-06-16T03:00:00","4","25.35","-105.75","1967.0","TEPEHUANES DGO., MX","FM-12","99999","V020","300,1,N,0040,1","03000,1,9,N","070000,1,N,1","+0262,1","+0086,1","10012,1","06,0000,9,1",,,,,"08,1,+03000,1,03,1",,,"08,99,1,08,1,00,1,01250,1,06,1,00,1",,"01,9",,,,"99999,9,08189,1","2,1,020,1,+007,1",,,"SYN100AAXX  16031 76373 32688 83004 10262 20086 38189 40012 52020 88060 90250 333 30/// 56020 58007 88360;","Q01  00002PRCP06"
"76373099999","2005-06-16T15:00:00","4","25.35","-105.75","1967.0","TEPEHUANES DGO., MX","FM-12","99999","V020","330,1,N,0010,1","22000,1,9,N","070000,1,N,1","+0192,1","+0095,1","10116,1","06,0000,9,1",,,,,"00,1,+99999,9,99,9",,,"00,99,1,00,1,00,1,99999,9,00,1,00,1",,"01,9",,,,"99999,9,08215,1","2,1,009,1,-001,1",,,"SYN082AAXX  16151 76373 32988 03301 10192 20095 38215 40116 52009 91445 333 30/// 59001;","Q01  00002PRCP06"
"76373099999","2005-06-16T18:00:00","4","25.35","-105.75","1967.0","TEPEHUANES DGO., MX","FM-12","99999","V020","120,1,N,0010,1","22000,1,9,N","070000,1,N,1","+0294,1","+0067,1","10086,1","06,0000,9,1",,,,,"01,1,+00300,1,08,1",,,"01,99,1,01,1,01,1,00450,1,00,1,00,1",,"01,9",,"120,M,+0324,1","240,N,+0110,1","99999,9,08202,1","6,1,013,1,-001,1",,,"SYN112AAXX  16181 76373 32488 11201 10294 20067 38202 40086 56013 81100 91750 333 10324 20110 30/// 56200 59001 81810;","Q01  00002PRCP06"
"76373099999","2005-06-16T21:00:00","4","25.35","-105.75","1967.0","TEPEHUANES DGO., MX","FM-12","99999","V020","100,1,N,0030,1","22000,1,9,N","070000,1,N,1","+0330,1","+0046,1","10035,1","06,0000,9,1",,,,,"02,1,+00300,1,08,1",,,"02,99,1,02,1,03,1,00450,1,00,1,00,1",,"01,9",,,,"99999,9,08179,1","7,1,023,1,+000,1",,,"SYN100AAXX  16211 76373 32488 21003 10330 20046 38179 40035 57023 82300 92046 333 30/// 56200 59000 82810;","Q01  00002PRCP06"
"76373099999","2005-06-17T03:00:00","4","25.35","-105.75","1967.0","TEPEHUANES DGO., MX","FM-12","99999","V020","230,1,N,0020,1","99999,9,9,N","010000,1,N,1","+0272,1","+0104,1","09979,1","06,0000,9,1",,,,,,,,,,"01,9",,,,"99999,9,08177,1","2,1,015,1,-012,1",,,"SYN094AAXX  17031 76373 32360 /2302 10272 20104 38177 49979 52015 8//// 90240 333 30/// 56/// 59012;","Q01  00002PRCP06"
"76373099999","2005-06-17T12:00:00","4","25.35","-105.75","1967.0","TEPEHUANES DGO., MX","FM-12","99999","V020","300,1,N,0010,1","22000,1,9,N","030000,1,N,1","+0142,1","+0069,1","10058,1","06,0000,9,1","24,0000,9,1",,,,"00,1,+99999,9,99,9",,,"00,99,1,00,1,00,1,99999,9,00,1,00,1",,"01,9","999,+0090,1","120,N,+0124,1","240,M,+0368,1","99999,9,08190,1","9,9,999,9,-016,1",,,"SYN100AAXX  17121 76373 32980 03001 10142 20069 38190 40058 5//// 91150 333 10368 20124 30090 59016 70000;","Q01  00002PRCP06Q02  00002PRCP24"
"76373099999","2005-06-17T15:00:00","4","25.35","-105.75","1967.0","TEPEHUANES DGO., MX","FM-12","99999","V020","320,1,N,0010,1","22000,1,9,N","070000,1,N,1","+0216,1","+0093,1","10083,1","06,0000,9,1",,,,,"00,1,+99999,9,99,9",,,"00,99,1,00,1,00,1,99999,9,00,1,00,1",,"01,9",,,,"99999,9,08195,1","0,1,005,1,-020,1",,,"SYN082AAXX  17151 76373 32988 03201 10216 20093 38195 40083 50005 91447 333 30/// 59020;","Q01  00002PRCP06"
"76373099999","2005-06-17T18:00:00","4","25.35","-105.75","1967.0","TEPEHUANES DGO., MX","FM-12","99999","V020","120,1,N,0020,1","22000,1,9,N","070000,1,N,1","+0320,1","+0088,1","10055,1","06,0000,9,1",,,,,"01,1,+00300,1,09,1",,,"02,99,1,02,1,03,1,00450,1,00,1,00,1",,"01,9",,"120,M,+0342,1","240,N,+0118,1","99999,9,08184,1","6,1,011,1,-018,1",,,"SYN118AAXX  17181 76373 32488 21202 10320 20088 38184 40055 56011 82300 91750 333 10342 20118 30/// 56200 59018 81910 81810;","Q01  00002PRCP06"
"76373099999","2005-06-17T21:00:00","4","25.35","-105.75","1967.0","TEPEHUANES DGO., MX","FM-12","99999","V020","120,1,N,0050,1","22000,1,9,N","070000,1,N,1","+0344,1","+0020,1","10000,1","06,0000,9,1",,,,,"04,1,+00300,1,09,1",,,"04,99,1,04,1,03,1,00450,1,00,1,00,1",,"01,9",,,,"99999,9,08159,1","6,1,025,1,-020,1",,,"SYN100AAXX  17211 76373 32488 41205 10344 20020 38159 40000 56025 84300 92045 333 30/// 56200 59020 84910;","Q01  00002PRCP06"
"76373099999","2005-06-23T00:00:00","4","25.35","-105.75","1967.0","TEPEHUANES DGO., MX","FM-12","99999","V020","150,1,N,0040,1","03600,1,9,N","070000,1,N,1","+0286,1","+0048,1","10025,1","06,0000,9,1","24,0000,9,1",,,,"01,1,+00600,1,08,1",,,"08,99,1,01,1,02,1,00250,1,06,1,00,1",,"01,9",,"120,M,+0348,1","180,N,+0120,1","99999,9,08193,1","6,1,008,1,-004,1",,,"SYN130AAXX  23001 76373 32388 81504 10286 20048 38193 40025 56008 81260 92345 333 10348 20120 30/// 50080 56660 59004 70000 81820 87360;","Q01  00002PRCP06"
"76373099999","2005-06-23T03:00:00","4","25.35","-105.75","1967.0","TEPEHUANES DGO., MX","FM-12","99999","V020","300,1,N,0030,1","03000,1,9,N","070000,1,N,1","+0212,1","+0104,1","10039,1","06,0000,9,1",,,,,"08,1,+03000,1,03,1",,,"08,99,1,08,1,00,1,01250,1,06,1,00,1",,"01,9",,,,"99999,9,08212,1","6,1,019,1,+007,1",,,"SYN100AAXX  23031 76373 32688 83003 10212 20104 38212 40039 56019 88060 90250 333 30/// 56060 58007 88360;","Q01  00002PRCP06"
"76373099999","2005-06-23T12:00:00","4","25.35","-105.75","1967.0","TEPEHUANES DGO., MX","FM-12","99999","V020","999,9,C,0000,1","22000,1,9,N","030000,1,N,1","+0130,1","+0089,1","10120,1","06,0000,9,1","24,0000,9,1",,,,"02,1,+03000,1,08,1",,,"02,99,1,02,1,00,1,01250,1,08,1,00,1",,"01,9","999,+0097,1","120,N,+0124,1","240,M,+0348,1","99999,9,08222,1","9,9,999,9,-005,1",,,"SYN118AAXX  23121 76373 32680 20000 10130 20089 38222 40120 5//// 82080 91145 333 10348 20124 30097 56060 59005 70000 82860;","Q01  00002PRCP06"
"76373099999","2005-06-23T15:00:00","4","25.35","-105.75","1967.0","TEPEHUANES DGO., MX","FM-12","99999","V020","270,1,N,0020,1","22000,1,9,N","070000,1,N,1","+0186,1","+0106,1","10148,1","06,0000,9,1",,,,,"03,1,+03000,1,03,1",,,"03,99,1,03,1,00,1,01250,1,03,1,00,1",,"01,9",,,,"99999,9,08228,1","2,1,006,1,-005,1",,,"SYN100AAXX  23151 76373 32688 32702 10186 20106 38228 40148 52006 83030 91445 333 30/// 56060 59005 83360;","Q01  00002PRCP06"
"76373099999","2005-06-23T18:00:00","4","25.35","-105.75","1967.0","TEPEHUANES DGO., MX","FM-12","99999","V020","090,1,N,0020,1","22000,1,9,N","070000,1,N,1","+0290,1","+0060,1","10113,1","06,0000,9,1",,,,,"02,1,+00300,1,08,1","01,1,+03000,1,03,1",,"04,99,1,02,1,01,1,00450,1,03,1,02,1",,"01,9",,"120,M,+0316,1","240,N,+0118,1","99999,9,08218,1","6,1,010,1,-006,1",,,"SYN124AAXX  23181 76373 32488 40902 10290 20060 38218 40113 56010 82132 91750 333 10316 20118 30/// 56666 59006 82810 81360 81070;","Q01  00002PRCP06"
"76373099999","2005-06-23T21:00:00","4","25.35","-105.75","1967.0","TEPEHUANES DGO., MX","FM-12","99999","V020","320,1,N,0030,1","03600,1,C,N","070000,1,N,1","+0306,1","+0039,1","10065,1","06,0000,9,1",,,,,"03,1,+00300,1,02,1",,,"05,99,1,03,1,02,1,00450,1,02,1,00,1",,"01,9",,,,"99999,9,08195,1","7,1,023,1,-005,1",,,"SYN106AAXX  23211 76373 32488 53203 10306 20039 38195 40065 57023 83220 92045 333 30/// 56660 59005 83210 82460;","Q01  00002PRCP06"
"76373099999","2005-06-24T06:00:00","4","25.35","-105.75","1967.0","TEPEHUANES DGO., MX","FM-12","99999","V020","999,9,C,0000,1","22000,1,9,N","010000,1,N,1","+0200,1","+0103,1","10053,1","06,0000,9,1",,,,,,,,"04,99,1,04,1,00,1,01250,1,03,1,00,1",,"01,9",,"240,M,+0348,1","240,N,+0158,1","99999,9,08217,1","2,1,027,1,-009,1",,,"SYN113AAXX  24061 76373 32660 40000 10200 20103 38217 40053 52027 84030 90545 333 10348 20158 30/// 560.60 59009 84360;","Q01  00002PRCP06"
"76373099999","2005-06-24T12:00:00","4","25.35","-105.75","1967.0","TEPEHUANES DGO., MX","FM-12","99999","V020","999,9,C,0000,1","22000,1,9,N","030000,1,N,1","+0130,1","+0093,1","10095,1","06,0000,9,1","24,0000,9,1",,,,"00,1,+99999,9,99,9",,,"00,99,1,00,1,00,1,99999,9,00,1,00,1",,"01,9","999,+0102,1","120,N,+0120,1","240,M,+0348,1","99999,9,08210,1","9,9,999,9,-012,1",,,"SYN100AAXX  24121 76373 32980 00000 10130 20093 38210 40095 5//// 91150 333 10348 20120 30102 59012 70000;","Q01  00002PRCP06Q02  00002PRCP24"
"76373099999","2005-06-24T15:00:00","4","25.35","-105.75","1967.0","TEPEHUANES DGO., MX","FM-12","99999","V020","300,1,N,0010,1","22000,1,9,N","070000,1,N,1","+0190,1","+0100,1","10118,1","06,0000,9,1",,,,,"00,1,+99999,9,99,9",,,"00,99,1,00,1,00,1,99999,9,00,1,00,1",,"01,9",,,,"99999,9,08215,1","1,1,005,1,-013,1",,,"SYN082AAXX  24151 76373 32988 03001 10190 20100 38215 40118 51005 91440 333 30/// 59013;","Q01  00002PRCP06"
"76373099999","2005-06-24T18:00:00","4","25.35","-105.75","1967.0","TEPEHUANES DGO., MX","FM-12","99999","V020","120,1,N,0020,1","22000,1,9,N","070000,1,N,1","+0308,1","+0084,1","10097,1","06,0000,9,1",,,,,"02,1,+00300,1,08,1",,,"02,99,1,02,1,01,1,00450,1,00,1,00,1",,"01,9",,"120,M,+0328,1","240,N,+0114,1","99999,9,08211,1","7,1,004,1,-007,1",,,"SYN112AAXX  24181 76373 32488 21202 10308 20084 38211 40097 57004 82100 91750 333 10328 20114 30/// 56200 59007 82810;","Q01  00002PRCP06"
"76373099999","2005-06-24T21:00:00","4","25.35","-105.75","1967.0","TEPEHUANES DGO., MX","FM-12","99999","V020","060,1,N,0020,1","22000,1,9,N","070000,1,N,1","+0322,1","+0017,1","10044,1","06,0000,9,1",,,,,"03,1,+00300,1,08,1",,,"03,99,1,03,1,02,1,00450,1,00,1,00,1",,"01,9",,,,"99999,9,08184,1","6,1,027,1,-011,1",,,"SYN100AAXX  24211 76373 32488 30602 10322 20017 38184 40044 56027 83200 92045 333 30/// 56200 59011 83810;","Q01  00002PRCP06"
"76373099999","2005-06-25T15:00:00","4","25.35","-105.75","1967.0","TEPEHUANES DGO., MX","FM-12","99999","V020","999,9,C,0000,1","22000,1,9,N","070000,1,N,1","+0198,1","+0074,1","10104,1","06,0000,9,1",,,,,"00,1,+99999,9,99,9",,,"00,99,1,00,1,00,1,99999,9,00,1,00,1",,"01,9",,,,"99999,9,08206,1","2,1,008,1,-009,1",,,"SYN082AAXX  25151 76373 32988 00000 10198 20074 38206 40104 52008 91445 333 30/// 59009;","Q01  00002PRCP06"
"76373099999","2005-06-25T21:00:00","4","25.35","-105.75","1967.0","TEPEHUANES DGO., MX","FM-12","99999","V020","070,1,N,0020,1","22000,1,9,N","070000,1,N,1","+0320,1","+0015,1","10046,1","06,0000,9,1",,,,,"01,1,+00600,1,08,1",,,"01,99,1,01,1,01,1,00800,1,00,1,00,1",,"01,9",,,,"99999,9,08180,1","7,1,012,1,-004,1",,,"SYN100AAXX  25211 76373 32588 10702 10320 20015 38180 40046 57012 81100 92045 333 30/// 56200 59004 81820;","Q01  00002PRCP06"
"76373099999","2005-06-26T00:00:00","4","25.35","-105.75","1967.0","TEPEHUANES DGO., MX","FM-12","99999","V020","070,1,N,0040,1","22000,1,9,N","070000,1,N,1","+0322,1","+0003,1","10009,1","06,0000,9,1","24,0000,9,1",,,,,,,"01,99,1,01,1,01,1,01250,1,00,1,00,1",,"01,9",,"120,M,+0353,1","180,N,+0105,1","99999,9,08174,1","7,1,006,1,+006,1",,,"SYN124AAXX  26001 76373 32688 10704 10322 20003 38174 40009 57006 81100 92340 333 10353 20105 30/// 50690 56200 58006 70000 81820;","Q01  00002PRCP06"
"76373099999","2005-06-26T06:00:00","4","25.35","-105.75","1967.0","TEPEHUANES DGO., MX","FM-12","99999","V020","999,9,C,0000,1","22000,1,9,N","010000,1,N,1","+0194,1","+0026,1","10012,1","06,0000,9,1",,,,,"00,1,+99999,9,99,9",,,"00,99,1,00,1,00,1,99999,9,00,1,00,1","0750,9","01,9",,"240,M,+0353,1","240,N,+0105,1","99999,9,08199,1","2,1,020,1,+999,9",,,"SYN100AAXX  26061 76373 32960 00000 10194 20026 38199 40012 52020 90555 333 10353 20105 30/// 55125 58///;","Q01  00002PRCP06"
"76373099999","2005-06-26T12:00:00","4","25.35","-105.75","1967.0","TEPEHUANES DGO., MX","FM-12","99999","V020","999,9,C,0000,1","22000,1,9,N","030000,1,N,1","+0120,1","+0024,1","10065,1","06,0000,9,1","24,0000,9,1",,,,"00,1,+99999,9,99,9",,,"00,99,1,00,1,00,1,99999,9,00,1,00,1",,"01,9","999,+0072,1","120,N,+0110,1","240,M,+0353,1","99999,9,08201,1","9,9,999,9,+003,1",,,"SYN100AAXX  26121 76373 32980 00000 10120 20024 38201 40065 5//// 91155 333 10353 20110 30072 58003 70000;","Q01  00002PRCP06Q02  00002PRCP24"
"76373099999","2005-06-26T15:00:00","4","25.35","-105.75","1967.0","TEPEHUANES DGO., MX","FM-12","99999","V020","999,9,C,0000,1","22000,1,9,N","070000,1,N,1","+0202,1","+0033,1","10104,1","06,0000,9,1",,,,,"00,1,+99999,9,99,9",,,"00,99,1,00,1,00,1,99999,9,00,1,00,1",,"01,9",,,,"99999,9,08208,1","2,1,007,1,+002,1",,,"SYN082AAXX  26151 76373 32988 00000 10202 20033 38208 40104 52007 91445 333 30/// 58002;","Q01  00002PRCP06"
"76373099999","2005-06-26T18:00:00","4","25.35","-105.75","1967.0","TEPEHUANES DGO., MX","FM-12","99999","V020","090,1,N,0030,1","22000,1,9,N","070000,1,N,1","+0290,1","+0039,1","10093,1","06,0000,9,1",,,,,"00,1,+99999,9,99,9",,,"00,99,1,00,1,00,1,99999,9,00,1,00,1",,"01,9",,"120,M,+0320,1","240,N,+0100,1","99999,9,08199,1","0,1,009,1,+007,1",,,"SYN094AAXX  26181 76373 32988 00903 10290 20039 38199 40093 50009 91745 333 10320 20100 30/// 58007;","Q01  00002PRCP06"
"76373099999","2005-06-26T21:00:00","4","25.35","-105.75","1967.0","TEPEHUANES DGO., MX","FM-12","99999","V020","070,1,N,0040,1","22000,1,9,N","070000,1,N,1","+0324,1","+0034,1","10055,1","06,0000,9,1",,,,,,,,"01,99,1,01,1,01,1,00800,1,00,1,00,1",,"01,9",,,,"99999,9,08187,1","7,1,012,1,+007,1",,,"SYN100AAXX  26211 76373 32588 10704 10324 20034 38187 40055 57012 81100 82040 333 30/// 56200 58007 81820;","Q01  00002PRCP06"
"76373099999","2005-06-27T00:00:00","4","25.35","-105.75","1967.0","TEPEHUANES DGO., MX","FM-12","99999","V020","030,1,N,0050,1","22000,1,9,N","070000,1,N,1","+0318,1","+0063,1","10012,1","06,0000,9,1","24,0000,9,1",,,,"01,1,+00600,1,08,1",,,"02,99,1,01,1,01,1,00800,1,00,1,01,1",,"01,9",,"120,M,+0362,1","180,N,+0100,1","99999,9,08176,1","7,1,011,1,+002,1",,,"SYN130AAXX  27001 76373 32588 20305 10318 20063 38176 40012 57011 81101 92340 333 10362 20100 30/// 50790 56202 58002 70000 81820 81070;","Q01  00002PRCP06"
"76373099999","2005-06-27T03:00:00","4","25.35","-105.75","1967.0","TEPEHUANES DGO., MX","FM-12","99999","V020","130,1,N,0010,1","22000,1,9,N","010000,1,N,1","+0254,1","+0011,1","09993,1","06,0000,9,1",,,,,"01,1,+06000,1,00,1",,,"01,99,1,00,1,00,1,99999,9,00,1,01,1",,"01,9",,,,"99999,9,08184,1","2,1,008,1,+005,1",,,"SYN100AAXX  27031 76373 32960 11301 10254 20011 38184 49993 52008 80001 90245 333 30/// 56002 58005 81070;","Q01  00002PRCP06"
"76373099999","2005-06-27T12:00:00","4","25.35","-105.75","1967.0","TEPEHUANES DGO., MX","FM-12","99999","V020","999,9,C,0000,1","22000,1,9,N","030000,1,N,1","+0120,1","+0029,1","10072,1","06,0000,9,1","24,0000,9,1",,,,"00,1,+99999,9,99,9",,,"00,99,1,00,1,00,1,99999,9,00,1,00,1",,"01,9","999,+0075,1","120,N,+0112,1","240,M,+0362,1","99999,9,08206,1","9,9,999,9,+005,1",,,"SYN100AAXX  27121 76373 32980 00000 10120 20029 38206 40072 5//// 91140 333 10362 20112 30075 58005 70000;","Q01  00002PRCP06Q02  00002PRCP24"
"76373099999","2005-06-27T18:00:00","4","25.35","-105.75","1967.0","TEPEHUANES DGO., MX","FM-12","99999","V020","150,1,N,0050,1","22000,1,9,N","070000,1,N,1","+0302,2","+0049,1","10232,2","06,0000,9,1",,,,,"00,1,+99999,9,99,9",,,"00,99,1,00,1,00,1,99999,9,00,1,00,1",,"01,9",,"120,M,+0322,1","240,N,+0105,1","99999,9,08204,1","6,1,015,1,+005,1",,,"SYN094AAXX  27181 76373 32988 01505 10302 20049 38204 40232 56015 91750 333 10322 20105 30/// 58005;","Q01  00002PRCP06"
"76373099999","2005-06-28T12:00:00","4","25.35","-105.75","1967.0","TEPEHUANES DGO., MX","FM-12","99999","V020","240,1,N,0010,1","22000,1,9,N","030000,1,N,1","+0142,1","+0053,1","10069,1","06,0000,9,1","24,0000,9,1",,,,"00,1,+99999,9,99,9",,,"00,99,1,00,1,00,1,99999,9,00,1,00,1",,"01,9","999,+0095,1","120,N,+0134,1","240,M,+0360,1","99999,9,08204,1","9,9,999,9,-002,1",,,"SYN100AAXX  28121 76373 32980 02401 10142 20053 38204 40069 5//// 91150 333 10360 20134 30095 59002 70000;","Q01  00002PRCP06Q02  00002PRCP24"
"76373099999","2005-06-28T18:00:00","4","25.35","-105.75","1967.0","TEPEHUANES DGO., MX","FM-12","99999","V020","110,1,N,0020,1","22000,1,9,N","070000,1,N,1","+0304,1","+0053,1","10074,1","06,0000,9,1",,,,,"01,1,+00300,1,08,1",,,"01,99,1,01,1,01,1,00450,1,00,1,00,1",,"01,9",,"120,M,+0326,1","240,N,+0122,1","99999,9,08198,1","6,1,013,1,-006,1",,,"SYN112AAXX  28181 76373 32488 11102 10304 20053 38198 40074 56013 81100 91750 333 10326 20122 30/// 56200 59006 81810;","Q01  00002PRCP06"
"76373099999","2005-06-28T21:00:00","4","25.35","-105.75","1967.0","TEPEHUANES DGO., MX","FM-12","99999","V020","090,1,N,0040,1","22000,1,9,N","070000,1,N,1","+0314,1","+0050,1","10039,1","06,0000,9,1",,,,,"03,1,+00300,1,08,1",,,"03,99,1,03,1,01,1,00450,1,00,1,00,1",,"01,9",,,,"99999,9,08184,1","6,1,014,1,-008,1",,,"SYN100AAXX  28211 76373 32488 30904 10314 20050 38184 40039 56014 83100 92048 333 30/// 56200 59008 83810;","Q01  00002PRCP06"
"76373099999","2005-06-29T12:00:00","4","25.35","-105.75","1967.0","TEPEHUANES DGO., MX","FM-12","99999","V020","280,1,N,0010,1","22000,1,9,N","030000,1,N,1","+0128,1","+0029,1","10067,1","06,0000,9,1","24,0000,9,1",,,,"00,1,+99999,9,99,9",,,"00,99,1,00,1,00,1,99999,9,00,1,00,1",,"01,9","999,+0078,1","120,N,+0120,1","240,M,+0352,1","99999,9,08195,1","9,9,999,9,-009,1",,,"SYN100AAXX  29121 76373 32980 02801 10128 20029 38195 40067 5//// 91150 333 10352 20120 30078 59009 70000;","Q01  00002PRCP06Q02  00002PRCP24"
"76373099999","2005-06-29T21:00:00","4","25.35","-105.75","1967.0","TEPEHUANES DGO., MX","FM-12","99999","V020","090,1,N,0040,1","22000,1,9,N","070000,1,N,1","+0338,1","+0011,1","10032,1","06,0000,9,1",,,,,"00,1,+99999,9,99,9",,,"00,99,1,00,1,00,1,99999,9,00,1,00,1",,"01,9",,,,"99999,9,08177,1","5,1,017,1,-007,1",,,"SYN082AAXX  29211 76373 32388 00904 10338 20011 38177 40032 55017 92050 333 30/// 59007;","Q01  00002PRCP06"
"76373099999","2005-06-30T03:00:00","4","25.35","-105.75","1967.0","TEPEHUANES DGO., MX","FM-12","99999","V020","060,1,N,0020,1","22000,1,9,N","010000,1,N,1","+0268,1","-0009,1","09977,1","06,0000,9,1",,,,,"00,1,+99999,9,99,9",,,"00,99,1,00,1,00,1,99999,9,00,1,00,1",,"01,9",,,,"99999,9,08176,1",,,,"SYN082AAXX  30031 76373 32960 00602 10268 21009 38176 49977 5//// 90240 333 30/// 58///;","Q01  00002PRCP06"
"76373099999","2005-06-30T15:00:00","4","25.35","-105.75","1967.0","TEPEHUANES DGO., MX","FM-12","99999","V020","320,1,N,0010,1","09000,1,C,N","070000,1,N,1","+0192,1","+0043,1","10106,1","06,0000,9,1",,,,,"02,1,+03000,1,03,1",,,"05,99,1,02,1,00,1,01250,1,08,1,02,1",,"01,9",,,,"99999,9,08208,1","1,1,009,1,+003,1",,,"SYN106AAXX  30151 76373 32688 53201 10192 20043 38208 40106 51009 82082 91450 333 30/// 56066 58003 82360 83870;","Q01  00002PRCP06"
"76373099999","2005-06-30T18:00:00","4","25.35","-105.75","1967.0","TEPEHUANES DGO., MX","FM-12","99999","V020","120,1,N,0020,1","06000,1,9,N","070000,1,N,1","+0288,1","+0066,1","10083,1","06,0000,9,1",,,,,"08,1,+06000,1,02,1",,,"08,99,1,00,1,00,1,99999,9,00,1,08,1",,"01,9",,"120,M,+0330,1","240,N,+0120,1","99999,9,08199,1","6,1,009,1,+005,1",,,"SYN112AAXX  30181 76373 32988 81202 10288 20066 38199 40083 56009 80008 91748 333 10330 20120 30/// 56006 58005 88270;","Q01  00002PRCP06"
"76373099999","2005-06-30T21:00:00","4","25.35","-105.75","1967.0","TEPEHUANES DGO., MX","FM-12","99999","V020","140,1,N,0030,1","09000,1,9,N","070000,1,N,1","+0340,1","+0036,1","10037,1","06,0000,9,1",,,,,"01,1,+00300,1,08,1","01,1,+03000,1,03,1",,"06,99,1,01,1,02,1,00450,1,03,1,04,1",,"01,9",,,,"99999,9,08181,1","6,1,018,1,+004,1",,,"SYN112AAXX  30211 76373 32488 61403 10340 20036 38181 40037 56018 81234 92045 333 30/// 56666 58004 81810 81360 94070;","Q01  00002PRCP06"
"76373099999","2005-07-01T00:00:00","4","25.35","-105.75","1967.0","TEPEHUANES DGO., MX","FM-12","99999","V020","090,1,N,0020,1","03000,1,C,N","070000,1,N,1","+0328,1","+0036,1","99999,9","06,0000,9,1","24,0000,9,1",,,,"03,1,+00300,1,09,1","03,1,+03000,1,03,1",,"07,99,1,04,1,03,1,00450,1,08,1,02,1",,"01,9",,"120,M,+0372,1","180,N,+0120,1","99999,9,08165,1","6,1,022,1,+999,9","3,0982,9",,"SYN136AAXX  01001 76373 32488 70902 10328 20036 38165 48982 56022 84382 92350 333 10372 20120 30/// 50690 56666 58/// 70000 83910 83360 81070;","Q01  00002PRCP06"
"76373099999","2005-07-01T03:00:00","4","25.35","-105.75","1967.0","TEPEHUANES DGO., MX","FM-12","99999","V020","210,1,N,0030,1","00600,1,9,N","010000,1,N,1","+0268,1","+0007,1","09988,1","06,0000,9,1",,,,,"06,1,+00600,1,09,1",,,"08,99,1,06,1,03,1,00250,1,03,1,00,1",,"01,9",,,,"99999,9,08186,1","2,1,015,1,+010,1",,,"SYN106AAXX  01031 76373 32360 82103 10268 20007 38186 49988 52015 86330 90250 333 30/// 56660 58010 86920 82360;","Q01  00002PRCP06"
"76373099999","2005-07-01T12:00:00","4","25.35","-105.75","1967.0","TEPEHUANES DGO., MX","FM-12","99999","V020","999,9,C,0000,1","06000,1,9,N","030000,1,N,1","+0184,1","+0128,1","10062,1","06,0000,9,1","24,0000,9,1",,,,"06,1,+06000,1,02,1",,,"06,99,1,00,1,00,1,99999,9,00,1,08,1",,"01,9","999,+0135,1","120,N,+0166,1","240,M,+0372,1","99999,9,08205,1","9,9,999,9,+006,1",,,"SYN118AAXX  01121 76373 32980 60000 10184 20128 38205 40062 5//// 80008 91150 333 10372 20166 30135 56006 58006 70000 86270;","Q01  00002PRCP06"
"76373099999","2005-07-01T15:00:00","4","25.35","-105.75","1967.0","TEPEHUANES DGO., MX","FM-12","99999","V020","270,1,N,0030,1","06000,1,9,N","070000,1,N,1","+0232,1","+0128,1","10086,1","06,0000,9,1",,,,,"06,1,+06000,1,02,1",,,"06,99,1,00,1,00,1,99999,9,00,1,08,1",,"01,9",,,,"99999,9,08211,1","1,1,006,1,+003,1",,,"SYN094AAXX  01151 76373 32988 62703 10232 20128 38211 40086 51006 80008 91442 333 30/// 58003 86270;","Q01  00002PRCP06"
"76373099999","2005-07-01T18:00:00","4","25.35","-105.75","1967.0","TEPEHUANES DGO., MX","FM-12","99999","V020","110,1,N,0030,1","09000,1,C,N","070000,1,N,1","+0306,1","+0115,1","10060,1","06,0000,9,1",,,,,"02,1,+00300,1,08,1",,,"05,99,1,02,1,02,1,00450,1,00,1,02,1",,"01,9",,"120,M,+0328,1","240,N,+0165,1","99999,9,08119,2","6,1,012,1,+000,1",,,"SYN118AAXX  01181 76373 32488 51103 10306 20115 38119 40060 56012 82202 91750 333 10328 20165 30/// 56202 58000 82810 83070;","Q01  00002PRCP06"
"76373099999","2005-07-01T21:00:00","4","25.35","-105.75","1967.0","TEPEHUANES DGO., MX","FM-12","99999","V020","150,1,N,0010,1","00300,1,9,N","070000,1,N,1","+0326,1","+0062,1","10016,1","06,0000,9,1",,,,,"06,1,+00300,1,09,1",,,"08,99,1,06,1,03,1,00450,1,04,1,00,1",,"01,9",,,,"99999,9,08176,1","7,1,023,1,-005,1",,,"SYN106AAXX  01211 76373 32488 81501 10326 20062 38176 40016 57023 86340 92048 333 30/// 56220 59005 86910 82360;","Q01  00002PRCP06"
"76373099999","2005-07-02T00:00:00","4","25.35","-105.75","1967.0","TEPEHUANES DGO., MX","FM-12","99999","V020","040,1,N,0040,1","00300,1,C,N","070000,1,N,1","+0322,1","+0070,1","09970,1","06,0000,9,1","24,0000,9,1",,,,"06,1,+00300,1,06,1",,,"08,99,1,06,1,06,1,00450,1,03,1,00,1",,"01,9",,"120,M,+0362,1","180,N,+0165,1","99999,9,08160,1","6,1,016,1,-005,1",,,"SYN130AAXX  02001 76373 32488 80404 10322 20070 38160 49970 56016 86630 92350 333 10362 20165 30/// 50490 56220 59005 70000 86610 82370;","Q01  00002PRCP06"
"76373099999","2005-07-02T03:00:00","4","25.35","-105.75","1967.0","TEPEHUANES DGO., MX","FM-12","99999","V020","280,1,N,0010,1","00600,1,9,N","010000,1,N,1","+0184,2","+0157,1","10009,1","03,0060,9,1",,,"5,1,03,1","6,1,03,1","08,1,+00600,1,09,1",,,"08,99,1,08,1,09,1,00150,1,00,1,00,1",,"11,9",,,,"99999,9,08201,1","2,1,041,1,+015,1",,"20,1","SYN118AAXX  02031 76373 01260 82801 10184 20157 38201 40009 52041 60067 72056 88900 90248 333 32/// 56200 58015 60067 88920;",
"76373099999","2005-07-02T15:00:00","4","25.35","-105.75","1967.0","TEPEHUANES DGO., MX","FM-12","99999","V020","290,1,N,0020,1","09000,1,C,N","070000,1,N,1","+0186,1","+0153,1","10118,1","12,0010,9,1",,,,,"02,1,+03000,1,03,1",,,"08,99,1,02,1,00,1,01250,1,03,1,08,1",,"09,9",,,,"99999,9,08221,1","9,9,999,9,+010,1",,,"SYN118AAXX  02151 76373 02688 82902 10186 20153 38221 40118 5//// 60012 82038 91450 333 31/// 56066 58010 60012 82360 86270;",
"76373099999","2005-07-02T21:00:00","4","25.35","-105.75","1967.0","TEPEHUANES DGO., MX","FM-12","99999","V020","150,1,N,0060,1","03600,1,C,N","070000,1,N,1","+0316,1","+0102,1","10046,1","06,0000,9,1",,,,,"02,1,+00300,1,08,1","01,1,+03000,1,03,1",,"07,99,1,02,1,01,1,00450,1,03,1,04,1",,"01,9",,,,"99999,9,10190,2","6,1,020,1,+014,1",,,"SYN112AAXX  02211 76373 32488 71506 10316 20102 30190 40046 56020 82134 92047 333 30/// 56222 58014 82810 81360 84070;","Q01  00002PRCP06"
"76373099999","2005-07-03T21:00:00","4","25.35","-105.75","1967.0","TEPEHUANES DGO., MX","FM-12","99999","V020","120,1,N,0040,1","22000,1,9,N","070000,1,N,1","+0340,1","+0043,1","10051,1","06,0000,9,1",,,,,"01,1,+00600,1,09,1","01,1,+00600,1,06,1",,"03,99,1,03,1,09,1,00800,1,00,1,00,1",,"01,9",,,,"99999,9,08194,1","7,1,025,1,+004,1",,,"SYN112AAXX  03211 76373 32588 31204 10340 20043 38194 40051 57025 83900 92040 333 30/// 56200 58004 81920 81620 81820;","Q01  00002PRCP06"
"76373099999","2005-07-04T03:00:00","4","25.35","-105.75","1967.0","TEPEHUANES DGO., MX","FM-12","99999","V020","270,1,N,0010,1","22000,1,9,N","010000,1,N,1","+0240,1","+0077,1","10007,1","06,0000,9,1",,,,,"01,1,+02100,1,03,1",,,"02,99,1,01,1,00,1,01750,1,03,1,01,1",,"01,9",,,,"99999,9,08194,1","5,1,001,1,+999,9",,,"SYN106AAXX  04031 76373 32760 22701 10240 20077 38194 40007 55001 81031 90240 333 30/// 56099 58/// 81357 81070;","Q01  00002PRCP06"
"76373099999","2005-07-04T06:00:00","4","25.35","-105.75","1967.0","TEPEHUANES DGO., MX","FM-12","99999","V020","999,9,C,0000,1","22000,1,9,N","010000,1,N,1","+0186,1","+0096,1","10042,1","06,0000,9,1",,,,,"00,1,+99999,9,99,9",,,"00,99,1,00,1,00,1,99999,9,00,1,00,1","0558,9","01,9",,"240,M,+0370,1","240,N,+0150,1","99999,9,08215,1","2,1,021,1,+999,9",,,"SYN100AAXX  04061 76373 32960 00000 10186 20096 38215 40042 52021 90540 333 10370 20150 30/// 55093 58///;","Q01  00002PRCP06"
"76373099999","2005-07-04T15:00:00","4","25.35","-105.75","1967.0","TEPEHUANES DGO., MX","FM-12","99999","V020","250,1,N,0020,1","22000,1,9,N","070000,1,N,1","+0204,1","+0114,1","10120,1","06,0000,9,1",,,,,"00,1,+99999,9,99,9",,,"00,99,1,00,1,00,1,99999,9,00,1,00,1",,"01,9",,,,"99999,9,08220,1","2,1,006,1,+006,1",,,"SYN082AAXX  04151 76373 32988 02502 10204 20114 38220 40120 52006 91440 333 30/// 58006;","Q01  00002PRCP06"
"76373099999","2005-07-05T00:00:00","4","25.35","-105.75","1967.0","TEPEHUANES DGO., MX","FM-12","99999","V020","080,1,N,0050,1","00600,1,C,N","070000,1,N,1","+0320,1","+0012,1","10005,1","06,0000,9,1","24,0000,9,1",,,,"05,1,+00600,1,08,1","05,1,+00600,1,08,1","02,1,+03000,1,03,1","08,99,1,05,1,02,1,00250,1,03,1,04,1",,"01,9",,"120,M,+0382,1","180,N,+0118,1","99999,9,08184,1","6,1,016,1,-009,1",,,"SYN142AAXX  05001 76373 32388 80805 10320 20012 38184 40005 56016 85234 92350 333 10382 20118 30/// 50930 56222 59009 70000 85820 85820 82360 81080;","Q01  00002PRCP06"
"76373099999","2005-07-05T15:00:00","4","25.35","-105.75","1967.0","TEPEHUANES DGO., MX","FM-12","99999","V020","030,1,N,0010,1","22000,1,9,N","070000,1,N,1","+0206,1","+0063,1","10109,1","06,0000,9,1",,,,,"02,1,+03000,1,03,1",,,"02,99,1,02,1,00,1,01250,1,03,1,00,1",,"01,9",,,,"99999,9,08223,1","9,9,999,9,+003,1",,,"SYN100AAXX  05151 76373 32688 20301 10206 20063 38223 40109 5//// 82030 91750 333 30/// 56020 58003 82360;","Q01  00002PRCP06"
"76373099999","2005-07-06T15:00:00","4","25.35","-105.75","1967.0","TEPEHUANES DGO., MX","FM-12","99999","V020","330,1,N,0010,1","22000,1,9,N","070000,1,N,1","+0206,1","+0053,1","10099,1","06,0000,9,1",,,,,"00,1,+99999,9,99,9",,,"00,99,1,00,1,00,1,99999,9,00,1,00,1",,"01,9",,,,"99999,9,08226,1","9,9,999,9,+003,1",,,"SYN082AAXX  06151 76373 32988 03301 10206 20053 38226 40099 5//// 91450 333 30/// 58003;","Q01  00002PRCP06"
"76373099999","2005-07-06T18:00:00","4","25.35","-105.75","1967.0","TEPEHUANES DGO., MX","FM-12","99999","V020","120,1,N,0020,1","22000,1,9,N","070000,1,N,1","+0306,1","+0076,1","10081,1","06,0000,9,1",,,,,"02,1,+00300,1,08,1",,,"02,99,1,02,1,01,1,00450,1,00,1,00,1",,"01,9",,"120,M,+0330,1","240,N,+0124,1","99999,9,08217,1","6,1,009,1,+000,1",,,"SYN112AAXX  06181 76373 32488 21202 10306 20076 38217 40081 56009 82100 91750 333 10330 20124 30/// 56200 58000 82810;","Q01  00002PRCP06"
"76373099999","2005-07-06T21:00:00","4","25.35","-105.75","1967.0","TEPEHUANES DGO., MX","FM-12","99999","V020","090,1,N,0050,1","22000,1,9,N","070000,1,N,1","+0332,1","+0050,1","10053,1","06,0000,9,1",,,,,"03,1,+00300,1,08,1",,,"03,99,1,03,1,02,1,00450,1,00,1,00,1",,"01,9",,,,"99999,9,08202,1","6,1,015,1,+000,1",,,"SYN100AAXX  06211 76373 32488 30905 10332 20050 38202 40053 56015 83200 92050 333 30/// 56200 58000 83810;","Q01  00002PRCP06"
"76373099999","2005-07-07T00:00:00","4","25.35","-105.75","1967.0","TEPEHUANES DGO., MX","FM-12","99999","V020","300,1,N,0050,1","00210,1,9,N","070000,1,N,1","+0308,1","+0039,1","10014,1","06,0000,9,1","24,0000,9,1",,,,,,,"05,99,1,05,1,02,1,00250,1,00,1,00,1",,"01,9",,"120,M,+0368,1","180,N,+0124,1","99999,9,08188,1","6,1,014,1,+001,1",,,"SYN124AAXX  07001 76373 32388 53005 10308 20039 38188 40014 56014 85200 92350 333 10368 20124 30/// 50740 56200 58001 70000 85820;","Q01  00002PRCP06"
"76373099999","2005-07-07T03:00:00","4","25.35","-105.75","1967.0","TEPEHUANES DGO., MX","FM-12","99999","V020","060,1,N,0010,1","22000,1,9,N","012000,1,N,1","+0276,1","+0017,1","10012,1","06,0000,9,1",,,,,"02,1,+03000,1,03,1",,,"02,99,1,02,1,00,1,01750,1,03,1,00,1",,"01,9",,,,"99999,9,08202,1","1,1,014,1,+000,1",,,"SYN100AAXX  07031 76373 32762 20601 10276 20017 38202 40012 51014 82030 90250 333 30/// 56020 58000 82360;","Q01  00002PRCP06"
"76373099999","2005-07-07T15:00:00","4","25.35","-105.75","1967.0","TEPEHUANES DGO., MX","FM-12","99999","V020","060,1,N,0010,1","22000,1,9,N","070000,1,N,1","+0202,1","+0079,1","10124,1","06,0000,9,1",,,,,"00,1,+99999,9,99,9",,,"00,99,1,00,1,00,1,99999,9,00,1,00,1",,"01,9",,,,"99999,9,08226,1","9,9,999,9,+000,1",,,"SYN082AAXX  07151 76373 32988 00601 10202 20079 38226 40124 5//// 91445 333 30/// 58000;","Q01  00002PRCP06"
"76373099999","2005-07-07T18:00:00","4","25.35","-105.75","1967.0","TEPEHUANES DGO., MX","FM-12","99999","V020","150,1,N,0040,1","22000,1,9,N","070000,1,N,1","+0308,1","+0032,1","10099,1","06,0000,9,1",,,,,"00,1,+99999,9,99,9",,,"00,99,1,00,1,00,1,99999,9,00,1,00,1",,"01,9",,"120,M,+0334,1","240,N,+0110,1","99999,9,08218,1","6,1,008,1,+001,1",,,"SYN094AAXX  07181 76373 32988 01504 10308 20032 38218 40099 56008 91750 333 10334 20110 30/// 58001;","Q01  00002PRCP06"
"76373099999","2005-07-08T03:00:00","4","25.35","-105.75","1967.0","TEPEHUANES DGO., MX","FM-12","99999","V020","150,1,N,0010,1","22000,1,9,N","012000,1,N,1","+0270,1","+0034,1","09998,1","06,0000,9,1",,,,,"02,1,+03000,1,03,1",,,"02,99,1,02,1,00,1,00250,1,03,1,00,1",,"01,9",,,,"99999,9,08195,1","1,1,011,1,-007,1",,,"SYN100AAXX  08031 76373 32362 21501 10270 20034 38195 49998 51011 82030 90250 333 30/// 56020 59007 82360;","Q01  00002PRCP06"
"76373099999","2005-07-08T15:00:00","4","25.35","-105.75","1967.0","TEPEHUANES DGO., MX","FM-12","99999","V020","300,1,N,0010,1","22000,1,9,N","070000,1,N,1","+0202,1","+0075,1","10111,1","06,0000,9,1",,,,,"00,1,+99999,9,99,9",,,"00,99,1,00,1,00,1,99999,9,00,1,00,1",,"01,9",,,,"99999,9,08225,1","9,9,999,9,-001,1",,,"SYN082AAXX  08151 76373 32988 03001 10202 20075 38225 40111 5//// 91448 333 30/// 59001;","Q01  00002PRCP06"
"76373099999","2005-07-08T18:00:00","4","25.35","-105.75","1967.0","TEPEHUANES DGO., MX","FM-12","99999","V020","120,1,N,0040,1","22000,1,9,N","070000,1,N,1","+0312,1","+0040,1","10088,1","06,0000,9,1",,,,,"01,1,+00300,1,08,1",,,"01,99,1,01,1,01,1,00450,1,00,1,00,1",,"01,9",,"120,M,+0338,1","240,N,+0120,1","99999,9,08215,1","6,1,010,1,-003,1",,,"SYN112AAXX  08181 76373 32488 11204 10312 20040 38215 40088 56010 81100 91748 333 10338 20120 30/// 56200 59003 81810;","Q01  00002PRCP06"
"76373099999","2005-07-08T21:00:00","4","25.35","-105.75","1967.0","TEPEHUANES DGO., MX","FM-12","99999","V020","060,1,N,0060,1","22000,1,9,N","070000,1,N,1","+0342,1","+0034,1","10037,1","06,0000,9,1",,,,,"04,1,+00300,1,08,1",,,"04,99,1,04,1,02,1,00450,1,00,1,00,1",,"01,9",,,,"99999,9,08195,1","6,1,020,1,-007,1",,,"SYN100AAXX  08211 76373 32488 40606 10342 20034 38195 40037 56020 84200 92045 333 30/// 56200 59007 84810;","Q01  00002PRCP06"
"76373099999","2005-07-09T00:00:00","4","25.35","-105.75","1967.0","TEPEHUANES DGO., MX","FM-12","99999","V020","060,1,N,0060,1","00300,1,C,N","070000,1,N,1","+0314,1","+0044,1","09998,1","06,0000,9,1","24,0000,9,1",,,,"02,1,+00300,1,09,1","03,1,+00300,1,08,1",,"06,99,1,03,1,02,1,00450,1,03,1,00,1",,"01,9",,"120,M,+0362,1","180,N,+0120,1","99999,9,08199,1","2,1,004,1,+015,1",,,"SYN136AAXX  09001 76373 32488 60606 10314 20044 38199 49998 52004 83230 92350 333 10362 20120 30/// 50800 56220 58015 70000 83810 82910 81360;","Q01  00002PRCP06"
"76373099999","2005-07-09T03:00:00","4","25.35","-105.75","1967.0","TEPEHUANES DGO., MX","FM-12","99999","V020","300,1,N,0010,1","22000,1,9,N","012000,1,N,1","+0264,1","+0080,1","09979,1","06,0000,9,1",,,,,"04,1,+03000,1,03,1",,,"04,99,1,04,1,00,1,01250,1,03,1,00,1",,"01,9",,,,"99999,9,08191,1","7,1,008,1,-014,1",,,"SYN100AAXX  09031 76373 32662 43001 10264 20080 38191 49979 57008 84030 90250 333 30/// 56020 59014 84360;","Q01  00002PRCP06"
"76373099999","2005-07-09T15:00:00","4","25.35","-105.75","1967.0","TEPEHUANES DGO., MX","FM-12","99999","V020","999,9,C,0000,1","22000,1,9,N","070000,1,N,1","+0196,1","+0115,1","10106,1","06,0000,9,1",,,,,"04,1,+03000,1,03,1",,,"04,99,1,04,1,00,1,01250,1,03,1,00,1",,"01,9",,,,"99999,9,08215,1","9,9,999,9,+010,1",,,"SYN100AAXX  09151 76373 32688 40000 10196 20115 38215 40106 5//// 84030 91445 333 30/// 56020 58010 84360;","Q01  00002PRCP06"
"76373099999","2005-07-09T18:00:00","4","25.35","-105.75","1967.0","TEPEHUANES DGO., MX","FM-12","99999","V020","120,1,N,0030,1","22000,1,9,N","070000,1,N,1","+0320,2","+0043,1","10067,1","06,0000,9,1",,,,,"02,1,+00600,1,09,1",,,"02,99,1,02,1,03,1,00250,1,00,1,00,1",,"01,9",,"120,M,+0332,1","240,N,+0150,1","99999,9,08195,1","6,1,020,1,-010,1",,,"SYN112AAXX  09181 76373 32388 21203 10320 20043 38195 40067 56020 82300 91740 333 10332 20150 30/// 56200 59010 82920;","Q01  00002PRCP06"
"76373099999","2005-07-10T21:00:00","4","25.35","-105.75","1967.0","TEPEHUANES DGO., MX","FM-12","99999","V020","090,1,N,0040,1","00600,1,9,N","070000,1,N,1","+0320,1","+0098,1","10042,1","06,0000,9,1",,,,,"05,1,+00600,1,09,1",,,"05,99,1,05,1,09,1,00250,1,00,1,00,1",,"01,9",,,,"99999,9,08194,1","6,1,012,1,+011,1",,,"SYN100AAXX  10211 76373 32388 50904 10320 20098 38194 40042 56012 85900 92045 333 30/// 56200 58011 85920;","Q01  00002PRCP06"
"76373099999","2005-07-11T00:00:00","4","25.35","-105.75","1967.0","TEPEHUANES DGO., MX","FM-12","99999","V020","300,1,N,0040,1","00300,1,C,N","070000,1,N,1","+0236,1","+0112,1","10014,1","06,0000,9,1","24,9999,9,9",,,,"07,1,+00300,1,06,1",,,"08,99,1,07,1,06,1,00450,1,03,1,00,1",,"01,9",,"120,M,+0362,1","180,N,+0165,1","99999,9,08180,1","6,1,014,1,+003,1",,,"SYN131AAXX  11001 76373 32488 83004 10236 20112 38180 40014 56014 87630 92350 333 10362 20165 30/// 50870 56220 58003 79999 87610 812360;","Q01  00002PRCP06Q02  99992PRCP24"
"76373099999","2005-07-11T03:00:00","4","25.35","-105.75","1967.0","TEPEHUANES DGO., MX","FM-12","99999","V020","300,1,N,0010,1","00300,1,9,N","012000,1,N,1","+0230,1","+0104,1","10028,1","02,0000,9,1",,,"5,1,03,1","0,1,03,1","08,1,+00300,1,06,1",,,"08,99,1,08,1,06,1,00450,1,00,1,00,1",,"01,9",,,,"99999,9,08197,1","2,1,017,1,+999,9",,"13,1","SYN112AAXX  11031 76373 11462 83001 10230 20104 38197 40028 52017 69906 71350 88600 90247 333 30/// 56200 58/// 88610;","Q01  00002PRCP02"
"76373099999","2005-07-11T18:00:00","4","25.35","-105.75","1967.0","TEPEHUANES DGO., MX","FM-12","99999","V020","090,1,N,0010,1","09000,1,C,N","070000,1,N,1","+0270,1","+0106,1","10074,1","06,0000,9,1",,,,,"01,1,+00300,1,09,1","01,1,+03000,1,03,1",,"05,99,1,01,1,03,1,00450,1,03,1,02,1",,"01,9",,"120,M,+0292,1","240,N,+0156,1","99999,9,08202,1","6,1,012,1,-004,1",,,"SYN124AAXX  11181 76373 32488 50901 10270 20106 38202 40074 56012 81332 91748 333 10292 20156 30/// 56222 59004 81910 81360 83070;","Q01  00002PRCP06"
"76373099999","2005-07-11T21:00:00","4","25.35","-105.75","1967.0","TEPEHUANES DGO., MX","FM-12","99999","V020","150,1,N,0030,1","00300,1,C,N","070000,1,N,1","+0300,1","+0102,1","10028,1","06,0000,9,1",,,,,"04,1,+00300,1,09,1","01,1,+00300,1,08,1","01,1,+03000,1,03,1","07,99,1,04,1,09,1,00450,1,03,1,02,1",,"01,9",,,,"99999,9,08182,1","6,1,020,1,-012,1",,,"SYN118AAXX  11211 76373 32488 71503 10300 20102 38182 40028 56020 84932 92048 333 30/// 56222 59012 84910 81810 81360 81070;","Q01  00002PRCP06"
"76373099999","2005-07-12T12:00:00","4","25.35","-105.75","1967.0","TEPEHUANES DGO., MX","FM-12","99999","V020","999,9,C,0000,1","03000,1,9,N","015000,1,N,1","+0156,1","+0143,1","10125,1","12,0050,9,1","24,0054,9,1",,,,"08,1,+03000,1,02,1",,,"08,99,1,08,1,00,1,99999,9,07,1,99,9",,"01,9","999,+0140,1","120,N,+0148,1","240,M,+0352,1","99999,9,08219,1",,,,"SYN130AAXX  12121 76373 02965 80000 10156 20143 38219 40125 5//// 60052 8807/ 91155 333 10352 20148 30140 5606/ 58/// 60052 70054 88260;",
"76373099999","2005-07-13T18:00:00","4","25.35","-105.75","1967.0","TEPEHUANES DGO., MX","FM-12","99999","V020","120,1,N,0040,1","00300,1,9,N","070000,1,N,1","+0258,1","+0158,1","10123,1","06,0000,9,1",,,,,"05,1,+00300,1,09,1",,,"06,99,1,05,1,03,1,00450,1,03,1,00,1",,"09,9",,"120,M,+0284,1","240,N,+0148,1","99999,9,08227,1","8,1,007,1,-009,1",,,"SYN118AAXX  13181 76373 32488 61204 10258 20158 38227 40123 58007 85330 91748 333 10284 20148 31/// 56220 59009 85910 82360;","Q01  00002PRCP06"
"76373099999","2005-07-14T03:00:00","4","25.35","-105.75","1967.0","TEPEHUANES DGO., MX","FM-12","99999","V020","340,1,N,0010,1","03000,1,9,N","010000,1,N,1","+0190,1","+0135,1","10058,1","06,0000,9,1",,,,,"02,1,+00600,1,09,1","04,1,+03000,1,03,1",,"08,99,1,02,1,09,1,00250,1,03,1,04,1",,"01,9",,,,"99999,9,08209,1","2,1,011,1,+999,9",,,"SYN112AAXX  14031 76373 32360 83401 10190 20135 38209 40058 52011 82934 90240 333 30/// 56222 58/// 82920 84360 82080;","Q01  00002PRCP06"
"76373099999","2005-07-14T12:00:00","4","25.35","-105.75","1967.0","TEPEHUANES DGO., MX","FM-12","99999","V020","999,9,C,0000,1","22000,1,9,N","020000,1,N,1","+0142,1","+0132,1","10118,1","06,0000,9,1","24,0000,9,1",,,,"03,1,+03000,1,03,1",,,"03,99,1,03,1,00,1,01250,1,04,1,00,1",,"01,9","999,+0120,1","120,N,+0138,1","240,M,+0320,1","99999,9,08216,1","9,9,999,9,-016,1",,,"SYN118AAXX  14121 76373 32670 30000 10142 20132 38216 40118 5//// 83040 91153 333 10320 20138 30120 56020 59016 79999 83360;","Q01  00002PRCP06Q02  00002PRCP24"
"76373099999","2005-07-14T15:00:00","4","25.35","-105.75","1967.0","TEPEHUANES DGO., MX","FM-12","99999","V020","300,1,N,0030,1","22000,1,9,N","070000,1,N,1","+0196,1","+0138,1","10127,1","06,0000,9,1",,,,,"02,1,+03000,1,03,1",,,"02,99,1,02,1,00,1,01250,1,03,1,00,1",,"01,9",,,,"99999,9,08219,1","0,1,003,1,-015,1",,,"SYN100AAXX  14151 76373 32688 23003 10196 20138 38219 40127 50003 82030 91447 333 30/// 56020 59015 82360;","Q01  00002PRCP06"
"76373099999","2005-07-14T18:00:00","4","25.35","-105.75","1967.0","TEPEHUANES DGO., MX","FM-12","99999","V020","120,1,N,0030,1","03000,1,9,N","070000,1,N,1","+0268,1","+0137,1","10109,1","06,0000,9,1",,,,,"02,1,+00300,1,09,1","04,1,+03000,1,03,1",,"07,99,1,02,1,03,1,00450,1,06,1,02,1",,"01,9",,"120,M,+0278,1","240,N,+0134,1","99999,9,08214,1","8,1,005,1,-013,1",,,"SYN124AAXX  14181 76373 32488 71203 10268 20137 38214 40109 58005 82362 91750 333 10278 20134 30/// 56222 59013 82910 84360 81070;","Q01  00002PRCP06"
"76373099999","2005-07-15T00:00:00","4","25.35","-105.75","1967.0","TEPEHUANES DGO., MX","FM-12","99999","V020","280,1,N,0060,1","03000,1,C,N","070000,1,N,1","+0272,1","+0134,1","10012,1","06,0000,9,1","24,0000,9,1",,,,"03,1,+00300,1,09,1","02,1,+03000,1,05,1",,"06,99,1,03,1,03,1,00450,1,02,1,01,1",,"01,9",,"120,M,+0342,1","180,N,+0134,1","99999,9,08174,1","6,1,012,1,-024,1",,,"SYN136AAXX  15001 76373 32488 62806 10272 20134 38174 40012 56012 83321 92350 333 10342 20134 30/// 50520 56222 59024 70000 83910 82560 81070;","Q01  00002PRCP06"
"76373099999","2005-07-15T12:00:00","4","25.35","-105.75","1967.0","TEPEHUANES DGO., MX","FM-12","99999","V020","260,1,N,0010,1","03000,1,9,N","020000,1,N,1","+0172,1","+0148,1","10093,1","12,0006,9,1","24,0006,9,1",,,,"08,1,+03000,1,03,1",,,"08,99,1,08,1,00,1,01250,1,07,1,00,1",,"01,9","999,+0165,1","120,N,+0166,1","240,M,+0344,1","99999,9,08207,1","9,9,999,9,-009,1",,,"SYN130AAXX  15121 76373 02670 82601 10172 20148 38207 40093 5//// 69962 88070 91145 333 10344 20166 30165 56020 59009 69962 70006 88360;",
"76373099999","2005-07-15T15:00:00","4","25.35","-105.75","1967.0","TEPEHUANES DGO., MX","FM-12","99999","V020","999,9,C,0000,1","03000,1,9,N","070000,1,N,1","+0188,1","+0155,1","10104,1","06,0000,9,1",,,,,"07,1,+03000,1,03,1",,,"07,99,1,07,1,00,1,00450,1,07,1,00,1",,"01,9",,,,"99999,9,08211,1","2,1,004,1,-008,1",,,"SYN100AAXX  15151 76373 32488 70000 10188 20155 38211 40104 52004 87070 91448 333 30/// 56020 59008 87360;","Q01  00002PRCP06"
"76373099999","2005-07-15T18:00:00","4","25.35","-105.75","1967.0","TEPEHUANES DGO., MX","FM-12","99999","V020","120,1,N,0030,1","03600,1,C,N","070000,1,N,1","+0246,1","+0153,1","10093,1","06,0000,9,1",,,,,"02,1,+00300,1,03,1",,,"08,99,1,02,1,03,1,00450,1,03,1,00,1",,"01,9",,"120,M,+0272,1","240,N,+0162,1","99999,9,08207,1","8,1,004,1,-012,1",,,"SYN118AAXX  15181 76373 32488 81203 10246 20153 38207 40093 58004 82330 91746 333 10272 20162 30/// 56220 59012 82310 86360;","Q01  00002PRCP06"
"76373099999","2005-07-15T21:00:00","4","25.35","-105.75","1967.0","TEPEHUANES DGO., MX","FM-12","99999","V020","090,1,N,0020,1","00300,1,9,N","070000,1,N,1","+0242,1","+0148,1","10065,1","02,0010,9,1",,,"5,1,03,1","5,1,03,1","05,1,+00300,1,09,1",,,"07,99,1,05,1,03,1,00450,1,03,1,00,1",,"09,9",,,,"99999,9,08190,1","7,1,017,1,+004,1",,"15,1","SYN118AAXX  15211 76373 21488 70902 10242 20148 38190 40065 57017 71555 85330 92050 333 31/// 56220 58004 60016 85910 82360;",
"76373099999","2005-07-16T00:00:00","4","25.35","-105.75","1967.0","TEPEHUANES DGO., MX","FM-12","99999","V020","030,1,N,0010,1","00420,1,9,N","015000,1,N,1","+0190,1","+0145,1","10062,1","03,0008,9,1","06,0030,9,2","24,0026,9,2","5,1,06,1","2,1,06,1",,,,"08,99,1,08,1,07,1,00450,1,99,9,99,9",,"09,9",,"120,M,+0282,1","180,N,+0162,1","99999,9,08196,1","3,1,006,1,+022,1",,"50,1","SYN142AAXX  16001 76373 01465 80301 10190 20145 38196 40062 53006 60031 75052 887// 92350 333 10282 20162 31/// 50320 562// 58022 69987 70026 88710;",
"76373099999","2005-07-16T15:00:00","4","25.35","-105.75","1967.0","TEPEHUANES DGO., MX","FM-12","99999","V020","999,9,C,0000,1","03000,1,9,N","030000,1,N,1","+0176,1","+0157,1","10123,1","06,0000,9,1",,,,,"08,1,+03000,1,04,1",,,"08,99,1,08,1,00,1,01250,1,01,1,00,1",,"09,9",,,,"99999,9,08213,1","9,9,999,9,+003,1",,,"SYN100AAXX  16151 76373 32680 80000 10176 20157 38213 40123 5//// 88010 91450 333 31/// 56010 58003 88460;","Q01  00002PRCP06"
"76373099999","2005-07-17T18:00:00","4","25.35","-105.75","1967.0","TEPEHUANES DGO., MX","FM-12","99999","V020","130,1,N,0050,1","03000,1,9,N","070000,1,N,1","+0214,1","+0130,1","10116,1","06,0000,9,1",,,,,"08,1,+03000,1,03,1",,,"08,99,1,08,1,00,1,00250,1,06,1,00,1",,"01,9",,"120,M,+0224,1","240,N,+0152,1","99999,9,08214,1","6,1,001,1,-005,1",,,"SYN112AAXX  17181 76373 32388 81305 10214 20130 38214 40116 56001 88060 91745 333 10224 20152 30/// 56220 59005 88360;","Q01  00002PRCP06"
"76373099999","2005-07-18T12:00:00","4","25.35","-105.75","1967.0","TEPEHUANES DGO., MX","FM-12","99999","V020","999,9,C,0000,1","00300,1,9,N","001500,1,N,1","+0162,1","+0149,1","10093,1","06,0006,9,1","24,0006,9,1",,"2,1,06,1","2,1,06,1","08,1,+00300,1,07,1",,,"08,99,1,99,9,07,1,00450,1,05,1,05,1",,"01,9","999,+0152,1","120,N,+0158,1","240,M,+0282,1","99999,9,08200,1",,,"50,1","SYN130AAXX  18121 76373 01415 80000 10162 20149 38200 40093 5//// 69961 75022 88755 333 10282 20158 30152 562// 58/// 69961 70006 88710;",
"76373099999","2005-07-18T15:00:00","4","25.35","-105.75","1967.0","TEPEHUANES DGO., MX","FM-12","99999","V020","250,1,N,0010,1","03600,1,C,N","070000,1,N,1","+0188,1","+0145,1","10111,1","06,0000,2,1",,,,,"01,1,+00600,1,08,1",,,"05,99,1,01,1,01,1,00450,1,04,1,00,1",,"09,9",,,,"99999,9,08210,1","2,1,010,1,-004,1",,,"SYN106AAXX  18151 76373 32488 52501 10188 20145 38210 40111 52010 81140 91448 333 31/// 56220 59004 81820 84360;",
"76373099999","2005-07-18T18:00:00","4","25.35","-105.75","1967.0","TEPEHUANES DGO., MX","FM-12","99999","V020","120,1,N,0020,1","09000,1,C,N","070000,1,N,1","+0260,1","+0137,1","10088,1","06,0000,2,1",,,,,"02,1,+00300,1,09,1","02,1,+03000,1,03,1",,"05,99,1,02,1,03,1,00450,1,03,1,02,1",,"01,9",,"120,M,+0290,1","240,N,+0155,1","99999,9,08201,1","6,1,009,1,-014,1",,,"SYN124AAXX  18181 76373 32488 51202 10260 20137 38201 40088 56009 82332 91748 333 10290 20155 30/// 56222 59014 82910 82360 81070;",
"76373099999","2005-07-18T21:00:00","4","25.35","-105.75","1967.0","TEPEHUANES DGO., MX","FM-12","99999","V020","110,1,N,0080,1","22000,1,9,N","070000,1,N,1","+0302,1","+0123,1","10044,1","06,0000,9,1",,,,,"06,1,+00300,1,09,1",,,"99,99,9,06,1,03,1,00450,1,00,1,00,1",,"01,9",,,,"99999,9,08183,1","7,1,018,1,-022,1",,,"SYN100AAXX  18211 76373 32488 21108 10302 20123 38183 40044 57018 86300 92050 333 30/// 56200 59022 86910;","Q01  00002PRCP06"
"76373099999","2005-07-19T00:00:00","4","25.35","-105.75","1967.0","TEPEHUANES DGO., MX","FM-12","99999","V020","130,1,N,0060,1","00600,1,C,N","070000,1,N,1","+0280,1","+0108,1","10016,1","06,0000,9,1","24,0001,9,1",,,,"08,1,+00600,1,09,1",,,"08,99,1,06,1,03,1,00250,1,03,1,00,1",,"01,9",,"120,M,+0320,1","180,N,+0155,1","99999,9,08179,1","6,1,004,1,+020,1",,,"SYN130AAXX  19001 76373 32388 81306 10280 20108 38179 40016 56004 86330 92340 333 10320 20155 30/// 50700 56220 58020 70001 88920 82360;","Q01  00002PRCP06"
"76373099999","2005-07-19T12:00:00","4","25.35","-105.75","1967.0","TEPEHUANES DGO., MX","FM-12","99999","V020","280,1,N,0010,1","03000,1,9,N","020000,1,N,1","+0166,1","+0148,1","10093,1","12,0050,9,1","24,0050,9,1",,,,"06,1,+03000,1,04,1",,,"08,99,1,08,1,00,1,01250,1,02,1,00,1",,"01,9","999,+0155,1","120,N,+0160,1","240,M,+0320,1","99999,9,08208,1","9,9,999,9,-008,1",,,"SYN136AAXX  19121 76373 02670 82801 10166 20148 38208 40093 5//// 60052 88020 91150 333 10320 20160 30155 56020 59008 60052 70050 86460 82360;",
"76373099999","2005-07-19T15:00:00","4","25.35","-105.75","1967.0","TEPEHUANES DGO., MX","FM-12","99999","V020","310,1,N,0020,1","03000,1,9,N","070000,1,N,1","+0204,1","+0144,1","10106,1",,,,,,"01,1,+00300,1,09,1","04,1,+03000,1,03,1",,"06,99,1,01,1,03,1,00450,1,04,1,02,1",,"09,9",,,,"99999,9,08212,1","2,1,004,1,+002,1",,,"SYN112AAXX  19151 76373 32488 63102 10204 20144 38212 40106 52004 81342 91448 333 31/// 56222 58002 81910 84360 81070;",
"76373099999","2005-07-19T18:00:00","4","25.35","-105.75","1967.0","TEPEHUANES DGO., MX","FM-12","99999","V020","090,1,N,0020,1","09000,1,C,N","070000,1,N,1","+0264,1","+0160,1","10088,1",,,,,,"03,1,+00300,1,09,1",,,"05,99,1,03,1,03,1,00450,1,00,1,02,1",,"01,9",,"120,M,+0290,1","240,N,+0158,1","99999,9,08207,1","6,1,005,1,+006,1",,,"SYN118AAXX  19181 76373 32488 50902 10264 20160 38207 40088 56005 83302 91750 333 10290 20158 30/// 56202 58006 83910 82070;",
"76373099999","2005-07-19T21:00:00","4","25.35","-105.75","1967.0","TEPEHUANES DGO., MX","FM-12","99999","V020","100,1,N,0080,1","03000,1,9,N","070000,1,N,1","+0292,1","+0131,1","10046,1",,,,,,"04,1,+00300,1,09,1","02,1,+03000,1,03,1",,"07,99,1,04,1,03,1,00450,1,03,1,01,1",,"01,9",,,,"99999,9,99999,9","7,1,020,1,+004,1",,,"SYN112AAXX  19211 76373 32488 71008 10292 20131 38687 40046 57020 84331 92048 333 30/// 56222 58004 84910 82360 81070;","Q01 086873APOSP "
"76373099999","2005-07-20T00:00:00","4","25.35","-105.75","1967.0","TEPEHUANES DGO., MX","FM-12","99999","V020","140,1,N,0050,1","00600,1,C,N","070000,1,N,1","+0274,1","+0104,1","10032,1",,,,,,"06,1,+00600,1,09,1",,,"08,99,1,06,1,03,1,00250,1,06,1,00,1",,"01,9",,"120,M,+0314,1","180,N,+0158,1","99999,9,08192,2","6,1,005,1,+013,1",,,"SYN124AAXX  20001 76373 32388 81405 10274 20104 38192 40032 56005 86360 92350 333 10314 20158 30/// 50500 56220 58013 86920 82360;",
"76373099999","2005-07-20T12:00:00","4","25.35","-105.75","1967.0","TEPEHUANES DGO., MX","FM-12","99999","V020","999,9,C,0000,1","22000,1,9,N","020000,1,N,1","+0144,1","+0131,1","10100,1","24,0000,9,1",,,,,"01,1,+06000,1,00,1",,,"01,99,1,00,1,00,1,99999,9,00,1,02,1",,"01,9","999,+0120,1","120,N,+0136,1","240,M,+0314,1","99999,9,08207,1","9,9,999,9,-001,1",,,"SYN118AAXX  20121 76373 32970 10000 10144 20131 38207 40100 5//// 80002 91150 333 10314 20136 30120 56002 59001 70000 81070;",
"76373099999","2005-07-20T15:00:00","4","25.35","-105.75","1967.0","TEPEHUANES DGO., MX","FM-12","99999","V020","999,9,C,0000,1","22000,1,9,N","070000,1,N,1","+0190,1","+0138,1","10118,1",,,,,,,,,"04,99,1,01,1,01,1,99999,9,00,1,02,1",,"01,9",,,,"99999,9,08212,1","1,1,005,1,+000,1",,,"SYN094AAXX  20151 76373 32988 40000 10190 20138 38212 40118 51005 81102 91455 333 30/// 56202 58000;",
"76373099999","2005-07-20T18:00:00","4","25.35","-105.75","1967.0","TEPEHUANES DGO., MX","FM-12","99999","V020","120,1,N,0030,1","00420,1,C,N","070000,1,N,1","+0278,1","+0143,1","10099,1",,,,,,"03,1,+00300,1,09,1",,,"05,99,1,05,1,03,1,00450,1,00,1,00,1",,"01,9",,"120,M,+0298,1","240,N,+0132,1","99999,9,08211,1","7,1,001,1,+004,1",,,"SYN118AAXX  20181 76373 32488 51203 10278 20143 38211 40099 57001 85300 91750 333 10298 20132 30/// 56200 58004 83910 82810;",
"76373099999","2005-07-20T21:00:00","4","25.35","-105.75","1967.0","TEPEHUANES DGO., MX","FM-12","99999","V020","070,1,N,0030,1","99999,9,9,N","070000,1,N,1","+0280,1","+0095,1","10065,1",,,,,,"04,1,+00300,1,09,1",,,"06,99,1,04,1,03,1,00450,1,00,1,00,1",,"01,9",,,,"99999,9,08194,1","6,1,018,1,+007,1",,,"SYN106AAXX  20211 76373 32488 60703 10280 20095 38194 40065 56018 84300 92045 333 30/// 56200 58007 84910 82810;",
"76373099999","2005-07-21T18:00:00","4","25.35","-105.75","1967.0","TEPEHUANES DGO., MX","FM-12","99999","V020","330,1,N,0020,1","00300,1,9,N","030000,1,N,1","+0216,1","+0141,1","10099,1",,,,,,"08,1,+00300,1,06,1",,,"08,99,1,08,1,07,1,00250,1,99,9,99,9",,"01,9",,"120,M,+0247,1","240,N,+0150,1","99999,9,08211,1","2,1,004,1,+000,1",,,"SYN112AAXX  21181 76373 32380 83302 10216 20141 38211 40099 52004 887// 91750 333 10247 20150 30/// 56200 58000 88610;",
"76373099999","2005-07-22T12:00:00","4","25.35","-105.75","1967.0","TEPEHUANES DGO., MX","FM-12","99999","V020","999,9,C,0000,1","03000,1,9,N","030000,1,N,1","+0162,1","+0149,1","10106,1","03,0030,9,1","12,0030,9,2","24,0025,9,2",,,"02,1,+00300,1,08,1","05,1,+03000,1,03,1",,"08,99,1,02,1,05,1,00450,1,04,1,02,1",,"01,9","999,+0122,1","120,N,+0158,1","240,M,+0276,1","99999,9,08211,1","9,9,999,9,-009,1",,,"SYN142AAXX  22121 76373 02480 80000 10162 20149 38211 40106 5//// 60032 82542 91150 333 10276 20158 30122 56222 59009 60037 70025 82810 85360 81070;",
"76373099999","2005-07-22T15:00:00","4","25.35","-105.75","1967.0","TEPEHUANES DGO., MX","FM-12","99999","V020","120,1,N,0040,1","03600,1,C,N","030000,1,N,1","+0194,1","+0158,1","10130,1",,,,,,"03,1,+00300,1,08,1","01,1,+03000,1,03,1",,"07,99,1,03,1,03,1,00450,1,03,1,02,1",,"09,9",,,,"99999,9,08226,1","2,1,015,1,+019,1",,,"SYN112AAXX  22151 76373 32480 71204 10194 20158 38226 40130 52015 83332 91446 333 31/// 56222 58019 83810 81360 83070;",
"76373099999","2005-07-22T18:00:00","4","25.35","-105.75","1967.0","TEPEHUANES DGO., MX","FM-12","99999","V020","120,1,N,0050,1","00300,1,9,N","070000,1,N,1","+0228,1","+0170,1","10127,1",,,,,,"06,1,+00300,1,06,1",,,"08,99,1,06,1,06,1,00250,1,03,1,00,1",,"01,9",,"120,M,+0246,1","240,N,+0152,1","99999,9,08231,1","2,1,005,1,+020,1",,,"SYN118AAXX  22181 76373 32388 81205 10228 20170 38231 40127 52005 86630 91750 333 10246 20152 30/// 56220 58020 86610 82360;",
"76373099999","2005-07-22T21:00:00","4","25.35","-105.75","1967.0","TEPEHUANES DGO., MX","FM-12","99999","V020","110,1,N,0060,1","03000,1,9,N","070000,1,N,1","+0258,1","+0136,1","10093,1",,,,,,"04,1,+00300,1,09,1","01,1,+03000,1,03,1",,"08,99,1,04,1,03,1,00450,1,03,1,09,1",,"01,9",,,,"99999,9,08213,1","7,1,018,1,+010,1",,,"SYN112AAXX  22211 76373 32488 81106 10258 20136 38213 40093 57018 84339 92050 333 30/// 56222 58010 84910 81360 83170;",
"76373099999","2005-07-23T15:00:00","4","25.35","-105.75","1967.0","TEPEHUANES DGO., MX","FM-12","99999","V020","999,9,C,0000,1","03600,1,C,N","070000,1,N,1","+0184,1","+0157,1","10169,1","15,0191,9,1",,,"5,1,03,1","6,1,03,1","01,1,+00600,1,01,1","03,1,+03000,1,03,1",,"07,99,1,01,1,01,1,00250,1,03,1,04,1",,"11,9",,,,"99999,9,08252,1","9,9,999,9,+032,1",,"50,1","SYN124AAXX  23151 76373 12388 70000 10184 20157 38252 40169 5//// 60199 75056 81134 91450 333 32/// 56222 58032 81120 83360 83080;",
"76373099999","2005-07-23T18:00:00","4","25.35","-105.75","1967.0","TEPEHUANES DGO., MX","FM-12","99999","V020","130,1,N,0040,1","00600,1,9,N","070000,1,N,1","+0252,1","+0146,1","10146,1",,,,,,"05,1,+00600,1,07,1",,,"08,99,1,05,1,04,1,00250,1,00,1,04,1",,"11,9",,"120,M,+0274,1","240,N,+0148,1","99999,9,08236,1","6,1,016,1,+005,1",,,"SYN118AAXX  23181 76373 32388 81304 10252 20146 38236 40146 56016 85404 91750 333 10274 20148 32/// 56222 58005 85720 83080;",
"76373099999","2005-07-24T18:00:00","4","25.35","-105.75","1967.0","TEPEHUANES DGO., MX","FM-12","99999","V020","120,1,N,0050,1","22000,1,9,N","070000,1,N,1","+0270,1","+0118,1","10120,1",,,,,,"03,1,+00600,1,09,1",,,"03,99,1,03,1,03,1,00250,1,00,1,00,1",,"01,9",,"120,M,+0288,1","240,N,+0126,1","99999,9,08224,1","6,1,009,1,-012,1",,,"SYN112AAXX  24181 76373 32388 31205 10270 20118 38224 40120 56009 83300 91750 333 10288 20126 30/// 56200 59012 83920;",
"76373099999","2005-07-25T12:00:00","4","25.35","-105.75","1967.0","TEPEHUANES DGO., MX","FM-12","99999","V020","999,9,C,0000,1","22000,1,9,N","020000,1,N,1","+0138,1","+0106,1","10095,1","24,0000,9,1",,,,,"02,1,+06000,1,00,1",,,"02,99,1,00,1,00,1,99999,9,00,1,02,1",,"01,9","999,+0110,1","120,N,+0132,1","240,M,+0320,1","99999,9,08209,1",,,,"SYN118AAXX  25121 76373 32970 20000 10138 20106 38209 40095 5//// 80002 91150 333 10320 20132 30110 56002 58/// 70000 82070;",
"76373099999","2005-07-25T15:00:00","4","25.35","-105.75","1967.0","TEPEHUANES DGO., MX","FM-12","99999","V020","270,1,N,0010,1","22000,1,9,N","070000,1,N,1","+0190,1","+0128,1","10123,1",,,,,,"02,1,+06000,1,00,1",,,"02,99,1,00,1,00,1,99999,9,00,1,01,1",,"01,9",,,,"99999,9,08220,1","1,1,011,1,-013,1",,,"SYN100AAXX  25151 76373 32988 22701 10190 20128 38220 40123 51011 80001 91450 333 30/// 56002 59013 82070;",
"76373099999","2005-07-25T18:00:00","4","25.35","-105.75","1967.0","TEPEHUANES DGO., MX","FM-12","99999","V020","150,1,N,0030,1","22000,1,9,N","070000,1,N,1","+0284,1","+0102,1","10116,1",,,,,,"02,1,+00300,1,09,1",,,"04,99,1,02,1,03,1,00450,1,00,1,02,1",,"01,9",,"120,M,+0306,1","240,N,+0126,1","99999,9,08207,1","7,1,013,1,-017,1",,,"SYN118AAXX  25181 76373 32488 41503 10284 20102 38207 40116 57013 82302 91755 333 10306 20126 30/// 56202 59017 82910 82070;",
"76373099999","2005-07-25T21:00:00","4","25.35","-105.75","1967.0","TEPEHUANES DGO., MX","FM-12","99999","V020","100,1,N,0030,1","00300,1,9,N","070000,1,N,1","+0304,1","+0101,1","10060,1",,,,,,"05,1,+00300,1,09,1",,,"07,99,1,05,1,03,1,00450,1,00,1,02,1",,"01,9",,,,"99999,9,08194,1","6,1,013,1,-018,1",,,"SYN106AAXX  25211 76373 32488 71003 10304 20101 38194 40060 56013 85302 92050 333 30/// 56202 59018 85910 82070;",
"76373099999","2005-07-26T12:00:00","4","25.35","-105.75","1967.0","TEPEHUANES DGO., MX","FM-12","99999","V020","999,9,C,0000,1","03600,1,C,N","070000,1,N,1","+0170,1","+0140,1","10067,1","24,0000,9,1",,,,,"04,1,+00600,1,07,1",,,"08,99,1,04,1,06,1,00450,1,03,1,00,1",,"01,9","999,+0148,1","120,N,+0164,1","240,M,+0334,1","99999,9,08195,1","9,9,999,9,-014,1",,,"SYN124AAXX  26121 76373 32488 80000 10170 20140 38195 40067 5//// 84630 91150 333 10334 20164 30148 56220 59014 70000 84720 84360;",
"76373099999","2005-07-26T18:00:00","4","25.35","-105.75","1967.0","TEPEHUANES DGO., MX","FM-12","99999","V020","330,1,N,0040,1","03600,1,C,N","070000,1,N,1","+0284,1","+0139,1","10072,1",,,,,,"04,1,+00300,1,08,1",,,"08,99,1,04,1,02,1,00450,1,06,1,00,1",,"01,9",,"120,M,+0300,1","240,N,+0162,1","99999,9,08198,1","6,1,008,1,+009,1",,,"SYN118AAXX  26181 76373 32488 83304 10284 20139 38198 40072 56008 84260 91750 333 10300 20162 30/// 56220 58009 84810 85360;",
"76373099999","2005-07-26T21:00:00","4","25.35","-105.75","1967.0","TEPEHUANES DGO., MX","FM-12","99999","V020","050,1,N,0020,1","03600,1,C,N","070000,1,N,1","+0280,1","+0123,1","10035,1",,,,,,"04,1,+00600,1,08,1",,,"08,99,1,04,1,02,1,00450,1,06,1,00,1",,"01,9",,,,"99999,9,08179,1","7,1,019,1,-015,1",,,"SYN106AAXX  26211 76373 32488 80502 10280 20123 38179 40035 57019 84260 92050 333 30/// 56220 59015 84820 84360;",
"76373099999","2005-07-27T00:00:00","4","25.35","-105.75","1967.0","TEPEHUANES DGO., MX","FM-12","99999","V020","150,1,N,0010,1","00300,1,C,N","070000,1,N,1","+0232,1","+0164,1","10014,1","03,0008,9,1","12,0008,9,1","24,0008,9,1","5,1,06,1","2,1,06,1","06,1,+00300,1,09,1",,,"08,99,1,06,1,03,1,00450,1,00,1,02,1",,"09,9",,"120,M,+0300,1","180,N,+0162,1","99999,9,08173,1","6,1,004,1,+001,1",,"16,1","SYN148AAXX  27001 76373 01488 81501 10232 20164 38173 40014 56004 69982 71652 86302 92350 333 10300 20162 31/// 50410 56202 58001 69987 70008 86910 82070;",
"76373099999","2005-07-27T15:00:00","4","25.35","-105.75","1967.0","TEPEHUANES DGO., MX","FM-12","99999","V020","999,9,C,0000,1","00300,1,9,N","006000,1,N,1","+0170,1","+0167,1","10111,1","03,0100,9,1",,,"6,1,03,1","5,1,03,1","08,1,+00300,1,07,1",,,"08,99,1,08,1,07,1,00450,1,99,9,99,9",,"09,9",,,,"99999,9,08211,1","3,1,008,1,+005,1",,"58,1","SYN112AAXX  27151 76373 21456 80000 10170 20167 38211 40111 53008 75865 887// 91450 333 31/// 562// 58005 60107 88710;",
"76373099999","2005-07-27T18:00:00","4","25.35","-105.75","1967.0","TEPEHUANES DGO., MX","FM-12","99999","V020","150,1,N,0030,1","00300,1,9,N","006000,1,N,1","+0188,1","+0177,1","10109,1","03,0060,9,1",,,"6,1,06,1","5,1,06,1","08,1,+00300,1,06,1",,,"08,99,1,08,1,07,1,00250,1,00,1,00,1",,"11,9",,"120,M,+0196,1","240,N,+0160,1","99999,9,08209,1","7,1,002,1,+011,1",,"58,1","SYN124AAXX  27181 76373 21356 81503 10188 20177 38209 40109 57002 75865 88700 91750 333 10196 20160 32/// 56200 58011 60067 88610;",
"76373099999","2005-07-27T21:00:00","4","25.35","-105.75","1967.0","TEPEHUANES DGO., MX","FM-12","99999","V020","999,9,C,0000,1","00300,1,9,N","006000,1,N,1","+0224,1","+0166,1","10088,1",,,,,,"06,1,+00300,1,03,1",,,"08,99,1,06,1,03,1,00450,1,07,1,00,1",,"09,9",,,,"99999,9,08196,1","7,1,013,1,+017,1",,,"SYN106AAXX  27211 76373 32456 80000 10224 20166 38196 40088 57013 86370 92050 333 31/// 56220 58017 86310 82360;",
"76373099999","2005-07-28T12:00:00","4","25.35","-105.75","1967.0","TEPEHUANES DGO., MX","FM-12","99999","V020","999,9,C,0000,1","00300,1,9,N","006000,1,N,1","+0158,1","+0152,1","10120,1","03,0170,9,1","12,0170,9,2","24,0168,9,2","6,1,06,1","6,1,06,1","08,1,+00300,1,07,1",,,"08,99,1,08,1,06,1,00450,1,99,9,99,9",,"01,9","999,+0150,1","120,N,+0150,1","240,M,+0242,1","99999,9,08214,1","9,9,999,9,+011,1",,"02,1","SYN136AAXX  28121 76373 02456 80000 10158 20152 38214 40120 5//// 60172 70266 886// 91150 333 10242 20150 30150 562// 58011 60177 70168 88710;",
"76373099999","2005-07-28T15:00:00","4","25.35","-105.75","1967.0","TEPEHUANES DGO., MX","FM-12","99999","V020","310,1,N,0010,1","03600,1,C,N","015000,1,N,1","+0174,1","+0149,1","10132,1",,,,,,"02,1,+00900,1,08,1",,,"08,99,1,02,1,01,1,00450,1,06,1,00,1",,"09,9",,,,"99999,9,08222,1","1,1,008,1,+011,1",,,"SYN106AAXX  28151 76373 32465 83101 10174 20149 38222 40132 51008 82160 91450 333 31/// 56220 58011 82830 86260;",
"76373099999","2005-07-28T18:00:00","4","25.35","-105.75","1967.0","TEPEHUANES DGO., MX","FM-12","99999","V020","160,1,N,0010,1","03600,1,C,N","015000,1,N,1","+0218,1","+0162,1","10125,1",,,,,,"03,1,+00300,1,08,1",,,"08,99,1,03,1,02,1,00450,1,06,1,00,1",,"09,9",,"120,M,+0240,1","240,N,+0150,1","99999,9,08223,1","1,1,001,1,+014,1",,,"SYN118AAXX  28181 76373 32465 81601 10218 20162 38223 40125 51001 83260 91750 333 10240 20150 31/// 56220 58014 83810 85360;",
"76373099999","2005-07-28T21:00:00","4","25.35","-105.75","1967.0","TEPEHUANES DGO., MX","FM-12","99999","V020","120,1,N,0040,1","03600,1,C,N","070000,1,N,1","+0268,1","+0148,1","10081,1",,,,,,"04,1,+00600,1,09,1",,,"06,99,1,04,1,03,1,00450,1,04,1,00,1",,"09,9",,,,"99999,9,08199,1","7,1,024,1,+003,1",,,"SYN106AAXX  28211 76373 32488 61204 10268 20148 38199 40081 57024 84340 92050 333 31/// 56220 58003 84920 82360;",
"76373099999","2005-07-29T15:00:00","4","25.35","-105.75","1967.0","TEPEHUANES DGO., MX","FM-12","99999","V020","999,9,C,0000,1","00300,1,9,N","010000,1,N,1","+0176,1","+0161,1","10151,1",,,,,,"08,1,+00300,1,07,1",,,"08,99,1,08,1,07,1,00450,1,99,9,99,9",,"09,9",,,,"99999,9,08242,1","3,1,007,1,+022,1",,,"SYN100AAXX  29151 76373 32460 80000 10176 20161 38242 40151 53007 887// 91447 333 31/// 562// 58022 88710;",
"76373099999","2005-07-29T21:00:00","4","25.35","-105.75","1967.0","TEPEHUANES DGO., MX","FM-12","99999","V020","090,1,N,9999,9","03600,1,C,N","070000,1,N,1","+0262,1","+0155,1","10100,1",,,,,,"03,1,+00600,1,09,1","01,1,+03000,1,03,1",,"06,99,1,03,1,03,1,00450,1,03,1,02,1",,"09,9",,,,"99999,9,08219,1","7,1,021,1,+020,1",,,"SYN112AAXX  29211 76373 32488 60940 10262 20155 38219 40100 57021 83332 92050 333 31/// 56222 58020 83920 81360 82070;","Q010004003WOSPD "
"76373099999","2005-07-30T00:00:00","4","25.35","-105.75","1967.0","TEPEHUANES DGO., MX","FM-12","99999","V020","270,1,N,0040,1","00300,1,C,N","015000,1,N,1","+0192,1","+0163,1","10088,1","01,0008,9,1","12,0008,9,1","24,0091,9,1","9,1,06,1","2,1,06,1","06,1,+00300,1,09,1",,,"08,99,1,99,9,09,1,00450,1,06,1,00,1",,"09,9",,"120,M,+0290,1","180,N,+0160,1","99999,9,08218,1","5,1,001,1,+019,1",,"50,1","SYN148AAXX  30001 76373 01465 82704 10192 20163 38218 40088 55001 69982 75092 88960 92355 333 10290 20160 31/// 50380 56220 58019 69985 70091 86910 82360;",
"76373099999","2005-07-30T15:00:00","4","25.35","-105.75","1967.0","TEPEHUANES DGO., MX","FM-12","99999","V020","999,9,C,0000,1","03000,1,9,N","070000,1,N,1","+0166,1","+0158,1","10165,1","15,0040,9,1",,,"5,1,03,1","5,1,03,1","03,1,+00600,1,06,1","04,1,+03000,1,03,1",,"08,99,1,03,1,04,1,00150,1,06,1,05,1",,"11,9",,,,"99999,9,08252,1","9,9,999,9,+010,1",,"50,1","SYN124AAXX  30151 76373 21288 80000 10166 20158 38252 40165 5//// 75055 83465 91445 333 32/// 56222 58010 60049 83620 84360 81080;",
"76373099999","2005-07-30T18:00:00","4","25.35","-105.75","1967.0","TEPEHUANES DGO., MX","FM-12","99999","V020","150,1,N,0030,1","22000,1,9,N","070000,1,N,1","+0250,1","+0157,1","10132,1",,,,,,"03,1,+03000,1,03,1",,,"03,99,1,03,1,03,1,00250,1,99,9,00,1",,"09,9",,"120,M,+0274,1","240,N,+0158,1","99999,9,08242,1","6,1,010,1,+002,1",,,"SYN112AAXX  30181 76373 32388 31503 10250 20157 38242 40132 56010 83300 91748 333 10274 20158 31/// 56200 58002 83360;",
"76373099999","2005-07-30T21:00:00","4","25.35","-105.75","1967.0","TEPEHUANES DGO., MX","FM-12","99999","V020","120,1,N,0050,1","00600,1,9,N","070000,1,N,1","+0284,1","+0133,1","10104,1",,,,,,"06,1,+00600,1,09,1",,,"06,99,1,06,1,03,1,00250,1,00,1,00,1",,"09,9",,,,"99999,9,08227,1","6,1,015,1,+008,1",,,"SYN100AAXX  30211 76373 32388 61205 10284 20133 38227 40104 56015 86300 92045 333 31/// 56200 58008 86920;",
"76373099999","2005-07-31T00:00:00","4","25.35","-105.75","1967.0","TEPEHUANES DGO., MX","FM-12","99999","V020","120,1,N,0040,1","09000,1,9,N","070000,1,N,1","+0266,1","+0116,1","10090,1","24,0042,9,1",,,,,"03,1,+00600,1,09,1",,,"06,99,1,03,1,03,1,00250,1,00,1,05,1",,"01,9",,"120,M,+0304,1","180,N,+0158,1","99999,9,08217,1","6,1,010,1,-001,1",,,"SYN130AAXX  31001 76373 32388 61204 10266 20116 38217 40090 56010 83305 92340 333 10304 20158 30/// 50520 56202 59001 70042 83920 83080;",
"76373099999","2005-07-31T15:00:00","4","25.35","-105.75","1967.0","TEPEHUANES DGO., MX","FM-12","99999","V020","999,9,C,0000,1","09000,1,9,N","070000,1,N,1","+0184,1","+0125,1","10151,1",,,,,,"08,1,+09000,1,00,1",,,"08,99,1,00,1,00,1,99999,9,00,1,04,1",,"01,9",,,,"99999,9,08243,1","9,9,999,9,-009,1",,,"SYN100AAXX  31151 76373 32988 80000 10184 20125 38243 40151 5//// 80004 91445 333 30/// 56002 59009 88080;",
"76373099999","2005-07-31T18:00:00","4","25.35","-105.75","1967.0","TEPEHUANES DGO., MX","FM-12","99999","V020","090,1,N,0020,1","99999,9,9,N","070000,1,N,1","+0256,1","+0107,1","10127,1",,,,,,"02,1,+00600,1,09,1","02,1,+03000,1,03,1",,"05,99,1,02,1,03,1,99999,9,03,1,04,1",,"01,9",,"120,M,+0282,1","240,N,+0122,1","99999,9,08229,1","6,1,014,1,-013,1",,,"SYN124AAXX  31181 76373 32988 50902 10256 20107 38229 40127 56014 82334 91750 333 10282 20122 30/// 56222 59013 82920 82360 81080;",
"76373099999","2005-07-31T21:00:00","4","25.35","-105.75","1967.0","TEPEHUANES DGO., MX","FM-12","99999","V020","150,1,N,0010,1","03600,1,C,N","070000,1,N,1","+0272,1","+0120,1","10092,1",,,,,,"03,1,+00600,1,09,1",,,"06,99,1,03,1,03,1,00250,1,06,1,00,1",,"01,9",,,,"99999,9,08213,1","6,1,016,1,-014,1",,,"SYN106AAXX  31211 76373 32388 61501 10272 20120 38213 40092 56016 83360 92045 333 30/// 56220 59014 83920 83360;",
"76373099999","2005-08-01T00:00:00","4","25.35","-105.75","1967.0","TEPEHUANES DGO., MX","FM-12","99999","V020","290,1,N,0020,1","00210,1,9,N","070000,1,N,1","+0266,1","+0104,1","10044,1","24,0000,9,1",,,,,,,,"06,99,1,06,1,09,1,00250,1,00,1,00,1",,"01,9",,"120,M,+0314,1","180,N,+0122,1","99999,9,08196,1","6,1,017,1,-025,1",,,"SYN124AAXX  01001 76373 32388 62902 10266 20104 38196 40044 56017 86900 92350 333 10314 20122 30/// 50060 56200 59025 70000 86920;",
"76373099999","2005-08-01T15:00:00","4","25.35","-105.75","1967.0","TEPEHUANES DGO., MX","FM-12","99999","V020","330,1,N,0010,1","22000,1,9,N","070000,1,N,1","+0178,1","+0133,1","10148,1",,,,,,"01,1,+03000,1,03,1",,,"01,99,1,01,1,00,1,01250,1,04,1,00,1",,"01,9",,,,"99999,9,08236,1","2,1,005,1,-016,1",,,"SYN100AAXX  01151 76373 32688 13301 10178 20133 38236 40148 52005 81040 91450 333 30/// 56020 59016 81360;",
"76373099999","2005-08-01T21:00:00","4","25.35","-105.75","1967.0","TEPEHUANES DGO., MX","FM-12","99999","V020","110,1,N,0040,1","03600,1,C,N","070000,1,N,1","+0262,1","+0137,1","10088,1",,,,,,"04,1,+00600,1,03,1",,,"05,99,1,04,1,03,1,00450,1,04,1,00,1",,"01,9",,,,"99999,9,08208,1","7,1,024,1,-019,1",,,"SYN106AAXX  01211 76373 32488 51104 10262 20137 38208 40088 57024 84340 92050 333 30/// 56220 59019 84320 81360;",
"76373099999","2005-08-02T15:00:00","4","25.35","-105.75","1967.0","TEPEHUANES DGO., MX","FM-12","99999","V020","320,1,N,0010,1","22000,1,9,N","070000,1,N,1","+0152,1","+0133,1","10158,1",,,,,,"03,1,+03000,1,03,1",,,"03,99,1,03,1,00,1,01250,1,04,1,00,1",,"09,9",,,,"99999,9,08234,1","2,1,006,1,-002,1",,,"SYN100AAXX  02151 76373 32688 33201 10152 20133 38234 40158 52006 83040 91455 333 31/// 56020 59002 83360;",
"76373099999","2005-08-02T21:00:00","4","25.35","-105.75","1967.0","TEPEHUANES DGO., MX","FM-12","99999","V020","300,1,N,0010,1","22000,1,9,N","070000,1,N,1","+0250,1","+0103,1","10100,1",,,,,,"05,1,+00300,1,03,1",,,"99,99,9,05,1,03,1,00450,1,06,1,00,1",,"01,9",,,,"99999,9,08207,1","7,1,021,1,-001,1",,,"SYN106AAXX  02211 76373 32488 43001 10250 20103 38207 40100 57021 85360 92050 333 30/// 56220 59001 85310 82360;",
"76373099999","2005-08-03T00:00:00","4","25.35","-105.75","1967.0","TEPEHUANES DGO., MX","FM-12","99999","V020","300,1,N,0010,1","03600,1,9,N","070000,1,N,1","+0210,1","+0117,1","10086,1","24,0042,9,1",,,,,"04,1,+00300,1,06,1",,,"08,99,1,04,1,06,1,00450,1,03,1,00,1",,"01,9",,"120,M,+0294,1","180,N,+0122,1","99999,9,08209,1","7,1,002,1,+999,9",,,"SYN130AAXX  03001 76373 32488 83001 10210 20117 38209 40086 57002 84630 92355 333 10294 20122 30/// 50460 56220 58/// 70042 84610 84360;",
"76373099999","2005-08-03T15:00:00","4","25.35","-105.75","1967.0","TEPEHUANES DGO., MX","FM-12","99999","V020","999,9,C,0000,1","00600,1,9,N","070000,1,N,1","+0160,1","+0139,1","10139,1",,,,,,"06,1,+00600,1,06,1",,,"08,99,1,06,1,05,1,00450,1,06,1,00,1",,"01,9",,,,"99999,9,08222,1","7,1,005,1,-012,1",,,"SYN106AAXX  03151 76373 32488 80000 10160 20139 38222 40139 57005 86560 91450 333 30/// 56220 59012 86620 82360;",
"76373099999","2005-08-04T12:00:00","4","25.35","-105.75","1967.0","TEPEHUANES DGO., MX","FM-12","99999","V020","999,9,C,0000,1","00600,1,9,N","015000,1,N,1","+0140,1","+0133,1","10132,1","06,9999,9,9","12,0000,9,1","24,0000,9,1",,,"08,1,+00600,1,07,1",,,"08,99,1,99,9,06,1,00450,1,09,1,09,1",,"01,9","999,+0116,1","120,N,+0130,1","240,M,+0272,1","99999,9,08218,1","9,9,999,9,+001,1",,,"SYN130AAXX  04121 76373 02465 80000 10140 20133 38218 40132 5//// 69902 88699 91150 333 10272 20130 30116 562// 58001 69901 79999 88720;","Q01  00002PRCP24Q02  00002PRCP12Q03  99992PRCP06"
"76373099999","2005-08-04T15:00:00","4","25.35","-105.75","1967.0","TEPEHUANES DGO., MX","FM-12","99999","V020","310,1,N,0020,1","22000,1,9,N","070000,1,N,1","+0172,1","+0142,1","10141,1",,,,,,"01,1,+00600,1,08,1",,,"02,99,1,01,1,01,1,00450,1,03,1,00,1",,"01,9",,,,"99999,9,08223,1","1,1,005,1,+001,1",,,"SYN106AAXX  04151 76373 32488 23102 10172 20142 38223 40141 51005 81130 91445 333 30/// 56220 58001 81820 81360;",
"76373099999","2005-08-04T18:00:00","4","25.35","-105.75","1967.0","TEPEHUANES DGO., MX","FM-12","99999","V020","120,1,N,0020,1","22000,1,9,N","070000,1,N,1","+0244,1","+0144,1","10124,1",,,,,,"02,1,+00300,1,09,1",,,"03,99,1,02,1,03,1,00450,1,03,1,00,1",,"01,9",,"120,M,+0268,1","240,N,+0130,1","99999,9,08218,1","7,1,005,1,+000,1",,,"SYN118AAXX  04181 76373 32488 31202 10244 20144 38218 40124 57005 82330 91750 333 10268 20130 30/// 56220 58000 82910 81360;",
"76373099999","2005-08-04T21:00:00","4","25.35","-105.75","1967.0","TEPEHUANES DGO., MX","FM-12","99999","V020","330,1,N,0060,1","00600,1,9,N","070000,1,N,1","+0220,1","+0135,1","10093,1",,,,,,"06,1,+00600,1,09,1",,,"08,99,1,06,1,03,1,00450,1,03,1,00,1",,"01,9",,,,"99999,9,08207,1","6,1,011,1,+001,1",,,"SYN106AAXX  04211 76373 32488 83306 10220 20135 38207 40093 56011 86330 92050 333 30/// 56220 58001 86920 82360;",
"76373099999","2005-08-05T15:00:00","4","25.35","-105.75","1967.0","TEPEHUANES DGO., MX","FM-12","99999","V020","999,9,C,0000,1","22000,1,9,N","070000,1,N,1","+0158,1","+0128,1","10172,1",,,,,,"01,1,+00300,1,03,1",,,"01,99,1,01,1,03,1,00450,1,00,1,00,1",,"09,9",,,,"99999,9,08240,1","0,1,006,1,+017,1",,,"SYN100AAXX  05151 76373 32488 10000 10158 20128 38240 40172 50006 81300 91455 333 31/// 56200 58017 81310;",
"76373099999","2005-08-05T18:00:00","4","25.35","-105.75","1967.0","TEPEHUANES DGO., MX","FM-12","99999","V020","120,1,N,0030,1","22000,1,9,N","070000,1,N,1","+0240,1","+0149,1","10146,1",,,,,,"03,1,+00300,1,09,1",,,"03,99,1,03,1,03,1,00450,1,00,1,00,1",,"09,9",,"120,M,+0260,1","240,N,+0120,1","99999,9,08231,1","7,1,009,1,+013,1",,,"SYN112AAXX  05181 76373 32488 31203 10240 20149 38231 40146 57009 83300 91750 333 10260 20120 31/// 56200 58013 83910;",
"76373099999","2005-08-05T21:00:00","4","25.35","-105.75","1967.0","TEPEHUANES DGO., MX","FM-12","99999","V020","110,1,N,0030,1","03600,1,C,N","070000,1,N,1","+0274,1","+0138,1","10100,1",,,,,,"04,1,+00600,1,03,1",,,"05,99,1,04,1,03,1,00450,1,01,1,00,1",,"09,9",,,,"99999,9,08210,1","7,1,021,1,+003,1",,,"SYN106AAXX  05211 76373 32488 51103 10274 20138 38210 40100 57021 84310 92050 333 31/// 56220 58003 84320 81360;",
"76373099999","2005-08-06T00:00:00","4","25.35","-105.75","1967.0","TEPEHUANES DGO., MX","FM-12","99999","V020","030,1,N,0030,1","00420,1,9,N","070000,1,N,1","+0218,1","+0129,1","10072,1","03,9999,2,9","06,9999,9,9","24,0016,9,1","9,1,06,1","2,1,06,1",,,,"08,99,1,08,1,07,1,00450,1,99,9,99,9",,"09,9",,"120,M,+0302,1","180,N,+0120,1","99999,9,08205,1","6,1,005,1,+006,1",,"50,1","SYN142AAXX  06001 76373 01488 80303 10218 20129 38205 40072 56005 69901 75092 887// 92348 333 10302 20120 31/// 50530 562// 58006 69907 70016 88710;",
"76373099999","2005-08-06T12:00:00","4","25.35","-105.75","1967.0","TEPEHUANES DGO., MX","FM-12","99999","V020","110,1,N,0010,1","03000,1,9,N","015000,1,N,1","+0152,1","+0142,1","10153,1","03,0004,9,1","12,0005,9,2","24,0004,9,2",,,"04,1,+00600,1,06,1","03,1,+03000,1,03,1",,"08,99,1,04,1,05,1,00450,1,04,1,01,1",,"01,9","999,+0140,1","120,N,+0144,1","240,M,+0302,1","99999,9,08242,1","9,9,999,9,+010,1",,,"SYN142AAXX  06121 76373 02465 81101 10152 20142 38242 40153 5//// 69942 84541 91150 333 10302 20144 30140 56222 58010 69947 70004 84620 83360 81070;",
"76373099999","2005-08-06T15:00:00","4","25.35","-105.75","1967.0","TEPEHUANES DGO., MX","FM-12","99999","V020","999,9,C,0000,1","03600,1,C,N","030000,1,N,1","+0158,1","+0136,1","10162,1",,,,,,"01,1,+00120,1,07,1",,,"07,99,1,01,1,07,1,00075,1,05,1,00,1",,"01,9",,,,"99999,9,08246,1","2,1,004,1,+006,1",,,"SYN106AAXX  06151 76373 32180 70000 10158 20136 38246 40162 52004 81750 91445 333 30/// 56220 58006 81704 86360;",
"76373099999","2005-08-06T21:00:00","4","25.35","-105.75","1967.0","TEPEHUANES DGO., MX","FM-12","99999","V020","110,1,N,0030,1","00600,1,9,N","070000,1,N,1","+0256,1","+0134,1","10122,1",,,,,,"05,1,+00600,1,06,1",,,"06,99,1,05,1,04,1,00800,1,00,1,01,1",,"01,9",,,,"99999,9,08227,1","7,1,020,1,+017,1",,,"SYN106AAXX  06211 76373 32588 61103 10256 20134 38227 40122 57020 85401 92040 333 30/// 56202 58017 85620 81070;",
"76373099999","2005-08-07T03:00:00","4","25.35","-105.75","1967.0","TEPEHUANES DGO., MX","FM-12","99999","V020","320,1,N,0010,1","00600,1,9,N","010000,1,N,1","+0164,1","+0152,1","10120,1",,,,,,"08,1,+00600,1,06,1",,,"08,99,1,08,1,04,1,00800,1,00,1,00,1",,"09,9",,,,"99999,9,08236,1","2,1,005,1,+999,9",,,"SYN100AAXX  07031 76373 32560 83201 10164 20152 38236 40120 52005 88400 90245 333 31/// 56900 58/// 88620;",
"76373099999","2005-08-07T12:00:00","4","25.35","-105.75","1967.0","TEPEHUANES DGO., MX","FM-12","99999","V020","999,9,C,0000,1","00900,1,9,N","010000,1,N,1","+0148,1","+0141,1","10148,1","24,0010,9,1",,,,,"08,1,+00900,1,06,1",,,"08,99,1,08,1,05,1,00800,1,00,1,00,1",,"01,9","999,+0135,1","120,N,+0138,1","240,M,+0265,1","99999,9,08235,1","9,9,999,9,-007,1",,,"SYN118AAXX  07121 76373 32560 80000 10148 20141 38235 40148 5//// 88500 91140 333 10265 20138 30135 56900 59007 70010 88630;",
"76373099999","2005-08-07T15:00:00","4","25.35","-105.75","1967.0","TEPEHUANES DGO., MX","FM-12","99999","V020","290,1,N,0010,1","00300,1,9,N","005000,1,N,1","+0154,1","+0145,1","10162,1","01,0010,9,1",,,"5,1,03,1","2,1,03,1","08,1,+00300,1,07,1",,,"08,99,1,08,1,07,1,00450,1,00,1,00,1",,"09,9",,,,"99999,9,08242,1","2,1,007,1,-004,1",,"02,1","SYN112AAXX  07151 76373 21450 82901 10154 20145 38242 40162 52007 70252 88700 91445 333 31/// 56300 59004 60015 88710;",
"76373099999","2005-08-07T18:00:00","4","25.35","-105.75","1967.0","TEPEHUANES DGO., MX","FM-12","99999","V020","320,1,N,0020,1","00300,1,9,N","020000,1,N,1","+0160,1","+0152,1","10172,1","00,0010,9,1",,,"5,1,06,1","2,1,06,1","08,1,+00300,1,07,1",,,"08,99,1,08,1,07,1,00450,1,00,1,00,1",,"11,9",,"120,M,+0270,1","240,N,+0138,1","99999,9,08249,1","2,1,005,1,+002,1",,"02,1","SYN124AAXX  07181 76373 11470 83202 10160 20152 38249 40172 52005 60010 70252 88700 91745 333 10270 20138 32/// 56300 58002 88710;",
"76373099999","2005-08-07T21:00:00","4","25.35","-105.75","1967.0","TEPEHUANES DGO., MX","FM-12","99999","V020","310,1,N,0010,1","00420,1,C,N","070000,1,N,1","+0200,1","+0143,1","10148,1",,,,,,"02,1,+00390,1,07,1",,,"07,99,1,07,1,04,1,00450,1,00,1,00,1",,"09,9",,,,"99999,9,08235,1","7,1,004,1,+008,1",,,"SYN106AAXX  07211 76373 32488 73101 10200 20143 38235 40148 57004 87400 92045 333 31/// 56200 58008 82713 85630;",
"76373099999","2005-08-08T00:00:00","4","25.35","-105.75","1967.0","TEPEHUANES DGO., MX","FM-12","99999","V020","130,1,N,0050,1","00750,1,9,N","005000,1,N,1","+0206,1","+0140,1","10116,1","24,0120,9,1",,,,,,,,"07,99,1,07,1,04,1,00800,1,00,1,00,1",,"01,9",,"120,M,+0258,1","180,N,+0138,1","99999,9,08217,1","7,1,015,1,-019,1",,,"SYN124AAXX  08001 76373 32550 71305 10206 20140 38217 40116 57015 87400 92345 333 10258 20138 30/// 50140 56200 59019 70120 87620;",
"76373099999","2005-08-08T03:00:00","4","25.35","-105.75","1967.0","TEPEHUANES DGO., MX","FM-12","99999","V020","320,1,N,0010,1","00900,1,9,N","010000,1,N,1","+0170,1","+0149,1","10113,1","01,0000,2,1",,,,,"07,1,+00900,1,06,1",,,"07,99,1,07,1,04,1,00800,1,00,1,00,1",,"09,9",,,,"99999,9,08222,1","2,1,012,1,-007,1",,,"SYN106AAXX  08031 76373 21560 73201 10170 20149 38222 40113 52012 87400 90245 333 31/// 56900 59007 69905 87630;",
"76373099999","2005-08-08T12:00:00","4","25.35","-105.75","1967.0","TEPEHUANES DGO., MX","FM-12","99999","V020","999,9,C,0000,1","00600,1,9,N","010000,1,N,1","+0152,1","+0145,1","10130,1","06,0100,9,1","24,0268,9,1",,"6,1,06,1","2,1,06,1","08,1,+00600,1,06,1",,,"08,99,1,08,1,05,1,00800,1,00,1,00,1",,"01,9","999,+0140,1","120,N,+0142,1","240,M,+0258,1","99999,9,08224,1","9,9,999,9,-011,1",,"02,1","SYN136AAXX  08121 76373 01560 80000 10152 20145 38224 40130 5//// 60101 70262 88500 91145 333 10258 20142 30140 56900 59011 60101 70268 88620;",
"76373099999","2005-08-08T18:00:00","4","25.35","-105.75","1967.0","TEPEHUANES DGO., MX","FM-12","99999","V020","150,1,N,0020,1","00300,1,9,N","030000,1,N,1","+0224,1","+0156,1","10141,1",,,,,,"05,1,+00300,1,06,1",,,"08,99,1,05,1,06,1,00250,1,03,1,00,1",,"09,9",,"120,M,+0248,1","240,N,+0142,1","99999,9,08235,1","9,9,999,9,-014,1",,,"SYN118AAXX  08181 76373 32380 81502 10224 20156 38235 40141 5//// 85630 91750 333 10248 20142 31/// 56220 59014 85610 83360;",
"76373099999","2005-08-08T21:00:00","4","25.35","-105.75","1967.0","TEPEHUANES DGO., MX","FM-12","99999","V020","180,1,N,0040,1","00300,1,C,N","070000,1,N,1","+0242,1","+0151,1","10099,1",,,,,,"03,1,+00300,1,09,1","02,1,+00300,1,08,1",,"06,99,1,03,1,03,1,00250,1,03,1,00,1",,"09,9",,,,"99999,9,08211,1","6,1,024,1,-024,1",,,"SYN112AAXX  08211 76373 32388 61804 10242 20151 38211 40099 56024 83330 92052 333 31/// 56220 59024 83910 82810 81360;",
"76373099999","2005-08-09T18:00:00","4","25.35","-105.75","1967.0","TEPEHUANES DGO., MX","FM-12","99999","V020","120,1,N,0010,1","22000,1,9,N","070000,1,N,1","+0232,1","+0139,1","10139,1","15,0020,9,1",,,,,"02,1,+00300,1,09,1",,,"03,99,1,02,1,03,1,00450,1,03,1,00,1",,"09,9",,"120,M,+0254,1","240,N,+0120,1","99999,9,08235,1",,,,"SYN124AAXX  09181 76373 32488 31201 10232 20139 38235 40139 5//// 82330 91745 333 10254 20120 31/// 56220 58/// 60029 82910 81360;",
"76373099999","2005-08-10T18:00:00","4","25.35","-105.75","1967.0","TEPEHUANES DGO., MX","FM-12","99999","V020","090,1,N,0010,1","03600,1,C,N","070000,1,N,1","+0224,1","+0151,1","10144,1",,,,,,"04,1,+00300,1,09,1",,,"07,99,1,04,1,03,1,00450,1,03,1,00,1",,"09,9",,"120,M,+0250,1","240,N,+0148,1","99999,9,08237,1","2,1,001,1,+002,1",,,"SYN118AAXX  10181 76373 32488 70901 10224 20151 38237 40144 52001 84330 91748 333 10250 20148 31/// 56220 58002 84910 83360;",
"76373099999","2005-08-10T21:00:00","4","25.35","-105.75","1967.0","TEPEHUANES DGO., MX","FM-12","99999","V020","320,1,N,0020,1","00090,1,9,N","070000,1,N,1","+0242,1","+0144,1","10104,1",,,,,,"09,1,+00090,1,00,1","04,1,+00300,1,09,1","01,1,+03000,1,03,1","06,99,1,09,1,03,1,00450,1,02,1,01,1",,"01,9",,,,"99999,9,08215,1","7,1,022,1,+999,9",,,"SYN112AAXX  10211 76373 32488 63202 10242 20144 38215 40104 57022 84321 92050 333 30/// 56222 89003 84910 81360 81070;",
"76373099999","2005-08-11T15:00:00","4","25.35","-105.75","1967.0","TEPEHUANES DGO., MX","FM-12","99999","V020","999,9,C,0000,1","22000,1,9,N","070000,1,N,1","+0162,1","+0144,1","10144,1",,,,,,"01,1,+00600,1,06,1","01,1,+03000,1,03,1",,"03,99,1,01,1,01,1,00450,1,03,1,02,1",,"01,9",,,,"99999,9,08228,1","2,1,006,1,-008,1",,,"SYN112AAXX  11151 76373 32488 30000 10162 20144 38228 40144 52006 81132 91448 333 30/// 56222 59008 81620 81360 81070;",
"76373099999","2005-08-11T21:00:00","4","25.35","-105.75","1967.0","TEPEHUANES DGO., MX","FM-12","99999","V020","110,1,N,0030,1","03600,1,C,N","070000,1,N,1","+0256,1","+0144,1","10086,1","03,0000,9,1",,,,,"03,1,+00300,1,09,1","01,1,+03000,1,03,1",,"06,99,1,03,1,03,1,00450,1,03,1,02,1",,"01,9",,,,"99999,9,08201,1","7,1,024,1,-014,1",,,"SYN118AAXX  11211 76373 22488 61103 10256 20144 38201 40086 57024 83332 92050 333 30/// 56222 59014 69907 83910 81360 82070;","Q01  00002PRCP03"
"76373099999","2005-08-12T00:00:00","4","25.35","-105.75","1967.0","TEPEHUANES DGO., MX","FM-12","99999","V020","120,1,N,0050,1","00300,1,C,N","070000,1,N,1","+0218,1","+0136,1","10058,1","03,9999,9,9","06,9999,9,9","24,9999,9,9",,,"05,1,+00300,1,09,1",,,"08,99,1,05,1,09,1,00450,1,06,1,00,1",,"09,9",,"120,M,+0266,1","180,N,+0128,1","99999,9,08192,1","5,1,009,1,-017,1",,,"SYN142AAXX  12001 76373 02488 81205 10218 20136 38192 40058 55009 69901 85960 92350 333 10266 20128 31/// 50400 56220 59017 69907 79999 85910 82360;","Q01  99992PRCP03Q02  99992PRCP24"
"76373099999","2005-08-12T18:00:00","4","25.35","-105.75","1967.0","TEPEHUANES DGO., MX","FM-12","99999","V020","110,1,N,0020,1","22000,1,9,N","070000,1,N,1","+0238,1","+0146,1","10123,1",,,,,,"03,1,+00300,1,09,1",,,"04,99,1,03,1,03,1,00450,1,00,1,02,1",,"01,9",,"120,M,+0262,1","240,N,+0126,1","99999,9,08215,1","7,1,006,1,-010,1",,,"SYN118AAXX  12181 76373 32488 41102 10238 20146 38215 40123 57006 83302 91748 333 10262 20126 30/// 56202 59010 83910 81070;",
"76373099999","2005-08-14T03:00:00","4","25.35","-105.75","1967.0","TEPEHUANES DGO., MX","FM-12","99999","V020","180,1,N,0010,1","00600,1,9,N","010000,1,N,1","+0192,1","+0156,1","10046,1",,,,,,"06,1,+00600,1,06,1",,,"06,99,1,06,1,05,1,00800,1,00,1,00,1",,"01,9",,,,"99999,9,08188,1","4,1,000,1,+000,1",,,"SYN100AAXX  14031 76373 32560 61801 10192 20156 38188 40046 54000 86500 90245 333 30/// 56900 58000 86620;",
"76373099999","2005-08-14T06:00:00","4","25.35","-105.75","1967.0","TEPEHUANES DGO., MX","FM-12","99999","V020","270,1,N,0010,1","02100,1,9,N","010000,1,N,1","+0178,1","+0157,1","10109,1",,,,,,"05,1,+02100,1,03,1",,,"05,99,1,05,1,00,1,01750,1,03,1,00,1",,"01,9",,"240,M,+0275,1","240,N,+0154,1","99999,9,08199,1","2,1,011,1,+011,1",,,"SYN112AAXX  14061 76373 32760 52701 10178 20157 38199 40109 52011 85030 90555 333 10275 20154 30/// 56090 58011 85357;",
"76373099999","2005-08-14T12:00:00","4","25.35","-105.75","1967.0","TEPEHUANES DGO., MX","FM-12","99999","V020","290,1,N,0010,1","22000,1,9,N","010000,1,N,1","+0158,1","+0146,1","10137,1","24,0000,9,1",,,,,"01,1,+02100,1,03,1",,,"02,99,1,01,1,00,1,01750,1,03,1,01,1",,"01,9","999,+0146,1","120,N,+0150,1","240,M,+0275,1","99999,9,08248,1","9,9,999,9,+037,1",,,"SYN124AAXX  14121 76373 32760 22901 10158 20146 38248 40137 5//// 81031 91140 333 10275 20150 30146 56099 58037 70000 81357 81070;",
"76373099999","2005-08-14T15:00:00","4","25.35","-105.75","1967.0","TEPEHUANES DGO., MX","FM-12","99999","V020","999,9,C,0000,1","99999,9,9,N","070000,1,N,1","+0178,1","+0152,1","10106,1",,,,,,"01,1,+00390,1,03,1",,,"08,99,1,02,1,05,1,00450,1,00,1,00,1",,"01,9",,,,"99999,9,08208,1","0,1,014,1,-003,1",,,"SYN106AAXX  14151 76373 32488 80000 10178 20152 38208 40106 50014 82500 91445 333 30/// 56500 59003 81313 87620;",
"76373099999","2005-08-14T18:00:00","4","25.35","-105.75","1967.0","TEPEHUANES DGO., MX","FM-12","99999","V020","310,1,N,0010,1","03600,1,C,N","070000,1,N,1","+0250,1","+0140,1","10095,1",,,,,,"02,1,+00600,1,08,1",,,"05,99,1,02,1,02,1,01250,1,03,1,00,1",,"01,9",,"120,M,+0280,1","240,N,+0148,1","99999,9,08203,1","7,1,005,1,-005,1",,,"SYN118AAXX  14181 76373 32688 53101 10250 20140 38203 40095 57005 82230 91745 333 10280 20148 30/// 56660 59005 82820 83357;",
"76373099999","2005-08-15T03:00:00","4","25.35","-105.75","1967.0","TEPEHUANES DGO., MX","FM-12","99999","V020","110,1,N,0020,1","00600,1,9,N","010000,1,N,1","+0188,1","+0167,1","10051,1","15,0109,9,1","99,0110,9,1",,"2,1,03,1","2,1,03,1","08,1,+00600,1,06,1",,,"08,99,1,08,1,04,1,00800,1,00,1,00,1",,"11,9",,,,"99999,9,08200,1","2,1,014,1,+012,1",,"50,1","SYN112AAXX  15031 76373 21560 81102 10188 20167 38200 40051 52014 75022 88400 90245 333 32/// 56000 58012 60110 88620;",
"76373099999","2005-08-15T15:00:00","4","25.35","-105.75","1967.0","TEPEHUANES DGO., MX","FM-12","99999","V020","999,9,C,0000,1","22000,1,9,N","070000,1,N,1","+0188,1","+0167,1","10127,1",,,,,,"01,1,+00600,1,08,1","01,1,+03000,1,03,1",,"04,99,1,01,1,02,1,00450,1,03,1,02,1",,"09,9",,,,"99999,9,08223,1","5,1,004,1,+015,1",,,"SYN112AAXX  15151 76373 32488 40000 10188 20167 38223 40127 55004 81232 91455 333 31/// 56222 58015 81820 81360 82070;",
"76373099999","2005-08-15T21:00:00","4","25.35","-105.75","1967.0","TEPEHUANES DGO., MX","FM-12","99999","V020","100,1,N,0020,1","03600,1,C,N","070000,1,N,1","+0228,1","+0155,1","10086,1",,,,,,"02,1,+00300,1,06,1",,,"08,99,1,02,1,04,1,00450,1,02,1,00,1",,"09,9",,,,"99999,9,08207,1","5,1,009,1,+022,1",,,"SYN106AAXX  15211 76373 32488 81002 10228 20155 38207 40086 55009 82420 92057 333 31/// 56660 58022 82610 86460;",
"76373099999","2005-08-16T12:00:00","4","25.35","-105.75","1967.0","TEPEHUANES DGO., MX","FM-12","99999","V020","999,9,C,0000,1","00300,1,9,N","006000,1,N,1","+0152,1","+0149,1","10141,1","03,0060,9,1","06,0071,9,1","24,0074,9,1","6,1,06,1","5,1,06,1","08,1,+00300,1,07,1",,,"08,99,1,08,1,07,1,00450,1,99,9,99,9",,"01,9","999,+0148,1","120,N,+0150,1","240,M,+0288,1","99999,9,08232,1","9,9,999,9,+013,1",,"50,1","SYN136AAXX  16121 76373 01456 80000 10152 20149 38232 40141 5//// 60071 75065 887// 91155 333 10288 20150 30148 560// 58013 60067 70074 88710;",
"76373099999","2005-08-17T18:00:00","4","25.35","-105.75","1967.0","TEPEHUANES DGO., MX","FM-12","99999","V020","110,1,N,0020,1","22000,1,9,N","070000,1,N,1","+0250,1","+0144,1","10118,1",,,,,,"01,1,+00600,1,08,1","01,1,+03000,1,03,1",,"03,99,1,01,1,02,1,00450,1,03,1,02,1",,"01,9",,"120,M,+0270,1","240,N,+0144,1","99999,9,08220,1","7,1,005,1,-020,1",,,"SYN124AAXX  17181 76373 32488 31102 10250 20144 38220 40118 57005 81232 91750 333 10270 20144 30/// 56222 59020 81820 81360 81070;",
"76373099999","2005-08-18T00:00:00","4","25.35","-105.75","1967.0","TEPEHUANES DGO., MX","FM-12","99999","V020","090,1,N,0020,1","00300,1,C,N","070000,1,N,1","+0246,1","+0121,1","10037,1","24,0000,9,1",,,"9,1,06,1","9,1,06,1","06,1,+00300,1,09,1",,,"07,99,1,06,1,09,1,00450,1,03,1,00,1",,"01,9",,"120,M,+0304,1","180,N,+0144,1","99999,9,08188,1","7,1,012,1,-011,1",,"17,1","SYN136AAXX  18001 76373 31488 70902 10246 20121 38188 40037 57012 71799 86930 92350 333 10304 20144 30/// 50730 56220 59011 70000 86910 81360;",
"76373099999","2005-08-18T15:00:00","4","25.35","-105.75","1967.0","TEPEHUANES DGO., MX","FM-12","99999","V020","999,9,C,0000,1","22000,1,9,N","070000,1,N,1","+0182,1","+0136,1","10125,1",,,,,,"01,1,+03000,1,03,1",,,"01,99,1,01,1,00,1,01250,1,04,1,00,1",,"01,9",,,,"99999,9,08210,1","2,1,005,1,-015,1",,,"SYN100AAXX  18151 76373 32688 10000 10182 20136 38210 40125 52005 81040 91450 333 30/// 56020 59015 81360;",
"76373099999","2005-08-18T18:00:00","4","25.35","-105.75","1967.0","TEPEHUANES DGO., MX","FM-12","99999","V020","090,1,N,0030,1","06000,1,9,N","070000,1,N,1","+0266,1","+0159,1","10106,1",,,,,,"02,1,+00300,1,09,1","01,1,+03000,1,03,1","07,1,+06000,1,02,1","08,99,1,02,1,03,1,00450,1,03,1,07,1",,"01,9",,"120,M,+0288,1","240,N,+0130,1","99999,9,08210,1","4,1,000,1,-010,1",,,"SYN130AAXX  18181 76373 32488 80903 10266 20159 38210 40106 54000 82337 91745 333 10288 20130 30/// 56222 59010 82910 81360 87270 99020;",
"76373099999","2005-08-18T21:00:00","4","25.35","-105.75","1967.0","TEPEHUANES DGO., MX","FM-12","99999","V020","130,1,N,0060,1","06000,1,9,N","070000,1,N,1","+0276,1","+0126,1","10065,1",,,,,,"03,1,+00600,1,06,1","05,1,+06000,1,02,1",,"08,99,1,03,1,04,1,00450,1,00,1,07,1",,"01,9",,,,"99999,9,08190,1","6,1,020,1,-010,1",,,"SYN112AAXX  18211 76373 32488 81306 10276 20126 38190 40065 56020 83407 92050 333 30/// 56202 59010 83620 85270 99020;",
"76373099999","2005-08-19T15:00:00","4","25.35","-105.75","1967.0","TEPEHUANES DGO., MX","FM-12","99999","V020","999,9,C,0000,1","00300,1,9,N","070000,1,N,1","+0166,1","+0151,1","10125,1","15,0000,2,1","99,0002,9,1",,"1,1,03,1","1,1,03,1","05,1,+00300,1,07,1",,,"08,99,1,05,1,07,1,00450,1,06,1,00,1",,"09,9",,,,"99999,9,08222,1","2,1,018,1,+012,1",,"50,1","SYN118AAXX  19151 76373 21488 80000 10166 20151 38222 40125 52018 75011 85760 91455 333 31/// 56220 58012 69920 85710 82660;",
"76373099999","2005-08-19T18:00:00","4","25.35","-105.75","1967.0","TEPEHUANES DGO., MX","FM-12","99999","V020","300,1,N,0010,1","99999,9,9,N","070000,1,N,1","+0216,1","+0154,1","10116,1","03,0003,9,1",,,"5,1,06,1","5,1,06,1",,,,"08,99,1,99,9,99,9,00450,1,99,9,99,9",,,,,,"99999,9,08218,1","8,1,004,1,+999,9",,"01,1","SYN072AAXX  19181 76373 21488 83001 10216 20154 38218 40116 58004 69937 70155;",
"76373099999","2005-08-19T21:00:00","4","25.35","-105.75","1967.0","TEPEHUANES DGO., MX","FM-12","99999","V020","130,1,N,0040,1","22000,1,C,N","070000,1,N,1","+0274,1","+0147,1","10076,1",,,,,,"02,1,+00600,1,09,1",,,"07,99,1,02,1,03,1,00450,1,00,1,04,1",,"01,9",,,,"99999,9,08195,1","6,1,023,1,+016,1",,,"SYN106AAXX  19211 76373 32488 71304 10274 20147 38195 40076 56023 82304 92048 333 30/// 56202 58016 82920 85070;",
"76373099999","2005-08-20T00:00:00","4","25.35","-105.75","1967.0","TEPEHUANES DGO., MX","FM-12","99999","V020","310,1,N,0020,1","03000,1,C,N","070000,1,N,1","+0202,1","+0178,1","10053,1","01,0100,9,1","06,0109,9,2","24,0105,9,2","9,1,06,1","6,1,06,1","03,1,+00300,1,09,1","03,1,+03000,1,04,1",,"08,99,1,03,1,09,1,00450,1,02,1,02,1",,"11,9",,"120,M,+0294,1","180,N,+0146,1","99999,9,08188,1","5,1,007,1,+009,1",,"01,1","SYN154AAXX  20001 76373 01488 83102 10202 20178 38188 40053 55007 60111 70196 83922 92355 333 10294 20146 32/// 50530 56222 58009 60105 70105 83910 83460 82070;",
"76373099999","2005-08-20T12:00:00","4","25.35","-105.75","1967.0","TEPEHUANES DGO., MX","FM-12","99999","V020","999,9,C,0000,1","22000,1,9,N","015000,1,N,1","+0152,1","+0148,1","10118,1","24,0000,9,1",,,,,"01,1,+00600,1,06,1",,,"02,99,1,01,1,01,1,01250,1,03,1,00,1",,"01,9","999,+0132,1","120,N,+0148,1","240,M,+0294,1","99999,9,08216,1","9,9,999,9,+012,1",,,"SYN124AAXX  20121 76373 32665 20000 10152 20148 38216 40118 5//// 81130 91155 333 10294 20148 30132 56220 58012 70000 81620 81360;",
"76373099999","2005-08-20T15:00:00","4","25.35","-105.75","1967.0","TEPEHUANES DGO., MX","FM-12","99999","V020","999,9,C,0000,1","22000,1,9,N","070000,1,N,1","+0186,1","+0162,1","10139,1",,,,,,"01,1,+00600,1,08,1",,,"02,99,1,01,1,01,1,00800,1,03,1,00,1",,"01,9",,,,"99999,9,08232,1","2,1,016,1,+010,1",,,"SYN106AAXX  20151 76373 32588 20000 10186 20162 38232 40139 52016 81130 91445 333 30/// 56290 58010 81820 81358;",
"76373099999","2005-08-20T18:00:00","4","25.35","-105.75","1967.0","TEPEHUANES DGO., MX","FM-12","99999","V020","110,1,N,0030,1","22000,1,9,N","070000,1,N,1","+0252,1","+0146,1","10130,1",,,,,,"01,1,+00600,1,08,1",,,"01,99,1,01,1,01,1,00800,1,00,1,00,1",,"01,9",,"120,M,+0275,1","240,N,+0140,1","99999,9,08230,1","0,1,002,1,+012,1",,,"SYN112AAXX  20181 76373 32588 11103 10252 20146 38230 40130 50002 81100 91745 333 10275 20140 30/// 56200 58012 81820;",
"76373099999","2005-08-21T03:00:00","4","25.35","-105.75","1967.0","TEPEHUANES DGO., MX","FM-12","99999","V020","120,1,N,0010,1","22000,1,9,N","010000,1,N,1","+0210,1","+0127,1","10060,1",,,,,,"01,1,+00600,1,08,1",,,"01,99,1,01,1,01,1,00800,1,00,1,00,1",,"01,9",,,,"99999,9,08214,1","2,1,008,1,+999,9",,,"SYN100AAXX  21031 76373 32560 11201 10210 20127 38214 40060 52008 81100 90245 333 30/// 56200 58/// 81820;",
"76373099999","2005-08-21T12:00:00","4","25.35","-105.75","1967.0","TEPEHUANES DGO., MX","FM-12","99999","V020","999,9,C,0000,1","06000,1,9,N","020000,1,N,1","+0128,1","+0119,1","10120,1","24,0000,9,1",,,,,"06,1,+06000,1,00,1",,,"06,99,1,00,1,00,1,99999,9,00,1,01,1",,"01,9","999,+0105,1","120,N,+0120,1","240,M,+0300,1","99999,9,08227,1","9,9,999,9,+011,1",,,"SYN118AAXX  21121 76373 32970 60000 10128 20119 38227 40120 5//// 80001 91140 333 10300 20120 30105 56009 58011 70000 86070;",
"76373099999","2005-08-21T15:00:00","4","25.35","-105.75","1967.0","TEPEHUANES DGO., MX","FM-12","99999","V020","999,9,C,0000,1","22000,1,9,N","070000,1,N,1","+0192,1","+0138,1","10155,1",,,,,,"01,1,+06000,1,00,1",,,"01,99,1,00,1,00,1,99999,9,00,1,01,1",,"01,9",,,,"99999,9,08239,1","2,1,012,1,+007,1",,,"SYN100AAXX  21151 76373 32988 10000 10192 20138 38239 40155 52012 80001 91450 333 30/// 56009 58007 81070;",
"76373099999","2005-08-21T18:00:00","4","25.35","-105.75","1967.0","TEPEHUANES DGO., MX","FM-12","99999","V020","110,1,N,0040,1","22000,1,9,N","070000,1,N,1","+0254,1","+0145,1","10151,1",,,,,,"01,1,+00600,1,08,1",,,"02,99,1,01,1,01,1,00800,1,00,1,01,1",,"01,9",,"120,M,+0270,1","240,N,+0115,1","99999,9,08238,1","0,1,001,1,+008,1",,,"SYN118AAXX  21181 76373 32588 21104 10254 20145 38238 40151 50001 81101 91745 333 10270 20115 30/// 56209 58008 81820 81070;",
"76373099999","2005-08-22T15:00:00","4","25.35","-105.75","1967.0","TEPEHUANES DGO., MX","FM-12","99999","V020","999,9,C,0000,1","22000,1,C,N","070000,1,N,1","+0180,1","+0156,1","10127,1",,,,,,"02,1,+00600,1,08,1",,,"06,99,1,02,1,01,1,00450,1,00,1,04,1",,"09,9",,,,"99999,9,08221,1","8,1,003,1,-018,1",,,"SYN106AAXX  22151 76373 32488 60000 10180 20156 38221 40127 58003 82104 91455 333 31/// 56202 59018 82820 84070;",
"76373099999","2005-08-22T18:00:00","4","25.35","-105.75","1967.0","TEPEHUANES DGO., MX","FM-12","99999","V020","110,1,N,0030,1","09000,1,C,N","070000,1,N,1","+0244,1","+0154,1","10127,1",,,,,,"02,1,+00300,1,09,1",,,"08,99,1,02,1,03,1,00450,1,00,1,08,1",,"01,9",,"120,M,+0266,1","240,N,+0150,1","99999,9,08222,1","1,1,001,1,-016,1",,,"SYN118AAXX  22181 76373 32488 81103 10244 20154 38222 40127 51001 82308 91753 333 10266 20150 30/// 56202 59016 82910 86270;",
"76373099999","2005-08-22T21:00:00","4","25.35","-105.75","1967.0","TEPEHUANES DGO., MX","FM-12","99999","V020","130,1,N,0060,1","09000,1,C,N","070000,1,N,1","+0278,1","+0150,1","10067,2",,,,,,"03,1,+00300,1,09,1",,,"07,99,1,03,1,03,1,00450,1,00,1,02,1",,"01,9",,,,"99999,9,08196,1","6,1,026,1,-027,1",,,"SYN106AAXX  22211 76373 32488 71306 10278 20150 38196 40067 56026 83302 92045 333 30/// 56202 59027 83910 84070;",
"76373099999","2005-08-23T12:00:00","4","25.35","-105.75","1967.0","TEPEHUANES DGO., MX","FM-12","99999","V020","999,9,C,0000,1","22000,1,9,N","015000,1,N,1","+0134,1","+0124,1","10111,1","24,0000,9,1",,,,,"00,1,+99999,9,99,9",,,"00,99,1,00,1,00,1,99999,9,00,1,00,1",,"01,9","999,+0106,1","120,N,+0124,1","240,M,+0304,1","99999,9,08208,1","9,9,999,9,-016,1",,,"SYN100AAXX  23121 76373 32965 00000 10134 20124 38208 40111 5//// 91155 333 10304 20124 30106 59016 70000;","Q01  00002PRCP24"
"76373099999","2005-08-23T15:00:00","4","25.35","-105.75","1967.0","TEPEHUANES DGO., MX","FM-12","99999","V020","320,1,N,0010,1","22000,1,9,N","070000,1,N,1","+0178,1","+0145,1","10127,1",,,,,,"01,1,+06000,1,00,1",,,"01,99,1,00,1,00,1,99999,9,00,1,02,1",,"01,9",,,,"99999,9,08213,1","1,1,005,1,-008,1",,,"SYN100AAXX  23151 76373 32988 13201 10178 20145 38213 40127 51005 80002 91455 333 30/// 56002 59008 81070;",
"76373099999","2005-08-23T18:00:00","4","25.35","-105.75","1967.0","TEPEHUANES DGO., MX","FM-12","99999","V020","080,1,N,0010,1","22000,1,9,N","070000,1,N,1","+0250,1","+0154,1","10109,1",,,,,,"02,1,+00600,1,08,1",,,"03,99,1,02,1,02,1,00450,1,00,1,02,1",,"01,9",,"120,M,+0270,1","240,N,+0120,1","99999,9,08207,1","7,1,006,1,-015,1",,,"SYN118AAXX  23181 76373 32488 30801 10250 20154 38207 40109 57006 82202 91747 333 10270 20120 30/// 56202 59015 82820 81070;",
"76373099999","2005-08-23T21:00:00","4","25.35","-105.75","1967.0","TEPEHUANES DGO., MX","FM-12","99999","V020","110,1,N,0030,1","03000,1,9,N","070000,1,N,1","+0290,1","+0126,1","10060,1",,,,,,"04,1,+00600,1,03,1","01,1,+03000,1,03,1",,"06,99,1,04,1,04,1,00450,1,06,1,00,1",,"01,9",,,,"99999,9,08186,1","7,1,021,1,+010,1",,,"SYN112AAXX  23211 76373 32488 61103 10290 20126 38186 40060 57021 84460 92050 333 30/// 56222 58010 84320 81360 81070;",
"76373099999","2005-08-24T12:00:00","4","25.35","-105.75","1967.0","TEPEHUANES DGO., MX","FM-12","99999","V020","999,9,C,0000,1","22000,1,9,N","015000,1,N,1","+0128,1","+0121,1","10116,1","12,0270,9,1","24,0274,9,1",,,,"02,1,+00300,1,08,1",,,"03,99,1,03,1,01,1,00450,1,03,1,00,1",,"01,9","999,+0106,1","120,N,+0122,1","240,M,+0312,1","99999,9,08205,1","9,9,999,9,-003,1",,,"SYN136AAXX  24121 76373 02465 30000 10128 20121 38205 40116 5//// 60272 83130 91155 333 10312 20122 30106 56220 59003 60272 70274 82810 81360;",
"76373099999","2005-08-24T15:00:00","4","25.35","-105.75","1967.0","TEPEHUANES DGO., MX","FM-12","99999","V020","999,9,C,0000,1","22000,1,9,N","070000,1,N,1","+0156,1","+0131,1","10132,1",,,,,,"01,1,+03000,1,03,1",,,"02,99,1,01,1,00,1,01250,1,08,1,02,1",,"09,9",,,,"99999,9,08210,1","0,1,006,1,-003,1",,,"SYN106AAXX  24151 76373 32688 20000 10156 20131 38210 40132 50006 81082 91455 333 31/// 56022 59003 81360 81070;",
"76373099999","2005-08-24T18:00:00","4","25.35","-105.75","1967.0","TEPEHUANES DGO., MX","FM-12","99999","V020","100,1,N,0020,1","22000,1,9,N","070000,1,N,1","+0244,1","+0160,1","10116,1",,,,,,"02,1,+00600,1,08,1","01,1,+03000,1,02,1",,"04,99,1,02,1,03,1,00450,1,08,1,02,1",,"09,9",,"120,M,+0266,1","240,N,+0118,1","99999,9,08205,1","8,1,005,1,-002,1",,,"SYN124AAXX  24181 76373 32488 41002 10244 20160 38205 40116 58005 82382 91750 333 10266 20118 31/// 56222 59002 82820 81260 81070;",
"76373099999","2005-08-24T21:00:00","4","25.35","-105.75","1967.0","TEPEHUANES DGO., MX","FM-12","99999","V020","130,1,N,0060,1","03600,1,C,N","070000,1,N,1","+0276,1","+0144,1","10067,1",,,,,,"03,1,+00600,1,03,1","01,1,+03000,1,03,1",,"05,99,1,03,1,03,1,00450,1,04,1,03,1",,"01,9",,,,"99999,9,08188,1","6,1,017,1,+002,1",,,"SYN112AAXX  24211 76373 32488 51306 10276 20144 38188 40067 56017 83343 92050 333 30/// 56222 58002 83320 81360 81070;",
"76373099999","2005-08-25T00:00:00","4","25.35","-105.75","1967.0","TEPEHUANES DGO., MX","FM-12","99999","V020","070,1,N,0010,1","03600,1,9,N","070000,1,N,1","+0260,1","+0142,1","10030,1","24,0274,9,1",,,,,"02,1,+00600,1,09,1","02,1,+03000,1,03,1",,"07,99,1,02,1,03,1,00450,1,06,1,04,1",,"01,9",,"120,M,+0300,1","180,N,+0118,1","99999,9,08176,1","7,1,012,1,+006,1",,,"SYN136AAXX  25001 76373 32488 70701 10260 20142 38176 40030 57012 82364 92350 333 10300 20118 30/// 50480 56222 58006 70274 82920 82360 83070;",
"76373099999","2005-08-25T12:00:00","4","25.35","-105.75","1967.0","TEPEHUANES DGO., MX","FM-12","99999","V020","999,9,C,0000,1","22000,1,9,N","010000,1,N,1","+0138,1","+0131,1","10120,1","12,0080,9,1","24,0083,9,1",,,,"01,1,+00300,1,06,1","01,1,+03000,1,03,1",,"03,99,1,01,1,01,1,00450,1,06,1,02,1",,"01,9","999,+0102,1","120,N,+0130,1","240,M,+0300,1","99999,9,08216,1","9,9,999,9,+011,1",,,"SYN142AAXX  25121 76373 02460 30000 10138 20131 38216 40120 5//// 60082 81162 91150 333 10300 20130 30102 56222 58011 60082 70083 81610 81360 81070;",
"76373099999","2005-08-25T15:00:00","4","25.35","-105.75","1967.0","TEPEHUANES DGO., MX","FM-12","99999","V020","330,1,N,0020,1","22000,1,9,N","070000,1,N,1","+0154,1","+0141,1","10141,1","03,0001,9,1",,,,,"02,1,+03000,1,03,1",,,"04,99,1,02,1,00,1,01250,1,03,1,02,1",,"09,9",,,,"99999,9,08225,1","0,1,009,1,+015,1",,,"SYN112AAXX  25151 76373 22688 43302 10154 20141 38225 40141 50009 82032 91455 333 31/// 56022 58015 69917 82360 82070;",
"76373099999","2005-08-25T18:00:00","4","25.35","-105.75","1967.0","TEPEHUANES DGO., MX","FM-12","99999","V020","090,1,N,0010,1","22000,1,9,N","070000,1,N,1","+0240,1","+0155,1","10127,1",,,,,,"01,1,+00600,1,08,1",,,"02,99,1,01,1,02,1,00450,1,00,1,01,1",,"09,9",,"120,M,+0264,1","240,N,+0130,1","99999,9,08220,1","8,1,005,1,+015,1",,,"SYN118AAXX  25181 76373 32488 20901 10240 20155 38220 40127 58005 81201 91750 333 10264 20130 31/// 56202 58015 81820 81070;",
"76373099999","2005-08-25T21:00:00","4","25.35","-105.75","1967.0","TEPEHUANES DGO., MX","FM-12","99999","V020","130,1,N,0040,1","22000,1,9,N","070000,1,N,1","+0272,1","+0146,1","10090,1",,,,,,"03,1,+00600,1,09,1",,,"04,99,1,03,1,03,1,00450,1,00,1,02,1",,"01,9",,,,"99999,9,08208,1","7,1,012,1,+020,1",,,"SYN106AAXX  25211 76373 32488 41304 10272 20146 38208 40090 57012 83302 92045 333 30/// 56202 58020 83920 81070;",
"76373099999","2005-08-26T12:00:00","4","25.35","-105.75","1967.0","TEPEHUANES DGO., MX","FM-12","99999","V020","999,9,C,0000,1","00420,1,C,N","010000,1,N,1","+0150,1","+0144,1","10116,1","24,0000,9,1",,,,,"04,1,+00600,1,06,1",,,"07,99,1,05,1,05,1,00450,1,03,1,00,1",,"01,9","999,+0130,1","120,N,+0140,1","240,M,+0298,1","99999,9,08225,1","9,9,999,9,+009,1",,,"SYN124AAXX  26121 76373 32460 70000 10150 20144 38225 40116 5//// 85530 91152 333 10298 20140 30130 56220 58009 70000 84620 83360;",
"76373099999","2005-08-27T12:00:00","4","25.35","-105.75","1967.0","TEPEHUANES DGO., MX","FM-12","99999","V020","999,9,C,0000,1","22000,1,9,N","020000,1,N,1","+0151,1","+0145,1","10113,1","06,0020,9,1","12,0020,9,2","24,0018,9,2",,,"02,1,+03000,1,03,1",,,"02,99,1,02,1,00,1,01250,1,04,1,00,1",,"01,9","999,+0132,1","120,N,+0144,1","240,M,+0302,1","99999,9,08209,1","9,9,999,9,-016,1",,,"SYN130AAXX  27121 76373 02670 20000 10151 20145 38209 40113 5//// 60022 82040 91155 333 10302 20144 30132 56020 59016 60021 70018 82360;",
"76373099999","2005-08-27T15:00:00","4","25.35","-105.75","1967.0","TEPEHUANES DGO., MX","FM-12","99999","V020","310,1,N,0020,1","22000,1,9,N","070000,1,N,1","+0184,1","+0151,1","10132,1",,,,,,"01,1,+03000,1,03,1",,,"01,99,1,01,1,00,1,01750,1,03,1,00,1",,"01,9",,,,"99999,9,08225,1","2,1,016,1,-005,1",,,"SYN100AAXX  27151 76373 32788 13102 10184 20151 38225 40132 52016 81030 91445 333 30/// 56020 59005 81360;",
"76373099999","2005-08-27T18:00:00","4","25.35","-105.75","1967.0","TEPEHUANES DGO., MX","FM-12","99999","V020","320,1,N,0010,1","22000,1,9,N","070000,1,N,1","+0254,1","+0150,1","10123,1",,,,,,"01,1,+00600,1,08,1",,,"01,99,1,01,1,01,1,00800,1,00,1,00,1",,"01,9",,"120,M,+0280,1","240,N,+0140,1","99999,9,08221,1","7,1,004,1,-004,1",,,"SYN112AAXX  27181 76373 32588 13201 10254 20150 38221 40123 57004 81100 91745 333 10280 20140 30/// 56200 59004 81820;",
"76373099999","2005-08-30T15:00:00","4","25.35","-105.75","1967.0","TEPEHUANES DGO., MX","FM-12","99999","V020","999,9,C,0000,1","22000,1,9,N","070000,1,N,1","+0166,1","+0140,1","10113,1",,,,,,"01,1,+00300,1,08,1",,,"04,99,1,01,1,01,1,00450,1,03,1,00,1",,"01,9",,,,"99999,9,08206,1","2,1,011,1,+008,1",,,"SYN106AAXX  30151 76373 32488 40000 10166 20140 38206 40113 52011 81130 91450 333 30/// 56220 58008 81810 83360;",
"76373099999","2005-08-30T21:00:00","4","25.35","-105.75","1967.0","TEPEHUANES DGO., MX","FM-12","99999","V020","030,1,N,0010,1","00600,1,9,N","070000,1,N,1","+0266,1","+0109,1","10065,1",,,,,,"05,1,+00600,1,09,1",,,"07,99,1,05,1,09,1,00250,1,03,1,00,1",,"09,9",,,,"99999,9,08187,1","6,1,019,1,+021,1",,,"SYN106AAXX  30211 76373 32388 70301 10266 20109 38187 40065 56019 85930 92050 333 31/// 56220 58021 85920 82360;",
"76373099999","2005-08-31T03:00:00","4","25.35","-105.75","1967.0","TEPEHUANES DGO., MX","FM-12","99999","V020","999,9,C,0000,1","03000,1,9,N","010000,1,N,1","+0184,1","+0118,1","10055,1",,,,,,"08,1,+03000,1,03,1",,,"08,99,1,99,9,00,1,01250,1,06,1,00,1",,"01,9",,,,"99999,9,08194,1","2,1,009,1,+010,1",,,"SYN100AAXX  31031 76373 32660 80000 10184 20118 38194 40055 52009 86060 90235 333 30/// 56020 58010 88360;",
"76373099999","2005-08-31T12:00:00","4","25.35","-105.75","1967.0","TEPEHUANES DGO., MX","FM-12","99999","V020","999,9,C,0000,1","22000,1,9,N","010000,1,N,1","+0134,1","+0118,1","10113,1","24,0000,9,1",,,,,"00,1,+99999,9,99,9",,,"00,99,1,00,1,00,1,99999,9,00,1,00,1",,"01,9","999,+0112,1","120,N,+0130,1","240,M,+0300,1","99999,9,08203,1","9,9,999,9,+008,1",,,"SYN100AAXX  31121 76373 32960 00000 10134 20118 38203 40113 5//// 91155 333 10300 20130 30112 58008 70000;","Q01  00002PRCP24"
"76373099999","2005-08-31T15:00:00","4","25.35","-105.75","1967.0","TEPEHUANES DGO., MX","FM-12","99999","V020","310,1,N,0010,1","22000,1,9,N","070000,1,N,1","+0166,1","+0138,1","10134,1",,,,,,"03,1,+00600,1,08,1",,,"03,99,1,03,1,01,1,00450,1,00,1,00,1",,"01,9",,,,"99999,9,08212,1","2,1,009,1,+006,1",,,"SYN100AAXX  31151 76373 32488 33101 10166 20138 38212 40134 52009 83100 91455 333 30/// 56200 58006 83820;",
"76373099999","2005-08-31T18:00:00","4","25.35","-105.75","1967.0","TEPEHUANES DGO., MX","FM-12","99999","V020","100,1,N,0010,1","22000,1,9,N","070000,1,N,1","+0246,1","+0135,1","10116,1",,,,,,"02,1,+00300,1,08,1",,,"03,99,1,02,1,01,1,00450,1,04,1,00,1",,"01,9",,"120,M,+0270,1","240,N,+0116,1","99999,9,08207,1","6,1,005,1,+001,1",,,"SYN118AAXX  31181 76373 32488 31001 10246 20135 38207 40116 56005 82140 91755 333 10270 20116 30/// 56220 58001 82810 81360;",
"76373099999","2005-09-01T18:00:00","4","25.35","-105.75","1967.0","TEPEHUANES DGO., MX","FM-12","99999","V020","130,1,N,0030,1","22000,1,9,N","070000,1,N,1","+0254,1","+0131,1","10130,1",,,,,,"02,1,+00600,1,08,1","01,1,+03000,1,03,1",,"04,99,1,02,1,02,1,00450,1,03,1,01,1",,"01,9",,"120,M,+0274,1","240,N,+0084,1","99999,9,08211,1","8,1,004,1,+006,1",,,"SYN124AAXX  01181 76373 32488 41303 10254 20131 38211 40130 58004 82231 91750 333 10274 20084 30/// 56229 58006 82820 81360 81070;",
"76373099999","2005-09-01T21:00:00","4","25.35","-105.75","1967.0","TEPEHUANES DGO., MX","FM-12","99999","V020","130,1,N,0030,1","00600,1,9,N","070000,1,N,1","+0266,1","+0116,1","10093,1",,,,,,"05,1,+00600,1,09,1",,,"06,99,1,05,1,03,1,00250,1,03,1,00,1",,"01,9",,,,"99999,9,08200,1","6,1,011,1,+014,1",,,"SYN106AAXX  01211 76373 32388 61303 10266 20116 38200 40093 56011 85330 92050 333 30/// 56220 58014 85920 81360;",
"76373099999","2005-09-02T03:00:00","4","25.35","-105.75","1967.0","TEPEHUANES DGO., MX","FM-12","99999","V020","140,1,N,0020,1","03000,1,9,N","010000,1,N,1","+0198,1","+0123,1","10046,1",,,,,,"08,1,+03000,1,03,1",,,"08,99,1,08,1,00,1,00250,1,06,1,00,1",,"01,9",,,,"99999,9,08195,1","2,1,011,1,+006,1",,,"SYN100AAXX  02031 76373 32360 81402 10198 20123 38195 40046 52011 88060 90245 333 30/// 56020 58006 88360;",
"76373099999","2005-09-02T18:00:00","4","25.35","-105.75","1967.0","TEPEHUANES DGO., MX","FM-12","99999","V020","110,1,N,0050,1","03600,1,C,N","070000,1,N,1","+0216,1","+0141,1","10125,1",,,,,,"03,1,+00300,1,08,1",,,"07,99,1,03,1,03,1,00450,1,03,1,00,1",,"01,9",,"120,M,+0240,1","240,N,+0150,1","99999,9,08223,1","1,1,004,1,+012,1",,,"SYN118AAXX  02181 76373 32488 71105 10216 20141 38223 40125 51004 83330 91755 333 10240 20150 30/// 56220 58012 83810 84360;",
"76373099999","2005-09-02T21:00:00","4","25.35","-105.75","1967.0","TEPEHUANES DGO., MX","FM-12","99999","V020","110,1,N,0030,1","22000,1,C,N","070000,1,N,1","+0250,1","+0140,1","10086,1",,,,,,"03,1,+00600,1,03,1",,,"08,99,1,03,1,03,1,00450,1,00,1,04,1",,"01,9",,,,"99999,9,08203,1","7,1,020,1,+003,1",,,"SYN106AAXX  02211 76373 32488 81103 10250 20140 38203 40086 57020 83304 92045 333 30/// 56202 58003 83320 85070;",
"76373099999","2005-09-03T12:00:00","4","25.35","-105.75","1967.0","TEPEHUANES DGO., MX","FM-12","99999","V020","999,9,C,0000,1","00300,1,9,N","006000,1,N,1","+0158,1","+0155,1","10139,1","03,0310,9,1","06,0310,9,1","24,0310,9,1","6,1,06,1","5,1,06,1","08,1,+00300,1,07,1",,,"08,99,1,08,1,07,1,00450,1,99,9,99,9",,"01,9","999,+0142,1","120,N,+0144,1","240,M,+0283,1","99999,9,08233,1","9,9,999,9,+025,1",,"50,1","SYN136AAXX  03121 76373 01456 80000 10158 20155 38233 40139 5//// 60311 75065 887// 91155 333 10283 20144 30142 562// 58025 60317 70310 88710;",
"76373099999","2005-09-03T15:00:00","4","25.35","-105.75","1967.0","TEPEHUANES DGO., MX","FM-12","99999","V020","999,9,C,0000,1","00420,1,C,N","010000,1,N,1","+0170,1","+0162,1","10165,1","03,0000,2,1",,,"5,1,03,1","2,1,03,1","02,1,+00300,1,07,1",,,"08,99,1,08,1,07,1,00450,1,00,1,00,1",,"01,9",,,,"99999,9,08252,1","2,1,019,1,+033,1",,"02,1","SYN118AAXX  03151 76373 21460 80000 10170 20162 38252 40165 52019 70252 88700 91445 333 30/// 56200 58033 69907 82710 86620;",
"76373099999","2005-09-03T18:00:00","4","25.35","-105.75","1967.0","TEPEHUANES DGO., MX","FM-12","99999","V020","120,1,N,0030,1","22000,1,9,N","070000,1,N,1","+0234,1","+0158,1","10148,1",,,,,,"02,1,+00600,1,08,1",,,"02,99,1,02,1,01,1,00800,1,03,1,00,1",,"01,9",,"120,M,+0258,1","240,N,+0144,1","99999,9,08247,1","7,1,005,1,+024,1",,,"SYN118AAXX  03181 76373 32588 21203 10234 20158 38247 40148 57005 82130 91745 333 10258 20144 30/// 56220 58024 82820 81358;",
"76373099999","2005-09-04T03:00:00","4","25.35","-105.75","1967.0","TEPEHUANES DGO., MX","FM-12","99999","V020","999,9,C,0000,1","22000,1,9,N","010000,1,N,1","+0204,1","+0160,1","10074,1",,,,,,"00,1,+99999,9,99,9",,,"00,99,1,00,1,00,1,99999,9,00,1,00,1",,"01,9",,,,"99999,9,08219,1","2,1,007,1,+999,9",,,"SYN082AAXX  04031 76373 32960 00000 10204 20160 38219 40074 52007 90245 333 30/// 58///;",
"76373099999","2005-09-04T06:00:00","4","25.35","-105.75","1967.0","TEPEHUANES DGO., MX","FM-12","99999","V020","320,1,N,0020,1","22000,1,9,N","010000,1,N,1","+0186,1","+0163,1","10095,1",,,,,,"00,1,+99999,9,99,9",,,"00,99,1,00,1,00,1,99999,9,00,1,00,1","0480,9","01,9",,"240,M,+0290,1","240,N,+0144,1","99999,9,08231,1","2,1,012,1,+999,9",,,"SYN100AAXX  04061 76373 32960 03202 10186 20163 38231 40095 52012 90545 333 10290 20144 30/// 55080 58///;",
"76373099999","2005-09-04T12:00:00","4","25.35","-105.75","1967.0","TEPEHUANES DGO., MX","FM-12","99999","V020","999,9,C,0000,1","22000,1,9,N","010000,1,N,1","+0154,1","+0148,1","10125,1","06,0051,9,1",,,"6,1,06,1","1,1,06,1",,,,"03,99,1,99,9,99,9,00800,1,99,9,99,9",,,,,,"99999,9,08232,1",,,"01,1","SYN072AAXX  04121 76373 11560 30000 10154 20148 38232 40125 5//// 60051 70161;",
"76373099999","2005-09-04T15:00:00","4","25.35","-105.75","1967.0","TEPEHUANES DGO., MX","FM-12","99999","V020","320,1,N,0020,1","22000,1,9,N","070000,1,N,1","+0176,1","+0155,1","10146,1",,,,,,"04,1,+00600,1,06,1",,,"04,99,1,04,1,05,1,00800,1,00,1,00,1",,"01,9",,,,"99999,9,08242,1","2,1,010,1,-010,1",,,"SYN100AAXX  04151 76373 32588 43202 10176 20155 38242 40146 52010 84500 91445 333 30/// 56200 59010 84620;",
"76373099999","2005-09-04T18:00:00","4","25.35","-105.75","1967.0","TEPEHUANES DGO., MX","FM-12","99999","V020","120,1,N,0040,1","22000,1,9,N","070000,1,N,1","+0244,1","+0154,1","10139,1",,,,,,"03,1,+00600,1,06,1",,,"03,99,1,03,1,04,1,00800,1,00,1,00,1",,"01,9",,"120,M,+0268,1","240,N,+0145,1","99999,9,08240,1","0,1,002,1,-007,1",,,"SYN112AAXX  04181 76373 32588 31204 10244 20154 38240 40139 50002 83400 91745 333 10268 20145 30/// 56200 59007 83620;",
"76373099999","2005-09-04T21:00:00","4","25.35","-105.75","1967.0","TEPEHUANES DGO., MX","FM-12","99999","V020","120,1,N,0060,1","00600,1,9,N","070000,1,N,1","+0272,1","+0157,1","10104,1",,,,,,"05,1,+00600,1,06,1",,,"05,99,1,05,1,04,1,00800,1,00,1,00,1",,"01,9",,,,"99999,9,08225,1","7,1,015,1,-004,1",,,"SYN100AAXX  04211 76373 32588 51206 10272 20157 38225 40104 57015 85400 92045 333 30/// 56200 59004 85620;",
"76373099999","2005-09-05T00:00:00","4","25.35","-105.75","1967.0","TEPEHUANES DGO., MX","FM-12","99999","V020","130,1,N,0040,1","00600,1,C,N","070000,1,N,1","+0254,1","+0145,1","10072,1","24,0045,9,1",,,,,"05,1,+00600,1,06,1",,,"06,99,1,05,1,04,1,00800,1,00,1,01,1",,"01,9",,"120,M,+0295,1","180,N,+0145,1","99999,9,08212,1","7,1,013,1,+000,1",,,"SYN130AAXX  05001 76373 32588 61304 10254 20145 38212 40072 57013 85401 92350 333 10295 20145 30/// 50570 56202 58000 70045 85620 81070;",
"76373099999","2005-09-05T03:00:00","4","25.35","-105.75","1967.0","TEPEHUANES DGO., MX","FM-12","99999","V020","320,1,N,0020,1","22000,1,9,N","010000,1,N,1","+0192,1","+0170,1","10081,1",,,,,,"01,1,+00600,1,06,1",,,"02,99,1,01,1,04,1,00800,1,00,1,01,1",,"01,9",,,,"99999,9,08224,1","2,1,012,1,+005,1",,,"SYN106AAXX  05031 76373 32560 23202 10192 20170 38224 40081 52012 81401 90245 333 30/// 56202 58005 81620 81070;",
"76373099999","2005-09-05T12:00:00","4","25.35","-105.75","1967.0","TEPEHUANES DGO., MX","FM-12","99999","V020","999,9,C,0000,1","00900,1,9,N","010000,1,N,1","+0154,1","+0148,1","10134,1","24,0000,9,1",,,,,"06,1,+00900,1,06,1",,,"06,99,1,06,1,05,1,00800,1,00,1,00,1",,"01,9","999,+0135,1","120,N,+0142,1","240,M,+0295,1","99999,9,08232,1","9,9,999,9,+000,1",,,"SYN118AAXX  05121 76373 32560 60000 10154 20148 38232 40134 5//// 86500 91140 333 10295 20142 30135 56200 58000 70000 86630;",
"76373099999","2005-09-05T15:00:00","4","25.35","-105.75","1967.0","TEPEHUANES DGO., MX","FM-12","99999","V020","999,9,C,0000,1","03600,1,C,N","070000,1,N,1","+0174,1","+0157,1","10148,1",,,,,,"02,1,+00600,1,09,1",,,"08,99,1,02,1,03,1,00450,1,03,1,00,1",,"01,9",,,,"99999,9,08236,1","2,1,004,1,+006,1",,,"SYN106AAXX  05151 76373 32488 80000 10174 20157 38236 40148 52004 82330 91448 333 30/// 56220 58006 82920 86360;",
"76373099999","2005-09-05T18:00:00","4","25.35","-105.75","1967.0","TEPEHUANES DGO., MX","FM-12","99999","V020","110,1,N,0020,1","03600,1,C,N","070000,1,N,1","+0238,1","+0163,1","10139,1",,,,,,"04,1,+00300,1,09,1",,,"05,99,1,04,1,03,1,00450,1,03,1,00,1",,"01,9",,"120,M,+0266,1","240,N,+0142,1","99999,9,08235,1","8,1,001,1,-005,1",,,"SYN118AAXX  05181 76373 32488 51102 10238 20163 38235 40139 58001 84330 91755 333 10266 20142 30/// 56220 59005 84910 81360;",
"76373099999","2005-09-06T12:00:00","4","25.35","-105.75","1967.0","TEPEHUANES DGO., MX","FM-12","99999","V020","999,9,C,0000,1","22000,1,9,N","010000,1,N,1","+0146,1","+0145,1","10127,1","06,0005,9,1","12,0005,9,1","24,0005,9,1",,,"00,1,+99999,9,99,9",,,"00,99,1,00,1,00,1,99999,9,00,1,00,1",,"01,9","999,+0132,1","120,N,+0138,1","240,M,+0294,1","99999,9,08225,1","9,9,999,9,-011,1",,,"SYN112AAXX  06121 76373 02960 00000 10146 20145 38225 40127 5//// 69952 91148 333 10294 20138 30132 59011 69951 70005;",
"76373099999","2005-09-06T18:00:00","4","25.35","-105.75","1967.0","TEPEHUANES DGO., MX","FM-12","99999","V020","110,1,N,0030,1","22000,1,9,N","070000,1,N,1","+0246,1","+0152,1","10134,1",,,,,,"03,1,+00300,1,09,1",,,"03,99,1,03,1,03,1,00450,1,00,1,00,1",,"01,9",,"120,M,+0268,1","240,N,+0134,1","99999,9,08234,1","6,1,002,1,-001,1",,,"SYN112AAXX  06181 76373 32488 31103 10246 20152 38234 40134 56002 83300 91755 333 10268 20134 30/// 56200 59001 83910;",
"76373099999","2005-09-07T00:00:00","4","25.35","-105.75","1967.0","TEPEHUANES DGO., MX","FM-12","99999","V020","120,1,N,0040,1","22000,1,9,N","070000,1,N,1","+0252,1","+0129,1","10078,1","24,9999,9,9",,,,,,,,"03,99,1,03,1,02,1,00250,1,00,1,00,1",,"01,9",,"120,M,+0298,1","180,N,+0134,1","99999,9,08216,1","6,1,006,1,+013,1",,,"SYN124AAXX  07001 76373 32388 31204 10252 20129 38216 40078 56006 83200 92345 333 10298 20134 30/// 50410 56200 58013 79999 83220;","Q01  99992PRCP24"
"76373099999","2005-09-07T03:00:00","4","25.35","-105.75","1967.0","TEPEHUANES DGO., MX","FM-12","99999","V020","240,1,N,0010,1","03000,1,9,N","010000,1,N,1","+0200,1","+0130,1","10069,1",,,,,,"06,1,+03000,1,03,1",,,"06,99,1,06,1,00,1,01250,1,06,1,00,1",,"01,9",,,,"99999,9,08215,1","6,1,001,1,+000,1",,,"SYN100AAXX  07031 76373 32660 62401 10200 20130 38215 40069 56001 86060 90250 333 30/// 56020 58000 86360;",
"76373099999","2005-09-07T12:00:00","4","25.35","-105.75","1967.0","TEPEHUANES DGO., MX","FM-12","99999","V020","999,9,C,0000,1","22000,1,9,N","010000,1,N,1","+0124,1","+0117,1","10137,1","24,0000,9,1",,,,,"00,1,+99999,9,99,9",,,"00,99,1,00,1,00,1,99999,9,00,1,00,1",,"01,9","999,+0100,1","120,N,+0120,1","240,M,+0298,1","99999,9,08230,1","9,9,999,9,+005,1",,,"SYN100AAXX  07121 76373 32960 00000 10124 20117 38230 40137 5//// 91155 333 10298 20120 30100 58005 70000;","Q01  00002PRCP24"
"76373099999","2005-09-07T18:00:00","4","25.35","-105.75","1967.0","TEPEHUANES DGO., MX","FM-12","99999","V020","150,1,N,0020,1","00300,1,9,N","070000,1,N,1","+0234,1","+0116,1","10148,1",,,,,,"05,1,+00300,1,08,1",,,"05,99,1,05,1,02,1,00450,1,00,1,00,1",,"01,9",,"120,M,+0264,1","240,N,+0112,1","99999,9,08235,1","8,1,003,1,+001,1",,,"SYN112AAXX  07181 76373 32488 51502 10234 20116 38235 40148 58003 85200 91748 333 10264 20112 30/// 56200 58001 85810;",
"76373099999","2005-09-08T06:00:00","4","25.35","-105.75","1967.0","TEPEHUANES DGO., MX","FM-12","99999","V020","999,9,C,0000,1","03000,1,9,N","010000,1,N,1","+0168,1","+0118,1","10099,1",,,,,,"06,1,+03000,1,03,1",,,"06,99,1,06,1,00,1,01250,1,03,1,00,1",,"01,9",,"240,M,+0288,1","240,N,+0112,1","99999,9,08236,1","2,1,010,1,+999,9",,,"SYN112AAXX  08061 76373 32660 60000 10168 20118 38236 40099 52010 86030 90540 333 10288 20112 30/// 56020 58/// 86360;",
"76373099999","2005-09-08T12:00:00","4","25.35","-105.75","1967.0","TEPEHUANES DGO., MX","FM-12","99999","V020","250,1,N,0010,1","22000,1,9,N","015000,1,N,1","+0114,1","+0100,1","10146,1","24,0000,9,1",,,,,"00,1,+99999,9,99,9",,,"00,99,1,00,1,00,1,99999,9,00,1,00,1",,"01,9","999,+0080,1","120,N,+0105,1","240,M,+0288,1","99999,9,08233,1","9,9,999,9,+003,1",,,"SYN100AAXX  08121 76373 32965 02501 10114 20100 38233 40146 5//// 91150 333 10288 20105 30080 58003 70000;","Q01  00002PRCP24"
"76373099999","2005-09-08T15:00:00","4","25.35","-105.75","1967.0","TEPEHUANES DGO., MX","FM-12","99999","V020","290,1,N,0010,1","22000,1,9,N","070000,1,N,1","+0148,1","+0116,1","10164,1",,,,,,"01,1,+00300,1,08,1",,,"01,99,1,01,1,02,1,00450,1,00,1,00,1",,"01,9",,,,"99999,9,08240,1","2,1,007,1,+002,1",,,"SYN100AAXX  08151 76373 32488 12901 10148 20116 38240 40164 52007 81200 91452 333 30/// 56200 58002 81810;",
"76373099999","2005-09-08T18:00:00","4","25.35","-105.75","1967.0","TEPEHUANES DGO., MX","FM-12","99999","V020","120,1,N,0030,1","22000,1,9,N","070000,1,N,1","+0238,1","+0129,1","10155,1",,,,,,"04,1,+00300,1,08,1",,,"04,99,1,04,1,02,1,00450,1,00,1,00,1",,"01,9",,"120,M,+0260,1","240,N,+0098,1","99999,9,08238,1","6,1,002,1,+003,1",,,"SYN112AAXX  08181 76373 32488 41203 10238 20129 38238 40155 56002 84200 91748 333 10260 20098 30/// 56200 58003 84810;",
"76373099999","2005-09-09T03:00:00","4","25.35","-105.75","1967.0","TEPEHUANES DGO., MX","FM-12","99999","V020","999,9,C,0000,1","03000,1,9,N","010000,1,N,1","+0196,1","+0118,1","10074,1",,,,,,"06,1,+03000,1,03,1",,,"06,99,1,06,1,00,1,01250,1,06,1,00,1",,"01,9",,,,"99999,9,08213,1","2,1,004,1,-013,1",,,"SYN100AAXX  09031 76373 32660 60000 10196 20118 38213 40074 52004 86060 90250 333 30/// 56020 59013 86360;",
"76373099999","2005-09-09T12:00:00","4","25.35","-105.75","1967.0","TEPEHUANES DGO., MX","FM-12","99999","V020","999,9,C,0000,1","03000,1,9,N","015000,1,N,1","+0122,1","+0108,1","10132,1","24,0000,9,1",,,,,"05,1,+03000,1,03,1",,,"05,99,1,05,1,00,1,01250,1,03,1,00,1",,"01,9","999,+0088,1","120,N,+0108,1","240,M,+0276,1","99999,9,08223,1","9,9,999,9,-015,1",,,"SYN118AAXX  09121 76373 32665 50000 10122 20108 38223 40132 5//// 85030 91150 333 10276 20108 30088 56020 59015 70000 85360;",
"76373099999","2005-09-09T15:00:00","4","25.35","-105.75","1967.0","TEPEHUANES DGO., MX","FM-12","99999","V020","999,9,C,0000,1","22000,1,9,N","070000,1,N,1","+0155,1","+0136,1","10151,1",,,,,,"04,1,+03000,1,03,1",,,"04,99,1,04,1,00,1,01250,1,03,1,00,1",,"01,9",,,,"99999,9,08227,1","1,1,004,1,-013,1",,,"SYN100AAXX  09151 76373 32688 40000 10155 20136 38227 40151 51004 84030 91448 333 30/// 56020 59013 84360;",
"76373099999","2005-09-09T18:00:00","4","25.35","-105.75","1967.0","TEPEHUANES DGO., MX","FM-12","99999","V020","090,1,N,0040,1","22000,1,9,N","070000,1,N,1","+0242,1","+0122,1","10148,1",,,,,,"02,1,+00300,1,09,1",,,"02,99,1,02,1,03,1,00450,1,00,1,00,1",,"01,9",,"120,M,+0264,1","240,N,+0108,1","99999,9,08225,1","8,1,002,1,-013,1",,,"SYN112AAXX  09181 76373 32488 20904 10242 20122 38225 40148 58002 82300 91748 333 10264 20108 30/// 56200 59013 82910;",
"76373099999","2005-09-09T21:00:00","4","25.35","-105.75","1967.0","TEPEHUANES DGO., MX","FM-12","99999","V020","090,1,N,0020,1","03600,1,C,N","070000,1,N,1","+0272,1","+0108,1","10088,2",,,,,,"04,1,+00600,1,09,1",,,"05,99,1,04,1,03,1,00450,1,06,1,00,1",,"01,9",,,,"99999,9,08199,1","7,1,026,1,-019,1",,,"SYN106AAXX  09211 76373 32488 50902 10272 20108 38199 40088 57026 84360 92050 333 30/// 56220 59019 84920 81360;",
"76373099999","2005-09-10T03:00:00","4","25.35","-105.75","1967.0","TEPEHUANES DGO., MX","FM-12","99999","V020","330,1,N,0010,1","00300,1,9,N","000500,1,N,1","+0164,1","+0149,1","10086,1","03,0010,9,1",,,"9,1,03,1","6,1,03,1","08,1,+00300,1,06,1",,,"08,99,1,08,1,07,1,00250,1,99,9,99,9",,"09,9",,,,"99999,9,08219,1","2,1,019,1,+006,1",,"50,1","SYN112AAXX  10031 76373 11305 83301 10164 20149 38219 40086 52019 60017 75096 887// 90235 333 31/// 562// 58006 88610;",
"76373099999","2005-09-10T12:00:00","4","25.35","-105.75","1967.0","TEPEHUANES DGO., MX","FM-12","99999","V020","260,1,N,0020,1","22000,1,9,N","015000,1,N,1","+0130,1","+0123,1","10123,1","24,0015,9,1",,,,,"00,1,+99999,9,99,9",,,"00,99,1,00,1,00,1,99999,9,00,1,00,1",,"01,9","999,+0110,1","120,N,+0120,1","240,M,+0296,1","99999,9,08218,1","9,9,999,9,-005,1",,,"SYN100AAXX  10121 76373 32965 02602 10130 20123 38218 40123 5//// 91150 333 10296 20120 30110 59005 70014;",
"76373099999","2005-09-10T15:00:00","4","25.35","-105.75","1967.0","TEPEHUANES DGO., MX","FM-12","99999","V020","999,9,C,0000,1","22000,1,9,N","030000,1,N,1","+0164,1","+0133,1","10155,1",,,,,,"00,1,+99999,9,99,9",,,"00,99,1,00,1,00,1,99999,9,00,1,00,1",,"01,9",,,,"99999,9,08232,1","2,1,014,1,+005,1",,,"SYN082AAXX  10151 76373 32980 00000 10164 20133 38232 40155 52014 91450 333 30/// 58005;",
"76373099999","2005-09-10T21:00:00","4","25.35","-105.75","1967.0","TEPEHUANES DGO., MX","FM-12","99999","V020","120,1,N,0020,1","22000,1,9,N","018000,1,N,1","+0275,1","+0116,1","10083,1",,,,,,"01,1,+00600,1,09,1",,,"02,99,1,02,1,09,1,00800,1,00,1,00,1",,"01,9",,,,"99999,9,08199,1","7,1,029,1,+000,1",,,"SYN106AAXX  10211 76373 32568 21202 10275 20116 38199 40083 57029 82900 92045 333 30/// 56200 58000 81920 81820;",
"76373099999","2005-09-11T12:00:00","4","25.35","-105.75","1967.0","TEPEHUANES DGO., MX","FM-12","99999","V020","999,9,C,0000,1","22000,1,9,N","010000,1,N,1","+0134,1","+0131,1","10146,1","24,0000,9,1",,,,,"01,1,+00600,1,08,1",,,"01,99,1,01,1,01,1,00800,1,00,1,00,1",,"01,9","999,+0110,1","120,N,+0125,1","240,M,+0302,1","99999,9,08233,1","9,9,999,9,+015,1",,,"SYN118AAXX  11121 76373 32560 10000 10134 20131 38233 40146 5//// 81100 91145 333 10302 20125 30110 56200 58015 79999 81820;","Q01  00002PRCP24"
"76373099999","2005-09-12T03:00:00","4","25.35","-105.75","1967.0","TEPEHUANES DGO., MX","FM-12","99999","V020","270,1,N,0010,1","00900,1,9,N","010000,1,N,1","+0186,1","+0148,1","10083,1","03,0000,9,1",,,"5,1,03,1","2,1,03,1","07,1,+00900,1,06,1",,,"07,99,1,07,1,05,1,00800,1,00,1,00,1",,"01,9",,,,"99999,9,08222,1","2,1,012,1,+004,1",,"01,1","SYN112AAXX  12031 76373 21560 72701 10186 20148 38222 40083 52012 70152 87500 90245 333 30/// 56900 58004 69907 87630;","Q01  00002PRCP03"
"76373099999","2005-09-12T06:00:00","4","25.35","-105.75","1967.0","TEPEHUANES DGO., MX","FM-12","99999","V020","230,1,N,0010,1","00750,1,9,N","010000,1,N,1","+0174,1","+0147,1","10086,1",,,,,,,,,"06,99,1,06,1,05,1,00800,1,00,1,00,1","0480,9","01,9",,"240,M,+0315,1","240,N,+0120,1","99999,9,08234,1","2,1,012,1,+004,1",,,"SYN118AAXX  12061 76373 32560 62301 10174 20147 38234 40086 52012 86500 90545 333 10315 20120 30/// 55080 56200 58004 86630;",
"76373099999","2005-09-12T12:00:00","4","25.35","-105.75","1967.0","TEPEHUANES DGO., MX","FM-12","99999","V020","999,9,C,0000,1","22000,1,9,N","010000,1,N,1","+0134,1","+0131,1","10144,1","24,0000,9,1",,,,,"00,1,+99999,9,99,9",,,"00,99,1,00,1,00,1,99999,9,00,1,00,1",,"01,9","999,+0112,1","120,N,+0130,1","240,M,+0315,1","99999,9,08233,1","9,9,999,9,+000,1",,,"SYN100AAXX  12121 76373 32960 00000 10134 20131 38233 40144 5//// 91145 333 10315 20130 30112 58000 79999;","Q01  00002PRCP24"
"76373099999","2005-09-12T15:00:00","4","25.35","-105.75","1967.0","TEPEHUANES DGO., MX","FM-12","99999","V020","300,1,N,0010,1","22000,1,9,N","070000,1,N,1","+0174,1","+0137,1","10153,1",,,,,,"01,1,+00300,1,08,1",,,"01,99,1,01,1,01,1,00450,1,00,1,00,1",,"01,9",,,,,"2,1,002,1,-004,1",,,"SYN100AAXX  12151 76373 32488 13001 10174 20137 38135 40153 52002 81100 91455 333 30/// 56200 59004 81810;",
"76373099999","2005-09-12T18:00:00","4","25.35","-105.75","1967.0","TEPEHUANES DGO., MX","FM-12","99999","V020","240,1,N,0020,1","22000,1,9,N","070000,1,N,1","+0252,1","+0135,1","10132,1",,,,,,"03,1,+00300,1,09,1",,,"99,99,9,03,1,03,1,00450,1,00,1,00,1",,"01,9",,"120,M,+0276,1","240,N,+0124,1","99999,9,08227,1","7,1,008,1,-002,1",,,"SYN112AAXX  12181 76373 32488 22402 10252 20135 38227 40132 57008 83300 91748 333 10276 20124 30/// 56200 59002 83910;",
"76373099999","2005-09-13T15:00:00","4","25.35","-105.75","1967.0","TEPEHUANES DGO., MX","FM-12","99999","V020","999,9,C,0000,1","22000,1,9,N","070000,1,N,1","+0172,1","+0144,1","10127,1",,,,,,"00,1,+99999,9,99,9",,,"00,99,1,00,1,00,1,99999,9,00,1,00,1",,"01,9",,,,"99999,9,08219,1","2,1,008,1,-016,1",,,"SYN082AAXX  13151 76373 32988 00000 10172 20144 38219 40127 52008 91450 333 30/// 59016;",
"76373099999","2005-09-13T18:00:00","4","25.35","-105.75","1967.0","TEPEHUANES DGO., MX","FM-12","99999","V020","100,1,N,0010,1","22000,1,9,N","070000,1,N,1","+0248,1","+0145,1","10116,1",,,,,,"02,1,+00300,1,09,1",,,"02,99,1,02,1,03,1,00450,1,00,1,00,1",,"01,9",,"120,M,+0276,1","240,N,+0134,1","99999,9,08218,1","6,1,001,1,-009,1",,,"SYN112AAXX  13181 76373 32488 21001 10248 20145 38218 40116 56001 82300 91748 333 10276 20134 30/// 56200 59009 82910;",
"76373099999","2005-09-13T21:00:00","4","25.35","-105.75","1967.0","TEPEHUANES DGO., MX","FM-12","99999","V020","999,9,C,0000,1","03600,1,C,N","070000,1,N,1","+0272,1","+0153,1","10076,1",,,,,,"04,1,+00300,1,09,1",,,"05,99,1,04,1,03,1,00450,1,02,1,00,1",,"01,9",,,,"99999,9,08197,1","7,1,011,1,-006,1",,,"SYN106AAXX  13211 76373 32488 50000 10272 20153 38197 40076 57011 84320 92048 333 30/// 56220 59006 84910 81460;",
"76373099999","2005-09-14T12:00:00","4","25.35","-105.75","1967.0","TEPEHUANES DGO., MX","FM-12","99999","V020","999,9,C,0000,1","22000,1,9,N","015000,1,N,1","+0132,1","+0125,1","10116,1","24,0000,9,1",,,,,"00,1,+99999,9,99,9",,,"00,99,1,00,1,00,1,99999,9,00,1,00,1",,"01,9","999,+0104,1","120,N,+0126,1","240,M,+0312,1","99999,9,08212,1","9,9,999,9,+001,1",,,"SYN100AAXX  14121 76373 32965 00000 10132 20125 38212 40116 5//// 91146 333 10312 20126 30104 58001 79999;","Q01  00002PRCP24"
"76373099999","2005-09-14T18:00:00","4","25.35","-105.75","1967.0","TEPEHUANES DGO., MX","FM-12","99999","V020","090,1,N,0020,1","22000,1,9,N","070000,1,N,1","+0262,1","+0162,1","10118,1",,,,,,"02,1,+00300,1,03,1",,,"02,99,1,02,1,03,1,00450,1,00,1,00,1",,"01,9",,"120,M,+0280,1","240,N,+0122,1","99999,9,08217,1","7,1,008,1,-001,1",,,"SYN112AAXX  14181 76373 32488 20902 10262 20162 38217 40118 57008 82300 91748 333 10280 20122 30/// 56200 59001 82310;",
"76373099999","2005-09-14T21:00:00","4","25.35","-105.75","1967.0","TEPEHUANES DGO., MX","FM-12","99999","V020","120,1,N,0020,1","03600,1,9,N","070000,1,N,1","+0306,1","+0135,1","10060,1",,,,,,,,,"05,99,1,04,1,03,1,00450,1,03,1,00,1",,"01,9",,,,"99999,9,99999,9","7,1,028,1,-008,1",,,"SYN106AAXX  14211 76373 32488 51202 10306 20135 30189 40060 57028 84330 92046 333 30/// 56220 59008 94310 91660;","Q01 101893APOSP "
"76373099999","2005-09-15T00:00:00","4","25.35","-105.75","1967.0","TEPEHUANES DGO., MX","FM-12","99999","V020","310,1,N,0040,1","00420,1,9,N","070000,1,N,1","+0274,1","+0152,1","10032,1","24,0000,9,1",,,,,,,,"05,99,1,05,1,03,1,00450,1,00,1,00,1",,"01,9",,"120,M,+0336,1","180,N,+0122,1","99999,9,08186,2","5,1,003,1,-013,1",,,"SYN124AAXX  15001 76373 32488 53104 10274 20152 38186 40032 55003 85300 92350 333 10336 20122 30/// 50480 58200 59013 70000 85310;",
"76373099999","2005-09-15T12:00:00","4","25.35","-105.75","1967.0","TEPEHUANES DGO., MX","FM-12","99999","V020","270,1,N,0010,1","22000,1,9,N","015000,1,N,1","+0148,1","+0138,1","10116,1","24,0000,9,1",,,,,"00,1,+99999,9,99,9",,,"00,99,1,00,1,00,1,99999,9,00,1,00,1",,"01,9","999,+0118,1","120,N,+0142,1","240,M,+0336,1","99999,9,08218,1","9,9,999,9,+006,1",,,"SYN100AAXX  15121 76373 32965 02701 10148 20138 38218 40116 5//// 91148 333 10336 20142 30118 58006 70000;","Q01  00002PRCP24"
"76373099999","2005-09-15T15:00:00","4","25.35","-105.75","1967.0","TEPEHUANES DGO., MX","FM-12","99999","V020","999,9,C,0000,1","22000,1,9,N","070000,1,N,1","+0178,1","+0154,1","10139,1",,,,,,"02,1,+00300,1,06,1",,,"02,99,1,02,1,04,1,00450,1,00,1,00,1",,"01,9",,,,"99999,9,08230,1","2,1,012,1,-005,1",,,"SYN100AAXX  15151 76373 32488 20000 10178 20154 38230 40139 52012 82400 91452 333 30/// 56200 59005 82610;",
"76373099999","2005-09-15T18:00:00","4","25.35","-105.75","1967.0","TEPEHUANES DGO., MX","FM-12","99999","V020","100,1,N,0020,1","22000,1,9,N","070000,1,N,1","+0270,1","+0171,1","10125,1",,,,,,"02,1,+00300,1,09,1",,,"02,99,1,02,1,03,1,00450,1,00,1,00,1",,"01,9",,"120,M,+0290,1","240,N,+0134,1","99999,9,08226,1","7,1,004,1,+009,1",,,"SYN112AAXX  15181 76373 32488 21002 10270 20171 38226 40125 57004 82300 91748 333 10290 20134 30/// 56200 58009 82910;",
"76373099999","2005-09-15T21:00:00","4","25.35","-105.75","1967.0","TEPEHUANES DGO., MX","FM-12","99999","V020","120,1,N,0050,1","22000,1,9,N","070000,1,N,1","+0314,1","+0123,1","10069,1",,,,,,"04,1,+00300,1,09,1",,,"04,99,1,04,1,03,1,00450,1,00,1,00,1",,"01,9",,,,"99999,9,08199,1","7,1,027,1,-010,1",,,"SYN100AAXX  15211 76373 32488 41205 10314 20123 38199 40069 57027 84300 92050 333 30/// 56200 59010 84910;",
"76373099999","2005-09-16T00:00:00","4","25.35","-105.75","1967.0","TEPEHUANES DGO., MX","FM-12","99999","V020","090,1,N,0030,1","00300,1,C,N","070000,1,N,1","+0294,1","+0126,1","10037,1","24,0000,9,1",,,,,"05,1,+00300,1,09,1","01,1,+03000,1,03,1",,"07,99,1,05,1,03,1,00450,1,06,1,02,1",,"01,9",,"120,M,+0338,1","180,N,+0134,1","99999,9,08194,1","5,1,005,1,+008,1",,,"SYN136AAXX  16001 76373 32488 70903 10294 20126 38194 40037 55005 85362 92345 333 10338 20134 30/// 50530 56222 58008 70000 85910 81360 81070;",
"76373099999","2005-09-16T12:00:00","4","25.35","-105.75","1967.0","TEPEHUANES DGO., MX","FM-12","99999","V020","260,1,N,0010,1","22000,1,9,N","015000,1,N,1","+0132,1","+0125,1","10134,1","24,0000,9,1",,,,,"00,1,+99999,9,99,9",,,"00,99,1,00,1,00,1,99999,9,00,1,00,1",,"01,9","999,+0096,1","120,N,+0124,1","240,M,+0338,1","99999,9,08232,1","9,9,999,9,+014,1",,,"SYN100AAXX  16121 76373 32965 02601 10132 20125 38232 40134 5//// 91148 333 10338 20124 30096 58014 70000;","Q01  00002PRCP24"
"76373099999","2005-09-16T15:00:00","4","25.35","-105.75","1967.0","TEPEHUANES DGO., MX","FM-12","99999","V020","999,9,C,0000,1","22000,1,9,N","070000,1,N,1","+0180,1","+0136,1","10160,1",,,,,,"00,1,+99999,9,99,9",,,"00,99,1,00,1,00,1,99999,9,00,1,00,1",,"01,9",,,,"99999,9,08242,1","2,1,010,1,+012,1",,,"SYN082AAXX  16151 76373 32988 00000 10180 20136 38242 40160 52010 91446 333 30/// 58012;",
"76373099999","2005-09-16T18:00:00","4","25.35","-105.75","1967.0","TEPEHUANES DGO., MX","FM-12","99999","V020","090,1,N,0030,1","22000,1,9,N","070000,1,N,1","+0270,1","+0157,1","10151,1",,,,,,"02,1,+00300,1,08,1",,,"02,99,1,02,1,01,1,00450,1,00,1,00,1",,"01,9",,"120,M,+0290,1","240,N,+0120,1","99999,9,08246,1","2,1,004,1,+020,1",,,"SYN112AAXX  16181 76373 32488 20903 10270 20157 38246 40151 52004 82100 91748 333 10290 20120 30/// 56200 58020 82810;",
"76373099999","2005-09-17T12:00:00","4","25.35","-105.75","1967.0","TEPEHUANES DGO., MX","FM-12","99999","V020","999,9,C,0000,1","22000,1,9,N","070000,1,N,1","+0108,1","+0101,1","10139,1","24,0000,9,1",,,,,"02,1,+06000,1,00,1",,,"02,99,1,00,1,00,1,99999,9,00,1,02,1",,"01,9","999,+0080,1","120,N,+0100,1","240,M,+0334,1","99999,9,08229,1","9,9,999,9,-003,1",,,"SYN118AAXX  17121 76373 32988 20000 10108 20101 38229 40139 5//// 80002 91152 333 10334 20100 30080 56009 59003 70000 82070;",
"76373099999","2005-09-17T21:00:00","4","25.35","-105.75","1967.0","TEPEHUANES DGO., MX","FM-12","99999","V020","090,1,N,0020,1","22000,1,9,N","070000,1,N,1","+0310,1","+0087,1","10102,1",,,,,,"01,1,+00600,1,08,1",,,"02,99,1,01,1,01,1,00800,1,00,1,01,1",,"01,9",,,,"99999,9,08219,1","7,1,022,1,-002,1",,,"SYN106AAXX  17211 76373 32588 20902 10310 20087 38219 40102 57022 81101 92045 333 30/// 56202 59002 81820 81070;",
"76373099999","2005-09-18T03:00:00","4","25.35","-105.75","1967.0","TEPEHUANES DGO., MX","FM-12","99999","V020","999,9,C,0000,1","22000,1,9,N","010000,1,N,1","+0200,1","+0094,1","10037,1",,,,,,"01,1,+02400,1,03,1",,,"02,99,1,01,1,00,1,01750,1,03,1,01,1",,"01,9",,,,"99999,9,08207,1","2,1,004,1,+999,9",,,"SYN106AAXX  18031 76373 32760 20000 10200 20094 38207 40037 52004 81031 90250 333 30/// 56209 58/// 81358 81070;",
"76373099999","2005-09-18T06:00:00","4","25.35","-105.75","1967.0","TEPEHUANES DGO., MX","FM-12","99999","V020","999,9,C,0000,1","22000,1,9,N","010000,1,N,1","+0152,1","+0107,1","10065,1",,,,,,"00,1,+99999,9,99,9",,,"00,99,1,00,1,00,1,99999,9,00,1,00,1","0660,9","01,9",,"240,M,+0338,1","240,N,+0098,1","99999,9,08215,1","2,1,008,1,+999,9",,,"SYN100AAXX  18061 76373 32960 00000 10152 20107 38215 40065 52008 90545 333 10338 20098 30/// 55110 58///;",
"76373099999","2005-09-18T12:00:00","4","25.35","-105.75","1967.0","TEPEHUANES DGO., MX","FM-12","99999","V020","999,9,C,0000,1","02100,1,9,N","020000,1,N,1","+0118,1","+0098,1","10130,1","24,0000,9,1",,,,,"06,1,+02100,1,03,1",,,"06,99,1,06,1,00,1,01750,1,05,1,00,1",,"01,9","999,+0085,1","120,N,+0110,1","240,M,+0338,1","99999,9,08222,1","9,9,999,9,-007,1",,,"SYN118AAXX  18121 76373 32770 60000 10118 20098 38222 40130 5//// 86050 91140 333 10338 20110 30085 56020 59007 70000 86357;",
"76373099999","2005-09-18T18:00:00","4","25.35","-105.75","1967.0","TEPEHUANES DGO., MX","FM-12","99999","V020","120,1,N,0020,1","09000,1,C,N","070000,1,N,1","+0266,1","+0128,1","10134,1",,,,,,"01,1,+00600,1,08,1",,,"07,99,1,01,1,01,1,00800,1,00,1,05,1",,"01,9",,"120,M,+0290,1","240,N,+0105,1","99999,9,08226,1","7,1,006,1,-015,1",,,"SYN118AAXX  18181 76373 32588 71202 10266 20128 38226 40134 57006 81105 91750 333 10290 20105 30/// 56209 59015 81820 86084;",
"76373099999","2005-09-18T21:00:00","4","25.35","-105.75","1967.0","TEPEHUANES DGO., MX","FM-12","99999","V020","120,1,N,0050,1","22000,1,C,N","070000,1,N,1","+0298,1","+0105,1","10093,1",,,,,,"02,1,+00600,1,08,1",,,"08,99,1,02,1,01,1,00800,1,00,1,01,1",,"01,9",,,,"99999,9,08212,1","7,1,014,1,-007,1",,,"SYN106AAXX  18211 76373 32588 81205 10298 20105 38212 40093 57014 82101 92045 333 30/// 56209 59007 82820 86084;",
"76373099999","2005-09-19T00:00:00","4","25.35","-105.75","1967.0","TEPEHUANES DGO., MX","FM-12","99999","V020","110,1,N,0020,1","22000,1,C,N","070000,1,N,1","+0278,1","+0097,1","10046,1","24,0000,9,1",,,,,"01,1,+00600,1,06,1",,,"07,99,1,01,1,04,1,00800,1,00,1,01,1",,"01,9",,"120,M,+0320,1","180,N,+0105,1","99999,9,08196,1","7,1,016,1,-007,1",,,"SYN124AAXX  19001 76373 32588 71102 10278 20097 38196 40046 57016 81401 92345 333 10320 20105 30/// 56209 59007 70000 81620 86084;",
"76373099999","2005-09-19T03:00:00","4","25.35","-105.75","1967.0","TEPEHUANES DGO., MX","FM-12","99999","V020","999,9,C,0000,1","22000,1,C,N","020000,1,N,1","+0212,1","+0101,1","10042,1",,,,,,"01,1,+02100,1,03,1",,,"06,99,1,01,1,00,1,01750,1,03,1,01,1",,"01,9",,,,"99999,9,08206,1","2,1,010,1,-001,1",,,"SYN106AAXX  19031 76373 32770 60000 10212 20101 38206 40042 52010 81031 90245 333 30/// 56029 59001 81357 85070;",
"76373099999","2005-09-19T12:00:00","4","25.35","-105.75","1967.0","TEPEHUANES DGO., MX","FM-12","99999","V020","999,9,C,0000,1","06000,1,9,N","020000,1,N,1","+0126,1","+9999,9","10109,1","24,0000,9,1",,,,,"06,1,+06000,1,00,1",,,"06,99,1,00,1,00,1,99999,9,00,1,05,1",,"01,9","999,+0095,1","120,N,+0120,1","240,M,+0320,1","99999,9,08226,1","9,9,999,9,+004,1",,,"SYN118AAXX  19121 76373 32970 60000 10126 20128 38226 40109 5//// 80005 91145 333 10320 20120 30095 56009 58004 70000 86070;",
"76373099999","2005-09-19T15:00:00","4","25.35","-105.75","1967.0","TEPEHUANES DGO., MX","FM-12","99999","V020","090,1,N,0010,1","09000,1,C,N","070000,1,N,1","+0180,1","+0131,1","10158,1",,,,,,"01,1,+03000,1,04,1",,,"06,99,1,01,1,00,1,01250,1,04,1,02,1",,"01,9",,,,"99999,9,08239,1","2,1,013,1,+007,1",,,"SYN106AAXX  19151 76373 32688 60901 10180 20131 38239 40158 52013 81042 91450 333 30/// 56202 58007 81460 85070;",
"76373099999","2005-09-19T18:00:00","4","25.35","-105.75","1967.0","TEPEHUANES DGO., MX","FM-12","99999","V020","150,1,N,0030,1","22000,1,9,N","070000,1,N,1","+0268,1","+0145,1","10144,1",,,,,,"01,1,+00300,1,08,1",,,"03,99,1,01,1,01,1,00450,1,00,1,02,1",,"01,9",,"120,M,+0288,1","240,N,+0112,1","99999,9,08240,1","2,1,001,1,+014,1",,,"SYN118AAXX  19181 76373 32488 31503 10268 20145 38240 40144 52001 81102 91748 333 10288 20112 30/// 56202 58014 81810 82070;",
"76373099999","2005-09-19T21:00:00","4","25.35","-105.75","1967.0","TEPEHUANES DGO., MX","FM-12","99999","V020","070,1,N,0030,1","00300,1,9,N","070000,1,N,1","+0310,1","+0083,1","10090,1",,,,,,"06,1,+00300,1,08,1",,,"06,99,1,06,1,02,1,00450,1,00,1,00,1",,"01,9",,,,"99999,9,08215,1","7,1,025,1,+003,1",,,"SYN100AAXX  19211 76373 32488 60703 10310 20083 38215 40090 57025 86200 92046 333 30/// 56200 58003 86810;",
"76373099999","2005-09-20T12:00:00","4","25.35","-105.75","1967.0","TEPEHUANES DGO., MX","FM-12","99999","V020","999,9,C,0000,1","22000,1,9,N","015000,1,N,1","+0110,1","+0095,1","10148,1","24,0000,9,1",,,,,"00,1,+99999,9,99,9",,,"00,99,1,00,1,00,1,99999,9,00,1,00,1",,"01,9","999,+0073,1","120,N,+0104,1","240,M,+0330,1","99999,9,08244,1","9,9,999,9,+018,1",,,"SYN100AAXX  20121 76373 32965 00000 10110 20095 38244 40148 5//// 91150 333 10330 20104 30073 58018 70000;","Q01  00002PRCP24"
"76373099999","2005-09-20T15:00:00","4","25.35","-105.75","1967.0","TEPEHUANES DGO., MX","FM-12","99999","V020","999,9,C,0000,1","22000,1,9,N","070000,1,N,1","+0170,1","+0108,1","10179,1",,,,,,"00,1,+99999,9,99,9",,,"00,99,1,00,1,00,1,99999,9,00,1,00,1",,"01,9",,,,"99999,9,08254,1","2,1,010,1,+015,1",,,"SYN082AAXX  20151 76373 32988 00000 10170 20108 38254 40179 52010 91448 333 30/// 58015;",
"76373099999","2005-09-20T18:00:00","4","25.35","-105.75","1967.0","TEPEHUANES DGO., MX","FM-12","99999","V020","120,1,N,0040,1","22000,1,9,N","070000,1,N,1","+0266,1","+0104,1","10165,1",,,,,,"01,1,+00300,1,08,1",,,"01,99,1,01,1,01,1,00450,1,00,1,00,1",,"01,9",,"120,M,+0284,1","240,N,+0095,1","99999,9,08250,1","7,1,004,1,+010,1",,,"SYN112AAXX  20181 76373 32488 11204 10266 20104 38250 40165 57004 81100 91748 333 10284 20095 30/// 56200 58010 81810;",
"76373099999","2005-09-21T00:00:00","4","25.35","-105.75","1967.0","TEPEHUANES DGO., MX","FM-12","99999","V020","060,1,N,0040,1","22000,1,9,N","070000,1,N,1","+0282,1","+0080,1","10069,1","24,0000,9,1",,,,,"03,1,+00300,1,08,1",,,"04,99,1,03,1,02,1,00450,1,00,1,02,1",,"01,9",,"120,M,+0320,1","180,N,+0095,1","99999,9,08215,1","6,1,022,1,+011,1",,,"SYN130AAXX  21001 76373 32488 40604 10282 20080 38215 40069 56022 83202 92346 333 10320 20095 30/// 50550 56202 58011 70000 83810 81070;",
"76373099999","2005-09-21T18:00:00","4","25.35","-105.75","1967.0","TEPEHUANES DGO., MX","FM-12","99999","V020","090,1,N,0020,1","22000,1,9,N","070000,1,N,1","+0266,1","+0120,1","10151,1",,,,,,"01,1,+00300,1,08,1",,,"01,99,1,01,1,01,1,00450,1,00,1,00,1",,"01,9",,"120,M,+0282,1","240,N,+0086,1","99999,9,08238,1","8,1,007,1,-012,1",,,"SYN112AAXX  21181 76373 32488 10902 10266 20120 38238 40151 58007 81100 91748 333 10282 20086 30/// 56200 59012 81810;",
"76373099999","2005-09-21T21:00:00","4","25.35","-105.75","1967.0","TEPEHUANES DGO., MX","FM-12","99999","V020","140,1,N,0060,1","22000,1,9,N","070000,1,N,1","+0296,1","+0065,1","10097,1",,,,,,"03,1,+00300,1,08,1",,,"03,99,1,03,1,02,1,00450,1,00,1,00,1",,"01,9",,,,"99999,9,08208,1","7,1,030,1,-017,1",,,"SYN100AAXX  21211 76373 32488 31406 10296 20065 38208 40097 57030 83200 92054 333 30/// 56200 59017 83810;",
"76373099999","2005-09-22T15:00:00","4","25.35","-105.75","1967.0","TEPEHUANES DGO., MX","FM-12","99999","V020","999,9,C,0000,1","22000,1,9,N","070000,1,N,1","+0160,1","+0104,1","10151,1",,,,,,"00,1,+99999,9,99,9",,,"00,99,1,00,1,00,1,99999,9,00,1,00,1",,"01,9",,,,"99999,9,08218,1","2,1,006,1,-027,1",,,"SYN082AAXX  22151 76373 32988 00000 10160 20104 38218 40151 52006 91448 333 30/// 59027;",
"76373099999","2005-09-22T18:00:00","4","25.35","-105.75","1967.0","TEPEHUANES DGO., MX","FM-12","99999","V020","120,1,N,0020,1","22000,1,9,N","070000,1,N,1","+0256,1","+0111,1","10130,1",,,,,,"01,1,+00300,1,08,1",,,"01,99,1,01,1,01,1,00450,1,00,1,00,1",,"01,9",,"120,M,+0280,1","240,N,+0082,1","99999,9,08213,1","8,1,005,1,-025,1",,,"SYN112AAXX  22181 76373 32488 11202 10256 20111 38213 40130 58005 81100 91748 333 10280 20082 30/// 56200 59025 81810;",
"76373099999","2005-09-22T21:00:00","4","25.35","-105.75","1967.0","TEPEHUANES DGO., MX","FM-12","99999","V020","090,1,N,0020,1","22000,1,9,N","070000,1,N,1","+0288,1","+0103,1","10065,1",,,,,,"01,1,+00300,1,08,1",,,"01,99,1,01,1,01,1,00450,1,00,1,00,1",,"01,9",,,,,"7,1,033,1,-028,1",,,"SYN100AAXX  22211 76373 32488 10902 10288 20103 30180 40065 57033 81100 92054 333 30/// 56200 59028 81810;",
"76373099999","2005-09-23T00:00:00","4","25.35","-105.75","1967.0","TEPEHUANES DGO., MX","FM-12","99999","V020","150,1,N,0030,1","22000,1,9,N","070000,1,N,1","+0280,1","+0072,1","10021,1","24,0000,9,1",,,,,,,,"01,99,1,01,1,01,1,00450,1,00,1,00,1",,"01,9",,"120,M,+0320,1","180,N,+0082,1","99999,9,08169,1","6,1,011,1,-032,1",,,"SYN124AAXX  23001 76373 32488 11503 10280 20072 38169 40021 56011 81100 92354 333 10320 20082 30/// 50410 56200 59032 70000 81810;",
"76373099999","2005-09-23T12:00:00","4","25.35","-105.75","1967.0","TEPEHUANES DGO., MX","FM-12","99999","V020","999,9,C,0000,1","22000,1,9,N","015000,1,N,1","+0076,1","+0058,1","10113,1","24,0000,9,1",,,,,"00,1,+99999,9,99,9",,,"00,99,1,00,1,00,1,99999,9,00,1,00,1",,"01,9","999,+0040,1","120,N,+0068,1","240,M,+0320,1","99999,9,08199,1","9,9,999,9,-013,1",,,"SYN100AAXX  23121 76373 32965 00000 10076 20058 38199 40113 5//// 91152 333 10320 20068 30040 59013 70000;","Q01  00002PRCP24"
"76373099999","2005-09-23T15:00:00","4","25.35","-105.75","1967.0","TEPEHUANES DGO., MX","FM-12","99999","V020","999,9,C,0000,1","22000,1,9,N","070000,1,N,1","+0150,1","+0066,1","10144,1",,,,,,"00,1,+99999,9,99,9",,,"00,99,1,00,1,00,1,99999,9,00,1,00,1",,"01,9",,,,"99999,9,08207,1","2,1,008,1,-011,1",,,"SYN082AAXX  23151 76373 32988 00000 10150 20066 38207 40144 52008 91453 333 30/// 59011;",
"76373099999","2005-09-23T18:00:00","4","25.35","-105.75","1967.0","TEPEHUANES DGO., MX","FM-12","99999","V020","150,1,N,0020,1","22000,1,9,N","070000,1,N,1","+0268,1","+0098,1","10113,1",,,,,,"00,1,+99999,9,99,9",,,"00,99,1,00,1,00,1,99999,9,00,1,00,1",,"01,9",,"120,M,+0286,1","240,N,+0062,1","99999,9,08196,1","8,1,011,1,-017,1",,,"SYN094AAXX  23181 76373 32988 01502 10268 20098 38196 40113 58011 91748 333 10286 20062 30/// 59017;",
"76373099999","2005-09-23T21:00:00","4","25.35","-105.75","1967.0","TEPEHUANES DGO., MX","FM-12","99999","V020","120,1,N,0030,1","22000,1,9,N","070000,1,N,1","+0302,1","+0067,1","10051,2",,,,,,"00,1,+99999,9,99,9",,,"00,99,1,00,1,00,1,99999,9,00,1,00,1",,"01,9",,,,"99999,9,08169,1","7,1,017,1,-011,1",,,"SYN082AAXX  23211 76373 32988 01203 10302 20067 38169 40051 57017 92055 333 30/// 59011;",
"76373099999","2005-09-24T15:00:00","4","25.35","-105.75","1967.0","TEPEHUANES DGO., MX","FM-12","99999","V020","999,9,C,0000,1","22000,1,9,N","070000,1,N,1","+0140,1","+0071,1","10146,1",,,,,,"00,1,+99999,9,99,9",,,"00,99,1,00,1,00,1,99999,9,00,1,00,1",,"01,9",,,,"99999,9,08208,1","2,1,009,1,+001,1",,,"SYN082AAXX  24151 76373 32988 00000 10140 20071 38208 40146 52009 91445 333 30/// 58001;",
"76373099999","2005-09-24T18:00:00","4","25.35","-105.75","1967.0","TEPEHUANES DGO., MX","FM-12","99999","V020","130,1,N,0010,1","22000,1,9,N","070000,1,N,1","+0258,1","+0063,1","10116,1",,,,,,"00,1,+99999,9,99,9",,,"00,99,1,00,1,00,1,99999,9,00,1,00,1",,"01,9",,"120,M,+0280,1","240,N,+0064,1","99999,9,08193,1","7,1,015,1,-003,1",,,"SYN094AAXX  24181 76373 32988 01301 10258 20063 38193 40116 57015 91745 333 10280 20064 30/// 59003;",
"76373099999","2005-09-24T21:00:00","4","25.35","-105.75","1967.0","TEPEHUANES DGO., MX","FM-12","99999","V020","180,1,N,0030,1","22000,1,9,N","070000,1,N,1","+0294,1","+0046,1","10072,1",,,,,,"01,1,+00600,1,08,1",,,"01,99,1,01,1,01,1,00800,1,00,1,00,1",,"01,9",,,,"99999,9,08184,1","7,1,009,1,+015,1",,,"SYN100AAXX  24211 76373 32588 11803 10294 20046 38184 40072 57009 81100 92045 333 30/// 56200 58015 81820;",
"76373099999","2005-09-25T00:00:00","4","25.35","-105.75","1967.0","TEPEHUANES DGO., MX","FM-12","99999","V020","140,1,N,0020,1","22000,1,9,N","070000,1,N,1","+0284,1","+0055,1","10030,1","24,0000,9,1",,,,,"00,1,+99999,9,99,9",,,"00,99,1,00,1,00,1,99999,9,00,1,00,1",,"01,9",,"120,M,+0326,1","180,N,+0064,1","99999,9,08178,1","3,1,006,1,+999,9",,,"SYN106AAXX  25001 76373 32988 01402 10284 20055 38178 40030 53006 92345 333 10326 20064 30/// 50420 58/// 70000;","Q01  00002PRCP24"
"76373099999","2005-09-25T06:00:00","4","25.35","-105.75","1967.0","TEPEHUANES DGO., MX","FM-12","99999","V020","999,9,C,0000,1","22000,1,9,N","010000,1,N,1","+0150,1","+0083,1","10055,1",,,,,,"00,1,+99999,9,99,9",,,"00,99,1,00,1,00,1,99999,9,00,1,00,1",,"01,9",,"240,M,+0326,1","240,N,+0064,1","99999,9,08205,1","2,1,015,1,+999,9",,,"SYN094AAXX  25061 76373 32960 00000 10150 20083 38205 40055 52015 90545 333 10326 20064 30/// 58///;",
"76373099999","2005-09-25T12:00:00","4","25.35","-105.75","1967.0","TEPEHUANES DGO., MX","FM-12","99999","V020","999,9,C,0000,1","22000,1,9,N","010000,1,N,1","+0098,1","+0077,1","10148,1","24,0000,9,1",,,,,"00,1,+99999,9,99,9",,,"00,99,1,00,1,00,1,99999,9,00,1,00,1",,"01,9","999,+0065,1","120,N,+0090,1","240,M,+0326,1","99999,9,08207,1","9,9,999,9,+008,1",,,"SYN100AAXX  25121 76373 32960 00000 10098 20077 38207 40148 5//// 91145 333 10326 20090 30065 58008 70000;","Q01  00002PRCP24"
"76373099999","2005-09-25T15:00:00","4","25.35","-105.75","1967.0","TEPEHUANES DGO., MX","FM-12","99999","V020","999,9,C,0000,1","22000,1,9,N","070000,1,N,1","+0148,1","+0084,1","10162,1",,,,,,"00,1,+99999,9,99,9",,,"00,99,1,00,1,00,1,99999,9,00,1,00,1",,"01,9",,,,"99999,9,08225,1","2,1,018,1,+017,1",,,"SYN082AAXX  25151 76373 32988 00000 10148 20084 38225 40162 52018 91445 333 30/// 58017;",
"76373099999","2005-09-25T18:00:00","4","25.35","-105.75","1967.0","TEPEHUANES DGO., MX","FM-12","99999","V020","130,1,N,0040,1","22000,1,9,N","070000,1,N,1","+0270,1","+0086,1","10139,1",,,,,,"01,1,+06000,1,00,1",,,"01,99,1,99,9,99,9,99999,9,99,9,99,9",,"01,9",,"120,M,+0295,1","240,N,+0080,1","99999,9,08216,1","7,1,009,1,+023,1",,,"SYN106AAXX  25181 76373 32988 11304 10270 20086 38216 40139 57009 91750 333 10295 20080 30/// 56009 58023 81070;",
"76373099999","2005-09-25T21:00:00","4","25.35","-105.75","1967.0","TEPEHUANES DGO., MX","FM-12","99999","V020","130,1,N,0030,1","22000,1,9,N","070000,1,N,1","+0310,1","+0030,1","10083,1",,,,,,"01,1,+06000,1,01,1",,,"01,99,1,00,1,00,1,99999,9,00,1,01,1",,"01,9",,,,"99999,9,08199,1","7,1,017,1,+015,1",,,"SYN100AAXX  25211 76373 32988 11303 10310 20030 38199 40083 57017 80001 92045 333 30/// 56002 58015 81170;",
"76373099999","2005-09-26T12:00:00","4","25.35","-105.75","1967.0","TEPEHUANES DGO., MX","FM-12","99999","V020","999,9,C,0000,1","22000,1,9,N","010000,1,N,1","+0084,1","+0058,1","10132,1","24,0000,9,1",,,,,"01,1,+06000,1,00,1",,,"01,99,1,00,1,00,1,99999,9,00,1,01,1",,"01,9","999,+0055,1","120,N,+0075,1","240,M,+0338,1","99999,9,08222,1","9,9,999,9,+015,1",,,"SYN118AAXX  26121 76373 32960 10000 10084 20058 38222 40132 5//// 80001 91145 333 10338 20075 30055 56002 58015 70000 81070;",
"76373099999","2005-09-26T15:00:00","4","25.35","-105.75","1967.0","TEPEHUANES DGO., MX","FM-12","99999","V020","999,9,C,0000,1","22000,1,9,N","070000,1,N,1","+0142,1","+0065,1","10165,1",,,,,,"02,1,+06000,1,00,1",,,"02,99,1,00,1,00,1,99999,9,00,1,08,1",,"01,9",,,,"99999,9,08230,1","2,1,008,1,+005,1",,,"SYN101AAXX  26151 76373 32988 20000 10142 20065 38230 40165 52008 80008 91452 333 30/// 56200 58005 820700;",
"76373099999","2005-09-26T18:00:00","4","25.35","-105.75","1967.0","TEPEHUANES DGO., MX","FM-12","99999","V020","120,1,N,0030,1","22000,1,9,N","070000,1,N,1","+0262,1","+0053,1","10146,1",,,,,,"02,1,+06000,1,00,1",,,"02,99,1,00,1,00,1,99999,9,00,1,02,1",,"01,9",,"120,M,+0292,1","240,N,+0068,1","99999,9,08228,1","8,1,002,1,+012,1",,,"SYN112AAXX  26181 76373 32988 21203 10262 20053 38228 40146 58002 80002 91748 333 10292 20068 30/// 56006 58012 82070;",
"76373099999","2005-09-26T21:00:00","4","25.35","-105.75","1967.0","TEPEHUANES DGO., MX","FM-12","99999","V020","110,1,N,0060,1","22000,1,9,N","070000,1,N,1","+0304,1","+0031,1","10093,1",,,,,,"00,1,+99999,9,99,9",,,"00,99,1,00,1,00,1,99999,9,00,1,00,1",,"01,9",,,,"99999,9,08206,1","6,1,022,1,+007,1",,,"SYN082AAXX  26211 76373 32988 01106 10304 20031 38206 40093 56022 92050 333 30/// 58007;",
"76373099999","2005-09-27T00:00:00","4","25.35","-105.75","1967.0","TEPEHUANES DGO., MX","FM-12","99999","V020","050,1,N,0030,1","22000,1,9,N","070000,1,N,1","+0302,1","+0027,1","10044,1","24,0000,9,1",,,,,"00,1,+99999,9,99,9",,,"00,99,1,00,1,00,1,99999,9,00,1,00,1",,"01,9",,"120,M,+0336,1","180,N,+0078,1","99999,9,08194,1","6,1,012,1,+000,1",,,"SYN106AAXX  27001 76373 32988 00503 10302 20027 38194 40044 56012 92340 333 10336 20078 30/// 50590 58000 70000;","Q01  00002PRCP24"
"76373099999","2005-09-27T03:00:00","4","25.35","-105.75","1967.0","TEPEHUANES DGO., MX","FM-12","99999","V020","240,1,N,0030,1","22000,1,9,N","010000,1,N,1","+0212,1","-0001,1","10069,1",,,,,,"00,1,+99999,9,99,9",,,"00,99,1,00,1,00,1,99999,9,00,1,00,1",,"01,9",,,,"99999,9,08210,1","2,1,016,1,+999,9",,,"SYN082AAXX  27031 76373 32960 02403 10212 21001 38210 40069 52016 90240 333 30/// 56026;",
"76373099999","2005-09-27T12:00:00","4","25.35","-105.75","1967.0","TEPEHUANES DGO., MX","FM-12","99999","V020","240,1,N,0010,1","22000,1,9,N","015000,1,N,1","+0078,1","+0035,1","10144,1","24,0000,9,1",,,,,"00,1,+99999,9,99,9",,,"00,99,1,00,1,00,1,99999,9,00,1,00,1",,"01,9","999,+0046,1","120,N,+0070,1","240,M,+0336,1","99999,9,08232,1","9,9,999,9,+010,1",,,"SYN100AAXX  27121 76373 32965 02401 10078 20035 38232 40144 5//// 91153 333 10336 20070 30046 58010 70000;","Q01  00002PRCP24"
"76373099999","2005-09-27T15:00:00","4","25.35","-105.75","1967.0","TEPEHUANES DGO., MX","FM-12","99999","V020","020,1,N,0010,1","22000,1,9,N","070000,1,N,1","+0132,1","+0064,1","10179,1",,,,,,"02,1,+06000,1,00,1",,,"02,99,1,00,1,00,1,99999,9,00,1,02,1",,"01,9",,,,"99999,9,08240,1","2,1,008,1,+010,1",,,"SYN100AAXX  27151 76373 32988 20201 10132 20064 38240 40179 52008 80002 91450 333 30/// 56002 58010 82070;",
"76373099999","2005-09-27T18:00:00","4","25.35","-105.75","1967.0","TEPEHUANES DGO., MX","FM-12","99999","V020","090,1,N,0030,1","22000,1,9,N","070000,1,N,1","+0266,2","+0049,1","10165,1",,,,,,"01,1,+06000,1,00,1",,,"01,99,1,00,1,00,1,99999,9,00,1,02,1",,"01,9",,"120,M,+0284,1","240,N,+0062,1","99999,9,08238,1","7,1,002,1,+010,1",,,"SYN112AAXX  27181 76373 32988 10903 10266 20049 38238 40165 57002 80002 91748 333 10284 20062 30/// 56002 58010 81070;",
"76373099999","2005-09-28T00:00:00","4","25.35","-105.75","1967.0","TEPEHUANES DGO., MX","FM-12","99999","V020","070,1,N,0020,1","22000,1,9,N","070000,1,N,1","+0290,1","+0049,1","10051,1","24,0000,9,1",,,,,,,,"01,99,1,01,1,01,1,00250,1,00,1,00,1",,"01,9",,"120,M,+0324,1","180,N,+0062,1","99999,9,08194,1","6,1,016,1,+000,1",,,"SYN124AAXX  28001 76373 32388 10702 10290 20049 38194 40051 56016 81100 92345 333 10324 20062 30/// 50472 56200 58000 70000 81820;",
"76373099999","2005-09-28T12:00:00","4","25.35","-105.75","1967.0","TEPEHUANES DGO., MX","FM-12","99999","V020","999,9,C,0000,1","22000,1,9,N","015000,1,N,1","+0086,1","+0066,1","10132,1","24,0000,9,1",,,,,"00,1,+99999,9,99,9",,,"00,99,1,00,1,00,1,99999,9,00,1,00,1",,"01,9","999,+0050,1","120,N,+0064,1","240,M,+0324,1","99999,9,08215,1","9,9,999,9,-017,1",,,"SYN100AAXX  28121 76373 32965 00000 10086 20066 38215 40132 5//// 91150 333 10324 20064 30050 59017 70000;","Q01  00002PRCP24"
"76373099999","2005-09-28T15:00:00","4","25.35","-105.75","1967.0","TEPEHUANES DGO., MX","FM-12","99999","V020","030,1,N,0010,1","22000,1,9,N","070000,1,N,1","+0140,1","+0081,1","10165,1",,,,,,"00,1,+99999,9,99,9",,,"00,99,1,00,1,00,1,99999,9,00,1,00,1",,"01,9",,,,"99999,9,08224,1","1,1,009,1,-016,1",,,"SYN082AAXX  28151 76373 32988 00301 10140 20081 38224 40165 51009 91450 333 30/// 59016;",
"76373099999","2005-09-28T18:00:00","4","25.35","-105.75","1967.0","TEPEHUANES DGO., MX","FM-12","99999","V020","120,1,N,0030,1","22000,1,9,N","070000,1,N,1","+0264,1","+0090,1","10147,1",,,,,,"00,1,+99999,9,99,9",,,"00,99,1,00,1,00,1,99999,9,00,1,00,1",,"01,9",,"120,M,+0280,1","240,N,+0068,1","99999,9,08223,1","6,1,001,1,-015,1",,,"SYN094AAXX  28181 76373 32988 01203 10264 20090 38223 40147 56001 91748 333 10280 20068 30/// 59015;",
"76373099999","2005-09-28T21:00:00","4","25.35","-105.75","1967.0","TEPEHUANES DGO., MX","FM-12","99999","V020","150,1,N,0030,1","22000,1,9,N","070000,1,N,1","+0308,1","+0060,1","10083,2",,,,,,"01,1,+00360,1,08,1",,,"01,99,1,01,1,01,1,00450,1,00,1,00,1",,"01,9",,,,"99999,9,08195,1","7,1,028,1,-015,1",,,"SYN100AAXX  28211 76373 32488 11503 10308 20060 38195 40083 57028 81100 92054 333 30/// 52000 59015 81812;",
"76373099999","2005-09-29T00:00:00","4","25.35","-105.75","1967.0","TEPEHUANES DGO., MX","FM-12","99999","V020","110,1,N,0040,1","22000,1,9,N","070000,1,N,1","+0292,1","+0041,1","10042,1","24,0000,9,1",,,,,,,,"01,99,1,01,1,01,1,00250,1,00,1,00,1",,"01,9",,"120,M,+0336,1","180,N,+0068,1","99999,9,08190,1","6,1,005,1,-004,1",,,"SYN124AAXX  29001 76373 32388 11104 10292 20041 38190 40042 56005 81100 92345 333 10336 20068 30/// 50510 56200 59004 70000 81820;",
"76373099999","2005-09-29T03:00:00","4","25.35","-105.75","1967.0","TEPEHUANES DGO., MX","FM-12","99999","V020","240,1,N,0020,1","22000,1,9,N","010000,1,N,1","+0200,1","+0064,1","10039,1",,,,,,"00,1,+99999,9,99,9",,,"00,99,1,00,1,00,1,99999,9,00,1,00,1",,"01,9",,,,"99999,9,08204,1","2,1,014,1,-011,1",,,"SYN082AAXX  29031 76373 32860 02402 10200 20064 38204 40039 52014 90245 333 30/// 59011;",
"76373099999","2005-09-29T06:00:00","4","25.35","-105.75","1967.0","TEPEHUANES DGO., MX","FM-12","99999","V020","999,9,C,0000,1","22000,1,9,N","010000,1,N,1","+0156,1","+0058,1","10065,1",,,,,,"00,1,+99999,9,99,9",,,"00,99,1,00,1,00,1,99999,9,00,1,00,1","0648,9","01,9",,"240,M,+0336,1","240,N,+0068,1","99999,9,08216,1","2,1,012,1,+008,1",,,"SYN100AAXX  29061 76373 32960 00000 10156 20058 38216 40065 52012 90540 333 10336 20068 30/// 55108 58008;",
"76373099999","2005-09-29T12:00:00","4","25.35","-105.75","1967.0","TEPEHUANES DGO., MX","FM-12","99999","V020","999,9,C,0000,1","22000,1,9,N","015000,1,N,1","+0084,1","+0066,1","10134,1","24,0000,9,1",,,,,"00,1,+99999,9,99,9",,,"00,99,1,00,1,00,1,99999,9,00,1,00,1",,"01,9","999,+0044,1","120,N,+0076,1","240,M,+0336,1","99999,9,08219,1","9,9,999,9,+004,1",,,"SYN100AAXX  29121 76373 32965 00000 10084 20066 38219 40134 5//// 91150 333 10336 20076 30044 58004 70000;","Q01  00002PRCP24"
"76373099999","2005-09-29T18:00:00","4","25.35","-105.75","1967.0","TEPEHUANES DGO., MX","FM-12","99999","V020","090,1,N,0030,1","22000,1,9,N","070000,1,N,1","+0264,1","+0082,1","10139,1",,,,,,"02,1,+03000,1,03,1",,,"03,99,1,02,1,00,1,01750,1,03,1,02,1",,"01,9",,"240,N,+0068,1",,"99999,9,08219,1","7,1,011,1,-004,1",,,"SYN118AAXX  29181 76373 32788 30903 10264 20082 38219 40139 57011 82032 91748 333 1//// 20068 30/// 56066 59004 82360 81070;",
"76373099999","2005-09-29T21:00:00","4","25.35","-105.75","1967.0","TEPEHUANES DGO., MX","FM-12","99999","V020","090,1,N,0040,1","22000,1,9,N","070000,1,N,1","+0306,1","+0045,1","10101,1",,,,,,"01,1,+00360,1,08,1",,,"02,99,1,01,1,01,1,00450,1,03,1,00,1",,"01,9",,,,"99999,9,08195,1","7,1,024,1,+000,1",,,"SYN106AAXX  29211 76373 32488 20904 10306 20045 38195 40101 57024 81130 92048 333 30/// 56660 58000 81812 81360;",
"76373099999","2005-09-30T00:00:00","4","25.35","-105.75","1967.0","TEPEHUANES DGO., MX","FM-12","99999","V020","150,1,N,0050,1","00210,1,9,N","070000,1,N,1","+0276,1","+0075,1","10044,1","24,0000,9,1",,,,,,,,"06,99,1,06,1,00,1,00250,1,03,1,00,1",,"01,9",,"120,M,+0332,1","180,N,+0068,1","99999,9,08192,1","6,1,003,1,+002,1",,,"SYN124AAXX  30001 76373 32388 61505 10276 20075 38192 40044 56003 86030 92345 333 10332 20068 30/// 50550 56060 58002 70000 86360;",
"76373099999","2005-09-30T03:00:00","4","25.35","-105.75","1967.0","TEPEHUANES DGO., MX","FM-12","99999","V020","999,9,C,0000,1","22000,1,9,N","010000,1,N,1","+0206,1","+0068,1","10037,1",,,,,,"00,1,+99999,9,99,9",,,"00,99,1,00,1,00,1,99999,9,00,1,00,1",,"01,9",,,,"99999,9,08201,1","2,1,009,1,-003,1",,,"SYN082AAXX  30031 76373 32960 00000 10206 20068 38201 40037 52009 90240 333 30/// 59003;",
"76373099999","2005-09-30T06:00:00","4","25.35","-105.75","1967.0","TEPEHUANES DGO., MX","FM-12","99999","V020","999,9,C,0000,1","22000,1,9,N","010000,1,N,1","+0142,1","+0056,1","10069,1",,,,,,"00,1,+99999,9,99,9",,,"00,99,1,00,1,00,1,99999,9,00,1,00,1","0648,9","01,9",,"240,M,+0332,1","240,N,+0068,1","99999,9,08216,1","2,1,015,1,+000,1",,,"SYN100AAXX  30061 76373 32960 00000 10142 20056 38216 40069 52015 90540 333 10332 20068 30/// 55108 58000;",
"76373099999","2005-09-30T18:00:00","4","25.35","-105.75","1967.0","TEPEHUANES DGO., MX","FM-12","99999","V020","090,1,N,0030,1","09000,1,C,N","070000,1,N,1","+0246,1","+0081,1","10132,1",,,,,,"02,1,+03000,1,03,1",,,"05,99,1,02,1,00,1,01250,1,03,1,02,1",,"01,9",,"120,M,+0268,1","240,N,+0085,1","99999,9,08210,1","9,9,999,9,-009,1",,,"SYN118AAXX  30181 76373 32688 50903 10246 20081 38210 40132 5//// 82032 91748 333 10268 20085 30/// 56066 59009 82360 83070;",
"76373099999","2005-10-01T15:00:00","4","25.35","-105.75","1967.0","TEPEHUANES DGO., MX","FM-12","99999","V020","999,9,C,0000,1","22000,1,9,N","070000,1,N,1","+0162,1","+0097,1","10123,1",,,,,,"01,1,+02400,1,03,1",,,"01,99,1,01,1,00,1,01750,1,03,1,00,1",,"01,9",,,,"99999,9,08203,1","9,9,999,9,-011,1",,,"SYN100AAXX  01151 76373 32788 10000 10162 20097 38203 40123 5//// 81030 91450 333 30/// 56090 59011 81358;",
"76373099999","2005-10-01T18:00:00","4","25.35","-105.75","1967.0","TEPEHUANES DGO., MX","FM-12","99999","V020","120,1,N,0030,1","22000,1,9,N","070000,1,N,1","+0274,2","+0100,1","10102,1",,,,,,"01,1,+00600,1,01,1",,,"02,99,1,01,1,01,1,00800,1,00,1,09,1",,"01,9",,"120,M,+0301,1","240,N,+0095,1","99999,9,08199,1","0,1,004,1,+999,9",,,"SYN118AAXX  01181 76373 32588 21203 10274 20100 38199 40102 50004 81109 91750 333 10301 20095 30/// 56202 58/// 81120 81170;",
"76373099999","2005-10-02T00:00:00","4","25.35","-105.75","1967.0","TEPEHUANES DGO., MX","FM-12","99999","V020","120,1,N,0010,1","22000,1,9,N","070000,1,N,1","+0182,1","+0058,1","10018,1","24,0000,9,1",,,,,,,,"01,99,1,01,1,01,1,00800,1,00,1,00,1",,"01,9",,"120,M,+0330,1","180,N,+0095,1","99999,9,08172,1","7,1,005,1,+999,9",,,"SYN112AAXX  02001 76373 32588 11201 10182 20058 38172 40018 57005 81100 92345 333 10330 20095 30/// 56200 58/// 70000;","Q01  00002PRCP24"
"76373099999","2005-10-02T03:00:00","4","25.35","-105.75","1967.0","TEPEHUANES DGO., MX","FM-12","99999","V020","999,9,C,0000,1","22000,1,9,N","010000,1,N,1","+0206,1","+0039,1","10000,1",,,,,,"00,1,+99999,9,99,9",,,"00,99,1,00,1,00,1,99999,9,00,1,00,1",,"01,9",,,,"99999,9,08175,1","2,1,003,1,+999,9",,,"SYN082AAXX  02031 76373 32960 00000 10206 20039 38175 40000 52003 90245 333 30/// 58///;",
"76373099999","2005-10-02T15:00:00","4","25.35","-105.75","1967.0","TEPEHUANES DGO., MX","FM-12","99999","V020","320,1,N,0010,1","22000,1,9,N","070000,1,N,1","+0150,1","+0083,1","10123,1",,,,,,"02,1,+12000,1,00,1",,,"02,99,1,00,1,00,1,99999,9,00,1,01,1",,"01,9",,,,"99999,9,08208,1","2,1,013,1,+013,1",,,"SYN100AAXX  02151 76373 32988 23201 10150 20083 38208 40123 52013 80001 91440 333 30/// 56002 58013 82082;",
"76373099999","2005-10-02T18:00:00","4","25.35","-105.75","1967.0","TEPEHUANES DGO., MX","FM-12","99999","V020","130,1,N,0030,1","22000,1,9,N","070000,1,N,1","+0266,1","+0103,1","10104,1",,,,,,"01,1,+00900,1,08,1",,,"02,99,1,01,1,01,1,00800,1,00,1,01,1",,"01,9",,"120,M,+0290,1","240,N,+0090,1","99999,9,08201,1","7,1,007,1,+002,1",,,"SYN118AAXX  02181 76373 32588 21303 10266 20103 38201 40104 57007 81101 91745 333 10290 20090 30/// 56502 58002 81830 81082;",
"76373099999","2005-10-02T21:00:00","4","25.35","-105.75","1967.0","TEPEHUANES DGO., MX","FM-12","99999","V020","130,1,N,0040,1","22000,1,9,N","070000,1,N,1","+0304,1","+0083,1","10058,1",,,,,,"02,1,+00900,1,08,1",,,"02,99,1,02,1,01,1,00800,1,00,1,00,1",,"01,9",,,,"99999,9,08183,1","7,1,008,1,+006,1",,,"SYN100AAXX  02211 76373 32588 21304 10304 20083 38183 40058 57008 82100 92045 333 30/// 56500 58006 82830;",
"76373099999","2005-10-03T00:00:00","4","25.35","-105.75","1967.0","TEPEHUANES DGO., MX","FM-12","99999","V020","120,1,N,0020,1","99999,9,9,N","070000,1,N,1","+0275,1","+0037,1","10016,1","24,0000,9,1",,,,,,,,"07,99,1,99,9,04,1,00800,1,00,1,00,1",,"01,9",,"120,M,+0338,1","180,N,+0090,1","99999,9,08172,1","7,1,011,1,+000,1",,,"SYN124AAXX  03001 76373 32588 71202 10275 20037 38172 40016 57011 84400 92345 333 10338 20090 30/// 50660 56500 58000 70000 84430;",
"76373099999","2005-10-03T03:00:00","4","25.35","-105.75","1967.0","TEPEHUANES DGO., MX","FM-12","99999","V020","999,9,C,0000,1","22000,1,9,N","010000,1,N,1","+0200,1","+0109,1","10023,1",,,,,,"02,1,+00900,1,08,1",,,"02,99,1,02,1,01,1,00800,1,00,1,00,1",,"01,9",,,,"99999,9,08191,1","2,1,019,1,+016,1",,,"SYN100AAXX  03031 76373 32560 20000 10200 20109 38191 40023 52019 82100 90245 333 30/// 56500 58016 82830;",
"76373099999","2005-10-03T06:00:00","4","25.35","-105.75","1967.0","TEPEHUANES DGO., MX","FM-12","99999","V020","999,9,C,0000,1","22000,1,9,N","010000,1,N,1","+0194,1","+0126,1","10037,1",,,,,,"00,1,+99999,9,99,9",,,"00,99,1,00,1,00,1,99999,9,00,1,00,1","0546,9","01,9",,"240,M,+0338,1","240,N,+0090,1","99999,9,08198,1","2,1,007,1,+999,9",,,"SYN100AAXX  03061 76373 32960 00000 10194 20126 38198 40037 52007 90540 333 10338 20090 30/// 55091 58///;",
"76373099999","2005-10-03T12:00:00","4","25.35","-105.75","1967.0","TEPEHUANES DGO., MX","FM-12","99999","V020","999,9,C,0000,1","22000,1,9,N","015000,1,N,1","+0118,1","+0102,1","10097,1","24,0000,9,1",,,,,"00,1,+99999,9,99,9",,,"00,99,1,00,1,00,1,99999,9,00,1,00,1",,"01,9","999,+0085,1","120,N,+0112,1","240,M,+0338,1","99999,9,08202,1","9,9,999,9,+007,1",,,"SYN100AAXX  03121 76373 32965 00000 10118 20102 38202 40097 5//// 91150 333 10338 20112 30085 58007 70000;","Q01  00002PRCP24"
"76373099999","2005-10-03T18:00:00","4","25.35","-105.75","1967.0","TEPEHUANES DGO., MX","FM-12","99999","V020","140,1,N,0030,1","22000,1,9,N","070000,1,N,1","+0258,1","+0113,1","10106,1",,,,,,"01,1,+00360,1,09,1",,,"99,99,9,99,9,99,9,99999,9,00,1,00,1",,"01,9",,"120,M,+0282,1","240,N,+0100,1","99999,9,08203,1","8,1,006,1,+002,1",,,"SYN112AAXX  03181 76373 32488 01403 10258 20113 38203 40106 58006 81300 91745 333 10282 20100 30/// 56200 58002 81912;",
"76373099999","2005-10-04T12:00:00","4","25.35","-105.75","1967.0","TEPEHUANES DGO., MX","FM-12","99999","V020","999,9,C,0000,1","22000,1,9,N","015000,1,N,1","+0102,1","+0081,1","10093,1","24,0000,9,1",,,,,"00,1,+99999,9,99,9",,,"00,99,1,00,1,00,1,99999,9,00,1,00,1",,"01,9","999,+0070,1","120,N,+0090,1","240,M,+0330,1","99999,9,08197,1","9,9,999,9,-005,1",,,"SYN100AAXX  04121 76373 32965 00000 10102 20081 38197 40093 5//// 91145 333 10330 20090 30070 59005 70000;","Q01  00002PRCP24"
"76373099999","2005-10-04T18:00:00","4","25.35","-105.75","1967.0","TEPEHUANES DGO., MX","FM-12","99999","V020","110,1,N,0030,1","22000,1,9,N","070000,1,N,1","+0270,1","+0118,1","10104,1",,,,,,"02,1,+00360,1,09,1",,,"03,99,1,02,1,03,1,00450,1,04,1,00,1",,"01,9",,"120,M,+0294,1","240,N,+0088,1","99999,9,08196,1","6,1,015,1,-007,1",,,"SYN118AAXX  04181 76373 32488 31103 10270 20118 38196 40104 56015 82340 91745 333 10294 20088 30/// 56220 59007 82912 81360;",
"76373099999","2005-10-05T03:00:00","4","25.35","-105.75","1967.0","TEPEHUANES DGO., MX","FM-12","99999","V020","180,1,N,0010,1","03000,1,9,N","010000,1,N,1","+0210,1","+0140,1","10003,1",,,,,,"05,1,+03000,1,03,1",,,"05,99,1,05,1,00,1,01250,1,03,1,00,1",,"01,9",,,,"99999,9,08172,1","2,1,009,1,+999,9",,,"SYN100AAXX  05031 76373 32660 51801 10210 20140 38172 40003 52009 85030 90240 333 30/// 56200 58/// 85360;",
"76373099999","2005-10-05T06:00:00","4","25.35","-105.75","1967.0","TEPEHUANES DGO., MX","FM-12","99999","V020","999,9,C,0000,1","99999,9,9,N","010000,1,N,1","+0168,1","+0100,1","10025,1",,,,,,,,,,"0630,9","01,9",,"240,M,+0330,1","240,N,+0088,1","99999,9,08181,1","2,1,009,1,+999,9",,,"SYN100AAXX  05061 76373 32960 /0000 10168 20100 38181 40025 52009 90540 333 10330 20088 30/// 55105 58///;",
"76373099999","2005-10-05T18:00:00","4","25.35","-105.75","1967.0","TEPEHUANES DGO., MX","FM-12","99999","V020","120,1,N,0030,1","22000,1,9,N","070000,1,N,1","+0270,1","+0133,1","10083,1",,,,,,"02,1,+00300,1,03,1","01,1,+03000,1,03,1",,"04,99,1,02,1,03,1,00450,1,04,1,02,1",,"01,9",,"120,M,+0294,1","240,N,+0100,1","99999,9,08181,1","8,1,004,1,-015,1",,,"SYN124AAXX  05181 76373 32488 41203 10270 20133 38181 40083 58004 82342 91745 333 10294 20100 30/// 56229 59015 82310 81360 81070;",
"76373099999","2005-10-06T00:00:00","4","25.35","-105.75","1967.0","TEPEHUANES DGO., MX","FM-12","99999","V020","050,1,N,0030,1","09000,1,9,N","070000,1,N,1","+0276,1","+0129,1","09986,1","24,0000,9,1",,,,,"02,1,+00300,1,09,1","01,1,+00300,1,08,1","01,1,+03000,1,03,1","05,99,1,02,1,03,1,00450,1,03,1,01,1",,"01,9",,"120,M,+0328,1","180,N,+0100,1","99999,9,08147,1","6,1,015,1,-016,1",,,"SYN142AAXX  06001 76373 32488 50503 10276 20129 38147 49986 56015 82331 92347 333 10328 20100 30/// 50460 56222 59016 70000 82910 81810 81360 81070;",
"76373099999","2005-10-06T03:00:00","4","25.35","-105.75","1967.0","TEPEHUANES DGO., MX","FM-12","99999","V020","290,1,N,0010,1","99999,9,9,N","010000,1,N,1","+0214,1","+0118,1","10000,1",,,,,,,,,,,"01,9",,,,"99999,9,08164,1","2,1,017,1,-008,1",,,"SYN088AAXX  06031 76373 32360 /2901 10214 20118 38164 40000 52017 8//// 90240 333 30/// 59008;",
"76373099999","2005-10-06T12:00:00","4","25.35","-105.75","1967.0","TEPEHUANES DGO., MX","FM-12","99999","V020","270,1,N,0010,1","22000,1,9,N","015000,1,N,1","+0134,1","+0115,1","10074,1","24,0000,9,1",,,,,"01,1,+00360,1,08,1",,,"03,99,1,01,1,01,1,00450,1,04,1,00,1",,"01,9","999,+0100,1","120,N,+0122,1","240,M,+0328,1","99999,9,08186,1","9,9,999,9,+005,1",,,"SYN124AAXX  06121 76373 32465 32701 10134 20115 38186 40074 5//// 81140 91150 333 10328 20122 30100 56990 58005 70000 81812 82360;",
"76373099999","2005-10-06T18:00:00","4","25.35","-105.75","1967.0","TEPEHUANES DGO., MX","FM-12","99999","V020","110,1,N,0040,1","03000,1,9,N","070000,1,N,1","+0272,1","+0150,1","10088,1",,,,,,"02,1,+00300,1,09,1","02,1,+00300,1,08,1","01,1,+03000,1,03,1","06,99,1,02,1,03,1,00450,1,04,1,02,1",,"01,9",,"120,M,+0295,1","240,N,+0114,1","99999,9,08190,1","6,1,003,1,+009,1",,,"SYN130AAXX  06181 76373 32488 61104 10272 20150 38190 40088 56003 82342 91750 333 10295 20114 30/// 56222 58009 82910 82810 81360 81070;",
"76373099999","2005-10-07T00:00:00","4","25.35","-105.75","1967.0","TEPEHUANES DGO., MX","FM-12","99999","V020","999,9,C,0000,1","00300,1,C,N","070000,1,N,1","+0190,1","+0163,1","10016,1","03,0120,9,2","24,0118,9,2",,"9,1,06,1","8,1,06,1","06,1,+00300,1,06,1",,,"08,99,1,06,1,07,1,00450,1,03,1,00,1",,"09,9",,"120,M,+0324,1","180,N,+0114,1","99999,9,08163,1","7,1,005,1,+016,1",,"50,1","SYN142AAXX  07001 76373 21488 80000 10190 20163 38163 40016 57005 75098 86730 92348 333 10324 20114 31/// 50170 56220 58016 60127 70118 86610 83360;",
"76373099999","2005-10-07T12:00:00","4","25.35","-105.75","1967.0","TEPEHUANES DGO., MX","FM-12","99999","V020","999,9,C,0000,1","00300,1,9,N","001000,1,N,1","+0162,1","+0152,1","10090,1","03,0002,9,1","06,9999,9,9","24,0120,9,1",,,"08,1,+00300,1,07,1",,,"08,99,1,08,1,07,1,00450,1,00,1,00,1",,"01,9","999,+0150,1","120,N,+0152,1","240,M,+0324,1","99999,9,08194,1","9,9,999,9,+011,1",,,"SYN130AAXX  07121 76373 02410 80000 10162 20152 38194 40090 5//// 69921 88700 91145 333 10324 20152 30150 569// 58011 69927 70120 88710;",
"76373099999","2005-10-07T15:00:00","4","25.35","-105.75","1967.0","TEPEHUANES DGO., MX","FM-12","99999","V020","999,9,C,0000,1","03600,1,C,N","015000,1,N,1","+0172,1","+0151,1","10102,1",,,,,,"03,1,+00300,1,07,1",,,"08,99,1,03,1,06,1,00450,1,02,1,00,1",,"01,9",,,,"99999,9,08202,1","1,1,008,1,+009,1",,,"SYN106AAXX  07151 76373 32465 80000 10172 20151 38202 40102 51008 83620 91448 333 30/// 56220 58009 83710 85360;",
"76373099999","2005-10-07T18:00:00","4","25.35","-105.75","1967.0","TEPEHUANES DGO., MX","FM-12","99999","V020","999,9,C,0000,1","03600,1,9,N","015000,1,N,1","+0204,1","+0144,1","10097,1",,,,,,"01,1,+00300,1,08,1","03,1,+00600,1,06,1",,"08,99,1,03,1,05,1,00450,1,07,1,00,1",,"01,9",,"120,M,+0222,1","240,N,+0152,1","99999,9,08199,1","8,1,003,1,+009,1",,,"SYN124AAXX  07181 76373 32465 80000 10204 20144 38199 40097 58003 83570 91748 333 10222 20152 30/// 56220 58009 83620 81810 84360;",
"76373099999","2005-10-07T21:00:00","4","25.35","-105.75","1967.0","TEPEHUANES DGO., MX","FM-12","99999","V020","150,1,N,0020,1","00300,1,C,N","070000,1,N,1","+0234,1","+0151,1","10055,1",,,,,,"03,1,+00300,1,09,1","02,1,+00300,1,08,1",,"08,99,1,03,1,03,1,00250,1,05,1,00,1",,"01,9",,,,"99999,9,08176,1","6,1,023,1,+008,1",,,"SYN112AAXX  07211 76373 32388 81502 10234 20151 38176 40055 56023 83350 92040 333 30/// 56220 58008 83910 82810 84360;",
"76373099999","2005-10-08T00:00:00","4","25.35","-105.75","1967.0","TEPEHUANES DGO., MX","FM-12","99999","V020","330,1,N,0050,1","00420,1,9,N","070000,1,N,1","+0186,1","+0116,1","10053,1","24,0002,9,1",,,,,,,,"08,99,1,08,1,06,1,00450,1,00,1,00,1",,"01,9",,"120,M,+0268,1","180,N,+0152,1","99999,9,08182,1","2,1,006,1,+014,1",,,"SYN124AAXX  08001 76373 32488 83305 10186 20116 38182 40053 52006 88600 92345 333 10268 20152 30/// 50680 56200 58014 70002 88610;",
"76373099999","2005-10-08T21:00:00","4","25.35","-105.75","1967.0","TEPEHUANES DGO., MX","FM-12","99999","V020","999,9,C,0020,1","22000,1,9,N","070000,1,N,1","+0270,1","+0094,1","10025,1",,,,,,"02,1,+00300,1,09,1",,,"03,99,1,02,1,03,1,00450,1,00,1,00,1",,"01,9",,,,"99999,9,08159,1","6,1,030,1,-040,1",,,"SYN106AAXX  08211 76373 32488 30002 10270 20094 38159 40025 56030 82300 92045 333 30/// 56200 59040 82910 81810;",
"76373099999","2005-10-09T00:00:00","4","25.35","-105.75","1967.0","TEPEHUANES DGO., MX","FM-12","99999","V020","130,1,N,0030,1","00210,1,9,N","070000,1,N,1","+0250,1","+0094,1","10002,1","24,0000,9,1",,,,,,,,"05,99,1,05,1,03,1,00250,1,00,1,00,1",,"01,9",,"120,M,+0312,1","180,N,+0140,1","99999,9,08155,1","2,1,004,1,-027,1",,,"SYN124AAXX  09001 76373 32388 51303 10250 20094 38155 40002 52004 85300 92345 333 10312 20140 30/// 50353 56600 59027 70000 89200;",
"76373099999","2005-10-09T03:00:00","4","25.35","-105.75","1967.0","TEPEHUANES DGO., MX","FM-12","99999","V020","999,9,C,0000,1","22000,1,9,N","010000,1,N,1","+0200,1","+0110,1","10016,1",,,,,,"04,1,+00600,1,09,1",,,"04,99,1,04,1,03,1,00250,1,00,1,00,1",,"01,9",,,,"99999,9,08173,1","2,1,018,1,+999,9",,,"SYN100AAXX  09031 76373 32360 40000 10200 20110 38173 40016 52018 84300 90235 333 30/// 56600 58/// 84920;",
"76373099999","2005-10-09T12:00:00","4","25.35","-105.75","1967.0","TEPEHUANES DGO., MX","FM-12","99999","V020","999,9,C,0000,1","22000,1,9,N","001000,1,N,1","+0150,1","+9999,9","10069,1","01,0001,9,2","09,0000,2,2","24,0001,9,1","5,1,06,1","2,1,06,1","04,1,+00300,1,06,1",,,"04,99,1,04,1,04,1,00450,1,00,1,00,1",,"01,9","999,+0115,1","120,N,+0138,1","240,M,+0312,1","99999,9,08179,1",,,"50,1","SYN136AAXX  09121 76373 01410 40000 10150 20163 38179 40069 5//// 69918 75052 84400 91148 333 10312 20138 30115 56200 58/// 69915 70001 84610;",
"76373099999","2005-10-09T15:00:00","4","25.35","-105.75","1967.0","TEPEHUANES DGO., MX","FM-12","99999","V020","330,1,N,0030,1","00300,1,9,N","001000,1,N,1","+0160,1","+9999,9","10090,1",,,,,,"07,1,+00300,1,07,1",,,"07,99,1,07,1,07,1,00450,1,00,1,00,1",,"01,9",,,,"99999,9,08186,1","2,1,007,1,+999,9",,,"SYN100AAXX  09151 76373 32410 73303 10160 20164 38186 40090 52007 87700 91445 333 30/// 56200 58/// 87710;",
"76373099999","2005-10-09T18:00:00","4","25.35","-105.75","1967.0","TEPEHUANES DGO., MX","FM-12","99999","V020","320,1,N,0010,1","09000,1,C,N","070000,1,N,1","+0228,1","+0148,1","10076,1",,,,,,"04,1,+00300,1,09,1","02,1,+00300,1,08,1",,"07,99,1,04,1,03,1,00450,1,00,1,02,1",,"01,9",,"120,M,+0248,1","240,N,+0136,1","99999,9,08178,1","8,1,008,1,+019,1",,,"SYN124AAXX  09181 76373 32488 73201 10228 20148 38178 40076 58008 84302 91750 333 10248 20136 30/// 56202 58019 84910 82810 81070;",
"76373099999","2005-10-09T21:00:00","4","25.35","-105.75","1967.0","TEPEHUANES DGO., MX","FM-12","99999","V020","280,1,N,0070,1","00600,1,9,N","070000,1,N,1","+0254,1","+0108,1","10035,1",,,,,,"06,1,+00600,1,09,1",,,"06,99,1,06,1,03,1,00250,1,00,1,00,1",,"01,9",,,,"99999,9,08162,1","6,1,016,1,+003,1",,,"SYN100AAXX  09211 76373 32388 62807 10254 20108 38162 40035 56016 86300 92040 333 30/// 56600 58003 86920;",
"76373099999","2005-10-10T12:00:00","4","25.35","-105.75","1967.0","TEPEHUANES DGO., MX","FM-12","99999","V020","999,9,C,0000,1","22000,1,9,N","015000,1,N,1","+0104,1","+0089,1","10090,1","24,0000,2,1",,,,,"00,1,+99999,9,99,9",,,"00,99,1,00,1,00,1,99999,9,00,1,00,1",,"01,9","999,+0066,1","120,N,+0090,1","240,M,+0280,1","99999,9,08183,1","9,9,999,9,+004,1",,,"SYN100AAXX  10121 76373 32965 00000 10104 20089 38183 40090 5//// 91145 333 10280 20090 30066 58004 70000;",
"76373099999","2005-10-10T15:00:00","4","25.35","-105.75","1967.0","TEPEHUANES DGO., MX","FM-12","99999","V020","010,1,N,0010,1","22000,1,9,N","070000,1,N,1","+0142,1","+0100,1","10118,1",,,,,,"01,1,+00360,1,08,1",,,"02,99,1,01,1,01,1,00450,1,04,1,00,1",,"01,9",,,,"99999,9,08193,1","2,1,010,1,+007,1",,,"SYN106AAXX  10151 76373 32488 20101 10142 20100 38193 40118 52010 81140 91445 333 30/// 56220 58007 81812 81360;",
"76373099999","2005-10-10T18:00:00","4","25.35","-105.75","1967.0","TEPEHUANES DGO., MX","FM-12","99999","V020","310,1,N,0020,1","22000,1,9,N","070000,1,N,1","+0240,1","+0113,1","10102,1",,,,,,"02,1,+00360,1,08,1",,,"02,99,1,02,1,01,1,00450,1,00,1,00,1",,"01,9",,"120,M,+0262,1","240,N,+0078,1","99999,9,08186,1","8,1,007,1,+008,1",,,"SYN112AAXX  10181 76373 32488 23102 10240 20113 38186 40102 58007 82100 91746 333 10262 20078 30/// 56200 58008 82812;",
"76373099999","2005-10-10T21:00:00","4","25.35","-105.75","1967.0","TEPEHUANES DGO., MX","FM-12","99999","V020","300,1,N,0070,1","22000,1,9,N","070000,1,N,1","+0268,1","+0127,1","10061,1",,,,,,"02,1,+00300,1,08,1",,,"03,99,1,02,1,01,1,00450,1,03,1,00,1",,"01,9",,,,"99999,9,08168,1","7,1,018,1,+006,1",,,"SYN106AAXX  10211 76373 32488 33007 10268 20127 38168 40061 57018 82130 92045 333 30/// 56660 58006 82810 81360;",
"76373099999","2005-10-11T00:00:00","4","25.35","-105.75","1967.0","TEPEHUANES DGO., MX","FM-12","99999","V020","270,1,N,0040,1","22000,1,9,N","070000,1,N,1","+0236,1","+0066,1","10032,1","24,0000,9,1",,,,,"01,1,+00300,1,08,1",,,"02,99,1,01,1,01,1,00450,1,03,1,00,1",,"01,9",,"120,M,+0290,1","180,N,+0078,1","99999,9,08172,1","7,1,004,1,-015,1",,,"SYN130AAXX  11001 76373 32488 22704 10236 20066 38172 40032 57004 81130 92340 333 10290 20078 30/// 50390 56660 59015 70000 81810 81360;",
"76373099999","2005-10-11T12:00:00","4","25.35","-105.75","1967.0","TEPEHUANES DGO., MX","FM-12","99999","V020","999,9,C,0000,1","22000,1,9,N","015000,1,N,1","+0082,1","+0066,1","10134,1","24,0000,9,1",,,,,"00,1,+99999,9,99,9",,,"00,99,1,00,1,00,1,99999,9,00,1,00,1",,"01,9","999,+0046,1","120,N,+0068,1","240,M,+0290,1","99999,9,08204,1","9,9,999,9,+021,1",,,"SYN100AAXX  11121 76373 32965 00000 10082 20066 38204 40134 5//// 91145 333 10290 20068 30046 58021 70000;","Q01  00002PRCP24"
"76373099999","2005-10-11T18:00:00","4","25.35","-105.75","1967.0","TEPEHUANES DGO., MX","FM-12","99999","V020","110,1,N,0030,1","22000,1,9,N","070000,1,N,1","+0222,1","+0094,1","10137,1",,,,,,"01,1,+00360,1,08,1",,,"01,99,1,01,1,02,1,00450,1,01,1,00,1",,"01,9",,"120,M,+0252,1","240,N,+0056,1","99999,9,08200,1","7,1,014,1,+014,1",,,"SYN112AAXX  11181 76373 32488 11103 10222 20094 38200 40137 57014 81210 91748 333 10252 20056 30/// 56200 58014 81812;",
"76373099999","2005-10-11T21:00:00","4","25.35","-105.75","1967.0","TEPEHUANES DGO., MX","FM-12","99999","V020","100,1,N,0030,1","22000,1,9,N","070000,1,N,1","+0270,1","+0094,1","10076,1",,,,,,"02,1,+00300,1,08,1",,,"02,99,1,02,1,01,1,00450,1,00,1,00,1",,"01,9",,,,"99999,9,08177,1","6,1,023,1,+009,1",,,"SYN100AAXX  11211 76373 32488 21003 10270 20094 38177 40076 56023 82100 92046 333 30/// 56200 58009 82810;",
"76373099999","2005-10-12T00:00:00","4","25.35","-105.75","1967.0","TEPEHUANES DGO., MX","FM-12","99999","V020","120,1,N,0010,1","22000,1,9,N","070000,1,N,1","+0266,1","+0104,1","10028,1","24,0000,9,1",,,,,"01,1,+00300,1,09,1",,,"02,99,1,01,1,03,1,00450,1,00,1,00,1",,"01,9",,"120,M,+0308,1","180,N,+0056,1","99999,9,08166,1","7,1,011,1,-006,1",,,"SYN130AAXX  12001 76373 32488 21201 10266 20104 38166 40028 57011 81300 92348 333 10308 20056 30/// 50470 56600 59006 70000 81910 81810;",
"76373099999","2005-10-12T06:00:00","4","25.35","-105.75","1967.0","TEPEHUANES DGO., MX","FM-12","99999","V020","999,9,C,0000,1","22000,1,9,N","010000,1,N,1","+0138,1","+0068,1","10060,1",,,,,,"00,1,+99999,9,99,9",,,"00,99,1,00,1,00,1,99999,9,00,1,00,1","0642,9","01,9",,"240,M,+0308,1","240,N,+0056,1","99999,9,08210,1","2,1,029,1,+004,1",,,"SYN100AAXX  12061 76373 32360 00000 10138 20068 38210 40060 52029 90540 333 10308 20056 30/// 55107 58004;",
"76373099999","2005-10-12T12:00:00","4","25.35","-105.75","1967.0","TEPEHUANES DGO., MX","FM-12","99999","V020","999,9,C,0000,1","22000,1,9,N","015000,1,N,1","+0080,1","+0064,1","10118,1","24,0000,9,1",,,,,"00,1,+99999,9,99,9",,,"00,99,1,00,1,00,1,99999,9,00,1,00,1",,"01,9","999,+0050,1","120,N,+0068,1","240,M,+0308,1","99999,9,08196,1","9,9,999,9,-004,1",,,"SYN100AAXX  12121 76373 32965 00000 10080 20064 38196 40118 5//// 91148 333 10308 20068 30050 59004 70000;","Q01  00002PRCP24"
"76373099999","2005-10-12T15:00:00","4","25.35","-105.75","1967.0","TEPEHUANES DGO., MX","FM-12","99999","V020","270,1,N,0010,1","22000,1,9,N","070000,1,N,1","+0126,1","+0085,1","10148,1",,,,,,"00,1,+99999,9,99,9",,,"00,99,1,00,1,00,1,99999,9,00,1,00,1",,"01,9",,,,"99999,9,08203,1","2,1,007,1,-011,1",,,"SYN082AAXX  12151 76373 32988 02701 10126 20085 38203 40148 52007 91446 333 30/// 59011;",
"76373099999","2005-10-12T18:00:00","4","25.35","-105.75","1967.0","TEPEHUANES DGO., MX","FM-12","99999","V020","090,1,N,0060,1","22000,1,9,N","070000,1,N,1","+0252,1","+0097,1","10120,1",,,,,,"03,1,+00360,1,09,1",,,"03,99,1,03,1,03,1,00450,1,00,1,00,1",,"01,9",,"120,M,+0274,1","240,N,+0062,1","99999,9,08192,1","8,1,011,1,-008,1",,,"SYN112AAXX  12181 76373 32488 30906 10252 20097 38192 40120 58011 83300 91747 333 10274 20062 30/// 56600 59008 83912;",
"76373099999","2005-10-12T21:00:00","4","25.35","-105.75","1967.0","TEPEHUANES DGO., MX","FM-12","99999","V020","090,1,N,0020,1","22000,1,9,N","070000,1,N,1","+0292,1","+0083,1","10053,1",,,,,,"03,1,+00300,1,08,1",,,"04,99,1,03,1,02,1,00450,1,00,1,00,1",,"01,9",,,,"99999,9,08164,1","6,1,028,1,-013,1",,,"SYN106AAXX  12211 76373 32488 40902 10292 20083 38164 40053 56028 83200 92045 333 30/// 56200 59013 83810 81910;",
"76373099999","2005-10-13T03:00:00","4","25.35","-105.75","1967.0","TEPEHUANES DGO., MX","FM-12","99999","V020","240,1,N,0020,1","22000,1,9,N","010000,1,N,1","+0200,1","+0041,1","10016,1",,,,,,"01,1,+00600,1,06,1",,,"01,99,1,01,1,05,1,00250,1,00,1,00,1",,"01,9",,,,"99999,9,08178,1","2,1,017,1,-003,1",,,"SYN100AAXX  13031 76373 32360 12402 10200 20041 38178 40016 52017 81500 90245 333 30/// 56300 59003 81620;",
"76373099999","2005-10-13T12:00:00","4","25.35","-105.75","1967.0","TEPEHUANES DGO., MX","FM-12","99999","V020","999,9,C,0000,1","22000,1,9,N","015000,1,N,1","+0054,1","+0030,1","10127,1","24,0000,9,1",,,,,"01,1,+00360,1,08,1",,,"01,99,1,01,1,01,1,00450,1,00,1,00,1",,"01,9","999,+0015,1","120,N,+0042,1","240,M,+0317,1","99999,9,08196,1","9,9,999,9,+000,1",,,"SYN118AAXX  13121 76373 32465 10000 10054 20030 38196 40127 5//// 81100 91148 333 10317 20042 30015 56900 58000 79999 81812;","Q01  00002PRCP24"
"76373099999","2005-10-13T15:00:00","4","25.35","-105.75","1967.0","TEPEHUANES DGO., MX","FM-12","99999","V020","320,1,N,0020,1","22000,1,9,N","070000,1,N,1","+0096,1","+0042,1","10167,1",,,,,,"01,1,+00360,1,08,1",,,"01,99,1,01,1,01,1,00450,1,00,1,00,1",,"01,9",,,,"99999,9,08205,1","2,1,009,1,+002,1",,,"SYN100AAXX  13151 76373 32488 13202 10096 20042 38205 40167 52009 81100 91450 333 30/// 56600 58002 81812;",
"76373099999","2005-10-13T18:00:00","4","25.35","-105.75","1967.0","TEPEHUANES DGO., MX","FM-12","99999","V020","110,1,N,0030,1","22000,1,9,N","070000,1,N,1","+0242,1","+0075,1","10137,1",,,,,,"01,1,+00360,1,09,1",,,"01,99,1,01,1,03,1,00450,1,00,1,00,1",,"01,9",,"120,M,+0276,1","240,N,+0036,1","99999,9,08193,1","8,1,012,1,+001,1",,,"SYN112AAXX  13181 76373 32488 11103 10242 20075 38193 40137 58012 81300 91748 333 10276 20036 30/// 56200 58001 81912;",
"76373099999","2005-10-13T21:00:00","4","25.35","-105.75","1967.0","TEPEHUANES DGO., MX","FM-12","99999","V020","210,1,N,0080,1","22000,1,9,N","070000,1,N,1","+0284,2","+0038,1","10076,2",,,,,,"03,1,+00300,1,08,1",,,"03,99,1,03,1,01,1,00450,1,00,1,00,1",,"01,9",,,,"99999,9,08174,1","7,1,019,1,+010,1",,,"SYN100AAXX  13211 76373 32488 32108 10284 20038 38174 40076 57019 83100 92046 333 30/// 56600 58010 83810;",
"76373099999","2005-10-14T12:00:00","4","25.35","-105.75","1967.0","TEPEHUANES DGO., MX","FM-12","99999","V020","240,1,N,0010,1","22000,1,9,N","015000,1,N,1","+0078,1","+0051,1","10158,1","24,0000,9,1",,,,,"04,1,+00360,1,06,1",,,"04,99,1,04,1,06,1,00450,1,00,1,00,1",,"01,9","999,+0040,1","120,N,+0066,1","240,M,+0300,1","99999,9,08221,1","9,9,999,9,+025,1",,,"SYN118AAXX  14121 76373 32465 42401 10078 20051 38221 40158 5//// 84600 91150 333 10300 20066 30040 56200 58025 70000 84612;",
"76373099999","2005-10-14T18:00:00","4","25.35","-105.75","1967.0","TEPEHUANES DGO., MX","FM-12","99999","V020","090,1,N,0010,1","00300,1,9,N","070000,1,N,1","+0214,1","+0110,1","10177,1",,,,,,"05,1,+00300,1,08,1",,,"07,99,1,05,1,02,1,00450,1,03,1,00,1",,"01,9",,"120,M,+0252,1","240,N,+0092,1","99999,9,08234,1","7,1,001,1,+041,1",,,"SYN118AAXX  14181 76373 32488 70901 10214 20110 38234 40177 57001 85230 91750 333 10252 20092 30/// 56550 58041 85810 82360;",
"76373099999","2005-10-15T00:00:00","4","25.35","-105.75","1967.0","TEPEHUANES DGO., MX","FM-12","99999","V020","120,1,N,0030,1","03600,1,9,N","070000,1,N,1","+0206,1","+0130,1","10088,1","03,0008,9,1","24,0008,9,1",,"9,1,06,1","6,1,06,1","04,1,+00300,1,09,1","02,1,+00300,1,08,1",,"07,99,1,04,1,09,1,00450,1,03,1,00,1",,"09,9",,"120,M,+0270,1","180,N,+0092,1","99999,9,08204,1","7,1,004,1,-028,1",,"16,1","SYN148AAXX  15001 76373 21488 71203 10206 20130 38204 40088 57004 71696 84930 92345 333 10270 20092 31/// 50310 56660 59028 69987 70008 84910 82810 81360;",
"76373099999","2005-10-15T21:00:00","4","25.35","-105.75","1967.0","TEPEHUANES DGO., MX","FM-12","99999","V020","330,1,N,0050,1","99999,9,9,N","070000,1,N,1","+0258,1","+0121,1","10076,1",,,,,,"03,1,+00300,1,09,1",,,"05,99,1,03,1,03,1,00450,1,00,1,00,1",,"01,9",,,,"99999,9,08190,1","6,1,033,1,-018,1",,,"SYN106AAXX  15211 76373 32488 53305 10258 20121 38190 40076 56033 83300 92045 333 30/// 56600 59018 83910 82810;",
"76373099999","2005-10-16T12:00:00","4","25.35","-105.75","1967.0","TEPEHUANES DGO., MX","FM-12","99999","V020","999,9,C,0000,1","22000,1,9,N","015000,1,N,1","+0086,1","+0078,1","10141,1","24,0000,9,1",,,,,"00,1,+99999,9,99,9",,,"00,99,1,00,1,00,1,99999,9,00,1,00,1",,"01,9","999,+0060,1","120,N,+0078,1","240,M,+0292,1","99999,9,08210,1",,,,"SYN100AAXX  16121 76373 32965 00000 10086 20078 38210 40141 5//// 91148 333 10292 20078 30060 58/// 70000;","Q01  00002PRCP24"
"76373099999","2005-10-16T15:00:00","4","25.35","-105.75","1967.0","TEPEHUANES DGO., MX","FM-12","99999","V020","999,9,C,0000,1","22000,1,9,N","070000,1,N,1","+0116,1","+0096,1","10168,1",,,,,,"00,1,+99999,9,99,9",,,"00,99,1,00,1,00,1,99999,9,00,1,00,1",,"01,9",,,,"99999,9,08221,1","2,1,019,1,-015,1",,,"SYN082AAXX  16151 76373 32988 00000 10116 20096 38221 40168 52019 91446 333 30/// 59015;",
"76373099999","2005-10-16T18:00:00","4","25.35","-105.75","1967.0","TEPEHUANES DGO., MX","FM-12","99999","V020","110,1,N,0020,1","22000,1,9,N","070000,1,N,1","+0228,1","+0113,1","10148,1",,,,,,"02,1,+00360,1,09,1",,,"02,99,1,02,1,03,1,00450,1,00,1,00,1",,"01,9",,"120,M,+0252,1","240,N,+0070,1","99999,9,08214,1","8,1,007,1,+024,1",,,"SYN112AAXX  16181 76373 32488 21102 10228 20113 38214 40148 58007 82300 91745 333 10252 20070 30/// 56200 58024 82912;",
"76373099999","2005-10-16T21:00:00","4","25.35","-105.75","1967.0","TEPEHUANES DGO., MX","FM-12","99999","V020","120,1,N,0030,1","00600,1,9,N","070000,1,N,1","+0270,1","+0094,1","10099,1",,,,,,"06,1,+00600,1,09,1",,,"06,99,1,06,1,03,1,00250,1,00,1,00,1",,"01,9",,,,"99999,9,08196,1","6,1,018,1,+006,1",,,"SYN100AAXX  16211 76373 32388 61203 10270 20094 38196 40099 56018 86300 92050 333 30/// 56200 58006 86920;",
"76373099999","2005-10-17T12:00:00","4","25.35","-105.75","1967.0","TEPEHUANES DGO., MX","FM-12","99999","V020","999,9,C,0000,1","22000,1,9,N","015000,1,N,1","+0092,1","+0088,1","10165,1","24,0000,9,1",,,,,"02,1,+03000,1,03,1",,,"02,99,1,02,1,00,1,01250,1,03,1,00,1",,"01,9","999,+0060,1","120,N,+0080,1","240,M,+0298,1","99999,9,08231,1","9,9,999,9,+021,1",,,"SYN118AAXX  17121 76373 32665 20000 10092 20088 38231 40165 5//// 82030 91155 333 10298 20080 30060 56600 58021 79999 82360;","Q01  00002PRCP24"
"76373099999","2005-10-17T18:00:00","4","25.35","-105.75","1967.0","TEPEHUANES DGO., MX","FM-12","99999","V020","120,1,N,0030,1","22000,1,9,N","070000,1,N,1","+0216,1","+0120,1","10170,1",,,,,,"01,1,+00360,1,09,1",,,"03,99,1,01,1,03,1,00450,1,00,1,05,1",,"01,9",,"120,M,+0242,1","240,N,+0074,1","99999,9,08233,1","8,1,005,1,+019,1",,,"SYN118AAXX  17181 76373 32488 31203 10216 20120 38233 40170 58005 81305 91748 333 10242 20074 30/// 56606 58019 81912 82070;",
"76373099999","2005-10-17T21:00:00","4","25.35","-105.75","1967.0","TEPEHUANES DGO., MX","FM-12","99999","V020","150,1,N,0020,1","00300,1,C,N","070000,1,N,1","+0238,1","+0102,1","10106,2",,,,,,"04,1,+00300,1,09,1","01,1,+00300,1,08,1","01,1,+03000,1,03,1","08,99,1,04,1,09,1,00450,1,03,1,02,1",,"01,9",,,,"99999,9,08202,1","6,1,031,1,+006,1",,,"SYN118AAXX  17211 76373 32488 81502 10238 20102 38202 40106 56031 84932 92050 333 30/// 56555 58006 84910 81810 81360 82070;",
"76373099999","2005-10-18T00:00:00","4","25.35","-105.75","1967.0","TEPEHUANES DGO., MX","FM-12","99999","V020","180,1,N,0030,1","03000,1,C,N","070000,1,N,1","+0214,1","+0110,1","10081,1","24,0001,9,1",,,"9,1,06,1","5,1,06,1","04,1,+00300,1,09,1","02,1,+03000,1,03,1",,"08,99,1,04,1,09,1,00450,1,03,1,02,1",,"01,9",,"120,M,+0280,1","180,N,+0074,1","99999,9,08200,1","7,1,002,1,+005,1",,"29,1","SYN148AAXX  18001 76373 21488 81803 10214 20110 38200 40081 57002 72995 84932 92348 333 10280 20074 30/// 50140 56555 58005 69914 70001 84910 82360 81070;",
"76373099999","2005-10-18T06:00:00","4","25.35","-105.75","1967.0","TEPEHUANES DGO., MX","FM-12","99999","V020","270,1,N,0010,1","22000,1,9,N","010000,1,N,1","+0124,1","+0101,1","10123,1",,,,,,"00,1,+99999,9,99,9",,,"00,99,1,00,1,00,1,99999,9,00,1,00,1",,"01,9",,"240,M,+0280,1","240,N,+0074,1","99999,9,08233,1","2,1,022,1,+999,9",,,"SYN094AAXX  18061 76373 32960 02701 10124 20101 38233 40123 52022 90540 333 10280 20074 30/// 58///;",
"76373099999","2005-10-18T12:00:00","4","25.35","-105.75","1967.0","TEPEHUANES DGO., MX","FM-12","99999","V020","999,9,C,0000,1","22000,1,9,N","015000,1,N,1","+0084,1","+0080,1","10160,1","24,0000,9,1",,,,,"00,1,+99999,9,99,9",,,"00,99,1,00,1,00,1,99999,9,00,1,00,1",,"01,9","999,+0052,1","120,N,+0072,1","240,M,+0280,1","99999,9,08222,1","9,9,999,9,-009,1",,,"SYN100AAXX  18121 76373 32965 00000 10084 20080 38222 40160 5//// 91147 333 10280 20072 30052 59009 70001;","Q01  00002PRCP24"
"76373099999","2005-10-18T18:00:00","4","25.35","-105.75","1967.0","TEPEHUANES DGO., MX","FM-12","99999","V020","140,1,N,0020,1","22000,1,9,N","070000,1,N,1","+0236,1","+0117,1","10163,1",,,,,,"01,1,+00360,1,09,1",,,"01,99,1,01,1,03,1,00450,1,00,1,00,1",,"01,9",,"120,M,+0264,1","240,N,+0068,1","99999,9,08226,1","8,1,010,1,-007,1",,,"SYN112AAXX  18181 76373 32488 11402 10236 20117 38226 40163 58010 81300 91748 333 10264 20068 30/// 56200 59007 81912;",
"76373099999","2005-10-18T21:00:00","4","25.35","-105.75","1967.0","TEPEHUANES DGO., MX","FM-12","99999","V020","120,1,N,0030,1","22000,1,9,N","070000,1,N,1","+0284,1","+0120,1","10090,2",,,,,,"02,1,+00300,1,09,1",,,"03,99,1,02,1,03,1,00450,1,03,1,00,1",,"01,9",,,,"99999,9,08195,1","6,1,031,1,-007,1",,,"SYN106AAXX  18211 76373 32488 31203 10284 20120 38195 40090 56031 82330 92048 333 30/// 56660 59007 82910 81360;",
"76373099999","2005-10-19T03:00:00","4","25.35","-105.75","1967.0","TEPEHUANES DGO., MX","FM-12","99999","V020","180,1,N,0010,1","00600,1,9,N","010000,1,N,1","+0188,1","+0126,1","10062,1",,,,,,"05,1,+00600,1,09,1",,,"07,99,1,05,1,09,1,00250,1,06,1,00,1",,"01,9",,,,"99999,9,08209,1","2,1,025,1,-002,1",,,"SYN106AAXX  19031 76373 32360 71801 10188 20126 38209 40062 52025 85960 90245 333 30/// 56660 59002 85920 82360;",
"76373099999","2005-10-19T12:00:00","4","25.35","-105.75","1967.0","TEPEHUANES DGO., MX","FM-12","99999","V020","999,9,C,0000,1","22000,1,9,N","015000,1,N,1","+0104,1","+0097,1","10132,1","24,0000,9,1",,,,,"00,1,+99999,9,99,9",,,"00,99,1,00,1,00,1,99999,9,00,1,00,1",,"01,9","999,+0072,1","120,N,+0094,1","240,M,+0310,1","99999,9,08218,1","9,9,999,9,-004,1",,,"SYN100AAXX  19121 76373 32965 00000 10104 20097 38218 40132 5//// 91148 333 10310 20094 30072 59004 70000;","Q01  00002PRCP24"
"76373099999","2005-10-19T18:00:00","4","25.35","-105.75","1967.0","TEPEHUANES DGO., MX","FM-12","99999","V020","320,1,N,0010,1","22000,1,9,N","070000,1,N,1","+0262,1","+0113,1","10137,1",,,,,,"02,1,+00360,1,09,1",,,"02,99,1,02,1,03,1,00450,1,00,1,00,1",,"01,9",,"120,M,+0284,1","240,N,+0088,1","99999,9,08219,1","7,1,011,1,-007,1",,,"SYN112AAXX  19181 76373 32488 23201 10262 20113 38219 40137 57011 82300 91753 333 10284 20088 30/// 56200 59007 82912;",
"76373099999","2005-10-19T21:00:00","4","25.35","-105.75","1967.0","TEPEHUANES DGO., MX","FM-12","99999","V020","240,1,N,0020,1","22000,1,9,N","070000,1,N,1","+0294,1","+0103,1","10072,2",,,,,,"02,1,+00300,1,09,1",,,"04,99,1,04,1,06,1,00450,1,00,1,00,1",,"01,9",,,,"99999,9,08186,1","6,1,033,1,-009,1",,,"SYN106AAXX  19211 76373 32488 42402 10294 20103 38186 40072 56033 84600 92048 333 30/// 56600 59009 82910 82810;",
"76373099999","2005-10-20T00:00:00","4","25.35","-105.75","1967.0","TEPEHUANES DGO., MX","FM-12","99999","V020","240,1,N,0020,1","00420,1,9,N","070000,1,N,1","+0274,1","+0104,1","10046,1","24,0000,9,1",,,,,"04,1,+00300,1,09,1",,,"06,99,1,06,1,09,1,00450,1,00,1,00,1",,"01,9",,"120,M,+0322,1","180,N,+0088,1","99999,9,08188,1","2,1,002,1,+004,1",,,"SYN130AAXX  20001 76373 32488 62402 10274 20104 38188 40046 52002 86900 92345 333 10322 20088 30/// 50350 56600 58004 70000 84910 82810;",
"76373099999","2005-10-20T12:00:00","4","25.35","-105.75","1967.0","TEPEHUANES DGO., MX","FM-12","99999","V020","999,9,C,0000,1","22000,1,9,N","015000,1,N,1","+0092,1","+0081,1","10132,1","24,0000,9,1",,,,,"00,1,+99999,9,99,9",,,"00,99,1,00,1,00,1,99999,9,00,1,00,1",,"01,9","999,+0060,1","120,N,+0080,1","240,M,+0322,1","99999,9,08213,1","9,9,999,9,-005,1",,,"SYN100AAXX  20121 76373 32965 00000 10092 20081 38213 40132 5//// 91148 333 10322 20080 30060 59005 70000;","Q01  00002PRCP24"
"76373099999","2005-10-20T18:00:00","4","25.35","-105.75","1967.0","TEPEHUANES DGO., MX","FM-12","99999","V020","120,1,N,0030,1","22000,1,9,N","070000,1,N,1","+0254,1","+0106,1","10139,1",,,,,,"01,1,+00360,1,08,1",,,"01,99,1,01,1,01,1,00450,1,00,1,00,1",,"01,9",,"120,M,+0285,1","240,N,+0074,1","99999,9,08214,1","8,1,007,1,-005,1",,,"SYN112AAXX  20181 76373 32488 11203 10254 20106 38214 40139 58007 81100 91748 333 10285 20074 30/// 56600 59005 81812;",
"76373099999","2005-10-21T00:00:00","4","25.35","-105.75","1967.0","TEPEHUANES DGO., MX","FM-12","99999","V020","300,1,N,0040,1","22000,1,9,N","070000,1,N,1","+0230,1","+0075,1","10048,1","24,0000,9,1",,,,,,,,"03,99,1,03,1,01,1,00450,1,00,1,00,1",,"01,9",,"120,M,+0282,1","180,N,+0074,1","99999,9,08183,1","6,1,001,1,+005,1",,,"SYN124AAXX  21001 76373 32488 33004 10230 20075 38183 40048 56001 83100 92354 333 10282 20074 30/// 50350 56600 58005 70000 83810;",
"76373099999","2005-10-21T18:00:00","4","25.35","-105.75","1967.0","TEPEHUANES DGO., MX","FM-12","99999","V020","110,1,N,0030,1","22000,1,9,N","070000,1,N,1","+0254,1","+0087,1","10146,1",,,,,,"01,1,+00360,1,08,1",,,"01,99,1,01,1,01,1,00450,1,00,1,00,1",,"01,9",,"120,M,+0274,1","240,N,+0060,1","99999,9,08214,1","6,1,013,1,+000,1",,,"SYN112AAXX  21181 76373 32488 11103 10254 20087 38214 40146 56013 81100 91750 333 10274 20060 30/// 56600 58000 81812;",
"76373099999","2005-10-22T00:00:00","4","25.35","-105.75","1967.0","TEPEHUANES DGO., MX","FM-12","99999","V020","190,1,N,0010,1","22000,1,9,N","070000,1,N,1","+0264,1","+0090,1","10030,1","24,0000,9,1",,,,,"03,1,+00300,1,08,1",,,"04,99,1,04,1,01,1,00450,1,00,1,00,1",,"01,9",,"120,M,+0328,1","180,N,+0060,1","99999,9,08178,1","6,1,007,1,-005,1",,,"SYN130AAXX  22001 76373 32488 41901 10264 20090 38178 40030 56007 84100 92350 333 10328 20060 30/// 50510 56600 59005 70000 83810 81910;",
"76373099999","2005-10-22T21:00:00","4","25.35","-105.75","1967.0","TEPEHUANES DGO., MX","FM-12","99999","V020","120,1,N,0010,1","22000,1,9,N","070000,1,N,1","+0286,1","+0042,1","10034,1",,,,,,"04,1,+00300,1,08,1",,,"04,99,1,04,1,01,1,00450,1,00,1,00,1",,"01,9",,,,"99999,9,08166,1","7,1,031,1,-019,1",,,"SYN100AAXX  22211 76373 32488 41201 10286 20042 38166 40034 57031 84100 92035 333 30/// 56600 59019 84810;",
"76373099999","2005-10-23T03:00:00","4","25.35","-105.75","1967.0","TEPEHUANES DGO., MX","FM-12","99999","V020","270,1,N,0010,1","22000,1,9,N","010000,1,N,1","+0190,1","+0050,1","10014,1",,,,,,"00,1,+99999,9,99,9",,,"00,99,1,00,1,00,1,99999,9,00,1,00,1",,"01,9",,,,"99999,9,08182,1","2,1,017,1,+999,9",,,"SYN082AAXX  23031 76373 32960 02701 10190 20050 38182 40014 52017 90240 333 30/// 58///;",
"76373099999","2005-10-23T12:00:00","4","25.35","-105.75","1967.0","TEPEHUANES DGO., MX","FM-12","99999","V020","280,1,N,0010,1","22000,1,9,N","015000,1,N,1","+0066,1","+0026,1","10095,1","24,0000,9,1",,,,,"00,1,+99999,9,99,9",,,"00,99,1,00,1,00,1,99999,9,00,1,00,1",,"01,9","999,+0007,1","120,N,+0044,1","240,M,+0328,1","99999,9,08187,1",,,,"SYN100AAXX  23121 76373 32965 02801 10066 20026 38187 40095 5//// 91150 333 10328 20044 30007 58/// 70000;","Q01  00002PRCP24"
"76373099999","2005-10-23T15:00:00","4","25.35","-105.75","1967.0","TEPEHUANES DGO., MX","FM-12","99999","V020","310,1,N,0010,1","22000,1,9,N","070000,1,N,1","+0102,1","+0032,1","10170,2",,,,,,"01,1,+00360,1,08,1",,,"01,99,1,01,1,01,1,00450,1,00,1,00,1",,"01,9",,,,"99999,9,08202,1","1,1,015,1,+999,9",,,"SYN100AAXX  23151 76373 32488 13101 10102 20032 38202 40170 51015 81100 91450 333 30/// 56600 58/// 81812;",
"76373099999","2005-10-23T18:00:00","4","25.35","-105.75","1967.0","TEPEHUANES DGO., MX","FM-12","99999","V020","020,1,N,0030,1","22000,1,9,N","070000,1,N,1","+0254,1","+0028,1","10127,1",,,,,,"00,1,+99999,9,99,9",,,"00,99,1,00,1,00,1,99999,9,00,1,00,1",,"01,9",,"120,M,+0276,1","240,N,+0032,1","99999,9,08189,1","8,1,013,1,+023,1",,,"SYN094AAXX  23181 76373 32988 00203 10254 20028 38189 40127 58013 91748 333 10276 20032 30/// 58023;",
"76373099999","2005-10-23T21:00:00","4","25.35","-105.75","1967.0","TEPEHUANES DGO., MX","FM-12","99999","V020","300,1,N,0060,1","22000,1,9,N","070000,1,N,1","+0298,2","-0014,1","10064,2",,,,,,"00,1,+99999,9,99,9",,,"00,99,1,00,1,00,1,99999,9,00,1,00,1",,"01,9",,,,"99999,9,08175,1","6,1,008,1,+009,1",,,"SYN082AAXX  23211 76373 32988 03006 10298 21014 38175 40064 56008 92004 333 30/// 58009;",
"76373099999","2005-10-24T00:00:00","4","25.35","-105.75","1967.0","TEPEHUANES DGO., MX","FM-12","99999","V020","300,1,N,0050,1","22000,1,9,N","070000,1,N,1","+0252,1","-0017,1","10032,1","24,0000,9,1",,,,,"00,1,+99999,9,99,9",,,"00,99,1,00,1,00,1,99999,9,00,1,00,1","0300,9","01,9",,"120,M,+0310,1","180,N,+0032,1","99999,9,08169,1","6,1,006,1,+004,1",,,"SYN106AAXX  24001 76373 32988 03005 10252 21017 38169 40032 56006 92345 333 10310 20032 30/// 55050 58004 70000;","Q01  00002PRCP24"
"76373099999","2005-10-24T15:00:00","4","25.35","-105.75","1967.0","TEPEHUANES DGO., MX","FM-12","99999","V020","280,1,N,0010,1","22000,1,9,N","070000,1,N,1","+0102,1","+0053,1","10207,1",,,,,,"01,1,+00360,1,08,1",,,"01,99,1,01,1,01,1,00450,1,00,1,00,1",,"01,9",,,,"99999,9,08234,1","2,1,016,1,+032,1",,,"SYN100AAXX  24151 76373 32488 12801 10102 20053 38234 40207 52016 81100 91452 333 30/// 56600 58032 81812;",
"76373099999","2005-10-24T18:00:00","4","25.35","-105.75","1967.0","TEPEHUANES DGO., MX","FM-12","99999","V020","110,1,N,0030,1","22000,1,9,N","070000,1,N,1","+0228,1","+0067,1","10186,1",,,,,,"01,1,+00360,1,08,1",,,"01,99,1,01,1,01,1,00450,1,00,1,00,1",,"01,9",,"120,M,+0240,1","240,N,+0033,1","99999,9,08228,1","8,1,006,1,+039,1",,,"SYN112AAXX  24181 76373 32488 11103 10228 20067 38228 40186 58006 81100 91752 333 10240 20033 30/// 56200 58039 81812;",
"76373099999","2005-10-24T21:00:00","4","25.35","-105.75","1967.0","TEPEHUANES DGO., MX","FM-12","99999","V020","120,1,N,0040,1","22000,1,9,N","070000,1,N,1","+0256,1","+0086,1","10102,2",,,,,,"01,1,+00300,1,08,1",,,"01,99,1,01,1,01,1,00450,1,00,1,00,1",,"01,9",,,,"99999,9,08202,1","6,1,026,1,+027,1",,,"SYN100AAXX  24211 76373 32488 11204 10256 20086 38202 40102 56026 81100 92046 333 30/// 56600 58027 81810;",
"76373099999","2005-10-25T00:00:00","4","25.35","-105.75","1967.0","TEPEHUANES DGO., MX","FM-12","99999","V020","140,1,N,0050,1","22000,1,9,N","070000,1,N,1","+0224,1","+0097,1","10095,1","24,0000,9,1",,,,,,,,"02,99,1,02,1,01,1,00450,1,00,1,00,1",,"01,9",,"120,M,+0279,1","180,N,+0033,1","99999,9,08207,1","2,1,005,1,+038,1",,,"SYN124AAXX  25001 76373 32488 21405 10224 20097 38207 40095 52005 82100 92346 333 10279 20033 30/// 50560 56600 58038 70000 82810;",
"76373099999","2005-10-25T03:00:00","4","25.35","-105.75","1967.0","TEPEHUANES DGO., MX","FM-12","99999","V020","999,9,C,0000,1","22000,1,9,N","010000,1,N,1","+0166,1","+0084,1","10102,1",,,,,,"00,1,+99999,9,99,9",,,"00,99,1,00,1,00,1,99999,9,00,1,00,1",,"01,9",,,,"99999,9,08227,1","2,1,020,1,+999,9",,,"SYN082AAXX  25031 76373 32960 00000 10166 20084 38227 40102 52020 90240 333 30/// 58///;",
"76373099999","2005-10-25T06:00:00","4","25.35","-105.75","1967.0","TEPEHUANES DGO., MX","FM-12","99999","V020","999,9,C,0000,1","22000,1,9,N","010000,1,N,1","+0108,1","+0087,1","10148,1",,,,,,"00,1,+99999,9,99,9",,,"00,99,1,00,1,00,1,99999,9,00,1,00,1","0630,9","01,9",,"240,M,+0279,1","240,N,+0033,1","99999,9,08249,1","2,1,022,1,+999,9",,,"SYN100AAXX  25061 76373 32960 00000 10108 20087 38249 40148 52022 90540 333 10279 20033 30/// 55105 58///;",
"76373099999","2005-10-25T12:00:00","4","25.35","-105.75","1967.0","TEPEHUANES DGO., MX","FM-12","99999","V020","999,9,C,0000,1","22000,1,9,N","015000,1,N,1","+0058,1","+0050,1","10198,1","24,0000,9,1",,,,,"00,1,+99999,9,99,9",,,"00,99,1,00,1,00,1,99999,9,00,1,00,1",,"01,9","999,+0022,1","120,N,+0048,1","240,M,+0279,1","99999,9,08247,1","9,9,999,9,+029,1",,,"SYN100AAXX  25121 76373 32965 00000 10058 20050 38247 40198 5//// 91149 333 10279 20048 30022 58029 70000;","Q01  00002PRCP24"
"76373099999","2005-10-25T15:00:00","4","25.35","-105.75","1967.0","TEPEHUANES DGO., MX","FM-12","99999","V020","320,1,N,0010,1","22000,1,9,N","070000,1,N,1","+0098,1","+0069,1","10224,1",,,,,,"00,1,+99999,9,99,9",,,"00,99,1,00,1,00,1,99999,9,00,1,00,1",,"01,9",,,,"99999,9,08250,1","1,1,003,1,+016,1",,,"SYN082AAXX  25151 76373 32988 03201 10098 20069 38250 40224 51003 91450 333 30/// 58016;",
"76373099999","2005-10-25T18:00:00","4","25.35","-105.75","1967.0","TEPEHUANES DGO., MX","FM-12","99999","V020","130,1,N,0020,1","22000,1,9,N","070000,1,N,1","+0214,1","+0099,1","10202,1",,,,,,"01,1,+00360,1,08,1",,,"01,99,1,01,1,02,1,00450,1,00,1,00,1",,"01,9",,"120,M,+0240,1","240,N,+0042,1","99999,9,08240,1","8,1,010,1,+012,1",,,"SYN112AAXX  25181 76373 32488 11302 10214 20099 38240 40202 58010 81200 91754 333 10240 20042 30/// 56600 58012 81812;",
"76373099999","2005-10-25T21:00:00","4","25.35","-105.75","1967.0","TEPEHUANES DGO., MX","FM-12","99999","V020","120,1,N,0010,1","22000,1,9,N","070000,1,N,1","+0258,1","+0061,1","10125,2",,,,,,"02,1,+00300,1,08,1",,,"02,99,1,02,1,01,1,00450,1,00,1,00,1",,"01,9",,,,"99999,9,08206,1","6,1,034,1,+004,1",,,"SYN100AAXX  25211 76373 32488 21201 10258 20061 38206 40125 56034 82100 92054 333 30/// 56600 58004 82810;",
"76373099999","2005-10-26T00:00:00","4","25.35","-105.75","1967.0","TEPEHUANES DGO., MX","FM-12","99999","V020","150,1,N,0020,1","22000,1,9,N","070000,1,N,1","+0252,1","+0051,1","10076,2","24,0000,9,1",,,,,,,,"03,99,1,03,1,01,1,00450,1,00,1,00,1",,"01,9",,"120,M,+0290,1","180,N,+0042,1","99999,9,08195,1","7,1,011,1,-012,1",,,"SYN124AAXX  26001 76373 32488 31502 10252 20051 38195 40076 57011 83100 92345 333 10290 20042 30/// 50310 56600 59012 70000 83810;",
"76373099999","2005-10-26T03:00:00","4","25.35","-105.75","1967.0","TEPEHUANES DGO., MX","FM-12","99999","V020","999,9,C,0000,1","22000,1,9,N","010000,1,N,1","+0180,1","+0059,1","10095,1",,,,,,"00,1,+99999,9,99,9",,,"00,99,1,00,1,00,1,99999,9,00,1,00,1",,"01,9",,,,"99999,9,08215,1","2,1,020,1,-012,1",,,"SYN082AAXX  26031 76373 32960 00000 10180 20059 38215 40095 52020 90240 333 30/// 59012;",
"76373099999","2005-10-26T06:00:00","4","25.35","-105.75","1967.0","TEPEHUANES DGO., MX","FM-12","99999","V020","999,9,C,0000,1","22000,1,9,N","010000,1,N,1","+0130,1","+0077,1","10097,1",,,,,,"00,1,+99999,9,99,9",,,"00,99,1,00,1,00,1,99999,9,00,1,00,1","0624,9","01,9",,"240,M,+0290,1","240,N,+0042,1","99999,9,08224,1","2,1,014,1,-025,1",,,"SYN100AAXX  26061 76373 32960 00000 10130 20077 38224 40097 52014 90540 333 10290 20042 30/// 55104 59025;",
"76373099999","2005-10-26T12:00:00","4","25.35","-105.75","1967.0","TEPEHUANES DGO., MX","FM-12","99999","V020","280,1,N,0020,1","22000,1,9,N","015000,1,N,1","+0172,1","+0056,1","10130,1","24,0000,9,1",,,,,"00,1,+99999,9,99,9",,,"00,99,1,00,1,00,1,99999,9,00,1,00,1",,"01,9","999,+0035,1","120,N,+0060,1","240,M,+0290,1","99999,9,08202,1","9,9,999,9,-045,1",,,"SYN100AAXX  26121 76373 32965 02802 10172 20056 38202 40130 5//// 91148 333 10290 20060 30035 59045 70000;","Q01  00002PRCP24"
"76373099999","2005-10-26T18:00:00","4","25.35","-105.75","1967.0","TEPEHUANES DGO., MX","FM-12","99999","V020","300,1,N,0030,1","22000,1,9,N","070000,1,N,1","+0228,1","+0010,1","10137,1",,,,,,"00,1,+99999,9,99,9",,,"00,99,1,00,1,00,1,99999,9,00,1,00,1",,"01,9",,"120,M,+0250,1","240,N,+0046,1","99999,9,08198,1","7,1,013,1,-042,1",,,"SYN094AAXX  26181 76373 32988 03003 10228 20010 38198 40137 57013 91750 333 10250 20046 30/// 59042;",
"76373099999","2005-10-26T21:00:00","4","25.35","-105.75","1967.0","TEPEHUANES DGO., MX","FM-12","99999","V020","270,1,N,0040,1","22000,1,9,N","070000,1,N,1","+0256,1","-0062,1","10069,2",,,,,,"00,1,+99999,9,99,9",,,"00,99,1,00,1,00,1,99999,9,00,1,00,1",,"01,9",,,,"99999,9,08169,1","6,1,029,1,-037,1",,,"SYN082AAXX  26211 76373 32988 02704 10256 21062 38169 40069 56029 92049 333 30/// 59037;",
"76373099999","2005-10-27T06:00:00","4","25.35","-105.75","1967.0","TEPEHUANES DGO., MX","FM-12","99999","V020","999,9,C,0000,1","22000,1,9,N","010000,1,N,1","+0114,1","+0047,1","10086,1",,,,,,"00,1,+99999,9,99,9",,,"00,99,1,00,1,00,1,99999,9,00,1,00,1","0642,9","01,9",,"240,M,+0280,1","240,N,+0046,1","99999,9,08202,1","2,1,009,1,-022,1",,,"SYN100AAXX  27061 76373 32960 00000 10114 20047 38202 40086 52009 90540 333 10280 20046 30/// 55107 59022;",
"76373099999","2005-10-27T12:00:00","4","25.35","-105.75","1967.0","TEPEHUANES DGO., MX","FM-12","99999","V020","999,9,C,0000,1","22000,1,9,N","015000,1,N,1","+0034,1","+0020,1","10158,1","24,0000,9,1",,,,,"00,1,+99999,9,99,9",,,"00,99,1,00,1,00,1,99999,9,00,1,00,1",,"09,9","999,-0008,1","120,N,+0024,1","240,M,+0280,1","99999,9,08206,1","9,9,999,9,+004,1",,,"SYN100AAXX  27121 76373 32965 00000 10034 20020 38206 40158 5//// 91152 333 10280 20024 31008 58004 70000;","Q01  00002PRCP24"
"76373099999","2005-10-27T18:00:00","4","25.35","-105.75","1967.0","TEPEHUANES DGO., MX","FM-12","99999","V020","240,1,N,0010,1","22000,1,9,N","070000,1,N,1","+0204,1","-0027,1","10172,1",,,,,,"00,1,+99999,9,99,9",,,"00,99,1,00,1,00,1,99999,9,00,1,00,1",,"01,9",,"120,M,+0228,1","240,N,+0015,1","99999,9,08208,1","8,1,011,1,+006,1",,,"SYN094AAXX  27181 76373 32988 02401 10204 21027 38208 40172 58011 91755 333 10228 20015 30/// 58006;",
"76373099999","2005-10-27T21:00:00","4","25.35","-105.75","1967.0","TEPEHUANES DGO., MX","FM-12","99999","V020","150,1,N,0020,1","22000,1,9,N","070000,1,N,1","+0246,1","-0046,1","10106,2",,,,,,"00,1,+99999,9,99,9",,,"00,99,1,00,1,00,1,99999,9,00,1,00,1",,"01,9",,,,"99999,9,08182,1","6,1,026,1,+013,1",,,"SYN082AAXX  27211 76373 32988 01502 10246 21046 38182 40106 56026 82046 333 30/// 58013;",
"76373099999","2005-10-28T00:00:00","4","25.35","-105.75","1967.0","TEPEHUANES DGO., MX","FM-12","99999","V020","999,9,C,0000,1","22000,1,9,N","070000,1,N,1","+0242,1","-0054,1","10060,1","24,0000,9,1",,,,,"00,1,+99999,9,99,9",,,"00,99,1,00,1,00,1,99999,9,00,1,00,1",,"01,9",,"120,M,+0282,1","180,N,+0015,1","99999,9,08174,1","7,1,008,1,+008,1",,,"SYN106AAXX  28001 76373 32988 00000 10242 21054 38174 40060 57008 92346 333 10282 20015 30/// 50250 58008 70000;","Q01  00002PRCP24"
"76373099999","2005-10-28T06:00:00","4","25.35","-105.75","1967.0","TEPEHUANES DGO., MX","FM-12","99999","V020","999,9,C,0000,1","22000,1,9,N","010000,1,N,1","+0088,1","+0030,1","10099,1",,,,,,"00,1,+99999,9,99,9",,,"00,99,1,00,1,00,1,99999,9,00,1,00,1","0636,9","01,9",,"240,M,+0282,1","240,N,+0015,1","99999,9,08214,1","2,1,012,1,+012,1",,,"SYN100AAXX  28061 76373 32960 00000 10088 20030 38214 40099 52012 90540 333 10282 20015 30/// 55106 58012;",
"76373099999","2005-10-28T12:00:00","4","25.35","-105.75","1967.0","TEPEHUANES DGO., MX","FM-12","99999","V020","999,9,C,0000,1","22000,1,9,N","015000,1,N,1","+0026,1","+0004,1","10179,1","24,0000,9,1",,,,,"00,1,+99999,9,99,9",,,"00,99,1,00,1,00,1,99999,9,00,1,00,1",,"09,9","999,-0010,1","120,N,+0016,1","240,M,+0282,1","99999,9,08222,1","9,9,999,9,+016,1",,,"SYN100AAXX  28121 76373 32965 00000 10026 20004 38222 40179 5//// 91153 333 10282 20016 31010 58016 70000;","Q01  00002PRCP24"
"76373099999","2005-10-28T15:00:00","4","25.35","-105.75","1967.0","TEPEHUANES DGO., MX","FM-12","99999","V020","999,9,C,0000,1","22000,1,9,N","070000,1,N,1","+0076,1","+0023,1","10224,1",,,,,,"00,1,+99999,9,99,9",,,"00,99,1,00,1,00,1,99999,9,00,1,00,1",,"01,9",,,,"99999,9,08235,1","2,1,013,1,+016,1",,,"SYN082AAXX  28151 76373 32988 00000 10076 20023 38235 40224 52013 91448 333 30/// 58016;",
"76373099999","2005-10-28T18:00:00","4","25.35","-105.75","1967.0","TEPEHUANES DGO., MX","FM-12","99999","V020","130,1,N,0050,1","22000,1,9,N","070000,1,N,1","+0214,1","+0057,1","10199,1",,,,,,"01,1,+00360,1,08,1",,,"01,99,1,01,1,01,1,00450,1,00,1,00,1",,"01,9",,"120,M,+0236,1","240,N,+0012,1","99999,9,08226,1","8,1,009,1,+018,1",,,"SYN112AAXX  28181 76373 32488 11305 10214 20057 38226 40199 58009 81100 91747 333 10236 20012 30/// 56600 58018 81812;",
"76373099999","2005-10-28T21:00:00","4","25.35","-105.75","1967.0","TEPEHUANES DGO., MX","FM-12","99999","V020","120,1,N,0030,1","22000,1,9,N","070000,1,N,1","+0248,1","+0035,1","10123,2",,,,,,"03,1,+00300,1,08,1",,,"03,99,1,03,1,01,1,00450,1,00,1,00,1",,"01,9",,,,"99999,9,08195,1","7,1,031,1,+013,1",,,"SYN100AAXX  28211 76373 32488 31203 10248 20035 38195 40123 57031 83100 92045 333 30/// 56600 58013 83810;",
"76373099999","2005-10-29T00:00:00","4","25.35","-105.75","1967.0","TEPEHUANES DGO., MX","FM-12","99999","V020","150,1,N,0030,1","09000,1,9,N","070000,1,N,1","+0236,1","+0024,1","10079,2","24,0000,9,1",,,,,"03,1,+00300,1,08,1",,,"08,99,1,03,1,02,1,00450,1,00,1,08,1",,"01,9",,"120,M,+0282,1","180,N,+0012,1","99999,9,08191,1","7,1,004,1,+017,1",,,"SYN130AAXX  29001 76373 32488 81503 10236 20024 38191 40079 57004 83208 92354 333 10282 20012 30/// 50400 56606 58017 70000 83810 86270;",
"76373099999","2005-10-29T21:00:00","4","25.35","-105.75","1967.0","TEPEHUANES DGO., MX","FM-12","99999","V020","150,1,N,0010,1","22000,1,9,N","070000,1,N,1","+0264,1","+0042,1","10116,1",,,,,,"03,1,+00300,1,08,1",,,"03,99,1,03,1,01,1,00450,1,00,1,00,1",,"01,9",,,,"99999,9,08209,1","6,1,063,2,+014,1",,,"SYN100AAXX  29211 76373 32488 31501 10264 20042 38209 40116 56063 83100 92045 333 30/// 56600 58014 83810;",
"76373099999","2005-10-30T00:00:00","4","25.35","-105.75","1967.0","TEPEHUANES DGO., MX","FM-12","99999","V020","270,1,N,0050,1","22000,1,9,N","070000,1,N,1","+0224,1","+0027,1","10088,1","24,0000,9,1",,,,,,,,"03,99,1,03,1,02,1,00250,1,00,1,00,1",,"01,9",,"120,M,+0288,1","180,N,+0038,1","99999,9,08204,1","6,1,005,1,+013,1",,,"SYN124AAXX  30001 76373 32388 32705 10224 20027 38204 40088 56005 83200 92340 333 10288 20038 30/// 50370 56600 58013 70000 83820;",
"76373099999","2005-10-30T03:00:00","4","25.35","-105.75","1967.0","TEPEHUANES DGO., MX","FM-12","99999","V020","999,9,C,0000,1","22000,1,9,N","010000,1,N,1","+0150,1","+0041,1","10106,1",,,,,,"00,1,+99999,9,99,9",,,"00,99,1,00,1,00,1,99999,9,00,1,00,1",,"01,9",,,,"99999,9,08232,1","2,1,028,1,+999,9",,,"SYN082AAXX  30031 76373 32960 00000 10150 20041 38232 40106 52028 90240 333 30/// 58///;",
"76373099999","2005-10-30T15:00:00","4","25.35","-105.75","1967.0","TEPEHUANES DGO., MX","FM-12","99999","V020","999,9,C,0000,1","22000,1,9,N","070000,1,N,1","+0098,1","+0037,1","10238,1",,,,,,"00,1,+99999,9,99,9",,,"00,99,1,00,1,00,1,99999,9,00,1,00,1",,"01,9",,,,"99999,9,08264,1",,,,"SYN082AAXX  30151 76373 32988 00000 10098 20037 38264 40238 5//// 91450 333 30/// 58///;",
"76373099999","2005-10-30T18:00:00","4","25.35","-105.75","1967.0","TEPEHUANES DGO., MX","FM-12","99999","V020","090,1,N,0010,1","22000,1,9,N","070000,1,N,1","+0220,1","+0047,1","10202,1",,,,,,"00,1,+99999,9,99,9",,,"00,99,1,00,1,00,1,99999,9,00,1,00,1",,"01,9",,"120,M,+0244,1","240,N,+0028,1","99999,9,08256,1","6,1,008,1,+007,1",,,"SYN094AAXX  30181 76373 32988 00901 10220 20047 38256 40202 56008 91746 333 10244 20028 30/// 58007;",
"76373099999","2005-10-31T00:00:00","4","25.35","-105.75","1967.0","TEPEHUANES DGO., MX","FM-12","99999","V020","120,1,N,0010,1","22000,1,9,N","070000,1,N,1","+0260,1","+0035,1","10102,2","24,0000,9,1",,,,,,,,"02,99,1,02,1,02,1,00250,1,00,1,00,1",,"01,9",,"120,M,+0294,1","180,N,+0028,1","99999,9,08216,1","6,1,011,1,+012,1",,,"SYN124AAXX  31001 76373 32388 21201 10260 20035 38216 40102 56011 82200 92340 333 10294 20028 30/// 50280 56600 58012 70000 82820;",
"76373099999","2005-10-31T12:00:00","4","25.35","-105.75","1967.0","TEPEHUANES DGO., MX","FM-12","99999","V020","999,9,C,0000,1","22000,1,9,N","070000,1,N,1","+0054,1","+0037,1","10195,1","24,0000,9,1",,,,,"00,1,+99999,9,99,9",,,"00,99,1,00,1,00,1,99999,9,00,1,00,1",,"01,9","999,+0015,1","120,N,+0046,1","240,M,+0294,1","99999,9,08246,1",,,,"SYN100AAXX  31121 76373 32988 00000 10054 20037 38246 40195 5//// 91148 333 10294 20046 30015 58/// 70000;","Q01  00002PRCP24"
"76373099999","2005-10-31T15:00:00","4","25.35","-105.75","1967.0","TEPEHUANES DGO., MX","FM-12","99999","V020","999,9,C,0000,1","22000,1,9,N","070000,1,N,1","+0100,1","+0056,1","10238,1",,,,,,"04,1,+06000,1,00,1",,,"04,99,1,00,1,00,1,99999,9,00,1,04,1",,"01,9",,,,"99999,9,08260,1","2,1,014,1,-004,1",,,"SYN100AAXX  31151 76373 32988 40000 10100 20056 38260 40238 52014 80004 91448 333 30/// 56006 59004 84070;",
"76373099999","2005-10-31T18:00:00","4","25.35","-105.75","1967.0","TEPEHUANES DGO., MX","FM-12","99999","V020","120,1,N,0010,1","22000,1,9,N","070000,1,N,1","+0230,1","+0065,1","10221,1",,,,,,"01,1,+00360,1,08,1",,,"03,99,1,01,1,01,1,00450,1,00,1,02,1",,"01,9",,"120,M,+0254,1","240,N,+0036,1","99999,9,08257,1","8,1,003,1,+001,1",,,"SYN118AAXX  31181 76373 32488 31201 10230 20065 38257 40221 58003 81102 91745 333 10254 20036 30/// 56606 58001 81812 82070;",
"76373099999","2005-10-31T21:00:00","4","25.35","-105.75","1967.0","TEPEHUANES DGO., MX","FM-12","99999","V020","120,1,N,0040,1","09000,1,C,N","070000,1,N,1","+0268,1","+0048,1","10153,1",,,,,,"02,1,+00300,1,08,1",,,"08,99,1,02,1,01,1,00450,1,00,1,08,1",,"01,9",,,,"99999,9,08233,1","6,1,024,1,+006,1",,,"SYN106AAXX  31211 76373 32488 81204 10268 20048 38233 40153 56024 82108 92045 333 30/// 56202 58006 82810 86270;",
"76373099999","2005-11-01T00:00:00","4","25.35","-105.75","1967.0","TEPEHUANES DGO., MX","FM-12","99999","V020","060,1,N,0040,1","22000,1,9,N","070000,1,N,1","+0242,1","+0025,1","10123,1","24,0000,9,1",,,,,"00,1,+99999,9,99,9",,,"00,99,1,00,1,00,1,99999,9,00,1,00,1",,"01,9",,"120,M,+0289,1","180,N,+0036,1","99999,9,08235,1","2,1,002,1,+019,1",,,"SYN106AAXX  01001 76373 32988 00604 10242 20025 38235 40123 52002 92347 333 10289 20036 30/// 50420 58019 70000;","Q01  00002PRCP24"
"76373099999","2005-11-01T06:00:00","4","25.35","-105.75","1967.0","TEPEHUANES DGO., MX","FM-12","99999","V020","999,9,C,0000,1","22000,1,9,N","010000,1,N,1","+0116,1","-0003,1","10158,1",,,,,,"00,1,+99999,9,99,9",,,"00,99,1,00,1,00,1,99999,9,00,1,00,1","0630,9","01,9",,"240,M,+0289,1",,"99999,9,08268,1","2,1,012,1,+999,9",,,"SYN100AAXX  01061 76373 32960 00000 10116 21003 38268 40158 52012 90540 333 10289 2//// 30/// 55105 58///;",
"76373099999","2005-11-01T12:00:00","4","25.35","-105.75","1967.0","TEPEHUANES DGO., MX","FM-12","99999","V020","999,9,C,0000,1","22000,1,9,N","015000,1,N,1","+0052,1","+0018,1","10231,1","24,0000,9,1",,,,,"00,1,+99999,9,99,9",,,"00,99,1,00,1,00,1,99999,9,00,1,00,1",,"01,9","999,+0008,1","120,N,+0042,1","240,M,+0289,1","99999,9,08273,1","9,9,999,9,+027,1",,,"SYN100AAXX  01121 76373 32965 00000 10052 20018 38273 40231 5//// 91155 333 10289 20042 30008 58027 70000;","Q01  00002PRCP24"
"76373099999","2005-11-01T18:00:00","4","25.35","-105.75","1967.0","TEPEHUANES DGO., MX","FM-12","99999","V020","110,1,N,0010,1","22000,1,9,N","070000,1,N,1","+0198,1","+0015,1","10259,1",,,,,,"00,1,+99999,9,99,9",,,"00,99,1,00,1,00,1,99999,9,00,1,00,1",,"01,9",,"120,M,+0228,1","240,N,+0030,1","99999,9,08284,1","7,1,007,1,+027,1",,,"SYN094AAXX  01181 76373 32988 01101 10198 20015 38284 40259 57007 91745 333 10228 20030 30/// 58027;",
"76373099999","2005-11-02T00:00:00","4","25.35","-105.75","1967.0","TEPEHUANES DGO., MX","FM-12","99999","V020","130,1,N,0040,1","22000,1,9,N","070000,1,N,1","+0214,1","-0009,1","10158,1","24,0000,9,1",,,,,,,,"02,99,1,00,1,00,1,99999,9,00,1,01,1",,"01,9",,"120,M,+0262,1","180,N,+0030,1","99999,9,08252,1","7,1,005,1,+017,1",,,"SYN124AAXX  02001 76373 32988 21304 10214 21009 38252 40158 57005 80001 92347 333 10262 20030 30/// 50420 56006 58017 70000 82070;",
"76373099999","2005-11-02T12:00:00","4","25.35","-105.75","1967.0","TEPEHUANES DGO., MX","FM-12","99999","V020","999,9,C,0000,1","22000,1,9,N","015000,1,N,1","+0016,1","-0003,1","10252,1","24,0000,9,1",,,,,"00,1,+99999,9,99,9",,,"00,99,1,00,1,00,1,99999,9,00,1,00,1",,"09,9","999,-0018,1","120,N,+0012,1","240,M,+0262,1","99999,9,08271,1","9,9,999,9,+002,1",,,"SYN100AAXX  02121 76373 32965 00000 10016 21003 38271 40252 5//// 91150 333 10262 20012 31018 58002 70000;","Q01  00002PRCP24"
"76373099999","2005-11-02T15:00:00","4","25.35","-105.75","1967.0","TEPEHUANES DGO., MX","FM-12","99999","V020","999,9,C,0000,1","22000,1,9,N","070000,1,N,1","+0062,1","+0007,1","10290,1",,,,,,"00,1,+99999,9,99,9",,,"00,99,1,00,1,00,1,99999,9,00,1,00,1",,"01,9",,,,"99999,9,08283,1","2,1,012,1,-008,1",,,"SYN082AAXX  02151 76373 32988 00000 10062 20007 38283 40290 52012 91450 333 30/// 59008;",
"76373099999","2005-11-02T18:00:00","4","25.35","-105.75","1967.0","TEPEHUANES DGO., MX","FM-12","99999","V020","130,1,N,0020,1","22000,1,9,N","070000,1,N,1","+0190,1","+0020,1","10271,1",,,,,,"01,1,+06000,1,00,1",,,"01,99,1,00,1,00,1,99999,9,00,1,02,1",,"01,9",,"120,M,+0226,1","240,N,-0002,1","99999,9,08276,1","8,1,007,1,-012,1",,,"SYN112AAXX  02181 76373 32988 11302 10190 20020 38276 40271 58007 80002 91746 333 10226 21002 30/// 56006 59012 81070;",
"76373099999","2005-11-03T00:00:00","4","25.35","-105.75","1967.0","TEPEHUANES DGO., MX","FM-12","99999","V020","150,1,N,0030,1","22000,1,9,N","070000,1,N,1","+0246,1","-0037,1","10130,2","24,0000,9,1",,,,,,,,"02,99,1,00,1,00,1,99999,9,00,1,01,1",,"01,9",,"120,M,+0284,1","180,N,-0002,1","99999,9,08230,1","7,1,010,1,-022,1",,,"SYN124AAXX  03001 76373 32988 21503 10246 21037 38230 40130 57010 80001 92345 333 10284 21002 30/// 50390 56006 59022 70000 82070;",
"76373099999","2005-11-03T06:00:00","4","25.35","-105.75","1967.0","TEPEHUANES DGO., MX","FM-12","99999","V020","999,9,C,0000,1","22000,1,9,N","010000,1,N,1","+0080,1","-0009,1","10158,1",,,,,,"00,1,+99999,9,99,9",,,"00,99,1,00,1,00,1,99999,9,00,1,00,1","0630,9","01,9",,"240,M,+0284,1","240,N,-0002,1","99999,9,08263,1","2,1,016,1,-012,1",,,"SYN100AAXX  03061 76373 32960 00000 10080 21009 38263 40158 52016 90540 333 10284 21002 30/// 55105 59012;",
"76373099999","2005-11-03T18:00:00","4","25.35","-105.75","1967.0","TEPEHUANES DGO., MX","FM-12","99999","V020","150,1,N,0020,1","22000,1,9,N","070000,1,N,1","+0206,1","+0013,1","10240,1",,,,,,"01,1,+06000,1,00,1",,,"01,99,1,00,1,00,1,99999,9,00,1,02,1",,"01,9",,"120,M,+0232,1","240,N,+0000,1","99999,9,08255,1","8,1,014,1,-021,1",,,"SYN112AAXX  03181 76373 32988 11502 10206 20013 38255 40240 58014 80002 91745 333 10232 20000 30/// 56006 59021 81070;",
"76373099999","2005-11-04T18:00:00","4","25.35","-105.75","1967.0","TEPEHUANES DGO., MX","FM-12","99999","V020","080,1,N,0010,1","06000,1,9,N","070000,1,N,1","+0180,1","+0049,1","10192,1",,,,,,"07,1,+06000,1,02,1",,,"07,99,1,00,1,00,1,99999,9,00,1,07,1",,"01,9",,"120,M,+0200,1","240,N,+0028,1","99999,9,08222,1","8,1,008,1,-023,1",,,"SYN112AAXX  04181 76373 32988 70801 10180 20049 38222 40192 58008 80007 91745 333 10200 20028 30/// 56006 59023 87270;",
"76373099999","2005-11-04T21:00:00","4","25.35","-105.75","1967.0","TEPEHUANES DGO., MX","FM-12","99999","V020","270,1,N,0020,1","06000,1,9,N","070000,1,N,1","+0264,1","+0013,1","10134,1",,,,,,"06,1,+06000,1,02,1",,,"06,99,1,00,1,00,1,99999,9,00,1,08,1",,"01,9",,,,"99999,9,08190,1","6,1,032,1,-037,1",,,"SYN100AAXX  04211 76373 32988 62702 10264 20013 38190 40134 56032 80008 92045 333 30/// 56006 59037 86270;",
"76373099999","2005-11-05T18:00:00","4","25.35","-105.75","1967.0","TEPEHUANES DGO., MX","FM-12","99999","V020","120,1,N,0010,1","22000,1,9,N","070000,1,N,1","+0214,1","+0032,1","10155,1",,,,,,"00,1,+99999,9,99,9",,,"00,99,1,00,1,00,1,99999,9,00,1,00,1",,"01,9",,"120,M,+0248,1","240,N,+0015,1","99999,9,08201,1","9,9,999,9,-021,1",,,"SYN094AAXX  05181 76373 32988 01201 10214 20032 38201 40155 5//// 91745 333 10248 20015 30/// 59021;",
"76373099999","2005-11-05T21:00:00","4","25.35","-105.75","1967.0","TEPEHUANES DGO., MX","FM-12","99999","V020","270,1,N,0010,1","22000,1,9,N","070000,1,N,1","+0280,1","+0007,1","10088,2",,,,,,"00,1,+99999,9,99,9",,,"00,99,1,00,1,00,1,99999,9,00,1,00,1",,"01,9",,,,"99999,9,08173,1","6,1,028,1,-017,1",,,"SYN082AAXX  05211 76373 32988 02701 10280 20007 38173 40088 56028 92045 333 30/// 59017;",
"76373099999","2005-11-06T00:00:00","4","25.35","-105.75","1967.0","TEPEHUANES DGO., MX","FM-12","99999","V020","110,1,N,0040,1","22000,1,9,N","070000,1,N,1","+0252,1","-0025,1","10039,1","24,0000,9,1",,,,,"00,1,+99999,9,99,9",,,"00,99,1,00,1,00,1,99999,9,00,1,00,1",,"01,9",,"120,M,+0310,1","180,N,+0015,1","99999,9,08164,1","6,1,009,1,-025,1",,,"SYN106AAXX  06001 76373 32988 01104 10252 21025 38164 40039 56009 92345 333 10310 20015 30/// 50400 59025 70000;","Q01  00002PRCP24"
"76373099999","2005-11-06T03:00:00","4","25.35","-105.75","1967.0","TEPEHUANES DGO., MX","FM-12","99999","V020","290,1,N,0020,1","22000,1,9,N","010000,1,N,1","+0160,1","-0026,1","10048,1",,,,,,"00,1,+99999,9,99,9",,,"00,99,1,00,1,00,1,99999,9,00,1,00,1",,"01,9",,,,"99999,9,08195,1","2,1,031,1,+999,9",,,"SYN082AAXX  06031 76373 32960 02902 10160 21026 38195 40048 52031 90240 333 30/// 58///;",
"76373099999","2005-11-06T15:00:00","4","25.35","-105.75","1967.0","TEPEHUANES DGO., MX","FM-12","99999","V020","999,9,C,0000,1","22000,1,9,N","070000,1,N,1","+0074,1","+0016,1","10221,1",,,,,,"00,1,+99999,9,99,9",,,"00,99,1,00,1,00,1,99999,9,00,1,00,1",,"01,9",,,,"99999,9,08233,1",,,,"SYN082AAXX  06151 76373 32988 00000 10074 20016 38233 40221 5//// 91440 333 30/// 58///;",
"76373099999","2005-11-07T03:00:00","4","25.35","-105.75","1967.0","TEPEHUANES DGO., MX","FM-12","99999","V020","999,9,C,0000,1","00390,1,9,N","025000,1,N,1","+0186,1","+0181,1","10145,1","03,0001,9,1",,,"5,1,03,1","2,1,03,1","07,1,+00390,1,07,1",,,"07,99,1,07,1,06,1,00450,1,99,9,99,9",,"01,9",,,,"99999,9,08794,2","2,1,999,9,+999,9",,"02,1","SYN112AAXX  07031 76373 21475 70000 10186 20181 38794 40145 52/// 70252 876// 90245 333 30/// 569// 58/// 69917 87713;",
"76373099999","2005-11-07T18:00:00","4","25.35","-105.75","1967.0","TEPEHUANES DGO., MX","FM-12","99999","V020","090,1,N,0020,1","22000,1,9,N","070000,1,N,1","+0212,1","+0000,1","10221,1",,,,,,"00,1,+99999,9,99,9",,,"00,99,1,00,1,00,1,99999,9,00,1,00,1",,"01,9",,"120,M,+0242,1","240,N,+0000,1","99999,9,08238,1","8,1,005,1,+017,1",,,"SYN094AAXX  07181 76373 32988 00902 10212 20000 38238 40221 58005 91746 333 10242 20000 30/// 58017;",
"76373099999","2005-11-07T21:00:00","4","25.35","-105.75","1967.0","TEPEHUANES DGO., MX","FM-12","99999","V020","120,1,N,0040,1","22000,1,9,N","070000,1,N,1","+0272,1","-0032,1","10141,2",,,,,,"00,1,+99999,9,99,9",,,"00,99,1,00,1,00,1,99999,9,00,1,00,1",,"01,9",,,,"99999,9,99999,9","6,1,030,1,+010,1",,,"SYN082AAXX  07211 76373 32988 01204 10272 21032 38408 40141 56030 92045 333 30/// 58010;","Q01 084083APOSP "
"76373099999","2005-11-08T03:00:00","4","25.35","-105.75","1967.0","TEPEHUANES DGO., MX","FM-12","99999","V020","270,1,N,0010,1","22000,1,9,N","010000,1,N,1","+0142,1","-0022,1","10093,1",,,,,,"00,1,+99999,9,99,9",,,"00,99,1,00,1,00,1,99999,9,00,1,00,1",,"01,9",,,,"99999,9,08221,1","2,1,013,1,+999,9",,,"SYN082AAXX  08031 76373 32960 02701 10142 21022 38221 40093 52013 90240 333 30/// 58///;",
"76373099999","2005-11-08T06:00:00","4","25.35","-105.75","1967.0","TEPEHUANES DGO., MX","FM-12","99999","V020","999,9,C,0000,1","22000,1,9,N","010000,1,N,1","+0084,1","-0004,1","10132,1",,,,,,"00,1,+99999,9,99,9",,,"00,99,1,00,1,00,1,99999,9,00,1,00,1","0624,9","01,9",,"240,M,+0298,1","240,N,+0000,1","99999,9,08241,1","2,1,020,1,+999,9",,,"SYN100AAXX  08061 76373 32960 00000 10084 21004 38241 40132 52020 90550 333 10298 20000 30/// 55104 58///;",
"76373099999","2005-11-08T12:00:00","4","25.35","-105.75","1967.0","TEPEHUANES DGO., MX","FM-12","99999","V020","999,9,C,0000,1","22000,1,9,N","005000,1,N,1","+0016,1","-0010,1","10216,1","24,0000,9,1",,,,,"00,1,+99999,9,99,9",,,"00,99,1,00,1,00,1,99999,9,00,1,00,1",,"09,9","999,-0025,1","120,N,+0008,1","240,M,+0298,1","99999,9,08243,1","9,9,999,9,+009,1",,,"SYN100AAXX  08121 76373 32950 00000 10016 21010 38243 40216 5//// 91150 333 10298 20008 31025 58009 70000;","Q01  00002PRCP24"
"76373099999","2005-11-08T15:00:00","4","25.35","-105.75","1967.0","TEPEHUANES DGO., MX","FM-12","99999","V020","999,9,C,0000,1","22000,1,9,N","070000,1,N,1","+0060,1","-0008,1","10257,1",,,,,,"00,1,+99999,9,99,9",,,"00,99,1,00,1,00,1,99999,9,00,1,00,1",,"01,9",,,,"99999,9,08255,1","2,1,012,1,+002,1",,,"SYN082AAXX  08151 76373 32988 00000 10060 21008 38255 40257 52012 91450 333 30/// 58002;",
"76373099999","2005-11-08T18:00:00","4","25.35","-105.75","1967.0","TEPEHUANES DGO., MX","FM-12","99999","V020","130,1,N,0010,1","22000,1,9,N","070000,1,N,1","+0212,1","+0010,1","10228,1",,,,,,"00,1,+99999,9,99,9",,,"00,99,1,00,1,00,1,99999,9,00,1,00,1",,"01,9",,"120,M,+0244,1","240,N,+0002,1","99999,9,08245,1","7,1,010,1,+007,1",,,"SYN094AAXX  08181 76373 32988 01301 10212 20010 38245 40228 57010 91748 333 10244 20002 30/// 58007;",
"76373099999","2005-11-08T21:00:00","4","25.35","-105.75","1967.0","TEPEHUANES DGO., MX","FM-12","99999","V020","090,1,N,0030,1","22000,1,9,N","070000,1,N,1","+0260,2","-0013,1","10151,2",,,,,,"00,1,+99999,9,99,9",,,"00,99,1,00,1,00,1,99999,9,00,1,00,1",,"01,9",,,,"99999,9,08217,1","6,1,028,1,-037,1",,,"SYN082AAXX  08211 76373 32988 00903 10260 21013 38217 40151 56028 92045 333 30/// 59037;",
"76373099999","2005-11-09T00:00:00","4","25.35","-105.75","1967.0","TEPEHUANES DGO., MX","FM-12","99999","V020","120,1,N,0030,1","22000,1,9,N","070000,1,N,1","+0246,1","-0011,1","10099,2","24,0000,9,1",,,,,"00,1,+99999,9,99,9",,,"00,99,1,00,1,00,1,99999,9,00,1,00,1",,"01,9",,"120,M,+0292,1","180,N,+0002,1","99999,9,08208,1","7,1,009,1,+002,1",,,"SYN106AAXX  09001 76373 32988 01203 10246 21011 38208 40099 57009 92345 333 10292 20002 30/// 50370 58002 70000;","Q01  00002PRCP24"
"76373099999","2005-11-09T03:00:00","4","25.35","-105.75","1967.0","TEPEHUANES DGO., MX","FM-12","99999","V020","280,1,N,0020,1","22000,1,9,N","010000,1,N,1","+0148,1","-0026,1","10099,1",,,,,,"00,1,+99999,9,99,9",,,"00,99,1,00,1,00,1,99999,9,00,1,00,1",,"01,9",,,,"99999,9,08226,1","2,1,018,1,+005,1",,,"SYN082AAXX  09031 76373 32960 02802 10148 21026 38226 40099 52018 90245 333 30/// 58005;",
"76373099999","2005-11-09T06:00:00","4","25.35","-105.75","1967.0","TEPEHUANES DGO., MX","FM-12","99999","V020","999,9,C,0000,1","22000,1,9,N","010000,1,N,1","+0082,1","-0001,1","10125,1",,,,,,"00,1,+99999,9,99,9",,,"00,99,1,00,1,00,1,99999,9,00,1,00,1","0624,9","01,9",,"240,M,+0292,1","240,N,+0002,1","99999,9,08235,1","2,1,027,1,-006,1",,,"SYN100AAXX  09061 76373 32960 00000 10082 21001 38235 40125 52027 90540 333 10292 20002 30/// 55104 59006;",
"76373099999","2005-11-09T12:00:00","4","25.35","-105.75","1967.0","TEPEHUANES DGO., MX","FM-12","99999","V020","999,9,C,0000,1","22000,1,9,N","001000,1,N,1","+0028,1","-0008,1","10209,1","24,0000,9,1",,,,,"00,1,+99999,9,99,9",,,"00,99,1,00,1,00,1,99999,9,00,1,00,1",,"09,9","999,-0006,1","120,N,+0018,1","240,M,+0292,1","99999,9,08242,1","9,9,999,9,-001,1",,,"SYN100AAXX  09121 76373 32910 00000 10028 21008 38242 40209 5//// 91150 333 10292 20018 31006 59001 70000;","Q01  00002PRCP24"
"76373099999","2005-11-09T15:00:00","4","25.35","-105.75","1967.0","TEPEHUANES DGO., MX","FM-12","99999","V020","999,9,C,0000,1","22000,1,9,N","070000,1,N,1","+0074,1","-0005,1","10249,1",,,,,,"00,1,+99999,9,99,9",,,"00,99,1,00,1,00,1,99999,9,00,1,00,1",,"01,9",,,,"99999,9,08254,1","2,1,012,1,-001,1",,,"SYN082AAXX  09151 76373 32988 00000 10074 21005 38254 40249 52012 91450 333 30/// 59001;",
"76373099999","2005-11-09T18:00:00","4","25.35","-105.75","1967.0","TEPEHUANES DGO., MX","FM-12","99999","V020","110,1,N,0020,1","22000,1,9,N","070000,1,N,1","+0224,2","+0021,1","10221,1",,,,,,"01,1,+00360,1,08,1",,,"01,99,1,01,1,01,1,00450,1,00,1,00,1",,"01,9",,"120,M,+0250,1","240,N,+0014,1","99999,9,08245,1","8,1,009,1,+000,1",,,"SYN112AAXX  09181 76373 32488 11102 10224 20021 38245 40221 58009 81100 91748 333 10250 20014 30/// 56200 58000 81812;",
"76373099999","2005-11-10T03:00:00","4","25.35","-105.75","1967.0","TEPEHUANES DGO., MX","FM-12","99999","V020","310,1,N,0020,1","22000,1,9,N","010000,1,N,1","+0168,1","+0060,1","10104,1",,,,,,"00,1,+99999,9,99,9",,,"00,99,1,00,1,00,1,99999,9,00,1,00,1",,"01,9",,,,"99999,9,08233,1","2,1,019,1,+007,1",,,"SYN082AAXX  10031 76373 32960 03102 10168 20060 38233 40104 52019 90245 333 30/// 58007;",
"76373099999","2005-11-10T06:00:00","4","25.35","-105.75","1967.0","TEPEHUANES DGO., MX","FM-12","99999","V020","999,9,C,0000,1","22000,1,9,N","010000,1,N,1","+0126,1","+0027,1","10129,1",,,,,,,,,"01,99,1,01,1,01,1,99999,9,00,1,00,1","0618,9","01,9",,"240,M,+0288,1","240,N,+0014,1","99999,9,08247,1","2,1,014,1,+999,9",,,"SYN118AAXX  10061 76373 32960 10000 10126 20027 38247 40129 52014 81100 90540 333 10288 20014 30/// 55103 56200 56012 81820;",
"76373099999","2005-11-10T12:00:00","4","25.35","-105.75","1967.0","TEPEHUANES DGO., MX","FM-12","99999","V020","999,9,C,0000,1","22000,1,9,N","001000,1,N,1","+0066,1","+0013,1","10200,1","24,0000,9,1",,,,,"01,1,+03000,1,03,1",,,"01,99,1,01,1,00,1,01250,1,04,1,00,1",,"01,9","999,+0025,1","120,N,+0054,1","240,M,+0288,1","99999,9,08255,1","9,9,999,9,+013,1",,,"SYN118AAXX  10121 76373 32610 10000 10066 20013 38255 40200 5//// 81040 91150 333 10288 20054 30025 56060 58013 70000 81360;",
"76373099999","2005-11-10T18:00:00","4","25.35","-105.75","1967.0","TEPEHUANES DGO., MX","FM-12","99999","V020","120,1,N,0030,1","22000,1,9,N","070000,1,N,1","+0236,2","+0071,1","10205,1",,,,,,"02,1,+00360,1,09,1",,,"02,99,1,02,1,03,1,99999,9,00,1,00,1",,"01,9",,"120,M,+0262,1","240,N,+0047,1","99999,9,08252,1","7,1,012,1,+007,1",,,"SYN112AAXX  10181 76373 32988 21203 10236 20071 38252 40205 57012 82300 91746 333 10262 20047 30/// 56200 58007 82912;",
"76373099999","2005-11-11T12:00:00","4","25.35","-105.75","1967.0","TEPEHUANES DGO., MX","FM-12","99999","V020","999,9,C,0000,1","22000,1,9,N","001000,1,N,1","+0050,1","+0030,1","10181,1","24,0000,9,1",,,,,"00,1,+99999,9,99,9",,,"00,99,1,00,1,00,1,99999,9,00,1,00,1",,"01,9","999,+0015,1","120,N,+0042,1","240,M,+0292,1","99999,9,08238,1","9,9,999,9,-017,1",,,"SYN100AAXX  11121 76373 32910 00000 10050 20030 38238 40181 5//// 91150 333 10292 20042 30015 59017 70000;","Q01  00002PRCP24"
"76373099999","2005-11-11T18:00:00","4","25.35","-105.75","1967.0","TEPEHUANES DGO., MX","FM-12","99999","V020","090,1,N,0020,1","22000,1,9,N","070000,1,N,1","+0226,2","+0069,1","10191,1",,,,,,"00,1,+99999,9,99,9",,,"00,99,1,00,1,00,1,99999,9,00,1,00,1",,"01,9",,"120,M,+0246,1","240,N,+0032,1","99999,9,08231,1","7,1,017,1,-022,1",,,"SYN094AAXX  11181 76373 32988 00902 10226 20069 38231 40191 57017 91755 333 10246 20032 30/// 59022;",
"76373099999","2005-11-12T18:00:00","4","25.35","-105.75","1967.0","TEPEHUANES DGO., MX","FM-12","99999","V020","300,1,N,0010,1","22000,1,9,N","070000,1,N,1","+0226,1","+0040,1","10170,1",,,,,,"00,1,+99999,9,99,9",,,"00,99,1,00,1,00,1,99999,9,00,1,00,1",,"01,9",,"120,M,+0248,1","240,N,+0026,1","99999,9,08218,1","9,9,999,9,-013,1",,,"SYN094AAXX  12181 76373 32988 03001 10226 20040 38218 40170 5//// 91745 333 10248 20026 30/// 59013;",
"76373099999","2005-11-12T21:00:00","4","25.35","-105.75","1967.0","TEPEHUANES DGO., MX","FM-12","99999","V020","320,1,N,0060,1","22000,1,9,N","070000,1,N,1","+0268,1","+0021,1","10104,2",,,,,,"01,1,+00360,1,08,1",,,"01,99,1,01,1,01,1,00450,1,00,1,01,1",,"01,9",,,,"99999,9,08188,1","7,1,030,1,-007,1",,,"SYN100AAXX  12211 76373 32488 13206 10268 20021 38188 40104 57030 81101 92055 333 30/// 56600 59007 81812;",
"76373099999","2005-11-13T00:00:00","4","25.35","-105.75","1967.0","TEPEHUANES DGO., MX","FM-12","99999","V020","280,1,N,0040,1","22000,1,9,N","070000,1,N,1","+0234,1","+0024,1","10067,1","24,0000,9,1",,,,,"00,1,+99999,9,99,9",,,"00,99,1,00,1,00,1,99999,9,00,1,00,1",,"01,9",,"120,M,+0288,1","180,N,+0026,1","99999,9,08187,1","6,1,001,1,-004,1",,,"SYN106AAXX  13001 76373 32988 02804 10234 20024 38187 40067 56001 92340 333 10288 20026 30/// 50560 59004 70000;","Q01  00002PRCP24"
"76373099999","2005-11-13T12:00:00","4","25.35","-105.75","1967.0","TEPEHUANES DGO., MX","FM-12","99999","V020","999,9,C,0000,1","22000,1,9,N","001000,1,N,1","+0042,1","+0022,1","10179,1","24,0000,9,1",,,,,"00,1,+99999,9,99,9",,,"00,99,1,00,1,00,1,99999,9,00,1,00,1",,"01,9","999,+0000,1","120,N,+0032,1","240,M,+0288,1","99999,9,08226,1",,,,"SYN100AAXX  13121 76373 32910 00000 10042 20022 38226 40179 5//// 91148 333 10288 20032 30000 58/// 70000;","Q01  00002PRCP24"
"76373099999","2005-11-13T15:00:00","4","25.35","-105.75","1967.0","TEPEHUANES DGO., MX","FM-12","99999","V020","999,9,C,0000,1","22000,1,9,N","070000,1,N,1","+0076,1","+0038,1","10224,1",,,,,,"02,1,+03000,1,03,1",,,"02,99,1,02,1,00,1,01250,1,04,1,00,1",,"01,9",,,,"99999,9,08241,1","2,1,015,1,+999,9",,,"SYN100AAXX  13151 76373 32688 20000 10076 20038 38241 40224 52015 82040 91452 333 30/// 56060 58/// 82360;",
"76373099999","2005-11-14T12:00:00","4","25.35","-105.75","1967.0","TEPEHUANES DGO., MX","FM-12","99999","V020","999,9,C,0000,1","22000,1,9,N","001000,1,N,1","+0050,1","+0021,1","10177,1","12,0000,9,1","24,0000,9,1",,,,"01,1,+03000,1,03,1",,,"99,99,9,99,9,00,1,99999,9,99,9,00,1",,"01,9","999,+0015,1","120,N,+0040,1","240,M,+0298,1","99999,9,08223,1","9,9,999,9,-003,1",,,"SYN130AAXX  14121 76373 32610 00000 10050 20021 38223 40177 5//// 69902 81040 91155 333 10298 20040 30015 56060 59003 69902 79999 81360;","Q01  00002PRCP24Q02  00002PRCP12"
"76373099999","2005-11-14T15:00:00","4","25.35","-105.75","1967.0","TEPEHUANES DGO., MX","FM-12","99999","V020","999,9,C,0000,1","22000,1,9,N","070000,1,N,1","+0074,1","+0030,1","10212,1",,,,,,"01,1,+00360,1,08,1",,,"04,99,1,01,1,01,1,00450,1,00,1,02,1",,"01,9",,,,"99999,9,08233,1","2,1,010,1,-008,1",,,"SYN106AAXX  14151 76373 32488 40000 10074 20030 38233 40212 52010 81102 91450 333 30/// 56606 59008 81812 83070;",
"76373099999","2005-11-14T18:00:00","4","25.35","-105.75","1967.0","TEPEHUANES DGO., MX","FM-12","99999","V020","999,9,C,0000,1","22000,1,9,N","070000,1,N,1","+0226,1","+0061,1","10181,1",,,,,,"01,1,+03000,1,03,1",,,"04,99,1,01,1,00,1,01250,1,04,1,04,1",,"01,9",,"120,M,+0250,1","240,N,+0032,1","99999,9,08219,1","8,1,014,1,-018,1",,,"SYN118AAXX  14181 76373 32688 40000 10226 20061 38219 40181 58014 81044 91750 333 10250 20032 30/// 56066 59018 81360 83070;",
"76373099999","2005-11-14T21:00:00","4","25.35","-105.75","1967.0","TEPEHUANES DGO., MX","FM-12","99999","V020","280,1,N,0060,1","22000,1,9,N","070000,1,N,1","+0252,2","+0060,1","10109,2",,,,,,"02,1,+00300,1,08,1",,,"04,99,1,02,1,01,1,00450,1,00,1,02,1",,"01,9",,,,"99999,9,08189,1","6,1,030,1,-017,1",,,"SYN106AAXX  14211 76373 32488 42806 10252 20060 38189 40109 56030 82102 92047 333 30/// 56606 59017 82810 82070;",
"76373099999","2005-11-15T00:00:00","4","25.35","-105.75","1967.0","TEPEHUANES DGO., MX","FM-12","99999","V020","250,1,N,0050,1","22000,1,9,N","070000,1,N,1","+0228,1","+0016,1","10069,1","24,9999,9,9",,,,,"01,1,+00300,1,08,1",,,"02,99,1,01,1,01,1,00450,1,00,1,02,1",,"01,9",,"120,M,+0280,1","180,N,+0032,1","99999,9,08184,1","7,1,005,1,-026,1",,,"SYN130AAXX  15001 76373 32488 22505 10228 20016 38184 40069 57005 81102 92345 333 10280 20032 30/// 50380 56606 59026 79999 81810 81070;","Q01  99992PRCP24"
"76373099999","2005-11-15T18:00:00","4","25.35","-105.75","1967.0","TEPEHUANES DGO., MX","FM-12","99999","V020","270,1,N,0040,1","22000,1,9,N","070000,1,N,1","+0220,1","+0034,1","10184,1",,,,,,"01,1,+00360,1,08,1",,,"01,99,1,01,1,01,1,00450,1,00,1,00,1",,"01,9",,"120,M,+0238,1","240,N,+0028,1","99999,9,08223,1","8,1,007,1,+004,1",,,"SYN112AAXX  15181 76373 32488 12704 10220 20034 38223 40184 58007 81100 91750 333 10238 20028 30/// 56600 58004 81812;",
"76373099999","2005-11-16T03:00:00","4","25.35","-105.75","1967.0","TEPEHUANES DGO., MX","FM-12","99999","V020","999,9,C,0000,1","22000,1,9,N","010000,1,N,1","+0132,1","-0003,1","10100,1",,,,,,"00,1,+99999,9,99,9",,,"00,99,1,00,1,00,1,99999,9,00,1,00,1",,"01,9",,,,"99999,9,08223,1","2,1,022,1,+008,1",,,"SYN082AAXX  16031 76373 32960 00000 10132 21003 38223 40100 52022 90235 333 30/// 58008;",
"76373099999","2005-11-16T06:00:00","4","25.35","-105.75","1967.0","TEPEHUANES DGO., MX","FM-12","99999","V020","999,9,C,0000,1","22000,1,9,N","010000,1,N,1","+0078,1","-0003,1","10132,1",,,,,,"00,1,+99999,9,99,9",,,"00,99,1,00,1,00,1,99999,9,00,1,00,1","0618,9","01,9",,"240,M,+0268,1","240,N,+0028,1","99999,9,08235,1","2,1,012,1,+013,1",,,"SYN100AAXX  16061 76373 32960 00000 10078 21003 38235 40132 52012 90540 333 10268 20028 30/// 55103 58013;",
"76373099999","2005-11-16T12:00:00","4","25.35","-105.75","1967.0","TEPEHUANES DGO., MX","FM-12","99999","V020","999,9,C,0000,1","22000,1,9,N","005000,1,N,1","+0014,1","-0007,1","10224,1","24,0000,9,1",,,,,"00,1,+99999,9,99,9",,,"00,99,1,00,1,00,1,99999,9,00,1,00,1",,"09,9","999,-0020,1","120,N,+0005,1","240,M,+0268,1","99999,9,08246,1","9,9,999,9,+030,1",,,"SYN100AAXX  16121 76373 32950 00000 10014 21007 38246 40224 5//// 91150 333 10268 20005 31020 58030 70000;","Q01  00002PRCP24"
"76373099999","2005-11-16T18:00:00","4","25.35","-105.75","1967.0","TEPEHUANES DGO., MX","FM-12","99999","V020","140,1,N,0030,1","22000,1,9,N","070000,1,N,1","+0168,1","+0012,1","10254,1",,,,,,"00,1,+99999,9,99,9",,,"00,99,1,00,1,00,1,99999,9,00,1,00,1",,"01,9",,"120,M,+0194,1","240,N,-0003,1","99999,9,08258,1","8,1,006,1,+032,1",,,"SYN094AAXX  16181 76373 32988 01403 10168 20012 38258 40254 58006 91745 333 10194 21003 30/// 58032;",
"76373099999","2005-11-16T21:00:00","4","25.35","-105.75","1967.0","TEPEHUANES DGO., MX","FM-12","99999","V020","120,1,N,0060,1","22000,1,9,N","070000,1,N,1","+0206,1","+0019,1","10184,1",,,,,,"00,1,+99999,9,99,9",,,"00,99,1,00,1,00,1,99999,9,00,1,00,1",,"01,9",,,,"99999,9,08227,1","6,1,031,1,+029,1",,,"SYN082AAXX  16211 76373 32988 01206 10206 20019 38227 40184 56031 92045 333 30/// 58029;",
"76373099999","2005-11-17T00:00:00","4","25.35","-105.75","1967.0","TEPEHUANES DGO., MX","FM-12","99999","V020","150,1,N,0050,1","22000,1,9,N","070000,1,N,1","+0182,1","+0033,1","10155,1","24,0000,9,1",,,,,,,,"01,99,1,01,1,00,1,01250,1,04,1,00,1",,"01,9",,"120,M,+0228,1","180,N,-0003,1","99999,9,08229,1","5,1,002,1,+028,1",,,"SYN124AAXX  17001 76373 32688 11505 10182 20033 38229 40155 55002 81040 92355 333 10228 21003 30/// 50230 56020 58028 70000 81360;",
"76373099999","2005-11-17T15:00:00","4","25.35","-105.75","1967.0","TEPEHUANES DGO., MX","FM-12","99999","V020","999,9,C,0000,1","22000,1,9,N","070000,1,N,1","+0042,1","+0002,1","10273,1",,,,,,"01,1,+03000,1,03,1",,,"01,99,1,01,1,00,1,01250,1,04,1,00,1",,"01,9",,,,"99999,9,08259,1","2,1,008,1,-005,1",,,"SYN100AAXX  17151 76373 32688 10000 10042 20002 38259 40273 52008 81040 91448 333 30/// 56060 59005 81360;",
"76373099999","2005-11-17T18:00:00","4","25.35","-105.75","1967.0","TEPEHUANES DGO., MX","FM-12","99999","V020","120,1,N,0030,1","22000,1,9,N","070000,1,N,1","+0170,1","+0040,1","10240,1",,,,,,"01,1,+06000,1,00,1",,,"01,99,1,00,1,00,1,99999,9,00,1,02,1",,"01,9",,"120,M,+0196,1","240,N,-0005,1","99999,9,08243,1","8,1,016,1,-015,1",,,"SYN112AAXX  17181 76373 32988 11203 10170 20040 38243 40240 58016 80002 91745 333 10196 21005 30/// 56600 59015 81070;",
"76373099999","2005-11-17T21:00:00","4","25.35","-105.75","1967.0","TEPEHUANES DGO., MX","FM-12","99999","V020","060,1,N,0010,1","22000,1,9,N","070000,1,N,1","+0250,2","+0030,1","10151,1",,,,,,"01,1,+00300,1,08,1",,,"03,99,1,01,1,01,1,00450,1,00,1,02,1",,"01,9",,,,"99999,9,08203,1","6,1,040,1,-024,1",,,"SYN106AAXX  17211 76373 32488 30601 10250 20030 38203 40151 56040 81102 92055 333 30/// 56202 59024 81810 82070;",
"76373099999","2005-11-18T00:00:00","4","25.35","-105.75","1967.0","TEPEHUANES DGO., MX","FM-12","99999","V020","290,1,N,0050,1","22000,1,9,N","070000,1,N,1","+0228,1","+0016,1","10109,2","24,0000,9,1",,,,,"01,1,+00300,1,09,1",,,"02,99,1,01,1,03,1,00450,1,00,1,02,1",,"01,9",,"120,M,+0282,1","180,N,-0005,1","99999,9,08202,1","7,1,001,1,-027,1",,,"SYN130AAXX  18001 76373 32488 22905 10228 20016 38202 40109 57001 81302 92345 333 10282 21005 30/// 50260 56202 59027 70000 81910 81070;",
"76373099999","2005-11-18T12:00:00","4","25.35","-105.75","1967.0","TEPEHUANES DGO., MX","FM-12","99999","V020","999,9,C,0000,1","22000,1,9,N","001000,1,N,1","+0024,1","-0012,1","10202,1","24,0000,9,1",,,,,"00,1,+99999,9,99,9",,,"00,99,1,00,1,00,1,99999,9,00,1,00,1",,"09,9","999,-0010,1","120,N,+0016,1","240,M,+0282,1","99999,9,08234,1","9,9,999,9,-017,1",,,"SYN100AAXX  18121 76373 32910 00000 10024 21012 38234 40202 5//// 91148 333 10282 20016 31010 59017 70000;","Q01  00002PRCP24"
"76373099999","2005-11-18T15:00:00","4","25.35","-105.75","1967.0","TEPEHUANES DGO., MX","FM-12","99999","V020","999,9,C,0000,1","22000,1,9,N","070000,1,N,1","+0046,1","+0007,1","10231,1",,,,,,"00,1,+99999,9,99,9",,,"00,99,1,00,1,00,1,99999,9,00,1,00,1",,"01,9",,,,"99999,9,08241,1","1,1,007,1,-018,1",,,"SYN082AAXX  18151 76373 32988 00000 10046 20007 38241 40231 51007 91448 333 30/// 59018;",
"76373099999","2005-11-18T18:00:00","4","25.35","-105.75","1967.0","TEPEHUANES DGO., MX","FM-12","99999","V020","100,1,N,0020,1","22000,1,9,N","070000,1,N,1","+0194,2","+0027,1","10205,1",,,,,,"00,1,+99999,9,99,9",,,"00,99,1,00,1,00,1,99999,9,00,1,00,1",,"01,9",,"120,M,+0232,1","240,N,+0004,1","99999,9,08225,1","7,1,016,1,-018,1",,,"SYN094AAXX  18181 76373 32988 01002 10194 20027 38225 40205 57016 91745 333 10232 20004 30/// 59018;",
"76373099999","2005-11-19T21:00:00","4","25.35","-105.75","1967.0","TEPEHUANES DGO., MX","FM-12","99999","V020","270,1,N,0060,1","22000,1,9,N","070000,1,N,1","+0250,1","+0140,1","10111,1",,,,,,"00,1,+99999,9,99,9",,,"00,99,1,00,1,00,1,99999,9,00,1,00,1",,"01,9",,,,"99999,9,08172,1","6,1,030,1,-015,1",,,"SYN082AAXX  19211 76373 32988 02706 10250 20140 38172 40111 56030 92045 333 30/// 59015;",
"76373099999","2005-11-20T00:00:00","4","25.35","-105.75","1967.0","TEPEHUANES DGO., MX","FM-12","99999","V020","250,1,N,0020,1","22000,1,9,N","070000,1,N,1","+0210,1","-0067,2","10090,1","24,0000,9,1",,,,,"00,1,+99999,9,99,9",,,"00,99,1,00,1,00,1,99999,9,00,1,00,1",,"01,9",,"120,M,+0268,1","180,N,-0008,1","99999,9,08184,1","2,1,012,1,-010,1",,,"SYN106AAXX  20001 76373 32988 02502 10210 21067 38184 40090 52012 92345 333 10268 21008 30/// 50410 59010 70000;","Q01  00002PRCP24"
"76373099999","2005-11-20T03:00:00","4","25.35","-105.75","1967.0","TEPEHUANES DGO., MX","FM-12","99999","V020","280,1,N,0030,1","22000,1,9,N","010000,1,N,1","+0114,1","-0033,1","10083,1",,,,,,"00,1,+99999,9,99,9",,,"00,99,1,00,1,00,1,99999,9,00,1,00,1",,"01,9",,,,"99999,9,08198,1","2,1,014,1,+004,1",,,"SYN082AAXX  20031 76373 32960 02803 10114 21033 38198 40083 52014 90240 333 30/// 58004;",
"76373099999","2005-11-20T12:00:00","4","25.35","-105.75","1967.0","TEPEHUANES DGO., MX","FM-12","99999","V020","999,9,C,0000,1","22000,1,9,N","000200,1,N,1","+0006,1","-0039,1","10121,1","24,0000,9,1",,,,,"00,1,+99999,9,99,9",,,"00,99,1,00,1,00,1,99999,9,00,1,00,1",,"09,9","999,-0025,1","120,N,-0004,1","240,M,+0268,1","99999,9,08239,1",,,,"SYN100AAXX  20121 76373 32902 00000 10006 21039 38239 40121 5//// 91150 333 10268 21004 31025 58/// 70000;","Q01  00002PRCP24"
"76373099999","2005-11-20T15:00:00","4","25.35","-105.75","1967.0","TEPEHUANES DGO., MX","FM-12","99999","V020","999,9,C,0000,1","22000,1,9,N","070000,1,N,1","+0040,1","-0030,1","10273,2",,,,,,"00,1,+99999,9,99,9",,,"00,99,1,00,1,00,1,99999,9,00,1,00,1",,"01,9",,,,"99999,9,08258,1",,,,"SYN082AAXX  20151 76373 32988 00000 10040 21030 38258 40273 5//// 91455 333 30/// 58///;",
"76373099999","2005-11-20T18:00:00","4","25.35","-105.75","1967.0","TEPEHUANES DGO., MX","FM-12","99999","V020","040,1,N,0010,1","22000,1,9,N","070000,1,N,1","+0137,1","-0011,1","10259,2",,,,,,"00,1,+99999,9,99,9",,,"00,99,1,00,1,00,1,99999,9,00,1,00,1",,"01,9",,"120,M,+0164,1","240,N,-0015,1","99999,9,08252,1","8,1,006,1,+050,1",,,"SYN094AAXX  20181 76373 32988 00401 10137 21011 38252 40259 58006 91748 333 10164 21015 30/// 58050;",
"76373099999","2005-11-20T21:00:00","4","25.35","-105.75","1967.0","TEPEHUANES DGO., MX","FM-12","99999","V020","080,1,N,0070,1","22000,1,9,N","070000,1,N,1","+0176,1","-0009,1","10200,1",,,,,,"00,1,+99999,9,99,9",,,"00,99,1,00,1,00,1,99999,9,00,1,00,1",,"01,9",,,,"99999,9,08226,1","6,1,026,1,+054,1",,,"SYN082AAXX  20211 76373 32988 00807 10176 21009 38226 40200 56026 92040 333 30/// 58054;",
"76373099999","2005-11-21T12:00:00","4","25.35","-105.75","1967.0","TEPEHUANES DGO., MX","FM-12","99999","V020","999,9,C,0000,1","22000,1,9,N","000200,1,N,1","-0036,1","-0060,1","10275,1","24,0000,9,1",,,,,"00,1,+99999,9,99,9",,,"00,99,1,00,1,00,1,99999,9,00,1,00,1",,"09,9","999,-0076,1","120,N,-0046,1","240,M,+0198,1","99999,9,08260,1","9,9,999,9,+031,1",,,"SYN100AAXX  21121 76373 32902 00000 11036 21060 38260 40275 5//// 91152 333 10198 21046 31076 58031 70000;","Q01  00002PRCP24"
"76373099999","2005-11-21T15:00:00","4","25.35","-105.75","1967.0","TEPEHUANES DGO., MX","FM-12","99999","V020","999,9,C,0000,1","22000,1,9,N","070000,1,N,1","-0010,1","-0031,1","10323,1",,,,,,"01,1,+06000,1,00,1",,,"99,99,9,00,1,00,1,99999,9,00,1,99,9",,"01,9",,,,"99999,9,08277,1","2,1,017,1,+019,1",,,"SYN100AAXX  21151 76373 32988 00000 11010 21031 38277 40323 52017 80005 91450 333 30/// 56006 58019 81070;",
"76373099999","2005-11-21T18:00:00","4","25.35","-105.75","1967.0","TEPEHUANES DGO., MX","FM-12","99999","V020","090,1,N,0030,1","22000,1,9,N","070000,1,N,1","+0128,1","-0004,1","10301,1",,,,,,"02,1,+06000,1,00,1",,,"02,99,1,00,1,00,1,99999,9,00,1,02,1",,"01,9",,"120,M,+0154,1","240,N,-0056,1","99999,9,08267,1","7,1,010,1,+015,1",,,"SYN112AAXX  21181 76373 32988 20903 10128 21004 38267 40301 57010 80002 91748 333 10154 21056 30/// 56006 58015 82070;",
"76373099999","2005-11-21T21:00:00","4","25.35","-105.75","1967.0","TEPEHUANES DGO., MX","FM-12","99999","V020","100,1,N,0030,1","22000,1,9,N","070000,1,N,1","+0190,1","+9999,9","10221,1",,,,,,"01,1,+06000,1,00,1",,,"01,99,1,00,1,00,1,99999,9,00,1,02,1",,"01,9",,,,"99999,9,08231,1","6,1,036,1,+005,1",,,"SYN100AAXX  21211 76373 32988 11003 10190 20215 38231 40221 56036 80002 92052 333 30/// 56006 58005 81070;",
"76373099999","2005-11-22T00:00:00","4","25.35","-105.75","1967.0","TEPEHUANES DGO., MX","FM-12","99999","V020","130,1,N,0030,1","22000,1,9,N","070000,1,N,1","+0168,1","+0127,1","10177,2","24,0000,9,1",,,,,,,,"01,99,1,00,1,00,1,99999,9,00,1,01,1",,"01,9",,"120,M,+0218,1","180,N,-0056,1","99999,9,08227,1","7,1,004,1,-005,1",,,"SYN124AAXX  22001 76373 32988 11303 10168 20127 38227 40177 57004 80001 92348 333 10218 21056 30/// 50200 56006 59005 70000 81070;",
"76373099999","2005-11-22T03:00:00","4","25.35","-105.75","1967.0","TEPEHUANES DGO., MX","FM-12","99999","V020","270,1,N,0020,1","22000,1,9,N","010000,1,N,1","+0078,1","-0022,1","10184,1",,,,,,"00,1,+99999,9,99,9",,,"00,99,1,00,1,00,1,99999,9,00,1,00,1",,"01,9",,,,"99999,9,08249,1","2,1,022,1,+999,9",,,"SYN082AAXX  22031 76373 32960 02702 10078 21022 38249 40184 52022 90230 333 30/// 58///;",
"76373099999","2005-11-22T12:00:00","4","25.35","-105.75","1967.0","TEPEHUANES DGO., MX","FM-12","99999","V020","999,9,C,0000,1","22000,1,9,N","000200,1,N,1","-0038,1","-0062,1","10282,1",,,,,,"02,1,+06000,1,00,1",,,"02,99,1,00,1,00,1,99999,9,00,1,02,1",,"09,9","999,-0075,1","120,N,-0042,1","240,M,+0218,1","99999,9,08259,1","9,9,999,9,-001,1",,,"SYN118AAXX  22121 76373 32902 20000 11038 21062 38259 40282 5//// 80002 91150 333 10218 21042 31075 56006 59001 80000 82070;",
"76373099999","2005-11-22T15:00:00","4","25.35","-105.75","1967.0","TEPEHUANES DGO., MX","FM-12","99999","V020","999,9,C,0000,1","06000,1,9,N","070000,1,N,1","-0006,1","-0056,1","10334,1",,,,,,"07,1,+06000,1,02,1",,,"07,99,1,00,1,00,1,99999,9,00,1,08,1",,"01,9",,,,"99999,9,08278,1","2,1,019,1,+001,1",,,"SYN100AAXX  22151 76373 32988 70000 11006 21056 38278 40334 52019 80008 91458 333 30/// 56006 58001 87270;",
"76373099999","2005-11-22T18:00:00","4","25.35","-105.75","1967.0","TEPEHUANES DGO., MX","FM-12","99999","V020","160,1,N,0020,1","22000,1,9,N","070000,1,N,1","+0142,1","-0019,1","10297,1",,,,,,"04,1,+06000,1,00,1",,,"04,99,1,00,1,00,1,99999,9,00,1,02,1",,"01,9",,"120,M,+0172,1","240,N,-0056,1","99999,9,08262,1","7,1,016,1,-005,1",,,"SYN112AAXX  22181 76373 32988 41602 10142 21019 38262 40297 57016 80002 91755 333 10172 21056 30/// 56006 59005 84070;",
"76373099999","2005-11-22T21:00:00","4","25.35","-105.75","1967.0","TEPEHUANES DGO., MX","FM-12","99999","V020","090,1,N,0040,1","22000,1,9,N","070000,1,N,1","+0208,1","-0068,1","10214,2",,,,,,"02,1,+06000,1,00,1",,,"02,99,1,00,1,00,1,99999,9,00,1,02,1",,"01,9",,,,"99999,9,08228,1","6,1,034,1,-003,1",,,"SYN100AAXX  22211 76373 32988 20904 10208 21068 38228 40214 56034 80002 92045 333 30/// 56006 59003 82070;",
"76373099999","2005-11-23T00:00:00","4","25.35","-105.75","1967.0","TEPEHUANES DGO., MX","FM-12","99999","V020","160,1,N,0020,1","99999,9,9,N","070000,1,N,1","+0180,1","-0052,1","10158,2","24,0000,9,1",,,,,,,,"05,99,1,00,1,00,1,99999,9,00,1,04,1",,"01,9",,"120,M,+0228,1","180,N,-0056,1","99999,9,08218,1","7,1,010,1,-009,1",,,"SYN124AAXX  23001 76373 32988 51602 10180 21052 38218 40158 57010 80004 92345 333 10228 21056 30/// 50250 56006 59009 70000 85070;",
"76373099999","2005-11-23T06:00:00","4","25.35","-105.75","1967.0","TEPEHUANES DGO., MX","FM-12","99999","V020","999,9,C,0000,1","22000,1,9,N","010000,1,N,1","+0016,1","-0071,1","10179,1",,,,,,"00,1,+99999,9,99,9",,,"00,99,1,00,1,00,1,99999,9,00,1,00,1","0606,9","01,9",,"240,M,+0228,1","240,N,-0056,1","99999,9,08241,1","2,1,006,1,-021,1",,,"SYN100AAXX  23061 76373 32960 00000 10016 21071 38241 40179 52006 90540 333 10228 21056 30/// 55101 59021;",
"76373099999","2005-11-23T12:00:00","4","25.35","-105.75","1967.0","TEPEHUANES DGO., MX","FM-12","99999","V020","999,9,C,0000,1","22000,1,9,N","000200,1,N,1","-0036,1","-0060,1","10259,1","24,0000,9,1",,,,,"00,1,+99999,9,99,9",,,"00,99,1,00,1,00,1,99999,9,00,1,00,1",,"09,9","999,-0073,1","120,N,-0045,1","240,M,+0228,1","99999,9,08242,1","9,9,999,9,-017,1",,,"SYN100AAXX  23121 76373 32902 00000 11036 21060 38242 40259 5//// 91155 333 10228 21045 31073 59017 70000;","Q01  00002PRCP24"
"76373099999","2005-11-23T15:00:00","4","25.35","-105.75","1967.0","TEPEHUANES DGO., MX","FM-12","99999","V020","999,9,C,0000,1","22000,1,9,N","070000,1,N,1","-0002,1","-0022,1","99999,9",,,,,,"00,1,+99999,9,99,9",,,"00,99,1,00,1,00,1,99999,9,00,1,00,1",,"01,9",,,,"99999,9,08250,1","1,1,008,1,-028,1",,,"SYN082AAXX  23151 76373 32988 00000 11002 21022 38250 40346 51008 91455 333 30/// 59028;",
"76373099999","2005-11-23T18:00:00","4","25.35","-105.75","1967.0","TEPEHUANES DGO., MX","FM-12","99999","V020","110,1,N,0020,1","22000,1,9,N","070000,1,N,1","+0162,2","-0019,1","10259,1",,,,,,"00,1,+99999,9,99,9",,,"00,99,1,00,1,00,1,99999,9,00,1,00,1",,"01,9",,"120,M,+0186,1","240,N,-0052,1","99999,9,08235,1","8,1,015,1,-027,1",,,"SYN094AAXX  23181 76373 32988 01102 10162 21019 38235 40259 58015 91755 333 10186 21052 30/// 59027;",
"76373099999","2005-11-23T21:00:00","4","25.35","-105.75","1967.0","TEPEHUANES DGO., MX","FM-12","99999","V020","150,1,N,0010,1","22000,1,9,N","070000,1,N,1","+0242,2","-0055,1","10160,1",,,,,,"01,1,+06000,1,01,1",,,"02,99,1,00,1,00,1,99999,9,00,1,01,1",,"01,9",,,,"99999,9,08191,1","6,1,044,1,-037,1",,,"SYN106AAXX  23211 76373 32988 21501 10242 21055 38191 40160 56044 80001 92045 333 30/// 56006 59037 81170 81070;",
"76373099999","2005-11-24T00:00:00","4","25.35","-105.75","1967.0","TEPEHUANES DGO., MX","FM-12","99999","V020","170,1,N,0010,1","22000,1,9,N","070000,1,N,1","+0208,1","-0019,1","10097,2","24,0000,9,1",,,,,,,,"02,99,1,00,1,00,1,99999,9,00,1,02,1",,"01,9",,"120,M,+0264,1","180,N,-0052,1","99999,9,08180,1","6,1,011,1,-038,1",,,"SYN124AAXX  24001 76373 32988 21701 10208 21019 38180 40097 56011 80002 92345 333 10264 21052 30/// 50140 56006 59038 70000 82070;",
"76373099999","2005-11-24T03:00:00","4","25.35","-105.75","1967.0","TEPEHUANES DGO., MX","FM-12","99999","V020","999,9,C,0000,1","22000,1,9,N","010000,1,N,1","+0118,1","-0015,1","10090,1",,,,,,"00,1,+99999,9,99,9",,,"00,99,1,00,1,00,1,99999,9,00,1,00,1",,"01,9",,,,"99999,9,08199,1","2,1,019,1,-036,1",,,"SYN082AAXX  24031 76373 32960 00000 10118 21015 38199 40090 52019 90240 333 30/// 59036;",
"76373099999","2005-11-24T06:00:00","4","25.35","-105.75","1967.0","TEPEHUANES DGO., MX","FM-12","99999","V020","300,1,N,0010,1","22000,1,9,N","010000,1,N,1","+0078,1","-0006,1","10116,1",,,,,,"00,1,+99999,9,99,9",,,"00,99,1,00,1,00,1,99999,9,00,1,00,1",,"01,9",,"240,M,+0264,1","240,N,-0052,1","99999,9,08213,1","2,1,014,1,-028,1",,,"SYN094AAXX  24061 76373 32960 03001 10078 21006 38213 40116 52014 90540 333 10264 21052 30/// 59028;",
"76373099999","2005-11-24T12:00:00","4","25.35","-105.75","1967.0","TEPEHUANES DGO., MX","FM-12","99999","V020","999,9,C,0000,1","22000,1,9,N","000200,1,N,1","+0038,1","-0020,1","10172,1","24,0000,9,1",,,,,"02,1,+06000,1,00,1",,,"02,99,1,00,1,00,1,99999,9,00,1,06,1",,"01,9","999,+0010,1","120,N,+0028,1","240,M,+0264,1","99999,9,08207,1","9,9,999,9,-035,1",,,"SYN118AAXX  24121 76373 32902 20000 10038 21020 38207 40172 5//// 80006 91155 333 10264 20028 30010 56006 59035 70000 82070;",
"76373099999","2005-11-24T15:00:00","4","25.35","-105.75","1967.0","TEPEHUANES DGO., MX","FM-12","99999","V020","270,1,N,0020,1","09000,1,C,N","070000,1,N,1","+0052,1","-0005,1","10200,1",,,,,,"02,1,+03000,1,03,1",,,"08,99,1,02,1,00,1,01250,1,03,1,08,1",,"01,9",,,,"99999,9,08213,1","1,1,005,1,-037,1",,,"SYN106AAXX  24151 76373 32688 82702 10052 21005 38213 40200 51005 82038 91448 333 30/// 56066 59037 82360 86270;",
"76373099999","2005-11-24T18:00:00","4","25.35","-105.75","1967.0","TEPEHUANES DGO., MX","FM-12","99999","V020","270,1,N,0010,1","06000,1,9,N","070000,1,N,1","+0186,2","+0010,1","10170,1",,,,,,"08,1,+06000,1,02,1",,,"08,99,1,00,1,00,1,99999,9,00,1,07,1",,"01,9",,"120,M,+0208,1","240,N,+0018,1","99999,9,08199,1","7,1,014,1,-036,1",,,"SYN112AAXX  24181 76373 32988 82701 10186 20010 38199 40170 57014 80007 91745 333 10208 20018 30/// 56006 59036 88270;",
"76373099999","2005-11-25T15:00:00","4","25.35","-105.75","1967.0","TEPEHUANES DGO., MX","FM-12","99999","V020","040,1,N,0010,1","22000,1,9,N","070000,1,N,1","+0020,1","-0016,1","10179,1",,,,,,"02,1,+00300,1,08,1",,,"03,99,1,02,1,01,1,00450,1,03,1,00,1",,"01,9",,,,"99999,9,08186,1","9,9,999,9,-027,1",,,"SYN106AAXX  25151 76373 32488 30401 10020 21016 38186 40179 5//// 82130 91450 333 30/// 56660 59027 82810 81360;",
"76373099999","2005-11-25T18:00:00","4","25.35","-105.75","1967.0","TEPEHUANES DGO., MX","FM-12","99999","V020","120,1,N,0070,1","00300,1,9,N","070000,1,N,1","+0146,2","+0025,1","10162,1",,,,,,"05,1,+00300,1,08,1",,,"05,99,1,05,1,02,1,00450,1,00,1,00,1",,"01,9",,"120,M,+0160,1","240,N,-0012,1","99999,9,08176,1","6,1,010,1,-023,1",,,"SYN112AAXX  25181 76373 32488 51207 10146 20025 38176 40162 56010 85200 91748 333 10160 21012 30/// 56600 59023 85810;",
"76373099999","2005-11-26T18:00:00","4","25.35","-105.75","1967.0","TEPEHUANES DGO., MX","FM-12","99999","V020","100,1,N,0020,1","22000,1,9,N","070000,1,N,1","+0122,1","+0022,1","10209,1",,,,,,"00,1,+99999,9,99,9",,,"00,99,1,00,1,00,1,99999,9,00,1,00,1",,"09,9",,"120,M,+0144,1","240,N,-0046,1","99999,9,08200,1","9,9,999,9,+014,1",,,"SYN094AAXX  26181 76373 32988 01002 10122 20022 38200 40209 5//// 91747 333 10144 21046 31/// 58014;",
"76373099999","2005-11-26T21:00:00","4","25.35","-105.75","1967.0","TEPEHUANES DGO., MX","FM-12","99999","V020","150,1,N,0020,1","22000,1,9,N","070000,1,N,1","+0196,1","+0001,1","10127,1",,,,,,"00,1,+99999,9,99,9",,,"00,99,1,00,1,00,1,99999,9,00,1,00,1",,"01,9",,,,"99999,9,08170,1","6,1,030,1,+020,1",,,"SYN082AAXX  26211 76373 32988 01502 10196 20001 38170 40127 56030 92045 333 30/// 58020;",
"76373099999","2005-11-27T00:00:00","4","25.35","-105.75","1967.0","TEPEHUANES DGO., MX","FM-12","99999","V020","280,1,N,0040,1","22000,1,9,N","070000,1,N,1","+0180,1","-0026,1","10109,1","24,0000,9,1",,,,,"00,1,+99999,9,99,9",,,"00,99,1,00,1,00,1,99999,9,00,1,00,1",,"01,9",,"120,M,+0226,1","180,N,-0046,1","99999,9,08178,1","2,1,008,1,-008,1",,,"SYN106AAXX  27001 76373 32988 02804 10180 21026 38178 40109 52008 92340 333 10226 21046 30/// 50230 59008 70000;","Q01  00002PRCP24"
"76373099999","2005-11-27T03:00:00","4","25.35","-105.75","1967.0","TEPEHUANES DGO., MX","FM-12","99999","V020","999,9,C,0000,1","22000,1,9,N","010000,1,N,1","+0098,1","-0003,1","10092,1",,,,,,"00,1,+99999,9,99,9",,,"00,99,1,00,1,00,1,99999,9,00,1,00,1",,"01,9",,,,"99999,9,08182,1","2,1,004,1,+999,9",,,"SYN082AAXX  27031 76373 32960 00000 10098 21003 38182 40092 52004 90240 333 30/// 58///;",
"76373099999","2005-11-27T12:00:00","4","25.35","-105.75","1967.0","TEPEHUANES DGO., MX","FM-12","99999","V020","999,9,C,0000,1","22000,1,9,N","000200,1,N,1","-0018,1","-0040,1","10167,1","24,0000,9,1",,,,,"00,1,+99999,9,99,9",,,"00,99,1,00,1,00,1,99999,9,00,1,00,1",,"09,9","999,-0055,1","120,N,-0028,1","240,M,+0226,1","99999,9,08179,1",,,,"SYN100AAXX  27121 76373 32902 00000 11018 21040 38179 40167 5//// 91148 333 10226 21028 31055 58/// 70000;","Q01  00002PRCP24"
"76373099999","2005-11-27T15:00:00","4","25.35","-105.75","1967.0","TEPEHUANES DGO., MX","FM-12","99999","V020","270,1,N,0030,1","22000,1,9,N","070000,1,N,1","+0006,1","-0021,1","10206,1",,,,,,"00,1,+99999,9,99,9",,,"00,99,1,00,1,00,1,99999,9,00,1,00,1",,"01,9",,,,"99999,9,08189,1","3,1,010,1,-028,1",,,"SYN082AAXX  27151 76373 32988 02703 10006 21021 38189 40206 53010 91452 333 30/// 59028;",
"76373099999","2005-11-27T18:00:00","4","25.35","-105.75","1967.0","TEPEHUANES DGO., MX","FM-12","99999","V020","270,1,N,0080,1","22000,1,9,N","070000,1,N,1","+0192,2","+0001,1","10174,1",,,,,,"00,1,+99999,9,99,9",,,"00,99,1,00,1,00,1,99999,9,00,1,00,1",,"01,9",,"120,M,+0206,1","240,N,-0038,1","99999,9,08176,1","7,1,013,1,-024,1",,,"SYN094AAXX  27181 76373 32988 02708 10192 20001 38176 40174 57013 91755 333 10206 21038 30/// 59024;",
"76373099999","2005-11-27T21:00:00","4","25.35","-105.75","1967.0","TEPEHUANES DGO., MX","FM-12","99999","V020","280,1,N,0080,1","22000,1,9,N","070000,1,N,1","+0198,1","-0059,1","10104,2",,,,,,"00,1,+99999,9,99,9",,,"00,99,1,00,1,00,1,99999,9,00,1,00,1",,"01,9",,,,"99999,9,08149,1","2,1,027,1,-032,1",,,"SYN082AAXX  27211 76373 32988 02808 10198 21059 38149 40104 52027 92045 333 30/// 59032;",
"76373099999","2005-11-28T15:00:00","4","25.35","-105.75","1967.0","TEPEHUANES DGO., MX","FM-12","99999","V020","020,1,N,0010,1","22000,1,9,N","070000,1,N,1","+0002,1","-0037,1","10221,1",,,,,,"00,1,+99999,9,99,9",,,"00,99,1,00,1,00,1,99999,9,00,1,00,1",,"01,9",,,,"99999,9,08196,1","2,1,009,1,+007,1",,,"SYN082AAXX  28151 76373 32988 00201 10002 21037 38196 40221 52009 91452 333 30/// 58007;",
"76373099999","2005-11-28T21:00:00","4","25.35","-105.75","1967.0","TEPEHUANES DGO., MX","FM-12","99999","V020","300,1,N,0060,1","22000,1,9,N","070000,1,N,1","+0242,2","-0024,1","10106,2",,,,,,"00,1,+99999,9,99,9",,,"00,99,1,00,1,00,1,99999,9,00,1,00,1",,"01,9",,,,"99999,9,08152,1","6,1,033,1,+003,1",,,"SYN082AAXX  28211 76373 32988 03006 10242 21024 38152 40106 56033 92045 333 30/// 58003;",
"76373099999","2005-11-29T03:00:00","4","25.35","-105.75","1967.0","TEPEHUANES DGO., MX","FM-12","99999","V020","999,9,C,0000,1","22000,1,9,N","010000,1,N,1","+0104,1","-0023,1","10067,1",,,,,,"00,1,+99999,9,99,9",,,"00,99,1,00,1,00,1,99999,9,00,1,00,1",,"01,9",,,,"99999,9,08177,1","2,1,025,1,+999,9",,,"SYN082AAXX  29031 76373 32960 00000 10104 21023 38177 40067 52025 90240 333 30/// 58///;",
"76373099999","2005-11-29T12:00:00","4","25.35","-105.75","1967.0","TEPEHUANES DGO., MX","FM-12","99999","V020","999,9,C,0000,1","22000,1,9,N","000200,1,N,1","-0022,1","-0066,1","10195,1","24,0000,9,1",,,,,"00,1,+99999,9,99,9",,,"00,99,1,00,1,00,1,99999,9,00,1,00,1",,"09,9","999,-0056,1","120,N,-0030,1","240,M,+0260,1","99999,9,08206,1","9,9,999,9,+019,1",,,"SYN100AAXX  29121 76373 32902 00000 11022 21066 38206 40195 5//// 91145 333 10260 21030 31056 58019 70000;","Q01  00002PRCP24"
"76373099999","2005-11-29T15:00:00","4","25.35","-105.75","1967.0","TEPEHUANES DGO., MX","FM-12","99999","V020","999,9,C,0000,1","22000,1,9,N","070000,1,N,1","+0018,1","-0039,1","10242,1",,,,,,"00,1,+99999,9,99,9",,,"00,99,1,00,1,00,1,99999,9,00,1,00,1",,"01,9",,,,"99999,9,08218,1","2,1,012,1,+999,9",,,"SYN082AAXX  29151 76373 32988 00000 10018 21039 38218 40242 52012 91452 333 30/// 56022;",
"76373099999","2005-11-29T18:00:00","4","25.35","-105.75","1967.0","TEPEHUANES DGO., MX","FM-12","99999","V020","090,1,N,0010,1","22000,1,9,N","070000,1,N,1","+0156,2","-0026,1","10221,1",,,,,,"00,1,+99999,9,99,9",,,"00,99,1,00,1,00,1,99999,9,00,1,00,1",,"01,9",,"120,M,+0188,1","240,N,+9999,9","99999,9,08210,1","8,1,008,1,+025,1",,,"SYN094AAXX  29181 76373 32988 00901 10156 21026 38210 40221 58008 91750 333 10188 20244 30/// 58025;","Q01 +02442ATMN  "
"76373099999","2005-11-30T00:00:00","4","25.35","-105.75","1967.0","TEPEHUANES DGO., MX","FM-12","99999","V020","160,1,N,0020,1","22000,1,9,N","070000,1,N,1","+0194,1","-0025,1","10093,2","24,0000,9,1",,,,,"00,1,+99999,9,99,9",,,"00,99,1,00,1,00,1,99999,9,00,1,00,1",,"01,9",,"120,M,+0243,1","180,N,-0044,1","99999,9,08172,1","7,1,002,1,+020,1",,,"SYN106AAXX  30001 76373 32988 01602 10194 21025 38172 40093 57002 92350 333 10243 21044 30/// 50180 58020 70000;","Q01  00002PRCP24"
"76373099999","2005-11-30T03:00:00","4","25.35","-105.75","1967.0","TEPEHUANES DGO., MX","FM-12","99999","V020","999,9,C,0000,1","22000,1,9,N","010000,1,N,1","+0100,1","-0025,1","10104,1",,,,,,"00,1,+99999,9,99,9",,,"00,99,1,00,1,00,1,99999,9,00,1,00,1",,"01,9",,,,"99999,9,08201,1","2,1,029,1,+024,1",,,"SYN082AAXX  30031 76373 32960 00000 10100 21025 38201 40104 52029 90240 333 30/// 58024;",
"76373099999","2005-11-30T06:00:00","4","25.35","-105.75","1967.0","TEPEHUANES DGO., MX","FM-12","99999","V020","999,9,C,0000,1","22000,1,9,N","010000,1,N,1","+0052,1","-0035,1","10127,1",,,,,,"00,1,+99999,9,99,9",,,"00,99,1,00,1,00,1,99999,9,00,1,00,1","0600,9","01,9",,"240,M,+0243,1","240,N,-0044,1","99999,9,08213,1","2,1,012,1,+016,1",,,"SYN100AAXX  30061 76373 32960 00000 10052 21035 38213 40127 52012 90540 333 10243 21044 30/// 55100 58016;",
"76373099999","2005-11-30T15:00:00","4","25.35","-105.75","1967.0","TEPEHUANES DGO., MX","FM-12","99999","V020","999,9,C,0000,1","22000,1,9,N","070000,1,N,1","+0012,1","-0043,1","10245,1",,,,,,"00,1,+99999,9,99,9",,,"00,99,1,00,1,00,1,99999,9,00,1,00,1",,"01,9",,,,"99999,9,08224,1","2,1,012,1,+006,1",,,"SYN082AAXX  30151 76373 32988 00000 10012 21043 38224 40245 52012 91455 333 30/// 58006;",
"76373099999","2005-11-30T18:00:00","4","25.35","-105.75","1967.0","TEPEHUANES DGO., MX","FM-12","99999","V020","999,9,C,0000,1","22000,1,9,N","070000,1,N,1","+0182,2","-0029,1","10212,1",,,,,,"00,1,+99999,9,99,9",,,"00,99,1,00,1,00,1,99999,9,00,1,00,1",,"01,9",,"120,M,+0210,1","240,N,-0040,1","99999,9,08206,1","7,1,018,1,-004,1",,,"SYN094AAXX  30181 76373 32988 00000 10182 21029 38206 40212 57018 91748 333 10210 21040 30/// 59004;",
"76373099999","2005-11-30T21:00:00","4","25.35","-105.75","1967.0","TEPEHUANES DGO., MX","FM-12","99999","V020","280,1,N,0050,1","22000,1,9,N","070000,1,N,1","+0254,2","-0020,1","10125,2",,,,,,"00,1,+99999,9,99,9",,,"00,99,1,00,1,00,1,99999,9,00,1,00,1",,"01,9",,,,"99999,9,08173,1","6,1,033,1,-001,1",,,"SYN082AAXX  30211 76373 32988 02805 10254 21020 38173 40125 56033 92055 333 30/// 59001;",
"76373099999","2005-12-01T12:00:00","4","25.35","-105.75","1967.0","TEPEHUANES DGO., MX","FM-12","99999","V020","999,9,C,0000,1","22000,1,9,N","000200,1,N,1","-0016,1","-0069,1","10216,1","24,0000,9,1",,,,,"00,1,+99999,9,99,9",,,"00,99,1,00,1,00,1,99999,9,00,1,00,1",,"09,9","999,-0054,1","120,N,-0012,1","240,M,+0274,1","99999,9,08226,1","9,9,999,9,+014,1",,,"SYN100AAXX  01121 76373 32902 00000 11016 21069 38226 40216 5//// 91152 333 10274 21012 31054 58014 70000;","Q01  00002PRCP24"
"76373099999","2005-12-01T15:00:00","4","25.35","-105.75","1967.0","TEPEHUANES DGO., MX","FM-12","99999","V020","999,9,C,0000,1","22000,1,9,N","070000,1,N,1","+0006,1","-0032,1","10264,1",,,,,,"00,1,+99999,9,99,9",,,"00,99,1,00,1,00,1,99999,9,00,1,00,1",,"01,9",,,,"99999,9,08241,1","2,1,015,1,+017,1",,,"SYN082AAXX  01151 76373 32988 00000 10006 21032 38241 40264 52015 91445 333 30/// 58017;",
"76373099999","2005-12-01T18:00:00","4","25.35","-105.75","1967.0","TEPEHUANES DGO., MX","FM-12","99999","V020","090,1,N,0020,1","22000,1,9,N","070000,1,N,1","+0168,2","-0020,1","10240,1",,,,,,"00,1,+99999,9,99,9",,,"00,99,1,00,1,00,1,99999,9,00,1,00,1",,"01,9",,"120,M,+0186,1","240,N,-0038,1","99999,9,08229,1","7,1,012,1,+023,1",,,"SYN094AAXX  01181 76373 32988 00902 10168 21020 38229 40240 57012 91745 333 10186 21038 30/// 58023;",
"76373099999","2005-12-02T00:00:00","4","25.35","-105.75","1967.0","TEPEHUANES DGO., MX","FM-12","99999","V020","150,1,N,0020,1","22000,1,9,N","070000,1,N,1","+0218,1","-0033,1","10099,2","24,0000,9,1",,,,,,,,"01,99,1,00,1,00,1,99999,9,00,1,01,1",,"01,9",,"120,M,+0255,1","180,N,-0038,1","99999,9,08183,1","7,1,008,1,+007,1",,,"SYN124AAXX  02001 76373 32988 11502 10218 21033 38183 40099 57008 80001 92345 333 10255 21038 30/// 50370 56006 58007 70000 81070;",
"76373099999","2005-12-02T12:00:00","4","25.35","-105.75","1967.0","TEPEHUANES DGO., MX","FM-12","99999","V020","999,9,C,0000,1","22000,1,9,N","000200,1,N,1","-0010,1","-0051,1","10207,1","24,0000,9,1",,,,,"00,1,+99999,9,99,9",,,"00,99,1,00,1,00,1,99999,9,00,1,00,1",,"09,9","999,-0050,1","120,N,-0020,1","240,M,+0255,1","99999,9,08224,1","9,9,999,9,-004,1",,,"SYN100AAXX  02121 76373 32902 00000 11010 21051 38224 40207 5//// 91145 333 10255 21020 31050 59004 70000;","Q01  00002PRCP24"
"76373099999","2005-12-02T15:00:00","4","25.35","-105.75","1967.0","TEPEHUANES DGO., MX","FM-12","99999","V020","999,9,C,0000,1","22000,1,9,N","070000,1,N,1","+0010,1","-0033,1","10254,1",,,,,,"02,1,+06000,1,00,1",,,"02,99,1,00,1,00,1,99999,9,00,1,05,1",,"01,9",,,,"99999,9,08234,1","3,1,010,1,-007,1",,,"SYN100AAXX  02151 76373 32988 20000 10010 21033 38234 40254 53010 80005 91448 333 30/// 56006 59007 82070;",
"76373099999","2005-12-02T18:00:00","4","25.35","-105.75","1967.0","TEPEHUANES DGO., MX","FM-12","99999","V020","090,1,N,0010,1","22000,1,9,N","070000,1,N,1","+0160,1","-0019,1","10235,1",,,,,,"02,1,+06000,1,00,1",,,"02,99,1,00,1,00,1,99999,9,00,1,02,1",,"01,9",,"120,M,+0184,1","240,N,-0036,1","99999,9,08225,1","8,1,009,1,-004,1",,,"SYN112AAXX  02181 76373 32988 20901 10160 21019 38225 40235 58009 80002 91750 333 10184 21036 30/// 56006 59004 82070;",
"76373099999","2005-12-02T21:00:00","4","25.35","-105.75","1967.0","TEPEHUANES DGO., MX","FM-12","99999","V020","140,1,N,0040,1","22000,1,9,N","070000,1,N,1","+0244,2","-0059,1","10174,2",,,,,,"01,1,+06000,1,00,1",,,"01,99,1,00,1,00,1,99999,9,00,1,02,1",,"01,9",,,,"99999,9,08186,1","6,1,039,1,-005,1",,,"SYN100AAXX  02211 76373 32988 11404 10244 21059 38186 40174 56039 80002 92045 333 30/// 56006 59005 81070;",
"76373099999","2005-12-03T18:00:00","4","25.35","-105.75","1967.0","TEPEHUANES DGO., MX","FM-12","99999","V020","110,1,N,0010,1","06000,1,9,N","070000,1,N,1","+0150,1","-0054,1","10228,1",,,,,,"07,1,+06000,1,02,1",,,"07,99,1,00,1,00,1,99999,9,00,1,08,1",,"01,9",,"120,M,+0168,1","240,N,-0040,1","99999,9,08222,1","9,9,999,9,-003,1",,,"SYN112AAXX  03181 76373 32988 71101 10150 21054 38222 40228 5//// 80008 91745 333 10168 21040 30/// 56006 59003 87270;",
"76373099999","2005-12-03T21:00:00","4","25.35","-105.75","1967.0","TEPEHUANES DGO., MX","FM-12","99999","V020","100,1,N,0010,1","06000,1,9,N","070000,1,N,1","+0232,1","-0071,1","10148,2",,,,,,"05,1,+06000,1,02,1",,,"05,99,1,00,1,00,1,99999,9,00,1,08,1",,"01,9",,,,"99999,9,08187,1","6,1,035,1,+001,1",,,"SYN100AAXX  03211 76373 32988 51001 10232 21071 38187 40148 56035 80008 92045 333 30/// 56006 58001 85270;",
"76373099999","2005-12-04T12:00:00","4","25.35","-105.75","1967.0","TEPEHUANES DGO., MX","FM-12","99999","V020","999,9,C,0000,1","22000,1,9,N","000200,1,N,1","-0010,1","-0061,1","10193,1","24,0000,9,1",,,,,"02,1,+06000,1,00,1",,,"02,99,1,00,1,00,1,99999,9,00,1,02,1",,"09,9","999,-0040,1","120,N,-0016,1","240,M,+0260,1","99999,9,08210,1",,,,"SYN118AAXX  04121 76373 32902 20000 11010 21061 38210 40193 5//// 80002 91145 333 10260 21016 31040 56006 58/// 70000 82070;",
"76373099999","2005-12-04T15:00:00","4","25.35","-105.75","1967.0","TEPEHUANES DGO., MX","FM-12","99999","V020","999,9,C,0000,1","03000,1,9,N","070000,1,N,1","-0006,1","-0029,1","10238,1",,,,,,"07,1,+03000,1,03,1",,,"07,99,1,07,1,00,1,01250,1,03,1,00,1",,"01,9",,,,"99999,9,08222,1","2,1,012,1,+999,9",,,"SYN100AAXX  04151 76373 32688 70000 11006 21029 38222 40238 52012 87030 91448 333 30/// 56060 58/// 87360;",
"76373099999","2005-12-04T18:00:00","4","25.35","-105.75","1967.0","TEPEHUANES DGO., MX","FM-12","99999","V020","130,1,N,0010,1","22000,1,9,N","070000,1,N,1","+0138,2","-0019,1","10226,1",,,,,,"03,1,+03000,1,03,1",,,"04,99,1,03,1,00,1,01250,1,03,1,01,1",,"01,9",,"120,M,+0160,1","240,N,-0030,1","99999,9,08215,1","8,1,007,1,-007,1",,,"SYN118AAXX  04181 76373 32688 41301 10138 21019 38215 40226 58007 83031 91750 333 10160 21030 30/// 56066 59007 83360 81070;",
"76373099999","2005-12-05T12:00:00","4","25.35","-105.75","1967.0","TEPEHUANES DGO., MX","FM-12","99999","V020","999,9,C,0000,1","03000,1,9,N","000100,1,N,1","+0036,1","+0010,1","10181,1","24,0000,9,1",,,,,"08,1,+03000,1,04,1",,,"08,99,1,08,1,00,1,01250,1,02,1,00,1",,"09,9","999,-0002,1","120,N,+0022,1","240,M,+0260,1","99999,9,08221,1","9,9,999,9,+011,1",,,"SYN118AAXX  05121 76373 32601 80000 10036 20010 38221 40181 5//// 88020 91150 333 10260 20022 31002 56060 58011 70000 88460;",
"76373099999","2005-12-05T15:00:00","4","25.35","-105.75","1967.0","TEPEHUANES DGO., MX","FM-12","99999","V020","999,9,C,0000,1","06000,1,9,N","070000,1,N,1","+0036,1","+0000,1","10214,1",,,,,,"02,1,+03000,1,02,1","04,1,+06000,1,00,1",,"08,99,1,02,1,00,1,01250,1,02,1,04,1",,"01,9",,,,"99999,9,08231,1","2,1,010,1,+009,1",,,"SYN112AAXX  05151 76373 32688 80000 10036 20000 38231 40214 52010 82024 91455 333 30/// 56066 58009 82260 84070 81970;",
"76373099999","2005-12-05T18:00:00","4","25.35","-105.75","1967.0","TEPEHUANES DGO., MX","FM-12","99999","V020","040,1,N,0020,1","22000,1,9,N","070000,1,N,1","+0152,1","+0025,1","10207,1",,,,,,"03,1,+06000,1,00,1",,,"04,99,1,00,1,00,1,99999,9,00,1,02,1",,"01,9",,"120,M,+0164,1","240,N,+0020,1","99999,9,08227,1","8,1,004,1,+012,1",,,"SYN118AAXX  05181 76373 32988 40402 10152 20025 38227 40207 58004 80002 91745 333 10164 20020 30/// 56006 58012 83070 81970;",
"76373099999","2005-12-05T21:00:00","4","25.35","-105.75","1967.0","TEPEHUANES DGO., MX","FM-12","99999","V020","120,1,N,0040,1","06000,1,9,N","070000,1,N,1","+0192,1","-0018,1","10139,2",,,,,,"08,1,+06000,1,02,1",,,"08,99,1,00,1,00,1,99999,9,00,1,07,1",,"01,9",,,,"99999,9,08189,1","6,1,038,1,+999,9",,,"SYN106AAXX  05211 76373 32988 81204 10192 21018 38189 40139 56038 80007 92045 333 30/// 56006 58/// 88270 99020;",
"76373099999","2005-12-06T06:00:00","4","25.35","-105.75","1967.0","TEPEHUANES DGO., MX","FM-12","99999","V020","999,9,C,0000,1","06000,1,9,N","010000,1,N,1","+0060,1","-0028,1","10127,1",,,,,,"06,1,+06000,1,02,1",,,"06,99,1,00,1,00,1,99999,9,00,1,02,1",,"01,9",,"240,M,+0210,1","240,N,+0020,1","99999,9,99999,9","2,1,010,1,+999,9",,,"SYN112AAXX  06061 76373 32660 60000 10060 21028 36206 40127 52010 80002 90540 333 10210 20020 30/// 56006 58/// 86270;","Q01 062063APOSP "
"76373099999","2005-12-06T12:00:00","4","25.35","-105.75","1967.0","TEPEHUANES DGO., MX","FM-12","99999","V020","999,9,C,0000,1","99999,9,9,N","000100,1,N,1","+0010,1","-0022,1","10177,1","24,0000,9,1",,,,,"03,1,+03000,1,03,1",,,"08,99,1,06,1,00,1,99999,9,02,1,01,1",,"09,9","999,-0018,1","120,N,+0004,1","240,M,+0210,1","99999,9,08198,2","9,9,999,9,-023,1",,,"SYN124AAXX  06121 76373 32901 80000 10010 21022 38198 40177 5//// 86021 91155 333 10210 20004 31018 56066 59023 70000 83360 82070;",
"76373099999","2005-12-06T15:00:00","4","25.35","-105.75","1967.0","TEPEHUANES DGO., MX","FM-12","99999","V020","999,9,C,0000,1","03000,1,9,N","070000,1,N,1","+0018,1","-0027,1","10205,1",,,,,,"08,1,+03000,1,04,1",,,"08,99,1,08,1,00,1,01250,1,02,1,00,1",,"01,9",,,,"99999,9,08203,1","3,1,005,1,-023,1",,,"SYN100AAXX  06151 76373 32688 80000 10018 21027 38203 40205 53005 88020 91445 333 30/// 56060 59023 88460;",
"76373099999","2005-12-06T18:00:00","4","25.35","-105.75","1967.0","TEPEHUANES DGO., MX","FM-12","99999","V020","999,9,C,0000,1","09000,1,C,N","070000,1,N,1","+0140,1","-0010,1","10188,1",,,,,,"01,1,+03000,1,03,1",,,"08,99,1,01,1,00,1,01250,1,04,1,08,1",,"01,9",,"120,M,+0154,1","240,N,-0005,1","99999,9,08196,1","8,1,007,1,-031,1",,,"SYN118AAXX  06181 76373 32688 80000 10140 21010 38196 40188 58007 81048 91748 333 10154 21005 30/// 56066 59031 81360 86270;",
"76373099999","2005-12-06T21:00:00","4","25.35","-105.75","1967.0","TEPEHUANES DGO., MX","FM-12","99999","V020","270,1,N,0080,1","03000,1,9,N","070000,1,N,1","+0214,2","-0034,1","10116,2",,,,,,"05,1,+03000,1,03,1",,,"08,99,1,05,1,00,1,01750,1,06,1,08,1",,"01,9",,,,"99999,9,08166,1","7,1,030,1,-023,1",,,"SYN106AAXX  06211 76373 32788 82708 10214 21034 38166 40116 57030 85068 92047 333 30/// 56066 59023 85360 86270;",
"76373099999","2005-12-07T00:00:00","4","25.35","-105.75","1967.0","TEPEHUANES DGO., MX","FM-12","99999","V020","210,1,N,0060,1","09000,1,9,N","070000,1,N,1","+0162,1","-0059,1","10099,1","24,0000,9,1",,,,,"02,1,+03000,1,03,1",,,"08,99,1,02,1,00,1,01750,1,03,1,08,1",,"01,9",,"120,M,+0230,1","180,N,-0005,1","99999,9,08175,1","7,1,009,1,-011,1",,,"SYN130AAXX  07001 76373 32788 82106 10162 21059 38175 40099 57009 82038 92348 333 10230 21005 30/// 50180 56066 59011 70000 82360 88270;",
"76373099999","2005-12-07T03:00:00","4","25.35","-105.75","1967.0","TEPEHUANES DGO., MX","FM-12","99999","V020","240,1,N,0020,1","09000,1,9,N","010000,1,N,1","+0114,1","-0043,1","10095,1",,,,,,"02,1,+03000,1,03,1",,,"05,99,1,02,1,00,1,01250,1,06,1,02,1",,"01,9",,,,"99999,9,08189,1","2,1,014,1,+003,1",,,"SYN106AAXX  07031 76373 32660 52402 10114 21043 38189 40095 52014 82062 90240 333 30/// 56066 58003 82360 83280;",
"76373099999","2005-12-07T06:00:00","4","25.35","-105.75","1967.0","TEPEHUANES DGO., MX","FM-12","99999","V020","999,9,C,0000,1","09000,1,9,N","010000,1,N,1","+0056,1","-0039,1","10153,1",,,,,,"06,1,+09000,1,02,1",,,"06,99,1,00,1,00,1,99999,9,00,1,07,1",,"01,9",,"240,M,+0230,1","240,N,-0005,1","99999,9,08205,1","2,1,016,1,-001,1",,,"SYN112AAXX  07061 76373 32960 60000 10056 21039 38205 40153 52016 80007 90540 333 10230 21005 30/// 56006 59001 86280;",
"76373099999","2005-12-07T15:00:00","4","25.35","-105.75","1967.0","TEPEHUANES DGO., MX","FM-12","99999","V020","999,9,C,0000,1","22000,1,9,N","070000,1,N,1","+0014,1","-0023,1","10226,1",,,,,,"01,1,+03000,1,03,1",,,"01,99,1,01,1,00,1,01250,1,04,1,00,1",,"01,9",,,,"99999,9,08208,1","2,1,014,1,+005,1",,,"SYN100AAXX  07151 76373 32688 10000 10014 21023 38208 40226 52014 81040 91455 333 30/// 56060 58005 81360;",
"76373099999","2005-12-07T18:00:00","4","25.35","-105.75","1967.0","TEPEHUANES DGO., MX","FM-12","99999","V020","110,1,N,0010,1","22000,1,9,N","070000,1,N,1","+0152,1","+0029,1","10209,1",,,,,,"01,1,+00360,1,08,1",,,"02,99,1,01,1,01,1,00450,1,00,1,05,1",,"01,9",,"120,M,+0170,1","240,N,-0034,1","99999,9,08203,1","8,1,005,1,+007,1",,,"SYN118AAXX  07181 76373 32488 21101 10152 20029 38203 40209 58005 81105 91745 333 10170 21034 30/// 56606 58007 81812 81070;",
"76373099999","2005-12-07T21:00:00","4","25.35","-105.75","1967.0","TEPEHUANES DGO., MX","FM-12","99999","V020","270,1,N,0070,1","22000,1,9,N","070000,1,N,1","+0210,2","-0034,1","10141,2",,,,,,"01,1,+00300,1,08,1",,,"01,99,1,01,1,01,1,00450,1,00,1,00,1",,"01,9",,,,"99999,9,08181,1","6,1,022,1,+015,1",,,"SYN100AAXX  07211 76373 32488 12707 10210 21034 38181 40141 56022 81100 92046 333 30/// 56600 58015 81810;",
"76373099999","2005-12-08T00:00:00","4","25.35","-105.75","1967.0","TEPEHUANES DGO., MX","FM-12","99999","V020","250,1,N,0040,1","22000,1,9,N","070000,1,N,1","+0172,1","-0029,1","10116,1","24,0000,9,1",,,,,"00,1,+99999,9,99,9",,,"00,99,1,00,1,00,1,99999,9,00,1,00,1",,"01,9",,"120,M,+0236,1","180,N,-0034,1","99999,9,08187,1","1,1,006,1,+012,1",,,"SYN106AAXX  08001 76373 32988 02504 10172 21029 38187 40116 51006 92354 333 10236 21034 30/// 50280 58012 70000;","Q01  00002PRCP24"
"76373099999","2005-12-08T03:00:00","4","25.35","-105.75","1967.0","TEPEHUANES DGO., MX","FM-12","99999","V020","270,1,N,0030,1","22000,1,9,N","010000,1,N,1","+0082,1","-0023,1","10144,1",,,,,,"00,1,+99999,9,99,9",,,"00,99,1,00,1,00,1,99999,9,00,1,00,1",,"01,9",,,,"99999,9,08197,1","2,1,010,1,+008,1",,,"SYN082AAXX  08031 76373 32960 02703 10082 21023 38197 40144 52010 90240 333 30/// 58008;",
"76373099999","2005-12-08T12:00:00","4","25.35","-105.75","1967.0","TEPEHUANES DGO., MX","FM-12","99999","V020","270,1,N,0010,1","22000,1,9,N","000200,1,N,1","-0018,1","-0049,1","10226,1","24,0000,9,1",,,,,"00,1,+99999,9,99,9",,,"00,99,1,00,1,00,1,99999,9,00,1,00,1",,"09,9","999,-0058,1","120,N,-0032,1","240,M,+0236,1","99999,9,08219,1","9,9,999,9,+015,1",,,"SYN100AAXX  08121 76373 32902 02701 11018 21049 38219 40226 5//// 91150 333 10236 21032 31058 58015 70000;","Q01  00002PRCP24"
"76373099999","2005-12-08T15:00:00","4","25.35","-105.75","1967.0","TEPEHUANES DGO., MX","FM-12","99999","V020","270,1,N,0010,1","06000,1,9,N","070000,1,N,1","-0006,1","-0021,1","10271,1",,,,,,"06,1,+06000,1,02,1",,,"06,99,1,00,1,00,1,99999,9,00,1,08,1",,"01,9",,,,"99999,9,08238,1","2,1,019,1,+030,1",,,"SYN100AAXX  08151 76373 32688 62701 11006 21021 38238 40271 52019 80008 91455 333 30/// 56006 58030 86270;",
"76373099999","2005-12-08T18:00:00","4","25.35","-105.75","1967.0","TEPEHUANES DGO., MX","FM-12","99999","V020","140,1,N,0010,1","22000,1,9,N","070000,1,N,1","+0138,1","+0002,1","10252,1",,,,,,"01,1,+00360,1,08,1","01,1,+03000,1,03,1",,"03,99,1,01,1,02,1,00450,1,03,1,02,1",,"01,9",,"120,M,+0162,1","240,N,-0032,1","99999,9,08233,1","8,1,003,1,+030,1",,,"SYN124AAXX  08181 76373 32488 31401 10138 20002 38233 40252 58003 81232 91745 333 10162 21032 30/// 56666 58030 81812 81360 81070;",
"76373099999","2005-12-08T21:00:00","4","25.35","-105.75","1967.0","TEPEHUANES DGO., MX","FM-12","99999","V020","090,1,N,0010,1","03000,1,9,N","070000,1,N,1","+0196,2","-0005,1","10174,2",,,,,,"01,1,+00300,1,08,1","06,1,+03000,1,03,1",,"08,99,1,01,1,01,1,00450,1,06,1,02,1",,"01,9",,,,"99999,9,08202,1","6,1,032,1,+004,1",,,"SYN112AAXX  08211 76373 32488 80901 10196 21005 38202 40174 56032 81162 92045 333 30/// 56666 58004 81810 86360 81070;",
"76373099999","2005-12-09T00:00:00","4","25.35","-105.75","1967.0","TEPEHUANES DGO., MX","FM-12","99999","V020","150,1,N,0010,1","03600,1,9,N","070000,1,N,1","+0176,1","-0022,1","10134,1","24,0000,9,1",,,,,"03,1,+00300,1,08,1",,,"05,99,1,03,1,02,1,00450,1,03,1,00,1",,"01,9",,"120,M,+0222,1","180,N,-0032,1","99999,9,08201,1","4,1,000,1,+014,1",,,"SYN130AAXX  09001 76373 32488 51501 10176 21022 38201 40134 54000 83230 92345 333 10222 21032 30/// 50270 56660 58014 70000 83810 82360;",
"76373099999","2005-12-09T03:00:00","4","25.35","-105.75","1967.0","TEPEHUANES DGO., MX","FM-12","99999","V020","150,1,N,0010,1","22000,1,9,N","010000,1,N,1","+0120,1","-0006,1","99999,9",,,,,,,,,"03,99,1,99,9,99,9,01250,1,99,9,99,9",,"01,9",,,,,"9,9,999,9,+020,1",,,"SYN100AAXX  09031 76373 32660 31501 10120 21006 30240 38217 40132 52016 83030 333 30/// 56060 58020 83360;",
"76373099999","2005-12-09T06:00:00","4","25.35","-105.75","1967.0","TEPEHUANES DGO., MX","FM-12","99999","V020","270,1,N,0030,1","22000,1,9,N","010000,1,N,1","+0076,1","-0025,1","10158,1",,,,,,"00,1,+99999,9,99,9",,,"00,99,1,00,1,00,1,99999,9,00,1,00,1",,"01,9",,"240,M,+0222,1","240,N,-0032,1","99999,9,08236,1","2,1,019,1,+019,1",,,"SYN094AAXX  09061 76373 32960 02703 10076 21025 38236 40158 52019 90540 333 10222 21032 30/// 58019;",
"76373099999","2005-12-09T12:00:00","4","25.35","-105.75","1967.0","TEPEHUANES DGO., MX","FM-12","99999","V020","999,9,C,0000,1","22000,1,9,N","000200,1,N,1","-0008,1","-0031,1","99999,9","24,0000,9,1",,,,,"00,1,+99999,9,99,9",,,"00,99,1,00,1,00,1,99999,9,00,1,00,1",,"09,9","999,-0040,1","120,N,-0020,1","240,M,+0222,1","99999,9,08256,1","9,9,999,9,+017,1",,,"SYN100AAXX  09121 76373 32902 00000 11008 21031 38256 4//// 5//// 91155 333 10222 21020 31040 58017 70000;","Q01  00002PRCP24"
"76373099999","2005-12-09T15:00:00","4","25.35","-105.75","1967.0","TEPEHUANES DGO., MX","FM-12","99999","V020","999,9,C,0000,1","22000,1,C,N","070000,1,N,1","-0002,1","-0027,1","10261,1",,,,,,"02,1,+03000,1,03,1",,,"06,99,1,02,1,00,1,01250,1,04,1,04,1",,"01,9",,,,"99999,9,08247,1","2,1,011,1,+009,1",,,"SYN106AAXX  09151 76373 32688 60000 11002 21027 38247 40261 52011 82044 91450 333 30/// 56066 58009 82360 84070;",
"76373099999","2005-12-09T18:00:00","4","25.35","-105.75","1967.0","TEPEHUANES DGO., MX","FM-12","99999","V020","999,9,C,0000,1","03000,1,9,N","070000,1,N,1","+0114,1","+0019,1","10259,1",,,,,,"08,1,+03000,1,03,1",,,"08,99,1,08,1,00,1,01250,1,07,1,00,1",,"01,9",,"120,M,+0132,1","240,N,-0022,1","99999,9,08243,1","8,1,004,1,+010,1",,,"SYN112AAXX  09181 76373 32688 80000 10114 20019 38243 40259 58004 88070 91745 333 10132 21022 30/// 56060 58010 88360;",
"76373099999","2005-12-09T21:00:00","4","25.35","-105.75","1967.0","TEPEHUANES DGO., MX","FM-12","99999","V020","150,1,N,0030,1","03000,1,9,N","070000,1,N,1","+0172,1","-0016,1","10193,1",,,,,,"08,1,+03000,1,04,1",,,"08,99,1,08,1,00,1,01750,1,07,1,00,1",,"01,9",,,,"99999,9,08210,1","6,1,033,1,-009,1",,,"SYN100AAXX  09211 76373 32788 81503 10172 21016 38210 40193 56033 88070 92045 333 30/// 56060 59009 88460;",
"76373099999","2005-12-10T00:00:00","4","25.35","-105.75","1967.0","TEPEHUANES DGO., MX","FM-12","99999","V020","999,9,C,0000,1","01500,1,9,N","070000,1,N,1","+0160,1","-0043,1","10167,1","24,0000,9,1",,,,,,,,"08,99,1,08,1,00,1,01750,1,07,1,00,1",,"01,9",,"120,M,+0195,1","180,N,-0022,1","99999,9,08216,1","2,1,006,1,+012,1",,,"SYN124AAXX  10001 76373 32788 80000 10160 21043 38216 40167 52006 88070 92357 333 10195 21022 30/// 50060 56060 58012 70000 88460;",
"76373099999","2005-12-10T18:00:00","4","25.35","-105.75","1967.0","TEPEHUANES DGO., MX","FM-12","99999","V020","270,1,N,0010,1","06000,1,9,N","070000,1,N,1","+0128,1","-0012,1","10259,1",,,,,,"08,1,+06000,1,02,1",,,"08,99,1,00,1,00,1,99999,9,00,1,08,1",,"01,9",,"120,M,+0150,1","240,N,-0024,1","99999,9,08246,1","9,9,999,9,+003,1",,,"SYN112AAXX  10181 76373 32988 82701 10128 21012 38246 40259 5//// 80008 91745 333 10150 21024 30/// 56006 58003 88270;",
"76373099999","2005-12-10T21:00:00","4","25.35","-105.75","1967.0","TEPEHUANES DGO., MX","FM-12","99999","V020","040,1,N,0020,1","06000,1,9,N","070000,1,N,1","+0208,1","-0027,1","10179,1",,,,,,"08,1,+06000,1,02,1",,,"08,99,1,00,1,00,1,99999,9,00,1,08,1",,"01,9",,,,"99999,9,08208,1","7,1,038,1,-002,1",,,"SYN100AAXX  10211 76373 32988 80402 10208 21027 38208 40179 57038 80008 92045 333 30/// 56006 59002 88270;",
"76373099999","2005-12-11T00:00:00","4","25.35","-105.75","1967.0","TEPEHUANES DGO., MX","FM-12","99999","V020","150,1,N,0010,1","99999,9,9,N","070000,1,N,1","+0192,1","-0074,1","10144,1","24,0000,9,1",,,,,,,,"06,99,1,00,1,00,1,99999,9,00,1,07,1",,"01,9",,"120,M,+0244,1","180,N,-0024,1","99999,9,08210,1","2,1,002,1,-006,1",,,"SYN124AAXX  11001 76373 32988 61501 10192 21074 38210 40144 52002 80007 92330 333 10244 21024 30/// 50240 56006 59006 70000 86080;",
"76373099999","2005-12-11T03:00:00","4","25.35","-105.75","1967.0","TEPEHUANES DGO., MX","FM-12","99999","V020","999,9,C,0000,1","22000,1,9,N","010000,1,N,1","+0096,1","-0025,1","10137,1",,,,,,"00,1,+99999,9,99,9",,,"00,99,1,00,1,00,1,99999,9,00,1,00,1",,"01,9",,,,"99999,9,08222,1","2,1,012,1,+999,9",,,"SYN082AAXX  11031 76373 32960 00000 10096 21025 38222 40137 52012 90245 333 30/// 58///;",
"76373099999","2005-12-11T15:00:00","4","25.35","-105.75","1967.0","TEPEHUANES DGO., MX","FM-12","99999","V020","999,9,C,0000,1","06000,1,9,N","070000,1,N,1","-0002,1","-0037,1","10276,1",,,,,,"07,1,+06000,1,02,1",,,"07,99,1,00,1,00,1,99999,9,00,1,08,1",,"01,9",,,,"99999,9,08246,1",,,,"SYN100AAXX  11151 76373 32988 70000 11002 21037 38246 40276 5//// 80008 91455 333 30/// 56006 58/// 87270;",
"76373099999","2005-12-11T18:00:00","4","25.35","-105.75","1967.0","TEPEHUANES DGO., MX","FM-12","99999","V020","999,9,C,0000,1","03000,1,9,N","070000,1,N,1","+0118,1","-0009,1","10263,1",,,,,,"08,1,+03000,1,03,1",,,"08,99,1,08,1,00,1,01250,1,07,1,00,1",,"01,9",,"120,M,+0136,1","240,N,-0022,1","99999,9,08246,1","0,1,000,1,+000,1",,,"SYN112AAXX  11181 76373 32688 80000 10118 21009 38246 40263 50000 88070 91750 333 10136 21022 30/// 56060 58000 88360;",
"76373099999","2005-12-11T21:00:00","4","25.35","-105.75","1967.0","TEPEHUANES DGO., MX","FM-12","99999","V020","150,1,N,0010,1","03000,1,9,N","070000,1,N,1","+0164,1","-0007,1","10167,2",,,,,,"08,1,+03000,1,05,1",,,"08,99,1,08,1,00,1,01250,1,07,1,00,1",,"01,9",,,,"99999,9,08195,1","6,1,051,1,-013,1",,,"SYN100AAXX  11211 76373 32688 81501 10164 21007 38195 40167 56051 88070 92054 333 30/// 56060 59013 88560;",
"76373099999","2005-12-12T00:00:00","4","25.35","-105.75","1967.0","TEPEHUANES DGO., MX","FM-12","99999","V020","999,9,C,0000,1","01200,1,9,N","070000,1,N,1","+0164,1","-0029,1","10146,1","24,0000,9,1",,,,,,,,"08,99,1,99,9,00,1,01250,1,06,1,00,1",,"01,9",,"120,M,+0200,1","180,N,-0022,1","99999,9,08197,1","2,1,002,1,-013,1",,,"SYN124AAXX  12001 76373 32688 80000 10164 21029 38197 40146 52002 87060 92340 333 10200 21022 30/// 50200 56060 59013 70000 88360;",
"76373099999","2005-12-12T12:00:00","4","25.35","-105.75","1967.0","TEPEHUANES DGO., MX","FM-12","99999","V020","999,9,C,0000,1","03000,1,9,N","000100,1,N,1","+0030,1","-0019,1","10202,1",,,,,,"08,1,+03000,1,03,1",,,"08,99,1,08,1,00,1,01250,1,07,1,00,1",,"01,9","999,+0000,1","120,N,+0022,1","240,M,+0200,1","99999,9,08223,1",,,,"SYN106AAXX  12121 76373 32601 80000 10030 21019 38223 40202 5//// 88070 91150 333 10200 20022 30000 56060 88360;",
"76373099999","2005-12-12T15:00:00","4","25.35","-105.75","1967.0","TEPEHUANES DGO., MX","FM-12","99999","V020","999,9,C,0000,1","09000,1,C,N","070000,1,N,1","+0028,1","-0032,1","10245,1",,,,,,"02,1,+03000,1,05,1",,,"08,99,1,02,1,00,1,01250,1,02,1,08,1",,"01,9",,,,"99999,9,08242,1","2,1,019,1,-004,1",,,"SYN106AAXX  12151 76373 32688 80000 10028 21032 38242 40245 52019 82028 91450 333 30/// 56066 59004 82560 86270;",
"76373099999","2005-12-12T18:00:00","4","25.35","-105.75","1967.0","TEPEHUANES DGO., MX","FM-12","99999","V020","999,9,C,0000,1","03000,1,9,N","070000,1,N,1","+0140,1","-0016,1","10240,1",,,,,,"08,1,+03000,1,03,1",,,"08,99,1,08,1,00,1,01250,1,07,1,00,1",,"01,9",,"120,M,+0160,1","240,N,+0015,1","99999,9,08242,1","0,1,000,1,-004,1",,,"SYN112AAXX  12181 76373 32688 80000 10140 21016 38242 40240 50000 88070 91750 333 10160 20015 30/// 56060 59004 88360;",
"76373099999","2005-12-12T21:00:00","4","25.35","-105.75","1967.0","TEPEHUANES DGO., MX","FM-12","99999","V020","999,9,C,0000,1","09000,1,C,N","070000,1,N,1","+0210,1","-0009,1","10172,2",,,,,,"04,1,+03000,1,04,1",,,"08,99,1,04,1,00,1,01250,1,04,1,08,1",,"01,9",,,,"99999,9,08211,1","6,1,031,1,+016,1",,,"SYN106AAXX  12211 76373 32688 80000 10210 21009 38211 40172 56031 84048 92045 333 30/// 56066 58016 84460 86270;",
"76373099999","2005-12-13T00:00:00","4","25.35","-105.75","1967.0","TEPEHUANES DGO., MX","FM-12","99999","V020","250,1,N,0010,1","09000,1,9,N","070000,1,N,1","+0206,1","+0012,1","10125,1","24,0000,9,1",,,,,"02,1,+03000,1,04,1",,,"08,99,1,02,1,00,1,01250,1,02,1,08,1",,"01,9",,"120,M,+0240,1","180,N,+0015,1","99999,9,08201,1","7,1,010,1,+004,1",,,"SYN130AAXX  13001 76373 32688 82501 10206 20012 38201 40125 57010 82028 92340 333 10240 20015 30/// 50100 56066 58004 70000 82460 86270;",
"76373099999","2005-12-13T12:00:00","4","25.35","-105.75","1967.0","TEPEHUANES DGO., MX","FM-12","99999","V020","999,9,C,0000,1","22000,1,9,N","000100,1,N,1","+0008,1","-0016,1","10200,1","24,0000,9,1",,,,,"02,1,+06000,1,00,1",,,"02,99,1,00,1,00,1,99999,9,00,1,05,1",,"09,9","999,-0026,1","120,N,+0000,1","240,M,+0240,1","99999,9,08224,1","9,9,999,9,+001,1",,,"SYN118AAXX  13121 76373 32901 20000 10008 21016 38224 40200 5//// 80005 91445 333 10240 20000 31026 56006 58001 70000 82070;",
"76373099999","2005-12-13T15:00:00","4","25.35","-105.75","1967.0","TEPEHUANES DGO., MX","FM-12","99999","V020","999,9,C,0000,1","06000,1,9,N","070000,1,N,1","+0034,1","-0015,1","10235,1",,,,,,"06,1,+06000,1,00,1",,,"06,99,1,00,1,00,1,99999,9,00,1,04,1",,"01,9",,,,"99999,9,08228,1","3,1,004,1,-014,1",,,"SYN100AAXX  13151 76373 32988 60000 10034 21015 38228 40235 53004 80004 91448 333 30/// 56006 59014 86070;",
"76373099999","2005-12-13T18:00:00","4","25.35","-105.75","1967.0","TEPEHUANES DGO., MX","FM-12","99999","V020","090,1,N,0010,1","22000,1,9,N","070000,1,N,1","+0164,1","+0026,1","10207,1",,,,,,"04,1,+06000,1,00,1",,,"04,99,1,00,1,00,1,99999,9,00,1,02,1",,"01,9",,"120,M,+0176,1","240,N,-0013,1","99999,9,08211,1","8,1,017,1,-031,1",,,"SYN112AAXX  13181 76373 32988 40901 10164 20026 38211 40207 58017 80002 91747 333 10176 21013 30/// 56006 59031 84070;",
"76373099999","2005-12-13T21:00:00","4","25.35","-105.75","1967.0","TEPEHUANES DGO., MX","FM-12","99999","V020","260,1,N,0060,1","22000,1,9,N","070000,1,N,1","+0264,2","-0014,1","10125,1",,,,,,"01,1,+03000,1,03,1",,,"04,99,1,01,1,00,1,01250,1,04,1,04,1",,"01,9",,,,"99999,9,08179,1","7,1,032,1,-032,1",,,"SYN106AAXX  13211 76373 32688 42606 10264 21014 38179 40125 57032 81044 92050 333 30/// 56066 59032 81360 83070;",
"76373099999","2005-12-14T00:00:00","4","25.35","-105.75","1967.0","TEPEHUANES DGO., MX","FM-12","99999","V020","250,1,N,0020,1","22000,1,9,N","070000,1,N,1","+0216,1","+0001,1","10090,1","24,0000,9,1",,,,,"02,1,+03000,1,03,1",,,"04,99,1,02,1,00,1,01250,1,04,1,02,1",,"01,9",,"120,M,+0286,1","180,N,-0013,1","99999,9,08181,1","3,1,002,1,-020,1",,,"SYN130AAXX  14001 76373 32688 42502 10216 20001 38181 40090 53002 82042 92350 333 10286 21013 30/// 50300 56066 59020 70000 82360 82070;",
"76373099999","2005-12-14T03:00:00","4","25.35","-105.75","1967.0","TEPEHUANES DGO., MX","FM-12","99999","V020","999,9,C,0000,1","22000,1,9,N","010000,1,N,1","+0138,1","+0008,1","10088,1",,,,,,"00,1,+99999,9,99,9",,,"00,99,1,00,1,00,1,99999,9,00,1,00,1",,"01,9",,,,"99999,9,08203,1","2,1,033,1,-025,1",,,"SYN082AAXX  14031 76373 32960 00000 10138 20008 38203 40088 52033 90240 333 30/// 59025;",
"76373099999","2005-12-14T06:00:00","4","25.35","-105.75","1967.0","TEPEHUANES DGO., MX","FM-12","99999","V020","999,9,C,0000,1","09000,1,9,N","010000,1,N,1","+0080,1","-0004,1","10099,1",,,,,,"08,1,+09000,1,00,1",,,"08,99,1,00,1,00,1,99999,9,00,1,02,1",,"01,9",,"240,M,+0286,1","240,N,-0013,1","99999,9,08207,1","2,1,004,1,-022,1",,,"SYN112AAXX  14061 76373 32960 80000 10080 21004 38207 40099 52004 80002 90540 333 10286 21013 30/// 56006 59022 88080;",
"76373099999","2005-12-14T12:00:00","4","25.35","-105.75","1967.0","TEPEHUANES DGO., MX","FM-12","99999","V020","999,9,C,0000,1","22000,1,9,N","000100,1,N,1","+0026,1","-0005,1","10153,1","24,0000,9,1",,,,,"01,1,+03000,1,03,1",,,"01,99,1,01,1,00,1,01250,1,04,1,00,1",,"09,9","999,-0005,1","120,N,+0018,1","240,M,+0286,1","99999,9,08193,1","9,9,999,9,-031,1",,,"SYN118AAXX  14121 76373 32601 10000 10026 21005 38193 40153 5//// 81040 91145 333 10286 20018 31005 56060 59031 70000 81360;",
"76373099999","2005-12-14T15:00:00","4","25.35","-105.75","1967.0","TEPEHUANES DGO., MX","FM-12","99999","V020","310,1,N,0010,1","00360,1,9,N","070000,1,N,1","+0066,1","+0034,1","10181,1","02,0000,2,1",,,"2,1,03,1","2,1,03,1","07,1,+00360,1,04,1",,,"07,99,1,07,1,04,1,00450,1,00,1,00,1",,"01,9",,,,"99999,9,08197,1","3,1,004,1,-031,1",,"50,1","SYN112AAXX  14151 76373 21488 73101 10066 20034 38197 40181 53004 75022 87400 91445 333 30/// 56600 59031 69906 87412;",
"76373099999","2005-12-14T18:00:00","4","25.35","-105.75","1967.0","TEPEHUANES DGO., MX","FM-12","99999","V020","290,1,N,0080,1","00360,1,9,N","070000,1,N,1","+0172,1","+0033,1","10177,1",,,,,,"06,1,+00360,1,08,1",,,"06,99,1,06,1,02,1,00450,1,00,1,00,1",,"01,9",,"120,M,+0200,1","240,N,+0014,1","99999,9,08203,1","0,1,006,1,-008,1",,,"SYN112AAXX  14181 76373 32488 62908 10172 20033 38203 40177 50006 86200 91748 333 10200 20014 30/// 56600 59008 86812;",
"76373099999","2005-12-14T21:00:00","4","25.35","-105.75","1967.0","TEPEHUANES DGO., MX","FM-12","99999","V020","300,1,N,0060,1","22000,1,9,N","070000,1,N,1","+0202,1","+0013,1","10106,2",,,,,,"01,1,+00360,1,08,1",,,"01,99,1,01,1,01,1,00450,1,00,1,00,1",,"01,9",,,,"99999,9,08170,1","7,1,033,1,-009,1",,,"SYN100AAXX  14211 76373 32488 13006 10202 20013 38170 40106 57033 81100 92045 333 30/// 56600 59009 81812;",
"76373099999","2005-12-15T00:00:00","4","25.35","-105.75","1967.0","TEPEHUANES DGO., MX","FM-12","99999","V020","260,1,N,0040,1","22000,1,9,N","070000,1,N,1","+0182,1","+0000,1","10072,1","24,0000,2,1",,,,,"00,1,+99999,9,99,9",,,"00,99,1,00,1,00,1,99999,9,00,1,00,1",,"01,9",,"120,M,+0230,1","180,N,+0014,1","99999,9,08168,1","3,1,002,1,-013,1",,,"SYN106AAXX  15001 76373 32988 02604 10182 20000 38168 40072 53002 92345 333 10230 20014 30/// 50360 59013 70000;",
"76373099999","2005-12-15T03:00:00","4","25.35","-105.75","1967.0","TEPEHUANES DGO., MX","FM-12","99999","V020","270,1,N,0010,1","22000,1,9,N","010000,1,N,1","+0118,1","+0016,1","10083,1",,,,,,"00,1,+99999,9,99,9",,,"00,99,1,00,1,00,1,99999,9,00,1,00,1",,"01,9",,,,"99999,9,08189,1","2,1,021,1,-014,1",,,"SYN082AAXX  15031 76373 32960 02701 10118 20016 38189 40083 52021 90240 333 30/// 59014;",
"76373099999","2005-12-15T06:00:00","4","25.35","-105.75","1967.0","TEPEHUANES DGO., MX","FM-12","99999","V020","999,9,C,0000,1","22000,1,9,N","010000,1,N,1","+0052,1","+0004,1","10101,1",,,,,,"00,1,+99999,9,99,9",,,"00,99,1,00,1,00,1,99999,9,00,1,00,1",,"01,9",,"240,M,+0230,1","240,N,+0014,1","99999,9,08191,1","2,1,002,1,-016,1",,,"SYN094AAXX  15061 76373 32960 00000 10052 20004 38191 40101 52002 90540 333 10230 20014 30/// 59016;",
"76373099999","2005-12-15T15:00:00","4","25.35","-105.75","1967.0","TEPEHUANES DGO., MX","FM-12","99999","V020","999,9,C,0000,1","06000,1,9,N","070000,1,N,1","+0008,1","-0011,1","10198,1",,,,,,"08,1,+06000,1,00,1",,,"08,99,1,00,1,00,1,99999,9,00,1,06,1",,"01,9",,,,"99999,9,08193,1","2,1,008,1,-004,1",,,"SYN100AAXX  15151 76373 32988 80000 10008 21011 38193 40198 52008 80006 91450 333 30/// 56006 59004 88070;",
"76373099999","2005-12-15T18:00:00","4","25.35","-105.75","1967.0","TEPEHUANES DGO., MX","FM-12","99999","V020","110,1,N,0020,1","06000,1,9,N","070000,1,N,1","+0122,1","+0016,1","10179,1",,,,,,"08,1,+06000,1,02,1",,,"08,99,1,00,1,00,1,99999,9,00,1,08,1",,"01,9",,"120,M,+0160,1","240,N,-0018,1","99999,9,08180,1","8,1,013,1,-023,1",,,"SYN112AAXX  15181 76373 32988 81102 10122 20016 38180 40179 58013 80008 91745 333 10160 21018 30/// 56006 59023 88270;",
"76373099999","2005-12-15T21:00:00","4","25.35","-105.75","1967.0","TEPEHUANES DGO., MX","FM-12","99999","V020","090,1,N,0020,1","06000,1,9,N","070000,1,N,1","+0200,2","+0018,1","10100,2",,,,,,"08,1,+06000,1,02,1",,,"08,99,1,00,1,00,1,99999,9,00,1,08,1",,"01,9",,,,"99999,9,99999,9","6,1,040,1,-030,1",,,"SYN100AAXX  15211 76373 32988 80902 10200 20018 30140 40100 56040 80008 92045 333 30/// 56006 59030 88270;","Q01 101403APOSP "
"76373099999","2005-12-16T00:00:00","4","25.35","-105.75","1967.0","TEPEHUANES DGO., MX","FM-12","99999","V020","250,1,N,0030,1","09000,1,9,N","070000,1,N,1","+0162,1","+0018,1","10072,1","24,0000,9,1",,,,,"02,1,+03000,1,03,1",,,"08,99,1,02,1,00,1,01250,1,03,1,08,1",,"01,9",,"120,M,+0222,1","180,N,-0018,1","99999,9,08144,2","2,1,004,1,-024,1",,,"SYN130AAXX  16001 76373 32688 82503 10162 20018 38144 40072 52004 82038 92348 333 10222 21018 30/// 50120 56066 59024 70000 82360 88270;",
"76373099999","2005-12-16T03:00:00","4","25.35","-105.75","1967.0","TEPEHUANES DGO., MX","FM-12","99999","V020","220,1,N,0010,1","09000,1,9,N","010000,1,N,1","+0104,1","+0030,1","10065,1",,,,,,"08,1,+09000,1,00,1",,,"08,99,1,00,1,00,1,99999,9,00,1,02,1",,"01,9",,,,"99999,9,08154,1","2,1,010,1,-035,1",,,"SYN094AAXX  16031 76373 32960 82201 10104 20030 38154 40065 52010 80002 90240 333 30/// 59035 88080;",
"76373099999","2005-12-16T06:00:00","4","25.35","-105.75","1967.0","TEPEHUANES DGO., MX","FM-12","99999","V020","330,1,N,0020,1","99999,9,9,N","010000,1,N,1","+0092,1","+0015,1","10069,1",,,,,,,,,"08,99,1,00,1,00,1,99999,9,00,1,06,1",,"01,9",,"240,M,+0222,1","240,N,-0018,1","99999,9,08160,1","2,1,006,1,-031,1",,,"SYN118AAXX  16061 76373 32960 83302 10092 20015 38160 40069 52006 80006 90540 333 10222 21018 30/// 55/// 56006 59031 88280;",
"76373099999","2005-12-16T15:00:00","4","25.35","-105.75","1967.0","TEPEHUANES DGO., MX","FM-12","99999","V020","280,1,N,0030,1","03600,1,C,N","070000,1,N,1","+0086,1","+0004,1","10104,1",,,,,,"02,1,+00300,1,08,1",,,"08,99,1,02,1,01,1,00450,1,07,1,00,1",,"01,9",,,,"99999,9,08147,1","9,9,999,9,-046,1",,,"SYN106AAXX  16151 76373 32488 82803 10086 20004 38147 40104 5//// 82170 91445 333 30/// 56660 59046 82810 88360;",
"76373099999","2005-12-16T18:00:00","4","25.35","-105.75","1967.0","TEPEHUANES DGO., MX","FM-12","99999","V020","240,1,N,0030,1","00300,1,9,N","070000,1,N,1","+0114,1","+0019,1","10116,1",,,,,,"08,1,+00300,1,06,1",,,"08,99,1,08,1,06,1,00450,1,00,1,00,1",,"01,9",,"120,M,+0138,1","240,N,+0030,1","99999,9,08159,1","2,1,012,1,-021,1",,,"SYN112AAXX  16181 76373 32488 82403 10114 20019 38159 40116 52012 88600 91745 333 10138 20030 30/// 56600 59021 88610;",
"76373099999","2005-12-16T21:00:00","4","25.35","-105.75","1967.0","TEPEHUANES DGO., MX","FM-12","99999","V020","270,1,N,0060,1","03000,1,9,N","070000,1,N,1","+0116,1","+0019,1","10088,1",,,,,,"04,1,+00300,1,08,1","01,1,+03000,1,03,1",,"06,99,1,04,1,02,1,00450,1,03,1,02,1",,"01,9",,,,"99999,9,08144,1","6,1,015,1,+004,1",,,"SYN112AAXX  16211 76373 32488 62706 10116 20019 38144 40088 56015 84232 92045 333 30/// 56666 58004 84810 81360 81070;",
"76373099999","2005-12-17T00:00:00","4","25.35","-105.75","1967.0","TEPEHUANES DGO., MX","FM-12","99999","V020","270,1,N,0060,1","22000,1,9,N","070000,1,N,1","+0090,1","+0022,1","10090,1","24,0000,9,1",,,,,,,,"02,99,1,02,1,02,1,00450,1,00,1,00,1",,"01,9",,"120,M,+0147,1","180,N,+0030,1","99999,9,08152,1","2,1,008,1,+002,1",,,"SYN124AAXX  17001 76373 32488 22706 10090 20022 38152 40090 52008 82200 92345 333 10147 20030 30/// 50210 56600 58002 70000 82840;",
"76373099999","2005-12-17T15:00:00","4","25.35","-105.75","1967.0","TEPEHUANES DGO., MX","FM-12","99999","V020","999,9,C,0000,1","22000,1,9,N","070000,1,N,1","-0022,1","-0024,1","10238,1",,,,,,"00,1,+99999,9,99,9",,,"00,99,1,00,1,00,1,99999,9,00,1,00,1",,"01,9",,,,"99999,9,08207,1","9,9,999,9,+060,1",,,"SYN082AAXX  17151 76373 32988 00000 11022 21024 38207 40238 5//// 91445 333 30/// 58060;",
"76373099999","2005-12-17T18:00:00","4","25.35","-105.75","1967.0","TEPEHUANES DGO., MX","FM-12","99999","V020","320,1,N,0020,1","22000,1,9,N","070000,1,N,1","+0114,1","-0006,1","10228,1",,,,,,"00,1,+99999,9,99,9",,,"00,99,1,00,1,00,1,99999,9,00,1,00,1",,"01,9",,"120,M,+0132,1","240,N,-0054,1","99999,9,08208,1","6,1,001,1,+049,1",,,"SYN094AAXX  17181 76373 32988 03202 10114 21006 38208 40228 56001 91745 333 10132 21054 30/// 58049;",
"76373099999","2005-12-17T21:00:00","4","25.35","-105.75","1967.0","TEPEHUANES DGO., MX","FM-12","99999","V020","330,1,N,0040,1","22000,1,9,N","070000,1,N,1","+0017,1","-0026,1","10259,1",,,,,,"00,1,+99999,9,99,9",,,"00,99,1,00,1,00,1,99999,9,00,1,00,1",,"01,9",,,,"99999,9,08193,1","6,1,015,1,+049,1",,,"SYN082AAXX  17211 76373 32988 03304 10017 21026 38193 40259 56015 92040 333 30/// 58049;",
"76373099999","2005-12-18T00:00:00","4","25.35","-105.75","1967.0","TEPEHUANES DGO., MX","FM-12","99999","V020","330,1,N,0010,1","22000,1,9,N","070000,1,N,1","+0154,2","-0023,1","10141,2","24,0000,9,1",,,,,"00,1,+99999,9,99,9",,,"00,99,1,00,1,00,1,99999,9,00,1,00,1",,"01,9",,"120,M,+0200,1","180,N,-0054,1","99999,9,08189,1","6,1,004,1,+037,1",,,"SYN106AAXX  18001 76373 32988 03301 10154 21023 38189 40141 56004 92340 333 10200 21054 30/// 50160 58037 70000;","Q01  00002PRCP24"
"76373099999","2005-12-18T15:00:00","4","25.35","-105.75","1967.0","TEPEHUANES DGO., MX","FM-12","99999","V020","999,9,C,0000,1","09000,1,C,N","070000,1,N,1","-0002,1","-0081,1","10278,1",,,,,,"02,1,+03000,1,03,1",,,"08,99,1,02,1,00,1,01250,1,03,1,08,1",,"01,9",,,,"99999,9,08249,1","9,9,999,9,+052,1",,,"SYN106AAXX  18151 76373 32688 80000 11002 21081 38249 40278 5//// 82038 91445 333 30/// 56066 58052 82360 88270;",
"76373099999","2005-12-18T18:00:00","4","25.35","-105.75","1967.0","TEPEHUANES DGO., MX","FM-12","99999","V020","330,1,N,0010,1","22000,1,C,N","070000,1,N,1","+0118,1","-0003,1","10271,1",,,,,,"01,1,+03000,1,03,1",,,"06,99,1,01,1,00,1,01250,1,03,1,04,1",,"01,9",,"120,M,+0136,1","240,N,-0020,1","99999,9,08258,1","7,1,001,1,+050,1",,,"SYN118AAXX  18181 76373 32688 63301 10118 21003 38258 40271 57001 81034 91747 333 10136 21020 30/// 56066 58050 81360 85070;",
"76373099999","2005-12-18T21:00:00","4","25.35","-105.75","1967.0","TEPEHUANES DGO., MX","FM-12","99999","V020","150,1,N,0030,1","22000,1,9,N","070000,1,N,1","+0174,2","-0064,1","10216,1",,,,,,"04,1,+09000,1,00,1",,,"04,99,1,00,1,00,1,99999,9,00,1,04,1",,"01,9",,,,"99999,9,08232,1","6,1,026,1,+039,1",,,"SYN100AAXX  18211 76373 32988 41503 10174 21064 38232 40216 56026 80004 92040 333 30/// 56006 58039 84080;",
"76373099999","2005-12-19T00:00:00","4","25.35","-105.75","1967.0","TEPEHUANES DGO., MX","FM-12","99999","V020","180,1,N,0020,1","22000,1,9,N","070000,1,N,1","+0164,1","-0062,1","10179,1","24,0000,9,1",,,,,"03,1,+03000,1,03,1",,,"06,99,1,03,1,00,1,01250,1,03,1,04,1",,"01,9",,"120,M,+0202,1","180,N,-0020,1","99999,9,08227,1","6,1,005,1,+038,1",,,"SYN130AAXX  19001 76373 32688 61802 10164 21062 38227 40179 56005 83034 92340 333 10202 21020 30/// 50380 56066 58038 70000 83360 83080;",
"76373099999","2005-12-19T15:00:00","4","25.35","-105.75","1967.0","TEPEHUANES DGO., MX","FM-12","99999","V020","999,9,C,0000,1","22000,1,9,N","070000,1,N,1","-0006,1","-0008,1","10311,1",,,,,,"00,1,+99999,9,99,9",,,"00,99,1,00,1,00,1,99999,9,00,1,00,1",,"01,9",,,,"99999,9,08279,1","9,9,999,9,+020,1",,,"SYN082AAXX  19151 76373 32988 00000 11006 21008 38279 40311 5//// 91448 333 30/// 58020;",
"76373099999","2005-12-19T18:00:00","4","25.35","-105.75","1967.0","TEPEHUANES DGO., MX","FM-12","99999","V020","090,1,N,0010,1","22000,1,9,N","070000,1,N,1","+0120,2","-0024,1","10199,2",,,,,,"03,1,+06000,1,00,1",,,"03,99,1,00,1,00,1,99999,9,00,1,02,1",,"01,9",,"120,M,+0140,1","240,N,-0052,1","99999,9,08269,1","6,1,010,1,+011,1",,,"SYN112AAXX  19181 76373 32988 30901 10120 21024 38269 40199 56010 80002 91748 333 10140 21052 30/// 56006 58011 83070;",
"76373099999","2005-12-20T15:00:00","4","25.35","-105.75","1967.0","TEPEHUANES DGO., MX","FM-12","99999","V020","999,9,C,0000,1","22000,1,9,N","070000,1,N,1","-0012,1","-0014,1","10317,1",,,,,,"00,1,+99999,9,99,9",,,"00,99,1,00,1,00,1,99999,9,00,1,00,1",,"01,9",,,,"99999,9,08277,1","9,9,999,9,-002,1",,,"SYN082AAXX  20151 76373 32988 00000 11012 21014 38277 40317 5//// 91445 333 30/// 59002;",
"76373099999","2005-12-20T18:00:00","4","25.35","-105.75","1967.0","TEPEHUANES DGO., MX","FM-12","99999","V020","060,1,N,0010,1","22000,1,9,N","070000,1,N,1","+0128,1","-0001,1","10290,1",,,,,,"00,1,+99999,9,99,9",,,"00,99,1,00,1,00,1,99999,9,00,1,00,1",,"01,9",,"120,M,+0144,1","240,N,-0048,1","99999,9,08265,1","6,1,012,1,-004,1",,,"SYN094AAXX  20181 76373 32988 00601 10128 21001 38265 40290 56012 91748 333 10144 21048 30/// 59004;",
"76373099999","2005-12-20T21:00:00","4","25.35","-105.75","1967.0","TEPEHUANES DGO., MX","FM-12","99999","V020","150,1,N,0020,1","22000,1,9,N","070000,1,N,1","+0206,2","-0051,1","10349,1",,,,,,"00,1,+99999,9,99,9",,,"00,99,1,00,1,00,1,99999,9,00,1,00,1",,"01,9",,,,"99999,9,08226,1","6,1,039,1,+999,9",,,"SYN082AAXX  20211 76373 32988 01502 10206 21051 38226 40349 56039 92040 333 30/// 58///;",
"76373099999","2005-12-21T00:00:00","4","25.35","-105.75","1967.0","TEPEHUANES DGO., MX","FM-12","99999","V020","120,1,N,0020,1","22000,1,9,N","070000,1,N,1","+0182,1","-0043,1","10167,2","24,0000,9,1",,,,,"00,1,+99999,9,99,9",,,"00,99,1,00,1,00,1,99999,9,00,1,00,1",,"01,9",,"120,M,+0228,1","180,N,-0048,1","99999,9,08221,1","6,1,005,1,+999,9",,,"SYN106AAXX  21001 76373 32988 01202 10182 21043 38221 40167 56005 92340 333 10228 21048 30/// 50240 58/// 70000;","Q01  00002PRCP24"
"76373099999","2005-12-21T15:00:00","4","25.35","-105.75","1967.0","TEPEHUANES DGO., MX","FM-12","99999","V020","999,9,C,0000,1","22000,1,9,N","070000,1,N,1","-0018,1","-0021,1","10323,1",,,,,,"00,1,+99999,9,99,9",,,"00,99,1,00,1,00,1,99999,9,00,1,00,1",,"01,9",,,,"99999,9,08280,1","9,9,999,9,+003,1",,,"SYN082AAXX  21151 76373 32988 00000 11018 21021 38280 40323 5//// 91445 333 30/// 58003;",
"76373099999","2005-12-21T18:00:00","4","25.35","-105.75","1967.0","TEPEHUANES DGO., MX","FM-12","99999","V020","090,1,N,0010,1","22000,1,9,N","070000,1,N,1","+0130,1","+9999,9","10304,1",,,,,,"00,1,+99999,9,99,9",,,"00,99,1,00,1,00,1,99999,9,00,1,00,1",,"01,9",,"120,M,+0152,1","240,N,-0048,1","99999,9,08273,1","6,1,007,1,+008,1",,,"SYN094AAXX  21181 76373 32988 00901 10130 20113 38273 40304 56007 91745 333 10152 21048 30/// 58008;","P01 +01133ATOD  "
"76373099999","2005-12-21T21:00:00","4","25.35","-105.75","1967.0","TEPEHUANES DGO., MX","FM-12","99999","V020","140,1,N,0040,1","22000,1,9,N","070000,1,N,1","+0194,2","-0021,1","10228,2",,,,,,"00,1,+99999,9,99,9",,,"00,99,1,00,1,00,1,99999,9,00,1,00,1",,"01,9",,,,"99999,9,08226,1","6,1,037,1,+010,1",,,"SYN082AAXX  21211 76373 32988 01404 10194 21021 38226 40228 56037 92045 333 30/// 58010;",
"76373099999","2005-12-22T00:00:00","4","25.35","-105.75","1967.0","TEPEHUANES DGO., MX","FM-12","99999","V020","120,1,N,0030,1","22000,1,9,N","070000,1,N,1","+0170,1","+0003,1","10174,2","24,0000,9,1",,,,,"00,1,+99999,9,99,9",,,"00,99,1,00,1,00,1,99999,9,00,1,00,1",,"01,9",,"120,M,+0222,1","180,N,-0048,1","99999,9,08226,1","6,1,010,1,+005,1",,,"SYN106AAXX  22001 76373 32988 01203 10170 20003 38226 40174 56010 92340 333 10222 21048 30/// 50160 58005 70000;","Q01  00002PRCP24"
"76373099999","2005-12-22T15:00:00","4","25.35","-105.75","1967.0","TEPEHUANES DGO., MX","FM-12","99999","V020","999,9,C,0000,1","22000,1,9,N","070000,1,N,1","-0018,1","-0029,1","10294,1",,,,,,"01,1,+06000,1,00,1",,,"01,99,1,00,1,00,1,99999,9,00,1,02,1",,"01,9",,,,"99999,9,08259,1","9,9,999,9,-021,1",,,"SYN100AAXX  22151 76373 32988 10000 11018 21029 38259 40294 5//// 80002 91445 333 30/// 56006 59021 81070;",
"76373099999","2005-12-22T18:00:00","4","25.35","-105.75","1967.0","TEPEHUANES DGO., MX","FM-12","99999","V020","090,1,N,0010,1","22000,1,9,N","070000,1,N,1","+0134,1","-0007,1","10275,1",,,,,,"00,1,+99999,9,99,9",,,"00,99,1,00,1,00,1,99999,9,00,1,00,1",,"01,9",,"120,M,+0150,1","240,N,-0048,1","99999,9,08250,1","7,1,009,1,-023,1",,,"SYN094AAXX  22181 76373 32988 00901 10134 21007 38250 40275 57009 91745 333 10150 21048 30/// 59023;",
"76373099999","2005-12-22T21:00:00","4","25.35","-105.75","1967.0","TEPEHUANES DGO., MX","FM-12","99999","V020","320,1,N,0050,1","09000,1,9,N","070000,1,N,1","+0178,1","+0022,1","10289,1",,,,,,"08,1,+09000,1,00,1",,,"08,99,1,00,1,00,1,99999,9,00,1,04,1",,"01,9",,,,"99999,9,08214,1","6,1,036,1,+022,1",,,"SYN100AAXX  22211 76373 32988 83205 10178 20022 38214 40289 56036 80004 92045 333 30/// 56006 58022 88080;",
"76373099999","2005-12-23T00:00:00","4","25.35","-105.75","1967.0","TEPEHUANES DGO., MX","FM-12","99999","V020","270,1,N,0020,1","99999,9,9,N","070000,1,N,1","+0190,1","-0021,1","10174,2","24,0000,9,1",,,,,,,,"08,99,1,00,1,00,1,99999,9,00,1,04,1",,"01,9",,"120,M,+0246,1","180,N,-0048,1","99999,9,08227,1","2,1,013,1,+001,1",,,"SYN124AAXX  23001 76373 32988 82702 10190 21021 38227 40174 52013 80004 92340 333 10246 21048 30/// 50280 56006 58001 70000 88080;",
"76373099999","2005-12-23T15:00:00","4","25.35","-105.75","1967.0","TEPEHUANES DGO., MX","FM-12","99999","V020","999,9,C,0000,1","22000,1,9,N","070000,1,N,1","-0020,1","-0021,1","10278,1",,,,,,"00,1,+99999,9,99,9",,,"00,99,1,00,1,00,1,99999,9,00,1,00,1",,"01,9",,,,"99999,9,08244,1","9,9,999,9,-015,1",,,"SYN082AAXX  23151 76373 32988 00000 11020 21021 38244 40278 5//// 91445 333 30/// 59015;",
"76373099999","2005-12-23T18:00:00","4","25.35","-105.75","1967.0","TEPEHUANES DGO., MX","FM-12","99999","V020","999,9,C,0000,1","22000,1,9,N","070000,1,N,1","+0148,2","-0004,1","10261,1",,,,,,"00,1,+99999,9,99,9",,,"00,99,1,00,1,00,1,99999,9,00,1,00,1",,"01,9",,"120,M,+0246,1","240,N,-0048,1","99999,9,08237,1","6,1,007,1,-013,1",,,"SYN094AAXX  23181 76373 32988 00000 10148 21004 38237 40261 56007 91748 333 10246 21048 30/// 59013;",
"76373099999","2005-12-26T18:00:00","4","25.35","-105.75","1967.0","TEPEHUANES DGO., MX","FM-12","99999","V020","120,1,N,0010,1","22000,1,9,N","070000,1,N,1","+0144,1","-0010,1","10301,1",,,,,,"00,1,+99999,9,99,9",,,"00,99,1,00,1,00,1,99999,9,00,1,00,1",,"01,9",,"120,M,+0258,1","240,N,-0048,1","99999,9,08247,1","6,1,007,1,+999,9",,,"SYN094AAXX  26181 76373 32988 01201 10144 21010 38247 40301 56007 91755 333 10258 21048 30/// 58///;",
"76373099999","2005-12-27T15:00:00","4","25.35","-105.75","1967.0","TEPEHUANES DGO., MX","FM-12","99999","V020","999,9,C,0000,1","09000,1,9,N","070000,1,N,1","-0018,1","-0024,1","10299,1",,,,,,"08,1,+09000,1,00,1",,,"08,99,1,00,1,00,1,99999,9,00,1,04,1",,"01,9",,,,"99999,9,08268,1","9,9,999,9,+014,1",,,"SYN100AAXX  27151 76373 32988 80000 11018 21024 38268 40299 5//// 80004 91458 333 30/// 56006 58014 88080;",
"76373099999","2005-12-28T15:00:00","4","25.35","-105.75","1967.0","TEPEHUANES DGO., MX","FM-12","99999","V020","999,9,C,0000,1","22000,1,9,N","070000,1,N,1","-0020,1","-0021,1","10289,1",,,,,,"00,1,+99999,9,99,9",,,"00,99,1,00,1,00,1,99999,9,00,1,00,1",,"01,9",,,,"99999,9,08249,1","9,9,999,9,-019,1",,,"SYN082AAXX  28151 76373 32988 00000 11020 21021 38249 40289 5//// 91455 333 30/// 59019;",
"76373099999","2005-12-29T15:00:00","4","25.35","-105.75","1967.0","TEPEHUANES DGO., MX","FM-12","99999","V020","999,9,C,0000,1","03000,1,9,N","070000,1,N,1","+0034,1","-0010,1","10184,1",,,,,,"05,1,+03000,1,03,1",,,"05,99,1,05,1,00,1,01250,1,03,1,00,1",,"01,9",,,,"99999,9,08194,1","9,9,999,9,-055,1",,,"SYN100AAXX  29151 76373 32688 50000 10034 21010 38194 40184 5//// 85030 91440 333 30/// 56060 59055 85360;",
"76373099999","2005-12-30T15:00:00","4","25.35","-105.75","1967.0","TEPEHUANES DGO., MX","FM-12","99999","V020","999,9,C,0000,1","03000,1,9,N","070000,1,N,1","+0018,1","-0024,1","10171,1",,,,,,"05,1,+03000,1,03,1",,,"05,99,1,05,1,00,1,99999,9,03,1,00,1",,"01,9",,,,"99999,9,08191,1","9,9,999,9,-003,1",,,"SYN100AAXX  30151 76373 32988 50000 10018 21024 38191 40171 5//// 85030 91455 333 30/// 56060 59003 85360;",
"76373099999","2005-12-31T15:00:00","4","25.35","-105.75","1967.0","TEPEHUANES DGO., MX","FM-12","99999","V020","999,9,C,0000,1","22000,1,9,N","070000,1,N,1","+0010,1","-0014,1","10224,1",,,,,,"00,1,+99999,9,99,9",,,"00,99,1,00,1,00,1,99999,9,00,1,00,1",,"01,9",,,,"99999,9,08211,1","9,9,999,9,+014,1",,,"SYN082AAXX  31151 76373 32988 00000 10010 21014 38211 40224 5//// 91455 333 30/// 58014;",
"76373099999","2005-12-31T18:00:00","4","25.35","-105.75","1967.0","TEPEHUANES DGO., MX","FM-12","99999","V020","999,9,C,0000,1","22000,1,9,N","070000,1,N,1","+0150,2","-0001,1","10200,1",,,,,,"00,1,+99999,9,99,9",,,"00,99,1,00,1,00,1,99999,9,00,1,00,1",,"01,9",,"120,M,+0172,1","240,N,-0040,1","99999,9,08202,1","6,1,009,1,-008,1",,,"SYN094AAXX  31181 76373 32988 00000 10150 21001 38202 40200 56009 91755 333 10172 21040 30/// 59008;",
