"STATION","DATE","SOURCE","LATITUDE","LONGITUDE","ELEVATION","NAME","REPORT_TYPE","CALL_SIGN","QUALITY_CONTROL","WND","CIG","VIS","TMP","DEW","SLP","AA1","AA2","AY1","AY2","GA1","GA2","GA3","GF1","GJ1","IA1","IA2","KA1","KA2","MA1","MD1","MW1","REM","EQD"
"76373099999","2010-01-01T00:00:00","4","25.35","-105.75","1967.0","TEPEHUANES DGO., MX","FM-12","99999","V020","140,1,N,0020,1","22000,1,9,N","030000,1,N,1","+0194,1","-0062,1","10146,1","24,0000,9,1",,,,"00,1,+99999,9,99,9",,,"00,99,1,00,1,00,1,99999,9,00,1,00,1",,"01,9",,"120,M,+0250,1","180,N,-0060,1","99999,9,08208,1","5,1,003,1,+002,1",,"SYN106AAXX  01001 76373 32980 01402 10194 21062 38208 40146 55003 92355 333 10250 21060 30/// 50201 58002 70000;","Q01  00002PRCP24"
"76373099999","2010-01-01T03:00:00","4","25.35","-105.75","1967.0","TEPEHUANES DGO., MX","FM-12","99999","V020","250,1,N,0030,1","22000,1,9,N","001000,1,N,1","+0100,1","-0048,1","10151,1",,,,,"00,1,+99999,9,99,9",,,"00,99,1,00,1,00,1,99999,9,00,1,00,1",,"01,9",,,,"99999,9,08233,1","2,1,025,1,+008,1",,"SYN082AAXX  01031 76373 32910 02503 10100 21048 38233 40151 52025 90255 333 30/// 58008;",
"76373099999","2010-01-01T12:00:00","4","25.35","-105.75","1967.0","TEPEHUANES DGO., MX","FM-12","99999","V020","999,9,C,0000,1","99999,9,9,N","001000,1,N,1","-0009,1","-0028,1","10252,1","24,0000,9,1",,,,,,,"05,99,1,00,1,00,1,99999,9,00,1,05,1","0594,9","09,9",,"120,N,-0040,1","240,M,+0250,1","99999,9,08262,1","9,9,999,9,+031,1",,"SYN130AAXX  01121 76373 32910 50000 11009 21028 38262 40252 5//// 85005 91155 333 10250 21040 31052 55099 21852 56009 58031 70000 85067;","Q01+000052SCOTLC"
"76373099999","2010-01-01T15:00:00","4","25.35","-105.75","1967.0","TEPEHUANES DGO., MX","FM-12","99999","V020","999,9,C,0000,1","00750,1,C,N","030000,1,N,1","-0014,1","-0025,1","10299,1",,,,,"02,1,+00600,1,06,1","02,1,+00750,1,07,1",,"07,99,1,07,1,05,1,00800,1,00,1,02,1",,"01,9",,,,"99999,9,08280,1","2,1,018,1,+039,1",,"SYN112AAXX  01151 76373 32580 70000 11014 21025 38280 40299 52018 87502 91455 333 30/// 56909 58039 82620 82725 82067;",
"76373099999","2010-01-01T18:00:00","4","25.35","-105.75","1967.0","TEPEHUANES DGO., MX","FM-12","99999","V020","160,1,N,0010,1","22000,1,9,N","030000,1,N,1","+0110,1","-0012,1","10287,1",,,,,"01,1,+00600,1,07,1",,,"02,99,1,02,1,01,1,00800,1,00,1,01,1",,"01,9",,"120,M,+0120,1","240,N,-0040,1","99999,9,08269,1","6,1,011,1,+031,1",,"SYN118AAXX  01181 76373 32580 21601 10110 21012 38269 40287 56011 82101 91755 333 10120 21040 30/// 56909 58031 81720 81067;",
"76373099999","2010-01-01T21:00:00","4","25.35","-105.75","1967.0","TEPEHUANES DGO., MX","FM-12","99999","V020","140,1,N,0030,1","22000,1,9,N","030000,1,N,1","+0170,2","-0007,1","10213,1",,,,,"01,1,+00600,1,07,1",,,"03,99,1,03,1,01,1,00800,1,00,1,02,1",,"01,9",,,,"99999,9,08226,1","7,1,043,1,+015,1",,"SYN106AAXX  01211 76373 32580 31403 10170 21007 38226 40213 57043 83102 92055 333 30/// 56909 58015 81720 82067;",
"76373099999","2010-01-02T00:00:00","4","25.35","-105.75","1967.0","TEPEHUANES DGO., MX","FM-12","99999","V020","140,1,N,0010,1","00750,1,9,N","030000,1,N,1","+0160,1","+9999,9","10171,1","24,0000,9,1",,,,"04,1,+00600,1,07,1",,,"07,99,1,07,1,04,1,00800,1,00,1,03,1",,"01,9",,"120,M,+0190,1","180,N,-0040,1","99999,9,08217,1","6,1,009,1,+009,1",,"SYN130AAXX  02001 76373 32580 71401 10160 21508 38217 40171 56009 87403 92355 333 10190 21040 30/// 50231 56909 58009 70000 84720 83067;","Q01 -05083ATOD  "
"76373099999","2010-01-02T03:00:00","4","25.35","-105.75","1967.0","TEPEHUANES DGO., MX","FM-12","99999","V020","999,9,C,0000,1","00750,1,C,N","001000,1,N,1","+0067,1","+0006,1","10168,1",,,,,"04,1,+00600,1,07,1",,,"06,99,1,06,1,04,1,00800,1,00,1,02,1",,"01,9",,,,"99999,9,08231,1","2,1,014,1,-002,1",,"SYN106AAXX  02031 76373 32510 60000 10067 20006 38231 40168 52014 86402 90255 333 30/// 56909 59002 84720 82067;",
"76373099999","2010-01-02T12:00:00","4","25.35","-105.75","1967.0","TEPEHUANES DGO., MX","FM-12","99999","V020","999,9,C,0000,1","99999,9,9,N","001000,1,N,1","-0009,1","-0028,1","10252,1","24,0000,9,1",,,,,,,"05,99,1,00,1,00,1,99999,9,00,1,05,1","0594,9","09,9",,"120,N,-0040,1","240,M,+0250,1","99999,9,08262,1","9,9,999,9,+031,1",,"SYN130AAXX  02121 76373 32910 50000 11009 21028 38262 40252 5//// 85005 91155 333 10250 21040 31052 55099 21852 56009 58031 70000 85067;","Q01+000052SCOTLC"
"76373099999","2010-01-02T15:00:00","4","25.35","-105.75","1967.0","TEPEHUANES DGO., MX","FM-12","99999","V020","999,9,C,0000,1","00600,1,9,N","030000,1,N,1","+0038,1","+0007,1","10226,1",,,,,"08,1,+00600,1,07,1",,,"08,99,1,08,1,08,1,00800,1,00,1,00,1",,"01,9",,,,"99999,9,08230,1","2,1,010,1,-050,1",,"SYN100AAXX  02151 76373 32580 80000 10038 20007 38230 40226 52010 88800 91455 333 30/// 56900 59050 88720;",
"76373099999","2010-01-02T18:00:00","4","25.35","-105.75","1967.0","TEPEHUANES DGO., MX","FM-12","99999","V020","080,1,N,0010,1","99999,9,9,N","030000,1,N,1","+0120,1","+0008,1","10219,1",,,,,"03,1,+00900,1,07,1",,,"05,99,1,03,1,07,1,00800,1,00,1,00,1",,"01,9",,"120,M,+0194,1","240,N,-0010,1","99999,9,08225,1","7,1,005,1,-044,1",,"SYN118AAXX  02181 76373 32580 50801 10120 20008 38225 40219 57005 83700 91750 333 10194 21010 30/// 56900 59044 83730 82630;",
"76373099999","2010-01-02T21:00:00","4","25.35","-105.75","1967.0","TEPEHUANES DGO., MX","FM-12","99999","V020","110,1,N,0020,1","99999,9,9,N","030000,1,N,1","+0162,1","+0017,1","10155,1",,,,,"04,1,+00900,1,07,1",,,"06,99,1,04,1,07,1,00800,1,00,1,00,1",,"01,9",,,,"99999,9,08190,1","7,1,035,1,-036,1",,"SYN106AAXX  02211 76373 32580 61102 10162 20017 38190 40155 57035 84700 92045 333 30/// 56900 59036 84730 82630;",
"76373099999","2010-01-03T00:00:00","4","25.35","-105.75","1967.0","TEPEHUANES DGO., MX","FM-12","99999","V020","270,1,N,0020,1","99999,9,9,N","030000,1,N,1","+0168,1","+0032,1","10123,1","24,0000,9,1",,,,"04,1,+00900,1,07,1",,,"06,99,1,04,1,07,1,00800,1,00,1,00,1",,"01,9",,"120,M,+0224,1","180,N,-0010,1","99999,9,08189,1","7,1,001,1,-028,1",,"SYN130AAXX  03001 76373 32580 62702 10168 20032 38189 40123 57001 84700 92345 333 10224 21010 30/// 50221 56900 59028 70000 84730 82630;",
"76373099999","2010-01-03T12:00:00","4","25.35","-105.75","1967.0","TEPEHUANES DGO., MX","FM-12","99999","V020","999,9,C,0000,1","22000,1,9,N","001000,1,N,1","-0008,1","-0012,1","10189,1","24,0000,9,1",,,,"00,1,+99999,9,99,9",,,"00,99,1,00,1,00,1,99999,9,00,1,00,1","0246,9","09,9","999,-0014,9","120,N,-0012,1","240,M,+0154,1","99999,9,08209,1","9,9,999,9,-011,1",,"SYN106AAXX  03121 76373 32910 00000 11008 21012 38209 40189 5//// 91145 333 10154 21012 31014 55041 59011 70000;","Q01  00002PRCP24"
"76373099999","2010-01-03T15:00:00","4","25.35","-105.75","1967.0","TEPEHUANES DGO., MX","FM-12","99999","V020","020,1,N,0010,1","22000,1,9,N","030000,1,N,1","-0010,1","-0014,1","10240,1",,,,,"00,1,+99999,9,99,9",,,"00,99,1,00,1,00,1,99999,9,00,1,00,1",,"01,9",,,,"99999,9,08228,1","2,1,019,1,+010,1",,"SYN082AAXX  03151 76373 32980 00201 11010 21014 38228 40240 52019 91450 333 30/// 58010;",
"76373099999","2010-01-04T00:00:00","4","25.35","-105.75","1967.0","TEPEHUANES DGO., MX","FM-12","99999","V020","130,1,N,0020,1","22000,1,9,N","030000,1,N,1","+0176,1","-0060,1","10119,1","24,0000,9,1",,,,"00,1,+99999,9,99,9",,,"00,99,1,00,1,00,1,99999,9,00,1,00,1",,"01,9",,"120,M,+0234,1","180,N,-0012,1","99999,9,08186,1","2,1,002,1,-003,1",,"SYN106AAXX  04001 76373 32980 01302 10176 21060 38186 40119 52002 92345 333 10234 21012 30/// 50201 59003 70000;","Q01  00002PRCP24"
"76373099999","2010-01-04T15:00:00","4","25.35","-105.75","1967.0","TEPEHUANES DGO., MX","FM-12","99999","V020","999,9,C,0000,1","22000,1,9,N","030000,1,N,1","-0028,1","-0039,1","10282,1",,,,,"02,1,+00900,1,06,1",,,"02,99,1,02,1,04,1,00800,1,00,1,00,1",,"01,9",,,,"99999,9,08248,1","2,1,014,1,+020,1",,"SYN100AAXX  04151 76373 32580 20000 11028 21039 38248 40282 52014 82400 91445 333 30/// 56900 58020 82630;",
"76373099999","2010-01-04T18:00:00","4","25.35","-105.75","1967.0","TEPEHUANES DGO., MX","FM-12","99999","V020","999,9,C,0000,1","22000,1,9,N","030000,1,N,1","+0100,1","-0029,1","10276,1",,,,,"04,1,+00900,1,06,1",,,"04,99,1,04,1,04,1,00800,1,00,1,00,1",,"01,9",,"120,M,+0190,1","240,N,-0028,1","99999,9,08241,1","7,1,007,1,+025,1",,"SYN112AAXX  04181 76373 32580 40000 10100 21029 38241 40276 57007 84400 91750 333 10190 21028 30/// 56900 58025 84630;",
"76373099999","2010-01-04T21:00:00","4","25.35","-105.75","1967.0","TEPEHUANES DGO., MX","FM-12","99999","V020","130,1,N,0030,1","22000,1,9,N","030000,1,N,1","+0172,1","-0010,1","10204,1",,,,,"04,1,+00900,1,06,1",,,"04,99,1,04,1,04,1,00800,1,00,1,00,1",,"01,9",,,,"99999,9,08209,1","7,1,032,1,+021,1",,"SYN100AAXX  04211 76373 32580 41303 10172 21010 38209 40204 57032 84400 92050 333 30/// 56900 58021 84630;",
"76373099999","2010-01-05T00:00:00","4","25.35","-105.75","1967.0","TEPEHUANES DGO., MX","FM-12","99999","V020","130,1,N,0020,1","22000,1,9,N","070000,1,N,1","+0162,1","-0003,1","10160,1","24,0000,9,1",,,,"03,1,+05100,1,02,1",,,"04,99,1,00,1,00,1,99999,9,00,1,08,1",,"01,9",,"120,M,+0190,1","180,N,-0028,1","99999,9,08204,1","7,1,005,1,+018,1",,"SYN124AAXX  05001 76373 32988 41302 10162 21003 38204 40160 57005 80008 92350 333 10190 21028 30/// 50221 58018 70000 83267 81067;",
"76373099999","2010-01-05T03:00:00","4","25.35","-105.75","1967.0","TEPEHUANES DGO., MX","FM-12","99999","V020","999,9,C,0000,1","22000,1,9,N","001000,1,N,1","+0078,1","+0003,1","10161,1",,,,,"02,1,+05100,1,02,1",,,"02,99,1,00,1,00,1,99999,9,00,1,08,1",,"01,9",,,,"99999,9,08224,1","2,1,020,1,+999,9",,"SYN094AAXX  05031 76373 32910 20000 10078 20003 38224 40161 52020 80008 90250 333 30/// 58/// 82267;",
"76373099999","2010-01-05T15:00:00","4","25.35","-105.75","1967.0","TEPEHUANES DGO., MX","FM-12","99999","V020","999,9,C,0000,1","05100,1,9,N","003800,1,N,1","-0008,1","-0009,1","10269,1",,,,,"07,1,+05100,1,02,1",,,"07,99,1,00,1,00,1,99999,9,00,1,08,1",,"01,9",,,,"99999,9,08244,1","2,1,011,1,-004,1",,"SYN094AAXX  05151 76373 32938 70000 11008 21009 38244 40269 52011 80008 91450 333 30/// 59004 87267;",
"76373099999","2010-01-05T18:00:00","4","25.35","-105.75","1967.0","TEPEHUANES DGO., MX","FM-12","99999","V020","120,1,N,0010,1","03600,1,9,N","003800,1,N,1","+0130,1","+0001,1","10251,1",,,,,"05,1,+03600,1,02,1",,,"07,99,1,00,1,00,1,99999,9,00,1,07,1",,"01,9",,"120,M,+0146,1","240,N,-0020,1","99999,9,08236,1","7,1,008,1,-005,1",,"SYN112AAXX  05181 76373 32938 71201 10130 20001 38236 40251 57008 80007 91750 333 10146 21020 30/// 59005 85262 82067;",
"76373099999","2010-01-05T21:00:00","4","25.35","-105.75","1967.0","TEPEHUANES DGO., MX","FM-12","99999","V020","120,1,N,0020,1","99999,9,9,N","070000,1,N,1","+0200,1","+0011,1","10173,1",,,,,"04,1,+00510,1,00,1",,,"05,99,1,00,1,00,1,99999,9,00,1,04,1",,"01,9",,,,"99999,9,08198,1","7,1,038,1,-011,1",,"SYN100AAXX  05211 76373 32988 51202 10200 20011 38198 40173 57038 80004 92050 333 30/// 59011 84017 81267;",
"76373099999","2010-01-06T00:00:00","4","25.35","-105.75","1967.0","TEPEHUANES DGO., MX","FM-12","99999","V020","230,1,N,0030,1","05100,1,9,N","003800,1,N,1","+0184,1","-0031,1","10130,1","24,0000,9,1",,,,"07,1,+05100,1,02,1",,,"07,99,1,00,1,00,1,99999,9,00,1,07,1",,"01,9",,"120,M,+0235,1","180,N,-0020,1","99999,9,08195,1","5,1,003,1,-009,1",,"SYN118AAXX  06001 76373 32938 72303 10184 21031 38195 40130 55003 80007 92350 333 10235 21020 30/// 50111 59009 70000 87267;",
"76373099999","2010-01-06T03:00:00","4","25.35","-105.75","1967.0","TEPEHUANES DGO., MX","FM-12","99999","V020","220,1,N,0010,1","22000,1,9,N","001000,1,N,1","+0120,1","-0001,1","10128,1",,,,,"03,1,+05100,1,02,1",,,"03,99,1,00,1,00,1,99999,9,00,1,04,1",,"01,9",,,,"99999,9,08215,1","2,1,020,1,-009,1",,"SYN094AAXX  06031 76373 32910 32201 10120 21001 38215 40128 52020 80004 90250 333 30/// 59009 83267;",
"76373099999","2010-01-06T12:00:00","4","25.35","-105.75","1967.0","TEPEHUANES DGO., MX","FM-12","99999","V020","300,1,N,0010,1","22000,1,9,N","001000,1,N,1","+0008,1","+0005,1","10196,1","24,0000,9,1",,,,,,,"03,99,1,00,1,00,1,99999,9,00,1,04,1","0486,9","09,9","999,-0022,9","120,N,-0010,1","240,M,+0235,1","99999,9,08223,1","9,9,999,9,-001,1",,"SYN124AAXX  06121 76373 32910 33001 10008 20005 38223 40196 5//// 80004 91150 333 10235 21010 31022 55081 21393 59001 70000 83067;",
"76373099999","2010-01-06T15:00:00","4","25.35","-105.75","1967.0","TEPEHUANES DGO., MX","FM-12","99999","V020","999,9,C,0000,1","22000,1,9,N","003800,1,N,1","+0008,1","+0003,1","10234,1",,,,,"04,1,+05100,1,00,1",,,"04,99,1,00,1,00,1,99999,9,00,1,04,1",,"01,9",,,,"99999,9,08232,1","2,1,009,1,-012,1",,"SYN094AAXX  06151 76373 32938 40000 10008 20003 38232 40234 52009 80004 91450 333 30/// 59012 84067;",
"76373099999","2010-01-06T18:00:00","4","25.35","-105.75","1967.0","TEPEHUANES DGO., MX","FM-12","99999","V020","130,1,N,0010,1","22000,1,9,N","070000,1,N,1","+0148,1","-0010,1","10224,1",,,,,"04,1,+05100,1,00,1",,,"04,99,1,00,1,00,1,99999,9,00,1,04,1",,"01,9",,"120,M,+0168,1","240,N,-0010,1","99999,9,08226,1","8,1,006,1,-010,1",,"SYN106AAXX  06181 76373 32988 41301 10148 21010 38226 40224 58006 80004 91750 333 10168 21010 30/// 59010 84067;",
"76373099999","2010-01-06T21:00:00","4","25.35","-105.75","1967.0","TEPEHUANES DGO., MX","FM-12","99999","V020","310,1,N,0030,1","22000,1,9,N","003800,1,N,1","+0215,2","+9999,9","99999,9",,,,,"03,1,+05100,1,00,1",,,"04,99,1,00,1,00,1,99999,9,00,1,04,1",,"01,9",,,,"99999,9,08184,1","7,1,042,1,-014,1",,"SYN100AAXX  06211 76373 32938 43103 10215 21122 38184 40144 57042 80004 92050 333 30/// 59014 83067 81267;","Q01-001223ATOD  "
"76373099999","2010-01-07T00:00:00","4","25.35","-105.75","1967.0","TEPEHUANES DGO., MX","FM-12","99999","V020","300,1,N,0040,1","22000,1,9,N","003800,1,N,1","+0176,1","-0082,1","10115,1","24,0000,9,1",,,,"01,1,+05100,1,00,1",,,"01,99,1,00,1,00,1,99999,9,00,1,02,1",,"01,9",,"120,M,+0232,1","180,N,-0010,1","99999,9,08186,1","3,1,002,1,-009,1",,"SYN118AAXX  07001 76373 32938 13004 10176 21082 38186 40115 53002 80002 92350 333 10232 21010 30/// 50291 59009 70000 81067;",
"76373099999","2010-01-07T03:00:00","4","25.35","-105.75","1967.0","TEPEHUANES DGO., MX","FM-12","99999","V020","300,1,N,0010,1","22000,1,9,N","001000,1,N,1","+0094,1","-0050,1","10117,1",,,,,"01,1,+05100,1,00,1",,,"01,99,1,00,1,00,1,99999,9,00,1,02,1",,"01,9",,,,"99999,9,08205,1","2,1,019,1,-010,1",,"SYN094AAXX  07031 76373 32910 13001 10094 21050 38205 40117 52019 80002 90250 333 30/// 59010 81067;",
"76373099999","2010-01-07T12:00:00","4","25.35","-105.75","1967.0","TEPEHUANES DGO., MX","FM-12","99999","V020","260,1,N,0010,1","22000,1,9,N","001000,1,N,1","-0011,1","-0034,1","10196,1","24,0000,9,1",,,,,,,"03,99,1,00,1,00,1,99999,9,00,1,04,1","0486,9","09,9","999,-0030,9","120,N,-0020,1","240,M,+0232,1","99999,9,08212,1","9,9,999,9,-011,1",,"SYN124AAXX  07121 76373 32910 32601 11011 21034 38212 40196 5//// 80004 91150 333 10232 21020 31030 55081 21393 59011 70000 83067;",
"76373099999","2010-01-07T15:00:00","4","25.35","-105.75","1967.0","TEPEHUANES DGO., MX","FM-12","99999","V020","999,9,C,0000,1","09000,1,C,N","003800,1,N,1","-0018,1","-0029,1","10223,1",,,,,"03,1,+00600,1,06,1",,,"07,99,1,03,1,04,1,01250,1,00,1,07,1",,"01,9",,,,"99999,9,08224,1","2,1,012,1,-008,1",,"SYN100AAXX  07151 76373 32638 70000 11018 21029 38224 40223 52012 83407 91445 333 30/// 59008 83620 84267;",
"76373099999","2010-01-07T18:00:00","4","25.35","-105.75","1967.0","TEPEHUANES DGO., MX","FM-12","99999","V020","290,1,N,0010,1","00750,1,C,N","030000,1,N,1","+0132,1","-0001,1","10217,1",,,,,"02,1,+00750,1,07,1",,,"07,99,1,07,1,02,1,00800,1,00,1,05,1",,"01,9",,"120,M,+0150,1","240,N,-0020,1","99999,9,08213,1","6,1,007,1,-009,1",,"SYN118AAXX  07181 76373 32580 72901 10132 21001 38213 40217 56007 87205 91755 333 10150 21020 30/// 56909 59009 82725 85067;",
"76373099999","2010-01-07T21:00:00","4","25.35","-105.75","1967.0","TEPEHUANES DGO., MX","FM-12","99999","V020","140,1,N,0010,1","00750,1,C,N","030000,1,N,1","+0200,2","-0083,1","10137,1",,,,,"02,1,+00600,1,07,1",,,"06,99,1,06,1,02,1,00800,1,00,1,04,1",,"01,9",,,,"99999,9,08172,1","7,1,045,1,-012,1",,"SYN106AAXX  07211 76373 32580 61401 10200 21083 38172 40137 57045 86204 92055 333 30/// 56909 59012 82720 84067;",
"76373099999","2010-01-08T00:00:00","4","25.35","-105.75","1967.0","TEPEHUANES DGO., MX","FM-12","99999","V020","250,1,N,0020,1","00750,1,9,N","030000,1,N,1","+0170,1","-0060,1","10109,1","24,0000,9,1",,,,"03,1,+00600,1,07,1",,,"08,99,1,99,9,03,1,00800,1,00,1,05,1",,"01,9",,"120,M,+0220,1","180,N,-0020,1","99999,9,08177,1","3,1,005,1,+009,1",,"SYN130AAXX  08001 76373 32580 82502 10170 21060 38177 40109 53005 88305 92355 333 10220 21020 30/// 50241 56909 58009 70000 83720 85067;","Q01+000082SCOTLC"
"76373099999","2010-01-08T03:00:00","4","25.35","-105.75","1967.0","TEPEHUANES DGO., MX","FM-12","99999","V020","999,9,C,0000,1","00750,1,C,N","001000,1,N,1","+0100,1","-0029,1","10104,1",,,,,"03,1,+00600,1,07,1",,,"06,99,1,06,1,03,1,00800,1,00,1,03,1",,"01,9",,,,"99999,9,08195,1","2,1,018,1,-010,1",,"SYN106AAXX  08031 76373 32510 60000 10100 21029 38195 40104 52018 86303 90255 333 30/// 56909 59010 83720 83067;",
"76373099999","2010-01-08T12:00:00","4","25.35","-105.75","1967.0","TEPEHUANES DGO., MX","FM-12","99999","V020","999,9,C,0000,1","00750,1,9,N","001000,1,N,1","+0009,1","-0021,1","10182,1","24,0000,9,1",,,,"02,1,+00600,1,07,1",,,"06,99,1,06,1,02,1,00800,1,00,1,04,1","0504,9","09,9","999,-0028,9","120,N,-0020,1","240,M,+0220,1","99999,9,08202,1","9,9,999,9,-010,1",,"SYN136AAXX  08121 76373 32510 60000 10009 21021 38202 40182 5//// 86204 91155 333 10220 21020 31028 55084 21248 56909 59010 70000 82720 84067;",
"76373099999","2010-01-08T15:00:00","4","25.35","-105.75","1967.0","TEPEHUANES DGO., MX","FM-12","99999","V020","999,9,C,0000,1","00750,1,9,N","030000,1,N,1","+0008,1","-0014,1","10216,1",,,,,"05,1,+00750,1,07,1",,,"07,99,1,07,1,05,1,00800,1,00,1,02,1",,"01,9",,,,"99999,9,08212,1","2,1,010,1,-012,1",,"SYN106AAXX  08151 76373 32580 70000 10008 21014 38212 40216 52010 87502 91455 333 30/// 56909 59012 85725 82067;",
"76373099999","2010-01-08T18:00:00","4","25.35","-105.75","1967.0","TEPEHUANES DGO., MX","FM-12","99999","V020","140,1,N,0010,1","00750,1,C,N","030000,1,N,1","+0134,1","+0001,1","10208,1",,,,,"03,1,+00750,1,07,1",,,"06,99,1,06,1,03,1,00800,1,00,1,03,1",,"01,9",,"120,M,+0150,1","240,N,-0020,1","99999,9,08209,1","3,1,003,1,+999,9",,"SYN118AAXX  08181 76373 32580 61401 10134 20001 38209 40208 53003 86303 91755 333 10150 21020 30/// 56909 56908 83725 83067;",
"76373099999","2010-01-08T21:00:00","4","25.35","-105.75","1967.0","TEPEHUANES DGO., MX","FM-12","99999","V020","140,1,N,0040,1","00750,1,C,N","030000,1,N,1","+0170,1","-0007,1","10155,1",,,,,"02,1,+00600,1,07,1","02,1,+00750,1,08,1",,"05,99,1,05,1,04,1,00800,1,00,1,01,1",,"01,9",,,,"99999,9,08186,1","6,1,023,1,+014,1",,"SYN112AAXX  08211 76373 32580 51404 10170 21007 38186 40155 56023 85401 92055 333 30/// 56909 58014 82720 82825 81067;",
"76373099999","2010-01-09T00:00:00","4","25.35","-105.75","1967.0","TEPEHUANES DGO., MX","FM-12","99999","V020","140,1,N,0030,1","22000,1,9,N","030000,1,N,1","+0120,1","-0001,1","10149,1","24,0000,9,1",,,,,,,"02,99,1,02,1,02,1,00800,1,00,1,00,1",,"01,9",,"120,M,+0190,1","180,N,-0020,1","99999,9,08200,1","2,1,014,1,+023,1",,"SYN124AAXX  09001 76373 32580 21403 10120 21001 38200 40149 52014 82200 92355 333 10190 21020 30/// 50301 56900 58023 70000 82820;",
"76373099999","2010-01-09T03:00:00","4","25.35","-105.75","1967.0","TEPEHUANES DGO., MX","FM-12","99999","V020","160,1,N,0010,1","22000,1,9,N","001000,1,N,1","+0066,1","+0016,1","10164,1",,,,,"00,1,+99999,9,99,9",,,"00,99,1,00,1,00,1,99999,9,00,1,00,1",,"01,9",,,,"99999,9,08224,1","2,1,024,1,+029,1",,"SYN082AAXX  09031 76373 32510 01601 10066 20016 38224 40164 52024 90255 333 30/// 58029;",
"76373099999","2010-01-09T12:00:00","4","25.35","-105.75","1967.0","TEPEHUANES DGO., MX","FM-12","99999","V020","999,9,C,0000,1","22000,1,9,N","001000,1,N,1","-0036,1","-0040,1","10271,1","24,0000,9,5",,,,"00,1,+99999,9,99,9",,,"00,99,1,00,1,00,1,99999,9,00,1,00,1","0480,9","09,9",,"120,N,-0070,1","240,M,+0190,1","99999,9,08252,1","9,9,999,9,+051,1",,"SYN112AAXX  09121 76373 32910 00000 11036 21040 38252 40271 5//// 91155 333 10190 21070 31082 55080 21406 58051 70000;",
"76373099999","2010-01-09T15:00:00","4","25.35","-105.75","1967.0","TEPEHUANES DGO., MX","FM-12","99999","V020","999,9,C,0000,1","22000,1,9,N","030000,1,N,1","-0033,1","-0042,1","10310,1",,,,,"02,1,+00600,1,09,1",,,"02,99,1,02,1,02,1,00800,1,00,1,00,1",,"01,9",,,,"99999,9,08263,1","2,1,011,1,+051,1",,"SYN100AAXX  09151 76373 32580 20000 11033 21042 38263 40310 52011 82200 91455 333 30/// 56900 58051 82920;",
"76373099999","2010-01-09T21:00:00","4","25.35","-105.75","1967.0","TEPEHUANES DGO., MX","FM-12","99999","V020","110,1,N,0010,1","03600,1,C,N","030000,1,N,1","+9999,9","-0007,1","99999,9",,,,,"03,1,+00900,1,06,1",,,"05,99,1,03,1,04,1,00800,1,07,1,00,1",,"01,9",,,,"99999,9,08218,1","7,1,039,1,+032,1",,"SYN106AAXX  09211 76373 32580 51101 10170 21007 38218 40220 57039 83470 92050 333 30/// 56990 58032 83630 82358;","Q01+001703ATOT  "
"76373099999","2010-01-10T00:00:00","4","25.35","-105.75","1967.0","TEPEHUANES DGO., MX","FM-12","99999","V020","110,1,N,0030,1","22000,1,9,N","030000,1,N,1","+0152,1","-0026,1","10180,1","24,0000,9,1",,,,,,,"04,99,1,04,1,04,1,00800,1,00,1,00,1",,"01,9",,"120,M,+0200,1","180,N,-0070,1","99999,9,08215,1","7,1,003,1,+015,1",,"SYN124AAXX  10001 76373 32580 41103 10152 21026 38215 40180 57003 84400 92350 333 10200 21070 30/// 50171 56900 58015 70000 84630;",
"76373099999","2010-01-10T03:00:00","4","25.35","-105.75","1967.0","TEPEHUANES DGO., MX","FM-12","99999","V020","999,9,C,0000,1","22000,1,9,N","001000,1,N,1","+0076,1","-0031,1","10172,1",,,,,"01,1,+00900,1,06,1",,,"01,99,1,01,1,04,1,00800,1,00,1,00,1",,"01,9",,,,"99999,9,08229,1","2,1,014,1,+005,1",,"SYN100AAXX  10031 76373 32510 10000 10076 21031 38229 40172 52014 81400 90245 333 30/// 56900 58005 81630;",
"76373099999","2010-01-10T12:00:00","4","25.35","-105.75","1967.0","TEPEHUANES DGO., MX","FM-12","99999","V020","999,9,C,0000,1","22000,1,9,N","001000,1,N,1","-0048,1","-0054,1","10327,1","24,0000,9,1",,,,"00,1,+99999,9,99,9",,,"00,99,1,00,1,00,1,99999,9,00,1,00,1","0540,9","09,9",,"120,N,-0056,1",,"99999,9,08249,1","9,9,999,9,-003,1",,"SYN100AAXX  10121 76373 32910 00000 11048 21054 38249 40327 5//// 91150 333 21056 31060 55090 59003 70000;","Q01  00002PRCP24"
"76373099999","2010-01-10T15:00:00","4","25.35","-105.75","1967.0","TEPEHUANES DGO., MX","FM-12","99999","V020","999,9,C,0000,1","22000,1,9,N","030000,1,N,1","-0050,1","-0063,1","10312,1",,,,,"00,1,+99999,9,99,9",,,"00,99,1,00,1,00,1,99999,9,00,1,00,1",,"01,9",,,,"99999,9,08262,1","2,1,013,1,-001,1",,"SYN082AAXX  10151 76373 32980 00000 11050 21063 38262 40312 52013 91445 333 30/// 59001;",
"76373099999","2010-01-10T18:00:00","4","25.35","-105.75","1967.0","TEPEHUANES DGO., MX","FM-12","99999","V020","999,9,C,0000,1","22000,1,9,N","030000,1,N,1","+0100,1","+0050,2","10302,1",,,,,"00,1,+99999,9,99,9",,,"00,99,1,00,1,00,1,99999,9,00,1,00,1",,"01,9",,"120,M,+0140,1","240,N,-0056,1","99999,9,08256,1","7,1,008,1,-001,1",,"SYN094AAXX  10181 76373 32980 00000 10100 20050 38256 40302 57008 91745 333 10140 21056 30/// 59001;",
"76373099999","2010-01-10T21:00:00","4","25.35","-105.75","1967.0","TEPEHUANES DGO., MX","FM-12","99999","V020","130,1,N,0020,1","22000,1,9,N","030000,1,N,1","+0170,1","-0037,1","10220,1",,,,,"00,1,+99999,9,99,9",,,"00,99,1,00,1,00,1,99999,9,00,1,00,1",,"01,9",,,,"99999,9,08214,1","7,1,042,1,-004,1",,"SYN082AAXX  10211 76373 32980 01302 10170 21037 38214 40220 57042 92045 333 30/// 59004;",
"76373099999","2010-01-11T00:00:00","4","25.35","-105.75","1967.0","TEPEHUANES DGO., MX","FM-12","99999","V020","130,1,N,0020,1","22000,1,9,N","030000,1,N,1","+0132,1","-0010,1","10168,2","24,0000,9,1",,,,"00,1,+99999,9,99,9",,,"00,99,1,00,1,00,1,99999,9,00,1,00,1",,"01,9",,"120,M,+0204,1","180,N,-0056,1","99999,9,08205,1","7,1,009,1,-010,1",,"SYN106AAXX  11001 76373 32980 01302 10132 21010 38205 40168 57009 92350 333 10204 21056 30/// 50241 59010 70000;","Q01  00002PRCP24"
"76373099999","2010-01-11T12:00:00","4","25.35","-105.75","1967.0","TEPEHUANES DGO., MX","FM-12","99999","V020","999,9,C,0000,1","22000,1,9,N","001000,1,N,1","-0020,1","-0040,1","10248,1",,,,,"00,1,+99999,9,99,9",,,"00,99,1,00,1,00,1,99999,9,00,1,00,1","0576,9","09,9","999,-0026,9","120,N,-0024,1","240,M,+0140,1","99999,9,08234,1",,,"SYN099AAXX  11121 76373 32910 00000 11020 21040 38234 40248 5//// 91150 333 10140 21024 31026 55096 5915;",
"76373099999","2010-01-11T15:00:00","4","25.35","-105.75","1967.0","TEPEHUANES DGO., MX","FM-12","99999","V020","999,9,C,0000,1","22000,1,9,N","030000,1,N,1","-0025,1","-0045,1","10283,1",,,,,"00,1,+99999,9,99,9",,,"00,99,1,00,1,00,1,99999,9,00,1,00,1",,"01,9",,,,"99999,9,08245,1","2,1,011,1,-017,1",,"SYN082AAXX  11151 76373 32980 00000 11025 21045 38245 40283 52011 91450 333 30/// 59017;",
"76373099999","2010-01-11T18:00:00","4","25.35","-105.75","1967.0","TEPEHUANES DGO., MX","FM-12","99999","V020","040,1,N,0010,1","22000,1,9,N","030000,1,N,1","+0120,1","-0024,1","10257,1",,,,,"00,1,+99999,9,99,9",,,"00,99,1,00,1,00,1,99999,9,00,1,00,1",,"01,9",,"120,M,+0140,1","240,N,-0024,1","99999,9,08232,1","7,1,013,1,-024,1",,"SYN094AAXX  11181 76373 32980 00401 10120 21024 38232 40257 57013 91745 333 10140 21024 30/// 59024;",
"76373099999","2010-01-11T21:00:00","4","25.35","-105.75","1967.0","TEPEHUANES DGO., MX","FM-12","99999","V020","110,1,N,0010,1","22000,1,9,N","030000,1,N,1","+0198,2","+0011,1","10175,1",,,,,"01,1,+00900,1,08,1",,,"01,99,1,01,1,01,1,00800,1,00,1,00,1",,"01,9",,,,"99999,9,08193,1","7,1,039,1,-021,1",,"SYN100AAXX  11211 76373 32580 11101 10198 20011 38193 40175 57039 81100 92050 333 30/// 56900 59021 81830;",
"76373099999","2010-01-12T00:00:00","4","25.35","-105.75","1967.0","TEPEHUANES DGO., MX","FM-12","99999","V020","230,1,N,0030,1","22000,1,9,N","003800,1,N,1","+0168,1","-0016,1","10143,1","24,0000,9,1",,,,"02,1,+00600,1,06,1",,,"03,99,1,03,1,04,1,01250,1,00,1,00,1",,"01,9",,"120,M,+0220,1","180,N,-0024,1","99999,9,08198,1","3,1,005,1,-007,1",,"SYN124AAXX  12001 76373 32638 32303 10168 21016 38198 40143 53005 83400 92350 333 10220 21024 30/// 50281 59007 70000 82620 81820;",
"76373099999","2010-01-12T03:00:00","4","25.35","-105.75","1967.0","TEPEHUANES DGO., MX","FM-12","99999","V020","290,1,N,0010,1","22000,1,9,N","001000,1,N,1","+0105,1","+0001,1","10148,1",,,,,"01,1,+00600,1,08,1",,,"01,99,1,01,1,02,1,01250,1,00,1,00,1",,"01,9",,,,"99999,9,08224,1","2,1,026,1,+999,9",,"SYN094AAXX  12031 76373 32610 12901 10105 20001 38224 40148 52026 81200 90250 333 30/// 58/// 81820;",
"76373099999","2010-01-12T12:00:00","4","25.35","-105.75","1967.0","TEPEHUANES DGO., MX","FM-12","99999","V020","999,9,C,0000,1","22000,1,9,N","001000,1,N,1","+0012,1","-0006,1","10232,1","24,0000,9,1",,,,"02,1,+00600,1,08,1",,,"02,99,1,02,1,02,1,01250,1,00,1,00,1","0576,9","09,9","999,-0014,9","120,N,+0008,1","240,M,+0220,1","99999,9,08244,1","9,9,999,9,+010,1",,"SYN118AAXX  12121 76373 32610 20000 10012 21006 38244 40232 5//// 82200 91150 333 10220 20008 31014 55096 58010 70000 82820;",
"76373099999","2010-01-12T15:00:00","4","25.35","-105.75","1967.0","TEPEHUANES DGO., MX","FM-12","99999","V020","999,9,C,0000,1","00540,1,9,N","070000,1,N,1","+0028,1","+0003,1","10278,1",,,,,"05,1,+00540,1,07,1",,,"07,99,1,07,1,06,1,00800,1,00,1,00,1",,"01,9",,,,"99999,9,08263,1","2,1,019,1,+018,1",,"SYN100AAXX  12151 76373 32588 70000 10028 20003 38263 40278 52019 87600 91450 333 30/// 58018 85718 82618;",
"76373099999","2010-01-12T18:00:00","4","25.35","-105.75","1967.0","TEPEHUANES DGO., MX","FM-12","99999","V020","130,1,N,0010,1","03600,1,C,N","070000,1,N,1","+0119,1","-0002,1","10273,1",,,,,"02,1,+00600,1,06,1",,,"05,99,1,02,1,04,1,01250,1,06,1,00,1",,"01,9",,"120,M,+0140,1","240,N,+0008,1","99999,9,08262,1","5,1,001,1,+029,1",,"SYN118AAXX  12181 76373 32688 51301 10119 21002 38262 40273 55001 82460 91750 333 10140 20008 30/// 56990 58029 82620 83356;",
"76373099999","2010-01-14T12:00:00","4","25.35","-105.75","1967.0","TEPEHUANES DGO., MX","FM-12","99999","V020","999,9,C,0000,1","22000,1,9,N","001000,1,N,1","+0008,1","+0005,1","10154,1","24,0000,9,1",,,,,,,"01,99,1,00,1,00,1,99999,9,00,1,02,1","0570,9","09,9","999,-0022,9","120,N,-0010,1","240,M,+0218,1","99999,9,08180,1","9,9,999,9,-060,1",,"SYN124AAXX  14121 76373 32910 10000 10008 20005 38180 40154 5//// 80002 91150 333 10218 21010 31022 55095 21739 59060 70000 81067;",
"76373099999","2010-01-14T15:00:00","4","25.35","-105.75","1967.0","TEPEHUANES DGO., MX","FM-12","99999","V020","300,1,N,0010,1","22000,1,9,N","003800,1,N,1","+0012,1","+0003,1","10177,1",,,,,"02,1,+00600,1,08,1",,,"02,99,1,02,1,01,1,01250,1,00,1,00,1",,"01,9",,,,"99999,9,08180,1","6,1,001,1,-068,1",,"SYN094AAXX  14151 76373 32638 23001 10012 20003 38180 40177 56001 82100 91450 333 30/// 59068 82820;",
"76373099999","2010-01-14T18:00:00","4","25.35","-105.75","1967.0","TEPEHUANES DGO., MX","FM-12","99999","V020","290,1,N,0040,1","22000,1,9,N","030000,1,N,1","+0152,2","-0013,1","10149,1",,,,,"03,1,+00900,1,08,1",,,"03,99,1,03,1,02,1,00800,1,00,1,00,1",,"01,9",,"120,M,+0168,1","240,N,-0010,1","99999,9,08165,1","7,1,015,1,-074,1",,"SYN112AAXX  14181 76373 32580 32904 10152 21013 38165 40149 57015 83200 91750 333 10168 21010 30/// 56900 59074 83830;",
"76373099999","2010-01-14T21:00:00","4","25.35","-105.75","1967.0","TEPEHUANES DGO., MX","FM-12","99999","V020","250,1,N,0020,1","22000,1,9,N","030000,1,N,1","+0152,1","-0008,1","10087,1",,,,,"02,1,+00900,1,06,1",,,"02,99,1,02,1,04,1,00800,1,00,1,00,1",,"01,9",,,,"99999,9,08169,1","7,1,034,1,-057,1",,"SYN100AAXX  14211 76373 32580 22502 10152 21008 38169 40087 57034 82400 92045 333 30/// 56900 59057 82630;",
"76373099999","2010-01-15T00:00:00","4","25.35","-105.75","1967.0","TEPEHUANES DGO., MX","FM-12","99999","V020","220,1,N,0060,1","00750,1,9,N","030000,1,N,1","+0074,1","+0015,1","10082,1","24,0000,9,1",,,,,,,"07,99,1,07,1,07,1,00800,1,00,1,00,1",,"01,9",,"120,M,+0192,1","180,N,-0010,1","99999,9,08141,1","2,1,010,1,-041,1",,"SYN124AAXX  15001 76373 32580 72206 10074 20015 38141 40082 52010 87700 92350 333 10192 21010 30/// 50041 56900 59041 70000 87730;",
"76373099999","2010-01-15T12:00:00","4","25.35","-105.75","1967.0","TEPEHUANES DGO., MX","FM-12","99999","V020","999,9,C,0000,1","22000,1,9,N","001000,1,N,1","+0020,1","+0016,1","10110,1","24,0030,9,1",,,,"00,1,+99999,9,99,9",,,"00,99,1,00,1,00,1,99999,9,00,1,00,1","0390,9","01,9","999,+0004,9","120,N,+0010,1","240,M,+0110,1","99999,9,08145,1","9,9,999,9,-035,1",,"SYN106AAXX  15121 76373 32910 00000 10020 20016 38145 40110 5//// 91150 333 10110 20010 30004 55065 59035 70030;",
"76373099999","2010-01-15T15:00:00","4","25.35","-105.75","1967.0","TEPEHUANES DGO., MX","FM-12","99999","V020","999,9,C,0000,1","00840,1,9,N","030000,1,N,1","+0024,1","+0016,1","10152,1",,,,,"07,1,+00840,1,07,1",,,"07,99,1,07,1,07,1,00800,1,00,1,00,1",,"01,9",,,,"99999,9,08164,1","2,1,019,1,-016,1",,"SYN100AAXX  15151 76373 32580 70000 10024 20016 38164 40152 52019 87700 91450 333 30/// 56900 59016 87728;",
"76373099999","2010-01-15T18:00:00","4","25.35","-105.75","1967.0","TEPEHUANES DGO., MX","FM-12","99999","V020","999,9,C,0000,1","00840,1,9,N","030000,1,N,1","+0052,1","+0027,1","10176,1","03,0008,9,1",,"5,1,06,1","0,1,06,1","08,1,+00840,1,07,1",,,"08,99,1,08,1,07,1,00800,1,99,9,99,9",,"09,9",,"120,M,+0100,1","240,N,+0010,1","99999,9,08180,1","2,1,016,1,+015,1","50,1","SYN124AAXX  15181 76373 11580 80000 10052 20027 38180 40176 52016 75050 887// 91750 333 10100 20010 31/// 569// 58015 69987 88728;",
"76373099999","2010-01-16T15:00:00","4","25.35","-105.75","1967.0","TEPEHUANES DGO., MX","FM-12","99999","V020","999,9,C,0000,1","22000,1,9,N","030000,1,N,1","+0038,1","+0030,1","10221,1",,,,,"03,1,+00810,1,06,1",,,"03,99,1,03,1,04,1,00800,1,00,1,00,1",,"01,9",,,,"99999,9,08221,1","2,1,013,1,+057,1",,"SYN100AAXX  16151 76373 32580 30000 10038 20030 38221 40221 52013 83400 91450 333 30/// 56900 58057 83627;",
"76373099999","2010-01-16T18:00:00","4","25.35","-105.75","1967.0","TEPEHUANES DGO., MX","FM-12","99999","V020","100,1,N,0010,1","22000,1,9,N","030000,1,N,1","+0106,1","+0014,1","10210,1",,,,,"02,1,+00840,1,08,1",,,"02,99,1,02,1,02,1,00800,1,00,1,00,1",,"01,9",,"120,M,+0120,1","240,N,+0010,1","99999,9,08216,1","7,1,011,1,+030,1",,"SYN112AAXX  16181 76373 32580 21001 10106 20014 38216 40210 57011 82200 91750 333 10120 20010 30/// 56900 58030 82828;",
"76373099999","2010-01-16T21:00:00","4","25.35","-105.75","1967.0","TEPEHUANES DGO., MX","FM-12","99999","V020","120,1,N,0010,1","22000,1,9,N","030000,1,N,1","+0152,1","-0008,1","10150,1",,,,,"03,1,+00840,1,08,1",,,"03,99,1,03,1,02,1,00800,1,00,1,00,1",,"01,9",,,,"99999,9,08183,1","7,1,027,1,-004,1",,"SYN100AAXX  16211 76373 32580 31201 10152 21008 38183 40150 57027 83200 92050 333 30/// 56900 59004 83828;",
"76373099999","2010-01-17T00:00:00","4","25.35","-105.75","1967.0","TEPEHUANES DGO., MX","FM-12","99999","V020","130,1,N,0010,1","22000,1,9,N","030000,1,N,1","+0138,1","-0002,1","10120,1","24,0000,9,1",,,,,,,"03,99,1,03,1,00,1,00800,1,07,1,00,1",,"01,9",,"120,M,+0170,1","180,N,+0010,1","99999,9,08180,1","7,1,003,1,-007,1",,"SYN124AAXX  17001 76373 32580 31301 10138 21002 38180 40120 57003 83070 92350 333 10170 20010 30/// 50151 56900 59007 70000 83827;",
"76373099999","2010-01-17T12:00:00","4","25.35","-105.75","1967.0","TEPEHUANES DGO., MX","FM-12","99999","V020","999,9,C,0000,1","22000,1,9,N","001000,1,N,1","-0004,1","-0008,1","10174,1","24,0000,9,5",,,,"00,1,+99999,9,99,9",,,"00,99,1,00,1,00,1,99999,9,00,1,00,1","0474,9",,,"120,N,-0010,1","240,M,+0162,1","99999,9,08195,1","9,9,999,9,-013,1",,"SYN106AAXX  17121 76373 32910 00000 11004 21008 38195 40174 5//// 91150 333 10162 21010 21012 55079 59013 70000;",
"76373099999","2010-01-17T15:00:00","4","25.35","-105.75","1967.0","TEPEHUANES DGO., MX","FM-12","99999","V020","999,9,C,0000,1","22000,1,9,N","030000,1,N,1","+0002,1","-0008,1","10213,1",,,,,"00,1,+99999,9,99,9",,,"00,99,1,00,1,00,1,99999,9,00,1,00,1",,"01,9",,,,"99999,9,08208,1","2,1,013,1,-013,1",,"SYN082AAXX  17151 76373 32980 00000 10002 21008 38208 40213 52013 91450 333 30/// 59013;",
"76373099999","2010-01-17T18:00:00","4","25.35","-105.75","1967.0","TEPEHUANES DGO., MX","FM-12","99999","V020","140,1,N,0010,1","22000,1,9,N","030000,1,N,1","+0118,1","-0009,1","10195,1",,,,,"00,1,+99999,9,99,9",,,"00,99,1,00,1,00,1,99999,9,00,1,00,1",,"01,9",,"120,M,+0164,1","240,N,-0010,1","99999,9,08202,1","7,1,007,1,-008,1",,"SYN094AAXX  17181 76373 32980 01401 10118 21009 38202 40195 57007 91750 333 10164 21010 30/// 59008;",
"76373099999","2010-01-17T21:00:00","4","25.35","-105.75","1967.0","TEPEHUANES DGO., MX","FM-12","99999","V020","999,9,C,0000,1","22000,1,9,N","030000,1,N,1","+0212,1","-0018,1","99999,9",,,,,"00,1,+99999,9,99,9",,,"00,99,1,00,1,00,1,99999,9,00,1,00,1",,"01,9",,,,"99999,9,08162,1","7,1,040,1,-021,1",,"SYN082AAXX  17211 76373 32980 00000 10212 21018 38162 40115 57040 92045 333 30/// 59021;","Q01+101153APOSLP"
"76373099999","2010-01-18T15:00:00","4","25.35","-105.75","1967.0","TEPEHUANES DGO., MX","FM-12","99999","V020","999,9,C,0000,1","22000,1,9,N","030000,1,N,1","-0010,1","-0019,1","10249,1",,,,,"00,1,+99999,9,99,9",,,"00,99,1,00,1,00,1,99999,9,00,1,00,1",,"01,9",,,,"99999,9,08234,1","2,1,023,1,+026,1",,"SYN082AAXX  18151 76373 32980 00000 11010 21019 38234 40249 52023 91450 333 30/// 58026;",
"76373099999","2010-01-18T18:00:00","4","25.35","-105.75","1967.0","TEPEHUANES DGO., MX","FM-12","99999","V020","999,9,C,0000,1","22000,1,9,N","030000,1,N,1","+0130,1","-0010,1","10229,1",,,,,"00,1,+99999,9,99,9",,,"00,99,1,00,1,00,1,99999,9,00,1,00,1",,"01,9",,"120,M,+0180,1","240,N,-0030,1","99999,9,08217,1","7,1,017,1,+015,1",,"SYN094AAXX  18181 76373 32980 00000 10130 21010 38217 40229 57017 91740 333 10180 21030 30/// 58015;",
"76373099999","2010-01-18T21:00:00","4","25.35","-105.75","1967.0","TEPEHUANES DGO., MX","FM-12","99999","V020","310,1,N,0010,1","22000,1,9,N","030000,1,N,1","+0230,2","-0058,1","10146,1",,,,,"00,1,+99999,9,99,9",,,"00,99,1,00,1,00,1,99999,9,00,1,00,1",,"01,9",,,,"99999,9,08180,1","7,1,037,1,+018,1",,"SYN082AAXX  18211 76373 32980 03101 10230 21058 38180 40146 57037 92050 333 30/// 58018;",
"76373099999","2010-01-19T00:00:00","4","25.35","-105.75","1967.0","TEPEHUANES DGO., MX","FM-12","99999","V020","300,1,N,0030,1","22000,1,9,N","003800,1,N,1","+0192,1","-0037,1","10108,2","24,0000,9,1",,,,"03,1,+05100,1,02,1",,,"04,99,1,00,1,00,1,99999,9,00,1,08,1",,"01,9",,"120,M,+0245,1","180,N,-0030,1","99999,9,08184,1","3,1,004,1,+031,1",,"SYN124AAXX  19001 76373 32938 43003 10192 21037 38184 40108 53004 80008 92350 333 10245 21030 30/// 50201 58031 70000 83267 81067;",
"76373099999","2010-01-19T03:00:00","4","25.35","-105.75","1967.0","TEPEHUANES DGO., MX","FM-12","99999","V020","290,1,N,0020,1","22000,1,9,N","001000,1,N,1","+0122,1","+0006,1","10111,1",,,,,"02,1,+05100,1,00,1",,,"02,99,1,00,1,00,1,99999,9,00,1,02,1",,"01,9",,,,"99999,9,08209,1","2,1,025,1,+999,9",,"SYN094AAXX  19031 76373 32910 22902 10122 20006 38209 40111 52025 80002 90250 333 30/// 58/// 82067;",
"76373099999","2010-01-19T12:00:00","4","25.35","-105.75","1967.0","TEPEHUANES DGO., MX","FM-12","99999","V020","999,9,C,0000,1","22000,1,9,N","001000,1,N,1","-0008,1","-0017,1","10108,1","24,0000,9,5",,,,"00,1,+99999,9,99,9",,,"00,99,1,00,1,00,1,99999,9,00,1,00,1","0558,9","09,9","999,-0028,9","120,N,-0017,1","240,M,+0245,1","99999,9,08204,1","9,9,999,9,-007,1",,"SYN112AAXX  19121 76373 32910 00000 11008 21017 38204 40108 5//// 91150 333 10245 21017 31028 55093 21739 59007 70000;",
"76373099999","2010-01-19T15:00:00","4","25.35","-105.75","1967.0","TEPEHUANES DGO., MX","FM-12","99999","V020","999,9,C,0000,1","22000,1,9,N","003800,1,N,1","+0006,1","-0015,1","99999,9",,,,,"02,1,+01800,1,03,1",,,"02,99,1,02,1,00,1,01750,1,03,1,00,1",,"01,9",,,,"99999,9,08210,1","2,1,006,1,-024,1",,"SYN094AAXX  19151 76373 32738 20000 10006 21015 38210 40212 52006 82030 91450 333 30/// 59024 82356;","Q01+102123APOSLP"
"76373099999","2010-01-19T18:00:00","4","25.35","-105.75","1967.0","TEPEHUANES DGO., MX","FM-12","99999","V020","300,1,N,0010,1","22000,1,9,N","003800,1,N,1","+9999,9","-0007,1","10193,1",,,,,"00,1,+99999,9,99,9",,,"00,99,1,00,1,00,1,99999,9,00,1,00,1",,"01,9",,"120,M,+0585,1","240,N,-0017,1","99999,9,08199,1","8,1,011,1,-018,1",,"SYN094AAXX  19181 76373 32938 03001 10170 21007 38199 40193 58011 91750 333 10585 21017 30/// 59018;","Q01+001703ATOT  "
"76373099999","2010-01-19T21:00:00","4","25.35","-105.75","1967.0","TEPEHUANES DGO., MX","FM-12","99999","V020","290,1,N,0060,1","22000,1,9,N","003800,1,N,1","+0208,2","-0059,1","10124,1",,,,,"00,1,+99999,9,99,9",,,"00,99,1,00,1,00,1,99999,9,00,1,00,1",,"01,9",,,,"99999,9,08169,1","7,1,030,1,-011,1",,"SYN082AAXX  19211 76373 32938 02906 10208 21059 38169 40124 57030 92050 333 30/// 59011;",
"76373099999","2010-01-20T00:00:00","4","25.35","-105.75","1967.0","TEPEHUANES DGO., MX","FM-12","99999","V020","290,1,N,0060,1","22000,1,9,N","003800,1,N,1","+0170,1","-0007,1","10089,1","24,0000,9,1",,,,"01,1,+05100,1,00,1",,,"01,99,1,00,1,00,1,99999,9,00,1,02,1",,"01,9",,"120,M,+0238,1","180,N,-0030,1","99999,9,08167,1","5,1,002,1,-017,1",,"SYN118AAXX  20001 76373 32938 12906 10170 21007 38167 40089 55002 80002 92350 333 10238 21030 30/// 50361 59017 70000 81067;",
"76373099999","2010-01-20T03:00:00","4","25.35","-105.75","1967.0","TEPEHUANES DGO., MX","FM-12","99999","V020","240,1,N,0010,1","22000,1,9,N","001000,1,N,1","+0118,1","+0029,1","10082,1",,,,,"00,1,+99999,9,99,9",,,"00,99,1,00,1,00,1,99999,9,00,1,00,1",,"01,9",,,,"99999,9,08182,1","2,1,015,1,-017,1",,"SYN082AAXX  20031 76373 32910 02401 10118 20029 38182 40082 52015 90250 333 30/// 59017;",
"76373099999","2010-01-20T12:00:00","4","25.35","-105.75","1967.0","TEPEHUANES DGO., MX","FM-12","99999","V020","999,9,C,0000,1","22000,1,9,N","001000,1,N,1","-0015,1","-0018,1","10127,1","24,0000,9,5",,,,"00,1,+99999,9,99,9",,,"00,99,1,00,1,00,1,99999,9,00,1,00,1","0588,9","09,9","999,-0036,9","120,N,-0020,1","240,M,+0238,1","99999,9,08163,1","9,9,999,9,-041,1",,"SYN112AAXX  20121 76373 32910 00000 11015 21018 38163 40127 5//// 91150 333 10238 21020 31036 55098 21586 59041 70000;",
"76373099999","2010-01-20T15:00:00","4","25.35","-105.75","1967.0","TEPEHUANES DGO., MX","FM-12","99999","V020","999,9,C,0000,1","22000,1,9,N","070000,1,N,1","-0002,1","-0011,1","10145,1",,,,,"01,1,+05100,1,00,1",,,"01,99,1,00,1,00,1,99999,9,00,1,02,1",,"01,9",,,,"99999,9,08157,1","8,1,006,1,-053,1",,"SYN094AAXX  20151 76373 32988 10000 11002 21011 38157 40145 58006 80002 91450 333 30/// 59053 81067;",
"76373099999","2010-01-20T21:00:00","4","25.35","-105.75","1967.0","TEPEHUANES DGO., MX","FM-12","99999","V020","280,1,N,0120,1","22000,1,9,N","070000,1,N,1","+0194,1","-0037,1","10076,1",,,,,"01,1,+05100,1,00,1",,,"01,99,1,00,1,00,1,99999,9,00,1,04,1",,"01,9",,,,"99999,9,08129,1","9,9,999,9,-040,1",,"SYN094AAXX  20211 76373 32988 12812 10194 21037 38129 40076 5//// 80004 92050 333 30/// 59040 81067;",
"76373099999","2010-01-21T00:00:00","4","25.35","-105.75","1967.0","TEPEHUANES DGO., MX","FM-12","99999","V020","290,1,N,0040,1","22000,1,9,N","070000,1,N,1","+0162,1","+9999,9","10052,1","24,0000,9,1",,,,"01,1,+05100,1,00,1",,,"01,99,1,00,1,00,1,99999,9,00,1,02,1",,"01,9",,"120,M,+0220,1","180,N,-0020,1","99999,9,08135,1","2,1,006,1,-032,1",,"SYN112AAXX  21001 76373 32988 12904 10162 38135 40052 52006 80002 92350 333 10220 21020 30/// 50411 59032 70000 81067;",
"76373099999","2010-01-21T12:00:00","4","25.35","-105.75","1967.0","TEPEHUANES DGO., MX","FM-12","99999","V020","999,9,C,0000,1","22000,1,9,N","001000,1,N,1","+0014,1","-0013,1","10108,1","24,0000,9,5",,,,"00,1,+99999,9,99,9",,,"00,99,1,00,1,00,1,99999,9,00,1,00,1","0582,9","09,9","999,-0038,9","120,N,-0030,1","240,M,+0220,1","99999,9,08144,1","9,9,999,9,-019,1",,"SYN112AAXX  21121 76373 32910 00000 10014 21013 38144 40108 5//// 91155 333 10220 21030 31038 55097 21932 59019 70000;",
"76373099999","2010-01-21T15:00:00","4","25.35","-105.75","1967.0","TEPEHUANES DGO., MX","FM-12","99999","V020","999,9,C,0000,1","22000,1,9,N","001000,1,N,1","+0072,1","+0001,1","10140,1",,,,,"00,1,+99999,9,99,9",,,"00,99,1,00,1,00,1,99999,9,00,1,00,1",,"01,9",,,,"99999,9,08156,1","2,1,012,1,+001,1",,"SYN082AAXX  21151 76373 32510 00000 10072 20001 38156 40140 52012 91455 333 30/// 58001;",
"76373099999","2010-01-21T18:00:00","4","25.35","-105.75","1967.0","TEPEHUANES DGO., MX","FM-12","99999","V020","290,1,N,0080,1","22000,1,9,N","030000,1,N,1","+0188,1","-0094,1","10116,1",,,,,"00,1,+99999,9,99,9",,,"00,99,1,00,1,00,1,99999,9,00,1,00,1",,"01,9",,"120,M,+0200,1","240,N,-0030,1","99999,9,08151,1","0,1,005,1,+002,1",,"SYN094AAXX  21181 76373 32980 02908 10188 21094 38151 40116 50005 91755 333 10200 21030 30/// 58002;",
"76373099999","2010-01-21T21:00:00","4","25.35","-105.75","1967.0","TEPEHUANES DGO., MX","FM-12","99999","V020","290,1,N,0100,1","22000,1,9,N","030000,1,N,1","+0212,1","-0075,1","10066,1",,,,,"00,1,+99999,9,99,9",,,"00,99,1,00,1,00,1,99999,9,00,1,00,1",,"01,9",,,,"99999,9,08134,1","7,1,017,1,+005,1",,"SYN082AAXX  21211 76373 32980 02910 10212 21075 38134 40066 57017 92055 333 30/// 58005;",
"76373099999","2010-01-22T00:00:00","4","25.35","-105.75","1967.0","TEPEHUANES DGO., MX","FM-12","99999","V020","250,1,N,0040,1","22000,1,9,N","030000,1,N,1","+0170,1","-0001,1","10063,1","24,0000,9,1",,,,"00,1,+99999,9,99,9",,,"00,99,1,00,1,00,1,99999,9,00,1,00,1",,"01,9",,"120,M,+0230,1","180,N,-0030,1","99999,9,08158,1","7,1,024,1,+023,1",,"SYN106AAXX  22001 76373 32980 02504 10170 21001 38158 40063 57024 92355 333 10230 21030 30/// 50401 58023 70000;","Q01  00002PRCP24"
"76373099999","2010-01-22T03:00:00","4","25.35","-105.75","1967.0","TEPEHUANES DGO., MX","FM-12","99999","V020","250,1,N,0020,1","22000,1,9,N","001000,1,N,1","+0108,1","+0021,1","10084,1",,,,,"00,1,+99999,9,99,9",,,"00,99,1,00,1,00,1,99999,9,00,1,00,1",,"01,9",,,,"99999,9,08188,1","2,1,030,1,+042,1",,"SYN082AAXX  22031 76373 32910 02502 10108 20021 38188 40084 52030 90255 333 30/// 58042;",
"76373099999","2010-01-22T15:00:00","4","25.35","-105.75","1967.0","TEPEHUANES DGO., MX","FM-12","99999","V020","070,1,N,0010,1","22000,1,9,N","030000,1,N,1","+0112,1","-0026,1","10170,1",,,,,"00,1,+99999,9,99,9",,,"00,99,1,00,1,00,1,99999,9,00,1,00,1",,"01,9",,,,"99999,9,08176,1","1,1,004,1,+022,1",,"SYN082AAXX  22151 76373 32980 00701 10112 21026 38176 40170 51004 91455 333 30/// 58022;",
"76373099999","2010-01-22T18:00:00","4","25.35","-105.75","1967.0","TEPEHUANES DGO., MX","FM-12","99999","V020","230,1,N,0050,1","22000,1,9,N","030000,1,N,1","+0194,1","-0086,1","10150,1",,,,,"00,1,+99999,9,99,9",,,"00,99,1,00,1,00,1,99999,9,00,1,00,1",,"01,9",,"120,M,+0210,1","240,N,-0050,1","99999,9,08166,1","8,1,011,1,+015,1",,"SYN094AAXX  22181 76373 32980 02305 10194 21086 38166 40150 58011 91755 333 10210 21050 30/// 58015;",
"76373099999","2010-01-22T21:00:00","4","25.35","-105.75","1967.0","TEPEHUANES DGO., MX","FM-12","99999","V020","250,1,N,0060,1","22000,1,9,N","030000,1,N,1","+0210,1","-0050,1","10105,1",,,,,"00,1,+99999,9,99,9",,,"00,99,1,00,1,00,1,99999,9,00,1,00,1",,"01,9",,,,"99999,9,08154,1","6,1,021,1,+021,1",,"SYN082AAXX  22211 76373 32980 02506 10210 21050 38154 40105 56021 92055 333 30/// 58021;",
"76373099999","2010-01-23T00:00:00","4","25.35","-105.75","1967.0","TEPEHUANES DGO., MX","FM-12","99999","V020","230,1,N,0040,1","22000,1,9,N","030000,1,N,1","+0166,1","-0007,1","10072,1","24,0000,9,1",,,,"00,1,+99999,9,99,9",,,"00,99,1,00,1,00,1,99999,9,00,1,00,1",,"01,9",,"120,M,+0228,1","180,N,-0050,1","99999,9,08154,1","0,1,000,1,-004,1",,"SYN106AAXX  23001 76373 32980 02304 10166 21007 38154 40072 50000 92355 333 10228 21050 30/// 50361 59004 70000;","Q01  00002PRCP24"
"76373099999","2010-01-23T03:00:00","4","25.35","-105.75","1967.0","TEPEHUANES DGO., MX","FM-12","99999","V020","290,1,N,0010,1","22000,1,9,N","001000,1,N,1","+0090,1","+0012,1","10051,1",,,,,"00,1,+99999,9,99,9",,,"00,99,1,00,1,00,1,99999,9,00,1,00,1",,"01,9",,,,"99999,9,08154,1","0,1,000,1,-034,1",,"SYN082AAXX  23031 76373 32910 02901 10090 20012 38154 40051 50000 90255 333 30/// 59034;",
"76373099999","2010-01-23T12:00:00","4","25.35","-105.75","1967.0","TEPEHUANES DGO., MX","FM-12","99999","V020","290,1,N,0030,1","22000,1,9,N","001000,1,N,1","+0122,1","+0034,1","10083,1","24,0000,9,1",,,,,,,"02,99,1,00,1,00,1,99999,9,00,1,02,1","0606,9","09,9",,"120,N,-0064,1","240,M,+0228,1","99999,9,08141,1","9,9,999,9,-031,1",,"SYN130AAXX  23121 76373 32910 22903 10122 20034 38141 40083 5//// 82002 91155 333 10228 21064 31070 55101 22093 56009 59031 70000 82067;","Q01+000022SCOTLC"
"76373099999","2010-01-23T15:00:00","4","25.35","-105.75","1967.0","TEPEHUANES DGO., MX","FM-12","99999","V020","250,1,N,0010,1","22000,1,9,N","030000,1,N,1","+0130,1","+0037,1","10096,1",,,,,"02,1,+00600,1,06,1",,,"04,99,1,04,1,04,1,00800,1,00,1,00,1",,"01,9",,,,"99999,9,08153,1","2,1,012,1,-023,1",,"SYN106AAXX  23151 76373 32580 42501 10130 20037 38153 40096 52012 84400 91455 333 30/// 56900 59023 82620 82725;",
"76373099999","2010-01-23T18:00:00","4","25.35","-105.75","1967.0","TEPEHUANES DGO., MX","FM-12","99999","V020","290,1,N,0150,1","00750,1,C,N","030000,1,N,1","+0172,1","+0044,1","10067,1",,,,,"01,1,+00600,1,07,1","02,1,+00750,1,06,1","01,1,+01200,1,03,1","05,99,1,05,1,03,1,00800,1,01,1,01,1",,"01,9",,"120,M,+0190,1","240,N,-0060,1","99999,9,08143,1","8,1,011,1,-023,1",,"SYN130AAXX  23181 76373 32580 52915 10172 20044 38143 40067 58011 85311 91755 333 10190 21060 30/// 56999 59023 81720 82625 81340 81067;",
"76373099999","2010-01-23T21:00:00","4","25.35","-105.75","1967.0","TEPEHUANES DGO., MX","FM-12","99999","V020","290,1,N,0180,1","22000,1,9,N","030000,1,N,1","+0182,1","+0032,1","10015,1",,,,,"01,1,+00600,1,06,1",,,"03,99,1,03,1,01,1,00800,1,02,1,00,1",,"01,9",,,,"99999,9,08117,1","7,1,026,1,-037,1",,"SYN106AAXX  23211 76373 32580 32918 10182 20032 38117 40015 57026 83120 92055 333 30/// 56990 59037 81620 82340;",
"76373099999","2010-01-24T00:00:00","4","25.35","-105.75","1967.0","TEPEHUANES DGO., MX","FM-12","99999","V020","250,1,N,0040,1","22000,1,9,N","030000,1,N,1","+0164,1","+0000,1","10024,1","24,0000,9,1",,,,,,,"01,99,1,00,1,00,1,99999,9,00,1,01,1",,"01,9",,"120,M,+0200,1","180,N,-0062,1","99999,9,08134,1","2,1,017,1,-020,1",,"SYN124AAXX  24001 76373 32980 12504 10164 20000 38134 40024 52017 81001 92355 333 10200 21062 30/// 50481 56009 59020 70000 81067;","Q01+000012SCOTLC"
"76373099999","2010-01-24T03:00:00","4","25.35","-105.75","1967.0","TEPEHUANES DGO., MX","FM-12","99999","V020","320,1,N,0030,1","22000,1,9,N","001000,1,N,1","+0112,1","+0012,1","10040,1",,,,,"00,1,+99999,9,99,9",,,"00,99,1,00,1,00,1,99999,9,00,1,00,1",,"01,9",,,,"99999,9,08150,1","2,1,016,1,-004,1",,"SYN082AAXX  24031 76373 32910 03203 10112 20012 38150 40040 52016 90255 333 30/// 59004;",
"76373099999","2010-01-24T12:00:00","4","25.35","-105.75","1967.0","TEPEHUANES DGO., MX","FM-12","99999","V020","999,9,C,0000,1","22000,1,9,N","001000,1,N,1","+0005,1","-0003,1","10117,1","24,0000,9,5",,,,"00,1,+99999,9,99,9",,,"00,99,1,00,1,00,1,99999,9,00,1,00,1","0594,9","09,9","999,-0042,9","120,N,-0030,1","240,M,+0200,1","99999,9,08160,1","9,9,999,9,+019,1",,"SYN112AAXX  24121 76373 32910 00000 10005 21003 38160 40117 5//// 91155 333 10200 21030 31042 55099 21853 58019 70000;",
"76373099999","2010-01-24T15:00:00","4","25.35","-105.75","1967.0","TEPEHUANES DGO., MX","FM-12","99999","V020","999,9,C,0000,1","22000,1,9,N","030000,1,N,1","+0012,1","+0003,1","10160,1",,,,,"00,1,+99999,9,99,9",,,"00,99,1,00,1,00,1,99999,9,00,1,00,1",,"01,9",,,,"99999,9,08175,1","2,1,015,1,+022,1",,"SYN082AAXX  24151 76373 32980 00000 10012 20003 38175 40160 52015 91455 333 30/// 58022;",
"76373099999","2010-01-24T18:00:00","4","25.35","-105.75","1967.0","TEPEHUANES DGO., MX","FM-12","99999","V020","999,9,C,0000,1","22000,1,9,N","030000,1,N,1","+0148,1","-0026,1","10143,1",,,,,"00,1,+99999,9,99,9",,,"00,99,1,00,1,00,1,99999,9,00,1,00,1",,"01,9",,"120,M,+0170,1","240,N,-0030,1","99999,9,08165,1","6,1,011,1,+022,1",,"SYN094AAXX  24181 76373 32980 00000 10148 21026 38165 40143 56011 91755 333 10170 21030 30/// 58022;",
"76373099999","2010-01-24T21:00:00","4","25.35","-105.75","1967.0","TEPEHUANES DGO., MX","FM-12","99999","V020","140,1,N,0020,1","22000,1,9,N","030000,1,N,1","+0222,1","-0088,1","99999,9",,,,,"00,1,+99999,9,99,9",,,"00,99,1,00,1,00,1,99999,9,00,1,00,1",,"01,9",,,,"99999,9,08134,1","7,1,031,1,+017,1",,"SYN082AAXX  24211 76373 32980 01402 10222 21088 38134 40077 57031 92055 333 30/// 58017;","Q01+100773APOSLP"
"76373099999","2010-01-25T12:00:00","4","25.35","-105.75","1967.0","TEPEHUANES DGO., MX","FM-12","99999","V020","999,9,C,0000,1","22000,1,9,N","001000,1,N,1","-0022,1","-0047,1","10138,1","24,0000,9,1",,,,"00,1,+99999,9,99,9",,,"00,99,1,00,1,00,1,99999,9,00,1,00,1","0600,9","09,9","999,-0034,9","120,N,-0028,1","240,M,+0124,1","99999,9,08176,1","9,9,999,9,+016,1",,"SYN106AAXX  25121 76373 32910 00000 11022 21047 38176 40138 5//// 91145 333 10124 21028 31034 55100 58016 70000;","Q01  00002PRCP24"
"76373099999","2010-01-25T15:00:00","4","25.35","-105.75","1967.0","TEPEHUANES DGO., MX","FM-12","99999","V020","999,9,C,0000,1","22000,1,9,N","030000,1,N,1","-0018,1","-0048,1","10184,1",,,,,"00,1,+99999,9,99,9",,,"00,99,1,00,1,00,1,99999,9,00,1,00,1",,"01,9",,,,"99999,9,08188,1","2,1,012,1,+013,1",,"SYN082AAXX  25151 76373 32980 00000 11018 21048 38188 40184 52012 91450 333 30/// 58013;",
"76373099999","2010-01-25T18:00:00","4","25.35","-105.75","1967.0","TEPEHUANES DGO., MX","FM-12","99999","V020","999,9,C,0000,1","22000,1,9,N","030000,1,N,1","+0130,1","-0032,1","10176,1",,,,,"00,1,+99999,9,99,9",,,"00,99,1,00,1,00,1,99999,9,00,1,00,1",,"01,9",,"120,M,+0150,1","240,N,-0028,1","99999,9,08182,1","7,1,006,1,+017,1",,"SYN094AAXX  25181 76373 32980 00000 10130 21032 38182 40176 57006 91745 333 10150 21028 30/// 58017;",
"76373099999","2010-01-25T21:00:00","4","25.35","-105.75","1967.0","TEPEHUANES DGO., MX","FM-12","99999","V020","140,1,N,0010,1","22000,1,9,N","030000,1,N,1","+0236,1","+0031,1","10098,1",,,,,"00,1,+99999,9,99,9",,,"00,99,1,00,1,00,1,99999,9,00,1,00,1",,"01,9",,,,"99999,9,08143,1","7,1,039,1,+009,1",,"SYN082AAXX  25211 76373 32980 01401 10236 20031 38143 40098 57039 92045 333 30/// 58009;",
"76373099999","2010-01-26T00:00:00","4","25.35","-105.75","1967.0","TEPEHUANES DGO., MX","FM-12","99999","V020","310,1,N,0040,1","22000,1,9,N","070000,1,N,1","+0220,1","+9999,9","10062,1","24,0000,9,1",,,,"00,1,+99999,9,99,9",,,"00,99,1,00,1,00,1,99999,9,00,1,00,1",,"01,9",,"120,M,+0270,1","180,N,-0028,1","99999,9,08149,1","3,1,006,1,+999,9",,"SYN106AAXX  26001 76373 32988 03104 10220 21088 38149 40062 53006 92350 333 10270 21028 30/// 50191 58/// 70000;","Q01-000883ATOD  Q02  00002PRCP24"
"76373099999","2010-01-26T03:00:00","4","25.35","-105.75","1967.0","TEPEHUANES DGO., MX","FM-12","99999","V020","300,1,N,0010,1","22000,1,9,N","001000,1,N,1","+0124,1","-0021,1","10064,1",,,,,"00,1,+99999,9,99,9",,,"00,99,1,00,1,00,1,99999,9,00,1,00,1",,"01,9",,,,"99999,9,08176,1","2,1,027,1,+999,9",,"SYN082AAXX  26031 76373 32910 03001 10124 21021 38176 40064 52027 90250 333 30/// 58///;",
"76373099999","2010-01-26T12:00:00","4","25.35","-105.75","1967.0","TEPEHUANES DGO., MX","FM-12","99999","V020","999,9,C,0000,1","22000,1,9,N","001000,1,N,1","-0017,1","-0032,1","10159,1","24,0000,9,1",,,,"00,1,+99999,9,99,9",,,"00,99,1,00,1,00,1,99999,9,00,1,00,1","0600,9","09,9","999,-0038,9","120,N,-0026,1","240,M,+0270,1","99999,9,08192,1","9,9,999,9,+016,1",,"SYN106AAXX  26121 76373 32910 00000 11017 21032 38192 40159 5//// 91150 333 10270 21026 31038 55100 58016 70000;","Q01  00002PRCP24"
"76373099999","2010-01-26T15:00:00","4","25.35","-105.75","1967.0","TEPEHUANES DGO., MX","FM-12","99999","V020","999,9,C,0000,1","22000,1,9,N","070000,1,N,1","-0002,1","-0036,1","10210,1",,,,,"01,1,+00720,1,08,1",,,"01,99,1,01,1,01,1,01250,1,00,1,00,1",,"01,9",,,,"99999,9,08207,1","2,1,015,1,+019,1",,"SYN094AAXX  26151 76373 32688 10000 11002 21036 38207 40210 52015 81100 91450 333 30/// 58019 81824;",
"76373099999","2010-01-26T18:00:00","4","25.35","-105.75","1967.0","TEPEHUANES DGO., MX","FM-12","99999","V020","999,9,C,0000,1","22000,1,9,N","070000,1,N,1","+0151,1","-0024,1","10201,1",,,,,"01,1,+00720,1,08,1",,,"01,99,1,01,1,01,1,01250,1,00,1,00,1",,"01,9",,"120,M,+0170,1","240,N,-0026,1","99999,9,08201,1","8,1,006,1,+019,1",,"SYN106AAXX  26181 76373 32688 10000 10151 21024 38201 40201 58006 81100 91750 333 10170 21026 30/// 58019 81824;",
"76373099999","2010-01-26T21:00:00","4","25.35","-105.75","1967.0","TEPEHUANES DGO., MX","FM-12","99999","V020","130,1,N,0030,1","22000,1,9,N","070000,1,N,1","+0242,2","-0097,1","10113,1",,,,,"00,1,+99999,9,99,9",,,"00,99,1,00,1,00,1,99999,9,00,1,00,1",,"01,9",,,,"99999,9,08157,1","7,1,044,1,+014,1",,"SYN082AAXX  26211 76373 32988 01303 10242 21097 38157 40113 57044 92050 333 30/// 58014;",
"76373099999","2010-01-27T00:00:00","4","25.35","-105.75","1967.0","TEPEHUANES DGO., MX","FM-12","99999","V020","230,1,N,0050,1","22000,1,9,N","070000,1,N,1","+0215,1","-0052,1","10074,1","24,0000,9,1",,,,"00,1,+99999,9,99,9",,,"00,99,1,00,1,00,1,99999,9,00,1,00,1",,"01,9",,"120,M,+0270,1","180,N,-0026,1","99999,9,08162,1","3,1,005,1,-013,1",,"SYN106AAXX  27001 76373 32988 02305 10215 21052 38162 40074 53005 92350 333 10270 21026 30/// 50201 59013 70000;","Q01  00002PRCP24"
"76373099999","2010-01-27T03:00:00","4","25.35","-105.75","1967.0","TEPEHUANES DGO., MX","FM-12","99999","V020","250,1,N,0010,1","22000,1,9,N","001000,1,N,1","+0130,1","-0019,1","10066,1",,,,,"01,1,+00720,1,08,1",,,"01,99,1,01,1,01,1,01250,1,00,1,00,1",,"01,9",,,,"99999,9,08180,1","2,1,018,1,+004,1",,"SYN094AAXX  27031 76373 32610 12501 10130 21019 38180 40066 52018 81100 90250 333 30/// 58004 81824;",
"76373099999","2010-01-27T12:00:00","4","25.35","-105.75","1967.0","TEPEHUANES DGO., MX","FM-12","99999","V020","999,9,C,0000,1","22000,1,9,N","001000,1,N,1","-0003,1","-0021,1","10150,1","24,0000,9,5",,,,"00,1,+99999,9,99,9",,,"00,99,1,00,1,00,1,99999,9,00,1,00,1","0606,9","09,9","999,-0022,9","120,N,-0012,1","240,M,+0270,1","99999,9,08186,1",,,"SYN112AAXX  27121 76373 32910 00000 11003 21021 38186 40150 5//// 91155 333 10270 21012 31022 55101 21901 29024 70000;",
"76373099999","2010-01-27T15:00:00","4","25.35","-105.75","1967.0","TEPEHUANES DGO., MX","FM-12","99999","V020","999,9,C,0000,1","22000,1,9,N","070000,1,N,1","+0022,1","-0005,1","10198,1",,,,,"01,1,+00720,1,08,1",,,"01,99,1,01,1,01,1,01250,1,00,1,00,1",,"01,9",,,,"99999,9,08201,1","2,1,015,1,-006,1",,"SYN094AAXX  27151 76373 32688 10000 10022 21005 38201 40198 52015 81100 91450 333 30/// 59006 81824;",
"76373099999","2010-01-27T18:00:00","4","25.35","-105.75","1967.0","TEPEHUANES DGO., MX","FM-12","99999","V020","999,9,C,0000,1","22000,1,9,N","070000,1,N,1","+9999,9","+0039,1","10186,1",,,,,"01,1,+00720,1,08,1",,,"01,99,1,01,1,01,1,01250,1,00,1,00,1",,"01,9",,"120,M,+0182,1","240,N,-0012,1","99999,9,08197,1","8,1,004,1,-004,1",,"SYN106AAXX  27181 76373 32688 10000 10166 20039 38197 40186 58004 81100 91750 333 10182 21012 30/// 59004 81824;","Q01+001663ATOT  "
"76373099999","2010-01-28T15:00:00","4","25.35","-105.75","1967.0","TEPEHUANES DGO., MX","FM-12","99999","V020","999,9,C,0000,1","22000,1,9,N","030000,1,N,1","+0118,1","+0067,1","10134,1",,,,,"01,1,+00600,1,07,1",,,"04,99,1,04,1,04,1,00800,1,00,1,00,1",,"01,9",,,,"99999,9,08185,1","2,1,015,1,-016,1",,"SYN106AAXX  28151 76373 32580 40000 10118 20067 38185 40134 52015 84400 91455 333 30/// 56900 59016 81720 83625;",
"76373099999","2010-01-28T18:00:00","4","25.35","-105.75","1967.0","TEPEHUANES DGO., MX","FM-12","99999","V020","230,1,N,0050,1","00750,1,9,N","030000,1,N,1","+0174,1","+0049,1","10116,1",,,,,"02,1,+00750,1,07,1",,,"06,99,1,06,1,06,1,00800,1,00,1,00,1",,"01,9",,"120,M,+0200,1","240,N,+0051,1","99999,9,08180,1","8,1,005,1,-017,1",,"SYN118AAXX  28181 76373 32580 62305 10174 20049 38180 40116 58005 86600 91755 333 10200 20051 30/// 56900 59017 82725 84620;",
"76373099999","2010-01-28T21:00:00","4","25.35","-105.75","1967.0","TEPEHUANES DGO., MX","FM-12","99999","V020","230,1,N,0050,1","22000,1,9,N","030000,1,N,1","+0188,1","+0037,1","10072,1",,,,,"04,1,+00600,1,06,1",,,"04,99,1,04,1,04,1,00800,1,00,1,00,1",,"01,9",,,,"99999,9,08160,1","7,1,021,1,-005,1",,"SYN100AAXX  28211 76373 32580 42305 10188 20037 38160 40072 57021 84400 92055 333 30/// 56900 59005 84620;",
"76373099999","2010-01-29T00:00:00","4","25.35","-105.75","1967.0","TEPEHUANES DGO., MX","FM-12","99999","V020","250,1,N,0040,1","22000,1,9,N","030000,1,N,1","+0168,1","+0021,1","10058,1","24,0010,9,1",,,,"02,1,+00600,1,06,1",,,"04,99,1,04,1,02,1,00800,1,00,1,02,1",,"01,9",,"120,M,+0220,1","180,N,+0051,1","99999,9,08163,1","2,1,003,1,-008,1",,"SYN130AAXX  29001 76373 32580 42504 10168 20021 38163 40058 52003 84202 92355 333 10220 20051 30/// 50341 56909 59008 70010 82620 82067;",
"76373099999","2010-01-29T03:00:00","4","25.35","-105.75","1967.0","TEPEHUANES DGO., MX","FM-12","99999","V020","999,9,C,0000,1","22000,1,9,N","001000,1,N,1","+0138,1","+0052,1","10060,1",,,,,"01,1,+00600,1,07,1",,,"03,99,1,03,1,03,1,00800,1,00,1,00,1",,"01,9",,,,"99999,9,08169,1","2,1,006,1,-009,1",,"SYN106AAXX  29031 76373 32510 30000 10138 20052 38169 40060 52006 83300 90255 333 30/// 56900 59009 81720 82625;",
"76373099999","2010-01-29T12:00:00","4","25.35","-105.75","1967.0","TEPEHUANES DGO., MX","FM-12","99999","V020","999,9,C,0000,1","22000,1,9,N","001000,1,N,1","+0072,1","+0010,1","10111,1","24,0010,9,1",,,,,,,"01,99,1,01,1,01,1,00800,1,00,1,00,1","0600,9","01,9","999,+0036,9","120,N,+0040,1","240,M,+0220,1","99999,9,08173,1","9,9,999,9,+003,1",,"SYN130AAXX  29121 76373 32510 10000 10072 20010 38173 40111 5//// 81100 91155 333 10220 20040 30036 55100 21409 56900 58003 70010 81820;",
"76373099999","2010-01-29T18:00:00","4","25.35","-105.75","1967.0","TEPEHUANES DGO., MX","FM-12","99999","V020","999,9,C,0000,1","22000,1,9,N","030000,1,N,1","+0168,1","+0002,1","10124,1",,,,,"00,1,+99999,9,99,9",,,"00,99,1,00,1,00,1,99999,9,00,1,00,1",,"01,9",,"120,M,+0190,1","240,N,+0040,1","99999,9,08174,1","6,1,007,1,-006,1",,"SYN094AAXX  29181 76373 32980 00000 10168 20002 38174 40124 56007 91755 333 10190 20040 30/// 59006;",
"76373099999","2010-01-29T21:00:00","4","25.35","-105.75","1967.0","TEPEHUANES DGO., MX","FM-12","99999","V020","250,1,N,0040,1","22000,1,9,N","030000,1,N,1","+0210,1","-0050,1","10073,1",,,,,"00,1,+99999,9,99,9",,,"00,99,1,00,1,00,1,99999,9,00,1,00,1",,"01,9",,,,"99999,9,08149,1","7,1,025,1,-001,1",,"SYN082AAXX  29211 76373 32980 02504 10210 21050 38149 40073 57025 92055 333 30/// 59001;",
"76373099999","2010-01-30T00:00:00","4","25.35","-105.75","1967.0","TEPEHUANES DGO., MX","FM-12","99999","V020","230,1,N,0020,1","22000,1,9,N","030000,1,N,1","+0178,1","-0044,1","10055,1","24,0000,9,1",,,,"00,1,+99999,9,99,9",,,"00,99,1,00,1,00,1,99999,9,00,1,00,1",,"01,9",,"120,M,+0230,1","180,N,+0040,1","99999,9,08151,1","3,1,002,1,-012,1",,"SYN106AAXX  30001 76373 32980 02302 10178 21044 38151 40055 53002 92355 333 10230 20040 30/// 50331 59012 70000;","Q01  00002PRCP24"
"76373099999","2010-01-30T03:00:00","4","25.35","-105.75","1967.0","TEPEHUANES DGO., MX","FM-12","99999","V020","290,1,N,0010,1","22000,1,9,N","001000,1,N,1","+0110,1","+0019,1","10068,1",,,,,"00,1,+99999,9,99,9",,,"00,99,1,00,1,00,1,99999,9,00,1,00,1",,"01,9",,,,"99999,9,08172,1","2,1,021,1,+003,1",,"SYN082AAXX  30031 76373 32910 02901 10110 20019 38172 40068 52021 90255 333 30/// 58003;",
"76373099999","2010-01-30T15:00:00","4","25.35","-105.75","1967.0","TEPEHUANES DGO., MX","FM-12","99999","V020","999,9,C,0000,1","22000,1,9,N","030000,1,N,1","-0003,1","-0021,1","10186,1",,,,,"01,1,+00750,1,06,1",,,"01,99,1,01,1,01,1,00800,1,00,1,00,1",,"01,9",,,,"99999,9,08192,1","2,1,011,1,+011,1",,"SYN100AAXX  30151 76373 32580 10000 11003 21021 38192 40186 52011 81100 91455 333 30/// 56900 58011 81625;",
"76373099999","2010-01-30T21:00:00","4","25.35","-105.75","1967.0","TEPEHUANES DGO., MX","FM-12","99999","V020","130,1,N,0010,1","22000,1,9,N","030000,1,N,1","+0190,1","-0009,1","10124,1",,,,,"00,1,+99999,9,99,9",,,"00,99,1,00,1,00,1,99999,9,00,1,00,1",,"01,9",,,,"99999,9,08156,1","9,9,999,9,+007,1",,"SYN082AAXX  30211 76373 32980 01301 10190 21009 38156 40124 5//// 92045 333 30/// 58007;",
"76373099999","2010-01-31T00:00:00","4","25.35","-105.75","1967.0","TEPEHUANES DGO., MX","FM-12","99999","V020","220,1,N,0020,1","22000,1,9,N","030000,1,N,1","+0202,1","-0011,1","10115,1","24,0000,9,1",,,,,,,"02,99,1,02,1,04,1,00800,1,00,1,00,1",,"01,9",,"120,M,+0220,1","180,N,-0050,1","99999,9,08142,1","7,1,014,1,-009,1",,"SYN124AAXX  31001 76373 32580 22202 10202 21011 38142 40115 57014 82400 92350 333 10220 21050 30/// 50361 56900 59009 70000 82630;",
"76373099999","2010-01-31T03:00:00","4","25.35","-105.75","1967.0","TEPEHUANES DGO., MX","FM-12","99999","V020","999,9,C,0000,1","22000,1,9,N","001000,1,N,1","+0110,1","+0043,1","10077,1",,,,,"03,1,+00810,1,06,1",,,"03,99,1,03,1,04,1,00800,1,00,1,00,1",,"01,9",,,,"99999,9,08157,1","2,1,015,1,-015,1",,"SYN100AAXX  31031 76373 32510 30000 10110 20043 38157 40077 52015 83400 90250 333 30/// 56900 59015 83627;",
"76373099999","2010-01-31T12:00:00","4","25.35","-105.75","1967.0","TEPEHUANES DGO., MX","FM-12","99999","V020","999,9,C,0000,1","22000,1,9,N","001000,1,N,1","-0004,1","-0014,1","10120,1","24,0000,9,5",,,,"00,1,+99999,9,99,9",,,"00,99,1,00,1,00,1,99999,9,00,1,00,1","0612,9","09,9","999,-0034,9","120,N,-0020,1","240,M,+0152,1","99999,9,08161,1","9,9,999,9,-020,1",,"SYN112AAXX  31121 76373 32910 00000 11004 21014 38161 40120 5//// 91150 333 10152 21020 31034 55102 21933 59020 70000;",
"76373099999","2010-01-31T15:00:00","4","25.35","-105.75","1967.0","TEPEHUANES DGO., MX","FM-12","99999","V020","999,9,C,0000,1","22000,1,9,N","030000,1,N,1","+0006,1","-0003,1","10165,1",,,,,"00,1,+99999,9,99,9",,,"00,99,1,00,1,00,1,99999,9,00,1,00,1",,"01,9",,,,"99999,9,08175,1","2,1,014,1,-017,1",,"SYN082AAXX  31151 76373 32980 00000 10006 21003 38175 40165 52014 91450 333 30/// 59017;",
"76373099999","2010-01-31T18:00:00","4","25.35","-105.75","1967.0","TEPEHUANES DGO., MX","FM-12","99999","V020","310,1,N,0010,1","22000,1,9,N","030000,1,N,1","+9999,9","+0020,1","10148,1",,,,,"00,1,+99999,9,99,9",,,"00,99,1,00,1,00,1,99999,9,00,1,00,1",,"01,9",,"120,M,+0174,1","240,N,-0020,1","99999,9,08162,1","7,1,013,1,-013,1",,"SYN094AAXX  31181 76373 32980 03101 10160 20020 38162 40148 57013 91750 333 10174 21020 30/// 59013;","Q01+001603ATOT  "
"76373099999","2010-02-01T12:00:00","4","25.35","-105.75","1967.0","TEPEHUANES DGO., MX","FM-12","99999","V020","999,9,C,0000,1","22000,1,9,N","001000,1,N,1","+0010,1","+0000,1","10137,1","24,0000,9,1",,,,"00,1,+99999,9,99,9",,,"00,99,1,00,1,00,1,99999,9,00,1,00,1","0582,9","09,9","999,-0014,9","120,N,-0010,1","240,M,+0214,1","99999,9,08177,1","9,9,999,9,+008,1",,"SYN106AAXX  01121 76373 32910 00000 10010 20000 38177 40137 5//// 91145 333 10214 21010 31014 55097 58008 70000;","Q01  00002PRCP24"
"76373099999","2010-02-01T15:00:00","4","25.35","-105.75","1967.0","TEPEHUANES DGO., MX","FM-12","99999","V020","999,9,C,0000,1","22000,1,9,N","030000,1,N,1","+0010,1","+0000,1","10170,1",,,,,"00,1,+99999,9,99,9",,,"00,99,1,00,1,00,1,99999,9,00,1,00,1",,"01,9",,,,"99999,9,08181,1","2,1,004,1,+006,1",,"SYN082AAXX  01151 76373 32980 00000 10010 20000 38181 40170 52004 91450 333 30/// 58006;",
"76373099999","2010-02-01T18:00:00","4","25.35","-105.75","1967.0","TEPEHUANES DGO., MX","FM-12","99999","V020","130,1,N,0010,1","22000,1,9,N","030000,1,N,1","+9999,9","+0008,1","99999,9",,,,,"00,1,+99999,9,99,9",,,"00,99,1,00,1,00,1,99999,9,00,1,00,1",,"01,9",,"120,M,+0220,1","240,N,-0010,1","99999,9,08178,1","7,1,003,1,+016,1",,"SYN094AAXX  01181 76373 32980 01301 10156 20008 38178 40103 57003 91750 333 10220 21010 30/// 58016;","Q01+001563ATOT  "
"76373099999","2010-02-02T00:00:00","4","25.35","-105.75","1967.0","TEPEHUANES DGO., MX","FM-12","99999","V020","220,1,N,0040,1","22000,1,9,N","070000,1,N,1","+0180,1","-0062,1","10062,1","24,0000,9,1",,,,"01,1,+99999,9,08,1",,,"01,99,1,01,1,02,1,01250,1,00,1,00,1",,"01,9",,"120,M,+0230,1","180,N,-0010,1","99999,9,08148,1","2,1,009,1,-004,1",,"SYN117AAXX  02001 76373 32688 12204 10180 21062 38148 40062 52009 81200 92350 333 10230 21010 30/// 50341 59004 70000 8182;",
"76373099999","2010-02-02T03:00:00","4","25.35","-105.75","1967.0","TEPEHUANES DGO., MX","FM-12","99999","V020","300,1,N,0010,1","22000,1,9,N","001000,1,N,1","+0102,1","-0050,1","10056,1",,,,,"01,1,+00720,1,08,1",,,"01,99,1,01,1,02,1,01250,1,00,1,00,1",,"01,9",,,,"99999,9,08161,1","2,1,013,1,+999,9",,"SYN094AAXX  02031 76373 32610 13001 10102 21050 38161 40056 52013 81200 90250 333 30/// 58/// 81824;",
"76373099999","2010-02-02T12:00:00","4","25.35","-105.75","1967.0","TEPEHUANES DGO., MX","FM-12","99999","V020","050,1,N,0010,1","00750,1,9,N","001000,1,N,1","+0033,1","-0012,1","10123,1","24,0000,9,1",,,,,,,"07,99,1,07,1,07,1,00800,1,00,1,00,1","0564,9","09,9","999,-0008,9","120,N,+0010,1","240,M,+0230,1","99999,9,08161,1","9,9,999,9,-016,1",,"SYN124AAXX  02121 76373 32510 70501 10033 21012 38161 40123 5//// 87700 91150 333 10230 20010 31008 55094 21594 59016 70000 87720;",
"76373099999","2010-02-02T15:00:00","4","25.35","-105.75","1967.0","TEPEHUANES DGO., MX","FM-12","99999","V020","310,1,N,0010,1","00600,1,9,N","070000,1,N,1","+0047,1","-0003,1","10151,1",,,,,"08,1,+00600,1,07,1",,,"08,99,1,08,1,07,1,00800,1,00,1,00,1",,"01,9",,,,"99999,9,08170,1","2,1,009,1,-011,1",,"SYN094AAXX  02151 76373 32588 83101 10047 21003 38170 40151 52009 88700 91450 333 30/// 59011 88720;",
"76373099999","2010-02-02T18:00:00","4","25.35","-105.75","1967.0","TEPEHUANES DGO., MX","FM-12","99999","V020","999,9,C,0000,1","00600,1,9,N","070000,1,N,1","+0113,1","-0014,1","10138,1",,,,,"08,1,+00600,1,07,1",,,"08,99,1,08,1,07,1,00800,1,00,1,00,1",,"01,9",,"120,M,+0122,1","240,N,+0010,1","99999,9,08162,1","8,1,008,1,-016,1",,"SYN106AAXX  02181 76373 32588 80000 10113 21014 38162 40138 58008 88700 91750 333 10122 20010 30/// 59016 88720;",
"76373099999","2010-02-02T21:00:00","4","25.35","-105.75","1967.0","TEPEHUANES DGO., MX","FM-12","99999","V020","130,1,N,0020,1","00600,1,9,N","070000,1,N,1","+0136,1","+0066,1","10077,1",,,,,"08,1,+00600,1,07,1",,,"08,99,1,08,1,07,1,00800,1,00,1,00,1",,"01,9",,,,"99999,9,08128,1","7,1,034,1,-011,1",,"SYN094AAXX  02211 76373 32588 81302 10136 20066 38128 40077 57034 88700 92050 333 30/// 59011 88720;",
"76373099999","2010-02-03T00:00:00","4","25.35","-105.75","1967.0","TEPEHUANES DGO., MX","FM-12","99999","V020","120,1,N,0010,1","00600,1,9,N","070000,1,N,1","+0107,1","+0077,1","10053,1","24,0000,9,1",,,,"08,1,+00600,1,07,1",,,"08,99,1,08,1,07,1,00800,1,00,1,00,1",,"01,9",,"120,M,+0178,1","180,N,+0010,1","99999,9,08121,1","8,1,007,1,-027,1",,"SYN118AAXX  03001 76373 32588 81201 10107 20077 38121 40053 58007 88700 92350 333 10178 20010 30/// 50191 59027 70000 88720;",
"76373099999","2010-02-03T03:00:00","4","25.35","-105.75","1967.0","TEPEHUANES DGO., MX","FM-12","99999","V020","120,1,N,0020,1","00600,1,9,N","001000,1,N,1","+0090,1","+0079,1","10040,1","03,0030,9,1",,"5,1,03,1","2,1,03,1","08,1,+00600,1,09,1",,,"08,99,1,08,1,09,1,00800,1,00,1,00,1",,"09,9",,,,"99999,9,08120,1","6,1,001,1,-041,1","53,1","SYN106AAXX  03031 76373 21510 81202 10090 20079 38120 40040 56001 75352 88900 90250 333 31/// 59041 60037 88920;",
"76373099999","2010-02-03T15:00:00","4","25.35","-105.75","1967.0","TEPEHUANES DGO., MX","FM-12","99999","V020","999,9,C,0000,1","03600,1,C,N","070000,1,N,1","+0055,1","+0054,1","10083,1","03,0020,9,1",,"5,1,03,1","2,1,03,1","04,1,+00600,1,06,1",,,"05,99,1,04,1,04,1,00800,1,07,1,00,1",,"09,9",,,,"99999,9,08120,1","2,1,021,1,-050,1","01,1","SYN112AAXX  03151 76373 21588 50000 10055 20054 38120 40083 52021 70152 84470 91450 333 31/// 59050 60027 84620 81256;",
"76373099999","2010-02-03T18:00:00","4","25.35","-105.75","1967.0","TEPEHUANES DGO., MX","FM-12","99999","V020","220,1,N,0050,1","22000,1,9,N","070000,1,N,1","+0129,1","+0023,1","10075,1",,,,,"03,1,+00600,1,06,1",,,"04,99,1,04,1,04,1,01250,1,00,1,00,1",,"01,9",,"120,M,+0142,1","240,N,+0024,1","99999,9,08120,1","8,1,001,1,-042,1",,"SYN112AAXX  03181 76373 32688 42205 10129 20023 38120 40075 58001 84400 91750 333 10142 20024 30/// 59042 83620 81822;",
"76373099999","2010-02-03T21:00:00","4","25.35","-105.75","1967.0","TEPEHUANES DGO., MX","FM-12","99999","V020","220,1,N,0050,1","22000,1,9,N","070000,1,N,1","+0145,1","+0023,1","10043,1",,,,,"02,1,+00720,1,06,1","01,1,+00720,1,08,1",,"04,99,1,02,1,99,9,01250,1,05,1,00,1",,,,,,"99999,9,08106,1","7,1,014,1,-022,1",,"SYN106AAXX  03211 76373 32688 42205 10145 20023 38106 40043 57014 82050 83402 333 30/// 59022 82624 81824 81067;","Q01+000002SCOLCG"
"76373099999","2010-02-04T00:00:00","4","25.35","-105.75","1967.0","TEPEHUANES DGO., MX","FM-12","99999","V020","300,1,N,0030,1","01200,1,C,N","070000,1,N,1","+0094,1","+0025,1","10044,1","24,0194,9,1",,,,"03,1,+00600,1,06,1",,,"05,99,1,05,1,04,1,01250,1,00,1,00,1",,"01,9",,"120,M,+0160,1","180,N,+0024,1","99999,9,08117,1","3,1,011,1,-004,1",,"SYN124AAXX  04001 76373 32688 53003 10094 20025 38117 40044 53011 85400 92350 333 10160 20024 30/// 50241 59004 70194 83620 82820;",
"76373099999","2010-02-04T03:00:00","4","25.35","-105.75","1967.0","TEPEHUANES DGO., MX","FM-12","99999","V020","310,1,N,0010,1","00600,1,9,N","001000,1,N,1","+0073,1","+0034,1","10056,1",,,,,"07,1,+00600,1,07,1",,,"07,99,1,07,1,07,1,00800,1,00,1,00,1",,"01,9",,,,"99999,9,08132,1","2,1,015,1,+012,1",,"SYN094AAXX  04031 76373 32510 73101 10073 20034 38132 40056 52015 87700 90250 333 30/// 58012 87720;",
"76373099999","2010-02-04T12:00:00","4","25.35","-105.75","1967.0","TEPEHUANES DGO., MX","FM-12","99999","V020","250,1,N,0010,1","22000,1,9,N","001000,1,N,1","+0004,1","-0006,1","10112,1","24,0000,9,1",,,,,,,"01,99,1,00,1,00,1,99999,9,00,1,04,1","0450,9","09,9","999,-0031,9","120,N,-0010,1","240,M,+0160,1","99999,9,08136,1","9,9,999,9,+037,1",,"SYN124AAXX  04121 76373 32910 12501 10004 21006 38136 40112 5//// 80004 91150 333 10160 21010 31031 55075 21506 58037 70000 81067;",
"76373099999","2010-02-04T18:00:00","4","25.35","-105.75","1967.0","TEPEHUANES DGO., MX","FM-12","99999","V020","290,1,N,0030,1","22000,1,9,N","030000,1,N,1","+0110,1","-0015,1","10141,1",,,,,"03,1,+00600,1,06,1",,,"03,99,1,03,1,03,1,00800,1,00,1,00,1",,"01,9",,"120,M,+0150,1","240,N,-0010,1","99999,9,08152,1","0,1,004,1,+032,1",,"SYN112AAXX  04181 76373 32580 32903 10110 21015 38152 40141 50004 83300 91755 333 10150 21010 30/// 56900 58032 83620;",
"76373099999","2010-02-04T21:00:00","4","25.35","-105.75","1967.0","TEPEHUANES DGO., MX","FM-12","99999","V020","320,1,N,0040,1","00750,1,9,N","030000,1,N,1","+0140,1","-0026,1","10093,1",,,,,"02,1,+00750,1,06,1",,,"06,99,1,06,1,06,1,00800,1,00,1,00,1",,"01,9",,,,"99999,9,08130,1","7,1,022,1,+036,1",,"SYN106AAXX  04211 76373 32580 63204 10140 21026 38130 40093 57022 86600 92055 333 30/// 56900 58036 82625 84820;",
"76373099999","2010-02-05T00:00:00","4","25.35","-105.75","1967.0","TEPEHUANES DGO., MX","FM-12","99999","V020","290,1,N,0030,1","00750,1,9,N","030000,1,N,1","+0126,1","-0019,1","10082,1","24,0000,9,1",,,,"04,1,+00600,1,08,1",,,"07,99,1,07,1,07,1,00800,1,00,1,00,1",,"01,9",,"120,M,+0174,1","180,N,-0010,1","99999,9,08141,1","5,1,011,1,+024,1",,"SYN130AAXX  05001 76373 32580 72903 10126 21019 38141 40082 55011 87700 92355 333 10174 21010 30/// 50211 56900 58024 70000 84820 82626;",
"76373099999","2010-02-05T03:00:00","4","25.35","-105.75","1967.0","TEPEHUANES DGO., MX","FM-12","99999","V020","290,1,N,0010,1","22000,1,9,N","001000,1,N,1","+0072,1","+0006,1","10107,1",,,,,"03,1,+00600,1,06,1",,,"03,99,1,03,1,03,1,00800,1,00,1,00,1",,"01,9",,,,"99999,9,08172,1","2,1,031,1,+041,1",,"SYN100AAXX  05031 76373 32510 32901 10072 20006 38172 40107 52031 83300 90255 333 30/// 56900 58041 83620;",
"76373099999","2010-02-05T12:00:00","4","25.35","-105.75","1967.0","TEPEHUANES DGO., MX","FM-12","99999","V020","999,9,C,0000,1","22000,1,9,N","001000,1,N,1","-0022,1","-0023,1","10202,1","24,0000,9,5",,,,"00,1,+99999,9,99,9",,,"00,99,1,00,1,00,1,99999,9,00,1,00,1","0552,9","09,9",,"120,N,-0050,1","240,M,+0174,1","99999,9,08205,1","9,9,999,9,+069,1",,"SYN112AAXX  05121 76373 32910 00000 11022 21023 38205 40202 5//// 91155 333 10174 21050 31062 55092 21570 58069 70000;",
"76373099999","2010-02-05T15:00:00","4","25.35","-105.75","1967.0","TEPEHUANES DGO., MX","FM-12","99999","V020","290,1,N,0010,1","22000,1,9,N","030000,1,N,1","-0010,1","-0014,1","10237,1",,,,,"00,1,+99999,9,99,9",,,"00,99,1,00,1,00,1,99999,9,00,1,00,1",,"01,9",,,,"99999,9,08216,1","2,1,011,1,+068,1",,"SYN082AAXX  05151 76373 32980 02901 11010 21014 38216 40237 52011 91455 333 30/// 58068;",
"76373099999","2010-02-05T18:00:00","4","25.35","-105.75","1967.0","TEPEHUANES DGO., MX","FM-12","99999","V020","110,1,N,0010,1","22000,1,9,N","030000,1,N,1","+0108,1","-0009,1","10229,1",,,,,"00,1,+99999,9,99,9",,,"00,99,1,00,1,00,1,99999,9,00,1,00,1",,"01,9",,"120,M,+0120,1","240,N,-0050,1","99999,9,08213,1","5,1,003,1,+061,1",,"SYN094AAXX  05181 76373 32980 01101 10108 21009 38213 40229 55003 91755 333 10120 21050 30/// 58061;",
"76373099999","2010-02-05T21:00:00","4","25.35","-105.75","1967.0","TEPEHUANES DGO., MX","FM-12","99999","V020","110,1,N,0010,1","22000,1,9,N","030000,1,N,1","+0192,1","-0057,1","10157,1",,,,,"00,1,+99999,9,99,9",,,"00,99,1,00,1,00,1,99999,9,00,1,00,1",,"01,9",,,,"99999,9,08178,1","7,1,035,1,+038,1",,"SYN082AAXX  05211 76373 32980 01101 10192 21057 38178 40157 57035 92055 333 30/// 58038;",
"76373099999","2010-02-06T00:00:00","4","25.35","-105.75","1967.0","TEPEHUANES DGO., MX","FM-12","99999","V020","250,1,N,0030,1","22000,1,9,N","030000,1,N,1","+0198,1","-0089,1","10106,2","24,0000,9,1",,,,"00,1,+99999,9,99,9",,,"00,99,1,00,1,00,1,99999,9,00,1,00,1",,"01,9",,"120,M,+0234,1","180,N,-0050,1","99999,9,08169,1","7,1,009,1,+028,1",,"SYN106AAXX  06001 76373 32980 02503 10198 21089 38169 40106 57009 92355 333 10234 21050 30/// 50241 58028 70000;","Q01  00002PRCP24"
"76373099999","2010-02-06T03:00:00","4","25.35","-105.75","1967.0","TEPEHUANES DGO., MX","FM-12","99999","V020","999,9,C,0000,1","22000,1,9,N","001000,1,N,1","+0102,1","-0050,1","10107,1",,,,,"00,1,+99999,9,99,9",,,"00,99,1,00,1,00,1,99999,9,00,1,00,1",,"01,9",,,,"99999,9,08192,1","2,1,023,1,+021,1",,"SYN082AAXX  06031 76373 32910 00000 10102 21050 38192 40107 52023 90255 333 30/// 58021;",
"76373099999","2010-02-06T12:00:00","4","25.35","-105.75","1967.0","TEPEHUANES DGO., MX","FM-12","99999","V020","999,9,C,0000,1","22000,1,9,N","001000,1,N,1","-0027,1","-0045,1","10177,1","24,0000,9,5",,,,"00,1,+99999,9,99,9",,,"00,99,1,00,1,00,1,99999,9,00,1,00,1","0588,9","09,9",,"120,N,-0060,1","240,M,+0234,1","99999,9,08201,1","9,9,999,9,-004,1",,"SYN112AAXX  06121 76373 32910 00000 11027 21045 38201 40177 5//// 91155 333 10234 21060 31068 55098 22174 59004 70000;",
"76373099999","2010-02-06T15:00:00","4","25.35","-105.75","1967.0","TEPEHUANES DGO., MX","FM-12","99999","V020","999,9,C,0000,1","22000,1,9,N","030000,1,N,1","+0111,1","-0034,1","10223,1",,,,,"00,1,+99999,9,99,9",,,"00,99,1,00,1,00,1,99999,9,00,1,00,1",,"01,9",,,,"99999,9,08214,1","2,1,013,1,-002,1",,"SYN082AAXX  06151 76373 32980 00000 10111 21034 38214 40223 52013 91455 333 30/// 59002;",
"76373099999","2010-02-06T18:00:00","4","25.35","-105.75","1967.0","TEPEHUANES DGO., MX","FM-12","99999","V020","110,1,N,0010,1","22000,1,9,N","030000,1,N,1","+0128,1","-0041,1","10208,1",,,,,"02,1,+05100,1,00,1",,,"02,99,1,00,1,00,1,99999,9,00,1,02,1",,"01,9",,"120,M,+0140,1","240,N,-0060,1","99999,9,08204,1","7,1,011,1,-009,1",,"SYN112AAXX  06181 76373 32980 21101 10128 21041 38204 40208 57011 82002 91755 333 10140 21060 30/// 56009 59009 82067;","Q01+000022SCOTLC"
"76373099999","2010-02-06T21:00:00","4","25.35","-105.75","1967.0","TEPEHUANES DGO., MX","FM-12","99999","V020","110,1,N,0010,1","00750,1,C,N","030000,1,N,1","+0210,1","-0113,1","10135,1",,,,,"03,1,+00900,1,06,1",,,"05,99,1,05,1,04,1,00800,1,00,1,00,1",,"01,9",,,,"99999,9,08166,1","7,1,038,1,-043,1",,"SYN106AAXX  06211 76373 32580 51101 10210 21113 38166 40135 57038 85400 92055 333 30/// 56900 59043 83630 82830;",
"76373099999","2010-02-07T00:00:00","4","25.35","-105.75","1967.0","TEPEHUANES DGO., MX","FM-12","99999","V020","290,1,N,0050,1","03600,1,9,N","030000,1,N,1","+0192,1","+9999,9","10106,1","24,0000,9,1",,,,"04,1,+00900,1,06,1",,,"06,99,1,04,1,04,1,01250,1,07,1,00,1",,"01,9",,"120,M,+0234,1","180,N,-0060,1","99999,9,08174,1","2,1,008,1,+005,1",,"SYN130AAXX  07001 76373 32680 62905 10192 20016 38174 40106 52008 84470 92350 333 10234 21060 30/// 50351 56990 58005 70000 84630 82358;","Q01+000163ATOD  "
"76373099999","2010-02-07T03:00:00","4","25.35","-105.75","1967.0","TEPEHUANES DGO., MX","FM-12","99999","V020","310,1,N,0010,1","22000,1,9,N","001000,1,N,1","+0120,1","-0055,1","10082,1",,,,,"04,1,+00900,1,06,1",,,"04,99,1,04,1,04,1,00800,1,00,1,00,1",,"01,9",,,,"99999,9,08178,1","2,1,004,1,-014,1",,"SYN100AAXX  07031 76373 32510 43101 10120 21055 38178 40082 52004 84400 90245 333 30/// 56900 59014 84630;",
"76373099999","2010-02-07T12:00:00","4","25.35","-105.75","1967.0","TEPEHUANES DGO., MX","FM-12","99999","V020","999,9,C,0000,1","22000,1,9,N","001000,1,N,1","+0012,1","-0030,1","10138,1","24,0000,9,5",,,,"00,1,+99999,9,99,9",,,"00,99,1,00,1,00,1,99999,9,00,1,00,1","0612,9",,,"120,N,-0010,1","240,M,+0160,1","99999,9,08171,1","9,9,999,9,-030,1",,"SYN112AAXX  07121 76373 32910 00000 10012 21030 38171 40138 5//// 91150 333 10160 21010 21016 55102 31852 59030 70000;",
"76373099999","2010-02-07T15:00:00","4","25.35","-105.75","1967.0","TEPEHUANES DGO., MX","FM-12","99999","V020","999,9,C,0000,1","22000,1,9,N","030000,1,N,1","+0002,1","-0008,1","10167,1",,,,,"03,1,+00900,1,06,1",,,"03,99,1,03,1,04,1,01250,1,00,1,00,1",,"01,9",,,,"99999,9,08176,1","2,1,005,1,-038,1",,"SYN100AAXX  07151 76373 32680 30000 10002 21008 38176 40167 52005 83400 91450 333 30/// 56900 59038 83630;",
"76373099999","2010-02-08T12:00:00","4","25.35","-105.75","1967.0","TEPEHUANES DGO., MX","FM-12","99999","V020","999,9,C,0000,1","22000,1,9,N","001000,1,N,1","-0018,1","-0029,1","10111,1","24,0000,9,1",,,,"00,1,+99999,9,99,9",,,"00,99,1,00,1,00,1,99999,9,00,1,00,1","0570,9","09,9","999,-0030,9","120,N,-0026,1","240,M,+0180,1","99999,9,08148,1","9,9,999,9,-023,1",,"SYN106AAXX  08121 76373 32910 00000 11018 21029 38148 40111 5//// 91150 333 10180 21026 31030 55095 59023 70000;","Q01  00002PRCP24"
"76373099999","2010-02-08T21:00:00","4","25.35","-105.75","1967.0","TEPEHUANES DGO., MX","FM-12","99999","V020","250,1,N,0050,1","22000,1,9,N","030000,1,N,1","+0176,1","-0026,1","10173,1",,,,,"03,1,+00900,1,06,1",,,"03,99,1,03,1,04,1,00800,1,00,1,00,1",,"01,9",,,,"99999,9,08200,1","2,1,044,1,+054,1",,"SYN094AAXX  08211 76373 32580 32505 10176 21026 38200 40173 52044 83400 92050 333 30/// 58054 83630;",
"76373099999","2010-02-11T03:00:00","4","25.35","-105.75","1967.0","TEPEHUANES DGO., MX","FM-12","99999","V020","320,1,N,0050,1","00600,1,9,N","001000,1,N,1","+0080,1","+0042,1","10094,1","03,9999,9,9","06,0000,9,1",,,"08,1,+00600,1,07,1",,,"08,99,1,08,1,08,1,00800,1,00,1,00,1",,"01,9",,,,"99999,9,08176,1","9,9,999,9,+000,1",,"SYN112AAXX  11031 76373 01510 83205 10080 20042 38176 40094 5//// 69901 88800 92355 333 30/// 56900 58000 69907 88720;","Q01  00002PRCP06Q02  99992PRCP03"
"76373099999","2010-02-11T21:00:00","4","25.35","-105.75","1967.0","TEPEHUANES DGO., MX","FM-12","99999","V020","290,1,N,0060,1","22000,1,9,N","030000,1,N,1","+0148,1","-0075,1","10073,1",,,,,"01,1,+00750,1,08,1","01,1,+01350,1,03,1",,"04,99,1,04,1,01,1,00800,1,01,1,02,1",,"01,9",,,,"99999,9,08146,1","6,1,018,1,+000,1",,"SYN112AAXX  11211 76373 32580 42906 10148 21075 38146 40073 56018 84112 92055 333 30/// 56999 58000 81825 81345 82067;",
"76373099999","2010-02-12T12:00:00","4","25.35","-105.75","1967.0","TEPEHUANES DGO., MX","FM-12","99999","V020","999,9,C,0000,1","22000,1,9,N","001000,1,N,1","-0034,1","-0040,1","10215,1","24,0000,9,5",,,,"00,1,+99999,9,99,9",,,"00,99,1,00,1,00,1,99999,9,00,1,00,1","0540,9","09,9",,"120,N,-0070,1","240,M,+0166,1","99999,9,08209,1","9,9,999,9,+066,1",,"SYN112AAXX  12121 76373 32910 00000 11034 21040 38209 40215 5//// 91155 333 10166 21070 31082 55090 21610 58066 70000;",
"76373099999","2010-02-12T15:00:00","4","25.35","-105.75","1967.0","TEPEHUANES DGO., MX","FM-12","99999","V020","999,9,C,0000,1","22000,1,9,N","030000,1,N,1","-0010,1","-0039,1","10250,1",,,,,"00,1,+99999,9,99,9",,,"00,99,1,00,1,00,1,99999,9,00,1,00,1",,"01,9",,,,"99999,9,08218,1","2,1,009,1,+061,1",,"SYN082AAXX  12151 76373 32980 00000 11010 21039 38218 40250 52009 91455 333 30/// 58061;",
"76373099999","2010-02-12T18:00:00","4","25.35","-105.75","1967.0","TEPEHUANES DGO., MX","FM-12","99999","V020","110,1,N,0010,1","22000,1,9,N","030000,1,N,1","+0130,1","-0064,1","10217,1",,,,,"00,1,+99999,9,99,9",,,"00,99,1,00,1,00,1,99999,9,00,1,00,1",,"01,9",,"120,M,+0150,1","240,N,-0070,1","99999,9,08202,1","7,1,016,1,+042,1",,"SYN094AAXX  12181 76373 32980 01101 10130 21064 38202 40217 57016 91755 333 10150 21070 30/// 58042;",
"76373099999","2010-02-12T21:00:00","4","25.35","-105.75","1967.0","TEPEHUANES DGO., MX","FM-12","99999","V020","140,1,N,0020,1","22000,1,9,N","030000,1,N,1","+0215,2","-0100,1","99999,9",,,,,"01,1,+05100,1,00,1",,,"01,99,1,00,1,00,1,99999,9,00,1,01,1",,"01,9",,,,"99999,9,08170,1","7,1,032,1,+024,1",,"SYN100AAXX  12211 76373 32980 11402 10215 21100 38170 40142 57032 81001 92055 333 30/// 56009 58024 81067;","Q01+000012SCOTLC"
"76373099999","2010-02-13T00:00:00","4","25.35","-105.75","1967.0","TEPEHUANES DGO., MX","FM-12","99999","V020","140,1,N,0010,1","22000,1,9,N","030000,1,N,1","+0210,1","-0059,1","99999,9","24,0000,9,1",,,,,,,"04,99,1,00,1,00,1,99999,9,00,1,04,1",,"01,9",,"120,M,+0248,1","180,N,-0070,1","99999,9,08157,1","5,1,027,1,-011,1",,"SYN124AAXX  13001 76373 32980 41401 10210 21059 38157 40080 55027 84004 92355 333 10248 21070 30/// 50271 56009 59011 70000 84067;","Q01+000042SCOTLC"
"76373099999","2010-02-13T21:00:00","4","25.35","-105.75","1967.0","TEPEHUANES DGO., MX","FM-12","99999","V020","110,1,N,0020,1","00750,1,C,N","030000,1,N,1","+0214,1","-0026,1","10122,1",,,,,"03,1,+00900,1,06,1",,,"05,99,1,05,1,04,1,00800,1,00,1,00,1",,"01,9",,,,"99999,9,08154,1","7,1,035,1,-016,1",,"SYN106AAXX  13211 76373 32580 51102 10214 21026 38154 40122 57035 85400 92050 333 30/// 56900 59016 83630 82830;",
"76373099999","2010-02-14T00:00:00","4","25.35","-105.75","1967.0","TEPEHUANES DGO., MX","FM-12","99999","V020","220,1,N,0040,1","00750,1,9,N","030000,1,N,1","+0198,1","-0014,1","10076,1","24,0000,9,1",,,,"03,1,+00900,1,06,1",,,"05,99,1,05,1,04,1,00800,1,00,1,00,1",,"01,9",,"120,M,+0210,1",,"99999,9,08151,1","7,1,003,1,-008,1",,"SYN130AAXX  14001 76373 32580 52204 10198 21014 38151 40076 57003 85400 92340 333 10210 2//// 30/// 50321 56900 59008 70000 83630 82830;",
"76373099999","2010-02-14T12:00:00","4","25.35","-105.75","1967.0","TEPEHUANES DGO., MX","FM-12","99999","V020","999,9,C,0000,1","22000,1,9,N","001000,1,N,1","+0060,1","+0014,1","10118,1","24,0000,9,1",,,,"00,1,+99999,9,99,9",,,"00,99,1,00,1,00,1,99999,9,00,1,00,1",,"01,9","999,+0018,9","120,N,+0020,1","240,M,+0234,1","99999,9,08176,1",,,"SYN100AAXX  14121 76373 32910 00000 10060 20014 38176 40118 5//// 91155 333 10234 20020 30018 58/// 70000;","Q01  00002PRCP24"
"76373099999","2010-02-14T18:00:00","4","25.35","-105.75","1967.0","TEPEHUANES DGO., MX","FM-12","99999","V020","050,1,N,0010,1","22000,1,9,N","030000,1,N,1","+0188,1","-0019,1","10137,1",,,,,"00,1,+99999,9,99,9",,,"00,99,1,00,1,00,1,99999,9,00,1,00,1",,"01,9",,"120,M,+0202,1","240,N,+0020,1","99999,9,08179,1","7,1,005,1,-010,1",,"SYN094AAXX  14181 76373 32980 00501 10188 21019 38179 40137 57005 91750 333 10202 20020 30/// 59010;",
"76373099999","2010-02-14T21:00:00","4","25.35","-105.75","1967.0","TEPEHUANES DGO., MX","FM-12","99999","V020","290,1,N,0030,1","22000,1,9,N","030000,1,N,1","+0232,1","-0122,1","10063,1",,,,,"00,1,+99999,9,99,9",,,"00,99,1,00,1,00,1,99999,9,00,1,00,1",,"01,9",,,,"99999,9,08145,1","7,1,034,1,-009,1",,"SYN082AAXX  14211 76373 32980 02903 10232 21122 38145 40063 57034 92050 333 30/// 59009;",
"76373099999","2010-02-15T00:00:00","4","25.35","-105.75","1967.0","TEPEHUANES DGO., MX","FM-12","99999","V020","290,1,N,0040,1","22000,1,9,N","030000,1,N,1","+0210,1","-0105,1","10031,1","24,0000,9,1",,,,,,,"01,99,1,01,1,04,1,00800,1,00,1,00,1",,"01,9",,"120,M,+0250,1","180,N,+0020,1","99999,9,08143,1","7,1,002,1,+008,1",,"SYN124AAXX  15001 76373 32580 12904 10210 21105 38143 40031 57002 81400 92355 333 10250 20020 30/// 50461 56900 58008 70000 81630;",
"76373099999","2010-02-15T21:00:00","4","25.35","-105.75","1967.0","TEPEHUANES DGO., MX","FM-12","99999","V020","070,1,N,0010,1","22000,1,9,N","030000,1,N,1","+0210,1","-0023,1","10118,1",,,,,"00,1,+99999,9,99,9",,,"00,99,1,00,1,00,1,99999,9,00,1,00,1",,"01,9",,,,"99999,9,08164,1","7,1,038,1,+019,1",,"SYN082AAXX  15211 76373 32980 00701 10210 21023 38164 40118 57038 92050 333 30/// 58019;",
"76373099999","2010-02-19T03:00:00","4","25.35","-105.75","1967.0","TEPEHUANES DGO., MX","FM-12","99999","V020","230,1,N,0010,1","00750,1,9,N","001000,1,N,1","+0080,1","+0069,1","10101,1",,,,,"03,1,+00600,1,09,1",,,"06,99,1,06,1,06,1,00800,1,00,1,00,1",,"01,9",,,,"99999,9,08172,1","2,1,023,1,+001,1",,"SYN106AAXX  19031 76373 32510 62301 10080 20069 38172 40101 52023 86600 90255 333 30/// 56900 58001 83920 83725;",
"76373099999","2010-02-19T21:00:00","4","25.35","-105.75","1967.0","TEPEHUANES DGO., MX","FM-12","99999","V020","160,1,N,0010,1","22000,1,9,N","030000,1,N,1","+0208,1","-0026,1","10115,1",,,,,"01,1,+05100,1,00,1",,,"01,99,1,00,1,00,1,99999,9,00,1,01,1",,"01,9",,,,"99999,9,08161,1","7,1,037,1,+011,1",,"SYN100AAXX  19211 76373 32980 11601 10208 21026 38161 40115 57037 81001 92055 333 30/// 56009 58011 81067;","Q01+000012SCOTLC"
"76373099999","2010-02-20T00:00:00","4","25.35","-105.75","1967.0","TEPEHUANES DGO., MX","FM-12","99999","V020","250,1,N,0030,1","22000,1,9,N","030000,1,N,1","+0180,1","+0013,1","10081,1","24,0010,9,1",,,,,,,"01,99,1,01,1,01,1,00800,1,00,1,00,1",,"01,9",,"120,M,+0232,1","180,N,-0030,1","99999,9,08162,1","5,1,001,1,+013,1",,"SYN124AAXX  20001 76373 32580 12503 10180 20013 38162 40081 55001 81100 92355 333 10232 21030 30/// 50401 56900 58013 70010 81825;",
"76373099999","2010-02-20T03:00:00","4","25.35","-105.75","1967.0","TEPEHUANES DGO., MX","FM-12","99999","V020","250,1,N,0010,1","22000,1,9,N","001000,1,N,1","+0108,1","+0034,1","10088,1",,,,,"00,1,+99999,9,99,9",,,"00,99,1,00,1,00,1,99999,9,00,1,00,1",,"01,9",,,,"99999,9,08185,1","2,1,023,1,+013,1",,"SYN082AAXX  20031 76373 32910 02501 10108 20034 38185 40088 52023 90255 333 30/// 58013;",
"76373099999","2010-02-20T12:00:00","4","25.35","-105.75","1967.0","TEPEHUANES DGO., MX","FM-12","99999","V020","999,9,C,0000,1","22000,1,9,N","001000,1,N,1","+0002,1","-0001,1","10152,1","24,0000,9,1",,,,,,,"01,99,1,00,1,00,1,99999,9,00,1,01,1","0558,9","09,9","999,-0040,9","120,N,-0032,1","240,M,+0232,1","99999,9,08182,1","9,9,999,9,-011,1",,"SYN130AAXX  20121 76373 32910 10000 10002 21001 38182 40152 5//// 81001 91155 333 10232 21032 31040 55093 20293 56009 59011 70000 81067;","Q01+000012SCOTLC"
"76373099999","2010-02-20T18:00:00","4","25.35","-105.75","1967.0","TEPEHUANES DGO., MX","FM-12","99999","V020","999,9,C,0000,1","22000,1,9,N","030000,1,N,1","+0160,1","+0004,1","10162,1",,,,,"00,1,+99999,9,99,9",,,"00,99,1,00,1,00,1,99999,9,00,1,00,1",,"01,9",,"120,M,+0236,1","240,N,-0032,1","99999,9,08182,1","7,1,018,1,-016,1",,"SYN094AAXX  20181 76373 32980 00000 10160 20004 38182 40162 57018 91750 333 10236 21032 30/// 59016;",
"76373099999","2010-02-20T21:00:00","4","25.35","-105.75","1967.0","TEPEHUANES DGO., MX","FM-12","99999","V020","230,1,N,0040,1","22000,1,9,N","030000,1,N,1","+0210,1","-0042,1","10105,1",,,,,"00,1,+99999,9,99,9",,,"00,99,1,00,1,00,1,99999,9,00,1,00,1",,"01,9",,,,"99999,9,08157,1","7,1,025,1,-004,1",,"SYN082AAXX  20211 76373 32980 02304 10210 21042 38157 40105 57025 92045 333 30/// 59004;",
"76373099999","2010-02-21T00:00:00","4","25.35","-105.75","1967.0","TEPEHUANES DGO., MX","FM-12","99999","V020","290,1,N,0040,1","22000,1,9,N","030000,1,N,1","+0172,1","+9999,9","10081,1","24,0000,9,1",,,,,,,"02,99,1,02,1,02,1,00800,1,00,1,00,1",,"01,9",,"120,M,+0236,1","180,N,-0032,1","99999,9,08163,1","2,1,006,1,+000,1",,"SYN118AAXX  21001 76373 32580 22904 10172 38163 40081 52006 82200 92350 333 10236 21032 30/// 50461 56900 58000 70000 82828;",
"76373099999","2010-02-21T15:00:00","4","25.35","-105.75","1967.0","TEPEHUANES DGO., MX","FM-12","99999","V020","999,9,C,0000,1","22000,1,9,N","030000,1,N,1","+0018,1","-0004,1","10193,1",,,,,"00,1,+99999,9,99,9",,,"00,99,1,00,1,00,1,99999,9,00,1,00,1",,"01,9",,,,"99999,9,08196,1","2,1,016,1,-004,1",,"SYN082AAXX  21151 76373 32980 00000 10018 21004 38196 40193 52016 91450 333 30/// 59004;",
"76373099999","2010-02-21T18:00:00","4","25.35","-105.75","1967.0","TEPEHUANES DGO., MX","FM-12","99999","V020","290,1,N,0020,1","22000,1,9,N","030000,1,N,1","+0174,1","-0031,1","10156,1",,,,,"02,1,+00840,1,06,1",,,"02,99,1,02,1,04,1,00800,1,00,1,00,1",,"01,9",,"120,M,+0194,1","240,N,-0020,1","99999,9,08174,1","7,1,022,1,-008,1",,"SYN112AAXX  21181 76373 32580 22902 10174 21031 38174 40156 57022 82400 91750 333 10194 21020 30/// 56900 59008 82628;",
"76373099999","2010-02-21T21:00:00","4","25.35","-105.75","1967.0","TEPEHUANES DGO., MX","FM-12","99999","V020","290,1,N,0070,1","22000,1,9,N","030000,1,N,1","+0202,1","-0076,1","10092,1",,,,,"02,1,+00840,1,06,1",,,"03,99,1,03,1,04,1,00800,1,07,1,00,1",,"01,9",,,,"99999,9,08145,1","7,1,029,1,-012,1",,"SYN106AAXX  21211 76373 32580 32907 10202 21076 38145 40092 57029 83470 92050 333 30/// 56990 59012 82628 81358;",
"76373099999","2010-02-22T00:00:00","4","25.35","-105.75","1967.0","TEPEHUANES DGO., MX","FM-12","99999","V020","240,1,N,0030,1","22000,1,9,N","030000,1,N,1","+0174,1","-0018,1","10075,1","24,0000,9,1",,,,"01,1,+00840,1,06,1",,,"03,99,1,03,1,04,1,00800,1,07,1,00,1",,"01,9",,"120,M,+0222,1","180,N,-0020,1","99999,9,08157,1","2,1,009,1,-006,1",,"SYN130AAXX  22001 76373 32580 32403 10174 21018 38157 40075 52009 83470 92350 333 10222 21020 30/// 50441 56900 59006 70000 81628 82358;",
"76373099999","2010-02-22T21:00:00","4","25.35","-105.75","1967.0","TEPEHUANES DGO., MX","FM-12","99999","V020","250,1,N,0040,1","22000,1,9,N","030000,1,N,1","+0220,1","-0119,1","10078,1",,,,,"02,1,+00840,1,06,1",,,"03,99,1,02,1,04,1,00800,1,07,1,00,1",,"01,9",,,,"99999,9,08132,1","7,1,029,1,-013,1",,"SYN106AAXX  22211 76373 32580 32504 10220 21119 38132 40078 57029 82470 92050 333 30/// 56990 59013 82628 81258;",
"76373099999","2010-02-24T00:00:00","4","25.35","-105.75","1967.0","TEPEHUANES DGO., MX","FM-12","99999","V020","290,1,N,0030,1","22000,1,9,N","030000,1,N,1","+0178,1","-0047,1","10135,1","24,0000,9,1",,,,,,,"01,99,1,01,1,01,1,00800,1,00,1,00,1",,"01,9",,"120,M,+0232,1","180,N,-0020,1","99999,9,08208,1","1,1,008,1,+000,1",,"SYN124AAXX  24001 76373 32580 12903 10178 21047 38208 40135 51008 81100 92355 333 10232 21020 30/// 50411 56900 58000 70000 81820;",
"76373099999","2010-02-24T03:00:00","4","25.35","-105.75","1967.0","TEPEHUANES DGO., MX","FM-12","99999","V020","320,1,N,0050,1","22000,1,9,N","001000,1,N,1","+0090,1","-0016,1","10082,1",,,,,"01,1,+00600,1,08,1",,,"01,99,1,01,1,01,1,00800,1,00,1,00,1",,"01,9",,,,"99999,9,08184,1","5,1,024,1,+000,1",,"SYN100AAXX  24031 76373 32510 13205 10090 21016 38184 40082 55024 81100 90255 333 30/// 56900 58000 81820;",
"76373099999","2010-02-24T21:00:00","4","25.35","-105.75","1967.0","TEPEHUANES DGO., MX","FM-12","99999","V020","110,1,N,0020,1","22000,1,9,N","030000,1,N,1","+0150,1","-0153,1","10213,1",,,,,"00,1,+99999,9,99,9",,,"00,99,1,00,1,00,1,99999,9,00,1,00,1",,"01,9",,,,"99999,9,08211,1","6,1,015,1,+011,1",,"SYN082AAXX  24211 76373 32980 01102 10150 21153 38211 40213 56015 92055 333 30/// 58011;",
"76373099999","2010-02-25T00:00:00","4","25.35","-105.75","1967.0","TEPEHUANES DGO., MX","FM-12","99999","V020","140,1,N,0020,1","22000,1,9,N","030000,1,N,1","+0152,1","-0109,1","10163,1","24,0000,9,1",,,,"00,1,+99999,9,99,9",,,"00,99,1,00,1,00,1,99999,9,00,1,00,1",,"01,9",,"120,M,+0174,1","180,N,-0070,1","99999,9,08196,1","7,1,015,1,-012,1",,"SYN106AAXX  25001 76373 32980 01402 10152 21109 38196 40163 57015 92355 333 10174 21070 30/// 50501 59012 70000;","Q01  00002PRCP24"
"76373099999","2010-02-25T15:00:00","4","25.35","-105.75","1967.0","TEPEHUANES DGO., MX","FM-12","99999","V020","999,9,C,0000,1","22000,1,9,N","030000,1,N,1","+0004,1","-0064,1","10234,1",,,,,"00,1,+99999,9,99,9",,,"00,99,1,00,1,00,1,99999,9,00,1,00,1",,"01,9",,,,"99999,9,08208,1","1,1,007,1,-048,1",,"SYN082AAXX  25151 76373 32980 00000 10004 21064 38208 40234 51007 91455 333 30/// 59048;",
"76373099999","2010-02-25T18:00:00","4","25.35","-105.75","1967.0","TEPEHUANES DGO., MX","FM-12","99999","V020","340,1,N,0010,1","22000,1,9,N","030000,1,N,1","+9999,9","-0038,1","10200,1",,,,,"00,1,+99999,9,99,9",,,"00,99,1,00,1,00,1,99999,9,00,1,00,1",,"01,9",,"120,M,+0190,1","240,N,-0070,1","99999,9,08194,1","7,1,014,1,-052,1",,"SYN094AAXX  25181 76373 32980 03401 10180 21038 38194 40200 57014 91755 333 10190 21070 30/// 59052;","Q01+001803ATOT  "
"76373099999","2010-02-25T21:00:00","4","25.35","-105.75","1967.0","TEPEHUANES DGO., MX","FM-12","99999","V020","290,1,N,0060,1","22000,1,9,N","030000,1,N,1","+0230,2","-0099,1","10129,1",,,,,"00,1,+99999,9,99,9",,,"00,99,1,00,1,00,1,99999,9,00,1,00,1",,"01,9",,,,"99999,9,08168,1","7,1,034,1,-057,1",,"SYN082AAXX  25211 76373 32980 02906 10230 21099 38168 40129 57034 92055 333 30/// 59057;",
"76373099999","2010-02-26T00:00:00","4","25.35","-105.75","1967.0","TEPEHUANES DGO., MX","FM-12","99999","V020","290,1,N,0060,1","22000,1,9,N","030000,1,N,1","+0200,1","-0064,1","99999,9","24,0000,9,1",,,,"00,1,+99999,9,99,9",,,"00,99,1,00,1,00,1,99999,9,00,1,00,1",,"01,9",,"120,M,+0240,1","180,N,-0070,1","99999,9,08158,1","7,1,011,1,-042,1",,"SYN106AAXX  26001 76373 32980 02906 10200 21064 38158 40072 57011 92355 333 10240 21070 30/// 50481 59042 70000;","Q01+100723APOSLPQ02  00002PRCP24"
"76373099999","2010-02-26T03:00:00","4","25.35","-105.75","1967.0","TEPEHUANES DGO., MX","FM-12","99999","V020","250,1,N,0030,1","22000,1,9,N","001000,1,N,1","+0128,1","-0035,1","10068,1",,,,,"00,1,+99999,9,99,9",,,"00,99,1,00,1,00,1,99999,9,00,1,00,1",,"01,9",,,,"99999,9,08181,1","2,1,037,1,-026,1",,"SYN082AAXX  26031 76373 32910 02503 10128 21035 38181 40068 52037 90255 333 30/// 59026;",
"76373099999","2010-02-26T15:00:00","4","25.35","-105.75","1967.0","TEPEHUANES DGO., MX","FM-12","99999","V020","320,1,N,0010,1","22000,1,9,N","030000,1,N,1","+0028,1","-0031,1","10198,1",,,,,"00,1,+99999,9,99,9",,,"00,99,1,00,1,00,1,99999,9,00,1,00,1",,"01,9",,,,"99999,9,08212,1","3,1,006,1,+004,1",,"SYN082AAXX  26151 76373 32980 03201 10028 21031 38212 40198 53006 91455 333 30/// 58004;",
"76373099999","2010-02-26T18:00:00","4","25.35","-105.75","1967.0","TEPEHUANES DGO., MX","FM-12","99999","V020","110,1,N,0010,1","22000,1,9,N","030000,1,N,1","+0166,1","-0056,1","10186,1",,,,,"00,1,+99999,9,99,9",,,"00,99,1,00,1,00,1,99999,9,00,1,00,1",,"01,9",,"120,M,+0240,1","240,N,-0030,1","99999,9,08206,1","6,1,006,1,+012,1",,"SYN094AAXX  26181 76373 32980 01101 10166 21056 38206 40186 56006 91755 333 10240 21030 30/// 58012;",
"76373099999","2010-02-26T21:00:00","4","25.35","-105.75","1967.0","TEPEHUANES DGO., MX","FM-12","99999","V020","140,1,N,0020,1","22000,1,9,N","030000,1,N,1","+0222,2","-0074,1","99999,9",,,,,"00,1,+99999,9,99,9",,,"00,99,1,00,1,00,1,99999,9,00,1,00,1",,"01,9",,,,"99999,9,08174,1","7,1,032,1,+004,1",,"SYN082AAXX  26211 76373 32980 01402 10222 21074 38174 40121 57032 92055 333 30/// 58004;","Q01+101213APOSLP"
"76373099999","2010-02-27T00:00:00","4","25.35","-105.75","1967.0","TEPEHUANES DGO., MX","FM-12","99999","V020","140,1,N,0040,1","22000,1,9,N","030000,1,N,1","+0206,1","-0073,1","10085,1","24,0000,9,1",,,,"00,1,+99999,9,99,9",,,"00,99,1,00,1,00,1,99999,9,00,1,00,1",,"01,9",,"120,M,+0250,1","180,N,-0030,1","99999,9,08173,1","5,1,001,1,+015,1",,"SYN106AAXX  27001 76373 32980 01404 10206 21073 38173 40085 55001 92355 333 10250 21030 30/// 50361 58015 70000;","Q01  00002PRCP24"
"76373099999","2010-02-27T03:00:00","4","25.35","-105.75","1967.0","TEPEHUANES DGO., MX","FM-12","99999","V020","290,1,N,0010,1","22000,1,9,N","001000,1,N,1","+0140,1","-0058,1","10083,1",,,,,"00,1,+99999,9,99,9",,,"00,99,1,00,1,00,1,99999,9,00,1,00,1",,"01,9",,,,"99999,9,08195,1","2,1,023,1,+014,1",,"SYN082AAXX  27031 76373 32910 02901 10140 21058 38195 40083 52023 90255 333 30/// 58014;",
"76373099999","2010-02-27T18:00:00","4","25.35","-105.75","1967.0","TEPEHUANES DGO., MX","FM-12","99999","V020","140,1,N,0010,1","22000,1,9,N","030000,1,N,1","+0160,1","-0055,1","10200,1",,,,,"00,1,+99999,9,99,9",,,"00,99,1,00,1,00,1,99999,9,00,1,00,1",,"01,9",,"120,M,+0182,1","240,N,-0040,1","99999,9,08211,1","7,1,015,1,+005,1",,"SYN094AAXX  27181 76373 32980 01401 10160 21055 38211 40200 57015 91755 333 10182 21040 30/// 58005;",
"76373099999","2010-02-28T00:00:00","4","25.35","-105.75","1967.0","TEPEHUANES DGO., MX","FM-12","99999","V020","230,1,N,0030,1","22000,1,9,N","030000,1,N,1","+0283,1","-0031,1","99999,9","24,0000,9,1",,,,"00,1,+99999,9,99,9",,,"00,99,1,00,1,00,1,99999,9,00,1,00,1",,"01,9",,"120,M,+0290,1","180,N,-0040,1","99999,9,08160,1","7,1,016,1,-013,1",,"SYN106AAXX  28001 76373 32980 02303 10283 21031 38160 40068 57016 92355 333 10290 21040 30/// 50571 59013 70000;","Q01+100683APOSLPQ02  00002PRCP24"
"76373099999","2010-02-28T15:00:00","4","25.35","-105.75","1967.0","TEPEHUANES DGO., MX","FM-12","99999","V020","320,1,N,0010,1","05100,1,9,N","030000,1,N,1","+0098,1","+0003,1","10138,1",,,,,"06,1,+05100,1,00,1",,,"06,99,1,00,1,00,1,99999,9,00,1,06,1",,"01,9",,,,"99999,9,08171,1","2,1,013,1,-055,1",,"SYN094AAXX  28151 76373 32980 63201 10098 20003 38171 40138 52013 86006 91455 333 30/// 59055 86067;","Q01+000062SCOTLC"
"76373099999","2010-02-28T18:00:00","4","25.35","-105.75","1967.0","TEPEHUANES DGO., MX","FM-12","99999","V020","230,1,N,0070,1","22000,1,9,N","030000,1,N,1","+0204,1","-0088,1","10104,1",,,,,"03,1,+05100,1,00,1",,,"03,99,1,00,1,00,1,99999,9,00,1,03,1",,"01,9",,"120,M,+0220,1","240,N,+0010,1","99999,9,08154,1","7,1,023,1,-063,1",,"SYN112AAXX  28181 76373 32980 32307 10204 21088 38154 40104 57023 83003 91755 333 10220 20010 30/// 56009 59063 83067;","Q01+000032SCOTLC"
"76373099999","2010-02-28T21:00:00","4","25.35","-105.75","1967.0","TEPEHUANES DGO., MX","FM-12","99999","V020","250,1,N,0070,1","22000,1,9,N","030000,1,N,1","+0208,1","-0023,1","10056,1",,,,,"02,1,+05100,1,00,1",,,"02,99,1,00,1,00,1,99999,9,00,1,02,1",,"01,9",,,,"99999,9,08138,1","7,1,024,1,-060,1",,"SYN094AAXX  28211 76373 32980 22507 10208 21023 38138 40056 57024 82002 92055 333 30/// 59060 82067;",
"76373099999","2010-03-01T00:00:00","4","25.35","-105.75","1967.0","TEPEHUANES DGO., MX","FM-12","99999","V020","250,1,N,0060,1","22000,1,9,N","030000,1,N,1","+0170,1","-0006,1","10048,1","24,0000,9,1",,,,"01,1,+00600,1,08,1",,,"03,99,1,03,1,01,1,00800,1,00,1,02,1",,"01,9",,"120,M,+0230,1","180,N,+0010,1","99999,9,08154,1","2,1,020,1,-006,1",,"SYN130AAXX  01001 76373 32580 32506 10170 21006 38154 40048 52020 83102 92355 333 10230 20010 30/// 50611 56909 59006 70000 81820 82067;",
"76373099999","2010-03-01T18:00:00","4","25.35","-105.75","1967.0","TEPEHUANES DGO., MX","FM-12","99999","V020","310,1,N,0030,1","22000,1,9,N","030000,1,N,1","+0218,1","-0028,1","10140,1",,,,,"00,1,+99999,9,99,9",,,"00,99,1,00,1,00,1,99999,9,00,1,00,1",,"01,9",,"120,M,+0240,1",,"99999,9,08181,1","9,9,999,9,+027,1",,"SYN094AAXX  01181 76373 32980 03103 10218 21028 38181 40140 5//// 91750 333 10240 2//// 30/// 58027;",
"76373099999","2010-03-01T21:00:00","4","25.35","-105.75","1967.0","TEPEHUANES DGO., MX","FM-12","99999","V020","300,1,N,0030,1","22000,1,9,N","030000,1,N,1","+0228,1","-0025,1","99999,9",,,,,"00,1,+99999,9,99,9",,,"00,99,1,00,1,00,1,99999,9,00,1,00,1",,"01,9",,,,"99999,9,08152,1","2,1,029,1,+014,1",,"SYN082AAXX  01211 76373 32980 03003 10228 21025 38152 40076 52029 92040 333 30/// 58014;","Q01+100763APOSLP"
"76373099999","2010-03-02T15:00:00","4","25.35","-105.75","1967.0","TEPEHUANES DGO., MX","FM-12","99999","V020","999,9,C,0000,1","22000,1,9,N","030000,1,N,1","+0024,1","-0024,1","10212,1",,,,,"00,1,+99999,9,99,9",,,"00,99,1,00,1,00,1,99999,9,00,1,00,1",,"01,9",,,,"99999,9,08219,1",,,"SYN082AAXX  02151 76373 32980 00000 10024 21024 38219 40212 5//// 91450 333 30/// 58///;",
"76373099999","2010-03-02T18:00:00","4","25.35","-105.75","1967.0","TEPEHUANES DGO., MX","FM-12","99999","V020","110,1,N,0040,1","22000,1,9,N","030000,1,N,1","+9999,9","-0037,1","10177,1",,,,,"00,1,+99999,9,99,9",,,"00,99,1,00,1,00,1,99999,9,00,1,00,1",,"01,9",,,,"99999,9,08190,1","7,1,029,1,+009,1",,"SYN082AAXX  02181 76373 32980 01104 10152 21037 38190 40177 57029 91750 333 30/// 58009;","Q01+001523ATOT  "
"76373099999","2010-03-04T18:00:00","4","25.35","-105.75","1967.0","TEPEHUANES DGO., MX","FM-12","99999","V020","140,1,N,0010,1","22000,1,9,N","030000,1,N,1","+0212,1","-0003,1","99999,9",,,,,"00,1,+99999,9,99,9",,,"00,99,1,00,1,00,1,99999,9,00,1,00,1",,,,"120,M,+0230,1","240,N,-0024,1",,,,"SYN095AAXX  04181 76373 32980 01401 10212 210031 38205 40181 52005 91745 333 10230 21024 30/// 58019;",
"76373099999","2010-03-05T12:00:00","4","25.35","-105.75","1967.0","TEPEHUANES DGO., MX","FM-12","99999","V020","999,9,C,0000,1","22000,1,9,N","001000,1,N,1","+0050,1","+0003,1","10139,1","24,0000,9,1",,,,"00,1,+99999,9,99,9",,,"00,99,1,00,1,00,1,99999,9,00,1,00,1",,"01,9",,"120,N,+0030,1","240,M,+0218,1","99999,9,08195,1",,,"SYN100AAXX  05121 76373 32910 00000 10050 20003 38195 40139 5//// 91150 333 10218 20030 30/// 59/// 70000;","Q01  00002PRCP24"
"76373099999","2010-03-05T15:00:00","4","25.35","-105.75","1967.0","TEPEHUANES DGO., MX","FM-12","99999","V020","999,9,C,0000,1","01200,1,C,N","030000,1,N,1","+0072,1","-0010,1","10158,1",,,,,"03,1,+00900,1,06,1",,,"05,99,1,05,1,04,1,01250,1,00,1,00,1",,"01,9",,,,"99999,9,08194,1","7,1,001,1,-006,1",,"SYN106AAXX  05151 76373 32680 50000 10072 21010 38194 40158 57001 85400 91450 333 30/// 56900 59006 83630 82830;",
"76373099999","2010-03-05T18:00:00","4","25.35","-105.75","1967.0","TEPEHUANES DGO., MX","FM-12","99999","V020","250,1,N,0020,1","01200,1,C,N","030000,1,N,1","+0220,1","-0016,1","10134,1",,,,,"04,1,+00900,1,06,1",,,"06,99,1,06,1,04,1,01250,1,00,1,00,1",,"01,9",,"120,M,+0240,1","240,N,+0030,1","99999,9,08183,1","7,1,011,1,-022,1",,"SYN118AAXX  05181 76373 32680 62502 10220 21016 38183 40134 57011 86400 91745 333 10240 20030 30/// 56900 59022 84630 82830;",
"76373099999","2010-03-05T21:00:00","4","25.35","-105.75","1967.0","TEPEHUANES DGO., MX","FM-12","99999","V020","250,1,N,0040,1","01200,1,C,N","030000,1,N,1","+0244,2","+0010,1","10082,1",,,,,"04,1,+00900,1,06,1",,,"06,99,1,06,1,04,1,01250,1,00,1,00,1",,"01,9",,,,"99999,9,08164,1","7,1,019,1,+999,9",,"SYN106AAXX  05211 76373 32680 62504 10244 20010 38164 40082 57019 86400 92045 333 30/// 56900 58/// 84630 82830;",
"76373099999","2010-03-06T00:00:00","4","25.35","-105.75","1967.0","TEPEHUANES DGO., MX","FM-12","99999","V020","220,1,N,0030,1","01200,1,9,N","030000,1,N,1","+0216,1","+0023,1","10059,1","24,0000,9,1",,,,"03,1,+00900,1,06,1",,,"05,99,1,05,1,04,1,01250,1,00,1,00,1",,"01,9",,"120,M,+0260,1","180,N,+0030,1","99999,9,08169,1","2,1,005,1,+999,9",,"SYN130AAXX  06001 76373 32680 52203 10216 20023 38169 40059 52005 85400 92350 333 10260 20030 30/// 5//// 56900 58/// 70000 83630 82830;",
"76373099999","2010-03-06T03:00:00","4","25.35","-105.75","1967.0","TEPEHUANES DGO., MX","FM-12","99999","V020","999,9,C,0000,1","22000,1,9,N","030000,1,N,1","+0154,1","+0011,1","10055,1",,,,,"03,1,+00900,1,06,1",,,"03,99,1,03,1,04,1,01250,1,00,1,00,1",,"01,9",,,,"99999,9,08182,1","2,1,013,1,+999,9",,"SYN100AAXX  06031 76373 32680 30000 10154 20011 38182 40055 52013 83400 90250 333 30/// 56900 58/// 83630;",
"76373099999","2010-03-06T15:00:00","4","25.35","-105.75","1967.0","TEPEHUANES DGO., MX","FM-12","99999","V020","310,1,N,0010,1","22000,1,9,N","030000,1,N,1","+0070,1","-0013,1","10171,1",,,,,"02,1,+00900,1,06,1",,,"02,99,1,02,1,04,1,01250,1,00,1,00,1",,"01,9",,,,"99999,9,08196,1","9,9,999,9,+002,1",,"SYN100AAXX  06151 76373 32680 23101 10070 21013 38196 40171 5//// 82400 91450 333 30/// 56900 58002 82630;",
"76373099999","2010-03-06T18:00:00","4","25.35","-105.75","1967.0","TEPEHUANES DGO., MX","FM-12","99999","V020","290,1,N,0030,1","22000,1,9,N","030000,1,N,1","+0220,2","+0008,1","10169,1",,,,,"03,1,+00900,1,06,1",,,"04,99,1,04,1,04,1,01250,1,00,1,00,1",,"01,9",,"120,M,+0234,1","240,N,+0010,1","99999,9,08205,1","2,1,009,1,+022,1",,"SYN118AAXX  06181 76373 32680 42903 10220 20008 38205 40169 52009 84400 91750 333 10234 20010 30/// 56900 58022 83630 81830;",
"76373099999","2010-03-06T21:00:00","4","25.35","-105.75","1967.0","TEPEHUANES DGO., MX","FM-12","99999","V020","290,1,N,0050,1","01200,1,C,N","030000,1,N,1","+0210,1","+0019,1","10122,1",,,,,"04,1,+00900,1,06,1",,,"06,99,1,06,1,04,1,01250,1,00,1,00,1",,"01,9",,,,"99999,9,08190,1","7,1,015,1,+026,1",,"SYN106AAXX  06211 76373 32680 62905 10210 20019 38190 40122 57015 86400 92050 333 30/// 56900 58026 84630 82830;",
"76373099999","2010-03-07T00:00:00","4","25.35","-105.75","1967.0","TEPEHUANES DGO., MX","FM-12","99999","V020","310,1,N,0040,1","00900,1,C,N","030000,1,N,1","+0148,1","+0060,1","10117,1","24,0000,9,1",,,,"06,1,+00900,1,07,1",,,"08,99,1,08,1,07,1,01250,1,00,1,00,1",,"01,9",,"120,M,+0240,1","180,N,+0010,1","99999,9,08206,1","2,1,016,1,+037,1",,"SYN130AAXX  07001 76373 32680 83104 10148 20060 38206 40117 52016 88700 92350 333 10240 20010 30/// 50341 56900 58037 70000 86730 82630;",
"76373099999","2010-03-07T03:00:00","4","25.35","-105.75","1967.0","TEPEHUANES DGO., MX","FM-12","99999","V020","340,1,N,0010,1","00840,1,9,N","001000,1,N,1","+0098,1","+0086,1","10146,1","03,0040,9,1",,"5,1,03,1","2,1,03,1","08,1,+00840,1,07,1",,,"08,99,1,08,1,07,1,00800,1,99,9,99,9",,"09,9",,,,"99999,9,08238,1","2,1,032,1,+056,1","51,1","SYN112AAXX  07031 76373 21510 83401 10098 20086 38238 40146 52032 75152 887// 90250 333 31/// 569// 58056 60047 88728;",
"76373099999","2010-03-07T15:00:00","4","25.35","-105.75","1967.0","TEPEHUANES DGO., MX","FM-12","99999","V020","999,9,C,0000,1","01200,1,C,N","030000,1,N,1","+0110,1","+0075,1","10152,1",,,,,"04,1,+00900,1,06,1",,,"06,99,1,06,1,04,1,01250,1,00,1,00,1",,"01,9",,,,"99999,9,08192,1","9,9,999,9,-004,1",,"SYN106AAXX  07151 76373 32680 60000 10110 20075 38192 40152 5//// 86400 91445 333 30/// 56900 59004 84630 82830;",
"76373099999","2010-03-07T18:00:00","4","25.35","-105.75","1967.0","TEPEHUANES DGO., MX","FM-12","99999","V020","300,1,N,0030,1","01200,1,C,N","030000,1,N,1","+0180,1","+0024,1","10145,1",,,,,"04,1,+00900,1,06,1",,,"06,99,1,06,1,04,1,01250,1,00,1,00,1",,"01,9",,"120,M,+0194,1","240,N,+0056,1","99999,9,08195,1","2,1,003,1,-010,1",,"SYN118AAXX  07181 76373 32680 63003 10180 20024 38195 40145 52003 86400 91750 333 10194 20056 30/// 56900 59010 84630 82830;",
"76373099999","2010-03-07T21:00:00","4","25.35","-105.75","1967.0","TEPEHUANES DGO., MX","FM-12","99999","V020","240,1,N,0030,1","00900,1,C,N","030000,1,N,1","+0180,1","+0096,1","10108,1","03,9999,9,9",,,,"05,1,+00900,1,07,1",,,"07,99,1,07,1,07,1,00800,1,00,1,00,1",,"11,9",,,,"99999,9,08184,1","7,1,011,1,+999,9",,"SYN113AAXX  07211 76373 21580 72403 10180 20096 38184 40108 57011 87700 92045 333 32/// 56900 569006 69907 85730 82630;","Q01  99992PRCP03"
"76373099999","2010-03-08T00:00:00","4","25.35","-105.75","1967.0","TEPEHUANES DGO., MX","FM-12","99999","V020","310,1,N,0010,1","99999,9,9,N","030000,1,N,1","+0140,1","+0114,1","10116,1","06,9999,9,9",,"5,1,06,1","2,1,06,1",,,,"07,99,1,99,9,99,9,00800,1,99,9,99,9",,,,,,"99999,9,08204,1","2,1,020,1,+999,9","50,1","SYN072AAXX  08001 76373 01580 73101 10140 20114 38204 40116 52020 69901 75052;","Q01  00002PRCP06Q02  00002PRCP06"
"76373099999","2010-03-08T15:00:00","4","25.35","-105.75","1967.0","TEPEHUANES DGO., MX","FM-12","99999","V020","310,1,N,0010,1","22000,1,9,N","030000,1,N,1","+0094,1","+0057,1","10172,1",,,,,"04,1,+00900,1,06,1",,,"04,99,1,04,1,04,1,01250,1,00,1,00,1",,"01,9",,,,"99999,9,08206,1","2,1,009,1,+014,1",,"SYN100AAXX  08151 76373 32680 43101 10094 20057 38206 40172 52009 84400 91450 333 30/// 56900 58014 84630;",
"76373099999","2010-03-08T18:00:00","4","25.35","-105.75","1967.0","TEPEHUANES DGO., MX","FM-12","99999","V020","250,1,N,0040,1","22000,1,9,N","030000,1,N,1","+0188,1","-0003,1","10145,1",,,,,"03,1,+00900,1,06,1",,,"04,99,1,04,1,04,1,01250,1,00,1,00,1",,"01,9",,"120,M,+0204,1","240,N,+0040,1","99999,9,08194,1","7,1,012,1,-001,1",,"SYN118AAXX  08181 76373 32680 42504 10188 21003 38194 40145 57012 84400 91750 333 10204 20040 30/// 56900 59001 83630 81830;",
"76373099999","2010-03-08T21:00:00","4","25.35","-105.75","1967.0","TEPEHUANES DGO., MX","FM-12","99999","V020","290,1,N,0060,1","22000,1,9,N","030000,1,N,1","+0210,1","-0059,1","10107,1",,,,,"02,1,+00900,1,08,1",,,"02,99,1,02,1,01,1,01250,1,00,1,00,1",,"01,9",,,,"99999,9,08186,1","7,1,008,1,+002,1",,"SYN100AAXX  08211 76373 32680 22906 10210 21059 38186 40107 57008 82100 92050 333 30/// 56900 58002 82830;",
"76373099999","2010-03-09T12:00:00","4","25.35","-105.75","1967.0","TEPEHUANES DGO., MX","FM-12","99999","V020","999,9,C,0000,1","22000,1,9,N","001000,1,N,1","+0018,1","+0003,1","10142,1","24,0000,9,5",,,,"00,1,+99999,9,99,9",,,"00,99,1,00,1,00,1,99999,9,00,1,00,1","0630,9","09,9","999,-0020,9","120,N,-0010,1","240,M,+0234,1","99999,9,08177,1","9,9,999,9,-020,1",,"SYN112AAXX  09121 76373 32910 00000 10018 20003 38177 40142 5//// 91150 333 10234 21010 31020 55105 22319 59020 70000;",
"76373099999","2010-03-09T18:00:00","4","25.35","-105.75","1967.0","TEPEHUANES DGO., MX","FM-12","99999","V020","210,1,N,0030,1","22000,1,9,N","070000,1,N,1","+0198,1","-0083,1","10135,1",,,,,"01,1,+00810,1,08,1",,,"02,99,1,01,1,01,1,00800,1,00,1,04,1",,"01,9",,"120,M,+0210,1","240,N,-0010,1","99999,9,08163,1","7,1,020,1,-027,1",,"SYN112AAXX  09181 76373 32588 22103 10198 21083 38163 40135 57020 81104 91750 333 10210 21010 30/// 59027 81827 81067;",
"76373099999","2010-03-09T21:00:00","4","25.35","-105.75","1967.0","TEPEHUANES DGO., MX","FM-12","99999","V020","250,1,N,0050,1","22000,1,9,N","070000,1,N,1","+0221,1","-0115,1","10088,1",,,,,"01,1,+00720,1,06,1",,,"02,99,1,01,1,04,1,00800,1,00,1,04,1",,"01,9",,,,"99999,9,08154,1","7,1,013,1,-032,1",,"SYN100AAXX  09211 76373 32588 22505 10221 21115 38154 40088 57013 81404 92050 333 30/// 59032 81624 81067;",
"76373099999","2010-03-10T00:00:00","4","25.35","-105.75","1967.0","TEPEHUANES DGO., MX","FM-12","99999","V020","280,1,N,0070,1","22000,1,9,N","070000,1,N,1","+0181,1","-0090,1","10054,1","24,0000,9,1",,,,,,,"01,99,1,01,1,02,1,00800,1,00,1,00,1",,,,"120,M,+0232,1","180,N,-0010,1","99999,9,08152,1","6,1,002,1,-020,1",,"SYN118AAXX  10001 76373 32588 12807 10181 21090 38152 40054 56002 81200 82350 333 10232 21010 30/// 50551 59020 70000 81827;",
"76373099999","2010-03-10T03:00:00","4","25.35","-105.75","1967.0","TEPEHUANES DGO., MX","FM-12","99999","V020","230,1,N,0010,1","22000,1,9,N","001000,1,N,1","+0112,1","-0056,1","10047,1",,,,,"01,1,+00810,1,08,1",,,"01,99,1,01,1,02,1,00800,1,00,1,00,1",,"01,9",,,,"99999,9,08164,1","2,1,012,1,-020,1",,"SYN094AAXX  10031 76373 32510 12301 10112 21056 38164 40047 52012 81200 90250 333 30/// 59020 81827;",
"76373099999","2010-03-10T15:00:00","4","25.35","-105.75","1967.0","TEPEHUANES DGO., MX","FM-12","99999","V020","999,9,C,0000,1","22000,1,9,N","070000,1,N,1","+0039,1","-0028,1","10150,1",,,,,"01,1,+00750,1,06,1",,,"01,99,1,01,1,04,1,00800,1,00,1,00,1",,"01,9",,,,"99999,9,08158,1","2,1,010,1,-019,1",,"SYN094AAXX  10151 76373 32588 10000 10039 21028 38158 40150 52010 81400 91450 333 30/// 59019 81625;",
"76373099999","2010-03-10T18:00:00","4","25.35","-105.75","1967.0","TEPEHUANES DGO., MX","FM-12","99999","V020","280,1,N,0060,1","22000,1,9,N","070000,1,N,1","+9999,9","+9999,9","10129,1",,,,,"01,1,+00750,1,08,1",,,"04,99,1,01,1,02,1,00800,1,00,1,04,1",,"01,9",,"120,M,+0230,1","240,N,-0035,1","99999,9,08151,1","7,1,007,1,-016,1",,"SYN106AAXX  10181 76373 32588 42806 21127 38151 40129 57007 81204 91750 333 10230 21035 30/// 59016 81825 83067;",
"76373099999","2010-03-10T21:00:00","4","25.35","-105.75","1967.0","TEPEHUANES DGO., MX","FM-12","99999","V020","260,1,N,0060,1","22000,1,9,N","070000,1,N,1","+0194,1","-0103,1","10075,1",,,,,"02,1,+00600,1,06,1","01,1,+00750,1,08,1",,"04,99,1,02,1,99,9,00800,1,05,1,00,1",,,,,,"99999,9,08132,1","7,1,019,1,-022,1",,"SYN106AAXX  10211 76373 32588 42606 10194 21103 38132 40075 57019 82050 83402 333 30/// 59022 82620 81825 81067;","Q01+000002SCOLCG"
"76373099999","2010-03-11T00:00:00","4","25.35","-105.75","1967.0","TEPEHUANES DGO., MX","FM-12","99999","V020","240,1,N,0060,1","22000,1,9,N","070000,1,N,1","+0168,1","-0087,1","10031,1","24,0000,9,1",,,,"01,1,+00750,1,08,1",,,"02,99,1,01,1,02,1,00800,1,00,1,02,1",,"01,9",,"120,M,+0232,1","180,N,-0035,1","99999,9,08126,1","5,1,006,1,-026,1",,"SYN124AAXX  11001 76373 32588 22406 10168 21087 38126 40031 55006 81202 92350 333 10232 21035 30/// 50591 59026 70000 81825 81067;",
"76373099999","2010-03-11T03:00:00","4","25.35","-105.75","1967.0","TEPEHUANES DGO., MX","FM-12","99999","V020","250,1,N,0010,1","22000,1,9,N","001000,1,N,1","+0096,1","-0066,1","10033,1",,,,,"01,1,+00750,1,08,1",,,"03,99,1,03,1,01,1,00800,1,00,1,02,1",,"01,9",,,,"99999,9,08144,1","2,1,024,1,-021,1",,"SYN106AAXX  11031 76373 32510 32501 10096 21066 38144 40033 52024 83102 90255 333 30/// 56909 59021 81825 82067;",
"76373099999","2010-03-12T00:00:00","4","25.35","-105.75","1967.0","TEPEHUANES DGO., MX","FM-12","99999","V020","290,1,N,0070,1","22000,1,9,N","030000,1,N,1","+0180,1","-0088,1","10032,1","24,0000,9,1",,,,,,,"01,99,1,00,1,00,1,99999,9,00,1,01,1",,"01,9",,"120,M,+0210,1","180,N,+0004,1","99999,9,08130,1","2,1,017,1,+004,1",,"SYN124AAXX  12001 76373 32980 12907 10180 21088 38130 40032 52017 81001 92355 333 10210 20004 30/// 50541 56009 58004 70000 81067;","Q01+000012SCOTLC"
"76373099999","2010-03-12T03:00:00","4","25.35","-105.75","1967.0","TEPEHUANES DGO., MX","FM-12","99999","V020","290,1,N,0010,1","22000,1,9,N","001000,1,N,1","+0102,1","-0030,1","10052,1",,,,,"00,1,+99999,9,99,9",,,"00,99,1,00,1,00,1,99999,9,00,1,00,1",,"01,9",,,,"99999,9,08160,1","2,1,031,1,+024,1",,"SYN082AAXX  12031 76373 32910 02901 10102 21030 38160 40052 52031 90255 333 30/// 58024;",
"76373099999","2010-03-12T18:00:00","4","25.35","-105.75","1967.0","TEPEHUANES DGO., MX","FM-12","99999","V020","110,1,N,0010,1","22000,1,9,N","030000,1,N,1","+0140,1","-0099,1","10206,1",,,,,"00,1,+99999,9,99,9",,,"00,99,1,00,1,00,1,99999,9,00,1,00,1",,"01,9",,"120,M,+0160,1","240,N,-0050,1","99999,9,08208,1","7,1,015,1,+059,1",,"SYN094AAXX  12181 76373 32980 01101 10140 21099 38208 40206 57015 91755 333 10160 21050 30/// 58059;",
"76373099999","2010-03-12T21:00:00","4","25.35","-105.75","1967.0","TEPEHUANES DGO., MX","FM-12","99999","V020","110,1,N,0010,1","22000,1,9,N","030000,1,N,1","+0190,1","-0106,1","10135,1",,,,,"00,1,+99999,9,99,9",,,"00,99,1,00,1,00,1,99999,9,00,1,00,1",,"01,9",,,,"99999,9,08171,1","7,1,037,1,+056,1",,"SYN082AAXX  12211 76373 32980 01101 10190 21106 38171 40135 57037 92055 333 30/// 58056;",
"76373099999","2010-03-13T00:00:00","4","25.35","-105.75","1967.0","TEPEHUANES DGO., MX","FM-12","99999","V020","140,1,N,0050,1","22000,1,9,N","030000,1,N,1","+0198,1","-0078,1","10082,2","24,0000,9,1",,,,"00,1,+99999,9,99,9",,,"00,99,1,00,1,00,1,99999,9,00,1,00,1",,"01,9",,"120,M,+0232,1","180,N,-0050,1","99999,9,08158,1","5,1,013,1,+028,1",,"SYN106AAXX  13001 76373 32980 01405 10198 21078 38158 40082 55013 92355 333 10232 21050 30/// 50411 58028 70000;","Q01  00002PRCP24"
"76373099999","2010-03-13T18:00:00","4","25.35","-105.75","1967.0","TEPEHUANES DGO., MX","FM-12","99999","V020","140,1,N,0010,1","22000,1,9,N","030000,1,N,1","+0176,1","-0098,1","10157,1",,,,,"01,1,+00900,1,08,1",,,"01,99,1,01,1,01,1,01250,1,00,1,00,1",,"01,9",,"120,M,+0194,1","240,N,-0060,1","99999,9,08175,1","2,1,003,1,-033,1",,"SYN112AAXX  13181 76373 32680 11401 10176 21098 38175 40157 52003 81100 91750 333 10194 21060 30/// 56900 59033 81830;",
"76373099999","2010-03-14T03:00:00","4","25.35","-105.75","1967.0","TEPEHUANES DGO., MX","FM-12","99999","V020","310,1,N,0010,1","22000,1,9,N","001000,1,N,1","+0154,1","-0016,1","10018,1",,,,,"00,1,+99999,9,99,9",,,"00,99,1,00,1,00,1,99999,9,00,1,00,1",,"01,9",,,,"99999,9,08148,1","2,1,023,1,-031,1",,"SYN082AAXX  14031 76373 32910 03101 10154 21016 38148 40018 52023 90240 333 30/// 59031;",
"76373099999","2010-03-14T15:00:00","4","25.35","-105.75","1967.0","TEPEHUANES DGO., MX","FM-12","99999","V020","999,9,C,0000,1","22000,1,9,N","030000,1,N,1","+0058,1","-0010,1","10180,1",,,,,"00,1,+99999,9,99,9",,,"00,99,1,00,1,00,1,99999,9,00,1,00,1",,"01,9",,,,"99999,9,08186,1","9,9,999,9,-006,1",,"SYN082AAXX  14151 76373 32980 00000 10058 21010 38186 40180 5//// 91450 333 30/// 59006;",
"76373099999","2010-03-14T18:00:00","4","25.35","-105.75","1967.0","TEPEHUANES DGO., MX","FM-12","99999","V020","160,1,N,0010,1","00900,1,9,N","030000,1,N,1","+0172,1","-0106,1","10168,1",,,,,"06,1,+00900,1,07,1",,,"06,99,1,06,1,06,1,01250,1,00,1,00,1",,"01,9",,"120,M,+0184,1","240,N,-0020,1","99999,9,08178,1","2,1,008,1,-017,1",,"SYN112AAXX  14181 76373 32680 61601 10172 21106 38178 40168 52008 86600 91750 333 10184 21020 30/// 56900 59017 86730;",
"76373099999","2010-03-14T21:00:00","4","25.35","-105.75","1967.0","TEPEHUANES DGO., MX","FM-12","99999","V020","220,1,N,0030,1","22000,1,9,N","030000,1,N,1","+0250,2","-0138,1","10094,1",,,,,"00,1,+99999,9,99,9",,,"00,99,1,00,1,00,1,99999,9,00,1,00,1",,"01,9",,,,"99999,9,08154,1","7,1,024,1,-050,1",,"SYN082AAXX  14211 76373 32980 02203 10250 21138 38154 40094 57024 92050 333 30/// 59050;",
"76373099999","2010-03-15T00:00:00","4","25.35","-105.75","1967.0","TEPEHUANES DGO., MX","FM-12","99999","V020","240,1,N,0040,1","22000,1,9,N","030000,1,N,1","+0218,1","-0141,1","10043,2","24,0000,9,1",,,,"00,1,+99999,9,99,9",,,"00,99,1,00,1,00,1,99999,9,00,1,00,1",,"01,9",,"120,M,+0264,1","180,N,-0020,1","99999,9,08149,1","7,1,005,1,+024,1",,"SYN106AAXX  15001 76373 32980 02404 10218 21141 38149 40043 57005 92350 333 10264 21020 30/// 50861 58024 70000;","Q01  00002PRCP24"
"76373099999","2010-03-15T12:00:00","4","25.35","-105.75","1967.0","TEPEHUANES DGO., MX","FM-12","99999","V020","999,9,C,0000,1","22000,1,9,N","001000,1,N,1","+0028,1","-0038,1","10156,1","24,0000,9,1",,,,"00,1,+99999,9,99,9",,,"00,99,1,00,1,00,1,99999,9,00,1,00,1","0600,9","09,9","999,-0014,9","120,N,-0010,1","240,M,+0220,1","99999,9,08192,1",,,"SYN106AAXX  15121 76373 32910 00000 10028 21038 38192 40156 5//// 91150 333 10220 21010 31014 55100 58/// 70000;","Q01  00002PRCP24"
"76373099999","2010-03-15T15:00:00","4","25.35","-105.75","1967.0","TEPEHUANES DGO., MX","FM-12","99999","V020","999,9,C,0000,1","22000,1,9,N","030000,1,N,1","+0048,1","-0033,1","10200,1",,,,,"00,1,+99999,9,99,9",,,"00,99,1,00,1,00,1,99999,9,00,1,00,1",,"01,9",,,,"99999,9,08203,1","2,1,011,1,+017,1",,"SYN082AAXX  15151 76373 32980 00000 10048 21033 38203 40200 52011 91450 333 30/// 58017;",
"76373099999","2010-03-16T12:00:00","4","25.35","-105.75","1967.0","TEPEHUANES DGO., MX","FM-12","99999","V020","999,9,C,0000,1","22000,1,9,N","001000,1,N,1","+0034,1","-0010,1","10206,1","24,0000,9,1",,,,,,,"01,99,1,01,1,02,1,00800,1,00,1,00,1","0612,9","01,9","999,+0008,9","120,N,+0020,1","240,M,+0270,1","99999,9,08249,1","9,9,999,9,+057,1",,"SYN124AAXX  16121 76373 32510 10000 10034 21010 38249 40206 5//// 81200 91150 333 10270 20020 30008 55102 21973 58057 70000 81825;",
"76373099999","2010-03-16T21:00:00","4","25.35","-105.75","1967.0","TEPEHUANES DGO., MX","FM-12","99999","V020","140,1,N,0060,1","22000,1,9,N","070000,1,N,1","+0178,1","-0029,1","10208,1",,,,,"00,1,+99999,9,99,9",,,"00,99,1,00,1,00,1,99999,9,00,1,00,1",,"01,9",,,,"99999,9,08232,1","7,1,026,1,+033,1",,"SYN082AAXX  16211 76373 32988 01406 10178 21029 38232 40208 57026 92050 333 30/// 58033;",
"76373099999","2010-03-17T00:00:00","4","25.35","-105.75","1967.0","TEPEHUANES DGO., MX","FM-12","99999","V020","150,1,N,0040,1","22000,1,9,N","070000,1,N,1","+0175,1","-0042,1","10154,1","24,0000,9,1",,,,"00,1,+99999,9,99,9",,,"00,99,1,00,1,00,1,99999,9,00,1,00,1",,"01,9",,"120,M,+0198,1","180,N,+0020,1","99999,9,08224,1","7,1,008,1,+050,1",,"SYN106AAXX  17001 76373 32988 01504 10175 21042 38224 40154 57008 92350 333 10198 20020 30/// 50501 58050 70000;","Q01  00002PRCP24"
"76373099999","2010-03-17T03:00:00","4","25.35","-105.75","1967.0","TEPEHUANES DGO., MX","FM-12","99999","V020","280,1,N,0020,1","22000,1,9,N","001000,1,N,1","+0110,1","-0061,1","10168,1",,,,,"00,1,+99999,9,99,9",,,"00,99,1,00,1,00,1,99999,9,00,1,00,1",,"01,9",,,,"99999,9,08247,1","2,1,023,1,+045,1",,"SYN082AAXX  17031 76373 32910 02802 10110 21061 38247 40168 52023 90250 333 30/// 58045;",
"76373099999","2010-03-17T15:00:00","4","25.35","-105.75","1967.0","TEPEHUANES DGO., MX","FM-12","99999","V020","999,9,C,0000,1","22000,1,9,N","070000,1,N,1","+0047,1","-0038,1","10283,1",,,,,"00,1,+99999,9,99,9",,,"00,99,1,00,1,00,1,99999,9,00,1,00,1",,"01,9",,,,"99999,9,08264,1","2,1,009,1,-004,1",,"SYN082AAXX  17151 76373 32988 00000 10047 21038 38264 40283 52009 91450 333 30/// 59004;",
"76373099999","2010-03-17T18:00:00","4","25.35","-105.75","1967.0","TEPEHUANES DGO., MX","FM-12","99999","V020","130,1,N,0020,1","22000,1,9,N","070000,1,N,1","+9999,9","-0047,1","10262,1",,,,,"00,1,+99999,9,99,9",,,"00,99,1,00,1,00,1,99999,9,00,1,00,1",,"01,9",,"120,M,+0174,1","240,N,-0025,1","99999,9,08253,1","7,1,011,1,-005,1",,"SYN094AAXX  17181 76373 32988 01302 10160 21047 38253 40262 57011 91750 333 10174 21025 30/// 59005;","Q01+001603ATOT  "
"76373099999","2010-03-18T03:00:00","4","25.35","-105.75","1967.0","TEPEHUANES DGO., MX","FM-12","99999","V020","999,9,C,0000,1","22000,1,9,N","001000,1,N,1","+0134,1","-0046,1","10100,1",,,,,"00,1,+99999,9,99,9",,,"00,99,1,00,1,00,1,99999,9,00,1,00,1",,"01,9",,,,"99999,9,08206,1","2,1,011,1,-041,1",,"SYN082AAXX  18031 76373 32910 00000 10134 21046 38206 40100 52011 90255 333 30/// 59041;",
"76373099999","2010-03-18T15:00:00","4","25.35","-105.75","1967.0","TEPEHUANES DGO., MX","FM-12","99999","V020","999,9,C,0000,1","22000,1,9,N","030000,1,N,1","+0048,1","-0050,1","10222,1",,,,,"00,1,+99999,9,99,9",,,"00,99,1,00,1,00,1,99999,9,00,1,00,1",,"01,9",,,,"99999,9,08219,1","2,1,007,1,-045,1",,"SYN082AAXX  18151 76373 32980 00000 10048 21050 38219 40222 52007 91455 333 30/// 59045;",
"76373099999","2010-03-18T18:00:00","4","25.35","-105.75","1967.0","TEPEHUANES DGO., MX","FM-12","99999","V020","140,1,N,0020,1","22000,1,9,N","030000,1,N,1","+0192,1","-0036,1","10183,1",,,,,"00,1,+99999,9,99,9",,,"00,99,1,00,1,00,1,99999,9,00,1,00,1",,"01,9",,"120,M,+0212,1","240,N,-0018,1","99999,9,08196,1","7,1,023,1,-057,1",,"SYN094AAXX  18181 76373 32980 01402 10192 21036 38196 40183 57023 91755 333 10212 21018 30/// 59057;",
"76373099999","2010-03-18T21:00:00","4","25.35","-105.75","1967.0","TEPEHUANES DGO., MX","FM-12","99999","V020","250,1,N,0050,1","22000,1,9,N","030000,1,N,1","+0260,2","-0122,1","99999,9",,,,,"00,1,+99999,9,99,9",,,"00,99,1,00,1,00,1,99999,9,00,1,00,1",,"01,9",,,,"99999,9,08167,1","7,1,029,1,-051,1",,"SYN082AAXX  18211 76373 32980 02505 10260 21122 38167 40103 57029 92055 333 30/// 59051;","Q01+101033APOSLP"
"76373099999","2010-03-19T00:00:00","4","25.35","-105.75","1967.0","TEPEHUANES DGO., MX","FM-12","99999","V020","230,1,N,0060,1","22000,1,9,N","030000,1,N,1","+0214,1","-0065,1","10064,1","24,0000,9,1",,,,"00,1,+99999,9,99,9",,,"00,99,1,00,1,00,1,99999,9,00,1,00,1",,"01,9",,"120,M,+0276,1","180,N,-0018,1","99999,9,08169,1","5,1,002,1,-028,1",,"SYN106AAXX  19001 76373 32980 02306 10214 21065 38169 40064 55002 92355 333 10276 21018 30/// 50651 59028 70000;","Q01  00002PRCP24"
"76373099999","2010-03-19T03:00:00","4","25.35","-105.75","1967.0","TEPEHUANES DGO., MX","FM-12","99999","V020","290,1,N,0010,1","22000,1,9,N","001000,1,N,1","+0144,1","+0004,1","10053,1",,,,,"00,1,+99999,9,99,9",,,"00,99,1,00,1,00,1,99999,9,00,1,00,1",,"01,9",,,,"99999,9,08180,1","2,1,029,1,-026,1",,"SYN082AAXX  19031 76373 32910 02901 10144 20004 38180 40053 52029 90255 333 30/// 59026;",
"76373099999","2010-03-19T12:00:00","4","25.35","-105.75","1967.0","TEPEHUANES DGO., MX","FM-12","99999","V020","999,9,C,0000,1","22000,1,9,N","001000,1,N,1","+0026,1","-0001,1","10127,1","24,0000,9,5",,,,"00,1,+99999,9,99,9",,,"00,99,1,00,1,00,1,99999,9,00,1,00,1","0660,9","09,9","999,-0022,9","120,N,-0010,1","240,M,+0276,1","99999,9,08181,1","9,9,999,9,-013,1",,"SYN112AAXX  19121 76373 32910 00000 10026 21001 38181 40127 5//// 91155 333 10276 21010 31022 55110 22415 59013 70000;",
"76373099999","2010-03-19T18:00:00","4","25.35","-105.75","1967.0","TEPEHUANES DGO., MX","FM-12","99999","V020","290,1,N,0040,1","22000,1,9,N","030000,1,N,1","+9999,9","-0082,1","10115,1",,,,,"00,1,+99999,9,99,9",,,"00,99,1,00,1,00,1,99999,9,00,1,00,1",,"01,9",,"120,M,+0234,1","240,N,-0010,1","99999,9,08167,1","7,1,023,1,-029,1",,"SYN094AAXX  19181 76373 32980 02904 10218 21082 38167 40115 57023 91755 333 10234 21010 30/// 59029;","Q01+002183ATOT  "
"76373099999","2010-03-19T21:00:00","4","25.35","-105.75","1967.0","TEPEHUANES DGO., MX","FM-12","99999","V020","290,1,N,0060,1","22000,1,9,N","030000,1,N,1","+0220,1","-0067,1","10071,1",,,,,"00,1,+99999,9,99,9",,,"00,99,1,00,1,00,1,99999,9,00,1,00,1",,"01,9",,,,"99999,9,08150,1","7,1,017,1,-017,1",,"SYN082AAXX  19211 76373 32980 02906 10220 21067 38150 40071 57017 92055 333 30/// 59017;",
"76373099999","2010-03-20T00:00:00","4","25.35","-105.75","1967.0","TEPEHUANES DGO., MX","FM-12","99999","V020","250,1,N,0050,1","22000,1,9,N","030000,1,N,1","+0190,1","-0015,1","10051,1","24,0000,9,1",,,,,,,"02,99,1,99,9,99,9,00800,1,99,9,99,9",,"01,9",,"120,M,+0246,1","180,N,-0010,1","99999,9,08158,1","2,1,008,1,-011,1",,"SYN118AAXX  20001 76373 32580 22505 10190 21015 38158 40051 52008 92355 333 10246 21010 30/// 50571 56900 59011 70000 82825;",
"76373099999","2010-03-20T18:00:00","4","25.35","-105.75","1967.0","TEPEHUANES DGO., MX","FM-12","99999","V020","290,1,N,0010,1","22000,1,9,N","030000,1,N,1","+0182,1","-0056,1","10167,1",,,,,"00,1,+99999,9,99,9",,,"00,99,1,00,1,00,1,99999,9,00,1,00,1",,"01,9",,"120,M,+0248,1",,"99999,9,08200,1","9,9,999,9,+033,1",,"SYN094AAXX  20181 76373 32980 02901 10182 21056 38200 40167 5//// 91750 333 10248 2//// 30/// 58033;",
"76373099999","2010-03-20T21:00:00","4","25.35","-105.75","1967.0","TEPEHUANES DGO., MX","FM-12","99999","V020","040,1,N,0010,1","22000,1,9,N","030000,1,N,1","+0234,1","-0105,1","10100,1",,,,,"00,1,+99999,9,99,9",,,"00,99,1,00,1,00,1,99999,9,00,1,00,1",,"01,9",,,,"99999,9,08169,1","7,1,031,1,+019,1",,"SYN082AAXX  20211 76373 32980 00401 10234 21105 38169 40100 57031 92050 333 30/// 58019;",
"76373099999","2010-03-21T00:00:00","4","25.35","-105.75","1967.0","TEPEHUANES DGO., MX","FM-12","99999","V020","290,1,N,0060,1","22000,1,9,N","030000,1,N,1","+0246,1","-0139,1","10052,1","24,0000,9,1",,,,"00,1,+99999,9,99,9",,,"00,99,1,00,1,00,1,99999,9,00,1,00,1",,"01,9",,"120,M,+0284,1",,"99999,9,08161,1","7,1,008,1,+013,1",,"SYN106AAXX  21001 76373 32980 02906 10246 21139 38161 40052 57008 92350 333 10284 2//// 30/// 50581 58013 70000;","Q01  00002PRCP24"
"76373099999","2010-03-21T03:00:00","4","25.35","-105.75","1967.0","TEPEHUANES DGO., MX","FM-12","99999","V020","200,1,N,0010,1","22000,1,9,N","001000,1,N,1","+0166,1","-0068,1","10057,1",,,,,"00,1,+99999,9,99,9",,,"00,99,1,00,1,00,1,99999,9,00,1,00,1",,"01,9",,,,"99999,9,08184,1","2,1,015,1,+999,9",,"SYN082AAXX  21031 76373 32910 02001 10166 21068 38184 40057 52015 90245 333 30/// 58///;",
"76373099999","2010-03-21T12:00:00","4","25.35","-105.75","1967.0","TEPEHUANES DGO., MX","FM-12","99999","V020","999,9,C,0000,1","22000,1,9,N","001000,1,N,1","+0014,1","-0044,1","10195,1","24,0000,9,1",,,,"00,1,+99999,9,99,9",,,"00,99,1,00,1,00,1,99999,9,00,1,00,1",,"09,9","999,-0016,9","120,N,-0010,1","240,M,+0245,1","99999,9,08237,1",,,"SYN100AAXX  21121 76373 32910 00000 10014 21044 38237 40195 5//// 91150 333 10245 21010 31016 58/// 70000;","Q01  00002PRCP24"
"76373099999","2010-03-21T15:00:00","4","25.35","-105.75","1967.0","TEPEHUANES DGO., MX","FM-12","99999","V020","999,9,C,0000,1","22000,1,9,N","030000,1,N,1","+0058,1","-0060,1","10245,1",,,,,"00,1,+99999,9,99,9",,,"00,99,1,00,1,00,1,99999,9,00,1,00,1",,"01,9",,,,"99999,9,08251,1","2,1,014,1,+999,9",,"SYN082AAXX  21151 76373 32980 00000 10058 21060 38251 40245 52014 91450 333 30/// 58///;",
"76373099999","2010-03-21T21:00:00","4","25.35","-105.75","1967.0","TEPEHUANES DGO., MX","FM-12","99999","V020","110,1,N,0010,1","22000,1,9,N","030000,1,N,1","+0208,1","-0069,1","10161,1",,,,,"00,1,+99999,9,99,9",,,"00,99,1,00,1,00,1,99999,9,00,1,00,1",,"01,9",,,,"99999,9,08202,1","9,9,999,9,+033,1",,"SYN082AAXX  21211 76373 32980 01101 10208 21069 38202 40161 5//// 92050 333 30/// 58033;",
"76373099999","2010-03-22T00:00:00","4","25.35","-105.75","1967.0","TEPEHUANES DGO., MX","FM-12","99999","V020","130,1,N,0030,1","22000,1,9,N","030000,1,N,1","+0212,1","-0088,1","10104,1","24,0000,9,1",,,,"00,1,+99999,9,99,9",,,"00,99,1,00,1,00,1,99999,9,00,1,00,1",,"01,9",,"120,M,+0260,1","180,N,-0010,1","99999,9,08185,1","7,1,017,1,+025,1",,"SYN106AAXX  22001 76373 32980 01303 10212 21088 38185 40104 57017 92350 333 10260 21010 30/// 50571 58025 70000;","Q01  00002PRCP24"
"76373099999","2010-03-22T12:00:00","4","25.35","-105.75","1967.0","TEPEHUANES DGO., MX","FM-12","99999","V020","999,9,C,0000,1","22000,1,9,N","001000,1,N,1","-0004,1","-0057,1","10180,1","24,0000,9,1",,,,"00,1,+99999,9,99,9",,,"00,99,1,00,1,00,1,99999,9,00,1,00,1","0660,9","09,9","999,-0026,9","120,N,-0022,1","240,M,+0256,1","99999,9,08217,1","9,9,999,9,-020,1",,"SYN106AAXX  22121 76373 32910 00000 11004 21057 38217 40180 5//// 91150 333 10256 21022 31026 55110 59020 70000;","Q01  00002PRCP24"
"76373099999","2010-03-22T15:00:00","4","25.35","-105.75","1967.0","TEPEHUANES DGO., MX","FM-12","99999","V020","999,9,C,0000,1","22000,1,9,N","030000,1,N,1","+0038,1","-0080,1","10229,1",,,,,"00,1,+99999,9,99,9",,,"00,99,1,00,1,00,1,99999,9,00,1,00,1",,"01,9",,,,"99999,9,08229,1","2,1,012,1,-022,1",,"SYN082AAXX  22151 76373 32980 00000 10038 21080 38229 40229 52012 91450 333 30/// 59022;",
"76373099999","2010-03-22T18:00:00","4","25.35","-105.75","1967.0","TEPEHUANES DGO., MX","FM-12","99999","V020","110,1,N,0020,1","22000,1,9,N","030000,1,N,1","+0192,1","-0074,1","10198,1",,,,,"01,1,+00900,1,08,1",,,"04,99,1,01,1,01,1,01250,1,07,1,00,1",,"01,9",,"120,M,+0224,1","240,N,-0022,1","99999,9,08211,1","7,1,018,1,-023,1",,"SYN118AAXX  22181 76373 32680 41102 10192 21074 38211 40198 57018 81170 91750 333 10224 21022 30/// 56990 59023 81830 83358;",
"76373099999","2010-03-22T21:00:00","4","25.35","-105.75","1967.0","TEPEHUANES DGO., MX","FM-12","99999","V020","250,1,N,0020,1","03600,1,C,N","030000,1,N,1","+0274,2","-0074,1","10106,1",,,,,"01,1,+00900,1,08,1","03,1,+02400,1,03,1",,"06,99,1,01,1,02,1,01250,1,07,1,09,1",,"01,9",,,,"99999,9,08169,1","7,1,042,1,-033,1",,"SYN112AAXX  22211 76373 32680 62502 10274 21074 38169 40106 57042 81279 92050 333 30/// 56999 59033 81830 83358 82068;",
"76373099999","2010-03-23T00:00:00","4","25.35","-105.75","1967.0","TEPEHUANES DGO., MX","FM-12","99999","V020","280,1,N,0040,1","05100,1,9,N","070000,1,N,1","+0244,1","-0040,1","10051,2","24,0000,9,1",,,,"05,1,+05100,1,02,1",,,"05,99,1,00,1,00,1,99999,9,00,1,08,1",,"01,9",,"120,M,+0290,1","180,N,-0022,1","99999,9,08162,1","5,1,007,1,-023,1",,"SYN118AAXX  23001 76373 32988 52804 10244 21040 38162 40051 55007 80008 92350 333 10290 21022 30/// 50511 59023 70000 85267;",
"76373099999","2010-03-23T18:00:00","4","25.35","-105.75","1967.0","TEPEHUANES DGO., MX","FM-12","99999","V020","260,1,N,0010,1","05100,1,9,N","070000,1,N,1","+0230,1","-0067,1","10128,1",,,,,"05,1,+05100,1,02,1",,,"05,99,1,00,1,00,1,99999,9,00,1,08,1",,"01,9",,"120,M,+0250,1","240,N,+0024,1","99999,9,08175,1","7,1,021,1,-036,1",,"SYN106AAXX  23181 76373 32988 52601 10230 21067 38175 40128 57021 80008 91750 333 10250 20024 30/// 59036 85267;",
"76373099999","2010-03-24T15:00:00","4","25.35","-105.75","1967.0","TEPEHUANES DGO., MX","FM-12","99999","V020","999,9,C,0000,1","22000,1,9,N","070000,1,N,1","+0078,1","-0044,1","10166,1",,,,,"04,1,+00780,1,06,1",,,"99,99,9,01,1,04,1,00800,1,00,1,00,1",,"01,9",,,,"99999,9,08184,1","2,1,004,1,-012,1",,"SYN094AAXX  24151 76373 32588 10000 10078 21044 38184 40166 52004 81400 91450 333 30/// 59012 84626;","Q01+000012SCOTCV"
"76373099999","2010-03-24T18:00:00","4","25.35","-105.75","1967.0","TEPEHUANES DGO., MX","FM-12","99999","V020","060,1,N,0010,1","22000,1,9,N","070000,1,N,1","+9999,9","-0133,1","10131,1",,,,,"00,1,+99999,9,99,9",,,"00,99,1,00,1,00,1,99999,9,00,1,00,1",,"01,9",,"120,M,+0235,1","240,N,-0012,1","99999,9,08167,1","7,1,017,1,-008,1",,"SYN094AAXX  24181 76373 32988 00601 10218 21133 38167 40131 57017 91750 333 10235 21012 30/// 59008;","Q01+002183ATOT  "
"76373099999","2010-03-25T12:00:00","4","25.35","-105.75","1967.0","TEPEHUANES DGO., MX","FM-12","99999","V020","999,9,C,0000,1","22000,1,9,N","001000,1,N,1","-0009,1","-0063,1","10182,1","24,0000,9,1",,,,,,,"01,99,1,01,1,02,1,00800,1,00,1,00,1","0606,9","09,9","999,-0038,9","120,N,-0020,1","240,M,+0250,1","99999,9,08210,1","9,9,999,9,+030,1",,"SYN124AAXX  25121 76373 32510 10000 11009 21063 38210 40182 5//// 81200 91150 333 10250 21020 31038 55101 22158 58030 70000 81826;",
"76373099999","2010-03-25T15:00:00","4","25.35","-105.75","1967.0","TEPEHUANES DGO., MX","FM-12","99999","V020","999,9,C,0000,1","22000,1,9,N","070000,1,N,1","+0076,1","-0034,1","10232,1",,,,,"00,1,+99999,9,99,9",,,"00,99,1,00,1,00,1,99999,9,00,1,00,1",,"01,9",,,,"99999,9,08231,1","2,1,021,1,+047,1",,"SYN082AAXX  25151 76373 32988 00000 10076 21034 38231 40232 52021 91450 333 30/// 58047;",
"76373099999","2010-03-27T21:00:00","4","25.35","-105.75","1967.0","TEPEHUANES DGO., MX","FM-12","99999","V020","290,1,N,0040,1","22000,1,9,N","070000,1,N,1","+0280,1","+0067,1","10172,1",,,,,"00,1,+99999,9,99,9",,,"00,99,1,00,1,00,1,99999,9,00,1,00,1",,"01,9",,,,"99999,9,08231,1",,,"SYN082AAXX  27211 76373 32988 02904 10280 20067 38231 40172 5//// 92050 333 30/// 28///;",
"76373099999","2010-03-28T12:00:00","4","25.35","-105.75","1967.0","TEPEHUANES DGO., MX","FM-12","99999","V020","999,9,C,0000,1","22000,1,9,N","001000,1,N,1","+0040,1","-0011,1","10221,1","24,0000,9,5",,,,"00,1,+99999,9,99,9",,,"00,99,1,00,1,00,1,99999,9,00,1,00,1",,"01,9","999,+0022,9","120,N,+0020,1","240,M,+0254,1","99999,9,08197,1","9,9,999,9,-095,1",,"SYN106AAXX  28121 76373 32910 00000 10040 21011 38197 40221 5//// 91150 333 10254 20020 30022 59095 58/// 70000;",
"76373099999","2010-03-28T18:00:00","4","25.35","-105.75","1967.0","TEPEHUANES DGO., MX","FM-12","99999","V020","120,1,N,0030,1","22000,1,9,N","070000,1,N,1","+0204,1","-0062,1","10189,1",,,,,"03,1,+00900,1,06,1",,,"04,99,1,03,1,04,1,01250,1,07,1,00,1",,"01,9",,"120,M,+0220,1","240,N,+0020,1","99999,9,08226,1","7,1,005,1,+999,9",,"SYN118AAXX  28181 76373 32688 41203 10204 21062 38226 40189 57005 83470 91750 333 10220 20020 30/// 56990 58/// 83630 81358;",
"76373099999","2010-03-28T21:00:00","4","25.35","-105.75","1967.0","TEPEHUANES DGO., MX","FM-12","99999","V020","130,1,N,0040,1","03600,1,C,N","070000,1,N,1","+0232,1","-0081,1","10141,1",,,,,"03,1,+00900,1,06,1",,,"05,99,1,03,1,04,1,01250,1,07,1,00,1",,"01,9",,,,"99999,9,08207,1","7,1,019,1,-024,1",,"SYN106AAXX  28211 76373 32688 51304 10232 21081 38207 40141 57019 83470 92050 333 30/// 56990 59024 83630 82358;",
"76373099999","2010-03-29T00:00:00","4","25.35","-105.75","1967.0","TEPEHUANES DGO., MX","FM-12","99999","V020","130,1,N,0040,1","03600,1,9,N","070000,1,N,1","+0220,1","-0077,1","10087,1","24,0000,9,1",,,,"03,1,+00900,1,06,1",,,"05,99,1,03,1,04,1,01250,1,07,1,00,1",,"01,9",,"120,M,+0254,1","180,N,-0020,1","99999,9,08192,1","7,1,015,1,+020,1",,"SYN130AAXX  29001 76373 32688 51304 10220 21077 38192 40087 57015 83470 92350 333 10254 21020 30/// 50501 56990 58020 70000 83630 82358;",
"76373099999","2010-03-29T12:00:00","4","25.35","-105.75","1967.0","TEPEHUANES DGO., MX","FM-12","99999","V020","999,9,C,0000,1","22000,1,9,N","001000,1,N,1","+0018,1","-0060,1","10168,1","24,0000,9,1",,,,"00,1,+99999,9,99,9",,,"00,99,1,00,1,00,1,99999,9,00,1,00,1","0612,9","01,9","999,+0014,9","120,N,+0010,1","240,M,+0224,1","99999,9,08212,1","9,9,999,9,+015,1",,"SYN106AAXX  29121 76373 32910 00000 10018 21060 38212 40168 5//// 91150 333 10224 20010 30014 55102 58015 70000;","Q01  00002PRCP24"
"76373099999","2010-03-29T15:00:00","4","25.35","-105.75","1967.0","TEPEHUANES DGO., MX","FM-12","99999","V020","999,9,C,0000,1","22000,1,9,N","070000,1,N,1","+0060,1","-0071,1","10212,1",,,,,"00,1,+99999,9,99,9",,,"00,99,1,00,1,00,1,99999,9,00,1,00,1",,"01,9",,,,"99999,9,08225,1","2,1,013,1,-006,1",,"SYN082AAXX  29151 76373 32988 00000 10060 21071 38225 40212 52013 91450 333 30/// 59006;",
"76373099999","2010-03-29T18:00:00","4","25.35","-105.75","1967.0","TEPEHUANES DGO., MX","FM-12","99999","V020","130,1,N,0030,1","22000,1,9,N","070000,1,N,1","+0198,1","-0032,1","10184,1",,,,,"09,1,+00480,1,00,1",,,"99,99,9,09,1,00,1,99999,9,00,1,00,1",,"01,9",,"120,M,+0210,1","240,N,-0010,1","99999,9,08210,1","7,1,025,1,+999,9",,"SYN094AAXX  29181 76373 32988 01303 10198 21032 38210 40184 57025 91750 333 10210 21010 30/// 89016;","Q01+000002SCOTCV"
"76373099999","2010-03-30T00:00:00","4","25.35","-105.75","1967.0","TEPEHUANES DGO., MX","FM-12","99999","V020","130,1,N,0050,1","22000,1,9,N","070000,1,N,1","+0239,1","-0061,1","99999,9","24,0000,9,1",,,,"02,1,+00750,1,08,1",,,"02,99,1,02,1,02,1,00800,1,00,1,00,1",,"01,9",,"120,M,+0282,1","180,N,-0010,1","99999,9,08156,1","9,9,999,9,-036,1",,"SYN118AAXX  30001 76373 32588 21305 10239 21061 38156 40047 5//// 82200 92350 333 10282 21010 30/// 50571 59036 70000 82825;","Q01+100473APOSLP"
"76373099999","2010-03-30T03:00:00","4","25.35","-105.75","1967.0","TEPEHUANES DGO., MX","FM-12","99999","V020","250,1,N,0010,1","22000,1,9,N","001000,1,N,1","+0166,1","-0048,1","10050,1",,,,,"01,1,+00750,1,08,1",,,"01,99,1,01,1,02,1,00800,1,00,1,00,1",,"01,9",,,,"99999,9,08181,1","2,1,025,1,+999,9",,"SYN094AAXX  30031 76373 32510 12501 10166 21048 38181 40050 52025 81200 90250 333 30/// 58/// 81825;",
"76373099999","2010-03-30T12:00:00","4","25.35","-105.75","1967.0","TEPEHUANES DGO., MX","FM-12","99999","V020","999,9,C,0000,1","22000,1,9,N","001000,1,N,1","+0022,1","-0028,1","10152,1","24,0000,9,5",,,,"00,1,+99999,9,99,9",,,"00,99,1,00,1,00,1,99999,9,00,1,00,1","0594,9","01,9","999,+0002,9","120,N,+0014,1","240,M,+0282,1","99999,9,08205,1","9,9,999,9,-007,1",,"SYN112AAXX  30121 76373 32910 00000 10022 21028 38205 40152 5//// 91150 333 10282 20014 30002 55099 21965 59007 70000;",
"76373099999","2010-03-30T15:00:00","4","25.35","-105.75","1967.0","TEPEHUANES DGO., MX","FM-12","99999","V020","999,9,C,0000,1","22000,1,9,N","070000,1,N,1","+0101,1","-0026,1","10188,1",,,,,"00,1,+99999,9,99,9",,,"00,99,1,00,1,00,1,99999,9,00,1,00,1",,"01,9",,,,"99999,9,08215,1","2,1,010,1,-010,1",,"SYN082AAXX  30151 76373 32988 00000 10101 21026 38215 40188 52010 91450 333 30/// 59010;",
"76373099999","2010-03-30T18:00:00","4","25.35","-105.75","1967.0","TEPEHUANES DGO., MX","FM-12","99999","V020","130,1,N,0020,1","22000,1,9,N","070000,1,N,1","+0247,1","+0036,1","10159,1",,,,,"00,1,+99999,9,99,9",,,"00,99,1,00,1,00,1,99999,9,00,1,00,1",,"01,9",,"120,M,+0260,1","240,N,+0014,1","99999,9,08203,1","7,1,012,1,-007,1",,"SYN094AAXX  30181 76373 32988 01302 10247 20036 38203 40159 57012 91750 333 10260 20014 30/// 59007;",
"76373099999","2010-03-30T21:00:00","4","25.35","-105.75","1967.0","TEPEHUANES DGO., MX","FM-12","99999","V020","280,1,N,0040,1","22000,1,9,N","070000,1,N,1","+0297,1","-0036,1","10088,1",,,,,"01,1,+00750,1,08,1",,,"01,99,1,01,1,02,1,00800,1,00,1,00,1",,"01,9",,,,"99999,9,08176,1","7,1,027,1,+999,9",,"SYN094AAXX  30211 76373 32588 12804 10297 21036 38176 40088 57027 81200 92050 333 30/// 58/// 81825;",
"76373099999","2010-03-31T00:00:00","4","25.35","-105.75","1967.0","TEPEHUANES DGO., MX","FM-12","99999","V020","260,1,N,0040,1","22000,1,9,N","070000,1,N,1","+0266,1","-0051,1","10033,2","24,0000,9,1",,,,"01,1,+00750,1,08,1",,,"01,99,1,01,1,02,1,00800,1,00,1,00,1",,"01,9",,"120,M,+0300,1","180,N,-0014,1","99999,9,08164,1","7,1,009,1,+011,1",,"SYN118AAXX  31001 76373 32588 12604 10266 21051 38164 40033 57009 81200 92350 333 10300 21014 30/// 50611 58011 70000 81825;",
"76373099999","2010-03-31T03:00:00","4","25.35","-105.75","1967.0","TEPEHUANES DGO., MX","FM-12","99999","V020","250,1,N,0010,1","22000,1,9,N","001000,1,N,1","+0192,1","+0028,1","10034,1",,,,,"00,1,+99999,9,99,9",,,"00,99,1,00,1,00,1,99999,9,00,1,00,1",,"01,9",,,,"99999,9,08189,1","2,1,022,1,+008,1",,"SYN082AAXX  31031 76373 32910 02501 10192 20028 38189 40034 52022 90250 333 30/// 58008;",
"76373099999","2010-03-31T12:00:00","4","25.35","-105.75","1967.0","TEPEHUANES DGO., MX","FM-12","99999","V020","300,1,N,0010,1","22000,1,9,N","001000,1,N,1","+0056,1","+0019,1","10110,1","24,0000,9,5",,,,"00,1,+99999,9,99,9",,,"00,99,1,00,1,00,1,99999,9,00,1,00,1","0660,9","01,9","999,+0028,9","120,N,+0040,1","240,M,+0300,1","99999,9,08189,1","9,9,999,9,-016,1",,"SYN112AAXX  31121 76373 32910 03001 10056 20019 38189 40110 5//// 91150 333 10300 20040 30028 55110 22343 59016 70000;",
"76373099999","2010-03-31T15:00:00","4","25.35","-105.75","1967.0","TEPEHUANES DGO., MX","FM-12","99999","V020","310,1,N,0010,1","22000,1,9,N","070000,1,N,1","+9999,9","+0010,1","10166,1",,,,,"00,1,+99999,9,99,9",,,"00,99,1,00,1,00,1,99999,9,00,1,00,1",,"01,9",,,,"99999,9,08216,1","2,1,027,1,+001,1",,"SYN082AAXX  31151 76373 32988 03101 10228 20010 38216 40166 52027 91450 333 30/// 58001;","Q01+002283ATOT  "
"76373099999","2010-03-31T18:00:00","4","25.35","-105.75","1967.0","TEPEHUANES DGO., MX","FM-12","99999","V020","060,1,N,0010,1","22000,1,9,N","070000,1,N,1","+0252,1","-0033,1","10135,1",,,,,"02,1,+05100,1,00,1",,,"02,99,1,00,1,00,1,99999,9,00,1,04,1",,"01,9",,"120,M,+0270,1","240,N,+0040,1","99999,9,08200,1","7,1,016,1,-003,1",,"SYN106AAXX  31181 76373 32988 20601 10252 21033 38200 40135 57016 80004 91750 333 10270 20040 30/// 59003 82067;",
"76373099999","2010-03-31T21:00:00","4","25.35","-105.75","1967.0","TEPEHUANES DGO., MX","FM-12","99999","V020","250,1,N,0050,1","22000,1,9,N","070000,1,N,1","+0298,1","-0057,1","99999,9",,,,,"00,1,+99999,9,99,9",,,"00,99,1,00,1,00,1,99999,9,00,1,00,1",,"01,9",,,,"99999,9,08176,1","7,1,024,1,+000,1",,"SYN082AAXX  31211 76373 32988 02505 10298 21057 38176 40071 57024 92050 333 30/// 58000;","Q01+100713APOSLP"
"76373099999","2010-04-01T12:00:00","4","25.35","-105.75","1967.0","TEPEHUANES DGO., MX","FM-12","99999","V020","999,9,C,0000,1","22000,1,9,N","001000,1,N,1","+0039,1","-0015,1","10130,1","24,0000,9,1",,,,"02,1,+00750,1,08,1",,,"04,99,1,02,1,02,1,00800,1,00,1,04,1","0672,9","01,9","999,+0012,9","120,N,+0024,1","240,M,+0310,1","99999,9,08202,1","9,9,999,9,+013,1",,"SYN130AAXX  01121 76373 32510 40000 10039 21015 38202 40130 5//// 82204 91150 333 10310 20024 30012 55112 22400 58013 70000 82825 82067;",
"76373099999","2010-04-01T15:00:00","4","25.35","-105.75","1967.0","TEPEHUANES DGO., MX","FM-12","99999","V020","999,9,C,0000,1","22000,1,9,N","070000,1,N,1","+0105,1","-0005,1","99999,9",,,,,,,,"01,99,1,99,9,99,9,00800,1,99,9,99,9",,,,,,,,,"SYN106AAXX  01151 76373 32588 10000 10105 21005 21002 38204 40157 50002 81100 91450 333 30/// 56900 89012 81825;",
"76373099999","2010-04-01T21:00:00","4","25.35","-105.75","1967.0","TEPEHUANES DGO., MX","FM-12","99999","V020","290,1,N,0080,1","03600,1,C,N","070000,1,N,1","+0258,1","-0121,1","10073,1",,,,,"03,1,+00900,1,06,1","01,1,+00900,1,08,1",,"05,99,1,04,1,04,1,00800,1,07,1,00,1",,"01,9",,,,"99999,9,08168,1","7,1,021,1,-008,1",,"SYN112AAXX  01211 76373 32588 52908 10258 21121 38168 40073 57021 84470 92050 333 30/// 56990 59008 83630 81830 81358;",
"76373099999","2010-04-03T15:00:00","4","25.35","-105.75","1967.0","TEPEHUANES DGO., MX","FM-12","99999","V020","999,9,C,0000,1","22000,1,9,N","070000,1,N,1","+0084,1","-0048,1","10159,1",,,,,"00,1,+99999,9,99,9",,,"00,99,1,00,1,00,1,99999,9,00,1,00,1",,"01,9",,,,"99999,9,08192,1",,,"SYN082AAXX  03151 76373 32988 00000 10084 21048 38192 40159 5//// 91450 333 30/// 58///;",
"76373099999","2010-04-03T18:00:00","4","25.35","-105.75","1967.0","TEPEHUANES DGO., MX","FM-12","99999","V020","310,1,N,0010,1","22000,1,9,N","070000,1,N,1","+9999,9","-0054,1","10130,1",,,,,"00,1,+99999,9,99,9",,,"00,99,1,00,1,00,1,99999,9,00,1,00,1",,"01,9",,"120,M,+0265,1","240,N,+0030,1","99999,9,08180,1","2,1,019,1,+999,9",,"SYN094AAXX  03181 76373 32988 03101 10252 21054 38180 40130 52019 91750 333 10265 20030 30/// 58///;","Q01+002523ATOT  "
"76373099999","2010-04-03T21:00:00","4","25.35","-105.75","1967.0","TEPEHUANES DGO., MX","FM-12","99999","V020","290,1,N,0050,1","22000,1,9,N","070000,1,N,1","+0300,1","-0110,1","99999,9",,,,,"00,1,+99999,9,99,9",,,"00,99,1,00,1,00,1,99999,9,00,1,00,1",,"01,9",,,,"99999,9,08160,1","7,1,020,1,+999,9",,"SYN082AAXX  03211 76373 32988 02905 10300 21110 38160 40066 57020 92050 333 30/// 58///;","Q01+100663APOSLP"
"76373099999","2010-04-04T18:00:00","4","25.35","-105.75","1967.0","TEPEHUANES DGO., MX","FM-12","99999","V020","120,1,N,0010,1","22000,1,9,N","030000,1,N,1","+0256,1","-0053,1","10152,1",,,,,"00,1,+99999,9,99,9",,,"00,99,1,00,1,00,1,99999,9,00,1,00,1",,"01,9",,"120,M,+0270,1","240,N,+0020,1","99999,9,08198,1","7,1,007,1,+018,1",,"SYN094AAXX  04181 76373 32980 01201 10256 21053 38198 40152 57007 91750 333 10270 20020 30/// 58018;",
"76373099999","2010-04-04T21:00:00","4","25.35","-105.75","1967.0","TEPEHUANES DGO., MX","FM-12","99999","V020","250,1,N,0040,1","22000,1,9,N","070000,1,N,1","+0308,1","-0106,1","99999,9",,,,,"00,1,+99999,9,99,9",,,"00,99,1,00,1,00,1,99999,9,00,1,00,1",,"01,9",,,,"99999,9,08178,1","7,1,020,1,+018,1",,"SYN082AAXX  04211 76373 32988 02504 10308 21106 38178 40086 57020 92050 333 30/// 58018;","Q01+100863APOSLP"
"76373099999","2010-04-05T00:00:00","4","25.35","-105.75","1967.0","TEPEHUANES DGO., MX","FM-12","99999","V020","240,1,N,0030,1","22000,1,9,N","070000,1,N,1","+0286,1","-0088,1","10031,2","24,0000,9,1",,,,"00,1,+99999,9,99,9",,,"00,99,1,00,1,00,1,99999,9,00,1,00,1",,"01,9",,"120,M,+0324,1","180,N,+0020,1","99999,9,08173,1","7,1,005,1,+012,1",,"SYN106AAXX  05001 76373 32988 02403 10286 21088 38173 40031 57005 92350 333 10324 20020 30/// 50671 58012 70000;","Q01  00002PRCP24"
"76373099999","2010-04-05T21:00:00","4","25.35","-105.75","1967.0","TEPEHUANES DGO., MX","FM-12","99999","V020","200,1,N,0050,1","22000,1,9,N","070000,1,N,1","+0306,1","-0088,1","10091,1",,,,,"00,1,+99999,9,99,9",,,"00,99,1,00,1,00,1,99999,9,00,1,00,1",,"01,9",,,,"99999,9,08187,1","7,1,017,1,+009,1",,"SYN082AAXX  05211 76373 32988 02005 10306 21088 38187 40091 57017 92050 333 30/// 58009;",
"76373099999","2010-04-06T00:00:00","4","25.35","-105.75","1967.0","TEPEHUANES DGO., MX","FM-12","99999","V020","230,1,N,0040,1","22000,1,9,N","070000,1,N,1","+0298,1","-0084,1","10043,1","24,0000,9,1",,,,"01,1,+00750,1,08,1",,,"01,99,1,01,1,02,1,00800,1,00,1,00,1",,"01,9",,"120,M,+0322,1","180,N,+0026,1","99999,9,08187,1","9,9,999,9,+014,1",,"SYN118AAXX  06001 76373 32588 12304 10298 21084 38187 40043 5//// 81200 92350 333 10322 20026 30/// 50541 58014 70000 81825;",
"76373099999","2010-04-06T18:00:00","4","25.35","-105.75","1967.0","TEPEHUANES DGO., MX","FM-12","99999","V020","310,1,N,0010,1","22000,1,9,N","070000,1,N,1","+0241,1","+0000,1","10125,1",,,,,"01,1,+00750,1,08,1",,,"02,99,1,01,1,02,1,00800,1,00,1,02,1",,"01,9",,"120,M,+0250,1","240,N,+0062,1","99999,9,08199,1","7,1,008,1,-005,1",,"SYN118AAXX  06181 76373 32588 23101 10241 20000 38199 40125 57008 81202 91750 333 10250 20062 30/// 56909 59005 81825 81067;",
"76373099999","2010-04-07T15:00:00","4","25.35","-105.75","1967.0","TEPEHUANES DGO., MX","FM-12","99999","V020","330,1,N,0010,1","22000,1,9,N","070000,1,N,1","+0082,1","+0031,1","10130,1",,,,,"00,1,+99999,9,99,9",,,"00,99,1,00,1,00,1,99999,9,00,1,00,1",,"01,9",,,,"99999,9,08195,1","2,1,009,1,-012,1",,"SYN082AAXX  07151 76373 32988 03301 10082 20031 38195 40130 52009 91450 333 30/// 59012;",
"76373099999","2010-04-07T18:00:00","4","25.35","-105.75","1967.0","TEPEHUANES DGO., MX","FM-12","99999","V020","080,1,N,0010,1","22000,1,9,N","070000,1,N,1","+0222,1","+0002,1","10119,1",,,,,"00,1,+99999,9,99,9",,,"00,99,1,00,1,00,1,99999,9,00,1,00,1",,"01,9",,"120,M,+0238,1","240,N,+0050,1","99999,9,08186,1","8,1,009,1,-013,1",,"SYN094AAXX  07181 76373 32988 00801 10222 20002 38186 40119 58009 91750 333 10238 20050 30/// 59013;",
"76373099999","2010-04-08T00:00:00","4","25.35","-105.75","1967.0","TEPEHUANES DGO., MX","FM-12","99999","V020","280,1,N,0050,1","22000,1,9,N","070000,1,N,1","+0276,1","-0090,1","99999,9","24,0000,9,1",,,,,,,"01,99,1,01,1,02,1,00800,1,00,1,00,1",,"01,9",,"120,M,+0304,1","180,N,+0062,1","99999,9,08158,1","9,9,999,9,-006,1",,"SYN124AAXX  08001 76373 32588 12805 10276 21090 38158 40017 5//// 81200 92350 333 10304 20062 30/// 50891 56900 59006 70000 81825;","Q01+100173APOSLP"
"76373099999","2010-04-09T15:00:00","4","25.35","-105.75","1967.0","TEPEHUANES DGO., MX","FM-12","99999","V020","999,9,C,0000,1","22000,1,9,N","070000,1,N,1","+0170,1","+0051,1","10105,1",,,,,"04,1,+00750,1,06,1",,,"04,99,1,04,1,04,1,00800,1,00,1,00,1",,"01,9",,,,"99999,9,08206,1","2,1,017,1,-008,1",,"SYN100AAXX  09151 76373 32588 40000 10170 20051 38206 40105 52017 84400 91450 333 30/// 56900 59008 84625;",
"76373099999","2010-04-10T18:00:00","4","25.35","-105.75","1967.0","TEPEHUANES DGO., MX","FM-12","99999","V020","110,1,N,0010,1","00750,1,C,N","070000,1,N,1","+0248,1","+0069,1","10113,1",,,,,"03,1,+00750,1,06,1",,,"05,99,1,05,1,04,1,00800,1,00,1,00,1",,"01,9",,"120,M,+0268,1","240,N,+0040,1","99999,9,08217,1","2,1,011,1,+013,1",,"SYN118AAXX  10181 76373 32588 51101 10248 20069 38217 40113 52011 85400 91750 333 10268 20040 30/// 56900 58013 83625 82827;",
"76373099999","2010-04-10T21:00:00","4","25.35","-105.75","1967.0","TEPEHUANES DGO., MX","FM-12","99999","V020","220,1,N,0070,1","00750,1,9,N","070000,1,N,1","+0278,1","+0002,1","10072,1",,,,,"04,1,+00750,1,06,1",,,"05,99,1,05,1,04,1,00800,1,00,1,00,1",,"01,9",,,,"99999,9,08198,1","7,1,019,1,+999,9",,"SYN106AAXX  10211 76373 32588 52207 10278 20002 38198 40072 57019 85400 92050 333 30/// 56900 58/// 84625 81825;",
"76373099999","2010-04-11T00:00:00","4","25.35","-105.75","1967.0","TEPEHUANES DGO., MX","FM-12","99999","V020","220,1,N,0050,1","00750,1,9,N","070000,1,N,1","+0254,1","+0050,1","10058,1","24,0000,9,1",,,,"03,1,+00750,1,06,1",,,"05,99,1,05,1,04,1,00800,1,00,1,00,1",,"01,9",,"120,M,+0302,1","180,N,+0040,1","99999,9,08195,1","7,1,003,1,+999,9",,"SYN130AAXX  11001 76373 32588 52205 10254 20050 38195 40058 57003 85400 92350 333 10302 20040 30/// 5//// 56900 58/// 70000 83625 82826;",
"76373099999","2010-04-11T15:00:00","4","25.35","-105.75","1967.0","TEPEHUANES DGO., MX","FM-12","99999","V020","310,1,N,0010,1","22000,1,9,N","070000,1,N,1","+0120,1","+0055,1","10185,1",,,,,"02,1,+00750,1,08,1",,,"02,99,1,02,1,01,1,00800,1,00,1,00,1",,"01,9",,,,"99999,9,08236,1","2,1,014,1,+999,9",,"SYN100AAXX  11151 76373 32588 23101 10120 20055 38236 40185 52014 82100 91450 333 30/// 56900 58/// 82825;",
"76373099999","2010-04-12T00:00:00","4","25.35","-105.75","1967.0","TEPEHUANES DGO., MX","FM-12","99999","V020","240,1,N,0040,1","22000,1,9,N","070000,1,N,1","+0280,1","-0058,1","10026,1","24,0000,9,1",,,,"00,1,+99999,9,99,9",,,"00,99,1,00,1,00,1,99999,9,00,1,00,1",,"01,9",,"120,M,+0310,1","180,N,+0050,1","99999,9,08178,1","7,1,019,1,-017,1",,"SYN106AAXX  12001 76373 32988 02404 10280 21058 38178 40026 57019 92350 333 10310 20050 30/// 50821 59017 70000;","Q01  00002PRCP24"
"76373099999","2010-04-12T18:00:00","4","25.35","-105.75","1967.0","TEPEHUANES DGO., MX","FM-12","99999","V020","160,1,N,0010,1","22000,1,9,N","070000,1,N,1","+0254,1","+0029,1","10100,1",,,,,,,,"01,99,1,01,1,02,1,00800,1,00,1,00,1",,"01,9",,"120,M,+0284,1","240,N,+0040,1","99999,9,08177,1","7,1,020,1,-004,1",,"SYN113AAXX  12181 76373 32588 11601 10254 20029 38177 40100 57020 81200 91750 333 10284 20040 30/// 56900 590045 81825;",
"76373099999","2010-04-15T00:00:00","4","25.35","-105.75","1967.0","TEPEHUANES DGO., MX","FM-12","99999","V020","280,1,N,0050,1","22000,1,9,N","070000,1,N,1","+0263,1","-0040,1","10001,1","24,0000,9,1",,,,,,,"01,99,1,01,1,01,1,00800,1,00,1,00,1",,"01,9",,"120,M,+0310,1","180,N,+0056,1","99999,9,08148,1","9,9,999,9,+011,1",,"SYN124AAXX  15001 76373 32588 12805 10263 21040 38148 40001 5//// 81100 92350 333 10310 20056 30/// 50711 56900 58011 70000 81827;",
"76373099999","2010-04-17T18:00:00","4","25.35","-105.75","1967.0","TEPEHUANES DGO., MX","FM-12","99999","V020","130,1,N,0020,1","22000,1,9,N","070000,1,N,1","+0272,1","+0078,1","10053,1",,,,,"02,1,+00840,1,06,1",,,"03,99,1,03,1,04,1,00800,1,00,1,00,1",,"01,9",,"120,M,+0320,1",,"99999,9,08168,1",,,"SYN112AAXX  17181 76373 32588 31302 10272 20078 38168 40053 5//// 83400 91750 333 10320 2//// 30/// 58/// 82628 81828;",
"76373099999","2010-04-17T21:00:00","4","25.35","-105.75","1967.0","TEPEHUANES DGO., MX","FM-12","99999","V020","290,1,N,0050,1","22000,1,9,N","070000,1,N,1","+0310,1","+0011,1","10010,1",,,,,"03,1,+00840,1,06,1",,,"03,99,1,99,9,04,1,00800,1,00,1,00,1",,"01,9",,,,"99999,9,08150,1","7,1,018,1,+999,9",,"SYN100AAXX  17211 76373 32588 32905 10310 20011 38150 40010 57018 85400 92050 333 30/// 56900 58/// 83628;","Q01+000052SCOTLC"
"76373099999","2010-04-18T00:00:00","4","25.35","-105.75","1967.0","TEPEHUANES DGO., MX","FM-12","99999","V020","230,1,N,0050,1","22000,1,9,N","070000,1,N,1","+0264,1","+0046,1","09992,1","24,0000,9,1",,,,,,,"02,99,1,02,1,02,1,00800,1,00,1,00,1",,"01,9",,"120,M,+0320,1",,"99999,9,08150,1","4,1,000,1,+999,9",,"SYN124AAXX  18001 76373 32588 22305 10264 20046 38150 49992 54000 82200 92350 333 10320 2//// 30/// 5//// 56900 58/// 70000 82827;",
"76373099999","2010-04-18T15:00:00","4","25.35","-105.75","1967.0","TEPEHUANES DGO., MX","FM-12","99999","V020","999,9,C,0000,1","22000,1,9,N","070000,1,N,1","+0132,1","+0047,1","10136,1",,,,,"00,1,+99999,9,99,9",,,"00,99,1,00,1,00,1,99999,9,00,1,00,1",,"01,9",,,,"99999,9,08201,1",,,"SYN082AAXX  18151 76373 32988 00000 10132 20047 38201 40136 5//// 91450 333 30/// 58///;",
"76373099999","2010-04-19T12:00:00","4","25.35","-105.75","1967.0","TEPEHUANES DGO., MX","FM-12","99999","V020","999,9,C,0000,1","22000,1,9,N","001000,1,N,1","+0108,1","+0064,1","10077,1","24,0000,9,1",,,,"00,1,+99999,9,99,9",,,"00,99,1,00,1,00,1,99999,9,00,1,00,1",,"01,9",,"120,N,+0060,1","240,M,+0280,1","99999,9,08177,1",,,"SYN100AAXX  19121 76373 32910 00000 10108 20064 38177 40077 5//// 91150 333 10280 20060 30060 58/// 70000;","Q01  00002PRCP24"
"76373099999","2010-04-23T18:00:00","4","25.35","-105.75","1967.0","TEPEHUANES DGO., MX","FM-12","99999","V020","220,1,N,0060,1","22000,1,9,N","070000,1,N,1","+0281,1","-0030,1","10055,1",,,,,"00,1,+99999,9,99,9",,,"00,99,1,00,1,00,1,99999,9,00,1,00,1",,"01,9",,"120,M,+0280,1",,"99999,9,08151,1","9,9,999,9,-059,1",,"SYN094AAXX  23181 76373 32988 02206 10281 21030 38151 40055 5//// 91750 333 10280 2//// 30/// 59059;",
"76373099999","2010-04-23T21:00:00","4","25.35","-105.75","1967.0","TEPEHUANES DGO., MX","FM-12","99999","V020","240,1,N,0050,1","22000,1,9,N","070000,1,N,1","+0230,1","-0017,1","99999,9",,,,,"00,1,+99999,9,99,9",,,"00,99,1,00,1,00,1,99999,9,00,1,00,1",,"01,9",,,,"99999,9,08209,1","2,1,058,1,+999,9",,"SYN082AAXX  23211 76373 32988 02405 10230 21017 38209 40115 52058 92050 333 30/// 58///;","Q01+101153APOSLP"
"76373099999","2010-04-24T00:00:00","4","25.35","-105.75","1967.0","TEPEHUANES DGO., MX","FM-12","99999","V020","240,1,N,0050,1","22000,1,9,N","070000,1,N,1","+0218,1","-0008,1","99999,9","24,0000,9,1",,,,"00,1,+99999,9,99,9",,,"00,99,1,00,1,00,1,99999,9,00,1,00,1",,"01,9",,"120,M,+0270,1",,,"7,1,063,2,-058,1",,"SYN106AAXX  24001 76373 32988 02405 10218 21008 38146 40008 57063 92350 333 10270 2//// 30/// 5//// 59058 70000;","Q01+081463APOSP Q02  00002PRCP24"
"76373099999","2010-04-24T18:00:00","4","25.35","-105.75","1967.0","TEPEHUANES DGO., MX","FM-12","99999","V020","310,1,N,0010,1","22000,1,9,N","070000,1,N,1","+0240,1","-0097,1","10092,1",,,,,"00,1,+99999,9,99,9",,,"00,99,1,00,1,00,1,99999,9,00,1,00,1",,"01,9",,"120,M,+0250,1","240,N,-0016,1","99999,9,08168,1","9,9,999,9,+017,1",,"SYN094AAXX  24181 76373 32988 03101 10240 21097 38168 40092 5//// 91750 333 10250 21016 30/// 58017;",
"76373099999","2010-04-27T18:00:00","4","25.35","-105.75","1967.0","TEPEHUANES DGO., MX","FM-12","99999","V020","050,1,N,0020,1","99999,9,9,N","070000,1,N,1","+0258,1","-0032,1","10078,1",,,,,"03,1,+00810,1,06,1",,,"05,99,1,99,9,99,9,00800,1,99,9,99,9",,"01,9",,"120,M,+0290,1",,"99999,9,08166,1","9,9,999,9,-005,1",,"SYN112AAXX  27181 76373 32588 50502 10258 21032 38166 40078 5//// 91750 333 10290 2//// 30/// 56990 59005 83627 82358;",
"76373099999","2010-04-29T21:00:00","4","25.35","-105.75","1967.0","TEPEHUANES DGO., MX","FM-12","99999","V020","250,1,N,0060,1","22000,1,9,N","030000,1,N,1","+0272,1","-0064,1","10026,1",,,,,"00,1,+99999,9,99,9",,,"00,99,1,00,1,00,1,99999,9,00,1,00,1",,"01,9",,,,"99999,9,08146,1","7,1,020,1,+999,9",,"SYN082AAXX  29211 76373 32980 02506 10272 21064 38146 40026 57020 92055 333 30/// 58///;",
"76373099999","2010-04-30T00:00:00","4","25.35","-105.75","1967.0","TEPEHUANES DGO., MX","FM-12","99999","V020","290,1,N,0050,1","22000,1,9,N","030000,1,N,1","+0232,1","-0024,1","09995,1","24,0000,9,1",,,,"00,1,+99999,9,99,9",,,"00,99,1,00,1,00,1,99999,9,00,1,00,1",,"01,9",,"120,M,+0300,1","180,N,-0010,1","99999,9,08142,1","7,1,004,1,-012,1",,"SYN106AAXX  30001 76373 32980 02905 10232 21024 38142 49995 57004 92355 333 10300 21010 30/// 50851 59012 70000;","Q01  00002PRCP24"
"76373099999","2010-04-30T18:00:00","4","25.35","-105.75","1967.0","TEPEHUANES DGO., MX","FM-12","99999","V020","290,1,N,0060,1","22000,1,9,N","030000,1,N,1","+0240,1","-0070,1","10045,1",,,,,"00,1,+99999,9,99,9",,,"00,99,1,00,1,00,1,99999,9,00,1,00,1",,"01,9",,"120,M,+0260,1","240,N,+0020,1","99999,9,08130,1","7,1,014,1,-033,1",,"SYN094AAXX  30181 76373 32980 02906 10240 21070 38130 40045 57014 91755 333 10260 20020 30/// 59033;",
"76373099999","2010-04-30T21:00:00","4","25.35","-105.75","1967.0","TEPEHUANES DGO., MX","FM-12","99999","V020","290,1,N,0060,1","22000,1,9,N","030000,1,N,1","+0240,1","-0060,1","10003,1",,,,,"00,1,+99999,9,99,9",,,"00,99,1,00,1,00,1,99999,9,00,1,00,1",,"01,9",,,,"99999,9,08118,1","7,1,028,1,-032,1",,"SYN082AAXX  30211 76373 32980 02906 10240 21060 38118 40003 57028 92055 333 30/// 59032;",
"76373099999","2010-05-01T00:00:00","4","25.35","-105.75","1967.0","TEPEHUANES DGO., MX","FM-12","99999","V020","250,1,N,0050,1","22000,1,9,N","030000,1,N,1","+0220,1","-0042,1","09967,1","24,0000,9,5",,,,"00,1,+99999,9,99,9",,,"00,99,1,00,1,00,1,99999,9,00,1,00,1",,,,"180,N,+0020,1",,"99999,9,08113,1","9,9,999,9,-031,1",,"SYN106AAXX  01001 76373 32980 02505 10220 21042 38113 49967 5705 92355 333 1 0270 20020 30/// 50910 59031 70000;",
"76373099999","2010-05-01T15:00:00","4","25.35","-105.75","1967.0","TEPEHUANES DGO., MX","FM-12","99999","V020","290,1,N,0050,1","22000,1,9,N","030000,1,N,1","+0150,1","+0019,1","10017,1",,,,,,,,"04,99,1,04,1,04,1,00800,1,00,1,00,1",,"01,9",,,,"99999,9,08121,1","2,1,011,1,-034,1",,"SYN088AAXX  01151 76373 32580 42905 10150 20019 38121 40017 52011 84400 91455 333 30/// 59034;",
"76373099999","2010-05-04T12:00:00","4","25.35","-105.75","1967.0","TEPEHUANES DGO., MX","FM-12","99999","V020","999,9,C,0000,1","22000,1,9,N","070000,1,N,1","+0029,1","-0040,1","10174,1","24,0000,9,5",,,,"00,1,+99999,9,99,9",,,"00,99,1,00,1,00,1,99999,9,00,1,00,1",,"01,9","999,+0004,9","120,N,+0029,1","240,M,+0310,1","99999,9,08240,1",,,"SYN112AAXX  04121 76373 32988 00000 10029 21040 38240 40174 5//// 91150 333 10310 20029 30004 55/// 2//// 58/// 70000;",
"76373099999","2010-05-04T15:00:00","4","25.35","-105.75","1967.0","TEPEHUANES DGO., MX","FM-12","99999","V020","999,9,C,0000,1","22000,1,9,N","070000,1,N,1","+0138,1","-0070,1","10208,1",,,,,"00,1,+99999,9,99,9",,,"00,99,1,00,1,00,1,99999,9,00,1,00,1",,"01,9",,,,"99999,9,08247,1","2,1,007,1,+999,9",,"SYN082AAXX  04151 76373 32988 00000 10138 21070 38247 40208 52007 91450 333 30/// 58///;",
"76373099999","2010-05-04T18:00:00","4","25.35","-105.75","1967.0","TEPEHUANES DGO., MX","FM-12","99999","V020","120,1,N,0030,1","22000,1,9,N","070000,1,N,1","+0255,1","-0069,1","10177,1",,,,,"00,1,+99999,9,99,9",,,"00,99,1,00,1,00,1,99999,9,00,1,00,1",,"01,9",,"120,M,+0272,1","240,N,+0014,1","99999,9,08226,1","7,1,021,1,+999,9",,"SYN094AAXX  04181 76373 32988 01203 10255 21069 38226 40177 57021 91750 333 10272 20014 30/// 58///;",
"76373099999","2010-05-04T21:00:00","4","25.35","-105.75","1967.0","TEPEHUANES DGO., MX","FM-12","99999","V020","110,1,N,0030,1","22000,1,9,N","070000,1,N,1","+0327,1","-0068,1","10098,1",,,,,"00,1,+99999,9,99,9",,,"00,99,1,00,1,00,1,99999,9,00,1,00,1",,"01,9",,,,"99999,9,08191,1","7,1,035,1,+999,9",,"SYN082AAXX  04211 76373 32988 01103 10327 21068 38191 40098 57035 92050 333 30/// 58///;",
"76373099999","2010-05-05T00:00:00","4","25.35","-105.75","1967.0","TEPEHUANES DGO., MX","FM-12","99999","V020","280,1,N,0050,1","22000,1,9,N","070000,1,N,1","+0318,1","-0108,1","10042,2","24,0000,9,1",,,,"00,1,+99999,9,99,9",,,"00,99,1,00,1,00,1,99999,9,00,1,00,1",,"01,9",,"120,M,+0356,1","180,N,+0014,1","99999,9,08189,1","5,1,001,1,-014,1",,"SYN106AAXX  05001 76373 32988 02805 10318 21108 38189 40042 55001 92350 333 10356 20014 30/// 50941 59014 70000;","Q01  00002PRCP24"
"76373099999","2010-05-05T18:00:00","4","25.35","-105.75","1967.0","TEPEHUANES DGO., MX","FM-12","99999","V020","050,1,N,0010,1","22000,1,9,N","070000,1,N,1","+0306,1","+9999,9","99999,9",,,,,"00,1,+99999,9,99,9",,,"00,99,1,00,1,00,1,99999,9,00,1,00,1",,"01,9",,"120,M,+0322,1","240,N,+0060,1","99999,9,08198,1","7,1,035,1,-028,1",,"SYN094AAXX  05181 76373 32988 00501 10306 2//// 38198 4//// 57035 91750 333 10322 20060 30/// 59028;",
"76373099999","2010-05-05T21:00:00","4","25.35","-105.75","1967.0","TEPEHUANES DGO., MX","FM-12","99999","V020","230,1,N,0040,1","22000,1,9,N","050000,1,N,1","+0354,1","+9999,9","99999,9",,,,,"00,1,+99999,9,99,9",,,"00,99,1,00,1,00,1,99999,9,00,1,00,1",,"01,9",,,,"99999,9,08199,1","0,1,001,1,+008,1",,"SYN082AAXX  05211 76373 32984 02304 10354 2//// 38199 4//// 50001 92050 333 30/// 58008;",
"76373099999","2010-05-06T00:00:00","4","25.35","-105.75","1967.0","TEPEHUANES DGO., MX","FM-12","99999","V020","240,1,N,0050,1","22000,1,9,N","050000,1,N,1","+0328,1","+0010,1","99999,9","24,0000,9,1",,,,"00,1,+99999,9,99,9",,,"00,99,1,00,1,00,1,99999,9,00,1,00,1",,"01,9",,"120,M,+0362,1","180,N,+0060,1","99999,9,08197,1","2,1,002,1,+010,1",,"SYN106AAXX  06001 76373 32984 02405 10328 20010 38197 4//// 52002 92340 333 10362 20060 30/// 50871 58010 70000;","Q01  00002PRCP24"
"76373099999","2010-05-06T03:00:00","4","25.35","-105.75","1967.0","TEPEHUANES DGO., MX","FM-12","99999","V020","290,1,N,0010,1","22000,1,9,N","001000,1,N,1","+0240,1","+9999,9","99999,9",,,,,"00,1,+99999,9,99,9",,,"00,99,1,00,1,00,1,99999,9,00,1,00,1",,"01,9",,,,"99999,9,08206,1","2,1,009,1,+006,1",,"SYN082AAXX  06031 76373 32910 02901 10240 2//// 38206 4//// 52009 90255 333 30/// 58006;",
"76373099999","2010-05-06T12:00:00","4","25.35","-105.75","1967.0","TEPEHUANES DGO., MX","FM-12","99999","V020","999,9,C,0000,1","22000,1,9,N","001000,1,N,1","+0098,1","+9999,9","99999,9","24,0000,9,5",,,,"00,1,+99999,9,99,9",,,"00,99,1,00,1,00,1,99999,9,00,1,00,1","0720,9","01,9",,"120,N,+0081,1","240,M,+0362,1","99999,9,08223,1","9,9,999,9,-001,1",,"SYN112AAXX  06121 76373 32910 00000 10098 2//// 38223 4//// 5//// 91150 333 10362 20081 30070 55120 52461 59001 70000;",
"76373099999","2010-05-06T15:00:00","4","25.35","-105.75","1967.0","TEPEHUANES DGO., MX","FM-12","99999","V020","999,9,C,0000,1","22000,1,9,N","030000,1,N,1","+0194,1","+9999,9","99999,9",,,,,"00,1,+99999,9,99,9",,,"00,99,1,00,1,00,1,99999,9,00,1,00,1",,"01,9",,,,"99999,9,08225,1","0,1,002,1,-008,1",,"SYN082AAXX  06151 76373 32980 00000 10194 2//// 38225 4//// 50002 91455 333 30/// 59008;",
"76373099999","2010-05-06T18:00:00","4","25.35","-105.75","1967.0","TEPEHUANES DGO., MX","FM-12","99999","V020","320,1,N,0020,1","22000,1,9,N","030000,1,N,1","+0312,1","+9999,9","99999,9",,,,,"00,1,+99999,9,99,9",,,"00,99,1,00,1,00,1,99999,9,00,1,00,1",,"01,9",,"120,M,+0332,1","240,N,+0080,1","99999,9,08212,1","7,1,013,1,+014,1",,"SYN094AAXX  06181 76373 32980 03202 10312 2//// 38212 4//// 57013 91755 333 10332 20080 30/// 58014;",
"76373099999","2010-05-06T21:00:00","4","25.35","-105.75","1967.0","TEPEHUANES DGO., MX","FM-12","99999","V020","290,1,N,0060,1","22000,1,9,N","030000,1,N,1","+0336,1","+9999,9","99999,9",,,,,"01,1,+00750,1,08,1",,,"01,99,1,01,1,01,1,00800,1,00,1,00,1",,"01,9",,,,"99999,9,08205,1","7,1,009,1,+008,1",,"SYN094AAXX  06211 76373 32580 12906 10336 2//// 38205 4//// 57009 81100 92055 333 30/// 58008 81825;",
"76373099999","2010-05-07T00:00:00","4","25.35","-105.75","1967.0","TEPEHUANES DGO., MX","FM-12","99999","V020","290,1,N,0050,1","22000,1,9,N","030000,1,N,1","+0310,1","+9999,9","99999,9","24,0000,9,1",,,,,,,"01,99,1,01,1,01,1,00800,1,00,1,00,1",,"01,9",,"120,M,+0350,1","180,N,+0081,1","99999,9,08202,1","5,1,003,1,+999,9",,"SYN124AAXX  07001 76373 32580 12905 10310 2//// 38202 4//// 55003 81100 92355 333 10350 20081 30/// 50901 58900 58005 70000 81825;",
"76373099999","2010-05-07T03:00:00","4","25.35","-105.75","1967.0","TEPEHUANES DGO., MX","FM-12","99999","V020","290,1,N,0020,1","22000,1,9,N","001000,1,N,1","+0248,1","+9999,9","99999,9",,,,,"00,1,+99999,9,99,9",,,"00,99,1,00,1,00,1,99999,9,00,1,00,1",,"01,9",,,,"99999,9,08214,1","2,1,012,1,+008,1",,"SYN082AAXX  07031 76373 32910 02902 10248 2//// 38214 4//// 52012 90255 333 30/// 58008;",
"76373099999","2010-05-07T12:00:00","4","25.35","-105.75","1967.0","TEPEHUANES DGO., MX","FM-12","99999","V020","250,1,N,0010,1","22000,1,9,N","001000,1,N,1","+0112,1","+9999,9","99999,9","24,0000,9,5",,,,"00,1,+99999,9,99,9",,,"00,99,1,00,1,00,1,99999,9,00,1,00,1","0744,9","01,9",,"120,N,+0080,1","240,M,+0350,1","99999,9,08216,1","9,9,999,9,-009,1",,"SYN112AAXX  07121 76373 32910 02501 10112 2//// 38216 4//// 5//// 91155 333 10350 20080 30072 55124 22415 59009 70000;",
"76373099999","2010-05-07T15:00:00","4","25.35","-105.75","1967.0","TEPEHUANES DGO., MX","FM-12","99999","V020","320,1,N,0010,1","22000,1,9,N","030000,1,N,1","+0190,1","+9999,9","99999,9",,,,,"00,1,+99999,9,99,9",,,"00,99,1,00,1,00,1,99999,9,00,1,00,1",,"01,9",,,,,"2,1,006,1,-003,1",,"SYN076AAXX  07151 76373 32980 03201 10190 2//// 4//// 52006 91455 333 30/// 59003;",
"76373099999","2010-05-07T18:00:00","4","25.35","-105.75","1967.0","TEPEHUANES DGO., MX","FM-12","99999","V020","070,1,N,0010,1","22000,1,9,N","030000,1,N,1","+0330,1","+9999,9","99999,9",,,,,,,,"02,99,1,02,1,02,1,00800,1,00,1,00,1",,"01,9",,"120,M,+0330,1","240,N,+0080,1","99999,9,08218,1","7,1,004,1,+004,1",,"SYN106AAXX  07181 76373 32580 20701 10330 2//// 38218 4//// 57004 82200 91755 333 10330 20080 30/// 56900 58004;",
"76373099999","2010-05-07T21:00:00","4","25.35","-105.75","1967.0","TEPEHUANES DGO., MX","FM-12","99999","V020","070,1,N,0010,1","22000,1,9,N","030000,1,N,1","+0358,1","+9999,9","99999,9",,,,,,,,"03,99,1,03,1,03,1,00800,1,00,1,00,1",,"01,9",,,,"99999,9,08198,1","7,1,021,1,-007,1",,"SYN088AAXX  07211 76373 32580 30701 10358 2//// 38198 4//// 57021 83300 92055 333 30/// 59007;",
"76373099999","2010-05-08T00:00:00","4","25.35","-105.75","1967.0","TEPEHUANES DGO., MX","FM-12","99999","V020","230,1,N,0050,1","22000,1,9,N","030000,1,N,1","+0340,1","+9999,9","99999,9","24,0000,9,1",,,,,,,"04,99,1,04,1,04,1,00800,1,00,1,00,1",,"01,9",,"120,M,+0390,1","180,N,+0080,1","99999,9,08194,1","5,1,004,1,-004,1",,"SYN124AAXX  08001 76373 32580 42305 10340 2//// 38194 4//// 55004 84400 92355 333 10390 20080 30/// 50871 56900 59004 70000 84625;",
"76373099999","2010-05-11T21:00:00","4","25.35","-105.75","1967.0","TEPEHUANES DGO., MX","FM-12","99999","V020","240,1,N,0060,1","22000,1,9,N","045000,1,N,1","+0320,1","+9999,9","99999,9",,,,,,,,"02,99,1,01,1,02,1,00800,1,00,1,09,1",,"01,9",,,,"99999,9,08188,1","7,1,016,1,+999,9",,"SYN100AAXX  11211 76373 32583 22406 10320 2//// 38188 4//// 57016 81209 92050 333 30/// 58/// 56303 81827;",
"76373099999","2010-05-12T00:00:00","4","25.35","-105.75","1967.0","TEPEHUANES DGO., MX","FM-12","99999","V020","240,1,N,0050,1","22000,1,9,N","070000,1,N,1","+0306,1","+9999,9","99999,9","24,0000,9,1",,,,,,,"02,99,1,01,1,08,1,00800,1,03,1,00,1",,"01,9",,"120,M,+0344,1","180,N,+0074,1","99999,9,08178,1","7,1,010,1,+999,9",,"SYN124AAXX  12001 76373 32588 22405 10306 2//// 38178 4//// 57010 81830 92350 333 10344 20074 30/// 50841 56330 58/// 70000 81827;",
"76373099999","2010-05-12T15:00:00","4","25.35","-105.75","1967.0","TEPEHUANES DGO., MX","FM-12","99999","V020","999,9,C,0000,1","05100,1,9,N","045000,1,N,1","+0188,1","+9999,9","99999,9",,,,,"07,1,+05100,1,09,1",,,"07,99,1,99,9,00,1,99999,9,00,1,09,1",,"01,9",,,,"99999,9,08200,1","2,1,010,1,+999,9",,"SYN100AAXX  12151 76373 32983 70000 10188 2//// 38200 4//// 52010 80009 91450 333 30/// 56000 58/// 87967;","Q01+000002SCOTLC"
"76373099999","2010-05-12T18:00:00","4","25.35","-105.75","1967.0","TEPEHUANES DGO., MX","FM-12","99999","V020","250,1,N,0060,1","22000,1,9,N","045000,1,N,1","+0294,1","+9999,9","99999,9",,,,,"02,1,+05100,1,08,1",,,"03,99,1,99,9,00,1,99999,9,00,1,08,1",,"01,9",,"120,M,+0306,1","240,N,+0064,1","99999,9,08192,1","7,1,008,1,+999,9",,"SYN112AAXX  12181 76373 32983 32506 10294 2//// 38192 4//// 57008 80008 91750 333 10306 20064 30/// 56009 58/// 82867;","Q01+000002SCOTLC"
"76373099999","2010-05-13T12:00:00","4","25.35","-105.75","1967.0","TEPEHUANES DGO., MX","FM-12","99999","V020","999,9,C,0000,1","22000,1,9,N","001000,1,N,1","+0058,1","+9999,9","99999,9","24,0000,9,5",,,,"00,1,+99999,9,99,9",,,"00,99,1,00,1,00,1,99999,9,00,1,00,1","0726,9","01,9","999,+0032,9","120,N,+0042,1","240,M,+0316,1","99999,9,08202,1","9,9,999,9,+012,1",,"SYN112AAXX  13121 76373 32910 00000 10058 2//// 38202 4//// 5//// 91150 333 10316 20042 30032 55121 22553 58012 70000;",
"76373099999","2010-05-18T00:00:00","4","25.35","-105.75","1967.0","TEPEHUANES DGO., MX","FM-12","99999","V020","300,1,N,0050,1","22000,1,9,N","030000,1,N,1","+0300,1","+9999,9","99999,9","24,0000,9,1",,,,,,,"03,99,1,03,1,05,1,00800,1,00,1,00,1",,"01,9",,"120,M,+0324,1","180,N,+0050,1","99999,9,08197,1",,,"SYN124AAXX  18001 76373 32580 33005 10300 2//// 38197 4//// 5//// 83500 92350 333 10324 20050 30/// 50801 56900 58/// 70000 83527;",
"76373099999","2010-05-18T12:00:00","4","25.35","-105.75","1967.0","TEPEHUANES DGO., MX","FM-12","99999","V020","999,9,C,0000,1","22000,1,9,N","001000,1,N,1","+0088,1","+9999,9","99999,9","24,0000,9,1",,,,,,,"03,99,1,03,1,00,1,01750,1,01,1,00,1",,"01,9","999,+0050,9","120,N,+0066,1","240,M,+0324,1","99999,9,08223,1",,,"SYN124AAXX  18121 76373 32710 30000 10088 2//// 38223 4//// 5//// 83010 91150 333 10324 20066 30050 55/// 56000 58/// 70000 83156;",
"76373099999","2010-05-18T15:00:00","4","25.35","-105.75","1967.0","TEPEHUANES DGO., MX","FM-12","99999","V020","050,1,N,0010,1","01800,1,9,N","030000,1,N,1","+0190,1","+9999,9","99999,9",,,,,"06,1,+01800,1,01,1",,,"06,99,1,06,1,00,1,01750,1,01,1,00,1",,"01,9",,,,"99999,9,08234,1","2,1,011,1,+999,9",,"SYN100AAXX  18151 76373 32780 60501 10190 2//// 38234 4//// 52011 86010 91450 333 30/// 56900 58/// 86156;",
"76373099999","2010-05-18T18:00:00","4","25.35","-105.75","1967.0","TEPEHUANES DGO., MX","FM-12","99999","V020","250,1,N,0050,1","22000,1,9,N","030000,1,N,1","+0304,1","+9999,9","99999,9",,,,,"02,1,+01800,1,01,1",,,"04,99,1,02,1,00,1,01750,1,01,1,04,1",,"01,9",,"120,M,+0312,1","240,N,+0066,1","99999,9,08215,1","7,1,019,1,+999,9",,"SYN112AAXX  18181 76373 32780 42505 10304 2//// 38215 4//// 57019 82014 91750 333 10312 20066 30/// 56099 58/// 82156;",
"76373099999","2010-05-19T00:00:00","4","25.35","-105.75","1967.0","TEPEHUANES DGO., MX","FM-12","99999","V020","250,1,N,0040,1","22000,1,9,N","030000,1,N,1","+0304,1","+9999,9","99999,9","24,0000,9,1",,,,,,,"03,99,1,01,1,01,1,00800,1,00,1,04,1",,"01,9",,"120,M,+0330,1","180,N,+0066,1","99999,9,08186,1","7,1,011,1,-011,1",,"SYN124AAXX  19001 76373 32580 32504 10304 2//// 38186 4//// 57011 81104 92350 333 10330 20066 30/// 50101 56909 59011 70000 81127;",
"76373099999","2010-05-19T12:00:00","4","25.35","-105.75","1967.0","TEPEHUANES DGO., MX","FM-12","99999","V020","999,9,C,0000,1","22000,1,9,N","001000,1,N,1","+0086,1","+9999,9","99999,9","24,0000,9,1",,,,,,,"01,99,1,01,1,02,1,00800,1,00,1,00,1","0720,9","01,9",,"120,N,+0065,1","240,M,+0330,1","99999,9,08220,1","9,9,999,9,-003,1",,"SYN130AAXX  19121 76373 32510 10000 10086 2//// 38220 4//// 5//// 81200 91150 333 10330 20065 30052 55120 22408 56000 59003 70000 81227;",
"76373099999","2010-05-19T15:00:00","4","25.35","-105.75","1967.0","TEPEHUANES DGO., MX","FM-12","99999","V020","310,1,N,0010,1","22000,1,9,N","030000,1,N,1","+0180,1","+9999,9","99999,9",,,,,"01,1,+05100,1,04,1",,,"01,99,1,99,9,00,1,99999,9,99,9,04,1",,"01,9",,,,"99999,9,08217,1","6,1,003,1,-017,1",,"SYN100AAXX  19151 76373 32980 13101 10180 2//// 38217 4//// 56003 80004 91450 333 30/// 56000 59017 81467;","Q01+000002SCOTLC"
"76373099999","2010-05-19T18:00:00","4","25.35","-105.75","1967.0","TEPEHUANES DGO., MX","FM-12","99999","V020","240,1,N,0040,1","22000,1,9,N","030000,1,N,1","+0310,1","-0045,1","10085,1",,,,,"00,1,+99999,9,99,9",,,"00,99,1,00,1,00,1,99999,9,00,1,00,1",,"01,9",,"120,M,+0320,1","240,N,+0066,1","99999,9,08195,1","7,1,022,1,-010,1",,"SYN094AAXX  19181 76373 32980 02404 10310 21045 38195 40085 57022 91750 333 10320 20066 30/// 59010;",
"76373099999","2010-05-19T21:00:00","4","25.35","-105.75","1967.0","TEPEHUANES DGO., MX","FM-12","99999","V020","300,1,N,0050,1","22000,1,9,N","030000,1,N,1","+0330,1","+9999,9","99999,9",,,,,,,,"01,99,1,99,9,99,9,00800,1,99,9,99,9",,,,,,"99999,9,08160,1","9,9,999,9,-017,1",,"SYN099AAXX  19211 76373 32580 13005 10330 2//// 38160 4/// 57025 81100 92050 333 30/// 56900 59017 81127;",
"76373099999","2010-05-20T00:00:00","4","25.35","-105.75","1967.0","TEPEHUANES DGO., MX","FM-12","99999","V020","280,1,N,0050,1","22000,1,9,N","030000,1,N,1","+0312,1","+9999,9","99999,9","24,0000,9,1",,,,,,,"01,99,1,01,1,01,1,00800,1,00,1,00,1",,"01,9",,"120,M,+0342,1","180,N,+0065,1","99999,9,08167,1","5,1,003,1,-019,1",,"SYN124AAXX  20001 76373 32580 12805 10312 2//// 38167 4//// 55003 81100 92350 333 10342 20065 30/// 50951 56900 59019 70000 81127;",
"76373099999","2010-05-20T12:00:00","4","25.35","-105.75","1967.0","TEPEHUANES DGO., MX","FM-12","99999","V020","999,9,C,0000,1","22000,1,9,N","001000,1,N,1","+0086,1","+9999,9","10000,1","24,0000,9,5",,,,"00,1,+99999,9,99,9",,,"00,99,1,00,1,00,1,99999,9,00,1,00,1","0720,9","01,9","999,+0050,9","120,N,+0062,1","240,M,+0342,1","99999,9,08202,1","9,9,999,9,-018,1",,"SYN112AAXX  20121 76373 32910 00000 10086 2//// 38202 40000 5//// 91150 333 10342 20062 30050 55120 22666 59018 70000;",
"76373099999","2010-05-21T12:00:00","4","25.35","-105.75","1967.0","TEPEHUANES DGO., MX","FM-12","99999","V020","999,9,C,0000,1","22000,1,9,N","001000,1,N,1","+0084,1","+9999,9","99999,9","24,0000,9,1",,,,,,,"01,99,1,01,1,00,1,01750,1,04,1,00,1","0720,9","01,9","999,+0050,9","120,N,+0064,1","240,M,+0300,1","99999,9,08206,1","9,9,999,9,+004,1",,"SYN130AAXX  21121 76373 32710 10000 10084 2//// 38206 4//// 5//// 81040 91150 333 10300 20064 30050 55120 22551 56000 58004 70000 81456;",
"76373099999","2010-05-23T00:00:00","4","25.35","-105.75","1967.0","TEPEHUANES DGO., MX","FM-12","99999","V020","240,1,N,0040,1","22000,1,9,N","030000,1,N,1","+0300,1","+9999,9","99999,9","24,0000,9,1",,,,"00,1,+99999,9,99,9",,,"00,99,1,00,1,00,1,99999,9,00,1,00,1",,"01,9",,"120,M,+0370,1","180,N,+0070,1","99999,9,08173,1",,,"SYN106AAXX  23001 76373 32980 02404 10300 2//// 38173 4//// 5//// 92350 333 10370 20070 30/// 50941 58/// 70000;","Q01  00002PRCP24"
"76373099999","2010-05-24T00:00:00","4","25.35","-105.75","1967.0","TEPEHUANES DGO., MX","FM-12","99999","V020","230,1,N,0040,1","22000,1,9,N","030000,1,N,1","+0296,1","+9999,9","09970,1","24,0000,9,1",,,,,,,"01,99,1,01,1,04,1,99999,9,00,1,00,1",,"01,9",,"120,M,+0326,1","180,N,+0064,1",,"9,9,999,9,-008,1",,"SYN124AAXX  24001 76373 32980 12304 10296 2//// 49970 5//// 68165 81400 92350 333 10326 20064 30/// 50901 56900 59008 70000 81467;",
"76373099999","2010-05-24T12:00:00","4","25.35","-105.75","1967.0","TEPEHUANES DGO., MX","FM-12","99999","V020","999,9,C,0000,1","22000,1,9,N","001000,1,N,1","+0078,1","+9999,9","10148,1","24,0000,9,1",,,,"02,1,+00810,1,02,1",,,"06,99,1,02,1,02,1,00800,1,00,1,04,1","0720,9","01,9",,"120,N,+0068,1","240,M,+0326,1","99999,9,08185,1","9,9,999,9,-005,1",,"SYN136AAXX  24121 76373 32510 60000 10078 2//// 38185 40148 5//// 82204 91150 333 10326 20068 30052 55120 22625 56000 59005 70000 82227 84467;",
"76373099999","2010-05-24T18:00:00","4","25.35","-105.75","1967.0","TEPEHUANES DGO., MX","FM-12","99999","V020","080,1,N,0020,1","03600,1,C,N","030000,1,N,1","+0244,1","-0032,1","10032,1",,,,,"01,1,+00750,1,04,1",,,"07,99,1,01,1,04,1,00800,1,07,1,00,1",,"01,9",,"120,M,+0256,1","240,N,+0068,1","99999,9,08194,1",,,"SYN118AAXX  24181 76373 32580 70802 10244 21032 38194 40032 5//// 81470 91750 333 10256 20068 30/// 56990 58/// 81425 86756;",
"76373099999","2010-05-25T00:00:00","4","25.35","-105.75","1967.0","TEPEHUANES DGO., MX","FM-12","99999","V020","250,1,N,0040,1","22000,1,9,N","030000,1,N,1","+0293,1","-0061,1","09963,1","24,0000,9,1",,,,,,,"05,99,1,01,1,00,1,01750,1,04,1,08,1",,"01,9",,"120,M,+0320,1","180,N,+0068,1","99999,9,08160,1","9,9,999,9,-005,1",,"SYN124AAXX  25001 76373 32780 52504 10293 21061 38160 49963 5//// 81048 92350 333 10320 20068 30/// 50911 56099 59005 70000 84867;",
"76373099999","2010-05-25T12:00:00","4","25.35","-105.75","1967.0","TEPEHUANES DGO., MX","FM-12","99999","V020","999,9,C,0000,1","22000,1,9,N","001000,1,N,1","+0070,1","-0022,1","99999,9","24,0000,9,1",,,,,,,"02,99,1,00,1,00,1,99999,9,00,1,06,1","0576,9","01,9","999,+0048,9","120,N,+0060,1","240,M,+0320,1","99999,9,08195,1","9,9,999,9,-010,1",,"SYN130AAXX  25121 76373 32910 20000 10070 21022 38195 40170 5//// 80006 91150 333 10320 20060 30048 55096 21761 56000 59010 70000 82667;","Q01 101703APOSLP"
"76373099999","2010-05-25T15:00:00","4","25.35","-105.75","1967.0","TEPEHUANES DGO., MX","FM-12","99999","V020","310,1,N,0010,1","22000,1,9,N","030000,1,N,1","+0160,1","+0032,1","10106,1",,,,,"01,1,+00810,1,02,1",,,"01,99,1,01,1,02,1,00800,1,00,1,00,1",,"01,9",,,,"99999,9,08201,1","2,1,005,1,+999,9",,"SYN100AAXX  25151 76373 32580 13101 10160 20032 38201 40106 52005 81200 91440 333 30/// 56000 58/// 81227;",
"76373099999","2010-05-25T18:00:00","4","25.35","-105.75","1967.0","TEPEHUANES DGO., MX","FM-12","99999","V020","250,1,N,0020,1","22000,1,9,N","030000,1,N,1","+0280,1","-0103,2","99999,9",,,,,"01,1,+00810,1,02,1",,,"01,99,1,01,1,02,1,00800,1,00,1,00,1",,"01,9",,"120,M,+0294,1","240,N,+0060,1","99999,9,08188,1","7,1,013,1,-006,1",,"SYN112AAXX  25181 76373 32580 12502 10280 21103 38188 49962 57013 81200 91740 333 10294 20060 30/// 56000 59006 81227;","Q01+099623APOSLP"
"76373099999","2010-05-25T21:00:00","4","25.35","-105.75","1967.0","TEPEHUANES DGO., MX","FM-12","99999","V020","050,1,N,0020,1","22000,1,9,N","030000,1,N,1","+0324,1","-0067,1","09956,1",,,,,"01,1,+00810,1,02,1",,,"01,99,1,01,1,02,1,00800,1,00,1,00,1",,"01,9",,,,"99999,9,08168,1","7,1,020,1,+999,9",,"SYN100AAXX  25211 76373 32580 10502 10324 21067 38168 49956 57020 81200 92040 333 30/// 56500 58/// 81227;",
"76373099999","2010-05-26T00:00:00","4","25.35","-105.75","1967.0","TEPEHUANES DGO., MX","FM-12","99999","V020","210,1,N,0020,1","22000,1,9,N","030000,1,N,1","+0332,1","-0036,1","09928,1","24,0000,9,1",,,,"00,1,+99999,9,99,9",,,"00,99,1,00,1,00,1,99999,9,00,1,00,1",,"01,9",,"120,M,+0356,1","180,N,+0060,1","99999,9,08150,1","7,1,018,1,-010,1",,"SYN106AAXX  26001 76373 32980 02102 10332 21036 38150 49928 57018 92350 333 10356 20060 30/// 50761 59010 70000;","Q01  00002PRCP24"
"76373099999","2010-05-26T12:00:00","4","25.35","-105.75","1967.0","TEPEHUANES DGO., MX","FM-12","99999","V020","999,9,C,0000,1","22000,1,9,N","001000,1,N,1","+0090,1","+0009,1","99999,9","24,0000,9,5",,,,"00,1,+99999,9,99,9",,,"00,99,1,00,1,00,1,99999,9,00,1,00,1","0720,9","01,9",,"120,N,+0078,1","240,M,+0356,1","99999,9,08188,1","9,9,999,9,-015,1",,"SYN112AAXX  26121 76373 32910 00000 10090 20009 38188 40141 5//// 91140 333 10356 20078 30068 55120 22577 59015 70000;","Q01 101413APOSLP"
"76373099999","2010-05-26T15:00:00","4","25.35","-105.75","1967.0","TEPEHUANES DGO., MX","FM-12","99999","V020","999,9,C,0000,1","22000,1,9,N","030000,1,N,1","+0184,1","+0031,1","10083,1",,,,,"00,1,+99999,9,99,9",,,"00,99,1,00,1,00,1,99999,9,00,1,00,1",,"01,9",,,,"99999,9,08197,1","2,1,009,1,+999,9",,"SYN082AAXX  26151 76373 32980 00000 10184 20031 38197 40083 52009 91440 333 30/// 58///;",
"76373099999","2010-05-26T18:00:00","4","25.35","-105.75","1967.0","TEPEHUANES DGO., MX","FM-12","99999","V020","130,1,N,0040,1","22000,1,9,N","030000,1,N,1","+0296,1","+0049,1","09995,1",,,,,"02,1,+00810,1,02,1",,,"02,99,1,02,1,02,1,00800,1,00,1,00,1",,"01,9",,"120,M,+0320,1","240,N,+0078,1","99999,9,08185,1","7,1,012,1,-003,1",,"SYN112AAXX  26181 76373 32580 21304 10296 20049 38185 49995 57012 82200 91740 333 10320 20078 30/// 56900 59003 82227;",
"76373099999","2010-05-26T21:00:00","4","25.35","-105.75","1967.0","TEPEHUANES DGO., MX","FM-12","99999","V020","110,1,N,0030,1","00750,1,C,N","030000,1,N,1","+0334,1","+0043,1","09944,2",,,,,"03,1,+00810,1,05,1",,,"05,99,1,05,1,05,1,00800,1,00,1,00,1",,"01,9",,,,"99999,9,08165,1","7,1,020,1,-003,1",,"SYN100AAXX  26211 76373 32580 51103 10334 20043 38165 49944 57020 85500 92040 333 30/// 56900 59003 83527;",
"76373099999","2010-05-27T00:00:00","4","25.35","-105.75","1967.0","TEPEHUANES DGO., MX","FM-12","99999","V020","050,1,N,0040,1","99999,9,9,N","030000,1,N,1","+0282,1","+0128,1","09967,1","24,0000,9,1",,,,"04,1,+00750,1,07,1",,,"07,99,1,04,1,07,1,00800,1,00,1,00,1",,"01,9",,"120,M,+0354,1","180,N,+0068,1","99999,9,08156,1","7,1,009,1,+006,1",,"SYN130AAXX  27001 76373 32580 70504 10282 20128 38156 49967 57009 84700 92340 333 10354 20068 30/// 50881 56900 58006 70000 84725 83525;",
"76373099999","2010-06-01T00:00:00","4","25.35","-105.75","1967.0","TEPEHUANES DGO., MX","FM-12","99999","V020","070,1,N,0010,1","99999,9,9,N","030000,1,N,1","+0272,1","+0099,1","09954,1","06,0000,9,1",,"5,1,06,1","1,1,06,1",,,,"06,99,1,99,9,99,9,00800,1,99,9,99,9",,,,,,"99999,9,08150,1","7,1,043,1,+999,9","01,1","SYN072AAXX  01001 76373 01580 60701 10272 20099 38150 49954 57043 69901 70151;","Q01  00002PRCP06"
"76373099999","2010-06-01T12:00:00","4","25.35","-105.75","1967.0","TEPEHUANES DGO., MX","FM-12","99999","V020","999,9,C,0000,1","22000,1,9,N","001000,1,N,1","+0110,1","+0072,1","10108,1","24,0010,9,1",,,,"00,1,+99999,9,99,9",,,"00,99,1,00,1,00,1,99999,9,00,1,00,1",,"01,9",,"120,N,+0088,1","240,M,+0354,1","99999,9,08174,1","9,9,999,9,-036,1",,"SYN106AAXX  01121 76373 32910 00000 10110 20072 38174 40108 5//// 91140 333 10354 20088 30070 55/// 59036 70010;",
"76373099999","2010-06-01T15:00:00","4","25.35","-105.75","1967.0","TEPEHUANES DGO., MX","FM-12","99999","V020","310,1,N,0010,1","22000,1,9,N","030000,1,N,1","+0193,1","+0092,1","10060,1",,,,,"00,1,+99999,9,99,9",,,"00,99,1,00,1,00,1,99999,9,00,1,00,1",,"01,9",,,,"99999,9,08182,1","2,1,008,1,-040,1",,"SYN082AAXX  01151 76373 32980 03101 10193 20092 38182 40060 52008 91440 333 30/// 59040;",
"76373099999","2010-06-01T21:00:00","4","25.35","-105.75","1967.0","TEPEHUANES DGO., MX","FM-12","99999","V020","300,1,N,0040,1","22000,1,9,N","030000,1,N,1","+0331,1","+0141,1","99999,9",,,,,"02,1,+00810,1,02,1",,,"02,99,1,02,1,02,1,00800,1,00,1,00,1",,"01,9",,,,"99999,9,08147,1","7,1,017,1,-046,1",,"SYN100AAXX  01211 76373 32580 23004 10331 20141 38147 49924 57017 82200 92040 333 30/// 56900 59046 82227;","Q01+099243APOSLP"
"76373099999","2010-06-02T12:00:00","4","25.35","-105.75","1967.0","TEPEHUANES DGO., MX","FM-12","99999","V020","310,1,N,0010,1","22000,1,9,N","001000,1,N,1","+0107,1","+0046,1","10106,1",,,,,"00,1,+99999,9,99,9",,,"00,99,1,00,1,00,1,99999,9,00,1,00,1","0720,9","01,9",,"120,N,+0086,1","240,M,+0352,1","99999,9,08164,1","9,9,999,9,-010,1",,"SYN112AAXX  02121 76373 32910 03101 10107 20046 38164 40106 5//// 91140 333 10352 20086 30068 55120 22545 59010 70000;",
"76373099999","2010-06-02T18:00:00","4","25.35","-105.75","1967.0","TEPEHUANES DGO., MX","FM-12","99999","V020","310,1,N,0020,1","22000,1,9,N","030000,1,N,1","+0288,1","-0092,1","99999,9",,,,,"01,1,+00810,1,01,1",,,"01,99,1,01,1,01,1,00800,1,00,1,00,1",,"01,9",,"120,M,+0302,1","240,N,+0086,1","99999,9,08154,1","7,1,012,1,-010,1",,"SYN112AAXX  02181 76373 32580 13102 10288 21092 38154 49960 57012 81100 91740 333 10302 20086 30/// 56000 59010 81127;","Q01+099603APOSLP"
"76373099999","2010-06-02T21:00:00","4","25.35","-105.75","1967.0","TEPEHUANES DGO., MX","FM-12","99999","V020","300,1,N,0040,1","22000,1,9,N","030000,1,N,1","+0326,1","+9999,9","09915,1",,,,,"01,1,+00810,1,02,1",,,"01,99,1,01,1,02,1,00800,1,00,1,00,1",,"01,9",,,,"99999,9,08136,1","7,1,018,1,-011,1",,"SYN100AAXX  02211 76373 32580 13004 10326 20114 38136 49915 57018 81200 92040 333 30/// 56900 59011 81227;","Q01+001143ATOD  "
"76373099999","2010-06-03T03:00:00","4","25.35","-105.75","1967.0","TEPEHUANES DGO., MX","FM-12","99999","V020","250,1,N,0010,1","22000,1,9,N","001000,1,N,1","+0226,1","+9999,9","99999,9",,,,,"01,1,+00750,1,08,1",,,"01,99,1,01,1,01,1,00800,1,00,1,00,1",,"01,9",,,,"99999,9,08140,1","2,1,010,1,-013,1",,"SYN100AAXX  03031 76373 32510 12501 10226 2//// 38140 4//// 52010 81100 90255 333 30/// 56900 59013 81825;",
"76373099999","2010-06-03T12:00:00","4","25.35","-105.75","1967.0","TEPEHUANES DGO., MX","FM-12","99999","V020","999,9,C,0000,1","22000,1,9,N","001000,1,N,1","+0099,1","+0045,1","10062,1",,,,,"00,1,+99999,9,99,9",,,"00,99,1,00,1,00,1,99999,9,00,1,00,1","0744,9","01,9",,"120,N,+0078,1","240,M,+0348,1","99999,9,08206,1","9,9,999,9,+042,1",,"SYN112AAXX  03121 76373 32910 00000 10099 20045 38206 40062 5//// 91140 333 10348 20078 30066 55124 22657 58042 70000;",
"76373099999","2010-06-03T15:00:00","4","25.35","-105.75","1967.0","TEPEHUANES DGO., MX","FM-12","99999","V020","999,9,C,0000,1","22000,1,9,N","030000,1,N,1","+0186,1","+9999,9","99999,9",,,,,"00,1,+99999,9,99,9",,,"00,99,1,00,1,00,1,99999,9,00,1,00,1",,"01,9",,,,"99999,9,08214,1","2,1,008,1,+048,1",,"SYN082AAXX  03151 76373 32980 00000 10186 2//// 38214 4//// 52008 91455 333 30/// 58048;",
"76373099999","2010-06-03T21:00:00","4","25.35","-105.75","1967.0","TEPEHUANES DGO., MX","FM-12","99999","V020","200,1,N,0010,1","22000,1,9,N","030000,1,N,1","+0330,1","+0063,1","09954,1",,,,,"03,1,+00750,1,08,1",,,"03,99,1,03,1,03,1,00800,1,00,1,00,1",,"01,9",,,,,"7,1,037,1,+035,1",,"SYN100AAXX  03211 76373 32580 32001 10330 20063 37171 49954 57037 83300 92055 333 30/// 56900 58035 83825;","Q01+071713APOSP "
"76373099999","2010-06-04T00:00:00","4","25.35","-105.75","1967.0","TEPEHUANES DGO., MX","FM-12","99999","V020","070,1,N,0010,1","22000,1,9,N","030000,1,N,1","+0332,1","+9999,9","99999,9","24,0000,9,1",,,,,,,"03,99,1,03,1,03,1,00800,1,00,1,00,1",,"01,9",,"120,M,+0376,1","180,N,+0078,1","99999,9,08156,1","6,1,015,1,+026,1",,"SYN124AAXX  04001 76373 32580 30701 10332 2//// 38156 4//// 56015 83300 92355 333 10376 20078 30/// 50861 56900 58026 70000 83825;",
"76373099999","2010-06-04T12:00:00","4","25.35","-105.75","1967.0","TEPEHUANES DGO., MX","FM-12","99999","V020","999,9,C,0000,1","22000,1,9,N","001000,1,N,1","+0130,1","+9999,9","10133,1","24,0000,9,1",,,,,,,"01,99,1,00,1,00,1,99999,9,00,1,01,1","0708,9","01,9",,"120,N,+0100,1","240,M,+0376,1","99999,9,08205,1","9,9,999,9,-001,1",,"SYN130AAXX  04121 76373 32910 10000 10130 2//// 38205 40133 5//// 81001 91145 333 10376 20100 30089 55118 22335 57009 59001 70000 81067;","Q01+000012SCOTLC"
"76373099999","2010-06-04T15:00:00","4","25.35","-105.75","1967.0","TEPEHUANES DGO., MX","FM-12","99999","V020","999,9,C,0000,1","22000,1,9,N","030000,1,N,1","+0200,1","+9999,9","10093,1",,,"4,1,03,1","4,1,03,1","00,1,+99999,9,99,9",,,"00,99,1,00,1,00,1,99999,9,00,1,00,1",,"01,9",,,,"99999,9,08214,1","2,1,009,1,+000,1","04,1","SYN094AAXX  04151 76373 32980 00000 10200 2//// 38214 40093 52009 70444 91455 333 30/// 58000 99897;",
"76373099999","2010-06-04T18:00:00","4","25.35","-105.75","1967.0","TEPEHUANES DGO., MX","FM-12","99999","V020","140,1,N,0020,1","22000,1,9,N","030000,1,N,1","+0320,1","+9999,9","10000,1",,,,,"01,1,+00750,1,08,1",,,"01,99,1,01,1,01,1,00800,1,00,1,00,1",,"01,9",,"120,M,+0350,1","240,N,+0100,1","99999,9,08203,1","7,1,011,1,-005,1",,"SYN112AAXX  04181 76373 32580 11402 10320 2//// 38203 40000 57011 81100 91755 333 10350 20100 30/// 56900 59005 81825;",
"76373099999","2010-06-04T21:00:00","4","25.35","-105.75","1967.0","TEPEHUANES DGO., MX","FM-12","99999","V020","110,1,N,0030,1","22000,1,9,N","030000,1,N,1","+0350,1","+9999,9","09962,1",,,,,"01,1,+00750,1,08,1",,,"01,99,1,01,1,01,1,00800,1,00,1,00,1",,"01,9",,,,,"7,1,017,1,+015,1",,"SYN100AAXX  04211 76373 32580 11103 10350 2//// 36186 49962 57017 81100 92055 333 30/// 56900 58015 81825;","Q01+061863APOSP "
"76373099999","2010-06-05T00:00:00","4","25.35","-105.75","1967.0","TEPEHUANES DGO., MX","FM-12","99999","V020","140,1,N,0030,1","22000,1,9,N","030000,1,N,1","+0342,1","+9999,9","09948,1","24,0000,9,1",,,,,,,"01,99,1,01,1,01,1,00800,1,00,1,00,1",,"01,9",,"120,M,+0386,1","180,N,+0100,1","99999,9,08171,1","7,1,015,1,+015,1",,"SYN124AAXX  05001 76373 32580 11403 10342 2//// 38171 49948 57015 81100 92355 333 10386 20100 30/// 50871 56900 58015 70000 81825;",
"76373099999","2010-06-05T12:00:00","4","25.35","-105.75","1967.0","TEPEHUANES DGO., MX","FM-12","99999","V020","999,9,C,0000,1","22000,1,9,N","001000,1,N,1","+0136,1","+9999,9","10141,1",,,,,"00,1,+99999,9,99,9",,,"00,99,1,00,1,00,1,99999,9,00,1,00,1","0738,9","01,9",,"120,N,+0110,1","240,M,+0386,1","99999,9,08215,1","9,9,999,9,+011,1",,"SYN112AAXX  05121 76373 32910 00000 10136 2//// 38215 40141 5//// 91155 333 10386 20110 30100 55123 22456 58011 70000;",
"76373099999","2010-06-05T15:00:00","4","25.35","-105.75","1967.0","TEPEHUANES DGO., MX","FM-12","99999","V020","999,9,C,0000,1","22000,1,9,N","010000,1,N,1","+0202,1","+9999,9","10111,1",,,"4,1,03,1","4,1,03,1","00,1,+99999,9,99,9",,,"00,99,1,00,1,00,1,99999,9,00,1,00,1",,"01,9",,,,"99999,9,08228,1","7,1,013,1,+014,1","04,1","SYN094AAXX  05151 76373 32960 00000 10202 2//// 38228 40111 57013 70444 91455 333 30/// 58014 99897;",
"76373099999","2010-06-05T21:00:00","4","25.35","-105.75","1967.0","TEPEHUANES DGO., MX","FM-12","99999","V020","120,1,N,0020,1","22000,1,9,N","030000,1,N,1","+0360,1","-0035,1","99999,9",,,,,"03,1,+00810,1,08,1",,,"03,99,1,03,1,02,1,00800,1,00,1,00,1",,"01,9",,,,"99999,9,08196,1","7,1,029,1,+010,1",,"SYN100AAXX  05211 76373 32580 31202 10360 21035 38196 49953 57029 83200 92040 333 30/// 56900 58010 83827;","Q01+099533APOSLP"
"76373099999","2010-06-06T00:00:00","4","25.35","-105.75","1967.0","TEPEHUANES DGO., MX","FM-12","99999","V020","200,1,N,0030,1","00750,1,9,N","030000,1,N,1","+0360,1","-0015,1","99999,9","24,0000,9,1",,,,"03,1,+00810,1,03,1",,,"05,99,1,05,1,04,1,00800,1,00,1,00,1",,"01,9",,"120,M,+0408,1","180,N,+0110,1","99999,9,08182,1","7,1,014,1,+012,1",,"SYN130AAXX  06001 76373 32580 52003 10360 21015 38182 49904 57014 85400 92340 333 10408 20110 30/// 50941 56900 58012 70000 83327 82827;","Q01 099043APOSLP"
"76373099999","2010-06-06T03:00:00","4","25.35","-105.75","1967.0","TEPEHUANES DGO., MX","FM-12","99999","V020","290,1,N,0010,1","22000,1,9,N","001000,1,N,1","+0274,1","+0082,1","10010,1",,,,,"02,1,+00810,1,06,1",,,"03,99,1,02,1,04,1,00800,1,00,1,00,1",,"01,9",,,,"99999,9,08204,1","2,1,022,1,+011,1",,"SYN100AAXX  06031 76373 32510 32901 10274 20082 38204 40010 52022 82400 90240 333 30/// 56900 58011 82627;",
"76373099999","2010-06-06T12:00:00","4","25.35","-105.75","1967.0","TEPEHUANES DGO., MX","FM-12","99999","V020","999,9,C,0000,1","22000,1,9,N","001000,1,N,1","+0134,1","+0082,1","10074,1",,,,,"00,1,+99999,9,99,9",,,"00,99,1,00,1,00,1,99999,9,00,1,00,1","0708,9","01,9",,"120,N,+0098,1","240,M,+0360,1","99999,9,08220,1","9,9,999,9,+005,1",,"SYN112AAXX  06121 76373 32910 00000 10134 20082 38220 40074 5//// 91145 333 10360 20098 30096 55118 22158 58005 70000;",
"76373099999","2010-06-06T15:00:00","4","25.35","-105.75","1967.0","TEPEHUANES DGO., MX","FM-12","99999","V020","999,9,C,0000,1","22000,1,9,N","030000,1,N,1","+0170,1","+0049,1","10041,1",,,,,"00,1,+99999,9,99,9",,,"00,99,1,00,1,00,1,99999,9,00,1,00,1",,"01,9",,,,"99999,9,08227,1","2,1,007,1,-001,1",,"SYN082AAXX  06151 76373 32580 00000 10170 20049 38227 40041 52007 91445 333 30/// 59001;",
"76373099999","2010-06-06T18:00:00","4","25.35","-105.75","1967.0","TEPEHUANES DGO., MX","FM-12","99999","V020","110,1,N,0010,1","22000,1,9,N","030000,1,N,1","+9999,9","+0032,1","09963,1",,,,,"02,1,+00840,1,08,1",,,"02,99,1,02,1,02,1,00800,1,00,1,00,1",,"01,9",,"120,M,+0370,1","240,N,+0098,1","99999,9,08213,1","7,1,014,1,-002,1",,"SYN112AAXX  06181 76373 32580 21101 10340 20032 38213 49963 57014 82200 91740 333 10370 20098 30/// 56900 59002 82828;","Q01+003403ATOT  "
"76373099999","2010-06-06T21:00:00","4","25.35","-105.75","1967.0","TEPEHUANES DGO., MX","FM-12","99999","V020","070,1,N,0040,1","00810,1,9,N","030000,1,N,1","+0370,2","+0019,1","09916,2",,,,,"05,1,+00810,1,06,1",,,"05,99,1,05,1,04,1,00800,1,00,1,00,1",,"01,9",,,,"99999,9,08190,1","7,1,023,1,-006,1",,"SYN100AAXX  06211 76373 32580 50704 10370 20019 38190 49916 57023 85400 92045 333 30/// 56900 59006 85627;",
"76373099999","2010-06-07T00:00:00","4","25.35","-105.75","1967.0","TEPEHUANES DGO., MX","FM-12","99999","V020","050,1,N,0040,1","00750,1,9,N","030000,1,N,1","+0352,1","+0021,1","09927,1","24,0000,9,1",,,,"04,1,+00840,1,06,1",,,"06,99,1,06,1,04,1,00800,1,00,1,00,1",,"01,9",,"120,M,+0404,1","180,N,+0098,1","99999,9,08178,1","7,1,012,1,-004,1",,"SYN130AAXX  07001 76373 32580 60504 10352 20021 38178 49927 57012 86400 92340 333 10404 20098 30/// 50101 56900 59004 70000 84628 82827;",
"76373099999","2010-06-07T15:00:00","4","25.35","-105.75","1967.0","TEPEHUANES DGO., MX","FM-12","99999","V020","290,1,N,0010,1","00750,1,C,N","030000,1,N,1","+0252,1","+0061,1","09990,1","03,0009,9,1",,"5,1,03,1","1,1,03,1","03,1,+00810,1,06,1",,,"05,99,1,05,1,04,1,00800,1,00,1,00,1",,"01,9",,,,"99999,9,08225,1","2,1,003,1,-002,1","50,1","SYN118AAXX  07151 76373 21580 52901 10252 20061 38225 49990 52003 75051 85400 91445 333 30/// 56900 59002 69997 83627 82828;",
"76373099999","2010-06-07T18:00:00","4","25.35","-105.75","1967.0","TEPEHUANES DGO., MX","FM-12","99999","V020","120,1,N,0010,1","00750,1,C,N","030000,1,N,1","+0330,1","+0030,1","09940,1","03,0009,9,1",,"5,1,06,1","1,1,06,1","03,1,+00810,1,06,1","02,1,+00810,1,07,1",,"06,99,1,06,1,04,1,00800,1,00,1,00,1",,"01,9",,"120,M,+0374,1","240,N,+0120,1","99999,9,08213,1","7,1,012,1,+000,1","50,1","SYN136AAXX  07181 76373 31580 61201 10330 20030 38213 49940 57012 75051 86400 91745 333 10374 20120 30/// 56900 58000 69997 83627 82727 81828;",
"76373099999","2010-06-07T21:00:00","4","25.35","-105.75","1967.0","TEPEHUANES DGO., MX","FM-12","99999","V020","310,1,N,0030,1","00600,1,9,N","030000,1,N,1","+0320,1","+0071,1","09981,1",,,,,"06,1,+00600,1,09,1",,,"07,99,1,06,1,09,1,00800,1,00,1,00,1",,"01,9",,,,"99999,9,08188,1","7,1,025,1,-002,1",,"SYN100AAXX  07211 76373 32580 73103 10320 20071 38188 49981 57025 86900 92040 333 30/// 56900 59002 86920;",
"76373099999","2010-06-08T00:00:00","4","25.35","-105.75","1967.0","TEPEHUANES DGO., MX","FM-12","99999","V020","050,1,N,0010,1","00600,1,C,N","020000,1,N,1","+9999,9","+0149,1","99999,9","06,0100,9,1","24,0104,9,1","6,1,06,1","2,1,06,1","08,1,+00600,1,09,1",,,"08,99,1,06,1,09,1,00450,1,00,1,00,1",,"11,9",,"120,M,+0360,1","180,N,+0120,1","99999,9,08226,1","0,1,038,1,+048,1","61,1","SYN142AAXX  08001 76373 01470 80501 10184 20149 38226 40118 50038 76162 86900 92340 333 10360 20120 32/// 50831 56900 58048 60101 70104 88920 96960;","Q01+101183APOSLP"
"76373099999","2010-06-08T12:00:00","4","25.35","-105.75","1967.0","TEPEHUANES DGO., MX","FM-12","99999","V020","999,9,C,0000,1","22000,1,9,N","001000,1,N,1","+0144,1","+0143,1","10157,1","24,0114,9,1",,,,,,,"04,99,1,00,1,00,1,99999,9,00,1,08,1","0306,9","09,9","999,+0000,9","120,N,+0114,1","240,M,+0370,1","99999,9,08228,1","9,9,999,9,+006,1",,"SYN130AAXX  08121 76373 32910 40000 10144 20143 38228 40157 5//// 80008 91140 333 10370 20114 31000 55051 20996 56000 58006 70114 84867;",
"76373099999","2010-06-08T15:00:00","4","25.35","-105.75","1967.0","TEPEHUANES DGO., MX","FM-12","99999","V020","999,9,C,0000,1","22000,1,9,N","030000,1,N,1","+0190,1","+0130,1","10129,1",,,,,"03,1,+01800,1,07,1",,,"05,99,1,03,1,99,9,01750,1,04,1,08,1",,"01,9",,,,"99999,9,08238,1","2,1,010,1,+013,1",,"SYN100AAXX  08151 76373 32780 50000 10190 20130 38238 40129 52010 83048 91440 333 30/// 56900 58013 83756;","Q01+000002SCOLCG"
"76373099999","2010-06-08T18:00:00","4","25.35","-105.75","1967.0","TEPEHUANES DGO., MX","FM-12","99999","V020","070,1,N,0010,1","00600,1,9,N","030000,1,N,1","+0260,1","+0110,1","99999,9",,,,,"06,1,+00600,1,07,1",,,"07,99,1,06,1,07,1,00800,1,00,1,00,1",,"01,9",,"120,M,+0282,1","240,N,+0114,1","99999,9,08224,1","7,1,014,1,+011,1",,"SYN112AAXX  08181 76373 32580 70701 10260 20110 38224 40064 57014 86700 91740 333 10282 20114 30/// 56900 58011 86720;","Q01+100643APOSLP"
"76373099999","2010-06-08T21:00:00","4","25.35","-105.75","1967.0","TEPEHUANES DGO., MX","FM-12","99999","V020","260,1,N,0040,1","00600,1,9,N","030000,1,N,1","+0216,1","+0105,1","10099,1",,,"2,1,03,1","2,1,03,1","07,1,+00600,1,09,1",,,"08,99,1,07,1,09,1,00450,1,00,1,00,1",,"01,9",,,,"99999,9,08228,1","3,1,004,1,+040,1","16,1","SYN112AAXX  08211 76373 32480 82604 10216 20105 38228 40099 53004 71622 87900 92040 333 30/// 56900 58040 87920 96016;",
"76373099999","2010-06-09T00:00:00","4","25.35","-105.75","1967.0","TEPEHUANES DGO., MX","FM-12","99999","V020","320,1,N,0030,1","00420,1,9,N","030000,1,N,1","+0218,1","+0133,1","10094,1","24,0020,9,1",,,,,,,"08,99,1,99,9,09,1,00450,1,00,1,00,1",,"01,9",,"120,M,+0316,1","180,N,+0114,1","99999,9,08226,1","5,1,002,1,+000,1",,"SYN124AAXX  09001 76373 32480 83203 10218 20133 38226 40094 55002 86900 92340 333 10316 20114 30/// 50421 56900 58000 70020 87920;","Q01+000062SCOTLC"
"76373099999","2010-06-09T12:00:00","4","25.35","-105.75","1967.0","TEPEHUANES DGO., MX","FM-12","99999","V020","999,9,C,0000,1","00750,1,9,N","001000,1,N,1","+0140,1","+0140,1","10155,1","24,0017,9,1",,,,,,,"08,99,1,99,9,05,1,00800,1,00,1,00,1","0330,9","01,9",,"120,N,+0116,1","240,M,+0316,1","99999,9,08229,1","9,9,999,9,+001,1",,"SYN130AAXX  09121 76373 32510 80000 10140 20140 38229 40155 5//// 87500 91140 333 10316 20116 30100 55055 21184 56000 58001 70017 87520;","Q01+000072SCOTLC"
"76373099999","2010-06-09T15:00:00","4","25.35","-105.75","1967.0","TEPEHUANES DGO., MX","FM-12","99999","V020","999,9,C,0000,1","03600,1,C,N","030000,1,N,1","+0184,1","+0135,1","10139,1",,,,,"01,1,+00750,1,04,1",,,"05,99,1,01,1,04,1,00800,1,04,1,00,1",,"01,9",,,,"99999,9,08242,1","2,1,013,1,+004,1",,"SYN106AAXX  09151 76373 32580 50000 10184 20135 38242 40139 52013 81440 91440 333 30/// 56000 58004 81425 84457;",
"76373099999","2010-06-09T18:00:00","4","25.35","-105.75","1967.0","TEPEHUANES DGO., MX","FM-12","99999","V020","100,1,N,0010,1","00750,1,9,N","030000,1,N,1","+0246,1","+0145,1","10085,1",,,,,"05,1,+00750,1,07,1",,,"07,99,1,05,1,07,1,00800,1,00,1,00,1",,"01,9",,"120,M,+0266,1","240,N,+0116,1","99999,9,08233,1","7,1,009,1,+009,1",,"SYN112AAXX  09181 76373 32580 71001 10246 20145 38233 40085 57009 85700 91740 333 10266 20116 30/// 56900 58009 85725;",
"76373099999","2010-06-09T21:00:00","4","25.35","-105.75","1967.0","TEPEHUANES DGO., MX","FM-12","99999","V020","300,1,N,0020,1","00750,1,9,N","030000,1,N,1","+0270,1","+0084,1","10050,1",,,,,"06,1,+00750,1,07,1",,,"07,99,1,06,1,07,1,00800,1,00,1,00,1",,"01,9",,,,"99999,9,08218,1","7,1,015,1,-010,1",,"SYN100AAXX  09211 76373 32580 73002 10270 20084 38218 40050 57015 86700 92040 333 30/// 56900 59010 86725;",
"76373099999","2010-06-10T00:00:00","4","25.35","-105.75","1967.0","TEPEHUANES DGO., MX","FM-12","99999","V020","230,1,N,0010,1","00420,1,9,N","030000,1,N,1","+0240,1","+0102,1","10085,1","24,0017,9,1",,,,,,,"08,99,1,08,1,07,1,00450,1,00,1,00,1",,"01,9",,"120,M,+0300,1","180,N,+0116,1","99999,9,08229,1","2,1,011,1,+999,9",,"SYN124AAXX  10001 76373 32480 82301 10240 20102 38229 40085 52011 88700 92340 333 10300 20116 30/// 50221 58900 58003 70017 88720;",
"76373099999","2010-06-10T12:00:00","4","25.35","-105.75","1967.0","TEPEHUANES DGO., MX","FM-12","99999","V020","999,9,C,0000,1","22000,1,9,N","001000,1,N,1","+0123,1","+0120,1","10164,1","24,0000,9,1",,,,,,,"01,99,1,01,1,01,1,00800,1,00,1,00,1","0246,9","01,9",,"120,N,+0104,1","240,M,+0300,1","99999,9,08228,1","9,9,999,9,-001,1",,"SYN130AAXX  10121 76373 32510 10000 10123 20120 38228 40164 5//// 81100 91140 333 10300 20104 30092 55041 21006 56000 59001 70000 81127;",
"76373099999","2010-06-10T15:00:00","4","25.35","-105.75","1967.0","TEPEHUANES DGO., MX","FM-12","99999","V020","070,1,N,0010,1","22000,1,9,N","030000,1,N,1","+0182,1","+0106,1","10120,1",,,,,"01,1,+00750,1,08,1",,,"01,99,1,01,1,01,1,00800,1,00,1,00,1",,"01,9",,,,"99999,9,08225,1","8,1,003,1,-017,1",,"SYN094AAXX  10151 76373 32580 10701 10182 20106 38225 40120 58003 81100 91455 333 30/// 59017 81825;",
"76373099999","2010-06-10T18:00:00","4","25.35","-105.75","1967.0","TEPEHUANES DGO., MX","FM-12","99999","V020","290,1,N,0010,1","22000,1,9,N","030000,1,N,1","+0292,1","+0092,1","10033,1",,,,,"01,1,+00750,1,08,1",,,"01,99,1,01,1,01,1,00800,1,00,1,00,1",,"01,9",,"120,M,+0302,1","240,N,+0101,1","99999,9,08206,1","7,1,019,1,-017,1",,"SYN112AAXX  10181 76373 32580 12901 10292 20092 38206 40033 57019 81100 91755 333 10302 20101 30/// 56900 59017 81825;",
"76373099999","2010-06-10T21:00:00","4","25.35","-105.75","1967.0","TEPEHUANES DGO., MX","FM-12","99999","V020","290,1,N,0020,1","00750,1,9,N","030000,1,N,1","+0324,1","+0075,1","99999,9",,,,,"03,1,+00600,1,06,1",,,"06,99,1,06,1,06,1,00800,1,00,1,00,1",,"01,9",,,,"99999,9,08183,1","7,1,023,1,-035,1",,"SYN106AAXX  10211 76373 32580 62902 10324 20075 38183 49974 57023 86600 92055 333 30/// 56900 59035 83620 82725;","Q01 099743APOSLP"
"76373099999","2010-06-11T00:00:00","4","25.35","-105.75","1967.0","TEPEHUANES DGO., MX","FM-12","99999","V020","140,1,N,0020,1","00600,1,C,N","030000,1,N,1","+9999,9","+0114,1","99999,9","06,0160,9,1","24,0160,9,1","6,1,06,1","5,1,06,1","08,1,+00600,1,09,1",,,"08,99,1,08,1,08,1,00800,1,00,1,00,1",,"11,9",,"120,M,+0342,1","180,N,+0101,1","99999,9,08212,1","2,1,029,1,-017,1","50,1","SYN142AAXX  11001 76373 21580 81402 10180 20114 38212 40137 52029 75065 88800 92355 333 10342 20101 32/// 50811 56900 59017 60161 70160 88920 96961;","Q01+001803ATOT  "
"76373099999","2010-06-11T03:00:00","4","25.35","-105.75","1967.0","TEPEHUANES DGO., MX","FM-12","99999","V020","230,1,N,0010,1","00750,1,9,N","001000,1,N,1","+0153,2","+0062,1","10105,1",,,,,"06,1,+00750,1,07,1",,,"06,99,1,03,1,06,1,00800,1,00,1,00,1",,"01,9",,,,"99999,9,08210,1","0,1,002,1,-023,1",,"SYN100AAXX  11031 76373 32510 62301 10153 20062 38210 40105 50002 83600 90255 333 30/// 56900 59023 86725;",
"76373099999","2010-06-11T15:00:00","4","25.35","-105.75","1967.0","TEPEHUANES DGO., MX","FM-12","99999","V020","999,9,C,0000,1","22000,1,9,N","030000,1,N,1","+0168,1","+0053,1","10129,1",,,,,"00,1,+99999,9,99,9",,,"00,99,1,00,1,00,1,99999,9,00,1,00,1",,"01,9",,,,"99999,9,08224,1","2,1,005,1,+001,1",,"SYN082AAXX  11151 76373 32980 00000 10168 20053 38224 40129 52005 91455 333 30/// 58001;",
"76373099999","2010-06-11T18:00:00","4","25.35","-105.75","1967.0","TEPEHUANES DGO., MX","FM-12","99999","V020","140,1,N,0010,1","22000,1,9,N","030000,1,N,1","+0278,1","+0068,1","10034,1",,,,,"02,1,+00750,1,08,1",,,"02,99,1,02,1,02,1,00800,1,00,1,00,1",,"01,9",,"120,M,+0300,1","240,N,+0090,1","99999,9,08207,1","7,1,017,1,+001,1",,"SYN112AAXX  11181 76373 32580 21401 10278 20068 38207 40034 57017 82200 91755 333 10300 20090 30/// 56900 58001 82825;",
"76373099999","2010-06-12T00:00:00","4","25.35","-105.75","1967.0","TEPEHUANES DGO., MX","FM-12","99999","V020","290,1,N,0020,1","22000,1,9,N","030000,1,N,1","+0312,1","-0060,1","09969,1","24,0015,9,1",,,,"01,1,+00600,1,08,1",,,"03,99,1,03,1,03,1,00800,1,00,1,00,1",,"01,9",,"120,M,+0342,1","180,N,+0090,1","99999,9,08177,1","5,1,011,1,-039,1",,"SYN130AAXX  12001 76373 32580 32902 10312 21060 38177 49969 55011 83300 92355 333 10342 20090 30/// 50601 56900 59039 70015 81820 82725;",
"76373099999","2010-06-12T15:00:00","4","25.35","-105.75","1967.0","TEPEHUANES DGO., MX","FM-12","99999","V020","999,9,C,0000,1","22000,1,9,N","030000,1,N,1","+0188,1","+0013,1","10114,1",,,,,"00,1,+99999,9,99,9",,,"00,99,1,00,1,00,1,99999,9,00,1,00,1",,"01,9",,,,"99999,9,08223,1","2,1,012,1,-001,1",,"SYN082AAXX  12151 76373 32980 00000 10188 20013 38223 40114 52012 91455 333 30/// 59001;",
"76373099999","2010-06-12T18:00:00","4","25.35","-105.75","1967.0","TEPEHUANES DGO., MX","FM-12","99999","V020","310,1,N,0010,1","22000,1,9,N","030000,1,N,1","+0292,1","+0017,1","10140,1",,,,,"00,1,+99999,9,99,9",,,"00,99,1,00,1,00,1,99999,9,00,1,00,1",,"01,9",,"120,M,+0310,1","240,N,+0096,1","99999,9,08197,1","7,1,026,1,-010,1",,"SYN094AAXX  12181 76373 32980 03101 10292 20017 38197 40140 57026 91745 333 10310 20096 30/// 59010;",
"76373099999","2010-06-12T21:00:00","4","25.35","-105.75","1967.0","TEPEHUANES DGO., MX","FM-12","99999","V020","290,1,N,0040,1","22000,1,9,N","030000,1,N,1","+0344,1","-0047,1","10119,1",,,,,"00,1,+99999,9,99,9",,,"00,99,1,00,1,00,1,99999,9,00,1,00,1",,"01,9",,,,"99999,9,08179,1","7,1,020,1,-015,1",,"SYN082AAXX  12211 76373 32980 02904 10344 21047 38179 40119 57020 92050 333 30/// 59015;",
"76373099999","2010-06-13T00:00:00","4","25.35","-105.75","1967.0","TEPEHUANES DGO., MX","FM-12","99999","V020","290,1,N,0040,1","22000,1,9,N","030000,1,N,1","+0329,1","+0021,1","10109,1","24,0000,9,1",,,,,,,"01,99,1,01,1,02,1,00800,1,00,1,00,1",,"01,9",,"120,M,+0360,1","180,N,+0096,1","99999,9,08172,1","7,1,007,1,-005,1",,"SYN124AAXX  13001 76373 32580 12904 10329 20021 38172 40109 57007 81200 92350 333 10360 20096 30/// 50101 56700 59005 70000 81827;",
"76373099999","2010-06-14T21:00:00","4","25.35","-105.75","1967.0","TEPEHUANES DGO., MX","FM-12","99999","V020","130,1,N,0020,1","99999,9,9,N","030000,1,N,1","+0314,1","+0054,1","10102,1",,,,,"04,1,+00750,1,04,1",,,"06,99,1,04,1,04,1,00800,1,00,1,00,1",,"01,9",,,,"99999,9,08166,1","7,1,029,1,-014,1",,"SYN100AAXX  14211 76373 32580 61302 10314 20054 38166 40102 57029 84400 92050 333 30/// 56900 59014 84425;",
"76373099999","2010-06-15T00:00:00","4","25.35","-105.75","1967.0","TEPEHUANES DGO., MX","FM-12","99999","V020","280,1,N,0040,1","00420,1,9,N","030000,1,N,1","+0220,1","+0110,1","10115,1","24,0000,9,1",,,,,,,"08,99,1,99,9,09,1,00450,1,00,1,00,1",,"01,9",,"120,M,+0364,1","180,N,+0122,1","99999,9,08177,1","2,1,011,1,+011,1",,"SYN124AAXX  15001 76373 32480 82804 10220 20110 38177 40115 52011 86900 92340 333 10364 20122 30/// 50711 56900 58011 70000 86920;","Q01+000062SCOTLC"
"76373099999","2010-06-15T12:00:00","4","25.35","-105.75","1967.0","TEPEHUANES DGO., MX","FM-12","99999","V020","999,9,C,0000,1","22000,1,9,N","001000,1,N,1","+0150,1","+0115,1","10139,1","24,0000,9,1",,,,,,,"03,99,1,99,9,04,1,00800,1,00,1,00,1","0444,9","01,9",,"120,N,+0126,1","240,M,+0364,1","99999,9,08196,1","9,9,999,9,-009,1",,"SYN130AAXX  15121 76373 32510 30000 10150 20115 38196 40139 5//// 82400 91150 333 10364 20126 30/// 55074 21707 56000 59009 70000 82425;","Q01+000022SCOTLC"
"76373099999","2010-06-15T15:00:00","4","25.35","-105.75","1967.0","TEPEHUANES DGO., MX","FM-12","99999","V020","300,1,N,0010,1","22000,1,9,N","030000,1,N,1","+0220,1","+0110,1","10145,1",,,,,"00,1,+99999,9,99,9",,,"00,99,1,00,1,00,1,99999,9,00,1,00,1",,"01,9",,,,"99999,9,08201,1","2,1,005,1,-007,1",,"SYN082AAXX  15151 76373 32980 03001 10220 20110 38201 40145 52005 91450 333 30/// 59007;",
"76373099999","2010-06-15T18:00:00","4","25.35","-105.75","1967.0","TEPEHUANES DGO., MX","FM-12","99999","V020","130,1,N,0020,1","22000,1,9,N","030000,1,N,1","+0316,1","+0087,1","10134,1",,,,,"02,1,+00810,1,02,1",,,"02,99,1,02,1,02,1,00800,1,00,1,00,1",,"01,9",,"120,M,+0330,1","240,N,+0126,1","99999,9,08192,1","7,1,009,1,-003,1",,"SYN112AAXX  15181 76373 32580 21302 10316 20087 38192 40134 57009 82200 91750 333 10330 20126 30/// 56900 59003 82227;",
"76373099999","2010-06-15T21:00:00","4","25.35","-105.75","1967.0","TEPEHUANES DGO., MX","FM-12","99999","V020","050,1,N,0070,1","99999,9,9,N","030000,1,N,1","+0300,1","+0090,1","10116,1",,,,,"04,1,+00750,1,04,1",,,"06,99,1,04,1,04,1,00800,1,00,1,00,1",,"01,9",,,,"99999,9,08177,1","7,1,015,1,-011,1",,"SYN100AAXX  15211 76373 32580 60507 10300 20090 38177 40116 57015 84400 92050 333 30/// 56900 59011 84425;",
"76373099999","2010-06-16T00:00:00","4","25.35","-105.75","1967.0","TEPEHUANES DGO., MX","FM-12","99999","V020","310,1,N,0030,1","00420,1,9,N","030000,1,N,1","+0244,1","+0118,1","10117,1","24,0000,9,1",,,,,,,"08,99,1,99,9,07,1,00450,1,00,1,00,1",,"01,9",,"120,M,+0366,1","180,N,+0126,1","99999,9,08178,1","3,1,001,1,+000,1",,"SYN124AAXX  16001 76373 32480 83103 10244 20118 38178 40117 53001 87700 92350 333 10366 20126 30/// 50641 56900 58000 70000 87720;","Q01+000072SCOTLC"
"76373099999","2010-06-16T21:00:00","4","25.35","-105.75","1967.0","TEPEHUANES DGO., MX","FM-12","99999","V020","140,1,N,0040,1","00900,1,9,N","030000,1,N,1","+0346,1","+0084,1","10122,1",,,,,"05,1,+00900,1,06,1",,,"05,99,1,05,1,04,1,00800,1,00,1,00,1",,"01,9",,,,"99999,9,08122,1","7,1,014,1,+005,1",,"SYN100AAXX  16211 76373 32580 51404 10346 20084 38122 40122 57014 85400 92050 333 30/// 56900 58005 85630;",
"76373099999","2010-06-17T00:00:00","4","25.35","-105.75","1967.0","TEPEHUANES DGO., MX","FM-12","99999","V020","200,1,N,0050,1","00750,1,9,N","030000,1,N,1","+0278,1","+0109,1","10116,1","03,0009,9,1","24,9999,9,9",,,,,,"06,99,1,06,1,07,1,00800,1,00,1,00,1",,"01,9",,"120,M,+0370,1","180,N,+0126,1","99999,9,08177,1","7,1,005,1,-001,1",,"SYN130AAXX  17001 76373 32580 62005 10278 20109 38177 40116 57005 86700 92350 333 10370 20126 30/// 50841 56900 59001 69997 79999 86728;","Q01  99992PRCP24"
"76373099999","2010-06-17T15:00:00","4","25.35","-105.75","1967.0","TEPEHUANES DGO., MX","FM-12","99999","V020","320,1,N,0010,1","22000,1,9,N","030000,1,N,1","+0188,1","+0145,1","10167,1",,,,,"00,1,+99999,9,99,9",,,"00,99,1,00,1,00,1,99999,9,00,1,00,1",,"01,9",,,,"99999,9,08218,1","2,1,009,1,+020,1",,"SYN082AAXX  17151 76373 32980 03201 10188 20145 38218 40167 52009 91455 333 30/// 58020;",
"76373099999","2010-06-17T21:00:00","4","25.35","-105.75","1967.0","TEPEHUANES DGO., MX","FM-12","99999","V020","320,1,N,0020,1","01200,1,C,N","030000,1,N,1","+0278,1","+0114,1","10128,1",,,,,"04,1,+00600,1,07,1",,,"08,99,1,08,1,08,1,00800,1,00,1,00,1",,"01,9",,,,"99999,9,08187,1","7,1,018,1,+005,1",,"SYN106AAXX  17211 76373 32580 83202 10278 20114 38187 40128 57018 88800 92055 333 30/// 56900 58005 84720 84625;",
"76373099999","2010-06-18T00:00:00","4","25.35","-105.75","1967.0","TEPEHUANES DGO., MX","FM-12","99999","V020","320,1,N,0030,1","00750,1,9,N","030000,1,N,1","+0246,1","+0112,1","10130,1","24,0180,9,1",,,,"02,1,+00750,1,07,1",,,"06,99,1,06,1,06,1,00800,1,00,1,00,1",,"01,9",,"120,M,+0334,1","180,N,+0123,1","99999,9,08188,1","5,1,001,1,+011,1",,"SYN130AAXX  18001 76373 32580 63203 10246 20112 38188 40130 55001 86600 92355 333 10334 20123 30/// 50661 56900 58011 70180 82725 84620;",
"76373099999","2010-06-18T03:00:00","4","25.35","-105.75","1967.0","TEPEHUANES DGO., MX","FM-12","99999","V020","340,1,N,0010,1","00600,1,9,N","001000,1,N,1","+0212,1","+0120,1","10151,1",,,,,"06,1,+00600,1,07,1",,,"06,99,1,06,1,06,1,00800,1,00,1,00,1",,"01,9",,,,"99999,9,08205,1","2,1,017,1,-016,1",,"SYN100AAXX  18031 76373 32510 63401 10212 20120 38205 40151 52017 86600 90355 333 30/// 56900 59016 86720;",
"76373099999","2010-06-18T15:00:00","4","25.35","-105.75","1967.0","TEPEHUANES DGO., MX","FM-12","99999","V020","999,9,C,0000,1","22000,1,9,N","030000,1,N,1","+0202,1","+0144,1","10170,1",,,,,"01,1,+00750,1,08,1",,,"01,99,1,01,1,01,1,00800,1,00,1,00,1",,"01,9",,,,"99999,9,08221,1","2,1,007,1,+003,1",,"SYN100AAXX  18151 76373 32580 10000 10202 20144 38221 40170 52007 81100 91455 333 30/// 56900 58003 81825;",
"76373099999","2010-06-18T18:00:00","4","25.35","-105.75","1967.0","TEPEHUANES DGO., MX","FM-12","99999","V020","110,1,N,0010,1","22000,1,9,N","030000,1,N,1","+0288,1","+0132,1","10160,1",,,,,"03,1,+00750,1,07,1",,,"03,99,1,03,1,03,1,00800,1,00,1,00,1",,"01,9",,"120,M,+0310,1","240,N,+0130,1","99999,9,08213,1","5,1,008,1,+008,1",,"SYN112AAXX  18181 76373 32580 31101 10288 20132 38213 40160 55008 83300 91755 333 10310 20130 30/// 56900 58008 83725;",
"76373099999","2010-06-18T21:00:00","4","25.35","-105.75","1967.0","TEPEHUANES DGO., MX","FM-12","99999","V020","140,1,N,0040,1","22000,1,9,N","030000,1,N,1","+0314,1","+0111,1","10134,1",,,,,"03,1,+00600,1,06,1",,,"03,99,1,03,1,03,1,00800,1,00,1,00,1",,"01,9",,,,"99999,9,08192,1","7,1,021,1,+005,1",,"SYN100AAXX  18211 76373 32580 31404 10314 20111 38192 40134 57021 83300 92055 333 30/// 56900 58005 83620;",
"76373099999","2010-06-19T00:00:00","4","25.35","-105.75","1967.0","TEPEHUANES DGO., MX","FM-12","99999","V020","140,1,N,0020,1","22000,1,9,N","030000,1,N,1","+0316,1","+0092,1","10117,1","24,0020,9,1",,,,,,,"03,99,1,03,1,03,1,00800,1,00,1,00,1",,"01,9",,"120,M,+0340,1","180,N,+0130,1","99999,9,08178,1","7,1,014,1,-010,1",,"SYN124AAXX  19001 76373 32580 31402 10316 20092 38178 40117 57014 83300 92355 333 10340 20130 30/// 50561 56900 59010 70020 83620;",
"76373099999","2010-06-19T03:00:00","4","25.35","-105.75","1967.0","TEPEHUANES DGO., MX","FM-12","99999","V020","140,1,N,0020,1","00600,1,9,N","001000,1,N,1","+0230,1","+0111,1","10162,1",,,,,"06,1,+00600,1,07,1",,,"06,99,1,06,1,06,1,00800,1,00,1,00,1",,"01,9",,,,"99999,9,08214,1","2,1,036,1,+009,1",,"SYN100AAXX  19031 76373 32510 61402 10230 20111 38214 40162 52036 86600 90255 333 30/// 56900 58009 86720;",
"76373099999","2010-06-19T15:00:00","4","25.35","-105.75","1967.0","TEPEHUANES DGO., MX","FM-12","99999","V020","999,9,C,0000,1","00600,1,9,N","030000,1,N,1","+0208,1","+0156,1","10193,1",,,,,"06,1,+00600,1,07,1",,,"06,99,1,06,1,06,1,00800,1,00,1,00,1",,"01,9",,,,"99999,9,08240,1","1,1,003,1,+019,1",,"SYN100AAXX  19151 76373 32580 60000 10208 20156 38240 40193 51003 86600 91455 333 30/// 56900 58019 86720;",
"76373099999","2010-06-19T21:00:00","4","25.35","-105.75","1967.0","TEPEHUANES DGO., MX","FM-12","99999","V020","120,1,N,0030,1","00750,1,C,N","030000,1,N,1","+0308,1","+0156,1","10155,1",,,,,"03,1,+00840,1,06,1",,,"05,99,1,05,1,04,1,00800,1,00,1,00,1",,"01,9",,,,"99999,9,08209,1","9,9,999,9,+017,1",,"SYN106AAXX  19211 76373 32580 51203 10308 20156 38209 40155 5//// 85400 92050 333 30/// 56900 58017 83628 82827;",
"76373099999","2010-06-20T00:00:00","4","25.35","-105.75","1967.0","TEPEHUANES DGO., MX","FM-12","99999","V020","140,1,N,0030,1","22000,1,9,N","030000,1,N,1","+0316,1","+0109,1","10132,1","24,0000,9,1",,,,,,,"04,99,1,04,1,04,1,00800,1,00,1,00,1",,"01,9",,"120,M,+0340,1","180,N,+0170,1","99999,9,08190,1","7,1,019,1,+012,1",,"SYN124AAXX  20001 76373 32580 41403 10316 20109 38190 40132 57019 84400 92350 333 10340 20170 30/// 50961 56900 58012 70000 84628;",
"76373099999","2010-06-20T21:00:00","4","25.35","-105.75","1967.0","TEPEHUANES DGO., MX","FM-12","99999","V020","090,1,N,0020,1","00750,1,C,N","030000,1,N,1","+0330,1","+0108,1","10140,1",,,,,"04,1,+00840,1,06,1",,,"05,99,1,05,1,04,1,00800,1,00,1,00,1",,"01,9",,,,"99999,9,08197,1","7,1,021,1,-012,1",,"SYN106AAXX  20211 76373 32580 50902 10330 20108 38197 40140 57021 85400 92050 333 30/// 56900 59012 84628 81828;",
"76373099999","2010-06-21T00:00:00","4","25.35","-105.75","1967.0","TEPEHUANES DGO., MX","FM-12","99999","V020","140,1,N,0020,1","03600,1,9,N","030000,1,N,1","+0318,1","+0136,1","10119,1","24,0000,9,1",,,,,,,"05,99,1,02,1,03,1,00800,1,04,1,00,1",,,,"120,M,+0350,1","180,N,+0150,1","99999,9,08180,1","7,1,017,1,-010,1",,"SYN124AAXX  21001 76373 32580 51402 10318 20136 38180 40119 57017 82340 85400 333 10350 20150 30/// 50621 56900 59010 70000 85628;",
"76373099999","2010-06-21T15:00:00","4","25.35","-105.75","1967.0","TEPEHUANES DGO., MX","FM-12","99999","V020","250,1,N,0010,1","22000,1,9,N","030000,1,N,1","+0180,1","+0134,1","10177,1",,,,,"01,1,+00840,1,08,1",,,"01,99,1,01,1,02,1,00800,1,00,1,00,1",,"01,9",,,,"99999,9,08227,1","2,1,007,1,-002,1",,"SYN100AAXX  21151 76373 32580 12501 10180 20134 38227 40177 52007 81200 91450 333 30/// 56900 59002 81828;",
"76373099999","2010-06-21T18:00:00","4","25.35","-105.75","1967.0","TEPEHUANES DGO., MX","FM-12","99999","V020","110,1,N,0020,1","22000,1,9,N","030000,1,N,1","+0280,1","+0149,1","10164,1",,,,,"01,1,+00900,1,06,1",,,"01,99,1,01,1,04,1,00800,1,00,1,00,1",,"01,9",,"120,M,+0350,1","240,N,+0130,1","99999,9,08216,1","7,1,011,1,-002,1",,"SYN112AAXX  21181 76373 32580 11102 10280 20149 38216 40164 57011 81400 91750 333 10350 20130 30/// 56900 59002 81630;",
"76373099999","2010-06-21T21:00:00","4","25.35","-105.75","1967.0","TEPEHUANES DGO., MX","FM-12","99999","V020","130,1,N,0030,1","00240,1,9,N","030000,1,N,1","+0330,1","+0122,1","10130,1",,,,,"09,1,+00240,1,00,1","04,1,+00810,1,06,1",,"06,99,1,09,1,04,1,00800,1,00,1,00,1",,"01,9",,,,"99999,9,08189,1","7,1,018,1,+999,9",,"SYN106AAXX  21211 76373 32580 61303 10330 20122 38189 40130 57018 86400 92050 333 30/// 56900 89008 84627 82727;","Q01+000062SCOTLC"
"76373099999","2010-06-22T21:00:00","4","25.35","-105.75","1967.0","TEPEHUANES DGO., MX","FM-12","99999","V020","120,1,N,0020,1","22000,1,9,N","030000,1,N,1","+0320,1","+0120,1","10148,1",,,,,"02,1,+00750,1,04,1",,,"03,99,1,02,1,04,1,00800,1,00,1,00,1",,"01,9",,,,"99999,9,08203,1","7,1,013,1,+014,1",,"SYN100AAXX  22211 76373 32580 31202 10320 20120 38203 40148 57013 82400 92050 333 30/// 56900 58014 82425;",
"76373099999","2010-06-23T00:00:00","4","25.35","-105.75","1967.0","TEPEHUANES DGO., MX","FM-12","99999","V020","310,1,N,0020,1","03600,1,9,N","030000,1,N,1","+0310,1","+0109,1","10126,1","24,0034,9,1",,,,,,,"05,99,1,04,1,04,1,00800,1,07,1,00,1",,"01,9",,"120,M,+0350,1",,"99999,9,08185,1","7,1,018,1,+999,9",,"SYN124AAXX  23001 76373 32580 53102 10310 20109 38185 40126 57018 84470 92350 333 10350 2//// 30/// 5//// 56990 58/// 70034 84425;",
"76373099999","2010-06-23T12:00:00","4","25.35","-105.75","1967.0","TEPEHUANES DGO., MX","FM-12","99999","V020","999,9,C,0000,1","22000,1,9,N","030000,1,N,1","+0142,1","+0126,1","10170,1",,,,,"00,1,+99999,9,99,9",,,"00,99,1,00,1,00,1,99999,9,00,1,00,1","0636,9","01,9",,"120,N,+0120,1","240,M,+0350,1","99999,9,08221,1",,,"SYN112AAXX  23121 76373 32980 00000 10142 20126 38221 40170 5//// 91150 333 10350 20120 30102 55106 21868 58/// 70000;",
"76373099999","2010-06-23T18:00:00","4","25.35","-105.75","1967.0","TEPEHUANES DGO., MX","FM-12","99999","V020","110,1,N,0020,1","22000,1,9,N","030000,1,N,1","+0300,1","+0123,1","10174,1",,,,,"02,1,+00810,1,02,1",,,"02,99,1,02,1,02,1,00800,1,00,1,00,1",,"01,9",,"120,M,+0320,1","240,N,+0120,1","99999,9,08225,1","7,1,008,1,+999,9",,"SYN112AAXX  23181 76373 32580 21102 10300 20123 38225 40174 57008 82200 91750 333 10320 20120 30/// 56900 58/// 82227;",
"76373099999","2010-06-23T21:00:00","4","25.35","-105.75","1967.0","TEPEHUANES DGO., MX","FM-12","99999","V020","140,1,N,0030,1","22000,1,9,N","030000,1,N,1","+0330,1","+0084,1","10145,1",,,,,"03,1,+00750,1,04,1",,,"04,99,1,03,1,04,1,00800,1,00,1,00,1",,"01,9",,,,"99999,9,08201,1","7,1,024,1,-002,1",,"SYN100AAXX  23211 76373 32580 41403 10330 20084 38201 40145 57024 83400 92050 333 30/// 56900 59002 83425;",
"76373099999","2010-06-24T00:00:00","4","25.35","-105.75","1967.0","TEPEHUANES DGO., MX","FM-12","99999","V020","050,1,N,0030,1","99999,9,9,N","030000,1,N,1","+0300,1","+0085,1","10128,1","24,0000,9,1",,,,,,,"06,99,1,99,9,07,1,00450,1,00,1,00,1",,"01,9",,"120,M,+0360,1","180,N,+0120,1","99999,9,08187,1","7,1,014,1,+003,1",,"SYN124AAXX  24001 76373 32480 60503 10300 20085 38187 40128 57014 84700 92350 333 10360 20120 30/// 51111 56900 58003 70000 84720;","Q01+000042SCOTLC"
"76373099999","2010-06-24T12:00:00","4","25.35","-105.75","1967.0","TEPEHUANES DGO., MX","FM-12","99999","V020","300,1,N,0010,1","22000,1,9,N","001000,1,N,1","+0152,1","+0123,1","10172,1","24,0000,9,1",,,,,,,"02,99,1,02,1,02,1,00800,1,00,1,00,1","0636,9","01,9",,"120,N,+0136,1","240,M,+0360,1","99999,9,08223,1","9,9,999,9,+011,1",,"SYN130AAXX  24121 76373 32510 23001 10152 20123 38223 40172 5//// 82200 91150 333 10360 20136 30120 55106 21868 56000 58011 70000 82227;",
"76373099999","2010-06-24T15:00:00","4","25.35","-105.75","1967.0","TEPEHUANES DGO., MX","FM-12","99999","V020","999,9,C,0000,1","22000,1,9,N","030000,1,N,1","+0210,1","+0122,1","10184,1",,,,,"01,1,+00750,1,08,1",,,"01,99,1,01,1,01,1,00800,1,00,1,00,1",,"01,9",,,,"99999,9,08232,1","1,1,009,1,-001,1",,"SYN100AAXX  24151 76373 32580 10000 10210 20122 38232 40184 51009 81100 91455 333 30/// 56900 59001 81825;",
"76373099999","2010-06-24T18:00:00","4","25.35","-105.75","1967.0","TEPEHUANES DGO., MX","FM-12","99999","V020","140,1,N,0020,1","22000,1,9,N","030000,1,N,1","+0306,1","+0101,1","10170,1",,,,,"04,1,+00600,1,06,1",,,"04,99,1,04,1,04,1,00800,1,00,1,00,1",,"01,9",,"120,M,+0306,1","240,N,+0136,1","99999,9,08221,1","7,1,011,1,-004,1",,"SYN112AAXX  24181 76373 32580 41402 10306 20101 38221 40170 57011 84400 91755 333 10306 20136 30/// 56900 59004 84620;",
"76373099999","2010-06-24T21:00:00","4","25.35","-105.75","1967.0","TEPEHUANES DGO., MX","FM-12","99999","V020","070,1,N,0010,1","00600,1,9,N","030000,1,N,1","+0342,1","+0092,1","10160,1",,,,,"05,1,+00600,1,06,1",,,"05,99,1,05,1,05,1,00800,1,00,1,00,1",,"01,9",,,,"99999,9,08197,1","7,1,024,1,-004,1",,"SYN100AAXX  24211 76373 32580 50701 10342 20092 38197 40160 57024 85500 92255 333 30/// 56900 59004 85620;",
"76373099999","2010-06-25T00:00:00","4","25.35","-105.75","1967.0","TEPEHUANES DGO., MX","FM-12","99999","V020","070,1,N,0020,1","22000,1,9,N","030000,1,N,1","+0290,1","+0084,1","10123,1","24,0000,9,1",,,,"03,1,+00600,1,06,1",,,"04,99,1,04,1,04,1,00800,1,00,1,00,1",,"01,9",,"120,M,+0368,1","180,N,+0136,1","99999,9,08183,1","7,1,014,1,-004,1",,"SYN130AAXX  25001 76373 32580 40702 10290 20084 38183 40123 57014 84400 92355 333 10368 20136 30/// 50821 56900 59004 70000 83620 81725;",
"76373099999","2010-06-25T03:00:00","4","25.35","-105.75","1967.0","TEPEHUANES DGO., MX","FM-12","99999","V020","290,1,N,0020,1","22000,1,9,N","001000,1,N,1","+0220,1","+0116,1","10147,1",,,,,"02,1,+00600,1,06,1",,,"02,99,1,02,1,02,1,00800,1,00,1,00,1",,"01,9",,,,"99999,9,08202,1","2,1,017,1,-005,1",,"SYN100AAXX  25031 76373 32510 22902 10220 20116 38202 40147 52017 82200 90255 333 30/// 56900 59005 82620;",
"76373099999","2010-06-25T12:00:00","4","25.35","-105.75","1967.0","TEPEHUANES DGO., MX","FM-12","99999","V020","320,1,N,0010,1","22000,1,9,N","001000,1,N,1","+0160,1","+0119,1","10170,1","24,0000,9,1",,,,,,,"04,99,1,04,1,04,1,00800,1,00,1,00,1","0558,9","01,9",,"120,N,+0130,1","240,M,+0368,1","99999,9,08221,1","9,9,999,9,-002,1",,"SYN130AAXX  25121 76373 32510 43201 10160 20119 38221 40170 5//// 84400 91155 333 10368 20130 30122 55093 21732 56900 59002 70000 84720;",
"76373099999","2010-06-25T15:00:00","4","25.35","-105.75","1967.0","TEPEHUANES DGO., MX","FM-12","99999","V020","999,9,C,0000,1","22000,1,9,N","030000,1,N,1","+0220,1","+0130,1","10177,1",,,,,"01,1,+00750,1,07,1",,,"01,99,1,01,1,01,1,00800,1,00,1,00,1",,"01,9",,,,"99999,9,08227,1","0,1,006,1,-005,1",,"SYN100AAXX  25151 76373 32580 10000 10220 20130 38227 40177 50006 81100 91455 333 30/// 56900 59005 81725;",
"76373099999","2010-06-25T18:00:00","4","25.35","-105.75","1967.0","TEPEHUANES DGO., MX","FM-12","99999","V020","140,1,N,0020,1","22000,1,9,N","030000,1,N,1","+0300,1","+0119,1","10164,1",,,,,"02,1,+00600,1,06,1",,,"02,99,1,02,1,02,1,00800,1,00,1,00,1",,"01,9",,"120,M,+0300,1","240,N,+0130,1","99999,9,08217,1","7,1,011,1,-004,1",,"SYN112AAXX  25181 76373 32580 21402 10300 20119 38217 40164 57011 82200 91755 333 10300 20130 30/// 56900 59004 82620;",
"76373099999","2010-06-25T21:00:00","4","25.35","-105.75","1967.0","TEPEHUANES DGO., MX","FM-12","99999","V020","140,1,N,0020,1","22000,1,9,N","030000,1,N,1","+0338,1","+0100,1","10135,1",,,,,"01,1,+00600,1,07,1",,,"04,99,1,04,1,04,1,00800,1,00,1,00,1",,"01,9",,,,"99999,9,08193,1","7,1,024,1,-004,1",,"SYN106AAXX  25211 76373 32580 41402 10338 20100 38193 40135 57024 84400 92055 333 30/// 56900 59004 81720 83625;",
"76373099999","2010-06-26T00:00:00","4","25.35","-105.75","1967.0","TEPEHUANES DGO., MX","FM-12","99999","V020","320,1,N,0010,1","01200,1,9,N","030000,1,N,1","+0230,1","+0110,1","10137,1","24,0000,9,1",,,,"04,1,+00600,1,07,1",,,"08,99,1,08,1,08,1,00800,1,00,1,00,1",,"01,9",,"120,M,+0358,1","180,N,+0130,1","99999,9,08194,1","5,1,001,1,+011,1",,"SYN130AAXX  26001 76373 32580 83201 10230 20110 38194 40137 55001 88800 92355 333 10358 20130 30/// 50631 56900 58011 70000 84720 84625;",
"76373099999","2010-06-26T12:00:00","4","25.35","-105.75","1967.0","TEPEHUANES DGO., MX","FM-12","99999","V020","999,9,C,0000,1","00750,1,9,N","001000,1,N,1","+0160,1","+0144,1","10165,1","24,0010,9,1",,,,,,,"07,99,1,07,1,07,1,00800,1,00,1,00,1","0618,9","01,9",,"120,N,+0128,1","240,M,+0358,1","99999,9,08217,1","9,9,999,9,-004,1",,"SYN130AAXX  26121 76373 32510 70000 10160 20144 38217 40165 5//// 87700 91155 333 10358 20128 30118 55103 21900 56900 59004 70010 87720;",
"76373099999","2010-06-27T00:00:00","4","25.35","-105.75","1967.0","TEPEHUANES DGO., MX","FM-12","99999","V020","070,1,N,0010,1","00600,1,C,N","030000,1,N,1","+0240,1","+0102,1","10122,1","24,0010,9,1",,,,"06,1,+00600,1,07,1",,,"08,99,1,08,1,08,1,00800,1,00,1,00,1",,"01,9",,"120,M,+0340,1","180,N,+0128,1","99999,9,08182,1","3,1,004,1,-012,1",,"SYN130AAXX  27001 76373 32580 80701 10240 20102 38182 40122 53004 88800 92355 333 10340 20128 30/// 50611 56900 59012 70010 86720 82625;",
"76373099999","2010-06-27T12:00:00","4","25.35","-105.75","1967.0","TEPEHUANES DGO., MX","FM-12","99999","V020","999,9,C,0000,1","22000,1,9,N","001000,1,N,1","+0152,1","+0139,1","10142,1","24,0050,9,1",,,,,,,"03,99,1,03,1,03,1,00800,1,00,1,00,1","0306,9","01,9",,"120,N,+0120,1","240,M,+0340,1","99999,9,08189,1","9,9,999,9,-019,1",,"SYN130AAXX  27121 76373 32510 30000 10152 20139 38189 40142 5//// 83300 91155 333 10340 20120 30110 55051 21449 56900 59019 70050 83720;",
"76373099999","2010-06-27T15:00:00","4","25.35","-105.75","1967.0","TEPEHUANES DGO., MX","FM-12","99999","V020","999,9,C,0000,1","22000,1,9,N","030000,1,N,1","+0182,1","+0139,1","10145,1",,,,,"02,1,+00750,1,08,1",,,"02,99,1,02,1,02,1,00800,1,00,1,00,1",,"01,9",,,,"99999,9,08201,1","2,1,003,1,-024,1",,"SYN100AAXX  27151 76373 32580 20000 10182 20139 38201 40145 52003 82200 91455 333 30/// 56900 59024 82825;",
"76373099999","2010-06-27T18:00:00","4","25.35","-105.75","1967.0","TEPEHUANES DGO., MX","FM-12","99999","V020","070,1,N,0010,1","22000,1,9,N","030000,1,N,1","+0264,1","+0124,1","10130,1",,,,,"02,1,+00600,1,08,1",,,"02,99,1,02,1,02,1,00800,1,00,1,00,1",,"01,9",,"120,M,+0290,1","240,N,+0120,1","99999,9,08189,1","7,1,012,1,-017,1",,"SYN112AAXX  27181 76373 32580 20701 10264 20124 38189 40130 57012 82200 91755 333 10290 20120 30/// 56900 59017 82820;",
"76373099999","2010-06-28T00:00:00","4","25.35","-105.75","1967.0","TEPEHUANES DGO., MX","FM-12","99999","V020","320,1,N,0010,1","00750,1,9,N","030000,1,N,1","+0240,1","+0135,1","10140,1","24,0080,9,1",,,,,,,"07,99,1,07,1,07,1,00800,1,00,1,00,1",,"01,9",,"120,M,+0340,1","180,N,+0120,1","99999,9,08197,1","2,1,051,2,+015,1",,"SYN124AAXX  28001 76373 32580 73201 10240 20135 38197 40140 52051 87700 92355 333 10340 20120 30/// 50631 56900 58015 70080 87720;","Q01+000512APC3  "
"76373099999","2010-06-28T12:00:00","4","25.35","-105.75","1967.0","TEPEHUANES DGO., MX","FM-12","99999","V020","999,9,C,0000,1","22000,1,9,N","030000,1,N,1","+0150,1","+0140,1","10134,1","24,0100,9,1",,,,,,,"01,99,1,01,1,01,1,00800,1,00,1,00,1","0498,9","01,9",,"120,N,+0120,1","240,M,+0340,1","99999,9,08192,1","9,9,999,9,-006,1",,"SYN130AAXX  28121 76373 32580 10000 10150 20140 38192 40134 5//// 81100 91155 333 10340 20120 30110 55083 21530 56900 59006 70100 81825;",
"76373099999","2010-06-28T15:00:00","4","25.35","-105.75","1967.0","TEPEHUANES DGO., MX","FM-12","99999","V020","999,9,C,0000,1","22000,1,9,N","030000,1,N,1","+0192,1","+0144,1","10137,1",,,,,"00,1,+99999,9,99,9",,,"00,99,1,00,1,00,1,99999,9,00,1,00,1",,"01,9",,,,"99999,9,08194,1","0,1,002,1,+007,1",,"SYN082AAXX  28151 76373 32980 00000 10192 20144 38194 40137 50002 91455 333 30/// 58007;",
"76373099999","2010-06-28T18:00:00","4","25.35","-105.75","1967.0","TEPEHUANES DGO., MX","FM-12","99999","V020","160,1,N,0010,1","22000,1,9,N","030000,1,N,1","+0268,1","+0139,1","10124,1",,,,,"04,1,+00600,1,06,1",,,"04,99,1,04,1,04,1,00800,1,00,1,00,1",,"01,9",,"120,M,+0298,1","240,N,+0120,1","99999,9,08184,1","6,1,010,1,-005,1",,"SYN112AAXX  28181 76373 32580 41601 10268 20139 38184 40124 56010 84400 91755 333 10298 20120 30/// 56900 59005 84620;",
"76373099999","2010-06-28T21:00:00","4","25.35","-105.75","1967.0","TEPEHUANES DGO., MX","FM-12","99999","V020","140,1,N,0010,1","00750,1,9,N","030000,1,N,1","+0308,1","+0122,1","10102,1",,,,,"02,1,+00600,1,07,1",,,"06,99,1,06,1,06,1,00800,1,00,1,00,1",,"01,9",,,,"99999,9,08166,1","7,1,018,1,+020,1",,"SYN106AAXX  28211 76373 32580 61401 10308 20122 38166 40102 57018 86600 92055 333 30/// 56900 58020 82720 84625;",
"76373099999","2010-06-29T00:00:00","4","25.35","-105.75","1967.0","TEPEHUANES DGO., MX","FM-12","99999","V020","050,1,N,0020,1","00420,1,9,N","030000,1,N,1","+0268,1","+0118,1","10088,1","24,0070,9,1",,,,,,,"07,99,1,99,9,07,1,00450,1,00,1,00,1",,"01,9",,"120,M,+0330,1","180,N,+0120,1","99999,9,08155,1","7,1,011,1,+999,9",,"SYN124AAXX  29001 76373 32480 70502 10268 20118 38155 40088 57011 86700 92350 333 10330 20120 30/// 50591 56900 58/// 70070 86720;","Q01+000062SCOTLC"
"76373099999","2010-06-29T12:00:00","4","25.35","-105.75","1967.0","TEPEHUANES DGO., MX","FM-12","99999","V020","999,9,C,0000,1","99999,9,9,N","001000,1,N,1","+0160,1","+0157,1","10109,1","06,0030,9,1",,"5,1,06,1","2,1,06,1",,,,"08,99,1,99,9,99,9,00450,1,99,9,99,9",,,,,,"99999,9,08172,1",,"51,1","SYN072AAXX  29121 76373 01410 80000 10160 20157 38172 40109 5//// 60031 75152;",
"76373099999","2010-06-29T15:00:00","4","25.35","-105.75","1967.0","TEPEHUANES DGO., MX","FM-12","99999","V020","999,9,C,0000,1","00600,1,9,N","030000,1,N,1","+0180,1","+0160,1","10155,1",,,,,"07,1,+00600,1,07,1",,,"08,99,1,07,1,07,1,00450,1,00,1,00,1",,"01,9",,,,"99999,9,08209,1","2,1,037,1,+015,1",,"SYN100AAXX  29151 76373 32480 80000 10180 20160 38209 40155 52037 87700 91450 333 30/// 56000 58015 87720;",
"76373099999","2010-06-29T18:00:00","4","25.35","-105.75","1967.0","TEPEHUANES DGO., MX","FM-12","99999","V020","150,1,N,0010,1","00600,1,9,N","030000,1,N,1","+0250,1","+0158,1","10149,1",,,,,"05,1,+00600,1,07,1",,,"07,99,1,05,1,07,1,00450,1,00,1,00,1",,"01,9",,"120,M,+0282,1","240,N,+0138,1","99999,9,08204,1","7,1,005,1,+020,1",,"SYN112AAXX  29181 76373 32480 71501 10250 20158 38204 40149 57005 85700 91750 333 10282 20138 30/// 56900 58020 85720;",
"76373099999","2010-06-29T21:00:00","4","25.35","-105.75","1967.0","TEPEHUANES DGO., MX","FM-12","99999","V020","060,1,N,0010,1","99999,9,9,N","030000,1,N,1","+0262,1","+0141,1","10131,1",,,,,"04,1,+00600,1,07,1",,,"07,99,1,04,1,07,1,00450,1,00,1,00,1",,"01,9",,,,"99999,9,08189,1","7,1,015,1,+023,1",,"SYN106AAXX  29211 76373 32480 70601 10262 20141 38189 40131 57015 84700 92050 333 30/// 56900 58023 84720 83520;",
"76373099999","2010-06-30T00:00:00","4","25.35","-105.75","1967.0","TEPEHUANES DGO., MX","FM-12","99999","V020","260,1,N,0010,1","00420,1,9,N","030000,1,N,1","+0232,1","+0149,1","10111,1","24,0028,9,1",,,,,,,"07,99,1,99,9,07,1,00450,1,00,1,00,1",,"01,9",,"120,M,+0300,1","180,N,+0138,1","99999,9,08173,1","7,1,016,1,+018,1",,"SYN124AAXX  30001 76373 32480 72601 10232 20149 38173 40111 57016 86700 92350 333 10300 20138 30/// 50471 56900 58018 70028 86720;","Q01+000062SCOTLC"
"76373099999","2010-06-30T03:00:00","4","25.35","-105.75","1967.0","TEPEHUANES DGO., MX","FM-12","99999","V020","999,9,C,0000,1","00600,1,9,N","001000,1,N,1","+0210,1","+0172,1","10120,1",,,,,"06,1,+00600,1,07,1",,,"07,99,1,06,1,07,1,00450,1,00,1,00,1",,"01,9",,,,"99999,9,08182,1","2,1,009,1,+004,1",,"SYN100AAXX  30031 76373 32410 70000 10210 20172 38182 40120 52009 86700 90250 333 30/// 56000 58004 86720;",
"76373099999","2010-06-30T15:00:00","4","25.35","-105.75","1967.0","TEPEHUANES DGO., MX","FM-12","99999","V020","999,9,C,0000,1","99999,9,9,N","030000,1,N,1","+0190,1","+0162,1","10148,1",,,,,"04,1,+00600,1,04,1",,,"06,99,1,04,1,04,1,00450,1,00,1,00,1",,"01,9",,,,"99999,9,08203,1","2,1,010,1,-006,1",,"SYN100AAXX  30151 76373 32480 60000 10190 20162 38203 40148 52010 84400 91450 333 30/// 56900 59006 84420;",
"76373099999","2010-06-30T18:00:00","4","25.35","-105.75","1967.0","TEPEHUANES DGO., MX","FM-12","99999","V020","999,9,C,0000,1","00600,1,9,N","030000,1,N,1","+0253,1","+0157,1","10145,1",,,,,"05,1,+00600,1,04,1",,,"06,99,1,05,1,04,1,00450,1,00,1,00,1",,"01,9",,"120,M,+0278,1","240,N,+0135,1","99999,9,08201,1","8,1,002,1,-003,1",,"SYN112AAXX  30181 76373 32480 60000 10253 20157 38201 40145 58002 85400 91750 333 10278 20135 30/// 56900 59003 85420;",
"76373099999","2010-06-30T21:00:00","4","25.35","-105.75","1967.0","TEPEHUANES DGO., MX","FM-12","99999","V020","230,1,N,0010,1","03600,1,C,N","030000,1,N,1","+0280,1","+0142,1","10123,1",,,,,"05,1,+99999,9,05,1",,,"07,99,1,05,1,05,1,00450,1,00,1,00,1",,"01,9",,,,"99999,9,08183,1","7,1,018,1,+010,1",,"SYN099AAXX  30211 76373 32480 72301 10280 20142 38183 40123 57018 85500 92050 333 30/// 56900 58010 8552;",
"76373099999","2010-07-01T00:00:00","4","25.35","-105.75","1967.0","TEPEHUANES DGO., MX","FM-12","99999","V020","050,1,N,0030,1","99999,9,9,N","030000,1,N,1","+0274,1","+0128,1","10106,1","24,0170,9,1",,,,,,,"05,99,1,99,9,07,1,00450,1,00,1,00,1",,"01,9",,"120,M,+0316,1","180,N,+0135,1","99999,9,08169,1","7,1,014,1,-013,1",,"SYN124AAXX  01001 76373 32480 50503 10274 20128 38169 40106 57014 83700 92350 333 10316 20135 30/// 50521 56900 59013 70170 83720;","Q01+000032SCOTLC"
"76373099999","2010-07-01T12:00:00","4","25.35","-105.75","1967.0","TEPEHUANES DGO., MX","FM-12","99999","V020","999,9,C,0000,1","00420,1,9,N","001000,1,N,1","+0172,1","+0159,1","10139,1","24,0005,9,1",,,,,,,"07,99,1,99,9,05,1,00450,1,00,1,00,1","0456,9","01,9",,"120,N,+0150,1","240,M,+0316,1","99999,9,08196,1","9,9,999,9,+003,1",,"SYN130AAXX  01121 76373 32410 70000 10172 20159 38196 40139 5//// 85500 91150 333 10316 20150 30137 55076 21280 56000 58003 70005 85720;","Q01+000052SCOTLC"
"76373099999","2010-07-13T12:00:00","4","25.35","-105.75","1967.0","TEPEHUANES DGO., MX","FM-12","99999","V020","160,1,N,0010,1","01200,1,9,N","001000,1,N,1","+0168,1","+0139,1","10155,1","24,0800,9,1",,,,,,,"08,99,1,08,1,08,1,00800,1,00,1,00,1","0150,9","01,9",,"120,N,+0130,1","240,M,+0200,1","99999,9,08209,1",,,"SYN130AAXX  13121 76373 32510 81601 10168 20139 38209 40155 5//// 88800 91155 333 10200 20130 30122 55025 20491 56900 58/// 70800 88720;",
"76373099999","2010-07-13T18:00:00","4","25.35","-105.75","1967.0","TEPEHUANES DGO., MX","FM-12","99999","V020","140,1,N,0010,1","22000,1,9,N","030000,1,N,1","+0250,1","+0136,1","10150,1",,,,,"01,1,+00750,1,08,1",,,"01,99,1,01,1,01,1,00800,1,00,1,00,1",,"01,9",,"120,M,+0270,1","240,N,+0130,1","99999,9,08205,1","5,1,007,1,+999,9",,"SYN112AAXX  13181 76373 32580 11401 10250 20136 38205 40150 55007 81100 91755 333 10270 20130 30/// 56900 58/// 81825;",
"76373099999","2010-07-13T21:00:00","4","25.35","-105.75","1967.0","TEPEHUANES DGO., MX","FM-12","99999","V020","140,1,N,0020,1","22000,1,9,N","030000,1,N,1","+0290,1","+0148,1","10130,1",,,,,"02,1,+00750,1,08,1",,,"02,99,1,02,1,02,1,00800,1,00,1,00,1",,"01,9",,,,"99999,9,08189,1","7,1,016,1,+999,9",,"SYN100AAXX  13211 76373 32580 21402 10290 20148 38189 40130 57016 82200 92055 333 30/// 56900 58/// 82825;",
"76373099999","2010-07-14T00:00:00","4","25.35","-105.75","1967.0","TEPEHUANES DGO., MX","FM-12","99999","V020","140,1,N,0020,1","22000,1,9,N","030000,1,N,1","+0302,1","+0125,1","10107,1","24,0060,9,1",,,,"02,1,+00600,1,07,1",,,"04,99,1,04,1,04,1,00800,1,00,1,00,1",,"01,9",,"120,M,+0320,1","180,N,+0130,1","99999,9,08170,1","7,1,019,1,+999,9",,"SYN130AAXX  14001 76373 32580 41402 10302 20125 38170 40107 57019 84400 92355 333 10320 20130 30/// 50661 56900 58/// 70060 82720 82625;",
"76373099999","2010-07-14T15:00:00","4","25.35","-105.75","1967.0","TEPEHUANES DGO., MX","FM-12","99999","V020","999,9,C,0000,1","22000,1,9,N","030000,1,N,1","+0190,1","+0150,1","10183,1",,,,,"01,1,+00600,1,07,1",,,"03,99,1,03,1,03,1,00800,1,00,1,00,1",,"01,9",,,,"99999,9,08231,1","2,1,011,1,+019,1",,"SYN106AAXX  14151 76373 32580 30000 10190 20150 38231 40183 52011 83300 91455 333 30/// 56900 58019 81720 82625;",
"76373099999","2010-07-14T18:00:00","4","25.35","-105.75","1967.0","TEPEHUANES DGO., MX","FM-12","99999","V020","140,1,N,0010,1","00750,1,9,N","030000,1,N,1","+0242,1","+0156,1","10178,1",,,,,"03,1,+00600,1,07,1",,,"06,99,1,06,1,06,1,00800,1,00,1,00,1",,"01,9",,"120,M,+0272,1","240,N,+0108,1","99999,9,08228,1","7,1,003,1,+023,1",,"SYN118AAXX  14181 76373 32580 61401 10242 20156 38228 40178 57003 86600 91755 333 10272 20108 30/// 56900 58023 83720 83625;",
"76373099999","2010-07-14T21:00:00","4","25.35","-105.75","1967.0","TEPEHUANES DGO., MX","FM-12","99999","V020","160,1,N,0010,1","00750,1,9,N","030000,1,N,1","+0278,1","+0153,1","10164,1",,,,,"05,1,+00750,1,06,1",,,"05,99,1,05,1,05,1,00800,1,00,1,00,1",,"01,9",,,,"99999,9,08216,1","7,1,012,1,+027,1",,"SYN100AAXX  14211 76373 32580 51601 10278 20153 38216 40164 57012 85500 92055 333 30/// 56900 58027 85625;",
"76373099999","2010-07-15T00:00:00","4","25.35","-105.75","1967.0","TEPEHUANES DGO., MX","FM-12","99999","V020","140,1,N,0020,1","22000,1,9,N","030000,1,N,1","+0286,1","+0096,1","10143,1","24,0060,9,1",,,,,,,"02,99,1,02,1,02,1,00800,1,00,1,00,1",,"01,9",,"120,M,+0320,1","180,N,+0108,1","99999,9,08199,1","7,1,017,1,+029,1",,"SYN124AAXX  15001 76373 32580 21402 10286 20096 38199 40143 57017 82200 92355 333 10320 20108 30/// 50641 56900 58029 70060 82825;",
"76373099999","2010-07-15T03:00:00","4","25.35","-105.75","1967.0","TEPEHUANES DGO., MX","FM-12","99999","V020","999,9,C,0000,1","22000,1,9,N","030000,1,N,1","+0280,1","+0129,1","10155,1",,,,,,,,"01,99,1,01,1,01,1,00800,1,00,1,00,1",,"01,9",,,,"99999,9,08202,1","2,1,011,1,+017,1",,"SYN100AAXX  15031 76373 32580 10000 10280 20129 38202 40155 52011 81100 90255 333 30/// 56900 58017 18125;",
"76373099999","2010-07-15T15:00:00","4","25.35","-105.75","1967.0","TEPEHUANES DGO., MX","FM-12","99999","V020","999,9,C,0000,1","22000,1,9,N","030000,1,N,1","+0186,1","+0135,1","10192,1",,,,,"00,1,+99999,9,99,9",,,"00,99,1,00,1,00,1,99999,9,00,1,00,1",,"01,9",,,,"99999,9,08239,1","2,1,009,1,+008,1",,"SYN082AAXX  15151 76373 32980 00000 10186 20135 38239 40192 52009 91455 333 30/// 58008;",
"76373099999","2010-07-15T21:00:00","4","25.35","-105.75","1967.0","TEPEHUANES DGO., MX","FM-12","99999","V020","140,1,N,0040,1","22000,1,9,N","030000,1,N,1","+0300,1","+0119,1","10163,1",,,,,"01,1,+00600,1,06,1",,,"03,99,1,03,1,03,1,00800,1,00,1,00,1",,"01,9",,,,"99999,9,08215,1","7,1,024,1,-001,1",,"SYN106AAXX  15211 76373 32580 31404 10300 20119 38215 40163 57024 83300 92055 333 30/// 56900 59001 81620 82825;",
"76373099999","2010-07-16T00:00:00","4","25.35","-105.75","1967.0","TEPEHUANES DGO., MX","FM-12","99999","V020","140,1,N,0020,1","22000,1,9,N","030000,1,N,1","+0300,1","+0123,1","10148,1","24,0000,9,1",,,,,,,"03,99,1,03,1,03,1,00800,1,00,1,00,1",,"01,9",,"120,M,+0340,1","180,N,+0000,1","99999,9,08203,1","7,1,012,1,+004,1",,"SYN130AAXX  16001 76373 32580 31402 10300 20123 38203 40148 57012 83300 92355 333 10340 21000 30/// 30/// 50661 56900 58004 70000 83720;",
"76373099999","2010-07-16T15:00:00","4","25.35","-105.75","1967.0","TEPEHUANES DGO., MX","FM-12","99999","V020","140,1,N,0010,1","22000,1,9,N","030000,1,N,1","+0200,1","+0142,1","10187,1",,,,,"01,1,+00600,1,08,1",,,"01,99,1,01,1,01,1,00800,1,00,1,00,1",,"01,9",,,,"99999,9,08234,1","5,1,014,1,-005,1",,"SYN100AAXX  16151 76373 32580 11401 10200 20142 38234 40187 55014 81100 91455 333 30/// 56900 59005 81820;",
"76373099999","2010-07-16T21:00:00","4","25.35","-105.75","1967.0","TEPEHUANES DGO., MX","FM-12","99999","V020","250,1,N,0010,1","00750,1,9,N","030000,1,N,1","+0300,1","+0127,1","10151,1",,,,,"02,1,+00600,1,07,1",,,"05,99,1,05,1,05,1,00800,1,00,1,00,1",,"01,9",,,,"99999,9,08205,1","7,1,022,1,-010,1",,"SYN106AAXX  16211 76373 32580 52501 10300 20127 38205 40151 57022 85500 92055 333 30/// 56900 59010 82720 83625;",
"76373099999","2010-07-17T00:00:00","4","25.35","-105.75","1967.0","TEPEHUANES DGO., MX","FM-12","99999","V020","240,1,N,0010,1","00750,1,9,N","030000,1,N,1","+0214,1","+0168,1","10154,1","24,0070,9,1",,,,"02,1,+00600,1,07,1",,,"05,99,1,05,1,05,1,00800,1,00,1,00,1",,"01,9",,"120,M,+0330,1","180,N,+0108,1","99999,9,08208,1","0,1,003,1,+005,1",,"SYN130AAXX  17001 76373 32580 52401 10214 20168 38208 40154 50003 85500 92355 333 10330 20108 30/// 50671 56900 58005 70070 82720 83625;",
"76373099999","2010-07-17T12:00:00","4","25.35","-105.75","1967.0","TEPEHUANES DGO., MX","FM-12","99999","V020","999,9,C,0000,1","22000,1,9,N","001000,1,N,1","+0134,1","+0113,1","10180,1",,,,,"00,1,+99999,9,99,9",,,"00,99,1,00,1,00,1,99999,9,00,1,00,1","0570,9","01,9",,"120,N,+0100,1","240,M,+0330,1","99999,9,08229,1","9,9,999,9,+001,1",,"SYN112AAXX  17121 76373 32910 00000 10134 20113 38229 40180 5//// 91155 333 10330 20100 30090 55095 21771 58001 70070;",
"76373099999","2010-07-17T15:00:00","4","25.35","-105.75","1967.0","TEPEHUANES DGO., MX","FM-12","99999","V020","999,9,C,0000,1","22000,1,9,N","030000,1,N,1","+0192,1","+0147,1","10194,1",,,,,"01,1,+00600,1,08,1",,,"03,99,1,03,1,02,1,00800,1,00,1,01,1",,"01,9",,,,"99999,9,08241,1","2,1,028,1,+007,1",,"SYN106AAXX  17151 76373 32580 30000 10192 20147 38241 40194 52028 83201 91455 333 30/// 56909 58007 81820 82067;",
"76373099999","2010-07-21T15:00:00","4","25.35","-105.75","1967.0","TEPEHUANES DGO., MX","FM-12","99999","V020","999,9,C,0000,1","22000,1,9,N","030000,1,N,1","+0210,1","+0148,1","10158,1",,,,,"01,1,+00750,1,02,1",,,"02,99,1,01,1,02,1,01250,1,03,1,00,1",,"01,9",,,,"99999,9,08210,1","8,1,010,1,+999,9",,"SYN100AAXX  21151 76373 32680 20000 10210 20148 38210 40158 58010 81230 91420 333 30/// 56990 58/// 81225;",
"76373099999","2010-07-21T18:00:00","4","25.35","-105.75","1967.0","TEPEHUANES DGO., MX","FM-12","99999","V020","170,1,N,0020,1","22000,1,9,N","030000,1,N,1","+0280,1","+0140,1","10161,1",,,,,"01,1,+00750,1,04,1",,,"02,99,1,02,1,04,1,00800,1,00,1,00,1",,"01,9",,"120,M,+0300,1","240,N,+0100,1","99999,9,08214,1","3,1,003,1,+999,9",,"SYN112AAXX  21181 76373 32580 21702 10280 20140 38214 40161 53003 82400 91750 333 10300 20100 30/// 56100 58/// 81425;",
"76373099999","2010-07-21T21:00:00","4","25.35","-105.75","1967.0","TEPEHUANES DGO., MX","FM-12","99999","V020","170,1,N,0030,1","99999,9,9,N","030000,1,N,1","+0300,1","+0129,1","10136,1",,,,,"04,1,+00750,1,04,1",,,"05,99,1,04,1,04,1,00800,1,00,1,00,1",,"01,9",,,,"99999,9,08194,1","7,1,020,1,+999,9",,"SYN100AAXX  21211 76373 32580 51703 10300 20129 38194 40136 57020 84400 92050 333 30/// 56900 58/// 84425;",
"76373099999","2010-07-22T00:00:00","4","25.35","-105.75","1967.0","TEPEHUANES DGO., MX","FM-12","99999","V020","240,1,N,0010,1","99999,9,9,N","030000,1,N,1","+0262,1","+0141,1","10137,1","24,0000,9,1",,,,,,,"05,99,1,99,9,04,1,00800,1,00,1,00,1",,"01,9",,"120,M,+0336,1","180,N,+0100,1","99999,9,08194,1","0,1,000,1,+999,9",,"SYN124AAXX  22001 76373 32580 52401 10262 20141 38194 40137 50000 84400 92350 333 10336 20100 30/// 50861 56900 58/// 70000 84425;","Q01+000042SCOTLC"
"76373099999","2010-07-22T12:00:00","4","25.35","-105.75","1967.0","TEPEHUANES DGO., MX","FM-12","99999","V020","999,9,C,0000,1","00420,1,9,N","001000,1,N,1","+0170,1","+0160,1","10160,1","24,0010,9,1",,,,,,,"07,99,1,07,1,07,1,00450,1,00,1,00,1","0522,9","01,9",,"120,N,+0148,1","240,M,+0330,1","99999,9,08213,1","9,9,999,9,+008,1",,"SYN130AAXX  22121 76373 32410 70000 10170 20160 38213 40160 5//// 87700 91150 333 10330 20148 30136 55087 21965 56000 58008 70010 87720;",
"76373099999","2010-07-23T12:00:00","4","25.35","-105.75","1967.0","TEPEHUANES DGO., MX","FM-12","99999","V020","999,9,C,0000,1","22000,1,9,N","001000,1,N,1","+0140,1","+0137,1","10153,1","24,0000,9,1",,,,,,,"02,99,1,02,1,01,1,00800,1,00,1,00,1","0252,9","01,9",,"120,N,+0116,1","240,M,+0330,1","99999,9,08207,1","9,9,999,9,-006,1",,"SYN130AAXX  23121 76373 32510 20000 10140 20137 38207 40153 5//// 82100 91150 333 10330 20116 30104 55042 21127 56000 59006 70000 82128;",
"76373099999","2010-07-24T00:00:00","4","25.35","-105.75","1967.0","TEPEHUANES DGO., MX","FM-12","99999","V020","170,1,N,0030,1","00420,1,9,N","030000,1,N,1","+0210,1","+0153,1","10132,1","24,0000,9,1",,,,,,,"08,99,1,99,9,05,1,00450,1,00,1,00,1",,"01,9",,"120,M,+0324,1","180,N,+0116,1","99999,9,08190,1","9,9,999,9,-006,1",,"SYN124AAXX  24001 76373 32480 81703 10210 20153 38190 40132 5//// 87500 92350 333 10324 20116 30/// 50601 56900 59006 70000 87520;","Q01+000072SCOTLC"
"76373099999","2010-07-24T12:00:00","4","25.35","-105.75","1967.0","TEPEHUANES DGO., MX","FM-12","99999","V020","999,9,C,0000,1","00420,1,9,N","001000,1,N,1","+0162,1","+0145,1","10155,1","24,0000,9,1",,,,,,,"08,99,1,99,9,07,1,00450,1,00,1,00,1","0570,9","01,9",,"120,N,+0140,1","240,M,+0330,1","99999,9,08204,1","9,9,999,9,+001,1",,"SYN130AAXX  24121 76373 32410 80000 10162 20145 38204 40155 5//// 87700 91150 333 10330 20140 30128 55095 22005 56000 58001 70000 87720;","Q01+000072SCOTLC"
"76373099999","2010-07-25T00:00:00","4","25.35","-105.75","1967.0","TEPEHUANES DGO., MX","FM-12","99999","V020","240,1,N,0050,1","00420,1,9,N","030000,1,N,1","+0224,1","+0132,1","10129,1","24,0000,9,1",,,,,,,"08,99,1,99,9,07,1,00450,1,00,1,00,1",,"01,9",,"120,M,+0332,1","180,N,+0140,1","99999,9,08188,1","9,9,999,9,-002,1",,"SYN124AAXX  25001 76373 32480 82405 10224 20132 38188 40129 5//// 87700 92350 333 10332 20140 30/// 50731 56900 59002 70000 87720;","Q01+000072SCOTLC"
"76373099999","2010-07-26T00:00:00","4","25.35","-105.75","1967.0","TEPEHUANES DGO., MX","FM-12","99999","V020","240,1,N,0020,1","99999,9,9,N","030000,1,N,1","+0180,1","+0177,1","10139,1","06,0079,9,1",,"6,1,06,1","5,1,06,1",,,,"08,99,1,99,9,99,9,00450,1,99,9,99,9",,,,,,"99999,9,08196,1",,"51,1","SYN072AAXX  26001 76373 11480 82402 10180 20177 38196 40139 5//// 60081 75165;",
"76373099999","2010-07-27T12:00:00","4","25.35","-105.75","1967.0","TEPEHUANES DGO., MX","FM-12","99999","V020","999,9,C,0000,1","00420,1,9,N","001000,1,N,1","+0170,1","+0162,1","10149,1","24,0015,9,1",,,,,,,"08,99,1,08,1,07,1,00450,1,00,1,00,1","0108,9","01,9",,"120,N,+0146,1","240,M,+0330,1","99999,9,08204,1","9,9,999,9,-005,1",,"SYN130AAXX  27121 76373 32410 80000 10170 20162 38204 40149 5//// 88700 91150 333 10330 20146 30122 55018 21111 56000 59005 70015 88720;",
"76373099999","2010-07-27T15:00:00","4","25.35","-105.75","1967.0","TEPEHUANES DGO., MX","FM-12","99999","V020","999,9,C,0000,1","00600,1,9,N","030000,1,N,1","+0200,1","+0171,1","10163,1",,,,,"06,1,+00600,1,07,1",,,"07,99,1,06,1,07,1,00450,1,00,1,00,1",,"01,9",,,,"99999,9,08215,1","2,1,011,1,+999,9",,"SYN100AAXX  27151 76373 32480 70000 10200 20171 38215 40163 52011 86700 91450 333 30/// 56000 58/// 86720;",
"76373099999","2010-07-27T18:00:00","4","25.35","-105.75","1967.0","TEPEHUANES DGO., MX","FM-12","99999","V020","230,1,N,0020,1","99999,9,9,N","030000,1,N,1","+0242,1","+0151,1","10157,1",,,,,"04,1,+00600,1,05,1",,,"05,99,1,04,1,05,1,00450,1,00,1,00,1",,"01,9",,"120,M,+0266,1","240,N,+0146,1","99999,9,08211,1","8,1,004,1,+999,9",,"SYN112AAXX  27181 76373 32480 52302 10242 20151 38211 40157 58004 84500 91750 333 10266 20146 30/// 56900 58/// 84520;",
"76373099999","2010-07-27T21:00:00","4","25.35","-105.75","1967.0","TEPEHUANES DGO., MX","FM-12","99999","V020","130,1,N,0040,1","99999,9,9,N","030000,1,N,1","+0270,1","+0169,1","10139,1",,,,,"04,1,+00600,1,05,1",,,"06,99,1,04,1,05,1,00450,1,00,1,00,1",,"01,9",,,,"99999,9,08196,1","7,1,015,1,+999,9",,"SYN100AAXX  27211 76373 32480 61304 10270 20169 38196 40139 57015 84500 92050 333 30/// 56900 58/// 84520;",
"76373099999","2010-07-28T00:00:00","4","25.35","-105.75","1967.0","TEPEHUANES DGO., MX","FM-12","99999","V020","280,1,N,0030,1","00420,1,9,N","030000,1,N,1","+0224,1","+0147,1","10139,1","24,0015,9,1",,,,"01,1,+00600,1,09,1",,,"08,99,1,07,1,07,1,00450,1,00,1,00,1",,"01,9",,"120,M,+0296,1","180,N,+0146,1","99999,9,08196,1","5,1,000,1,-008,1",,"SYN130AAXX  28001 76373 32480 82803 10224 20147 38196 40139 55000 87700 92350 333 10296 20146 30/// 50511 56900 59008 70015 81920 87720;",
"76373099999","2010-07-28T12:00:00","4","25.35","-105.75","1967.0","TEPEHUANES DGO., MX","FM-12","99999","V020","999,9,C,0000,1","99999,9,9,N","001000,1,N,1","+0160,1","+0157,1","10168,1","06,0051,9,1",,"5,1,06,1","2,1,06,1",,,,"08,99,1,99,9,99,9,00450,1,99,9,99,9",,,,,,"99999,9,08220,1",,"50,1","SYN072AAXX  28121 76373 11410 80000 10160 20157 38220 40168 5//// 60051 75052;",
"76373099999","2010-07-28T15:00:00","4","25.35","-105.75","1967.0","TEPEHUANES DGO., MX","FM-12","99999","V020","999,9,C,0000,1","00600,1,9,N","030000,1,N,1","+0176,1","+0161,1","10184,1","03,0010,9,1",,"5,1,03,1","2,1,03,1","08,1,+00600,1,08,1",,,"08,99,1,08,1,08,1,00450,1,00,1,00,1",,"09,9",,,,"99999,9,08232,1","2,1,012,1,+017,1","02,1","SYN118AAXX  28151 76373 21480 80000 10176 20161 38232 40184 52012 70252 88800 91450 333 31/// 56000 58017 60017 88820 96002;",
"76373099999","2010-07-28T18:00:00","4","25.35","-105.75","1967.0","TEPEHUANES DGO., MX","FM-12","99999","V020","130,1,N,0010,1","00600,1,9,N","030000,1,N,1","+0210,1","+0164,1","10183,1",,,,,"08,1,+00600,1,08,1",,,"08,99,1,08,1,08,1,00450,1,00,1,00,1",,"01,9",,"120,M,+0228,1","240,N,+0134,1","99999,9,08232,1","4,1,000,1,+027,1",,"SYN112AAXX  28181 76373 32480 81301 10210 20164 38232 40183 54000 88800 91750 333 10228 20134 30/// 56900 58027 88820;",
"76373099999","2010-07-28T21:00:00","4","25.35","-105.75","1967.0","TEPEHUANES DGO., MX","FM-12","99999","V020","150,1,N,0030,1","00600,1,9,N","030000,1,N,1","+0224,1","+0176,1","10165,1",,,,,"08,1,+00600,1,08,1",,,"08,99,1,08,1,08,1,00450,1,00,1,00,1",,"01,9",,,,"99999,9,08217,1","7,1,015,1,+021,1",,"SYN100AAXX  28211 76373 32480 81503 10224 20176 38217 40165 57015 88800 92050 333 30/// 56900 58021 88820;",
"76373099999","2010-07-29T00:00:00","4","25.35","-105.75","1967.0","TEPEHUANES DGO., MX","FM-12","99999","V020","140,1,N,0030,1","00420,1,9,N","030000,1,N,1","+0238,1","+0168,1","10171,1","24,0212,9,1",,,,,,,"08,99,1,08,1,07,1,00450,1,00,1,00,1",,"01,9",,"120,M,+0264,1","180,N,+0134,1","99999,9,08228,1","2,1,012,1,+026,1",,"SYN124AAXX  29001 76373 32480 81403 10238 20168 38228 40171 52012 88700 92350 333 10264 20134 30/// 50821 56900 58026 70212 88720;",
"76373099999","2010-07-29T12:00:00","4","25.35","-105.75","1967.0","TEPEHUANES DGO., MX","FM-12","99999","V020","999,9,C,0000,1","00900,1,9,N","001000,1,N,1","+0163,1","+0158,1","10186,1","24,0022,9,1",,,,,,,"08,99,1,08,1,08,1,00450,1,00,1,00,1","0060,9","01,9",,"120,N,+0140,1","240,M,+0264,1","99999,9,08234,1","9,9,999,9,+014,1",,"SYN130AAXX  29121 76373 32410 80000 10163 20158 38234 40186 5//// 88800 91150 333 10264 20140 30124 55010 21111 56000 58014 70022 88820;",
"76373099999","2010-08-05T15:00:00","4","25.35","-105.75","1967.0","TEPEHUANES DGO., MX","FM-12","99999","V020","999,9,C,0000,1","22000,1,9,N","030000,1,N,1","+0182,1","+0149,1","10171,1",,,,,"00,1,+99999,9,99,9",,,"00,99,1,00,1,00,1,99999,9,00,1,00,1",,"01,9",,,,"99999,9,08222,1","2,1,004,1,+999,9",,"SYN082AAXX  05151 76373 32980 00000 10182 20149 38222 40171 52004 91455 333 30/// 58///;",
"76373099999","2010-08-05T18:00:00","4","25.35","-105.75","1967.0","TEPEHUANES DGO., MX","FM-12","99999","V020","140,1,N,0010,1","22000,1,9,N","030000,1,N,1","+0270,1","+0123,1","10157,1",,,,,"02,1,+00750,1,07,1",,,"02,99,1,02,1,02,1,00800,1,00,1,00,1",,"01,9",,"120,M,+0300,1","240,N,+0108,1","99999,9,08210,1","7,1,012,1,+999,9",,"SYN112AAXX  05181 76373 32580 21401 10270 20123 38210 40157 57012 82200 91755 333 10300 20108 30/// 56900 58/// 82725;",
"76373099999","2010-08-05T21:00:00","4","25.35","-105.75","1967.0","TEPEHUANES DGO., MX","FM-12","99999","V020","140,1,N,0040,1","22000,1,9,N","030000,1,N,1","+0284,1","+0092,1","10128,1",,,,,"02,1,+00600,1,08,1",,,"04,99,1,04,1,04,1,00800,1,00,1,00,1",,"01,9",,,,"99999,9,08187,1","7,1,023,1,+999,9",,"SYN106AAXX  05211 76373 32580 41404 10284 20092 38187 40128 57023 84400 92055 333 30/// 56900 58/// 82820 82625;",
"76373099999","2010-08-06T00:00:00","4","25.35","-105.75","1967.0","TEPEHUANES DGO., MX","FM-12","99999","V020","070,1,N,0020,1","22000,1,9,N","030000,1,N,1","+0300,1","+0104,1","10114,1","24,0000,9,1",,,,,,,"03,99,1,03,1,03,1,00800,1,00,1,00,1",,"01,9",,"120,M,+0332,1","180,N,+0108,1","99999,9,08176,1","7,1,011,1,+007,1",,"SYN124AAXX  06001 76373 32580 30702 10300 20104 38176 40114 57011 83300 92355 333 10332 20108 30/// 50591 56900 58007 70000 83620;",
"76373099999","2010-08-06T03:00:00","4","25.35","-105.75","1967.0","TEPEHUANES DGO., MX","FM-12","99999","V020","140,1,N,0010,1","22000,1,9,N","001000,1,N,1","+0230,1","+0129,1","10130,1",,,,,"01,1,+00750,1,06,1",,,"04,99,1,04,1,04,1,00800,1,00,1,00,1",,"01,9",,,,"99999,9,08188,1","2,1,012,1,-016,1",,"SYN106AAXX  06031 76373 32510 41401 10230 20129 38188 40130 52012 84400 90255 333 30/// 56900 59016 81625 83720;",
"76373099999","2010-08-06T12:00:00","4","25.35","-105.75","1967.0","TEPEHUANES DGO., MX","FM-12","99999","V020","999,9,C,0000,1","22000,1,9,N","001000,1,N,1","+0144,1","+0130,1","10156,1","24,0000,9,1",,,,,,,"01,99,1,01,1,01,1,00800,1,00,1,00,1","0696,9","01,9",,"120,N,+0110,1","240,M,+0332,1","99999,9,08210,1","9,9,999,9,-008,1",,"SYN130AAXX  06121 76373 32510 10000 10144 20130 38210 40156 5//// 81100 91155 333 10332 20110 30102 55116 21900 56900 59008 70000 81720;",
"76373099999","2010-08-06T18:00:00","4","25.35","-105.75","1967.0","TEPEHUANES DGO., MX","FM-12","99999","V020","070,1,N,0010,1","22000,1,9,N","030000,1,N,1","+0288,1","+0152,1","10156,1",,,,,"03,1,+00600,1,06,1",,,"03,99,1,03,1,03,1,00800,1,00,1,00,1",,"01,9",,"120,M,+0312,1","240,N,+0110,1","99999,9,08210,1","8,1,003,1,+001,1",,"SYN112AAXX  06181 76373 32580 30701 10288 20152 38210 40156 58003 83300 91755 333 10312 20110 30/// 56900 58001 83620;",
"76373099999","2010-08-06T21:00:00","4","25.35","-105.75","1967.0","TEPEHUANES DGO., MX","FM-12","99999","V020","140,1,N,0040,1","00750,1,9,N","030000,1,N,1","+0290,1","+0127,1","10134,1",,,,,"01,1,+00600,1,07,1",,,"05,99,1,05,1,05,1,00800,1,00,1,00,1",,"01,9",,,,"99999,9,08192,1","7,1,018,1,+005,1",,"SYN106AAXX  06211 76373 32580 51404 10290 20127 38192 40134 57018 85500 92055 333 30/// 56900 58005 81720 84625;",
"76373099999","2010-08-07T00:00:00","4","25.35","-105.75","1967.0","TEPEHUANES DGO., MX","FM-12","99999","V020","160,1,N,0010,1","22000,1,9,N","030000,1,N,1","+0300,1","+0106,1","10120,1","24,0000,9,1",,,,"02,1,+00600,1,06,1",,,"04,99,1,04,1,04,1,00800,1,00,1,00,1",,"01,9",,"120,M,+0328,1","180,N,+0110,1","99999,9,08181,1","7,1,011,1,+005,1",,"SYN130AAXX  07001 76373 32580 41601 10300 20106 38181 40120 57011 84400 92355 333 10328 20110 30/// 50631 56900 58005 70000 82620 82725;",
"76373099999","2010-08-07T12:00:00","4","25.35","-105.75","1967.0","TEPEHUANES DGO., MX","FM-12","99999","V020","999,9,C,0000,1","22000,1,9,N","001000,1,N,1","+0130,1","+0120,1","10150,1","24,0000,9,1",,,,,,,"01,99,1,01,1,01,1,00800,1,00,1,00,1","0636,9","01,9",,"120,N,+0098,1","240,M,+0328,1","99999,9,08205,1","9,9,999,9,-005,1",,"SYN130AAXX  07121 76373 32510 10000 10130 20120 38205 40150 5//// 81100 91155 333 10328 20098 30090 55106 21771 56900 59005 70000 81825;",
"76373099999","2010-08-07T15:00:00","4","25.35","-105.75","1967.0","TEPEHUANES DGO., MX","FM-12","99999","V020","999,9,C,0000,1","22000,1,9,N","030000,1,N,1","+0174,1","+0127,1","10160,1",,,,,"01,1,+00600,1,08,1",,,"01,99,1,01,1,01,1,00800,1,00,1,00,1",,"01,9",,,,"99999,9,08213,1","2,1,012,1,+001,1",,"SYN100AAXX  07151 76373 32580 10000 10174 20127 38213 40160 52012 81100 91445 333 30/// 56900 58001 81820;",
"76373099999","2010-08-10T00:00:00","4","25.35","-105.75","1967.0","TEPEHUANES DGO., MX","FM-12","99999","V020","120,1,N,0010,1","03600,1,9,N","030000,1,N,1","+0280,1","+0152,1","10126,1","24,0192,9,1",,,,,,,"05,99,1,03,1,05,1,00800,1,02,1,00,1",,"01,9",,"120,M,+0310,1","180,N,+0110,1","99999,9,08185,1",,,"SYN124AAXX  10001 76373 32580 51201 10280 20152 38185 40126 5//// 83520 92350 333 10310 20110 30/// 5//// 56990 58/// 70192 83525;",
"76373099999","2010-08-10T03:00:00","4","25.35","-105.75","1967.0","TEPEHUANES DGO., MX","FM-12","99999","V020","300,1,N,0010,1","00750,1,9,N","001000,1,N,1","+0210,1","+0160,1","10144,1",,,,,"05,1,+00750,1,05,1",,,"07,99,1,05,1,05,1,00800,1,00,1,00,1",,"01,9",,,,"99999,9,08200,1","2,1,015,1,+999,9",,"SYN100AAXX  10031 76373 32510 73001 10210 20160 38200 40144 52015 85500 90250 333 30/// 56900 58/// 85525;",
"76373099999","2010-08-10T12:00:00","4","25.35","-105.75","1967.0","TEPEHUANES DGO., MX","FM-12","99999","V020","999,9,C,0000,1","00750,1,9,N","001000,1,N,1","+0177,1","+0163,1","10159,1","24,0192,9,1",,,,,,,"06,99,1,99,9,05,1,00800,1,00,1,00,1",,"01,9",,"120,N,+0150,1","240,M,+0310,1","99999,9,08212,1",,,"SYN130AAXX  10121 76373 32510 60000 10177 20163 38212 40159 5//// 85500 91150 333 10310 20150 30/// 55/// 2//// 56000 58/// 70192 85525;","Q01+000052SCOTLC"
"76373099999","2010-08-10T15:00:00","4","25.35","-105.75","1967.0","TEPEHUANES DGO., MX","FM-12","99999","V020","999,9,C,0000,1","22000,1,9,N","030000,1,N,1","+0234,1","+0155,1","10168,1",,,,,"01,1,+00750,1,02,1",,,"03,99,1,01,1,02,1,00800,1,00,1,04,1",,"01,9",,,,"99999,9,08220,1","2,1,008,1,+999,9",,"SYN100AAXX  10151 76373 32580 30000 10234 20155 38220 40168 52008 81204 91450 333 30/// 56000 58/// 81225;",
"76373099999","2010-08-11T15:00:00","4","25.35","-105.75","1967.0","TEPEHUANES DGO., MX","FM-12","99999","V020","999,9,C,0000,1","22000,1,9,N","030000,1,N,1","+0222,1","+0173,1","10173,1",,,,,"01,1,+00750,1,02,1",,,"02,99,1,01,1,02,1,00800,1,06,1,00,1",,"01,9",,,,"99999,9,08223,1","9,9,999,9,+003,1",,"SYN100AAXX  11151 76373 32580 20000 10222 20173 38223 40173 5//// 81260 91450 333 30/// 56990 58003 81225;",
"76373099999","2010-08-11T18:00:00","4","25.35","-105.75","1967.0","TEPEHUANES DGO., MX","FM-12","99999","V020","090,1,N,0010,1","22000,1,9,N","030000,1,N,1","+0272,1","+0170,1","10163,1",,,,,"03,1,+00750,1,02,1",,,"04,99,1,03,1,02,1,00800,1,00,1,02,1",,"01,9",,"120,M,+0290,1","240,N,+0138,1","99999,9,08216,1","7,1,007,1,+999,9",,"SYN112AAXX  11181 76373 32580 40901 10272 20170 38216 40163 57007 83202 91740 333 10290 20138 30/// 56909 58/// 83225;",
"76373099999","2010-08-11T21:00:00","4","25.35","-105.75","1967.0","TEPEHUANES DGO., MX","FM-12","99999","V020","060,1,N,0020,1","00600,1,9,N","030000,1,N,1","+0203,1","+0169,1","10142,1","03,0070,9,1",,"6,1,03,1","5,1,03,1","06,1,+00600,1,09,1","02,1,+00600,1,07,1",,"08,99,1,08,1,09,1,00450,1,00,1,00,1",,"01,9",,,,"99999,9,08198,1","5,1,018,1,+999,9","63,1","SYN124AAXX  11211 76373 21480 80602 10203 20169 38198 40142 55018 76365 88900 92050 333 30/// 56900 58/// 60077 86920 82720 96021;",
"76373099999","2010-08-12T00:00:00","4","25.35","-105.75","1967.0","TEPEHUANES DGO., MX","FM-12","99999","V020","120,1,N,0010,1","22000,1,9,N","030000,1,N,1","+0221,1","+0177,1","10132,1","24,0090,9,1",,,,,,,"04,99,1,99,9,04,1,00800,1,00,1,00,1",,"01,9",,"120,M,+0310,1","180,N,+0138,1","99999,9,08191,1","5,1,007,1,+999,9",,"SYN124AAXX  12001 76373 32580 41201 10221 20177 38191 40132 55007 83400 92350 333 10310 20138 30/// 50651 56900 58/// 70090 83420;","Q01+000032SCOTLC"
"76373099999","2010-08-12T03:00:00","4","25.35","-105.75","1967.0","TEPEHUANES DGO., MX","FM-12","99999","V020","290,1,N,0010,1","00600,1,9,N","001000,1,N,1","+0190,1","+0177,1","10137,1",,,,,"08,1,+00600,1,07,1",,,"08,99,1,08,1,08,1,00800,1,00,1,00,1",,"01,9",,,,"99999,9,08194,1","0,1,004,1,+999,9",,"SYN100AAXX  12031 76373 32510 82901 10190 20177 38194 40137 50004 88800 90250 333 30/// 56900 58/// 88720;",
"76373099999","2010-08-12T15:00:00","4","25.35","-105.75","1967.0","TEPEHUANES DGO., MX","FM-12","99999","V020","290,1,N,0010,1","22000,1,9,N","001000,1,N,1","+0168,1","+0155,1","10157,1",,,,,"02,1,+00600,1,07,1",,,"02,99,1,02,1,02,1,00800,1,00,1,00,1",,"01,9",,,,"99999,9,08210,1","0,1,003,1,-013,1",,"SYN100AAXX  12151 76373 32510 22901 10168 20155 38210 40157 50003 82200 91455 333 30/// 56900 59013 82720;",
"76373099999","2010-08-12T18:00:00","4","25.35","-105.75","1967.0","TEPEHUANES DGO., MX","FM-12","99999","V020","140,1,N,0010,1","22000,1,9,N","030000,1,N,1","+0248,1","+0166,1","10142,1",,,,,"02,1,+00600,1,06,1",,,"02,99,1,02,1,02,1,00800,1,00,1,00,1",,"01,9",,"120,M,+0272,1","240,N,+0116,1","99999,9,08198,1","7,1,012,1,-018,1",,"SYN112AAXX  12181 76373 32580 21401 10248 20166 38198 40142 57012 82200 91755 333 10272 20116 30/// 56900 59018 82620;",
"76373099999","2010-08-12T21:00:00","4","25.35","-105.75","1967.0","TEPEHUANES DGO., MX","FM-12","99999","V020","140,1,N,0020,1","22000,1,9,N","030000,1,N,1","+0284,1","+0150,1","10118,1",,,,,"04,1,+00600,1,06,1",,,"04,99,1,04,1,04,1,00800,1,00,1,00,1",,"01,9",,,,"99999,9,08179,1","7,1,019,1,-019,1",,"SYN100AAXX  12211 76373 32580 41402 10284 20150 38179 40118 57019 84400 92055 333 30/// 56900 59019 84620;",
"76373099999","2010-08-13T00:00:00","4","25.35","-105.75","1967.0","TEPEHUANES DGO., MX","FM-12","99999","V020","110,1,N,0010,1","22000,1,9,N","030000,1,N,1","+0270,1","+0139,1","10098,1","24,0185,9,1",,,,"01,1,+00600,1,07,1",,,"04,99,1,04,1,04,1,00800,1,00,1,00,1",,"01,9",,"120,M,+0310,1","180,N,+0116,1","99999,9,08163,1","7,1,016,1,-028,1",,"SYN130AAXX  13001 76373 32580 41101 10270 20139 38163 40098 57016 84400 92355 333 10310 20116 30/// 50771 56900 59028 70185 81720 83625;",
"76373099999","2010-08-13T12:00:00","4","25.35","-105.75","1967.0","TEPEHUANES DGO., MX","FM-12","99999","V020","999,9,C,0000,1","22000,1,9,N","001000,1,N,1","+0138,1","+0134,1","10128,1","24,0000,9,1",,,,,,,"01,99,1,01,1,01,1,00800,1,00,1,00,1","0540,9","01,9",,"120,N,+0102,1","240,M,+0310,1","99999,9,08187,1","9,9,999,9,-020,1",,"SYN130AAXX  13121 76373 32510 10000 10138 20134 38187 40128 5//// 81100 91155 333 10310 20102 30092 55090 22013 56900 59020 70000 81825;",
"76373099999","2010-08-13T15:00:00","4","25.35","-105.75","1967.0","TEPEHUANES DGO., MX","FM-12","99999","V020","320,1,N,0010,1","22000,1,9,N","030000,1,N,1","+0174,1","+0141,1","10139,1",,,,,"01,1,+00750,1,08,1",,,"01,99,1,01,1,01,1,00800,1,00,1,00,1",,"01,9",,,,"99999,9,08196,1","2,1,010,1,-014,1",,"SYN100AAXX  13151 76373 32580 13201 10174 20141 38196 40139 52010 81100 91455 333 30/// 56900 59014 81825;",
"76373099999","2010-08-13T21:00:00","4","25.35","-105.75","1967.0","TEPEHUANES DGO., MX","FM-12","99999","V020","290,1,N,0010,1","00750,1,9,N","030000,1,N,1","+0228,1","+0146,1","10116,1",,,,,"02,1,+00600,1,07,1",,,"05,99,1,05,1,05,1,00800,1,00,1,00,1",,"01,9",,,,"99999,9,08177,1","7,1,011,1,-002,1",,"SYN106AAXX  13211 76373 32580 52901 10228 20146 38177 40116 57011 85500 92055 333 30/// 56900 59002 82720 83625;",
"76373099999","2010-08-14T00:00:00","4","25.35","-105.75","1967.0","TEPEHUANES DGO., MX","FM-12","99999","V020","290,1,N,0010,1","00750,1,9,N","030000,1,N,1","+0220,1","+0162,1","10109,1","24,0000,9,1",,,,"03,1,+00600,1,07,1",,,"07,99,1,07,1,07,1,00800,1,00,1,00,1",,"01,9",,"120,M,+0312,1","180,N,+0102,1","99999,9,08171,1","5,1,006,1,+008,1",,"SYN130AAXX  14001 76373 32580 72901 10220 20162 38171 40109 55006 87700 92355 333 10312 20102 30/// 50501 56900 58008 70000 83720 84625;",
"76373099999","2010-08-14T12:00:00","4","25.35","-105.75","1967.0","TEPEHUANES DGO., MX","FM-12","99999","V020","999,9,C,0000,1","00750,1,9,N","001000,1,N,1","+0148,1","+0134,1","10130,1","24,0000,9,1",,,,,,,"07,99,1,07,1,07,1,00800,1,00,1,00,1","0534,9","01,9",,"120,N,+0104,1","240,M,+0312,1","99999,9,08189,1","9,9,999,9,+002,1",,"SYN130AAXX  14121 76373 32510 70000 10148 20134 38189 40130 5//// 87700 91155 333 10312 20104 30098 55089 21449 56900 58002 70000 87720;",
"76373099999","2010-08-18T12:00:00","4","25.35","-105.75","1967.0","TEPEHUANES DGO., MX","FM-12","99999","V020","999,9,C,0000,1","22000,1,9,N","001200,1,N,1","+0132,1","+0123,1","10162,1","24,0000,9,1",,,,,,,"02,99,1,02,1,02,1,00800,1,00,1,00,1","0690,9","01,9",,"120,N,+0106,1","240,M,+0324,1","99999,9,08215,1","9,9,999,9,-002,1",,"SYN130AAXX  18121 76373 32512 20000 10132 20123 38215 40162 5//// 82200 91150 333 10324 20106 30090 55115 22198 56000 59002 70000 82225;",
"76373099999","2010-08-18T15:00:00","4","25.35","-105.75","1967.0","TEPEHUANES DGO., MX","FM-12","99999","V020","999,9,C,0000,1","22000,1,9,N","030000,1,N,1","+0212,1","+0141,1","10182,1",,,,,"01,1,+00750,1,08,1",,,"02,99,1,01,1,02,1,00800,1,00,1,04,1",,"01,9",,,,"99999,9,08231,1","2,1,016,1,+007,1",,"SYN100AAXX  18151 76373 32580 20000 10212 20141 38231 40182 52016 81204 91450 333 30/// 56909 58007 81825;",
"76373099999","2010-08-18T21:00:00","4","25.35","-105.75","1967.0","TEPEHUANES DGO., MX","FM-12","99999","V020","130,1,N,0050,1","22000,1,9,N","030000,1,N,1","+0301,1","+0121,1","10147,1",,,,,"03,1,+00750,1,08,1",,,"04,99,1,03,1,02,1,00800,1,00,1,04,1",,"01,9",,,,"99999,9,08202,1","7,1,012,1,+010,1",,"SYN100AAXX  18211 76373 32580 41305 10301 20121 38202 40147 57012 83204 92050 333 30/// 56909 58010 83825;",
"76373099999","2010-08-19T00:00:00","4","25.35","-105.75","1967.0","TEPEHUANES DGO., MX","FM-12","99999","V020","060,1,N,0020,1","22000,1,9,N","030000,1,N,1","+0291,1","+0132,1","10131,1","24,0000,9,1",,,,"01,1,+00600,1,06,1",,,"04,99,1,02,1,02,1,00450,1,00,1,04,1",,,,"120,M,+0334,1","180,N,+0106,1","99999,9,08189,1","8,1,013,1,-005,1",,"SYN130AAXX  19001 76373 32480 40602 10291 20132 38189 40131 58013 82204 82350 333 10334 20106 30/// 50581 56909 59005 70000 81620 82825;",
"76373099999","2010-08-19T03:00:00","4","25.35","-105.75","1967.0","TEPEHUANES DGO., MX","FM-12","99999","V020","290,1,N,0010,1","22000,1,9,N","001000,1,N,1","+0220,1","+0135,1","10142,1",,,,,"02,1,+00600,1,07,1",,,"04,99,1,04,1,04,1,00800,1,00,1,00,1",,"01,9",,,,"99999,9,08198,1","2,1,011,1,-006,1",,"SYN106AAXX  19031 76373 32510 42901 10220 20135 38198 40142 52011 84400 90255 333 30/// 56900 59006 82720 82625;",
"76373099999","2010-08-19T12:00:00","4","25.35","-105.75","1967.0","TEPEHUANES DGO., MX","FM-12","99999","V020","230,1,N,0010,1","22000,1,9,N","001000,1,N,1","+0163,1","+0155,1","10146,1","24,0020,9,1",,,,,,,"04,99,1,04,1,07,1,00450,1,00,1,00,1","0666,9","01,9",,"120,N,+0134,1","240,M,+0334,1","99999,9,08201,1","9,9,999,9,-014,1",,"SYN130AAXX  19121 76373 32410 42301 10163 20155 38201 40146 5//// 84700 91150 333 10334 20134 30122 55111 21811 56000 59014 70020 83720;",
"76373099999","2010-08-19T15:00:00","4","25.35","-105.75","1967.0","TEPEHUANES DGO., MX","FM-12","99999","V020","320,1,N,0010,1","22000,1,9,N","030000,1,N,1","+0194,1","+0159,1","10159,1",,,,,"02,1,+00750,1,08,1",,,"04,99,1,04,1,02,1,00800,1,00,1,02,1",,"01,9",,,,"99999,9,08212,1","0,1,011,1,-019,1",,"SYN106AAXX  19151 76373 32580 43201 10194 20159 38212 40159 50011 84202 91455 333 30/// 56909 59019 82825 82267;",
"76373099999","2010-08-19T18:00:00","4","25.35","-105.75","1967.0","TEPEHUANES DGO., MX","FM-12","99999","V020","140,1,N,0020,1","22000,1,9,N","030000,1,N,1","+0272,1","+0123,1","10150,1",,,,,"02,1,+00600,1,06,1",,,"03,99,1,03,1,03,1,00800,1,00,1,00,1",,"01,9",,"120,M,+0300,1","240,N,+0134,1","99999,9,08205,1","7,1,007,1,-009,1",,"SYN118AAXX  19181 76373 32580 31402 10272 20123 38205 40150 57007 83300 91755 333 10300 20134 30/// 56900 59009 82620 81825;",
"76373099999","2010-08-19T21:00:00","4","25.35","-105.75","1967.0","TEPEHUANES DGO., MX","FM-12","99999","V020","140,1,N,0020,1","22000,1,9,N","030000,1,N,1","+0290,1","+0150,1","10122,1",,,,,"01,1,+00600,1,08,1",,,"04,99,1,04,1,04,1,00800,1,00,1,00,1",,"01,9",,,,"99999,9,08182,1","7,1,023,1,-020,1",,"SYN106AAXX  19211 76373 32580 41402 10290 20150 38182 40122 57023 84400 92055 333 30/// 56900 59020 81820 83625;",
"76373099999","2010-08-20T03:00:00","4","25.35","-105.75","1967.0","TEPEHUANES DGO., MX","FM-12","99999","V020","290,1,N,0010,1","22000,1,9,N","001000,1,N,1","+0198,1","+0143,1","10121,1",,,,,"02,1,+00600,1,07,1",,,"04,99,1,04,1,04,1,00800,1,00,1,00,1",,"01,9",,,,"99999,9,08181,1","2,1,015,1,-017,1",,"SYN106AAXX  20031 76373 32510 42901 10198 20143 38181 40121 52015 84400 90255 333 30/// 56900 59017 82720 82625;",
"76373099999","2010-08-20T12:00:00","4","25.35","-105.75","1967.0","TEPEHUANES DGO., MX","FM-12","99999","V020","320,1,N,0010,1","00750,1,9,N","001000,1,N,1","+0158,1","+0145,1","10135,1","24,0020,9,1",,,,"04,1,+00600,1,07,1",,,"05,99,1,05,1,05,1,00800,1,00,1,00,1","0540,9","01,9",,"120,N,+0122,1","240,M,+0322,1","99999,9,08191,1","9,9,999,9,-010,1",,"SYN136AAXX  20121 76373 32510 53201 10158 20145 38191 40135 5//// 85500 91155 333 10322 20122 30112 55090 20885 56900 59010 70020 84720 81625;",
"76373099999","2010-08-20T15:00:00","4","25.35","-105.75","1967.0","TEPEHUANES DGO., MX","FM-12","99999","V020","290,1,N,0010,1","00750,1,9,N","030000,1,N,1","+0190,1","+0160,1","10153,1",,,,,"03,1,+00600,1,07,1",,,"06,99,1,06,1,06,1,00800,1,00,1,00,1",,"01,9",,,,"99999,9,08207,1","2,1,016,1,-005,1",,"SYN106AAXX  20151 76373 32580 62901 10190 20160 38207 40153 52016 86600 91455 333 30/// 56900 59005 83720 83625;",
"76373099999","2010-08-20T18:00:00","4","25.35","-105.75","1967.0","TEPEHUANES DGO., MX","FM-12","99999","V020","110,1,N,0010,1","22000,1,9,N","030000,1,N,1","+0270,1","+0154,1","10142,1",,,,,"02,1,+00600,1,08,1",,,"02,99,1,02,1,02,1,00800,1,00,1,00,1",,"01,9",,"120,M,+0292,1","240,N,+0122,1","99999,9,08198,1","7,1,009,1,-007,1",,"SYN112AAXX  20181 76373 32580 21101 10270 20154 38198 40142 57009 82200 91755 333 10292 20122 30/// 56900 59007 82820;",
"76373099999","2010-08-20T21:00:00","4","25.35","-105.75","1967.0","TEPEHUANES DGO., MX","FM-12","99999","V020","140,1,N,0030,1","22000,1,9,N","030000,1,N,1","+0306,1","+0143,1","10110,1",,,,,"01,1,+00600,1,07,1",,,"04,99,1,04,1,04,1,00800,1,00,1,00,1",,"01,9",,,,"99999,9,08173,1","7,1,025,1,-009,1",,"SYN106AAXX  20211 76373 32580 41403 10306 20143 38173 40110 57025 84400 92055 333 30/// 56900 59009 81720 83625;",
"76373099999","2010-08-21T03:00:00","4","25.35","-105.75","1967.0","TEPEHUANES DGO., MX","FM-12","99999","V020","320,1,N,0020,1","22000,1,9,N","001000,1,N,1","+0218,1","+0136,1","10124,1",,,,,"02,1,+00600,1,07,1",,,"04,99,1,04,1,04,1,00800,1,00,1,00,1",,"01,9",,,,"99999,9,08184,1","2,1,026,1,+003,1",,"SYN106AAXX  21031 76373 32510 43202 10218 20136 38184 40124 52026 84400 90255 333 30/// 56900 58003 82720 82625;",
"76373099999","2010-08-21T12:00:00","4","25.35","-105.75","1967.0","TEPEHUANES DGO., MX","FM-12","99999","V020","290,1,N,0010,1","22000,1,9,N","001000,1,N,1","+0150,1","+0136,1","10147,1",,,,,"00,1,+99999,9,99,9",,,"00,99,1,00,1,00,1,99999,9,00,1,00,1","0582,9","01,9",,"120,N,+0114,1","240,M,+0324,1","99999,9,08202,1","9,9,999,9,+011,1",,"SYN118AAXX  21121 76373 32510 02901 10150 20136 38202 40147 5//// 91155 333 10324 20114 30102 55097 21852 56900 58011 70010;",
"76373099999","2010-08-21T15:00:00","4","25.35","-105.75","1967.0","TEPEHUANES DGO., MX","FM-12","99999","V020","320,1,N,0010,1","22000,1,9,N","030000,1,N,1","+0182,1","+0149,1","10163,1",,,,,"00,1,+99999,9,99,9",,,"00,99,1,00,1,00,1,99999,9,00,1,00,1",,"01,9",,,,"99999,9,08216,1","2,1,014,1,+009,1",,"SYN082AAXX  21151 76373 32980 03201 10182 20149 38216 40163 52014 91455 333 30/// 58009;",
"76373099999","2010-08-22T00:00:00","4","25.35","-105.75","1967.0","TEPEHUANES DGO., MX","FM-12","99999","V020","060,1,N,0030,1","22000,1,9,N","030000,1,N,1","+0296,1","+0117,1","10124,1","24,0010,9,1",,,,,,,"03,99,1,03,1,02,1,00800,1,00,1,00,1",,"01,9",,"120,M,+0328,1","180,N,+0114,1","99999,9,08184,1","9,9,999,9,+026,1",,"SYN124AAXX  22001 76373 32580 30603 10296 20117 38184 40124 5//// 83200 92350 333 10328 20114 30/// 50551 56900 58026 70010 82825;",
"76373099999","2010-08-24T00:00:00","4","25.35","-105.75","1967.0","TEPEHUANES DGO., MX","FM-12","99999","V020","130,1,N,0020,1","22000,1,9,N","030000,1,N,1","+0286,1","+0090,1","10133,1","24,0000,9,1",,,,"02,1,+00750,1,08,1",,,"05,99,1,02,1,02,1,00800,1,00,1,04,1",,"01,9",,"120,M,+0330,1","180,N,+0086,1","99999,9,08191,1",,,"SYN130AAXX  24001 76373 32580 51302 10286 20090 38191 40133 5//// 82204 92350 333 10330 20086 30/// 50751 56909 58/// 70000 82825 83057;",
"76373099999","2010-08-24T03:00:00","4","25.35","-105.75","1967.0","TEPEHUANES DGO., MX","FM-12","99999","V020","999,9,C,0000,1","22000,1,9,N","001000,1,N,1","+0222,1","+0114,1","10141,1",,,,,"01,1,+00750,1,08,1",,,"03,99,1,01,1,02,1,00800,1,00,1,04,1",,"01,9",,,,"99999,9,08198,1","2,1,007,1,+999,9",,"SYN100AAXX  24031 76373 32510 30000 10222 20114 38198 40141 52007 81204 90250 333 30/// 56909 58/// 81825;",
"76373099999","2010-08-24T12:00:00","4","25.35","-105.75","1967.0","TEPEHUANES DGO., MX","FM-12","99999","V020","999,9,C,0000,1","22000,1,9,N","001000,1,N,1","+0110,1","+0104,1","10155,1",,,,,"00,1,+99999,9,99,9",,,"00,99,1,00,1,00,1,99999,9,00,1,00,1","0708,9","01,9",,"120,N,+0080,1","240,M,+0330,1","99999,9,08209,1",,,"SYN112AAXX  24121 76373 32910 00000 10110 20104 38209 40155 5//// 91150 333 10330 20080 30062 55118 22331 58/// 70000;",
"76373099999","2010-08-24T15:00:00","4","25.35","-105.75","1967.0","TEPEHUANES DGO., MX","FM-12","99999","V020","999,9,C,0000,1","22000,1,9,N","030000,1,N,1","+0215,1","+0123,1","10164,1",,,,,"00,1,+99999,9,99,9",,,"00,99,1,00,1,00,1,99999,9,00,1,00,1",,"01,9",,,,"99999,9,08216,1","2,1,007,1,+999,9",,"SYN082AAXX  24151 76373 32980 00000 10215 20123 38216 40164 52007 91450 333 30/// 58///;",
"76373099999","2010-08-24T18:00:00","4","25.35","-105.75","1967.0","TEPEHUANES DGO., MX","FM-12","99999","V020","130,1,N,0030,1","22000,1,9,N","030000,1,N,1","+0301,1","+0122,1","10159,1",,,,,"02,1,+00750,1,08,1",,,"02,99,1,02,1,01,1,00800,1,00,1,00,1",,"01,9",,"120,M,+0316,1","240,N,+0080,1","99999,9,08212,1","5,1,004,1,+999,9",,"SYN112AAXX  24181 76373 32580 21303 10301 20122 38212 40159 55004 82100 91750 333 10316 20080 30/// 56700 58/// 82825;",
"76373099999","2010-08-24T21:00:00","4","25.35","-105.75","1967.0","TEPEHUANES DGO., MX","FM-12","99999","V020","080,1,N,0030,1","00750,1,9,N","030000,1,N,1","+0330,1","+0078,1","10138,1",,,,,"03,1,+00750,1,02,1",,,"05,99,1,05,1,02,1,00800,1,00,1,00,1",,"01,9",,,,"99999,9,08195,1","7,1,017,1,+999,9",,"SYN106AAXX  24211 76373 32580 50803 10330 20078 38195 40138 57017 85200 92050 333 30/// 56900 58/// 83225 82623;",
"76373099999","2010-08-25T00:00:00","4","25.35","-105.75","1967.0","TEPEHUANES DGO., MX","FM-12","99999","V020","110,1,N,0030,1","22000,1,9,N","030000,1,N,1","+0308,1","+0065,1","10132,1","24,0000,9,1",,,,,,,"03,99,1,03,1,02,1,00800,1,00,1,00,1",,"01,9",,"120,M,+0350,1","180,N,+0080,1","99999,9,08190,1","7,1,005,1,-001,1",,"SYN124AAXX  25001 76373 32580 31103 10308 20065 38190 40132 57005 83200 92350 333 10350 20080 30/// 50581 56900 59001 70000 83825;",
"76373099999","2010-08-25T03:00:00","4","25.35","-105.75","1967.0","TEPEHUANES DGO., MX","FM-12","99999","V020","270,1,N,0010,1","22000,1,9,N","001000,1,N,1","+0224,1","+9999,9","10142,1",,,,,"00,1,+99999,9,99,9",,,"00,99,1,00,1,00,1,99999,9,00,1,00,1",,"01,9",,,,"99999,9,08198,1","2,1,008,1,+000,1",,"SYN082AAXX  25031 76373 32910 02701 10224 20371 38198 40142 52008 90250 333 30/// 58000;",
"76373099999","2010-08-25T12:00:00","4","25.35","-105.75","1967.0","TEPEHUANES DGO., MX","FM-12","99999","V020","999,9,C,0000,1","22000,1,9,N","001000,1,N,1","+0113,1","+0094,1","10166,1","24,0000,9,1",,,,,,,"03,99,1,01,1,02,1,00800,1,00,1,04,1","0720,9","01,9",,"120,N,+0080,1","240,M,+0350,1","99999,9,08218,1","9,9,999,9,+009,1",,"SYN130AAXX  25121 76373 32510 30000 10113 20094 38218 40166 5//// 81204 91150 333 10350 20080 30070 55120 22345 56000 58009 70000 81825;",
"76373099999","2010-08-25T15:00:00","4","25.35","-105.75","1967.0","TEPEHUANES DGO., MX","FM-12","99999","V020","140,1,N,0010,1","22000,1,9,N","030000,1,N,1","+0222,1","+0120,1","10186,1",,,,,"01,1,+00750,1,08,1",,,"01,99,1,01,1,02,1,00800,1,00,1,00,1",,"01,9",,,,"99999,9,08234,1","2,1,016,1,+018,1",,"SYN100AAXX  25151 76373 32580 11401 10222 20120 38234 40186 52016 81200 91450 333 30/// 56100 58018 81825;",
"76373099999","2010-08-25T18:00:00","4","25.35","-105.75","1967.0","TEPEHUANES DGO., MX","FM-12","99999","V020","120,1,N,0030,1","22000,1,9,N","030000,1,N,1","+0260,1","+0104,1","10187,1",,,,,"02,1,+00690,1,06,1",,,"04,99,1,02,1,04,1,00450,1,00,1,00,1",,"01,9",,"120,M,+0288,1","240,N,+0088,1","99999,9,08235,1","0,1,001,1,+023,1",,"SYN118AAXX  25181 76373 32480 41203 10260 20104 38235 40187 50001 82400 91745 333 10288 20088 30/// 56900 58023 82623 82825;",
"76373099999","2010-08-25T21:00:00","4","25.35","-105.75","1967.0","TEPEHUANES DGO., MX","FM-12","99999","V020","120,1,N,0030,1","00600,1,9,N","030000,1,N,1","+0262,1","+0110,1","10177,1",,,,,"06,1,+00600,1,06,1",,,"07,99,1,06,1,07,1,00450,1,00,1,00,1",,"01,9",,,,"99999,9,08226,1","7,1,009,1,+031,1",,"SYN100AAXX  25211 76373 32480 71203 10262 20110 38226 40177 57009 86700 92050 333 30/// 56900 58031 86620;",
"76373099999","2010-08-26T00:00:00","4","25.35","-105.75","1967.0","TEPEHUANES DGO., MX","FM-12","99999","V020","080,1,N,0020,1","00420,1,9,N","001000,1,N,1","+0248,1","+0119,1","10167,1","24,0000,9,1",,,,,,,"08,99,1,08,1,07,1,00450,1,00,1,00,1",,"01,9",,"120,M,+0310,1","180,N,+0080,1","99999,9,08219,1","5,1,017,1,+029,1",,"SYN124AAXX  26001 76373 32410 80802 10248 20119 38219 40167 55017 88700 92345 333 10310 20080 30/// 50711 56900 58029 70000 88720;",
"76373099999","2010-08-26T12:00:00","4","25.35","-105.75","1967.0","TEPEHUANES DGO., MX","FM-12","99999","V020","999,9,C,0000,1","22000,1,9,N","001000,1,N,1","+0154,1","+0150,1","10189,1","24,0102,9,1",,,,,,,"04,99,1,99,9,05,1,00450,1,00,1,00,1","0444,9","01,9",,"120,N,+0092,1","240,M,+0310,1","99999,9,08237,1","9,9,999,9,+017,1",,"SYN130AAXX  26121 76373 32410 40000 10154 20150 38237 40189 5//// 82500 91150 333 10310 20092 30078 55074 21199 56000 58017 70102 82620;","Q01+000022SCOTLC"
"76373099999","2010-08-28T03:00:00","4","25.35","-105.75","1967.0","TEPEHUANES DGO., MX","FM-12","99999","V020","290,1,N,0010,1","22000,1,9,N","001000,1,N,1","+0206,1","+0137,1","10138,1",,,,,"04,1,+00600,1,07,1",,,"04,99,1,04,1,04,1,00800,1,00,1,00,1",,"01,9",,,,"99999,9,08195,1","2,1,017,1,+999,9",,"SYN100AAXX  28031 76373 32510 42901 10206 20137 38195 40138 52017 84400 90255 333 30/// 56900 58/// 84720;",
"76373099999","2010-08-28T15:00:00","4","25.35","-105.75","1967.0","TEPEHUANES DGO., MX","FM-12","99999","V020","999,9,C,0000,1","22000,1,9,N","030000,1,N,1","+0190,1","+0135,1","99999,9",,,,,,,,"01,99,1,99,9,99,9,00800,1,99,9,99,9",,,,,,,,,"SYN100AAXX  28151 76373 32580 10000 10190 20135 28201 40145 52001 81100 91455 333 30/// 56900 58/// 81825;",
"76373099999","2010-08-28T18:00:00","4","25.35","-105.75","1967.0","TEPEHUANES DGO., MX","FM-12","99999","V020","110,1,N,0010,1","22000,1,9,N","030000,1,N,1","+0274,1","+0123,1","10137,1",,,,,"02,1,+00750,1,08,1",,,"02,99,1,02,1,02,1,00800,1,00,1,00,1",,"01,9",,"120,M,+0300,1","240,N,+0100,1","99999,9,08194,1","7,1,007,1,+999,9",,"SYN112AAXX  28181 76373 32580 21101 10274 20123 38194 40137 57007 82200 91755 333 10300 20100 30/// 56900 58/// 82825;",
"76373099999","2010-08-28T21:00:00","4","25.35","-105.75","1967.0","TEPEHUANES DGO., MX","FM-12","99999","V020","110,1,N,0010,1","22000,1,9,N","030000,1,N,1","+0290,1","+0113,1","10102,1",,,,,"02,1,+00600,1,06,1",,,"04,99,1,04,1,04,1,00800,1,00,1,00,1",,"01,9",,,,"99999,9,08166,1","7,1,028,1,+999,9",,"SYN106AAXX  28211 76373 32580 41101 10290 20113 38166 40102 57028 84400 92055 333 30/// 56900 58/// 82620 82825;",
"76373099999","2010-08-29T00:00:00","4","25.35","-105.75","1967.0","TEPEHUANES DGO., MX","FM-12","99999","V020","290,1,N,0020,1","00750,1,9,N","030000,1,N,1","+0218,1","+0149,1","10100,1","24,0000,9,1",,,,"03,1,+00600,1,06,1",,,"06,99,1,06,1,06,1,00800,1,00,1,00,1",,"01,9",,"120,M,+0336,1","180,N,+0100,1","99999,9,08165,1","7,1,001,1,-013,1",,"SYN130AAXX  29001 76373 32580 62902 10218 20149 38165 40100 57001 86600 92355 333 10336 20100 30/// 50471 56900 59013 70000 83620 83725;",
"76373099999","2010-08-29T03:00:00","4","25.35","-105.75","1967.0","TEPEHUANES DGO., MX","FM-12","99999","V020","999,9,C,0000,1","00750,1,9,N","001000,1,N,1","+0212,1","+0166,1","10124,1",,,,,"02,1,+00600,1,07,1",,,"06,99,1,06,1,06,1,00800,1,00,1,00,1",,"01,9",,,,"99999,9,08184,1","2,1,019,1,-011,1",,"SYN106AAXX  29031 76373 32510 60000 10212 20166 38184 40124 52019 86600 90240 333 30/// 56900 59011 82720 84625;",
"76373099999","2010-08-29T15:00:00","4","25.35","-105.75","1967.0","TEPEHUANES DGO., MX","FM-12","99999","V020","290,1,N,0010,1","22000,1,9,N","030000,1,N,1","+0182,1","+0137,1","10135,1",,,,,"00,1,+99999,9,99,9",,,"00,99,1,00,1,00,1,99999,9,00,1,00,1",,"01,9",,,,"99999,9,08193,1","2,1,002,1,+008,1",,"SYN088AAXX  29151 76373 32980 02901 10182 20137 38193 40135 52002 91455 333 30/// 56900 58008;",
"76373099999","2010-08-29T21:00:00","4","25.35","-105.75","1967.0","TEPEHUANES DGO., MX","FM-12","99999","V020","140,1,N,0030,1","00750,1,9,N","030000,1,N,1","+0286,1","+0140,1","10102,1",,,,,"01,1,+00600,1,07,1",,,"05,99,1,05,1,05,1,00800,1,00,1,00,1",,"01,9",,,,"99999,9,08166,1","7,1,024,1,+001,1",,"SYN106AAXX  29211 76373 32580 51403 10286 20140 38166 40102 57024 85500 92055 333 30/// 56900 58001 81720 84625;",
"76373099999","2010-08-30T00:00:00","4","25.35","-105.75","1967.0","TEPEHUANES DGO., MX","FM-12","99999","V020","250,1,N,0010,1","01200,1,9,N","030000,1,N,1","+0212,1","+0134,1","10121,1","24,0000,9,1",,,,"04,1,+00600,1,07,1",,,"08,99,1,08,1,08,1,00800,1,00,1,00,1",,"01,9",,"120,M,+0332,1","180,N,+0100,1","99999,9,08182,1","2,1,016,1,+017,1",,"SYN130AAXX  30001 76373 32580 82501 10212 20134 38182 40121 52016 88800 92355 333 10332 20100 30/// 50431 56900 58017 70000 84720 84625;",
"76373099999","2010-08-30T03:00:00","4","25.35","-105.75","1967.0","TEPEHUANES DGO., MX","FM-12","99999","V020","140,1,N,0010,1","00600,1,C,N","001000,1,N,1","+0174,1","+0168,1","10140,1",,,,,"06,1,+00600,1,07,1",,,"08,99,1,08,1,08,1,00800,1,00,1,00,1","0444,9","01,9",,"999,N,+9999,9",,"99999,9,08197,1","2,1,015,1,+013,1",,"SYN118AAXX  30031 76373 32510 81401 10174 20168 38197 40140 52015 88800 90255 333 30/// 55074 21530 56900 58013 86720 82725;","Q01 -05302ATMN  "
"76373099999","2010-08-30T15:00:00","4","25.35","-105.75","1967.0","TEPEHUANES DGO., MX","FM-12","99999","V020","999,9,C,0000,1","22000,1,9,N","030000,1,N,1","+0172,1","+0157,1","10159,1",,,,,"04,1,+00600,1,08,1",,,"04,99,1,04,1,04,1,00800,1,00,1,00,1",,"01,9",,,,"99999,9,08212,1","2,1,009,1,+019,1",,"SYN100AAXX  30151 76373 32580 40000 10172 20157 38212 40159 52009 84400 91455 333 30/// 56900 58019 84820;",
"76373099999","2010-08-30T21:00:00","4","25.35","-105.75","1967.0","TEPEHUANES DGO., MX","FM-12","99999","V020","130,1,N,0030,1","00750,1,9,N","045000,1,N,1","+0265,1","+0153,1","10127,1",,,,,"03,1,+01250,1,06,1","01,1,+05700,1,00,1",,"06,99,1,06,1,04,1,00800,1,02,1,01,1",,"01,9",,,,"99999,9,08186,1","7,1,026,1,+020,1",,"SYN112AAXX  30211 76373 32583 61303 10265 20153 38186 40127 57026 86421 92053 333 30/// 56999 58020 81069 83696 82896;",
"76373099999","2010-08-31T00:00:00","4","25.35","-105.75","1967.0","TEPEHUANES DGO., MX","FM-12","99999","V020","210,1,N,0050,1","00420,1,9,N","030000,1,N,1","+0252,1","+0176,1","10132,1","24,0130,9,1",,,,"02,1,+00600,1,09,1",,,"07,99,1,05,1,07,1,00450,1,00,1,00,1",,"01,9",,"120,M,+0320,1","180,N,+0110,1","99999,9,08191,1","2,1,005,1,+009,1",,"SYN130AAXX  31001 76373 32480 72105 10252 20176 38191 40132 52005 85700 92350 333 10320 20110 30/// 50531 56900 58009 70130 82920 85720;",
"76373099999","2010-08-31T03:00:00","4","25.35","-105.75","1967.0","TEPEHUANES DGO., MX","FM-12","99999","V020","999,9,C,0000,1","22000,1,9,N","001000,1,N,1","+0200,1","+0161,1","10145,1",,,,,"02,1,+00750,1,06,1",,,"02,99,1,02,1,04,1,00800,1,00,1,00,1",,"01,9",,,,"99999,9,08201,1","2,1,010,1,+004,1",,"SYN100AAXX  31031 76373 32510 20000 10200 20161 38201 40145 52010 82400 90250 333 30/// 56900 58004 82625;",
"76373099999","2010-08-31T12:00:00","4","25.35","-105.75","1967.0","TEPEHUANES DGO., MX","FM-12","99999","V020","999,9,C,0000,1","22000,1,9,N","001000,1,N,1","+0144,1","+0140,1","10163,1","24,0000,9,1",,,,"00,1,+99999,9,99,9",,,"00,99,1,00,1,00,1,99999,9,00,1,00,1","0300,9","01,9",,"120,N,+0112,1","240,M,+0320,1","99999,9,08216,1",,,"SYN106AAXX  31121 76373 32910 00000 10144 20140 38216 40163 5//// 91150 333 10320 20112 30100 55050 58/// 70000;","Q01  00002PRCP24"
"76373099999","2010-08-31T18:00:00","4","25.35","-105.75","1967.0","TEPEHUANES DGO., MX","FM-12","99999","V020","150,1,N,0020,1","22000,1,9,N","030000,1,N,1","+0276,1","+0159,1","10163,1",,,,,"02,1,+00750,1,08,1",,,"03,99,1,02,1,02,1,00800,1,00,1,00,1",,"01,9",,"120,M,+0298,1","240,N,+0112,1","99999,9,08215,1","7,1,013,1,+003,1",,"SYN112AAXX  31181 76373 32580 31502 10276 20159 38215 40163 57013 82200 91750 333 10298 20112 30/// 56900 58003 82825;",
"76373099999","2010-08-31T21:00:00","4","25.35","-105.75","1967.0","TEPEHUANES DGO., MX","FM-12","99999","V020","120,1,N,0040,1","22000,1,9,N","030000,1,N,1","+0304,1","+0129,1","10154,1",,,,,"02,1,+00690,1,06,1",,,"04,99,1,02,1,04,1,00450,1,00,1,00,1",,"01,9",,,,"99999,9,08208,1","5,1,007,1,+022,1",,"SYN106AAXX  31211 76373 32480 41204 10304 20129 38208 40154 55007 82400 92050 333 30/// 56900 58022 82623 82825;",
"76373099999","2010-09-01T00:00:00","4","25.35","-105.75","1967.0","TEPEHUANES DGO., MX","FM-12","99999","V020","120,1,N,0040,1","22000,1,9,N","030000,1,N,1","+0293,1","+0105,1","10117,1","24,0000,9,1",,,,,,,"01,99,1,99,9,02,1,00800,1,00,1,00,1",,"01,9",,"120,M,+0326,1","180,N,+0112,1","99999,9,08178,1","7,1,020,1,-013,1",,"SYN124AAXX  01001 76373 32580 11204 10293 20105 38178 40117 57020 82200 92350 333 10326 20112 30/// 50661 56900 59013 70000 82825;","Q01+000022SCOTLC"
"76373099999","2010-09-01T03:00:00","4","25.35","-105.75","1967.0","TEPEHUANES DGO., MX","FM-12","99999","V020","240,1,N,0100,1","22000,1,9,N","015000,1,N,1","+0223,1","+0127,1","10126,1",,,,,"01,1,+01250,1,07,1",,,"01,99,1,01,1,99,9,01250,1,02,1,00,1",,"01,9",,,,"99999,9,08166,1","6,1,012,1,+035,1",,"SYN100AAXX  01031 76373 32665 12410 10223 20127 38166 40126 56012 81020 90245 333 30/// 56090 58035 81796;","Q01+000002SCOLCG"
"76373099999","2010-09-01T12:00:00","4","25.35","-105.75","1967.0","TEPEHUANES DGO., MX","FM-12","99999","V020","080,1,N,0010,1","22000,1,9,N","001000,1,N,1","+0162,1","+0141,1","10152,1","24,0000,9,1",,,,,,,"02,99,1,01,1,02,1,00800,1,00,1,06,1","0666,9","01,9",,"120,N,+0134,1","240,M,+0326,1","99999,9,08206,1","9,9,999,9,-010,1",,"SYN130AAXX  01121 76373 32510 20801 10162 20141 38206 40152 5//// 81206 91150 333 10326 20134 30118 55111 21972 56000 59010 70000 81825;",
"76373099999","2010-09-01T15:00:00","4","25.35","-105.75","1967.0","TEPEHUANES DGO., MX","FM-12","99999","V020","040,1,N,0010,1","22000,1,9,N","030000,1,N,1","+0197,1","+0150,1","10162,1",,,,,"02,1,+00750,1,08,1",,,"02,99,1,02,1,02,1,00800,1,00,1,06,1",,"01,9",,,,"99999,9,08215,1","2,1,009,1,-013,1",,"SYN100AAXX  01151 76373 32580 20401 10197 20150 38215 40162 52009 82206 91450 333 30/// 56909 59013 82825;",
"76373099999","2010-09-01T18:00:00","4","25.35","-105.75","1967.0","TEPEHUANES DGO., MX","FM-12","99999","V020","060,1,N,0100,1","22000,1,9,N","045000,1,N,1","+0270,1","+0171,1","10163,1",,,,,"03,1,+00660,1,08,1",,,"04,99,1,04,1,01,1,01250,1,00,1,02,1",,"01,9",,"120,M,+0300,1","240,N,+0134,1","99999,9,08215,1","4,1,000,1,+000,1",,"SYN112AAXX  01181 76373 32683 40610 10270 20171 38215 40163 54000 84102 91750 333 10300 20134 30/// 56909 58000 83822;",
"76373099999","2010-09-01T21:00:00","4","25.35","-105.75","1967.0","TEPEHUANES DGO., MX","FM-12","99999","V020","100,1,N,0250,1","00750,1,9,N","045000,1,N,1","+0297,1","+0139,1","10117,1",,,,,"04,1,+01250,1,06,1",,,"06,99,1,06,1,02,1,00800,1,07,1,00,1",,"01,9",,,,"99999,9,08178,1","7,1,014,1,-033,1",,"SYN100AAXX  01211 76373 32583 61025 10297 20139 38178 40117 57014 86270 92050 333 30/// 56990 59033 84696;",
"76373099999","2010-09-02T00:00:00","4","25.35","-105.75","1967.0","TEPEHUANES DGO., MX","FM-12","99999","V020","130,1,N,0020,1","01200,1,9,N","045000,1,N,1","+0291,1","+0121,1","10100,1","24,0000,9,1",,,,,,,"05,99,1,05,1,01,1,01250,1,00,1,02,1","0900,9","01,9",,"120,M,+0329,1","180,N,+0134,1","99999,9,08165,1","7,1,010,1,-026,1",,"SYN124AAXX  02001 76373 32683 51302 10291 20121 38165 40100 57010 85102 92350 333 10329 20134 30/// 55150 56909 59026 70000 84822;",
"76373099999","2010-09-02T03:00:00","4","25.35","-105.75","1967.0","TEPEHUANES DGO., MX","FM-12","99999","V020","240,1,N,0020,1","22000,1,9,N","001000,1,N,1","+0220,1","+0135,1","10119,1",,,,,,,,"02,99,1,99,9,02,1,00800,1,05,1,00,1",,,,,,"99999,9,08180,1","2,1,015,1,+014,1",,"SYN100AAXX  02031 76373 32510 22402 10220 20135 38180 40119 52015 80250 82200 333 30/// 56900 58014 82825;","Q01+000002SCOTLC"
"76373099999","2010-09-02T12:00:00","4","25.35","-105.75","1967.0","TEPEHUANES DGO., MX","FM-12","99999","V020","999,9,C,0000,1","22000,1,9,N","001000,1,N,1","+0121,1","+0121,1","10116,1",,,,,"00,1,+99999,9,99,9",,,"00,99,1,00,1,00,1,99999,9,00,1,00,1","0558,9","01,9",,"120,N,+0115,1","240,M,+0329,1","99999,9,08177,1","9,9,999,9,-029,1",,"SYN118AAXX  02121 76373 32910 00000 10121 20121 38177 40116 5//// 91150 333 10329 20115 30123 55093 22118 56000 59029 70000;",
"76373099999","2010-09-02T15:00:00","4","25.35","-105.75","1967.0","TEPEHUANES DGO., MX","FM-12","99999","V020","999,9,C,0000,1","22000,1,9,N","015000,1,N,1","+0186,1","+0154,1","10148,1",,,,,"00,1,+99999,9,99,9",,,"00,99,1,00,1,00,1,99999,9,00,1,00,1",,"01,9",,,,"99999,9,08203,1","1,1,026,1,-012,1",,"SYN088AAXX  02151 76373 32965 00000 10186 20154 38203 40148 51026 91450 333 30/// 56000 59012;",
"76373099999","2010-09-02T18:00:00","4","25.35","-105.75","1967.0","TEPEHUANES DGO., MX","FM-12","99999","V020","310,1,N,0010,1","01200,1,C,N","045000,1,N,1","+0283,1","+0131,1","10139,1",,,,,"04,1,+00600,1,08,1",,,"05,99,1,05,1,02,1,01250,1,01,1,00,1",,"01,9",,"120,M,+0328,1","240,N,+0115,1","99999,9,08196,1","6,1,007,1,+007,1",,"SYN112AAXX  02181 76373 32683 53101 10283 20131 38196 40139 56007 85210 91750 333 10328 20115 30/// 56990 58007 84820;",
"76373099999","2010-09-02T21:00:00","4","25.35","-105.75","1967.0","TEPEHUANES DGO., MX","FM-12","99999","V020","130,1,N,0030,1","22000,1,9,N","030000,1,N,1","+0310,1","+0127,1","10123,1",,,,,"02,1,+00690,1,06,1",,,"04,99,1,02,1,04,1,00450,1,00,1,00,1",,"01,9",,,,"99999,9,08183,1","7,1,013,1,+008,1",,"SYN100AAXX  02211 76373 32480 41303 10310 20127 38183 40123 57013 82400 92050 333 30/// 56900 58008 82623;",
"76373099999","2010-09-03T00:00:00","4","25.35","-105.75","1967.0","TEPEHUANES DGO., MX","FM-12","99999","V020","090,1,N,0010,1","22000,1,9,N","030000,1,N,1","+0302,1","+0093,1","10109,1","24,0000,9,1",,,,,,,"03,99,1,03,1,02,1,00800,1,00,1,00,1",,"01,9",,"120,M,+0346,1","180,N,+0134,1","99999,9,08172,1","7,1,011,1,+010,1",,"SYN124AAXX  03001 76373 32580 30901 10302 20093 38172 40109 57011 83200 92350 333 10346 20134 30/// 50721 56900 58010 70000 83825;",
"76373099999","2010-09-03T03:00:00","4","25.35","-105.75","1967.0","TEPEHUANES DGO., MX","FM-12","99999","V020","999,9,C,0000,1","22000,1,9,N","001000,1,N,1","+0232,1","+0114,1","10134,1",,,,,"02,1,+00750,1,08,1",,,"02,99,1,02,1,02,1,00800,1,00,1,00,1",,"01,9",,,,"99999,9,08192,1","2,1,020,1,+012,1",,"SYN100AAXX  03031 76373 32510 20000 10232 20114 38192 40134 52020 82200 90250 333 30/// 56000 58012 82825;",
"76373099999","2010-09-03T12:00:00","4","25.35","-105.75","1967.0","TEPEHUANES DGO., MX","FM-12","99999","V020","999,9,C,0000,1","22000,1,9,N","001000,1,N,1","+0144,1","+0119,1","10160,1","24,0000,9,1",,,,,,,"01,99,1,01,1,01,1,00800,1,00,1,00,1",,"01,9",,"120,N,+0118,1","240,M,+0346,1","99999,9,08213,1","9,9,999,9,+036,1",,"SYN130AAXX  03121 76373 32510 10000 10144 20119 38213 40160 5//// 81100 91150 333 10346 20118 30090 50104 21796 56000 58036 70000 81830;",
"76373099999","2010-09-03T15:00:00","4","25.35","-105.75","1967.0","TEPEHUANES DGO., MX","FM-12","99999","V020","999,9,C,0000,1","22000,1,9,N","030000,1,N,1","+0202,1","+0136,1","10178,1",,,,,"01,1,+00900,1,08,1",,,"04,99,1,01,1,02,1,00800,1,00,1,04,1",,"01,9",,,,"99999,9,08228,1","0,1,015,1,+025,1",,"SYN106AAXX  03151 76373 32580 40000 10202 20136 38228 40178 50015 81204 91450 333 30/// 56909 58025 81830 83067;",
"76373099999","2010-09-03T18:00:00","4","25.35","-105.75","1967.0","TEPEHUANES DGO., MX","FM-12","99999","V020","100,1,N,0020,1","99999,9,9,N","030000,1,N,1","+0276,1","+0085,1","10176,1",,,,,"04,1,+00690,1,06,1",,,"06,99,1,04,1,04,1,00450,1,00,1,00,1",,"01,9",,"120,M,+0296,1","240,N,+0118,1","99999,9,08226,1","8,1,002,1,+030,1",,"SYN118AAXX  03181 76373 32480 61002 10276 20085 38226 40176 58002 84400 91750 333 10296 20118 30/// 56900 58030 84623 82830;",
"76373099999","2010-09-03T21:00:00","4","25.35","-105.75","1967.0","TEPEHUANES DGO., MX","FM-12","99999","V020","120,1,N,0020,1","99999,9,9,N","030000,1,N,1","+0294,1","+0123,1","10151,1",,,,,"03,1,+00690,1,06,1",,,"06,99,1,03,1,04,1,00450,1,00,1,00,1",,"01,9",,,,"99999,9,08205,1","7,1,021,1,+022,1",,"SYN106AAXX  03211 76373 32480 61202 10294 20123 38205 40151 57021 83400 92050 333 30/// 56900 58022 83623 83825;",
"76373099999","2010-09-04T00:00:00","4","25.35","-105.75","1967.0","TEPEHUANES DGO., MX","FM-12","99999","V020","170,1,N,0020,1","00420,1,9,N","030000,1,N,1","+0230,1","+0157,1","10143,1","24,0000,9,1",,,,,,,"07,99,1,99,9,07,1,00450,1,00,1,00,1",,"01,9",,"120,M,+0312,1","180,N,+0118,1","99999,9,08199,1","5,1,006,1,+027,1",,"SYN124AAXX  04001 76373 32480 71702 10230 20157 38199 40143 55006 86700 92350 333 10312 20118 30/// 50561 56900 58027 70000 86723;","Q01+000062SCOTLC"
"76373099999","2010-09-04T03:00:00","4","25.35","-105.75","1967.0","TEPEHUANES DGO., MX","FM-12","99999","V020","999,9,C,0000,1","22000,1,9,N","001000,1,N,1","+0198,1","+0128,1","10157,1",,,,,"03,1,+00750,1,07,1",,,"99,99,9,99,9,99,9,99999,9,00,1,00,1",,"01,9",,,,"99999,9,08211,1","2,1,012,1,+019,1",,"SYN100AAXX  04031 76373 32510 00000 10198 20128 38211 40157 52012 83300 90245 333 30/// 56900 58019 83725;","Q01+000002SCOTCV"
"76373099999","2010-09-04T15:00:00","4","25.35","-105.75","1967.0","TEPEHUANES DGO., MX","FM-12","99999","V020","999,9,C,0000,1","00600,1,9,N","030000,1,N,1","+0182,1","+0149,1","10183,1",,,,,"07,1,+00600,1,07,1",,,"07,99,1,07,1,07,1,00800,1,00,1,00,1",,"01,9",,,,"99999,9,08232,1","2,1,006,1,+004,1",,"SYN100AAXX  04151 76373 32580 70000 10182 20149 38232 40183 52006 87700 91455 333 30/// 56900 58004 87720;",
"76373099999","2010-09-04T18:00:00","4","25.35","-105.75","1967.0","TEPEHUANES DGO., MX","FM-12","99999","V020","110,1,N,0010,1","00750,1,9,N","030000,1,N,1","+0254,1","+0134,1","10178,1",,,,,"04,1,+00600,1,07,1",,,"07,99,1,07,1,07,1,00800,1,00,1,00,1","0450,9","01,9",,"120,M,+0276,1","240,N,+0126,1","99999,9,08227,1","7,1,005,1,+001,1",,"SYN130AAXX  04181 76373 32580 71101 10254 20134 38227 40178 57005 87700 91755 333 10276 20126 30/// 55075 20966 56900 58001 84720 83625;",
"76373099999","2010-09-04T21:00:00","4","25.35","-105.75","1967.0","TEPEHUANES DGO., MX","FM-12","99999","V020","320,1,N,0020,1","00750,1,9,N","030000,1,N,1","+0228,1","+0148,1","10151,1",,,,,"03,1,+00600,1,07,1",,,"06,99,1,06,1,06,1,00800,1,00,1,00,1",,"01,9",,,,"99999,9,08206,1","7,1,021,1,+001,1",,"SYN106AAXX  04211 76373 32580 63202 10228 20148 38206 40151 57021 86600 92055 333 30/// 56900 58001 83720 83625;",
"76373099999","2010-09-05T00:00:00","4","25.35","-105.75","1967.0","TEPEHUANES DGO., MX","FM-12","99999","V020","290,1,N,0010,1","00750,1,9,N","030000,1,N,1","+0242,1","+0151,1","10131,1","24,0000,9,1",,,,"02,1,+00600,1,07,1",,,"05,99,1,05,1,05,1,00800,1,00,1,00,1",,"01,9",,"120,M,+0280,1","180,N,+0126,1","99999,9,08190,1","7,1,016,1,-009,1",,"SYN130AAXX  05001 76373 32580 52901 10242 20151 38190 40131 57016 85500 92355 333 10280 20126 30/// 50431 56900 59009 70000 82720 83625;",
"76373099999","2010-09-05T03:00:00","4","25.35","-105.75","1967.0","TEPEHUANES DGO., MX","FM-12","99999","V020","290,1,N,0010,1","00750,1,9,N","001000,1,N,1","+0200,1","+0145,1","10146,1",,,,,"02,1,+00600,1,07,1",,,"05,99,1,05,1,05,1,00800,1,00,1,00,1",,"01,9",,,,"99999,9,08201,1","2,1,011,1,-010,1",,"SYN106AAXX  05031 76373 32510 52901 10200 20145 38201 40146 52011 85500 90255 333 30/// 56900 59010 82720 83625;",
"76373099999","2010-09-05T15:00:00","4","25.35","-105.75","1967.0","TEPEHUANES DGO., MX","FM-12","99999","V020","290,1,N,0010,1","22000,1,9,N","030000,1,N,1","+0198,1","+0143,1","10154,1",,,,,"02,1,+00750,1,08,1",,,"02,99,1,02,1,02,1,00800,1,00,1,00,1",,"01,9",,,,"99999,9,08207,1","5,1,001,1,-025,1",,"SYN100AAXX  05151 76373 32580 22901 10198 20143 38207 40154 55001 82200 91455 333 30/// 56900 59025 82825;",
"76373099999","2010-09-05T18:00:00","4","25.35","-105.75","1967.0","TEPEHUANES DGO., MX","FM-12","99999","V020","140,1,N,0010,1","00750,1,9,N","030000,1,N,1","+0268,1","+0126,1","10144,1",,,,,"02,1,+00600,1,06,1",,,"05,99,1,05,1,05,1,00800,1,00,1,00,1","0180,9","01,9",,"120,M,+0298,1","240,N,+0108,1","99999,9,08200,1","5,1,007,1,-027,1",,"SYN130AAXX  05181 76373 32580 51401 10268 20126 38200 40144 55007 85500 91750 333 10298 20108 30/// 55030 20765 56900 59027 82620 83825;",
"76373099999","2010-09-05T21:00:00","4","25.35","-105.75","1967.0","TEPEHUANES DGO., MX","FM-12","99999","V020","110,1,N,0020,1","00750,1,9,N","030000,1,N,1","+0298,1","+0128,1","10109,1",,,,,"01,1,+00600,1,07,1",,,"05,99,1,05,1,05,1,00800,1,00,1,00,1",,"01,9",,,,"99999,9,08172,1","7,1,028,1,-034,1",,"SYN106AAXX  05211 76373 32580 51102 10298 20128 38172 40109 57028 85500 92050 333 30/// 56900 59034 81720 84625;",
"76373099999","2010-09-06T00:00:00","4","25.35","-105.75","1967.0","TEPEHUANES DGO., MX","FM-12","99999","V020","290,1,N,0020,1","00750,1,9,N","030000,1,N,1","+0226,1","+0132,1","10113,1","24,0000,9,1",,,,"02,1,+00600,1,07,1",,,"06,99,1,06,1,06,1,00800,1,00,1,00,1",,"01,9",,"120,M,+0300,1","180,N,+0108,1","99999,9,08175,1","5,1,003,1,-015,1",,"SYN130AAXX  06001 76373 32580 62902 10226 20132 38175 40113 55003 86600 92355 333 10300 20108 30/// 50451 56900 59015 70000 82720 84625;",
"76373099999","2010-09-06T03:00:00","4","25.35","-105.75","1967.0","TEPEHUANES DGO., MX","FM-12","99999","V020","999,9,C,0000,1","22000,1,9,N","001000,1,N,1","+0188,1","+0145,1","10116,1",,,,,"02,1,+00600,1,06,1",,,"04,99,1,04,1,04,1,00800,1,00,1,00,1",,"01,9",,,,"99999,9,08177,1","2,1,002,1,-024,1",,"SYN106AAXX  06031 76373 32510 40000 10188 20145 38177 40116 52002 84400 90255 333 30/// 56900 59024 82620 82725;",
"76373099999","2010-09-06T12:00:00","4","25.35","-105.75","1967.0","TEPEHUANES DGO., MX","FM-12","99999","V020","999,9,C,0000,1","22000,1,9,N","001000,1,N,1","+0138,1","+0131,1","10116,1","24,0000,9,1",,,,,,,"01,99,1,01,1,01,1,00800,1,00,1,00,1","0510,9","01,9",,"120,N,+0100,1","240,M,+0300,1","99999,9,08177,1","9,9,999,9,-029,1",,"SYN130AAXX  06121 76373 32510 10000 10138 20131 38177 40116 5//// 81100 91155 333 10300 20100 30092 55085 21530 56900 59029 70000 81825;",
"76373099999","2010-09-06T18:00:00","4","25.35","-105.75","1967.0","TEPEHUANES DGO., MX","FM-12","99999","V020","050,1,N,0010,1","00750,1,9,N","050000,1,N,1","+0286,1","+0127,1","10120,1",,,,,"04,1,+00800,1,06,1",,,"06,99,1,06,1,07,1,00800,1,00,1,00,1",,"01,9",,"120,M,+0316,1","240,N,+0100,1","99999,9,08181,1","6,1,007,1,-019,1",,"SYN112AAXX  06181 76373 32584 60501 10286 20127 38181 40120 56007 86700 91750 333 10316 20100 30/// 56900 59019 84695;",
"76373099999","2010-09-06T21:00:00","4","25.35","-105.75","1967.0","TEPEHUANES DGO., MX","FM-12","99999","V020","230,1,N,0020,1","00750,1,9,N","050000,1,N,1","+0267,1","+0152,1","10108,1",,,,,"04,1,+00800,1,06,1",,,"07,99,1,07,1,07,1,00800,1,00,1,00,1",,"01,9",,,,"99999,9,08171,1","7,1,010,1,-001,1",,"SYN100AAXX  06211 76373 32584 72302 10267 20152 38171 40108 57010 87700 92049 333 30/// 56900 59001 84695;",
"76373099999","2010-09-07T00:00:00","4","25.35","-105.75","1967.0","TEPEHUANES DGO., MX","FM-12","99999","V020","110,1,N,0010,1","00750,1,9,N","045000,1,N,1","+0245,1","+0146,1","10097,1","24,0000,9,1",,,,,,,"07,99,1,07,1,07,1,00800,1,00,1,00,1",,"01,9",,"120,M,+0330,1","180,N,+0100,1","99999,9,08162,1","7,1,009,1,-013,1",,"SYN124AAXX  07001 76373 32583 71101 10245 20146 38162 40097 57009 87700 92349 333 10330 20100 30/// 50316 56900 59013 70000 85695;",
"76373099999","2010-09-07T03:00:00","4","25.35","-105.75","1967.0","TEPEHUANES DGO., MX","FM-12","99999","V020","130,1,N,0010,1","03600,1,C,N","001000,1,N,1","+0202,1","+0160,1","10119,1",,,,,"03,1,+00690,1,06,1",,,"05,99,1,03,1,05,1,00450,1,04,1,00,1",,"01,9",,,,"99999,9,08180,1","2,1,018,1,+002,1",,"SYN106AAXX  07031 76373 32410 51301 10202 20160 38180 40119 52018 83540 90240 333 30/// 56990 58002 83623 82457;",
"76373099999","2010-09-07T12:00:00","4","25.35","-105.75","1967.0","TEPEHUANES DGO., MX","FM-12","99999","V020","999,9,C,0000,1","22000,1,9,N","010000,1,N,1","+0164,1","+0141,1","10126,1",,,,,"00,1,+99999,9,99,9",,,"00,99,1,00,1,00,1,99999,9,00,1,00,1","0468,9","01,9","999,+0010,9","120,N,+0129,1","240,M,+0330,1","99999,9,08185,1","9,9,999,9,-012,1",,"SYN118AAXX  07121 76373 32960 00000 10164 20141 38185 40126 5//// 91151 333 10330 20129 30010 55078 21820 56000 59012 70000;",
"76373099999","2010-09-07T18:00:00","4","25.35","-105.75","1967.0","TEPEHUANES DGO., MX","FM-12","99999","V020","090,1,N,0010,1","01800,1,9,N","050000,1,N,1","+0268,1","+0134,1","10142,1",,,,,"06,1,+01800,1,03,1",,,"08,99,1,99,9,02,1,01250,1,07,1,08,1",,"01,9",,"120,M,+0332,1","240,N,+0129,1","99999,9,08198,1","6,1,005,1,-017,1",,"SYN112AAXX  07181 76373 32684 80901 10268 20134 38198 40142 56005 88278 91749 333 10332 20129 30/// 56999 59017 86356;","Q01+000082SCOTLC"
"76373099999","2010-09-07T21:00:00","4","25.35","-105.75","1967.0","TEPEHUANES DGO., MX","FM-12","99999","V020","120,1,N,0020,1","01200,1,C,N","050000,1,N,1","+0305,1","+0077,1","10118,1",,,,,"04,1,+01800,1,03,1",,,"07,99,1,07,1,02,1,01250,1,07,1,00,1",,"01,9",,,,"99999,9,08179,1","7,1,019,1,+009,1",,"SYN106AAXX  07211 76373 32684 71202 10305 20077 38179 40118 57019 87270 92051 333 30/// 56990 58009 84356 83830;",
"76373099999","2010-09-08T00:00:00","4","25.35","-105.75","1967.0","TEPEHUANES DGO., MX","FM-12","99999","V020","320,1,N,0010,1","01200,1,9,N","050000,1,N,1","+0274,1","+0092,1","10099,1","24,0000,9,1",,,,,,,"06,99,1,06,1,02,1,01250,1,07,1,00,1",,"01,9",,"120,M,+0335,1","180,N,+0129,1","99999,9,08164,1","7,1,015,1,+002,1",,"SYN124AAXX  08001 76373 32684 63201 10274 20092 38164 40099 57015 86270 92350 333 10335 20129 30/// 53551 56990 58002 70000 83357;",
"76373099999","2010-09-08T03:00:00","4","25.35","-105.75","1967.0","TEPEHUANES DGO., MX","FM-12","99999","V020","999,9,C,0000,1","00690,1,9,N","001000,1,N,1","+0224,1","+0147,1","10135,1",,,,,"06,1,+00690,1,07,1",,,"07,99,1,07,1,07,1,00450,1,00,1,00,1",,"01,9",,,,"99999,9,08193,1","2,1,029,1,+013,1",,"SYN100AAXX  08031 76373 32410 70000 10224 20147 38193 40135 52029 87700 90250 333 30/// 56000 58013 86723;",
"76373099999","2010-09-08T15:00:00","4","25.35","-105.75","1967.0","TEPEHUANES DGO., MX","FM-12","99999","V020","999,9,C,0000,1","00600,1,9,N","030000,1,N,1","+0186,1","+0154,1","10150,1",,,,,"06,1,+00600,1,07,1",,,"08,99,1,08,1,07,1,00450,1,00,1,00,1",,"01,9",,,,"99999,9,08205,1","2,1,016,1,+011,1",,"SYN100AAXX  08151 76373 32480 80000 10186 20154 38205 40150 52016 88700 91450 333 30/// 560// 58011 86720;",
"76373099999","2010-09-08T18:00:00","4","25.35","-105.75","1967.0","TEPEHUANES DGO., MX","FM-12","99999","V020","130,1,N,0010,1","00600,1,9,N","030000,1,N,1","+0256,1","+0147,1","10148,1",,,,,"06,1,+00600,1,07,1",,,"08,99,1,08,1,07,1,00450,1,00,1,00,1",,"01,9",,"120,M,+0272,1","240,N,+0140,1","99999,9,08203,1","8,1,002,1,+005,1",,"SYN112AAXX  08181 76373 32480 81301 10256 20147 38203 40148 58002 88700 91750 333 10272 20140 30/// 560// 58005 86720;",
"76373099999","2010-09-08T21:00:00","4","25.35","-105.75","1967.0","TEPEHUANES DGO., MX","FM-12","99999","V020","180,1,N,0020,1","00900,1,9,N","045000,1,N,1","+0279,1","+0134,1","10119,1",,,,,"05,1,+00900,1,06,1",,,"07,99,1,07,1,07,1,00800,1,00,1,00,1",,"01,9",,,,"99999,9,08180,1","7,1,023,1,+009,1",,"SYN100AAXX  08211 76373 32583 71802 10279 20134 38180 40119 57023 87700 92052 333 30/// 569// 58009 85630;",
"76373099999","2010-09-09T03:00:00","4","25.35","-105.75","1967.0","TEPEHUANES DGO., MX","FM-12","99999","V020","300,1,N,0010,1","00600,1,9,N","001000,1,N,1","+0170,1","+0165,1","10150,1","03,0220,9,1",,"6,1,03,1","2,1,03,1","08,1,+00600,1,09,1",,,"08,99,1,08,1,09,1,00450,1,99,9,99,9",,"11,9",,,,"99999,9,08205,1","3,1,005,1,+012,1","50,1","SYN118AAXX  09031 76373 21410 83001 10170 20165 38205 40150 53005 75062 889// 90250 333 32/// 560// 58012 60227 88920 96050;",
"76373099999","2010-09-09T12:00:00","4","25.35","-105.75","1967.0","TEPEHUANES DGO., MX","FM-12","99999","V020","999,9,C,0000,1","00750,1,9,N","010000,1,N,1","+0160,1","+0158,1","10141,1","24,0230,9,1",,,,,,,"06,99,1,06,1,07,1,00800,1,99,9,99,9","0108,9","09,9","999,-0010,9","120,N,+0123,1","240,M,+0319,1","99999,9,08198,1","9,9,999,9,+009,1",,"SYN130AAXX  09121 76373 32560 60000 10160 20158 38198 40141 5//// 867// 91151 333 10319 20123 31010 55018 21224 56900 58009 70230 86630;",
"76373099999","2010-09-09T18:00:00","4","25.35","-105.75","1967.0","TEPEHUANES DGO., MX","FM-12","99999","V020","360,1,N,0010,1","01200,1,C,N","050000,1,N,1","+0250,1","+0165,1","10144,1",,,,,"04,1,+00900,1,08,1",,,"06,99,1,06,1,02,1,01250,1,00,1,09,1",,"01,9",,"120,M,+0310,1","240,N,+0123,1","99999,9,08200,1","7,1,009,1,-003,1",,"SYN112AAXX  09181 76373 32684 63601 10250 20165 38200 40144 57009 86209 91752 333 10310 20123 30/// 56909 59003 84830;",
"76373099999","2010-09-09T21:00:00","4","25.35","-105.75","1967.0","TEPEHUANES DGO., MX","FM-12","99999","V020","999,9,C,0000,1","00600,1,9,N","030000,1,N,1","+0262,1","+0152,1","10112,1",,,,,"05,1,+00600,1,07,1",,,"07,99,1,07,1,07,1,00450,1,00,1,00,1",,"01,9",,,,"99999,9,08174,1","7,1,026,1,-006,1",,"SYN106AAXX  09211 76373 32480 70000 10262 20152 38174 40112 57026 87700 92050 333 30/// 56900 59006 85720 82623;",
"76373099999","2010-09-10T03:00:00","4","25.35","-105.75","1967.0","TEPEHUANES DGO., MX","FM-12","99999","V020","999,9,C,0000,1","00600,1,9,N","001000,1,N,1","+0186,1","+0181,1","10142,1","03,0050,9,1",,"5,1,03,1","2,1,03,1","02,1,+00600,1,09,1","06,1,+00600,1,07,1",,"08,99,1,08,1,07,1,00450,1,99,9,99,9",,"11,9",,,,"99999,9,08198,1","2,1,014,1,-007,1","50,1","SYN124AAXX  10031 76373 21410 80000 10186 20181 38198 40142 52014 75052 887// 90250 333 32/// 560// 59007 60057 86720 82920 96020;",
"76373099999","2010-09-10T12:00:00","4","25.35","-105.75","1967.0","TEPEHUANES DGO., MX","FM-12","99999","V020","999,9,C,0000,1","00750,1,9,N","010000,1,N,1","+0157,1","+0151,1","10144,1","24,0060,9,1",,,,,,,"08,99,1,08,1,07,1,00800,1,00,1,00,1","0210,9","01,9",,"120,N,+0121,1","240,M,+0290,1","99999,9,08200,1","9,9,999,9,+002,1",,"SYN130AAXX  10121 76373 32560 80000 10157 20151 38200 40144 5//// 88700 91150 333 10290 20121 30099 55035 21039 56900 58002 70060 88630;",
"76373099999","2010-09-10T15:00:00","4","25.35","-105.75","1967.0","TEPEHUANES DGO., MX","FM-12","99999","V020","999,9,C,0000,1","00420,1,C,N","030000,1,N,1","+0190,1","+0165,1","10164,1",,,,,"04,1,+00690,1,06,1",,,"07,99,1,07,1,04,1,00450,1,99,9,99,9",,"01,9",,,,"99999,9,08216,1","2,1,016,1,+007,1",,"SYN106AAXX  10151 76373 32480 70000 10190 20165 38216 40164 52016 874// 91450 333 30/// 560// 58007 84623 83723;",
"76373099999","2010-09-10T18:00:00","4","25.35","-105.75","1967.0","TEPEHUANES DGO., MX","FM-12","99999","V020","120,1,N,0010,1","03600,1,9,N","030000,1,N,1","+0250,1","+0150,1","10156,1",,,,,"03,1,+00750,1,08,1",,,"05,99,1,03,1,02,1,00800,1,06,1,00,1",,"01,9",,"120,M,+0268,1","240,N,+0121,1","99999,9,08210,1","7,1,006,1,+010,1",,"SYN112AAXX  10181 76373 32580 51201 10250 20150 38210 40156 57006 83260 91750 333 10268 20121 30/// 56990 58010 83825;",
"76373099999","2010-09-11T00:00:00","4","25.35","-105.75","1967.0","TEPEHUANES DGO., MX","FM-12","99999","V020","210,1,N,0020,1","00600,1,C,N","030000,1,N,1","+0190,1","+0149,1","10134,1","24,0057,9,1",,,,"05,1,+00600,1,07,1",,,"08,99,1,08,1,07,1,00450,1,99,9,99,9",,"01,9",,"120,M,+0304,1","180,N,+0121,1","99999,9,08192,1","7,1,028,1,+008,1",,"SYN130AAXX  11001 76373 32480 82102 10190 20149 38192 40134 57028 887// 92350 333 10304 20121 30/// 50771 560// 58008 70057 85720 83620;",
"76373099999","2010-09-11T03:00:00","4","25.35","-105.75","1967.0","TEPEHUANES DGO., MX","FM-12","99999","V020","320,1,N,0010,1","00600,1,9,N","001000,1,N,1","+0174,1","+0156,1","10141,1",,,,,"08,1,+00600,1,07,1",,,"08,99,1,08,1,08,1,00800,1,00,1,00,1",,"01,9",,,,"99999,9,08189,1","5,1,006,1,+001,1",,"SYN100AAXX  11031 76373 32510 83201 10174 20156 38189 40141 55006 88800 90255 333 30/// 56900 58001 88720;",
"76373099999","2010-09-11T15:00:00","4","25.35","-105.75","1967.0","TEPEHUANES DGO., MX","FM-12","99999","V020","250,1,N,0010,1","22000,1,9,N","030000,1,N,1","+0186,1","+0146,1","10168,1",,,,,"03,1,+00600,1,07,1",,,"03,99,1,03,1,03,1,00800,1,00,1,00,1",,"01,9",,,,"99999,9,08219,1","2,1,006,1,+003,1",,"SYN100AAXX  11151 76373 32580 32501 10186 20146 38219 40168 52006 83300 91455 333 30/// 56900 58003 83720;",
"76373099999","2010-09-11T18:00:00","4","25.35","-105.75","1967.0","TEPEHUANES DGO., MX","FM-12","99999","V020","110,1,N,0010,1","22000,1,9,N","030000,1,N,1","+0240,1","+0152,1","10167,1",,,,,,,,"03,99,1,03,1,03,1,00800,1,00,1,00,1","0300,9","01,9",,"120,M,+0270,1","240,N,+0110,1","99999,9,08218,1","5,1,001,1,+008,1",,"SYN124AAXX  11181 76373 32580 31101 10240 20152 38218 40167 55001 83300 91755 333 10270 20110 30/// 55050 21087 56900 58008 83720;",
"76373099999","2010-09-11T21:00:00","4","25.35","-105.75","1967.0","TEPEHUANES DGO., MX","FM-12","99999","V020","140,1,N,0020,1","22000,1,9,N","030000,1,N,1","+0280,1","+0138,1","10138,1",,,,,"03,1,+00600,1,06,1",,,"03,99,1,03,1,03,1,00800,1,00,1,00,1",,"01,9",,,,"99999,9,08195,1","7,1,023,1,-025,1",,"SYN100AAXX  11211 76373 32580 31402 10280 20138 38195 40138 57023 83300 92055 333 30/// 56900 59025 83620;",
"76373099999","2010-09-12T00:00:00","4","25.35","-105.75","1967.0","TEPEHUANES DGO., MX","FM-12","99999","V020","140,1,N,0020,1","22000,1,9,N","030000,1,N,1","+0266,1","+0128,1","10123,1","24,0055,9,1",,,,"01,1,+00600,1,07,1",,,"04,99,1,04,1,04,1,00800,1,00,1,00,1",,"01,9",,"120,M,+0300,1","180,N,+0110,1","99999,9,08183,1","5,1,012,1,-012,1",,"SYN130AAXX  12001 76373 32580 41402 10266 20128 38183 40123 55012 84400 92355 333 10300 20110 30/// 50611 56900 59012 70055 81720 83625;",
"76373099999","2010-09-12T18:00:00","4","25.35","-105.75","1967.0","TEPEHUANES DGO., MX","FM-12","99999","V020","110,1,N,0010,1","22000,1,9,N","030000,1,N,1","+0230,1","+0157,1","10183,1",,,,,"02,1,+00600,1,07,1",,,"04,99,1,04,1,04,1,00800,1,00,1,00,1","0510,9","01,9",,"120,M,+0256,1","240,N,+0098,1","99999,9,08232,1","7,1,005,1,+014,1",,"SYN130AAXX  12181 76373 32580 41101 10230 20157 38232 40183 57005 84400 91755 333 10256 20098 30/// 55085 21900 56900 58014 82720 82625;",
"76373099999","2010-09-12T21:00:00","4","25.35","-105.75","1967.0","TEPEHUANES DGO., MX","FM-12","99999","V020","140,1,N,0020,1","00750,1,9,N","030000,1,N,1","+0264,1","+0147,1","10161,1",,,,,"02,1,+00600,1,07,1",,,"05,99,1,05,1,05,1,00800,1,00,1,00,1",,"01,9",,,,,"7,1,018,1,+019,1",,"SYN106AAXX  12211 76373 32580 51402 10264 20147 38114 40161 57018 85500 92050 333 30/// 56900 58019 82720 83625;","Q01+081143APOSP "
"76373099999","2010-09-13T00:00:00","4","25.35","-105.75","1967.0","TEPEHUANES DGO., MX","FM-12","99999","V020","290,1,N,0010,1","22000,1,9,N","030000,1,N,1","+0252,1","+0146,1","10145,1","24,0070,9,1",,,,"02,1,+00600,1,06,1",,,"04,99,1,04,1,04,1,00800,1,00,1,00,1",,"01,9",,"120,M,+0290,1","180,N,+0098,1","99999,9,08201,1","7,1,013,1,+018,1",,"SYN130AAXX  13001 76373 32580 42901 10252 20146 38201 40145 57013 84400 92355 333 10290 20098 30/// 50571 56900 58018 70070 82620 82725;",
"76373099999","2010-09-13T03:00:00","4","25.35","-105.75","1967.0","TEPEHUANES DGO., MX","FM-12","99999","V020","320,1,N,0010,1","01200,1,C,N","030000,1,N,1","+0206,1","+0143,1","10166,1",,,,,"04,1,+00600,1,07,1",,,"08,99,1,08,1,08,1,00800,1,00,1,00,1",,"01,9",,,,"99999,9,08218,1","2,1,017,1,+012,1",,"SYN106AAXX  13031 76373 32580 83201 10206 20143 38218 40166 52017 88800 90255 333 30/// 56900 58012 84720 84625;",
"76373099999","2010-09-13T12:00:00","4","25.35","-105.75","1967.0","TEPEHUANES DGO., MX","FM-12","99999","V020","999,9,C,0000,1","22000,1,9,N","001000,1,N,1","+0162,1","+0159,1","10175,1","24,0015,9,1",,,,"01,1,+00600,1,07,1",,,"03,99,1,03,1,03,1,00800,1,00,1,00,1","0510,9","01,9",,"120,N,+0124,1","240,M,+0290,1","99999,9,08225,1","9,9,999,9,-003,1",,"SYN136AAXX  13121 76373 32510 30000 10162 20159 38225 40175 5//// 83300 91155 333 10290 20124 30112 55085 21739 56900 59003 70015 81720 82625;",
"76373099999","2010-09-13T15:00:00","4","25.35","-105.75","1967.0","TEPEHUANES DGO., MX","FM-12","99999","V020","320,1,N,0010,1","22000,1,9,N","030000,1,N,1","+0190,1","+0160,1","10187,1",,,,,"02,1,+00750,1,08,1",,,"02,99,1,02,1,02,1,00800,1,00,1,00,1",,"01,9",,,,"99999,9,08235,1","2,1,011,1,-003,1",,"SYN100AAXX  13151 76373 32580 23201 10190 20160 38235 40187 52011 82200 91455 333 30/// 56900 59003 82825;",
"76373099999","2010-09-14T12:00:00","4","25.35","-105.75","1967.0","TEPEHUANES DGO., MX","FM-12","99999","V020","999,9,C,0000,1","22000,1,9,N","001000,1,N,1","+0228,1","+0124,1","10182,1","24,0000,9,1",,,,,,,"02,99,1,02,1,02,1,00800,1,00,1,00,1",,"01,9",,"120,N,+0080,1","240,M,+0310,1","99999,9,08230,1","9,9,999,9,+005,1",,"SYN130AAXX  14121 76373 32510 20000 10228 20124 38230 40182 5//// 82200 91150 333 10310 20080 30070 55921 21820 56000 58005 70000 82725;",
"76373099999","2010-09-14T15:00:00","4","25.35","-105.75","1967.0","TEPEHUANES DGO., MX","FM-12","99999","V020","999,9,C,0000,1","22000,1,9,N","030000,1,N,1","+0172,1","+0139,1","10198,1",,,,,"02,1,+00750,1,08,1",,,"02,99,1,02,1,02,1,00800,1,00,1,00,1",,"01,9",,,,"99999,9,08244,1","2,1,014,1,+010,1",,"SYN100AAXX  14151 76373 32580 20000 10172 20139 38244 40198 52014 82200 91450 333 30/// 56000 58010 82825;",
"76373099999","2010-09-14T18:00:00","4","25.35","-105.75","1967.0","TEPEHUANES DGO., MX","FM-12","99999","V020","120,1,N,0010,1","22000,1,9,N","030000,1,N,1","+0260,1","+0156,1","10188,1",,,,,"03,1,+00750,1,08,1",,,"03,99,1,03,1,02,1,00800,1,00,1,00,1",,"01,9",,"120,M,+0280,1","240,N,+0088,1","99999,9,08236,1","7,1,008,1,+999,9",,"SYN112AAXX  14181 76373 32580 31201 10260 20156 38236 40188 57008 83200 91750 333 10280 20088 30/// 56000 58/// 83825;",
"76373099999","2010-09-14T21:00:00","4","25.35","-105.75","1967.0","TEPEHUANES DGO., MX","FM-12","99999","V020","120,1,N,0010,1","00420,1,C,N","030000,1,N,1","+0246,1","+0150,1","10151,1",,,,,"03,1,+00600,1,07,1",,,"05,99,1,05,1,07,1,00450,1,00,1,00,1",,"01,9",,,,"99999,9,08206,1","7,1,030,1,+999,9",,"SYN106AAXX  14211 76373 32480 51201 10246 20150 38206 40151 57030 85700 92050 333 30/// 56900 58/// 83720 82620;",
"76373099999","2010-09-15T00:00:00","4","25.35","-105.75","1967.0","TEPEHUANES DGO., MX","FM-12","99999","V020","310,1,N,0030,1","00600,1,C,N","030000,1,N,1","+0190,1","+0135,1","10168,1","24,0000,9,1",,,,"05,1,+00600,1,07,1",,,"07,99,1,07,1,07,1,00450,1,00,1,00,1",,"01,9",,"120,M,+0318,1","180,N,+0088,1","99999,9,08220,1","3,1,024,1,+999,9",,"SYN130AAXX  15001 76373 32480 73103 10190 20135 38220 40168 53024 87700 91750 333 10318 20088 30/// 50561 56900 58/// 70000 85720 82620;",
"76373099999","2010-09-15T03:00:00","4","25.35","-105.75","1967.0","TEPEHUANES DGO., MX","FM-12","99999","V020","999,9,C,0000,1","00600,1,9,N","001000,1,N,1","+0160,1","+0151,1","10192,1","03,0030,9,1",,"5,1,03,1","1,1,03,1","08,1,+00600,1,09,1",,,"08,99,1,08,1,09,1,00450,1,99,9,99,9",,"09,9",,,,"99999,9,08238,1","2,1,018,1,+999,9","13,1","SYN118AAXX  15031 76373 21410 80000 10160 20151 38238 40192 52018 71351 889// 90250 333 31/// 560// 58/// 60037 88920 96013;",
"76373099999","2010-09-15T12:00:00","4","25.35","-105.75","1967.0","TEPEHUANES DGO., MX","FM-12","99999","V020","310,1,N,0010,1","22000,1,9,N","001000,1,N,1","+0120,1","+0120,1","10182,1","24,0035,9,1",,,,,,,"01,99,1,01,1,02,1,00800,1,00,1,00,1","0474,9","01,9",,"120,N,+0086,1","240,M,+0318,1","99999,9,08231,1","9,9,999,9,+001,1",,"SYN130AAXX  15121 76373 32510 13101 10120 20120 38231 40182 5//// 81200 91150 333 10318 20086 30072 55079 21248 56000 58001 70035 81825;",
"76373099999","2010-09-15T15:00:00","4","25.35","-105.75","1967.0","TEPEHUANES DGO., MX","FM-12","99999","V020","999,9,C,0000,1","22000,1,9,N","030000,1,N,1","+0164,1","+0132,1","10196,1",,,,,"01,1,+05100,1,04,1",,,"01,99,1,99,9,00,1,99999,9,99,9,04,1",,"01,9",,,,"99999,9,08242,1","2,1,011,1,-002,1",,"SYN100AAXX  15151 76373 32980 10000 10164 20132 38242 40196 52011 80004 91450 333 30/// 56009 59002 81467;","Q01+000002SCOTLC"
"76373099999","2010-09-15T18:00:00","4","25.35","-105.75","1967.0","TEPEHUANES DGO., MX","FM-12","99999","V020","090,1,N,0010,1","22000,1,9,N","030000,1,N,1","+0240,1","+0141,1","10183,1",,,,,,,,"02,99,1,02,1,02,1,00800,1,00,1,00,1",,"01,9",,"120,M,+0260,1","240,N,+0086,1","99999,9,08232,1","7,1,010,1,-004,1",,"SYN112AAXX  15181 76373 32580 20901 10240 20141 38232 40183 57010 82200 91730 333 10260 20086 30/// 26900 59004 82825;",
"76373099999","2010-09-16T03:00:00","4","25.35","-105.75","1967.0","TEPEHUANES DGO., MX","FM-12","99999","V020","280,1,N,0010,1","22000,1,9,N","001000,1,N,1","+0194,1","+0132,1","10162,1",,,,,"02,1,+00690,1,06,1",,,"04,99,1,04,1,04,1,00800,1,00,1,00,1",,"01,9",,,,"99999,9,08215,1","9,9,999,9,-023,1",,"SYN100AAXX  16031 76373 32510 42801 10194 20132 38215 40162 5//// 84400 90250 333 30/// 56900 59023 82623;",
"76373099999","2010-09-16T12:00:00","4","25.35","-105.75","1967.0","TEPEHUANES DGO., MX","FM-12","99999","V020","999,9,C,0000,1","22000,1,9,N","001000,1,N,1","+0220,1","+0117,1","10162,1","24,0000,9,1",,,,"09,1,+00510,1,00,1",,,"09,99,1,09,1,02,1,00800,1,00,1,00,1","0504,9","01,9",,"120,N,+0080,1","240,M,+0310,1","99999,9,08214,1",,,"SYN130AAXX  16121 76373 32510 20000 10220 20117 38214 40162 5//// 82200 91150 333 10310 20080 30064 55084 20888 56000 89017 70000 82825;","Q01+000022SCOTCV"
"76373099999","2010-09-16T15:00:00","4","25.35","-105.75","1967.0","TEPEHUANES DGO., MX","FM-12","99999","V020","999,9,C,0000,1","22000,1,9,N","030000,1,N,1","+0165,1","+0153,1","10170,1",,,,,"00,1,+99999,9,99,9",,,"00,99,1,00,1,00,1,99999,9,00,1,00,1",,"01,9",,,,"99999,9,08221,1","2,1,007,1,-021,1",,"SYN088AAXX  16151 76373 32980 00000 10165 20153 38221 40170 52007 91450 333 30/// 56000 59021;",
"76373099999","2010-09-16T18:00:00","4","25.35","-105.75","1967.0","TEPEHUANES DGO., MX","FM-12","99999","V020","010,1,N,0010,1","22000,1,9,N","050000,1,N,1","+0262,1","+0149,1","10162,1",,,,,"04,1,+00800,1,08,1",,,"04,99,1,04,1,02,1,00800,1,00,1,00,1",,"01,9",,"120,M,+0320,1","240,N,+0080,1","99999,9,08214,1","7,1,007,1,-018,1",,"SYN112AAXX  16181 76373 32584 40101 10262 20149 38214 40162 57007 84200 91750 333 10320 20080 30/// 56900 59018 84895;",
"76373099999","2010-09-16T21:00:00","4","25.35","-105.75","1967.0","TEPEHUANES DGO., MX","FM-12","99999","V020","220,1,N,0010,1","00800,1,9,N","050000,1,N,1","+0305,1","+0112,1","10144,1",,,,,"06,1,+00800,1,08,1",,,"06,99,1,06,1,02,1,00800,1,00,1,00,1",,"01,9",,,,"99999,9,08200,1","7,1,014,1,-012,1",,"SYN094AAXX  16211 76373 32584 62201 10305 20112 38200 40144 57014 86200 92051 333 30/// 59012 86895;",
"76373099999","2010-09-17T00:00:00","4","25.35","-105.75","1967.0","TEPEHUANES DGO., MX","FM-12","99999","V020","330,1,N,0010,1","00750,1,9,N","050000,1,N,1","+0251,1","+0151,1","10113,1","24,0000,9,1",,,,"04,1,+00800,1,08,1",,,"07,99,1,07,1,02,1,00800,1,07,1,00,1",,"01,9",,"120,M,+0332,1","180,N,+0080,1","99999,9,08175,1","7,1,025,1,-025,1",,"SYN130AAXX  17001 76373 32584 73301 10251 20151 38175 40113 57025 87270 92352 333 10332 20080 30/// 50501 56990 59025 70000 84895 83630;",
"76373099999","2010-09-17T03:00:00","4","25.35","-105.75","1967.0","TEPEHUANES DGO., MX","FM-12","99999","V020","270,1,N,0010,1","00800,1,9,N","030000,1,N,1","+0211,1","+0136,1","10133,1",,,,,"08,1,+00800,1,06,1",,,"08,99,1,08,1,07,1,00800,1,00,1,00,1",,"01,9",,,,"99999,9,08191,1","2,1,016,1,-024,1",,"SYN100AAXX  17031 76373 32580 82701 10211 20136 38191 40133 52016 88700 90251 333 30/// 56900 59024 88695;",
"76373099999","2010-09-17T12:00:00","4","25.35","-105.75","1967.0","TEPEHUANES DGO., MX","FM-12","99999","V020","999,9,C,0000,1","22000,1,9,N","010000,1,N,1","+0134,1","+0130,1","10142,1",,,,,"00,1,+99999,9,99,9",,,"00,99,1,00,1,00,1,99999,9,00,1,00,1","0534,9","01,9",,"120,N,+0098,1","240,M,+0332,1","99999,9,08198,1","9,9,999,9,-016,1",,"SYN118AAXX  17121 76373 32960 00000 10134 20130 38198 40142 5//// 91150 333 10332 20098 30074 55089 21272 56000 59016 70000;",
"76373099999","2010-09-17T15:00:00","4","25.35","-105.75","1967.0","TEPEHUANES DGO., MX","FM-12","99999","V020","999,9,C,0000,1","01800,1,9,N","030000,1,N,1","+0181,1","+0146,1","10166,1",,,,,"06,1,+01800,1,03,1",,,"08,99,1,99,9,02,1,00800,1,07,1,00,1",,"01,9",,,,"99999,9,08218,1","2,1,020,1,-003,1",,"SYN100AAXX  17151 76373 32580 80000 10181 20146 38218 40166 52020 88270 91451 333 30/// 56990 59003 86356;","Q01+000082SCOTLC"
"76373099999","2010-09-17T18:00:00","4","25.35","-105.75","1967.0","TEPEHUANES DGO., MX","FM-12","99999","V020","040,1,N,0010,1","00800,1,9,N","050000,1,N,1","+0259,1","+0151,1","10152,1",,,,,"05,1,+00800,1,08,1",,,"05,99,1,05,1,02,1,00800,1,00,1,00,1",,"01,9",,"120,M,+0321,1","240,N,+0098,1","99999,9,08206,1","7,1,012,1,-008,1",,"SYN112AAXX  17181 76373 32584 50401 10259 20151 38206 40152 57012 85200 91750 333 10321 20098 30/// 56900 59008 85895;",
"76373099999","2010-09-17T21:00:00","4","25.35","-105.75","1967.0","TEPEHUANES DGO., MX","FM-12","99999","V020","120,1,N,0030,1","00750,1,9,N","050000,1,N,1","+0265,1","+0130,1","10124,1",,,,,"04,1,+00800,1,08,1",,,"06,99,1,06,1,02,1,00800,1,07,1,00,1",,"01,9",,,,"99999,9,08184,1","7,1,022,1,-016,1",,"SYN100AAXX  17211 76373 32584 61203 10265 20130 38184 40124 57022 86270 92050 333 30/// 56990 59016 84895;",
"76373099999","2010-09-18T00:00:00","4","25.35","-105.75","1967.0","TEPEHUANES DGO., MX","FM-12","99999","V020","999,9,C,0000,1","00750,1,9,N","050000,1,N,1","+0253,1","+0138,1","10108,1","24,0000,9,1",,,,"04,1,+01800,1,03,1",,,"07,99,1,07,1,02,1,00800,1,07,1,00,1",,"01,9",,"120,M,+0310,1","180,N,+0098,1","99999,9,08171,1","7,1,013,1,-004,1",,"SYN130AAXX  18001 76373 32584 70000 10253 20138 38171 40108 57013 87270 92351 333 10310 20098 30/// 50561 56990 59004 70000 84356 83895;",
"76373099999","2010-09-18T03:00:00","4","25.35","-105.75","1967.0","TEPEHUANES DGO., MX","FM-12","99999","V020","030,1,N,0010,1","00800,1,9,N","010000,1,N,1","+0220,1","+0131,1","10130,1",,,,,"08,1,+00800,1,08,1",,,"08,99,1,08,1,07,1,00800,1,00,1,00,1",,"01,9",,,,"99999,9,08189,1","2,1,018,1,-002,1",,"SYN100AAXX  18031 76373 32560 80301 10220 20131 38189 40130 52018 88700 90252 333 30/// 56900 59002 88895;",
"76373099999","2010-09-18T12:00:00","4","25.35","-105.75","1967.0","TEPEHUANES DGO., MX","FM-12","99999","V020","999,9,C,0000,1","22000,1,9,N","010000,1,N,1","+0163,1","+0150,1","10139,1",,,,,,,,"04,99,1,04,1,02,1,00800,1,07,1,00,1","0414,9","01,9",,"120,N,+0125,1","240,M,+0310,1","99999,9,08196,1","9,9,999,9,-002,1",,"SYN130AAXX  18121 76373 32560 40000 10163 20150 38196 40139 5//// 84270 90249 333 10310 20125 30101 50561 55069 21570 56990 59002 82895;",
"76373099999","2010-09-18T15:00:00","4","25.35","-105.75","1967.0","TEPEHUANES DGO., MX","FM-12","99999","V020","999,9,C,0000,1","22000,1,9,N","030000,1,N,1","+0202,1","+0153,1","10149,1",,,,,"02,1,+00800,1,08,1",,,"02,99,1,02,1,08,1,00800,1,00,1,00,1",,"01,9",,,,"99999,9,08204,1","2,1,048,1,+026,1",,"SYN100AAXX  18151 76373 32580 20000 10202 20153 38204 40149 52048 82800 91435 333 30/// 56900 58026 82895;",
"76373099999","2010-09-19T00:00:00","4","25.35","-105.75","1967.0","TEPEHUANES DGO., MX","FM-12","99999","V020","070,1,N,0020,1","22000,1,9,N","030000,1,N,1","+0259,1","+0127,1","10109,1","24,0000,9,1",,,,"02,1,+00600,1,06,1",,,"04,99,1,04,1,04,1,00800,1,00,1,00,1",,"01,9",,"120,M,+0318,1","180,N,+0125,1","99999,9,08169,1","7,1,002,1,-002,1",,"SYN130AAXX  19001 76373 32580 40702 10259 20127 38169 40109 57002 84400 92350 333 10318 20125 30/// 50581 56900 59002 70000 82620 82725;",
"76373099999","2010-09-19T03:00:00","4","25.35","-105.75","1967.0","TEPEHUANES DGO., MX","FM-12","99999","V020","999,9,C,0000,1","01200,1,C,N","001000,1,N,1","+0204,1","+0164,1","10128,1",,,,,"04,1,+00600,1,06,1",,,"08,99,1,08,1,08,1,00800,1,00,1,00,1",,"01,9",,,,"99999,9,08187,1","2,1,018,1,-002,1",,"SYN106AAXX  19031 76373 32510 80000 10204 20164 38187 40128 52018 88800 90255 333 30/// 56900 59002 84620 84725;",
"76373099999","2010-09-19T15:00:00","4","25.35","-105.75","1967.0","TEPEHUANES DGO., MX","FM-12","99999","V020","999,9,C,0000,1","01200,1,C,N","030000,1,N,1","+0178,1","+0150,1","10149,1",,,,,"04,1,+00600,1,07,1",,,"08,99,1,08,1,08,1,00800,1,00,1,00,1",,"01,9",,,,"99999,9,08204,1","2,1,005,1,-040,1",,"SYN106AAXX  19151 76373 32580 80000 10178 20150 38204 40149 52005 88800 91455 333 30/// 56900 59040 84720 84625;",
"76373099999","2010-09-19T18:00:00","4","25.35","-105.75","1967.0","TEPEHUANES DGO., MX","FM-12","99999","V020","320,1,N,0010,1","00600,1,9,N","030000,1,N,1","+0226,1","+0158,1","10147,1",,,,,"06,1,+00600,1,07,1",,,"08,99,1,08,1,08,1,00800,1,00,1,00,1",,"01,9",,"120,M,+0240,1","240,N,+0120,1","99999,9,08202,1","5,1,002,1,-040,1",,"SYN118AAXX  19181 76373 32580 83201 10226 20158 38202 40147 55002 88800 91755 333 10240 20120 30/// 56900 59040 86720 82625;",
"76373099999","2010-09-19T21:00:00","4","25.35","-105.75","1967.0","TEPEHUANES DGO., MX","FM-12","99999","V020","140,1,N,0010,1","00600,1,9,N","030000,1,N,1","+0243,1","+0137,1","10127,1",,,,,"05,1,+00600,1,07,1",,,"08,99,1,08,1,08,1,00800,1,00,1,00,1",,"01,9",,,,"99999,9,08186,1","7,1,016,1,+014,1",,"SYN106AAXX  19211 76373 32580 81401 10243 20137 38186 40127 57016 88800 92055 333 30/// 56900 58014 85720 83625;",
"76373099999","2010-09-20T03:00:00","4","25.35","-105.75","1967.0","TEPEHUANES DGO., MX","FM-12","99999","V020","320,1,N,0010,1","00600,1,9,N","001000,1,N,1","+0192,1","+0162,1","10148,1",,,,,"06,1,+00600,1,07,1",,,"08,99,1,08,1,08,1,00800,1,00,1,00,1",,"01,9",,,,"99999,9,08203,1","2,1,029,1,+016,1",,"SYN106AAXX  20031 76373 32510 83201 10192 20162 38203 40148 52029 88800 90255 333 30/// 56900 58016 86720 82625;",
"76373099999","2010-09-20T12:00:00","4","25.35","-105.75","1967.0","TEPEHUANES DGO., MX","FM-12","99999","V020","999,9,C,0000,1","99999,9,9,N","001000,1,N,1","+0170,1","+0160,1","99999,9",,,,,,,,"08,99,1,99,9,99,9,00800,1,99,9,99,9",,,,,,,,,"SYN138AAXX  20121 76373 32510 80000 10170 20160 3 38185 40125 5//// 88800 9155 333 10272 20132 30/// 55021 20603 56900 59015 70020 86720 8 2625;",
"76373099999","2010-09-20T18:00:00","4","25.35","-105.75","1967.0","TEPEHUANES DGO., MX","FM-12","99999","V020","140,1,N,0010,1","00600,1,9,N","030000,1,N,1","+0232,1","+0156,1","10125,1",,,,,"06,1,+00600,1,07,1",,,"08,99,1,08,1,08,1,00800,1,00,1,00,1",,"01,9",,"120,M,+0252,1","240,N,+0132,1","99999,9,08185,1","0,1,001,1,-017,1",,"SYN118AAXX  20181 76373 32580 81401 10232 20156 38185 40125 50001 88800 91755 333 10252 20132 30/// 56900 59017 86720 82625;",
"76373099999","2010-09-20T21:00:00","4","25.35","-105.75","1967.0","TEPEHUANES DGO., MX","FM-12","99999","V020","140,1,N,0010,1","00750,1,9,N","030000,1,N,1","+0264,1","+0150,1","10092,1",,,,,"04,1,+00600,1,07,1",,,"06,99,1,06,1,06,1,00800,1,00,1,00,1",,"01,9",,,,"99999,9,08158,1","7,1,027,1,-028,1",,"SYN106AAXX  20211 76373 32580 61401 10264 20150 38158 40092 57027 86600 92050 333 30/// 56900 59028 84720 82625;",
"76373099999","2010-09-23T18:00:00","4","25.35","-105.75","1967.0","TEPEHUANES DGO., MX","FM-12","99999","V020","999,9,C,0000,1","22000,1,9,N","040000,1,N,1","+0251,1","+0169,1","10136,1",,,,,"04,1,+00800,1,08,1",,,"04,99,1,04,1,02,1,00800,1,00,1,00,1",,"01,9",,"120,M,+0305,1","240,N,+0122,1","99999,9,08194,1","2,1,002,1,+999,9",,"SYN112AAXX  23181 76373 32582 40000 10251 20169 38194 40136 52002 84200 91750 333 10305 20122 30/// 56900 58/// 84895;",
"76373099999","2010-09-23T21:00:00","4","25.35","-105.75","1967.0","TEPEHUANES DGO., MX","FM-12","99999","V020","100,1,N,0030,1","00800,1,9,N","050000,1,N,1","+0280,1","+0149,1","10106,1",,,,,"05,1,+00800,1,08,1",,,"05,99,1,05,1,02,1,00800,1,00,1,00,1",,"01,9",,,,"99999,9,08169,1","7,1,025,1,+999,9",,"SYN100AAXX  23211 76373 32584 51003 10280 20149 38169 40106 57025 85200 92051 333 30/// 56900 58/// 85895;",
"76373099999","2010-09-24T00:00:00","4","25.35","-105.75","1967.0","TEPEHUANES DGO., MX","FM-12","99999","V020","110,1,N,0020,1","00750,1,9,N","050000,1,N,1","+0271,1","+0155,1","10097,1","24,0000,9,1",,,,"03,1,+00800,1,08,1",,,"06,99,1,06,1,02,1,00800,1,07,1,00,1",,"01,9",,"120,M,+0305,1","180,N,+0121,1","99999,9,08162,1","7,1,007,1,+999,9",,"SYN130AAXX  24001 76373 32584 61102 10271 20155 38162 40097 57007 86270 92350 333 10305 20121 30/// 5///1 56990 58/// 70000 83895 83695;",
"76373099999","2010-09-24T03:00:00","4","25.35","-105.75","1967.0","TEPEHUANES DGO., MX","FM-12","99999","V020","250,1,N,0020,1","00750,1,9,N","015000,1,N,1","+0190,1","+0138,1","10134,1",,,,,"04,1,+00800,1,06,1",,,"06,99,1,06,1,02,1,00800,1,07,1,00,1",,"01,9",,,,"99999,9,08192,1","2,1,024,1,+999,9",,"SYN100AAXX  24031 76373 32565 62502 10190 20138 38192 40134 52024 86270 90250 333 30/// 56990 58/// 84695;",
"76373099999","2010-09-24T12:00:00","4","25.35","-105.75","1967.0","TEPEHUANES DGO., MX","FM-12","99999","V020","250,1,N,0010,1","22000,1,9,N","010000,1,N,1","+0154,1","+0150,1","10152,1","24,0000,9,1",,,,,,,"02,99,1,02,1,02,1,00800,1,00,1,00,1","0540,9","01,9",,"120,N,+0119,1","240,M,+0300,1","99999,9,08206,1",,,"SYN130AAXX  24121 76373 32560 22501 10154 20150 38206 40152 5//// 82200 91150 333 10300 20119 30100 55090 22118 56900 58/// 70000 82895;",
"76373099999","2010-09-24T15:00:00","4","25.35","-105.75","1967.0","TEPEHUANES DGO., MX","FM-12","99999","V020","999,9,C,0000,1","00800,1,9,N","030000,1,N,1","+0169,1","+0156,1","10172,1",,,,,"07,1,+00800,1,08,1",,,"07,99,1,07,1,02,1,00800,1,00,1,00,1",,"01,9",,,,"99999,9,08222,1","2,1,016,1,-026,1",,"SYN100AAXX  24151 76373 32580 70000 10169 20156 38222 40172 52016 87200 91450 333 30/// 56900 59026 87895;",
"76373099999","2010-09-24T18:00:00","4","25.35","-105.75","1967.0","TEPEHUANES DGO., MX","FM-12","99999","V020","120,1,N,0010,1","00800,1,9,N","050000,1,N,1","+0257,1","+0163,1","10170,1",,,,,"05,1,+00800,1,08,1",,,"05,99,1,05,1,02,1,00800,1,00,1,00,1",,"01,9",,"120,M,+0290,1","240,N,+0119,1","99999,9,08221,1","7,1,001,1,-027,1",,"SYN112AAXX  24181 76373 32584 51201 10257 20163 38221 40170 57001 85200 91750 333 10290 20119 30/// 56900 59027 85895;",
"76373099999","2010-09-24T21:00:00","4","25.35","-105.75","1967.0","TEPEHUANES DGO., MX","FM-12","99999","V020","090,1,N,0030,1","00800,1,9,N","050000,1,N,1","+0258,1","+0149,1","10143,1",,,,,"06,1,+00800,1,08,1",,,"06,99,1,06,1,02,1,00800,1,00,1,00,1",,"01,9",,,,"99999,9,08199,1","7,1,023,1,+030,1",,"SYN100AAXX  24211 76373 32584 60903 10258 20149 38199 40143 57023 86200 92051 333 30/// 56900 58030 86895;",
"76373099999","2010-09-25T00:00:00","4","25.35","-105.75","1967.0","TEPEHUANES DGO., MX","FM-12","99999","V020","090,1,N,0010,1","03600,1,9,N","045000,1,N,1","+0223,1","+0144,1","10141,1","24,0000,9,1",,,,,,,"07,99,1,02,1,03,1,00800,1,05,1,00,1",,,,"120,M,+0308,1","180,N,+0119,1","99999,9,08198,1","7,1,001,1,+036,1",,"SYN124AAXX  25001 76373 32583 70901 10223 20144 38198 40141 57001 82350 87270 333 10308 20119 30/// 50531 56990 58036 70000 85695;",
"76373099999","2010-09-25T03:00:00","4","25.35","-105.75","1967.0","TEPEHUANES DGO., MX","FM-12","99999","V020","999,9,C,0000,1","22000,1,9,N","010000,1,N,1","+0174,1","+0155,1","10167,1",,,,,"04,1,+00800,1,08,1",,,"04,99,1,04,1,02,1,00800,1,00,1,00,1",,"01,9",,,,"99999,9,08219,1","2,1,021,1,-027,1",,"SYN100AAXX  25031 76373 32560 40000 10174 20155 38219 40167 52021 84200 90250 333 30/// 56900 59027 84895;",
"76373099999","2010-09-25T12:00:00","4","25.35","-105.75","1967.0","TEPEHUANES DGO., MX","FM-12","99999","V020","999,9,C,0000,1","00750,1,9,N","010000,1,N,1","+0151,1","+0148,1","10162,1","24,0005,9,1",,,,,,,"06,99,1,06,1,02,1,00800,1,00,1,00,1","0438,9","01,9",,"120,N,+9999,9","240,M,+0308,1","99999,9,08214,1","9,9,999,9,+008,1",,"SYN130AAXX  25121 76373 32560 60000 10151 20148 38214 40162 5//// 86200 91150 333 10308 30112 30099 55073 21200 56900 58008 70005 86895;","Q01 -02002ATMN  "
"76373099999","2010-09-25T18:00:00","4","25.35","-105.75","1967.0","TEPEHUANES DGO., MX","FM-12","99999","V020","999,9,C,0000,1","00800,1,9,N","050000,1,N,1","+0246,1","+0157,1","10168,1",,,,,"05,1,+00800,1,08,1",,,"05,99,1,05,1,02,1,00800,1,00,1,00,1",,"01,9",,"120,M,+0310,1","240,N,+0112,1","99999,9,08220,1","7,1,006,1,-001,1",,"SYN112AAXX  25181 76373 32584 50000 10246 20157 38220 40168 57006 85200 91750 333 10310 20112 30/// 56900 59001 85895;",
"76373099999","2010-09-26T00:00:00","4","25.35","-105.75","1967.0","TEPEHUANES DGO., MX","FM-12","99999","V020","290,1,N,0010,1","00750,1,9,N","030000,1,N,1","+0230,1","+0157,1","10122,1","24,0015,9,1",,,,"04,1,+00600,1,06,1",,,"06,99,1,06,1,06,1,00800,1,00,1,00,1",,"01,9",,"120,M,+0302,1","180,N,+0112,1","99999,9,08182,1","7,1,004,1,-016,1",,"SYN130AAXX  26001 76373 32580 62901 10230 20157 38182 40122 57004 86600 92355 333 10302 20112 30/// 50461 56900 59016 70015 84620 82725;",
"76373099999","2010-09-26T03:00:00","4","25.35","-105.75","1967.0","TEPEHUANES DGO., MX","FM-12","99999","V020","290,1,N,0010,1","00600,1,9,N","001000,1,N,1","+0174,1","+0153,1","10152,1",,,,,"05,1,+00600,1,07,1",,,"08,99,1,08,1,08,1,00800,1,00,1,00,1",,"01,9",,,,"99999,9,08206,1","2,1,024,1,-013,1",,"SYN106AAXX  26031 76373 32510 82901 10174 20153 38206 40152 52024 88800 90250 333 30/// 56900 59013 85720 83625;",
"76373099999","2010-09-26T12:00:00","4","25.35","-105.75","1967.0","TEPEHUANES DGO., MX","FM-12","99999","V020","999,9,C,0000,1","01200,1,9,N","001000,1,N,1","+0160,1","+0160,1","10145,1","24,0145,9,1",,,,,,,"08,99,1,08,1,08,1,00800,1,00,1,00,1","0528,9","01,9",,"120,N,+0120,1","240,M,+0302,1","99999,9,08201,1","9,9,999,9,-013,1",,"SYN130AAXX  26121 76373 32510 80000 10160 20160 38201 40145 5//// 88800 91155 333 10302 20120 30108 55088 21530 56900 59013 70145 88720;",
"76373099999","2010-09-26T15:00:00","4","25.35","-105.75","1967.0","TEPEHUANES DGO., MX","FM-12","99999","V020","999,9,C,0000,1","00600,1,9,N","030000,1,N,1","+0164,1","+0148,1","10155,1",,,,,"08,1,+00600,1,07,1",,,"08,99,1,08,1,08,1,00800,1,00,1,00,1",,"01,9",,,,"99999,9,08209,1","2,1,008,1,-017,1",,"SYN100AAXX  26151 76373 32580 80000 10164 20148 38209 40155 52008 88800 91455 333 30/// 56900 59017 88720;",
"76373099999","2010-09-26T18:00:00","4","25.35","-105.75","1967.0","TEPEHUANES DGO., MX","FM-12","99999","V020","290,1,N,0010,1","00600,1,9,N","030000,1,N,1","+0202,1","+0158,1","10147,1",,,,,"08,1,+00600,1,07,1",,,"08,99,1,08,1,08,1,00800,1,00,1,00,1",,"01,9",,,,"99999,9,08202,1","0,1,004,1,-018,1",,"SYN100AAXX  26181 76373 32580 82901 10202 20158 38202 40147 50004 88800 91755 333 30/// 56900 59018 88720;",
"76373099999","2010-09-26T21:00:00","4","25.35","-105.75","1967.0","TEPEHUANES DGO., MX","FM-12","99999","V020","250,1,N,0010,1","00600,1,9,N","030000,1,N,1","+0192,1","+0162,1","10125,1",,,,,"08,1,+00600,1,07,1",,,"08,99,1,08,1,08,1,00800,1,00,1,00,1",,"01,9",,,,"99999,9,08184,1","7,1,022,1,-002,1",,"SYN100AAXX  26211 76373 32580 82501 10192 20162 38184 40125 57022 88800 92055 333 30/// 56900 59002 88720;",
"76373099999","2010-09-27T00:00:00","4","25.35","-105.75","1967.0","TEPEHUANES DGO., MX","FM-12","99999","V020","230,1,N,0010,1","99999,9,9,N","030000,1,N,1","+0180,1","+0167,1","10119,1","06,0180,9,1",,"6,1,06,1","2,1,06,1",,,,"08,99,1,99,9,99,9,00800,1,99,9,99,9",,,,,,"99999,9,08179,1","5,1,011,1,+999,9","61,1","SYN072AAXX  27001 76373 32580 82301 10180 20167 38179 40119 55011 60181 76162;",
"76373099999","2010-09-27T03:00:00","4","25.35","-105.75","1967.0","TEPEHUANES DGO., MX","FM-12","99999","V020","290,1,N,0010,1","00600,1,9,N","001000,1,N,1","+0154,1","+0150,1","10138,1",,,,,"08,1,+00600,1,07,1",,,"08,99,1,08,1,08,1,00800,1,00,1,00,1",,"01,9",,,,"99999,9,08195,1","2,1,016,1,-011,1",,"SYN100AAXX  27031 76373 32510 82901 10154 20150 38195 40138 52016 88800 90255 333 30/// 56900 59011 88720;",
"76373099999","2010-09-27T15:00:00","4","25.35","-105.75","1967.0","TEPEHUANES DGO., MX","FM-12","99999","V020","999,9,C,0000,1","00600,1,9,N","030000,1,N,1","+0164,1","+0158,1","10147,1",,,,,"08,1,+00600,1,07,1",,,"08,99,1,08,1,08,1,00800,1,00,1,00,1",,"01,9",,,,"99999,9,08202,1","2,1,008,1,-007,1",,"SYN100AAXX  27151 76373 32580 80000 10164 20158 38202 40147 52008 88800 91455 333 30/// 56900 59007 88720;",
"76373099999","2010-09-27T18:00:00","4","25.35","-105.75","1967.0","TEPEHUANES DGO., MX","FM-12","99999","V020","160,1,N,0010,1","00600,1,9,N","030000,1,N,1","+0208,1","+0158,1","10143,1",,,,,"06,1,+00600,1,07,1",,,"08,99,1,08,1,08,1,00800,1,00,1,00,1",,"01,9",,"120,M,+0220,1","240,N,+0112,1","99999,9,08199,1","0,1,003,1,-003,1",,"SYN118AAXX  27181 76373 32580 81601 10208 20158 38199 40143 50003 88800 91755 333 10220 20112 30/// 56900 59003 86720 82625;",
"76373099999","2010-09-27T21:00:00","4","25.35","-105.75","1967.0","TEPEHUANES DGO., MX","FM-12","99999","V020","140,1,N,0030,1","00600,1,9,N","030000,1,N,1","+0226,1","+0145,1","10125,1",,,,,"05,1,+00600,1,07,1",,,"07,99,1,07,1,07,1,00800,1,00,1,00,1",,"01,9",,,,"99999,9,08184,1","7,1,015,1,+000,1",,"SYN106AAXX  27211 76373 32580 71403 10226 20145 38184 40125 57015 87700 92055 333 30/// 56900 58000 85720 82625;",
"76373099999","2010-09-28T00:00:00","4","25.35","-105.75","1967.0","TEPEHUANES DGO., MX","FM-12","99999","V020","140,1,N,0010,1","00600,1,C,N","030000,1,N,1","+0211,1","+0126,1","10126,1","24,0215,9,1",,,,"06,1,+00600,1,07,1",,,"08,99,1,08,1,08,1,00800,1,00,1,00,1",,"01,9",,"120,M,+0260,1","180,N,+0112,1","99999,9,08186,1","5,1,002,1,+007,1",,"SYN130AAXX  28001 76373 32580 81401 10211 20126 38186 40126 55002 88800 92330 333 10260 20112 30/// 50631 56900 58007 70215 86720 82625;",
"76373099999","2010-09-28T12:00:00","4","25.35","-105.75","1967.0","TEPEHUANES DGO., MX","FM-12","99999","V020","999,9,C,0000,1","00420,1,9,N","001000,1,N,1","+0166,1","+0159,1","10159,1","24,0085,9,1",,,,,,,"08,99,1,08,1,07,1,00450,1,99,9,99,9","0198,9","01,9",,"120,N,+0134,1","240,M,+0260,1","99999,9,08212,1","9,9,999,9,+018,1",,"SYN130AAXX  28121 76373 32410 80000 10166 20159 38212 40159 5//// 887// 91150 333 10260 20134 30122 55033 21409 560// 58018 70085 88720;",
"76373099999","2010-09-28T15:00:00","4","25.35","-105.75","1967.0","TEPEHUANES DGO., MX","FM-12","99999","V020","999,9,C,0000,1","00600,1,9,N","030000,1,N,1","+0184,1","+0148,1","10169,1",,,,,"08,1,+00600,1,07,1",,,"08,99,1,08,1,07,1,00450,1,99,9,99,9",,"01,9",,,,"99999,9,08220,1","2,1,008,1,+018,1",,"SYN100AAXX  28151 76373 32480 80000 10184 20148 38220 40169 52008 887// 91450 333 30/// 560// 58018 88720;",
"76373099999","2010-09-28T18:00:00","4","25.35","-105.75","1967.0","TEPEHUANES DGO., MX","FM-12","99999","V020","120,1,N,0020,1","00600,1,9,N","030000,1,N,1","+0230,1","+0148,1","10163,1",,,,,"07,1,+00600,1,07,1",,,"07,99,1,07,1,07,1,00450,1,99,9,99,9",,"01,9",,"120,M,+0250,1","240,N,+0134,1","99999,9,08215,1","7,1,005,1,+016,1",,"SYN112AAXX  28181 76373 32480 71202 10230 20148 38215 40163 57005 877// 91750 333 10250 20134 30/// 560// 58016 87720;",
"76373099999","2010-09-28T21:00:00","4","25.35","-105.75","1967.0","TEPEHUANES DGO., MX","FM-12","99999","V020","130,1,N,0020,1","22000,1,9,N","030000,1,N,1","+0244,1","+0145,1","10135,1",,,,,"02,1,+00690,1,05,1",,,"04,99,1,02,1,05,1,00800,1,00,1,00,1",,"01,9",,,,"99999,9,08193,1","7,1,022,1,+009,1",,"SYN100AAXX  28211 76373 32580 41302 10244 20145 38193 40135 57022 82500 92050 333 30/// 56900 58009 82523;",
"76373099999","2010-09-29T00:00:00","4","25.35","-105.75","1967.0","TEPEHUANES DGO., MX","FM-12","99999","V020","240,1,N,0020,1","22000,1,9,N","030000,1,N,1","+0220,1","+0150,1","10125,1","24,0015,9,1",,,,,,,"03,99,1,99,9,04,1,00800,1,00,1,00,1",,"01,9",,"120,M,+0280,1","180,N,+0134,1","99999,9,08185,1","5,1,008,1,-001,1",,"SYN124AAXX  29001 76373 32580 32402 10220 20150 38185 40125 55008 82400 92350 333 10280 20134 30/// 50331 56900 59001 70015 82623;","Q01+000022SCOTLC"
"76373099999","2010-09-29T03:00:00","4","25.35","-105.75","1967.0","TEPEHUANES DGO., MX","FM-12","99999","V020","999,9,C,0000,1","22000,1,9,N","001000,1,N,1","+0162,1","+0137,1","10147,1",,,,,"02,1,+00690,1,06,1",,,"02,99,1,02,1,04,1,00800,1,00,1,00,1",,"01,9",,,,"99999,9,08202,1","2,1,017,1,+999,9",,"SYN100AAXX  29031 76373 32510 20000 10162 20137 38202 40147 52017 82400 90250 333 30/// 56900 58/// 82623;",
"76373099999","2010-09-29T12:00:00","4","25.35","-105.75","1967.0","TEPEHUANES DGO., MX","FM-12","99999","V020","999,9,C,0000,1","22000,1,9,N","001000,1,N,1","+0086,1","+0085,1","10147,1","24,0000,9,1",,,,"00,1,+99999,9,99,9",,,"00,99,1,00,1,00,1,99999,9,00,1,00,1","0300,9","01,9","999,+0040,9","120,N,+0058,1","240,M,+0280,1","99999,9,08202,1","9,9,999,9,-010,1",,"SYN118AAXX  29121 76373 32910 00000 10086 20085 38202 40147 5//// 91150 333 10280 20058 30040 55050 21450 59010 70000 99899;",
"76373099999","2010-09-29T15:00:00","4","25.35","-105.75","1967.0","TEPEHUANES DGO., MX","FM-12","99999","V020","999,9,C,0000,1","22000,1,9,N","030000,1,N,1","+0140,1","+0107,1","10154,1",,,,,"00,1,+99999,9,99,9",,,"00,99,1,00,1,00,1,99999,9,00,1,00,1",,"01,9",,,,"99999,9,08208,1","2,1,006,1,-012,1",,"SYN082AAXX  29151 76373 32980 00000 10140 20107 38208 40154 52006 91450 333 30/// 59012;",
"76373099999","2010-09-29T18:00:00","4","25.35","-105.75","1967.0","TEPEHUANES DGO., MX","FM-12","99999","V020","999,9,C,0000,1","22000,1,9,N","030000,1,N,1","+0236,1","+0078,1","10140,1",,,,,"01,1,+00810,1,08,1",,,"01,99,1,01,1,01,1,00800,1,00,1,00,1",,"01,9",,"120,M,+0250,1","240,N,+0058,1","99999,9,08197,1","7,1,011,1,-018,1",,"SYN112AAXX  29181 76373 32580 10000 10236 20078 38197 40140 57011 81100 91740 333 10250 20058 30/// 56300 59018 81827;",
"76373099999","2010-09-29T21:00:00","4","25.35","-105.75","1967.0","TEPEHUANES DGO., MX","FM-12","99999","V020","130,1,N,0020,1","22000,1,9,N","030000,1,N,1","+0266,1","+0036,1","10107,1",,,,,"01,1,+00810,1,08,1",,,"01,99,1,01,1,01,1,00800,1,00,1,00,1",,"01,9",,,,"99999,9,08170,1","7,1,027,1,-023,1",,"SYN100AAXX  29211 76373 32580 11302 10266 20036 38170 40107 57027 81100 92050 333 30/// 56300 59023 81827;",
"76373099999","2010-09-30T00:00:00","4","25.35","-105.75","1967.0","TEPEHUANES DGO., MX","FM-12","99999","V020","130,1,N,0020,1","22000,1,9,N","030000,1,N,1","+0242,1","+0065,1","10101,1","24,0000,9,1",,,,,,,"01,99,1,01,1,01,1,00800,1,00,1,00,1",,"01,9",,"120,M,+0288,1","180,N,+0058,1","99999,9,08165,1","6,1,005,1,-020,1",,"SYN124AAXX  30001 76373 32580 11302 10242 20065 38165 40101 56005 81100 92350 333 10288 20058 30/// 50561 56300 59020 70000 81827;",
"76373099999","2010-09-30T03:00:00","4","25.35","-105.75","1967.0","TEPEHUANES DGO., MX","FM-12","99999","V020","240,1,N,0010,1","22000,1,9,N","001000,1,N,1","+0156,1","+0093,1","10124,1",,,,,"00,1,+99999,9,99,9",,,"00,99,1,00,1,00,1,99999,9,00,1,00,1",,"01,9",,,,"99999,9,08184,1","2,1,019,1,-018,1",,"SYN082AAXX  30031 76373 32910 02401 10156 20093 38184 40124 52019 90250 333 30/// 59018;",
"76373099999","2010-09-30T12:00:00","4","25.35","-105.75","1967.0","TEPEHUANES DGO., MX","FM-12","99999","V020","999,9,C,0000,1","22000,1,9,N","001000,1,N,1","+0072,1","+0072,1","10143,1",,,,,"00,1,+99999,9,99,9",,,"00,99,1,00,1,00,1,99999,9,00,1,00,1","0630,9","01,9","999,+0030,9","120,N,+0045,1","240,M,+0280,1","99999,9,08199,1","9,9,999,9,-003,1",,"SYN112AAXX  30121 76373 32910 00000 10072 20072 38199 40143 5//// 91150 333 10280 20045 30030 55105 21933 59003 70000;",
"76373099999","2010-09-30T15:00:00","4","25.35","-105.75","1967.0","TEPEHUANES DGO., MX","FM-12","99999","V020","999,9,C,0000,1","22000,1,9,N","030000,1,N,1","+0140,1","+0107,1","10164,1",,,,,"00,1,+99999,9,99,9",,,"00,99,1,00,1,00,1,99999,9,00,1,00,1",,"01,9",,,,"99999,9,08216,1","2,1,017,1,+008,1",,"SYN082AAXX  30151 76373 32980 00000 10140 20107 38216 40164 52017 91450 333 30/// 58008;",
"76373099999","2010-09-30T18:00:00","4","25.35","-105.75","1967.0","TEPEHUANES DGO., MX","FM-12","99999","V020","999,9,C,0000,1","22000,1,9,N","030000,1,N,1","+0246,1","+0095,1","10153,1",,,,,"00,1,+99999,9,99,9",,,"00,99,1,00,1,00,1,99999,9,00,1,00,1",,"01,9",,"120,M,+0260,1","240,N,+0045,1","99999,9,08207,1","7,1,009,1,+010,1",,"SYN094AAXX  30181 76373 32980 00000 10246 20095 38207 40153 57009 91745 333 10260 20045 30/// 58010;",
"76373099999","2010-09-30T21:00:00","4","25.35","-105.75","1967.0","TEPEHUANES DGO., MX","FM-12","99999","V020","120,1,N,0020,1","22000,1,9,N","045000,1,N,1","+0274,1","+0053,1","10128,1",,,,,"00,1,+99999,9,99,9",,,"00,99,1,00,1,00,1,99999,9,00,1,00,1",,"01,9",,,,"99999,9,08187,1","7,1,024,1,+017,1",,"SYN082AAXX  30211 76373 32983 01202 10274 20053 38187 40128 57024 92050 333 30/// 58017;",
"76373099999","2010-10-01T00:00:00","4","25.35","-105.75","1967.0","TEPEHUANES DGO., MX","FM-12","99999","V020","070,1,N,0020,1","22000,1,9,N","050000,1,N,1","+0260,1","+0071,1","10131,1","24,0000,9,1",,,,"00,1,+99999,9,99,9",,,"00,99,1,00,1,00,1,99999,9,00,1,00,1",,"01,9",,"120,M,+0300,1","180,N,+0045,1","99999,9,08189,1","3,1,002,1,+024,1",,"SYN106AAXX  01001 76373 32984 00702 10260 20071 38189 40131 53002 92350 333 10300 20045 30/// 50651 58024 70000;","Q01  00002PRCP24"
"76373099999","2010-10-01T03:00:00","4","25.35","-105.75","1967.0","TEPEHUANES DGO., MX","FM-12","99999","V020","999,9,C,0000,1","22000,1,9,N","015000,1,N,1","+0184,1","+0094,1","99999,9",,,,,"00,1,+99999,9,99,9",,,"00,99,1,00,1,00,1,99999,9,00,1,00,1",,"01,9",,,,"99999,9,08211,1","7,1,021,1,+027,1",,"SYN076AAXX  01031 76373 32965 00000 10184 20094 38211 57021 80250 333 30/// 58027;",
"76373099999","2010-10-01T15:00:00","4","25.35","-105.75","1967.0","TEPEHUANES DGO., MX","FM-12","99999","V020","999,9,C,0000,1","22000,1,9,N","030000,1,N,1","+0143,1","+0097,1","10204,1",,,,,"00,1,+99999,9,99,9",,,"00,99,1,00,1,00,1,99999,9,00,1,00,1",,"01,9",,,,"99999,9,08248,1","2,1,013,1,+032,1",,"SYN082AAXX  01151 76373 32980 00000 10143 20097 38248 40204 52013 91450 333 30/// 58032;",
"76373099999","2010-10-01T18:00:00","4","25.35","-105.75","1967.0","TEPEHUANES DGO., MX","FM-12","99999","V020","090,1,N,0010,1","22000,1,9,N","045000,1,N,1","+0242,1","+0074,1","10195,1",,,,,"00,1,+99999,9,99,9",,,"00,99,1,00,1,00,1,99999,9,00,1,00,1",,"01,9",,"120,M,+0300,1","240,N,+0040,1","99999,9,08241,1","7,1,007,1,+034,1",,"SYN094AAXX  01181 76373 32983 00901 10242 20074 38241 40195 57007 91750 333 10300 20040 30/// 58034;",
"76373099999","2010-10-01T21:00:00","4","25.35","-105.75","1967.0","TEPEHUANES DGO., MX","FM-12","99999","V020","130,1,N,0040,1","22000,1,9,N","050000,1,N,1","+0270,1","+0052,1","10165,1",,,,,"00,1,+99999,9,99,9",,,"00,99,1,00,1,00,1,99999,9,00,1,00,1",,"01,9",,,,"99999,9,08217,1","7,1,024,1,+030,1",,"SYN082AAXX  01211 76373 32984 01304 10270 20052 38217 40165 57024 92050 333 30/// 58030;",
"76373099999","2010-10-02T00:00:00","4","25.35","-105.75","1967.0","TEPEHUANES DGO., MX","FM-12","99999","V020","050,1,N,0020,1","22000,1,9,N","050000,1,N,1","+0250,1","+0053,1","10167,1","24,0000,9,1",,,,"00,1,+99999,9,99,9",,,"00,99,1,00,1,00,1,99999,9,00,1,00,1",,"01,9",,"120,M,+0300,1","180,N,+0040,1","99999,9,08218,1","3,1,001,1,+029,1",,"SYN106AAXX  02001 76373 32984 00502 10250 20053 38218 40167 53001 92350 333 10300 20040 30/// 50591 58029 70000;","Q01  00002PRCP24"
"76373099999","2010-10-02T03:00:00","4","25.35","-105.75","1967.0","TEPEHUANES DGO., MX","FM-12","99999","V020","999,9,C,0000,1","22000,1,9,N","010000,1,N,1","+0165,1","+0083,1","10186,1",,,,,"00,1,+99999,9,99,9",,,"00,99,1,00,1,00,1,99999,9,00,1,00,1",,"01,9",,,,"99999,9,08234,1","2,1,016,1,+023,1",,"SYN082AAXX  02031 76373 32960 00000 10165 20083 38234 40186 52016 90250 333 30/// 58023;",
"76373099999","2010-10-02T15:00:00","4","25.35","-105.75","1967.0","TEPEHUANES DGO., MX","FM-12","99999","V020","999,9,C,0000,1","22000,1,9,N","045000,1,N,1","+0142,1","+0092,1","10209,1",,,,,"00,1,+99999,9,99,9",,,"00,99,1,00,1,00,1,99999,9,00,1,00,1",,"01,9",,,,"99999,9,08252,1","2,1,012,1,+004,1",,"SYN082AAXX  02151 76373 32983 00000 10142 20092 38252 40209 52012 91450 333 30/// 58004;",
"76373099999","2010-10-02T18:00:00","4","25.35","-105.75","1967.0","TEPEHUANES DGO., MX","FM-12","99999","V020","999,9,C,0000,1","22000,1,9,N","050000,1,N,1","+0249,1","+0085,1","10195,1",,,,,"00,1,+99999,9,99,9",,,"00,99,1,00,1,00,1,99999,9,00,1,00,1",,"01,9",,"120,M,+0300,1","240,N,+0030,1","99999,9,08241,1","7,1,011,1,+000,1",,"SYN094AAXX  02181 76373 32984 00000 10249 20085 38241 40195 57011 91750 333 10300 20030 30/// 58000;",
"76373099999","2010-10-03T00:00:00","4","25.35","-105.75","1967.0","TEPEHUANES DGO., MX","FM-12","99999","V020","110,1,N,0010,1","22000,1,9,N","030000,1,N,1","+0250,1","+0048,1","10160,1","24,0000,9,1",,,,,,,"03,99,1,03,1,03,1,00800,1,00,1,00,1",,"01,9",,"120,M,+0300,1","180,N,+0030,1","99999,9,08213,1","5,1,001,1,-005,1",,"SYN124AAXX  03001 76373 32580 31101 10250 20048 38213 40160 55001 83300 92355 333 10300 20030 30/// 50501 56900 59005 70000 84825;",
"76373099999","2010-10-03T03:00:00","4","25.35","-105.75","1967.0","TEPEHUANES DGO., MX","FM-12","99999","V020","999,9,C,0000,1","22000,1,9,N","001000,1,N,1","+0182,1","+0098,1","10177,1",,,,,"04,1,+00750,1,08,1",,,"04,99,1,04,1,04,1,00800,1,00,1,00,1",,"01,9",,,,"99999,9,08226,1","2,1,013,1,-008,1",,"SYN100AAXX  03031 76373 32510 40000 10182 20098 38226 40177 52013 84400 90255 333 30/// 56900 59008 84825;",
"76373099999","2010-10-03T12:00:00","4","25.35","-105.75","1967.0","TEPEHUANES DGO., MX","FM-12","99999","V020","999,9,C,0000,1","22000,1,9,N","001000,1,N,1","+0070,1","+0058,1","10219,1",,,,,"00,1,+99999,9,99,9",,,"00,99,1,00,1,00,1,99999,9,00,1,00,1","0612,9","01,9","999,+0022,9","120,N,+0035,1","240,M,+0300,1","99999,9,08261,1","9,9,999,9,+021,1",,"SYN118AAXX  03121 76373 32510 00000 10070 20058 38261 40219 5//// 91155 333 10300 20035 30022 55102 22147 56900 58021 70000;",
"76373099999","2010-10-03T18:00:00","4","25.35","-105.75","1967.0","TEPEHUANES DGO., MX","FM-12","99999","V020","070,1,N,0010,1","22000,1,9,N","030000,1,N,1","+0258,1","+0088,1","10199,1",,,,,"01,1,+00750,1,08,1",,,"01,99,1,01,1,01,1,00800,1,00,1,00,1",,"01,9",,"120,M,+0270,1","240,N,+0035,1","99999,9,08245,1","7,1,012,1,+004,1",,"SYN112AAXX  03181 76373 32580 10701 10258 20088 38245 40199 57012 81100 91755 333 10270 20035 30/// 56900 58004 81825;",
"76373099999","2010-10-03T21:00:00","4","25.35","-105.75","1967.0","TEPEHUANES DGO., MX","FM-12","99999","V020","140,1,N,0050,1","22000,1,9,N","030000,1,N,1","+0266,1","+0065,1","10167,1",,,,,"02,1,+00750,1,08,1",,,"02,99,1,02,1,02,1,00800,1,00,1,00,1",,"01,9",,,,"99999,9,08219,1","7,1,026,1,+006,1",,"SYN100AAXX  03211 76373 32580 21405 10266 20065 38219 40167 57026 82200 92055 333 30/// 56900 58006 82825;",
"76373099999","2010-10-04T00:00:00","4","25.35","-105.75","1967.0","TEPEHUANES DGO., MX","FM-12","99999","V020","110,1,N,0020,1","22000,1,9,N","030000,1,N,1","+0242,1","+0060,1","10168,1","24,0000,9,1",,,,,,,"03,99,1,03,1,03,1,00800,1,00,1,00,1",,"01,9",,"120,M,+0248,1","180,N,+0035,1","99999,9,08219,1","0,1,000,1,+006,1",,"SYN124AAXX  04001 76373 32580 31102 10242 20060 38219 40168 50000 83300 92355 333 10248 20035 30/// 50581 56900 58006 70000 83825;",
"76373099999","2010-10-04T03:00:00","4","25.35","-105.75","1967.0","TEPEHUANES DGO., MX","FM-12","99999","V020","230,1,N,0010,1","22000,1,9,N","001000,1,N,1","+0168,1","+0095,1","10180,1",,,,,"00,1,+99999,9,99,9",,,"00,99,1,00,1,00,1,99999,9,00,1,00,1",,"01,9",,,,"99999,9,08229,1","2,1,011,1,+003,1",,"SYN082AAXX  04031 76373 32910 02301 10168 20095 38229 40180 52011 90245 333 30/// 58003;",
"76373099999","2010-10-04T15:00:00","4","25.35","-105.75","1967.0","TEPEHUANES DGO., MX","FM-12","99999","V020","999,9,C,0000,1","22000,1,9,N","030000,1,N,1","+0124,1","+0071,1","10218,1",,,,,"00,1,+99999,9,99,9",,,"00,99,1,00,1,00,1,99999,9,00,1,00,1",,"01,9",,,,"99999,9,08260,1","2,1,011,1,+003,1",,"SYN088AAXX  04151 76373 32580 00000 10124 20071 38260 40218 52011 91455 333 30/// 56900 58003;",
"76373099999","2010-10-04T18:00:00","4","25.35","-105.75","1967.0","TEPEHUANES DGO., MX","FM-12","99999","V020","110,1,N,0010,1","22000,1,9,N","030000,1,N,1","+0236,1","+0060,1","10204,1",,,,,"00,1,+99999,9,99,9",,,"00,99,1,00,1,00,1,99999,9,00,1,00,1",,"01,9",,"120,M,+0250,1","240,N,+0020,1","99999,9,08248,1","7,1,012,1,+003,1",,"SYN094AAXX  04181 76373 32980 01101 10236 20060 38248 40204 57012 91755 333 10250 20020 30/// 58003;",
"76373099999","2010-10-04T21:00:00","4","25.35","-105.75","1967.0","TEPEHUANES DGO., MX","FM-12","99999","V020","140,1,N,0030,1","22000,1,9,N","030000,1,N,1","+0268,1","+0025,1","10171,1",,,,,"02,1,+00750,1,08,1",,,"02,99,1,02,1,02,1,00800,1,00,1,00,1",,"01,9",,,,"99999,9,08222,1","7,1,026,1,+003,1",,"SYN100AAXX  04211 76373 32580 21403 10268 20025 38222 40171 57026 82200 92040 333 30/// 56900 58003 82825;",
"76373099999","2010-10-05T00:00:00","4","25.35","-105.75","1967.0","TEPEHUANES DGO., MX","FM-12","99999","V020","120,1,N,0020,1","09000,1,9,N","030000,1,N,1","+0234,1","+0043,1","10168,1","24,0000,9,1",,,,"01,1,+00810,1,08,1",,,"06,99,1,01,1,02,1,00800,1,00,1,08,1",,"01,9",,"120,M,+0295,1","180,N,+0020,1","99999,9,08219,1","9,9,999,9,+000,1",,"SYN130AAXX  05001 76373 32580 61202 10234 20043 38219 40168 5//// 81208 92350 333 10295 20020 30/// 50401 56109 58000 70000 81827 85867;",
"76373099999","2010-10-05T12:00:00","4","25.35","-105.75","1967.0","TEPEHUANES DGO., MX","FM-12","99999","V020","999,9,C,0000,1","22000,1,9,N","001000,1,N,1","+0058,1","+0054,1","10203,1",,,,,"00,1,+99999,9,99,9",,,"00,99,1,00,1,00,1,99999,9,00,1,00,1","0678,9","01,9","999,+0018,9","120,N,+0030,1","240,M,+0295,1","99999,9,08248,1","9,9,999,9,-002,1",,"SYN112AAXX  05121 76373 32910 00000 10058 20054 38248 40203 5//// 91150 333 10295 20030 30018 55113 22158 59002 70000;",
"76373099999","2010-10-05T15:00:00","4","25.35","-105.75","1967.0","TEPEHUANES DGO., MX","FM-12","99999","V020","999,9,C,0000,1","22000,1,9,N","030000,1,N,1","+0120,1","+0076,1","10221,1",,,,,"00,1,+99999,9,99,9",,,"00,99,1,00,1,00,1,99999,9,00,1,00,1",,"01,9",,,,"99999,9,08263,1","2,1,015,1,+003,1",,"SYN082AAXX  05151 76373 32980 00000 10120 20076 38263 40221 52015 91450 333 30/// 58003;",
"76373099999","2010-10-05T18:00:00","4","25.35","-105.75","1967.0","TEPEHUANES DGO., MX","FM-12","99999","V020","120,1,N,0020,1","22000,1,9,N","030000,1,N,1","+0240,1","+0053,1","10210,1",,,,,"01,1,+00810,1,08,1",,,"01,99,1,01,1,08,1,00800,1,00,1,00,1",,"01,9",,"120,M,+0261,1","240,N,+0030,1","99999,9,08253,1","7,1,010,1,+005,1",,"SYN112AAXX  05181 76373 32580 11202 10240 20053 38253 40210 57010 81800 91750 333 10261 20030 30/// 56900 58005 81827;",
"76373099999","2010-10-05T21:00:00","4","25.35","-105.75","1967.0","TEPEHUANES DGO., MX","FM-12","99999","V020","130,1,N,0030,1","22000,1,9,N","030000,1,N,1","+0263,1","+0040,1","10180,1",,,,,"02,1,+00810,1,08,1",,,"02,99,1,02,1,08,1,00800,1,00,1,00,1",,"01,9",,,,"99999,9,08229,1","7,1,024,1,+006,1",,"SYN100AAXX  05211 76373 32580 21303 10263 20040 38229 40180 57024 82800 92050 333 30/// 56900 58006 82827;",
"76373099999","2010-10-06T00:00:00","4","25.35","-105.75","1967.0","TEPEHUANES DGO., MX","FM-12","99999","V020","120,1,N,0030,1","22000,1,9,N","030000,1,N,1","+0239,1","+0053,1","10171,1","24,0000,9,1",,,,,,,"02,99,1,02,1,08,1,00800,1,00,1,00,1",,"01,9",,"120,M,+0292,1","180,N,+0030,1","99999,9,08222,1","7,1,008,1,+003,1",,"SYN124AAXX  06001 76373 32580 21203 10239 20053 38222 40171 57008 82800 92350 333 10292 20030 30/// 50651 56900 58003 70000 82827;",
"76373099999","2010-10-06T03:00:00","4","25.35","-105.75","1967.0","TEPEHUANES DGO., MX","FM-12","99999","V020","999,9,C,0000,1","22000,1,9,N","001000,1,N,1","+0162,1","+0054,1","10191,1",,,,,"01,1,+00810,1,08,1",,,"01,99,1,01,1,02,1,00800,1,00,1,00,1",,"01,9",,,,"99999,9,08238,1","2,1,016,1,+999,9",,"SYN100AAXX  06031 76373 32510 10000 10162 20054 38238 40191 52016 81200 90250 333 30/// 56900 58/// 81827;",
"76373099999","2010-10-06T15:00:00","4","25.35","-105.75","1967.0","TEPEHUANES DGO., MX","FM-12","99999","V020","999,9,C,0000,1","22000,1,9,N","030000,1,N,1","+0127,1","+0076,1","10228,1",,,,,"00,1,+99999,9,99,9",,,"00,99,1,00,1,00,1,99999,9,00,1,00,1",,"01,9",,,,"99999,9,08268,1","2,1,015,1,+005,1",,"SYN082AAXX  06151 76373 32980 00000 10127 20076 38268 40228 52015 91450 333 30/// 58005;",
"76373099999","2010-10-06T18:00:00","4","25.35","-105.75","1967.0","TEPEHUANES DGO., MX","FM-12","99999","V020","120,1,N,0030,1","22000,1,9,N","030000,1,N,1","+0240,1","+0053,1","10217,1",,,,,,,,"01,99,1,01,1,02,1,00800,1,00,1,00,1",,"01,9",,"120,M,+0260,1","240,N,+0028,1","99999,9,08259,1","7,1,009,1,+006,1",,"SYN112AAXX  06181 76373 32580 11203 10240 20053 38259 40217 57009 81200 91750 333 10260 20028 30/// 26900 58006 81827;",
"76373099999","2010-10-06T21:00:00","4","25.35","-105.75","1967.0","TEPEHUANES DGO., MX","FM-12","99999","V020","120,1,N,0030,1","22000,1,9,N","030000,1,N,1","+0264,1","+0040,1","10184,1",,,,,"02,1,+00810,1,08,1",,,"02,99,1,02,1,02,1,00800,1,00,1,00,1",,"01,9",,,,"99999,9,08233,1","7,1,026,1,+009,1",,"SYN100AAXX  06211 76373 32580 21203 10264 20040 38233 40184 57026 82200 92050 333 30/// 56900 58009 82827;",
"76373099999","2010-10-07T00:00:00","4","25.35","-105.75","1967.0","TEPEHUANES DGO., MX","FM-12","99999","V020","140,1,N,0020,1","22000,1,9,N","030000,1,N,1","+0235,1","+0051,1","10178,1","24,0000,9,1",,,,,,,"02,99,1,02,1,02,1,00800,1,00,1,00,1",,"01,9",,"120,M,+0288,1","180,N,+0028,1","99999,9,08228,1","5,1,005,1,+006,1",,"SYN124AAXX  07001 76373 32580 21402 10235 20051 38228 40178 55005 82200 92350 333 10288 20028 30/// 50481 56900 58006 70000 82827;",
"76373099999","2010-10-07T03:00:00","4","25.35","-105.75","1967.0","TEPEHUANES DGO., MX","FM-12","99999","V020","120,1,N,0010,1","22000,1,9,N","030000,1,N,1","+0164,1","+0065,1","10197,1",,,,,"01,1,+00810,1,08,1",,,"01,99,1,01,1,02,1,00800,1,00,1,00,1",,"01,9",,,,"99999,9,08243,1","2,1,015,1,+005,1",,"SYN100AAXX  07031 76373 32580 11201 10164 20065 38243 40197 52015 81200 90245 333 30/// 56900 58005 81827;",
"76373099999","2010-10-07T12:00:00","4","25.35","-105.75","1967.0","TEPEHUANES DGO., MX","FM-12","99999","V020","999,9,C,0000,1","22000,1,9,N","001000,1,N,1","+0058,1","+0050,1","10213,1",,,,,"00,1,+99999,9,99,9",,,"00,99,1,00,1,00,1,99999,9,00,1,00,1","0624,9","01,9","999,+0020,9","120,N,+0028,1","240,M,+0288,1","99999,9,08256,1","9,9,999,9,+003,1",,"SYN112AAXX  07121 76373 32910 00000 10058 20050 38256 40213 5//// 91150 333 10288 20028 30020 55104 22303 58003 70000;",
"76373099999","2010-10-07T15:00:00","4","25.35","-105.75","1967.0","TEPEHUANES DGO., MX","FM-12","99999","V020","999,9,C,0000,1","22000,1,9,N","045000,1,N,1","+0127,1","+0075,1","10228,1",,,,,"00,1,+99999,9,99,9",,,"00,99,1,00,1,00,1,99999,9,00,1,00,1",,"01,9",,,,"99999,9,08268,1","2,1,012,1,+000,1",,"SYN082AAXX  07151 76373 32983 00000 10127 20075 38268 40228 52012 91450 333 30/// 58000;",
"76373099999","2010-10-07T18:00:00","4","25.35","-105.75","1967.0","TEPEHUANES DGO., MX","FM-12","99999","V020","120,1,N,0020,1","22000,1,9,N","045000,1,N,1","+0229,1","+0064,1","10209,1",,,,,"00,1,+99999,9,99,9",,,"00,99,1,00,1,00,1,99999,9,00,1,00,1",,"01,9",,"120,M,+0250,1","240,N,+0028,1","99999,9,08253,1","7,1,015,1,-006,1",,"SYN094AAXX  07181 76373 32983 01202 10229 20064 38253 40209 57015 91750 333 10250 20028 30/// 59006;",
"76373099999","2010-10-07T21:00:00","4","25.35","-105.75","1967.0","TEPEHUANES DGO., MX","FM-12","99999","V020","140,1,N,0020,1","22000,1,9,N","050000,1,N,1","+0263,1","+0018,1","10173,1",,,,,"01,1,+00800,1,08,1",,,"01,99,1,01,1,02,1,01250,1,00,1,00,1",,"01,9",,,,"99999,9,08224,1","7,1,019,1,-007,1",,"SYN100AAXX  07211 76373 32684 11402 10263 20018 38224 40173 57019 81200 92050 333 30/// 56900 59007 81895;",
"76373099999","2010-10-08T00:00:00","4","25.35","-105.75","1967.0","TEPEHUANES DGO., MX","FM-12","99999","V020","130,1,N,0020,1","22000,1,9,N","050000,1,N,1","+0236,1","+0042,1","10165,1","24,0000,9,1",,,,"00,1,+99999,9,99,9",,,"00,99,1,00,1,00,1,99999,9,00,1,00,1",,"01,9",,"120,M,+0292,1","180,N,+0028,1","99999,9,08217,1","7,1,027,1,-009,1",,"SYN106AAXX  08001 76373 32984 01302 10236 20042 38217 40165 57027 92340 333 10292 20028 30/// 50571 59009 70000;","Q01  00002PRCP24"
"76373099999","2010-10-08T03:00:00","4","25.35","-105.75","1967.0","TEPEHUANES DGO., MX","FM-12","99999","V020","999,9,C,0000,1","22000,1,9,N","010000,1,N,1","+0148,1","+0065,1","10185,1",,,,,"00,1,+99999,9,99,9",,,"00,99,1,00,1,00,1,99999,9,00,1,00,1",,"01,9",,,,"99999,9,08233,1","2,1,016,1,-010,1",,"SYN082AAXX  08031 76373 32960 00000 10148 20065 38233 40185 52016 90250 333 30/// 59010;",
"76373099999","2010-10-08T15:00:00","4","25.35","-105.75","1967.0","TEPEHUANES DGO., MX","FM-12","99999","V020","999,9,C,0000,1","22000,1,9,N","040000,1,N,1","+0119,1","+0070,1","10214,1",,,,,"00,1,+99999,9,99,9",,,"00,99,1,00,1,00,1,99999,9,00,1,00,1",,"01,9",,,,"99999,9,08256,1","2,1,016,1,-012,1",,"SYN082AAXX  08151 76373 32982 00000 10119 20070 38256 40214 52016 91450 333 30/// 59012;",
"76373099999","2010-10-08T18:00:00","4","25.35","-105.75","1967.0","TEPEHUANES DGO., MX","FM-12","99999","V020","090,1,N,0020,1","22000,1,9,N","045000,1,N,1","+0238,1","+0053,1","10196,1",,,,,"00,1,+99999,9,99,9",,,"00,99,1,00,1,00,1,99999,9,00,1,00,1",,"01,9",,"120,M,+0293,1","240,N,+0011,1","99999,9,08242,1","7,1,014,1,-018,1",,"SYN094AAXX  08181 76373 32983 00902 10238 20053 38242 40196 57014 91750 333 10293 20011 30/// 59018;",
"76373099999","2010-10-08T21:00:00","4","25.35","-105.75","1967.0","TEPEHUANES DGO., MX","FM-12","99999","V020","160,1,N,0010,1","22000,1,9,N","050000,1,N,1","+0270,1","+0049,1","10162,1",,,,,"01,1,+00800,1,08,1",,,"01,99,1,01,1,08,1,01250,1,00,1,00,1",,"01,9",,,,"99999,9,08214,1","7,1,028,1,-010,1",,"SYN100AAXX  08211 76373 32684 11601 10270 20049 38214 40162 57028 81800 92050 333 30/// 56900 59010 81895;",
"76373099999","2010-10-09T00:00:00","4","25.35","-105.75","1967.0","TEPEHUANES DGO., MX","FM-12","99999","V020","130,1,N,0030,1","22000,1,9,N","050000,1,N,1","+0237,1","+0059,1","10162,1","24,0000,9,1",,,,,,,"01,99,1,01,1,02,1,01250,1,00,1,00,1",,"01,9",,"120,M,+0300,1","180,N,+0011,1","99999,9,08214,1","4,1,000,1,-006,1",,"SYN124AAXX  09001 76373 32684 11303 10237 20059 38214 40162 54000 81200 92350 333 10300 20011 30/// 50521 56900 59006 70000 81895;",
"76373099999","2010-10-09T03:00:00","4","25.35","-105.75","1967.0","TEPEHUANES DGO., MX","FM-12","99999","V020","999,9,C,0000,1","22000,1,9,N","010000,1,N,1","+0152,1","+0074,1","10185,1",,,,,"00,1,+99999,9,99,9",,,"00,99,1,00,1,00,1,99999,9,00,1,00,1",,"01,9",,,,"99999,9,08233,1","2,1,011,1,+000,1",,"SYN082AAXX  09031 76373 32960 00000 10152 20074 38233 40185 52011 90250 333 30/// 58000;",
"76373099999","2010-10-09T15:00:00","4","25.35","-105.75","1967.0","TEPEHUANES DGO., MX","FM-12","99999","V020","999,9,C,0000,1","22000,1,9,N","045000,1,N,1","+0111,1","+0068,1","10211,1",,,,,"00,1,+99999,9,99,9",,,"00,99,1,00,1,00,1,99999,9,00,1,00,1",,"01,9",,,,"99999,9,08254,1","2,1,010,1,-002,1",,"SYN082AAXX  09151 76373 32983 00000 10111 20068 38254 40211 52010 91450 333 30/// 59002;",
"76373099999","2010-10-09T18:00:00","4","25.35","-105.75","1967.0","TEPEHUANES DGO., MX","FM-12","99999","V020","999,9,C,0000,1","22000,1,9,N","045000,1,N,1","+0237,1","+0054,1","10168,1",,,,,"00,1,+99999,9,99,9",,,"00,99,1,00,1,00,1,99999,9,00,1,00,1",,"01,9",,"120,M,+0250,1","240,N,+0019,1","99999,9,08220,1","7,1,034,1,-022,1",,"SYN094AAXX  09181 76373 32983 00000 10237 20054 38220 40168 57034 91750 333 10250 20019 30/// 59022;",
"76373099999","2010-10-09T21:00:00","4","25.35","-105.75","1967.0","TEPEHUANES DGO., MX","FM-12","99999","V020","180,1,N,0010,1","22000,1,9,N","050000,1,N,1","+0266,1","+0051,1","10168,1",,,,,"01,1,+00800,1,08,1",,,"01,99,1,01,1,02,1,01250,1,00,1,00,1",,"01,9",,,,"99999,9,08220,1","4,1,000,1,+006,1",,"SYN100AAXX  09211 76373 32684 11801 10266 20051 38220 40168 54000 81200 92050 333 30/// 56900 58006 81895;",
"76373099999","2010-10-10T00:00:00","4","25.35","-105.75","1967.0","TEPEHUANES DGO., MX","FM-12","99999","V020","140,1,N,0020,1","22000,1,9,N","030000,1,N,1","+0240,1","+0076,1","10155,1","24,0000,9,1",,,,,,,"01,99,1,01,1,01,1,00800,1,00,1,00,1",,"01,9",,"120,M,+0292,1","180,N,+0019,1","99999,9,08209,1","7,1,011,1,-005,1",,"SYN124AAXX  10001 76373 32580 11402 10240 20076 38209 40155 57011 81100 92350 333 10292 20019 30/// 50501 56900 59005 70000 81825;",
"76373099999","2010-10-10T03:00:00","4","25.35","-105.75","1967.0","TEPEHUANES DGO., MX","FM-12","99999","V020","140,1,N,0020,1","22000,1,9,N","001000,1,N,1","+0152,1","+0065,1","10172,1",,,,,"01,1,+00750,1,08,1",,,"01,99,1,01,1,01,1,00800,1,00,1,00,1",,"01,9",,,,"99999,9,08223,1","2,1,014,1,-011,1",,"SYN100AAXX  10031 76373 32510 11402 10152 20065 38223 40172 52014 81100 90255 333 30/// 56900 59011 81825;",
"76373099999","2010-10-10T12:00:00","4","25.35","-105.75","1967.0","TEPEHUANES DGO., MX","FM-12","99999","V020","999,9,C,0000,1","22000,1,9,N","001000,1,N,1","+0052,1","+0047,1","10175,1",,,,,"00,1,+99999,9,99,9",,,"00,99,1,00,1,00,1,99999,9,00,1,00,1","0642,9","09,9","999,-0010,9","120,N,+0010,1","240,M,+0292,1","99999,9,08225,1","9,9,999,9,-020,1",,"SYN112AAXX  10121 76373 32910 00000 10052 20047 38225 40175 5//// 91145 333 10292 20010 31010 55107 22303 59020 70000;",
"76373099999","2010-10-10T18:00:00","4","25.35","-105.75","1967.0","TEPEHUANES DGO., MX","FM-12","99999","V020","140,1,N,0010,1","22000,1,9,N","030000,1,N,1","+0248,1","+0074,1","10155,1",,,,,"03,1,+00750,1,08,1",,,"03,99,1,03,1,03,1,00800,1,00,1,00,1",,"01,9",,"120,M,+0270,1","240,N,+0010,1","99999,9,08209,1","7,1,024,1,-011,1",,"SYN112AAXX  10181 76373 32580 31401 10248 20074 38209 40155 57024 83300 91755 333 10270 20010 30/// 56900 59011 83825;",
"76373099999","2010-10-10T21:00:00","4","25.35","-105.75","1967.0","TEPEHUANES DGO., MX","FM-12","99999","V020","140,1,N,0010,1","22000,1,9,N","030000,1,N,1","+0272,1","+0055,1","10119,1",,,,,"04,1,+00600,1,08,1",,,"04,99,1,04,1,04,1,00800,1,00,1,00,1",,"01,9",,,,"99999,9,08180,1","7,1,029,1,-020,1",,"SYN100AAXX  10211 76373 32580 41401 10272 20055 38180 40119 57029 84400 92055 333 30/// 56900 59020 84820;",
"76373099999","2010-10-11T00:00:00","4","25.35","-105.75","1967.0","TEPEHUANES DGO., MX","FM-12","99999","V020","250,1,N,0010,1","00750,1,9,N","030000,1,N,1","+0200,1","+0072,1","10119,1","24,0000,9,1",,,,"02,1,+00600,1,07,1",,,"06,99,1,06,1,06,1,00800,1,00,1,00,1",,"01,9",,"120,M,+0306,1","180,N,+0010,1","99999,9,08180,1","0,1,000,1,-029,1",,"SYN130AAXX  11001 76373 32580 62501 10200 20072 38180 40119 50000 86600 92350 333 10306 20010 30/// 50451 56900 59029 70000 82720 84825;",
"76373099999","2010-10-11T03:00:00","4","25.35","-105.75","1967.0","TEPEHUANES DGO., MX","FM-12","99999","V020","999,9,C,0000,1","22000,1,9,N","001000,1,N,1","+0162,1","+0081,1","10139,1",,,,,"01,1,+00750,1,08,1",,,"01,99,1,01,1,01,1,00800,1,00,1,00,1",,"01,9",,,,"99999,9,08196,1","2,1,016,1,-027,1",,"SYN100AAXX  11031 76373 32510 10000 10162 20081 38196 40139 52016 81100 90230 333 30/// 56900 59027 81825;",
"76373099999","2010-10-11T15:00:00","4","25.35","-105.75","1967.0","TEPEHUANES DGO., MX","FM-12","99999","V020","290,1,N,0010,1","22000,1,9,N","030000,1,N,1","+0120,1","+0089,1","10172,1",,,,,"00,1,+99999,9,99,9",,,"00,99,1,00,1,00,1,99999,9,00,1,00,1",,"01,9",,,,"99999,9,08222,1","2,1,010,1,-011,1",,"SYN082AAXX  11151 76373 32980 02901 10120 20089 38222 40172 52010 91455 333 30/// 59011;",
"76373099999","2010-10-11T18:00:00","4","25.35","-105.75","1967.0","TEPEHUANES DGO., MX","FM-12","99999","V020","320,1,N,0010,1","22000,1,9,N","030000,1,N,1","+0242,1","+0056,1","10158,1",,,,,"00,1,+99999,9,99,9",,,"00,99,1,00,1,00,1,99999,9,00,1,00,1",,"01,9",,"120,M,+0250,1","240,N,+0025,1","99999,9,08211,1","7,1,011,1,-002,1",,"SYN094AAXX  11181 76373 32980 03201 10242 20056 38211 40158 57011 91755 333 10250 20025 30/// 59002;",
"76373099999","2010-10-12T00:00:00","4","25.35","-105.75","1967.0","TEPEHUANES DGO., MX","FM-12","99999","V020","240,1,N,0030,1","22000,1,9,N","030000,1,N,1","+0252,1","+0042,1","10128,1","24,0000,9,1",,,,,,,"02,99,1,02,1,02,1,00800,1,00,1,00,1",,"01,9",,"120,M,+0300,1","180,N,+0025,1","99999,9,08187,1","2,1,005,1,+007,1",,"SYN124AAXX  12001 76373 32580 22403 10252 20042 38187 40128 52005 82200 92330 333 10300 20025 30/// 50441 56900 58007 70000 82820;",
"76373099999","2010-10-12T15:00:00","4","25.35","-105.75","1967.0","TEPEHUANES DGO., MX","FM-12","99999","V020","999,9,C,0000,1","22000,1,9,N","030000,1,N,1","+0114,1","+0065,1","10185,1",,,,,"01,1,+00810,1,08,1",,,"01,99,1,01,1,02,1,00800,1,00,1,00,1",,"01,9",,,,"99999,9,08233,1","2,1,012,1,+011,1",,"SYN100AAXX  12151 76373 32580 10000 10114 20065 38233 40185 52012 81200 91450 333 30/// 56700 58011 81827;",
"76373099999","2010-10-12T18:00:00","4","25.35","-105.75","1967.0","TEPEHUANES DGO., MX","FM-12","99999","V020","140,1,N,0010,1","22000,1,9,N","030000,1,N,1","+0235,1","+0064,1","10180,1",,,,,"02,1,+02100,1,03,1",,,"03,99,1,02,1,00,1,01750,1,06,1,04,1",,"01,9",,"120,M,+0250,1","240,N,+0018,1","99999,9,08229,1","7,1,004,1,+018,1",,"SYN112AAXX  12181 76373 32780 31401 10235 20064 38229 40180 57004 82064 91735 333 10250 20018 30/// 56099 58018 82357;",
"76373099999","2010-10-12T21:00:00","4","25.35","-105.75","1967.0","TEPEHUANES DGO., MX","FM-12","99999","V020","120,1,N,0020,1","22000,1,9,N","030000,1,N,1","+0277,1","+0058,1","10147,1",,,,,"02,1,+00750,1,06,1",,,"04,99,1,02,1,04,1,00800,1,00,1,04,1",,"01,9",,,,"99999,9,08202,1","7,1,027,1,+020,1",,"SYN100AAXX  12211 76373 32580 41202 10277 20058 38202 40147 57027 82404 92050 333 30/// 56909 58020 82625;",
"76373099999","2010-10-13T00:00:00","4","25.35","-105.75","1967.0","TEPEHUANES DGO., MX","FM-12","99999","V020","220,1,N,0010,1","00420,1,9,N","030000,1,N,1","+0231,1","+0069,1","10148,1","24,0000,9,1",,,,,,,"08,99,1,08,1,07,1,00450,1,00,1,00,1",,"01,9",,"120,M,+0306,1","180,N,+0018,1","99999,9,08203,1","0,1,001,1,+016,1",,"SYN124AAXX  13001 76373 32480 82201 10231 20069 38203 40148 50001 88700 92350 333 10306 20018 30/// 50511 56900 58016 70000 87720;",
"76373099999","2010-10-13T03:00:00","4","25.35","-105.75","1967.0","TEPEHUANES DGO., MX","FM-12","99999","V020","210,1,N,0020,1","00600,1,9,N","001000,1,N,1","+0181,1","+0090,1","10173,1",,,,,"07,1,+00600,1,07,1",,,"07,99,1,07,1,07,1,00450,1,99,9,99,9",,"01,9",,,,"99999,9,08224,1","2,1,021,1,+999,9",,"SYN100AAXX  13031 76373 32410 72102 10181 20090 38224 40173 52021 877// 90250 333 30/// 569// 58/// 87720;",
"76373099999","2010-10-13T12:00:00","4","25.35","-105.75","1967.0","TEPEHUANES DGO., MX","FM-12","99999","V020","260,1,N,0020,1","22000,1,9,N","001000,1,N,1","+0124,1","+0106,1","10194,1","24,0000,9,1",,,,,,,"04,99,1,04,1,07,1,00450,1,99,9,99,9","0516,9","01,9",,"120,N,+0092,1","240,M,+0306,1","99999,9,08241,1","9,9,999,9,+020,1",,"SYN130AAXX  13121 76373 32410 42602 10124 20106 38241 40194 5//// 847// 91150 333 10306 20092 30076 55086 22110 569// 58020 70000 84720;",
"76373099999","2010-10-13T15:00:00","4","25.35","-105.75","1967.0","TEPEHUANES DGO., MX","FM-12","99999","V020","999,9,C,0000,1","22000,1,9,N","030000,1,N,1","+0158,1","+0106,1","10215,1",,,,,"02,1,+00810,1,08,1",,,"03,99,1,02,1,08,1,00800,1,00,1,04,1",,"01,9",,,,"99999,9,08257,1","2,1,016,1,+024,1",,"SYN100AAXX  13151 76373 32580 30000 10158 20106 38257 40215 52016 82804 91450 333 30/// 56909 58024 82827;",
"76373099999","2010-10-13T18:00:00","4","25.35","-105.75","1967.0","TEPEHUANES DGO., MX","FM-12","99999","V020","060,1,N,0030,1","99999,9,9,N","030000,1,N,1","+0224,1","+0092,1","10220,1",,,,,"03,1,+00600,1,06,1",,,"05,99,1,03,1,04,1,00450,1,00,1,00,1",,"01,9",,"120,M,+0225,1","240,N,+0092,1","99999,9,08261,1","0,1,004,1,+032,1",,"SYN112AAXX  13181 76373 32480 50603 10224 20092 38261 40220 50004 83400 91450 333 10225 20092 30/// 56900 58032 83620;",
"76373099999","2010-10-14T00:00:00","4","25.35","-105.75","1967.0","TEPEHUANES DGO., MX","FM-12","99999","V020","080,1,N,0030,1","00420,1,9,N","030000,1,N,1","+0210,1","+0080,1","10200,1","24,0000,9,1",,,,,,,"08,99,1,08,1,07,1,00450,1,99,9,99,9",,"01,9",,"120,M,+0252,1","180,N,+0092,1","99999,9,08245,1","9,9,999,9,+039,1",,"SYN124AAXX  14001 76373 32480 80803 10210 20080 38245 40200 5//// 887// 92350 333 10252 20092 30/// 50421 569// 58039 70000 88720;",
"76373099999","2010-10-14T03:00:00","4","25.35","-105.75","1967.0","TEPEHUANES DGO., MX","FM-12","99999","V020","999,9,C,0000,1","00600,1,9,N","001000,1,N,1","+0163,1","+0110,1","10217,1",,,,,"08,1,+00600,1,07,1",,,"08,99,1,08,1,07,1,00450,1,99,9,99,9",,"01,9",,,,"99999,9,08259,1","2,1,010,1,+035,1",,"SYN100AAXX  14031 76373 32410 80000 10163 20110 38259 40217 52010 887// 90250 333 30/// 569// 58035 88720;",
"76373099999","2010-10-14T18:00:00","4","25.35","-105.75","1967.0","TEPEHUANES DGO., MX","FM-12","99999","V020","120,1,N,0020,1","01200,1,9,N","045000,1,N,1","+0201,1","+0089,1","10157,1",,,,,"04,1,+00800,1,08,1",,,"06,99,1,06,1,02,1,01250,1,06,1,00,1",,"01,9",,"120,M,+0253,1","240,N,+0046,1","99999,9,08210,1","7,1,060,2,-051,1",,"SYN112AAXX  14181 76373 32683 61202 10201 20089 38210 40157 57060 86260 91750 333 10253 20046 30/// 56990 59051 84895;","Q01+000602APC3  "
"76373099999","2010-10-15T00:00:00","4","25.35","-105.75","1967.0","TEPEHUANES DGO., MX","FM-12","99999","V020","999,9,C,0000,1","01200,1,9,N","045000,1,N,1","+0207,1","+0098,1","10191,1","24,0000,9,1",,,,,,,"08,99,1,08,1,06,1,01250,1,00,1,00,1",,"01,9",,"120,M,+0260,1","180,N,+0046,1","99999,9,08238,1","7,1,008,1,-007,1",,"SYN124AAXX  15001 76373 32683 80000 10207 20098 38238 40191 57008 88600 92350 333 10260 20046 30/// 50301 56900 59007 70000 88695;",
"76373099999","2010-10-15T03:00:00","4","25.35","-105.75","1967.0","TEPEHUANES DGO., MX","FM-12","99999","V020","999,9,C,0000,1","00800,1,9,N","010000,1,N,1","+0158,1","+0123,1","10216,1",,,,,"08,1,+00800,1,06,1",,,"08,99,1,08,1,07,1,01250,1,00,1,00,1",,"01,9",,,,"99999,9,08258,1","2,1,020,1,-001,1",,"SYN100AAXX  15031 76373 32660 80000 10158 20123 38258 40216 52020 88700 90250 333 30/// 56900 59001 88695;",
"76373099999","2010-10-15T12:00:00","4","25.35","-105.75","1967.0","TEPEHUANES DGO., MX","FM-12","99999","V020","999,9,C,0000,1","22000,1,9,N","010000,1,N,1","+0086,1","+0083,1","10209,1",,,,,"00,1,+99999,9,99,9",,,"00,99,1,00,1,00,1,99999,9,00,1,00,1","0234,9","01,9","999,+0033,9","120,N,+0050,1","240,M,+0260,1","99999,9,08253,1","9,9,999,9,-013,1",,"SYN112AAXX  15121 76373 32960 00000 10086 20083 38253 40209 5//// 91150 333 10260 20050 30033 55039 21071 59013 70009;",
"76373099999","2010-10-15T18:00:00","4","25.35","-105.75","1967.0","TEPEHUANES DGO., MX","FM-12","99999","V020","130,1,N,0010,1","22000,1,9,N","045000,1,N,1","+0224,1","+0081,1","10199,1",,,,,"03,1,+00800,1,08,1",,,"03,99,1,03,1,02,1,01250,1,00,1,00,1",,"01,9",,"120,M,+0243,1","240,N,+0050,1","99999,9,08244,1","7,1,014,1,+034,1",,"SYN112AAXX  15181 76373 32683 31301 10224 20081 38244 40199 57014 83200 91750 333 10243 20050 30/// 56900 58034 83895;",
"76373099999","2010-10-15T21:00:00","4","25.35","-105.75","1967.0","TEPEHUANES DGO., MX","FM-12","99999","V020","180,1,N,0020,1","00800,1,9,N","050000,1,N,1","+0252,1","+0071,1","10158,1",,,,,"05,1,+00800,1,08,1",,,"06,99,1,06,1,02,1,01250,1,06,1,00,1",,"01,9",,,,"99999,9,08212,1","7,1,022,1,-027,1",,"SYN100AAXX  15211 76373 32684 61802 10252 20071 38212 40158 57022 86260 92045 333 30/// 56990 59027 85895;",
"76373099999","2010-10-16T00:00:00","4","25.35","-105.75","1967.0","TEPEHUANES DGO., MX","FM-12","99999","V020","110,1,N,0010,1","01200,1,9,N","045000,1,N,1","+0190,1","+0113,1","10160,1",,,,,,,,"08,99,1,08,1,02,1,01250,1,00,1,00,1",,"01,9",,"120,M,+0270,1","180,N,+0050,1","99999,9,08213,1","2,1,001,1,-032,1",,"SYN118AAXX  16001 76373 32683 81101 10190 20113 38213 40160 52001 88200 92350 333 10270 20050 30/// 50261 56990 59032 85895;",
"76373099999","2010-10-16T03:00:00","4","25.35","-105.75","1967.0","TEPEHUANES DGO., MX","FM-12","99999","V020","180,1,N,0010,1","99999,9,9,N","010000,1,N,1","+0155,1","+0097,1","10190,1",,,,,,,,"08,99,1,99,9,02,1,01250,1,05,1,00,1",,,,,,"99999,9,08237,1","2,1,024,1,-021,1",,"SYN100AAXX  16031 76373 32660 81801 10155 20097 38237 40190 52024 80250 88500 333 30/// 56900 59021 88695;","Q01+000002SCOTLC"
"76373099999","2010-10-16T12:00:00","4","25.35","-105.75","1967.0","TEPEHUANES DGO., MX","FM-12","99999","V020","270,1,N,0010,1","22000,1,9,N","010000,1,N,1","+0093,1","+0079,1","10191,1",,,,,"00,1,+99999,9,99,9",,,"00,99,1,00,1,00,1,99999,9,00,1,00,1","0378,9","01,9","999,+0031,9","120,N,+0052,1","240,M,+0290,1","99999,9,08238,1","9,9,999,9,-011,1",,"SYN112AAXX  16121 76373 32960 02701 10093 20079 38238 40191 5//// 91150 333 10290 20052 30031 55063 21594 59011 70000;",
"76373099999","2010-10-16T15:00:00","4","25.35","-105.75","1967.0","TEPEHUANES DGO., MX","FM-12","99999","V020","270,1,N,0010,1","00800,1,9,N","040000,1,N,1","+0114,1","+0090,1","10201,1",,,,,"08,1,+00800,1,06,1",,,"08,99,1,08,1,05,1,01250,1,00,1,00,1",,"01,9",,,,"99999,9,08246,1","2,1,008,1,-014,1",,"SYN100AAXX  16151 76373 32682 82701 10114 20090 38246 40201 52008 88500 91450 333 30/// 56900 59014 88695;",
"76373099999","2010-10-16T18:00:00","4","25.35","-105.75","1967.0","TEPEHUANES DGO., MX","FM-12","99999","V020","070,1,N,0010,1","00800,1,9,N","045000,1,N,1","+0224,1","+0086,1","10192,1",,,,,"06,1,+00800,1,06,1",,,"06,99,1,06,1,05,1,01250,1,00,1,00,1",,"01,9",,"120,M,+0240,1","240,N,+0052,1","99999,9,08239,1","7,1,007,1,-005,1",,"SYN112AAXX  16181 76373 32683 60701 10224 20086 38239 40192 57007 86500 91750 333 10240 20052 30/// 56900 59005 86695;",
"76373099999","2010-10-16T21:00:00","4","25.35","-105.75","1967.0","TEPEHUANES DGO., MX","FM-12","99999","V020","020,1,N,0020,1","00800,1,9,N","045000,1,N,1","+0257,1","+0018,1","10153,1",,,,,"06,1,+00800,1,08,1",,,"06,99,1,06,1,02,1,01250,1,00,1,00,1",,"01,9",,,,"99999,9,08208,1","7,1,031,1,-041,1",,"SYN100AAXX  16211 76373 32683 60202 10257 20018 38208 40153 57031 86200 92050 333 30/// 56900 59041 86895;",
"76373099999","2010-10-17T00:00:00","4","25.35","-105.75","1967.0","TEPEHUANES DGO., MX","FM-12","99999","V020","290,1,N,0030,1","00750,1,9,N","030000,1,N,1","+0200,1","-0015,1","10157,1","24,0000,9,1",,,,"02,1,+00600,1,07,1",,,"05,99,1,05,1,05,1,00800,1,00,1,00,1",,"01,9",,"120,M,+0290,1","180,N,+0052,1","99999,9,08210,1","3,1,002,1,-003,1",,"SYN130AAXX  17001 76373 32580 52903 10200 21015 38210 40157 53002 85500 92355 333 10290 20052 30/// 50541 56900 59003 70000 82720 83825;",
"76373099999","2010-10-17T03:00:00","4","25.35","-105.75","1967.0","TEPEHUANES DGO., MX","FM-12","99999","V020","999,9,C,0000,1","22000,1,9,N","001000,1,N,1","+0132,1","+0043,1","10178,1",,,,,"02,1,+00750,1,08,1",,,"02,99,1,02,1,02,1,00800,1,00,1,00,1",,"01,9",,,,"99999,9,08228,1","2,1,018,1,-009,1",,"SYN100AAXX  17031 76373 32510 20000 10132 20043 38228 40178 52018 82200 90250 333 30/// 56900 59009 82825;",
"76373099999","2010-10-17T12:00:00","4","25.35","-105.75","1967.0","TEPEHUANES DGO., MX","FM-12","99999","V020","999,9,C,0000,1","22000,1,9,N","001000,1,N,1","+0030,1","+0022,1","10193,1",,,,,"00,1,+99999,9,99,9",,,"00,99,1,00,1,00,1,99999,9,00,1,00,1","0462,9","09,9","999,-0020,9","120,N,-0010,1","240,M,+0290,1","99999,9,08240,1","9,9,999,9,+002,1",,"SYN112AAXX  17121 76373 32910 00000 10030 20022 38240 40193 5//// 91150 333 10290 21010 31020 55077 21650 58002 70000;",
"76373099999","2010-10-17T15:00:00","4","25.35","-105.75","1967.0","TEPEHUANES DGO., MX","FM-12","99999","V020","999,9,C,0000,1","22000,1,9,N","030000,1,N,1","+0096,1","+0052,1","10203,1",,,,,"00,1,+99999,9,99,9",,,"00,99,1,00,1,00,1,99999,9,00,1,00,1",,"01,9",,,,"99999,9,08247,1","2,1,007,1,+001,1",,"SYN082AAXX  17151 76373 32980 00000 10096 20052 38247 40203 52007 91455 333 30/// 58001;",
"76373099999","2010-10-17T18:00:00","4","25.35","-105.75","1967.0","TEPEHUANES DGO., MX","FM-12","99999","V020","050,1,N,0010,1","22000,1,9,N","030000,1,N,1","+0224,1","+0047,1","10187,1",,,,,"00,1,+99999,9,99,9",,,"00,99,1,00,1,00,1,99999,9,00,1,00,1",,"01,9",,"120,M,+0240,1","240,N,-0010,1","99999,9,08235,1","7,1,012,1,-004,1",,"SYN094AAXX  17181 76373 32980 00501 10224 20047 38235 40187 57012 91755 333 10240 21010 30/// 59004;",
"76373099999","2010-10-17T21:00:00","4","25.35","-105.75","1967.0","TEPEHUANES DGO., MX","FM-12","99999","V020","230,1,N,0030,1","22000,1,9,N","030000,1,N,1","+0272,2","-0030,1","10147,1",,,,,"00,1,+99999,9,99,9",,,"00,99,1,00,1,00,1,99999,9,00,1,00,1",,"01,9",,,,"99999,9,08202,1","7,1,033,1,-006,1",,"SYN082AAXX  17211 76373 32980 02303 10272 21030 38202 40147 57033 82055 333 30/// 59006;",
"76373099999","2010-10-18T00:00:00","4","25.35","-105.75","1967.0","TEPEHUANES DGO., MX","FM-12","99999","V020","230,1,N,0020,1","22000,1,9,N","030000,1,N,1","+0232,1","+0018,1","10147,1","24,0000,9,1",,,,"00,1,+99999,9,99,9",,,"00,99,1,00,1,00,1,99999,9,00,1,00,1",,"01,9",,"120,M,+0294,1","180,N,-0010,1","99999,9,08203,1","3,1,001,1,-007,1",,"SYN106AAXX  18001 76373 32980 02302 10232 20018 38203 40147 53001 92350 333 10294 21010 30/// 50601 59007 70000;","Q01  00002PRCP24"
"76373099999","2010-10-18T03:00:00","4","25.35","-105.75","1967.0","TEPEHUANES DGO., MX","FM-12","99999","V020","250,1,N,0010,1","22000,1,9,N","001000,1,N,1","+0148,1","+0046,1","10167,1",,,,,"00,1,+99999,9,99,9",,,"00,99,1,00,1,00,1,99999,9,00,1,00,1",,"01,9",,,,"99999,9,08218,1","2,1,015,1,-011,1",,"SYN082AAXX  18031 76373 32910 02501 10148 20046 38218 40167 52015 90255 333 30/// 59011;",
"76373099999","2010-10-18T12:00:00","4","25.35","-105.75","1967.0","TEPEHUANES DGO., MX","FM-12","99999","V020","999,9,C,0000,1","22000,1,9,N","001000,1,N,1","+0030,1","+0025,1","10175,1",,,,,"00,1,+99999,9,99,9",,,"00,99,1,00,1,00,1,99999,9,00,1,00,1","0618,9","09,9","999,-0022,9","120,N,-0015,1","240,M,+0294,1","99999,9,08225,1","9,9,999,9,-013,1",,"SYN112AAXX  18121 76373 32910 00000 10030 20025 38225 40175 5//// 91155 333 10294 21015 31022 55103 22013 59013 70000;",
"76373099999","2010-10-18T15:00:00","4","25.35","-105.75","1967.0","TEPEHUANES DGO., MX","FM-12","99999","V020","999,9,C,0000,1","22000,1,9,N","030000,1,N,1","+0086,1","+0045,1","10180,1",,,,,"00,1,+99999,9,99,9",,,"00,99,1,00,1,00,1,99999,9,00,1,00,1",,"01,9",,,,"99999,9,08229,1","2,1,004,1,-018,1",,"SYN082AAXX  18151 76373 32980 00000 10086 20045 38229 40180 52004 91455 333 30/// 59018;",
"76373099999","2010-10-18T18:00:00","4","25.35","-105.75","1967.0","TEPEHUANES DGO., MX","FM-12","99999","V020","999,9,C,0000,1","22000,1,9,N","030000,1,N,1","+9999,9","-0017,1","10160,1",,,,,"00,1,+99999,9,99,9",,,"00,99,1,00,1,00,1,99999,9,00,1,00,1",,"01,9",,"120,M,+0248,1","240,N,-0015,1","99999,9,08213,1","7,1,016,1,-022,1",,"SYN094AAXX  18181 76373 32980 00000 10230 21017 38213 40160 57016 91755 333 10248 21015 30/// 59022;","Q01+002303ATOT  "
"76373099999","2010-10-19T12:00:00","4","25.35","-105.75","1967.0","TEPEHUANES DGO., MX","FM-12","99999","V020","999,9,C,0000,1","22000,1,9,N","030000,1,N,1","+0036,1","+0024,1","10153,1",,,,,"00,1,+99999,9,99,9",,,"00,99,1,00,1,00,1,99999,9,00,1,00,1","0612,9","09,9","999,-0010,9","120,N,+0020,1","240,M,+0310,1","99999,9,08207,1","9,9,999,9,-018,1",,"SYN112AAXX  19121 76373 32980 00000 10036 20024 38207 40153 5//// 91150 333 10310 20020 31010 55102 22142 59018 70000;",
"76373099999","2010-10-19T15:00:00","4","25.35","-105.75","1967.0","TEPEHUANES DGO., MX","FM-12","99999","V020","999,9,C,0000,1","22000,1,9,N","030000,1,N,1","+0095,1","+0052,1","10165,1",,,,,"00,1,+99999,9,99,9",,,"00,99,1,00,1,00,1,99999,9,00,1,00,1",,"01,9",,,,"99999,9,08217,1","8,1,010,1,-012,1",,"SYN082AAXX  19151 76373 32980 00000 10095 20052 38217 40165 58010 91450 333 30/// 59012;",
"76373099999","2010-10-19T18:00:00","4","25.35","-105.75","1967.0","TEPEHUANES DGO., MX","FM-12","99999","V020","010,1,N,0010,1","22000,1,9,N","030000,1,N,1","+0226,1","-0005,1","10156,1",,,,,"00,1,+99999,9,99,9",,,"00,99,1,00,1,00,1,99999,9,00,1,00,1",,"01,9",,"120,M,+0240,1","240,N,+0002,1","99999,9,08210,1","7,1,007,1,-003,1",,"SYN094AAXX  19181 76373 32980 00101 10226 21005 38210 40156 57007 91750 333 10240 20002 30/// 59003;",
"76373099999","2010-10-19T21:00:00","4","25.35","-105.75","1967.0","TEPEHUANES DGO., MX","FM-12","99999","V020","120,1,N,0020,1","22000,1,9,N","030000,1,N,1","+0285,1","-0004,1","10116,1",,,,,"00,1,+99999,9,99,9",,,"00,99,1,00,1,00,1,99999,9,00,1,00,1",,"01,9",,,,"99999,9,08177,1","7,1,033,1,+001,1",,"SYN082AAXX  19211 76373 32980 01202 10285 21004 38177 40116 57033 92050 333 30/// 58001;",
"76373099999","2010-10-20T00:00:00","4","25.35","-105.75","1967.0","TEPEHUANES DGO., MX","FM-12","99999","V020","230,1,N,0030,1","22000,1,9,N","030000,1,N,1","+0238,1","+0045,1","10123,1","24,0000,9,1",,,,"00,1,+99999,9,99,9",,,"00,99,1,00,1,00,1,99999,9,00,1,00,1",,"01,9",,"120,M,+0304,1",,"99999,9,08183,1","3,1,006,1,+002,1",,"SYN100AAXX  20001 76373 32980 02303 10238 20045 38183 40123 53006 92350 333 10304 30/// 50461 58002 70000;","Q01  00002PRCP24"
"76373099999","2010-10-20T03:00:00","4","25.35","-105.75","1967.0","TEPEHUANES DGO., MX","FM-12","99999","V020","120,1,N,0010,1","22000,1,9,N","001000,1,N,1","+0260,1","+0057,1","10152,1",,,,,"00,1,+99999,9,99,9",,,"00,99,1,00,1,00,1,99999,9,00,1,00,1",,"01,9",,,,"99999,9,08206,1","2,1,023,1,+999,9",,"SYN082AAXX  20031 76373 32910 01201 10260 20057 38206 40152 52023 90250 333 30/// 58///;",
"76373099999","2010-10-20T12:00:00","4","25.35","-105.75","1967.0","TEPEHUANES DGO., MX","FM-12","99999","V020","999,9,C,0000,1","22000,1,9,N","001000,1,N,1","+0037,1","+0025,1","10158,1",,,,,"00,1,+99999,9,99,9",,,"00,99,1,00,1,00,1,99999,9,00,1,00,1","0618,9","09,9","999,+0000,9","120,N,+0010,1","240,M,+0304,1","99999,9,08212,1","9,9,999,9,+005,1",,"SYN112AAXX  20121 76373 32910 00000 10037 20025 38212 40158 5//// 91150 333 10304 20010 31000 55103 22094 58005 70000;",
"76373099999","2010-10-20T15:00:00","4","25.35","-105.75","1967.0","TEPEHUANES DGO., MX","FM-12","99999","V020","999,9,C,0000,1","22000,1,9,N","030000,1,N,1","+0096,1","+0049,1","10177,1",,,,,"00,1,+99999,9,99,9",,,"00,99,1,00,1,00,1,99999,9,00,1,00,1",,"01,9",,,,"99999,9,08227,1","2,1,015,1,+010,1",,"SYN082AAXX  20151 76373 32980 00000 10096 20049 38227 40177 52015 91450 333 30/// 58010;",
"76373099999","2010-10-20T18:00:00","4","25.35","-105.75","1967.0","TEPEHUANES DGO., MX","FM-12","99999","V020","170,1,N,0010,1","22000,1,9,N","030000,1,N,1","+0239,1","+0023,1","10168,1",,,,,"00,1,+99999,9,99,9",,,"00,99,1,00,1,00,1,99999,9,00,1,00,1",,"01,9",,"120,M,+0258,1","240,N,+0010,1","99999,9,08220,1","7,1,007,1,+010,1",,"SYN094AAXX  20181 76373 32980 01701 10239 20023 38220 40168 57007 91750 333 10258 20010 30/// 58010;",
"76373099999","2010-10-20T21:00:00","4","25.35","-105.75","1967.0","TEPEHUANES DGO., MX","FM-12","99999","V020","140,1,N,0020,1","22000,1,9,N","030000,1,N,1","+0295,2","-0037,1","10131,1",,,,,"00,1,+99999,9,99,9",,,"00,99,1,00,1,00,1,99999,9,00,1,00,1",,"01,9",,,,"99999,9,08189,1","7,1,031,1,+012,1",,"SYN082AAXX  20211 76373 32980 01402 10295 21037 38189 40131 57031 92050 333 30/// 58012;",
"76373099999","2010-10-21T00:00:00","4","25.35","-105.75","1967.0","TEPEHUANES DGO., MX","FM-12","99999","V020","230,1,N,0020,1","22000,1,9,N","030000,1,N,1","+0246,1","-0014,1","10139,1","24,0000,9,1",,,,"00,1,+99999,9,99,9",,,"00,99,1,00,1,00,1,99999,9,00,1,00,1",,"01,9",,"120,M,+0310,1","180,N,+0010,1","99999,9,08196,1","2,1,007,1,+013,1",,"SYN106AAXX  21001 76373 32980 02302 10246 21014 38196 40139 52007 92345 333 10310 20010 30/// 50621 58013 70000;","Q01  00002PRCP24"
"76373099999","2010-10-21T03:00:00","4","25.35","-105.75","1967.0","TEPEHUANES DGO., MX","FM-12","99999","V020","999,9,C,0000,1","22000,1,9,N","001000,1,N,1","+0154,1","+0025,1","10165,1",,,,,"00,1,+99999,9,99,9",,,"00,99,1,00,1,00,1,99999,9,00,1,00,1",,"01,9",,,,"99999,9,08217,1","2,1,021,1,+011,1",,"SYN082AAXX  21031 76373 32910 00000 10154 20025 38217 40165 52021 90250 333 30/// 58011;",
"76373099999","2010-10-21T12:00:00","4","25.35","-105.75","1967.0","TEPEHUANES DGO., MX","FM-12","99999","V020","999,9,C,0000,1","22000,1,9,N","001000,1,N,1","+0035,1","+0023,1","10165,1",,,,,"00,1,+99999,9,99,9",,,"00,99,1,00,1,00,1,99999,9,00,1,00,1","0630,9","09,9","999,-0010,9","120,N,+0006,1","240,M,+0310,1","99999,9,08217,1","9,9,999,9,+005,1",,"SYN112AAXX  21121 76373 32910 00000 10035 20023 38217 40165 5//// 91150 333 10310 20006 31010 55105 22142 58005 70000;",
"76373099999","2010-10-21T15:00:00","4","25.35","-105.75","1967.0","TEPEHUANES DGO., MX","FM-12","99999","V020","999,9,C,0000,1","22000,1,9,N","030000,1,N,1","+0092,1","+0045,1","10163,1",,,,,"02,1,+05100,1,00,1",,,"02,99,1,00,1,00,1,99999,9,00,1,04,1",,"01,9",,,,"99999,9,08216,1","8,1,001,1,-011,1",,"SYN100AAXX  21151 76373 32980 20000 10092 20045 38216 40163 58001 80004 91450 333 30/// 56009 59011 82067;",
"76373099999","2010-10-21T18:00:00","4","25.35","-105.75","1967.0","TEPEHUANES DGO., MX","FM-12","99999","V020","040,1,N,0010,1","22000,1,9,N","045000,1,N,1","+0236,1","+0003,1","10145,1",,,,,"04,1,+02100,1,06,1",,,"04,99,1,04,1,99,9,01750,1,05,1,00,1",,"01,9",,"120,M,+0257,1","240,N,+0006,1","99999,9,08201,1","7,1,015,1,-004,1",,"SYN112AAXX  21181 76373 32783 40401 10236 20003 38201 40145 57015 84050 91750 333 10257 20006 30/// 56090 59004 84657;","Q01+000002SCOLCG"
"76373099999","2010-10-21T21:00:00","4","25.35","-105.75","1967.0","TEPEHUANES DGO., MX","FM-12","99999","V020","220,1,N,0030,1","22000,1,9,N","050000,1,N,1","+0281,2","-0044,1","10121,1",,,,,"01,1,+02100,1,03,1",,,"01,99,1,01,1,00,1,02250,1,05,1,00,1",,"01,9",,,,"99999,9,08181,1","7,1,020,1,-008,1",,"SYN100AAXX  21211 76373 32884 12203 10281 21044 38181 40121 57020 81050 92050 333 30/// 56090 59008 81357;",
"76373099999","2010-10-22T00:00:00","4","25.35","-105.75","1967.0","TEPEHUANES DGO., MX","FM-12","99999","V020","200,1,N,0030,1","22000,1,9,N","045000,1,N,1","+0231,1","+0008,1","10124,1","24,0000,9,1",,,,"00,1,+99999,9,99,9",,,"00,99,1,00,1,00,1,99999,9,00,1,00,1",,"01,9",,"120,M,+0298,1","180,N,+0006,1","99999,9,08183,1","2,1,002,1,-013,1",,"SYN106AAXX  22001 76373 32983 02003 10231 20008 38183 40124 52002 92350 333 10298 20006 30/// 50611 59013 70000;","Q01  00002PRCP24"
"76373099999","2010-10-22T03:00:00","4","25.35","-105.75","1967.0","TEPEHUANES DGO., MX","FM-12","99999","V020","230,1,N,0010,1","22000,1,9,N","010000,1,N,1","+0148,1","+0010,1","10145,1",,,,,"00,1,+99999,9,99,9",,,"00,99,1,00,1,00,1,99999,9,00,1,00,1",,"01,9",,,,"99999,9,08201,1","2,1,007,1,-016,1",,"SYN082AAXX  22031 76373 32960 02301 10148 20010 38201 40145 52007 90250 333 30/// 59016;",
"76373099999","2010-10-22T12:00:00","4","25.35","-105.75","1967.0","TEPEHUANES DGO., MX","FM-12","99999","V020","999,9,C,0000,1","22000,1,9,N","010000,1,N,1","+0018,1","+0006,1","10159,1",,,,,"00,1,+99999,9,99,9",,,"00,99,1,00,1,00,1,99999,9,00,1,00,1","0606,9","09,9","999,-0020,9","240,M,+0290,1",,"99999,9,08212,1","9,9,999,9,-005,1",,"SYN112AAXX  22121 76373 32960 00000 10018 20006 38212 40159 5//// 91150 333 10290 31020 31032 55101 22150 59005 70000;",
"76373099999","2010-10-22T15:00:00","4","25.35","-105.75","1967.0","TEPEHUANES DGO., MX","FM-12","99999","V020","999,9,C,0000,1","22000,1,9,N","030000,1,N,1","+0076,1","+0002,1","10152,1",,,,,"00,1,+99999,9,99,9",,,"00,99,1,00,1,00,1,99999,9,00,1,00,1",,"01,9",,,,"99999,9,08206,1","7,1,008,1,-010,1",,"SYN082AAXX  22151 76373 32980 00000 10076 20002 38206 40152 57008 91450 333 30/// 59010;",
"76373099999","2010-10-22T18:00:00","4","25.35","-105.75","1967.0","TEPEHUANES DGO., MX","FM-12","99999","V020","310,1,N,0020,1","22000,1,9,N","050000,1,N,1","+9999,9","-0023,1","10135,1",,,,,"00,1,+99999,9,99,9",,,"00,99,1,00,1,00,1,99999,9,00,1,00,1",,"01,9",,"120,M,+0269,1","240,N,-0020,1","99999,9,08192,1","7,1,014,1,-009,1",,"SYN094AAXX  22181 76373 32984 03102 10252 21023 38192 40135 57014 91750 333 10269 21020 30/// 59009;","Q01+002523ATOT  "
"76373099999","2010-10-22T21:00:00","4","25.35","-105.75","1967.0","TEPEHUANES DGO., MX","FM-12","99999","V020","210,1,N,0030,1","22000,1,9,N","045000,1,N,1","+0264,1","-0017,1","10120,1",,,,,"01,1,+05400,1,02,1",,,"01,99,1,00,1,00,1,99999,9,00,1,08,1",,"01,9",,,,"99999,9,08180,1","7,1,012,1,+003,1",,"SYN094AAXX  22211 76373 32983 12103 10264 21017 38180 40120 57012 81008 92045 333 30/// 58003 81268;","Q01+000012SCOTLC"
"76373099999","2010-10-23T00:00:00","4","25.35","-105.75","1967.0","TEPEHUANES DGO., MX","FM-12","99999","V020","220,1,N,0020,1","22000,1,9,N","050000,1,N,1","+0214,1","-0001,1","10125,1","24,0000,9,1",,,,"00,1,+99999,9,99,9",,,"00,99,1,00,1,00,1,99999,9,00,1,00,1",,"01,9",,"120,M,+0290,1","180,N,-0020,1","99999,9,08184,1","2,1,004,1,+999,9",,"SYN106AAXX  23001 76373 32984 02202 10214 21001 38184 40125 52004 92350 333 10290 21020 30/// 50711 70000 58001;",
"76373099999","2010-10-23T03:00:00","4","25.35","-105.75","1967.0","TEPEHUANES DGO., MX","FM-12","99999","V020","999,9,C,0000,1","22000,1,9,N","010000,1,N,1","+0151,1","+0022,1","10149,1",,,,,"00,1,+99999,9,99,9",,,"00,99,1,00,1,00,1,99999,9,00,1,00,1",,"01,9",,,,"99999,9,08204,1","2,1,020,1,+003,1",,"SYN082AAXX  23031 76373 32960 00000 10151 20022 38204 40149 52020 90250 333 30/// 58003;",
"76373099999","2010-10-23T12:00:00","4","25.35","-105.75","1967.0","TEPEHUANES DGO., MX","FM-12","99999","V020","999,9,C,0000,1","22000,1,9,N","010000,1,N,1","+0019,1","+0010,1","10153,1",,,,,"00,1,+99999,9,99,9",,,"00,99,1,00,1,00,1,99999,9,00,1,00,1","0606,9","09,9","999,-0031,9","120,N,-0020,1","240,M,+0293,1","99999,9,08208,1","9,9,999,9,-004,1",,"SYN112AAXX  23121 76373 32960 00000 10019 20010 38208 40153 5//// 91150 333 10293 21020 31031 55101 22174 59004 70000;",
"76373099999","2010-10-23T15:00:00","4","25.35","-105.75","1967.0","TEPEHUANES DGO., MX","FM-12","99999","V020","999,9,C,0000,1","22000,1,9,N","030000,1,N,1","+0068,1","+0020,1","10165,1",,,,,"00,1,+99999,9,99,9",,,"00,99,1,00,1,00,1,99999,9,00,1,00,1",,"01,9",,,,"99999,9,08217,1","2,1,009,1,+011,1",,"SYN082AAXX  23151 76373 32980 00000 10068 20020 38217 40165 52009 91445 333 30/// 58011;",
"76373099999","2010-10-23T18:00:00","4","25.35","-105.75","1967.0","TEPEHUANES DGO., MX","FM-12","99999","V020","999,9,C,0000,1","22000,1,9,N","045000,1,N,1","+9999,9","-0018,1","10157,1",,,,,"00,1,+99999,9,99,9",,,"00,99,1,00,1,00,1,99999,9,00,1,00,1",,"01,9",,"120,M,+0284,1","240,N,-0020,1","99999,9,08210,1","7,1,007,1,-008,1",,"SYN094AAXX  23181 76373 32983 00000 10228 21018 38210 40157 57007 91750 333 10284 21020 30/// 59008;","Q01+002283ATOT  "
"76373099999","2010-10-23T21:00:00","4","25.35","-105.75","1967.0","TEPEHUANES DGO., MX","FM-12","99999","V020","210,1,N,0020,1","22000,1,9,N","050000,1,N,1","+0265,1","-0024,1","10131,1",,,,,"00,1,+99999,9,99,9",,,"00,99,1,00,1,00,1,99999,9,00,1,00,1",,"01,9",,,,"99999,9,08190,1","7,1,018,1,+010,1",,"SYN082AAXX  23211 76373 32984 02102 10265 21024 38190 40131 57018 92050 333 30/// 58010;",
"76373099999","2010-10-24T00:00:00","4","25.35","-105.75","1967.0","TEPEHUANES DGO., MX","FM-12","99999","V020","230,1,N,0020,1","22000,1,9,N","030000,1,N,1","+0212,1","-0018,1","10142,1","24,0000,9,1",,,,"00,1,+99999,9,99,9",,,"00,99,1,00,1,00,1,99999,9,00,1,00,1",,"01,9",,"120,M,+0290,1","180,N,-0020,1","99999,9,08198,1","2,1,008,1,+015,1",,"SYN106AAXX  24001 76373 32980 02302 10212 21018 38198 40142 52008 92350 333 10290 21020 30/// 50401 58015 70000;","Q01  00002PRCP24"
"76373099999","2010-10-24T03:00:00","4","25.35","-105.75","1967.0","TEPEHUANES DGO., MX","FM-12","99999","V020","250,1,N,0010,1","22000,1,9,N","001000,1,N,1","+0136,1","+0030,1","10161,1",,,,,"00,1,+99999,9,99,9",,,"00,99,1,00,1,00,1,99999,9,00,1,00,1",,"01,9",,,,"99999,9,08214,1","2,1,016,1,+010,1",,"SYN082AAXX  24031 76373 32510 02501 10136 20030 38214 40161 52016 90255 333 30/// 58010;",
"76373099999","2010-10-24T12:00:00","4","25.35","-105.75","1967.0","TEPEHUANES DGO., MX","FM-12","99999","V020","999,9,C,0000,1","22000,1,9,N","001000,1,N,1","+0014,1","+0005,1","10187,1",,,,,"00,1,+99999,9,99,9",,,"00,99,1,00,1,00,1,99999,9,00,1,00,1","0630,9","09,9","999,-0032,9","120,N,-0025,1","240,M,+0290,1","99999,9,08236,1","9,9,999,9,+028,1",,"SYN112AAXX  24121 76373 32910 00000 10014 20005 38236 40187 5//// 91150 333 10290 21025 31032 55105 22013 58028 70000;",
"76373099999","2010-10-24T15:00:00","4","25.35","-105.75","1967.0","TEPEHUANES DGO., MX","FM-12","99999","V020","999,9,C,0000,1","22000,1,9,N","030000,1,N,1","+0070,1","+0030,1","10198,1",,,,,"00,1,+99999,9,99,9",,,"00,99,1,00,1,00,1,99999,9,00,1,00,1",,"01,9",,,,"99999,9,08244,1","2,1,009,1,+027,1",,"SYN082AAXX  24151 76373 32980 00000 10070 20030 38244 40198 52009 91455 333 30/// 58027;",
"76373099999","2010-10-24T18:00:00","4","25.35","-105.75","1967.0","TEPEHUANES DGO., MX","FM-12","99999","V020","050,1,N,0010,1","22000,1,9,N","030000,1,N,1","+0218,1","+0004,1","10178,1",,,,,"00,1,+99999,9,99,9",,,"00,99,1,00,1,00,1,99999,9,00,1,00,1",,"01,9",,"120,M,+0232,1","240,N,-0025,1","99999,9,08228,1","7,1,016,1,+018,1",,"SYN094AAXX  24181 76373 32980 00501 10218 20004 38228 40178 57016 91755 333 10232 21025 30/// 58018;",
"76373099999","2010-10-24T21:00:00","4","25.35","-105.75","1967.0","TEPEHUANES DGO., MX","FM-12","99999","V020","140,1,N,0010,1","22000,1,9,N","030000,1,N,1","+0282,2","-0022,1","10135,1",,,,,"00,1,+99999,9,99,9",,,"00,99,1,00,1,00,1,99999,9,00,1,00,1",,"01,9",,,,"99999,9,08193,1","7,1,035,1,+003,1",,"SYN082AAXX  24211 76373 32980 01401 10282 21022 38193 40135 57035 92055 333 30/// 58003;",
"76373099999","2010-10-25T00:00:00","4","25.35","-105.75","1967.0","TEPEHUANES DGO., MX","FM-12","99999","V020","320,1,N,0020,1","22000,1,9,N","030000,1,N,1","+0242,1","-0019,1","10127,1","24,0000,9,1",,,,"00,1,+99999,9,99,9",,,"00,99,1,00,1,00,1,99999,9,00,1,00,1",,"01,9",,"120,M,+0302,1","180,N,-0025,1","99999,9,08187,1","5,1,006,1,-011,1",,"SYN106AAXX  25001 76373 32980 03202 10242 21019 38187 40127 55006 92355 333 10302 21025 30/// 50501 59011 70000;","Q01  00002PRCP24"
"76373099999","2010-10-25T03:00:00","4","25.35","-105.75","1967.0","TEPEHUANES DGO., MX","FM-12","99999","V020","999,9,C,0000,1","22000,1,9,N","001000,1,N,1","+0138,1","+0013,1","10155,1",,,,,"00,1,+99999,9,99,9",,,"00,99,1,00,1,00,1,99999,9,00,1,00,1",,"01,9",,,,"99999,9,08209,1","2,1,022,1,-005,1",,"SYN082AAXX  25031 76373 32910 00000 10138 20013 38209 40155 52022 90255 333 30/// 59005;",
"76373099999","2010-10-25T12:00:00","4","25.35","-105.75","1967.0","TEPEHUANES DGO., MX","FM-12","99999","V020","999,9,C,0000,1","22000,1,9,N","001000,1,N,1","+0010,1","-0002,1","10152,1",,,,,"00,1,+99999,9,99,9",,,"00,99,1,00,1,00,1,99999,9,00,1,00,1","0624,9","09,9","999,-0042,9","120,N,-0030,1","240,M,+0302,1","99999,9,08207,1","9,9,999,9,-028,1",,"SYN112AAXX  25121 76373 32910 00000 10010 21002 38207 40152 5//// 91155 333 10302 21030 31042 55104 22094 59028 70000;",
"76373099999","2010-10-25T15:00:00","4","25.35","-105.75","1967.0","TEPEHUANES DGO., MX","FM-12","99999","V020","999,9,C,0000,1","22000,1,9,N","030000,1,N,1","+0080,1","+0023,1","10159,1",,,,,"00,1,+99999,9,99,9",,,"00,99,1,00,1,00,1,99999,9,00,1,00,1",,"01,9",,,,"99999,9,08212,1","2,1,005,1,-032,1",,"SYN082AAXX  25151 76373 32980 00000 10080 20023 38212 40159 52005 91455 333 30/// 59032;",
"76373099999","2010-10-25T18:00:00","4","25.35","-105.75","1967.0","TEPEHUANES DGO., MX","FM-12","99999","V020","110,1,N,0010,1","22000,1,9,N","030000,1,N,1","+9999,9","-0024,1","10134,1",,,,,"00,1,+99999,9,99,9",,,"00,99,1,00,1,00,1,99999,9,00,1,00,1",,"01,9",,"120,M,+0270,1","240,N,-0030,1","99999,9,08192,1","7,1,020,1,-036,1",,"SYN094AAXX  25181 76373 32980 01101 10242 21024 38192 40134 57020 91750 333 10270 21030 30/// 59036;","Q01+002423ATOT  "
"76373099999","2010-10-25T21:00:00","4","25.35","-105.75","1967.0","TEPEHUANES DGO., MX","FM-12","99999","V020","320,1,N,0040,1","22000,1,9,N","030000,1,N,1","+0276,1","-0079,1","10096,1",,,,,"00,1,+99999,9,99,9",,,"00,99,1,00,1,00,1,99999,9,00,1,00,1",,"01,9",,,,"99999,9,08161,1","7,1,017,1,-032,1",,"SYN082AAXX  25211 76373 32980 03204 10276 21079 38161 40096 57017 92055 333 30/// 59032;",
"76373099999","2010-10-26T00:00:00","4","25.35","-105.75","1967.0","TEPEHUANES DGO., MX","FM-12","99999","V020","320,1,N,0040,1","22000,1,9,N","030000,1,N,1","+0242,1","-0038,1","10100,1","24,0000,9,1",,,,"00,1,+99999,9,99,9",,,"00,99,1,00,1,00,1,99999,9,00,1,00,1",,"01,9",,"120,M,+0298,1","180,N,-0030,1","99999,9,08164,1","5,1,003,1,-023,1",,"SYN106AAXX  26001 76373 32980 03204 10242 21038 38164 40100 55003 92330 333 10298 21030 30/// 50611 59023 70000;","Q01  00002PRCP24"
"76373099999","2010-10-26T12:00:00","4","25.35","-105.75","1967.0","TEPEHUANES DGO., MX","FM-12","99999","V020","999,9,C,0000,1","22000,1,9,N","001000,1,N,1","+0036,1","+0013,1","10131,1","24,0000,9,1",,,,,,,"03,99,1,00,1,00,1,99999,9,00,1,04,1","0618,9","09,9","999,-0008,9","120,N,+0006,1","240,M,+0298,1","99999,9,08190,1","9,9,999,9,-017,1",,"SYN130AAXX  26121 76373 32910 30000 10036 20013 38190 40131 5//// 80004 91150 333 10298 20006 31008 55103 22085 56009 59017 70000 83067;",
"76373099999","2010-10-26T15:00:00","4","25.35","-105.75","1967.0","TEPEHUANES DGO., MX","FM-12","99999","V020","999,9,C,0000,1","22000,1,9,N","030000,1,N,1","+0089,1","+0024,1","10140,1",,,,,"04,1,+05100,1,00,1",,,"04,99,1,00,1,00,1,99999,9,00,1,04,1",,"01,9",,,,"99999,9,08197,1","2,1,007,1,-004,1",,"SYN100AAXX  26151 76373 32980 40000 10089 20024 38197 40140 52007 80004 91450 333 30/// 56900 59004 84067;",
"76373099999","2010-10-26T18:00:00","4","25.35","-105.75","1967.0","TEPEHUANES DGO., MX","FM-12","99999","V020","050,1,N,0010,1","22000,1,9,N","030000,1,N,1","+0244,1","-0034,1","10120,1",,,,,"03,1,+05100,1,00,1",,,"03,99,1,00,1,00,1,99999,9,00,1,04,1",,"01,9",,"120,M,+0260,1","240,N,+0006,1","99999,9,08180,1","7,1,017,1,-012,1",,"SYN112AAXX  26181 76373 32980 30501 10244 21034 38180 40120 57017 80004 91750 333 10260 20006 30/// 56009 59012 83067;",
"76373099999","2010-10-26T21:00:00","4","25.35","-105.75","1967.0","TEPEHUANES DGO., MX","FM-12","99999","V020","360,1,N,0010,1","22000,1,9,N","030000,1,N,1","+0305,2","-0029,1","10079,1",,,,,"03,1,+05100,1,00,1",,,"03,99,1,00,1,00,1,99999,9,00,1,03,1",,"01,9",,,,"99999,9,08148,1","7,1,032,1,-020,1",,"SYN100AAXX  26211 76373 32980 33601 10305 21029 38148 40079 57032 80003 92050 333 30/// 56009 59020 83067;",
"76373099999","2010-10-27T00:00:00","4","25.35","-105.75","1967.0","TEPEHUANES DGO., MX","FM-12","99999","V020","250,1,N,0020,1","22000,1,9,N","030000,1,N,1","+0257,1","-0018,1","10083,1","24,0000,9,1",,,,,,,"03,99,1,00,1,00,1,99999,9,00,1,03,1",,"01,9",,"120,M,+0322,1","180,N,+0006,1","99999,9,08150,1","3,1,002,1,-014,1",,"SYN124AAXX  27001 76373 32980 32502 10257 21018 38150 40083 53002 80003 92350 333 10322 20006 30/// 50501 56009 59014 70000 83067;",
"76373099999","2010-10-27T03:00:00","4","25.35","-105.75","1967.0","TEPEHUANES DGO., MX","FM-12","99999","V020","999,9,C,0000,1","22000,1,9,N","001000,1,N,1","+0156,1","+0014,1","10111,1",,,,,"01,1,+05100,1,00,1",,,"01,99,1,00,1,00,1,99999,9,00,1,04,1",,"01,9",,,,"99999,9,08173,1","2,1,026,1,+999,9",,"SYN100AAXX  27031 76373 32910 10000 10156 20014 38173 40111 52026 80004 90235 333 30/// 56009 58/// 81067;",
"76373099999","2010-10-27T12:00:00","4","25.35","-105.75","1967.0","TEPEHUANES DGO., MX","FM-12","99999","V020","999,9,C,0000,1","22000,1,9,N","001000,1,N,1","+0023,1","+0004,1","10149,1",,,,,"00,1,+99999,9,99,9",,,"00,99,1,00,1,00,1,99999,9,00,1,00,1","0588,9","09,9","999,-0020,9","120,N,-0006,1","240,M,+0322,1","99999,9,08204,1","9,9,999,9,+014,1",,"SYN112AAXX  27121 76373 32910 00000 10023 20004 38204 40149 5//// 91150 333 10322 21006 31020 55098 21909 58014 70000;",
"76373099999","2010-10-27T18:00:00","4","25.35","-105.75","1967.0","TEPEHUANES DGO., MX","FM-12","99999","V020","999,9,C,0000,1","22000,1,9,N","030000,1,N,1","+0247,1","-0040,1","10162,1",,,,,"00,1,+99999,9,99,9",,,"00,99,1,00,1,00,1,99999,9,00,1,00,1",,"01,9",,"120,M,+0260,1","240,N,-0006,1","99999,9,08214,1","8,1,006,1,+034,1",,"SYN094AAXX  27181 76373 32980 00000 10247 21040 38214 40162 58006 91750 333 10260 21006 30/// 58034;",
"76373099999","2010-10-27T21:00:00","4","25.35","-105.75","1967.0","TEPEHUANES DGO., MX","FM-12","99999","V020","060,1,N,0010,1","22000,1,9,N","030000,1,N,1","+0269,1","-0043,1","10135,1",,,,,"00,1,+99999,9,99,9",,,"00,99,1,00,1,00,1,99999,9,00,1,00,1",,"01,9",,,,"99999,9,08193,1","7,1,021,1,+045,1",,"SYN082AAXX  27211 76373 32980 00601 10269 21043 38193 40135 57021 92050 333 30/// 58045;",
"76373099999","2010-10-28T00:00:00","4","25.35","-105.75","1967.0","TEPEHUANES DGO., MX","FM-12","99999","V020","140,1,N,0010,1","22000,1,9,N","030000,1,N,1","+0264,1","-0021,1","10141,1","24,0000,9,1",,,,"00,1,+99999,9,99,9",,,"00,99,1,00,1,00,1,99999,9,00,1,00,1",,"01,9",,"120,M,+0320,1","180,N,-0006,1","99999,9,08198,1","2,1,005,1,+999,9",,"SYN106AAXX  28001 76373 32980 01401 10264 21021 38198 40141 52005 92350 333 10320 21006 30/// 50471 70000 58048;",
"76373099999","2010-10-28T03:00:00","4","25.35","-105.75","1967.0","TEPEHUANES DGO., MX","FM-12","99999","V020","280,1,N,0010,1","22000,1,9,N","001000,1,N,1","+0163,1","-0003,1","10174,1",,,,,"00,1,+99999,9,99,9",,,"00,99,1,00,1,00,1,99999,9,00,1,00,1",,"01,9",,,,"99999,9,08224,1","2,1,026,1,+051,1",,"SYN082AAXX  28031 76373 32910 02801 10163 21003 38224 40174 52026 90240 333 30/// 58051;",
"76373099999","2010-10-28T12:00:00","4","25.35","-105.75","1967.0","TEPEHUANES DGO., MX","FM-12","99999","V020","999,9,C,0000,1","22000,1,9,N","001000,1,N,1","+0036,1","+0013,1","10213,1",,,,,"00,1,+99999,9,99,9",,,"00,99,1,00,1,00,1,99999,9,00,1,00,1","0630,9","09,9","999,-0008,9","120,N,+0004,1","240,M,+0320,1","99999,9,08256,1","9,9,999,9,+025,1",,"SYN112AAXX  28121 76373 32910 00000 10036 20013 38256 40213 5//// 91145 333 10320 20004 31008 55105 22029 58025 70000;",
"76373099999","2010-10-28T18:00:00","4","25.35","-105.75","1967.0","TEPEHUANES DGO., MX","FM-12","99999","V020","040,1,N,0010,1","22000,1,9,N","030000,1,N,1","+0238,1","+0023,1","10237,1",,,,,"00,1,+99999,9,99,9",,,"00,99,1,00,1,00,1,99999,9,00,1,00,1",,"01,9",,"120,M,+0258,1","240,N,+0004,1","99999,9,08275,1","8,1,005,1,+061,1",,"SYN094AAXX  28181 76373 32980 00401 10238 20023 38275 40237 58005 91750 333 10258 20004 30/// 58061;",
"76373099999","2010-10-28T21:00:00","4","25.35","-105.75","1967.0","TEPEHUANES DGO., MX","FM-12","99999","V020","130,1,N,0030,1","22000,1,9,N","030000,1,N,1","+0268,1","+0043,1","10211,1",,,,,"01,1,+00810,1,08,1",,,"01,99,1,01,1,01,1,00800,1,00,1,00,1",,"01,9",,,,"99999,9,08254,1","7,1,021,1,+061,1",,"SYN100AAXX  28211 76373 32580 11303 10268 20043 38254 40211 57021 81100 92050 333 30/// 56700 58061 81827;",
"76373099999","2010-10-29T00:00:00","4","25.35","-105.75","1967.0","TEPEHUANES DGO., MX","FM-12","99999","V020","050,1,N,0010,1","22000,1,9,N","030000,1,N,1","+0243,1","+0053,1","10208,1","24,0000,9,1",,,,,,,"01,99,1,01,1,01,1,00800,1,00,1,00,1",,"01,9",,"120,M,+0290,1","180,N,+0004,1","99999,9,08252,1","7,1,002,1,+054,1",,"SYN124AAXX  29001 76373 32580 10501 10243 20053 38252 40208 57002 81100 92350 333 10290 20004 30/// 50441 56900 58054 70000 81827;",
"76373099999","2010-10-29T03:00:00","4","25.35","-105.75","1967.0","TEPEHUANES DGO., MX","FM-12","99999","V020","240,1,N,0010,1","22000,1,9,N","001000,1,N,1","+0184,1","+0081,1","10229,1",,,,,"01,1,+00810,1,08,1",,,"01,99,1,01,1,01,1,00800,1,00,1,00,1",,"01,9",,,,"99999,9,08269,1","2,1,017,1,+045,1",,"SYN100AAXX  29031 76373 32510 12401 10184 20081 38269 40229 52017 81100 90250 333 30/// 56900 58045 81827;",
"76373099999","2010-10-29T12:00:00","4","25.35","-105.75","1967.0","TEPEHUANES DGO., MX","FM-12","99999","V020","999,9,C,0000,1","22000,1,9,N","001000,1,N,1","+0074,1","+0066,1","10243,1",,,,,"00,1,+99999,9,99,9",,,"00,99,1,00,1,00,1,99999,9,00,1,00,1","0612,9","01,9","999,+0030,9","120,N,+0042,1","240,M,+0290,1","99999,9,08280,1","9,9,999,9,+024,1",,"SYN112AAXX  29121 76373 32910 00000 10074 20066 38280 40243 5//// 91150 333 10290 20042 30030 55102 22013 58024 70000;",
"76373099999","2010-10-29T15:00:00","4","25.35","-105.75","1967.0","TEPEHUANES DGO., MX","FM-12","99999","V020","999,9,C,0000,1","22000,1,9,N","030000,1,N,1","+0114,1","+0079,1","10253,1",,,,,"00,1,+99999,9,99,9",,,"00,99,1,00,1,00,1,99999,9,00,1,00,1",,"01,9",,,,"99999,9,08288,1","2,1,008,1,+008,1",,"SYN082AAXX  29151 76373 32980 00000 10114 20079 38288 40253 52008 91450 333 30/// 58008;",
"76373099999","2010-10-29T18:00:00","4","25.35","-105.75","1967.0","TEPEHUANES DGO., MX","FM-12","99999","V020","100,1,N,0010,1","22000,1,9,N","030000,1,N,1","+0224,1","+0095,1","10240,1",,,,,"01,1,+00810,1,08,1",,,"01,99,1,01,1,02,1,00800,1,00,1,00,1",,"01,9",,"120,M,+0246,1","240,N,+0042,1","99999,9,08278,1","7,1,010,1,+003,1",,"SYN112AAXX  29181 76373 32580 11001 10224 20095 38278 40240 57010 81200 91750 333 10246 20042 30/// 56900 58003 81827;",
"76373099999","2010-10-29T21:00:00","4","25.35","-105.75","1967.0","TEPEHUANES DGO., MX","FM-12","99999","V020","120,1,N,0030,1","22000,1,9,N","030000,1,N,1","+0258,1","+0081,1","10194,1",,,,,"02,1,+00810,1,08,1",,,"02,99,1,02,1,02,1,00800,1,00,1,00,1",,"01,9",,,,"99999,9,08240,1","7,1,038,1,-014,1",,"SYN100AAXX  29211 76373 32580 21203 10258 20081 38240 40194 57038 82200 92050 333 30/// 56900 59014 82827;",
"76373099999","2010-10-30T00:00:00","4","25.35","-105.75","1967.0","TEPEHUANES DGO., MX","FM-12","99999","V020","140,1,N,0010,1","22000,1,9,N","030000,1,N,1","+0230,1","+0079,1","10185,1","24,0000,9,1",,,,,,,"02,99,1,02,1,02,1,00800,1,00,1,00,1",,"01,9",,"120,M,+0284,1","180,N,+0042,1","99999,9,08233,1","7,1,007,1,-019,1",,"SYN124AAXX  30001 76373 32580 21401 10230 20079 38233 40185 57007 82200 92350 333 10284 20042 30/// 50451 56900 59019 70000 82827;",
"76373099999","2010-10-30T03:00:00","4","25.35","-105.75","1967.0","TEPEHUANES DGO., MX","FM-12","99999","V020","999,9,C,0000,1","22000,1,9,N","001000,1,N,1","+0160,1","+0071,1","10205,1",,,,,"01,1,+00810,1,08,1",,,"01,99,1,01,1,02,1,00800,1,00,1,00,1",,"01,9",,,,"99999,9,08249,1","2,1,016,1,-020,1",,"SYN100AAXX  30031 76373 32510 10000 10160 20071 38249 40205 52016 81200 90250 333 30/// 56900 59020 81827;",
"76373099999","2010-10-30T12:00:00","4","25.35","-105.75","1967.0","TEPEHUANES DGO., MX","FM-12","99999","V020","999,9,C,0000,1","22000,1,9,N","001000,1,N,1","+0055,1","+0046,1","10210,1",,,,,"00,1,+99999,9,99,9",,,"00,99,1,00,1,00,1,99999,9,00,1,00,1","0582,9","01,9","999,+0024,9","120,N,+0036,1","240,M,+0284,1","99999,9,08253,1","9,9,999,9,-027,1",,"SYN112AAXX  30121 76373 32910 00000 10055 20046 38253 40210 5//// 91150 333 10284 20036 30024 55097 21925 59027 70000;",
"76373099999","2010-10-30T15:00:00","4","25.35","-105.75","1967.0","TEPEHUANES DGO., MX","FM-12","99999","V020","999,9,C,0000,1","22000,1,9,N","030000,1,N,1","+0107,1","+0064,1","10221,1",,,,,"01,1,+00810,1,08,1",,,"01,99,1,01,1,02,1,00800,1,00,1,00,1",,"01,9",,,,"99999,9,08262,1","2,1,008,1,-026,1",,"SYN100AAXX  30151 76373 32580 10000 10107 20064 38262 40221 52008 81200 91450 333 30/// 56700 59026 81827;",
"76373099999","2010-10-30T18:00:00","4","25.35","-105.75","1967.0","TEPEHUANES DGO., MX","FM-12","99999","V020","180,1,N,0010,1","22000,1,9,N","030000,1,N,1","+0234,1","+0073,1","10200,1",,,,,"02,1,+00810,1,08,1",,,"02,99,1,02,1,02,1,00800,1,00,1,00,1",,"01,9",,"120,M,+0250,1","240,N,+0036,1","99999,9,08245,1","7,1,017,1,-033,1",,"SYN112AAXX  30181 76373 32580 21801 10234 20073 38245 40200 57017 82200 91750 333 10250 20036 30/// 56900 59033 82827;",
"76373099999","2010-10-30T21:00:00","4","25.35","-105.75","1967.0","TEPEHUANES DGO., MX","FM-12","99999","V020","250,1,N,0010,1","22000,1,9,N","030000,1,N,1","+0252,1","+0052,1","10153,1",,,,,"03,1,+00750,1,08,1",,,"03,99,1,03,1,03,1,00800,1,00,1,00,1",,"01,9",,,,"99999,9,08207,1","7,1,038,1,-047,1",,"SYN100AAXX  30211 76373 32580 32501 10252 20052 38207 40153 57038 83300 92055 333 30/// 56900 59047 83825;",
"76373099999","2010-10-31T00:00:00","4","25.35","-105.75","1967.0","TEPEHUANES DGO., MX","FM-12","99999","V020","140,1,N,0010,1","22000,1,9,N","030000,1,N,1","+0230,1","+0041,1","10152,1","24,0000,9,1",,,,,,,"03,99,1,03,1,03,1,00800,1,00,1,00,1",,"01,9",,"120,M,+0270,1","180,N,+0036,1","99999,9,08207,1","4,1,000,1,-026,1",,"SYN124AAXX  31001 76373 32580 31401 10230 20041 38207 40152 54000 83300 92355 333 10270 20036 30/// 50431 56900 59026 70000 83825;",
"76373099999","2010-10-31T03:00:00","4","25.35","-105.75","1967.0","TEPEHUANES DGO., MX","FM-12","99999","V020","999,9,C,0000,1","22000,1,9,N","001000,1,N,1","+0180,1","+0066,1","10174,1",,,,,"03,1,+00600,1,08,1",,,"03,99,1,03,1,03,1,00800,1,00,1,00,1",,"01,9",,,,"99999,9,08224,1","2,1,017,1,-025,1",,"SYN100AAXX  31031 76373 32510 30000 10180 20066 38224 40174 52017 83300 90250 333 30/// 56900 59025 83820;",
"76373099999","2010-10-31T12:00:00","4","25.35","-105.75","1967.0","TEPEHUANES DGO., MX","FM-12","99999","V020","999,9,C,0000,1","22000,1,9,N","001000,1,N,1","+0072,1","+0053,1","10184,1","24,0000,9,1",,,,,,,"02,99,1,02,1,02,1,00800,1,00,1,00,1","0426,9","09,9","999,-0022,9","120,N,-0015,1","240,M,+0270,1","99999,9,08232,1","9,9,999,9,-021,1",,"SYN130AAXX  31121 76373 32510 20000 10072 20053 38232 40184 5//// 82200 91145 333 10270 21015 31022 55071 21409 56900 59021 70000 82825;",
"76373099999","2010-10-31T18:00:00","4","25.35","-105.75","1967.0","TEPEHUANES DGO., MX","FM-12","99999","V020","320,1,N,0010,1","22000,1,9,N","030000,1,N,1","+0246,1","+0071,1","10166,1",,,,,"01,1,+00750,1,08,1",,,"01,99,1,01,1,01,1,00800,1,00,1,00,1",,"01,9",,"120,M,+0260,1","240,N,-0015,1",,"7,1,031,1,-027,1",,"SYN112AAXX  31181 76373 32580 13201 10246 20071 38118 40166 57031 81100 91755 333 10260 21015 30/// 56900 59027 81825;","Q01+081183APOSP "
"76373099999","2010-10-31T21:00:00","4","25.35","-105.75","1967.0","TEPEHUANES DGO., MX","FM-12","99999","V020","320,1,N,0010,1","22000,1,9,N","030000,1,N,1","+0284,1","+0020,1","10144,1",,,,,"03,1,+00600,1,08,1",,,"03,99,1,03,1,03,1,00800,1,00,1,00,1",,"01,9",,,,"99999,9,08200,1","7,1,018,1,-007,1",,"SYN100AAXX  31211 76373 32580 33201 10284 20020 38200 40144 57018 83300 92050 333 30/// 56900 59007 83820;",
"76373099999","2010-11-01T00:00:00","4","25.35","-105.75","1967.0","TEPEHUANES DGO., MX","FM-12","99999","V020","110,1,N,0010,1","22000,1,9,N","030000,1,N,1","+0270,1","+0028,1","10140,1","24,0000,9,1",,,,,,,"04,99,1,04,1,04,1,00800,1,00,1,00,1",,"01,9",,"120,M,+0310,1","180,N,-0015,1","99999,9,08197,1","5,1,003,1,-011,1",,"SYN124AAXX  01001 76373 32580 41101 10270 20028 38197 40140 55003 84400 92350 333 10310 21015 30/// 50421 56900 59011 70000 84820;",
"76373099999","2010-11-01T03:00:00","4","25.35","-105.75","1967.0","TEPEHUANES DGO., MX","FM-12","99999","V020","999,9,C,0000,1","22000,1,9,N","001000,1,N,1","+0182,1","+0061,1","10176,1",,,,,"02,1,+00750,1,08,1",,,"02,99,1,02,1,02,1,00800,1,00,1,00,1",,"01,9",,,,"99999,9,08225,1","2,1,028,1,+001,1",,"SYN100AAXX  01031 76373 32510 20000 10182 20061 38225 40176 52028 82200 90255 333 30/// 56900 58001 82825;",
"76373099999","2010-11-01T12:00:00","4","25.35","-105.75","1967.0","TEPEHUANES DGO., MX","FM-12","99999","V020","999,9,C,0000,1","22000,1,9,N","001000,1,N,1","+0052,1","+0032,1","10199,1","24,0000,9,1",,,,,,,"01,99,1,01,1,01,1,00800,1,00,1,00,1","0588,9","01,9","999,+0032,9","120,N,+0020,1","240,M,+0310,1","99999,9,08244,1","9,9,999,9,+012,1",,"SYN130AAXX  01121 76373 32510 10000 10052 20032 38244 40199 5//// 81100 91155 333 10310 20020 30032 55098 51288 56900 58012 70000 81825;",
"76373099999","2010-11-01T15:00:00","4","25.35","-105.75","1967.0","TEPEHUANES DGO., MX","FM-12","99999","V020","999,9,C,0000,1","22000,1,9,N","030000,1,N,1","+0108,1","+0055,1","10208,1",,,,,"00,1,+99999,9,99,9",,,"00,99,1,00,1,00,1,99999,9,00,1,00,1",,"01,9",,,,"99999,9,08252,1","3,1,008,1,+003,1",,"SYN082AAXX  01151 76373 32980 00000 10108 20055 38252 40208 53008 91455 333 30/// 58003;",
"76373099999","2010-11-01T18:00:00","4","25.35","-105.75","1967.0","TEPEHUANES DGO., MX","FM-12","99999","V020","110,1,N,0010,1","22000,1,9,N","030000,1,N,1","+0242,1","+0051,1","10193,1",,,,,"00,1,+99999,9,99,9",,,"00,99,1,00,1,00,1,99999,9,00,1,00,1",,"01,9",,"120,M,+0270,1","240,N,+0020,1","99999,9,08239,1","5,1,013,1,+021,1",,"SYN094AAXX  01181 76373 32980 01101 10242 20051 38239 40193 55013 91755 333 10270 20020 30/// 58021;",
"76373099999","2010-11-01T21:00:00","4","25.35","-105.75","1967.0","TEPEHUANES DGO., MX","FM-12","99999","V020","050,1,N,0010,1","22000,1,9,N","030000,1,N,1","+0296,2","+0007,1","10154,1",,,,,"00,1,+99999,9,99,9",,,"00,99,1,00,1,00,1,99999,9,00,1,00,1",,"01,9",,,,"99999,9,08208,1","7,1,031,1,+008,1",,"SYN082AAXX  01211 76373 32980 00501 10296 20007 38208 40154 57031 92055 333 30/// 58008;",
"76373099999","2010-11-02T00:00:00","4","25.35","-105.75","1967.0","TEPEHUANES DGO., MX","FM-12","99999","V020","999,9,C,0000,1","22000,1,9,N","030000,1,N,1","+0284,1","+0015,1","10146,1","24,0000,9,1",,,,"00,1,+99999,9,99,9",,,"00,99,1,00,1,00,1,99999,9,00,1,00,1",,"01,9",,"120,M,+0320,1","180,N,+0020,1","99999,9,08202,1","5,1,006,1,+005,1",,"SYN106AAXX  02001 76373 32980 00000 10284 20015 38202 40146 55006 92330 333 10320 20020 30/// 50361 58005 70000;","Q01  00002PRCP24"
"76373099999","2010-11-02T15:00:00","4","25.35","-105.75","1967.0","TEPEHUANES DGO., MX","FM-12","99999","V020","999,9,C,0000,1","22000,1,9,N","030000,1,N,1","+0100,1","+0052,1","10228,1",,,,,"00,1,+99999,9,99,9",,,"00,99,1,00,1,00,1,99999,9,00,1,00,1",,"01,9",,,,"99999,9,08268,1","2,1,013,1,-016,1",,"SYN082AAXX  02151 76373 32980 00000 10100 20052 38268 40228 52013 91450 333 30/// 59016;",
"76373099999","2010-11-02T18:00:00","4","25.35","-105.75","1967.0","TEPEHUANES DGO., MX","FM-12","99999","V020","360,1,N,0010,1","22000,1,9,N","045000,1,N,1","+0212,1","-0005,1","10221,1",,,,,"00,1,+99999,9,99,9",,,"00,99,1,00,1,00,1,99999,9,00,1,00,1",,"01,9",,"120,M,+0228,1","240,N,+0019,1","99999,9,08262,1","7,1,006,1,+033,1",,"SYN094AAXX  02181 76373 32983 03601 10212 21005 38262 40221 57006 91750 333 10228 20019 30/// 58033;",
"76373099999","2010-11-02T21:00:00","4","25.35","-105.75","1967.0","TEPEHUANES DGO., MX","FM-12","99999","V020","130,1,N,0020,1","22000,1,9,N","045000,1,N,1","+0231,1","+0001,1","10178,1",,,,,"00,1,+99999,9,99,9",,,"00,99,1,00,1,00,1,99999,9,00,1,00,1",,"01,9",,,,"99999,9,08227,1","7,1,035,1,+019,1",,"SYN082AAXX  02211 76373 32983 01302 10231 20001 38227 40178 57035 92050 333 30/// 58019;",
"76373099999","2010-11-03T00:00:00","4","25.35","-105.75","1967.0","TEPEHUANES DGO., MX","FM-12","99999","V020","110,1,N,0020,1","22000,1,9,N","045000,1,N,1","+0200,1","-0008,1","10159,1",,,,,"00,1,+99999,9,99,9",,,"00,99,1,00,1,00,1,99999,9,00,1,00,1",,"01,9","999,+0019,9","120,M,+0262,1",,"99999,9,08212,1","7,1,015,1,+010,1",,"SYN106AAXX  03001 76373 32983 01102 10200 21008 38212 40159 57015 92350 333 10262 30019 30/// 56561 58010 70000;",
"76373099999","2010-11-03T03:00:00","4","25.35","-105.75","1967.0","TEPEHUANES DGO., MX","FM-12","99999","V020","270,1,N,0010,1","22000,1,9,N","010000,1,N,1","+0136,1","+0008,1","10184,1",,,,,"00,1,+99999,9,99,9",,,"00,99,1,00,1,00,1,99999,9,00,1,00,1",,"01,9",,,,"99999,9,08232,1","2,1,020,1,+999,9",,"SYN082AAXX  03031 76373 32960 02701 10136 20008 38232 40184 52020 90250 333 30/// 58///;",
"76373099999","2010-11-03T12:00:00","4","25.35","-105.75","1967.0","TEPEHUANES DGO., MX","FM-12","99999","V020","999,9,C,0000,1","22000,1,9,N","010000,1,N,1","+0013,1","-0009,1","10215,1",,,,,"00,1,+99999,9,99,9",,,"00,99,1,00,1,00,1,99999,9,00,1,00,1","0060,9","09,9","999,-0035,9","120,N,-0027,1","240,M,+0262,1","99999,9,08257,1","9,9,999,9,-002,1",,"SYN112AAXX  03121 76373 32960 00000 10013 21009 38257 40215 5//// 91150 333 10262 21027 31035 55010 31965 59002 70000;",
"76373099999","2010-11-03T15:00:00","4","25.35","-105.75","1967.0","TEPEHUANES DGO., MX","FM-12","99999","V020","999,9,C,0000,1","22000,1,9,N","030000,1,N,1","+0057,1","-0002,1","10220,1",,,,,"00,1,+99999,9,99,9",,,"00,99,1,00,1,00,1,99999,9,00,1,00,1",,"01,9",,,,"99999,9,08261,1","2,1,004,1,-007,1",,"SYN082AAXX  03151 76373 32980 00000 10057 21002 38261 40220 52004 91450 333 30/// 59007;",
"76373099999","2010-11-03T18:00:00","4","25.35","-105.75","1967.0","TEPEHUANES DGO., MX","FM-12","99999","V020","320,1,N,0010,1","22000,1,9,N","045000,1,N,1","+0179,1","-0033,1","10203,1",,,,,"00,1,+99999,9,99,9",,,"00,99,1,00,1,00,1,99999,9,00,1,00,1",,"01,9",,"120,M,+0194,1","240,N,-0027,1","99999,9,08248,1","7,1,013,1,-014,1",,"SYN094AAXX  03181 76373 32983 03201 10179 21033 38248 40203 57013 91750 333 10194 21027 30/// 59014;",
"76373099999","2010-11-03T21:00:00","4","25.35","-105.75","1967.0","TEPEHUANES DGO., MX","FM-12","99999","V020","360,1,N,0020,1","22000,1,9,N","045000,1,N,1","+0191,1","-0037,1","10173,1",,,,,"00,1,+99999,9,99,9",,,"00,99,1,00,1,00,1,99999,9,00,1,00,1",,"01,9",,,,"99999,9,08223,1","7,1,025,1,-004,1",,"SYN082AAXX  03211 76373 32983 03602 10191 21037 38223 40173 57025 92050 333 30/// 59004;",
"76373099999","2010-11-04T00:00:00","4","25.35","-105.75","1967.0","TEPEHUANES DGO., MX","FM-12","99999","V020","360,1,N,0030,1","22000,1,9,N","045000,1,N,1","+0164,1","-0084,1","10184,1","24,0000,9,1",,,,"00,1,+99999,9,99,9",,,"00,99,1,00,1,00,1,99999,9,00,1,00,1",,"01,9",,"120,M,+0225,1","180,N,-0027,1","99999,9,08232,1","2,1,009,1,+020,1",,"SYN106AAXX  04001 76373 32983 03603 10164 21084 38232 40184 52009 92350 333 10225 21027 30/// 50541 58020 70000;","Q01  00002PRCP24"
"76373099999","2010-11-04T03:00:00","4","25.35","-105.75","1967.0","TEPEHUANES DGO., MX","FM-12","99999","V020","340,1,N,0010,1","22000,1,9,N","010000,1,N,1","+0103,1","-0034,1","10203,1",,,,,"00,1,+99999,9,99,9",,,"00,99,1,00,1,00,1,99999,9,00,1,00,1",,"01,9",,,,"99999,9,08248,1","2,1,016,1,+016,1",,"SYN082AAXX  04031 76373 32960 03401 10103 21034 38248 40203 52016 90250 333 30/// 58016;",
"76373099999","2010-11-04T12:00:00","4","25.35","-105.75","1967.0","TEPEHUANES DGO., MX","FM-12","99999","V020","999,9,C,0000,1","22000,1,9,N","010000,1,N,1","+0057,1","-0029,1","10213,1",,,,,"00,1,+99999,9,99,9",,,"00,99,1,00,1,00,1,99999,9,00,1,00,1","0060,9",,"999,-0010,9","240,M,+0225,1",,"99999,9,08255,1","9,9,999,9,-002,1",,"SYN112AAXX  04121 76373 32960 00000 10057 21029 38255 40213 5//// 91150 333 10225 50003 31010 55010 22086 59002 70000;",
"76373099999","2010-11-04T15:00:00","4","25.35","-105.75","1967.0","TEPEHUANES DGO., MX","FM-12","99999","V020","090,1,N,0010,1","22000,1,9,N","045000,1,N,1","+0110,1","-0024,1","10232,1",,,,,"00,1,+99999,9,99,9",,,"00,99,1,00,1,00,1,99999,9,00,1,00,1",,"01,9",,,,"99999,9,08271,1","2,1,016,1,+010,1",,"SYN082AAXX  04151 76373 32983 00901 10110 21024 38271 40232 52016 91450 333 30/// 58010;",
"76373099999","2010-11-04T18:00:00","4","25.35","-105.75","1967.0","TEPEHUANES DGO., MX","FM-12","99999","V020","090,1,N,0030,1","22000,1,9,N","050000,1,N,1","+0155,1","-0024,1","10222,1",,,,,"00,1,+99999,9,99,9",,,"00,99,1,00,1,00,1,99999,9,00,1,00,1",,"01,9",,"120,M,+0188,1","240,N,+0003,1","99999,9,08263,1","7,1,008,1,+015,1",,"SYN094AAXX  04181 76373 32984 00903 10155 21024 38263 40222 57008 91750 333 10188 20003 30/// 58015;",
"76373099999","2010-11-04T21:00:00","4","25.35","-105.75","1967.0","TEPEHUANES DGO., MX","FM-12","99999","V020","120,1,N,0050,1","22000,1,9,N","050000,1,N,1","+0180,1","-0040,1","10183,1",,,,,"00,1,+99999,9,99,9",,,"00,99,1,00,1,00,1,99999,9,00,1,00,1",,"01,9",,,,"99999,9,08232,1","7,1,031,1,+009,1",,"SYN082AAXX  04211 76373 32984 01205 10180 21040 38232 40183 57031 92050 333 30/// 58009;",
"76373099999","2010-11-05T00:00:00","4","25.35","-105.75","1967.0","TEPEHUANES DGO., MX","FM-12","99999","V020","130,1,N,0030,1","22000,1,9,N","045000,1,N,1","+0156,1","-0042,1","10185,1","24,0000,9,1",,,,"00,1,+99999,9,99,9",,,"00,99,1,00,1,00,1,99999,9,00,1,00,1",,"01,9",,"120,M,+0208,1","180,N,+0003,1","99999,9,08233,1","3,1,001,1,+001,1",,"SYN106AAXX  05001 76373 32983 01303 10156 21042 38233 40185 53001 92350 333 10208 20003 30/// 50501 58001 70000;","Q01  00002PRCP24"
"76373099999","2010-11-05T03:00:00","4","25.35","-105.75","1967.0","TEPEHUANES DGO., MX","FM-12","99999","V020","999,9,C,0000,1","22000,1,9,N","010000,1,N,1","+0087,1","-0030,1","10210,1",,,,,"00,1,+99999,9,99,9",,,"00,99,1,00,1,00,1,99999,9,00,1,00,1",,"01,9",,,,"99999,9,08254,1","2,1,021,1,+006,1",,"SYN082AAXX  05031 76373 32960 00000 10087 21030 38254 40210 52021 90250 333 30/// 58006;",
"76373099999","2010-11-05T12:00:00","4","25.35","-105.75","1967.0","TEPEHUANES DGO., MX","FM-12","99999","V020","999,9,C,0000,1","22000,1,9,N","010000,1,N,1","-0029,1","-0049,1","10215,1",,,,,"00,1,+99999,9,99,9",,,"00,99,1,00,1,00,1,99999,9,00,1,00,1","0060,9","09,9",,"120,N,-0070,1","240,M,+0208,1","99999,9,08258,1","9,9,999,9,-003,1",,"SYN112AAXX  05121 76373 32960 00000 11029 21049 38258 40215 5//// 91150 333 10208 21070 31095 55010 22134 59003 70000;",
"76373099999","2010-11-05T15:00:00","4","25.35","-105.75","1967.0","TEPEHUANES DGO., MX","FM-12","99999","V020","999,9,C,0000,1","22000,1,9,N","045000,1,N,1","+0016,1","-0035,1","10221,1",,,,,"00,1,+99999,9,99,9",,,"00,99,1,00,1,00,1,99999,9,00,1,00,1",,"01,9",,,,"99999,9,08262,1","2,1,004,1,-009,1",,"SYN082AAXX  05151 76373 32983 00000 10016 21035 38262 40221 52004 91450 333 30/// 59009;",
"76373099999","2010-11-05T18:00:00","4","25.35","-105.75","1967.0","TEPEHUANES DGO., MX","FM-12","99999","V020","040,1,N,0010,1","22000,1,9,N","045000,1,N,1","+0166,1","-0040,1","10216,1",,,,,"00,1,+99999,9,99,9",,,"00,99,1,00,1,00,1,99999,9,00,1,00,1",,"01,9",,"120,M,+0183,1","240,N,-0070,1","99999,9,08258,1","7,1,004,1,-005,1",,"SYN094AAXX  05181 76373 32983 00401 10166 21040 38258 40216 57004 91750 333 10183 21070 30/// 59005;",
"76373099999","2010-11-06T00:00:00","4","25.35","-105.75","1967.0","TEPEHUANES DGO., MX","FM-12","99999","V020","130,1,N,0010,1","22000,1,9,N","030000,1,N,1","+0183,1","-0058,1","10162,1","24,0000,9,1",,,,"00,1,+99999,9,99,9",,,"00,99,1,00,1,00,1,99999,9,00,1,00,1",,"01,9",,"120,M,+0240,1","180,N,-0070,1","99999,9,08214,1","7,1,012,1,-019,1",,"SYN106AAXX  06001 76373 32980 01301 10183 21058 38214 40162 57012 92350 333 10240 21070 30/// 50371 59019 70000;","Q01  00002PRCP24"
"76373099999","2010-11-06T03:00:00","4","25.35","-105.75","1967.0","TEPEHUANES DGO., MX","FM-12","99999","V020","999,9,C,0000,1","22000,1,9,N","010000,1,N,1","+0090,1","-0018,1","10194,1",,,,,"00,1,+99999,9,99,9",,,"00,99,1,00,1,00,1,99999,9,00,1,00,1",,"01,9",,,,"99999,9,08240,1","2,1,018,1,-015,1",,"SYN082AAXX  06031 76373 32960 00000 10090 21018 38240 40194 52018 90250 333 30/// 59015;",
"76373099999","2010-11-06T12:00:00","4","25.35","-105.75","1967.0","TEPEHUANES DGO., MX","FM-12","99999","V020","999,9,C,0000,1","22000,1,9,N","010000,1,N,1","-0021,1","-0037,1","10220,1",,,,,"00,1,+99999,9,99,9",,,"00,99,1,00,1,00,1,99999,9,00,1,00,1","0060,9","09,9",,"120,N,-0060,1","240,M,+0240,1","99999,9,08262,1","9,9,999,9,+004,1",,"SYN112AAXX  06121 76373 32960 00000 11021 21037 38262 40220 5//// 91150 333 10240 21060 31075 55010 22118 58004 70000;",
"76373099999","2010-11-06T15:00:00","4","25.35","-105.75","1967.0","TEPEHUANES DGO., MX","FM-12","99999","V020","999,9,C,0000,1","22000,1,9,N","045000,1,N,1","+0033,1","-0021,1","10229,1",,,,,"00,1,+99999,9,99,9",,,"00,99,1,00,1,00,1,99999,9,00,1,00,1",,"01,9",,,,"99999,9,08268,1","2,1,006,1,+006,1",,"SYN082AAXX  06151 76373 32983 00000 10033 21021 38268 40229 52006 91450 333 30/// 58006;",
"76373099999","2010-11-06T18:00:00","4","25.35","-105.75","1967.0","TEPEHUANES DGO., MX","FM-12","99999","V020","999,9,C,0000,1","22000,1,9,N","045000,1,N,1","+0180,1","-0036,1","10213,1",,,,,"00,1,+99999,9,99,9",,,"00,99,1,00,1,00,1,99999,9,00,1,00,1",,"01,9",,"120,M,+0197,1","240,N,-0060,1","99999,9,08256,1","7,1,012,1,-002,1",,"SYN094AAXX  06181 76373 32983 00000 10180 21036 38256 40213 57012 91750 333 10197 21060 30/// 59002;",
"76373099999","2010-11-06T21:00:00","4","25.35","-105.75","1967.0","TEPEHUANES DGO., MX","FM-12","99999","V020","130,1,N,0010,1","22000,1,9,N","050000,1,N,1","+0245,2","-0088,1","10177,1",,,,,"00,1,+99999,9,99,9",,,"00,99,1,00,1,00,1,99999,9,00,1,00,1",,"01,9",,,,"99999,9,08226,1","7,1,030,1,-002,1",,"SYN082AAXX  06211 76373 32984 01301 10245 21088 38226 40177 57030 92050 333 30/// 59002;",
"76373099999","2010-11-07T00:00:00","4","25.35","-105.75","1967.0","TEPEHUANES DGO., MX","FM-12","99999","V020","130,1,N,0020,1","22000,1,9,N","045000,1,N,1","+0203,1","-0029,1","10176,1","24,0000,9,1",,,,"00,1,+99999,9,99,9",,,"00,99,1,00,1,00,1,99999,9,00,1,00,1",,"01,9",,"120,M,+0270,1","180,N,-0060,1","99999,9,08226,1","4,1,000,1,+012,1",,"SYN106AAXX  07001 76373 32983 01302 10203 21029 38226 40176 54000 92350 333 10270 21060 30/// 50301 58012 70000;","Q01  00002PRCP24"
"76373099999","2010-11-07T03:00:00","4","25.35","-105.75","1967.0","TEPEHUANES DGO., MX","FM-12","99999","V020","999,9,C,0000,1","22000,1,9,N","010000,1,N,1","+0120,1","-0041,1","10201,1",,,,,"00,1,+99999,9,99,9",,,"00,99,1,00,1,00,1,99999,9,00,1,00,1",,"01,9",,,,"99999,9,08246,1","2,1,020,1,+006,1",,"SYN082AAXX  07031 76373 32960 00000 10120 21041 38246 40201 52020 90250 333 30/// 58006;",
"76373099999","2010-11-07T12:00:00","4","25.35","-105.75","1967.0","TEPEHUANES DGO., MX","FM-12","99999","V020","999,9,C,0000,1","22000,1,9,N","010000,1,N,1","-0025,1","-0053,1","10219,1",,,,,"00,1,+99999,9,99,9",,,"00,99,1,00,1,00,1,99999,9,00,1,00,1","0060,9","09,9",,"120,N,-0067,1","240,M,+0270,1","99999,9,08261,1","9,9,999,9,+001,1",,"SYN112AAXX  07121 76373 32960 00000 11025 21053 38261 40219 5//// 91150 333 10270 21067 31080 55010 21981 58001 70000;",
"76373099999","2010-11-07T15:00:00","4","25.35","-105.75","1967.0","TEPEHUANES DGO., MX","FM-12","99999","V020","999,9,C,0000,1","22000,1,9,N","030000,1,N,1","+0037,1","-0045,1","10233,1",,,,,"00,1,+99999,9,99,9",,,"00,99,1,00,1,00,1,99999,9,00,1,00,1",,"01,9",,,,"99999,9,08272,1","2,1,011,1,+004,1",,"SYN082AAXX  07151 76373 32980 00000 10037 21045 38272 40233 52011 91450 333 30/// 58004;",
"76373099999","2010-11-07T18:00:00","4","25.35","-105.75","1967.0","TEPEHUANES DGO., MX","FM-12","99999","V020","160,1,N,0010,1","22000,1,9,N","050000,1,N,1","+0177,1","-0062,1","10216,1",,,,,"00,1,+99999,9,99,9",,,"00,99,1,00,1,00,1,99999,9,00,1,00,1",,"01,9",,"120,M,+0220,1","240,N,-0067,1","99999,9,08258,1","7,1,014,1,+002,1",,"SYN094AAXX  07181 76373 32984 01601 10177 21062 38258 40216 57014 91750 333 10220 21067 30/// 58002;",
"76373099999","2010-11-07T21:00:00","4","25.35","-105.75","1967.0","TEPEHUANES DGO., MX","FM-12","99999","V020","140,1,N,0010,1","22000,1,9,N","050000,1,N,1","+0244,1","-0112,1","10170,1",,,,,"00,1,+99999,9,99,9",,,"00,99,1,00,1,00,1,99999,9,00,1,00,1",,"01,9",,,,"99999,9,08221,1","7,1,037,1,-005,1",,"SYN082AAXX  07211 76373 32984 01401 10244 21112 38221 40170 57037 92033 333 30/// 59005;",
"76373099999","2010-11-08T03:00:00","4","25.35","-105.75","1967.0","TEPEHUANES DGO., MX","FM-12","99999","V020","999,9,C,0000,1","22000,1,9,N","010000,1,N,1","+0099,1","-0061,1","10182,1",,,,,"00,1,+99999,9,99,9",,,"00,99,1,00,1,00,1,99999,9,00,1,00,1",,"01,9",,,,"99999,9,08230,1","9,9,999,9,-016,1",,"SYN082AAXX  08031 76373 32960 00000 10099 21061 38230 40182 5//// 90250 333 30/// 59016;",
"76373099999","2010-11-08T12:00:00","4","25.35","-105.75","1967.0","TEPEHUANES DGO., MX","FM-12","99999","V020","999,9,C,0000,1","22000,1,9,N","010000,1,N,1","-0016,1","-0052,1","10183,1",,,,,"00,1,+99999,9,99,9",,,"00,99,1,00,1,00,1,99999,9,00,1,00,1","0570,9","09,9",,"120,N,-0056,1","240,M,+0270,1","99999,9,08232,1","9,9,999,9,-031,1",,"SYN112AAXX  08121 76373 32960 00000 11016 21052 38232 40183 5//// 91150 333 10270 21056 31070 55095 21876 59031 70000;",
"76373099999","2010-11-08T15:00:00","4","25.35","-105.75","1967.0","TEPEHUANES DGO., MX","FM-12","99999","V020","999,9,C,0000,1","05100,1,9,N","045000,1,N,1","+0031,1","-0037,1","10177,1",,,,,"05,1,+05100,1,01,1",,,"06,99,1,99,9,99,9,02250,1,99,9,99,9",,"01,9",,,,"99999,9,08226,1","7,1,006,1,-046,1",,"SYN094AAXX  08151 76373 32883 60000 10031 21037 38226 40177 57006 91450 333 30/// 56099 59046 85167;",
"76373099999","2010-11-08T18:00:00","4","25.35","-105.75","1967.0","TEPEHUANES DGO., MX","FM-12","99999","V020","110,1,N,0010,1","22000,1,9,N","045000,1,N,1","+0187,1","-0057,1","10160,1",,,,,"04,1,+05100,1,01,1",,,"04,99,1,00,1,00,1,99999,9,00,1,09,1",,"01,9",,"120,M,+0208,1","240,N,-0056,1","99999,9,08213,1","7,1,013,1,-045,1",,"SYN112AAXX  08181 76373 32983 41101 10187 21057 38213 40160 57013 84009 91750 333 10208 21056 30/// 56009 59045 84167;","Q01+000042SCOTLC"
"76373099999","2010-11-08T21:00:00","4","25.35","-105.75","1967.0","TEPEHUANES DGO., MX","FM-12","99999","V020","320,1,N,0010,1","22000,1,9,N","045000,1,N,1","+0258,2","-0048,1","10112,1",,,,,,,,"02,99,1,02,1,06,1,01250,1,00,1,00,1",,"01,9",,,,"99999,9,08174,1","7,1,039,1,-090,1",,"SYN100AAXX  08211 76373 32683 23201 10258 21048 38174 40112 57039 82600 92050 333 30/// 59090 59047 82630;",
"76373099999","2010-11-09T00:00:00","4","25.35","-105.75","1967.0","TEPEHUANES DGO., MX","FM-12","99999","V020","270,1,N,0020,1","22000,1,9,N","050000,1,N,1","+0219,1","-0012,1","10106,1","24,0000,9,1",,,,"00,1,+99999,9,99,9",,,"00,99,1,00,1,00,1,99999,9,00,1,00,1",,"01,9",,"120,M,+0286,1","180,N,-0056,1","99999,9,08169,1","7,1,005,1,-053,1",,"SYN106AAXX  09001 76373 32984 02702 10219 21012 38169 40106 57005 92350 333 10286 21056 30/// 50361 59053 70000;","Q01  00002PRCP24"
"76373099999","2010-11-09T12:00:00","4","25.35","-105.75","1967.0","TEPEHUANES DGO., MX","FM-12","99999","V020","999,9,C,0000,1","22000,1,9,N","001000,1,N,1","+0043,1","+0017,1","10130,1",,,,,"00,1,+99999,9,99,9",,,"00,99,1,00,1,00,1,99999,9,00,1,00,1","0564,9","01,9","999,+0004,9","120,N,+0016,1","240,M,+0286,1","99999,9,08189,1","9,9,999,9,-043,1",,"SYN112AAXX  09121 76373 32910 00000 10043 20017 38189 40130 5//// 91150 333 10286 20016 30004 55094 21844 59043 70000;",
"76373099999","2010-11-09T15:00:00","4","25.35","-105.75","1967.0","TEPEHUANES DGO., MX","FM-12","99999","V020","999,9,C,0000,1","22000,1,C,N","030000,1,N,1","+0076,1","+0029,1","10144,1",,,,,"01,1,+00810,1,06,1",,,"06,99,1,01,1,04,1,00800,1,00,1,06,1",,"01,9",,,,"99999,9,08200,1","2,1,011,1,-026,1",,"SYN106AAXX  09151 76373 32580 60000 10076 20029 38200 40144 52011 81406 91450 333 30/// 56109 59026 81627 85667;",
"76373099999","2010-11-09T18:00:00","4","25.35","-105.75","1967.0","TEPEHUANES DGO., MX","FM-12","99999","V020","280,1,N,0040,1","22000,1,C,N","030000,1,N,1","+0213,1","-0048,1","10129,1",,,,,"02,1,+00810,1,06,1",,,"05,99,1,02,1,04,1,00800,1,00,1,06,1",,"01,9",,"120,M,+0224,1","240,N,+0016,1","99999,9,08188,1","7,1,012,1,-025,1",,"SYN118AAXX  09181 76373 32580 52804 10213 21048 38188 40129 57012 82406 91750 333 10224 20016 30/// 56909 59025 82627 83067;",
"76373099999","2010-11-09T21:00:00","4","25.35","-105.75","1967.0","TEPEHUANES DGO., MX","FM-12","99999","V020","300,1,N,0040,1","22000,1,9,N","030000,1,N,1","+0220,1","-0054,1","10094,1",,,,,"01,1,+00810,1,06,1",,,"04,99,1,01,1,04,1,00800,1,00,1,04,1",,"01,9",,,,"99999,9,08160,1","7,1,028,1,-014,1",,"SYN106AAXX  09211 76373 32580 43004 10220 21054 38160 40094 57028 81404 92050 333 30/// 56909 59014 81627 83067;",
"76373099999","2010-11-10T00:00:00","4","25.35","-105.75","1967.0","TEPEHUANES DGO., MX","FM-12","99999","V020","250,1,N,0030,1","22000,1,9,N","030000,1,N,1","+0185,1","-0041,1","10102,1","24,0000,9,1",,,,"01,1,+00810,1,06,1",,,"04,99,1,01,1,04,1,00800,1,00,1,04,1",,"01,9",,"120,M,+0238,1","180,N,+0016,1","99999,9,08166,1","2,1,006,1,-003,1",,"SYN130AAXX  10001 76373 32580 42503 10185 21041 38166 40102 52006 81404 92350 333 10238 20016 30/// 50431 56909 59003 70000 81627 83067;",
"76373099999","2010-11-10T03:00:00","4","25.35","-105.75","1967.0","TEPEHUANES DGO., MX","FM-12","99999","V020","290,1,N,0010,1","22000,1,9,N","001000,1,N,1","+0115,1","+0035,1","10124,1",,,,,"01,1,+00810,1,04,1",,,"03,99,1,01,1,04,1,00800,1,00,1,04,1",,"01,9",,,,"99999,9,08184,1","2,1,018,1,+999,9",,"SYN100AAXX  10031 76373 32510 32901 10115 20035 38184 40124 52018 81404 90245 333 30/// 56909 58/// 81427;",
"76373099999","2010-11-10T12:00:00","4","25.35","-105.75","1967.0","TEPEHUANES DGO., MX","FM-12","99999","V020","999,9,C,0000,1","22000,1,9,N","001000,1,N,1","-0008,1","-0021,1","10135,1",,,,,"00,1,+99999,9,99,9",,,"00,99,1,00,1,00,1,99999,9,00,1,00,1","0558,9","09,9","999,-0042,9","120,N,-0036,1","240,M,+0238,1","99999,9,08193,1","9,9,999,9,+004,1",,"SYN112AAXX  10121 76373 32910 00000 11008 21021 38193 40135 5//// 91150 333 10238 21036 31042 55093 21828 58004 70000;",
"76373099999","2010-11-10T15:00:00","4","25.35","-105.75","1967.0","TEPEHUANES DGO., MX","FM-12","99999","V020","999,9,C,0000,1","22000,1,9,N","030000,1,N,1","+0034,1","-0011,1","10151,1",,,,,"00,1,+99999,9,99,9",,,"00,99,1,00,1,00,1,99999,9,00,1,00,1",,"01,9",,,,"99999,9,08206,1","2,1,013,1,+006,1",,"SYN082AAXX  10151 76373 32980 00000 10034 21011 38206 40151 52013 91450 333 30/// 58006;",
"76373099999","2010-11-10T18:00:00","4","25.35","-105.75","1967.0","TEPEHUANES DGO., MX","FM-12","99999","V020","110,1,N,0010,1","22000,1,9,N","030000,1,N,1","+9999,9","+9999,9","10136,1",,,,,"00,1,+99999,9,99,9",,,"00,99,1,00,1,00,1,99999,9,00,1,00,1",,"01,9",,"120,M,+0204,1","240,N,-0036,1","99999,9,08193,1","7,1,013,1,+005,1",,"SYN088AAXX  10181 76373 32980 01101 21061 38193 40136 57013 91750 333 10204 21036 30/// 58005;",
"76373099999","2010-11-10T21:00:00","4","25.35","-105.75","1967.0","TEPEHUANES DGO., MX","FM-12","99999","V020","120,1,N,0020,1","22000,1,9,N","030000,1,N,1","+0246,2","-0085,1","10095,1",,,,,"00,1,+99999,9,99,9",,,"00,99,1,00,1,00,1,99999,9,00,1,00,1",,"01,9",,,,"99999,9,08160,1","7,1,033,1,+000,1",,"SYN082AAXX  10211 76373 32980 01202 10246 21085 38160 40095 57033 92050 333 30/// 58000;",
"76373099999","2010-11-11T00:00:00","4","25.35","-105.75","1967.0","TEPEHUANES DGO., MX","FM-12","99999","V020","240,1,N,0020,1","22000,1,9,N","030000,1,N,1","+0207,1","-0025,1","10089,1","24,0000,9,1",,,,"00,1,+99999,9,99,9",,,"00,99,1,00,1,00,1,99999,9,00,1,00,1",,"01,9",,"120,M,+0275,1","180,N,-0036,1","99999,9,08155,1","7,1,005,1,-011,1",,"SYN106AAXX  11001 76373 32980 02402 10207 21025 38155 40089 57005 92350 333 10275 21036 30/// 50471 59011 70000;","Q01  00002PRCP24"
"76373099999","2010-11-11T03:00:00","4","25.35","-105.75","1967.0","TEPEHUANES DGO., MX","FM-12","99999","V020","999,9,C,0000,1","22000,1,9,N","001000,1,N,1","+0127,1","-0025,1","10139,1",,,,,"00,1,+99999,9,99,9",,,"00,99,1,00,1,00,1,99999,9,00,1,00,1",,"01,9",,,,"99999,9,08196,1","2,1,041,1,+012,1",,"SYN082AAXX  11031 76373 32910 00000 10127 21025 38196 40139 52041 90250 333 30/// 58012;",
"76373099999","2010-11-11T12:00:00","4","25.35","-105.75","1967.0","TEPEHUANES DGO., MX","FM-12","99999","V020","999,9,C,0000,1","22000,1,9,N","001000,1,N,1","-0027,1","-0041,1","10151,1",,,,,"00,1,+99999,9,99,9",,,"00,99,1,00,1,00,1,99999,9,00,1,00,1","0594,9","09,9",,"120,N,-0050,1","240,M,+0275,1","99999,9,08206,1","9,9,999,9,+013,1",,"SYN112AAXX  11121 76373 32910 00000 11027 21041 38206 40151 5//// 91150 333 10275 21050 31062 55099 22005 58013 70000;",
"76373099999","2010-11-11T15:00:00","4","25.35","-105.75","1967.0","TEPEHUANES DGO., MX","FM-12","99999","V020","999,9,C,0000,1","22000,1,9,N","030000,1,N,1","+0027,1","-0031,1","10168,1",,,,,"00,1,+99999,9,99,9",,,"00,99,1,00,1,00,1,99999,9,00,1,00,1",,"01,9",,,,"99999,9,08220,1","2,1,014,1,+014,1",,"SYN082AAXX  11151 76373 32980 00000 10027 21031 38220 40168 52014 91450 333 30/// 58014;",
"76373099999","2010-11-12T00:00:00","4","25.35","-105.75","1967.0","TEPEHUANES DGO., MX","FM-12","99999","V020","320,1,N,0020,1","22000,1,9,N","030000,1,N,1","+0210,1","-0015,1","10138,1","24,0000,9,1",,,,"00,1,+99999,9,99,9",,,"00,99,1,00,1,00,1,99999,9,00,1,00,1",,"01,9",,"120,M,+0290,1","180,N,-0050,1","99999,9,08195,1","2,1,009,1,+041,1",,"SYN106AAXX  12001 76373 32980 03202 10210 21015 38195 40138 52009 92355 333 10290 21050 30/// 50511 58041 70000;","Q01  00002PRCP24"
"76373099999","2010-11-12T03:00:00","4","25.35","-105.75","1967.0","TEPEHUANES DGO., MX","FM-12","99999","V020","999,9,C,0000,1","22000,1,9,N","001000,1,N,1","+0120,1","-0028,1","10169,1",,,,,"00,1,+99999,9,99,9",,,"00,99,1,00,1,00,1,99999,9,00,1,00,1",,"01,9",,,,"99999,9,08220,1","2,1,025,1,+024,1",,"SYN082AAXX  12031 76373 32910 00000 10120 21028 38220 40169 52025 90255 333 30/// 58024;",
"76373099999","2010-11-12T12:00:00","4","25.35","-105.75","1967.0","TEPEHUANES DGO., MX","FM-12","99999","V020","999,9,C,0000,1","22000,1,9,N","001000,1,N,1","-0009,1","-0035,1","10187,1",,,,,"00,1,+99999,9,99,9",,,"00,99,1,00,1,00,1,99999,9,00,1,00,1","0600,9","09,9",,"120,N,-0052,1","240,M,+0290,1","99999,9,08234,1","9,9,999,9,+028,1",,"SYN112AAXX  12121 76373 32910 00000 11009 21035 38234 40187 5//// 91155 333 10290 21052 31064 55100 22013 58028 70000;",
"76373099999","2010-11-12T15:00:00","4","25.35","-105.75","1967.0","TEPEHUANES DGO., MX","FM-12","99999","V020","999,9,C,0000,1","22000,1,9,N","030000,1,N,1","+0020,1","-0030,1","10203,1",,,,,"00,1,+99999,9,99,9",,,"00,99,1,00,1,00,1,99999,9,00,1,00,1",,"01,9",,,,"99999,9,08248,1","2,1,014,1,+028,1",,"SYN082AAXX  12151 76373 32980 00000 10020 21030 38248 40203 52014 91455 333 30/// 58028;",
"76373099999","2010-11-12T18:00:00","4","25.35","-105.75","1967.0","TEPEHUANES DGO., MX","FM-12","99999","V020","140,1,N,0010,1","22000,1,9,N","030000,1,N,1","+9999,9","-0078,1","10192,1",,,,,"00,1,+99999,9,99,9",,,"00,99,1,00,1,00,1,99999,9,00,1,00,1",,"01,9",,"120,M,+0220,1","240,N,-0052,1","99999,9,08239,1","7,1,009,1,+000,1",,"SYN094AAXX  12181 76373 32980 01401 10198 21078 38239 40192 57009 91755 333 10220 21052 30/// 58000;","Q01+001983ATOT  "
"76373099999","2010-11-12T21:00:00","4","25.35","-105.75","1967.0","TEPEHUANES DGO., MX","FM-12","99999","V020","140,1,N,0020,1","22000,1,9,N","030000,1,N,1","+0250,2","-0097,1","10158,1",,,,,"03,1,+05100,1,00,1",,,"03,99,1,00,1,00,1,99999,9,00,1,03,1",,"01,9",,,,"99999,9,08212,1","7,1,027,1,+022,1",,"SYN100AAXX  12211 76373 32980 31402 10250 21097 38212 40158 57027 83003 92055 333 30/// 56009 58022 83067;","Q01+000032SCOTLC"
"76373099999","2010-11-13T00:00:00","4","25.35","-105.75","1967.0","TEPEHUANES DGO., MX","FM-12","99999","V020","140,1,N,0020,1","22000,1,9,N","030000,1,N,1","+0206,1","-0073,1","10155,1","24,0000,9,1",,,,"00,1,+99999,9,99,9",,,"00,99,1,00,1,00,1,99999,9,00,1,00,1",,"01,9",,"120,M,+0274,1","180,N,-0052,1","99999,9,08209,1","5,1,003,1,+014,1",,"SYN106AAXX  13001 76373 32980 01402 10206 21073 38209 40155 55003 92355 333 10274 21052 30/// 50401 58014 70000;","Q01  00002PRCP24"
"76373099999","2010-11-13T03:00:00","4","25.35","-105.75","1967.0","TEPEHUANES DGO., MX","FM-12","99999","V020","250,1,N,0010,1","22000,1,9,N","001000,1,N,1","+0112,1","-0045,1","10186,1",,,,,"00,1,+99999,9,99,9",,,"00,99,1,00,1,00,1,99999,9,00,1,00,1",,"01,9",,,,"99999,9,08234,1","2,1,025,1,+014,1",,"SYN082AAXX  13031 76373 32910 02501 10112 21045 38234 40186 52025 90255 333 30/// 58014;",
"76373099999","2010-11-13T15:00:00","4","25.35","-105.75","1967.0","TEPEHUANES DGO., MX","FM-12","99999","V020","999,9,C,0000,1","22000,1,9,N","030000,1,N,1","+0028,1","-0020,1","10198,1",,,,,"00,1,+99999,9,99,9",,,"00,99,1,00,1,00,1,99999,9,00,1,00,1",,"01,9",,,,"99999,9,08243,1","5,1,001,1,-005,1",,"SYN082AAXX  13151 76373 32980 00000 10028 21020 38243 40198 55001 91455 333 30/// 59005;",
"76373099999","2010-11-13T18:00:00","4","25.35","-105.75","1967.0","TEPEHUANES DGO., MX","FM-12","99999","V020","140,1,N,0010,1","22000,1,9,N","030000,1,N,1","+0174,1","-0036,1","10173,1",,,,,"02,1,+05100,1,00,1",,,"02,99,1,00,1,00,1,99999,9,00,1,02,1",,"01,9",,"120,M,+0198,1","240,N,-0050,1","99999,9,08224,1","7,1,019,1,-015,1",,"SYN112AAXX  13181 76373 32980 21401 10174 21036 38224 40173 57019 82002 91755 333 10198 21050 30/// 56009 59015 82067;","Q01+000022SCOTLC"
"76373099999","2010-11-13T21:00:00","4","25.35","-105.75","1967.0","TEPEHUANES DGO., MX","FM-12","99999","V020","160,1,N,0010,1","22000,1,9,N","030000,1,N,1","+0242,2","-0055,1","10123,1",,,,,"03,1,+05100,1,00,1",,,"03,99,1,00,1,00,1,99999,9,00,1,03,1",,"01,9",,,,"99999,9,08183,1","7,1,041,1,-029,1",,"SYN100AAXX  13211 76373 32980 31601 10242 21055 38183 40123 57041 83003 92055 333 30/// 56009 59029 83067;","Q01+000032SCOTLC"
"76373099999","2010-11-14T00:00:00","4","25.35","-105.75","1967.0","TEPEHUANES DGO., MX","FM-12","99999","V020","250,1,N,0020,1","22000,1,9,N","030000,1,N,1","+0200,1","-0015,1","10126,1","24,0000,9,1",,,,"00,1,+99999,9,99,9",,,"00,99,1,00,1,00,1,99999,9,00,1,00,1",,"01,9",,"120,M,+0270,1","180,N,-0050,1","99999,9,08186,1","3,1,003,1,+023,1",,"SYN106AAXX  14001 76373 32980 02502 10200 21015 38186 40126 53003 92355 333 10270 21050 30/// 50401 58023 70000;","Q01  00002PRCP24"
"76373099999","2010-11-14T03:00:00","4","25.35","-105.75","1967.0","TEPEHUANES DGO., MX","FM-12","99999","V020","320,1,N,0010,1","22000,1,9,N","001000,1,N,1","+0124,1","+0019,1","10146,1",,,,,"00,1,+99999,9,99,9",,,"00,99,1,00,1,00,1,99999,9,00,1,00,1",,"01,9",,,,"99999,9,08201,1","2,1,015,1,-033,1",,"SYN082AAXX  14031 76373 32910 03201 10124 20019 38201 40146 52015 90255 333 30/// 59033;",
"76373099999","2010-11-14T12:00:00","4","25.35","-105.75","1967.0","TEPEHUANES DGO., MX","FM-12","99999","V020","999,9,C,0000,1","22000,1,9,N","001000,1,N,1","+0003,1","-0002,1","10146,1",,,,,"00,1,+99999,9,99,9",,,"00,99,1,00,1,00,1,99999,9,00,1,00,1","0540,9","09,9",,"120,N,-0040,1","240,M,+0270,1","99999,9,08201,1","9,9,999,9,-039,1",,"SYN112AAXX  14121 76373 32910 00000 10003 21002 38201 40146 5//// 91155 333 10270 21040 31052 55090 21771 59039 70000;",
"76373099999","2010-11-14T15:00:00","4","25.35","-105.75","1967.0","TEPEHUANES DGO., MX","FM-12","99999","V020","999,9,C,0000,1","22000,1,9,N","030000,1,N,1","+0038,1","+0004,1","10152,1",,,,,"01,1,+00750,1,08,1",,,"01,99,1,01,1,01,1,00800,1,00,1,00,1",,"01,9",,,,"99999,9,08206,1","3,1,005,1,-043,1",,"SYN100AAXX  14151 76373 32580 10000 10038 20004 38206 40152 53005 81100 91455 333 30/// 56900 59043 81825;",
"76373099999","2010-11-14T18:00:00","4","25.35","-105.75","1967.0","TEPEHUANES DGO., MX","FM-12","99999","V020","290,1,N,0060,1","22000,1,9,N","030000,1,N,1","+9999,9","-0011,1","10135,1",,,,,"03,1,+00750,1,08,1",,,"03,99,1,03,1,03,1,00800,1,00,1,00,1",,"01,9",,"120,M,+0220,1","240,N,-0040,1","99999,9,08194,1","7,1,013,1,-031,1",,"SYN112AAXX  14181 76373 32580 32906 10202 21011 38194 40135 57013 83300 91755 333 10220 21040 30/// 56900 59031 83825;","Q01+002023ATOT  "
"76373099999","2010-11-14T21:00:00","4","25.35","-105.75","1967.0","TEPEHUANES DGO., MX","FM-12","99999","V020","290,1,N,0060,1","22000,1,9,N","030000,1,N,1","+0192,1","+0028,1","10108,1",,,,,"03,1,+00750,1,08,1",,,"03,99,1,03,1,03,1,00800,1,00,1,00,1",,"01,9",,,,"99999,9,08171,1","7,1,022,1,-012,1",,"SYN094AAXX  14211 76373 32580 32906 10192 20028 38171 40108 57022 83300 92055 333 30/// 59012 83825;",
"76373099999","2010-11-15T00:00:00","4","25.35","-105.75","1967.0","TEPEHUANES DGO., MX","FM-12","99999","V020","290,1,N,0040,1","22000,1,9,N","030000,1,N,1","+0160,1","+0008,1","10106,1","24,0000,9,1",,,,,,,"01,99,1,01,1,01,1,00800,1,00,1,00,1",,"01,9",,"120,M,+0230,1","180,N,-0040,1","99999,9,08169,1","5,1,002,1,-017,1",,"SYN124AAXX  15001 76373 32580 12904 10160 20008 38169 40106 55002 81100 92355 333 10230 21040 30/// 50441 56900 59017 70000 81825;",
"76373099999","2010-11-15T03:00:00","4","25.35","-105.75","1967.0","TEPEHUANES DGO., MX","FM-12","99999","V020","200,1,N,0010,1","22000,1,9,N","001000,1,N,1","+0106,1","+0020,1","10127,1",,,,,"02,1,+00750,1,08,1",,,"02,99,1,02,1,02,1,00800,1,00,1,00,1",,"01,9",,,,"99999,9,08187,1","2,1,018,1,-014,1",,"SYN100AAXX  15031 76373 32510 22001 10106 20020 38187 40127 52018 82200 90250 333 30/// 56900 59014 82825;",
"76373099999","2010-11-15T12:00:00","4","25.35","-105.75","1967.0","TEPEHUANES DGO., MX","FM-12","99999","V020","999,9,C,0000,1","22000,1,9,N","001000,1,N,1","+0026,1","+0012,1","10121,1",,,,,"00,1,+99999,9,99,9",,,"00,99,1,00,1,00,1,99999,9,00,1,00,1","0582,9","09,9","999,-0022,9","120,N,-0015,1","240,M,+0230,1","99999,9,08181,1","9,9,999,9,-020,1",,"SYN112AAXX  15121 76373 32910 00000 10026 20012 38181 40121 5//// 91155 333 10230 21015 31022 55097 21505 59020 70000;",
"76373099999","2010-11-15T15:00:00","4","25.35","-105.75","1967.0","TEPEHUANES DGO., MX","FM-12","99999","V020","999,9,C,0000,1","22000,1,9,N","030000,1,N,1","+0052,1","+0018,1","10129,1",,,,,"00,1,+99999,9,99,9",,,"00,99,1,00,1,00,1,99999,9,00,1,00,1",,"01,9",,,,"99999,9,08188,1","7,1,007,1,-018,1",,"SYN082AAXX  15151 76373 32980 00000 10052 20018 38188 40129 57007 91445 333 30/// 59018;",
"76373099999","2010-11-16T12:00:00","4","25.35","-105.75","1967.0","TEPEHUANES DGO., MX","FM-12","99999","V020","999,9,C,0000,1","22000,1,9,N","001000,1,N,1","-0015,1","-0019,1","10157,1",,,,,"00,1,+99999,9,99,9",,,"00,99,1,00,1,00,1,99999,9,00,1,00,1","0600,9","09,9","999,-0050,9","120,N,-0040,1","240,M,+0218,1","99999,9,08211,1","9,9,999,9,+030,1",,"SYN112AAXX  16121 76373 32910 00000 11015 21019 38211 40157 5//// 91150 333 10218 21040 31050 55100 22062 58030 70000;",
"76373099999","2010-11-16T15:00:00","4","25.35","-105.75","1967.0","TEPEHUANES DGO., MX","FM-12","99999","V020","999,9,C,0000,1","22000,1,9,N","030000,1,N,1","+0022,1","+0002,1","10172,1",,,,,"00,1,+99999,9,99,9",,,"00,99,1,00,1,00,1,99999,9,00,1,00,1",,"01,9",,,,"99999,9,08223,1","2,1,012,1,+035,1",,"SYN082AAXX  16151 76373 32980 00000 10022 20002 38223 40172 52012 91450 333 30/// 58035;",
"76373099999","2010-11-16T18:00:00","4","25.35","-105.75","1967.0","TEPEHUANES DGO., MX","FM-12","99999","V020","150,1,N,0010,1","22000,1,9,N","030000,1,N,1","+0159,1","-0008,1","10154,1",,,,,"00,1,+99999,9,99,9",,,"00,99,1,00,1,00,1,99999,9,00,1,00,1",,"01,9",,"120,M,+0174,1","240,N,-0040,1","99999,9,08208,1","7,1,015,1,+999,9",,"SYN094AAXX  16181 76373 32980 01501 10159 21008 38208 40154 57015 91750 333 10174 21040 30/// 58///;",
"76373099999","2010-11-16T21:00:00","4","25.35","-105.75","1967.0","TEPEHUANES DGO., MX","FM-12","99999","V020","130,1,N,0010,1","22000,1,9,N","030000,1,N,1","+0213,1","-0057,1","10112,1",,,,,"00,1,+99999,9,99,9",,,"00,99,1,00,1,00,1,99999,9,00,1,00,1",,"01,9",,,,"99999,9,08174,1","7,1,034,1,+999,9",,"SYN082AAXX  16211 76373 32980 01301 10213 21057 38174 40112 57034 92050 333 30/// 58///;",
"76373099999","2010-11-17T00:00:00","4","25.35","-105.75","1967.0","TEPEHUANES DGO., MX","FM-12","99999","V020","140,1,N,0010,1","22000,1,9,N","030000,1,N,1","+0182,1","-0014,1","10102,1","24,0000,9,1",,,,"00,1,+99999,9,99,9",,,"00,99,1,00,1,00,1,99999,9,00,1,00,1",,"01,9",,"120,M,+0240,1","180,N,-0040,1","99999,9,08166,1","5,1,008,1,+999,9",,"SYN106AAXX  17001 76373 32980 01401 10182 21014 38166 40102 55008 92350 333 10240 21040 30/// 50441 58/// 70000;","Q01  00002PRCP24"
"76373099999","2010-11-17T03:00:00","4","25.35","-105.75","1967.0","TEPEHUANES DGO., MX","FM-12","99999","V020","999,9,C,0000,1","22000,1,9,N","001000,1,N,1","+0085,1","-0020,1","10130,1",,,,,"00,1,+99999,9,99,9",,,"00,99,1,00,1,00,1,99999,9,00,1,00,1",,"01,9",,,,"99999,9,08198,1","2,1,023,1,+999,9",,"SYN083AAXX  17031 76373 32910 00000 10085 21020 38198 40130 52023 90250 333 30/// 58////;",
"76373099999","2010-11-17T12:00:00","4","25.35","-105.75","1967.0","TEPEHUANES DGO., MX","FM-12","99999","V020","999,9,C,0000,1","22000,1,9,N","001000,1,N,1","-0013,1","-0021,1","10151,1",,,,,"00,1,+99999,9,99,9",,,"00,99,1,00,1,00,1,99999,9,00,1,00,1","0600,9","09,9","999,-0041,9","120,N,-0030,1","240,M,+0240,1","99999,9,08205,1","9,9,999,9,-006,1",,"SYN112AAXX  17121 76373 32910 00000 11013 21021 38205 40151 5//// 91150 333 10240 21030 31041 55100 21957 59006 70000;",
"76373099999","2010-11-17T18:00:00","4","25.35","-105.75","1967.0","TEPEHUANES DGO., MX","FM-12","99999","V020","120,1,N,0010,1","22000,1,9,N","030000,1,N,1","+0176,1","-0036,1","10170,1",,,,,"00,1,+99999,9,99,9",,,"00,99,1,00,1,00,1,99999,9,00,1,00,1",,"01,9",,"120,M,+0196,1","240,N,-0030,1","99999,9,08221,1","8,1,005,1,+013,1",,"SYN094AAXX  17181 76373 32980 01201 10176 21036 38221 40170 58005 91750 333 10196 21030 30/// 58013;",
"76373099999","2010-11-17T21:00:00","4","25.35","-105.75","1967.0","TEPEHUANES DGO., MX","FM-12","99999","V020","130,1,N,0030,1","22000,1,9,N","030000,1,N,1","+0222,1","-0067,1","10143,1",,,,,"00,1,+99999,9,99,9",,,"00,99,1,00,1,00,1,99999,9,00,1,00,1",,"01,9",,,,"99999,9,08199,1","7,1,022,1,+025,1",,"SYN082AAXX  17211 76373 32980 01303 10222 21067 38199 40143 57022 92050 333 30/// 58025;",
"76373099999","2010-11-18T00:00:00","4","25.35","-105.75","1967.0","TEPEHUANES DGO., MX","FM-12","99999","V020","130,1,N,0010,1","22000,1,9,N","030000,1,N,1","+0190,1","-0055,1","10154,1","24,0000,9,1",,,,"00,1,+99999,9,99,9",,,"00,99,1,00,1,00,1,99999,9,00,1,00,1",,"01,9",,"120,M,+0248,1","180,N,-0030,1","99999,9,08208,1","2,1,009,1,+042,1",,"SYN106AAXX  18001 76373 32980 01301 10190 21055 38208 40154 52009 92350 333 10248 21030 30/// 50271 58042 70000;","Q01  00002PRCP24"
"76373099999","2010-11-18T03:00:00","4","25.35","-105.75","1967.0","TEPEHUANES DGO., MX","FM-12","99999","V020","999,9,C,0000,1","22000,1,9,N","001000,1,N,1","+0106,1","-0047,1","10187,1",,,,,"00,1,+99999,9,99,9",,,"00,99,1,00,1,00,1,99999,9,00,1,00,1",,"01,9",,,,"99999,9,08235,1","2,1,027,1,+046,1",,"SYN082AAXX  18031 76373 32910 00000 10106 21047 38235 40187 52027 90250 333 30/// 58046;",
"76373099999","2010-11-18T15:00:00","4","25.35","-105.75","1967.0","TEPEHUANES DGO., MX","FM-12","99999","V020","999,9,C,0000,1","22000,1,9,N","030000,1,N,1","+0012,1","-0043,1","10243,1",,,,,"00,1,+99999,9,99,9",,,"00,99,1,00,1,00,1,99999,9,00,1,00,1",,"01,9",,,,"99999,9,08280,1","2,1,019,1,+054,1",,"SYN082AAXX  18151 76373 32980 00000 10012 21043 38280 40243 52019 91450 333 30/// 58054;",
"76373099999","2010-11-18T18:00:00","4","25.35","-105.75","1967.0","TEPEHUANES DGO., MX","FM-12","99999","V020","140,1,N,0010,1","22000,1,9,N","050000,1,N,1","+0168,1","-0048,1","10225,1",,,,,"00,1,+99999,9,99,9",,,"00,99,1,00,1,00,1,99999,9,00,1,00,1",,"01,9",,"120,M,+0188,1","240,N,-0048,1","99999,9,08266,1","7,1,014,1,+045,1",,"SYN094AAXX  18181 76373 32984 01401 10168 21048 38266 40225 57014 91750 333 10188 21048 30/// 58045;",
"76373099999","2010-11-18T21:00:00","4","25.35","-105.75","1967.0","TEPEHUANES DGO., MX","FM-12","99999","V020","130,1,N,0020,1","22000,1,9,N","050000,1,N,1","+0218,2","-0037,1","10173,1",,,,,"00,1,+99999,9,99,9",,,"00,99,1,00,1,00,1,99999,9,00,1,00,1",,"01,9",,,,"99999,9,08224,1","7,1,040,1,+025,1",,"SYN082AAXX  18211 76373 32984 01302 10218 21037 38224 40173 57040 92050 333 30/// 58025;",
"76373099999","2010-11-19T00:00:00","4","25.35","-105.75","1967.0","TEPEHUANES DGO., MX","FM-12","99999","V020","130,1,N,0020,1","22000,1,9,N","045000,1,N,1","+0194,1","-0041,1","10165,1","24,0000,9,1",,,,"00,1,+99999,9,99,9",,,"00,99,1,00,1,00,1,99999,9,00,1,00,1",,"01,9",,"120,M,+0244,1","180,N,-0048,1","99999,9,08217,1","7,1,007,1,+009,1",,"SYN106AAXX  19001 76373 32983 01302 10194 21041 38217 40165 57007 92350 333 10244 21048 30/// 50521 58009 70000;","Q01  00002PRCP24"
"76373099999","2010-11-19T03:00:00","4","25.35","-105.75","1967.0","TEPEHUANES DGO., MX","FM-12","99999","V020","999,9,C,0000,1","22000,1,9,N","010000,1,N,1","+0108,1","-0023,1","10191,1",,,,,"00,1,+99999,9,99,9",,,"00,99,1,00,1,00,1,99999,9,00,1,00,1",,"01,9",,,,"99999,9,08238,1","2,1,021,1,+003,1",,"SYN082AAXX  19031 76373 32960 00000 10108 21023 38238 40191 52021 90250 333 30/// 58003;",
"76373099999","2010-11-19T12:00:00","4","25.35","-105.75","1967.0","TEPEHUANES DGO., MX","FM-12","99999","V020","999,9,C,0000,1","22000,1,9,N","010000,1,N,1","-0012,1","-0034,1","10193,1",,,,,"00,1,+99999,9,99,9",,,"00,99,1,00,1,00,1,99999,9,00,1,00,1","0060,9","09,9","999,-0049,9","120,N,-0033,1","240,M,+0244,1","99999,9,08239,1","9,9,999,9,-022,1",,"SYN112AAXX  19121 76373 32960 00000 11012 21034 38239 40193 5//// 91150 333 10244 21033 31049 55010 21909 59022 70000;",
"76373099999","2010-11-19T18:00:00","4","25.35","-105.75","1967.0","TEPEHUANES DGO., MX","FM-12","99999","V020","130,1,N,0010,1","22000,1,9,N","050000,1,N,1","+9999,9","-0012,1","10191,1",,,,,"00,1,+99999,9,99,9",,,"00,99,1,00,1,00,1,99999,9,00,1,00,1",,"01,9",,"120,M,+0200,1","240,N,-0033,1","99999,9,08238,1","7,1,013,1,-028,1",,"SYN094AAXX  19181 76373 32984 01301 10180 21012 38238 40191 57013 91750 333 10200 21033 30/// 59028;","Q01+001803ATOT  "
"76373099999","2010-11-20T18:00:00","4","25.35","-105.75","1967.0","TEPEHUANES DGO., MX","FM-12","99999","V020","050,1,N,0010,1","22000,1,9,N","045000,1,N,1","+0219,1","+0043,1","10180,1",,,,,"03,1,+05400,1,02,1",,,"03,99,1,00,1,00,1,99999,9,00,1,09,1",,"01,9",,"120,M,+0238,1","240,N,-0012,1","99999,9,08229,1","7,1,013,1,-009,1",,"SYN112AAXX  20181 76373 32983 30501 10219 20043 38229 40180 57013 83009 91450 333 10238 21012 30/// 56009 59009 83268;","Q01+000032SCOTLC"
"76373099999","2010-11-23T18:00:00","4","25.35","-105.75","1967.0","TEPEHUANES DGO., MX","FM-12","99999","V020","130,1,N,0010,1","22000,1,9,N","030000,1,N,1","+0191,1","-0026,1","10167,1",,,,,"01,1,+05100,1,00,1",,,"01,99,1,00,1,00,1,99999,9,00,1,04,1",,"01,9",,"120,M,+0208,1","240,N,-0040,1","99999,9,08217,1","7,1,011,1,+999,9",,"SYN112AAXX  23181 76373 32980 11301 10191 21026 38217 40167 57011 80004 91750 333 10208 21040 30/// 56009 58/// 81067;",
"76373099999","2010-11-23T21:00:00","4","25.35","-105.75","1967.0","TEPEHUANES DGO., MX","FM-12","99999","V020","999,9,C,0000,1","22000,1,9,N","030000,1,N,1","+0270,1","-0064,1","10119,1",,,,,"01,1,+05100,1,00,1",,,"01,99,1,00,1,00,1,99999,9,00,1,04,1",,"01,9",,,,"99999,9,08180,1","7,1,037,1,+999,9",,"SYN100AAXX  23211 76373 32980 10000 10270 21064 38180 40119 57037 80004 92050 333 30/// 56009 58/// 81067;",
"76373099999","2010-11-24T00:00:00","4","25.35","-105.75","1967.0","TEPEHUANES DGO., MX","FM-12","99999","V020","220,1,N,0010,1","22000,1,9,N","030000,1,N,1","+0222,1","-0058,1","10124,1","24,0000,9,1",,,,,,,"01,99,1,00,1,00,1,99999,9,00,1,04,1",,"01,9",,"120,M,+0292,1","180,N,-0014,1","99999,9,08184,1","3,1,004,1,+999,9",,"SYN124AAXX  24001 76373 32980 12201 10222 21058 38184 40124 53004 80004 92350 333 10292 21014 30/// 50481 56009 58/// 70000 81067;",
"76373099999","2010-11-24T03:00:00","4","25.35","-105.75","1967.0","TEPEHUANES DGO., MX","FM-12","99999","V020","290,1,N,0010,1","22000,1,9,N","001000,1,N,1","+0149,1","-0045,1","10147,1",,,,,"01,1,+05100,1,00,1",,,"01,99,1,00,1,00,1,99999,9,00,1,04,1",,"01,9",,,,"99999,9,08202,1","2,1,023,1,+999,9",,"SYN100AAXX  24031 76373 32910 12901 10149 21045 38202 40147 52023 80004 90240 333 30/// 56009 58/// 81067;",
"76373099999","2010-11-24T12:00:00","4","25.35","-105.75","1967.0","TEPEHUANES DGO., MX","FM-12","99999","V020","999,9,C,0000,1","22000,1,9,N","001000,1,N,1","-0010,1","-0040,1","10135,1","24,0000,9,1",,,,,,,"01,99,1,01,1,02,1,00800,1,00,1,00,1","0600,9","09,9","999,-0042,9","120,N,-0030,1","240,M,+0292,1","99999,9,08193,1",,,"SYN130AAXX  24121 76373 32510 10000 11010 21040 38193 40135 5//// 81200 91150 333 10292 21030 31042 55100 21901 56100 58/// 70000 81827;",
"76373099999","2010-11-24T15:00:00","4","25.35","-105.75","1967.0","TEPEHUANES DGO., MX","FM-12","99999","V020","999,9,C,0000,1","22000,1,9,N","030000,1,N,1","+0045,1","-0032,1","10155,1",,,,,"01,1,+05100,1,00,1",,,"01,99,1,00,1,00,1,99999,9,00,1,04,1",,"01,9",,,,"99999,9,08209,1","2,1,016,1,+999,9",,"SYN100AAXX  24151 76373 32980 10000 10045 21032 38209 40155 52016 80004 91450 333 30/// 56001 58/// 81067;",
"76373099999","2010-11-24T18:00:00","4","25.35","-105.75","1967.0","TEPEHUANES DGO., MX","FM-12","99999","V020","999,9,C,0000,1","22000,1,9,N","030000,1,N,1","+9999,9","-0041,1","10134,1",,,,,"01,1,+05100,1,00,1",,,"01,99,1,00,1,00,1,99999,9,00,1,04,1",,"01,9",,"120,M,+0238,1","240,N,-0030,1","99999,9,08192,1","7,1,010,1,-025,1",,"SYN112AAXX  24181 76373 32980 10000 10228 21041 38192 40134 57010 80004 91750 333 10238 21030 30/// 56001 59025 81067;","Q01+002283ATOT  "
"76373099999","2010-11-24T21:00:00","4","25.35","-105.75","1967.0","TEPEHUANES DGO., MX","FM-12","99999","V020","230,1,N,0040,1","22000,1,9,N","030000,1,N,1","+0267,2","-0046,1","10086,1",,,,,"01,1,+05100,1,00,1",,,"01,99,1,00,1,00,1,99999,9,00,1,04,1",,"01,9",,,,"99999,9,08153,1","7,1,039,1,-027,1",,"SYN100AAXX  24211 76373 32980 12304 10267 21046 38153 40086 57039 80004 92050 333 30/// 56001 59027 81067;",
"76373099999","2010-11-25T00:00:00","4","25.35","-105.75","1967.0","TEPEHUANES DGO., MX","FM-12","99999","V020","230,1,N,0030,1","22000,1,9,N","030000,1,N,1","+0205,1","-0025,1","10094,1","24,0000,9,1",,,,"00,1,+99999,9,99,9",,,"00,99,1,00,1,00,1,99999,9,00,1,00,1",,"01,9",,"120,M,+0248,1","180,N,-0030,1","99999,9,08160,1","2,1,007,1,-024,1",,"SYN106AAXX  25001 76373 32980 02303 10205 21025 38160 40094 52007 92350 333 10248 21030 30/// 50681 59024 70000;","Q01  00002PRCP24"
"76373099999","2010-11-25T03:00:00","4","25.35","-105.75","1967.0","TEPEHUANES DGO., MX","FM-12","99999","V020","999,9,C,0000,1","22000,1,9,N","001000,1,N,1","+0134,1","-0010,1","10114,1",,,,,"00,1,+99999,9,99,9",,,"00,99,1,00,1,00,1,99999,9,00,1,00,1",,"01,9",,,,"99999,9,08176,1","2,1,016,1,-026,1",,"SYN082AAXX  25031 76373 32910 00000 10134 21010 38176 40114 52016 90235 333 30/// 59026;",
"76373099999","2010-11-25T12:00:00","4","25.35","-105.75","1967.0","TEPEHUANES DGO., MX","FM-12","99999","V020","999,9,C,0000,1","22000,1,9,N","001000,1,N,1","+0011,1","-0021,1","10108,1","24,0000,9,1",,,,,,,"01,99,1,01,1,02,1,00800,1,00,1,00,1","0600,9",,"999,-0014,9","120,N,+9999,9","240,M,+0284,1","99999,9,08171,1","9,9,999,9,-022,1",,"SYN130AAXX  25121 76373 32510 10000 10011 21021 38171 40108 5//// 81200 91150 333 10284 51002 31014 55100 21876 56100 59022 70000 81827;","Q01 -08762ATMN  "
"76373099999","2010-11-25T15:00:00","4","25.35","-105.75","1967.0","TEPEHUANES DGO., MX","FM-12","99999","V020","999,9,C,0000,1","22000,1,9,N","030000,1,N,1","+0048,1","-0008,1","10124,1",,,,,"02,1,+00810,1,06,1",,,"02,99,1,02,1,04,1,00800,1,00,1,00,1",,"01,9",,,,"99999,9,08184,1","2,1,013,1,-025,1",,"SYN100AAXX  25151 76373 32580 20000 10048 21008 38184 40124 52013 82400 91450 333 30/// 56100 59025 82627;",
"76373099999","2010-11-25T18:00:00","4","25.35","-105.75","1967.0","TEPEHUANES DGO., MX","FM-12","99999","V020","220,1,N,0030,1","00750,1,C,N","045000,1,N,1","+9999,9","-0030,1","10107,1",,,,,"03,1,+00900,1,06,1",,,"05,99,1,05,1,99,9,00800,1,04,1,04,1",,"01,9",,"120,M,+0240,1","240,N,-0002,1","99999,9,08170,1","7,1,014,1,-022,1",,"SYN112AAXX  25181 76373 32583 52203 10229 21030 38170 40107 57014 85044 91750 333 10240 21002 30/// 56099 59022 83630;","Q01+000002SCOLCG"
"76373099999","2010-11-25T21:00:00","4","25.35","-105.75","1967.0","TEPEHUANES DGO., MX","FM-12","99999","V020","220,1,N,0030,1","00750,1,C,N","045000,1,N,1","+0234,2","-0012,1","10091,1",,,,,"03,1,+00900,1,06,1",,,"05,99,1,05,1,99,9,00800,1,04,1,04,1",,"01,9",,,,"99999,9,08157,1","7,1,013,1,+004,1",,"SYN100AAXX  25211 76373 32583 52203 10234 21012 38157 40091 57013 85044 92050 333 30/// 56099 58004 83630;","Q01+000002SCOLCG"
"76373099999","2010-11-26T00:00:00","4","25.35","-105.75","1967.0","TEPEHUANES DGO., MX","FM-12","99999","V020","220,1,N,0020,1","00750,1,9,N","045000,1,N,1","+0182,1","+0009,1","10107,1","24,0000,9,1",,,,"03,1,+00800,1,06,1",,,"06,99,1,06,1,04,1,00800,1,00,1,04,1",,"01,9",,"120,M,+0252,1","180,N,-0002,1","99999,9,08170,1","2,1,013,1,+481,1",,"SYN130AAXX  26001 76373 32583 62202 10182 20009 38170 40107 52013 86404 92350 333 10252 21002 30/// 58481 56909 58010 70000 83695 83067;",
"76373099999","2010-11-26T03:00:00","4","25.35","-105.75","1967.0","TEPEHUANES DGO., MX","FM-12","99999","V020","999,9,C,0000,1","22000,1,9,N","010000,1,N,1","+0124,1","+0019,1","10145,1",,,,,"00,1,+99999,9,99,9",,,"00,99,1,00,1,00,1,99999,9,00,1,00,1",,"01,9",,,,"99999,9,08201,1","2,1,031,1,-026,1",,"SYN082AAXX  26031 76373 32960 00000 10124 20019 38201 40145 52031 90240 333 30/// 59026;",
"76373099999","2010-11-26T12:00:00","4","25.35","-105.75","1967.0","TEPEHUANES DGO., MX","FM-12","99999","V020","999,9,C,0000,1","22000,1,9,N","001000,1,N,1","-0005,1","-0009,1","10165,1","24,0000,9,1",,,,"00,1,+99999,9,99,9",,,"00,99,1,00,1,00,1,99999,9,00,1,00,1",,"09,9","999,-0044,9","120,N,-0030,1","240,M,+0252,1","99999,9,08217,1",,,"SYN112AAXX  26121 76373 32910 00000 11005 21009 38217 40165 5//// 91150 333 10252 21030 31044 55963 21829 70000 58046;",
"76373099999","2010-11-26T15:00:00","4","25.35","-105.75","1967.0","TEPEHUANES DGO., MX","FM-12","99999","V020","999,9,C,0000,1","22000,1,9,N","040000,1,N,1","+0025,1","+0003,1","10191,1",,,,,"00,1,+99999,9,99,9",,,"00,99,1,00,1,00,1,99999,9,00,1,00,1",,"01,9",,,,"99999,9,08238,1","2,1,021,1,+052,1",,"SYN082AAXX  26151 76373 32982 00000 10025 20003 38238 40191 52021 91450 333 30/// 58052;",
"76373099999","2010-11-26T18:00:00","4","25.35","-105.75","1967.0","TEPEHUANES DGO., MX","FM-12","99999","V020","090,1,N,0010,1","22000,1,9,N","045000,1,N,1","+0154,1","-0010,1","10178,1",,,,,"00,1,+99999,9,99,9",,,"00,99,1,00,1,00,1,99999,9,00,1,00,1",,"01,9",,"120,M,+0170,1","240,N,-0030,1","99999,9,08227,1","7,1,011,1,+057,1",,"SYN094AAXX  26181 76373 32983 00901 10154 21010 38227 40178 57011 91750 333 10170 21030 30/// 58057;",
"76373099999","2010-11-26T21:00:00","4","25.35","-105.75","1967.0","TEPEHUANES DGO., MX","FM-12","99999","V020","190,1,N,0010,1","22000,1,9,N","050000,1,N,1","+0191,1","-0034,1","10140,1",,,,,"00,1,+99999,9,99,9",,,"00,99,1,00,1,00,1,99999,9,00,1,00,1",,"01,9",,,,"99999,9,08196,1","7,1,031,1,+039,1",,"SYN082AAXX  26211 76373 32984 01901 10191 21034 38196 40140 57031 92050 333 30/// 58039;",
"76373099999","2010-11-27T00:00:00","4","25.35","-105.75","1967.0","TEPEHUANES DGO., MX","FM-12","99999","V020","140,1,N,0020,1","22000,1,9,N","045000,1,N,1","+0160,1","-0033,1","10149,1","24,0000,9,1",,,,"00,1,+99999,9,99,9",,,"00,99,1,00,1,00,1,99999,9,00,1,00,1",,"01,9",,"120,M,+0220,1","180,N,-0030,1","99999,9,08204,1","2,1,008,1,+034,1",,"SYN106AAXX  27001 76373 32983 01402 10160 21033 38204 40149 52008 92350 333 10220 21030 30/// 50381 58034 70000;","Q01  00002PRCP24"
"76373099999","2010-11-27T03:00:00","4","25.35","-105.75","1967.0","TEPEHUANES DGO., MX","FM-12","99999","V020","999,9,C,0000,1","22000,1,9,N","010000,1,N,1","+0076,1","-0026,1","10167,1",,,,,"00,1,+99999,9,99,9",,,"00,99,1,00,1,00,1,99999,9,00,1,00,1",,"01,9",,,,"99999,9,08219,1","2,1,015,1,+018,1",,"SYN082AAXX  27031 76373 32960 00000 10076 21026 38219 40167 52015 90250 333 30/// 58018;",
"76373099999","2010-11-27T12:00:00","4","25.35","-105.75","1967.0","TEPEHUANES DGO., MX","FM-12","99999","V020","999,9,C,0000,1","22000,1,9,N","010000,1,N,1","-0035,1","-0051,1","10174,1",,,,,"00,1,+99999,9,99,9",,,"00,99,1,00,1,00,1,99999,9,00,1,00,1","0594,9","09,9",,"120,N,-0052,1","240,M,+0220,1","99999,9,08224,1","9,9,999,9,+007,1",,"SYN112AAXX  27121 76373 32960 00000 11035 21051 38224 40174 5//// 91150 333 10220 21052 31070 55099 21925 58007 70000;",
"76373099999","2010-11-27T15:00:00","4","25.35","-105.75","1967.0","TEPEHUANES DGO., MX","FM-12","99999","V020","999,9,C,0000,1","22000,1,9,N","045000,1,N,1","-0004,1","-0038,1","10176,1",,,,,"00,1,+99999,9,99,9",,,"00,99,1,00,1,00,1,99999,9,00,1,00,1",,"01,9",,,,"99999,9,08226,1","2,1,002,1,-012,1",,"SYN082AAXX  27151 76373 32983 00000 11004 21038 38226 40176 52002 91450 333 30/// 59012;",
"76373099999","2010-11-27T18:00:00","4","25.35","-105.75","1967.0","TEPEHUANES DGO., MX","FM-12","99999","V020","999,9,C,0000,1","22000,1,9,N","050000,1,N,1","+9999,9","-0026,1","10157,1",,,,,"00,1,+99999,9,99,9",,,"00,99,1,00,1,00,1,99999,9,00,1,00,1",,"01,9",,"120,M,+0173,1","240,N,-0052,1","99999,9,08211,1","7,1,015,1,-016,1",,"SYN094AAXX  27181 76373 32984 00000 10157 21026 38211 40157 57015 91750 333 10173 21052 30/// 59016;","Q01+001573ATOT  "
"76373099999","2010-11-28T12:00:00","4","25.35","-105.75","1967.0","TEPEHUANES DGO., MX","FM-12","99999","V020","999,9,C,0000,1","22000,1,9,N","001000,1,N,1","+0004,1","-0050,1","10121,1",,,,,"00,1,+99999,9,99,9",,,"00,99,1,00,1,00,1,99999,9,00,1,00,1","0588,9","09,9","999,-0042,9","120,N,-0035,1","240,M,+0262,1","99999,9,08181,1","9,9,999,9,-043,1",,"SYN112AAXX  28121 76373 32910 00000 10004 21050 38181 40121 5//// 91155 333 10262 21035 31042 55098 21852 59043 70000;",
"76373099999","2010-11-28T15:00:00","4","25.35","-105.75","1967.0","TEPEHUANES DGO., MX","FM-12","99999","V020","110,1,N,0010,1","22000,1,9,N","030000,1,N,1","+0042,1","-0029,1","10118,1",,,,,"00,1,+99999,9,99,9",,,"00,99,1,00,1,00,1,99999,9,00,1,00,1",,"01,9",,,,"99999,9,08179,1","6,1,002,1,-047,1",,"SYN082AAXX  28151 76373 32580 01101 10042 21029 38179 40118 56002 91455 333 30/// 59047;",
"76373099999","2010-11-28T18:00:00","4","25.35","-105.75","1967.0","TEPEHUANES DGO., MX","FM-12","99999","V020","250,1,N,0060,1","22000,1,9,N","030000,1,N,1","+9999,9","-0018,1","10112,1",,,,,"00,1,+99999,9,99,9",,,"00,99,1,00,1,00,1,99999,9,00,1,00,1",,"01,9",,"120,M,+0220,1","240,N,-0035,1","99999,9,08174,1","7,1,005,1,-037,1",,"SYN094AAXX  28181 76373 32980 02506 10212 21018 38174 40112 57005 91755 333 10220 21035 30/// 59037;","Q01+002123ATOT  "
"76373099999","2010-11-28T21:00:00","4","25.35","-105.75","1967.0","TEPEHUANES DGO., MX","FM-12","99999","V020","250,1,N,0070,1","22000,1,9,N","030000,1,N,1","+0210,1","-0023,1","10087,1",,,,,"00,1,+99999,9,99,9",,,"00,99,1,00,1,00,1,99999,9,00,1,00,1",,"01,9",,,,"99999,9,08154,1","7,1,020,1,-034,1",,"SYN082AAXX  28211 76373 32980 02507 10210 21023 38154 40087 57020 92055 333 30/// 59034;",
"76373099999","2010-11-29T00:00:00","4","25.35","-105.75","1967.0","TEPEHUANES DGO., MX","FM-12","99999","V020","250,1,N,0050,1","22000,1,9,N","030000,1,N,1","+0172,1","-0010,1","10102,1",,,,,"09,1,+00540,1,00,1",,,"99,99,9,09,1,00,1,99999,9,00,1,00,1",,"01,9",,"120,M,+0236,1","180,N,-0035,1","99999,9,08166,1","2,1,012,1,+999,9",,"SYN106AAXX  29001 76373 32980 02505 10172 21010 38166 40102 52012 92350 333 10236 21035 30/// 50531 89018 70000;","Q01+000002SCOTCV"
"76373099999","2010-11-29T03:00:00","4","25.35","-105.75","1967.0","TEPEHUANES DGO., MX","FM-12","99999","V020","999,9,C,0000,1","22000,1,9,N","001000,1,N,1","+0104,1","+0005,1","10112,1",,,,,"00,1,+99999,9,99,9",,,"00,99,1,00,1,00,1,99999,9,00,1,00,1",,"01,9",,,,"99999,9,08174,1","2,1,008,1,-034,1",,"SYN082AAXX  29031 76373 32910 00000 10104 20005 38174 40112 52008 90255 333 30/// 59034;",
"76373099999","2010-11-29T12:00:00","4","25.35","-105.75","1967.0","TEPEHUANES DGO., MX","FM-12","99999","V020","999,9,C,0000,1","22000,1,9,N","001000,1,N,1","+0046,1","-0024,1","10124,1",,,,,"00,1,+99999,9,99,9",,,"00,99,1,00,1,00,1,99999,9,00,1,00,1","0576,9","09,9","999,-0032,9","120,N,-0020,1","240,M,+0236,1","99999,9,08184,1","9,9,999,9,+003,1",,"SYN112AAXX  29121 76373 32910 00000 10046 21024 38184 40124 5//// 91155 333 10236 21020 31032 55096 21771 58003 70000;",
"76373099999","2010-11-29T15:00:00","4","25.35","-105.75","1967.0","TEPEHUANES DGO., MX","FM-12","99999","V020","160,1,N,0010,1","22000,1,9,N","030000,1,N,1","+0088,1","-0036,1","10122,1",,,,,"01,1,+05100,1,00,1",,,"01,99,1,00,1,00,1,99999,9,00,1,01,1",,"01,9",,,,"99999,9,08182,1","2,1,011,1,+003,1",,"SYN100AAXX  29151 76373 32980 11601 10088 21036 38182 40122 52011 81001 91455 333 30/// 56009 58003 81067;","Q01+000012SCOTLC"
"76373099999","2010-11-29T18:00:00","4","25.35","-105.75","1967.0","TEPEHUANES DGO., MX","FM-12","99999","V020","290,1,N,0050,1","22000,1,9,N","030000,1,N,1","+0210,1","-0105,1","10122,1",,,,,"01,1,+05100,1,00,1",,,"01,99,1,00,1,00,1,99999,9,00,1,01,1",,"01,9",,"120,M,+0216,1","240,N,-0020,1","99999,9,08182,1","4,1,000,1,+008,1",,"SYN112AAXX  29181 76373 32980 12905 10210 21105 38182 40122 54000 81001 91755 333 10216 21020 30/// 56009 58008 81067;","Q01+000012SCOTLC"
"76373099999","2010-11-29T21:00:00","4","25.35","-105.75","1967.0","TEPEHUANES DGO., MX","FM-12","99999","V020","230,1,N,0050,1","22000,1,9,N","030000,1,N,1","+0228,1","-0048,1","10099,1",,,,,"01,1,+05100,1,00,1",,,"01,99,1,00,1,00,1,99999,9,00,1,01,1",,"01,9",,,,"99999,9,08164,1","7,1,018,1,+010,1",,"SYN100AAXX  29211 76373 32980 12305 10228 21048 38164 40099 57018 81001 92055 333 30/// 56009 58010 81067;","Q01+000012SCOTLC"
"76373099999","2010-11-30T00:00:00","4","25.35","-105.75","1967.0","TEPEHUANES DGO., MX","FM-12","99999","V020","290,1,N,0050,1","22000,1,9,N","030000,1,N,1","+0182,1","-0048,1","10117,1","24,0000,9,1",,,,,,,"01,99,1,00,1,00,1,99999,9,00,1,01,1",,"01,9",,"120,M,+0240,1","180,N,-0020,1","99999,9,08178,1","2,1,014,1,+012,1",,"SYN124AAXX  30001 76373 32980 12905 10182 21048 38178 40117 52014 81001 92330 333 10240 21020 30/// 50561 56009 58012 70000 81067;","Q01+000012SCOTLC"
"76373099999","2010-11-30T12:00:00","4","25.35","-105.75","1967.0","TEPEHUANES DGO., MX","FM-12","99999","V020","999,9,C,0000,1","22000,1,9,N","001000,1,N,1","-0033,1","-0042,1","10177,1",,,,,"00,1,+99999,9,99,9",,,"00,99,1,00,1,00,1,99999,9,00,1,00,1","0576,9","09,9",,"120,N,-0052,1","240,M,+0240,1","99999,9,08227,1","9,9,999,9,+056,1",,"SYN112AAXX  30121 76373 32910 00000 11033 21042 38227 40177 5//// 91150 333 10240 21052 31067 55096 21860 58056 70000;",
"76373099999","2010-11-30T15:00:00","4","25.35","-105.75","1967.0","TEPEHUANES DGO., MX","FM-12","99999","V020","999,9,C,0000,1","22000,1,9,N","030000,1,N,1","-0014,1","-0038,1","10225,1",,,,,"00,1,+99999,9,99,9",,,"00,99,1,00,1,00,1,99999,9,00,1,00,1",,"01,9",,,,"99999,9,08256,1","2,1,038,1,+083,1",,"SYN082AAXX  30151 76373 32980 00000 11014 21038 38256 40225 52038 91450 333 30/// 58083;",
"76373099999","2010-11-30T18:00:00","4","25.35","-105.75","1967.0","TEPEHUANES DGO., MX","FM-12","99999","V020","020,1,N,0010,1","22000,1,9,N","030000,1,N,1","+9999,9","-0100,1","10225,1",,,,,"00,1,+99999,9,99,9",,,"00,99,1,00,1,00,1,99999,9,00,1,00,1",,"01,9",,"120,M,+0116,1","240,N,-0052,1","99999,9,08265,1","0,1,000,1,+083,1",,"SYN094AAXX  30181 76373 32980 00201 10099 21100 38265 40225 50000 91750 333 10116 21052 30/// 58083;","Q01+000993ATOT  "
"76373099999","2010-11-30T21:00:00","4","25.35","-105.75","1967.0","TEPEHUANES DGO., MX","FM-12","99999","V020","120,1,N,0020,1","22000,1,9,N","030000,1,N,1","+0132,1","-0102,1","10190,1",,,,,"00,1,+99999,9,99,9",,,"00,99,1,00,1,00,1,99999,9,00,1,00,1",,"01,9",,,,"99999,9,08237,1","7,1,028,1,+073,1",,"SYN082AAXX  30211 76373 32980 01202 10132 21102 38237 40190 57028 92050 333 30/// 58073;",
"76373099999","2010-12-01T00:00:00","4","25.35","-105.75","1967.0","TEPEHUANES DGO., MX","FM-12","99999","V020","130,1,N,0020,1","22000,1,9,N","030000,1,N,1","+0108,1","-0111,1","10198,1","24,0000,9,1",,,,"00,1,+99999,9,99,9",,,"00,99,1,00,1,00,1,99999,9,00,1,00,1",,"01,9",,"120,M,+0152,1","180,N,-0052,1","99999,9,08244,1","2,1,007,1,+066,1",,"SYN106AAXX  01001 76373 32980 01302 10108 21111 38244 40198 52007 92350 333 10152 21052 30/// 50161 58066 70000;","Q01  00002PRCP24"
"76373099999","2010-12-01T03:00:00","4","25.35","-105.75","1967.0","TEPEHUANES DGO., MX","FM-12","99999","V020","310,1,N,0010,1","22000,1,9,N","001000,1,N,1","+0025,1","-0099,1","10222,1",,,,,"00,1,+99999,9,99,9",,,"00,99,1,00,1,00,1,99999,9,00,1,00,1",,"01,9",,,,"99999,9,08263,1","2,1,019,1,+999,9",,"SYN082AAXX  01031 76373 32910 03101 10025 21099 38263 40222 52019 90250 333 30/// 58///;",
"76373099999","2010-12-01T12:00:00","4","25.35","-105.75","1967.0","TEPEHUANES DGO., MX","FM-12","99999","V020","999,9,C,0000,1","22000,1,9,N","001000,1,N,1","-0086,1","-0114,1","10223,1",,,,,"00,1,+99999,9,99,9",,,"00,99,1,00,1,00,1,99999,9,00,1,00,1","0588,9","09,9",,"120,N,-0102,1","240,M,+0152,1","99999,9,08264,1","9,9,999,9,+037,1",,"SYN112AAXX  01121 76373 32910 00000 11086 21114 38264 40223 5//// 91150 333 10152 21102 31118 55098 21973 58037 70000;",
"76373099999","2010-12-01T18:00:00","4","25.35","-105.75","1967.0","TEPEHUANES DGO., MX","FM-12","99999","V020","010,1,N,0010,1","22000,1,9,N","030000,1,N,1","+0108,1","-0111,1","10208,1",,,,,"00,1,+99999,9,99,9",,,"00,99,1,00,1,00,1,99999,9,00,1,00,1",,"01,9",,"120,M,+0124,1","240,N,-0102,1","99999,9,08252,1","7,1,019,1,-010,1",,"SYN094AAXX  01181 76373 32980 00101 10108 21111 38252 40208 57019 91750 333 10124 21102 30/// 59010;",
"76373099999","2010-12-01T21:00:00","4","25.35","-105.75","1967.0","TEPEHUANES DGO., MX","FM-12","99999","V020","130,1,N,0010,1","22000,1,9,N","030000,1,N,1","+0197,1","-0089,1","10157,1",,,,,"00,1,+99999,9,99,9",,,"00,99,1,00,1,00,1,99999,9,00,1,00,1",,"01,9",,,,"99999,9,08211,1","7,1,041,1,-026,1",,"SYN082AAXX  01211 76373 32980 01301 10197 21089 38211 40157 57041 92050 333 30/// 59026;",
"76373099999","2010-12-02T00:00:00","4","25.35","-105.75","1967.0","TEPEHUANES DGO., MX","FM-12","99999","V020","150,1,N,0010,1","22000,1,9,N","030000,1,N,1","+0188,1","-0089,1","10149,1","24,0000,9,1",,,,"00,1,+99999,9,99,9",,,"00,99,1,00,1,00,1,99999,9,00,1,00,1",,"01,9",,"120,M,+0238,1","180,N,-0102,1","99999,9,08204,1","7,1,007,1,-014,1",,"SYN106AAXX  02001 76373 32980 01501 10188 21089 38204 40149 57007 92350 333 10238 21102 30/// 50361 59014 70000;","Q01  00002PRCP24"
"76373099999","2010-12-02T03:00:00","4","25.35","-105.75","1967.0","TEPEHUANES DGO., MX","FM-12","99999","V020","230,1,N,0010,1","22000,1,9,N","001000,1,N,1","+0081,1","-0076,1","10180,1",,,,,"00,1,+99999,9,99,9",,,"00,99,1,00,1,00,1,99999,9,00,1,00,1",,"01,9",,,,"99999,9,08229,1","2,1,026,1,-034,1",,"SYN082AAXX  02031 76373 32910 02301 10081 21076 38229 40180 52026 90250 333 30/// 59034;",
"76373099999","2010-12-02T12:00:00","4","25.35","-105.75","1967.0","TEPEHUANES DGO., MX","FM-12","99999","V020","999,9,C,0000,1","22000,1,9,N","001000,1,N,1","-0047,1","-0087,1","10198,1",,,,,"00,1,+99999,9,99,9",,,"00,99,1,00,1,00,1,99999,9,00,1,00,1","0588,9","09,9",,"120,N,-0068,1","240,M,+0238,1","99999,9,08243,1","9,9,999,9,-019,1",,"SYN112AAXX  02121 76373 32910 00000 11047 21087 38243 40198 5//// 91150 333 10238 21068 31080 55098 21892 59019 70000;",
"76373099999","2010-12-02T15:00:00","4","25.35","-105.75","1967.0","TEPEHUANES DGO., MX","FM-12","99999","V020","999,9,C,0000,1","22000,1,9,N","030000,1,N,1","-0014,1","-0073,1","10217,1",,,,,"00,1,+99999,9,99,9",,,"00,99,1,00,1,00,1,99999,9,00,1,00,1",,"01,9",,,,"99999,9,08259,1","2,1,016,1,-012,1",,"SYN082AAXX  02151 76373 32980 00000 11014 21073 38259 40217 52016 91450 333 30/// 59012;",
"76373099999","2010-12-02T18:00:00","4","25.35","-105.75","1967.0","TEPEHUANES DGO., MX","FM-12","99999","V020","050,1,N,0010,1","22000,1,9,N","050000,1,N,1","+9999,9","-0071,1","10201,1",,,,,"00,1,+99999,9,99,9",,,"00,99,1,00,1,00,1,99999,9,00,1,00,1",,"01,9",,"120,M,+0170,1","240,N,-0068,1","99999,9,08246,1","7,1,013,1,-006,1",,"SYN094AAXX  02181 76373 32984 00501 10150 21071 38246 40201 57013 91750 333 10170 21068 30/// 59006;","Q01+001503ATOT  "
"76373099999","2010-12-03T00:00:00","4","25.35","-105.75","1967.0","TEPEHUANES DGO., MX","FM-12","99999","V020","130,1,N,0020,1","22000,1,9,N","045000,1,N,1","+0204,1","-0122,1","10159,1","24,0000,9,1",,,,"00,1,+99999,9,99,9",,,"00,99,1,00,1,00,1,99999,9,00,1,00,1",,"01,9",,"120,M,+0262,1","180,N,-0068,1","99999,9,08212,1","2,1,006,1,+008,1",,"SYN106AAXX  03001 76373 32983 01302 10204 21122 38212 40159 52006 92350 333 10262 21068 30/// 50351 58008 70000;","Q01  00002PRCP24"
"76373099999","2010-12-03T03:00:00","4","25.35","-105.75","1967.0","TEPEHUANES DGO., MX","FM-12","99999","V020","999,9,C,0000,1","22000,1,9,N","010000,1,N,1","+0088,1","-0099,1","10187,1",,,,,"00,1,+99999,9,99,9",,,"00,99,1,00,1,00,1,99999,9,00,1,00,1",,"01,9",,,,"99999,9,08235,1","2,1,023,1,+006,1",,"SYN082AAXX  03031 76373 32960 00000 10088 21099 38235 40187 52023 90250 333 30/// 58006;",
"76373099999","2010-12-03T12:00:00","4","25.35","-105.75","1967.0","TEPEHUANES DGO., MX","FM-12","99999","V020","999,9,C,0000,1","22000,1,9,N","010000,1,N,1","-0035,1","-0087,1","10211,1",,,,,"00,1,+99999,9,99,9",,,"00,99,1,00,1,00,1,99999,9,00,1,00,1","0588,9","09,9",,"120,N,-0053,1","240,M,+0262,1","99999,9,08254,1","9,9,999,9,+011,1",,"SYN112AAXX  03121 76373 32960 00000 11035 21087 38254 40211 5//// 91150 333 10262 21053 31062 55098 21828 58011 70000;",
"76373099999","2010-12-03T15:00:00","4","25.35","-105.75","1967.0","TEPEHUANES DGO., MX","FM-12","99999","V020","999,9,C,0000,1","22000,1,9,N","040000,1,N,1","-0009,1","-0078,1","10216,1",,,,,"00,1,+99999,9,99,9",,,"00,99,1,00,1,00,1,99999,9,00,1,00,1",,"01,9",,,,"99999,9,08258,1","3,1,004,1,-001,1",,"SYN082AAXX  03151 76373 32982 00000 11009 21078 38258 40216 53004 91450 333 30/// 59001;",
"76373099999","2010-12-03T18:00:00","4","25.35","-105.75","1967.0","TEPEHUANES DGO., MX","FM-12","99999","V020","999,9,C,0000,1","22000,1,9,N","050000,1,N,1","+9999,9","-0092,1","10198,1",,,,,"00,1,+99999,9,99,9",,,"00,99,1,00,1,00,1,99999,9,00,1,00,1",,"01,9",,"120,M,+0180,1","240,N,-0053,1","99999,9,08244,1","7,1,014,1,-002,1",,"SYN094AAXX  03181 76373 32984 00000 10160 21092 38244 40198 57014 91750 333 10180 21053 30/// 59002;","Q01+001603ATOT  "
"76373099999","2010-12-03T21:00:00","4","25.35","-105.75","1967.0","TEPEHUANES DGO., MX","FM-12","99999","V020","140,1,N,0010,1","22000,1,9,N","050000,1,N,1","+0246,2","-0090,1","10148,1",,,,,"00,1,+99999,9,99,9",,,"00,99,1,00,1,00,1,99999,9,00,1,00,1",,"01,9",,,,"99999,9,08203,1","7,1,039,1,-003,1",,"SYN082AAXX  03211 76373 32984 01401 10246 21090 38203 40148 57039 92050 333 30/// 59003;",
"76373099999","2010-12-04T00:00:00","4","25.35","-105.75","1967.0","TEPEHUANES DGO., MX","FM-12","99999","V020","200,1,N,0010,1","22000,1,9,N","045000,1,N,1","+0224,1","-0075,1","10148,1","24,0000,9,1",,,,,,,"03,99,1,00,1,00,1,99999,9,00,1,04,1",,"01,9",,"120,M,+0278,1","180,N,-0053,1","99999,9,08203,1","4,1,000,1,-009,1",,"SYN124AAXX  04001 76373 32983 32001 10224 21075 38203 40148 54000 83004 92350 333 10278 21053 30/// 50311 56009 59009 70000 83070;","Q01+000032SCOTLC"
"76373099999","2010-12-04T12:00:00","4","25.35","-105.75","1967.0","TEPEHUANES DGO., MX","FM-12","99999","V020","999,9,C,0000,1","22000,1,9,N","010000,1,N,1","-0015,1","-0054,1","10188,1",,,,,"00,1,+99999,9,99,9",,,"00,99,1,00,1,00,1,99999,9,00,1,00,1","0588,9","09,9","999,-0049,9","120,N,-0038,1","240,M,+0278,1","99999,9,08236,1","9,9,999,9,-018,1",,"SYN112AAXX  04121 76373 32960 00000 11015 21054 38236 40188 5//// 91150 333 10278 21038 31049 55098 21756 59018 70000;",
"76373099999","2010-12-04T15:00:00","4","25.35","-105.75","1967.0","TEPEHUANES DGO., MX","FM-12","99999","V020","999,9,C,0000,1","22000,1,9,N","045000,1,N,1","+0010,1","-0042,1","10204,1",,,,,"02,1,+06000,1,00,1",,,"02,99,1,00,1,00,1,99999,9,00,1,04,1",,"01,9",,,,"99999,9,08248,1","2,1,012,1,-010,1",,"SYN100AAXX  04151 76373 32983 20000 10010 21042 38248 40204 52012 82004 91450 333 30/// 56009 59010 82070;","Q01+000022SCOTLC"
"76373099999","2010-12-04T18:00:00","4","25.35","-105.75","1967.0","TEPEHUANES DGO., MX","FM-12","99999","V020","100,1,N,0010,1","22000,1,9,N","050000,1,N,1","+9999,9","-0036,1","10201,1",,,,,"02,1,+06000,1,00,1",,,"02,99,1,00,1,00,1,99999,9,00,1,04,1",,"01,9",,"120,M,+0188,1","240,N,-0038,1","99999,9,08246,1","6,1,002,1,+002,1",,"SYN112AAXX  04181 76373 32984 21001 10168 21036 38246 40201 56002 82004 91745 333 10188 21038 30/// 56009 58002 82070;","Q01+000022SCOTLC"
"76373099999","2010-12-07T15:00:00","4","25.35","-105.75","1967.0","TEPEHUANES DGO., MX","FM-12","99999","V020","999,9,C,0000,1","09000,1,9,N","030000,1,N,1","+0002,1","-0066,1","10212,1",,,,,"04,1,+00750,1,08,1",,,"06,99,1,04,1,04,1,00800,1,00,1,02,1",,"01,9",,,,"99999,9,08255,1","2,1,005,1,+999,9",,"SYN100AAXX  07151 76373 32580 60000 10002 21066 38255 40212 52005 84402 91450 333 30/// 56909 58/// 84825;",
"76373099999","2010-12-07T18:00:00","4","25.35","-105.75","1967.0","TEPEHUANES DGO., MX","FM-12","99999","V020","090,1,N,0010,1","22000,1,9,N","030000,1,N,1","+9999,9","-0058,1","10188,1",,,,,"02,1,+05100,1,00,1",,,"02,99,1,00,1,00,1,99999,9,00,1,04,1",,"01,9",,"120,M,+0180,1","240,N,-0052,1","99999,9,08236,1","7,1,019,1,+999,9",,"SYN112AAXX  07181 76373 32980 20901 10175 21058 38236 40188 57019 80004 91750 333 10180 21052 30/// 56009 58/// 82067;","Q01+001753ATOT  "
"76373099999","2010-12-07T21:00:00","4","25.35","-105.75","1967.0","TEPEHUANES DGO., MX","FM-12","99999","V020","300,1,N,0040,1","22000,1,9,N","030000,1,N,1","+0258,2","-0040,1","10136,1",,,,,"02,1,+00810,1,08,1",,,"02,99,1,01,1,01,1,00800,1,00,1,04,1",,"01,9",,,,"99999,9,08294,1","7,1,042,1,+999,9",,"SYN100AAXX  07211 76373 32580 23004 10258 21040 38294 40136 57042 81104 92050 333 30/// 56909 58/// 82827;",
"76373099999","2010-12-08T00:00:00","4","25.35","-105.75","1967.0","TEPEHUANES DGO., MX","FM-12","99999","V020","270,1,N,0030,1","22000,1,9,N","030000,1,N,1","+0222,1","-0022,1","10139,1","24,0000,9,1",,,,,,,"03,99,1,01,1,02,1,00800,1,00,1,04,1",,"01,9",,"120,M,+0274,1","180,N,-0052,1",,"3,1,002,1,+999,9",,"SYN124AAXX  08001 76373 32580 32703 10222 21022 38196 40139 53002 81204 92350 333 10274 21052 30/// 50581 56909 58/// 70000 81827;","Q01+081963APOSP "
"76373099999","2010-12-08T03:00:00","4","25.35","-105.75","1967.0","TEPEHUANES DGO., MX","FM-12","99999","V020","300,1,N,0010,1","22000,1,9,N","030000,1,N,1","+0157,1","-0010,1","10171,1",,,,,"01,1,+05100,1,00,1",,,"01,99,1,00,1,00,1,99999,9,00,1,04,1",,"01,9",,,,"99999,9,08222,1","2,1,025,1,+999,9",,"SYN100AAXX  08031 76373 32980 13001 10157 21010 38222 40171 52025 80004 90250 333 30/// 56009 58/// 81067;",
"76373099999","2010-12-08T12:00:00","4","25.35","-105.75","1967.0","TEPEHUANES DGO., MX","FM-12","99999","V020","999,9,C,0000,1","22000,1,9,N","001000,1,N,1","+0026,1","-0024,1","10205,1",,,,,"00,1,+99999,9,99,9",,,"00,99,1,00,1,00,1,99999,9,00,1,00,1","0510,9","09,9","999,-0012,9","120,N,+0002,1","240,M,+0274,1","99999,9,08249,1","9,9,999,9,-001,1",,"SYN112AAXX  08121 76373 32910 00000 10026 21024 38249 40205 5//// 91150 333 10274 20002 31012 55085 21731 59001 70000;",
"76373099999","2010-12-08T15:00:00","4","25.35","-105.75","1967.0","TEPEHUANES DGO., MX","FM-12","99999","V020","999,9,C,0000,1","22000,1,9,N","030000,1,N,1","+0039,1","-0018,1","10225,1",,,,,"02,1,+05100,1,00,1",,,"02,99,1,00,1,00,1,99999,9,00,1,04,1",,"01,9",,,,"99999,9,08265,1","2,1,026,1,-010,1",,"SYN100AAXX  08151 76373 32980 20000 10039 21018 38265 40225 52026 80004 91450 333 30/// 56009 59010 82067;",
"76373099999","2010-12-08T18:00:00","4","25.35","-105.75","1967.0","TEPEHUANES DGO., MX","FM-12","99999","V020","180,1,N,0010,1","22000,1,9,N","030000,1,N,1","+0171,1","-0050,1","10225,1",,,,,"02,1,+05100,1,00,1",,,"02,99,1,00,1,00,1,99999,9,00,1,04,1",,"01,9",,"120,M,+0186,1","240,N,+0002,1","99999,9,08265,1","0,1,000,1,-029,1",,"SYN112AAXX  08181 76373 32980 21801 10171 21050 38265 40225 50000 80004 91750 333 10186 20002 30/// 56009 59029 82067;",
"76373099999","2010-12-08T21:00:00","4","25.35","-105.75","1967.0","TEPEHUANES DGO., MX","FM-12","99999","V020","160,1,N,0030,1","22000,1,9,N","030000,1,N,1","+0194,1","-0062,1","10197,1",,,,,"01,1,+05100,1,00,1",,,"01,99,1,00,1,00,1,99999,9,00,1,04,1",,"01,9",,,,"99999,9,08243,1","7,1,022,1,-049,1",,"SYN100AAXX  08211 76373 32980 11603 10194 21062 38243 40197 57022 80004 92040 333 30/// 56009 59049 81067;",
"76373099999","2010-12-09T00:00:00","4","25.35","-105.75","1967.0","TEPEHUANES DGO., MX","FM-12","99999","V020","120,1,N,0020,1","22000,1,9,N","030000,1,N,1","+0158,1","-0059,1","10191,1","24,0000,9,1",,,,"00,1,+99999,9,99,9",,,"00,99,1,00,1,00,1,99999,9,00,1,00,1",,"01,9",,"120,M,+0214,1","180,N,+0002,1","99999,9,08238,1","7,1,005,1,-042,1",,"SYN106AAXX  09001 76373 32980 01202 10158 21059 38238 40191 57005 92350 333 10214 20002 30/// 50371 59042 70000;","Q01  00002PRCP24"
"76373099999","2010-12-09T12:00:00","4","25.35","-105.75","1967.0","TEPEHUANES DGO., MX","FM-12","99999","V020","999,9,C,0000,1","22000,1,9,N","001000,1,N,1","-0059,1","-0080,1","10212,1",,,,,"00,1,+99999,9,99,9",,,"00,99,1,00,1,00,1,99999,9,00,1,00,1","0570,9","09,9",,"120,N,-0080,1","240,M,+0214,1","99999,9,08257,1","9,9,999,9,+008,1",,"SYN112AAXX  09121 76373 32910 00000 11059 21080 38257 40212 5//// 91150 333 10214 21080 31096 55095 21820 58008 70000;",
"76373099999","2010-12-09T15:00:00","4","25.35","-105.75","1967.0","TEPEHUANES DGO., MX","FM-12","99999","V020","999,9,C,0000,1","22000,1,9,N","030000,1,N,1","-0038,1","-0072,1","10229,1",,,,,"00,1,+99999,9,99,9",,,"00,99,1,00,1,00,1,99999,9,00,1,00,1",,"01,9",,,,"99999,9,08269,1","2,1,012,1,+003,1",,"SYN082AAXX  09151 76373 32980 00000 11038 21072 38269 40229 52012 91450 333 30/// 58003;",
"76373099999","2010-12-09T18:00:00","4","25.35","-105.75","1967.0","TEPEHUANES DGO., MX","FM-12","99999","V020","999,9,C,0000,1","22000,1,9,N","045000,1,N,1","+0118,1","-0067,1","10211,1",,,,,"00,1,+99999,9,99,9",,,"00,99,1,00,1,00,1,99999,9,00,1,00,1",,"09,9",,"120,M,+0133,1",,"99999,9,08254,1","2,1,015,1,+999,9",,"SYN094AAXX  09181 76373 32983 00000 10118 21067 38254 40211 52015 91750 333 10133 31080 30/// 59016;",
"76373099999","2010-12-09T21:00:00","4","25.35","-105.75","1967.0","TEPEHUANES DGO., MX","FM-12","99999","V020","130,1,N,0010,1","22000,1,9,N","050000,1,N,1","+0212,1","-0093,1","99999,9",,,,,"00,1,+99999,9,99,9",,,"00,99,1,00,1,00,1,99999,9,00,1,00,1",,"01,9",,,,"99999,9,08205,1","7,1,049,1,-038,1",,"SYN082AAXX  09211 76373 32984 01301 10212 21093 38205 40150 57049 92050 333 30/// 59038;","Q01+101503APOSLP"
"76373099999","2010-12-10T03:00:00","4","25.35","-105.75","1967.0","TEPEHUANES DGO., MX","FM-12","99999","V020","999,9,C,0000,1","22000,1,9,N","010000,1,N,1","+0097,1","-0083,1","10180,1",,,,,"00,1,+99999,9,99,9",,,"00,99,1,00,1,00,1,99999,9,00,1,00,1",,"01,9",,,,"99999,9,08229,1",,,"SYN082AAXX  10031 76373 32960 00000 10097 21083 38229 40180 5//// 90250 333 30/// 58///;",
"76373099999","2010-12-10T12:00:00","4","25.35","-105.75","1967.0","TEPEHUANES DGO., MX","FM-12","99999","V020","999,9,C,0000,1","22000,1,9,N","010000,1,N,1","-0039,1","-0080,1","10193,1",,,,,"00,1,+99999,9,99,9",,,"00,99,1,00,1,00,1,99999,9,00,1,00,1","0588,9","09,9",,"120,N,-0065,1","240,M,+0253,1","99999,9,08240,1","9,9,999,9,-017,1",,"SYN112AAXX  10121 76373 32960 00000 11039 21080 38240 40193 5//// 91150 333 10253 21065 31078 55098 21876 59017 70000;",
"76373099999","2010-12-10T15:00:00","4","25.35","-105.75","1967.0","TEPEHUANES DGO., MX","FM-12","99999","V020","999,9,C,0000,1","22000,1,9,N","045000,1,N,1","-0009,1","-0067,1","10196,1",,,,,"00,1,+99999,9,99,9",,,"00,99,1,00,1,00,1,99999,9,00,1,00,1",,"01,9",,,,"99999,9,08242,1","1,1,002,1,-028,1",,"SYN082AAXX  10151 76373 32983 00000 11009 21067 38242 40196 51002 91450 333 30/// 59028;",
"76373099999","2010-12-10T18:00:00","4","25.35","-105.75","1967.0","TEPEHUANES DGO., MX","FM-12","99999","V020","100,1,N,0010,1","22000,1,9,N","050000,1,N,1","+0149,1","-0052,1","10185,1",,,,,"00,1,+99999,9,99,9",,,"00,99,1,00,1,00,1,99999,9,00,1,00,1",,"01,9",,"120,M,+0168,1","240,N,-0065,1","99999,9,08233,1","7,1,009,1,-021,1",,"SYN094AAXX  10181 76373 32984 01001 10149 21052 38233 40185 57009 91750 333 10168 21065 30/// 59021;",
"76373099999","2010-12-10T21:00:00","4","25.35","-105.75","1967.0","TEPEHUANES DGO., MX","FM-12","99999","V020","110,1,N,0010,1","22000,1,9,N","050000,1,N,1","+0230,2","-0082,1","10134,1",,,,,"00,1,+99999,9,99,9",,,"00,99,1,00,1,00,1,99999,9,00,1,00,1",,"01,9",,,,"99999,9,08192,1","7,1,041,1,-013,1",,"SYN082AAXX  10211 76373 32984 01101 10230 21082 38192 40134 57041 92050 333 30/// 59013;",
"76373099999","2010-12-11T00:00:00","4","25.35","-105.75","1967.0","TEPEHUANES DGO., MX","FM-12","99999","V020","110,1,N,0010,1","22000,1,9,N","045000,1,N,1","+0206,1","-0064,1","10130,1","24,0000,9,1",,,,"00,1,+99999,9,99,9",,,"00,99,1,00,1,00,1,99999,9,00,1,00,1",,"01,9",,"120,M,+0264,1","180,N,-0065,1","99999,9,08188,1","7,1,004,1,-022,1",,"SYN106AAXX  11001 76373 32983 01101 10206 21064 38188 40130 57004 92350 333 10264 21065 30/// 50281 59022 70000;","Q01  00002PRCP24"
"76373099999","2010-12-11T03:00:00","4","25.35","-105.75","1967.0","TEPEHUANES DGO., MX","FM-12","99999","V020","999,9,C,0000,1","22000,1,9,N","010000,1,N,1","+0104,1","-0060,1","10157,1",,,,,"00,1,+99999,9,99,9",,,"00,99,1,00,1,00,1,99999,9,00,1,00,1",,"01,9",,,,"99999,9,08210,1","2,1,022,1,+019,1",,"SYN082AAXX  11031 76373 32960 00000 10104 21060 38210 40157 52022 90250 333 30/// 58019;",
"76373099999","2010-12-11T12:00:00","4","25.35","-105.75","1967.0","TEPEHUANES DGO., MX","FM-12","99999","V020","999,9,C,0000,1","22000,1,9,N","010000,1,N,1","-0019,1","-0056,1","10167,1",,,,,"00,1,+99999,9,99,9",,,"00,99,1,00,1,00,1,99999,9,00,1,00,1","0588,9","09,9",,"120,N,-0045,1","240,M,+0253,1","99999,9,08218,1","9,9,999,9,-022,1",,"SYN112AAXX  11121 76373 32960 00000 11019 21056 38218 40167 5//// 91150 333 10253 21045 31060 55098 21772 59022 70000;",
"76373099999","2010-12-11T15:00:00","4","25.35","-105.75","1967.0","TEPEHUANES DGO., MX","FM-12","99999","V020","999,9,C,0000,1","22000,1,9,N","045000,1,N,1","+0002,1","-0040,1","10186,1",,,,,"00,1,+99999,9,99,9",,,"00,99,1,00,1,00,1,99999,9,00,1,00,1",,"01,9",,,,"99999,9,08234,1","2,1,016,1,-008,1",,"SYN082AAXX  11151 76373 32983 00000 10002 21040 38234 40186 52016 91450 333 30/// 59008;",
"76373099999","2010-12-11T18:00:00","4","25.35","-105.75","1967.0","TEPEHUANES DGO., MX","FM-12","99999","V020","999,9,C,0000,1","22000,1,9,N","050000,1,N,1","+9999,9","-0068,1","10165,1",,,,,"00,1,+99999,9,99,9",,,"00,99,1,00,1,00,1,99999,9,00,1,00,1",,"01,9",,"120,M,+0180,1","240,N,-0045,1","99999,9,08217,1","7,1,017,1,-016,1",,"SYN094AAXX  11181 76373 32984 00000 10168 21068 38217 40165 57017 91750 333 10180 21045 30/// 59016;","Q01+001683ATOT  "
"76373099999","2010-12-14T12:00:00","4","25.35","-105.75","1967.0","TEPEHUANES DGO., MX","FM-12","99999","V020","999,9,C,0000,1","22000,1,9,N","001000,1,N,1","-0021,1","-0044,1","10167,1",,,,,"00,1,+99999,9,99,9",,,"00,99,1,00,1,00,1,99999,9,00,1,00,1",,"09,9",,"120,N,-0041,1","240,M,+0274,1","99999,9,08218,1",,,"SYN112AAXX  14121 76373 32910 00000 11021 21044 38218 40167 5//// 91150 333 10274 21041 31060 55/// 2//// 58/// 70000;",
"76373099999","2010-12-14T15:00:00","4","25.35","-105.75","1967.0","TEPEHUANES DGO., MX","FM-12","99999","V020","999,9,C,0000,1","22000,1,9,N","030000,1,N,1","-0001,1","-0038,1","10184,1",,,,,"00,1,+99999,9,99,9",,,"00,99,1,00,1,00,1,99999,9,00,1,00,1",,"01,9",,,,"99999,9,08232,1","2,1,014,1,+999,9",,"SYN082AAXX  14151 76373 32980 00000 11001 21038 38232 40184 52014 91450 333 30/// 58///;",
"76373099999","2010-12-14T18:00:00","4","25.35","-105.75","1967.0","TEPEHUANES DGO., MX","FM-12","99999","V020","120,1,N,0010,1","22000,1,9,N","030000,1,N,1","+9999,9","-0028,1","10171,1",,,,,"00,1,+99999,9,99,9",,,"00,99,1,00,1,00,1,99999,9,00,1,00,1",,"01,9",,"120,M,+0182,1","240,N,-0041,1","99999,9,08222,1","8,1,010,1,+999,9",,"SYN094AAXX  14181 76373 32980 01201 10164 21028 38222 40171 58010 91750 333 10182 21041 30/// 58///;","Q01+001643ATOT  "
"76373099999","2010-12-14T21:00:00","4","25.35","-105.75","1967.0","TEPEHUANES DGO., MX","FM-12","99999","V020","170,1,N,0010,1","22000,1,9,N","030000,1,N,1","+0252,2","-0090,1","10117,1",,,,,"00,1,+99999,9,99,9",,,"00,99,1,00,1,00,1,99999,9,00,1,00,1",,"01,9",,,,"99999,9,08178,1","7,1,044,1,+999,9",,"SYN082AAXX  14211 76373 32980 01701 10252 21090 38178 40117 57044 92050 333 30/// 58///;",
"76373099999","2010-12-18T00:00:00","4","25.35","-105.75","1967.0","TEPEHUANES DGO., MX","FM-12","99999","V020","250,1,N,0010,1","22000,1,9,N","045000,1,N,1","+0161,1","-0061,1","10116,1","24,0000,9,1",,,,"00,1,+99999,9,99,9",,,"00,99,1,00,1,00,1,99999,9,00,1,00,1",,"01,9",,"120,M,+0245,1","180,N,-0060,1","99999,9,08177,1","2,1,008,1,+999,9",,"SYN106AAXX  18001 76373 32983 02501 10161 21061 38177 40116 52008 92350 333 10245 21060 30/// 50381 58/// 70000;","Q01  00002PRCP24"
"76373099999","2010-12-18T03:00:00","4","25.35","-105.75","1967.0","TEPEHUANES DGO., MX","FM-12","99999","V020","270,1,N,0010,1","22000,1,9,N","010000,1,N,1","+0078,1","-0036,1","10142,1",,,,,"00,1,+99999,9,99,9",,,"00,99,1,00,1,00,1,99999,9,00,1,00,1",,"01,9",,,,"99999,9,08198,1","2,1,011,1,+999,9",,"SYN082AAXX  18031 76373 32960 02701 10078 21036 38198 40142 52011 90250 333 30/// 58///;",
"76373099999","2010-12-18T12:00:00","4","25.35","-105.75","1967.0","TEPEHUANES DGO., MX","FM-12","99999","V020","999,9,C,0000,1","22000,1,9,N","010000,1,N,1","-0033,1","-0048,1","10153,1",,,,,"00,1,+99999,9,99,9",,,"00,99,1,00,1,00,1,99999,9,00,1,00,1","0588,9","09,9",,"120,N,-0052,1","240,M,+0245,1","99999,9,08208,1",,,"SYN112AAXX  18121 76373 32960 00000 11033 21048 38208 40153 5//// 91150 333 10245 21052 31067 55098 21796 58/// 70000;",
"76373099999","2010-12-18T15:00:00","4","25.35","-105.75","1967.0","TEPEHUANES DGO., MX","FM-12","99999","V020","999,9,C,0000,1","22000,1,9,N","030000,1,N,1","-0015,1","-0039,1","10165,1",,,,,"00,1,+99999,9,99,9",,,"00,99,1,00,1,00,1,99999,9,00,1,00,1",,"01,9",,,,"99999,9,08217,1","2,1,009,1,+999,9",,"SYN082AAXX  18151 76373 32980 00000 11015 21039 38217 40165 52009 91450 333 30/// 58///;",
"76373099999","2010-12-18T18:00:00","4","25.35","-105.75","1967.0","TEPEHUANES DGO., MX","FM-12","99999","V020","040,1,N,0010,1","22000,1,9,N","050000,1,N,1","+0138,1","-0029,1","10145,1",,,,,"00,1,+99999,9,99,9",,,"00,99,1,00,1,00,1,99999,9,00,1,00,1",,"01,9",,"120,M,+0150,1","240,N,-0052,1","99999,9,08201,1","7,1,016,1,+999,9",,"SYN094AAXX  18181 76373 32984 00401 10138 21029 38201 40145 57016 91750 333 10150 21052 30/// 58///;",
"76373099999","2010-12-18T21:00:00","4","25.35","-105.75","1967.0","TEPEHUANES DGO., MX","FM-12","99999","V020","140,1,N,0020,1","22000,1,9,N","030000,1,N,1","+0214,1","-0090,1","10106,1",,,,,"00,1,+99999,9,99,9",,,"00,99,1,00,1,00,1,99999,9,00,1,00,1",,"01,9",,,,"99999,9,08169,1","7,1,032,1,+000,1",,"SYN082AAXX  18211 76373 32980 01402 10214 21090 38169 40106 57032 92050 333 30/// 58000;",
"76373099999","2010-12-19T00:00:00","4","25.35","-105.75","1967.0","TEPEHUANES DGO., MX","FM-12","99999","V020","160,1,N,0020,1","22000,1,9,N","030000,1,N,1","+0192,1","-0081,1","10098,1","24,0000,9,1",,,,"00,1,+99999,9,99,9",,,"00,99,1,00,1,00,1,99999,9,00,1,00,1",,"01,9",,"120,M,+0240,1","180,N,-0052,1","99999,9,08163,1","7,1,006,1,-014,1",,"SYN106AAXX  19001 76373 32980 01602 10192 21081 38163 40098 57006 92350 333 10240 21052 30/// 50321 59014 70000;","Q01  00002PRCP24"
"76373099999","2010-12-19T03:00:00","4","25.35","-105.75","1967.0","TEPEHUANES DGO., MX","FM-12","99999","V020","999,9,C,0000,1","22000,1,9,N","001000,1,N,1","+0092,1","-0075,1","10128,1",,,,,"00,1,+99999,9,99,9",,,"00,99,1,00,1,00,1,99999,9,00,1,00,1",,"01,9",,,,"99999,9,08187,1","2,1,024,1,-011,1",,"SYN082AAXX  19031 76373 32910 00000 10092 21075 38187 40128 52024 90250 333 30/// 59011;",
"76373099999","2010-12-19T12:00:00","4","25.35","-105.75","1967.0","TEPEHUANES DGO., MX","FM-12","99999","V020","999,9,C,0000,1","22000,1,9,N","001000,1,N,1","-0026,1","-0107,1","10149,1",,,,,"00,1,+99999,9,99,9",,,"00,99,1,00,1,00,1,99999,9,00,1,00,1","0588,9","09,9",,"120,N,-0070,1","240,M,+0240,1","99999,9,08204,1","9,9,999,9,-004,1",,"SYN112AAXX  19121 76373 32910 00000 11026 21107 38204 40149 5//// 91155 333 10240 21070 31082 55098 21731 59004 70000;",
"76373099999","2010-12-19T15:00:00","4","25.35","-105.75","1967.0","TEPEHUANES DGO., MX","FM-12","99999","V020","999,9,C,0000,1","22000,1,9,N","030000,1,N,1","-0014,1","-0063,1","10162,1",,,,,"00,1,+99999,9,99,9",,,"00,99,1,00,1,00,1,99999,9,00,1,00,1",,"01,9",,,,"99999,9,08214,1","2,1,010,1,-003,1",,"SYN082AAXX  19151 76373 32980 00000 11014 21063 38214 40162 52010 91450 333 30/// 59003;",
"76373099999","2010-12-19T18:00:00","4","25.35","-105.75","1967.0","TEPEHUANES DGO., MX","FM-12","99999","V020","140,1,N,0010,1","22000,1,9,N","030000,1,N,1","+9999,9","-0043,1","10148,1",,,,,"00,1,+99999,9,99,9",,,"00,99,1,00,1,00,1,99999,9,00,1,00,1",,"01,9",,"120,M,+0170,1","240,N,-0070,1","99999,9,08203,1","7,1,011,1,+002,1",,"SYN094AAXX  19181 76373 32980 01401 10152 21043 38203 40148 57011 91750 333 10170 21070 30/// 58002;","Q01+001523ATOT  "
"76373099999","2010-12-19T21:00:00","4","25.35","-105.75","1967.0","TEPEHUANES DGO., MX","FM-12","99999","V020","140,1,N,0010,1","22000,1,9,N","030000,1,N,1","+0242,1","-0070,1","10104,1",,,,,"00,1,+99999,9,99,9",,,"00,99,1,00,1,00,1,99999,9,00,1,00,1",,"01,9",,,,"99999,9,08168,1","7,1,039,1,-001,1",,"SYN082AAXX  19211 76373 32980 01401 10242 21070 38168 40104 57039 92050 333 30/// 59001;",
"76373099999","2010-12-20T00:00:00","4","25.35","-105.75","1967.0","TEPEHUANES DGO., MX","FM-12","99999","V020","290,1,N,0020,1","22000,1,9,N","030000,1,N,1","+0228,1","-0040,1","10102,1","24,0000,9,1",,,,"00,1,+99999,9,99,9",,,"00,99,1,00,1,00,1,99999,9,00,1,00,1",,"01,9",,"120,M,+0276,1","180,N,-0070,1","99999,9,08166,1","3,1,002,1,+003,1",,"SYN106AAXX  20001 76373 32980 02902 10228 21040 38166 40102 53002 92355 333 10276 21070 30/// 50261 58003 70000;","Q01  00002PRCP24"
"76373099999","2010-12-20T03:00:00","4","25.35","-105.75","1967.0","TEPEHUANES DGO., MX","FM-12","99999","V020","999,9,C,0000,1","22000,1,9,N","001000,1,N,1","+0124,1","-0028,1","10126,1",,,,,"00,1,+99999,9,99,9",,,"00,99,1,00,1,00,1,99999,9,00,1,00,1",,"01,9",,,,"99999,9,08185,1","2,1,019,1,+002,1",,"SYN082AAXX  20031 76373 32910 00000 10124 21028 38185 40126 52019 90255 333 30/// 58002;",
"76373099999","2010-12-20T15:00:00","4","25.35","-105.75","1967.0","TEPEHUANES DGO., MX","FM-12","99999","V020","999,9,C,0000,1","22000,1,9,N","030000,1,N,1","-0004,1","-0038,1","10164,1",,,,,"00,1,+99999,9,99,9",,,"00,99,1,00,1,00,1,99999,9,00,1,00,1",,"01,9",,,,"99999,9,08216,1","2,1,015,1,+002,1",,"SYN082AAXX  20151 76373 32980 00000 11004 21038 38216 40164 52015 91450 333 30/// 58002;",
"76373099999","2010-12-20T18:00:00","4","25.35","-105.75","1967.0","TEPEHUANES DGO., MX","FM-12","99999","V020","140,1,N,0010,1","22000,1,9,N","030000,1,N,1","+9999,9","-0013,1","10155,1",,,,,"00,1,+99999,9,99,9",,,"00,99,1,00,1,00,1,99999,9,00,1,00,1",,"01,9",,"120,M,+0188,1","240,N,-0062,1","99999,9,08209,1","7,1,007,1,+006,1",,"SYN094AAXX  20181 76373 32980 01401 10170 21013 38209 40155 57007 91755 333 10188 21062 30/// 58006;","Q01+001703ATOT  "
"76373099999","2010-12-20T21:00:00","4","25.35","-105.75","1967.0","TEPEHUANES DGO., MX","FM-12","99999","V020","160,1,N,0010,1","22000,1,9,N","030000,1,N,1","+0254,2","-0042,1","10115,1",,,,,"01,1,+05100,1,00,1",,,"01,99,1,00,1,00,1,99999,9,00,1,01,1",,"01,9",,,,"99999,9,08177,1","7,1,032,1,+013,1",,"SYN100AAXX  20211 76373 32980 11601 10254 21042 38177 40115 57032 81001 92050 333 30/// 56009 58013 81067;",
"76373099999","2010-12-21T00:00:00","4","25.35","-105.75","1967.0","TEPEHUANES DGO., MX","FM-12","99999","V020","250,1,N,0020,1","22000,1,9,N","030000,1,N,1","+0234,1","-0049,1","10121,1","24,0000,9,1",,,,,,,"03,99,1,00,1,00,1,99999,9,00,1,03,1",,"01,9",,"120,M,+0280,1","180,N,-0062,1","99999,9,08181,1","3,1,004,1,+015,1",,"SYN124AAXX  21001 76373 32980 32502 10234 21049 38181 40121 53004 83003 92330 333 10280 21062 30/// 50321 56009 58015 70000 83067;","Q01+000032SCOTLC"
"76373099999","2010-12-21T12:00:00","4","25.35","-105.75","1967.0","TEPEHUANES DGO., MX","FM-12","99999","V020","999,9,C,0000,1","22000,1,9,N","001000,1,N,1","-0017,1","-0053,1","10176,1","24,0000,9,1",,,,,,,"02,99,1,00,1,00,1,99999,9,00,1,04,1","0588,9","09,9","999,-0048,9","120,N,-0036,1","240,M,+0280,1","99999,9,08226,1","9,9,999,9,+025,1",,"SYN130AAXX  21121 76373 32910 20000 11017 21053 38226 40176 5//// 80004 91150 333 10280 21036 31048 55098 21788 56009 58025 70000 82067;",
"76373099999","2010-12-21T15:00:00","4","25.35","-105.75","1967.0","TEPEHUANES DGO., MX","FM-12","99999","V020","999,9,C,0000,1","22000,1,9,N","030000,1,N,1","-0011,1","-0046,1","10199,1",,,,,"02,1,+05100,1,00,1",,,"02,99,1,00,1,00,1,99999,9,00,1,04,1",,"01,9",,,,"99999,9,08245,1","2,1,019,1,+029,1",,"SYN100AAXX  21151 76373 32980 20000 11011 21046 38245 40199 52019 80004 91450 333 30/// 56009 58029 82067;",
"76373099999","2010-12-21T18:00:00","4","25.35","-105.75","1967.0","TEPEHUANES DGO., MX","FM-12","99999","V020","110,1,N,0010,1","22000,1,9,N","030000,1,N,1","+9999,9","-0047,1","10188,1",,,,,"03,1,+05100,1,00,1",,,"03,99,1,00,1,00,1,99999,9,00,1,04,1",,"01,9",,"120,M,+0168,1","240,N,-0036,1","99999,9,08236,1","7,1,009,1,+027,1",,"SYN112AAXX  21181 76373 32980 31101 10150 21047 38236 40188 57009 80004 91750 333 10168 21036 30/// 56009 58027 83067;","Q01+001503ATOT  "
"76373099999","2010-12-21T21:00:00","4","25.35","-105.75","1967.0","TEPEHUANES DGO., MX","FM-12","99999","V020","140,1,N,0010,1","22000,1,9,N","030000,1,N,1","+0247,2","-0057,1","10144,1",,,,,"03,1,+05100,1,00,1",,,"03,99,1,00,1,00,1,99999,9,00,1,04,1",,"01,9",,,,"99999,9,08200,1","7,1,036,1,+023,1",,"SYN100AAXX  21211 76373 32980 31401 10247 21057 38200 40144 57036 80004 92050 333 30/// 56009 58023 83067;",
"76373099999","2010-12-22T00:00:00","4","25.35","-105.75","1967.0","TEPEHUANES DGO., MX","FM-12","99999","V020","220,1,N,0010,1","22000,1,9,N","030000,1,N,1","+0223,1","-0080,1","10144,1","24,0000,9,1",,,,,,,"03,99,1,00,1,00,1,99999,9,00,1,04,1",,"01,9",,"120,M,+0270,1","180,N,-0036,1","99999,9,08200,1","4,1,000,1,+019,1",,"SYN124AAXX  22001 76373 32980 32201 10223 21080 38200 40144 54000 80004 92350 333 10270 21036 30/// 50181 56009 58019 70000 83067;",
"76373099999","2010-12-22T03:00:00","4","25.35","-105.75","1967.0","TEPEHUANES DGO., MX","FM-12","99999","V020","999,9,C,0000,1","22000,1,9,N","001000,1,N,1","+0124,1","-0048,1","10177,1",,,,,"03,1,+05100,1,00,1",,,"03,99,1,00,1,00,1,99999,9,00,1,04,1",,"01,9",,,,"99999,9,08226,1","2,1,026,1,+999,9",,"SYN100AAXX  22031 76373 32910 30000 10124 21048 38226 40177 52026 80004 90250 333 30/// 56009 58/// 83067;",
"76373099999","2010-12-22T12:00:00","4","25.35","-105.75","1967.0","TEPEHUANES DGO., MX","FM-12","99999","V020","999,9,C,0000,1","22000,1,9,N","001000,1,N,1","-0020,1","-0064,1","10193,1","24,0000,9,1",,,,,,,"02,99,1,00,1,00,1,99999,9,00,1,04,1","0558,9","09,9",,"120,N,-0044,1","240,M,+0270,1","99999,9,08240,1","9,9,999,9,+014,1",,"SYN130AAXX  22121 76373 32910 20000 11020 21064 38240 40193 5//// 80004 91150 333 10270 21044 31060 55093 21594 56009 58014 70000 82067;",
"76373099999","2010-12-22T15:00:00","4","25.35","-105.75","1967.0","TEPEHUANES DGO., MX","FM-12","99999","V020","999,9,C,0000,1","22000,1,9,N","030000,1,N,1","-0016,1","-0063,1","10210,1",,,,,"01,1,+00810,1,06,1",,,"01,99,1,01,1,04,1,00800,1,00,1,04,1",,"01,9",,,,"99999,9,08254,1","2,1,014,1,+009,1",,"SYN100AAXX  22151 76373 32580 10000 11016 21063 38254 40210 52014 81404 91450 333 30/// 56109 58009 81627;",
"76373099999","2010-12-22T18:00:00","4","25.35","-105.75","1967.0","TEPEHUANES DGO., MX","FM-12","99999","V020","999,9,C,0000,1","22000,1,9,N","030000,1,N,1","+9999,9","-0063,1","10197,1",,,,,"01,1,+00810,1,06,1",,,"02,99,1,01,1,02,1,00800,1,00,1,04,1",,"01,9",,"120,M,+0170,1","240,N,-0044,1","99999,9,08243,1","7,1,011,1,+007,1",,"SYN112AAXX  22181 76373 32580 20000 10156 21063 38243 40197 57011 81204 91750 333 10170 21044 30/// 56109 58007 81627;","Q01+001563ATOT  "
"76373099999","2010-12-23T18:00:00","4","25.35","-105.75","1967.0","TEPEHUANES DGO., MX","FM-12","99999","V020","120,1,N,0010,1","22000,1,9,N","045000,1,N,1","+0171,1","-0046,1","10171,1",,,,,"03,1,+00810,1,08,1",,,"04,99,1,04,1,02,1,01250,1,00,1,08,1",,"01,9",,"120,M,+0190,1",,"99999,9,08222,1",,,"SYN106AAXX  23181 76373 32683 41201 10171 21046 38222 40171 5//// 84208 91750 333 10190 2//// 30/// 58/// 83827;",
"76373099999","2010-12-23T21:00:00","4","25.35","-105.75","1967.0","TEPEHUANES DGO., MX","FM-12","99999","V020","290,1,N,0020,1","22000,1,9,N","050000,1,N,1","+0227,1","-0082,1","10134,1",,,,,"04,1,+05100,1,01,1",,,"04,99,1,00,1,00,1,99999,9,00,1,08,1",,"01,9",,,,"99999,9,08192,1",,,"SYN094AAXX  23211 76373 32984 42902 10227 21082 38192 40134 5//// 84008 92050 333 30/// 58/// 84167;","Q01+000042SCOTLC"
"76373099999","2010-12-24T00:00:00","4","25.35","-105.75","1967.0","TEPEHUANES DGO., MX","FM-12","99999","V020","280,1,N,0020,1","22000,1,9,N","045000,1,N,1","+0185,1","-0045,1","99999,9",,,,,,,,"02,99,1,99,9,99,9,01250,1,99,9,99,9",,,,,,,,,"SYN120AAXX  24001 76373 32683 22802 10185 21045 10280 2//// 30/// 38193 40135 50231 52001 56900 58/// 70000 82200 82827 92350;",
"76373099999","2010-12-24T03:00:00","4","25.35","-105.75","1967.0","TEPEHUANES DGO., MX","FM-12","99999","V020","999,9,C,0000,1","22000,1,9,N","010000,1,N,1","+0114,1","-0026,1","10147,1",,,,,"00,1,+99999,9,99,9",,,"00,99,1,00,1,00,1,99999,9,00,1,00,1",,"01,9",,,,"99999,9,08203,1","2,1,010,1,+999,9",,"SYN082AAXX  24031 76373 32960 00000 10114 21026 38203 40147 52010 90240 333 30/// 58///;",
"76373099999","2010-12-24T12:00:00","4","25.35","-105.75","1967.0","TEPEHUANES DGO., MX","FM-12","99999","V020","999,9,C,0000,1","22000,1,9,N","010000,1,N,1","-0019,1","-0046,1","10155,1",,,,,"00,1,+99999,9,99,9",,,"00,99,1,00,1,00,1,99999,9,00,1,00,1","0588,9","09,9",,"120,N,-0040,1","240,M,+0280,1","99999,9,08209,1",,,"SYN112AAXX  24121 76373 32960 00000 11019 21046 38209 40155 5//// 91150 333 10280 21040 31055 55098 21619 58/// 70000;",
"76373099999","2010-12-24T15:00:00","4","25.35","-105.75","1967.0","TEPEHUANES DGO., MX","FM-12","99999","V020","999,9,C,0000,1","22000,1,9,N","030000,1,N,1","+0008,1","-0026,1","99999,9",,,,,"00,1,+99999,9,99,9",,,"00,99,1,00,1,00,1,99999,9,00,1,00,1",,,,,,,,,"SYN078AAXX  24151 76373 32980 00000 10008 21026 30/// 38216 40163 52007 58/// 91450;",
"76373099999","2010-12-24T18:00:00","4","25.35","-105.75","1967.0","TEPEHUANES DGO., MX","FM-12","99999","V020","999,9,C,0000,1","22000,1,9,N","050000,1,N,1","+9999,9","-0031,1","10152,1",,,,,"00,1,+99999,9,99,9",,,"00,99,1,00,1,00,1,99999,9,00,1,00,1",,"01,9",,"120,M,+0195,1","240,N,-0040,1","99999,9,08206,1","7,1,010,1,-016,1",,"SYN094AAXX  24181 76373 32984 00000 10177 21031 38206 40152 57010 91450 333 10195 21040 30/// 59016;","Q01+001773ATOT  "
"76373099999","2010-12-24T21:00:00","4","25.35","-105.75","1967.0","TEPEHUANES DGO., MX","FM-12","99999","V020","250,1,N,0010,1","22000,1,9,N","050000,1,N,1","+0232,2","-0122,1","10114,1",,,,,"00,1,+99999,9,99,9",,,"00,99,1,00,1,00,1,99999,9,00,1,00,1",,"01,9",,,,"99999,9,08176,1","7,1,030,1,-016,1",,"SYN082AAXX  24211 76373 32984 02501 10232 21122 38176 40114 57030 92050 333 30/// 59016;",
"76373099999","2010-12-25T00:00:00","4","25.35","-105.75","1967.0","TEPEHUANES DGO., MX","FM-12","99999","V020","270,1,N,0010,1","22000,1,9,N","045000,1,N,1","+0199,1","-0125,1","10116,1","24,0000,9,1",,,,"00,1,+99999,9,99,9",,,"00,99,1,00,1,00,1,99999,9,00,1,00,1",,"01,9",,"120,M,+0250,1","180,N,-0040,1","99999,9,08177,1","2,1,001,1,-016,1",,"SYN106AAXX  25001 76373 32983 02701 10199 21125 38177 40116 52001 92350 333 10250 21040 30/// 50361 59016 70000;","Q01  00002PRCP24"
"76373099999","2010-12-26T00:00:00","4","25.35","-105.75","1967.0","TEPEHUANES DGO., MX","FM-12","99999","V020","140,1,N,0020,1","22000,1,9,N","030000,1,N,1","+0156,1","-0030,1","10159,1","24,0000,9,1",,,,"00,1,+99999,9,99,9",,,"00,99,1,00,1,00,1,99999,9,00,1,00,1",,"01,9",,"120,M,+0200,1","180,N,-0052,1","99999,9,08212,1","1,1,003,1,+035,1",,"SYN106AAXX  26001 76373 32980 01402 10156 21030 38212 40159 51003 92350 333 10200 21052 30/// 50381 58035 70000;","Q01  00002PRCP24"
"76373099999","2010-12-26T03:00:00","4","25.35","-105.75","1967.0","TEPEHUANES DGO., MX","FM-12","99999","V020","999,9,C,0000,1","22000,1,9,N","001000,1,N,1","+0084,1","-0029,1","10187,1",,,,,"00,1,+99999,9,99,9",,,"00,99,1,00,1,00,1,99999,9,00,1,00,1",,"01,9",,,,"99999,9,08225,1","2,1,023,1,+999,9",,"SYN082AAXX  26031 76373 32910 00000 10084 21029 38225 40187 52023 90255 333 30/// 58///;",
"76373099999","2010-12-26T12:00:00","4","25.35","-105.75","1967.0","TEPEHUANES DGO., MX","FM-12","99999","V020","999,9,C,0000,1","22000,1,9,N","001000,1,N,1","-0038,1","-0060,1","10195,1","24,0000,9,1",,,,,,,"02,99,1,00,1,00,1,99999,9,00,1,02,1","0576,9","09,9",,"120,N,-0080,1","240,M,+0200,1","99999,9,08241,1",,,"SYN130AAXX  26121 76373 32910 20000 11038 21060 38241 40195 5//// 82002 91150 333 10200 21080 31092 55096 21731 56009 58/// 70000 82067;","Q01+000022SCOTLC"
"76373099999","2010-12-26T15:00:00","4","25.35","-105.75","1967.0","TEPEHUANES DGO., MX","FM-12","99999","V020","999,9,C,0000,1","22000,1,9,N","030000,1,N,1","-0024,1","-0055,1","10203,1",,,,,"02,1,+05100,1,00,1",,,"02,99,1,00,1,00,1,99999,9,00,1,02,1",,"01,9",,,,"99999,9,08248,1","1,1,007,1,+999,9",,"SYN100AAXX  26151 76373 32980 20000 11024 21055 38248 40203 51007 82002 91455 333 30/// 56009 58/// 82067;","Q01+000022SCOTLC"
"76373099999","2010-12-26T18:00:00","4","25.35","-105.75","1967.0","TEPEHUANES DGO., MX","FM-12","99999","V020","140,1,N,0010,1","22000,1,9,N","030000,1,N,1","+0116,1","-0030,1","10183,1",,,,,"02,1,+05100,1,00,1",,,"02,99,1,00,1,00,1,99999,9,00,1,02,1",,"01,9",,"120,M,+0132,1","240,N,-0080,1","99999,9,08232,1","7,1,016,1,+999,9",,"SYN112AAXX  26181 76373 32980 21401 10116 21030 38232 40183 57016 82002 91755 333 10132 21080 30/// 56009 58/// 82067;","Q01+000022SCOTLC"
"76373099999","2010-12-27T00:00:00","4","25.35","-105.75","1967.0","TEPEHUANES DGO., MX","FM-12","99999","V020","230,1,N,0010,1","22000,1,9,N","030000,1,N,1","+0176,1","-0068,1","10142,1","24,0000,9,1",,,,"00,1,+99999,9,99,9",,,"00,99,1,00,1,00,1,99999,9,00,1,00,1",,"01,9",,"120,M,+0232,1","180,N,-0080,1","99999,9,08198,1","5,1,002,1,-014,1",,"SYN106AAXX  27001 76373 32980 02301 10176 21068 38198 40142 55002 92350 333 10232 21080 30/// 50201 59014 70000;","Q01  00002PRCP24"
"76373099999","2010-12-27T03:00:00","4","25.35","-105.75","1967.0","TEPEHUANES DGO., MX","FM-12","99999","V020","160,1,N,0010,1","22000,1,9,N","001000,1,N,1","+0094,1","-0086,1","10165,1",,,,,"00,1,+99999,9,99,9",,,"00,99,1,00,1,00,1,99999,9,00,1,00,1",,"01,9",,,,"99999,9,08217,1","2,1,019,1,-018,1",,"SYN082AAXX  27031 76373 32910 01601 10094 21086 38217 40165 52019 80250 333 30/// 59018;",
"76373099999","2010-12-27T12:00:00","4","25.35","-105.75","1967.0","TEPEHUANES DGO., MX","FM-12","99999","V020","999,9,C,0000,1","22000,1,9,N","001000,1,N,1","-0044,1","-0067,1","10169,1",,,,,"00,1,+99999,9,99,9",,,"00,99,1,00,1,00,1,99999,9,00,1,00,1","0570,9","09,9",,"120,N,-0090,1","240,M,+0232,1","99999,9,08220,1","9,9,999,9,-021,1",,"SYN112AAXX  27121 76373 32910 00000 11044 21067 38220 40169 5//// 91155 333 10232 21090 31102 55095 21619 59021 70000;",
"76373099999","2010-12-27T15:00:00","4","25.35","-105.75","1967.0","TEPEHUANES DGO., MX","FM-12","99999","V020","999,9,C,0000,1","22000,1,9,N","030000,1,N,1","-0024,1","-0055,1","10178,1",,,,,"00,1,+99999,9,99,9",,,"00,99,1,00,1,00,1,99999,9,00,1,00,1",,"01,9",,,,"99999,9,08227,1","2,1,007,1,-021,1",,"SYN082AAXX  27151 76373 32980 00000 11024 21055 38227 40178 52007 91755 333 30/// 59021;",
"76373099999","2010-12-27T18:00:00","4","25.35","-105.75","1967.0","TEPEHUANES DGO., MX","FM-12","99999","V020","110,1,N,0010,1","22000,1,9,N","030000,1,N,1","+9999,9","-0040,1","10158,1",,,,,"00,1,+99999,9,99,9",,,"00,99,1,00,1,00,1,99999,9,00,1,00,1",,"01,9",,"120,M,+0170,1","240,N,-0090,1","99999,9,08212,1","7,1,015,1,-020,1",,"SYN094AAXX  27181 76373 32980 01101 10154 21040 38212 40158 57015 91755 333 10170 21090 30/// 59020;","Q01+001543ATOT  "
"76373099999","2010-12-27T21:00:00","4","25.35","-105.75","1967.0","TEPEHUANES DGO., MX","FM-12","99999","V020","200,1,N,0030,1","22000,1,9,N","030000,1,N,1","+0214,2","-0070,1","10119,1",,,,,"00,1,+99999,9,99,9",,,"00,99,1,00,1,00,1,99999,9,00,1,00,1",,"01,9",,,,"99999,9,08179,1","7,1,033,1,-017,1",,"SYN082AAXX  27211 76373 32980 02003 10214 21070 38179 40119 57033 92055 333 30/// 59017;",
"76373099999","2010-12-28T00:00:00","4","25.35","-105.75","1967.0","TEPEHUANES DGO., MX","FM-12","99999","V020","230,1,N,0020,1","22000,1,9,N","030000,1,N,1","+0182,1","-0056,1","10121,1","24,0000,9,1",,,,"00,1,+99999,9,99,9",,,"00,99,1,00,1,00,1,99999,9,00,1,00,1",,"01,9",,"120,M,+0230,1","180,N,-0090,1","99999,9,08182,1","1,1,003,1,-016,1",,"SYN106AAXX  28001 76373 32980 02302 10182 21056 38182 40121 51003 92330 333 10230 21090 30/// 50321 59016 70000;","Q01  00002PRCP24"
"76373099999","2010-12-31T15:00:00","4","25.35","-105.75","1967.0","TEPEHUANES DGO., MX","FM-12","99999","V020","999,9,C,0000,1","22000,1,9,N","035000,1,N,1","-0024,1","-0047,1","10099,1",,,,,"02,1,+01500,1,03,1",,,"02,99,1,02,1,00,1,01750,1,02,1,00,1",,"01,9",,,,"99999,9,08163,1",,,"SYN100AAXX  31151 76373 32781 20000 11024 21047 38163 40099 5//// 82020 91450 333 30/// 56090 58/// 82350;",
"76373099999","2010-12-31T18:00:00","4","25.35","-105.75","1967.0","TEPEHUANES DGO., MX","FM-12","99999","V020","180,1,N,0010,1","22000,1,9,N","050000,1,N,1","+9999,9","-0062,1","10094,1",,,,,"02,1,+01500,1,03,1",,,"02,99,1,02,1,00,1,01750,1,02,1,00,1",,"01,9",,"120,M,+0179,1","240,N,-0070,1","99999,9,08160,1","7,1,003,1,+999,9",,"SYN112AAXX  31181 76373 32784 21801 10167 21062 38160 40094 57003 82020 91750 333 10179 21070 30/// 56090 58/// 82350;","Q01+001673ATOT  "
