"STATION","DATE","SOURCE","LATITUDE","LONGITUDE","ELEVATION","NAME","REPORT_TYPE","CALL_SIGN","QUALITY_CONTROL","WND","CIG","VIS","TMP","DEW","SLP","GA1","GA2","GA3","GE1","GF1","MA1","MW1","REM","EQD"
"76361599999","2025-01-01T00:50:00","4","25.685194","-109.080806","4.87","VALLE DEL FUERTE INTERNATIONAL, MX","FM-15","99999","V020","220,1,N,0026,1","22000,1,9,N","012875,1,9,9","+0190,1","+0140,1","99999,9",,,,,"00,99,1,99,9,99,9,99999,9,99,9,99,9","10139,1,99999,9",,"MET055METAR MMLM 010050Z 22005KT 8SM SKC 19/14 A2994 RMK HZY=",
"76361599999","2025-01-01T01:40:00","4","25.685194","-109.080806","4.87","VALLE DEL FUERTE INTERNATIONAL, MX","FM-15","99999","V020","999,9,C,0000,1","22000,1,9,N","012875,1,9,9","+0160,1","+0130,1","99999,9",,,,,"00,99,1,99,9,99,9,99999,9,99,9,99,9","10142,1,99999,9",,"MET047METAR MMLM 010140Z 00000KT 8SM SKC 16/13 A2995=",
"76361599999","2025-01-01T02:41:00","4","25.685194","-109.080806","4.87","VALLE DEL FUERTE INTERNATIONAL, MX","FM-15","99999","V020","280,1,N,0021,1","22000,1,9,N","012875,1,9,9","+0150,1","+0120,1","10146,1",,,,,"00,99,1,99,9,99,9,99999,9,99,9,99,9","10146,1,99999,9",,"MET058METAR MMLM 010241Z 28004KT 8SM SKC 15/12 A2996 RMK SLP146=",
"76361599999","2025-01-01T03:50:00","4","25.685194","-109.080806","4.87","VALLE DEL FUERTE INTERNATIONAL, MX","FM-15","99999","V020","999,9,C,0000,1","22000,1,9,N","012875,1,9,9","+0130,1","+0110,1","99999,9",,,,,"00,99,1,99,9,99,9,99999,9,99,9,99,9","10146,1,99999,9",,"MET047METAR MMLM 010350Z 00000KT 8SM SKC 13/11 A2996=",
"76361599999","2025-01-01T04:44:00","4","25.685194","-109.080806","4.87","VALLE DEL FUERTE INTERNATIONAL, MX","FM-15","99999","V020","999,9,C,0000,1","22000,1,9,N","012875,1,9,9","+0130,1","+0110,1","99999,9",,,,,"00,99,1,99,9,99,9,99999,9,99,9,99,9","10146,1,99999,9",,"MET047METAR MMLM 010444Z 00000KT 8SM SKC 13/11 A2996=",
"76361599999","2025-01-01T13:54:00","4","25.685194","-109.080806","4.87","VALLE DEL FUERTE INTERNATIONAL, MX","FM-15","99999","V020","310,1,N,0031,1","06706,1,C,N","009656,1,9,9","+0130,1","+0120,1","99999,9","07,1,+06706,1,02,1",,,"9,AGL   ,+99999,+99999","99,99,9,07,1,99,9,06706,1,99,9,99,9","10152,1,99999,9","40,1","MET069METAR MMLM 011354Z 31006KT 6SM VCFG BKN220 13/12 A2998 RMK 8/008 RTS=",
"76361599999","2025-01-01T14:48:00","4","25.685194","-109.080806","4.87","VALLE DEL FUERTE INTERNATIONAL, MX","FM-15","99999","V020","260,1,N,0021,1","06706,1,C,N","009656,1,9,9","+0130,1","+0120,1","10151,1","07,1,+06706,1,02,1",,,"9,AGL   ,+99999,+99999","99,99,9,07,1,99,9,06706,1,99,9,99,9","10159,1,99999,9","40,1","MET073METAR MMLM 011448Z 26004KT 6SM VCFG BKN220 13/12 A3000 RMK SLP1510 8/008=",
"76361599999","2025-01-01T15:40:00","4","25.685194","-109.080806","4.87","VALLE DEL FUERTE INTERNATIONAL, MX","FM-15","99999","V020","300,1,N,0031,1","07620,1,C,N","011265,1,9,9","+0170,1","+0150,1","99999,9","07,1,+07620,1,02,1",,,"9,AGL   ,+99999,+99999","99,99,9,07,1,99,9,07620,1,99,9,99,9","10166,1,99999,9","40,1","MET065METAR MMLM 011540Z 30006KT 7SM VCFG BKN250 17/15 A3002 RMK 8/008=",
"76361599999","2025-01-01T16:49:00","4","25.685194","-109.080806","4.87","VALLE DEL FUERTE INTERNATIONAL, MX","FM-15","99999","V020","300,1,N,0072,1","07620,1,C,N","011265,1,9,9","+0200,1","+0160,1","99999,9","07,1,+07620,1,02,1",,,"9,AGL   ,+99999,+99999","99,99,9,07,1,99,9,07620,1,99,9,99,9","10173,1,99999,9",,"MET064METAR MMLM 011649Z 30014KT 7SM BKN250 20/16 A3004 RMK 8/008 HZY=",
"76361599999","2025-01-01T17:46:00","4","25.685194","-109.080806","4.87","VALLE DEL FUERTE INTERNATIONAL, MX","FM-15","99999","V020","320,1,N,0077,1","07620,1,C,N","011265,1,9,9","+0230,1","+0130,1","10161,1","07,1,+07620,1,02,1",,,"9,AGL   ,+99999,+99999","99,99,9,07,1,99,9,07620,1,99,9,99,9","10169,1,99999,9",,"MET072METAR MMLM 011746Z 32015KT 7SM BKN250 23/13 A3003 RMK SLP1610 8/008 HZY=",
"76361599999","2025-01-01T18:46:00","4","25.685194","-109.080806","4.87","VALLE DEL FUERTE INTERNATIONAL, MX","FM-15","99999","V020","310,1,N,0062,1","99999,9,9,N","011265,1,9,9","+0240,1","+0130,1","99999,9","04,1,+07620,1,02,1",,,"9,AGL   ,+99999,+99999","99,99,9,04,1,99,9,07620,1,99,9,99,9","10169,1,99999,9",,"MET075METAR MMLM 011846Z 31012KT 7SM SCT250 24/13 A3003 RMK 8/008 HZY MSGTX MMMX=",
"76361599999","2025-01-01T19:50:00","4","25.685194","-109.080806","4.87","VALLE DEL FUERTE INTERNATIONAL, MX","FM-15","99999","V020","300,1,N,0067,1","99999,9,9,N","012875,1,9,9","+0250,1","+0120,1","99999,9","04,1,+07620,1,00,1",,,"9,AGL   ,+99999,+99999","99,99,9,04,1,99,9,07620,1,99,9,99,9","10149,1,99999,9",,"MET064METAR MMLM 011950Z 30013KT 8SM SCT250 25/12 A2997 RMK 8/001 HZY=",
"76361599999","2025-01-01T20:43:00","4","25.685194","-109.080806","4.87","VALLE DEL FUERTE INTERNATIONAL, MX","FM-15","99999","V020","320,1,N,0062,1","07620,1,C,N","012875,1,9,9","+0250,1","+0120,1","10143,1","07,1,+07620,1,02,1",,,"9,AGL   ,+99999,+99999","99,99,9,07,1,99,9,07620,1,99,9,99,9","10142,1,99999,9",,"MET071METAR MMLM 012043Z 32012KT 8SM BKN250 25/12 A2995 RMK SLP143 8/008 HZY=",
"76361599999","2025-01-01T21:43:00","4","25.685194","-109.080806","4.87","VALLE DEL FUERTE INTERNATIONAL, MX","FM-15","99999","V020","300,1,N,0082,1","06706,1,C,N","016093,1,9,9","+0250,1","+0120,1","99999,9","07,1,+06706,1,02,1",,,"9,AGL   ,+99999,+99999","99,99,9,07,1,99,9,06706,1,99,9,99,9","10135,1,99999,9",,"MET061METAR MMLM 012143Z 30016KT 10SM BKN220 25/12 A2993 RMK 8/008=",
"76361599999","2025-01-01T22:41:00","4","25.685194","-109.080806","4.87","VALLE DEL FUERTE INTERNATIONAL, MX","FM-15","99999","V020","310,1,N,0077,1","99999,9,9,N","016093,1,9,9","+0250,1","+0100,1","99999,9","04,1,+06706,1,00,1",,,"9,AGL   ,+99999,+99999","99,99,9,04,1,99,9,06706,1,99,9,99,9","10132,1,99999,9",,"MET061METAR MMLM 012241Z 31015KT 10SM SCT220 25/10 A2992 RMK 8/001=",
"76361599999","2025-01-01T23:44:00","4","25.685194","-109.080806","4.87","VALLE DEL FUERTE INTERNATIONAL, MX","FM-15","99999","V020","300,1,N,0057,1","99999,9,9,N","016093,1,9,9","+0230,1","+0120,1","10132,1","04,1,+06706,1,00,1",,,"9,AGL   ,+99999,+99999","99,99,9,04,1,99,9,06706,1,99,9,99,9","10132,1,99999,9",,"MET068METAR MMLM 012344Z 30011KT 10SM SCT220 23/12 A2992 RMK SLP132 8/001=",
"76361599999","2025-01-02T00:42:00","4","25.685194","-109.080806","4.87","VALLE DEL FUERTE INTERNATIONAL, MX","FM-15","99999","V020","280,1,N,0051,1","99999,9,9,N","016093,1,9,9","+0210,1","+0130,1","99999,9","04,1,+06706,1,00,1",,,"9,AGL   ,+99999,+99999","99,99,9,04,1,99,9,06706,1,99,9,99,9","10139,1,99999,9",,"MET061METAR MMLM 020042Z 28010KT 10SM SCT220 21/13 A2994 RMK 8/001=",
"76361599999","2025-01-02T01:43:00","4","25.685194","-109.080806","4.87","VALLE DEL FUERTE INTERNATIONAL, MX","FM-15","99999","V020","270,1,N,0041,1","99999,9,9,N","016093,1,9,9","+0180,1","+0140,1","99999,9","02,1,+06706,1,00,1",,,"9,AGL   ,+99999,+99999","99,99,9,02,1,99,9,06706,1,99,9,99,9","10142,1,99999,9",,"MET061METAR MMLM 020143Z 27008KT 10SM FEW220 18/14 A2995 RMK 8/001=",
"76361599999","2025-01-02T02:41:00","4","25.685194","-109.080806","4.87","VALLE DEL FUERTE INTERNATIONAL, MX","FM-15","99999","V020","300,1,N,0041,1","99999,9,9,N","016093,1,9,9","+0170,1","+0140,1","10149,1","02,1,+06706,1,00,1",,,"9,AGL   ,+99999,+99999","99,99,9,02,1,99,9,06706,1,99,9,99,9","10149,1,99999,9",,"MET068METAR MMLM 020241Z 30008KT 10SM FEW220 17/14 A2997 RMK SLP149 8/001=",
"76361599999","2025-01-02T03:44:00","4","25.685194","-109.080806","4.87","VALLE DEL FUERTE INTERNATIONAL, MX","FM-15","99999","V020","280,1,N,0021,1","99999,9,9,N","012875,1,9,9","+0160,1","+0140,1","99999,9","02,1,+06706,1,00,1",,,"9,AGL   ,+99999,+99999","99,99,9,02,1,99,9,06706,1,99,9,99,9","10159,1,99999,9",,"MET064METAR MMLM 020344Z 28004KT 8SM FEW220 16/14 A3000 RMK 8/001 HZY=",
"76361599999","2025-01-02T04:45:00","4","25.685194","-109.080806","4.87","VALLE DEL FUERTE INTERNATIONAL, MX","FM-15","99999","V020","280,1,N,0031,1","22000,1,9,N","011265,1,9,9","+0150,1","+0130,1","99999,9",,,,,"00,99,1,99,9,99,9,99999,9,99,9,99,9","10159,1,99999,9",,"MET055METAR MMLM 020445Z 28006KT 7SM SKC 15/13 A3000 RMK HZY=",
"76361599999","2025-01-02T13:58:00","4","25.685194","-109.080806","4.87","VALLE DEL FUERTE INTERNATIONAL, MX","FM-15","99999","V020","270,1,N,0010,1","99999,9,9,N","000201,1,9,9","+0090,1","+0090,1","99999,9","02,1,+06706,1,00,1",,,"9,AGL   ,+99999,+99999","99,99,9,02,1,99,9,06706,1,99,9,99,9","10166,1,99999,9","44,1","MET073METAR MMLM 021358Z RTD 27002KT 1/8SM FG FEW220 09/09 A3002 RMK 8/001 RTS=",
"76361599999","2025-01-02T14:40:00","4","25.685194","-109.080806","4.87","VALLE DEL FUERTE INTERNATIONAL, MX","FM-15","99999","V020","280,1,N,0010,1","99999,9,9,N","000201,1,9,9","+0100,1","+0100,1","10161,1","04,1,+06706,1,00,1",,,"9,AGL   ,+99999,+99999","99,99,9,04,1,99,9,06706,1,99,9,99,9","10169,1,99999,9","44,1","MET073METAR MMLM 021440Z 28002KT 1/8SM FG SCT220 10/10 A3003 RMK SLP1610 8/001=",
"76361599999","2025-01-02T14:55:00","4","25.685194","-109.080806","4.87","VALLE DEL FUERTE INTERNATIONAL, MX","FM-16","99999","V020","999,9,C,0000,1","99999,9,9,N","002414,1,9,9","+0110,1","+0100,1","99999,9","04,1,+06706,1,00,1",,,"9,AGL   ,+99999,+99999","99,99,9,04,1,99,9,06706,1,99,9,99,9","10169,1,99999,9","11,1","MET084SPECI MMLM 021455Z 00000KT 1 1/2SM BCFG SCT220 11/10 A3003 RMK 8/001 VSBY LWR E 1SM=",
"76361599999","2025-01-02T15:11:00","4","25.685194","-109.080806","4.87","VALLE DEL FUERTE INTERNATIONAL, MX","FM-16","99999","V020","999,9,C,0000,1","06706,1,C,N","008047,1,9,9","+0130,1","+0120,1","99999,9","07,1,+06706,1,00,1",,,"9,AGL   ,+99999,+99999","99,99,9,07,1,99,9,06706,1,99,9,99,9","10173,1,99999,9","40,1","MET065SPECI MMLM 021511Z 00000KT 5SM VCFG BKN220 13/12 A3004 RMK 8/001=",
"76361599999","2025-01-02T15:46:00","4","25.685194","-109.080806","4.87","VALLE DEL FUERTE INTERNATIONAL, MX","FM-15","99999","V020","320,1,N,0015,1","06706,1,C,N","009656,1,9,9","+0150,1","+0150,1","99999,9","07,1,+06706,1,02,1",,,"9,AGL   ,+99999,+99999","99,99,9,07,1,99,9,06706,1,99,9,99,9","10176,1,99999,9",,"MET064METAR MMLM 021546Z 32003KT 6SM BKN220 15/15 A3005 RMK 8/008 HZY=",
"76361599999","2025-01-02T16:13:00","4","25.685194","-109.080806","4.87","VALLE DEL FUERTE INTERNATIONAL, MX","FM-16","99999","V020","330,1,N,0026,1","06706,1,C,N","012875,1,9,9","+0180,1","+0170,1","99999,9","07,1,+06706,1,02,1",,,"9,AGL   ,+99999,+99999","99,99,9,07,1,99,9,06706,1,99,9,99,9","10179,1,99999,9",,"MET064SPECI MMLM 021613Z 33005KT 8SM BKN220 18/17 A3006 RMK 8/008 HZY=",
"76361599999","2025-01-02T16:41:00","4","25.685194","-109.080806","4.87","VALLE DEL FUERTE INTERNATIONAL, MX","FM-15","99999","V020","310,1,N,0051,1","06706,1,C,N","012875,1,9,9","+0200,1","+0160,1","99999,9","07,1,+06706,1,02,1",,,"9,AGL   ,+99999,+99999","99,99,9,07,1,99,9,06706,1,99,9,99,9","10179,1,99999,9",,"MET064METAR MMLM 021641Z 31010KT 8SM BKN220 20/16 A3006 RMK 8/008 HZY=",
"76361599999","2025-01-02T17:44:00","4","25.685194","-109.080806","4.87","VALLE DEL FUERTE INTERNATIONAL, MX","FM-15","99999","V020","330,1,N,0051,1","06706,1,C,N","012875,1,9,9","+0220,1","+0140,1","10171,1","07,1,+06706,1,02,1",,,"9,AGL   ,+99999,+99999","99,99,9,07,1,99,9,06706,1,99,9,99,9","10179,1,99999,9",,"MET072METAR MMLM 021744Z 33010KT 8SM BKN220 22/14 A3006 RMK SLP1710 8/008 HZY=",
"76361599999","2025-01-02T18:41:00","4","25.685194","-109.080806","4.87","VALLE DEL FUERTE INTERNATIONAL, MX","FM-15","99999","V020","300,1,N,0046,1","06706,1,C,N","012875,1,9,9","+0230,1","+0140,1","99999,9","07,1,+06706,1,02,1",,,"9,AGL   ,+99999,+99999","99,99,9,07,1,99,9,06706,1,99,9,99,9","10173,1,99999,9",,"MET064METAR MMLM 021841Z 30009KT 8SM BKN220 23/14 A3004 RMK 8/008 HZY=",
"76361599999","2025-01-02T19:43:00","4","25.685194","-109.080806","4.87","VALLE DEL FUERTE INTERNATIONAL, MX","FM-15","99999","V020","300,1,N,0067,1","06706,1,C,N","012875,1,9,9","+0250,1","+0120,1","99999,9","07,1,+06706,1,02,1",,,"9,AGL   ,+99999,+99999","99,99,9,07,1,99,9,06706,1,99,9,99,9","10159,1,99999,9",,"MET064METAR MMLM 021943Z 30013KT 8SM BKN220 25/12 A3000 RMK 8/008 HZY=",
"76361599999","2025-01-02T20:43:00","4","25.685194","-109.080806","4.87","VALLE DEL FUERTE INTERNATIONAL, MX","FM-15","99999","V020","290,1,N,0062,1","06706,1,C,N","012875,1,9,9","+0260,1","+0140,1","10153,1","07,1,+06706,1,02,1",,,"9,AGL   ,+99999,+99999","99,99,9,07,1,99,9,06706,1,99,9,99,9","10152,1,99999,9",,"MET071METAR MMLM 022043Z 29012KT 8SM BKN220 26/14 A2998 RMK SLP153 8/008 HZY=",
"76361599999","2025-01-02T21:41:00","4","25.685194","-109.080806","4.87","VALLE DEL FUERTE INTERNATIONAL, MX","FM-15","99999","V020","300,1,N,0062,1","07620,1,C,N","012875,1,9,9","+0250,1","+0140,1","99999,9","07,1,+07620,1,02,1",,,"9,AGL   ,+99999,+99999","99,99,9,07,1,99,9,07620,1,99,9,99,9","10149,1,99999,9",,"MET064METAR MMLM 022141Z 30012KT 8SM BKN250 25/14 A2997 RMK 8/008 HZY=",
"76361599999","2025-01-02T22:44:00","4","25.685194","-109.080806","4.87","VALLE DEL FUERTE INTERNATIONAL, MX","FM-15","99999","V020","290,1,N,0057,1","07620,1,C,N","012875,1,9,9","+0250,1","+0130,1","99999,9","07,1,+07620,1,02,1",,,"9,AGL   ,+99999,+99999","99,99,9,07,1,99,9,07620,1,99,9,99,9","10146,1,99999,9",,"MET064METAR MMLM 022244Z 29011KT 8SM BKN250 25/13 A2996 RMK 8/008 HZY=",
"76361599999","2025-01-02T23:40:00","4","25.685194","-109.080806","4.87","VALLE DEL FUERTE INTERNATIONAL, MX","FM-15","99999","V020","280,1,N,0046,1","07620,1,C,N","012875,1,9,9","+0230,1","+0140,1","10146,1","07,1,+07620,1,02,1",,,"9,AGL   ,+99999,+99999","99,99,9,07,1,99,9,07620,1,99,9,99,9","10146,1,99999,9",,"MET071METAR MMLM 022340Z 28009KT 8SM BKN250 23/14 A2996 RMK SLP146 8/008 HZY=",
"76361599999","2025-01-03T00:40:00","4","25.685194","-109.080806","4.87","VALLE DEL FUERTE INTERNATIONAL, MX","FM-15","99999","V020","290,1,N,0041,1","07620,1,C,N","012875,1,9,9","+0200,1","+0140,1","99999,9","07,1,+07620,1,02,1",,,"9,AGL   ,+99999,+99999","99,99,9,07,1,99,9,07620,1,99,9,99,9","10149,1,99999,9",,"MET064METAR MMLM 030040Z 29008KT 8SM BKN250 20/14 A2997 RMK 8/008 HZY=",
"76361599999","2025-01-03T01:40:00","4","25.685194","-109.080806","4.87","VALLE DEL FUERTE INTERNATIONAL, MX","FM-15","99999","V020","300,1,N,0036,1","99999,9,9,N","012875,1,9,9","+0180,1","+0140,1","99999,9","04,1,+07620,1,00,1",,,"9,AGL   ,+99999,+99999","99,99,9,04,1,99,9,07620,1,99,9,99,9","10156,1,99999,9",,"MET060METAR MMLM 030140Z 30007KT 8SM SCT250 18/14 A2999 RMK 8/001=",
"76361599999","2025-01-03T02:41:00","4","25.685194","-109.080806","4.87","VALLE DEL FUERTE INTERNATIONAL, MX","FM-15","99999","V020","260,1,N,0021,1","99999,9,9,N","012875,1,9,9","+0160,1","+0130,1","10151,1","04,1,+07620,1,00,1",,,"9,AGL   ,+99999,+99999","99,99,9,04,1,99,9,07620,1,99,9,99,9","10159,1,99999,9",,"MET068METAR MMLM 030241Z 26004KT 8SM SCT250 16/13 A3000 RMK SLP1510 8/001=",
"76361599999","2025-01-03T03:47:00","4","25.685194","-109.080806","4.87","VALLE DEL FUERTE INTERNATIONAL, MX","FM-15","99999","V020","250,1,N,0021,1","99999,9,9,N","012875,1,9,9","+0140,1","+0120,1","99999,9","04,1,+07620,1,00,1",,,"9,AGL   ,+99999,+99999","99,99,9,04,1,99,9,07620,1,99,9,99,9","10163,1,99999,9",,"MET060METAR MMLM 030347Z 25004KT 8SM SCT250 14/12 A3001 RMK 8/001=",
"76361599999","2025-01-03T04:40:00","4","25.685194","-109.080806","4.87","VALLE DEL FUERTE INTERNATIONAL, MX","FM-15","99999","V020","260,1,N,0031,1","99999,9,9,N","011265,1,9,9","+0140,1","+0120,1","99999,9","02,1,+07620,1,00,1",,,"9,AGL   ,+99999,+99999","99,99,9,02,1,99,9,07620,1,99,9,99,9","10166,1,99999,9",,"MET060METAR MMLM 030440Z 26006KT 7SM FEW250 14/12 A3002 RMK 8/001=",
"76361599999","2025-01-03T13:55:00","4","25.685194","-109.080806","4.87","VALLE DEL FUERTE INTERNATIONAL, MX","FM-15","99999","V020","220,1,N,0021,1","00000,1,W,N","000000,1,9,9","+0110,1","+0110,1","99999,9","09,1,+00000,1,99,9",,,"9,AGL   ,+99999,+99999","09,99,1,09,1,99,9,00000,1,99,9,99,9","10176,1,99999,9","44,1","MET066METAR MMLM 031355Z 22004KT 0SM FG VV000 11/11 A3005 RMK 8//// RTS=",
"76361599999","2025-01-03T14:43:00","4","25.685194","-109.080806","4.87","VALLE DEL FUERTE INTERNATIONAL, MX","FM-15","99999","V020","240,1,N,0015,1","00030,1,W,N","000101,5,9,9","+0120,5","+0120,5","10171,1","09,1,+00030,1,99,9",,,"9,AGL   ,+99999,+99999","09,99,1,09,1,99,9,00030,1,99,9,99,9","10179,1,99999,9","44,1","MET073METAR MMLM 031443Z 24003KT 1/16SM FG VV001 12/12 A3006 RMK SLP1710 8////=","D01      0ADE729"
"76361599999","2025-01-03T15:42:00","4","25.685194","-109.080806","4.87","VALLE DEL FUERTE INTERNATIONAL, MX","FM-15","99999","V020","290,1,N,0021,1","00030,1,W,N","000201,1,9,9","+0150,1","+0140,1","99999,9","09,1,+00030,1,99,9",,,"9,AGL   ,+99999,+99999","09,99,1,09,1,99,9,00030,1,99,9,99,9","10186,1,99999,9","44,1","MET064METAR MMLM 031542Z 29004KT 1/8SM FG VV001 15/14 A3008 RMK 8////=",
"76361599999","2025-01-03T16:05:00","4","25.685194","-109.080806","4.87","VALLE DEL FUERTE INTERNATIONAL, MX","FM-16","99999","V020","300,1,N,0021,1","22000,1,9,N","002414,1,9,9","+0160,1","+0150,1","99999,9",,,,,"00,99,1,99,9,99,9,99999,9,99,9,99,9","10186,1,99999,9","11,1","MET075SPECI MMLM 031605Z 30004KT 1 1/2SM BCFG SKC 16/15 A3008 RMK VSBY LWR 1SM E=",
"76361599999","2025-01-03T16:14:00","4","25.685194","-109.080806","4.87","VALLE DEL FUERTE INTERNATIONAL, MX","FM-16","99999","V020","300,1,N,0021,1","22000,1,9,N","004828,1,9,9","+0160,1","+0160,1","99999,9",,,,,"00,99,1,99,9,99,9,99999,9,99,9,99,9","10186,1,99999,9","10,1","MET065SPECI MMLM 031614Z 30004KT 3SM BR SKC 16/16 A3008 RMK VSBY LWR E=",
"76361599999","2025-01-03T16:43:00","4","25.685194","-109.080806","4.87","VALLE DEL FUERTE INTERNATIONAL, MX","FM-15","99999","V020","310,1,N,0026,1","22000,1,9,N","009656,1,9,9","+0180,1","+0170,1","99999,9",,,,,"00,99,1,99,9,99,9,99999,9,99,9,99,9","10190,1,99999,9",,"MET055METAR MMLM 031643Z 31005KT 6SM SKC 18/17 A3009 RMK HZY=",
"76361599999","2025-01-03T17:22:00","4","25.685194","-109.080806","4.87","VALLE DEL FUERTE INTERNATIONAL, MX","FM-16","99999","V020","310,1,N,0036,1","22000,1,9,N","012875,1,9,9","+0210,1","+0170,1","99999,9",,,,,"00,99,1,99,9,99,9,99999,9,99,9,99,9","10186,1,99999,9",,"MET055SPECI MMLM 031722Z 31007KT 8SM SKC 21/17 A3008 RMK HZY=",
"76361599999","2025-01-03T17:42:00","4","25.685194","-109.080806","4.87","VALLE DEL FUERTE INTERNATIONAL, MX","FM-15","99999","V020","300,1,N,0031,1","22000,1,9,N","012875,1,9,9","+0220,1","+0150,1","10187,1",,,,,"00,99,1,99,9,99,9,99999,9,99,9,99,9","10186,1,99999,9",,"MET062METAR MMLM 031742Z 30006KT 8SM SKC 22/15 A3008 RMK SLP187 HZY=",
"76361599999","2025-01-03T18:43:00","4","25.685194","-109.080806","4.87","VALLE DEL FUERTE INTERNATIONAL, MX","FM-15","99999","V020","300,1,N,0031,1","22000,1,9,N","012875,1,9,9","+0250,1","+0140,1","99999,9",,,,,"00,99,1,99,9,99,9,99999,9,99,9,99,9","10176,1,99999,9",,"MET055METAR MMLM 031843Z 30006KT 8SM SKC 25/14 A3005 RMK HZY=",
"76361599999","2025-01-03T19:43:00","4","25.685194","-109.080806","4.87","VALLE DEL FUERTE INTERNATIONAL, MX","FM-15","99999","V020","290,1,N,0026,1","22000,1,9,N","016093,1,9,9","+0260,1","+0130,1","99999,9",,,,,"00,99,1,99,9,99,9,99999,9,99,9,99,9","10166,1,99999,9",,"MET048METAR MMLM 031943Z 29005KT 10SM SKC 26/13 A3002=",
"76361599999","2025-01-03T20:44:00","4","25.685194","-109.080806","4.87","VALLE DEL FUERTE INTERNATIONAL, MX","FM-15","99999","V020","250,1,N,0036,1","22000,1,9,N","016093,1,9,9","+0280,1","+0150,1","10156,1",,,,,"00,99,1,99,9,99,9,99999,9,99,9,99,9","10156,1,99999,9",,"MET059METAR MMLM 032044Z 25007KT 10SM SKC 28/15 A2999 RMK SLP156=",
"76361599999","2025-01-03T21:46:00","4","25.685194","-109.080806","4.87","VALLE DEL FUERTE INTERNATIONAL, MX","FM-15","99999","V020","270,1,N,0057,1","22000,1,9,N","016093,1,9,9","+0270,1","+0140,1","99999,9",,,,,"00,99,1,99,9,99,9,99999,9,99,9,99,9","10152,1,99999,9",,"MET048METAR MMLM 032146Z 27011KT 10SM SKC 27/14 A2998=",
"76361599999","2025-01-03T22:42:00","4","25.685194","-109.080806","4.87","VALLE DEL FUERTE INTERNATIONAL, MX","FM-15","99999","V020","290,1,N,0046,1","22000,1,9,N","016093,1,9,9","+0260,1","+0110,1","99999,9",,,,,"00,99,1,99,9,99,9,99999,9,99,9,99,9","10149,1,99999,9",,"MET048METAR MMLM 032242Z 29009KT 10SM SKC 26/11 A2997=",
"76361599999","2025-01-03T23:44:00","4","25.685194","-109.080806","4.87","VALLE DEL FUERTE INTERNATIONAL, MX","FM-15","99999","V020","280,1,N,0041,1","22000,1,9,N","016093,1,9,9","+0250,1","+0120,1","10146,1",,,,,"00,99,1,99,9,99,9,99999,9,99,9,99,9","10146,1,99999,9",,"MET059METAR MMLM 032344Z 28008KT 10SM SKC 25/12 A2996 RMK SLP146=",
"76361599999","2025-01-04T00:40:00","4","25.685194","-109.080806","4.87","VALLE DEL FUERTE INTERNATIONAL, MX","FM-15","99999","V020","270,1,N,0041,1","22000,1,9,N","016093,1,9,9","+0230,1","+0130,1","99999,9",,,,,"00,99,1,99,9,99,9,99999,9,99,9,99,9","10146,1,99999,9",,"MET060METAR MMLM 040040Z 27008KT 10SM SKC 23/13 A2996 RMK ISOL CI=",
"76361599999","2025-01-04T01:40:00","4","25.685194","-109.080806","4.87","VALLE DEL FUERTE INTERNATIONAL, MX","FM-15","99999","V020","270,1,N,0041,1","22000,1,9,N","016093,1,9,9","+0200,1","+0150,1","99999,9",,,,,"00,99,1,99,9,99,9,99999,9,99,9,99,9","10149,1,99999,9",,"MET048METAR MMLM 040140Z 27008KT 10SM SKC 20/15 A2997=",
"76361599999","2025-01-04T02:40:00","4","25.685194","-109.080806","4.87","VALLE DEL FUERTE INTERNATIONAL, MX","FM-15","99999","V020","260,1,N,0026,1","22000,1,9,N","016093,1,9,9","+0180,1","+0150,1","10156,1",,,,,"00,99,1,99,9,99,9,99999,9,99,9,99,9","10156,1,99999,9",,"MET059METAR MMLM 040240Z 26005KT 10SM SKC 18/15 A2999 RMK SLP156=",
"76361599999","2025-01-04T03:40:00","4","25.685194","-109.080806","4.87","VALLE DEL FUERTE INTERNATIONAL, MX","FM-15","99999","V020","240,1,N,0015,1","22000,1,9,N","011265,1,9,9","+0160,1","+0150,1","99999,9",,,,,"00,99,1,99,9,99,9,99999,9,99,9,99,9","10156,1,99999,9",,"MET055METAR MMLM 040340Z 24003KT 7SM SKC 16/15 A2999 RMK HZY=",
"76361599999","2025-01-04T14:05:00","4","25.685194","-109.080806","4.87","VALLE DEL FUERTE INTERNATIONAL, MX","FM-15","99999","V020","999,9,C,0000,1","99999,9,9,N","000402,1,9,9","+0120,1","+0120,1","99999,9","04,1,+06706,1,00,1",,,"9,AGL   ,+99999,+99999","99,99,9,04,1,99,9,06706,1,99,9,99,9","10163,1,99999,9","44,1","MET073METAR MMLM 041405Z RTD 00000KT 1/4SM FG SCT220 12/12 A3001 RMK 8/001 RTS=",
"76361599999","2025-01-04T14:31:00","4","25.685194","-109.080806","4.87","VALLE DEL FUERTE INTERNATIONAL, MX","FM-16","99999","V020","080,1,N,0031,1","99999,9,9,N","003219,1,9,9","+0130,1","+0120,1","99999,9","04,1,+07620,1,00,1",,,"9,AGL   ,+99999,+99999","99,99,9,04,1,99,9,07620,1,99,9,99,9","10163,1,99999,9","10,1","MET074SPECI MMLM 041431Z 08006KT 2SM BR SCT250 13/12 A3001 RMK 8/001 VSBY LWR E=",
"76361599999","2025-01-04T14:48:00","4","25.685194","-109.080806","4.87","VALLE DEL FUERTE INTERNATIONAL, MX","FM-15","99999","V020","110,1,N,0026,1","07620,1,C,N","004023,1,9,9","+0140,1","+0130,1","10163,1","07,1,+07620,1,02,1",,,"9,AGL   ,+99999,+99999","99,99,9,07,1,99,9,07620,1,99,9,99,9","10163,1,99999,9","10,1","MET088METAR MMLM 041448Z 11005KT 2 1/2SM BR BKN250 14/13 A3001 RMK SLP163 8/008 VSBY LWR E SE=",
"76361599999","2025-01-04T15:10:00","4","25.685194","-109.080806","4.87","VALLE DEL FUERTE INTERNATIONAL, MX","FM-16","99999","V020","110,1,N,0021,1","99999,9,9,N","000805,1,9,9","+0140,1","+0130,1","99999,9","04,1,+07620,1,00,1",,,"9,AGL   ,+99999,+99999","99,99,9,04,1,99,9,07620,1,99,9,99,9","10166,1,99999,9","11,1","MET085SPECI MMLM 041510Z 11004KT 1/2SM BCFG SCT250 14/13 A3002 RMK 8/001 VSBY LWR 2ND QUAD=",
"76361599999","2025-01-04T15:44:00","4","25.685194","-109.080806","4.87","VALLE DEL FUERTE INTERNATIONAL, MX","FM-15","99999","V020","999,9,C,0000,1","00091,1,W,N","000201,1,9,9","+0160,1","+0150,1","99999,9","09,1,+00091,1,99,9",,,"9,AGL   ,+99999,+99999","09,99,1,09,1,99,9,00091,1,99,9,99,9","10169,1,99999,9","44,1","MET073METAR MMLM 041544Z 00000KT 1/8SM FG VV003 16/15 A3003 RMK 8//// VRB COND=",
"76361599999","2025-01-04T16:04:00","4","25.685194","-109.080806","4.87","VALLE DEL FUERTE INTERNATIONAL, MX","FM-16","99999","V020","090,1,N,0021,1","07620,1,C,N","008047,1,9,9","+0160,1","+0160,1","99999,9","07,1,+07620,1,02,1",,,"9,AGL   ,+99999,+99999","99,99,9,07,1,99,9,07620,1,99,9,99,9","10169,1,99999,9","40,1","MET076SPECI MMLM 041604Z 09004KT 5SM VCFG BKN250 16/16 A3003 RMK 8/008 VSBY LWR W=",
"76361599999","2025-01-04T16:43:00","4","25.685194","-109.080806","4.87","VALLE DEL FUERTE INTERNATIONAL, MX","FM-15","99999","V020","080,1,N,0021,1","06706,1,C,N","011265,1,9,9","+0190,1","+0160,1","99999,9","07,1,+06706,1,02,1",,,"9,AGL   ,+99999,+99999","99,99,9,07,1,99,9,06706,1,99,9,99,9","10173,1,99999,9","40,1","MET065METAR MMLM 041643Z 08004KT 7SM VCFG BKN220 19/16 A3004 RMK 8/008=",
"76361599999","2025-01-04T17:42:00","4","25.685194","-109.080806","4.87","VALLE DEL FUERTE INTERNATIONAL, MX","FM-15","99999","V020","999,9,C,0000,1","06706,1,C,N","012875,1,9,9","+0220,1","+0140,1","10177,1","07,1,+06706,1,02,1",,,"9,AGL   ,+99999,+99999","99,99,9,07,1,99,9,06706,1,99,9,99,9","10176,1,99999,9",,"MET071METAR MMLM 041742Z 00000KT 8SM BKN220 22/14 A3005 RMK SLP177 8/008 HZY=",
"76361599999","2025-01-04T18:45:00","4","25.685194","-109.080806","4.87","VALLE DEL FUERTE INTERNATIONAL, MX","FM-15","99999","V020","180,1,N,0021,1","06706,1,C,N","012875,1,9,9","+0230,1","+0140,1","99999,9","07,1,+06706,1,02,1",,,"9,AGL   ,+99999,+99999","99,99,9,07,1,99,9,06706,1,99,9,99,9","10169,1,99999,9",,"MET064METAR MMLM 041845Z 18004KT 8SM BKN220 23/14 A3003 RMK 8/008 HZY=",
"76361599999","2025-01-04T19:44:00","4","25.685194","-109.080806","4.87","VALLE DEL FUERTE INTERNATIONAL, MX","FM-15","99999","V020","240,1,N,0041,1","06706,1,C,N","012875,1,9,9","+0250,1","+0130,1","99999,9","07,1,+06706,1,02,1",,,"9,AGL   ,+99999,+99999","99,99,9,07,1,99,9,06706,1,99,9,99,9","10159,1,99999,9",,"MET064METAR MMLM 041944Z 24008KT 8SM BKN220 25/13 A3000 RMK 8/008 HZY=",
"76361599999","2025-01-04T20:40:00","4","25.685194","-109.080806","4.87","VALLE DEL FUERTE INTERNATIONAL, MX","FM-15","99999","V020","220,1,N,0046,1","06706,1,C,N","012875,1,9,9","+0240,1","+0130,1","10153,1","07,1,+06706,1,02,1",,,"9,AGL   ,+99999,+99999","99,99,9,07,1,99,9,06706,1,99,9,99,9","10152,1,99999,9",,"MET071METAR MMLM 042040Z 22009KT 8SM BKN220 24/13 A2998 RMK SLP153 8/008 HZY=",
"76361599999","2025-01-04T21:45:00","4","25.685194","-109.080806","4.87","VALLE DEL FUERTE INTERNATIONAL, MX","FM-15","99999","V020","230,1,N,0046,1","06706,1,C,N","016093,1,9,9","+0220,1","+0140,1","99999,9","07,1,+06706,1,02,1",,,"9,AGL   ,+99999,+99999","99,99,9,07,1,99,9,06706,1,99,9,99,9","10149,1,99999,9",,"MET061METAR MMLM 042145Z 23009KT 10SM BKN220 22/14 A2997 RMK 8/008=",
"76361599999","2025-01-04T22:46:00","4","25.685194","-109.080806","4.87","VALLE DEL FUERTE INTERNATIONAL, MX","FM-15","99999","V020","230,1,N,0031,1","06706,1,C,N","016093,1,9,9","+0240,1","+0110,1","99999,9","07,1,+06706,1,02,1",,,"9,AGL   ,+99999,+99999","99,99,9,07,1,99,9,06706,1,99,9,99,9","10146,1,99999,9",,"MET061METAR MMLM 042246Z 23006KT 10SM BKN220 24/11 A2996 RMK 8/008=",
"76361599999","2025-01-04T23:45:00","4","25.685194","-109.080806","4.87","VALLE DEL FUERTE INTERNATIONAL, MX","FM-15","99999","V020","240,1,N,0036,1","06706,1,C,N","016093,1,9,9","+0230,1","+0120,1","10143,1","07,1,+06706,1,02,1",,,"9,AGL   ,+99999,+99999","99,99,9,07,1,99,9,06706,1,99,9,99,9","10142,1,99999,9",,"MET068METAR MMLM 042345Z 24007KT 10SM BKN220 23/12 A2995 RMK SLP143 8/008=",
"76361599999","2025-01-05T00:47:00","4","25.685194","-109.080806","4.87","VALLE DEL FUERTE INTERNATIONAL, MX","FM-15","99999","V020","240,1,N,0031,1","99999,9,9,N","016093,1,9,9","+0200,1","+0140,1","99999,9","04,1,+06706,1,00,1",,,"9,AGL   ,+99999,+99999","99,99,9,04,1,99,9,06706,1,99,9,99,9","10142,1,99999,9",,"MET061METAR MMLM 050047Z 24006KT 10SM SCT220 20/14 A2995 RMK 8/001=",
"76361599999","2025-01-05T01:42:00","4","25.685194","-109.080806","4.87","VALLE DEL FUERTE INTERNATIONAL, MX","FM-15","99999","V020","210,1,N,0021,1","99999,9,9,N","016093,1,9,9","+0170,1","+0140,1","99999,9","02,1,+06706,1,00,1",,,"9,AGL   ,+99999,+99999","99,99,9,02,1,99,9,06706,1,99,9,99,9","10146,1,99999,9",,"MET061METAR MMLM 050142Z 21004KT 10SM FEW220 17/14 A2996 RMK 8/001=",
"76361599999","2025-01-05T02:44:00","4","25.685194","-109.080806","4.87","VALLE DEL FUERTE INTERNATIONAL, MX","FM-15","99999","V020","250,1,N,0021,1","22000,1,9,N","012875,1,9,9","+0160,1","+0140,1","10153,1",,,,,"00,99,1,99,9,99,9,99999,9,99,9,99,9","10152,1,99999,9",,"MET067METAR COR MMLM 050244Z 25004KT 8SM SKC 16/14 A2998 RMK SLP1533 HZY=",
"76361599999","2025-01-05T03:30:00","4","25.685194","-109.080806","4.87","VALLE DEL FUERTE INTERNATIONAL, MX","FM-16","99999","V020","280,1,N,0015,1","22000,1,9,N","004828,1,9,9","+0160,1","+0140,1","99999,9",,,,,"00,99,1,99,9,99,9,99999,9,99,9,99,9","10156,1,99999,9","10,1","MET064SPECI MMLM 050330Z 28003KT 3SM BR SKC 16/14 A2999 RMK VRB CONDS=",
"76361599999","2025-01-05T03:45:00","4","25.685194","-109.080806","4.87","VALLE DEL FUERTE INTERNATIONAL, MX","FM-15","99999","V020","300,1,N,0015,1","00061,1,W,N","000201,1,9,9","+0150,1","+0130,1","99999,9","09,1,+00061,1,99,9",,,"9,AGL   ,+99999,+99999","09,99,1,09,1,99,9,00061,1,99,9,99,9","10159,1,99999,9","44,1","MET064METAR MMLM 050345Z 30003KT 1/8SM FG VV002 15/13 A3000 RMK 8////=",
"76361599999","2025-01-05T14:09:00","4","25.685194","-109.080806","4.87","VALLE DEL FUERTE INTERNATIONAL, MX","FM-15","99999","V020","260,1,N,0021,1","00091,1,W,N","000101,5,9,9","+0070,5","+0060,5","99999,9","09,1,+00091,1,99,9",,,"9,AGL   ,+99999,+99999","09,99,1,09,1,99,9,00091,1,99,9,99,9","10173,1,99999,9","44,1","MET073METAR MMLM 051409Z RTD 26004KT 1/16SM FG VV003 07/06 A3004 RMK 8//// RTS=","D01      0ADE729"
"76361599999","2025-01-05T14:47:00","4","25.685194","-109.080806","4.87","VALLE DEL FUERTE INTERNATIONAL, MX","FM-15","99999","V020","999,9,C,0000,1","22000,1,9,N","000604,1,9,9","+0080,1","+0080,1","10171,1",,,,,"00,99,1,99,9,99,9,99999,9,99,9,99,9","10179,1,99999,9","44,1","MET064METAR MMLM 051447Z 00000KT 3/8SM FG SKC 08/08 A3006 RMK SLP1710=",
"76361599999","2025-01-05T15:30:00","4","25.685194","-109.080806","4.87","VALLE DEL FUERTE INTERNATIONAL, MX","FM-16","99999","V020","999,9,C,0000,1","22000,1,9,N","004828,1,9,9","+0120,1","+0110,1","99999,9",,,,,"00,99,1,99,9,99,9,99999,9,99,9,99,9","10183,1,99999,9","10,1","MET065SPECI MMLM 051530Z 00000KT 3SM BR SKC 12/11 A3007 RMK VSBY LWR E=",
"76361599999","2025-01-05T15:48:00","4","25.685194","-109.080806","4.87","VALLE DEL FUERTE INTERNATIONAL, MX","FM-15","99999","V020","999,9,C,0000,1","22000,1,9,N","009656,1,9,9","+0130,1","+0120,1","99999,9",,,,,"00,99,1,99,9,99,9,99999,9,99,9,99,9","10183,1,99999,9","40,1","MET052METAR MMLM 051548Z 00000KT 6SM VCFG SKC 13/12 A3007=",
"76361599999","2025-01-05T16:45:00","4","25.685194","-109.080806","4.87","VALLE DEL FUERTE INTERNATIONAL, MX","FM-15","99999","V020","330,1,N,0021,1","22000,1,9,N","012875,1,9,9","+0180,1","+0110,1","99999,9",,,,,"00,99,1,99,9,99,9,99999,9,99,9,99,9","10186,1,99999,9",,"MET055METAR MMLM 051645Z 33004KT 8SM SKC 18/11 A3008 RMK HZY=",
"76361599999","2025-01-05T17:40:00","4","25.685194","-109.080806","4.87","VALLE DEL FUERTE INTERNATIONAL, MX","FM-15","99999","V020","300,1,N,0057,1","22000,1,9,N","012875,1,9,9","+0220,1","+0080,1","10187,1",,,,,"00,99,1,99,9,99,9,99999,9,99,9,99,9","10186,1,99999,9",,"MET062METAR MMLM 051740Z 30011KT 8SM SKC 22/08 A3008 RMK SLP187 HZY=",
"76361599999","2025-01-05T18:40:00","4","25.685194","-109.080806","4.87","VALLE DEL FUERTE INTERNATIONAL, MX","FM-15","99999","V020","330,1,N,0041,1","22000,1,9,N","012875,1,9,9","+0240,1","+0070,1","99999,9",,,,,"00,99,1,99,9,99,9,99999,9,99,9,99,9","10179,1,99999,9",,"MET055METAR MMLM 051840Z 33008KT 8SM SKC 24/07 A3006 RMK HZY=",
"76361599999","2025-01-05T19:40:00","4","25.685194","-109.080806","4.87","VALLE DEL FUERTE INTERNATIONAL, MX","FM-15","99999","V020","290,1,N,0036,1","22000,1,9,N","016093,1,9,9","+0250,1","+0070,1","99999,9",,,,,"00,99,1,99,9,99,9,99999,9,99,9,99,9","10166,1,99999,9",,"MET048METAR MMLM 051940Z 29007KT 10SM SKC 25/07 A3002=",
"76361599999","2025-01-05T20:40:00","4","25.685194","-109.080806","4.87","VALLE DEL FUERTE INTERNATIONAL, MX","FM-15","99999","V020","330,1,N,0057,1","22000,1,9,N","016093,1,9,9","+0260,2","+0070,1","10156,1",,,,,"00,99,1,99,9,99,9,99999,9,99,9,99,9","10156,1,99999,9",,"MET059METAR MMLM 052040Z 33011KT 10SM SKC 26/07 A2999 RMK SLP156=",
"76361599999","2025-01-05T21:42:00","4","25.685194","-109.080806","4.87","VALLE DEL FUERTE INTERNATIONAL, MX","FM-15","99999","V020","310,1,N,0057,1","22000,1,9,N","016093,1,9,9","+0260,1","+0070,1","99999,9",,,,,"00,99,1,99,9,99,9,99999,9,99,9,99,9","10152,1,99999,9",,"MET048METAR MMLM 052142Z 31011KT 10SM SKC 26/07 A2998=",
"76361599999","2025-01-05T22:44:00","4","25.685194","-109.080806","4.87","VALLE DEL FUERTE INTERNATIONAL, MX","FM-15","99999","V020","290,1,N,0067,1","22000,1,9,N","016093,1,9,9","+0250,1","+0100,1","99999,9",,,,,"00,99,1,99,9,99,9,99999,9,99,9,99,9","10152,1,99999,9",,"MET048METAR MMLM 052244Z 29013KT 10SM SKC 25/10 A2998=",
"76361599999","2025-01-05T23:40:00","4","25.685194","-109.080806","4.87","VALLE DEL FUERTE INTERNATIONAL, MX","FM-15","99999","V020","280,1,N,0067,1","22000,1,9,N","016093,1,9,9","+0230,1","+0130,1","10153,1",,,,,"00,99,1,99,9,99,9,99999,9,99,9,99,9","10152,1,99999,9",,"MET059METAR MMLM 052340Z 28013KT 10SM SKC 23/13 A2998 RMK SLP153=",
"76361599999","2025-01-06T00:40:00","4","25.685194","-109.080806","4.87","VALLE DEL FUERTE INTERNATIONAL, MX","FM-15","99999","V020","280,1,N,0067,1","22000,1,9,N","016093,1,9,9","+0200,1","+0140,1","99999,9",,,,,"00,99,1,99,9,99,9,99999,9,99,9,99,9","10156,1,99999,9",,"MET048METAR MMLM 060040Z 28013KT 10SM SKC 20/14 A2999=",
"76361599999","2025-01-06T01:40:00","4","25.685194","-109.080806","4.87","VALLE DEL FUERTE INTERNATIONAL, MX","FM-15","99999","V020","290,1,N,0046,1","22000,1,9,N","016093,1,9,9","+0180,1","+0140,1","99999,9",,,,,"00,99,1,99,9,99,9,99999,9,99,9,99,9","10163,1,99999,9",,"MET048METAR MMLM 060140Z 29009KT 10SM SKC 18/14 A3001=",
"76361599999","2025-01-06T02:42:00","4","25.685194","-109.080806","4.87","VALLE DEL FUERTE INTERNATIONAL, MX","FM-15","99999","V020","300,1,N,0041,1","22000,1,9,N","012875,1,9,9","+0170,1","+0140,1","10161,1",,,,,"00,99,1,99,9,99,9,99999,9,99,9,99,9","10169,1,99999,9",,"MET063METAR MMLM 060242Z 30008KT 8SM SKC 17/14 A3003 RMK SLP1610 HZY=",
"76361599999","2025-01-06T03:40:00","4","25.685194","-109.080806","4.87","VALLE DEL FUERTE INTERNATIONAL, MX","FM-15","99999","V020","290,1,N,0031,1","22000,1,9,N","012875,1,9,9","+0150,1","+0130,1","99999,9",,,,,"00,99,1,99,9,99,9,99999,9,99,9,99,9","10173,1,99999,9",,"MET055METAR MMLM 060340Z 29006KT 8SM SKC 15/13 A3004 RMK HZY=",
"76361599999","2025-01-06T14:01:00","4","25.685194","-109.080806","4.87","VALLE DEL FUERTE INTERNATIONAL, MX","FM-15","99999","V020","999,9,C,0000,1","00122,1,W,N","000101,5,9,9","+0100,5","+0090,5","99999,9","09,1,+00122,1,99,9",,,"9,AGL   ,+99999,+99999","09,99,1,09,1,99,9,00122,1,99,9,99,9","10169,1,99999,9","44,1","MET073METAR MMLM 061401Z RTD 00000KT 1/16SM FG VV004 10/09 A3003 RMK 8//// RTS=","D01      0ADE729"
"76361599999","2025-01-06T14:43:00","4","25.685194","-109.080806","4.87","VALLE DEL FUERTE INTERNATIONAL, MX","FM-15","99999","V020","999,9,C,0000,1","22000,1,9,N","000604,1,9,9","+0110,1","+0100,1","10173,1",,,,,"00,99,1,99,9,99,9,99999,9,99,9,99,9","10173,1,99999,9","44,1","MET063METAR MMLM 061443Z 00000KT 3/8SM FG SKC 11/10 A3004 RMK SLP173=",
"76361599999","2025-01-06T14:56:00","4","25.685194","-109.080806","4.87","VALLE DEL FUERTE INTERNATIONAL, MX","FM-16","99999","V020","999,9,C,0000,1","22000,1,9,N","002414,1,9,9","+0110,1","+0100,1","99999,9",,,,,"00,99,1,99,9,99,9,99999,9,99,9,99,9","10176,1,99999,9","10,1","MET075SPECI MMLM 061456Z 00000KT 1 1/2SM BR SKC 11/10 A3005 RMK VSBY LWR E AND W=",
"76361599999","2025-01-06T15:08:00","4","25.685194","-109.080806","4.87","VALLE DEL FUERTE INTERNATIONAL, MX","FM-16","99999","V020","999,9,C,0000,1","22000,1,9,N","006437,1,9,9","+0130,1","+0120,1","99999,9",,,,,"00,99,1,99,9,99,9,99999,9,99,9,99,9","10176,1,99999,9","11,1","MET067SPECI MMLM 061508Z 00000KT 4SM BCFG SKC 13/12 A3005 RMK VSBY LWR E=",
"76361599999","2025-01-06T15:41:00","4","25.685194","-109.080806","4.87","VALLE DEL FUERTE INTERNATIONAL, MX","FM-15","99999","V020","999,9,C,0000,1","22000,1,9,N","011265,1,9,9","+0160,1","+0130,1","99999,9",,,,,"00,99,1,99,9,99,9,99999,9,99,9,99,9","10179,1,99999,9","40,1","MET052METAR MMLM 061541Z 00000KT 7SM VCFG SKC 16/13 A3006=",
"76361599999","2025-01-06T16:41:00","4","25.685194","-109.080806","4.87","VALLE DEL FUERTE INTERNATIONAL, MX","FM-15","99999","V020","290,1,N,0031,1","22000,1,9,N","012875,1,9,9","+0190,1","+0150,1","99999,9",,,,,"00,99,1,99,9,99,9,99999,9,99,9,99,9","10183,1,99999,9",,"MET055METAR MMLM 061641Z 29006KT 8SM SKC 19/15 A3007 RMK HZY=",
"76361599999","2025-01-06T17:46:00","4","25.685194","-109.080806","4.87","VALLE DEL FUERTE INTERNATIONAL, MX","FM-15","99999","V020","310,1,N,0057,1","22000,1,9,N","012875,1,9,9","+0220,1","+0130,1","10171,1",,,,,"00,99,1,99,9,99,9,99999,9,99,9,99,9","10179,1,99999,9",,"MET063METAR MMLM 061746Z 31011KT 8SM SKC 22/13 A3006 RMK SLP1710 HZY=",
"76361599999","2025-01-06T18:42:00","4","25.685194","-109.080806","4.87","VALLE DEL FUERTE INTERNATIONAL, MX","FM-15","99999","V020","310,1,N,0026,1","22000,1,9,N","012875,1,9,9","+0240,1","+0100,1","99999,9",,,,,"00,99,1,99,9,99,9,99999,9,99,9,99,9","10173,1,99999,9",,"MET055METAR MMLM 061842Z 31005KT 8SM SKC 24/10 A3004 RMK HZY=",
"76361599999","2025-01-06T19:41:00","4","25.685194","-109.080806","4.87","VALLE DEL FUERTE INTERNATIONAL, MX","FM-15","99999","V020","310,1,N,0057,1","22000,1,9,N","012875,1,9,9","+0240,1","+0100,1","99999,9",,,,,"00,99,1,99,9,99,9,99999,9,99,9,99,9","10159,1,99999,9",,"MET055METAR MMLM 061941Z 31011KT 8SM SKC 24/10 A3000 RMK HZY=",
"76361599999","2025-01-06T20:42:00","4","25.685194","-109.080806","4.87","VALLE DEL FUERTE INTERNATIONAL, MX","FM-15","99999","V020","310,1,N,0057,1","22000,1,9,N","012875,1,9,9","+0250,1","+0070,1","10153,1",,,,,"00,99,1,99,9,99,9,99999,9,99,9,99,9","10152,1,99999,9",,"MET062METAR MMLM 062042Z 31011KT 8SM SKC 25/07 A2998 RMK SLP153 HZY=",
"76361599999","2025-01-06T21:44:00","4","25.685194","-109.080806","4.87","VALLE DEL FUERTE INTERNATIONAL, MX","FM-15","99999","V020","300,1,N,0072,1","22000,1,9,N","016093,1,9,9","+0250,1","+0070,1","99999,9",,,,,"00,99,1,99,9,99,9,99999,9,99,9,99,9","10146,1,99999,9",,"MET058METAR MMLM 062144Z 30014KT 10SM SKC 25/07 A2996 RMK FU NW=",
"76361599999","2025-01-06T22:50:00","4","25.685194","-109.080806","4.87","VALLE DEL FUERTE INTERNATIONAL, MX","FM-15","99999","V020","310,1,N,0072,1","22000,1,9,N","016093,1,9,9","+0240,1","+0100,1","99999,9",,,,,"00,99,1,99,9,99,9,99999,9,99,9,99,9","10142,1,99999,9",,"MET048METAR MMLM 062250Z 31014KT 10SM SKC 24/10 A2995=",
"76361599999","2025-01-06T23:43:00","4","25.685194","-109.080806","4.87","VALLE DEL FUERTE INTERNATIONAL, MX","FM-15","99999","V020","300,1,N,0067,1","22000,1,9,N","016093,1,9,9","+0230,1","+0110,1","10143,1",,,,,"00,99,1,99,9,99,9,99999,9,99,9,99,9","10142,1,99999,9",,"MET059METAR MMLM 062343Z 30013KT 10SM SKC 23/11 A2995 RMK SLP143=",
"76361599999","2025-01-07T00:40:00","4","25.685194","-109.080806","4.87","VALLE DEL FUERTE INTERNATIONAL, MX","FM-15","99999","V020","300,1,N,0046,1","22000,1,9,N","016093,1,9,9","+0200,1","+0120,1","99999,9",,,,,"00,99,1,99,9,99,9,99999,9,99,9,99,9","10146,1,99999,9",,"MET048METAR MMLM 070040Z 30009KT 10SM SKC 20/12 A2996=",
"76361599999","2025-01-07T01:50:00","4","25.685194","-109.080806","4.87","VALLE DEL FUERTE INTERNATIONAL, MX","FM-15","99999","V020","290,1,N,0036,1","22000,1,9,N","016093,1,9,9","+0170,1","+0120,1","99999,9",,,,,"00,99,1,99,9,99,9,99999,9,99,9,99,9","10152,1,99999,9",,"MET048METAR MMLM 070150Z 29007KT 10SM SKC 17/12 A2998=",
"76361599999","2025-01-07T02:50:00","4","25.685194","-109.080806","4.87","VALLE DEL FUERTE INTERNATIONAL, MX","FM-15","99999","V020","260,1,N,0021,1","22000,1,9,N","016093,1,9,9","+0150,1","+0110,1","10151,1",,,,,"00,99,1,99,9,99,9,99999,9,99,9,99,9","10159,1,99999,9",,"MET060METAR MMLM 070250Z 26004KT 10SM SKC 15/11 A3000 RMK SLP1510=",
"76361599999","2025-01-07T03:48:00","4","25.685194","-109.080806","4.87","VALLE DEL FUERTE INTERNATIONAL, MX","FM-15","99999","V020","280,1,N,0031,1","22000,1,9,N","012875,1,9,9","+0140,1","+0110,1","99999,9",,,,,"00,99,1,99,9,99,9,99999,9,99,9,99,9","10159,1,99999,9",,"MET055METAR MMLM 070348Z 28006KT 8SM SKC 14/11 A3000 RMK HZY=",
"76361599999","2025-01-07T13:56:00","4","25.685194","-109.080806","4.87","VALLE DEL FUERTE INTERNATIONAL, MX","FM-15","99999","V020","070,1,N,0026,1","22000,1,9,N","000402,1,9,9","+0070,1","+0070,1","99999,9",,,,,"00,99,1,99,9,99,9,99999,9,99,9,99,9","10152,1,99999,9","44,1","MET060METAR MMLM 071356Z 07005KT 1/4SM FG SKC 07/07 A2998 RMK RTS=",
"76361599999","2025-01-07T14:46:00","4","25.685194","-109.080806","4.87","VALLE DEL FUERTE INTERNATIONAL, MX","FM-15","99999","V020","070,1,N,0021,1","22000,1,9,N","006437,1,9,9","+0090,1","+0080,1","10156,1",,,,,"00,99,1,99,9,99,9,99999,9,99,9,99,9","10156,1,99999,9","11,1","MET074METAR MMLM 071446Z 07004KT 4SM BCFG SKC 09/08 A2999 RMK SLP156 VSBY LWR E=",
"76361599999","2025-01-07T15:40:00","4","25.685194","-109.080806","4.87","VALLE DEL FUERTE INTERNATIONAL, MX","FM-15","99999","V020","080,1,N,0031,1","22000,1,9,N","011265,1,9,9","+0120,1","+0110,1","99999,9",,,,,"00,99,1,99,9,99,9,99999,9,99,9,99,9","10159,1,99999,9","40,1","MET067METAR MMLM 071540Z 08006KT 7SM VCFG SKC 12/11 A3000 RMK VSBY LWR E=",
"76361599999","2025-01-07T16:41:00","4","25.685194","-109.080806","4.87","VALLE DEL FUERTE INTERNATIONAL, MX","FM-15","99999","V020","060,1,N,0026,1","22000,1,9,N","012875,1,9,9","+0160,1","+0110,1","99999,9",,,,,"00,99,1,99,9,99,9,99999,9,99,9,99,9","10163,1,99999,9",,"MET055METAR MMLM 071641Z 06005KT 8SM SKC 16/11 A3001 RMK HZY=",
"76361599999","2025-01-07T17:43:00","4","25.685194","-109.080806","4.87","VALLE DEL FUERTE INTERNATIONAL, MX","FM-15","99999","V020","999,9,C,0000,1","22000,1,9,N","012875,1,9,9","+0200,1","+0110,1","10163,1",,,,,"00,99,1,99,9,99,9,99999,9,99,9,99,9","10163,1,99999,9",,"MET062METAR MMLM 071743Z 00000KT 8SM SKC 20/11 A3001 RMK SLP163 HZY=",
"76361599999","2025-01-07T18:42:00","4","25.685194","-109.080806","4.87","VALLE DEL FUERTE INTERNATIONAL, MX","FM-15","99999","V020","160,1,N,0021,1","22000,1,9,N","016093,1,9,9","+0230,1","+0090,1","99999,9",,,,,"00,99,1,99,9,99,9,99999,9,99,9,99,9","10156,1,99999,9",,"MET048METAR MMLM 071842Z 16004KT 10SM SKC 23/09 A2999=",
"76361599999","2025-01-07T19:40:00","4","25.685194","-109.080806","4.87","VALLE DEL FUERTE INTERNATIONAL, MX","FM-15","99999","V020","190,1,N,0046,1","22000,1,9,N","016093,1,9,9","+0250,1","+0080,1","99999,9",,,,,"00,99,1,99,9,99,9,99999,9,99,9,99,9","10146,1,99999,9",,"MET048METAR MMLM 071940Z 19009KT 10SM SKC 25/08 A2996=",
"76361599999","2025-01-07T21:41:00","4","25.685194","-109.080806","4.87","VALLE DEL FUERTE INTERNATIONAL, MX","FM-15","99999","V020","180,1,N,0031,1","22000,1,9,N","016093,1,9,9","+0260,1","+0040,1","99999,9",,,,,"00,99,1,99,9,99,9,99999,9,99,9,99,9","10125,1,99999,9",,"MET048METAR MMLM 072141Z 18006KT 10SM SKC 26/04 A2990=",
"76361599999","2025-01-07T22:41:00","4","25.685194","-109.080806","4.87","VALLE DEL FUERTE INTERNATIONAL, MX","FM-15","99999","V020","160,1,N,0036,1","22000,1,9,N","016093,1,9,9","+0250,1","+0040,1","99999,9",,,,,"00,99,1,99,9,99,9,99999,9,99,9,99,9","10129,1,99999,9",,"MET048METAR MMLM 072241Z 16007KT 10SM SKC 25/04 A2991=",
"76361599999","2025-01-07T23:50:00","4","25.685194","-109.080806","4.87","VALLE DEL FUERTE INTERNATIONAL, MX","FM-15","99999","V020","160,1,N,0031,1","22000,1,9,N","016093,1,9,9","+0240,1","+0040,1","10129,1",,,,,"00,99,1,99,9,99,9,99999,9,99,9,99,9","10129,1,99999,9",,"MET067METAR MMLM 072350Z 16006KT 10SM SKC 24/04 A2991 RMK SLP129 ISOL CI=",
"76361599999","2025-01-08T00:40:00","4","25.685194","-109.080806","4.87","VALLE DEL FUERTE INTERNATIONAL, MX","FM-15","99999","V020","210,1,N,0021,1","22000,1,9,N","016093,1,9,9","+0210,1","+0060,1","99999,9",,,,,"00,99,1,99,9,99,9,99999,9,99,9,99,9","10125,1,99999,9",,"MET060METAR MMLM 080040Z 21004KT 10SM SKC 21/06 A2990 RMK ISOL CI=",
"76361599999","2025-01-08T01:40:00","4","25.685194","-109.080806","4.87","VALLE DEL FUERTE INTERNATIONAL, MX","FM-15","99999","V020","999,9,C,0000,1","22000,1,9,N","012875,1,9,9","+0200,1","+0100,1","99999,9",,,,,"00,99,1,99,9,99,9,99999,9,99,9,99,9","10129,1,99999,9",,"MET047METAR MMLM 080140Z 00000KT 8SM SKC 20/10 A2991=",
"76361599999","2025-01-08T02:41:00","4","25.685194","-109.080806","4.87","VALLE DEL FUERTE INTERNATIONAL, MX","FM-15","99999","V020","150,1,N,0036,1","22000,1,9,N","012875,1,9,9","+0190,1","+0120,1","10129,1",,,,,"00,99,1,99,9,99,9,99999,9,99,9,99,9","10129,1,99999,9",,"MET058METAR MMLM 080241Z 15007KT 8SM SKC 19/12 A2991 RMK SLP129=",
"76361599999","2025-01-08T03:41:00","4","25.685194","-109.080806","4.87","VALLE DEL FUERTE INTERNATIONAL, MX","FM-15","99999","V020","140,1,N,0046,1","22000,1,9,N","012875,1,9,9","+0190,1","+0100,1","99999,9",,,,,"00,99,1,99,9,99,9,99999,9,99,9,99,9","10135,1,99999,9",,"MET047METAR MMLM 080341Z 14009KT 8SM SKC 19/10 A2993=",
"76361599999","2025-01-08T14:02:00","4","25.685194","-109.080806","4.87","VALLE DEL FUERTE INTERNATIONAL, MX","FM-15","99999","V020","200,1,N,0031,1","06096,1,C,N","006437,1,9,9","+0170,1","+0140,1","99999,9","04,1,+00183,1,07,1","04,1,+06096,1,01,1",,"9,AGL   ,+99999,+99999","99,99,9,04,1,99,9,00183,1,99,9,99,9","10135,1,99999,9","11,1","MET091METAR MMLM 081402Z RTD 20006KT 4SM BCFG SCT006 SCT200 17/14 A2993 RMK 8/609 VSBY LWR E RTS=",
"76361599999","2025-01-08T14:43:00","4","25.685194","-109.080806","4.87","VALLE DEL FUERTE INTERNATIONAL, MX","FM-15","99999","V020","180,1,N,0031,1","06096,1,9,N","008047,1,9,9","+0180,1","+0140,1","10139,1","04,1,+00213,1,07,1","07,1,+06096,1,01,1",,"9,AGL   ,+99999,+99999","99,99,9,04,1,99,9,00213,1,99,9,99,9","10139,1,99999,9","40,1","MET079METAR MMLM 081443Z 18006KT 5SM VCFG SCT007 BKN200 18/14 A2994 RMK SLP139 8/609=",
"76361599999","2025-01-08T15:46:00","4","25.685194","-109.080806","4.87","VALLE DEL FUERTE INTERNATIONAL, MX","FM-15","99999","V020","180,1,N,0046,1","06096,1,9,N","009656,1,9,9","+0200,1","+0150,1","99999,9","04,1,+00213,1,07,1","07,1,+06096,1,02,1",,"9,AGL   ,+99999,+99999","99,99,9,04,1,99,9,00213,1,99,9,99,9","10146,1,99999,9","40,1","MET083METAR MMLM 081546Z 18009KT 6SM VCFG SCT007 BKN200 20/15 A2996 RMK 8/608 VSBY LWR E=",
"76361599999","2025-01-08T16:43:00","4","25.685194","-109.080806","4.87","VALLE DEL FUERTE INTERNATIONAL, MX","FM-15","99999","V020","210,1,N,0062,1","06096,1,9,N","011265,1,9,9","+0200,1","+0130,1","99999,9","04,1,+00244,1,07,1","07,1,+06096,1,02,1",,"9,AGL   ,+99999,+99999","99,99,9,04,1,99,9,00244,1,99,9,99,9","10152,1,99999,9","40,1","MET083METAR MMLM 081643Z 21012KT 7SM VCFG SCT008 BKN200 20/13 A2998 RMK 8/608 VSBY LWR E=",
"76361599999","2025-01-08T17:50:00","4","25.685194","-109.080806","4.87","VALLE DEL FUERTE INTERNATIONAL, MX","FM-15","99999","V020","220,1,N,0077,1","06096,1,9,N","011265,1,9,9","+0210,1","+0120,1","10153,1","04,1,+00366,1,06,1","07,1,+06096,1,02,1",,"9,AGL   ,+99999,+99999","99,99,9,04,1,99,9,00366,1,99,9,99,9","10152,1,99999,9",,"MET078METAR MMLM 081750Z 22015KT 7SM SCT012 BKN200 21/12 A2998 RMK SLP153 8/508 HZY=",
"76361599999","2025-01-08T18:42:00","4","25.685194","-109.080806","4.87","VALLE DEL FUERTE INTERNATIONAL, MX","FM-15","99999","V020","250,1,N,0067,1","03048,1,9,N","011265,1,9,9","+0210,1","+0120,1","99999,9","04,1,+00610,1,06,1","07,1,+03048,1,05,1",,"9,AGL   ,+99999,+99999","99,99,9,04,1,99,9,00610,1,99,9,99,9","10149,1,99999,9",,"MET079METAR MMLM 081842Z 25013KT 7SM SCT020 BKN100 21/12 A2997 RMK 8/520 HZY ISOL CI=",
"76361599999","2025-01-08T19:43:00","4","25.685194","-109.080806","4.87","VALLE DEL FUERTE INTERNATIONAL, MX","FM-15","99999","V020","220,1,N,0051,1","06096,1,9,N","011265,1,9,9","+0220,1","+0110,1","99999,9","04,1,+00610,1,06,1","07,1,+06096,1,02,1",,"9,AGL   ,+99999,+99999","99,99,9,04,1,99,9,00610,1,99,9,99,9","10139,1,99999,9",,"MET071METAR MMLM 081943Z 22010KT 7SM SCT020 BKN200 22/11 A2994 RMK 8/508 HZY=",
"76361599999","2025-01-08T20:44:00","4","25.685194","-109.080806","4.87","VALLE DEL FUERTE INTERNATIONAL, MX","FM-15","99999","V020","250,1,N,0067,1","03048,1,9,N","012875,1,9,9","+0210,1","+0110,1","10136,1","04,1,+00610,1,06,1","07,1,+03048,1,05,1",,"9,AGL   ,+99999,+99999","99,99,9,04,1,99,9,00610,1,99,9,99,9","10135,1,99999,9",,"MET078METAR MMLM 082044Z 25013KT 8SM SCT020 BKN100 21/11 A2993 RMK SLP136 8/520 HZY=",
"76361599999","2025-01-08T21:45:00","4","25.685194","-109.080806","4.87","VALLE DEL FUERTE INTERNATIONAL, MX","FM-15","99999","V020","240,1,N,0067,1","03048,1,9,N","016093,1,9,9","+0210,1","+0090,1","99999,9","04,1,+00762,1,06,1","07,1,+03048,1,03,1",,"9,AGL   ,+99999,+99999","99,99,9,04,1,99,9,00762,1,99,9,99,9","10132,1,99999,9",,"MET068METAR MMLM 082145Z 24013KT 10SM SCT025 BKN100 21/09 A2992 RMK 8/530=",
"76361599999","2025-01-08T22:45:00","4","25.685194","-109.080806","4.87","VALLE DEL FUERTE INTERNATIONAL, MX","FM-15","99999","V020","250,1,N,0036,1","03048,1,C,N","016093,1,9,9","+0210,1","+0090,1","99999,9","04,1,+00762,1,06,1","04,1,+03048,1,03,1",,"9,AGL   ,+99999,+99999","99,99,9,04,1,99,9,00762,1,99,9,99,9","10129,1,99999,9",,"MET068METAR MMLM 082245Z 25007KT 10SM SCT025 SCT100 21/09 A2991 RMK 8/530=",
"76361599999","2025-01-08T23:44:00","4","25.685194","-109.080806","4.87","VALLE DEL FUERTE INTERNATIONAL, MX","FM-15","99999","V020","240,1,N,0057,1","02134,1,9,N","016093,1,9,9","+0200,1","+0110,1","10132,1","04,1,+01219,1,06,1","07,1,+02134,1,05,1","08,1,+06706,1,02,1","9,AGL   ,+99999,+99999","99,99,9,04,1,99,9,01219,1,99,9,99,9","10132,1,99999,9",,"MET082METAR MMLM 082344Z 24011KT 10SM SCT040 BKN070 OVC220 20/11 A2992 RMK SLP132 8/527=",
"76361599999","2025-01-09T00:42:00","4","25.685194","-109.080806","4.87","VALLE DEL FUERTE INTERNATIONAL, MX","FM-15","99999","V020","240,1,N,0031,1","02438,1,9,N","016093,1,9,9","+0190,1","+0110,1","99999,9","04,1,+01219,1,06,1","07,1,+02438,1,05,1",,"9,AGL   ,+99999,+99999","99,99,9,04,1,99,9,01219,1,99,9,99,9","10132,1,99999,9",,"MET068METAR MMLM 090042Z 24006KT 10SM SCT040 BKN080 19/11 A2992 RMK 8/520=",
"76361599999","2025-01-09T01:50:00","4","25.685194","-109.080806","4.87","VALLE DEL FUERTE INTERNATIONAL, MX","FM-15","99999","V020","240,1,N,0036,1","02438,1,9,N","016093,1,9,9","+0190,1","+0110,1","99999,9","04,1,+01219,1,06,1","07,1,+02438,1,05,1",,"9,AGL   ,+99999,+99999","99,99,9,04,1,99,9,01219,1,99,9,99,9","10139,1,99999,9",,"MET068METAR MMLM 090150Z 24007KT 10SM SCT040 BKN080 19/11 A2994 RMK 8/520=",
"76361599999","2025-01-09T02:41:00","4","25.685194","-109.080806","4.87","VALLE DEL FUERTE INTERNATIONAL, MX","FM-15","99999","V020","130,1,N,0015,1","02438,1,9,N","016093,1,9,9","+0180,1","+0110,1","10139,1","04,1,+01219,1,06,1","07,1,+02438,1,05,1",,"9,AGL   ,+99999,+99999","99,99,9,04,1,99,9,01219,1,99,9,99,9","10139,1,99999,9",,"MET075METAR MMLM 090241Z 13003KT 10SM SCT040 BKN080 18/11 A2994 RMK SLP139 8/520=",
"76361599999","2025-01-09T03:41:00","4","25.685194","-109.080806","4.87","VALLE DEL FUERTE INTERNATIONAL, MX","FM-15","99999","V020","330,1,N,0021,1","02438,1,C,N","016093,1,9,9","+0160,1","+0100,1","99999,9","02,1,+01219,1,06,1","04,1,+02438,1,05,1",,"9,AGL   ,+99999,+99999","99,99,9,02,1,99,9,01219,1,99,9,99,9","10146,1,99999,9",,"MET068METAR MMLM 090341Z 33004KT 10SM FEW040 SCT080 16/10 A2996 RMK 8/520=",
"76361599999","2025-01-09T14:07:00","4","25.685194","-109.080806","4.87","VALLE DEL FUERTE INTERNATIONAL, MX","FM-15","99999","V020","999,9,C,0000,1","99999,9,9,N","016093,1,9,9","+0110,1","+0080,1","99999,9","04,1,+06706,1,00,1",,,"9,AGL   ,+99999,+99999","99,99,9,04,1,99,9,06706,1,99,9,99,9","10169,1,99999,9",,"MET081METAR MMLM 091407Z RTD 00000KT 10SM SCT220 11/08 A3003 RMK 8/004 HZY DSNT CU RTS=",
"76361599999","2025-01-09T14:41:00","4","25.685194","-109.080806","4.87","VALLE DEL FUERTE INTERNATIONAL, MX","FM-15","99999","V020","999,9,C,0000,1","99999,9,9,N","016093,1,9,9","+0110,1","+0080,1","10177,1","04,1,+06706,1,00,1",,,"9,AGL   ,+99999,+99999","99,99,9,04,1,99,9,06706,1,99,9,99,9","10176,1,99999,9",,"MET080METAR MMLM 091441Z 00000KT 10SM SCT220 11/08 A3005 RMK SLP177 8/004 HZY DSNT CU=",
"76361599999","2025-01-09T15:40:00","4","25.685194","-109.080806","4.87","VALLE DEL FUERTE INTERNATIONAL, MX","FM-15","99999","V020","999,9,C,0000,1","22000,1,9,N","016093,1,9,9","+0150,1","+0100,1","99999,9",,,,,"00,99,1,99,9,99,9,99999,9,99,9,99,9","10179,1,99999,9",,"MET064METAR MMLM 091540Z 00000KT 10SM SKC 15/10 A3006 RMK HZY DSNT CU=",
"76361599999","2025-01-09T16:43:00","4","25.685194","-109.080806","4.87","VALLE DEL FUERTE INTERNATIONAL, MX","FM-15","99999","V020","330,1,N,0057,1","22000,1,9,N","016093,1,9,9","+0180,1","+0100,1","99999,9",,,,,"00,99,1,99,9,99,9,99999,9,99,9,99,9","10183,1,99999,9",,"MET069METAR MMLM 091643Z 33011KT 10SM SKC 18/10 A3007 RMK HZY DSNT CU W SW=",
"76361599999","2025-01-09T17:40:00","4","25.685194","-109.080806","4.87","VALLE DEL FUERTE INTERNATIONAL, MX","FM-15","99999","V020","320,1,N,0072,1","99999,9,9,N","016093,1,9,9","+0190,1","+0100,1","10171,1","04,1,+00457,1,08,1",,,"9,AGL   ,+99999,+99999","99,99,9,04,1,99,9,00457,1,99,9,99,9","10179,1,99999,9",,"MET073METAR MMLM 091740Z 32014KT 10SM SCT015 19/10 A3006 RMK SLP1710 8/100 HZY=",
"76361599999","2025-01-09T18:40:00","4","25.685194","-109.080806","4.87","VALLE DEL FUERTE INTERNATIONAL, MX","FM-15","99999","V020","270,1,N,0062,1","00457,1,C,N","016093,1,9,9","+0200,1","+0090,1","99999,9","07,1,+00457,1,08,1",,,"9,AGL   ,+99999,+99999","99,99,9,07,1,99,9,00457,1,99,9,99,9","10169,1,99999,9",,"MET068METAR MMLM 091840Z 27012KT 10SM BKN015TCU 20/09 A3003 RMK 8/200 HZY=",
"76361599999","2025-01-09T19:40:00","4","25.685194","-109.080806","4.87","VALLE DEL FUERTE INTERNATIONAL, MX","FM-15","99999","V020","340,1,N,0046,1","00457,1,C,N","016093,1,9,9","+0180,1","+0090,1","99999,9","07,1,+00457,1,08,1",,,"9,AGL   ,+99999,+99999","99,99,9,07,1,99,9,00457,1,99,9,99,9","10163,1,99999,9",,"MET064METAR MMLM 091940Z 34009KT 10SM BKN015TCU 18/09 A3001 RMK 8/200=",
"76361599999","2025-01-09T21:40:00","4","25.685194","-109.080806","4.87","VALLE DEL FUERTE INTERNATIONAL, MX","FM-15","99999","V020","300,1,N,0062,1","99999,9,9,N","012875,1,9,9","+0200,1","+0060,1","99999,9","02,1,+00610,1,08,1",,,"9,AGL   ,+99999,+99999","99,99,9,02,1,99,9,00610,1,99,9,99,9","10142,1,99999,9",,"MET064METAR MMLM 092140Z 30012KT 8SM FEW020 20/06 A2995 RMK 8/100 HZY=",
"76361599999","2025-01-09T22:43:00","4","25.685194","-109.080806","4.87","VALLE DEL FUERTE INTERNATIONAL, MX","FM-15","99999","V020","300,1,N,0072,1","99999,9,9,N","012875,1,9,9","+0200,1","+0060,1","99999,9","02,1,+00610,1,08,1",,,"9,AGL   ,+99999,+99999","99,99,9,02,1,99,9,00610,1,99,9,99,9","10146,1,99999,9",,"MET064METAR MMLM 092243Z 30014KT 8SM FEW020 20/06 A2996 RMK 8/100 HZY=",
"76361599999","2025-01-09T23:40:00","4","25.685194","-109.080806","4.87","VALLE DEL FUERTE INTERNATIONAL, MX","FM-15","99999","V020","290,1,N,0082,1","22000,1,9,N","012875,1,9,9","+0190,1","+0070,1","10149,1",,,,,"00,99,1,99,9,99,9,99999,9,99,9,99,9","10149,1,99999,9",,"MET062METAR MMLM 092340Z 29016KT 8SM SKC 19/07 A2997 RMK SLP149 HZY=",
"76361599999","2025-01-10T00:48:00","4","25.685194","-109.080806","4.87","VALLE DEL FUERTE INTERNATIONAL, MX","FM-15","99999","V020","290,1,N,0057,1","22000,1,9,N","012875,1,9,9","+0180,1","+0080,1","99999,9",,,,,"00,99,1,99,9,99,9,99999,9,99,9,99,9","10156,1,99999,9",,"MET055METAR MMLM 100048Z 29011KT 8SM SKC 18/08 A2999 RMK HZY=",
"76361599999","2025-01-10T01:45:00","4","25.685194","-109.080806","4.87","VALLE DEL FUERTE INTERNATIONAL, MX","FM-15","99999","V020","290,1,N,0026,1","22000,1,9,N","012875,1,9,9","+0160,1","+0080,1","99999,9",,,,,"00,99,1,99,9,99,9,99999,9,99,9,99,9","10163,1,99999,9",,"MET055METAR MMLM 100145Z 29005KT 8SM SKC 16/08 A3001 RMK HZY=",
"76361599999","2025-01-10T02:40:00","4","25.685194","-109.080806","4.87","VALLE DEL FUERTE INTERNATIONAL, MX","FM-15","99999","V020","320,1,N,0046,1","22000,1,9,N","012875,1,9,9","+0150,1","+0090,1","10161,1",,,,,"00,99,1,99,9,99,9,99999,9,99,9,99,9","10169,1,99999,9",,"MET063METAR MMLM 100240Z 32009KT 8SM SKC 15/09 A3003 RMK SLP1610 HZY=",
"76361599999","2025-01-10T03:46:00","4","25.685194","-109.080806","4.87","VALLE DEL FUERTE INTERNATIONAL, MX","FM-15","99999","V020","230,1,N,0021,1","22000,1,9,N","012875,1,9,9","+0140,1","+0090,1","99999,9",,,,,"00,99,1,99,9,99,9,99999,9,99,9,99,9","10179,1,99999,9",,"MET055METAR MMLM 100346Z 23004KT 8SM SKC 14/09 A3006 RMK HZY=",
"76361599999","2025-01-10T04:42:00","4","25.685194","-109.080806","4.87","VALLE DEL FUERTE INTERNATIONAL, MX","FM-15","99999","V020","190,1,N,0026,1","22000,1,9,N","012875,1,9,9","+0130,1","+0090,1","99999,9",,,,,"00,99,1,99,9,99,9,99999,9,99,9,99,9","10186,1,99999,9",,"MET055METAR MMLM 100442Z 19005KT 8SM SKC 13/09 A3008 RMK HZY=",
"76361599999","2025-01-10T14:03:00","4","25.685194","-109.080806","4.87","VALLE DEL FUERTE INTERNATIONAL, MX","FM-15","99999","V020","340,1,N,0021,1","22000,1,9,N","016093,1,9,9","+0080,1","+0040,1","99999,9",,,,,"00,99,1,99,9,99,9,99999,9,99,9,99,9","10173,1,99999,9",,"MET072METAR MMLM 101403Z RTD 34004KT 10SM SKC 08/04 A3004 RMK HZY ISOL CU RTS=",
"76361599999","2025-01-10T14:40:00","4","25.685194","-109.080806","4.87","VALLE DEL FUERTE INTERNATIONAL, MX","FM-15","99999","V020","330,1,N,0015,1","22000,1,9,N","016093,1,9,9","+0080,1","+0050,1","10177,1",,,,,"00,99,1,99,9,99,9,99999,9,99,9,99,9","10176,1,99999,9",,"MET071METAR MMLM 101440Z 33003KT 10SM SKC 08/05 A3005 RMK SLP177 HZY ISOL CU=",
"76361599999","2025-01-10T15:40:00","4","25.685194","-109.080806","4.87","VALLE DEL FUERTE INTERNATIONAL, MX","FM-15","99999","V020","140,1,N,0015,1","22000,1,9,N","016093,1,9,9","+0130,1","+0080,1","99999,9",,,,,"00,99,1,99,9,99,9,99999,9,99,9,99,9","10179,1,99999,9",,"MET056METAR MMLM 101540Z 14003KT 10SM SKC 13/08 A3006 RMK HZY=",
"76361599999","2025-01-10T16:42:00","4","25.685194","-109.080806","4.87","VALLE DEL FUERTE INTERNATIONAL, MX","FM-15","99999","V020","320,1,N,0041,1","22000,1,9,N","016093,1,9,9","+0160,1","+0060,1","99999,9",,,,,"00,99,1,99,9,99,9,99999,9,99,9,99,9","10183,1,99999,9",,"MET056METAR MMLM 101642Z 32008KT 10SM SKC 16/06 A3007 RMK HZY=",
"76361599999","2025-01-10T17:40:00","4","25.685194","-109.080806","4.87","VALLE DEL FUERTE INTERNATIONAL, MX","FM-15","99999","V020","320,1,N,0062,1","22000,1,9,N","016093,1,9,9","+0190,1","+0030,1","10177,1",,,,,"00,99,1,99,9,99,9,99999,9,99,9,99,9","10176,1,99999,9",,"MET063METAR MMLM 101740Z 32012KT 10SM SKC 19/03 A3005 RMK SLP177 HZY=",
"76361599999","2025-01-10T18:40:00","4","25.685194","-109.080806","4.87","VALLE DEL FUERTE INTERNATIONAL, MX","FM-15","99999","V020","310,1,N,0098,1","22000,1,9,N","016093,1,9,9","+0200,1","+0030,1","99999,9",,,,,"00,99,1,99,9,99,9,99999,9,99,9,99,9","10169,1,99999,9",,"MET056METAR MMLM 101840Z 31019KT 10SM SKC 20/03 A3003 RMK HZY=",
"76361599999","2025-01-10T19:40:00","4","25.685194","-109.080806","4.87","VALLE DEL FUERTE INTERNATIONAL, MX","FM-15","99999","V020","320,1,N,0113,1","22000,1,9,N","016093,1,9,9","+0200,1","+0030,1","99999,9",,,,,"00,99,1,99,9,99,9,99999,9,99,9,99,9","10156,1,99999,9",,"MET056METAR MMLM 101940Z 32022KT 10SM SKC 20/03 A2999 RMK HZY=",
"76361599999","2025-01-10T20:40:00","4","25.685194","-109.080806","4.87","VALLE DEL FUERTE INTERNATIONAL, MX","FM-15","99999","V020","320,1,N,0113,1","22000,1,9,N","016093,1,9,9","+0200,1","+0050,1","10149,1",,,,,"00,99,1,99,9,99,9,99999,9,99,9,99,9","10149,1,99999,9",,"MET063METAR MMLM 102040Z 32022KT 10SM SKC 20/05 A2997 RMK SLP149 HZY=",
"76361599999","2025-01-10T21:42:00","4","25.685194","-109.080806","4.87","VALLE DEL FUERTE INTERNATIONAL, MX","FM-15","99999","V020","310,1,N,0139,1","22000,1,9,N","009656,1,9,9","+0200,1","+0040,1","99999,9",,,,,"00,99,1,99,9,99,9,99999,9,99,9,99,9","10142,1,99999,9","09,1","MET054METAR MMLM 102142Z 31027KT 6SM VCBLDU SKC 20/04 A2995=",
"76361599999","2025-01-10T22:42:00","4","25.685194","-109.080806","4.87","VALLE DEL FUERTE INTERNATIONAL, MX","FM-15","99999","V020","310,1,N,0124,1","22000,1,9,N","011265,1,9,9","+0200,1","+0050,1","99999,9",,,,,"00,99,1,99,9,99,9,99999,9,99,9,99,9","10139,1,99999,9",,"MET055METAR MMLM 102242Z 31024KT 7SM SKC 20/05 A2994 RMK HZY=",
"76361599999","2025-01-10T23:45:00","4","25.685194","-109.080806","4.87","VALLE DEL FUERTE INTERNATIONAL, MX","FM-15","99999","V020","310,1,N,0103,1","22000,1,9,N","012875,1,9,9","+0190,1","+0040,1","10139,1",,,,,"00,99,1,99,9,99,9,99999,9,99,9,99,9","10139,1,99999,9",,"MET062METAR MMLM 102345Z 31020KT 8SM SKC 19/04 A2994 RMK SLP139 HZY=",
"76361599999","2025-01-11T00:55:00","4","25.685194","-109.080806","4.87","VALLE DEL FUERTE INTERNATIONAL, MX","FM-15","99999","V020","300,1,N,0082,1","22000,1,9,N","012875,1,9,9","+0170,1","+0060,1","99999,9",,,,,"00,99,1,99,9,99,9,99999,9,99,9,99,9","10139,1,99999,9",,"MET055METAR MMLM 110055Z 30016KT 8SM SKC 17/06 A2994 RMK HZY=",
"76361599999","2025-01-11T01:47:00","4","25.685194","-109.080806","4.87","VALLE DEL FUERTE INTERNATIONAL, MX","FM-15","99999","V020","300,1,N,0072,1","22000,1,9,N","012875,1,9,9","+0160,1","+0070,1","99999,9",,,,,"00,99,1,99,9,99,9,99999,9,99,9,99,9","10139,1,99999,9",,"MET055METAR MMLM 110147Z 30014KT 8SM SKC 16/07 A2994 RMK HZY=",
"76361599999","2025-01-11T02:42:00","4","25.685194","-109.080806","4.87","VALLE DEL FUERTE INTERNATIONAL, MX","FM-15","99999","V020","300,1,N,0057,1","22000,1,9,N","012875,1,9,9","+0150,1","+0070,1","10136,1",,,,,"00,99,1,99,9,99,9,99999,9,99,9,99,9","10135,1,99999,9",,"MET062METAR MMLM 110242Z 30011KT 8SM SKC 15/07 A2993 RMK SLP136 HZY=",
"76361599999","2025-01-11T03:40:00","4","25.685194","-109.080806","4.87","VALLE DEL FUERTE INTERNATIONAL, MX","FM-15","99999","V020","310,1,N,0036,1","22000,1,9,N","012875,1,9,9","+0140,1","+0070,1","99999,9",,,,,"00,99,1,99,9,99,9,99999,9,99,9,99,9","10139,1,99999,9",,"MET055METAR MMLM 110340Z 31007KT 8SM SKC 14/07 A2994 RMK HZY=",
"76361599999","2025-01-11T14:10:00","4","25.685194","-109.080806","4.87","VALLE DEL FUERTE INTERNATIONAL, MX","FM-15","99999","V020","240,1,N,0021,1","22000,1,9,N","011265,1,9,9","+0080,1","-0010,1","99999,9",,,,,"00,99,1,99,9,99,9,99999,9,99,9,99,9","10135,1,99999,9",,"MET064METAR MMLM 111410Z RTD 24004KT 7SM SKC 08/M01 A2993 RMK HZY RTS=",
"76361599999","2025-01-11T14:41:00","4","25.685194","-109.080806","4.87","VALLE DEL FUERTE INTERNATIONAL, MX","FM-15","99999","V020","999,9,C,0000,1","22000,1,9,N","011265,1,9,9","+0090,1","+0000,1","10139,1",,,,,"00,99,1,99,9,99,9,99999,9,99,9,99,9","10139,1,99999,9",,"MET062METAR MMLM 111441Z 00000KT 7SM SKC 09/00 A2994 RMK SLP139 HZY=",
"76361599999","2025-01-11T15:53:00","4","25.685194","-109.080806","4.87","VALLE DEL FUERTE INTERNATIONAL, MX","FM-15","99999","V020","290,1,N,0021,1","22000,1,9,N","012875,1,9,9","+0130,1","+0010,1","99999,9",,,,,"00,99,1,99,9,99,9,99999,9,99,9,99,9","10146,1,99999,9",,"MET055METAR MMLM 111553Z 29004KT 8SM SKC 13/01 A2996 RMK HZY=",
"76361599999","2025-01-11T16:45:00","4","25.685194","-109.080806","4.87","VALLE DEL FUERTE INTERNATIONAL, MX","FM-15","99999","V020","350,1,N,0041,1","22000,1,9,N","012875,1,9,9","+0170,1","-0030,1","99999,9",,,,,"00,99,1,99,9,99,9,99999,9,99,9,99,9","10152,1,99999,9",,"MET056METAR MMLM 111645Z 35008KT 8SM SKC 17/M03 A2998 RMK HZY=",
"76361599999","2025-01-11T17:41:00","4","25.685194","-109.080806","4.87","VALLE DEL FUERTE INTERNATIONAL, MX","FM-15","99999","V020","320,1,N,0046,1","22000,1,9,N","012875,1,9,9","+0200,1","-0030,1","10153,1",,,,,"00,99,1,99,9,99,9,99999,9,99,9,99,9","10152,1,99999,9",,"MET063METAR MMLM 111741Z 32009KT 8SM SKC 20/M03 A2998 RMK SLP153 HZY=",
"76361599999","2025-01-11T18:49:00","4","25.685194","-109.080806","4.87","VALLE DEL FUERTE INTERNATIONAL, MX","FM-15","99999","V020","300,1,N,0021,1","22000,1,9,N","016093,1,9,9","+0210,1","-0050,1","99999,9",,,,,"00,99,1,99,9,99,9,99999,9,99,9,99,9","10139,1,99999,9",,"MET049METAR MMLM 111849Z 30004KT 10SM SKC 21/M05 A2994=",
"76361599999","2025-01-11T19:42:00","4","25.685194","-109.080806","4.87","VALLE DEL FUERTE INTERNATIONAL, MX","FM-15","99999","V020","010,1,N,0021,1","22000,1,9,N","016093,1,9,9","+0230,1","-0040,1","99999,9",,,,,"00,99,1,99,9,99,9,99999,9,99,9,99,9","10129,1,99999,9",,"MET049METAR MMLM 111942Z 01004KT 10SM SKC 23/M04 A2991=",
"76361599999","2025-01-11T20:44:00","4","25.685194","-109.080806","4.87","VALLE DEL FUERTE INTERNATIONAL, MX","FM-15","99999","V020","999,9,C,0000,1","22000,1,9,N","016093,1,9,9","+0240,1","+0000,1","10122,1",,,,,"00,99,1,99,9,99,9,99999,9,99,9,99,9","10122,1,99999,9",,"MET059METAR MMLM 112044Z 00000KT 10SM SKC 24/00 A2989 RMK SLP122=",
"76361599999","2025-01-11T21:40:00","4","25.685194","-109.080806","4.87","VALLE DEL FUERTE INTERNATIONAL, MX","FM-15","99999","V020","280,1,N,0077,1","22000,1,9,N","016093,1,9,9","+0230,1","+0020,1","99999,9",,,,,"00,99,1,99,9,99,9,99999,9,99,9,99,9","10118,1,99999,9",,"MET056METAR MMLM 112140Z 28015KT 10SM SKC 23/02 A2988 RMK HZY=",
"76361599999","2025-01-11T22:40:00","4","25.685194","-109.080806","4.87","VALLE DEL FUERTE INTERNATIONAL, MX","FM-15","99999","V020","270,1,N,0072,1","22000,1,9,N","016093,1,9,9","+0220,1","+0030,1","99999,9",,,,,"00,99,1,99,9,99,9,99999,9,99,9,99,9","10118,1,99999,9",,"MET056METAR MMLM 112240Z 27014KT 10SM SKC 22/03 A2988 RMK HZY=",
"76361599999","2025-01-11T23:40:00","4","25.685194","-109.080806","4.87","VALLE DEL FUERTE INTERNATIONAL, MX","FM-15","99999","V020","280,1,N,0077,1","22000,1,9,N","016093,1,9,9","+0210,1","+0020,1","10119,1",,,,,"00,99,1,99,9,99,9,99999,9,99,9,99,9","10118,1,99999,9",,"MET063METAR MMLM 112340Z 28015KT 10SM SKC 21/02 A2988 RMK SLP119 HZY=",
"76361599999","2025-01-12T00:40:00","4","25.685194","-109.080806","4.87","VALLE DEL FUERTE INTERNATIONAL, MX","FM-15","99999","V020","280,1,N,0067,1","22000,1,9,N","016093,1,9,9","+0190,1","+0040,1","99999,9",,,,,"00,99,1,99,9,99,9,99999,9,99,9,99,9","10125,1,99999,9",,"MET056METAR MMLM 120040Z 28013KT 10SM SKC 19/04 A2990 RMK HZY=",
"76361599999","2025-01-12T01:40:00","4","25.685194","-109.080806","4.87","VALLE DEL FUERTE INTERNATIONAL, MX","FM-15","99999","V020","290,1,N,0041,1","22000,1,9,N","016093,1,9,9","+0170,1","+0060,1","99999,9",,,,,"00,99,1,99,9,99,9,99999,9,99,9,99,9","10129,1,99999,9",,"MET056METAR MMLM 120140Z 29008KT 10SM SKC 17/06 A2991 RMK HZY=",
"76361599999","2025-01-12T02:40:00","4","25.685194","-109.080806","4.87","VALLE DEL FUERTE INTERNATIONAL, MX","FM-15","99999","V020","250,1,N,0021,1","22000,1,9,N","016093,1,9,9","+0140,1","+0060,1","10132,1",,,,,"00,99,1,99,9,99,9,99999,9,99,9,99,9","10132,1,99999,9",,"MET063METAR MMLM 120240Z 25004KT 10SM SKC 14/06 A2992 RMK SLP132 HZY=",
"76361599999","2025-01-12T03:40:00","4","25.685194","-109.080806","4.87","VALLE DEL FUERTE INTERNATIONAL, MX","FM-15","99999","V020","220,1,N,0015,1","22000,1,9,N","016093,1,9,9","+0140,1","+0070,1","99999,9",,,,,"00,99,1,99,9,99,9,99999,9,99,9,99,9","10139,1,99999,9",,"MET056METAR MMLM 120340Z 22003KT 10SM SKC 14/07 A2994 RMK HZY=",
"76361599999","2025-01-12T14:08:00","4","25.685194","-109.080806","4.87","VALLE DEL FUERTE INTERNATIONAL, MX","FM-15","99999","V020","080,1,N,0031,1","22000,1,9,N","009656,1,9,9","+0080,1","+0030,1","99999,9",,,,,"00,99,1,99,9,99,9,99999,9,99,9,99,9","10159,1,99999,9","40,1","MET064METAR MMLM 121408Z RTD 08006KT 6SM VCFG SKC 08/03 A3000 RMK RTS=",
"76361599999","2025-01-12T14:54:00","4","25.685194","-109.080806","4.87","VALLE DEL FUERTE INTERNATIONAL, MX","FM-15","99999","V020","080,1,N,0031,1","22000,1,9,N","012875,1,9,9","+0100,1","+0050,1","10166,1",,,,,"00,99,1,99,9,99,9,99999,9,99,9,99,9","10166,1,99999,9",,"MET062METAR MMLM 121454Z 08006KT 8SM SKC 10/05 A3002 RMK SLP166 HZY=",
"76361599999","2025-01-12T15:50:00","4","25.685194","-109.080806","4.87","VALLE DEL FUERTE INTERNATIONAL, MX","FM-15","99999","V020","070,1,N,0036,1","22000,1,9,N","012875,1,9,9","+0130,1","+0060,1","99999,9",,,,,"00,99,1,99,9,99,9,99999,9,99,9,99,9","10173,1,99999,9",,"MET055METAR MMLM 121550Z 07007KT 8SM SKC 13/06 A3004 RMK HZY=",
"76361599999","2025-01-12T16:51:00","4","25.685194","-109.080806","4.87","VALLE DEL FUERTE INTERNATIONAL, MX","FM-15","99999","V020","060,1,N,0031,1","22000,1,9,N","012875,1,9,9","+0160,1","+0070,1","99999,9",,,,,"00,99,1,99,9,99,9,99999,9,99,9,99,9","10179,1,99999,9",,"MET055METAR MMLM 121651Z 06006KT 8SM SKC 16/07 A3006 RMK HZY=",
"76361599999","2025-01-12T17:55:00","4","25.685194","-109.080806","4.87","VALLE DEL FUERTE INTERNATIONAL, MX","FM-15","99999","V020","050,1,N,0021,1","22000,1,9,N","016093,1,9,9","+0190,1","+0060,1","10171,1",,,,,"00,99,1,99,9,99,9,99999,9,99,9,99,9","10179,1,99999,9",,"MET060METAR MMLM 121755Z 05004KT 10SM SKC 19/06 A3006 RMK SLP1710=",
"76361599999","2025-01-12T18:49:00","4","25.685194","-109.080806","4.87","VALLE DEL FUERTE INTERNATIONAL, MX","FM-15","99999","V020","050,1,N,0021,1","22000,1,9,N","016093,1,9,9","+0210,1","+0050,1","99999,9",,,,,"00,99,1,99,9,99,9,99999,9,99,9,99,9","10169,1,99999,9",,"MET048METAR MMLM 121849Z 05004KT 10SM SKC 21/05 A3003=",
"76361599999","2025-01-12T19:43:00","4","25.685194","-109.080806","4.87","VALLE DEL FUERTE INTERNATIONAL, MX","FM-15","99999","V020","999,9,C,0000,1","22000,1,9,N","016093,1,9,9","+0220,1","+0030,1","99999,9",,,,,"00,99,1,99,9,99,9,99999,9,99,9,99,9","10163,1,99999,9",,"MET060METAR MMLM 121943Z 00000KT 10SM SKC 22/03 A3001 RMK ISOL SC=",
"76361599999","2025-01-12T21:03:00","4","25.685194","-109.080806","4.87","VALLE DEL FUERTE INTERNATIONAL, MX","FM-15","99999","V020","180,1,N,0041,1","22000,1,9,N","016093,1,9,9","+0220,1","+0080,1","10156,1",,,,,"00,99,1,99,9,99,9,99999,9,99,9,99,9","10156,1,99999,9",,"MET063METAR MMLM 122103Z RTD 18008KT 10SM SKC 22/08 A2999 RMK SLP156=",
"76361599999","2025-01-12T21:50:00","4","25.685194","-109.080806","4.87","VALLE DEL FUERTE INTERNATIONAL, MX","FM-15","99999","V020","210,1,N,0046,1","22000,1,9,N","016093,1,9,9","+0220,1","+0080,1","99999,9",,,,,"00,99,1,99,9,99,9,99999,9,99,9,99,9","10152,1,99999,9",,"MET048METAR MMLM 122150Z 21009KT 10SM SKC 22/08 A2998=",
"76361599999","2025-01-12T22:43:00","4","25.685194","-109.080806","4.87","VALLE DEL FUERTE INTERNATIONAL, MX","FM-15","99999","V020","240,1,N,0026,1","22000,1,9,N","016093,1,9,9","+0210,1","+0080,1","99999,9",,,,,"00,99,1,99,9,99,9,99999,9,99,9,99,9","10152,1,99999,9",,"MET048METAR MMLM 122243Z 24005KT 10SM SKC 21/08 A2998=",
"76361599999","2025-01-12T23:44:00","4","25.685194","-109.080806","4.87","VALLE DEL FUERTE INTERNATIONAL, MX","FM-15","99999","V020","250,1,N,0041,1","22000,1,9,N","016093,1,9,9","+0200,1","+0080,1","10153,1",,,,,"00,99,1,99,9,99,9,99999,9,99,9,99,9","10152,1,99999,9",,"MET059METAR MMLM 122344Z 25008KT 10SM SKC 20/08 A2998 RMK SLP153=",
"76361599999","2025-01-13T00:55:00","4","25.685194","-109.080806","4.87","VALLE DEL FUERTE INTERNATIONAL, MX","FM-15","99999","V020","260,1,N,0036,1","22000,1,9,N","016093,1,9,9","+0180,1","+0080,1","99999,9",,,,,"00,99,1,99,9,99,9,99999,9,99,9,99,9","10159,1,99999,9",,"MET048METAR MMLM 130055Z 26007KT 10SM SKC 18/08 A3000=",
"76361599999","2025-01-13T01:43:00","4","25.685194","-109.080806","4.87","VALLE DEL FUERTE INTERNATIONAL, MX","FM-15","99999","V020","290,1,N,0031,1","22000,1,9,N","016093,1,9,9","+0170,1","+0090,1","99999,9",,,,,"00,99,1,99,9,99,9,99999,9,99,9,99,9","10159,1,99999,9",,"MET048METAR MMLM 130143Z 29006KT 10SM SKC 17/09 A3000=",
"76361599999","2025-01-13T02:40:00","4","25.685194","-109.080806","4.87","VALLE DEL FUERTE INTERNATIONAL, MX","FM-15","99999","V020","300,1,N,0031,1","22000,1,9,N","012875,1,9,9","+0160,1","+0090,1","10166,1",,,,,"00,99,1,99,9,99,9,99999,9,99,9,99,9","10166,1,99999,9",,"MET058METAR MMLM 130240Z 30006KT 8SM SKC 16/09 A3002 RMK SLP166=",
"76361599999","2025-01-13T03:53:00","4","25.685194","-109.080806","4.87","VALLE DEL FUERTE INTERNATIONAL, MX","FM-15","99999","V020","300,1,N,0026,1","22000,1,9,N","012875,1,9,9","+0140,1","+0090,1","99999,9",,,,,"00,99,1,99,9,99,9,99999,9,99,9,99,9","10176,1,99999,9",,"MET047METAR MMLM 130353Z 30005KT 8SM SKC 14/09 A3005=",
"76361599999","2025-01-13T14:01:00","4","25.685194","-109.080806","4.87","VALLE DEL FUERTE INTERNATIONAL, MX","FM-15","99999","V020","999,9,C,0000,1","22000,1,9,N","016093,1,9,9","+0060,1","+0030,1","99999,9",,,,,"00,99,1,99,9,99,9,99999,9,99,9,99,9","10186,1,99999,9",,"MET064METAR MMLM 131401Z RTD 00000KT 10SM SKC 06/03 A3008 RMK HZY RTS=",
"76361599999","2025-01-13T14:40:00","4","25.685194","-109.080806","4.87","VALLE DEL FUERTE INTERNATIONAL, MX","FM-15","99999","V020","999,9,C,0000,1","22000,1,9,N","016093,1,9,9","+0080,1","+0040,1","10181,1",,,,,"00,99,1,99,9,99,9,99999,9,99,9,99,9","10190,1,99999,9",,"MET064METAR MMLM 131440Z 00000KT 10SM SKC 08/04 A3009 RMK SLP1810 HZY=",
"76361599999","2025-01-13T15:46:00","4","25.685194","-109.080806","4.87","VALLE DEL FUERTE INTERNATIONAL, MX","FM-15","99999","V020","999,9,C,0000,1","22000,1,9,N","016093,1,9,9","+0140,1","+0070,1","99999,9",,,,,"00,99,1,99,9,99,9,99999,9,99,9,99,9","10196,1,99999,9",,"MET056METAR MMLM 131546Z 00000KT 10SM SKC 14/07 A3011 RMK HZY=",
"76361599999","2025-01-13T16:40:00","4","25.685194","-109.080806","4.87","VALLE DEL FUERTE INTERNATIONAL, MX","FM-15","99999","V020","280,1,N,0026,1","22000,1,9,N","016093,1,9,9","+0170,1","+0060,1","99999,9",,,,,"00,99,1,99,9,99,9,99999,9,99,9,99,9","10200,1,99999,9",,"MET056METAR MMLM 131640Z 28005KT 10SM SKC 17/06 A3012 RMK HZY=",
"76361599999","2025-01-13T17:40:00","4","25.685194","-109.080806","4.87","VALLE DEL FUERTE INTERNATIONAL, MX","FM-15","99999","V020","300,1,N,0051,1","22000,1,9,N","016093,1,9,9","+0200,1","+0040,1","10197,1",,,,,"00,99,1,99,9,99,9,99999,9,99,9,99,9","10196,1,99999,9",,"MET063METAR MMLM 131740Z 30010KT 10SM SKC 20/04 A3011 RMK SLP197 HZY=",
"76361599999","2025-01-13T18:43:00","4","25.685194","-109.080806","4.87","VALLE DEL FUERTE INTERNATIONAL, MX","FM-15","99999","V020","300,1,N,0046,1","22000,1,9,N","016093,1,9,9","+0220,1","+0040,1","99999,9",,,,,"00,99,1,99,9,99,9,99999,9,99,9,99,9","10190,1,99999,9",,"MET056METAR MMLM 131843Z 30009KT 10SM SKC 22/04 A3009 RMK HZY=",
"76361599999","2025-01-13T19:42:00","4","25.685194","-109.080806","4.87","VALLE DEL FUERTE INTERNATIONAL, MX","FM-15","99999","V020","320,1,N,0051,1","22000,1,9,N","016093,1,9,9","+0220,1","+0040,1","99999,9",,,,,"00,99,1,99,9,99,9,99999,9,99,9,99,9","10179,1,99999,9",,"MET056METAR MMLM 131942Z 32010KT 10SM SKC 22/04 A3006 RMK HZY=",
"76361599999","2025-01-13T20:40:00","4","25.685194","-109.080806","4.87","VALLE DEL FUERTE INTERNATIONAL, MX","FM-15","99999","V020","300,1,N,0072,1","22000,1,9,N","016093,1,9,9","+0230,1","+0040,1","10161,1",,,,,"00,99,1,99,9,99,9,99999,9,99,9,99,9","10169,1,99999,9",,"MET064METAR MMLM 132040Z 30014KT 10SM SKC 23/04 A3003 RMK SLP1610 HZY=",
"76361599999","2025-01-13T21:40:00","4","25.685194","-109.080806","4.87","VALLE DEL FUERTE INTERNATIONAL, MX","FM-15","99999","V020","290,1,N,0077,1","22000,1,9,N","012875,1,9,9","+0220,1","+0050,1","99999,9",,,,,"00,99,1,99,9,99,9,99999,9,99,9,99,9","10166,1,99999,9",,"MET055METAR MMLM 132140Z 29015KT 8SM SKC 22/05 A3002 RMK HZY=",
"76361599999","2025-01-13T22:40:00","4","25.685194","-109.080806","4.87","VALLE DEL FUERTE INTERNATIONAL, MX","FM-15","99999","V020","310,1,N,0072,1","22000,1,9,N","012875,1,9,9","+0220,1","+0050,1","99999,9",,,,,"00,99,1,99,9,99,9,99999,9,99,9,99,9","10166,1,99999,9",,"MET055METAR MMLM 132240Z 31014KT 8SM SKC 22/05 A3002 RMK HZY=",
"76361599999","2025-01-13T23:40:00","4","25.685194","-109.080806","4.87","VALLE DEL FUERTE INTERNATIONAL, MX","FM-15","99999","V020","300,1,N,0067,1","22000,1,9,N","012875,1,9,9","+0200,1","+0050,1","10173,1",,,,,"00,99,1,99,9,99,9,99999,9,99,9,99,9","10173,1,99999,9",,"MET062METAR MMLM 132340Z 30013KT 8SM SKC 20/05 A3004 RMK SLP173 HZY=",
"76361599999","2025-01-14T00:56:00","4","25.685194","-109.080806","4.87","VALLE DEL FUERTE INTERNATIONAL, MX","FM-15","99999","V020","300,1,N,0062,1","22000,1,9,N","016093,1,9,9","+0180,1","+0070,1","99999,9",,,,,"00,99,1,99,9,99,9,99999,9,99,9,99,9","10173,1,99999,9",,"MET048METAR MMLM 140056Z 30012KT 10SM SKC 18/07 A3004=",
"76361599999","2025-01-14T01:46:00","4","25.685194","-109.080806","4.87","VALLE DEL FUERTE INTERNATIONAL, MX","FM-15","99999","V020","300,1,N,0041,1","22000,1,9,N","016093,1,9,9","+0160,1","+0080,1","99999,9",,,,,"00,99,1,99,9,99,9,99999,9,99,9,99,9","10176,1,99999,9",,"MET048METAR MMLM 140146Z 30008KT 10SM SKC 16/08 A3005=",
"76361599999","2025-01-14T02:41:00","4","25.685194","-109.080806","4.87","VALLE DEL FUERTE INTERNATIONAL, MX","FM-15","99999","V020","300,1,N,0036,1","22000,1,9,N","012875,1,9,9","+0140,1","+0070,1","10183,1",,,,,"00,99,1,99,9,99,9,99999,9,99,9,99,9","10183,1,99999,9",,"MET058METAR MMLM 140241Z 30007KT 8SM SKC 14/07 A3007 RMK SLP183=",
"76361599999","2025-01-14T03:40:00","4","25.685194","-109.080806","4.87","VALLE DEL FUERTE INTERNATIONAL, MX","FM-15","99999","V020","310,1,N,0036,1","22000,1,9,N","012875,1,9,9","+0140,1","+0070,1","99999,9",,,,,"00,99,1,99,9,99,9,99999,9,99,9,99,9","10190,1,99999,9",,"MET047METAR MMLM 140340Z 31007KT 8SM SKC 14/07 A3009=",
"76361599999","2025-01-14T14:01:00","4","25.685194","-109.080806","4.87","VALLE DEL FUERTE INTERNATIONAL, MX","FM-15","99999","V020","999,9,C,0000,1","22000,1,9,N","016093,1,9,9","+0070,1","+0050,1","99999,9",,,,,"00,99,1,99,9,99,9,99999,9,99,9,99,9","10193,1,99999,9",,"MET064METAR MMLM 141401Z RTD 00000KT 10SM SKC 07/05 A3010 RMK HZY RTS=",
"76361599999","2025-01-14T14:40:00","4","25.685194","-109.080806","4.87","VALLE DEL FUERTE INTERNATIONAL, MX","FM-15","99999","V020","290,1,N,0021,1","22000,1,9,N","016093,1,9,9","+0080,1","+0050,1","10197,1",,,,,"00,99,1,99,9,99,9,99999,9,99,9,99,9","10196,1,99999,9",,"MET063METAR MMLM 141440Z 29004KT 10SM SKC 08/05 A3011 RMK SLP197 HZY=",
"76361599999","2025-01-14T15:40:00","4","25.685194","-109.080806","4.87","VALLE DEL FUERTE INTERNATIONAL, MX","FM-15","99999","V020","310,1,N,0046,1","22000,1,9,N","016093,1,9,9","+0140,1","+0070,1","99999,9",,,,,"00,99,1,99,9,99,9,99999,9,99,9,99,9","10207,1,99999,9",,"MET056METAR MMLM 141540Z 31009KT 10SM SKC 14/07 A3014 RMK HZY=",
"76361599999","2025-01-14T16:42:00","4","25.685194","-109.080806","4.87","VALLE DEL FUERTE INTERNATIONAL, MX","FM-15","99999","V020","310,1,N,0082,1","22000,1,9,N","016093,1,9,9","+0180,1","+0070,1","99999,9",,,,,"00,99,1,99,9,99,9,99999,9,99,9,99,9","10213,1,99999,9",,"MET056METAR MMLM 141642Z 31016KT 10SM SKC 18/07 A3016 RMK HZY=",
"76361599999","2025-01-14T17:41:00","4","25.685194","-109.080806","4.87","VALLE DEL FUERTE INTERNATIONAL, MX","FM-15","99999","V020","320,1,N,0088,1","22000,1,9,N","016093,1,9,9","+0200,1","+0050,1","10201,1",,,,,"00,99,1,99,9,99,9,99999,9,99,9,99,9","10210,1,99999,9",,"MET064METAR MMLM 141741Z 32017KT 10SM SKC 20/05 A3015 RMK SLP2010 HZY=",
"76361599999","2025-01-14T18:40:00","4","25.685194","-109.080806","4.87","VALLE DEL FUERTE INTERNATIONAL, MX","FM-15","99999","V020","310,1,N,0082,1","22000,1,9,N","016093,1,9,9","+0210,1","+0030,1","99999,9",,,,,"00,99,1,99,9,99,9,99999,9,99,9,99,9","10196,1,99999,9",,"MET056METAR MMLM 141840Z 31016KT 10SM SKC 21/03 A3011 RMK HZY=",
"76361599999","2025-01-14T19:48:00","4","25.685194","-109.080806","4.87","VALLE DEL FUERTE INTERNATIONAL, MX","FM-15","99999","V020","310,1,N,0088,1","22000,1,9,N","016093,1,9,9","+0220,1","+0030,1","99999,9",,,,,"00,99,1,99,9,99,9,99999,9,99,9,99,9","10183,1,99999,9",,"MET056METAR MMLM 141948Z 31017KT 10SM SKC 22/03 A3007 RMK HZY=",
"76361599999","2025-01-14T20:40:00","4","25.685194","-109.080806","4.87","VALLE DEL FUERTE INTERNATIONAL, MX","FM-15","99999","V020","310,1,N,0082,1","22000,1,9,N","016093,1,9,9","+0230,1","+0040,1","10173,1",,,,,"00,99,1,99,9,99,9,99999,9,99,9,99,9","10173,1,99999,9",,"MET063METAR MMLM 142040Z 31016KT 10SM SKC 23/04 A3004 RMK SLP173 HZY=",
"76361599999","2025-01-14T21:40:00","4","25.685194","-109.080806","4.87","VALLE DEL FUERTE INTERNATIONAL, MX","FM-15","99999","V020","320,1,N,0062,1","22000,1,9,N","016093,1,9,9","+0230,1","+0030,1","99999,9",,,,,"00,99,1,99,9,99,9,99999,9,99,9,99,9","10169,1,99999,9",,"MET048METAR MMLM 142140Z 32012KT 10SM SKC 23/03 A3003=",
"76361599999","2025-01-14T22:40:00","4","25.685194","-109.080806","4.87","VALLE DEL FUERTE INTERNATIONAL, MX","FM-15","99999","V020","320,1,N,0072,1","22000,1,9,N","016093,1,9,9","+0220,1","+0050,1","99999,9",,,,,"00,99,1,99,9,99,9,99999,9,99,9,99,9","10169,1,99999,9",,"MET048METAR MMLM 142240Z 32014KT 10SM SKC 22/05 A3003=",
"76361599999","2025-01-14T23:41:00","4","25.685194","-109.080806","4.87","VALLE DEL FUERTE INTERNATIONAL, MX","FM-15","99999","V020","300,1,N,0062,1","22000,1,9,N","016093,1,9,9","+0210,1","+0070,1","10161,1",,,,,"00,99,1,99,9,99,9,99999,9,99,9,99,9","10169,1,99999,9",,"MET060METAR MMLM 142341Z 30012KT 10SM SKC 21/07 A3003 RMK SLP1610=",
"76361599999","2025-01-15T00:40:00","4","25.685194","-109.080806","4.87","VALLE DEL FUERTE INTERNATIONAL, MX","FM-15","99999","V020","300,1,N,0051,1","06706,1,C,N","012875,1,9,9","+0190,1","+0080,1","99999,9","07,1,+06706,1,02,1",,,"9,AGL   ,+99999,+99999","99,99,9,07,1,99,9,06706,1,99,9,99,9","10173,1,99999,9",,"MET064METAR MMLM 150040Z 30010KT 8SM BKN220 19/08 A3004 RMK 8/008 HZY=",
"76361599999","2025-01-15T01:40:00","4","25.685194","-109.080806","4.87","VALLE DEL FUERTE INTERNATIONAL, MX","FM-15","99999","V020","300,1,N,0046,1","99999,9,9,N","012875,1,9,9","+0180,1","+0090,1","99999,9","04,1,+06706,1,00,1",,,"9,AGL   ,+99999,+99999","99,99,9,04,1,99,9,06706,1,99,9,99,9","10179,1,99999,9",,"MET060METAR MMLM 150140Z 30009KT 8SM SCT220 18/09 A3006 RMK 8/001=",
"76361599999","2025-01-15T02:40:00","4","25.685194","-109.080806","4.87","VALLE DEL FUERTE INTERNATIONAL, MX","FM-15","99999","V020","280,1,N,0036,1","06706,1,C,N","012875,1,9,9","+0160,1","+0090,1","10183,1","07,1,+06706,1,02,1",,,"9,AGL   ,+99999,+99999","99,99,9,07,1,99,9,06706,1,99,9,99,9","10183,1,99999,9",,"MET067METAR MMLM 150240Z 28007KT 8SM BKN220 16/09 A3007 RMK SLP183 8/008=",
"76361599999","2025-01-15T03:40:00","4","25.685194","-109.080806","4.87","VALLE DEL FUERTE INTERNATIONAL, MX","FM-15","99999","V020","280,1,N,0026,1","06706,1,C,N","012875,1,9,9","+0160,1","+0100,1","99999,9","07,1,+06706,1,02,1",,,"9,AGL   ,+99999,+99999","99,99,9,07,1,99,9,06706,1,99,9,99,9","10186,1,99999,9",,"MET060METAR MMLM 150340Z 28005KT 8SM BKN220 16/10 A3008 RMK 8/008=",
"76361599999","2025-01-15T12:40:00","4","25.685194","-109.080806","4.87","VALLE DEL FUERTE INTERNATIONAL, MX","FM-15","99999","V020","240,1,N,0021,1","06096,1,C,N","011265,1,9,9","+0120,1","+0090,1","99999,9","07,1,+06096,1,02,1",,,"9,AGL   ,+99999,+99999","99,99,9,07,1,99,9,06096,1,99,9,99,9","10196,1,99999,9",,"MET064METAR MMLM 151240Z 24004KT 7SM BKN200 12/09 A3011 RMK 8/008 RTS=",
"76361599999","2025-01-15T14:48:00","4","25.685194","-109.080806","4.87","VALLE DEL FUERTE INTERNATIONAL, MX","FM-15","99999","V020","240,1,N,0021,1","06096,1,C,N","009656,1,9,9","+0130,1","+0100,1","10201,1","08,1,+06096,1,02,1",,,"9,AGL   ,+99999,+99999","99,99,9,08,1,99,9,06096,1,99,9,99,9","10210,1,99999,9","40,1","MET084METAR MMLM 151448Z 24004KT 6SM VCFG OVC200 13/10 A3015 RMK SLP2010 8/007 BINOVC HZY=",
"76361599999","2025-01-15T15:44:00","4","25.685194","-109.080806","4.87","VALLE DEL FUERTE INTERNATIONAL, MX","FM-15","99999","V020","999,9,C,0000,1","06096,1,C,N","011265,1,9,9","+0150,1","+0110,1","99999,9","08,1,+06096,1,02,1",,,"9,AGL   ,+99999,+99999","99,99,9,08,1,99,9,06096,1,99,9,99,9","10213,1,99999,9",,"MET071METAR MMLM 151544Z 00000KT 7SM OVC200 15/11 A3016 RMK 8/007 BINOVC HZY=",
"76361599999","2025-01-15T16:46:00","4","25.685194","-109.080806","4.87","VALLE DEL FUERTE INTERNATIONAL, MX","FM-15","99999","V020","310,1,N,0041,1","06096,1,C,N","011265,1,9,9","+0180,1","+0130,1","99999,9","08,1,+06096,1,02,1",,,"9,AGL   ,+99999,+99999","99,99,9,08,1,99,9,06096,1,99,9,99,9","10220,1,99999,9",,"MET071METAR MMLM 151646Z 31008KT 7SM OVC200 18/13 A3018 RMK 8/007 BINOVC HZY=",
"76361599999","2025-01-15T17:40:00","4","25.685194","-109.080806","4.87","VALLE DEL FUERTE INTERNATIONAL, MX","FM-15","99999","V020","310,1,N,0057,1","06706,1,C,N","016093,1,9,9","+0190,1","+0120,1","10221,1","07,1,+06706,1,02,1",,,"9,AGL   ,+99999,+99999","99,99,9,07,1,99,9,06706,1,99,9,99,9","10220,1,99999,9",,"MET072METAR MMLM 151740Z 31011KT 10SM BKN220 19/12 A3018 RMK SLP221 8/008 HZY=",
"76361599999","2025-01-15T18:40:00","4","25.685194","-109.080806","4.87","VALLE DEL FUERTE INTERNATIONAL, MX","FM-15","99999","V020","300,1,N,0057,1","06706,1,C,N","016093,1,9,9","+0210,1","+0110,1","99999,9","08,1,+06706,1,02,1",,,"9,AGL   ,+99999,+99999","99,99,9,08,1,99,9,06706,1,99,9,99,9","10217,1,99999,9",,"MET065METAR MMLM 151840Z 30011KT 10SM OVC220 21/11 A3017 RMK 8/007 HZY=",
"76361599999","2025-01-15T19:40:00","4","25.685194","-109.080806","4.87","VALLE DEL FUERTE INTERNATIONAL, MX","FM-15","99999","V020","300,1,N,0051,1","06706,1,C,N","016093,1,9,9","+0210,1","+0110,1","99999,9","08,1,+06706,1,02,1",,,"9,AGL   ,+99999,+99999","99,99,9,08,1,99,9,06706,1,99,9,99,9","10203,1,99999,9",,"MET065METAR MMLM 151940Z 30010KT 10SM OVC220 21/11 A3013 RMK 8/007 HZY=",
"76361599999","2025-01-15T20:41:00","4","25.685194","-109.080806","4.87","VALLE DEL FUERTE INTERNATIONAL, MX","FM-15","99999","V020","300,1,N,0062,1","06706,1,C,N","016093,1,9,9","+0220,1","+0110,1","10193,1","08,1,+06706,1,02,1",,,"9,AGL   ,+99999,+99999","99,99,9,08,1,99,9,06706,1,99,9,99,9","10193,1,99999,9",,"MET072METAR MMLM 152041Z 30012KT 10SM OVC220 22/11 A3010 RMK SLP193 8/007 HZY=",
"76361599999","2025-01-15T21:42:00","4","25.685194","-109.080806","4.87","VALLE DEL FUERTE INTERNATIONAL, MX","FM-15","99999","V020","300,1,N,0072,1","06706,1,C,N","016093,1,9,9","+0200,1","+0110,1","99999,9","08,1,+06706,1,02,1",,,"9,AGL   ,+99999,+99999","99,99,9,08,1,99,9,06706,1,99,9,99,9","10193,1,99999,9",,"MET068METAR MMLM 152142Z 30014KT 10SM OVC220 20/11 A3010 RMK 8/007 BINOVC=",
"76361599999","2025-01-15T22:43:00","4","25.685194","-109.080806","4.87","VALLE DEL FUERTE INTERNATIONAL, MX","FM-15","99999","V020","300,1,N,0067,1","06706,1,C,N","016093,1,9,9","+0210,1","+0090,1","99999,9","08,1,+06706,1,02,1",,,"9,AGL   ,+99999,+99999","99,99,9,08,1,99,9,06706,1,99,9,99,9","10193,1,99999,9",,"MET068METAR MMLM 152243Z 30013KT 10SM OVC220 21/09 A3010 RMK 8/007 BINOVC=",
"76361599999","2025-01-15T23:41:00","4","25.685194","-109.080806","4.87","VALLE DEL FUERTE INTERNATIONAL, MX","FM-15","99999","V020","310,1,N,0051,1","06706,1,C,N","016093,1,9,9","+0200,1","+0100,1","10197,1","08,1,+06706,1,02,1",,,"9,AGL   ,+99999,+99999","99,99,9,08,1,99,9,06706,1,99,9,99,9","10196,1,99999,9",,"MET075METAR MMLM 152341Z 31010KT 10SM OVC220 20/10 A3011 RMK SLP197 8/007 BINOVC=",
"76361599999","2025-01-16T00:48:00","4","25.685194","-109.080806","4.87","VALLE DEL FUERTE INTERNATIONAL, MX","FM-15","99999","V020","310,1,N,0046,1","06706,1,9,N","016093,1,9,9","+0180,1","+0110,1","99999,9","04,1,+03658,1,03,1","08,1,+06706,1,02,1",,"9,AGL   ,+99999,+99999","99,99,9,04,1,99,9,03658,1,99,9,99,9","10196,1,99999,9",,"MET068METAR MMLM 160048Z 31009KT 10SM SCT120 OVC220 18/11 A3011 RMK 8/037=",
"76361599999","2025-01-16T01:43:00","4","25.685194","-109.080806","4.87","VALLE DEL FUERTE INTERNATIONAL, MX","FM-15","99999","V020","290,1,N,0057,1","06706,1,9,N","016093,1,9,9","+0180,1","+0110,1","99999,9","04,1,+03658,1,03,1","08,1,+06706,1,02,1",,"9,AGL   ,+99999,+99999","99,99,9,04,1,99,9,03658,1,99,9,99,9","10203,1,99999,9",,"MET068METAR MMLM 160143Z 29011KT 10SM SCT120 OVC220 18/11 A3013 RMK 8/037=",
"76361599999","2025-01-16T02:41:00","4","25.685194","-109.080806","4.87","VALLE DEL FUERTE INTERNATIONAL, MX","FM-15","99999","V020","300,1,N,0041,1","06706,1,C,N","016093,1,9,9","+0170,1","+0120,1","10207,1","07,1,+06706,1,02,1",,,"9,AGL   ,+99999,+99999","99,99,9,07,1,99,9,06706,1,99,9,99,9","10207,1,99999,9",,"MET068METAR MMLM 160241Z 30008KT 10SM BKN220 17/12 A3014 RMK SLP207 8/008=",
"76361599999","2025-01-16T03:41:00","4","25.685194","-109.080806","4.87","VALLE DEL FUERTE INTERNATIONAL, MX","FM-15","99999","V020","280,1,N,0036,1","06706,1,C,N","016093,1,9,9","+0160,1","+0110,1","99999,9","07,1,+06706,1,02,1",,,"9,AGL   ,+99999,+99999","99,99,9,07,1,99,9,06706,1,99,9,99,9","10210,1,99999,9",,"MET061METAR MMLM 160341Z 28007KT 10SM BKN220 16/11 A3015 RMK 8/008=",
"76361599999","2025-01-16T14:15:00","4","25.685194","-109.080806","4.87","VALLE DEL FUERTE INTERNATIONAL, MX","FM-15","99999","V020","290,1,N,0026,1","01219,1,C,N","016093,1,9,9","+0130,1","+0100,1","99999,9","07,1,+01219,1,06,1","07,1,+06706,1,02,1",,"9,AGL   ,+99999,+99999","99,99,9,07,1,99,9,01219,1,99,9,99,9","10210,1,99999,9",,"MET080METAR MMLM 161415Z RTD 29005KT 10SM BKN040 BKN220 13/10 A3015 RMK 8/508 HZY RTS=",
"76361599999","2025-01-16T14:48:00","4","25.685194","-109.080806","4.87","VALLE DEL FUERTE INTERNATIONAL, MX","FM-15","99999","V020","310,1,N,0046,1","00914,1,C,N","016093,1,9,9","+0140,1","+0110,1","10214,1","07,1,+00914,1,06,1","07,1,+06706,1,02,1",,"9,AGL   ,+99999,+99999","99,99,9,07,1,99,9,00914,1,99,9,99,9","10213,1,99999,9",,"MET079METAR MMLM 161448Z 31009KT 10SM BKN030 BKN220 14/11 A3016 RMK SLP214 8/508 HZY=",
"76361599999","2025-01-16T15:40:00","4","25.685194","-109.080806","4.87","VALLE DEL FUERTE INTERNATIONAL, MX","FM-15","99999","V020","320,1,N,0046,1","01219,1,C,N","016093,1,9,9","+0150,1","+0120,1","99999,9","07,1,+01219,1,06,1","07,1,+06706,1,02,1",,"9,AGL   ,+99999,+99999","99,99,9,07,1,99,9,01219,1,99,9,99,9","10217,1,99999,9",,"MET072METAR MMLM 161540Z 32009KT 10SM BKN040 BKN220 15/12 A3017 RMK 8/508 HZY=",
"76361599999","2025-01-16T16:41:00","4","25.685194","-109.080806","4.87","VALLE DEL FUERTE INTERNATIONAL, MX","FM-15","99999","V020","320,1,N,0057,1","00914,1,C,N","016093,1,9,9","+0170,1","+0120,1","99999,9","07,1,+00914,1,06,1","08,1,+06706,1,02,1",,"9,AGL   ,+99999,+99999","99,99,9,07,1,99,9,00914,1,99,9,99,9","10223,1,99999,9",,"MET072METAR MMLM 161641Z 32011KT 10SM BKN030 OVC220 17/12 A3019 RMK 8/507 HZY=",
"76361599999","2025-01-16T17:42:00","4","25.685194","-109.080806","4.87","VALLE DEL FUERTE INTERNATIONAL, MX","FM-15","99999","V020","320,1,N,0067,1","01219,1,C,N","016093,1,9,9","+0180,1","+0120,1","10227,1","07,1,+01219,1,06,1","08,1,+06706,1,02,1",,"9,AGL   ,+99999,+99999","99,99,9,07,1,99,9,01219,1,99,9,99,9","10227,1,99999,9",,"MET079METAR MMLM 161742Z 32013KT 10SM BKN040 OVC220 18/12 A3020 RMK SLP227 8/507 HZY=",
"76361599999","2025-01-16T18:40:00","4","25.685194","-109.080806","4.87","VALLE DEL FUERTE INTERNATIONAL, MX","FM-15","99999","V020","320,1,N,0072,1","01219,1,C,N","016093,1,9,9","+0190,1","+0110,1","99999,9","07,1,+01219,1,06,1","08,1,+06706,1,02,1",,"9,AGL   ,+99999,+99999","99,99,9,07,1,99,9,01219,1,99,9,99,9","10223,1,99999,9",,"MET072METAR MMLM 161840Z 32014KT 10SM BKN040 OVC220 19/11 A3019 RMK 8/507 HZY=",
"76361599999","2025-01-16T19:40:00","4","25.685194","-109.080806","4.87","VALLE DEL FUERTE INTERNATIONAL, MX","FM-15","99999","V020","330,1,N,0067,1","01219,1,C,N","016093,1,9,9","+0190,1","+0110,1","99999,9","07,1,+01219,1,06,1","08,1,+06706,1,02,1",,"9,AGL   ,+99999,+99999","99,99,9,07,1,99,9,01219,1,99,9,99,9","10210,1,99999,9",,"MET072METAR MMLM 161940Z 33013KT 10SM BKN040 OVC220 19/11 A3015 RMK 8/507 HZY=",
"76361599999","2025-01-16T20:40:00","4","25.685194","-109.080806","4.87","VALLE DEL FUERTE INTERNATIONAL, MX","FM-15","99999","V020","320,1,N,0062,1","01219,1,C,N","016093,1,9,9","+0190,1","+0090,1","10191,1","07,1,+01219,1,06,1","08,1,+06706,1,02,1",,"9,AGL   ,+99999,+99999","99,99,9,07,1,99,9,01219,1,99,9,99,9","10200,1,99999,9",,"MET080METAR MMLM 162040Z 32012KT 10SM BKN040 OVC220 19/09 A3012 RMK SLP1910 8/507 HZY=",
"76361599999","2025-01-16T21:42:00","4","25.685194","-109.080806","4.87","VALLE DEL FUERTE INTERNATIONAL, MX","FM-15","99999","V020","360,1,N,0046,1","01067,1,C,N","016093,1,9,9","+0200,1","+0070,1","99999,9","07,1,+01067,1,06,1","08,1,+03048,1,05,1",,"9,AGL   ,+99999,+99999","99,99,9,07,1,99,9,01067,1,99,9,99,9","10190,1,99999,9",,"MET068METAR MMLM 162142Z 36009KT 10SM BKN035 OVC100 20/07 A3009 RMK 8/52/=",
"76361599999","2025-01-16T22:42:00","4","25.685194","-109.080806","4.87","VALLE DEL FUERTE INTERNATIONAL, MX","FM-15","99999","V020","320,1,N,0051,1","03048,1,9,N","016093,1,9,9","+0200,1","+0070,1","99999,9","04,1,+01067,1,06,1","07,1,+03048,1,05,1","08,1,+06706,1,02,1","9,AGL   ,+99999,+99999","99,99,9,04,1,99,9,01067,1,99,9,99,9","10186,1,99999,9",,"MET075METAR MMLM 162242Z 32010KT 10SM SCT035 BKN100 OVC220 20/07 A3008 RMK 8/527=",
"76361599999","2025-01-16T23:42:00","4","25.685194","-109.080806","4.87","VALLE DEL FUERTE INTERNATIONAL, MX","FM-15","99999","V020","310,1,N,0051,1","03048,1,9,N","016093,1,9,9","+0190,1","+0080,1","10187,1","04,1,+01067,1,06,1","08,1,+03048,1,05,1",,"9,AGL   ,+99999,+99999","99,99,9,04,1,99,9,01067,1,99,9,99,9","10186,1,99999,9",,"MET075METAR MMLM 162342Z 31010KT 10SM SCT035 OVC100 19/08 A3008 RMK SLP187 8/52/=",
"76361599999","2025-01-17T00:41:00","4","25.685194","-109.080806","4.87","VALLE DEL FUERTE INTERNATIONAL, MX","FM-15","99999","V020","300,1,N,0036,1","01067,1,C,N","016093,1,9,9","+0180,1","+0100,1","99999,9","07,1,+01067,1,06,1","08,1,+03048,1,05,1",,"9,AGL   ,+99999,+99999","99,99,9,07,1,99,9,01067,1,99,9,99,9","10183,1,99999,9",,"MET068METAR MMLM 170041Z 30007KT 10SM BKN035 OVC100 18/10 A3007 RMK 8/52/=",
"76361599999","2025-01-17T01:47:00","4","25.685194","-109.080806","4.87","VALLE DEL FUERTE INTERNATIONAL, MX","FM-15","99999","V020","290,1,N,0041,1","03048,1,9,N","016093,1,9,9","+0180,1","+0100,1","99999,9","04,1,+01067,1,06,1","08,1,+03048,1,05,1",,"9,AGL   ,+99999,+99999","99,99,9,04,1,99,9,01067,1,99,9,99,9","10186,1,99999,9",,"MET068METAR MMLM 170147Z 29008KT 10SM SCT035 OVC100 18/10 A3008 RMK 8/52/=",
"76361599999","2025-01-17T02:41:00","4","25.685194","-109.080806","4.87","VALLE DEL FUERTE INTERNATIONAL, MX","FM-15","99999","V020","300,1,N,0062,1","03048,1,9,N","016093,1,9,9","+0170,1","+0120,1","10181,1","04,1,+01067,1,06,1","08,1,+03048,1,05,1",,"9,AGL   ,+99999,+99999","99,99,9,04,1,99,9,01067,1,99,9,99,9","10190,1,99999,9",,"MET076METAR MMLM 170241Z 30012KT 10SM SCT035 OVC100 17/12 A3009 RMK SLP1810 8/52/=",
"76361599999","2025-01-17T03:45:00","4","25.685194","-109.080806","4.87","VALLE DEL FUERTE INTERNATIONAL, MX","FM-15","99999","V020","300,1,N,0057,1","03048,1,9,N","016093,1,9,9","+0170,1","+0110,1","99999,9","04,1,+01067,1,06,1","08,1,+03048,1,05,1",,"9,AGL   ,+99999,+99999","99,99,9,04,1,99,9,01067,1,99,9,99,9","10193,1,99999,9",,"MET068METAR MMLM 170345Z 30011KT 10SM SCT035 OVC100 17/11 A3010 RMK 8/52/=",
"76361599999","2025-01-17T13:56:00","4","25.685194","-109.080806","4.87","VALLE DEL FUERTE INTERNATIONAL, MX","FM-15","99999","V020","230,1,N,0021,1","02134,1,C,N","012875,1,9,9","+0150,1","+0090,1","99999,9","07,1,+02134,1,03,1","08,1,+03658,1,99,9",,"9,AGL   ,+99999,+99999","99,99,9,07,1,99,9,02134,1,99,9,99,9","10203,1,99999,9",,"MET075METAR MMLM 171356Z 23004KT 8SM BKN070 OVC120 15/09 A3013 RMK 8/07/ HZY RTS=",
"76361599999","2025-01-17T14:43:00","4","25.685194","-109.080806","4.87","VALLE DEL FUERTE INTERNATIONAL, MX","FM-15","99999","V020","270,1,N,0026,1","01219,1,C,N","012875,1,9,9","+0150,1","+0090,1","10207,1","07,1,+01219,1,06,1","08,1,+03048,1,05,1",,"9,AGL   ,+99999,+99999","99,99,9,07,1,99,9,01219,1,99,9,99,9","10207,1,99999,9",,"MET078METAR MMLM 171443Z 27005KT 8SM BKN040 OVC100 15/09 A3014 RMK SLP207 8/52/ HZY=",
"76361599999","2025-01-17T15:40:00","4","25.685194","-109.080806","4.87","VALLE DEL FUERTE INTERNATIONAL, MX","FM-15","99999","V020","290,1,N,0021,1","01219,1,C,N","016093,1,9,9","+0170,1","+0100,1","99999,9","07,1,+01219,1,06,1","08,1,+03048,1,05,1",,"9,AGL   ,+99999,+99999","99,99,9,07,1,99,9,01219,1,99,9,99,9","10213,1,99999,9",,"MET068METAR MMLM 171540Z 29004KT 10SM BKN040 OVC100 17/10 A3016 RMK 8/52/=",
"76361599999","2025-01-17T16:45:00","4","25.685194","-109.080806","4.87","VALLE DEL FUERTE INTERNATIONAL, MX","FM-15","99999","V020","300,1,N,0046,1","01219,1,C,N","016093,1,9,9","+0180,1","+0100,1","99999,9","07,1,+01219,1,06,1","08,1,+03048,1,05,1",,"9,AGL   ,+99999,+99999","99,99,9,07,1,99,9,01219,1,99,9,99,9","10220,1,99999,9",,"MET068METAR MMLM 171645Z 30009KT 10SM BKN040 OVC100 18/10 A3018 RMK 8/52/=",
"76361599999","2025-01-17T17:52:00","4","25.685194","-109.080806","4.87","VALLE DEL FUERTE INTERNATIONAL, MX","FM-15","99999","V020","310,1,N,0062,1","01219,1,C,N","016093,1,9,9","+0190,1","+0100,1","10201,1","07,1,+01219,1,06,1","08,1,+03048,1,05,1",,"9,AGL   ,+99999,+99999","99,99,9,07,1,99,9,01219,1,99,9,99,9","10210,1,99999,9",,"MET076METAR MMLM 171752Z 31012KT 10SM BKN040 OVC100 19/10 A3015 RMK SLP2010 8/52/=",
"76361599999","2025-01-17T18:41:00","4","25.685194","-109.080806","4.87","VALLE DEL FUERTE INTERNATIONAL, MX","FM-15","99999","V020","330,1,N,0072,1","03048,1,9,N","016093,1,9,9","+0220,1","+0070,1","99999,9","04,1,+01219,1,06,1","08,1,+03048,1,03,1",,"9,AGL   ,+99999,+99999","99,99,9,04,1,99,9,01219,1,99,9,99,9","10210,1,99999,9",,"MET075METAR MMLM 171841Z 33014KT 10SM SCT040 OVC100 22/07 A3015 RMK 8/53/ BINOVC=",
"76361599999","2025-01-17T19:43:00","4","25.685194","-109.080806","4.87","VALLE DEL FUERTE INTERNATIONAL, MX","FM-15","99999","V020","320,1,N,0062,1","03048,1,9,N","016093,1,9,9","+0230,1","+0040,1","99999,9","04,1,+01219,1,06,1","08,1,+03048,1,03,1",,"9,AGL   ,+99999,+99999","99,99,9,04,1,99,9,01219,1,99,9,99,9","10196,1,99999,9",,"MET075METAR MMLM 171943Z 32012KT 10SM SCT040 OVC100 23/04 A3011 RMK 8/53/ BINOVC=",
"76361599999","2025-01-17T20:44:00","4","25.685194","-109.080806","4.87","VALLE DEL FUERTE INTERNATIONAL, MX","FM-15","99999","V020","310,1,N,0062,1","03048,1,9,N","016093,1,9,9","+0230,1","+0040,1","10187,1","02,1,+01219,1,06,1","08,1,+03048,1,03,1",,"9,AGL   ,+99999,+99999","99,99,9,02,1,99,9,01219,1,99,9,99,9","10186,1,99999,9",,"MET082METAR MMLM 172044Z 31012KT 10SM FEW040 OVC100 23/04 A3008 RMK SLP187 8/53/ BINOVC=",
"76361599999","2025-01-17T21:47:00","4","25.685194","-109.080806","4.87","VALLE DEL FUERTE INTERNATIONAL, MX","FM-15","99999","V020","300,1,N,0057,1","03048,1,9,N","016093,1,9,9","+0230,1","+0050,1","99999,9","04,1,+01219,1,06,1","08,1,+03048,1,03,1",,"9,AGL   ,+99999,+99999","99,99,9,04,1,99,9,01219,1,99,9,99,9","10183,1,99999,9",,"MET075METAR MMLM 172147Z 30011KT 10SM SCT040 OVC100 23/05 A3007 RMK 8/53/ BINOVC=",
"76361599999","2025-01-17T22:40:00","4","25.685194","-109.080806","4.87","VALLE DEL FUERTE INTERNATIONAL, MX","FM-15","99999","V020","320,1,N,0046,1","03048,1,9,N","016093,1,9,9","+0220,1","+0030,1","99999,9","04,1,+01219,1,06,1","08,1,+03048,1,03,1",,"9,AGL   ,+99999,+99999","99,99,9,04,1,99,9,01219,1,99,9,99,9","10179,1,99999,9",,"MET075METAR MMLM 172240Z 32009KT 10SM SCT040 OVC100 22/03 A3006 RMK 8/53/ BINOVC=",
"76361599999","2025-01-17T23:40:00","4","25.685194","-109.080806","4.87","VALLE DEL FUERTE INTERNATIONAL, MX","FM-15","99999","V020","300,1,N,0062,1","01219,1,C,N","016093,1,9,9","+0210,1","+0070,1","10183,1","07,1,+01219,1,06,1","08,1,+03048,1,05,1",,"9,AGL   ,+99999,+99999","99,99,9,07,1,99,9,01219,1,99,9,99,9","10183,1,99999,9",,"MET075METAR MMLM 172340Z 30012KT 10SM BKN040 OVC100 21/07 A3007 RMK SLP183 8/52/=",
"76361599999","2025-01-18T00:49:00","4","25.685194","-109.080806","4.87","VALLE DEL FUERTE INTERNATIONAL, MX","FM-15","99999","V020","290,1,N,0062,1","03048,1,9,N","016093,1,9,9","+0190,1","+0090,1","99999,9","04,1,+01219,1,06,1","07,1,+03048,1,03,1","07,1,+06706,1,02,1","9,AGL   ,+99999,+99999","99,99,9,04,1,99,9,01219,1,99,9,99,9","10186,1,99999,9",,"MET075METAR MMLM 180049Z 29012KT 10SM SCT040 BKN100 BKN220 19/09 A3008 RMK 8/538=",
"76361599999","2025-01-18T01:41:00","4","25.685194","-109.080806","4.87","VALLE DEL FUERTE INTERNATIONAL, MX","FM-15","99999","V020","290,1,N,0057,1","03048,1,C,N","016093,1,9,9","+0180,1","+0090,1","99999,9","07,1,+03048,1,03,1","07,1,+06706,1,02,1",,"9,AGL   ,+99999,+99999","99,99,9,07,1,99,9,03048,1,99,9,99,9","10186,1,99999,9",,"MET068METAR MMLM 180141Z 29011KT 10SM BKN100 BKN220 18/09 A3008 RMK 8/038=",
"76361599999","2025-01-18T02:41:00","4","25.685194","-109.080806","4.87","VALLE DEL FUERTE INTERNATIONAL, MX","FM-15","99999","V020","300,1,N,0046,1","06706,1,9,N","016093,1,9,9","+0180,1","+0110,1","10181,1","04,1,+03048,1,03,1","07,1,+06706,1,02,1",,"9,AGL   ,+99999,+99999","99,99,9,04,1,99,9,03048,1,99,9,99,9","10190,1,99999,9",,"MET076METAR MMLM 180241Z 30009KT 10SM SCT100 BKN220 18/11 A3009 RMK SLP1810 8/038=",
"76361599999","2025-01-18T03:40:00","4","25.685194","-109.080806","4.87","VALLE DEL FUERTE INTERNATIONAL, MX","FM-15","99999","V020","310,1,N,0057,1","06706,1,C,N","016093,1,9,9","+0170,1","+0110,1","99999,9","02,1,+03048,1,03,1","04,1,+06706,1,00,1",,"9,AGL   ,+99999,+99999","99,99,9,02,1,99,9,03048,1,99,9,99,9","10193,1,99999,9",,"MET068METAR MMLM 180340Z 31011KT 10SM FEW100 SCT220 17/11 A3010 RMK 8/031=",
"76361599999","2025-01-18T13:57:00","4","25.685194","-109.080806","4.87","VALLE DEL FUERTE INTERNATIONAL, MX","FM-15","99999","V020","999,9,C,0000,1","02438,1,C,N","011265,1,9,9","+0120,1","+0080,1","99999,9","07,1,+02438,1,03,1",,,"9,AGL   ,+99999,+99999","99,99,9,07,1,99,9,02438,1,99,9,99,9","10196,1,99999,9",,"MET072METAR MMLM 181357Z RTD 00000KT 7SM BKN080 12/08 A3011 RMK 8/030 HZY RTS=",
"76361599999","2025-01-18T14:42:00","4","25.685194","-109.080806","4.87","VALLE DEL FUERTE INTERNATIONAL, MX","FM-15","99999","V020","999,9,C,0000,1","02438,1,C,N","012875,1,9,9","+0110,1","+0070,1","10204,1","07,1,+02438,1,03,1",,,"9,AGL   ,+99999,+99999","99,99,9,07,1,99,9,02438,1,99,9,99,9","10203,1,99999,9",,"MET071METAR MMLM 181442Z 00000KT 8SM BKN080 11/07 A3013 RMK SLP204 8/030 HZY=",
"76361599999","2025-01-18T15:42:00","4","25.685194","-109.080806","4.87","VALLE DEL FUERTE INTERNATIONAL, MX","FM-15","99999","V020","360,1,N,0021,1","02438,1,C,N","012875,1,9,9","+0140,1","+0100,1","99999,9","07,1,+02438,1,03,1",,,"9,AGL   ,+99999,+99999","99,99,9,07,1,99,9,02438,1,99,9,99,9","10207,1,99999,9",,"MET064METAR MMLM 181542Z 36004KT 8SM BKN080 14/10 A3014 RMK 8/030 HZY=",
"76361599999","2025-01-18T16:40:00","4","25.685194","-109.080806","4.87","VALLE DEL FUERTE INTERNATIONAL, MX","FM-15","99999","V020","310,1,N,0051,1","99999,9,9,N","012875,1,9,9","+0190,1","+0090,1","99999,9","04,1,+02438,1,03,1",,,"9,AGL   ,+99999,+99999","99,99,9,04,1,99,9,02438,1,99,9,99,9","10213,1,99999,9",,"MET064METAR MMLM 181640Z 31010KT 8SM SCT080 19/09 A3016 RMK 8/030 HZY=",
"76361599999","2025-01-18T17:40:00","4","25.685194","-109.080806","4.87","VALLE DEL FUERTE INTERNATIONAL, MX","FM-15","99999","V020","330,1,N,0041,1","99999,9,9,N","016093,1,9,9","+0200,1","+0070,1","10201,1","04,1,+03962,1,03,1",,,"9,AGL   ,+99999,+99999","99,99,9,04,1,99,9,03962,1,99,9,99,9","10210,1,99999,9",,"MET073METAR MMLM 181740Z 33008KT 10SM SCT130 20/07 A3015 RMK SLP2010 8/030 HZY=",
"76361599999","2025-01-18T18:42:00","4","25.685194","-109.080806","4.87","VALLE DEL FUERTE INTERNATIONAL, MX","FM-15","99999","V020","300,1,N,0067,1","99999,9,9,N","016093,1,9,9","+0220,1","+0040,1","99999,9","02,1,+04572,1,03,1",,,"9,AGL   ,+99999,+99999","99,99,9,02,1,99,9,04572,1,99,9,99,9","10203,1,99999,9",,"MET065METAR MMLM 181842Z 30013KT 10SM FEW150 22/04 A3013 RMK 8/030 HZY=",
"76361599999","2025-01-18T19:40:00","4","25.685194","-109.080806","4.87","VALLE DEL FUERTE INTERNATIONAL, MX","FM-15","99999","V020","330,1,N,0067,1","22000,1,9,N","016093,1,9,9","+0230,1","+0050,1","99999,9",,,,,"00,99,1,99,9,99,9,99999,9,99,9,99,9","10193,1,99999,9",,"MET048METAR MMLM 181940Z 33013KT 10SM SKC 23/05 A3010=",
"76361599999","2025-01-18T20:43:00","4","25.685194","-109.080806","4.87","VALLE DEL FUERTE INTERNATIONAL, MX","FM-15","99999","V020","320,1,N,0046,1","22000,1,9,N","016093,1,9,9","+0230,1","+0050,1","10171,1",,,,,"00,99,1,99,9,99,9,99999,9,99,9,99,9","10179,1,99999,9",,"MET060METAR MMLM 182043Z 32009KT 10SM SKC 23/05 A3006 RMK SLP1710=",
"76361599999","2025-01-18T21:42:00","4","25.685194","-109.080806","4.87","VALLE DEL FUERTE INTERNATIONAL, MX","FM-15","99999","V020","310,1,N,0103,1","22000,1,9,N","016093,1,9,9","+0230,1","+0030,1","99999,9",,,,,"00,99,1,99,9,99,9,99999,9,99,9,99,9","10173,1,99999,9",,"MET048METAR MMLM 182142Z 31020KT 10SM SKC 23/03 A3004=",
"76361599999","2025-01-18T22:47:00","4","25.685194","-109.080806","4.87","VALLE DEL FUERTE INTERNATIONAL, MX","FM-15","99999","V020","310,1,N,0088,1","22000,1,9,N","016093,1,9,9","+0220,1","+0030,1","99999,9",,,,,"00,99,1,99,9,99,9,99999,9,99,9,99,9","10173,1,99999,9",,"MET048METAR MMLM 182247Z 31017KT 10SM SKC 22/03 A3004=",
"76361599999","2025-01-18T23:49:00","4","25.685194","-109.080806","4.87","VALLE DEL FUERTE INTERNATIONAL, MX","FM-15","99999","V020","300,1,N,0077,1","22000,1,9,N","016093,1,9,9","+0210,1","+0040,1","10177,1",,,,,"00,99,1,99,9,99,9,99999,9,99,9,99,9","10176,1,99999,9",,"MET059METAR MMLM 182349Z 30015KT 10SM SKC 21/04 A3005 RMK SLP177=",
"76361599999","2025-01-19T00:41:00","4","25.685194","-109.080806","4.87","VALLE DEL FUERTE INTERNATIONAL, MX","FM-15","99999","V020","300,1,N,0072,1","22000,1,9,N","016093,1,9,9","+0190,1","+0060,1","99999,9",,,,,"00,99,1,99,9,99,9,99999,9,99,9,99,9","10183,1,99999,9",,"MET048METAR MMLM 190041Z 30014KT 10SM SKC 19/06 A3007=",
"76361599999","2025-01-19T01:43:00","4","25.685194","-109.080806","4.87","VALLE DEL FUERTE INTERNATIONAL, MX","FM-15","99999","V020","280,1,N,0057,1","22000,1,9,N","016093,1,9,9","+0160,1","+0070,1","99999,9",,,,,"00,99,1,99,9,99,9,99999,9,99,9,99,9","10186,1,99999,9",,"MET048METAR MMLM 190143Z 28011KT 10SM SKC 16/07 A3008=",
"76361599999","2025-01-19T02:42:00","4","25.685194","-109.080806","4.87","VALLE DEL FUERTE INTERNATIONAL, MX","FM-15","99999","V020","290,1,N,0031,1","22000,1,9,N","016093,1,9,9","+0140,1","+0070,1","10181,1",,,,,"00,99,1,99,9,99,9,99999,9,99,9,99,9","10190,1,99999,9",,"MET060METAR MMLM 190242Z 29006KT 10SM SKC 14/07 A3009 RMK SLP1810=",
"76361599999","2025-01-19T03:56:00","4","25.685194","-109.080806","4.87","VALLE DEL FUERTE INTERNATIONAL, MX","FM-15","99999","V020","290,1,N,0051,1","22000,1,9,N","016093,1,9,9","+0130,1","+0070,1","99999,9",,,,,"00,99,1,99,9,99,9,99999,9,99,9,99,9","10196,1,99999,9",,"MET048METAR MMLM 190356Z 29010KT 10SM SKC 13/07 A3011=",
"76361599999","2025-01-19T14:00:00","4","25.685194","-109.080806","4.87","VALLE DEL FUERTE INTERNATIONAL, MX","FM-15","99999","V020","999,9,C,0000,1","99999,9,9,N","011265,1,9,9","+0070,1","+0050,1","99999,9","04,1,+06096,1,00,1",,,"9,AGL   ,+99999,+99999","99,99,9,04,1,99,9,06096,1,99,9,99,9","10186,1,99999,9",,"MET068METAR MMLM 191400Z RTD 00000KT 7SM SCT200 07/05 A3008 RMK 8/001 RTS=",
"76361599999","2025-01-19T14:49:00","4","25.685194","-109.080806","4.87","VALLE DEL FUERTE INTERNATIONAL, MX","FM-15","99999","V020","999,9,C,0000,1","99999,9,9,N","011265,1,9,9","+0090,1","+0070,1","10181,1","04,1,+06706,1,00,1",,,"9,AGL   ,+99999,+99999","99,99,9,04,1,99,9,06706,1,99,9,99,9","10190,1,99999,9",,"MET072METAR MMLM 191449Z 00000KT 7SM SCT220 09/07 A3009 RMK SLP1810 8/001 HZY=",
"76361599999","2025-01-19T15:43:00","4","25.685194","-109.080806","4.87","VALLE DEL FUERTE INTERNATIONAL, MX","FM-15","99999","V020","320,1,N,0026,1","06706,1,C,N","012875,1,9,9","+0130,1","+0090,1","99999,9","07,1,+06706,1,02,1",,,"9,AGL   ,+99999,+99999","99,99,9,07,1,99,9,06706,1,99,9,99,9","10193,1,99999,9",,"MET064METAR MMLM 191543Z 32005KT 8SM BKN220 13/09 A3010 RMK 8/008 HZY=",
"76361599999","2025-01-19T16:42:00","4","25.685194","-109.080806","4.87","VALLE DEL FUERTE INTERNATIONAL, MX","FM-15","99999","V020","320,1,N,0041,1","99999,9,9,N","012875,1,9,9","+0170,1","+0080,1","99999,9","04,1,+06706,1,00,1",,,"9,AGL   ,+99999,+99999","99,99,9,04,1,99,9,06706,1,99,9,99,9","10196,1,99999,9",,"MET064METAR MMLM 191642Z 32008KT 8SM SCT220 17/08 A3011 RMK 8/001 HZY=",
"76361599999","2025-01-19T17:54:00","4","25.685194","-109.080806","4.87","VALLE DEL FUERTE INTERNATIONAL, MX","FM-15","99999","V020","320,1,N,0041,1","99999,9,9,N","012875,1,9,9","+0180,1","+0080,1","99999,9","02,1,+06706,1,00,1",,,"9,AGL   ,+99999,+99999","99,99,9,02,1,99,9,06706,1,99,9,99,9","10196,1,99999,9",,"MET082METAR MMLM 191754Z 32008KT 8SM FEW220 18/08 A3011 RMK SLP19/7 5//// 9// 8/001 HZY=",
"76361599999","2025-01-19T18:41:00","4","25.685194","-109.080806","4.87","VALLE DEL FUERTE INTERNATIONAL, MX","FM-15","99999","V020","310,1,N,0062,1","99999,9,9,N","012875,1,9,9","+0220,1","+0040,1","99999,9","04,1,+06096,1,00,1",,,"9,AGL   ,+99999,+99999","99,99,9,04,1,99,9,06096,1,99,9,99,9","10183,1,99999,9",,"MET064METAR MMLM 191841Z 31012KT 8SM SCT200 22/04 A3007 RMK 8/001 HZY=",
"76361599999","2025-01-19T19:40:00","4","25.685194","-109.080806","4.87","VALLE DEL FUERTE INTERNATIONAL, MX","FM-15","99999","V020","300,1,N,0041,1","06706,1,C,N","012875,1,9,9","+0230,1","+0060,1","99999,9","07,1,+06706,1,02,1",,,"9,AGL   ,+99999,+99999","99,99,9,07,1,99,9,06706,1,99,9,99,9","10169,1,99999,9",,"MET064METAR MMLM 191940Z 30008KT 8SM BKN220 23/06 A3003 RMK 8/008 HZY=",
"76361599999","2025-01-19T20:46:00","4","25.685194","-109.080806","4.87","VALLE DEL FUERTE INTERNATIONAL, MX","FM-15","99999","V020","300,1,N,0077,1","06706,1,C,N","016093,1,9,9","+0240,1","+0030,1","10151,1","07,1,+06706,1,02,1",,,"9,AGL   ,+99999,+99999","99,99,9,07,1,99,9,06706,1,99,9,99,9","10159,1,99999,9",,"MET069METAR MMLM 192046Z 30015KT 10SM BKN220 24/03 A3000 RMK SLP1510 8/008=",
"76361599999","2025-01-19T21:43:00","4","25.685194","-109.080806","4.87","VALLE DEL FUERTE INTERNATIONAL, MX","FM-15","99999","V020","300,1,N,0077,1","99999,9,9,N","016093,1,9,9","+0230,1","+0050,1","99999,9","04,1,+06706,1,00,1",,,"9,AGL   ,+99999,+99999","99,99,9,04,1,99,9,06706,1,99,9,99,9","10149,1,99999,9",,"MET061METAR MMLM 192143Z 30015KT 10SM SCT220 23/05 A2997 RMK 8/001=",
"76361599999","2025-01-19T22:44:00","4","25.685194","-109.080806","4.87","VALLE DEL FUERTE INTERNATIONAL, MX","FM-15","99999","V020","290,1,N,0093,1","99999,9,9,N","016093,1,9,9","+0220,1","+0080,1","99999,9","04,1,+06706,1,00,1",,,"9,AGL   ,+99999,+99999","99,99,9,04,1,99,9,06706,1,99,9,99,9","10149,1,99999,9",,"MET061METAR MMLM 192244Z 29018KT 10SM SCT220 22/08 A2997 RMK 8/001=",
"76361599999","2025-01-19T23:57:00","4","25.685194","-109.080806","4.87","VALLE DEL FUERTE INTERNATIONAL, MX","FM-15","99999","V020","300,1,N,0077,1","99999,9,9,N","016093,1,9,9","+0210,1","+0090,1","99999,9","04,1,+06706,1,00,1",,,"9,AGL   ,+99999,+99999","99,99,9,04,1,99,9,06706,1,99,9,99,9","10146,1,99999,9",,"MET093METAR MMLM 192357Z RTD 30015KT 10SM SCT220 21/09 A2996 RMK SLP/// 5//// 9// 8/001 MSGTX MMMX=",
"76361599999","2025-01-20T00:55:00","4","25.685194","-109.080806","4.87","VALLE DEL FUERTE INTERNATIONAL, MX","FM-15","99999","V020","290,1,N,0057,1","99999,9,9,N","016093,1,9,9","+0190,1","+0070,1","99999,9","04,1,+06706,1,00,1",,,"9,AGL   ,+99999,+99999","99,99,9,04,1,99,9,06706,1,99,9,99,9","10142,1,99999,9",,"MET072METAR MMLM 200055Z 29011KT 10SM SCT220 19/07 A2995 RMK 8/001 MSGTX MMMX=",
"76361599999","2025-01-20T01:46:00","4","25.685194","-109.080806","4.87","VALLE DEL FUERTE INTERNATIONAL, MX","FM-15","99999","V020","290,1,N,0051,1","99999,9,9,N","016093,1,9,9","+0170,1","+0110,1","99999,9","04,1,+06706,1,00,1",,,"9,AGL   ,+99999,+99999","99,99,9,04,1,99,9,06706,1,99,9,99,9","10152,1,99999,9",,"MET065METAR MMLM 200146Z 29010KT 10SM SCT220 17/11 A2998 RMK 8/001 RTS=",
"76361599999","2025-01-20T02:46:00","4","25.685194","-109.080806","4.87","VALLE DEL FUERTE INTERNATIONAL, MX","FM-15","99999","V020","290,1,N,0046,1","99999,9,9,N","016093,1,9,9","+0150,1","+0110,1","10151,1","04,1,+06706,1,00,1",,,"9,AGL   ,+99999,+99999","99,99,9,04,1,99,9,06706,1,99,9,99,9","10159,1,99999,9",,"MET069METAR MMLM 200246Z 29009KT 10SM SCT220 15/11 A3000 RMK SLP1510 8/001=",
"76361599999","2025-01-20T03:41:00","4","25.685194","-109.080806","4.87","VALLE DEL FUERTE INTERNATIONAL, MX","FM-15","99999","V020","300,1,N,0041,1","99999,9,9,N","016093,1,9,9","+0150,1","+0110,1","99999,9","04,1,+06706,1,00,1",,,"9,AGL   ,+99999,+99999","99,99,9,04,1,99,9,06706,1,99,9,99,9","10159,1,99999,9",,"MET061METAR MMLM 200341Z 30008KT 10SM SCT220 15/11 A3000 RMK 8/001=",
"76361599999","2025-01-20T13:54:00","4","25.685194","-109.080806","4.87","VALLE DEL FUERTE INTERNATIONAL, MX","FM-15","99999","V020","999,9,C,0000,1","06706,1,C,N","000604,1,9,9","+0080,1","+0070,1","99999,9","07,1,+06706,1,02,1",,,"9,AGL   ,+99999,+99999","99,99,9,07,1,99,9,06706,1,99,9,99,9","10159,1,99999,9","44,1","MET069METAR MMLM 201354Z 00000KT 3/8SM FG BKN220 08/07 A3000 RMK 8/008 RTS=",
"76361599999","2025-01-20T14:09:00","4","25.685194","-109.080806","4.87","VALLE DEL FUERTE INTERNATIONAL, MX","FM-16","99999","V020","999,9,C,0000,1","06706,1,C,N","002816,1,9,9","+0080,1","+0080,1","99999,9","07,1,+06706,1,02,1",,,"9,AGL   ,+99999,+99999","99,99,9,07,1,99,9,06706,1,99,9,99,9","10159,1,99999,9","10,1","MET067SPECI MMLM 201409Z 00000KT 1 3/4SM BR BKN220 08/08 A3000 RMK 8/008=",
"76361599999","2025-01-20T14:27:00","4","25.685194","-109.080806","4.87","VALLE DEL FUERTE INTERNATIONAL, MX","FM-16","99999","V020","999,9,C,0000,1","06706,1,C,N","006437,1,9,9","+0080,1","+0080,1","99999,9","07,1,+06706,1,02,1",,,"9,AGL   ,+99999,+99999","99,99,9,07,1,99,9,06706,1,99,9,99,9","10159,1,99999,9","11,1","MET065SPECI MMLM 201427Z 00000KT 4SM BCFG BKN220 08/08 A3000 RMK 8/008=",
"76361599999","2025-01-20T14:46:00","4","25.685194","-109.080806","4.87","VALLE DEL FUERTE INTERNATIONAL, MX","FM-15","99999","V020","210,1,N,0021,1","06096,1,C,N","009656,1,9,9","+0080,1","+0070,1","10151,1","07,1,+06096,1,02,1",,,"9,AGL   ,+99999,+99999","99,99,9,07,1,99,9,06096,1,99,9,99,9","10159,1,99999,9","40,1","MET073METAR MMLM 201446Z 21004KT 6SM VCFG BKN200 08/07 A3000 RMK SLP1510 8/008=",
"76361599999","2025-01-20T15:42:00","4","25.685194","-109.080806","4.87","VALLE DEL FUERTE INTERNATIONAL, MX","FM-15","99999","V020","290,1,N,0026,1","06096,1,C,N","011265,1,9,9","+0120,1","+0110,1","99999,9","07,1,+06096,1,02,1",,,"9,AGL   ,+99999,+99999","99,99,9,07,1,99,9,06096,1,99,9,99,9","10166,1,99999,9","40,1","MET065METAR MMLM 201542Z 29005KT 7SM VCFG BKN200 12/11 A3002 RMK 8/008=",
"76361599999","2025-01-20T16:40:00","4","25.685194","-109.080806","4.87","VALLE DEL FUERTE INTERNATIONAL, MX","FM-15","99999","V020","310,1,N,0036,1","06706,1,C,N","012875,1,9,9","+0160,1","+0130,1","99999,9","07,1,+06706,1,02,1",,,"9,AGL   ,+99999,+99999","99,99,9,07,1,99,9,06706,1,99,9,99,9","10169,1,99999,9",,"MET064METAR MMLM 201640Z 31007KT 8SM BKN220 16/13 A3003 RMK 8/008 HZY=",
"76361599999","2025-01-20T17:40:00","4","25.685194","-109.080806","4.87","VALLE DEL FUERTE INTERNATIONAL, MX","FM-15","99999","V020","340,1,N,0031,1","99999,9,9,N","012875,1,9,9","+0200,1","+0110,1","10166,1","04,1,+06706,1,00,1",,,"9,AGL   ,+99999,+99999","99,99,9,04,1,99,9,06706,1,99,9,99,9","10166,1,99999,9",,"MET071METAR MMLM 201740Z 34006KT 8SM SCT220 20/11 A3002 RMK SLP166 8/001 HZY=",
"76361599999","2025-01-20T18:40:00","4","25.685194","-109.080806","4.87","VALLE DEL FUERTE INTERNATIONAL, MX","FM-15","99999","V020","999,9,C,0000,1","99999,9,9,N","012875,1,9,9","+0220,1","+0070,1","99999,9","04,1,+07010,1,00,1",,,"9,AGL   ,+99999,+99999","99,99,9,04,1,99,9,07010,1,99,9,99,9","10166,1,99999,9",,"MET064METAR MMLM 201840Z 00000KT 8SM SCT230 22/07 A3002 RMK 8/001 HZY=",
"76361599999","2025-01-20T19:40:00","4","25.685194","-109.080806","4.87","VALLE DEL FUERTE INTERNATIONAL, MX","FM-15","99999","V020","300,1,N,0026,1","99999,9,9,N","012875,1,9,9","+0240,1","+0060,1","99999,9","04,1,+07010,1,00,1",,,"9,AGL   ,+99999,+99999","99,99,9,04,1,99,9,07010,1,99,9,99,9","10156,1,99999,9",,"MET064METAR MMLM 201940Z 30005KT 8SM SCT230 24/06 A2999 RMK 8/001 HZY=",
"76361599999","2025-01-20T20:44:00","4","25.685194","-109.080806","4.87","VALLE DEL FUERTE INTERNATIONAL, MX","FM-15","99999","V020","270,1,N,0041,1","99999,9,9,N","016093,1,9,9","+0240,1","+0110,1","10149,1","02,1,+06706,1,00,1",,,"9,AGL   ,+99999,+99999","99,99,9,02,1,99,9,06706,1,99,9,99,9","10149,1,99999,9",,"MET068METAR MMLM 202044Z 27008KT 10SM FEW220 24/11 A2997 RMK SLP149 8/001=",
"76361599999","2025-01-20T21:43:00","4","25.685194","-109.080806","4.87","VALLE DEL FUERTE INTERNATIONAL, MX","FM-15","99999","V020","270,1,N,0051,1","99999,9,9,N","016093,1,9,9","+0240,1","+0100,1","99999,9","02,1,+06706,1,00,1",,,"9,AGL   ,+99999,+99999","99,99,9,02,1,99,9,06706,1,99,9,99,9","10142,1,99999,9",,"MET061METAR MMLM 202143Z 27010KT 10SM FEW220 24/10 A2995 RMK 8/001=",
"76361599999","2025-01-20T22:55:00","4","25.685194","-109.080806","4.87","VALLE DEL FUERTE INTERNATIONAL, MX","FM-15","99999","V020","260,1,N,0046,1","99999,9,9,N","016093,1,9,9","+0220,1","+0060,1","99999,9","02,1,+06706,1,00,1",,,"9,AGL   ,+99999,+99999","99,99,9,02,1,99,9,06706,1,99,9,99,9","10146,1,99999,9",,"MET061METAR MMLM 202255Z 26009KT 10SM FEW220 22/06 A2996 RMK 8/001=",
"76361599999","2025-01-20T23:50:00","4","25.685194","-109.080806","4.87","VALLE DEL FUERTE INTERNATIONAL, MX","FM-15","99999","V020","260,1,N,0051,1","99999,9,9,N","012875,1,9,9","+0210,1","+0110,1","10153,1","02,1,+07010,1,00,1",,,"9,AGL   ,+99999,+99999","99,99,9,02,1,99,9,07010,1,99,9,99,9","10152,1,99999,9",,"MET071METAR MMLM 202350Z 26010KT 8SM FEW230 21/11 A2998 RMK SLP153 8/001 HZY=",
"76361599999","2025-01-21T00:40:00","4","25.685194","-109.080806","4.87","VALLE DEL FUERTE INTERNATIONAL, MX","FM-15","99999","V020","280,1,N,0051,1","22000,1,9,N","012875,1,9,9","+0190,1","+0110,1","99999,9",,,,,"00,99,1,99,9,99,9,99999,9,99,9,99,9","10159,1,99999,9",,"MET055METAR MMLM 210040Z 28010KT 8SM SKC 19/11 A3000 RMK HZY=",
"76361599999","2025-01-21T01:45:00","4","25.685194","-109.080806","4.87","VALLE DEL FUERTE INTERNATIONAL, MX","FM-15","99999","V020","290,1,N,0031,1","99999,9,9,N","016093,1,9,9","+0170,1","+0110,1","99999,9","02,1,+06706,1,00,1",,,"9,AGL   ,+99999,+99999","99,99,9,02,1,99,9,06706,1,99,9,99,9","10163,1,99999,9",,"MET061METAR MMLM 210145Z 29006KT 10SM FEW220 17/11 A3001 RMK 8/001=",
"76361599999","2025-01-21T02:41:00","4","25.685194","-109.080806","4.87","VALLE DEL FUERTE INTERNATIONAL, MX","FM-15","99999","V020","290,1,N,0026,1","22000,1,9,N","016093,1,9,9","+0150,1","+0100,1","10173,1",,,,,"00,99,1,99,9,99,9,99999,9,99,9,99,9","10173,1,99999,9",,"MET059METAR MMLM 210241Z 29005KT 10SM SKC 15/10 A3004 RMK SLP173=",
"76361599999","2025-01-21T03:43:00","4","25.685194","-109.080806","4.87","VALLE DEL FUERTE INTERNATIONAL, MX","FM-15","99999","V020","280,1,N,0031,1","22000,1,9,N","012875,1,9,9","+0130,1","+0090,1","99999,9",,,,,"00,99,1,99,9,99,9,99999,9,99,9,99,9","10176,1,99999,9",,"MET047METAR MMLM 210343Z 28006KT 8SM SKC 13/09 A3005=",
"76361599999","2025-01-21T13:56:00","4","25.685194","-109.080806","4.87","VALLE DEL FUERTE INTERNATIONAL, MX","FM-15","99999","V020","290,1,N,0031,1","99999,9,9,N","011265,1,9,9","+0080,1","+0070,1","99999,9","04,1,+06706,1,00,1",,,"9,AGL   ,+99999,+99999","99,99,9,04,1,99,9,06706,1,99,9,99,9","10196,1,99999,9",,"MET068METAR MMLM 211356Z 29006KT 7SM SCT220 08/07 A3011 RMK 8/001 HZY RTS=",
"76361599999","2025-01-21T14:21:00","4","25.685194","-109.080806","4.87","VALLE DEL FUERTE INTERNATIONAL, MX","FM-16","99999","V020","310,1,N,0062,1","99999,9,9,N","011265,1,9,9","+0120,1","+0080,1","99999,9","04,1,+06706,1,00,1",,,"9,AGL   ,+99999,+99999","99,99,9,04,1,99,9,06706,1,99,9,99,9","10203,1,99999,9",,"MET064SPECI MMLM 211421Z 31012KT 7SM SCT220 12/08 A3013 RMK 8/001 HZY=",
"76361599999","2025-01-21T14:46:00","4","25.685194","-109.080806","4.87","VALLE DEL FUERTE INTERNATIONAL, MX","FM-15","99999","V020","310,1,N,0057,1","99999,9,9,N","012875,1,9,9","+0120,1","+0070,1","10204,1","04,1,+06706,1,00,1",,,"9,AGL   ,+99999,+99999","99,99,9,04,1,99,9,06706,1,99,9,99,9","10203,1,99999,9",,"MET071METAR MMLM 211446Z 31011KT 8SM SCT220 12/07 A3013 RMK SLP204 8/001 HZY=",
"76361599999","2025-01-21T15:44:00","4","25.685194","-109.080806","4.87","VALLE DEL FUERTE INTERNATIONAL, MX","FM-15","99999","V020","340,1,N,0026,1","06706,1,C,N","012875,1,9,9","+0140,1","+0080,1","99999,9","07,1,+06706,1,02,1",,,"9,AGL   ,+99999,+99999","99,99,9,07,1,99,9,06706,1,99,9,99,9","10210,1,99999,9",,"MET064METAR MMLM 211544Z 34005KT 8SM BKN220 14/08 A3015 RMK 8/008 HZY=",
"76361599999","2025-01-21T16:40:00","4","25.685194","-109.080806","4.87","VALLE DEL FUERTE INTERNATIONAL, MX","FM-15","99999","V020","330,1,N,0072,1","06706,1,C,N","016093,1,9,9","+0170,1","+0080,1","99999,9","07,1,+06706,1,02,1",,,"9,AGL   ,+99999,+99999","99,99,9,07,1,99,9,06706,1,99,9,99,9","10213,1,99999,9",,"MET061METAR MMLM 211640Z 33014KT 10SM BKN220 17/08 A3016 RMK 8/008=",
"76361599999","2025-01-21T17:43:00","4","25.685194","-109.080806","4.87","VALLE DEL FUERTE INTERNATIONAL, MX","FM-15","99999","V020","320,1,N,0062,1","06706,1,C,N","016093,1,9,9","+0180,1","+0080,1","10201,1","07,1,+06706,1,02,1",,,"9,AGL   ,+99999,+99999","99,99,9,07,1,99,9,06706,1,99,9,99,9","10210,1,99999,9",,"MET069METAR MMLM 211743Z 32012KT 10SM BKN220 18/08 A3015 RMK SLP2010 8/008=",
"76361599999","2025-01-21T18:45:00","4","25.685194","-109.080806","4.87","VALLE DEL FUERTE INTERNATIONAL, MX","FM-15","99999","V020","320,1,N,0057,1","06706,1,C,N","016093,1,9,9","+0200,1","+0070,1","99999,9","07,1,+06706,1,02,1",,,"9,AGL   ,+99999,+99999","99,99,9,07,1,99,9,06706,1,99,9,99,9","10203,1,99999,9",,"MET061METAR MMLM 211845Z 32011KT 10SM BKN220 20/07 A3013 RMK 8/008=",
"76361599999","2025-01-21T19:44:00","4","25.685194","-109.080806","4.87","VALLE DEL FUERTE INTERNATIONAL, MX","FM-15","99999","V020","300,1,N,0057,1","99999,9,9,N","016093,1,9,9","+0220,1","+0040,1","99999,9","04,1,+06706,1,00,1",,,"9,AGL   ,+99999,+99999","99,99,9,04,1,99,9,06706,1,99,9,99,9","10186,1,99999,9",,"MET061METAR MMLM 211944Z 30011KT 10SM SCT220 22/04 A3008 RMK 8/001=",
"76361599999","2025-01-21T20:50:00","4","25.685194","-109.080806","4.87","VALLE DEL FUERTE INTERNATIONAL, MX","FM-15","99999","V020","320,1,N,0062,1","99999,9,9,N","016093,1,9,9","+0230,1","+0020,1","10171,1","04,1,+06706,1,00,1",,,"9,AGL   ,+99999,+99999","99,99,9,04,1,99,9,06706,1,99,9,99,9","10179,1,99999,9",,"MET069METAR MMLM 212050Z 32012KT 10SM SCT220 23/02 A3006 RMK SLP1710 8/001=",
"76361599999","2025-01-21T21:42:00","4","25.685194","-109.080806","4.87","VALLE DEL FUERTE INTERNATIONAL, MX","FM-15","99999","V020","310,1,N,0067,1","99999,9,9,N","016093,1,9,9","+0230,1","+0020,1","99999,9","02,1,+06706,1,00,1",,,"9,AGL   ,+99999,+99999","99,99,9,02,1,99,9,06706,1,99,9,99,9","10176,1,99999,9",,"MET061METAR MMLM 212142Z 31013KT 10SM FEW220 23/02 A3005 RMK 8/001=",
"76361599999","2025-01-21T22:40:00","4","25.685194","-109.080806","4.87","VALLE DEL FUERTE INTERNATIONAL, MX","FM-15","99999","V020","280,1,N,0088,1","99999,9,9,N","011265,1,9,9","+0220,1","+0040,1","99999,9","02,1,+06706,1,00,1",,,"9,AGL   ,+99999,+99999","99,99,9,02,1,99,9,06706,1,99,9,99,9","10173,1,99999,9","09,1","MET067METAR MMLM 212240Z 28017KT 7SM VCBLDU FEW220 22/04 A3004 RMK 8/001=",
"76361599999","2025-01-21T23:40:00","4","25.685194","-109.080806","4.87","VALLE DEL FUERTE INTERNATIONAL, MX","FM-15","99999","V020","300,1,N,0077,1","99999,9,9,N","011265,1,9,9","+0200,1","+0040,1","10177,1","02,1,+06706,1,00,1",,,"9,AGL   ,+99999,+99999","99,99,9,02,1,99,9,06706,1,99,9,99,9","10176,1,99999,9",,"MET067METAR MMLM 212340Z 30015KT 7SM FEW220 20/04 A3005 RMK SLP177 8/001=",
"76361599999","2025-01-22T00:40:00","4","25.685194","-109.080806","4.87","VALLE DEL FUERTE INTERNATIONAL, MX","FM-15","99999","V020","300,1,N,0077,1","99999,9,9,N","012875,1,9,9","+0180,1","+0070,1","99999,9","04,1,+07620,1,00,1",,,"9,AGL   ,+99999,+99999","99,99,9,04,1,99,9,07620,1,99,9,99,9","10179,1,99999,9",,"MET064METAR MMLM 220040Z 30015KT 8SM SCT250 18/07 A3006 RMK 8/001 HZY=",
"76361599999","2025-01-22T01:51:00","4","25.685194","-109.080806","4.87","VALLE DEL FUERTE INTERNATIONAL, MX","FM-15","99999","V020","310,1,N,0051,1","99999,9,9,N","016093,1,9,9","+0160,1","+0080,1","99999,9","02,1,+06706,1,00,1",,,"9,AGL   ,+99999,+99999","99,99,9,02,1,99,9,06706,1,99,9,99,9","10183,1,99999,9",,"MET061METAR MMLM 220151Z 31010KT 10SM FEW220 16/08 A3007 RMK 8/001=",
"76361599999","2025-01-22T02:40:00","4","25.685194","-109.080806","4.87","VALLE DEL FUERTE INTERNATIONAL, MX","FM-15","99999","V020","320,1,N,0041,1","22000,1,9,N","016093,1,9,9","+0150,1","+0090,1","10181,1",,,,,"00,99,1,99,9,99,9,99999,9,99,9,99,9","10190,1,99999,9",,"MET060METAR MMLM 220240Z 32008KT 10SM SKC 15/09 A3009 RMK SLP1810=",
"76361599999","2025-01-22T03:40:00","4","25.685194","-109.080806","4.87","VALLE DEL FUERTE INTERNATIONAL, MX","FM-15","99999","V020","300,1,N,0031,1","22000,1,9,N","012875,1,9,9","+0140,1","+0090,1","99999,9",,,,,"00,99,1,99,9,99,9,99999,9,99,9,99,9","10190,1,99999,9",,"MET047METAR MMLM 220340Z 30006KT 8SM SKC 14/09 A3009=",
"76361599999","2025-01-22T12:41:00","4","25.685194","-109.080806","4.87","VALLE DEL FUERTE INTERNATIONAL, MX","FM-15","99999","V020","300,1,N,0031,1","22000,1,9,N","011265,1,9,9","+0110,1","+0080,1","99999,9",,,,,"00,99,1,99,9,99,9,99999,9,99,9,99,9","10169,1,99999,9",,"MET055METAR MMLM 221241Z 30006KT 7SM SKC 11/08 A3003 RMK RTS=",
"76361599999","2025-01-22T14:46:00","4","25.685194","-109.080806","4.87","VALLE DEL FUERTE INTERNATIONAL, MX","FM-15","99999","V020","300,1,N,0026,1","99999,9,9,N","011265,1,9,9","+0110,1","+0070,1","10183,1","04,1,+07010,1,00,1",,,"9,AGL   ,+99999,+99999","99,99,9,04,1,99,9,07010,1,99,9,99,9","10183,1,99999,9",,"MET071METAR MMLM 221446Z 30005KT 7SM SCT230 11/07 A3007 RMK SLP183 8/001 HZY=",
"76361599999","2025-01-22T16:11:00","4","25.685194","-109.080806","4.87","VALLE DEL FUERTE INTERNATIONAL, MX","FM-15","99999","V020","310,1,N,0072,1","99999,9,9,N","012875,1,9,9","+0170,1","+0080,1","99999,9","04,1,+06706,1,00,1",,,"9,AGL   ,+99999,+99999","99,99,9,04,1,99,9,06706,1,99,9,99,9","10190,1,99999,9",,"MET068METAR MMLM 221611Z RTD 31014KT 8SM SCT220 17/08 A3009 RMK 8/001 HZY=",
"76361599999","2025-01-22T16:40:00","4","25.685194","-109.080806","4.87","VALLE DEL FUERTE INTERNATIONAL, MX","FM-15","99999","V020","300,1,N,0067,1","99999,9,9,N","012875,1,9,9","+0180,1","+0070,1","99999,9","04,1,+06706,1,00,1",,,"9,AGL   ,+99999,+99999","99,99,9,04,1,99,9,06706,1,99,9,99,9","10193,1,99999,9",,"MET064METAR MMLM 221640Z 30013KT 8SM SCT220 18/07 A3010 RMK 8/001 HZY=",
"76361599999","2025-01-22T17:40:00","4","25.685194","-109.080806","4.87","VALLE DEL FUERTE INTERNATIONAL, MX","FM-15","99999","V020","310,1,N,0077,1","06706,1,C,N","016093,1,9,9","+0200,1","+0060,1","10193,1","07,1,+06706,1,02,1",,,"9,AGL   ,+99999,+99999","99,99,9,07,1,99,9,06706,1,99,9,99,9","10193,1,99999,9",,"MET072METAR MMLM 221740Z 31015KT 10SM BKN220 20/06 A3010 RMK SLP193 8/008 HZY=",
"76361599999","2025-01-22T19:40:00","4","25.685194","-109.080806","4.87","VALLE DEL FUERTE INTERNATIONAL, MX","FM-15","99999","V020","310,1,N,0098,1","06706,1,9,N","016093,1,9,9","+0220,1","+0040,1","99999,9","04,1,+02438,1,05,1","07,1,+06706,1,02,1",,"9,AGL   ,+99999,+99999","99,99,9,04,1,99,9,02438,1,99,9,99,9","10179,1,99999,9",,"MET072METAR MMLM 221940Z 31019KT 10SM SCT080 BKN220 22/04 A3006 RMK 8/028 HZY=",
"76361599999","2025-01-22T20:40:00","4","25.685194","-109.080806","4.87","VALLE DEL FUERTE INTERNATIONAL, MX","FM-15","99999","V020","310,1,N,0093,1","06706,1,9,N","016093,1,9,9","+0210,1","+0070,1","10173,1","04,1,+02438,1,05,1","07,1,+06706,1,02,1",,"9,AGL   ,+99999,+99999","99,99,9,04,1,99,9,02438,1,99,9,99,9","10173,1,99999,9",,"MET079METAR MMLM 222040Z 31018KT 10SM SCT080 BKN220 21/07 A3004 RMK SLP173 8/028 HZY=",
"76361599999","2025-01-22T21:44:00","4","25.685194","-109.080806","4.87","VALLE DEL FUERTE INTERNATIONAL, MX","FM-15","99999","V020","320,1,N,0088,1","06706,1,9,N","012875,1,9,9","+0220,1","+0050,1","99999,9","02,1,+03048,1,05,1","08,1,+06706,1,02,1",,"9,AGL   ,+99999,+99999","99,99,9,02,1,99,9,03048,1,99,9,99,9","10166,1,99999,9",,"MET071METAR MMLM 222144Z 32017KT 8SM FEW100 OVC220 22/05 A3002 RMK 8/027 HZY=",
"76361599999","2025-01-22T22:40:00","4","25.685194","-109.080806","4.87","VALLE DEL FUERTE INTERNATIONAL, MX","FM-15","99999","V020","300,1,N,0062,1","06706,1,9,N","012875,1,9,9","+0220,1","+0030,1","99999,9","02,1,+03048,1,03,1","07,1,+06706,1,02,1",,"9,AGL   ,+99999,+99999","99,99,9,02,1,99,9,03048,1,99,9,99,9","10163,1,99999,9",,"MET071METAR MMLM 222240Z 30012KT 8SM FEW100 BKN220 22/03 A3001 RMK 8/038 HZY=",
"76361599999","2025-01-22T23:40:00","4","25.685194","-109.080806","4.87","VALLE DEL FUERTE INTERNATIONAL, MX","FM-15","99999","V020","320,1,N,0067,1","06706,1,9,N","016093,1,9,9","+0210,1","+0040,1","10151,1","04,1,+03048,1,03,1","07,1,+06706,1,02,1",,"9,AGL   ,+99999,+99999","99,99,9,04,1,99,9,03048,1,99,9,99,9","10159,1,99999,9",,"MET076METAR MMLM 222340Z 32013KT 10SM SCT100 BKN220 21/04 A3000 RMK SLP1510 8/038=",
"76361599999","2025-01-23T00:44:00","4","25.685194","-109.080806","4.87","VALLE DEL FUERTE INTERNATIONAL, MX","FM-15","99999","V020","300,1,N,0077,1","06706,1,9,N","016093,1,9,9","+0190,1","+0070,1","99999,9","04,1,+03048,1,03,1","07,1,+06706,1,02,1",,"9,AGL   ,+99999,+99999","99,99,9,04,1,99,9,03048,1,99,9,99,9","10166,1,99999,9",,"MET068METAR MMLM 230044Z 30015KT 10SM SCT100 BKN220 19/07 A3002 RMK 8/038=",
"76361599999","2025-01-23T01:44:00","4","25.685194","-109.080806","4.87","VALLE DEL FUERTE INTERNATIONAL, MX","FM-15","99999","V020","290,1,N,0077,1","06706,1,9,N","016093,1,9,9","+0170,1","+0090,1","99999,9","02,1,+03048,1,03,1","07,1,+06706,1,02,1",,"9,AGL   ,+99999,+99999","99,99,9,02,1,99,9,03048,1,99,9,99,9","10173,1,99999,9",,"MET068METAR MMLM 230144Z 29015KT 10SM FEW100 BKN220 17/09 A3004 RMK 8/038=",
"76361599999","2025-01-23T03:43:00","4","25.685194","-109.080806","4.87","VALLE DEL FUERTE INTERNATIONAL, MX","FM-15","99999","V020","300,1,N,0057,1","06706,1,C,N","016093,1,9,9","+0160,1","+0110,1","99999,9","07,1,+06706,1,02,1",,,"9,AGL   ,+99999,+99999","99,99,9,07,1,99,9,06706,1,99,9,99,9","10179,1,99999,9",,"MET061METAR MMLM 230343Z 30011KT 10SM BKN220 16/11 A3006 RMK 8/008=",
"76361599999","2025-01-23T14:08:00","4","25.685194","-109.080806","4.87","VALLE DEL FUERTE INTERNATIONAL, MX","FM-15","99999","V020","280,1,N,0021,1","06706,1,C,N","016093,1,9,9","+0110,1","+0090,1","99999,9","04,1,+02134,1,03,1","04,1,+06706,1,00,1",,"9,AGL   ,+99999,+99999","99,99,9,04,1,99,9,02134,1,99,9,99,9","10179,1,99999,9",,"MET080METAR MMLM 231408Z RTD 28004KT 10SM SCT070 SCT220 11/09 A3006 RMK 8/034 HZY RTS=",
"76361599999","2025-01-23T14:41:00","4","25.685194","-109.080806","4.87","VALLE DEL FUERTE INTERNATIONAL, MX","FM-15","99999","V020","280,1,N,0026,1","06706,1,C,N","016093,1,9,9","+0110,1","+0090,1","10183,1","04,1,+02134,1,03,1","04,1,+06706,1,00,1",,"9,AGL   ,+99999,+99999","99,99,9,04,1,99,9,02134,1,99,9,99,9","10183,1,99999,9",,"MET079METAR MMLM 231441Z 28005KT 10SM SCT070 SCT220 11/09 A3007 RMK SLP183 8/034 HZY=",
"76361599999","2025-01-23T15:42:00","4","25.685194","-109.080806","4.87","VALLE DEL FUERTE INTERNATIONAL, MX","FM-15","99999","V020","320,1,N,0072,1","22000,1,9,N","016093,1,9,9","+0150,1","+0120,1","99999,9",,,,,"00,99,1,99,9,99,9,99999,9,99,9,99,9","10190,1,99999,9",,"MET067METAR MMLM 231542Z 32014KT 10SM SKC 15/12 A3009 RMK HZY ISOL AC CI=",
"76361599999","2025-01-23T16:40:00","4","25.685194","-109.080806","4.87","VALLE DEL FUERTE INTERNATIONAL, MX","FM-15","99999","V020","310,1,N,0093,1","22000,1,9,N","016093,1,9,9","+0180,1","+0120,1","99999,9",,,,,"00,99,1,99,9,99,9,99999,9,99,9,99,9","10193,1,99999,9",,"MET067METAR MMLM 231640Z 31018KT 10SM SKC 18/12 A3010 RMK HZY ISOL AC CI=",
"76361599999","2025-01-23T17:40:00","4","25.685194","-109.080806","4.87","VALLE DEL FUERTE INTERNATIONAL, MX","FM-15","99999","V020","310,1,N,0077,1","22000,1,9,N","016093,1,9,9","+0200,1","+0080,1","10197,1",,,,,"00,99,1,99,9,99,9,99999,9,99,9,99,9","10196,1,99999,9",,"MET063METAR MMLM 231740Z 31015KT 10SM SKC 20/08 A3011 RMK SLP197 HZY=",
"76361599999","2025-01-23T18:40:00","4","25.685194","-109.080806","4.87","VALLE DEL FUERTE INTERNATIONAL, MX","FM-15","99999","V020","330,1,N,0072,1","22000,1,9,N","016093,1,9,9","+0220,1","+0030,1","99999,9",,,,,"00,99,1,99,9,99,9,99999,9,99,9,99,9","10186,1,99999,9",,"MET056METAR MMLM 231840Z 33014KT 10SM SKC 22/03 A3008 RMK HZY=",
"76361599999","2025-01-23T19:40:00","4","25.685194","-109.080806","4.87","VALLE DEL FUERTE INTERNATIONAL, MX","FM-15","99999","V020","310,1,N,0072,1","22000,1,9,N","016093,1,9,9","+0240,1","+0020,1","99999,9",,,,,"00,99,1,99,9,99,9,99999,9,99,9,99,9","10176,1,99999,9",,"MET056METAR MMLM 231940Z 31014KT 10SM SKC 24/02 A3005 RMK HZY=",
"76361599999","2025-01-23T21:43:00","4","25.685194","-109.080806","4.87","VALLE DEL FUERTE INTERNATIONAL, MX","FM-15","99999","V020","290,1,N,0072,1","22000,1,9,N","016093,1,9,9","+0240,1","+0030,1","99999,9",,,,,"00,99,1,99,9,99,9,99999,9,99,9,99,9","10163,1,99999,9",,"MET048METAR MMLM 232143Z 29014KT 10SM SKC 24/03 A3001=",
"76361599999","2025-01-23T22:43:00","4","25.685194","-109.080806","4.87","VALLE DEL FUERTE INTERNATIONAL, MX","FM-15","99999","V020","300,1,N,0088,1","22000,1,9,N","016093,1,9,9","+0230,1","+0060,1","99999,9",,,,,"00,99,1,99,9,99,9,99999,9,99,9,99,9","10159,1,99999,9",,"MET048METAR MMLM 232243Z 30017KT 10SM SKC 23/06 A3000=",
"76361599999","2025-01-23T23:43:00","4","25.685194","-109.080806","4.87","VALLE DEL FUERTE INTERNATIONAL, MX","FM-15","99999","V020","300,1,N,0072,1","22000,1,9,N","016093,1,9,9","+0210,1","+0080,1","10151,1",,,,,"00,99,1,99,9,99,9,99999,9,99,9,99,9","10159,1,99999,9",,"MET060METAR MMLM 232343Z 30014KT 10SM SKC 21/08 A3000 RMK SLP1510=",
"76361599999","2025-01-24T00:43:00","4","25.685194","-109.080806","4.87","VALLE DEL FUERTE INTERNATIONAL, MX","FM-15","99999","V020","300,1,N,0067,1","22000,1,9,N","016093,1,9,9","+0190,1","+0080,1","99999,9",,,,,"00,99,1,99,9,99,9,99999,9,99,9,99,9","10163,1,99999,9",,"MET048METAR MMLM 240043Z 30013KT 10SM SKC 19/08 A3001=",
"76361599999","2025-01-24T01:40:00","4","25.685194","-109.080806","4.87","VALLE DEL FUERTE INTERNATIONAL, MX","FM-15","99999","V020","300,1,N,0051,1","22000,1,9,N","016093,1,9,9","+0170,1","+0100,1","99999,9",,,,,"00,99,1,99,9,99,9,99999,9,99,9,99,9","10166,1,99999,9",,"MET048METAR MMLM 240140Z 30010KT 10SM SKC 17/10 A3002=",
"76361599999","2025-01-24T02:42:00","4","25.685194","-109.080806","4.87","VALLE DEL FUERTE INTERNATIONAL, MX","FM-15","99999","V020","300,1,N,0046,1","22000,1,9,N","016093,1,9,9","+0160,1","+0110,1","10161,1",,,,,"00,99,1,99,9,99,9,99999,9,99,9,99,9","10169,1,99999,9",,"MET060METAR MMLM 240242Z 30009KT 10SM SKC 16/11 A3003 RMK SLP1610=",
"76361599999","2025-01-24T03:43:00","4","25.685194","-109.080806","4.87","VALLE DEL FUERTE INTERNATIONAL, MX","FM-15","99999","V020","290,1,N,0036,1","22000,1,9,N","016093,1,9,9","+0140,1","+0100,1","99999,9",,,,,"00,99,1,99,9,99,9,99999,9,99,9,99,9","10173,1,99999,9",,"MET048METAR MMLM 240343Z 29007KT 10SM SKC 14/10 A3004=",
"76361599999","2025-01-24T14:07:00","4","25.685194","-109.080806","4.87","VALLE DEL FUERTE INTERNATIONAL, MX","FM-15","99999","V020","290,1,N,0031,1","22000,1,9,N","009656,1,9,9","+0100,1","+0080,1","99999,9",,,,,"00,99,1,99,9,99,9,99999,9,99,9,99,9","10159,1,99999,9",,"MET068METAR MMLM 241407Z RTD 29006KT 6SM SKC 10/08 A3000 RMK HZY BRVC RTS=",
"76361599999","2025-01-24T14:40:00","4","25.685194","-109.080806","4.87","VALLE DEL FUERTE INTERNATIONAL, MX","FM-15","99999","V020","280,1,N,0026,1","22000,1,9,N","009656,1,9,9","+0110,1","+0090,1","10163,1",,,,,"00,99,1,99,9,99,9,99999,9,99,9,99,9","10163,1,99999,9",,"MET067METAR MMLM 241440Z 28005KT 6SM SKC 11/09 A3001 RMK SLP163 HZY BRVC=",
"76361599999","2025-01-24T15:40:00","4","25.685194","-109.080806","4.87","VALLE DEL FUERTE INTERNATIONAL, MX","FM-15","99999","V020","300,1,N,0046,1","22000,1,9,N","016093,1,9,9","+0150,1","+0110,1","99999,9",,,,,"00,99,1,99,9,99,9,99999,9,99,9,99,9","10173,1,99999,9",,"MET056METAR MMLM 241540Z 30009KT 10SM SKC 15/11 A3004 RMK HZY=",
"76361599999","2025-01-24T16:40:00","4","25.685194","-109.080806","4.87","VALLE DEL FUERTE INTERNATIONAL, MX","FM-15","99999","V020","310,1,N,0046,1","22000,1,9,N","016093,1,9,9","+0170,1","+0110,1","99999,9",,,,,"00,99,1,99,9,99,9,99999,9,99,9,99,9","10176,1,99999,9",,"MET056METAR MMLM 241640Z 31009KT 10SM SKC 17/11 A3005 RMK HZY=",
"76361599999","2025-01-24T17:40:00","4","25.685194","-109.080806","4.87","VALLE DEL FUERTE INTERNATIONAL, MX","FM-15","99999","V020","330,1,N,0046,1","22000,1,9,N","016093,1,9,9","+0210,1","+0090,1","10177,1",,,,,"00,99,1,99,9,99,9,99999,9,99,9,99,9","10176,1,99999,9",,"MET063METAR MMLM 241740Z 33009KT 10SM SKC 21/09 A3005 RMK SLP177 HZY=",
"76361599999","2025-01-24T18:40:00","4","25.685194","-109.080806","4.87","VALLE DEL FUERTE INTERNATIONAL, MX","FM-15","99999","V020","320,1,N,0041,1","22000,1,9,N","016093,1,9,9","+0230,1","+0070,1","99999,9",,,,,"00,99,1,99,9,99,9,99999,9,99,9,99,9","10169,1,99999,9",,"MET056METAR MMLM 241840Z 32008KT 10SM SKC 23/07 A3003 RMK HZY=",
"76361599999","2025-01-24T19:40:00","4","25.685194","-109.080806","4.87","VALLE DEL FUERTE INTERNATIONAL, MX","FM-15","99999","V020","300,1,N,0046,1","22000,1,9,N","016093,1,9,9","+0250,1","+0070,1","99999,9",,,,,"00,99,1,99,9,99,9,99999,9,99,9,99,9","10159,1,99999,9",,"MET056METAR MMLM 241940Z 30009KT 10SM SKC 25/07 A3000 RMK HZY=",
"76361599999","2025-01-24T20:40:00","4","25.685194","-109.080806","4.87","VALLE DEL FUERTE INTERNATIONAL, MX","FM-15","99999","V020","320,1,N,0031,1","22000,1,9,N","016093,1,9,9","+0270,1","+0060,1","10149,1",,,,,"00,99,1,99,9,99,9,99999,9,99,9,99,9","10149,1,99999,9",,"MET063METAR MMLM 242040Z 32006KT 10SM SKC 27/06 A2997 RMK SLP149 HZY=",
"76361599999","2025-01-24T21:48:00","4","25.685194","-109.080806","4.87","VALLE DEL FUERTE INTERNATIONAL, MX","FM-15","99999","V020","300,1,N,0051,1","22000,1,9,N","016093,1,9,9","+0270,1","+0070,1","99999,9",,,,,"00,99,1,99,9,99,9,99999,9,99,9,99,9","10139,1,99999,9",,"MET060METAR MMLM 242148Z 30010KT 10SM SKC 27/07 A2994 RMK ISOL AC=",
"76361599999","2025-01-24T22:46:00","4","25.685194","-109.080806","4.87","VALLE DEL FUERTE INTERNATIONAL, MX","FM-15","99999","V020","310,1,N,0062,1","22000,1,9,N","016093,1,9,9","+0250,1","+0070,1","99999,9",,,,,"00,99,1,99,9,99,9,99999,9,99,9,99,9","10135,1,99999,9",,"MET048METAR MMLM 242246Z 31012KT 10SM SKC 25/07 A2993=",
"76361599999","2025-01-24T23:40:00","4","25.685194","-109.080806","4.87","VALLE DEL FUERTE INTERNATIONAL, MX","FM-15","99999","V020","280,1,N,0072,1","22000,1,9,N","016093,1,9,9","+0230,1","+0100,1","10139,1",,,,,"00,99,1,99,9,99,9,99999,9,99,9,99,9","10139,1,99999,9",,"MET059METAR MMLM 242340Z 28014KT 10SM SKC 23/10 A2994 RMK SLP139=",
"76361599999","2025-01-25T00:41:00","4","25.685194","-109.080806","4.87","VALLE DEL FUERTE INTERNATIONAL, MX","FM-15","99999","V020","300,1,N,0062,1","99999,9,9,N","016093,1,9,9","+0200,1","+0100,1","99999,9","02,1,+04572,1,03,1",,,"9,AGL   ,+99999,+99999","99,99,9,02,1,99,9,04572,1,99,9,99,9","10142,1,99999,9",,"MET061METAR MMLM 250041Z 30012KT 10SM FEW150 20/10 A2995 RMK 8/030=",
"76361599999","2025-01-25T01:41:00","4","25.685194","-109.080806","4.87","VALLE DEL FUERTE INTERNATIONAL, MX","FM-15","99999","V020","280,1,N,0036,1","99999,9,9,N","016093,1,9,9","+0180,1","+0100,1","99999,9","04,1,+04572,1,03,1",,,"9,AGL   ,+99999,+99999","99,99,9,04,1,99,9,04572,1,99,9,99,9","10142,1,99999,9",,"MET061METAR MMLM 250141Z 28007KT 10SM SCT150 18/10 A2995 RMK 8/030=",
"76361599999","2025-01-25T02:45:00","4","25.685194","-109.080806","4.87","VALLE DEL FUERTE INTERNATIONAL, MX","FM-15","99999","V020","270,1,N,0031,1","22000,1,9,N","016093,1,9,9","+0150,1","+0100,1","10149,1",,,,,"00,99,1,99,9,99,9,99999,9,99,9,99,9","10149,1,99999,9",,"MET059METAR MMLM 250245Z 27006KT 10SM SKC 15/10 A2997 RMK SLP149=",
"76361599999","2025-01-25T03:43:00","4","25.685194","-109.080806","4.87","VALLE DEL FUERTE INTERNATIONAL, MX","FM-15","99999","V020","250,1,N,0015,1","99999,9,9,N","016093,1,9,9","+0140,1","+0100,1","99999,9","02,1,+03048,1,03,1",,,"9,AGL   ,+99999,+99999","99,99,9,02,1,99,9,03048,1,99,9,99,9","10156,1,99999,9",,"MET061METAR MMLM 250343Z 25003KT 10SM FEW100 14/10 A2999 RMK 8/030=",
"76361599999","2025-01-25T14:09:00","4","25.685194","-109.080806","4.87","VALLE DEL FUERTE INTERNATIONAL, MX","FM-15","99999","V020","999,9,C,0000,1","99999,9,9,N","000604,1,9,9","+0070,1","+0060,1","99999,9","04,1,+06706,1,00,1",,,"9,AGL   ,+99999,+99999","99,99,9,04,1,99,9,06706,1,99,9,99,9","10166,1,99999,9","44,1","MET073METAR MMLM 251409Z RTD 00000KT 3/8SM FG SCT220 07/06 A3002 RMK 8/001 RTS=",
"76361599999","2025-01-25T14:40:00","4","25.685194","-109.080806","4.87","VALLE DEL FUERTE INTERNATIONAL, MX","FM-15","99999","V020","999,9,C,0000,1","99999,9,9,N","004023,1,9,9","+0080,1","+0080,1","10161,1","04,1,+06706,1,00,1",,,"9,AGL   ,+99999,+99999","99,99,9,04,1,99,9,06706,1,99,9,99,9","10169,1,99999,9","10,1","MET075METAR MMLM 251440Z 00000KT 2 1/2SM BR SCT220 08/08 A3003 RMK SLP1610 8/001=",
"76361599999","2025-01-25T15:03:00","4","25.685194","-109.080806","4.87","VALLE DEL FUERTE INTERNATIONAL, MX","FM-16","99999","V020","999,9,C,0000,1","07010,1,C,N","008047,1,9,9","+0100,1","+0090,1","99999,9","07,1,+07010,1,02,1",,,"9,AGL   ,+99999,+99999","99,99,9,07,1,99,9,07010,1,99,9,99,9","10173,1,99999,9","40,1","MET065SPECI MMLM 251503Z 00000KT 5SM VCFG BKN230 10/09 A3004 RMK 8/008=",
"76361599999","2025-01-25T15:40:00","4","25.685194","-109.080806","4.87","VALLE DEL FUERTE INTERNATIONAL, MX","FM-15","99999","V020","999,9,C,0000,1","07010,1,C,N","011265,1,9,9","+0140,1","+0110,1","99999,9","07,1,+07010,1,02,1",,,"9,AGL   ,+99999,+99999","99,99,9,07,1,99,9,07010,1,99,9,99,9","10176,1,99999,9","40,1","MET065METAR MMLM 251540Z 00000KT 7SM VCFG BKN230 14/11 A3005 RMK 8/008=",
"76361599999","2025-01-25T16:50:00","4","25.685194","-109.080806","4.87","VALLE DEL FUERTE INTERNATIONAL, MX","FM-15","99999","V020","999,9,C,0000,1","06706,1,C,N","012875,1,9,9","+0100,1","+0100,1","99999,9","07,1,+06706,1,02,1",,,"9,AGL   ,+99999,+99999","99,99,9,07,1,99,9,06706,1,99,9,99,9","10183,1,99999,9",,"MET064METAR MMLM 251650Z 00000KT 8SM BKN220 10/10 A3007 RMK 8/008 HZY=",
"76361599999","2025-01-25T17:47:00","4","25.685194","-109.080806","4.87","VALLE DEL FUERTE INTERNATIONAL, MX","FM-15","99999","V020","999,9,C,0000,1","99999,9,9,N","012875,1,9,9","+0110,1","+0100,1","10183,1","04,1,+06096,1,00,1",,,"9,AGL   ,+99999,+99999","99,99,9,04,1,99,9,06096,1,99,9,99,9","10183,1,99999,9",,"MET082METAR MMLM 251747Z 00000KT 8SM SCT200 11/10 A3007 RMK SLP183 8/001 HZY MSGTX MMCN=",
"76361599999","2025-01-25T18:48:00","4","25.685194","-109.080806","4.87","VALLE DEL FUERTE INTERNATIONAL, MX","FM-15","99999","V020","999,9,C,0000,1","99999,9,9,N","012875,1,9,9","+0240,2","+0060,1","99999,9","02,1,+07010,1,00,1",,,"9,AGL   ,+99999,+99999","99,99,9,02,1,99,9,07010,1,99,9,99,9","10176,1,99999,9",,"MET064METAR MMLM 251848Z 00000KT 8SM FEW230 24/06 A3005 RMK 8/001 HZY=",
"76361599999","2025-01-25T19:41:00","4","25.685194","-109.080806","4.87","VALLE DEL FUERTE INTERNATIONAL, MX","FM-15","99999","V020","999,9,C,0000,1","99999,9,9,N","012875,1,9,9","+0250,1","+0030,1","99999,9","02,1,+06706,1,00,1",,,"9,AGL   ,+99999,+99999","99,99,9,02,1,99,9,06706,1,99,9,99,9","10169,1,99999,9",,"MET064METAR MMLM 251941Z 00000KT 8SM FEW220 25/03 A3003 RMK 8/001 HZY=",
"76361599999","2025-01-25T20:44:00","4","25.685194","-109.080806","4.87","VALLE DEL FUERTE INTERNATIONAL, MX","FM-15","99999","V020","110,1,N,0021,1","99999,9,9,N","012875,1,9,9","+0270,2","+0010,1","10151,1","02,1,+06706,1,00,1",,,"9,AGL   ,+99999,+99999","99,99,9,02,1,99,9,06706,1,99,9,99,9","10159,1,99999,9",,"MET072METAR MMLM 252044Z 11004KT 8SM FEW220 27/01 A3000 RMK SLP1510 8/001 HZY=",
"76361599999","2025-01-25T21:42:00","4","25.685194","-109.080806","4.87","VALLE DEL FUERTE INTERNATIONAL, MX","FM-15","99999","V020","230,1,N,0057,1","22000,1,9,N","016093,1,9,9","+0260,1","+0060,1","99999,9",,,,,"00,99,1,99,9,99,9,99999,9,99,9,99,9","10159,1,99999,9",,"MET048METAR MMLM 252142Z 23011KT 10SM SKC 26/06 A3000=",
"76361599999","2025-01-25T22:49:00","4","25.685194","-109.080806","4.87","VALLE DEL FUERTE INTERNATIONAL, MX","FM-15","99999","V020","230,1,N,0051,1","22000,1,9,N","016093,1,9,9","+0250,1","+0060,1","99999,9",,,,,"00,99,1,99,9,99,9,99999,9,99,9,99,9","10156,1,99999,9",,"MET048METAR MMLM 252249Z 23010KT 10SM SKC 25/06 A2999=",
"76361599999","2025-01-25T23:46:00","4","25.685194","-109.080806","4.87","VALLE DEL FUERTE INTERNATIONAL, MX","FM-15","99999","V020","260,1,N,0046,1","22000,1,9,N","016093,1,9,9","+0240,1","+0030,1","10151,1",,,,,"00,99,1,99,9,99,9,99999,9,99,9,99,9","10159,1,99999,9",,"MET060METAR MMLM 252346Z 26009KT 10SM SKC 24/03 A3000 RMK SLP1510=",
"76361599999","2025-01-26T00:51:00","4","25.685194","-109.080806","4.87","VALLE DEL FUERTE INTERNATIONAL, MX","FM-15","99999","V020","270,1,N,0036,1","22000,1,9,N","016093,1,9,9","+0210,1","+0020,1","99999,9",,,,,"00,99,1,99,9,99,9,99999,9,99,9,99,9","10163,1,99999,9",,"MET048METAR MMLM 260051Z 27007KT 10SM SKC 21/02 A3001=",
"76361599999","2025-01-26T01:48:00","4","25.685194","-109.080806","4.87","VALLE DEL FUERTE INTERNATIONAL, MX","FM-15","99999","V020","250,1,N,0026,1","22000,1,9,N","016093,1,9,9","+0200,1","+0050,1","99999,9",,,,,"00,99,1,99,9,99,9,99999,9,99,9,99,9","10169,1,99999,9",,"MET048METAR MMLM 260148Z 25005KT 10SM SKC 20/05 A3003=",
"76361599999","2025-01-26T02:54:00","4","25.685194","-109.080806","4.87","VALLE DEL FUERTE INTERNATIONAL, MX","FM-15","99999","V020","260,1,N,0015,1","22000,1,9,N","016093,1,9,9","+0170,1","+0080,1","99999,9",,,,,"00,99,1,99,9,99,9,99999,9,99,9,99,9","10173,1,99999,9",,"MET080METAR MMLM 260254Z 26003KT 10SM SKC 17/08 A3004 RMK SLP/// 5//// 9// MSGTX MMMX=",
"76361599999","2025-01-26T03:51:00","4","25.685194","-109.080806","4.87","VALLE DEL FUERTE INTERNATIONAL, MX","FM-15","99999","V020","999,9,C,0000,1","22000,1,9,N","016093,1,9,9","+0160,1","+0050,1","99999,9",,,,,"00,99,1,99,9,99,9,99999,9,99,9,99,9","10169,1,99999,9",,"MET048METAR MMLM 260351Z 00000KT 10SM SKC 16/05 A3003=",
"76361599999","2025-01-26T14:12:00","4","25.685194","-109.080806","4.87","VALLE DEL FUERTE INTERNATIONAL, MX","FM-15","99999","V020","070,1,N,0021,1","06706,1,C,N","011265,1,9,9","+0110,1","+0050,1","99999,9","07,1,+06706,1,02,1",,,"9,AGL   ,+99999,+99999","99,99,9,07,1,99,9,06706,1,99,9,99,9","10190,1,99999,9",,"MET072METAR MMLM 261412Z RTD 07004KT 7SM BKN220 11/05 A3009 RMK 8/008 HZY RTS=",
"76361599999","2025-01-26T14:42:00","4","25.685194","-109.080806","4.87","VALLE DEL FUERTE INTERNATIONAL, MX","FM-15","99999","V020","070,1,N,0026,1","06706,1,C,N","012875,1,9,9","+0120,1","+0040,1","10193,1","07,1,+06706,1,02,1",,,"9,AGL   ,+99999,+99999","99,99,9,07,1,99,9,06706,1,99,9,99,9","10193,1,99999,9",,"MET071METAR MMLM 261442Z 07005KT 8SM BKN220 12/04 A3010 RMK SLP193 8/008 HZY=",
"76361599999","2025-01-26T15:40:00","4","25.685194","-109.080806","4.87","VALLE DEL FUERTE INTERNATIONAL, MX","FM-15","99999","V020","070,1,N,0021,1","07010,1,C,N","012875,1,9,9","+0160,1","+0050,1","99999,9","07,1,+07010,1,02,1",,,"9,AGL   ,+99999,+99999","99,99,9,07,1,99,9,07010,1,99,9,99,9","10200,1,99999,9",,"MET064METAR MMLM 261540Z 07004KT 8SM BKN230 16/05 A3012 RMK 8/008 HZY=",
"76361599999","2025-01-26T16:42:00","4","25.685194","-109.080806","4.87","VALLE DEL FUERTE INTERNATIONAL, MX","FM-15","99999","V020","999,9,C,0000,1","06706,1,C,N","012875,1,9,9","+0200,1","+0080,1","99999,9","07,1,+06706,1,02,1",,,"9,AGL   ,+99999,+99999","99,99,9,07,1,99,9,06706,1,99,9,99,9","10203,1,99999,9",,"MET064METAR MMLM 261642Z 00000KT 8SM BKN220 20/08 A3013 RMK 8/008 HZY=",
"76361599999","2025-01-26T17:53:00","4","25.685194","-109.080806","4.87","VALLE DEL FUERTE INTERNATIONAL, MX","FM-15","99999","V020","190,1,N,0026,1","99999,9,9,N","012875,1,9,9","+0250,1","+0060,1","10204,1","04,1,+06706,1,00,1",,,"9,AGL   ,+99999,+99999","99,99,9,04,1,99,9,06706,1,99,9,99,9","10203,1,99999,9",,"MET071METAR MMLM 261753Z 19005KT 8SM SCT220 25/06 A3013 RMK SLP204 8/001 HZY=",
"76361599999","2025-01-26T18:40:00","4","25.685194","-109.080806","4.87","VALLE DEL FUERTE INTERNATIONAL, MX","FM-15","99999","V020","210,1,N,0021,1","99999,9,9,N","012875,1,9,9","+0260,1","+0070,1","99999,9","04,1,+06706,1,00,1",,,"9,AGL   ,+99999,+99999","99,99,9,04,1,99,9,06706,1,99,9,99,9","10200,1,99999,9",,"MET064METAR MMLM 261840Z 21004KT 8SM SCT220 26/07 A3012 RMK 8/001 HZY=",
"76361599999","2025-01-26T19:40:00","4","25.685194","-109.080806","4.87","VALLE DEL FUERTE INTERNATIONAL, MX","FM-15","99999","V020","240,1,N,0026,1","99999,9,9,N","012875,1,9,9","+0260,1","+0090,1","99999,9","04,1,+06706,1,00,1",,,"9,AGL   ,+99999,+99999","99,99,9,04,1,99,9,06706,1,99,9,99,9","10193,1,99999,9",,"MET064METAR MMLM 261940Z 24005KT 8SM SCT220 26/09 A3010 RMK 8/001 HZY=",
"76361599999","2025-01-26T20:40:00","4","25.685194","-109.080806","4.87","VALLE DEL FUERTE INTERNATIONAL, MX","FM-15","99999","V020","210,1,N,0041,1","06706,1,C,N","012875,1,9,9","+0250,1","+0100,1","10187,1","07,1,+06706,1,02,1",,,"9,AGL   ,+99999,+99999","99,99,9,07,1,99,9,06706,1,99,9,99,9","10186,1,99999,9",,"MET071METAR MMLM 262040Z 21008KT 8SM BKN220 25/10 A3008 RMK SLP187 8/008 HZY=",
"76361599999","2025-01-26T21:40:00","4","25.685194","-109.080806","4.87","VALLE DEL FUERTE INTERNATIONAL, MX","FM-15","99999","V020","230,1,N,0046,1","06706,1,C,N","016093,1,9,9","+0250,1","+0090,1","99999,9","07,1,+06706,1,02,1",,,"9,AGL   ,+99999,+99999","99,99,9,07,1,99,9,06706,1,99,9,99,9","10176,1,99999,9",,"MET061METAR MMLM 262140Z 23009KT 10SM BKN220 25/09 A3005 RMK 8/008=",
"76361599999","2025-01-26T22:54:00","4","25.685194","-109.080806","4.87","VALLE DEL FUERTE INTERNATIONAL, MX","FM-15","99999","V020","240,1,N,0036,1","99999,9,9,N","016093,1,9,9","+0250,1","+0100,1","99999,9","04,1,+06706,1,00,1",,,"9,AGL   ,+99999,+99999","99,99,9,04,1,99,9,06706,1,99,9,99,9","10169,1,99999,9",,"MET061METAR MMLM 262254Z 24007KT 10SM SCT220 25/10 A3003 RMK 8/001=",
"76361599999","2025-01-26T23:45:00","4","25.685194","-109.080806","4.87","VALLE DEL FUERTE INTERNATIONAL, MX","FM-15","99999","V020","999,9,N,9999,9","99999,9,9,N","016093,1,9,9","+0230,1","+0130,1","10161,1","04,1,+06706,1,00,1",,,"9,AGL   ,+99999,+99999","99,99,9,04,1,99,9,06706,1,99,9,99,9","10169,1,99999,9",,"MET070METAR MMLM 262345Z 230019KT 10SM SCT220 23/13 A3003 RMK SLP1610 8/001=",
"76361599999","2025-01-27T00:40:00","4","25.685194","-109.080806","4.87","VALLE DEL FUERTE INTERNATIONAL, MX","FM-15","99999","V020","230,1,N,0036,1","99999,9,9,N","016093,1,9,9","+0210,1","+0140,1","99999,9","04,1,+06706,1,00,1",,,"9,AGL   ,+99999,+99999","99,99,9,04,1,99,9,06706,1,99,9,99,9","10166,1,99999,9",,"MET061METAR MMLM 270040Z 23007KT 10SM SCT220 21/14 A3002 RMK 8/001=",
"76361599999","2025-01-27T02:40:00","4","25.685194","-109.080806","4.87","VALLE DEL FUERTE INTERNATIONAL, MX","FM-15","99999","V020","270,1,N,0021,1","99999,9,9,N","016093,1,9,9","+0180,1","+0130,1","10161,1","04,1,+06706,1,00,1",,,"9,AGL   ,+99999,+99999","99,99,9,04,1,99,9,06706,1,99,9,99,9","10169,1,99999,9",,"MET069METAR MMLM 270240Z 27004KT 10SM SCT220 18/13 A3003 RMK SLP1610 8/001=",
"76361599999","2025-01-27T03:41:00","4","25.685194","-109.080806","4.87","VALLE DEL FUERTE INTERNATIONAL, MX","FM-15","99999","V020","240,1,N,0026,1","99999,9,9,N","016093,1,9,9","+0170,1","+0120,1","99999,9","04,1,+06706,1,00,1",,,"9,AGL   ,+99999,+99999","99,99,9,04,1,99,9,06706,1,99,9,99,9","10176,1,99999,9",,"MET061METAR MMLM 270341Z 24005KT 10SM SCT220 17/12 A3005 RMK 8/001=",
"76361599999","2025-01-27T04:40:00","4","25.685194","-109.080806","4.87","VALLE DEL FUERTE INTERNATIONAL, MX","FM-15","99999","V020","250,1,N,0021,1","99999,9,9,N","016093,1,9,9","+0160,1","+0120,1","99999,9","02,1,+06706,1,00,1",,,"9,AGL   ,+99999,+99999","99,99,9,02,1,99,9,06706,1,99,9,99,9","10176,1,99999,9",,"MET061METAR MMLM 270440Z 25004KT 10SM FEW220 16/12 A3005 RMK 8/001=",
"76361599999","2025-01-27T14:05:00","4","25.685194","-109.080806","4.87","VALLE DEL FUERTE INTERNATIONAL, MX","FM-15","99999","V020","999,9,C,0000,1","06706,1,C,N","012875,1,9,9","+0120,1","+0100,1","99999,9","08,1,+06706,1,02,1",,,"9,AGL   ,+99999,+99999","99,99,9,08,1,99,9,06706,1,99,9,99,9","10173,1,99999,9",,"MET079METAR MMLM 271405Z RTD 00000KT 8SM OVC220 12/10 A3004 RMK 8/007 HZY BINOVC RTS=",
"76361599999","2025-01-27T14:40:00","4","25.685194","-109.080806","4.87","VALLE DEL FUERTE INTERNATIONAL, MX","FM-15","99999","V020","330,1,N,0015,1","06706,1,C,N","016093,1,9,9","+0120,1","+0090,1","10177,1","08,1,+06706,1,02,1",,,"9,AGL   ,+99999,+99999","99,99,9,08,1,99,9,06706,1,99,9,99,9","10176,1,99999,9",,"MET079METAR MMLM 271440Z 33003KT 10SM OVC220 12/09 A3005 RMK SLP177 8/007 HZY BINOVC=",
"76361599999","2025-01-27T15:48:00","4","25.685194","-109.080806","4.87","VALLE DEL FUERTE INTERNATIONAL, MX","FM-15","99999","V020","340,1,N,0026,1","06706,1,C,N","016093,1,9,9","+0160,1","+0100,1","99999,9","07,1,+06706,1,02,1",,,"9,AGL   ,+99999,+99999","99,99,9,07,1,99,9,06706,1,99,9,99,9","10183,1,99999,9",,"MET065METAR MMLM 271548Z 34005KT 10SM BKN220 16/10 A3007 RMK 8/008 HZY=",
"76361599999","2025-01-27T16:40:00","4","25.685194","-109.080806","4.87","VALLE DEL FUERTE INTERNATIONAL, MX","FM-15","99999","V020","300,1,N,0021,1","06706,1,C,N","016093,1,9,9","+0190,1","+0100,1","99999,9","07,1,+06706,1,02,1",,,"9,AGL   ,+99999,+99999","99,99,9,07,1,99,9,06706,1,99,9,99,9","10190,1,99999,9",,"MET065METAR MMLM 271640Z 30004KT 10SM BKN220 19/10 A3009 RMK 8/008 HZY=",
"76361599999","2025-01-27T17:40:00","4","25.685194","-109.080806","4.87","VALLE DEL FUERTE INTERNATIONAL, MX","FM-15","99999","V020","310,1,N,0015,1","06706,1,C,N","016093,1,9,9","+0220,1","+0090,1","10181,1","07,1,+06706,1,02,1",,,"9,AGL   ,+99999,+99999","99,99,9,07,1,99,9,06706,1,99,9,99,9","10190,1,99999,9",,"MET073METAR MMLM 271740Z 31003KT 10SM BKN220 22/09 A3009 RMK SLP1810 8/008 HZY=",
"76361599999","2025-01-27T18:41:00","4","25.685194","-109.080806","4.87","VALLE DEL FUERTE INTERNATIONAL, MX","FM-15","99999","V020","290,1,N,0031,1","06706,1,C,N","016093,1,9,9","+0250,1","+0100,1","99999,9","07,1,+06706,1,02,1",,,"9,AGL   ,+99999,+99999","99,99,9,07,1,99,9,06706,1,99,9,99,9","10183,1,99999,9",,"MET065METAR MMLM 271841Z 29006KT 10SM BKN220 25/10 A3007 RMK 8/008 HZY=",
"76361599999","2025-01-27T19:40:00","4","25.685194","-109.080806","4.87","VALLE DEL FUERTE INTERNATIONAL, MX","FM-15","99999","V020","290,1,N,0057,1","06706,1,C,N","016093,1,9,9","+0270,1","+0080,1","99999,9","07,1,+06706,1,02,1",,,"9,AGL   ,+99999,+99999","99,99,9,07,1,99,9,06706,1,99,9,99,9","10173,1,99999,9",,"MET065METAR MMLM 271940Z 29011KT 10SM BKN220 27/08 A3004 RMK 8/008 HZY=",
"76361599999","2025-01-27T20:40:00","4","25.685194","-109.080806","4.87","VALLE DEL FUERTE INTERNATIONAL, MX","FM-15","99999","V020","290,1,N,0062,1","06706,1,C,N","016093,1,9,9","+0280,1","+0060,1","10151,1","07,1,+06706,1,02,1",,,"9,AGL   ,+99999,+99999","99,99,9,07,1,99,9,06706,1,99,9,99,9","10159,1,99999,9",,"MET073METAR MMLM 272040Z 29012KT 10SM BKN220 28/06 A3000 RMK SLP1510 8/008 HZY=",
"76361599999","2025-01-27T21:41:00","4","25.685194","-109.080806","4.87","VALLE DEL FUERTE INTERNATIONAL, MX","FM-15","99999","V020","290,1,N,0072,1","06706,1,C,N","016093,1,9,9","+0260,1","+0080,1","99999,9","07,1,+06706,1,02,1",,,"9,AGL   ,+99999,+99999","99,99,9,07,1,99,9,06706,1,99,9,99,9","10156,1,99999,9",,"MET061METAR MMLM 272141Z 29014KT 10SM BKN220 26/08 A2999 RMK 8/008=",
"76361599999","2025-01-27T22:42:00","4","25.685194","-109.080806","4.87","VALLE DEL FUERTE INTERNATIONAL, MX","FM-15","99999","V020","300,1,N,0077,1","06096,1,C,N","016093,1,9,9","+0230,1","+0110,1","99999,9","08,1,+06096,1,02,1",,,"9,AGL   ,+99999,+99999","99,99,9,08,1,99,9,06096,1,99,9,99,9","10152,1,99999,9",,"MET068METAR MMLM 272242Z 30015KT 10SM OVC200 23/11 A2998 RMK 8/007 BINOVC=",
"76361599999","2025-01-27T23:41:00","4","25.685194","-109.080806","4.87","VALLE DEL FUERTE INTERNATIONAL, MX","FM-15","99999","V020","310,1,N,0067,1","06096,1,9,N","016093,1,9,9","+0210,1","+0120,1","10153,1","04,1,+04572,1,05,1","08,1,+06096,1,02,1",,"9,AGL   ,+99999,+99999","99,99,9,04,1,99,9,04572,1,99,9,99,9","10152,1,99999,9",,"MET082METAR MMLM 272341Z 31013KT 10SM SCT150 OVC200 21/12 A2998 RMK SLP153 8/027 BINOVC=",
"76361599999","2025-01-28T00:41:00","4","25.685194","-109.080806","4.87","VALLE DEL FUERTE INTERNATIONAL, MX","FM-15","99999","V020","290,1,N,0057,1","06096,1,C,N","016093,1,9,9","+0190,1","+0120,1","99999,9","08,1,+06096,1,02,1",,,"9,AGL   ,+99999,+99999","99,99,9,08,1,99,9,06096,1,99,9,99,9","10152,1,99999,9",,"MET068METAR MMLM 280041Z 29011KT 10SM OVC200 19/12 A2998 RMK 8/007 BINOVC=",
"76361599999","2025-01-28T01:40:00","4","25.685194","-109.080806","4.87","VALLE DEL FUERTE INTERNATIONAL, MX","FM-15","99999","V020","290,1,N,0031,1","06096,1,C,N","016093,1,9,9","+0180,1","+0120,1","99999,9","07,1,+06096,1,02,1",,,"9,AGL   ,+99999,+99999","99,99,9,07,1,99,9,06096,1,99,9,99,9","10156,1,99999,9",,"MET061METAR MMLM 280140Z 29006KT 10SM BKN200 18/12 A2999 RMK 8/008=",
"76361599999","2025-01-28T02:41:00","4","25.685194","-109.080806","4.87","VALLE DEL FUERTE INTERNATIONAL, MX","FM-15","99999","V020","310,1,N,0036,1","06706,1,C,N","012875,1,9,9","+0170,1","+0120,1","10156,1","07,1,+06706,1,02,1",,,"9,AGL   ,+99999,+99999","99,99,9,07,1,99,9,06706,1,99,9,99,9","10156,1,99999,9",,"MET067METAR MMLM 280241Z 31007KT 8SM BKN220 17/12 A2999 RMK SLP156 8/008=",
"76361599999","2025-01-28T03:41:00","4","25.685194","-109.080806","4.87","VALLE DEL FUERTE INTERNATIONAL, MX","FM-15","99999","V020","280,1,N,0031,1","06706,1,C,N","012875,1,9,9","+0160,1","+0120,1","99999,9","07,1,+06706,1,02,1",,,"9,AGL   ,+99999,+99999","99,99,9,07,1,99,9,06706,1,99,9,99,9","10163,1,99999,9",,"MET060METAR MMLM 280341Z 28006KT 8SM BKN220 16/12 A3001 RMK 8/008=",
"76361599999","2025-01-28T14:00:00","4","25.685194","-109.080806","4.87","VALLE DEL FUERTE INTERNATIONAL, MX","FM-15","99999","V020","300,1,N,0057,1","06706,1,9,N","012875,1,9,9","+0130,1","+0090,1","99999,9","04,1,+02438,1,05,1","07,1,+06706,1,02,1",,"9,AGL   ,+99999,+99999","99,99,9,04,1,99,9,02438,1,99,9,99,9","10152,1,99999,9",,"MET079METAR MMLM 281400Z RTD 30011KT 8SM SCT080 BKN220 13/09 A2998 RMK 8/028 HZY RTS=",
"76361599999","2025-01-28T14:40:00","4","25.685194","-109.080806","4.87","VALLE DEL FUERTE INTERNATIONAL, MX","FM-15","99999","V020","300,1,N,0046,1","02438,1,C,N","016093,1,9,9","+0130,1","+0090,1","10153,1","07,1,+02438,1,05,1","07,1,+06706,1,02,1",,"9,AGL   ,+99999,+99999","99,99,9,07,1,99,9,02438,1,99,9,99,9","10152,1,99999,9",,"MET079METAR MMLM 281440Z 30009KT 10SM BKN080 BKN220 13/09 A2998 RMK SLP153 8/028 HZY=",
"76361599999","2025-01-28T15:48:00","4","25.685194","-109.080806","4.87","VALLE DEL FUERTE INTERNATIONAL, MX","FM-15","99999","V020","310,1,N,0077,1","02438,1,C,N","016093,1,9,9","+0170,1","+0130,1","99999,9","07,1,+02438,1,03,1","07,1,+06706,1,02,1",,"9,AGL   ,+99999,+99999","99,99,9,07,1,99,9,02438,1,99,9,99,9","10159,1,99999,9",,"MET072METAR MMLM 281548Z 31015KT 10SM BKN080 BKN220 17/13 A3000 RMK 8/038 HZY=",
"76361599999","2025-01-28T16:40:00","4","25.685194","-109.080806","4.87","VALLE DEL FUERTE INTERNATIONAL, MX","FM-15","99999","V020","310,1,N,0077,1","02438,1,C,N","016093,1,9,9","+0180,1","+0120,1","99999,9","07,1,+02438,1,05,1","08,1,+06706,1,02,1",,"9,AGL   ,+99999,+99999","99,99,9,07,1,99,9,02438,1,99,9,99,9","10163,1,99999,9",,"MET079METAR MMLM 281640Z 31015KT 10SM BKN080 OVC220 18/12 A3001 RMK 8/027 HZY BINOVC=",
"76361599999","2025-01-28T17:40:00","4","25.685194","-109.080806","4.87","VALLE DEL FUERTE INTERNATIONAL, MX","FM-15","99999","V020","310,1,N,0077,1","06706,1,C,N","016093,1,9,9","+0190,1","+0110,1","10161,1","07,1,+06706,1,02,1",,,"9,AGL   ,+99999,+99999","99,99,9,07,1,99,9,06706,1,99,9,99,9","10169,1,99999,9",,"MET081METAR MMLM 281740Z 31015KT 10SM BKN220 19/11 A3003 RMK SLP1610 8/008 HZY ISOL AC=",
"76361599999","2025-01-28T18:42:00","4","25.685194","-109.080806","4.87","VALLE DEL FUERTE INTERNATIONAL, MX","FM-15","99999","V020","310,1,N,0077,1","06706,1,C,N","016093,1,9,9","+0200,1","+0110,1","99999,9","07,1,+06706,1,02,1",,,"9,AGL   ,+99999,+99999","99,99,9,07,1,99,9,06706,1,99,9,99,9","10166,1,99999,9",,"MET073METAR MMLM 281842Z 31015KT 10SM BKN220 20/11 A3002 RMK 8/008 HZY ISOL AC=",
"76361599999","2025-01-28T19:40:00","4","25.685194","-109.080806","4.87","VALLE DEL FUERTE INTERNATIONAL, MX","FM-15","99999","V020","300,1,N,0093,1","06706,1,C,N","016093,1,9,9","+0210,1","+0080,1","99999,9","07,1,+06706,1,02,1",,,"9,AGL   ,+99999,+99999","99,99,9,07,1,99,9,06706,1,99,9,99,9","10159,1,99999,9",,"MET073METAR MMLM 281940Z 30018KT 10SM BKN220 21/08 A3000 RMK 8/008 HZY ISOL AC=",
"76361599999","2025-01-28T20:40:00","4","25.685194","-109.080806","4.87","VALLE DEL FUERTE INTERNATIONAL, MX","FM-15","99999","V020","310,1,N,0088,1","06706,1,C,N","016093,1,9,9","+0220,1","+0080,1","10149,1","07,1,+06706,1,02,1",,,"9,AGL   ,+99999,+99999","99,99,9,07,1,99,9,06706,1,99,9,99,9","10149,1,99999,9",,"MET080METAR MMLM 282040Z 31017KT 10SM BKN220 22/08 A2997 RMK SLP149 8/008 HZY ISOL AC=",
"76361599999","2025-01-28T21:41:00","4","25.685194","-109.080806","4.87","VALLE DEL FUERTE INTERNATIONAL, MX","FM-15","99999","V020","300,1,N,0057,1","06096,1,9,N","016093,1,9,9","+0210,1","+0090,1","99999,9","04,1,+04572,1,05,1","08,1,+06096,1,02,1",,"9,AGL   ,+99999,+99999","99,99,9,04,1,99,9,04572,1,99,9,99,9","10146,1,99999,9",,"MET075METAR MMLM 282141Z 30011KT 10SM SCT150 OVC200 21/09 A2996 RMK 8/027 BINOVC=",
"76361599999","2025-01-28T22:40:00","4","25.685194","-109.080806","4.87","VALLE DEL FUERTE INTERNATIONAL, MX","FM-15","99999","V020","310,1,N,0067,1","06096,1,9,N","016093,1,9,9","+0210,1","+0090,1","99999,9","04,1,+04572,1,05,1","07,1,+06096,1,02,1",,"9,AGL   ,+99999,+99999","99,99,9,04,1,99,9,04572,1,99,9,99,9","10142,1,99999,9",,"MET068METAR MMLM 282240Z 31013KT 10SM SCT150 BKN200 21/09 A2995 RMK 8/028=",
"76361599999","2025-01-28T23:40:00","4","25.685194","-109.080806","4.87","VALLE DEL FUERTE INTERNATIONAL, MX","FM-15","99999","V020","310,1,N,0051,1","03658,1,C,N","012875,1,9,9","+0190,1","+0080,1","10143,1","07,1,+03658,1,05,1","08,1,+06096,1,02,1",,"9,AGL   ,+99999,+99999","99,99,9,07,1,99,9,03658,1,99,9,99,9","10142,1,99999,9",,"MET081METAR MMLM 282340Z 31010KT 8SM BKN120 OVC200 19/08 A2995 RMK SLP143 8/027 BINOVC=",
"76361599999","2025-01-29T00:40:00","4","25.685194","-109.080806","4.87","VALLE DEL FUERTE INTERNATIONAL, MX","FM-15","99999","V020","310,1,N,0046,1","03962,1,C,N","016093,1,9,9","+0170,1","+0090,1","99999,9","07,1,+03962,1,05,1","08,1,+06096,1,02,1",,"9,AGL   ,+99999,+99999","99,99,9,07,1,99,9,03962,1,99,9,99,9","10149,1,99999,9",,"MET075METAR MMLM 290040Z 31009KT 10SM BKN130 OVC200 17/09 A2997 RMK 8/027 BINOVC=",
"76361599999","2025-01-29T01:41:00","4","25.685194","-109.080806","4.87","VALLE DEL FUERTE INTERNATIONAL, MX","FM-15","99999","V020","300,1,N,0036,1","06706,1,9,N","012875,1,9,9","+0160,1","+0100,1","99999,9","04,1,+03962,1,05,1","07,1,+06706,1,02,1",,"9,AGL   ,+99999,+99999","99,99,9,04,1,99,9,03962,1,99,9,99,9","10152,1,99999,9",,"MET067METAR MMLM 290141Z 30007KT 8SM SCT130 BKN220 16/10 A2998 RMK 8/028=",
"76361599999","2025-01-29T02:40:00","4","25.685194","-109.080806","4.87","VALLE DEL FUERTE INTERNATIONAL, MX","FM-15","99999","V020","290,1,N,0031,1","06706,1,C,N","012875,1,9,9","+0160,1","+0100,1","10151,1","07,1,+06706,1,02,1",,,"9,AGL   ,+99999,+99999","99,99,9,07,1,99,9,06706,1,99,9,99,9","10159,1,99999,9",,"MET068METAR MMLM 290240Z 29006KT 8SM BKN220 16/10 A3000 RMK SLP1510 8/008=",
"76361599999","2025-01-29T03:40:00","4","25.685194","-109.080806","4.87","VALLE DEL FUERTE INTERNATIONAL, MX","FM-15","99999","V020","290,1,N,0031,1","06706,1,C,N","012875,1,9,9","+0140,1","+0090,1","99999,9","07,1,+06706,1,02,1",,,"9,AGL   ,+99999,+99999","99,99,9,07,1,99,9,06706,1,99,9,99,9","10163,1,99999,9",,"MET060METAR MMLM 290340Z 29006KT 8SM BKN220 14/09 A3001 RMK 8/008=",
"76361599999","2025-01-29T13:41:00","4","25.685194","-109.080806","4.87","VALLE DEL FUERTE INTERNATIONAL, MX","FM-15","99999","V020","310,1,N,0041,1","99999,9,9,N","011265,1,9,9","+0110,1","+0070,1","99999,9","02,1,+02438,1,03,1",,,"9,AGL   ,+99999,+99999","99,99,9,02,1,99,9,02438,1,99,9,99,9","10176,1,99999,9",,"MET064METAR MMLM 291341Z 31008KT 7SM FEW080 11/07 A3005 RMK 8/030 RTS=",
"76361599999","2025-01-29T14:51:00","4","25.685194","-109.080806","4.87","VALLE DEL FUERTE INTERNATIONAL, MX","FM-15","99999","V020","310,1,N,0041,1","22000,1,9,N","012875,1,9,9","+0120,1","+0070,1","10171,1",,,,,"00,99,1,99,9,99,9,99999,9,99,9,99,9","10179,1,99999,9",,"MET063METAR MMLM 291451Z 31008KT 8SM SKC 12/07 A3006 RMK SLP1710 HZY=",
"76361599999","2025-01-29T15:41:00","4","25.685194","-109.080806","4.87","VALLE DEL FUERTE INTERNATIONAL, MX","FM-15","99999","V020","320,1,N,0062,1","22000,1,9,N","012875,1,9,9","+0140,1","+0070,1","99999,9",,,,,"00,99,1,99,9,99,9,99999,9,99,9,99,9","10183,1,99999,9",,"MET063METAR MMLM 291541Z 32012KT 8SM SKC 14/07 A3007 RMK HZY ISOL CI=",
"76361599999","2025-01-29T16:40:00","4","25.685194","-109.080806","4.87","VALLE DEL FUERTE INTERNATIONAL, MX","FM-15","99999","V020","330,1,N,0057,1","22000,1,9,N","012875,1,9,9","+0160,1","+0070,1","99999,9",,,,,"00,99,1,99,9,99,9,99999,9,99,9,99,9","10190,1,99999,9",,"MET055METAR MMLM 291640Z 33011KT 8SM SKC 16/07 A3009 RMK HZY=",
"76361599999","2025-01-29T17:40:00","4","25.685194","-109.080806","4.87","VALLE DEL FUERTE INTERNATIONAL, MX","FM-15","99999","V020","330,1,N,0093,1","22000,1,9,N","016093,1,9,9","+0180,1","+0050,1","10181,1",,,,,"00,99,1,99,9,99,9,99999,9,99,9,99,9","10190,1,99999,9",,"MET064METAR MMLM 291740Z 33018KT 10SM SKC 18/05 A3009 RMK SLP1810 HZY=",
"76361599999","2025-01-29T18:40:00","4","25.685194","-109.080806","4.87","VALLE DEL FUERTE INTERNATIONAL, MX","FM-15","99999","V020","310,1,N,0098,1","22000,1,9,N","016093,1,9,9","+0190,1","+0030,1","99999,9",,,,,"00,99,1,99,9,99,9,99999,9,99,9,99,9","10186,1,99999,9",,"MET056METAR MMLM 291840Z 31019KT 10SM SKC 19/03 A3008 RMK HZY=",
"76361599999","2025-01-29T19:40:00","4","25.685194","-109.080806","4.87","VALLE DEL FUERTE INTERNATIONAL, MX","FM-15","99999","V020","310,1,N,0124,1","22000,1,9,N","016093,1,9,9","+0200,1","+0000,1","99999,9",,,,,"00,99,1,99,9,99,9,99999,9,99,9,99,9","10176,1,99999,9",,"MET056METAR MMLM 291940Z 31024KT 10SM SKC 20/00 A3005 RMK HZY=",
"76361599999","2025-01-29T20:40:00","4","25.685194","-109.080806","4.87","VALLE DEL FUERTE INTERNATIONAL, MX","FM-15","99999","V020","300,1,N,0124,1","22000,1,9,N","011265,1,9,9","+0210,1","-0010,1","10161,1",,,,,"00,99,1,99,9,99,9,99999,9,99,9,99,9","10169,1,99999,9","07,1","MET069METAR MMLM 292040Z 30024KT 7SM BLDU SKC 21/M01 A3003 RMK SLP1610 HZY=",
"76361599999","2025-01-29T21:41:00","4","25.685194","-109.080806","4.87","VALLE DEL FUERTE INTERNATIONAL, MX","FM-15","99999","V020","310,1,N,0113,1","22000,1,9,N","009656,1,9,9","+0210,1","-0020,1","99999,9",,,,,"00,99,1,99,9,99,9,99999,9,99,9,99,9","10159,1,99999,9","09,1","MET055METAR MMLM 292141Z 31022KT 6SM VCBLDU SKC 21/M02 A3000=",
"76361599999","2025-01-29T22:41:00","4","25.685194","-109.080806","4.87","VALLE DEL FUERTE INTERNATIONAL, MX","FM-15","99999","V020","300,1,N,0088,1","22000,1,9,N","012875,1,9,9","+0200,1","-0010,1","99999,9",,,,,"00,99,1,99,9,99,9,99999,9,99,9,99,9","10159,1,99999,9",,"MET056METAR MMLM 292241Z 30017KT 8SM SKC 20/M01 A3000 RMK HZY=",
"76361599999","2025-01-29T23:42:00","4","25.685194","-109.080806","4.87","VALLE DEL FUERTE INTERNATIONAL, MX","FM-15","99999","V020","310,1,N,0103,1","22000,1,9,N","012875,1,9,9","+0190,1","+0000,1","10151,1",,,,,"00,99,1,99,9,99,9,99999,9,99,9,99,9","10159,1,99999,9",,"MET063METAR MMLM 292342Z 31020KT 8SM SKC 19/00 A3000 RMK SLP1510 HZY=",
"76361599999","2025-01-30T00:46:00","4","25.685194","-109.080806","4.87","VALLE DEL FUERTE INTERNATIONAL, MX","FM-15","99999","V020","300,1,N,0088,1","22000,1,9,N","012875,1,9,9","+0170,1","+0040,1","99999,9",,,,,"00,99,1,99,9,99,9,99999,9,99,9,99,9","10159,1,99999,9",,"MET055METAR MMLM 300046Z 30017KT 8SM SKC 17/04 A3000 RMK HZY=",
"76361599999","2025-01-30T01:41:00","4","25.685194","-109.080806","4.87","VALLE DEL FUERTE INTERNATIONAL, MX","FM-15","99999","V020","310,1,N,0046,1","22000,1,9,N","016093,1,9,9","+0150,1","+0060,1","99999,9",,,,,"00,99,1,99,9,99,9,99999,9,99,9,99,9","10163,1,99999,9",,"MET048METAR MMLM 300141Z 31009KT 10SM SKC 15/06 A3001=",
"76361599999","2025-01-30T02:40:00","4","25.685194","-109.080806","4.87","VALLE DEL FUERTE INTERNATIONAL, MX","FM-15","99999","V020","330,1,N,0026,1","22000,1,9,N","016093,1,9,9","+0130,1","+0050,1","10161,1",,,,,"00,99,1,99,9,99,9,99999,9,99,9,99,9","10169,1,99999,9",,"MET060METAR MMLM 300240Z 33005KT 10SM SKC 13/05 A3003 RMK SLP1610=",
"76361599999","2025-01-30T03:41:00","4","25.685194","-109.080806","4.87","VALLE DEL FUERTE INTERNATIONAL, MX","FM-15","99999","V020","320,1,N,0031,1","22000,1,9,N","016093,1,9,9","+0120,1","+0050,1","99999,9",,,,,"00,99,1,99,9,99,9,99999,9,99,9,99,9","10176,1,99999,9",,"MET048METAR MMLM 300341Z 32006KT 10SM SKC 12/05 A3005=",
"76361599999","2025-01-30T14:03:00","4","25.685194","-109.080806","4.87","VALLE DEL FUERTE INTERNATIONAL, MX","FM-15","99999","V020","320,1,N,0036,1","99999,9,9,N","012875,1,9,9","+0080,1","+0050,1","99999,9","02,1,+06706,1,00,1",,,"9,AGL   ,+99999,+99999","99,99,9,02,1,99,9,06706,1,99,9,99,9","10196,1,99999,9",,"MET072METAR MMLM 301403Z RTD 32007KT 8SM FEW220 08/05 A3011 RMK 8/004 HZY RTS=",
"76361599999","2025-01-30T14:40:00","4","25.685194","-109.080806","4.87","VALLE DEL FUERTE INTERNATIONAL, MX","FM-15","99999","V020","310,1,N,0041,1","99999,9,9,N","012875,1,9,9","+0090,1","+0060,1","10191,1","02,1,+06706,1,00,1",,,"9,AGL   ,+99999,+99999","99,99,9,02,1,99,9,06706,1,99,9,99,9","10200,1,99999,9",,"MET072METAR MMLM 301440Z 31008KT 8SM FEW220 09/06 A3012 RMK SLP1910 8/004 HZY=",
"76361599999","2025-01-30T15:40:00","4","25.685194","-109.080806","4.87","VALLE DEL FUERTE INTERNATIONAL, MX","FM-15","99999","V020","320,1,N,0077,1","99999,9,9,N","016093,1,9,9","+0140,1","+0070,1","99999,9","04,1,+06706,1,00,1",,,"9,AGL   ,+99999,+99999","99,99,9,04,1,99,9,06706,1,99,9,99,9","10203,1,99999,9",,"MET065METAR MMLM 301540Z 32015KT 10SM SCT220 14/07 A3013 RMK 8/004 HZY=",
"76361599999","2025-01-30T16:40:00","4","25.685194","-109.080806","4.87","VALLE DEL FUERTE INTERNATIONAL, MX","FM-15","99999","V020","320,1,N,0093,1","22000,1,9,N","016093,1,9,9","+0170,1","+0040,1","99999,9",,,,,"00,99,1,99,9,99,9,99999,9,99,9,99,9","10210,1,99999,9",,"MET064METAR MMLM 301640Z 32018KT 10SM SKC 17/04 A3015 RMK HZY ISOL CI=",
"76361599999","2025-01-30T17:40:00","4","25.685194","-109.080806","4.87","VALLE DEL FUERTE INTERNATIONAL, MX","FM-15","99999","V020","330,1,N,0098,1","22000,1,9,N","016093,1,9,9","+0190,1","+0010,1","10201,1",,,,,"00,99,1,99,9,99,9,99999,9,99,9,99,9","10210,1,99999,9",,"MET072METAR MMLM 301740Z 33019KT 10SM SKC 19/01 A3015 RMK SLP2010 HZY ISOL CI=",
"76361599999","2025-01-30T18:40:00","4","25.685194","-109.080806","4.87","VALLE DEL FUERTE INTERNATIONAL, MX","FM-15","99999","V020","320,1,N,0098,1","22000,1,9,N","016093,1,9,9","+0210,1","-0010,1","99999,9",,,,,"00,99,1,99,9,99,9,99999,9,99,9,99,9","10203,1,99999,9",,"MET057METAR MMLM 301840Z 32019KT 10SM SKC 21/M01 A3013 RMK HZY=",
"76361599999","2025-01-30T19:40:00","4","25.685194","-109.080806","4.87","VALLE DEL FUERTE INTERNATIONAL, MX","FM-15","99999","V020","310,1,N,0118,1","22000,1,9,N","011265,1,9,9","+0220,1","-0030,1","99999,9",,,,,"00,99,1,99,9,99,9,99999,9,99,9,99,9","10193,1,99999,9","07,1","MET061METAR MMLM 301940Z 31023KT 7SM BLDU SKC 22/M03 A3010 RMK HZY=",
"76361599999","2025-01-30T20:40:00","4","25.685194","-109.080806","4.87","VALLE DEL FUERTE INTERNATIONAL, MX","FM-15","99999","V020","320,1,N,0124,1","22000,1,9,N","011265,1,9,9","+0220,1","-0030,1","10171,1",,,,,"00,99,1,99,9,99,9,99999,9,99,9,99,9","10179,1,99999,9","07,1","MET069METAR MMLM 302040Z 32024KT 7SM BLDU SKC 22/M03 A3006 RMK SLP1710 HZY=",
"76361599999","2025-01-30T21:43:00","4","25.685194","-109.080806","4.87","VALLE DEL FUERTE INTERNATIONAL, MX","FM-15","99999","V020","320,1,N,0108,1","22000,1,9,N","011265,1,9,9","+0220,1","-0030,1","99999,9",,,,,"00,99,1,99,9,99,9,99999,9,99,9,99,9","10176,1,99999,9","09,1","MET055METAR MMLM 302143Z 32021KT 7SM VCBLDU SKC 22/M03 A3005=",
"76361599999","2025-01-30T22:44:00","4","25.685194","-109.080806","4.87","VALLE DEL FUERTE INTERNATIONAL, MX","FM-15","99999","V020","310,1,N,0103,1","22000,1,9,N","012875,1,9,9","+0210,1","-0020,1","99999,9",,,,,"00,99,1,99,9,99,9,99999,9,99,9,99,9","10169,1,99999,9","09,1","MET055METAR MMLM 302244Z 31020KT 8SM VCBLDU SKC 21/M02 A3003=",
"76361599999","2025-01-30T23:41:00","4","25.685194","-109.080806","4.87","VALLE DEL FUERTE INTERNATIONAL, MX","FM-15","99999","V020","310,1,N,0093,1","22000,1,9,N","012875,1,9,9","+0210,1","+0000,1","10161,1",,,,,"00,99,1,99,9,99,9,99999,9,99,9,99,9","10169,1,99999,9",,"MET063METAR MMLM 302341Z 31018KT 8SM SKC 21/00 A3003 RMK SLP1610 HZY=",
"76361599999","2025-01-31T00:40:00","4","25.685194","-109.080806","4.87","VALLE DEL FUERTE INTERNATIONAL, MX","FM-15","99999","V020","300,1,N,0088,1","22000,1,9,N","012875,1,9,9","+0180,1","+0050,1","99999,9",,,,,"00,99,1,99,9,99,9,99999,9,99,9,99,9","10173,1,99999,9",,"MET055METAR MMLM 310040Z 30017KT 8SM SKC 18/05 A3004 RMK HZY=",
"76361599999","2025-01-31T01:42:00","4","25.685194","-109.080806","4.87","VALLE DEL FUERTE INTERNATIONAL, MX","FM-15","99999","V020","290,1,N,0077,1","22000,1,9,N","012875,1,9,9","+0160,1","+0080,1","99999,9",,,,,"00,99,1,99,9,99,9,99999,9,99,9,99,9","10176,1,99999,9",,"MET055METAR MMLM 310142Z 29015KT 8SM SKC 16/08 A3005 RMK HZY=",
"76361599999","2025-01-31T02:46:00","4","25.685194","-109.080806","4.87","VALLE DEL FUERTE INTERNATIONAL, MX","FM-15","99999","V020","300,1,N,0072,1","22000,1,9,N","012875,1,9,9","+0150,1","+0080,1","10171,1",,,,,"00,99,1,99,9,99,9,99999,9,99,9,99,9","10179,1,99999,9",,"MET063METAR MMLM 310246Z 30014KT 8SM SKC 15/08 A3006 RMK SLP1710 HZY=",
"76361599999","2025-01-31T03:43:00","4","25.685194","-109.080806","4.87","VALLE DEL FUERTE INTERNATIONAL, MX","FM-15","99999","V020","300,1,N,0062,1","22000,1,9,N","012875,1,9,9","+0140,1","+0080,1","99999,9",,,,,"00,99,1,99,9,99,9,99999,9,99,9,99,9","10183,1,99999,9",,"MET055METAR MMLM 310343Z 30012KT 8SM SKC 14/08 A3007 RMK HZY=",
"76361599999","2025-01-31T14:08:00","4","25.685194","-109.080806","4.87","VALLE DEL FUERTE INTERNATIONAL, MX","FM-15","99999","V020","999,9,C,0000,1","22000,1,9,N","016093,1,9,9","+0070,1","+0050,1","99999,9",,,,,"00,99,1,99,9,99,9,99999,9,99,9,99,9","10179,1,99999,9",,"MET064METAR MMLM 311408Z RTD 00000KT 10SM SKC 07/05 A3006 RMK HZY RTS=",
"76361599999","2025-01-31T14:40:00","4","25.685194","-109.080806","4.87","VALLE DEL FUERTE INTERNATIONAL, MX","FM-15","99999","V020","290,1,N,0021,1","22000,1,9,N","016093,1,9,9","+0090,1","+0060,1","10183,1",,,,,"00,99,1,99,9,99,9,99999,9,99,9,99,9","10183,1,99999,9",,"MET063METAR MMLM 311440Z 29004KT 10SM SKC 09/06 A3007 RMK SLP183 HZY=",
"76361599999","2025-01-31T15:40:00","4","25.685194","-109.080806","4.87","VALLE DEL FUERTE INTERNATIONAL, MX","FM-15","99999","V020","310,1,N,0062,1","22000,1,9,N","016093,1,9,9","+0130,1","+0080,1","99999,9",,,,,"00,99,1,99,9,99,9,99999,9,99,9,99,9","10190,1,99999,9",,"MET056METAR MMLM 311540Z 31012KT 10SM SKC 13/08 A3009 RMK HZY=",
"76361599999","2025-01-31T16:43:00","4","25.685194","-109.080806","4.87","VALLE DEL FUERTE INTERNATIONAL, MX","FM-15","99999","V020","310,1,N,0082,1","22000,1,9,N","016093,1,9,9","+0170,1","+0060,1","99999,9",,,,,"00,99,1,99,9,99,9,99999,9,99,9,99,9","10193,1,99999,9",,"MET056METAR MMLM 311643Z 31016KT 10SM SKC 17/06 A3010 RMK HZY=",
"76361599999","2025-01-31T17:40:00","4","25.685194","-109.080806","4.87","VALLE DEL FUERTE INTERNATIONAL, MX","FM-15","99999","V020","320,1,N,0077,1","22000,1,9,N","016093,1,9,9","+0200,1","+0040,1","10181,1",,,,,"00,99,1,99,9,99,9,99999,9,99,9,99,9","10190,1,99999,9",,"MET064METAR MMLM 311740Z 32015KT 10SM SKC 20/04 A3009 RMK SLP1810 HZY=",
"76361599999","2025-01-31T18:40:00","4","25.685194","-109.080806","4.87","VALLE DEL FUERTE INTERNATIONAL, MX","FM-15","99999","V020","310,1,N,0072,1","22000,1,9,N","016093,1,9,9","+0220,1","+0030,1","99999,9",,,,,"00,99,1,99,9,99,9,99999,9,99,9,99,9","10179,1,99999,9",,"MET056METAR MMLM 311840Z 31014KT 10SM SKC 22/03 A3006 RMK HZY=",
"76361599999","2025-01-31T19:40:00","4","25.685194","-109.080806","4.87","VALLE DEL FUERTE INTERNATIONAL, MX","FM-15","99999","V020","300,1,N,0077,1","22000,1,9,N","016093,1,9,9","+0230,1","+0020,1","99999,9",,,,,"00,99,1,99,9,99,9,99999,9,99,9,99,9","10173,1,99999,9",,"MET056METAR MMLM 311940Z 30015KT 10SM SKC 23/02 A3004 RMK HZY=",
"76361599999","2025-01-31T21:45:00","4","25.685194","-109.080806","4.87","VALLE DEL FUERTE INTERNATIONAL, MX","FM-15","99999","V020","300,1,N,0103,1","22000,1,9,N","016093,1,9,9","+0230,1","+0000,1","99999,9",,,,,"00,99,1,99,9,99,9,99999,9,99,9,99,9","10156,1,99999,9",,"MET048METAR MMLM 312145Z 30020KT 10SM SKC 23/00 A2999=",
"76361599999","2025-01-31T22:49:00","4","25.685194","-109.080806","4.87","VALLE DEL FUERTE INTERNATIONAL, MX","FM-15","99999","V020","310,1,N,0098,1","22000,1,9,N","016093,1,9,9","+0220,1","+0040,1","99999,9",,,,,"00,99,1,99,9,99,9,99999,9,99,9,99,9","10152,1,99999,9",,"MET048METAR MMLM 312249Z 31019KT 10SM SKC 22/04 A2998=",
"76361599999","2025-01-31T23:42:00","4","25.685194","-109.080806","4.87","VALLE DEL FUERTE INTERNATIONAL, MX","FM-15","99999","V020","290,1,N,0088,1","22000,1,9,N","016093,1,9,9","+0210,1","+0060,1","10153,1",,,,,"00,99,1,99,9,99,9,99999,9,99,9,99,9","10152,1,99999,9",,"MET059METAR MMLM 312342Z 29017KT 10SM SKC 21/06 A2998 RMK SLP153=",
"76361599999","2025-02-01T00:46:00","4","25.685194","-109.080806","4.87","VALLE DEL FUERTE INTERNATIONAL, MX","FM-15","99999","V020","300,1,N,0067,1","22000,1,9,N","016093,1,9,9","+0190,1","+0060,1","99999,9",,,,,"00,99,1,99,9,99,9,99999,9,99,9,99,9","10156,1,99999,9",,"MET048METAR MMLM 010046Z 30013KT 10SM SKC 19/06 A2999=",
"76361599999","2025-02-01T01:42:00","4","25.685194","-109.080806","4.87","VALLE DEL FUERTE INTERNATIONAL, MX","FM-15","99999","V020","290,1,N,0057,1","22000,1,9,N","016093,1,9,9","+0160,1","+0080,1","99999,9",,,,,"00,99,1,99,9,99,9,99999,9,99,9,99,9","10159,1,99999,9",,"MET048METAR MMLM 010142Z 29011KT 10SM SKC 16/08 A3000=",
"76361599999","2025-02-01T02:42:00","4","25.685194","-109.080806","4.87","VALLE DEL FUERTE INTERNATIONAL, MX","FM-15","99999","V020","280,1,N,0046,1","22000,1,9,N","016093,1,9,9","+0140,1","+0090,1","10166,1",,,,,"00,99,1,99,9,99,9,99999,9,99,9,99,9","10166,1,99999,9",,"MET059METAR MMLM 010242Z 28009KT 10SM SKC 14/09 A3002 RMK SLP166=",
"76361599999","2025-02-01T03:41:00","4","25.685194","-109.080806","4.87","VALLE DEL FUERTE INTERNATIONAL, MX","FM-15","99999","V020","290,1,N,0041,1","22000,1,9,N","016093,1,9,9","+0130,1","+0090,1","99999,9",,,,,"00,99,1,99,9,99,9,99999,9,99,9,99,9","10169,1,99999,9",,"MET048METAR MMLM 010341Z 29008KT 10SM SKC 13/09 A3003=",
"76361599999","2025-02-01T14:11:00","4","25.685194","-109.080806","4.87","VALLE DEL FUERTE INTERNATIONAL, MX","FM-15","99999","V020","999,9,C,0000,1","00061,1,W,N","000000,1,9,9","+0080,1","+0070,1","99999,9","09,1,+00061,1,99,9",,,"9,AGL   ,+99999,+99999","09,99,1,09,1,99,9,00061,1,99,9,99,9","10166,1,99999,9","44,1","MET070METAR MMLM 011411Z RTD 00000KT 0SM FG VV002 08/07 A3002 RMK 8//// RTS=",
"76361599999","2025-02-01T14:40:00","4","25.685194","-109.080806","4.87","VALLE DEL FUERTE INTERNATIONAL, MX","FM-15","99999","V020","999,9,C,0000,1","00061,1,W,N","000000,1,9,9","+0090,1","+0080,1","10161,1","09,1,+00061,1,99,9",,,"9,AGL   ,+99999,+99999","09,99,1,09,1,99,9,00061,1,99,9,99,9","10169,1,99999,9","44,1","MET070METAR MMLM 011440Z 00000KT 0SM FG VV002 09/08 A3003 RMK SLP1610 8////=",
"76361599999","2025-02-01T15:41:00","4","25.685194","-109.080806","4.87","VALLE DEL FUERTE INTERNATIONAL, MX","FM-15","99999","V020","300,1,N,0021,1","00061,1,W,N","000000,1,9,9","+0100,1","+0100,1","99999,9","09,1,+00061,1,99,9",,,"9,AGL   ,+99999,+99999","09,99,1,09,1,99,9,00061,1,99,9,99,9","10176,1,99999,9","44,1","MET062METAR MMLM 011541Z 30004KT 0SM FG VV002 10/10 A3005 RMK 8////=",
"76361599999","2025-02-01T16:12:00","4","25.685194","-109.080806","4.87","VALLE DEL FUERTE INTERNATIONAL, MX","FM-16","99999","V020","300,1,N,0031,1","22000,1,9,N","006437,1,9,9","+0120,1","+0120,1","99999,9",,,,,"00,99,1,99,9,99,9,99999,9,99,9,99,9","10176,1,99999,9","11,1","MET067SPECI MMLM 011612Z 30006KT 4SM BCFG SKC 12/12 A3005 RMK VSBY LWR E=",
"76361599999","2025-02-01T16:46:00","4","25.685194","-109.080806","4.87","VALLE DEL FUERTE INTERNATIONAL, MX","FM-15","99999","V020","300,1,N,0057,1","22000,1,9,N","009656,1,9,9","+0160,1","+0130,1","99999,9",,,,,"00,99,1,99,9,99,9,99999,9,99,9,99,9","10179,1,99999,9","40,1","MET052METAR MMLM 011646Z 30011KT 6SM VCFG SKC 16/13 A3006=",
"76361599999","2025-02-01T17:40:00","4","25.685194","-109.080806","4.87","VALLE DEL FUERTE INTERNATIONAL, MX","FM-15","99999","V020","310,1,N,0051,1","22000,1,9,N","012875,1,9,9","+0200,1","+0120,1","10177,1",,,,,"00,99,1,99,9,99,9,99999,9,99,9,99,9","10176,1,99999,9",,"MET062METAR MMLM 011740Z 31010KT 8SM SKC 20/12 A3005 RMK SLP177 HZY=",
"76361599999","2025-02-01T18:42:00","4","25.685194","-109.080806","4.87","VALLE DEL FUERTE INTERNATIONAL, MX","FM-15","99999","V020","360,1,N,0021,1","22000,1,9,N","012875,1,9,9","+0220,1","+0080,1","99999,9",,,,,"00,99,1,99,9,99,9,99999,9,99,9,99,9","10169,1,99999,9",,"MET055METAR MMLM 011842Z 36004KT 8SM SKC 22/08 A3003 RMK HZY=",
"76361599999","2025-02-01T19:42:00","4","25.685194","-109.080806","4.87","VALLE DEL FUERTE INTERNATIONAL, MX","FM-15","99999","V020","340,1,N,0021,1","22000,1,9,N","012875,1,9,9","+0240,1","+0070,1","99999,9",,,,,"00,99,1,99,9,99,9,99999,9,99,9,99,9","10159,1,99999,9",,"MET055METAR MMLM 011942Z 34004KT 8SM SKC 24/07 A3000 RMK HZY=",
"76361599999","2025-02-01T20:44:00","4","25.685194","-109.080806","4.87","VALLE DEL FUERTE INTERNATIONAL, MX","FM-15","99999","V020","330,1,N,0021,1","22000,1,9,N","012875,1,9,9","+0250,1","+0060,1","10149,1",,,,,"00,99,1,99,9,99,9,99999,9,99,9,99,9","10149,1,99999,9",,"MET058METAR MMLM 012044Z 33004KT 8SM SKC 25/06 A2997 RMK SLP149=",
"76361599999","2025-02-01T21:52:00","4","25.685194","-109.080806","4.87","VALLE DEL FUERTE INTERNATIONAL, MX","FM-15","99999","V020","290,1,N,0067,1","22000,1,9,N","016093,1,9,9","+0250,1","+0060,1","99999,9",,,,,"00,99,1,99,9,99,9,99999,9,99,9,99,9","10146,1,99999,9",,"MET048METAR MMLM 012152Z 29013KT 10SM SKC 25/06 A2996=",
"76361599999","2025-02-01T22:44:00","4","25.685194","-109.080806","4.87","VALLE DEL FUERTE INTERNATIONAL, MX","FM-15","99999","V020","290,1,N,0057,1","22000,1,9,N","016093,1,9,9","+0250,1","+0070,1","99999,9",,,,,"00,99,1,99,9,99,9,99999,9,99,9,99,9","10142,1,99999,9",,"MET048METAR MMLM 012244Z 29011KT 10SM SKC 25/07 A2995=",
"76361599999","2025-02-01T23:41:00","4","25.685194","-109.080806","4.87","VALLE DEL FUERTE INTERNATIONAL, MX","FM-15","99999","V020","290,1,N,0072,1","22000,1,9,N","016093,1,9,9","+0230,1","+0090,1","10146,1",,,,,"00,99,1,99,9,99,9,99999,9,99,9,99,9","10146,1,99999,9",,"MET059METAR MMLM 012341Z 29014KT 10SM SKC 23/09 A2996 RMK SLP146=",
"76361599999","2025-02-02T00:44:00","4","25.685194","-109.080806","4.87","VALLE DEL FUERTE INTERNATIONAL, MX","FM-15","99999","V020","290,1,N,0077,1","22000,1,9,N","016093,1,9,9","+0200,1","+0100,1","99999,9",,,,,"00,99,1,99,9,99,9,99999,9,99,9,99,9","10146,1,99999,9",,"MET048METAR MMLM 020044Z 29015KT 10SM SKC 20/10 A2996=",
"76361599999","2025-02-02T01:49:00","4","25.685194","-109.080806","4.87","VALLE DEL FUERTE INTERNATIONAL, MX","FM-15","99999","V020","280,1,N,0036,1","22000,1,9,N","016093,1,9,9","+0170,1","+0100,1","99999,9",,,,,"00,99,1,99,9,99,9,99999,9,99,9,99,9","10152,1,99999,9",,"MET060METAR MMLM 020149Z 28007KT 10SM SKC 17/10 A2998 RMK ISOL CI=",
"76361599999","2025-02-02T02:45:00","4","25.685194","-109.080806","4.87","VALLE DEL FUERTE INTERNATIONAL, MX","FM-15","99999","V020","290,1,N,0031,1","22000,1,9,N","016093,1,9,9","+0150,1","+0100,1","10151,1",,,,,"00,99,1,99,9,99,9,99999,9,99,9,99,9","10159,1,99999,9",,"MET060METAR MMLM 020245Z 29006KT 10SM SKC 15/10 A3000 RMK SLP1510=",
"76361599999","2025-02-02T03:44:00","4","25.685194","-109.080806","4.87","VALLE DEL FUERTE INTERNATIONAL, MX","FM-15","99999","V020","250,1,N,0026,1","22000,1,9,N","012875,1,9,9","+0130,1","+0100,1","99999,9",,,,,"00,99,1,99,9,99,9,99999,9,99,9,99,9","10156,1,99999,9",,"MET047METAR MMLM 020344Z 25005KT 8SM SKC 13/10 A2999=",
"76361599999","2025-02-02T14:07:00","4","25.685194","-109.080806","4.87","VALLE DEL FUERTE INTERNATIONAL, MX","FM-15","99999","V020","999,9,C,0000,1","00091,1,W,N","000000,1,9,9","+0070,1","+0060,1","99999,9","09,1,+00091,1,99,9",,,"9,AGL   ,+99999,+99999","09,99,1,09,1,99,9,00091,1,99,9,99,9","10163,1,99999,9","44,1","MET070METAR MMLM 021407Z RTD 00000KT 0SM FG VV003 07/06 A3001 RMK 8//// RTS=",
"76361599999","2025-02-02T14:45:00","4","25.685194","-109.080806","4.87","VALLE DEL FUERTE INTERNATIONAL, MX","FM-15","99999","V020","999,9,C,0000,1","22000,1,9,N","002414,1,9,9","+0070,1","+0060,1","10163,1",,,,,"00,99,1,99,9,99,9,99999,9,99,9,99,9","10163,1,99999,9","10,1","MET065METAR MMLM 021445Z 00000KT 1 1/2SM BR SKC 07/06 A3001 RMK SLP163=",
"76361599999","2025-02-02T15:02:00","4","25.685194","-109.080806","4.87","VALLE DEL FUERTE INTERNATIONAL, MX","FM-16","99999","V020","999,9,C,0000,1","22000,1,9,N","004828,1,9,9","+0080,1","+0080,1","99999,9",,,,,"00,99,1,99,9,99,9,99999,9,99,9,99,9","10166,1,99999,9","10,1","MET071SPECI MMLM 021502Z 00000KT 3SM BR SKC 08/08 A3002 RMK VSBY LWR E AND W=",
"76361599999","2025-02-02T15:42:00","4","25.685194","-109.080806","4.87","VALLE DEL FUERTE INTERNATIONAL, MX","FM-15","99999","V020","999,9,C,0000,1","22000,1,9,N","008047,1,9,9","+0120,1","+0110,1","99999,9",,,,,"00,99,1,99,9,99,9,99999,9,99,9,99,9","10169,1,99999,9","40,1","MET052METAR MMLM 021542Z 00000KT 5SM VCFG SKC 12/11 A3003=",
"76361599999","2025-02-02T16:52:00","4","25.685194","-109.080806","4.87","VALLE DEL FUERTE INTERNATIONAL, MX","FM-15","99999","V020","320,1,N,0021,1","22000,1,9,N","011265,1,9,9","+0180,1","+0120,1","99999,9",,,,,"00,99,1,99,9,99,9,99999,9,99,9,99,9","10173,1,99999,9",,"MET047METAR MMLM 021652Z 32004KT 7SM SKC 18/12 A3004=",
"76361599999","2025-02-02T17:41:00","4","25.685194","-109.080806","4.87","VALLE DEL FUERTE INTERNATIONAL, MX","FM-15","99999","V020","999,9,C,0000,1","22000,1,9,N","012875,1,9,9","+0220,1","+0100,1","10166,1",,,,,"00,99,1,99,9,99,9,99999,9,99,9,99,9","10166,1,99999,9",,"MET062METAR MMLM 021741Z 00000KT 8SM SKC 22/10 A3002 RMK SLP166 HZY=",
"76361599999","2025-02-02T18:45:00","4","25.685194","-109.080806","4.87","VALLE DEL FUERTE INTERNATIONAL, MX","FM-15","99999","V020","999,9,C,0000,1","22000,1,9,N","012875,1,9,9","+0250,1","+0070,1","99999,9",,,,,"00,99,1,99,9,99,9,99999,9,99,9,99,9","10163,1,99999,9",,"MET047METAR MMLM 021845Z 00000KT 8SM SKC 25/07 A3001=",
"76361599999","2025-02-02T19:53:00","4","25.685194","-109.080806","4.87","VALLE DEL FUERTE INTERNATIONAL, MX","FM-15","99999","V020","290,1,N,0031,1","22000,1,9,N","016093,1,9,9","+0270,1","+0060,1","99999,9",,,,,"00,99,1,99,9,99,9,99999,9,99,9,99,9","10156,1,99999,9",,"MET048METAR MMLM 021953Z 29006KT 10SM SKC 27/06 A2999=",
"76361599999","2025-02-02T20:40:00","4","25.685194","-109.080806","4.87","VALLE DEL FUERTE INTERNATIONAL, MX","FM-15","99999","V020","250,1,N,0036,1","22000,1,9,N","016093,1,9,9","+0270,1","+0130,1","10146,1",,,,,"00,99,1,99,9,99,9,99999,9,99,9,99,9","10146,1,99999,9",,"MET059METAR MMLM 022040Z 25007KT 10SM SKC 27/13 A2996 RMK SLP146=",
"76361599999","2025-02-02T21:44:00","4","25.685194","-109.080806","4.87","VALLE DEL FUERTE INTERNATIONAL, MX","FM-15","99999","V020","260,1,N,0062,1","22000,1,9,N","016093,1,9,9","+0270,1","+0090,1","99999,9",,,,,"00,99,1,99,9,99,9,99999,9,99,9,99,9","10142,1,99999,9",,"MET048METAR MMLM 022144Z 26012KT 10SM SKC 27/09 A2995=",
"76361599999","2025-02-02T22:46:00","4","25.685194","-109.080806","4.87","VALLE DEL FUERTE INTERNATIONAL, MX","FM-15","99999","V020","260,1,N,0062,1","22000,1,9,N","016093,1,9,9","+0260,1","+0050,1","99999,9",,,,,"00,99,1,99,9,99,9,99999,9,99,9,99,9","10139,1,99999,9",,"MET048METAR MMLM 022246Z 26012KT 10SM SKC 26/05 A2994=",
"76361599999","2025-02-02T23:48:00","4","25.685194","-109.080806","4.87","VALLE DEL FUERTE INTERNATIONAL, MX","FM-15","99999","V020","270,1,N,0046,1","22000,1,9,N","016093,1,9,9","+0260,1","+0020,1","10136,1",,,,,"00,99,1,99,9,99,9,99999,9,99,9,99,9","10135,1,99999,9",,"MET059METAR MMLM 022348Z 27009KT 10SM SKC 26/02 A2993 RMK SLP136=",
"76361599999","2025-02-03T00:40:00","4","25.685194","-109.080806","4.87","VALLE DEL FUERTE INTERNATIONAL, MX","FM-15","99999","V020","270,1,N,0051,1","22000,1,9,N","016093,1,9,9","+0240,1","+0010,1","99999,9",,,,,"00,99,1,99,9,99,9,99999,9,99,9,99,9","10139,1,99999,9",,"MET048METAR MMLM 030040Z 27010KT 10SM SKC 24/01 A2994=",
"76361599999","2025-02-03T02:40:00","4","25.685194","-109.080806","4.87","VALLE DEL FUERTE INTERNATIONAL, MX","FM-15","99999","V020","260,1,N,0026,1","22000,1,9,N","016093,1,9,9","+0150,1","+0090,1","10143,1",,,,,"00,99,1,99,9,99,9,99999,9,99,9,99,9","10142,1,99999,9",,"MET059METAR MMLM 030240Z 26005KT 10SM SKC 15/09 A2995 RMK SLP143=",
"76361599999","2025-02-03T03:41:00","4","25.685194","-109.080806","4.87","VALLE DEL FUERTE INTERNATIONAL, MX","FM-15","99999","V020","250,1,N,0031,1","22000,1,9,N","012875,1,9,9","+0130,1","+0100,1","99999,9",,,,,"00,99,1,99,9,99,9,99999,9,99,9,99,9","10146,1,99999,9",,"MET055METAR MMLM 030341Z 25006KT 8SM SKC 13/10 A2996 RMK HZY=",
"76361599999","2025-02-03T14:42:00","4","25.685194","-109.080806","4.87","VALLE DEL FUERTE INTERNATIONAL, MX","FM-15","99999","V020","999,9,C,0000,1","06706,1,C,N","002012,1,9,9","+0100,1","+0100,1","10146,1","07,1,+06706,1,02,1",,,"9,AGL   ,+99999,+99999","99,99,9,07,1,99,9,06706,1,99,9,99,9","10146,1,99999,9","10,1","MET082METAR MMLM 031442Z 00000KT 1 1/4SM BR BKN220 10/10 A2996 RMK SLP146 8/008 HZY RTS=",
"76361599999","2025-02-03T14:48:00","4","25.685194","-109.080806","4.87","VALLE DEL FUERTE INTERNATIONAL, MX","FM-16","99999","V020","999,9,C,0000,1","06706,1,C,N","004828,1,9,9","+0110,1","+0100,1","99999,9","07,1,+06706,1,02,1",,,"9,AGL   ,+99999,+99999","99,99,9,07,1,99,9,06706,1,99,9,99,9","10146,1,99999,9","10,1","MET067SPECI MMLM 031448Z 00000KT 3SM BR BKN220 11/10 A2996 RMK 8/008 HZY=",
"76361599999","2025-02-03T15:44:00","4","25.685194","-109.080806","4.87","VALLE DEL FUERTE INTERNATIONAL, MX","FM-15","99999","V020","250,1,N,0026,1","06706,1,C,N","012875,1,9,9","+0140,1","+0130,1","99999,9","07,1,+06706,1,02,1",,,"9,AGL   ,+99999,+99999","99,99,9,07,1,99,9,06706,1,99,9,99,9","10152,1,99999,9",,"MET064METAR MMLM 031544Z 25005KT 8SM BKN220 14/13 A2998 RMK 8/008 HZY=",
"76361599999","2025-02-03T16:47:00","4","25.685194","-109.080806","4.87","VALLE DEL FUERTE INTERNATIONAL, MX","FM-15","99999","V020","999,9,C,0000,1","06706,1,C,N","016093,1,9,9","+0190,1","+0140,1","99999,9","07,1,+06706,1,02,1",,,"9,AGL   ,+99999,+99999","99,99,9,07,1,99,9,06706,1,99,9,99,9","10156,1,99999,9",,"MET065METAR MMLM 031647Z 00000KT 10SM BKN220 19/14 A2999 RMK 8/008 HZY=",
"76361599999","2025-02-03T17:40:00","4","25.685194","-109.080806","4.87","VALLE DEL FUERTE INTERNATIONAL, MX","FM-15","99999","V020","999,9,C,0000,1","06706,1,C,N","016093,1,9,9","+0230,1","+0100,1","10153,1","07,1,+06706,1,02,1",,,"9,AGL   ,+99999,+99999","99,99,9,07,1,99,9,06706,1,99,9,99,9","10152,1,99999,9",,"MET072METAR MMLM 031740Z 00000KT 10SM BKN220 23/10 A2998 RMK SLP153 8/008 HZY=",
"76361599999","2025-02-03T18:40:00","4","25.685194","-109.080806","4.87","VALLE DEL FUERTE INTERNATIONAL, MX","FM-15","99999","V020","060,1,N,0026,1","06706,1,C,N","016093,1,9,9","+0260,1","+0030,2","99999,9","07,1,+06706,1,02,1",,,"9,AGL   ,+99999,+99999","99,99,9,07,1,99,9,06706,1,99,9,99,9","10146,1,99999,9",,"MET065METAR MMLM 031840Z 06005KT 10SM BKN220 26/03 A2996 RMK 8/008 HZY=",
"76361599999","2025-02-03T19:40:00","4","25.685194","-109.080806","4.87","VALLE DEL FUERTE INTERNATIONAL, MX","FM-15","99999","V020","200,1,N,0026,1","06706,1,C,N","016093,1,9,9","+0280,2","+0040,1","99999,9","07,1,+06706,1,02,1",,,"9,AGL   ,+99999,+99999","99,99,9,07,1,99,9,06706,1,99,9,99,9","10139,1,99999,9",,"MET065METAR MMLM 031940Z 20005KT 10SM BKN220 28/04 A2994 RMK 8/008 HZY=",
"76361599999","2025-02-03T20:43:00","4","25.685194","-109.080806","4.87","VALLE DEL FUERTE INTERNATIONAL, MX","FM-15","99999","V020","220,1,N,0057,1","06706,1,C,N","016093,1,9,9","+0270,1","+0120,1","10126,1","07,1,+06706,1,02,1",,,"9,AGL   ,+99999,+99999","99,99,9,07,1,99,9,06706,1,99,9,99,9","10125,1,99999,9",,"MET072METAR MMLM 032043Z 22011KT 10SM BKN220 27/12 A2990 RMK SLP126 8/008 HZY=",
"76361599999","2025-02-03T21:40:00","4","25.685194","-109.080806","4.87","VALLE DEL FUERTE INTERNATIONAL, MX","FM-15","99999","V020","210,1,N,0051,1","06096,1,C,N","016093,1,9,9","+0250,1","+0130,1","99999,9","07,1,+06096,1,02,1",,,"9,AGL   ,+99999,+99999","99,99,9,07,1,99,9,06096,1,99,9,99,9","10122,1,99999,9",,"MET061METAR MMLM 032140Z 21010KT 10SM BKN200 25/13 A2989 RMK 8/008=",
"76361599999","2025-02-03T22:47:00","4","25.685194","-109.080806","4.87","VALLE DEL FUERTE INTERNATIONAL, MX","FM-15","99999","V020","250,1,N,0031,1","06706,1,C,N","016093,1,9,9","+0250,1","+0110,1","99999,9","07,1,+06706,1,02,1",,,"9,AGL   ,+99999,+99999","99,99,9,07,1,99,9,06706,1,99,9,99,9","10122,1,99999,9",,"MET061METAR MMLM 032247Z 25006KT 10SM BKN220 25/11 A2989 RMK 8/008=",
"76361599999","2025-02-03T23:41:00","4","25.685194","-109.080806","4.87","VALLE DEL FUERTE INTERNATIONAL, MX","FM-15","99999","V020","270,1,N,0046,1","06706,1,C,N","016093,1,9,9","+0240,1","+0090,1","10122,1","07,1,+06706,1,02,1",,,"9,AGL   ,+99999,+99999","99,99,9,07,1,99,9,06706,1,99,9,99,9","10122,1,99999,9",,"MET068METAR MMLM 032341Z 27009KT 10SM BKN220 24/09 A2989 RMK SLP122 8/008=",
"76361599999","2025-02-04T00:40:00","4","25.685194","-109.080806","4.87","VALLE DEL FUERTE INTERNATIONAL, MX","FM-15","99999","V020","260,1,N,0021,1","06706,1,C,N","016093,1,9,9","+0220,1","+0090,1","99999,9","07,1,+06706,1,02,1",,,"9,AGL   ,+99999,+99999","99,99,9,07,1,99,9,06706,1,99,9,99,9","10122,1,99999,9",,"MET061METAR MMLM 040040Z 26004KT 10SM BKN220 22/09 A2989 RMK 8/008=",
"76361599999","2025-02-04T01:40:00","4","25.685194","-109.080806","4.87","VALLE DEL FUERTE INTERNATIONAL, MX","FM-15","99999","V020","240,1,N,0031,1","99999,9,9,N","012875,1,9,9","+0180,1","+0100,1","99999,9","04,1,+06706,1,00,1",,,"9,AGL   ,+99999,+99999","99,99,9,04,1,99,9,06706,1,99,9,99,9","10129,1,99999,9",,"MET060METAR MMLM 040140Z 24006KT 8SM SCT220 18/10 A2991 RMK 8/001=",
"76361599999","2025-02-04T02:40:00","4","25.685194","-109.080806","4.87","VALLE DEL FUERTE INTERNATIONAL, MX","FM-15","99999","V020","240,1,N,0021,1","99999,9,9,N","012875,1,9,9","+0160,1","+0120,1","10136,1","04,1,+06706,1,00,1",,,"9,AGL   ,+99999,+99999","99,99,9,04,1,99,9,06706,1,99,9,99,9","10135,1,99999,9",,"MET067METAR MMLM 040240Z 24004KT 8SM SCT220 16/12 A2993 RMK SLP136 8/001=",
"76361599999","2025-02-04T03:43:00","4","25.685194","-109.080806","4.87","VALLE DEL FUERTE INTERNATIONAL, MX","FM-15","99999","V020","999,9,C,0000,1","99999,9,9,N","012875,1,9,9","+0160,1","+0130,1","99999,9","02,1,+06706,1,00,1",,,"9,AGL   ,+99999,+99999","99,99,9,02,1,99,9,06706,1,99,9,99,9","10139,1,99999,9",,"MET060METAR MMLM 040343Z 00000KT 8SM FEW220 16/13 A2994 RMK 8/001=",
"76361599999","2025-02-04T14:02:00","4","25.685194","-109.080806","4.87","VALLE DEL FUERTE INTERNATIONAL, MX","FM-15","99999","V020","060,1,N,0026,1","22000,1,9,N","004828,1,9,9","+0080,1","+0070,1","99999,9",,,,,"00,99,1,99,9,99,9,99999,9,99,9,99,9","10149,1,99999,9","10,1","MET066METAR MMLM 041402Z RTD 06005KT 3SM BR SKC 08/07 A2997 RMK HZY RTS=",
"76361599999","2025-02-04T14:40:00","4","25.685194","-109.080806","4.87","VALLE DEL FUERTE INTERNATIONAL, MX","FM-15","99999","V020","090,1,N,0036,1","22000,1,9,N","011265,1,9,9","+0100,1","+0080,1","10153,1",,,,,"00,99,1,99,9,99,9,99999,9,99,9,99,9","10152,1,99999,9",,"MET067METAR MMLM 041440Z 09007KT 7SM SKC 10/08 A2998 RMK SLP153 HZY BRVC=",
"76361599999","2025-02-04T16:52:00","4","25.685194","-109.080806","4.87","VALLE DEL FUERTE INTERNATIONAL, MX","FM-15","99999","V020","100,1,N,0026,1","22000,1,9,N","011265,1,9,9","+0200,1","+0100,1","99999,9",,,,,"00,99,1,99,9,99,9,99999,9,99,9,99,9","10159,1,99999,9",,"MET068METAR MMLM 041652Z 10005KT 7SM SKC 20/10 A3000 RMK HZY DSNT BC FG E=",
"76361599999","2025-02-04T17:52:00","4","25.685194","-109.080806","4.87","VALLE DEL FUERTE INTERNATIONAL, MX","FM-15","99999","V020","170,1,N,0026,1","22000,1,9,N","016093,1,9,9","+0240,1","+0040,1","10151,1",,,,,"00,99,1,99,9,99,9,99999,9,99,9,99,9","10159,1,99999,9",,"MET064METAR MMLM 041752Z 17005KT 10SM SKC 24/04 A3000 RMK SLP1510 HZY=",
"76361599999","2025-02-04T18:40:00","4","25.685194","-109.080806","4.87","VALLE DEL FUERTE INTERNATIONAL, MX","FM-15","99999","V020","170,1,N,0026,1","22000,1,9,N","016093,1,9,9","+0250,1","+0040,1","99999,9",,,,,"00,99,1,99,9,99,9,99999,9,99,9,99,9","10152,1,99999,9",,"MET056METAR MMLM 041840Z 17005KT 10SM SKC 25/04 A2998 RMK HZY=",
"76361599999","2025-02-04T19:40:00","4","25.685194","-109.080806","4.87","VALLE DEL FUERTE INTERNATIONAL, MX","FM-15","99999","V020","200,1,N,0031,1","22000,1,9,N","016093,1,9,9","+0270,2","+0020,1","99999,9",,,,,"00,99,1,99,9,99,9,99999,9,99,9,99,9","10149,1,99999,9",,"MET056METAR MMLM 041940Z 20006KT 10SM SKC 27/02 A2997 RMK HZY=",
"76361599999","2025-02-04T20:40:00","4","25.685194","-109.080806","4.87","VALLE DEL FUERTE INTERNATIONAL, MX","FM-15","99999","V020","220,1,N,0046,1","22000,1,9,N","016093,1,9,9","+0260,1","+0030,1","10143,1",,,,,"00,99,1,99,9,99,9,99999,9,99,9,99,9","10142,1,99999,9",,"MET063METAR MMLM 042040Z 22009KT 10SM SKC 26/03 A2995 RMK SLP143 HZY=",
"76361599999","2025-02-04T21:41:00","4","25.685194","-109.080806","4.87","VALLE DEL FUERTE INTERNATIONAL, MX","FM-15","99999","V020","210,1,N,0026,1","22000,1,9,N","016093,1,9,9","+0270,1","+0020,1","99999,9",,,,,"00,99,1,99,9,99,9,99999,9,99,9,99,9","10135,1,99999,9",,"MET048METAR MMLM 042141Z 21005KT 10SM SKC 27/02 A2993=",
"76361599999","2025-02-04T22:45:00","4","25.685194","-109.080806","4.87","VALLE DEL FUERTE INTERNATIONAL, MX","FM-15","99999","V020","240,1,N,0021,1","22000,1,9,N","016093,1,9,9","+0270,1","+0000,1","99999,9",,,,,"00,99,1,99,9,99,9,99999,9,99,9,99,9","10135,1,99999,9",,"MET048METAR MMLM 042245Z 24004KT 10SM SKC 27/00 A2993=",
"76361599999","2025-02-04T23:40:00","4","25.685194","-109.080806","4.87","VALLE DEL FUERTE INTERNATIONAL, MX","FM-15","99999","V020","220,1,N,0041,1","22000,1,9,N","016093,1,9,9","+0250,1","+0000,1","10136,1",,,,,"00,99,1,99,9,99,9,99999,9,99,9,99,9","10135,1,99999,9",,"MET059METAR MMLM 042340Z 22008KT 10SM SKC 25/00 A2993 RMK SLP136=",
"76361599999","2025-02-05T00:41:00","4","25.685194","-109.080806","4.87","VALLE DEL FUERTE INTERNATIONAL, MX","FM-15","99999","V020","230,1,N,0031,1","22000,1,9,N","016093,1,9,9","+0220,1","+0070,1","99999,9",,,,,"00,99,1,99,9,99,9,99999,9,99,9,99,9","10139,1,99999,9",,"MET048METAR MMLM 050041Z 23006KT 10SM SKC 22/07 A2994=",
"76361599999","2025-02-05T01:42:00","4","25.685194","-109.080806","4.87","VALLE DEL FUERTE INTERNATIONAL, MX","FM-15","99999","V020","999,9,C,0000,1","22000,1,9,N","016093,1,9,9","+0180,1","+0120,2","99999,9",,,,,"00,99,1,99,9,99,9,99999,9,99,9,99,9","10139,1,99999,9",,"MET048METAR MMLM 050142Z 00000KT 10SM SKC 18/12 A2994=",
"76361599999","2025-02-05T02:46:00","4","25.685194","-109.080806","4.87","VALLE DEL FUERTE INTERNATIONAL, MX","FM-15","99999","V020","999,9,C,0000,1","22000,1,9,N","012875,1,9,9","+0170,1","+0120,1","10143,1",,,,,"00,99,1,99,9,99,9,99999,9,99,9,99,9","10142,1,99999,9",,"MET058METAR MMLM 050246Z 00000KT 8SM SKC 17/12 A2995 RMK SLP143=",
"76361599999","2025-02-05T03:49:00","4","25.685194","-109.080806","4.87","VALLE DEL FUERTE INTERNATIONAL, MX","FM-15","99999","V020","999,9,C,0000,1","22000,1,9,N","012875,1,9,9","+0130,1","+0090,1","99999,9",,,,,"00,99,1,99,9,99,9,99999,9,99,9,99,9","10146,1,99999,9",,"MET047METAR MMLM 050349Z 00000KT 8SM SKC 13/09 A2996=",
"76361599999","2025-02-05T12:40:00","4","25.685194","-109.080806","4.87","VALLE DEL FUERTE INTERNATIONAL, MX","FM-15","99999","V020","260,1,N,0021,1","22000,1,9,N","011265,1,9,9","+0090,1","+0060,1","99999,9",,,,,"00,99,1,99,9,99,9,99999,9,99,9,99,9","10146,1,99999,9",,"MET055METAR MMLM 051240Z 26004KT 7SM SKC 09/06 A2996 RMK RTS=",
"76361599999","2025-02-05T14:40:00","4","25.685194","-109.080806","4.87","VALLE DEL FUERTE INTERNATIONAL, MX","FM-15","99999","V020","999,9,C,0000,1","22000,1,9,N","011265,1,9,9","+0100,1","+0050,1","10156,1",,,,,"00,99,1,99,9,99,9,99999,9,99,9,99,9","10156,1,99999,9",,"MET062METAR MMLM 051440Z 00000KT 7SM SKC 10/05 A2999 RMK SLP156 HZY=",
"76361599999","2025-02-05T15:40:00","4","25.685194","-109.080806","4.87","VALLE DEL FUERTE INTERNATIONAL, MX","FM-15","99999","V020","999,9,C,0000,1","22000,1,9,N","012875,1,9,9","+0160,1","+0060,1","99999,9",,,,,"00,99,1,99,9,99,9,99999,9,99,9,99,9","10159,1,99999,9",,"MET055METAR MMLM 051540Z 00000KT 8SM SKC 16/06 A3000 RMK HZY=",
"76361599999","2025-02-05T16:47:00","4","25.685194","-109.080806","4.87","VALLE DEL FUERTE INTERNATIONAL, MX","FM-15","99999","V020","090,1,N,0021,1","22000,1,9,N","012875,1,9,9","+0210,1","+0040,1","99999,9",,,,,"00,99,1,99,9,99,9,99999,9,99,9,99,9","10159,1,99999,9",,"MET055METAR MMLM 051647Z 09004KT 8SM SKC 21/04 A3000 RMK HZY=",
"76361599999","2025-02-05T17:40:00","4","25.685194","-109.080806","4.87","VALLE DEL FUERTE INTERNATIONAL, MX","FM-15","99999","V020","999,9,C,0000,1","22000,1,9,N","016093,1,9,9","+0250,1","+0020,1","10151,1",,,,,"00,99,1,99,9,99,9,99999,9,99,9,99,9","10159,1,99999,9",,"MET064METAR MMLM 051740Z 00000KT 10SM SKC 25/02 A3000 RMK SLP1510 HZY=",
"76361599999","2025-02-05T18:40:00","4","25.685194","-109.080806","4.87","VALLE DEL FUERTE INTERNATIONAL, MX","FM-15","99999","V020","999,9,C,0000,1","22000,1,9,N","016093,1,9,9","+0260,1","+0030,1","99999,9",,,,,"00,99,1,99,9,99,9,99999,9,99,9,99,9","10156,1,99999,9",,"MET056METAR MMLM 051840Z 00000KT 10SM SKC 26/03 A2999 RMK HZY=",
"76361599999","2025-02-05T19:40:00","4","25.685194","-109.080806","4.87","VALLE DEL FUERTE INTERNATIONAL, MX","FM-15","99999","V020","999,9,C,0000,1","22000,1,9,N","016093,1,9,9","+0260,1","+0030,1","99999,9",,,,,"00,99,1,99,9,99,9,99999,9,99,9,99,9","10156,1,99999,9",,"MET056METAR MMLM 051940Z 00000KT 10SM SKC 26/03 A2999 RMK HZY=",
"76361599999","2025-02-05T20:43:00","4","25.685194","-109.080806","4.87","VALLE DEL FUERTE INTERNATIONAL, MX","FM-15","99999","V020","240,1,N,0041,1","22000,1,9,N","016093,1,9,9","+0280,1","+0080,1","10132,1",,,,,"00,99,1,99,9,99,9,99999,9,99,9,99,9","10132,1,99999,9",,"MET063METAR MMLM 052043Z 24008KT 10SM SKC 28/08 A2992 RMK SLP132 HZY=",
"76361599999","2025-02-05T21:44:00","4","25.685194","-109.080806","4.87","VALLE DEL FUERTE INTERNATIONAL, MX","FM-15","99999","V020","250,1,N,0046,1","22000,1,9,N","016093,1,9,9","+0280,1","+0060,1","99999,9",,,,,"00,99,1,99,9,99,9,99999,9,99,9,99,9","10125,1,99999,9",,"MET048METAR MMLM 052144Z 25009KT 10SM SKC 28/06 A2990=",
"76361599999","2025-02-05T22:45:00","4","25.685194","-109.080806","4.87","VALLE DEL FUERTE INTERNATIONAL, MX","FM-15","99999","V020","250,1,N,0057,1","22000,1,9,N","016093,1,9,9","+0270,1","+0070,1","99999,9",,,,,"00,99,1,99,9,99,9,99999,9,99,9,99,9","10122,1,99999,9",,"MET048METAR MMLM 052245Z 25011KT 10SM SKC 27/07 A2989=",
"76361599999","2025-02-05T23:46:00","4","25.685194","-109.080806","4.87","VALLE DEL FUERTE INTERNATIONAL, MX","FM-15","99999","V020","260,1,N,0051,1","22000,1,9,N","016093,1,9,9","+0260,1","+0060,1","10122,1",,,,,"00,99,1,99,9,99,9,99999,9,99,9,99,9","10122,1,99999,9",,"MET059METAR MMLM 052346Z 26010KT 10SM SKC 26/06 A2989 RMK SLP122=",
"76361599999","2025-02-06T00:41:00","4","25.685194","-109.080806","4.87","VALLE DEL FUERTE INTERNATIONAL, MX","FM-15","99999","V020","290,1,N,0046,1","22000,1,9,N","016093,1,9,9","+0250,1","+0000,1","99999,9",,,,,"00,99,1,99,9,99,9,99999,9,99,9,99,9","10125,1,99999,9",,"MET048METAR MMLM 060041Z 29009KT 10SM SKC 25/00 A2990=",
"76361599999","2025-02-06T01:40:00","4","25.685194","-109.080806","4.87","VALLE DEL FUERTE INTERNATIONAL, MX","FM-15","99999","V020","280,1,N,0036,1","22000,1,9,N","016093,1,9,9","+0200,1","+0030,1","99999,9",,,,,"00,99,1,99,9,99,9,99999,9,99,9,99,9","10125,1,99999,9",,"MET048METAR MMLM 060140Z 28007KT 10SM SKC 20/03 A2990=",
"76361599999","2025-02-06T02:42:00","4","25.685194","-109.080806","4.87","VALLE DEL FUERTE INTERNATIONAL, MX","FM-15","99999","V020","270,1,N,0021,1","22000,1,9,N","016093,1,9,9","+0170,1","+0070,1","10132,1",,,,,"00,99,1,99,9,99,9,99999,9,99,9,99,9","10132,1,99999,9",,"MET059METAR MMLM 060242Z 27004KT 10SM SKC 17/07 A2992 RMK SLP132=",
"76361599999","2025-02-06T03:41:00","4","25.685194","-109.080806","4.87","VALLE DEL FUERTE INTERNATIONAL, MX","FM-15","99999","V020","250,1,N,0010,1","22000,1,9,N","016093,1,9,9","+0150,1","+0070,1","99999,9",,,,,"00,99,1,99,9,99,9,99999,9,99,9,99,9","10135,1,99999,9",,"MET048METAR MMLM 060341Z 25002KT 10SM SKC 15/07 A2993=",
"76361599999","2025-02-06T14:07:00","4","25.685194","-109.080806","4.87","VALLE DEL FUERTE INTERNATIONAL, MX","FM-15","99999","V020","250,1,N,0015,1","22000,1,9,N","000201,1,9,9","+0100,1","+0090,1","99999,9",,,,,"00,99,1,99,9,99,9,99999,9,99,9,99,9","10152,1,99999,9","12,1","MET070METAR MMLM 061407Z RTD 25003KT 1/8SM MIFG SKC 10/09 A2998 RMK HZY RTS=",
"76361599999","2025-02-06T14:42:00","4","25.685194","-109.080806","4.87","VALLE DEL FUERTE INTERNATIONAL, MX","FM-15","99999","V020","260,1,N,0015,1","22000,1,9,N","001207,1,9,9","+0090,1","+0090,1","10151,1",,,,,"00,99,1,99,9,99,9,99999,9,99,9,99,9","10159,1,99999,9","11,1","MET070METAR MMLM 061442Z 26003KT 3/4SM BCFG SKC 09/09 A3000 RMK SLP1510 HZY=",
"76361599999","2025-02-06T15:10:00","4","25.685194","-109.080806","4.87","VALLE DEL FUERTE INTERNATIONAL, MX","FM-16","99999","V020","270,1,N,0010,1","22000,1,9,N","009656,1,9,9","+0120,1","+0110,1","99999,9",,,,,"00,99,1,99,9,99,9,99999,9,99,9,99,9","10163,1,99999,9",,"MET060SPECI MMLM 061510Z 27002KT 6SM SKC 12/11 A3001 RMK HZY BRVC=",
"76361599999","2025-02-06T15:40:00","4","25.685194","-109.080806","4.87","VALLE DEL FUERTE INTERNATIONAL, MX","FM-15","99999","V020","350,1,N,0015,1","22000,1,9,N","012875,1,9,9","+0140,1","+0130,1","99999,9",,,,,"00,99,1,99,9,99,9,99999,9,99,9,99,9","10166,1,99999,9",,"MET060METAR MMLM 061540Z 35003KT 8SM SKC 14/13 A3002 RMK HZY BRVC=",
"76361599999","2025-02-06T16:40:00","4","25.685194","-109.080806","4.87","VALLE DEL FUERTE INTERNATIONAL, MX","FM-15","99999","V020","999,9,C,0000,1","22000,1,9,N","016093,1,9,9","+0200,1","+0080,1","99999,9",,,,,"00,99,1,99,9,99,9,99999,9,99,9,99,9","10169,1,99999,9",,"MET056METAR MMLM 061640Z 00000KT 10SM SKC 20/08 A3003 RMK HZY=",
"76361599999","2025-02-06T17:40:00","4","25.685194","-109.080806","4.87","VALLE DEL FUERTE INTERNATIONAL, MX","FM-15","99999","V020","100,1,N,0026,1","22000,1,9,N","016093,1,9,9","+0240,1","+0060,1","10161,1",,,,,"00,99,1,99,9,99,9,99999,9,99,9,99,9","10169,1,99999,9",,"MET064METAR MMLM 061740Z 10005KT 10SM SKC 24/06 A3003 RMK SLP1610 HZY=",
"76361599999","2025-02-06T18:40:00","4","25.685194","-109.080806","4.87","VALLE DEL FUERTE INTERNATIONAL, MX","FM-15","99999","V020","100,1,N,0031,1","22000,1,9,N","016093,1,9,9","+0260,1","+0040,1","99999,9",,,,,"00,99,1,99,9,99,9,99999,9,99,9,99,9","10166,1,99999,9",,"MET056METAR MMLM 061840Z 10006KT 10SM SKC 26/04 A3002 RMK HZY=",
"76361599999","2025-02-06T19:40:00","4","25.685194","-109.080806","4.87","VALLE DEL FUERTE INTERNATIONAL, MX","FM-15","99999","V020","170,1,N,0036,1","22000,1,9,N","016093,1,9,9","+0280,1","+0030,1","99999,9",,,,,"00,99,1,99,9,99,9,99999,9,99,9,99,9","10152,1,99999,9",,"MET056METAR MMLM 061940Z 17007KT 10SM SKC 28/03 A2998 RMK HZY=",
"76361599999","2025-02-06T20:41:00","4","25.685194","-109.080806","4.87","VALLE DEL FUERTE INTERNATIONAL, MX","FM-15","99999","V020","210,1,N,0046,1","22000,1,9,N","016093,1,9,9","+0280,1","+0100,1","10143,1",,,,,"00,99,1,99,9,99,9,99999,9,99,9,99,9","10142,1,99999,9",,"MET063METAR MMLM 062041Z 21009KT 10SM SKC 28/10 A2995 RMK SLP143 HZY=",
"76361599999","2025-02-06T21:45:00","4","25.685194","-109.080806","4.87","VALLE DEL FUERTE INTERNATIONAL, MX","FM-15","99999","V020","220,1,N,0031,1","22000,1,9,N","016093,1,9,9","+0280,1","+0080,1","99999,9",,,,,"00,99,1,99,9,99,9,99999,9,99,9,99,9","10135,1,99999,9",,"MET048METAR MMLM 062145Z 22006KT 10SM SKC 28/08 A2993=",
"76361599999","2025-02-06T22:41:00","4","25.685194","-109.080806","4.87","VALLE DEL FUERTE INTERNATIONAL, MX","FM-15","99999","V020","230,1,N,0051,1","22000,1,9,N","016093,1,9,9","+0280,1","+0050,1","99999,9",,,,,"00,99,1,99,9,99,9,99999,9,99,9,99,9","10132,1,99999,9",,"MET048METAR MMLM 062241Z 23010KT 10SM SKC 28/05 A2992=",
"76361599999","2025-02-06T23:41:00","4","25.685194","-109.080806","4.87","VALLE DEL FUERTE INTERNATIONAL, MX","FM-15","99999","V020","240,1,N,0046,1","22000,1,9,N","016093,1,9,9","+0280,1","+0000,1","10132,1",,,,,"00,99,1,99,9,99,9,99999,9,99,9,99,9","10132,1,99999,9",,"MET059METAR MMLM 062341Z 24009KT 10SM SKC 28/00 A2992 RMK SLP132=",
"76361599999","2025-02-07T00:43:00","4","25.685194","-109.080806","4.87","VALLE DEL FUERTE INTERNATIONAL, MX","FM-15","99999","V020","260,1,N,0046,1","22000,1,9,N","016093,1,9,9","+0250,1","+0110,2","99999,9",,,,,"00,99,1,99,9,99,9,99999,9,99,9,99,9","10132,1,99999,9",,"MET048METAR MMLM 070043Z 26009KT 10SM SKC 25/11 A2992=",
"76361599999","2025-02-07T01:42:00","4","25.685194","-109.080806","4.87","VALLE DEL FUERTE INTERNATIONAL, MX","FM-15","99999","V020","280,1,N,0041,1","22000,1,9,N","016093,1,9,9","+0210,1","+0080,1","99999,9",,,,,"00,99,1,99,9,99,9,99999,9,99,9,99,9","10135,1,99999,9",,"MET048METAR MMLM 070142Z 28008KT 10SM SKC 21/08 A2993=",
"76361599999","2025-02-07T02:41:00","4","25.685194","-109.080806","4.87","VALLE DEL FUERTE INTERNATIONAL, MX","FM-15","99999","V020","250,1,N,0015,1","22000,1,9,N","016093,1,9,9","+0180,1","+0070,1","10143,1",,,,,"00,99,1,99,9,99,9,99999,9,99,9,99,9","10142,1,99999,9",,"MET059METAR MMLM 070241Z 25003KT 10SM SKC 18/07 A2995 RMK SLP143=",
"76361599999","2025-02-07T03:42:00","4","25.685194","-109.080806","4.87","VALLE DEL FUERTE INTERNATIONAL, MX","FM-15","99999","V020","240,1,N,0021,1","22000,1,9,N","016093,1,9,9","+0160,1","+0090,1","99999,9",,,,,"00,99,1,99,9,99,9,99999,9,99,9,99,9","10146,1,99999,9",,"MET048METAR MMLM 070342Z 24004KT 10SM SKC 16/09 A2996=",
"76361599999","2025-02-07T14:06:00","4","25.685194","-109.080806","4.87","VALLE DEL FUERTE INTERNATIONAL, MX","FM-15","99999","V020","999,9,C,0000,1","00000,1,W,N","000000,1,9,9","+0120,1","+0110,1","99999,9","09,1,+00000,1,99,9",,,"9,AGL   ,+99999,+99999","09,99,1,09,1,99,9,00000,1,99,9,99,9","10152,1,99999,9","44,1","MET070METAR MMLM 071406Z RTD 00000KT 0SM FG VV000 12/11 A2998 RMK 8//// RTS=",
"76361599999","2025-02-07T14:41:00","4","25.685194","-109.080806","4.87","VALLE DEL FUERTE INTERNATIONAL, MX","FM-15","99999","V020","999,9,C,0000,1","22000,1,9,N","000301,5,9,9","+0120,5","+0120,5","10156,1",,,,,"00,99,1,99,9,99,9,99999,9,99,9,99,9","10156,1,99999,9","12,1","MET070METAR MMLM 071441Z 00000KT 3/16SM MIFG SKC 12/12 A2999 RMK SLP156 HZY=","D01      0ADE729"
"76361599999","2025-02-07T15:10:00","4","25.685194","-109.080806","4.87","VALLE DEL FUERTE INTERNATIONAL, MX","FM-16","99999","V020","270,1,N,0026,1","22000,1,9,N","002414,1,9,9","+0130,1","+0130,1","99999,9",,,,,"00,99,1,99,9,99,9,99999,9,99,9,99,9","10159,1,99999,9","10,1","MET054SPECI MMLM 071510Z 27005KT 1 1/2SM BR SKC 13/13 A3000=",
"76361599999","2025-02-07T15:19:00","4","25.685194","-109.080806","4.87","VALLE DEL FUERTE INTERNATIONAL, MX","FM-16","99999","V020","290,1,N,0021,1","22000,1,9,N","004828,1,9,9","+0140,1","+0130,1","99999,9",,,,,"00,99,1,99,9,99,9,99999,9,99,9,99,9","10169,1,99999,9","10,1","MET058SPECI MMLM 071519Z 29004KT 3SM BR SKC 14/13 A3003 RMK HZY=",
"76361599999","2025-02-07T15:40:00","4","25.685194","-109.080806","4.87","VALLE DEL FUERTE INTERNATIONAL, MX","FM-15","99999","V020","310,1,N,0026,1","22000,1,9,N","012875,1,9,9","+0150,1","+0140,1","99999,9",,,,,"00,99,1,99,9,99,9,99999,9,99,9,99,9","10159,1,99999,9",,"MET060METAR MMLM 071540Z 31005KT 8SM SKC 15/14 A3000 RMK HZY BRVC=",
"76361599999","2025-02-07T16:40:00","4","25.685194","-109.080806","4.87","VALLE DEL FUERTE INTERNATIONAL, MX","FM-15","99999","V020","330,1,N,0031,1","22000,1,9,N","016093,1,9,9","+0210,1","+0120,1","99999,9",,,,,"00,99,1,99,9,99,9,99999,9,99,9,99,9","10163,1,99999,9",,"MET056METAR MMLM 071640Z 33006KT 10SM SKC 21/12 A3001 RMK HZY=",
"76361599999","2025-02-07T17:40:00","4","25.685194","-109.080806","4.87","VALLE DEL FUERTE INTERNATIONAL, MX","FM-15","99999","V020","330,1,N,0041,1","22000,1,9,N","016093,1,9,9","+0240,1","+0090,1","10151,1",,,,,"00,99,1,99,9,99,9,99999,9,99,9,99,9","10159,1,99999,9",,"MET064METAR MMLM 071740Z 33008KT 10SM SKC 24/09 A3000 RMK SLP1510 HZY=",
"76361599999","2025-02-07T18:40:00","4","25.685194","-109.080806","4.87","VALLE DEL FUERTE INTERNATIONAL, MX","FM-15","99999","V020","300,1,N,0046,1","22000,1,9,N","016093,1,9,9","+0270,1","+0050,1","99999,9",,,,,"00,99,1,99,9,99,9,99999,9,99,9,99,9","10156,1,99999,9",,"MET056METAR MMLM 071840Z 30009KT 10SM SKC 27/05 A2999 RMK HZY=",
"76361599999","2025-02-07T19:40:00","4","25.685194","-109.080806","4.87","VALLE DEL FUERTE INTERNATIONAL, MX","FM-15","99999","V020","300,1,N,0051,1","22000,1,9,N","016093,1,9,9","+0290,2","+0040,1","99999,9",,,,,"00,99,1,99,9,99,9,99999,9,99,9,99,9","10142,1,99999,9",,"MET056METAR MMLM 071940Z 30010KT 10SM SKC 29/04 A2995 RMK HZY=",
"76361599999","2025-02-07T20:40:00","4","25.685194","-109.080806","4.87","VALLE DEL FUERTE INTERNATIONAL, MX","FM-15","99999","V020","280,1,N,0077,1","22000,1,9,N","016093,1,9,9","+0290,2","+0110,1","10132,1",,,,,"00,99,1,99,9,99,9,99999,9,99,9,99,9","10132,1,99999,9",,"MET068METAR COR MMLM 072040Z 28015KT 10SM SKC 29/11 A2992 RMK SLP1322 HZY=",
"76361599999","2025-02-07T21:47:00","4","25.685194","-109.080806","4.87","VALLE DEL FUERTE INTERNATIONAL, MX","FM-15","99999","V020","280,1,N,0082,1","22000,1,9,N","016093,1,9,9","+0270,1","+0100,1","99999,9",,,,,"00,99,1,99,9,99,9,99999,9,99,9,99,9","10129,1,99999,9",,"MET048METAR MMLM 072147Z 28016KT 10SM SKC 27/10 A2991=",
"76361599999","2025-02-07T22:46:00","4","25.685194","-109.080806","4.87","VALLE DEL FUERTE INTERNATIONAL, MX","FM-15","99999","V020","280,1,N,0067,1","22000,1,9,N","016093,1,9,9","+0270,1","+0080,1","99999,9",,,,,"00,99,1,99,9,99,9,99999,9,99,9,99,9","10125,1,99999,9",,"MET048METAR MMLM 072246Z 28013KT 10SM SKC 27/08 A2990=",
"76361599999","2025-02-07T23:47:00","4","25.685194","-109.080806","4.87","VALLE DEL FUERTE INTERNATIONAL, MX","FM-15","99999","V020","280,1,N,0077,1","22000,1,9,N","016093,1,9,9","+0260,1","+0080,1","10126,1",,,,,"00,99,1,99,9,99,9,99999,9,99,9,99,9","10125,1,99999,9",,"MET059METAR MMLM 072347Z 28015KT 10SM SKC 26/08 A2990 RMK SLP126=",
"76361599999","2025-02-08T00:41:00","4","25.685194","-109.080806","4.87","VALLE DEL FUERTE INTERNATIONAL, MX","FM-15","99999","V020","290,1,N,0062,1","22000,1,9,N","016093,1,9,9","+0230,1","+0100,1","99999,9",,,,,"00,99,1,99,9,99,9,99999,9,99,9,99,9","10125,1,99999,9",,"MET048METAR MMLM 080041Z 29012KT 10SM SKC 23/10 A2990=",
"76361599999","2025-02-08T01:42:00","4","25.685194","-109.080806","4.87","VALLE DEL FUERTE INTERNATIONAL, MX","FM-15","99999","V020","260,1,N,0041,1","22000,1,9,N","016093,1,9,9","+0200,1","+0110,1","99999,9",,,,,"00,99,1,99,9,99,9,99999,9,99,9,99,9","10129,1,99999,9",,"MET048METAR MMLM 080142Z 26008KT 10SM SKC 20/11 A2991=",
"76361599999","2025-02-08T02:41:00","4","25.685194","-109.080806","4.87","VALLE DEL FUERTE INTERNATIONAL, MX","FM-15","99999","V020","280,1,N,0036,1","22000,1,9,N","016093,1,9,9","+0180,1","+0120,1","10132,1",,,,,"00,99,1,99,9,99,9,99999,9,99,9,99,9","10132,1,99999,9",,"MET059METAR MMLM 080241Z 28007KT 10SM SKC 18/12 A2992 RMK SLP132=",
"76361599999","2025-02-08T03:45:00","4","25.685194","-109.080806","4.87","VALLE DEL FUERTE INTERNATIONAL, MX","FM-15","99999","V020","260,1,N,0026,1","22000,1,9,N","016093,1,9,9","+0160,1","+0120,1","99999,9",,,,,"00,99,1,99,9,99,9,99999,9,99,9,99,9","10135,1,99999,9",,"MET048METAR MMLM 080345Z 26005KT 10SM SKC 16/12 A2993=",
"76361599999","2025-02-08T14:08:00","4","25.685194","-109.080806","4.87","VALLE DEL FUERTE INTERNATIONAL, MX","FM-15","99999","V020","310,1,N,0026,1","99999,9,9,N","001207,1,9,9","+0120,1","+0100,1","99999,9","04,1,+06706,1,00,1",,,"9,AGL   ,+99999,+99999","99,99,9,04,1,99,9,06706,1,99,9,99,9","10139,1,99999,9","11,1","MET075METAR MMLM 081408Z RTD 31005KT 3/4SM BCFG SCT220 12/10 A2994 RMK 8/001 RTS=",
"76361599999","2025-02-08T14:49:00","4","25.685194","-109.080806","4.87","VALLE DEL FUERTE INTERNATIONAL, MX","FM-15","99999","V020","999,9,C,0000,1","99999,9,9,N","006437,1,9,9","+0140,1","+0110,1","10139,1","02,1,+06706,1,00,1",,,"9,AGL   ,+99999,+99999","99,99,9,02,1,99,9,06706,1,99,9,99,9","10139,1,99999,9","11,1","MET086METAR MMLM 081449Z 00000KT 4SM BCFG FEW220 14/11 A2994 RMK SLP139 8/001 VSBY LWR E SE=",
"76361599999","2025-02-08T16:06:00","4","25.685194","-109.080806","4.87","VALLE DEL FUERTE INTERNATIONAL, MX","FM-15","99999","V020","270,1,N,0031,1","99999,9,9,N","012875,1,9,9","+0200,1","+0150,1","99999,9","02,1,+06706,1,00,1",,,"9,AGL   ,+99999,+99999","99,99,9,02,1,99,9,06706,1,99,9,99,9","10152,1,99999,9",,"MET068METAR MMLM 081606Z RTD 27006KT 8SM FEW220 20/15 A2998 RMK 8/001 HZY=",
"76361599999","2025-02-08T16:40:00","4","25.685194","-109.080806","4.87","VALLE DEL FUERTE INTERNATIONAL, MX","FM-15","99999","V020","999,9,C,0000,1","22000,1,9,N","012875,1,9,9","+0210,1","+0140,1","99999,9",,,,,"00,99,1,99,9,99,9,99999,9,99,9,99,9","10156,1,99999,9",,"MET055METAR MMLM 081640Z 00000KT 8SM SKC 21/14 A2999 RMK HZY=",
"76361599999","2025-02-08T17:43:00","4","25.685194","-109.080806","4.87","VALLE DEL FUERTE INTERNATIONAL, MX","FM-15","99999","V020","260,1,N,0021,1","22000,1,9,N","012875,1,9,9","+0240,1","+0140,1","10153,1",,,,,"00,99,1,99,9,99,9,99999,9,99,9,99,9","10152,1,99999,9",,"MET062METAR MMLM 081743Z 26004KT 8SM SKC 24/14 A2998 RMK SLP153 HZY=",
"76361599999","2025-02-08T18:40:00","4","25.685194","-109.080806","4.87","VALLE DEL FUERTE INTERNATIONAL, MX","FM-15","99999","V020","260,1,N,0036,1","99999,9,9,N","016093,1,9,9","+0260,1","+0130,1","99999,9","02,1,+06706,1,01,1",,,"9,AGL   ,+99999,+99999","99,99,9,02,1,99,9,06706,1,99,9,99,9","10146,1,99999,9",,"MET061METAR MMLM 081840Z 26007KT 10SM FEW220 26/13 A2996 RMK 8/009=",
"76361599999","2025-02-08T19:40:00","4","25.685194","-109.080806","4.87","VALLE DEL FUERTE INTERNATIONAL, MX","FM-15","99999","V020","270,1,N,0036,1","99999,9,9,N","016093,1,9,9","+0270,1","+0140,1","99999,9","02,1,+06706,1,00,1",,,"9,AGL   ,+99999,+99999","99,99,9,02,1,99,9,06706,1,99,9,99,9","10142,1,99999,9",,"MET061METAR MMLM 081940Z 27007KT 10SM FEW220 27/14 A2995 RMK 8/001=",
"76361599999","2025-02-08T20:47:00","4","25.685194","-109.080806","4.87","VALLE DEL FUERTE INTERNATIONAL, MX","FM-15","99999","V020","250,1,N,0062,1","06706,1,9,N","016093,1,9,9","+0280,1","+0140,1","10129,1","04,1,+03962,1,03,1","07,1,+06706,1,02,1",,"9,AGL   ,+99999,+99999","99,99,9,04,1,99,9,03962,1,99,9,99,9","10129,1,99999,9",,"MET075METAR MMLM 082047Z 25012KT 10SM SCT130 BKN220 28/14 A2991 RMK SLP129 8/038=",
"76361599999","2025-02-08T21:42:00","4","25.685194","-109.080806","4.87","VALLE DEL FUERTE INTERNATIONAL, MX","FM-15","99999","V020","280,1,N,0057,1","06706,1,9,N","016093,1,9,9","+0280,1","+0110,1","99999,9","04,1,+02438,1,03,1","07,1,+06706,1,02,1",,"9,AGL   ,+99999,+99999","99,99,9,04,1,99,9,02438,1,99,9,99,9","10125,1,99999,9",,"MET068METAR MMLM 082142Z 28011KT 10SM SCT080 BKN220 28/11 A2990 RMK 8/038=",
"76361599999","2025-02-08T22:40:00","4","25.685194","-109.080806","4.87","VALLE DEL FUERTE INTERNATIONAL, MX","FM-15","99999","V020","260,1,N,0062,1","02438,1,C,N","016093,1,9,9","+0280,1","+0120,1","99999,9","07,1,+02438,1,03,1",,,"9,AGL   ,+99999,+99999","99,99,9,07,1,99,9,02438,1,99,9,99,9","10122,1,99999,9",,"MET061METAR MMLM 082240Z 26012KT 10SM BKN080 28/12 A2989 RMK 8/030=",
"76361599999","2025-02-08T23:41:00","4","25.685194","-109.080806","4.87","VALLE DEL FUERTE INTERNATIONAL, MX","FM-15","99999","V020","280,1,N,0067,1","03048,1,C,N","016093,1,9,9","+0250,1","+0120,1","10126,1","07,1,+03048,1,03,1",,,"9,AGL   ,+99999,+99999","99,99,9,07,1,99,9,03048,1,99,9,99,9","10125,1,99999,9",,"MET068METAR MMLM 082341Z 28013KT 10SM BKN100 25/12 A2990 RMK SLP126 8/030=",
"76361599999","2025-02-09T00:51:00","4","25.685194","-109.080806","4.87","VALLE DEL FUERTE INTERNATIONAL, MX","FM-15","99999","V020","290,1,N,0051,1","03048,1,C,N","016093,1,9,9","+0240,1","+0130,1","99999,9","07,1,+03048,1,03,1",,,"9,AGL   ,+99999,+99999","99,99,9,07,1,99,9,03048,1,99,9,99,9","10132,1,99999,9",,"MET061METAR MMLM 090051Z 29010KT 10SM BKN100 24/13 A2992 RMK 8/030=",
"76361599999","2025-02-09T01:53:00","4","25.685194","-109.080806","4.87","VALLE DEL FUERTE INTERNATIONAL, MX","FM-15","99999","V020","280,1,N,0041,1","99999,9,9,N","016093,1,9,9","+0240,1","+0130,1","99999,9","04,1,+03048,1,03,1",,,"9,AGL   ,+99999,+99999","99,99,9,04,1,99,9,03048,1,99,9,99,9","10125,1,99999,9",,"MET072METAR MMLM 090153Z 28008KT 10SM SCT100 24/13 A2990 RMK 8/030 MSGTX MMMX=",
"76361599999","2025-02-09T02:45:00","4","25.685194","-109.080806","4.87","VALLE DEL FUERTE INTERNATIONAL, MX","FM-15","99999","V020","260,1,N,0021,1","99999,9,9,N","016093,1,9,9","+0180,1","+0130,1","10139,1","04,1,+03048,1,03,1",,,"9,AGL   ,+99999,+99999","99,99,9,04,1,99,9,03048,1,99,9,99,9","10139,1,99999,9",,"MET072METAR MMLM 090245Z 26004KT 10SM SCT100 18/13 A2994 RMK SLP139 8/030 RTS=",
"76361599999","2025-02-09T03:49:00","4","25.685194","-109.080806","4.87","VALLE DEL FUERTE INTERNATIONAL, MX","FM-15","99999","V020","020,1,N,0031,1","99999,9,9,N","016093,1,9,9","+0150,1","+0120,1","99999,9","04,1,+03048,1,03,1",,,"9,AGL   ,+99999,+99999","99,99,9,04,1,99,9,03048,1,99,9,99,9","10146,1,99999,9",,"MET061METAR MMLM 090349Z 02006KT 10SM SCT100 15/12 A2996 RMK 8/030=",
"76361599999","2025-02-09T14:10:00","4","25.685194","-109.080806","4.87","VALLE DEL FUERTE INTERNATIONAL, MX","FM-15","99999","V020","999,9,C,0000,1","22000,1,9,N","000402,1,9,9","+0110,1","+0110,1","99999,9",,,,,"00,99,1,99,9,99,9,99999,9,99,9,99,9","10166,1,99999,9","44,1","MET064METAR MMLM 091410Z RTD 00000KT 1/4SM FG SKC 11/11 A3002 RMK RTS=",
"76361599999","2025-02-09T15:19:00","4","25.685194","-109.080806","4.87","VALLE DEL FUERTE INTERNATIONAL, MX","FM-15","99999","V020","070,1,N,0021,1","22000,1,9,N","002414,1,9,9","+0130,1","+0130,1","10166,1",,,,,"00,99,1,99,9,99,9,99999,9,99,9,99,9","10166,1,99999,9","10,1","MET069METAR MMLM 091519Z RTD 07004KT 1 1/2SM BR SKC 13/13 A3002 RMK SLP166=",
"76361599999","2025-02-09T15:40:00","4","25.685194","-109.080806","4.87","VALLE DEL FUERTE INTERNATIONAL, MX","FM-15","99999","V020","070,1,N,0026,1","22000,1,9,N","006437,1,9,9","+0140,1","+0140,1","99999,9",,,,,"00,99,1,99,9,99,9,99999,9,99,9,99,9","10166,1,99999,9","11,1","MET074METAR MMLM 091540Z 07005KT 4SM BCFG SKC 14/14 A3002 RMK VSBY LWR 2ND QUAD=",
"76361599999","2025-02-09T17:41:00","4","25.685194","-109.080806","4.87","VALLE DEL FUERTE INTERNATIONAL, MX","FM-15","99999","V020","100,1,N,0021,1","99999,9,9,N","011265,1,9,9","+0210,1","+0150,1","10171,1","04,1,+06706,1,01,1",,,"9,AGL   ,+99999,+99999","99,99,9,04,1,99,9,06706,1,99,9,99,9","10179,1,99999,9","40,1","MET073METAR MMLM 091741Z 10004KT 7SM VCFG SCT220 21/15 A3006 RMK SLP1710 8/009=",
"76361599999","2025-02-09T18:41:00","4","25.685194","-109.080806","4.87","VALLE DEL FUERTE INTERNATIONAL, MX","FM-15","99999","V020","180,1,N,0021,1","99999,9,9,N","011265,1,9,9","+0240,1","+0120,1","99999,9","04,1,+07010,1,00,1",,,"9,AGL   ,+99999,+99999","99,99,9,04,1,99,9,07010,1,99,9,99,9","10176,1,99999,9",,"MET064METAR MMLM 091841Z 18004KT 7SM SCT230 24/12 A3005 RMK 8/001 HZY=",
"76361599999","2025-02-09T19:52:00","4","25.685194","-109.080806","4.87","VALLE DEL FUERTE INTERNATIONAL, MX","FM-15","99999","V020","220,1,N,0062,1","99999,9,9,N","012875,1,9,9","+0230,1","+0130,1","99999,9","04,1,+07010,1,00,1",,,"9,AGL   ,+99999,+99999","99,99,9,04,1,99,9,07010,1,99,9,99,9","10169,1,99999,9","40,1","MET069METAR MMLM 091952Z 22012KT 8SM VCFG SCT230 23/13 A3003 RMK 8/001 HZY=",
"76361599999","2025-02-09T21:46:00","4","25.685194","-109.080806","4.87","VALLE DEL FUERTE INTERNATIONAL, MX","FM-15","99999","V020","180,1,N,0026,1","99999,9,9,N","012875,1,9,9","+0270,1","+0080,1","99999,9","04,1,+06706,1,00,1",,,"9,AGL   ,+99999,+99999","99,99,9,04,1,99,9,06706,1,99,9,99,9","10152,1,99999,9",,"MET064METAR MMLM 092146Z 18005KT 8SM SCT220 27/08 A2998 RMK 8/001 HZY=",
"76361599999","2025-02-09T22:47:00","4","25.685194","-109.080806","4.87","VALLE DEL FUERTE INTERNATIONAL, MX","FM-15","99999","V020","220,1,N,0036,1","99999,9,9,N","016093,1,9,9","+0270,1","+0110,1","99999,9","04,1,+06706,1,00,1",,,"9,AGL   ,+99999,+99999","99,99,9,04,1,99,9,06706,1,99,9,99,9","10146,1,99999,9",,"MET061METAR MMLM 092247Z 22007KT 10SM SCT220 27/11 A2996 RMK 8/001=",
"76361599999","2025-02-09T23:41:00","4","25.685194","-109.080806","4.87","VALLE DEL FUERTE INTERNATIONAL, MX","FM-15","99999","V020","230,1,N,0051,1","99999,9,9,N","016093,1,9,9","+0250,1","+0140,1","10143,1","02,1,+06706,1,00,1",,,"9,AGL   ,+99999,+99999","99,99,9,02,1,99,9,06706,1,99,9,99,9","10142,1,99999,9",,"MET068METAR MMLM 092341Z 23010KT 10SM FEW220 25/14 A2995 RMK SLP143 8/001=",
"76361599999","2025-02-10T00:42:00","4","25.685194","-109.080806","4.87","VALLE DEL FUERTE INTERNATIONAL, MX","FM-15","99999","V020","240,1,N,0046,1","22000,1,9,N","016093,1,9,9","+0220,1","+0150,1","99999,9",,,,,"00,99,1,99,9,99,9,99999,9,99,9,99,9","10146,1,99999,9",,"MET048METAR MMLM 100042Z 24009KT 10SM SKC 22/15 A2996=",
"76361599999","2025-02-10T01:40:00","4","25.685194","-109.080806","4.87","VALLE DEL FUERTE INTERNATIONAL, MX","FM-15","99999","V020","270,1,N,0036,1","22000,1,9,N","016093,1,9,9","+0200,1","+0150,1","99999,9",,,,,"00,99,1,99,9,99,9,99999,9,99,9,99,9","10152,1,99999,9",,"MET048METAR MMLM 100140Z 27007KT 10SM SKC 20/15 A2998=",
"76361599999","2025-02-10T02:41:00","4","25.685194","-109.080806","4.87","VALLE DEL FUERTE INTERNATIONAL, MX","FM-15","99999","V020","270,1,N,0021,1","22000,1,9,N","016093,1,9,9","+0180,1","+0140,1","10156,1",,,,,"00,99,1,99,9,99,9,99999,9,99,9,99,9","10156,1,99999,9",,"MET059METAR MMLM 100241Z 27004KT 10SM SKC 18/14 A2999 RMK SLP156=",
"76361599999","2025-02-10T03:40:00","4","25.685194","-109.080806","4.87","VALLE DEL FUERTE INTERNATIONAL, MX","FM-15","99999","V020","320,1,N,0021,1","22000,1,9,N","012875,1,9,9","+0180,1","+0140,1","99999,9",,,,,"00,99,1,99,9,99,9,99999,9,99,9,99,9","10163,1,99999,9",,"MET055METAR MMLM 100340Z 32004KT 8SM SKC 18/14 A3001 RMK HZY=",
"76361599999","2025-02-10T04:40:00","4","25.685194","-109.080806","4.87","VALLE DEL FUERTE INTERNATIONAL, MX","FM-15","99999","V020","280,1,N,0021,1","22000,1,9,N","012875,1,9,9","+0160,1","+0130,1","99999,9",,,,,"00,99,1,99,9,99,9,99999,9,99,9,99,9","10163,1,99999,9",,"MET047METAR MMLM 100440Z 28004KT 8SM SKC 16/13 A3001=",
"76361599999","2025-02-10T14:21:00","4","25.685194","-109.080806","4.87","VALLE DEL FUERTE INTERNATIONAL, MX","FM-15","99999","V020","999,9,C,0000,1","03048,1,C,N","009656,1,9,9","+0140,1","+0120,1","99999,9","07,1,+03048,1,05,1",,,"9,AGL   ,+99999,+99999","99,99,9,07,1,99,9,03048,1,99,9,99,9","10163,1,99999,9","40,1","MET077METAR MMLM 101421Z RTD 00000KT 6SM VCFG BKN100 14/12 A3001 RMK 8/020 HZY RTS=",
"76361599999","2025-02-10T14:40:00","4","25.685194","-109.080806","4.87","VALLE DEL FUERTE INTERNATIONAL, MX","FM-15","99999","V020","999,9,C,0000,1","03048,1,C,N","011265,1,9,9","+0150,1","+0130,1","10163,1","07,1,+03048,1,03,1",,,"9,AGL   ,+99999,+99999","99,99,9,07,1,99,9,03048,1,99,9,99,9","10163,1,99999,9","40,1","MET076METAR MMLM 101440Z 00000KT 7SM VCFG BKN100 15/13 A3001 RMK SLP163 8/030 HZY=",
"76361599999","2025-02-10T15:42:00","4","25.685194","-109.080806","4.87","VALLE DEL FUERTE INTERNATIONAL, MX","FM-15","99999","V020","310,1,N,0021,1","03048,1,C,N","012875,1,9,9","+0180,1","+0140,1","99999,9","07,1,+03048,1,03,1",,,"9,AGL   ,+99999,+99999","99,99,9,07,1,99,9,03048,1,99,9,99,9","10173,1,99999,9",,"MET064METAR MMLM 101542Z 31004KT 8SM BKN100 18/14 A3004 RMK 8/030 HZY=",
"76361599999","2025-02-10T16:43:00","4","25.685194","-109.080806","4.87","VALLE DEL FUERTE INTERNATIONAL, MX","FM-15","99999","V020","120,1,N,0021,1","03048,1,C,N","012875,1,9,9","+0200,1","+0130,1","99999,9","07,1,+03048,1,05,1","08,1,+06706,1,02,1",,"9,AGL   ,+99999,+99999","99,99,9,07,1,99,9,03048,1,99,9,99,9","10176,1,99999,9",,"MET074METAR MMLM 101643Z 12004KT 8SM BKN100 OVC220 20/13 A3005 RMK 8/027 BINOVC=",
"76361599999","2025-02-10T17:41:00","4","25.685194","-109.080806","4.87","VALLE DEL FUERTE INTERNATIONAL, MX","FM-15","99999","V020","270,1,N,0031,1","03048,1,C,N","012875,1,9,9","+0220,1","+0120,1","10183,1","07,1,+03048,1,03,1","07,1,+06706,1,02,1",,"9,AGL   ,+99999,+99999","99,99,9,07,1,99,9,03048,1,99,9,99,9","10183,1,99999,9",,"MET078METAR MMLM 101741Z 27006KT 8SM BKN100 BKN220 22/12 A3007 RMK SLP183 8/038 HZY=",
"76361599999","2025-02-10T18:42:00","4","25.685194","-109.080806","4.87","VALLE DEL FUERTE INTERNATIONAL, MX","FM-15","99999","V020","290,1,N,0021,1","03048,1,C,N","012875,1,9,9","+0240,1","+0100,1","99999,9","07,1,+03048,1,03,1","07,1,+06706,1,02,1",,"9,AGL   ,+99999,+99999","99,99,9,07,1,99,9,03048,1,99,9,99,9","10173,1,99999,9",,"MET071METAR MMLM 101842Z 29004KT 8SM BKN100 BKN220 24/10 A3004 RMK 8/038 HZY=",
"76361599999","2025-02-10T19:40:00","4","25.685194","-109.080806","4.87","VALLE DEL FUERTE INTERNATIONAL, MX","FM-15","99999","V020","999,9,C,0000,1","03048,1,C,N","012875,1,9,9","+0250,1","+0080,1","99999,9","07,1,+03048,1,05,1","08,1,+06706,1,02,1",,"9,AGL   ,+99999,+99999","99,99,9,07,1,99,9,03048,1,99,9,99,9","10163,1,99999,9",,"MET074METAR MMLM 101940Z 00000KT 8SM BKN100 OVC220 25/08 A3001 RMK 8/027 BINOVC=",
"76361599999","2025-02-10T21:42:00","4","25.685194","-109.080806","4.87","VALLE DEL FUERTE INTERNATIONAL, MX","FM-15","99999","V020","270,1,N,0021,1","02134,1,C,N","016093,1,9,9","+0260,1","+0080,1","99999,9","07,1,+02134,1,05,1","08,1,+06706,1,02,1",,"9,AGL   ,+99999,+99999","99,99,9,07,1,99,9,02134,1,99,9,99,9","10149,1,99999,9",,"MET068METAR MMLM 102142Z 27004KT 10SM BKN070 OVC220 26/08 A2997 RMK 8/027=",
"76361599999","2025-02-10T22:42:00","4","25.685194","-109.080806","4.87","VALLE DEL FUERTE INTERNATIONAL, MX","FM-15","99999","V020","280,1,N,0021,1","02134,1,C,N","012875,1,9,9","+0230,1","+0140,1","99999,9","07,1,+02134,1,05,1","08,1,+06706,1,02,1",,"9,AGL   ,+99999,+99999","99,99,9,07,1,99,9,02134,1,99,9,99,9","10139,1,99999,9",,"MET071METAR MMLM 102242Z 28004KT 8SM BKN070 OVC220 23/14 A2994 RMK 8/027 HZY=",
"76361599999","2025-02-10T23:40:00","4","25.685194","-109.080806","4.87","VALLE DEL FUERTE INTERNATIONAL, MX","FM-15","99999","V020","270,1,N,0036,1","02134,1,C,N","012875,1,9,9","+0240,1","+0140,1","10136,1","07,1,+02134,1,05,1","08,1,+06706,1,02,1",,"9,AGL   ,+99999,+99999","99,99,9,07,1,99,9,02134,1,99,9,99,9","10135,1,99999,9",,"MET074METAR MMLM 102340Z 27007KT 8SM BKN070 OVC220 24/14 A2993 RMK SLP136 8/027=",
"76361599999","2025-02-11T00:40:00","4","25.685194","-109.080806","4.87","VALLE DEL FUERTE INTERNATIONAL, MX","FM-15","99999","V020","260,1,N,0026,1","02134,1,C,N","012875,1,9,9","+0220,1","+0140,1","99999,9","07,1,+02134,1,05,1","08,1,+06706,1,02,1",,"9,AGL   ,+99999,+99999","99,99,9,07,1,99,9,02134,1,99,9,99,9","10139,1,99999,9",,"MET074METAR MMLM 110040Z 26005KT 8SM BKN070 OVC220 22/14 A2994 RMK 8/027 BINOVC=",
"76361599999","2025-02-11T01:40:00","4","25.685194","-109.080806","4.87","VALLE DEL FUERTE INTERNATIONAL, MX","FM-15","99999","V020","230,1,N,0026,1","02438,1,C,N","012875,1,9,9","+0200,1","+0130,1","99999,9","07,1,+02438,1,03,1","07,1,+06706,1,02,1",,"9,AGL   ,+99999,+99999","99,99,9,07,1,99,9,02438,1,99,9,99,9","10135,1,99999,9",,"MET067METAR MMLM 110140Z 23005KT 8SM BKN080 BKN220 20/13 A2993 RMK 8/038=",
"76361599999","2025-02-11T02:44:00","4","25.685194","-109.080806","4.87","VALLE DEL FUERTE INTERNATIONAL, MX","FM-15","99999","V020","280,1,N,0021,1","99999,9,9,N","012875,1,9,9","+0190,1","+0130,1","10139,1","04,1,+03048,1,03,1",,,"9,AGL   ,+99999,+99999","99,99,9,04,1,99,9,03048,1,99,9,99,9","10139,1,99999,9",,"MET067METAR MMLM 110244Z 28004KT 8SM SCT100 19/13 A2994 RMK SLP139 8/030=",
"76361599999","2025-02-11T03:40:00","4","25.685194","-109.080806","4.87","VALLE DEL FUERTE INTERNATIONAL, MX","FM-15","99999","V020","290,1,N,0026,1","06706,1,C,N","012875,1,9,9","+0170,1","+0120,1","99999,9","02,1,+03658,1,03,1","04,1,+06706,1,00,1",,"9,AGL   ,+99999,+99999","99,99,9,02,1,99,9,03658,1,99,9,99,9","10146,1,99999,9",,"MET067METAR MMLM 110340Z 29005KT 8SM FEW120 SCT220 17/12 A2996 RMK 8/031=",
"76361599999","2025-02-11T13:58:00","4","25.685194","-109.080806","4.87","VALLE DEL FUERTE INTERNATIONAL, MX","FM-15","99999","V020","020,1,N,0010,1","99999,9,9,N","012875,1,9,9","+0150,1","+0110,1","99999,9","04,1,+00914,1,06,1",,,"9,AGL   ,+99999,+99999","99,99,9,04,1,99,9,00914,1,99,9,99,9","10129,1,99999,9",,"MET072METAR MMLM 111358Z RTD 02002KT 8SM SCT030 15/11 A2991 RMK 8/500 HZY RTS=",
"76361599999","2025-02-11T14:46:00","4","25.685194","-109.080806","4.87","VALLE DEL FUERTE INTERNATIONAL, MX","FM-15","99999","V020","080,1,N,0015,1","99999,9,9,N","012875,1,9,9","+0150,1","+0100,1","10132,1","04,1,+00914,1,06,1",,,"9,AGL   ,+99999,+99999","99,99,9,04,1,99,9,00914,1,99,9,99,9","10132,1,99999,9",,"MET071METAR MMLM 111446Z 08003KT 8SM SCT030 15/10 A2992 RMK SLP132 8/500 HZY=",
"76361599999","2025-02-11T15:47:00","4","25.685194","-109.080806","4.87","VALLE DEL FUERTE INTERNATIONAL, MX","FM-15","99999","V020","080,1,N,0026,1","03048,1,9,N","012875,1,9,9","+0180,1","+0110,1","99999,9","04,1,+00914,1,06,1","07,1,+03048,1,03,1",,"9,AGL   ,+99999,+99999","99,99,9,04,1,99,9,00914,1,99,9,99,9","10139,1,99999,9",,"MET071METAR MMLM 111547Z 08005KT 8SM SCT030 BKN100 18/11 A2994 RMK 8/530 HZY=",
"76361599999","2025-02-11T16:44:00","4","25.685194","-109.080806","4.87","VALLE DEL FUERTE INTERNATIONAL, MX","FM-15","99999","V020","050,1,N,0021,1","03048,1,9,N","016093,1,9,9","+0210,1","+0120,1","99999,9","02,1,+00914,1,06,1","07,1,+03048,1,03,1",,"9,AGL   ,+99999,+99999","99,99,9,02,1,99,9,00914,1,99,9,99,9","10142,1,99999,9",,"MET068METAR MMLM 111644Z 05004KT 10SM FEW030 BKN100 21/12 A2995 RMK 8/530=",
"76361599999","2025-02-11T19:44:00","4","25.685194","-109.080806","4.87","VALLE DEL FUERTE INTERNATIONAL, MX","FM-15","99999","V020","240,1,N,0057,1","06706,1,9,N","016093,1,9,9","+0250,1","+0110,1","99999,9","04,1,+00914,1,06,1","07,1,+06706,1,02,1",,"9,AGL   ,+99999,+99999","99,99,9,04,1,99,9,00914,1,99,9,99,9","10129,1,99999,9",,"MET068METAR MMLM 111944Z 24011KT 10SM SCT030 BKN220 25/11 A2991 RMK 8/508=",
"76361599999","2025-02-11T20:42:00","4","25.685194","-109.080806","4.87","VALLE DEL FUERTE INTERNATIONAL, MX","FM-15","99999","V020","230,1,N,0051,1","06706,1,9,N","016093,1,9,9","+0250,1","+0110,1","10119,1","04,1,+00914,1,06,1","07,1,+06706,1,02,1",,"9,AGL   ,+99999,+99999","99,99,9,04,1,99,9,00914,1,99,9,99,9","10118,1,99999,9",,"MET075METAR MMLM 112042Z 23010KT 10SM SCT030 BKN220 25/11 A2988 RMK SLP119 8/508=",
"76361599999","2025-02-11T21:42:00","4","25.685194","-109.080806","4.87","VALLE DEL FUERTE INTERNATIONAL, MX","FM-15","99999","V020","230,1,N,0036,1","00914,1,C,N","016093,1,9,9","+0230,1","+0090,1","99999,9","07,1,+00914,1,06,1","07,1,+06706,1,02,1",,"9,AGL   ,+99999,+99999","99,99,9,07,1,99,9,00914,1,99,9,99,9","10115,1,99999,9",,"MET068METAR MMLM 112142Z 23007KT 10SM BKN030 BKN220 23/09 A2987 RMK 8/508=",
"76361599999","2025-02-11T22:40:00","4","25.685194","-109.080806","4.87","VALLE DEL FUERTE INTERNATIONAL, MX","FM-15","99999","V020","250,1,N,0057,1","06706,1,C,N","016093,1,9,9","+0240,1","+0100,1","99999,9","02,1,+00914,1,06,1","04,1,+06706,1,00,1",,"9,AGL   ,+99999,+99999","99,99,9,02,1,99,9,00914,1,99,9,99,9","10115,1,99999,9",,"MET068METAR MMLM 112240Z 25011KT 10SM FEW030 SCT220 24/10 A2987 RMK 8/501=",
"76361599999","2025-02-11T23:40:00","4","25.685194","-109.080806","4.87","VALLE DEL FUERTE INTERNATIONAL, MX","FM-15","99999","V020","210,1,N,0036,1","07010,1,C,N","012875,1,9,9","+0240,1","+0110,1","10116,1","02,1,+00914,1,06,1","04,1,+07010,1,00,1",,"9,AGL   ,+99999,+99999","99,99,9,02,1,99,9,00914,1,99,9,99,9","10115,1,99999,9",,"MET074METAR MMLM 112340Z 21007KT 8SM FEW030 SCT230 24/11 A2987 RMK SLP116 8/501=",
"76361599999","2025-02-12T00:40:00","4","25.685194","-109.080806","4.87","VALLE DEL FUERTE INTERNATIONAL, MX","FM-15","99999","V020","210,1,N,0031,1","06706,1,C,N","012875,1,9,9","+0220,1","+0130,1","99999,9","07,1,+06706,1,02,1",,,"9,AGL   ,+99999,+99999","99,99,9,07,1,99,9,06706,1,99,9,99,9","10115,1,99999,9",,"MET060METAR MMLM 120040Z 21006KT 8SM BKN220 22/13 A2987 RMK 8/008=",
"76361599999","2025-02-12T01:51:00","4","25.685194","-109.080806","4.87","VALLE DEL FUERTE INTERNATIONAL, MX","FM-15","99999","V020","200,1,N,0021,1","99999,9,9,N","016093,1,9,9","+0190,1","+0130,1","99999,9","04,1,+06706,1,00,1",,,"9,AGL   ,+99999,+99999","99,99,9,04,1,99,9,06706,1,99,9,99,9","10118,1,99999,9",,"MET061METAR MMLM 120151Z 20004KT 10SM SCT220 19/13 A2988 RMK 8/001=",
"76361599999","2025-02-12T02:41:00","4","25.685194","-109.080806","4.87","VALLE DEL FUERTE INTERNATIONAL, MX","FM-15","99999","V020","190,1,N,0031,1","99999,9,9,N","016093,1,9,9","+0190,1","+0130,1","10119,1","04,1,+06706,1,00,1",,,"9,AGL   ,+99999,+99999","99,99,9,04,1,99,9,06706,1,99,9,99,9","10118,1,99999,9",,"MET068METAR MMLM 120241Z 19006KT 10SM SCT220 19/13 A2988 RMK SLP119 8/001=",
"76361599999","2025-02-12T03:44:00","4","25.685194","-109.080806","4.87","VALLE DEL FUERTE INTERNATIONAL, MX","FM-15","99999","V020","999,9,C,0000,1","99999,9,9,N","016093,1,9,9","+0170,1","+0120,1","99999,9","04,1,+07010,1,00,1",,,"9,AGL   ,+99999,+99999","99,99,9,04,1,99,9,07010,1,99,9,99,9","10125,1,99999,9",,"MET061METAR MMLM 120344Z 00000KT 10SM SCT230 17/12 A2990 RMK 8/001=",
"76361599999","2025-02-12T14:00:00","4","25.685194","-109.080806","4.87","VALLE DEL FUERTE INTERNATIONAL, MX","FM-15","99999","V020","080,1,N,0021,1","22000,1,9,N","008047,1,9,9","+0100,1","+0080,1","99999,9",,,,,"00,99,1,99,9,99,9,99999,9,99,9,99,9","10129,1,99999,9","40,1","MET082METAR MMLM 121400Z RTD 08004KT 5SM VCFG SKC 10/08 A2991 RMK VSBY LWR 2ND QUAD RTS=",
"76361599999","2025-02-12T14:40:00","4","25.685194","-109.080806","4.87","VALLE DEL FUERTE INTERNATIONAL, MX","FM-15","99999","V020","040,1,N,0021,1","22000,1,9,N","009656,1,9,9","+0110,1","+0090,1","10136,1",,,,,"00,99,1,99,9,99,9,99999,9,99,9,99,9","10135,1,99999,9","40,1","MET085METAR MMLM 121440Z 04004KT 6SM VCFG SKC 11/09 A2993 RMK SLP136 HZY VSBY LWR 2ND QUAD=",
"76361599999","2025-02-12T15:44:00","4","25.685194","-109.080806","4.87","VALLE DEL FUERTE INTERNATIONAL, MX","FM-15","99999","V020","080,1,N,0021,1","22000,1,9,N","011265,1,9,9","+0170,1","+0130,1","99999,9",,,,,"00,99,1,99,9,99,9,99999,9,99,9,99,9","10139,1,99999,9",,"MET063METAR MMLM 121544Z 08004KT 7SM SKC 17/13 A2994 RMK HZY ISOL SC=",
"76361599999","2025-02-12T16:44:00","4","25.685194","-109.080806","4.87","VALLE DEL FUERTE INTERNATIONAL, MX","FM-15","99999","V020","180,1,N,0021,1","22000,1,9,N","012875,1,9,9","+0200,1","+0140,1","99999,9",,,,,"00,99,1,99,9,99,9,99999,9,99,9,99,9","10146,1,99999,9",,"MET055METAR MMLM 121644Z 18004KT 8SM SKC 20/14 A2996 RMK HZY=",
"76361599999","2025-02-12T17:44:00","4","25.685194","-109.080806","4.87","VALLE DEL FUERTE INTERNATIONAL, MX","FM-15","99999","V020","210,1,N,0021,1","22000,1,9,N","012875,1,9,9","+0220,1","+0130,1","10149,1",,,,,"00,99,1,99,9,99,9,99999,9,99,9,99,9","10149,1,99999,9",,"MET062METAR MMLM 121744Z 21004KT 8SM SKC 22/13 A2997 RMK SLP149 HZY=",
"76361599999","2025-02-12T18:40:00","4","25.685194","-109.080806","4.87","VALLE DEL FUERTE INTERNATIONAL, MX","FM-15","99999","V020","260,1,N,0021,1","22000,1,9,N","016093,1,9,9","+0230,1","+0110,1","99999,9",,,,,"00,99,1,99,9,99,9,99999,9,99,9,99,9","10146,1,99999,9",,"MET048METAR MMLM 121840Z 26004KT 10SM SKC 23/11 A2996=",
"76361599999","2025-02-12T19:40:00","4","25.685194","-109.080806","4.87","VALLE DEL FUERTE INTERNATIONAL, MX","FM-15","99999","V020","160,1,N,0021,1","22000,1,9,N","016093,1,9,9","+0240,1","+0130,1","99999,9",,,,,"00,99,1,99,9,99,9,99999,9,99,9,99,9","10135,1,99999,9",,"MET048METAR MMLM 121940Z 16004KT 10SM SKC 24/13 A2993=",
"76361599999","2025-02-12T20:48:00","4","25.685194","-109.080806","4.87","VALLE DEL FUERTE INTERNATIONAL, MX","FM-15","99999","V020","260,1,N,0046,1","22000,1,9,N","016093,1,9,9","+0250,1","+0110,1","10122,1",,,,,"00,99,1,99,9,99,9,99999,9,99,9,99,9","10122,1,99999,9",,"MET059METAR MMLM 122048Z 26009KT 10SM SKC 25/11 A2989 RMK SLP122=",
"76361599999","2025-02-12T21:45:00","4","25.685194","-109.080806","4.87","VALLE DEL FUERTE INTERNATIONAL, MX","FM-15","99999","V020","290,1,N,0046,1","22000,1,9,N","016093,1,9,9","+0240,1","+0100,1","99999,9",,,,,"00,99,1,99,9,99,9,99999,9,99,9,99,9","10115,1,99999,9",,"MET048METAR MMLM 122145Z 29009KT 10SM SKC 24/10 A2987=",
"76361599999","2025-02-12T22:47:00","4","25.685194","-109.080806","4.87","VALLE DEL FUERTE INTERNATIONAL, MX","FM-15","99999","V020","300,1,N,0077,1","22000,1,9,N","016093,1,9,9","+0240,1","+0070,1","99999,9",,,,,"00,99,1,99,9,99,9,99999,9,99,9,99,9","10112,1,99999,9",,"MET048METAR MMLM 122247Z 30015KT 10SM SKC 24/07 A2986=",
"76361599999","2025-02-12T23:40:00","4","25.685194","-109.080806","4.87","VALLE DEL FUERTE INTERNATIONAL, MX","FM-15","99999","V020","290,1,N,0082,1","22000,1,9,N","016093,1,9,9","+0230,1","+0080,1","10112,1",,,,,"00,99,1,99,9,99,9,99999,9,99,9,99,9","10112,1,99999,9",,"MET059METAR MMLM 122340Z 29016KT 10SM SKC 23/08 A2986 RMK SLP112=",
"76361599999","2025-02-13T00:43:00","4","25.685194","-109.080806","4.87","VALLE DEL FUERTE INTERNATIONAL, MX","FM-15","99999","V020","300,1,N,0077,1","22000,1,9,N","016093,1,9,9","+0200,1","+0100,1","99999,9",,,,,"00,99,1,99,9,99,9,99999,9,99,9,99,9","10118,1,99999,9",,"MET048METAR MMLM 130043Z 30015KT 10SM SKC 20/10 A2988=",
"76361599999","2025-02-13T01:45:00","4","25.685194","-109.080806","4.87","VALLE DEL FUERTE INTERNATIONAL, MX","FM-15","99999","V020","290,1,N,0062,1","22000,1,9,N","016093,1,9,9","+0180,1","+0100,1","99999,9",,,,,"00,99,1,99,9,99,9,99999,9,99,9,99,9","10118,1,99999,9",,"MET048METAR MMLM 130145Z 29012KT 10SM SKC 18/10 A2988=",
"76361599999","2025-02-13T02:47:00","4","25.685194","-109.080806","4.87","VALLE DEL FUERTE INTERNATIONAL, MX","FM-15","99999","V020","290,1,N,0036,1","22000,1,9,N","016093,1,9,9","+0160,1","+0110,1","10132,1",,,,,"00,99,1,99,9,99,9,99999,9,99,9,99,9","10132,1,99999,9",,"MET059METAR MMLM 130247Z 29007KT 10SM SKC 16/11 A2992 RMK SLP132=",
"76361599999","2025-02-13T03:44:00","4","25.685194","-109.080806","4.87","VALLE DEL FUERTE INTERNATIONAL, MX","FM-15","99999","V020","280,1,N,0036,1","22000,1,9,N","016093,1,9,9","+0150,1","+0100,1","99999,9",,,,,"00,99,1,99,9,99,9,99999,9,99,9,99,9","10139,1,99999,9",,"MET048METAR MMLM 130344Z 28007KT 10SM SKC 15/10 A2994=",
"76361599999","2025-02-13T14:02:00","4","25.685194","-109.080806","4.87","VALLE DEL FUERTE INTERNATIONAL, MX","FM-15","99999","V020","999,9,C,0000,1","22000,1,9,N","004828,1,9,9","+0080,1","+0070,1","99999,9",,,,,"00,99,1,99,9,99,9,99999,9,99,9,99,9","10169,1,99999,9","10,1","MET066METAR MMLM 131402Z RTD 00000KT 3SM BR SKC 08/07 A3003 RMK HZY RTS=",
"76361599999","2025-02-13T14:40:00","4","25.685194","-109.080806","4.87","VALLE DEL FUERTE INTERNATIONAL, MX","FM-15","99999","V020","999,9,C,0000,1","22000,1,9,N","012875,1,9,9","+0100,1","+0090,1","10173,1",,,,,"00,99,1,99,9,99,9,99999,9,99,9,99,9","10173,1,99999,9",,"MET067METAR MMLM 131440Z 00000KT 8SM SKC 10/09 A3004 RMK SLP173 HZY BRVC=",
"76361599999","2025-02-13T15:40:00","4","25.685194","-109.080806","4.87","VALLE DEL FUERTE INTERNATIONAL, MX","FM-15","99999","V020","050,1,N,0021,1","22000,1,9,N","016093,1,9,9","+0150,1","+0100,1","99999,9",,,,,"00,99,1,99,9,99,9,99999,9,99,9,99,9","10176,1,99999,9",,"MET056METAR MMLM 131540Z 05004KT 10SM SKC 15/10 A3005 RMK HZY=",
"76361599999","2025-02-13T16:40:00","4","25.685194","-109.080806","4.87","VALLE DEL FUERTE INTERNATIONAL, MX","FM-15","99999","V020","050,1,N,0026,1","22000,1,9,N","016093,1,9,9","+0180,1","+0110,1","99999,9",,,,,"00,99,1,99,9,99,9,99999,9,99,9,99,9","10183,1,99999,9",,"MET056METAR MMLM 131640Z 05005KT 10SM SKC 18/11 A3007 RMK HZY=",
"76361599999","2025-02-13T17:40:00","4","25.685194","-109.080806","4.87","VALLE DEL FUERTE INTERNATIONAL, MX","FM-15","99999","V020","310,1,N,0046,1","22000,1,9,N","016093,1,9,9","+0210,1","+0100,1","10187,1",,,,,"00,99,1,99,9,99,9,99999,9,99,9,99,9","10186,1,99999,9",,"MET063METAR MMLM 131740Z 31009KT 10SM SKC 21/10 A3008 RMK SLP187 HZY=",
"76361599999","2025-02-13T18:40:00","4","25.685194","-109.080806","4.87","VALLE DEL FUERTE INTERNATIONAL, MX","FM-15","99999","V020","270,1,N,0051,1","22000,1,9,N","016093,1,9,9","+0230,1","+0090,1","99999,9",,,,,"00,99,1,99,9,99,9,99999,9,99,9,99,9","10183,1,99999,9",,"MET056METAR MMLM 131840Z 27010KT 10SM SKC 23/09 A3007 RMK HZY=",
"76361599999","2025-02-13T19:40:00","4","25.685194","-109.080806","4.87","VALLE DEL FUERTE INTERNATIONAL, MX","FM-15","99999","V020","320,1,N,0046,1","22000,1,9,N","016093,1,9,9","+0250,1","+0080,1","99999,9",,,,,"00,99,1,99,9,99,9,99999,9,99,9,99,9","10176,1,99999,9",,"MET056METAR MMLM 131940Z 32009KT 10SM SKC 25/08 A3005 RMK HZY=",
"76361599999","2025-02-13T20:40:00","4","25.685194","-109.080806","4.87","VALLE DEL FUERTE INTERNATIONAL, MX","FM-15","99999","V020","999,9,C,0000,1","22000,1,9,N","016093,1,9,9","+0260,1","+0070,1","10163,1",,,,,"00,99,1,99,9,99,9,99999,9,99,9,99,9","10163,1,99999,9",,"MET063METAR MMLM 132040Z 00000KT 10SM SKC 26/07 A3001 RMK SLP163 HZY=",
