"STATION","DATE","SOURCE","LATITUDE","LONGITUDE","ELEVATION","NAME","REPORT_TYPE","CALL_SIGN","QUALITY_CONTROL","WND","CIG","VIS","TMP","DEW","SLP","AA1","AA2","AA3","AY1","AY2","GA1","GA2","GA3","GF1","IA1","IA2","KA1","KA2","MA1","MD1","MW1","REM","EQD"
"76373099999","2004-01-01T00:00:00","4","25.35","-105.75","1967.0","TEPEHUANES DGO., MX","FM-12","99999","V020","250,1,N,0040,1","09000,1,9,N","070000,1,N,1","+0182,1","+0013,1","10143,1","06,0000,9,1","24,0000,9,1",,,,"02,1,+00300,9,08,9","01,1,+03000,9,03,9",,"05,99,1,02,1,01,1,00450,1,03,1,02,1","01,9",,"120,M,+0220,1","180,N,-0030,1","99999,9,08203,1","1,1,012,1,+033,1",,"SYN136AAXX  01001 76373 32488 52504 10182 20013 38203 40143 51012 82132 92340 333 10220 21030 30/// 50280 56555 58033 70000 82810 81360 82070;","Q01  00002PRCP06"
"76373099999","2004-01-01T18:00:00","4","25.35","-105.75","1967.0","TEPEHUANES DGO., MX","FM-12","99999","V020","999,9,C,0000,1","06000,1,9,N","070000,1,N,1","+0138,1","+0038,1","10230,1","06,0000,9,1",,,,,"04,1,+03000,9,03,9","08,1,+06000,9,02,9",,"08,99,1,04,1,00,1,01750,1,03,1,07,1","01,9",,"120,M,+0148,1","240,N,+0028,1","99999,9,08256,1","2,1,004,1,+036,1",,"SYN124AAXX  01181 76373 32788 80000 10138 20038 38256 40230 52004 84037 91736 333 10148 20028 30/// 56066 58036 84360 88270 99020;","Q01  00002PRCP06"
"76373099999","2004-01-05T15:00:00","4","25.35","-105.75","1967.0","TEPEHUANES DGO., MX","FM-12","99999","V020","999,9,C,0000,1","22000,1,9,N","070000,1,N,1","+0022,1","-0004,1","10196,1","00,0020,9,1",,,,,"00,1,+99999,9,99,9",,,"00,99,1,00,1,00,1,99999,9,00,1,00,1","09,9",,,,"99999,9,08219,1",,,"SYN094AAXX  05151 76373 02988 00000 10022 21004 38219 40196 5//// 60020 91440 333 31/// 58/// 60020;",
"76373099999","2004-01-05T21:00:00","4","25.35","-105.75","1967.0","TEPEHUANES DGO., MX","FM-12","99999","V020","150,1,N,0010,1","22000,1,9,N","070000,1,N,1","+0216,2","+0008,1","10177,1","06,0000,9,1",,,,,"01,1,+06000,9,00,9",,,"01,99,1,00,1,00,1,99999,9,00,1,02,1","01,9",,,,"99999,9,08184,1","6,1,035,1,+999,9",,"SYN100AAXX  05211 76373 32988 11501 10216 20008 38184 40177 56035 80002 92040 333 30/// 56006 58/// 81070;","Q01+002163ATOT  Q02  00002PRCP06"
"76373099999","2004-01-06T15:00:00","4","25.35","-105.75","1967.0","TEPEHUANES DGO., MX","FM-12","99999","V020","999,9,C,0000,1","22000,1,C,N","070000,1,N,1","+0018,1","-0013,1","10205,1","06,0000,9,1",,,,,"03,1,+03000,9,03,9",,,"06,99,1,03,1,00,1,01750,1,03,1,06,1","01,9",,,,"99999,9,08237,1","9,9,999,9,+018,1",,"SYN106AAXX  06151 76373 32788 60000 10018 21013 38237 40205 5//// 83036 91440 333 30/// 56066 58018 83360 83070;","Q01  00002PRCP06"
"76373099999","2004-01-06T21:00:00","4","25.35","-105.75","1967.0","TEPEHUANES DGO., MX","FM-12","99999","V020","120,1,N,0050,1","03000,1,9,N","070000,1,N,1","+0172,1","+0032,1","10180,1","06,0000,9,1",,,,,"03,1,+00300,9,08,9","03,1,+03000,9,03,9",,"07,99,1,03,1,01,1,00450,1,06,1,02,1","01,9",,,,"99999,9,08210,1","6,1,030,1,+026,1",,"SYN112AAXX  06211 76373 32488 71205 10172 20032 38210 40180 56030 83162 92040 333 30/// 56555 58026 83810 83360 81070;","Q01  00002PRCP06"
"76373099999","2004-01-07T00:00:00","4","25.35","-105.75","1967.0","TEPEHUANES DGO., MX","FM-12","99999","V020","130,1,N,0030,1","03600,1,9,N","070000,1,N,1","+0178,1","+0022,1","10144,1","06,0000,9,1","24,0000,9,1",,,,"02,1,+00300,9,08,9","02,1,+03000,9,03,9",,"08,99,1,02,1,01,1,00450,1,03,1,08,1","01,9",,"120,M,+0202,1","180,N,-0008,1","99999,9,08201,1","7,1,009,1,+027,1",,"SYN136AAXX  07001 76373 32488 81303 10178 20022 38201 40144 57009 82138 92340 333 10202 21008 30/// 50300 56555 58027 70000 82810 82360 86270;","Q01  00002PRCP06"
"76373099999","2004-01-07T15:00:00","4","25.35","-105.75","1967.0","TEPEHUANES DGO., MX","FM-12","99999","V020","999,9,C,0000,1","03000,1,9,N","070000,1,N,1","+0046,1","+0007,1","10220,1","06,0000,9,1",,,,,"08,1,+03000,9,03,9",,,"08,99,1,08,1,00,1,01750,1,07,1,00,1","01,9",,,,"99999,9,08241,1","9,9,999,9,+004,1",,"SYN100AAXX  07151 76373 32788 80000 10046 20007 38241 40220 5//// 88070 91440 333 30/// 56050 58004 88360;","Q01  00002PRCP06"
"76373099999","2004-01-07T18:00:00","4","25.35","-105.75","1967.0","TEPEHUANES DGO., MX","FM-12","99999","V020","330,1,N,0010,1","03600,1,C,N","070000,1,N,1","+0120,1","+0037,1","10224,1","06,0000,9,1",,,,,"01,1,+00300,9,08,9",,,"08,99,1,01,1,01,1,00450,1,07,1,00,1","01,9",,"120,M,+0128,1","240,N,+0024,1","99999,9,08242,1","2,1,001,1,+002,1",,"SYN118AAXX  07181 76373 32488 83301 10120 20037 38242 40224 52001 81170 91740 333 10128 20024 30/// 56550 58002 81810 87360;","Q01  00002PRCP06"
"76373099999","2004-01-07T21:00:00","4","25.35","-105.75","1967.0","TEPEHUANES DGO., MX","FM-12","99999","V020","120,1,N,0030,1","00300,1,9,N","070000,1,N,1","+0176,1","+0060,1","10175,1","03,9999,2,9",,,"5,1,03,1","5,1,03,1","06,1,+00300,9,08,9",,,"07,99,1,06,1,07,1,00450,1,03,1,00,1","01,9",,,,"99999,9,08214,1","6,1,028,1,+002,1","50,1","SYN118AAXX  07211 76373 21488 71203 10176 20060 38214 40175 56028 75055 86730 92040 333 30/// 56550 58002 69907 86810 81360;",
"76373099999","2004-01-08T00:00:00","4","25.35","-105.75","1967.0","TEPEHUANES DGO., MX","FM-12","99999","V020","270,1,N,0030,1","22000,1,9,N","070000,1,N,1","+0184,1","+0072,1","10148,1","02,0000,9,1","24,9999,2,9",,,,"03,1,+00300,9,08,9",,,"04,99,1,03,1,01,1,00450,1,03,1,00,1","01,9",,"120,M,+0222,1","180,N,+0024,1","99999,9,08212,1","7,1,002,1,+011,1",,"SYN136AAXX  08001 76373 12488 42703 10184 20072 38212 40148 57002 69906 83130 92342 333 10222 20024 30/// 50190 56550 58011 79999 83810 81360;","Q01  00002PRCP02"
"76373099999","2004-01-10T15:00:00","4","25.35","-105.75","1967.0","TEPEHUANES DGO., MX","FM-12","99999","V020","999,9,C,0000,1","03000,1,9,N","070000,1,N,1","+0068,1","+0028,1","10226,1","06,0000,9,1",,,,,"08,1,+03000,9,03,9",,,"08,99,1,08,1,00,1,01250,1,07,1,00,1","01,9",,,,"99999,9,08242,1",,,"SYN100AAXX  10151 76373 32688 80000 10068 20028 38242 40226 5//// 88070 91450 333 30/// 56060 58/// 88360;","Q01  00002PRCP06"
"76373099999","2004-01-12T15:00:00","4","25.35","-105.75","1967.0","TEPEHUANES DGO., MX","FM-12","99999","V020","330,1,N,0010,1","03000,1,9,N","070000,1,N,1","+0050,1","+0032,1","10223,1","15,0040,9,1",,,,,"08,1,+03000,9,03,9",,,"08,99,1,08,1,00,1,01750,1,07,1,00,1","09,9",,,,"99999,9,08243,1","9,9,999,9,+015,1",,"SYN112AAXX  12151 76373 02788 83301 10050 20032 38243 40223 5//// 60049 88070 91440 333 31/// 56060 58015 60049 88360;",
"76373099999","2004-01-12T18:00:00","4","25.35","-105.75","1967.0","TEPEHUANES DGO., MX","FM-12","99999","V020","999,9,C,0000,1","03000,1,9,N","070000,1,N,1","+0090,1","+0060,1","10243,1","06,0000,9,1",,,,,"08,1,+03000,9,03,9",,,"08,99,1,08,1,00,1,01750,1,07,1,00,1","09,9",,"120,M,+0186,1","240,N,+0027,1","99999,9,08257,1","7,1,014,1,+023,1",,"SYN112AAXX  12181 76373 32788 80000 10090 20060 38257 40243 57014 88070 91735 333 10186 20027 31/// 56060 58023 88360;","Q01  00002PRCP06"
"76373099999","2004-01-13T00:00:00","4","25.35","-105.75","1967.0","TEPEHUANES DGO., MX","FM-12","99999","V020","999,9,C,0000,1","99999,9,9,N","070000,1,N,1","+0122,1","+0076,1","10200,1","03,0000,2,1",,,"5,1,06,1","5,1,06,1",,,,"08,99,1,99,9,99,9,00250,1,99,9,99,9",,,,,"99999,9,08233,1","4,1,000,1,+999,9","50,1","SYN072AAXX  13001 76373 01388 80000 10122 20076 38233 40200 54000 69927 75055;",
"76373099999","2004-01-13T15:00:00","4","25.35","-105.75","1967.0","TEPEHUANES DGO., MX","FM-12","99999","V020","999,9,C,0000,1","00300,1,9,N","030000,1,N,1","+0094,1","+0079,1","10213,1","15,0040,9,1",,,,,"08,1,+00300,9,06,9",,,"08,99,1,08,1,07,1,00250,1,99,9,99,9","09,9",,,,"99999,9,08254,1","9,9,999,9,+011,1",,"SYN112AAXX  13151 76373 02380 80000 10094 20079 38254 40213 5//// 60049 887// 91440 333 31/// 56600 58011 60049 88610;",
"76373099999","2004-01-13T21:00:00","4","25.35","-105.75","1967.0","TEPEHUANES DGO., MX","FM-12","99999","V020","999,9,C,0000,1","00300,1,9,N","006000,1,N,1","+0116,1","+0096,1","10187,1","03,0030,9,1",,,"6,1,03,1","5,1,03,1","08,1,+00300,9,06,9",,,"08,99,1,08,1,07,1,00250,1,99,9,99,9","11,9",,,,"99999,9,08230,1","6,1,030,1,-003,1","51,1","SYN112AAXX  13211 76373 11356 80000 10116 20096 38230 40187 56030 60037 75165 887// 92040 333 32/// 56/// 59003 88610;",
"76373099999","2004-01-14T00:00:00","4","25.35","-105.75","1967.0","TEPEHUANES DGO., MX","FM-12","99999","V020","999,9,C,0000,1","99999,9,9,N","004000,1,N,1","+0110,1","+0093,1","10185,1","03,0041,9,1",,,"6,1,06,1","5,1,06,1",,,,"08,99,1,99,9,99,9,00250,1,99,9,99,9",,,,,"99999,9,08230,1","4,1,000,1,+999,9","58,1","SYN072AAXX  14001 76373 01340 80000 10110 20093 38230 40185 54000 60047 75865;",
"76373099999","2004-01-14T15:00:00","4","25.35","-105.75","1967.0","TEPEHUANES DGO., MX","FM-12","99999","V020","120,1,N,0020,1","00300,1,9,N","030000,1,N,1","+0088,1","+0072,1","10175,1","15,0080,9,1",,,,,"08,1,+00300,9,06,9",,,"08,99,1,08,1,06,1,00250,1,99,9,99,9","09,9",,,,"99999,9,08215,1","9,9,999,9,-039,1",,"SYN112AAXX  14151 76373 02380 81202 10088 20072 38215 40175 5//// 60089 886// 91440 333 31/// 56/// 59039 60089 88610;",
"76373099999","2004-01-14T18:00:00","4","25.35","-105.75","1967.0","TEPEHUANES DGO., MX","FM-12","99999","V020","130,1,N,0010,1","03000,1,9,N","070000,1,N,1","+0120,1","+0063,1","10170,1","06,0000,9,1",,,,,"04,1,+00300,9,06,9","02,1,+03000,9,03,9",,"08,99,1,04,1,06,1,00250,1,03,1,02,1","09,9",,"120,M,+0128,1","240,N,+0074,1","99999,9,08212,1","7,1,003,1,-048,1",,"SYN124AAXX  14181 76373 32388 81301 10120 20063 38212 40170 57003 84632 91440 333 10128 20074 31/// 56333 59048 84610 82360 82070;","Q01  00002PRCP06"
"76373099999","2004-01-15T00:00:00","4","25.35","-105.75","1967.0","TEPEHUANES DGO., MX","FM-12","99999","V020","210,1,N,0020,1","03000,1,C,N","070000,1,N,1","+0172,1","+0032,1","10089,1","06,0000,9,1","24,0084,9,1",,,,"04,1,+00300,9,08,9","03,1,+03000,9,03,9",,"08,99,1,04,1,02,1,00450,1,03,1,02,1","09,9",,"120,M,+0199,1","180,N,+0074,1","99999,9,08168,1","7,1,013,1,-062,1",,"SYN136AAXX  15001 76373 32488 82102 10172 20032 38168 40089 57013 84232 92336 333 10199 20074 31/// 50110 56666 59062 70084 84810 83360 81070;","Q01  00002PRCP06"
"76373099999","2004-01-15T15:00:00","4","25.35","-105.75","1967.0","TEPEHUANES DGO., MX","FM-12","99999","V020","999,9,C,0000,1","00300,1,9,N","070000,1,N,1","+0074,1","+0062,1","10127,1","06,9999,9,9","15,0000,9,1",,,,"08,1,+00300,9,06,9",,,"08,99,1,08,1,06,1,00450,1,00,1,00,1","09,9",,,,"99999,9,08182,1","9,9,999,9,-038,1",,"SYN112AAXX  15151 76373 02488 80000 10074 20062 38182 40127 5//// 69901 88600 91440 333 31/// 56300 59038 69909 88610;","Q01  00002PRCP15"
"76373099999","2004-01-19T21:00:00","4","25.35","-105.75","1967.0","TEPEHUANES DGO., MX","FM-12","99999","V020","150,1,N,0020,1","22000,1,9,N","070000,1,N,1","+0154,1","-0022,1","10164,1","06,0000,9,1",,,,,"02,1,+06000,9,09,9",,,"02,99,1,99,9,00,1,99999,9,00,1,02,1","01,9",,,,"99999,9,08172,1","6,1,040,1,-030,1",,"SYN100AAXX  19211 76373 32988 21502 10154 21022 38172 40164 56040 80002 92050 333 30/// 56006 59030 82970;","Q01+000002SCOTLCQ02  00002PRCP06"
"76373099999","2004-01-20T00:00:00","4","25.35","-105.75","1967.0","TEPEHUANES DGO., MX","FM-12","99999","V020","140,1,N,0010,1","22000,1,9,N","070000,1,N,1","+0164,1","-0039,1","10117,1","06,0000,9,1","24,0000,9,1",,,,,,,"04,99,1,00,1,00,1,99999,9,00,1,04,1","01,9",,"120,M,+0188,1","180,N,-0047,1","99999,9,08161,1","6,1,011,1,-015,1",,"SYN124AAXX  20001 76373 32988 41401 10164 21039 38161 40117 56011 80004 92340 333 10188 21047 30/// 50160 56006 59015 70000 84070;","Q01  00002PRCP06"
"76373099999","2004-01-20T15:00:00","4","25.35","-105.75","1967.0","TEPEHUANES DGO., MX","FM-12","99999","V020","999,9,C,0000,1","03000,1,9,N","070000,1,N,1","+0000,1","-0020,1","10177,1","06,0000,9,1",,,,,"06,1,+03000,9,03,9",,,"08,99,1,06,1,00,1,01250,1,07,1,06,1","01,9",,,,"99999,9,08187,1","9,9,999,9,-031,1",,"SYN106AAXX  20151 76373 32688 80000 11000 21020 38187 40177 5//// 86076 91440 333 30/// 56066 59031 86360 84070;","Q01  00002PRCP06"
"76373099999","2004-01-20T18:00:00","4","25.35","-105.75","1967.0","TEPEHUANES DGO., MX","FM-12","99999","V020","330,1,N,0020,1","09000,1,C,N","070000,1,N,1","+0140,2","-0053,1","10175,1","06,0000,9,1",,,,,"03,1,+03000,9,03,9",,,"08,99,1,03,1,00,1,01750,1,05,1,08,1","01,9",,"120,M,+0188,1","240,N,-0022,1","99999,9,08186,1","6,1,001,1,-026,1",,"SYN118AAXX  20181 76373 32788 83302 10140 21053 38186 40175 56001 83058 91738 333 10188 21022 30/// 56066 59026 83360 88270;","Q01+001403ATOT  Q02  00002PRCP06"
"76373099999","2004-01-21T00:00:00","4","25.35","-105.75","1967.0","TEPEHUANES DGO., MX","FM-12","99999","V020","270,1,N,0060,1","06000,1,C,N","070000,1,N,1","+0138,1","-0019,1","10112,1","06,0000,9,1","24,0000,9,1",,,,"02,1,+03000,9,03,9","06,1,+06000,9,00,9",,"08,99,1,02,1,00,1,01250,1,03,1,07,1","01,9",,"120,M,+0198,1","180,N,-0022,1","99999,9,08174,1","1,1,013,1,-013,1",,"SYN136AAXX  21001 76373 32688 82706 10138 21019 38174 40112 51013 82037 92340 333 10198 21022 30/// 50340 56066 59013 70000 82360 86070 99020;","Q01  00002PRCP06"
"76373099999","2004-01-21T15:00:00","4","25.35","-105.75","1967.0","TEPEHUANES DGO., MX","FM-12","99999","V020","999,9,C,0000,1","22000,1,9,N","070000,1,N,1","+0006,1","-0008,1","10228,1","06,0000,9,1",,,,,"02,1,+03000,9,03,9",,,"03,99,1,02,1,00,1,01250,1,03,1,02,1","01,9",,,,"99999,9,08221,1","9,9,999,9,+034,1",,"SYN106AAXX  21151 76373 32688 30000 10006 21008 38221 40228 5//// 82032 91440 333 30/// 56066 58034 82360 81070;","Q01  00002PRCP06"
"76373099999","2004-01-21T18:00:00","4","25.35","-105.75","1967.0","TEPEHUANES DGO., MX","FM-12","99999","V020","150,1,N,0030,1","22000,1,9,N","070000,1,N,1","+0120,2","-0001,1","10229,1","06,0000,9,1",,,,,"01,1,+03000,9,03,9",,,"03,99,1,01,1,00,1,01250,1,03,1,02,1","01,9",,"120,M,+0132,1","240,N,-0030,1","99999,9,08224,1","2,1,003,1,+038,1",,"SYN118AAXX  21181 76373 32688 31503 10120 21001 38224 40229 52003 81032 91736 333 10132 21030 30/// 56066 58038 81360 82070;","Q01+001203ATOT  Q02  00002PRCP06"
"76373099999","2004-01-26T18:00:00","4","25.35","-105.75","1967.0","TEPEHUANES DGO., MX","FM-12","99999","V020","150,1,N,0020,1","22000,1,9,N","070000,1,N,1","+0092,1","-0073,1","10221,1","06,0000,9,1",,,,,"00,1,+99999,9,99,9",,,"00,99,1,00,1,00,1,99999,9,00,1,00,1","01,9",,"120,M,+0152,1","240,N,-0044,1","99999,9,08202,1","2,1,005,1,+039,1",,"SYN094AAXX  26181 76373 32988 01502 10092 21073 38202 40221 52005 91738 333 10152 21044 30/// 58039;","Q01  00002PRCP06"
"76373099999","2004-01-27T00:00:00","4","25.35","-105.75","1967.0","TEPEHUANES DGO., MX","FM-12","99999","V020","120,1,N,0020,1","22000,1,9,N","070000,1,N,1","+0166,1","-0102,1","10106,1","06,0000,9,1","24,0000,9,1",,,,"00,1,+99999,9,99,9",,,"00,99,1,00,1,00,1,99999,9,00,1,00,1","01,9",,"120,M,+0187,1","180,N,-0044,1","99999,9,08174,1","7,1,004,1,+018,1",,"SYN100AAXX  27001 76373 32988 01202 10166 21102 38174 40106 57004 92340 333 10187 21044 30/// 58018 70000;","Q01  00002PRCP06Q02  00002PRCP24"
"76373099999","2004-01-27T18:00:00","4","25.35","-105.75","1967.0","TEPEHUANES DGO., MX","FM-12","99999","V020","999,9,C,0000,1","22000,1,9,N","070000,1,N,1","+0098,1","-0063,1","10237,1","06,0000,9,1",,,,,"04,1,+06000,9,00,9",,,"04,99,1,00,1,00,1,99999,9,00,1,04,1","01,9",,"120,M,+0104,1","240,N,-0056,1","99999,9,08215,1","6,1,007,1,+013,1",,"SYN112AAXX  27181 76373 32988 40000 10098 21063 38215 40237 56007 80004 91736 333 10104 21056 30/// 56006 58013 84070;","Q01  00002PRCP06"
"76373099999","2004-01-27T21:00:00","4","25.35","-105.75","1967.0","TEPEHUANES DGO., MX","FM-12","99999","V020","120,1,N,0030,1","06000,1,9,N","070000,1,N,1","+0164,1","-0097,1","10168,2","06,0000,9,1",,,,,"05,1,+06000,9,00,9",,,"05,99,1,00,1,00,1,99999,9,00,1,04,1","01,9",,,,"99999,9,08180,1","6,1,035,1,+002,1",,"SYN100AAXX  27211 76373 32988 51203 10164 21097 38180 40168 56035 80004 92037 333 30/// 56006 58002 85070;","Q01+101683APOSLPQ02  00002PRCP06"
"76373099999","2004-01-28T00:00:00","4","25.35","-105.75","1967.0","TEPEHUANES DGO., MX","FM-12","99999","V020","120,1,N,0020,1","22000,1,9,N","070000,1,N,1","+0170,1","-0115,1","10128,1","06,0000,9,1","24,0000,9,1",,,,,,,"03,99,1,00,1,00,1,99999,9,00,1,06,1","01,9",,"120,M,+0194,1","180,N,+0156,1","99999,9,08176,1","7,1,004,1,+002,1",,"SYN124AAXX  28001 76373 32988 31202 10170 21115 38176 40128 57004 80006 92340 333 10194 20156 30/// 50290 56006 58002 70000 83070;","Q01  00002PRCP06"
"76373099999","2004-01-28T21:00:00","4","25.35","-105.75","1967.0","TEPEHUANES DGO., MX","FM-12","99999","V020","050,1,N,0010,1","06000,1,9,N","070000,1,N,1","+0190,1","-0131,1","10146,1","06,0000,9,1",,,,,"08,1,+06000,9,02,9",,,"08,99,1,00,1,00,1,99999,9,00,1,07,1","01,9",,,,"99999,9,08167,1","6,1,038,1,+013,1",,"SYN106AAXX  28211 76373 32988 80501 10190 21131 38167 40146 56038 80007 92040 333 30/// 56006 58013 88270 99020;","Q01  00002PRCP06"
"76373099999","2004-01-29T00:00:00","4","25.35","-105.75","1967.0","TEPEHUANES DGO., MX","FM-12","99999","V020","210,1,N,0050,1","99999,9,9,N","070000,1,N,1","+0170,1","-0122,1","10113,1","06,0000,9,1","24,0000,9,1",,,,,,,"08,99,1,00,1,00,1,99999,9,00,1,08,1","01,9",,"120,M,+0213,1","180,N,-0050,1","99999,9,08169,1","7,1,002,1,-007,1",,"SYN124AAXX  29001 76373 32988 82105 10170 21122 38169 40113 57002 80008 92340 333 10213 21050 30/// 50280 56006 59007 70000 88270;","Q01  00002PRCP06"
"76373099999","2004-01-29T15:00:00","4","25.35","-105.75","1967.0","TEPEHUANES DGO., MX","FM-12","99999","V020","999,9,C,0000,1","06000,1,9,N","070000,1,N,1","-0008,1","-0011,1","10197,1","06,0000,9,1",,,,,"08,1,+06000,9,02,9",,,"08,99,1,00,1,00,1,99999,9,00,1,08,1","01,9",,,,"99999,9,08185,1","9,9,999,9,-025,1",,"SYN100AAXX  29151 76373 32988 80000 11008 21011 38185 40197 5//// 80008 91440 333 30/// 56006 59025 88270;","Q01  00002PRCP06"
"76373099999","2004-01-31T18:00:00","4","25.35","-105.75","1967.0","TEPEHUANES DGO., MX","FM-12","99999","V020","360,1,N,0010,1","22000,1,9,N","070000,1,N,1","+0128,1","-0045,1","10162,1","06,0000,9,1",,,,,"02,1,+09000,9,00,9",,,"02,99,1,00,1,00,1,99999,9,00,1,05,1","01,9",,"120,M,+0138,1","240,N,-0046,1","99999,9,08169,1","6,1,008,1,-031,1",,"SYN112AAXX  31180 76373 32988 23601 10128 21045 38169 40162 56008 80005 91740 333 10138 21046 30/// 56003 59031 82080;","Q01  00002PRCP06"
"76373099999","2004-02-01T00:00:00","4","25.35","-105.75","1967.0","TEPEHUANES DGO., MX","FM-12","99999","V020","250,1,N,0040,1","22000,1,9,N","070000,1,N,1","+0166,1","-0092,1","10063,1","06,0000,9,1","24,0000,9,1",,,,,,,"02,99,1,00,1,00,1,99999,9,00,1,04,1","01,9",,"120,M,+0204,1","180,N,-0046,1","99999,9,08128,1","6,1,017,1,-024,1",,"SYN124AAXX  01000 76373 32988 22504 10166 21092 38128 40063 56017 80004 92350 333 10204 21046 30/// 50400 56001 59024 70000 81080;","Q01  00002PRCP06"
"76373099999","2004-02-02T00:00:00","4","25.35","-105.75","1967.0","TEPEHUANES DGO., MX","FM-12","99999","V020","330,1,N,0080,1","22000,1,9,N","070000,1,N,1","+0164,1","-0087,1","10064,1","06,0000,9,1","24,0000,9,1",,,,"00,1,+99999,9,99,9",,,"00,99,1,00,1,00,1,99999,9,00,1,00,1","01,9",,"120,M,+0202,1","180,N,-0042,1","99999,9,08145,1","2,1,004,1,+017,1",,"SYN106AAXX  02001 76373 32988 03308 10164 21087 38145 40064 52004 92340 333 10202 21042 30/// 50400 58017 70000;","Q01  00002PRCP06Q02  00002PRCP24"
"76373099999","2004-02-02T18:00:00","4","25.35","-105.75","1967.0","TEPEHUANES DGO., MX","FM-12","99999","V020","060,1,N,0010,1","22000,1,9,N","070000,1,N,1","+0116,1","-0024,1","10235,1","06,0000,9,1",,,,,"00,1,+99999,9,99,9",,,"00,99,1,00,1,00,1,99999,9,00,1,00,1","01,9",,"120,M,+0120,1","240,N,-0042,1","99999,9,08223,1","7,1,002,1,+071,1",,"SYN094AAXX  02181 76373 32988 00601 10116 21024 38223 40235 57002 91740 333 10120 21042 30/// 58071;","Q01  00002PRCP06"
"76373099999","2004-02-03T15:00:00","4","25.35","-105.75","1967.0","TEPEHUANES DGO., MX","FM-12","99999","V020","999,9,C,0000,1","03000,1,9,N","070000,1,N,1","+0030,1","-0024,1","10139,1","06,0000,9,1",,,,,"08,1,+03000,9,03,9",,,"08,99,1,08,1,00,1,01250,1,07,1,00,1","01,9",,,,"99999,9,08185,1","9,9,999,9,-036,1",,"SYN100AAXX  03151 76373 32688 80000 10030 21024 38185 40139 5//// 88070 91440 333 30/// 56060 59036 88360;","Q01  00002PRCP06"
"76373099999","2004-02-03T18:00:00","4","25.35","-105.75","1967.0","TEPEHUANES DGO., MX","FM-12","99999","V020","120,1,N,0010,1","06000,1,9,N","070000,1,N,1","+0142,1","+0050,1","10146,1","06,0000,9,1",,,,,"08,1,+06000,9,02,9",,,"08,99,1,00,1,00,1,99999,9,00,1,07,1","01,9",,"120,M,+0150,1","240,N,+0008,1","99999,9,08183,1","6,1,002,1,-040,1",,"SYN118AAXX  03181 76373 32988 81201 10142 20050 38183 40146 56002 80007 91740 333 10150 20008 30/// 56006 59040 88270 99020;","Q01  00002PRCP06"
"76373099999","2004-02-03T21:00:00","4","25.35","-105.75","1967.0","TEPEHUANES DGO., MX","FM-12","99999","V020","250,1,N,0050,1","22000,1,9,N","070000,1,N,1","+0226,1","-0119,2","10096,1","06,0000,9,1",,,,,"01,1,+03000,9,03,9",,,"03,99,1,01,1,00,1,01250,1,03,1,06,1","01,9",,,,"99999,9,08158,1","6,1,025,1,-030,1",,"SYN106AAXX  03211 76373 32688 32505 10226 21119 38158 40096 56025 81036 92042 333 30/// 56066 59030 81360 82070;","Q01-001193ATOD  Q02  00002PRCP06"
"76373099999","2004-02-04T15:00:00","4","25.35","-105.75","1967.0","TEPEHUANES DGO., MX","FM-12","99999","V020","280,1,N,0030,1","22000,1,9,N","070000,1,N,1","+0108,1","-0023,1","10064,1","06,0000,9,1",,,,,"00,1,+99999,9,99,9",,,"00,99,1,00,1,00,1,99999,9,00,1,00,1","01,9",,,,"99999,9,08155,1","9,9,999,9,-030,1",,"SYN082AAXX  04151 76373 32988 02803 10108 21023 38155 40064 5//// 91442 333 30/// 59030;","Q01  00002PRCP06"
"76373099999","2004-02-05T18:00:00","4","25.35","-105.75","1967.0","TEPEHUANES DGO., MX","FM-12","99999","V020","300,1,N,0050,1","22000,1,9,N","070000,1,N,1","+0176,1","+0068,1","10127,1","06,0000,9,1",,,,,"01,1,+06000,9,00,9",,,"01,99,1,00,1,00,1,99999,9,00,1,05,1","01,9",,"120,M,+0180,1","240,N,+0010,1","99999,9,08163,1","4,1,000,1,+010,1",,"SYN112AAXX  05181 76373 32988 13005 10176 20068 38163 40127 54000 80005 91735 333 10180 20010 30/// 56006 58010 81070;","Q01  00002PRCP06"
"76373099999","2004-02-07T21:00:00","4","25.35","-105.75","1967.0","TEPEHUANES DGO., MX","FM-12","99999","V020","150,1,N,0020,1","09000,1,9,N","070000,1,N,1","+0168,1","-0047,1","10223,1","06,0000,9,1",,,,,"08,1,+09000,9,02,9",,,"08,99,1,00,1,00,1,99999,9,00,1,07,1","01,9",,,,"99999,9,08219,1","6,1,029,1,+023,1",,"SYN100AAXX  07211 76373 32988 81502 10168 21047 38219 40223 56029 80007 92050 333 30/// 56006 58023 88280;","Q01  00002PRCP06"
"76373099999","2004-02-08T00:00:00","4","25.35","-105.75","1967.0","TEPEHUANES DGO., MX","FM-12","99999","V020","120,1,N,0020,1","99999,9,9,N","070000,1,N,1","+0160,1","-0055,1","10170,1","06,0000,9,1","24,0000,9,1",,,,,,,"08,99,1,00,1,00,1,99999,9,00,1,09,1","01,9",,"120,M,+0188,1","180,N,-0054,1","99999,9,08202,1","6,1,017,1,+000,1",,"SYN124AAXX  08001 76373 32988 81202 10160 21055 38202 40170 56017 80009 92350 333 10188 21054 30/// 50200 56006 58000 70000 88180;","Q01  00002PRCP06"
"76373099999","2004-02-09T15:00:00","4","25.35","-105.75","1967.0","TEPEHUANES DGO., MX","FM-12","99999","V020","999,9,C,0000,1","09000,1,C,N","070000,1,N,1","+0018,1","-0013,1","10216,1","06,0000,9,1",,,,,"01,1,+03000,9,03,9",,,"05,99,1,01,1,00,1,01250,1,03,1,05,1","01,9",,,,"99999,9,08217,1","9,9,999,9,-009,1",,"SYN106AAXX  09151 76373 32688 50000 10018 21013 38217 40216 5//// 81035 91440 333 30/// 56066 59009 81360 84070;","Q01  00002PRCP06"
"76373099999","2004-02-09T18:00:00","4","25.35","-105.75","1967.0","TEPEHUANES DGO., MX","FM-12","99999","V020","060,1,N,0010,1","09000,1,C,N","070000,1,N,1","+0170,1","-0003,1","10205,1","06,0000,9,1",,,,,"01,1,+03000,9,03,9",,,"08,99,1,01,1,00,1,01250,1,03,1,08,1","01,9",,"120,M,+0180,1","240,N,-0018,1","99999,9,08214,1","7,1,003,1,+001,1",,"SYN118AAXX  09181 76373 32688 80601 10170 21003 38214 40205 57003 81038 91740 333 10180 21018 30/// 56066 58001 81360 87270;","Q01  00002PRCP06"
"76373099999","2004-02-09T21:00:00","4","25.35","-105.75","1967.0","TEPEHUANES DGO., MX","FM-12","99999","V020","300,1,N,0080,1","03600,1,C,N","070000,1,N,1","+0210,1","-0041,1","10142,2","06,0000,9,1",,,,,"01,1,+00300,9,08,9","02,1,+03000,9,03,9",,"08,99,1,01,1,01,1,00450,1,03,1,08,1","01,9",,,,"99999,9,08186,1","6,1,028,1,+004,1",,"SYN112AAXX  09211 76373 32488 83008 10210 21041 38186 40142 56028 81138 92040 333 30/// 56666 58004 81810 82360 88270;","Q01+101423APOSLPQ02  00002PRCP06"
"76373099999","2004-02-10T00:00:00","4","25.35","-105.75","1967.0","TEPEHUANES DGO., MX","FM-12","99999","V020","270,1,N,0040,1","03600,1,9,N","070000,1,N,1","+0182,1","-0005,1","10123,1","06,0000,9,1","24,0000,9,1",,,,"02,1,+00300,9,08,9","01,1,+03000,9,03,9",,"08,99,1,02,1,01,1,00450,1,03,1,08,1","01,9",,"120,M,+0247,1","180,N,-0018,1","99999,9,08197,1","1,1,011,1,-005,1",,"SYN136AAXX  10001 76373 32488 82704 10182 21005 38197 40123 51011 82138 92340 333 10247 21018 30/// 50340 56666 59005 70000 82810 81360 88270;","Q01  00002PRCP06"
"76373099999","2004-02-10T15:00:00","4","25.35","-105.75","1967.0","TEPEHUANES DGO., MX","FM-12","99999","V020","210,1,N,0010,1","06000,1,9,N","070000,1,N,1","+0038,1","-0003,1","10166,1","06,0000,9,1",,,,,"08,1,+06000,9,02,9",,,"08,99,1,00,1,00,1,99999,9,00,1,08,1","01,9",,,,"99999,9,08202,1","9,9,999,9,-015,1",,"SYN100AAXX  10151 76373 32988 82101 10038 21003 38202 40166 5//// 80008 91440 333 30/// 56006 59015 88270;","Q01  00002PRCP06"
"76373099999","2004-02-10T21:00:00","4","25.35","-105.75","1967.0","TEPEHUANES DGO., MX","FM-12","99999","V020","240,1,N,0050,1","00300,1,9,N","070000,1,N,1","+0186,1","-0005,1","10114,1","06,0000,9,1",,,,,"07,1,+00300,9,08,9",,,"08,99,1,06,1,02,1,00450,1,00,1,06,1","01,9",,,,"99999,9,08181,1","7,1,019,1,-005,1",,"SYN106AAXX  10211 76373 32488 82405 10186 21005 38181 40114 57019 86206 92040 333 30/// 56505 59005 87810 83070;","Q01  00002PRCP06"
"76373099999","2004-02-11T15:00:00","4","25.35","-105.75","1967.0","TEPEHUANES DGO., MX","FM-12","99999","V020","999,9,C,0000,1","22000,1,9,N","070000,1,N,1","+0082,1","+0025,1","10119,1","06,0000,9,1",,,,,"01,1,+00300,9,08,9","01,1,+03000,9,03,9",,"03,99,1,01,1,01,1,00450,1,03,1,02,1","01,9",,,,"99999,9,08172,1","9,9,999,9,-030,1",,"SYN112AAXX  11151 76373 32488 30000 10082 20025 38172 40119 5//// 81132 91436 333 30/// 56555 59030 81810 81360 81070;","Q01  00002PRCP06"
"76373099999","2004-02-11T18:00:00","4","25.35","-105.75","1967.0","TEPEHUANES DGO., MX","FM-12","99999","V020","270,1,N,0060,1","22000,1,C,N","070000,1,N,1","+0168,1","+0037,1","10129,1","03,9999,9,9",,,"5,1,06,1","5,1,06,1","04,1,+00300,9,08,9",,,"07,99,1,04,1,02,1,00450,1,00,1,04,1","01,9",,"120,M,+0180,1","240,N,+0020,1","99999,9,08187,1","2,1,015,1,+013,1","01,1","SYN130AAXX  11181 76373 21488 72706 10168 20037 38187 40129 52015 70155 84204 91740 333 10180 20020 30/// 56505 58013 69907 84810 83070;","Q01  99992PRCP03"
"76373099999","2004-02-12T15:00:00","4","25.35","-105.75","1967.0","TEPEHUANES DGO., MX","FM-12","99999","V020","210,1,N,0010,1","06000,1,9,N","070000,1,N,1","+0042,1","-0035,1","10178,1","06,0000,9,1",,,,,"01,1,+03000,9,03,9","08,1,+06000,9,02,9",,"08,99,1,01,1,00,1,01250,1,03,1,07,1","01,9",,,,"99999,9,08201,1","9,9,999,9,+029,1",,"SYN112AAXX  12151 76373 32688 82101 10042 21035 38201 40178 5//// 81037 91440 333 30/// 56066 58029 81360 88270 99020;","Q01  00002PRCP06"
"76373099999","2004-02-12T18:00:00","4","25.35","-105.75","1967.0","TEPEHUANES DGO., MX","FM-12","99999","V020","250,1,N,0070,1","03600,1,9,N","070000,1,N,1","+0184,2","-0037,1","10169,1","06,0000,9,1",,,,,"04,1,+00300,9,06,9",,,"08,99,1,04,1,06,1,00450,1,03,1,05,1","01,9",,"120,M,+0204,1","240,N,+0002,1","99999,9,08200,1","7,1,001,1,+013,1",,"SYN112AAXX  12181 76373 32488 82507 10184 21037 38200 40169 57001 84635 91740 333 10204 20002 30/// 56555 58013 84610;","Q01  00002PRCP06"
"76373099999","2004-02-12T21:00:00","4","25.35","-105.75","1967.0","TEPEHUANES DGO., MX","FM-12","99999","V020","300,1,N,0060,1","00300,1,9,N","070000,1,N,1","+0126,1","+0016,1","10168,1","02,0000,9,1","06,0000,9,1",,"5,1,03,1","5,1,03,1","08,1,+00300,9,06,9",,,"08,99,1,08,1,06,1,00450,1,99,9,99,9","01,9",,,,"99999,9,08209,1","1,1,009,1,+039,1","16,1","SYN112AAXX  12211 76373 31488 83006 10126 20016 38209 40168 51009 69906 71655 886// 92038 333 30/// 56500 58039 88610;","Q01  00002PRCP06Q02  00002PRCP02"
"76373099999","2004-02-13T00:00:00","4","25.35","-105.75","1967.0","TEPEHUANES DGO., MX","FM-12","99999","V020","180,1,N,0050,1","03600,1,9,N","070000,1,N,1","+0142,1","+0025,1","10132,1","06,0000,9,1","24,9999,9,9",,,,"02,1,+00300,9,08,9","02,1,+03000,9,03,9",,"08,99,1,02,1,01,1,00450,1,03,1,04,1","01,9",,"120,M,+0206,1","180,N,+0002,1","99999,9,08195,1","7,1,014,1,+020,1",,"SYN136AAXX  13001 76373 32488 81805 10142 20025 38195 40132 57014 82134 92340 333 10206 20002 30/// 50250 56555 58020 79999 82810 82360 85070;","Q01  00002PRCP06Q02  99992PRCP24"
"76373099999","2004-02-13T15:00:00","4","25.35","-105.75","1967.0","TEPEHUANES DGO., MX","FM-12","99999","V020","999,9,C,0000,1","22000,1,9,N","070000,1,N,1","+0060,1","+0010,1","10166,1","06,0000,9,1",,,,,"00,1,+99999,9,99,9",,,"00,99,1,00,1,00,1,99999,9,00,1,00,1","01,9",,,,"99999,9,08191,1","9,9,999,9,-010,1",,"SYN082AAXX  13151 76373 32988 00000 10060 20010 38191 40166 5//// 91440 333 30/// 59010;","Q01  00002PRCP06"
"76373099999","2004-02-13T18:00:00","4","25.35","-105.75","1967.0","TEPEHUANES DGO., MX","FM-12","99999","V020","250,1,N,0060,1","22000,1,9,N","070000,1,N,1","+0184,2","+0026,1","10150,1","06,0000,9,1",,,,,"01,1,+00300,9,08,9",,,"01,99,1,01,1,01,1,00450,1,00,1,00,1","01,9",,"120,M,+0196,1","240,N,+0010,1","99999,9,08189,1","7,1,002,1,-011,1",,"SYN112AAXX  13181 76373 32488 12506 10184 20026 38189 40150 57002 81100 91740 333 10196 20010 30/// 56500 59011 81810;","Q01+001843ATOT  Q02  00002PRCP06"
"76373099999","2004-02-16T15:00:00","4","25.35","-105.75","1967.0","TEPEHUANES DGO., MX","FM-12","99999","V020","999,9,C,0000,1","22000,1,9,N","070000,1,N,1","-0034,1","-0236,1","10275,1","06,0000,9,1",,,,,"00,1,+99999,9,99,9",,,"00,99,1,00,1,00,1,99999,9,00,1,00,1","01,9",,,,"99999,9,08248,1",,,"SYN082AAXX  16151 76373 32988 00000 11034 21236 38248 40275 5//// 91455 333 30/// 58///;","Q01  00002PRCP06"
"76373099999","2004-02-17T12:00:00","4","25.35","-105.75","1967.0","TEPEHUANES DGO., MX","FM-12","99999","V020","999,9,C,0000,1","22000,1,9,N","002000,1,N,1","-0023,1","-0081,1","10268,1","06,0000,9,1","24,0000,9,1",,,,"00,1,+99999,9,99,9",,,"00,99,1,00,1,00,1,99999,9,00,1,00,1","01,9",,"999,M,+0220,1","120,N,-0031,1","99999,9,08264,1","9,9,999,9,+033,1",,"SYN100AAXX  17121 76373 32920 00000 11023 21081 38264 40268 5//// 91150 333 10220 21031 30180 58033 70000;","Q01  00002PRCP06Q02  00002PRCP24"
"76373099999","2004-02-17T21:00:00","4","25.35","-105.75","1967.0","TEPEHUANES DGO., MX","FM-12","99999","V020","130,1,N,0100,1","22000,1,9,N","070000,1,N,1","+0216,1","-0106,1","10270,1","06,0000,9,1",,,,,"00,1,+99999,9,99,9",,,"00,99,1,00,1,00,1,99999,9,00,1,00,1","01,9",,,,"99999,9,08275,1","6,1,035,1,+035,1",,"SYN082AAXX  17211 76373 32988 01310 10216 21106 38275 40270 56035 92050 333 30/// 58035;","Q01  00002PRCP06"
"76373099999","2004-02-19T12:00:00","4","25.35","-105.75","1967.0","TEPEHUANES DGO., MX","FM-12","99999","V020","999,9,C,0000,1","22000,1,9,N","002000,1,N,1","+0006,1","-0010,1","10202,1","06,0000,9,1","24,0000,9,1",,,,"00,1,+99999,9,99,9",,,"00,99,1,00,1,00,1,99999,9,00,1,00,1","01,9","999,-0060,9","999,M,+0268,1","120,N,-0002,1","99999,9,08233,1","9,9,999,9,-065,1",,"SYN100AAXX  19121 76373 32920 00000 10006 21010 38233 40202 5//// 91150 333 10268 21002 30106 59065 70000;","Q01  00002PRCP06Q02  00002PRCP24"
"76373099999","2004-02-19T15:00:00","4","25.35","-105.75","1967.0","TEPEHUANES DGO., MX","FM-12","99999","V020","290,1,N,0010,1","00025,1,9,N","070000,1,N,1","+0010,1","-0036,1","10244,1","06,0000,9,1",,,,,"06,1,+00025,9,02,9",,,"06,99,1,00,1,00,1,99999,9,00,1,06,1","01,9",,,,"99999,9,08239,1","2,1,006,1,-069,1",,"SYN100AAXX  19151 76373 32988 62901 10010 21036 38239 40244 52006 80006 91450 333 30/// 56009 59069 86290;","Q01  00002PRCP06"
"76373099999","2004-02-20T12:00:00","4","25.35","-105.75","1967.0","TEPEHUANES DGO., MX","FM-12","99999","V020","999,9,C,0000,1","22000,1,9,N","002000,1,N,1","+0012,1","-0046,1","10153,1","06,0000,9,1","24,0000,9,1",,,,"00,1,+99999,9,99,9",,,"00,99,1,00,1,00,1,99999,9,00,1,00,1","01,9","999,-0550,9","999,M,+0272,1","120,N,-0003,1","99999,9,08194,1","9,9,999,9,-039,1",,"SYN100AAXX  20121 76373 32920 00000 10012 21046 38194 40153 5//// 91130 333 10272 21003 30155 59039 70000;","Q01  00002PRCP06Q02  00002PRCP24"
"76373099999","2004-02-20T18:00:00","4","25.35","-105.75","1967.0","TEPEHUANES DGO., MX","FM-12","99999","V020","220,1,N,0020,1","22000,1,9,N","070000,1,N,1","+0206,2","-0083,1","10180,1","06,0000,9,1",,,,,"01,1,+03000,9,03,9",,,"02,99,1,01,1,00,1,01250,1,03,1,02,1","01,9",,"120,M,+0212,1","240,N,-0022,1","99999,9,08197,1","8,1,011,1,-025,1",,"SYN118AAXX  20181 76373 32688 22202 10206 21083 38197 40180 58011 81032 91745 333 10212 21022 30/// 56066 59025 81360 81070;","Q01+002063ATOT  Q02  00002PRCP06"
"76373099999","2004-02-21T12:00:00","4","25.35","-105.75","1967.0","TEPEHUANES DGO., MX","FM-12","99999","V020","999,9,C,0000,1","22000,1,9,N","002000,1,N,1","-0026,1","-0069,1","10160,1","06,0000,9,1","24,0000,9,1",,,,"00,1,+99999,9,99,9",,,"00,99,1,00,1,00,1,99999,9,00,1,00,1","01,9","999,-0550,9","999,M,+0250,1","120,N,+9999,9","99999,9,08195,1","9,9,999,9,+001,1",,"SYN100AAXX  21121 76373 32920 00000 11026 21069 38195 40160 5//// 91150 333 10250 21020 30155 58001 70000;","Q01  00002PRCP06Q02  00002PRCP24Q03 -00202ATMN  "
"76373099999","2004-02-21T21:00:00","4","25.35","-105.75","1967.0","TEPEHUANES DGO., MX","FM-12","99999","V020","280,1,N,0070,1","09000,1,9,N","070000,1,N,1","+0230,1","-0118,1","10116,1","06,0000,9,1",,,,,"08,1,+09000,9,02,9",,,"08,99,1,00,1,00,1,99999,9,00,1,07,1","01,9",,,,"99999,9,08160,1","6,1,044,1,-008,1",,"SYN100AAXX  21211 76373 32988 82807 10230 21118 38160 40116 56044 80007 92045 333 30/// 56006 59008 88280;","Q01  00002PRCP06"
"76373099999","2004-02-23T12:00:00","4","25.35","-105.75","1967.0","TEPEHUANES DGO., MX","FM-12","99999","V020","010,1,N,0020,1","22000,1,9,N","001000,1,N,1","+0032,1","+9999,9","10168,1","01,0071,9,1",,,"5,1,06,1","5,1,06,1","00,1,+99999,9,99,9",,,"00,99,1,00,1,00,1,99999,9,00,1,00,1","09,9",,"999,M,+0196,1","120,N,+0032,1","99999,9,08190,1","9,9,999,9,+006,1","05,1","SYN118AAXX  23121 76373 01010 00102 10032 20200 38190 40168 5//// 60075 70555 91155 333 10196 20032 31/// 31010 58006 70071;",
"76373099999","2004-02-23T15:00:00","4","25.35","-105.75","1967.0","TEPEHUANES DGO., MX","FM-12","99999","V020","310,1,N,0010,1","22000,1,9,N","070000,1,N,1","+0046,1","-0039,1","10163,1","06,0000,9,1",,,,,"03,1,+00900,9,07,9",,,"03,99,1,03,1,06,1,00450,1,00,1,00,1","09,9",,,,"99999,9,08176,1","1,1,005,1,+015,1",,"SYN100AAXX  23151 76373 32488 33101 10046 21039 38176 40163 51005 83600 91450 333 31/// 56600 58015 83730;","Q01  00002PRCP06"
"76373099999","2004-02-24T18:00:00","4","25.35","-105.75","1967.0","TEPEHUANES DGO., MX","FM-12","99999","V020","270,1,N,0040,1","22000,1,9,N","070000,1,N,1","+0114,1","-0023,1","10144,1","06,0000,9,1",,,,,"01,1,+00300,9,08,9",,,"01,99,1,01,1,01,1,00450,1,00,1,00,1","09,9",,"120,M,+0120,1","240,N,+0030,1","99999,9,08173,1","2,1,012,1,-002,1",,"SYN112AAXX  24181 76373 32488 12704 10114 21023 38173 40144 52012 81100 91740 333 10120 20030 31/// 56600 59002 81810;","Q01  00002PRCP06"
"76373099999","2004-02-25T00:00:00","4","25.35","-105.75","1967.0","TEPEHUANES DGO., MX","FM-12","99999","V020","280,1,N,0050,1","22000,1,9,N","070000,1,N,1","+0128,1","-0045,1","10093,1","06,0000,9,1","24,0178,9,1",,,,,,,"02,99,1,02,1,01,1,00450,1,00,1,00,1","09,9",,"120,M,+0160,1","180,N,+0030,1","99999,9,08152,1","9,9,999,9,+012,1",,"SYN124AAXX  25001 76373 32488 22805 10128 21045 38152 40093 5//// 82100 92350 333 10160 20030 31/// 50450 56600 58012 70178 82830;","Q01  00002PRCP06"
"76373099999","2004-02-25T18:00:00","4","25.35","-105.75","1967.0","TEPEHUANES DGO., MX","FM-12","99999","V020","120,1,N,0010,1","22000,1,9,N","070000,1,N,1","+0098,1","-0022,1","10236,1","06,0000,9,1",,,,,"00,1,+99999,9,99,9",,,"00,99,1,00,1,00,1,99999,9,00,1,00,1","01,9",,"120,M,+0110,1","240,N,-0040,1","99999,9,08211,1","2,1,007,1,+038,1",,"SYN094AAXX  25181 76373 32988 01201 10098 21022 38211 40236 52007 91740 333 10110 21040 30/// 58038;","Q01  00002PRCP06"
"76373099999","2004-02-26T00:00:00","4","25.35","-105.75","1967.0","TEPEHUANES DGO., MX","FM-12","99999","V020","110,1,N,0050,1","22000,1,9,N","070000,1,N,1","+0148,1","-0058,1","10131,1","06,0000,9,1","24,0000,9,1",,,,"00,1,+99999,9,99,9",,,"00,99,1,00,1,00,1,99999,9,00,1,00,1","01,9",,"120,M,+0178,1","180,N,-0040,1","99999,9,08175,1","2,1,006,1,+023,1",,"SYN106AAXX  26001 76373 32988 01105 10148 21058 38175 40131 52006 92350 333 10178 21040 30/// 50290 58023 70000;","Q01  00002PRCP06Q02  00002PRCP24"
"76373099999","2004-02-26T12:00:00","4","25.35","-105.75","1967.0","TEPEHUANES DGO., MX","FM-12","99999","V020","270,1,N,0010,1","22000,1,9,N","001000,1,N,1","-0014,1","-0030,1","10192,1","06,0000,9,1","24,0000,9,1",,,,"00,1,+99999,9,99,9",,,"00,99,1,00,1,00,1,99999,9,00,1,00,1","01,9","999,-0070,9","999,M,+0178,1","120,N,-0020,1","99999,9,08198,1","9,9,999,9,+013,1",,"SYN100AAXX  26121 76373 32910 02701 11014 21030 38198 40192 5//// 91150 333 10178 21020 30107 58013 70000;","Q01  00002PRCP06Q02  00002PRCP24"
"76373099999","2004-02-26T18:00:00","4","25.35","-105.75","1967.0","TEPEHUANES DGO., MX","FM-12","99999","V020","090,1,N,0010,1","22000,1,9,N","070000,1,N,1","+0116,1","-0047,1","10227,1","06,0000,9,1",,,,,"00,1,+99999,9,99,9",,,"00,99,1,00,1,00,1,99999,9,00,1,00,1","01,9",,"120,M,+0140,1","240,N,-0040,1","99999,9,08217,1","8,1,007,1,+006,1",,"SYN094AAXX  26181 76373 32988 00901 10116 21047 38217 40227 58007 91740 333 10140 21040 30/// 58006;","Q01  00002PRCP06"
"76373099999","2004-02-27T12:00:00","4","25.35","-105.75","1967.0","TEPEHUANES DGO., MX","FM-12","99999","V020","999,9,C,0000,1","22000,1,9,N","001000,1,N,1","+0034,1","-0002,1","10149,1","06,0000,9,1","24,0000,9,1",,,,"00,1,+99999,9,99,9",,,"00,99,1,00,1,00,1,99999,9,00,1,00,1","01,9","999,-0010,9","999,M,+0228,1","120,N,+0026,1","99999,9,08193,1","9,9,999,9,-005,1",,"SYN100AAXX  27121 76373 32910 00000 10034 21002 38193 40149 5//// 91150 333 10228 20026 30101 59005 70000;","Q01  00002PRCP06Q02  00002PRCP24"
"76373099999","2004-02-27T18:00:00","4","25.35","-105.75","1967.0","TEPEHUANES DGO., MX","FM-12","99999","V020","100,1,N,0010,1","22000,1,9,N","070000,1,N,1","+0180,1","-0052,1","10171,1","06,0000,9,1",,,,,"01,1,+03000,9,03,9",,,"02,99,1,01,1,00,1,01250,1,03,1,02,1","01,9",,"120,M,+0196,1","240,N,+0005,1","99999,9,08197,1","7,1,006,1,-020,1",,"SYN118AAXX  27181 76373 32688 21001 10180 21052 38197 40171 57006 81032 91740 333 10196 20005 30/// 56066 59020 81360 81070;","Q01  00002PRCP06"
"76373099999","2004-02-29T00:00:00","4","25.35","-105.75","1967.0","TEPEHUANES DGO., MX","FM-12","99999","V020","210,1,N,0060,1","22000,1,9,N","070000,1,N,1","+0184,1","-0044,1","10065,1","06,0000,9,1","24,0000,9,1",,,,"01,1,+03000,9,03,9",,,"02,99,1,01,1,00,1,01250,1,03,1,04,1","01,9",,"120,M,+0236,1","180,N,+0010,1","99999,9,08158,1","6,1,009,1,-025,1",,"SYN130AAXX  29001 76373 32688 22106 10184 21044 38158 40065 56009 81034 92335 333 10236 20010 30/// 50620 56066 59025 70000 81360 81080;","Q01  00002PRCP06"
"76373099999","2004-02-29T12:00:00","4","25.35","-105.75","1967.0","TEPEHUANES DGO., MX","FM-12","99999","V020","999,9,C,0000,1","22000,1,9,N","070000,1,N,1","+0024,1","-0007,1","10123,1","06,0000,9,1","24,0000,9,1",,,,"00,1,+99999,9,99,9",,,"00,99,1,00,1,00,1,99999,9,00,1,00,1","01,9","999,-0030,9","999,M,+0236,1","120,N,+0015,1","99999,9,08161,1","9,9,999,9,-021,1",,"SYN100AAXX  29121 76373 32988 00000 10024 21007 38161 40123 5//// 91150 333 10236 20015 30103 59021 70000;","Q01  00002PRCP06Q02  00002PRCP24"
"76373099999","2004-02-29T18:00:00","4","25.35","-105.75","1967.0","TEPEHUANES DGO., MX","FM-12","99999","V020","060,1,N,0010,1","22000,1,9,N","070000,1,N,1","+0166,1","-0103,1","10146,1","06,0000,9,1",,,,,"00,1,+99999,9,99,9",,,"00,99,1,00,1,00,1,99999,9,00,1,00,1","01,9",,"120,M,+0190,1","240,N,-0005,1","99999,9,08172,1","6,1,016,1,-010,1",,"SYN094AAXX  29181 76373 32988 00601 10166 21103 38172 40146 56016 91735 333 10190 21005 30/// 59010;","Q01  00002PRCP06"
"76373099999","2004-03-01T18:00:00","4","25.35","-105.75","1967.0","TEPEHUANES DGO., MX","FM-12","99999","V020","330,1,N,0020,1","22000,1,9,N","070000,1,N,1","+0190,1","-0079,1","10167,1","06,0000,9,1",,,,,"00,1,+99999,9,99,9",,,"00,99,1,00,1,00,1,99999,9,00,1,00,1","01,9",,"120,M,+0200,1","240,N,-0013,1","99999,9,08184,1","7,1,008,1,+012,1",,"SYN094AAXX  01181 76373 32988 03302 10190 21079 38184 40167 57008 91750 333 10200 21013 30/// 58012;","Q01  00002PRCP06"
"76373099999","2004-03-02T00:00:00","4","25.35","-105.75","1967.0","TEPEHUANES DGO., MX","FM-12","99999","V020","230,1,N,0040,1","99999,9,9,N","070000,1,N,1","+0222,1","-0072,1","10061,1","06,0000,9,1","24,0000,9,1",,,,,,,"05,99,1,00,1,00,1,99999,9,00,1,04,1","01,9",,"120,M,+0268,1","180,N,-0013,1","99999,9,08161,1","0,1,003,1,-002,1",,"SYN124AAXX  02001 76373 32988 52304 10222 21072 38161 40061 50003 80004 92349 333 10268 21013 30/// 50470 56006 59002 70000 80490;","Q01  00002PRCP06"
"76373099999","2004-03-02T12:00:00","4","25.35","-105.75","1967.0","TEPEHUANES DGO., MX","FM-12","99999","V020","999,9,C,0000,1","22000,1,9,N","001000,1,N,1","+0010,1","-0014,1","10139,1","06,0000,9,1","24,0000,9,1",,,,"00,1,+99999,9,99,9",,,"00,99,1,00,1,00,1,99999,9,00,1,00,1","01,9","999,-0030,9","999,M,+0268,1","120,N,+0000,1","99999,9,08179,1","9,9,999,9,-008,1",,"SYN100AAXX  02121 76373 32910 00000 10010 21014 38179 40139 5//// 91150 333 10268 20000 30103 59008 70000;","Q01  00002PRCP06Q02  00002PRCP24"
"76373099999","2004-03-02T15:00:00","4","25.35","-105.75","1967.0","TEPEHUANES DGO., MX","FM-12","99999","V020","999,9,C,0000,1","08400,1,9,N","070000,1,N,1","+0016,1","-0029,1","10180,1","06,0000,9,1",,,,,"06,1,+08400,9,00,9",,,"06,99,1,00,1,00,1,99999,9,00,1,04,1","01,9",,,,"99999,9,08188,1","2,1,010,1,-004,1",,"SYN100AAXX  02151 76373 32988 60000 10016 21029 38188 40180 52010 80004 91450 333 30/// 56006 59004 86078;","Q01  00002PRCP06"
"76373099999","2004-03-02T18:00:00","4","25.35","-105.75","1967.0","TEPEHUANES DGO., MX","FM-12","99999","V020","240,1,N,0060,1","09000,1,C,N","070000,1,N,1","+0222,2","-0061,1","10148,1","06,0000,9,1",,,,,"01,1,+03000,9,03,9",,,"08,99,1,01,1,00,1,01250,1,06,1,08,1","01,9",,"120,M,+0228,1","240,N,-0018,1","99999,9,08171,1","7,1,017,1,-013,1",,"SYN118AAXX  02181 76373 32688 82406 10222 21061 38171 40148 57017 81068 91743 333 10228 21018 30/// 56066 59013 81360 86270;","Q01+002223ATOT  Q02  00002PRCP06"
"76373099999","2004-03-03T12:00:00","4","25.35","-105.75","1967.0","TEPEHUANES DGO., MX","FM-12","99999","V020","999,9,C,0000,1","22000,1,9,N","002000,1,N,1","+0006,1","-0027,1","10121,1","06,0000,9,1","24,0000,9,1",,,,"00,1,+99999,9,99,9",,,"00,99,1,00,1,00,1,99999,9,00,1,00,1","01,9","999,-0030,9","999,M,+0266,1","120,N,+0005,1","99999,9,08163,1","9,9,999,9,-012,1",,"SYN100AAXX  03121 76373 32920 00000 10006 21027 38163 40121 5//// 91145 333 10266 20005 30103 59012 70000;","Q01  00002PRCP06Q02  00002PRCP24"
"76373099999","2004-03-03T15:00:00","4","25.35","-105.75","1967.0","TEPEHUANES DGO., MX","FM-12","99999","V020","999,9,C,0000,1","22000,1,9,N","070000,1,N,1","-0006,1","-0042,1","10151,1","06,0000,9,1",,,,,"01,1,+03000,9,03,9",,,"01,99,1,01,1,00,1,01250,1,03,1,00,1","01,9",,,,"99999,9,08164,1","0,1,001,1,-024,1",,"SYN100AAXX  03151 76373 32688 10000 11006 21042 38164 40151 50001 81030 91450 333 30/// 56060 59024 81360;","Q01  00002PRCP06"
"76373099999","2004-03-03T18:00:00","4","25.35","-105.75","1967.0","TEPEHUANES DGO., MX","FM-12","99999","V020","200,1,N,0090,1","22000,1,9,N","070000,1,N,1","+0222,2","-0061,1","10123,1","06,0000,9,1",,,,,"01,1,+03000,9,03,9",,,"01,99,1,01,1,00,1,01250,1,04,1,00,1","01,9",,"120,M,+0232,1","240,N,-0015,1","99999,9,08153,1","6,1,011,1,-018,1",,"SYN112AAXX  03181 76373 32688 12009 10222 21061 38153 40123 56011 81040 91742 333 10232 21015 30/// 56060 59018 81360;","Q01+002223ATOT  Q02  00002PRCP06"
"76373099999","2004-03-04T00:00:00","4","25.35","-105.75","1967.0","TEPEHUANES DGO., MX","FM-12","99999","V020","250,1,N,0060,1","22000,1,9,N","070000,1,N,1","+0188,1","+0001,1","10031,1","06,0000,9,1","24,0000,9,1",,,,,,,"02,99,1,02,1,01,1,00250,1,00,1,00,1","01,9",,"120,M,+0252,1","180,N,-0015,1","99999,9,08135,1","2,1,012,1,-025,1",,"SYN124AAXX  04001 76373 32388 22506 10188 20001 38135 40031 52012 82100 92345 333 10252 21015 30/// 50060 56600 59025 70000 82830;","Q01  00002PRCP06"
"76373099999","2004-03-04T12:00:00","4","25.35","-105.75","1967.0","TEPEHUANES DGO., MX","FM-12","99999","V020","010,1,N,0010,1","99999,9,9,N","001000,1,N,1","+0072,1","+0040,1","10036,1","01,0005,9,1",,,"5,1,06,1","6,1,06,1",,,,"08,99,1,99,9,99,9,00150,1,99,9,99,9",,,,,"99999,9,08112,1",,"02,1","SYN072AAXX  04121 76373 01210 80101 10072 20040 38112 40036 5//// 69955 70256;",
"76373099999","2004-03-04T18:00:00","4","25.35","-105.75","1967.0","TEPEHUANES DGO., MX","FM-12","99999","V020","270,1,N,0050,1","22000,1,9,N","070000,1,N,1","+0120,1","-0018,1","10142,2","06,0000,9,1",,,,,"04,1,+00900,9,08,9",,,"04,99,1,04,1,01,1,00450,1,00,1,00,1","09,9",,"120,M,+0140,1","240,N,+0054,1","99999,9,08184,1","1,1,038,1,+031,1",,"SYN112AAXX  04181 76373 32488 42705 10120 21018 38184 40142 51038 84100 91738 333 10140 20054 31/// 56500 58031 84830;","Q01+101423APOSLPQ02  00002PRCP06"
"76373099999","2004-03-05T00:00:00","4","25.35","-105.75","1967.0","TEPEHUANES DGO., MX","FM-12","99999","V020","230,1,N,0040,1","22000,1,9,N","070000,1,N,1","+0158,1","-0033,1","10077,1","06,0000,9,1","24,0047,9,1",,,,,,,"01,99,1,00,1,00,1,99999,9,00,1,04,1","01,9",,"120,M,+0180,1","180,N,+0054,1","99999,9,08154,1","0,1,005,1,-019,1",,"SYN124AAXX  05001 76373 32988 12304 10158 21033 38154 40077 50005 81004 92350 333 10180 20054 30/// 50650 56006 59019 70047 81090;","Q01+000012SCOTLCQ02  00002PRCP06"
"76373099999","2004-03-05T15:00:00","4","25.35","-105.75","1967.0","TEPEHUANES DGO., MX","FM-12","99999","V020","280,1,N,0010,1","22000,1,9,N","070000,1,N,1","+0036,1","+0015,1","10197,1","06,0000,9,1",,,,,"02,1,+00025,9,00,9",,,"02,99,1,00,1,00,1,99999,9,00,1,04,1","01,9",,,,"99999,9,08195,1","2,1,016,1,+016,1",,"SYN100AAXX  05151 76373 32988 22801 10036 20015 38195 40197 52016 80004 91450 333 30/// 56006 58016 82090;","Q01  00002PRCP06"
"76373099999","2004-03-05T18:00:00","4","25.35","-105.75","1967.0","TEPEHUANES DGO., MX","FM-12","99999","V020","310,1,N,0050,1","06000,1,9,N","070000,1,N,1","+0170,2","-0073,1","10186,1","06,0000,9,1",,,,,"08,1,+06000,9,02,9",,,"08,99,1,00,1,00,1,99999,9,00,1,07,1","01,9",,"120,M,+0180,1","240,N,-0005,1","99999,9,08202,1","2,1,007,1,+018,1",,"SYN118AAXX  05181 76373 32988 83105 10170 21073 38202 40186 52007 80007 91740 333 10180 21005 30/// 56006 58018 88270 99020;","Q01+001703ATOT  Q02  00002PRCP06"
"76373099999","2004-03-06T00:00:00","4","25.35","-105.75","1967.0","TEPEHUANES DGO., MX","FM-12","99999","V020","270,1,N,0020,1","99999,9,9,N","070000,1,N,1","+0212,1","-0012,1","10117,1","06,0000,9,1","24,0000,9,1",,,,,,,"06,99,1,00,1,00,1,99999,9,00,1,08,1","01,9",,"120,M,+0225,1","180,N,-0005,1","99999,9,08187,1","3,1,007,1,+033,1",,"SYN124AAXX  06001 76373 32988 62702 10212 21012 38187 40117 53007 80008 92350 333 10225 21005 30/// 50400 56006 58033 70000 86290;","Q01  00002PRCP06"
"76373099999","2004-03-06T12:00:00","4","25.35","-105.75","1967.0","TEPEHUANES DGO., MX","FM-12","99999","V020","999,9,C,0000,1","08400,1,9,N","002000,1,N,1","+0018,1","-0024,1","10118,1","06,0000,9,1","24,0000,9,1",,,,"06,1,+08400,9,02,9",,,"06,99,1,00,1,00,1,99999,9,00,1,07,1","01,9","999,-0030,9","999,M,+0225,1","120,N,+0010,1","99999,9,08166,1","9,9,999,9,-013,1",,"SYN118AAXX  06121 76373 32920 60000 10018 21024 38166 40118 5//// 80007 91145 333 10225 20010 30103 56009 59013 70000 86278;","Q01  00002PRCP06"
"76373099999","2004-03-06T15:00:00","4","25.35","-105.75","1967.0","TEPEHUANES DGO., MX","FM-12","99999","V020","999,9,C,0000,1","08400,1,9,N","070000,1,N,1","+0028,1","-0004,1","10164,1","06,0000,9,1",,,,,"08,1,+08400,9,02,9",,,"08,99,1,00,1,00,1,99999,9,00,1,07,1","01,9",,,,"99999,9,08181,1","2,1,015,1,-014,1",,"SYN100AAXX  06151 76373 32988 80000 10028 21004 38181 40164 52015 80007 91450 333 30/// 56009 59014 88278;","Q01  00002PRCP06"
"76373099999","2004-03-07T12:00:00","4","25.35","-105.75","1967.0","TEPEHUANES DGO., MX","FM-12","99999","V020","999,9,C,0000,1","22000,1,9,N","002000,1,N,1","+0030,1","-0032,1","10223,1","06,0000,9,1","24,0000,9,1",,,,"01,1,+08400,9,00,9",,,"01,99,1,00,1,00,1,99999,9,00,1,04,1","01,9","999,-0020,9","999,M,+0272,1","120,N,+0025,1","99999,9,08258,1","9,9,999,9,+092,1",,"SYN118AAXX  07121 76373 32920 10000 10030 21032 38258 40223 5//// 80004 91145 333 10272 20025 30102 56009 58092 70000 81078;","Q01  00002PRCP06"
"76373099999","2004-03-07T18:00:00","4","25.35","-105.75","1967.0","TEPEHUANES DGO., MX","FM-12","99999","V020","120,1,N,0020,1","09000,1,9,N","070000,1,N,1","+0178,1","-0074,1","10273,1","06,0000,9,1",,,,,"08,1,+09000,9,02,9",,,"08,99,1,00,1,00,1,99999,9,00,1,07,1","01,9",,"120,M,+0196,1","240,N,+0008,1","99999,9,08279,1","6,1,001,1,+030,1",,"SYN112AAXX  07181 76373 32988 81202 10178 21074 38279 40273 56001 80007 91735 333 10196 20008 30/// 56006 58030 88280;","Q01  00002PRCP06"
"76373099999","2004-03-08T00:00:00","4","25.35","-105.75","1967.0","TEPEHUANES DGO., MX","FM-12","99999","V020","150,1,N,0010,1","09000,1,C,N","070000,1,N,1","+0214,1","+0065,1","10198,1","06,0000,9,1",,,,,"03,1,+03000,9,03,9",,,"05,99,1,03,1,00,1,01250,1,03,1,02,1","01,9",,"120,M,+0222,1","180,N,+0065,1","99999,9,08251,1","8,1,003,1,-016,1",,"SYN118AAXX  09181 76373 32688 51501 10214 20065 38251 40198 58003 83032 91740 333 10222 20065 30/// 56066 59016 83360 82070;","Q01  00002PRCP06"
"76373099999","2004-03-08T12:00:00","4","25.35","-105.75","1967.0","TEPEHUANES DGO., MX","FM-12","99999","V020","999,9,C,0000,1","22000,1,9,N","002000,1,N,1","+0054,1","-0016,1","10207,1","06,0000,9,1","24,0000,9,1",,,,"01,1,+08400,9,00,9",,,"01,99,1,00,1,00,1,99999,9,00,1,04,1","01,9","999,+0010,9","999,M,+0274,1","120,N,+0045,1","99999,9,08263,1","9,9,999,9,+005,1",,"SYN118AAXX  08121 76373 32920 10000 10054 21016 38263 40207 5//// 80004 91145 333 10274 20045 30001 56009 58005 70000 81078;","Q01  00002PRCP06"
"76373099999","2004-03-08T15:00:00","4","25.35","-105.75","1967.0","TEPEHUANES DGO., MX","FM-12","99999","V020","999,9,C,0000,1","00025,1,9,N","070000,1,N,1","+0088,1","-0019,1","10249,1","06,0000,9,1",,,,,"06,1,+00025,9,01,9",,,"06,99,1,00,1,00,1,99999,9,00,1,09,1","01,9",,,,"99999,9,08276,1","2,1,013,1,-004,1",,"SYN100AAXX  08151 76373 32988 60000 10088 21019 38276 40249 52013 80009 91450 333 30/// 56009 59004 86190;","Q01  00002PRCP06"
"76373099999","2004-03-08T18:00:00","4","25.35","-105.75","1967.0","TEPEHUANES DGO., MX","FM-12","99999","V020","120,1,N,0030,1","06000,1,9,N","070000,1,N,1","+0212,2","+0000,1","10233,1","06,0000,9,1",,,,,"05,1,+06000,9,00,9",,,"05,99,1,00,1,00,1,99999,9,00,1,04,1","01,9",,"120,M,+0228,1","240,N,+0035,1","99999,9,08267,1","8,1,009,1,-012,1",,"SYN112AAXX  08181 76373 32988 51203 10212 20000 38267 40233 58009 80004 91742 333 10228 20035 30/// 56006 59012 85070;","Q01+002123ATOT  Q02  00002PRCP06"
"76373099999","2004-03-09T15:00:00","4","25.35","-105.75","1967.0","TEPEHUANES DGO., MX","FM-12","99999","V020","999,9,C,0000,1","09000,1,C,N","070000,1,N,1","+0110,1","+0056,1","10207,1","06,0000,9,1",,,,,"04,1,+03000,9,03,9",,,"06,99,1,04,1,00,1,01250,1,03,1,02,1","01,9",,,,"99999,9,08254,1","2,1,014,1,-022,1",,"SYN106AAXX  09151 76373 32688 60000 10110 20056 38254 40207 52014 84032 91450 333 30/// 56066 59022 84360 82078;","Q01  00002PRCP06"
"76373099999","2004-03-10T12:00:00","4","25.35","-105.75","1967.0","TEPEHUANES DGO., MX","FM-12","99999","V020","999,9,C,0000,1","22000,1,9,N","002000,1,N,1","+0072,1","+0065,1","10141,1","06,0000,9,1","24,0000,9,1",,,,"00,1,+99999,9,99,9",,,"00,99,1,00,1,00,1,99999,9,00,1,00,1","01,9","999,+0030,9","999,M,+0278,1","120,N,+0060,1","99999,9,08214,1","9,9,999,9,-026,1",,"SYN100AAXX  10121 76373 32920 00000 10072 20065 38214 40141 5//// 91145 333 10278 20060 30003 59026 79999;","Q01  00002PRCP06Q02  00002PRCP24"
"76373099999","2004-03-10T15:00:00","4","25.35","-105.75","1967.0","TEPEHUANES DGO., MX","FM-12","99999","V020","999,9,C,0000,1","22000,1,9,N","070000,1,N,1","+0080,1","+0049,1","10172,1","06,0000,9,1",,,,,"00,1,+99999,9,99,9",,,"00,99,1,00,1,00,1,99999,9,00,1,00,1","01,9",,,,"99999,9,08219,1","2,1,001,1,-035,1",,"SYN082AAXX  10151 76373 32988 00000 10080 20049 38219 40172 52001 91445 333 30/// 59035;","Q01  00002PRCP06"
"76373099999","2004-03-10T18:00:00","4","25.35","-105.75","1967.0","TEPEHUANES DGO., MX","FM-12","99999","V020","090,1,N,0060,1","22000,1,9,N","070000,1,N,1","+0210,2","+0078,1","10152,1","06,0000,9,1",,,,,"01,1,+00600,9,09,9",,,"02,99,1,01,1,03,1,00450,1,03,1,00,1","01,9",,"120,M,+0224,1","240,N,+0048,1","99999,9,08208,1","8,1,011,1,-043,1",,"SYN118AAXX  10181 76373 32488 20906 10210 20078 38208 40152 58011 81330 91740 333 10224 20048 30/// 56660 59043 81920 81360;","Q01+002103ATOT  Q02  00002PRCP06"
"76373099999","2004-03-12T00:00:00","4","25.35","-105.75","1967.0","TEPEHUANES DGO., MX","FM-12","99999","V020","290,1,N,0060,1","99999,9,9,N","070000,1,N,1","+0186,1","+0028,1","10084,1","02,0000,9,1",,,"5,1,06,1","5,1,06,1",,,,"08,99,1,99,9,99,9,00450,1,99,9,99,9",,,,,"99999,9,08192,1","1,1,013,1,+999,9","16,1","SYN072AAXX  12001 76373 01488 82906 10186 20028 38192 40084 51013 69906 71655;","Q01  00002PRCP02"
"76373099999","2004-03-12T12:00:00","4","25.35","-105.75","1967.0","TEPEHUANES DGO., MX","FM-12","99999","V020","999,9,C,0000,1","22000,1,9,N","002000,1,N,1","+0056,1","+0023,1","10134,1","06,0000,9,1","24,0000,9,1",,,,"02,1,+03000,9,03,9",,,"02,99,1,02,1,00,1,01250,1,06,1,00,1","01,9","999,+0020,9","999,M,+0285,1","120,N,+0050,1","99999,9,08190,1","9,9,999,9,-016,1",,"SYN118AAXX  12121 76373 32620 20000 10056 20023 38190 40134 5//// 82060 91145 333 10285 20050 30002 56060 59016 79999 82360;","Q01  00002PRCP06Q02  00002PRCP24"
"76373099999","2004-03-19T21:00:00","4","25.35","-105.75","1967.0","TEPEHUANES DGO., MX","FM-12","99999","V020","120,1,N,0030,1","00025,1,9,N","070000,1,N,1","+0282,1","-0057,1","10130,1","06,0000,9,1",,,,,"06,1,+00025,9,02,9",,,"06,99,1,00,1,00,1,99999,9,00,1,08,1","01,9",,,,"99999,9,08200,1","7,1,030,1,+019,1",,"SYN100AAXX  19211 76373 32988 61203 10282 21057 38200 40130 57030 80008 92035 333 30/// 56006 58019 86290;","Q01  00002PRCP06"
"76373099999","2004-03-20T15:00:00","4","25.35","-105.75","1967.0","TEPEHUANES DGO., MX","FM-12","99999","V020","290,1,N,0010,1","22000,1,9,N","070000,1,N,1","+0090,1","+0009,1","10194,1","06,0000,9,1",,,,,"03,1,+06000,9,03,9",,,"04,99,1,03,1,00,1,01250,1,03,1,06,1","01,9",,,,"99999,9,08245,1","9,9,999,9,+007,1",,"SYN100AAXX  20151 76373 32688 42901 10090 20009 38245 40194 5//// 83036 91440 333 30/// 58007 83370 81080;","Q01  00002PRCP06"
"76373099999","2004-03-20T21:00:00","4","25.35","-105.75","1967.0","TEPEHUANES DGO., MX","FM-12","99999","V020","140,1,N,0010,1","22000,1,9,N","070000,1,N,1","+0282,2","-0014,1","10121,1","06,0000,9,1",,,,,"03,1,+00600,9,09,9",,,"04,99,1,03,1,03,1,00250,1,03,1,00,1","01,9",,,,"99999,9,08207,1","6,1,029,1,+007,1",,"SYN106AAXX  20211 76373 32388 41401 10282 21014 38207 40121 56029 83330 92050 333 30/// 56660 58007 83920 81360;","Q01+002823ATOT  Q02  00002PRCP06"
"76373099999","2004-03-21T15:00:00","4","25.35","-105.75","1967.0","TEPEHUANES DGO., MX","FM-12","99999","V020","999,9,C,0000,1","22000,1,9,N","070000,1,N,1","+0138,1","+0048,1","10153,1","06,0000,9,1",,,,,"00,1,+99999,9,99,9",,,"00,99,1,00,1,00,1,99999,9,00,1,00,1","01,9",,,,"99999,9,08238,1","9,9,999,9,-007,1",,"SYN082AAXX  21151 76373 32988 00000 10138 20048 38238 40153 5//// 91438 333 30/// 59007;","Q01  00002PRCP06"
"76373099999","2004-03-22T12:00:00","4","25.35","-105.75","1967.0","TEPEHUANES DGO., MX","FM-12","99999","V020","999,9,C,0000,1","00600,1,9,N","002000,1,N,1","+0136,1","+0085,1","10117,1","06,0000,9,1","24,0000,9,1",,,,"06,1,+00600,9,02,9",,,"06,99,1,06,1,03,1,00450,1,00,1,00,1","01,9","999,+0120,9","999,M,+0264,1","120,N,+0128,1","99999,9,08210,1",,,"SYN118AAXX  22121 76373 32420 60000 10136 20085 38210 40117 5//// 86300 91135 333 10264 20128 30012 56600 58/// 70000 86220;","Q01  00002PRCP06"
"76373099999","2004-03-22T18:00:00","4","25.35","-105.75","1967.0","TEPEHUANES DGO., MX","FM-12","99999","V020","110,1,N,0040,1","22000,1,9,N","070000,1,N,1","+0206,1","+0084,1","10120,1","06,0000,9,1",,,,,"01,1,+00360,9,08,9",,,"02,99,1,01,1,01,1,00450,1,00,1,05,1","01,9",,"120,M,+0222,1","240,N,+0124,1","99999,9,08208,1","6,1,008,1,-027,1",,"SYN118AAXX  22181 76373 32488 21104 10206 20084 38208 40120 56008 81105 91740 333 10222 20124 30/// 56606 59027 81812 81070;","Q01  00002PRCP06"
"76373099999","2004-03-22T21:00:00","4","25.35","-105.75","1967.0","TEPEHUANES DGO., MX","FM-12","99999","V020","090,1,N,0020,1","99999,9,9,N","070000,1,N,1","+0254,1","+0045,1","10058,2","06,0000,9,1",,,,,"03,1,+00900,9,08,9",,,"06,99,1,03,1,03,1,00450,1,00,1,00,1","01,9",,,,"99999,9,08171,1","7,1,037,1,-040,1",,"SYN106AAXX  22211 76373 32488 60902 10254 20045 38171 40058 57037 83300 92045 333 30/// 56600 59040 83830 83930;","Q01+100583APOSLPQ02  00002PRCP06"
"76373099999","2004-03-23T18:00:00","4","25.35","-105.75","1967.0","TEPEHUANES DGO., MX","FM-12","99999","V020","110,1,N,0010,1","22000,1,9,N","070000,1,N,1","+0168,1","-0011,1","10164,1","06,0000,9,1",,,,,"00,1,+99999,9,99,9",,,"00,99,1,00,1,00,1,99999,9,00,1,00,1","01,9",,"120,M,+0215,1","240,N,+0055,1","99999,9,08217,1","8,1,003,1,+009,1",,"SYN094AAXX  23181 76373 32988 01101 10168 21011 38217 40164 58003 91740 333 10215 20055 30/// 58009;","Q01  00002PRCP06"
"76373099999","2004-03-24T12:00:00","4","25.35","-105.75","1967.0","TEPEHUANES DGO., MX","FM-12","99999","V020","300,1,N,0010,1","22000,1,9,N","002000,1,N,1","+0062,1","+0012,1","10117,1","06,0000,9,1","24,0000,9,1",,,,"00,1,+99999,9,99,9",,,"00,99,1,00,1,00,1,99999,9,00,1,00,1","01,9","999,+0010,9","999,M,+0340,1","120,N,+0053,1","99999,9,08190,1","9,9,999,9,-021,1",,"SYN100AAXX  24121 76373 32920 03001 10062 20012 38190 40117 5//// 91140 333 10340 20053 30001 59021 70000;","Q01  00002PRCP06Q02  00002PRCP24"
"76373099999","2004-03-24T18:00:00","4","25.35","-105.75","1967.0","TEPEHUANES DGO., MX","FM-12","99999","V020","150,1,N,0020,1","22000,1,9,N","070000,1,N,1","+0216,1","-0023,1","10171,1","06,0000,9,1",,,,,"00,1,+99999,9,99,9",,,"00,99,1,00,1,00,1,99999,9,00,1,00,1","01,9",,"120,M,+0240,1","240,N,+0038,1","99999,9,08221,1","8,1,009,1,+004,1",,"SYN094AAXX  24181 76373 32988 01502 10216 21023 38221 40171 58009 91743 333 10240 20038 30/// 58004;","Q01  00002PRCP06"
"76373099999","2004-03-25T00:00:00","4","25.35","-105.75","1967.0","TEPEHUANES DGO., MX","FM-12","99999","V020","250,1,N,0060,1","22000,1,9,N","070000,1,N,1","+0278,1","-0031,1","10054,1","06,0000,9,1","24,0000,9,1",,,,"00,1,+99999,9,99,9",,,"00,99,1,00,1,00,1,99999,9,00,1,00,1","01,9",,"120,M,+0310,1","180,N,+0038,1","99999,9,08179,1","6,1,007,1,+004,1",,"SYN106AAXX  25001 76373 32988 02506 10278 21031 38179 40054 56007 92335 333 10310 20038 30/// 50630 58004 70000;","Q01  00002PRCP06Q02  00002PRCP24"
"76373099999","2004-03-25T12:00:00","4","25.35","-105.75","1967.0","TEPEHUANES DGO., MX","FM-12","99999","V020","999,9,C,0000,1","22000,1,9,N","002000,1,N,1","+0054,1","+0017,1","10151,1","06,0000,9,1","24,0000,9,1",,,,"00,1,+99999,9,99,9",,,"00,99,1,00,1,00,1,99999,9,00,1,00,1","01,9","999,+0000,9","999,M,+0310,1","120,N,+0050,1","99999,9,08222,1","9,9,999,9,+032,1",,"SYN100AAXX  25121 76373 32920 00000 10054 20017 38222 40151 5//// 91135 333 10310 20050 30000 58032 70000;","Q01  00002PRCP06Q02  00002PRCP24"
"76373099999","2004-03-25T15:00:00","4","25.35","-105.75","1967.0","TEPEHUANES DGO., MX","FM-12","99999","V020","999,9,C,0000,1","22000,1,9,N","070000,1,N,1","+0088,1","-0010,1","10199,1","06,0000,9,1",,,,,"02,1,+00025,9,00,9",,,"02,99,1,00,1,00,1,99999,9,00,1,02,1","01,9",,,,"99999,9,08238,1","2,1,016,1,+008,1",,"SYN100AAXX  25151 76373 32988 20000 10088 21010 38238 40199 52016 80002 91435 333 30/// 56006 58008 82090;","Q01  00002PRCP06"
"76373099999","2004-03-25T18:00:00","4","25.35","-105.75","1967.0","TEPEHUANES DGO., MX","FM-12","99999","V020","090,1,N,0010,1","22000,1,9,N","070000,1,N,1","+0232,1","-0047,1","10179,1","06,0000,9,1",,,,,"01,1,+06000,9,00,9",,,"01,99,1,00,1,00,1,99999,9,00,1,02,1","01,9",,"120,M,+0250,1","240,N,+0034,1","99999,9,08230,1","7,1,008,1,-009,1",,"SYN112AAXX  25181 76373 32988 10901 10232 21047 38230 40179 57008 80002 91736 333 10250 20034 30/// 56006 59009 81070;","Q01  00002PRCP06"
"76373099999","2004-03-25T21:00:00","4","25.35","-105.75","1967.0","TEPEHUANES DGO., MX","FM-12","99999","V020","010,1,N,0030,1","22000,1,9,N","070000,1,N,1","+0292,1","-0080,1","10106,2","06,0000,9,1",,,,,"00,1,+99999,9,99,9",,,"00,99,1,00,1,00,1,99999,9,00,1,00,1","01,9",,,,"99999,9,08197,1","7,1,033,1,+011,1",,"SYN082AAXX  25211 76373 32988 00103 10292 21080 38197 40106 57033 92035 333 30/// 58011;","Q01+101063APOSLPQ02  00002PRCP06"
"76373099999","2004-03-26T00:00:00","4","25.35","-105.75","1967.0","TEPEHUANES DGO., MX","FM-12","99999","V020","270,1,N,0040,1","22000,1,9,N","070000,1,N,1","+0280,1","-0057,1","10063,1","06,0000,9,1","24,0000,9,1",,,,"00,1,+99999,9,99,9",,,"00,99,1,00,1,00,1,99999,9,00,1,00,1","01,9",,"120,M,+0324,1","180,N,+0034,1","99999,9,08194,1","5,1,003,1,+016,1",,"SYN106AAXX  26000 76373 32988 02704 10280 21057 38194 40063 55003 92335 333 10324 20034 30/// 50820 58016 70000;","Q01  00002PRCP06Q02  00002PRCP24"
"76373099999","2004-03-26T12:00:00","4","25.35","-105.75","1967.0","TEPEHUANES DGO., MX","FM-12","99999","V020","999,9,C,0000,1","22000,1,9,N","002000,1,N,1","+0054,1","-0023,1","10147,1","06,0000,9,1","24,0000,9,1",,,,"00,1,+99999,9,99,9",,,"00,99,1,00,1,00,1,99999,9,00,1,00,1","01,9","999,+0010,9","999,M,+0324,1","120,N,+0046,1","99999,9,08218,1","9,9,999,9,-004,1",,"SYN100AAXX  26121 76373 32920 00000 10054 21023 38218 40147 5//// 91135 333 10324 20046 30001 59004 70000;","Q01  00002PRCP06Q02  00002PRCP24"
"76373099999","2004-03-26T15:00:00","4","25.35","-105.75","1967.0","TEPEHUANES DGO., MX","FM-12","99999","V020","290,1,N,0010,1","22000,1,9,N","070000,1,N,1","+0118,1","-0031,1","10185,1","06,0000,9,1",,,,,"01,1,+00025,9,00,9",,,"01,99,1,00,1,00,1,99999,9,00,1,02,1","01,9",,,,"99999,9,08226,1","2,1,008,1,-012,1",,"SYN094AAXX  26151 76373 32988 12901 10118 21031 38226 40185 52008 80002 91440 333 30/// 59012 81090;","Q01  00002PRCP06"
"76373099999","2004-03-26T18:00:00","4","25.35","-105.75","1967.0","TEPEHUANES DGO., MX","FM-12","99999","V020","060,1,N,0010,1","22000,1,9,N","070000,1,N,1","+0252,2","-0045,1","10164,1","06,0000,9,1",,,,,"01,1,+06000,9,00,9",,,"01,99,1,00,1,00,1,99999,9,00,1,02,1","01,9",,"120,M,+0270,1","240,N,+0034,1","99999,9,08219,1","7,1,007,1,-011,1",,"SYN112AAXX  26181 76373 32988 10601 10252 21045 38219 40164 57007 80002 91740 333 10270 20034 30/// 56006 59011 81070;","Q01+002523ATOT  Q02  00002PRCP06"
"76373099999","2004-03-28T21:00:00","4","25.35","-105.75","1967.0","TEPEHUANES DGO., MX","FM-12","99999","V020","070,1,N,0060,1","09000,1,9,N","070000,1,N,1","+0290,1","-0068,1","10067,1","06,0000,9,1",,,,,"08,1,+09000,9,00,9",,,"08,99,1,00,1,00,1,99999,9,00,1,04,1","01,9",,,,"99999,9,08176,1","6,1,026,1,+022,1",,"SYN100AAXX  28211 76373 32988 80706 10290 21068 38176 40067 56026 80004 92056 333 30/// 56006 58022 88080;","Q01  00002PRCP06"
"76373099999","2004-03-29T00:00:00","4","25.35","-105.75","1967.0","TEPEHUANES DGO., MX","FM-12","99999","V020","280,1,N,0040,1","22000,1,9,N","070000,1,N,1","+0286,1","-0081,1","10020,1","06,0000,9,1","24,0000,9,1",,,,"01,1,+00600,9,08,9",,,"07,99,1,01,1,02,1,00250,1,00,1,04,1","01,9",,"120,M,+0314,1","180,N,+0034,1","99999,9,08161,1","6,1,015,1,-009,1",,"SYN130AAXX  29001 76373 32388 72804 10286 21081 38161 40020 56015 81204 92345 333 10314 20034 30/// 50600 56606 59009 70000 81820 86080;","Q01  00002PRCP06"
"76373099999","2004-03-30T18:00:00","4","25.35","-105.75","1967.0","TEPEHUANES DGO., MX","FM-12","99999","V020","130,1,N,0050,1","03600,1,C,N","070000,1,N,1","+0174,1","+0080,1","10183,1","06,0000,9,1",,,,,"01,1,+00300,9,09,9","01,1,+00300,9,08,9","01,1,+03000,9,03,9","05,99,1,01,1,03,1,00250,1,03,1,05,1","09,9",,"120,M,+0188,1","240,N,+0082,1","99999,9,08234,1","6,1,008,1,+014,1",,"SYN130AAXX  30181 76373 32388 51305 10174 20080 38234 40183 56008 81335 91738 333 10188 20082 31/// 56666 58014 81810 81910 81360 82070;","Q01  00002PRCP06"
"76373099999","2004-03-30T21:00:00","4","25.35","-105.75","1967.0","TEPEHUANES DGO., MX","FM-12","99999","V020","140,1,N,0060,1","00300,1,9,N","030000,1,N,1","+0190,1","+0072,1","10128,1","06,0000,9,1",,,,,"08,1,+00300,9,09,9",,,"08,99,1,08,1,09,1,00450,1,00,1,00,1","09,9",,,,"99999,9,08204,1","6,1,030,1,+014,1",,"SYN100AAXX  30211 76373 32480 81406 10190 20072 38204 40128 56030 88900 92040 333 31/// 56600 58014 88910;","Q01  00002PRCP06"
"76373099999","2004-03-31T00:00:00","4","25.35","-105.75","1967.0","TEPEHUANES DGO., MX","FM-12","99999","V020","320,1,N,0060,1","99999,9,9,N","070000,1,N,1","+0166,1","+0078,1","10112,1","03,0000,2,1",,,"5,1,06,1","5,1,06,1",,,,"08,99,1,99,9,99,9,00250,1,99,9,99,9",,,,,"99999,9,08204,1","4,1,000,1,+999,9","20,1","SYN072AAXX  31001 76373 01388 83206 10166 20078 38204 40112 54000 69907 72055;",
"76373099999","2004-03-31T15:00:00","4","25.35","-105.75","1967.0","TEPEHUANES DGO., MX","FM-12","99999","V020","300,1,N,0010,1","09000,1,C,N","070000,1,N,1","+0090,1","+0056,1","10194,1","06,0000,9,1",,,,,"02,1,+00900,9,09,9","01,1,+00900,9,08,9",,"05,99,1,02,1,03,1,00250,1,00,1,02,1","01,9",,,,"99999,9,08229,1","2,1,008,1,-013,1",,"SYN112AAXX  31151 76373 32388 53001 10090 20056 38229 40194 52008 82302 91440 333 30/// 56606 59013 82930 81830 82078;","Q01  00002PRCP06"
"76373099999","2004-03-31T18:00:00","4","25.35","-105.75","1967.0","TEPEHUANES DGO., MX","FM-12","99999","V020","999,9,C,0000,1","22000,1,9,N","070000,1,N,1","+0160,1","+0062,1","10172,1","06,0000,9,1",,,,,"01,1,+00300,9,08,9",,,"04,99,1,01,1,01,1,00450,1,00,1,04,1","01,9",,"120,M,+0180,1","240,N,+0058,1","99999,9,08218,1","6,1,011,1,-016,1",,"SYN118AAXX  31181 76373 32488 40000 10160 20062 38218 40172 56011 81104 91740 333 10180 20058 30/// 56606 59016 81810 83070;","Q01  00002PRCP06"
"76373099999","2004-04-01T00:00:00","4","25.35","-105.75","1967.0","TEPEHUANES DGO., MX","FM-12","99999","V020","240,1,N,0040,1","22000,1,9,N","070000,1,N,1","+0226,1","+0006,1","10071,1","06,0000,9,1","24,0000,9,1",,,,"04,1,+00600,9,08,9",,,"05,99,1,04,1,02,1,00250,1,00,1,04,1","01,9",,"120,M,+0268,1","180,N,+0058,1","99999,9,08178,1","6,1,007,1,-026,1",,"SYN130AAXX  01001 76373 32388 52404 10226 20006 38178 40071 56007 84204 92330 333 10268 20058 30/// 50460 56606 59026 70000 84820 81080;","Q01  00002PRCP06"
"76373099999","2004-04-01T12:00:00","4","25.35","-105.75","1967.0","TEPEHUANES DGO., MX","FM-12","99999","V020","999,9,C,0000,1","22000,1,9,N","002000,1,N,1","+0080,1","+0039,1","10144,1","06,0000,9,1","24,0000,9,1",,,,"03,1,+08400,9,08,9",,,"03,99,1,00,1,00,1,99999,9,00,1,08,1","01,9","999,+0020,9","999,M,+0268,1","120,N,+0045,1","99999,9,08204,1","9,9,999,9,-017,1",,"SYN118AAXX  01121 76373 32920 30000 10080 20039 38204 40144 5//// 80008 91135 333 10268 20045 30002 56006 59017 70000 83878;","Q01  00002PRCP06"
"76373099999","2004-04-01T15:00:00","4","25.35","-105.75","1967.0","TEPEHUANES DGO., MX","FM-12","99999","V020","999,9,C,0000,1","22000,1,9,N","070000,1,N,1","+0094,1","+0053,1","10170,1","06,0000,9,1",,,,,"02,1,+03000,9,03,9",,,"02,99,1,02,1,00,1,01250,1,03,1,00,1","01,9",,,,"99999,9,08211,1","2,1,007,1,-018,1",,"SYN100AAXX  01151 76373 32688 20000 10094 20053 38211 40170 52007 82030 91435 333 30/// 56060 59018 82360;","Q01  00002PRCP06"
"76373099999","2004-04-01T18:00:00","4","25.35","-105.75","1967.0","TEPEHUANES DGO., MX","FM-12","99999","V020","270,1,N,0040,1","09000,1,C,N","070000,1,N,1","+0210,1","+0003,1","10141,1","06,0000,9,1",,,,,"01,1,+00300,9,08,9",,,"07,99,1,01,1,01,1,00450,1,00,1,08,1","01,9",,"120,M,+0224,1","240,N,+0040,1","99999,9,08196,1","6,1,015,1,+022,1",,"SYN118AAXX  01181 76373 32488 72704 10210 20003 38196 40141 56015 81108 91742 333 10224 20040 30/// 56606 58022 81810 86270;","Q01  00002PRCP06"
"76373099999","2004-04-01T21:00:00","4","25.35","-105.75","1967.0","TEPEHUANES DGO., MX","FM-12","99999","V020","230,1,N,0050,1","09000,1,9,N","070000,1,N,1","+0236,1","-0016,1","10104,1","06,0000,9,1",,,,,"02,1,+00900,9,09,9","02,1,+00900,9,08,9",,"08,99,1,04,1,03,1,00250,1,00,1,08,1","01,9",,,,"99999,9,08173,1","7,1,023,1,-012,1",,"SYN112AAXX  01211 76373 32388 82305 10236 21016 38173 40104 57023 84308 92032 333 30/// 56606 59012 82930 82830 84290;","Q01  00002PRCP06"
"76373099999","2004-04-02T18:00:00","4","25.35","-105.75","1967.0","TEPEHUANES DGO., MX","FM-12","99999","V020","240,1,N,0060,1","22000,1,9,N","070000,1,N,1","+0206,1","+0012,1","10112,1","06,0000,9,1",,,,,"04,1,+00300,9,08,9",,,"04,99,1,04,1,02,1,00450,1,00,1,00,1","01,9",,"120,M,+0222,1","240,N,+0070,1","99999,9,08181,1","2,1,003,1,-015,1",,"SYN112AAXX  02181 76373 32488 42406 10206 20012 38181 40112 52003 84200 91740 333 10222 20070 30/// 56600 59015 84810;","Q01  00002PRCP06"
"76373099999","2004-04-02T21:00:00","4","25.35","-105.75","1967.0","TEPEHUANES DGO., MX","FM-12","99999","V020","210,1,N,0080,1","00900,1,9,N","070000,1,N,1","+0188,1","+0009,1","10092,1","06,0000,9,1",,,,,"06,1,+00900,9,08,9",,,"08,99,1,08,1,02,1,00450,1,00,1,00,1","01,9",,,,"99999,9,08177,1","8,1,003,1,+004,1",,"SYN106AAXX  02211 76373 32488 82108 10188 20009 38177 40092 58003 88200 92035 333 30/// 56600 58004 86830 82930;","Q01  00002PRCP06"
"76373099999","2004-04-03T00:00:00","4","25.35","-105.75","1967.0","TEPEHUANES DGO., MX","FM-12","99999","V020","280,1,N,0060,1","22000,1,9,N","070000,1,N,1","+0198,1","+0008,1","10064,1","06,0000,9,1","24,0006,9,1",,,,"03,1,+00900,9,08,9",,,"04,99,1,03,1,02,1,00450,1,00,1,00,1","01,9",,"120,M,+0225,1","180,N,+0060,1","99999,9,08171,1","6,1,006,1,+011,1",,"SYN130AAXX  03001 76373 32488 42806 10198 20008 38171 40064 56006 83200 92335 333 10225 20060 30/// 50930 56600 58011 70006 83830 81930;","Q01  00002PRCP06"
"76373099999","2004-04-04T15:00:00","4","25.35","-105.75","1967.0","TEPEHUANES DGO., MX","FM-12","99999","V020","330,1,N,0010,1","22000,1,9,N","070000,1,N,1","+0094,1","+0017,1","10136,1","06,0000,9,1",,,,,"00,1,+99999,9,99,9",,,"00,99,1,00,1,00,1,99999,9,00,1,00,1","01,9",,,,"99999,9,08190,1","9,9,999,9,+007,1",,"SYN082AAXX  04151 76373 32988 03301 10094 20017 38190 40136 5//// 91450 333 30/// 58007;","Q01  00002PRCP06"
"76373099999","2004-04-05T12:00:00","4","25.35","-105.75","1967.0","TEPEHUANES DGO., MX","FM-12","99999","V020","320,1,N,0010,1","22000,1,9,N","004000,1,N,1","+0026,1","-0018,1","10117,1","06,0000,9,1",,,,,"00,1,+99999,9,99,9",,,"00,99,1,00,1,00,1,99999,9,00,1,00,1","01,9","999,+0020,9","999,M,+0255,1","120,N,+0015,1","99999,9,08171,1",,,"SYN094AAXX  05121 76373 32940 03201 10026 21018 38171 40117 5//// 91125 333 10255 20015 30002 58///;","Q01  00002PRCP06"
"76373099999","2004-04-06T00:00:00","4","25.35","-105.75","1967.0","TEPEHUANES DGO., MX","FM-12","99999","V020","270,1,N,0060,1","22000,1,9,N","070000,1,N,1","+0208,1","-0078,1","10053,1","06,0000,9,1","24,0000,9,1",,,,"00,1,+99999,9,99,9",,,"00,99,1,00,1,00,1,99999,9,00,1,00,1","01,9",,"120,M,+0248,1","180,N,+0010,1","99999,9,08155,1","4,1,000,1,-003,1",,"SYN106AAXX  06001 76373 32988 02706 10208 21078 38155 40053 54000 92330 333 10248 20010 30/// 50720 59003 70000;","Q01  00002PRCP06Q02  00002PRCP24"
"76373099999","2004-04-06T12:00:00","4","25.35","-105.75","1967.0","TEPEHUANES DGO., MX","FM-12","99999","V020","999,9,C,0000,1","22000,1,9,N","004000,1,N,1","+0010,1","-0031,1","10123,1","06,0000,9,1",,,,,"00,1,+99999,9,99,9",,,"00,99,1,00,1,00,1,99999,9,00,1,00,1","01,9","999,-0030,9","999,M,+0248,1","120,N,+0000,1","99999,9,08174,1","9,9,999,9,+003,1",,"SYN094AAXX  06121 76373 32940 00000 10010 21031 38174 40123 5//// 91135 333 10248 20000 30103 58003;","Q01  00002PRCP06"
"76373099999","2004-04-06T15:00:00","4","25.35","-105.75","1967.0","TEPEHUANES DGO., MX","FM-12","99999","V020","360,1,N,0010,1","22000,1,9,N","070000,1,N,1","+0052,1","-0013,1","99999,9","06,0000,9,1",,,,,"00,1,+99999,9,99,9",,,"00,99,1,00,1,00,1,99999,9,00,1,00,1","01,9",,,,"99999,9,08206,1","2,1,032,1,+025,1",,"SYN082AAXX  06151 76373 32988 03601 10052 21013 38206 40190 52032 91435 333 30/// 58025;","Q01+101903APOSLPQ02  00002PRCP06"
"76373099999","2004-04-06T21:00:00","4","25.35","-105.75","1967.0","TEPEHUANES DGO., MX","FM-12","99999","V020","220,1,N,0060,1","22000,1,9,N","070000,1,N,1","+0246,2","-0115,1","10093,1","06,0000,9,1",,,,,"00,1,+99999,9,99,9",,,"00,99,1,00,1,00,1,99999,9,00,1,00,1","01,9",,,,"99999,9,08163,1","7,1,027,1,+008,1",,"SYN082AAXX  06211 76373 32988 02206 10246 21115 38163 40093 57027 92035 333 30/// 58008;","Q01+002463ATOT  Q02  00002PRCP06"
"76373099999","2004-04-07T12:00:00","4","25.35","-105.75","1967.0","TEPEHUANES DGO., MX","FM-12","99999","V020","999,9,C,0000,1","22000,1,9,N","002000,1,N,1","+0034,1","-0004,1","10137,1","06,0000,9,1","24,0000,9,1",,,,"00,1,+99999,9,99,9",,,"00,99,1,00,1,00,1,99999,9,00,1,00,1","01,9","999,-0010,9","999,M,+0266,1","120,N,+0025,1","99999,9,08187,1","9,9,999,9,+013,1",,"SYN100AAXX  07121 76373 32920 00000 10034 21004 38187 40137 5//// 91135 333 10266 20025 30101 58013 70000;","Q01  00002PRCP06Q02  00002PRCP24"
"76373099999","2004-04-07T18:00:00","4","25.35","-105.75","1967.0","TEPEHUANES DGO., MX","FM-12","99999","V020","999,9,C,0000,1","22000,1,9,N","070000,1,N,1","+0190,1","-0021,1","10155,1","06,0000,9,1",,,,,"01,1,+06000,9,00,9",,,"01,99,1,00,1,00,1,99999,9,00,1,05,1","01,9",,"120,M,+0208,1","240,N,+0013,1","99999,9,08189,1","6,1,012,1,-001,1",,"SYN112AAXX  07181 76373 32988 10000 10190 21021 38189 40155 56012 80005 91742 333 10208 20013 30/// 56006 59001 81070;","Q01  00002PRCP06"
"76373099999","2004-04-07T21:00:00","4","25.35","-105.75","1967.0","TEPEHUANES DGO., MX","FM-12","99999","V020","240,1,N,0030,1","22000,1,9,N","070000,1,N,1","+0255,1","-0117,1","10075,2","06,0000,9,1",,,,,"04,1,+08400,9,00,9",,,"04,99,1,00,1,00,1,99999,9,00,1,05,1","01,9",,,,"99999,9,08151,1","7,1,038,1,-012,1",,"SYN100AAXX  07211 76373 32988 42403 10255 21117 38151 40075 57038 80005 92035 333 30/// 56006 59012 84078;","Q01+100753APOSLPQ02  00002PRCP06"
"76373099999","2004-04-08T00:00:00","4","25.35","-105.75","1967.0","TEPEHUANES DGO., MX","FM-12","99999","V020","240,1,N,0050,1","99999,9,9,N","070000,1,N,1","+0234,1","-0076,1","10036,1","06,0000,9,1","24,0000,9,1",,,,,,,"08,99,1,08,1,00,1,99999,9,02,1,00,1","01,9",,"120,M,+0270,1","180,N,+0013,1","99999,9,08149,1","6,1,002,1,-018,1",,"SYN124AAXX  08001 76373 32988 82405 10234 21076 38149 40036 56002 88020 91730 333 10270 20013 30/// 50500 56060 59018 70000 88460;","Q01  00002PRCP06"
"76373099999","2004-04-08T15:00:00","4","25.35","-105.75","1967.0","TEPEHUANES DGO., MX","FM-12","99999","V020","290,1,N,0010,1","22000,1,9,N","070000,1,N,1","+0090,1","+0020,1","10121,1","06,0000,9,1",,,,,"03,1,+08400,9,00,9",,,"03,99,1,00,1,00,1,99999,9,00,1,04,1","01,9",,,,"99999,9,08188,1","1,1,013,1,-013,1",,"SYN100AAXX  08151 76373 32988 32901 10090 20020 38188 40121 51013 80004 91435 333 30/// 56006 59013 83078;","Q01  00002PRCP06"
"76373099999","2004-04-08T21:00:00","4","25.35","-105.75","1967.0","TEPEHUANES DGO., MX","FM-12","99999","V020","280,1,N,0040,1","22000,1,9,N","070000,1,N,1","+0232,1","-0099,1","10065,1","06,0000,9,1",,,,,"01,1,+00900,9,08,9",,,"02,99,1,01,1,01,1,00450,1,00,1,05,1","01,9",,,,"99999,9,08162,1","1,1,015,1,+011,1",,"SYN106AAXX  08211 76373 32488 22804 10232 21099 38162 40065 51015 81105 92035 333 30/// 56606 58011 81830 81090;","Q01  00002PRCP06"
"76373099999","2004-04-09T12:00:00","4","25.35","-105.75","1967.0","TEPEHUANES DGO., MX","FM-12","99999","V020","999,9,C,0000,1","22000,1,9,N","002000,1,N,1","+0042,1","+0002,1","10136,1","06,0000,9,1","24,0000,9,1",,,,"00,1,+99999,9,99,9",,,"00,99,1,00,1,00,1,99999,9,00,1,00,1","01,9","999,+0000,9","999,M,+0255,1","120,N,+0032,1","99999,9,08191,1","9,9,999,9,+018,1",,"SYN100AAXX  09121 76373 32920 00000 10042 20002 38191 40136 5//// 91135 333 10255 20032 30000 58018 70000;","Q01  00002PRCP06Q02  00002PRCP24"
"76373099999","2004-04-09T15:00:00","4","25.35","-105.75","1967.0","TEPEHUANES DGO., MX","FM-12","99999","V020","350,1,N,0010,1","22000,1,9,N","070000,1,N,1","+0080,1","+0028,1","10166,1","06,0000,9,1",,,,,"00,1,+99999,9,99,9",,,"00,99,1,00,1,00,1,99999,9,00,1,00,1","01,9",,,,"99999,9,08196,1","1,1,007,1,+008,1",,"SYN082AAXX  09151 76373 32988 03501 10080 20028 38196 40166 51007 91435 333 30/// 58008;","Q01  00002PRCP06"
"76373099999","2004-04-09T21:00:00","4","25.35","-105.75","1967.0","TEPEHUANES DGO., MX","FM-12","99999","V020","350,1,N,0010,1","22000,1,9,N","070000,1,N,1","+0260,2","-0043,1","10067,2","06,0000,9,1",,,,,"01,1,+00900,9,08,9",,,"02,99,1,01,1,01,1,99999,9,00,1,05,1","01,9",,,,"99999,9,08152,1","7,1,037,1,-010,1",,"SYN106AAXX  09211 76373 32988 23501 10260 21043 38152 40067 57037 81105 92040 333 30/// 56606 59010 81830 81090;","Q01+002603ATOT  Q02+100673APOSLPQ03  00002PRCP06"
"76373099999","2004-04-10T00:00:00","4","25.35","-105.75","1967.0","TEPEHUANES DGO., MX","FM-12","99999","V020","280,1,N,0040,1","22000,1,9,N","070000,1,N,1","+0248,1","-0037,1","10028,1","06,0000,9,1","24,0000,9,1",,,,,,,"01,99,1,01,1,01,1,00450,1,00,1,00,1","01,9",,"120,M,+0300,1","180,N,+0025,1","99999,9,08151,1","6,1,001,1,-005,1",,"SYN124AAXX  10001 76373 32488 12804 10248 21037 38151 40028 56001 81100 92335 333 10300 20025 30/// 50560 56600 59005 70000 81830;","Q01  00002PRCP06"
"76373099999","2004-04-10T21:00:00","4","25.35","-105.75","1967.0","TEPEHUANES DGO., MX","FM-12","99999","V020","280,1,N,0070,1","22000,1,9,N","070000,1,N,1","+0248,1","-0073,1","10046,1","06,0000,9,1",,,,,"01,1,+09000,9,00,9",,,"01,99,1,00,1,00,1,99999,9,00,1,05,1","01,9",,,,"99999,9,08149,1","6,1,017,1,-003,1",,"SYN100AAXX  10211 76373 32988 12807 10248 21073 38149 40046 56017 80005 92050 333 30/// 56006 59003 81080;","Q01  00002PRCP06"
"76373099999","2004-04-11T00:00:00","4","25.35","-105.75","1967.0","TEPEHUANES DGO., MX","FM-12","99999","V020","280,1,N,0080,1","22000,1,9,N","070000,1,N,1","+0218,1","-0101,1","10019,1","06,0000,9,1","24,0000,9,1",,,,"00,1,+99999,9,99,9",,,"00,99,1,00,1,00,1,99999,9,00,1,00,1","01,9",,"120,M,+0274,1","180,N,+0035,1","99999,9,08139,1","6,1,010,1,-012,1",,"SYN106AAXX  11001 76373 32988 02808 10218 21101 38139 40019 56010 92340 333 10274 20035 30/// 50115 59012 70000;","Q01  00002PRCP06Q02  00002PRCP24"
"76373099999","2004-04-11T15:00:00","4","25.35","-105.75","1967.0","TEPEHUANES DGO., MX","FM-12","99999","V020","320,1,N,0010,1","22000,1,9,N","070000,1,N,1","+0082,1","+0002,1","10109,1","06,0000,9,1",,,,,"00,1,+99999,9,99,9",,,"00,99,1,00,1,00,1,99999,9,00,1,00,1","01,9",,,,"99999,9,08172,1","9,9,999,9,-010,1",,"SYN082AAXX  11151 76373 32988 03201 10082 20002 38172 40109 5//// 91435 333 30/// 59010;","Q01  00002PRCP06"
"76373099999","2004-04-12T12:00:00","4","25.35","-105.75","1967.0","TEPEHUANES DGO., MX","FM-12","99999","V020","999,9,C,0000,1","22000,1,9,N","002000,1,N,1","+0044,1","-0019,1","10107,1","06,0000,9,1","24,0000,9,1",,,,"00,1,+99999,9,99,9",,,"00,99,1,00,1,00,1,99999,9,00,1,00,1","01,9","999,-0010,9","999,M,+0240,1","120,N,+0034,1","99999,9,08168,1",,,"SYN100AAXX  12121 76373 32920 00000 10044 21019 38168 40107 5//// 91135 333 10240 20034 30101 58/// 70000;","Q01  00002PRCP06Q02  00002PRCP24"
"76373099999","2004-04-12T15:00:00","4","25.35","-105.75","1967.0","TEPEHUANES DGO., MX","FM-12","99999","V020","110,1,N,0030,1","22000,1,9,N","070000,1,N,1","+0074,1","+0024,1","10148,1","06,0000,9,1",,,,,"00,1,+99999,9,99,9",,,"00,99,1,00,1,00,1,99999,9,00,1,00,1","01,9",,,,"99999,9,08184,1","0,1,016,1,+012,1",,"SYN082AAXX  12151 76373 32988 01103 10074 20024 38184 40148 50016 91435 333 30/// 58012;","Q01  00002PRCP06"
"76373099999","2004-04-13T00:00:00","4","25.35","-105.75","1967.0","TEPEHUANES DGO., MX","FM-12","99999","V020","140,1,N,0050,1","99999,9,9,N","070000,1,N,1","+0200,1","-0089,1","10079,1","06,0000,9,1","24,0000,9,1",,,,,,,"08,99,1,00,1,00,1,99999,9,00,1,05,1","01,9",,"120,M,+0232,1","180,N,+0016,1","99999,9,08171,1","6,1,003,1,+999,9",,"SYN124AAXX  13001 76373 32988 81405 10200 21089 38171 40079 56003 80005 92340 333 10232 20016 30/// 50670 56006 58/// 70000 88080;","Q01  00002PRCP06"
"76373099999","2004-04-13T12:00:00","4","25.35","-105.75","1967.0","TEPEHUANES DGO., MX","FM-12","99999","V020","999,9,C,0000,1","08400,1,9,N","001000,1,N,1","+0070,1","-0027,1","10160,1","06,0000,9,1","24,0000,9,1",,,,"05,1,+08400,9,00,9",,,"05,99,1,00,1,00,1,99999,9,00,1,04,1","01,9","999,+0020,9","999,M,+0232,1","120,N,+0062,1","99999,9,08218,1","9,9,999,9,+050,1",,"SYN118AAXX  13121 76373 32910 50000 10070 21027 38218 40160 5//// 80004 91135 333 10232 20062 30002 56006 58050 70000 85078;","Q01  00002PRCP06"
"76373099999","2004-04-13T15:00:00","4","25.35","-105.75","1967.0","TEPEHUANES DGO., MX","FM-12","99999","V020","350,1,N,0010,1","22000,1,9,N","070000,1,N,1","+0098,1","-0010,1","10200,1","06,0000,9,1",,,,,"02,1,+02400,9,03,9",,,"03,99,1,02,1,00,1,01250,1,04,1,05,1","01,9",,,,"99999,9,08237,1","2,1,019,1,+053,1",,"SYN106AAXX  13151 76373 32688 33501 10098 21010 38237 40200 52019 82045 91433 333 30/// 56066 58053 82358 81078;","Q01  00002PRCP06"
"76373099999","2004-04-13T18:00:00","4","25.35","-105.75","1967.0","TEPEHUANES DGO., MX","FM-12","99999","V020","140,1,N,0070,1","22000,1,9,N","070000,1,N,1","+0176,1","-0047,1","10188,1","06,0000,9,1",,,,,"02,1,+06000,9,00,9",,,"02,99,1,00,1,00,1,99999,9,00,1,01,1","01,9",,"120,M,+0190,1","240,N,+0056,1","99999,9,08232,1","7,1,007,1,+047,1",,"SYN112AAXX  13181 76373 32988 21407 10176 21047 38232 40188 57007 80001 91740 333 10190 20056 30/// 56006 58047 82070;","Q01  00002PRCP06"
"76373099999","2004-04-13T21:00:00","4","25.35","-105.75","1967.0","TEPEHUANES DGO., MX","FM-12","99999","V020","130,1,N,0040,1","09000,1,C,N","070000,1,N,1","+0218,1","-0063,1","10144,1","06,0000,9,1",,,,,"02,1,+00900,9,08,9",,,"05,99,1,02,1,01,1,00450,1,00,1,05,1","01,9",,,,"99999,9,08213,1","7,1,019,1,+039,1",,"SYN106AAXX  13211 76373 32488 51304 10218 21063 38213 40144 57019 82105 92038 333 30/// 56606 58039 82830 83078;","Q01  00002PRCP06"
"76373099999","2004-04-14T12:00:00","4","25.35","-105.75","1967.0","TEPEHUANES DGO., MX","FM-12","99999","V020","999,9,C,0000,1","03000,1,9,N","001000,1,N,1","+0052,1","-0020,1","10163,1","06,0000,9,1","24,0000,9,1",,,,"06,1,+03000,9,03,9",,,"06,99,1,06,1,00,1,01250,1,05,1,00,1","01,9","999,+0010,9","999,M,+0248,1","120,N,+0044,1","99999,9,08221,1","9,9,999,9,-007,1",,"SYN118AAXX  14121 76373 32610 60000 10052 21020 38221 40163 5//// 86050 91135 333 10248 20044 30001 56060 59007 70000 86360;","Q01  00002PRCP06"
"76373099999","2004-04-14T15:00:00","4","25.35","-105.75","1967.0","TEPEHUANES DGO., MX","FM-12","99999","V020","999,9,C,0000,1","22000,1,9,N","070000,1,N,1","+0076,1","+0008,1","10210,1","06,0000,9,1",,,,,"02,1,+00900,9,08,9",,,"04,99,1,02,1,01,1,00450,1,00,1,05,1","01,9",,,,"99999,9,08235,1","2,1,014,1,-004,1",,"SYN106AAXX  14151 76373 32488 40000 10076 20008 38235 40210 52014 82105 91435 333 30/// 56606 59004 82830 82090;","Q01  00002PRCP06"
"76373099999","2004-04-15T15:00:00","4","25.35","-105.75","1967.0","TEPEHUANES DGO., MX","FM-12","99999","V020","010,1,N,0010,1","22000,1,9,N","070000,1,N,1","+0104,1","+0039,1","10196,1","06,0000,9,1",,,,,"01,1,+00900,9,08,9",,,"02,99,1,01,1,01,1,00450,1,00,1,05,1","01,9",,,,"99999,9,08233,1","1,1,005,1,-002,1",,"SYN106AAXX  15151 76373 32488 20101 10104 20039 38233 40196 51005 81105 91435 333 30/// 56606 59002 81830 81090;","Q01  00002PRCP06"
"76373099999","2004-04-15T21:00:00","4","25.35","-105.75","1967.0","TEPEHUANES DGO., MX","FM-12","99999","V020","270,1,N,0040,1","09000,1,9,N","070000,1,N,1","+0286,2","-0042,1","10111,2","06,0000,9,1",,,,,"02,1,+00900,9,08,9",,,"06,99,1,02,1,01,1,00450,1,00,1,05,1","01,9",,,,"99999,9,08201,1","6,1,024,1,-005,1",,"SYN106AAXX  15211 76373 32488 62704 10286 21042 38201 40111 56024 82105 92035 333 30/// 56606 59005 82830 84090;","Q01+002863ATOT  Q02+101113APOSLPQ03  00002PRCP06"
"76373099999","2004-04-16T00:00:00","4","25.35","-105.75","1967.0","TEPEHUANES DGO., MX","FM-12","99999","V020","260,1,N,0040,1","06000,1,C,N","070000,1,N,1","+0254,1","+0011,1","10060,1","06,0000,9,1","24,0000,9,1",,,,"01,1,+00300,9,08,9","05,1,+06000,9,03,9",,"08,99,1,01,1,01,1,00450,1,03,1,02,1","01,9",,"120,M,+0310,1","180,N,+0044,1","99999,9,08198,1","7,1,003,1,-007,1",,"SYN136AAXX  16001 76373 32488 82604 10254 20011 38198 40060 57003 81132 92335 333 10310 20044 30/// 50430 56666 59007 70000 81810 85370 82070;","Q01  00002PRCP06"
"76373099999","2004-04-16T15:00:00","4","25.35","-105.75","1967.0","TEPEHUANES DGO., MX","FM-12","99999","V020","330,1,N,0010,1","06000,1,9,N","070000,1,N,1","+0144,1","+0046,1","10173,1","06,0000,9,1",,,,,"08,1,+06000,9,02,9",,,"99,99,9,00,1,00,1,99999,9,00,1,08,1","01,9",,,,"99999,9,08234,1","9,9,999,9,+001,1",,"SYN100AAXX  16151 76373 32988 73301 10144 20046 38234 40173 5//// 80008 91435 333 30/// 56006 58001 88270;","Q01+000072SCOTCVQ02  00002PRCP06"
"76373099999","2004-04-16T21:00:00","4","25.35","-105.75","1967.0","TEPEHUANES DGO., MX","FM-12","99999","V020","270,1,N,0040,1","03600,1,C,N","070000,1,N,1","+0302,1","-0006,1","10097,1","06,0000,9,1",,,,,"01,1,+00300,9,08,9","02,1,+03000,9,03,9",,"08,99,1,01,1,01,1,00450,1,03,1,06,1","01,9",,,,"99999,9,08203,1","6,1,024,1,+002,1",,"SYN112AAXX  16211 76373 32488 82704 10302 21006 38203 40097 56024 81136 92035 333 30/// 56663 58002 81810 82360 85070;","Q01  00002PRCP06"
"76373099999","2004-04-17T00:00:00","4","25.35","-105.75","1967.0","TEPEHUANES DGO., MX","FM-12","99999","V020","270,1,N,0040,1","03600,1,9,N","070000,1,N,1","+0296,1","+0026,1","10053,1","06,0000,9,1","24,0000,9,1",,,,"01,1,+00300,9,08,9","01,1,+03000,9,03,9",,"08,99,1,01,1,01,1,00450,1,03,1,08,1","01,9",,"120,M,+0327,1","180,N,+0044,1","99999,9,08196,1","7,1,007,1,-002,1",,"SYN136AAXX  17001 76373 32488 82704 10296 20026 38196 40053 57007 81138 92335 333 10327 20044 30/// 50630 56666 59002 70000 81810 81360 87270;","Q01  00002PRCP06"
"76373099999","2004-04-17T15:00:00","4","25.35","-105.75","1967.0","TEPEHUANES DGO., MX","FM-12","99999","V020","340,1,N,0010,1","22000,1,C,N","070000,1,N,1","+0154,1","+0036,1","10140,1","06,0000,9,1",,,,,"02,1,+03000,9,03,9",,,"06,99,1,02,1,00,1,01250,1,03,1,04,1","01,9",,,,"99999,9,08240,1","9,9,999,9,+003,1",,"SYN106AAXX  17151 76373 32688 63401 10154 20036 38240 40140 5//// 82034 91435 333 30/// 56606 58003 82360 84080;","Q01  00002PRCP06"
"76373099999","2004-04-18T15:00:00","4","25.35","-105.75","1967.0","TEPEHUANES DGO., MX","FM-12","99999","V020","999,9,C,0000,1","09000,1,9,N","070000,1,N,1","+0146,1","+0030,1","10144,1","06,0000,9,1",,,,,"08,1,+09000,9,00,9",,,"08,99,1,00,1,00,1,99999,9,00,1,04,1","01,9",,,,"99999,9,08236,1","9,9,999,9,-004,1",,"SYN100AAXX  18151 76373 32988 80000 10146 20030 38236 40144 5//// 80004 91430 333 30/// 56006 59004 88080;","Q01  00002PRCP06"
"76373099999","2004-04-19T12:00:00","4","25.35","-105.75","1967.0","TEPEHUANES DGO., MX","FM-12","99999","V020","999,9,C,0000,1","22000,1,9,N","002000,1,N,1","+0138,1","+0038,1","10115,1","06,0000,9,1","24,0000,9,1",,,,"01,1,+00900,9,08,9",,,"01,99,1,01,1,01,1,99999,9,00,1,00,1","01,9","999,+0090,9","999,M,+0336,1","120,N,+0126,1","99999,9,08229,1",,,"SYN118AAXX  19121 76373 32920 10000 10138 20038 38229 40115 5//// 81100 91135 333 10336 20126 30009 56600 58/// 70000 81830;","Q01  00002PRCP06"
"76373099999","2004-04-19T15:00:00","4","25.35","-105.75","1967.0","TEPEHUANES DGO., MX","FM-12","99999","V020","999,9,C,0000,1","22000,1,9,N","070000,1,N,1","+0150,1","+0049,1","10149,1","06,0000,9,1",,,,,"01,1,+09000,9,02,9",,,"01,99,1,00,1,00,1,99999,9,00,1,08,1","01,9",,,,"99999,9,08239,1","0,1,010,1,+003,1",,"SYN100AAXX  19151 76373 32988 10000 10150 20049 38239 40149 50010 80008 91438 333 30/// 56006 58003 81280;","Q01  00002PRCP06"
"76373099999","2004-04-19T18:00:00","4","25.35","-105.75","1967.0","TEPEHUANES DGO., MX","FM-12","99999","V020","010,1,N,0010,1","22000,1,9,N","070000,1,N,1","+0272,1","+0015,1","10136,1","06,0000,9,1",,,,,"01,1,+00900,9,08,9",,,"02,99,1,01,1,01,1,00450,1,00,1,01,1","01,9",,"120,M,+0290,1","240,N,+0114,1","99999,9,08234,1","8,1,005,1,+012,1",,"SYN118AAXX  19181 76373 32488 20101 10272 20015 38234 40136 58005 81101 91738 333 10290 20114 30/// 56606 58012 81830 81090;","Q01  00002PRCP06"
"76373099999","2004-04-19T21:00:00","4","25.35","-105.75","1967.0","TEPEHUANES DGO., MX","FM-12","99999","V020","270,1,N,0030,1","00300,1,9,N","070000,1,N,1","+0300,1","+0018,1","10078,1","06,0000,9,1",,,,,"05,1,+00300,9,08,9",,,"08,99,1,05,1,01,1,00450,1,03,1,00,1","01,9",,,,"99999,9,08204,1","7,1,030,1,+001,1",,"SYN106AAXX  19211 76373 32488 82703 10300 20018 38204 40078 57030 85130 92035 333 30/// 56660 58001 85810 83360;","Q01  00002PRCP06"
"76373099999","2004-04-20T00:00:00","4","25.35","-105.75","1967.0","TEPEHUANES DGO., MX","FM-12","99999","V020","240,1,N,0030,1","03600,1,9,N","070000,1,N,1","+0310,1","+0012,1","10036,1","06,0000,9,1","24,0000,9,1",,,,"04,1,+00600,9,08,9",,,"07,99,1,04,1,02,1,00250,1,06,1,00,1","01,9",,"120,M,+0320,1","180,N,+0114,1","99999,9,08192,1","6,1,012,1,-004,1",,"SYN130AAXX  20001 76373 32388 72403 10310 20012 38192 40036 56012 84260 92330 333 10320 20114 30/// 50650 56660 59004 70000 84820 83360;","Q01  00002PRCP06"
"76373099999","2004-04-20T12:00:00","4","25.35","-105.75","1967.0","TEPEHUANES DGO., MX","FM-12","99999","V020","999,9,C,0000,1","22000,1,9,N","002000,1,N,1","+0094,1","+0022,1","10128,1","06,0000,9,1","24,0000,9,1",,,,"02,1,+00025,9,00,9",,,"02,99,1,00,1,00,1,99999,9,00,1,05,1","01,9","999,+0080,9","999,M,+0320,1","120,N,+0085,1","99999,9,08217,1","9,9,999,9,-012,1",,"SYN118AAXX  20121 76373 32920 20000 10094 20022 38217 40128 5//// 80005 91133 333 10320 20085 30008 56006 59012 70000 82090;","Q01  00002PRCP06"
"76373099999","2004-04-20T18:00:00","4","25.35","-105.75","1967.0","TEPEHUANES DGO., MX","FM-12","99999","V020","300,1,N,0060,1","22000,1,9,N","070000,1,N,1","+0278,1","+0009,1","10127,1","06,0000,9,1",,,,,"01,1,+00300,9,08,9","01,1,+03000,9,03,9",,"03,99,1,01,1,01,1,00450,1,03,1,02,1","01,9",,"120,M,+0290,1","240,N,+0074,1","99999,9,08210,1","6,1,010,1,-024,1",,"SYN124AAXX  20181 76373 32488 33006 10278 20009 38210 40127 56010 81132 91736 333 10290 20074 30/// 56666 59024 81810 81360 81070;","Q01  00002PRCP06"
"76373099999","2004-04-20T21:00:00","4","25.35","-105.75","1967.0","TEPEHUANES DGO., MX","FM-12","99999","V020","290,1,N,0050,1","22000,1,9,N","070000,1,N,1","+0294,1","-0004,1","10075,1","06,0000,9,1",,,,,"02,1,+00900,9,08,9",,,"04,99,1,02,1,01,1,00450,1,00,1,00,1","01,9",,,,"99999,9,08192,1","6,1,018,1,-012,1",,"SYN106AAXX  20211 76373 32488 42905 10294 21004 38192 40075 56018 82100 92033 333 30/// 56600 59012 82830 82930;","Q01  00002PRCP06"
"76373099999","2004-04-21T12:00:00","4","25.35","-105.75","1967.0","TEPEHUANES DGO., MX","FM-12","99999","V020","999,9,C,0000,1","22000,1,9,N","002000,1,N,1","+0076,1","-0014,1","10089,1","06,0000,9,1","24,0000,9,1",,,,"00,1,+99999,9,99,9",,,"00,99,1,00,1,00,1,99999,9,00,1,00,1","01,9","999,+0030,9","999,M,+0306,1","120,N,+0066,1","99999,9,08182,1","9,9,999,9,-035,1",,"SYN100AAXX  21121 76373 32920 00000 10076 21014 38182 40089 5//// 91133 333 10306 20066 30003 59035 70000;","Q01  00002PRCP06Q02  00002PRCP24"
"76373099999","2004-04-21T15:00:00","4","25.35","-105.75","1967.0","TEPEHUANES DGO., MX","FM-12","99999","V020","350,1,N,0010,1","22000,1,9,N","070000,1,N,1","+0112,1","+0032,1","10121,1","06,0000,9,1",,,,,"04,1,+08400,9,00,9",,,"04,99,1,00,1,00,1,99999,9,00,1,05,1","01,9",,,,"99999,9,08186,1","1,1,004,1,-034,1",,"SYN100AAXX  21151 76373 32988 43501 10112 20032 38186 40121 51004 80005 91435 333 30/// 56006 59034 84078;","Q01  00002PRCP06"
"76373099999","2004-04-21T18:00:00","4","25.35","-105.75","1967.0","TEPEHUANES DGO., MX","FM-12","99999","V020","310,1,N,0020,1","06000,1,9,N","070000,1,N,1","+0260,2","-0087,2","10093,1","06,0000,9,1",,,,,"06,1,+06000,9,02,9",,,"06,99,1,00,1,00,1,99999,9,00,1,08,1","01,9",,"120,M,+0268,1","240,N,+0053,1","99999,9,08176,1","7,1,010,1,-034,1",,"SYN112AAXX  21181 76373 32988 63102 10260 21087 38176 40093 57010 80008 91740 333 10268 20053 30/// 56006 59034 86270;","Q01+002603ATOT  Q02-000873ATOD  Q03  00002PRCP06"
"76373099999","2004-04-22T00:00:00","4","25.35","-105.75","1967.0","TEPEHUANES DGO., MX","FM-12","99999","V020","300,1,N,0050,1","99999,9,9,N","070000,1,N,1","+0266,1","-0070,1","10010,1","06,0000,9,1","24,0000,9,1",,,,,,,"06,99,1,00,1,00,1,99999,9,00,1,07,1","01,9",,"120,M,+0320,1","180,N,+0053,1","99999,9,08145,1","5,1,001,1,-024,1",,"SYN124AAXX  22001 76373 32988 63005 10266 21070 38145 40010 55001 80007 92340 333 10320 20053 30/// 50860 56006 59024 70000 86280;","Q01  00002PRCP06"
"76373099999","2004-04-22T18:00:00","4","25.35","-105.75","1967.0","TEPEHUANES DGO., MX","FM-12","99999","V020","180,1,N,0010,1","09000,1,C,N","070000,1,N,1","+0242,1","-0055,1","10092,1","06,0000,9,1",,,,,"03,1,+03000,9,03,9",,,"05,99,1,03,1,00,1,01250,1,03,1,02,1","01,9",,"120,M,+0270,1","240,N,+0082,1","99999,9,08175,1","8,1,008,1,+003,1",,"SYN118AAXX  22181 76373 32688 51801 10242 21055 38175 40092 58008 83032 91740 333 10270 20082 30/// 56066 58003 83360 82070;","Q01  00002PRCP06"
"76373099999","2004-04-23T15:00:00","4","25.35","-105.75","1967.0","TEPEHUANES DGO., MX","FM-12","99999","V020","290,1,N,0010,1","22000,1,9,N","070000,1,N,1","+0136,1","+0069,1","10097,1","06,0000,9,1",,,,,"01,1,+03000,9,03,9",,,"01,99,1,01,1,00,1,01250,1,04,1,00,1","01,9",,,,"99999,9,08178,1","0,1,008,1,-005,1",,"SYN100AAXX  23151 76373 32688 12901 10136 20069 38178 40097 50008 81040 91435 333 30/// 56060 59005 81360;","Q01  00002PRCP06"
"76373099999","2004-04-23T21:00:00","4","25.35","-105.75","1967.0","TEPEHUANES DGO., MX","FM-12","99999","V020","280,1,N,0050,1","22000,1,9,N","070000,1,N,1","+0288,1","-0112,2","10023,1","06,0000,9,1",,,,,"04,1,+00900,9,08,9",,,"04,99,1,04,1,01,1,00450,1,00,1,00,1","01,9",,,,"99999,9,08144,1","8,1,024,1,-006,1",,"SYN100AAXX  23211 76373 32488 42805 10288 21112 38144 40023 58024 84100 92038 333 30/// 56600 59006 84830;","Q01-001123ATOD  Q02  00002PRCP06"
"76373099999","2004-04-24T00:00:00","4","25.35","-105.75","1967.0","TEPEHUANES DGO., MX","FM-12","99999","V020","280,1,N,0060,1","22000,1,9,N","070000,1,N,1","+0270,1","-0134,1","10007,1","06,0000,9,1","24,0000,9,1",,,,"02,1,+00900,9,08,9",,,"02,99,1,02,1,01,1,00450,1,00,1,00,1","01,9",,"120,M,+0318,1","180,N,+0082,1","99999,9,08141,1","7,1,003,1,-005,1",,"SYN118AAXX  24001 76373 32488 22806 10270 21134 38141 40007 57003 82100 92338 333 10318 20082 30/// 56600 59005 70000 82830;","Q01  00002PRCP06"
"76373099999","2004-04-26T18:00:00","4","25.35","-105.75","1967.0","TEPEHUANES DGO., MX","FM-12","99999","V020","110,1,N,0060,1","99999,9,9,N","070000,1,N,1","+0246,1","+0081,1","10126,1","06,0000,9,1",,,,,"02,1,+00300,9,09,9",,,"05,99,1,03,1,02,1,00450,1,00,1,00,1","01,9",,"120,M,+0264,1","240,N,+0134,1","99999,9,08222,1","7,1,003,1,+999,9",,"SYN118AAXX  26181 76373 32488 51106 10246 20081 38222 40126 57003 83200 91736 333 10264 20134 30/// 56200 58/// 82910 83810;","Q01  00002PRCP06"
"76373099999","2004-04-26T21:00:00","4","25.35","-105.75","1967.0","TEPEHUANES DGO., MX","FM-12","99999","V020","070,1,N,0030,1","99999,9,9,N","070000,1,N,1","+0260,1","+0070,1","10085,1","06,0000,9,1",,,,,"04,1,+00900,9,08,9",,,"08,99,1,04,1,01,1,00450,1,00,1,00,1","01,9",,,,"99999,9,08201,1","7,1,021,1,+999,9",,"SYN106AAXX  26211 76373 32488 80703 10260 20070 38201 40085 57021 84100 92035 333 30/// 56200 58/// 84830 84930;","Q01  00002PRCP06"
"76373099999","2004-04-27T12:00:00","4","25.35","-105.75","1967.0","TEPEHUANES DGO., MX","FM-12","99999","V020","270,1,N,0010,1","00300,1,9,N","003000,1,N,1","+0138,1","+0080,1","10155,1","06,0000,9,1","24,0027,9,1",,,,"08,1,+00300,9,07,9",,,"08,99,1,08,1,07,1,00450,1,00,1,00,1","01,9","999,+0120,9","999,M,+0288,1","120,N,+0134,1","99999,9,08232,1","9,9,999,9,+020,1",,"SYN118AAXX  27121 76373 32430 82701 10138 20080 38232 40155 5//// 88700 91135 333 10288 20134 30012 56600 58020 70027 88710;","Q01  00002PRCP06"
"76373099999","2004-04-27T15:00:00","4","25.35","-105.75","1967.0","TEPEHUANES DGO., MX","FM-12","99999","V020","140,1,N,0040,1","00900,1,9,N","070000,1,N,1","+0160,1","+0074,1","10179,1","06,0000,9,1",,,,,"06,1,+00900,9,09,9",,,"08,99,1,06,1,03,1,00450,1,00,1,00,1","01,9",,,,"99999,9,08240,1","2,1,008,1,+015,1",,"SYN106AAXX  27151 76373 32488 81404 10160 20074 38240 40179 52008 86300 91435 333 30/// 56200 58015 86930 82130;","Q01  00002PRCP06"
"76373099999","2004-04-27T18:00:00","4","25.35","-105.75","1967.0","TEPEHUANES DGO., MX","FM-12","99999","V020","120,1,N,0060,1","22000,1,9,N","070000,1,N,1","+0198,1","+0086,1","10149,1","06,0000,9,1",,,,,"04,1,+00300,9,08,9",,,"04,99,1,04,1,02,1,00450,1,00,1,00,1","01,9",,"120,M,+0214,1","240,N,+0132,1","99999,9,08229,1","6,1,011,1,+007,1",,"SYN112AAXX  27181 76373 32488 41206 10198 20086 38229 40149 56011 84200 91740 333 10214 20132 30/// 56200 58007 84810;","Q01  00002PRCP06"
"76373099999","2004-04-27T21:00:00","4","25.35","-105.75","1967.0","TEPEHUANES DGO., MX","FM-12","99999","V020","120,1,N,0060,1","00600,1,9,N","070000,1,N,1","+0242,1","+0060,1","10084,2","06,0000,9,1",,,,,"05,1,+00600,9,08,9",,,"05,99,1,05,1,01,1,00450,1,00,1,00,1","01,9",,,,"99999,9,08191,1","7,1,038,1,-010,1",,"SYN100AAXX  27211 76373 32488 51206 10242 20060 38191 40084 57038 85100 92035 333 30/// 56600 59010 85820;","Q01+100843APOSLPQ02  00002PRCP06"
"76373099999","2004-04-28T00:00:00","4","25.35","-105.75","1967.0","TEPEHUANES DGO., MX","FM-12","99999","V020","250,1,N,0060,1","03000,1,C,N","070000,1,N,1","+0262,1","+0032,1","10042,1","06,0000,9,1","24,0016,9,1",,,,"04,1,+00600,9,08,9","02,1,+03000,9,03,9",,"08,99,1,04,1,02,1,00250,1,06,1,04,1","01,9",,"120,M,+0278,1","180,N,+0132,1","99999,9,08172,1","6,1,019,1,-015,1",,"SYN136AAXX  28001 76373 32388 82506 10262 20032 38172 40042 56019 84264 92335 333 10278 20132 30/// 50580 56222 59015 70016 84820 82360 82080;","Q01  00002PRCP06"
"76373099999","2004-04-28T18:00:00","4","25.35","-105.75","1967.0","TEPEHUANES DGO., MX","FM-12","99999","V020","100,1,N,0030,1","22000,1,9,N","070000,1,N,1","+0220,1","+0021,1","10108,1","06,0000,9,1",,,,,"00,1,+99999,9,99,9",,,"00,99,1,00,1,00,1,99999,9,00,1,00,1","01,9",,"120,M,+0234,1","240,N,+0085,1","99999,9,08188,1","6,1,011,1,-041,1",,"SYN094AAXX  28181 76373 32988 01003 10220 20021 38188 40108 56011 91736 333 10234 20085 30/// 59041;","Q01  00002PRCP06"
"76373099999","2004-04-28T21:00:00","4","25.35","-105.75","1967.0","TEPEHUANES DGO., MX","FM-12","99999","V020","320,1,N,0080,1","22000,1,9,N","070000,1,N,1","+0260,1","-0066,1","10061,1","06,0000,9,1",,,,,"03,1,+00900,9,08,9",,,"03,99,1,03,1,01,1,00450,1,00,1,00,1","01,9",,,,"99999,9,08169,1","6,1,019,1,-022,1",,"SYN100AAXX  28211 76373 32488 33208 10260 21066 38169 40061 56019 83100 92035 333 30/// 56600 59022 83830;","Q01  00002PRCP06"
"76373099999","2004-04-29T12:00:00","4","25.35","-105.75","1967.0","TEPEHUANES DGO., MX","FM-12","99999","V020","999,9,C,0000,1","03000,1,9,N","003000,1,N,1","+0088,1","+0025,1","10125,1","06,0000,9,1","24,0000,9,1",,,,"08,1,+03000,9,03,9",,,"08,99,1,08,1,00,1,00450,1,05,1,00,1","01,9","999,+0050,9","999,M,+0284,1","120,N,+0078,1","99999,9,08199,1","9,9,999,9,+005,1",,"SYN118AAXX  29121 76373 32430 80000 10088 20025 38199 40125 5//// 88050 91135 333 10284 20078 30005 56060 58005 70000 88360;","Q01  00002PRCP06"
"76373099999","2004-04-29T15:00:00","4","25.35","-105.75","1967.0","TEPEHUANES DGO., MX","FM-12","99999","V020","999,9,C,0000,1","03000,1,9,N","070000,1,N,1","+0106,1","+0042,1","10164,1","06,0000,9,1",,,,,"08,1,+03000,9,05,9",,,"08,99,1,08,1,00,1,01250,1,05,1,00,1","01,9",,,,"99999,9,08215,1","2,1,016,1,+016,1",,"SYN100AAXX  29151 76373 32688 80000 10106 20042 38215 40164 52016 88050 91435 333 30/// 56060 58016 88560;","Q01  00002PRCP06"
"76373099999","2004-04-29T18:00:00","4","25.35","-105.75","1967.0","TEPEHUANES DGO., MX","FM-12","99999","V020","150,1,N,0010,1","09000,1,C,N","070000,1,N,1","+0220,2","-0009,1","10142,1","06,0000,9,1",,,,,"03,1,+03000,9,03,9",,,"08,99,1,03,1,00,1,01250,1,03,1,08,1","01,9",,"120,M,+0234,1","240,N,+0074,1","99999,9,08204,1","8,1,011,1,+016,1",,"SYN118AAXX  29181 76373 32688 81501 10220 21009 38204 40142 58011 83038 91740 333 10234 20074 30/// 56066 58016 83360 86270;","Q01+002203ATOT  Q02  00002PRCP06"
"76373099999","2004-04-30T12:00:00","4","25.35","-105.75","1967.0","TEPEHUANES DGO., MX","FM-12","99999","V020","300,1,N,0020,1","22000,1,9,N","002000,1,N,1","+0062,1","-0004,1","10135,1","06,0000,9,1","24,0000,9,1",,,,"00,1,+99999,9,99,9",,,"00,99,1,00,1,00,1,99999,9,00,1,00,1","01,9","999,+0020,9","999,M,+0280,1","120,N,+0048,1","99999,9,08198,1","9,9,999,9,-001,1",,"SYN100AAXX  30121 76373 32920 03002 10062 21004 38198 40135 5//// 91135 333 10280 20048 30002 59001 70000;","Q01  00002PRCP06Q02  00002PRCP24"
"76373099999","2004-04-30T15:00:00","4","25.35","-105.75","1967.0","TEPEHUANES DGO., MX","FM-12","99999","V020","350,1,N,0010,1","22000,1,9,N","070000,1,N,1","+0102,1","+0024,1","10167,1","06,0000,9,1",,,,,"00,1,+99999,9,99,9",,,"00,99,1,00,1,00,1,99999,9,00,1,00,1","01,9",,,,"99999,9,08206,1","0,1,008,1,-009,1",,"SYN082AAXX  30151 76373 32988 03501 10102 20024 38206 40167 50008 91435 333 30/// 59009;","Q01  00002PRCP06"
"76373099999","2004-04-30T21:00:00","4","25.35","-105.75","1967.0","TEPEHUANES DGO., MX","FM-12","99999","V020","300,1,N,0070,1","22000,1,9,N","070000,1,N,1","+0278,2","-0150,2","10076,2","06,0000,9,1",,,,,"03,1,+00025,9,00,9",,,"03,99,1,00,1,00,1,99999,9,00,1,02,1","01,9",,,,"99999,9,08173,1","6,1,022,1,-017,1",,"SYN100AAXX  30211 76373 32988 33007 10278 21150 38173 40076 56022 80002 92038 333 30/// 56006 59017 83090;","Q01+002783ATOT  Q02-001503ATOD  Q03+100763APOSLPQ04  00002PRCP06"
"76373099999","2004-05-01T00:00:00","4","25.35","-105.75","1967.0","TEPEHUANES DGO., MX","FM-12","99999","V020","230,1,N,0060,1","22000,1,9,N","070000,1,N,1","+0264,1","-0099,1","10031,1","06,0000,9,1","24,0000,9,1",,,,"00,1,+99999,9,99,9",,,"00,99,1,00,1,00,1,99999,9,00,1,00,1","01,9",,"120,M,+0298,1","180,N,+0030,1","99999,9,08166,1","6,1,007,1,-021,1",,"SYN106AAXX  01001 76373 32988 02306 10264 21099 38166 40031 56007 92335 333 10298 20030 30/// 50740 59021 70000;","Q01  00002PRCP06Q02  00002PRCP24"
"76373099999","2004-05-02T15:00:00","4","25.35","-105.75","1967.0","TEPEHUANES DGO., MX","FM-12","99999","V020","999,9,C,0000,1","22000,1,9,N","070000,1,N,1","+0144,1","-0004,1","10150,1","06,0000,9,1",,,,,"00,1,+99999,9,99,9",,,"00,99,1,00,1,00,1,99999,9,00,1,00,1","01,9",,,,"99999,9,08238,1","9,9,999,9,+039,1",,"SYN082AAXX  02151 76373 32988 00000 10144 21004 38238 40150 5//// 91435 333 30/// 58039;","Q01  00002PRCP06"
"76373099999","2004-05-02T18:00:00","4","25.35","-105.75","1967.0","TEPEHUANES DGO., MX","FM-12","99999","V020","110,1,N,0060,1","22000,1,9,N","070000,1,N,1","+0194,1","+0004,1","10146,1","06,0000,9,1",,,,,"00,1,+99999,9,99,9",,,"00,99,1,00,1,00,1,99999,9,00,1,00,1","01,9",,"120,M,+0206,1","240,N,+0074,1","99999,9,08229,1","6,1,009,1,+050,1",,"SYN094AAXX  02181 76373 32988 01106 10194 20004 38229 40146 56009 91735 333 10206 20074 30/// 58050;","Q01  00002PRCP06"
"76373099999","2004-05-02T21:00:00","4","25.35","-105.75","1967.0","TEPEHUANES DGO., MX","FM-12","99999","V020","150,1,N,0080,1","22000,1,9,N","070000,1,N,1","+0224,1","-0057,1","10115,1","06,0000,9,1",,,,,"00,1,+99999,9,99,9",,,"00,99,1,00,1,00,1,99999,9,00,1,00,1","01,9",,,,"99999,9,08206,1","6,1,023,1,+040,1",,"SYN082AAXX  02211 76373 32988 01508 10224 21057 38206 40115 56023 92045 333 30/// 58040;","Q01  00002PRCP06"
"76373099999","2004-05-03T18:00:00","4","25.35","-105.75","1967.0","TEPEHUANES DGO., MX","FM-12","99999","V020","120,1,N,0040,1","22000,1,9,N","070000,1,N,1","+0208,1","-0017,1","10191,1","06,0000,9,1",,,,,"01,1,+00300,9,08,9",,,"01,99,1,01,1,01,1,00450,1,00,1,00,1","01,9",,"120,M,+0230,1","240,N,+0040,1","99999,9,08233,1","8,1,011,1,+004,1",,"SYN112AAXX  03181 76373 32488 11204 10208 21017 38233 40191 58011 81100 91736 333 10230 20040 30/// 56600 58004 81810;","Q01  00002PRCP06"
"76373099999","2004-05-03T21:00:00","4","25.35","-105.75","1967.0","TEPEHUANES DGO., MX","FM-12","99999","V020","210,1,N,0030,1","99999,9,9,N","070000,1,N,1","+0250,1","-0025,1","10132,1","06,0000,9,1",,,,,"03,1,+00900,9,08,9",,,"06,99,1,03,1,04,1,00450,1,00,1,00,1","01,9",,,,"99999,9,08208,1","7,1,025,1,+002,1",,"SYN106AAXX  03211 76373 32488 62103 10250 21025 38208 40132 57025 83400 92038 333 30/// 56600 58002 83830 83930;","Q01  00002PRCP06"
"76373099999","2004-05-04T00:00:00","4","25.35","-105.75","1967.0","TEPEHUANES DGO., MX","FM-12","99999","V020","030,1,N,0010,1","00210,1,9,N","070000,1,N,1","+0196,1","+0008,1","10101,1","06,0000,9,1","24,0000,9,1",,,,,,,"07,99,1,07,1,03,1,00250,1,00,1,00,1","01,9",,"120,M,+0268,1","180,N,+0040,1","99999,9,08204,1","6,1,004,1,+014,1",,"SYN124AAXX  04001 76373 32388 70301 10196 20008 38204 40101 56004 87300 92350 333 10268 20040 30/// 50600 56200 58014 70000 87920;","Q01  00002PRCP06"
"76373099999","2004-05-04T12:00:00","4","25.35","-105.75","1967.0","TEPEHUANES DGO., MX","FM-12","99999","V020","999,9,C,0000,1","22000,1,9,N","003000,1,N,1","+0068,1","+0014,1","10168,1","12,9999,9,9",,,,,"00,1,+99999,9,99,9",,,"00,99,1,00,1,00,1,99999,9,00,1,00,1","01,9","999,+0020,9","999,M,+0268,1","120,N,+0058,1","99999,9,08232,1","9,9,999,9,+028,1",,"SYN112AAXX  04121 76373 02930 00000 10068 20014 38232 40168 5//// 59902 91138 333 10268 20058 30002 58028 69902 79999;","Q01  99992PRCP12"
"76373099999","2004-05-04T18:00:00","4","25.35","-105.75","1967.0","TEPEHUANES DGO., MX","FM-12","99999","V020","120,1,N,0020,1","22000,1,9,N","070000,1,N,1","+0234,1","+0004,1","10163,1","06,0000,9,1",,,,,"01,1,+00300,9,08,9",,,"03,99,1,02,1,03,1,00450,1,00,1,00,1","01,9",,"120,M,+0260,1","240,N,+0048,1","99999,9,08223,1","6,1,014,1,-010,1",,"SYN118AAXX  04181 76373 32488 31202 10234 20004 38223 40163 56014 82300 91735 333 10260 20048 30/// 56600 59010 81810 82910;","Q01  00002PRCP06"
"76373099999","2004-05-04T21:00:00","4","25.35","-105.75","1967.0","TEPEHUANES DGO., MX","FM-12","99999","V020","010,1,N,0040,1","00900,1,9,N","070000,1,N,1","+0268,1","-0075,1","10102,2","06,0000,9,1",,,,,"05,1,+00900,9,09,9",,,"06,99,1,05,1,03,1,00450,1,00,1,00,1","01,9",,,,"99999,9,08196,1","7,1,007,1,-012,1",,"SYN106AAXX  04211 76373 32488 60104 10268 21075 38196 40102 57007 85300 92035 333 30/// 56600 59012 85930 83830;","Q01+101023APOSLPQ02  00002PRCP06"
"76373099999","2004-05-05T12:00:00","4","25.35","-105.75","1967.0","TEPEHUANES DGO., MX","FM-12","99999","V020","999,9,C,0000,1","22000,1,9,N","003000,1,N,1","+0072,1","-0010,1","10145,1","06,0000,9,1","24,0000,9,1",,,,"00,1,+99999,9,99,9",,,"00,99,1,00,1,00,1,99999,9,00,1,00,1","01,9","999,+0020,9","999,M,+0294,1","120,N,+0062,1","99999,9,08224,1","9,9,999,9,-008,1",,"SYN100AAXX  05121 76373 32930 00000 10072 21010 38224 40145 5//// 91140 333 10294 20062 30002 59008 70000;","Q01  00002PRCP06Q02  00002PRCP24"
"76373099999","2004-05-05T18:00:00","4","25.35","-105.75","1967.0","TEPEHUANES DGO., MX","FM-12","99999","V020","060,1,N,0020,1","22000,1,9,N","070000,1,N,1","+0236,1","-0052,1","10161,1","06,0000,9,1",,,,,"01,1,+00300,9,08,9",,,"01,99,1,01,1,01,1,00450,1,00,1,00,1","01,9",,"120,M,+0250,1","240,N,+0046,1","99999,9,08225,1","6,1,011,1,+002,1",,"SYN112AAXX  05181 76373 32488 10602 10236 21052 38225 40161 56011 81100 91735 333 10250 20046 30/// 56600 58002 81810;","Q01  00002PRCP06"
"76373099999","2004-05-05T21:00:00","4","25.35","-105.75","1967.0","TEPEHUANES DGO., MX","FM-12","99999","V020","330,1,N,0040,1","22000,1,9,N","070000,1,N,1","+0276,1","-0125,1","10092,2","06,0000,9,1",,,,,"03,1,+00900,9,08,9",,,"03,99,1,03,1,01,1,00450,1,00,1,00,1","01,9",,,,"99999,9,08192,1","7,1,033,1,-004,1",,"SYN100AAXX  05211 76373 32488 33304 10276 21125 38192 40092 57033 83100 92035 333 30/// 56600 59004 83830;","Q01+100923APOSLPQ02  00002PRCP06"
"76373099999","2004-05-06T00:00:00","4","25.35","-105.75","1967.0","TEPEHUANES DGO., MX","FM-12","99999","V020","250,1,N,0040,1","22000,1,9,N","070000,1,N,1","+0264,1","-0076,1","10060,1","06,0000,9,1","24,0000,9,1",,,,,,,"02,99,1,02,1,02,1,00250,1,00,1,00,1","01,9",,"120,M,+0312,1","180,N,+0046,1","99999,9,08188,1","6,1,004,1,-001,1",,"SYN124AAXX  06001 76373 32388 22504 10264 21076 38188 40060 56004 82200 92330 333 10312 20046 30/// 50740 56600 59001 70000 82820;","Q01  00002PRCP06"
"76373099999","2004-05-06T12:00:00","4","25.35","-105.75","1967.0","TEPEHUANES DGO., MX","FM-12","99999","V020","999,9,C,0000,1","22000,1,9,N","003000,1,N,1","+0074,1","-0016,1","10171,1","06,0000,9,1","24,0000,9,1",,,,"00,1,+99999,9,99,9",,,"00,99,1,00,1,00,1,99999,9,00,1,00,1","01,9","999,+0020,9","999,M,+0312,1","120,N,+0062,1","99999,9,08243,1","9,9,999,9,+020,1",,"SYN100AAXX  06121 76373 32930 00000 10074 21016 38243 40171 5//// 91135 333 10312 20062 30002 58020 70000;","Q01  00002PRCP06Q02  00002PRCP24"
"76373099999","2004-05-06T15:00:00","4","25.35","-105.75","1967.0","TEPEHUANES DGO., MX","FM-12","99999","V020","999,9,C,0000,1","22000,1,9,N","070000,1,N,1","+0146,1","-0010,1","10191,1","06,0000,9,1",,,,,"00,1,+99999,9,99,9",,,"00,99,1,00,1,00,1,99999,9,00,1,00,1","01,9",,,,"99999,9,08243,1","0,1,000,1,+007,1",,"SYN082AAXX  06151 76373 32988 00000 10146 21010 38243 40191 50000 91435 333 30/// 58007;","Q01  00002PRCP06"
"76373099999","2004-05-06T18:00:00","4","25.35","-105.75","1967.0","TEPEHUANES DGO., MX","FM-12","99999","V020","300,1,N,0040,1","22000,1,9,N","070000,1,N,1","+0232,1","-0039,1","10166,1","06,0000,9,1",,,,,"03,1,+00300,9,08,9",,,"03,99,1,03,1,01,1,00450,1,00,1,00,1","01,9",,"120,M,+0264,1","240,N,+0054,1","99999,9,08232,1","8,1,011,1,-007,1",,"SYN112AAXX  06181 76373 32488 33004 10232 21039 38232 40166 58011 83100 91738 333 10264 20054 30/// 56600 59007 83810;","Q01  00002PRCP06"
"76373099999","2004-05-06T21:00:00","4","25.35","-105.75","1967.0","TEPEHUANES DGO., MX","FM-12","99999","V020","280,1,N,0040,1","99999,9,9,N","070000,1,N,1","+0262,1","-0062,1","10107,1","06,0000,9,1",,,,,"04,1,+00900,9,08,9",,,"06,99,1,04,1,01,1,00450,1,00,1,00,1","01,9",,,,"99999,9,08206,1","7,1,026,1,+014,1",,"SYN106AAXX  06211 76373 32488 62804 10262 21062 38206 40107 57026 84100 92035 333 30/// 56600 58014 84830 82930;","Q01  00002PRCP06"
"76373099999","2004-05-07T00:00:00","4","25.35","-105.75","1967.0","TEPEHUANES DGO., MX","FM-12","99999","V020","250,1,N,0040,1","22000,1,9,N","070000,1,N,1","+0272,1","-0045,1","10055,1","06,0000,9,1","24,0000,9,1",,,,,,,"04,99,1,04,1,01,1,00450,1,00,1,00,1","01,9",,"120,M,+0304,1","180,N,+0046,1","99999,9,08190,1","6,1,016,1,+002,1",,"SYN124AAXX  07001 76373 32488 42504 10272 21045 38190 40055 56016 84100 92335 333 10304 20046 30/// 50900 56600 58002 70000 84830;","Q01  00002PRCP06"
"76373099999","2004-05-07T12:00:00","4","25.35","-105.75","1967.0","TEPEHUANES DGO., MX","FM-12","99999","V020","999,9,C,0000,1","22000,1,9,N","003000,1,N,1","+0070,1","-0021,1","10160,1","06,0000,9,1","24,0000,9,1",,,,"00,1,+99999,9,99,9",,,"00,99,1,00,1,00,1,99999,9,00,1,00,1","01,9","999,+0030,9","999,M,+0304,1","120,N,+0066,1","99999,9,08226,1","9,9,999,9,-017,1",,"SYN100AAXX  07121 76373 32930 00000 10070 21021 38226 40160 5//// 91140 333 10304 20066 30003 59017 70000;","Q01  00002PRCP06Q02  00002PRCP24"
"76373099999","2004-05-07T15:00:00","4","25.35","-105.75","1967.0","TEPEHUANES DGO., MX","FM-12","99999","V020","360,1,N,0010,1","22000,1,9,N","070000,1,N,1","+0158,1","-0004,1","10178,1","06,0000,9,1",,,,,"00,1,+99999,9,99,9",,,"00,99,1,00,1,00,1,99999,9,00,1,00,1","01,9",,,,"99999,9,08234,1","0,1,008,1,-009,1",,"SYN082AAXX  07151 76373 32988 03601 10158 21004 38234 40178 50008 91445 333 30/// 59009;","Q01  00002PRCP06"
"76373099999","2004-05-07T18:00:00","4","25.35","-105.75","1967.0","TEPEHUANES DGO., MX","FM-12","99999","V020","090,1,N,0020,1","22000,1,9,N","070000,1,N,1","+0250,1","-0010,1","10151,1","06,0000,9,1",,,,,"02,1,+00300,9,08,9",,,"02,99,1,02,1,01,1,00450,1,00,1,00,1","01,9",,"120,M,+0278,1","240,N,+0056,1","99999,9,08221,1","6,1,013,1,-011,1",,"SYN112AAXX  07181 76373 32488 20902 10250 21010 38221 40151 56013 82100 91735 333 10278 20056 30/// 56600 59011 82810;","Q01  00002PRCP06"
"76373099999","2004-05-07T21:00:00","4","25.35","-105.75","1967.0","TEPEHUANES DGO., MX","FM-12","99999","V020","160,1,N,0040,1","22000,1,9,N","070000,1,N,1","+0282,1","-0069,1","10094,1","06,0000,9,1",,,,,"03,1,+00900,9,08,9",,,"03,99,1,03,1,01,1,00450,1,00,1,00,1","01,9",,,,"99999,9,08199,1","6,1,012,1,-007,1",,"SYN100AAXX  07211 76373 32488 31604 10282 21069 38199 40094 56012 83100 92035 333 30/// 56600 59007 83830;","Q01  00002PRCP06"
"76373099999","2004-05-08T00:00:00","4","25.35","-105.75","1967.0","TEPEHUANES DGO., MX","FM-12","99999","V020","260,1,N,0030,1","99999,9,9,N","070000,1,N,1","+0292,1","-0075,1","10033,2","06,0000,9,1","24,0000,9,1",,,,"04,1,+00900,9,09,9",,,"07,99,1,04,1,03,1,00450,1,00,1,00,1","01,9",,"120,M,+0325,1","180,N,+0056,1","99999,9,08179,1","5,1,020,1,-011,1",,"SYN130AAXX  08001 76373 32488 72603 10292 21075 38179 40033 55020 84300 92330 333 10325 20056 30/// 50990 56600 59011 70000 84930 83830;","Q01+100333APOSLPQ02  00002PRCP06"
"76373099999","2004-05-08T15:00:00","4","25.35","-105.75","1967.0","TEPEHUANES DGO., MX","FM-12","99999","V020","360,1,N,0010,1","22000,1,9,N","070000,1,N,1","+0160,1","+0015,1","10152,1","06,0000,9,1",,,,,"00,1,+99999,9,99,9",,,"00,99,1,00,1,00,1,99999,9,00,1,00,1","01,9",,,,"99999,9,08226,1","9,9,999,9,-008,1",,"SYN082AAXX  08151 76373 32988 03601 10160 20015 38226 40152 5//// 91435 333 30/// 59008;","Q01  00002PRCP06"
"76373099999","2004-05-08T21:00:00","4","25.35","-105.75","1967.0","TEPEHUANES DGO., MX","FM-12","99999","V020","190,1,N,0030,1","00900,1,9,N","070000,1,N,1","+0288,1","-0037,1","10075,1","06,0000,9,1",,,,,"06,1,+00900,9,08,9",,,"08,99,1,06,1,01,1,00450,1,00,1,02,1","01,9",,,,"99999,9,08191,1","6,1,022,1,-008,1",,"SYN106AAXX  08211 76373 32488 81903 10288 21037 38191 40075 56022 86102 92035 333 30/// 56606 59008 86830 82090;","Q01  00002PRCP06"
"76373099999","2004-05-09T00:00:00","4","25.35","-105.75","1967.0","TEPEHUANES DGO., MX","FM-12","99999","V020","110,1,N,0020,1","09000,1,9,N","070000,1,N,1","+0298,1","-0037,1","10017,1","06,0000,9,1","24,0000,9,1",,,,"04,1,+00900,9,09,9",,,"07,99,1,04,1,03,1,00450,1,00,1,05,1","01,9",,"120,M,+0322,1","180,N,+0078,1","99999,9,08169,1","6,1,022,1,+999,9",,"SYN124AAXX  09001 76373 32488 71102 10298 21037 38169 40017 56022 84305 92338 333 10322 20078 30/// 50810 56606 70000 84930 83090;","Q01  00002PRCP06"
"76373099999","2004-05-10T00:00:00","4","25.35","-105.75","1967.0","TEPEHUANES DGO., MX","FM-12","99999","V020","150,1,N,0060,1","00600,1,9,N","070000,1,N,1","+0268,1","-0007,1","10017,1","06,0000,9,1","24,0000,9,1",,,,"05,1,+00600,9,09,9",,,"06,99,1,05,1,03,1,00250,1,03,1,00,1","01,9",,"120,M,+0312,1","180,N,+0102,1","99999,9,08160,1","6,1,003,1,+000,1",,"SYN124AAXX  10001 76373 32388 61506 10268 21007 38160 40017 56003 85330 92355 333 10312 20102 30/// 50770 58000 70000 85920 81360;","Q01  00002PRCP06"
"76373099999","2004-05-10T15:00:00","4","25.35","-105.75","1967.0","TEPEHUANES DGO., MX","FM-12","99999","V020","999,9,C,0000,1","22000,1,9,N","070000,1,N,1","+0142,1","+0060,1","10149,1","06,0000,9,1",,,,,"03,1,+00025,9,00,9",,,"03,99,1,00,1,00,1,99999,9,00,1,02,1","01,9",,,,"99999,9,08212,1","2,1,021,1,+012,1",,"SYN100AAXX  10151 76373 32988 30000 10142 20060 38212 40149 52021 80002 91435 333 30/// 56006 58012 83090;","Q01  00002PRCP06"
"76373099999","2004-05-10T18:00:00","4","25.35","-105.75","1967.0","TEPEHUANES DGO., MX","FM-12","99999","V020","070,1,N,0030,1","22000,1,9,N","070000,1,N,1","+0240,1","+0054,1","10100,1","06,0000,9,1",,,,,"01,1,+00330,9,08,9",,,"02,99,1,01,1,01,1,00450,1,00,1,02,1","01,9",,"120,M,+0260,1","240,N,+0090,1","99999,9,08187,1","6,1,016,1,-002,1",,"SYN119AAXX  10181 76373 32488 20703 10240 20054 38187 40100 56016 81102 91745 333 10260 20090 30/// 56606 59002 818110 81070;","Q01  00002PRCP06"
"76373099999","2004-05-10T21:00:00","4","25.35","-105.75","1967.0","TEPEHUANES DGO., MX","FM-12","99999","V020","230,1,N,0060,1","22000,1,9,N","070000,1,N,1","+0300,1","-0033,1","10045,1","06,0000,9,1",,,,,"01,1,+00900,9,00,9",,,"01,99,1,01,1,01,1,00450,1,00,1,00,1","01,9",,,,"99999,9,08162,1","6,1,025,1,-002,1",,"SYN100AAXX  10211 76373 32488 12306 10300 21033 38162 40045 56025 81100 92040 333 30/// 56600 59002 81030;","Q01  00002PRCP06"
"76373099999","2004-05-11T00:00:00","4","25.35","-105.75","1967.0","TEPEHUANES DGO., MX","FM-12","99999","V020","350,1,N,0060,1","22000,1,9,N","070000,1,N,1","+0276,1","-0079,1","09989,1","06,0000,9,1","24,0000,9,1",,,,"00,1,+99999,9,99,9",,,"00,99,1,00,1,00,1,99999,9,00,1,00,1","01,9",,"120,M,+0322,1","180,N,+0090,1","99999,9,08143,1","6,1,019,1,-024,1",,"SYN106AAXX  11001 76373 32988 03506 10276 21079 38143 49989 56019 92340 333 10322 20090 30/// 50640 59024 70000;","Q01  00002PRCP06Q02  00002PRCP24"
"76373099999","2004-05-13T15:00:00","4","25.35","-105.75","1967.0","TEPEHUANES DGO., MX","FM-12","99999","V020","320,1,N,0020,1","22000,1,9,N","070000,1,N,1","+0146,1","-0035,1","10155,1","06,0000,9,1",,,,,"00,1,+99999,9,99,9",,,"00,99,1,00,1,00,1,99999,9,00,1,00,1","01,9",,,,"99999,9,08205,1","1,1,011,1,+002,1",,"SYN082AAXX  13151 76373 32988 03202 10146 21035 38205 40155 51011 91435 333 30/// 58002;","Q01  00002PRCP06"
"76373099999","2004-05-18T18:00:00","4","25.35","-105.75","1967.0","TEPEHUANES DGO., MX","FM-12","99999","V020","140,1,N,0020,1","22000,1,9,N","070000,1,N,1","+0276,1","+0057,1","10137,1","06,0000,9,1",,,,,"00,1,+99999,9,99,9",,,"00,99,1,00,1,00,1,99999,9,00,1,00,1","01,9",,"120,M,+0294,1","240,N,+0080,1","99999,9,08222,1","8,1,009,1,+004,1",,"SYN094AAXX  18181 76373 32988 01402 10276 20057 38222 40137 58009 91736 333 10294 20080 30/// 58004;","Q01  00002PRCP06"
"76373099999","2004-05-18T21:00:00","4","25.35","-105.75","1967.0","TEPEHUANES DGO., MX","FM-12","99999","V020","110,1,N,0030,1","22000,1,9,N","070000,1,N,1","+0312,1","-0105,2","10079,1","06,0000,9,1",,,,,"01,1,+00900,9,08,9",,,"01,99,1,01,1,01,1,00450,1,00,1,00,1","01,9",,,,"99999,9,08198,1","7,1,034,1,+004,1",,"SYN100AAXX  18211 76373 32488 11103 10312 21105 38198 40079 57034 81100 92035 333 30/// 56600 58004 81830;","Q01-001053ATOD  Q02  00002PRCP06"
"76373099999","2004-05-19T00:00:00","4","25.35","-105.75","1967.0","TEPEHUANES DGO., MX","FM-12","99999","V020","130,1,N,0030,1","22000,1,9,N","070000,1,N,1","+0314,1","-0052,1","10013,2","06,0000,9,1","24,0000,9,1",,,,,,,"01,99,1,01,1,02,1,00250,1,00,1,00,1","01,9",,"120,M,+0342,1","180,N,+0080,1","99999,9,08175,1","6,1,023,1,-012,1",,"SYN124AAXX  19001 76373 32388 11303 10314 21052 38175 40013 56023 81200 92340 333 10342 20080 30/// 50860 56600 59012 70000 81820;","Q01+100133APOSLPQ02  00002PRCP06"
"76373099999","2004-05-20T21:00:00","4","25.35","-105.75","1967.0","TEPEHUANES DGO., MX","FM-12","99999","V020","180,1,N,0030,1","99999,9,9,N","070000,1,N,1","+0328,1","+0011,1","10051,1","06,0000,9,1",,,,,"03,1,+00900,9,09,9",,,"05,99,1,03,1,03,1,00450,1,00,1,00,1","01,9",,,,"99999,9,08189,1","6,1,025,1,+001,1",,"SYN106AAXX  20211 76373 32488 51803 10328 20011 38189 40051 56025 83300 92034 333 30/// 56600 58001 83930 82830;","Q01  00002PRCP06"
"76373099999","2004-05-22T21:00:00","4","25.35","-105.75","1967.0","TEPEHUANES DGO., MX","FM-12","99999","V020","300,1,N,0060,1","09000,1,9,N","070000,1,N,1","+0332,1","-0040,1","10024,1","06,0000,9,1",,,,,"06,1,+09000,9,00,9",,,"06,99,1,00,1,00,1,99999,9,00,1,04,1","01,9",,,,"99999,9,08171,1","6,1,032,1,-015,1",,"SYN100AAXX  22211 76373 32988 63006 10332 21040 38171 40024 56032 80004 92045 333 30/// 56002 59015 86080;","Q01  00002PRCP06"
"76373099999","2004-05-23T00:00:00","4","25.35","-105.75","1967.0","TEPEHUANES DGO., MX","FM-12","99999","V020","270,1,N,0060,1","22000,1,9,N","070000,1,N,1","+0300,1","-0017,1","09999,1","06,0000,9,1","24,0000,9,1",,,,"00,1,+99999,9,99,9",,,"00,99,1,00,1,00,1,99999,9,00,1,00,1","01,9",,"120,M,+0344,1","180,N,+0112,1","99999,9,08171,1","4,1,000,1,+000,1",,"SYN106AAXX  23001 76373 32988 02706 10300 21017 38171 49999 54000 92345 333 10344 20112 30/// 50120 59000 70000;","Q01  00002PRCP06Q02  00002PRCP24"
"76373099999","2004-05-24T12:00:00","4","25.35","-105.75","1967.0","TEPEHUANES DGO., MX","FM-12","99999","V020","250,1,N,0020,1","22000,1,9,N","070000,1,N,1","+0112,1","+0070,1","10073,1","06,0000,9,1","24,0000,9,1",,,,"00,1,+99999,9,99,9",,,"00,99,1,00,1,00,1,99999,9,00,1,00,1","01,9","999,+0110,9","999,M,+0352,1","120,N,+9999,9","99999,9,08201,1",,,"SYN100AAXX  24121 76373 32988 02502 10112 20070 38201 40073 5//// 91140 333 10352 20160 30011 58/// 70000;","Q01  00002PRCP06Q02  00002PRCP24Q03 +01602ATMN  "
"76373099999","2004-05-24T15:00:00","4","25.35","-105.75","1967.0","TEPEHUANES DGO., MX","FM-12","99999","V020","999,9,C,0000,1","22000,1,9,N","070000,1,N,1","+0208,1","+0087,1","10098,1","06,0000,9,1",,,,,"02,1,+00025,9,01,9",,,"02,99,1,00,1,00,1,99999,9,00,1,09,1","01,9",,,,"99999,9,08210,1","6,1,009,1,-001,1",,"SYN100AAXX  24151 76373 32988 20000 10208 20087 38210 40098 56009 82009 91433 333 30/// 56006 59001 82190;","Q01+000022SCOTLCQ02  00002PRCP06"
"76373099999","2004-05-25T12:00:00","4","25.35","-105.75","1967.0","TEPEHUANES DGO., MX","FM-12","99999","V020","300,1,N,0010,1","22000,1,9,N","030000,1,N,1","+0134,1","+0120,1","10105,1","12,0030,9,1","24,0033,9,1",,,,"00,1,+99999,9,99,9",,,"00,99,1,00,1,00,1,99999,9,00,1,00,1","01,9","999,+0110,9","999,M,+0373,1","120,N,+0124,1","99999,9,08197,1",,,"SYN112AAXX  25121 76373 02080 03001 10134 20120 38197 40105 5//// 60032 91135 333 10373 20124 30011 58/// 60032 70032;",
"76373099999","2004-05-25T21:00:00","4","25.35","-105.75","1967.0","TEPEHUANES DGO., MX","FM-12","99999","V020","290,1,N,0050,1","22000,1,9,N","070000,1,N,1","+0326,1","+0071,1","10036,1","06,0000,9,1",,,,,"03,1,+00900,9,09,9",,,"04,99,1,03,1,03,1,00450,1,00,1,00,1","01,9",,,,"99999,9,08174,1","7,1,024,1,+009,1",,"SYN106AAXX  25211 76373 32488 42905 10326 20071 38174 40036 57024 83300 92035 333 30/// 56600 58009 83930 81830;","Q01  00002PRCP06"
"76373099999","2004-05-26T00:00:00","4","25.35","-105.75","1967.0","TEPEHUANES DGO., MX","FM-12","99999","V020","280,1,N,0060,1","22000,1,9,N","070000,1,N,1","+0308,1","+0086,1","09996,1","06,0000,9,1","24,0032,9,1",,,,"03,1,+00600,9,08,9",,,"04,99,1,03,1,02,1,00250,1,03,1,00,1","01,9",,"120,M,+0352,1","180,N,+0124,1","99999,9,08165,1","6,1,009,1,+999,9",,"SYN130AAXX  26001 76373 32388 42806 10308 20086 38165 49996 56009 83230 92355 333 10352 20124 30/// 50500 56660 58/// 70032 83820 81360;","Q01  00002PRCP06"
"76373099999","2004-05-26T18:00:00","4","25.35","-105.75","1967.0","TEPEHUANES DGO., MX","FM-12","99999","V020","060,1,N,0010,1","22000,1,9,N","070000,1,N,1","+0298,1","+0082,1","10066,1","06,0000,9,1",,,,,"02,1,+00300,9,08,9",,,"02,99,1,02,1,01,1,00450,1,00,1,00,1","01,9",,"120,M,+0320,1","240,N,+0124,1","99999,9,08194,1","6,1,013,1,-004,1",,"SYN112AAXX  26181 76373 32488 20601 10298 20082 38194 40066 56013 82100 91740 333 10320 20124 30/// 56600 59004 82810;","Q01  00002PRCP06"
"76373099999","2004-05-28T15:00:00","4","25.35","-105.75","1967.0","TEPEHUANES DGO., MX","FM-12","99999","V020","999,9,C,0000,1","22000,1,9,N","070000,1,N,1","+0182,1","+0108,1","10128,1","06,0000,9,1",,,,,"00,1,+99999,9,99,9",,,"00,99,1,00,1,00,1,99999,9,00,1,00,1","01,9",,,,"99999,9,08219,1","1,1,012,1,+007,1",,"SYN082AAXX  28151 76373 32988 00000 10182 20108 38219 40128 51012 91435 333 30/// 58007;","Q01  00002PRCP06"
"76373099999","2004-05-29T18:00:00","4","25.35","-105.75","1967.0","TEPEHUANES DGO., MX","FM-12","99999","V020","270,1,N,0070,1","22000,1,9,N","070000,1,N,1","+0288,1","+0009,1","10045,1","06,0000,9,1",,,,,"02,1,+09000,9,00,9",,,"02,99,1,00,1,00,1,99999,9,00,1,04,1","01,9",,"120,M,+0308,1","240,N,+0112,1","99999,9,08190,1","6,1,017,1,-017,1",,"SYN112AAXX  29181 76373 32988 22707 10288 20009 38190 40045 56017 80004 91750 333 10308 20112 30/// 56002 59017 82080;","Q01  00002PRCP06"
"76373099999","2004-06-01T00:00:00","4","25.35","-105.75","1967.0","TEPEHUANES DGO., MX","FM-12","99999","V020","060,1,N,0020,1","22000,1,9,N","070000,1,N,1","+0322,1","-0010,1","10005,1","06,0000,9,1","24,0000,9,1",,,,,,,"03,99,1,03,1,03,1,00250,1,00,1,00,1","01,9",,"120,M,+0352,1","180,N,+0118,1","99999,9,08147,1","6,1,020,1,-013,1",,"SYN124AAXX  01001 76373 32388 30602 10322 21010 38147 40005 56020 83300 92355 333 10352 20118 30/// 50850 56600 59013 70000 83920;","Q01  00002PRCP06"
"76373099999","2004-06-03T12:00:00","4","25.35","-105.75","1967.0","TEPEHUANES DGO., MX","FM-12","99999","V020","280,1,N,0010,1","22000,1,9,N","030000,1,N,1","+0170,1","+0077,1","10058,1","06,0000,9,1","24,0000,9,1",,,,"00,1,+99999,9,99,9",,,"00,99,1,00,1,00,1,99999,9,00,1,00,1","01,9","999,+0140,9","999,M,+0350,1","120,N,+0162,1","99999,9,08203,1","9,9,999,9,+026,1",,"SYN100AAXX  03121 76373 32980 02801 10170 20077 38203 40058 5//// 91140 333 10350 20162 30014 58026 70000;","Q01  00002PRCP06Q02  00002PRCP24"
"76373099999","2004-06-03T15:00:00","4","25.35","-105.75","1967.0","TEPEHUANES DGO., MX","FM-12","99999","V020","110,1,N,0010,1","22000,1,9,N","070000,1,N,1","+0228,1","+0102,1","10083,1","06,0000,9,1",,,,,"02,1,+03000,9,03,9",,,"02,99,1,02,1,00,1,01250,1,03,1,00,1","01,9",,,,"99999,9,08211,1","2,1,008,1,+022,1",,"SYN100AAXX  03151 76373 32688 21101 10228 20102 38211 40083 52008 82030 91445 333 30/// 56060 58022 82360;","Q01  00002PRCP06"
"76373099999","2004-06-04T15:00:00","4","25.35","-105.75","1967.0","TEPEHUANES DGO., MX","FM-12","99999","V020","999,9,C,0000,1","00300,1,9,N","070000,1,N,1","+0188,1","+0140,1","10143,1","03,0040,9,1",,,,,"06,1,+00300,9,07,9",,,"08,99,1,06,1,06,1,00250,1,00,1,00,1","01,9",,,,"99999,9,08248,1","6,1,007,1,+037,1",,"SYN112AAXX  04151 76373 22388 80000 10188 20140 38248 40143 56007 86600 91435 333 30/// 56200 58037 60047 86710 82010;",
"76373099999","2004-06-06T00:00:00","4","25.35","-105.75","1967.0","TEPEHUANES DGO., MX","FM-12","99999","V020","150,1,N,0050,1","00600,1,C,N","070000,1,N,1","+0232,1","+0114,1","10038,1","24,0248,9,1",,,"5,1,06,1","6,1,06,1","05,1,+00600,9,09,9","02,1,+03000,9,03,9",,"08,99,1,99,9,03,1,00250,1,03,1,04,1","09,9",,"120,M,+0276,1","180,N,+0142,1","99999,9,08174,1","6,1,020,1,+999,9","21,1","SYN148AAXX  06001 76373 01388 81505 10232 20114 38174 40038 56020 72156 88334 92330 333 10276 20142 31/// 50670 56222 58/// 60254 70248 85920 82360 81080;","Q01+000082SCOTLC"
"76373099999","2004-06-07T18:00:00","4","25.35","-105.75","1967.0","TEPEHUANES DGO., MX","FM-12","99999","V020","999,9,C,0000,1","03600,1,C,N","070000,1,N,1","+0230,1","+0112,1","10071,1","06,0000,9,1",,,,,"02,1,+00300,9,09,9",,,"08,99,1,02,1,03,1,00250,1,04,1,00,1","09,9",,"120,M,+0242,1","240,N,+0126,1","99999,9,08179,1","7,1,005,1,-002,1",,"SYN118AAXX  07181 76373 32388 80000 10230 20112 38179 40071 57005 82340 91740 333 10242 20126 31/// 56220 59002 82910 86360;","Q01  00002PRCP06"
"76373099999","2004-06-07T21:00:00","4","25.35","-105.75","1967.0","TEPEHUANES DGO., MX","FM-12","99999","V020","300,1,N,0030,1","99999,9,9,N","070000,1,N,1","+0248,1","+9999,9","10033,1","03,9999,9,9",,,,,"04,1,+00300,9,07,9",,,"06,99,1,04,1,06,1,00450,1,00,1,00,1","09,9",,,,"99999,9,08157,1","6,1,022,1,+001,1",,"SYN112AAXX  07211 76373 22488 63003 10248 20274 38157 40033 56022 84600 92030 333 31/// 56200 58001 69907 84710 82910;","Q01  99992PRCP03"
"76373099999","2004-06-08T12:00:00","4","25.35","-105.75","1967.0","TEPEHUANES DGO., MX","FM-12","99999","V020","999,9,C,0000,1","00300,1,9,N","003000,1,N,1","+0142,1","+0135,1","10068,1","12,0100,9,2","24,0098,9,2",,"6,1,06,1","6,1,06,1","06,1,+00300,9,07,9",,,"06,99,1,06,1,06,1,00450,1,00,1,00,1","09,9","999,+0130,9","999,M,+0278,1","120,N,+0138,1","99999,9,08178,1","9,9,999,9,-007,1","01,1","SYN136AAXX  08121 76373 01430 60000 10142 20135 38178 40068 5//// 60102 70166 86600 91135 333 10278 20138 31013 56600 59007 60102 70098 86710;",
"76373099999","2004-06-08T15:00:00","4","25.35","-105.75","1967.0","TEPEHUANES DGO., MX","FM-12","99999","V020","999,9,C,0000,1","22000,1,9,N","070000,1,N,1","+0172,1","+0122,1","10089,1","06,0000,9,1",,,,,,,,"01,99,1,01,1,01,1,00450,1,00,1,00,1",,,,,"99999,9,08187,1","3,1,009,1,+003,1",,"SYN099AAXX  08151 76373 32488 10000 10172 20122 38187 40089 53009 81100 91435 333 0/// 56600 58003 81810;","Q01  00002PRCP06"
"76373099999","2004-06-08T18:00:00","4","25.35","-105.75","1967.0","TEPEHUANES DGO., MX","FM-12","99999","V020","060,1,N,0010,1","22000,1,9,N","070000,1,N,1","+0248,1","+0128,1","10070,1","06,0000,9,1",,,,,"02,1,+00300,9,09,9",,,"03,99,1,02,1,03,1,00250,1,00,1,00,1","09,9",,"120,M,+0266,1","240,N,+0132,1","99999,9,08178,1","7,1,009,1,-001,1",,"SYN118AAXX  08181 76373 32388 30601 10248 20128 38178 40070 57009 82300 91750 333 10266 20132 31/// 56600 59001 82910 81810;","Q01  00002PRCP06"
"76373099999","2004-06-08T21:00:00","4","25.35","-105.75","1967.0","TEPEHUANES DGO., MX","FM-12","99999","V020","270,1,N,0040,1","99999,9,9,N","070000,1,N,1","+0274,1","+0082,1","10040,1","06,0000,9,1",,,,,"04,1,+00300,9,09,9",,,"05,99,1,04,1,03,1,00250,1,00,1,00,1","01,9",,,,"99999,9,08168,1","7,1,010,1,+011,1",,"SYN106AAXX  08211 76373 32388 52704 10274 20082 38168 40040 57010 84300 92030 333 30/// 56600 58011 84910 81810;","Q01  00002PRCP06"
"76373099999","2004-06-09T12:00:00","4","25.35","-105.75","1967.0","TEPEHUANES DGO., MX","FM-12","99999","V020","300,1,N,0010,1","22000,1,9,N","030000,1,N,1","+0128,1","+0114,1","10102,1","06,0000,9,1","24,0000,9,1",,,,"00,1,+99999,9,99,9",,,"00,99,1,00,1,00,1,99999,9,00,1,00,1","01,9","999,+0100,9","999,M,+0298,1","120,N,+0118,1","99999,9,08204,1","9,9,999,9,+026,1",,"SYN100AAXX  09121 76373 32980 03001 10128 20114 38204 40102 5//// 91130 333 10298 20118 30010 58026 70000;","Q01  00002PRCP06Q02  00002PRCP24"
"76373099999","2004-06-09T18:00:00","4","25.35","-105.75","1967.0","TEPEHUANES DGO., MX","FM-12","99999","V020","060,1,N,0030,1","22000,1,9,N","070000,1,N,1","+0260,1","+0100,1","10102,1","06,0000,9,1",,,,,"01,1,+00300,9,08,9",,,"01,99,1,01,1,01,1,00250,1,00,1,00,1","01,9",,"120,M,+0272,1","240,N,+0112,1","99999,9,08202,1","6,1,011,1,+024,1",,"SYN112AAXX  09181 76373 32388 10603 10260 20100 38202 40102 56011 81100 91740 333 10272 20112 30/// 56600 58024 81810;","Q01  00002PRCP06"
"76373099999","2004-06-10T00:00:00","4","25.35","-105.75","1967.0","TEPEHUANES DGO., MX","FM-12","99999","V020","320,1,N,0060,1","22000,1,9,N","070000,1,N,1","+0292,1","+0016,1","10011,1","06,0000,9,1","24,0000,9,1",,,,,,,"01,99,1,01,1,01,1,00250,1,00,1,06,1","01,9",,"120,M,+0318,1","180,N,+0112,1","99999,9,08169,1","6,1,012,1,+005,1",,"SYN124AAXX  10001 76373 32388 13206 10292 20016 38169 40011 56012 81106 92340 333 10318 20112 30/// 50760 56603 58005 70000 81820;","Q01  00002PRCP06"
"76373099999","2004-06-10T12:00:00","4","25.35","-105.75","1967.0","TEPEHUANES DGO., MX","FM-12","99999","V020","280,1,N,0010,1","22000,1,9,N","030000,1,N,1","+0126,1","+0095,1","10088,1","06,0000,9,1","24,0000,9,1",,,,"00,1,+99999,9,99,9",,,"00,99,1,00,1,00,1,99999,9,00,1,00,1","01,9","999,+0090,9","999,M,+0318,1","120,N,+0112,1","99999,9,08198,1","9,9,999,9,-006,1",,"SYN100AAXX  10121 76373 32980 02801 10126 20095 38198 40088 5//// 91140 333 10318 20112 30009 59006 70000;","Q01  00002PRCP06Q02  00002PRCP24"
"76373099999","2004-06-10T15:00:00","4","25.35","-105.75","1967.0","TEPEHUANES DGO., MX","FM-12","99999","V020","330,1,N,0010,1","22000,1,9,N","070000,1,N,1","+0180,1","+0106,1","10117,1","06,0000,9,1",,,,,"00,1,+99999,9,99,9",,,"00,99,1,00,1,00,1,99999,9,00,1,00,1","01,9",,,,"99999,9,08209,1","1,1,011,1,+004,1",,"SYN082AAXX  10151 76373 32988 03301 10180 20106 38209 40117 51011 91438 333 30/// 58004;","Q01  00002PRCP06"
"76373099999","2004-06-10T18:00:00","4","25.35","-105.75","1967.0","TEPEHUANES DGO., MX","FM-12","99999","V020","090,1,N,0020,1","22000,1,9,N","070000,1,N,1","+0266,1","+0070,1","10092,1","06,0000,9,1",,,,,"02,1,+00300,9,09,9",,,"03,99,1,02,1,03,1,00150,1,00,1,00,1","01,9",,"120,M,+0284,1","240,N,+0110,1","99999,9,08195,1","6,1,014,1,-007,1",,"SYN112AAXX  10181 76373 32288 30902 10266 20070 38195 40092 56014 82300 91740 333 10284 20110 30/// 56200 59007 82910;","Q01  00002PRCP06"
"76373099999","2004-06-10T21:00:00","4","25.35","-105.75","1967.0","TEPEHUANES DGO., MX","FM-12","99999","V020","060,1,N,0010,1","99999,9,9,N","070000,1,N,1","+0314,1","+0054,1","10039,1","06,0000,9,1",,,,,"03,1,+00300,9,09,9",,,"05,99,1,03,1,03,1,00250,1,00,1,00,1","01,9",,,,"99999,9,08171,1","7,1,024,1,-010,1",,"SYN106AAXX  10211 76373 32388 50601 10314 20054 38171 40039 57024 83300 92035 333 30/// 56200 59010 83910 82810;","Q01  00002PRCP06"
"76373099999","2004-06-11T00:00:00","4","25.35","-105.75","1967.0","TEPEHUANES DGO., MX","FM-12","99999","V020","290,1,N,0040,1","22000,1,9,N","030000,1,N,1","+0302,1","+0083,1","09991,1","06,0000,9,1","24,0000,9,1",,,,"02,1,+00300,9,09,9",,,"03,99,1,02,1,03,1,00250,1,00,1,00,1","01,9",,"120,M,+0338,1","180,N,+0110,1","99999,9,08157,1","7,1,014,1,-012,1",,"SYN130AAXX  11001 76373 32380 32904 10302 20083 38157 49991 57014 82300 92330 333 10338 20110 30/// 50830 56200 59012 70000 82910 81810;","Q01  00002PRCP06"
"76373099999","2004-06-11T12:00:00","4","25.35","-105.75","1967.0","TEPEHUANES DGO., MX","FM-12","99999","V020","999,9,C,0000,1","22000,1,9,N","030000,1,N,1","+0142,1","+0110,1","10074,1","06,0000,9,1","24,0000,9,1",,,,"00,1,+99999,9,99,9",,,"00,99,1,00,1,00,1,99999,9,00,1,00,1","01,9","999,+0100,9","999,M,+0338,1","120,N,+0130,1","99999,9,08190,1","9,9,999,9,-008,1",,"SYN100AAXX  11121 76373 32980 00000 10142 20110 38190 40074 5//// 91135 333 10338 20130 30010 59008 70000;","Q01  00002PRCP06Q02  00002PRCP24"
"76373099999","2004-06-11T15:00:00","4","25.35","-105.75","1967.0","TEPEHUANES DGO., MX","FM-12","99999","V020","999,9,C,0000,1","22000,1,9,N","070000,1,N,1","+0186,1","+0109,1","10107,1","06,0000,9,1",,,,,"01,1,+00900,9,08,9",,,"01,99,1,01,1,01,1,00450,1,00,1,00,1","01,9",,,,"99999,9,08205,1","6,1,015,1,-004,1",,"SYN100AAXX  11151 76373 32488 10000 10186 20109 38205 40107 56015 81100 91533 333 30/// 56600 59004 81830;","Q01  00002PRCP06"
"76373099999","2004-06-11T18:00:00","4","25.35","-105.75","1967.0","TEPEHUANES DGO., MX","FM-12","99999","V020","120,1,N,0010,1","22000,1,9,N","070000,1,N,1","+0274,1","+0115,1","10102,1","06,0000,9,1",,,,,"01,1,+00300,9,08,9",,,"01,99,1,01,1,01,1,00250,1,00,1,00,1","01,9",,"120,M,+0298,1","240,N,+0128,1","99999,9,08196,1","7,1,009,1,+001,1",,"SYN112AAXX  11181 76373 32388 11201 10274 20115 38196 40102 57009 81100 91745 333 10298 20128 30/// 56200 58001 81810;","Q01  00002PRCP06"
"76373099999","2004-06-11T21:00:00","4","25.35","-105.75","1967.0","TEPEHUANES DGO., MX","FM-12","99999","V020","120,1,N,0030,1","22000,1,9,N","070000,1,N,1","+0312,1","+0050,1","10031,2","06,0000,9,1",,,,,"02,1,+00300,9,09,9",,,"03,99,1,02,1,03,1,00450,1,00,1,00,1","01,9",,,,"99999,9,08170,1","7,1,026,1,-001,1",,"SYN106AAXX  11211 76373 32488 31203 10312 20050 38170 40031 57026 82300 92040 333 30/// 56200 59001 82910 81810;","Q01+100313APOSLPQ02  00002PRCP06"
"76373099999","2004-06-12T00:00:00","4","25.35","-105.75","1967.0","TEPEHUANES DGO., MX","FM-12","99999","V020","250,1,N,0060,1","99999,9,9,N","070000,1,N,1","+0216,1","+0156,1","10000,1","01,0020,9,1",,,"9,1,06,1","9,1,06,1",,,,"06,99,1,99,9,99,9,00450,1,99,9,99,9",,,,,"99999,9,08164,1","5,1,006,1,+999,9","51,1","SYN072AAXX  12001 76373 01488 62506 10216 20156 38164 40000 55006 60025 75199;",
"76373099999","2004-06-12T21:00:00","4","25.35","-105.75","1967.0","TEPEHUANES DGO., MX","FM-12","99999","V020","300,1,N,0020,1","22000,1,9,N","070000,1,N,1","+0326,1","+0066,1","10028,1","06,0000,9,1",,,,,"04,1,+00600,9,08,9",,,"04,99,1,04,1,02,1,00250,1,00,1,00,1","01,9",,,,"99999,9,08177,1","6,1,002,1,+007,1",,"SYN100AAXX  12211 76373 32388 43002 10326 20066 38177 40028 56002 84200 92050 333 30/// 56600 58007 84820;","Q01  00002PRCP06"
"76373099999","2004-06-13T00:00:00","4","25.35","-105.75","1967.0","TEPEHUANES DGO., MX","FM-12","99999","V020","240,1,N,0070,1","00210,1,9,N","070000,1,N,1","+0322,1","+0066,1","10002,1","06,0000,9,1","24,0000,9,1",,,,,,,"06,99,1,06,1,03,1,00250,1,00,1,00,1","01,9",,"120,M,+0358,1","180,N,+0142,1","99999,9,08163,1","6,1,014,1,-014,1",,"SYN124AAXX  13001 76373 32388 62407 10322 20066 38163 40002 56014 86300 92340 333 10358 20142 30/// 50500 56600 59014 70000 86820;","Q01  00002PRCP06"
"76373099999","2004-06-13T18:00:00","4","25.35","-105.75","1967.0","TEPEHUANES DGO., MX","FM-12","99999","V020","360,1,N,0010,1","22000,1,9,N","070000,1,N,1","+0294,1","+0198,1","10106,1","06,0000,9,1",,,,,"00,1,+99999,9,99,9",,,"00,99,1,00,1,00,1,99999,9,00,1,00,1","01,9",,"120,M,+0312,1","240,N,+0124,1","99999,9,08219,1","6,1,010,1,+022,1",,"SYN094AAXX  13181 76373 32988 03601 10294 20198 38219 40106 56010 91745 333 10312 20124 30/// 58022;","Q01  00002PRCP06"
"76373099999","2004-06-14T00:00:00","4","25.35","-105.75","1967.0","TEPEHUANES DGO., MX","FM-12","99999","V020","130,1,N,0040,1","22000,1,9,N","070000,1,N,1","+0334,1","+0042,1","10001,1","06,0000,9,1","24,9999,9,9",,,,,,,"02,99,1,02,1,02,1,00250,1,00,1,00,1","01,9",,"180,N,+0124,1",,"99999,9,08175,1","6,1,013,1,+012,1",,"SYN122AAXX  14001 76373 32388 21304 10334 20042 38175 40001 56013 82200 92330 333 358 20124 30/// 51020 56600 58012 79999 82820;","Q01  00002PRCP06Q02  99992PRCP24"
"76373099999","2004-06-14T12:00:00","4","25.35","-105.75","1967.0","TEPEHUANES DGO., MX","FM-12","99999","V020","999,9,C,0000,1","22000,1,9,N","030000,1,N,1","+0126,1","+0054,1","10093,1","06,0000,9,1","24,0000,9,1",,,,"00,1,+99999,9,99,9",,,"00,99,1,00,1,00,1,99999,9,00,1,00,1","01,9","999,+0080,9","999,M,+0358,1","120,N,+0116,1","99999,9,08210,1","9,9,999,9,-008,1",,"SYN100AAXX  14121 76373 32980 00000 10126 20054 38210 40093 5//// 91140 333 10358 20116 30008 59008 70000;","Q01  00002PRCP06Q02  00002PRCP24"
"76373099999","2004-06-14T15:00:00","4","25.35","-105.75","1967.0","TEPEHUANES DGO., MX","FM-12","99999","V020","999,9,C,0000,1","22000,1,9,N","070000,1,N,1","+0184,1","+0055,1","10123,1","06,0000,9,1",,,,,"00,1,+99999,9,99,9",,,"00,99,1,00,1,00,1,99999,9,00,1,00,1","01,9",,,,"99999,9,08217,1","0,1,005,1,-012,1",,"SYN082AAXX  14151 76373 32988 00000 10184 20055 38217 40123 50005 91435 333 30/// 59012;","Q01  00002PRCP06"
"76373099999","2004-06-14T18:00:00","4","25.35","-105.75","1967.0","TEPEHUANES DGO., MX","FM-12","99999","V020","120,1,N,0010,1","22000,1,9,N","070000,1,N,1","+0290,1","+0014,1","10100,1","06,0000,9,1",,,,,"00,1,+99999,9,99,9",,,"00,99,1,00,1,00,1,99999,9,00,1,00,1","01,9",,"120,M,+0316,1","240,N,+0114,1","99999,9,08206,1","6,1,011,1,-013,1",,"SYN094AAXX  14181 76373 32988 01201 10290 20014 38206 40100 56011 91740 333 10316 20114 30/// 59013;","Q01  00002PRCP06"
"76373099999","2004-06-14T21:00:00","4","25.35","-105.75","1967.0","TEPEHUANES DGO., MX","FM-12","99999","V020","110,1,N,0030,1","22000,1,9,N","070000,1,N,1","+0326,1","-0001,1","10043,1","06,0000,9,1",,,,,"02,1,+00300,9,09,9",,,"02,99,1,02,1,03,1,00450,1,00,1,00,1","01,9",,,,"99999,9,08181,1","7,1,015,1,-007,1",,"SYN100AAXX  14211 76373 32488 21103 10326 21001 38181 40043 57015 82300 92040 333 30/// 56200 59007 82910;","Q01  00002PRCP06"
"76373099999","2004-06-15T00:00:00","4","25.35","-105.75","1967.0","TEPEHUANES DGO., MX","FM-12","99999","V020","240,1,N,0030,1","22000,1,9,N","070000,1,N,1","+0292,1","+0104,1","09998,1","06,0000,9,1","24,0000,9,1",,,,"02,1,+00600,9,09,9",,,"04,99,1,02,1,03,1,00450,1,03,1,00,1","01,9",,"120,M,+0362,1","180,N,+0114,1","99999,9,08169,1","5,1,012,1,-006,1",,"SYN130AAXX  15001 76373 32488 42403 10292 20104 38169 49998 55012 82330 92350 333 10362 20114 30/// 50970 56660 59006 70000 82920 82360;","Q01  00002PRCP06"
"76373099999","2004-06-15T12:00:00","4","25.35","-105.75","1967.0","TEPEHUANES DGO., MX","FM-12","99999","V020","290,1,N,0020,1","22000,1,9,N","030000,1,N,1","+0136,1","+0096,1","10066,1","06,0000,9,1","24,0000,9,1",,,,"00,1,+99999,9,99,9",,,"00,99,1,00,1,00,1,99999,9,00,1,00,1","01,9","999,+0100,9","999,M,+0362,1","120,N,+0132,1","99999,9,08191,1","9,9,999,9,-021,1",,"SYN100AAXX  15121 76373 32980 02902 10136 20096 38191 40066 5//// 91135 333 10362 20132 30010 59021 70000;","Q01  00002PRCP06Q02  00002PRCP24"
"76373099999","2004-06-15T15:00:00","4","25.35","-105.75","1967.0","TEPEHUANES DGO., MX","FM-12","99999","V020","999,9,C,0000,1","22000,1,9,N","070000,1,N,1","+0206,1","+0104,1","10096,1","06,0000,9,1",,,,,"00,1,+99999,9,99,9",,,"00,99,1,00,1,00,1,99999,9,00,1,00,1","01,9",,,,"99999,9,08201,1","1,1,010,1,-006,1",,"SYN082AAXX  15151 76373 32988 00000 10206 20104 38201 40096 51010 91435 333 30/// 59006;","Q01  00002PRCP06"
"76373099999","2004-06-15T18:00:00","4","25.35","-105.75","1967.0","TEPEHUANES DGO., MX","FM-12","99999","V020","060,1,N,0010,1","22000,1,9,N","070000,1,N,1","+0290,1","+0084,1","10062,1","06,0000,9,1",,,,,"03,1,+00300,9,08,9",,,"03,99,1,03,1,03,1,00450,1,00,1,00,1","01,9",,"120,M,+0312,1","240,N,+0130,1","99999,9,08189,1","6,1,012,1,-011,1",,"SYN112AAXX  15181 76373 32488 30601 10290 20084 38189 40062 56012 83300 91740 333 10312 20130 30/// 56600 59011 83810;","Q01  00002PRCP06"
"76373099999","2004-06-15T21:00:00","4","25.35","-105.75","1967.0","TEPEHUANES DGO., MX","FM-12","99999","V020","100,1,N,0020,1","22000,1,9,N","070000,1,N,1","+0330,1","+0008,1","10021,1","06,0000,9,1",,,,,"04,1,+00300,9,09,9",,,"04,99,1,04,1,03,1,00450,1,00,1,00,1","01,9",,,,"99999,9,08167,1","6,1,022,1,-002,1",,"SYN100AAXX  15211 76373 32488 41002 10330 20008 38167 40021 56022 84300 92030 333 30/// 56600 59002 84910;","Q01  00002PRCP06"
"76373099999","2004-06-16T00:00:00","4","25.35","-105.75","1967.0","TEPEHUANES DGO., MX","FM-12","99999","V020","300,1,N,0010,1","03600,1,9,N","070000,1,N,1","+0270,1","+0098,1","10000,1","06,0000,9,1","24,0000,9,1",,,,"02,1,+00600,9,09,9",,,"08,99,1,02,1,03,1,00250,1,02,1,00,1","01,9",,"120,M,+0358,1","180,N,+0130,1","99999,9,08169,1","2,1,002,1,+000,1",,"SYN130AAXX  16001 76373 32388 83001 10270 20098 38169 40000 52002 82320 92330 333 10358 20130 30/// 50700 56660 58000 70000 82920 86460;","Q01  00002PRCP06"
"76373099999","2004-06-16T12:00:00","4","25.35","-105.75","1967.0","TEPEHUANES DGO., MX","FM-12","99999","V020","999,9,C,0000,1","06000,1,9,N","003000,1,N,1","+0174,1","+0128,1","10070,1","06,0000,9,1","24,0000,9,1",,,,"08,1,+06000,9,00,9",,,"08,99,1,00,1,00,1,99999,9,00,1,04,1","01,9","999,+0140,9","999,M,+0358,1","120,N,+0166,1","99999,9,08197,1","9,9,999,9,+006,1",,"SYN118AAXX  16121 76373 32930 80000 10174 20128 38197 40070 5//// 80004 91130 333 10358 20166 30014 56006 58006 70000 88070;","Q01  00002PRCP06"
"76373099999","2004-06-16T15:00:00","4","25.35","-105.75","1967.0","TEPEHUANES DGO., MX","FM-12","99999","V020","280,1,N,0010,1","00025,1,9,N","070000,1,N,1","+0206,1","+0136,1","10095,1","06,0000,9,1",,,,,"08,1,+00025,9,02,9",,,"08,99,1,00,1,00,1,99999,9,00,1,08,1","01,9",,,,"99999,9,08209,1","3,1,012,1,+008,1",,"SYN100AAXX  16151 76373 32988 82801 10206 20136 38209 40095 53012 80008 91430 333 30/// 56006 58008 88290;","Q01  00002PRCP06"
"76373099999","2004-06-16T21:00:00","4","25.35","-105.75","1967.0","TEPEHUANES DGO., MX","FM-12","99999","V020","260,1,N,0020,1","03600,1,C,N","070000,1,N,1","+0254,1","+0087,1","10052,1","06,0000,9,1",,,,,"04,1,+00300,9,07,9",,,"08,99,1,04,1,02,1,00450,1,02,1,00,1","01,9",,,,"99999,9,08193,1","5,1,004,1,+026,1",,"SYN106AAXX  16211 76373 32488 82602 10254 20087 38193 40052 55004 84220 92030 333 30/// 56220 58026 84710 84460;","Q01  00002PRCP06"
"76373099999","2004-06-17T00:00:00","4","25.35","-105.75","1967.0","TEPEHUANES DGO., MX","FM-12","99999","V020","320,1,N,0020,1","03600,1,9,N","070000,1,N,1","+0222,1","+0085,1","10054,1","06,0000,9,1","24,0000,9,1",,,,"04,1,+00600,9,07,9",,,"08,99,1,04,1,02,1,00250,1,02,1,00,1","01,9",,"120,M,+0328,1","180,N,+0158,1","99999,9,08202,1","2,1,009,1,+032,1",,"SYN130AAXX  17001 76373 32388 83202 10222 20085 38202 40054 52009 84220 92345 333 10328 20158 30/// 50540 56220 58032 70000 84720 84460;","Q01  00002PRCP06"
"76373099999","2004-06-17T12:00:00","4","25.35","-105.75","1967.0","TEPEHUANES DGO., MX","FM-12","99999","V020","999,9,C,0000,1","22000,1,9,N","030000,1,N,1","+0116,1","+0108,1","10138,1","12,0000,9,1","24,0000,9,1",,,,"04,1,+00025,9,01,9",,,"04,99,1,00,1,00,1,99999,9,00,1,09,1","01,9","999,+0080,9","999,M,+0328,1","120,N,+0108,1","99999,9,08222,1","9,9,999,9,+025,1",,"SYN130AAXX  17121 76373 01980 40000 10116 20108 38222 40138 5//// 69902 80009 91130 333 10328 20108 30008 56006 58025 69902 79999 84190;","Q01  00002PRCP24Q02  00002PRCP12"
"76373099999","2004-06-17T15:00:00","4","25.35","-105.75","1967.0","TEPEHUANES DGO., MX","FM-12","99999","V020","320,1,N,0010,1","22000,1,9,N","070000,1,N,1","+0160,1","+0094,1","10159,1","06,0000,9,1",,,,,"02,1,+00025,9,00,9",,,"02,99,1,00,1,00,1,99999,9,00,1,02,1","01,9",,,,"99999,9,08230,1","1,1,008,1,+021,1",,"SYN100AAXX  17151 76373 32988 23201 10160 20094 38230 40159 51008 80002 91430 333 30/// 56006 58021 82090;","Q01  00002PRCP06"
"76373099999","2004-06-17T18:00:00","4","25.35","-105.75","1967.0","TEPEHUANES DGO., MX","FM-12","99999","V020","110,1,N,0040,1","06000,1,9,N","070000,1,N,1","+0260,1","+0084,1","10140,1","06,0000,9,1",,,,,"01,1,+00300,9,08,9","08,1,+06000,9,02,9",,"08,99,1,01,1,01,1,00450,1,00,1,07,1","01,9",,"120,M,+0289,1","240,N,+0100,1","99999,9,08227,1","6,1,003,1,+030,1",,"SYN124AAXX  17181 76373 32488 81104 10260 20084 38227 40140 56003 81107 91738 333 10289 20100 30/// 56202 58030 81810 88270 99020;","Q01  00002PRCP06"
"76373099999","2004-06-17T21:00:00","4","25.35","-105.75","1967.0","TEPEHUANES DGO., MX","FM-12","99999","V020","120,1,N,0040,1","22000,1,9,N","070000,1,N,1","+0292,1","+0067,1","10089,1","06,0000,9,1",,,,,"02,1,+00900,9,09,9",,,"04,99,1,02,1,03,1,00450,1,00,1,02,1","01,9",,,,"99999,9,08206,1","8,1,021,1,+013,1",,"SYN106AAXX  17211 76373 32488 41204 10292 20067 38206 40089 58021 82302 92035 333 30/// 56202 58013 82930 82090;","Q01  00002PRCP06"
"76373099999","2004-06-18T00:00:00","4","25.35","-105.75","1967.0","TEPEHUANES DGO., MX","FM-12","99999","V020","130,1,N,0090,1","22000,1,9,N","070000,1,N,1","+0268,1","+0073,1","10047,1","06,0000,9,1","24,9999,9,9",,,,,,,"03,99,1,99,9,06,1,00450,1,00,1,00,1","01,9",,"120,M,+0340,1","180,N,+0100,1","99999,9,08194,1","5,1,012,1,-008,1",,"SYN124AAXX  18001 76373 32488 31309 10268 20073 38194 40047 55012 86600 92330 333 10340 20100 30/// 50600 56200 59008 79999 86730;","Q01+000062SCOTLCQ02  00002PRCP06Q03  99992PRCP24"
"76373099999","2004-06-18T12:00:00","4","25.35","-105.75","1967.0","TEPEHUANES DGO., MX","FM-12","99999","V020","270,1,N,0020,1","00300,1,9,N","030000,1,N,1","+0182,1","+0104,1","10114,1","12,0000,9,1","24,0000,9,1",,,,"08,1,+00300,9,07,9",,,"08,99,1,08,1,06,1,00450,1,00,1,00,1","01,9","999,+0150,9","999,M,+0240,1","120,N,+0168,1","99999,9,08232,1","9,9,999,9,+010,1",,"SYN130AAXX  18121 76373 01480 82702 10182 20104 38232 40114 5//// 69902 88600 91140 333 10240 20168 30015 56300 58010 69902 79999 88710;","Q01  00002PRCP24Q02  00002PRCP12"
"76373099999","2004-06-18T15:00:00","4","25.35","-105.75","1967.0","TEPEHUANES DGO., MX","FM-12","99999","V020","999,9,C,0000,1","22000,1,9,N","070000,1,N,1","+0211,1","+0116,1","10132,1","06,0000,9,1",,,,,"01,1,+00900,9,08,9",,,"04,99,1,01,1,01,1,00450,1,04,1,00,1","01,9",,,,"99999,9,08240,1","0,1,008,1,+018,1",,"SYN106AAXX  18151 76373 32488 40000 10211 20116 38240 40132 50008 81140 91430 333 30/// 56660 58018 81830 82360;","Q01  00002PRCP06"
"76373099999","2004-06-18T18:00:00","4","25.35","-105.75","1967.0","TEPEHUANES DGO., MX","FM-12","99999","V020","150,1,N,0040,1","03600,1,C,N","070000,1,N,1","+0254,1","+0112,1","10121,1","06,0000,9,1",,,,,"02,1,+00300,9,08,9","02,1,+03000,9,03,9",,"08,99,1,02,1,01,1,00450,1,03,1,04,1","01,9",,"120,M,+0274,1","240,N,+0168,1","99999,9,08236,1","7,1,004,1,+009,1",,"SYN124AAXX  18181 76373 32488 81504 10254 20112 38236 40121 57004 82134 91740 333 10274 20168 30/// 56222 58009 82810 82360 85070;","Q01  00002PRCP06"
"76373099999","2004-06-18T21:00:00","4","25.35","-105.75","1967.0","TEPEHUANES DGO., MX","FM-12","99999","V020","110,1,N,0050,1","03600,1,C,N","070000,1,N,1","+0292,1","+0047,1","10082,1","06,0000,9,1",,,,,"03,1,+00300,9,09,9","01,1,+00300,9,08,9",,"05,99,1,03,1,01,1,00450,1,04,1,00,1","01,9",,,,"99999,9,08218,1","6,1,018,1,+012,1",,"SYN112AAXX  18211 76373 32488 51105 10292 20047 38218 40082 56018 83140 92030 333 30/// 56220 58012 83910 81810 81360;","Q01  00002PRCP06"
"76373099999","2004-06-19T00:00:00","4","25.35","-105.75","1967.0","TEPEHUANES DGO., MX","FM-12","99999","V020","090,1,N,0020,1","22000,1,C,N","070000,1,N,1","+0286,1","+0057,1","10046,1","06,0000,9,1","24,9999,9,9",,,,"03,1,+00300,9,09,9","01,1,+00300,9,08,9",,"08,99,1,03,1,03,1,00450,1,00,1,04,1","01,9",,"120,M,+0328,1","180,N,+0168,1","99999,9,08204,1","6,1,014,1,+010,1",,"SYN136AAXX  19001 76373 32488 80902 10286 20057 38204 40046 56014 83304 92330 333 10328 20168 30/// 50900 56202 58010 79999 83910 81810 84090;","Q01  00002PRCP06Q02  99992PRCP24"
"76373099999","2004-06-19T15:00:00","4","25.35","-105.75","1967.0","TEPEHUANES DGO., MX","FM-12","99999","V020","999,9,C,0000,1","22000,1,9,N","070000,1,N,1","+0212,1","+0119,1","10152,1","15,0007,9,1",,,,,"03,1,+00025,9,00,9",,,"03,99,1,00,1,00,1,99999,9,00,1,04,1","01,9",,,,"99999,9,08253,1","9,9,999,9,+013,1",,"SYN106AAXX  19151 76373 22988 30000 10212 20119 38253 40152 5//// 80004 91440 333 30/// 56006 58013 69979 83090;",
"76373099999","2004-06-19T18:00:00","4","25.35","-105.75","1967.0","TEPEHUANES DGO., MX","FM-12","99999","V020","150,1,N,0040,1","22000,1,9,N","070000,1,N,1","+0264,1","+0080,1","10136,1","06,0000,9,1",,,,,"01,1,+00300,9,08,9",,,"02,99,1,01,1,99,9,00450,1,00,1,00,1","01,9",,"120,M,+0296,1","240,N,+0174,1","99999,9,08247,1","0,1,006,1,+011,1",,"SYN118AAXX  19181 76373 32488 21504 10264 20080 38247 40136 50006 81000 91730 333 10296 20174 30/// 56200 58011 81810 81910;","Q01+000002SCOLCGQ02  00002PRCP06"
"76373099999","2004-06-20T00:00:00","4","25.35","-105.75","1967.0","TEPEHUANES DGO., MX","FM-12","99999","V020","160,1,N,0030,1","00300,1,C,N","070000,1,N,1","+0282,1","+0056,1","10045,1","06,0000,9,1","24,0007,9,1",,,,"02,1,+00300,9,09,9","03,1,+00300,9,07,9",,"08,99,1,03,1,07,1,00450,1,02,1,00,1","01,9",,"120,M,+0328,1","180,N,+0174,1","99999,9,08201,1","6,1,020,1,-003,1",,"SYN136AAXX  20001 76373 32488 81603 10282 20056 38201 40045 56020 83720 92330 333 10328 20174 30/// 50810 56220 59003 70007 83710 82910 83560;","Q01  00002PRCP06"
"76373099999","2004-06-21T12:00:00","4","25.35","-105.75","1967.0","TEPEHUANES DGO., MX","FM-12","99999","V020","999,9,C,0000,1","00300,1,9,N","030000,1,N,1","+0154,1","+0119,1","10123,1","12,0005,9,1","24,0005,9,1",,,,"08,1,+00300,9,06,9",,,"08,99,1,08,1,05,1,00450,1,00,1,00,1","01,9","999,+0130,9","999,M,+0306,1","120,N,+0144,1","99999,9,08215,1",,,"SYN130AAXX  21121 76373 02480 80000 10154 20119 38215 40123 5//// 69952 88500 91140 333 10306 20144 30013 56600 58/// 69952 70005 88610;",
"76373099999","2004-06-21T15:00:00","4","25.35","-105.75","1967.0","TEPEHUANES DGO., MX","FM-12","99999","V020","999,9,C,0000,1","22000,1,9,N","070000,1,N,1","+0182,1","+0108,1","10133,1","06,0000,9,1",,,,,"01,1,+00300,9,09,9","01,1,+00300,9,08,9",,"04,99,1,01,1,01,1,00450,1,00,1,02,1","01,9",,,,"99999,9,08213,1","0,1,002,1,+999,9",,"SYN112AAXX  21151 76373 32488 40000 10182 20108 38213 40133 50002 81102 91438 333 30/// 56606 58/// 81810 81910 82090;","Q01  00002PRCP06"
"76373099999","2004-06-21T18:00:00","4","25.35","-105.75","1967.0","TEPEHUANES DGO., MX","FM-12","99999","V020","040,1,N,0010,1","22000,1,9,N","070000,1,N,1","+0236,1","+0092,1","10094,1","06,0000,9,1",,,,,"03,1,+00300,9,08,9",,,"04,99,1,03,1,02,1,00450,1,00,1,02,1","01,9",,"120,M,+0264,1","240,N,+0142,1","99999,9,08199,1","6,1,014,1,+999,9",,"SYN118AAXX  21181 76373 32488 40401 10236 20092 38199 40094 56014 83202 91740 333 10264 20142 30/// 56606 58/// 83810 81070;","Q01  00002PRCP06"
"76373099999","2004-06-21T21:00:00","4","25.35","-105.75","1967.0","TEPEHUANES DGO., MX","FM-12","99999","V020","230,1,N,0070,1","00300,1,9,N","070000,1,N,1","+0250,1","+0083,1","10054,1","06,0000,9,1",,,,,"08,1,+00300,9,07,9",,,"08,99,1,08,1,07,1,00450,1,00,1,00,1","01,9",,,,"99999,9,08180,1","7,1,019,1,+999,9",,"SYN100AAXX  21211 76373 32488 82307 10250 20083 38180 40054 57019 88700 92030 333 30/// 56600 58/// 88710;","Q01  00002PRCP06"
"76373099999","2004-06-22T12:00:00","4","25.35","-105.75","1967.0","TEPEHUANES DGO., MX","FM-12","99999","V020","999,9,C,0000,1","22000,1,9,N","030000,1,N,1","+0136,1","+0103,1","10096,1","06,0000,9,1","24,0000,9,1",,,,"00,1,+99999,9,99,9",,,"00,99,1,00,1,00,1,99999,9,00,1,00,1","01,9","999,+0100,9","999,M,+0298,1","120,N,+0128,1","99999,9,08199,1","9,9,999,9,-016,1",,"SYN100AAXX  22121 76373 32980 00000 10136 20103 38199 40096 5//// 91140 333 10298 20128 30010 59016 70000;","Q01  00002PRCP06Q02  00002PRCP24"
"76373099999","2004-06-22T15:00:00","4","25.35","-105.75","1967.0","TEPEHUANES DGO., MX","FM-12","99999","V020","320,1,N,0010,1","22000,1,9,N","070000,1,N,1","+0188,1","+0115,1","10116,1","06,0000,9,1",,,,,"01,1,+00300,9,08,9",,,"01,99,1,01,1,01,1,00450,1,00,1,00,1","01,9",,,,"99999,9,08207,1","1,1,008,1,-006,1",,"SYN100AAXX  22151 76373 32488 13201 10188 20115 38207 40116 51008 81100 91435 333 30/// 56600 59006 81810;","Q01  00002PRCP06"
"76373099999","2004-06-22T18:00:00","4","25.35","-105.75","1967.0","TEPEHUANES DGO., MX","FM-12","99999","V020","120,1,N,0040,1","22000,1,9,N","070000,1,N,1","+0254,1","+0108,1","10097,1","06,0000,9,1",,,,,"02,1,+00300,9,09,9",,,"04,99,1,02,1,03,1,00450,1,00,1,00,1","01,9",,"120,M,+0280,1","240,N,+0124,1","99999,9,08200,1","7,1,007,1,+001,1",,"SYN118AAXX  22181 76373 32488 41204 10254 20108 38200 40097 57007 82300 91742 333 10280 20124 30/// 56600 58001 82910 82810;","Q01  00002PRCP06"
"76373099999","2004-06-22T21:00:00","4","25.35","-105.75","1967.0","TEPEHUANES DGO., MX","FM-12","99999","V020","040,1,N,0010,1","00300,1,9,N","070000,1,N,1","+0264,1","+0085,1","10057,1","06,0000,9,1",,,,,"06,1,+00300,9,09,9",,,"08,99,1,06,1,03,1,00450,1,00,1,00,1","01,9",,,,"99999,9,08184,1","7,1,016,1,+004,1",,"SYN106AAXX  22211 76373 32488 80401 10264 20085 38184 40057 57016 86300 92035 333 30/// 56600 58004 86910 82810;","Q01  00002PRCP06"
"76373099999","2004-06-23T12:00:00","4","25.35","-105.75","1967.0","TEPEHUANES DGO., MX","FM-12","99999","V020","999,9,C,0000,1","22000,1,9,N","030000,1,N,1","+0098,1","+0062,1","10147,1","06,0000,9,1","24,0000,9,1",,,,"00,1,+99999,9,99,9",,,"00,99,1,00,1,00,1,99999,9,00,1,00,1","01,9","999,+0060,9","999,M,+0308,1","120,N,+0088,1","99999,9,08228,1","9,9,999,9,+029,1",,"SYN100AAXX  23121 76373 32980 00000 10098 20062 38228 40147 5//// 91130 333 10308 20088 30006 58029 70000;","Q01  00002PRCP06Q02  00002PRCP24"
"76373099999","2004-06-23T15:00:00","4","25.35","-105.75","1967.0","TEPEHUANES DGO., MX","FM-12","99999","V020","999,9,C,0000,1","22000,1,9,N","070000,1,N,1","+0166,1","+0082,1","10165,1","06,0000,9,1",,,,,"00,1,+99999,9,99,9",,,"00,99,1,00,1,00,1,99999,9,00,1,00,1","01,9",,,,"99999,9,08232,1","0,1,004,1,+025,1",,"SYN082AAXX  23151 76373 32988 00000 10166 20082 38232 40165 50004 91430 333 30/// 58025;","Q01  00002PRCP06"
"76373099999","2004-06-23T21:00:00","4","25.35","-105.75","1967.0","TEPEHUANES DGO., MX","FM-12","99999","V020","120,1,N,0020,1","22000,1,9,N","070000,1,N,1","+0294,1","+0067,1","10088,1","06,0000,9,1",,,,,"04,1,+00600,9,09,9",,,"04,99,1,04,1,03,1,00250,1,00,1,00,1","01,9",,,,"99999,9,08201,1","6,1,015,1,-015,1",,"SYN100AAXX  23211 76373 32388 41202 10294 20067 38201 40088 56015 84300 92045 333 30/// 56600 59015 84920;","Q01  00002PRCP06"
"76373099999","2004-06-24T00:00:00","4","25.35","-105.75","1967.0","TEPEHUANES DGO., MX","FM-12","99999","V020","090,1,N,0010,1","22000,1,9,N","070000,1,N,1","+0276,1","+0071,1","10030,1","06,0000,9,1","24,0000,9,1",,,,,,,"04,99,1,04,1,03,1,00250,1,00,1,00,1","01,9",,"120,M,+0330,1","180,N,+0088,1","99999,9,08179,1","6,1,022,1,-021,1",,"SYN124AAXX  24001 76373 32388 40901 10276 20071 38179 40030 56022 84300 92350 333 10330 20088 30/// 50720 56600 59021 70000 84920;","Q01  00002PRCP06"
"76373099999","2004-06-24T12:00:00","4","25.35","-105.75","1967.0","TEPEHUANES DGO., MX","FM-12","99999","V020","999,9,C,0000,1","00300,1,9,N","030000,1,N,1","+0136,1","+0120,1","10127,1","12,0040,9,2","24,0036,9,2",,,,"06,1,+00300,9,08,9",,,"06,99,1,06,1,01,1,00450,1,00,1,00,1","01,9","999,+0120,9","999,M,+0330,1","120,N,+0128,1","99999,9,08229,1","9,9,999,9,+001,1",,"SYN130AAXX  24121 76373 02480 60000 10136 20120 38229 40127 5//// 60042 86100 91140 333 10330 20128 30012 56600 58001 60042 70036 86810;",
"76373099999","2004-06-24T15:00:00","4","25.35","-105.75","1967.0","TEPEHUANES DGO., MX","FM-12","99999","V020","999,9,C,0000,1","22000,1,9,N","070000,1,N,1","+0194,1","+0126,1","10174,1","06,0000,9,1",,,,,"01,1,+00300,9,08,9",,,"02,99,1,01,1,01,1,00450,1,00,1,00,1","01,9",,,,"99999,9,08238,1","1,1,010,1,+005,1",,"SYN106AAXX  24151 76373 32488 20000 10194 20126 38238 40174 51010 81100 91440 333 30/// 56606 58005 81810 81090;","Q01  00002PRCP06"
"76373099999","2004-06-24T18:00:00","4","25.35","-105.75","1967.0","TEPEHUANES DGO., MX","FM-12","99999","V020","110,1,N,0020,1","22000,1,9,N","070000,1,N,1","+0254,1","+0127,1","10134,1","06,0000,9,1",,,,,"02,1,+00300,9,09,9",,,"03,99,1,02,1,03,1,00450,1,00,1,01,1","01,9",,"120,M,+0270,1","240,N,+0128,1","99999,9,08231,1","7,1,008,1,+015,1",,"SYN118AAXX  24181 76373 32488 31102 10254 20127 38231 40134 57008 82301 91736 333 10270 20128 30/// 56606 58015 82910 81070;","Q01  00002PRCP06"
"76373099999","2004-06-24T21:00:00","4","25.35","-105.75","1967.0","TEPEHUANES DGO., MX","FM-12","99999","V020","999,9,C,0000,1","03600,1,C,N","070000,1,N,1","+0288,1","+0076,1","10082,1","06,0000,9,1",,,,,"03,1,+00300,9,09,9","01,1,+03000,9,03,9",,"05,99,1,03,1,03,1,00450,1,03,1,01,1","01,9",,,,"99999,9,08206,1","7,1,025,1,+005,1",,"SYN112AAXX  24211 76373 32488 50000 10288 20076 38206 40082 57025 83331 92035 333 30/// 56666 58005 83910 81360 81090;","Q01  00002PRCP06"
"76373099999","2004-06-25T00:00:00","4","25.35","-105.75","1967.0","TEPEHUANES DGO., MX","FM-12","99999","V020","250,1,N,0020,1","00300,1,C,N","070000,1,N,1","+0266,1","+0092,1","10037,1","06,0000,9,1","24,0036,9,1",,,,"05,1,+00300,9,09,9",,,"08,99,1,06,1,03,1,00450,1,00,1,00,1","01,9",,"120,M,+0330,1","180,N,+0128,1","99999,9,08190,1","6,1,016,1,+011,1",,"SYN130AAXX  25001 76373 32488 82502 10266 20092 38190 40037 56016 86300 92330 333 10330 20128 30/// 50600 56600 58011 70036 85910 83810;","Q01  00002PRCP06"
"76373099999","2004-06-25T12:00:00","4","25.35","-105.75","1967.0","TEPEHUANES DGO., MX","FM-12","99999","V020","999,9,C,0000,1","03000,1,9,N","030000,1,N,1","+0156,1","+0139,1","10135,1","12,0180,9,2","24,0175,9,2",,,,"06,1,+03000,9,03,9",,,"06,99,1,06,1,00,1,01250,1,03,1,00,1","09,9","999,+0130,9","999,M,+0330,1","120,N,+0146,1","99999,9,08228,1","9,9,999,9,-001,1",,"SYN130AAXX  25121 76373 02680 60000 10156 20139 38228 40135 5//// 60182 86030 91130 333 10330 20146 31013 56060 59001 60182 70175 86360;",
"76373099999","2004-06-25T15:00:00","4","25.35","-105.75","1967.0","TEPEHUANES DGO., MX","FM-12","99999","V020","999,9,C,0000,1","22000,1,9,N","070000,1,N,1","+0194,1","+0152,1","10148,1","06,0000,9,1",,,,,"01,1,+00300,9,08,9",,,"01,99,1,01,1,01,1,00450,1,00,1,00,1","09,9",,,,"99999,9,08237,1","2,1,009,1,-002,1",,"SYN100AAXX  25151 76373 32488 10000 10194 20152 38237 40148 52009 81100 91430 333 31/// 56600 59002 81810;","Q01  00002PRCP06"
"76373099999","2004-06-25T18:00:00","4","25.35","-105.75","1967.0","TEPEHUANES DGO., MX","FM-12","99999","V020","120,1,N,0030,1","22000,1,9,N","070000,1,N,1","+0250,1","+0150,1","10126,1","06,0000,9,1",,,,,"03,1,+00300,9,09,9",,,"03,99,1,03,1,03,1,00450,1,00,1,00,1","01,9",,"120,M,+0270,1","240,N,+0146,1","99999,9,08229,1","7,1,008,1,-002,1",,"SYN112AAXX  25181 76373 32488 31203 10250 20150 38229 40126 57008 83300 91740 333 10270 20146 30/// 56600 59002 83910;","Q01  00002PRCP06"
"76373099999","2004-06-25T21:00:00","4","25.35","-105.75","1967.0","TEPEHUANES DGO., MX","FM-12","99999","V020","150,1,N,0010,1","00300,1,9,N","070000,1,N,1","+0264,1","+0110,1","10081,1","06,0000,9,1",,,,,"06,1,+00300,9,09,9",,,"06,99,1,06,1,03,1,00450,1,00,1,00,1","01,9",,,,"99999,9,08207,1","7,1,022,1,+001,1",,"SYN100AAXX  25211 76373 32488 61501 10264 20110 38207 40081 57022 86300 92030 333 30/// 56600 58001 86910;","Q01  00002PRCP06"
"76373099999","2004-06-26T00:00:00","4","25.35","-105.75","1967.0","TEPEHUANES DGO., MX","FM-12","99999","V020","240,1,N,0040,1","00300,1,C,N","070000,1,N,1","+0254,1","+0096,1","10043,1","01,0000,2,1","24,0175,9,1",,"2,1,06,1","2,1,06,1","06,1,+00300,9,09,9",,,"08,99,1,06,1,07,1,00450,1,00,1,00,1","09,9",,"120,M,+0310,1","180,N,+0146,1","99999,9,08191,1","6,1,016,1,+001,1","50,1","SYN148AAXX  26001 76373 01488 82404 10254 20096 38191 40043 56016 69905 75022 86700 92330 333 10310 20146 31/// 50500 56600 58001 69905 70175 86910 82910;",
"76373099999","2004-06-26T15:00:00","4","25.35","-105.75","1967.0","TEPEHUANES DGO., MX","FM-12","99999","V020","330,1,N,0010,1","22000,1,9,N","070000,1,N,1","+0162,1","+0124,1","10115,1","06,0000,2,1","15,0071,9,1",,"5,1,03,1","6,1,03,1","03,1,+03000,9,03,9",,,"03,99,1,03,1,00,1,01250,1,03,1,00,1","11,9",,,,"99999,9,08216,1","9,9,999,9,+002,1","20,1","SYN112AAXX  26151 76373 32688 33301 10162 20124 38216 40115 5//// 60079 72056 83030 91430 333 32/// 56060 58002 83360;",
"76373099999","2004-06-26T18:00:00","4","25.35","-105.75","1967.0","TEPEHUANES DGO., MX","FM-12","99999","V020","060,1,N,0010,1","22000,1,9,N","070000,1,N,1","+0246,1","+0142,1","10117,1","06,0000,2,1",,,,,"02,1,+00300,9,09,9",,,"03,99,1,02,1,03,1,00450,1,00,1,00,1","01,9",,"120,M,+0260,1","240,N,+0136,1","99999,9,08219,1","2,1,015,1,-010,1",,"SYN118AAXX  26181 76373 32488 30601 10246 20142 38219 40117 52015 82300 91738 333 10260 20136 30/// 56200 59010 82910 81810;",
"76373099999","2004-06-27T15:00:00","4","25.35","-105.75","1967.0","TEPEHUANES DGO., MX","FM-12","99999","V020","330,1,N,0010,1","22000,1,9,N","070000,1,N,1","+0176,1","+0101,1","10133,1","15,0004,9,1",,,,,"01,1,+03000,9,03,9",,,"01,99,1,01,1,00,1,01250,1,03,1,00,1","01,9",,,,"99999,9,08230,1","9,9,999,9,-004,1",,"SYN106AAXX  27151 76373 22688 13301 10176 20101 38230 40133 5//// 81030 91440 333 30/// 56060 59004 69949 81360;",
"76373099999","2004-06-27T18:00:00","4","25.35","-105.75","1967.0","TEPEHUANES DGO., MX","FM-12","99999","V020","120,1,N,0030,1","22000,1,9,N","070000,1,N,1","+0248,1","+0111,1","10122,1","06,0000,9,1",,,,,"02,1,+00300,9,09,9",,,"03,99,1,02,1,03,1,00450,1,00,1,00,1","01,9",,"120,M,+0274,1","240,N,+0126,1","99999,9,08223,1","7,1,007,1,+004,1",,"SYN122AAXX  27181 76373 32488 31203 10248 20111 38223 40122 57007 82300 91735 333 333 10274 20126 30/// 56200 58004 82910 81810;","Q01  00002PRCP06"
"76373099999","2004-06-27T21:00:00","4","25.35","-105.75","1967.0","TEPEHUANES DGO., MX","FM-12","99999","V020","110,1,N,0030,1","99999,9,9,N","070000,1,N,1","+0284,1","+0097,1","10077,1","06,0000,9,1",,,,,"04,1,+00300,9,09,9",,,"06,99,1,04,1,03,1,00450,1,00,1,00,1","01,9",,,,"99999,9,08201,1","6,1,022,1,+004,1",,"SYN106AAXX  27211 76373 32488 61103 10284 20097 38201 40077 56022 84300 92040 333 30/// 56200 58004 84910 82810;","Q01  00002PRCP06"
"76373099999","2004-06-28T00:00:00","4","25.35","-105.75","1967.0","TEPEHUANES DGO., MX","FM-12","99999","V020","320,1,N,0030,1","03600,1,9,N","070000,1,N,1","+0220,1","+0094,1","10059,1","06,0000,9,1","24,0004,9,1",,,,"04,1,+00300,9,07,9",,,"08,99,1,04,1,07,1,00450,1,05,1,00,1","01,9",,"120,M,+0314,1","180,N,+0126,1","99999,9,08199,1","5,1,002,1,+999,9",,"SYN130AAXX  28001 76373 32488 83203 10220 20094 38199 40059 55002 84750 92330 333 10314 20126 30/// 50700 56220 56008 70004 84710 84560;","Q01  00002PRCP06"
"76373099999","2004-06-28T18:00:00","4","25.35","-105.75","1967.0","TEPEHUANES DGO., MX","FM-12","99999","V020","150,1,N,0030,1","06000,1,9,N","070000,1,N,1","+0204,1","+0120,1","10170,1","06,0000,9,1",,,,,"08,1,+06000,9,06,9",,,"08,99,1,08,1,06,1,00250,1,00,1,00,1","01,9",,"120,M,+0234,1","240,N,+0148,1","99999,9,08247,1","7,1,003,1,+024,1",,"SYN112AAXX  28181 76373 32388 81503 10204 20120 38247 40170 57003 88600 91730 333 10234 20148 30/// 56200 58024 88670;","Q01  00002PRCP06"
"76373099999","2004-06-28T21:00:00","4","25.35","-105.75","1967.0","TEPEHUANES DGO., MX","FM-12","99999","V020","320,1,N,0020,1","22000,1,C,N","070000,1,N,1","+0222,1","+0116,1","10119,1","06,0000,9,1",,,,,"04,1,+00300,9,09,9",,,"08,99,1,04,1,03,1,00450,1,00,1,04,1","01,9",,,,"99999,9,08222,1","7,1,020,1,+021,1",,"SYN106AAXX  28211 76373 32488 83202 10222 20116 38222 40119 57020 84304 92040 333 30/// 56202 58021 84910 84090;","Q01  00002PRCP06"
"76373099999","2004-06-29T00:00:00","4","25.35","-105.75","1967.0","TEPEHUANES DGO., MX","FM-12","99999","V020","120,1,N,0030,1","09000,1,9,N","070000,1,N,1","+0252,1","+0089,1","10072,1","06,0000,9,1","24,9999,9,9",,,,"01,1,+00300,9,09,9","01,1,+00300,9,08,9",,"08,99,1,01,1,03,1,00450,1,00,1,08,1","01,9",,"120,M,+0282,1","180,N,+0148,1","99999,9,08198,1","6,1,024,1,-001,1",,"SYN136AAXX  29001 76373 32488 81203 10252 20089 38198 40072 56024 81308 92340 333 10282 20148 30/// 50420 56404 59001 79999 81810 81910 86270;","Q01  00002PRCP06Q02  99992PRCP24"
"76373099999","2004-06-29T12:00:00","4","25.35","-105.75","1967.0","TEPEHUANES DGO., MX","FM-12","99999","V020","280,1,N,0010,1","00300,1,9,N","030000,1,N,1","+0164,1","+0122,1","10126,1","06,0000,9,1","24,0000,9,1",,,,"08,1,+00300,9,07,9",,,"08,99,1,08,1,06,1,00450,1,00,1,00,1","01,9","999,+0140,9","999,M,+0282,1","120,N,+0154,1","99999,9,08227,1","9,9,999,9,-007,1",,"SYN118AAXX  29121 76373 32480 82801 10164 20122 38227 40126 5//// 88600 91130 333 10282 20154 30014 56200 59007 70000 88710;","Q01  00002PRCP06"
"76373099999","2004-06-29T15:00:00","4","25.35","-105.75","1967.0","TEPEHUANES DGO., MX","FM-12","99999","V020","320,1,N,0010,1","03600,1,C,N","070000,1,N,1","+0192,1","+0120,1","10137,1","06,0000,9,1",,,,,"02,1,+00300,9,09,9",,,"06,99,1,02,1,03,1,00450,1,04,1,00,1","01,9",,,,"99999,9,08231,1","1,1,004,1,-019,1",,"SYN106AAXX  29151 76373 32488 63201 10192 20120 38231 40137 51004 82340 91440 333 30/// 56220 59019 82910 84360;","Q01  00002PRCP06"
"76373099999","2004-06-29T18:00:00","4","25.35","-105.75","1967.0","TEPEHUANES DGO., MX","FM-12","99999","V020","120,1,N,0030,1","22000,1,9,N","070000,1,N,1","+0244,1","+0125,1","10124,1","06,0000,9,1",,,,,"03,1,+00300,9,09,9",,,"04,99,1,03,1,03,1,00450,1,00,1,02,1","01,9",,"120,M,+0265,1","240,N,+0152,1","99999,9,08228,1","8,1,003,1,-019,1",,"SYN118AAXX  29181 76373 32488 41203 10244 20125 38228 40124 58003 83302 91740 333 10265 20152 30/// 56606 59019 83910 81070;","Q01  00002PRCP06"
"76373099999","2004-06-29T21:00:00","4","25.35","-105.75","1967.0","TEPEHUANES DGO., MX","FM-12","99999","V020","110,1,N,0010,1","00300,1,9,N","070000,1,N,1","+0272,1","+0079,1","10074,1","06,0000,9,1",,,,,"05,1,+00300,9,09,9",,,"07,99,1,05,1,03,1,00450,1,00,1,08,1","01,9",,,,"99999,9,08202,1","7,1,026,1,-020,1",,"SYN106AAXX  29211 76373 32488 71101 10272 20079 38202 40074 57026 85308 92030 333 30/// 56606 59020 85910 82260;","Q01  00002PRCP06"
"76373099999","2004-06-30T12:00:00","4","25.35","-105.75","1967.0","TEPEHUANES DGO., MX","FM-12","99999","V020","999,9,C,0000,1","22000,1,9,N","030000,1,N,1","+0128,1","+0114,1","10146,1","12,0020,9,1","24,0023,9,1",,,,"00,1,+99999,9,99,9",,,"00,99,1,00,1,00,1,99999,9,00,1,00,1","01,9","999,+0110,9","999,M,+0322,1","120,N,+0122,1","99999,9,08241,1","9,9,999,9,+014,1",,"SYN112AAXX  30121 76373 02980 00000 10128 20114 38241 40146 5//// 60022 91130 333 10322 20122 30011 58014 60022 70022;",
"76373099999","2004-06-30T18:00:00","4","25.35","-105.75","1967.0","TEPEHUANES DGO., MX","FM-12","99999","V020","110,1,N,0020,1","22000,1,9,N","070000,1,N,1","+0246,1","+0108,1","10156,1","06,0000,9,1",,,,,"02,1,+00300,9,09,9",,,"02,99,1,02,1,03,1,00450,1,00,1,00,1","01,9",,"120,M,+0264,1","240,N,+0114,1","99999,9,08233,1","5,1,004,1,+005,1",,"SYN112AAXX  30181 76373 32488 21102 10246 20108 38233 40156 55004 82300 91730 333 10264 20114 30/// 56600 58005 82910;","Q01  00002PRCP06"
"76373099999","2004-06-30T21:00:00","4","25.35","-105.75","1967.0","TEPEHUANES DGO., MX","FM-12","99999","V020","150,1,N,0060,1","03600,1,C,N","070000,1,N,1","+0278,1","+0109,1","10094,2","06,0000,9,1",,,,,"03,1,+00300,9,09,9","01,1,+00300,9,08,9",,"05,99,1,03,1,03,1,00450,1,02,1,00,1","01,9",,,,"99999,9,08211,1","6,1,022,1,+009,1",,"SYN112AAXX  30211 76373 32488 51506 10278 20109 38211 40094 56022 83320 92038 333 30/// 56660 58009 83910 81810 81470;","Q01+100943APOSLPQ02  00002PRCP06"
"76373099999","2004-07-01T00:00:00","4","25.35","-105.75","1967.0","TEPEHUANES DGO., MX","FM-12","99999","V020","300,1,N,0060,1","03600,1,9,N","070000,1,N,1","+0216,1","+0082,1","10066,1","06,0000,9,1","24,0022,9,1",,,,"04,1,+00600,9,09,9",,,"08,99,1,04,1,03,1,00250,1,02,1,00,1","01,9",,"120,M,+0308,1","180,N,+0114,1","99999,9,08203,1","6,1,008,1,-011,1",,"SYN136AAXX  01001 76373 32388 83006 10216 20082 38203 40066 56008 84320 92335 333 10308 20114 30/// 50490 56660 59011 60024 70022 84920 84460;","Q01  00002PRCP06"
"76373099999","2004-07-01T15:00:00","4","25.35","-105.75","1967.0","TEPEHUANES DGO., MX","FM-12","99999","V020","300,1,N,0010,1","22000,1,9,N","070000,1,N,1","+0186,1","+0124,1","10151,1","06,0000,9,1",,,,,"00,1,+99999,9,99,9",,,"00,99,1,00,1,00,1,99999,9,00,1,00,1","01,9",,,,"99999,9,08238,1","9,9,999,9,+001,1",,"SYN082AAXX  01151 76373 32988 03001 10186 20124 38238 40151 5//// 91435 333 30/// 58001;","Q01  00002PRCP06"
"76373099999","2004-07-01T18:00:00","4","25.35","-105.75","1967.0","TEPEHUANES DGO., MX","FM-12","99999","V020","130,1,N,0030,1","22000,1,9,N","070000,1,N,1","+0260,1","+0116,1","10135,1","06,0000,9,1",,,,,"02,1,+00300,9,09,9",,,"03,99,1,02,1,03,1,00450,1,00,1,00,1","01,9",,"120,M,+0290,1","240,N,+0130,1","99999,9,08234,1","7,1,004,1,+001,1",,"SYN118AAXX  01181 76373 32488 31303 10260 20116 38234 40135 57004 82300 91735 333 10290 20130 30/// 56200 58001 82910 81810;","Q01  00002PRCP06"
"76373099999","2004-07-01T21:00:00","4","25.35","-105.75","1967.0","TEPEHUANES DGO., MX","FM-12","99999","V020","140,1,N,0040,1","22000,1,9,N","070000,1,N,1","+0302,1","+0059,1","10088,1","06,0000,9,1",,,,,"02,1,+00300,9,09,9",,,"03,99,1,02,1,03,1,00450,1,00,1,00,1","01,9",,,,"99999,9,08214,1","6,1,020,1,+003,1",,"SYN106AAXX  01211 76373 32488 31404 10302 20059 38214 40088 56020 82300 92035 333 30/// 56300 58003 82910 81810;","Q01  00002PRCP06"
"76373099999","2004-07-02T00:00:00","4","25.35","-105.75","1967.0","TEPEHUANES DGO., MX","FM-12","99999","V020","090,1,N,0030,1","22000,1,9,N","070000,1,N,1","+0312,1","+0065,1","10037,1","06,0000,9,1","24,0000,9,1",,,,"02,1,+00300,9,09,9",,,"03,99,1,02,1,03,1,00450,1,00,1,00,1","01,9",,"120,M,+0332,1","180,N,+0130,1","99999,9,08194,1","6,1,020,1,-009,1",,"SYN130AAXX  02001 76373 32488 30903 10312 20065 38194 40037 56020 82300 92340 333 10332 20130 30/// 50780 56700 59009 70000 82910 81810;","Q01  00002PRCP06"
"76373099999","2004-07-02T18:00:00","4","25.35","-105.75","1967.0","TEPEHUANES DGO., MX","FM-12","99999","V020","120,1,N,0020,1","22000,1,9,N","070000,1,N,1","+0274,1","+0111,1","10116,1","06,0000,9,1",,,,,"01,1,+00300,9,09,9","01,1,+00300,9,08,9",,"03,99,1,01,1,03,1,00450,1,00,1,02,1","01,9",,"120,M,+0302,1","240,N,+0130,1","99999,9,08227,1","6,1,011,1,-007,1",,"SYN124AAXX  02181 76373 32488 31202 10274 20111 38227 40116 56011 81302 91740 333 10302 20130 30/// 56202 59007 81910 81810 81070;","Q01  00002PRCP06"
"76373099999","2004-07-02T21:00:00","4","25.35","-105.75","1967.0","TEPEHUANES DGO., MX","FM-12","99999","V020","120,1,N,0050,1","22000,1,9,N","070000,1,N,1","+0306,1","+0104,1","10067,1","06,0000,9,1",,,,,"02,1,+00300,9,09,9",,,"04,99,1,02,1,03,1,00450,1,00,1,00,1","01,9",,,,"99999,9,08204,1","6,1,023,1,-010,1",,"SYN106AAXX  02211 76373 32488 41205 10306 20104 38204 40067 56023 82300 92036 333 30/// 56200 59010 82910 82810;","Q01  00002PRCP06"
"76373099999","2004-07-03T00:00:00","4","25.35","-105.75","1967.0","TEPEHUANES DGO., MX","FM-12","99999","V020","270,1,N,0040,1","99999,9,9,N","070000,1,N,1","+0260,1","+0108,1","10039,1","06,0000,9,1","24,0000,9,1",,,,"04,1,+00300,9,09,9",,,"07,99,1,04,1,03,1,00450,1,00,1,00,1","01,9",,"120,M,+0302,1","180,N,+0130,1","99999,9,08197,1","7,1,007,1,+003,1",,"SYN130AAXX  03001 76373 32488 72704 10260 20108 38197 40039 57007 84300 92340 333 10302 20130 30/// 50880 56200 58003 70000 84910 83810;","Q01  00002PRCP06"
"76373099999","2004-07-03T15:00:00","4","25.35","-105.75","1967.0","TEPEHUANES DGO., MX","FM-12","99999","V020","999,9,C,0000,1","22000,1,9,N","070000,1,N,1","+0188,1","+0152,1","10130,1","15,0051,9,1",,,,,"04,1,+03000,9,03,9",,,"04,99,1,04,1,00,1,01250,1,03,1,00,1","11,9",,,,"99999,9,08227,1","9,9,999,9,-011,1",,"SYN106AAXX  03151 76373 12688 40000 10188 20152 38227 40130 5//// 60059 84030 91455 333 32/// 56060 59011 84360;",
"76373099999","2004-07-03T18:00:00","4","25.35","-105.75","1967.0","TEPEHUANES DGO., MX","FM-12","99999","V020","140,1,N,0030,1","22000,1,9,N","070000,1,N,1","+0270,1","+0143,1","10104,1","06,0000,9,1",,,,,"02,1,+00600,9,09,9",,,"02,99,1,02,1,03,1,00250,1,00,1,00,1","09,9",,"120,M,+0288,1","240,N,+0150,1","99999,9,08220,1","6,1,007,1,-007,1",,"SYN112AAXX  03181 76373 32388 21403 10270 20143 38220 40104 56007 82300 91750 333 10288 20150 31/// 56600 59007 82920;","Q01  00002PRCP06"
"76373099999","2004-07-03T21:00:00","4","25.35","-105.75","1967.0","TEPEHUANES DGO., MX","FM-12","99999","V020","090,1,N,0040,1","00600,1,9,N","070000,1,N,1","+0302,1","+0097,1","10104,1","06,0000,9,1",,,,,"06,1,+00600,9,09,9",,,"06,99,1,06,1,03,1,00250,1,00,1,00,1","01,9",,,,"99999,9,08220,1","4,1,000,1,-016,1",,"SYN100AAXX  03211 76373 32388 60904 10302 20097 38220 40104 54000 86300 92055 333 30/// 56600 59016 86920;","Q01  00002PRCP06"
"76373099999","2004-07-04T00:00:00","4","25.35","-105.75","1967.0","TEPEHUANES DGO., MX","FM-12","99999","V020","270,1,N,0010,1","00210,1,9,N","070000,1,N,1","+0266,1","+0104,1","10083,1","06,0000,9,1","24,0045,9,1",,,,,,,"08,99,1,08,1,09,1,00250,1,00,1,00,1","01,9",,"120,M,+0334,1","180,N,+0150,1","99999,9,08193,1","6,1,027,1,-004,1",,"SYN124AAXX  04001 76373 32388 82701 10266 20104 38193 40083 56027 88900 92350 333 10334 20150 30/// 50600 56600 59004 70045 88920;","Q01  00002PRCP06"
"76373099999","2004-07-04T15:00:00","4","25.35","-105.75","1967.0","TEPEHUANES DGO., MX","FM-12","99999","V020","999,9,C,0000,1","03000,1,9,N","070000,1,N,1","+0180,1","+0150,1","10116,1","15,0099,9,1",,,,,"06,1,+03000,9,03,9",,,"08,99,1,08,1,00,1,00250,1,03,1,00,1","11,9",,,,"99999,9,08227,1","9,9,999,9,+000,1",,"SYN106AAXX  04151 76373 12388 80000 10180 20150 38227 40116 5//// 60109 88030 91445 333 32/// 56060 58000 86360;",
"76373099999","2004-07-04T18:00:00","4","25.35","-105.75","1967.0","TEPEHUANES DGO., MX","FM-12","99999","V020","999,9,C,0000,1","03600,1,C,N","070000,1,N,1","+0236,1","+0148,1","10107,1","06,0000,9,1",,,,,"01,1,+00600,9,09,9","02,1,+03000,9,03,9",,"08,99,1,01,1,03,1,00250,1,03,1,07,1","01,9",,"120,M,+0246,1","240,N,+0144,1","99999,9,08218,1","6,1,009,1,-002,1",,"SYN124AAXX  04181 76373 32388 80000 10236 20148 38218 40107 56009 81337 91750 333 10246 20144 30/// 56666 59002 81920 82360 85280;","Q01  00002PRCP06"
"76373099999","2004-07-04T21:00:00","4","25.35","-105.75","1967.0","TEPEHUANES DGO., MX","FM-12","99999","V020","090,1,N,0010,1","03000,1,9,N","070000,1,N,1","+0270,1","+0129,1","10069,1","06,0000,9,1",,,,,"04,1,+00600,9,09,9","02,1,+03000,9,03,9",,"08,99,1,04,1,03,1,00250,1,03,1,07,1","09,9",,,,"99999,9,08196,1","6,1,022,1,+003,1",,"SYN112AAXX  04211 76373 32388 80901 10270 20129 38196 40069 56022 84337 92050 333 31/// 56666 58003 84920 82360 82280;","Q01  00002PRCP06"
"76373099999","2004-07-05T00:00:00","4","25.35","-105.75","1967.0","TEPEHUANES DGO., MX","FM-12","99999","V020","210,1,N,0040,1","00600,1,C,N","070000,1,N,1","+0254,1","+0119,1","10050,1","06,0000,9,1","24,0102,9,1",,,,"06,1,+00600,9,09,9",,,"08,99,1,05,1,09,1,00250,1,02,1,00,1","01,9",,"120,M,+0310,1","180,N,+0144,1","99999,9,08193,1","6,1,003,1,+000,1",,"SYN130AAXX  05001 76373 32388 82104 10254 20119 38193 40050 56003 85920 92330 333 10310 20144 30/// 50550 55660 58000 70102 86920 82360;","Q01  00002PRCP06"
"76373099999","2004-07-05T15:00:00","4","25.35","-105.75","1967.0","TEPEHUANES DGO., MX","FM-12","99999","V020","999,9,C,0000,1","22000,1,9,N","070000,1,N,1","+0204,1","+0134,1","10130,1","06,0000,9,1",,,,,"01,1,+03000,9,03,9",,,"03,99,1,01,1,00,1,01250,1,03,1,02,1","09,9",,,,"99999,9,08232,1","9,9,999,9,+005,1",,"SYN106AAXX  05151 76373 32688 30000 10204 20134 38232 40130 5//// 81032 91438 333 31/// 56022 58005 81360 81070;","Q01  00002PRCP06"
"76373099999","2004-07-05T18:00:00","4","25.35","-105.75","1967.0","TEPEHUANES DGO., MX","FM-12","99999","V020","100,1,N,0020,1","03600,1,C,N","070000,1,N,1","+0250,1","+0136,1","10116,1","06,0000,9,1",,,,,"02,1,+00300,9,09,9","02,1,+03000,9,03,9",,"06,99,1,02,1,03,1,00450,1,03,1,02,1","01,9",,"120,M,+0274,1","240,N,+0140,1","99999,9,08226,1","7,1,006,1,+008,1",,"SYN124AAXX  05181 76373 32488 61002 10250 20136 38226 40116 57006 82332 91738 333 10274 20140 30/// 56222 58008 82910 82360 82070;","Q01  00002PRCP06"
"76373099999","2004-07-05T21:00:00","4","25.35","-105.75","1967.0","TEPEHUANES DGO., MX","FM-12","99999","V020","030,1,N,0030,1","00300,1,9,N","070000,1,N,1","+0248,1","+0124,1","10082,1","06,0000,9,1",,,,,"06,1,+00300,9,09,9",,,"08,99,1,06,1,09,1,00450,1,00,1,00,1","01,9",,,,"99999,9,08209,1","7,1,017,1,+013,1",,"SYN106AAXX  05211 76373 32488 80303 10248 20124 38209 40082 57017 86900 92045 333 30/// 56200 58013 86910 82810;","Q01  00002PRCP06"
"76373099999","2004-07-06T15:00:00","4","25.35","-105.75","1967.0","TEPEHUANES DGO., MX","FM-12","99999","V020","999,9,C,0000,1","22000,1,9,N","070000,1,N,1","+0174,1","+0153,1","10154,1","06,0000,9,1",,,,,"02,1,+00025,9,00,9",,,"02,99,1,00,1,00,1,99999,9,00,1,02,1","01,9",,,,"99999,9,08236,1","1,1,006,1,+004,1",,"SYN100AAXX  06151 76373 32988 20000 10174 20153 38236 40154 51006 80002 91430 333 30/// 56002 58004 82090;","Q01  00002PRCP06"
"76373099999","2004-07-06T18:00:00","4","25.35","-105.75","1967.0","TEPEHUANES DGO., MX","FM-12","99999","V020","110,1,N,0020,1","22000,1,9,N","070000,1,N,1","+0242,1","+0155,1","10139,1","06,0000,9,1",,,,,"03,1,+00300,9,09,9",,,"03,99,1,03,1,03,1,00450,1,00,1,00,1","09,9",,"120,M,+0264,1","240,N,+0134,1","99999,9,08234,1","7,1,002,1,+008,1",,"SYN112AAXX  06181 76373 32488 31102 10242 20155 38234 40139 57002 83300 91740 333 10264 20134 31/// 56200 58008 83910;","Q01  00002PRCP06"
"76373099999","2004-07-06T21:00:00","4","25.35","-105.75","1967.0","TEPEHUANES DGO., MX","FM-12","99999","V020","120,1,N,0050,1","00300,1,9,N","070000,1,N,1","+0268,1","+0118,1","10094,1","06,0000,9,1",,,,,"06,1,+00300,9,09,9",,,"08,99,1,06,1,03,1,00450,1,00,1,00,1","01,9",,,,"99999,9,08213,1","6,1,021,1,+004,1",,"SYN106AAXX  06211 76373 32488 81205 10268 20118 38213 40094 56021 86300 92030 333 30/// 56200 58004 86910 82810;","Q01  00002PRCP06"
"76373099999","2004-07-07T15:00:00","4","25.35","-105.75","1967.0","TEPEHUANES DGO., MX","FM-12","99999","V020","999,9,C,0000,1","22000,1,9,N","070000,1,N,1","+0182,1","+0142,1","10154,1","06,0000,9,1",,,,,"04,1,+00025,9,00,9",,,"04,99,1,00,1,00,1,99999,9,00,1,04,1","01,9",,,,"99999,9,08234,1","2,1,011,1,-002,1",,"SYN100AAXX  07151 76373 32988 40000 10182 20142 38234 40154 52011 80004 91430 333 30/// 56002 59002 84090;","Q01  00002PRCP06"
"76373099999","2004-07-07T18:00:00","4","25.35","-105.75","1967.0","TEPEHUANES DGO., MX","FM-12","99999","V020","310,1,N,0010,1","99999,9,9,N","070000,1,N,1","+0240,1","+0124,1","10129,1","06,0000,9,1",,,,,"03,1,+00300,9,09,9",,,"05,99,1,03,1,03,1,00450,1,00,1,00,1","01,9",,"120,M,+0264,1","240,N,+0126,1","99999,9,08223,1","6,1,011,1,-011,1",,"SYN118AAXX  07181 76373 32488 53101 10240 20124 38223 40129 56011 83300 91730 333 10264 20126 30/// 56202 59011 83910 82090;","Q01  00002PRCP06"
"76373099999","2004-07-07T21:00:00","4","25.35","-105.75","1967.0","TEPEHUANES DGO., MX","FM-12","99999","V020","110,1,N,0030,1","09000,1,9,N","070000,1,N,1","+0284,1","+0105,1","10076,1","06,0000,9,1",,,,,"04,1,+00300,9,09,9",,,"06,99,1,04,1,09,1,00450,1,00,1,02,1","01,9",,,,"99999,9,08197,1","7,1,026,1,-016,1",,"SYN106AAXX  07211 76373 32488 61103 10284 20105 38197 40076 57026 84902 92030 333 30/// 56202 59016 84910 82090;","Q01  00002PRCP06"
"76373099999","2004-07-08T00:00:00","4","25.35","-105.75","1967.0","TEPEHUANES DGO., MX","FM-12","99999","V020","170,1,N,0030,1","03600,1,9,N","070000,1,N,1","+0274,1","+0086,1","10027,1","06,0000,9,1","24,0075,9,1",,,,"03,1,+00600,9,09,9",,,"08,99,1,03,1,09,1,00250,1,07,1,00,1","01,9",,"120,M,+0320,1","180,N,+0126,1","99999,9,08177,1","6,1,020,1,-027,1",,"SYN130AAXX  08001 76373 32388 81703 10274 20086 38177 40027 56020 83970 92350 333 10320 20126 30/// 50660 56220 59027 70075 83920 85360;","Q01  00002PRCP06"
"76373099999","2004-07-08T12:00:00","4","25.35","-105.75","1967.0","TEPEHUANES DGO., MX","FM-12","99999","V020","999,9,C,0000,1","03000,1,9,N","030000,1,N,1","+0158,1","+0123,1","10112,1","06,0000,9,1","12,0006,9,1","24,0006,9,1",,,"08,1,+03000,9,05,9",,,"08,99,1,08,1,00,1,99999,9,02,1,00,1","01,9","999,+0140,9","999,M,+0320,1","120,N,+0150,1","99999,9,08213,1","9,9,999,9,-010,1",,"SYN130AAXX  08121 76373 32980 80000 10158 20123 38213 40112 5//// 69962 88020 91138 333 10320 20150 30014 56060 59010 69962 70006 88560;","Q01  00002PRCP06"
"76373099999","2004-07-08T15:00:00","4","25.35","-105.75","1967.0","TEPEHUANES DGO., MX","FM-12","99999","V020","250,1,N,0010,1","03000,1,9,N","070000,1,N,1","+0192,1","+0149,1","10118,1","06,0000,9,1",,,,,"08,1,+03000,9,03,9",,,"08,99,1,08,1,00,1,01250,1,02,1,00,1","01,9",,,,"99999,9,08213,1","4,1,000,1,-021,1",,"SYN100AAXX  08151 76373 32688 82501 10192 20149 38213 40118 54000 88020 91445 333 30/// 56060 59021 88360;","Q01  00002PRCP06"
"76373099999","2004-07-08T21:00:00","4","25.35","-105.75","1967.0","TEPEHUANES DGO., MX","FM-12","99999","V020","120,1,N,0030,1","22000,1,9,N","070000,1,N,1","+0294,1","+0090,1","10047,1","06,0000,9,1",,,,,"03,1,+00300,9,09,9",,,"04,99,1,03,1,09,1,00450,1,00,1,00,1","01,9",,,,"99999,9,08181,1","6,1,022,1,-016,1",,"SYN106AAXX  08211 76373 32488 41203 10294 20090 38181 40047 56022 83900 92030 333 30/// 56600 59016 83910 81110;","Q01  00002PRCP06"
"76373099999","2004-07-09T00:00:00","4","25.35","-105.75","1967.0","TEPEHUANES DGO., MX","FM-12","99999","V020","180,1,N,0010,1","00420,1,9,N","070000,1,N,1","+0298,1","+0069,1","10002,1","06,0000,9,1","24,0006,9,1",,,,,,,"08,99,1,08,1,09,1,00450,1,00,1,00,1","01,9",,"120,M,+0332,1","180,N,+0146,1","99999,9,08164,1","6,1,017,1,-013,1",,"SYN124AAXX  09001 76373 32488 81801 10298 20069 38164 40002 56017 88900 92330 333 10332 20146 30/// 50650 56600 59013 70006 88910;","Q01  00002PRCP06"
"76373099999","2004-07-09T12:00:00","4","25.35","-105.75","1967.0","TEPEHUANES DGO., MX","FM-12","99999","V020","290,1,N,0020,1","22000,1,9,N","070000,1,N,1","+0142,1","+0126,1","10104,1","12,0050,9,2","24,0048,9,2",,,,"02,1,+00025,9,02,9",,,"02,99,1,00,1,00,1,99999,9,00,1,08,1","01,9","999,+0120,9","999,M,+0332,1","120,N,+0134,1","99999,9,08202,1","9,9,999,9,-011,1",,"SYN124AAXX  09121 76373 02988 22902 10142 20126 38202 40104 5//// 60052 80008 91140 333 10332 20134 30012 59011 60052 70048 82290;",
"76373099999","2004-07-09T18:00:00","4","25.35","-105.75","1967.0","TEPEHUANES DGO., MX","FM-12","99999","V020","090,1,N,0020,1","22000,1,9,N","070000,1,N,1","+0260,1","+0156,1","10099,1","06,0000,9,1",,,,,"01,1,+00300,9,08,9",,,"01,99,1,01,1,01,1,00450,1,00,1,00,1","09,9",,"120,M,+0285,1","240,N,+0128,1","99999,9,08203,1","7,1,005,1,+000,1",,"SYN112AAXX  09181 76373 32488 10902 10260 20156 38203 40099 57005 81100 91742 333 10285 20128 31/// 56200 58000 81810;","Q01  00002PRCP06"
"76373099999","2004-07-09T21:00:00","4","25.35","-105.75","1967.0","TEPEHUANES DGO., MX","FM-12","99999","V020","070,1,N,0030,1","99999,9,9,N","070000,1,N,1","+0306,1","+0085,1","10056,1","06,0000,9,1",,,,,"03,1,+00300,9,09,9",,,"05,99,1,03,1,03,1,00450,1,00,1,00,1","01,9",,,,"99999,9,08188,1","6,1,015,1,+007,1",,"SYN106AAXX  09211 76373 32488 50703 10306 20085 38188 40056 56015 83300 92040 333 30/// 56200 58007 83910 82810;","Q01  00002PRCP06"
"76373099999","2004-07-10T00:00:00","4","25.35","-105.75","1967.0","TEPEHUANES DGO., MX","FM-12","99999","V020","080,1,N,0040,1","22000,1,9,N","070000,1,N,1","+0292,1","+0044,1","10006,1","06,0000,9,1","24,0048,9,1",,,,,,,"04,99,1,04,1,09,1,00450,1,00,1,00,1","01,9",,"120,M,+0334,1","180,N,+0128,1","99999,9,08168,1","6,1,020,1,+004,1",,"SYN124AAXX  10001 76373 32488 40804 10292 20044 38168 40006 56020 84900 92345 333 10334 20128 30/// 50750 56200 58004 70048 84910;","Q01  00002PRCP06"
"76373099999","2004-07-10T18:00:00","4","25.35","-105.75","1967.0","TEPEHUANES DGO., MX","FM-12","99999","V020","110,1,N,0020,1","22000,1,9,N","070000,1,N,1","+0284,1","+0039,1","10090,1","06,0000,9,1",,,,,"01,1,+00600,9,09,9",,,"04,99,1,04,1,03,1,00250,1,00,1,00,1","01,9",,"120,M,+0298,1","240,N,+0146,1","99999,9,08219,1","2,1,001,1,+014,1",,"SYN112AAXX  10181 76373 32388 41102 10284 20039 38219 40090 52001 84300 91738 333 10298 20146 30/// 56600 58014 81920;","Q01  00002PRCP06"
"76373099999","2004-07-10T21:00:00","4","25.35","-105.75","1967.0","TEPEHUANES DGO., MX","FM-12","99999","V020","120,1,N,0030,1","00600,1,9,N","070000,1,N,1","+0306,1","+0081,1","10058,1","06,0000,9,1",,,,,"05,1,+00600,9,09,9",,,"05,99,1,05,1,03,1,00250,1,00,1,00,1","01,9",,,,"99999,9,08204,1","6,1,015,1,+016,1",,"SYN100AAXX  10211 76373 32388 51203 10306 20081 38204 40058 56015 85300 92035 333 30/// 56200 58016 85920;","Q01  00002PRCP06"
"76373099999","2004-07-11T00:00:00","4","25.35","-105.75","1967.0","TEPEHUANES DGO., MX","FM-12","99999","V020","080,1,N,0040,1","00210,1,9,N","070000,1,N,1","+0290,1","+0082,1","10010,1","06,0000,9,1","24,0000,9,1",,,,,,,"05,99,1,05,1,03,1,00250,1,00,1,00,1","01,9",,"120,M,+0334,1","180,N,+0146,1","99999,9,08179,1","6,1,025,1,+011,1",,"SYN124AAXX  11001 76373 32388 50804 10290 20082 38179 40010 56025 85300 92350 333 10334 20146 30/// 50800 56600 58011 70000 85920;","Q01  00002PRCP06"
"76373099999","2004-07-11T15:00:00","4","25.35","-105.75","1967.0","TEPEHUANES DGO., MX","FM-12","99999","V020","999,9,C,0000,1","22000,1,9,N","070000,1,N,1","+0196,1","+0107,1","10098,1","06,0000,9,1",,,,,"00,1,+99999,9,99,9",,,"00,99,1,00,1,00,1,99999,9,00,1,00,1","01,9",,,,"99999,9,08214,1","9,9,999,9,-004,1",,"SYN082AAXX  11151 76373 32988 00000 10196 20107 38214 40098 5//// 91430 333 30/// 59004;","Q01  00002PRCP06"
"76373099999","2004-07-11T18:00:00","4","25.35","-105.75","1967.0","TEPEHUANES DGO., MX","FM-12","99999","V020","120,1,N,0040,1","00600,1,9,N","070000,1,N,1","+0268,1","+0088,1","10096,1","06,0000,9,1",,,,,"05,1,+00600,9,09,9",,,"05,99,1,05,1,09,1,00250,1,00,1,00,1","01,9",,"120,M,+0296,1","240,N,+0124,1","99999,9,08214,1","4,1,000,1,-005,1",,"SYN112AAXX  11181 76373 32388 51204 10268 20088 38214 40096 54000 85900 91750 333 10296 20124 30/// 56600 59005 85920;","Q01  00002PRCP06"
"76373099999","2004-07-11T21:00:00","4","25.35","-105.75","1967.0","TEPEHUANES DGO., MX","FM-12","99999","V020","140,1,N,0060,1","22000,1,9,N","070000,1,N,1","+0282,1","+0071,1","10067,1","06,0000,9,1",,,,,"04,1,+00600,9,09,9",,,"99,99,9,04,1,09,1,00250,1,00,1,00,1","01,9",,,,"99999,9,08199,1","6,1,015,1,-005,1",,"SYN100AAXX  11211 76373 32388 31406 10282 20071 38199 40067 56015 84900 92035 333 30/// 56600 59005 84920;","Q01+000032SCOTCVQ02  00002PRCP06"
"76373099999","2004-07-12T00:00:00","4","25.35","-105.75","1967.0","TEPEHUANES DGO., MX","FM-12","99999","V020","030,1,N,0070,1","00210,1,9,N","070000,1,N,1","+0240,1","+0080,1","10047,1","06,0000,9,1","24,0000,9,1",,,,,,,"07,99,1,07,1,03,1,00250,1,00,1,00,1","01,9",,"120,M,+0310,1","180,N,+0124,1","99999,9,08195,1","6,1,004,1,+016,1",,"SYN124AAXX  12001 76373 32388 70307 10240 20080 38195 40047 56004 87300 92330 333 10310 20124 30/// 50400 56600 58016 70000 87920;","Q01  00002PRCP06"
"76373099999","2004-07-12T12:00:00","4","25.35","-105.75","1967.0","TEPEHUANES DGO., MX","FM-12","99999","V020","999,9,C,0000,1","22000,1,9,N","030000,1,N,1","+0118,1","+0086,1","10124,1","06,0000,9,1","24,0000,9,1",,,,"01,1,+03000,9,03,9",,,"01,99,1,01,1,00,1,99999,9,04,1,00,1","01,9","999,+0080,9","999,M,+0314,1","120,N,+0106,1","99999,9,08211,1",,,"SYN118AAXX  12121 76373 32980 10000 10118 20086 38211 40124 5//// 81040 91138 333 10314 20106 30008 56020 58/// 70000 81360;","Q01  00002PRCP06"
"76373099999","2004-07-12T15:00:00","4","25.35","-105.75","1967.0","TEPEHUANES DGO., MX","FM-12","99999","V020","999,9,C,0000,1","22000,1,9,N","070000,1,N,1","+0146,1","+0090,1","10154,1","06,0000,9,1",,,,,"01,1,+00300,9,08,9",,,"03,99,1,01,1,01,1,99999,9,03,1,00,1","01,9",,,,"99999,9,08226,1","1,1,015,1,+012,1",,"SYN106AAXX  12151 76373 32988 30000 10146 20090 38226 40154 51015 81130 91438 333 30/// 56220 58012 81810 82360;","Q01  00002PRCP06"
"76373099999","2004-07-12T18:00:00","4","25.35","-105.75","1967.0","TEPEHUANES DGO., MX","FM-12","99999","V020","150,1,N,0010,1","22000,1,9,N","070000,1,N,1","+0246,1","+0102,1","10130,1","06,0000,9,1",,,,,"02,1,+00300,9,09,9","01,1,+03000,9,03,9",,"03,99,1,02,1,03,1,00450,1,03,1,02,1","01,9",,"120,M,+0268,1","240,N,+0104,1","99999,9,08215,1","6,1,011,1,+001,1",,"SYN124AAXX  12181 76373 32488 31501 10246 20102 38215 40130 56011 82332 91740 333 10268 20104 30/// 56222 58001 82910 81360 82070;","Q01  00002PRCP06"
"76373099999","2004-07-12T21:00:00","4","25.35","-105.75","1967.0","TEPEHUANES DGO., MX","FM-12","99999","V020","120,1,N,0060,1","03600,1,C,N","070000,1,N,1","+0286,1","+0073,1","10076,1","06,0000,9,1",,,,,"04,1,+00300,9,09,9",,,"06,99,1,04,1,09,1,00450,1,03,1,00,1","01,9",,,,"99999,9,08191,1","6,1,024,1,-008,1",,"SYN106AAXX  12211 76373 32488 61206 10286 20073 38191 40076 56024 84930 92040 333 30/// 56220 59008 84910 82360;","Q01  00002PRCP06"
"76373099999","2004-07-13T00:00:00","4","25.35","-105.75","1967.0","TEPEHUANES DGO., MX","FM-12","99999","V020","120,1,N,0020,1","03600,1,9,N","070000,1,N,1","+0254,1","+0099,1","10050,1","06,0000,9,1","24,0000,9,1",,,,"03,1,+00600,9,09,9",,,"08,99,1,03,1,09,1,00250,1,07,1,00,1","01,9",,"120,M,+0316,1","180,N,+0104,1","99999,9,08191,1","4,1,000,1,-004,1",,"SYN130AAXX  13001 76373 32388 81202 10254 20099 38191 40050 54000 83970 92340 333 10316 20104 30/// 50750 56660 59004 70000 83920 85360;","Q01  00002PRCP06"
"76373099999","2004-07-13T12:00:00","4","25.35","-105.75","1967.0","TEPEHUANES DGO., MX","FM-12","99999","V020","999,9,C,0000,1","00300,1,9,N","020000,1,N,1","+0168,1","+0132,1","10115,1","12,0000,2,1","24,0000,2,1",,"2,1,06,1","2,1,06,1","08,1,+00300,9,07,9",,,"08,99,1,08,1,07,1,00450,1,00,1,00,1","09,9","999,+0130,9","999,M,+0316,1","120,N,+0154,1","99999,9,08222,1","9,9,999,9,+011,1","50,1","SYN136AAXX  13121 76373 01470 80000 10168 20132 38222 40115 5//// 69902 75022 88700 91138 333 10316 20154 31013 56200 58011 69902 79999 88710;",
"76373099999","2004-07-13T15:00:00","4","25.35","-105.75","1967.0","TEPEHUANES DGO., MX","FM-12","99999","V020","999,9,C,0000,1","00300,1,9,N","070000,1,N,1","+0174,1","+0140,1","10132,1","06,0000,2,1",,,,,"08,1,+00300,9,07,9",,,"08,99,1,08,1,07,1,00450,1,00,1,00,1","01,9",,,,"99999,9,08231,1","1,1,009,1,+005,1",,"SYN100AAXX  13151 76373 32488 80000 10174 20140 38231 40132 51009 88700 91430 333 30/// 56200 58005 88710;",
"76373099999","2004-07-13T18:00:00","4","25.35","-105.75","1967.0","TEPEHUANES DGO., MX","FM-12","99999","V020","120,1,N,0020,1","09000,1,C,N","070000,1,N,1","+0242,1","+0144,1","10128,1","06,0000,2,1",,,,,"04,1,+00300,9,06,9",,,"08,99,1,04,1,06,1,00450,1,00,1,08,1","01,9",,"120,M,+0260,1","240,N,+0152,1","99999,9,08231,1","4,1,000,1,+016,1",,"SYN118AAXX  13181 76373 32488 81202 10242 20144 38231 40128 54000 84608 91738 333 10260 20152 30/// 56202 58016 84610 86270;",
"76373099999","2004-07-13T21:00:00","4","25.35","-105.75","1967.0","TEPEHUANES DGO., MX","FM-12","99999","V020","150,1,N,0040,1","00300,1,9,N","070000,1,N,1","+0238,1","+0136,1","10100,1","06,0000,9,1",,,,,"08,1,+00300,9,09,9",,,"08,99,1,08,1,06,1,00450,1,00,1,00,1","01,9",,,,"99999,9,08218,1","6,1,013,1,+027,1",,"SYN100AAXX  13211 76373 32488 81504 10238 20136 38218 40100 56013 88600 92035 333 30/// 56200 58027 88910;","Q01  00002PRCP06"
"76373099999","2004-07-14T12:00:00","4","25.35","-105.75","1967.0","TEPEHUANES DGO., MX","FM-12","99999","V020","999,9,C,0000,1","00300,1,9,N","001000,1,N,1","+0156,1","+0146,1","10152,1","12,0150,9,1","24,0151,9,1",,"5,1,06,1","5,1,06,1","08,1,+00300,9,07,9",,,"08,99,1,08,1,07,1,00450,1,99,9,99,9","09,9","999,+0150,9","999,M,+0284,1","120,N,+0148,1","99999,9,08236,1","9,9,999,9,+014,1","51,1","SYN136AAXX  14121 76373 01410 80000 10156 20146 38236 40152 5//// 60152 75155 887// 91130 333 10284 20148 31015 56/// 58014 60152 70151 88710;",
"76373099999","2004-07-14T15:00:00","4","25.35","-105.75","1967.0","TEPEHUANES DGO., MX","FM-12","99999","V020","999,9,C,0000,1","00300,1,9,N","020000,1,N,1","+0162,1","+0147,1","10169,1","03,0020,9,1",,,"5,1,03,1","5,1,03,1","08,1,+00300,9,09,9",,,"08,99,1,08,1,07,1,00450,1,99,9,99,9","09,9",,,,"99999,9,08249,1","2,1,013,1,+018,1","51,1","SYN112AAXX  14151 76373 22470 80000 10162 20147 38249 40169 52013 75155 887// 91430 333 31/// 564// 58018 60027 88910;",
"76373099999","2004-07-14T18:00:00","4","25.35","-105.75","1967.0","TEPEHUANES DGO., MX","FM-12","99999","V020","999,9,C,0000,1","00300,1,9,N","030000,1,N,1","+0184,1","+0144,1","10172,1","03,9999,2,9",,,"5,1,06,1","5,1,06,1","08,1,+00300,9,06,9",,,"08,99,1,08,1,06,1,00250,1,00,1,00,1","09,9",,"120,M,+0192,1","240,N,+0148,1","99999,9,08254,1","7,1,005,1,+023,1","02,1","SYN124AAXX  14181 76373 21380 80000 10184 20144 38254 40172 57005 70255 88600 91740 333 10192 20148 31/// 56300 58023 69907 88610;",
"76373099999","2004-07-14T21:00:00","4","25.35","-105.75","1967.0","TEPEHUANES DGO., MX","FM-12","99999","V020","999,9,C,0000,1","00300,1,9,N","030000,1,N,1","+0198,1","+0131,1","10150,1","06,0000,2,1",,,,,"08,1,+00300,9,07,9",,,"08,99,1,08,1,05,1,00450,1,99,9,99,9","09,9",,,,"99999,9,08240,1","7,1,014,1,+022,1",,"SYN100AAXX  14211 76373 32480 80000 10198 20131 38240 40150 57014 885// 92035 333 31/// 567// 58022 88710;",
"76373099999","2004-07-15T12:00:00","4","25.35","-105.75","1967.0","TEPEHUANES DGO., MX","FM-12","99999","V020","250,1,N,0010,1","00300,1,9,N","010000,1,N,1","+0154,1","+0136,1","10134,1","12,0000,9,1","24,0000,2,1",,,,"08,1,+00300,9,07,9",,,"08,99,1,08,1,07,1,00450,1,00,1,00,1","01,9","999,+0140,9","999,M,+0230,1","120,N,+0148,1","99999,9,08225,1","9,9,999,9,-011,1",,"SYN130AAXX  15121 76373 02460 82501 10154 20136 38225 40134 5//// 69902 88700 91135 333 10230 20148 30014 56200 59011 69902 79999 88710;","Q01  00002PRCP12"
"76373099999","2004-07-15T15:00:00","4","25.35","-105.75","1967.0","TEPEHUANES DGO., MX","FM-12","99999","V020","320,1,N,0010,1","22000,1,9,N","070000,1,N,1","+0196,1","+0121,1","10149,1","06,0000,9,1",,,,,"04,1,+03000,9,03,9",,,"04,99,1,04,1,00,1,01250,1,03,1,00,1","01,9",,,,"99999,9,08236,1","2,1,011,1,-013,1",,"SYN100AAXX  15151 76373 32688 43201 10196 20121 38236 40149 52011 84030 91438 333 30/// 56020 59013 84360;","Q01  00002PRCP06"
"76373099999","2004-07-15T18:00:00","4","25.35","-105.75","1967.0","TEPEHUANES DGO., MX","FM-12","99999","V020","100,1,N,0030,1","22000,1,9,N","070000,1,N,1","+0252,1","+0129,1","10143,1","06,0000,9,1",,,,,"02,1,+00300,9,09,9","02,1,+00300,9,08,9",,"04,99,1,02,1,03,1,00450,1,03,1,00,1","01,9",,"120,M,+0270,1","240,N,+0148,1","99999,9,08229,1","6,1,007,1,-025,1",,"SYN124AAXX  15181 76373 32488 41003 10252 20129 38229 40143 56007 82330 91740 333 10270 20148 30/// 56220 59025 82910 82810 81360;","Q01  00002PRCP06"
"76373099999","2004-07-15T21:00:00","4","25.35","-105.75","1967.0","TEPEHUANES DGO., MX","FM-12","99999","V020","140,1,N,0050,1","00300,1,9,N","070000,1,N,1","+0280,1","+0077,1","10078,2","06,0000,9,1",,,,,"05,1,+00300,9,09,9",,,"07,99,1,05,1,03,1,00450,1,00,1,00,1","01,9",,,,"99999,9,08205,1","7,1,024,1,-035,1",,"SYN106AAXX  15211 76373 32488 71405 10280 20077 38205 40078 57024 85300 92035 333 30/// 56200 59035 85910 82810;","Q01+100783APOSLPQ02  00002PRCP06"
"76373099999","2004-07-16T12:00:00","4","25.35","-105.75","1967.0","TEPEHUANES DGO., MX","FM-12","99999","V020","999,9,C,0000,1","22000,1,9,N","030000,1,N,1","+0122,1","+0104,1","10107,1","06,0000,9,1","24,0000,9,1",,,,"00,1,+99999,9,99,9",,,"00,99,1,00,1,00,1,99999,9,00,1,00,1","01,9","999,+0090,9","999,M,+0312,1","120,N,+0102,1","99999,9,08206,1","9,9,999,9,-019,1",,"SYN100AAXX  16121 76373 32980 00000 10122 20104 38206 40107 5//// 91130 333 10312 20102 30009 59019 70000;","Q01  00002PRCP06Q02  00002PRCP24"
"76373099999","2004-07-16T21:00:00","4","25.35","-105.75","1967.0","TEPEHUANES DGO., MX","FM-12","99999","V020","110,1,N,0030,1","22000,1,9,N","070000,1,N,1","+0288,1","+0066,1","10083,1","06,0000,9,1",,,,,"04,1,+00300,9,09,9","02,1,+00300,9,08,9",,"07,99,1,04,1,03,1,00450,1,00,1,01,1","01,9",,,,"99999,9,08198,1","7,1,016,1,-007,1",,"SYN112AAXX  16211 76373 32488 71103 10288 20066 38198 40083 57016 84301 92035 333 30/// 56202 59007 84910 82810 81090;","Q01  00002PRCP06"
"76373099999","2004-07-17T00:00:00","4","25.35","-105.75","1967.0","TEPEHUANES DGO., MX","FM-12","99999","V020","120,1,N,0040,1","99999,9,9,N","070000,1,N,1","+0300,1","+0040,1","10027,1","06,0000,9,1","24,0000,9,1",,,,"04,1,+00300,9,09,9",,,"06,99,1,04,1,03,1,00450,1,00,1,00,1","01,9",,"120,M,+0330,1","180,N,+0108,1","99999,9,08177,1","7,1,021,1,-017,1",,"SYN130AAXX  17001 76373 32488 61204 10300 20040 38177 40027 57021 84300 92340 333 10330 20108 30/// 50570 56200 59017 70000 84910 82810;","Q01  00002PRCP06"
"76373099999","2004-07-19T18:00:00","4","25.35","-105.75","1967.0","TEPEHUANES DGO., MX","FM-12","99999","V020","150,1,N,0010,1","22000,1,9,N","070000,1,N,1","+0282,1","+0115,1","10112,1","06,0000,9,1",,,,,"02,1,+00300,9,08,9",,,"03,99,1,02,1,01,1,00450,1,00,1,02,1","01,9",,"120,M,+0302,1","240,N,+0122,1","99999,9,08223,1","6,1,011,1,+999,9",,"SYN118AAXX  19181 76373 32488 31501 10282 20115 38223 40112 56011 82102 91750 333 10302 20122 30/// 56202 58/// 82810 81070;","Q01  00002PRCP06"
"76373099999","2004-07-19T21:00:00","4","25.35","-105.75","1967.0","TEPEHUANES DGO., MX","FM-12","99999","V020","060,1,N,0040,1","22000,1,9,N","070000,1,N,1","+0322,1","+0096,1","10072,1","06,0000,9,1",,,,,"03,1,+00300,9,08,9",,,"03,99,1,03,1,01,1,00450,1,00,1,00,1","01,9",,,,"99999,9,08204,1","6,1,019,1,+999,9",,"SYN100AAXX  19211 76373 32488 30604 10322 20096 38204 40072 56019 83100 92055 333 30/// 56200 58/// 83810;","Q01  00002PRCP06"
"76373099999","2004-07-20T15:00:00","4","25.35","-105.75","1967.0","TEPEHUANES DGO., MX","FM-12","99999","V020","300,1,N,0010,1","22000,1,9,N","070000,1,N,1","+0206,1","+0119,1","10103,1","06,0000,9,1",,,,,"03,1,+03000,9,03,9",,,"03,99,1,03,1,00,1,01250,1,03,1,00,1","01,9",,,,"99999,9,08223,1","9,9,999,9,-011,1",,"SYN100AAXX  20151 76373 32688 33001 10206 20119 38223 40103 5//// 83030 91440 333 30/// 56020 59011 83360;","Q01  00002PRCP06"
"76373099999","2004-07-20T18:00:00","4","25.35","-105.75","1967.0","TEPEHUANES DGO., MX","FM-12","99999","V020","090,1,N,0020,1","03600,1,C,N","070000,1,N,1","+0290,1","+0087,1","10094,1","06,0000,9,1",,,,,"01,1,+00300,9,09,9","03,1,+00300,9,08,9",,"05,99,1,03,1,02,1,00450,1,03,1,00,1","01,9",,"120,M,+0320,1","240,N,+0148,1","99999,9,08219,1","6,1,004,1,-004,1",,"SYN124AAXX  20181 76373 32488 50902 10290 20087 38219 40094 56004 83230 91750 333 10320 20148 30/// 56220 59004 83810 81910 81360;","Q01  00002PRCP06"
"76373099999","2004-07-21T00:00:00","4","25.35","-105.75","1967.0","TEPEHUANES DGO., MX","FM-12","99999","V020","180,1,N,0020,1","03600,1,9,N","070000,1,N,1","+0288,1","+0084,1","10028,1","06,0000,9,1","24,0000,9,1",,,,"02,1,+00300,9,09,9","01,1,+00300,9,08,9",,"06,99,1,02,1,03,1,00450,1,03,1,00,1","01,9",,"120,M,+0350,1","180,N,+0148,1","99999,9,08183,1","6,1,010,1,+005,1",,"SYN136AAXX  21001 76373 32488 61802 10288 20084 38183 40028 56010 82330 92345 333 10350 20148 30/// 50760 56220 58005 70000 82910 81810 83360;","Q01  00002PRCP06"
"76373099999","2004-07-21T15:00:00","4","25.35","-105.75","1967.0","TEPEHUANES DGO., MX","FM-12","99999","V020","999,9,C,0000,1","06000,1,9,N","070000,1,N,1","+0176,1","+0132,1","10101,1","06,0000,9,1",,,,,"08,1,+06000,9,02,9",,,"08,99,1,00,1,00,1,99999,9,00,1,08,1","01,9",,,,"99999,9,08216,1","9,9,999,9,-007,1",,"SYN100AAXX  21151 76373 32988 80000 10176 20132 38216 40101 5//// 80008 91435 333 30/// 56002 59007 88270;","Q01  00002PRCP06"
"76373099999","2004-07-21T18:00:00","4","25.35","-105.75","1967.0","TEPEHUANES DGO., MX","FM-12","99999","V020","120,1,N,0010,1","06000,1,9,N","070000,1,N,1","+0264,1","+0125,1","10100,1","06,0000,9,1",,,,,"02,1,+00300,9,09,9","08,1,+06000,9,02,9",,"08,99,1,02,1,03,1,00450,1,00,1,07,1","01,9",,"120,M,+0280,1","240,N,+0128,1","99999,9,08215,1","7,1,001,1,-004,1",,"SYN124AAXX  21181 76373 32488 81201 10264 20125 38215 40100 57001 82307 91738 333 10280 20128 30/// 56202 59004 82910 88270 99020;","Q01  00002PRCP06"
"76373099999","2004-07-21T21:00:00","4","25.35","-105.75","1967.0","TEPEHUANES DGO., MX","FM-12","99999","V020","210,1,N,0010,1","06000,1,9,N","070000,1,N,1","+0288,1","+0110,1","10058,1","06,0000,9,1",,,,,"03,1,+00300,9,09,9","08,1,+06000,9,02,9",,"08,99,1,03,1,03,1,00450,1,00,1,07,1","01,9",,,,"99999,9,08191,1","6,1,024,1,-002,1",,"SYN112AAXX  21211 76373 32488 82101 10288 20110 38191 40058 56024 83307 92040 333 30/// 56202 59002 83910 88270 99020;","Q01  00002PRCP06"
"76373099999","2004-07-22T00:00:00","4","25.35","-105.75","1967.0","TEPEHUANES DGO., MX","FM-12","99999","V020","150,1,N,0020,1","99999,9,9,N","070000,1,N,1","+0284,1","+0113,1","10021,1","06,9999,9,9",,,"5,1,06,1","5,1,06,1",,,,"06,99,1,99,9,99,9,00450,1,99,9,99,9",,,,,"99999,9,08176,1","6,1,015,1,+999,9","01,1","SYN072AAXX  22001 76373 01488 61502 10284 20113 38176 40021 56015 69901 70155;",
"76373099999","2004-07-22T12:00:00","4","25.35","-105.75","1967.0","TEPEHUANES DGO., MX","FM-12","99999","V020","999,9,C,0000,1","99999,9,9,N","003000,1,N,1","+0156,1","+0143,1","10092,1","12,0130,9,1",,,"5,1,06,1","5,1,06,1",,,,"08,99,1,99,9,99,9,00450,1,99,9,99,9",,,,,"99999,9,08204,1",,"51,1","SYN072AAXX  22121 76373 01430 80000 10156 20143 38204 40092 5//// 60132 75155;",
"76373099999","2004-07-22T15:00:00","4","25.35","-105.75","1967.0","TEPEHUANES DGO., MX","FM-12","99999","V020","999,9,C,0000,1","00300,1,9,N","070000,1,N,1","+0164,1","+0151,1","10116,1","03,0020,9,1",,,"5,1,03,1","5,1,03,1","08,1,+00300,9,07,9",,,"08,99,1,08,1,07,1,00450,1,99,9,99,9","09,9",,,,"99999,9,08213,1","1,1,009,1,-003,1","50,1","SYN112AAXX  22151 76373 21488 80000 10164 20151 38213 40116 51009 75055 887// 91435 333 31/// 562// 59003 60027 88710;",
"76373099999","2004-07-22T21:00:00","4","25.35","-105.75","1967.0","TEPEHUANES DGO., MX","FM-12","99999","V020","130,1,N,0020,1","00300,1,9,N","070000,1,N,1","+0226,1","+0132,1","10070,1","03,9999,2,9",,,"9,1,03,1","9,1,03,1","07,1,+00300,9,09,9",,,"07,99,1,07,1,07,1,00450,1,00,1,00,1","09,9",,,,"99999,9,08186,1","8,1,016,1,-005,1","50,1","SYN112AAXX  22211 76373 21488 71302 10226 20132 38186 40070 58016 75099 87700 92035 333 31/// 56200 59005 69907 87910;",
"76373099999","2004-07-23T00:00:00","4","25.35","-105.75","1967.0","TEPEHUANES DGO., MX","FM-12","99999","V020","330,1,N,0030,1","00420,1,9,N","020000,1,N,1","+0188,1","+0155,1","10055,1","03,9999,2,9","06,9999,9,9","24,0144,9,1","9,1,06,1","9,1,06,1",,,,"08,99,1,08,1,07,1,00450,1,00,1,00,1","09,9",,"120,M,+0278,1","180,N,+0146,1","99999,9,08181,1","7,1,005,1,+005,1","50,1","SYN142AAXX  23001 76373 01470 83303 10188 20155 38181 40055 57005 69901 75099 88700 92330 333 10278 20146 31/// 50770 56200 58005 69907 70144 88910;",
"76373099999","2004-07-23T12:00:00","4","25.35","-105.75","1967.0","TEPEHUANES DGO., MX","FM-12","99999","V020","999,9,C,0000,1","22000,1,9,N","020000,1,N,1","+0160,1","+0150,1","10086,1","06,0010,9,1","12,0010,9,1","24,0014,9,1",,,"01,1,+00300,9,08,9",,,"04,99,1,01,1,01,1,00450,1,03,1,00,1","09,9","999,+0140,9","999,M,+0278,1","120,N,+0158,1","99999,9,08193,1","9,9,999,9,-011,1",,"SYN136AAXX  23121 76373 02470 40000 10160 20150 38193 40086 5//// 60012 81130 91145 333 10278 20158 31014 56220 59011 60011 70014 81810 83360;",
"76373099999","2004-07-23T15:00:00","4","25.35","-105.75","1967.0","TEPEHUANES DGO., MX","FM-12","99999","V020","999,9,C,0000,1","03600,1,C,N","070000,1,N,1","+0180,1","+0152,1","10102,1","06,0000,9,1",,,,,"04,1,+00300,9,09,9",,,"07,99,1,04,1,03,1,00450,1,03,1,00,1","09,9",,,,"99999,9,08200,1","1,1,007,1,-013,1",,"SYN106AAXX  23151 76373 32488 70000 10180 20152 38200 40102 51007 84330 91430 333 31/// 56660 59013 84910 83360;","Q01  00002PRCP06"
"76373099999","2004-07-23T18:00:00","4","25.35","-105.75","1967.0","TEPEHUANES DGO., MX","FM-12","99999","V020","320,1,N,0010,1","03600,1,C,N","070000,1,N,1","+0234,1","+0128,1","10089,1","06,0000,9,1",,,,,"03,1,+00300,9,09,9",,,"07,99,1,03,1,03,1,00450,1,03,1,00,1","01,9",,"120,M,+0256,1","240,N,+0140,1","99999,9,08197,1","6,1,003,1,-005,1",,"SYN118AAXX  23181 76373 32488 73201 10234 20128 38197 40089 56003 83330 91735 333 10256 20140 30/// 56660 59005 83910 84360;","Q01  00002PRCP06"
"76373099999","2004-07-23T21:00:00","4","25.35","-105.75","1967.0","TEPEHUANES DGO., MX","FM-12","99999","V020","310,1,N,0020,1","00300,1,9,N","070000,1,N,1","+0258,1","+0121,1","10059,1","06,0000,9,1",,,,,"06,1,+00300,9,07,9",,,"06,99,1,06,1,07,1,00450,1,00,1,00,1","01,9",,,,"99999,9,08182,1","6,1,015,1,-004,1",,"SYN100AAXX  23211 76373 32488 63102 10258 20121 38182 40059 56015 86700 92035 333 30/// 56600 59004 86710;","Q01  00002PRCP06"
"76373099999","2004-07-26T15:00:00","4","25.35","-105.75","1967.0","TEPEHUANES DGO., MX","FM-12","99999","V020","300,1,N,0010,1","22000,1,9,N","070000,1,N,1","+0182,1","+0136,1","10162,1","06,0000,9,1",,,,,"02,1,+00025,9,00,9",,,"02,99,1,00,1,00,1,99999,9,00,1,02,1","01,9",,,,"99999,9,08238,1","2,1,009,1,+999,9",,"SYN100AAXX  26151 76373 32988 23001 10182 20136 38238 40162 52009 80002 91445 333 30/// 56006 58/// 82090;","Q01  00002PRCP06"
"76373099999","2004-07-26T18:00:00","4","25.35","-105.75","1967.0","TEPEHUANES DGO., MX","FM-12","99999","V020","120,1,N,0030,1","22000,1,9,N","070000,1,N,1","+0254,1","+0132,1","10128,1","06,0000,9,1",,,,,"03,1,+00300,9,09,9",,,"03,99,1,03,1,03,1,00450,1,00,1,00,1","01,9",,"120,M,+0276,1","240,N,+0134,1","99999,9,08227,1","6,1,011,1,+999,9",,"SYN112AAXX  26181 76373 32488 31203 10254 20132 38227 40128 56011 83300 91736 333 10276 20134 30/// 56200 58/// 83910;","Q01  00002PRCP06"
"76373099999","2004-07-26T21:00:00","4","25.35","-105.75","1967.0","TEPEHUANES DGO., MX","FM-12","99999","V020","120,1,N,0030,1","00300,1,9,N","070000,1,N,1","+0284,1","+0125,1","10083,1","06,0000,9,1",,,,,"06,1,+00300,9,07,9",,,"06,99,1,06,1,06,1,00450,1,00,1,00,1","01,9",,,,"99999,9,08207,1","7,1,020,1,+999,9",,"SYN100AAXX  26211 76373 32488 61203 10284 20125 38207 40083 57020 86600 92040 333 30/// 56200 58/// 86710;","Q01  00002PRCP06"
"76373099999","2004-07-27T00:00:00","4","25.35","-105.75","1967.0","TEPEHUANES DGO., MX","FM-12","99999","V020","310,1,N,0050,1","03600,1,9,N","070000,1,N,1","+0228,1","+0123,1","10075,1","06,0000,9,1","24,0029,9,1",,,,"04,1,+00300,9,07,9",,,"07,99,1,04,1,06,1,00450,1,02,1,00,1","01,9",,"120,M,+0316,1","180,N,+0134,1","99999,9,08205,1","5,1,002,1,+999,9",,"SYN130AAXX  27001 76373 32488 73105 10228 20123 38205 40075 55002 84620 92340 333 10316 20134 30/// 50670 56220 58/// 70029 84710 83560;","Q01  00002PRCP06"
"76373099999","2004-07-27T12:00:00","4","25.35","-105.75","1967.0","TEPEHUANES DGO., MX","FM-12","99999","V020","999,9,C,0000,1","22000,1,9,N","030000,1,N,1","+0142,1","+0126,1","10126,1","06,0000,9,1","24,0000,9,1",,,,"02,1,+00025,9,00,9",,,"02,99,1,00,1,00,1,99999,9,00,1,06,1","01,9","999,+0120,9","999,M,+0316,1","120,N,+0134,1","99999,9,08223,1","9,9,999,9,-006,1",,"SYN118AAXX  27121 76373 32980 20000 10142 20126 38223 40126 5//// 80006 91140 333 10316 20134 30012 56002 59006 70000 82090;","Q01  00002PRCP06"
"76373099999","2004-07-27T15:00:00","4","25.35","-105.75","1967.0","TEPEHUANES DGO., MX","FM-12","99999","V020","340,1,N,0010,1","22000,1,9,N","070000,1,N,1","+0170,1","+0129,1","10148,1","06,0000,9,1",,,,,"03,1,+00025,9,00,9",,,"03,99,1,00,1,00,1,99999,9,00,1,02,1","01,9",,,,"99999,9,08234,1","2,1,011,1,-004,1",,"SYN100AAXX  27151 76373 32988 33401 10170 20129 38234 40148 52011 80002 91435 333 30/// 56002 59004 83090;","Q01  00002PRCP06"
"76373099999","2004-07-27T18:00:00","4","25.35","-105.75","1967.0","TEPEHUANES DGO., MX","FM-12","99999","V020","120,1,N,0020,1","22000,1,9,N","070000,1,N,1","+0252,1","+0132,1","10122,1","06,0000,9,1",,,,,"03,1,+00300,9,09,9",,,"03,99,1,03,1,03,1,00450,1,00,1,00,1","01,9",,"120,M,+0262,1","240,N,+0132,1","99999,9,08220,1","6,1,014,1,-007,1",,"SYN112AAXX  27181 76373 32488 31202 10252 20132 38220 40122 56014 83300 91740 333 10262 20132 30/// 56200 59007 83910;","Q01  00002PRCP06"
"76373099999","2004-07-27T21:00:00","4","25.35","-105.75","1967.0","TEPEHUANES DGO., MX","FM-12","99999","V020","300,1,N,0060,1","00300,1,9,N","070000,1,N,1","+0256,1","+0119,1","10086,1","06,0000,9,1",,,,,"07,1,+00300,9,07,9",,,"07,99,1,07,1,07,1,00450,1,00,1,00,1","01,9",,,,"99999,9,08206,1","6,1,014,1,-001,1",,"SYN100AAXX  27211 76373 32488 73006 10256 20119 38206 40086 56014 87700 92040 333 30/// 56200 59001 87710;","Q01  00002PRCP06"
"76373099999","2004-07-28T00:00:00","4","25.35","-105.75","1967.0","TEPEHUANES DGO., MX","FM-12","99999","V020","320,1,N,0020,1","99999,9,9,N","070000,1,N,1","+0238,1","+0106,1","10063,1","00,9999,9,9","06,0000,9,2","24,0000,9,1",,,"04,1,+00300,9,09,9",,,"08,99,1,99,9,99,9,00450,1,99,9,99,9","01,9",,"120,M,+0302,1","180,N,+0132,1","99999,9,08200,1","8,1,006,1,-005,1",,"SYN130AAXX  28001 76373 32488 83202 10238 20106 38200 40063 58006 64920 92335 333 10302 20132 30/// 50680 56220 59005 70000 84910 84560;","Q01  00002PRCP06Q02  49202PRCP00"
"76373099999","2004-07-28T12:00:00","4","25.35","-105.75","1967.0","TEPEHUANES DGO., MX","FM-12","99999","V020","999,9,C,0000,1","22000,1,9,N","030000,1,N,1","+0148,1","+0129,1","10119,1","06,0000,9,1","24,0000,9,1",,,,"01,1,+03000,9,03,9",,,"01,99,1,01,1,00,1,01250,1,04,1,00,1","01,9","999,+0120,9","999,M,+0302,1","120,N,+0142,1","99999,9,08223,1","9,9,999,9,+000,1",,"SYN118AAXX  28121 76373 32680 10000 10148 20129 38223 40119 5//// 81040 91135 333 10302 20142 30012 56020 58000 70000 81360;","Q01  00002PRCP06"
"76373099999","2004-07-28T15:00:00","4","25.35","-105.75","1967.0","TEPEHUANES DGO., MX","FM-12","99999","V020","999,9,C,0000,1","22000,1,9,N","070000,1,N,1","+0168,1","+0121,1","10146,1","06,0000,9,1",,,,,"02,1,+00025,9,00,9",,,"02,99,1,00,1,00,1,99999,9,00,1,02,1","01,9",,,,"99999,9,08235,1","1,1,012,1,+001,1",,"SYN100AAXX  28151 76373 32988 20000 10168 20121 38235 40146 51012 80002 91440 333 30/// 56002 58001 82090;","Q01  00002PRCP06"
"76373099999","2004-07-28T18:00:00","4","25.35","-105.75","1967.0","TEPEHUANES DGO., MX","FM-12","99999","V020","120,1,N,0010,1","09000,1,9,N","070000,1,N,1","+0242,1","+0126,1","10122,1","06,0000,9,1",,,,,"04,1,+00300,9,09,9",,,"06,99,1,04,1,06,1,00450,1,00,1,02,1","01,9",,"120,M,+0270,1","240,N,+0132,1","99999,9,08226,1","7,1,014,1,+006,1",,"SYN118AAXX  28181 76373 32488 61201 10242 20126 38226 40122 57014 84602 91740 333 10270 20132 30/// 56707 58006 84910 82090;","Q01  00002PRCP06"
"76373099999","2004-07-28T21:00:00","4","25.35","-105.75","1967.0","TEPEHUANES DGO., MX","FM-12","99999","V020","310,1,N,0030,1","09000,1,9,N","070000,1,N,1","+0278,1","+0105,1","10069,1","06,0000,9,1",,,,,"02,1,+00300,9,09,9","02,1,+00300,9,08,9",,"06,99,1,02,1,03,1,00450,1,00,1,08,1","01,9",,,,"99999,9,08193,1","6,1,028,1,-013,1",,"SYN112AAXX  28211 76373 32488 63103 10278 20105 38193 40069 56028 82308 92043 333 30/// 56707 59013 82910 82810 82290;","Q01  00002PRCP06"
"76373099999","2004-07-29T00:00:00","4","25.35","-105.75","1967.0","TEPEHUANES DGO., MX","FM-12","99999","V020","310,1,N,0030,1","99999,9,9,N","070000,1,N,1","+0264,1","+0113,1","10031,1","06,9999,9,9",,,"2,1,06,1","2,1,06,1",,,,"08,99,1,99,9,99,9,00450,1,99,9,99,9",,,,,"99999,9,08180,1","5,1,013,1,+999,9","91,1","SYN072AAXX  29001 76373 01488 83103 10264 20113 38180 40031 55013 69901 79122;",
"76373099999","2004-07-29T12:00:00","4","25.35","-105.75","1967.0","TEPEHUANES DGO., MX","FM-12","99999","V020","999,9,C,0000,1","00300,1,9,N","015000,1,N,1","+0158,1","+0155,1","10126,1","06,0020,9,1","12,0790,9,1","24,0793,9,1",,,"08,1,+00300,9,07,9",,,"08,99,1,08,1,07,1,00450,1,99,9,99,9","09,9","999,+0130,9","999,M,+0324,1","120,N,+0152,1","99999,9,08217,1","9,9,999,9,-006,1",,"SYN130AAXX  29121 76373 32465 80000 10158 20155 38217 40126 5//// 60792 887// 91140 333 10324 20152 31013 56/// 59006 60021 70793 88710;",
"76373099999","2004-07-29T15:00:00","4","25.35","-105.75","1967.0","TEPEHUANES DGO., MX","FM-12","99999","V020","999,9,C,0000,1","00900,1,9,N","070000,1,N,1","+0168,1","+0155,1","10132,1","06,0000,9,1",,,,,"08,1,+00900,9,06,9",,,"08,99,1,08,1,05,1,00450,1,00,1,00,1","09,9",,,,"99999,9,08221,1","3,1,004,1,-014,1",,"SYN100AAXX  29151 76373 32488 80000 10168 20155 38221 40132 53004 88500 91440 333 31/// 56600 59014 88630;","Q01  00002PRCP06"
"76373099999","2004-07-29T18:00:00","4","25.35","-105.75","1967.0","TEPEHUANES DGO., MX","FM-12","99999","V020","999,9,C,0000,1","09000,1,9,N","070000,1,N,1","+0228,1","+0134,1","10117,1","06,0000,9,1",,,,,"02,1,+00300,9,09,9","02,1,+00300,9,08,9",,"06,99,1,02,1,03,1,00450,1,00,1,08,1","09,9",,"120,M,+0242,1","240,N,+0152,1","99999,9,08216,1","5,1,005,1,-005,1",,"SYN124AAXX  29181 76373 32488 60000 10228 20134 38216 40117 55005 82308 91740 333 10242 20152 31/// 56707 59005 82910 82810 82890;","Q01  00002PRCP06"
"76373099999","2004-07-29T21:00:00","4","25.35","-105.75","1967.0","TEPEHUANES DGO., MX","FM-12","99999","V020","110,1,N,0030,1","00300,1,9,N","070000,1,N,1","+0248,1","+0119,1","10055,2","06,0000,9,1",,,,,"06,1,+00300,9,09,9",,,"06,99,1,06,1,03,1,00450,1,00,1,00,1","09,9",,,,"99999,9,08177,1","7,1,039,1,-016,1",,"SYN100AAXX  29211 76373 32488 61103 10248 20119 38177 40055 57039 86300 92040 333 31/// 56600 59016 86910;","Q01+100553APOSLPQ02  00002PRCP06"
"76373099999","2004-07-30T00:00:00","4","25.35","-105.75","1967.0","TEPEHUANES DGO., MX","FM-12","99999","V020","999,9,C,0000,1","99999,9,9,N","000100,1,N,1","+0166,1","+0153,1","10064,1","06,2581,9,2",,,"2,1,06,1","2,1,06,1",,,,"08,99,1,99,9,99,9,00450,1,99,9,99,9",,,,,"99999,9,08190,1","1,1,013,1,+999,9","91,1","SYN072AAXX  30001 76373 01401 80000 10166 20153 38190 40064 51013 62581 79122;",
"76373099999","2004-07-30T12:00:00","4","25.35","-105.75","1967.0","TEPEHUANES DGO., MX","FM-12","99999","V020","999,9,C,0000,1","00300,1,9,N","015000,1,N,1","+0156,1","+0149,1","10105,1","06,0090,9,2","12,0089,9,2","24,0092,9,1",,,"08,1,+00300,9,07,9",,,"08,99,1,08,1,06,1,00450,1,99,9,99,9","09,9","999,+0140,9","999,M,+0288,1","120,N,+0146,1","99999,9,08198,1","9,9,999,9,-025,1",,"SYN130AAXX  30121 76373 02465 80000 10156 20149 38198 40105 5//// 60092 886// 91135 333 10288 20146 31014 56/// 59025 60091 70092 88710;",
"76373099999","2004-07-30T15:00:00","4","25.35","-105.75","1967.0","TEPEHUANES DGO., MX","FM-12","99999","V020","999,9,C,0000,1","00300,1,9,N","070000,1,N,1","+0164,1","+0144,1","10116,1","03,9999,2,9",,,"5,1,03,1","2,1,03,1","08,1,+00300,9,07,9",,,"08,99,1,08,1,07,1,00450,1,00,1,00,1","09,9",,,,"99999,9,08207,1","2,1,009,1,-014,1","55,1","SYN112AAXX  30151 76373 21488 80000 10164 20144 38207 40116 52009 75552 88700 91440 333 31/// 56200 59014 69907 88710;",
"76373099999","2004-07-30T21:00:00","4","25.35","-105.75","1967.0","TEPEHUANES DGO., MX","FM-12","99999","V020","240,1,N,0020,1","00300,1,9,N","070000,1,N,1","+0210,1","+0167,1","10075,1","01,0050,9,1",,,"2,1,03,1","2,1,03,1","08,1,+00300,9,07,9",,,"08,99,1,08,1,07,1,00450,1,00,1,00,1","09,9",,,,"99999,9,08187,1","6,1,021,1,+010,1","91,1","SYN112AAXX  30211 76373 01488 82402 10210 20167 38187 40075 56021 79122 88700 92030 333 31/// 56200 58010 60055 88710;",
"76373099999","2004-07-31T18:00:00","4","25.35","-105.75","1967.0","TEPEHUANES DGO., MX","FM-12","99999","V020","120,1,N,0020,1","03000,1,9,N","040000,1,N,1","+0228,1","+0155,1","10092,1","06,0000,9,1",,,,,"08,1,+03000,9,03,9",,,"08,99,1,08,1,00,1,00250,1,07,1,00,1","11,9",,"120,M,+0246,1","240,N,+0150,1","99999,9,08198,1","6,1,007,1,-010,1",,"SYN112AAXX  31181 76373 32382 81202 10228 20155 38198 40092 56007 88070 91755 333 10246 20150 32/// 56020 59010 88360;","Q01  00002PRCP06"
"76373099999","2004-08-01T00:00:00","4","25.35","-105.75","1967.0","TEPEHUANES DGO., MX","FM-12","99999","V020","270,1,N,0010,1","00210,1,9,N","070000,1,N,1","+0240,1","+0155,1","10043,1","03,9999,2,9","24,0022,9,1",,"5,1,06,1","5,1,06,1",,,,"07,99,1,07,1,00,1,00250,1,07,1,00,1","09,9",,"120,M,+0263,1","180,N,+0150,1","99999,9,08173,1","9,9,999,9,+002,1","20,1","SYN136AAXX  01001 76373 01388 72701 10240 20155 38173 40043 59907 72055 87070 92350 333 10263 20150 31/// 50850 56020 58002 69907 70022 87360;",
"76373099999","2004-08-01T15:00:00","4","25.35","-105.75","1967.0","TEPEHUANES DGO., MX","FM-12","99999","V020","999,9,C,0000,1","03000,1,9,N","026000,1,N,1","+0170,1","+0155,1","10118,1","18,0099,9,1",,,,,"08,1,+03000,9,05,9",,,"08,99,1,08,1,00,1,00250,1,02,1,00,1","09,9",,,,"99999,9,08219,1","9,9,999,9,+014,1",,"SYN106AAXX  01151 76373 12376 80000 10170 20155 38219 40118 5//// 60103 88020 91440 333 31/// 56020 58014 88560;",
"76373099999","2004-08-01T18:00:00","4","25.35","-105.75","1967.0","TEPEHUANES DGO., MX","FM-12","99999","V020","120,1,N,0030,1","00600,1,9,N","070000,1,N,1","+0228,1","+0150,1","10088,1","06,0000,9,1",,,,,"06,1,+00600,9,06,9",,,"06,99,1,06,1,01,1,00250,1,00,1,00,1","09,9",,"120,M,+0250,1","240,N,+0144,1","99999,9,08196,1","6,1,023,1,+002,1",,"SYN112AAXX  01181 76373 32388 61203 10228 20150 38196 40088 56023 86100 91740 333 10250 20144 31/// 56200 58002 86620;","Q01  00002PRCP06"
"76373099999","2004-08-01T21:00:00","4","25.35","-105.75","1967.0","TEPEHUANES DGO., MX","FM-12","99999","V020","150,1,N,0040,1","00600,1,9,N","070000,1,N,1","+0270,1","+0161,1","10070,1","06,0000,9,1",,,,,"07,1,+00600,9,09,9",,,"07,99,1,07,1,03,1,00250,1,00,1,00,1","01,9",,,,"99999,9,08192,1","6,1,004,1,-001,1",,"SYN100AAXX  01211 76373 32388 71504 10270 20161 38192 40070 56004 87300 92055 333 30/// 56200 59001 87920;","Q01  00002PRCP06"
"76373099999","2004-08-02T00:00:00","4","25.35","-105.75","1967.0","TEPEHUANES DGO., MX","FM-12","99999","V020","270,1,N,0010,1","03600,1,9,N","070000,1,N,1","+0188,1","+0155,1","10085,1","18,0010,9,1","24,0107,9,1",,"5,1,06,1","5,1,06,1","04,1,+00600,9,09,9",,,"08,99,1,04,1,03,1,00250,1,07,1,00,1","09,9",,"120,M,+0286,1","180,N,+0144,1","99999,9,08209,1","2,1,017,1,+036,1","20,1","SYN148AAXX  02001 76373 01388 82701 10188 20155 38209 40085 52017 60013 72055 84370 92350 333 10286 20144 31/// 50100 56220 58036 60013 70107 84920 84360;",
"76373099999","2004-08-02T12:00:00","4","25.35","-105.75","1967.0","TEPEHUANES DGO., MX","FM-12","99999","V020","999,9,C,0000,1","22000,1,9,N","030000,1,N,1","+0150,1","+0145,1","10138,1","12,0120,9,2","24,0117,9,2",,,,"02,1,+03000,9,03,9",,,"02,99,1,02,1,00,1,01250,1,04,1,00,1","09,9","999,+0140,9","999,M,+0286,1","120,N,+0148,1","99999,9,08230,1",,,"SYN130AAXX  02121 76373 02680 20000 10150 20145 38230 40138 5//// 60122 82040 91133 333 10286 20148 31014 56020 58/// 60122 70117 82360;",
"76373099999","2004-08-02T15:00:00","4","25.35","-105.75","1967.0","TEPEHUANES DGO., MX","FM-12","99999","V020","999,9,C,0000,1","00300,1,9,N","015000,1,N,1","+0174,1","+0156,1","10140,1","06,0000,9,1",,,,,"08,1,+00300,9,07,9",,,"08,99,1,08,1,06,1,00450,1,00,1,00,1","09,9",,,,"99999,9,08230,1","0,1,000,1,+021,1",,"SYN100AAXX  02151 76373 32465 80000 10174 20156 38230 40140 50000 88600 91440 333 31/// 56200 58021 88710;","Q01  00002PRCP06"
"76373099999","2004-08-02T18:00:00","4","25.35","-105.75","1967.0","TEPEHUANES DGO., MX","FM-12","99999","V020","110,1,N,0020,1","22000,1,9,N","070000,1,N,1","+0236,1","+0160,1","10132,1","06,0000,9,1",,,,,"08,1,+00600,9,09,9",,,"99,99,9,03,1,03,1,00450,1,00,1,00,1","01,9",,"120,M,+0238,1","240,N,+0144,1","99999,9,08231,1","1,1,001,1,+035,1",,"SYN112AAXX  02181 76373 32488 31102 10236 20160 38231 40132 51001 83300 91740 333 10238 20144 30/// 56200 58035 88920;","Q01+000032SCOTCVQ02  00002PRCP06"
"76373099999","2004-08-02T21:00:00","4","25.35","-105.75","1967.0","TEPEHUANES DGO., MX","FM-12","99999","V020","150,1,N,0060,1","03600,1,C,N","070000,1,N,1","+0268,1","+0144,1","10085,1","06,0000,9,1",,,,,"04,1,+00600,9,09,9",,,"07,99,1,04,1,03,1,00450,1,07,1,00,1","01,9",,,,"99999,9,08207,1","6,1,024,1,+014,1",,"SYN106AAXX  02211 76373 32488 71506 10268 20144 38207 40085 56024 84370 92040 333 30/// 56220 58014 84920 83760;","Q01  00002PRCP06"
"76373099999","2004-08-03T00:00:00","4","25.35","-105.75","1967.0","TEPEHUANES DGO., MX","FM-12","99999","V020","180,1,N,0030,1","00210,1,9,N","070000,1,N,1","+0268,1","+0118,1","10045,1","06,0000,9,1","24,0124,9,1",,,,,,,"06,99,1,06,1,03,1,00250,1,00,1,00,1","01,9",,"120,M,+0298,1","180,N,+0114,1","99999,9,08191,1","6,1,016,1,-018,1",,"SYN124AAXX  03001 76373 32388 61803 10268 20118 38191 40045 56016 86300 92345 333 10298 20114 30/// 50240 56200 59018 70124 86920;","Q01  00002PRCP06"
"76373099999","2004-08-03T12:00:00","4","25.35","-105.75","1967.0","TEPEHUANES DGO., MX","FM-12","99999","V020","999,9,C,0000,1","22000,1,9,N","030000,1,N,1","+0144,1","+9999,9","10097,1","06,0000,9,1","24,0000,9,1",,,,"01,1,+00300,9,09,9","01,1,+03000,9,04,9",,"04,99,1,01,1,03,1,00450,1,04,1,02,1","01,9","999,+0120,9","999,M,+0298,1","120,N,+0130,1","99999,9,08211,1","9,9,999,9,-019,1",,"SYN130AAXX  03121 76373 32480 40000 10144 2//// 38211 40097 5//// 81342 91145 333 10298 20130 30012 56222 59019 70000 81910 81460 82090;","Q01  00002PRCP06"
"76373099999","2004-08-03T15:00:00","4","25.35","-105.75","1967.0","TEPEHUANES DGO., MX","FM-12","99999","V020","999,9,C,0000,1","03600,1,C,N","070000,1,N,1","+0156,1","+9999,9","10131,1","06,0000,9,1",,,,,"02,1,+00300,9,09,9",,,"08,99,1,02,1,03,1,00450,1,05,1,00,1","01,9",,,,"99999,9,08224,1","2,1,014,1,-006,1",,"SYN106AAXX  03151 76373 32488 80000 10156 2//// 38224 40131 52014 82350 91433 333 30/// 56220 59006 82910 86360;","Q01  00002PRCP06"
"76373099999","2004-08-03T18:00:00","4","25.35","-105.75","1967.0","TEPEHUANES DGO., MX","FM-12","99999","V020","300,1,N,0020,1","03600,1,C,N","070000,1,N,1","+0232,1","+0156,1","10121,1","06,0000,9,1",,,,,"01,1,+00300,9,09,9","01,1,+00300,9,08,9",,"05,99,1,01,1,03,1,00450,1,03,1,00,1","01,9",,"120,M,+0240,1","240,N,+0130,1","99999,9,08216,1","6,1,008,1,-014,1",,"SYN124AAXX  03181 76373 32488 53002 10232 20156 38216 40121 56008 81330 91746 333 10240 20130 30/// 56220 59014 81910 81810 83360;","Q01  00002PRCP06"
"76373099999","2004-08-04T12:00:00","4","25.35","-105.75","1967.0","TEPEHUANES DGO., MX","FM-12","99999","V020","300,1,N,0010,1","22000,1,9,N","030000,1,N,1","+0162,1","+9999,9","10099,1","06,0000,9,1","24,0000,9,1",,,,"01,1,+00300,9,08,9",,,"03,99,1,01,1,01,1,00450,1,04,1,00,1","01,9","999,+0140,9","999,M,+0268,1","120,N,+0150,1","99999,9,08210,1","9,9,999,9,-001,1",,"SYN124AAXX  04121 76373 32480 33001 10162 2//// 38210 40099 5//// 81140 91145 333 10268 20150 30014 56220 59001 70000 81810 82360;","Q01  00002PRCP06"
"76373099999","2004-08-04T15:00:00","4","25.35","-105.75","1967.0","TEPEHUANES DGO., MX","FM-12","99999","V020","999,9,C,0000,1","22000,1,9,N","070000,1,N,1","+0180,1","+0149,1","10115,1","06,0000,9,1",,,,,"01,1,+00900,9,08,9",,,"03,99,1,01,1,01,1,00450,1,00,1,02,1","01,9",,,,"99999,9,08215,1","1,1,005,1,-009,1",,"SYN106AAXX  04151 76373 32488 30000 10180 20149 38215 40115 51005 81102 91445 333 30/// 56202 59009 81830 82090;","Q01  00002PRCP06"
"76373099999","2004-08-04T18:00:00","4","25.35","-105.75","1967.0","TEPEHUANES DGO., MX","FM-12","99999","V020","070,1,N,0010,1","03600,1,C,N","070000,1,N,1","+0254,1","+0182,1","10099,1","06,0000,9,1",,,,,"02,1,+00300,9,09,9","02,1,+03000,9,03,9",,"06,99,1,02,1,03,1,00450,1,03,1,02,1","01,9",,"120,M,+0268,1","240,N,+0148,1","99999,9,08210,1","6,1,005,1,-006,1",,"SYN124AAXX  04181 76373 32488 60701 10254 20182 38210 40099 56005 82332 91740 333 10268 20148 30/// 56222 59006 82910 82360 82070;","Q01  00002PRCP06"
"76373099999","2004-08-04T21:00:00","4","25.35","-105.75","1967.0","TEPEHUANES DGO., MX","FM-12","99999","V020","130,1,N,0050,1","03000,1,9,N","070000,1,N,1","+0298,1","+0194,1","10053,1","06,0000,9,1",,,,,"02,1,+00300,9,09,9","03,1,+03000,9,03,9",,"07,99,1,02,1,02,1,00450,1,03,1,02,1","01,9",,,,"99999,9,08188,1","7,1,022,1,-011,1",,"SYN112AAXX  04211 76373 32488 71305 10298 20194 38188 40053 57022 82232 92040 333 30/// 56222 59011 82910 83360 82090;","Q01  00002PRCP06"
"76373099999","2004-08-05T00:00:00","4","25.35","-105.75","1967.0","TEPEHUANES DGO., MX","FM-12","99999","V020","150,1,N,0020,1","00210,1,9,N","070000,1,N,1","+0288,1","+0211,1","10023,1","06,0000,9,1",,,,,,,,"05,99,1,05,1,03,1,00250,1,00,1,00,1","01,9",,"120,M,+0320,1","180,N,+0148,1","99999,9,08181,1","6,1,007,1,-007,1",,"SYN118AAXX  05001 76373 32388 51502 10288 20211 38181 40023 56007 85300 92348 333 10320 20148 30/// 50540 56200 59007 85920;","Q01  00002PRCP06"
"76373099999","2004-08-05T12:00:00","4","25.35","-105.75","1967.0","TEPEHUANES DGO., MX","FM-12","99999","V020","999,9,C,0000,1","22000,1,9,N","030000,1,N,1","+0148,1","+9999,9","10101,1","06,0000,9,1","24,0000,9,1",,,,"01,1,+00025,9,00,9",,,"01,99,1,00,1,00,1,99999,9,00,1,02,1","01,9","999,+0130,9","999,M,+0320,1","120,N,+0138,1","99999,9,08219,1","9,9,999,9,+009,1",,"SYN118AAXX  05121 76373 32480 10000 10148 2//// 38219 40101 5//// 80002 91145 333 10320 20138 30013 56002 58009 70000 81090;","Q01+004502SCOLCBQ02  00002PRCP06"
"76373099999","2004-08-05T18:00:00","4","25.35","-105.75","1967.0","TEPEHUANES DGO., MX","FM-12","99999","V020","110,1,N,0020,1","22000,1,9,N","070000,1,N,1","+0268,1","+0181,1","10113,1","06,0000,9,1",,,,,"02,1,+00300,9,08,9",,,"03,99,1,02,1,01,1,00450,1,00,1,00,1","01,9",,"120,M,+0282,1","240,N,+0130,1","99999,9,08221,1","6,1,007,1,+011,1",,"SYN118AAXX  05181 76373 32488 31102 10268 20181 38221 40113 56007 82100 91740 333 10282 20130 30/// 56200 58011 82810 81910;","Q01  00002PRCP06"
"76373099999","2004-08-05T21:00:00","4","25.35","-105.75","1967.0","TEPEHUANES DGO., MX","FM-12","99999","V020","090,1,N,0030,1","22000,1,9,N","070000,1,N,1","+0214,1","+0195,1","10068,1","06,0000,9,1",,,,,"02,1,+00300,9,09,9",,,"04,99,1,02,1,03,1,00450,1,00,1,00,1","01,9",,,,"99999,9,08200,1","7,1,021,1,+012,1",,"SYN106AAXX  05211 76373 32488 40903 10214 20195 38200 40068 57021 82300 92040 333 30/// 56200 58012 82910 82810;","Q01  00002PRCP06"
"76373099999","2004-08-06T00:00:00","4","25.35","-105.75","1967.0","TEPEHUANES DGO., MX","FM-12","99999","V020","060,1,N,0040,1","99999,9,9,N","070000,1,N,1","+0280,1","+0157,1","10029,1","06,0000,9,1","24,0000,9,1",,,,"03,1,+00300,9,08,9",,,"05,99,1,03,1,02,1,00450,1,00,1,00,1","01,9",,"120,M,+0330,1","180,N,+0130,1","99999,9,08187,1","6,1,013,1,+006,1",,"SYN130AAXX  06001 76373 32488 50604 10280 20157 38187 40029 56013 83200 92350 333 10330 20130 30/// 50680 56200 58006 70000 83810 82910;","Q01  00002PRCP06"
"76373099999","2004-08-06T15:00:00","4","25.35","-105.75","1967.0","TEPEHUANES DGO., MX","FM-12","99999","V020","999,9,C,0000,1","03000,1,9,N","070000,1,N,1","+0192,1","+0166,1","10134,1","12,0000,9,1",,,,,"06,1,+03000,9,03,9",,,"08,99,1,06,1,00,1,01250,1,07,1,02,1","01,9",,,,"99999,9,08232,1","9,9,999,9,+004,1",,"SYN118AAXX  06151 76373 02688 80000 10192 20166 38232 40134 5//// 69902 86072 91440 333 30/// 56022 58004 69902 86360 82070;","Q01  00002PRCP12"
"76373099999","2004-08-06T18:00:00","4","25.35","-105.75","1967.0","TEPEHUANES DGO., MX","FM-12","99999","V020","120,1,N,0010,1","03000,1,9,N","070000,1,N,1","+0264,1","+0234,1","10120,1","06,0000,9,1",,,,,"01,1,+00300,9,08,9","04,1,+03000,9,03,9",,"07,99,1,01,1,01,1,00450,1,03,1,02,1","01,9",,"120,M,+0280,1","240,N,+0162,1","99999,9,08225,1","7,1,003,1,+004,1",,"SYN124AAXX  06181 76373 32488 71201 10264 20234 38225 40120 57003 81132 91748 333 10280 20162 30/// 56222 58004 81810 84360 82070;","Q01  00002PRCP06"
"76373099999","2004-08-06T21:00:00","4","25.35","-105.75","1967.0","TEPEHUANES DGO., MX","FM-12","99999","V020","120,1,N,0020,1","09000,1,C,N","070000,1,N,1","+0306,1","+0209,1","10064,1","06,0000,9,1",,,,,"02,1,+00300,9,09,9","01,1,+00300,9,08,9","01,1,+03000,9,03,9","05,99,1,02,1,09,1,00450,1,03,1,02,1","01,9",,,,"99999,9,08200,1","6,1,025,1,+000,1",,"SYN118AAXX  06211 76373 32488 51202 10306 20209 38200 40064 56025 82932 92045 333 30/// 56222 58000 82910 81810 81360 81070;","Q01  00002PRCP06"
"76373099999","2004-08-09T12:00:00","4","25.35","-105.75","1967.0","TEPEHUANES DGO., MX","FM-12","99999","V020","300,1,N,0010,1","22000,1,9,N","030000,1,N,1","+0156,1","+9999,9","10136,1","06,9999,9,9","12,0089,9,1","24,0094,9,1",,,"01,1,+00900,9,08,9",,,"02,99,1,01,1,01,1,00450,1,04,1,00,1","09,9","999,+0140,9","999,M,+0330,1","120,N,+0146,1","99999,9,08230,1",,,"SYN136AAXX  09121 76373 02480 23001 10156 2//// 38230 40136 5//// 60092 81140 91145 333 10330 20146 31014 56220 58/// 69901 70094 81830 81360;","Q01  99992PRCP06"
"76373099999","2004-08-09T15:00:00","4","25.35","-105.75","1967.0","TEPEHUANES DGO., MX","FM-12","99999","V020","999,9,C,0000,1","22000,1,9,N","015000,1,N,1","+0180,1","+9999,9","10154,1","06,0000,9,1",,,,,"03,1,+00300,9,09,9","01,1,+00300,9,08,9","01,1,+03000,9,03,9","99,99,9,99,9,99,9,99999,9,99,9,00,1","09,9",,,,"99999,9,08242,1","6,1,012,1,+013,1",,"SYN118AAXX  09151 76373 32465 00000 10180 2//// 38242 40154 56012 83342 91440 333 31/// 56222 58013 83910 81810 81360 81090;","Q01+000002SCOTCVQ02+000002SCOTLCQ03+000002SCOLCGQ04+000002SCOMCGQ05  00002PRCP06"
"76373099999","2004-08-10T12:00:00","4","25.35","-105.75","1967.0","TEPEHUANES DGO., MX","FM-12","99999","V020","999,9,C,0000,1","22000,1,9,N","030000,1,N,1","+0156,1","+0149,1","10139,1","06,9999,9,9","12,0071,9,1","24,0071,9,1",,,"02,1,+00300,9,08,9",,,"03,99,1,02,1,01,1,00450,1,00,1,02,1","09,9","999,+0140,9","999,M,+0286,1","120,N,+0146,1","99999,9,08235,1","9,9,999,9,+005,1",,"SYN136AAXX  10121 76373 02480 30000 10156 20149 38235 40139 5//// 60072 82102 91140 333 10286 20146 31014 56202 58005 69901 70071 82810 81090;","Q01  99992PRCP06"
"76373099999","2004-08-10T15:00:00","4","25.35","-105.75","1967.0","TEPEHUANES DGO., MX","FM-12","99999","V020","999,9,C,0000,1","03600,1,C,N","030000,1,N,1","+0182,1","+0164,1","10161,1","06,0000,9,1",,,,,"02,1,+00300,9,09,9","02,1,+00300,9,08,9",,"06,99,1,02,1,01,1,00450,1,03,1,00,1","09,9",,,,"99999,9,08245,1","0,1,010,1,+003,1",,"SYN112AAXX  10151 76373 32480 60000 10182 20164 38245 40161 50010 82130 91445 333 31/// 56220 58003 82810 82910 82360;","Q01  00002PRCP06"
"76373099999","2004-08-10T18:00:00","4","25.35","-105.75","1967.0","TEPEHUANES DGO., MX","FM-12","99999","V020","180,1,N,0080,1","99999,9,9,N","070000,1,N,1","+0240,1","+0199,1","10153,1","06,0000,9,1",,,,,"03,1,+00300,9,06,9",,,"05,99,1,03,1,06,1,00250,1,00,1,00,1","09,9",,"120,M,+0260,1","240,N,+0142,1","99999,9,08247,1","2,1,002,1,+000,1",,"SYN118AAXX  10181 76373 32388 51808 10240 20199 38247 40153 52002 83600 91738 333 10260 20142 31/// 56200 58000 83610 82910;","Q01  00002PRCP06"
"76373099999","2004-08-10T21:00:00","4","25.35","-105.75","1967.0","TEPEHUANES DGO., MX","FM-12","99999","V020","030,1,N,0010,1","03600,1,C,N","070000,1,N,1","+0266,1","+0179,1","10099,1","06,0000,9,1",,,,,"02,1,+00300,9,09,9","02,1,+00300,9,07,9",,"06,99,1,02,1,03,1,00450,1,02,1,00,1","01,9",,,,"99999,9,08217,1","6,1,030,1,-002,1",,"SYN112AAXX  10211 76373 32488 60301 10266 20179 38217 40099 56030 82320 92040 333 30/// 56220 59002 82910 82710 82560;","Q01  00002PRCP06"
"76373099999","2004-08-11T12:00:00","4","25.35","-105.75","1967.0","TEPEHUANES DGO., MX","FM-12","99999","V020","999,9,C,0000,1","00300,1,9,N","015000,1,N,1","+0166,1","+0153,1","10128,1","06,0010,9,1","12,0010,9,2","24,0001,9,2",,,"08,1,+00300,9,07,9",,,"08,99,1,08,1,06,1,00450,1,00,1,00,1","01,9","999,+0150,9","999,M,+0304,1","120,N,+0154,1","99999,9,08228,1","9,9,999,9,-007,1",,"SYN130AAXX  11121 76373 02465 80000 10166 20153 38228 40128 5//// 60012 88600 91145 333 10304 20154 30015 56200 59007 60011 70001 88710;",
"76373099999","2004-08-11T15:00:00","4","25.35","-105.75","1967.0","TEPEHUANES DGO., MX","FM-12","99999","V020","999,9,C,0000,1","03600,1,C,N","015000,1,N,1","+0186,1","+0162,1","10147,1","06,0000,9,1",,,,,"01,1,+00300,9,09,9","01,1,+00300,9,08,9",,"08,99,1,01,1,01,1,00800,1,05,1,00,1","01,9",,,,"99999,9,08241,1","1,1,013,1,-004,1",,"SYN112AAXX  11151 76373 32565 80000 10186 20162 38241 40147 51013 81150 91435 333 30/// 56220 59004 81810 81910 86360;","Q01  00002PRCP06"
"76373099999","2004-08-11T18:00:00","4","25.35","-105.75","1967.0","TEPEHUANES DGO., MX","FM-12","99999","V020","090,1,N,0010,1","09000,1,C,N","070000,1,N,1","+0222,1","+0176,1","10138,1","06,0000,9,1",,,,,"01,1,+00300,9,09,9","01,1,+00300,9,08,9","02,1,+03000,9,03,9","05,99,1,01,1,03,1,00450,1,03,1,02,1","01,9",,"120,M,+0248,1","240,N,+0152,1","99999,9,08237,1","7,1,004,1,-010,1",,"SYN130AAXX  11181 76373 32488 50901 10222 20176 38237 40138 57004 81332 91745 333 10248 20152 30/// 56222 59010 81910 81810 82360 81070;","Q01  00002PRCP06"
"76373099999","2004-08-12T12:00:00","4","25.35","-105.75","1967.0","TEPEHUANES DGO., MX","FM-12","99999","V020","999,9,C,0000,1","22000,1,9,N","015000,1,N,1","+0146,1","+0136,1","10148,1","06,0009,9,1","12,0010,9,2","24,0009,9,2",,,"02,1,+00300,9,08,9",,,"04,99,1,02,1,01,1,00450,1,00,1,00,1","09,9","999,+0130,9","999,M,+0294,1","120,N,+0136,1","99999,9,08238,1","9,9,999,9,+010,1",,"SYN136AAXX  12121 76373 02465 40000 10146 20136 38238 40148 5//// 69992 82100 91145 333 10294 20136 31013 56200 58010 69991 70009 82810 82710;",
"76373099999","2004-08-12T15:00:00","4","25.35","-105.75","1967.0","TEPEHUANES DGO., MX","FM-12","99999","V020","999,9,C,0000,1","09000,1,9,N","070000,1,N,1","+0178,1","+0138,1","10173,1","06,0000,9,1",,,,,"03,1,+00300,9,09,9","01,1,+00300,9,08,9",,"07,99,1,03,1,03,1,00450,1,00,1,02,1","09,9",,,,"99999,9,08249,1","2,1,011,1,+008,1",,"SYN112AAXX  12151 76373 32488 70000 10178 20138 38249 40173 52011 83302 91435 333 31/// 56202 58008 83910 81810 83090;","Q01  00002PRCP06"
"76373099999","2004-08-12T18:00:00","4","25.35","-105.75","1967.0","TEPEHUANES DGO., MX","FM-12","99999","V020","130,1,N,0030,1","09000,1,9,N","070000,1,N,1","+0234,1","+0157,1","10147,1","06,0000,9,1",,,,,"02,1,+00300,9,09,9","02,1,+00300,9,08,9",,"06,99,1,02,1,03,1,00450,1,00,1,02,1","01,9",,"120,M,+0260,1","240,N,+0130,1","99999,9,08242,1","6,1,007,1,+005,1",,"SYN124AAXX  12181 76373 32488 61303 10234 20157 38242 40147 56007 82302 91735 333 10260 20130 30/// 56202 58005 82910 82810 82090;","Q01  00002PRCP06"
"76373099999","2004-08-12T21:00:00","4","25.35","-105.75","1967.0","TEPEHUANES DGO., MX","FM-12","99999","V020","130,1,N,0040,1","22000,1,9,N","070000,1,N,1","+0264,1","+0136,1","10109,1","06,0000,9,1",,,,,"01,1,+00300,9,09,9","04,1,+00900,9,08,9",,"06,99,1,04,1,01,1,00450,1,00,1,04,1","01,9",,,,"99999,9,08224,1","7,1,018,1,+011,1",,"SYN112AAXX  12211 76373 32488 61304 10264 20136 38224 40109 57018 84104 92045 333 30/// 56202 58011 84830 81910 81090;","Q01  00002PRCP06"
"76373099999","2004-08-13T00:00:00","4","25.35","-105.75","1967.0","TEPEHUANES DGO., MX","FM-12","99999","V020","050,1,N,0030,1","22000,1,9,N","070000,1,N,1","+0274,1","+0144,1","10076,1","06,0000,9,1","24,0009,9,1",,,,"01,1,+00900,9,09,9","01,1,+00900,9,08,9",,"03,99,1,01,1,01,1,00450,1,00,1,05,1","01,9",,"120,M,+0300,1","180,N,+0130,1","99999,9,08212,1","8,1,012,1,-011,1",,"SYN136AAXX  13001 76373 32488 30503 10274 20144 38212 40076 58012 81105 92335 333 10300 20130 30/// 50540 56202 59011 70009 81830 81930 81090;","Q01  00002PRCP06"
"76373099999","2004-08-13T12:00:00","4","25.35","-105.75","1967.0","TEPEHUANES DGO., MX","FM-12","99999","V020","999,9,C,0000,1","00025,1,9,N","015000,1,N,1","+0156,1","+0137,1","10132,1","06,0000,9,1","24,0000,9,1",,,,"06,1,+00025,9,00,9",,,"06,99,1,00,1,00,1,99999,9,00,1,05,1","01,9","999,+0130,9","999,M,+0300,1","120,N,+0142,1","99999,9,08235,1","9,9,999,9,-003,1",,"SYN118AAXX  13121 76373 32965 60000 10156 20137 38235 40132 5//// 80005 91140 333 10300 20142 30013 56002 59003 70000 86090;","Q01  00002PRCP06"
"76373099999","2004-08-13T15:00:00","4","25.35","-105.75","1967.0","TEPEHUANES DGO., MX","FM-12","99999","V020","999,9,C,0000,1","22000,1,9,N","070000,1,N,1","+0172,1","+0136,1","10148,1","06,0000,9,1",,,,,"01,1,+03000,9,03,9",,,"03,99,1,01,1,00,1,01250,1,03,1,04,1","01,9",,,,"99999,9,08246,1","1,1,011,1,-003,1",,"SYN106AAXX  13151 76373 32688 30000 10172 20136 38246 40148 51011 81034 91430 333 30/// 56022 59003 81360 82090;","Q01  00002PRCP06"
"76373099999","2004-08-13T18:00:00","4","25.35","-105.75","1967.0","TEPEHUANES DGO., MX","FM-12","99999","V020","110,1,N,0020,1","22000,1,9,N","070000,1,N,1","+0250,1","+0147,1","10139,1","06,0000,9,1",,,,,"01,1,+00900,9,09,9","01,1,+00900,9,08,9",,"04,99,1,01,1,03,1,00450,1,00,1,05,1","01,9",,"120,M,+0272,1","240,N,+0138,1","99999,9,08242,1","7,1,004,1,+000,1",,"SYN124AAXX  13181 76373 32488 41102 10250 20147 38242 40139 57004 81305 91740 333 10272 20138 30/// 56202 58000 81930 81830 82090;","Q01  00002PRCP06"
"76373099999","2004-08-14T00:00:00","4","25.35","-105.75","1967.0","TEPEHUANES DGO., MX","FM-12","99999","V020","180,1,N,0020,1","09000,1,9,N","070000,1,N,1","+0254,1","+0145,1","10111,1","03,0010,9,1","06,0010,9,1","24,0010,9,1",,,"01,1,+00900,9,09,9","01,1,+00900,9,08,9","01,1,+03000,9,05,9","05,99,1,01,1,01,1,00450,1,99,9,05,1","01,9",,"120,M,+0294,1","180,N,+0138,1","99999,9,08215,1","6,1,020,1,+003,1",,"SYN154AAXX  14001 76373 02488 51802 10254 20145 38215 40111 56020 60011 81105 92340 333 10294 20138 30/// 50600 56202 58003 60017 70010 81830 81930 81560 82290;","Q01+000002SCOMCG"
"76373099999","2004-08-16T18:00:00","4","25.35","-105.75","1967.0","TEPEHUANES DGO., MX","FM-12","99999","V020","150,1,N,0010,1","22000,1,9,N","070000,1,N,1","+0230,1","+0157,1","10233,1","06,0000,9,1",,,,,"01,1,+00300,9,09,9","01,1,+00300,9,08,9",,"03,99,1,01,1,03,1,00450,1,03,1,00,1","09,9",,"120,M,+0250,1","240,N,+0134,1","99999,9,08253,1","2,1,001,1,+999,9",,"SYN124AAXX  16181 76373 32488 31501 10230 20157 38253 40233 52001 81330 91740 333 10250 20134 31/// 56220 58/// 81910 81810 81360;","Q01  00002PRCP06"
"76373099999","2004-08-16T21:00:00","4","25.35","-105.75","1967.0","TEPEHUANES DGO., MX","FM-12","99999","V020","110,1,N,0030,1","22000,1,9,N","070000,1,N,1","+0262,1","+0164,1","10157,2","06,0000,9,1",,,,,"02,1,+00300,9,09,9","01,1,+00300,9,08,9",,"04,99,1,02,1,03,1,00450,1,03,1,00,1","01,9",,,,"99999,9,08230,1","6,1,023,1,+999,9",,"SYN112AAXX  16211 76373 32488 41103 10262 20164 38230 40157 56023 82330 92045 333 30/// 56220 58/// 82910 81810 81360;","Q01+101573APOSLPQ02  00002PRCP06"
"76373099999","2004-08-17T00:00:00","4","25.35","-105.75","1967.0","TEPEHUANES DGO., MX","FM-12","99999","V020","140,1,N,0010,1","99999,9,9,N","070000,1,N,1","+0194,1","+0163,1","10111,1","03,0000,2,1",,,"5,1,06,1","5,1,06,1",,,,"08,99,1,99,9,99,9,00250,1,99,9,99,9",,,,,"99999,9,08223,1","6,1,007,1,+999,9","50,1","SYN072AAXX  17001 76373 01388 81401 10194 20163 38223 40111 56007 69907 75055;",
"76373099999","2004-08-17T15:00:00","4","25.35","-105.75","1967.0","TEPEHUANES DGO., MX","FM-12","99999","V020","999,9,C,0000,1","00300,1,9,N","060000,1,N,1","+0176,1","+0158,1","10155,1","15,0010,9,1",,,,,"05,1,+00300,9,06,9",,,"08,99,1,05,1,06,1,00250,1,03,1,00,1","09,9",,,,"99999,9,08246,1","9,9,999,9,-006,1",,"SYN118AAXX  17151 76373 02386 80000 10176 20158 38246 40155 5//// 60019 85630 91440 333 31/// 56220 59006 60019 85610 83360;",
"76373099999","2004-08-17T18:00:00","4","25.35","-105.75","1967.0","TEPEHUANES DGO., MX","FM-12","99999","V020","100,1,N,0010,1","03000,1,9,N","070000,1,N,1","+0224,1","+0161,1","99999,9","06,0000,9,1",,,,,"03,1,+00300,9,06,9","02,1,+03000,9,03,9",,"06,99,1,03,1,02,1,00450,1,03,1,02,1","01,9",,"120,M,+0258,1","240,N,+0154,1","99999,9,08248,1","2,1,002,1,-002,1",,"SYN124AAXX  17181 76373 32488 61001 10224 20161 38248 40235 52002 83232 91750 333 10258 20154 30/// 56222 59002 83610 82360 81070;","Q01+102353APOSLPQ02  00002PRCP06"
"76373099999","2004-08-17T21:00:00","4","25.35","-105.75","1967.0","TEPEHUANES DGO., MX","FM-12","99999","V020","150,1,N,0020,1","00300,1,9,N","070000,1,N,1","+0240,1","+0154,1","10163,1","06,0000,9,1",,,,,"06,1,+00300,9,07,9",,,"08,99,1,06,1,07,1,00450,1,02,1,00,1","01,9",,,,"99999,9,08227,1","6,1,021,1,-010,1",,"SYN106AAXX  17211 76373 32488 81502 10240 20154 38227 40163 56021 86720 92050 333 30/// 56220 59010 86710 82560;","Q01  00002PRCP06"
"76373099999","2004-08-18T00:00:00","4","25.35","-105.75","1967.0","TEPEHUANES DGO., MX","FM-12","99999","V020","120,1,N,0020,1","00210,1,9,N","020000,1,N,1","+0176,1","+0134,1","10142,1","03,0010,9,1","06,0010,9,1","24,0011,9,1","5,1,06,1","5,1,06,1",,,,"08,99,1,08,1,07,1,00250,1,00,1,00,1","09,9",,"120,M,+0278,1","180,N,+0154,1","99999,9,08237,1","2,1,010,1,-014,1","50,1","SYN142AAXX  18001 76373 01370 81202 10176 20134 38237 40142 52010 60011 75055 88700 92350 333 10278 20154 31/// 50420 56200 59014 60017 70011 88720;",
"76373099999","2004-08-18T15:00:00","4","25.35","-105.75","1967.0","TEPEHUANES DGO., MX","FM-12","99999","V020","999,9,C,0000,1","00300,1,9,N","015000,1,N,1","+0154,1","+0130,1","10223,1","06,0000,9,1",,,,,"08,1,+00300,9,07,9",,,"08,99,1,08,1,06,1,00450,1,00,1,00,1","01,9",,,,"99999,9,08241,1","1,1,010,1,-003,1",,"SYN100AAXX  18151 76373 32465 80000 10154 20130 38241 40223 51010 88600 91450 333 30/// 56200 59003 88710;","Q01  00002PRCP06"
"76373099999","2004-08-18T18:00:00","4","25.35","-105.75","1967.0","TEPEHUANES DGO., MX","FM-12","99999","V020","120,1,N,0030,1","22000,1,9,N","070000,1,N,1","+0230,1","+0152,1","10183,1","06,0000,9,1",,,,,"02,1,+00300,9,09,9",,,"02,99,1,02,1,03,1,00450,1,00,1,00,1","01,9",,"120,M,+0252,1","240,N,+0122,1","99999,9,08227,1","7,1,014,1,-021,1",,"SYN112AAXX  18181 76373 32488 21203 10230 20152 38227 40183 57014 82300 91750 333 10252 20122 30/// 56200 59021 82910;","Q01  00002PRCP06"
"76373099999","2004-08-18T21:00:00","4","25.35","-105.75","1967.0","TEPEHUANES DGO., MX","FM-12","99999","V020","110,1,N,0010,1","22000,1,9,N","070000,1,N,1","+0276,1","+0144,1","10104,2","06,0000,9,1",,,,,"04,1,+00300,9,09,9",,,"04,99,1,04,1,03,1,00450,1,00,1,00,1","01,9",,,,"99999,9,08201,1","7,1,026,1,-026,1",,"SYN100AAXX  18211 76373 32488 41101 10276 20144 38201 40104 57026 84300 92050 333 30/// 56200 59026 84910;","Q01+101043APOSLPQ02  00002PRCP06"
"76373099999","2004-08-19T12:00:00","4","25.35","-105.75","1967.0","TEPEHUANES DGO., MX","FM-12","99999","V020","170,1,N,0010,1","22000,1,9,N","070000,1,N,1","+0126,1","+0120,1","10219,1","06,0020,9,1","12,0020,9,2","24,0018,9,2",,,"00,1,+99999,9,99,9",,,"00,99,1,00,1,00,1,99999,9,00,1,00,1","01,9","999,+0100,9","999,M,+0322,1","120,N,+0111,1","99999,9,08234,1","9,9,999,9,+003,1",,"SYN112AAXX  19121 76373 02988 01701 10126 20120 38234 40219 5//// 60022 91150 333 10322 20111 30010 58003 60021 70017;",
"76373099999","2004-08-19T18:00:00","4","25.35","-105.75","1967.0","TEPEHUANES DGO., MX","FM-12","99999","V020","140,1,N,0010,1","22000,1,9,N","070000,1,N,1","+0242,1","+0147,1","10200,1","06,0000,9,1",,,,,"03,1,+00300,9,09,9",,,"04,99,1,03,1,03,1,00450,1,00,1,02,1","01,9",,"120,M,+0268,1","240,N,+0108,1","99999,9,08229,1","0,1,012,1,+002,1",,"SYN118AAXX  19181 76373 32488 41401 10242 20147 38229 40200 50012 83302 91750 333 10268 20108 30/// 56202 58002 83910 81090;","Q01  00002PRCP06"
"76373099999","2004-08-19T21:00:00","4","25.35","-105.75","1967.0","TEPEHUANES DGO., MX","FM-12","99999","V020","040,1,N,0030,1","03600,1,C,N","070000,1,N,1","+0266,1","+0155,1","10139,2","06,0000,9,1",,,,,"04,1,+00300,9,07,9",,,"06,99,1,04,1,06,1,00450,1,02,1,00,1","01,9",,,,"99999,9,08220,1","8,1,009,1,+019,1",,"SYN106AAXX  19211 76373 32488 60403 10266 20155 38220 40139 58009 84620 92050 333 30/// 56220 58019 84710 82460;","Q01+101393APOSLPQ02  00002PRCP06"
"76373099999","2004-08-20T00:00:00","4","25.35","-105.75","1967.0","TEPEHUANES DGO., MX","FM-12","99999","V020","999,9,C,0000,1","03600,1,9,N","070000,1,N,1","+0238,1","+0168,1","10097,1","06,0000,9,1","24,0017,9,1",,,,"01,1,+00900,9,08,9",,,"08,99,1,01,1,01,1,00450,1,02,1,00,1","01,9",,"120,M,+0322,1","180,N,+0108,1","99999,9,08215,1","5,1,005,1,+010,1",,"SYN130AAXX  20001 76373 32488 80000 10238 20168 38215 40097 55005 81120 92350 333 10322 20108 30/// 50500 56220 58010 70017 81830 87460;","Q01  00002PRCP06"
"76373099999","2004-08-20T12:00:00","4","25.35","-105.75","1967.0","TEPEHUANES DGO., MX","FM-12","99999","V020","330,1,N,0010,1","00300,1,9,N","001000,1,N,1","+0154,1","+0145,1","10218,1","01,0020,9,1","06,0020,9,1","24,0024,9,1","5,1,06,1","5,1,06,1","08,1,+00300,9,07,9",,,"08,99,1,08,1,07,1,00450,1,99,9,99,9","11,9","999,+0140,9","999,M,+0302,1","120,N,+0148,1","99999,9,08241,1","9,9,999,9,+007,1","91,1","SYN136AAXX  20121 76373 01410 83301 10154 20145 38241 40218 5//// 60025 79155 887// 91150 333 10302 20148 32014 56/// 58007 60021 70024 88710;",
"76373099999","2004-08-20T15:00:00","4","25.35","-105.75","1967.0","TEPEHUANES DGO., MX","FM-12","99999","V020","290,1,N,0010,1","00300,1,9,N","001500,1,N,1","+0158,1","+9999,9","10242,1","03,0050,9,1",,,"6,1,03,1","5,1,03,1","08,1,+00300,9,07,9",,,"08,99,1,08,1,07,1,00450,1,99,9,99,9","11,9",,,,"99999,9,08260,1","2,1,019,1,+019,1","91,1","SYN106AAXX  20151 76373 21415 82901 10158 38260 40242 52019 79165 887// 91450 333 32/// 56/// 58019 60057 88710;",
"76373099999","2004-08-20T21:00:00","4","25.35","-105.75","1967.0","TEPEHUANES DGO., MX","FM-12","99999","V020","130,1,N,0040,1","09000,1,9,N","070000,1,N,1","+0240,1","+0161,1","10146,2","06,0000,2,1",,,,,"04,1,+00900,9,03,9",,,"06,99,1,04,1,03,1,00450,1,00,1,03,1","09,9",,,,"99999,9,08231,1","8,1,026,1,+011,1",,"SYN106AAXX  20211 76373 32488 61304 10240 20161 38231 40146 58026 84303 92050 333 31/// 56202 58011 84330 82090;","Q01+101463APOSLP"
"76373099999","2004-08-22T18:00:00","4","25.35","-105.75","1967.0","TEPEHUANES DGO., MX","FM-12","99999","V020","999,9,C,0000,1","00600,1,9,N","070000,1,N,1","+0220,1","+0146,1","10085,1","06,0000,9,1",,,,,"08,1,+00600,9,09,9","01,1,+03000,9,03,9",,"08,99,1,03,1,03,1,00250,1,03,1,07,1","09,9",,"120,M,+0238,1","240,N,+0143,1","99999,9,08208,1","6,1,006,1,+999,9",,"SYN124AAXX  22181 76373 32388 80000 10220 20146 38208 40085 56006 83337 91735 333 10238 20143 31/// 56222 58/// 88920 81360 84280;","Q01  00002PRCP06"
"76373099999","2004-08-23T00:00:00","4","25.35","-105.75","1967.0","TEPEHUANES DGO., MX","FM-12","99999","V020","330,1,N,0020,1","00120,1,9,N","070000,1,N,1","+0180,1","+0150,1","10046,1","03,0010,9,1","06,0010,9,1","24,0055,9,1","5,1,06,1","5,1,06,1",,,,"08,99,1,08,1,09,1,00150,1,00,1,00,1","11,9",,"120,M,+0264,1","180,N,+0143,1","99999,9,08187,1","6,1,008,1,+999,9","20,1","SYN142AAXX  23001 76373 01288 83302 10180 20150 38187 40046 56008 60011 72055 88900 92340 333 10264 20143 32/// 50500 56220 5//// 60017 70055 88920;",
"76373099999","2004-08-23T15:00:00","4","25.35","-105.75","1967.0","TEPEHUANES DGO., MX","FM-12","99999","V020","999,9,C,0000,1","22000,1,9,N","070000,1,N,1","+0170,1","+0150,1","10201,1","06,0000,9,1",,,,,"01,1,+00025,9,00,9",,,"03,99,1,02,1,01,1,00450,1,02,1,00,1","09,9",,,,"99999,9,08224,1","4,1,000,1,+010,1",,"SYN100AAXX  23151 76373 32488 30000 10170 20150 38224 40201 54000 82120 91450 333 31/// 56220 58010 81090;","Q01  00002PRCP06"
"76373099999","2004-08-23T18:00:00","4","25.35","-105.75","1967.0","TEPEHUANES DGO., MX","FM-12","99999","V020","320,1,N,0010,1","22000,1,9,N","070000,1,N,1","+0236,1","+0163,1","10167,1","06,0000,9,1",,,,,"02,1,+00900,9,09,9",,,"02,99,1,02,1,09,1,00450,1,00,1,00,1","01,9",,"120,M,+0256,1","240,N,+0138,1","99999,9,08218,1","6,1,006,1,+010,1",,"SYN112AAXX  23181 76373 32488 23201 10236 20163 38218 40167 56006 82900 91750 333 10256 20138 30/// 56200 58010 82930;","Q01  00002PRCP06"
"76373099999","2004-08-23T21:00:00","4","25.35","-105.75","1967.0","TEPEHUANES DGO., MX","FM-12","99999","V020","120,1,N,0030,1","22000,1,9,N","070000,1,N,1","+0260,1","+0165,1","10116,1","06,0000,9,1",,,,,"02,1,+00300,9,09,9",,,"04,99,1,02,1,99,9,00450,1,04,1,00,1","01,9",,,,"99999,9,08203,1","6,1,015,1,+006,1",,"SYN106AAXX  23211 76373 32488 41203 10260 20165 38203 40116 56015 82040 92050 333 30/// 56220 58006 82910 82360;","Q01+000002SCOLCGQ02  00002PRCP06"
"76373099999","2004-08-24T00:00:00","4","25.35","-105.75","1967.0","TEPEHUANES DGO., MX","FM-12","99999","V020","270,1,N,0030,1","03600,1,9,N","070000,1,N,1","+0232,1","+0161,1","10053,2","06,0000,9,1","24,0020,9,1",,,,"03,1,+00600,9,09,9",,,"07,99,1,03,1,03,1,00450,1,06,1,00,1","01,9",,"120,M,+0286,1","180,N,+0138,1","99999,9,08191,1","6,1,012,1,+004,1",,"SYN130AAXX  24001 76373 32488 72703 10232 20161 38191 40053 56012 83360 92350 333 10286 20138 30/// 50360 56220 58004 70020 83920 84360;","Q01+100533APOSLPQ02  00002PRCP06"
"76373099999","2004-08-24T12:00:00","4","25.35","-105.75","1967.0","TEPEHUANES DGO., MX","FM-12","99999","V020","999,9,C,0000,1","22000,1,9,N","030000,1,N,1","+0150,1","+0134,1","10153,1","06,0000,9,1","24,0000,9,1",,,,"02,1,+00900,9,08,9",,,"02,99,1,02,1,01,1,00450,1,00,1,00,1","01,9","999,+0130,9","999,M,+0286,1","120,N,+0136,1","99999,9,08216,1","9,9,999,9,+025,1",,"SYN118AAXX  24121 76373 32480 20000 10150 20134 38216 40153 5//// 82100 91150 333 10286 20136 30013 56200 58025 70000 82830;","Q01  00002PRCP06"
"76373099999","2004-08-24T15:00:00","4","25.35","-105.75","1967.0","TEPEHUANES DGO., MX","FM-12","99999","V020","999,9,C,0000,1","03000,1,9,N","070000,1,N,1","+0158,1","+0139,1","10141,1","06,0000,9,1",,,,,"06,1,+03000,9,03,9",,,"06,99,1,06,1,00,1,01250,1,03,1,00,1","01,9",,,,"99999,9,08230,1","2,1,014,1,+006,1",,"SYN100AAXX  24151 76373 32688 60000 10158 20139 38230 40141 52014 86030 91455 333 30/// 56020 58006 86360;","Q01  00002PRCP06"
"76373099999","2004-08-24T18:00:00","4","25.35","-105.75","1967.0","TEPEHUANES DGO., MX","FM-12","99999","V020","110,1,N,0010,1","03600,1,C,N","070000,1,N,1","+0240,1","+0158,1","10227,2","06,0000,9,1",,,,,"01,1,+00300,9,09,9","01,1,+00300,9,08,9",,"05,99,1,01,1,03,1,00450,1,03,1,00,1","01,9",,"120,M,+0256,1","240,N,+0130,1","99999,9,08232,1","2,1,002,1,+037,1",,"SYN124AAXX  24181 76373 32488 51101 10240 20158 38232 40227 52002 81330 91800 333 10256 20130 30/// 56220 58037 81910 81810 83360;","Q01+102273APOSLPQ02  00002PRCP06"
"76373099999","2004-08-25T00:00:00","4","25.35","-105.75","1967.0","TEPEHUANES DGO., MX","FM-12","99999","V020","310,1,N,0030,1","00420,1,9,N","070000,1,N,1","+0196,1","+0146,1","10121,1","03,9999,2,9","06,9999,9,9","24,9999,2,9","5,1,06,1","0,1,06,1",,,,"07,99,1,06,1,07,1,00450,1,99,9,99,9","09,9",,"120,M,+0300,1","180,N,+0130,1","99999,9,08220,1","2,1,013,1,+029,1","22,1","SYN142AAXX  25001 76373 01488 73103 10196 20146 38220 40121 52013 69901 72250 867// 92355 333 10300 20130 31/// 50460 562// 58029 69907 79999 87720;","Q01+000002PRSWM1"
"76373099999","2004-08-25T12:00:00","4","25.35","-105.75","1967.0","TEPEHUANES DGO., MX","FM-12","99999","V020","999,9,C,0000,1","22000,1,9,N","030000,1,N,1","+0134,1","+0125,1","10211,1","06,0000,9,1","24,0000,2,1",,,,"01,1,+00900,9,08,9",,,"01,99,1,01,1,01,1,99999,9,00,1,00,1","01,9","999,+0110,9","999,M,+0300,1","120,N,+0124,1","99999,9,08231,1","9,9,999,9,+015,1",,"SYN118AAXX  25121 76373 32980 10000 10134 20125 38231 40211 5//// 81100 91150 333 10300 20124 30011 56200 58015 79999 81830;","Q01  00002PRCP06"
"76373099999","2004-08-25T15:00:00","4","25.35","-105.75","1967.0","TEPEHUANES DGO., MX","FM-12","99999","V020","999,9,C,0000,1","22000,1,9,N","070000,1,N,1","+0176,1","+0144,1","10220,1","06,0000,9,1",,,,,"00,1,+99999,9,99,9",,,"00,99,1,00,1,00,1,99999,9,00,1,00,1","01,9",,,,"99999,9,08240,1","2,1,009,1,+010,1",,"SYN082AAXX  25151 76373 32988 00000 10176 20144 38240 40220 52009 91450 333 30/// 58010;","Q01  00002PRCP06"
"76373099999","2004-08-25T18:00:00","4","25.35","-105.75","1967.0","TEPEHUANES DGO., MX","FM-12","99999","V020","150,1,N,0020,1","22000,1,9,N","070000,1,N,1","+0254,1","+0167,1","10195,1","06,0000,9,1",,,,,"02,1,+00300,9,09,9",,,"02,99,1,02,1,03,1,00450,1,00,1,00,1","01,9",,"120,M,+0278,1","240,N,+0110,1","99999,9,08240,1","4,1,000,1,+008,1",,"SYN112AAXX  25181 76373 32488 21502 10254 20167 38240 40195 54000 82300 91800 333 10278 20110 30/// 56200 58008 82910;","Q01  00002PRCP06"
"76373099999","2004-08-26T12:00:00","4","25.35","-105.75","1967.0","TEPEHUANES DGO., MX","FM-12","99999","V020","999,9,C,0000,1","22000,1,9,N","003000,1,N,1","+0140,1","+0128,1","10208,1","06,0000,9,1","24,0000,9,1",,,,"00,1,+99999,9,99,9",,,"00,99,1,00,1,00,1,99999,9,00,1,00,1","01,9","999,+0110,9","999,M,+0314,1","120,N,+0130,1","99999,9,08232,1","9,9,999,9,+001,1",,"SYN100AAXX  26121 76373 32930 00000 10140 20128 38232 40208 5//// 91150 333 10314 20130 30011 58001 70000;","Q01  00002PRCP06Q02  00002PRCP24"
"76373099999","2004-08-26T15:00:00","4","25.35","-105.75","1967.0","TEPEHUANES DGO., MX","FM-12","99999","V020","999,9,C,0000,1","22000,1,9,N","070000,1,N,1","+0180,1","+0142,1","10218,1","06,0000,9,1",,,,,"04,1,+00025,9,00,9",,,"04,99,1,00,1,00,1,99999,9,00,1,04,1","01,9",,,,"99999,9,08239,1","1,1,006,1,-001,1",,"SYN100AAXX  26151 76373 32988 40000 10180 20142 38239 40218 51006 80004 91450 333 30/// 56002 59001 84090;","Q01  00002PRCP06"
"76373099999","2004-08-26T18:00:00","4","25.35","-105.75","1967.0","TEPEHUANES DGO., MX","FM-12","99999","V020","120,1,N,0030,1","09000,1,C,N","070000,1,N,1","+0264,1","+0163,1","10183,1","06,0000,9,1",,,,,"01,1,+00300,9,09,9",,,"08,99,1,01,1,03,1,00450,1,00,1,08,1","01,9",,"120,M,+0286,1","240,N,+0128,1","99999,9,08231,1","7,1,008,1,-009,1",,"SYN118AAXX  26181 76373 32488 81203 10264 20163 38231 40183 57008 81308 91800 333 10286 20128 30/// 56202 59009 81910 87270;","Q01  00002PRCP06"
"76373099999","2004-08-26T21:00:00","4","25.35","-105.75","1967.0","TEPEHUANES DGO., MX","FM-12","99999","V020","120,1,N,0030,1","09000,1,9,N","070000,1,N,1","+0284,1","+0150,1","10108,1","06,0000,9,1",,,,,"02,1,+00900,9,09,9",,,"08,99,1,02,1,03,1,00450,1,00,1,07,1","01,9",,,,"99999,9,08214,1","6,1,017,1,-005,1",,"SYN106AAXX  26211 76373 32488 81203 10284 20150 38214 40108 56017 82307 92055 333 30/// 56202 59005 82930 86290;","Q01  00002PRCP06"
"76373099999","2004-08-27T00:00:00","4","25.35","-105.75","1967.0","TEPEHUANES DGO., MX","FM-12","99999","V020","070,1,N,0030,1","03000,1,C,N","070000,1,N,1","+0266,1","+0124,1","10055,1","06,0000,9,1","24,0000,9,1",,,,"02,1,+00900,9,09,9","04,1,+03000,9,05,9",,"08,99,1,02,1,06,1,00450,1,02,1,02,1","01,9",,"120,M,+0326,1","180,N,+0128,1","99999,9,08204,1","6,1,010,1,-002,1",,"SYN136AAXX  27001 76373 32488 80703 10266 20124 38204 40055 56010 82622 92355 333 10326 20128 30/// 50580 56222 59002 70000 82930 84560 82090;","Q01  00002PRCP06"
"76373099999","2004-08-27T15:00:00","4","25.35","-105.75","1967.0","TEPEHUANES DGO., MX","FM-12","99999","V020","999,9,C,0000,1","09000,1,9,N","070000,1,N,1","+0194,1","+0156,1","10208,1","06,0000,9,1",,,,,"04,1,+03000,9,03,9",,,"06,99,1,04,1,00,1,01250,1,03,1,08,1","01,9",,,,"99999,9,08235,1","1,1,005,1,-004,1",,"SYN106AAXX  27151 76373 32688 60000 10194 20156 38235 40208 51005 84038 91455 333 30/// 56022 59004 84360 82290;","Q01  00002PRCP06"
"76373099999","2004-08-27T18:00:00","4","25.35","-105.75","1967.0","TEPEHUANES DGO., MX","FM-12","99999","V020","120,1,N,0030,1","03600,1,C,N","070000,1,N,1","+0264,1","+0175,1","10178,1","06,0000,9,1",,,,,"01,1,+00300,9,09,9","01,1,+00300,9,08,9","01,1,+03000,9,00,9","06,99,1,01,1,03,1,00450,1,03,1,02,1","01,9",,"120,M,+0292,1","240,N,+0145,1","99999,9,08233,1","7,1,002,1,+002,1",,"SYN130AAXX  27181 76373 32488 61203 10264 20175 38233 40178 57002 81332 91800 333 10292 20145 30/// 56222 58002 81910 81810 81060 83070;","Q01  00002PRCP06"
"76373099999","2004-08-27T21:00:00","4","25.35","-105.75","1967.0","TEPEHUANES DGO., MX","FM-12","99999","V020","150,1,N,0020,1","03000,1,9,N","070000,1,N,1","+0298,1","+0164,1","10097,2","06,0000,9,1",,,"9,1,03,1","9,1,03,1","03,1,+00300,9,09,9","01,1,+00300,9,08,9","02,1,+03000,9,03,9","08,99,1,03,1,09,1,00450,1,03,1,02,1","01,9",,,,"99999,9,08210,1","6,1,023,1,+005,1","16,1","SYN124AAXX  27211 76373 31488 81502 10298 20164 38210 40097 56023 71699 83932 92100 333 30/// 56222 58005 83910 81810 82360 82070;","Q01+100973APOSLPQ02  00002PRCP06"
"76373099999","2004-08-28T00:00:00","4","25.35","-105.75","1967.0","TEPEHUANES DGO., MX","FM-12","99999","V020","300,1,N,0010,1","00420,1,9,N","070000,1,N,1","+0200,1","+0154,1","10081,1","06,0000,9,1","24,0018,9,1",,,,,,,"08,99,1,08,1,06,1,00450,1,00,1,00,1","01,9",,"120,M,+0322,1","180,N,+0145,1","99999,9,08208,1","7,1,002,1,+004,1",,"SYN124AAXX  28001 76373 32488 83001 10200 20154 38208 40081 57002 88600 92359 333 10322 20145 30/// 50460 56200 58004 70018 88610;","Q01  00002PRCP06"
"76373099999","2004-08-28T15:00:00","4","25.35","-105.75","1967.0","TEPEHUANES DGO., MX","FM-12","99999","V020","999,9,C,0000,1","03000,1,9,N","070000,1,N,1","+0166,1","+0148,1","10199,1","06,0000,9,1",,,,,"08,1,+03000,9,03,9",,,"08,99,1,08,1,00,1,00250,1,03,1,00,1","01,9",,,,"99999,9,08225,1","9,9,999,9,+010,1",,"SYN100AAXX  28151 76373 32388 80000 10166 20148 38225 40199 5//// 88030 91440 333 30/// 56020 58010 88360;","Q01  00002PRCP06"
"76373099999","2004-08-28T21:00:00","4","25.35","-105.75","1967.0","TEPEHUANES DGO., MX","FM-12","99999","V020","330,1,N,0030,1","03000,1,9,N","070000,1,N,1","+0254,1","+0155,1","10009,2","06,0000,9,1",,,,,"08,1,+03000,9,03,9",,,"08,99,1,08,1,00,1,00250,1,06,1,00,1","01,9",,,,"99999,9,08209,1","6,1,017,1,-001,1",,"SYN100AAXX  28211 76373 32388 83303 10254 20155 38209 40009 56017 88060 92050 333 30/// 56020 59001 88360;","Q01+100093APOSLPQ02  00002PRCP06"
"76373099999","2004-08-29T00:00:00","4","25.35","-105.75","1967.0","TEPEHUANES DGO., MX","FM-12","99999","V020","999,9,C,0000,1","99999,9,9,N","070000,1,N,1","+0174,1","+9999,9","10074,2","03,0099,9,1",,,"5,1,06,1","6,1,06,1",,,,"08,99,1,99,9,99,9,00250,1,99,9,99,9",,,,,"99999,9,08199,1","6,1,010,1,+999,9","50,1","SYN072AAXX  29001 76373 01388 80000 10174 20175 38199 40074 56010 60107 75056;","Q01+100743APOSLP"
"76373099999","2004-08-29T15:00:00","4","25.35","-105.75","1967.0","TEPEHUANES DGO., MX","FM-12","99999","V020","999,9,C,0000,1","03600,1,C,N","070000,1,N,1","+0162,1","+0158,1","10136,1","15,0290,9,1",,,"5,1,03,1","6,1,03,1","02,1,+00600,9,07,9",,,"08,99,1,02,1,04,1,00250,1,03,1,00,1","11,9",,,,"99999,9,08222,1","9,9,999,9,-003,1","59,1","SYN118AAXX  29151 76373 22388 80000 10162 20158 38222 40136 5//// 75956 82430 91435 333 32/// 56220 59003 60299 82720 86360;",
"76373099999","2004-08-29T18:00:00","4","25.35","-105.75","1967.0","TEPEHUANES DGO., MX","FM-12","99999","V020","090,1,N,0020,1","22000,1,9,N","070000,1,N,1","+0226,1","+0155,1","10120,1","06,0000,2,1",,,,,"03,1,+03000,9,03,9",,,"03,99,1,03,1,00,1,01250,1,03,1,00,1","09,9",,"120,M,+0250,1","240,N,+0146,1","99999,9,08216,1","6,1,006,1,-010,1",,"SYN106AAXX  29181 76373 32688 30902 10226 20155 38216 40120 56006 83030 91740 333 10250 20146 31/// 59010 83360;",
"76373099999","2004-08-29T21:00:00","4","25.35","-105.75","1967.0","TEPEHUANES DGO., MX","FM-12","99999","V020","150,1,N,0030,1","03600,1,C,N","070000,1,N,1","+0262,1","+0180,1","10090,1","06,0000,2,1",,,,,"02,1,+00600,9,09,9",,,"05,99,1,02,1,03,1,00250,1,06,1,00,1","01,9",,,,"99999,9,08204,1","6,1,012,1,-006,1",,"SYN106AAXX  29211 76373 32388 51503 10262 20180 38204 40090 56012 82360 92035 333 30/// 56220 59006 82920 83360;",
"76373099999","2004-08-30T00:00:00","4","25.35","-105.75","1967.0","TEPEHUANES DGO., MX","FM-12","99999","V020","330,1,N,0010,1","99999,9,9,N","070000,1,N,1","+0206,1","+0166,1","10058,1","06,0030,9,1",,,"6,1,06,1","5,1,06,1",,,,"08,99,1,99,9,99,9,00250,1,99,9,99,9",,,,,"99999,9,08188,1","6,1,016,1,+999,9","91,1","SYN072AAXX  30001 76373 01388 83301 10206 20166 38188 40058 56016 60031 79165;",
"76373099999","2004-08-30T12:00:00","4","25.35","-105.75","1967.0","TEPEHUANES DGO., MX","FM-12","99999","V020","999,9,C,0000,1","22000,1,9,N","030000,1,N,1","+0148,1","+0139,1","10199,1","06,0000,9,1","24,0000,9,1",,,,"02,1,+03000,9,03,9",,,"03,99,1,03,1,00,1,01250,1,03,1,05,1","01,9","999,+0130,9","999,M,+0270,1","120,N,+0138,1","99999,9,08224,1",,,"SYN124AAXX  30121 76373 32680 30000 10148 20139 38224 40199 5//// 83035 91155 333 10270 20138 30013 56022 58/// 70000 82360 81090;","Q01  00002PRCP06"
"76373099999","2004-08-30T15:00:00","4","25.35","-105.75","1967.0","TEPEHUANES DGO., MX","FM-12","99999","V020","999,9,C,0000,1","22000,1,9,N","030000,1,N,1","+0168,1","+0150,1","10212,1","06,0000,9,1",,,,,"02,1,+00300,9,09,9","01,1,+03000,9,03,9",,"04,99,1,02,1,03,1,00450,1,03,1,01,1","01,9",,,,"99999,9,08235,1","2,1,011,1,+013,1",,"SYN112AAXX  30151 76373 32480 40000 10168 20150 38235 40212 52011 82331 91455 333 30/// 56222 58013 82910 81360 81090;","Q01  00002PRCP06"
"76373099999","2004-08-30T18:00:00","4","25.35","-105.75","1967.0","TEPEHUANES DGO., MX","FM-12","99999","V020","160,1,N,0010,1","03000,1,9,N","070000,1,N,1","+0222,1","+0143,1","10187,1","06,0000,9,1",,,,,"02,1,+00300,9,09,9","02,1,+00300,9,08,9","01,1,+03000,9,03,9","07,99,1,02,1,03,1,00250,1,03,1,02,1","09,9",,"120,M,+0254,1","240,N,+0130,1","99999,9,08236,1","2,1,001,1,+020,1",,"SYN130AAXX  30181 76373 32388 71601 10222 20143 38236 40187 52001 82332 91756 333 10254 20130 31/// 56222 58020 82910 82810 81360 82070;","Q01  00002PRCP06"
"76373099999","2004-08-30T21:00:00","4","25.35","-105.75","1967.0","TEPEHUANES DGO., MX","FM-12","99999","V020","040,1,N,0030,1","03600,1,C,N","070000,1,N,1","+0258,1","+0128,1","10124,2","06,0000,9,1",,,,,"04,1,+00900,9,07,9",,,"08,99,1,04,1,06,1,00450,1,02,1,00,1","01,9",,,,"99999,9,08218,1","7,1,018,1,+014,1",,"SYN106AAXX  30211 76373 32488 80403 10258 20128 38218 40124 57018 84620 92055 333 30/// 56220 58014 84730 84560;","Q01+101243APOSLPQ02  00002PRCP06"
"76373099999","2004-08-31T00:00:00","4","25.35","-105.75","1967.0","TEPEHUANES DGO., MX","FM-12","99999","V020","150,1,N,0030,1","22000,1,9,N","070000,1,N,1","+0248,1","+0140,1","10071,1","06,0000,9,1","24,0000,9,1",,,,"03,1,+00900,9,09,9",,,"06,99,1,03,1,03,1,00450,1,00,1,04,1","01,9",,"120,M,+0288,1","180,N,+0130,1","99999,9,08204,1","6,1,014,1,+016,1",,"SYN130AAXX  31001 76373 32488 61503 10248 20140 38204 40071 56014 83304 92355 333 10288 20130 30/// 50450 56202 58016 70000 83930 83090;","Q01  00002PRCP06"
"76373099999","2004-08-31T12:00:00","4","25.35","-105.75","1967.0","TEPEHUANES DGO., MX","FM-12","99999","V020","999,9,C,0000,1","09000,1,9,N","015000,1,N,1","+0162,1","+0150,1","10203,1","06,0000,9,1","24,0000,9,1",,,,"02,1,+00300,9,08,9",,,"08,99,1,02,1,01,1,00450,1,00,1,07,1","01,9","999,+0140,9","999,M,+0288,1","120,N,+0150,1","99999,9,08233,1","9,9,999,9,+009,1",,"SYN124AAXX  31121 76373 32465 80000 10162 20150 38233 40203 5//// 82107 91155 333 10288 20150 30014 56202 58009 70000 82810 86290;","Q01  00002PRCP06"
"76373099999","2004-08-31T15:00:00","4","25.35","-105.75","1967.0","TEPEHUANES DGO., MX","FM-12","99999","V020","999,9,C,0000,1","03600,1,C,N","070000,1,N,1","+0184,1","+0155,1","10219,1","06,0000,9,1",,,,,"04,1,+00300,9,09,9",,,"08,99,1,04,1,03,1,00450,1,02,1,00,1","01,9",,,,"99999,9,08244,1","1,1,011,1,+009,1",,"SYN106AAXX  31151 76373 32488 80000 10184 20155 38244 40219 51011 84320 91455 333 30/// 56200 58009 84910 84460;","Q01  00002PRCP06"
"76373099999","2004-08-31T18:00:00","4","25.35","-105.75","1967.0","TEPEHUANES DGO., MX","FM-12","99999","V020","160,1,N,0040,1","03600,1,C,N","070000,1,N,1","+0250,1","+0159,1","10191,1","06,0000,9,1",,,,,"99,9,+00990,9,03,9",,,"06,99,1,03,1,03,1,00450,1,03,1,02,1","01,9",,"120,M,+0278,1","240,N,+0146,1","99999,9,08241,1","7,1,003,1,+008,1",,"SYN130AAXX  31181 76373 32488 61604 10250 20159 38241 40191 57003 83332 91758 333 10278 20146 30/// 56222 58008 83810 81810 81360 81070;","Q01  00002PRCP06"
"76373099999","2004-08-31T21:00:00","4","25.35","-105.75","1967.0","TEPEHUANES DGO., MX","FM-12","99999","V020","120,1,N,0060,1","03600,1,C,N","070000,1,N,1","+0256,1","+0150,1","10121,1","06,0000,9,1",,,,,"03,1,+00300,9,09,9","01,1,+03000,9,03,9",,"05,99,1,03,1,03,1,00450,1,03,1,02,1","01,9",,,,"99999,9,08222,1","6,1,019,1,+004,1",,"SYN112AAXX  31211 76373 32488 51206 10256 20150 38222 40121 56019 83332 92055 333 30/// 56222 58004 83910 81360 81090;","Q01  00002PRCP06"
"76373099999","2004-09-01T00:00:00","4","25.35","-105.75","1967.0","TEPEHUANES DGO., MX","FM-12","99999","V020","120,1,N,0020,1","00420,1,9,N","070000,1,N,1","+0216,1","+0100,1","10090,1","06,0000,9,1","24,0000,9,1",,,,,,,"08,99,1,08,1,07,1,00450,1,00,1,00,1","01,9",,"120,M,+0288,1","180,N,+0146,1","99999,9,08223,1","5,1,001,1,+019,1",,"SYN124AAXX  01001 76373 32488 81202 10216 20100 38223 40090 55001 88700 92355 333 10288 20146 30/// 50480 56200 58019 70000 88710;","Q01  00002PRCP06"
"76373099999","2004-09-01T12:00:00","4","25.35","-105.75","1967.0","TEPEHUANES DGO., MX","FM-12","99999","V020","999,9,C,0000,1","00300,1,9,N","015000,1,N,1","+0160,1","+0145,1","10214,1","06,0000,9,1","24,0000,9,1",,,,"08,1,+00300,9,07,9",,,"08,99,1,08,1,06,1,00450,1,99,9,99,9","01,9","999,+0140,9","999,M,+0288,1","120,N,+0150,1","99999,9,08240,1","9,9,999,9,+016,1",,"SYN118AAXX  01121 76373 32465 80000 10160 20145 38240 40214 5//// 886// 91155 333 10288 20150 30014 562// 58016 70000 88710;","Q01  00002PRCP06"
"76373099999","2004-09-01T15:00:00","4","25.35","-105.75","1967.0","TEPEHUANES DGO., MX","FM-12","99999","V020","999,9,C,0000,1","00300,1,9,N","015000,1,N,1","+0170,1","+0155,1","10221,1","03,9999,2,9",,,"2,1,03,1","2,1,03,1","08,1,+00300,9,07,9",,,"08,99,1,08,1,07,1,00450,1,99,9,99,9","09,9",,,,"99999,9,08245,1","1,1,005,1,+001,1","91,1","SYN112AAXX  01151 76373 21465 80000 10170 20155 38245 40221 51005 79122 887// 91455 333 31/// 562// 58001 69907 88710;",
"76373099999","2004-09-01T18:00:00","4","25.35","-105.75","1967.0","TEPEHUANES DGO., MX","FM-12","99999","V020","120,1,N,0010,1","00300,1,9,N","015000,1,N,1","+0202,1","+0147,1","10203,1","06,0000,2,1",,,,,"08,1,+00300,9,07,9",,,"08,99,1,08,1,06,1,00450,1,00,1,00,1","01,9",,"120,M,+0224,1","240,N,+0150,1","99999,9,08243,1","0,1,002,1,+002,1",,"SYN112AAXX  01181 76373 32465 81201 10202 20147 38243 40203 50002 88600 91755 333 10224 20150 30/// 56200 58002 88710;",
"76373099999","2004-09-01T21:00:00","4","25.35","-105.75","1967.0","TEPEHUANES DGO., MX","FM-12","99999","V020","140,1,N,0030,1","03000,1,9,N","070000,1,N,1","+0240,1","+0148,1","10130,2","06,0000,2,1",,,,,"03,1,+00900,9,09,9","02,1,+03000,9,03,9",,"06,99,1,03,1,03,1,00450,1,03,1,02,1","01,9",,,,"99999,9,08219,1","7,1,024,1,-003,1",,"SYN112AAXX  01211 76373 32488 61403 10240 20148 38219 40130 57024 83332 92055 333 30/// 56222 59003 83930 82360 81090;","Q01+101303APOSLP"
"76373099999","2004-09-02T00:00:00","4","25.35","-105.75","1967.0","TEPEHUANES DGO., MX","FM-12","99999","V020","330,1,N,0050,1","00420,1,9,N","070000,1,N,1","+0204,1","+0146,1","10093,1","06,0000,9,1","24,9999,2,9",,,,,,,"08,99,1,08,1,07,1,00450,1,99,9,99,9","01,9",,"120,M,+0280,1","180,N,+0150,1","99999,9,08211,1","5,1,008,1,-013,1",,"SYN124AAXX  02001 76373 32488 83305 10204 20146 38211 40093 55008 887// 92355 333 10280 20150 30/// 50390 562// 59013 79999 88710;","Q01  00002PRCP06"
"76373099999","2004-09-02T12:00:00","4","25.35","-105.75","1967.0","TEPEHUANES DGO., MX","FM-12","99999","V020","999,9,C,0000,1","99999,9,9,N","015000,1,N,1","+0152,1","+0146,1","10188,1","06,0051,9,1",,,"6,1,06,1","5,1,06,1",,,,"08,99,1,99,9,99,9,00450,1,99,9,99,9",,,,,"99999,9,08216,1",,"50,1","SYN072AAXX  02121 76373 01465 80000 10152 20146 38216 40188 5//// 60051 75065;",
"76373099999","2004-09-02T15:00:00","4","25.35","-105.75","1967.0","TEPEHUANES DGO., MX","FM-12","99999","V020","999,9,C,0000,1","00300,1,9,N","015000,1,N,1","+0164,1","+0146,1","10200,1","06,0000,2,1",,,,,"05,1,+00300,9,07,9",,,"08,99,1,05,1,06,1,00450,1,03,1,00,1","09,9",,,,"99999,9,08226,1","7,1,010,1,-019,1",,"SYN106AAXX  02151 76373 32465 80000 10164 20146 38226 40200 57010 85630 91455 333 31/// 56220 59019 85710 83350;",
"76373099999","2004-09-02T18:00:00","4","25.35","-105.75","1967.0","TEPEHUANES DGO., MX","FM-12","99999","V020","999,9,C,0000,1","00300,1,C,N","015000,1,N,1","+0194,1","+0163,1","10192,1","06,0000,2,1",,,,,"02,1,+00300,9,09,9","03,1,+00300,9,07,9","01,1,+00300,9,08,9","08,99,1,03,1,07,1,00450,1,03,1,00,1","09,9",,"120,M,+0210,1","240,N,+0144,1","99999,9,08223,1","0,1,003,1,-020,1",,"SYN130AAXX  02181 76373 32465 80000 10194 20163 38223 40192 50003 83730 91755 333 10210 20144 31/// 56220 59020 83710 82910 81810 82360;",
"76373099999","2004-09-02T21:00:00","4","25.35","-105.75","1967.0","TEPEHUANES DGO., MX","FM-12","99999","V020","300,1,N,0010,1","03600,1,C,N","070000,1,N,1","+0120,1","+9999,9","10139,1","06,0000,9,1",,,,,"04,1,+00300,9,03,9",,,"08,99,1,04,1,03,1,00450,1,06,1,00,1","09,9",,,,"99999,9,08203,1","7,1,022,1,-016,1",,"SYN106AAXX  02211 76373 32488 83001 10120 20138 38203 40139 57022 84360 92055 333 31/// 56220 59016 84310 84360;","Q01  00002PRCP06"
"76373099999","2004-09-03T00:00:00","4","25.35","-105.75","1967.0","TEPEHUANES DGO., MX","FM-12","99999","V020","200,1,N,0010,1","00420,1,9,N","070000,1,N,1","+0220,1","+0144,1","10092,1","06,0000,9,1","24,0290,9,1",,,,,,,"08,99,1,08,1,07,1,00450,1,00,1,00,1","09,9",,"120,M,+0254,1","180,N,+0144,1","99999,9,08190,1","7,1,012,1,-021,1",,"SYN124AAXX  03001 76373 32488 82001 10220 20144 38190 40092 57012 88700 92355 333 10254 20144 31/// 50320 56600 59021 70290 88710;","Q01  00002PRCP06"
"76373099999","2004-09-03T12:00:00","4","25.35","-105.75","1967.0","TEPEHUANES DGO., MX","FM-12","99999","V020","999,9,C,0000,1","00300,1,9,N","001000,1,N,1","+0148,1","+0139,1","10179,1","06,0140,9,1","12,0140,9,1","24,0142,9,1","2,1,06,1","2,1,06,1","08,1,+00300,9,07,9",,,"08,99,1,08,1,07,1,00450,1,99,9,99,9","09,9","999,+0120,9","999,M,+0254,1","120,N,+0130,1","99999,9,08208,1","9,9,999,9,-008,1","10,1","SYN136AAXX  03121 76373 01410 80000 10148 20139 38208 40179 5//// 60141 71022 887// 91155 333 10254 20130 31012 56/// 59008 60142 70142 88710;",
"76373099999","2004-09-03T15:00:00","4","25.35","-105.75","1967.0","TEPEHUANES DGO., MX","FM-12","99999","V020","999,9,C,0000,1","00300,1,9,N","015000,1,N,1","+0150,1","+0144,1","10188,1","06,0000,9,1",,,,,"05,1,+00300,9,09,9",,,"06,99,1,05,1,03,1,00450,1,03,1,00,1","09,9",,,,"99999,9,08213,1","2,1,005,1,-013,1",,"SYN106AAXX  03151 76373 32465 60000 10150 20144 38213 40188 52005 85330 91455 333 31/// 56660 59013 85910 81260;","Q01  00002PRCP06"
"76373099999","2004-09-03T18:00:00","4","25.35","-105.75","1967.0","TEPEHUANES DGO., MX","FM-12","99999","V020","150,1,N,0010,1","22000,1,9,N","070000,1,N,1","+0222,1","+0138,1","10165,1","06,0000,9,1",,,,,"02,1,+00900,9,09,9",,,"03,99,1,02,1,03,1,00450,1,03,1,00,1","09,9",,"120,M,+0238,1","240,N,+0126,1","99999,9,08211,1","0,1,002,1,-012,1",,"SYN118AAXX  03181 76373 32488 31501 10222 20138 38211 40165 50002 82330 91755 333 10238 20126 31/// 56660 59012 82930 81360;","Q01  00002PRCP06"
"76373099999","2004-09-03T21:00:00","4","25.35","-105.75","1967.0","TEPEHUANES DGO., MX","FM-12","99999","V020","170,1,N,0010,1","22000,1,9,N","070000,1,N,1","+0252,1","+0133,1","10100,2","06,0000,9,1",,,,,"02,1,+00300,9,07,9",,,"03,99,1,02,1,06,1,00450,1,02,1,00,1","01,9",,,,"99999,9,08195,1","6,1,017,1,-008,1",,"SYN106AAXX  03211 76373 32488 31701 10252 20133 38195 40100 56017 82620 92055 333 30/// 56660 59008 82710 81560;","Q01+101003APOSLPQ02  00002PRCP06"
"76373099999","2004-09-04T00:00:00","4","25.35","-105.75","1967.0","TEPEHUANES DGO., MX","FM-12","99999","V020","300,1,N,0030,1","03000,1,C,N","070000,1,N,1","+0226,1","+0145,1","10056,1","06,0000,9,1","24,0142,9,1",,,,"04,1,+00900,9,09,9","01,1,+03000,9,03,9",,"06,99,1,04,1,03,1,00450,1,03,1,02,1","01,9",,"120,M,+0286,1","180,N,+0126,1","99999,9,08184,1","6,1,010,1,-006,1",,"SYN136AAXX  04001 76373 32488 63003 10226 20145 38184 40056 56010 84332 92355 333 10286 20126 30/// 50470 56666 59006 70142 84930 81360 81090;","Q01  00002PRCP06"
"76373099999","2004-09-04T15:00:00","4","25.35","-105.75","1967.0","TEPEHUANES DGO., MX","FM-12","99999","V020","210,1,N,0010,1","00900,1,9,N","070000,1,N,1","+0170,1","+0149,1","10203,1","06,0000,9,1",,,,,"08,1,+00900,9,06,9",,,"08,99,1,08,1,05,1,00450,1,00,1,00,1","01,9",,,,"99999,9,08221,1","9,9,999,9,-002,1",,"SYN100AAXX  04151 76373 32488 82101 10170 20149 38221 40203 5//// 88500 91455 333 30/// 56600 59002 88630;","Q01  00002PRCP06"
"76373099999","2004-09-04T21:00:00","4","25.35","-105.75","1967.0","TEPEHUANES DGO., MX","FM-12","99999","V020","999,9,C,0000,1","00300,1,C,N","070000,1,N,1","+0228,1","+0147,1","10116,2","03,9999,9,9",,,,,"02,1,+00300,9,09,9","03,1,+00300,9,07,9","01,1,+03000,9,05,9","07,99,1,03,1,03,1,00450,1,05,1,00,1","01,9",,,,"99999,9,08204,1","7,1,015,1,+010,1",,"SYN124AAXX  04211 76373 22488 70000 10228 20147 38204 40116 57015 83350 92055 333 30/// 56660 58010 69907 83710 82910 81560 81360;","Q01+101163APOSLPQ02  99992PRCP03"
"76373099999","2004-09-05T00:00:00","4","25.35","-105.75","1967.0","TEPEHUANES DGO., MX","FM-12","99999","V020","220,1,N,0030,1","03000,1,C,N","070000,1,N,1","+0254,1","+0141,1","10069,1","06,0000,9,1","24,9999,9,9",,,,"04,1,+00900,9,09,9","02,1,+03000,9,03,9",,"07,99,1,04,1,03,1,00450,1,03,1,02,1","01,9",,"120,M,+0284,1","180,N,+0136,1","99999,9,08202,1","5,1,002,1,-002,1",,"SYN136AAXX  05001 76373 32488 72203 10254 20141 38202 40069 55002 84332 92355 333 10284 20136 30/// 50330 56666 59002 79999 84930 82360 81090;","Q01  00002PRCP06Q02  99992PRCP24"
"76373099999","2004-09-05T15:00:00","4","25.35","-105.75","1967.0","TEPEHUANES DGO., MX","FM-12","99999","V020","999,9,C,0000,1","22000,1,9,N","070000,1,N,1","+0164,1","+0137,1","10217,1","06,0000,9,1",,,,,"01,1,+00900,9,08,9","02,1,+03000,9,03,9",,"04,99,1,01,1,01,1,00450,1,03,1,02,1","01,9",,,,"99999,9,08230,1","9,9,999,9,+009,1",,"SYN112AAXX  05151 76373 32488 40000 10164 20137 38230 40217 5//// 81132 91455 333 30/// 56233 58009 81830 82360 81090;","Q01  00002PRCP06"
"76373099999","2004-09-05T18:00:00","4","25.35","-105.75","1967.0","TEPEHUANES DGO., MX","FM-12","99999","V020","999,9,C,0000,1","03000,1,9,N","070000,1,N,1","+0230,1","+0139,1","10193,1","06,0000,9,1",,,,,"03,1,+00900,9,09,9","03,1,+03000,9,03,9",,"07,99,1,03,1,03,1,00450,1,05,1,08,1","01,9",,"120,M,+0248,1","240,N,+0130,1","99999,9,08228,1","8,1,002,1,+009,1",,"SYN124AAXX  05181 76373 32488 70000 10230 20139 38228 40193 58002 83358 91755 333 10248 20130 30/// 56222 58009 83930 83360 81290;","Q01  00002PRCP06"
"76373099999","2004-09-06T15:00:00","4","25.35","-105.75","1967.0","TEPEHUANES DGO., MX","FM-12","99999","V020","999,9,C,0000,1","03600,1,C,N","030000,1,N,1","+0186,1","+0151,1","10203,1","15,0020,9,1",,,,,"02,1,+00300,9,07,9",,,"08,99,1,02,1,05,1,00250,1,03,1,00,1","09,9",,,,"99999,9,08215,1","9,9,999,9,-015,1",,"SYN118AAXX  06151 76373 02380 80000 10186 20151 38215 40203 5//// 60029 82530 91455 333 31/// 56220 59015 60029 82710 86360;",
"76373099999","2004-09-06T18:00:00","4","25.35","-105.75","1967.0","TEPEHUANES DGO., MX","FM-12","99999","V020","120,1,N,0020,1","03600,1,C,N","070000,1,N,1","+0236,1","+0172,1","10175,1","06,0000,9,1",,,,,"04,1,+00300,9,09,9","02,1,+00300,9,06,9",,"07,99,1,04,1,03,1,00250,1,03,1,00,1","01,9",,"120,M,+0264,1","240,N,+0142,1","99999,9,08211,1","7,1,004,1,-009,1",,"SYN124AAXX  06181 76373 32388 71202 10236 20172 38211 40175 57004 84330 91755 333 10264 20142 30/// 56220 59009 84910 82610 81360;","Q01  00002PRCP06"
"76373099999","2004-09-06T21:00:00","4","25.35","-105.75","1967.0","TEPEHUANES DGO., MX","FM-12","99999","V020","120,1,N,0050,1","00300,1,9,N","060000,1,N,1","+0196,1","+0167,1","10067,2","02,0020,9,1",,,"5,1,03,1","5,1,03,1","08,1,+00300,9,06,9",,,"08,99,1,08,1,07,1,00250,1,00,1,00,1","09,9",,,,"99999,9,08192,1","6,1,019,1,+999,9","50,1","SYN118AAXX  06211 76373 01386 81205 10196 20167 38192 40067 56019 60026 75055 88700 92055 333 31/// 56200 58/// 60026 88610;","Q01+100673APOSLP"
"76373099999","2004-09-07T00:00:00","4","25.35","-105.75","1967.0","TEPEHUANES DGO., MX","FM-12","99999","V020","320,1,N,0010,1","03000,1,C,N","070000,1,N,1","+0222,1","+0161,1","10044,1","06,0000,2,1","24,0034,9,1",,,,"03,1,+00600,9,09,9","03,1,+03000,9,03,9",,"08,99,1,03,1,03,1,00250,1,03,1,05,1","09,9",,"120,M,+0290,1","180,N,+0142,1","99999,9,08179,1","6,1,013,1,+999,9",,"SYN136AAXX  07001 76373 32388 83201 10222 20161 38179 40044 56013 83335 92350 333 10290 20142 31/// 50340 56222 58/// 70034 83920 83360 82080;",
"76373099999","2004-09-07T15:00:00","4","25.35","-105.75","1967.0","TEPEHUANES DGO., MX","FM-12","99999","V020","270,1,N,0020,1","03600,1,C,N","070000,1,N,1","+0198,1","+0148,1","10210,1","06,0000,9,1",,,,,"03,1,+00300,9,08,9",,,"06,99,1,03,1,02,1,00450,1,03,1,00,1","09,9",,,,"99999,9,08222,1","9,9,999,9,+007,1",,"SYN106AAXX  07151 76373 32488 62702 10198 20148 38222 40210 5//// 83230 91455 333 31/// 56220 58007 83810 83360;","Q01  00002PRCP06"
"76373099999","2004-09-07T18:00:00","4","25.35","-105.75","1967.0","TEPEHUANES DGO., MX","FM-12","99999","V020","140,1,N,0050,1","03600,1,C,N","070000,1,N,1","+0238,1","+0158,1","10187,1","06,0000,9,1",,,,,"02,1,+00300,9,09,9","02,1,+00300,9,08,9",,"05,99,1,02,1,03,1,00450,1,03,1,00,1","01,9",,"120,M,+0258,1","240,N,+0138,1","99999,9,08221,1","7,1,001,1,+010,1",,"SYN124AAXX  07181 76373 32488 51405 10238 20158 38221 40187 57001 82330 91755 333 10258 20138 30/// 56220 58010 82910 82810 81360;","Q01  00002PRCP06"
"76373099999","2004-09-07T21:00:00","4","25.35","-105.75","1967.0","TEPEHUANES DGO., MX","FM-12","99999","V020","110,1,N,0030,1","00900,1,C,N","070000,1,N,1","+0252,1","+0152,1","10116,1","06,0000,9,1",,,,,"04,1,+00900,9,09,9","01,1,+00900,9,08,9",,"07,99,1,04,1,03,1,00450,1,03,1,00,1","01,9",,,,"99999,9,08201,1","6,1,020,1,+009,1",,"SYN112AAXX  07211 76373 32488 71103 10252 20152 38201 40116 56020 84330 92055 333 30/// 56220 58009 84930 81830 82360;","Q01  00002PRCP06"
"76373099999","2004-09-08T00:00:00","4","25.35","-105.75","1967.0","TEPEHUANES DGO., MX","FM-12","99999","V020","230,1,N,0010,1","00600,1,C,N","070000,1,N,1","+0218,1","+0161,1","10058,1","06,0000,9,1","24,0000,9,1",,,,"05,1,+00600,9,09,9",,,"08,99,1,05,1,09,1,00250,1,03,1,00,1","01,9",,"120,M,+0288,1","180,N,+0138,1","99999,9,08186,1","6,1,015,1,+007,1",,"SYN130AAXX  08001 76373 32388 82301 10218 20161 38186 40058 56015 85930 92355 333 10288 20138 30/// 50670 56220 58007 70000 85920 82360;","Q01  00002PRCP06"
"76373099999","2004-09-08T12:00:00","4","25.35","-105.75","1967.0","TEPEHUANES DGO., MX","FM-12","99999","V020","999,9,C,0000,1","00300,1,9,N","010000,1,N,1","+0164,1","+0134,1","10189,1","06,9999,9,9","24,0000,9,1",,,,"08,1,+00300,9,07,9",,,"08,99,1,08,1,06,1,00450,1,99,9,99,9","01,9","999,-0400,9","999,M,+0288,1","120,N,+0152,1","99999,9,08221,1",,,"SYN124AAXX  08121 76373 02460 80000 10164 20134 38221 40189 5//// 886// 91155 333 10288 20152 30140 562// 58/// 69901 79999 88710;","Q01  00002PRCP24Q02  99992PRCP06"
"76373099999","2004-09-08T15:00:00","4","25.35","-105.75","1967.0","TEPEHUANES DGO., MX","FM-12","99999","V020","999,9,C,0000,1","00900,1,9,N","070000,1,N,1","+0174,1","+0135,1","10204,1","06,0000,9,1",,,,,"08,1,+00900,9,07,9",,,"08,99,1,08,1,06,1,00450,1,99,9,99,9","01,9",,,,"99999,9,08232,1","2,1,011,1,+010,1",,"SYN100AAXX  08151 76373 32488 80000 10174 20135 38232 40204 52011 886// 91455 333 30/// 562// 58010 88730;","Q01  00002PRCP06"
"76373099999","2004-09-08T21:00:00","4","25.35","-105.75","1967.0","TEPEHUANES DGO., MX","FM-12","99999","V020","330,1,N,0030,1","00900,1,9,N","070000,1,N,1","+0210,1","+0126,1","10131,1","06,0000,9,1",,,,,"06,1,+00900,9,07,9",,,"08,99,1,06,1,06,1,00450,1,03,1,00,1","01,9",,,,"99999,9,08220,1","7,1,014,1,+019,1",,"SYN106AAXX  08211 76373 32488 83303 10210 20126 38220 40131 57014 86630 92055 333 30/// 56220 58019 86730 82360;","Q01  00002PRCP06"
"76373099999","2004-09-09T12:00:00","4","25.35","-105.75","1967.0","TEPEHUANES DGO., MX","FM-12","99999","V020","270,1,N,0010,1","22000,1,9,N","070000,1,N,1","+0104,1","+0094,1","10210,1","06,0000,9,1","24,0000,9,1",,,,"00,1,+99999,9,99,9",,,"00,99,1,00,1,00,1,99999,9,00,1,00,1","01,9",,"999,M,+0256,1","120,N,+0094,1","99999,9,08223,1","9,9,999,9,+002,1",,"SYN100AAXX  09121 76373 32988 02701 10104 20094 38223 40210 5//// 91155 333 10256 20094 30080 58002 70000;","Q01  00002PRCP06Q02  00002PRCP24"
"76373099999","2004-09-09T18:00:00","4","25.35","-105.75","1967.0","TEPEHUANES DGO., MX","FM-12","99999","V020","120,1,N,0030,1","22000,1,9,N","070000,1,N,1","+0220,1","+0117,1","10194,1","06,0000,9,1",,,,,"01,1,+00300,9,08,9",,,"01,99,1,01,1,01,1,00450,1,00,1,00,1","01,9",,"120,M,+0244,1","240,N,+0086,1","99999,9,08229,1","7,1,007,1,-007,1",,"SYN112AAXX  09181 76373 32488 11203 10220 20117 38229 40194 57007 81100 91755 333 10244 20086 30/// 56200 59007 81810;","Q01  00002PRCP06"
"76373099999","2004-09-09T21:00:00","4","25.35","-105.75","1967.0","TEPEHUANES DGO., MX","FM-12","99999","V020","120,1,N,0050,1","22000,1,9,N","070000,1,N,1","+0248,1","+0123,1","10124,2","06,0000,9,1",,,,,"01,1,+00900,9,08,9",,,"01,99,1,01,1,01,1,00450,1,00,1,00,1","01,9",,,,"99999,9,08209,1","6,1,020,1,-011,1",,"SYN100AAXX  09211 76373 32488 11205 10248 20123 38209 40124 56020 81100 92055 333 30/// 56200 59011 81830;","Q01+101243APOSLPQ02  00002PRCP06"
"76373099999","2004-09-10T12:00:00","4","25.35","-105.75","1967.0","TEPEHUANES DGO., MX","FM-12","99999","V020","999,9,C,0000,1","22000,1,9,N","030000,1,N,1","+0098,1","+0085,1","10220,1","06,0000,9,1","24,0000,9,1",,,,"00,1,+99999,9,99,9",,,"00,99,1,00,1,00,1,99999,9,00,1,00,1","01,9","999,+0600,9","999,M,+0275,1","120,N,+0086,1","99999,9,08231,1","9,9,999,9,+008,1",,"SYN100AAXX  10121 76373 32980 00000 10098 20085 38231 40220 5//// 91155 333 10275 20086 30060 58008 70000;","Q01  00002PRCP06Q02  00002PRCP24"
"76373099999","2004-09-10T15:00:00","4","25.35","-105.75","1967.0","TEPEHUANES DGO., MX","FM-12","99999","V020","999,9,C,0000,1","22000,1,9,N","070000,1,N,1","+0148,1","+0110,1","10241,1","06,0000,9,1",,,,,"00,1,+99999,9,99,9",,,"00,99,1,00,1,00,1,99999,9,00,1,00,1","01,9",,,,"99999,9,08245,1","1,1,014,1,+009,1",,"SYN082AAXX  10151 76373 32988 00000 10148 20110 38245 40241 51014 91455 333 30/// 58009;","Q01  00002PRCP06"
"76373099999","2004-09-11T15:00:00","4","25.35","-105.75","1967.0","TEPEHUANES DGO., MX","FM-12","99999","V020","999,9,C,0000,1","22000,1,9,N","070000,1,N,1","+0124,1","+0089,1","10128,1","06,0000,9,1",,,,,"00,1,+99999,9,99,9",,,"00,99,1,00,1,00,1,99999,9,00,1,00,1","01,9",,,,"99999,9,08238,1","9,9,999,9,-007,1",,"SYN082AAXX  11151 76373 32988 00000 10124 20089 38238 40128 5//// 91455 333 30/// 59007;","Q01  00002PRCP06"
"76373099999","2004-09-11T18:00:00","4","25.35","-105.75","1967.0","TEPEHUANES DGO., MX","FM-12","99999","V020","110,1,N,0020,1","22000,1,9,N","070000,1,N,1","+0236,1","+0098,1","10125,1","06,0000,9,1",,,,,"00,1,+99999,9,99,9",,,"00,99,1,00,1,00,1,99999,9,00,1,00,1","01,9",,"120,M,+0260,1","240,N,+0084,1","99999,9,08235,1","6,1,003,1,-005,1",,"SYN094AAXX  11181 76373 32988 01102 10236 20098 38235 40125 56003 91750 333 10260 20084 30/// 59005;","Q01  00002PRCP06"
"76373099999","2004-09-11T21:00:00","4","25.35","-105.75","1967.0","TEPEHUANES DGO., MX","FM-12","99999","V020","110,1,N,0020,1","22000,1,9,N","070000,1,N,1","+0272,1","+0153,1","10104,1","06,0000,9,1",,,,,"03,1,+00600,9,09,9",,,"03,99,1,03,1,03,1,00250,1,00,1,00,1","01,9",,,,"99999,9,08205,1","6,1,030,1,-017,1",,"SYN100AAXX  11211 76373 32388 31102 10272 20153 38205 40104 56030 83300 92050 333 30/// 56200 59017 83920;","Q01  00002PRCP06"
"76373099999","2004-09-12T15:00:00","4","25.35","-105.75","1967.0","TEPEHUANES DGO., MX","FM-12","99999","V020","330,1,N,0010,1","22000,1,9,N","070000,1,N,1","+0162,1","+0018,1","10116,1","06,0000,9,1",,,,,"00,1,+99999,9,99,9",,,"00,99,1,00,1,00,1,99999,9,00,1,00,1","01,9",,,,"99999,9,08218,1","9,9,999,9,-020,1",,"SYN082AAXX  12151 76373 32988 03301 10162 20018 38218 40116 5//// 91450 333 30/// 59020;","Q01  00002PRCP06"
"76373099999","2004-09-12T18:00:00","4","25.35","-105.75","1967.0","TEPEHUANES DGO., MX","FM-12","99999","V020","120,1,N,0030,1","22000,1,C,N","070000,1,N,1","+0248,1","+0152,2","10118,1","06,0000,9,1",,,,,"02,1,+00600,9,08,9",,,"05,99,1,02,1,02,1,00250,1,00,1,04,1","01,9",,"120,M,+0270,1","240,N,+0095,1","99999,9,08219,1","2,1,001,1,-016,1",,"SYN118AAXX  12181 76373 32388 51203 10248 20152 38219 40118 52001 82204 91735 333 10270 20095 30/// 56202 59016 82820 83080;","Q01  00002PRCP06"
"76373099999","2004-09-12T21:00:00","4","25.35","-105.75","1967.0","TEPEHUANES DGO., MX","FM-12","99999","V020","150,1,N,0040,1","09000,1,9,N","070000,1,N,1","+0276,1","+0102,1","10072,1","06,0000,9,1",,,,,"02,1,+00900,9,08,9",,,"06,99,1,02,1,02,1,00450,1,00,1,08,1","01,9",,,,"99999,9,08191,1","6,1,028,1,-014,1",,"SYN106AAXX  12211 76373 32488 61504 10276 20102 38191 40072 56028 82208 92055 333 30/// 56202 59014 82830 84290;","Q01  00002PRCP06"
"76373099999","2004-09-13T00:00:00","4","25.35","-105.75","1967.0","TEPEHUANES DGO., MX","FM-12","99999","V020","230,1,N,0010,1","00600,1,C,N","070000,1,N,1","+0218,1","+0161,1","10058,1","06,0000,9,1","24,0000,9,1",,,,"05,1,+00600,9,09,9",,,"08,99,1,05,1,09,1,00250,1,03,1,00,1","01,9",,"120,M,+0288,1","180,N,+0138,1","99999,9,08186,1","6,1,015,1,+007,1",,"SYN130AAXX  08001 76373 32388 82301 10218 20161 38186 40058 56015 85930 92355 333 10288 20138 30/// 50670 56220 58007 70000 85920 82360;","Q01  00002PRCP06"
"76373099999","2004-09-13T12:00:00","4","25.35","-105.75","1967.0","TEPEHUANES DGO., MX","FM-12","99999","V020","270,1,N,0010,1","22000,1,9,N","030000,1,N,1","+0118,1","+0105,1","10209,1","06,0000,9,1","24,0000,9,1",,,,"00,1,+99999,9,99,9",,,"00,99,1,00,1,00,1,99999,9,00,1,00,1","01,9",,"999,M,+0308,1","120,N,+0105,1","99999,9,08226,1",,,"SYN100AAXX  13121 76373 32980 02701 10118 20105 38226 40209 5//// 91155 333 10308 20105 30080 58/// 70000;","Q01  00002PRCP06Q02  00002PRCP24"
"76373099999","2004-09-13T21:00:00","4","25.35","-105.75","1967.0","TEPEHUANES DGO., MX","FM-12","99999","V020","120,1,N,0020,1","22000,1,9,N","070000,1,N,1","+0286,1","+0121,1","10076,1","06,0000,9,1",,,,,"03,1,+00900,9,09,9",,,"04,99,1,03,1,03,1,00450,1,00,1,00,1","01,9",,,,"99999,9,08182,1","6,1,024,1,-008,1",,"SYN106AAXX  13211 76373 32488 41202 10286 20121 38182 40076 56024 83300 92055 333 30/// 56200 59008 83930 81830;","Q01  00002PRCP06"
"76373099999","2004-09-14T12:00:00","4","25.35","-105.75","1967.0","TEPEHUANES DGO., MX","FM-12","99999","V020","999,9,C,0000,1","22000,1,9,N","030000,1,N,1","+0134,1","+0115,1","10161,1","06,0010,9,1","12,0010,9,1","24,0013,9,1",,,"00,1,+99999,9,99,9",,,"00,99,1,00,1,00,1,99999,9,00,1,00,1","01,9","999,-0100,9","999,M,+0320,1","120,N,+0122,1","99999,9,08194,1","9,9,999,9,-018,1",,"SYN112AAXX  14121 76373 02980 00000 10134 20115 38194 40161 5//// 60012 91155 333 10320 20122 30110 59018 60011 70012;",
"76373099999","2004-09-14T15:00:00","4","25.35","-105.75","1967.0","TEPEHUANES DGO., MX","FM-12","99999","V020","999,9,C,0000,1","22000,1,9,N","070000,1,N,1","+0164,1","+0131,1","10173,1","06,0000,9,1",,,,,"00,1,+99999,9,99,9",,,"00,99,1,00,1,00,1,99999,9,00,1,00,1","01,9",,,,"99999,9,08200,1","1,1,006,1,-017,1",,"SYN082AAXX  14151 76373 32988 00000 10164 20131 38200 40173 51006 91455 333 30/// 59017;","Q01  00002PRCP06"
"76373099999","2004-09-14T18:00:00","4","25.35","-105.75","1967.0","TEPEHUANES DGO., MX","FM-12","99999","V020","150,1,N,0010,1","22000,1,9,N","070000,1,N,1","+0244,1","+0150,1","10156,1","06,0000,9,1",,,,,"02,1,+00300,9,09,9",,,"03,99,1,02,1,03,1,00450,1,00,1,00,1","01,9",,"120,M,+0268,1","240,N,+0115,1","99999,9,08191,1","6,1,009,1,-006,1",,"SYN118AAXX  14181 76373 32488 31501 10244 20150 38191 40156 56009 82300 91755 333 10268 20115 30/// 56200 59006 82910 81810;","Q01  00002PRCP06"
"76373099999","2004-09-15T00:00:00","4","25.35","-105.75","1967.0","TEPEHUANES DGO., MX","FM-12","99999","V020","300,1,N,0020,1","03600,1,9,N","070000,1,N,1","+0230,1","+0142,1","10018,2","06,0000,9,1","24,0012,9,1",,,,"04,1,+00600,9,09,9",,,"08,99,1,04,1,03,1,00250,1,07,1,00,1","01,9",,"120,M,+0316,1","180,N,+0115,1","99999,9,08150,1","6,1,031,1,-011,1",,"SYN130AAXX  15001 76373 32388 83002 10230 20142 38150 40018 56031 84370 92350 333 10316 20115 30/// 50460 56200 59011 70012 84920 84720;","Q01  00002PRCP06"
"76373099999","2004-09-15T12:00:00","4","25.35","-105.75","1967.0","TEPEHUANES DGO., MX","FM-12","99999","V020","999,9,C,0000,1","22000,1,9,N","030000,1,N,1","+0116,1","+0103,1","10173,1","06,0000,9,1","24,0000,9,1",,,,"00,1,+99999,9,99,9",,,"00,99,1,00,1,00,1,99999,9,00,1,00,1","01,9",,"999,M,+0316,1","120,N,+0112,1","99999,9,08195,1","9,9,999,9,+001,1",,"SYN100AAXX  15121 76373 32980 00000 10116 20103 38195 40173 5//// 91155 333 10316 20112 30080 58001 70000;","Q01  00002PRCP06Q02  00002PRCP24"
"76373099999","2004-09-15T15:00:00","4","25.35","-105.75","1967.0","TEPEHUANES DGO., MX","FM-12","99999","V020","999,9,C,0000,1","22000,1,9,N","070000,1,N,1","+0156,1","+0125,1","10187,1","06,0000,9,1",,,,,"02,1,+00025,9,02,9",,,"99,99,9,00,1,00,1,99999,9,00,1,00,1","01,9",,,,"99999,9,08206,1","2,1,011,1,-006,1",,"SYN100AAXX  15151 76373 32988 00000 10156 20125 38206 40187 52011 80008 91455 333 30/// 56002 59006 82290;","Q01+000002SCOTCVQ02  00002PRCP06"
"76373099999","2004-09-15T18:00:00","4","25.35","-105.75","1967.0","TEPEHUANES DGO., MX","FM-12","99999","V020","120,1,N,0010,1","09000,1,C,N","070000,1,N,1","+0248,1","+0147,1","10152,1","06,0000,9,1",,,,,"02,1,+00300,9,08,9",,,"07,99,1,02,1,01,1,00450,1,00,1,08,1","01,9",,"120,M,+0276,1","240,N,+0092,1","99999,9,08201,1","7,1,005,1,+010,1",,"SYN118AAXX  15181 76373 32488 71201 10248 20147 38201 40152 57005 82108 91755 333 10276 20092 30/// 56206 58010 82810 85270;","Q01  00002PRCP06"
"76373099999","2004-09-15T21:00:00","4","25.35","-105.75","1967.0","TEPEHUANES DGO., MX","FM-12","99999","V020","170,1,N,0060,1","22000,1,9,N","070000,1,N,1","+0294,1","+0116,1","10076,2","06,0000,9,1",,,,,"04,1,+00900,9,08,9",,,"04,99,1,04,1,03,1,00450,1,00,1,00,1","01,9",,,,"99999,9,08181,1","7,1,020,1,+000,1",,"SYN100AAXX  15211 76373 32488 41706 10294 20116 38181 40076 57020 84300 92055 333 30/// 56200 58000 84830;","Q01+100763APOSLPQ02  00002PRCP06"
"76373099999","2004-09-16T00:00:00","4","25.35","-105.75","1967.0","TEPEHUANES DGO., MX","FM-12","99999","V020","120,1,N,0060,1","03600,1,C,N","070000,1,N,1","+0256,1","+0098,1","10012,2","06,0000,9,1","24,0000,9,1",,,,"04,1,+00600,9,09,9",,,"08,99,1,04,1,03,1,00250,1,07,1,00,1","01,9",,"120,M,+0320,1","180,N,+0092,1","99999,9,08163,1","6,1,018,1,+013,1",,"SYN124AAXX  16001 76373 32388 81206 10256 20098 38163 40012 56018 84370 92350 333 10320 20092 30/// 50510 58013 70000 84920 84360;","Q01+100123APOSLPQ02  00002PRCP06"
"76373099999","2004-09-16T12:00:00","4","25.35","-105.75","1967.0","TEPEHUANES DGO., MX","FM-12","99999","V020","999,9,C,0000,1","03000,1,9,N","030000,1,N,1","+0156,1","+0138,1","10164,1","06,0000,9,1","24,0000,9,1",,,,"06,1,+03000,9,03,9",,,"06,99,1,06,1,00,1,01250,1,05,1,00,1","01,9","999,-0400,9","999,M,+0320,1","120,N,+0144,1","99999,9,08200,1","9,9,999,9,+005,1",,"SYN118AAXX  16121 76373 32680 60000 10156 20138 38200 40164 5//// 86050 91155 333 10320 20144 30140 56020 58005 70000 86360;","Q01  00002PRCP06"
"76373099999","2004-09-16T15:00:00","4","25.35","-105.75","1967.0","TEPEHUANES DGO., MX","FM-12","99999","V020","280,1,N,0010,1","22000,1,9,N","070000,1,N,1","+0196,1","+0137,1","10174,1","06,0000,9,1",,,,,"01,1,+00025,9,02,9",,,"01,99,1,00,1,00,1,99999,9,00,1,08,1","01,9",,,,"99999,9,08207,1","2,1,007,1,+001,1",,"SYN100AAXX  16151 76373 32988 12801 10196 20137 38207 40174 52007 80008 91455 333 30/// 56002 58001 81290;","Q01  00002PRCP06"
"76373099999","2004-09-16T18:00:00","4","25.35","-105.75","1967.0","TEPEHUANES DGO., MX","FM-12","99999","V020","160,1,N,0020,1","22000,1,9,N","070000,1,N,1","+0264,1","+0162,1","10141,1","06,0000,9,1",,,,,"01,1,+00300,9,09,9","01,1,+00300,9,08,9",,"03,99,1,01,1,03,1,00450,1,03,1,00,1","01,9",,"120,M,+0294,1","240,N,+0142,1","99999,9,08204,1","6,1,027,1,+003,1",,"SYN124AAXX  16181 76373 32488 31602 10264 20162 38204 40141 56027 81330 91755 333 10294 20142 30/// 56220 58003 81910 81810 81360;","Q01  00002PRCP06"
"76373099999","2004-09-16T21:00:00","4","25.35","-105.75","1967.0","TEPEHUANES DGO., MX","FM-12","99999","V020","130,1,N,0050,1","03000,1,9,N","070000,1,N,1","+0298,1","+0144,1","10066,2","06,0000,9,1",,,,,"04,1,+00900,9,07,9","01,1,+03000,9,03,9",,"07,99,1,04,1,06,1,00450,1,03,1,08,1","01,9",,,,"99999,9,08185,1","6,1,019,1,+004,1",,"SYN112AAXX  16211 76373 32488 71305 10298 20144 38185 40066 56019 84638 92055 333 30/// 56222 58004 84730 81360 82290;","Q01+100663APOSLPQ02  00002PRCP06"
"76373099999","2004-09-17T12:00:00","4","25.35","-105.75","1967.0","TEPEHUANES DGO., MX","FM-12","99999","V020","999,9,C,0000,1","22000,1,9,N","030000,1,N,1","+0164,1","+0152,1","10164,1","06,0000,9,1","24,0000,9,1",,,,"01,1,+03000,9,03,9",,,"02,99,1,01,1,00,1,99999,9,04,1,08,1","01,9","999,-0500,9","999,M,+0324,1","120,N,+0154,1","99999,9,08201,1","9,9,999,9,+001,1",,"SYN124AAXX  17121 76373 32980 20000 10164 20152 38201 40164 5//// 81048 91155 333 10324 20154 30150 56022 58001 70000 81360 81290;","Q01  00002PRCP06"
"76373099999","2004-09-17T15:00:00","4","25.35","-105.75","1967.0","TEPEHUANES DGO., MX","FM-12","99999","V020","999,9,C,0000,1","22000,1,9,N","070000,1,N,1","+0194,1","+0160,1","10177,1","06,0000,9,1",,,,,"01,1,+03000,9,03,9",,,"02,99,1,01,1,00,1,01250,1,03,1,08,1","01,9",,,,"99999,9,08212,1","2,1,011,1,-005,1",,"SYN106AAXX  17151 76373 32688 20000 10194 20160 38212 40177 52011 81038 91455 333 30/// 56022 59005 81360 81290;","Q01  00002PRCP06"
"76373099999","2004-09-17T18:00:00","4","25.35","-105.75","1967.0","TEPEHUANES DGO., MX","FM-12","99999","V020","130,1,N,0030,1","03000,1,9,N","070000,1,N,1","+0270,1","+0147,1","10149,1","06,0000,9,1",,,,,"02,1,+00300,9,09,9","01,1,+00300,9,08,9","02,1,+03000,9,03,9","06,99,1,02,1,03,1,00450,1,03,1,02,1","01,9",,"120,M,+0290,1","240,N,+0148,1","99999,9,08210,1","7,1,002,1,+006,1",,"SYN130AAXX  17181 76373 32488 61303 10270 20147 38210 40149 57002 82332 91755 333 10290 20148 30/// 56222 58006 82910 81810 82360 81070;","Q01  00002PRCP06"
"76373099999","2004-09-18T00:00:00","4","25.35","-105.75","1967.0","TEPEHUANES DGO., MX","FM-12","99999","V020","090,1,N,0030,1","09000,1,9,N","070000,1,N,1","+0264,1","+0129,1","10072,1","06,0000,9,1","24,9999,9,9",,,,"03,1,+03000,9,03,9",,,"07,99,1,03,1,00,1,01250,1,07,1,06,1","01,9",,"120,M,+0320,1","180,N,+0148,1","99999,9,08181,1","5,1,002,1,-007,1",,"SYN130AAXX  18001 76373 32688 70903 10264 20129 38181 40072 55002 83076 92355 333 10320 20148 30/// 50560 56022 59007 79999 83360 84090;","Q01  00002PRCP06Q02  99992PRCP24"
"76373099999","2004-09-18T18:00:00","4","25.35","-105.75","1967.0","TEPEHUANES DGO., MX","FM-12","99999","V020","120,1,N,0060,1","22000,1,C,N","070000,1,N,1","+0246,1","+0146,1","10116,1","15,0020,9,1",,,,,"04,1,+00600,9,09,9",,,"08,99,1,04,1,03,1,00450,1,00,1,04,1","01,9",,"120,M,+0266,1","240,N,+0138,1","99999,9,08198,1","6,1,004,1,-012,1",,"SYN124AAXX  18181 76373 12488 81206 10246 20146 38198 40116 56004 60029 84304 91750 333 10266 20138 30/// 56202 59012 84920 84080;",
"76373099999","2004-09-18T21:00:00","4","25.35","-105.75","1967.0","TEPEHUANES DGO., MX","FM-12","99999","V020","140,1,N,0040,1","03600,1,C,N","070000,1,N,1","+0258,1","+0140,1","10042,2","06,0000,9,1",,,,,"04,1,+00900,9,09,9","02,1,+00900,9,08,9",,"07,99,1,04,1,03,1,00450,1,03,1,00,1","01,9",,,,"99999,9,08173,1","6,1,015,1,-015,1",,"SYN112AAXX  18211 76373 32488 71404 10258 20140 38173 40042 56015 84330 92055 333 30/// 56220 59015 84930 82830 82360;","Q01+100423APOSLPQ02  00002PRCP06"
"76373099999","2004-09-19T15:00:00","4","25.35","-105.75","1967.0","TEPEHUANES DGO., MX","FM-12","99999","V020","999,9,C,0000,1","03600,1,C,N","070000,1,N,1","+0188,1","+0171,1","10093,1","15,0051,9,1",,,,,"01,1,+00600,9,07,9",,,"07,99,1,01,1,04,1,00250,1,03,1,00,1","09,9",,,,"99999,9,08202,1","9,9,999,9,+000,1",,"SYN112AAXX  19151 76373 11388 70000 10188 20171 38202 40093 5//// 60059 81430 91450 333 31/// 56200 58000 81720 86360;",
"76373099999","2004-09-19T18:00:00","4","25.35","-105.75","1967.0","TEPEHUANES DGO., MX","FM-12","99999","V020","999,9,C,0000,1","00600,1,9,N","070000,1,N,1","+0226,1","+0155,1","10060,1","18,0050,9,1",,,,,"05,1,+00600,9,08,9",,,"07,99,1,05,1,02,1,00250,1,06,1,00,1","01,9",,"120,M,+0232,1","240,N,+0166,1","99999,9,08210,1","6,1,008,1,-012,1",,"SYN124AAXX  19181 76373 22388 70000 10226 20155 38210 40060 56008 85260 91750 333 10232 20166 30/// 56220 59012 60053 85820 82360;",
"76373099999","2004-09-19T21:00:00","4","25.35","-105.75","1967.0","TEPEHUANES DGO., MX","FM-12","99999","V020","270,1,N,0060,1","03600,1,9,N","070000,1,N,1","+0270,1","+0168,1","10048,1","06,0000,9,1",,,,,"03,1,+00600,9,08,9",,,"06,99,1,03,1,02,1,00250,1,03,1,00,1","01,9",,,,"99999,9,08184,1","6,1,026,1,+011,1",,"SYN106AAXX  19211 76373 32388 62706 10270 20168 38184 40048 56026 83230 92050 333 30/// 56220 58011 83820 83920;","Q01  00002PRCP06"
"76373099999","2004-09-20T00:00:00","4","25.35","-105.75","1967.0","TEPEHUANES DGO., MX","FM-12","99999","V020","280,1,N,0040,1","00300,1,C,N","070000,1,N,1","+0252,1","+0142,1","10028,1","06,0000,9,1","24,0048,9,1",,,,"06,1,+00300,9,07,9",,,"07,99,1,06,1,07,1,00450,1,00,1,02,1","01,9",,"120,M,+0294,1","180,N,+0166,1","99999,9,08176,1","5,1,008,1,-007,1",,"SYN130AAXX  20001 76373 32488 72804 10252 20142 38176 40028 55008 86702 92350 333 10294 20166 30/// 50590 56202 59007 70048 86710 81080;","Q01  00002PRCP06"
"76373099999","2004-09-20T15:00:00","4","25.35","-105.75","1967.0","TEPEHUANES DGO., MX","FM-12","99999","V020","999,9,C,0000,1","22000,1,9,N","070000,1,N,1","+0166,1","+0131,1","10200,1","06,0000,9,1",,,,,"04,1,+00025,9,00,9",,,"04,99,1,00,1,00,1,99999,9,00,1,04,1","01,9",,,,"99999,9,08222,1","3,1,008,1,+020,1",,"SYN100AAXX  20151 76373 32988 40000 10166 20131 38222 40200 53008 80004 91455 333 30/// 56002 58020 84090;","Q01  00002PRCP06"
"76373099999","2004-09-20T18:00:00","4","25.35","-105.75","1967.0","TEPEHUANES DGO., MX","FM-12","99999","V020","150,1,N,0010,1","09000,1,C,N","070000,1,N,1","+0246,1","+0138,1","10164,1","06,0000,9,1",,,,,"01,1,+00300,9,09,9","01,1,+00300,9,08,9",,"05,99,1,01,1,03,1,00450,1,00,1,02,1","01,9",,"120,M,+0272,1","240,N,+0115,1","99999,9,08213,1","8,1,009,1,+003,1",,"SYN124AAXX  20181 76373 32488 51501 10246 20138 38213 40164 58009 81302 91755 333 10272 20115 30/// 56202 58003 81910 81810 83070;","Q01  00002PRCP06"
"76373099999","2004-09-20T21:00:00","4","25.35","-105.75","1967.0","TEPEHUANES DGO., MX","FM-12","99999","V020","120,1,N,0030,1","22000,1,9,N","070000,1,N,1","+0280,1","+0128,1","10081,2","06,0000,9,1",,,,,"03,1,+00900,9,07,9",,,"05,99,1,03,1,03,1,00450,1,00,1,06,1","01,9",,,,"99999,9,08186,1","7,1,027,1,+002,1",,"SYN106AAXX  20211 76373 32488 51203 10280 20128 38186 40081 57027 83306 92055 333 30/// 56202 58002 83730 82090;","Q01+100813APOSLPQ02  00002PRCP06"
"76373099999","2004-09-21T00:00:00","4","25.35","-105.75","1967.0","TEPEHUANES DGO., MX","FM-12","99999","V020","150,1,N,0020,1","03000,1,C,N","070000,1,N,1","+0256,1","+0134,1","10034,1","06,0000,9,1","24,0000,9,1",,,,"04,1,+00600,9,09,9","02,1,+03000,9,03,9",,"08,99,1,04,1,03,1,00250,1,06,1,06,1","01,9",,"120,M,+0312,1","180,N,+0115,1","99999,9,08168,1","6,1,018,1,-008,1",,"SYN136AAXX  21001 76373 32388 81502 10256 20134 38168 40034 56018 84366 92350 333 10312 20115 30/// 50480 56222 59008 70000 84920 82360 82080;","Q01  00002PRCP06"
"76373099999","2004-09-21T15:00:00","4","25.35","-105.75","1967.0","TEPEHUANES DGO., MX","FM-12","99999","V020","999,9,C,0000,1","03600,1,C,N","010000,1,N,1","+0168,1","+0153,1","10184,1","03,0010,9,1",,,"5,1,03,1","5,1,03,1","03,1,+00900,9,07,9",,,"06,99,1,03,1,03,1,00450,1,03,1,00,1","09,9",,,,"99999,9,08215,1","0,1,002,1,-007,1","02,1","SYN118AAXX  21151 76373 21460 60000 10168 20153 38215 40184 50002 70255 83330 91455 333 31/// 56220 59007 60017 83730 83360;",
"76373099999","2004-09-21T18:00:00","4","25.35","-105.75","1967.0","TEPEHUANES DGO., MX","FM-12","99999","V020","060,1,N,0010,1","03600,1,C,N","060000,1,N,1","+0222,1","+0156,1","10161,1","06,0000,9,1",,,,,"03,1,+00300,9,06,9",,,"08,99,1,03,1,04,1,00250,1,03,1,00,1","09,9",,"120,M,+0248,1","240,N,+0150,1","99999,9,08211,1","6,1,004,1,-002,1",,"SYN118AAXX  21181 76373 32386 80601 10222 20156 38211 40161 56004 83430 91755 333 10248 20150 31/// 56220 59002 83610 85360;","Q01  00002PRCP06"
"76373099999","2004-09-21T21:00:00","4","25.35","-105.75","1967.0","TEPEHUANES DGO., MX","FM-12","99999","V020","270,1,N,0050,1","03000,1,9,N","070000,1,N,1","+0250,1","+0150,1","10081,2","06,0000,9,1",,,,,"03,1,+00900,9,09,9","03,1,+03000,9,03,9",,"08,99,1,03,1,03,1,00450,1,03,1,02,1","01,9",,,,"99999,9,08182,1","6,1,029,1,-004,1",,"SYN112AAXX  21211 76373 32488 82705 10250 20150 38182 40081 56029 83332 92055 333 30/// 56222 59004 83930 83360 82090;","Q01+100813APOSLPQ02  00002PRCP06"
"76373099999","2004-09-22T00:00:00","4","25.35","-105.75","1967.0","TEPEHUANES DGO., MX","FM-12","99999","V020","200,1,N,0020,1","99999,9,9,N","070000,1,N,1","+0210,1","+0164,1","10046,1","06,9999,9,9",,,"5,1,06,1","2,1,06,1",,,,"08,99,1,99,9,99,9,00450,1,99,9,99,9",,,,,"99999,9,08180,1","5,1,002,1,+999,9","91,1","SYN072AAXX  22001 76373 01488 82002 10210 20164 38180 40046 55002 69901 79152;",
"76373099999","2004-09-22T12:00:00","4","25.35","-105.75","1967.0","TEPEHUANES DGO., MX","FM-12","99999","V020","999,9,C,0000,1","00300,1,9,N","010000,1,N,1","+0164,1","+0155,1","10168,1","06,9999,9,9","12,0119,9,1","24,0124,9,1",,,"08,1,+00300,9,07,9",,,"08,99,1,07,1,06,1,00450,1,99,9,99,9","01,9","999,-0500,9","999,M,+0276,1","120,N,+0152,1","99999,9,08204,1","9,9,999,9,-013,1",,"SYN130AAXX  22121 76373 02460 80000 10164 20155 38204 40168 5//// 60122 876// 91155 333 10276 20152 30150 562// 59013 69901 70124 88710;","Q01  99992PRCP06"
"76373099999","2004-09-22T15:00:00","4","25.35","-105.75","1967.0","TEPEHUANES DGO., MX","FM-12","99999","V020","999,9,C,0000,1","00300,1,9,N","015000,1,N,1","+0178,1","+0160,1","10190,1","06,0000,9,1",,,,,"06,1,+00300,9,06,9",,,"08,99,1,06,1,04,1,00450,1,03,1,00,1","01,9",,,,"99999,9,08213,1","3,1,009,1,-002,1",,"SYN106AAXX  22151 76373 32465 80000 10178 20160 38213 40190 53009 86430 91455 333 30/// 56660 59002 86610 82360;","Q01  00002PRCP06"
"76373099999","2004-09-22T18:00:00","4","25.35","-105.75","1967.0","TEPEHUANES DGO., MX","FM-12","99999","V020","180,1,N,0010,1","09000,1,C,N","070000,1,N,1","+0228,1","+0150,1","10181,1","06,0000,9,1",,,,,"02,1,+00300,9,09,9","01,1,+00300,9,08,9","01,1,+03000,9,03,9","05,99,1,02,1,03,1,00450,1,03,1,02,1","09,9",,"120,M,+0252,1","240,N,+0150,1","99999,9,08211,1","7,1,002,1,+000,1",,"SYN130AAXX  22181 76373 32488 51801 10228 20150 38211 40181 57002 82332 91755 333 10252 20150 31/// 56222 58000 82910 81810 81360 81070;","Q01  00002PRCP06"
"76373099999","2004-09-22T21:00:00","4","25.35","-105.75","1967.0","TEPEHUANES DGO., MX","FM-12","99999","V020","130,1,N,0030,1","00900,1,9,N","070000,1,N,1","+0182,1","+0147,1","10124,1","03,9999,2,9",,,"9,1,03,1","2,1,03,1","07,1,+00900,9,06,9",,,"08,99,1,07,1,05,1,00450,1,03,1,00,1","01,9",,,,"99999,9,08197,1","6,1,014,1,+015,1","91,1","SYN118AAXX  22211 76373 21488 81303 10182 20147 38197 40124 56014 79192 87530 92055 333 30/// 56220 58015 69907 87630 81360;",
"76373099999","2004-09-23T00:00:00","4","25.35","-105.75","1967.0","TEPEHUANES DGO., MX","FM-12","99999","V020","010,1,N,9999,9","22000,1,9,N","010000,1,N,1","+9999,9","+9999,9","10110,1","03,0020,9,1","06,0020,9,1","24,0144,9,1","9,1,06,1","2,1,06,1",,,,"01,99,1,99,9,07,1,00450,1,99,9,99,9","09,9",,"120,M,+0280,1","180,N,+0150,1","99999,9,08204,1","3,1,007,1,+024,1","51,1","SYN136AAXX  23001 76373 01460 10168 20144 38204 40110 53007 60021 75192 887// 92355 333 10280 20150 31/// 50370 562// 58024 60027 70144 88710;","Q01+006803WOSPD Q02+000082SCOTLCQ030006803WOSPD "
"76373099999","2004-09-23T12:00:00","4","25.35","-105.75","1967.0","TEPEHUANES DGO., MX","FM-12","99999","V020","999,9,C,0000,1","22000,1,9,N","030000,1,N,1","+0120,1","+0114,1","10198,1","06,0020,9,1","12,0020,9,2","24,0019,9,2",,,"01,1,+00900,9,08,9",,,"02,99,1,01,1,01,1,00450,1,03,1,00,1","01,9","999,+0000,9","999,M,+0280,1","120,N,+0108,1","99999,9,08215,1","9,9,999,9,+011,1",,"SYN136AAXX  23121 76373 02480 20000 10120 20114 38215 40198 5//// 60022 81130 91155 333 10280 20108 30100 56220 58011 60021 70019 81830 81360;",
"76373099999","2004-09-23T21:00:00","4","25.35","-105.75","1967.0","TEPEHUANES DGO., MX","FM-12","99999","V020","130,1,N,0030,1","00300,1,9,N","015000,1,N,1","+0196,1","+0168,1","10128,1","03,0006,9,1",,,"9,1,03,1","2,1,03,1","02,1,+00300,9,09,9","05,1,+00300,9,07,9",,"08,99,1,05,1,07,1,00450,1,01,1,00,1","09,9",,,,"99999,9,08188,1","6,1,019,1,-009,1","91,1","SYN124AAXX  23211 76373 21465 81303 10196 20168 38188 40128 56019 79192 85710 92055 333 31/// 56220 59009 69967 85710 82910 81360;",
"76373099999","2004-09-24T12:00:00","4","25.35","-105.75","1967.0","TEPEHUANES DGO., MX","FM-12","99999","V020","999,9,C,0000,1","22000,1,9,N","015000,1,N,1","+0142,1","+0133,1","10204,1","06,0000,9,1","24,0000,9,1",,,,"01,1,+00900,9,08,9",,,"02,99,1,01,1,01,1,00450,1,00,1,01,1","01,9","999,-0250,9","999,M,+0274,1","120,N,+0134,1","99999,9,08226,1","9,9,999,9,+012,1",,"SYN124AAXX  24121 76373 32465 20000 10142 20133 38226 40204 5//// 81101 91155 333 10274 20134 30125 56202 58012 70000 81830 81090;","Q01  00002PRCP06"
"76373099999","2004-09-24T18:00:00","4","25.35","-105.75","1967.0","TEPEHUANES DGO., MX","FM-12","99999","V020","130,1,N,0030,1","00300,1,9,N","070000,1,N,1","+0204,1","+0142,1","10200,1","01,9999,2,9","06,0000,2,1",,"5,1,06,1","5,1,06,1","07,1,+00300,9,06,9",,,"08,99,1,07,1,07,1,00250,1,03,1,00,1","09,9",,"120,M,+0230,1","240,N,+0126,1","99999,9,08239,1","2,1,001,1,+009,1","50,1","SYN130AAXX  24181 76373 31388 81303 10204 20142 38239 40200 52001 75055 87730 91755 333 10230 20126 31/// 56220 58009 69905 87610 81360;",
"76373099999","2004-09-24T21:00:00","4","25.35","-105.75","1967.0","TEPEHUANES DGO., MX","FM-12","99999","V020","160,1,N,0040,1","99999,9,9,N","070000,1,N,1","+0234,1","+0134,1","10140,2","06,0000,2,1",,,,,"03,1,+00900,9,09,9",,,"05,99,1,99,9,99,9,00450,1,99,9,99,9","01,9",,,,"99999,9,08216,1","7,1,023,1,+005,1",,"SYN105AAXX  24211 76373 32488 51604 10234 20134 38216 40140 57023 8102 92055 333 30/// 56202 58005 83930 82290;","Q01+101403APOSLP"
"76373099999","2004-09-27T18:00:00","4","25.35","-105.75","1967.0","TEPEHUANES DGO., MX","FM-12","99999","V020","150,1,N,0020,1","22000,1,9,N","070000,1,N,1","+0226,1","+0124,1","10200,1","06,0000,9,1",,,,,"02,1,+00300,9,08,9",,,"03,99,1,03,1,01,1,00450,1,00,1,00,1","01,9",,"120,M,+0250,1","240,N,+0112,1","99999,9,08220,1","7,1,006,1,+999,9",,"SYN118AAXX  27181 76373 32488 31502 10226 20124 38220 40200 57006 83100 91755 333 10250 20112 30/// 56200 58/// 82810 81910;","Q01  00002PRCP06"
"76373099999","2004-09-28T15:00:00","4","25.35","-105.75","1967.0","TEPEHUANES DGO., MX","FM-12","99999","V020","999,9,C,0000,1","22000,1,9,N","070000,1,N,1","+0148,1","+0121,1","10240,1","06,0000,9,1",,,,,"01,1,+00300,9,09,9","01,1,+00300,9,06,9",,"03,99,1,02,1,03,1,00250,1,03,1,00,1","01,9",,,,"99999,9,08238,1","9,9,999,9,+012,1",,"SYN112AAXX  28151 76373 32388 30000 10148 20121 38238 40240 5//// 82330 91455 333 30/// 56220 58012 81910 81610 81360;","Q01  00002PRCP06"
"76373099999","2004-09-28T18:00:00","4","25.35","-105.75","1967.0","TEPEHUANES DGO., MX","FM-12","99999","V020","210,1,N,0010,1","22000,1,9,N","070000,1,N,1","+0216,1","+0140,1","10219,1","06,0000,9,1",,,,,"02,1,+00300,9,09,9",,,"03,99,1,03,1,03,1,00450,1,00,1,00,1","01,9",,"120,M,+0240,1","240,N,+0096,1","99999,9,08239,1","2,1,001,1,+019,1",,"SYN118AAXX  28181 76373 32488 32101 10216 20140 38239 40219 52001 83300 91755 333 10240 20096 30/// 56200 58019 82910 81810;","Q01  00002PRCP06"
"76373099999","2004-09-28T21:00:00","4","25.35","-105.75","1967.0","TEPEHUANES DGO., MX","FM-12","99999","V020","110,1,N,0040,1","22000,1,9,N","070000,1,N,1","+0248,1","+0144,1","10144,2","06,0000,9,1",,,,,"02,1,+00300,9,09,9","01,1,+00300,9,08,9",,"04,99,1,03,1,03,1,00450,1,03,1,00,1","01,9",,,,"99999,9,08215,1","6,1,024,1,+020,1",,"SYN112AAXX  28211 76373 32488 41104 10248 20144 38215 40144 56024 83330 92055 333 30/// 56220 58020 82910 81810 81360;","Q01+101443APOSLPQ02  00002PRCP06"
"76373099999","2004-09-29T12:00:00","4","25.35","-105.75","1967.0","TEPEHUANES DGO., MX","FM-12","99999","V020","999,9,C,0000,1","00015,1,9,N","015000,1,N,1","+0140,1","+0124,1","10200,1","06,0000,9,1",,,,,"08,1,+00015,9,06,9",,,"08,99,1,06,1,05,1,00450,1,00,1,00,1","01,9","999,-0140,9","999,M,+0274,1","120,N,+0128,1","99999,9,08224,1",,,"SYN112AAXX  29121 76373 32465 80000 10140 20124 38224 40200 5//// 86500 91155 333 10274 20128 30114 56200 58/// 88600;","Q01  00002PRCP06"
"76373099999","2004-09-29T15:00:00","4","25.35","-105.75","1967.0","TEPEHUANES DGO., MX","FM-12","99999","V020","999,9,C,0000,1","03600,1,C,N","070000,1,N,1","+0160,1","+0127,1","10207,1","06,0000,9,1",,,,,"02,1,+00900,9,09,9","02,1,+03000,9,03,9",,"06,99,1,02,1,03,1,00450,1,02,1,01,1","01,9",,,,"99999,9,08227,1","2,1,003,1,-011,1",,"SYN112AAXX  29151 76373 32488 60000 10160 20127 38227 40207 52003 82321 91455 333 30/// 56222 59011 82930 82360 81290;","Q01  00002PRCP06"
"76373099999","2004-09-29T18:00:00","4","25.35","-105.75","1967.0","TEPEHUANES DGO., MX","FM-12","99999","V020","120,1,N,0030,1","22000,1,9,N","070000,1,N,1","+0234,1","+0134,1","10174,1","06,0000,9,1",,,,,"02,1,+00300,9,09,9",,,"03,99,1,03,1,03,1,00450,1,00,1,00,1","01,9",,"120,M,+0260,1","240,N,+0114,1","99999,9,08219,1","8,1,008,1,-020,1",,"SYN118AAXX  29181 76373 32488 31203 10234 20134 38219 40174 58008 83300 91755 333 10260 20114 30/// 56200 59020 82910 81810;","Q01  00002PRCP06"
"76373099999","2004-09-29T21:00:00","4","25.35","-105.75","1967.0","TEPEHUANES DGO., MX","FM-12","99999","V020","120,1,N,0040,1","22000,1,9,N","070000,1,N,1","+0258,1","+0139,1","10091,2","06,0000,9,1",,,,,"03,1,+00900,9,08,9",,,"03,99,1,03,1,01,1,00450,1,00,1,00,1","01,9",,,,"99999,9,08189,1","6,1,030,1,-026,1",,"SYN100AAXX  29211 76373 32488 31204 10258 20139 38189 40091 56030 83100 92055 333 30/// 56200 59026 83830;","Q01+100913APOSLPQ02  00002PRCP06"
"76373099999","2004-09-30T12:00:00","4","25.35","-105.75","1967.0","TEPEHUANES DGO., MX","FM-12","99999","V020","999,9,C,0000,1","22000,1,9,N","070000,1,N,1","+0092,1","+0085,1","10191,1","06,0005,9,2","12,0004,9,2","24,0004,9,1",,,"01,1,+00900,9,08,9",,,"01,99,1,01,1,01,1,00450,1,00,1,00,1","01,9","999,+0680,9","999,M,+0286,1","120,N,+0082,1","99999,9,08206,1","9,9,999,9,-018,1",,"SYN130AAXX  30121 76373 02488 10000 10092 20085 38206 40191 5//// 69941 81100 91155 333 10286 20082 30068 56200 59018 69942 70004 81830;",
"76373099999","2004-09-30T15:00:00","4","25.35","-105.75","1967.0","TEPEHUANES DGO., MX","FM-12","99999","V020","999,9,C,0000,1","22000,1,9,N","070000,1,N,1","+0136,1","+0101,1","10198,1","06,0000,9,1",,,,,"00,1,+99999,9,99,9",,,"00,99,1,00,1,00,1,99999,9,00,1,00,1","01,9",,,,"99999,9,08208,1","3,1,002,1,-019,1",,"SYN082AAXX  30151 76373 32988 00000 10136 20101 38208 40198 53002 91455 333 30/// 59019;","Q01  00002PRCP06"
"76373099999","2004-09-30T21:00:00","4","25.35","-105.75","1967.0","TEPEHUANES DGO., MX","FM-12","99999","V020","240,1,N,0060,1","22000,1,9,N","070000,1,N,1","+0272,1","+0097,1","10083,2","06,0000,9,1",,,,,"00,1,+99999,9,99,9",,,"00,99,1,00,1,00,1,99999,9,00,1,00,1","01,9",,,,"99999,9,08177,1","7,1,019,1,-012,1",,"SYN082AAXX  30211 76373 32988 02406 10272 20097 38177 40083 57019 92058 333 30/// 59012;","Q01+100833APOSLPQ02  00002PRCP06"
"76373099999","2004-10-01T00:00:00","4","25.35","-105.75","1967.0","TEPEHUANES DGO., MX","FM-12","99999","V020","250,1,N,0050,1","22000,1,9,N","070000,1,N,1","+0240,1","+0090,1","10046,1","06,0000,9,1","24,0000,9,1",,,,"00,1,+99999,9,99,9",,,"00,99,1,00,1,00,1,99999,9,00,1,00,1","01,9",,"120,M,+0290,1","180,N,+0078,1","99999,9,08179,1","3,1,002,1,+999,9",,"SYN106AAXX  01001 76373 32988 02505 10240 20090 38179 40046 53002 92358 333 10290 20078 30/// 50620 59/// 70000;","Q01  00002PRCP06Q02  00002PRCP24"
"76373099999","2004-10-01T12:00:00","4","25.35","-105.75","1967.0","TEPEHUANES DGO., MX","FM-12","99999","V020","999,9,C,0000,1","22000,1,9,N","015000,1,N,1","+0072,1","+0061,1","10202,1","06,0000,9,1","24,0000,9,1",,,,"00,1,+99999,9,99,9",,,"00,99,1,00,1,00,1,99999,9,00,1,00,1","01,9","999,+0350,9","999,M,+0290,1","120,N,+0056,1","99999,9,08209,1","9,9,999,9,+003,1",,"SYN100AAXX  01121 76373 32965 00000 10072 20061 38209 40202 5//// 91155 333 10290 20056 30035 58003 70000;","Q01  00002PRCP06Q02  00002PRCP24"
"76373099999","2004-10-01T15:00:00","4","25.35","-105.75","1967.0","TEPEHUANES DGO., MX","FM-12","99999","V020","999,9,C,0000,1","22000,1,9,N","070000,1,N,1","+0128,1","+0078,1","10220,1","06,0000,9,1",,,,,"00,1,+99999,9,99,9",,,"00,99,1,00,1,00,1,99999,9,00,1,00,1","01,9",,,,"99999,9,08221,1","2,1,012,1,+013,1",,"SYN082AAXX  01151 76373 32988 00000 10128 20078 38221 40220 52012 91455 333 30/// 58013;","Q01  00002PRCP06"
"76373099999","2004-10-01T18:00:00","4","25.35","-105.75","1967.0","TEPEHUANES DGO., MX","FM-12","99999","V020","120,1,N,0020,1","22000,1,9,N","070000,1,N,1","+0240,1","+0120,1","10178,1","06,0000,9,1",,,,,"00,1,+99999,9,99,9",,,"00,99,1,00,1,00,1,99999,9,00,1,00,1","01,9",,"120,M,+0260,1","240,N,+0052,1","99999,9,08212,1","7,1,009,1,-027,1",,"SYN094AAXX  01181 76373 32988 01202 10240 20120 38212 40178 57009 91755 333 10260 20052 30/// 59027;","Q01  00002PRCP06"
"76373099999","2004-10-01T21:00:00","4","25.35","-105.75","1967.0","TEPEHUANES DGO., MX","FM-12","99999","V020","150,1,N,0020,1","22000,1,9,N","070000,1,N,1","+0288,1","+0112,1","10103,2","06,0000,9,1",,,,,"00,1,+99999,9,99,9",,,"00,99,1,00,1,00,1,99999,9,00,1,00,1","01,9",,,,"99999,9,08193,1","3,1,019,1,+016,1",,"SYN082AAXX  01211 76373 32988 01502 10288 20112 38193 40103 53019 92055 333 30/// 58016;","Q01+101033APOSLPQ02  00002PRCP06"
"76373099999","2004-10-02T00:00:00","4","25.35","-105.75","1967.0","TEPEHUANES DGO., MX","FM-12","99999","V020","230,1,N,0020,1","22000,1,9,N","070000,1,N,1","+0278,1","+0106,1","10053,1","06,0000,9,1","24,0000,9,1",,,,,,,"01,99,1,01,1,01,1,00450,1,00,1,00,1","01,9",,"120,M,+0318,1","180,N,+0052,1","99999,9,08189,1","6,1,003,1,+010,1",,"SYN124AAXX  02001 76373 32488 12302 10278 20106 38189 40053 56003 81100 92355 333 10318 20052 30/// 50490 56200 58010 70000 81830;","Q01  00002PRCP06"
"76373099999","2004-10-04T12:00:00","4","25.35","-105.75","1967.0","TEPEHUANES DGO., MX","FM-12","99999","V020","999,9,C,0000,1","22000,1,9,N","015000,1,N,1","+0112,1","+0096,1","10245,1","06,0000,9,1","24,0000,9,1",,,,"00,1,+99999,9,99,9",,,"00,99,1,00,1,00,1,99999,9,00,1,00,1","01,9","999,+0760,9","999,M,+0305,1","120,N,+0095,1","99999,9,08253,1",,,"SYN100AAXX  04121 76373 32965 00000 10112 20096 38253 40245 5//// 91155 333 10305 20095 30076 58/// 70000;","Q01  00002PRCP06Q02  00002PRCP24"
"76373099999","2004-10-04T15:00:00","4","25.35","-105.75","1967.0","TEPEHUANES DGO., MX","FM-12","99999","V020","999,9,C,0000,1","22000,1,9,N","070000,1,N,1","+0246,2","+0115,1","10256,1","06,0000,9,1",,,,,"00,1,+99999,9,99,9",,,"00,99,1,00,1,00,1,99999,9,00,1,00,1","01,9",,,,"99999,9,08259,1","1,1,006,1,+999,9",,"SYN082AAXX  04151 76373 32988 00000 10246 20115 38259 40256 51006 91455 333 30/// 58///;","Q01  00002PRCP06"
"76373099999","2004-10-04T18:00:00","4","25.35","-105.75","1967.0","TEPEHUANES DGO., MX","FM-12","99999","V020","120,1,N,0040,1","22000,1,9,N","070000,1,N,1","+0244,1","+0113,1","10218,1","06,0000,9,1",,,,,"02,1,+00300,9,08,9",,,"02,99,1,02,1,01,1,00450,1,00,1,00,1","01,9",,"120,M,+0274,1","240,N,+0088,1","99999,9,08252,1","6,1,007,1,+999,9",,"SYN112AAXX  04181 76373 32488 21204 10244 20113 38252 40218 56007 82100 91755 333 10274 20088 30/// 56200 58/// 82810;","Q01  00002PRCP06"
"76373099999","2004-10-04T21:00:00","4","25.35","-105.75","1967.0","TEPEHUANES DGO., MX","FM-12","99999","V020","050,1,N,0020,1","03600,1,C,N","070000,1,N,1","+0258,1","+0117,1","10131,2","06,0000,9,1",,,,,"04,1,+00900,9,09,9",,,"05,99,1,04,1,03,1,00450,1,03,1,00,1","01,9",,,,"99999,9,08221,1","7,1,031,1,+999,9",,"SYN106AAXX  04211 76373 32488 50502 10258 20117 38221 40131 57031 84330 92058 333 30/// 56220 58/// 84930 81360;","Q01+101313APOSLPQ02  00002PRCP06"
"76373099999","2004-10-05T12:00:00","4","25.35","-105.75","1967.0","TEPEHUANES DGO., MX","FM-12","99999","V020","999,9,C,0000,1","22000,1,9,N","015000,1,N,1","+0100,1","+0087,1","10230,1","06,0000,9,1","24,0000,9,1",,,,"00,1,+99999,9,99,9",,,"00,99,1,00,1,00,1,99999,9,00,1,00,1","01,9","999,+0720,9","999,M,+0302,1","120,N,+0086,1","99999,9,08238,1","9,9,999,9,-015,1",,"SYN100AAXX  05121 76373 32965 00000 10100 20087 38238 40230 5//// 91158 333 10302 20086 30072 59015 70000;","Q01  00002PRCP06Q02  00002PRCP24"
"76373099999","2004-10-05T15:00:00","4","25.35","-105.75","1967.0","TEPEHUANES DGO., MX","FM-12","99999","V020","999,9,C,0000,1","22000,1,9,N","070000,1,N,1","+0168,1","+0102,1","10238,1","06,0000,9,1",,,,,"01,1,+00900,9,08,9",,,"01,99,1,01,1,01,1,00450,1,00,1,00,1","01,9",,,,"99999,9,08245,1","2,1,007,1,-014,1",,"SYN100AAXX  05151 76373 32488 10000 10168 20102 38245 40238 52007 81100 91458 333 30/// 56200 59014 81830;","Q01  00002PRCP06"
"76373099999","2004-10-05T18:00:00","4","25.35","-105.75","1967.0","TEPEHUANES DGO., MX","FM-12","99999","V020","120,1,N,0030,1","22000,1,9,N","070000,1,N,1","+0236,1","+0140,1","10206,1","06,0000,9,1",,,,,"01,1,+00300,9,09,9",,,"02,99,1,02,1,03,1,00450,1,00,1,00,1","01,9",,"120,M,+0254,1","240,N,+0084,1","99999,9,08241,1","7,1,004,1,-011,1",,"SYN118AAXX  05181 76373 32488 21203 10236 20140 38241 40206 57004 82300 91755 333 10254 20084 30/// 56200 59011 81910 81810;","Q01  00002PRCP06"
"76373099999","2004-10-05T21:00:00","4","25.35","-105.75","1967.0","TEPEHUANES DGO., MX","FM-12","99999","V020","130,1,N,0030,1","22000,1,9,N","070000,1,N,1","+0272,1","+0117,1","10116,2","06,0000,9,1",,,,,"02,1,+00900,9,09,9",,,"03,99,1,02,1,03,1,00450,1,00,1,00,1","01,9",,,,"99999,9,08207,1","7,1,034,1,-014,1",,"SYN106AAXX  05211 76373 32488 31303 10272 20117 38207 40116 57034 82300 92055 333 30/// 56200 59014 82930 81830;","Q01+101163APOSLPQ02  00002PRCP06"
"76373099999","2004-10-06T12:00:00","4","25.35","-105.75","1967.0","TEPEHUANES DGO., MX","FM-12","99999","V020","999,9,C,0000,1","22000,1,9,N","015000,1,N,1","+0108,1","+0092,1","10209,1","06,9999,9,9","12,0000,9,1","24,0000,9,1",,,"00,1,+99999,9,99,9",,,"00,99,1,00,1,00,1,99999,9,00,1,00,1","01,9",,"999,M,+0302,1","120,N,+0090,1","99999,9,08222,1","9,9,999,9,-016,1",,"SYN112AAXX  06121 76373 02965 00000 10108 20092 38222 40209 5//// 69901 91158 333 10302 20090 30085 59016 69902 79999;","Q01  00002PRCP24Q02  00002PRCP12"
"76373099999","2004-10-06T15:00:00","4","25.35","-105.75","1967.0","TEPEHUANES DGO., MX","FM-12","99999","V020","320,1,N,0010,1","22000,1,9,N","070000,1,N,1","+0148,1","+0107,1","10226,1","06,0000,9,1",,,,,"01,1,+00900,9,08,9",,,"01,99,1,01,1,01,1,00450,1,00,1,00,1","01,9",,,,"99999,9,08234,1","2,1,012,1,-008,1",,"SYN100AAXX  06151 76373 32488 13201 10148 20107 38234 40226 52012 81100 91455 333 30/// 56200 59008 81830;","Q01  00002PRCP06"
"76373099999","2004-10-06T18:00:00","4","25.35","-105.75","1967.0","TEPEHUANES DGO., MX","FM-12","99999","V020","120,1,N,0010,1","22000,1,9,N","070000,1,N,1","+0240,1","+0134,1","10189,1","06,0000,9,1",,,,,"02,1,+00300,9,09,9",,,"03,99,1,03,1,03,1,00450,1,00,1,00,1","01,9",,"120,M,+0262,1","240,N,+0085,1","99999,9,08227,1","7,1,007,1,-014,1",,"SYN118AAXX  06181 76373 32488 31201 10240 20134 38227 40189 57007 83300 91755 333 10262 20085 30/// 56200 59014 82910 81810;","Q01  00002PRCP06"
"76373099999","2004-10-06T21:00:00","4","25.35","-105.75","1967.0","TEPEHUANES DGO., MX","FM-12","99999","V020","180,1,N,0030,1","03600,1,C,N","070000,1,N,1","+0278,1","+0121,1","10106,2","06,0000,9,1",,,,,"02,1,+00900,9,09,9","02,1,+00900,9,08,9",,"06,99,1,02,1,03,1,00450,1,02,1,00,1","01,9",,,,"99999,9,08199,1","7,1,028,1,-008,1",,"SYN112AAXX  06211 76373 32488 61803 10278 20121 38199 40106 57028 82320 92050 333 30/// 56220 59008 82930 82830 82560;","Q01+101063APOSLPQ02  00002PRCP06"
"76373099999","2004-10-07T15:00:00","4","25.35","-105.75","1967.0","TEPEHUANES DGO., MX","FM-12","99999","V020","280,1,N,0010,1","00300,1,9,N","016000,1,N,1","+0146,1","+0128,1","10226,1","15,0020,9,1",,,,,"08,1,+00300,9,06,9",,,"08,99,1,08,1,06,1,00250,1,00,1,00,1","09,9",,,,"99999,9,08235,1","9,9,999,9,+001,1",,"SYN112AAXX  07151 76373 02366 82801 10146 20128 38235 40226 5//// 60029 88600 91455 333 31/// 56200 58001 60029 88610;",
"76373099999","2004-10-07T18:00:00","4","25.35","-105.75","1967.0","TEPEHUANES DGO., MX","FM-12","99999","V020","120,1,N,0010,1","22000,1,9,N","070000,1,N,1","+0212,1","+0142,1","10217,1","06,0000,9,1",,,,,"02,1,+00300,9,09,9",,,"03,99,1,02,1,03,1,00450,1,00,1,00,1","01,9",,"120,M,+0240,1","240,N,+0120,1","99999,9,08233,1","7,1,002,1,+008,1",,"SYN118AAXX  07181 76373 32488 31201 10212 20142 38233 40217 57002 82300 91755 333 10240 20120 30/// 56600 58008 82910 81810;","Q01  00002PRCP06"
"76373099999","2004-10-07T21:00:00","4","25.35","-105.75","1967.0","TEPEHUANES DGO., MX","FM-12","99999","V020","060,1,N,0010,1","22000,1,9,N","070000,1,N,1","+0270,1","+0140,1","10154,2","06,0000,9,1",,,,,"02,1,+00300,9,09,9",,,"03,99,1,02,1,03,1,00450,1,00,1,00,1","01,9",,,,"99999,9,08197,1","7,1,036,1,-002,1",,"SYN106AAXX  07211 76373 32488 30601 10270 20140 38197 40154 57036 82300 92055 333 30/// 56600 59002 82910 81810;","Q01+101543APOSLPQ02  00002PRCP06"
"76373099999","2004-10-08T15:00:00","4","25.35","-105.75","1967.0","TEPEHUANES DGO., MX","FM-12","99999","V020","999,9,C,0000,1","22000,1,9,N","070000,1,N,1","+0138,1","+0103,1","10231,1","06,0000,9,1",,,,,"00,1,+99999,9,99,9",,,"00,99,1,00,1,00,1,99999,9,00,1,00,1","01,9",,,,"99999,9,08229,1","9,9,999,9,-006,1",,"SYN082AAXX  08151 76373 32988 00000 10138 20103 38229 40231 5//// 91455 333 30/// 59006;","Q01  00002PRCP06"
"76373099999","2004-10-08T18:00:00","4","25.35","-105.75","1967.0","TEPEHUANES DGO., MX","FM-12","99999","V020","120,1,N,0030,1","22000,1,9,N","070000,1,N,1","+0236,1","+0140,1","10201,1","06,0000,9,1",,,,,"02,1,+00300,9,09,9",,,"02,99,1,02,1,03,1,00450,1,00,1,00,1","01,9",,"120,M,+0260,1","240,N,+0078,1","99999,9,08226,1","7,1,003,1,-007,1",,"SYN112AAXX  08181 76373 32488 21203 10236 20140 38226 40201 57003 82300 91755 333 10260 20078 30/// 56600 59007 82910;","Q01  00002PRCP06"
"76373099999","2004-10-08T21:00:00","4","25.35","-105.75","1967.0","TEPEHUANES DGO., MX","FM-12","99999","V020","150,1,N,0030,1","00300,1,9,N","070000,1,N,1","+0234,1","+0134,1","10134,2","06,0000,9,1",,,,,"06,1,+00300,9,09,9",,,"08,99,1,06,1,09,1,00450,1,03,1,00,1","01,9",,,,"99999,9,08196,1","6,1,030,1,-001,1",,"SYN106AAXX  08211 76373 32488 81503 10234 20134 38196 40134 56030 86930 92055 333 30/// 56660 59001 86910 82360;","Q01+101343APOSLPQ02  00002PRCP06"
"76373099999","2004-10-11T15:00:00","4","25.35","-105.75","1967.0","TEPEHUANES DGO., MX","FM-12","99999","V020","310,1,N,0010,1","22000,1,9,N","070000,1,N,1","+0136,1","+0097,1","10192,1","06,0000,9,1",,,,,"00,1,+99999,9,99,9",,,"00,99,1,00,1,00,1,99999,9,00,1,00,1","01,9",,,,"99999,9,08202,1","1,1,010,1,+999,9",,"SYN082AAXX  11151 76373 32988 03101 10136 20097 38202 40192 51010 91500 333 30/// 58///;","Q01  00002PRCP06"
"76373099999","2004-10-11T18:00:00","4","25.35","-105.75","1967.0","TEPEHUANES DGO., MX","FM-12","99999","V020","090,1,N,0010,1","22000,1,9,N","070000,1,N,1","+0218,1","+0122,1","10159,1","06,0000,9,1",,,,,"01,1,+00300,9,08,9",,,"01,99,1,01,1,01,1,00450,1,00,1,00,1","01,9",,"120,M,+0236,1","240,N,+0072,1","99999,9,08197,1","7,1,005,1,+999,9",,"SYN112AAXX  11181 76373 32488 10901 10218 20122 38197 40159 57005 81100 91755 333 10236 20072 30/// 56600 58/// 81810;","Q01  00002PRCP06"
"76373099999","2004-10-11T21:00:00","4","25.35","-105.75","1967.0","TEPEHUANES DGO., MX","FM-12","99999","V020","150,1,N,0030,1","22000,1,9,N","070000,1,N,1","+0272,1","+0085,1","10085,2","06,0000,9,1",,,,,"01,1,+00900,9,08,9",,,"01,99,1,01,1,03,1,00450,1,00,1,00,1","01,9",,,,"99999,9,08173,1","7,1,024,1,+999,9",,"SYN100AAXX  11211 76373 32488 11503 10272 20085 38173 40085 57024 81300 92058 333 30/// 56600 58/// 81830;","Q01+100853APOSLPQ02  00002PRCP06"
"76373099999","2004-10-12T00:00:00","4","25.35","-105.75","1967.0","TEPEHUANES DGO., MX","FM-12","99999","V020","280,1,N,0030,1","22000,1,9,N","070000,1,N,1","+0260,1","+0071,1","10034,1","06,0000,9,1","24,0000,9,1",,,,,,,"01,99,1,01,1,01,1,00450,1,00,1,00,1","01,9",,"120,M,+0300,1","180,N,+0072,1","99999,9,08169,1","3,1,005,1,+999,9",,"SYN124AAXX  12001 76373 32488 12803 10260 20071 38169 40034 53005 81100 92355 333 10300 20072 30/// 50460 56600 58/// 70000 81830;","Q01  00002PRCP06"
"76373099999","2004-10-12T15:00:00","4","25.35","-105.75","1967.0","TEPEHUANES DGO., MX","FM-12","99999","V020","999,9,C,0000,1","22000,1,9,N","070000,1,N,1","+0228,1","+0078,1","10207,1","06,0000,9,1",,,,,"00,1,+99999,9,99,9",,,"00,99,1,00,1,00,1,99999,9,00,1,00,1","01,9",,,,"99999,9,08212,1","3,1,005,1,+010,1",,"SYN082AAXX  12151 76373 32988 00000 10228 20078 38212 40207 53005 91458 333 30/// 58010;","Q01  00002PRCP06"
"76373099999","2004-10-12T18:00:00","4","25.35","-105.75","1967.0","TEPEHUANES DGO., MX","FM-12","99999","V020","110,1,N,0020,1","22000,1,9,N","070000,1,N,1","+0232,1","+0087,1","10164,1","06,0000,9,1",,,,,"01,1,+00900,9,09,9",,,"01,99,1,01,1,03,1,00450,1,00,1,00,1","01,9",,"120,M,+0252,1","240,N,+0060,1","99999,9,08209,1","8,1,003,1,+012,1",,"SYN112AAXX  12181 76373 32488 11102 10232 20087 38209 40164 58003 81300 91755 333 10252 20060 30/// 56600 58012 81930;","Q01  00002PRCP06"
"76373099999","2004-10-12T21:00:00","4","25.35","-105.75","1967.0","TEPEHUANES DGO., MX","FM-12","99999","V020","090,1,N,0010,1","22000,1,9,N","070000,1,N,1","+0266,1","+0053,1","10093,2","06,0000,9,1",,,,,"01,1,+00900,9,09,9",,,"01,99,1,01,1,03,1,00450,1,00,1,00,1","01,9",,,,"99999,9,08182,1","3,1,022,1,+009,1",,"SYN100AAXX  12211 76373 32488 10901 10266 20053 38182 40093 53022 81300 92055 333 30/// 56600 58009 81930;","Q01+100933APOSLPQ02  00002PRCP06"
"76373099999","2004-10-13T00:00:00","4","25.35","-105.75","1967.0","TEPEHUANES DGO., MX","FM-12","99999","V020","270,1,N,0030,1","22000,1,9,N","070000,1,N,1","+0244,1","+0061,1","10053,1","06,0000,9,1","24,0000,9,1",,,,,,,"01,99,1,01,1,01,1,00450,1,00,1,00,1","01,9",,"120,M,+0294,1","180,N,+0060,1","99999,9,08183,1","5,1,001,1,+014,1",,"SYN124AAXX  13001 76373 32488 12703 10244 20061 38183 40053 55001 81100 92358 333 10294 20060 30/// 50400 56600 58014 70000 81830;","Q01  00002PRCP06"
"76373099999","2004-10-13T12:00:00","4","25.35","-105.75","1967.0","TEPEHUANES DGO., MX","FM-12","99999","V020","999,9,C,0000,1","22000,1,9,N","015000,1,N,1","+0072,1","+0058,1","10195,1","06,0000,9,1","24,0000,9,1",,,,"00,1,+99999,9,99,9",,,"00,99,1,00,1,00,1,99999,9,00,1,00,1","01,9","999,+0360,9","999,M,+0294,1","120,N,+0072,1","99999,9,08203,1","9,9,999,9,-004,1",,"SYN100AAXX  13121 76373 32965 00000 10072 20058 38203 40195 5//// 91200 333 10294 20072 30036 59004 70000;","Q01  00002PRCP06Q02  00002PRCP24"
"76373099999","2004-10-13T15:00:00","4","25.35","-105.75","1967.0","TEPEHUANES DGO., MX","FM-12","99999","V020","999,9,C,0000,1","22000,1,9,N","070000,1,N,1","+0124,1","+0100,1","10204,1","06,0000,9,1",,,,,"00,1,+99999,9,99,9",,,"00,99,1,00,1,00,1,99999,9,00,1,00,1","01,9",,,,"99999,9,08207,1","1,1,004,1,-005,1",,"SYN082AAXX  13151 76373 32488 00000 10124 20100 38207 40204 51004 91500 333 30/// 59005;","Q01  00002PRCP06"
"76373099999","2004-10-13T18:00:00","4","25.35","-105.75","1967.0","TEPEHUANES DGO., MX","FM-12","99999","V020","040,1,N,0010,1","22000,1,9,N","070000,1,N,1","+0212,1","+0104,1","10183,1","06,0000,9,1",,,,,"00,1,+99999,9,99,9",,,"00,99,1,00,1,00,1,99999,9,00,1,00,1","01,9",,"120,M,+0232,1","240,N,+0048,1","99999,9,08193,1","6,1,014,1,-016,1",,"SYN094AAXX  13181 76373 32988 00401 10212 20104 38193 40183 56014 91755 333 10232 20048 30/// 59016;","Q01  00002PRCP06"
"76373099999","2004-10-13T21:00:00","4","25.35","-105.75","1967.0","TEPEHUANES DGO., MX","FM-12","99999","V020","050,1,N,0010,1","22000,1,9,N","070000,1,N,1","+0256,1","+9999,9","10100,2","06,0000,9,1",,,,,"01,1,+00900,9,08,9",,,"01,99,1,01,1,01,1,00450,1,00,1,00,1","01,9",,,,"99999,9,08164,1","7,1,029,1,-018,1",,"SYN100AAXX  13211 76373 32488 10501 10256 20291 38164 40100 57029 81100 92058 333 30/// 56600 59018 81830;","Q01+101003APOSLPQ02  00002PRCP06"
"76373099999","2004-10-14T12:00:00","4","25.35","-105.75","1967.0","TEPEHUANES DGO., MX","FM-12","99999","V020","999,9,C,0000,1","22000,1,9,N","015000,1,N,1","+0048,1","+0037,1","10202,1","06,0000,9,1","24,0000,9,1",,,,"00,1,+99999,9,99,9",,,"00,99,1,00,1,00,1,99999,9,00,1,00,1","01,9","999,+0150,9","999,M,+0285,1","120,N,+0036,1","99999,9,08200,1","9,9,999,9,-003,1",,"SYN100AAXX  14121 76373 32965 00000 10048 20037 38200 40202 5//// 91155 333 10285 20036 30015 59003 70000;","Q01  00002PRCP06Q02  00002PRCP24"
"76373099999","2004-10-14T21:00:00","4","25.35","-105.75","1967.0","TEPEHUANES DGO., MX","FM-12","99999","V020","140,1,N,0030,1","22000,1,9,N","070000,1,N,1","+0248,1","+0087,1","10092,1","06,0000,9,1",,,,,"01,1,+00900,9,09,9",,,"01,99,1,01,1,03,1,00450,1,00,1,00,1","01,9",,,,"99999,9,08168,1","6,1,028,1,+004,1",,"SYN100AAXX  14211 76373 32488 11403 10248 20087 38168 40092 56028 81300 92057 333 30/// 56300 58004 81930;","Q01  00002PRCP06"
"76373099999","2004-10-15T00:00:00","4","25.35","-105.75","1967.0","TEPEHUANES DGO., MX","FM-12","99999","V020","150,1,N,0030,1","22000,1,9,N","070000,1,N,1","+0204,1","+0094,1","10059,1","06,0000,9,1","24,0000,9,1",,,,,,,"01,99,1,01,1,01,1,00450,1,00,1,00,1","01,9",,"120,M,+0276,1","180,N,+0028,1","99999,9,08171,1","2,1,003,1,+999,9",,"SYN124AAXX  15001 76373 32488 11503 10204 20094 38171 40059 52003 81100 92355 333 10276 20028 30/// 50550 56600 58/// 70000 81810;","Q01  00002PRCP06"
"76373099999","2004-10-15T12:00:00","4","25.35","-105.75","1967.0","TEPEHUANES DGO., MX","FM-12","99999","V020","999,9,C,0000,1","22000,1,9,N","015000,1,N,1","+0060,1","+0049,1","10218,1","06,0000,9,1","24,0000,9,1",,,,"00,1,+99999,9,99,9",,,"00,99,1,00,1,00,1,99999,9,00,1,00,1","01,9","999,+0240,9","999,M,+0276,1","120,N,+0046,1","99999,9,08214,1","9,9,999,9,+014,1",,"SYN100AAXX  15121 76373 32965 00000 10060 20049 38214 40218 5//// 91155 333 10276 20046 30024 58014 70000;","Q01  00002PRCP06Q02  00002PRCP24"
"76373099999","2004-10-15T15:00:00","4","25.35","-105.75","1967.0","TEPEHUANES DGO., MX","FM-12","99999","V020","999,9,C,0000,1","03600,1,C,N","070000,1,N,1","+0098,1","+0059,1","10231,1","06,0000,9,1",,,,,"03,1,+00900,9,08,9",,,"05,99,1,03,1,01,1,00450,1,03,1,00,1","01,9",,,,"99999,9,08223,1","2,1,009,1,+019,1",,"SYN106AAXX  15151 76373 32488 50000 10098 20059 38223 40231 52009 83130 91455 333 30/// 56660 58019 83830 82360;","Q01  00002PRCP06"
"76373099999","2004-10-20T12:00:00","4","25.35","-105.75","1967.0","TEPEHUANES DGO., MX","FM-12","99999","V020","999,9,C,0000,1","22000,1,9,N","015000,1,N,1","+0032,1","+0007,1","10251,1","06,0000,9,1","24,0000,9,1",,,,"00,1,+99999,9,99,9",,,"00,99,1,00,1,00,1,99999,9,00,1,00,1","09,9","999,+0050,9","999,M,+0315,1","120,N,+0020,1","99999,9,08234,1","9,9,999,9,+014,1",,"SYN100AAXX  20121 76373 32965 00000 10032 20007 38234 40251 5//// 91155 333 10315 20020 31005 58014 70000;","Q01  00002PRCP06Q02  00002PRCP24"
"76373099999","2004-10-20T15:00:00","4","25.35","-105.75","1967.0","TEPEHUANES DGO., MX","FM-12","99999","V020","330,1,N,0010,1","22000,1,9,N","070000,1,N,1","+0098,1","+0013,1","10262,1","06,0000,9,1",,,,,"03,1,+00025,9,03,9",,,"03,99,1,99,9,00,1,99999,9,00,1,08,1","01,9",,,,"99999,9,08241,1","1,1,007,1,+010,1",,"SYN100AAXX  20151 76373 32988 33301 10098 20013 38241 40262 51007 80008 91455 333 30/// 56006 58010 83390;","Q01+000002SCOTLCQ02  00002PRCP06"
"76373099999","2004-10-20T18:00:00","4","25.35","-105.75","1967.0","TEPEHUANES DGO., MX","FM-12","99999","V020","999,9,C,0000,1","22000,1,9,N","070000,1,N,1","+0236,1","+0053,1","10210,1","06,0000,9,1",,,,,"03,1,+06000,9,00,9",,,"03,99,1,00,1,00,1,99999,9,00,1,02,1","01,9",,"120,M,+0264,1","240,N,+0015,1","99999,9,08227,1","7,1,014,1,+000,1",,"SYN112AAXX  20181 76373 32988 30000 10236 20053 38227 40210 57014 80002 91755 333 10264 20015 30/// 56006 58000 83070;","Q01  00002PRCP06"
"76373099999","2004-10-20T21:00:00","4","25.35","-105.75","1967.0","TEPEHUANES DGO., MX","FM-12","99999","V020","200,1,N,0050,1","22000,1,9,N","070000,1,N,1","+0290,1","+0081,1","10130,2","06,0000,9,1",,,,,"03,1,+00025,9,00,9",,,"03,99,1,00,1,00,1,99999,9,00,1,02,1","01,9",,,,"99999,9,06205,2","7,1,022,1,+005,1",,"SYN100AAXX  20211 76373 32988 32005 10290 20081 36205 40130 57022 80002 92055 333 30/// 56006 58005 83090;","Q01+062053APOSP Q02+101303APOSLPQ03  00002PRCP06"
"76373099999","2004-10-21T12:00:00","4","25.35","-105.75","1967.0","TEPEHUANES DGO., MX","FM-12","99999","V020","999,9,C,0000,1","22000,1,9,N","015000,1,N,1","+0056,1","+0021,1","10234,1","06,0000,9,1","24,0000,9,1",,,,"00,1,+99999,9,99,9",,,"00,99,1,00,1,00,1,99999,9,00,1,00,1","01,9","999,+0170,9","999,M,+0314,1","120,N,+0040,1","99999,9,08226,1","9,9,999,9,+008,1",,"SYN100AAXX  21121 76373 32965 00000 10056 20021 38226 40234 5//// 91155 333 10314 20040 30017 58008 70000;","Q01  00002PRCP06Q02  00002PRCP24"
"76373099999","2004-10-21T15:00:00","4","25.35","-105.75","1967.0","TEPEHUANES DGO., MX","FM-12","99999","V020","999,9,C,0000,1","22000,1,9,N","070000,1,N,1","+0116,1","+0031,1","10237,1","06,0000,9,1",,,,,"01,1,+00025,9,02,9",,,"01,99,1,00,1,00,1,99999,9,00,1,08,1","01,9",,,,"99999,9,08228,1","0,1,002,1,-013,1",,"SYN100AAXX  21151 76373 32988 10000 10116 20031 38228 40237 50002 80008 91455 333 30/// 56006 59013 81290;","Q01  00002PRCP06"
"76373099999","2004-10-21T18:00:00","4","25.35","-105.75","1967.0","TEPEHUANES DGO., MX","FM-12","99999","V020","120,1,N,0020,1","09000,1,C,N","070000,1,N,1","+0244,1","+0099,1","10184,1","06,0000,9,1",,,,,"02,1,+03000,9,03,9",,,"08,99,1,02,1,00,1,01750,1,03,1,08,1","01,9",,"120,M,+0268,1","240,N,+0035,1","99999,9,08213,1","6,1,015,1,-014,1",,"SYN118AAXX  21181 76373 32788 81202 10244 20099 38213 40184 56015 82038 91755 333 10268 20035 30/// 56066 59014 82360 86270;","Q01  00002PRCP06"
"76373099999","2004-10-21T21:00:00","4","25.35","-105.75","1967.0","TEPEHUANES DGO., MX","FM-12","99999","V020","260,1,N,0060,1","09000,1,9,N","070000,1,N,1","+0294,1","+0120,1","10100,2","06,0000,9,1",,,,,"02,1,+00900,9,09,9",,,"06,99,1,02,1,03,1,00450,1,00,1,08,1","01,9",,,,"99999,9,08187,1","7,1,026,1,-018,1",,"SYN106AAXX  21211 76373 32488 62606 10294 20120 38187 40100 57026 82308 92055 333 30/// 56606 59018 82930 84290;","Q01+101003APOSLPQ02  00002PRCP06"
"76373099999","2004-10-22T00:00:00","4","25.35","-105.75","1967.0","TEPEHUANES DGO., MX","FM-12","99999","V020","240,1,N,0040,1","03000,1,C,N","070000,1,N,1","+0250,1","+0091,1","10058,1","06,0000,9,1","24,0000,9,1",,,,"06,1,+03000,9,03,9",,,"08,99,1,06,1,00,1,01250,1,03,1,02,1","01,9",,"120,M,+0314,1","180,N,+0035,1","99999,9,08189,1","3,1,002,1,+999,9",,"SYN130AAXX  22001 76373 32688 82404 10250 20091 38189 40058 53002 86032 92355 333 10314 20035 30/// 50500 56066 58/// 70000 86360 82090;","Q01  00002PRCP06"
"76373099999","2004-10-22T12:00:00","4","25.35","-105.75","1967.0","TEPEHUANES DGO., MX","FM-12","99999","V020","999,9,C,0000,1","22000,1,9,N","015000,1,N,1","+0084,1","+0052,1","10196,1","06,0000,9,1","24,0000,9,1",,,,"04,1,+00025,9,02,9",,,"04,99,1,00,1,00,1,99999,9,00,1,08,1","01,9","999,+0450,9","999,M,+0314,1","120,N,+0070,1","99999,9,08205,1","9,9,999,9,-021,1",,"SYN118AAXX  22121 76373 32965 40000 10084 20052 38205 40196 5//// 80008 91155 333 10314 20070 30045 56006 59021 70000 84290;","Q01  00002PRCP06"
"76373099999","2004-10-22T15:00:00","4","25.35","-105.75","1967.0","TEPEHUANES DGO., MX","FM-12","99999","V020","310,1,N,0010,1","00025,1,9,N","070000,1,N,1","+0138,1","+0050,1","10206,1","06,0000,9,1",,,,,"06,1,+00025,9,02,9",,,"06,99,1,00,1,00,1,99999,9,00,1,08,1","01,9",,,,"99999,9,08213,1","2,1,008,1,-015,1",,"SYN100AAXX  22151 76373 32988 63101 10138 20050 38213 40206 52008 80008 91455 333 30/// 56006 59015 86290;","Q01  00002PRCP06"
"76373099999","2004-10-22T18:00:00","4","25.35","-105.75","1967.0","TEPEHUANES DGO., MX","FM-12","99999","V020","120,1,N,0010,1","09000,1,9,N","070000,1,N,1","+0250,1","+0111,1","10162,1","06,0000,9,1",,,,,"02,1,+00300,9,08,9","01,1,+03000,9,03,9",,"05,99,1,02,1,01,1,00450,1,03,1,02,1","01,9",,"120,M,+0274,1","240,N,+0068,1","99999,9,08202,1","7,1,012,1,-013,1",,"SYN124AAXX  22181 76373 32488 51201 10250 20111 38202 40162 57012 82132 91755 333 10274 20068 30/// 56666 59013 82810 81360 92070;","Q01  00002PRCP06"
"76373099999","2004-10-22T21:00:00","4","25.35","-105.75","1967.0","TEPEHUANES DGO., MX","FM-12","99999","V020","250,1,N,0070,1","09000,1,9,N","070000,1,N,1","+0270,1","+0122,1","10090,2","06,0000,9,1",,,,,"02,1,+00900,9,08,9",,,"08,99,1,02,1,01,1,00450,1,00,1,07,1","01,9",,,,"99999,9,08184,1","6,1,017,1,-003,1",,"SYN106AAXX  22211 76373 32488 82507 10270 20122 38184 40090 56017 82107 92055 333 30/// 56505 59003 82830 86290;","Q01+100903APOSLPQ02  00002PRCP06"
"76373099999","2004-10-23T00:00:00","4","25.35","-105.75","1967.0","TEPEHUANES DGO., MX","FM-12","99999","V020","270,1,N,0030,1","09000,1,9,N","070000,1,N,1","+0218,1","+0096,1","10063,1","06,0000,9,1",,,,,"01,1,+00900,9,08,9",,,"08,99,1,01,1,01,1,00450,1,00,1,07,1","01,9",,"120,M,+0300,1","180,N,+0068,1","99999,9,08191,1","3,1,007,1,-505,1",,"SYN124AAXX  23001 76373 32488 82703 10218 20096 38191 40063 53007 81107 92355 333 10300 20068 30/// 50600 59505 58002 81830 87290;","Q01  00002PRCP06"
"76373099999","2004-10-25T12:00:00","4","25.35","-105.75","1967.0","TEPEHUANES DGO., MX","FM-12","99999","V020","999,9,C,0000,1","00900,1,9,N","015000,1,N,1","+0128,1","+0106,1","10171,1","06,0000,9,1","24,0000,9,1",,,,"08,1,+00900,9,07,9",,,"08,99,1,08,1,06,1,99999,9,99,9,99,9","01,9","999,-0100,9","999,M,+0284,1","120,N,+0116,1","99999,9,08196,1",,,"SYN118AAXX  25121 76373 32965 80000 10128 20106 38196 40171 5//// 886// 91155 333 10284 20116 30110 56/// 58/// 70000 88730;","Q01  00002PRCP06"
"76373099999","2004-10-25T15:00:00","4","25.35","-105.75","1967.0","TEPEHUANES DGO., MX","FM-12","99999","V020","999,9,C,0000,1","00900,1,9,N","070000,1,N,1","+0144,1","+0113,1","10188,1","06,0000,9,1",,,,,"08,1,+00900,9,07,9",,,"08,99,1,08,1,06,1,00450,1,99,9,99,9","01,9",,,,"99999,9,08210,1","3,1,014,1,+999,9",,"SYN100AAXX  25151 76373 32488 80000 10144 20113 38210 40188 53014 886// 91455 333 30/// 564// 58/// 88730;","Q01  00002PRCP06"
"76373099999","2004-10-25T18:00:00","4","25.35","-105.75","1967.0","TEPEHUANES DGO., MX","FM-12","99999","V020","999,9,C,0000,1","00300,1,9,N","070000,1,N,1","+0174,1","+0115,1","10164,1","01,0000,2,1",,,"2,1,06,1","2,1,06,1","08,1,+00300,9,06,9",,,"08,99,1,08,1,07,1,00250,1,00,1,00,1","01,9",,"120,M,+0178,1","240,N,+0114,1","99999,9,08211,1","2,1,001,1,+999,9","50,1","SYN130AAXX  25181 76373 01388 80000 10174 20115 38211 40164 52001 69905 75022 88700 91755 333 10178 20114 30/// 56500 58/// 69905 88610;",
"76373099999","2004-10-25T21:00:00","4","25.35","-105.75","1967.0","TEPEHUANES DGO., MX","FM-12","99999","V020","330,1,N,0030,1","00900,1,9,N","070000,1,N,1","+0206,1","+0125,1","10096,2","06,0000,2,1",,,,,"06,1,+00900,9,07,9",,,"08,99,1,06,1,06,1,00450,1,02,1,00,1","01,9",,,,"99999,9,08178,1","7,1,033,1,+999,9",,"SYN106AAXX  25211 76373 32488 83303 10206 20125 38178 40096 57033 86620 92055 333 30/// 56660 58/// 86730 82560;","Q01+100963APOSLP"
"76373099999","2004-10-26T12:00:00","4","25.35","-105.75","1967.0","TEPEHUANES DGO., MX","FM-12","99999","V020","999,9,C,0000,1","99999,9,9,N","000100,1,N,1","+0126,1","+0120,1","10168,1","12,0071,9,1",,,"4,1,06,1","4,1,06,1",,,,"08,99,1,99,9,99,9,00450,1,99,9,99,9",,,,,"99999,9,08192,1",,"10,1","SYN072AAXX  26121 76373 02401 80000 10126 20120 38192 40168 5//// 60072 71044;",
"76373099999","2004-10-26T15:00:00","4","25.35","-105.75","1967.0","TEPEHUANES DGO., MX","FM-12","99999","V020","999,9,C,0000,1","00300,1,9,N","000500,1,N,1","+0128,1","+0123,1","10183,1","06,0000,9,1",,,,,"08,1,+00300,9,07,9",,,"08,99,1,08,1,06,1,00450,1,99,9,99,9","09,9",,,,"99999,9,08203,1","2,1,008,1,-007,1",,"SYN100AAXX  26151 76373 32405 80000 10128 20123 38203 40183 52008 886// 91455 333 31/// 566// 59007 88710;","Q01  00002PRCP06"
"76373099999","2004-10-26T18:00:00","4","25.35","-105.75","1967.0","TEPEHUANES DGO., MX","FM-12","99999","V020","190,1,N,0010,1","00300,1,9,N","070000,1,N,1","+0200,1","+0128,1","10174,1","06,0000,9,1",,,,,"05,1,+00300,9,06,9",,,"07,99,1,05,1,06,1,00250,1,03,1,00,1","09,9",,"120,M,+0218,1","240,N,+0106,1","99999,9,08210,1","2,1,007,1,-001,1",,"SYN118AAXX  26181 76373 32388 71901 10200 20128 38210 40174 52007 85630 91755 333 10218 20106 31/// 56660 59001 85610 82360;","Q01  00002PRCP06"
"76373099999","2004-10-26T21:00:00","4","25.35","-105.75","1967.0","TEPEHUANES DGO., MX","FM-12","99999","V020","250,1,N,0060,1","22000,1,9,N","070000,1,N,1","+0244,1","+0087,1","10098,2","06,0000,9,1",,,,,"03,1,+00900,9,09,9",,,"03,99,1,03,1,03,1,00450,1,00,1,00,1","01,9",,,,"99999,9,08184,1","6,1,026,1,+006,1",,"SYN100AAXX  26211 76373 32488 32506 10244 20087 38184 40098 56026 83300 92055 333 30/// 56600 58006 83930;","Q01+100983APOSLPQ02  00002PRCP06"
"76373099999","2004-10-27T12:00:00","4","25.35","-105.75","1967.0","TEPEHUANES DGO., MX","FM-12","99999","V020","999,9,C,0000,1","22000,1,9,N","015000,1,N,1","+0048,1","+0040,1","10226,1","06,0000,9,1","24,0000,9,1",,,,"00,1,+99999,9,99,9",,,"00,99,1,00,1,00,1,99999,9,00,1,00,1","01,9","999,+0150,9","999,M,+0262,1","120,N,+0036,1","99999,9,08219,1","9,9,999,9,+027,1",,"SYN100AAXX  27121 76373 32965 00000 10048 20040 38219 40226 5//// 91155 333 10262 20036 30015 58027 70000;","Q01  00002PRCP06Q02  00002PRCP24"
"76373099999","2004-10-27T15:00:00","4","25.35","-105.75","1967.0","TEPEHUANES DGO., MX","FM-12","99999","V020","999,9,C,0000,1","22000,1,9,N","070000,1,N,1","+0088,1","+0054,1","10249,1","06,0000,9,1",,,,,"00,1,+99999,9,99,9",,,"00,99,1,00,1,00,1,99999,9,00,1,00,1","01,9",,,,"99999,9,08233,1","2,1,014,1,+030,1",,"SYN082AAXX  27151 76373 32988 00000 10088 20054 38233 40249 52014 91455 333 30/// 58030;","Q01  00002PRCP06"
"76373099999","2004-10-27T21:00:00","4","25.35","-105.75","1967.0","TEPEHUANES DGO., MX","FM-12","99999","V020","270,1,N,0060,1","22000,1,9,N","070000,1,N,1","+0256,1","+0065,1","10136,2","06,0000,9,1",,,,,"00,1,+99999,9,99,9",,,"00,99,1,00,1,00,1,99999,9,00,1,00,1","01,9",,,,"99999,9,08199,1","7,1,038,1,+015,1",,"SYN082AAXX  27211 76373 32988 02706 10256 20065 38199 40136 57038 92055 333 30/// 58015;","Q01+101363APOSLPQ02  00002PRCP06"
"76373099999","2004-10-28T12:00:00","4","25.35","-105.75","1967.0","TEPEHUANES DGO., MX","FM-12","99999","V020","999,9,C,0000,1","22000,1,9,N","015000,1,N,1","+0044,1","+0036,1","10254,1","06,0000,9,1","24,0000,9,1",,,,"00,1,+99999,9,99,9",,,"00,99,1,00,1,00,1,99999,9,00,1,00,1","01,9","999,+0160,9","999,M,+0276,1","120,N,+0032,1","99999,9,08239,1","9,9,999,9,+020,1",,"SYN100AAXX  28121 76373 32965 00000 10044 20036 38239 40254 5//// 91155 333 10276 20032 30016 58020 70000;","Q01  00002PRCP06Q02  00002PRCP24"
"76373099999","2004-10-28T15:00:00","4","25.35","-105.75","1967.0","TEPEHUANES DGO., MX","FM-12","99999","V020","280,1,N,0010,1","22000,1,9,N","070000,1,N,1","+0104,1","+0058,1","10269,1","06,0000,9,1",,,,,"00,1,+99999,9,99,9",,,"00,99,1,00,1,00,1,99999,9,00,1,00,1","01,9",,,,"99999,9,08251,1","2,1,012,1,+018,1",,"SYN082AAXX  28151 76373 32988 02801 10104 20058 38251 40269 52012 91455 333 30/// 58018;","Q01  00002PRCP06"
"76373099999","2004-10-28T18:00:00","4","25.35","-105.75","1967.0","TEPEHUANES DGO., MX","FM-12","99999","V020","999,9,C,0000,1","22000,1,9,N","070000,1,N,1","+0214,1","+0048,1","10224,1","06,0000,9,1",,,,,"00,1,+99999,9,99,9",,,"00,99,1,00,1,00,1,99999,9,00,1,00,1","01,9",,"120,M,+0240,1","240,N,+0025,1","99999,9,08239,1","6,1,012,1,+009,1",,"SYN094AAXX  28181 76373 32988 00000 10214 20048 38239 40224 56012 91755 333 10240 20025 30/// 58009;","Q01  00002PRCP06"
"76373099999","2004-10-28T21:00:00","4","25.35","-105.75","1967.0","TEPEHUANES DGO., MX","FM-12","99999","V020","310,1,N,0060,1","22000,1,9,N","070000,1,N,1","+0256,1","+0046,1","10145,2","06,0000,9,1",,,,,"00,1,+99999,9,99,9",,,"00,99,1,00,1,00,1,99999,9,00,1,00,1","01,9",,,,"99999,9,08215,1","6,1,024,1,+016,1",,"SYN082AAXX  28211 76373 32988 03106 10256 20046 38215 40145 56024 92055 333 30/// 58016;","Q01+101453APOSLPQ02  00002PRCP06"
"76373099999","2004-10-29T00:00:00","4","25.35","-105.75","1967.0","TEPEHUANES DGO., MX","FM-12","99999","V020","300,1,N,0030,1","99999,9,9,N","070000,1,N,1","+0218,1","+0049,1","10115,1","06,0000,9,1","24,0000,9,1",,,,,,,"08,99,1,99,9,99,9,99999,9,99,9,99,9","01,9",,"120,M,+0272,1","180,N,+0025,1","99999,9,08220,1","2,1,005,1,+999,9",,"SYN106AAXX  29001 76373 32988 83003 10218 20049 38220 40115 52005 92355 333 10272 20025 30/// 50540 58/// 70000;","Q01  00002PRCP06Q02  00002PRCP24"
"76373099999","2004-10-29T18:00:00","4","25.35","-105.75","1967.0","TEPEHUANES DGO., MX","FM-12","99999","V020","160,1,N,0010,1","22000,1,9,N","070000,1,N,1","+0226,1","+0056,1","10181,1","06,0000,9,1",,,,,"02,1,+06000,9,00,9",,,"02,99,1,00,1,00,1,99999,9,00,1,02,1","01,9",,"120,M,+0240,1","240,N,+0024,1","99999,9,08221,1","6,1,021,1,+018,1",,"SYN112AAXX  29181 76373 32988 21601 10226 20056 38221 40181 56021 80002 91755 333 10240 20024 30/// 56006 58018 82070;","Q01  00002PRCP06"
"76373099999","2004-10-29T21:00:00","4","25.35","-105.75","1967.0","TEPEHUANES DGO., MX","FM-12","99999","V020","280,1,N,0030,1","22000,1,9,N","070000,1,N,1","+0264,1","+0096,1","10109,2","06,0000,9,1",,,,,"01,1,+00900,9,08,9",,,"02,99,1,01,1,01,1,00450,1,00,1,01,1","01,9",,,,"99999,9,08186,1","7,1,033,1,-027,1",,"SYN106AAXX  29211 76373 32488 22803 10264 20096 38186 40109 57033 81101 92055 333 30/// 56606 59027 81830 81090;","Q01+101093APOSLPQ02  00002PRCP06"
"76373099999","2004-10-30T15:00:00","4","25.35","-105.75","1967.0","TEPEHUANES DGO., MX","FM-12","99999","V020","999,9,C,0000,1","22000,1,9,N","070000,1,N,1","+0100,1","+0050,1","10176,1","06,0000,9,1",,,,,"02,1,+00025,9,00,9",,,"02,99,1,00,1,00,1,99999,9,00,1,02,1","01,9",,,,"99999,9,08218,1","9,9,999,9,-024,1",,"SYN100AAXX  30151 76373 32988 20000 10100 20050 38218 40176 5//// 80002 91455 333 30/// 56006 59024 82090;","Q01  00002PRCP06"
"76373099999","2004-11-01T12:00:00","4","25.35","-105.75","1967.0","TEPEHUANES DGO., MX","FM-12","99999","V020","999,9,C,0000,1","22000,1,9,N","015000,1,N,1","+0004,1","-0007,1","10170,1","24,0170,9,1",,,,,"00,1,+99999,9,99,9",,,"00,99,1,00,1,00,1,99999,9,00,1,00,1","09,9","999,+0220,9","999,M,+0158,1","120,N,-0012,1","99999,9,08181,1",,,"SYN112AAXX  01121 76373 02965 00000 10004 21007 38181 40170 5//// 60174 91155 333 10158 21012 31022 58/// 60174 70169;",
"76373099999","2004-11-01T15:00:00","4","25.35","-105.75","1967.0","TEPEHUANES DGO., MX","FM-12","99999","V020","280,1,N,0030,1","22000,1,9,N","070000,1,N,1","+0028,1","+0016,1","10200,1","06,0000,9,1",,,,,"01,1,+00025,9,00,9",,,"01,99,1,00,1,00,1,99999,9,00,1,02,1","09,9",,,,"99999,9,08192,1","2,1,011,1,+999,9",,"SYN100AAXX  01151 76373 32988 12803 10028 20016 38192 40200 52011 80002 91450 333 31/// 56006 58/// 81090;","Q01  00002PRCP06"
"76373099999","2004-11-01T18:00:00","4","25.35","-105.75","1967.0","TEPEHUANES DGO., MX","FM-12","99999","V020","300,1,N,0060,1","22000,1,9,N","070000,1,N,1","+0182,1","+0009,1","10072,2","06,0000,9,1",,,,,"00,1,+99999,9,99,9",,,"00,99,1,00,1,00,1,99999,9,00,1,00,1","09,9",,"120,M,+0190,1","240,N,-0024,1","99999,9,08189,1","7,1,003,1,+999,9",,"SYN094AAXX  01181 76373 32988 03006 10182 20009 38189 40072 57003 91755 333 10190 21024 31/// 58///;","Q01+100723APOSLPQ02  00002PRCP06"
"76373099999","2004-11-01T21:00:00","4","25.35","-105.75","1967.0","TEPEHUANES DGO., MX","FM-12","99999","V020","300,1,N,0080,1","22000,1,9,N","070000,1,N,1","+0198,1","-0009,1","10104,1","06,0000,9,1",,,,,"01,1,+00025,9,00,9",,,"01,99,1,00,1,00,1,99999,9,00,1,09,1","01,9",,,,"99999,9,08156,1","6,1,033,1,+999,9",,"SYN100AAXX  01211 76373 32988 13008 10198 21009 38156 40104 56063 80009 92055 333 30/// 56006 58/// 81090;","Q01+000632APC3  Q02  00002PRCP06"
"76373099999","2004-11-02T18:00:00","4","25.35","-105.75","1967.0","TEPEHUANES DGO., MX","FM-12","99999","V020","150,1,N,0030,1","22000,1,9,N","070000,1,N,1","+0092,1","-0015,1","10233,1","06,0000,9,1",,,,,"01,1,+00300,9,08,9",,,"01,99,1,01,1,01,1,99999,9,00,1,00,1","01,9",,"120,M,+0112,1","240,N,-0032,1","99999,9,08224,1","8,1,002,1,+039,1",,"SYN112AAXX  02181 76373 32988 11503 10092 21015 38224 40233 58002 81100 91755 333 10112 21032 30/// 56200 58039 81810;","Q01  00002PRCP06"
"76373099999","2004-11-03T12:00:00","4","25.35","-105.75","1967.0","TEPEHUANES DGO., MX","FM-12","99999","V020","999,9,C,0000,1","22000,1,9,N","015000,1,N,1","-0028,1","-0038,1","10264,1","06,0000,9,1","24,0000,9,1",,,,"00,1,+99999,9,99,9",,,"00,99,1,00,1,00,1,99999,9,00,1,00,1","09,9","999,+0620,9","999,M,+0152,1","120,N,-0046,1","99999,9,08238,1","9,9,999,9,+029,1",,"SYN100AAXX  03121 76373 32965 00000 11028 21038 38238 40264 5//// 91155 333 10152 21046 31062 58029 70000;","Q01  00002PRCP06Q02  00002PRCP24"
"76373099999","2004-11-03T18:00:00","4","25.35","-105.75","1967.0","TEPEHUANES DGO., MX","FM-12","99999","V020","140,1,N,0010,1","22000,1,9,N","070000,1,N,1","+0094,1","-0012,1","10268,1","06,0000,9,1",,,,,"01,1,+06000,9,00,9",,,"01,99,1,00,1,00,1,99999,9,00,1,02,1","01,9",,"120,M,+0100,1","240,N,-0053,1","99999,9,08238,1","6,1,009,1,+017,1",,"SYN112AAXX  03181 76373 32988 11401 10094 21012 38238 40268 56009 80002 91755 333 10100 21053 30/// 56200 58017 81070;","Q01  00002PRCP06"
"76373099999","2004-11-04T12:00:00","4","25.35","-105.75","1967.0","TEPEHUANES DGO., MX","FM-12","99999","V020","999,9,C,0000,1","22000,1,9,N","015000,1,N,1","-0024,1","-0041,1","10264,1","06,0000,9,1","24,0000,9,1",,,,"00,1,+99999,9,99,9",,,"00,99,1,00,1,00,1,99999,9,00,1,00,1","09,9","999,+0480,9","999,M,+0175,1","120,N,-0040,1","99999,9,08242,1","9,9,999,9,+004,1",,"SYN100AAXX  04121 76373 32965 00000 11024 21041 38242 40264 5//// 91155 333 10175 21040 31048 58004 70000;","Q01  00002PRCP06Q02  00002PRCP24"
"76373099999","2004-11-04T15:00:00","4","25.35","-105.75","1967.0","TEPEHUANES DGO., MX","FM-12","99999","V020","999,9,C,0000,1","22000,1,9,N","070000,1,N,1","+0010,1","-0017,1","10301,1","06,0000,9,1",,,,,"01,1,+00025,9,00,9",,,"01,99,1,00,1,00,1,99999,9,00,1,02,1","01,9",,,,"99999,9,08262,1","2,1,020,1,+015,1",,"SYN100AAXX  04151 76373 32988 10000 10010 21017 38262 40301 52020 80002 91455 333 30/// 56006 58015 81090;","Q01  00002PRCP06"
"76373099999","2004-11-05T15:00:00","4","25.35","-105.75","1967.0","TEPEHUANES DGO., MX","FM-12","99999","V020","999,9,C,0000,1","22000,1,9,N","070000,1,N,1","+0032,1","-0011,1","10323,1","06,0000,9,1",,,,,"02,1,+00025,9,00,9",,,"02,99,1,00,1,00,1,99999,9,00,1,02,1","01,9",,,,"99999,9,08285,1","1,1,009,1,+023,1",,"SYN100AAXX  05151 76373 32988 20000 10032 21011 38285 40323 51009 80002 91455 333 30/// 56006 58023 82090;","Q01  00002PRCP06"
"76373099999","2004-11-05T21:00:00","4","25.35","-105.75","1967.0","TEPEHUANES DGO., MX","FM-12","99999","V020","130,1,N,0030,1","22000,1,9,N","008000,1,N,1","+0222,2","-0056,1","10210,2","06,0000,9,1",,,,,"01,1,+00025,9,00,9",,,"01,99,1,00,1,00,1,99999,9,00,1,01,1","01,9",,,,"99999,9,08240,1","7,1,040,1,+015,1",,"SYN100AAXX  05211 76373 32958 11303 10222 21056 38240 40210 57040 80001 92055 333 30/// 56006 58015 81090;","Q01+002223ATOT  Q02+102103APOSLPQ03  00002PRCP06"
"76373099999","2004-11-06T00:00:00","4","25.35","-105.75","1967.0","TEPEHUANES DGO., MX","FM-12","99999","V020","150,1,N,0030,1","22000,1,9,N","070000,1,N,1","+0202,1","-0036,1","10160,1","06,0000,9,1","24,0000,9,1",,,,"00,1,+99999,9,99,9",,,"00,99,1,00,1,00,1,99999,9,00,1,00,1","01,9",,"120,M,+0250,1","180,N,-0032,1","99999,9,08234,1","6,1,006,1,+006,1",,"SYN124AAXX  06001 76373 32988 01503 10202 21036 38234 40160 56006 80002 92355 333 10250 21032 30/// 50430 58006 58015 70000 81090;","Q01  00002PRCP06"
"76373099999","2004-11-08T12:00:00","4","25.35","-105.75","1967.0","TEPEHUANES DGO., MX","FM-12","99999","V020","999,9,C,0000,1","22000,1,9,N","015000,1,N,1","-0002,1","-0015,1","10233,1","06,0000,9,1","24,0000,9,1",,,,"00,1,+99999,9,99,9",,,"00,99,1,00,1,00,1,99999,9,00,1,00,1","09,9","999,+0440,9","999,M,+0278,1","120,N,-0020,1","99999,9,08244,1",,,"SYN100AAXX  08121 76373 32965 00000 11002 21015 38244 40233 5//// 91155 333 10278 21020 31044 58/// 70000;","Q01  00002PRCP06Q02  00002PRCP24"
"76373099999","2004-11-08T15:00:00","4","25.35","-105.75","1967.0","TEPEHUANES DGO., MX","FM-12","99999","V020","999,9,C,0000,1","00025,1,9,N","070000,1,N,1","+0036,1","-0016,1","10278,1","06,0000,9,1",,,,,"08,1,+00025,9,00,9",,,"08,99,1,00,1,00,1,99999,9,00,1,04,1","01,9",,,,"99999,9,08257,1","2,1,013,1,+999,9",,"SYN094AAXX  08151 76373 32988 80000 10036 21016 38257 40278 52013 80004 91455 333 30/// 58/// 88090;","Q01  00002PRCP06"
"76373099999","2004-11-08T18:00:00","4","25.35","-105.75","1967.0","TEPEHUANES DGO., MX","FM-12","99999","V020","999,9,C,0000,1","06000,1,9,N","070000,1,N,1","+0160,2","-0037,1","10257,1","06,0000,9,1",,,,,"08,1,+06000,9,02,9",,,"08,99,1,00,1,00,1,99999,9,00,1,07,1","01,9",,"120,M,+0178,1","240,N,-0024,1","99999,9,08251,1","8,1,006,1,+999,9",,"SYN118AAXX  08181 76373 32988 80000 10160 21037 38251 40257 58006 80007 91755 333 10178 21024 30/// 56006 58/// 88270 99020;","Q01+001603ATOT  Q02  00002PRCP06"
"76373099999","2004-11-09T15:00:00","4","25.35","-105.75","1967.0","TEPEHUANES DGO., MX","FM-12","99999","V020","999,9,C,0000,1","22000,1,9,N","070000,1,N,1","+0020,1","-0018,1","10240,1","06,0000,9,1",,,,,"02,1,+01800,9,03,9",,,"02,99,1,02,1,00,1,01250,1,03,1,00,1","01,9",,,,"99999,9,08245,1","2,1,013,1,-012,1",,"SYN100AAXX  09151 76373 32688 20000 10020 21018 38245 40240 52013 82030 91455 333 30/// 56060 59012 82356;","Q01  00002PRCP06"
"76373099999","2004-11-09T18:00:00","4","25.35","-105.75","1967.0","TEPEHUANES DGO., MX","FM-12","99999","V020","150,1,N,0010,1","22000,1,9,N","070000,1,N,1","+0196,2","-0008,1","10216,1","06,0000,9,1",,,,,"01,1,+03000,9,03,9",,,"01,99,1,01,1,00,1,01250,1,03,1,00,1","01,9",,"120,M,+0218,1","240,N,+0000,1","99999,9,08232,1","6,1,013,1,-019,1",,"SYN112AAXX  09181 76373 32688 11501 10196 21008 38232 40216 56013 81030 91755 333 10218 20000 30/// 56060 59019 81360;","Q01+001963ATOT  Q02  00002PRCP06"
"76373099999","2004-11-09T21:00:00","4","25.35","-105.75","1967.0","TEPEHUANES DGO., MX","FM-12","99999","V020","270,1,N,0040,1","22000,1,9,N","070000,1,N,1","+0266,1","-0075,1","10136,2","06,0000,9,1",,,,,"01,1,+00900,9,08,9",,,"01,99,1,01,1,02,1,00450,1,00,1,00,1","01,9",,,,"99999,9,08199,1","6,1,033,1,-013,1",,"SYN100AAXX  09211 76373 32488 12704 10266 21075 38199 40136 56033 81200 92055 333 30/// 56300 59013 81830;","Q01+101363APOSLPQ02  00002PRCP06"
"76373099999","2004-11-10T12:00:00","4","25.35","-105.75","1967.0","TEPEHUANES DGO., MX","FM-12","99999","V020","999,9,C,0000,1","22000,1,9,N","015000,1,N,1","+0010,1","-0003,1","10202,1","06,0000,9,1","24,0000,9,1",,,,"00,1,+99999,9,99,9",,,"00,99,1,00,1,00,1,99999,9,00,1,00,1","09,9","999,+0280,9","999,M,+0284,1","120,N,-0004,1","99999,9,08226,1","9,9,999,9,-006,1",,"SYN100AAXX  10121 76373 32965 00000 10010 21003 38226 40202 5//// 91155 333 10284 21004 31028 59006 70000;","Q01  00002PRCP06Q02  00002PRCP24"
"76373099999","2004-11-10T15:00:00","4","25.35","-105.75","1967.0","TEPEHUANES DGO., MX","FM-12","99999","V020","270,1,N,0010,1","22000,1,9,N","070000,1,N,1","+0064,1","-0006,1","10239,1","06,0000,9,1",,,,,"00,1,+99999,9,99,9",,,"00,99,1,00,1,00,1,99999,9,00,1,00,1","01,9",,,,"99999,9,08235,1","2,1,009,1,-010,1",,"SYN082AAXX  10151 76373 32988 02701 10064 21006 38235 40239 52009 91455 333 30/// 59010;","Q01  00002PRCP06"
"76373099999","2004-11-10T18:00:00","4","25.35","-105.75","1967.0","TEPEHUANES DGO., MX","FM-12","99999","V020","090,1,N,0010,1","22000,1,9,N","070000,1,N,1","+0210,1","-0033,1","10205,1","06,0000,9,1",,,,,"00,1,+99999,9,99,9",,,"00,99,1,00,1,00,1,99999,9,00,1,00,1","01,9",,"120,M,+0228,1","240,N,-0014,1","99999,9,08223,1","6,1,012,1,-009,1",,"SYN094AAXX  10181 76373 32988 00901 10210 21033 38223 40205 56012 91755 333 10228 21014 30/// 59009;","Q01  00002PRCP06"
"76373099999","2004-11-10T21:00:00","4","25.35","-105.75","1967.0","TEPEHUANES DGO., MX","FM-12","99999","V020","350,1,N,0060,1","22000,1,9,N","070000,1,N,1","+0268,1","-0079,1","10127,2","06,0000,9,1",,,,,"00,1,+99999,9,99,9",,,"00,99,1,00,1,00,1,99999,9,00,1,00,1","01,9",,,,"99999,9,08192,1","6,1,031,1,-007,1",,"SYN082AAXX  10211 76373 32988 03506 10268 21079 38192 40127 56031 92055 333 30/// 59007;","Q01+101273APOSLPQ02  00002PRCP06"
"76373099999","2004-11-11T12:00:00","4","25.35","-105.75","1967.0","TEPEHUANES DGO., MX","FM-12","99999","V020","999,9,C,0000,1","22000,1,9,N","015000,1,N,1","+0008,1","-0014,1","10206,1","06,0000,9,1","24,0000,9,1",,,,"00,1,+99999,9,99,9",,,"00,99,1,00,1,00,1,99999,9,00,1,00,1","09,9","999,+0250,9","999,M,+0278,1","120,N,-0005,1","99999,9,08225,1","9,9,999,9,-001,1",,"SYN100AAXX  11121 76373 32965 00000 10008 21014 38225 40206 5//// 91155 333 10278 21005 31025 59001 70000;","Q01  00002PRCP06Q02  00002PRCP24"
"76373099999","2004-11-11T15:00:00","4","25.35","-105.75","1967.0","TEPEHUANES DGO., MX","FM-12","99999","V020","999,9,C,0000,1","22000,1,9,N","070000,1,N,1","+0058,1","-0004,1","10252,1","06,0000,9,1",,,,,"00,1,+99999,9,99,9",,,"00,99,1,00,1,00,1,99999,9,00,1,00,1","01,9",,,,"99999,9,08243,1","2,1,018,1,+008,1",,"SYN082AAXX  11151 76373 32988 00000 10058 21004 38243 40252 52018 91455 333 30/// 58008;","Q01  00002PRCP06"
"76373099999","2004-11-11T18:00:00","4","25.35","-105.75","1967.0","TEPEHUANES DGO., MX","FM-12","99999","V020","150,1,N,0010,1","99999,9,9,N","070000,1,N,1","+0198,1","+0038,1","10228,1","06,0000,9,1",,,,,"09,1,+99999,9,99,9",,,"09,99,1,09,1,99,9,99999,9,99,9,99,9",,,"120,M,+0208,1","240,N,-0014,1","99999,9,08238,1","8,1,005,1,+999,9",,"SYN093AAXX  11181 76373 32988 91501 10198 20038 38238 40228 58005 91755 333 10208 21014 30// 58015;","Q01  00002PRCP06"
"76373099999","2004-11-11T21:00:00","4","25.35","-105.75","1967.0","TEPEHUANES DGO., MX","FM-12","99999","V020","150,1,N,0030,1","22000,1,9,N","070000,1,N,1","+0240,1","-0035,1","10148,1","06,0000,9,1",,,,,"02,1,+05100,9,02,9",,,"02,99,1,00,1,00,1,99999,9,00,1,08,1","01,9",,,,"99999,9,08201,1","6,1,037,1,+006,1",,"SYN100AAXX  11211 76373 32988 21503 10240 21035 38201 40148 56037 80008 92055 333 30/// 56006 58006 82267;","Q01  00002PRCP06"
"76373099999","2004-11-12T00:00:00","4","25.35","-105.75","1967.0","TEPEHUANES DGO., MX","FM-12","99999","V020","150,1,N,0020,1","22000,1,9,N","070000,1,N,1","+0222,1","+9999,9","10095,1","06,0000,9,1","24,0000,9,1",,,,"03,1,+08400,9,00,9",,,"03,99,1,00,1,00,1,99999,9,00,1,02,1","01,9",,"120,M,+0270,1","180,N,-0014,1","99999,9,08192,1","5,1,011,1,+999,9",,"SYN118AAXX  12001 76373 32988 31502 10222 2//// 38192 40095 55011 80002 92355 333 10270 21014 30/// 50400 56006 70000 83078;","Q01  00002PRCP06"
"76373099999","2004-11-12T12:00:00","4","25.35","-105.75","1967.0","TEPEHUANES DGO., MX","FM-12","99999","V020","999,9,C,0000,1","22000,1,9,N","015000,1,N,1","+0014,1","+9999,9","10190,1","06,0000,9,1","24,0000,9,1",,,,"00,1,+99999,9,99,9",,,"00,99,1,00,1,00,1,99999,9,00,1,00,1","09,9","999,+0200,9","999,M,+0270,1","120,N,-0002,1","99999,9,08205,1","9,9,999,9,-020,1",,"SYN100AAXX  12121 76373 32965 00000 10014 2//// 38205 40190 5//// 91155 333 10270 21002 31020 59020 70000;","Q01  00002PRCP06Q02  00002PRCP24"
"76373099999","2004-11-12T15:00:00","4","25.35","-105.75","1967.0","TEPEHUANES DGO., MX","FM-12","99999","V020","999,9,C,0000,1","05100,1,9,N","070000,1,N,1","+0040,1","+9999,9","10195,1","06,0000,9,1",,,,,"06,1,+05100,9,02,9",,,"06,99,1,00,1,00,1,99999,9,00,1,08,1","01,9",,,,"99999,9,08208,1","1,1,006,1,-035,1",,"SYN100AAXX  12151 76373 32988 60000 10040 2//// 38208 40195 51006 80008 91455 333 30/// 56006 59035 86267;","Q01  00002PRCP06"
"76373099999","2004-11-12T18:00:00","4","25.35","-105.75","1967.0","TEPEHUANES DGO., MX","FM-12","99999","V020","150,1,N,0020,1","06000,1,9,N","070000,1,N,1","+0172,1","+9999,9","10191,1","06,0000,9,1",,,,,"08,1,+06000,9,02,9",,,"08,99,1,00,1,00,1,99999,9,00,1,07,1","01,9",,"120,M,+0190,1","240,N,-0008,1","99999,9,08202,1","6,1,014,1,-044,1",,"SYN118AAXX  12181 76373 32988 81502 10172 2//// 38202 40191 56014 80007 91755 333 10190 21008 30/// 56006 59044 88270 99020;","Q01  00002PRCP06"
"76373099999","2004-11-12T21:00:00","4","25.35","-105.75","1967.0","TEPEHUANES DGO., MX","FM-12","99999","V020","270,1,N,0040,1","06000,1,9,N","070000,1,N,1","+0256,1","+9999,9","10095,2","06,0000,9,1",,,,,"08,1,+06000,9,02,9",,,"08,99,1,00,1,00,1,99999,9,00,1,07,1","01,9",,,,"99999,9,08159,1","7,1,035,1,-042,1",,"SYN106AAXX  12211 76373 32988 82704 10256 2//// 38159 40095 57035 80007 92055 333 30/// 56006 59042 88270 99020;","Q01+100953APOSLPQ02  00002PRCP06"
"76373099999","2004-11-15T12:00:00","4","25.35","-105.75","1967.0","TEPEHUANES DGO., MX","FM-12","99999","V020","999,9,C,0000,1","00300,1,9,N","000100,1,N,1","+0110,1","+0103,1","10143,1","24,0174,9,1",,,"5,1,06,1","2,1,06,1","08,1,+00300,9,07,9",,,"08,99,1,08,1,07,1,00450,1,99,9,99,9","01,9",,"999,M,+0154,1","120,N,+0096,1","99999,9,08203,1",,"50,1","SYN136AAXX  15121 76373 01401 80000 10110 20103 38203 40143 5//// 60174 75052 887// 91155 333 10154 20096 30088 566// 59/// 60174 70174 88710;",
"76373099999","2004-11-15T15:00:00","4","25.35","-105.75","1967.0","TEPEHUANES DGO., MX","FM-12","99999","V020","120,1,N,0020,1","00600,1,9,N","070000,1,N,1","+0132,1","+0093,1","10149,1","06,0000,2,1",,,,,"06,1,+00600,9,06,9",,,"06,99,1,06,1,04,1,00450,1,00,1,00,1","01,9",,,,"99999,9,08206,1","0,1,003,1,+999,9",,"SYN100AAXX  15151 76373 32488 61202 10132 20093 38206 40149 50003 86400 91455 333 30/// 56600 58/// 86620;",
"76373099999","2004-11-15T18:00:00","4","25.35","-105.75","1967.0","TEPEHUANES DGO., MX","FM-12","99999","V020","160,1,N,0030,1","00300,1,9,N","070000,1,N,1","+0158,1","+9999,9","10144,1","06,0000,2,1",,,,,"08,1,+00300,9,06,9",,,"08,99,1,08,1,08,1,00250,1,00,1,00,1","09,9",,"120,M,+0182,1","240,N,+0090,1","99999,9,08210,1","3,1,004,1,+999,9",,"SYN112AAXX  15181 76373 32388 81603 10158 2//// 38210 40144 53004 88800 91755 333 10182 20090 31/// 56400 58/// 88610;",
"76373099999","2004-11-16T15:00:00","4","25.35","-105.75","1967.0","TEPEHUANES DGO., MX","FM-12","99999","V020","110,1,N,0020,1","00300,1,9,N","010000,1,N,1","+0092,1","+9999,9","10174,1","03,0020,9,1",,,"6,1,03,1","5,1,03,1","08,1,+00300,9,07,9",,,"08,99,1,08,1,07,1,00025,1,99,9,99,9","11,9",,,,"99999,9,08215,1","0,1,000,1,+009,1","50,1","SYN112AAXX  16151 76373 23060 81102 10092 2//// 38215 40174 50000 75065 887// 91455 333 32/// 564// 58009 60027 88710;",
"76373099999","2004-11-16T18:00:00","4","25.35","-105.75","1967.0","TEPEHUANES DGO., MX","FM-12","99999","V020","060,1,N,0010,1","00300,1,9,N","060000,1,N,1","+0140,1","+9999,9","10177,1","03,0004,9,1",,,"5,1,06,1","5,1,06,1","08,1,+00300,9,06,9",,,"08,99,1,08,1,07,1,00250,1,00,1,00,1","09,9",,"120,M,+0152,1","240,N,+0070,1","99999,9,08222,1","2,1,007,1,+012,1","50,1","SYN130AAXX  16181 76373 01386 80601 10140 2//// 38222 40177 52007 69947 75055 88700 91755 333 10152 20070 31/// 56600 58012 69947 88610;",
"76373099999","2004-11-17T12:00:00","4","25.35","-105.75","1967.0","TEPEHUANES DGO., MX","FM-12","99999","V020","999,9,C,0000,1","22000,1,9,N","001000,1,N,1","+0012,1","+9999,9","10219,1","06,0000,9,1","24,0000,2,1",,,,"00,1,+99999,9,99,9",,,"00,99,1,00,1,00,1,99999,9,00,1,00,1","09,9","999,+0150,9","999,M,+0190,1","120,N,-0006,1","99999,9,08226,1","9,9,999,9,+011,1",,"SYN100AAXX  17121 76373 32910 00000 10012 2//// 38226 40219 5//// 91155 333 10190 21006 31015 58011 70000;","Q01  00002PRCP06"
"76373099999","2004-11-17T15:00:00","4","25.35","-105.75","1967.0","TEPEHUANES DGO., MX","FM-12","99999","V020","999,9,C,0000,1","22000,1,9,N","070000,1,N,1","+0016,1","+9999,9","10249,1","06,0000,9,1",,,,,"01,1,+05100,9,00,9",,,"01,99,1,00,1,00,1,99999,9,00,1,02,1","01,9",,,,"99999,9,08237,1","2,1,011,1,+022,1",,"SYN100AAXX  17151 76373 32988 10000 10016 2//// 38237 40249 52011 80002 91455 333 30/// 56006 58022 81067;","Q01  00002PRCP06"
"76373099999","2004-11-18T15:00:00","4","25.35","-105.75","1967.0","TEPEHUANES DGO., MX","FM-12","99999","V020","999,9,C,0000,1","05100,1,9,N","070000,1,N,1","+0014,1","+9999,9","10273,1","06,0000,9,1",,,,,"06,1,+05100,9,02,9",,,"06,99,1,00,1,00,1,99999,9,00,1,08,1","01,9",,,,"99999,9,08250,1","2,1,010,1,+013,1",,"SYN100AAXX  18151 76373 32988 60000 10014 2//// 38250 40273 52010 80008 91455 333 30/// 56006 58013 86267;","Q01  00002PRCP06"
"76373099999","2004-11-18T18:00:00","4","25.35","-105.75","1967.0","TEPEHUANES DGO., MX","FM-12","99999","V020","090,1,N,0010,1","06000,1,9,N","070000,1,N,1","+0118,1","+9999,9","10254,1","06,0000,9,1",,,,,"08,1,+06000,9,02,9",,,"08,99,1,00,1,00,1,99999,9,00,1,07,1","01,9",,"120,M,+0138,1","240,N,-0022,1","99999,9,08244,1","8,1,006,1,-013,1",,"SYN118AAXX  18181 76373 32988 80901 10118 2//// 38244 40254 58006 80007 91755 333 10138 21022 30/// 56006 59013 88270 99020;","Q01  00002PRCP06"
"76373099999","2004-11-18T21:00:00","4","25.35","-105.75","1967.0","TEPEHUANES DGO., MX","FM-12","99999","V020","140,1,N,0010,1","05100,1,9,N","070000,1,N,1","+0176,1","+9999,9","10189,2","06,0000,9,1",,,,,"08,1,+05100,9,02,9",,,"08,99,1,00,1,00,1,99999,9,00,1,07,1","01,9",,,,"99999,9,08209,1","6,1,035,1,+002,1",,"SYN100AAXX  18211 76373 32988 81401 10176 2//// 38209 40189 56035 80007 92055 333 30/// 56006 58002 88267;","Q01+101893APOSLPQ02  00002PRCP06"
"76373099999","2004-11-19T12:00:00","4","25.35","-105.75","1967.0","TEPEHUANES DGO., MX","FM-12","99999","V020","999,9,C,0000,1","22000,1,9,N","001000,1,N,1","+0036,1","+9999,9","10172,1","06,0000,9,1","24,0000,9,1",,,,"03,1,+05100,9,02,9",,,"03,99,1,00,1,00,1,99999,9,00,1,08,1","01,9","999,+0000,9","999,M,+0225,1","120,N,+0015,1","99999,9,08204,1","9,9,999,9,-036,1",,"SYN118AAXX  19121 76373 32910 30000 10036 2//// 38204 40172 5//// 80008 91155 333 10225 20015 30000 56/// 59036 70000 83267;","Q01  00002PRCP06"
"76373099999","2004-11-19T15:00:00","4","25.35","-105.75","1967.0","TEPEHUANES DGO., MX","FM-12","99999","V020","999,9,C,0000,1","22000,1,9,N","070000,1,N,1","+0024,1","+9999,9","10204,1","06,0000,9,1",,,,,"02,1,+02100,9,03,9",,,"02,99,1,02,1,00,1,01250,1,03,1,00,1","01,9",,,,"99999,9,08213,1","2,1,009,1,-037,1",,"SYN100AAXX  19151 76373 32688 20000 10024 2//// 38213 40204 52009 82030 91455 333 30/// 56060 59037 82357;","Q01  00002PRCP06"
"76373099999","2004-11-19T21:00:00","4","25.35","-105.75","1967.0","TEPEHUANES DGO., MX","FM-12","99999","V020","210,1,N,0060,1","05100,1,9,N","070000,1,N,1","+0226,2","+9999,9","10117,2","06,0000,9,1",,,,,"06,1,+05100,9,02,9",,,"06,99,1,00,1,00,1,99999,9,00,1,08,1","01,9",,,,"99999,9,08178,1","6,1,023,1,-031,1",,"SYN100AAXX  19211 76373 32988 62106 10226 2//// 38178 40117 56023 80008 92055 333 30/// 56006 59031 86267;","Q01+002263ATOT  Q02+101173APOSLPQ03  00002PRCP06"
"76373099999","2004-11-21T15:00:00","4","25.35","-105.75","1967.0","TEPEHUANES DGO., MX","FM-12","99999","V020","999,9,C,0000,1","03000,1,9,N","070000,1,N,1","+0044,1","+9999,9","10198,1","06,0000,9,1",,,,,"08,1,+03000,9,03,9",,,"08,99,1,08,1,00,1,01250,1,06,1,00,1","01,9",,,,"99999,9,08216,1","2,1,999,9,+031,1",,"SYN100AAXX  21151 76373 32688 80000 10044 2//// 38216 40198 520// 88060 91440 333 30/// 56060 58031 88360;","Q01  00002PRCP06"
"76373099999","2004-11-21T18:00:00","4","25.35","-105.75","1967.0","TEPEHUANES DGO., MX","FM-12","99999","V020","280,1,N,0040,1","03600,1,C,N","070000,1,N,1","+0198,2","+9999,9","10193,1","06,0000,9,1",,,,,"02,1,+00900,9,08,9","01,1,+03000,9,03,9",,"08,99,1,02,1,03,1,00250,1,06,1,08,1","01,9",,"120,M,+0194,1","240,N,+0018,1","99999,9,08218,1","2,1,012,1,+032,1",,"SYN124AAXX  21181 76373 32388 82804 10198 2//// 38218 40193 52012 82368 91745 333 10194 20018 30/// 56666 58032 82830 81360 85080;","Q01+001983ATOT  Q02  00002PRCP06"
"76373099999","2004-11-22T12:00:00","4","25.35","-105.75","1967.0","TEPEHUANES DGO., MX","FM-12","99999","V020","300,1,N,0010,1","22000,1,9,N","010000,1,N,1","+0024,1","+9999,9","10174,1","06,0000,9,1","24,0000,9,1",,,,"02,1,+05100,9,00,9",,,"02,99,1,00,1,00,1,99999,9,00,1,02,1","09,9","999,+0020,9","999,M,+0230,1","120,N,+0008,1","99999,9,08207,1","9,9,999,9,+006,1",,"SYN118AAXX  22121 76373 32960 23001 10024 2//// 38207 40174 5//// 80002 91155 333 10230 20008 31002 56006 58006 70000 82067;","Q01  00002PRCP06"
"76373099999","2004-11-22T15:00:00","4","25.35","-105.75","1967.0","TEPEHUANES DGO., MX","FM-12","99999","V020","999,9,C,0000,1","22000,1,9,N","070000,1,N,1","+0044,1","+9999,9","10207,1","06,0000,9,1",,,,,"02,1,+05100,9,00,9",,,"02,99,1,00,1,00,1,99999,9,00,1,02,1","01,9",,,,"99999,9,08217,1","2,1,010,1,+016,1",,"SYN100AAXX  22151 76373 32988 20000 10044 2//// 38217 40207 52010 80002 91455 333 30/// 56002 58016 82067;","Q01  00002PRCP06"
"76373099999","2004-11-22T18:00:00","4","25.35","-105.75","1967.0","TEPEHUANES DGO., MX","FM-12","99999","V020","270,1,N,0010,1","22000,1,9,N","070000,1,N,1","+0182,2","+9999,9","10186,1","06,0000,9,1",,,,,"01,1,+03000,9,03,9",,,"02,99,1,01,1,00,1,01250,1,03,1,02,1","01,9",,"120,M,+0208,1","240,N,+0002,1","99999,9,08208,1","7,1,005,1,-001,1",,"SYN118AAXX  22181 76373 32688 22701 10182 2//// 38208 40186 57005 81032 91755 333 10208 20002 30/// 56066 59001 81360 81070;","Q01+001823ATOT  Q02  00002PRCP06"
"76373099999","2004-11-23T12:00:00","4","25.35","-105.75","1967.0","TEPEHUANES DGO., MX","FM-12","99999","V020","320,1,N,0020,1","22000,1,9,N","001000,1,N,1","+0080,1","+9999,9","10115,1","06,0000,9,1","24,0000,9,1",,,,"00,1,+99999,9,99,9",,,"00,99,1,00,1,00,1,99999,9,00,1,00,1","01,9","999,+0150,9","999,M,+0252,1","120,N,+0034,1","99999,9,08165,1","9,9,999,9,-042,1",,"SYN100AAXX  23121 76373 32910 03202 10080 2//// 38165 40115 5//// 91155 333 10252 20034 30015 59042 70000;","Q01  00002PRCP06Q02  00002PRCP24"
"76373099999","2004-11-23T18:00:00","4","25.35","-105.75","1967.0","TEPEHUANES DGO., MX","FM-12","99999","V020","280,1,N,0060,1","22000,1,9,N","070000,1,N,1","+0182,1","+9999,9","10099,1","06,0000,9,1",,,,,"01,1,+05100,9,00,9",,,"01,99,1,00,1,00,1,99999,9,00,1,02,1","01,9",,"120,M,+0200,1","240,N,+0034,1","99999,9,08171,1","0,1,000,1,-037,1",,"SYN112AAXX  23181 76373 32988 12806 10182 2//// 38171 40099 50000 80002 91755 333 10200 20034 30/// 56006 59037 81067;","Q01  00002PRCP06"
"76373099999","2004-11-24T00:00:00","4","25.35","-105.75","1967.0","TEPEHUANES DGO., MX","FM-12","99999","V020","250,1,N,0020,1","22000,1,9,N","070000,1,N,1","+0146,1","+9999,9","10120,1","06,0000,9,1","24,0000,9,1",,,,"00,1,+99999,9,99,9",,,"00,99,1,00,1,00,1,99999,9,00,1,00,1","01,9",,"120,M,+0206,1","180,N,+0034,1","99999,9,08156,1","9,9,999,9,+025,1",,"SYN106AAXX  24001 76373 32988 02502 10146 2//// 38156 40120 5//// 92350 333 10206 20034 30/// 50500 58025 70000;","Q01  00002PRCP06Q02  00002PRCP24"
"76373099999","2004-11-24T12:00:00","4","25.35","-105.75","1967.0","TEPEHUANES DGO., MX","FM-12","99999","V020","999,9,C,0000,1","22000,1,9,N","001000,1,N,1","-0018,1","+9999,9","10202,1","06,0000,9,1","24,0000,9,1",,,,"00,1,+99999,9,99,9",,,"00,99,1,00,1,00,1,99999,9,00,1,00,1","09,9","999,+0520,9","999,M,+0206,1","120,N,-0034,1","99999,9,08201,1","9,9,999,9,+036,1",,"SYN100AAXX  24121 76373 32910 00000 11018 2//// 38201 40202 5//// 91155 333 10206 21034 31052 58036 70000;","Q01  00002PRCP06Q02  00002PRCP24"
"76373099999","2004-11-24T15:00:00","4","25.35","-105.75","1967.0","TEPEHUANES DGO., MX","FM-12","99999","V020","320,1,N,0020,1","22000,1,9,N","070000,1,N,1","-0004,1","+9999,9","10246,1","06,0000,9,1",,,,,"01,1,+09000,9,00,9",,,"01,99,1,00,1,00,1,99999,9,00,1,02,1","01,9",,,,"99999,9,08216,1","2,1,015,1,+045,1",,"SYN100AAXX  24151 76373 32988 13202 11004 2//// 38216 40246 52015 80002 91455 333 30/// 56006 58045 81080;","Q01  00002PRCP06"
"76373099999","2004-11-24T18:00:00","4","25.35","-105.75","1967.0","TEPEHUANES DGO., MX","FM-12","99999","V020","120,1,N,0010,1","22000,1,9,N","070000,1,N,1","+0118,2","+9999,9","99999,9","06,0000,9,1",,,,,"01,1,+05100,9,00,9",,,"01,99,1,00,1,00,1,99999,9,00,1,02,1","01,9",,"120,M,+0206,1","240,N,-0046,1","99999,9,08211,1","8,1,005,1,+040,1",,"SYN112AAXX  24181 76373 32988 11201 10118 2//// 38211 40030 58005 80002 91755 333 10206 21046 30/// 56006 58040 81067;","Q01+001183ATOT  Q02+100303APOSLPQ03  00002PRCP06Q04 100303APOSLP"
"76373099999","2004-11-25T00:00:00","4","25.35","-105.75","1967.0","TEPEHUANES DGO., MX","FM-12","99999","V020","120,1,N,0020,1","22000,1,9,N","070000,1,N,1","+0180,1","+9999,9","10162,1","06,0000,9,1","24,0000,9,1",,,,,,,"01,99,1,00,1,00,1,99999,9,00,1,02,1","01,9",,"120,M,+0208,1","180,N,-0046,1","99999,9,08181,1","9,9,999,9,+025,1",,"SYN124AAXX  25001 76373 32988 11202 10180 2//// 38181 40162 5//// 80002 92350 333 10208 21046 30/// 50300 56002 58025 70000 81080;","Q01  00002PRCP06"
"76373099999","2004-11-25T12:00:00","4","25.35","-105.75","1967.0","TEPEHUANES DGO., MX","FM-12","99999","V020","999,9,C,0000,1","22000,1,9,N","001000,1,N,1","-0032,1","+9999,9","10242,1","06,0000,9,1","24,0000,9,1",,,,"02,1,+05100,9,00,9",,,"02,99,1,00,1,00,1,99999,9,00,1,04,1","09,9","999,+0620,9","999,M,+0208,1","120,N,-0046,1","99999,9,08224,1","9,9,999,9,+023,1",,"SYN118AAXX  25121 76373 32910 20000 11032 2//// 38224 40242 5//// 80004 91158 333 10208 21046 31062 56006 58023 70000 82067;","Q01  00002PRCP06"
"76373099999","2004-11-25T15:00:00","4","25.35","-105.75","1967.0","TEPEHUANES DGO., MX","FM-12","99999","V020","999,9,C,0000,1","06000,1,9,N","070000,1,N,1","-0016,1","+9999,9","10266,1","06,0000,9,1",,,,,"06,1,+06000,9,00,9",,,"06,99,1,00,1,00,1,99999,9,00,1,08,1","01,9",,,,"99999,9,08235,1","2,1,011,1,+020,1",,"SYN100AAXX  25151 76373 32988 60000 11016 2//// 38235 40266 52011 80008 91455 333 30/// 56006 58020 86070;","Q01  00002PRCP06"
"76373099999","2004-11-25T18:00:00","4","25.35","-105.75","1967.0","TEPEHUANES DGO., MX","FM-12","99999","V020","100,1,N,0010,1","06000,1,9,N","070000,1,N,1","+0112,2","+9999,9","10266,1","06,0000,9,1",,,,,"08,1,+06000,9,02,9",,,"08,99,1,00,1,00,1,99999,9,00,1,07,1","01,9",,"120,M,+0128,1","240,N,-0054,1","99999,9,08230,1","8,1,005,1,+019,1",,"SYN112AAXX  25181 76373 32988 81001 10112 2//// 38230 40266 58005 80007 91755 333 10128 21054 30/// 56006 58019 88270;","Q01+001123ATOT  Q02  00002PRCP06"
"76373099999","2004-11-26T15:00:00","4","25.35","-105.75","1967.0","TEPEHUANES DGO., MX","FM-12","99999","V020","999,9,C,0000,1","06000,1,9,N","070000,1,N,1","-0002,1","+9999,9","10239,1","06,0000,9,1",,,,,"08,1,+06000,9,02,9",,,"08,99,1,00,1,00,1,99999,9,00,1,07,1","01,9",,,,"99999,9,08216,1","2,1,017,1,-019,1",,"SYN100AAXX  26151 76373 32988 80000 11002 2//// 38216 40239 52017 80007 91455 333 30/// 56006 59019 88270;","Q01  00002PRCP06"
"76373099999","2004-11-26T18:00:00","4","25.35","-105.75","1967.0","TEPEHUANES DGO., MX","FM-12","99999","V020","999,9,C,0000,1","99999,9,9,N","070000,1,N,1","+0154,2","+9999,9","10241,1","06,0000,9,1",,,,,,,,"08,99,1,02,1,00,1,99999,9,03,1,08,1","01,9",,"120,M,+0170,1","240,N,-0024,1","99999,9,08204,1","6,1,012,1,-026,1",,"SYN106AAXX  26181 76373 32988 80000 10154 2//// 38204 40241 56012 82038 91755 333 10170 21024 30/// 56066 59026;","Q01+001543ATOT  Q02  00002PRCP06"
"76373099999","2004-11-28T18:00:00","4","25.35","-105.75","1967.0","TEPEHUANES DGO., MX","FM-12","99999","V020","270,1,N,0080,1","22000,1,9,N","070000,1,N,1","+0174,1","+9999,9","10231,1","06,0000,9,1",,,,,"01,1,+09000,9,00,9",,,"01,99,1,00,1,00,1,99999,9,00,1,04,1","01,9",,"120,M,+0230,1","240,N,-0018,1","99999,9,08195,1","6,1,005,1,-035,1",,"SYN112AAXX  28181 76373 32988 12708 10174 2//// 38195 40231 56005 80004 91740 333 10230 21018 30/// 56006 59035 81080;","Q01  00002PRCP06"
"76373099999","2004-11-28T21:00:00","4","25.35","-105.75","1967.0","TEPEHUANES DGO., MX","FM-12","99999","V020","270,1,N,0060,1","22000,1,9,N","070000,1,N,1","+0236,1","+9999,9","10165,2","06,0000,9,1",,,,,,,,"01,99,1,00,1,00,1,99999,9,00,1,04,1","01,9",,,,"99999,9,08176,1","6,1,019,1,-007,1",,"SYN100AAXX  28211 76373 32988 12706 10236 2//// 38176 40165 56019 80004 82050 333 30/// 56006 59007 81080;","Q01+101653APOSLPQ02  00002PRCP06"
"76373099999","2004-11-29T15:00:00","4","25.35","-105.75","1967.0","TEPEHUANES DGO., MX","FM-12","99999","V020","999,9,C,0000,1","22000,1,9,N","070000,1,N,1","+0054,1","+9999,9","10182,1","06,0000,9,1",,,,,"01,1,+06000,9,00,9",,,"01,99,1,00,1,00,1,99999,9,00,1,01,1","01,9",,,,"99999,9,08200,1","3,1,007,1,+000,1",,"SYN100AAXX  29151 76373 32988 10000 10054 2//// 38200 40182 53007 80001 91455 333 30/// 56006 58000 81070;","Q01  00002PRCP06"
"76373099999","2004-11-30T12:00:00","4","25.35","-105.75","1967.0","TEPEHUANES DGO., MX","FM-12","99999","V020","270,1,N,0010,1","22000,1,9,N","010000,1,N,1","+0026,1","+9999,9","10179,1","06,0000,9,1","24,0000,9,1",,,,"02,1,+06000,9,00,9",,,"02,99,1,00,1,00,1,99999,9,00,1,02,1","09,9","999,+0050,9","999,M,+0256,1","120,N,+0008,1","99999,9,08209,1","9,9,999,9,+016,1",,"SYN118AAXX  30121 76373 32960 22701 10026 2//// 38209 40179 5//// 80002 91155 333 10256 20008 31005 56006 58016 70000 82070;","Q01  00002PRCP06"
"76373099999","2004-11-30T15:00:00","4","25.35","-105.75","1967.0","TEPEHUANES DGO., MX","FM-12","99999","V020","999,9,C,0000,1","22000,1,9,N","070000,1,N,1","+0032,1","+9999,9","10211,1","06,0000,9,1",,,,,"01,1,+00600,9,08,9","01,1,+03000,9,03,9",,"04,99,1,01,1,01,1,00450,1,03,1,02,1","01,9",,,,"99999,9,08218,1","2,1,009,1,+018,1",,"SYN112AAXX  30151 76373 32488 40000 10032 2//// 38218 40211 52009 81132 91455 333 30/// 56666 58018 81820 81360 82070;","Q01  00002PRCP06"
"76373099999","2004-11-30T18:00:00","4","25.35","-105.75","1967.0","TEPEHUANES DGO., MX","FM-12","99999","V020","130,1,N,0020,1","99999,9,9,N","070000,1,N,1","+0162,2","+9999,9","99999,9","06,0000,9,1",,,,,"01,1,+00600,9,08,9","02,1,+03000,9,03,9",,"06,99,1,99,9,99,9,00450,1,99,9,99,9","01,9",,"120,M,+0184,1","240,N,-0002,1",,"9,9,999,9,-019,1",,"SYN124AAXX  30181 76373 32488 61302 10162 2//// 10132 38219 40205 50001 91755 333 10184 21002 30/// 56666 59019 81820 82360 83070;","Q01+001623ATOT  Q02  00002PRCP06"
"76373099999","2004-12-01T12:00:00","4","25.35","-105.75","1967.0","TEPEHUANES DGO., MX","FM-12","99999","V020","999,9,C,0000,1","06000,1,9,N","010000,1,N,1","+0010,1","+9999,9","10212,1","06,0000,9,1","24,0000,9,1",,,,"06,1,+06000,9,02,9",,,"08,99,1,00,1,00,1,99999,9,00,1,07,1","09,9","999,+0200,9","999,M,+0256,1","120,N,-0006,1","99999,9,08228,1","9,9,999,9,+019,1",,"SYN118AAXX  01121 76373 32960 80000 10010 2//// 38228 40212 5//// 80007 91155 333 10256 21006 31020 56006 58019 70000 86270;","Q01  00002PRCP06"
"76373099999","2004-12-01T15:00:00","4","25.35","-105.75","1967.0","TEPEHUANES DGO., MX","FM-12","99999","V020","999,9,C,0000,1","09000,1,C,N","070000,1,N,1","+0004,1","+9999,9","10253,1","06,0000,9,1",,,,,"03,1,+03000,9,03,9",,,"07,99,1,03,1,00,1,01250,1,03,1,02,1","01,9",,,,"99999,9,08240,1","2,1,012,1,+032,1",,"SYN106AAXX  01151 76373 32688 70000 10004 2//// 38240 40253 52012 83032 91455 333 30/// 56066 58032 83360 84070;","Q01  00002PRCP06"
"76373099999","2004-12-01T18:00:00","4","25.35","-105.75","1967.0","TEPEHUANES DGO., MX","FM-12","99999","V020","999,9,C,0000,1","09000,1,C,N","070000,1,N,1","+0114,1","+9999,9","10233,1","06,0000,9,1",,,,,"01,1,+00600,9,08,9",,,"05,99,1,01,1,02,1,00450,1,00,1,02,1","01,9",,"120,M,+0140,1","240,N,-0014,1","99999,9,08226,1","8,1,014,1,+007,1",,"SYN118AAXX  01181 76373 32488 50000 10114 200// 38226 40233 58014 81202 91755 333 10140 21014 30/// 56606 58007 81820 84070;","Q01  00002PRCP06"
"76373099999","2004-12-02T18:00:00","4","25.35","-105.75","1967.0","TEPEHUANES DGO., MX","FM-12","99999","V020","999,9,C,0000,1","22000,1,9,N","070000,1,N,1","+0186,1","+9999,9","10217,1","06,0000,9,1",,,,,"01,1,+03000,9,03,9",,,"02,99,1,01,1,00,1,01250,1,04,1,02,1","01,9",,"120,M,+0200,1","240,N,+0010,1","99999,9,08232,1","8,1,007,1,+006,1",,"SYN118AAXX  02181 76373 32688 20000 10186 2//// 38232 40217 58007 81042 91755 333 10200 20010 30/// 56066 58006 81360 81070;","Q01  00002PRCP06"
"76373099999","2004-12-03T12:00:00","4","25.35","-105.75","1967.0","TEPEHUANES DGO., MX","FM-12","99999","V020","999,9,C,0000,1","22000,1,9,N","010000,1,N,1","+0072,1","+9999,9","10148,1","06,0000,9,1","24,0000,9,1",,,,"02,1,+03000,9,03,9",,,"03,99,1,02,1,00,1,01250,1,04,1,01,1","01,9","999,+0400,9","999,M,+0248,1","120,N,+0056,1","99999,9,08211,1","9,9,999,9,-014,1",,"SYN124AAXX  03121 76373 32660 30000 10072 2//// 38211 40148 5//// 82041 91155 333 10248 20056 30040 56066 59014 70000 82360 81070;","Q01  00002PRCP06"
"76373099999","2004-12-03T15:00:00","4","25.35","-105.75","1967.0","TEPEHUANES DGO., MX","FM-12","99999","V020","999,9,C,0000,1","00300,1,9,N","070000,1,N,1","+0066,1","+9999,9","10187,1","06,0000,9,1",,,,,"08,1,+00300,9,06,9",,,"08,99,1,08,1,05,1,00450,1,00,1,00,1","01,9",,,,"99999,9,08223,1","2,1,012,1,-016,1",,"SYN100AAXX  03151 76373 32488 80000 10066 2//// 38223 40187 52012 88500 91455 333 30/// 56600 59016 88610;","Q01  00002PRCP06"
"76373099999","2004-12-03T18:00:00","4","25.35","-105.75","1967.0","TEPEHUANES DGO., MX","FM-12","99999","V020","999,9,C,0000,1","09000,1,C,N","070000,1,N,1","+0184,2","+9999,9","10182,1","06,0000,9,1",,,,,"03,1,+00600,9,06,9",,,"08,99,1,03,1,04,1,00450,1,00,1,08,1","01,9",,"120,M,+0184,1","240,N,+0040,1","99999,9,08222,1","8,1,001,1,-010,1",,"SYN118AAXX  03181 76373 32488 80000 10184 2//// 38222 40182 58001 83408 91755 333 10184 20040 30/// 56606 59010 83620 85270;","Q01+001843ATOT  Q02  00002PRCP06"
"76373099999","2004-12-04T15:00:00","4","25.35","-105.75","1967.0","TEPEHUANES DGO., MX","FM-12","99999","V020","999,9,C,0000,1","06000,1,9,N","070000,1,N,1","+0080,1","+9999,9","10163,1","06,0000,9,1",,,,,"08,1,+06000,9,02,9",,,"08,99,1,00,1,00,1,99999,9,00,1,07,1","01,9",,,,"99999,9,08210,1","9,9,999,9,-013,1",,"SYN100AAXX  04151 76373 32988 80000 10080 2//// 38210 40163 5//// 80007 91455 333 30/// 56006 59013 88270;","Q01  00002PRCP06"
"76373099999","2004-12-04T18:00:00","4","25.35","-105.75","1967.0","TEPEHUANES DGO., MX","FM-12","99999","V020","160,1,N,0010,1","03600,1,C,N","070000,1,N,1","+0154,1","+9999,9","10158,1","06,0000,9,1",,,,,"02,1,+00900,9,08,9","02,1,+03000,9,03,9",,"06,99,1,02,1,01,1,01250,1,03,1,02,1","01,9",,"120,M,+0178,1","240,N,+0048,1","99999,9,08204,1","8,1,006,1,-018,1",,"SYN124AAXX  04181 76373 32688 61601 10154 2//// 38204 40158 58006 82132 91755 333 10178 20048 30/// 56666 59018 82830 82360 82070;","Q01  00002PRCP06"
"76373099999","2004-12-05T18:00:00","4","25.35","-105.75","1967.0","TEPEHUANES DGO., MX","FM-12","99999","V020","270,1,N,0060,1","03600,1,C,N","070000,1,N,1","+0192,1","+9999,9","10139,1","06,0000,9,1",,,,,"02,1,+00600,9,08,9","02,1,+03000,9,03,9",,"08,99,1,02,1,02,1,00250,1,03,1,04,1","09,9",,"120,M,+0204,1","240,N,+0100,1","99999,9,08183,1","6,1,026,1,-020,1",,"SYN124AAXX  05181 76373 32388 82706 10192 2//// 38183 40139 56026 82234 91740 333 10204 20100 31/// 56666 59020 82820 82360 84020;","Q01  00002PRCP06"
"76373099999","2004-12-05T21:00:00","4","25.35","-105.75","1967.0","TEPEHUANES DGO., MX","FM-12","99999","V020","260,1,N,0070,1","03000,1,9,N","070000,1,N,1","+0200,1","+9999,9","10072,2","06,0000,9,1",,,,,"08,1,+03000,9,03,9",,,"08,99,1,08,1,00,1,01250,1,06,1,00,1","01,9",,,,"99999,9,08171,1","6,1,012,1,-004,1",,"SYN100AAXX  05211 76373 32688 82607 10200 2//// 38171 40072 56012 88060 92045 333 30/// 56060 59004 88360;","Q01+100723APOSLPQ02  00002PRCP06"
"76373099999","2004-12-06T18:00:00","4","25.35","-105.75","1967.0","TEPEHUANES DGO., MX","FM-12","99999","V020","310,1,N,0030,1","00300,1,9,N","015000,1,N,1","+0142,1","+9999,9","10141,1","03,0008,9,1","06,0150,9,1",,"5,1,06,1","2,1,06,1","08,1,+00300,9,07,9",,,"08,99,1,08,1,07,1,00450,1,99,9,99,9","09,9",,"120,M,+0154,1","240,N,+0094,1","99999,9,08205,1","0,1,015,1,+022,1","51,1","SYN130AAXX  06181 76373 01465 83103 10142 2//// 38205 40141 50015 60151 75152 887// 91755 333 10154 20094 31/// 566// 58022 69987 88710;",
"76373099999","2004-12-07T12:00:00","4","25.35","-105.75","1967.0","TEPEHUANES DGO., MX","FM-12","99999","V020","999,9,C,0000,1","22000,1,9,N","005000,1,N,1","+0020,1","+9999,9","10196,1","06,0000,9,1",,,,,"00,1,+99999,9,99,9",,,"00,99,1,00,1,00,1,99999,9,00,1,00,1","09,9","999,+0100,9","999,M,+0200,1","120,N,+0000,1","99999,9,08217,1","9,9,999,9,+039,1",,"SYN101AAXX  07121 76373 32950 00000 10020 2//// 38217 40196 5//// 91155 333 10200 20000 31010 580397 70000;","Q01  00002PRCP06"
"76373099999","2004-12-07T15:00:00","4","25.35","-105.75","1967.0","TEPEHUANES DGO., MX","FM-12","99999","V020","999,9,C,0000,1","22000,1,9,N","030000,1,N,1","+0018,1","+9999,9","10231,1","06,0000,9,1",,,,,"00,1,+99999,9,99,9",,,"00,99,1,00,1,00,1,99999,9,00,1,00,1","01,9",,,,"99999,9,08231,1","2,1,014,1,+041,1",,"SYN082AAXX  07151 76373 32980 00000 10018 2//// 38231 40231 52014 91455 333 30/// 58041;","Q01  00002PRCP06"
"76373099999","2004-12-07T18:00:00","4","25.35","-105.75","1967.0","TEPEHUANES DGO., MX","FM-12","99999","V020","030,1,N,0010,1","22000,1,9,N","070000,1,N,1","+0126,1","+9999,9","10224,1","06,0000,9,1",,,,,"00,1,+99999,9,99,9",,,"00,99,1,00,1,00,1,99999,9,00,1,00,1","01,9",,"120,M,+0140,1","240,N,-0012,1","99999,9,08225,1","8,1,006,1,-020,1",,"SYN094AAXX  07181 76373 32988 00301 10126 2//// 38225 40224 58006 91755 333 10140 21012 30/// 59020;","Q01  00002PRCP06"
"76373099999","2004-12-08T15:00:00","4","25.35","-105.75","1967.0","TEPEHUANES DGO., MX","FM-12","99999","V020","999,9,C,0000,1","09000,1,C,N","070000,1,N,1","-0008,1","+9999,9","10232,1","06,0000,9,1",,,,,"04,1,+03000,9,03,9",,,"08,99,1,04,1,00,1,01250,1,06,1,04,1","01,9",,,,"99999,9,08220,1","2,1,019,1,-011,1",,"SYN106AAXX  08151 76373 32688 80000 11008 2//// 38220 40232 52019 84064 91455 333 30/// 56066 59011 84360 84070;","Q01  00002PRCP06"
"76373099999","2004-12-08T18:00:00","4","25.35","-105.75","1967.0","TEPEHUANES DGO., MX","FM-12","99999","V020","150,1,N,0010,1","06000,1,9,N","070000,1,N,1","+0118,2","+9999,9","10226,1","06,0000,9,1",,,,,"06,1,+06000,9,02,9",,,"06,99,1,00,1,00,1,99999,9,00,1,08,1","01,9",,"120,M,+0152,1","240,N,+0026,1","99999,9,08217,1","7,1,003,1,-008,1",,"SYN112AAXX  08181 76373 32988 61501 10118 2//// 38217 40226 57003 80008 91755 333 10152 20026 30/// 56006 59008 86270;","Q01+001183ATOT  Q02  00002PRCP06"
"76373099999","2004-12-09T12:00:00","4","25.35","-105.75","1967.0","TEPEHUANES DGO., MX","FM-12","99999","V020","999,9,C,0000,1","22000,1,9,N","003000,1,N,1","-0028,1","+9999,9","10244,1","06,0000,9,1","24,0000,9,1",,,,"00,1,+99999,9,99,9",,,"00,99,1,00,1,00,1,99999,9,00,1,00,1","09,9","999,+0580,9","999,M,+0225,1","120,N,-0042,1","99999,9,08231,1","9,9,999,9,+020,1",,"SYN100AAXX  09121 76373 32930 00000 11028 2//// 38231 40244 5//// 91155 333 10225 21042 31058 58020 70000;","Q01  00002PRCP06Q02  00002PRCP24"
"76373099999","2004-12-09T15:00:00","4","25.35","-105.75","1967.0","TEPEHUANES DGO., MX","FM-12","99999","V020","999,9,C,0000,1","22000,1,9,N","070000,1,N,1","-0020,1","+9999,9","10285,1","06,0000,9,1",,,,,"00,1,+99999,9,99,9",,,"00,99,1,00,1,00,1,99999,9,00,1,00,1","01,9",,,,"99999,9,08247,1","2,1,016,1,+027,1",,"SYN082AAXX  09151 76373 32988 00000 11020 2//// 38247 40285 52016 91455 333 30/// 58027;","Q01  00002PRCP06"
"76373099999","2004-12-10T00:00:00","4","25.35","-105.75","1967.0","TEPEHUANES DGO., MX","FM-12","99999","V020","140,1,N,0010,1","22000,1,9,N","070000,1,N,1","+0198,1","+9999,9","10141,1","06,0000,9,1","24,0000,9,1",,,,"00,1,+99999,9,99,9",,,"00,99,1,00,1,00,1,99999,9,00,1,00,1","01,9",,"120,M,+0250,1","180,N,-0054,1","99999,9,08199,1","5,1,006,1,-001,1",,"SYN106AAXX  10001 76373 32988 01401 10198 2//// 38199 40141 55006 92355 333 10250 21054 30/// 50210 59001 70000;","Q01  00002PRCP06Q02  00002PRCP24"
"76373099999","2004-12-10T15:00:00","4","25.35","-105.75","1967.0","TEPEHUANES DGO., MX","FM-12","99999","V020","999,9,C,0000,1","22000,1,9,N","070000,1,N,1","-0002,1","+9999,9","10288,1","06,0000,9,1",,,,,"00,1,+99999,9,99,9",,,"00,99,1,00,1,00,1,99999,9,00,1,00,1","01,9",,,,"99999,9,08257,1","2,1,019,1,+010,1",,"SYN082AAXX  10151 76373 32988 00000 11002 2//// 38257 40288 52019 91455 333 30/// 58010;","Q01  00002PRCP06"
"76373099999","2004-12-10T18:00:00","4","25.35","-105.75","1967.0","TEPEHUANES DGO., MX","FM-12","99999","V020","110,1,N,0020,1","22000,1,9,N","070000,1,N,1","+0134,2","+9999,9","10325,1","06,0000,9,1",,,,,"00,1,+99999,9,99,9",,,"00,99,1,00,1,00,1,99999,9,00,1,00,1","01,9",,"120,M,+0156,1","240,N,-0034,1","99999,9,08259,1","2,1,002,1,+016,1",,"SYN094AAXX  10181 76373 32988 01102 10134 2//// 38259 40325 52002 91755 333 10156 21034 30/// 58016;","Q01+001343ATOT  Q02  00002PRCP06"
"76373099999","2004-12-12T00:00:00","4","25.35","-105.75","1967.0","TEPEHUANES DGO., MX","FM-12","99999","V020","150,1,N,0010,1","22000,1,9,N","070000,1,N,1","+0210,1","+9999,9","10158,1","06,0000,9,1","24,0000,9,1",,,,"00,1,+99999,9,99,9",,,"00,99,1,00,1,00,1,99999,9,00,1,00,1","01,9",,"120,M,+0240,1","180,N,-0032,1","99999,9,08196,1","6,1,025,1,-032,1",,"SYN106AAXX  12001 76373 32988 01501 10210 2//// 38196 40158 56025 92355 333 10240 21032 30/// 50260 59032 70000;","Q01  00002PRCP06Q02  00002PRCP24"
"76373099999","2004-12-12T15:00:00","4","25.35","-105.75","1967.0","TEPEHUANES DGO., MX","FM-12","99999","V020","999,9,C,0000,1","22000,1,9,N","070000,1,N,1","+0008,1","+9999,9","10273,1","06,0000,9,1",,,,,"00,1,+99999,9,99,9",,,"00,99,1,00,1,00,1,99999,9,00,1,00,1","01,9",,,,"99999,9,08249,1","9,9,999,9,-009,1",,"SYN082AAXX  12151 76373 32988 00000 10008 2//// 38249 40273 5//// 91450 333 30/// 59009;","Q01  00002PRCP06"
"76373099999","2004-12-13T00:00:00","4","25.35","-105.75","1967.0","TEPEHUANES DGO., MX","FM-12","99999","V020","270,1,N,0020,1","22000,1,9,N","070000,1,N,1","+0230,1","+9999,9","10162,1","06,0000,9,1","24,0000,9,1",,,,"00,1,+99999,9,99,9",,,"00,99,1,00,1,00,1,99999,9,00,1,00,1","01,9",,"120,M,+0262,1","180,N,-0024,1","99999,9,08199,1","6,1,011,1,+003,1",,"SYN106AAXX  13001 76373 32988 02702 10230 2//// 38199 40162 56011 92355 333 10262 21024 30/// 50270 58003 70000;","Q01  00002PRCP06Q02  00002PRCP24"
"76373099999","2004-12-14T12:00:00","4","25.35","-105.75","1967.0","TEPEHUANES DGO., MX","FM-12","99999","V020","999,9,C,0000,1","22000,1,9,N","001000,1,N,1","+0260,1","+9999,9","10280,1","06,0000,9,1","24,0000,9,1",,,,"00,1,+99999,9,99,9",,,"00,99,1,00,1,00,1,99999,9,00,1,00,1","09,9","999,+0050,9","999,M,+9999,9","120,N,+0010,1","99999,9,08281,1","9,9,999,9,+040,1",,"SYN100AAXX  14121 76373 32910 00000 10260 2//// 38281 40280 5//// 91155 333 10223 20010 31005 58040 70000;","Q01  00002PRCP06Q02  00002PRCP24Q03 +02232ATMX  "
"76373099999","2004-12-14T15:00:00","4","25.35","-105.75","1967.0","TEPEHUANES DGO., MX","FM-12","99999","V020","999,9,C,0000,1","22000,1,9,N","070000,1,N,1","+0018,2","+9999,9","10313,1","06,0000,9,1",,,,,"01,1,+03000,9,03,9",,,"01,99,1,01,1,00,1,01250,1,03,1,00,1","01,9",,,,"99999,9,08292,1","2,1,011,1,+031,1",,"SYN100AAXX  14151 76373 32688 10000 10018 2//// 38292 40313 52011 81030 91455 333 30/// 56060 58031 81360;","Q01+000183ATOT  Q02  00002PRCP06"
"76373099999","2004-12-15T18:00:00","4","25.35","-105.75","1967.0","TEPEHUANES DGO., MX","FM-12","99999","V020","180,1,N,0010,1","22000,1,9,N","070000,1,N,1","+0134,1","+9999,9","10257,1","06,0000,9,1",,,,,"01,1,+00300,9,09,9",,,"01,99,1,01,1,03,1,00250,1,00,1,00,1","01,9",,"120,M,+0150,1","240,N,-0025,1","99999,9,08245,1","8,1,012,1,-059,1",,"SYN112AAXX  15181 76373 32388 11801 10134 2//// 38245 40257 58012 81300 91755 333 10150 21025 30/// 56600 59059 81910;","Q01  00002PRCP06"
"76373099999","2004-12-22T00:00:00","4","25.35","-105.75","1967.0","TEPEHUANES DGO., MX","FM-12","99999","V020","270,1,N,0030,1","22000,1,9,N","070000,1,N,1","+0166,1","+9999,9","10113,1","06,0000,9,1","24,0000,9,1",,,,"02,1,+00600,9,08,9",,,"03,99,1,02,1,02,1,00250,1,00,1,04,1","01,9",,"120,M,+0204,1","180,N,-0010,1","99999,9,08159,1","6,1,007,1,-026,1",,"SYN130AAXX  22001 76373 32388 32703 10166 2//// 38159 40113 56007 82204 92345 333 10204 21010 30/// 50320 56606 59026 70000 82820 81080;","Q01  00002PRCP06"
"76373099999","2004-12-22T15:00:00","4","25.35","-105.75","1967.0","TEPEHUANES DGO., MX","FM-12","99999","V020","999,9,C,0000,1","22000,1,9,N","070000,1,N,1","+0026,1","+9999,9","10174,1","06,0000,9,1",,,,,"01,1,+09000,9,00,9",,,"01,99,1,00,1,00,1,99999,9,00,1,04,1","01,9",,,,"99999,9,08184,1","9,9,999,9,-013,1",,"SYN100AAXX  22151 76373 32988 10000 10026 2//// 38184 40174 5//// 80004 91455 333 30/// 56006 59013 81080;","Q01  00002PRCP06"
"76373099999","2004-12-22T18:00:00","4","25.35","-105.75","1967.0","TEPEHUANES DGO., MX","FM-12","99999","V020","300,1,N,0010,1","22000,1,9,N","070000,1,N,1","+0158,2","+9999,9","10141,1","06,0000,9,1",,,,,"01,1,+06000,9,00,9",,,"01,99,1,00,1,00,1,99999,9,00,1,05,1","01,9",,"120,M,+0170,1","240,N,+0008,1","99999,9,08178,1","7,1,006,1,-014,1",,"SYN112AAXX  22181 76373 32988 13001 10158 2//// 38178 40141 57006 80005 91745 333 10170 20008 30/// 56006 59014 81070;","Q01+001583ATOT  Q02  00002PRCP06"
"76373099999","2004-12-23T15:00:00","4","25.35","-105.75","1967.0","TEPEHUANES DGO., MX","FM-12","99999","V020","999,9,C,0000,1","03000,1,9,N","070000,1,N,1","-0032,1","+9999,9","10244,1","06,0000,9,1",,,,,"08,1,+03000,9,05,9",,,"08,99,1,08,1,00,1,01250,1,02,1,00,1","01,9",,,,"99999,9,08185,1","9,9,999,9,+001,1",,"SYN100AAXX  23151 76373 32688 80000 11032 2//// 38185 40244 5//// 88020 91450 333 30/// 56060 58001 88560;","Q01  00002PRCP06"
"76373099999","2004-12-23T18:00:00","4","25.35","-105.75","1967.0","TEPEHUANES DGO., MX","FM-12","99999","V020","120,1,N,0010,1","06000,1,9,N","070000,1,N,1","+0124,2","+9999,9","10184,2","06,0000,9,1",,,,,"07,1,+06000,9,02,9",,,"07,99,1,00,1,00,1,99999,9,00,1,08,1","01,9",,"120,M,+0142,1","240,N,-0052,1","99999,9,08170,1","6,1,015,1,-008,1",,"SYN112AAXX  23181 76373 32988 71201 10124 2//// 38170 40184 56015 80008 91775 333 10142 21052 30/// 56006 59008 87270;","Q01+001243ATOT  Q02+101843APOSLPQ03  00002PRCP06"
"76373099999","2004-12-24T18:00:00","4","25.35","-105.75","1967.0","TEPEHUANES DGO., MX","FM-12","99999","V020","220,1,N,0070,1","22000,1,9,N","070000,1,N,1","+0122,1","+9999,9","10102,1","06,0000,9,1",,,,,"02,1,+00360,9,08,9",,,"02,99,1,02,1,01,1,00450,1,00,1,00,1","01,9",,"120,M,+0132,1","240,N,+0024,1","99999,9,08144,1","9,9,999,9,-020,1",,"SYN112AAXX  24181 76373 32488 22207 10122 2//// 38144 40102 5//// 82100 91755 333 10132 20024 30/// 56600 59020 82812;","Q01  00002PRCP06"
"76373099999","2004-12-28T18:00:00","4","25.35","-105.75","1967.0","TEPEHUANES DGO., MX","FM-12","99999","V020","999,9,C,0000,1","06000,1,9,N","070000,1,N,1","+0128,1","+9999,9","10287,1","06,0000,9,1",,,,,"07,1,+06000,9,02,9",,,"99,99,9,00,1,00,1,99999,9,00,1,08,1","01,9",,"120,M,+0148,1","240,N,-0048,1","99999,9,08277,1","9,9,999,9,+020,1",,"SYN112AAXX  28181 76373 32988 60000 10128 2//// 38277 40287 5//// 80008 91755 333 10148 21048 30/// 56006 58020 87270;","Q01+000062SCOTCVQ02  00002PRCP06"
"76373099999","2004-12-29T18:00:00","4","25.35","-105.75","1967.0","TEPEHUANES DGO., MX","FM-12","99999","V020","090,1,N,0010,1","09000,1,C,N","070000,1,N,1","+0142,1","+9999,9","10233,1","06,0000,9,1",,,,,"04,1,+03000,9,03,9",,,"08,99,1,04,1,00,1,01250,1,03,1,08,1","01,9",,"120,M,+0160,1","240,N,+0008,1","99999,9,08251,1","9,9,999,9,-016,1",,"SYN118AAXX  29181 76373 32688 80901 10142 2//// 38251 40233 5//// 84038 91755 333 10160 20008 30/// 56066 59016 84360 86270;","Q01  00002PRCP06"
