"STATION","DATE","SOURCE","LATITUDE","LONGITUDE","ELEVATION","NAME","REPORT_TYPE","CALL_SIGN","QUALITY_CONTROL","WND","CIG","VIS","TMP","DEW","SLP","AA1","AA2","AY1","AY2","GA1","GA2","GA3","GF1","GJ1","IA1","IA2","KA1","KA2","MA1","MD1","MW1","OA1","REM","EQD"
"76373099999","2003-01-02T12:00:00","4","25.35","-105.75","1967.0","TEPEHUANES DGO., MX","FM-12","99999","V020","999,9,C,0000,1","22000,1,9,N","000800,1,N,1","-0024,1","-0079,1","10221,1","06,0000,9,1","24,0000,9,1",,,"00,1,+99999,9,99,9",,,"00,99,1,00,1,00,1,99999,9,00,1,00,1",,"01,9","999,-0070,9","999,M,+0258,1","120,N,-0064,1","99999,9,08222,1","2,1,006,1,+999,9",,,"SYN100AAXX  02121 76373 32908 00000 11024 21079 38222 40221 52006 91155 333 10258 21064 30107 58/// 70000;","Q01  00002PRCP06Q02  00002PRCP24"
"76373099999","2003-01-03T00:00:00","4","25.35","-105.75","1967.0","TEPEHUANES DGO., MX","FM-12","99999","V020","130,1,N,0020,1","22000,1,9,N","070000,1,N,1","+0158,1","-0132,1","10173,1","06,0000,9,1","24,0000,9,1",,,"00,1,+99999,9,99,9",,,"00,99,1,00,1,00,1,99999,9,00,1,00,1",,"01,9",,"120,M,+0192,1","180,N,-0064,1","99999,9,08209,1","2,1,002,1,+043,1",,,"SYN106AAXX  03001 76373 32988 01302 10158 21132 38209 40173 52002 92346 333 10192 21064 30/// 50210 58043 70000;","Q01  00002PRCP06Q02  00002PRCP24"
"76373099999","2003-01-03T18:00:00","4","25.35","-105.75","1967.0","TEPEHUANES DGO., MX","FM-12","99999","V020","090,1,N,0010,1","22000,1,9,N","070000,1,N,1","+0122,1","-0080,1","10179,1","06,0000,9,1",,,,"00,1,+99999,9,99,9",,,"00,99,1,00,1,00,1,99999,9,00,1,00,1",,"01,9",,"120,M,+0140,1","240,N,-0052,1","99999,9,08241,1","7,1,013,1,-001,1",,,"SYN094AAXX  03180 76373 32988 00901 10122 21080 38241 40179 57013 91750 333 10140 21052 30/// 59001;","Q01  00002PRCP06"
"76373099999","2003-01-04T00:00:00","4","25.35","-105.75","1967.0","TEPEHUANES DGO., MX","FM-12","99999","V020","140,1,N,0020,1","22000,1,9,N","070000,1,N,1","+0188,1","-0084,1","10148,1","06,0000,9,1","24,0000,9,1",,,"00,1,+99999,9,99,9",,,"00,99,1,00,1,00,1,99999,9,00,1,00,1",,"01,9",,"120,M,+0228,1","180,N,-0052,1","99999,9,08200,1","6,1,001,1,-009,1",,,"SYN106AAXX  04001 76373 32988 01402 10188 21084 38200 40148 56001 92350 333 10228 21052 30/// 50340 59009 70000;","Q01  00002PRCP06Q02  00002PRCP24"
"76373099999","2003-01-04T03:00:00","4","25.35","-105.75","1967.0","TEPEHUANES DGO., MX","FM-12","99999","V020","999,9,C,0000,1","22000,1,9,N","000000,1,N,1","+0072,1","-0010,1","10164,1","06,0000,9,1",,,,"00,1,+99999,9,99,9",,,"00,99,1,00,1,00,1,99999,9,00,1,00,1",,"01,9",,,,"99999,9,08219,1","2,1,019,1,-005,1",,,"SYN082AAXX  04031 76373 32900 00000 10072 21010 38219 40164 52019 90235 333 30/// 59005;","Q01  00002PRCP06"
"76373099999","2003-01-04T06:00:00","4","25.35","-105.75","1967.0","TEPEHUANES DGO., MX","FM-12","99999","V020","999,9,C,0000,1","22000,1,9,N","000000,1,N,1","+0044,1","-0055,1","10192,1","06,0000,9,1",,,,"00,1,+99999,9,99,9",,,"00,99,1,00,1,00,1,99999,9,00,1,00,1","0594,9","01,9",,"240,M,+0228,1","240,N,-0052,1","99999,9,08230,1","2,1,011,1,+999,9",,,"SYN100AAXX  04061 76373 32900 00000 10044 21055 38230 40192 52011 90535 333 10228 21052 30/// 55099 58///;","Q01  00002PRCP06"
"76373099999","2003-01-05T00:00:00","4","25.35","-105.75","1967.0","TEPEHUANES DGO., MX","FM-12","99999","V020","180,1,N,0010,1","22000,1,9,N","070000,1,N,1","+0188,1","-0032,1","10136,1","06,0000,9,1","24,0000,9,1",,,"03,1,+00300,9,08,9",,,"03,99,1,03,1,02,1,00250,1,00,1,04,1",,"01,9",,"120,M,+0234,1","180,N,-0028,1","99999,9,08198,1","7,1,003,1,-002,1",,,"SYN130AAXX  05001 76373 32388 31801 10188 21032 38198 40136 57003 83204 92345 333 10234 21028 30/// 50072 56303 59002 70000 83810 84070;","Q01  00002PRCP06"
"76373099999","2003-01-05T03:00:00","4","25.35","-105.75","1967.0","TEPEHUANES DGO., MX","FM-12","99999","V020","999,9,C,0000,1","22000,1,9,N","000000,1,N,1","+0112,1","-0018,1","10152,1","06,0000,9,1",,,,"00,1,+99999,9,99,9",,,"00,99,1,00,1,00,1,99999,9,00,1,00,1",,"01,9",,,,"99999,9,08213,1","2,1,015,1,-006,1",,,"SYN082AAXX  05031 76373 32900 00000 10112 21018 38213 40152 52015 90250 333 30/// 59006;","Q01  00002PRCP06"
"76373099999","2003-01-05T18:00:00","4","25.35","-105.75","1967.0","TEPEHUANES DGO., MX","FM-12","99999","V020","100,1,N,0010,1","22000,1,9,N","070000,1,N,1","+0136,1","-0028,1","10136,1","06,0000,9,1",,,,"02,1,+09000,9,00,9",,,"02,99,1,00,1,00,1,99999,9,00,1,04,1",,"01,9",,"120,M,+0164,1","240,N,-0020,1","99999,9,08232,1","6,1,009,1,-006,1",,,"SYN112AAXX  05181 76373 32988 21001 10136 21028 38232 40136 56009 80004 91740 333 10164 21020 30/// 56003 59006 82080;","Q01  00002PRCP06"
"76373099999","2003-01-06T15:00:00","4","25.35","-105.75","1967.0","TEPEHUANES DGO., MX","FM-12","99999","V020","999,9,C,0000,1","06000,1,9,N","070000,1,N,1","+0010,1","-0009,1","10219,1","06,0000,9,1",,,,"05,1,+06000,9,00,9",,,"05,99,1,00,1,00,1,99999,9,00,1,05,1",,"01,9",,,,"99999,9,08221,1","9,9,999,9,-020,1",,,"SYN100AAXX  06151 76373 32988 50000 10010 21009 38221 40219 5//// 80005 91438 333 30/// 56006 59020 85070;","Q01  00002PRCP06"
"76373099999","2003-01-06T18:00:00","4","25.35","-105.75","1967.0","TEPEHUANES DGO., MX","FM-12","99999","V020","120,1,N,0010,1","06000,1,9,N","070000,1,N,1","+0140,1","+0035,1","10215,1","06,0000,9,1",,,,"08,1,+06000,9,02,9",,,"08,99,1,00,1,00,1,99999,9,00,1,07,1",,"01,9",,"120,M,+0160,1","240,N,-0002,1","99999,9,08220,1","7,1,001,1,-012,1",,,"SYN118AAXX  06181 76373 32988 81201 10140 20035 38220 40215 57001 80007 91740 333 10160 21002 30/// 56006 59012 88270 99020;","Q01  00002PRCP06"
"76373099999","2003-01-06T21:00:00","4","25.35","-105.75","1967.0","TEPEHUANES DGO., MX","FM-12","99999","V020","130,1,N,0050,1","06000,1,9,N","070000,1,N,1","+0202,1","+0018,1","10145,2","06,0000,9,1",,,,"02,1,+00300,9,08,9","08,1,+06000,9,02,9",,"08,99,1,02,1,01,1,00250,1,00,1,07,1",,"01,9",,,,"99999,9,08184,1","6,1,036,1,-006,1",,,"SYN112AAXX  06211 76373 32388 81305 10202 20018 38184 40145 56036 82107 92036 333 30/// 56606 59006 82810 88270 99020;","Q01+101453APOSLPQ02  00002PRCP06"
"76373099999","2003-01-07T00:00:00","4","25.35","-105.75","1967.0","TEPEHUANES DGO., MX","FM-12","99999","V020","300,1,N,0010,1","99999,9,9,N","070000,1,N,1","+0186,1","+0053,1","10123,1","01,0000,2,1",,"5,1,06,1","5,1,06,1",,,,"08,99,1,99,9,99,9,00250,1,99,9,99,9",,,,,,"99999,9,08192,1","1,1,008,1,+999,9","16,1",,"SYN072AAXX  07001 76373 01388 83001 10186 20053 38192 40123 51008 69905 71655;",
"76373099999","2003-01-07T12:00:00","4","25.35","-105.75","1967.0","TEPEHUANES DGO., MX","FM-12","99999","V020","999,9,C,0000,1","99999,9,9,N","000800,1,N,1","+0114,1","+0071,1","10176,1","03,0000,2,1",,"6,1,06,1","5,1,06,1",,,,"08,99,1,99,9,99,9,00450,1,99,9,99,9",,,,,,"99999,9,08238,1","2,1,007,1,+999,9","50,1",,"SYN072AAXX  07121 76373 01408 80000 10114 20071 38238 40176 52007 69907 75065;",
"76373099999","2003-01-07T15:00:00","4","25.35","-105.75","1967.0","TEPEHUANES DGO., MX","FM-12","99999","V020","080,1,N,0010,1","00300,1,9,N","025000,1,N,1","+0098,1","+0081,1","10214,1","03,0030,9,1",,"6,1,03,1","5,1,03,1","08,1,+00300,9,07,9",,,"08,99,1,08,1,07,1,00450,1,99,9,99,9",,"11,9",,,,"99999,9,08260,1","2,1,022,1,+039,1","51,1",,"SYN118AAXX  07151 76373 01475 80801 10098 20081 38260 40214 52022 60037 75165 887// 91446 333 32/// 563// 58039 60037 88710;",
"76373099999","2003-01-07T18:00:00","4","25.35","-105.75","1967.0","TEPEHUANES DGO., MX","FM-12","99999","V020","110,1,N,0010,1","99999,9,9,N","008000,1,N,1","+0102,1","+0085,1","10249,1","03,0051,9,1",,"6,1,06,1","5,1,06,1",,,,"08,99,1,99,9,99,9,00250,1,99,9,99,9",,,,,,"99999,9,08279,1","2,1,019,1,+999,9","51,1",,"SYN072AAXX  07181 76373 01358 81101 10102 20085 38279 40249 52019 60057 75165;",
"76373099999","2003-01-08T18:00:00","4","25.35","-105.75","1967.0","TEPEHUANES DGO., MX","FM-12","99999","V020","250,1,N,0010,1","00300,1,9,N","028000,1,N,1","+0121,1","+0095,1","10229,1","06,0000,9,1",,,,"08,1,+00300,9,06,9",,,"08,99,1,08,1,06,1,00250,1,99,9,99,9",,"09,9",,"120,M,+0124,1","240,N,+0090,1","99999,9,08262,1","2,1,008,1,-017,1",,,"SYN112AAXX  08181 76373 32378 82501 10121 20095 38262 40229 52008 886// 91740 333 10124 20090 31/// 563// 59017 88610;","Q01  00002PRCP06"
"76373099999","2003-01-09T21:00:00","4","25.35","-105.75","1967.0","TEPEHUANES DGO., MX","FM-12","99999","V020","300,1,N,0050,1","00300,1,9,N","070000,1,N,1","+0190,1","+0085,1","10130,1","06,0000,9,1",,,,"06,1,+00300,9,08,9",,,"06,99,1,06,1,02,1,00250,1,00,1,00,1",,"09,9",,,,"99999,9,08202,1","7,1,028,1,-020,1",,,"SYN100AAXX  09211 76373 32388 63005 10190 20085 38202 40130 57028 86200 92040 333 31/// 56300 59020 86810;","Q01  00002PRCP06"
"76373099999","2003-01-10T00:00:00","4","25.35","-105.75","1967.0","TEPEHUANES DGO., MX","FM-12","99999","V020","300,1,N,0030,1","03600,1,9,N","070000,1,N,1","+0188,1","+0066,1","10108,1","06,0000,9,1","24,9999,9,9",,,"03,1,+00300,9,08,9","01,1,+03000,9,03,9",,"06,99,1,03,1,01,1,00250,1,03,1,02,1",,"09,9",,"120,M,+0205,1","180,N,+0104,1","99999,9,08195,1","7,1,007,1,-025,1",,,"SYN136AAXX  10001 76373 32388 63003 10188 20066 38195 40108 57007 83132 92340 333 10205 20104 31/// 50200 56333 59025 79999 83810 81360 82070;","Q01  00002PRCP06Q02  99992PRCP24"
"76373099999","2003-01-10T15:00:00","4","25.35","-105.75","1967.0","TEPEHUANES DGO., MX","FM-12","99999","V020","999,9,C,0000,1","22000,1,C,N","070000,1,N,1","+0062,1","+0050,1","10204,1","06,0000,9,1",,,,"02,1,+03000,9,03,9",,,"05,99,1,02,1,00,1,01250,1,03,1,04,1",,"09,9",,,,"99999,9,08228,1","9,9,999,9,+010,1",,,"SYN106AAXX  10151 76373 32688 50000 10062 20050 38228 40204 5//// 82034 91440 333 31/// 56066 58010 82360 83070;","Q01  00002PRCP06"
"76373099999","2003-01-10T18:00:00","4","25.35","-105.75","1967.0","TEPEHUANES DGO., MX","FM-12","99999","V020","999,9,C,0000,1","06000,1,9,N","070000,1,N,1","+0134,1","+0075,1","10199,1","06,0000,9,1",,,,"01,1,+00300,9,08,9","01,1,+03000,9,03,9","08,1,+06000,9,02,9","08,99,1,01,1,01,1,00450,1,03,1,07,1",,"09,9",,"120,M,+0142,1","240,N,+0040,1","99999,9,08225,1","7,1,003,1,-005,1",,,"SYN130AAXX  10181 76373 32488 80000 10134 20075 38225 40199 57003 81137 91738 333 10142 20040 31/// 56555 59005 81810 81360 88270 99020;","Q01  00002PRCP06"
"76373099999","2003-01-11T03:00:00","4","25.35","-105.75","1967.0","TEPEHUANES DGO., MX","FM-12","99999","V020","270,1,N,0020,1","99999,9,9,N","010000,1,N,1","+0124,1","+0046,1","10116,1","06,0000,9,1",,,,"03,1,+03000,9,03,9",,,"08,99,1,03,1,00,1,99999,9,03,1,08,1",,"01,9",,,,"99999,9,08199,1","2,1,002,1,-063,1",,,"SYN106AAXX  11031 76373 32960 82702 10124 20046 38199 40116 52002 83038 90235 333 30/// 59063 58007 83360 85280;","Q01  00002PRCP06"
"76373099999","2003-01-12T03:00:00","4","25.35","-105.75","1967.0","TEPEHUANES DGO., MX","FM-12","99999","V020","999,9,C,0000,1","22000,1,9,N","010000,1,N,1","+0102,1","-0011,1","10123,1","06,0000,9,1",,,,"01,1,+09000,9,02,9",,,"01,99,1,00,1,00,1,99999,9,00,1,08,1",,"01,9",,,,"99999,9,08195,1","6,1,002,1,-004,1",,,"SYN100AAXX  12031 76373 32960 10000 10102 21011 38195 40123 56002 80008 90235 333 30/// 56006 59004 81280;","Q01  00002PRCP06"
"76373099999","2003-01-14T12:00:00","4","25.35","-105.75","1967.0","TEPEHUANES DGO., MX","FM-12","99999","V020","999,9,C,0000,1","22000,1,9,N","000800,1,N,1","-0004,1","-0024,1","10265,1","06,0000,9,1","24,0000,9,1",,,"00,1,+99999,9,99,9",,,"00,99,1,00,1,00,1,99999,9,00,1,00,1",,"01,9","999,-0040,9","999,M,+0223,1","120,N,-0010,1","99999,9,08259,1","2,1,001,1,+999,9",,,"SYN100AAXX  14121 76373 32908 00000 11004 21024 38259 40265 52001 91148 333 10223 21010 30104 58/// 70000;","Q01  00002PRCP06Q02  00002PRCP24"
"76373099999","2003-01-14T15:00:00","4","25.35","-105.75","1967.0","TEPEHUANES DGO., MX","FM-12","99999","V020","999,9,C,0000,1","22000,1,9,N","070000,1,N,1","+0014,1","-0017,1","10306,1","06,0000,9,1",,,,"00,1,+99999,9,99,9",,,"00,99,1,00,1,00,1,99999,9,00,1,00,1",,"01,9",,,,"99999,9,08272,1","2,1,013,1,-002,1",,,"SYN082AAXX  14151 76373 32988 00000 10014 21017 38272 40306 52013 91448 333 30/// 59002;","Q01  00002PRCP06"
"76373099999","2003-01-14T18:00:00","4","25.35","-105.75","1967.0","TEPEHUANES DGO., MX","FM-12","99999","V020","999,9,C,0000,1","22000,1,9,N","070000,1,N,1","+0128,2","-0012,1","10318,1","06,0000,9,1",,,,"00,1,+99999,9,99,9",,,"00,99,1,00,1,00,1,99999,9,00,1,00,1",,"01,9",,"120,M,+0142,1","240,N,-0020,1","99999,9,08290,1","1,1,018,1,+021,1",,,"SYN094AAXX  14181 76373 32988 00000 10128 21012 38290 40318 51018 91740 333 10142 21020 30/// 58021;","Q01+001283ATOT  Q02  00002PRCP06"
"76373099999","2003-01-15T00:00:00","4","25.35","-105.75","1967.0","TEPEHUANES DGO., MX","FM-12","99999","V020","130,1,N,0020,1","22000,1,9,N","070000,1,N,1","+0198,1","-0035,1","10165,1","06,0000,9,1","24,0000,9,1",,,"00,1,+99999,9,99,9",,,"00,99,1,00,1,00,1,99999,9,00,1,00,1",,"01,9",,"120,M,+0222,1","180,N,-0020,1","99999,9,08223,1","7,1,013,1,+005,1",,,"SYN106AAXX  15001 76373 32988 01302 10198 21035 38223 40165 57013 92346 333 10222 21020 30/// 50250 58005 70000;","Q01  00002PRCP06Q02  00002PRCP24"
"76373099999","2003-01-15T03:00:00","4","25.35","-105.75","1967.0","TEPEHUANES DGO., MX","FM-12","99999","V020","999,9,C,0000,1","22000,1,9,N","000800,1,N,1","+0110,1","-0020,1","10155,1","06,0000,9,1",,,,"00,1,+99999,9,99,9",,,"00,99,1,00,1,00,1,99999,9,00,1,00,1",,"01,9",,,,"99999,9,08235,1","2,1,012,1,-007,1",,,"SYN082AAXX  15031 76373 32908 00000 10110 21020 38235 40155 52012 90240 333 30/// 59007;","Q01  00002PRCP06"
"76373099999","2003-01-15T15:00:00","4","25.35","-105.75","1967.0","TEPEHUANES DGO., MX","FM-12","99999","V020","999,9,C,0000,1","22000,1,9,N","070000,1,N,1","+0014,1","-0012,1","10280,1","06,0000,9,1",,,,"00,1,+99999,9,99,9",,,"00,99,1,00,1,00,1,99999,9,00,1,00,1",,"01,9",,,,"99999,9,08256,1","2,1,011,1,-014,1",,,"SYN082AAXX  15151 76373 32988 00000 10014 21012 38256 40280 52011 91450 333 30/// 59014;","Q01  00002PRCP06"
"76373099999","2003-01-15T18:00:00","4","25.35","-105.75","1967.0","TEPEHUANES DGO., MX","FM-12","99999","V020","180,1,N,0010,1","22000,1,9,N","070000,1,N,1","+0132,2","-0016,1","10275,1","06,0000,9,1",,,,"00,1,+99999,9,99,9",,,"00,99,1,00,1,00,1,99999,9,00,1,00,1",,"01,9",,"120,M,+0148,1","240,N,-0018,1","99999,9,08260,1","2,1,004,1,-030,1",,,"SYN094AAXX  15181 76373 32988 01801 10132 21016 38260 40275 52004 91740 333 10148 21018 30/// 59030;","Q01+001323ATOT  Q02  00002PRCP06"
"76373099999","2003-01-16T18:00:00","4","25.35","-105.75","1967.0","TEPEHUANES DGO., MX","FM-12","99999","V020","120,1,N,0010,1","22000,1,9,N","070000,1,N,1","+0148,1","+0012,1","10270,1","06,0000,9,1",,,,"00,1,+99999,9,99,9",,,"00,99,1,00,1,00,1,99999,9,00,1,00,1",,"01,9",,"120,M,+0160,1","240,N,-0012,1","99999,9,08262,1","7,1,002,1,+002,1",,,"SYN094AAXX  16181 76373 32988 01201 10148 20012 38262 40270 57002 91736 333 10160 21012 30/// 58002;","Q01  00002PRCP06"
"76373099999","2003-01-16T21:00:00","4","25.35","-105.75","1967.0","TEPEHUANES DGO., MX","FM-12","99999","V020","130,1,N,0040,1","06000,1,9,N","070000,1,N,1","+0204,1","-0047,1","10230,1","06,0000,9,1",,,,"07,1,+06000,9,02,9",,,"07,99,1,00,1,00,1,99999,9,00,1,07,1",,"01,9",,,,"99999,9,08253,1","7,1,009,1,+038,1",,,"SYN106AAXX  16211 76373 32988 71304 10204 21047 38253 40230 57009 80007 92040 333 30/// 56006 58038 87270 99020;","Q01  00002PRCP06"
"76373099999","2003-01-17T00:00:00","4","25.35","-105.75","1967.0","TEPEHUANES DGO., MX","FM-12","99999","V020","130,1,N,0040,1","99999,9,9,N","070000,1,N,1","+0192,1","-0064,1","10168,2","06,0000,9,1","24,0000,9,1",,,,,,"05,99,1,00,1,00,1,99999,9,00,1,05,1",,"01,9",,"120,M,+0228,1","180,N,-0012,1","99999,9,08231,1","6,1,022,1,+019,1",,,"SYN124AAXX  17001 76373 32988 51304 10192 21064 38231 40168 56022 80005 92340 333 10228 21012 30/// 50340 56006 58019 70000 85070;","Q01+101683APOSLPQ02  00002PRCP06"
"76373099999","2003-01-17T15:00:00","4","25.35","-105.75","1967.0","TEPEHUANES DGO., MX","FM-12","99999","V020","999,9,C,0000,1","09000,1,C,N","070000,1,N,1","+0014,1","-0023,1","10254,1","06,0000,9,1",,,,"02,1,+03000,9,03,9",,,"08,99,1,02,1,00,1,01250,1,03,1,08,1",,"01,9",,,,"99999,9,08253,1","9,9,999,9,+011,1",,,"SYN106AAXX  17151 76373 32688 80000 10014 21023 38253 40254 5//// 82038 91440 333 30/// 56055 58011 82360 87270;","Q01  00002PRCP06"
"76373099999","2003-01-17T18:00:00","4","25.35","-105.75","1967.0","TEPEHUANES DGO., MX","FM-12","99999","V020","090,1,N,0010,1","03000,1,9,N","070000,1,N,1","+0102,1","-0022,1","10275,1","06,0000,9,1",,,,"08,1,+03000,9,04,9",,,"08,99,1,08,1,00,1,01250,1,07,1,00,1",,"01,9",,"120,M,+0115,1","240,N,+0000,1","99999,9,08260,1","7,1,007,1,-002,1",,,"SYN112AAXX  17181 76373 32688 80901 10102 21022 38260 40275 57007 88070 91736 333 10115 20000 30/// 56500 59002 88460;","Q01  00002PRCP06"
"76373099999","2003-01-18T18:00:00","4","25.35","-105.75","1967.0","TEPEHUANES DGO., MX","FM-12","99999","V020","240,1,N,0010,1","22000,1,9,N","070000,1,N,1","+0130,1","+0008,1","10275,1","06,0000,9,1",,,,"00,1,+99999,9,99,9",,,"00,99,1,00,1,00,1,99999,9,00,1,00,1",,"01,9",,"120,M,+0150,1","240,N,-0018,1","99999,9,08245,1","2,1,001,1,-015,1",,,"SYN094AAXX  18181 76373 32988 02401 10130 20008 38245 40275 52001 91735 333 10150 21018 30/// 59015;","Q01  00002PRCP06"
"76373099999","2003-01-19T00:00:00","4","25.35","-105.75","1967.0","TEPEHUANES DGO., MX","FM-12","99999","V020","360,1,N,0020,1","22000,1,9,N","070000,1,N,1","+0190,1","-0063,1","10157,1","06,0000,9,1","24,0000,9,1",,,"00,1,+99999,9,99,9",,,"00,99,1,00,1,00,1,99999,9,00,1,00,1",,"01,9",,"120,M,+0238,1","180,N,-0018,1","99999,9,08215,1","6,1,002,1,+000,1",,,"SYN106AAXX  19001 76373 32988 03602 10190 21063 38215 40157 56002 92350 333 10238 21018 30/// 50250 58000 70000;","Q01  00002PRCP06Q02  00002PRCP24"
"76373099999","2003-01-19T03:00:00","4","25.35","-105.75","1967.0","TEPEHUANES DGO., MX","FM-12","99999","V020","999,9,C,0000,1","22000,1,9,N","010000,1,N,1","+0116,1","-0018,1","10159,1","06,0000,9,1",,,,"00,1,+99999,9,99,9",,,"00,99,1,00,1,00,1,99999,9,00,1,00,1",,"01,9",,,,"99999,9,08239,1","2,1,024,1,+011,1",,,"SYN082AAXX  19031 76373 32960 00000 10116 21018 38239 40159 52024 90250 333 30/// 58011;","Q01  00002PRCP06"
"76373099999","2003-01-19T15:00:00","4","25.35","-105.75","1967.0","TEPEHUANES DGO., MX","FM-12","99999","V020","999,9,C,0000,1","09000,1,9,N","070000,1,N,1","+0014,1","-0017,1","10280,1","06,0000,9,1",,,,"08,1,+09000,9,00,9",,,"08,99,1,00,1,00,1,99999,9,00,1,04,1",,"01,9",,,,"99999,9,08269,1","9,9,999,9,+025,1",,,"SYN100AAXX  19151 76373 32988 80000 10014 21017 38269 40280 5//// 80004 91450 333 30/// 56005 58025 88080;","Q01  00002PRCP06"
"76373099999","2003-01-20T00:00:00","4","25.35","-105.75","1967.0","TEPEHUANES DGO., MX","FM-12","99999","V020","310,1,N,0070,1","22000,1,9,N","070000,1,N,1","+0204,1","-0055,1","10162,1","06,0000,9,1","24,0000,9,1",,,"00,1,+99999,9,99,9",,,"00,99,1,00,1,00,1,99999,9,00,1,00,1",,"01,9",,"120,M,+0248,1","180,N,-0015,1","99999,9,08232,1","2,1,004,1,+017,1",,,"SYN106AAXX  20001 76373 32988 03107 10204 21055 38232 40162 52004 92340 333 10248 21015 30/// 50400 58017 70000;","Q01  00002PRCP06Q02  00002PRCP24"
"76373099999","2003-01-20T15:00:00","4","25.35","-105.75","1967.0","TEPEHUANES DGO., MX","FM-12","99999","V020","999,9,C,0000,1","22000,1,9,N","070000,1,N,1","+0030,1","-0014,1","10285,1","06,0000,9,1",,,,"00,1,+99999,9,99,9",,,"00,99,1,00,1,00,1,99999,9,00,1,00,1",,"01,9",,,,"99999,9,08276,1","9,9,999,9,+007,1",,,"SYN082AAXX  20151 76373 32988 00000 10030 21014 38276 40285 5//// 91438 333 30/// 58007;","Q01  00002PRCP06"
"76373099999","2003-01-20T18:00:00","4","25.35","-105.75","1967.0","TEPEHUANES DGO., MX","FM-12","99999","V020","060,1,N,0010,1","22000,1,9,N","070000,1,N,1","+0152,1","-0004,1","10276,1","06,0000,9,1",,,,"00,1,+99999,9,99,9",,,"00,99,1,00,1,00,1,99999,9,00,1,00,1",,"01,9",,"120,M,+0165,1","240,N,-0003,1","99999,9,08272,1","8,1,004,1,+015,1",,,"SYN094AAXX  20181 76373 32988 00601 10152 21004 38272 40276 58004 91738 333 10165 21003 30/// 58015;","Q01  00002PRCP06"
"76373099999","2003-01-20T21:00:00","4","25.35","-105.75","1967.0","TEPEHUANES DGO., MX","FM-12","99999","V020","240,1,N,0040,1","22000,1,9,N","070000,1,N,1","+0240,1","-0060,1","10181,2","06,0000,9,1",,,,"01,1,+00300,9,08,9",,,"01,99,1,01,1,01,1,00250,1,00,1,00,1",,"01,9",,,,"99999,9,08222,1","6,1,050,1,-006,1",,,"SYN100AAXX  20211 76373 32388 12404 10240 21060 38222 40181 56050 81100 92040 333 30/// 56300 59006 81810;","Q01+101813APOSLPQ02  00002PRCP06"
"76373099999","2003-01-21T00:00:00","4","25.35","-105.75","1967.0","TEPEHUANES DGO., MX","FM-12","99999","V020","210,1,N,0030,1","22000,1,9,N","070000,1,N,1","+0218,1","-0082,1","10151,1","06,0000,9,1","24,0000,9,1",,,"00,1,+99999,9,99,9",,,"00,99,1,00,1,00,1,99999,9,00,1,00,1",,"01,9",,"120,M,+0268,1",,"99999,9,08228,1","2,1,006,1,-004,1",,,"SYN100AAXX  21001 76373 32988 02103 10218 21082 38228 40151 52006 92346 333 10268 30/// 50290 59004 70000;","Q01  00002PRCP06Q02  00002PRCP24"
"76373099999","2003-01-21T03:00:00","4","25.35","-105.75","1967.0","TEPEHUANES DGO., MX","FM-12","99999","V020","280,1,N,0010,1","22000,1,9,N","000800,1,N,1","+0132,1","-0077,1","10144,1","06,0000,9,1",,,,"00,1,+99999,9,99,9",,,"00,99,1,00,1,00,1,99999,9,00,1,00,1",,"01,9",,,,"99999,9,08242,1","2,1,014,1,+999,9",,,"SYN082AAXX  21031 76373 32908 02801 10132 21077 38242 40144 52014 90250 333 30/// 58///;","Q01  00002PRCP06"
"76373099999","2003-01-21T12:00:00","4","25.35","-105.75","1967.0","TEPEHUANES DGO., MX","FM-12","99999","V020","999,9,C,0000,1","22000,1,9,N","000800,1,N,1","+0008,1","-0024,1","10221,1","06,0000,9,1","24,0000,9,1",,,"00,1,+99999,9,99,9",,,"00,99,1,00,1,00,1,99999,9,00,1,00,1",,"01,9","999,-0040,9","999,M,+0268,1","120,N,+0002,1","99999,9,08240,1","2,1,008,1,+999,9",,,"SYN100AAXX  21121 76373 32908 00000 10008 21024 38240 40221 52008 91146 333 10268 20002 30104 58/// 70000;","Q01  00002PRCP06Q02  00002PRCP24"
"76373099999","2003-01-21T15:00:00","4","25.35","-105.75","1967.0","TEPEHUANES DGO., MX","FM-12","99999","V020","999,9,C,0000,1","22000,1,9,N","070000,1,N,1","+0021,1","-0008,1","10259,1","06,0000,9,1",,,,"01,1,+06000,9,00,9",,,"01,99,1,00,1,00,1,99999,9,00,1,05,1",,"01,9",,,,"99999,9,08249,1","2,1,009,1,-027,1",,,"SYN100AAXX  21151 76373 32988 10000 10021 21008 38249 40259 52009 80005 91447 333 30/// 56005 59027 81070;","Q01  00002PRCP06"
"76373099999","2003-01-21T18:00:00","4","25.35","-105.75","1967.0","TEPEHUANES DGO., MX","FM-12","99999","V020","999,9,C,0000,1","22000,1,9,N","070000,1,N,1","+0176,1","-0016,1","10246,1","06,0000,9,1",,,,"02,1,+06000,9,00,9",,,"02,99,1,00,1,00,1,99999,9,00,1,02,1",,"01,9",,"120,M,+0192,1","240,N,-0008,1","99999,9,08244,1","7,1,005,1,-028,1",,,"SYN112AAXX  21181 76373 32988 20000 10176 21016 38244 40246 57005 80002 91738 333 10192 21008 30/// 56005 59028 82070;","Q01  00002PRCP06"
"76373099999","2003-01-21T21:00:00","4","25.35","-105.75","1967.0","TEPEHUANES DGO., MX","FM-12","99999","V020","300,1,N,0080,1","22000,1,9,N","070000,1,N,1","+0232,1","-0099,1","10160,2","06,0000,9,1",,,,"02,1,+06000,9,00,9",,,"02,99,1,00,1,00,1,99999,9,00,1,02,1",,"01,9",,,,"99999,9,08203,1","6,1,041,1,-019,1",,,"SYN100AAXX  21211 76373 32988 23008 10232 21099 38203 40160 56041 80002 92036 333 30/// 56005 59019 82070;","Q01+101603APOSLPQ02  00002PRCP06"
"76373099999","2003-01-22T15:00:00","4","25.35","-105.75","1967.0","TEPEHUANES DGO., MX","FM-12","99999","V020","999,9,C,0000,1","06000,1,9,N","070000,1,N,1","+0013,1","-0016,1","10243,1","06,0000,9,1",,,,"08,1,+06000,9,02,9",,,"08,99,1,00,1,00,1,99999,9,00,1,08,1",,"01,9",,,,"99999,9,08236,1","2,1,008,1,-013,1",,,"SYN100AAXX  22151 76373 32988 80000 10013 21016 38236 40243 52008 80008 91446 333 30/// 56005 59013 88270;","Q01  00002PRCP06"
"76373099999","2003-01-22T21:00:00","4","25.35","-105.75","1967.0","TEPEHUANES DGO., MX","FM-12","99999","V020","340,1,N,0010,1","06000,1,9,N","070000,1,N,1","+0234,2","-0104,1","10152,2","06,0000,9,1",,,,"07,1,+06000,9,02,9",,,"07,99,1,00,1,00,1,99999,9,00,1,07,1",,"01,9",,,,"99999,9,08194,1","7,1,032,1,-009,1",,,"SYN100AAXX  22211 76373 32988 73401 10234 21104 38194 40152 57032 80007 92045 333 30/// 56005 59009 87270;","Q01+002343ATOT  Q02+101523APOSLPQ03  00002PRCP06"
"76373099999","2003-01-23T00:00:00","4","25.35","-105.75","1967.0","TEPEHUANES DGO., MX","FM-12","99999","V020","090,1,N,0030,1","99999,9,9,N","070000,1,N,1","+0212,1","-0026,1","10121,1","06,0000,9,1","24,0000,9,1",,,,,,"07,99,1,00,1,00,1,99999,9,00,1,08,1",,"01,9",,"120,M,+0254,1","180,N,-0004,1","99999,9,08200,1","2,1,006,1,-005,1",,,"SYN124AAXX  23001 76373 32988 70903 10212 21026 38200 40121 52006 80008 92350 333 10254 21004 30/// 50440 56005 59005 70000 87270;","Q01  00002PRCP06"
"76373099999","2003-01-23T03:00:00","4","25.35","-105.75","1967.0","TEPEHUANES DGO., MX","FM-12","99999","V020","010,1,N,0220,1","22000,1,9,N","000100,1,N,1","+9999,9","+9999,9","10123,1","06,0000,9,1",,,,,,,"01,99,1,99,9,99,9,99999,9,99,9,99,9",,"01,9",,,,"99999,9,08221,1","2,1,021,1,+006,1",,,"SYN076AAXX  23031 76373 32901 10122 21094 38221 40123 52021 90248 333 30/// 58006;","Q01  00002PRCP06"
"76373099999","2003-01-24T00:00:00","4","25.35","-105.75","1967.0","TEPEHUANES DGO., MX","FM-12","99999","V020","130,1,N,0020,1","06000,1,C,N","070000,1,N,1","+0188,1","-0068,1","10140,1","06,0000,9,1","24,0000,9,1",,,"08,1,+06000,9,02,9",,,"08,99,1,00,1,00,1,99999,9,00,1,07,1",,"01,9",,"120,M,+0215,1","180,N,-0012,1","99999,9,08202,1","7,1,013,1,+002,1",,,"SYN130AAXX  24001 76373 32988 81302 10188 21068 38202 40140 57013 80007 92338 333 10215 21012 30/// 50990 56006 58002 70000 88270 99020;","Q01  00002PRCP06"
"76373099999","2003-01-25T15:00:00","4","25.35","-105.75","1967.0","TEPEHUANES DGO., MX","FM-12","99999","V020","999,9,C,0000,1","22000,1,9,N","060000,1,N,1","-0002,1","-0025,1","10225,1","06,0000,9,1",,,,"04,1,+09000,9,00,9",,,"04,99,1,00,1,00,1,99999,9,00,1,05,1",,"01,9",,,,"99999,9,08229,1","9,9,999,9,-011,1",,,"SYN100AAXX  25151 76373 32986 40000 11002 21025 38229 40225 5//// 80005 91455 333 30/// 56003 59011 84080;","Q01  00002PRCP06"
"76373099999","2003-01-26T00:00:00","4","25.35","-105.75","1967.0","TEPEHUANES DGO., MX","FM-12","99999","V020","260,1,N,0040,1","99999,9,9,N","070000,1,N,1","+0202,1","-0106,1","10143,1","06,0000,9,1","24,0000,9,1",,,,,,"08,99,1,00,1,00,1,99999,9,00,1,04,1",,"01,9",,"120,M,+0254,1","180,N,-0016,1","99999,9,08208,1","2,1,029,1,+999,9",,,"SYN124AAXX  26001 76373 32988 82604 10202 21106 38208 40143 52029 80004 92355 333 10254 21016 30/// 50200 56003 58/// 70000 88080;","Q01  00002PRCP06"
"76373099999","2003-01-26T03:00:00","4","25.35","-105.75","1967.0","TEPEHUANES DGO., MX","FM-12","99999","V020","290,1,N,0010,1","09000,1,9,N","010000,1,N,1","+0136,1","-0061,1","10118,1","06,0000,9,1",,,,"08,1,+09000,9,00,9",,,"08,99,1,00,1,00,1,99999,9,00,1,04,1",,"01,9",,,,"99999,9,08211,1","2,1,003,1,+999,9",,,"SYN100AAXX  26031 76373 32960 82901 10136 21061 38211 40118 52003 80004 90250 333 30/// 56003 58/// 88080;","Q01  00002PRCP06"
"76373099999","2003-01-27T00:00:00","4","25.35","-105.75","1967.0","TEPEHUANES DGO., MX","FM-12","99999","V020","020,1,N,0030,1","00600,1,C,N","070000,1,N,1","+0164,1","+0051,1","10155,1","06,0000,9,1","24,0000,9,1",,,"06,1,+00600,9,08,9",,,"07,99,1,06,1,02,1,00250,1,00,1,03,1",,"01,9",,"120,M,+0220,1","180,N,-0010,1","99999,9,08215,1","2,1,015,1,+007,1",,,"SYN130AAXX  27001 76373 32388 70203 10164 20051 38215 40155 52015 86203 92355 333 10220 21010 30/// 50360 56330 58007 70000 86820 81360;","Q01  00002PRCP06"
"76373099999","2003-01-27T03:00:00","4","25.35","-105.75","1967.0","TEPEHUANES DGO., MX","FM-12","99999","V020","999,9,C,0000,1","22000,1,9,N","010000,1,N,1","+0122,1","-0031,1","10153,1","06,0000,9,1",,,,"02,1,+00600,9,08,9",,,"04,99,1,02,1,02,1,00250,1,03,1,00,1",,"01,9",,,,"99999,9,08233,1","2,1,017,1,+023,1",,,"SYN106AAXX  27031 76373 32360 40000 10122 21031 38233 40153 52017 82230 90230 333 30/// 56330 58023 82820 82360;","Q01  00002PRCP06"
"76373099999","2003-01-28T15:00:00","4","25.35","-105.75","1967.0","TEPEHUANES DGO., MX","FM-12","99999","V020","300,1,N,0010,1","22000,1,9,N","070000,1,N,1","+0024,1","-0018,1","10255,1","06,0000,9,1",,,,"01,1,+06000,9,00,9",,,"01,99,1,00,1,00,1,99999,9,00,1,05,1",,"01,9",,,,"99999,9,08239,1","2,1,012,1,-023,1",,,"SYN100AAXX  28151 76373 32988 13001 10024 21018 38239 40255 52012 80005 91445 333 30/// 56005 59023 81070;","Q01  00002PRCP06"
"76373099999","2003-01-29T03:00:00","4","25.35","-105.75","1967.0","TEPEHUANES DGO., MX","FM-12","99999","V020","290,1,N,0010,1","22000,1,9,N","000800,1,N,1","+0138,1","+0019,1","10121,1","06,0000,9,1",,,,"03,1,+06000,9,00,9",,,"03,99,1,00,1,00,1,99999,9,00,1,04,1",,"01,9",,,,"99999,9,08221,1","2,1,026,1,+009,1",,,"SYN100AAXX  29030 76373 32908 32901 10138 20019 38221 40121 52026 80004 90250 333 30/// 56006 58009 83070;","Q01  00002PRCP06"
"76373099999","2003-01-29T12:00:00","4","25.35","-105.75","1967.0","TEPEHUANES DGO., MX","FM-12","99999","V020","999,9,C,0000,1","22000,1,9,N","000800,1,N,1","+0030,1","-0006,1","10199,1","06,0000,9,1","24,0000,9,1",,,"00,1,+99999,9,99,9",,,"00,99,1,00,1,00,1,99999,9,00,1,00,1",,"01,9","999,-0020,9","999,M,+0256,1","120,N,+0024,1","99999,9,08233,1","2,1,004,1,+006,1",,,"SYN100AAXX  29121 76373 32908 00000 10030 21006 38233 40199 52004 95033 333 10256 20024 30102 58006 70000;","Q01  00002PRCP06Q02  00002PRCP24"
"76373099999","2003-01-29T15:00:00","4","25.35","-105.75","1967.0","TEPEHUANES DGO., MX","FM-12","99999","V020","999,9,C,0000,1","06000,1,9,N","070000,1,N,1","+0026,1","+0004,1","10243,1","06,0000,9,1",,,,"06,1,+06000,9,02,9",,,"06,99,1,00,1,00,1,99999,9,00,1,08,1",,"01,9",,,,"99999,9,08247,1","2,1,014,1,+008,1",,,"SYN100AAXX  29151 76373 32988 60000 10026 20004 38247 40243 52014 80008 91450 333 30/// 56006 58008 86270;","Q01  00002PRCP06"
"76373099999","2003-01-29T18:00:00","4","25.35","-105.75","1967.0","TEPEHUANES DGO., MX","FM-12","99999","V020","100,1,N,0010,1","06000,1,9,N","070000,1,N,1","+0150,1","+0016,1","10246,1","06,0000,9,1",,,,"01,1,+00300,9,08,9","08,1,+06000,9,02,9",,"08,99,1,01,1,01,1,00450,1,00,1,07,1",,"01,9",,"120,M,+0160,1","240,N,+0012,1","99999,9,08251,1","2,1,004,1,+017,1",,,"SYN124AAXX  29181 76373 32488 81001 10150 20016 38251 40246 52004 81107 91740 333 10160 20012 30/// 56606 58017 81810 88270 99020;","Q01  00002PRCP06"
"76373099999","2003-01-29T21:00:00","4","25.35","-105.75","1967.0","TEPEHUANES DGO., MX","FM-12","99999","V020","130,1,N,0040,1","09000,1,C,N","070000,1,N,1","+0224,1","-0044,1","10169,2","06,0000,9,1",,,,"01,1,+00300,9,08,9",,,"07,99,1,01,1,01,1,00450,1,00,1,07,1",,"01,9",,,,"99999,9,08211,1","7,1,040,1,+012,1",,,"SYN106AAXX  29211 76373 32488 71304 10224 21044 38211 40169 57040 81107 92048 333 30/// 56606 58012 81810 86270;","Q01+101693APOSLPQ02  00002PRCP06"
"76373099999","2003-01-30T03:00:00","4","25.35","-105.75","1967.0","TEPEHUANES DGO., MX","FM-12","99999","V020","320,1,N,0010,1","99999,9,9,N","000800,1,N,1","+0172,1","-0036,1","10120,1","06,0000,9,1",,,,,,,"06,99,1,99,9,99,9,99999,9,99,9,99,9",,"01,9",,,,"99999,9,08220,1","2,1,016,1,-001,1",,,"SYN100AAXX  30031 76373 32/08 63201 10172 21036 38220 40120 52016 8//// 90246 333 30/// 56/// 59001 8////;","Q01  00002PRCP06"
"76373099999","2003-01-30T06:00:00","4","25.35","-105.75","1967.0","TEPEHUANES DGO., MX","FM-12","99999","V020","999,9,C,0000,1","99999,9,9,N","000800,1,N,1","+0118,1","-0024,1","10130,1","06,0000,9,1",,,,,,,"08,99,1,99,9,99,9,99999,9,99,9,99,9","0570,9","01,9",,"240,M,+0238,1","240,N,+0012,1","99999,9,08231,1","2,1,011,1,+999,9",,,"SYN118AAXX  30061 76373 32/08 80000 10118 21024 38231 40130 52011 8//// 90540 333 10238 20012 30/// 55095 56/// 58/// 8////;","Q01  00002PRCP06"
"76373099999","2003-01-31T00:00:00","4","25.35","-105.75","1967.0","TEPEHUANES DGO., MX","FM-12","99999","V020","120,1,N,0020,1","03000,1,C,N","070000,1,N,1","+0200,1","-0099,1","10111,1","06,0000,9,1","24,0000,9,1",,,"06,1,+03000,9,04,9",,,"08,99,1,06,1,00,1,01250,1,07,1,06,1",,"01,9",,"120,M,+0222,1","180,N,+0040,1","99999,9,08195,1","6,1,009,1,-009,1",,,"SYN130AAXX  31001 76373 32688 81202 10200 21099 38195 40111 56009 86076 92342 333 10222 20040 30/// 50360 56033 59009 70000 86460 84070;","Q01  00002PRCP06"
"76373099999","2003-01-31T21:00:00","4","25.35","-105.75","1967.0","TEPEHUANES DGO., MX","FM-12","99999","V020","130,1,N,0060,1","06000,1,9,N","070000,1,N,1","+0226,1","-0077,1","10163,1","06,0000,9,1",,,,"01,1,+00300,9,08,9","01,1,+03000,9,03,9","08,1,+06000,9,02,9","08,99,1,01,1,01,1,00450,1,03,1,07,1",,"01,9",,,,"99999,9,08213,1","6,1,030,1,+009,1",,,"SYN118AAXX  31211 76373 32488 81306 10226 21077 38213 40163 56030 81137 92040 333 30/// 56555 58009 81810 81360 88270 99020;","Q01  00002PRCP06"
"76373099999","2003-02-01T21:00:00","4","25.35","-105.75","1967.0","TEPEHUANES DGO., MX","FM-12","99999","V020","110,1,N,0020,1","03000,1,9,N","070000,1,N,1","+0230,1","-0017,1","10127,1","06,0000,9,1",,,,"07,1,+03000,9,03,9",,,"08,99,1,07,1,00,1,01250,1,06,1,04,1",,"01,9",,,,"99999,9,08199,1","6,1,045,1,-020,1",,,"SYN106AAXX  01211 76373 32688 81102 10230 21017 38199 40127 56045 87064 92050 333 30/// 56033 59020 87360 81080;","Q01  00002PRCP06"
"76373099999","2003-02-02T00:00:00","4","25.35","-105.75","1967.0","TEPEHUANES DGO., MX","FM-12","99999","V020","250,1,N,0030,1","03600,1,9,N","070000,1,N,1","+0196,1","-0021,1","10109,1","06,0000,9,1","24,0000,9,1",,,"02,1,+00600,9,08,9",,,"08,99,1,02,1,02,1,00250,1,06,1,00,1",,"01,9",,"120,M,+0248,1","180,N,+0074,1","99999,9,08196,1","6,1,003,1,-016,1",,,"SYN130AAXX  02001 76373 32388 82503 10196 21021 38196 40109 56003 82260 92350 333 10248 20074 30/// 50300 56330 59016 70000 82820 86360;","Q01  00002PRCP06"
"76373099999","2003-02-03T00:00:00","4","25.35","-105.75","1967.0","TEPEHUANES DGO., MX","FM-12","99999","V020","220,1,N,0040,1","99999,9,9,N","070000,1,N,1","+0168,1","+0012,1","10074,1","06,0010,9,1",,"5,1,06,1","6,1,06,1",,,,"07,99,1,99,9,99,9,00250,1,99,9,99,9",,,,,,"99999,9,08163,1","6,1,017,1,+999,9","20,1",,"SYN072AAXX  03001 76373 01388 72204 10168 20012 38163 40074 56017 60011 72056;",
"76373099999","2003-02-04T00:00:00","4","25.35","-105.75","1967.0","TEPEHUANES DGO., MX","FM-12","99999","V020","270,1,N,0040,1","22000,1,9,N","070000,1,N,1","+0194,1","-0020,1","10103,1","06,0000,9,1","24,0014,9,1",,,,,,"04,99,1,00,1,00,1,99999,9,00,1,05,1",,"01,9",,"120,M,+0218,1","180,N,+0004,1","99999,9,08178,1","7,1,002,1,+015,1",,,"SYN124AAXX  04001 76373 32988 42704 10194 21020 38178 40103 57002 80005 92344 333 10218 20004 30/// 50250 56006 58015 70014 84070;","Q01  00002PRCP06"
"76373099999","2003-02-06T15:00:00","4","25.35","-105.75","1967.0","TEPEHUANES DGO., MX","FM-12","99999","V020","200,1,N,0010,1","03600,1,C,N","070000,1,N,1","+0104,1","+0032,1","10138,1","06,0000,9,1",,,,"01,1,+00300,9,08,9",,,"08,99,1,01,1,01,1,00450,1,07,1,00,1",,"09,9",,,,"99999,9,08185,1","2,1,012,1,-006,1",,,"SYN106AAXX  06151 76373 32488 82001 10104 20032 38185 40138 52012 81170 91445 333 31/// 56660 59006 81810 87358;","Q01  00002PRCP06"
"76373099999","2003-02-06T21:00:00","4","25.35","-105.75","1967.0","TEPEHUANES DGO., MX","FM-12","99999","V020","240,1,N,0030,1","02400,1,9,N","070000,1,N,1","+0130,1","+0045,1","10117,1","03,0002,9,1",,"5,1,03,1","2,1,03,1","04,1,+00300,9,07,9","02,1,+02400,9,04,9",,"08,99,1,04,1,07,1,00250,1,01,1,07,1",,"09,9",,,,"99999,9,08181,1","8,1,013,1,+001,1","50,1",,"SYN130AAXX  06211 76373 01388 82403 10130 20045 38181 40117 58013 69927 75052 84717 92046 333 31/// 56666 58001 69927 84710 82458 82270;",
"76373099999","2003-02-07T03:00:00","4","25.35","-105.75","1967.0","TEPEHUANES DGO., MX","FM-12","99999","V020","310,1,N,0010,1","00300,1,9,N","000800,1,N,1","+0083,1","+0055,1","10145,1","03,0006,9,1",,"5,1,03,1","2,1,03,1","08,1,+00300,9,07,9",,,"08,99,1,08,1,07,1,00250,1,99,9,99,9",,"11,9",,,,"99999,9,08207,1","2,1,014,1,+017,1","50,1",,"SYN118AAXX  07031 76373 01308 83101 10083 20055 38207 40145 52014 69967 75052 887// 90247 333 32/// 566// 58017 69967 88710;",
"76373099999","2003-02-07T21:00:00","4","25.35","-105.75","1967.0","TEPEHUANES DGO., MX","FM-12","99999","V020","260,1,N,0030,1","00300,1,9,N","070000,1,N,1","+0156,1","+0061,1","10118,1","02,0000,9,1",,"5,1,03,1","2,1,03,1","08,1,+00300,9,07,9",,,"08,99,1,08,1,07,1,00250,1,00,1,00,1",,"09,9",,,,"99999,9,08165,1","6,1,020,1,-019,1","03,1",,"SYN112AAXX  07211 76373 11388 82603 10156 20061 38165 40118 56020 69926 70352 88700 92050 333 31/// 56600 59019 88710;","Q01  00002PRCP02"
"76373099999","2003-02-08T03:00:00","4","25.35","-105.75","1967.0","TEPEHUANES DGO., MX","FM-12","99999","V020","250,1,N,0020,1","00300,1,9,N","010000,1,N,1","+0098,1","+0037,1","10118,1","06,0000,9,1",,,,"08,1,+00300,9,08,9",,,"08,99,1,08,1,08,1,00250,1,00,1,00,1",,"09,9",,,,"99999,9,08186,1","2,1,008,1,-021,1",,,"SYN100AAXX  08031 76373 32360 82502 10098 20037 38186 40118 52008 88800 90235 333 31/// 56300 59021 88810;","Q01  00002PRCP06"
"76373099999","2003-02-08T15:00:00","4","25.35","-105.75","1967.0","TEPEHUANES DGO., MX","FM-12","99999","V020","999,9,C,0000,1","22000,1,9,N","070000,1,N,1","+0024,1","-0003,1","10202,1","06,0000,9,1",,,,"00,1,+99999,9,99,9",,,"00,99,1,00,1,00,1,99999,9,00,1,00,1",,"09,9",,,,"99999,9,08200,1","9,9,999,9,+017,1",,,"SYN082AAXX  08151 76373 32988 00000 10024 21003 38200 40202 5//// 91450 333 31/// 58017;","Q01  00002PRCP06"
"76373099999","2003-02-09T00:00:00","4","25.35","-105.75","1967.0","TEPEHUANES DGO., MX","FM-12","99999","V020","240,1,N,0060,1","22000,1,9,N","070000,1,N,1","+0158,1","-0016,1","10115,1","06,0000,9,1","24,0002,9,1",,,"00,1,+99999,9,99,9",,,"00,99,1,00,1,00,1,99999,9,00,1,00,1",,"01,9",,"120,M,+0198,1","180,N,-0010,1","99999,9,08180,1","2,1,007,1,+002,1",,,"SYN112AAXX  09001 76373 32988 02406 10158 21016 38180 40115 52007 92345 333 10198 21010 30/// 50370 58002 69924 70002;","Q01  00002PRCP06"
"76373099999","2003-02-09T03:00:00","4","25.35","-105.75","1967.0","TEPEHUANES DGO., MX","FM-12","99999","V020","320,1,N,0020,1","22000,1,9,N","010000,1,N,1","+0090,1","-0007,1","10116,1","06,0000,9,1",,,,"00,1,+99999,9,99,9",,,"00,99,1,00,1,00,1,99999,9,00,1,00,1",,"01,9",,,,"99999,9,08197,1","2,1,017,1,+011,1",,,"SYN082AAXX  09031 76373 32960 03202 10090 21007 38197 40116 52017 90240 333 30/// 58011;","Q01  00002PRCP06"
"76373099999","2003-02-09T15:00:00","4","25.35","-105.75","1967.0","TEPEHUANES DGO., MX","FM-12","99999","V020","330,1,N,0010,1","09000,1,9,N","070000,1,N,1","+0016,1","-0001,1","10227,1","06,0000,9,1",,,,"08,1,+09000,9,00,9",,,"08,99,1,00,1,00,1,99999,9,00,1,04,1",,"01,9",,,,"99999,9,08215,1","9,9,999,9,+014,1",,,"SYN100AAXX  09151 76373 32988 83301 10016 21001 38215 40227 5//// 80004 91450 333 30/// 56003 58014 88080;","Q01  00002PRCP06"
"76373099999","2003-02-11T03:00:00","4","25.35","-105.75","1967.0","TEPEHUANES DGO., MX","FM-12","99999","V020","300,1,N,0020,1","03000,1,9,N","008000,1,N,1","+0154,1","-0067,1","10088,1","06,0000,9,1",,,,"06,1,+03000,9,03,9",,,"06,99,1,06,1,00,1,01250,1,03,1,00,1",,"01,9",,,,"99999,9,08194,1","1,1,012,1,+999,9",,,"SYN100AAXX  11031 76373 32658 63002 10154 21067 38194 40088 51012 86030 90235 333 30/// 56060 58/// 86360;","Q01  00002PRCP06"
"76373099999","2003-02-12T00:00:00","4","25.35","-105.75","1967.0","TEPEHUANES DGO., MX","FM-12","99999","V020","300,1,N,0030,1","03600,1,9,N","070000,1,N,1","+0248,1","-0004,1","10083,1","06,0000,9,1","24,0000,9,1",,,"01,1,+00300,9,08,9","01,1,+02400,9,03,9",,"06,99,1,01,1,01,1,00450,1,03,1,09,1",,"01,9",,"120,M,+0272,1","180,N,+0038,1","99999,9,08186,1","3,1,001,1,+004,1",,,"SYN136AAXX  12001 76373 32488 63003 10248 21004 38186 40083 53001 81139 92340 333 10272 20038 30/// 50350 56666 58004 70000 81810 81358 84170;","Q01  00002PRCP06"
"76373099999","2003-02-12T03:00:00","4","25.35","-105.75","1967.0","TEPEHUANES DGO., MX","FM-12","99999","V020","999,9,C,0000,1","22000,1,9,N","000800,1,N,1","+0170,1","+0002,1","10086,1","06,0000,9,1",,,,"04,1,+06000,9,02,9",,,"04,99,1,00,1,00,1,99999,9,00,1,07,1",,"01,9",,,,"99999,9,08209,1","2,1,023,1,-015,1",,,"SYN100AAXX  12031 76373 32908 40000 10170 20002 38209 40086 52023 80007 90245 333 30/// 56006 59015 84270;","Q01  00002PRCP06"
"76373099999","2003-02-13T00:00:00","4","25.35","-105.75","1967.0","TEPEHUANES DGO., MX","FM-12","99999","V020","240,1,N,0040,1","09000,1,9,N","070000,1,N,1","+0262,1","-0005,1","10072,1","06,0000,9,1","24,0000,9,1",,,"01,1,+00300,9,08,9",,,"08,99,1,01,1,01,1,00450,1,00,1,07,1",,"01,9",,"120,M,+0276,1","180,N,+0036,1","99999,9,08182,1","3,1,001,1,-004,1",,,"SYN130AAXX  13001 76373 32488 82404 10262 21005 38182 40072 53001 81107 92350 333 10276 20036 30/// 50500 56606 59004 70000 81810 87270;","Q01  00002PRCP06"
"76373099999","2003-02-13T15:00:00","4","25.35","-105.75","1967.0","TEPEHUANES DGO., MX","FM-12","99999","V020","999,9,C,0000,1","02400,1,9,N","070000,1,N,1","+0092,1","+0051,1","10169,1","06,0000,9,1",,,,"05,1,+02400,9,03,9",,,"08,99,1,05,1,00,1,01750,1,07,1,04,1",,"01,9",,,,"99999,9,08236,1","2,1,014,1,-004,1",,,"SYN106AAXX  13151 76373 32788 80000 10092 20051 38236 40169 52014 85074 91445 333 30/// 56066 59004 85358 83070;","Q01  00002PRCP06"
"76373099999","2003-02-13T18:00:00","4","25.35","-105.75","1967.0","TEPEHUANES DGO., MX","FM-12","99999","V020","080,1,N,0020,1","03000,1,9,N","070000,1,N,1","+0168,1","+0042,1","10171,1","06,0000,9,1",,,,"02,1,+00300,9,08,9","03,1,+03000,9,03,9",,"07,99,1,02,1,01,1,00450,1,03,1,02,1",,"01,9",,"120,M,+0198,1","240,N,+0084,1","99999,9,08228,1","8,1,008,1,-008,1",,,"SYN124AAXX  13181 76373 32488 70802 10168 20042 38228 40171 58008 82132 91740 333 10198 20084 30/// 56555 59008 82810 83360 82070;","Q01  00002PRCP06"
"76373099999","2003-02-13T21:00:00","4","25.35","-105.75","1967.0","TEPEHUANES DGO., MX","FM-12","99999","V020","270,1,N,0070,1","03000,1,9,N","070000,1,N,1","+0234,1","+0021,1","10110,2","06,0000,9,1",,,,"02,1,+00300,9,08,9","05,1,+03000,9,03,9",,"08,99,1,02,1,01,1,00450,1,03,1,02,1",,"01,9",,,,"99999,9,08192,1","6,1,036,1,+011,1",,,"SYN112AAXX  13211 76373 32488 82707 10234 20021 38192 40110 56036 82132 92036 333 30/// 56555 58011 82810 85360 82070;","Q01+101103APOSLPQ02  00002PRCP06"
"76373099999","2003-02-14T00:00:00","4","25.35","-105.75","1967.0","TEPEHUANES DGO., MX","FM-12","99999","V020","220,1,N,0050,1","03600,1,9,N","070000,1,N,1","+0194,1","+0032,1","10093,1","06,0000,9,1","24,0000,9,1",,,"02,1,+00300,9,08,9",,,"08,99,1,02,1,01,1,00450,1,07,1,00,1",,"01,9",,"120,M,+0248,1","180,N,+0084,1","99999,9,08192,1","4,1,000,1,+010,1",,,"SYN130AAXX  14001 76373 32488 82205 10194 20032 38192 40093 54000 82170 92338 333 10248 20084 30/// 50420 56550 58010 70000 82810 88460;","Q01  00002PRCP06"
"76373099999","2003-02-14T15:00:00","4","25.35","-105.75","1967.0","TEPEHUANES DGO., MX","FM-12","99999","V020","300,1,N,0010,1","00300,1,9,N","000600,1,N,1","+0088,1","+0070,1","10134,1","09,0110,9,1",,"6,1,03,1","5,1,03,1","08,1,+00300,9,06,9",,,"08,99,1,08,1,07,1,00250,1,99,9,99,9",,"11,9",,,,"99999,9,08185,1","9,9,999,9,-051,1","63,1",,"SYN118AAXX  14151 76373 01306 83001 10088 20070 38185 40134 5//// 60118 76365 887// 91440 333 32/// 566// 59051 60118 88610;",
"76373099999","2003-02-14T18:00:00","4","25.35","-105.75","1967.0","TEPEHUANES DGO., MX","FM-12","99999","V020","110,1,N,0030,1","99999,9,9,N","030000,1,N,1","+0112,1","+0084,1","10123,1","03,0079,9,1",,"6,1,06,1","5,1,06,1",,,,"08,99,1,99,9,99,9,00250,1,99,9,99,9",,,,,,"99999,9,08175,1","6,1,010,1,+999,9","58,1",,"SYN072AAXX  14181 76373 01380 81103 10112 20084 38175 40123 56010 60087 75865;",
"76373099999","2003-02-14T21:00:00","4","25.35","-105.75","1967.0","TEPEHUANES DGO., MX","FM-12","99999","V020","240,1,N,0040,1","00300,1,9,N","070000,1,N,1","+0154,1","+0063,1","10080,1","03,0007,9,1",,"5,1,03,1","5,1,03,1","07,1,+00300,9,06,9",,,"07,99,1,07,1,07,1,00250,1,00,1,00,1",,"09,9",,,,"99999,9,08149,1","6,1,026,1,-043,1","50,1",,"SYN118AAXX  14211 76373 01388 72404 10154 20063 38149 40080 56026 69977 75055 87700 92040 333 31/// 56500 59043 69977 87610;",
"76373099999","2003-02-15T15:00:00","4","25.35","-105.75","1967.0","TEPEHUANES DGO., MX","FM-12","99999","V020","220,1,N,0020,1","22000,1,9,N","070000,1,N,1","+0038,1","+0008,1","10161,1","06,0000,9,1",,,,"02,1,+00600,9,08,9",,,"02,99,1,02,1,02,1,00250,1,00,1,00,1",,"09,9",,,,"99999,9,08175,1","9,9,999,9,-010,1",,,"SYN100AAXX  15151 76373 32388 22202 10038 20008 38175 40161 5//// 82200 91450 333 31/// 56600 59010 82820;","Q01  00002PRCP06"
"76373099999","2003-02-15T21:00:00","4","25.35","-105.75","1967.0","TEPEHUANES DGO., MX","FM-12","99999","V020","120,1,N,0030,1","22000,1,9,N","070000,1,N,1","+0168,1","-0016,1","10116,1","06,0000,9,1",,,,"01,1,+00600,9,08,9",,,"01,99,1,01,1,02,1,00250,1,00,1,00,1",,"01,9",,,,"99999,9,08160,1","6,1,014,1,+011,1",,,"SYN100AAXX  15211 76373 32388 11203 10168 21016 38160 40116 56014 81200 92050 333 30/// 56600 58011 81820;","Q01  00002PRCP06"
"76373099999","2003-02-16T15:00:00","4","25.35","-105.75","1967.0","TEPEHUANES DGO., MX","FM-12","99999","V020","999,9,C,0000,1","22000,1,9,N","070000,1,N,1","+0032,1","+0006,1","99999,9","06,0000,9,1",,,,"00,1,+99999,9,99,9",,,"00,99,1,00,1,00,1,99999,9,00,1,00,1",,"01,9",,,,"99999,9,08226,1","9,9,999,9,+051,1",,,"SYN082AAXX  16151 76373 32988 00000 10032 20006 38226 4//// 5//// 91455 333 30/// 58051;","Q01  00002PRCP06"
"76373099999","2003-02-16T18:00:00","4","25.35","-105.75","1967.0","TEPEHUANES DGO., MX","FM-12","99999","V020","120,1,N,0030,1","22000,1,9,N","070000,1,N,1","+0140,1","-0016,1","10219,1","06,0000,9,1",,,,"00,1,+99999,9,99,9",,,"00,99,1,00,1,00,1,99999,9,00,1,00,1",,"01,9",,"120,M,+0158,1","240,N,-0002,1","99999,9,08224,1","6,1,003,1,+050,1",,,"SYN094AAXX  16181 76373 32988 01203 10140 21016 38224 40219 56003 91755 333 10158 21002 30/// 58050;","Q01  00002PRCP06"
"76373099999","2003-02-17T15:00:00","4","25.35","-105.75","1967.0","TEPEHUANES DGO., MX","FM-12","99999","V020","999,9,C,0000,1","22000,1,9,N","070000,1,N,1","+0028,1","-0003,1","10246,1","06,0000,9,1",,,,"00,1,+99999,9,99,9",,,"00,99,1,00,1,00,1,99999,9,00,1,00,1",,"01,9",,,,"99999,9,08238,1","9,9,999,9,+012,1",,,"SYN082AAXX  17151 76373 32988 00000 10028 21003 38238 40246 5//// 91438 333 30/// 58012;","Q01  00002PRCP06"
"76373099999","2003-02-17T21:00:00","4","25.35","-105.75","1967.0","TEPEHUANES DGO., MX","FM-12","99999","V020","120,1,N,0020,1","22000,1,9,N","070000,1,N,1","+0230,2","-0043,1","10152,2","06,0000,9,1",,,,"00,1,+99999,9,99,9",,,"00,99,1,00,1,00,1,99999,9,00,1,00,1",,"01,9",,,,"99999,9,08191,1","6,1,043,1,+007,1",,,"SYN082AAXX  17211 76373 32988 01202 10230 21043 38191 40152 56043 92037 333 30/// 58007;","Q01+002303ATOT  Q02+101523APOSLPQ03  00002PRCP06"
"76373099999","2003-02-18T03:00:00","4","25.35","-105.75","1967.0","TEPEHUANES DGO., MX","FM-12","99999","V020","270,1,N,0020,1","22000,1,9,N","000800,1,N,1","+0158,1","+0020,1","10114,1","06,0000,9,1",,,,"00,1,+99999,9,99,9",,,"00,99,1,00,1,00,1,99999,9,00,1,00,1",,"01,9",,,,"99999,9,08215,1","2,1,025,1,+999,9",,,"SYN082AAXX  18031 76373 32908 02702 10158 20020 38215 40114 52025 90250 333 30/// 58///;","Q01  00002PRCP06"
"76373099999","2003-02-18T12:00:00","4","25.35","-105.75","1967.0","TEPEHUANES DGO., MX","FM-12","99999","V020","999,9,C,0000,1","22000,1,9,N","000800,1,N,1","+0042,1","+0012,1","10182,1","06,0000,9,1","24,0000,9,1",,,"00,1,+99999,9,99,9",,,"00,99,1,00,1,00,1,99999,9,00,1,00,1",,"01,9","999,-0010,9","999,M,+0268,1","120,N,+0036,1","99999,9,08228,1","2,1,003,1,+999,9",,,"SYN100AAXX  18121 76373 32908 00000 10042 20012 38228 40182 52003 91145 333 10268 20036 30101 58/// 70000;","Q01  00002PRCP06Q02  00002PRCP24"
"76373099999","2003-02-18T15:00:00","4","25.35","-105.75","1967.0","TEPEHUANES DGO., MX","FM-12","99999","V020","310,1,N,0010,1","22000,1,9,N","070000,1,N,1","+0050,1","+0018,1","10212,1","06,0000,9,1",,,,"01,1,+02400,9,03,9",,,"03,99,1,01,1,00,1,01750,1,04,1,01,1",,"01,9",,,,"99999,9,08231,1","2,1,003,1,-007,1",,,"SYN106AAXX  18151 76373 32788 33101 10050 20018 38231 40212 52003 81041 91445 333 30/// 56066 59007 81358 82070;","Q01  00002PRCP06"
"76373099999","2003-02-18T21:00:00","4","25.35","-105.75","1967.0","TEPEHUANES DGO., MX","FM-12","99999","V020","120,1,N,0020,1","22000,1,9,N","070000,1,N,1","+0258,2","-0076,1","10123,2","06,0000,9,1",,,,"03,1,+06000,9,01,9",,,"03,99,1,00,1,00,1,99999,9,00,1,09,1",,"01,9",,,,"99999,9,08187,1","7,1,036,1,-004,1",,,"SYN100AAXX  18211 76373 32988 31202 10258 21076 38187 40123 57036 80009 92043 333 30/// 56006 59004 83170;","Q01+002583ATOT  Q02+101233APOSLPQ03  00002PRCP06"
"76373099999","2003-02-19T00:00:00","4","25.35","-105.75","1967.0","TEPEHUANES DGO., MX","FM-12","99999","V020","250,1,N,0040,1","99999,9,9,N","070000,1,N,1","+0234,1","-0039,1","10091,1","06,0000,9,1","24,0000,9,1",,,,,,"07,99,1,00,1,00,1,99999,9,00,1,09,1",,"01,9",,"120,M,+0282,1","180,N,+0020,1","99999,9,08191,1","2,1,004,1,+999,9",,,"SYN124AAXX  19001 76373 32988 72504 10234 21039 38191 40091 52004 80009 82345 333 10282 20020 30/// 50310 56006 58/// 70000 87170;","Q01  00002PRCP06"
"76373099999","2003-02-19T15:00:00","4","25.35","-105.75","1967.0","TEPEHUANES DGO., MX","FM-12","99999","V020","280,1,N,0010,1","22000,1,9,N","070000,1,N,1","+0060,1","+0027,1","10187,1","06,0000,9,1",,,,"03,1,+02400,9,03,9",,,"03,99,1,03,1,00,1,01750,1,07,1,00,1",,"01,9",,,,"99999,9,08210,1","7,1,001,1,-021,1",,,"SYN100AAXX  19151 76373 32788 32801 10060 20027 38210 40187 57001 83070 91450 333 30/// 56060 59021 83358;","Q01  00002PRCP06"
"76373099999","2003-02-19T21:00:00","4","25.35","-105.75","1967.0","TEPEHUANES DGO., MX","FM-12","99999","V020","240,1,N,0030,1","02400,1,9,N","070000,1,N,1","+0226,1","-0087,1","10109,1","06,0000,9,1",,,,"07,1,+02400,9,03,9",,,"07,99,1,07,1,00,1,01750,1,06,1,00,1",,"01,9",,,,"99999,9,08176,1","7,1,028,1,-011,1",,,"SYN100AAXX  19211 76373 32788 72403 10226 21087 38176 40109 57028 87060 92050 333 30/// 56060 59011 87358;","Q01  00002PRCP06"
"76373099999","2003-02-20T00:00:00","4","25.35","-105.75","1967.0","TEPEHUANES DGO., MX","FM-12","99999","V020","260,1,N,0030,1","22000,1,9,N","070000,1,N,1","+0216,1","-0099,1","10072,1","06,0000,9,1","24,0000,9,1",,,"01,1,+00300,9,08,9",,,"02,99,1,01,1,01,1,00450,1,03,1,00,1",,"01,9",,"120,M,+0264,1","180,N,+0026,1","99999,9,08173,1","7,1,003,1,-018,1",,,"SYN130AAXX  20001 76373 32488 22603 10216 21099 38173 40072 57003 81130 92345 333 10264 20026 30/// 50470 56660 59018 70000 81810 81358;","Q01  00002PRCP06"
"76373099999","2003-02-20T03:00:00","4","25.35","-105.75","1967.0","TEPEHUANES DGO., MX","FM-12","99999","V020","280,1,N,0020,1","22000,1,9,N","000800,1,N,1","+0143,1","+0007,1","10069,1","06,0000,9,1",,,,"00,1,+99999,9,99,9",,,"00,99,1,00,1,00,1,99999,9,00,1,00,1",,"01,9",,,,"99999,9,08186,1","2,1,013,1,-027,1",,,"SYN082AAXX  20031 76373 32908 02802 10143 20007 38186 40069 52013 90250 333 30/// 59027;","Q01  00002PRCP06"
"76373099999","2003-02-20T15:00:00","4","25.35","-105.75","1967.0","TEPEHUANES DGO., MX","FM-12","99999","V020","310,1,N,0030,1","03000,1,9,N","070000,1,N,1","+0040,1","+0015,1","10142,1","06,0000,9,1",,,,"05,1,+03000,9,03,9",,,"07,99,1,05,1,00,1,01250,1,03,1,02,1",,"01,9",,,,"99999,9,08175,1","9,9,999,9,-035,1",,,"SYN106AAXX  20151 76373 32688 73103 10040 20015 38175 40142 5//// 85032 91440 333 30/// 56066 59035 85360 82070;","Q01  00002PRCP06"
"76373099999","2003-02-20T18:00:00","4","25.35","-105.75","1967.0","TEPEHUANES DGO., MX","FM-12","99999","V020","230,1,N,0050,1","22000,1,9,N","070000,1,N,1","+0190,1","-0003,1","10125,1","06,0000,9,1",,,,"01,1,+00300,9,08,9",,,"01,99,1,01,1,01,1,00450,1,00,1,00,1",,"01,9",,"120,M,+0200,1","240,N,+0018,1","99999,9,08165,1","6,1,010,1,-039,1",,,"SYN112AAXX  20181 76373 32488 12305 10190 21003 38165 40125 56010 81100 91740 333 10200 20018 30/// 56500 59039 81810;","Q01  00002PRCP06"
"76373099999","2003-02-20T21:00:00","4","25.35","-105.75","1967.0","TEPEHUANES DGO., MX","FM-12","99999","V020","250,1,N,0090,1","22000,1,9,N","070000,1,N,1","+0200,1","-0014,1","10081,1","06,0000,9,1",,,,"03,1,+00300,9,08,9",,,"03,99,1,03,1,02,1,00450,1,00,1,00,1",,"01,9",,,,"99999,9,08146,1","6,1,019,1,-030,1",,,"SYN100AAXX  20211 76373 32488 32509 10200 21014 38146 40081 56019 83200 92040 333 30/// 56500 59030 83810;","Q01  00002PRCP06"
"76373099999","2003-02-21T00:00:00","4","25.35","-105.75","1967.0","TEPEHUANES DGO., MX","FM-12","99999","V020","240,1,N,0050,1","22000,1,9,N","070000,1,N,1","+0172,1","-0010,1","10053,1","06,0000,9,1","24,0000,9,1",,,,,,"03,99,1,03,1,01,1,00450,1,00,1,00,1",,"01,9",,"120,M,+0220,1","180,N,+0018,1","99999,9,08143,1","7,1,003,1,-030,1",,,"SYN124AAXX  21001 76373 32488 32405 10172 21010 38143 40053 57003 83100 92342 333 10220 20018 30/// 50600 56500 59030 70000 83810;","Q01  00002PRCP06"
"76373099999","2003-02-21T15:00:00","4","25.35","-105.75","1967.0","TEPEHUANES DGO., MX","FM-12","99999","V020","270,1,N,0080,1","22000,1,9,N","070000,1,N,1","+0092,1","-0010,1","10049,1","06,0010,9,1",,"5,1,03,1","5,1,03,1","03,1,+00300,9,06,9",,,"03,99,1,03,1,02,1,00250,1,00,1,00,1",,"09,9",,,,"99999,9,08121,1","9,9,999,9,-054,1","16,1",,"SYN118AAXX  21151 76373 01388 32708 10092 21010 38121 40049 5//// 60011 71655 83200 91440 333 31/// 56500 59054 60011 83610;",
"76373099999","2003-02-23T21:00:00","4","25.35","-105.75","1967.0","TEPEHUANES DGO., MX","FM-12","99999","V020","300,1,N,0070,1","09000,1,9,N","070000,1,N,1","+0224,1","-0258,1","10090,1","06,0000,9,1",,,,"08,1,+09000,9,02,9",,,"08,99,1,00,1,00,1,99999,9,00,1,07,1",,"01,9",,,,"99999,9,08139,1","6,1,023,1,-009,1",,,"SYN100AAXX  23211 76373 32988 83007 10224 21258 38139 40090 56023 80007 92050 333 30/// 56006 59009 88280;","Q01  00002PRCP06"
"76373099999","2003-02-24T00:00:00","4","25.35","-105.75","1967.0","TEPEHUANES DGO., MX","FM-12","99999","V020","300,1,N,0060,1","99999,9,9,N","070000,1,N,1","+0176,1","-0148,2","10076,1","06,0000,9,1","24,0000,9,1",,,,,,"08,99,1,00,1,00,1,99999,9,00,1,07,1",,"01,9",,"120,M,+0248,1","180,N,-0035,1","99999,9,08155,1","2,1,016,1,+021,1",,,"SYN124AAXX  24001 76373 32988 83006 10176 21148 38155 40076 52016 80007 92355 333 10248 21035 30/// 50550 56006 58021 70000 88280;","Q01-001483ATOD  Q02  00002PRCP06"
"76373099999","2003-02-24T15:00:00","4","25.35","-105.75","1967.0","TEPEHUANES DGO., MX","FM-12","99999","V020","320,1,N,0010,1","22000,1,9,N","070000,1,N,1","+0038,1","-0021,1","10166,1","06,0000,9,1",,,,"03,1,+06000,9,00,9",,,"03,99,1,00,1,00,1,99999,9,00,1,04,1",,"01,9",,,,"99999,9,08182,1","9,9,999,9,+004,1",,,"SYN100AAXX  24151 76373 32988 33201 10038 21021 38182 40166 5//// 80004 91440 333 30/// 56006 58004 83070;","Q01  00002PRCP06"
"76373099999","2003-02-25T03:00:00","4","25.35","-105.75","1967.0","TEPEHUANES DGO., MX","FM-12","99999","V020","260,1,N,0020,1","22000,1,9,N","000800,1,N,1","+0108,1","+0003,1","10105,1","06,0000,9,1",,,,"00,1,+99999,9,99,9",,,"00,99,1,00,1,00,1,99999,9,00,1,00,1",,"01,9",,,,"99999,9,08194,1","2,1,018,1,+999,9",,,"SYN082AAXX  25031 76373 32908 02602 10108 20003 38194 40105 52018 90256 333 30/// 58///;","Q01  00002PRCP06"
"76373099999","2003-02-26T00:00:00","4","25.35","-105.75","1967.0","TEPEHUANES DGO., MX","FM-12","99999","V020","290,1,N,0040,1","09000,1,9,N","070000,1,N,1","+0175,1","+0008,1","10085,1","06,0000,9,1","24,0000,9,1",,,"01,1,+02400,9,03,9",,,"08,99,1,01,1,00,1,01750,1,03,1,08,1",,"01,9",,"120,M,+0250,1","180,N,-0002,1","99999,9,08173,1","2,1,010,1,-003,1",,,"SYN130AAXX  26001 76373 32788 82904 10175 20008 38173 40085 52010 81038 92345 333 10250 21002 30/// 50480 56066 59003 70000 81358 87270;","Q01  00002PRCP06"
"76373099999","2003-02-26T03:00:00","4","25.35","-105.75","1967.0","TEPEHUANES DGO., MX","FM-12","99999","V020","290,1,N,0030,1","22000,1,9,N","000800,1,N,1","+0132,1","-0028,1","10072,1","06,0000,9,1",,,,"03,1,+06000,9,00,9",,,"03,99,1,00,1,00,1,99999,9,00,1,05,1",,"01,9",,,,"99999,9,08179,1","2,1,006,1,-015,1",,,"SYN100AAXX  26031 76373 32908 32903 10132 21028 38179 40072 52006 80005 90250 333 30/// 56006 59015 83070;","Q01  00002PRCP06"
"76373099999","2003-02-26T15:00:00","4","25.35","-105.75","1967.0","TEPEHUANES DGO., MX","FM-12","99999","V020","330,1,N,0010,1","09000,1,C,N","070000,1,N,1","+0118,1","+0002,1","10098,1","06,0000,9,1",,,,"04,1,+02400,9,03,9",,,"08,99,1,04,1,00,1,01750,1,06,1,08,1",,"01,9",,,,"99999,9,08169,1","2,1,020,1,-028,1",,,"SYN106AAXX  26151 76373 32788 83301 10118 20002 38169 40098 52020 84068 91446 333 30/// 56066 59028 84358 84170;","Q01  00002PRCP06"
"76373099999","2003-02-27T12:00:00","4","25.35","-105.75","1967.0","TEPEHUANES DGO., MX","FM-12","99999","V020","999,9,C,0000,1","22000,1,9,N","000800,1,N,1","+0002,1","-0037,1","10150,1","06,0000,9,1","24,0000,9,1",,,"03,1,+02400,9,03,9",,,"03,99,1,03,1,00,1,01750,1,03,1,00,1",,"01,9","999,-0040,9","999,M,+0196,1","120,N,-0004,1","99999,9,08174,1","2,1,001,1,+025,1",,,"SYN118AAXX  27121 76373 32708 30000 10002 21037 38174 40150 52001 83030 91146 333 10196 21004 30104 56060 58025 70000 83358;","Q01  00002PRCP06"
"76373099999","2003-03-03T18:00:00","4","25.35","-105.75","1967.0","TEPEHUANES DGO., MX","FM-12","99999","V020","270,1,N,0050,1","22000,1,9,N","070000,1,N,1","+0224,1","-0159,1","10106,1","06,0000,9,1",,,,"03,1,+06000,9,00,9",,,"03,99,1,00,1,00,1,99999,9,00,1,05,1",,"01,9",,"120,M,+0232,1","240,N,+0032,1","99999,9,08167,1","4,1,000,1,+999,9",,,"SYN112AAXX  03181 76373 32988 32705 10224 21159 38167 40106 54000 80005 91738 333 10232 20032 30/// 56006 58/// 83070;","Q01  00002PRCP06"
"76373099999","2003-03-03T21:00:00","4","25.35","-105.75","1967.0","TEPEHUANES DGO., MX","FM-12","99999","V020","230,1,N,0050,1","06000,1,9,N","070000,1,N,1","+0244,1","+9999,9","10051,1","06,0000,9,1",,,,"08,1,+06000,9,02,9",,,"08,99,1,00,1,00,1,99999,9,00,1,07,1",,"01,9",,,,"99999,9,08145,1","6,1,022,1,+999,9",,,"SYN106AAXX  03210 76373 32988 82305 10244 20048 38145 40051 56022 80007 92036 333 30/// 56006 58/// 88270 99020;","Q01+000483ATOD  Q02  00002PRCP06Q03 +00483ATOD  "
"76373099999","2003-03-04T00:00:00","4","25.35","-105.75","1967.0","TEPEHUANES DGO., MX","FM-12","99999","V020","130,1,N,0040,1","99999,9,9,N","070000,1,N,1","+0222,1","-0125,2","10014,1","06,0000,9,1","24,0000,9,1",,,,,,"06,99,1,00,1,00,1,99999,9,00,1,08,1",,"01,9",,"120,M,+0274,1","180,N,+0032,1","99999,9,08139,1","6,1,006,1,+999,9",,,"SYN124AAXX  04000 76373 32988 61304 10222 21125 38139 40014 56006 80008 92342 333 10274 20032 30/// 50730 56006 58/// 70000 86270;","Q01-001253ATOD  Q02  00002PRCP06"
"76373099999","2003-03-04T12:00:00","4","25.35","-105.75","1967.0","TEPEHUANES DGO., MX","FM-12","99999","V020","999,9,C,0000,1","22000,1,9,N","000800,1,N,1","+0026,1","-0071,1","10102,1","06,0000,9,1","24,0000,9,1",,,"00,1,+99999,9,99,9",,,"00,99,1,00,1,00,1,99999,9,00,1,00,1",,"01,9","999,-0030,9","999,M,+0274,1","120,N,+0018,1","99999,9,08167,1","2,1,002,1,+999,9",,,"SYN100AAXX  04120 76373 32908 00000 10026 21071 38167 40102 52002 91140 333 10274 20018 30103 58/// 70000;","Q01  00002PRCP06Q02  00002PRCP24"
"76373099999","2003-03-04T18:00:00","4","25.35","-105.75","1967.0","TEPEHUANES DGO., MX","FM-12","99999","V020","220,1,N,0050,1","22000,1,9,N","070000,1,N,1","+0214,2","-0112,1","10116,1","06,0000,9,1",,,,"01,1,+03000,9,03,9",,,"02,99,1,01,1,00,1,01250,1,03,1,02,1",,"01,9",,"120,M,+0230,1","240,N,+0008,1","99999,9,08161,1","6,1,003,1,-006,1",,,"SYN118AAXX  04180 76373 32688 22205 10214 21112 38161 40116 56003 81032 91742 333 10230 20008 30/// 56076 59006 81360 81070;","Q01+002143ATOT  Q02  00002PRCP06"
"76373099999","2003-03-05T00:00:00","4","25.35","-105.75","1967.0","TEPEHUANES DGO., MX","FM-12","99999","V020","340,1,N,0020,1","22000,1,9,N","070000,1,N,1","+0210,1","-0083,1","10032,1","06,0000,9,1","24,0000,9,1",,,"02,1,+02400,9,08,9",,,"03,99,1,02,1,99,9,01750,1,03,1,04,1",,"01,9",,"120,M,+0260,1","180,N,+0008,1","99999,9,08146,1","5,1,000,1,+007,1",,,"SYN130AAXX  05000 76373 32788 33402 10210 21083 38146 40032 55000 82034 92345 333 10260 20008 30/// 50570 56066 58007 70000 82858 81070;","Q01  00002PRCP06Q02    003SCOLCG"
"76373099999","2003-03-05T03:00:00","4","25.35","-105.75","1967.0","TEPEHUANES DGO., MX","FM-12","99999","V020","999,9,C,0000,1","06000,1,9,N","000800,1,N,1","+0155,1","-0065,1","10023,1","06,0000,9,1",,,,"06,1,+06000,9,02,9",,,"06,99,1,00,1,00,1,99999,9,00,1,08,1",,"01,9",,,,"99999,9,08158,1","2,1,012,1,+003,1",,,"SYN100AAXX  05030 76373 32908 60000 10155 21065 38158 40023 52012 80008 90245 333 30/// 56006 58003 86270;","Q01  00002PRCP06"
"76373099999","2003-03-05T12:00:00","4","25.35","-105.75","1967.0","TEPEHUANES DGO., MX","FM-12","99999","V020","999,9,C,0000,1","22000,1,9,N","000800,1,N,1","+0102,1","-0003,1","99999,9","06,0000,9,1","24,0000,9,1",,,,,,"03,99,1,99,9,99,9,99999,9,99,9,99,9",,"01,9","999,+0060,9","999,M,+0260,1","120,N,+0088,1",,"9,9,999,9,-007,1",,,"SYN120AAXX  05120 76373 32/08 30000 10102 21003 3 38160 40074 56002 8//// 91146 333 10260 20088 30006 56/// 59007 70000 8////;","Q01  00002PRCP06"
"76373099999","2003-03-05T15:00:00","4","25.35","-105.75","1967.0","TEPEHUANES DGO., MX","FM-12","99999","V020","310,1,N,0010,1","09000,1,C,N","070000,1,N,1","+0128,1","-0011,1","10079,1","06,0000,9,1",,,,"02,1,+00300,9,06,9","02,1,+02400,9,04,9",,"06,99,1,02,1,04,1,00450,1,01,1,04,1",,"01,9",,,,"99999,9,08156,1","7,1,004,1,-008,1",,,"SYN112AAXX  05150 76373 32488 63101 10128 21011 38156 40079 57004 82414 91450 333 30/// 56666 59008 82610 82458 82070;","Q01  00002PRCP06"
"76373099999","2003-03-05T18:00:00","4","25.35","-105.75","1967.0","TEPEHUANES DGO., MX","FM-12","99999","V020","230,1,N,0050,1","03600,1,C,N","070000,1,N,1","+0204,1","-0047,1","10076,1","06,0000,9,1",,,,"02,1,+00300,9,08,9","01,1,+03000,9,03,9",,"08,99,1,02,1,01,1,00450,1,03,1,08,1",,"01,9",,"120,M,+0260,1","240,N,+0087,1","99999,9,08162,1","1,1,006,1,+001,1",,,"SYN124AAXX  05180 76373 32488 82305 10204 21047 38162 40076 51006 82138 91740 333 10260 20087 30/// 56555 58001 82810 81360 86270;","Q01  00002PRCP06"
"76373099999","2003-03-06T15:00:00","4","25.35","-105.75","1967.0","TEPEHUANES DGO., MX","FM-12","99999","V020","270,1,N,0010,1","22000,1,9,N","070000,1,N,1","+0040,1","-0061,1","10165,1","06,0000,9,1",,,,"00,1,+99999,9,99,9",,,"00,99,1,00,1,00,1,99999,9,00,1,00,1",,"01,9",,,,"99999,9,08178,1","9,9,999,9,+022,1",,,"SYN082AAXX  06150 76373 32988 02701 10040 21061 38178 40165 5//// 91435 333 30/// 58022;","Q01  00002PRCP06"
"76373099999","2003-03-07T21:00:00","4","25.35","-105.75","1967.0","TEPEHUANES DGO., MX","FM-12","99999","V020","160,1,N,0040,1","22000,1,9,N","070000,1,N,1","+0274,1","+0152,1","10109,1","06,0000,9,1",,,,"02,1,+06000,9,00,9",,,"02,99,1,00,1,00,1,99999,9,00,1,05,1",,"01,9",,,,"99999,9,08166,1","6,1,027,1,+013,1",,,"SYN100AAXX  07210 76373 32988 21604 10274 20152 38166 40109 56027 80005 92043 333 30/// 56003 58013 82070;","Q01  00002PRCP06"
"76373099999","2003-03-10T00:00:00","4","25.35","-105.75","1967.0","TEPEHUANES DGO., MX","FM-12","99999","V020","230,1,N,0080,1","00210,1,9,N","070000,1,N,1","+0270,1","-0007,1","10060,1","06,0000,9,1","24,0000,9,1",,,,,,"08,99,1,08,1,07,1,00250,1,00,1,00,1",,"01,9",,"120,M,+0286,1","180,N,+0066,1","99999,9,08184,1","2,1,001,1,-003,1",,,"SYN124AAXX  10000 76373 32388 82308 10270 21007 38184 40060 52001 88700 92350 333 10286 20066 30/// 50400 56300 59003 70000 88420;","Q01  00002PRCP06"
"76373099999","2003-03-10T21:00:00","4","25.35","-105.75","1967.0","TEPEHUANES DGO., MX","FM-12","99999","V020","250,1,N,0060,1","03000,1,9,N","070000,1,N,1","+0258,1","-0039,1","10069,1","06,0000,9,1",,,,"07,1,+03000,9,04,9",,,"08,99,1,07,1,00,1,01250,1,06,1,02,1",,"01,9",,,,"99999,9,08174,1","6,1,015,1,-009,1",,,"SYN106AAXX  10211 76373 32688 82506 10258 21039 38174 40069 56015 87062 92062 333 30/// 56066 59009 87460 82070;","Q01  00002PRCP06"
"76373099999","2003-03-11T15:00:00","4","25.35","-105.75","1967.0","TEPEHUANES DGO., MX","FM-12","99999","V020","090,1,N,0010,1","09000,1,C,N","070000,1,N,1","+0090,1","-0033,1","10146,1","06,0000,9,1",,,,"01,1,+03000,9,03,9",,,"05,99,1,01,1,00,1,01250,1,03,1,05,1",,"01,9",,,,"99999,9,08191,1","9,9,999,9,-011,1",,,"SYN106AAXX  11151 76373 32688 50901 10090 21033 38191 40146 5//// 81035 91438 333 30/// 56066 59011 81360 84070;","Q01  00002PRCP06"
"76373099999","2003-03-11T18:00:00","4","25.35","-105.75","1967.0","TEPEHUANES DGO., MX","FM-12","99999","V020","340,1,N,0020,1","22000,1,9,N","070000,1,N,1","+0248,1","-0130,1","10121,1","06,0000,9,1",,,,"01,1,+03000,9,03,9",,,"02,99,1,01,1,00,1,01250,1,03,1,05,1",,"01,9",,"120,M,+0258,1","240,N,+0052,1","99999,9,08183,1","7,1,008,1,-006,1",,,"SYN118AAXX  11181 76373 32688 23402 10248 21130 38183 40121 57008 81035 91740 333 10258 20052 30/// 56066 59006 81360 81070;","Q01  00002PRCP06"
"76373099999","2003-03-11T21:00:00","4","25.35","-105.75","1967.0","TEPEHUANES DGO., MX","FM-12","99999","V020","280,1,N,0080,1","22000,1,9,N","070000,1,N,1","+0274,1","-0173,1","10064,1","06,0000,9,1",,,,"01,1,+00300,9,08,9",,,"01,99,1,01,1,01,1,00450,1,00,1,00,1",,"01,9",,,,"99999,9,08160,1","6,1,023,1,+014,1",,,"SYN100AAXX  11211 76373 32488 12808 10274 21173 38160 40064 56023 81100 92036 333 30/// 56600 58014 81810;","Q01  00002PRCP06"
"76373099999","2003-03-12T03:00:00","4","25.35","-105.75","1967.0","TEPEHUANES DGO., MX","FM-12","99999","V020","310,1,N,0020,1","22000,1,9,N","000800,1,N,1","+0168,1","-0087,1","10036,1","06,0000,9,1",,,,"00,1,+99999,9,99,9",,,"00,99,1,00,1,00,1,99999,9,00,1,00,1",,"01,9",,,,"99999,9,08183,1","2,1,022,1,+999,9",,,"SYN082AAXX  12031 76373 32908 03102 10168 21087 38183 40036 52022 90243 333 30/// 58///;","Q01  00002PRCP06"
"76373099999","2003-03-12T12:00:00","4","25.35","-105.75","1967.0","TEPEHUANES DGO., MX","FM-12","99999","V020","290,1,N,0010,1","22000,1,9,N","000800,1,N,1","+0034,1","-0049,1","10138,1","06,0000,9,1","24,0000,9,1",,,"00,1,+99999,9,99,9",,,"00,99,1,00,1,00,1,99999,9,00,1,00,1",,"01,9","999,-0020,9","999,M,+0290,1","120,N,+0028,1","99999,9,08196,1","2,1,005,1,+999,9",,,"SYN100AAXX  12121 76373 32908 02901 10034 21049 38196 40138 52005 91150 333 10290 20028 30102 58/// 70000;","Q01  00002PRCP06Q02  00002PRCP24"
"76373099999","2003-03-12T15:00:00","4","25.35","-105.75","1967.0","TEPEHUANES DGO., MX","FM-12","99999","V020","999,9,C,0000,1","22000,1,9,N","070000,1,N,1","+0068,1","-0021,1","10184,1","06,0000,9,1",,,,"01,1,+06000,9,00,9",,,"01,99,1,00,1,00,1,99999,9,00,1,05,1",,"01,9",,,,"99999,9,08209,1","2,1,013,1,+018,1",,,"SYN100AAXX  12151 76373 32988 10000 10068 21021 38209 40184 52013 80005 91450 333 30/// 56006 58018 81070;","Q01  00002PRCP06"
"76373099999","2003-03-12T18:00:00","4","25.35","-105.75","1967.0","TEPEHUANES DGO., MX","FM-12","99999","V020","040,1,N,0010,1","22000,1,9,N","070000,1,N,1","+0210,2","-0099,1","10160,1","06,0000,9,1",,,,"00,1,+99999,9,99,9",,,"00,99,1,00,1,00,1,99999,9,00,1,00,1",,"01,9",,"120,M,+0224,1","240,N,+0010,1","99999,9,08196,1","7,1,013,1,+013,1",,,"SYN094AAXX  12181 76373 32988 00401 10210 21099 38196 40160 57013 91740 333 10224 20010 30/// 58013;","Q01+002103ATOT  Q02  00002PRCP06"
"76373099999","2003-03-13T12:00:00","4","25.35","-105.75","1967.0","TEPEHUANES DGO., MX","FM-12","99999","V020","999,9,C,0000,1","22000,1,9,N","000800,1,N,1","+0046,1","-0078,1","10162,1","06,0000,9,1","24,0000,9,1",,,,,,"03,99,1,99,9,99,9,99999,9,99,9,99,9",,"01,9","999,-0020,9","999,M,+0294,1","120,N,+0042,1","99999,9,08217,1","2,1,004,1,+021,1",,,"SYN118AAXX  13121 76373 32/08 30000 10046 21078 38217 40162 52004 8//// 91143 333 10294 20042 30102 56/// 58021 70000 8////;","Q01  00002PRCP06"
"76373099999","2003-03-13T18:00:00","4","25.35","-105.75","1967.0","TEPEHUANES DGO., MX","FM-12","99999","V020","120,1,N,0050,1","99999,9,9,N","070000,1,N,1","+0186,1","+9999,9","99999,9","06,0000,9,1",,,,,,,"08,99,1,99,9,99,9,99999,9,99,9,99,9",,"01,9",,"120,M,+0198,1","240,N,+0034,1",,"9,9,999,9,+031,1",,,"SYN111AAXX  13181 76373 32988 81205 10186 2179 38227 40199 57003 80007 91746 333 10198 20034 30/// 56006 58031 82270;","Q01  00002PRCP06"
"76373099999","2003-03-14T00:00:00","4","25.35","-105.75","1967.0","TEPEHUANES DGO., MX","FM-12","99999","V020","150,1,N,0030,1","06000,1,C,N","070000,1,N,1","+0224,1","-0126,1","10101,1","06,0000,9,1","24,0000,9,1",,,"08,1,+06000,9,02,9",,,"08,99,1,00,1,00,1,99999,9,00,1,07,1",,"01,9",,"120,M,+0248,1","180,N,+0034,1","99999,9,08196,1","7,1,011,1,+027,1",,,"SYN130AAXX  14001 76373 32988 81503 10224 21126 38196 40101 57011 80007 92338 333 10248 20034 30/// 50550 56006 58027 70000 88270 99020;","Q01  00002PRCP06"
"76373099999","2003-03-14T03:00:00","4","25.35","-105.75","1967.0","TEPEHUANES DGO., MX","FM-12","99999","V020","999,9,C,0000,1","09000,1,9,N","010000,1,N,1","+0158,1","-0059,1","10083,1","06,0000,9,1",,,,"08,1,+09000,9,02,9",,,"08,99,1,00,1,00,1,99999,9,00,1,07,1",,"01,9",,,,"99999,9,08202,1","2,1,006,1,+012,1",,,"SYN100AAXX  14031 76373 32960 80000 10158 21059 38202 40083 52006 80007 90240 333 30/// 56006 58012 88280;","Q01  00002PRCP06"
"76373099999","2003-03-14T15:00:00","4","25.35","-105.75","1967.0","TEPEHUANES DGO., MX","FM-12","99999","V020","999,9,C,0000,1","09000,1,C,N","070000,1,N,1","+0106,1","-0069,1","10157,1","06,0000,9,1",,,,"01,1,+03000,9,03,9",,,"08,99,1,01,1,00,1,01250,1,03,1,08,1",,"01,9",,,,"99999,9,08210,1","9,9,999,9,-020,1",,,"SYN106AAXX  14151 76373 32688 80000 10106 21069 38210 40157 5//// 81038 91442 333 30/// 56066 59020 81360 88270;","Q01  00002PRCP06"
"76373099999","2003-03-14T21:00:00","4","25.35","-105.75","1967.0","TEPEHUANES DGO., MX","FM-12","99999","V020","040,1,N,0030,1","03000,1,9,N","070000,1,N,1","+0272,1","-0118,1","10058,2","06,0000,9,1",,,,"01,1,+00300,9,08,9","04,1,+03000,9,03,9",,"07,99,1,01,1,01,1,00250,1,03,1,06,1",,"01,9",,,,"99999,9,08157,1","6,1,039,1,-050,1",,,"SYN112AAXX  14211 76373 32388 70403 10272 21118 38157 40058 56039 81136 92036 333 30/// 56666 59050 81810 84360 82070;","Q01+100583APOSLPQ02  00002PRCP06"
"76373099999","2003-03-15T15:00:00","4","25.35","-105.75","1967.0","TEPEHUANES DGO., MX","FM-12","99999","V020","270,1,N,0030,1","22000,1,9,N","070000,1,N,1","+0138,1","-0035,1","10103,1","06,0000,9,1",,,,"00,1,+99999,9,99,9",,,"00,99,1,00,1,00,1,99999,9,00,1,00,1",,"01,9",,,,"99999,9,08185,1","9,9,999,9,-025,1",,,"SYN082AAXX  15151 76373 32988 02703 10138 21035 38185 40103 5//// 91450 333 30/// 59025;","Q01  00002PRCP06"
"76373099999","2003-03-15T21:00:00","4","25.35","-105.75","1967.0","TEPEHUANES DGO., MX","FM-12","99999","V020","270,1,N,0070,1","22000,1,9,N","070000,1,N,1","+0228,1","-0032,1","10036,1","06,0000,9,1",,,,"01,1,+00600,9,08,9",,,"01,99,1,01,1,02,1,00250,1,00,1,00,1",,"01,9",,,,"99999,9,08144,1","6,1,025,1,-013,1",,,"SYN100AAXX  15211 76373 32388 12707 10228 21032 38144 40036 56025 81200 92045 333 30/// 56600 59013 81820;","Q01  00002PRCP06"
"76373099999","2003-03-16T00:00:00","4","25.35","-105.75","1967.0","TEPEHUANES DGO., MX","FM-12","99999","V020","280,1,N,0060,1","22000,1,9,N","070000,1,N,1","+0232,1","-0053,1","10013,1","06,0000,9,1","24,0000,9,1",,,,,,"01,99,1,01,1,02,1,00250,1,00,1,00,1",,"01,9",,"120,M,+0268,1","180,N,+0056,1","99999,9,08143,1","6,1,001,1,-005,1",,,"SYN124AAXX  16001 76373 32388 12806 10232 21053 38143 40013 56001 81200 92355 333 10268 20056 30/// 50660 56600 59005 70000 81820;","Q01  00002PRCP06"
"76373099999","2003-03-16T03:00:00","4","25.35","-105.75","1967.0","TEPEHUANES DGO., MX","FM-12","99999","V020","250,1,N,0020,1","22000,1,9,N","010000,1,N,1","+0156,1","+0005,1","10038,1","06,0000,9,1",,,,"00,1,+99999,9,99,9",,,"00,99,1,00,1,00,1,99999,9,00,1,00,1",,"01,9",,,,"99999,9,99999,9","2,1,029,1,+015,1",,,"SYN082AAXX  16031 76373 32960 02502 10156 20005 37172 40038 52029 90255 333 30/// 58015;","Q01+071723APOSP Q02  00002PRCP06Q03 071723APOSP "
"76373099999","2003-03-16T15:00:00","4","25.35","-105.75","1967.0","TEPEHUANES DGO., MX","FM-12","99999","V020","330,1,N,0020,1","22000,1,9,N","070000,1,N,1","+0070,1","+0003,1","10120,1","06,0000,9,1",,,,"00,1,+99999,9,99,9",,,"00,99,1,00,1,00,1,99999,9,00,1,00,1",,"01,9",,,,"99999,9,08172,1","9,9,999,9,-013,1",,,"SYN082AAXX  16151 76373 32988 03302 10070 20003 38172 40120 5//// 91455 333 30/// 59013;","Q01  00002PRCP06"
"76373099999","2003-03-17T00:00:00","4","25.35","-105.75","1967.0","TEPEHUANES DGO., MX","FM-12","99999","V020","240,1,N,0100,1","22000,1,9,N","070000,1,N,1","+0192,1","-0059,1","10021,1","06,0000,9,1","24,0000,9,1",,,"00,1,+99999,9,99,9",,,"00,99,1,00,1,00,1,99999,9,00,1,00,1",,"01,9",,"120,M,+0240,1","180,N,+0022,1","99999,9,08133,1","6,1,016,1,-010,1",,,"SYN106AAXX  17001 76373 32988 02410 10192 21059 38133 40021 56016 92350 333 10240 20022 30/// 50720 59010 70000;","Q01  00002PRCP06Q02  00002PRCP24"
"76373099999","2003-03-17T15:00:00","4","25.35","-105.75","1967.0","TEPEHUANES DGO., MX","FM-12","99999","V020","330,1,N,0030,1","22000,1,9,N","070000,1,N,1","+0116,1","-0040,1","10079,1","06,0000,9,1",,,,"00,1,+99999,9,99,9",,,"00,99,1,00,1,00,1,99999,9,00,1,00,1",,"01,9",,,,"99999,9,08145,1","9,9,999,9,-027,1",,,"SYN082AAXX  17151 76373 32988 03303 10116 21040 38145 40079 5//// 91445 333 30/// 59027;","Q01  00002PRCP06"
"76373099999","2003-03-17T21:00:00","4","25.35","-105.75","1967.0","TEPEHUANES DGO., MX","FM-12","99999","V020","280,1,N,0080,1","22000,1,9,N","070000,1,N,1","+0192,1","-0064,1","10042,1","06,0000,9,1",,,,"00,1,+99999,9,99,9",,,"00,99,1,00,1,00,1,99999,9,00,1,00,1",,"01,9",,,,"99999,9,08131,1","6,1,019,1,-018,1",,,"SYN082AAXX  17211 76373 32988 02808 10192 21064 38131 40042 56019 92042 333 30/// 59018;","Q01  00002PRCP06"
"76373099999","2003-03-18T00:00:00","4","25.35","-105.75","1967.0","TEPEHUANES DGO., MX","FM-12","99999","V020","270,1,N,0070,1","22000,1,9,N","070000,1,N,1","+0172,1","-0040,1","10023,1","06,0000,9,1","24,0000,9,1",,,,,,"02,99,1,02,1,01,1,00450,1,00,1,00,1",,"01,9",,"120,M,+0210,1","180,N,+0050,1","99999,9,08129,1","7,1,002,1,-004,1",,,"SYN124AAXX  18001 76373 32488 22707 10172 21040 38129 40023 57002 82100 92338 333 10210 20050 30/// 50790 56500 59004 70000 82810;","Q01  00002PRCP06"
"76373099999","2003-03-18T15:00:00","4","25.35","-105.75","1967.0","TEPEHUANES DGO., MX","FM-12","99999","V020","270,1,N,0060,1","22000,1,9,N","070000,1,N,1","+0090,1","-0033,1","10034,1","06,0000,9,1",,,,"04,1,+00300,9,08,9",,,"04,99,1,04,1,02,1,00250,1,00,1,00,1",,"01,9",,,,"99999,9,08106,1","9,9,999,9,-039,1",,,"SYN100AAXX  18151 76373 32388 42706 10090 21033 38106 40034 5//// 84200 91436 333 30/// 56500 59039 84810;","Q01  00002PRCP06"
"76373099999","2003-03-18T18:00:00","4","25.35","-105.75","1967.0","TEPEHUANES DGO., MX","FM-12","99999","V020","270,1,N,0080,1","00300,1,9,N","070000,1,N,1","+0128,1","-0045,1","10062,1","06,0000,9,1",,,,"05,1,+00300,9,08,9",,,"05,99,1,05,1,02,1,00250,1,00,1,00,1",,"01,9",,"120,M,+0140,1","240,N,+0060,1","99999,9,08127,1","1,1,021,1,-003,1",,,"SYN112AAXX  18181 76373 32388 52708 10128 21045 38127 40062 51021 85200 91738 333 10140 20060 30/// 56600 59003 85810;","Q01  00002PRCP06"
"76373099999","2003-03-18T21:00:00","4","25.35","-105.75","1967.0","TEPEHUANES DGO., MX","FM-12","99999","V020","270,1,N,0050,1","22000,1,9,N","070000,1,N,1","+0140,1","-0022,1","10047,1","06,0000,9,1",,,,"04,1,+00300,9,08,9",,,"04,99,1,04,1,02,1,00450,1,00,1,00,1",,"01,9",,,,"99999,9,08118,1","6,1,009,1,-013,1",,,"SYN100AAXX  18211 76373 32488 42705 10140 21022 38118 40047 56009 84200 92038 333 30/// 56600 59013 84810;","Q01  00002PRCP06"
"76373099999","2003-03-19T00:00:00","4","25.35","-105.75","1967.0","TEPEHUANES DGO., MX","FM-12","99999","V020","270,1,N,0080,1","22000,1,9,N","070000,1,N,1","+0130,1","-0042,1","10034,1","06,0000,9,1","24,0000,9,1",,,,,,"03,99,1,03,1,01,1,00450,1,00,1,00,1",,"01,9",,"120,M,+0153,1","180,N,+0060,1","99999,9,08115,1","7,1,003,1,-014,1",,,"SYN124AAXX  19001 76373 32488 32708 10130 21042 38115 40034 57003 83100 92340 333 10153 20060 30/// 50660 56600 59014 70000 83810;","Q01  00002PRCP06"
"76373099999","2003-03-19T21:00:00","4","25.35","-105.75","1967.0","TEPEHUANES DGO., MX","FM-12","99999","V020","280,1,N,0060,1","22000,1,9,N","070000,1,N,1","+0190,1","+9999,9","99999,9","06,0000,9,1",,,,"00,1,+99999,9,99,9",,,"00,99,1,00,1,00,1,99999,9,00,1,00,1",,,,,,,,,,"SYN082AAXX  19211 76373 32988 02806 10190 2118 38123 40067 57016 92040 333 3 0/// 58005;","Q01  00002PRCP06"
"76373099999","2003-03-20T15:00:00","4","25.35","-105.75","1967.0","TEPEHUANES DGO., MX","FM-12","99999","V020","320,1,N,0010,1","22000,1,9,N","070000,1,N,1","+0016,1","-0057,1","10189,1","06,0000,9,1",,,,"00,1,+99999,9,99,9",,,"00,99,1,00,1,00,1,99999,9,00,1,00,1",,"01,9",,,,"99999,9,08188,1","9,9,999,9,+044,1",,,"SYN082AAXX  20151 76373 32988 03201 10016 21057 38188 40189 5//// 91438 333 30/// 58044;","Q01  00002PRCP06"
"76373099999","2003-03-20T18:00:00","4","25.35","-105.75","1967.0","TEPEHUANES DGO., MX","FM-12","99999","V020","090,1,N,0020,1","99999,9,9,N","070000,1,N,1","+0130,1","-0056,1","10181,1","06,0000,9,1",,,,,,,"08,99,1,99,9,99,9,99999,9,99,9,99,9",,"01,9",,"120,M,+0140,1","240,N,-0033,1","99999,9,08186,1","7,1,002,1,+047,1",,,"SYN094AAXX  20181 76373 32988 80902 10130 21056 38186 40181 57002 91736 333 10140 21033 30/// 58047;","Q01  00002PRCP06"
"76373099999","2003-03-20T21:00:00","4","25.35","-105.75","1967.0","TEPEHUANES DGO., MX","FM-12","99999","V020","060,1,N,0030,1","22000,1,9,N","070000,1,N,1","+0174,1","-0123,1","10125,1","06,0000,9,1",,,,"00,1,+99999,9,99,9",,,"00,99,1,00,1,00,1,99999,9,00,1,00,1",,"01,9",,,,"99999,9,08159,1","6,1,027,1,+036,1",,,"SYN082AAXX  20211 76373 32988 00603 10174 21123 38159 40125 56027 92036 333 30/// 58036;","Q01  00002PRCP06"
"76373099999","2003-03-21T00:00:00","4","25.35","-105.75","1967.0","TEPEHUANES DGO., MX","FM-12","99999","V020","130,1,N,0030,1","22000,1,9,N","070000,1,N,1","+0196,1","-0125,1","10072,1","06,0000,9,1","24,0000,9,1",,,"00,1,+99999,9,99,9",,,"00,99,1,00,1,00,1,99999,9,00,1,00,1",,"01,9",,"120,M,+0229,1","180,N,-0033,1","99999,9,08144,1","7,1,015,1,+999,9",,,"SYN106AAXX  21001 76373 32988 01303 10196 21125 38144 40072 57015 92338 333 10229 21033 30/// 50520 58/// 70000;","Q01  00002PRCP06Q02  00002PRCP24"
"76373099999","2003-03-21T18:00:00","4","25.35","-105.75","1967.0","TEPEHUANES DGO., MX","FM-12","99999","V020","030,1,N,0020,1","22000,1,9,N","070000,1,N,1","+0184,1","-0083,1","10136,1","06,0000,9,1",,,,"00,1,+99999,9,99,9",,,"00,99,1,00,1,00,1,99999,9,00,1,00,1",,"01,9",,"120,M,+0198,1","240,N,-0016,1","99999,9,08167,1","6,1,016,1,-019,1",,,"SYN094AAXX  21181 76373 32988 00302 10184 21083 38167 40136 56016 91738 333 10198 21016 30/// 59019;","Q01  00002PRCP06"
"76373099999","2003-03-21T21:00:00","4","25.35","-105.75","1967.0","TEPEHUANES DGO., MX","FM-12","99999","V020","270,1,N,0090,1","22000,1,9,N","070000,1,N,1","+0244,1","-0205,2","10086,1","06,0000,9,1",,,,"00,1,+99999,9,99,9",,,"00,99,1,00,1,00,1,99999,9,00,1,00,1",,"01,9",,,,"99999,9,08151,1","7,1,016,1,-008,1",,,"SYN082AAXX  21211 76373 32988 02709 10244 21205 38151 40086 57016 92038 333 30/// 59008;","Q01-002053ATOD  Q02  00002PRCP06"
"76373099999","2003-03-22T00:00:00","4","25.35","-105.75","1967.0","TEPEHUANES DGO., MX","FM-12","99999","V020","270,1,N,0060,1","22000,1,9,N","070000,1,N,1","+0228,1","-0158,1","10050,1","06,0000,9,1","24,0000,9,1",,,"00,1,+99999,9,99,9",,,"00,99,1,00,1,00,1,99999,9,00,1,00,1",,"01,9",,"120,M,+0254,1","180,N,-0016,1","99999,9,08152,1","2,1,001,1,+008,1",,,"SYN106AAXX  22001 76373 32988 02706 10228 21158 38152 40050 52001 92335 333 10254 21016 30/// 50630 58008 70000;","Q01  00002PRCP06Q02  00002PRCP24"
"76373099999","2003-03-22T03:00:00","4","25.35","-105.75","1967.0","TEPEHUANES DGO., MX","FM-12","99999","V020","260,1,N,0030,1","22000,1,9,N","010000,1,N,1","+0158,1","-0102,1","10043,1","06,0000,9,1",,,,"00,1,+99999,9,99,9",,,"00,99,1,00,1,00,1,99999,9,00,1,00,1",,"01,9",,,,"99999,9,08168,1","2,1,016,1,+999,9",,,"SYN082AAXX  22031 76373 32960 02603 10158 21102 38168 40043 52016 90230 333 30/// 58///;","Q01  00002PRCP06"
"76373099999","2003-03-22T18:00:00","4","25.35","-105.75","1967.0","TEPEHUANES DGO., MX","FM-12","99999","V020","060,1,N,0010,1","22000,1,9,N","070000,1,N,1","+0152,1","-0071,1","10195,1","06,0000,9,1",,,,"00,1,+99999,9,99,9",,,"00,99,1,00,1,00,1,99999,9,00,1,00,1",,"01,9",,"120,M,+0180,1","240,N,-0022,1","99999,9,08216,1","7,1,006,1,+049,1",,,"SYN094AAXX  22181 76373 32988 00601 10152 21071 38216 40195 57006 91742 333 10180 21022 30/// 58049;","Q01  00002PRCP06"
"76373099999","2003-03-23T00:00:00","4","25.35","-105.75","1967.0","TEPEHUANES DGO., MX","FM-12","99999","V020","150,1,N,0060,1","22000,1,9,N","070000,1,N,1","+0234,1","-0132,1","10083,1","06,0000,9,1","24,0000,9,1",,,"00,1,+99999,9,99,9",,,"00,99,1,00,1,00,1,99999,9,00,1,00,1",,"01,9",,"120,M,+0268,1","180,N,-0022,1","99999,9,08178,1","6,1,004,1,+026,1",,,"SYN106AAXX  23001 76373 32988 01506 10234 21132 38178 40083 56004 92340 333 10268 21022 30/// 50650 58026 70000;","Q01  00002PRCP06Q02  00002PRCP24"
"76373099999","2003-03-24T00:00:00","4","25.35","-105.75","1967.0","TEPEHUANES DGO., MX","FM-12","99999","V020","270,1,N,0060,1","99999,9,9,N","070000,1,N,1","+0248,1","-0116,1","10089,1","06,0000,9,1","24,0000,9,1",,,,,,"08,99,1,00,1,00,1,99999,9,00,1,07,1",,"01,9",,"120,M,+0288,1","180,N,-0012,1","99999,9,08190,1","2,1,020,1,+012,1",,,"SYN124AAXX  24001 76373 32988 82706 10248 21116 38190 40089 52020 80007 92350 333 10288 21012 30/// 50640 56006 58012 70000 88680;","Q01  00002PRCP06"
"76373099999","2003-03-24T03:00:00","4","25.35","-105.75","1967.0","TEPEHUANES DGO., MX","FM-12","99999","V020","270,1,N,0020,1","09000,1,9,N","010000,1,N,1","+0180,1","-0100,1","10074,1","06,0000,9,1",,,,"08,1,+09000,9,06,9",,,"08,99,1,00,1,00,1,99999,9,00,1,07,1",,"01,9",,,,"99999,9,08193,1","2,1,003,1,-025,1",,,"SYN100AAXX  24031 76373 32960 82702 10180 21100 38193 40074 52003 80007 90240 333 30/// 56006 59025 88680;","Q01  00002PRCP06"
"76373099999","2003-03-24T15:00:00","4","25.35","-105.75","1967.0","TEPEHUANES DGO., MX","FM-12","99999","V020","999,9,C,0000,1","03000,1,9,N","070000,1,N,1","+0110,1","-0023,1","10141,1","06,0000,9,1",,,,"08,1,+03000,9,04,9",,,"08,99,1,08,1,00,1,01250,1,07,1,00,1",,"01,9",,,,"99999,9,08207,1","9,9,999,9,-038,1",,,"SYN100AAXX  24151 76373 32688 80000 10110 21023 38207 40141 5//// 88070 91440 333 30/// 56060 59038 88460;","Q01  00002PRCP06"
"76373099999","2003-03-24T21:00:00","4","25.35","-105.75","1967.0","TEPEHUANES DGO., MX","FM-12","99999","V020","270,1,N,0050,1","06000,1,9,N","070000,1,N,1","+0262,1","-0128,1","10080,1","06,0000,9,1",,,,"03,1,+03000,9,03,9","08,1,+06000,9,02,9",,"08,99,1,03,1,00,1,01250,1,03,1,07,1",,"01,9",,,,"99999,9,99999,9","7,1,027,1,-002,1",,,"SYN112AAXX  24211 76373 32688 82705 10262 21128 30177 40080 57027 83037 92035 333 30/// 56066 59002 83360 88270 99020;","Q01+101773APOSP Q02  00002PRCP06Q03 101773APOSP "
"76373099999","2003-03-25T03:00:00","4","25.35","-105.75","1967.0","TEPEHUANES DGO., MX","FM-12","99999","V020","260,1,N,0010,1","00600,1,9,N","010000,1,N,1","+0160,1","-0122,1","10060,1","06,0000,9,1",,,,"08,1,+00600,9,06,9",,,"08,99,1,99,9,99,9,99999,9,00,1,07,1",,"01,9",,,,"99999,9,08192,1","2,1,013,1,-001,1",,,"SYN100AAXX  25031 76373 32960 82601 10160 21122 38192 40060 52013 80007 90240 333 30/// 56006 59001 88620;","Q01+000002SCOTLCQ02+000002SCOLCGQ03  00002PRCP06"
"76373099999","2003-03-25T15:00:00","4","25.35","-105.75","1967.0","TEPEHUANES DGO., MX","FM-12","99999","V020","999,9,C,0000,1","09000,1,C,N","070000,1,N,1","+0090,1","-0013,1","10155,1","06,0000,9,1",,,,"01,1,+03000,9,03,9",,,"08,99,1,01,1,00,1,01250,1,03,1,08,1",,"01,9",,,,"99999,9,08211,1","9,9,999,9,+004,1",,,"SYN106AAXX  25151 76373 32688 80000 10090 21013 38211 40155 5//// 81038 91438 333 30/// 56066 58004 81360 88270;","Q01  00002PRCP06"
"76373099999","2003-03-25T18:00:00","4","25.35","-105.75","1967.0","TEPEHUANES DGO., MX","FM-12","99999","V020","300,1,N,0010,1","06000,1,9,N","070000,1,N,1","+0198,1","-0088,1","10138,1","06,0000,9,1",,,,"05,1,+06000,9,00,9",,,"05,99,1,00,1,00,1,99999,9,00,1,06,1",,"01,9",,"120,M,+0218,1","240,N,+0054,1","99999,9,08199,1","6,1,012,1,-005,1",,,"SYN112AAXX  25181 76373 32988 53001 10198 21088 38199 40138 56012 80006 91740 333 10218 20054 30/// 56006 59005 85070;","Q01  00002PRCP06"
"76373099999","2003-03-25T21:00:00","4","25.35","-105.75","1967.0","TEPEHUANES DGO., MX","FM-12","99999","V020","280,1,N,0050,1","22000,1,9,N","070000,1,N,1","+0250,1","-0156,1","10044,2","06,0000,9,1",,,,"02,1,+06000,9,00,9",,,"02,99,1,00,1,00,1,99999,9,00,1,05,1",,"01,9",,,,"99999,9,08172,1","6,1,027,1,-005,1",,,"SYN100AAXX  25211 76373 32988 22805 10250 21156 38172 40044 56027 80005 92048 333 30/// 56006 59005 82070;","Q01+100443APOSLPQ02  00002PRCP06"
"76373099999","2003-03-26T00:00:00","4","25.35","-105.75","1967.0","TEPEHUANES DGO., MX","FM-12","99999","V020","280,1,N,0060,1","22000,1,9,N","070000,1,N,1","+0238,1","-0141,1","10104,2","06,0000,9,1","24,0000,9,1",,,,,,"01,99,1,01,1,00,1,01250,1,04,1,00,1",,"01,9",,"120,M,+0264,1","180,N,+0050,1","99999,9,08159,1","6,1,013,1,-020,1",,,"SYN124AAXX  26001 76373 32688 12806 10238 21141 38159 40104 56013 81040 92300 333 10264 20050 30/// 50670 56030 59020 70000 81360;","Q01+101043APOSLPQ02  00002PRCP06"
"76373099999","2003-03-26T15:00:00","4","25.35","-105.75","1967.0","TEPEHUANES DGO., MX","FM-12","99999","V020","999,9,C,0000,1","22000,1,9,N","070000,1,N,1","+0078,1","-0085,1","10204,1","06,0000,9,1",,,,"00,1,+99999,9,99,9",,,"00,99,1,00,1,00,1,99999,9,00,1,00,1",,"01,9",,,,"99999,9,08232,1","9,9,999,9,+021,1",,,"SYN082AAXX  26151 76373 32988 00000 10078 21085 38232 40204 5//// 91455 333 30/// 58021;","Q01  00002PRCP06"
"76373099999","2003-03-26T18:00:00","4","25.35","-105.75","1967.0","TEPEHUANES DGO., MX","FM-12","99999","V020","090,1,N,0010,1","22000,1,9,N","070000,1,N,1","+0200,1","-0111,1","10191,1","06,0000,9,1",,,,"00,1,+99999,9,99,9",,,"00,99,1,00,1,00,1,99999,9,00,1,00,1",,"01,9",,"120,M,+0220,1","240,N,-0010,1","99999,9,08227,1","8,1,005,1,+028,1",,,"SYN094AAXX  26180 76373 32988 00901 10200 21111 38227 40191 58005 91742 333 10220 21010 30/// 58028;","Q01  00002PRCP06"
"76373099999","2003-03-26T21:00:00","4","25.35","-105.75","1967.0","TEPEHUANES DGO., MX","FM-12","99999","V020","180,1,N,0040,1","22000,1,9,N","070000,1,N,1","+0232,1","-0052,1","10133,1","06,0000,9,1",,,,"00,1,+99999,9,99,9",,,"00,99,1,00,1,00,1,99999,9,00,1,00,1",,"01,9",,,,"99999,9,08200,1","8,1,027,1,+028,1",,,"SYN082AAXX  26211 76373 32988 01804 10232 21052 38200 40133 58027 92045 333 30/// 58028;","Q01  00002PRCP06"
"76373099999","2003-03-27T15:00:00","4","25.35","-105.75","1967.0","TEPEHUANES DGO., MX","FM-12","99999","V020","999,9,C,0000,1","22000,1,9,N","070000,1,N,1","+0070,1","-0063,1","10147,1","06,0000,9,1",,,,"00,1,+99999,9,99,9",,,"00,99,1,00,1,00,1,99999,9,00,1,00,1",,"01,9",,,,"99999,9,08191,1","9,9,999,9,-042,1",,,"SYN082AAXX  27151 76373 32988 00000 10070 21063 38191 40147 5//// 91442 333 30/// 59042;","Q01  00002PRCP06"
"76373099999","2003-03-28T00:00:00","4","25.35","-105.75","1967.0","TEPEHUANES DGO., MX","FM-12","99999","V020","270,1,N,0060,1","22000,1,9,N","070000,1,N,1","+0242,1","-0031,1","10031,1","06,0000,9,1","24,0000,9,1",,,"00,1,+99999,9,99,9",,,"00,99,1,00,1,00,1,99999,9,00,1,00,1",,"01,9",,"120,M,+0288,1","180,N,+0008,1","99999,9,08151,1","2,1,001,1,-020,1",,,"SYN106AAXX  28001 76373 32988 02706 10242 21031 38151 40031 52001 92340 333 10288 20008 30/// 50720 59020 70000;","Q01  00002PRCP06Q02  00002PRCP24"
"76373099999","2003-03-29T15:00:00","4","25.35","-105.75","1967.0","TEPEHUANES DGO., MX","FM-12","99999","V020","120,1,N,0010,1","09000,1,9,N","070000,1,N,1","+0094,1","-0016,1","99999,9","06,0000,9,1",,,,"08,1,+09000,9,02,9",,,"08,99,1,00,1,00,1,99999,9,00,1,07,1",,"01,9",,,,"99999,9,08228,1","9,9,999,9,+039,1",,,"SYN100AAXX  29151 76373 32988 81201 10094 21016 38228 4//// 5//// 80007 91455 333 30/// 56006 58039 88280;","Q01  00002PRCP06"
"76373099999","2003-03-29T21:00:00","4","25.35","-105.75","1967.0","TEPEHUANES DGO., MX","FM-12","99999","V020","130,1,N,0070,1","09000,1,9,N","070000,1,N,1","+0182,1","-0044,1","10160,1","06,0000,9,1",,,,"08,1,+09000,9,02,9",,,"08,99,1,00,1,00,1,99999,9,00,1,07,1",,"01,9",,,,"99999,9,08210,1","6,1,012,1,+054,1",,,"SYN100AAXX  29211 76373 32988 81307 10182 21044 38210 40160 56012 80007 92055 333 30/// 56006 58054 88280;","Q01  00002PRCP06"
"76373099999","2003-03-30T00:00:00","4","25.35","-105.75","1967.0","TEPEHUANES DGO., MX","FM-12","99999","V020","170,1,N,0070,1","99999,9,9,N","070000,1,N,1","+0168,1","-0047,1","10150,1","06,0000,9,1","24,0000,9,1",,,,,,"08,99,1,00,1,00,1,99999,9,00,1,07,1",,"01,9",,"120,M,+0200,1","180,N,+0020,1","99999,9,08221,1","6,1,012,1,+061,1",,,"SYN124AAXX  30001 76373 32988 81707 10168 21047 38221 40150 56012 80007 92345 333 10200 20020 30/// 50520 56006 58061 70000 88280;","Q01  00002PRCP06"
"76373099999","2003-03-31T15:00:00","4","25.35","-105.75","1967.0","TEPEHUANES DGO., MX","FM-12","99999","V020","999,9,C,0000,1","22000,1,9,N","070000,1,N,1","+0060,1","-0087,1","10276,1","06,0000,9,1",,,,"03,1,+00300,9,06,9",,,"04,99,1,02,1,99,9,01250,1,03,1,02,1",,"01,9",,,,"99999,9,08276,1","9,9,999,9,-021,1",,,"SYN106AAXX  31151 76373 32688 40000 10060 21087 38276 40276 5//// 82032 91440 333 30/// 56066 59021 83610 82070;","Q01+000002SCOLCGQ02  00002PRCP06"
"76373099999","2003-03-31T18:00:00","4","25.35","-105.75","1967.0","TEPEHUANES DGO., MX","FM-12","99999","V020","120,1,N,0040,1","22000,1,9,N","070000,1,N,1","+0180,2","-0154,1","10252,1","06,0000,9,1",,,,"02,1,+03000,9,03,9",,,"04,99,1,02,1,00,1,01250,1,03,1,02,1",,"01,9",,"120,M,+0190,1","240,N,-0012,1","99999,9,08263,1","6,1,013,1,-022,1",,,"SYN118AAXX  31181 76373 32688 41204 10180 21154 38263 40252 56013 82032 91738 333 10190 21012 30/// 56066 59022 82360 82070;","Q01+001803ATOT  Q02  00002PRCP06"
"76373099999","2003-04-01T15:00:00","4","25.35","-105.75","1967.0","TEPEHUANES DGO., MX","FM-12","99999","V020","999,9,C,0000,1","22000,1,9,N","070000,1,N,1","+0100,1","-0028,1","10217,1","06,0000,9,1",,,,"02,1,+06000,9,00,9",,,"02,99,1,00,1,00,1,99999,9,00,1,02,1",,"01,9",,,,"99999,9,08249,1","9,9,999,9,-027,1",,,"SYN100AAXX  01151 76373 32988 20000 10100 21028 38249 40217 5//// 80002 91443 333 30/// 56006 59027 82070;","Q01  00002PRCP06"
"76373099999","2003-04-03T18:00:00","4","25.35","-105.75","1967.0","TEPEHUANES DGO., MX","FM-12","99999","V020","280,1,N,0060,1","09000,1,C,N","070000,1,N,1","+0234,1","+0047,1","10137,1","06,0000,9,1",,,,"04,1,+00300,9,08,9",,,"06,99,1,04,1,02,1,00450,1,00,1,02,1",,"01,9",,"120,M,+0246,1","240,N,+0064,1","99999,9,08211,1","6,1,008,1,-003,1",,,"SYN118AAXX  03181 76373 32488 62806 10234 20047 38211 40137 56008 84202 91738 333 10246 20064 30/// 56606 59003 84810 82070;","Q01  00002PRCP06"
"76373099999","2003-04-03T21:00:00","4","25.35","-105.75","1967.0","TEPEHUANES DGO., MX","FM-12","99999","V020","280,1,N,0060,1","03600,1,C,N","070000,1,N,1","+0230,1","+0026,1","10092,1","06,0000,9,1",,,,"03,1,+00300,9,08,9","01,1,+03000,9,03,9",,"07,99,1,03,1,01,1,00450,1,03,1,04,1",,"01,9",,,,"99999,9,08191,1","6,1,020,1,-011,1",,,"SYN112AAXX  03211 76373 32488 72806 10230 20026 38191 40092 56020 83134 92035 333 30/// 56666 59011 83810 81360 83070;","Q01  00002PRCP06"
"76373099999","2003-04-04T15:00:00","4","25.35","-105.75","1967.0","TEPEHUANES DGO., MX","FM-12","99999","V020","330,1,N,0010,1","06000,1,9,N","070000,1,N,1","+0080,1","+0010,1","10155,1","06,0000,9,1",,,,"06,1,+06000,9,02,9",,,"06,99,1,00,1,00,1,99999,9,00,1,08,1",,"01,9",,,,"99999,9,08206,1","9,9,999,9,-013,1",,,"SYN100AAXX  04151 76373 32988 63301 10080 20010 38206 40155 5//// 80008 91435 333 30/// 56006 59013 86270;","Q01  00002PRCP06"
"76373099999","2003-04-04T21:00:00","4","25.35","-105.75","1967.0","TEPEHUANES DGO., MX","FM-12","99999","V020","270,1,N,0060,1","06000,1,9,N","070000,1,N,1","+0250,2","-0191,2","10097,1","06,0000,9,1",,,,"08,1,+06000,9,02,9",,,"08,99,1,00,1,00,1,99999,9,00,1,07,1",,"01,9",,,,"99999,9,08177,1","6,1,027,1,-014,1",,,"SYN106AAXX  04211 76373 32988 82706 10250 21191 38177 40097 56027 80007 92040 333 30/// 56006 59014 88270 99020;","Q01+002503ATOT  Q02-001913ATOD  Q03  00002PRCP06"
"76373099999","2003-04-06T03:00:00","4","25.35","-105.75","1967.0","TEPEHUANES DGO., MX","FM-12","99999","V020","230,1,N,0010,1","22000,1,9,N","010000,1,N,1","+0174,1","-0047,1","99999,9","06,0000,9,1",,,,"02,1,+09000,9,00,9",,,"02,99,1,00,1,00,1,99999,9,00,1,04,1",,"01,9",,,,"99999,9,08171,1","2,1,012,1,+999,9",,,"SYN100AAXX  06031 76373 32960 22301 10174 21047 38171 4//// 52012 80004 90235 333 30/// 56006 58/// 82080;","Q01  00002PRCP06"
"76373099999","2003-04-06T21:00:00","4","25.35","-105.75","1967.0","TEPEHUANES DGO., MX","FM-12","99999","V020","260,1,N,0060,1","22000,1,9,N","070000,1,N,1","+0278,1","-0249,1","10055,1","06,0000,9,1",,,,"04,1,+09000,9,00,9",,,"04,99,1,00,1,00,1,99999,9,00,1,04,1",,"01,9",,,,"99999,9,08157,1","6,1,020,1,+003,1",,,"SYN100AAXX  06211 76373 32988 42606 10278 21249 38157 40055 56020 80004 92048 333 30/// 56006 58003 84080;","Q01  00002PRCP06"
"76373099999","2003-04-07T00:00:00","4","25.35","-105.75","1967.0","TEPEHUANES DGO., MX","FM-12","99999","V020","270,1,N,0080,1","22000,1,9,N","070000,1,N,1","+0246,1","-0195,1","10015,1","06,0000,9,1","24,0000,9,1",,,,,,"04,99,1,00,1,00,1,99999,9,00,1,04,1",,"01,9",,"120,M,+0288,1","180,N,+0028,1","99999,9,08150,1","6,1,007,1,-009,1",,,"SYN124AAXX  07001 76373 32988 42708 10246 21195 38150 40015 56007 80004 92355 333 10288 20028 30/// 50750 56006 59009 70000 84080;","Q01  00002PRCP06"
"76373099999","2003-04-07T15:00:00","4","25.35","-105.75","1967.0","TEPEHUANES DGO., MX","FM-12","99999","V020","999,9,C,0000,1","06000,1,9,N","070000,1,N,1","+0092,1","-0081,1","10157,1","06,0000,9,1",,,,"08,1,+06000,9,02,9",,,"08,99,1,00,1,00,1,99999,9,00,1,07,1",,"01,9",,,,"99999,9,08197,1","9,9,999,9,+016,1",,,"SYN106AAXX  07151 76373 32988 80000 10092 21081 38197 40157 5//// 80007 91440 333 30/// 56006 58016 88270 99020;","Q01  00002PRCP06"
"76373099999","2003-04-07T18:00:00","4","25.35","-105.75","1967.0","TEPEHUANES DGO., MX","FM-12","99999","V020","150,1,N,0030,1","06000,1,9,N","070000,1,N,1","+0210,1","-0113,1","10139,1","06,0000,9,1",,,,"08,1,+06000,9,02,9",,,"08,99,1,00,1,00,1,99999,9,00,1,07,1",,"01,9",,"120,M,+0228,1","240,N,+0030,1","99999,9,08191,1","6,1,006,1,+014,1",,,"SYN118AAXX  07181 76373 32988 81503 10210 21113 38191 40139 56006 80007 91745 333 10228 20030 30/// 56006 58014 88270 99020;","Q01  00002PRCP06"
"76373099999","2003-04-07T21:00:00","4","25.35","-105.75","1967.0","TEPEHUANES DGO., MX","FM-12","99999","V020","210,1,N,0010,1","03000,1,9,N","070000,1,N,1","+0248,1","-0147,1","10106,1","06,0000,9,1",,,,"08,1,+03000,9,04,9",,,"08,99,1,08,1,00,1,01250,1,07,1,00,1",,"01,9",,,,"99999,9,08183,1","6,1,008,1,+026,1",,,"SYN100AAXX  07211 76373 32688 82101 10248 21147 38183 40106 56008 88070 92038 333 30/// 56060 58026 88460;","Q01  00002PRCP06"
"76373099999","2003-04-08T18:00:00","4","25.35","-105.75","1967.0","TEPEHUANES DGO., MX","FM-12","99999","V020","120,1,N,0030,1","22000,1,9,N","070000,1,N,1","+0214,1","-0063,1","10165,1","06,0000,9,1",,,,"01,1,+06000,9,00,9",,,"01,99,1,00,1,00,1,99999,9,00,1,05,1",,"01,9",,"120,M,+0234,1","240,N,+0006,1","99999,9,08223,1","9,9,999,9,+032,1",,,"SYN112AAXX  08181 76373 32988 11203 10214 21063 38223 40165 5//// 80005 91738 333 10234 20006 30/// 56006 58032 81070;","Q01  00002PRCP06"
"76373099999","2003-04-09T21:00:00","4","25.35","-105.75","1967.0","TEPEHUANES DGO., MX","FM-12","99999","V020","120,1,N,0030,1","03000,1,9,N","070000,1,N,1","+0214,1","-0002,1","10127,1","06,0000,9,1",,,,"05,1,+03000,9,04,9",,,"08,99,1,05,1,00,1,01250,1,02,1,08,1",,"01,9",,,,"99999,9,08211,1","6,1,030,1,+011,1",,,"SYN106AAXX  09211 76373 32688 81203 10214 21002 38211 40127 56030 85028 92040 333 30/// 56066 58011 85460 86270;","Q01  00002PRCP06"
"76373099999","2003-04-10T00:00:00","4","25.35","-105.75","1967.0","TEPEHUANES DGO., MX","FM-12","99999","V020","090,1,N,0060,1","09000,1,9,N","070000,1,N,1","+0210,1","+0003,1","10091,1","06,0000,9,1","24,0000,9,1",,,"04,1,+03000,9,04,9",,,"08,99,1,04,1,00,1,01250,1,02,1,08,1",,"01,9",,"120,M,+0240,1","180,N,+0068,1","99999,9,08197,1","6,1,014,1,+006,1",,,"SYN130AAXX  10001 76373 32688 80906 10210 20003 38197 40091 56014 84028 92335 333 10240 20068 30/// 50560 56066 58006 70000 84460 84270;","Q01  00002PRCP06"
"76373099999","2003-04-11T15:00:00","4","25.35","-105.75","1967.0","TEPEHUANES DGO., MX","FM-12","99999","V020","310,1,N,0010,1","22000,1,9,N","070000,1,N,1","+0086,1","+0044,1","10208,1","06,0000,9,1",,,,"02,1,+06000,9,00,9",,,"02,99,1,00,1,00,1,99999,9,00,1,02,1",,"09,9",,,,"99999,9,08228,1",,,,"SYN100AAXX  11151 76373 32988 23101 10086 20044 38228 40208 5//// 80002 91438 333 31/// 56006 58/// 82070;","Q01  00002PRCP06"
"76373099999","2003-04-11T18:00:00","4","25.35","-105.75","1967.0","TEPEHUANES DGO., MX","FM-12","99999","V020","070,1,N,0020,1","22000,1,C,N","070000,1,N,1","+0194,1","+0040,1","10178,1","06,0000,9,1",,,,"01,1,+00300,9,08,9",,,"05,99,1,01,1,01,1,00450,1,00,1,04,1",,"01,9",,"120,M,+0212,1","240,N,+0022,1","99999,9,08214,1","6,1,014,1,-012,1",,,"SYN118AAXX  11181 76373 32488 50702 10194 20040 38214 40178 56014 81104 91738 333 10212 20022 30/// 56606 59012 81810 84070;","Q01  00002PRCP06"
"76373099999","2003-04-11T21:00:00","4","25.35","-105.75","1967.0","TEPEHUANES DGO., MX","FM-12","99999","V020","310,1,N,0080,1","22000,1,9,N","070000,1,N,1","+0252,1","-0045,1","10116,2","06,0000,9,1",,,,"01,1,+00300,9,08,9",,,"02,99,1,01,1,01,1,00450,1,00,1,02,1",,"01,9",,,,"99999,9,08188,1","6,1,026,1,-029,1",,,"SYN106AAXX  11211 76373 32488 23108 10252 21045 38188 40116 56026 81102 92036 333 30/// 56606 59029 81810 81070;","Q01+101163APOSLPQ02  00002PRCP06"
"76373099999","2003-04-13T00:00:00","4","25.35","-105.75","1967.0","TEPEHUANES DGO., MX","FM-12","99999","V020","300,1,N,0060,1","22000,1,9,N","070000,1,N,1","+0286,1","-0051,1","10027,1","06,0000,9,1","24,0000,9,1",,,,,,"03,99,1,03,1,02,1,00250,1,00,1,00,1",,"01,9",,"120,M,+0316,1","180,N,+0036,1","99999,9,08166,1","6,1,021,1,-005,1",,,"SYN124AAXX  13001 76373 32388 33006 10286 21051 38166 40027 56021 83200 92335 333 10316 20036 30/// 50450 56600 59005 70000 83820;","Q01  00002PRCP06"
"76373099999","2003-04-13T15:00:00","4","25.35","-105.75","1967.0","TEPEHUANES DGO., MX","FM-12","99999","V020","330,1,N,0010,1","22000,1,9,N","070000,1,N,1","+0142,1","-0001,1","10146,1","06,0000,9,1",,,,"04,1,+09000,9,02,9",,,"04,99,1,00,1,00,1,99999,9,00,1,08,1",,"01,9",,,,"99999,9,08235,1","9,9,999,9,+015,1",,,"SYN100AAXX  13151 76373 32988 43301 10142 21001 38235 40146 5//// 80008 91450 333 30/// 56006 58015 84280;","Q01  00002PRCP06"
"76373099999","2003-04-14T15:00:00","4","25.35","-105.75","1967.0","TEPEHUANES DGO., MX","FM-12","99999","V020","999,9,C,0000,1","22000,1,9,N","070000,1,N,1","+0146,1","-0007,1","10181,1","06,0000,9,1",,,,"01,1,+03000,9,03,9",,,"02,99,1,01,1,00,1,01250,1,03,1,02,1",,"01,9",,,,"99999,9,08251,1","9,9,999,9,+016,1",,,"SYN106AAXX  14151 76373 32688 20000 10146 21007 38251 40181 5//// 81032 91440 333 30/// 56066 58016 81360 81070;","Q01  00002PRCP06"
"76373099999","2003-04-14T18:00:00","4","25.35","-105.75","1967.0","TEPEHUANES DGO., MX","FM-12","99999","V020","090,1,N,0020,1","03600,1,C,N","070000,1,N,1","+0256,1","+0001,1","10165,1","06,0000,9,1",,,,"01,1,+00300,9,08,9","01,1,+03000,9,03,9",,"08,99,1,01,1,02,1,00450,1,03,1,08,1",,"01,9",,"120,M,+0288,1","240,N,+0072,1","99999,9,08243,1","6,1,008,1,+027,1",,,"SYN124AAXX  14181 76373 32488 80902 10256 20001 38243 40165 56008 81238 91736 333 10288 20072 30/// 56666 58027 81810 81360 86270;","Q01  00002PRCP06"
"76373099999","2003-04-14T21:00:00","4","25.35","-105.75","1967.0","TEPEHUANES DGO., MX","FM-12","99999","V020","280,1,N,0060,1","09000,1,C,N","070000,1,N,1","+0302,1","-0012,1","10097,2","06,0000,9,1",,,,"03,1,+00300,9,08,9",,,"08,99,1,03,1,01,1,00450,1,00,1,08,1",,"01,9",,,,"99999,9,08210,1","6,1,033,1,+013,1",,,"SYN106AAXX  14211 76373 32488 82806 10302 21012 38210 40097 56033 83108 92035 333 30/// 56606 58013 83810 86270;","Q01+100973APOSLPQ02  00002PRCP06"
"76373099999","2003-04-15T18:00:00","4","25.35","-105.75","1967.0","TEPEHUANES DGO., MX","FM-12","99999","V020","280,1,N,0060,1","06000,1,9,N","070000,1,N,1","+0258,1","+0013,1","10140,1","06,0000,9,1",,,,"05,1,+06000,9,00,9",,,"05,99,1,00,1,00,1,99999,9,00,1,06,1",,"01,9",,"120,M,+0272,1","240,N,+0072,1","99999,9,08217,1","8,1,007,1,-026,1",,,"SYN112AAXX  15181 76373 32988 52806 10258 20013 38217 40140 58007 80006 91745 333 10272 20072 30/// 56006 59026 85070;","Q01  00002PRCP06"
"76373099999","2003-04-15T21:00:00","4","25.35","-105.75","1967.0","TEPEHUANES DGO., MX","FM-12","99999","V020","280,1,N,0090,1","22000,1,C,N","070000,1,N,1","+0272,1","-0009,1","10095,1","06,0000,9,1",,,,"01,1,+00300,9,08,9",,,"05,99,1,01,1,01,1,00450,1,00,1,06,1",,"01,9",,,,"99999,9,08201,1","6,1,016,1,-009,1",,,"SYN106AAXX  15211 76373 32488 52809 10272 21009 38201 40095 56016 81106 92040 333 30/// 56606 59009 81810 84070;","Q01  00002PRCP06"
"76373099999","2003-04-16T18:00:00","4","25.35","-105.75","1967.0","TEPEHUANES DGO., MX","FM-12","99999","V020","330,1,N,0030,1","06000,1,9,N","070000,1,N,1","+0246,1","-0004,1","10145,1","06,0000,9,1",,,,"08,1,+06000,9,02,9",,,"08,99,1,00,1,00,1,99999,9,00,1,07,1",,"01,9",,"120,M,+0290,1",,"99999,9,08211,1","6,1,013,1,-006,1",,,"SYN118AAXX  16181 76373 32988 83303 10246 21004 38211 40145 56013 80007 91736 333 10290 2//// 30/// 56006 59006 88270 99020;","Q01  00002PRCP06"
"76373099999","2003-04-17T18:00:00","4","25.35","-105.75","1967.0","TEPEHUANES DGO., MX","FM-12","99999","V020","060,1,N,0010,1","03000,1,9,N","070000,1,N,1","+0232,1","-0031,1","10150,1","06,0000,9,1",,,,"06,1,+03000,9,03,9",,,"08,99,1,06,1,00,1,01750,1,03,1,06,1",,"01,9",,"120,M,+0250,1","240,N,+0040,1","99999,9,08210,1","6,1,012,1,-001,1",,,"SYN118AAXX  17181 76373 32788 80601 10232 21031 38210 40150 56012 86036 91742 333 10250 20040 30/// 56066 59001 86360 85070;","Q01  00002PRCP06"
"76373099999","2003-04-17T21:00:00","4","25.35","-105.75","1967.0","TEPEHUANES DGO., MX","FM-12","99999","V020","280,1,N,0060,1","06000,1,9,N","070000,1,N,1","+0292,1","-0053,1","10083,1","06,0000,9,1",,,,"01,1,+00300,9,08,9","02,1,+03000,9,03,9","08,1,+06000,9,02,9","08,99,1,01,1,01,1,00450,1,03,1,07,1",,"01,9",,,,"99999,9,08184,1","6,1,026,1,-002,1",,,"SYN118AAXX  17211 76373 32488 82806 10292 21053 38184 40083 56026 81137 92040 333 30/// 56666 59002 81810 82360 88270 99020;","Q01  00002PRCP06"
"76373099999","2003-04-18T00:00:00","4","25.35","-105.75","1967.0","TEPEHUANES DGO., MX","FM-12","99999","V020","310,1,N,0070,1","06000,1,C,N","070000,1,N,1","+0268,1","-0046,1","10041,1","06,0000,9,1","24,0000,9,1",,,"01,1,+03000,9,03,9","08,1,+06000,9,02,9",,"08,99,1,01,1,00,1,01250,1,03,1,07,1",,"01,9",,"120,M,+0319,1","180,N,+0040,1","99999,9,08179,1","6,1,005,1,-023,1",,,"SYN136AAXX  18001 76373 32688 83107 10268 21046 38179 40041 56005 81037 92340 333 10319 20040 30/// 5//// 56066 59023 70000 81360 88270 99020;","Q01  00002PRCP06"
"76373099999","2003-04-18T15:00:00","4","25.35","-105.75","1967.0","TEPEHUANES DGO., MX","FM-12","99999","V020","320,1,N,0010,1","22000,1,C,N","070000,1,N,1","+0150,1","+0025,1","10106,1",,,,,"03,1,+03000,9,03,9",,,"06,99,1,03,1,00,1,01750,1,03,1,06,1",,"01,9",,,,"99999,9,08195,1","9,9,999,9,-027,1",,,"SYN106AAXX  18151 76373 42788 63201 10150 20025 38195 40106 5//// 83036 91438 333 30/// 56066 59027 83360 83070;",
"76373099999","2003-04-18T18:00:00","4","25.35","-105.75","1967.0","TEPEHUANES DGO., MX","FM-12","99999","V020","270,1,N,0060,1","06000,1,9,N","070000,1,N,1","+0262,2","-0011,1","10079,1",,,,,"02,1,+03000,9,03,9","08,1,+06000,9,02,9",,"08,99,1,02,1,00,1,01750,1,03,1,07,1",,"01,9",,"120,M,+0276,1","240,N,+0060,1","99999,9,08173,1","6,1,022,1,-037,1",,,"SYN124AAXX  18181 76373 42788 82706 10262 21011 38173 40079 56022 82037 91740 333 10276 20060 30/// 56066 59037 82360 88270 99020;","Q01+002623ATOT  "
"76373099999","2003-04-19T03:00:00","4","25.35","-105.75","1967.0","TEPEHUANES DGO., MX","FM-12","99999","V020","300,1,N,0030,1","22000,1,9,N","000000,1,N,1","+0142,1","+0052,1","10049,1","06,0000,9,1",,,,"00,1,+99999,9,99,9",,,"00,99,1,00,1,00,1,99999,9,00,1,00,1",,"01,9",,,,"99999,9,08220,1","2,1,016,1,+999,9",,,"SYN082AAXX  19031 76373 32900 03003 10142 20052 38220 40049 52016 90245 333 30/// 58///;","Q01  00002PRCP06"
"76373099999","2003-04-19T15:00:00","4","25.35","-105.75","1967.0","TEPEHUANES DGO., MX","FM-12","99999","V020","270,1,N,0040,1","99999,9,9,N","070000,1,N,1","+0198,1","+0041,1","10122,1","06,0000,9,1",,,,"04,1,+09000,9,02,9",,,"08,99,1,00,1,00,1,99999,9,00,1,08,1",,"01,9",,,,"99999,9,08190,1","9,9,999,9,-005,1",,,"SYN106AAXX  19151 76373 32988 82704 10198 20041 38190 40122 5//// 80008 91445 333 30/// 56006 59005 84280 84080;","Q01  00002PRCP06"
"76373099999","2003-04-20T00:00:00","4","25.35","-105.75","1967.0","TEPEHUANES DGO., MX","FM-12","99999","V020","240,1,N,0060,1","01200,1,9,N","070000,1,N,1","+0240,1","+9999,9","10026,1","06,0000,9,1","24,0000,9,1",,,,,,"08,99,1,08,1,00,1,01250,1,04,1,00,1",,"01,9",,"120,M,+0298,1","180,N,+0120,1","99999,9,08167,1","2,1,005,1,+003,1",,,"SYN118AAXX  20001 76373 32688 82406 10240 38167 40026 52005 88040 92330 333 10298 20120 30/// 50860 56066 58003 70000 88660;","Q01  00002PRCP06"
"76373099999","2003-04-21T18:00:00","4","25.35","-105.75","1967.0","TEPEHUANES DGO., MX","FM-12","99999","V020","180,1,N,0020,1","09000,1,C,N","070000,1,N,1","+0260,1","+0016,1","10114,1","06,0000,9,1",,,,"01,1,+00300,9,08,9","03,1,+03000,9,03,9",,"05,99,1,01,1,01,1,00450,1,03,1,02,1",,"01,9",,"120,M,+0280,1","240,N,+0055,1","99999,9,08197,1","6,1,016,1,+999,9",,,"SYN124AAXX  21181 76373 32488 51802 10260 20016 38197 40114 56016 81132 91740 333 10280 20055 30/// 56666 58/// 81810 83360 81070;","Q01  00002PRCP06"
"76373099999","2003-04-21T21:00:00","4","25.35","-105.75","1967.0","TEPEHUANES DGO., MX","FM-12","99999","V020","270,1,N,0060,1","03000,1,9,N","070000,1,N,1","+0284,1","-0025,1","10072,1",,,,,"03,1,+00300,9,08,9","02,1,+03000,9,03,9",,"06,99,1,03,1,01,1,00450,1,03,1,01,1",,"01,9",,,,"99999,9,08183,1","6,1,014,1,+999,9",,,"SYN112AAXX  21211 76373 42488 62706 10284 21025 38183 40072 56014 83131 92036 333 30/// 56666 58/// 83810 82360 81070;",
"76373099999","2003-04-22T21:00:00","4","25.35","-105.75","1967.0","TEPEHUANES DGO., MX","FM-12","99999","V020","240,1,N,0090,1","06000,1,9,N","070000,1,N,1","+0274,1","-0012,1","10065,1",,,,,"01,1,+00300,9,08,9","01,1,+03000,9,03,9","08,1,+06000,9,06,9","08,99,1,01,1,01,1,00450,1,03,1,07,1",,"01,9",,,,"99999,9,08175,1","6,1,012,1,-008,1",,,"SYN118AAXX  22211 76373 42488 82409 10274 21012 38175 40065 56012 81137 92042 333 30/// 56666 59008 81810 81360 88670 99051;",
"76373099999","2003-04-23T00:00:00","4","25.35","-105.75","1967.0","TEPEHUANES DGO., MX","FM-12","99999","V020","240,1,N,0060,1","03600,1,9,N","070000,1,N,1","+0246,1","-0022,1","10024,1","24,0000,9,1",,,,"01,1,+00300,9,08,9","02,1,+03000,9,03,9",,"08,99,1,01,1,01,1,00450,1,03,1,08,1",,"01,9",,"120,M,+0290,1","180,N,+0040,1","99999,9,08170,1","6,1,015,1,-015,1",,,"SYN136AAXX  23001 76373 42488 82406 10246 21022 38170 40024 56015 81138 92345 333 10290 20040 30/// 50810 56666 59015 70000 81810 82360 88270;",
"76373099999","2003-04-23T18:00:00","4","25.35","-105.75","1967.0","TEPEHUANES DGO., MX","FM-12","99999","V020","240,1,N,0090,1","22000,1,9,N","070000,1,N,1","+0250,1","-0021,1","10083,1","06,0000,9,1",,,,"01,1,+03000,9,03,9",,,"03,99,1,01,1,00,1,01750,1,03,1,05,1",,"01,9",,"120,M,+0262,1","240,N,+0022,1","99999,9,08173,1","7,1,002,1,-014,1",,,"SYN118AAXX  23181 76373 32788 32409 10250 21021 38173 40083 57002 81035 91742 333 10262 20022 30/// 56066 59014 81360 82070;","Q01  00002PRCP06"
"76373099999","2003-04-23T21:00:00","4","25.35","-105.75","1967.0","TEPEHUANES DGO., MX","FM-12","99999","V020","240,1,N,0090,1","06000,1,9,N","070000,1,N,1","+0264,1","-0034,1","10053,1","06,0000,9,1",,,,"01,1,+00300,9,08,9","01,1,+03000,9,03,9","08,1,+06000,9,02,9","08,99,1,01,1,01,1,00450,1,03,1,07,1",,"01,9",,,,"99999,9,08167,1","6,1,006,1,-008,1",,,"SYN118AAXX  23211 76373 32488 82409 10264 21034 38167 40053 56006 81137 92040 333 30/// 56666 59008 81810 81360 88270 99020;","Q01  00002PRCP06"
"76373099999","2003-04-24T18:00:00","4","25.35","-105.75","1967.0","TEPEHUANES DGO., MX","FM-12","99999","V020","300,1,N,0040,1","22000,1,9,N","070000,1,N,1","+0254,1","-0007,1","10109,1","06,0000,9,1",,,,"02,1,+06000,9,00,9",,,"02,99,1,00,1,00,1,99999,9,00,1,05,1",,"01,9",,"120,M,+0270,1","240,N,+0060,1","99999,9,08185,1","8,1,010,1,+010,1",,,"SYN112AAXX  24181 76373 32988 23004 10254 21007 38185 40109 58010 80005 91738 333 10270 20060 30/// 56006 58010 82070;","Q01  00002PRCP06"
"76373099999","2003-04-25T21:00:00","4","25.35","-105.75","1967.0","TEPEHUANES DGO., MX","FM-12","99999","V020","280,1,N,0070,1","03600,1,C,N","070000,1,N,1","+0280,1","-0019,1","10060,1","06,0000,9,1",,,,"01,1,+00300,9,08,9","02,1,+03000,9,03,9",,"07,99,1,01,1,01,1,00450,1,03,1,05,1",,"01,9",,,,"99999,9,08163,1","6,1,028,1,+010,1",,,"SYN112AAXX  25211 76373 32488 72807 10280 21019 38163 40060 56028 81135 92040 333 30/// 56666 58010 81810 82360 84070;","Q01  00002PRCP06"
"76373099999","2003-04-26T15:00:00","4","25.35","-105.75","1967.0","TEPEHUANES DGO., MX","FM-12","99999","V020","999,9,C,0000,1","22000,1,9,N","070000,1,N,1","+0176,1","+0066,1","10090,1","06,0000,9,1",,,,"04,1,+06000,9,02,9",,,"04,99,1,00,1,00,1,99999,9,00,1,08,1",,"01,9",,,,"99999,9,08187,1","9,9,999,9,-021,1",,,"SYN100AAXX  26151 76373 32988 40000 10176 20066 38187 40090 5//// 84008 91455 333 30/// 56006 59021 84270;","Q01+000042SCOTLCQ02  00002PRCP06"
"76373099999","2003-04-26T18:00:00","4","25.35","-105.75","1967.0","TEPEHUANES DGO., MX","FM-12","99999","V020","050,1,N,0010,1","22000,1,9,N","070000,1,N,1","+0236,1","+0020,1","10110,1","06,0000,9,1",,,,"03,1,+06000,9,00,9",,,"03,99,1,00,1,00,1,99999,9,00,1,05,1",,"01,9",,"120,M,+0250,1","240,N,+0103,1","99999,9,08175,1","7,1,012,1,-016,1",,,"SYN112AAXX  26181 76373 32988 30501 10236 20020 38175 40110 57012 83005 91730 333 10250 20103 30/// 56006 59016 83070;","Q01+000032SCOTLCQ02  00002PRCP06"
"76373099999","2003-04-26T21:00:00","4","25.35","-105.75","1967.0","TEPEHUANES DGO., MX","FM-12","99999","V020","220,1,N,0070,1","09000,1,C,N","070000,1,N,1","+0286,1","-0037,1","10028,2","06,0000,9,1",,,,"01,1,+03000,9,03,9",,,"07,99,1,01,1,00,1,01250,1,03,1,05,1",,"01,9",,,,"99999,9,08156,1","7,1,019,1,-007,1",,,"SYN106AAXX  26211 76373 32688 72207 10286 21037 38156 40028 57019 81035 92030 333 30/// 56066 59007 81360 86070;","Q01+100283APOSLPQ02  00002PRCP06"
"76373099999","2003-04-27T00:00:00","4","25.35","-105.75","1967.0","TEPEHUANES DGO., MX","FM-12","99999","V020","230,1,N,0040,1","99999,9,9,N","070000,1,N,1","+0246,1","+0013,1","10008,1","06,0000,9,1","24,0000,9,1",,,,,,"08,99,1,00,1,00,1,99999,9,00,1,05,1",,"01,9",,"120,M,+0310,1","180,N,+0103,1","99999,9,08157,1","2,1,001,1,-002,1",,,"SYN124AAXX  27001 76373 32988 82304 10246 20013 38157 40008 52001 88005 92335 333 10310 20103 30/// 50790 56006 59002 70000 88070;","Q01+000082SCOTLCQ02  00002PRCP06"
"76373099999","2003-04-27T15:00:00","4","25.35","-105.75","1967.0","TEPEHUANES DGO., MX","FM-12","99999","V020","320,1,N,0010,1","22000,1,9,N","070000,1,N,1","+0140,1","+0022,1","10124,1","06,0000,9,1",,,,"04,1,+03000,9,03,9",,,"04,99,1,04,1,00,1,01250,1,07,1,05,1",,"01,9",,,,"99999,9,08200,1","9,9,999,9,+013,1",,,"SYN106AAXX  27151 76373 32688 43201 10140 20022 38200 40124 5//// 84075 91440 333 30/// 56066 58013 84360 84070;","Q01  00002PRCP06"
"76373099999","2003-04-27T18:00:00","4","25.35","-105.75","1967.0","TEPEHUANES DGO., MX","FM-12","99999","V020","090,1,N,0010,1","03000,1,9,N","070000,1,N,1","+0236,1","-0024,1","10105,1","06,0000,9,1",,,,"06,1,+03000,9,03,9",,,"06,99,1,06,1,00,1,01250,1,07,1,05,1",,"01,9",,"120,M,+0256,1","240,N,+0084,1","99999,9,08191,1","7,1,009,1,+016,1",,,"SYN118AAXX  27181 76373 32688 60901 10236 21024 38191 40105 57009 86075 91740 333 10256 20084 30/// 56066 58016 86360 82070;","Q01  00002PRCP06"
"76373099999","2003-04-28T00:00:00","4","25.35","-105.75","1967.0","TEPEHUANES DGO., MX","FM-12","99999","V020","270,1,N,0040,1","01200,1,9,N","070000,1,N,1","+0290,1","-0049,1","10007,1","06,0000,9,1","24,0000,9,1",,,,,,"08,99,1,08,1,00,1,01250,1,07,1,00,1",,"01,9",,"120,M,+0312,1","180,N,+0084,1","99999,9,08155,1","7,1,009,1,-002,1",,,"SYN124AAXX  28001 76373 32688 82704 10290 21049 38155 40007 57009 88070 92332 333 10312 20084 30/// 50690 56060 59002 70000 86360;","Q01  00002PRCP06"
"76373099999","2003-04-28T03:00:00","4","25.35","-105.75","1967.0","TEPEHUANES DGO., MX","FM-12","99999","V020","270,1,N,0020,1","03000,1,9,N","000000,1,N,1","+0226,1","-0029,1","10004,1","06,0000,9,1",,,,"08,1,+03000,9,03,9",,,"08,99,1,08,1,00,1,01250,1,07,1,00,1",,"01,9",,,,"99999,9,08169,1","2,1,014,1,-010,1",,,"SYN100AAXX  28031 76373 32600 82702 10226 21029 38169 40004 52014 88070 90245 333 30/// 56060 59010 88360;","Q01  00002PRCP06"
"76373099999","2003-04-28T15:00:00","4","25.35","-105.75","1967.0","TEPEHUANES DGO., MX","FM-12","99999","V020","999,9,C,0000,1","09000,1,C,N","070000,1,N,1","+0158,1","+0023,1","10103,1","06,0000,9,1",,,,"02,1,+03000,9,03,9",,,"08,99,1,02,1,00,1,01750,1,03,1,08,1",,"01,9",,,,"99999,9,08199,1","9,9,999,9,-001,1",,,"SYN106AAXX  28151 76373 32788 80000 10158 20023 38199 40103 5//// 82038 91437 333 30/// 56066 59001 82360 87270;","Q01  00002PRCP06"
"76373099999","2003-04-28T18:00:00","4","25.35","-105.75","1967.0","TEPEHUANES DGO., MX","FM-12","99999","V020","060,1,N,0010,1","09000,1,C,N","070000,1,N,1","+0242,1","-0026,1","10094,1","06,0000,9,1",,,,"01,1,+03000,9,03,9",,,"08,99,1,01,1,00,1,01750,1,03,1,08,1",,"01,9",,"120,M,+0264,1","240,N,+0114,1","99999,9,08195,1","7,1,004,1,+004,1",,,"SYN118AAXX  28181 76373 32788 80601 10242 21026 38195 40094 57004 81038 91736 333 10264 20114 30/// 56066 58004 81360 82770;","Q01  00002PRCP06"
"76373099999","2003-04-28T21:00:00","4","25.35","-105.75","1967.0","TEPEHUANES DGO., MX","FM-12","99999","V020","260,1,N,0050,1","09000,1,C,N","070000,1,N,1","+0276,1","-0063,1","10061,1","06,0000,9,1",,,,"03,1,+03000,9,03,9",,,"08,99,1,03,1,00,1,01750,1,04,1,08,1",,"01,9",,,,"99999,9,08182,1","6,1,013,1,+018,1",,,"SYN106AAXX  28211 76373 32788 82605 10276 21063 38182 40061 56013 83048 92045 333 30/// 56066 58018 83360 88270;","Q01  00002PRCP06"
"76373099999","2003-04-29T00:00:00","4","25.35","-105.75","1967.0","TEPEHUANES DGO., MX","FM-12","99999","V020","240,1,N,0030,1","01500,1,9,N","070000,1,N,1","+0250,1","-0058,1","10035,1","06,0000,9,1","24,0000,9,1",,,,,,"08,99,1,08,1,00,1,01750,1,07,1,00,1",,"01,9",,"120,M,+0295,1","180,N,+0114,1","99999,9,08176,1","6,1,006,1,+021,1",,,"SYN124AAXX  29001 76373 32788 82403 10250 21058 38176 40035 56006 88070 92359 333 10295 20114 30/// 50880 56060 58021 70000 88360;","Q01  00002PRCP06"
"76373099999","2003-04-29T15:00:00","4","25.35","-105.75","1967.0","TEPEHUANES DGO., MX","FM-12","99999","V020","999,9,C,0000,1","06000,1,9,N","070000,1,N,1","+0156,1","+0034,1","10108,1","06,0000,9,1",,,,"03,1,+03000,9,03,9","08,1,+06000,9,02,9",,"08,99,1,03,1,00,1,01750,1,03,1,07,1",,"01,9",,,,"99999,9,08201,1","1,1,005,1,+002,1",,,"SYN112AAXX  29151 76373 32788 80000 10156 20034 38201 40108 51005 83037 91445 333 30/// 56066 58002 83360 88270 99020;","Q01  00002PRCP06"
"76373099999","2003-04-29T18:00:00","4","25.35","-105.75","1967.0","TEPEHUANES DGO., MX","FM-12","99999","V020","999,9,C,0000,1","03000,1,9,N","070000,1,N,1","+0226,1","-0029,1","10116,1","06,0000,9,1",,,,"08,1,+03000,9,05,9",,,"08,99,1,08,1,00,1,01750,1,07,1,00,1",,"01,9",,"120,M,+0238,1","240,N,+0115,1","99999,9,08212,1","2,1,011,1,+017,1",,,"SYN112AAXX  29181 76373 32788 80000 10226 21029 38212 40116 52011 88070 91755 333 10238 20115 30/// 56060 58017 88560;","Q01  00002PRCP06"
"76373099999","2003-04-30T18:00:00","4","25.35","-105.75","1967.0","TEPEHUANES DGO., MX","FM-12","99999","V020","240,1,N,0060,1","03600,1,C,N","070000,1,N,1","+0266,1","-0003,1","10105,1","06,0000,9,1",,,,"02,1,+00300,9,08,9","02,1,+03000,9,03,9",,"06,99,1,02,1,01,1,00450,1,03,1,02,1",,"01,9",,"120,M,+0280,1","240,N,+0050,1","99999,9,08288,1","6,1,008,1,-024,1",,,"SYN124AAXX  30181 76373 32488 62406 10266 21003 38288 40105 56008 82132 91742 333 10280 20050 30/// 56666 59024 82810 82360 82070;","Q01  00002PRCP06"
"76373099999","2003-04-30T21:00:00","4","25.35","-105.75","1967.0","TEPEHUANES DGO., MX","FM-12","99999","V020","270,1,N,0070,1","22000,1,9,N","070000,1,N,1","+0274,1","-0012,1","10064,1","06,0000,9,1",,,,"03,1,+00300,9,08,9",,,"04,99,1,03,1,01,1,00450,1,00,1,05,1",,"01,9",,,,"99999,9,08178,2","6,1,010,1,-024,1",,,"SYN106AAXX  30211 76373 32488 42707 10274 21012 38178 40064 56010 83105 92046 333 30/// 56606 59024 83810 81070;","Q01+081783APOSP Q02  00002PRCP06"
"76373099999","2003-05-01T18:00:00","4","25.35","-105.75","1967.0","TEPEHUANES DGO., MX","FM-12","99999","V020","280,1,N,0070,1","22000,1,9,N","070000,1,N,1","+0270,1","-0059,1","10110,1","06,0000,9,1",,,,"01,1,+03000,9,03,9",,,"03,99,1,01,1,00,1,01750,1,03,1,05,1",,"01,9",,"120,M,+0286,1","240,N,+0050,1","99999,9,08201,1","6,1,007,1,+013,1",,,"SYN118AAXX  01181 76373 32788 32807 10270 21059 38201 40110 56007 81035 91736 333 10286 20050 30/// 56066 58013 81360 82070;","Q01  00002PRCP06"
"76373099999","2003-05-01T21:00:00","4","25.35","-105.75","1967.0","TEPEHUANES DGO., MX","FM-12","99999","V020","280,1,N,0080,1","06000,1,9,N","070000,1,N,1","+0268,1","-0085,1","10085,1","06,0000,9,1",,,,"02,1,+03000,9,03,9","08,1,+06000,9,02,9",,"08,99,1,02,1,00,1,01750,1,03,1,07,1",,"01,9",,,,"99999,9,08194,1","6,1,007,1,+016,1",,,"SYN112AAXX  01211 76373 32788 82808 10268 21085 38194 40085 56007 82037 92040 333 30/// 56066 58016 82360 88270 99020;","Q01  00002PRCP06"
"76373099999","2003-05-02T00:00:00","4","25.35","-105.75","1967.0","TEPEHUANES DGO., MX","FM-12","99999","V020","280,1,N,0070,1","06000,1,C,N","070000,1,N,1","+0262,1","-0038,1","10054,1","06,0000,9,1","24,0000,9,1",,,"03,1,+03000,9,03,9","08,1,+06000,9,02,9",,"08,99,1,03,1,00,1,01750,1,03,1,07,1",,"01,9",,"120,M,+0310,1","180,N,+0050,1","99999,9,08190,1","7,1,004,1,+013,1",,,"SYN136AAXX  02001 76373 32788 82807 10262 21038 38190 40054 57004 83037 92335 333 10310 20050 30/// 51040 56066 58013 70000 83360 88270 99020;","Q01  00002PRCP06"
"76373099999","2003-05-02T03:00:00","4","25.35","-105.75","1967.0","TEPEHUANES DGO., MX","FM-12","99999","V020","270,1,N,0020,1","09000,1,9,N","020000,1,N,1","+0200,1","-0055,1","10054,1","06,0000,9,1",,,,"08,1,+09000,9,02,9",,,"08,99,1,00,1,00,1,99999,9,00,1,07,1",,"01,9",,,,"99999,9,08207,1","2,1,003,1,+999,9",,,"SYN100AAXX  02031 76373 32670 82702 10200 21055 38207 40054 52003 80007 90230 333 30/// 56006 58/// 88280;","Q01+012502SCOLCBQ02  00002PRCP06"
"76373099999","2003-05-02T15:00:00","4","25.35","-105.75","1967.0","TEPEHUANES DGO., MX","FM-12","99999","V020","999,9,C,0000,1","09000,1,C,N","070000,1,N,1","+0102,1","-0016,1","10155,1","06,0000,9,1",,,,"02,1,+03000,9,03,9",,,"08,99,1,02,1,00,1,01750,1,03,1,08,1",,"01,9",,,,"99999,9,08221,1","9,9,999,9,+013,1",,,"SYN106AAXX  02151 76373 32788 80000 10102 21016 38221 40155 5//// 82038 91440 333 30/// 56066 58013 82360 86270;","Q01  00002PRCP06"
"76373099999","2003-05-02T18:00:00","4","25.35","-105.75","1967.0","TEPEHUANES DGO., MX","FM-12","99999","V020","090,1,N,0010,1","06000,1,9,N","070000,1,N,1","+0240,1","-0022,1","10135,1","06,0000,9,1",,,,"02,1,+03000,9,03,9","07,1,+06000,9,02,9",,"08,99,1,02,1,00,1,01750,1,03,1,07,1",,"01,9",,"120,M,+0260,1","240,N,+0060,1","99999,9,08210,1","6,1,011,1,+009,1",,,"SYN124AAXX  02181 76373 32788 80901 10240 21022 38210 40135 56011 82037 91740 333 10260 20060 30/// 56066 58009 82360 87270 99020;","Q01  00002PRCP06"
"76373099999","2003-05-02T21:00:00","4","25.35","-105.75","1967.0","TEPEHUANES DGO., MX","FM-12","99999","V020","310,1,N,0060,1","09000,1,C,N","070000,1,N,1","+0296,1","-0090,1","10081,1","06,0000,9,1",,,,"04,1,+03000,9,03,9",,,"08,99,1,04,1,00,1,01750,1,03,1,08,1",,"01,9",,,,"99999,9,08189,1","6,1,021,1,-005,1",,,"SYN106AAXX  02211 76373 32788 83106 10296 21090 38189 40081 56021 84038 92040 333 30/// 56066 59005 84360 86270;","Q01  00002PRCP06"
"76373099999","2003-05-03T00:00:00","4","25.35","-105.75","1967.0","TEPEHUANES DGO., MX","FM-12","99999","V020","270,1,N,0030,1","09000,1,9,N","070000,1,N,1","+0296,1","-0052,1","10042,1","06,0000,9,1","24,0000,9,1",,,"02,1,+03000,9,03,9",,,"08,99,1,02,1,00,1,01250,1,03,1,06,1",,"01,9",,"120,M,+0334,1","180,N,+0060,1","99999,9,08184,1","6,1,005,1,+006,1",,,"SYN130AAXX  03001 76373 32688 82703 10296 21052 38184 40042 56005 82036 92355 333 10334 20060 30/// 50770 56066 58006 70000 82360 86080;","Q01  00002PRCP06"
"76373099999","2003-05-03T03:00:00","4","25.35","-105.75","1967.0","TEPEHUANES DGO., MX","FM-12","99999","V020","270,1,N,0040,1","22000,1,C,N","010000,1,N,1","+0236,1","-0031,1","10028,1","06,0000,9,1",,,,"02,1,+03000,9,03,9",,,"06,99,1,02,1,00,1,01250,1,03,1,06,1",,"01,9",,,,"99999,9,08196,1","2,1,012,1,+011,1",,,"SYN106AAXX  03031 76373 32660 62704 10236 21031 38196 40028 52012 82036 90250 333 30/// 56066 58011 82360 84080;","Q01  00002PRCP06"
"76373099999","2003-05-03T15:00:00","4","25.35","-105.75","1967.0","TEPEHUANES DGO., MX","FM-12","99999","V020","999,9,C,0000,1","03000,1,9,N","070000,1,N,1","+0158,1","+0023,1","10123,1","06,0000,9,1",,,,"08,1,+03000,9,03,9",,,"08,99,1,08,1,00,1,01250,1,03,1,00,1",,"01,9",,,,"99999,9,08223,1","9,9,999,9,+002,1",,,"SYN100AAXX  03151 76373 32688 80000 10158 20023 38223 40123 5//// 88030 91450 333 30/// 56060 58002 88360;","Q01  00002PRCP06"
"76373099999","2003-05-03T18:00:00","4","25.35","-105.75","1967.0","TEPEHUANES DGO., MX","FM-12","99999","V020","280,1,N,0040,1","03000,1,9,N","070000,1,N,1","+0286,2","-0036,1","10112,1","06,0000,9,1",,,,"07,1,+03000,9,03,9",,,"07,99,1,07,1,00,1,01250,1,03,1,00,1",,"01,9",,"120,M,+0296,1","240,N,+0118,1","99999,9,08218,1","9,9,999,9,+008,1",,,"SYN106AAXX  03181 76373 32688 72804 10286 21036 38218 40112 87030 91750 333 10296 20118 30/// 56060 58008 87360;","Q01+002863ATOT  Q02  00002PRCP06"
"76373099999","2003-05-04T03:00:00","4","25.35","-105.75","1967.0","TEPEHUANES DGO., MX","FM-12","99999","V020","270,1,N,0030,1","22000,1,9,N","010000,1,N,1","+0240,1","-0035,1","10030,1","06,0000,9,1",,,,"00,1,+99999,9,99,9",,,"00,99,1,00,1,00,1,99999,9,00,1,00,1",,"01,9",,,,"99999,9,08206,1","2,1,024,1,+010,1",,,"SYN082AAXX  04031 76373 32960 02703 10240 21035 38206 40030 52024 90255 333 30/// 58010;","Q01  00002PRCP06"
"76373099999","2003-05-04T15:00:00","4","25.35","-105.75","1967.0","TEPEHUANES DGO., MX","FM-12","99999","V020","310,1,N,0020,1","09000,1,9,N","070000,1,N,1","+0166,1","-0033,1","10116,1","06,0000,9,1",,,,"08,1,+09000,9,00,9",,,"08,99,1,00,1,00,1,99999,9,00,1,04,1",,"01,9",,,,"99999,9,08211,1","9,9,999,9,-012,1",,,"SYN100AAXX  04151 76373 32988 83102 10166 21033 38211 40116 5//// 80004 91430 333 30/// 56006 59012 88080;","Q01  00002PRCP06"
"76373099999","2003-05-04T21:00:00","4","25.35","-105.75","1967.0","TEPEHUANES DGO., MX","FM-12","99999","V020","270,1,N,0060,1","09000,1,9,N","070000,1,N,1","+0328,1","-0091,1","10024,2","06,0000,9,1",,,,"08,1,+09000,9,00,9",,,"08,99,1,00,1,00,1,99999,9,00,1,04,1",,"01,9",,,,"99999,9,08166,1","6,1,029,1,-023,1",,,"SYN100AAXX  04211 76373 32988 82706 10328 21091 38166 40024 56029 80004 92035 333 30/// 56006 59023 88080;","Q01+100243APOSLPQ02  00002PRCP06"
"76373099999","2003-05-05T15:00:00","4","25.35","-105.75","1967.0","TEPEHUANES DGO., MX","FM-12","99999","V020","999,9,C,0000,1","22000,1,9,N","070000,1,N,1","+0192,1","-0018,1","10080,1","06,0000,9,1",,,,"01,1,+03000,9,03,9",,,"03,99,1,01,1,00,1,01750,1,03,1,05,1",,"01,9",,,,"99999,9,08184,1","9,9,999,9,-027,1",,,"SYN106AAXX  05151 76373 32788 30000 10192 21018 38184 40080 5//// 81035 91440 333 30/// 56066 59027 81360 82070;","Q01  00002PRCP06"
"76373099999","2003-05-05T18:00:00","4","25.35","-105.75","1967.0","TEPEHUANES DGO., MX","FM-12","99999","V020","230,1,N,0060,1","22000,1,9,N","070000,1,N,1","+0300,1","-0025,1","10053,1","06,0000,9,1",,,,"01,1,+03000,9,03,9",,,"04,99,1,01,1,00,1,01750,1,03,1,05,1",,"01,9",,"120,M,+0318,1","240,N,+0102,1","99999,9,08171,1","6,1,013,1,+024,1",,,"SYN118AAXX  05181 76373 32788 42306 10300 21025 38171 40053 56013 81035 91740 333 10318 20102 30/// 56066 58024 81360 83070;","Q01  00002PRCP06"
"76373099999","2003-05-05T21:00:00","4","25.35","-105.75","1967.0","TEPEHUANES DGO., MX","FM-12","99999","V020","270,1,N,0080,1","22000,1,9,N","070000,1,N,1","+0300,1","+0141,2","10018,1","06,0000,9,1",,,,"01,1,+03000,9,03,9",,,"03,99,1,01,1,00,1,01750,1,04,1,05,1",,"01,9",,,,"99999,9,08160,1","6,1,011,1,+999,9",,,"SYN106AAXX  05211 76373 32788 32708 10300 20141 38160 40018 56011 81045 92038 333 30/// 56066 58/// 81360 82070;","Q01+001413ATOD  Q02  00002PRCP06"
"76373099999","2003-05-06T15:00:00","4","25.35","-105.75","1967.0","TEPEHUANES DGO., MX","FM-12","99999","V020","999,9,C,0000,1","22000,1,9,N","070000,1,N,1","+0150,1","-0007,1","10090,1","06,0000,9,1",,,,"03,1,+06000,9,00,9",,,"03,99,1,00,1,00,1,99999,9,00,1,05,1",,"01,9",,,,"99999,9,08190,1","9,9,999,9,+006,1",,,"SYN100AAXX  06151 76373 32988 30000 10150 21007 38190 40090 5//// 80005 91436 333 30/// 56006 58006 83070;","Q01  00002PRCP06"
"76373099999","2003-05-06T18:00:00","4","25.35","-105.75","1967.0","TEPEHUANES DGO., MX","FM-12","99999","V020","300,1,N,0050,1","22000,1,9,N","070000,1,N,1","+0278,1","-0150,1","10070,1","06,0000,9,1",,,,"03,1,+06000,9,00,9",,,"03,99,1,00,1,00,1,99999,9,00,1,06,1",,"01,9",,"120,M,+0296,1","240,N,+0060,1","99999,9,08180,1","8,1,010,1,+009,1",,,"SYN112AAXX  06181 76373 32988 33005 10278 21150 38180 40070 58010 80006 91748 333 10296 20060 30/// 56006 58009 83070;","Q01  00002PRCP06"
"76373099999","2003-05-06T21:00:00","4","25.35","-105.75","1967.0","TEPEHUANES DGO., MX","FM-12","99999","V020","300,1,N,0080,1","22000,1,9,N","070000,1,N,1","+0314,1","-0178,1","10023,1","06,0000,9,1",,,,"02,1,+06000,9,00,9",,,"02,99,1,00,1,00,1,99999,9,00,1,05,1",,"01,9",,,,"99999,9,08161,1","6,1,019,1,+001,1",,,"SYN100AAXX  06211 76373 32988 23008 10314 21178 38161 40023 56019 80005 92040 333 30/// 56006 58001 82070;","Q01  00002PRCP06"
"76373099999","2003-05-07T21:00:00","4","25.35","-105.75","1967.0","TEPEHUANES DGO., MX","FM-12","99999","V020","290,1,N,0080,1","22000,1,9,N","070000,1,N,1","+0324,1","-0171,1","10041,1","06,0000,9,1",,,,"00,1,+99999,9,99,9",,,"00,99,1,00,1,00,1,99999,9,00,1,00,1",,"01,9",,,,"99999,9,08166,1","7,1,017,1,+005,1",,,"SYN082AAXX  07211 76373 32988 02908 10324 21171 38166 40041 57017 92035 333 30/// 58005;","Q01  00002PRCP06"
"76373099999","2003-05-08T15:00:00","4","25.35","-105.75","1967.0","TEPEHUANES DGO., MX","FM-12","99999","V020","300,1,N,0010,1","22000,1,9,N","070000,1,N,1","+0150,1","-0010,1","10100,1","06,0000,9,1",,,,"00,1,+99999,9,99,9",,,"00,99,1,00,1,00,1,99999,9,00,1,00,1",,"01,9",,,,"99999,9,08199,1","9,9,999,9,-003,1",,,"SYN082AAXX  08151 76373 32988 03001 10150 21010 38199 40100 5//// 91443 333 30/// 59003;","Q01  00002PRCP06"
"76373099999","2003-05-08T18:00:00","4","25.35","-105.75","1967.0","TEPEHUANES DGO., MX","FM-12","99999","V020","330,1,N,0040,1","22000,1,9,N","070000,1,N,1","+0272,1","-0117,1","10061,1","06,0000,9,1",,,,"00,1,+99999,9,99,9",,,"00,99,1,00,1,00,1,99999,9,00,1,00,1",,"01,9",,"120,M,+0290,1","240,N,+0046,1","99999,9,08178,1","6,1,021,1,-005,1",,,"SYN094AAXX  08181 76373 32988 03304 10272 21117 38178 40061 56021 91740 333 10290 20046 30/// 59005;","Q01  00002PRCP06"
"76373099999","2003-05-08T21:00:00","4","25.35","-105.75","1967.0","TEPEHUANES DGO., MX","FM-12","99999","V020","270,1,N,0060,1","22000,1,9,N","070000,1,N,1","+0336,1","-0123,1","10028,1","06,0000,9,1",,,,"00,1,+99999,9,99,9",,,"00,99,1,00,1,00,1,99999,9,00,1,00,1",,"01,9",,,,"99999,9,08164,1","6,1,014,1,-002,1",,,"SYN082AAXX  08211 76373 32988 02706 10336 21123 38164 40028 56014 92035 333 30/// 59002;","Q01  00002PRCP06"
"76373099999","2003-05-09T15:00:00","4","25.35","-105.75","1967.0","TEPEHUANES DGO., MX","FM-12","99999","V020","340,1,N,0020,1","22000,1,9,N","070000,1,N,1","+0152,1","-0043,1","10107,1","06,0000,9,1",,,,"01,1,+06000,9,00,9",,,"01,99,1,00,1,00,1,99999,9,00,1,05,1",,"01,9",,,,"99999,9,08195,1","9,9,999,9,-004,1",,,"SYN100AAXX  09151 76373 32988 13402 10152 21043 38195 40107 5//// 80005 91438 333 30/// 56006 59004 81070;","Q01  00002PRCP06"
"76373099999","2003-05-09T21:00:00","4","25.35","-105.75","1967.0","TEPEHUANES DGO., MX","FM-12","99999","V020","240,1,N,0060,1","06000,1,9,N","070000,1,N,1","+0320,1","-0082,1","10037,1","06,0000,9,1",,,,"06,1,+06000,9,02,9",,,"06,99,1,00,1,00,1,99999,9,00,1,08,1",,"01,9",,,,"99999,9,08172,1","6,1,010,1,+008,1",,,"SYN100AAXX  09211 76373 32988 62406 10320 21082 38172 40037 56010 80008 92040 333 30/// 56006 58008 86270;","Q01  00002PRCP06"
"76373099999","2003-05-12T15:00:00","4","25.35","-105.75","1967.0","TEPEHUANES DGO., MX","FM-12","99999","V020","130,1,N,0010,1","22000,1,9,N","070000,1,N,1","+0182,1","-0043,1","10113,1","06,0000,9,1",,,,"00,1,+99999,9,99,9",,,"00,99,1,00,1,00,1,99999,9,00,1,00,1",,"01,9",,,,"99999,9,08221,1",,,,"SYN082AAXX  12151 76373 32988 01301 10182 21043 38221 40113 5//// 91440 333 30/// 58///;","Q01  00002PRCP06"
"76373099999","2003-05-12T18:00:00","4","25.35","-105.75","1967.0","TEPEHUANES DGO., MX","FM-12","99999","V020","060,1,N,0010,1","22000,1,9,N","070000,1,N,1","+0306,1","-0027,1","10089,1","06,0000,9,1",,,,"00,1,+99999,9,99,9",,,"00,99,1,00,1,00,1,99999,9,00,1,00,1",,"01,9",,"120,M,+0324,1","240,N,+0092,1","99999,9,08209,1","6,1,012,1,+999,9",,,"SYN094AAXX  12181 76373 32988 00601 10306 21027 38209 40089 56012 91742 333 10324 20092 30/// 58///;","Q01  00002PRCP06"
"76373099999","2003-05-12T21:00:00","4","25.35","-105.75","1967.0","TEPEHUANES DGO., MX","FM-12","99999","V020","120,1,N,0050,1","09000,1,C,N","070000,1,N,1","+0344,1","-0049,1","10030,1","06,0000,9,1",,,,"02,1,+00300,9,08,9",,,"08,99,1,02,1,01,1,00450,1,00,1,08,1",,"01,9",,,,"99999,9,08180,1","6,1,029,1,+999,9",,,"SYN106AAXX  12211 76373 32488 81205 10344 21049 38180 40030 56029 82108 92050 333 30/// 56606 58/// 82810 86270;","Q01  00002PRCP06"
"76373099999","2003-05-13T18:00:00","4","25.35","-105.75","1967.0","TEPEHUANES DGO., MX","FM-12","99999","V020","090,1,N,0030,1","22000,1,9,N","070000,1,N,1","+0298,1","+0052,1","10098,1","06,0000,9,1",,,,"02,1,+00300,9,09,9",,,"02,99,1,02,1,03,1,00450,1,00,1,00,1",,"01,9",,"120,M,+0320,1","240,N,+0102,1","99999,9,08208,1","9,9,999,9,-013,1",,,"SYN112AAXX  13181 76373 32488 20903 10298 20052 38208 40098 5//// 82300 91740 333 10320 20102 30/// 56600 59013 82910;","Q01  00002PRCP06"
"76373099999","2003-05-13T21:00:00","4","25.35","-105.75","1967.0","TEPEHUANES DGO., MX","FM-12","99999","V020","120,1,N,0010,1","22000,1,9,N","070000,1,N,1","+0354,1","+0000,1","10082,1","06,0000,9,1",,,,"03,1,+00300,9,09,9",,,"03,99,1,03,1,03,1,00450,1,00,1,00,1",,"01,9",,,,"99999,9,08182,1","6,1,026,1,+002,1",,,"SYN100AAXX  13211 76373 32488 31201 10354 20000 38182 40082 56026 83300 92050 333 30/// 56300 58002 83910;","Q01  00002PRCP06"
"76373099999","2003-05-14T00:00:00","4","25.35","-105.75","1967.0","TEPEHUANES DGO., MX","FM-12","99999","V020","320,1,N,0070,1","00420,1,9,N","070000,1,N,1","+0286,1","+0019,1","10009,2","06,0000,9,1","24,0000,9,1",,,,,,"08,99,1,08,1,09,1,00450,1,99,9,99,9",,"01,9",,"120,M,+0380,1","180,N,+0102,1","99999,9,08184,1","2,1,002,1,+999,9",,,"SYN124AAXX  14001 76373 32488 83207 10286 20019 38184 40009 52002 889// 92345 333 10380 20102 30/// 5//// 56700 58/// 70000 88910;","Q01+100093APOSLPQ02  00002PRCP06"
"76373099999","2003-05-14T21:00:00","4","25.35","-105.75","1967.0","TEPEHUANES DGO., MX","FM-12","99999","V020","120,1,N,0040,1","22000,1,9,N","070000,1,N,1","+0352,1","-0003,1","10016,1","06,0000,9,1",,,,"02,1,+00300,9,08,9",,,"02,99,1,02,1,01,1,00450,1,00,1,00,1",,"01,9",,,,"99999,9,08168,1","6,1,030,1,-014,1",,,"SYN100AAXX  14211 76373 32488 21204 10352 21003 38168 40016 56030 82100 92045 333 30/// 56200 59014 82810;","Q01  00002PRCP06"
"76373099999","2003-05-15T18:00:00","4","25.35","-105.75","1967.0","TEPEHUANES DGO., MX","FM-12","99999","V020","090,1,N,0020,1","22000,1,9,N","070000,1,N,1","+0310,1","-0010,1","10078,1","06,0000,9,1",,,,"02,1,+00300,9,08,9",,,"02,99,1,02,1,01,1,00450,1,00,1,00,1",,"01,9",,"120,M,+0334,1","240,N,+0134,1","99999,9,08188,1","6,1,007,1,-010,1",,,"SYN112AAXX  15181 76373 32488 20902 10310 21010 38188 40078 56007 82100 91740 333 10334 20134 30/// 56600 59010 82810;","Q01  00002PRCP06"
"76373099999","2003-05-15T21:00:00","4","25.35","-105.75","1967.0","TEPEHUANES DGO., MX","FM-12","99999","V020","180,1,N,0040,1","00300,1,9,N","070000,1,N,1","+0340,1","-0004,1","10008,2","06,0000,9,1",,,,"07,1,+00300,9,08,9",,,"99,99,9,06,1,02,1,00450,1,00,1,00,1",,"01,9",,,,"99999,9,08159,1","6,1,029,1,-009,1",,,"SYN100AAXX  15211 76373 32488 61804 10340 21004 38159 40008 56029 86200 92038 333 30/// 56600 59009 87810;","Q01+000062SCOTCVQ02+100083APOSLPQ03  00002PRCP06"
"76373099999","2003-05-16T00:00:00","4","25.35","-105.75","1967.0","TEPEHUANES DGO., MX","FM-12","99999","V020","330,1,N,0040,1","03000,1,C,N","070000,1,N,1","+0308,1","+0007,1","09974,1","06,0000,9,1","24,0000,9,1",,,"02,1,+00300,9,08,9","03,1,+03000,9,03,9",,"08,99,1,02,1,01,1,00450,1,03,1,04,1",,"01,9",,"120,M,+0374,1","180,N,+0134,1","99999,9,08157,1","7,1,002,1,-003,1",,,"SYN136AAXX  16001 76373 32488 83304 10308 20007 38157 49974 57002 82134 92346 333 10374 20134 30/// 50810 56666 59003 70000 82810 83360 83070;","Q01  00002PRCP06"
"76373099999","2003-05-16T03:00:00","4","25.35","-105.75","1967.0","TEPEHUANES DGO., MX","FM-12","99999","V020","160,1,N,0030,1","03000,1,9,N","010000,1,N,1","+0278,1","+0014,1","09987,1","06,0000,9,1",,,,"03,1,+00600,9,08,9","03,1,+03000,9,03,9",,"08,99,1,03,1,02,1,00250,1,06,1,04,1",,"01,9",,,,"99999,9,08183,1","2,1,026,1,+010,1",,,"SYN112AAXX  16031 76373 32360 81603 10278 20014 38183 49987 52026 83264 90255 333 30/// 56666 58010 83820 83360 82080;","Q01  00002PRCP06"
"76373099999","2003-05-16T15:00:00","4","25.35","-105.75","1967.0","TEPEHUANES DGO., MX","FM-12","99999","V020","999,9,C,0000,1","22000,1,9,N","070000,1,N,1","+0202,1","+0012,1","10066,1","06,0000,9,1",,,,"00,1,+99999,9,99,9",,,"00,99,1,00,1,00,1,99999,9,00,1,00,1",,"01,9",,,,"99999,9,08196,1","9,9,999,9,+001,1",,,"SYN082AAXX  16151 76373 32988 00000 10202 20012 38196 40066 5//// 91436 333 30/// 58001;","Q01  00002PRCP06"
"76373099999","2003-05-16T18:00:00","4","25.35","-105.75","1967.0","TEPEHUANES DGO., MX","FM-12","99999","V020","170,1,N,0020,1","22000,1,9,N","070000,1,N,1","+0312,2","-0042,1","10052,1","06,0000,9,1",,,,"01,1,+03000,9,03,9",,,"01,99,1,01,1,00,1,01750,1,03,1,00,1",,"01,9",,"120,M,+0332,1","240,N,+0124,1","99999,9,08190,1","6,1,006,1,+002,1",,,"SYN112AAXX  16181 76373 32788 11702 10312 21042 38190 40052 56006 81030 91740 333 10332 20124 30/// 56050 58002 81360;","Q01+003123ATOT  Q02  00002PRCP06"
"76373099999","2003-05-17T00:00:00","4","25.35","-105.75","1967.0","TEPEHUANES DGO., MX","FM-12","99999","V020","090,1,N,0030,1","22000,1,9,N","070000,1,N,1","+0334,1","-0034,1","09964,1","06,0000,9,1","24,0000,9,1",,,"01,1,+00600,9,08,9",,,"04,99,1,01,1,01,1,99999,9,06,1,00,1",,"01,9",,"120,M,+0384,1","180,N,+0124,1","99999,9,08152,1","4,1,000,1,-005,1",,,"SYN130AAXX  17001 76373 32988 40903 10334 21034 38152 49964 54015 81160 92345 333 10384 20124 30/// 50900 56660 59005 70000 81820 83360;","Q01  00002PRCP06"
"76373099999","2003-05-17T15:00:00","4","25.35","-105.75","1967.0","TEPEHUANES DGO., MX","FM-12","99999","V020","999,9,C,0000,1","22000,1,9,N","070000,1,N,1","+0198,1","+0083,1","10121,1","06,0000,9,1",,,,"00,1,+99999,9,99,9",,,"00,99,1,00,1,00,1,99999,9,00,1,00,1",,"01,9",,,,"99999,9,08217,1","9,9,999,9,+021,1",,,"SYN082AAXX  17151 76373 32988 00000 10198 20083 38217 40121 5//// 91450 333 30/// 58021;","Q01  00002PRCP06"
"76373099999","2003-05-18T15:00:00","4","25.35","-105.75","1967.0","TEPEHUANES DGO., MX","FM-12","99999","V020","999,9,C,0000,1","22000,1,9,N","070000,1,N,1","+0190,1","+0045,1","10094,1","06,0000,9,1",,,,"00,1,+99999,9,99,9",,,"00,99,1,00,1,00,1,99999,9,00,1,00,1",,"01,9",,,,"99999,9,08211,1","9,9,999,9,-006,1",,,"SYN082AAXX  18151 76373 32988 00000 10190 20045 38211 40094 5//// 91435 333 30/// 59006;","Q01  00002PRCP06"
"76373099999","2003-05-19T00:00:00","4","25.35","-105.75","1967.0","TEPEHUANES DGO., MX","FM-12","99999","V020","280,1,N,0060,1","00210,1,9,N","070000,1,N,1","+0338,1","+0018,1","09965,1","06,0000,9,1","24,0000,9,1",,,,,,"05,99,1,05,1,02,1,00250,1,00,1,00,1",,"01,9",,"120,M,+0398,1","180,N,+0120,1","99999,9,08155,1","6,1,008,1,-034,1",,,"SYN124AAXX  19001 76373 32388 52806 10338 20018 38155 49965 56008 85200 92340 333 10398 20120 30/// 50900 56600 59034 70000 85820;","Q01  00002PRCP06"
"76373099999","2003-05-19T15:00:00","4","25.35","-105.75","1967.0","TEPEHUANES DGO., MX","FM-12","99999","V020","999,9,C,0000,1","22000,1,9,N","070000,1,N,1","+0206,1","+0068,1","10073,1","06,0000,9,1",,,,"00,1,+99999,9,99,9",,,"00,99,1,00,1,00,1,99999,9,00,1,00,1",,"01,9",,,,"99999,9,08205,1","9,9,999,9,-006,1",,,"SYN082AAXX  19151 76373 32988 00000 10206 20068 38205 40073 5//// 91440 333 30/// 59006;","Q01  00002PRCP06"
"76373099999","2003-05-19T18:00:00","4","25.35","-105.75","1967.0","TEPEHUANES DGO., MX","FM-12","99999","V020","060,1,N,0010,1","22000,1,9,N","070000,1,N,1","+0316,1","+0048,1","10058,1","06,0000,9,1",,,,"01,1,+00300,9,08,9",,,"01,99,1,01,1,01,1,00450,1,00,1,00,1",,"01,9",,"120,M,+0342,1","240,N,+0137,1","99999,9,08195,1","6,1,010,1,+009,1",,,"SYN112AAXX  19181 76373 32488 10601 10316 20048 38195 40058 56010 81100 91736 333 10342 20137 30/// 56600 58009 81810;","Q01  00002PRCP06"
"76373099999","2003-05-19T21:00:00","4","25.35","-105.75","1967.0","TEPEHUANES DGO., MX","FM-12","99999","V020","270,1,N,0030,1","22000,1,9,N","070000,1,N,1","+0354,1","+0012,1","10005,1","06,0000,9,1",,,,"03,1,+00300,9,08,9",,,"03,99,1,03,1,01,1,00450,1,00,1,00,1",,"01,9",,,,"99999,9,08168,1","6,1,027,1,+005,1",,,"SYN100AAXX  19211 76373 32488 32703 10354 20012 38168 40005 56027 83100 92040 333 30/// 56600 58005 83810;","Q01  00002PRCP06"
"76373099999","2003-05-20T18:00:00","4","25.35","-105.75","1967.0","TEPEHUANES DGO., MX","FM-12","99999","V020","120,1,N,0040,1","22000,1,9,N","070000,1,N,1","+0322,1","-0003,1","10050,1","06,0000,9,1",,,,"02,1,+00300,9,08,9",,,"02,99,1,02,1,01,1,00450,1,00,1,00,1",,"01,9",,"120,M,+0348,1","240,N,+0142,1","99999,9,08200,1","9,9,999,9,+005,1",,,"SYN112AAXX  20181 76373 32488 21204 10322 21003 38200 40050 5//// 82100 91745 333 10348 20142 30/// 56600 58005 82810;","Q01  00002PRCP06"
"76373099999","2003-05-21T18:00:00","4","25.35","-105.75","1967.0","TEPEHUANES DGO., MX","FM-12","99999","V020","120,1,N,0040,1","22000,1,9,N","070000,1,N,1","+0302,1","+0055,1","10078,1","06,0000,9,1",,,,"01,1,+00300,9,08,9",,,"02,99,1,01,1,01,1,00450,1,03,1,00,1",,"01,9",,"120,M,+0322,1","240,N,+0160,1","99999,9,08211,1","6,1,024,1,+011,1",,,"SYN118AAXX  21181 76373 32488 21204 10302 20055 38211 40078 56024 81130 91745 333 10322 20160 30/// 56660 58011 81810 81360;","Q01  00002PRCP06"
"76373099999","2003-05-21T21:00:00","4","25.35","-105.75","1967.0","TEPEHUANES DGO., MX","FM-12","99999","V020","270,1,N,0050,1","00420,1,C,N","070000,1,N,1","+0296,1","+0031,1","10037,1","06,0000,9,1",,,,"02,1,+00300,9,08,9",,,"08,99,1,06,1,09,1,00450,1,00,1,00,1",,"01,9",,,,"99999,9,08193,1","6,1,018,1,+018,1",,,"SYN106AAXX  21211 76373 32488 82705 10296 20031 38193 40037 56018 86900 92045 333 30/// 56600 58018 82810 86910;","Q01  00002PRCP06"
"76373099999","2003-05-22T18:00:00","4","25.35","-105.75","1967.0","TEPEHUANES DGO., MX","FM-12","99999","V020","090,1,N,0030,1","22000,1,9,N","070000,1,N,1","+0280,1","+0063,1","10109,1","06,0000,9,1",,,,"01,1,+00300,9,09,9",,,"01,99,1,01,1,03,1,00450,1,00,1,00,1",,"01,9",,"120,M,+0312,1","240,N,+0120,1","99999,9,08222,1","6,1,013,1,+011,1",,,"SYN112AAXX  22181 76373 32488 10903 10280 20063 38222 40109 56013 81300 91750 333 10312 20120 30/// 56600 58011 81910;","Q01  00002PRCP06"
"76373099999","2003-05-22T21:00:00","4","25.35","-105.75","1967.0","TEPEHUANES DGO., MX","FM-12","99999","V020","060,1,N,0040,1","03000,1,9,N","070000,1,N,1","+0314,1","-0001,1","10056,1","06,0000,9,1",,,,"04,1,+00300,9,09,9","01,1,+03000,9,03,9",,"07,99,1,04,1,09,1,00450,1,03,1,02,1",,"01,9",,,,"99999,9,08195,1","6,1,027,1,+002,1",,,"SYN112AAXX  22211 76373 32488 70604 10314 21001 38195 40056 56027 84932 92045 333 30/// 56666 58002 84910 81360 92070;","Q01  00002PRCP06"
"76373099999","2003-05-23T00:00:00","4","25.35","-105.75","1967.0","TEPEHUANES DGO., MX","FM-12","99999","V020","250,1,N,0050,1","03600,1,9,N","070000,1,N,1","+0286,1","+0053,1","10027,1","06,0000,9,1","24,0000,9,1",,,"04,1,+00300,9,08,9",,,"08,99,1,04,1,02,1,00450,1,03,1,00,1",,"01,9",,"120,M,+0360,1","180,N,+0120,1","99999,9,08190,1","7,1,005,1,-017,1",,,"SYN130AAXX  23001 76373 32488 82505 10286 20053 38190 40027 57005 84230 92338 333 10360 20120 30/// 50750 56660 59017 70000 84810 84360;","Q01  00002PRCP06"
"76373099999","2003-05-23T15:00:00","4","25.35","-105.75","1967.0","TEPEHUANES DGO., MX","FM-12","99999","V020","999,9,C,0000,1","09000,1,C,N","070000,1,N,1","+0194,1","+0093,1","10129,1","06,0000,9,1",,,,"01,1,+03000,9,03,9",,,"08,99,1,01,1,00,1,01750,1,03,1,08,1",,"01,9",,,,"99999,9,08239,1","9,9,999,9,+004,1",,,"SYN106AAXX  23151 76373 32788 80000 10194 20093 38239 40129 5//// 81038 91435 333 30/// 56066 58004 81360 88270;","Q01  00002PRCP06"
"76373099999","2003-05-23T21:00:00","4","25.35","-105.75","1967.0","TEPEHUANES DGO., MX","FM-12","99999","V020","300,1,N,0020,1","09000,1,C,N","070000,1,N,1","+0324,1","+0040,1","10049,2","06,0000,9,1",,,,"03,1,+00300,9,09,9","01,1,+00300,9,08,9",,"07,99,1,03,1,03,1,00450,1,00,1,06,1",,"01,9",,,,"99999,9,08195,1","6,1,031,1,+000,1",,,"SYN112AAXX  23211 76373 32488 73002 10324 20040 38195 40049 56031 83306 92035 333 30/// 56606 58000 83910 81810 83070;","Q01+100493APOSLPQ02  00002PRCP06"
"76373099999","2003-05-25T15:00:00","4","25.35","-105.75","1967.0","TEPEHUANES DGO., MX","FM-12","99999","V020","999,9,C,0000,1","09000,1,9,N","070000,1,N,1","+0168,1","+0123,1","10126,1","06,0000,9,1",,,,"08,1,+09000,9,00,9",,,"08,99,1,00,1,00,1,99999,9,00,1,05,1",,"09,9",,,,"99999,9,08201,1","9,9,999,9,-010,1",,,"SYN100AAXX  25151 76373 32988 80000 10168 20123 38201 40126 5//// 80005 91440 333 31/// 56006 59010 88080;","Q01  00002PRCP06"
"76373099999","2003-05-25T21:00:00","4","25.35","-105.75","1967.0","TEPEHUANES DGO., MX","FM-12","99999","V020","270,1,N,0060,1","22000,1,9,N","070000,1,N,1","+0316,1","-0009,1","10036,2","06,0000,9,1",,,,"04,1,+00600,9,09,9",,,"04,99,1,04,1,03,1,00250,1,00,1,00,1",,"01,9",,,,"99999,9,08168,1","6,1,018,1,-015,1",,,"SYN100AAXX  25211 76373 32388 42706 10316 21009 38168 40036 56018 84300 92040 333 30/// 56600 59015 84920;","Q01+100363APOSLPQ02  00002PRCP06"
"76373099999","2003-05-26T15:00:00","4","25.35","-105.75","1967.0","TEPEHUANES DGO., MX","FM-12","99999","V020","999,9,C,0000,1","22000,1,9,N","070000,1,N,1","+0168,1","+0045,1","10104,1","06,0000,9,1",,,,"00,1,+99999,9,99,9",,,"00,99,1,00,1,00,1,99999,9,00,1,00,1",,"01,9",,,,"99999,9,08205,1","9,9,999,9,+004,1",,,"SYN082AAXX  26151 76373 32988 00000 10168 20045 38205 40104 5//// 91445 333 30/// 58004;","Q01  00002PRCP06"
"76373099999","2003-05-26T18:00:00","4","25.35","-105.75","1967.0","TEPEHUANES DGO., MX","FM-12","99999","V020","110,1,N,0010,1","22000,1,9,N","070000,1,N,1","+0266,1","-0019,1","10099,1","06,0000,9,1",,,,"00,1,+99999,9,99,9",,,"00,99,1,00,1,00,1,99999,9,00,1,00,1",,"01,9",,"120,M,+9999,9","240,N,+0074,1","99999,9,08189,1","6,1,011,1,+999,9",,,"SYN095AAXX  26181 76373 32988 01101 10266 21019 38189 40099 56011 891750 333 10229 20074 30/// 58003;","Q01  00002PRCP06Q02 +02292ATMX  "
"76373099999","2003-05-26T21:00:00","4","25.35","-105.75","1967.0","TEPEHUANES DGO., MX","FM-12","99999","V020","210,1,N,0010,1","22000,1,9,N","070000,1,N,1","+0288,1","+0109,2","10039,2","06,0000,9,1",,,,"02,1,+00300,9,08,9",,,"02,99,1,02,1,01,1,00450,1,00,1,00,1",,"01,9",,,,"99999,9,08173,1","6,1,016,1,+005,1",,,"SYN100AAXX  26211 76373 32488 22101 10288 20109 38173 40039 56016 82100 92040 333 30/// 56600 58005 82810;","Q01+001093ATOD  Q02+100393APOSLPQ03  00002PRCP06"
"76373099999","2003-05-27T18:00:00","4","25.35","-105.75","1967.0","TEPEHUANES DGO., MX","FM-12","99999","V020","120,1,N,0030,1","22000,1,9,N","060000,1,N,1","+0254,1","+0065,1","10094,1","06,0000,9,1",,"4,1,06,1","4,1,06,1","03,1,+00300,9,08,9",,,"03,99,1,03,1,01,1,00450,1,00,1,00,1",,"01,9",,"120,M,+0280,1","240,N,+0140,1","99999,9,08206,1","6,1,008,1,+017,1","04,1",,"SYN118AAXX  27180 76373 31486 31203 10254 20065 38206 40094 56008 70444 83100 91738 333 10280 20140 30/// 56600 58017 83810;","Q01  00002PRCP06"
"76373099999","2003-05-27T21:00:00","4","25.35","-105.75","1967.0","TEPEHUANES DGO., MX","FM-12","99999","V020","300,1,N,0020,1","03000,1,9,N","070000,1,N,1","+0264,1","+0042,1","10060,1","06,0000,9,1",,,,"02,1,+00300,9,09,9","02,1,+00300,9,08,9","02,1,+03000,9,03,9","08,99,1,02,1,03,1,00450,1,03,1,02,1",,"01,9",,,,"99999,9,08188,1","6,1,018,1,+015,1",,,"SYN118AAXX  27211 76373 32488 83002 10264 20042 38188 40060 56018 82332 92040 333 30/// 56666 58015 82810 82910 82360 82070;","Q01  00002PRCP06"
"76373099999","2003-05-28T18:00:00","4","25.35","-105.75","1967.0","TEPEHUANES DGO., MX","FM-12","99999","V020","120,1,N,0050,1","00300,1,9,N","070000,1,N,1","+0210,1","+0105,1","10157,1","06,0000,9,1",,,,"06,1,+00300,9,08,9",,,"06,99,1,06,1,01,1,00450,1,00,1,00,1",,"01,9",,"120,M,+0234,1","240,N,+0130,1","99999,9,08238,1","2,1,011,1,+032,1",,,"SYN112AAXX  28181 76373 32488 61205 10210 20105 38238 40157 52011 86100 91740 333 10234 20130 30/// 56200 58032 86810;","Q01  00002PRCP06"
"76373099999","2003-05-28T21:00:00","4","25.35","-105.75","1967.0","TEPEHUANES DGO., MX","FM-12","99999","V020","120,1,N,0050,1","03600,1,C,N","070000,1,N,1","+0230,1","+0096,1","10117,1","06,0000,9,1",,,,"02,1,+00300,9,09,9","02,1,+00300,9,08,9",,"06,99,1,02,1,03,1,00450,1,03,1,00,1",,"01,9",,,,"99999,9,08220,1","6,1,018,1,+032,1",,,"SYN112AAXX  28211 76373 32488 61205 10230 20096 38220 40117 56018 82330 92040 333 30/// 56220 58032 82910 82810 82360;","Q01  00002PRCP06"
"76373099999","2003-05-29T03:00:00","4","25.35","-105.75","1967.0","TEPEHUANES DGO., MX","FM-12","99999","V020","999,9,C,0000,1","22000,1,9,N","070000,1,N,1","+0196,1","+0115,1","10104,1","06,0000,9,1",,,,"00,1,+99999,9,99,9",,,"00,99,1,00,1,00,1,99999,9,00,1,00,1",,"01,9",,,,"99999,9,08228,1","2,1,018,1,-012,1",,,"SYN082AAXX  29031 76373 32088 00000 10196 20115 38228 40104 52018 90245 333 30/// 59012;","Q01  00002PRCP06"
"76373099999","2003-05-29T15:00:00","4","25.35","-105.75","1967.0","TEPEHUANES DGO., MX","FM-12","99999","V020","999,9,C,0000,1","22000,1,9,N","040000,1,N,1","+0150,1","+0107,1","10153,1","06,0000,9,1",,,,"00,1,+99999,9,99,9",,,"00,99,1,00,1,00,1,99999,9,00,1,00,1",,"01,9",,,,"99999,9,08226,1","7,1,002,1,-001,1",,,"SYN082AAXX  29151 76373 32982 00000 10150 20107 38226 40153 57002 91455 333 30/// 59001;","Q01  00002PRCP06"
"76373099999","2003-05-29T18:00:00","4","25.35","-105.75","1967.0","TEPEHUANES DGO., MX","FM-12","99999","V020","120,1,N,0050,1","22000,1,9,N","070000,1,N,1","+0234,1","+0105,1","10151,1","06,0000,9,1",,,,"01,1,+00300,9,08,9",,,"01,99,1,01,1,01,1,00450,1,00,1,00,1",,"01,9",,"120,M,+0254,1","240,N,+0090,1","99999,9,08229,1","6,1,003,1,-009,1",,,"SYN112AAXX  29181 76373 32488 11205 10234 20105 38229 40151 56003 81100 91743 333 10254 20090 30/// 56200 59009 81810;","Q01  00002PRCP06"
"76373099999","2003-05-29T21:00:00","4","25.35","-105.75","1967.0","TEPEHUANES DGO., MX","FM-12","99999","V020","120,1,N,0060,1","00300,1,9,N","070000,1,N,1","+0280,1","+0091,1","10086,2","06,0000,9,1",,,,"05,1,+00300,9,09,9",,,"05,99,1,05,1,09,1,00450,1,00,1,00,1",,"01,9",,,,"99999,9,08198,1","6,1,031,1,-022,1",,,"SYN100AAXX  29211 76373 32488 51206 10280 20091 38198 40086 56031 85900 92040 333 30/// 56200 59022 85910;","Q01+100863APOSLPQ02  00002PRCP06"
"76373099999","2003-05-30T15:00:00","4","25.35","-105.75","1967.0","TEPEHUANES DGO., MX","FM-12","99999","V020","270,1,N,0010,1","22000,1,9,N","070000,1,N,1","+0154,1","+0102,1","10141,1","06,0000,9,1",,,,"00,1,+99999,9,99,9",,,"00,99,1,00,1,00,1,99999,9,00,1,00,1",,"09,9",,,,"99999,9,08222,1","9,9,999,9,-004,1",,,"SYN082AAXX  30151 76373 32988 02701 10154 20102 38222 40141 5//// 91438 333 31/// 59004;","Q01  00002PRCP06"
"76373099999","2003-05-30T18:00:00","4","25.35","-105.75","1967.0","TEPEHUANES DGO., MX","FM-12","99999","V020","060,1,N,0010,1","22000,1,9,N","070000,1,N,1","+0254,1","+0096,1","10108,1","06,0000,9,1",,,,"01,1,+00015,9,08,9",,,"01,99,1,01,1,01,1,00450,1,00,1,00,1",,"01,9",,"120,M,+0274,1","240,N,+0092,1","99999,9,08207,1","6,1,015,1,-022,1",,,"SYN112AAXX  30181 76373 32488 10601 10254 20096 38207 40108 56015 81100 91740 333 10274 20092 30/// 56200 59022 81800;","Q01  00002PRCP06"
"76373099999","2003-05-30T21:00:00","4","25.35","-105.75","1967.0","TEPEHUANES DGO., MX","FM-12","99999","V020","120,1,N,0030,1","22000,1,9,N","070000,1,N,1","+0296,1","+0032,1","10058,1","06,0000,9,1",,,,"01,1,+00300,9,08,9",,,"03,99,1,03,1,01,1,00450,1,00,1,00,1",,"01,9",,,,"99999,9,08186,1","6,1,021,1,-012,1",,,"SYN100AAXX  30211 76373 32488 31203 10296 20032 38186 40058 56021 83100 92047 333 30/// 56300 59012 81810;","Q01  00002PRCP06"
"76373099999","2003-05-31T03:00:00","4","25.35","-105.75","1967.0","TEPEHUANES DGO., MX","FM-12","99999","V020","270,1,N,0010,1","22000,1,9,N","010000,1,N,1","+0216,1","+0029,1","10033,1","06,0000,9,1",,,,"00,1,+99999,9,99,9",,,"00,99,1,00,1,00,1,99999,9,00,1,00,1",,"01,9",,,,"99999,9,08195,1","2,1,002,1,-004,1",,,"SYN082AAXX  31031 76373 32960 02701 10216 20029 38195 40033 52002 90255 333 30/// 59004;","Q01  00002PRCP06"
"76373099999","2003-05-31T15:00:00","4","25.35","-105.75","1967.0","TEPEHUANES DGO., MX","FM-12","99999","V020","999,9,C,0000,1","22000,1,9,N","030000,1,N,1","+0166,1","+0053,1","10120,1","06,0000,9,1",,,,"00,1,+99999,9,99,9",,,"00,99,1,00,1,00,1,99999,9,00,1,00,1",,"01,9",,,,"99999,9,08213,1","9,9,999,9,-009,1",,,"SYN082AAXX  31151 76373 32980 00000 10166 20053 38213 40120 5//// 91440 333 30/// 59009;","Q01  00002PRCP06"
"76373099999","2003-05-31T21:00:00","4","25.35","-105.75","1967.0","TEPEHUANES DGO., MX","FM-12","99999","V020","240,1,N,0010,1","22000,1,9,N","030000,1,N,1","+0312,1","+0027,1","10055,1","06,0000,9,1",,,,"03,1,+00600,9,08,9",,,"03,99,1,03,1,02,1,00250,1,00,1,00,1",,"01,9",,,,"99999,9,08185,1","6,1,021,1,-001,1",,,"SYN100AAXX  31211 76373 32380 32401 10312 20027 38185 40055 56021 83200 92030 333 30/// 56300 59001 83820;","Q01  00002PRCP06"
"76373099999","2003-06-01T15:00:00","4","25.35","-105.75","1967.0","TEPEHUANES DGO., MX","FM-12","99999","V020","999,9,C,0000,1","22000,1,9,N","060000,1,N,1","+0152,1","+0039,1","10110,1","06,0000,9,1",,,,,,,"06,99,1,03,1,00,1,01250,1,03,1,04,1",,,,,,"99999,9,08208,1",,,,"SYN066AAXX  01151 76373 32686 60000 10152 20039 38208 40110 5//// 83034;","Q01  00002PRCP06"
"76373099999","2003-06-02T18:00:00","4","25.35","-105.75","1967.0","TEPEHUANES DGO., MX","FM-12","99999","V020","090,1,N,0020,1","03600,1,C,N","060000,1,N,1","+0286,1","+0063,1","10048,1","06,0000,9,1",,"4,1,06,1","4,1,06,1","01,1,+00300,9,08,9","03,1,+03000,9,03,9",,"06,99,1,01,1,01,1,00450,1,03,1,02,1",,"01,9",,"120,M,+0304,1","240,N,+0138,1","99999,9,08185,1","6,1,014,1,-001,1","04,1",,"SYN130AAXX  02181 76373 31486 60902 10286 20063 38185 40048 56014 70444 81132 91736 333 10304 20138 30/// 56222 59001 81810 83360 82070;","Q01  00002PRCP06"
"76373099999","2003-06-03T18:00:00","4","25.35","-105.75","1967.0","TEPEHUANES DGO., MX","FM-12","99999","V020","290,1,N,0060,1","99999,9,9,N","070000,1,N,1","+0220,1","+0107,1","10081,1","03,0005,9,1",,"9,1,06,1","5,1,06,1",,,,"07,99,1,99,9,99,9,00450,1,99,9,99,9",,,,,,"99999,9,08202,1","7,1,005,1,+999,9","01,1",,"SYN072AAXX  03181 76373 01488 72906 10220 20107 38202 40081 57005 69967 70195;",
"76373099999","2003-06-03T21:00:00","4","25.35","-105.75","1967.0","TEPEHUANES DGO., MX","FM-12","99999","V020","270,1,N,0070,1","09000,1,C,N","070000,1,N,1","+0266,1","+0088,1","10042,1","06,0000,9,1",,,,"02,1,+00300,9,08,9","02,1,+03000,9,03,9",,"05,99,1,02,1,01,1,00450,1,03,1,02,1",,"01,9",,,,"99999,9,10178,2","6,1,024,1,+017,1",,,"SYN112AAXX  03211 76373 32488 52707 10266 20088 30178 40042 56024 82132 92037 333 30/// 56333 58017 82810 82360 81070;","Q01+101783APOSP Q02  00002PRCP06"
"76373099999","2003-06-04T18:00:00","4","25.35","-105.75","1967.0","TEPEHUANES DGO., MX","FM-12","99999","V020","130,1,N,0030,1","03600,1,C,N","070000,1,N,1","+0266,1","+0078,1","10051,1","06,0000,9,1",,,,"03,1,+00300,9,09,9","01,1,+00300,9,08,9",,"05,99,1,03,1,03,1,00450,1,03,1,00,1",,"01,9",,"120,M,+0290,1","240,N,+0100,1","99999,9,08174,1","6,1,015,1,-028,1",,,"SYN124AAXX  04181 76373 32488 51303 10266 20078 38174 40051 56015 83330 91745 333 10290 20100 30/// 56330 59028 83910 81810 81360;","Q01  00002PRCP06"
"76373099999","2003-06-04T21:00:00","4","25.35","-105.75","1967.0","TEPEHUANES DGO., MX","FM-12","99999","V020","120,1,N,0030,1","22000,1,9,N","070000,1,N,1","+0284,1","+0254,2","10012,1","06,0000,9,1",,,,"01,1,+00300,9,09,9","01,1,+00300,9,08,9",,"04,99,1,01,1,03,1,00450,1,03,1,00,1",,"01,9",,,,"99999,9,08157,1","6,1,017,1,-021,1",,,"SYN112AAXX  04211 76373 32488 41203 10284 20254 38157 40012 56017 81330 92040 333 30/// 56220 59021 81910 81810 82360;","Q01+002543ATOD  Q02  00002PRCP06"
"76373099999","2003-06-05T15:00:00","4","25.35","-105.75","1967.0","TEPEHUANES DGO., MX","FM-12","99999","V020","999,9,C,0000,1","22000,1,9,N","050000,1,N,1","+0180,1","+0106,1","10074,1","06,0000,9,1",,"4,1,03,1","4,1,03,1","00,1,+99999,9,99,9",,,"00,99,1,00,1,00,1,99999,9,00,1,00,1",,"01,9",,,,"99999,9,08196,1","9,9,999,9,+007,1","04,1",,"SYN088AAXX  05151 76373 31984 00000 10180 20106 38196 40074 5//// 70444 91440 333 30/// 58007;","Q01  00002PRCP06"
"76373099999","2003-06-05T21:00:00","4","25.35","-105.75","1967.0","TEPEHUANES DGO., MX","FM-12","99999","V020","280,1,N,0020,1","00300,1,9,N","070000,1,N,1","+0290,1","+0002,1","10007,1","06,0000,9,1",,,,"05,1,+00300,9,08,9",,,"05,99,1,05,1,01,1,00450,1,00,1,00,1",,"01,9",,,,"99999,9,08159,1","6,1,024,1,+002,1",,,"SYN100AAXX  05211 76373 32488 52802 10290 20002 38159 40007 56024 85100 92036 333 30/// 56600 58002 85810;","Q01  00002PRCP06"
"76373099999","2003-06-06T00:00:00","4","25.35","-105.75","1967.0","TEPEHUANES DGO., MX","FM-12","99999","V020","240,1,N,0040,1","22000,1,9,N","070000,1,N,1","+0294,1","+0056,1","09984,1","06,0000,9,1","24,0000,9,1",,,"02,1,+00300,9,08,9",,,"04,99,1,02,1,01,1,00450,1,03,1,00,1",,"01,9",,"120,M,+0329,1","180,N,+0098,1","99999,9,08154,1","7,1,005,1,+999,9",,,"SYN130AAXX  06001 76373 32488 42404 10294 20056 38154 49984 57005 82130 92345 333 10329 20098 30/// 50540 56660 58/// 70000 82810 82360;","Q01  00002PRCP06"
"76373099999","2003-06-06T15:00:00","4","25.35","-105.75","1967.0","TEPEHUANES DGO., MX","FM-12","99999","V020","999,9,C,0000,1","22000,1,9,N","070000,1,N,1","+0190,1","+0103,1","10074,1","06,0000,9,1",,,,"01,1,+03000,9,03,9",,,"01,99,1,01,1,00,1,01750,1,03,1,00,1",,"01,9",,,,"99999,9,08199,1","9,9,999,9,+003,1",,,"SYN100AAXX  06151 76373 32788 10000 10190 20103 38199 40074 5//// 81030 91440 333 30/// 56060 58003 81360;","Q01  00002PRCP06"
"76373099999","2003-06-06T18:00:00","4","25.35","-105.75","1967.0","TEPEHUANES DGO., MX","FM-12","99999","V020","150,1,N,0020,1","22000,1,9,N","070000,1,N,1","+0270,1","+0066,1","10051,1","06,0000,9,1",,,,"02,1,+00300,9,08,9",,,"03,99,1,02,1,01,1,00450,1,00,1,00,1",,"01,9",,"120,M,+0294,1","240,N,+0118,1","99999,9,08180,1","6,1,019,1,-003,1",,,"SYN118AAXX  06181 76373 32488 31502 10270 20066 38180 40051 56019 82100 91742 333 10294 20118 30/// 56200 59003 82810 81910;","Q01  00002PRCP06"
"76373099999","2003-06-06T21:00:00","4","25.35","-105.75","1967.0","TEPEHUANES DGO., MX","FM-12","99999","V020","120,1,N,0030,1","00300,1,9,N","070000,1,N,1","+0286,1","+0019,1","10012,1","06,0000,9,1",,,,"05,1,+00300,9,08,9",,,"07,99,1,05,1,02,1,00450,1,00,1,00,1",,"01,9",,,,"99999,9,08159,1","6,1,021,1,+000,1",,,"SYN106AAXX  06211 76373 32488 71203 10286 20019 38159 40012 56021 85200 92050 333 30/// 56600 58000 85810 82910;","Q01  00002PRCP06"
"76373099999","2003-06-08T18:00:00","4","25.35","-105.75","1967.0","TEPEHUANES DGO., MX","FM-12","99999","V020","120,1,N,0060,1","03600,1,C,N","060000,1,N,1","+0296,1","+0093,1","10051,1","06,0000,9,1",,,,"03,1,+00600,9,09,9",,,"07,99,1,03,1,03,1,00250,1,03,1,00,1",,"01,9",,"120,M,+0310,1","240,N,+0128,1","99999,9,08176,1","6,1,008,1,+999,9",,,"SYN118AAXX  08181 76373 32386 71206 10296 20093 38176 40051 56008 83330 91800 333 10310 20128 30/// 56660 58/// 83920 84360;","Q01  00002PRCP06"
"76373099999","2003-06-09T18:00:00","4","25.35","-105.75","1967.0","TEPEHUANES DGO., MX","FM-12","99999","V020","120,1,N,0030,1","22000,1,9,N","070000,1,N,1","+0270,1","+0106,1","10072,1","06,0000,9,1",,,,"01,1,+00300,9,09,9",,,"02,99,1,01,1,03,1,00450,1,00,1,00,1",,"01,9",,"120,M,+0290,1","240,N,+0132,1","99999,9,08194,1","6,1,013,1,+018,1",,,"SYN118AAXX  09181 76373 32488 21203 10270 20106 38194 40072 56013 81300 91736 333 10290 20132 30/// 56200 58018 81910 81810;","Q01  00002PRCP06"
"76373099999","2003-06-10T18:00:00","4","25.35","-105.75","1967.0","TEPEHUANES DGO., MX","FM-12","99999","V020","300,1,N,0020,1","22000,1,9,N","070000,1,N,1","+0268,1","+0091,1","10079,1","06,0000,9,1",,,,"01,1,+00300,9,09,9",,,"02,99,1,01,1,03,1,00450,1,00,1,00,1",,"01,9",,"120,M,+0282,1","240,N,+0130,1","99999,9,08208,1","6,1,012,1,+014,1",,,"SYN118AAXX  10181 76373 32488 23002 10268 20091 38208 40079 56012 81300 91745 333 10282 20130 30/// 56300 58014 81910 81810;","Q01  00002PRCP06"
"76373099999","2003-06-10T21:00:00","4","25.35","-105.75","1967.0","TEPEHUANES DGO., MX","FM-12","99999","V020","270,1,N,0020,1","99999,9,9,N","070000,1,N,1","+0314,1","+0070,1","10025,1","06,0000,9,1",,,,"04,1,+00300,9,09,9",,,"06,99,1,04,1,03,1,00450,1,00,1,00,1",,"01,9",,,,"99999,9,08181,1","6,1,027,1,+011,1",,,"SYN106AAXX  10211 76373 32488 62702 10314 20070 38181 40025 56027 84300 92040 333 30/// 56600 58011 84910 82810;","Q01  00002PRCP06"
"76373099999","2003-06-11T18:00:00","4","25.35","-105.75","1967.0","TEPEHUANES DGO., MX","FM-12","99999","V020","090,1,N,0010,1","09000,1,C,N","070000,1,N,1","+0282,1","+0102,1","10053,1","06,0000,9,1",,,,"02,1,+00300,9,09,9","01,1,+00300,9,08,9",,"05,99,1,02,1,03,1,00450,1,00,1,02,1",,"01,9",,"120,M,+0308,1","240,N,+0132,1","99999,9,08194,1","2,1,001,1,-014,1",,,"SYN124AAXX  11181 76373 32488 50901 10282 20102 38194 40053 52001 82302 91740 333 10308 20132 30/// 565// 59014 82910 81810 82070;","Q01  00002PRCP06"
"76373099999","2003-06-11T21:00:00","4","25.35","-105.75","1967.0","TEPEHUANES DGO., MX","FM-12","99999","V020","060,1,N,0010,1","00300,1,C,N","070000,1,N,1","+0304,1","+0073,1","10000,1","06,0000,9,1",,,,"02,1,+00300,9,09,9","03,1,+00300,9,08,9",,"07,99,1,03,1,02,1,00450,1,00,1,02,1",,"01,9",,,,"99999,9,08167,1","6,1,027,1,-014,1",,,"SYN112AAXX  11211 76373 32488 70601 10304 20073 38167 40000 56027 83202 92058 333 30/// 56606 59014 83810 82910 82070;","Q01  00002PRCP06"
"76373099999","2003-06-12T00:00:00","4","25.35","-105.75","1967.0","TEPEHUANES DGO., MX","FM-12","99999","V020","280,1,N,0060,1","22000,1,9,N","070000,1,N,1","+0314,1","+0070,1","09997,1","06,0000,9,1","24,0000,9,1",,,"04,1,+00600,9,09,9",,,"05,99,1,04,1,09,1,00250,1,00,1,04,1",,"01,9",,"120,M,+0358,1","180,N,+0132,1","99999,9,08156,1","6,1,011,1,-014,1",,,"SYN130AAXX  12001 76373 32388 52806 10314 20070 38156 49997 56011 84904 92330 333 10358 20132 30/// 50730 56606 59014 70000 84920 81080;","Q01  00002PRCP06"
"76373099999","2003-06-12T03:00:00","4","25.35","-105.75","1967.0","TEPEHUANES DGO., MX","FM-12","99999","V020","300,1,N,0010,1","22000,1,9,N","010000,1,N,1","+0244,1","+0085,1","09991,1","06,0000,9,1",,,,"02,1,+00600,9,08,9",,,"03,99,1,02,1,02,1,00250,1,00,1,04,1",,"01,9",,,,"99999,9,08180,1","2,1,024,1,-015,1",,,"SYN106AAXX  12031 76373 32360 33001 10244 20085 38180 49991 52024 82204 90255 333 30/// 56606 59015 82820 81080;","Q01  00002PRCP06"
"76373099999","2003-06-12T18:00:00","4","25.35","-105.75","1967.0","TEPEHUANES DGO., MX","FM-12","99999","V020","120,1,N,0020,1","22000,1,9,N","070000,1,N,1","+0282,1","+0085,1","10039,1","06,0000,9,1",,,,"01,1,+00300,9,08,9",,,"01,99,1,01,1,01,1,00450,1,00,1,00,1",,"01,9",,"120,M,+0302,1","240,N,+0126,1","99999,9,08184,1","6,1,010,1,-010,1",,,"SYN112AAXX  12181 76373 32488 11202 10282 20085 38184 40039 56010 81100 91738 333 10302 20126 30/// 56600 59010 81810;","Q01  00002PRCP06"
"76373099999","2003-06-13T00:00:00","4","25.35","-105.75","1967.0","TEPEHUANES DGO., MX","FM-12","99999","V020","230,1,N,0060,1","22000,1,9,N","070000,1,N,1","+0326,1","+0048,1","09961,1","06,0000,9,1","24,0000,9,1",,,,,,"01,99,1,01,1,01,1,00450,1,00,1,00,1",,"01,9",,"120,M,+0364,1","180,N,+0126,1","99999,9,08151,1","7,1,008,1,-005,1",,,"SYN124AAXX  13001 76373 32488 12306 10326 20048 38151 49961 57008 81100 92340 333 10364 20126 30/// 50990 56600 59005 70000 81810;","Q01  00002PRCP06"
"76373099999","2003-06-13T03:00:00","4","25.35","-105.75","1967.0","TEPEHUANES DGO., MX","FM-12","99999","V020","240,1,N,0020,1","22000,1,9,N","020000,1,N,1","+0240,1","+0117,1","09979,1","06,0000,9,1",,,,"01,1,+00600,9,09,9",,,"01,99,1,01,1,03,1,00250,1,00,1,00,1",,"01,9",,,,"99999,9,08174,1","2,1,023,1,-006,1",,,"SYN100AAXX  13030 76373 32370 12402 10240 20117 38174 49979 52023 81300 90255 333 30/// 56600 59006 81920;","Q01  00002PRCP06"
"76373099999","2003-06-13T15:00:00","4","25.35","-105.75","1967.0","TEPEHUANES DGO., MX","FM-12","99999","V020","999,9,C,0000,1","22000,1,9,N","070000,1,N,1","+0200,1","+0119,1","10065,1","06,0000,9,1",,,,"00,1,+99999,9,99,9",,,"00,99,1,00,1,00,1,99999,9,00,1,00,1",,"01,9",,,,"99999,9,08192,1","9,9,999,9,-002,1",,,"SYN082AAXX  13151 76373 32988 00000 10200 20119 38192 40065 5//// 91438 333 30/// 59002;","Q01  00002PRCP06"
"76373099999","2003-06-13T18:00:00","4","25.35","-105.75","1967.0","TEPEHUANES DGO., MX","FM-12","99999","V020","170,1,N,0010,1","22000,1,9,N","070000,1,N,1","+0294,1","+0056,1","10043,1","06,0000,9,1",,,,"00,1,+99999,9,99,9",,,"00,99,1,00,1,00,1,99999,9,00,1,00,1",,"01,9",,"120,M,+0310,1","240,N,+0132,1","99999,9,08177,1","6,1,015,1,-007,1",,,"SYN094AAXX  13181 76373 32988 01701 10294 20056 38177 40043 56015 91736 333 10310 20132 30/// 59007;","Q01  00002PRCP06"
"76373099999","2003-06-16T15:00:00","4","25.35","-105.75","1967.0","TEPEHUANES DGO., MX","FM-12","99999","V020","999,9,C,0000,1","22000,1,9,N","070000,1,N,1","+0204,1","+0093,1","10106,1","06,0000,9,1",,,,"00,1,+99999,9,99,9",,,"00,99,1,00,1,00,1,99999,9,00,1,00,1",,"01,9",,,,"99999,9,08214,1",,,,"SYN082AAXX  16151 76373 32988 00000 10204 20093 38214 40106 5//// 91436 333 30/// 58///;","Q01  00002PRCP06"
"76373099999","2003-06-16T18:00:00","4","25.35","-105.75","1967.0","TEPEHUANES DGO., MX","FM-12","99999","V020","090,1,N,0020,1","22000,1,9,N","070000,1,N,1","+0284,1","+0015,1","10083,1","06,0000,9,1",,,,"02,1,+00300,9,08,9",,,"02,99,1,02,1,01,1,00450,1,00,1,00,1",,"01,9",,"120,M,+0312,1","240,N,+0120,1","99999,9,08205,1","7,1,009,1,+999,9",,,"SYN112AAXX  16181 76373 32488 20902 10284 20015 38205 40083 57009 82100 91737 333 10312 20120 30/// 56600 58/// 82810;","Q01  00002PRCP06"
"76373099999","2003-06-16T21:00:00","4","25.35","-105.75","1967.0","TEPEHUANES DGO., MX","FM-12","99999","V020","070,1,N,0030,1","00300,1,9,N","070000,1,N,1","+0296,1","+0019,1","10053,1","06,0000,9,1",,,,"05,1,+00300,9,08,9",,,"05,99,1,05,1,01,1,00450,1,00,1,00,1",,"01,9",,,,"99999,9,08195,1","6,1,010,1,+999,9",,,"SYN100AAXX  16211 76373 32488 50703 10296 20019 38195 40053 56010 85100 92038 333 30/// 56100 58/// 85810;","Q01  00002PRCP06"
"76373099999","2003-06-17T18:00:00","4","25.35","-105.75","1967.0","TEPEHUANES DGO., MX","FM-12","99999","V020","120,1,N,0030,1","00300,1,9,N","070000,1,N,1","+0270,1","+0071,1","10052,1","06,0000,9,1",,,,"05,1,+00300,9,08,9",,,"06,99,1,05,1,01,1,00450,1,00,1,02,1",,"01,9",,"120,M,+0296,1","240,N,+0120,1","99999,9,08203,1","9,9,999,9,-002,1",,,"SYN118AAXX  17181 76373 32488 61203 10270 20071 38203 40052 5//// 85102 91738 333 10296 20120 30/// 56606 59002 85810 81070;","Q01  00002PRCP06"
"76373099999","2003-06-17T21:00:00","4","25.35","-105.75","1967.0","TEPEHUANES DGO., MX","FM-12","99999","V020","130,1,N,0060,1","99999,9,9,N","070000,1,N,1","+0290,1","+0074,1","10026,1","06,0000,9,1",,,,"04,1,+00300,9,09,9",,,"06,99,1,04,1,09,1,00450,1,00,1,00,1",,"01,9",,,,"99999,9,08188,1","6,1,015,1,-007,1",,,"SYN106AAXX  17211 76373 32488 61306 10290 20074 38188 40026 56015 84900 92040 333 30/// 56700 59007 84910 82810;","Q01  00002PRCP06"
"76373099999","2003-06-18T18:00:00","4","25.35","-105.75","1967.0","TEPEHUANES DGO., MX","FM-12","99999","V020","110,1,N,0010,1","03600,1,C,N","070000,1,N,1","+0248,1","+0095,1","10074,1","06,0000,9,1",,,,"01,1,+00300,9,09,9","01,1,+00300,9,08,9",,"05,99,1,01,1,03,1,00450,1,03,1,00,1",,"01,9",,"120,M,+0268,1","240,N,+0146,1","99999,9,08196,1","9,9,999,9,-007,1",,,"SYN124AAXX  18181 76373 32488 51101 10248 20095 38196 40074 5//// 81330 91740 333 10268 20146 30/// 56660 59007 81910 81810 83360;","Q01  00002PRCP06"
"76373099999","2003-06-18T21:00:00","4","25.35","-105.75","1967.0","TEPEHUANES DGO., MX","FM-12","99999","V020","120,1,N,0040,1","03600,1,C,N","070000,1,N,1","+0284,1","+0050,1","10024,1","06,0000,9,1",,,,"04,1,+00300,9,09,9","03,1,+00300,9,08,9",,"08,99,1,03,1,03,1,00450,1,03,1,00,1",,"01,9",,,,"99999,9,08168,1","6,1,028,1,-020,1",,,"SYN112AAXX  18211 76373 32488 81204 10284 20050 38168 40024 56028 83330 92040 333 30/// 56660 59020 84910 83810 81360;","Q01  00002PRCP06"
"76373099999","2003-06-19T18:00:00","4","25.35","-105.75","1967.0","TEPEHUANES DGO., MX","FM-12","99999","V020","120,1,N,0030,1","22000,1,9,N","070000,1,N,1","+0238,1","+0118,1","10083,1","06,0000,9,1",,,,"01,1,+00300,9,09,9",,,"02,99,1,01,1,03,1,00450,1,00,1,00,1",,"01,9",,"120,M,+0270,1","240,N,+0114,1","99999,9,08196,1","9,9,999,9,+000,1",,,"SYN118AAXX  19181 76373 32488 21203 10238 20118 38196 40083 5//// 81300 91735 333 10270 20114 30/// 56600 58000 81910 81810;","Q01  00002PRCP06"
"76373099999","2003-06-20T00:00:00","4","25.35","-105.75","1967.0","TEPEHUANES DGO., MX","FM-12","99999","V020","270,1,N,0040,1","99999,9,9,N","070000,1,N,1","+0286,1","+0078,1","09996,1","06,0000,9,1",,,,"03,1,+00300,9,09,9",,,"05,99,1,03,1,03,1,00450,1,00,1,00,1",,"01,9",,"120,M,+0322,1","180,N,+0114,1","99999,9,08158,1","7,1,010,1,-031,1",,,"SYN123AAXX  20001 76373 32488 52704 10286 20078 38158 49996 57010 83300 92340 333 10322 20114 30/// 56600 59031 7000 83910 82810;","Q01  00002PRCP06"
"76373099999","2003-06-20T15:00:00","4","25.35","-105.75","1967.0","TEPEHUANES DGO., MX","FM-12","99999","V020","999,9,C,0000,1","22000,1,9,N","070000,1,N,1","+0206,1","+0119,1","10098,1","06,0000,9,1",,,,"00,1,+99999,9,99,9",,,"00,99,1,00,1,00,1,99999,9,00,1,00,1",,"01,9",,,,"99999,9,08200,1",,,,"SYN082AAXX  20151 76373 32988 00000 10206 20119 38200 40098 5//// 91440 333 30/// 58///;","Q01  00002PRCP06"
"76373099999","2003-06-20T21:00:00","4","25.35","-105.75","1967.0","TEPEHUANES DGO., MX","FM-12","99999","V020","120,1,N,0050,1","22000,1,9,N","070000,1,N,1","+0314,1","+0059,1","10021,1","06,0000,9,1",,,,"03,1,+00300,9,08,9",,,"04,99,1,03,1,03,1,00450,1,00,1,00,1",,"01,9",,,,"99999,9,08167,1","6,1,025,1,-001,1",,,"SYN106AAXX  20211 76373 32488 41205 10314 20059 38167 40021 56025 83300 92040 333 30/// 56500 59001 83810 81810;","Q01  00002PRCP06"
"76373099999","2003-06-21T03:00:00","4","25.35","-105.75","1967.0","TEPEHUANES DGO., MX","FM-12","99999","V020","270,1,N,0030,1","22000,1,9,N","010000,1,N,1","+0214,1","+0091,1","10021,1","06,0000,9,1",,,,"03,1,+03000,9,09,9",,,"04,99,1,04,1,09,1,00250,1,00,1,00,1",,"01,9",,,,"99999,9,08192,1","2,1,019,1,+011,1",,,"SYN100AAXX  21031 76373 32360 42703 10214 20091 38192 40021 52019 84900 90255 333 30/// 56600 58011 83960;","Q01  00002PRCP06"
"76373099999","2003-06-21T18:00:00","4","25.35","-105.75","1967.0","TEPEHUANES DGO., MX","FM-12","99999","V020","110,1,N,0030,1","09000,1,9,N","070000,1,N,1","+0280,1","+0077,1","10069,1","06,0000,9,1",,,,"02,1,+00600,9,09,9","02,1,+03000,9,03,9",,"06,99,1,02,1,03,1,00250,1,03,1,04,1",,"01,9",,"120,M,+0305,1","240,N,+0150,1","99999,9,08191,1","6,1,008,1,-001,1",,,"SYN124AAXX  21181 76373 32388 61103 10280 20077 38191 40069 56008 82334 91755 333 10305 20150 30/// 56666 59001 82920 82360 82080;","Q01  00002PRCP06"
"76373099999","2003-06-22T03:00:00","4","25.35","-105.75","1967.0","TEPEHUANES DGO., MX","FM-12","99999","V020","240,1,N,0020,1","00600,1,9,N","010000,1,N,1","+0228,1","+0113,1","10021,1","06,0000,9,1",,,,"08,1,+00600,9,09,9",,,"08,99,1,08,1,09,1,00250,1,00,1,00,1",,"01,9",,,,"99999,9,08192,1","2,1,024,1,+000,1",,,"SYN100AAXX  22031 76373 32360 82402 10228 20113 38192 40021 52024 88900 90250 333 30/// 56600 58000 88920;","Q01  00002PRCP06"
"76373099999","2003-06-23T15:00:00","4","25.35","-105.75","1967.0","TEPEHUANES DGO., MX","FM-12","99999","V020","270,1,N,0010,1","03000,1,9,N","070000,1,N,1","+0190,1","+0145,1","10081,1","06,0000,9,1",,,,"05,1,+03000,9,03,9",,,"07,99,1,05,1,00,1,01750,1,03,1,02,1",,"09,9",,,,"99999,9,08182,1","9,9,999,9,-013,1",,,"SYN106AAXX  23151 76373 32788 72701 10190 20145 38182 40081 5//// 85032 91440 333 31/// 56022 59013 85360 82070;","Q01  00002PRCP06"
"76373099999","2003-06-23T18:00:00","4","25.35","-105.75","1967.0","TEPEHUANES DGO., MX","FM-12","99999","V020","120,1,N,0030,1","09000,1,C,N","070000,1,N,1","+0266,1","+0128,1","10058,1","06,0000,9,1",,,,"01,1,+00300,9,09,9","01,1,+03000,9,03,9",,"05,99,1,01,1,03,1,00450,1,03,1,02,1",,"01,9",,"120,M,+0282,1","240,N,+0148,1","99999,9,08174,1","8,1,008,1,-013,1",,,"SYN124AAXX  23181 76373 32488 51203 10266 20128 38174 40058 58008 81332 91740 333 10282 20148 30/// 56222 59013 81910 81360 83070;","Q01  00002PRCP06"
"76373099999","2003-06-23T21:00:00","4","25.35","-105.75","1967.0","TEPEHUANES DGO., MX","FM-12","99999","V020","120,1,N,0060,1","03000,1,9,N","070000,1,N,1","+0314,1","+0094,1","10000,1","06,0000,9,1",,,,"03,1,+00300,9,09,9","01,1,+00300,9,08,9","01,1,+03000,9,03,9","07,99,1,03,1,03,1,00450,1,03,1,02,1",,"01,9",,,,"99999,9,08186,1","6,1,028,1,+999,9",,,"SYN118AAXX  23211 76373 32488 71206 10314 20094 38186 40000 56028 83332 92040 333 30/// 56222 58/// 83910 81810 81360 82070;","Q01  00002PRCP06"
"76373099999","2003-06-24T15:00:00","4","25.35","-105.75","1967.0","TEPEHUANES DGO., MX","FM-12","99999","V020","280,1,N,0010,1","03600,1,C,N","070000,1,N,1","+0192,1","+0147,1","10081,1","12,0120,9,1",,,,"01,1,+00300,9,08,9","02,1,+03000,9,03,9",,"08,99,1,01,1,01,1,00250,1,03,1,08,1",,"09,9",,,,"99999,9,08194,1","9,9,999,9,+012,1",,,"SYN124AAXX  24151 76373 02388 82801 10192 20147 38194 40081 5//// 60122 81138 91440 333 31/// 56222 58012 60122 81810 82360 87270;",
"76373099999","2003-06-24T18:00:00","4","25.35","-105.75","1967.0","TEPEHUANES DGO., MX","FM-12","99999","V020","120,1,N,0040,1","09000,1,C,N","070000,1,N,1","+0244,1","+0146,1","10075,1","06,0000,9,1",,,,"02,1,+00300,9,09,9","01,1,+00300,9,08,9",,"08,99,1,02,1,03,1,00250,1,00,1,08,1",,"01,9",,"120,M,+0262,1","240,N,+0152,1","99999,9,08194,1","4,1,000,1,+020,1",,,"SYN124AAXX  24181 76373 32388 81204 10244 20146 38194 40075 54000 82308 91740 333 10262 20152 30/// 56202 58020 82910 81810 88270;","Q01  00002PRCP06"
"76373099999","2003-06-24T21:00:00","4","25.35","-105.75","1967.0","TEPEHUANES DGO., MX","FM-12","99999","V020","110,1,N,0040,1","03600,1,C,N","070000,1,N,1","+0282,1","+0148,1","10029,1","06,0000,9,1",,,,"03,1,+00300,9,09,9","01,1,+03000,9,03,9",,"08,99,1,03,1,09,1,00250,1,03,1,07,1",,"01,9",,,,"99999,9,08169,1","6,1,025,1,+023,1",,,"SYN112AAXX  24211 76373 32388 81104 10282 20148 38169 40029 56025 83937 92038 333 30/// 56222 58023 83910 81360 87270;","Q01  00002PRCP06"
"76373099999","2003-06-25T15:00:00","4","25.35","-105.75","1967.0","TEPEHUANES DGO., MX","FM-12","99999","V020","280,1,N,0010,1","09000,1,C,N","070000,1,N,1","+0202,1","+0170,1","10107,1","15,0120,9,1",,,,"03,1,+03000,9,03,9",,,"07,99,1,03,1,00,1,01250,1,03,1,04,1",,"09,9",,,,"99999,9,08213,1","9,9,999,9,+019,1",,,"SYN118AAXX  25151 76373 02688 72801 10202 20170 38213 40107 5//// 60129 83034 91440 333 31/// 56022 58019 60129 83360 84070;",
"76373099999","2003-06-25T18:00:00","4","25.35","-105.75","1967.0","TEPEHUANES DGO., MX","FM-12","99999","V020","060,1,N,0010,1","22000,1,9,N","070000,1,N,1","+0254,1","+0158,1","10092,1","06,0000,9,1",,,,"02,1,+00300,9,09,9",,,"03,99,1,02,1,03,1,00450,1,03,1,00,1",,"01,9",,"120,M,+0278,1","240,N,+0156,1","99999,9,08208,1","6,1,005,1,+014,1",,,"SYN118AAXX  25181 76373 32488 30601 10254 20158 38208 40092 56005 82330 91736 333 10278 20156 30/// 56220 58014 82910 81360;","Q01  00002PRCP06"
"76373099999","2003-06-25T21:00:00","4","25.35","-105.75","1967.0","TEPEHUANES DGO., MX","FM-12","99999","V020","120,1,N,0020,1","00300,1,9,N","070000,1,N,1","+0284,1","+0147,1","10052,1","06,0000,9,1",,,,"05,1,+00300,9,09,9",,,"07,99,1,05,1,03,1,00450,1,00,1,02,1",,"01,9",,,,"99999,9,08190,1","6,1,018,1,+021,1",,,"SYN106AAXX  25211 76373 32488 71202 10284 20147 38190 40052 56018 85302 92035 333 30/// 56202 58021 85910 82070;","Q01  00002PRCP06"
"76373099999","2003-06-26T15:00:00","4","25.35","-105.75","1967.0","TEPEHUANES DGO., MX","FM-12","99999","V020","210,1,N,0010,1","09000,1,C,N","070000,1,N,1","+0206,1","+0143,1","10114,1","06,0000,9,1",,,,"01,1,+00300,9,08,9",,,"05,99,1,01,1,01,1,00450,1,00,1,02,1",,"01,9",,,,"99999,9,08229,1","9,9,999,9,+016,1",,,"SYN106AAXX  26151 76373 32488 52101 10206 20143 38229 40114 5//// 81102 91440 333 30/// 56206 58016 81810 84070;","Q01  00002PRCP06"
"76373099999","2003-06-26T18:00:00","4","25.35","-105.75","1967.0","TEPEHUANES DGO., MX","FM-12","99999","V020","100,1,N,0020,1","09000,1,C,N","070000,1,N,1","+0274,1","+0145,1","10087,1","06,0000,9,1",,,,"02,1,+00300,9,09,9",,,"05,99,1,02,1,03,1,00450,1,00,1,02,1",,"01,9",,"120,M,+0297,1","240,N,+0158,1","99999,9,08211,1","7,1,018,1,+003,1",,,"SYN118AAXX  26181 76373 32488 51002 10274 20145 38211 40087 57018 82302 91740 333 10297 20158 30/// 56202 58003 82910 83070;","Q01  00002PRCP06"
"76373099999","2003-06-26T21:00:00","4","25.35","-105.75","1967.0","TEPEHUANES DGO., MX","FM-12","99999","V020","120,1,N,0040,1","00300,1,C,N","070000,1,N,1","+0304,1","+0108,1","10038,1","06,0000,9,1",,,,"04,1,+00300,9,09,9","01,1,+00300,9,08,9",,"06,99,1,04,1,03,1,00450,1,00,1,02,1",,"01,9",,,,"99999,9,08183,1","6,1,028,1,-007,1",,,"SYN112AAXX  26211 76373 32488 61204 10304 20108 38183 40038 56028 84302 92037 333 30/// 56202 59007 84910 81810 81070;","Q01  00002PRCP06"
"76373099999","2003-06-27T00:00:00","4","25.35","-105.75","1967.0","TEPEHUANES DGO., MX","FM-12","99999","V020","120,1,N,0030,1","03600,1,9,N","070000,1,N,1","+0300,1","+0095,1","09998,1","06,0000,9,1","24,0000,9,1",,,"04,1,+00300,9,09,9",,,"05,99,1,04,1,03,1,00450,1,03,1,00,1",,"01,9",,"120,M,+0340,1","180,N,+0158,1","99999,9,08167,1","7,1,016,1,+999,9",,,"SYN130AAXX  27001 76373 32488 51203 10300 20095 38167 49998 57016 84330 92335 333 10340 20158 30/// 50670 56220 58/// 70000 84910 81070;","Q01  00002PRCP06"
"76373099999","2003-06-27T15:00:00","4","25.35","-105.75","1967.0","TEPEHUANES DGO., MX","FM-12","99999","V020","300,1,N,0010,1","09000,1,C,N","070000,1,N,1","+0184,1","+0148,1","10111,1","15,0007,9,1",,,,"02,1,+00300,9,08,9","02,1,+03000,9,03,9",,"05,99,1,02,1,01,1,00250,1,03,1,02,1",,"01,9",,,,"99999,9,08223,1","9,9,999,9,-006,1",,,"SYN124AAXX  27151 76373 02388 53001 10184 20148 38223 40111 5//// 69979 82132 91440 333 30/// 56222 59006 69979 82810 82360 81070;",
"76373099999","2003-06-27T18:00:00","4","25.35","-105.75","1967.0","TEPEHUANES DGO., MX","FM-12","99999","V020","120,1,N,0040,1","22000,1,9,N","070000,1,N,1","+0248,1","+0119,1","10099,1","06,0000,9,1",,,,"02,1,+00300,9,08,9","01,1,+03000,9,03,9",,"04,99,1,02,1,01,1,00450,1,03,1,02,1",,"01,9",,"120,M,+0272,1","240,N,+0152,1","99999,9,08217,1","6,1,006,1,+006,1",,,"SYN124AAXX  27181 76373 32488 41204 10248 20119 38217 40099 56006 82132 91736 333 10272 20152 30/// 56222 58006 82810 81360 81070;","Q01  00002PRCP06"
"76373099999","2003-06-27T21:00:00","4","25.35","-105.75","1967.0","TEPEHUANES DGO., MX","FM-12","99999","V020","120,1,N,0050,1","22000,1,9,N","070000,1,N,1","+0282,1","+0126,1","10059,1","06,0000,9,1",,,,"02,1,+00300,9,09,9","01,1,+00300,9,08,9",,"04,99,1,02,1,03,1,00450,1,03,1,00,1",,"01,9",,,,"99999,9,08194,1","6,1,023,1,+011,1",,,"SYN112AAXX  27211 76373 32488 41205 10282 20126 38194 40059 56023 82330 92036 333 30/// 56220 58011 82910 81810 81360;","Q01  00002PRCP06"
"76373099999","2003-06-29T00:00:00","4","25.35","-105.75","1967.0","TEPEHUANES DGO., MX","FM-12","99999","V020","999,9,C,0000,1","99999,9,9,N","070000,1,N,1","+0218,1","+0140,1","10067,1","24,0330,9,1",,"6,1,06,1","5,1,06,1",,,,"08,99,1,99,9,99,9,00250,1,99,9,99,9",,,,,,"99999,9,08194,1","6,1,008,1,+999,9","20,1",,"SYN072AAXX  29001 76373 01388 80000 10218 20140 38194 40067 56008 60334 72065;",
"76373099999","2003-06-29T03:00:00","4","25.35","-105.75","1967.0","TEPEHUANES DGO., MX","FM-12","99999","V020","999,9,C,0000,1","00600,1,9,N","010000,1,N,1","+0168,1","+0150,1","10106,1","03,0020,9,1",,"5,1,03,1","6,1,03,1","06,1,+00600,9,06,9",,,"08,99,1,06,1,06,1,00250,1,07,1,00,1",,"11,9",,,,"99999,9,08216,1","2,1,022,1,+999,9","20,1",,"SYN118AAXX  29031 76373 11360 80000 10168 20150 38216 40106 52022 60027 72056 86670 90250 333 32/// 56220 58/// 86620 82360;",
"76373099999","2003-06-29T21:00:00","4","25.35","-105.75","1967.0","TEPEHUANES DGO., MX","FM-12","99999","V020","110,1,N,0020,1","03600,1,C,N","070000,1,N,1","+0248,1","+0130,1","10092,1","06,0000,9,1",,,,"04,1,+00600,9,07,9",,,"08,99,1,04,1,07,1,00250,1,06,1,00,1",,"01,9",,,,"99999,9,08207,1","6,1,020,1,-005,1",,,"SYN106AAXX  29211 76373 32388 81102 10248 20130 38207 40092 56020 84760 92035 333 30/// 56220 59005 84720 84360;","Q01  00002PRCP06"
"76373099999","2003-06-30T15:00:00","4","25.35","-105.75","1967.0","TEPEHUANES DGO., MX","FM-12","99999","V020","270,1,N,0010,1","00300,1,9,N","060000,1,N,1","+0162,1","+0137,1","10146,1","09,0090,9,1",,"6,1,03,1","5,1,03,1","05,1,+00300,9,06,9",,,"08,99,1,05,1,07,1,00250,1,06,1,00,1",,"09,9",,,,"99999,9,08231,1","9,9,999,9,+014,1","50,1",,"SYN124AAXX  30151 76373 01386 82701 10162 20137 38231 40146 5//// 60098 75065 85760 91438 333 31/// 56220 58014 60098 85610 83360;",
"76373099999","2003-06-30T18:00:00","4","25.35","-105.75","1967.0","TEPEHUANES DGO., MX","FM-12","99999","V020","999,9,C,0000,1","99999,9,9,N","070000,1,N,1","+0210,1","+0140,1","10138,1","03,0000,2,1",,"5,1,06,1","5,1,06,1",,,,"08,99,1,99,9,99,9,00250,1,99,9,99,9",,,,,,"99999,9,08229,1","7,1,002,1,+999,9","01,1",,"SYN072AAXX  30181 76373 01388 80000 10210 20140 38229 40138 57002 69907 70155;",
"76373099999","2003-06-30T21:00:00","4","25.35","-105.75","1967.0","TEPEHUANES DGO., MX","FM-12","99999","V020","060,1,N,0010,1","00300,1,C,N","070000,1,N,1","+0256,1","+0144,1","10095,1","06,0000,2,1",,,,"02,1,+00300,9,09,9","03,1,+00300,9,08,9",,"07,99,1,03,1,02,1,00250,1,03,1,00,1",,"09,9",,,,"99999,9,08206,1","6,1,023,1,-001,1",,,"SYN112AAXX  30211 76373 32388 70601 10256 20144 38206 40095 56023 83230 92038 333 31/// 56220 59001 83810 82910 82360;",
"76373099999","2003-07-01T15:00:00","4","25.35","-105.75","1967.0","TEPEHUANES DGO., MX","FM-12","99999","V020","300,1,N,0010,1","03000,1,9,N","008000,1,N,1","+0168,1","+0137,1","10149,1","18,0360,9,1",,,,"04,1,+00300,9,06,9","03,1,+03000,9,03,9",,"08,99,1,04,1,06,1,00250,1,03,1,02,1",,"09,9",,,,"99999,9,08231,1","9,9,999,9,+000,1",,,"SYN124AAXX  01151 76373 02358 83001 10168 20137 38231 40149 5//// 60363 84632 91436 333 31/// 56666 58000 60363 84610 83360 82070;",
"76373099999","2003-07-01T18:00:00","4","25.35","-105.75","1967.0","TEPEHUANES DGO., MX","FM-12","99999","V020","999,9,C,0000,1","03000,1,9,N","070000,1,N,1","+0212,1","+0137,1","10136,1","06,0000,9,1",,,,"02,1,+00300,9,09,9","01,1,+00300,9,08,9","03,1,+03000,9,03,9","08,99,1,02,1,03,1,00250,1,03,1,02,1",,"09,9",,"120,M,+0232,1","240,N,+0132,1","99999,9,08226,1","6,1,005,1,-003,1",,,"SYN130AAXX  01181 76373 32388 80000 10212 20137 38226 40136 56005 82332 91740 333 10232 20132 31/// 56222 59003 82910 81810 83360 82070;","Q01  00002PRCP06"
"76373099999","2003-07-01T21:00:00","4","25.35","-105.75","1967.0","TEPEHUANES DGO., MX","FM-12","99999","V020","120,1,N,0030,1","22000,1,9,N","070000,1,N,1","+0260,1","+0135,1","10082,1","06,0000,9,1",,,,"03,1,+00300,9,09,9",,,"04,99,1,03,1,03,1,00250,1,03,1,00,1",,"09,9",,,,"99999,9,08195,1","6,1,031,1,-011,1",,,"SYN106AAXX  01211 76373 32388 41203 10260 20135 38195 40082 56031 83330 92036 333 31/// 56770 59011 83910 81360;","Q01  00002PRCP06"
"76373099999","2003-07-02T18:00:00","4","25.35","-105.75","1967.0","TEPEHUANES DGO., MX","FM-12","99999","V020","300,1,N,0020,1","22000,1,9,N","070000,1,N,1","+0242,1","+0148,1","10097,1","06,0000,9,1",,,,"02,1,+00300,9,09,9","01,1,+00300,9,08,9",,"04,99,1,02,1,03,1,00250,1,00,1,02,1",,"09,9",,"120,M,+0256,1","240,N,+0134,1","99999,9,08204,1","6,1,012,1,-022,1",,,"SYN124AAXX  02181 76373 32388 43002 10242 20148 38204 40097 56012 82302 91740 333 10256 20134 31/// 56606 59022 82910 81810 81070;","Q01  00002PRCP06"
"76373099999","2003-07-02T21:00:00","4","25.35","-105.75","1967.0","TEPEHUANES DGO., MX","FM-12","99999","V020","270,1,N,0030,1","00300,1,9,N","070000,1,N,1","+0268,1","+0103,1","10056,1","06,0000,9,1",,,,"05,1,+00300,9,09,9",,,"06,99,1,05,1,09,1,00450,1,03,1,00,1",,"01,9",,,,"99999,9,08185,1","6,1,019,1,-010,1",,,"SYN106AAXX  02211 76373 32488 62703 10268 20103 38185 40056 56019 85930 92040 333 30/// 56660 59010 85910 81360;","Q01  00002PRCP06"
"76373099999","2003-07-03T18:00:00","4","25.35","-105.75","1967.0","TEPEHUANES DGO., MX","FM-12","99999","V020","270,1,N,0020,1","22000,1,9,N","070000,1,N,1","+0260,1","+0138,1","10064,1","06,0000,9,1",,,,"03,1,+00300,9,09,9",,,"04,99,1,03,1,09,1,00250,1,03,1,00,1",,"01,9",,"120,M,+0278,1","240,N,+0122,1","99999,9,08188,1","6,1,001,1,-016,1",,,"SYN118AAXX  03181 76373 32388 42702 10260 20138 38188 40064 56001 83930 91740 333 10278 20122 30/// 56220 59016 83910 81360;","Q01  00002PRCP06"
"76373099999","2003-07-03T21:00:00","4","25.35","-105.75","1967.0","TEPEHUANES DGO., MX","FM-12","99999","V020","999,9,C,0000,1","00300,1,C,N","070000,1,N,1","+0222,1","+0120,1","10055,1","03,0020,9,1",,"6,1,03,1","5,1,03,1","02,1,+00300,9,09,9","03,1,+00300,9,08,9",,"08,99,1,03,1,02,1,00250,1,03,1,00,1",,"09,9",,,,"99999,9,08177,1","6,1,011,1,+999,9","50,1",,"SYN118AAXX  03211 76373 11388 80000 10222 20120 38177 40055 56011 60027 75065 83230 92040 333 31/// 56555 83810 82910 83360;",
"76373099999","2003-07-04T15:00:00","4","25.35","-105.75","1967.0","TEPEHUANES DGO., MX","FM-12","99999","V020","999,9,C,0000,1","22000,1,9,N","070000,1,N,1","+0186,1","+0146,1","10096,1","06,0000,9,1",,,,"02,1,+00300,9,08,9",,,"02,99,1,02,1,01,1,00250,1,00,1,00,1",,"09,9",,,,"99999,9,08203,1","9,9,999,9,+004,1",,,"SYN100AAXX  04151 76373 32388 20000 10186 20146 38203 40096 5//// 82100 91438 333 31/// 56300 58004 82810;","Q01  00002PRCP06"
"76373099999","2003-07-04T18:00:00","4","25.35","-105.75","1967.0","TEPEHUANES DGO., MX","FM-12","99999","V020","300,1,N,0010,1","22000,1,9,N","070000,1,N,1","+0264,1","+0118,1","10078,1","06,0000,9,1",,,,"02,1,+00300,9,09,9",,,"03,99,1,02,1,03,1,00250,1,00,1,00,1",,"01,9",,"120,M,+0280,1","240,N,+0134,1","99999,9,08195,1","6,1,008,1,+007,1",,,"SYN118AAXX  04181 76373 32388 33001 10264 20118 38195 40078 56008 82300 91738 333 10280 20134 30/// 56700 58007 82910 81810;","Q01  00002PRCP06"
"76373099999","2003-07-04T21:00:00","4","25.35","-105.75","1967.0","TEPEHUANES DGO., MX","FM-12","99999","V020","090,1,N,0040,1","03600,1,C,N","070000,1,N,1","+0292,1","+0095,1","10034,1","06,0000,9,1",,,,"02,1,+00300,9,09,9","02,1,+00300,9,08,9",,"05,99,1,02,1,03,1,00250,1,03,1,00,1",,"01,9",,,,"99999,9,08174,1","6,1,021,1,-003,1",,,"SYN112AAXX  04211 76373 32388 50904 10292 20095 38174 40034 56021 82330 92038 333 30/// 56770 59003 82910 82810 81360;","Q01  00002PRCP06"
"76373099999","2003-07-05T15:00:00","4","25.35","-105.75","1967.0","TEPEHUANES DGO., MX","FM-12","99999","V020","999,9,C,0000,1","22000,1,9,N","070000,1,N,1","+0234,1","+0120,1","10088,1","06,0000,9,1",,,,"01,1,+00600,9,07,9",,,"04,99,1,01,1,06,1,00250,1,03,1,00,1",,"01,9",,,,"99999,9,08201,1","9,9,999,9,+002,1",,,"SYN106AAXX  05151 76373 32388 40000 10234 20120 38201 40088 5//// 81630 91430 333 30/// 56660 58002 81720 84360;","Q01  00002PRCP06"
"76373099999","2003-07-06T21:00:00","4","25.35","-105.75","1967.0","TEPEHUANES DGO., MX","FM-12","99999","V020","120,1,N,0020,1","00600,1,9,N","070000,1,N,1","+0286,1","+0116,1","10022,1","06,0000,9,1",,,,"05,1,+00600,9,09,9",,,"06,99,1,05,1,09,1,00250,1,06,1,00,1",,"01,9",,,,"99999,9,08163,1","6,1,032,1,-011,1",,,"SYN106AAXX  06211 76373 32388 61202 10286 20116 38163 40022 56032 85960 92040 333 30/// 56660 59011 85920 81360;","Q01  00002PRCP06"
"76373099999","2003-07-07T15:00:00","4","25.35","-105.75","1967.0","TEPEHUANES DGO., MX","FM-12","99999","V020","999,9,C,0000,1","22000,1,9,N","070000,1,N,1","+0202,1","+0151,1","10091,1","06,0000,9,1",,,,"01,1,+00300,9,08,9",,,"01,99,1,01,1,01,1,00250,1,00,1,00,1",,"01,9",,,,"99999,9,08198,1","9,9,999,9,-006,1",,,"SYN100AAXX  07151 76373 32388 10000 10202 20151 38198 40091 5//// 81100 91436 333 30/// 56600 59006 81810;","Q01  00002PRCP06"
"76373099999","2003-07-07T18:00:00","4","25.35","-105.75","1967.0","TEPEHUANES DGO., MX","FM-12","99999","V020","090,1,N,0030,1","00300,1,C,N","070000,1,N,1","+0260,1","+0142,1","10075,1","06,0000,9,1",,,,"02,1,+00300,9,09,9","03,1,+00300,9,08,9",,"06,99,1,03,1,02,1,00250,1,03,1,00,1",,"01,9",,"120,M,+0280,1","240,N,+0144,1","99999,9,08142,1","7,1,006,1,-002,1",,,"SYN124AAXX  07181 76373 32388 60903 10260 20142 38142 40075 57006 83230 91740 333 10280 20144 30/// 56220 59002 83810 82910 81360;","Q01  00002PRCP06"
"76373099999","2003-07-07T21:00:00","4","25.35","-105.75","1967.0","TEPEHUANES DGO., MX","FM-12","99999","V020","100,1,N,0030,1","99999,9,9,N","070000,1,N,1","+0260,1","+0124,1","10042,1","06,0000,9,1",,,,"04,1,+00300,9,09,9",,,"07,99,1,04,1,09,1,00250,1,00,1,00,1",,"01,9",,,,"99999,9,08178,1","6,1,014,1,+015,1",,,"SYN106AAXX  07211 76373 32388 71003 10260 20124 38178 40042 56014 84900 92040 333 30/// 56100 58015 84910 83810;","Q01  00002PRCP06"
"76373099999","2003-07-08T15:00:00","4","25.35","-105.75","1967.0","TEPEHUANES DGO., MX","FM-12","99999","V020","100,1,N,0010,1","09000,1,9,N","070000,1,N,1","+0180,1","+0147,1","10137,1","15,0320,9,1",,,,"01,1,+00300,9,08,9","01,1,+03000,9,03,9",,"05,99,1,01,1,01,1,00250,1,03,1,02,1",,"09,9",,,,"99999,9,08223,1","9,9,999,9,+025,1",,,"SYN124AAXX  08151 76373 02388 51001 10180 20147 38223 40137 5//// 60329 81132 91440 333 31/// 56222 58025 60329 81810 81360 83060;",
"76373099999","2003-07-08T18:00:00","4","25.35","-105.75","1967.0","TEPEHUANES DGO., MX","FM-12","99999","V020","120,1,N,0020,1","22000,1,9,N","070000,1,N,1","+0224,1","+0130,1","10123,1","06,0000,9,1",,,,"02,1,+00300,9,09,9","01,1,+03000,9,03,9",,"04,99,1,02,1,03,1,00250,1,03,1,02,1",,"09,9",,"120,M,+0250,1","240,N,+0140,1","99999,9,08219,1","6,1,004,1,+027,1",,,"SYN124AAXX  08181 76373 32388 41202 10224 20130 38219 40123 56004 82332 91742 333 10250 20140 31/// 56222 58027 82910 81360 81070;","Q01  00002PRCP06"
"76373099999","2003-07-08T21:00:00","4","25.35","-105.75","1967.0","TEPEHUANES DGO., MX","FM-12","99999","V020","120,1,N,0040,1","03000,1,9,N","070000,1,N,1","+0256,1","+0147,1","10079,1","06,0000,9,1",,,,"02,1,+00300,9,09,9","01,1,+00300,9,08,9","03,1,+03000,9,03,9","07,99,1,02,1,03,1,00250,1,03,1,02,1",,"01,9",,,,"99999,9,08197,1","6,1,022,1,+019,1",,,"SYN118AAXX  08211 76373 32388 71204 10256 20147 38197 40079 56022 82332 92040 333 30/// 56222 58019 82910 81810 83360 81070;","Q01  00002PRCP06"
"76373099999","2003-07-09T15:00:00","4","25.35","-105.75","1967.0","TEPEHUANES DGO., MX","FM-12","99999","V020","270,1,N,0010,1","03600,1,C,N","030000,1,N,1","+0180,1","+0153,1","10124,1","15,0110,9,1",,,,"04,1,+00300,9,06,9",,,"08,99,1,04,1,06,1,00250,1,07,1,00,1",,"09,9",,,,"99999,9,08230,1","9,9,999,9,+007,1",,,"SYN118AAXX  09151 76373 02380 82701 10180 20153 38230 40124 5//// 60119 84670 91438 333 31/// 56220 58007 60119 84610 88360;",
"76373099999","2003-07-12T15:00:00","4","25.35","-105.75","1967.0","TEPEHUANES DGO., MX","FM-12","99999","V020","270,1,N,0010,1","22000,1,9,N","070000,1,N,1","+0172,1","+0126,1","10167,1","06,0000,9,1",,,,"00,1,+99999,9,99,9",,,"00,99,1,00,1,00,1,99999,9,00,1,00,1",,"01,9",,,,"99999,9,08250,1","9,9,999,9,+007,1",,,"SYN082AAXX  12151 76373 32988 02701 10172 20126 38250 40167 5//// 91430 333 30/// 58007;","Q01  00002PRCP06"
"76373099999","2003-07-12T21:00:00","4","25.35","-105.75","1967.0","TEPEHUANES DGO., MX","FM-12","99999","V020","120,1,N,0020,1","00210,1,9,N","070000,1,N,1","+0218,1","+0146,1","10116,1","06,0000,9,1",,,,,,,"07,99,1,05,1,03,1,00250,1,02,1,00,1",,"01,9",,,,"99999,9,08235,1","6,1,004,1,+010,1",,,"SYN094AAXX  12211 76373 32388 71202 10218 20146 38235 40116 56004 85320 92030 333 30/// 56220 58010;","Q01  00002PRCP06"
"76373099999","2003-07-15T15:00:00","4","25.35","-105.75","1967.0","TEPEHUANES DGO., MX","FM-12","99999","V020","999,9,C,0000,1","22000,1,9,N","070000,1,N,1","+0168,1","+0096,1","10141,1","06,0000,9,1",,,,"00,1,+99999,9,99,9",,,"00,99,1,00,1,00,1,99999,9,00,1,00,1",,"01,9",,,,"99999,9,08227,1",,,,"SYN082AAXX  15151 76373 32988 00000 10168 20096 38227 40141 5//// 91430 333 30/// 58///;","Q01  00002PRCP06"
"76373099999","2003-07-15T18:00:00","4","25.35","-105.75","1967.0","TEPEHUANES DGO., MX","FM-12","99999","V020","110,1,N,0010,1","22000,1,9,N","070000,1,N,1","+0256,1","+0099,1","10119,1","06,0000,9,1",,,,"02,1,+00300,9,08,9",,,"02,99,1,02,1,02,1,00250,1,00,1,00,1",,"01,9",,"120,M,+0284,1","240,N,+0110,1","99999,9,08219,1","7,1,008,1,+999,9",,,"SYN112AAXX  15181 76373 32388 21101 10256 20099 38219 40119 57008 82200 91735 333 10284 20110 30/// 56200 58/// 82810;","Q01  00002PRCP06"
"76373099999","2003-07-15T21:00:00","4","25.35","-105.75","1967.0","TEPEHUANES DGO., MX","FM-12","99999","V020","040,1,N,0020,1","22000,1,9,N","070000,1,N,1","+0280,1","+0063,1","10085,1","06,0000,9,1",,,,"04,1,+06000,9,08,9",,,"04,99,1,04,1,02,1,00250,1,00,1,00,1",,"01,9",,,,"99999,9,08204,1","7,1,015,1,+999,9",,,"SYN100AAXX  15211 76373 32388 40402 10280 20063 38204 40085 57015 84200 92037 333 30/// 56200 58/// 84870;","Q01  00002PRCP06"
"76373099999","2003-07-16T00:00:00","4","25.35","-105.75","1967.0","TEPEHUANES DGO., MX","FM-12","99999","V020","070,1,N,0040,1","22000,1,9,N","070000,1,N,1","+0274,1","+0048,1","10043,1","06,0000,9,1","24,0000,9,1",,,"04,1,+00300,9,08,9",,,"04,99,1,04,1,02,1,00250,1,00,1,06,1",,"01,9",,"120,M,+0308,1","180,N,+0110,1","99999,9,08190,1","7,1,014,1,+999,9",,,"SYN130AAXX  16001 76373 32388 40704 10274 20048 38190 40043 57014 84206 92340 333 10308 20110 30/// 50650 56202 58/// 70000 84810 81070;","Q01  00002PRCP06"
"76373099999","2003-07-16T15:00:00","4","25.35","-105.75","1967.0","TEPEHUANES DGO., MX","FM-12","99999","V020","020,1,N,0010,1","22000,1,9,N","070000,1,N,1","+0166,1","+0074,1","10145,1","06,0000,9,1",,,,"03,1,+06000,9,00,9",,,"03,99,1,00,1,00,1,99999,9,00,1,05,1",,"01,9",,,,"99999,9,08219,1","9,9,999,9,-008,1",,,"SYN100AAXX  16151 76373 32988 30201 10166 20074 38219 40145 5//// 83005 91450 333 30/// 56002 59008 83070;","Q01+000032SCOTLCQ02  00002PRCP06"
"76373099999","2003-07-16T18:00:00","4","25.35","-105.75","1967.0","TEPEHUANES DGO., MX","FM-12","99999","V020","110,1,N,0030,1","22000,1,9,N","070000,1,N,1","+0260,1","+0084,1","10125,1","06,0000,9,1",,,,"02,1,+00300,9,08,9",,,"02,99,1,02,1,02,1,00250,1,06,1,00,1",,"01,9",,"120,M,+0280,1","240,N,+0094,1","99999,9,08214,1","7,1,020,1,-005,1",,,"SYN118AAXX  16181 76373 32388 21103 10260 20084 38214 40125 57020 82260 91742 333 10280 20094 30/// 56220 59005 82810 81360;","Q01  00002PRCP06"
"76373099999","2003-07-17T00:00:00","4","25.35","-105.75","1967.0","TEPEHUANES DGO., MX","FM-12","99999","V020","110,1,N,0020,1","22000,1,9,N","070000,1,N,1","+0278,1","+0069,1","10043,1","06,0000,9,1","24,0000,9,1",,,"03,1,+00300,9,00,9",,,"03,99,1,03,1,06,1,00250,1,06,1,00,1",,"01,9",,"120,M,+0314,1","180,N,+0094,1","99999,9,08191,1","7,1,013,1,+001,1",,,"SYN130AAXX  17001 76373 32388 31102 10278 20069 38191 40043 57013 83660 92340 333 10314 20094 30/// 50740 56220 58001 70000 83010 82360;","Q01  00002PRCP06"
"76373099999","2003-07-17T15:00:00","4","25.35","-105.75","1967.0","TEPEHUANES DGO., MX","FM-12","99999","V020","999,9,C,0000,1","03000,1,9,N","070000,1,N,1","+0160,1","+0118,1","10156,1","06,0000,9,1",,,,"06,1,+03000,9,03,9",,,"06,99,1,06,1,00,1,01250,1,07,1,00,1",,"01,9",,,,"99999,9,08244,1","9,9,999,9,+030,1",,,"SYN100AAXX  17151 76373 32688 60000 10160 20118 38244 40156 5//// 86070 91430 333 30/// 56020 58030 86360;","Q01  00002PRCP06"
"76373099999","2003-07-18T00:00:00","4","25.35","-105.75","1967.0","TEPEHUANES DGO., MX","FM-12","99999","V020","220,1,N,0020,1","00210,1,9,N","070000,1,N,1","+0292,1","+0150,1","10101,1","01,0000,2,1","24,9999,9,9",,,,,,"08,99,1,08,1,09,1,00250,1,00,1,00,1",,"09,9",,"120,M,+0310,1","180,N,+0126,1","99999,9,08230,1","2,1,011,1,+039,1",,,"SYN130AAXX  18001 76373 21388 82202 10292 20150 38230 40101 52011 69905 88900 92330 333 10310 20126 31/// 50640 56200 58039 79999 88910;","Q01  99992PRCP24"
"76373099999","2003-07-18T18:00:00","4","25.35","-105.75","1967.0","TEPEHUANES DGO., MX","FM-12","99999","V020","100,1,N,0030,1","00300,1,9,N","070000,1,N,1","+0242,1","+0144,1","10151,1","06,0000,9,1",,,,"08,1,+00300,9,07,9",,,"08,99,1,08,1,07,1,00250,1,00,1,00,1",,"01,9",,"120,M,+0264,1","240,N,+0154,1","99999,9,08250,1","7,1,011,1,+010,1",,,"SYN112AAXX  18181 76373 32388 81003 10242 20144 38250 40151 57011 88700 91755 333 10264 20154 30/// 56200 58010 88710;","Q01  00002PRCP06"
"76373099999","2003-07-19T00:00:00","4","25.35","-105.75","1967.0","TEPEHUANES DGO., MX","FM-12","99999","V020","120,1,N,0020,1","00300,1,C,N","070000,1,N,1","+0240,1","+0138,1","10110,1","06,0000,9,1","24,0010,9,1",,,"06,1,+00300,9,07,9",,,"06,99,1,06,1,07,1,00250,1,00,1,03,1",,"01,9",,"120,M,+0276,1","180,N,+0154,1","99999,9,08238,1","2,1,004,1,+008,1",,,"SYN130AAXX  19001 76373 32388 61202 10240 20138 38238 40110 52004 86703 92345 333 10276 20154 30/// 50630 56202 58008 70010 86710 82070;","Q01  00002PRCP06"
"76373099999","2003-07-20T00:00:00","4","25.35","-105.75","1967.0","TEPEHUANES DGO., MX","FM-12","99999","V020","240,1,N,0030,1","22000,1,9,N","070000,1,N,1","+0214,1","+0132,1","10086,1","02,0000,9,1",,"5,1,06,1","5,1,06,1",,,,"02,99,1,99,9,99,9,00250,1,99,9,99,9",,,,,,"99999,9,08219,1","7,1,008,1,+999,9","01,1",,"SYN072AAXX  20001 76373 21388 22403 10214 20132 38219 40086 57008 69906 70155;","Q01  00002PRCP02"
"76373099999","2003-07-21T21:00:00","4","25.35","-105.75","1967.0","TEPEHUANES DGO., MX","FM-12","99999","V020","090,1,N,0020,1","03600,1,C,N","070000,1,N,1","+0288,1","+0106,1","10079,1","06,0000,9,1",,,,"03,1,+00300,9,09,9","01,1,+00300,9,08,9",,"06,99,1,03,1,03,1,00250,1,03,1,00,1",,"01,9",,,,"99999,9,08203,1","6,1,022,1,+999,9",,,"SYN112AAXX  21211 76373 32388 60902 10288 20106 38203 40079 56022 83330 92040 333 30/// 56220 58/// 83910 81810 82360;","Q01  00002PRCP06"
"76373099999","2003-07-23T15:00:00","4","25.35","-105.75","1967.0","TEPEHUANES DGO., MX","FM-12","99999","V020","240,1,N,0010,1","22000,1,9,N","070000,1,N,1","+0182,1","+0125,1","10147,1","18,0060,9,1",,,,"01,1,+06000,9,00,9",,,"01,99,1,00,1,00,1,99999,9,00,1,02,1",,"09,9",,,,"99999,9,08242,1","9,9,999,9,+002,1",,,"SYN112AAXX  23151 76373 02988 12401 10182 20125 38242 40147 5//// 60063 80002 91438 333 31/// 56002 58002 60063 81070;",
"76373099999","2003-07-23T21:00:00","4","25.35","-105.75","1967.0","TEPEHUANES DGO., MX","FM-12","99999","V020","210,1,N,0030,1","22000,1,9,N","070000,1,N,1","+0284,1","+0133,1","10079,1","06,0000,9,1",,,,"03,1,+00300,9,09,9",,,"04,99,1,03,1,03,1,00250,1,00,1,00,1",,"01,9",,,,"99999,9,08204,1","6,1,031,1,-007,1",,,"SYN106AAXX  23211 76373 32388 42103 10284 20133 38204 40079 56031 83300 92040 333 30/// 56200 59007 83910 81810;","Q01  00002PRCP06"
"76373099999","2003-07-24T15:00:00","4","25.35","-105.75","1967.0","TEPEHUANES DGO., MX","FM-12","99999","V020","999,9,C,0000,1","06000,1,9,N","070000,1,N,1","+0180,1","+0134,1","10159,1","18,0008,9,1",,,,"06,1,+06000,9,02,9",,,"06,99,1,00,1,00,1,99999,9,06,1,08,1",,"09,9",,,,"99999,9,08245,1","9,9,999,9,+003,1",,,"SYN112AAXX  24151 76373 02988 60000 10180 20134 38245 40159 5//// 69983 80068 91440 333 31/// 56002 58003 69983 86270;",
"76373099999","2003-07-24T18:00:00","4","25.35","-105.75","1967.0","TEPEHUANES DGO., MX","FM-12","99999","V020","120,1,N,0010,1","22000,1,9,N","070000,1,N,1","+0244,1","+0133,1","10137,1","06,0000,9,1",,,,"02,1,+00300,9,09,9",,,"04,99,1,02,1,03,1,00250,1,00,1,02,1",,"01,9",,"120,M,+0268,1","240,N,+0130,1","99999,9,08235,1","6,1,010,1,+010,1",,,"SYN118AAXX  24181 76373 32388 41201 10244 20133 38235 40137 56010 82302 91738 333 10268 20130 30/// 56202 58010 82910 82070;","Q01  00002PRCP06"
"76373099999","2003-07-24T21:00:00","4","25.35","-105.75","1967.0","TEPEHUANES DGO., MX","FM-12","99999","V020","120,1,N,0010,1","00300,1,9,N","070000,1,N,1","+0238,1","+0133,1","10096,1","01,0000,2,1",,"9,1,03,1","5,1,03,1","05,1,+00300,9,09,9",,,"06,99,1,05,1,09,1,00250,1,00,1,00,1",,"09,9",,,,"99999,9,08214,1","0,1,021,1,+010,1","29,1",,"SYN118AAXX  24211 76373 11388 61201 10238 20133 38214 40096 50021 69925 72995 85900 92040 333 31/// 56200 58010 85910 81810;",
"76373099999","2003-07-25T15:00:00","4","25.35","-105.75","1967.0","TEPEHUANES DGO., MX","FM-12","99999","V020","330,1,N,0010,1","22000,1,9,N","070000,1,N,1","+0180,1","+0134,1","10133,1","06,0000,9,1",,,,"00,1,+99999,9,99,9",,,"00,99,1,00,1,00,1,99999,9,00,1,00,1",,"01,9",,,,"99999,9,08230,1","9,9,999,9,-015,1",,,"SYN082AAXX  25151 76373 32988 03301 10180 20134 38230 40133 5//// 91440 333 30/// 59015;","Q01  00002PRCP06"
"76373099999","2003-07-26T00:00:00","4","25.35","-105.75","1967.0","TEPEHUANES DGO., MX","FM-12","99999","V020","120,1,N,0030,1","00210,1,9,N","070000,1,N,1","+0256,1","+0086,1","10055,1","06,0000,9,1","24,0000,9,1",,,,,,"07,99,1,07,1,09,1,00250,1,00,1,00,1",,"01,9",,"120,M,+0308,1","180,N,+0128,1","99999,9,08199,1","7,1,007,1,+999,9",,,"SYN124AAXX  26001 76373 32388 71203 10256 20086 38199 40055 57007 87900 92350 333 10308 20128 30/// 50630 56200 58/// 70000 87910;","Q01  00002PRCP06"
"76373099999","2003-07-26T03:00:00","4","25.35","-105.75","1967.0","TEPEHUANES DGO., MX","FM-12","99999","V020","260,1,N,0010,1","00300,1,9,N","000000,1,N,1","+0198,1","+0109,1","10071,1","06,0000,9,1",,,,"08,1,+00300,9,09,9",,,"08,99,1,08,1,09,1,00250,1,00,1,00,1",,"01,9",,,,"99999,9,08219,1","2,1,020,1,+999,9",,,"SYN100AAXX  26031 76373 32300 82601 10198 20109 38219 40071 52020 88900 90240 333 30/// 56200 58/// 88910;","Q01  00002PRCP06"
"76373099999","2003-07-26T15:00:00","4","25.35","-105.75","1967.0","TEPEHUANES DGO., MX","FM-12","99999","V020","030,1,N,0010,1","22000,1,9,N","070000,1,N,1","+0150,1","+0121,1","10165,1","12,0041,9,1",,"5,1,03,1","6,1,03,1","01,1,+09000,9,00,9",,,"01,99,1,01,1,00,1,00250,1,00,1,06,1",,"09,9",,,,"99999,9,08238,1","9,9,999,9,+008,1","20,1",,"SYN112AAXX  26151 76373 11388 10301 10150 20121 38238 40165 5//// 60042 72056 81006 91440 333 31/// 56002 58008 81080;",
"76373099999","2003-07-26T21:00:00","4","25.35","-105.75","1967.0","TEPEHUANES DGO., MX","FM-12","99999","V020","130,1,N,0040,1","00300,1,9,N","070000,1,N,1","+0234,1","+0101,1","10132,1","06,0000,2,1",,,,"08,1,+00300,9,09,9",,,"08,99,1,08,1,09,1,00250,1,00,1,00,1",,"01,9",,,,"99999,9,08232,1","7,1,008,1,+026,1",,,"SYN100AAXX  26211 76373 32388 81304 10234 20101 38232 40132 57008 88900 92043 333 30/// 56200 58026 88910;",
"76373099999","2003-07-27T00:00:00","4","25.35","-105.75","1967.0","TEPEHUANES DGO., MX","FM-12","99999","V020","130,1,N,0010,1","00300,1,C,N","070000,1,N,1","+0242,1","+0082,1","10098,1","06,0000,9,1","24,0004,9,1",,,"06,1,+00300,9,09,9",,,"06,99,1,06,1,09,1,00250,1,03,1,00,1",,"01,9",,"120,M,+0280,1","180,N,+0106,1","99999,9,08220,1","7,1,012,1,+021,1",,,"SYN130AAXX  27001 76373 32388 61301 10242 20082 38220 40098 57012 86930 92330 333 10280 20106 30/// 50470 56220 58021 70004 86910 82360;","Q01  00002PRCP06"
"76373099999","2003-07-27T15:00:00","4","25.35","-105.75","1967.0","TEPEHUANES DGO., MX","FM-12","99999","V020","300,1,N,0010,1","03000,1,9,N","070000,1,N,1","+0154,1","+0125,1","10186,1","06,0000,9,1",,,,"08,1,+03000,9,03,9",,,"08,99,1,08,1,00,1,00250,1,03,1,00,1",,"01,9",,,,"99999,9,08256,1","9,9,999,9,+018,1",,,"SYN100AAXX  27151 76373 32388 83001 10154 20125 38256 40186 5//// 88030 91440 333 30/// 56020 58018 88360;","Q01  00002PRCP06"
"76373099999","2003-07-27T18:00:00","4","25.35","-105.75","1967.0","TEPEHUANES DGO., MX","FM-12","99999","V020","040,1,N,0010,1","22000,1,9,N","070000,1,N,1","+0220,1","+0133,1","10204,1","06,0000,9,1",,,,"03,1,+00300,9,09,9",,,"03,99,1,03,1,03,1,00250,1,03,1,00,1",,"01,9",,"120,M,+0244,1","240,N,+0118,1","99999,9,08248,1","7,1,008,1,+008,1",,,"SYN118AAXX  27181 76373 32388 30401 10220 20133 38248 40204 57008 83330 91745 333 10244 20118 30/// 56220 58008 83910 83360;","Q01  00002PRCP06"
"76373099999","2003-07-27T21:00:00","4","25.35","-105.75","1967.0","TEPEHUANES DGO., MX","FM-12","99999","V020","120,1,N,0020,1","00300,1,9,N","070000,1,N,1","+0236,1","+0119,1","10123,2","06,0000,9,1",,,,"06,1,+00300,9,09,9",,,"06,99,1,06,1,03,1,00250,1,00,1,00,1",,"01,9",,,,"99999,9,08224,1","7,1,024,1,-008,1",,,"SYN100AAXX  27211 76373 32388 61202 10236 20119 38224 40123 57024 86300 92045 333 30/// 56200 59008 86910;","Q01+101233APOSLPQ02  00002PRCP06"
"76373099999","2003-07-28T00:00:00","4","25.35","-105.75","1967.0","TEPEHUANES DGO., MX","FM-12","99999","V020","110,1,N,0020,1","99999,9,9,N","070000,1,N,1","+0220,1","+0121,1","10098,1","02,0000,9,1",,"5,1,06,1","5,1,06,1",,,,"08,99,1,99,9,99,9,00250,1,99,9,99,9",,,,,,"99999,9,08216,1","7,1,008,1,+999,9","02,1",,"SYN072AAXX  28001 76373 21388 81102 10220 20121 38216 40098 57008 69906 70255;","Q01  00002PRCP02"
"76373099999","2003-07-28T18:00:00","4","25.35","-105.75","1967.0","TEPEHUANES DGO., MX","FM-12","99999","V020","090,1,N,0020,1","22000,1,9,N","070000,1,N,1","+0236,1","+0133,1","10146,1","06,0000,9,1",,,,"02,1,+00300,9,09,9",,,"03,99,1,02,1,03,1,00250,1,03,1,00,1",,"01,9",,"120,M,+0256,1","240,N,+0120,1","99999,9,08236,1","6,1,006,1,-012,1",,,"SYN118AAXX  28181 76373 32388 30902 10236 20133 38236 40146 56006 82330 91742 333 10256 20120 30/// 56220 59012 82910 81360;","Q01  00002PRCP06"
"76373099999","2003-07-28T21:00:00","4","25.35","-105.75","1967.0","TEPEHUANES DGO., MX","FM-12","99999","V020","150,1,N,0020,1","03600,1,C,N","070000,1,N,1","+0254,1","+0123,1","10099,1","06,0000,9,1",,,,"04,1,+00300,9,09,9",,,"06,99,1,04,1,03,1,00250,1,03,1,00,1",,"01,9",,,,"99999,9,08211,1","6,1,025,1,-013,1",,,"SYN106AAXX  28211 76373 32388 61502 10254 20123 38211 40099 56025 84330 92040 333 30/// 56220 59013 84910 82360;","Q01  00002PRCP06"
"76373099999","2003-07-29T15:00:00","4","25.35","-105.75","1967.0","TEPEHUANES DGO., MX","FM-12","99999","V020","999,9,C,0000,1","22000,1,9,N","070000,1,N,1","+0164,1","+0143,1","10152,1","15,0030,9,1",,,,"01,1,+00300,9,08,9",,,"02,99,1,01,1,01,1,00250,1,03,1,00,1",,"09,9",,,,"99999,9,08235,1","9,9,999,9,-007,1",,,"SYN118AAXX  29151 76373 02388 20000 10164 20143 38235 40152 5//// 60039 81130 91440 333 31/// 56660 59007 60039 81810 81360;",
"76373099999","2003-07-29T21:00:00","4","25.35","-105.75","1967.0","TEPEHUANES DGO., MX","FM-12","99999","V020","090,1,N,0020,1","22000,1,9,N","070000,1,N,1","+0274,1","+0115,1","10087,1","06,0000,9,1",,,,"02,1,+00300,9,09,9",,,"03,99,1,02,1,03,1,00250,1,00,1,00,1",,"01,9",,,,"99999,9,08204,1","6,1,023,1,-007,1",,,"SYN106AAXX  29211 76373 32388 30902 10274 20115 38204 40087 56023 82300 92037 333 30/// 56100 59007 82910 81810;","Q01  00002PRCP06"
"76373099999","2003-07-30T15:00:00","4","25.35","-105.75","1967.0","TEPEHUANES DGO., MX","FM-12","99999","V020","999,9,C,0000,1","03600,1,C,N","070000,1,N,1","+0182,1","+0155,1","10135,1","15,0060,9,1",,,,"02,1,+00300,9,08,9",,,"08,99,1,02,1,01,1,00250,1,03,1,00,1",,"09,9",,,,"99999,9,08238,1","9,9,999,9,+003,1",,,"SYN118AAXX  30151 76373 02388 80000 10182 20155 38238 40135 5//// 60069 82130 91440 333 31/// 56660 58003 60069 82810 86360;",
"76373099999","2003-07-30T18:00:00","4","25.35","-105.75","1967.0","TEPEHUANES DGO., MX","FM-12","99999","V020","999,9,C,0000,1","03600,1,C,N","070000,1,N,1","+0222,1","+0145,1","10126,1","06,0000,9,1",,,,"01,1,+00300,9,09,9","01,1,+00300,9,08,9",,"08,99,1,01,1,03,1,00250,1,03,1,00,1",,"09,9",,"120,M,+0242,1","240,N,+0156,1","99999,9,08232,1","8,1,006,1,+005,1",,,"SYN124AAXX  30181 76373 32388 80000 10222 20145 38232 40126 58006 81330 91740 333 10242 20156 31/// 56220 58005 81910 81810 86360;","Q01  00002PRCP06"
"76373099999","2003-07-30T21:00:00","4","25.35","-105.75","1967.0","TEPEHUANES DGO., MX","FM-12","99999","V020","040,1,N,0010,1","00300,1,C,N","070000,1,N,1","+0240,1","+0132,1","10100,1","06,0000,9,1",,,,"03,1,+00300,9,09,9","02,1,+00300,9,08,9","04,1,+03000,9,03,9","08,99,1,03,1,06,1,00250,1,03,1,02,1",,"01,9",,,,"99999,9,08217,1","6,1,015,1,+013,1",,,"SYN118AAXX  30211 76373 32388 80401 10240 20132 38217 40100 56015 83632 92040 333 30/// 56222 58013 83910 82810 84360 82070;","Q01  00002PRCP06"
"76373099999","2003-07-31T15:00:00","4","25.35","-105.75","1967.0","TEPEHUANES DGO., MX","FM-12","99999","V020","999,9,C,0000,1","03600,1,C,N","070000,1,N,1","+0190,1","+0145,1","10143,1","18,0070,9,1",,,,"02,1,+00300,9,08,9","02,1,+03000,9,03,9",,"06,99,1,02,1,01,1,00250,1,03,1,02,1",,"09,9",,,,"99999,9,08238,1","9,9,999,9,+000,1",,,"SYN124AAXX  31151 76373 02388 60000 10190 20145 38238 40143 5//// 60073 82132 91436 333 31/// 56222 58000 60073 82810 82360 82070;",
"76373099999","2003-07-31T18:00:00","4","25.35","-105.75","1967.0","TEPEHUANES DGO., MX","FM-12","99999","V020","110,1,N,0040,1","09000,1,C,N","070000,1,N,1","+0236,1","+0148,1","10134,1","06,0000,9,1",,,,"02,1,+00300,9,08,9","02,1,+03000,9,03,9",,"05,99,1,02,1,02,1,00250,1,03,1,02,1",,"01,9",,"120,M,+0256,1","240,N,+0152,1","99999,9,08238,1","4,1,000,1,+006,1",,,"SYN124AAXX  31181 76373 32388 51104 10236 20148 38238 40134 54000 82232 91740 333 10256 20152 30/// 56222 58006 82810 82360 81070;","Q01  00002PRCP06"
"76373099999","2003-07-31T21:00:00","4","25.35","-105.75","1967.0","TEPEHUANES DGO., MX","FM-12","99999","V020","120,1,N,0060,1","03000,1,9,N","070000,1,N,1","+0260,1","+0135,1","10093,1","06,0000,9,1",,,,"03,1,+00300,9,09,9","01,1,+00300,9,08,9","01,1,+03000,9,03,9","06,99,1,03,1,03,1,00250,1,03,1,02,1",,"01,9",,,,"99999,9,08216,1","6,1,022,1,-001,1",,,"SYN118AAXX  31211 76373 32388 61206 10260 20135 38216 40093 56022 83332 92040 333 30/// 56222 59001 83910 81810 81360 81070;","Q01  00002PRCP06"
"76373099999","2003-08-01T03:00:00","4","25.35","-105.75","1967.0","TEPEHUANES DGO., MX","FM-12","99999","V020","060,1,N,0010,1","00300,1,9,N","000000,1,N,1","+0212,1","+0156,1","10085,1","01,0000,2,1",,"1,1,03,1","1,1,03,1","08,1,+00300,9,09,9",,,"08,99,1,08,1,03,1,00250,1,00,1,00,1",,"09,9",,,,"99999,9,08227,1",,"50,1",,"SYN112AAXX  01031 76373 21300 80601 10212 20156 38227 40085 5//// 69905 75011 88300 90245 333 31/// 56200 58/// 88910;",
"76373099999","2003-08-02T00:00:00","4","25.35","-105.75","1967.0","TEPEHUANES DGO., MX","FM-12","99999","V020","240,1,N,0040,1","00210,1,9,N","070000,1,N,1","+0208,1","+0149,1","99999,9","06,0000,9,1","24,0002,9,1",,,,,,"08,99,1,08,1,03,1,00250,1,00,1,00,1",,"01,9",,"120,M,+0360,1","180,N,+0142,1","99999,9,08214,1",,,,"SYN124AAXX  02001 76373 32388 82404 10208 20149 38214 4//// 5//// 88300 92330 333 10360 20142 30/// 50680 56200 58/// 70002 88910;","Q01  00002PRCP06"
"76373099999","2003-08-02T03:00:00","4","25.35","-105.75","1967.0","TEPEHUANES DGO., MX","FM-12","99999","V020","240,1,N,0010,1","00300,1,9,N","000000,1,N,1","+0178,1","+0129,1","99999,9","06,0000,9,1",,,,"06,1,+00300,9,09,9",,,"06,99,1,06,1,09,1,00250,1,00,1,00,1",,"01,9",,,,"99999,9,08231,1","2,1,017,1,+004,1",,,"SYN100AAXX  02031 76373 32300 62401 10178 20129 38231 4//// 52017 86900 90235 333 30/// 56200 58004 86910;","Q01  00002PRCP06"
"76373099999","2003-08-02T15:00:00","4","25.35","-105.75","1967.0","TEPEHUANES DGO., MX","FM-12","99999","V020","999,9,C,0000,1","22000,1,9,N","070000,1,N,1","+0164,1","+0142,1","10154,1","06,0000,9,1",,,,"00,1,+99999,9,99,9",,,"00,99,1,00,1,00,1,99999,9,00,1,00,1",,"01,9",,,,"99999,9,08231,1",,,,"SYN082AAXX  02151 76373 32988 00000 10164 20142 38231 40154 5//// 91435 333 30/// 58///;","Q01  00002PRCP06"
"76373099999","2003-08-03T03:00:00","4","25.35","-105.75","1967.0","TEPEHUANES DGO., MX","FM-12","99999","V020","290,1,N,0010,1","00300,1,9,N","000000,1,N,1","+0196,1","+0154,1","10067,1","03,0010,9,1",,"6,1,03,1","5,1,03,1","06,1,+00300,9,09,9",,,"06,99,1,06,1,09,1,00250,1,00,1,00,1",,"09,9",,,,"99999,9,08218,1","2,1,020,1,-013,1","01,1",,"SYN112AAXX  03031 76373 21300 62901 10196 20154 38218 40067 52020 70165 86900 90230 333 31/// 56200 59013 60017 86910;",
"76373099999","2003-08-03T15:00:00","4","25.35","-105.75","1967.0","TEPEHUANES DGO., MX","FM-12","99999","V020","300,1,N,0010,1","22000,1,9,N","070000,1,N,1","+0178,1","+0145,1","10165,1","06,0005,9,1",,"5,1,03,1","5,1,03,1","01,1,+00600,9,08,9",,,"03,99,1,01,1,02,1,01250,1,03,1,00,1",,"09,9",,,,"99999,9,08238,1","9,9,999,9,+007,1","20,1",,"SYN118AAXX  03151 76373 11688 33001 10178 20145 38238 40165 5//// 69961 72055 81230 91435 333 31/// 56220 58007 81820 82360;",
"76373099999","2003-08-03T21:00:00","4","25.35","-105.75","1967.0","TEPEHUANES DGO., MX","FM-12","99999","V020","130,1,N,0030,1","22000,1,9,N","070000,1,N,1","+0302,1","+0126,1","10067,2","06,0000,2,1",,,,"03,1,+00300,9,09,9",,,"03,99,1,03,1,03,1,00250,1,00,1,00,1",,"01,9",,,,"99999,9,08199,1","7,1,020,1,-007,1",,,"SYN100AAXX  03211 76373 32388 31303 10302 20126 38199 40067 57020 83300 92050 333 30/// 56200 59007 83910;","Q01+100673APOSLP"
"76373099999","2003-08-04T15:00:00","4","25.35","-105.75","1967.0","TEPEHUANES DGO., MX","FM-12","99999","V020","310,1,N,0010,1","22000,1,9,N","070000,1,N,1","+0174,1","+0137,1","10140,1","06,0000,9,1",,,,"01,1,+06000,9,00,9",,,"01,99,1,00,1,00,1,99999,9,00,1,02,1",,"01,9",,,,"99999,9,08234,1","9,9,999,9,-004,1",,,"SYN100AAXX  04151 76373 32988 13101 10174 20137 38234 40140 5//// 80002 91440 333 30/// 56002 59004 81070;","Q01  00002PRCP06"
"76373099999","2003-08-04T21:00:00","4","25.35","-105.75","1967.0","TEPEHUANES DGO., MX","FM-12","99999","V020","320,1,N,0030,1","03000,1,C,N","070000,1,N,1","+0290,1","+0133,1","10079,1","06,0000,9,1",,,,"04,1,+00300,9,09,9","01,1,+03000,9,03,9",,"06,99,1,04,1,09,1,00450,1,03,1,02,1",,,,,,"99999,9,08206,1","6,1,020,1,+007,1",,,"SYN111AAXX  04211 76373 32488 63203 10290 20133 38206 40079 56020 84932 92040 333 3/// 56111 58007 84910 81360 81070;","Q01  00002PRCP06"
"76373099999","2003-08-05T00:00:00","4","25.35","-105.75","1967.0","TEPEHUANES DGO., MX","FM-12","99999","V020","330,1,N,0020,1","09000,1,9,N","070000,1,N,1","+0282,1","+0111,1","10033,1","06,0000,9,1",,,,"01,1,+00300,9,09,9","02,1,+00300,9,08,9",,"05,99,1,02,1,02,1,00450,1,00,1,02,1",,"01,9",,"120,M,+0317,1","180,N,+0128,1","99999,9,08187,1","6,1,019,1,-010,1",,,"SYN130AAXX  05001 76373 32488 53302 10282 20111 38187 40033 56019 82202 92338 333 10317 20128 30/// 50330 56202 59010 82810 81910 82070;","Q01  00002PRCP06"
"76373099999","2003-08-05T21:00:00","4","25.35","-105.75","1967.0","TEPEHUANES DGO., MX","FM-12","99999","V020","090,1,N,0050,1","99999,9,9,N","070000,1,N,1","+0296,1","+0084,1","10053,1","06,0000,9,1",,,,"03,1,+00300,9,09,9",,,"05,99,1,03,1,03,1,00450,1,00,1,00,1",,"01,9",,,,"99999,9,08191,1","6,1,021,1,+015,1",,,"SYN106AAXX  05211 76373 32488 50905 10296 20084 38191 40053 56021 83300 92040 333 30/// 56200 58015 83910 82810;","Q01  00002PRCP06"
"76373099999","2003-08-06T00:00:00","4","25.35","-105.75","1967.0","TEPEHUANES DGO., MX","FM-12","99999","V020","060,1,N,0010,1","99999,9,9,N","070000,1,N,1","+0270,1","+0098,1","10025,1","02,0000,9,1",,"9,1,06,1","5,1,06,1",,,,"08,99,1,99,9,99,9,00450,1,99,9,99,9",,,,,,"99999,9,08183,1","7,1,008,1,+999,9","17,1",,"SYN072AAXX  06001 76373 11488 80601 10270 20098 38183 40025 57008 69906 71795;","Q01  00002PRCP02"
"76373099999","2003-08-06T15:00:00","4","25.35","-105.75","1967.0","TEPEHUANES DGO., MX","FM-12","99999","V020","999,9,C,0000,1","22000,1,9,N","070000,1,N,1","+0182,1","+0139,1","10119,1","06,0000,9,1",,,,"01,1,+00300,9,08,9",,,"02,99,1,01,1,99,9,00450,1,00,1,05,1",,"01,9",,,,"99999,9,08228,1","9,9,999,9,+005,1",,,"SYN106AAXX  06151 76373 32488 20000 10182 20139 38228 40119 5//// 81005 91438 333 30/// 56202 58005 81810 81070;","Q01+000002SCOLCGQ02  00002PRCP06"
"76373099999","2003-08-06T21:00:00","4","25.35","-105.75","1967.0","TEPEHUANES DGO., MX","FM-12","99999","V020","120,1,N,0050,1","09000,1,C,N","070000,1,N,1","+0284,1","+0088,1","10073,1","06,0000,9,1",,,,"01,1,+00300,9,09,9","02,1,+00300,9,08,9",,"06,99,1,02,1,01,1,00450,1,00,1,05,1",,"01,9",,,,"99999,9,08203,1","7,1,015,1,+012,1",,,"SYN112AAXX  06211 76373 32488 61205 10284 20088 38203 40073 57015 82105 92040 333 30/// 56202 58012 82810 81910 82070;","Q01  00002PRCP06"
"76373099999","2003-08-07T00:00:00","4","25.35","-105.75","1967.0","TEPEHUANES DGO., MX","FM-12","99999","V020","120,1,N,0040,1","09000,1,9,N","070000,1,N,1","+0280,1","+0072,1","10075,1","06,0000,9,1","24,0000,9,1",,,"01,1,+00300,9,09,9","02,1,+00300,9,08,9",,"08,99,1,01,1,01,1,00450,1,00,1,06,1",,"01,9",,"120,M,+0314,1","180,N,+0130,1","99999,9,08196,1","7,1,007,1,+013,1",,,"SYN136AAXX  07001 76373 32488 81204 10280 20072 38196 40075 57007 81106 92340 333 10314 20130 30/// 50630 56202 58013 70000 82810 81910 85070;","Q01  00002PRCP06"
"76373099999","2003-08-08T15:00:00","4","25.35","-105.75","1967.0","TEPEHUANES DGO., MX","FM-12","99999","V020","999,9,C,0000,1","22000,1,9,N","070000,1,N,1","+0182,1","+0139,1","10159,1","06,0000,9,1",,,,"01,1,+03000,9,03,9",,,"02,99,1,01,1,00,1,01750,1,03,1,02,1",,"09,9",,,,"99999,9,08241,1",,,,"SYN106AAXX  08151 76373 32788 20000 10182 20139 38241 40159 5//// 81032 91435 333 31/// 56022 58/// 81360 81070;","Q01  00002PRCP06"
"76373099999","2003-08-08T18:00:00","4","25.35","-105.75","1967.0","TEPEHUANES DGO., MX","FM-12","99999","V020","120,1,N,0020,1","22000,1,9,N","070000,1,N,1","+0266,1","+0142,1","10139,1","06,0000,9,1",,,,"02,1,+00300,9,09,9",,,"02,99,1,02,1,03,1,00450,1,00,1,00,1",,"01,9",,"120,M,+0284,1","240,N,+0128,1","99999,9,08235,1","6,1,006,1,+999,9",,,"SYN112AAXX  08181 76373 32488 21202 10266 20142 38235 40139 56006 82300 91736 333 10284 20128 30/// 56200 58/// 82910;","Q01  00002PRCP06"
"76373099999","2003-08-09T15:00:00","4","25.35","-105.75","1967.0","TEPEHUANES DGO., MX","FM-12","99999","V020","290,1,N,0010,1","09000,1,9,N","070000,1,N,1","+0170,1","+0120,1","10157,1","06,0000,9,1",,,,"08,1,+09000,9,00,9",,,"08,99,1,00,1,00,1,99999,9,00,1,04,1",,"01,9",,,,"99999,9,08238,1","9,9,999,9,-003,1",,,"SYN100AAXX  09151 76373 32988 82901 10170 20120 38238 40157 5//// 80004 91445 333 30/// 56002 59003 88080;","Q01  00002PRCP06"
"76373099999","2003-08-09T21:00:00","4","25.35","-105.75","1967.0","TEPEHUANES DGO., MX","FM-12","99999","V020","120,1,N,0070,1","22000,1,9,N","070000,1,N,1","+0310,1","+0058,1","10098,1","06,0000,9,1",,,,"02,1,+00600,9,08,9",,,"02,99,1,02,1,02,1,00250,1,00,1,00,1",,"01,9",,,,"99999,9,08218,1","6,1,005,1,+999,9",,,"SYN100AAXX  09211 76373 32388 21207 10310 20058 38218 40098 56005 82200 92100 333 30/// 56200 58/// 82820;","Q01  00002PRCP06"
"76373099999","2003-08-10T15:00:00","4","25.35","-105.75","1967.0","TEPEHUANES DGO., MX","FM-12","99999","V020","999,9,C,0000,1","03600,1,C,N","070000,1,N,1","+0202,1","+0128,1","10138,1","06,0000,9,1",,,,"01,1,+00600,9,08,9","01,1,+03000,9,03,9",,"08,99,1,01,1,01,1,00250,1,03,1,04,1",,"01,9",,,,"99999,9,08242,1","9,9,999,9,+004,1",,,"SYN112AAXX  10151 76373 32388 80000 10202 20128 38242 40138 5//// 81134 91430 333 30/// 56222 58004 81820 81360 86080;","Q01  00002PRCP06"
"76373099999","2003-08-11T00:00:00","4","25.35","-105.75","1967.0","TEPEHUANES DGO., MX","FM-12","99999","V020","120,1,N,0050,1","03000,1,C,N","070000,1,N,1","+0290,1","+0079,1","10074,1","06,0000,9,1","24,0000,9,1",,,"03,1,+00600,9,08,9","05,1,+03000,9,03,9",,"08,99,1,03,1,02,1,00250,1,03,1,06,1",,"01,9",,"120,M,+0343,1","180,N,+0148,1","99999,9,08202,1","6,1,006,1,-007,1",,,"SYN136AAXX  11001 76373 32388 81205 10290 20079 38202 40074 56006 83236 92340 333 10343 20148 30/// 50770 56222 59007 70000 83820 85360 81080;","Q01  00002PRCP06"
"76373099999","2003-08-11T18:00:00","4","25.35","-105.75","1967.0","TEPEHUANES DGO., MX","FM-12","99999","V020","050,1,N,0010,1","22000,1,9,N","070000,1,N,1","+0276,1","+0137,1","10100,1","06,0000,9,1",,,,"01,1,+00300,9,09,9","02,1,+00300,9,08,9",,"04,99,1,02,1,01,1,00450,1,03,1,00,1",,"01,9",,"120,M,+0292,1","240,N,+0158,1","99999,9,08224,1","6,1,011,1,-011,1",,,"SYN124AAXX  11181 76373 32488 40501 10276 20137 38224 40100 56011 82130 91742 333 10292 20158 30/// 56220 59011 82810 81910 81360;","Q01  00002PRCP06"
"76373099999","2003-08-11T21:00:00","4","25.35","-105.75","1967.0","TEPEHUANES DGO., MX","FM-12","99999","V020","120,1,N,0040,1","22000,1,9,N","070000,1,N,1","+0290,1","+0092,1","10060,1","06,0000,9,1",,,,"02,1,+00300,9,09,9",,,"04,99,1,02,1,03,1,00450,1,00,1,00,1",,"01,9",,,,"99999,9,08203,1","6,1,021,1,-005,1",,,"SYN106AAXX  11211 76373 32488 41204 10290 20092 38203 40060 56021 82300 92040 333 30/// 56200 59005 82910 82810;","Q01  00002PRCP06"
"76373099999","2003-08-12T00:00:00","4","25.35","-105.75","1967.0","TEPEHUANES DGO., MX","FM-12","99999","V020","090,1,N,0050,1","03600,1,9,N","070000,1,N,1","+0282,1","+0102,1","10028,1","06,0000,9,1","24,0002,9,1",,,"01,1,+00300,9,09,9","02,1,+00300,9,08,9",,"05,99,1,02,1,01,1,00450,1,03,1,00,1",,"01,9",,"120,M,+0326,1","180,N,+0158,1","99999,9,08191,1","7,1,012,1,-011,1",,,"SYN136AAXX  12001 76373 32488 50905 10282 20102 38191 40028 57012 82130 92350 333 10326 20158 30/// 50590 56220 59011 70002 82810 81910 82360;","Q01  00002PRCP06"
"76373099999","2003-08-13T18:00:00","4","25.35","-105.75","1967.0","TEPEHUANES DGO., MX","FM-12","99999","V020","060,1,N,0080,1","22000,1,9,N","070000,1,N,1","+0272,1","+0059,1","10125,1","06,0000,9,1",,,,"02,1,+00300,9,08,9",,,"04,99,1,02,1,01,1,00450,1,03,1,00,1",,"01,9",,"120,M,+0288,1","240,N,+0124,1","99999,9,08230,1","2,1,001,1,+999,9",,,"SYN118AAXX  13181 76373 32488 40608 10272 20059 38230 40125 52001 82130 91740 333 10288 20124 30/// 56110 58/// 82810 82360;","Q01  00002PRCP06"
"76373099999","2003-08-13T21:00:00","4","25.35","-105.75","1967.0","TEPEHUANES DGO., MX","FM-12","99999","V020","060,1,N,0060,1","03600,1,C,N","070000,1,N,1","+0280,1","+0007,1","10086,1","06,0000,9,1",,,,"02,1,+00300,9,08,9",,,"05,99,1,02,1,01,1,00450,1,03,1,00,1",,"01,9",,,,"99999,9,08212,1","6,1,018,1,+999,9",,,"SYN106AAXX  13211 76373 32488 50606 10280 20007 38212 40086 56018 82130 92040 333 30/// 56110 58/// 82810 83360;","Q01  00002PRCP06"
"76373099999","2003-08-14T00:00:00","4","25.35","-105.75","1967.0","TEPEHUANES DGO., MX","FM-12","99999","V020","050,1,N,0030,1","03000,1,C,N","070000,1,N,1","+0262,1","+0053,1","10053,1","06,0000,9,1","24,0000,9,1",,,"03,1,+00300,9,08,9","03,1,+03000,9,03,9",,"08,99,1,03,1,01,1,00450,1,03,1,02,1",,"01,9",,"120,M,+0317,1","180,N,+0124,1","99999,9,08202,1","7,1,010,1,+999,9",,,"SYN136AAXX  14001 76373 32488 80503 10262 20053 38202 40053 57010 83132 92340 333 10317 20124 30/// 50790 56111 58/// 70000 83810 83360 82070;","Q01  00002PRCP06"
"76373099999","2003-08-14T15:00:00","4","25.35","-105.75","1967.0","TEPEHUANES DGO., MX","FM-12","99999","V020","999,9,C,0000,1","22000,1,9,N","070000,1,N,1","+0174,1","+0099,1","10151,1","06,0000,9,1",,,,"04,1,+03000,9,03,9",,,"04,99,1,04,1,00,1,01250,1,03,1,00,1",,"01,9",,,,"99999,9,08248,1","9,9,999,9,+019,1",,,"SYN100AAXX  14151 76373 32688 40000 10174 20099 38248 40151 5//// 84030 91440 333 30/// 56010 58019 84360;","Q01  00002PRCP06"
"76373099999","2003-08-14T18:00:00","4","25.35","-105.75","1967.0","TEPEHUANES DGO., MX","FM-12","99999","V020","120,1,N,0050,1","22000,1,9,N","070000,1,N,1","+0244,1","+0078,1","10141,1","06,0000,9,1",,,,"03,1,+00300,9,08,9",,,"04,99,1,03,1,01,1,00450,1,00,1,00,1",,"01,9",,"120,M,+0272,1","240,N,+0114,1","99999,9,08243,1","6,1,005,1,+013,1",,,"SYN118AAXX  14181 76373 32488 41205 10244 20078 38243 40141 56005 83100 91738 333 10272 20114 30/// 56200 58013 83810 81910;","Q01  00002PRCP06"
"76373099999","2003-08-14T21:00:00","4","25.35","-105.75","1967.0","TEPEHUANES DGO., MX","FM-12","99999","V020","060,1,N,0020,1","22000,1,9,N","070000,1,N,1","+0274,1","+0048,1","10103,1","06,0000,9,1",,,,"01,1,+00300,9,09,9","02,1,+00300,9,08,9",,"04,99,1,02,1,01,1,00450,1,03,1,00,1",,"01,9",,,,"99999,9,08222,1","6,1,021,1,+010,1",,,"SYN112AAXX  14211 76373 32488 40602 10274 20048 38222 40103 56021 82130 92038 333 30/// 56220 58010 82810 81910 81360;","Q01  00002PRCP06"
"76373099999","2003-08-15T15:00:00","4","25.35","-105.75","1967.0","TEPEHUANES DGO., MX","FM-12","99999","V020","270,1,N,0010,1","03600,1,C,N","070000,1,N,1","+0176,1","+0136,1","10179,1","06,0008,9,1",,,,"02,1,+00300,9,08,9",,,"08,99,1,02,1,01,1,00450,1,06,1,00,1",,"09,9",,,,"99999,9,08267,1","9,9,999,9,+019,1",,,"SYN118AAXX  15151 76373 02488 82701 10176 20136 38267 40179 5//// 69981 82160 91440 333 31/// 56220 58019 69981 82810 87360;",
"76373099999","2003-08-16T00:00:00","4","25.35","-105.75","1967.0","TEPEHUANES DGO., MX","FM-12","99999","V020","140,1,N,0040,1","22000,1,9,N","070000,1,N,1","+0244,1","+0090,1","99999,9","06,0000,9,1","24,0000,9,1",,,"02,1,+00300,9,09,9","02,1,+03000,9,03,9",,"02,99,1,02,1,03,1,00250,1,06,1,00,1",,"01,9",,"120,M,+0310,1","180,N,+0142,1","99999,9,08231,1",,,,"SYN136AAXX  16001 76373 32388 21404 10244 20090 38231 4//// 5//// 82360 92350 333 10310 20142 30/// 50440 56222 58/// 70000 82910 82360 82070;","Q01  00002PRCP06"
"76373099999","2003-08-16T15:00:00","4","25.35","-105.75","1967.0","TEPEHUANES DGO., MX","FM-12","99999","V020","999,9,C,0000,1","09000,1,9,N","070000,1,N,1","+0174,1","+0128,1","10164,1","06,0000,9,1",,,,"08,1,+09000,9,00,9",,,"08,99,1,00,1,00,1,99999,9,00,1,04,1",,"01,9",,,,"99999,9,08251,1","9,9,999,9,-016,1",,,"SYN100AAXX  16151 76373 32988 80000 10174 20128 38251 40164 5//// 80004 91435 333 30/// 56002 59016 88080;","Q01  00002PRCP06"
"76373099999","2003-08-16T18:00:00","4","25.35","-105.75","1967.0","TEPEHUANES DGO., MX","FM-12","99999","V020","100,1,N,0030,1","00300,1,9,N","070000,1,N,1","+0254,1","+0127,1","10145,1","06,0000,9,1",,,,"05,1,+00300,9,09,9",,,"05,99,1,05,1,03,1,00250,1,00,1,04,1",,"01,9",,"120,M,+0286,1","240,N,+0130,1","99999,9,08242,1","7,1,009,1,+999,9",,,"SYN118AAXX  16181 76373 32388 51003 10254 20127 38242 40145 57009 85304 91750 333 10286 20130 30/// 56202 58/// 85910 81070;","Q01  00002PRCP06"
"76373099999","2003-08-16T21:00:00","4","25.35","-105.75","1967.0","TEPEHUANES DGO., MX","FM-12","99999","V020","300,1,N,0010,1","00300,1,9,N","070000,1,N,1","+0264,1","+0097,1","10097,1","01,0010,9,1",,"5,1,03,1","5,1,03,1","06,1,+00300,9,09,9",,,"06,99,1,06,1,03,1,00250,1,00,1,00,1",,"01,9",,,,"99999,9,08216,1","7,1,026,1,+999,9","02,1",,"SYN112AAXX  16211 76373 21388 63001 10264 20097 38216 40097 57026 69995 70255 86300 92050 333 30/// 56200 58/// 86910;",
"76373099999","2003-08-17T00:00:00","4","25.35","-105.75","1967.0","TEPEHUANES DGO., MX","FM-12","99999","V020","070,1,N,0050,1","22000,1,9,N","070000,1,N,1","+0270,1","+0084,1","10056,1","06,0000,9,1","24,9999,9,9",,,"03,1,+00300,9,09,9",,,"03,99,1,03,1,03,1,00250,1,00,1,06,1",,"01,9",,"120,M,+0300,1","180,N,+0130,1","99999,9,08198,1","7,1,018,1,-033,1",,,"SYN130AAXX  17001 76373 32388 30705 10270 20084 38198 40056 57018 83306 92350 333 10300 20130 30/// 50480 56202 59033 79999 83910 81070;","Q01  00002PRCP06Q02  99992PRCP24"
"76373099999","2003-08-17T03:00:00","4","25.35","-105.75","1967.0","TEPEHUANES DGO., MX","FM-12","99999","V020","050,1,N,0020,1","22000,1,9,N","000000,1,N,1","+0226,1","+0102,1","10060,1","06,0000,9,1",,,,"01,1,+00300,9,09,9",,,"01,99,1,01,1,03,1,00250,1,00,1,00,1",,"01,9",,,,"99999,9,08212,1","2,1,014,1,-033,1",,,"SYN100AAXX  17031 76373 32300 10502 10226 20102 38212 40060 52014 81300 90245 333 30/// 56200 59033 81910;","Q01  00002PRCP06"
"76373099999","2003-08-17T15:00:00","4","25.35","-105.75","1967.0","TEPEHUANES DGO., MX","FM-12","99999","V020","999,9,C,0000,1","00600,1,9,N","070000,1,N,1","+0156,1","+0118,1","10114,1","06,0000,9,1",,,,"06,1,+00600,9,06,9",,,"08,99,1,06,1,04,1,00250,1,06,1,00,1",,"01,9",,,,"99999,9,08217,1","9,9,999,9,-034,1",,,"SYN106AAXX  17151 76373 32388 80000 10156 20118 38217 40114 5//// 86460 91440 333 30/// 56220 59034 86620 82360;","Q01  00002PRCP06"
"76373099999","2003-08-17T18:00:00","4","25.35","-105.75","1967.0","TEPEHUANES DGO., MX","FM-12","99999","V020","180,1,N,0010,1","99999,9,9,N","070000,1,N,1","+0204,1","+0128,1","10116,1","01,0010,9,1",,"5,1,06,1","5,1,06,1",,,,"08,99,1,99,9,99,9,00250,1,99,9,99,9",,,,,,"99999,9,08215,1","7,1,002,1,+999,9","02,1",,"SYN072AAXX  17181 76373 11388 81801 10204 20128 38215 40116 57002 69995 70255;",
"76373099999","2003-08-18T00:00:00","4","25.35","-105.75","1967.0","TEPEHUANES DGO., MX","FM-12","99999","V020","320,1,N,0010,1","99999,9,9,N","070000,1,N,1","+0176,1","+0162,1","10086,1","03,0030,9,1",,"6,1,06,1","5,1,06,1",,,,"08,99,1,99,9,99,9,00150,1,99,9,99,9",,,,,,"99999,9,08197,1","7,1,005,1,+999,9","02,1",,"SYN072AAXX  18001 76373 01288 83201 10176 20162 38197 40086 57005 60037 70265;",
"76373099999","2003-08-18T18:00:00","4","25.35","-105.75","1967.0","TEPEHUANES DGO., MX","FM-12","99999","V020","120,1,N,0020,1","09000,1,C,N","070000,1,N,1","+0236,1","+0148,1","10127,1","06,0000,9,1",,,,"02,1,+00300,9,08,9",,,"06,99,1,02,1,01,1,00450,1,00,1,02,1",,"01,9",,"120,M,+0260,1","240,N,+0140,1","99999,9,08226,1","7,1,002,1,+011,1",,,"SYN118AAXX  18181 76373 32488 61202 10236 20148 38226 40127 57002 82102 91736 333 10260 20140 30/// 56202 58011 82810 84070;","Q01  00002PRCP06"
"76373099999","2003-08-18T21:00:00","4","25.35","-105.75","1967.0","TEPEHUANES DGO., MX","FM-12","99999","V020","130,1,N,0050,1","22000,1,9,N","070000,1,N,1","+0282,1","+0111,1","10091,1","06,0000,9,1",,,,"02,1,+00300,9,08,9",,,"03,99,1,02,1,01,1,00450,1,00,1,02,1",,"01,9",,,,"99999,9,08211,1","6,1,015,1,+009,1",,,"SYN106AAXX  18211 76373 32488 31305 10282 20111 38211 40091 56015 82102 91738 333 30/// 56202 58009 82810 81070;","Q01  00002PRCP06"
"76373099999","2003-08-19T00:00:00","4","25.35","-105.75","1967.0","TEPEHUANES DGO., MX","FM-12","99999","V020","100,1,N,0040,1","22000,1,9,N","070000,1,N,1","+0274,1","+0072,1","10058,1","06,0000,9,1","24,0000,9,1",,,"02,1,+00300,9,08,9",,,"03,99,1,02,1,01,1,00450,1,00,1,02,1",,"01,9",,"120,M,+0304,1","180,N,+0140,1","99999,9,08200,1","7,1,011,1,+003,1",,,"SYN130AAXX  19001 76373 32488 31004 10274 20072 38200 40058 57011 82102 92335 333 10304 20140 30/// 50430 56202 58003 70000 82810 81070;","Q01  00002PRCP06"
"76373099999","2003-08-19T15:00:00","4","25.35","-105.75","1967.0","TEPEHUANES DGO., MX","FM-12","99999","V020","300,1,N,0010,1","22000,1,9,N","070000,1,N,1","+0176,1","+0119,1","10137,1","06,0000,9,1",,,,"02,1,+06000,9,00,9",,,"02,99,1,99,9,99,9,99999,9,99,9,99,9",,"01,9",,,,"99999,9,08235,1","0,1,002,1,+007,1",,,"SYN094AAXX  19151 76373 32988 23001 10176 20119 38235 40137 50002 91435 333 30/// 56002 58007 82070;","Q01  00002PRCP06"
"76373099999","2003-08-19T18:00:00","4","25.35","-105.75","1967.0","TEPEHUANES DGO., MX","FM-12","99999","V020","060,1,N,0010,1","22000,1,9,N","070000,1,N,1","+0264,1","+0113,1","10131,1","06,0000,9,1",,,,"01,1,+00300,9,09,9","01,1,+00300,9,08,9",,"03,99,1,01,1,03,1,00450,1,00,1,02,1",,"01,9",,"120,M,+0284,1","240,N,+0108,1","99999,9,08232,1","6,1,003,1,+006,1",,,"SYN124AAXX  19181 76373 32488 30601 10264 20113 38232 40131 56003 81302 91736 333 10284 20108 30/// 56202 58006 81910 81810 81070;","Q01  00002PRCP06"
"76373099999","2003-08-19T21:00:00","4","25.35","-105.75","1967.0","TEPEHUANES DGO., MX","FM-12","99999","V020","120,1,N,0070,1","03600,1,9,N","070000,1,N,1","+0302,1","+0080,1","10087,1","06,0000,9,1",,,,"03,1,+00300,9,09,9",,,"05,99,1,03,1,03,1,00450,1,01,1,00,1",,"01,9",,,,"99999,9,08211,1","6,1,021,1,+000,1",,,"SYN106AAXX  19211 76373 32488 51207 10302 20080 38211 40087 56021 83310 92038 333 30/// 56200 58000 83910 82810;","Q01  00002PRCP06"
"76373099999","2003-08-20T00:00:00","4","25.35","-105.75","1967.0","TEPEHUANES DGO., MX","FM-12","99999","V020","120,1,N,0040,1","03600,1,9,N","070000,1,N,1","+0292,1","+0090,1","10044,1","06,0000,9,1","24,0000,9,1",,,"02,1,+00300,9,09,9","01,1,+00300,9,08,9",,"05,99,1,02,1,03,1,00450,1,03,1,00,1",,"01,9",,"120,M,+0329,1","180,N,+0108,1","99999,9,08198,1","6,1,013,1,-002,1",,,"SYN136AAXX  20001 76373 32488 51204 10292 20090 38198 40044 56013 82330 92350 333 10329 20108 30/// 50850 56220 59002 70000 82910 81810 82360;","Q01  00002PRCP06"
"76373099999","2003-08-20T15:00:00","4","25.35","-105.75","1967.0","TEPEHUANES DGO., MX","FM-12","99999","V020","310,1,N,0010,1","22000,1,9,N","070000,1,N,1","+0184,1","+0132,1","10120,1","12,0000,9,1",,,,"01,1,+03000,9,03,9",,,"04,99,1,01,1,00,1,01750,1,03,1,05,1",,"01,9",,,,"99999,9,08261,1","9,9,999,9,-004,1",,,"SYN118AAXX  20151 76373 02788 43101 10184 20132 38261 40120 5//// 69902 81035 91440 333 30/// 56022 59004 69902 81360 83070;","Q01  00002PRCP12"
"76373099999","2003-08-20T18:00:00","4","25.35","-105.75","1967.0","TEPEHUANES DGO., MX","FM-12","99999","V020","120,1,N,0040,1","09000,1,C,N","070000,1,N,1","+0270,1","+0110,1","10111,1","06,0000,9,1",,,,"02,1,+00300,9,08,9","01,1,+03000,9,03,9",,"05,99,1,02,1,01,1,00450,1,03,1,02,1",,"01,9",,"120,M,+0294,1","240,N,+0122,1","99999,9,08225,1","7,1,006,1,-007,1",,,"SYN124AAXX  20181 76373 32488 51204 10270 20110 38225 40111 57006 82132 91738 333 10294 20122 30/// 56222 59007 82810 81360 82070;","Q01  00002PRCP06"
"76373099999","2003-08-20T21:00:00","4","25.35","-105.75","1967.0","TEPEHUANES DGO., MX","FM-12","99999","V020","120,1,N,0070,1","03000,1,9,N","070000,1,N,1","+0274,1","+0119,1","10078,1","06,0000,9,1",,,,"02,1,+00300,9,09,9","02,1,+00300,9,08,9","02,1,+03000,9,03,9","07,99,1,02,1,03,1,00450,1,03,1,01,1",,"01,9",,,,"99999,9,08208,1","6,1,017,1,-003,1",,,"SYN118AAXX  20211 76373 32488 71207 10274 20119 38208 40078 56017 82331 92035 333 30/// 56222 59003 82910 82810 82360 81070;","Q01  00002PRCP06"
"76373099999","2003-08-21T00:00:00","4","25.35","-105.75","1967.0","TEPEHUANES DGO., MX","FM-12","99999","V020","120,1,N,0050,1","03600,1,9,N","070000,1,N,1","+0254,1","+0119,1","10065,1","06,0000,9,1","24,9999,9,9",,,"02,1,+00300,9,09,9","02,1,+00300,9,08,9",,"08,99,1,02,1,03,1,00450,1,03,1,02,1",,"01,9",,"120,M,+0314,1","180,N,+0122,1","99999,9,08209,1","2,1,001,1,+011,1",,,"SYN136AAXX  21001 76373 32488 81205 10254 20119 38209 40065 52001 82332 92340 333 10314 20122 30/// 50600 56222 58011 79999 82910 82810 83360;","Q01  00002PRCP06Q02  99992PRCP24"
"76373099999","2003-08-21T15:00:00","4","25.35","-105.75","1967.0","TEPEHUANES DGO., MX","FM-12","99999","V020","120,1,N,0010,1","22000,1,9,N","070000,1,N,1","+0176,1","+0140,1","10127,1","12,0008,9,1",,,,"01,1,+03000,9,03,9",,,"03,99,1,01,1,00,1,01750,1,03,1,02,1",,"01,9",,,,"99999,9,08227,1","9,9,999,9,-004,1",,,"SYN118AAXX  21151 76373 02788 31201 10176 20140 38227 40127 5//// 69982 81032 91438 333 30/// 56022 59004 69982 81360 82070;",
"76373099999","2003-08-22T00:00:00","4","25.35","-105.75","1967.0","TEPEHUANES DGO., MX","FM-12","99999","V020","270,1,N,0030,1","99999,9,9,N","070000,1,N,1","+0214,1","+0169,1","99999,9","01,0020,9,1",,"6,1,06,1","5,1,06,1",,,,"06,99,1,99,9,99,9,00250,1,99,9,99,9",,,,,,"99999,9,08204,1",,"01,1",,"SYN072AAXX  22000 76373 01388 62703 10214 20169 38204 4//// 5//// 60025 70165;",
"76373099999","2003-08-22T15:00:00","4","25.35","-105.75","1967.0","TEPEHUANES DGO., MX","FM-12","99999","V020","300,1,N,0010,1","22000,1,9,N","070000,1,N,1","+0180,1","+0140,1","10111,1","06,0000,9,1",,,,"01,1,+00300,9,08,9",,,"02,99,1,01,1,01,1,00450,1,03,1,00,1",,"01,9",,,,"99999,9,08213,1","9,9,999,9,-014,1",,,"SYN106AAXX  22151 76373 32488 23001 10180 20140 38213 40111 5//// 81130 91440 333 30/// 56220 59014 81810 81360;","Q01  00002PRCP06"
"76373099999","2003-08-23T00:00:00","4","25.35","-105.75","1967.0","TEPEHUANES DGO., MX","FM-12","99999","V020","110,1,N,0030,1","00300,1,C,N","070000,1,N,1","+0252,1","+0105,1","10027,1","06,0000,9,1","24,0000,9,1",,,"05,1,+00300,9,09,9","02,1,+03000,9,03,9",,"05,99,1,05,1,09,1,00250,1,07,1,08,1",,"01,9",,"120,M,+0318,1","180,N,+0120,1","99999,9,08179,1","9,9,999,9,-012,1",,,"SYN136AAXX  23001 76373 32388 51103 10252 20105 38179 40027 5//// 85978 92330 333 10318 20120 30/// 50570 56222 59012 70000 85910 82360 82270;","Q01  00002PRCP06"
"76373099999","2003-08-23T03:00:00","4","25.35","-105.75","1967.0","TEPEHUANES DGO., MX","FM-12","99999","V020","999,9,C,0000,1","22000,1,9,N","000000,1,N,1","+0206,1","+0119,1","10069,1","06,0000,9,1",,,,"02,1,+00300,9,09,9","04,1,+03000,9,03,9",,"99,99,9,02,1,09,1,00250,1,07,1,08,1",,"01,9",,,,"99999,9,08189,1","2,1,010,1,-013,1",,,"SYN112AAXX  23031 76373 32300 20000 10206 20119 38189 40069 52010 82978 90245 333 30/// 56222 59013 82910 84360 82270;","Q01+000022SCOTCVQ02  00002PRCP06"
"76373099999","2003-08-23T15:00:00","4","25.35","-105.75","1967.0","TEPEHUANES DGO., MX","FM-12","99999","V020","330,1,N,0010,1","22000,1,9,N","070000,1,N,1","+0166,1","+0119,1","10129,1","06,0000,9,1",,,,"01,1,+03000,9,03,9",,,"01,99,1,01,1,03,1,01250,1,99,9,00,1",,"01,9",,,,"99999,9,08211,1","9,9,999,9,-002,1",,,"SYN100AAXX  23151 76373 32688 13301 10166 20119 38211 40129 5//// 81300 91435 333 30/// 56020 59002 81360;","Q01+000002SCOMCGQ02  00002PRCP06"
"76373099999","2003-08-23T21:00:00","4","25.35","-105.75","1967.0","TEPEHUANES DGO., MX","FM-12","99999","V020","150,1,N,0040,1","00300,1,9,N","070000,1,N,1","+0250,1","+0132,1","10079,1","01,0009,9,1",,"5,1,03,1","5,1,03,1","06,1,+00300,9,09,9",,,"06,99,1,06,1,09,1,00250,1,00,1,00,1",,"01,9",,,,"99999,9,08194,1","7,1,016,1,+999,9","02,1",,"SYN112AAXX  23211 76373 21388 61504 10250 20132 38194 40079 57016 70255 86900 92045 333 30/// 56200 58/// 69995 86910;",
"76373099999","2003-08-24T00:00:00","4","25.35","-105.75","1967.0","TEPEHUANES DGO., MX","FM-12","99999","V020","120,1,N,0050,1","99999,9,9,N","070000,1,N,1","+0198,1","+0127,1","10068,1","03,0010,9,1",,"5,1,06,1","5,1,06,1",,,,"08,99,1,99,9,99,9,00250,1,99,9,99,9",,,,,,"99999,9,08198,1","2,1,004,1,+999,9","50,1",,"SYN072AAXX  24001 76373 01388 81205 10198 20127 38198 40068 52004 69997 75055;",
"76373099999","2003-08-24T15:00:00","4","25.35","-105.75","1967.0","TEPEHUANES DGO., MX","FM-12","99999","V020","999,9,C,0000,1","00300,1,9,N","070000,1,N,1","+0168,1","+0150,1","10147,1","15,0020,9,1",,"5,1,03,1","5,1,03,1","08,1,+00300,9,06,9",,,"08,99,1,08,1,04,1,00250,1,00,1,00,1",,"09,9",,,,"99999,9,08232,1","9,9,999,9,+021,1","01,1",,"SYN112AAXX  24151 76373 21388 80000 10168 20150 38232 40147 5//// 70155 88400 91432 333 31/// 56200 58021 60029 88610;",
"76373099999","2003-08-24T18:00:00","4","25.35","-105.75","1967.0","TEPEHUANES DGO., MX","FM-12","99999","V020","110,1,N,0020,1","00300,1,9,N","030000,1,N,1","+0206,1","+0136,1","10144,1","06,0000,9,1",,,,"08,1,+00300,9,06,9",,,"08,99,1,08,1,04,1,00250,1,00,1,00,1",,"01,9",,"120,M,+0220,1","240,N,+0138,1","99999,9,08233,1","2,1,001,1,+023,1",,,"SYN112AAXX  24181 76373 32380 81102 10206 20136 38233 40144 52001 88400 91745 333 10220 20138 30/// 56200 58023 88610;","Q01  00002PRCP06"
"76373099999","2003-08-24T21:00:00","4","25.35","-105.75","1967.0","TEPEHUANES DGO., MX","FM-12","99999","V020","130,1,N,0030,1","22000,1,9,N","070000,1,N,1","+0224,1","+0134,1","10116,1","06,0000,9,1",,,,"02,1,+00300,9,09,9",,,"02,99,1,02,1,03,1,00250,1,07,1,00,1",,"01,9",,,,"99999,9,08219,1","7,1,014,1,+025,1",,,"SYN106AAXX  24211 76373 32388 21303 10224 20134 38219 40116 57014 82370 92030 333 30/// 56220 58025 82910 88360;","Q01  00002PRCP06"
"76373099999","2003-08-25T00:00:00","4","25.35","-105.75","1967.0","TEPEHUANES DGO., MX","FM-12","99999","V020","150,1,N,0020,1","22000,1,9,N","070000,1,N,1","+0216,1","+0127,1","10091,1","06,0000,9,1","24,0016,9,1",,,"01,1,+00300,9,09,9",,,"01,99,1,01,1,03,1,00250,1,07,1,00,1",,"01,9",,"120,M,+0240,1","180,N,+0138,1","99999,9,08208,1","7,1,011,1,+010,1",,,"SYN130AAXX  25001 76373 32388 11502 10216 20127 38208 40091 57011 81370 92335 333 10240 20138 30/// 50150 56220 58010 70016 81910 88360;","Q01  00002PRCP06"
"76373099999","2003-08-25T15:00:00","4","25.35","-105.75","1967.0","TEPEHUANES DGO., MX","FM-12","99999","V020","999,9,C,0000,1","00300,1,9,N","006000,1,N,1","+0166,1","+0151,1","10148,1","15,0040,9,1",,"6,1,03,1","5,1,03,1","08,1,+00300,9,06,9",,,"08,99,1,08,1,07,1,00250,1,99,9,99,9",,"09,9",,,,"99999,9,08233,1","9,9,999,9,+001,1","50,1",,"SYN118AAXX  25151 76373 01356 80000 10166 20151 38233 40148 5//// 60049 75065 887// 91440 333 31/// 56200 58001 60049 88610;",
"76373099999","2003-08-25T18:00:00","4","25.35","-105.75","1967.0","TEPEHUANES DGO., MX","FM-12","99999","V020","090,1,N,0010,1","00300,1,9,N","030000,1,N,1","+0202,1","+0155,1","10141,1","06,0000,2,1",,,,"08,1,+00300,9,06,9",,,"08,99,1,08,1,06,1,00250,1,99,9,99,9",,"09,9",,"120,M,+0214,1","240,N,+0148,1","99999,9,08235,1","2,1,002,1,+002,1",,,"SYN112AAXX  25181 76373 32380 80901 10202 20155 38235 40141 52002 886// 91742 333 10214 20148 31/// 56200 58002 88610;",
"76373099999","2003-08-25T21:00:00","4","25.35","-105.75","1967.0","TEPEHUANES DGO., MX","FM-12","99999","V020","120,1,N,0040,1","03600,1,C,N","070000,1,N,1","+0220,1","+0135,1","10110,1","06,0000,2,1",,,,"02,1,+00300,9,08,9",,,"08,99,1,02,1,01,1,00250,1,07,1,00,1",,"01,9",,,,"99999,9,08216,1","6,1,019,1,-003,1",,,"SYN106AAXX  25211 76373 32388 81204 10220 20135 38216 40110 56019 82170 92035 333 30/// 56220 59003 82810 88360;",
"76373099999","2003-08-26T00:00:00","4","25.35","-105.75","1967.0","TEPEHUANES DGO., MX","FM-12","99999","V020","150,1,N,0040,1","00300,1,C,N","070000,1,N,1","+0220,1","+0119,1","10079,1","06,0000,9,1","24,0042,9,1",,,"03,1,+00300,9,09,9","02,1,+00300,9,08,9",,"08,99,1,03,1,09,1,00450,1,03,1,00,1",,"01,9",,"120,M,+0252,1","180,N,+0148,1","99999,9,08199,1","7,1,017,1,-009,1",,,"SYN136AAXX  26001 76373 32488 81504 10220 20119 38199 40079 57017 83930 92340 333 10252 20148 30/// 50160 56220 59009 70042 83910 82810 84360;","Q01  00002PRCP06"
"76373099999","2003-08-26T15:00:00","4","25.35","-105.75","1967.0","TEPEHUANES DGO., MX","FM-12","99999","V020","320,1,N,0010,1","99999,9,9,N","000400,1,N,1","+0248,1","+0141,1","10151,1","15,0041,9,1",,,,,,,"08,99,1,99,9,99,9,99999,9,99,9,99,9",,"09,9",,,,"99999,9,08234,1","9,9,999,9,+001,1",,,"SYN100AAXX  26151 76373 02/04 83201 10248 20141 38234 40151 5//// 60049 89/// 91438 333 31/// 58001 60049;","Q01+000092SCOTLC"
"76373099999","2003-08-26T21:00:00","4","25.35","-105.75","1967.0","TEPEHUANES DGO., MX","FM-12","99999","V020","270,1,N,0030,1","03000,1,9,N","070000,1,N,1","+0248,1","+0138,1","10098,1","06,0000,9,1",,,,"04,1,+00300,9,09,9","02,1,+00300,9,08,9","02,1,+03000,9,03,9","08,99,1,04,1,09,1,00450,1,03,1,02,1",,"01,9",,,,"99999,9,08209,1","6,1,018,1,-007,1",,,"SYN125AAXX  26211 76373 32488 82703 10248 20138 38209 40098 56018 84932 92035 333 30/// 56222 59007 84910 82810 82360 810700 76903;","Q01  00002PRCP06"
"76373099999","2003-08-27T00:00:00","4","25.35","-105.75","1967.0","TEPEHUANES DGO., MX","FM-12","99999","V020","300,1,N,0030,1","99999,9,9,N","012000,1,N,1","+0178,1","+0148,1","10099,1","03,0000,2,1",,"5,1,06,1","5,1,06,1",,,,"08,99,1,99,9,99,9,00450,1,99,9,99,9",,,,,,"99999,9,08219,1","3,1,010,1,+999,9","50,1",,"SYN072AAXX  27001 76373 01462 83003 10178 20148 38219 40099 53010 69907 75055;",
"76373099999","2003-08-27T15:00:00","4","25.35","-105.75","1967.0","TEPEHUANES DGO., MX","FM-12","99999","V020","310,1,N,0010,1","03600,1,C,N","070000,1,N,1","+0176,1","+0152,1","10153,1","15,0050,9,1",,,,"02,1,+00300,9,08,9",,,"05,99,1,02,1,01,1,00250,1,03,1,00,1",,"09,9",,,,"99999,9,08240,1","9,9,999,9,+006,1",,,"SYN118AAXX  27151 76373 02388 53101 10176 20152 38240 40153 5//// 60059 82130 91438 333 31/// 56220 58006 60059 82810 83360;",
"76373099999","2003-08-27T18:00:00","4","25.35","-105.75","1967.0","TEPEHUANES DGO., MX","FM-12","99999","V020","150,1,N,0040,1","22000,1,9,N","070000,1,N,1","+0246,1","+0149,1","10131,1","06,0000,9,1",,,,"02,1,+00300,9,09,9",,,"03,99,1,02,1,03,1,00450,1,03,1,00,1",,"01,9",,"120,M,+0262,1","240,N,+0142,1","99999,9,08231,1","6,1,009,1,+004,1",,,"SYN118AAXX  27181 76373 32488 31504 10246 20149 38231 40131 56009 82330 91740 333 10262 20142 30/// 56220 58004 82910 81360;","Q01  00002PRCP06"
"76373099999","2003-08-27T21:00:00","4","25.35","-105.75","1967.0","TEPEHUANES DGO., MX","FM-12","99999","V020","130,1,N,0030,1","03000,1,9,N","070000,1,N,1","+0256,1","+0130,1","10085,1","06,0000,9,1",,,,"03,1,+00300,9,09,9","01,1,+00300,9,08,9","01,1,+03000,9,03,9","07,99,1,03,1,09,1,00450,1,03,1,02,1",,"01,9",,,,"99999,9,08207,1","6,1,024,1,-002,1",,,"SYN118AAXX  27211 76373 32488 71303 10256 20130 38207 40085 56024 83932 92038 333 30/// 56222 59002 83910 81810 81360 82070;","Q01  00002PRCP06"
"76373099999","2003-08-28T15:00:00","4","25.35","-105.75","1967.0","TEPEHUANES DGO., MX","FM-12","99999","V020","320,1,N,0010,1","22000,1,9,N","070000,1,N,1","+0170,1","+0133,1","10138,1","06,0000,9,1",,,,"00,1,+99999,9,99,9",,,"00,99,1,00,1,00,1,99999,9,00,1,00,1",,"01,9",,,,"99999,9,08234,1","9,9,999,9,-006,1",,,"SYN082AAXX  28151 76373 32988 03201 10170 20133 38234 40138 5//// 91436 333 30/// 59006;","Q01  00002PRCP06"
"76373099999","2003-08-29T03:00:00","4","25.35","-105.75","1967.0","TEPEHUANES DGO., MX","FM-12","99999","V020","310,1,N,0040,1","00300,1,9,N","000000,1,N,1","+0164,1","+0130,1","99999,9","03,0003,9,1",,"5,1,03,1","5,1,03,1","08,1,+00300,9,06,9",,,"08,99,1,08,1,04,1,00250,1,00,1,00,1",,"09,9",,,,"99999,9,08230,1",,"01,1",,"SYN112AAXX  29031 76373 21300 83104 10164 20130 38230 4//// 5//// 70155 88400 90235 333 31/// 56200 58/// 69937 88610;",
"76373099999","2003-08-29T15:00:00","4","25.35","-105.75","1967.0","TEPEHUANES DGO., MX","FM-12","99999","V020","330,1,N,0010,1","22000,1,9,N","070000,1,N,1","+0180,1","+0140,1","10139,1","12,0002,9,1",,,,"02,1,+00960,9,00,9",,,"03,99,1,02,1,00,1,01750,1,03,1,02,1",,"09,9",,,,"99999,9,08222,1","9,9,999,9,-012,1",,,"SYN118AAXX  29151 76373 02788 33301 10180 20140 38222 40139 5//// 69922 82032 91436 333 31/// 56022 59012 69922 82360 81070;",
"76373099999","2003-08-31T15:00:00","4","25.35","-105.75","1967.0","TEPEHUANES DGO., MX","FM-12","99999","V020","330,1,N,0010,1","22000,1,9,N","070000,1,N,1","+0182,1","+0149,1","10105,1","06,0000,9,1",,,,"04,1,+03000,9,03,9",,,"04,99,1,04,1,00,1,01250,1,06,1,00,1",,"01,9",,,,"99999,9,08208,1","9,9,999,9,-019,1",,,"SYN100AAXX  31151 76373 32688 43301 10182 20149 38208 40105 5//// 84060 91430 333 30/// 56020 59019 84360;","Q01  00002PRCP06"
"76373099999","2003-09-01T00:00:00","4","25.35","-105.75","1967.0","TEPEHUANES DGO., MX","FM-12","99999","V020","120,1,N,0040,1","03000,1,C,N","070000,1,N,1","+0262,1","+0119,1","10027,1","06,0000,9,1","24,0000,9,1",,,"03,1,+00600,9,09,9","03,1,+03000,9,03,9",,"08,99,1,03,1,09,1,00250,1,06,1,06,1",,"01,9",,"120,M,+0304,1","180,N,+0148,1","99999,9,08177,1","6,1,015,1,-017,1",,,"SYN136AAXX  01001 76373 32388 81204 10262 20119 38177 40027 56015 83966 92330 333 10304 20148 30/// 50480 56222 59017 70000 83920 83360 82080;","Q01  00002PRCP06"
"76373099999","2003-09-01T21:00:00","4","25.35","-105.75","1967.0","TEPEHUANES DGO., MX","FM-12","99999","V020","120,1,N,0040,1","00300,1,C,N","070000,1,N,1","+0270,1","+0133,1","10077,1","06,0000,9,1",,,,"02,1,+00300,9,09,9","03,1,+00300,9,08,9",,"06,99,1,03,1,02,1,00450,1,03,1,00,1",,"01,9",,,,"99999,9,08200,1","6,1,020,1,+008,1",,,"SYN112AAXX  01211 76373 32488 61204 10270 20133 38200 40077 56020 83230 92038 333 30/// 56220 58008 83810 82910 81360;","Q01  00002PRCP06"
"76373099999","2003-09-02T00:00:00","4","25.35","-105.75","1967.0","TEPEHUANES DGO., MX","FM-12","99999","V020","180,1,N,0030,1","03600,1,9,N","070000,1,N,1","+0258,1","+0121,1","10041,1","06,0000,9,1","24,0000,9,1",,,"02,1,+00300,9,09,9","01,1,+00300,9,08,9",,"06,99,1,02,1,03,1,00450,1,03,1,02,1",,"01,9",,"120,M,+0298,1","180,N,+0150,1","99999,9,08184,1","6,1,016,1,+007,1",,,"SYN136AAXX  02001 76373 32488 61803 10258 20121 38184 40041 56016 82332 92340 333 10298 20150 30/// 50670 56222 58007 70000 82910 81810 82360;","Q01  00002PRCP06"
"76373099999","2003-09-05T15:00:00","4","25.35","-105.75","1967.0","TEPEHUANES DGO., MX","FM-12","99999","V020","090,1,N,0010,1","00300,1,9,N","018000,1,N,1","+0178,1","+0157,1","10157,1","18,0140,9,1",,,,"05,1,+00300,9,06,9",,,"07,99,1,05,1,06,1,00250,1,03,1,00,1",,"09,9",,,,"99999,9,08239,1",,,,"SYN118AAXX  05151 76373 02368 70901 10178 20157 38239 40157 5//// 60143 85630 91440 333 31/// 56220 58/// 60143 85610 82360;",
"76373099999","2003-09-05T18:00:00","4","25.35","-105.75","1967.0","TEPEHUANES DGO., MX","FM-12","99999","V020","240,1,N,0010,1","00300,1,9,N","070000,1,N,1","+0222,1","+0157,1","10146,1","06,0000,9,1",,,,"07,1,+00300,9,06,9",,,"07,99,1,07,1,06,1,00250,1,00,1,00,1",,"09,9",,"120,M,+0240,1","240,N,+0142,1","99999,9,08238,1","7,1,001,1,+999,9",,,"SYN112AAXX  05181 76373 32388 72401 10222 20157 38238 40146 57001 87600 91745 333 10240 20142 31/// 56200 58/// 87610;","Q01  00002PRCP06"
"76373099999","2003-09-05T21:00:00","4","25.35","-105.75","1967.0","TEPEHUANES DGO., MX","FM-12","99999","V020","120,1,N,0030,1","00300,1,9,N","050000,1,N,1","+0194,1","+0177,1","10120,1","03,0040,9,1",,"6,1,03,1","5,1,03,1","08,1,+00300,9,06,9",,,"08,99,1,08,1,07,1,00250,1,00,1,00,1",,"09,9",,,,"99999,9,08224,1","6,1,014,1,+999,9","58,1",,"SYN118AAXX  05211 76373 01384 81203 10194 20177 38224 40120 56014 60047 75865 88700 92040 333 31/// 56200 58/// 60047 88610;",
"76373099999","2003-09-06T15:00:00","4","25.35","-105.75","1967.0","TEPEHUANES DGO., MX","FM-12","99999","V020","320,1,N,0010,1","22000,1,9,N","070000,1,N,1","+0146,1","+0129,1","10168,1","06,0000,9,1",,,,"00,1,+99999,9,99,9",,,"00,99,1,00,1,00,1,99999,9,00,1,00,1",,"09,9",,,,"99999,9,08240,1","9,9,999,9,+001,1",,,"SYN082AAXX  06151 76373 32988 03201 10146 20129 38240 40168 5//// 91435 333 31/// 58001;","Q01  00002PRCP06"
"76373099999","2003-09-07T15:00:00","4","25.35","-105.75","1967.0","TEPEHUANES DGO., MX","FM-12","99999","V020","999,9,C,0000,1","22000,1,9,N","070000,1,N,1","+0170,1","+0126,1","10151,1","06,0000,9,1",,,,"00,1,+99999,9,99,9",,,"00,99,1,00,1,00,1,99999,9,00,1,00,1",,"01,9",,,,"99999,9,08230,1","9,9,999,9,-010,1",,,"SYN082AAXX  07151 76373 32988 00000 10170 20126 38230 40151 5//// 91445 333 30/// 59010;","Q01  00002PRCP06"
"76373099999","2003-09-07T21:00:00","4","25.35","-105.75","1967.0","TEPEHUANES DGO., MX","FM-12","99999","V020","120,1,N,0010,1","22000,1,9,N","070000,1,N,1","+0278,1","+0060,1","10080,1","06,0000,9,1",,,,"02,1,+00600,9,08,9",,,"02,99,1,02,1,02,1,00250,1,00,1,00,1",,"01,9",,,,"99999,9,08201,1","6,1,023,1,-015,1",,,"SYN100AAXX  07211 76373 32388 21201 10278 20060 38201 40080 56023 82200 92050 333 30/// 56200 59015 82820;","Q01  00002PRCP06"
"76373099999","2003-09-08T00:00:00","4","25.35","-105.75","1967.0","TEPEHUANES DGO., MX","FM-12","99999","V020","120,1,N,0060,1","22000,1,9,N","070000,1,N,1","+0266,1","+0090,1","10038,1","06,0000,9,1","24,0000,9,1",,,,,,"01,99,1,00,1,00,1,99999,9,00,1,06,1",,"01,9",,"120,M,+0312,1","180,N,+0106,1","99999,9,08186,1","6,1,015,1,-012,1",,,"SYN124AAXX  08001 76373 32988 11206 10266 20090 38186 40038 56015 80006 92350 333 10312 20106 30/// 50700 56002 59012 70000 81080;","Q01  00002PRCP06"
"76373099999","2003-09-08T15:00:00","4","25.35","-105.75","1967.0","TEPEHUANES DGO., MX","FM-12","99999","V020","310,1,N,0010,1","03000,1,9,N","070000,1,N,1","+0168,1","+0123,1","10126,1","06,0000,9,1",,,,"05,1,+03000,9,03,9",,,"08,99,1,05,1,00,1,01750,1,03,1,02,1",,"01,9",,,,"99999,9,08218,1","9,9,999,9,-012,1",,,"SYN106AAXX  08151 76373 32788 83101 10168 20123 38218 40126 5//// 85032 91438 333 30/// 56022 59012 85360 83070;","Q01  00002PRCP06"
"76373099999","2003-09-08T18:00:00","4","25.35","-105.75","1967.0","TEPEHUANES DGO., MX","FM-12","99999","V020","040,1,N,0010,1","03600,1,9,N","070000,1,N,1","+0242,1","+0122,1","10115,1","06,0000,9,1",,,,"02,1,+00300,9,09,9","01,1,+00300,9,08,9",,"08,99,1,02,1,03,1,00450,1,03,1,02,1",,"01,9",,"120,M,+0260,1","240,N,+0120,1","99999,9,08211,1","6,1,007,1,-013,1",,"1,06,0600,1","SYN130AAXX  08181 76373 32488 80401 10242 20122 38211 40115 56007 82332 91740 333 10260 20120 30/// 56111 59013 82910 81810 92360 83070;","Q01  00002PRCP06"
"76373099999","2003-09-08T21:00:00","4","25.35","-105.75","1967.0","TEPEHUANES DGO., MX","FM-12","99999","V020","070,1,N,0040,1","03000,1,9,N","070000,1,N,1","+0274,1","+0130,1","10072,1","06,0000,9,1",,,,"02,1,+00300,9,09,9","01,1,+00300,9,08,9","02,1,+03000,9,03,9","08,99,1,02,1,03,1,00450,1,03,1,04,1",,"01,9",,,,"99999,9,08190,1","6,1,021,1,-011,1",,,"SYN118AAXX  08211 76373 32488 80704 10274 20130 38190 40072 56021 82334 92038 333 30/// 56222 59011 82910 81810 82360 84070;","Q01  00002PRCP06"
"76373099999","2003-09-09T21:00:00","4","25.35","-105.75","1967.0","TEPEHUANES DGO., MX","FM-12","99999","V020","230,1,N,0040,1","00300,1,C,N","070000,1,N,1","+0250,1","+0118,1","10073,1","06,0000,9,1",,,,"03,1,+00300,9,09,9","02,1,+00300,9,08,9",,"08,99,1,03,1,09,1,00450,1,02,1,00,1",,"01,9",,,,"99999,9,08194,1","6,1,023,1,+004,1",,,"SYN112AAXX  09211 76373 32488 82304 10250 20118 38194 40073 56023 83920 92037 333 30/// 56220 58004 83910 82810 84460;","Q01  00002PRCP06"
"76373099999","2003-09-10T15:00:00","4","25.35","-105.75","1967.0","TEPEHUANES DGO., MX","FM-12","99999","V020","999,9,C,0000,1","22000,1,9,N","070000,1,N,1","+0160,1","+0125,1","10131,1","06,0000,9,1",,,,"02,1,+06000,9,00,9",,,"02,99,1,00,1,00,1,99999,9,00,1,02,1",,"01,9",,,,"99999,9,08218,1","9,9,999,9,+002,1",,,"SYN100AAXX  10151 76373 32988 20000 10160 20125 38218 40131 5//// 80002 91436 333 30/// 56002 58002 82070;","Q01  00002PRCP06"
"76373099999","2003-09-10T21:00:00","4","25.35","-105.75","1967.0","TEPEHUANES DGO., MX","FM-12","99999","V020","150,1,N,0030,1","22000,1,9,N","070000,1,N,1","+0284,1","+0113,1","10076,1","06,0000,9,1",,,,"02,1,+00300,9,09,9",,,"03,99,1,02,1,03,1,00450,1,00,1,00,1",,"01,9",,,,"99999,9,08193,1","6,1,023,1,-001,1",,,"SYN106AAXX  10211 76373 32488 31503 10284 20113 38193 40076 56023 82300 92040 333 30/// 56200 59001 82910 81810;","Q01  00002PRCP06"
"76373099999","2003-09-12T21:00:00","4","25.35","-105.75","1967.0","TEPEHUANES DGO., MX","FM-12","99999","V020","100,1,N,0030,1","22000,1,9,N","070000,1,N,1","+0270,1","+0125,1","10059,1","06,0000,9,1",,,,"01,1,+00300,9,09,9","02,1,+00300,9,08,9",,"04,99,1,02,1,02,1,00450,1,00,1,02,1",,"01,9",,,,"99999,9,08178,1","7,1,028,1,-020,1",,,"SYN112AAXX  12211 76373 32488 41003 10270 20125 38178 40059 57028 82202 92040 333 30/// 56707 59020 82810 81910 81070;","Q01  00002PRCP06"
"76373099999","2003-09-13T21:00:00","4","25.35","-105.75","1967.0","TEPEHUANES DGO., MX","FM-12","99999","V020","130,1,N,0030,1","09000,1,9,N","070000,1,N,1","+0300,1","+0095,1","10071,1","06,0000,9,1",,,,"04,1,+00600,9,09,9",,,"07,99,1,04,1,03,1,00250,1,00,1,06,1",,"01,9",,,,"99999,9,08176,1","6,1,099,2,-002,1",,,"SYN106AAXX  13211 76373 32388 71303 10300 20095 38176 40071 56099 84306 92050 333 30/// 56202 59002 84920 83080;","Q01+000992APC3  Q02  00002PRCP06"
"76373099999","2003-09-14T00:00:00","4","25.35","-105.75","1967.0","TEPEHUANES DGO., MX","FM-12","99999","V020","120,1,N,0020,1","09000,1,9,N","070000,1,N,1","+0272,1","+0074,1","10024,1","06,0000,9,1","24,0000,9,1",,,"03,1,+00600,9,09,9",,,"08,99,1,03,1,09,1,00250,1,00,1,06,1",,"01,9",,"120,M,+0324,1","180,N,+0128,1","99999,9,08179,1","2,1,003,1,+018,1",,,"SYN130AAXX  14001 76373 32388 81202 10272 20074 38179 40024 52003 83906 92330 333 10324 20128 30/// 50070 56707 58018 70000 83920 85080;","Q01  00002PRCP06"
"76373099999","2003-09-14T03:00:00","4","25.35","-105.75","1967.0","TEPEHUANES DGO., MX","FM-12","99999","V020","999,9,C,0000,1","22000,1,9,N","010000,1,N,1","+0212,1","+0108,1","10028,1","06,0000,9,1",,,,"00,1,+99999,9,99,9",,,"00,99,1,00,1,00,1,99999,9,00,1,00,1",,"01,9",,,,"99999,9,08192,1","2,1,007,1,+012,1",,,"SYN082AAXX  14031 76373 32960 00000 10212 20108 38192 40028 52007 90255 333 30/// 58012;","Q01  00002PRCP06"
"76373099999","2003-09-14T15:00:00","4","25.35","-105.75","1967.0","TEPEHUANES DGO., MX","FM-12","99999","V020","999,9,C,0000,1","09000,1,9,N","070000,1,N,1","+0188,1","+0129,1","10126,1","06,0000,9,1",,,,"03,1,+03000,9,04,9",,,"08,99,1,03,1,00,1,01250,1,02,1,06,1",,"01,9",,,,"99999,9,08225,1","9,9,999,9,+024,1",,,"SYN106AAXX  14151 76373 32688 80000 10188 20129 38225 40126 5//// 83026 91440 333 30/// 56022 58024 83460 85080;","Q01  00002PRCP06"
"76373099999","2003-09-14T18:00:00","4","25.35","-105.75","1967.0","TEPEHUANES DGO., MX","FM-12","99999","V020","120,1,N,0050,1","22000,1,C,N","070000,1,N,1","+0274,1","+0119,1","10108,1","06,0000,9,1",,,,"04,1,+00600,9,03,9",,,"08,99,1,04,1,03,1,00250,1,00,1,04,1",,"01,9",,"120,M,+0286,1","240,N,+0148,1","99999,9,08218,1","6,1,007,1,-002,1",,,"SYN118AAXX  14181 76373 32388 81205 10274 20119 38218 40108 56007 84304 91755 333 10286 20148 30/// 56202 59002 84320 84080;","Q01  00002PRCP06"
"76373099999","2003-09-14T21:00:00","4","25.35","-105.75","1967.0","TEPEHUANES DGO., MX","FM-12","99999","V020","120,1,N,0040,1","22000,1,C,N","070000,1,N,1","+0286,1","+0086,1","10082,1","06,0000,9,1",,,,"04,1,+00600,9,08,9",,,"08,99,1,04,1,02,1,00250,1,00,1,04,1",,"01,9",,,,"99999,9,08211,1","6,1,007,1,+035,1",,,"SYN106AAXX  14211 76373 32388 81204 10286 20086 38211 40082 56007 84204 92030 333 30/// 56202 58035 84820 84080;","Q01  00002PRCP06"
"76373099999","2003-09-15T15:00:00","4","25.35","-105.75","1967.0","TEPEHUANES DGO., MX","FM-12","99999","V020","090,1,N,0010,1","22000,1,9,N","030000,1,N,1","+0176,1","+0123,1","10147,1","06,0000,9,1",,,,"02,1,+00300,9,06,9",,,"02,99,1,02,1,04,1,00250,1,00,1,00,1",,"01,9",,,,"99999,9,08242,1","9,9,999,9,+017,1",,,"SYN100AAXX  15151 76373 32380 20901 10176 20123 38242 40147 5//// 82400 91438 333 30/// 56200 58017 82610;","Q01  00002PRCP06"
"76373099999","2003-09-15T18:00:00","4","25.35","-105.75","1967.0","TEPEHUANES DGO., MX","FM-12","99999","V020","120,1,N,0050,1","22000,1,9,N","070000,1,N,1","+0250,1","+0111,1","10140,1","06,0000,9,1",,,,"03,1,+00300,9,08,9",,,"04,99,1,03,1,02,1,00450,1,03,1,00,1",,"01,9",,"120,M,+0262,1","240,N,+0124,1","99999,9,08238,1","6,1,004,1,+020,1",,,"SYN118AAXX  15181 76373 32488 41205 10250 20111 38238 40140 56004 83230 91740 333 10262 20124 30/// 56220 58020 83810 81360;","Q01  00002PRCP06"
"76373099999","2003-09-15T21:00:00","4","25.35","-105.75","1967.0","TEPEHUANES DGO., MX","FM-12","99999","V020","130,1,N,0050,1","22000,1,9,N","070000,1,N,1","+0278,1","+0096,1","10102,1","06,0000,9,1",,,,"03,1,+00300,9,08,9",,,"03,99,1,03,1,02,1,00450,1,00,1,00,1",,"01,9",,,,"99999,9,99999,9","6,1,020,1,+007,1",,,"SYN100AAXX  15211 76373 32488 31305 10278 20096 38118 40102 56020 83200 92038 333 30/// 56200 58007 83810;","Q01+081183APOSP Q02  00002PRCP06Q03 081183APOSP "
"76373099999","2003-09-16T00:00:00","4","25.35","-105.75","1967.0","TEPEHUANES DGO., MX","FM-12","99999","V020","090,1,N,0010,1","22000,1,9,N","070000,1,N,1","+0260,1","+0084,1","10064,1","06,0000,9,1","24,0000,9,1",,,"02,1,+00300,9,08,9",,,"05,99,1,02,1,02,1,00450,1,00,1,04,1",,"01,9",,"120,M,+0298,1","180,N,+0124,1","99999,9,08204,2","7,1,014,1,+999,9",,,"SYN130AAXX  16001 76373 32488 50901 10260 20084 38204 40064 57014 82204 92340 333 10298 20124 30/// 50730 56202 58/// 70000 82810 83070;","Q01+082043APOSP Q02  00002PRCP06"
"76373099999","2003-09-16T15:00:00","4","25.35","-105.75","1967.0","TEPEHUANES DGO., MX","FM-12","99999","V020","330,1,N,0010,1","22000,1,9,N","070000,1,N,1","+0166,1","+0111,1","10130,1","06,0000,9,1",,,,"02,1,+06000,9,00,9",,,"02,99,1,00,1,00,1,99999,9,00,1,02,1",,"01,9",,,,"99999,9,08227,1","9,9,999,9,-015,1",,,"SYN100AAXX  16151 76373 32988 23301 10166 20111 38227 40130 5//// 80002 91435 333 30/// 56002 59015 82070;","Q01  00002PRCP06"
"76373099999","2003-09-16T21:00:00","4","25.35","-105.75","1967.0","TEPEHUANES DGO., MX","FM-12","99999","V020","120,1,N,0040,1","22000,1,C,N","070000,1,N,1","+0264,1","+0113,1","10066,1","06,0000,9,1",,,,"03,1,+00300,9,09,9","01,1,+00300,9,08,9",,"07,99,1,03,1,03,1,00450,1,00,1,04,1",,"01,9",,,,"99999,9,08188,1","6,1,029,1,-030,1",,,"SYN112AAXX  16211 76373 32488 71204 10264 20113 38188 40066 56029 83304 92040 333 30/// 56202 59030 83910 81810 83070;","Q01  00002PRCP06"
"76373099999","2003-09-17T00:00:00","4","25.35","-105.75","1967.0","TEPEHUANES DGO., MX","FM-12","99999","V020","180,1,N,0040,1","99999,9,9,N","030000,1,N,1","+0196,1","+0167,1","10055,1","02,0020,9,1",,"5,1,06,1","5,1,06,1",,,,"08,99,1,99,9,99,9,00450,1,99,9,99,9",,,,,,"99999,9,08190,1","2,1,002,1,+999,9","29,1",,"SYN072AAXX  17001 76373 01480 81804 10196 20167 38190 40055 52002 60026 72955;",
"76373099999","2003-09-17T15:00:00","4","25.35","-105.75","1967.0","TEPEHUANES DGO., MX","FM-12","99999","V020","280,1,N,0010,1","00300,1,9,N","070000,1,N,1","+0176,1","+0155,1","10109,1","15,0040,9,1",,,,"08,1,+00300,9,06,9",,,"08,99,1,08,1,06,1,00250,1,00,1,00,1",,"09,9",,,,"99999,9,08210,1","9,9,999,9,-017,1",,,"SYN106AAXX  17151 76373 22388 82801 10176 20155 38210 40109 5//// 88600 91436 333 31/// 56600 59017 60049 88610;",
"76373099999","2003-09-17T18:00:00","4","25.35","-105.75","1967.0","TEPEHUANES DGO., MX","FM-12","99999","V020","150,1,N,0010,1","03600,1,C,N","070000,1,N,1","+0212,1","+0143,1","10099,1","06,0000,9,1",,,,"03,1,+00300,9,08,9",,,"07,99,1,03,1,01,1,00450,1,03,1,00,1",,"01,9",,"120,M,+0234,1","240,N,+0150,1","99999,9,08205,1","6,1,005,1,-012,1",,,"SYN118AAXX  17181 76373 32488 71501 10212 20143 38205 40099 56005 83130 91736 333 10234 20150 30/// 56220 59012 83810 84360;","Q01  00002PRCP06"
"76373099999","2003-09-17T21:00:00","4","25.35","-105.75","1967.0","TEPEHUANES DGO., MX","FM-12","99999","V020","120,1,N,0010,1","00300,1,C,N","070000,1,N,1","+0250,1","+0147,1","10084,1","06,0000,9,1",,,,"02,1,+00300,9,09,9","03,1,+00300,9,08,9",,"08,99,1,03,1,02,1,00450,1,03,1,00,1",,"01,9",,,,"99999,9,08174,1","6,1,031,1,-014,1",,,"SYN112AAXX  17211 76373 32488 81201 10250 20147 38174 40084 56031 83230 92040 333 30/// 56660 59014 83810 82910 84360;","Q01  00002PRCP06"
"76373099999","2003-09-18T15:00:00","4","25.35","-105.75","1967.0","TEPEHUANES DGO., MX","FM-12","99999","V020","300,1,N,0010,1","03600,1,C,N","020000,1,N,1","+0162,1","+0149,1","10104,1","18,0090,9,1",,,,"04,1,+00300,9,06,9",,,"06,99,1,04,1,06,1,00250,1,03,1,00,1",,"09,9",,,,"99999,9,08200,1","9,9,999,9,-010,1",,,"SYN118AAXX  18151 76373 02370 63001 10162 20149 38200 40104 5//// 60093 84630 91435 333 31/// 56660 59010 60093 84610 82360;",
"76373099999","2003-09-19T15:00:00","4","25.35","-105.75","1967.0","TEPEHUANES DGO., MX","FM-12","99999","V020","320,1,N,0010,1","03600,1,C,N","070000,1,N,1","+0164,1","+0149,1","10110,1","12,0050,9,1",,"5,1,03,1","5,1,03,1","04,1,+00300,9,06,9",,,"08,99,1,04,1,06,1,00250,1,06,1,00,1",,"09,9",,,,"99999,9,08210,1","9,9,999,9,+010,1","01,1",,"SYN124AAXX  19151 76373 01388 83201 10164 20149 38210 40110 5//// 60052 70155 84660 91440 333 31/// 56220 58010 60052 84610 86360;",
"76373099999","2003-09-21T15:00:00","4","25.35","-105.75","1967.0","TEPEHUANES DGO., MX","FM-12","99999","V020","999,9,C,0000,1","00300,1,9,N","030000,1,N,1","+0154,1","+0148,1","10101,1","24,0089,9,1",,"5,1,03,1","5,1,03,1","08,1,+00300,9,06,9",,,"08,99,1,08,1,06,1,00150,1,99,9,99,9",,"11,9",,,,"99999,9,08193,1","9,9,999,9,-001,1","20,1",,"SYN112AAXX  21151 76373 11280 80000 10154 20148 38193 40101 5//// 60094 72055 886// 91455 333 32/// 56200 59001 88610;",
"76373099999","2003-09-21T21:00:00","4","25.35","-105.75","1967.0","TEPEHUANES DGO., MX","FM-12","99999","V020","999,9,C,0000,1","00300,1,9,N","030000,1,N,1","+0164,1","+0146,1","10091,1","03,0020,9,1",,"5,1,03,1","5,1,03,1","08,1,+00300,9,06,9",,,"08,99,1,08,1,06,1,00150,1,99,9,99,9",,"11,9",,,,"99999,9,08185,1","6,1,008,1,+012,1","20,1",,"SYN112AAXX  21211 76373 11280 80000 10164 20146 38185 40091 56008 60027 72055 886// 92050 333 32/// 56200 58012 88610;",
"76373099999","2003-09-22T15:00:00","4","25.35","-105.75","1967.0","TEPEHUANES DGO., MX","FM-12","99999","V020","270,1,N,0010,1","00300,1,9,N","040000,1,N,1","+0166,1","+0148,1","10122,1","15,0050,9,1",,"5,1,03,1","5,1,03,1","08,1,+00300,9,06,9",,,"08,99,1,08,1,07,1,00250,1,99,9,99,9",,"09,9",,,,"99999,9,08203,1","9,9,999,9,+010,1","50,1",,"SYN118AAXX  22151 76373 01382 82701 10166 20148 38203 40122 5//// 60059 75055 887// 91438 333 31/// 56700 58010 60059 88610;",
"76373099999","2003-09-22T21:00:00","4","25.35","-105.75","1967.0","TEPEHUANES DGO., MX","FM-12","99999","V020","330,1,N,0010,1","00210,1,C,N","020000,1,N,1","+0190,1","+0169,1","10092,1","03,0030,9,1",,"6,1,03,1","5,1,03,1","03,1,+00300,9,06,9",,,"08,99,1,08,1,07,1,00250,1,99,9,99,9",,"09,9",,,,"99999,9,08194,1","6,1,013,1,+009,1","50,1",,"SYN112AAXX  22211 76373 11370 83301 10190 20169 38194 40092 56013 60037 75065 887// 92040 333 31/// 56200 58009 83610;",
"76373099999","2003-09-23T15:00:00","4","25.35","-105.75","1967.0","TEPEHUANES DGO., MX","FM-12","99999","V020","999,9,C,0000,1","00300,1,9,N","030000,1,N,1","+0176,1","+0158,1","10131,1","15,0002,9,1",,,,"07,1,+00300,9,06,9",,,"08,99,1,07,1,06,1,00250,1,00,1,02,1",,"09,9",,,,"99999,9,08228,1","9,9,999,9,+025,1",,,"SYN118AAXX  23151 76373 02380 80000 10176 20158 38228 40131 5//// 69929 87602 91440 333 31/// 56202 58025 69929 87610 81070;",
"76373099999","2003-09-23T18:00:00","4","25.35","-105.75","1967.0","TEPEHUANES DGO., MX","FM-12","99999","V020","120,1,N,0010,1","00300,1,9,N","070000,1,N,1","+0232,1","+0149,1","10122,1","06,0000,9,1",,,,"05,1,+00300,9,08,9",,,"05,99,1,05,1,01,1,00450,1,00,1,00,1",,"09,9",,"120,M,+0250,1","240,N,+0150,1","99999,9,08226,1","7,1,002,1,+019,1",,,"SYN112AAXX  23181 76373 32488 51201 10232 20149 38226 40122 57002 85100 91740 333 10250 20150 31/// 56300 58019 85810;","Q01  00002PRCP06"
"76373099999","2003-09-23T21:00:00","4","25.35","-105.75","1967.0","TEPEHUANES DGO., MX","FM-12","99999","V020","330,1,N,0020,1","00300,1,9,N","070000,1,N,1","+0260,1","+0148,1","10074,1","06,0000,9,1",,,,"05,1,+00300,9,08,9",,,"05,99,1,05,1,02,1,00450,1,00,1,00,1",,"09,9",,,,"99999,9,08199,1","6,1,027,1,+005,1",,,"SYN100AAXX  23211 76373 32488 53302 10260 20148 38199 40074 56027 85200 92040 333 31/// 56300 58005 85810;","Q01  00002PRCP06"
"76373099999","2003-09-24T00:00:00","4","25.35","-105.75","1967.0","TEPEHUANES DGO., MX","FM-12","99999","V020","210,1,N,0010,1","22000,1,9,N","070000,1,N,1","+0248,1","+0151,1","10054,1","03,0008,9,1",,"6,1,06,1","5,1,06,1",,,,"04,99,1,99,9,99,9,00450,1,99,9,99,9",,,,,,"99999,9,08194,1","7,1,005,1,+999,9","16,1",,"SYN072AAXX  24001 76373 01488 42101 10248 20151 38194 40054 57005 69987 71665;",
"76373099999","2003-09-24T15:00:00","4","25.35","-105.75","1967.0","TEPEHUANES DGO., MX","FM-12","99999","V020","330,1,N,0010,1","22000,1,9,N","070000,1,N,1","+0170,1","+0142,1","10138,1","06,0000,9,1",,,,"02,1,+06000,9,00,9",,,"02,99,1,00,1,00,1,99999,9,00,1,05,1",,"09,9",,,,"99999,9,08226,1","9,9,999,9,-002,1",,,"SYN100AAXX  24151 76373 32988 23301 10170 20142 38226 40138 5//// 80005 91440 333 31/// 56002 59002 82070;","Q01  00002PRCP06"
"76373099999","2003-09-24T21:00:00","4","25.35","-105.75","1967.0","TEPEHUANES DGO., MX","FM-12","99999","V020","160,1,N,0020,1","09000,1,C,N","070000,1,N,1","+0280,1","+0131,1","10063,1","06,0000,9,1",,,,"02,1,+00300,9,09,9","01,1,+00300,9,08,9","01,1,+03000,9,03,9","05,99,1,02,1,03,1,00450,1,03,1,02,1",,"09,9",,,,"99999,9,08186,1","6,1,030,1,-013,1",,,"SYN118AAXX  24210 76373 32488 51602 10280 20131 38186 40063 56030 82332 92036 333 31/// 56222 59013 82910 81810 81360 81070;","Q01  00002PRCP06"
"76373099999","2003-09-27T15:00:00","4","25.35","-105.75","1967.0","TEPEHUANES DGO., MX","FM-12","99999","V020","280,1,N,0010,1","22000,1,9,N","070000,1,N,1","+0150,1","+0119,1","10132,1","24,0071,9,1",,"5,1,03,1","5,1,03,1","00,1,+99999,9,99,9",,,"00,99,1,00,1,00,1,99999,9,00,1,00,1",,"09,9",,,,"99999,9,08215,1",,"20,1",,"SYN094AAXX  27151 76373 11988 02801 10150 20119 38215 40132 5//// 60074 72055 91430 333 31/// 58///;",
"76373099999","2003-09-27T18:00:00","4","25.35","-105.75","1967.0","TEPEHUANES DGO., MX","FM-12","99999","V020","120,1,N,0010,1","22000,1,9,N","070000,1,N,1","+0218,1","+0125,1","10121,1","06,0000,2,1",,,,"02,1,+00600,9,08,9",,,"02,99,1,02,1,02,1,00250,1,00,1,00,1",,"01,9",,"120,M,+0228,1","240,N,+0112,1","99999,9,08208,1","6,1,002,1,+999,9",,,"SYN112AAXX  27181 76373 32388 21201 10218 20125 38208 40121 56002 82200 91730 333 10228 20112 30/// 56200 58/// 82820;",
"76373099999","2003-09-28T15:00:00","4","25.35","-105.75","1967.0","TEPEHUANES DGO., MX","FM-12","99999","V020","999,9,C,0000,1","03000,1,9,N","070000,1,N,1","+0150,1","+0118,1","10142,1","06,0000,9,1",,,,"08,1,+03000,9,03,9",,,"08,99,1,08,1,00,1,01250,1,06,1,00,1",,"01,9",,,,"99999,9,08225,1","9,9,999,9,+019,1",,,"SYN100AAXX  28151 76373 32688 80000 10150 20118 38225 40142 5//// 88060 91435 333 30/// 56020 58019 88360;","Q01  00002PRCP06"
"76373099999","2003-09-28T21:00:00","4","25.35","-105.75","1967.0","TEPEHUANES DGO., MX","FM-12","99999","V020","120,1,N,0070,1","03600,1,C,N","070000,1,N,1","+0234,1","+0116,1","10108,1","06,0000,9,1",,,,"03,1,+00600,9,09,9",,,"08,99,1,03,1,03,1,00250,1,06,1,00,1",,"01,9",,,,"99999,9,08201,1","6,1,007,1,+011,1",,,"SYN106AAXX  28211 76373 32388 81207 10234 20116 38201 40108 56007 83360 92050 333 30/// 56220 58011 83920 85360;","Q01  00002PRCP06"
"76373099999","2003-09-29T15:00:00","4","25.35","-105.75","1967.0","TEPEHUANES DGO., MX","FM-12","99999","V020","999,9,C,0000,1","22000,1,9,N","070000,1,N,1","+0136,1","+0106,1","10183,1","06,0000,9,1",,,,"01,1,+00300,9,08,9",,,"02,99,1,01,1,01,1,00450,1,03,1,00,1",,"01,9",,,,"99999,9,08240,1","9,9,999,9,+015,1",,,"SYN106AAXX  29151 76373 32488 20000 10136 20106 38240 40183 5//// 81130 91436 333 30/// 56220 58015 81810 81360;","Q01  00002PRCP06"
"76373099999","2003-09-29T21:00:00","4","25.35","-105.75","1967.0","TEPEHUANES DGO., MX","FM-12","99999","V020","130,1,N,0040,1","00300,1,9,N","070000,1,N,1","+0224,1","+0092,1","10130,1","06,0000,9,1",,,,"07,1,+00300,9,08,9",,,"07,99,1,07,1,02,1,00450,1,00,1,00,1",,"01,9",,,,"99999,9,08220,1","6,1,019,1,+019,1",,,"SYN100AAXX  29211 76373 32488 71304 10224 20092 38220 40130 56019 87200 92040 333 30/// 56200 58019 87810;","Q01  00002PRCP06"
"76373099999","2003-09-30T00:00:00","4","25.35","-105.75","1967.0","TEPEHUANES DGO., MX","FM-12","99999","V020","120,1,N,0050,1","03600,1,9,N","070000,1,N,1","+0202,1","+0115,1","10111,1","06,0000,9,1","24,0000,9,1",,,"02,1,+00300,9,08,9",,,"08,99,1,02,1,01,1,00450,1,07,1,00,1",,"01,9",,"120,M,+0250,1","180,N,+0098,1","99999,9,08219,1","7,1,001,1,+015,1",,,"SYN130AAXX  30001 76373 32488 81205 10202 20115 38219 40111 57001 82170 92340 333 10250 20098 30/// 50350 56220 58015 70000 82810 86460;","Q01  00002PRCP06"
"76373099999","2003-09-30T15:00:00","4","25.35","-105.75","1967.0","TEPEHUANES DGO., MX","FM-12","99999","V020","330,1,N,0010,1","22000,1,9,N","070000,1,N,1","+0140,1","+0114,1","10178,1","06,0000,9,1",,,,"02,1,+03000,9,03,9",,,"02,99,1,02,1,00,1,01250,1,03,1,00,1",,"01,9",,,,"99999,9,08247,1","9,9,999,9,+007,1",,,"SYN100AAXX  30151 76373 32688 23301 10140 20114 38247 40178 5//// 82030 91436 333 30/// 56060 58007 82360;","Q01  00002PRCP06"
"76373099999","2003-09-30T21:00:00","4","25.35","-105.75","1967.0","TEPEHUANES DGO., MX","FM-12","99999","V020","150,1,N,0050,1","22000,1,9,N","070000,1,N,1","+0250,1","+0094,1","10128,1","06,0000,9,1",,,,"02,1,+00300,9,08,9",,,"04,99,1,02,1,01,1,00450,1,03,1,00,1",,"01,9",,,,"99999,9,08223,1","6,1,022,1,+003,1",,,"SYN106AAXX  30211 76373 32488 41505 10250 20094 38223 40128 56022 82130 92037 333 30/// 56220 58003 82810 82360;","Q01  00002PRCP06"
"76373099999","2003-10-01T15:00:00","4","25.35","-105.75","1967.0","TEPEHUANES DGO., MX","FM-12","99999","V020","010,1,N,0300,1","22000,1,9,N","070000,1,N,1","+0138,1","+0098,1","10186,1","06,0000,9,1",,,,"03,1,+03000,9,03,9",,,"03,99,1,03,1,00,1,01750,1,03,1,00,1",,"01,9",,,,"99999,9,08250,1","9,9,999,9,+003,1",,,"SYN100AAXX  01151 76373 32788 30130 10138 20098 38250 40186 5//// 83030 91436 333 30/// 56020 58003 83360;","Q01  00002PRCP06"
"76373099999","2003-10-01T18:00:00","4","25.35","-105.75","1967.0","TEPEHUANES DGO., MX","FM-12","99999","V020","090,1,N,0020,1","22000,1,9,N","070000,1,N,1","+0228,1","+0077,1","10172,1","06,0000,9,1",,,,"01,1,+00300,9,08,9","01,1,+03000,9,03,9",,"03,99,1,01,1,01,1,00450,1,03,1,02,1",,"01,9",,"120,M,+0244,1","240,N,+0092,1","99999,9,08246,1","7,1,004,1,+001,1",,,"SYN124AAXX  01181 76373 32488 30902 10228 20077 38246 40172 57004 81132 91736 333 10244 20092 30/// 56222 58001 81810 81360 81070;","Q01  00002PRCP06"
"76373099999","2003-10-01T21:00:00","4","25.35","-105.75","1967.0","TEPEHUANES DGO., MX","FM-12","99999","V020","150,1,N,0060,1","22000,1,9,N","070000,1,N,1","+0252,1","+0067,1","10129,1","06,0000,9,1",,,,"01,1,+00300,9,08,9","02,1,+03000,9,03,9",,"04,99,1,01,1,01,1,00450,1,03,1,01,1",,"01,9",,,,"99999,9,08226,1","6,1,020,1,+003,1",,,"SYN112AAXX  01211 76373 32488 41506 10252 20067 38226 40129 56020 81131 92038 333 30/// 56222 58003 81810 82360 81070;","Q01  00002PRCP06"
"76373099999","2003-10-02T00:00:00","4","25.35","-105.75","1967.0","TEPEHUANES DGO., MX","FM-12","99999","V020","090,1,N,0040,1","03600,1,9,N","070000,1,N,1","+0234,1","+0047,1","10101,1","06,0000,9,1","24,0000,9,1",,,"01,1,+00300,9,08,9",,,"05,99,1,01,1,01,1,00450,1,03,1,00,1",,"01,9",,"120,M,+0268,1","180,N,+0092,1","99999,9,08220,1","7,1,006,1,+999,9",,,"SYN130AAXX  02000 76373 32488 50904 10234 20047 38220 40101 57006 81130 92340 333 10268 20092 30/// 50530 56220 58/// 70000 81810 84360;","Q01  00002PRCP06"
"76373099999","2003-10-05T03:00:00","4","25.35","-105.75","1967.0","TEPEHUANES DGO., MX","FM-12","99999","V020","330,1,N,0040,1","03000,1,9,N","010000,1,N,1","+0220,1","+0091,1","10046,1","06,0000,9,1",,,,"08,1,+03000,9,03,9",,,"08,99,1,08,1,00,1,01250,1,03,1,00,1",,"01,9",,,,"99999,9,08198,1","2,1,020,1,+999,9",,,"SYN100AAXX  05031 76373 32660 83304 10220 20091 38198 40046 52020 88030 90245 333 30/// 56020 58/// 88360;","Q01  00002PRCP06"
"76373099999","2003-10-05T18:00:00","4","25.35","-105.75","1967.0","TEPEHUANES DGO., MX","FM-12","99999","V020","120,1,N,0020,1","22000,1,C,N","070000,1,N,1","+0246,1","+0109,1","10106,1","06,0000,9,1",,,,"01,1,+00600,9,08,9",,,"08,99,1,01,1,02,1,00250,1,00,1,04,1",,"01,9",,"120,M,+0268,1","240,N,+0100,1","99999,9,08207,1","6,1,013,1,+004,1",,,"SYN118AAXX  05181 76373 32388 81202 10246 20109 38207 40106 56013 81204 91750 333 10268 20100 30/// 56202 58004 81820 86080;","Q01  00002PRCP06"
"76373099999","2003-10-06T00:00:00","4","25.35","-105.75","1967.0","TEPEHUANES DGO., MX","FM-12","99999","V020","360,1,N,0110,1","03000,1,C,N","070000,1,N,1","+0240,1","+0093,1","99999,9","06,0000,9,1","24,0000,9,1",,,"04,1,+00600,9,09,9","03,1,+03000,9,03,9",,"08,99,1,04,1,03,1,00250,1,06,1,04,1",,"01,9",,"120,M,+0298,1","180,N,+0100,1","99999,9,08180,1","7,1,002,1,+002,1",,,"SYN136AAXX  06001 76373 32388 83611 10240 20093 38180 4//// 57002 84364 92340 333 10298 20100 30/// 50600 56222 58002 70000 84920 83360 81080;","Q01  00002PRCP06"
"76373099999","2003-10-06T03:00:00","4","25.35","-105.75","1967.0","TEPEHUANES DGO., MX","FM-12","99999","V020","270,1,N,0010,1","03000,1,9,N","010000,1,N,1","+0162,1","+0128,1","10071,1","03,0399,9,1",,"5,1,03,1","6,1,03,1","08,1,+03000,9,03,9",,,"08,99,1,08,1,00,1,00250,1,07,1,00,1",,"11,9",,,,"99999,9,08214,1","2,1,033,1,+016,1","20,1",,"SYN112AAXX  06031 76373 11360 82701 10162 20128 38214 40071 52033 60407 72056 88070 90250 333 32/// 56020 58016 88360;",
"76373099999","2003-10-06T15:00:00","4","25.35","-105.75","1967.0","TEPEHUANES DGO., MX","FM-12","99999","V020","999,9,C,0000,1","03000,1,9,N","070000,1,N,1","+0140,1","+0123,1","10135,1","06,0000,9,1",,,,"07,1,+03000,9,03,9",,,"07,99,1,07,1,00,1,01750,1,03,1,00,1",,"09,9",,,,"99999,9,08209,1","9,9,999,9,-011,1",,,"SYN100AAXX  06151 76373 32788 70000 10140 20123 38209 40135 5//// 87030 91440 333 31/// 56060 59011 87360;","Q01  00002PRCP06"
"76373099999","2003-10-06T18:00:00","4","25.35","-105.75","1967.0","TEPEHUANES DGO., MX","FM-12","99999","V020","300,1,N,0010,1","03600,1,C,N","070000,1,N,1","+0214,1","+0110,1","10122,1","06,0000,9,1",,,,"01,1,+00300,9,08,9",,,"08,99,1,01,1,01,1,00450,1,03,1,00,1",,"09,9",,"120,M,+0230,1","240,N,+0112,1","99999,9,08204,1","6,1,005,1,-003,1",,,"SYN118AAXX  06181 76373 32488 83001 10214 20110 38204 40122 56005 81130 91740 333 10230 20112 31/// 56606 59003 81810 87360;","Q01  00002PRCP06"
"76373099999","2003-10-06T21:00:00","4","25.35","-105.75","1967.0","TEPEHUANES DGO., MX","FM-12","99999","V020","150,1,N,0040,1","03600,1,C,N","070000,1,N,1","+0270,1","+0118,1","10060,2","06,0000,9,1",,,,"02,1,+00300,9,09,9","01,1,+00300,9,08,9",,"06,99,1,02,1,03,1,00450,1,03,1,00,1",,"01,9",,,,"99999,9,08171,1","6,1,033,1,-011,1",,,"SYN112AAXX  06211 76373 32488 61504 10270 20118 38171 40060 56033 82330 92036 333 30/// 56220 59011 82910 81810 83360;","Q01+100603APOSLPQ02  00002PRCP06"
"76373099999","2003-10-07T00:00:00","4","25.35","-105.75","1967.0","TEPEHUANES DGO., MX","FM-12","99999","V020","320,1,N,0020,1","03000,1,C,N","070000,1,N,1","+0226,1","+0094,1","10028,1","06,0000,9,1","24,0036,9,1",,,"02,1,+00300,9,09,9","04,1,+03000,9,03,9",,"08,99,1,02,1,03,1,00450,1,06,1,02,1",,"01,9",,"120,M,+0294,1","180,N,+0112,1","99999,9,08161,1","6,1,010,1,-020,1",,,"SYN136AAXX  07000 76373 32488 83202 10226 20094 38161 40028 56010 82362 92340 333 10294 20112 30/// 50420 56222 59020 70036 82910 84360 82070;","Q01  00002PRCP06"
"76373099999","2003-10-07T15:00:00","4","25.35","-105.75","1967.0","TEPEHUANES DGO., MX","FM-12","99999","V020","999,9,C,0000,1","09000,1,C,N","070000,1,N,1","+0164,1","+0130,1","10075,1","06,0000,9,1",,,,"04,1,+03000,9,03,9",,,"06,99,1,04,1,00,1,01750,1,03,1,02,1",,"01,9",,,,"99999,9,08178,1","9,9,999,9,-031,1",,,"SYN106AAXX  07151 76373 32788 60000 10164 20130 38178 40075 5//// 84032 91440 333 30/// 56066 59031 84360 82070;","Q01  00002PRCP06"
"76373099999","2003-10-07T18:00:00","4","25.35","-105.75","1967.0","TEPEHUANES DGO., MX","FM-12","99999","V020","130,1,N,0060,1","03000,1,9,N","070000,1,N,1","+0248,1","+0123,1","10063,1","06,0000,9,1",,,,"02,1,+00300,9,08,9","03,1,+03000,9,03,9",,"07,99,1,02,1,01,1,00450,1,03,1,02,1",,"01,9",,"120,M,+0258,1","240,N,+0128,1","99999,9,08171,1","6,1,007,1,-033,1",,,"SYN124AAXX  07181 76373 32488 71306 10248 20123 38171 40063 56007 82132 91736 333 10258 20128 30/// 56222 59033 82810 83360 82070;","Q01  00002PRCP06"
"76373099999","2003-10-07T21:00:00","4","25.35","-105.75","1967.0","TEPEHUANES DGO., MX","FM-12","99999","V020","120,1,N,0030,1","00300,1,9,N","070000,1,N,1","+0234,1","+0128,1","10027,1","02,0000,9,1",,"5,1,03,1","5,1,03,1","05,1,+00300,9,08,9",,,"08,99,1,05,1,07,1,00250,1,06,1,00,1",,"01,9",,,,"99999,9,08151,1","6,1,020,1,-020,1","16,1",,"SYN118AAXX  07211 76373 11388 81203 10234 20128 38151 40027 56020 69906 71655 85760 92040 333 30/// 56220 59020 85810 84360;","Q01  00002PRCP02"
"76373099999","2003-10-08T00:00:00","4","25.35","-105.75","1967.0","TEPEHUANES DGO., MX","FM-12","99999","V020","320,1,N,0010,1","99999,9,9,N","070000,1,N,1","+0196,1","+0157,1","10012,1","03,0005,9,1",,"5,1,06,1","5,1,06,1",,,,"08,99,1,99,9,99,9,00450,1,99,9,99,9",,,,,,"99999,9,08147,1","6,1,004,1,+999,9","01,1",,"SYN072AAXX  08001 76373 01488 83201 10196 20157 38147 40012 56004 69947 70155;",
"76373099999","2003-10-08T15:00:00","4","25.35","-105.75","1967.0","TEPEHUANES DGO., MX","FM-12","99999","V020","999,9,C,0000,1","00300,1,9,N","012000,1,N,1","+0174,1","+0156,1","10060,1","15,0050,9,1",,"6,1,03,1","5,1,03,1","08,1,+00300,9,06,9",,,"08,99,1,08,1,06,1,00250,1,00,1,00,1",,"09,9",,,,"99999,9,08170,1","9,9,999,9,-008,1","50,1",,"SYN118AAXX  08151 76373 01362 80000 10174 20156 38170 40060 5//// 60059 75065 88600 91436 333 31/// 56200 59008 60059 88610;",
"76373099999","2003-10-08T18:00:00","4","25.35","-105.75","1967.0","TEPEHUANES DGO., MX","FM-12","99999","V020","120,1,N,0010,1","00300,1,9,N","070000,1,N,1","+0212,1","+0156,1","10059,1","03,9999,2,9",,"5,1,06,1","5,1,06,1","08,1,+00300,9,06,9",,,"08,99,1,08,1,06,1,00250,1,00,1,00,1",,"09,9",,"120,M,+0220,1","240,N,+0148,1","99999,9,08171,1","6,1,001,1,+000,1","03,1",,"SYN124AAXX  08181 76373 21388 81201 10212 20156 38171 40059 56001 70355 88600 91738 333 10220 20148 31/// 56200 58000 69907 88610;",
"76373099999","2003-10-08T21:00:00","4","25.35","-105.75","1967.0","TEPEHUANES DGO., MX","FM-12","99999","V020","999,9,C,0000,1","00300,1,9,N","070000,1,N,1","+0244,1","+0143,1","10022,1","06,0000,2,1",,,,"05,1,+00300,9,08,9",,,"06,99,1,05,1,02,1,00450,1,03,1,00,1",,"01,9",,,,"99999,9,08149,1","6,1,022,1,-002,1",,,"SYN106AAXX  08211 76373 32488 60000 10244 20143 38149 40022 56022 85230 92040 333 30/// 56220 59002 85810 81360;",
"76373099999","2003-10-11T18:00:00","4","25.35","-105.75","1967.0","TEPEHUANES DGO., MX","FM-12","99999","V020","120,1,N,0010,1","22000,1,9,N","070000,1,N,1","+0224,1","+0104,1","10083,1","06,0000,9,1",,,,"03,1,+00600,9,08,9",,,"04,99,1,03,1,02,1,00250,1,03,1,00,1",,"01,9",,"120,M,+0254,1","240,N,+0098,1","99999,9,08174,1","6,1,007,1,+999,9",,,"SYN118AAXX  11181 76373 32388 41201 10224 20104 38174 40083 56007 83230 91748 333 10254 20098 30/// 56220 58/// 83820 81360;","Q01  00002PRCP06"
"76373099999","2003-10-11T21:00:00","4","25.35","-105.75","1967.0","TEPEHUANES DGO., MX","FM-12","99999","V020","999,9,C,0000,1","22000,1,9,N","070000,1,N,1","+0268,1","+0081,1","10039,1","06,0000,9,1",,,,"04,1,+00600,9,08,9",,,"04,99,1,04,1,02,1,00250,1,00,1,00,1",,"01,9",,,,"99999,9,08154,1","6,1,020,1,+999,9",,,"SYN100AAXX  11211 76373 32388 40000 10268 20081 38154 40039 56020 84200 92050 333 30/// 56200 58/// 84820;","Q01  00002PRCP06"
"76373099999","2003-10-12T00:00:00","4","25.35","-105.75","1967.0","TEPEHUANES DGO., MX","FM-12","99999","V020","140,1,N,0030,1","03600,1,9,N","070000,1,N,1","+0250,1","+0114,1","10012,1","06,0000,9,1","24,0000,9,1",,,"03,1,+00600,9,09,9",,,"05,99,1,03,1,03,1,00250,1,06,1,00,1",,"01,9",,"120,M,+0296,1","180,N,+0098,1","99999,9,08151,1","6,1,003,1,+012,1",,,"SYN130AAXX  12001 76373 32388 51403 10250 20114 38151 40012 56003 83360 92340 333 10296 20098 30/// 50400 56220 58012 70000 83920 82360;","Q01  00002PRCP06"
"76373099999","2003-10-12T21:00:00","4","25.35","-105.75","1967.0","TEPEHUANES DGO., MX","FM-12","99999","V020","100,1,N,0030,1","03600,1,C,N","070000,1,N,1","+0220,1","+0142,1","99999,9","06,0000,9,1",,,,"03,1,+00600,9,06,9",,,"08,99,1,03,1,04,1,00250,1,06,1,00,1",,"01,9",,,,"99999,9,08191,1","6,1,024,1,+037,1",,,"SYN106AAXX  12211 76373 32388 81003 10220 20142 38191 4//// 56024 83460 92050 333 30/// 56220 58037 83620 85360;","Q01  00002PRCP06"
"76373099999","2003-10-13T00:00:00","4","25.35","-105.75","1967.0","TEPEHUANES DGO., MX","FM-12","99999","V020","140,1,N,0020,1","03600,1,9,N","030000,1,N,1","+0198,1","+0151,1","10082,1","06,0000,9,1","24,9999,9,9",,,"02,1,+00300,9,06,9",,,"08,99,1,02,1,04,1,00250,1,06,1,00,1",,"01,9",,"120,M,+0248,1","180,N,+0148,1","99999,9,08200,1","2,1,009,1,+049,1",,,"SYN130AAXX  13001 76373 32380 81402 10198 20151 38200 40082 52009 82460 92335 333 10248 20148 30/// 50200 56220 58049 79999 82610 86360;","Q01  00002PRCP06Q02  99992PRCP24"
"76373099999","2003-10-13T21:00:00","4","25.35","-105.75","1967.0","TEPEHUANES DGO., MX","FM-12","99999","V020","140,1,N,0010,1","03600,1,C,N","070000,1,N,1","+0250,1","+0130,1","10066,1","03,0000,2,1",,"5,1,03,1","5,1,03,1","99,9,+00990,9,03,9",,,"06,99,1,03,1,03,1,00250,1,03,1,00,1",,"01,9",,,,"99999,9,08192,1","6,1,023,1,+001,1","50,1",,"SYN124AAXX  13211 76373 11388 61401 10250 20130 38192 40066 56023 69907 75055 83330 92038 333 30/// 56660 58001 83910 82810 81360;",
"76373099999","2003-10-14T00:00:00","4","25.35","-105.75","1967.0","TEPEHUANES DGO., MX","FM-12","99999","V020","999,9,C,0000,1","99999,9,9,N","070000,1,N,1","+0214,1","+0173,1","10056,1","03,0003,9,1",,"6,1,06,1","5,1,06,1",,,,"06,99,1,99,9,99,9,00450,1,99,9,99,9",,,,,,"99999,9,08191,1","7,1,001,1,+999,9","01,1",,"SYN072AAXX  14001 76373 01488 60000 10214 20173 38191 40056 57001 69937 70165;",
"76373099999","2003-10-14T15:00:00","4","25.35","-105.75","1967.0","TEPEHUANES DGO., MX","FM-12","99999","V020","999,9,C,0000,1","22000,1,9,N","060000,1,N,1","+0176,1","+0152,1","10146,1","15,0030,9,1",,,,"03,1,+00300,9,06,9",,,"04,99,1,03,1,06,1,00250,1,03,1,00,1",,"09,9",,,,"99999,9,08236,1","9,9,999,9,+016,1",,,"SYN118AAXX  14151 76373 02386 40000 10176 20152 38236 40146 5//// 60039 83630 91440 333 31/// 56220 58016 60039 83610 81360;",
"76373099999","2003-10-15T15:00:00","4","25.35","-105.75","1967.0","TEPEHUANES DGO., MX","FM-12","99999","V020","999,9,C,0000,1","22000,1,9,N","070000,1,N,1","+0162,1","+0137,1","10141,1","06,0000,9,1",,,,"02,1,+00300,9,08,9",,,"04,99,1,02,1,01,1,00450,1,03,1,00,1",,"01,9",,,,"99999,9,08232,1","9,9,999,9,-004,1",,,"SYN106AAXX  15151 76373 32488 40000 10162 20137 38232 40141 5//// 82130 91438 333 30/// 56220 59004 82810 82360;","Q01  00002PRCP06"
"76373099999","2003-10-15T18:00:00","4","25.35","-105.75","1967.0","TEPEHUANES DGO., MX","FM-12","99999","V020","130,1,N,0020,1","22000,1,C,N","070000,1,N,1","+0234,1","+0134,1","10132,1","06,0000,9,1",,,,"02,1,+00300,9,09,9","01,1,+00300,9,08,9",,"08,99,1,02,1,03,1,00450,1,00,1,04,1",,"01,9",,"120,M,+0250,1","240,N,+0140,1","99999,9,08229,1","8,1,003,1,-002,1",,,"SYN124AAXX  15181 76373 32488 81302 10234 20134 38229 40132 58003 82304 91736 333 10250 20140 30/// 56202 59002 82910 81810 85070;","Q01  00002PRCP06"
"76373099999","2003-10-15T21:00:00","4","25.35","-105.75","1967.0","TEPEHUANES DGO., MX","FM-12","99999","V020","150,1,N,0040,1","00300,1,C,N","070000,1,N,1","+0250,1","+0132,1","10089,1","06,0000,9,1",,,,"03,1,+00300,9,09,9","02,1,+00300,9,08,9",,"07,99,1,03,1,03,1,00450,1,03,1,00,1",,"01,9",,,,"99999,9,08204,1","6,1,020,1,-003,1",,,"SYN112AAXX  15211 76373 32488 71504 10250 20132 38204 40089 56020 83330 92037 333 30/// 56220 59003 83910 82810 82360;","Q01  00002PRCP06"
"76373099999","2003-10-18T21:00:00","4","25.35","-105.75","1967.0","TEPEHUANES DGO., MX","FM-12","99999","V020","130,1,N,0030,1","22000,1,9,N","070000,1,N,1","+0244,1","+0082,1","10185,1","06,0000,9,1",,,,"01,1,+00600,9,09,9",,,"01,99,1,01,1,03,1,00250,1,00,1,00,1",,"01,9",,,,"99999,9,08240,1","6,1,013,1,+999,9",,,"SYN100AAXX  18211 76373 32388 11303 10244 20082 38240 40185 56013 81300 92035 333 30/// 56200 58/// 81920;","Q01  00002PRCP06"
"76373099999","2003-10-19T15:00:00","4","25.35","-105.75","1967.0","TEPEHUANES DGO., MX","FM-12","99999","V020","999,9,C,0000,1","22000,1,9,N","070000,1,N,1","+0124,1","+0093,1","10209,1","06,0000,9,1",,,,"00,1,+99999,9,99,9",,,"00,99,1,00,1,00,1,99999,9,00,1,00,1",,"01,9",,,,"99999,9,08255,1",,,,"SYN082AAXX  19151 76373 32988 00000 10124 20093 38255 40209 5//// 91440 333 30/// 58///;","Q01  00002PRCP06"
"76373099999","2003-10-19T21:00:00","4","25.35","-105.75","1967.0","TEPEHUANES DGO., MX","FM-12","99999","V020","140,1,N,0040,1","03600,1,C,N","070000,1,N,1","+0232,1","+0078,1","10127,2","06,0000,9,1",,,,"03,1,+00600,9,09,9",,,"06,99,1,03,1,03,1,00250,1,03,1,00,1",,"01,9",,,,"99999,9,08213,1","6,1,028,1,-027,1",,,"SYN106AAXX  19211 76373 32388 61404 10232 20078 38213 40127 56028 83330 92050 333 30/// 56220 59027 83920 83360;","Q01+101273APOSLPQ02  00002PRCP06"
"76373099999","2003-10-20T00:00:00","4","25.35","-105.75","1967.0","TEPEHUANES DGO., MX","FM-12","99999","V020","100,1,N,0010,1","03600,1,C,N","070000,1,N,1","+0204,1","+0072,1","10116,1","06,0000,9,1","24,0000,9,1",,,"01,1,+00600,9,09,9",,,"08,99,1,01,1,09,1,00250,1,06,1,00,1",,"01,9",,"120,M,+0264,1","180,N,+0096,1","99999,9,08222,1","2,1,009,1,-010,1",,,"SYN124AAXX  20001 76373 32388 81001 10204 20072 38222 40116 52009 81960 92335 333 10264 20096 30/// 56220 59010 70000 81920 87360;","Q01  00002PRCP06"
"76373099999","2003-10-20T15:00:00","4","25.35","-105.75","1967.0","TEPEHUANES DGO., MX","FM-12","99999","V020","999,9,C,0000,1","22000,1,9,N","070000,1,N,1","+0118,1","+0086,1","10208,1","06,0000,9,1",,,,"01,1,+00300,9,08,9",,,"03,99,1,01,1,05,1,00450,1,03,1,00,1",,"01,9",,,,"99999,9,08258,1","9,9,999,9,+003,1",,,"SYN106AAXX  20151 76373 32488 30000 10118 20086 38258 40208 5//// 81530 91437 333 30/// 56220 58003 81810 82360;","Q01  00002PRCP06"
"76373099999","2003-10-20T18:00:00","4","25.35","-105.75","1967.0","TEPEHUANES DGO., MX","FM-12","99999","V020","110,1,N,0010,1","22000,1,9,N","070000,1,N,1","+0214,1","+0083,1","10192,1","06,0000,9,1",,,,"01,1,+00300,9,08,9",,,"02,99,1,01,1,01,1,00450,1,03,1,00,1",,"01,9",,"120,M,+0232,1","240,N,+0088,1","99999,9,08253,1","7,1,005,1,+012,1",,,"SYN118AAXX  20181 76373 32488 21101 10214 20083 38253 40192 57005 81130 91736 333 10232 20088 30/// 56220 58012 81810 81360;","Q01  00002PRCP06"
"76373099999","2003-10-20T21:00:00","4","25.35","-105.75","1967.0","TEPEHUANES DGO., MX","FM-12","99999","V020","130,1,N,0060,1","03600,1,C,N","070000,1,N,1","+0252,1","+0072,1","10130,2","06,0000,9,1",,,,"01,1,+00300,9,09,9","01,1,+00300,9,08,9",,"06,99,1,01,1,03,1,00450,1,05,1,00,1",,"01,9",,,,"99999,9,08220,1","6,1,033,1,+007,1",,,"SYN112AAXX  20211 76373 32488 61306 10252 20072 38220 40130 56033 81350 92037 333 30/// 56220 58007 81910 81810 84360;","Q01+101303APOSLPQ02  00002PRCP06"
"76373099999","2003-10-21T15:00:00","4","25.35","-105.75","1967.0","TEPEHUANES DGO., MX","FM-12","99999","V020","999,9,C,0000,1","09000,1,C,N","070000,1,N,1","+0120,1","+0096,1","10201,1","06,0000,9,1",,,,"04,1,+03000,9,03,9",,,"06,99,1,04,1,00,1,01250,1,03,1,02,1",,"01,9",,,,"99999,9,08259,1","9,9,999,9,+001,1",,,"SYN106AAXX  21151 76373 32688 60000 10120 20096 38259 40201 5//// 84032 91437 333 30/// 56022 58001 84360 82070;","Q01  00002PRCP06"
"76373099999","2003-10-21T18:00:00","4","25.35","-105.75","1967.0","TEPEHUANES DGO., MX","FM-12","99999","V020","130,1,N,0040,1","03600,1,C,N","070000,1,N,1","+0190,1","+0080,1","10197,1","06,0000,9,1",,,,"01,1,+00300,9,08,9","03,1,+03000,9,03,9",,"07,99,1,01,1,01,1,00450,1,03,1,06,1",,"01,9",,"120,M,+0204,1","240,N,+0092,1","99999,9,08258,1","7,1,001,1,+005,1",,,"SYN124AAXX  21181 76373 32488 71304 10190 20080 38258 40197 57001 81136 91738 333 10204 20092 30/// 56222 58005 81810 83360 83070;","Q01  00002PRCP06"
"76373099999","2003-10-21T21:00:00","4","25.35","-105.75","1967.0","TEPEHUANES DGO., MX","FM-12","99999","V020","120,1,N,0030,1","22000,1,9,N","070000,1,N,1","+0240,1","+0027,1","10145,1","06,0000,9,1",,,,"01,1,+00300,9,08,9","01,1,+03000,9,03,9",,"03,99,1,01,1,01,1,00450,1,03,1,02,1",,"01,9",,,,"99999,9,08230,1","6,1,028,1,+010,1",,,"SYN112AAXX  21211 76373 32488 31203 10240 20027 38230 40145 56028 81132 92035 333 30/// 56222 58010 81810 81360 81070;","Q01  00002PRCP06"
"76373099999","2003-10-22T00:00:00","4","25.35","-105.75","1967.0","TEPEHUANES DGO., MX","FM-12","99999","V020","060,1,N,0050,1","99999,9,9,N","070000,1,N,1","+0224,1","+0037,1","99999,9","06,0000,9,1","24,0000,9,1",,,"01,1,+00300,9,08,9","02,1,+03000,9,03,9",,"06,99,1,99,9,99,9,00450,1,99,9,99,9",,"01,9",,"120,M,+0260,1","180,N,+0092,1","99999,9,08228,1","9,9,999,9,+010,1",,,"SYN136AAXX  22001 76373 32488 60605 10224 20037 38228 4O012 57002 81132 92355 333 10260 20092 30/// 50290 56222 58010 70000 81810 82360 82560;","Q01  00002PRCP06"
"76373099999","2003-10-22T15:00:00","4","25.35","-105.75","1967.0","TEPEHUANES DGO., MX","FM-12","99999","V020","999,9,C,0000,1","22000,1,9,N","070000,1,N,1","+0098,1","+0044,1","10235,1","06,0000,9,1",,,,"00,1,+99999,9,99,9",,,"00,99,1,00,1,00,1,99999,9,00,1,00,1",,"01,9",,,,"99999,9,08258,1","9,9,999,9,-001,1",,,"SYN082AAXX  22151 76373 32988 00000 10098 20044 38258 40235 5//// 91440 333 30/// 59001;","Q01  00002PRCP06"
"76373099999","2003-10-22T18:00:00","4","25.35","-105.75","1967.0","TEPEHUANES DGO., MX","FM-12","99999","V020","150,1,N,0020,1","22000,1,9,N","070000,1,N,1","+0196,1","+0038,1","10209,1","06,0000,9,1",,,,"00,1,+99999,9,99,9",,,"00,99,1,00,1,00,1,99999,9,00,1,00,1",,"01,9",,"120,M,+0218,1","240,N,+0032,1","99999,9,08246,1","6,1,012,1,-012,1",,,"SYN094AAXX  22181 76373 32988 01502 10196 20038 38246 40209 56012 91738 333 10218 20032 30/// 59012;","Q01  00002PRCP06"
"76373099999","2003-10-24T03:00:00","4","25.35","-105.75","1967.0","TEPEHUANES DGO., MX","FM-12","99999","V020","230,1,N,0010,1","99999,9,9,N","010000,1,N,1","+0148,1","+0038,1","99999,9","06,0000,9,1",,,,,,,,,"01,9",,,,"99999,9,08205,1",,,,"SYN082AAXX  24031 76373 32960 /2301 10148 20038 38205 4//// 5//// 90235 333 30/// 58///;","Q01  00002PRCP06"
"76373099999","2003-10-25T18:00:00","4","25.35","-105.75","1967.0","TEPEHUANES DGO., MX","FM-12","99999","V020","110,1,N,0010,1","03000,1,9,N","070000,1,N,1","+0178,1","+0085,1","10187,1","06,0000,9,1",,,,"08,1,+03000,9,05,9",,,"08,99,1,99,9,99,9,01250,1,99,9,99,9",,"01,9",,"120,M,+0244,1","240,N,+0058,1","99999,9,08233,1","8,1,020,1,+999,9",,,"SYN106AAXX  25181 76373 32688 81101 10178 20085 38233 40187 58020 91740 333 10244 20058 30/// 56020 58/// 88560;","Q01  00002PRCP06"
"76373099999","2003-10-26T00:00:00","4","25.35","-105.75","1967.0","TEPEHUANES DGO., MX","FM-12","99999","V020","260,1,N,0010,1","00210,1,9,N","070000,1,N,1","+0214,1","+0057,1","10100,1","06,0000,9,1","24,0000,9,1",,,,,,"08,99,1,08,1,00,1,00250,1,02,1,00,1",,"01,9",,"120,M,+0268,1","180,N,+0058,1","99999,9,08200,1","2,1,001,1,-002,1",,,"SYN124AAXX  26001 76373 32388 82601 10214 20057 38200 40100 52001 88020 92350 333 10268 20058 30/// 50440 56020 59002 70000 88460;","Q01  00002PRCP06"
"76373099999","2003-10-26T03:00:00","4","25.35","-105.75","1967.0","TEPEHUANES DGO., MX","FM-12","99999","V020","999,9,C,0000,1","03000,1,9,N","010000,1,N,1","+0158,1","+0059,1","10104,1","06,0000,9,1",,,,"07,1,+03000,9,03,9",,,"07,99,1,07,1,00,1,99999,9,06,1,00,1",,"01,9",,,,"99999,9,08216,1","2,1,016,1,-006,1",,,"SYN100AAXX  26031 76373 32960 70000 10158 20059 38216 40104 52016 87060 90255 333 30/// 56200 59006 87360;","Q01  00002PRCP06"
"76373099999","2003-10-26T15:00:00","4","25.35","-105.75","1967.0","TEPEHUANES DGO., MX","FM-12","99999","V020","310,1,N,0020,1","03000,1,9,N","070000,1,N,1","+0128,1","+0087,1","10166,1","06,0000,9,1",,,,"08,1,+03000,9,03,9",,,"08,99,1,08,1,00,1,01250,1,03,1,00,1",,"01,9",,,,"99999,9,08224,1","9,9,999,9,-013,1",,,"SYN100AAXX  26151 76373 32688 83102 10128 20087 38224 40166 5//// 88030 91435 333 30/// 56020 59013 88360;","Q01  00002PRCP06"
"76373099999","2003-10-27T00:00:00","4","25.35","-105.75","1967.0","TEPEHUANES DGO., MX","FM-12","99999","V020","260,1,N,0010,1","22000,1,9,N","070000,1,N,1","+0204,1","+0022,1","10062,1","06,0000,9,1","24,0000,9,1",,,"01,1,+00600,9,08,9",,,"04,99,1,01,1,02,1,00250,1,00,1,06,1",,"01,9",,"120,M,+0256,1","180,N,+0088,1","99999,9,08173,1","6,1,006,1,-027,1",,,"SYN130AAXX  27001 76373 32388 42601 10204 20022 38173 40062 56006 81206 92340 333 10256 20088 30/// 50140 56202 59027 70000 81820 83080;","Q01  00002PRCP06"
"76373099999","2003-10-27T15:00:00","4","25.35","-105.75","1967.0","TEPEHUANES DGO., MX","FM-12","99999","V020","090,1,N,0020,1","00300,1,9,N","070000,1,N,1","+0272,1","+0013,1","10198,1","06,0000,9,1",,,,"08,1,+00300,9,06,9",,,"08,99,1,08,1,06,1,00250,1,00,1,00,1",,"01,9",,,,"99999,9,08233,1","9,9,999,9,-009,1",,,"SYN100AAXX  27151 76373 32388 80902 10272 20013 38233 40198 5//// 88600 91438 333 30/// 56200 59009 88610;","Q01  00002PRCP06"
"76373099999","2003-10-27T21:00:00","4","25.35","-105.75","1967.0","TEPEHUANES DGO., MX","FM-12","99999","V020","150,1,N,0030,1","22000,1,9,N","070000,1,N,1","+0160,1","+0015,1","10145,1","06,0000,9,1",,,,"02,1,+00300,9,08,9",,,"02,99,1,02,1,01,1,00450,1,00,1,00,1",,"01,9",,,,"99999,9,08194,1","7,1,033,1,+015,1",,,"SYN100AAXX  27211 76373 32488 21503 10160 20015 38194 40145 57033 82100 92036 333 30/// 56200 58015 82810;","Q01  00002PRCP06"
"76373099999","2003-10-28T00:00:00","4","25.35","-105.75","1967.0","TEPEHUANES DGO., MX","FM-12","99999","V020","130,1,N,0040,1","99999,9,9,N","070000,1,N,1","+0150,1","+0039,1","10119,1","06,0000,9,1","24,0000,9,1",,,,,,"08,99,1,99,9,99,9,99999,9,99,9,99,9",,"01,9",,"120,M,+0184,1","180,N,+0060,1","99999,9,08186,1","6,1,008,1,+013,1",,,"SYN106AAXX  28001 76373 32988 81304 10150 20039 38186 40119 56008 92340 333 10184 20060 30/// 50390 58013 70000;","Q01  00002PRCP06Q02  00002PRCP24"
"76373099999","2003-10-28T15:00:00","4","25.35","-105.75","1967.0","TEPEHUANES DGO., MX","FM-12","99999","V020","999,9,C,0000,1","22000,1,9,N","070000,1,N,1","+0030,1","+0004,1","10203,1","06,0000,9,1",,,,"00,1,+99999,9,99,9",,,"00,99,1,00,1,00,1,99999,9,00,1,00,1",,"01,9",,,,"99999,9,08205,1","9,9,999,9,-028,1",,,"SYN082AAXX  28151 76373 32988 00000 10030 20004 38205 40203 5//// 91440 333 30/// 59028;","Q01  00002PRCP06"
"76373099999","2003-10-28T21:00:00","4","25.35","-105.75","1967.0","TEPEHUANES DGO., MX","FM-12","99999","V020","120,1,N,0030,1","22000,1,9,N","070000,1,N,1","+0250,2","-0067,1","10096,2","06,0000,9,1",,,,"00,1,+99999,9,99,9",,,"00,99,1,00,1,00,1,99999,9,00,1,00,1",,"01,9",,,,"99999,9,08155,1","6,1,031,1,-039,1",,,"SYN082AAXX  28211 76373 32988 01203 10250 21067 38155 40096 56031 92036 333 30/// 59039;","Q01+002503ATOT  Q02+100963APOSLPQ03  00002PRCP06"
"76373099999","2003-10-29T00:00:00","4","25.35","-105.75","1967.0","TEPEHUANES DGO., MX","FM-12","99999","V020","120,1,N,0040,1","22000,1,9,N","070000,1,N,1","+0236,1","-0052,1","10053,1","06,0000,9,1","24,0000,9,1",,,,,,"03,99,1,00,1,00,1,99999,9,00,1,04,1",,"01,9",,"120,M,+0278,1","180,N,-0020,1","99999,9,08154,1","7,1,001,1,-032,1",,,"SYN124AAXX  29001 76373 32988 31204 10236 21052 38154 40053 57001 80004 92336 333 10278 21020 30/// 50370 56002 59032 70000 83070;","Q01  00002PRCP06"
"76373099999","2003-10-30T15:00:00","4","25.35","-105.75","1967.0","TEPEHUANES DGO., MX","FM-12","99999","V020","999,9,C,0000,1","22000,1,9,N","070000,1,N,1","+0092,1","+0031,1","10138,1","06,0000,9,1",,,,"00,1,+99999,9,99,9",,,"00,99,1,00,1,00,1,99999,9,00,1,00,1",,"01,9",,,,"99999,9,08203,1","9,9,999,9,+004,1",,,"SYN082AAXX  30151 76373 32988 00000 10092 20031 38203 40138 5//// 91436 333 30/// 58004;","Q01  00002PRCP06"
"76373099999","2003-11-02T15:00:00","4","25.35","-105.75","1967.0","TEPEHUANES DGO., MX","FM-12","99999","V020","999,9,C,0000,1","22000,1,9,N","070000,1,N,1","+0088,1","+0047,1","10200,1","06,0000,9,1",,,,"00,1,+99999,9,99,9",,,"00,99,1,00,1,00,1,99999,9,00,1,00,1",,"01,9",,,,"99999,9,08228,1",,,,"SYN082AAXX  02151 76373 32988 00000 10088 20047 38228 40200 5//// 91432 333 30/// 58///;","Q01  00002PRCP06"
"76373099999","2003-11-02T21:00:00","4","25.35","-105.75","1967.0","TEPEHUANES DGO., MX","FM-12","99999","V020","230,1,N,0050,1","22000,1,9,N","070000,1,N,1","+0264,2","+0024,1","10114,2","06,0000,9,1",,,,"01,1,+00600,9,08,9",,,"01,99,1,01,1,02,1,00250,1,00,1,00,1",,"01,9",,,,"99999,9,08193,1","6,1,023,1,+999,9",,,"SYN100AAXX  02211 76373 32388 12305 10264 20024 38193 40114 56023 81200 92040 333 30/// 56200 58/// 81820;","Q01+002643ATOT  Q02+101143APOSLPQ03  00002PRCP06"
"76373099999","2003-11-03T00:00:00","4","25.35","-105.75","1967.0","TEPEHUANES DGO., MX","FM-12","99999","V020","250,1,N,0040,1","22000,1,9,N","070000,1,N,1","+0242,1","+0025,1","10085,1","06,0000,9,1","24,0000,9,1",,,,,,"01,99,1,01,1,02,1,00250,1,00,1,00,1",,"01,9",,"120,M,+0276,1","180,N,+0042,1","99999,9,08198,1","2,1,005,1,+999,9",,,"SYN124AAXX  03001 76373 32388 12504 10242 20025 38198 40085 52005 81200 92335 333 10276 20042 30/// 5//// 56200 58/// 70000 81820;","Q01  00002PRCP06"
"76373099999","2003-11-03T15:00:00","4","25.35","-105.75","1967.0","TEPEHUANES DGO., MX","FM-12","99999","V020","300,1,N,0010,1","22000,1,9,N","070000,1,N,1","+0092,1","+0042,1","10189,1","06,0000,9,1",,,,"00,1,+99999,9,99,9",,,"00,99,1,00,1,00,1,99999,9,00,1,00,1",,"01,9",,,,"99999,9,08222,1","9,9,999,9,-006,1",,,"SYN082AAXX  03151 76373 32988 03001 10092 20042 38222 40189 5//// 91437 333 30/// 59006;","Q01  00002PRCP06"
"76373099999","2003-11-03T18:00:00","4","25.35","-105.75","1967.0","TEPEHUANES DGO., MX","FM-12","99999","V020","300,1,N,0010,1","22000,1,9,N","070000,1,N,1","+0224,1","+0088,1","10160,1","06,0000,9,1",,,,"01,1,+00300,9,08,9",,,"01,99,1,01,1,01,1,00450,1,00,1,00,1",,"01,9",,"120,M,+0232,1","240,N,+0030,1","99999,9,08209,1","6,1,013,1,-007,1",,,"SYN112AAXX  03181 76373 32488 13001 10224 20088 38209 40160 56013 81100 91740 333 10232 20030 30/// 56200 59007 81810;","Q01  00002PRCP06"
"76373099999","2003-11-03T21:00:00","4","25.35","-105.75","1967.0","TEPEHUANES DGO., MX","FM-12","99999","V020","270,1,N,0030,1","22000,1,9,N","070000,1,N,1","+0274,1","+9999,9","10095,2","06,0000,9,1",,,,"03,1,+00300,9,08,9",,,"03,99,1,03,1,01,1,00450,1,00,1,00,1",,"01,9",,,,"99999,9,08182,1","7,1,027,1,-011,1",,,"SYN100AAXX  03211 76373 32488 32703 10274 20248 38182 40095 57027 83100 92035 333 30/// 56200 59011 83810;","Q01+002483ATOD  Q02+100953APOSLPQ03  00002PRCP06Q04 +02483ATOD  "
"76373099999","2003-11-04T00:00:00","4","25.35","-105.75","1967.0","TEPEHUANES DGO., MX","FM-12","99999","V020","250,1,N,0030,1","22000,1,9,N","070000,1,N,1","+0236,1","+0050,2","10061,1","06,0000,9,1","24,0000,9,1",,,,,,"01,99,1,01,1,01,1,00450,1,00,1,00,1",,"01,9",,"120,M,+0232,1","180,N,+0030,1","99999,9,08180,1","7,1,002,1,-018,1",,,"SYN124AAXX  04001 76373 32488 12503 10236 20050 38180 40061 57002 81100 92340 333 10232 20030 30/// 50410 56200 59018 70000 81810;","Q01+000503ATOD  Q02  00002PRCP06"
"76373099999","2003-11-04T15:00:00","4","25.35","-105.75","1967.0","TEPEHUANES DGO., MX","FM-12","99999","V020","999,9,C,0000,1","22000,1,9,N","070000,1,N,1","+0094,1","+0060,1","10130,1","06,0000,9,1",,,,"00,1,+99999,9,99,9",,,"00,99,1,00,1,00,1,99999,9,00,1,00,1",,"01,9",,,,"99999,9,08195,1","9,9,999,9,-027,1",,,"SYN082AAXX  04151 76373 32988 00000 10094 20060 38195 40130 5//// 91435 333 30/// 59027;","Q01  00002PRCP06"
"76373099999","2003-11-04T18:00:00","4","25.35","-105.75","1967.0","TEPEHUANES DGO., MX","FM-12","99999","V020","300,1,N,0010,1","22000,1,9,N","070000,1,N,1","+0224,2","+0071,1","10121,1","06,0000,9,1",,,,"01,1,+06000,9,00,9",,,"01,99,1,00,1,00,1,99999,9,00,1,01,1",,"01,9",,"120,M,+0240,1","240,N,+0040,1","99999,9,08193,1","8,1,002,1,-016,1",,,"SYN112AAXX  04181 76373 32988 13001 10224 20071 38193 40121 58002 80001 91740 333 10240 20040 30/// 56006 59016 81070;","Q01+002243ATOT  Q02  00002PRCP06"
"76373099999","2003-11-04T21:00:00","4","25.35","-105.75","1967.0","TEPEHUANES DGO., MX","FM-12","99999","V020","310,1,N,0050,1","22000,1,9,N","070000,1,N,1","+0264,1","+0045,1","10063,1","06,0000,9,1",,,,"02,1,+00300,9,08,9",,,"04,99,1,02,1,01,1,00450,1,00,1,02,1",,"01,9",,,,"99999,9,08163,1","6,1,030,1,-019,1",,,"SYN106AAXX  04211 76373 32488 43105 10264 20045 38163 40063 56030 82102 92037 333 30/// 56006 59019 82810 82070;","Q01  00002PRCP06"
"76373099999","2003-11-05T00:00:00","4","25.35","-105.75","1967.0","TEPEHUANES DGO., MX","FM-12","99999","V020","270,1,N,0040,1","09000,1,9,N","070000,1,N,1","+0236,1","+0066,1","10046,1","06,0000,9,1","24,0000,9,1",,,"02,1,+00300,9,08,9",,,"08,99,1,02,1,01,1,00450,1,00,1,08,1",,"01,9",,"120,M,+0282,1","180,N,+0040,1","99999,9,08171,1","3,1,008,1,-009,1",,,"SYN130AAXX  05001 76373 32488 82704 10236 20066 38171 40046 53008 82108 92336 333 10282 20040 30/// 50320 56606 59009 70000 82810 86270;","Q01  00002PRCP06"
"76373099999","2003-11-05T15:00:00","4","25.35","-105.75","1967.0","TEPEHUANES DGO., MX","FM-12","99999","V020","999,9,C,0000,1","06000,1,9,N","070000,1,N,1","+0098,1","+0062,1","10153,1","06,0000,9,1",,,,"07,1,+06000,9,02,9",,,"07,99,1,00,1,00,1,99999,9,00,1,08,1",,"01,9",,,,"99999,9,08111,1","9,9,999,9,+016,1",,,"SYN100AAXX  05151 76373 32988 70000 10098 20062 38111 40153 5//// 80008 91435 333 30/// 56006 58016 87270;","Q01  00002PRCP06"
"76373099999","2003-11-05T18:00:00","4","25.35","-105.75","1967.0","TEPEHUANES DGO., MX","FM-12","99999","V020","070,1,N,0010,1","06000,1,9,N","070000,1,N,1","+0220,1","+0055,1","10144,1","06,0000,9,1",,,,"01,1,+00300,9,08,9","08,1,+06000,9,02,9",,"08,99,1,01,1,01,1,00450,1,00,1,07,1",,"01,9",,"120,M,+0238,1","240,N,+0050,1","99999,9,08207,2","7,1,004,1,+015,1",,,"SYN124AAXX  05181 76373 32488 80701 10220 20055 38207 40144 57004 81107 91737 333 10238 20050 30/// 56606 58015 81810 88270 99020;","Q01+082073APOSP Q02  00002PRCP06"
"76373099999","2003-11-05T21:00:00","4","25.35","-105.75","1967.0","TEPEHUANES DGO., MX","FM-12","99999","V020","030,1,N,0040,1","06000,1,9,N","070000,1,N,1","+0250,1","+0048,1","99999,9","06,0000,9,1",,,,"02,1,+00300,9,08,9","07,1,+06000,9,02,9",,"08,99,1,02,1,01,1,00450,1,00,1,07,1",,"01,9",,,,"99999,9,08189,1","6,1,018,1,+026,1",,,"SYN112AAXX  05210 76373 32488 80304 10250 20048 38189 4//// 56018 82107 92040 333 30/// 56606 58026 82810 87270 99020;","Q01  00002PRCP06"
"76373099999","2003-11-06T15:00:00","4","25.35","-105.75","1967.0","TEPEHUANES DGO., MX","FM-12","99999","V020","999,9,C,0000,1","06000,1,9,N","070000,1,N,1","+0088,1","+0037,1","99999,9","06,0000,9,1",,,,"06,1,+06000,9,02,9",,,"06,99,1,00,1,00,1,99999,9,00,1,08,1",,"01,9",,,,"99999,9,08235,1","9,9,999,9,+024,1",,,"SYN100AAXX  06150 76373 32988 60000 10088 20037 38235 4//// 5//// 80008 91438 333 30/// 56006 58024 86270;","Q01  00002PRCP06"
"76373099999","2003-11-08T00:00:00","4","25.35","-105.75","1967.0","TEPEHUANES DGO., MX","FM-12","99999","V020","170,1,N,0020,1","22000,1,9,N","070000,1,N,1","+0250,1","+0084,1","99999,9","06,0000,9,1","24,0000,9,1",,,"02,1,+00600,9,08,9","01,1,+03000,9,03,9",,"04,99,1,02,1,02,1,00250,1,03,1,04,1",,"01,9",,"120,M,+0292,1","180,N,+0036,1","99999,9,08255,1",,,,"SYN136AAXX  08001 76373 32388 41702 10250 20084 38255 4//// 5//// 82234 92345 333 10292 20036 30/// 50370 56666 58/// 70000 82820 81360 81080;","Q01  00002PRCP06"
"76373099999","2003-11-08T03:00:00","4","25.35","-105.75","1967.0","TEPEHUANES DGO., MX","FM-12","99999","V020","999,9,C,0000,1","22000,1,9,N","010000,1,N,1","+0164,1","+0037,1","99999,9","06,0000,9,1",,,,"00,1,+99999,9,99,9",,,"00,99,1,00,1,00,1,99999,9,00,1,00,1",,"01,9",,,,"99999,9,08228,1","2,1,027,1,+999,9",,,"SYN082AAXX  08031 76373 32960 00000 10164 20037 38228 4//// 52027 90250 333 30/// 58///;","Q01  00002PRCP06"
"76373099999","2003-11-09T00:00:00","4","25.35","-105.75","1967.0","TEPEHUANES DGO., MX","FM-12","99999","V020","999,9,C,0000,1","03600,1,9,N","070000,1,N,1","+0252,1","+0024,1","10088,1","06,0000,9,1","24,0000,9,1",,,"01,1,+00600,9,08,9","03,1,+03000,9,03,9",,"08,99,1,01,1,02,1,00250,1,03,1,04,1",,"01,9",,"120,M,+0296,1","180,N,+0076,1","99999,9,08209,1","4,1,000,1,+004,1",,,"SYN136AAXX  09001 76373 32388 80000 10252 20024 38209 40088 54000 81234 92330 333 10296 20076 30/// 50400 56666 58004 70000 81820 83360 84080;","Q01  00002PRCP06"
"76373099999","2003-11-10T00:00:00","4","25.35","-105.75","1967.0","TEPEHUANES DGO., MX","FM-12","99999","V020","120,1,N,0040,1","22000,1,9,N","070000,1,N,1","+0256,1","+0015,1","10091,1","06,0000,9,1","24,0000,9,1",,,,,,"01,99,1,01,1,00,1,01250,1,03,1,00,1",,"01,9",,"120,M,+0298,1","180,N,+0068,1","99999,9,08212,1","6,1,008,1,+003,1",,,"SYN124AAXX  10001 76373 32688 11204 10256 20015 38212 40091 56008 81030 92330 333 10298 20068 30/// 50460 56060 58003 70000 81360;","Q01  00002PRCP06"
"76373099999","2003-11-10T15:00:00","4","25.35","-105.75","1967.0","TEPEHUANES DGO., MX","FM-12","99999","V020","040,1,N,0010,1","22000,1,9,N","070000,1,N,1","+0090,1","+0049,1","10214,1","06,0000,9,1",,,,"00,1,+99999,9,99,9",,,"00,99,1,00,1,00,1,99999,9,00,1,00,1",,"01,9",,,,"99999,9,08256,1","9,9,999,9,+003,1",,,"SYN082AAXX  10151 76373 32988 00401 10090 20049 38256 40214 5//// 91436 333 30/// 58003;","Q01  00002PRCP06"
"76373099999","2003-11-10T18:00:00","4","25.35","-105.75","1967.0","TEPEHUANES DGO., MX","FM-12","99999","V020","120,1,N,0010,1","22000,1,9,N","070000,1,N,1","+0216,1","+0060,1","10198,1","06,0000,9,1",,,,"00,1,+99999,9,99,9",,,"00,99,1,00,1,00,1,99999,9,00,1,00,1",,"01,9",,"120,M,+0238,1","240,N,+0042,1","99999,9,08247,1","7,1,009,1,-002,1",,,"SYN094AAXX  10181 76373 32988 01201 10216 20060 38247 40198 57009 91736 333 10238 20042 30/// 59002;","Q01  00002PRCP06"
"76373099999","2003-11-10T21:00:00","4","25.35","-105.75","1967.0","TEPEHUANES DGO., MX","FM-12","99999","V020","120,1,N,0030,1","22000,1,9,N","070000,1,N,1","+0276,1","+0035,1","10125,2","06,0000,9,1",,,,"01,1,+00300,9,08,9",,,"02,99,1,01,1,01,1,00450,1,00,1,02,1",,"01,9",,,,"99999,9,08210,1","6,1,037,1,-010,1",,,"SYN106AAXX  10211 76373 32488 21203 10276 20035 38210 40125 56037 81102 92035 333 30/// 56606 59010 81810 81070;","Q01+101253APOSLPQ02  00002PRCP06"
"76373099999","2003-11-11T00:00:00","4","25.35","-105.75","1967.0","TEPEHUANES DGO., MX","FM-12","99999","V020","250,1,N,0030,1","09000,1,9,N","070000,1,N,1","+0268,1","+0043,1","10084,1","06,0000,9,1","24,0000,9,1",,,"02,1,+00300,9,08,9",,,"05,99,1,02,1,01,1,00450,1,00,1,02,1",,"01,9",,"120,M,+0300,1","180,N,+0042,1","99999,9,08203,1","7,1,007,1,-009,1",,,"SYN130AAXX  11001 76373 32488 52503 10268 20043 38203 40084 57007 82102 92340 333 10300 20042 30/// 50350 56606 59009 70000 82810 83070;","Q01  00002PRCP06"
"76373099999","2003-11-11T15:00:00","4","25.35","-105.75","1967.0","TEPEHUANES DGO., MX","FM-12","99999","V020","999,9,C,0000,1","22000,1,9,N","070000,1,N,1","+0092,1","+0037,1","10199,1","06,0000,9,1",,,,"01,1,+06000,9,00,9",,,"01,99,1,00,1,00,1,99999,9,00,1,02,1",,"01,9",,,,"99999,9,08250,1","9,9,999,9,-006,1",,,"SYN100AAXX  11151 76373 32988 10000 10092 20037 38250 40199 5//// 80002 91436 333 30/// 56006 59006 81070;","Q01  00002PRCP06"
"76373099999","2003-11-11T21:00:00","4","25.35","-105.75","1967.0","TEPEHUANES DGO., MX","FM-12","99999","V020","120,1,N,0010,1","22000,1,9,N","070000,1,N,1","+0274,2","+0036,1","10116,2","06,0000,9,1",,,,"01,1,+00300,9,08,9",,,"01,99,1,01,1,01,1,00450,1,00,1,00,1",,"01,9",,,,"99999,9,08203,1","6,1,036,1,-007,1",,,"SYN100AAXX  11211 76373 32488 11201 10274 20036 38203 40116 56036 81100 92040 333 30/// 56600 59007 81810;","Q01+002743ATOT  Q02+101163APOSLPQ03  00002PRCP06"
"76373099999","2003-11-12T00:00:00","4","25.35","-105.75","1967.0","TEPEHUANES DGO., MX","FM-12","99999","V020","140,1,N,0020,1","22000,1,9,N","070000,1,N,1","+0250,1","+0033,1","10074,1","06,0000,9,1","24,0000,9,1",,,,,,"02,99,1,02,1,01,1,00450,1,00,1,00,1",,"01,9",,"120,M,+0294,1","180,N,+0038,1","99999,9,08194,1","7,1,009,1,-009,1",,,"SYN124AAXX  12001 76373 32488 21402 10250 20033 38194 40074 57009 82100 92340 333 10294 20038 300// 50430 56000 59009 70000 81810;","Q01  00002PRCP06"
"76373099999","2003-11-12T15:00:00","4","25.35","-105.75","1967.0","TEPEHUANES DGO., MX","FM-12","99999","V020","999,9,C,0000,1","22000,1,9,N","070000,1,N,1","+0098,1","+0042,1","10182,1","06,0000,9,1",,,,"00,1,+99999,9,99,9",,,"00,99,1,00,1,00,1,99999,9,00,1,00,1",,"01,9",,,,"99999,9,08235,1","9,9,999,9,-015,1",,,"SYN082AAXX  12151 76373 32988 00000 10098 20042 38235 40182 5//// 91436 333 30/// 59015;","Q01  00002PRCP06"
"76373099999","2003-11-12T18:00:00","4","25.35","-105.75","1967.0","TEPEHUANES DGO., MX","FM-12","99999","V020","090,1,N,0010,1","22000,1,9,N","070000,1,N,1","+0222,1","+0058,1","10164,1","06,0000,9,1",,,,"01,1,+06000,9,00,9",,,"01,99,1,00,1,00,1,99999,9,00,1,02,1",,"01,9",,"120,M,+9999,9","240,N,+9999,9","99999,9,08222,1","7,1,010,1,-015,1",,,"SYN112AAXX  12181 76373 32988 10901 10222 20058 38222 40164 57010 80002 91743 333 10238 20242 30/// 56006 59015 81070;","Q01  00002PRCP06Q02 +02383ATMM  Q03 +02423ATMM  "
"76373099999","2003-11-12T21:00:00","4","25.35","-105.75","1967.0","TEPEHUANES DGO., MX","FM-12","99999","V020","120,1,N,0010,1","22000,1,9,N","070000,1,N,1","+0280,1","+0043,1","10101,2","06,0000,9,1",,,,"01,1,+00300,9,08,9",,,"03,99,1,01,1,01,1,00450,1,00,1,02,1",,"01,9",,,,"99999,9,08195,1","6,1,030,1,-008,1",,,"SYN106AAXX  12211 76373 32488 31201 10280 20043 38195 40101 56030 81102 92038 333 30/// 56202 59008 81810 82070;","Q01+101013APOSLPQ02  00002PRCP06"
"76373099999","2003-11-14T00:00:00","4","25.35","-105.75","1967.0","TEPEHUANES DGO., MX","FM-12","99999","V020","170,1,N,0030,1","22000,1,9,N","070000,1,N,1","+0248,1","+0007,1","99999,9","06,0000,9,1","24,0000,9,1",,,,,,"01,99,1,01,1,02,1,00250,1,00,1,00,1",,"01,9",,"120,M,+0296,1","180,N,+0054,1","99999,9,08209,1",,,,"SYN124AAXX  14001 76373 32388 11703 10248 20007 38209 4//// 5//// 81200 92340 333 10296 20054 30/// 50450 56600 58/// 70000 81820;","Q01  00002PRCP06"
"76373099999","2003-11-15T00:00:00","4","25.35","-105.75","1967.0","TEPEHUANES DGO., MX","FM-12","99999","V020","270,1,N,0030,1","22000,1,C,N","070000,1,N,1","+0224,1","+0042,1","10092,1","06,0000,9,1","24,0000,9,1",,,"01,1,+00600,9,08,9",,,"08,99,1,01,1,08,1,00250,1,00,1,04,1",,"01,9",,"120,M,+0276,1","180,N,+0036,1","99999,9,08203,1","2,1,002,1,-006,1",,,"SYN129AAXX  15001 76373 32388 82703 10224 20042 38203 40092 52002 81804 2330 333 10276 20036 30/// 50490 56606 59006 70000 81820 87080;","Q01  00002PRCP06"
"76373099999","2003-11-23T00:00:00","4","25.35","-105.75","1967.0","TEPEHUANES DGO., MX","FM-12","99999","V020","270,1,N,0040,1","22000,1,9,N","070000,1,N,1","+0198,1","-0039,1","10057,1","06,0000,9,1","24,0000,9,1",,,"00,1,+99999,9,99,9",,,"00,99,1,00,1,00,1,99999,9,00,1,00,1",,"01,9",,"120,M,+0264,1","180,N,-0005,1","99999,9,08162,1","6,1,003,1,+999,9",,,"SYN106AAXX  23001 76373 32988 02704 10198 21039 38162 40057 56003 92330 333 10264 21005 30/// 5//// 58/// 70000;","Q01  00002PRCP06Q02  00002PRCP24"
"76373099999","2003-11-28T00:00:00","4","25.35","-105.75","1967.0","TEPEHUANES DGO., MX","FM-12","99999","V020","150,1,N,0040,1","22000,1,9,N","070000,1,N,1","+0206,1","-0018,1","10115,1","06,0000,9,1","24,0000,9,1",,,"00,1,+99999,9,99,9",,,"00,99,1,00,1,00,1,99999,9,00,1,00,1",,"01,9",,"120,M,+0260,1","180,N,+0002,1","99999,9,08204,1","6,1,007,1,+999,9",,,"SYN106AAXX  28001 76373 32988 01504 10206 21018 38204 40115 56007 92340 333 10260 20002 30/// 50020 58/// 70000;","Q01  00002PRCP06Q02  00002PRCP24"
"76373099999","2003-12-01T15:00:00","4","25.35","-105.75","1967.0","TEPEHUANES DGO., MX","FM-12","99999","V020","999,9,C,0000,1","22000,1,9,N","070000,1,N,1","+0034,1","-0025,1","10269,1","06,0000,9,1",,,,"00,1,+99999,9,99,9",,,"00,99,1,00,1,00,1,99999,9,00,1,00,1",,"01,9",,,,"99999,9,08274,1","9,9,999,9,+032,1",,,"SYN082AAXX  01151 76373 32988 00000 10034 21025 38274 40269 5//// 91440 333 30/// 58032;","Q01  00002PRCP06"
"76373099999","2003-12-01T18:00:00","4","25.35","-105.75","1967.0","TEPEHUANES DGO., MX","FM-12","99999","V020","180,1,N,0010,1","22000,1,9,N","070000,1,N,1","+0170,1","-0032,1","10265,1","06,0000,9,1",,,,"00,1,+99999,9,99,9",,,"00,99,1,00,1,00,1,99999,9,00,1,00,1",,"01,9",,"120,M,+0188,1","240,N,-0014,1","99999,9,08274,1","4,1,000,1,+999,9",,,"SYN094AAXX  01181 76373 32988 01801 10170 21032 38274 40265 54000 91740 333 10188 21014 30/// 58///;","Q01  00002PRCP06"
"76373099999","2003-12-01T21:00:00","4","25.35","-105.75","1967.0","TEPEHUANES DGO., MX","FM-12","99999","V020","150,1,N,0010,1","22000,1,9,N","070000,1,N,1","+0232,1","-0071,1","10203,2","06,0000,9,1",,,,"00,1,+99999,9,99,9",,,"00,99,1,00,1,00,1,99999,9,00,1,00,1",,"01,9",,,,"99999,9,08243,1","6,1,031,1,+999,9",,,"SYN082AAXX  01211 76373 32988 01501 10232 21071 38243 40203 56031 92036 333 30/// 58///;","Q01+102033APOSLPQ02  00002PRCP06"
"76373099999","2003-12-02T00:00:00","4","25.35","-105.75","1967.0","TEPEHUANES DGO., MX","FM-12","99999","V020","160,1,N,0030,1","22000,1,9,N","070000,1,N,1","+0206,1","-0094,1","10168,1","06,0000,9,1","24,0000,9,1",,,"00,1,+99999,9,99,9",,,"00,99,1,00,1,00,1,99999,9,00,1,00,1",,"01,9",,"120,M,+0254,1","180,N,-0014,1","99999,9,08242,1","7,1,001,1,+999,9",,,"SYN106AAXX  02001 76373 32988 01603 10206 21094 38242 40168 57001 92340 333 10254 21014 30/// 50140 58/// 70000;","Q01  00002PRCP06Q02  00002PRCP24"
"76373099999","2003-12-02T15:00:00","4","25.35","-105.75","1967.0","TEPEHUANES DGO., MX","FM-12","99999","V020","999,9,C,0000,1","22000,1,9,N","070000,1,N,1","+0024,1","-0046,1","10287,1","06,0000,9,1",,,,"02,1,+06000,9,00,9",,,"02,99,1,00,1,00,1,99999,9,00,1,02,1",,"01,9",,,,"99999,9,08278,1","9,9,999,9,+005,1",,,"SYN100AAXX  02151 76373 32988 20000 10024 21046 38278 40287 5//// 80002 91438 333 30/// 56006 58005 82070;","Q01  00002PRCP06"
"76373099999","2003-12-02T18:00:00","4","25.35","-105.75","1967.0","TEPEHUANES DGO., MX","FM-12","99999","V020","060,1,N,0010,1","22000,1,9,N","070000,1,N,1","+0164,1","-0055,1","10268,1","06,0000,9,1",,,,"02,1,+06000,9,00,9",,,"02,99,1,00,1,00,1,99999,9,00,1,02,1",,"01,9",,"120,M,+0180,1","240,N,-0030,1","99999,9,08267,1","6,1,011,1,-007,1",,,"SYN112AAXX  02181 76373 32988 20601 10164 21055 38267 40268 56011 80002 91740 333 10180 21030 30/// 56006 59007 82070;","Q01  00002PRCP06"
"76373099999","2003-12-02T21:00:00","4","25.35","-105.75","1967.0","TEPEHUANES DGO., MX","FM-12","99999","V020","160,1,N,0010,1","22000,1,9,N","070000,1,N,1","+0232,1","-0047,1","10180,2","06,0000,9,1",,,,"01,1,+06000,9,00,9",,,"01,99,1,00,1,00,1,99999,9,00,1,02,1",,"01,9",,,,"99999,9,08219,1","6,1,048,1,-024,1",,,"SYN100AAXX  02211 76373 32988 11601 10232 21047 38219 40180 56048 80002 92040 333 30/// 56006 59024 81070;","Q01+101803APOSLPQ02  00002PRCP06"
"76373099999","2003-12-03T00:00:00","4","25.35","-105.75","1967.0","TEPEHUANES DGO., MX","FM-12","99999","V020","150,1,N,0010,1","22000,1,9,N","070000,1,N,1","+0218,1","-0041,1","10128,1","06,0000,9,1","24,0000,9,1",,,,,,"02,99,1,00,1,00,1,99999,9,00,1,02,1",,"01,9",,"120,M,+0262,1","180,N,-0030,1","99999,9,08208,1","7,1,011,1,-034,1",,,"SYN124AAXX  03001 76373 32988 21501 10218 21041 38208 40128 57011 80002 92340 333 10262 21030 30/// 50430 56006 59034 70000 82070;","Q01  00002PRCP06"
"76373099999","2003-12-03T15:00:00","4","25.35","-105.75","1967.0","TEPEHUANES DGO., MX","FM-12","99999","V020","999,9,C,0000,1","06000,1,9,N","070000,1,N,1","+0042,1","-0022,1","10206,1","06,0000,9,1",,,,"06,1,+06000,9,02,9",,,"06,99,1,00,1,00,1,99999,9,00,1,08,1",,"01,9",,,,"99999,9,08236,1","9,9,999,9,-042,1",,,"SYN100AAXX  03151 76373 32988 60000 10042 21022 38236 40206 5//// 80008 91436 333 30/// 56006 59042 86270;","Q01  00002PRCP06"
"76373099999","2003-12-03T18:00:00","4","25.35","-105.75","1967.0","TEPEHUANES DGO., MX","FM-12","99999","V020","100,1,N,0010,1","06000,1,9,N","070000,1,N,1","+0180,1","-0015,1","10204,1","06,0000,9,1",,,,"06,1,+06000,9,02,9",,,"06,99,1,00,1,00,1,99999,9,00,1,08,1",,"01,9",,"120,M,+0194,1","240,N,-0006,1","99999,9,08233,1","7,1,003,1,-034,1",,,"SYN112AAXX  03181 76373 32988 61001 10180 21015 38233 40204 57003 80008 91740 333 10194 21006 30/// 56006 59034 86270;","Q01  00002PRCP06"
"76373099999","2003-12-03T21:00:00","4","25.35","-105.75","1967.0","TEPEHUANES DGO., MX","FM-12","99999","V020","120,1,N,0010,1","06000,1,9,N","070000,1,N,1","+0238,1","-0017,1","10139,2","06,0000,9,1",,,,"07,1,+06000,9,02,9",,,"07,99,1,00,1,00,1,99999,9,00,1,08,1",,"01,9",,,,"99999,9,08198,1","6,1,035,1,-021,1",,,"SYN100AAXX  03211 76373 32988 71201 10238 21017 38198 40139 56035 80008 92042 333 30/// 56006 59021 87270;","Q01+101393APOSLPQ02  00002PRCP06"
"76373099999","2003-12-04T00:00:00","4","25.35","-105.75","1967.0","TEPEHUANES DGO., MX","FM-12","99999","V020","150,1,N,0020,1","99999,9,9,N","070000,1,N,1","+0206,1","-0034,1","10103,1","06,0000,9,1","24,0000,9,1",,,,,,"07,99,1,00,1,00,1,99999,9,00,1,08,1",,"01,9",,"120,M,+0260,1","180,N,-0006,1","99999,9,08193,1","7,1,005,1,-015,1",,,"SYN124AAXX  04001 76373 32988 71502 10206 21034 38193 40103 57005 80008 92343 333 10260 21006 30/// 50290 56006 59015 70000 87270;","Q01  00002PRCP06"
"76373099999","2003-12-04T15:00:00","4","25.35","-105.75","1967.0","TEPEHUANES DGO., MX","FM-12","99999","V020","999,9,C,0000,1","06000,1,9,N","070000,1,N,1","+0038,1","-0015,1","10207,1","06,0000,9,1",,,,"06,1,+06000,9,02,9",,,"06,99,1,00,1,00,1,99999,9,00,1,08,1",,"01,9",,,,"99999,9,08228,1","9,9,999,9,-008,1",,,"SYN100AAXX  04151 76373 32988 60000 10038 21015 38228 40207 5//// 80008 91435 333 30/// 56006 59008 86270;","Q01  00002PRCP06"
"76373099999","2003-12-08T15:00:00","4","25.35","-105.75","1967.0","TEPEHUANES DGO., MX","FM-12","99999","V020","999,9,C,0000,1","09000,1,C,N","070000,1,N,1","+0050,1","+0008,1","10181,1","06,0000,9,1",,,,"01,1,+03000,9,03,9",,,"05,99,1,01,1,00,1,01250,1,03,1,02,1",,"01,9",,,,"99999,9,08207,1",,,,"SYN106AAXX  08151 76373 32688 50000 10050 20008 38207 40181 5//// 81032 91442 333 30/// 56066 58/// 81360 84070;","Q01  00002PRCP06"
"76373099999","2003-12-08T21:00:00","4","25.35","-105.75","1967.0","TEPEHUANES DGO., MX","FM-12","99999","V020","270,1,N,0060,1","22000,1,9,N","070000,1,N,1","+0208,1","-0006,1","10108,1","06,0000,9,1",,,,"01,1,+00300,9,08,9","01,1,+03000,9,03,9",,"03,99,1,01,1,01,1,00250,1,03,1,02,1",,"01,9",,,,"99999,9,08174,1","6,1,023,1,+999,9",,,"SYN112AAXX  08211 76373 32388 32706 10208 21006 38174 40108 56023 81132 92040 333 30/// 56666 58/// 81810 81360 81070;","Q01  00002PRCP06"
"76373099999","2003-12-09T00:00:00","4","25.35","-105.75","1967.0","TEPEHUANES DGO., MX","FM-12","99999","V020","260,1,N,0050,1","22000,1,9,N","070000,1,N,1","+0168,1","+0012,1","10088,1","06,0000,9,1","24,0000,9,1",,,"02,1,+00300,9,08,9",,,"03,99,1,02,1,01,1,00450,1,03,1,00,1",,"01,9",,"120,M,+0224,1","180,N,+0002,1","99999,9,08176,1","2,1,002,1,+999,9",,,"SYN130AAXX  09001 76373 32488 32605 10168 20012 38176 40088 52002 82130 92340 333 10224 20002 30/// 50240 56660 58/// 70000 82810 81360;","Q01  00002PRCP06"
"76373099999","2003-12-09T18:00:00","4","25.35","-105.75","1967.0","TEPEHUANES DGO., MX","FM-12","99999","V020","999,9,C,0000,1","22000,1,9,N","070000,1,N,1","+0166,1","-0026,1","10193,1","06,0000,9,1",,,,"00,1,+99999,9,99,9",,,"00,99,1,00,1,00,1,99999,9,00,1,00,1",,"01,9",,"120,M,+0182,1","240,N,-0022,1","99999,9,08207,1","2,1,002,1,+010,1",,,"SYN094AAXX  09181 76373 32988 00000 10166 21026 38207 40193 52002 91740 333 10182 21022 30/// 58010;","Q01  00002PRCP06"
"76373099999","2003-12-09T21:00:00","4","25.35","-105.75","1967.0","TEPEHUANES DGO., MX","FM-12","99999","V020","210,1,N,0020,1","22000,1,9,N","070000,1,N,1","+0222,1","-0077,1","10122,1","06,0000,9,1",,,,"00,1,+99999,9,99,9",,,"00,99,1,00,1,00,1,99999,9,00,1,00,1",,"01,9",,,,"99999,9,08171,1","6,1,036,1,-003,1",,,"SYN082AAXX  09211 76373 32988 02102 10222 21077 38171 40122 56036 92037 333 30/// 59003;","Q01  00002PRCP06"
"76373099999","2003-12-10T00:00:00","4","25.35","-105.75","1967.0","TEPEHUANES DGO., MX","FM-12","99999","V020","270,1,N,0020,1","22000,1,9,N","070000,1,N,1","+0214,1","-0082,1","10089,1","06,0000,9,1","24,0000,9,1",,,"00,1,+99999,9,99,9",,,"00,99,1,00,1,00,1,99999,9,00,1,00,1",,"01,9",,"120,M,+0252,1","180,N,-0022,1","99999,9,08173,1","2,1,002,1,-003,1",,,"SYN106AAXX  10001 76373 32988 02702 10214 21082 38173 40089 52002 92336 333 10252 21022 30/// 50280 59003 70000;","Q01  00002PRCP06Q02  00002PRCP24"
"76373099999","2003-12-10T15:00:00","4","25.35","-105.75","1967.0","TEPEHUANES DGO., MX","FM-12","99999","V020","999,9,C,0000,1","22000,1,9,N","070000,1,N,1","+0002,1","-0046,1","10244,1","06,0000,9,1",,,,"01,1,+06000,9,00,9",,,"01,99,1,00,1,00,1,99999,9,00,1,02,1",,"01,9",,,,"99999,9,08230,1","9,9,999,9,+025,1",,,"SYN100AAXX  10151 76373 32988 10000 10002 21046 38230 40244 5//// 80002 91435 333 30/// 56006 58025 81070;","Q01  00002PRCP06"
"76373099999","2003-12-10T21:00:00","4","25.35","-105.75","1967.0","TEPEHUANES DGO., MX","FM-12","99999","V020","150,1,N,0020,1","09000,1,C,N","070000,1,N,1","+0198,2","-0046,1","10150,2","06,0000,9,1",,,,"04,1,+03000,9,03,9",,,"07,99,1,04,1,00,1,01250,1,03,1,06,1",,"01,9",,,,"99999,9,08179,1","6,1,041,1,+006,1",,,"SYN106AAXX  10211 76373 32688 71502 10198 21046 38179 40150 56041 84036 92036 333 30/// 56066 58006 84360 83070;","Q01+001983ATOT  Q02+101503APOSLPQ03  00002PRCP06"
"76373099999","2003-12-11T00:00:00","4","25.35","-105.75","1967.0","TEPEHUANES DGO., MX","FM-12","99999","V020","999,9,C,0000,1","03000,1,C,N","070000,1,N,1","+0186,1","-0078,1","10123,1","06,0000,9,1","24,0000,9,1",,,"05,1,+03000,9,05,9",,,"08,99,1,05,1,00,1,01250,1,02,1,06,1",,"01,9",,"120,M,+0228,1","180,N,-0040,1","99999,9,08186,1","2,1,007,1,+013,1",,,"SYN130AAXX  11001 76373 32688 80000 10186 21078 38186 40123 52007 85026 92342 333 10228 21040 30/// 50370 56066 58013 70000 85560 83070;","Q01  00002PRCP06"
"76373099999","2003-12-11T15:00:00","4","25.35","-105.75","1967.0","TEPEHUANES DGO., MX","FM-12","99999","V020","330,1,N,0010,1","22000,1,9,N","070000,1,N,1","+0080,1","-0040,1","10143,1","06,0000,9,1",,,,"01,1,+03000,9,03,9",,,"01,99,1,01,1,00,1,01250,1,04,1,00,1",,"01,9",,,,"99999,9,08194,1","9,9,999,9,-036,1",,,"SYN100AAXX  11151 76373 32688 13301 10080 21040 38194 40143 5//// 81040 91440 333 30/// 56060 59036 81360;","Q01  00002PRCP06"
"76373099999","2003-12-15T15:00:00","4","25.35","-105.75","1967.0","TEPEHUANES DGO., MX","FM-12","99999","V020","999,9,C,0000,1","06000,1,9,N","070000,1,N,1","-0030,1","-0056,1","10242,1","06,0000,9,1",,,,"07,1,+06000,9,02,9",,,"07,99,1,00,1,00,1,99999,9,00,1,08,1",,"01,9",,,,"99999,9,08221,1",,,,"SYN100AAXX  15151 76373 32988 70000 11030 21056 38221 40242 5//// 80008 91440 333 30/// 56006 58/// 87270;","Q01  00002PRCP06"
"76373099999","2003-12-15T21:00:00","4","25.35","-105.75","1967.0","TEPEHUANES DGO., MX","FM-12","99999","V020","240,1,N,0040,1","03000,1,9,N","070000,1,N,1","+0206,2","-0178,1","10163,1","06,0000,9,1",,,,"08,1,+03000,9,05,9",,,"08,99,1,08,1,00,1,01750,1,07,1,99,9",,"01,9",,,,"99999,9,08180,1","6,1,034,1,+999,9",,,"SYN100AAXX  15211 76373 32788 82404 10206 21178 38180 40163 56034 8807/ 92040 333 30/// 56060 58/// 88560;","Q01+002063ATOT  Q02  00002PRCP06"
"76373099999","2003-12-16T00:00:00","4","25.35","-105.75","1967.0","TEPEHUANES DGO., MX","FM-12","99999","V020","300,1,N,0020,1","09000,1,9,N","070000,1,N,1","+0180,1","-0193,1","10136,1","06,0000,9,1","24,0000,9,1",,,"02,1,+03000,9,04,9",,,"08,99,1,02,1,00,1,01750,1,02,1,08,1",,"01,9",,"120,M,+0238,1","180,N,-0072,1","99999,9,08189,1","1,1,009,1,+999,9",,,"SYN130AAXX  16001 76373 32788 83002 10180 21193 38189 40136 51009 82028 92340 333 10238 21072 30/// 50260 56066 58/// 70000 82460 86270;","Q01  00002PRCP06"
"76373099999","2003-12-16T15:00:00","4","25.35","-105.75","1967.0","TEPEHUANES DGO., MX","FM-12","99999","V020","999,9,C,0000,1","06000,1,9,N","070000,1,N,1","-0030,1","-0062,1","10292,1","06,0000,9,1",,,,"08,1,+06000,9,02,9",,,"08,99,1,00,1,00,1,99999,9,00,1,07,1",,"01,9",,,,"99999,9,08255,1","9,9,999,9,-034,1",,,"SYN106AAXX  16151 76373 32988 80000 11030 21062 38255 40292 5//// 80007 91440 333 30/// 56006 59034 88270 99020;","Q01  00002PRCP06"
"76373099999","2003-12-16T18:00:00","4","25.35","-105.75","1967.0","TEPEHUANES DGO., MX","FM-12","99999","V020","120,1,N,0010,1","06000,1,9,N","070000,1,N,1","+0108,1","-0130,1","10301,1","06,0000,9,1",,,,"08,1,+06000,9,02,9",,,"08,99,1,00,1,00,1,99999,9,00,1,07,1",,"01,9",,"120,M,+0120,1","240,N,-0066,1","99999,9,08263,1","2,1,008,1,+049,1",,,"SYN118AAXX  16181 76373 32988 81201 10108 21130 38263 40301 52008 80007 91738 333 10120 21066 30/// 56006 58049 88270 99020;","Q01  00002PRCP06"
"76373099999","2003-12-16T21:00:00","4","25.35","-105.75","1967.0","TEPEHUANES DGO., MX","FM-12","99999","V020","130,1,N,0060,1","06000,1,9,N","026000,1,N,1","+0140,1","-0143,1","10250,1","06,0000,9,1",,"4,1,03,1","4,1,03,1","08,1,+06000,9,02,9",,,"08,99,1,00,1,00,1,99999,9,00,1,07,1",,"01,9",,,,"99999,9,08241,1","6,1,022,1,-061,1","04,1",,"SYN112AAXX  16211 76373 31976 81306 10140 21143 38241 40250 56022 70444 80007 92040 333 30/// 56006 59061 88270 99020;","Q01  00002PRCP06"
"76373099999","2003-12-17T00:00:00","4","25.35","-105.75","1967.0","TEPEHUANES DGO., MX","FM-12","99999","V020","150,1,N,0030,1","09000,1,9,N","026000,1,N,1","+0114,1","-0137,1","10229,1","06,0000,9,1","24,0000,9,1","4,1,06,1","4,1,06,1","04,1,+03000,9,04,9",,,"08,99,1,04,1,00,1,01750,1,02,1,08,1",,"01,9",,"120,M,+0162,1","180,N,-0066,1","99999,9,08246,1","7,1,005,1,+057,1","04,1",,"SYN136AAXX  17001 76373 31776 81503 10114 21137 38246 40229 57005 70444 84028 92340 333 10162 21066 30/// 50280 56066 58057 70000 84460 88270;","Q01  00002PRCP06"
"76373099999","2003-12-17T15:00:00","4","25.35","-105.75","1967.0","TEPEHUANES DGO., MX","FM-12","99999","V020","999,9,C,0000,1","22000,1,9,N","060000,1,N,1","-0048,1","-0121,1","10347,1","06,0000,9,1",,"4,1,03,1","4,1,03,1","00,1,+99999,9,99,9",,,"00,99,1,00,1,00,1,99999,9,00,1,00,1",,"01,9",,,,"99999,9,08288,1","9,9,999,9,+033,1","04,1",,"SYN088AAXX  17151 76373 31986 00000 11048 21121 38288 40347 5//// 70444 91438 333 30/// 58033;","Q01  00002PRCP06"
"76373099999","2003-12-17T18:00:00","4","25.35","-105.75","1967.0","TEPEHUANES DGO., MX","FM-12","99999","V020","999,9,C,0000,1","22000,1,9,N","070000,1,N,1","+0082,2","-0154,1","10336,1","06,0000,9,1",,,,"00,1,+99999,9,99,9",,,"00,99,1,00,1,00,1,99999,9,00,1,00,1",,"01,9",,"120,M,+0100,1","240,N,-0082,1","99999,9,08280,1","7,1,008,1,+017,1",,,"SYN094AAXX  17181 76373 32988 00000 10082 21154 38280 40336 57008 91740 333 10100 21082 30/// 58017;","Q01+000823ATOT  Q02  00002PRCP06"
"76373099999","2003-12-18T00:00:00","4","25.35","-105.75","1967.0","TEPEHUANES DGO., MX","FM-12","99999","V020","999,9,C,0000,1","22000,1,9,N","070000,1,N,1","+0160,1","-0097,1","99999,9","06,0000,9,1","24,0000,9,1",,,"00,1,+99999,9,99,9",,,"00,99,1,00,1,00,1,99999,9,00,1,00,1",,"01,9",,"120,M,+0188,1","180,N,-0082,1","99999,9,08236,1","6,1,007,1,-010,1",,,"SYN106AAXX  18000 76373 32988 00000 10160 21097 38236 4//// 56007 92335 333 10188 21082 30/// 50120 59010 70000;","Q01  00002PRCP06Q02  00002PRCP24"
"76373099999","2003-12-18T15:00:00","4","25.35","-105.75","1967.0","TEPEHUANES DGO., MX","FM-12","99999","V020","999,9,C,0000,1","22000,1,9,N","070000,1,N,1","-0034,1","-0041,1","99999,9","06,0000,9,1",,,,"00,1,+99999,9,99,9",,,"00,99,1,00,1,00,1,99999,9,00,1,00,1",,"01,9",,,,"99999,9,08280,1","9,9,999,9,-008,1",,,"SYN082AAXX  18150 76373 32988 00000 11034 21041 38280 4//// 5//// 91438 333 30/// 59008;","Q01  00002PRCP06"
"76373099999","2003-12-22T15:00:00","4","25.35","-105.75","1967.0","TEPEHUANES DGO., MX","FM-12","99999","V020","999,9,C,0000,1","22000,1,9,N","070000,1,N,1","+0000,1","-0062,1","10237,1","06,0000,9,1",,,,"00,1,+99999,9,99,9",,,"00,99,1,00,1,00,1,99999,9,00,1,00,1",,"01,9",,,,"99999,9,08231,1",,,,"SYN082AAXX  22151 76373 32988 00000 10000 21062 38231 40237 5//// 91440 333 30/// 58///;","Q01  00002PRCP06"
"76373099999","2003-12-22T18:00:00","4","25.35","-105.75","1967.0","TEPEHUANES DGO., MX","FM-12","99999","V020","120,1,N,0010,1","22000,1,9,N","070000,1,N,1","+0156,1","-0062,1","10216,1","06,0000,9,1",,,,"00,1,+99999,9,99,9",,,"00,99,1,00,1,00,1,99999,9,00,1,00,1",,"01,9",,"120,M,+0178,1","240,N,-0042,1","99999,9,08216,1","6,1,015,1,+999,9",,,"SYN094AAXX  22181 76373 32988 01201 10156 21062 38216 40216 56015 91750 333 10178 21042 30/// 58///;","Q01  00002PRCP06"
"76373099999","2003-12-22T21:00:00","4","25.35","-105.75","1967.0","TEPEHUANES DGO., MX","FM-12","99999","V020","270,1,N,0020,1","22000,1,9,N","070000,1,N,1","+0244,1","-0131,1","10135,2","06,0000,9,1",,,,"00,1,+99999,9,99,9",,,"00,99,1,00,1,00,1,99999,9,00,1,00,1",,"01,9",,,,"99999,9,08178,1","6,1,038,1,+999,9",,,"SYN082AAXX  22211 76373 32988 02702 10244 21131 38178 40135 56038 92035 333 30/// 58///;","Q01+101353APOSLPQ02  00002PRCP06"
"76373099999","2003-12-23T00:00:00","4","25.35","-105.75","1967.0","TEPEHUANES DGO., MX","FM-12","99999","V020","240,1,N,0030,1","22000,1,9,N","070000,1,N,1","+0220,1","-0180,1","10191,1","06,0000,9,1","24,0000,9,1",,,"00,1,+99999,9,99,9",,,"00,99,1,00,1,00,1,99999,9,00,1,00,1",,"01,9",,"120,M,+0264,1","180,N,-0042,1","99999,9,08175,1","7,1,003,1,+999,9",,,"SYN106AAXX  23001 76373 32988 02403 10220 21180 38175 40191 57003 92340 333 10264 21042 30/// 50320 58/// 70000;","Q01  00002PRCP06Q02  00002PRCP24"
"76373099999","2003-12-23T15:00:00","4","25.35","-105.75","1967.0","TEPEHUANES DGO., MX","FM-12","99999","V020","999,9,C,0000,1","06000,1,9,N","070000,1,N,1","-0012,1","-0063,1","10247,1","06,0000,9,1",,,,"08,1,+06000,9,02,9",,,"08,99,1,00,1,00,1,99999,9,00,1,07,1",,"01,9",,,,"99999,9,08241,1","9,9,999,9,+010,1",,,"SYN106AAXX  23150 76373 32988 80000 11012 21063 38241 40247 5//// 80007 91440 333 30/// 56006 58010 88270 99020;","Q01  00002PRCP06"
"76373099999","2003-12-23T18:00:00","4","25.35","-105.75","1967.0","TEPEHUANES DGO., MX","FM-12","99999","V020","060,1,N,0010,1","06000,1,9,N","070000,1,N,1","+0114,1","-0078,1","10255,1","06,0000,9,1",,,,"08,1,+06000,9,02,9",,,"08,99,1,00,1,00,1,99999,9,00,1,07,1",,"01,9",,"120,M,+0126,1","240,N,-0050,1","99999,9,08243,1","2,1,002,1,+027,1",,,"SYN118AAXX  23181 76373 32988 80601 10114 21078 38243 40255 52002 80007 91740 333 10126 21050 30/// 56006 58027 88270 99020;","Q01  00002PRCP06"
"76373099999","2003-12-23T21:00:00","4","25.35","-105.75","1967.0","TEPEHUANES DGO., MX","FM-12","99999","V020","120,1,N,0040,1","06000,1,9,N","070000,1,N,1","+0148,1","-0100,1","10201,1","06,0000,9,1",,,,"08,1,+06000,9,02,9",,,"08,99,1,00,1,00,1,99999,9,00,1,07,1",,"01,9",,,,"99999,9,08212,1","6,1,031,1,+034,1",,,"SYN106AAXX  23211 76373 32988 81204 10148 21100 38212 40201 56031 80007 92040 333 30/// 56006 58034 88270 99020;","Q01  00002PRCP06"
"76373099999","2003-12-24T00:00:00","4","25.35","-105.75","1967.0","TEPEHUANES DGO., MX","FM-12","99999","V020","120,1,N,0040,1","99999,9,9,N","070000,1,N,1","+0130,1","-0087,1","10164,1","06,0000,9,1","24,0000,9,1",,,,,,"08,99,1,00,1,00,1,99999,9,00,1,08,1",,"01,9",,"120,M,+0174,1","180,N,-0050,1","99999,9,08201,1","6,1,011,1,+026,1",,,"SYN124AAXX  24001 76373 32988 81204 10130 21087 38201 40164 56011 80008 92340 333 10174 21050 30/// 50310 56006 58026 70000 88270;","Q01  00002PRCP06"
"76373099999","2003-12-24T15:00:00","4","25.35","-105.75","1967.0","TEPEHUANES DGO., MX","FM-12","99999","V020","999,9,C,0000,1","03000,1,9,N","070000,1,N,1","+0020,1","-0075,1","10195,1","06,0000,9,1",,,,"08,1,+03000,9,04,9",,,"08,99,1,08,1,00,1,01750,1,07,1,00,1",,"01,9",,,,"99999,9,08214,1","9,9,999,9,-030,1",,,"SYN100AAXX  24151 76373 32788 80000 10020 21075 38214 40195 5//// 88070 91440 333 30/// 56060 59030 88460;","Q01  00002PRCP06"
"76373099999","2003-12-24T21:00:00","4","25.35","-105.75","1967.0","TEPEHUANES DGO., MX","FM-12","99999","V020","120,1,N,0010,1","09000,1,C,N","070000,1,N,1","+0164,1","-0087,1","10139,1","06,0000,9,1",,,,"04,1,+03000,9,03,9",,,"06,99,1,04,1,00,1,01750,1,03,1,02,1",,"01,9",,,,"99999,9,08169,1","6,1,038,1,-043,1",,,"SYN106AAXX  24211 76373 32788 61201 10164 21087 38169 40139 56038 84032 92035 333 30/// 56066 59043 84360 82070;","Q01  00002PRCP06"
"76373099999","2003-12-26T15:00:00","4","25.35","-105.75","1967.0","TEPEHUANES DGO., MX","FM-12","99999","V020","999,9,C,0000,1","22000,1,9,N","070000,1,N,1","-0016,1","-0020,1","10254,1","06,0000,9,1",,,,"00,1,+99999,9,99,9",,,"00,99,1,00,1,00,1,99999,9,00,1,00,1",,"01,9",,,,"99999,9,08245,1",,,,"SYN082AAXX  26151 76373 32988 00000 11016 21020 38245 40254 5//// 91440 333 30/// 58///;","Q01  00002PRCP06"
"76373099999","2003-12-26T18:00:00","4","25.35","-105.75","1967.0","TEPEHUANES DGO., MX","FM-12","99999","V020","999,9,C,0000,1","22000,1,9,N","070000,1,N,1","+0166,2","-0039,1","10230,1","06,0000,9,1",,,,"00,1,+99999,9,99,9",,,"00,99,1,00,1,00,1,99999,9,00,1,00,1",,"01,9",,"120,M,+0174,1","240,N,-0048,1","99999,9,08229,1","7,1,016,1,+999,9",,,"SYN094AAXX  26181 76373 32988 00000 10166 21039 38229 40230 57016 91740 333 10174 21048 30/// 58///;","Q01+001663ATOT  Q02  00002PRCP06"
"76373099999","2003-12-29T15:00:00","4","25.35","-105.75","1967.0","TEPEHUANES DGO., MX","FM-12","99999","V020","999,9,C,0000,1","22000,1,9,N","070000,1,N,1","-0048,1","-0067,1","10271,1","06,0000,9,1",,,,"00,1,+99999,9,99,9",,,"00,99,1,00,1,00,1,99999,9,00,1,00,1",,"01,9",,,,"99999,9,08230,1",,,,"SYN082AAXX  29151 76373 32988 00000 11048 21067 38230 40271 5//// 91440 333 30/// 58///;","Q01  00002PRCP06"
"76373099999","2003-12-29T21:00:00","4","25.35","-105.75","1967.0","TEPEHUANES DGO., MX","FM-12","99999","V020","120,1,N,0040,1","22000,1,9,N","070000,1,N,1","+0144,2","-0136,1","10196,1","06,0000,9,1",,,,"00,1,+99999,9,99,9",,,"00,99,1,00,1,00,1,99999,9,00,1,00,1",,"01,9",,,,"99999,9,08189,1","6,1,040,1,+999,9",,,"SYN082AAXX  29211 76373 32988 01204 10144 21136 38189 40196 56040 92040 333 30/// 58///;","Q01+001443ATOT  Q02  00002PRCP06"
"76373099999","2003-12-30T00:00:00","4","25.35","-105.75","1967.0","TEPEHUANES DGO., MX","FM-12","99999","V020","120,1,N,0040,1","22000,1,9,N","070000,1,N,1","+0142,1","-0150,1","10160,1","06,0000,9,1","24,0000,9,1",,,"00,1,+99999,9,99,9",,,"00,99,1,00,1,00,1,99999,9,00,1,00,1",,"01,9",,"120,M,+0168,1","180,N,-0090,1","99999,9,08186,1","7,1,003,1,+999,9",,,"SYN106AAXX  30001 76373 32988 01204 10142 21150 38186 40160 57003 92335 333 10168 21090 30/// 50230 58/// 70000;","Q01  00002PRCP06Q02  00002PRCP24"
"76373099999","2003-12-30T18:00:00","4","25.35","-105.75","1967.0","TEPEHUANES DGO., MX","FM-12","99999","V020","999,9,C,0000,1","22000,1,9,N","070000,1,N,1","+0090,1","-0187,1","10242,1","06,0000,9,1",,,,"02,1,+06000,9,00,9",,,"02,99,1,00,1,00,1,99999,9,00,1,02,1",,"01,9",,"120,M,+0108,1","240,N,-0098,1","99999,9,08206,1","8,1,005,1,-023,1",,,"SYN112AAXX  30181 76373 32988 20000 10090 21187 38206 40242 58005 80002 91735 333 10108 21098 30/// 56006 59023 82070;","Q01  00002PRCP06"
"76373099999","2003-12-31T00:00:00","4","25.35","-105.75","1967.0","TEPEHUANES DGO., MX","FM-12","99999","V020","250,1,N,0050,1","99999,9,9,N","070000,1,N,1","+0188,1","-0138,1","10119,2","06,0000,9,1","24,0000,9,1",,,,,,"08,99,1,00,1,00,1,99999,9,00,1,08,1",,"01,9",,"120,M,+0230,1","180,N,-0098,1","99999,9,08170,1","2,1,003,1,-022,1",,,"SYN124AAXX  31001 76373 32988 82505 10188 21138 38170 40119 52003 80008 92338 333 10230 21098 30/// 50220 56006 59022 70000 88270;","Q01  00002PRCP06"
"76373099999","2003-12-31T15:00:00","4","25.35","-105.75","1967.0","TEPEHUANES DGO., MX","FM-12","99999","V020","999,9,C,0000,1","03000,1,9,N","070000,1,N,1","+0000,1","-0005,1","10204,1","06,0000,9,1",,,,"06,1,+03000,9,04,9",,,"08,99,1,99,9,06,1,01750,1,07,1,08,1",,"01,9",,,,"99999,9,08219,1","9,9,999,9,+008,1",,,"SYN106AAXX  31151 76373 32788 80000 10000 21005 38219 40204 5//// 80678 91440 333 30/// 56066 58008 86460 84270;","Q01+000002SCOTLCQ02  00002PRCP06"
"76373099999","2003-12-31T18:00:00","4","25.35","-105.75","1967.0","TEPEHUANES DGO., MX","FM-12","99999","V020","130,1,N,0010,1","06000,1,9,N","070000,1,N,1","+0130,1","-0064,1","10213,1","06,0000,9,1",,,,"01,1,+00300,9,08,9","01,1,+03000,9,03,9","08,1,+06000,9,02,9","08,99,1,01,1,01,1,00450,1,03,1,07,1",,"01,9",,"120,M,+0148,1","240,N,-0032,1","99999,9,08220,1","6,1,001,1,-014,1",,,"SYN130AAXX  31181 76373 32488 81301 10130 21064 38220 40213 56001 81137 91738 333 10148 21032 30/// 56666 59014 81810 81360 88270 99020;","Q01  00002PRCP06"
"76373099999","2003-12-31T21:00:00","4","25.35","-105.75","1967.0","TEPEHUANES DGO., MX","FM-12","99999","V020","300,1,N,0040,1","03600,1,C,N","070000,1,N,1","+0202,1","+0005,1","10158,1","06,0000,9,1",,,,"03,1,+00300,9,08,9","01,1,+03000,9,03,9",,"07,99,1,03,1,02,1,00450,1,03,1,06,1",,"01,9",,,,"99999,9,08191,1","6,1,029,1,+024,1",,,"SYN112AAXX  31211 76373 32488 73004 10202 20005 38191 40158 56029 83236 92040 333 30/// 56555 58024 83810 81360 83070;","Q01  00002PRCP06"
