"STATION","DATE","SOURCE","LATITUDE","LONGITUDE","ELEVATION","NAME","REPORT_TYPE","CALL_SIGN","QUALITY_CONTROL","WND","CIG","VIS","TMP","DEW","SLP","AA1","AA2","AY1","AY2","GA1","GA2","GF1","GJ1","IA1","IA2","KA1","KA2","MA1","MD1","MW1","REM","EQD"
"76373099999","2011-01-01T00:00:00","4","25.35","-105.75","1967.0","TEPEHUANES DGO., MX","FM-12","99999","V020","290,1,N,0840,2","22000,1,9,N","050000,1,N,1","+0133,1","-0037,1","10088,1","24,0000,9,1",,,,,,"02,99,1,00,1,00,1,99999,9,00,1,05,1",,"01,9",,"120,M,+0196,1","180,N,+0070,1","99999,9,08154,1","2,1,008,1,+999,9",,"SYN124AAXX  01001 76373 32984 22984 10133 21037 38154 40088 52008 82005 92350 333 10196 20070 30/// 50281 56009 58/// 70000 82167;","Q01+008403WOSPD "
"76373099999","2011-01-01T18:00:00","4","25.35","-105.75","1967.0","TEPEHUANES DGO., MX","FM-12","99999","V020","999,9,C,0000,1","22000,1,9,N","050000,1,N,1","+0126,1","-0056,1","10151,1",,,,,"00,1,+99999,9,99,9",,"00,99,1,00,1,00,1,99999,9,00,1,00,1",,"01,9",,"120,M,+0140,1","240,N,-0065,1","99999,9,08206,1","2,1,010,1,+046,1",,"SYN094AAXX  01181 76373 32984 00000 10126 21056 38206 40151 52010 91750 333 10140 21065 30/// 58046;",
"76373099999","2011-01-02T00:00:00","4","25.35","-105.75","1967.0","TEPEHUANES DGO., MX","FM-12","99999","V020","230,1,N,0010,1","22000,1,9,N","030000,1,N,1","+0170,1","-0136,1","10123,1","24,0000,9,1",,,,"00,1,+99999,9,99,9",,"00,99,1,00,1,00,1,99999,9,00,1,00,1",,"01,9",,"120,M,+0228,1","180,N,-0065,1","99999,9,08183,1","2,1,009,1,+029,1",,"SYN106AAXX  02001 76373 32980 02301 10170 21136 38183 40123 52009 92355 333 10228 21065 30/// 50381 58029 70000;","Q01  00002PRCP24"
"76373099999","2011-01-02T12:00:00","4","25.35","-105.75","1967.0","TEPEHUANES DGO., MX","FM-12","99999","V020","999,9,C,0000,1","22000,1,9,N","001000,1,N,1","-0056,1","-0114,1","10169,1",,,,,"00,1,+99999,9,99,9",,"00,99,1,00,1,00,1,99999,9,00,1,00,1","0570,9","09,9",,"120,N,-0100,1","240,M,+0228,1","99999,9,08220,1","9,9,999,9,+037,1",,"SYN112AAXX  02121 76373 32910 00000 11056 21114 38220 40169 5//// 91150 333 10228 21100 31112 55095 21788 58037 70000;",
"76373099999","2011-01-02T15:00:00","4","25.35","-105.75","1967.0","TEPEHUANES DGO., MX","FM-12","99999","V020","999,9,C,0000,1","22000,1,9,N","030000,1,N,1","-0048,1","-0105,1","10187,1",,,,,"00,1,+99999,9,99,9",,"00,99,1,00,1,00,1,99999,9,00,1,00,1",,"01,9",,,,"99999,9,08234,1","2,1,014,1,+045,1",,"SYN082AAXX  02151 76373 32980 00000 11048 21105 38234 40187 52014 91450 333 30/// 58045;",
"76373099999","2011-01-02T18:00:00","4","25.35","-105.75","1967.0","TEPEHUANES DGO., MX","FM-12","99999","V020","110,1,N,0010,1","22000,1,9,N","030000,1,N,1","+9999,9","-0102,1","10169,1",,,,,"02,1,+05100,1,00,1",,"02,99,1,00,1,00,1,99999,9,00,1,02,1",,"01,9",,"120,M,+0130,1","240,N,-0100,1","99999,9,08220,1","7,1,014,1,+026,1",,"SYN112AAXX  02181 76373 32980 21101 10112 21102 38220 40169 57014 82002 91755 333 10130 21100 30/// 56009 58026 82067;","Q01+000022SCOTLC"
"76373099999","2011-01-02T21:00:00","4","25.35","-105.75","1967.0","TEPEHUANES DGO., MX","FM-12","99999","V020","250,1,N,0030,1","22000,1,9,N","030000,1,N,1","+0224,2","-0129,1","10120,1",,,,,"03,1,+05100,1,00,1",,"03,99,1,00,1,00,1,99999,9,00,1,03,1",,"01,9",,,,"99999,9,08181,1","7,1,041,1,+013,1",,"SYN100AAXX  02211 76373 32980 32503 10224 21129 38181 40120 57041 83003 92055 333 30/// 56009 58013 83067;","Q01+000032SCOTLC"
"76373099999","2011-01-03T00:00:00","4","25.35","-105.75","1967.0","TEPEHUANES DGO., MX","FM-12","99999","V020","230,1,N,0020,1","22000,1,9,N","030000,1,N,1","+0182,1","-0124,1","10127,1","24,0000,9,1",,,,,,"03,99,1,00,1,00,1,99999,9,00,1,03,1",,"01,9",,"120,M,+0238,1","180,N,-0100,1","99999,9,08187,1","2,1,006,1,+004,1",,"SYN124AAXX  03001 76373 32980 32302 10182 21124 38187 40127 52006 83003 92355 333 10238 21100 30/// 50271 56009 58004 70000 83067;","Q01+000032SCOTLC"
"76373099999","2011-01-03T03:00:00","4","25.35","-105.75","1967.0","TEPEHUANES DGO., MX","FM-12","99999","V020","999,9,C,0000,1","22000,1,9,N","001000,1,N,1","+0112,1","-0089,1","10148,1",,,,,"02,1,+05100,1,00,1",,"02,99,1,00,1,00,1,99999,9,00,1,02,1",,"01,9",,,,"99999,9,08203,1","2,1,016,1,+999,9",,"SYN100AAXX  03031 76373 32910 20000 10112 21089 38203 40148 52016 82002 90240 333 30/// 56009 58/// 82067;","Q01+000022SCOTLC"
"76373099999","2011-01-03T12:00:00","4","25.35","-105.75","1967.0","TEPEHUANES DGO., MX","FM-12","99999","V020","999,9,C,0000,1","22000,1,9,N","001000,1,N,1","+0002,1","-0066,1","10149,1",,,,,"00,1,+99999,9,99,9",,"00,99,1,00,1,00,1,99999,9,00,1,00,1","0588,9","09,9",,"120,N,-0042,1","240,M,+0238,1","99999,9,08204,1","9,9,999,9,-016,1",,"SYN112AAXX  03121 76373 32910 00000 10002 21066 38204 40149 5//// 91150 333 10238 21042 31054 55098 21650 59016 70000;",
"76373099999","2011-01-03T15:00:00","4","25.35","-105.75","1967.0","TEPEHUANES DGO., MX","FM-12","99999","V020","320,1,N,0010,1","22000,1,9,N","030000,1,N,1","+0016,1","-0048,1","10161,1",,,,,"03,1,+00600,1,08,1",,"04,99,1,04,1,03,1,00800,1,01,1,00,1",,"01,9",,,,"99999,9,08214,1","2,1,010,1,-020,1",,"SYN106AAXX  03151 76373 32580 43201 10016 21048 38214 40161 52010 84310 91450 333 30/// 56990 59020 83820 81347;",
"76373099999","2011-01-03T18:00:00","4","25.35","-105.75","1967.0","TEPEHUANES DGO., MX","FM-12","99999","V020","250,1,N,0030,1","00600,1,9,N","030000,1,N,1","+9999,9","+0028,1","10156,1",,,,,"06,1,+00600,1,08,1",,"07,99,1,07,1,06,1,00800,1,01,1,00,1",,"01,9",,"120,M,+0218,1","240,N,-0045,1","99999,9,08210,1","6,1,004,1,-010,1",,"SYN118AAXX  03181 76373 32580 72503 10192 20028 38210 40156 56004 87610 91750 333 10218 21045 30/// 56990 59010 86820 81347;","Q01+001923ATOT  "
"76373099999","2011-01-03T21:00:00","4","25.35","-105.75","1967.0","TEPEHUANES DGO., MX","FM-12","99999","V020","230,1,N,0050,1","00600,1,9,N","030000,1,N,1","+0212,2","+0012,1","10117,1",,,,,"06,1,+00600,1,08,1",,"06,99,1,06,1,06,1,00800,1,00,1,00,1",,"01,9",,,,"99999,9,08176,1","7,1,032,1,-005,1",,"SYN100AAXX  03211 76373 32580 62305 10212 20012 38176 40117 57032 86600 92055 333 30/// 56900 59005 86820;",
"76373099999","2011-01-04T00:00:00","4","25.35","-105.75","1967.0","TEPEHUANES DGO., MX","FM-12","99999","V020","250,1,N,0020,1","00750,1,9,N","030000,1,N,1","+0188,1","+0016,1","10140,1","24,0000,9,1",,,,,,"05,99,1,05,1,05,1,00800,1,00,1,00,1",,"01,9",,"120,M,+0230,1","180,N,-0045,1","99999,9,08197,1","2,1,019,1,+010,1",,"SYN124AAXX  04001 76373 32580 52502 10188 20016 38197 40140 52019 85500 92330 333 10230 21045 30/// 50351 56900 58010 70000 85820;",
"76373099999","2011-01-06T18:00:00","4","25.35","-105.75","1967.0","TEPEHUANES DGO., MX","FM-12","99999","V020","999,9,C,0000,1","00810,1,9,N","040000,1,N,1","+0135,1","-0015,1","10204,1",,,,,"08,1,+00810,1,06,1",,"08,99,1,08,1,05,1,00800,1,00,1,00,1",,"01,9",,"120,M,+0153,1","240,N,-0015,1","99999,9,08248,1",,,"SYN112AAXX  06181 76373 32582 80000 10135 21015 38248 40204 5//// 88500 91750 333 10153 21015 30/// 56900 58/// 88627;",
"76373099999","2011-01-06T21:00:00","4","25.35","-105.75","1967.0","TEPEHUANES DGO., MX","FM-12","99999","V020","140,1,N,0110,1","00810,1,9,N","045000,1,N,1","+0220,1","-0019,1","10155,1",,,,,"05,1,+00810,1,06,1",,"07,99,1,07,1,05,1,00800,1,00,1,02,1",,"01,9",,,,"99999,9,08209,1","7,1,039,1,+999,9",,"SYN100AAXX  06211 76373 32583 71411 10220 21019 38209 40155 57039 87502 92050 333 30/// 56909 58/// 85627;",
"76373099999","2011-01-07T00:00:00","4","25.35","-105.75","1967.0","TEPEHUANES DGO., MX","FM-12","99999","V020","290,1,N,0280,1","00750,1,9,N","045000,1,N,1","+0218,1","-0012,1","10150,1","24,0000,9,1",,,,"03,1,+00810,1,08,1",,"06,99,1,06,1,02,1,00800,1,00,1,02,1",,"01,9",,"120,M,+0247,1","180,N,-0015,1","99999,9,08205,1","7,1,004,1,+999,9",,"SYN130AAXX  07001 76373 32583 62928 10218 21012 38205 40150 57004 86202 92350 333 10247 21015 30/// 50291 56909 58/// 70000 83827 83267;",
"76373099999","2011-01-07T03:00:00","4","25.35","-105.75","1967.0","TEPEHUANES DGO., MX","FM-12","99999","V020","999,9,C,0000,1","00810,1,9,N","010000,1,N,1","+0154,1","-0007,1","10173,1",,,,,"08,1,+00810,1,06,1",,"08,99,1,08,1,05,1,00800,1,00,1,00,1",,"01,9",,,,"99999,9,08224,1","2,1,019,1,+999,9",,"SYN100AAXX  07031 76373 32560 80000 10154 21007 38224 40173 52019 88500 90250 333 30/// 56900 58/// 88627;",
"76373099999","2011-01-07T12:00:00","4","25.35","-105.75","1967.0","TEPEHUANES DGO., MX","FM-12","99999","V020","999,9,C,0000,1","22000,1,9,N","010000,1,N,1","+0045,1","-0016,1","10164,1",,,,,"00,1,+99999,9,99,9",,"00,99,1,00,1,00,1,99999,9,00,1,00,1","0294,9","09,9","999,-0010,9","120,N,+0000,1","240,M,+0247,1","99999,9,08216,1",,,"SYN112AAXX  07121 76373 32960 00000 10045 21016 38216 40164 5//// 91150 333 10247 20000 31010 55049 21192 58/// 70000;",
"76373099999","2011-01-07T15:00:00","4","25.35","-105.75","1967.0","TEPEHUANES DGO., MX","FM-12","99999","V020","999,9,C,0000,1","22000,1,9,N","040000,1,N,1","+0038,1","-0016,1","10159,1",,,,,"03,1,+00810,1,06,1",,"03,99,1,03,1,04,1,00800,1,00,1,00,1",,"01,9",,,,"99999,9,08212,1","7,1,004,1,+999,9",,"SYN100AAXX  07151 76373 32582 30000 10038 21016 38212 40159 57004 83400 91450 333 30/// 56900 58/// 83627;",
"76373099999","2011-01-07T18:00:00","4","25.35","-105.75","1967.0","TEPEHUANES DGO., MX","FM-12","99999","V020","999,9,C,0000,1","05100,1,9,N","050000,1,N,1","+0190,1","-0003,1","10139,1",,,,,"05,1,+05100,1,00,1",,"05,99,1,00,1,00,1,99999,9,00,1,08,1",,"01,9",,"120,M,+0217,1","240,N,+0000,1","99999,9,08196,1","7,1,016,1,-054,1",,"SYN112AAXX  07181 76373 32984 50000 10190 21003 38196 40139 57016 85008 91755 333 10217 20000 30/// 56009 59054 85067;","Q01+000052SCOTLC"
"76373099999","2011-01-07T21:00:00","4","25.35","-105.75","1967.0","TEPEHUANES DGO., MX","FM-12","99999","V020","290,1,N,9999,9","22000,1,9,N","050000,1,N,1","+0235,2","+0008,1","10086,1",,,,,,,"04,99,1,99,9,00,1,00800,1,05,1,00,1",,,,,,"99999,9,08153,1","7,1,044,1,-056,1",,"SYN100AAXX  07211 76373 32584 42956 10235 20008 38153 40086 57044 82050 84200 333 30/// 56900 59056 84827;","Q01+005603WOSPD Q020005603WOSPD "
"76373099999","2011-01-08T03:00:00","4","25.35","-105.75","1967.0","TEPEHUANES DGO., MX","FM-12","99999","V020","999,9,C,0000,1","22000,1,9,N","010000,1,N,1","+0144,1","+0030,1","10110,1",,,,,"00,1,+99999,9,99,9",,"00,99,1,00,1,00,1,99999,9,00,1,00,1",,"01,9",,,,"99999,9,08172,1","2,1,012,1,-052,1",,"SYN082AAXX  08031 76373 32960 00000 10144 20030 38172 40110 52012 90250 333 30/// 59052;",
"76373099999","2011-01-09T00:00:00","4","25.35","-105.75","1967.0","TEPEHUANES DGO., MX","FM-12","99999","V020","250,1,N,0030,1","00750,1,9,N","030000,1,N,1","+0132,1","-0006,1","10053,1","24,0000,9,1",,,,"03,1,+00600,1,08,1",,"05,99,1,05,1,05,1,00800,1,00,1,00,1",,"01,9",,"120,M,+0218,1","180,N,-0020,1","99999,9,08126,1","5,1,002,1,-046,1",,"SYN130AAXX  09001 76373 32580 52503 10132 21006 38126 40053 55002 85500 92355 333 10218 21020 30/// 50301 56900 59046 70000 83820 82725;",
"76373099999","2011-01-09T03:00:00","4","25.35","-105.75","1967.0","TEPEHUANES DGO., MX","FM-12","99999","V020","250,1,N,0030,1","22000,1,9,N","001000,1,N,1","+0100,1","-0014,1","10061,1",,,,,"02,1,+00600,1,07,1",,"04,99,1,04,1,04,1,00800,1,00,1,00,1",,"01,9",,,,"99999,9,08133,1","2,1,013,1,-033,1",,"SYN106AAXX  09031 76373 32510 42503 10100 21014 38133 40061 52013 84400 90255 333 30/// 56900 59033 82720 82825;",
"76373099999","2011-01-09T12:00:00","4","25.35","-105.75","1967.0","TEPEHUANES DGO., MX","FM-12","99999","V020","290,1,N,0020,1","22000,1,9,N","001000,1,N,1","-0014,1","-0041,1","10100,1","24,0000,9,1",,,,,,"02,99,1,02,1,02,1,00800,1,00,1,00,1","0570,9","09,9",,"120,N,-0060,1","240,M,+0218,1","99999,9,08165,1","9,9,999,9,+004,1",,"SYN130AAXX  09121 76373 32510 22902 11014 21041 38165 40100 5//// 82200 91755 333 10218 21060 31072 55095 21530 56900 58004 70000 82825;",
"76373099999","2011-01-09T15:00:00","4","25.35","-105.75","1967.0","TEPEHUANES DGO., MX","FM-12","99999","V020","999,9,C,0000,1","22000,1,9,N","030000,1,N,1","-0005,1","-0042,1","10125,1",,,,,"00,1,+99999,9,99,9",,"00,99,1,00,1,00,1,99999,9,00,1,00,1",,"01,9",,,,"99999,9,08184,1","2,1,022,1,+023,1",,"SYN082AAXX  09151 76373 32980 00000 11005 21042 38184 40125 52022 91455 333 30/// 58023;",
"76373099999","2011-01-09T18:00:00","4","25.35","-105.75","1967.0","TEPEHUANES DGO., MX","FM-12","99999","V020","999,9,C,0000,1","22000,1,9,N","030000,1,N,1","+0132,1","-0074,1","10112,1",,,,,"00,1,+99999,9,99,9",,"00,99,1,00,1,00,1,99999,9,00,1,00,1",,"01,9",,"120,M,+0140,1","240,N,-0060,1","99999,9,08174,1","7,1,014,1,-034,1",,"SYN094AAXX  09181 76373 32980 00000 10132 21074 38174 40112 57014 91755 333 10140 21060 30/// 59034;",
"76373099999","2011-01-09T21:00:00","4","25.35","-105.75","1967.0","TEPEHUANES DGO., MX","FM-12","99999","V020","999,9,C,0000,1","22000,1,9,N","030000,1,N,1","+0220,2","-0133,1","10071,1",,,,,"00,1,+99999,9,99,9",,"00,99,1,00,1,00,1,99999,9,00,1,00,1",,"01,9",,,,"99999,9,08141,1","7,1,033,1,+027,1",,"SYN082AAXX  09211 76373 32980 00000 10220 21133 38141 40071 57033 92055 333 30/// 58027;",
"76373099999","2011-01-10T00:00:00","4","25.35","-105.75","1967.0","TEPEHUANES DGO., MX","FM-12","99999","V020","290,1,N,0020,1","22000,1,9,N","030000,1,N,1","+0180,1","-0131,1","10080,1","24,0000,9,1",,,,"00,1,+99999,9,99,9",,"00,99,1,00,1,00,1,99999,9,00,1,00,1",,"01,9",,"120,M,+0248,1","180,N,-0060,1","99999,9,08148,1","2,1,007,1,+022,1",,"SYN106AAXX  10001 76373 32980 02902 10180 21131 38148 40080 52007 92355 333 10248 21060 30/// 50341 58022 70000;","Q01  00002PRCP24"
"76373099999","2011-01-10T03:00:00","4","25.35","-105.75","1967.0","TEPEHUANES DGO., MX","FM-12","99999","V020","320,1,N,0010,1","22000,1,9,N","001000,1,N,1","+0108,1","-0100,1","10114,1",,,,,"00,1,+99999,9,99,9",,"00,99,1,00,1,00,1,99999,9,00,1,00,1",,"01,9",,,,"99999,9,08175,1","2,1,033,1,+042,1",,"SYN082AAXX  10031 76373 32910 03201 10108 21100 38175 40114 52033 90255 333 30/// 58042;",
"76373099999","2011-01-10T12:00:00","4","25.35","-105.75","1967.0","TEPEHUANES DGO., MX","FM-12","99999","V020","999,9,C,0000,1","22000,1,9,N","001000,1,N,1","-0042,1","-0112,1","10125,1",,,,,"00,1,+99999,9,99,9",,"00,99,1,00,1,00,1,99999,9,00,1,00,1","0600,9","09,9",,"120,N,-0090,1","240,M,+0248,1","99999,9,08185,1","9,9,999,9,+020,1",,"SYN112AAXX  10121 76373 32910 00000 11042 21112 38185 40125 5//// 91155 333 10248 21090 31104 55100 21796 58020 70000;",
"76373099999","2011-01-10T15:00:00","4","25.35","-105.75","1967.0","TEPEHUANES DGO., MX","FM-12","99999","V020","999,9,C,0000,1","22000,1,9,N","030000,1,N,1","-0032,1","-0104,1","10152,1",,,,,"00,1,+99999,9,99,9",,"00,99,1,00,1,00,1,99999,9,00,1,00,1",,"01,9",,,,"99999,9,08206,1","2,1,021,1,+022,1",,"SYN082AAXX  10151 76373 32980 00000 11032 21104 38206 40152 52021 91455 333 30/// 58022;",
"76373099999","2011-01-10T21:00:00","4","25.35","-105.75","1967.0","TEPEHUANES DGO., MX","FM-12","99999","V020","110,1,N,0010,1","22000,1,9,N","030000,1,N,1","+9999,9","-0132,1","10097,1",,,,,"00,1,+99999,9,99,9",,"00,99,1,00,1,00,1,99999,9,00,1,00,1",,"01,9",,,,"99999,9,08162,1","7,1,033,1,+999,9",,"SYN082AAXX  10211 76373 32980 01101 10240 21132 38162 40097 57033 92055 333 30/// 38021;","Q01+002403ATOT  "
"76373099999","2011-01-11T00:00:00","4","25.35","-105.75","1967.0","TEPEHUANES DGO., MX","FM-12","99999","V020","290,1,N,0010,1","22000,1,9,N","030000,1,N,1","+0228,1","-0125,1","10103,1","24,0000,9,1",,,,"00,1,+99999,9,99,9",,"00,99,1,00,1,00,1,99999,9,00,1,00,1",,"01,9",,"120,M,+0262,1","180,N,-0090,1","99999,9,08167,1","7,1,006,1,+021,1",,"SYN106AAXX  11001 76373 32980 02901 10228 21125 38167 40103 57006 92330 333 10262 21090 30/// 50351 58021 70000;","Q01  00002PRCP24"
"76373099999","2011-01-11T15:00:00","4","25.35","-105.75","1967.0","TEPEHUANES DGO., MX","FM-12","99999","V020","999,9,C,0000,1","22000,1,9,N","030000,1,N,1","-0018,1","-0087,1","10206,1",,,,,"01,1,+00810,1,08,1",,"01,99,1,01,1,01,1,01250,1,00,1,00,1",,"01,9",,,,"99999,9,08250,1","2,1,025,1,+044,1",,"SYN100AAXX  11151 76373 32680 10000 11018 21087 38250 40206 52025 81100 91450 333 30/// 56101 58044 81827;",
"76373099999","2011-01-11T18:00:00","4","25.35","-105.75","1967.0","TEPEHUANES DGO., MX","FM-12","99999","V020","999,9,C,0000,1","22000,1,9,N","030000,1,N,1","+0135,1","-0085,1","10197,1",,,,,"00,1,+99999,9,99,9",,"00,99,1,00,1,00,1,99999,9,00,1,00,1",,"01,9",,"120,M,+0154,1","240,N,-0052,1","99999,9,08243,1","7,1,007,1,+048,1",,"SYN094AAXX  11181 76373 32980 00000 10135 21085 38243 40197 57007 91750 333 10154 21052 30/// 58048;",
"76373099999","2011-01-11T21:00:00","4","25.35","-105.75","1967.0","TEPEHUANES DGO., MX","FM-12","99999","V020","140,1,N,0020,1","22000,1,9,N","030000,1,N,1","+0211,1","-0097,1","10157,1",,,,,"01,1,+00810,1,08,1",,"01,99,1,01,1,02,1,01250,1,00,1,00,1",,"01,9",,,,"99999,9,08210,1","7,1,033,1,+048,1",,"SYN100AAXX  11211 76373 32680 11402 10211 21097 38210 40157 57033 81200 92050 333 30/// 56900 58048 81827;",
"76373099999","2011-01-12T00:00:00","4","25.35","-105.75","1967.0","TEPEHUANES DGO., MX","FM-12","99999","V020","140,1,N,0020,1","22000,1,9,N","030000,1,N,1","+0185,1","-0108,1","10162,1","24,0000,9,1",,,,,,"02,99,1,01,1,02,1,01250,1,00,1,01,1",,"01,9",,"120,M,+0238,1","180,N,-0052,1","99999,9,08215,1","3,1,005,1,+048,1",,"SYN124AAXX  12001 76373 32680 21402 10185 21108 38215 40162 53005 81201 92350 333 10238 21052 30/// 50401 56909 58048 70000 81827;",
"76373099999","2011-01-12T03:00:00","4","25.35","-105.75","1967.0","TEPEHUANES DGO., MX","FM-12","99999","V020","999,9,C,0000,1","22000,1,9,N","001000,1,N,1","+0092,1","-0093,1","10190,1",,,,,"00,1,+99999,9,99,9",,"00,99,1,00,1,00,1,99999,9,00,1,00,1",,"01,9",,,,"99999,9,08237,1","2,1,022,1,+999,9",,"SYN082AAXX  12031 76373 32910 00000 10092 21093 38237 40190 52022 90250 333 30/// 58///;",
"76373099999","2011-01-12T12:00:00","4","25.35","-105.75","1967.0","TEPEHUANES DGO., MX","FM-12","99999","V020","999,9,C,0000,1","22000,1,9,N","001000,1,N,1","-0043,1","-0097,1","10206,1",,,,,"00,1,+99999,9,99,9",,"00,99,1,00,1,00,1,99999,9,00,1,00,1","0588,9","09,9",,"120,N,-0070,1","240,M,+0238,1","99999,9,08250,1","9,9,999,9,+025,1",,"SYN112AAXX  12121 76373 32910 00000 11043 21097 38250 40206 5//// 91150 333 10238 21070 31089 55098 21756 58025 70000;",
"76373099999","2011-01-12T18:00:00","4","25.35","-105.75","1967.0","TEPEHUANES DGO., MX","FM-12","99999","V020","999,9,C,0000,1","22000,1,9,N","030000,1,N,1","+0127,1","-0070,1","10211,1",,,,,"00,1,+99999,9,99,9",,"00,99,1,00,1,00,1,99999,9,00,1,00,1",,"01,9",,"120,M,+0145,1","240,N,-0070,1","99999,9,08254,1","7,1,014,1,+009,1",,"SYN094AAXX  12181 76373 32980 00000 10127 21070 38254 40211 57014 91750 333 10145 21070 30/// 58009;",
"76373099999","2011-01-12T21:00:00","4","25.35","-105.75","1967.0","TEPEHUANES DGO., MX","FM-12","99999","V020","110,1,N,0010,1","22000,1,9,N","030000,1,N,1","+0217,1","-0070,1","10154,1",,,,,"01,1,+05100,1,00,1",,"01,99,1,00,1,00,1,99999,9,00,1,04,1",,"01,9",,,,"99999,9,08208,1","7,1,046,1,-002,1",,"SYN100AAXX  12211 76373 32980 11101 10217 21070 38208 40154 57046 80004 92050 333 30/// 56009 59002 81067;",
"76373099999","2011-01-13T00:00:00","4","25.35","-105.75","1967.0","TEPEHUANES DGO., MX","FM-12","99999","V020","250,1,N,0010,1","22000,1,9,N","030000,1,N,1","+0215,1","-0103,1","10149,1","24,0000,9,1",,,,,,"02,99,1,00,1,00,1,99999,9,00,1,04,1",,"01,9",,"120,M,+0258,1","180,N,-0070,1","99999,9,08204,1","5,1,004,1,-011,1",,"SYN124AAXX  13001 76373 32980 22501 10215 21103 38204 40149 55004 80004 92350 333 10258 21070 30/// 50281 56009 59011 70000 82067;",
"76373099999","2011-01-13T03:00:00","4","25.35","-105.75","1967.0","TEPEHUANES DGO., MX","FM-12","99999","V020","280,1,N,0020,1","22000,1,9,N","001000,1,N,1","+0228,1","-0091,1","10168,1",,,,,"02,1,+05100,1,00,1",,"02,99,1,00,1,00,1,99999,9,00,1,04,1",,"01,9",,,,"99999,9,08220,1","2,1,016,1,-017,1",,"SYN100AAXX  13031 76373 32910 22802 10228 21091 38220 40168 52016 80004 90240 333 30/// 56009 59017 82067;",
"76373099999","2011-01-13T12:00:00","4","25.35","-105.75","1967.0","TEPEHUANES DGO., MX","FM-12","99999","V020","999,9,C,0000,1","22000,1,9,N","001000,1,N,1","-0041,1","-0098,1","10212,1",,,,,"00,1,+99999,9,99,9",,"00,99,1,00,1,00,1,99999,9,00,1,00,1","0588,9","09,9",,"120,N,-0071,1","240,M,+0258,1","99999,9,08255,1","9,9,999,9,+005,1",,"SYN112AAXX  13121 76373 32910 00000 11041 21098 38255 40212 5//// 91150 333 10258 21071 31090 55098 21804 58005 70000;",
"76373099999","2011-01-13T15:00:00","4","25.35","-105.75","1967.0","TEPEHUANES DGO., MX","FM-12","99999","V020","999,9,C,0000,1","22000,1,9,N","030000,1,N,1","-0030,1","-0087,1","10231,1",,,,,"01,1,+05100,1,00,1",,"01,99,1,00,1,00,1,99999,9,00,1,04,1",,"01,9",,,,"99999,9,08271,1","2,1,017,1,+003,1",,"SYN100AAXX  13151 76373 32980 10000 11030 21087 38271 40231 52017 80004 91450 333 30/// 56009 58003 81067;",
"76373099999","2011-01-13T21:00:00","4","25.35","-105.75","1967.0","TEPEHUANES DGO., MX","FM-12","99999","V020","220,1,N,0010,1","22000,1,9,N","050000,1,N,1","+0192,1","-0010,1","10172,1",,,,,"00,1,+99999,9,99,9",,"00,99,1,00,1,00,1,99999,9,00,1,00,1",,"01,9",,,,"99999,9,08222,1","7,1,038,1,+014,1",,"SYN082AAXX  13211 76373 32984 02201 10192 21010 38222 40172 57038 92050 333 30/// 58014;",
"76373099999","2011-01-14T00:00:00","4","25.35","-105.75","1967.0","TEPEHUANES DGO., MX","FM-12","99999","V020","130,1,N,0020,1","22000,1,9,N","050000,1,N,1","+0165,1","-0035,1","10167,1","24,0000,9,1",,,,"00,1,+99999,9,99,9",,"00,99,1,00,1,00,1,99999,9,00,1,00,1",,"01,9",,"120,M,+0220,1","180,N,-0071,1","99999,9,08219,1","7,1,003,1,+015,1",,"SYN106AAXX  14001 76373 32984 01302 10165 21035 38219 40167 57003 92350 333 10220 21071 30/// 50331 58015 70000;","Q01  00002PRCP24"
"76373099999","2011-01-14T03:00:00","4","25.35","-105.75","1967.0","TEPEHUANES DGO., MX","FM-12","99999","V020","999,9,C,0000,1","22000,1,9,N","010000,1,N,1","+0098,1","-0013,1","10186,1",,,,,"00,1,+99999,9,99,9",,"00,99,1,00,1,00,1,99999,9,00,1,00,1",,"01,9",,,,"99999,9,08234,1","2,1,015,1,+014,1",,"SYN082AAXX  14031 76373 32960 00000 10098 21013 38234 40186 52015 90250 333 30/// 58014;",
"76373099999","2011-01-14T12:00:00","4","25.35","-105.75","1967.0","TEPEHUANES DGO., MX","FM-12","99999","V020","999,9,C,0000,1","22000,1,9,N","010000,1,N,1","-0038,1","-0060,1","10178,1",,,,,"00,1,+99999,9,99,9",,"00,99,1,00,1,00,1,99999,9,00,1,00,1","0570,9","09,9",,"120,N,-0061,1","240,M,+0220,1","99999,9,08228,1","9,9,999,9,-027,1",,"SYN112AAXX  14121 76373 32960 00000 11038 21060 38228 40178 5//// 91150 333 10220 21061 31079 55095 21731 59027 70000;",
"76373099999","2011-01-14T15:00:00","4","25.35","-105.75","1967.0","TEPEHUANES DGO., MX","FM-12","99999","V020","999,9,C,0000,1","22000,1,9,N","030000,1,N,1","-0023,1","-0057,1","10187,1",,,,,"00,1,+99999,9,99,9",,"00,99,1,00,1,00,1,99999,9,00,1,00,1",,"01,9",,,,"99999,9,08235,1","2,1,007,1,-036,1",,"SYN082AAXX  14151 76373 32980 00000 11023 21057 38235 40187 52007 91450 333 30/// 59036;",
"76373099999","2011-01-14T18:00:00","4","25.35","-105.75","1967.0","TEPEHUANES DGO., MX","FM-12","99999","V020","130,1,N,0010,1","22000,1,9,N","050000,1,N,1","+0134,1","-0022,1","10168,1",,,,,"00,1,+99999,9,99,9",,"00,99,1,00,1,00,1,99999,9,00,1,00,1",,"01,9",,"120,M,+0152,1","240,N,-0061,1","99999,9,08220,1","7,1,015,1,-040,1",,"SYN094AAXX  14181 76373 32984 01301 10134 21022 38220 40168 57015 91750 333 10152 21061 30/// 59040;",
"76373099999","2011-01-14T21:00:00","4","25.35","-105.75","1967.0","TEPEHUANES DGO., MX","FM-12","99999","V020","999,9,C,0000,1","22000,1,9,N","050000,1,N,1","+0243,2","-0083,1","10114,1",,,,,"00,1,+99999,9,99,9",,"00,99,1,00,1,00,1,99999,9,00,1,00,1",,"01,9",,,,"99999,9,08176,1","7,1,031,1,-046,1",,"SYN082AAXX  14211 76373 32984 00000 10243 21083 38176 40114 57031 91750 333 30/// 59046;",
"76373099999","2011-01-15T00:00:00","4","25.35","-105.75","1967.0","TEPEHUANES DGO., MX","FM-12","99999","V020","240,1,N,0040,1","22000,1,9,N","050000,1,N,1","+0205,1","-0076,1","10114,1","24,0000,9,1",,,,"00,1,+99999,9,99,9",,"00,99,1,00,1,00,1,99999,9,00,1,00,1",,"01,9",,"120,M,+0265,1","180,N,-0061,1","99999,9,08175,1","7,1,014,1,-044,1",,"SYN106AAXX  15001 76373 32984 02404 10205 21076 38175 40114 57014 92350 333 10265 21061 30/// 50351 59044 70000;","Q01  00002PRCP24"
"76373099999","2011-01-15T12:00:00","4","25.35","-105.75","1967.0","TEPEHUANES DGO., MX","FM-12","99999","V020","999,9,C,0000,1","22000,1,9,N","010000,1,N,1","-0035,1","-0075,1","10140,1",,,,,"00,1,+99999,9,99,9",,"00,99,1,00,1,00,1,99999,9,00,1,00,1","0588,9","09,9",,"120,N,-0058,1","240,M,+0265,1","99999,9,08197,1","9,9,999,9,-031,1",,"SYN112AAXX  15121 76373 32960 00000 11035 21075 38197 40140 5//// 91150 333 10265 21058 31071 55098 21643 59031 70000;",
"76373099999","2011-01-15T15:00:00","4","25.35","-105.75","1967.0","TEPEHUANES DGO., MX","FM-12","99999","V020","999,9,C,0000,1","22000,1,9,N","030000,1,N,1","-0013,1","-0065,1","10154,1",,,,,"00,1,+99999,9,99,9",,"00,99,1,00,1,00,1,99999,9,00,1,00,1",,"01,9",,,,"99999,9,08208,1","2,1,011,1,-027,1",,"SYN082AAXX  15151 76373 32980 00000 11013 21065 38208 40154 52011 91450 333 30/// 59027;",
"76373099999","2011-01-15T18:00:00","4","25.35","-105.75","1967.0","TEPEHUANES DGO., MX","FM-12","99999","V020","999,9,C,0000,1","22000,1,9,N","045000,1,N,1","+0134,1","-0032,1","10145,1",,,,,"01,1,+00810,1,08,1",,"01,99,1,01,1,02,1,99999,9,00,1,00,1",,"01,9",,"120,M,+0150,1","240,N,-0058,1","99999,9,08201,1","7,1,007,1,-019,1",,"SYN112AAXX  15181 76373 32983 10000 10134 21032 38201 40145 57007 81200 91750 333 10150 21058 30/// 56700 59019 81827;",
"76373099999","2011-01-15T21:00:00","4","25.35","-105.75","1967.0","TEPEHUANES DGO., MX","FM-12","99999","V020","090,1,N,0010,1","22000,1,9,N","050000,1,N,1","+0185,2","-0066,1","10101,1",,,,,"02,1,+00810,1,06,1",,"02,99,1,02,1,04,1,01250,1,00,1,00,1",,"01,9",,,,"99999,9,08165,1","7,1,035,1,-034,1",,"SYN100AAXX  15211 76373 32684 20901 10185 21066 38165 40101 57035 82400 92050 333 30/// 56900 59034 82627;",
"76373099999","2011-01-16T00:00:00","4","25.35","-105.75","1967.0","TEPEHUANES DGO., MX","FM-12","99999","V020","060,1,N,0030,1","22000,1,9,N","050000,1,N,1","+0168,1","-0048,1","10106,1","24,0000,9,1",,,,,,"01,99,1,01,1,04,1,01250,1,00,1,00,1",,"01,9",,"120,M,+0212,1","180,N,-0058,1","99999,9,08169,1","2,1,004,1,-006,1",,"SYN124AAXX  16001 76373 32684 10603 10168 21048 38169 40106 52004 81400 92350 333 10212 21058 30/// 50341 56900 59006 70000 81627;",
"76373099999","2011-01-16T03:00:00","4","25.35","-105.75","1967.0","TEPEHUANES DGO., MX","FM-12","99999","V020","999,9,C,0000,1","22000,1,9,N","010000,1,N,1","+0096,1","-0066,1","10135,1",,,,,"00,1,+99999,9,99,9",,"00,99,1,00,1,00,1,99999,9,00,1,00,1",,"01,9",,,,"99999,9,08193,1","2,1,024,1,+999,9",,"SYN082AAXX  16031 76373 32960 00000 10096 21066 38193 40135 52024 90240 333 30/// 58///;",
"76373099999","2011-01-16T12:00:00","4","25.35","-105.75","1967.0","TEPEHUANES DGO., MX","FM-12","99999","V020","999,9,C,0000,1","22000,1,9,N","010000,1,N,1","-0035,1","-0069,1","99999,9",,,,,"01,1,+00600,1,08,1",,"99,99,9,99,9,99,9,99999,9,00,1,00,1","0588,9","09,9",,"120,N,-0061,1","240,M,+0212,1","99999,9,08205,1","9,9,999,9,-007,1",,"SYN106AAXX  16121 76373 32960 00000 11035 21069 38205 5//// 91150 333 10212 21061 31075 55098 81820 59007 70000;","Q01+000002SCOTCV"
"76373099999","2011-01-16T15:00:00","4","25.35","-105.75","1967.0","TEPEHUANES DGO., MX","FM-12","99999","V020","999,9,C,0000,1","22000,1,9,N","040000,1,N,1","-0020,1","-0052,1","10163,1",,,,,"00,1,+99999,9,99,9",,"00,99,1,00,1,00,1,99999,9,00,1,00,1",,"01,9",,,,"99999,9,08216,1","2,1,011,1,+008,1",,"SYN082AAXX  16151 76373 32982 00000 11020 21052 38216 40163 52011 91450 333 30/// 58008;",
"76373099999","2011-01-16T18:00:00","4","25.35","-105.75","1967.0","TEPEHUANES DGO., MX","FM-12","99999","V020","999,9,C,0000,1","22000,1,9,N","050000,1,N,1","+0118,1","-0024,1","10150,1",,,,,"00,1,+99999,9,99,9",,"00,99,1,00,1,00,1,99999,9,00,1,00,1",,"01,9",,"120,M,+0135,1","240,N,-0061,1","99999,9,08205,1","7,1,011,1,+004,1",,"SYN094AAXX  16181 76373 32984 00000 10118 21024 38205 40150 57011 91750 333 10135 21061 30/// 58004;",
"76373099999","2011-01-16T21:00:00","4","25.35","-105.75","1967.0","TEPEHUANES DGO., MX","FM-12","99999","V020","140,1,N,0010,1","22000,1,9,N","050000,1,N,1","+0182,1","-0068,1","10111,1",,,,,"00,1,+99999,9,99,9",,"00,99,1,00,1,00,1,99999,9,00,1,00,1",,"01,9",,,,"99999,9,08173,1","7,1,032,1,+008,1",,"SYN082AAXX  16211 76373 32984 01401 10182 21068 38173 40111 57032 92050 333 30/// 58008;",
"76373099999","2011-01-17T00:00:00","4","25.35","-105.75","1967.0","TEPEHUANES DGO., MX","FM-12","99999","V020","110,1,N,0010,1","22000,1,9,N","045000,1,N,1","+0192,1","-0089,1","10097,1","24,0000,9,1",,,,,,"04,99,1,00,1,00,1,99999,9,00,1,08,1",,"01,9",,"120,M,+0223,1","180,N,-0061,1","99999,9,08162,1","7,1,011,1,-007,1",,"SYN124AAXX  17001 76373 32983 41101 10192 21089 38162 40097 57011 84008 92350 333 10223 21061 30/// 50271 56009 59007 70000 84267;","Q01+000042SCOTLC"
"76373099999","2011-01-17T12:00:00","4","25.35","-105.75","1967.0","TEPEHUANES DGO., MX","FM-12","99999","V020","999,9,C,0000,1","22000,1,9,N","010000,1,N,1","-0037,1","-0089,1","10144,1",,,,,"00,1,+99999,9,99,9",,"00,99,1,00,1,00,1,99999,9,00,1,00,1","0582,9","09,9",,"120,N,-0058,1","240,M,+0223,1","99999,9,08200,1","9,9,999,9,-005,1",,"SYN112AAXX  17121 76373 32960 00000 11037 21089 38200 40144 5//// 91150 333 10223 21058 31072 55097 21780 59005 70000;",
"76373099999","2011-01-17T15:00:00","4","25.35","-105.75","1967.0","TEPEHUANES DGO., MX","FM-12","99999","V020","999,9,C,0000,1","22000,1,9,N","040000,1,N,1","-0020,1","-0082,1","10147,1",,,,,"00,1,+99999,9,99,9",,"00,99,1,00,1,00,1,99999,9,00,1,00,1",,"01,9",,,,"99999,9,08202,1","3,1,002,1,-014,1",,"SYN082AAXX  17151 76373 32982 00000 11020 21082 38202 40147 53002 91450 333 30/// 59014;",
"76373099999","2011-01-17T18:00:00","4","25.35","-105.75","1967.0","TEPEHUANES DGO., MX","FM-12","99999","V020","999,9,C,0000,1","22000,1,9,N","050000,1,N,1","+9999,9","-0066,1","10127,1",,,,,"01,1,+05100,1,01,1",,"01,99,1,00,1,00,1,99999,9,00,1,09,1",,"01,9",,"120,M,+0160,1","240,N,-0058,1","99999,9,08186,1","7,1,016,1,-019,1",,"SYN112AAXX  17181 76373 32984 10000 10140 21066 38186 40127 57016 81009 91750 333 10160 21058 30/// 56007 59019 81167;","Q01+000012SCOTLC"
"76373099999","2011-01-17T21:00:00","4","25.35","-105.75","1967.0","TEPEHUANES DGO., MX","FM-12","99999","V020","160,1,N,0010,1","22000,1,9,N","050000,1,N,1","+0253,1","-0070,1","10076,1",,,,,"01,1,+05100,1,01,1",,"01,99,1,00,1,00,1,99999,9,00,1,09,1",,"01,9",,,,"99999,9,08145,1","7,1,041,1,-028,1",,"SYN100AAXX  17211 76373 32984 11601 10253 21070 38145 40076 57041 81009 92050 333 30/// 56009 59028 81167;","Q01+000012SCOTLC"
"76373099999","2011-01-18T00:00:00","4","25.35","-105.75","1967.0","TEPEHUANES DGO., MX","FM-12","99999","V020","270,1,N,0020,1","22000,1,9,N","050000,1,N,1","+0232,1","-0055,1","10076,1","24,0000,9,1",,,,"00,1,+99999,9,99,9",,"00,99,1,00,1,00,1,99999,9,00,1,00,1",,"01,9",,"120,M,+0288,1","180,N,-0058,1","99999,9,08145,1","4,1,000,1,-017,1",,"SYN106AAXX  18001 76373 32984 02702 10232 21055 38145 40076 54000 92350 333 10288 21058 30/// 50351 59017 70000;","Q01  00002PRCP24"
"76373099999","2011-01-18T12:00:00","4","25.35","-105.75","1967.0","TEPEHUANES DGO., MX","FM-12","99999","V020","999,9,C,0000,1","22000,1,9,N","001000,1,N,1","-0009,1","-0047,1","10142,1",,,,,"00,1,+99999,9,99,9",,"00,99,1,00,1,00,1,99999,9,00,1,00,1",,"09,9","999,-0039,9","120,N,-0028,1","240,M,+0288,1","99999,9,08199,1","9,9,999,9,+001,1",,"SYN112AAXX  18121 76373 32910 00000 11009 21047 38199 40142 5//// 91150 333 10288 21028 31039 55981 21852 58001 70000;",
"76373099999","2011-01-18T15:00:00","4","25.35","-105.75","1967.0","TEPEHUANES DGO., MX","FM-12","99999","V020","999,9,C,0000,1","22000,1,9,N","030000,1,N,1","+0007,1","-0040,1","10156,1",,,,,"00,1,+99999,9,99,9",,"00,99,1,00,1,00,1,99999,9,00,1,00,1",,"01,9",,,,"99999,9,08210,1","2,1,011,1,+008,1",,"SYN082AAXX  18151 76373 32980 00000 10007 21040 38210 40156 52011 91450 333 30/// 58008;",
"76373099999","2011-01-18T18:00:00","4","25.35","-105.75","1967.0","TEPEHUANES DGO., MX","FM-12","99999","V020","110,1,N,0010,1","22000,1,9,N","030000,1,N,1","+9999,9","-0016,1","10149,1",,,,,"00,1,+99999,9,99,9",,"00,99,1,00,1,00,1,99999,9,00,1,00,1",,"01,9",,"120,M,+0188,1","240,N,-0028,1","99999,9,08204,1","8,1,006,1,+018,1",,"SYN094AAXX  18181 76373 32980 01101 10170 21016 38204 40149 58006 91750 333 10188 21028 30/// 58018;","Q01+001703ATOT  "
"76373099999","2011-01-18T21:00:00","4","25.35","-105.75","1967.0","TEPEHUANES DGO., MX","FM-12","99999","V020","100,1,N,0010,1","22000,1,9,N","030000,1,N,1","+0260,1","-0056,1","10106,1",,,,,"00,1,+99999,9,99,9",,"00,99,1,00,1,00,1,99999,9,00,1,00,1",,"01,9",,,,"99999,9,08169,1","7,1,035,1,+024,1",,"SYN082AAXX  18211 76373 32980 01001 10260 21056 38169 40106 57035 92050 333 30/// 58024;",
"76373099999","2011-01-19T00:00:00","4","25.35","-105.75","1967.0","TEPEHUANES DGO., MX","FM-12","99999","V020","130,1,N,0010,1","22000,1,9,N","030000,1,N,1","+0235,1","-0059,1","10105,1","24,0000,9,1",,,,"00,1,+99999,9,99,9",,"00,99,1,00,1,00,1,99999,9,00,1,00,1",,"01,9",,"120,M,+0284,1","180,N,-0028,1","99999,9,08168,1","5,1,001,1,+023,1",,"SYN106AAXX  19001 76373 32980 01301 10235 21059 38168 40105 55001 92350 333 10284 21028 30/// 50391 58023 70000;","Q01  00002PRCP24"
"76373099999","2011-01-19T03:00:00","4","25.35","-105.75","1967.0","TEPEHUANES DGO., MX","FM-12","99999","V020","270,1,N,0010,1","22000,1,9,N","001000,1,N,1","+0156,1","-0007,1","10139,1",,,,,"00,1,+99999,9,99,9",,"00,99,1,00,1,00,1,99999,9,00,1,00,1",,"01,9",,,,"99999,9,08196,1","2,1,028,1,+999,9",,"SYN082AAXX  19031 76373 32910 02701 10156 21007 38196 40139 52028 90250 333 30/// 58///;",
"76373099999","2011-01-19T12:00:00","4","25.35","-105.75","1967.0","TEPEHUANES DGO., MX","FM-12","99999","V020","999,9,C,0000,1","22000,1,9,N","001000,1,N,1","+0004,1","-0021,1","10145,1",,,,,"00,1,+99999,9,99,9",,"00,99,1,00,1,00,1,99999,9,00,1,00,1","0588,9","09,9","999,-0026,9","120,N,-0080,1","240,M,+0284,1","99999,9,08200,1","9,9,999,9,+001,1",,"SYN112AAXX  19121 76373 32910 00000 10004 21021 38200 40145 5//// 91150 333 10284 21080 31026 55098 21788 58001 70000;",
"76373099999","2011-01-19T15:00:00","4","25.35","-105.75","1967.0","TEPEHUANES DGO., MX","FM-12","99999","V020","999,9,C,0000,1","22000,1,9,N","030000,1,N,1","+0011,1","-0024,1","10156,1",,,,,"00,1,+99999,9,99,9",,"00,99,1,00,1,00,1,99999,9,00,1,00,1",,"01,9",,,,"99999,9,08210,1","2,1,010,1,+000,1",,"SYN082AAXX  19151 76373 32980 00000 10011 21024 38210 40156 52010 91450 333 30/// 58000;",
"76373099999","2011-01-19T18:00:00","4","25.35","-105.75","1967.0","TEPEHUANES DGO., MX","FM-12","99999","V020","100,1,N,0010,1","22000,1,9,N","030000,1,N,1","+9999,9","-0031,1","10142,1",,,,,"00,1,+99999,9,99,9",,"00,99,1,00,1,00,1,99999,9,00,1,00,1",,"01,9",,"120,M,+0202,1","240,N,-0018,1","99999,9,08199,1","7,1,011,1,-005,1",,"SYN094AAXX  19181 76373 32980 01001 10185 21031 38199 40142 57011 91750 333 10202 21018 30/// 59005;","Q01+001853ATOT  "
"76373099999","2011-01-19T21:00:00","4","25.35","-105.75","1967.0","TEPEHUANES DGO., MX","FM-12","99999","V020","190,1,N,0020,1","22000,1,9,N","030000,1,N,1","+0267,2","-0067,1","10092,1",,,,,"00,1,+99999,9,99,9",,"00,99,1,00,1,00,1,99999,9,00,1,00,1",,"01,9",,,,"99999,9,08158,1","7,1,041,1,-009,1",,"SYN082AAXX  19211 76373 32980 01902 10267 21067 38158 40092 57041 92050 333 30/// 59009;",
"76373099999","2011-01-20T00:00:00","4","25.35","-105.75","1967.0","TEPEHUANES DGO., MX","FM-12","99999","V020","200,1,N,0020,1","22000,1,9,N","030000,1,N,1","+0218,1","-0063,1","10098,1","24,0000,9,1",,,,"00,1,+99999,9,99,9",,"00,99,1,00,1,00,1,99999,9,00,1,00,1",,"01,9",,"120,M,+0228,1","180,N,-0018,1","99999,9,08163,1","2,1,005,1,-005,1",,"SYN106AAXX  20001 76373 32980 02002 10218 21063 38163 40098 52005 92050 333 10228 21018 30/// 50431 59005 70000;","Q01  00002PRCP24"
"76373099999","2011-01-20T03:00:00","4","25.35","-105.75","1967.0","TEPEHUANES DGO., MX","FM-12","99999","V020","240,1,N,0010,1","22000,1,9,N","001000,1,N,1","+0136,1","-0042,1","10124,1",,,,,"00,1,+99999,9,99,9",,"00,99,1,00,1,00,1,99999,9,00,1,00,1",,"01,9",,,,"99999,9,08184,1","2,1,021,1,-012,1",,"SYN082AAXX  20031 76373 32910 02401 10136 21042 38184 40124 52021 90250 333 30/// 59012;",
"76373099999","2011-01-20T12:00:00","4","25.35","-105.75","1967.0","TEPEHUANES DGO., MX","FM-12","99999","V020","999,9,C,0000,1","22000,1,9,N","001000,1,N,1","-0016,1","-0058,1","10139,1",,,,,"00,1,+99999,9,99,9",,"00,99,1,00,1,00,1,99999,9,00,1,00,1","0588,9","09,9",,"120,N,-0038,1","240,M,+0282,1","99999,9,08196,1","9,9,999,9,-010,1",,"SYN112AAXX  20121 76373 32910 00000 11016 21058 38196 40139 5//// 91150 333 10282 21038 31052 55098 21820 59010 70000;",
"76373099999","2011-01-20T15:00:00","4","25.35","-105.75","1967.0","TEPEHUANES DGO., MX","FM-12","99999","V020","999,9,C,0000,1","22000,1,9,N","030000,1,N,1","-0009,1","-0050,1","10164,1",,,,,"01,1,+00810,1,08,1",,"01,99,1,01,1,02,1,01250,1,00,1,00,1",,"01,9",,,,"99999,9,08216,1","2,1,020,1,+006,1",,"SYN100AAXX  20151 76373 32680 10000 11009 21050 38216 40164 52020 81200 91450 333 30/// 56300 58006 81827;",
"76373099999","2011-01-20T21:00:00","4","25.35","-105.75","1967.0","TEPEHUANES DGO., MX","FM-12","99999","V020","999,9,C,0000,1","22000,1,9,N","030000,1,N,1","+0230,2","-0076,1","10114,1",,,,,"00,1,+99999,9,99,9",,"00,99,1,00,1,00,1,99999,9,00,1,00,1",,"01,9",,,,"99999,9,08176,1","7,1,033,1,+018,1",,"SYN082AAXX  20211 76373 32980 00000 10230 21076 38176 40114 57033 92050 333 30/// 58018;",
"76373099999","2011-01-21T00:00:00","4","25.35","-105.75","1967.0","TEPEHUANES DGO., MX","FM-12","99999","V020","290,1,N,0030,1","22000,1,9,N","030000,1,N,1","+0210,1","-0126,1","10103,1","24,0000,9,1",,,,"00,1,+99999,9,99,9",,"00,99,1,00,1,00,1,99999,9,00,1,00,1",,"01,9",,"120,M,+0250,1","180,N,-0030,1","99999,9,08167,1","7,1,009,1,+004,1",,"SYN106AAXX  21001 76373 32980 02903 10210 21126 38167 40103 57009 92350 333 10250 21030 30/// 50431 58004 70000;","Q01  00002PRCP24"
"76373099999","2011-01-21T03:00:00","4","25.35","-105.75","1967.0","TEPEHUANES DGO., MX","FM-12","99999","V020","999,9,C,0000,1","22000,1,9,N","001000,1,N,1","+0134,1","-0057,1","10130,1",,,,,"00,1,+99999,9,99,9",,"00,99,1,00,1,00,1,99999,9,00,1,00,1",,"01,9",,,,"99999,9,08189,1","2,1,022,1,+005,1",,"SYN082AAXX  21031 76373 32910 00000 10134 21057 38189 40130 52022 90250 333 30/// 58005;",
"76373099999","2011-01-21T12:00:00","4","25.35","-105.75","1967.0","TEPEHUANES DGO., MX","FM-12","99999","V020","999,9,C,0000,1","22000,1,9,N","001000,1,N,1","-0030,1","-0073,1","10137,1",,,,,"00,1,+99999,9,99,9",,"00,99,1,00,1,00,1,99999,9,00,1,00,1","0594,9","09,9",,"120,N,-0072,1","240,M,+0250,1","99999,9,08195,1","9,9,999,9,-001,1",,"SYN112AAXX  21121 76373 32910 00000 11030 21073 38195 40137 5//// 91155 333 10250 21072 31084 55099 21892 59001 70000;",
"76373099999","2011-01-21T15:00:00","4","25.35","-105.75","1967.0","TEPEHUANES DGO., MX","FM-12","99999","V020","999,9,C,0000,1","22000,1,9,N","030000,1,N,1","-0016,1","-0063,1","10145,1",,,,,"00,1,+99999,9,99,9",,"00,99,1,00,1,00,1,99999,9,00,1,00,1",,"01,9",,,,"99999,9,08201,1","2,1,006,1,-015,1",,"SYN082AAXX  21151 76373 32980 00000 11016 21063 38201 40145 52006 91450 333 30/// 59015;",
"76373099999","2011-01-21T18:00:00","4","25.35","-105.75","1967.0","TEPEHUANES DGO., MX","FM-12","99999","V020","999,9,C,0000,1","22000,1,9,N","030000,1,N,1","+9999,9","-0047,1","10140,1",,,,,"00,1,+99999,9,99,9",,"00,99,1,00,1,00,1,99999,9,00,1,00,1",,"01,9",,"120,M,+0162,1","240,N,-0072,1","99999,9,08197,1","5,1,004,1,-012,1",,"SYN094AAXX  21181 76373 32980 00000 10150 21047 38197 40140 55004 91755 333 10162 21072 30/// 59012;","Q01+001503ATOT  "
"76373099999","2011-01-21T21:00:00","4","25.35","-105.75","1967.0","TEPEHUANES DGO., MX","FM-12","99999","V020","290,1,N,0030,1","22000,1,9,N","030000,1,N,1","+0230,2","-0118,1","10089,1",,,,,"00,1,+99999,9,99,9",,"00,99,1,00,1,00,1,99999,9,00,1,00,1",,"01,9",,,,"99999,9,08156,1","7,1,041,1,-020,1",,"SYN082AAXX  21211 76373 32980 02903 10230 21118 38156 40089 57041 92055 333 30/// 59020;",
"76373099999","2011-01-22T00:00:00","4","25.35","-105.75","1967.0","TEPEHUANES DGO., MX","FM-12","99999","V020","250,1,N,0020,1","22000,1,9,N","030000,1,N,1","+0202,1","-0084,1","10098,1","24,0000,9,1",,,,"00,1,+99999,9,99,9",,"00,99,1,00,1,00,1,99999,9,00,1,00,1",,"01,9",,"120,M,+0250,1","180,N,-0072,1","99999,9,08163,1","2,1,013,1,+004,1",,"SYN106AAXX  22001 76373 32980 02502 10202 21084 38163 40098 52013 92355 333 10250 21072 30/// 50351 58004 70000;","Q01  00002PRCP24"
"76373099999","2011-01-22T03:00:00","4","25.35","-105.75","1967.0","TEPEHUANES DGO., MX","FM-12","99999","V020","999,9,C,0000,1","22000,1,9,N","001000,1,N,1","+0114,1","-0044,1","10126,1",,,,,"00,1,+99999,9,99,9",,"00,99,1,00,1,00,1,99999,9,00,1,00,1",,"01,9",,,,"99999,9,08185,1","2,1,022,1,-004,1",,"SYN082AAXX  22031 76373 32910 00000 10114 21044 38185 40126 52022 90255 333 30/// 59004;",
"76373099999","2011-01-22T12:00:00","4","25.35","-105.75","1967.0","TEPEHUANES DGO., MX","FM-12","99999","V020","999,9,C,0000,1","22000,1,9,N","001000,1,N,1","-0026,1","-0107,1","10132,1",,,,,"00,1,+99999,9,99,9",,"00,99,1,00,1,00,1,99999,9,00,1,00,1","0588,9","09,9",,"120,N,-0070,1","240,M,+0250,1","99999,9,08190,1","9,9,999,9,-005,1",,"SYN112AAXX  22121 76373 32910 00000 11026 21107 38190 40132 5//// 91155 333 10250 21070 31082 55098 21892 59005 70000;",
"76373099999","2011-01-22T15:00:00","4","25.35","-105.75","1967.0","TEPEHUANES DGO., MX","FM-12","99999","V020","999,9,C,0000,1","22000,1,9,N","030000,1,N,1","-0018,1","-0059,1","10142,1",,,,,"00,1,+99999,9,99,9",,"00,99,1,00,1,00,1,99999,9,00,1,00,1",,"01,9",,,,"99999,9,08199,1","2,1,009,1,-002,1",,"SYN082AAXX  22151 76373 32980 00000 11018 21059 38199 40142 52009 91455 333 30/// 59002;",
"76373099999","2011-01-22T18:00:00","4","25.35","-105.75","1967.0","TEPEHUANES DGO., MX","FM-12","99999","V020","999,9,C,0000,1","22000,1,9,N","030000,1,N,1","+0132,1","-0033,1","10128,1",,,,,"00,1,+99999,9,99,9",,"00,99,1,00,1,00,1,99999,9,00,1,00,1",,"01,9",,"120,M,+0140,1","240,N,-0070,1","99999,9,08187,1","7,1,012,1,-010,1",,"SYN094AAXX  22181 76373 32980 00000 10132 21033 38187 40128 57012 91750 333 10140 21070 30/// 59010;",
"76373099999","2011-01-22T21:00:00","4","25.35","-105.75","1967.0","TEPEHUANES DGO., MX","FM-12","99999","V020","140,1,N,0010,1","22000,1,9,N","030000,1,N,1","+0224,2","-0055,1","10081,1",,,,,"00,1,+99999,9,99,9",,"00,99,1,00,1,00,1,99999,9,00,1,00,1",,"01,9",,,,"99999,9,08149,1","7,1,038,1,-007,1",,"SYN082AAXX  22211 76373 32980 01401 10224 21055 38149 40081 57038 92040 333 30/// 59007;",
"76373099999","2011-01-23T03:00:00","4","25.35","-105.75","1967.0","TEPEHUANES DGO., MX","FM-12","99999","V020","999,9,C,0000,1","22000,1,9,N","010000,1,N,1","+0125,1","-0047,1","10095,1",,,,,"00,1,+99999,9,99,9",,"00,99,1,00,1,00,1,99999,9,00,1,00,1",,"01,9",,,,"99999,9,08161,1",,,"SYN082AAXX  23031 76373 32960 00000 10125 21047 38161 40095 5//// 90250 333 30/// 58///;",
"76373099999","2011-01-23T12:00:00","4","25.35","-105.75","1967.0","TEPEHUANES DGO., MX","FM-12","99999","V020","999,9,C,0000,1","22000,1,9,N","010000,1,N,1","-0030,1","-0056,1","10109,1",,,,,"00,1,+99999,9,99,9",,"00,99,1,00,1,00,1,99999,9,00,1,00,1","0594,9","09,9",,"120,N,-0053,1","240,M,+0250,1","99999,9,08172,1","9,9,999,9,-018,1",,"SYN112AAXX  23121 76373 32960 00000 11030 21056 38172 40109 5//// 91150 333 10250 21053 31071 55099 21909 59018 70000;",
"76373099999","2011-01-23T15:00:00","4","25.35","-105.75","1967.0","TEPEHUANES DGO., MX","FM-12","99999","V020","999,9,C,0000,1","22000,1,9,N","045000,1,N,1","-0011,1","-0052,1","10118,1",,,,,"01,1,+00810,1,08,1",,"01,99,1,01,1,02,1,00800,1,00,1,00,1",,"01,9",,,,"99999,9,08179,1","2,1,007,1,-027,1",,"SYN100AAXX  23151 76373 32583 10000 11011 21052 38179 40118 52007 81200 91450 333 30/// 56200 59027 81827;",
"76373099999","2011-01-23T18:00:00","4","25.35","-105.75","1967.0","TEPEHUANES DGO., MX","FM-12","99999","V020","999,9,C,0000,1","22000,1,9,N","050000,1,N,1","+9999,9","-0061,1","10112,1",,,,,"01,1,+00810,1,06,1",,"01,99,1,01,1,05,1,00800,1,00,1,00,1",,"01,9",,"120,M,+0172,1","240,N,-0053,1","99999,9,08174,1","8,1,005,1,-013,1",,"SYN112AAXX  23181 76373 32584 10000 10156 21061 38174 40112 58005 81500 91750 333 10172 21053 30/// 56200 59013 81627;","Q01+001563ATOT  "
"76373099999","2011-01-23T21:00:00","4","25.35","-105.75","1967.0","TEPEHUANES DGO., MX","FM-12","99999","V020","290,1,N,0020,1","22000,1,9,N","050000,1,N,1","+0220,2","-0159,1","10068,1",,,,,"01,1,+00810,1,06,1",,"01,99,1,01,1,05,1,00800,1,00,1,00,1",,"01,9",,,,"99999,9,08138,1","7,1,035,1,-011,1",,"SYN100AAXX  23211 76373 32584 12902 10220 21159 38138 40068 57035 81500 92050 333 30/// 56200 59011 81627;",
"76373099999","2011-01-24T00:00:00","4","25.35","-105.75","1967.0","TEPEHUANES DGO., MX","FM-12","99999","V020","270,1,N,0030,1","22000,1,9,N","050000,1,N,1","+0183,1","-0051,1","10075,1","24,0000,9,1",,,,"00,1,+99999,9,99,9",,"00,99,1,00,1,00,1,99999,9,00,1,00,1",,"01,9",,"120,M,+0232,1","180,N,-0053,1","99999,9,08144,1","2,1,005,1,+999,9",,"SYN106AAXX  24001 76373 32984 02703 10183 21051 38144 40075 52005 92350 333 10232 21053 30/// 50441 58/// 70000;","Q01  00002PRCP24"
"76373099999","2011-01-24T15:00:00","4","25.35","-105.75","1967.0","TEPEHUANES DGO., MX","FM-12","99999","V020","999,9,C,0000,1","22000,1,9,N","045000,1,N,1","-0010,1","-0045,1","10128,1",,,,,"00,1,+99999,9,99,9",,"00,99,1,00,1,00,1,99999,9,00,1,00,1",,,,,,"99999,9,08187,1","9,9,999,9,+008,1",,"SYN076AAXX  24151 76373 32983 00000 11010 21045 38187 40128 5//// 91450 333 58008;",
"76373099999","2011-01-24T18:00:00","4","25.35","-105.75","1967.0","TEPEHUANES DGO., MX","FM-12","99999","V020","999,9,C,0000,1","22000,1,9,N","050000,1,N,1","+0140,1","-0029,1","10111,1",,,,,"00,1,+99999,9,99,9",,"00,99,1,00,1,00,1,99999,9,00,1,00,1",,"01,9",,"120,M,+0150,1","240,N,-0062,1","99999,9,08173,1","7,1,012,1,+001,1",,"SYN094AAXX  24181 76373 32984 00000 10140 21029 38173 40111 57012 91750 333 10150 21062 30/// 58001;",
"76373099999","2011-01-24T21:00:00","4","25.35","-105.75","1967.0","TEPEHUANES DGO., MX","FM-12","99999","V020","290,1,N,0050,1","22000,1,9,N","050000,1,N,1","+0197,2","-0118,1","10076,1",,,,,"00,1,+99999,9,99,9",,"00,99,1,00,1,00,1,99999,9,00,1,00,1",,"01,9",,,,"99999,9,08145,1","7,1,028,1,+006,1",,"SYN082AAXX  24211 76373 32984 02905 10197 21118 38145 40076 57028 92050 333 30/// 58006;",
"76373099999","2011-01-25T00:00:00","4","25.35","-105.75","1967.0","TEPEHUANES DGO., MX","FM-12","99999","V020","290,1,N,0030,1","22000,1,9,N","050000,1,N,1","+0168,1","-0098,1","10091,1","24,0000,9,1",,,,"00,1,+99999,9,99,9",,"00,99,1,00,1,00,1,99999,9,00,1,00,1",,"01,9",,"120,M,+0218,1","180,N,-0062,1","99999,9,08157,1","2,1,012,1,+013,1",,"SYN106AAXX  25001 76373 32984 02903 10168 21098 38157 40091 52012 92350 333 10218 21062 30/// 50471 58013 70000;","Q01  00002PRCP24"
"76373099999","2011-01-25T12:00:00","4","25.35","-105.75","1967.0","TEPEHUANES DGO., MX","FM-12","99999","V020","999,9,C,0000,1","22000,1,9,N","010000,1,N,1","-0043,1","-0079,1","10147,1",,,,,"00,1,+99999,9,99,9",,"00,99,1,00,1,00,1,99999,9,00,1,00,1","0594,9","09,9",,"120,N,-0068,1","240,M,+0218,1","99999,9,08202,1",,,"SYN112AAXX  25121 76373 32960 00000 11043 21079 38202 40147 5//// 91150 333 10218 21068 31080 55099 21892 58/// 70000;",
"76373099999","2011-01-25T15:00:00","4","25.35","-105.75","1967.0","TEPEHUANES DGO., MX","FM-12","99999","V020","999,9,C,0000,1","22000,1,9,N","040000,1,N,1","-0032,1","-0075,1","10168,1",,,,,"00,1,+99999,9,99,9",,"00,99,1,00,1,00,1,99999,9,00,1,00,1",,"01,9",,,,"99999,9,08220,1","2,1,018,1,+033,1",,"SYN082AAXX  25151 76373 32982 00000 11032 21075 38220 40168 52018 91450 333 30/// 58033;",
"76373099999","2011-01-25T18:00:00","4","25.35","-105.75","1967.0","TEPEHUANES DGO., MX","FM-12","99999","V020","999,9,C,0000,1","22000,1,9,N","030000,1,N,1","+0116,1","-0062,1","10164,1",,,,,"00,1,+99999,9,99,9",,"00,99,1,00,1,00,1,99999,9,00,1,00,1",,"01,9",,"120,M,+0132,1","240,N,-0068,1","99999,9,08216,1","7,1,004,1,+043,1",,"SYN094AAXX  25181 76373 32980 00000 10116 21062 38216 40164 57004 91750 333 10132 21068 30/// 58043;",
"76373099999","2011-01-25T21:00:00","4","25.35","-105.75","1967.0","TEPEHUANES DGO., MX","FM-12","99999","V020","100,1,N,0020,1","22000,1,9,N","030000,1,N,1","+0177,1","-0073,1","10117,1",,,,,"00,1,+99999,9,99,9",,"00,99,1,00,1,00,1,99999,9,00,1,00,1",,"01,9",,,,"99999,9,08178,1","7,1,038,1,+033,1",,"SYN082AAXX  25211 76373 32980 01002 10177 21073 38178 40117 57038 92050 333 30/// 58033;",
"76373099999","2011-01-26T03:00:00","4","25.35","-105.75","1967.0","TEPEHUANES DGO., MX","FM-12","99999","V020","999,9,C,0000,1","22000,1,9,N","001000,1,N,1","+0079,1","-0075,1","10130,1",,,,,"00,1,+99999,9,99,9",,"00,99,1,00,1,00,1,99999,9,00,1,00,1",,"01,9",,,,"99999,9,08189,1","2,1,020,1,+999,9",,"SYN082AAXX  26031 76373 32910 00000 10079 21075 38189 40130 52020 90250 333 30/// 58///;",
"76373099999","2011-01-26T12:00:00","4","25.35","-105.75","1967.0","TEPEHUANES DGO., MX","FM-12","99999","V020","999,9,C,0000,1","22000,1,9,N","001000,1,N,1","-0047,1","-0095,1","10132,1",,,,,"00,1,+99999,9,99,9",,"00,99,1,00,1,00,1,99999,9,00,1,00,1","0600,9","09,9",,"120,N,-0068,1","240,M,+0202,1","99999,9,08190,1","9,9,999,9,-012,1",,"SYN112AAXX  26121 76373 32910 00000 11047 21095 38190 40132 5//// 91150 333 10202 21068 31080 55100 21997 59012 70000;",
"76373099999","2011-01-26T15:00:00","4","25.35","-105.75","1967.0","TEPEHUANES DGO., MX","FM-12","99999","V020","999,9,C,0000,1","05100,1,9,N","030000,1,N,1","-0038,1","-0082,1","10150,1",,,,,"06,1,+05100,1,02,1",,"06,99,1,00,1,00,1,99999,9,00,1,07,1",,"01,9",,,,"99999,9,08204,1","2,1,014,1,-016,1",,"SYN100AAXX  26151 76373 32980 60000 11038 21082 38204 40150 52014 80007 91450 333 30/// 56009 59016 86267;",
"76373099999","2011-01-26T18:00:00","4","25.35","-105.75","1967.0","TEPEHUANES DGO., MX","FM-12","99999","V020","999,9,C,0000,1","22000,1,9,N","030000,1,N,1","+9999,9","-0062,1","10143,1",,,,,"01,1,+00810,1,08,1",,"03,99,1,01,1,02,1,01250,1,00,1,07,1",,"01,9",,"120,M,+0148,1","240,N,-0068,1","99999,9,08199,1","7,1,005,1,-017,1",,"SYN118AAXX  26181 76373 32680 30000 10131 21062 38199 40143 57005 81207 91750 333 10148 21068 30/// 56909 59017 81827 82267;","Q01+001313ATOT  "
"76373099999","2011-01-26T21:00:00","4","25.35","-105.75","1967.0","TEPEHUANES DGO., MX","FM-12","99999","V020","120,1,N,0010,1","00750,1,9,N","030000,1,N,1","+0194,2","-0081,1","10098,1",,,,,"07,1,+00750,1,07,1",,"07,99,1,07,1,06,1,00800,1,00,1,00,1",,"01,9",,,,"99999,9,08163,1","7,1,036,1,-015,1",,"SYN100AAXX  26211 76373 32580 71201 10194 21081 38163 40098 57036 87600 92050 333 30/// 56900 59015 87725;",
"76373099999","2011-01-27T00:00:00","4","25.35","-105.75","1967.0","TEPEHUANES DGO., MX","FM-12","99999","V020","230,1,N,0010,1","00750,1,9,N","030000,1,N,1","+0171,1","-0090,1","10104,1","24,0000,9,1",,,,,,"07,99,1,07,1,07,1,00800,1,00,1,00,1",,"01,9",,"120,M,+0221,1","180,N,-0068,1","99999,9,08168,1","3,1,005,1,-001,1",,"SYN124AAXX  27001 76373 32580 72301 10171 21090 38168 40104 53005 87700 92350 333 10221 21068 30/// 50351 56900 59001 70000 87725;",
"76373099999","2011-01-27T03:00:00","4","25.35","-105.75","1967.0","TEPEHUANES DGO., MX","FM-12","99999","V020","999,9,C,0000,1","00750,1,9,N","001000,1,N,1","+0126,1","-0062,1","10128,1",,,,,"07,1,+00750,1,07,1",,"07,99,1,07,1,07,1,00800,1,00,1,00,1",,"01,9",,,,"99999,9,08187,1","2,1,019,1,-002,1",,"SYN100AAXX  27031 76373 32510 70000 10126 21062 38187 40128 52019 87700 90240 333 30/// 56900 59002 87725;",
"76373099999","2011-01-27T12:00:00","4","25.35","-105.75","1967.0","TEPEHUANES DGO., MX","FM-12","99999","V020","999,9,C,0000,1","00750,1,9,N","001000,1,N,1","+0021,1","-0056,1","10146,1","24,0000,9,1",,,,,,"07,99,1,07,1,05,1,00800,1,00,1,00,1","0294,9","09,9","999,-0016,9","120,N,+0004,1","240,M,+0221,1","99999,9,08202,1","9,9,999,9,+000,1",,"SYN130AAXX  27121 76373 32510 70000 10021 21056 38202 40146 5//// 87500 91150 333 10221 20004 31016 55049 21305 56900 58000 70000 87725;",
"76373099999","2011-01-27T15:00:00","4","25.35","-105.75","1967.0","TEPEHUANES DGO., MX","FM-12","99999","V020","999,9,C,0000,1","22000,1,9,N","030000,1,N,1","+0022,1","-0052,1","10180,1",,,,,"01,1,+00810,1,08,1",,"03,99,1,01,1,02,1,01250,1,06,1,04,1",,"01,9",,,,"99999,9,08229,1","2,1,027,1,+025,1",,"SYN100AAXX  27151 76373 32680 30000 10022 21052 38229 40180 52027 81264 91450 333 30/// 56149 58025 81827;",
"76373099999","2011-01-27T21:00:00","4","25.35","-105.75","1967.0","TEPEHUANES DGO., MX","FM-12","99999","V020","150,1,N,0010,1","22000,1,9,N","030000,1,N,1","+0178,1","-0073,1","10139,1",,,,,,,"04,99,1,04,1,04,1,00800,1,00,1,00,1",,"01,9",,,,"99999,9,08196,1","7,1,023,1,+033,1",,"SYN088AAXX  27211 76373 32580 41501 10178 21073 38196 40139 57023 84400 91455 333 30/// 58033;",
"76373099999","2011-01-28T00:00:00","4","25.35","-105.75","1967.0","TEPEHUANES DGO., MX","FM-12","99999","V020","110,1,N,0010,1","99999,9,9,N","030000,1,N,1","+0151,1","-0055,1","99999,9","24,0000,9,1",,,,,,"08,99,1,99,9,99,9,00800,1,99,9,99,9",,"01,9",,"120,M,+0248,1","180,N,+0004,1",,"2,1,006,1,+032,1",,"SYN100AAXX  28001 76373 32580 81101 10151 21055 38000 52006 91755 333 10248 20004 30/// 50551 58032 70000;","Q01+080003APOSP Q02  00002PRCP24"
"76373099999","2011-01-28T03:00:00","4","25.35","-105.75","1967.0","TEPEHUANES DGO., MX","FM-12","99999","V020","290,1,N,0010,1","99999,9,9,N","001000,1,N,1","+0108,1","-0009,1","10181,1",,,,,,,"08,99,1,99,9,99,9,00800,1,99,9,99,9",,"01,9",,,,"99999,9,08229,1","7,1,029,1,+042,1",,"SYN082AAXX  28031 76373 32510 82901 10108 21009 38229 40181 57029 90250 333 30/// 58042;",
"76373099999","2011-01-28T15:00:00","4","25.35","-105.75","1967.0","TEPEHUANES DGO., MX","FM-12","99999","V020","999,9,C,0000,1","01200,1,C,N","030000,1,N,1","+0074,1","+0008,1","10183,1",,,,,"04,1,+00600,1,07,1",,"08,99,1,08,1,08,1,00800,1,00,1,00,1",,"01,9",,,,"99999,9,08232,1","2,1,018,1,+003,1",,"SYN106AAXX  28151 76373 32580 80000 10074 20008 38232 40183 52018 88800 91455 333 30/// 56900 58003 84720 84825;",
"76373099999","2011-01-28T18:00:00","4","25.35","-105.75","1967.0","TEPEHUANES DGO., MX","FM-12","99999","V020","999,9,C,0000,1","00600,1,9,N","030000,1,N,1","+0116,1","+0048,1","10192,1",,,,,"08,1,+00600,1,07,1",,"08,99,1,08,1,08,1,00800,1,00,1,00,1",,"01,9",,"120,M,+0128,1","240,N,+0030,1","99999,9,08239,1","1,1,008,1,+020,1",,"SYN112AAXX  28181 76373 32580 80000 10116 20048 38239 40192 51008 88800 91755 333 10128 20030 30/// 56900 58020 88720;",
"76373099999","2011-01-28T21:00:00","4","25.35","-105.75","1967.0","TEPEHUANES DGO., MX","FM-12","99999","V020","320,1,N,0010,1","00600,1,9,N","030000,1,N,1","+0130,1","+0049,1","10158,1",,,,,"08,1,+00600,1,07,1",,"08,99,1,08,1,08,1,00800,1,00,1,00,1",,"01,9",,,,"99999,9,08211,1","7,1,028,1,+015,1",,"SYN100AAXX  28211 76373 32580 83201 10130 20049 38211 40158 57028 88800 92055 333 30/// 56900 58015 88720;",
"76373099999","2011-01-29T00:00:00","4","25.35","-105.75","1967.0","TEPEHUANES DGO., MX","FM-12","99999","V020","320,1,N,0010,1","01200,1,9,N","030000,1,N,1","+0132,1","+0039,1","10145,1","24,0000,9,1",,,,,,"08,99,1,08,1,08,1,00800,1,00,1,00,1",,"01,9",,"120,M,+0150,1","180,N,+0030,1","99999,9,08200,1","7,1,011,1,+000,1",,"SYN124AAXX  29001 76373 32580 83201 10132 20039 38200 40145 57011 88800 92355 333 10150 20030 30/// 50221 56900 58000 70000 88720;",
"76373099999","2011-01-29T12:00:00","4","25.35","-105.75","1967.0","TEPEHUANES DGO., MX","FM-12","99999","V020","999,9,C,0000,1","22000,1,9,N","001000,1,N,1","+0014,1","+0005,1","10147,1","24,0000,9,1",,,,,,"04,99,1,04,1,04,1,00800,1,00,1,00,1","0000,9","09,9","999,-0042,9","120,N,-0030,1","240,M,+0150,1","99999,9,08203,1","9,9,999,9,-011,1",,"SYN130AAXX  29121 76373 32510 40000 10014 20005 38203 40147 5//// 84400 91155 333 10150 21030 31042 55000 20523 56900 59011 70000 84720;",
"76373099999","2011-01-29T15:00:00","4","25.35","-105.75","1967.0","TEPEHUANES DGO., MX","FM-12","99999","V020","999,9,C,0000,1","00750,1,9,N","030000,1,N,1","+0034,1","+0022,1","10157,1",,,,,"07,1,+00750,1,08,1",,"07,99,1,07,1,07,1,00800,1,00,1,00,1",,"01,9",,,,"99999,9,08210,1","2,1,007,1,-022,1",,"SYN094AAXX  29151 76373 32580 70000 10034 20022 38210 40157 52007 87700 91455 333 30/// 59022 87825;",
"76373099999","2011-01-29T21:00:00","4","25.35","-105.75","1967.0","TEPEHUANES DGO., MX","FM-12","99999","V020","230,1,N,0040,1","22000,1,9,N","030000,1,N,1","+0198,1","-0060,1","10132,1",,,,,"04,1,+00750,1,08,1",,"04,99,1,04,1,04,1,00800,1,00,1,00,1",,"01,9",,,,"99999,9,08190,1","7,1,011,1,-021,1",,"SYN094AAXX  29211 76373 32580 42304 10198 21060 38190 40132 57011 84400 92035 333 30/// 59021 84825;",
"76373099999","2011-01-30T00:00:00","4","25.35","-105.75","1967.0","TEPEHUANES DGO., MX","FM-12","99999","V020","220,1,N,0020,1","22000,1,9,N","045000,1,N,1","+0155,1","-0024,1","10133,1","24,0000,9,1",,,,,,"01,99,1,01,1,02,1,00800,1,00,1,00,1",,"01,9",,"120,M,+0225,1","180,N,-0030,1","99999,9,08196,1","2,1,006,1,-004,1",,"SYN124AAXX  30001 76373 32583 12202 10155 21024 38196 40133 52006 81200 92350 333 10225 21030 30/// 50221 56900 59004 70000 81827;",
"76373099999","2011-01-30T03:00:00","4","25.35","-105.75","1967.0","TEPEHUANES DGO., MX","FM-12","99999","V020","999,9,C,0000,1","22000,1,9,N","010000,1,N,1","+0099,1","-0015,1","10171,1",,,,,"00,1,+99999,9,99,9",,"00,99,1,00,1,00,1,99999,9,00,1,00,1",,"01,9",,,,"99999,9,08222,1","2,1,026,1,+010,1",,"SYN082AAXX  30031 76373 32960 00000 10099 21015 38222 40171 52026 90250 333 30/// 58010;",
"76373099999","2011-01-30T12:00:00","4","25.35","-105.75","1967.0","TEPEHUANES DGO., MX","FM-12","99999","V020","999,9,C,0000,1","22000,1,9,N","010000,1,N,1","-0025,1","-0045,1","10167,1",,,,,"00,1,+99999,9,99,9",,"00,99,1,00,1,00,1,99999,9,00,1,00,1","0594,9","09,9",,"120,N,-0048,1","240,M,+0225,1","99999,9,08218,1","9,9,999,9,+015,1",,"SYN112AAXX  30121 76373 32960 00000 11025 21045 38218 40167 5//// 91150 333 10225 21048 31065 55099 21651 58015 70000;",
"76373099999","2011-01-30T15:00:00","4","25.35","-105.75","1967.0","TEPEHUANES DGO., MX","FM-12","99999","V020","999,9,C,0000,1","22000,1,9,N","045000,1,N,1","-0013,1","-0038,1","10193,1",,,,,"03,1,+05100,1,02,1",,"03,99,1,00,1,00,1,99999,9,00,1,08,1",,"01,9",,,,"99999,9,08240,1","2,1,022,1,+030,1",,"SYN100AAXX  30151 76373 32983 30000 11013 21038 38240 40193 52022 83008 91450 333 30/// 56009 58030 83267;","Q01+000032SCOTLC"
"76373099999","2011-01-30T18:00:00","4","25.35","-105.75","1967.0","TEPEHUANES DGO., MX","FM-12","99999","V020","999,9,C,0000,1","22000,1,9,N","050000,1,N,1","+9999,9","-0045,1","10172,1",,,,,"01,1,+05100,1,02,1",,"01,99,1,00,1,00,1,99999,9,00,1,08,1",,"01,9",,"120,M,+0175,1","240,N,-0048,1","99999,9,08222,1","7,1,018,1,+011,1",,"SYN112AAXX  30181 76373 32984 10000 10151 21045 38222 40172 57018 81008 91750 333 10175 21048 30/// 56009 58011 81267;","Q01+000012SCOTLC"
"76373099999","2011-01-30T21:00:00","4","25.35","-105.75","1967.0","TEPEHUANES DGO., MX","FM-12","99999","V020","090,1,N,0010,1","22000,1,9,N","050000,1,N,1","+0224,2","-0003,1","10125,1",,,,,"00,1,+99999,9,99,9",,"00,99,1,00,1,00,1,99999,9,00,1,00,1",,"01,9",,,,"99999,9,08184,1","7,1,038,1,-006,1",,"SYN082AAXX  30211 76373 32984 00901 10224 21003 38184 40125 57038 92050 333 30/// 59006;",
"76373099999","2011-01-31T00:00:00","4","25.35","-105.75","1967.0","TEPEHUANES DGO., MX","FM-12","99999","V020","240,1,N,0020,1","22000,1,9,N","050000,1,N,1","+0202,1","-0103,1","10127,1","24,0000,9,1",,,,"00,1,+99999,9,99,9",,"00,99,1,00,1,00,1,99999,9,00,1,00,1",,"01,9",,"120,M,+0255,1","180,N,-0048,1","99999,9,08186,1","3,1,002,1,-010,1",,"SYN106AAXX  31001 76373 32984 02402 10202 21103 38186 40127 53002 92350 333 10255 21048 30/// 50351 59010 70000;","Q01  00002PRCP24"
"76373099999","2011-01-31T12:00:00","4","25.35","-105.75","1967.0","TEPEHUANES DGO., MX","FM-12","99999","V020","999,9,C,0000,1","22000,1,9,N","010000,1,N,1","-0022,1","-0042,1","10142,1",,,,,"00,1,+99999,9,99,9",,"00,99,1,00,1,00,1,99999,9,00,1,00,1","0060,9","09,9",,"120,N,-0045,1","240,M,+0255,1","99999,9,08198,1","9,9,999,9,-020,1",,"SYN112AAXX  31121 76373 32960 00000 11022 21042 38198 40142 5//// 91150 333 10255 21045 31060 55010 22062 59020 70000;",
"76373099999","2011-01-31T15:00:00","4","25.35","-105.75","1967.0","TEPEHUANES DGO., MX","FM-12","99999","V020","999,9,C,0000,1","22000,1,9,N","045000,1,N,1","-0003,1","-0026,1","10148,1",,,,,"02,1,+02100,1,03,1",,"03,99,1,03,1,00,1,01750,1,03,1,08,1",,"01,9",,,,"99999,9,08203,1","2,1,005,1,-037,1",,"SYN094AAXX  31151 76373 32783 30000 11003 21026 38203 40148 52005 83038 91450 333 30/// 59037 82357;",
"76373099999","2011-01-31T18:00:00","4","25.35","-105.75","1967.0","TEPEHUANES DGO., MX","FM-12","99999","V020","999,9,C,0000,1","22000,1,9,N","050000,1,N,1","+9999,9","-0062,1","10130,1",,,,,"03,1,+02100,1,03,1",,"03,99,1,03,1,00,1,01750,1,03,1,00,1",,"01,9",,"120,M,+0185,1","240,N,-0045,1","99999,9,08189,1","7,1,014,1,-023,1",,"SYN112AAXX  31181 76373 32784 30000 10174 21062 38189 40130 57014 83030 91750 333 10185 21045 30/// 56090 59023 83357;","Q01+001743ATOT  "
"76373099999","2011-01-31T21:00:00","4","25.35","-105.75","1967.0","TEPEHUANES DGO., MX","FM-12","99999","V020","240,1,N,0030,1","01500,1,C,N","050000,1,N,1","+0203,1","-0115,1","10094,1",,,,,"04,1,+02100,1,03,1",,"07,99,1,07,1,00,1,01750,1,03,1,08,1",,"01,9",,,,"99999,9,08160,1","7,1,029,1,-024,1",,"SYN106AAXX  31211 76373 32784 72403 10203 21115 38160 40094 57029 87038 92050 333 30/// 56099 59024 84357 83167;",
"76373099999","2011-02-01T00:00:00","4","25.35","-105.75","1967.0","TEPEHUANES DGO., MX","FM-12","99999","V020","290,1,N,0020,1","01500,1,9,N","050000,1,N,1","+0149,1","-0049,1","10109,1","24,0000,9,1",,,,"04,1,+02100,1,03,1",,"07,99,1,07,1,00,1,01750,1,03,1,08,1",,"01,9",,"120,M,+0230,1","180,N,-0045,1","99999,9,08172,1","2,1,012,1,+006,1",,"SYN130AAXX  01001 76373 32784 72902 10149 21049 38172 40109 52012 87038 92350 333 10230 21045 30/// 50571 56099 58006 70000 84357 83167;",
"76373099999","2011-02-01T15:00:00","4","25.35","-105.75","1967.0","TEPEHUANES DGO., MX","FM-12","99999","V020","999,9,C,0000,1","22000,1,9,N","030000,1,N,1","+0003,1","-0072,1","10134,1",,,,,"01,1,+00810,1,08,1",,"03,99,1,01,1,02,1,01250,1,00,1,04,1",,"01,9",,,,"99999,9,08192,1","2,1,012,1,-011,1",,"SYN106AAXX  01151 76373 32680 30000 10003 21072 38192 40134 52012 81204 91450 333 30/// 56909 59011 81827 82067;",
"76373099999","2011-02-01T18:00:00","4","25.35","-105.75","1967.0","TEPEHUANES DGO., MX","FM-12","99999","V020","330,1,N,0010,1","22000,1,9,N","030000,1,N,1","+9999,9","-0185,1","10116,1",,,,,"01,1,+00810,1,08,1",,"04,99,1,01,1,02,1,01250,1,00,1,04,1",,"01,9",,"120,M,+0178,1","240,N,-0058,1","99999,9,08177,1","7,1,015,1,+007,1",,"SYN118AAXX  01181 76373 32680 43301 10169 21185 38177 40116 57015 81204 91750 333 10178 21058 30/// 56309 58007 81827 83067;","Q01+001693ATOT  "
"76373099999","2011-02-01T21:00:00","4","25.35","-105.75","1967.0","TEPEHUANES DGO., MX","FM-12","99999","V020","290,1,N,0050,1","22000,1,9,N","030000,1,N,1","+0210,2","-0216,1","10076,1",,,,,"01,1,+00810,1,00,1",,"02,99,1,01,1,02,1,01250,1,00,1,04,1",,"01,9",,,,"99999,9,08145,1","7,1,032,1,-015,1",,"SYN100AAXX  01211 76373 32680 22905 10210 21216 38145 40076 57032 81204 92050 333 30/// 56309 59015 81027;",
"76373099999","2011-02-02T00:00:00","4","25.35","-105.75","1967.0","TEPEHUANES DGO., MX","FM-12","99999","V020","300,1,N,0030,1","22000,1,9,N","030000,1,N,1","+0180,1","-0193,1","10076,1","24,0000,9,1",,,,,,"02,99,1,01,1,08,1,01250,1,00,1,04,1",,"01,9",,"120,M,+0226,1","180,N,-0058,1","99999,9,08145,1","4,1,000,1,-027,1",,"SYN124AAXX  02001 76373 32680 23003 10180 21193 38145 40076 54000 81804 92350 333 10226 21058 30/// 50621 56909 59027 70000 81827;",
"76373099999","2011-02-02T03:00:00","4","25.35","-105.75","1967.0","TEPEHUANES DGO., MX","FM-12","99999","V020","999,9,C,0000,1","22000,1,9,N","001000,1,N,1","+0091,1","-0097,1","10113,1",,,,,"01,1,+00810,1,08,1",,"01,99,1,01,1,02,1,01250,1,00,1,00,1",,"01,9",,,,"99999,9,08175,1","2,1,003,1,+999,9",,"SYN100AAXX  02031 76373 32610 10000 10091 21097 38175 40113 52003 81200 90250 333 30/// 56900 58/// 81827;",
"76373099999","2011-02-02T12:00:00","4","25.35","-105.75","1967.0","TEPEHUANES DGO., MX","FM-12","99999","V020","999,9,C,0000,1","22000,1,9,N","001000,1,N,1","-0039,1","-0122,1","10114,1",,,,,"00,1,+99999,9,99,9",,"00,99,1,00,1,00,1,99999,9,00,1,00,1","0606,9","09,9",,"120,N,-0068,1","240,M,+0226,1","99999,9,08176,1","9,9,999,9,-004,1",,"SYN112AAXX  02121 76373 32910 00000 11039 21122 38176 40114 5//// 91150 333 10226 21068 31080 55101 22062 59004 70000;",
"76373099999","2011-02-02T15:00:00","4","25.35","-105.75","1967.0","TEPEHUANES DGO., MX","FM-12","99999","V020","999,9,C,0000,1","22000,1,9,N","030000,1,N,1","-0019,1","-0128,1","10123,1",,,,,"01,1,+00810,1,08,1",,"01,99,1,01,1,02,1,01250,1,00,1,00,1",,"01,9",,,,"99999,9,08183,1","2,1,007,1,-009,1",,"SYN100AAXX  02151 76373 32680 10000 11019 21128 38183 40123 52007 81200 91450 333 30/// 56200 59009 81827;",
"76373099999","2011-02-02T18:00:00","4","25.35","-105.75","1967.0","TEPEHUANES DGO., MX","FM-12","99999","V020","999,9,C,0000,1","22000,1,9,N","030000,1,N,1","+9999,9","-0196,1","10113,1",,,,,"01,1,+00810,1,08,1",,"01,99,1,01,1,02,1,01250,1,00,1,00,1",,"01,9",,"120,M,+0200,1","240,N,-0068,1","99999,9,08175,1","7,1,008,1,-002,1",,"SYN112AAXX  02181 76373 32680 10000 10189 21196 38175 40113 57008 81200 91750 333 10200 21068 30/// 56200 59002 81827;","Q01+001893ATOT  "
"76373099999","2011-02-03T12:00:00","4","25.35","-105.75","1967.0","TEPEHUANES DGO., MX","FM-12","99999","V020","999,9,C,0000,1","22000,1,9,N","001000,1,N,1","+0056,1","-0061,1","10081,1",,,,,"00,1,+99999,9,99,9",,"00,99,1,00,1,00,1,99999,9,00,1,00,1","0630,9","01,9","999,+0040,9","120,N,+0037,1","240,M,+0220,1","99999,9,08149,1","9,9,999,9,-027,1",,"SYN112AAXX  03121 76373 32910 00000 10056 21061 38149 40081 5//// 91150 333 10220 20037 30040 55105 22054 59027 70000;",
"76373099999","2011-02-03T21:00:00","4","25.35","-105.75","1967.0","TEPEHUANES DGO., MX","FM-12","99999","V020","230,1,N,0040,1","22000,1,9,N","030000,1,N,1","+0146,1","-0151,1","10043,1",,,,,"00,1,+99999,9,99,9",,"00,99,1,00,1,00,1,99999,9,00,1,00,1",,"01,9",,,,"99999,9,08118,1","7,1,016,1,-036,1",,"SYN082AAXX  03211 76373 32980 02304 10146 21151 38118 40043 57016 92055 333 30/// 59036;",
"76373099999","2011-02-04T00:00:00","4","25.35","-105.75","1967.0","TEPEHUANES DGO., MX","FM-12","99999","V020","230,1,N,0040,1","22000,1,9,N","030000,1,N,1","+0098,1","+9999,9","10059,1","24,0000,9,1",,,,"00,1,+99999,9,99,9",,"00,99,1,00,1,00,1,99999,9,00,1,00,1",,,,"120,M,+0152,1","180,N,+0037,1","99999,9,08131,1","2,1,013,1,-023,1",,"SYN094AAXX  04001 76373 32980 02304 10098 38131 40059 52013 92355 333 10152 20037 50691 59023 70000;","Q01  00002PRCP24"
"76373099999","2011-02-04T03:00:00","4","25.35","-105.75","1967.0","TEPEHUANES DGO., MX","FM-12","99999","V020","250,1,N,0010,1","22000,1,9,N","001000,1,N,1","+0064,1","-0144,1","99999,9",,,,,"00,1,+99999,9,99,9",,"00,99,1,00,1,00,1,99999,9,00,1,00,1",,,,,,,,,"SYN082AAXX  04031 76373 32910 02501 10064 21144 25010 38141 40071 90240 333 30/// 59028;",
"76373099999","2011-02-04T15:00:00","4","25.35","-105.75","1967.0","TEPEHUANES DGO., MX","FM-12","99999","V020","999,9,C,0000,1","22000,1,9,N","030000,1,N,1","-0104,1","+9999,9","10157,1",,,,,"00,1,+99999,9,99,9",,"00,99,1,00,1,00,1,99999,9,00,1,00,1",,"01,9",,,,"99999,9,08210,1","2,1,021,1,+061,1",,"SYN082AAXX  04151 76373 32980 00000 11104 2//// 38210 40157 52021 91455 333 30/// 58061;",
"76373099999","2011-02-04T21:00:00","4","25.35","-105.75","1967.0","TEPEHUANES DGO., MX","FM-12","99999","V020","110,1,N,0010,1","22000,1,9,N","030000,1,N,1","+0064,1","-0151,1","10099,1",,,,,"00,1,+99999,9,99,9",,"00,99,1,00,1,00,1,99999,9,00,1,00,1",,"01,9",,,,"99999,9,08164,1","7,1,061,2,+054,1",,"SYN082AAXX  04211 76373 32980 01101 10064 21151 38164 40099 57061 92050 333 30/// 58054;","Q01+000612APC3  "
"76373099999","2011-02-05T00:00:00","4","25.35","-105.75","1967.0","TEPEHUANES DGO., MX","FM-12","99999","V020","110,1,N,0020,1","22000,1,9,N","030000,1,N,1","+0070,1","-0155,1","10091,1","24,0000,9,1",,,,"00,1,+99999,9,99,9",,"00,99,1,00,1,00,1,99999,9,00,1,00,1",,"01,9",,"120,M,+0100,1","180,N,-0160,1","99999,9,08157,1","5,1,007,1,+026,1",,"SYN106AAXX  05001 76373 32980 01102 10070 21155 38157 40091 55007 92355 333 10100 21160 30/// 50271 58026 70000;","Q01  00002PRCP24"
"76373099999","2011-02-05T12:00:00","4","25.35","-105.75","1967.0","TEPEHUANES DGO., MX","FM-12","99999","V020","999,9,C,0000,1","22000,1,9,N","001000,1,N,1","-0108,1","-0109,1","10194,1",,,,,"00,1,+99999,9,99,9",,"00,99,1,00,1,00,1,99999,9,00,1,00,1","0606,9","09,9",,"120,N,-0150,1","240,M,+0100,1","99999,9,08204,1","9,9,999,9,+013,1",,"SYN112AAXX  05121 76373 32910 00000 11108 21109 38204 40194 5//// 91150 333 10100 21150 31164 55101 22093 58013 70000;",
"76373099999","2011-02-05T15:00:00","4","25.35","-105.75","1967.0","TEPEHUANES DGO., MX","FM-12","99999","V020","999,9,C,0000,1","22000,1,9,N","030000,1,N,1","-0080,1","-0168,1","10157,1",,,,,"00,1,+99999,9,99,9",,"00,99,1,00,1,00,1,99999,9,00,1,00,1",,"01,9",,,,"99999,9,08210,1","2,1,006,1,+000,1",,"SYN082AAXX  05151 76373 32980 00000 11080 21168 38210 40157 52006 91455 333 30/// 58000;",
"76373099999","2011-02-05T18:00:00","4","25.35","-105.75","1967.0","TEPEHUANES DGO., MX","FM-12","99999","V020","999,9,C,0000,1","22000,1,9,N","030000,1,N,1","+0064,1","-0159,1","10140,1",,,,,"00,1,+99999,9,99,9",,"00,99,1,00,1,00,1,99999,9,00,1,00,1",,"01,9",,"120,M,+0078,1","240,N,-0150,1","99999,9,08197,1","7,1,013,1,-028,1",,"SYN094AAXX  05181 76373 32980 00000 10064 21159 38197 40140 57013 91750 333 10078 21150 30/// 59028;",
"76373099999","2011-02-05T21:00:00","4","25.35","-105.75","1967.0","TEPEHUANES DGO., MX","FM-12","99999","V020","140,1,N,0010,1","22000,1,9,N","030000,1,N,1","+0160,1","-0157,1","10082,1",,,,,"00,1,+99999,9,99,9",,"00,99,1,00,1,00,1,99999,9,00,1,00,1",,"01,9",,,,"99999,9,08150,1","7,1,047,1,-014,1",,"SYN082AAXX  05211 76373 32980 01401 10160 21157 38150 40082 57047 92050 333 30/// 59014;",
"76373099999","2011-02-06T00:00:00","4","25.35","-105.75","1967.0","TEPEHUANES DGO., MX","FM-12","99999","V020","240,1,N,0010,1","22000,1,9,N","050000,1,N,1","+0190,1","-0185,1","10076,1","24,0000,9,1",,,,"00,1,+99999,9,99,9",,"00,99,1,00,1,00,1,99999,9,00,1,00,1",,"01,9",,"120,M,+0225,1","180,N,-0150,1","99999,9,08145,1","7,1,005,1,-012,1",,"SYN106AAXX  06001 76373 32984 02401 10190 21185 38145 40076 57005 92350 333 10225 21150 30/// 50171 59012 70000;","Q01  00002PRCP24"
"76373099999","2011-02-06T03:00:00","4","25.35","-105.75","1967.0","TEPEHUANES DGO., MX","FM-12","99999","V020","999,9,C,0000,1","22000,1,9,N","010000,1,N,1","+0107,1","-0132,1","10097,1",,,,,"00,1,+99999,9,99,9",,"00,99,1,00,1,00,1,99999,9,00,1,00,1",,"01,9",,,,"99999,9,08162,1","2,1,017,1,-030,1",,"SYN082AAXX  06031 76373 32960 00000 10107 21132 38162 40097 52017 90250 333 30/// 59030;",
"76373099999","2011-02-06T12:00:00","4","25.35","-105.75","1967.0","TEPEHUANES DGO., MX","FM-12","99999","V020","999,9,C,0000,1","22000,1,9,N","010000,1,N,1","+0145,1","-0117,1","10122,1",,,,,"00,1,+99999,9,99,9",,"00,99,1,00,1,00,1,99999,9,00,1,00,1","0060,9","09,9",,"120,N,-0075,1","240,M,+0225,1","99999,9,08182,1","9,9,999,9,-022,1",,"SYN112AAXX  06121 76373 32960 00000 10145 21117 38182 40122 5//// 91150 333 10225 21075 31083 55010 22062 59022 70000;",
"76373099999","2011-02-06T15:00:00","4","25.35","-105.75","1967.0","TEPEHUANES DGO., MX","FM-12","99999","V020","999,9,C,0000,1","22000,1,9,N","030000,1,N,1","+9999,9","-0097,1","10148,1",,,,,"01,1,+05100,1,00,1",,"01,99,1,00,1,00,1,99999,9,00,1,06,1",,"01,9",,,,"99999,9,08203,1","2,1,021,1,-007,1",,"SYN100AAXX  06151 76373 32980 10000 11019 21097 38203 40148 52021 81006 91450 333 30/// 56003 59007 81067;","Q01+000012SCOTLCQ02 -00193ATOT  "
"76373099999","2011-02-06T18:00:00","4","25.35","-105.75","1967.0","TEPEHUANES DGO., MX","FM-12","99999","V020","120,1,N,0010,1","22000,1,9,N","050000,1,N,1","+0141,1","-0102,1","10129,1",,,,,"00,1,+99999,9,99,9",,"00,99,1,00,1,00,1,99999,9,00,1,00,1",,"01,9",,"120,M,+0160,1","240,N,-0075,1","99999,9,08188,1","7,1,015,1,-009,1",,"SYN094AAXX  06181 76373 32984 01201 10141 21102 38188 40129 57015 91740 333 10160 21075 30/// 59009;",
"76373099999","2011-02-07T00:00:00","4","25.35","-105.75","1967.0","TEPEHUANES DGO., MX","FM-12","99999","V020","240,1,N,0010,1","22000,1,9,N","050000,1,N,1","+0208,1","-0059,1","10100,1","24,0000,9,1",,,,"00,1,+99999,9,99,9",,"00,99,1,00,1,00,1,99999,9,00,1,00,1",,"01,9",,"120,M,+0250,1","180,N,-0075,1","99999,9,08164,1","2,1,002,1,+019,1",,"SYN106AAXX  07001 76373 32984 02401 10208 21059 38164 40100 52002 92350 333 10250 21075 30/// 50561 58019 70000;","Q01  00002PRCP24"
"76373099999","2011-02-07T15:00:00","4","25.35","-105.75","1967.0","TEPEHUANES DGO., MX","FM-12","99999","V020","999,9,C,0000,1","22000,1,9,N","045000,1,N,1","-0012,1","-0094,1","10208,1",,,,,"00,1,+99999,9,99,9",,"00,99,1,00,1,00,1,99999,9,00,1,00,1",,"01,9",,,,"99999,9,08252,1","2,1,011,1,+049,1",,"SYN082AAXX  07151 76373 32983 00000 11012 21094 38252 40208 52011 91450 333 30/// 58049;",
"76373099999","2011-02-07T18:00:00","4","25.35","-105.75","1967.0","TEPEHUANES DGO., MX","FM-12","99999","V020","999,9,C,0000,1","22000,1,9,N","045000,1,N,1","+0133,1","-0100,1","10203,1",,,,,"00,1,+99999,9,99,9",,"00,99,1,00,1,00,1,99999,9,00,1,00,1",,"01,9",,"120,M,+0152,1","240,N,-0060,1","99999,9,08248,1","7,1,004,1,+060,1",,"SYN094AAXX  07181 76373 32983 00000 10133 21100 38248 40203 57004 91750 333 10152 21060 30/// 58060;",
"76373099999","2011-02-07T21:00:00","4","25.35","-105.75","1967.0","TEPEHUANES DGO., MX","FM-12","99999","V020","140,1,N,0010,1","22000,1,9,N","045000,1,N,1","+0199,1","-0112,1","10203,1",,,,,"00,1,+99999,9,99,9",,"00,99,1,00,1,00,1,99999,9,00,1,00,1",,"01,9",,,,"99999,9,08248,1","4,1,000,1,+086,1",,"SYN082AAXX  07211 76373 32983 01401 10199 21112 38248 40203 54000 92050 333 30/// 58086;",
"76373099999","2011-02-08T00:00:00","4","25.35","-105.75","1967.0","TEPEHUANES DGO., MX","FM-12","99999","V020","130,1,N,0010,1","22000,1,9,N","045000,1,N,1","+0203,1","-0115,1","99999,9","24,0000,9,1",,,,"00,1,+99999,9,99,9",,"00,99,1,00,1,00,1,99999,9,00,1,00,1",,"01,9",,"120,M,+0230,1","180,N,-0060,1",,"7,1,060,1,+024,1",,"SYN106AAXX  08001 76373 32983 01301 10203 21115 38188 40129 57060 92350 333 10230 21060 30/// 50411 58024 70000;","Q01+081883APOSP Q02  00002PRCP24"
"76373099999","2011-02-08T12:00:00","4","25.35","-105.75","1967.0","TEPEHUANES DGO., MX","FM-12","99999","V020","999,9,C,0000,1","22000,1,9,N","001000,1,N,1","-0036,1","-0101,1","10143,1",,,,,"00,1,+99999,9,99,9",,"00,99,1,00,1,00,1,99999,9,00,1,00,1","0612,9","09,9",,"120,N,-0068,1","240,M,+0230,1","99999,9,08199,1","9,9,999,9,-042,1",,"SYN112AAXX  08121 76373 32910 00000 11036 21101 38199 40143 5//// 91150 333 10230 21068 31080 55102 22013 59042 70000;",
"76373099999","2011-02-08T15:00:00","4","25.35","-105.75","1967.0","TEPEHUANES DGO., MX","FM-12","99999","V020","999,9,C,0000,1","22000,1,9,N","030000,1,N,1","-0012,1","-0090,1","10147,1",,,,,"02,1,+00810,1,07,1",,"04,99,1,02,1,04,1,01250,1,00,1,04,1",,"01,9",,,,"99999,9,08203,1","2,1,004,1,-049,1",,"SYN100AAXX  08151 76373 32680 40000 11012 21090 38203 40147 52004 82404 91450 333 30/// 56909 59049 82727;",
"76373099999","2011-02-08T18:00:00","4","25.35","-105.75","1967.0","TEPEHUANES DGO., MX","FM-12","99999","V020","230,1,N,0030,1","22000,1,9,N","030000,1,N,1","+9999,9","-0119,1","10132,1",,,,,"01,1,+00810,1,08,1",,"01,99,1,01,1,02,1,01250,1,00,1,00,1",,"01,9",,"120,M,+0230,1","240,N,-0068,1","99999,9,08190,1","7,1,013,1,-058,1",,"SYN112AAXX  08181 76373 32680 12303 10220 21119 38190 40132 57013 81200 91750 333 10230 21068 30/// 56900 59058 81827;","Q01+002203ATOT  "
"76373099999","2011-02-08T21:00:00","4","25.35","-105.75","1967.0","TEPEHUANES DGO., MX","FM-12","99999","V020","220,1,N,0040,1","22000,1,9,N","030000,1,N,1","+0230,1","-0158,1","10106,1",,,,,"01,1,+00810,1,08,1",,"01,99,1,01,1,02,1,01250,1,00,1,00,1",,"01,9",,,,"99999,9,08169,1","7,1,021,1,-079,1",,"SYN100AAXX  08211 76373 32680 12204 10230 21158 38169 40106 57021 81200 92050 333 30/// 56900 59079 81827;",
"76373099999","2011-02-09T00:00:00","4","25.35","-105.75","1967.0","TEPEHUANES DGO., MX","FM-12","99999","V020","220,1,N,0020,1","22000,1,9,N","030000,1,N,1","+0198,1","-0100,1","10116,1","24,0000,9,1",,,,,,"01,99,1,01,1,02,1,01250,1,00,1,00,1",,"01,9",,"120,M,+0248,1","180,N,-0068,1","99999,9,08177,1","2,1,008,1,-011,1",,"SYN124AAXX  09001 76373 32680 12202 10198 21100 38177 40116 52008 81200 92350 333 10248 21068 30/// 50561 56900 59011 70000 81827;",
"76373099999","2011-02-09T03:00:00","4","25.35","-105.75","1967.0","TEPEHUANES DGO., MX","FM-12","99999","V020","999,9,C,0000,1","22000,1,9,N","001000,1,N,1","+0126,1","-0081,1","10137,1",,,,,"01,1,+00810,1,08,1",,"01,99,1,01,1,02,1,01250,1,00,1,00,1",,"01,9",,,,"99999,9,08194,1","2,1,017,1,+999,9",,"SYN100AAXX  09031 76373 32610 10000 10126 21081 38194 40137 52017 81200 90235 333 30/// 56900 58/// 81827;",
"76373099999","2011-02-09T12:00:00","4","25.35","-105.75","1967.0","TEPEHUANES DGO., MX","FM-12","99999","V020","999,9,C,0000,1","22000,1,9,N","001000,1,N,1","+0037,1","-0099,1","10131,1",,,,,"00,1,+99999,9,99,9",,"00,99,1,00,1,00,1,99999,9,00,1,00,1","0594,9","01,9","999,+0004,9","120,N,+0020,1","240,M,+0248,1","99999,9,08189,1","9,9,999,9,-010,1",,"SYN112AAXX  09121 76373 32910 00000 10037 21099 38189 40131 5//// 91150 333 10248 20020 30004 55099 22102 59010 70000;",
"76373099999","2011-02-09T15:00:00","4","25.35","-105.75","1967.0","TEPEHUANES DGO., MX","FM-12","99999","V020","999,9,C,0000,1","22000,1,9,N","030000,1,N,1","+0033,1","-0108,1","10144,1",,,,,"02,1,+00810,1,08,1",,"03,99,1,02,1,02,1,01250,1,00,1,00,1",,,,,,"99999,9,08200,1","2,1,011,1,-003,1",,"SYN108AAXX  09151 76373 32680 30000 10033 21108 38200 40144 52011 82200 91450 333 N 30/// 56900 59003 82827 81625;",
"76373099999","2011-02-09T18:00:00","4","25.35","-105.75","1967.0","TEPEHUANES DGO., MX","FM-12","99999","V020","310,1,N,0010,1","22000,1,9,N","030000,1,N,1","+0191,1","-0170,1","10137,1",,,,,"02,1,+00810,1,08,1",,"03,99,1,02,1,02,1,01250,1,01,1,00,1",,"01,9",,"120,M,+0202,1","240,N,+0020,1","99999,9,08195,1","7,1,005,1,+005,1",,"SYN112AAXX  09181 76373 32680 33101 10191 21170 38195 40137 57005 82210 91750 333 10202 20020 30/// 56990 58005 82827;",
"76373099999","2011-02-09T21:00:00","4","25.35","-105.75","1967.0","TEPEHUANES DGO., MX","FM-12","99999","V020","300,1,N,0010,1","00750,1,9,N","030000,1,N,1","+9999,9","-0185,1","10108,1",,,,,"05,1,+00750,1,06,1",,"07,99,1,05,1,06,1,00800,1,00,1,00,1",,"01,9",,,,"99999,9,08171,1","7,1,024,1,+002,1",,"SYN106AAXX  09211 76373 32580 73001 10234 21185 38171 40108 57024 85600 92050 333 30/// 56900 58002 85625 82625;","Q01 +02343ATOT  "
"76373099999","2011-02-10T03:00:00","4","25.35","-105.75","1967.0","TEPEHUANES DGO., MX","FM-12","99999","V020","999,9,C,0000,1","99999,9,9,N","001000,1,N,1","+0137,1","-0155,1","10129,1",,,,,"04,1,+00750,1,06,1",,"05,99,1,04,1,04,1,01250,1,00,1,00,1",,"01,9",,,,"99999,9,08188,1","2,1,010,1,-006,1",,"SYN106AAXX  10031 76373 32610 50000 10137 21155 38188 40129 52010 84400 90245 333 30/// 56900 59006 84625 81827;",
"76373099999","2011-02-10T12:00:00","4","25.35","-105.75","1967.0","TEPEHUANES DGO., MX","FM-12","99999","V020","999,9,C,0000,1","22000,1,9,N","001000,1,N,1","-0079,1","-0112,1","10116,1",,,,,"00,1,+99999,9,99,9",,"00,99,1,00,1,00,1,99999,9,00,1,00,1","0528,9","09,9",,"120,N,+9999,9","240,M,+0256,1","99999,9,08178,1","9,9,999,9,-011,1",,"SYN112AAXX  10121 76373 32910 00000 11079 21112 38178 40116 5//// 91150 333 10256 21034 31051 55088 21756 59011 70000;","Q01 -00342ATMN  "
"76373099999","2011-02-10T15:00:00","4","25.35","-105.75","1967.0","TEPEHUANES DGO., MX","FM-12","99999","V020","999,9,C,0000,1","22000,1,9,N","030000,1,N,1","+0009,1","-0124,1","10130,1",,,,,"00,1,+99999,9,99,9",,"00,99,1,00,1,00,1,99999,9,00,1,00,1",,"01,9",,,,"99999,9,08189,1","2,1,011,1,-012,1",,"SYN082AAXX  10151 76373 32980 00000 10009 21124 38189 40130 52011 91450 333 30/// 59012;",
"76373099999","2011-02-10T18:00:00","4","25.35","-105.75","1967.0","TEPEHUANES DGO., MX","FM-12","99999","V020","999,9,C,0000,1","22000,1,9,N","030000,1,N,1","+9999,9","-0145,1","10124,1",,,,,"00,1,+99999,9,99,9",,"00,99,1,00,1,00,1,99999,9,00,1,00,1",,"01,9",,"120,M,+0190,1","240,N,-0034,1","99999,9,08184,1","7,1,005,1,-011,1",,"SYN094AAXX  10181 76373 32980 00000 10176 21145 38184 40124 57005 91755 333 10190 21034 30/// 59011;","Q01+001763ATOT  "
"76373099999","2011-02-10T21:00:00","4","25.35","-105.75","1967.0","TEPEHUANES DGO., MX","FM-12","99999","V020","290,1,N,0030,1","22000,1,9,N","030000,1,N,1","+0232,1","-0140,1","10091,1",,,,,"00,1,+99999,9,99,9",,"00,99,1,00,1,00,1,99999,9,00,1,00,1",,"01,9",,,,"99999,9,08157,1","7,1,027,1,-014,1",,"SYN082AAXX  10211 76373 32980 02903 10232 21140 38157 40091 57027 92055 333 30/// 59014;",
"76373099999","2011-02-11T00:00:00","4","25.35","-105.75","1967.0","TEPEHUANES DGO., MX","FM-12","99999","V020","250,1,N,0020,1","22000,1,9,N","030000,1,N,1","+0210,1","-0113,1","10099,1","24,0000,9,1",,,,"00,1,+99999,9,99,9",,"00,99,1,00,1,00,1,99999,9,00,1,00,1",,"01,9",,"120,M,+0250,1","180,N,-0034,1","99999,9,08164,1","3,1,007,1,-014,1",,"SYN106AAXX  11001 76373 32980 02502 10210 21113 38164 40099 53007 92350 333 10250 21034 30/// 50701 59014 70000;","Q01  00002PRCP24"
"76373099999","2011-02-11T03:00:00","4","25.35","-105.75","1967.0","TEPEHUANES DGO., MX","FM-12","99999","V020","290,1,N,0010,1","22000,1,9,N","001000,1,N,1","+0128,1","-0124,1","10119,1",,,,,"00,1,+99999,9,99,9",,"00,99,1,00,1,00,1,99999,9,00,1,00,1",,"01,9",,,,"99999,9,08180,1","7,1,016,1,-008,1",,"SYN082AAXX  11031 76373 32910 02901 10128 21124 38180 40119 57016 90255 333 30/// 59008;",
"76373099999","2011-02-11T12:00:00","4","25.35","-105.75","1967.0","TEPEHUANES DGO., MX","FM-12","99999","V020","999,9,C,0000,1","22000,1,9,N","001000,1,N,1","-0024,1","-0113,1","10134,1",,,,,"00,1,+99999,9,99,9",,"00,99,1,00,1,00,1,99999,9,00,1,00,1","0630,9","09,9",,"120,N,-0070,1","240,M,+0250,1","99999,9,08192,1","9,9,999,9,+014,1",,"SYN112AAXX  11121 76373 32910 00000 11024 21113 38192 40134 5//// 91150 333 10250 21070 31082 55105 22134 58014 70000;",
"76373099999","2011-02-11T15:00:00","4","25.35","-105.75","1967.0","TEPEHUANES DGO., MX","FM-12","99999","V020","999,9,C,0000,1","22000,1,9,N","030000,1,N,1","+0024,1","-0096,1","10151,1",,,,,"00,1,+99999,9,99,9",,"00,99,1,00,1,00,1,99999,9,00,1,00,1",,"01,9",,,,"99999,9,08206,1","2,1,014,1,+017,1",,"SYN082AAXX  11151 76373 32980 00000 10024 21096 38206 40151 52014 91455 333 30/// 58017;",
"76373099999","2011-02-11T18:00:00","4","25.35","-105.75","1967.0","TEPEHUANES DGO., MX","FM-12","99999","V020","999,9,C,0000,1","22000,1,9,N","030000,1,N,1","+9999,9","-0128,1","10147,1",,,,,"00,1,+99999,9,99,9",,"00,99,1,00,1,00,1,99999,9,00,1,00,1",,"01,9",,"120,M,+0210,1","240,N,-0070,1","99999,9,08203,1","8,1,003,1,+023,1",,"SYN094AAXX  11181 76373 32980 00000 10194 21128 38203 40147 58003 91755 333 10210 21070 30/// 58023;","Q01+001943ATOT  "
"76373099999","2011-02-11T21:00:00","4","25.35","-105.75","1967.0","TEPEHUANES DGO., MX","FM-12","99999","V020","320,1,N,0040,1","22000,1,9,N","030000,1,N,1","+0236,2","-0124,1","10120,1",,,,,"03,1,+05100,1,00,1",,"03,99,1,00,1,00,1,99999,9,00,1,03,1",,"01,9",,,,"99999,9,08180,1","7,1,023,1,+023,1",,"SYN100AAXX  11211 76373 32980 33204 10236 21124 38180 40120 57023 83003 92055 333 30/// 56009 58023 83067;","Q01+000032SCOTLC"
"76373099999","2011-02-12T00:00:00","4","25.35","-105.75","1967.0","TEPEHUANES DGO., MX","FM-12","99999","V020","320,1,N,0030,1","22000,1,9,N","030000,1,N,1","+0210,1","-0094,1","10132,1","24,0000,9,1",,,,,,"04,99,1,00,1,00,1,99999,9,00,1,04,1",,"01,9",,"120,M,+0252,1","180,N,-0070,1","99999,9,08191,1","2,1,011,1,+027,1",,"SYN124AAXX  12001 76373 32980 43203 10210 21094 38191 40132 52011 84004 92355 333 10252 21070 30/// 50691 56009 58027 70000 84067;","Q01+000042SCOTLC"
"76373099999","2011-02-12T03:00:00","4","25.35","-105.75","1967.0","TEPEHUANES DGO., MX","FM-12","99999","V020","290,1,N,0010,1","22000,1,9,N","001000,1,N,1","+0138,1","-0070,1","10165,1",,,,,"00,1,+99999,9,99,9",,"00,99,1,00,1,00,1,99999,9,00,1,00,1",,"01,9",,,,"99999,9,08217,1","2,1,026,1,+037,1",,"SYN082AAXX  12031 76373 32910 02901 10138 21070 38217 40165 52026 90250 333 30/// 58037;",
"76373099999","2011-02-12T12:00:00","4","25.35","-105.75","1967.0","TEPEHUANES DGO., MX","FM-12","99999","V020","999,9,C,0000,1","22000,1,9,N","001000,1,N,1","-0016,1","-0084,1","10215,1",,,,,"00,1,+99999,9,99,9",,"00,99,1,00,1,00,1,99999,9,00,1,00,1","0630,9","09,9",,"120,N,-0060,1","240,M,+0252,1","99999,9,08257,1","9,9,999,9,+065,1",,"SYN112AAXX  12121 76373 32910 00000 11016 21084 38257 40215 5//// 91150 333 10252 21060 31074 55105 22013 58065 70000;",
"76373099999","2011-02-12T18:00:00","4","25.35","-105.75","1967.0","TEPEHUANES DGO., MX","FM-12","99999","V020","999,9,C,0000,1","22000,1,9,N","030000,1,N,1","+0146,1","-0085,1","10247,1",,,,,"00,1,+99999,9,99,9",,"00,99,1,00,1,00,1,99999,9,00,1,00,1",,"01,9",,"120,M,+9999,9","240,N,-0060,1","99999,9,08279,1","2,1,002,1,+076,1",,"SYN094AAXX  12181 76373 32980 00000 10146 21085 38279 40247 52002 91755 333 10120 21060 30/// 58076;","Q01 +01202ATMX  "
"76373099999","2011-02-12T21:00:00","4","25.35","-105.75","1967.0","TEPEHUANES DGO., MX","FM-12","99999","V020","140,1,N,0010,1","22000,1,9,N","030000,1,N,1","+0194,1","-0103,1","99999,9",,,,,"00,1,+99999,9,99,9",,"00,99,1,00,1,00,1,99999,9,00,1,00,1",,"01,9",,,,"99999,9,08250,1","7,1,029,1,+070,1",,"SYN082AAXX  12211 76373 32980 01401 10194 21103 38250 40124 57029 92040 333 30/// 58070;","Q01+101243APOSLP"
"76373099999","2011-02-13T00:00:00","4","25.35","-105.75","1967.0","TEPEHUANES DGO., MX","FM-12","99999","V020","130,1,N,0010,1","22000,1,9,N","045000,1,N,1","+0184,1","-0108,1","10195,1","24,0000,9,1",,,,"00,1,+99999,9,99,9",,"00,99,1,00,1,00,1,99999,9,00,1,00,1",,"01,9",,"120,M,+0220,1","180,N,-0060,1","99999,9,08241,1","7,1,009,1,+061,1",,"SYN106AAXX  13001 76373 32983 01301 10184 21108 38241 40195 57009 92350 333 10220 21060 30/// 50401 58061 70000;","Q01  00002PRCP24"
"76373099999","2011-02-13T15:00:00","4","25.35","-105.75","1967.0","TEPEHUANES DGO., MX","FM-12","99999","V020","999,9,C,0000,1","22000,1,9,N","030000,1,N,1","-0004,1","-0103,1","10248,1",,,,,"00,1,+99999,9,99,9",,"00,99,1,00,1,00,1,99999,9,00,1,00,1",,"01,9",,,,"99999,9,08284,1","2,1,011,1,+003,1",,"SYN082AAXX  13151 76373 32980 00000 11004 21103 38284 40248 52011 91450 333 30/// 58003;",
"76373099999","2011-02-13T18:00:00","4","25.35","-105.75","1967.0","TEPEHUANES DGO., MX","FM-12","99999","V020","999,9,C,0000,1","22000,1,9,N","045000,1,N,1","+0141,1","-0102,1","10233,1",,,,,"00,1,+99999,9,99,9",,"00,99,1,00,1,00,1,99999,9,00,1,00,1",,"01,9",,"120,M,+0162,1","240,N,-0075,1","99999,9,08272,1","7,1,012,1,-007,1",,"SYN094AAXX  13181 76373 32983 00000 10141 21102 38272 40233 57012 91745 333 10162 21075 30/// 59007;",
"76373099999","2011-02-13T21:00:00","4","25.35","-105.75","1967.0","TEPEHUANES DGO., MX","FM-12","99999","V020","130,1,N,0010,1","22000,1,9,N","040000,1,N,1","+0245,1","-0120,1","10167,1",,,,,,,"01,99,1,99,9,99,9,99999,9,99,9,99,9",,"01,9",,,,"99999,9,08218,1","7,1,054,1,-032,1",,"SYN082AAXX  13211 76373 32982 11301 10245 21120 38218 40167 57054 92050 333 30/// 59032;",
"76373099999","2011-02-14T00:00:00","4","25.35","-105.75","1967.0","TEPEHUANES DGO., MX","FM-12","99999","V020","270,1,N,0010,1","22000,1,9,N","045000,1,N,1","+0254,1","-0095,1","10157,1","24,0000,9,1",,,,,,"03,99,1,00,1,00,1,99999,9,00,1,04,1",,"01,9",,"120,M,+0287,1","180,N,-0075,1","99999,9,08210,1","7,1,008,1,+031,1",,"SYN124AAXX  14001 76373 32983 32701 10254 21095 38210 40157 57008 83004 92350 333 10287 21075 30/// 50431 56009 58031 70000 83067;","Q01+000032SCOTLC"
"76373099999","2011-02-14T03:00:00","4","25.35","-105.75","1967.0","TEPEHUANES DGO., MX","FM-12","99999","V020","999,9,C,0000,1","22000,1,9,N","010000,1,N,1","+0143,1","-0077,1","10193,1",,,,,"00,1,+99999,9,99,9",,"00,99,1,00,1,00,1,99999,9,00,1,00,1",,"01,9",,,,"99999,9,08240,1","2,1,030,1,-018,1",,"SYN082AAXX  14031 76373 32960 00000 10143 21077 38240 40193 52030 90250 333 30/// 59018;",
"76373099999","2011-02-14T12:00:00","4","25.35","-105.75","1967.0","TEPEHUANES DGO., MX","FM-12","99999","V020","999,9,C,0000,1","22000,1,9,N","010000,1,N,1","+0002,1","-0070,1","10213,1",,,,,"00,1,+99999,9,99,9",,"00,99,1,00,1,00,1,99999,9,00,1,00,1","0618,9","09,9","999,-0040,9","120,N,-0020,1","240,M,+0287,1","99999,9,08256,1","9,9,999,9,-017,1",,"SYN112AAXX  14121 76373 32960 00000 10002 21070 38256 40213 5//// 91150 333 10287 21020 31040 55103 22021 59017 70000;",
"76373099999","2011-02-14T15:00:00","4","25.35","-105.75","1967.0","TEPEHUANES DGO., MX","FM-12","99999","V020","999,9,C,0000,1","22000,1,9,N","040000,1,N,1","+0033,1","-0064,1","10234,1",,,,,"02,1,+05100,1,00,1",,"02,99,1,00,1,00,1,99999,9,00,1,08,1",,"01,9",,,,"99999,9,08272,1","2,1,006,1,-012,1",,"SYN100AAXX  14151 76373 32982 20000 10033 21064 38272 40234 52006 82008 91450 333 30/// 56009 59012 82067;","Q01+000022SCOTLC"
"76373099999","2011-02-14T21:00:00","4","25.35","-105.75","1967.0","TEPEHUANES DGO., MX","FM-12","99999","V020","130,1,N,0010,1","22000,1,9,N","045000,1,N,1","+0263,2","-0117,1","10165,1",,,,,"00,1,+99999,9,99,9",,"00,99,1,00,1,00,1,99999,9,00,1,00,1",,"01,9",,,,"99999,9,08217,1","7,1,035,1,-001,1",,"SYN082AAXX  14211 76373 32983 01301 10263 21117 38217 40165 57035 92050 333 30/// 59001;",
"76373099999","2011-02-15T00:00:00","4","25.35","-105.75","1967.0","TEPEHUANES DGO., MX","FM-12","99999","V020","140,1,N,0010,1","22000,1,9,N","045000,1,N,1","+0262,1","-0128,1","10151,1","24,0000,9,1",,,,"00,1,+99999,9,99,9",,"00,99,1,00,1,00,1,99999,9,00,1,00,1",,"01,9",,"120,M,+0300,1","180,N,-0020,1","99999,9,08206,1","7,1,011,1,-004,1",,"SYN106AAXX  15001 76373 32983 01401 10262 21128 38206 40151 57011 92350 333 10300 21020 30/// 50511 59004 70000;","Q01  00002PRCP24"
"76373099999","2011-02-15T12:00:00","4","25.35","-105.75","1967.0","TEPEHUANES DGO., MX","FM-12","99999","V020","999,9,C,0000,1","22000,1,9,N","001000,1,N,1","+0005,1","-0072,1","10191,1",,,,,"00,1,+99999,9,99,9",,"00,99,1,00,1,00,1,99999,9,00,1,00,1","0612,9","09,9","999,-0026,9","120,N,-0012,1","240,M,+0300,1","99999,9,08238,1","9,9,999,9,-018,1",,"SYN112AAXX  15121 76373 32910 00000 10005 21072 38238 40191 5//// 91150 333 10300 21012 31026 55102 22110 59018 70000;",
"76373099999","2011-02-15T15:00:00","4","25.35","-105.75","1967.0","TEPEHUANES DGO., MX","FM-12","99999","V020","999,9,C,0000,1","22000,1,9,N","030000,1,N,1","+0039,1","-0074,1","10206,1",,,,,"00,1,+99999,9,99,9",,"00,99,1,00,1,00,1,99999,9,00,1,00,1",,"01,9",,,,"99999,9,08250,1","2,1,012,1,-020,1",,"SYN082AAXX  15151 76373 32980 00000 10039 21074 38250 40206 52012 91450 333 30/// 59020;",
"76373099999","2011-02-15T21:00:00","4","25.35","-105.75","1967.0","TEPEHUANES DGO., MX","FM-12","99999","V020","140,1,N,0010,1","22000,1,9,N","030000,1,N,1","+9999,9","-0077,1","10139,1",,,,,"01,1,+00810,1,08,1",,"01,99,1,01,1,01,1,01250,1,00,1,00,1",,"01,9",,,,"99999,9,08196,1","9,9,999,9,-021,1",,"SYN100AAXX  15211 76373 32680 11401 10289 21077 38196 40139 5//// 81100 92050 333 30/// 56900 59021 81827;","Q01+002893ATOT  "
"76373099999","2011-02-16T00:00:00","4","25.35","-105.75","1967.0","TEPEHUANES DGO., MX","FM-12","99999","V020","240,1,N,0020,1","22000,1,9,N","030000,1,N,1","+0276,1","-0053,1","10129,1","24,0000,9,1",,,,"00,1,+99999,9,99,9",,"00,99,1,00,1,00,1,99999,9,00,1,00,1",,"01,9",,"120,M,+0326,1","180,N,-0012,1","99999,9,08188,1","7,1,008,1,-018,1",,"SYN106AAXX  16001 76373 32980 02402 10276 21053 38188 40129 57008 92350 333 10326 21012 30/// 50521 59018 70000;","Q01  00002PRCP24"
"76373099999","2011-02-16T03:00:00","4","25.35","-105.75","1967.0","TEPEHUANES DGO., MX","FM-12","99999","V020","999,9,C,0000,1","22000,1,9,N","001000,1,N,1","+0180,1","-0040,1","10160,1",,,,,"00,1,+99999,9,99,9",,"00,99,1,00,1,00,1,99999,9,00,1,00,1",,"01,9",,,,"99999,9,08213,1","2,1,025,1,+999,9",,"SYN082AAXX  16031 76373 32910 00000 10180 21040 38213 40160 52025 90250 333 30/// 58///;",
"76373099999","2011-02-16T12:00:00","4","25.35","-105.75","1967.0","TEPEHUANES DGO., MX","FM-12","99999","V020","999,9,C,0000,1","22000,1,9,N","001000,1,N,1","+0031,1","-0053,1","10168,1",,,,,"00,1,+99999,9,99,9",,"00,99,1,00,1,00,1,99999,9,00,1,00,1","0624,9","01,9","999,+0002,9","120,N,+0012,1","240,M,+0326,1","99999,9,08219,1","9,9,999,9,-019,1",,"SYN112AAXX  16121 76373 32910 00000 10031 21053 38219 40168 5//// 91150 333 10326 20012 30002 55104 22102 59019 70000;",
"76373099999","2011-02-16T15:00:00","4","25.35","-105.75","1967.0","TEPEHUANES DGO., MX","FM-12","99999","V020","999,9,C,0000,1","22000,1,9,N","030000,1,N,1","+0057,1","-0044,1","10186,1",,,,,"00,1,+99999,9,99,9",,"00,99,1,00,1,00,1,99999,9,00,1,00,1",,"01,9",,,,"99999,9,08234,1","2,1,015,1,-016,1",,"SYN082AAXX  16151 76373 32980 00000 10057 21044 38234 40186 52015 91450 333 30/// 59016;",
"76373099999","2011-02-16T18:00:00","4","25.35","-105.75","1967.0","TEPEHUANES DGO., MX","FM-12","99999","V020","999,9,C,0000,1","22000,1,9,N","070000,1,N,1","+0213,1","-0033,1","10175,1",,,,,"00,1,+99999,9,99,9",,"00,99,1,00,1,00,1,99999,9,00,1,00,1",,"01,9",,"120,M,+0231,1","240,N,+0012,1","99999,9,08225,1","7,1,009,1,+999,9",,"SYN094AAXX  16181 76373 32988 00000 10213 21033 38225 40175 57009 91740 333 10231 20012 30/// 58///;",
"76373099999","2011-02-16T21:00:00","4","25.35","-105.75","1967.0","TEPEHUANES DGO., MX","FM-12","99999","V020","120,1,N,0010,1","22000,1,9,N","030000,1,N,1","+0302,2","-0071,1","10120,1",,,,,"00,1,+99999,9,99,9",,"00,99,1,00,1,00,1,99999,9,00,1,00,1",,"01,9",,,,"99999,9,08181,1","7,1,044,1,-015,1",,"SYN082AAXX  16211 76373 32980 01201 10302 21071 38181 40120 57044 92050 333 30/// 59015;",
"76373099999","2011-02-17T00:00:00","4","25.35","-105.75","1967.0","TEPEHUANES DGO., MX","FM-12","99999","V020","230,1,N,0020,1","22000,1,9,N","070000,1,N,1","+0263,1","-0053,1","10126,1","24,0000,9,1",,,,,,"01,99,1,00,1,00,1,99999,9,00,1,04,1",,"01,9",,"120,M,+0328,1","180,N,+0012,1","99999,9,08185,1","3,1,004,1,-003,1",,"SYN124AAXX  17001 76373 32988 12302 10263 21053 38185 40126 53004 80004 92350 333 10328 20012 30/// 50461 56009 59003 70000 81067;",
"76373099999","2011-02-17T03:00:00","4","25.35","-105.75","1967.0","TEPEHUANES DGO., MX","FM-12","99999","V020","230,1,N,0010,1","22000,1,9,N","000800,1,N,1","+0183,1","-0026,1","10155,1",,,,,"00,1,+99999,9,99,9",,"00,99,1,00,1,00,1,99999,9,00,1,00,1",,"01,9",,,,"99999,9,08209,1","2,1,024,1,-004,1",,"SYN082AAXX  17031 76373 32908 02301 10183 21026 38209 40155 52024 90250 333 30/// 59004;",
"76373099999","2011-02-17T12:00:00","4","25.35","-105.75","1967.0","TEPEHUANES DGO., MX","FM-12","99999","V020","999,9,C,0000,1","22000,1,9,N","000800,1,N,1","+0020,1","-0028,1","10160,1",,,,,"00,1,+99999,9,99,9",,"00,99,1,00,1,00,1,99999,9,00,1,00,1","0630,9","09,9","999,-0013,9","120,N,+0002,1","240,M,+0326,1","99999,9,08213,1","9,9,999,9,-005,1",,"SYN112AAXX  17121 76373 32908 00000 10020 21028 38213 40160 5//// 91150 333 10326 20002 31013 55105 2//// 59005 70000;",
"76373099999","2011-02-17T15:00:00","4","25.35","-105.75","1967.0","TEPEHUANES DGO., MX","FM-12","99999","V020","999,9,C,0000,1","22000,1,9,N","070000,1,N,1","+0047,1","-0026,1","10183,1",,,,,"01,1,+00810,1,08,1",,"02,99,1,01,1,02,1,01250,1,00,1,04,1",,"01,9",,,,"99999,9,08232,1","2,1,019,1,-002,1",,"SYN100AAXX  17151 76373 32688 20000 10047 21026 38232 40183 52019 81204 91450 333 30/// 56109 59002 81827;",
"76373099999","2011-02-18T00:00:00","4","25.35","-105.75","1967.0","TEPEHUANES DGO., MX","FM-12","99999","V020","230,1,N,0030,1","22000,1,9,N","030000,1,N,1","+0248,1","-0116,1","10141,1","24,0000,9,1",,,,,,"02,99,1,00,1,00,1,99999,9,00,1,02,1",,"01,9",,"120,M,+0300,1","180,N,+0002,1","99999,9,08197,1","5,1,001,1,+012,1",,"SYN124AAXX  18001 76373 32980 22303 10248 21116 38197 40141 55001 82002 92355 333 10300 20002 30/// 50701 56009 58012 70000 82067;","Q01+000022SCOTLC"
"76373099999","2011-02-18T03:00:00","4","25.35","-105.75","1967.0","TEPEHUANES DGO., MX","FM-12","99999","V020","999,9,C,0000,1","22000,1,9,N","001000,1,N,1","+0164,1","-0070,1","10164,1",,,,,"00,1,+99999,9,99,9",,"00,99,1,00,1,00,1,99999,9,00,1,00,1",,"01,9",,,,"99999,9,08216,1","2,1,021,1,+007,1",,"SYN082AAXX  18031 76373 32910 00000 10164 21070 38216 40164 52021 90250 333 30/// 58007;",
"76373099999","2011-02-18T15:00:00","4","25.35","-105.75","1967.0","TEPEHUANES DGO., MX","FM-12","99999","V020","999,9,C,0000,1","22000,1,9,N","030000,1,N,1","+0036,1","-0043,1","10194,1",,,,,"03,1,+00750,1,08,1",,"03,99,1,03,1,03,1,00800,1,00,1,00,1",,"01,9",,,,"99999,9,08240,1","2,1,028,1,+008,1",,"SYN100AAXX  18151 76373 32580 30000 10036 21043 38240 40194 52028 83300 91455 333 30/// 56900 58008 83825;",
"76373099999","2011-02-18T18:00:00","4","25.35","-105.75","1967.0","TEPEHUANES DGO., MX","FM-12","99999","V020","999,9,C,0000,1","22000,1,9,N","030000,1,N,1","+9999,9","-0042,1","10183,1",,,,,"01,1,+00750,1,08,1",,"01,99,1,01,1,01,1,00800,1,00,1,00,1",,,,"120,M,+0230,1","240,N,-0030,1","99999,9,08231,1","5,1,002,1,+000,1",,"SYN106AAXX  18181 76373 32580 10000 10210 21042 38231 40183 55002 81100 91755 333 10230 21030 56900 58000 81825;","Q01+002103ATOT  "
"76373099999","2011-02-18T21:00:00","4","25.35","-105.75","1967.0","TEPEHUANES DGO., MX","FM-12","99999","V020","230,1,N,0030,1","22000,1,9,N","030000,1,N,1","+0290,2","-0093,1","10152,1",,,,,"02,1,+01500,1,03,1",,"02,99,1,02,1,00,1,00800,1,02,1,00,1",,"01,9",,,,"99999,9,08206,1","7,1,035,1,+008,1",,"SYN100AAXX  18211 76373 32580 22303 10290 21093 38206 40152 57035 82020 92050 333 30/// 56090 58008 82350;",
"76373099999","2011-02-19T00:00:00","4","25.35","-105.75","1967.0","TEPEHUANES DGO., MX","FM-12","99999","V020","250,1,N,0020,1","22000,1,9,N","030000,1,N,1","+0256,1","-0072,1","10150,1","24,0000,9,1",,,,,,"02,99,1,02,1,00,1,00800,1,02,1,00,1",,"01,9",,"120,M,+0302,1","180,N,-0030,1","99999,9,08205,1","5,1,001,1,+008,1",,"SYN124AAXX  19001 76373 32580 22502 10256 21072 38205 40150 55001 82020 92355 333 10302 21030 30/// 50571 56090 58008 70000 82337;",
"76373099999","2011-02-19T03:00:00","4","25.35","-105.75","1967.0","TEPEHUANES DGO., MX","FM-12","99999","V020","320,1,N,0010,1","22000,1,9,N","001000,1,N,1","+0176,1","-0026,1","10170,1",,,,,"03,1,+01110,1,03,1",,"03,99,1,03,1,00,1,00800,1,03,1,00,1",,"01,9",,,,"99999,9,08221,1","2,1,024,1,+005,1",,"SYN100AAXX  19031 76373 32510 33201 10176 21026 38221 40170 52024 83030 90255 333 30/// 56090 58005 83337;",
"76373099999","2011-02-19T15:00:00","4","25.35","-105.75","1967.0","TEPEHUANES DGO., MX","FM-12","99999","V020","999,9,C,0000,1","22000,1,9,N","030000,1,N,1","+0062,1","+9999,9","99999,9",,,,,"00,1,+99999,9,99,9",,"00,99,1,00,1,00,1,99999,9,00,1,00,1",,,,,,,,,"SYN082AAXX  19151 76373 32980 00000 10062 2106 38236 40189 52010 91455 333 3 0/// 59004;",
"76373099999","2011-02-19T18:00:00","4","25.35","-105.75","1967.0","TEPEHUANES DGO., MX","FM-12","99999","V020","999,9,C,0000,1","22000,1,9,N","030000,1,N,1","+0190,1","-0033,1","10172,1",,,,,"00,1,+99999,9,99,9",,"00,99,1,00,1,00,1,99999,9,00,1,00,1",,"01,9",,"120,M,+0238,1","240,N,-0008,1","99999,9,08222,1","7,1,014,1,-009,1",,"SYN094AAXX  19181 76373 32980 00000 10190 21033 38222 40172 57014 91750 333 10238 21008 30/// 59009;",
"76373099999","2011-02-19T21:00:00","4","25.35","-105.75","1967.0","TEPEHUANES DGO., MX","FM-12","99999","V020","250,1,N,0030,1","22000,1,9,N","030000,1,N,1","+0288,2","-0045,1","10134,1",,,,,"00,1,+99999,9,99,9",,"00,99,1,00,1,00,1,99999,9,00,1,00,1",,"01,9",,,,"99999,9,08192,1","7,1,030,1,-014,1",,"SYN082AAXX  19211 76373 32980 02503 10288 21045 38192 40134 57030 92055 333 30/// 59014;",
"76373099999","2011-02-20T00:00:00","4","25.35","-105.75","1967.0","TEPEHUANES DGO., MX","FM-12","99999","V020","200,1,N,0020,1","22000,1,9,N","045000,1,N,1","+0249,1","-0033,1","10140,1","24,0000,9,1",,,,"00,1,+99999,9,99,9",,"00,99,1,00,1,00,1,99999,9,00,1,00,1",,"01,9",,"120,M,+0305,1","180,N,-0008,1","99999,9,08197,1","2,1,005,1,-008,1",,"SYN106AAXX  20001 76373 32983 02002 10249 21033 38197 40140 52005 92350 333 10305 21008 30/// 50601 59008 70000;","Q01  00002PRCP24"
"76373099999","2011-02-20T03:00:00","4","25.35","-105.75","1967.0","TEPEHUANES DGO., MX","FM-12","99999","V020","210,1,N,0010,1","22000,1,9,N","010000,1,N,1","+0172,1","-0033,1","10153,1",,,,,"00,1,+99999,9,99,9",,"00,99,1,00,1,00,1,99999,9,00,1,00,1",,"01,9",,,,"99999,9,08207,1","2,1,010,1,-014,1",,"SYN082AAXX  20031 76373 32960 02101 10172 21033 38207 40153 52010 90240 333 30/// 59014;",
"76373099999","2011-02-20T12:00:00","4","25.35","-105.75","1967.0","TEPEHUANES DGO., MX","FM-12","99999","V020","999,9,C,0000,1","22000,1,9,N","010000,1,N,1","+0008,1","-0039,1","10154,1",,,,,"00,1,+99999,9,99,9",,"00,99,1,00,1,00,1,99999,9,00,1,00,1","0618,9","09,9","999,-0035,9","120,N,-0015,1","240,M,+0305,1","99999,9,08208,1","9,9,999,9,-018,1",,"SYN112AAXX  20121 76373 32960 00000 10008 21039 38208 40154 5//// 91150 333 10305 21015 31035 55103 22021 59018 70000;",
"76373099999","2011-02-20T15:00:00","4","25.35","-105.75","1967.0","TEPEHUANES DGO., MX","FM-12","99999","V020","999,9,C,0000,1","22000,1,9,N","045000,1,N,1","+0059,1","-0033,1","10158,1",,,,,"00,1,+99999,9,99,9",,"00,99,1,00,1,00,1,99999,9,00,1,00,1",,"01,9",,,,"99999,9,08211,1","2,1,003,1,-025,1",,"SYN082AAXX  20151 76373 32983 00000 10059 21033 38211 40158 52003 91450 333 30/// 59025;",
"76373099999","2011-02-20T18:00:00","4","25.35","-105.75","1967.0","TEPEHUANES DGO., MX","FM-12","99999","V020","300,1,N,0010,1","22000,1,9,N","045000,1,N,1","+9999,9","-0036,1","10135,1",,,,,"00,1,+99999,9,99,9",,"00,99,1,00,1,00,1,99999,9,00,1,00,1",,"01,9",,"120,M,+0240,1","240,N,-0015,1","99999,9,08193,1","7,1,018,1,-031,1",,"SYN094AAXX  20181 76373 32983 03001 10227 21036 38193 40135 57018 91735 333 10240 21015 30/// 59031;","Q01+002273ATOT  "
"76373099999","2011-02-20T21:00:00","4","25.35","-105.75","1967.0","TEPEHUANES DGO., MX","FM-12","99999","V020","250,1,N,0030,1","22000,1,9,N","045000,1,N,1","+0276,2","-0085,1","10097,1",,,,,"00,1,+99999,9,99,9",,"00,99,1,00,1,00,1,99999,9,00,1,00,1",,"01,9",,,,"99999,9,08162,1","7,1,025,1,-030,1",,"SYN082AAXX  20211 76373 32983 02503 10276 21085 38162 40097 57025 92050 333 30/// 59030;",
"76373099999","2011-02-21T00:00:00","4","25.35","-105.75","1967.0","TEPEHUANES DGO., MX","FM-12","99999","V020","210,1,N,0020,1","22000,1,9,N","045000,1,N,1","+0245,1","-0093,1","10098,1","24,0000,9,1",,,,"00,1,+99999,9,99,9",,"00,99,1,00,1,00,1,99999,9,00,1,00,1",,"01,9",,"120,M,+0295,1","180,N,-0015,1","99999,9,08163,1","1,1,001,1,-030,1",,"SYN106AAXX  21001 76373 32983 02102 10245 21093 38163 40098 51001 92350 333 10295 21015 30/// 50561 59030 70000;","Q01  00002PRCP24"
"76373099999","2011-02-21T12:00:00","4","25.35","-105.75","1967.0","TEPEHUANES DGO., MX","FM-12","99999","V020","999,9,C,0000,1","22000,1,9,N","010000,1,N,1","-0008,1","-0065,1","10117,1",,,,,"00,1,+99999,9,99,9",,"00,99,1,00,1,00,1,99999,9,00,1,00,1","0084,9","09,9",,"120,N,-0030,1","240,M,+0295,1","99999,9,08178,1","9,9,999,9,-030,1",,"SYN112AAXX  21121 76373 32960 00000 11008 21065 38178 40117 5//// 91150 333 10295 21030 31052 55014 22158 59030 70000;",
"76373099999","2011-02-21T18:00:00","4","25.35","-105.75","1967.0","TEPEHUANES DGO., MX","FM-12","99999","V020","080,1,N,0010,1","22000,1,9,N","045000,1,N,1","+0229,1","-0112,1","10112,1",,,,,"00,1,+99999,9,99,9",,"00,99,1,00,1,00,1,99999,9,00,1,00,1",,"01,9",,"120,M,+0245,1","240,N,-0030,1","99999,9,08174,1","7,1,018,1,-019,1",,"SYN094AAXX  21181 76373 32983 00801 10229 21112 38174 40112 57018 91750 333 10245 21030 30/// 59019;",
"76373099999","2011-02-21T21:00:00","4","25.35","-105.75","1967.0","TEPEHUANES DGO., MX","FM-12","99999","V020","180,1,N,0020,1","22000,1,9,N","045000,1,N,1","+0267,1","+9999,9","99999,9",,,,,"00,1,+99999,9,99,9",,"00,99,1,00,1,00,1,99999,9,00,1,00,1",,,,,,,,,"SYN088AAXX  21211 76373 32983 01802 10267 10267 21123 38160 40094 57014 92050 333 30/// 59002;",
"76373099999","2011-02-22T00:00:00","4","25.35","-105.75","1967.0","TEPEHUANES DGO., MX","FM-12","99999","V020","240,1,N,0030,1","22000,1,9,N","070000,1,N,1","+0228,1","+9999,9","10099,1","24,0000,9,1",,,,,,"01,99,1,01,1,02,1,01250,1,00,1,00,1",,"01,9",,"120,M,+0282,1","180,N,-0030,1","99999,9,08164,1","3,1,004,1,+001,1",,"SYN124AAXX  22001 76373 32688 12403 10228 20118 38164 40099 53004 81200 92350 333 10282 21030 30/// 50481 56900 58001 70000 81827;","Q01+001183ATOD  "
"76373099999","2011-02-22T15:00:00","4","25.35","-105.75","1967.0","TEPEHUANES DGO., MX","FM-12","99999","V020","999,9,C,0000,1","00750,1,9,N","030000,1,N,1","+0010,1","-0069,1","10149,1",,,,,"05,1,+00750,1,07,1",,"05,99,1,05,1,04,1,00800,1,00,1,00,1",,"01,9",,,,"99999,9,08204,1","2,1,015,1,+012,1",,"SYN100AAXX  22151 76373 32580 50000 10010 21069 38204 40149 52015 85400 91450 333 30/// 56900 58012 85725;",
"76373099999","2011-02-22T18:00:00","4","25.35","-105.75","1967.0","TEPEHUANES DGO., MX","FM-12","99999","V020","270,1,N,0010,1","22000,1,9,N","070000,1,N,1","+9999,9","-0073,1","10138,1",,,,,"03,1,+00750,1,07,1",,"03,99,1,03,1,04,1,01250,1,00,1,00,1",,"01,9",,"120,M,+0206,1","240,N,-0026,1","99999,9,08195,1","7,1,009,1,+021,1",,"SYN112AAXX  22181 76373 32688 32701 10196 21073 38195 40138 57009 83400 91750 333 10206 21026 30/// 56900 58021 83725;","Q01+001963ATOT  "
"76373099999","2011-02-22T21:00:00","4","25.35","-105.75","1967.0","TEPEHUANES DGO., MX","FM-12","99999","V020","210,1,N,0040,1","22000,1,9,N","070000,1,N,1","+0246,1","-0042,1","10121,1",,,,,"01,1,+05100,1,01,1",,"01,99,1,00,1,00,1,99999,9,00,1,09,1",,"01,9",,,,"99999,9,08181,1","7,1,014,1,+021,1",,"SYN100AAXX  22211 76373 32988 12104 10246 21042 38181 40121 57014 80009 92050 333 30/// 56900 58021 81167;",
"76373099999","2011-02-23T00:00:00","4","25.35","-105.75","1967.0","TEPEHUANES DGO., MX","FM-12","99999","V020","240,1,N,0020,1","22000,1,9,N","070000,1,N,1","+0211,1","-0048,1","10124,1","24,0000,9,1",,,,,,"01,99,1,00,1,00,1,99999,9,00,1,09,1",,"01,9",,"120,M,+0264,1","180,N,-0026,1","99999,9,08184,1","1,1,003,1,+017,1",,"SYN124AAXX  23001 76373 32988 12402 10211 21048 38184 40124 51003 80009 92350 333 10264 21026 30/// 50661 56900 58017 70000 81167;",
"76373099999","2011-02-23T03:00:00","4","25.35","-105.75","1967.0","TEPEHUANES DGO., MX","FM-12","99999","V020","999,9,C,0000,1","22000,1,9,N","000800,1,N,1","+0133,1","-0047,1","10144,1",,,,,"00,1,+99999,9,99,9",,"00,99,1,00,1,00,1,99999,9,00,1,00,1",,"01,9",,,,"99999,9,08200,1","2,1,016,1,+999,9",,"SYN082AAXX  23031 76373 32908 00000 10133 21047 38200 40144 52016 80250 333 30/// 58///;",
"76373099999","2011-02-23T12:00:00","4","25.35","-105.75","1967.0","TEPEHUANES DGO., MX","FM-12","99999","V020","999,9,C,0000,1","22000,1,9,N","000800,1,N,1","-0002,1","-0068,1","10141,1",,,,,"00,1,+99999,9,99,9",,"00,99,1,00,1,00,1,99999,9,00,1,00,1","0564,9","09,9","999,-0036,9","120,N,-0022,1","240,M,+0264,1","99999,9,08197,1","9,9,999,9,+008,1",,"SYN112AAXX  23121 76373 32908 00000 11002 21068 38197 40141 5//// 91150 333 10264 21022 31036 55094 22198 58008 70000;",
"76373099999","2011-02-23T15:00:00","4","25.35","-105.75","1967.0","TEPEHUANES DGO., MX","FM-12","99999","V020","999,9,C,0000,1","22000,1,9,N","030000,1,N,1","+0045,1","-0051,1","10154,1",,,,,"00,1,+99999,9,99,9",,"00,99,1,00,1,00,1,99999,9,00,1,00,1",,"01,9",,,,"99999,9,08208,1","2,1,011,1,+004,1",,"SYN082AAXX  23151 76373 32980 00000 10045 21051 38208 40154 52011 91450 333 30/// 58004;",
"76373099999","2011-02-23T18:00:00","4","25.35","-105.75","1967.0","TEPEHUANES DGO., MX","FM-12","99999","V020","230,1,N,0010,1","22000,1,9,N","070000,1,N,1","+9999,9","-0020,1","10140,1",,,,,"00,1,+99999,9,99,9",,"00,99,1,00,1,00,1,99999,9,00,1,00,1",,"01,9",,"120,M,+0224,1","240,N,-0022,1","99999,9,08197,1","7,1,013,1,+002,1",,"SYN094AAXX  23181 76373 32988 02301 10208 21020 38197 40140 57013 91750 333 10224 21022 30/// 58002;","Q01+002083ATOT  "
"76373099999","2011-02-23T21:00:00","4","25.35","-105.75","1967.0","TEPEHUANES DGO., MX","FM-12","99999","V020","240,1,N,0020,1","22000,1,9,N","070000,1,N,1","+0247,2","-0040,1","10122,1",,,,,"01,1,+05100,1,00,1",,"99,99,9,00,1,00,1,99999,9,00,1,99,9",,"01,9",,,,"99999,9,08182,1","7,1,015,1,+001,1",,"SYN100AAXX  23211 76373 32988 02402 10247 21040 38182 40122 57015 80004 92050 333 30/// 56009 58001 81067;","Q01+000002SCOTCV"
"76373099999","2011-02-24T00:00:00","4","25.35","-105.75","1967.0","TEPEHUANES DGO., MX","FM-12","99999","V020","250,1,N,0020,1","22000,1,9,N","070000,1,N,1","+0212,1","-0029,1","10121,1","24,0000,9,1",,,,,,"02,99,1,00,1,00,1,99999,9,00,1,04,1",,"01,9",,"120,M,+0260,1","180,N,-0022,1","99999,9,08181,1","5,1,001,1,-003,1",,"SYN124AAXX  24001 76373 32988 22502 10212 21029 38181 40121 55001 80004 92350 333 10260 21022 30/// 50521 56009 59003 70000 82067;",
"76373099999","2011-02-24T03:00:00","4","25.35","-105.75","1967.0","TEPEHUANES DGO., MX","FM-12","99999","V020","999,9,C,0000,1","22000,1,9,N","000800,1,N,1","+0140,1","-0016,1","10137,1",,,,,"00,1,+99999,9,99,9",,"00,99,1,00,1,00,1,99999,9,00,1,00,1",,"01,9",,,,"99999,9,08194,1","2,1,015,1,-006,1",,"SYN082AAXX  24031 76373 32908 00000 10140 21016 38194 40137 52015 90250 333 30/// 59006;",
"76373099999","2011-02-24T15:00:00","4","25.35","-105.75","1967.0","TEPEHUANES DGO., MX","FM-12","99999","V020","999,9,C,0000,1","22000,1,9,N","070000,1,N,1","+0055,1","-0010,1","10156,1",,,,,"00,1,+99999,9,99,9",,"00,99,1,00,1,00,1,99999,9,00,1,00,1",,"01,9",,,,"99999,9,08209,1","2,1,018,1,+001,1",,"SYN082AAXX  24151 76373 32988 00000 10055 21010 38209 40156 52018 81450 333 30/// 58001;",
"76373099999","2011-02-24T21:00:00","4","25.35","-105.75","1967.0","TEPEHUANES DGO., MX","FM-12","99999","V020","320,1,N,0020,1","22000,1,9,N","030000,1,N,1","+0232,1","-0122,1","10117,1",,,,,"00,1,+99999,9,99,9",,"00,99,1,00,1,00,1,99999,9,00,1,00,1",,"01,9",,,,"99999,9,08178,1","7,1,020,1,-004,1",,"SYN082AAXX  24211 76373 32980 03202 10232 21122 38178 40117 57020 92050 333 30/// 59004;",
"76373099999","2011-02-25T00:00:00","4","25.35","-105.75","1967.0","TEPEHUANES DGO., MX","FM-12","99999","V020","250,1,N,0020,1","22000,1,9,N","030000,1,N,1","+0220,1","-0112,1","10114,1","24,0000,9,1",,,,"00,1,+99999,9,99,9",,"00,99,1,00,1,00,1,99999,9,00,1,00,1",,"01,9",,"120,M,+0250,1","180,N,-0004,1","99999,9,08176,1","5,1,002,1,-005,1",,"SYN106AAXX  25001 76373 32980 02502 10220 21112 38176 40114 55002 92355 333 10250 21004 30/// 50791 59005 70000;","Q01  00002PRCP24"
"76373099999","2011-02-25T03:00:00","4","25.35","-105.75","1967.0","TEPEHUANES DGO., MX","FM-12","99999","V020","290,1,N,0010,1","22000,1,9,N","001000,1,N,1","+0140,1","-0046,1","10140,1",,,,,"00,1,+99999,9,99,9",,"00,99,1,00,1,00,1,99999,9,00,1,00,1",,"01,9",,,,"99999,9,08197,1","2,1,021,1,+003,1",,"SYN082AAXX  25031 76373 32910 02901 10140 21046 38197 40140 52021 90255 333 30/// 58003;",
"76373099999","2011-02-25T12:00:00","4","25.35","-105.75","1967.0","TEPEHUANES DGO., MX","FM-12","99999","V020","999,9,C,0000,1","22000,1,9,N","001000,1,N,1","-0012,1","-0071,1","10161,1",,,,,"00,1,+99999,9,99,9",,"00,99,1,00,1,00,1,99999,9,00,1,00,1","0624,9","09,9",,"120,N,-0024,1","240,M,+0250,1","99999,9,08214,1","9,9,999,9,+023,1",,"SYN112AAXX  25121 76373 32910 00000 11012 21071 38214 40161 5//// 91150 333 10250 21024 31068 55104 22158 58023 70000;",
"76373099999","2011-02-25T15:00:00","4","25.35","-105.75","1967.0","TEPEHUANES DGO., MX","FM-12","99999","V020","999,9,C,0000,1","22000,1,9,N","030000,1,N,1","+0022,1","-0059,1","10173,1",,,,,"00,1,+99999,9,99,9",,"00,99,1,00,1,00,1,99999,9,00,1,00,1",,"01,9",,,,"99999,9,08224,1","2,1,010,1,+015,1",,"SYN082AAXX  25151 76373 32980 00000 10022 21059 38224 40173 52010 91450 333 30/// 58015;",
"76373099999","2011-02-25T18:00:00","4","25.35","-105.75","1967.0","TEPEHUANES DGO., MX","FM-12","99999","V020","999,9,C,0000,1","22000,1,9,N","030000,1,N,1","+9999,9","-0045,1","10156,1",,,,,"00,1,+99999,9,99,9",,"00,99,1,00,1,00,1,99999,9,00,1,00,1",,"01,9",,"120,M,+0200,1","240,N,-0054,1","99999,9,08210,1","7,1,014,1,+012,1",,"SYN094AAXX  25181 76373 32980 00000 10184 21045 38210 40156 57014 91755 333 10200 21054 30/// 58012;","Q01+001843ATOT  "
"76373099999","2011-02-25T21:00:00","4","25.35","-105.75","1967.0","TEPEHUANES DGO., MX","FM-12","99999","V020","140,1,N,0010,1","22000,1,9,N","030000,1,N,1","+0260,2","-0122,1","10106,1",,,,,"00,1,+99999,9,99,9",,"00,99,1,00,1,00,1,99999,9,00,1,00,1",,"01,9",,,,"99999,9,08169,1","7,1,041,1,-009,1",,"SYN082AAXX  25211 76373 32980 01401 10260 21122 38169 40106 57041 92055 333 30/// 59009;",
"76373099999","2011-02-26T00:00:00","4","25.35","-105.75","1967.0","TEPEHUANES DGO., MX","FM-12","99999","V020","230,1,N,0020,1","22000,1,9,N","030000,1,N,1","+0236,1","-0124,1","10101,1","24,0000,9,1",,,,"00,1,+99999,9,99,9",,"00,99,1,00,1,00,1,99999,9,00,1,00,1",,"01,9",,"120,M,+0294,1","180,N,-0054,1","99999,9,08165,1","5,1,004,1,-011,1",,"SYN106AAXX  26001 76373 32980 02302 10236 21124 38165 40101 55004 92355 333 10294 21054 30/// 50521 59011 70000;","Q01  00002PRCP24"
"76373099999","2011-02-26T03:00:00","4","25.35","-105.75","1967.0","TEPEHUANES DGO., MX","FM-12","99999","V020","999,9,C,0000,1","22000,1,9,N","001000,1,N,1","+0152,1","-0081,1","10127,1",,,,,"00,1,+99999,9,99,9",,"00,99,1,00,1,00,1,99999,9,00,1,00,1",,"01,9",,,,"99999,9,08186,1","7,1,021,1,-011,1",,"SYN082AAXX  26031 76373 32910 00000 10152 21081 38186 40127 57021 90250 333 30/// 59011;",
"76373099999","2011-02-26T12:00:00","4","25.35","-105.75","1967.0","TEPEHUANES DGO., MX","FM-12","99999","V020","999,9,C,0000,1","22000,1,9,N","001000,1,N,1","-0014,1","-0056,1","10135,1",,,,,"00,1,+99999,9,99,9",,"00,99,1,00,1,00,1,99999,9,00,1,00,1","0624,9","09,9",,"120,N,-0060,1","240,M,+0294,1","99999,9,08192,1","9,9,999,9,-022,1",,"SYN112AAXX  26121 76373 32910 00000 11014 21056 38192 40135 5//// 91155 333 10294 21060 31072 55104 22158 59022 70000;",
"76373099999","2011-02-26T15:00:00","4","25.35","-105.75","1967.0","TEPEHUANES DGO., MX","FM-12","99999","V020","999,9,C,0000,1","22000,1,9,N","030000,1,N,1","+0016,1","-0048,1","10147,1",,,,,"00,1,+99999,9,99,9",,"00,99,1,00,1,00,1,99999,9,00,1,00,1",,"01,9",,,,"99999,9,08202,1","2,1,010,1,+999,9",,"SYN081AAXX  26151 76373 32980 00000 10016 21048 38202 40147 52010 91455 333 30/// 5922;",
"76373099999","2011-02-26T18:00:00","4","25.35","-105.75","1967.0","TEPEHUANES DGO., MX","FM-12","99999","V020","070,1,N,0010,1","22000,1,9,N","030000,1,N,1","+9999,9","-0118,1","10119,1",,,,,"00,1,+99999,9,99,9",,"00,99,1,00,1,00,1,99999,9,00,1,00,1",,"01,9",,"120,M,+0218,1","240,N,-0060,1","99999,9,08180,1","7,1,020,1,-030,1",,"SYN094AAXX  26181 76373 32980 00701 10202 21118 38180 40119 57020 91755 333 10218 21060 30/// 59030;","Q01+002023ATOT  "
"76373099999","2011-02-26T21:00:00","4","25.35","-105.75","1967.0","TEPEHUANES DGO., MX","FM-12","99999","V020","230,1,N,0030,1","22000,1,9,N","030000,1,N,1","+0256,2","-0156,1","10107,1",,,,,"00,1,+99999,9,99,9",,"00,99,1,00,1,00,1,99999,9,00,1,00,1",,"01,9",,,,"99999,9,08170,1","7,1,010,1,+001,1",,"SYN082AAXX  26211 76373 32980 02303 10256 21156 38170 40107 57010 92050 333 30/// 58001;",
"76373099999","2011-02-27T00:00:00","4","25.35","-105.75","1967.0","TEPEHUANES DGO., MX","FM-12","99999","V020","250,1,N,0030,1","22000,1,9,N","040000,1,N,1","+0217,1","-0080,1","10097,1","24,0000,9,1",,,,"00,1,+99999,9,99,9",,"00,99,1,00,1,00,1,99999,9,00,1,00,1",,"01,9",,"120,M,+0278,1","180,N,-0060,1","99999,9,08162,1","7,1,008,1,-003,1",,"SYN106AAXX  27001 76373 32982 02503 10217 21080 38162 40097 57008 92350 333 10278 21060 30/// 50721 59003 70000;","Q01  00002PRCP24"
"76373099999","2011-02-27T03:00:00","4","25.35","-105.75","1967.0","TEPEHUANES DGO., MX","FM-12","99999","V020","999,9,C,0000,1","22000,1,9,N","010000,1,N,1","+0141,1","-0026,1","10111,1",,,,,"00,1,+99999,9,99,9",,"00,99,1,00,1,00,1,99999,9,00,1,00,1",,"01,9",,,,"99999,9,08173,1","2,1,011,1,-013,1",,"SYN082AAXX  27031 76373 32960 00000 10141 21026 38173 40111 52011 90250 333 30/// 59013;",
"76373099999","2011-02-27T12:00:00","4","25.35","-105.75","1967.0","TEPEHUANES DGO., MX","FM-12","99999","V020","999,9,C,0000,1","22000,1,9,N","010000,1,N,1","+0075,1","-0024,1","10101,1",,,,,"00,1,+99999,9,99,9",,"00,99,1,00,1,00,1,99999,9,00,1,00,1","0624,9","01,9","999,+0020,9","120,N,+0040,1","240,M,+0278,1","99999,9,08165,1","9,9,999,9,-027,1",,"SYN112AAXX  27121 76373 32960 00000 10075 21024 38165 40101 5//// 91150 333 10278 20040 30020 55104 22182 59027 70000;",
"76373099999","2011-02-27T15:00:00","4","25.35","-105.75","1967.0","TEPEHUANES DGO., MX","FM-12","99999","V020","230,1,N,0010,1","22000,1,9,N","040000,1,N,1","+0151,1","-0015,1","10118,1",,,,,"00,1,+99999,9,99,9",,"00,99,1,00,1,00,1,99999,9,00,1,00,1",,"01,9",,,,"99999,9,08179,1","2,1,014,1,-023,1",,"SYN082AAXX  27151 76373 32982 02301 10151 21015 38179 40118 52014 91450 333 30/// 59023;",
"76373099999","2011-02-27T18:00:00","4","25.35","-105.75","1967.0","TEPEHUANES DGO., MX","FM-12","99999","V020","180,1,N,0030,1","22000,1,9,N","040000,1,N,1","+0225,1","-0023,1","10117,1",,,,,"00,1,+99999,9,99,9",,"00,99,1,00,1,00,1,99999,9,00,1,00,1",,"01,9",,"120,M,+0237,1","240,N,+0040,1","99999,9,08178,1","7,1,001,1,-002,1",,"SYN094AAXX  27181 76373 32982 01803 10225 21023 38178 40117 57001 91750 333 10237 20040 30/// 59002;",
"76373099999","2011-02-27T21:00:00","4","25.35","-105.75","1967.0","TEPEHUANES DGO., MX","FM-12","99999","V020","230,1,N,0020,1","22000,1,9,N","040000,1,N,1","+0232,1","-0069,1","10101,1",,,,,"00,1,+99999,9,99,9",,"00,99,1,00,1,00,1,99999,9,00,1,00,1",,"01,9",,,,"99999,9,08165,1","7,1,013,1,-005,1",,"SYN082AAXX  27211 76373 32982 02302 10232 21069 38165 40101 57013 92050 333 30/// 59005;",
"76373099999","2011-02-28T00:00:00","4","25.35","-105.75","1967.0","TEPEHUANES DGO., MX","FM-12","99999","V020","270,1,N,0020,1","22000,1,9,N","040000,1,N,1","+0204,1","-0057,1","10106,1","24,0000,9,1",,,,"00,1,+99999,9,99,9",,"00,99,1,00,1,00,1,99999,9,00,1,00,1",,"01,9",,"120,M,+0260,1","180,N,+0040,1","99999,9,08169,1","2,1,004,1,+007,1",,"SYN106AAXX  28001 76373 32982 02702 10204 21057 38169 40106 52004 92350 333 10260 20040 30/// 50731 58007 70000;","Q01  00002PRCP24"
"76373099999","2011-02-28T18:00:00","4","25.35","-105.75","1967.0","TEPEHUANES DGO., MX","FM-12","99999","V020","140,1,N,0010,1","22000,1,9,N","040000,1,N,1","+0204,1","-0062,1","10174,1",,,,,"00,1,+99999,9,99,9",,"00,99,1,00,1,00,1,99999,9,00,1,00,1",,"01,9",,"120,M,+0225,1","240,N,-0020,1","99999,9,08224,1","9,9,999,9,+046,1",,"SYN094AAXX  28181 76373 32982 01401 10204 21062 38224 40174 5//// 91750 333 10225 21020 30/// 58046;",
"76373099999","2011-02-28T21:00:00","4","25.35","-105.75","1967.0","TEPEHUANES DGO., MX","FM-12","99999","V020","090,1,N,0010,1","22000,1,9,N","040000,1,N,1","+0270,1","-0105,1","10139,1",,,,,"00,1,+99999,9,99,9",,"00,99,1,00,1,00,1,99999,9,00,1,00,1",,"01,9",,,,"99999,9,08196,1","7,1,028,1,+031,1",,"SYN082AAXX  28211 76373 32982 00901 10270 21105 38196 40139 57028 92050 333 30/// 58031;",
"76373099999","2011-03-01T00:00:00","4","25.35","-105.75","1967.0","TEPEHUANES DGO., MX","FM-12","99999","V020","120,1,N,0020,1","22000,1,9,N","040000,1,N,1","+0255,1","-0098,1","10137,1","24,0000,9,1",,,,"00,1,+99999,9,99,9",,"00,99,1,00,1,00,1,99999,9,00,1,00,1",,"01,9",,"120,M,+0300,1","180,N,-0020,1","99999,9,08194,1","7,1,002,1,+025,1",,"SYN106AAXX  01001 76373 32982 01202 10255 21098 38194 40137 57002 92350 333 10300 21020 30/// 50541 58025 70000;","Q01  00002PRCP24"
"76373099999","2011-03-01T12:00:00","4","25.35","-105.75","1967.0","TEPEHUANES DGO., MX","FM-12","99999","V020","999,9,C,0000,1","22000,1,9,N","000800,1,N,1","+0010,1","-0076,1","10196,1",,,,,"00,1,+99999,9,99,9",,"00,99,1,00,1,00,1,99999,9,00,1,00,1","0630,9","09,9","999,-0018,9","120,N,-0010,1","240,M,+0300,1","99999,9,08242,1","9,9,999,9,+020,1",,"SYN112AAXX  01121 76373 32908 00000 10010 21076 38242 40196 5//// 91150 333 10300 21010 31018 55105 22158 58020 70000;",
"76373099999","2011-03-01T15:00:00","4","25.35","-105.75","1967.0","TEPEHUANES DGO., MX","FM-12","99999","V020","999,9,C,0000,1","22000,1,9,N","030000,1,N,1","+0003,1","-0072,1","10134,1",,,,,"01,1,+00810,1,08,1",,"03,99,1,01,1,02,1,01250,1,00,1,04,1",,"01,9",,,,"99999,9,08192,1","2,1,012,1,-011,1",,"SYN106AAXX  01151 76373 32680 30000 10003 21072 38192 40134 52012 81204 91450 333 30/// 56909 59011 81827 82067;",
"76373099999","2011-03-01T18:00:00","4","25.35","-105.75","1967.0","TEPEHUANES DGO., MX","FM-12","99999","V020","330,1,N,0010,1","22000,1,9,N","030000,1,N,1","+9999,9","-0185,2","10116,1",,,,,"01,1,+00810,1,08,1",,"04,99,1,01,1,02,1,01250,1,00,1,04,1",,"01,9",,"120,M,+0178,1","240,N,-0058,1","99999,9,08177,1","7,1,015,1,+007,1",,"SYN118AAXX  01181 76373 32680 43301 10169 21185 38177 40116 57015 81204 91750 333 10178 21058 30/// 56309 58007 81827 83067;",
"76373099999","2011-03-01T21:00:00","4","25.35","-105.75","1967.0","TEPEHUANES DGO., MX","FM-12","99999","V020","240,1,N,0030,1","22000,1,9,N","070000,1,N,1","+0309,2","-0089,1","10149,1",,,,,"00,1,+99999,9,99,9",,"00,99,1,00,1,00,1,99999,9,00,1,00,1",,"01,9",,,,"99999,9,08204,1","7,1,041,1,+008,1",,"SYN082AAXX  01211 76373 32988 02403 10309 21089 38204 40149 57041 92050 333 30/// 58008;",
"76373099999","2011-03-02T00:00:00","4","25.35","-105.75","1967.0","TEPEHUANES DGO., MX","FM-12","99999","V020","230,1,N,0030,1","22000,1,9,N","070000,1,N,1","+0280,1","-0072,1","10145,1","24,0000,9,1",,,,"00,1,+99999,9,99,9",,"00,99,1,00,1,00,1,99999,9,00,1,00,1",,"01,9",,"120,M,+0326,1","180,N,-0010,1","99999,9,08201,1","7,1,003,1,+007,1",,"SYN106AAXX  02001 76373 32988 02303 10280 21072 38201 40145 57003 92350 333 10326 21010 30/// 50691 58007 70000;","Q01  00002PRCP24"
"76373099999","2011-03-02T03:00:00","4","25.35","-105.75","1967.0","TEPEHUANES DGO., MX","FM-12","99999","V020","250,1,N,0010,1","22000,1,9,N","000800,1,N,1","+0200,1","-0060,1","10181,1",,,,,"00,1,+99999,9,99,9",,"00,99,1,00,1,00,1,99999,9,00,1,00,1",,"01,9",,,,"99999,9,08230,1","2,1,029,1,+999,9",,"SYN082AAXX  02031 76373 32908 02501 10200 21060 38230 40181 52029 90240 333 30/// 58///;",
"76373099999","2011-03-02T15:00:00","4","25.35","-105.75","1967.0","TEPEHUANES DGO., MX","FM-12","99999","V020","999,9,C,0000,1","22000,1,9,N","030000,1,N,1","+0068,1","-0037,1","10204,1",,,,,"00,1,+99999,9,99,9",,"00,99,1,00,1,00,1,99999,9,00,1,00,1",,"01,9",,,,"99999,9,08248,1","2,1,027,1,-012,1",,"SYN082AAXX  02151 76373 32980 00000 10068 21037 38248 40204 52027 91450 333 30/// 59012;",
"76373099999","2011-03-02T18:00:00","4","25.35","-105.75","1967.0","TEPEHUANES DGO., MX","FM-12","99999","V020","999,9,C,0000,1","22000,1,9,N","070000,1,N,1","+9999,9","-0044,1","10188,1",,,,,"00,1,+99999,9,99,9",,"00,99,1,00,1,00,1,99999,9,00,1,00,1",,"01,9",,"120,M,+0251,1","240,N,-0002,1","99999,9,08236,1","7,1,012,1,-009,1",,"SYN094AAXX  02181 76373 32988 00000 10243 21044 38236 40188 57012 91750 333 10251 21002 30/// 59009;",
"76373099999","2011-03-02T21:00:00","4","25.35","-105.75","1967.0","TEPEHUANES DGO., MX","FM-12","99999","V020","310,1,N,0020,1","22000,1,9,N","070000,1,N,1","+0302,2","-0076,1","10137,1",,,,,"01,1,+00810,1,08,1",,"99,99,9,99,9,99,9,99999,9,00,1,00,1",,"01,9",,,,"99999,9,08195,1","7,1,041,1,-009,1",,"SYN100AAXX  02211 76373 32688 03102 10302 21076 38195 40137 57041 81100 92050 333 30/// 56900 59009 81827;",
"76373099999","2011-03-03T00:00:00","4","25.35","-105.75","1967.0","TEPEHUANES DGO., MX","FM-12","99999","V020","300,1,N,0020,1","22000,1,9,N","070000,1,N,1","+0286,1","-0070,1","10129,1","24,0000,9,1",,,,,,"01,99,1,01,1,01,1,99999,9,00,1,00,1",,"01,9",,"120,M,+0328,1","180,N,-0002,1","99999,9,08188,1","5,1,007,1,-013,1",,"SYN124AAXX  03001 76373 32988 13002 10286 21070 38188 40129 55007 81100 92350 333 10328 21002 30/// 50621 56900 59013 70000 81827;",
"76373099999","2011-03-03T03:00:00","4","25.35","-105.75","1967.0","TEPEHUANES DGO., MX","FM-12","99999","V020","999,9,C,0000,1","22000,1,9,N","000800,1,N,1","+0200,1","-0042,1","10156,1",,,,,"01,1,+00810,1,08,1",,"01,99,1,01,1,01,1,01250,1,00,1,00,1",,"01,9",,,,"99999,9,08209,1","2,1,021,1,-021,1",,"SYN100AAXX  03031 76373 32608 10000 10200 21042 38209 40156 52021 81100 90250 333 30/// 56900 59021 81827;",
"76373099999","2011-03-03T15:00:00","4","25.35","-105.75","1967.0","TEPEHUANES DGO., MX","FM-12","99999","V020","999,9,C,0000,1","22000,1,9,N","030000,1,N,1","+0090,1","-0033,1","10182,1",,,,,"02,1,+05100,1,00,1",,"02,99,1,00,1,00,1,99999,9,00,1,04,1",,"01,9",,,,"99999,9,08230,1","2,1,017,1,-018,1",,"SYN100AAXX  03151 76373 32980 20000 10090 21033 38230 40182 52017 80004 91450 333 30/// 56009 59018 82067;",
"76373099999","2011-03-03T21:00:00","4","25.35","-105.75","1967.0","TEPEHUANES DGO., MX","FM-12","99999","V020","110,1,N,0010,1","22000,1,9,N","030000,1,N,1","+0302,2","-0080,1","10104,1",,,,,"03,1,+01110,1,03,1",,"03,99,1,03,1,03,1,00800,1,00,1,00,1",,"01,9",,,,"99999,9,08168,1","7,1,030,1,-027,1",,"SYN094AAXX  03211 76373 32580 31101 10302 21080 38168 40104 57030 83300 92055 333 30/// 59027 83337;",
"76373099999","2011-03-04T00:00:00","4","25.35","-105.75","1967.0","TEPEHUANES DGO., MX","FM-12","99999","V020","250,1,N,0040,1","22000,1,9,N","030000,1,N,1","+0288,1","-0075,1","10096,1","24,0000,9,1",,,,"02,1,+01110,1,03,1",,"02,99,1,02,1,00,1,00800,1,02,1,00,1",,"01,9",,"120,M,+0338,1","180,N,+0021,1","99999,9,08161,1","5,1,007,1,-027,1",,"SYN118AAXX  04001 76373 32580 22504 10288 21075 38161 40096 55007 82020 92355 333 10338 20021 30/// 50801 59027 70000 82337;",
"76373099999","2011-03-04T03:00:00","4","25.35","-105.75","1967.0","TEPEHUANES DGO., MX","FM-12","99999","V020","230,1,N,0010,1","22000,1,9,N","001000,1,N,1","+0202,1","-0037,1","10125,1",,,,,"00,1,+99999,9,99,9",,"00,99,1,00,1,00,1,99999,9,00,1,00,1",,"01,9",,,,"99999,9,08185,1","2,1,024,1,-024,1",,"SYN082AAXX  04031 76373 32910 02301 10202 21037 38185 40125 52024 90250 333 30/// 59024;",
"76373099999","2011-03-04T12:00:00","4","25.35","-105.75","1967.0","TEPEHUANES DGO., MX","FM-12","99999","V020","999,9,C,0000,1","22000,1,9,N","001000,1,N,1","+0050,1","-0015,1","10138,1",,,,,"00,1,+99999,9,99,9",,"00,99,1,00,1,00,1,99999,9,00,1,00,1","0624,9","09,9","999,-0010,9","120,N,+0004,1","240,M,+0338,1","99999,9,08195,1","9,9,999,9,-018,1",,"SYN112AAXX  04121 76373 32910 00000 10050 21015 38195 40138 5//// 91150 333 10338 20004 31010 55104 21892 59018 70000;",
"76373099999","2011-03-04T15:00:00","4","25.35","-105.75","1967.0","TEPEHUANES DGO., MX","FM-12","99999","V020","999,9,C,0000,1","22000,1,9,N","030000,1,N,1","+0076,1","-0017,1","10146,1",,,,,"00,1,+99999,9,99,9",,"00,99,1,00,1,00,1,99999,9,00,1,00,1",,"01,9",,,,"99999,9,08201,1","3,1,006,1,-029,1",,"SYN082AAXX  04151 76373 32980 00000 10076 21017 38201 40146 53006 91455 333 30/// 59029;",
"76373099999","2011-03-04T18:00:00","4","25.35","-105.75","1967.0","TEPEHUANES DGO., MX","FM-12","99999","V020","070,1,N,0010,1","22000,1,9,N","030000,1,N,1","+0225,1","-0054,1","10125,1",,,,,"00,1,+99999,9,99,9",,"00,99,1,00,1,00,1,99999,9,00,1,00,1",,"01,9",,"120,M,+0268,1","240,N,+0004,1","99999,9,08185,1","7,1,016,1,-013,1",,"SYN094AAXX  04181 76373 32980 00701 10225 21054 38185 40125 57016 91755 333 10268 20004 30/// 59013;",
"76373099999","2011-03-04T21:00:00","4","25.35","-105.75","1967.0","TEPEHUANES DGO., MX","FM-12","99999","V020","290,1,N,0030,1","22000,1,9,N","030000,1,N,1","+0296,2","-0103,1","10091,1",,,,,"00,1,+99999,9,99,9",,"00,99,1,00,1,00,1,99999,9,00,1,00,1",,"01,9",,,,"99999,9,08157,1","7,1,028,1,-011,1",,"SYN082AAXX  04211 76373 32980 02903 10296 21103 38157 40091 57028 92055 333 30/// 59011;",
"76373099999","2011-03-05T00:00:00","4","25.35","-105.75","1967.0","TEPEHUANES DGO., MX","FM-12","99999","V020","250,1,N,0030,1","22000,1,9,N","030000,1,N,1","+0268,1","-0075,1","10091,1","24,0000,9,1",,,,"00,1,+99999,9,99,9",,"00,99,1,00,1,00,1,99999,9,00,1,00,1",,"01,9",,"120,M,+0318,1","180,N,+0004,1","99999,9,08157,1","5,1,000,1,-004,1",,"SYN106AAXX  05001 76373 32980 02503 10268 21075 38157 40091 55000 92350 333 10318 20004 30/// 50761 59004 70000;","Q01  00002PRCP24"
"76373099999","2011-03-05T03:00:00","4","25.35","-105.75","1967.0","TEPEHUANES DGO., MX","FM-12","99999","V020","250,1,N,0010,1","22000,1,9,N","001000,1,N,1","+0292,1","+0028,1","10120,1",,,,,"00,1,+99999,9,99,9",,"00,99,1,00,1,00,1,99999,9,00,1,00,1",,"01,9",,,,"99999,9,08181,1","2,1,036,1,-004,1",,"SYN082AAXX  05031 76373 32910 02501 10292 20028 38181 40120 52036 90250 333 30/// 59004;",
"76373099999","2011-03-05T18:00:00","4","25.35","-105.75","1967.0","TEPEHUANES DGO., MX","FM-12","99999","V020","110,1,N,0010,1","22000,1,9,N","030000,1,N,1","+0206,1","-0106,1","10184,1",,,,,"00,1,+99999,9,99,9",,"00,99,1,00,1,00,1,99999,9,00,1,00,1",,"01,9",,"120,M,+0222,1","240,N,-0004,1","99999,9,08232,1","8,1,004,1,+047,1",,"SYN094AAXX  05181 76373 32980 01101 10206 21106 38232 40184 58004 91750 333 10222 21004 30/// 58047;",
"76373099999","2011-03-05T21:00:00","4","25.35","-105.75","1967.0","TEPEHUANES DGO., MX","FM-12","99999","V020","140,1,N,0030,1","22000,1,9,N","030000,1,N,1","+0226,1","-0119,1","10149,1",,,,,"01,1,+01110,1,03,1",,"01,99,1,01,1,00,1,00800,1,01,1,00,1",,"01,9",,,,"99999,9,08204,1","7,1,032,1,+047,1",,"SYN100AAXX  05211 76373 32580 11403 10226 21119 38204 40149 57032 81010 92055 333 30/// 56090 58047 81337;",
"76373099999","2011-03-06T00:00:00","4","25.35","-105.75","1967.0","TEPEHUANES DGO., MX","FM-12","99999","V020","130,1,N,0020,1","22000,1,9,N","070000,1,N,1","+0217,1","-0122,1","10137,1","24,0000,9,1",,,,"00,1,+99999,9,99,9",,"00,99,1,00,1,00,1,99999,9,00,1,00,1",,"01,9",,"120,M,+0258,1","180,N,+0004,1","99999,9,08194,1","7,1,010,1,+037,1",,"SYN106AAXX  06001 76373 32988 01302 10217 21122 38194 40137 57010 92350 333 10258 20004 30/// 50591 58037 70000;","Q01  00002PRCP24"
"76373099999","2011-03-06T03:00:00","4","25.35","-105.75","1967.0","TEPEHUANES DGO., MX","FM-12","99999","V020","999,9,C,0000,1","22000,1,9,N","000800,1,N,1","+0143,1","-0113,1","10152,1",,,,,"00,1,+99999,9,99,9",,"00,99,1,00,1,00,1,99999,9,00,1,00,1",,"01,9",,,,"99999,9,08206,1","2,1,012,1,+025,1",,"SYN082AAXX  06031 76373 32908 00000 10143 21113 38206 40152 52012 90250 333 30/// 58025;",
"76373099999","2011-03-06T12:00:00","4","25.35","-105.75","1967.0","TEPEHUANES DGO., MX","FM-12","99999","V020","999,9,C,0000,1","22000,1,9,N","000800,1,N,1","+0012,1","-0083,1","10166,1",,,,,"00,1,+99999,9,99,9",,"00,99,1,00,1,00,1,99999,9,00,1,00,1","0636,9","09,9",,"120,N,-0002,1","240,M,+0258,1","99999,9,08218,1","9,9,999,9,-004,1",,"SYN112AAXX  06121 76373 32908 00000 10012 21083 38218 40166 5//// 91150 333 10258 21002 31111 55106 22384 59004 70000;",
"76373099999","2011-03-06T15:00:00","4","25.35","-105.75","1967.0","TEPEHUANES DGO., MX","FM-12","99999","V020","999,9,C,0000,1","22000,1,9,N","030000,1,N,1","+0047,1","-0073,1","10170,1",,,,,"00,1,+99999,9,99,9",,"00,99,1,00,1,00,1,99999,9,00,1,00,1",,"01,9",,,,"99999,9,08221,1","0,1,003,1,-015,1",,"SYN082AAXX  06151 76373 32980 00000 10047 21073 38221 40170 50003 91450 333 30/// 59015;",
"76373099999","2011-03-06T18:00:00","4","25.35","-105.75","1967.0","TEPEHUANES DGO., MX","FM-12","99999","V020","130,1,N,0010,1","22000,1,9,N","070000,1,N,1","+0185,1","-0071,1","10154,1",,,,,"00,1,+99999,9,99,9",,"00,99,1,00,1,00,1,99999,9,00,1,00,1",,"01,9",,"120,M,+0201,1","240,N,+0002,1","99999,9,08208,1","7,1,013,1,-024,1",,"SYN094AAXX  06181 76373 32988 01301 10185 21071 38208 40154 57013 91740 333 10201 20002 30/// 59024;",
"76373099999","2011-03-06T21:00:00","4","25.35","-105.75","1967.0","TEPEHUANES DGO., MX","FM-12","99999","V020","300,1,N,0020,1","22000,1,9,N","070000,1,N,1","+0279,2","-0113,1","10098,1",,,,,"01,1,+05100,1,00,1",,"01,99,1,00,1,00,1,99999,9,00,1,02,1",,"01,9",,,,"99999,9,08163,1","7,1,045,1,-041,1",,"SYN100AAXX  06211 76373 32988 13002 10279 21113 38163 40098 57045 80002 92050 333 30/// 56009 59041 81067;",
"76373099999","2011-03-07T00:00:00","4","25.35","-105.75","1967.0","TEPEHUANES DGO., MX","FM-12","99999","V020","250,1,N,0020,1","22000,1,9,N","050000,1,N,1","+0255,1","-0038,1","10104,1","24,0000,9,1",,,,"00,1,+99999,9,99,9",,"00,99,1,00,1,00,1,99999,9,00,1,00,1",,"01,9",,"120,M,+0295,1","180,N,+0002,1","99999,9,08168,1","2,1,005,1,-026,1",,"SYN106AAXX  07001 76373 32984 02502 10255 21038 38168 40104 52005 92340 333 10295 20002 30/// 50711 59026 70000;","Q01  00002PRCP24"
"76373099999","2011-03-07T03:00:00","4","25.35","-105.75","1967.0","TEPEHUANES DGO., MX","FM-12","99999","V020","240,1,N,0010,1","22000,1,9,N","010000,1,N,1","+0173,1","+0025,1","10129,1",,,,,"00,1,+99999,9,99,9",,"00,99,1,00,1,00,1,99999,9,00,1,00,1",,"01,9",,,,"99999,9,08188,1","2,1,020,1,-018,1",,"SYN082AAXX  07031 76373 32960 02401 10173 20025 38188 40129 52020 90250 333 30/// 59018;",
"76373099999","2011-03-07T12:00:00","4","25.35","-105.75","1967.0","TEPEHUANES DGO., MX","FM-12","99999","V020","999,9,C,0000,1","22000,1,9,N","010000,1,N,1","+0031,1","-0003,1","10125,1",,,,,"00,1,+99999,9,99,9",,"00,99,1,00,1,00,1,99999,9,00,1,00,1","0630,9","09,9","999,-0010,9","120,N,+0010,1","240,M,+0295,1","99999,9,08184,1","9,9,999,9,-034,1",,"SYN112AAXX  07121 76373 32960 00000 10031 21003 38184 40125 5//// 91150 333 10295 20010 31010 55105 22319 59034 70000;",
"76373099999","2011-03-07T15:00:00","4","25.35","-105.75","1967.0","TEPEHUANES DGO., MX","FM-12","99999","V020","290,1,N,0010,1","22000,1,9,N","045000,1,N,1","+0074,1","+0000,1","10140,1",,,,,"00,1,+99999,9,99,9",,"00,99,1,00,1,00,1,99999,9,00,1,00,1",,"01,9",,,,"99999,9,08197,1","2,1,013,1,-024,1",,"SYN082AAXX  07151 76373 32983 02901 10074 20000 38197 40140 52013 91450 333 30/// 59024;",
"76373099999","2011-03-07T18:00:00","4","25.35","-105.75","1967.0","TEPEHUANES DGO., MX","FM-12","99999","V020","240,1,N,0020,1","22000,1,9,N","050000,1,N,1","+0236,1","-0111,2","10120,1",,,,,"00,1,+99999,9,99,9",,"00,99,1,00,1,00,1,99999,9,00,1,00,1",,"01,9",,"120,M,+0250,1","240,N,+0010,1","99999,9,08181,1","7,1,016,1,-027,1",,"SYN094AAXX  07181 76373 32984 02402 10236 21111 38181 40120 57016 91750 333 10250 20010 30/// 59027;",
"76373099999","2011-03-07T21:00:00","4","25.35","-105.75","1967.0","TEPEHUANES DGO., MX","FM-12","99999","V020","310,1,N,0020,1","22000,1,9,N","050000,1,N,1","+0251,1","-0081,1","10091,1",,,,,"00,1,+99999,9,99,9",,"00,99,1,00,1,00,1,99999,9,00,1,00,1",,"01,9",,,,"99999,9,08157,1","7,1,024,1,-006,1",,"SYN082AAXX  07211 76373 32984 03102 10251 21081 38157 40091 57024 92050 333 30/// 59006;",
"76373099999","2011-03-08T00:00:00","4","25.35","-105.75","1967.0","TEPEHUANES DGO., MX","FM-12","99999","V020","240,1,N,0030,1","22000,1,9,N","050000,1,N,1","+0232,1","-0057,1","10083,1","24,0000,9,1",,,,"00,1,+99999,9,99,9",,"00,99,1,00,1,00,1,99999,9,00,1,00,1",,"01,9",,"120,M,+0270,1","180,N,+0010,1","99999,9,08150,1","7,1,007,1,-018,1",,"SYN100AAXX  08001 76373 32984 02403 10232 21057 38150 40083 57007 92350 333 10270 20010 30/// 59018 70000;","Q01  00002PRCP24"
"76373099999","2011-03-08T12:00:00","4","25.35","-105.75","1967.0","TEPEHUANES DGO., MX","FM-12","99999","V020","999,9,C,0000,1","22000,1,9,N","000800,1,N,1","+0033,1","-0007,1","10119,1",,,,,"00,1,+99999,9,99,9",,"00,99,1,00,1,00,1,99999,9,00,1,00,1","0630,9","01,9","999,+0002,9","120,N,-0016,1","240,M,+0270,1","99999,9,08188,1","9,9,999,9,-004,1",,"SYN112AAXX  08121 76373 32908 00000 10033 21007 38188 40119 5//// 91150 333 10270 21016 30002 55105 22302 59004 70000;",
"76373099999","2011-03-08T15:00:00","4","25.35","-105.75","1967.0","TEPEHUANES DGO., MX","FM-12","99999","V020","999,9,C,0000,1","22000,1,9,N","030000,1,N,1","+0084,1","+0001,1","10136,1",,,,,"02,1,+05100,1,00,1",,"02,99,1,00,1,00,1,99999,9,00,1,04,1",,"01,9",,,,"99999,9,08193,1","2,1,013,1,-004,1",,"SYN100AAXX  08151 76373 32980 20000 10084 20001 38193 40136 52013 80004 91450 333 30/// 56009 59004 82067;",
"76373099999","2011-03-08T18:00:00","4","25.35","-105.75","1967.0","TEPEHUANES DGO., MX","FM-12","99999","V020","060,1,N,0010,1","22000,1,9,N","070000,1,N,1","+0219,1","-0041,1","10127,1",,,,,"01,1,+00750,1,07,1",,"02,99,1,01,1,06,1,99999,9,00,1,00,1",,"01,9",,"120,M,+0232,1","240,N,+0016,1","99999,9,08187,1","7,1,006,1,-006,1",,"SYN112AAXX  08181 76373 32988 20601 10219 21041 38187 40127 57006 81600 91750 333 10232 20016 30/// 56900 59006 81725;",
"76373099999","2011-03-08T21:00:00","4","25.35","-105.75","1967.0","TEPEHUANES DGO., MX","FM-12","99999","V020","240,1,N,0030,1","22000,1,9,N","070000,1,N,1","+0260,2","-0106,1","10101,1",,,,,"01,1,+00810,1,08,1",,"01,99,1,01,1,02,1,01250,1,00,1,00,1",,"01,9",,,,"99999,9,08165,1","7,1,013,1,-008,1",,"SYN100AAXX  08211 76373 32688 12403 10260 21106 38165 40101 57013 81200 92050 333 30/// 56200 59008 81827;",
"76373099999","2011-03-09T03:00:00","4","25.35","-105.75","1967.0","TEPEHUANES DGO., MX","FM-12","99999","V020","999,9,C,0000,1","22000,1,9,N","000800,1,N,1","+0154,1","-0040,1","10137,1",,,,,"00,1,+99999,9,99,9",,"00,99,1,00,1,00,1,99999,9,00,1,00,1",,"01,9",,,,"99999,9,08194,1","2,1,029,1,+999,9",,"SYN082AAXX  09031 76373 32908 00000 10154 21040 38194 40137 52029 90250 333 30/// 58///;",
"76373099999","2011-03-09T12:00:00","4","25.35","-105.75","1967.0","TEPEHUANES DGO., MX","FM-12","99999","V020","999,9,C,0000,1","22000,1,9,N","000800,1,N,1","-0001,1","-0054,1","10172,1",,,,,"00,1,+99999,9,99,9",,"00,99,1,00,1,00,1,99999,9,00,1,00,1","0642,9","09,9","999,-0033,9","120,N,-0021,1","240,M,+0275,1","99999,9,08222,1","9,9,999,9,+042,1",,"SYN112AAXX  09121 76373 32908 00000 11001 21054 38222 40172 5//// 91150 333 10275 21021 31033 55107 22407 58042 70000;",
"76373099999","2011-03-09T15:00:00","4","25.35","-105.75","1967.0","TEPEHUANES DGO., MX","FM-12","99999","V020","999,9,C,0000,1","22000,1,9,N","030000,1,N,1","+0083,1","-0044,1","10212,1",,,,,"00,1,+99999,9,99,9",,"00,99,1,00,1,00,1,99999,9,00,1,00,1",,"01,9",,,,"99999,9,08255,1","2,1,027,1,+062,1",,"SYN082AAXX  09151 76373 32980 00000 10083 21044 38255 40212 52027 91445 333 30/// 58062;",
"76373099999","2011-03-09T18:00:00","4","25.35","-105.75","1967.0","TEPEHUANES DGO., MX","FM-12","99999","V020","130,1,N,0010,1","22000,1,9,N","070000,1,N,1","+0198,1","-0052,1","10206,1",,,,,"00,1,+99999,9,99,9",,"00,99,1,00,1,00,1,99999,9,00,1,00,1",,"01,9",,"120,M,+0218,1","240,N,-0021,1","99999,9,08250,1","7,1,005,1,+063,1",,"SYN094AAXX  09181 76373 32988 01301 10198 21052 38250 40206 57005 91750 333 10218 21021 30/// 58063;",
"76373099999","2011-03-09T21:00:00","4","25.35","-105.75","1967.0","TEPEHUANES DGO., MX","FM-12","99999","V020","110,1,N,0020,1","22000,1,9,N","070000,1,N,1","+0240,1","-0076,1","10177,1",,,,,"00,1,+99999,9,99,9",,"00,99,1,00,1,00,1,99999,9,00,1,00,1",,"01,9",,,,"99999,9,08226,1","7,1,024,1,+061,1",,"SYN082AAXX  09211 76373 32988 01102 10240 21076 38226 40177 57024 92050 333 30/// 58061;",
"76373099999","2011-03-10T00:00:00","4","25.35","-105.75","1967.0","TEPEHUANES DGO., MX","FM-12","99999","V020","130,1,N,0030,1","22000,1,9,N","070000,1,N,1","+0230,1","-0105,1","10172,1","24,0000,9,1",,,,"00,1,+99999,9,99,9",,"00,99,1,00,1,00,1,99999,9,00,1,00,1",,"01,9",,"120,M,+0270,1","180,N,-0021,1","99999,9,08223,1","8,1,003,1,+052,1",,"SYN106AAXX  10001 76373 32988 01303 10230 21105 38223 40172 58003 82350 333 10270 21021 30/// 50711 58052 70000;","Q01  00002PRCP24"
"76373099999","2011-03-10T03:00:00","4","25.35","-105.75","1967.0","TEPEHUANES DGO., MX","FM-12","99999","V020","999,9,C,0000,1","22000,1,9,N","000800,1,N,1","+0168,1","-0103,1","10192,1",,,,,"00,1,+99999,9,99,9",,"00,99,1,00,1,00,1,99999,9,00,1,00,1",,"01,9",,,,"99999,9,08239,1","2,1,016,1,+045,1",,"SYN082AAXX  10031 76373 32908 00000 10168 21103 38239 40192 52016 90230 333 30/// 58045;",
"76373099999","2011-03-10T12:00:00","4","25.35","-105.75","1967.0","TEPEHUANES DGO., MX","FM-12","99999","V020","999,9,C,0000,1","22000,1,9,N","000800,1,N,1","+0003,1","+9999,9","10224,1",,,,,"00,1,+99999,9,99,9",,"00,99,1,00,1,00,1,99999,9,00,1,00,1","0648,9","09,9","999,-0029,9","120,N,-0018,1","240,M,+0270,1","99999,9,08265,1","9,9,999,9,+043,1",,"SYN106AAXX  10121 76373 32908 00000 10003 38265 40224 5//// 91150 333 10270 21018 31029 55108 22408 58043 70000;",
"76373099999","2011-03-10T15:00:00","4","25.35","-105.75","1967.0","TEPEHUANES DGO., MX","FM-12","99999","V020","999,9,C,0000,1","22000,1,9,N","070000,1,N,1","-0061,2","-0073,1","10249,1",,,,,"00,1,+99999,9,99,9",,"00,99,1,00,1,00,1,99999,9,00,1,00,1",,"01,9",,,,"99999,9,08284,1","2,1,019,1,+029,1",,"SYN082AAXX  10151 76373 32988 00000 11061 21073 38284 40249 52019 91450 333 30/// 58029;",
"76373099999","2011-03-15T12:00:00","4","25.35","-105.75","1967.0","TEPEHUANES DGO., MX","FM-12","99999","V020","220,1,N,0010,1","22000,1,9,N","000800,1,N,1","+0030,1","-0077,1","10170,1",,,,,"00,1,+99999,9,99,9",,"00,99,1,00,1,00,1,99999,9,00,1,00,1",,"09,9","999,-0011,9","120,N,+0006,1",,"99999,9,08221,1",,,"SYN112AAXX  15121 76373 32908 02201 10030 21077 38221 40170 5//// 91450 333 1//// 20006 31011 55/// 2//// 58/// 70000;",
"76373099999","2011-03-15T15:00:00","4","25.35","-105.75","1967.0","TEPEHUANES DGO., MX","FM-12","99999","V020","999,9,C,0000,1","22000,1,9,N","030000,1,N,1","+0081,1","-0060,1","10188,1",,,,,"00,1,+99999,9,99,9",,"00,99,1,00,1,00,1,99999,9,00,1,00,1",,"01,9",,,,"99999,9,08236,1","2,1,015,1,+999,9",,"SYN082AAXX  15151 76373 32980 00000 10081 21060 38236 40188 52015 91450 333 30/// 58///;",
"76373099999","2011-03-15T18:00:00","4","25.35","-105.75","1967.0","TEPEHUANES DGO., MX","FM-12","99999","V020","120,1,N,0020,1","22000,1,9,N","070000,1,N,1","+0230,1","-0052,1","10170,1",,,,,"01,1,+00810,1,08,1",,"01,99,1,01,1,01,1,01250,1,00,1,00,1",,"01,9",,"120,M,+0252,1","240,N,+0006,1","99999,9,08221,1","7,1,015,1,+999,9",,"SYN112AAXX  15181 76373 32688 11202 10230 21052 38221 40170 57015 81100 91750 333 10252 20006 30/// 56900 58/// 81827;",
"76373099999","2011-03-15T21:00:00","4","25.35","-105.75","1967.0","TEPEHUANES DGO., MX","FM-12","99999","V020","310,1,N,0020,1","22000,1,9,N","070000,1,N,1","+0285,2","-0162,2","10129,1",,,,,"02,1,+00810,1,08,1",,"03,99,1,02,1,02,1,01250,1,00,1,00,1",,"01,9",,,,"99999,9,08188,1","7,1,033,1,+999,9",,"SYN106AAXX  15211 76373 32688 33102 10285 21162 38188 40129 57033 82200 92050 333 30/// 56900 58/// 82827 81625;",
"76373099999","2011-03-16T00:00:00","4","25.35","-105.75","1967.0","TEPEHUANES DGO., MX","FM-12","99999","V020","230,1,N,0030,1","22000,1,9,N","070000,1,N,1","+0256,1","-0067,1","10125,1","24,0000,9,1",,,,,,"04,99,1,99,9,04,1,01250,1,00,1,00,1",,"01,9",,"120,M,+0311,1","180,N,+0006,1","99999,9,08185,1","5,1,003,1,+999,9",,"SYN124AAXX  16001 76373 32688 42303 10256 21067 38185 40125 55003 83400 92350 333 10311 20006 30/// 50701 56900 58/// 70000 83625;",
"76373099999","2011-03-16T03:00:00","4","25.35","-105.75","1967.0","TEPEHUANES DGO., MX","FM-12","99999","V020","999,9,C,0000,1","22000,1,9,N","000800,1,N,1","+0193,1","-0007,1","10160,1",,,,,"02,1,+02100,1,03,1",,"02,99,1,02,1,00,1,01750,1,03,1,00,1",,"01,9",,,,"99999,9,08213,1","2,1,028,1,+999,9",,"SYN100AAXX  16031 76373 32708 20000 10193 21007 38213 40160 52028 82030 90240 333 30/// 56090 58/// 82357;",
"76373099999","2011-03-16T12:00:00","4","25.35","-105.75","1967.0","TEPEHUANES DGO., MX","FM-12","99999","V020","999,9,C,0000,1","22000,1,9,N","000800,1,N,1","+0048,1","-0021,1","10183,1",,,,,"00,1,+99999,9,99,9",,"00,99,1,00,1,00,1,99999,9,00,1,00,1","0600,9","01,9","999,+0020,9","120,N,+0031,1","240,M,+0311,1","99999,9,08232,1","9,9,999,9,+011,1",,"SYN112AAXX  16121 76373 32908 00000 10048 21021 38232 40183 5//// 91150 333 10311 20031 30020 55100 22118 58011 70000;",
"76373099999","2011-03-16T15:00:00","4","25.35","-105.75","1967.0","TEPEHUANES DGO., MX","FM-12","99999","V020","999,9,C,0000,1","22000,1,9,N","030000,1,N,1","+0085,1","-0020,1","10207,1",,,,,"00,1,+99999,9,99,9",,"00,99,1,00,1,00,1,99999,9,00,1,00,1",,"01,9",,,,"99999,9,08251,1","2,1,019,1,+015,1",,"SYN082AAXX  16151 76373 32980 00000 10085 21020 38251 40207 52019 91450 333 30/// 58015;",
"76373099999","2011-03-16T18:00:00","4","25.35","-105.75","1967.0","TEPEHUANES DGO., MX","FM-12","99999","V020","120,1,N,0010,1","22000,1,9,N","070000,1,N,1","+9999,9","-0063,1","10188,1",,,,,"01,1,+00810,1,07,1",,"01,99,1,01,1,01,1,01250,1,00,1,00,1",,"01,9",,"120,M,+0268,1","240,N,+0031,1","99999,9,08235,1","7,1,016,1,+014,1",,"SYN112AAXX  16181 76373 32688 11201 10250 21063 38235 40188 57016 81100 91750 333 10268 20031 30/// 56900 58014 81727;",
"76373099999","2011-03-16T21:00:00","4","25.35","-105.75","1967.0","TEPEHUANES DGO., MX","FM-12","99999","V020","240,1,N,0010,1","99999,9,9,N","070000,1,N,1","+0277,2","-0079,1","10153,1",,,,,"03,1,+00750,1,06,1",,"05,99,1,03,1,04,1,00800,1,00,1,00,1",,"01,9",,,,"99999,9,08207,1","3,1,028,1,+019,1",,"SYN106AAXX  16211 76373 32588 52401 10277 21079 38207 40153 53028 83400 92050 333 30/// 56900 58019 83625 82827;",
"76373099999","2011-03-17T00:00:00","4","25.35","-105.75","1967.0","TEPEHUANES DGO., MX","FM-12","99999","V020","260,1,N,0030,1","99999,9,9,N","070000,1,N,1","+0269,1","-0067,1","10147,1","24,0000,9,1",,,,"04,1,+00720,1,07,1",,"06,99,1,04,1,06,1,00800,1,00,1,00,1",,"01,9",,"120,M,+0311,1","180,N,+0031,1","99999,9,08202,1","5,1,005,1,+017,1",,"SYN130AAXX  17001 76373 32588 62603 10269 21067 38202 40147 55005 84600 92350 333 10311 20031 30/// 50571 56900 58017 70000 84724 82625;",
"76373099999","2011-03-17T03:00:00","4","25.35","-105.75","1967.0","TEPEHUANES DGO., MX","FM-12","99999","V020","240,1,N,0010,1","22000,1,9,N","000800,1,N,1","+0190,1","-0014,1","10177,1",,,,,"01,1,+00810,1,07,1",,"01,99,1,01,1,01,1,01250,1,00,1,00,1",,"01,9",,,,"99999,9,08226,1","2,1,024,1,+013,1",,"SYN100AAXX  17031 76373 32608 12401 10190 21014 38226 40177 52024 81100 90250 333 30/// 56900 58013 81727;",
"76373099999","2011-03-17T12:00:00","4","25.35","-105.75","1967.0","TEPEHUANES DGO., MX","FM-12","99999","V020","999,9,C,0000,1","22000,1,9,N","000800,1,N,1","+0053,1","-0026,1","10197,1",,,,,"00,1,+99999,9,99,9",,"00,99,1,00,1,00,1,99999,9,00,1,00,1","0510,9","01,9","999,+0014,9","120,N,+0026,1","240,M,+0311,1","99999,9,08243,1","9,9,999,9,+011,1",,"SYN112AAXX  17121 76373 32908 00000 10053 21026 38243 40197 5//// 91150 333 10311 20026 30014 55085 21892 58011 70000;",
"76373099999","2011-03-17T15:00:00","4","25.35","-105.75","1967.0","TEPEHUANES DGO., MX","FM-12","99999","V020","310,1,N,0010,1","22000,1,9,N","030000,1,N,1","+0088,1","-0021,1","10221,1",,,,,"05,1,+00810,1,06,1",,"99,99,9,04,1,05,1,01250,1,00,1,00,1",,"01,9",,,,"99999,9,08262,1","2,1,020,1,+011,1",,"SYN100AAXX  17151 76373 32680 13101 10088 21021 38262 40221 52020 84500 91450 333 30/// 56900 58011 85627;",
"76373099999","2011-03-17T21:00:00","4","25.35","-105.75","1967.0","TEPEHUANES DGO., MX","FM-12","99999","V020","110,1,N,0010,1","00750,1,9,N","030000,1,N,1","+0256,1","-0036,1","10164,1",,,,,"04,1,+00600,1,06,1",,"07,99,1,07,1,07,1,00800,1,00,1,00,1",,"01,9",,,,,"7,1,010,1,+009,1",,"SYN100AAXX  17211 76373 32580 71101 10256 21036 38116 40164 57010 87700 92050 333 30/// 58009 84620 83825;",
"76373099999","2011-03-18T00:00:00","4","25.35","-105.75","1967.0","TEPEHUANES DGO., MX","FM-12","99999","V020","110,1,N,0010,1","00750,1,9,N","030000,1,N,1","+0256,1","-0024,1","10153,1","24,0000,9,1",,,,"03,1,+00600,1,06,1",,"05,99,1,05,1,05,1,00800,1,00,1,00,1",,"01,9",,"120,M,+0296,1","180,N,+0026,1","99999,9,08207,1","7,1,016,1,+006,1",,"SYN130AAXX  18001 76373 32580 51101 10256 21024 38207 40153 57016 85500 92350 333 10296 20026 30/// 50551 56900 58006 70000 83620 82825;",
"76373099999","2011-03-18T03:00:00","4","25.35","-105.75","1967.0","TEPEHUANES DGO., MX","FM-12","99999","V020","999,9,9,9999,9","99999,9,9,N","001000,1,N,1","+0198,1","-0014,1","10180,1",,,,,"02,1,+00600,1,06,1",,,,"01,9",,,,"99999,9,08229,1","2,1,022,1,+003,1",,"SYN106AAXX  18031 76373 32510 ///// 10198 21014 38229 40180 52022 84400 90250 333 30/// 56900 58003 82620 82825;",
"76373099999","2011-03-18T12:00:00","4","25.35","-105.75","1967.0","TEPEHUANES DGO., MX","FM-12","99999","V020","999,9,C,0000,1","22000,1,9,N","001000,1,N,1","+0054,1","-0026,1","10195,1","24,0000,9,1",,,,,,"02,99,1,02,1,02,1,00800,1,00,1,00,1","0492,9","01,9","999,+0008,9","120,N,+0015,1","240,M,+0296,1","99999,9,08241,1","9,9,999,9,-002,1",,"SYN130AAXX  18121 76373 32510 20000 10054 21026 38241 40195 5//// 82200 91155 333 10296 20015 30008 55082 21369 56900 59002 70000 82620;",
"76373099999","2011-03-18T15:00:00","4","25.35","-105.75","1967.0","TEPEHUANES DGO., MX","FM-12","99999","V020","999,9,C,0000,1","22000,1,9,N","030000,1,N,1","+0128,1","-0001,1","10214,1",,,,,"00,1,+99999,9,99,9",,"00,99,1,00,1,00,1,99999,9,00,1,00,1",,"01,9",,,,"99999,9,08225,1","2,1,015,1,-006,1",,"SYN082AAXX  18151 76373 32980 00000 10128 21001 38225 40214 52015 91455 333 30/// 59006;",
"76373099999","2011-03-18T18:00:00","4","25.35","-105.75","1967.0","TEPEHUANES DGO., MX","FM-12","99999","V020","110,1,N,0010,1","22000,1,9,N","030000,1,N,1","+0246,1","-0026,1","10198,1",,,,,"02,1,+00750,1,08,1",,"02,99,1,99,9,99,9,00800,1,99,9,99,9",,"01,9",,"120,M,+0260,1","240,N,+0015,1","99999,9,08244,1","2,1,012,1,+015,1",,"SYN106AAXX  18181 76373 32580 21101 10246 21026 38244 40198 52012 91750 333 10260 20015 30/// 56900 58015 82825;",
"76373099999","2011-03-19T00:00:00","4","25.35","-105.75","1967.0","TEPEHUANES DGO., MX","FM-12","99999","V020","250,1,N,0030,1","22000,1,9,N","030000,1,N,1","+0272,1","-0072,1","10138,1","24,0000,9,1",,,,,,"02,99,1,02,1,02,1,00800,1,00,1,00,1",,"01,9",,"120,M,+0310,1","180,N,+0015,1","99999,9,08195,1","7,1,015,1,-012,1",,"SYN124AAXX  19001 76373 32580 22503 10272 21072 38195 40138 57015 82200 92355 333 10310 20015 30/// 50721 56900 59012 70000 82620;",
"76373099999","2011-03-19T03:00:00","4","25.35","-105.75","1967.0","TEPEHUANES DGO., MX","FM-12","99999","V020","290,1,N,0010,1","22000,1,9,N","001000,1,N,1","+0198,1","-0032,1","10163,1",,,,,"00,1,+99999,9,99,9",,"00,99,1,00,1,00,1,99999,9,00,1,00,1",,"01,9",,,,"99999,9,08215,1","2,1,020,1,-014,1",,"SYN082AAXX  19031 76373 32910 02901 10198 21032 38215 40163 52020 90255 333 30/// 59014;",
"76373099999","2011-03-19T15:00:00","4","25.35","-105.75","1967.0","TEPEHUANES DGO., MX","FM-12","99999","V020","320,1,N,0010,1","22000,1,9,N","030000,1,N,1","+0112,1","-0013,1","10180,1",,,,,"03,1,+01110,1,03,1",,"03,99,1,03,1,00,1,00800,1,03,1,00,1",,"01,9",,,,"99999,9,08229,1","2,1,004,1,-027,1",,"SYN100AAXX  19151 76373 32580 33201 10112 21013 38229 40180 52004 83030 91455 333 30/// 50690 59027 83337;",
"76373099999","2011-03-19T18:00:00","4","25.35","-105.75","1967.0","TEPEHUANES DGO., MX","FM-12","99999","V020","070,1,N,0010,1","22000,1,9,N","030000,1,N,1","+0258,1","-0013,1","10165,1",,,,,"03,1,+01110,1,03,1",,"03,99,1,03,1,00,1,00800,1,03,1,00,1",,"01,9",,"120,M,+0270,1","240,N,-0010,1","99999,9,08217,1","7,1,012,1,-027,1",,"SYN112AAXX  19181 76373 32580 30701 10258 21013 38217 40165 57012 83030 91755 333 10270 21010 30/// 56090 59027 83337;",
"76373099999","2011-03-19T21:00:00","4","25.35","-105.75","1967.0","TEPEHUANES DGO., MX","FM-12","99999","V020","230,1,N,0030,1","22000,1,9,N","030000,1,N,1","+0310,2","-0048,1","10132,1",,,,,"01,1,+00600,1,08,1",,"03,99,1,03,1,01,1,00800,1,02,1,00,1",,"01,9",,,,"99999,9,08190,1","7,1,027,1,-020,1",,"SYN106AAXX  19211 76373 32580 32303 10310 21048 38190 40132 57027 83120 92050 333 30/// 56990 59020 81820 82337;",
"76373099999","2011-03-20T00:00:00","4","25.35","-105.75","1967.0","TEPEHUANES DGO., MX","FM-12","99999","V020","230,1,N,0020,1","22000,1,9,N","030000,1,N,1","+0274,1","-0074,1","10130,1","24,0000,9,1",,,,"01,1,+00600,1,08,1",,"02,99,1,02,1,01,1,00800,1,01,1,00,1",,,,"120,M,+0322,1","180,N,-0010,1","99999,9,08189,1","5,1,001,1,-006,1",,"SYN130AAXX  20001 76373 32580 22302 10274 21074 38189 40130 55001 82110 82355 333 10322 21010 30/// 50751 56990 59006 70000 81820 81335;",
"76373099999","2011-03-20T03:00:00","4","25.35","-105.75","1967.0","TEPEHUANES DGO., MX","FM-12","99999","V020","200,1,N,0010,1","22000,1,9,N","001000,1,N,1","+0190,1","-0022,1","10157,1",,,,,"01,1,+00750,1,08,1",,"01,99,1,01,1,01,1,00800,1,00,1,00,1",,"01,9",,,,"99999,9,08210,1","2,1,021,1,-005,1",,"SYN100AAXX  20031 76373 32510 12001 10190 21022 38210 40157 52021 81100 90255 333 30/// 56900 59005 81825;",
"76373099999","2011-03-20T15:00:00","4","25.35","-105.75","1967.0","TEPEHUANES DGO., MX","FM-12","99999","V020","290,1,N,0010,1","00750,1,C,N","030000,1,N,1","+0116,1","-0011,1","10181,1",,,,,"03,1,+00750,1,06,1",,"06,99,1,06,1,03,1,00800,1,03,1,00,1",,"01,9",,,,"99999,9,08230,1","2,1,010,1,+001,1",,"SYN106AAXX  20151 76373 32580 62901 10116 21011 38230 40181 52010 86330 91455 333 30/// 56990 58001 83625 83335;",
"76373099999","2011-03-20T18:00:00","4","25.35","-105.75","1967.0","TEPEHUANES DGO., MX","FM-12","99999","V020","320,1,N,0010,1","00750,1,C,N","030000,1,N,1","+0234,1","-0020,1","10180,1",,,,,"04,1,+00750,1,06,1",,"06,99,1,06,1,04,1,00800,1,02,1,00,1",,"01,9",,"120,M,+0244,1","240,N,+0026,1","99999,9,08229,1","5,1,001,1,+012,1",,"SYN118AAXX  20181 76373 32580 63201 10234 21020 38229 40180 55001 86420 91755 333 10244 20026 30/// 56990 58012 84625 82337;",
"76373099999","2011-03-20T21:00:00","4","25.35","-105.75","1967.0","TEPEHUANES DGO., MX","FM-12","99999","V020","290,1,N,0020,1","00750,1,C,N","030000,1,N,1","+0304,2","-0055,1","10147,1",,,,,"03,1,+00750,1,06,1",,"06,99,1,06,1,03,1,00800,1,03,1,00,1",,"01,9",,,,"99999,9,08202,1","7,1,027,1,+012,1",,"SYN106AAXX  20211 76373 32580 62902 10304 21055 38202 40147 57027 86330 92050 333 30/// 56990 58012 83625 83337;",
"76373099999","2011-03-21T00:00:00","4","25.35","-105.75","1967.0","TEPEHUANES DGO., MX","FM-12","99999","V020","250,1,N,0020,1","00600,1,C,N","030000,1,N,1","+0260,1","-0035,1","10135,1","24,0000,9,1",,,,"06,1,+00600,1,06,1",,"08,99,1,99,9,06,1,00800,1,02,1,00,1",,"01,9",,"120,M,+0318,1","180,N,+0026,1","99999,9,08193,1","7,1,010,1,+004,1",,"SYN130AAXX  21001 76373 32580 82502 10260 21035 38193 40135 57010 88620 92355 333 10318 20026 30/// 50621 56990 58004 70000 86620 82337;",
"76373099999","2011-03-21T03:00:00","4","25.35","-105.75","1967.0","TEPEHUANES DGO., MX","FM-12","99999","V020","999,9,C,0000,1","00750,1,9,N","001000,1,N,1","+0206,1","+9999,9","10157,1",,,,,"08,1,+00750,1,06,1",,"08,99,1,08,1,08,1,00800,1,00,1,00,1",,"01,9",,,,"99999,9,08210,1","2,1,023,1,+000,1",,"SYN094AAXX  21031 76373 32510 80000 10206 38210 40157 52023 88800 90255 333 30/// 56900 58000 88625;",
"76373099999","2011-03-21T12:00:00","4","25.35","-105.75","1967.0","TEPEHUANES DGO., MX","FM-12","99999","V020","999,9,C,0000,1","00750,1,9,N","001000,1,N,1","+0062,1","-0032,1","10177,1","24,0000,9,1",,,,,,"06,99,1,06,1,06,1,00800,1,00,1,00,1","0270,9","01,9","999,+0010,9","120,N,+0020,1","240,M,+0318,1","99999,9,08226,1","9,9,999,9,+005,1",,"SYN130AAXX  21121 76373 32510 60000 10062 21032 38226 40177 5//// 86600 91155 333 10318 20020 30010 55045 21365 56900 58005 70000 86625;",
"76373099999","2011-03-21T15:00:00","4","25.35","-105.75","1967.0","TEPEHUANES DGO., MX","FM-12","99999","V020","999,9,C,0000,1","22000,1,9,N","030000,1,N,1","+0112,1","-0016,1","10190,1",,,,,"02,1,+00750,1,06,1",,"02,99,1,02,1,02,1,00800,1,00,1,00,1",,"01,9",,,,"99999,9,08237,1","2,1,010,1,+007,1",,"SYN100AAXX  21151 76373 32580 20000 10112 21016 38237 40190 52010 82200 91455 333 30/// 56900 58007 82625;",
"76373099999","2011-03-21T18:00:00","4","25.35","-105.75","1967.0","TEPEHUANES DGO., MX","FM-12","99999","V020","140,1,N,0010,1","00750,1,C,N","030000,1,N,1","+0258,1","-0013,1","10171,1",,,,,"04,1,+01110,1,03,1",,"06,99,1,06,1,00,1,00800,1,04,1,02,1",,"01,9",,"120,M,+0272,1","240,N,+0020,1","99999,9,08222,1","7,1,015,1,-007,1",,"SYN118AAXX  21181 76373 32580 61401 10258 21013 38222 40171 57015 86042 91750 333 10272 20020 30/// 56099 59007 84337 82067;",
"76373099999","2011-03-21T21:00:00","4","25.35","-105.75","1967.0","TEPEHUANES DGO., MX","FM-12","99999","V020","230,1,N,0030,1","00750,1,C,N","030000,1,N,1","+0300,2","-0056,1","10123,1",,,,,"04,1,+01110,1,03,1",,"06,99,1,06,1,00,1,00800,1,04,1,02,1",,"01,9",,,,"99999,9,08188,1","7,1,042,1,-014,1",,"SYN106AAXX  21211 76373 32580 62303 10300 21056 38188 40123 57042 86042 92050 333 30/// 56099 59014 84337 82067;",
"76373099999","2011-03-22T00:00:00","4","25.35","-105.75","1967.0","TEPEHUANES DGO., MX","FM-12","99999","V020","250,1,N,0030,1","00750,1,9,N","030000,1,N,1","+0278,1","-0031,1","10126,1","24,0000,9,1",,,,"04,1,+01110,1,03,1",,"06,99,1,06,1,00,1,00800,1,04,1,02,1",,"01,9",,"120,M,+0320,1","180,N,+0020,1","99999,9,08185,1","2,1,002,1,-008,1",,"SYN130AAXX  22001 76373 32580 62503 10278 21031 38185 40126 52002 86042 92335 333 10320 20020 30/// 50701 56099 59008 70000 84337 82067;",
"76373099999","2011-03-22T12:00:00","4","25.35","-105.75","1967.0","TEPEHUANES DGO., MX","FM-12","99999","V020","999,9,C,0000,1","22000,1,9,N","000800,1,N,1","+0064,1","-0017,1","10152,1","24,0000,9,1",,,,,,"03,99,1,00,1,00,1,99999,9,00,1,07,1","0648,9","01,9","999,+0028,9","120,N,+0036,1","240,M,+0320,1","99999,9,08206,1","9,9,999,9,-020,1",,"SYN130AAXX  22121 76373 32908 30000 10064 21017 38206 40152 5//// 80007 91150 333 10320 20036 30028 55108 2//// 56009 59020 70000 83267;",
"76373099999","2011-03-22T15:00:00","4","25.35","-105.75","1967.0","TEPEHUANES DGO., MX","FM-12","99999","V020","999,9,C,0000,1","22000,1,9,N","030000,1,N,1","+0145,1","-0009,1","10165,1",,,,,"03,1,+05100,1,00,1",,"03,99,1,00,1,00,1,99999,9,00,1,04,1",,"01,9",,,,"99999,9,08217,1","2,1,011,1,-020,1",,"SYN100AAXX  22151 76373 32980 30000 10145 21009 38217 40165 52011 80004 91450 333 30/// 56909 59020 83067;",
"76373099999","2011-03-22T18:00:00","4","25.35","-105.75","1967.0","TEPEHUANES DGO., MX","FM-12","99999","V020","300,1,N,0020,1","22000,1,9,N","070000,1,N,1","+0256,1","-0006,1","10145,1",,,,,"01,1,+05100,1,00,1",,"01,99,1,00,1,00,1,99999,9,00,1,04,1",,"01,9",,"120,M,+0268,1","240,N,+0036,1","99999,9,08201,1","7,1,016,1,-021,1",,"SYN112AAXX  22181 76373 32988 13002 10256 21006 38201 40145 57016 80004 91750 333 10268 20036 30/// 56009 59021 81067;",
"76373099999","2011-03-22T21:00:00","4","25.35","-105.75","1967.0","TEPEHUANES DGO., MX","FM-12","99999","V020","310,1,N,0030,1","22000,1,9,N","070000,1,N,1","+0285,1","-0073,1","10112,1",,,,,"01,1,+00810,1,08,1",,"02,99,1,01,1,02,1,01250,1,00,1,04,1",,"01,9",,,,"99999,9,08174,1","7,1,027,1,-009,1",,"SYN100AAXX  22211 76373 32688 23103 10285 21073 38174 40112 57027 81204 92050 333 30/// 56909 59009 81827;",
"76373099999","2011-03-23T00:00:00","4","25.35","-105.75","1967.0","TEPEHUANES DGO., MX","FM-12","99999","V020","300,1,N,0020,1","22000,1,9,N","070000,1,N,1","+0263,1","-0073,1","10109,1","24,0000,9,1",,,,,,"01,99,1,00,1,00,1,99999,9,00,1,04,1",,"01,9",,"120,M,+0300,1","180,N,+0036,1","99999,9,08172,1","5,1,002,1,-013,1",,"SYN124AAXX  23001 76373 32988 13002 10263 21073 38172 40109 55002 80004 92350 333 10300 20036 30/// 50831 56009 59013 70000 81067;",
"76373099999","2011-03-23T03:00:00","4","25.35","-105.75","1967.0","TEPEHUANES DGO., MX","FM-12","99999","V020","999,9,C,0000,1","22000,1,9,N","000800,1,N,1","+0186,1","-0040,1","10128,1",,,,,"01,1,+00810,1,08,1",,"01,99,1,01,1,02,1,01250,1,00,1,00,1",,"01,9",,,,"99999,9,08187,1","2,1,015,1,+999,9",,"SYN100AAXX  23031 76373 32608 10000 10186 21040 38187 40128 52015 81200 90245 333 30/// 56900 58/// 81827;",
"76373099999","2011-03-23T12:00:00","4","25.35","-105.75","1967.0","TEPEHUANES DGO., MX","FM-12","99999","V020","999,9,C,0000,1","22000,1,9,N","001000,1,N,1","+0043,1","-0037,1","10139,1",,,,,"00,1,+99999,9,99,9",,"00,99,1,00,1,00,1,99999,9,00,1,00,1","0636,9","01,9","999,+0006,9","120,N,+0021,1","240,M,+0300,1","99999,9,08196,1","9,9,999,9,-010,1",,"SYN112AAXX  23121 76373 32910 00000 10043 21037 38196 40139 5//// 91150 333 10300 20021 30006 55106 22480 59010 70000;",
"76373099999","2011-03-23T18:00:00","4","25.35","-105.75","1967.0","TEPEHUANES DGO., MX","FM-12","99999","V020","999,9,C,0000,1","22000,1,9,N","070000,1,N,1","+0258,1","-0077,1","10134,1",,,,,"00,1,+99999,9,99,9",,"00,99,1,00,1,00,1,99999,9,00,1,00,1",,"01,9",,"120,M,+0263,1","240,N,+0021,1","99999,9,08192,1","7,1,014,1,-009,1",,"SYN094AAXX  23181 76373 32988 00000 10258 21077 38192 40134 57014 91740 333 10263 20021 30/// 59009;",
"76373099999","2011-03-23T21:00:00","4","25.35","-105.75","1967.0","TEPEHUANES DGO., MX","FM-12","99999","V020","300,1,N,0020,1","22000,1,9,N","070000,1,N,1","+0307,1","-0138,1","10093,1",,,,,"00,1,+99999,9,99,9",,"00,99,1,00,1,00,1,99999,9,00,1,00,1",,"01,9",,,,"99999,9,08159,1","7,1,033,1,-015,1",,"SYN082AAXX  23211 76373 32988 03002 10307 21138 38159 40093 57033 92140 333 30/// 59015;",
"76373099999","2011-03-24T00:00:00","4","25.35","-105.75","1967.0","TEPEHUANES DGO., MX","FM-12","99999","V020","250,1,N,0020,1","22000,1,9,N","070000,1,N,1","+0282,1","-0102,1","10085,1","24,0000,9,1",,,,"00,1,+99999,9,99,9",,"00,99,1,00,1,00,1,99999,9,00,1,00,1",,"01,9",,"120,M,+0326,1","180,N,+0021,1","99999,9,08152,1","4,1,000,1,-020,1",,"SYN106AAXX  24001 76373 32988 02502 10282 21102 38152 40085 54000 92350 333 10326 20021 30/// 50831 59020 70000;","Q01  00002PRCP24"
"76373099999","2011-03-24T03:00:00","4","25.35","-105.75","1967.0","TEPEHUANES DGO., MX","FM-12","99999","V020","270,1,N,0010,1","22000,1,9,N","000800,1,N,1","+0205,1","-0075,1","10111,1",,,,,"00,1,+99999,9,99,9",,"00,99,1,00,1,00,1,99999,9,00,1,00,1",,"01,9",,,,"99999,9,08176,1","2,1,017,1,-011,1",,"SYN082AAXX  24031 76373 32908 02701 10205 21075 38176 40111 52017 90250 333 30/// 59011;",
"76373099999","2011-03-24T12:00:00","4","25.35","-105.75","1967.0","TEPEHUANES DGO., MX","FM-12","99999","V020","999,9,C,0000,1","22000,1,9,N","000800,1,N,1","+0047,1","-0045,1","10132,1","24,0000,9,1",,,,,,"01,99,1,00,1,00,1,99999,9,00,1,03,1","0672,9","01,9","999,+0005,9","120,N,+0011,1","240,M,+0326,1","99999,9,08190,1","9,9,999,9,-006,1",,"SYN130AAXX  24121 76373 32908 10000 10047 21045 38190 40132 5//// 80003 91150 333 10326 20011 30005 55112 22593 56009 59006 70000 81067;",
"76373099999","2011-03-24T15:00:00","4","25.35","-105.75","1967.0","TEPEHUANES DGO., MX","FM-12","99999","V020","999,9,C,0000,1","22000,1,9,N","030000,1,N,1","+0136,1","-0050,1","10148,1",,,,,"03,1,+05100,1,00,1",,"03,99,1,00,1,00,1,99999,9,00,1,04,1",,"01,9",,,,"99999,9,08203,1","2,1,013,1,-003,1",,"SYN100AAXX  24151 76373 32980 30000 10136 21050 38203 40148 52013 80004 91450 333 30/// 56009 59003 83067;",
"76373099999","2011-03-24T21:00:00","4","25.35","-105.75","1967.0","TEPEHUANES DGO., MX","FM-12","99999","V020","320,1,N,0020,1","22000,1,9,N","030000,1,N,1","+0306,2","-0088,1","10087,1",,,,,"02,1,+01110,1,03,1",,"03,99,1,03,1,00,1,00800,1,02,1,01,1",,"01,9",,,,"99999,9,08154,1","7,1,022,1,-003,1",,"SYN106AAXX  24211 76373 32580 33202 10306 21088 38154 40087 57022 83021 92055 333 30/// 56099 59003 82337 81067;",
"76373099999","2011-03-25T00:00:00","4","25.35","-105.75","1967.0","TEPEHUANES DGO., MX","FM-12","99999","V020","250,1,N,0020,1","22000,1,9,N","030000,1,N,1","+0282,1","-0072,1","10088,1","24,0000,9,1",,,,"02,1,+01110,1,03,1",,"04,99,1,04,1,00,1,00800,1,02,1,02,1",,"01,9",,"120,M,+0322,1","180,N,+0011,1","99999,9,08154,1","4,1,000,1,-003,1",,"SYN130AAXX  25001 76373 32580 42502 10282 21072 38154 40088 54000 84022 92355 333 10322 20011 30/// 51001 56099 59003 70000 82337 82067;",
"76373099999","2011-03-25T03:00:00","4","25.35","-105.75","1967.0","TEPEHUANES DGO., MX","FM-12","99999","V020","999,9,C,0000,1","22000,1,9,N","001000,1,N,1","+0206,1","-0038,1","10111,1",,,,,"01,1,+01110,1,03,1",,"02,99,1,02,1,00,1,00800,1,01,1,01,1",,"01,9",,,,"99999,9,08173,1","2,1,021,1,-003,1",,"SYN100AAXX  25031 76373 32510 20000 10206 21038 38173 40111 52021 82011 90340 333 30/// 59003 81337 81067;",
"76373099999","2011-03-25T12:00:00","4","25.35","-105.75","1967.0","TEPEHUANES DGO., MX","FM-12","99999","V020","999,9,C,0000,1","22000,1,9,N","001000,1,N,1","+0050,1","-0047,1","10127,1","24,0000,9,1",,,,,,"02,99,1,02,1,02,1,00800,1,00,1,00,1","0642,9","09,9","999,-0010,9","120,N,+0010,1","240,M,+0322,1","99999,9,08186,1","9,9,999,9,-004,1",,"SYN130AAXX  25121 76373 32510 20000 10050 21047 38186 40127 5//// 82200 91155 333 10322 20010 31010 55107 21788 56900 59004 70000 82825;",
"76373099999","2011-03-25T15:00:00","4","25.35","-105.75","1967.0","TEPEHUANES DGO., MX","FM-12","99999","V020","999,9,C,0000,1","22000,1,9,N","030000,1,N,1","+0128,1","-0041,1","10137,1",,,,,"02,1,+00750,1,08,1",,"02,99,1,02,1,02,1,00800,1,00,1,00,1",,"01,9",,,,"99999,9,08194,1","7,1,008,1,-009,1",,"SYN100AAXX  25151 76373 32580 20000 10128 21041 38194 40137 57008 82200 91455 333 30/// 56900 59009 82825;",
"76373099999","2011-03-25T21:00:00","4","25.35","-105.75","1967.0","TEPEHUANES DGO., MX","FM-12","99999","V020","290,1,N,0020,1","22000,1,9,N","030000,1,N,1","+9999,9","-0095,1","10091,1",,,,,"02,1,+00750,1,08,1",,"02,99,1,02,1,02,1,99999,9,00,1,00,1",,"01,9",,,,"99999,9,08157,1","7,1,026,1,+007,1",,"SYN100AAXX  25211 76373 32980 22902 10304 21095 38157 40091 57026 82200 92055 333 30/// 56900 58007 82825;",
"76373099999","2011-03-26T03:00:00","4","25.35","-105.75","1967.0","TEPEHUANES DGO., MX","FM-12","99999","V020","999,9,C,0000,1","22000,1,9,N","001000,1,N,1","+0186,1","-0073,1","10109,1",,,,,"00,1,+99999,9,99,9",,"00,99,1,00,1,00,1,99999,9,00,1,00,1",,"01,9",,,,"99999,9,08172,1","2,1,024,1,-001,1",,"SYN082AAXX  26031 76373 32510 00000 10186 21073 38172 40109 52024 90255 333 30/// 59001;",
"76373099999","2011-03-26T12:00:00","4","25.35","-105.75","1967.0","TEPEHUANES DGO., MX","FM-12","99999","V020","999,9,C,0000,1","22000,1,9,N","001000,1,N,1","+0052,1","-0035,1","10111,1","24,0000,9,1",,,,,,"03,99,1,03,1,00,1,00800,1,03,1,00,1","0630,9","01,9","999,+0008,9","120,N,+0010,1","240,M,+0312,1","99999,9,08173,1","9,9,999,9,-013,1",,"SYN130AAXX  26121 76373 32510 30000 10052 21035 38173 40111 5//// 83030 91150 333 10312 20010 30008 55105 22480 56090 59013 70000 83337;",
"76373099999","2011-03-26T15:00:00","4","25.35","-105.75","1967.0","TEPEHUANES DGO., MX","FM-12","99999","V020","999,9,C,0000,1","22000,1,9,N","030000,1,N,1","+0132,1","-0028,1","10120,1",,,,,"04,1,+00750,1,06,1",,"04,99,1,04,1,04,1,00800,1,00,1,00,1",,"01,9",,,,"99999,9,08181,1","2,1,008,1,-013,1",,"SYN100AAXX  26151 76373 32580 40000 10132 21028 38181 40120 52008 84400 91455 333 30/// 56900 59013 84625;",
"76373099999","2011-03-26T18:00:00","4","25.35","-105.75","1967.0","TEPEHUANES DGO., MX","FM-12","99999","V020","999,9,C,0000,1","00750,1,9,N","030000,1,N,1","+9999,9","-0096,1","10100,1",,,,,"05,1,+00750,1,06,1",,"05,99,1,05,1,05,1,00800,1,00,1,00,1",,"01,9",,"120,M,+0288,1","240,N,+0010,1","99999,9,08165,1","7,1,016,1,-018,1",,"SYN112AAXX  26181 76373 32580 50000 10278 21096 38165 40100 57016 85500 91755 333 10288 20010 30/// 56900 59018 85625;",
"76373099999","2011-03-27T18:00:00","4","25.35","-105.75","1967.0","TEPEHUANES DGO., MX","FM-12","99999","V020","999,9,C,0000,1","22000,1,9,N","040000,1,N,1","+0246,1","-0116,1","10113,1",,,,,"00,1,+99999,9,99,9",,"00,99,1,00,1,00,1,99999,9,00,1,00,1",,"01,9",,"120,M,+0260,1","240,N,+0018,1","99999,9,08175,1","7,1,015,1,+010,1",,"SYN094AAXX  27181 76373 32982 00000 10246 21116 38175 40113 57015 91750 333 10260 20018 30/// 58010;",
"76373099999","2011-03-28T12:00:00","4","25.35","-105.75","1967.0","TEPEHUANES DGO., MX","FM-12","99999","V020","999,9,C,0000,1","22000,1,9,N","010000,1,N,1","+0025,1","-0081,1","10140,1",,,,,"00,1,+99999,9,99,9",,"00,99,1,00,1,00,1,99999,9,00,1,00,1","0630,9","09,9","999,-0030,9","120,N,-0010,1","240,M,+0305,1","99999,9,08197,1",,,"SYN112AAXX  28121 76373 32960 00000 10025 21081 38197 40140 5//// 91150 333 10305 21010 31030 55105 22400 58/// 70000;",
"76373099999","2011-03-28T15:00:00","4","25.35","-105.75","1967.0","TEPEHUANES DGO., MX","FM-12","99999","V020","999,9,C,0000,1","22000,1,9,N","040000,1,N,1","+0089,1","-0078,1","10142,1",,,,,"00,1,+99999,9,99,9",,"00,99,1,00,1,00,1,99999,9,00,1,00,1",,"01,9",,,,"99999,9,08198,1","3,1,001,1,+999,9",,"SYN082AAXX  28151 76373 32982 00000 10089 21078 38198 40142 53001 91450 333 30/// 58///;",
"76373099999","2011-03-28T18:00:00","4","25.35","-105.75","1967.0","TEPEHUANES DGO., MX","FM-12","99999","V020","999,9,C,0000,1","22000,1,9,N","040000,1,N,1","+0248,1","-0131,1","10125,1",,,,,"00,1,+99999,9,99,9",,"00,99,1,00,1,00,1,99999,9,00,1,00,1",,"01,9",,"120,M,+0260,1","240,N,-0010,1","99999,9,08184,1","7,1,014,1,+009,1",,"SYN094AAXX  28181 76373 32982 00000 10248 21131 38184 40125 57014 91750 333 10260 21010 30/// 58009;",
"76373099999","2011-03-28T21:00:00","4","25.35","-105.75","1967.0","TEPEHUANES DGO., MX","FM-12","99999","V020","180,1,N,0020,1","22000,1,9,N","040000,1,N,1","+0300,2","-0201,1","10081,1",,,,,"00,1,+99999,9,99,9",,"00,99,1,00,1,00,1,99999,9,00,1,00,1",,"01,9",,,,"99999,9,08149,1","7,1,035,1,+999,9",,"SYN082AAXX  28211 76373 32982 01802 10300 21201 38149 40081 57035 92050 333 30/// 58///;",
"76373099999","2011-03-29T00:00:00","4","25.35","-105.75","1967.0","TEPEHUANES DGO., MX","FM-12","99999","V020","220,1,N,0020,1","99999,9,9,N","040000,1,N,1","+0257,1","-0141,1","10084,1","24,0000,9,1",,,,,,"06,99,1,00,1,00,1,99999,9,00,1,09,1",,"01,9",,"120,M,+0320,1","180,N,-0010,1","99999,9,08151,1","3,1,002,1,+999,9",,"SYN112AAXX  29001 76373 32982 62202 10257 21141 38151 40084 53002 80009 92350 333 10320 21010 30/// 50841 58/// 70000;","Q01  00002PRCP24"
"76373099999","2011-03-29T12:00:00","4","25.35","-105.75","1967.0","TEPEHUANES DGO., MX","FM-12","99999","V020","999,9,C,0000,1","22000,1,9,N","000800,1,N,1","+0022,1","-0062,1","10129,1","24,0000,9,1",,,,,,"01,99,1,00,1,00,1,99999,9,00,1,02,1","0630,9","01,9","999,+0012,9","120,N,+0024,1","240,M,+0320,1","99999,9,08188,1","9,9,999,9,-009,1",,"SYN130AAXX  29121 76373 32908 10000 10022 21062 38188 40129 5//// 80002 91150 333 10320 20024 30012 55105 22360 56009 59009 70000 81067;",
"76373099999","2011-03-29T15:00:00","4","25.35","-105.75","1967.0","TEPEHUANES DGO., MX","FM-12","99999","V020","999,9,C,0000,1","22000,1,9,N","030000,1,N,1","+0086,1","-0054,1","10147,1",,,,,"01,1,+05100,1,00,1",,"01,99,1,00,1,00,1,99999,9,00,1,04,1",,"01,9",,,,"99999,9,08202,1","2,1,014,1,+004,1",,"SYN100AAXX  29151 76373 32980 10000 10086 21054 38202 40147 52014 80004 91440 333 30/// 56009 58004 81067;",
"76373099999","2011-03-29T18:00:00","4","25.35","-105.75","1967.0","TEPEHUANES DGO., MX","FM-12","99999","V020","999,9,C,0000,1","05100,1,9,N","070000,1,N,1","+0242,1","-0168,2","10129,1",,,,,"06,1,+05100,1,02,1",,"06,99,1,00,1,00,1,99999,9,00,1,08,1",,"01,9",,"120,M,+0258,1","240,N,+0024,1","99999,9,08188,1","7,1,014,1,+004,1",,"SYN112AAXX  29181 76373 32988 60000 10242 21168 38188 40129 57014 80008 91750 333 10258 20024 30/// 56009 58004 86267;",
"76373099999","2011-03-29T21:00:00","4","25.35","-105.75","1967.0","TEPEHUANES DGO., MX","FM-12","99999","V020","230,1,N,0030,1","22000,1,9,N","070000,1,N,1","+0288,2","-0168,1","10109,1",,,,,"04,1,+05100,1,02,1",,"04,99,1,00,1,00,1,99999,9,00,1,08,1",,"01,9",,,,"99999,9,08172,1","7,1,016,1,+023,1",,"SYN100AAXX  29211 76373 32988 42303 10288 21168 38172 40109 57016 80008 92050 333 30/// 56009 58023 84267;",
"76373099999","2011-03-30T00:00:00","4","25.35","-105.75","1967.0","TEPEHUANES DGO., MX","FM-12","99999","V020","280,1,N,0030,1","22000,1,9,N","070000,1,N,1","+0246,1","-0109,1","10145,1","24,0000,9,1",,,,,,"03,99,1,00,1,00,1,99999,9,00,1,08,1",,"01,9",,"120,M,+0299,1","180,N,+0024,1","99999,9,08200,1","2,1,018,1,+049,1",,"SYN124AAXX  30001 76373 32988 32803 10246 21109 38200 40145 52018 80008 92345 333 10299 20024 30/// 50671 56009 58049 70000 83267;",
"76373099999","2011-03-30T03:00:00","4","25.35","-105.75","1967.0","TEPEHUANES DGO., MX","FM-12","99999","V020","999,9,C,0000,1","22000,1,9,N","000800,1,N,1","+0167,1","-0092,1","10141,1",,,,,"01,1,+05100,1,02,1",,"01,99,1,00,1,00,1,99999,9,00,1,08,1",,"01,9",,,,"99999,9,08198,1","7,1,002,1,+999,9",,"SYN100AAXX  30031 76373 32908 10000 10167 21092 38198 40141 57002 80008 90250 333 30/// 56009 58/// 81267;",
"76373099999","2011-03-30T12:00:00","4","25.35","-105.75","1967.0","TEPEHUANES DGO., MX","FM-12","99999","V020","999,9,C,0000,1","22000,1,9,N","000800,1,N,1","-0007,1","-0107,1","10147,1",,,,,"00,1,+99999,9,99,9",,"00,99,1,00,1,00,1,99999,9,00,1,00,1","0636,9","09,9","999,-0018,9","120,N,-0010,1","240,M,+0299,1","99999,9,08202,1","9,9,999,9,+020,1",,"SYN112AAXX  30121 76373 32908 00000 11007 21107 38202 40147 5//// 91150 333 10299 21010 31018 55106 22335 58020 70000;",
"76373099999","2011-03-30T15:00:00","4","25.35","-105.75","1967.0","TEPEHUANES DGO., MX","FM-12","99999","V020","999,9,C,0000,1","22000,1,9,N","030000,1,N,1","+0070,1","-0106,1","10170,1",,,,,"01,1,+05100,1,00,1",,"01,99,1,00,1,00,1,99999,9,00,1,04,1",,"01,9",,,,"99999,9,08221,1","2,1,009,1,+019,1",,"SYN100AAXX  30151 76373 32980 10000 10070 21106 38221 40170 52009 80004 91435 333 30/// 56003 58019 81067;",
"76373099999","2011-03-30T18:00:00","4","25.35","-105.75","1967.0","TEPEHUANES DGO., MX","FM-12","99999","V020","999,9,C,0000,1","22000,1,9,N","070000,1,N,1","+9999,9","-0131,1","10144,1",,,,,"01,1,+00810,1,08,1",,"01,99,1,01,1,02,1,01250,1,00,1,00,1",,"01,9",,"120,M,+0252,1","240,N,-0010,1","99999,9,08200,1","7,1,019,1,+012,1",,"SYN112AAXX  30181 76373 32688 10000 10244 21131 38200 40144 57019 81200 91750 333 10252 21010 30/// 56300 58012 81827;",
"76373099999","2011-03-30T21:00:00","4","25.35","-105.75","1967.0","TEPEHUANES DGO., MX","FM-12","99999","V020","290,1,N,0020,1","22000,1,9,N","070000,1,N,1","+0280,1","-0198,1","10106,1",,,,,"01,1,+05100,1,02,1",,"01,99,1,00,1,00,1,99999,9,00,1,04,1",,"01,9",,,,"99999,9,08169,1","7,1,031,1,-003,1",,"SYN100AAXX  30211 76373 32988 12902 10280 21198 38169 40106 57031 80004 92050 333 30/// 56003 59003 81267;",
"76373099999","2011-03-31T00:00:00","4","25.35","-105.75","1967.0","TEPEHUANES DGO., MX","FM-12","99999","V020","240,1,N,0010,1","22000,1,9,N","070000,1,N,1","+0258,1","-0188,1","10102,1","24,0000,9,1",,,,,,"01,99,1,00,1,00,1,99999,9,00,1,04,1",,"01,9",,"120,M,+0292,1","180,N,-0010,1","99999,9,08166,1","7,1,003,1,-034,1",,"SYN124AAXX  31001 76373 32988 12401 10258 21188 38166 40102 57003 80004 92350 333 10292 21010 30/// 50911 56009 59034 70000 81067;",
"76373099999","2011-03-31T03:00:00","4","25.35","-105.75","1967.0","TEPEHUANES DGO., MX","FM-12","99999","V020","310,1,N,0010,1","22000,1,9,N","000800,1,N,1","+0179,1","-0124,1","10131,1",,,,,"01,1,+05100,1,00,1",,"01,99,1,00,1,00,1,99999,9,00,1,04,1",,"01,9",,,,"99999,9,08190,1","2,1,024,1,-008,1",,"SYN100AAXX  31031 76373 32908 13101 10179 21124 38190 40131 52024 80004 90250 333 30/// 56009 59008 81067;",
"76373099999","2011-03-31T12:00:00","4","25.35","-105.75","1967.0","TEPEHUANES DGO., MX","FM-12","99999","V020","999,9,C,0000,1","22000,1,9,N","000800,1,N,1","+0014,1","-0090,1","10142,1",,,,,"00,1,+99999,9,99,9",,"00,99,1,00,1,00,1,99999,9,00,1,00,1","0666,9","01,9","999,+0004,9","120,N,+0011,1","240,M,+0292,1","99999,9,08199,1","9,9,999,9,-003,1",,"SYN112AAXX  31121 76373 32908 00000 10014 21090 38199 40142 5//// 91150 333 10292 20011 30004 55111 22738 59003 70000;",
"76373099999","2011-03-31T15:00:00","4","25.35","-105.75","1967.0","TEPEHUANES DGO., MX","FM-12","99999","V020","999,9,C,0000,1","22000,1,9,N","030000,1,N,1","+0126,1","-0068,1","10155,1",,,,,"00,1,+99999,9,99,9",,"00,99,1,00,1,00,1,99999,9,00,1,00,1",,"01,9",,,,"99999,9,08209,1","2,1,010,1,-012,1",,"SYN082AAXX  31151 76373 32980 00000 10126 21068 38209 40155 52010 91450 333 30/// 59012;",
"76373099999","2011-03-31T18:00:00","4","25.35","-105.75","1967.0","TEPEHUANES DGO., MX","FM-12","99999","V020","140,1,N,0010,1","22000,1,9,N","030000,1,N,1","+0240,1","-0086,1","10136,1",,,,,"00,1,+99999,9,99,9",,"00,99,1,00,1,00,1,99999,9,00,1,00,1",,"01,9",,"120,M,+0250,1","240,N,+0011,1","99999,9,08194,1","7,1,015,1,-006,1",,"SYN094AAXX  31181 76373 32980 01401 10240 21086 38194 40136 57015 91755 333 10250 20011 30/// 59006;",
"76373099999","2011-03-31T21:00:00","4","25.35","-105.75","1967.0","TEPEHUANES DGO., MX","FM-12","99999","V020","140,1,N,0010,1","22000,1,9,N","030000,1,N,1","+0298,1","-0118,1","10100,1",,,,,"00,1,+99999,9,99,9",,"00,99,1,00,1,00,1,99999,9,00,1,00,1",,"01,9",,,,"99999,9,08165,1","7,1,031,1,-004,1",,"SYN082AAXX  31211 76373 32980 01401 10298 21118 38165 40100 57031 92050 333 30/// 59004;",
"76373099999","2011-04-01T00:00:00","4","25.35","-105.75","1967.0","TEPEHUANES DGO., MX","FM-12","99999","V020","140,1,N,0010,1","22000,1,9,N","030000,1,N,1","+0288,1","-0137,1","10074,1","24,0000,9,1",,,,"00,1,+99999,9,99,9",,"00,99,1,00,1,00,1,99999,9,00,1,00,1",,"01,9",,"120,M,+0320,1","180,N,+0011,1","99999,9,08144,1","7,1,021,1,-022,1",,"SYN106AAXX  01001 76373 32980 01401 10288 21137 38144 40074 57021 92350 333 10320 20011 30/// 50651 59022 70000;","Q01  00002PRCP24"
"76373099999","2011-04-01T03:00:00","4","25.35","-105.75","1967.0","TEPEHUANES DGO., MX","FM-12","99999","V020","999,9,C,0000,1","22000,1,9,N","001000,1,N,1","+0198,1","-0039,1","10107,1",,,,,"00,1,+99999,9,99,9",,"00,99,1,00,1,00,1,99999,9,00,1,00,1",,"01,9",,,,"99999,9,08170,1","2,1,034,1,-020,1",,"SYN082AAXX  01031 76373 32910 00000 10198 21039 38170 40107 52034 90255 333 30/// 59020;",
"76373099999","2011-04-01T12:00:00","4","25.35","-105.75","1967.0","TEPEHUANES DGO., MX","FM-12","99999","V020","999,9,C,0000,1","22000,1,9,N","001000,1,N,1","+0044,1","-0038,1","10124,1",,,,,"00,1,+99999,9,99,9",,"00,99,1,00,1,00,1,99999,9,00,1,00,1","0666,9","01,9","999,+0042,9","120,N,+0030,1","240,M,+0320,1","99999,9,08184,1","9,9,999,9,-014,1",,"SYN112AAXX  01121 76373 32910 00000 10044 21038 38184 40124 5//// 91155 333 10320 20030 30042 55111 22480 59014 70000;",
"76373099999","2011-04-01T15:00:00","4","25.35","-105.75","1967.0","TEPEHUANES DGO., MX","FM-12","99999","V020","340,1,N,0010,1","22000,1,9,N","030000,1,N,1","+0128,1","-0022,1","10144,1",,,,,"00,1,+99999,9,99,9",,"00,99,1,00,1,00,1,99999,9,00,1,00,1",,"01,9",,,,"99999,9,08200,1","2,1,024,1,-009,1",,"SYN082AAXX  01151 76373 32980 03401 10128 21022 38200 40144 52024 91450 333 30/// 59009;",
"76373099999","2011-04-01T18:00:00","4","25.35","-105.75","1967.0","TEPEHUANES DGO., MX","FM-12","99999","V020","140,1,N,0010,1","22000,1,9,N","030000,1,N,1","+0272,1","-0030,1","10126,1",,,,,"00,1,+99999,9,99,9",,"00,99,1,00,1,00,1,99999,9,00,1,00,1",,"01,9",,"120,M,+0278,1","240,N,+0030,1","99999,9,08185,1","7,1,015,1,-009,1",,"SYN094AAXX  01181 76373 32980 01401 10272 21030 38185 40126 57015 91755 333 10278 20030 30/// 59009;",
"76373099999","2011-04-01T21:00:00","4","25.35","-105.75","1967.0","TEPEHUANES DGO., MX","FM-12","99999","V020","160,1,N,0010,1","22000,1,9,N","030000,1,N,1","+0324,2","-0134,1","10088,1",,,,,"01,1,+00750,1,08,1",,"01,99,1,01,1,01,1,00800,1,00,1,00,1",,"01,9",,,,"99999,9,08154,1","7,1,031,1,-011,1",,"SYN094AAXX  01211 76373 32580 11601 10324 21134 38154 40088 57031 81100 92055 333 30/// 59011 81825;",
"76373099999","2011-04-02T00:00:00","4","25.35","-105.75","1967.0","TEPEHUANES DGO., MX","FM-12","99999","V020","160,1,N,0010,1","22000,1,9,N","030000,1,N,1","+0290,1","-0138,1","10080,1","24,0000,9,1",,,,,,"01,99,1,01,1,01,1,00800,1,00,1,00,1",,"01,9",,"120,M,+0340,1","180,N,+0030,1","99999,9,08149,1","5,1,005,1,+005,1",,"SYN124AAXX  02001 76373 32580 11601 10290 21138 38149 40080 55005 81100 92350 333 10340 20030 30/// 50751 56900 58005 70000 81825;",
"76373099999","2011-04-02T03:00:00","4","25.35","-105.75","1967.0","TEPEHUANES DGO., MX","FM-12","99999","V020","250,1,N,0010,1","22000,1,9,N","001000,1,N,1","+0206,1","-0001,1","10122,1",,,,,"01,1,+00750,1,08,1",,"01,99,1,01,1,01,1,00800,1,00,1,00,1",,"01,9",,,,"99999,9,08182,1","2,1,033,1,+012,1",,"SYN100AAXX  02031 76373 32510 12501 10206 21001 38182 40122 52033 81100 90250 333 30/// 56900 58012 81825;",
"76373099999","2011-04-02T15:00:00","4","25.35","-105.75","1967.0","TEPEHUANES DGO., MX","FM-12","99999","V020","999,9,C,0000,1","22000,1,9,N","030000,1,N,1","+0170,1","+0015,1","10165,1",,,,,"00,1,+99999,9,99,9",,"00,99,1,00,1,00,1,99999,9,00,1,00,1",,"01,9",,,,"99999,9,08217,1","2,1,016,1,+017,1",,"SYN082AAXX  02151 76373 32980 00000 10170 20015 38217 40165 52016 91455 333 30/// 58017;",
"76373099999","2011-04-02T18:00:00","4","25.35","-105.75","1967.0","TEPEHUANES DGO., MX","FM-12","99999","V020","140,1,N,0010,1","22000,1,9,N","030000,1,N,1","+0268,1","+0020,1","10149,1",,,,,"01,1,+00750,1,08,1",,"01,99,1,01,1,01,1,00800,1,00,1,00,1",,"01,9",,"120,M,+0274,1","240,N,+0008,1","99999,9,08204,1","7,1,013,1,+021,1",,"SYN112AAXX  02181 76373 32580 11401 10268 20020 38204 40149 57013 81100 91750 333 10274 20008 30/// 56900 58021 81825;",
"76373099999","2011-04-03T00:00:00","4","25.35","-105.75","1967.0","TEPEHUANES DGO., MX","FM-12","99999","V020","250,1,N,0020,1","22000,1,9,N","030000,1,N,1","+0304,1","-0030,1","10101,1","24,0000,9,1",,,,,,"03,99,1,03,1,02,1,00800,1,00,1,00,1",,"01,9",,"120,M,+0340,1","180,N,+0008,1","99999,9,08165,1","7,1,011,1,+016,1",,"SYN124AAXX  03001 76373 32580 32502 10304 21030 38165 40101 57011 83200 92350 333 10340 20008 30/// 50741 56900 58016 70000 83830;",
"76373099999","2011-04-03T12:00:00","4","25.35","-105.75","1967.0","TEPEHUANES DGO., MX","FM-12","99999","V020","999,9,C,0000,1","22000,1,9,N","010000,1,N,1","+0076,1","+0006,1","10152,1",,,,,"00,1,+99999,9,99,9",,"00,99,1,00,1,00,1,99999,9,00,1,00,1","0642,9","01,9","999,+0048,9","120,N,+0065,1","240,M,+0340,1","99999,9,08206,1","9,9,999,9,+005,1",,"SYN112AAXX  03121 76373 32960 00000 10076 20006 38206 40152 5//// 91150 333 10340 20065 30048 55107 22116 58005 70000;",
"76373099999","2011-04-03T15:00:00","4","25.35","-105.75","1967.0","TEPEHUANES DGO., MX","FM-12","99999","V020","999,9,C,0000,1","22000,1,9,N","030000,1,N,1","+0085,1","-0001,1","10163,1",,,,,"00,1,+99999,9,99,9",,"00,99,1,00,1,00,1,99999,9,00,1,00,1",,"01,9",,,,"99999,9,08216,1","7,1,010,1,-001,1",,"SYN082AAXX  03151 76373 32980 00000 10085 21001 38216 40163 57010 91450 333 30/// 59001;",
"76373099999","2011-04-03T21:00:00","4","25.35","-105.75","1967.0","TEPEHUANES DGO., MX","FM-12","99999","V020","220,1,N,0010,1","22000,1,9,N","030000,1,N,1","+9999,9","-0074,1","10092,1",,,,,"01,1,+00900,1,08,1",,"01,99,1,01,1,02,1,01250,1,00,1,00,1",,"01,9",,,,"99999,9,08158,1","7,1,019,1,-014,1",,"SYN100AAXX  03211 76373 32680 12201 10337 21074 38158 40092 57019 81200 92050 333 30/// 56900 59014 81830;",
"76373099999","2011-04-04T15:00:00","4","25.35","-105.75","1967.0","TEPEHUANES DGO., MX","FM-12","99999","V020","999,9,C,0000,1","22000,1,9,N","030000,1,N,1","+0163,1","+0004,1","10168,1",,,,,"00,1,+99999,9,99,9",,"00,99,1,00,1,00,1,99999,9,00,1,00,1",,"01,9",,,,"99999,9,08220,1","2,1,014,1,+004,1",,"SYN082AAXX  04151 76373 32980 00000 10163 20004 38220 40168 52014 91450 333 30/// 58004;",
"76373099999","2011-04-05T00:00:00","4","25.35","-105.75","1967.0","TEPEHUANES DGO., MX","FM-12","99999","V020","220,1,N,0010,1","01200,1,9,N","030000,1,N,1","+0298,1","-0042,1","10109,1","24,0000,9,1",,,,"02,1,+00990,1,08,1",,"07,99,1,07,1,02,1,01250,1,06,1,00,1",,"01,9",,"120,M,+0339,1","180,N,+0050,1","99999,9,08172,1","9,9,999,9,+006,1",,"SYN130AAXX  05001 76373 32680 72201 10298 21042 38172 40109 5//// 87260 92350 333 10339 20050 30/// 50741 56990 58006 70000 82833 85650;",
"76373099999","2011-04-05T12:00:00","4","25.35","-105.75","1967.0","TEPEHUANES DGO., MX","FM-12","99999","V020","999,9,C,0000,1","22000,1,9,N","000800,1,N,1","+0061,1","-0028,1","10162,1","24,0000,9,1",,,,,,"02,99,1,00,1,00,1,99999,9,00,1,04,1","0570,9","01,9","999,+0038,9","120,N,+0050,1","240,M,+0339,1","99999,9,08214,1","9,9,999,9,+010,1",,"SYN130AAXX  05121 76373 32908 20000 10061 21028 38214 40162 5//// 80004 91150 333 10339 20050 30038 55095 21949 56009 58010 70000 82067;",
"76373099999","2011-04-05T15:00:00","4","25.35","-105.75","1967.0","TEPEHUANES DGO., MX","FM-12","99999","V020","999,9,C,0000,1","00660,1,9,N","020000,1,N,1","+0130,1","-0028,1","10178,1",,,,,"06,1,+00660,1,06,1",,"06,99,1,06,1,04,1,01250,1,00,1,00,1",,"01,9",,,,"99999,9,08228,1","2,1,012,1,-008,1",,"SYN100AAXX  05151 76373 32670 60000 10130 21028 38228 40178 52012 86400 91445 333 30/// 56900 59008 86622;",
"76373099999","2011-04-05T18:00:00","4","25.35","-105.75","1967.0","TEPEHUANES DGO., MX","FM-12","99999","V020","120,1,N,0010,1","04800,1,9,N","030000,1,N,1","+0270,1","-0050,1","10162,1",,,,,"05,1,+04800,1,02,1",,"05,99,1,00,1,00,1,99999,9,00,1,04,1",,"01,9",,"120,M,+0280,1","240,N,+0050,1","99999,9,08214,1","7,1,014,1,+000,1",,"SYN112AAXX  05181 76373 32980 51201 10270 21050 38214 40162 57014 80004 91750 333 10280 20050 30/// 56009 58000 85266;",
"76373099999","2011-04-05T21:00:00","4","25.35","-105.75","1967.0","TEPEHUANES DGO., MX","FM-12","99999","V020","130,1,N,0010,1","00720,1,9,N","030000,1,N,1","+0317,2","-0056,1","10121,1",,,,,"07,1,+00720,1,06,1",,"07,99,1,07,1,04,1,00800,1,00,1,00,1",,"01,9",,,,"99999,9,08182,1","7,1,032,1,+009,1",,"SYN100AAXX  05211 76373 32580 71301 10317 21056 38182 40121 57032 87400 92050 333 30/// 56900 58009 87624;",
"76373099999","2011-04-06T00:00:00","4","25.35","-105.75","1967.0","TEPEHUANES DGO., MX","FM-12","99999","V020","270,1,N,0030,1","22000,1,9,N","020000,1,N,1","+0287,1","-0072,1","10121,1","24,0000,9,1",,,,,,"03,99,1,03,1,04,1,00800,1,00,1,00,1",,"01,9",,"120,M,+0336,1","180,N,+0050,1","99999,9,08181,1","8,1,001,1,+009,1",,"SYN124AAXX  06001 76373 32570 32703 10287 21072 38181 40121 58001 83400 92350 333 10336 20050 30/// 50801 56900 58009 70000 83624;",
"76373099999","2011-04-06T03:00:00","4","25.35","-105.75","1967.0","TEPEHUANES DGO., MX","FM-12","99999","V020","999,9,C,0000,1","22000,1,9,N","000500,1,N,1","+0211,1","-0033,1","10153,1",,,,,"03,1,+00720,1,06,1",,"03,99,1,03,1,05,1,00800,1,00,1,00,1",,"01,9",,,,"99999,9,08207,1","2,1,026,1,+999,9",,"SYN100AAXX  06031 76373 32505 30000 10211 21033 38207 40153 52026 83500 90250 333 30/// 56900 58/// 83624;",
"76373099999","2011-04-06T12:00:00","4","25.35","-105.75","1967.0","TEPEHUANES DGO., MX","FM-12","99999","V020","999,9,C,0000,1","22000,1,9,N","000500,1,N,1","+0054,1","-0015,1","10175,1",,,,,"00,1,+99999,9,99,9",,"00,99,1,00,1,00,1,99999,9,00,1,00,1","0540,9","01,9","999,+0030,9","120,N,+0046,1","240,M,+0350,1","99999,9,08225,1","9,9,999,9,+010,1",,"SYN112AAXX  06121 76373 32905 00000 10054 21015 38225 40175 5//// 91150 333 10350 20046 30030 55090 21933 58010 70000;",
"76373099999","2011-04-06T15:00:00","4","25.35","-105.75","1967.0","TEPEHUANES DGO., MX","FM-12","99999","V020","999,9,C,0000,1","22000,1,9,N","020000,1,N,1","+0141,1","+0004,1","10191,1",,,,,"02,1,+00720,1,06,1",,"02,99,1,02,1,05,1,01250,1,00,1,00,1",,"01,9",,,,"99999,9,08238,1","2,1,013,1,-010,1",,"SYN100AAXX  06151 76373 32670 20000 10141 20004 38238 40191 52013 82500 91450 333 30/// 56900 59010 82624;",
"76373099999","2011-04-06T18:00:00","4","25.35","-105.75","1967.0","TEPEHUANES DGO., MX","FM-12","99999","V020","050,1,N,0010,1","22000,1,9,N","030000,1,N,1","+0283,1","-0048,1","10174,1",,,,,"03,1,+00720,1,06,1",,"03,99,1,03,1,05,1,00800,1,00,1,00,1",,"01,9",,"120,M,+0290,1","240,N,+0046,1","99999,9,08224,1","7,1,014,1,+010,1",,"SYN112AAXX  06181 76373 32580 30501 10283 21048 38224 40174 57014 83500 91740 333 10290 20046 30/// 56900 58010 83624;",
"76373099999","2011-04-06T21:00:00","4","25.35","-105.75","1967.0","TEPEHUANES DGO., MX","FM-12","99999","V020","270,1,N,0030,1","22000,1,9,N","030000,1,N,1","+0294,1","-0118,1","10148,1",,,,,"04,1,+00720,1,09,1",,"04,99,1,04,1,03,1,00800,1,00,1,00,1",,"01,9",,,,"99999,9,08203,1","7,1,021,1,+021,1",,"SYN100AAXX  06211 76373 32580 42703 10294 21118 38203 40148 57021 84300 92050 333 30/// 56900 58021 84924;",
"76373099999","2011-04-07T00:00:00","4","25.35","-105.75","1967.0","TEPEHUANES DGO., MX","FM-12","99999","V020","240,1,N,0030,1","22000,1,9,N","030000,1,N,1","+0273,1","-0137,1","10138,1","24,0000,9,1",,,,"02,1,+00720,1,06,1",,"03,99,1,02,1,04,1,00800,1,00,1,00,1",,"01,9",,"120,M,+0322,1","180,N,+0046,1","99999,9,08195,1","7,1,008,1,+014,1",,"SYN130AAXX  07001 76373 32580 32403 10273 21137 38195 40138 57008 82400 92350 333 10322 20046 30/// 50861 56900 58014 70000 82624 81824;",
"76373099999","2011-04-07T03:00:00","4","25.35","-105.75","1967.0","TEPEHUANES DGO., MX","FM-12","99999","V020","270,1,N,0010,1","22000,1,9,N","000500,1,N,1","+0201,1","-0086,1","10160,1",,,,,"02,1,+00720,1,06,1",,"02,99,1,02,1,04,1,00800,1,00,1,00,1",,"01,9",,,,"99999,9,08213,1","2,1,018,1,+006,1",,"SYN100AAXX  07031 76373 32505 22701 10201 21086 38213 40160 52018 82400 90240 333 30/// 56900 58006 82624;",
"76373099999","2011-04-07T12:00:00","4","25.35","-105.75","1967.0","TEPEHUANES DGO., MX","FM-12","99999","V020","999,9,C,0000,1","22000,1,9,N","000500,1,N,1","+0034,1","-0067,1","10146,1",,,,,"00,1,+99999,9,99,9",,"00,99,1,00,1,00,1,99999,9,00,1,00,1","0618,9","01,9","999,+0017,9","120,N,+0028,1","240,M,+0322,1","99999,9,08201,1","9,9,999,9,-024,1",,"SYN112AAXX  07121 76373 32905 00000 10034 21067 38201 40146 5//// 91150 333 10322 20028 30017 55103 22416 59024 70000;",
"76373099999","2011-04-07T15:00:00","4","25.35","-105.75","1967.0","TEPEHUANES DGO., MX","FM-12","99999","V020","999,9,C,0000,1","22000,1,9,N","030000,1,N,1","+0140,1","-0046,1","10156,1",,,,,"00,1,+99999,9,99,9",,"00,99,1,00,1,00,1,99999,9,00,1,00,1",,"01,9",,,,"99999,9,08210,1","2,1,009,1,-028,1",,"SYN082AAXX  07151 76373 32980 00000 10140 21046 38210 40156 52009 91445 333 30/// 59028;",
"76373099999","2011-04-07T18:00:00","4","25.35","-105.75","1967.0","TEPEHUANES DGO., MX","FM-12","99999","V020","250,1,N,0010,1","22000,1,9,N","030000,1,N,1","+0286,1","-0100,1","10134,1",,,,,"00,1,+99999,9,99,9",,"00,99,1,00,1,00,1,99999,9,00,1,00,1",,"01,9",,"120,M,+0298,1","240,N,+0028,1","99999,9,08192,1","7,1,018,1,-032,1",,"SYN094AAXX  07181 76373 32980 02501 10286 21100 38192 40134 57018 91755 333 10298 20028 30/// 59032;",
"76373099999","2011-04-07T21:00:00","4","25.35","-105.75","1967.0","TEPEHUANES DGO., MX","FM-12","99999","V020","230,1,N,0020,1","22000,1,9,N","030000,1,N,1","+0294,1","-0074,1","10113,1",,,,,"01,1,+00750,1,08,1",,"01,99,1,01,1,01,1,00800,1,00,1,00,1",,"01,9",,,,"99999,9,08175,1","7,1,017,1,-028,1",,"SYN100AAXX  07211 76373 32580 12302 10294 21074 38175 40113 57017 81100 92050 333 30/// 56900 59028 81825;",
"76373099999","2011-04-08T00:00:00","4","25.35","-105.75","1967.0","TEPEHUANES DGO., MX","FM-12","99999","V020","320,1,N,0030,1","22000,1,9,N","030000,1,N,1","+0260,1","-0061,1","10106,1","24,0000,9,1",,,,,,"01,99,1,01,1,01,1,00800,1,00,1,00,1",,"01,9",,"120,M,+0310,1","180,N,+0028,1","99999,9,08169,1","7,1,006,1,-026,1",,"SYN124AAXX  08001 76373 32580 13203 10260 21061 38169 40106 57006 81100 92355 333 10310 20028 30/// 50931 56900 59026 70000 81825;",
"76373099999","2011-04-08T03:00:00","4","25.35","-105.75","1967.0","TEPEHUANES DGO., MX","FM-12","99999","V020","999,9,C,0000,1","22000,1,9,N","001000,1,N,1","+0186,1","-0064,1","10122,1",,,,,"00,1,+99999,9,99,9",,"00,99,1,00,1,00,1,99999,9,00,1,00,1",,"01,9",,,,"99999,9,08182,1","0,1,213,2,-031,1",,"SYN082AAXX  08031 76373 32910 00000 10186 21064 38182 40122 50213 90255 333 30/// 59031;",
"76373099999","2011-04-08T15:00:00","4","25.35","-105.75","1967.0","TEPEHUANES DGO., MX","FM-12","99999","V020","999,9,C,0000,1","22000,1,9,N","030000,1,N,1","+0150,1","-0036,1","10139,1",,,,,"01,1,+01050,1,03,1",,"01,99,1,01,1,00,1,00800,1,01,1,00,1",,"01,9",,,,"99999,9,08196,1","5,1,004,1,-014,1",,"SYN100AAXX  08151 76373 32580 10000 10150 21036 38196 40139 55004 81010 91455 333 30/// 56090 59014 81335;",
"76373099999","2011-04-08T18:00:00","4","25.35","-105.75","1967.0","TEPEHUANES DGO., MX","FM-12","99999","V020","250,1,N,0020,1","22000,1,9,N","030000,1,N,1","+0280,1","-0109,1","10124,1",,,,,"02,1,+01050,1,03,1",,"02,99,1,02,1,00,1,00800,1,02,1,00,1",,"01,9",,"120,M,+0292,1","240,N,+0028,1","99999,9,08183,1","7,1,011,1,-011,1",,"SYN112AAXX  08181 76373 32580 22502 10280 21109 38183 40124 57011 82020 91755 333 10292 20028 30/// 56090 59011 82335;",
"76373099999","2011-04-08T21:00:00","4","25.35","-105.75","1967.0","TEPEHUANES DGO., MX","FM-12","99999","V020","230,1,N,0020,1","22000,1,9,N","030000,1,N,1","+0294,1","-0085,1","10114,1",,,,,"01,1,+01050,1,03,1",,"01,99,1,01,1,00,1,00800,1,01,1,00,1",,"01,9",,,,"99999,9,08176,1","7,1,007,1,+001,1",,"SYN100AAXX  08211 76373 32580 12302 10294 21085 38176 40114 57007 81010 92055 333 30/// 56090 58001 81335;",
"76373099999","2011-04-09T00:00:00","4","25.35","-105.75","1967.0","TEPEHUANES DGO., MX","FM-12","99999","V020","230,1,N,0020,1","22000,1,9,N","030000,1,N,1","+0250,1","-0061,1","10111,1","24,0000,9,1",,,,,,"01,99,1,01,1,00,1,00800,1,01,1,00,1",,"01,9",,"120,M,+0300,1","180,N,+0028,1","99999,9,08173,1","5,1,003,1,+004,1",,"SYN124AAXX  09001 76373 32580 12302 10250 21061 38173 40111 55003 81010 92355 333 10300 20028 30/// 50961 56090 58004 70000 81335;",
"76373099999","2011-04-09T03:00:00","4","25.35","-105.75","1967.0","TEPEHUANES DGO., MX","FM-12","99999","V020","250,1,N,0010,1","22000,1,9,N","001000,1,N,1","+0186,1","-0029,1","10126,1",,,,,"00,1,+99999,9,99,9",,"00,99,1,00,1,00,1,99999,9,00,1,00,1",,"01,9",,,,"99999,9,08185,1","2,1,012,1,+003,1",,"SYN082AAXX  09031 76373 32910 02501 10186 21029 38185 40126 52012 90250 333 30/// 58003;",
"76373099999","2011-04-09T12:00:00","4","25.35","-105.75","1967.0","TEPEHUANES DGO., MX","FM-12","99999","V020","999,9,C,0000,1","22000,1,9,N","001000,1,N,1","+0064,1","+0001,1","10137,1",,,,,"00,1,+99999,9,99,9",,"00,99,1,00,1,00,1,99999,9,00,1,00,1","0690,9","01,9",,"120,N,+0050,1","240,M,+0300,1","99999,9,08194,1","9,9,999,9,+002,1",,"SYN112AAXX  09121 76373 32910 00000 10064 20001 38194 40137 5//// 91150 333 10300 20050 30062 55115 22617 58002 70000;",
"76373099999","2011-04-09T15:00:00","4","25.35","-105.75","1967.0","TEPEHUANES DGO., MX","FM-12","99999","V020","999,9,C,0000,1","22000,1,9,N","030000,1,N,1","+0172,1","+0018,1","10147,1",,,,,"00,1,+99999,9,99,9",,"00,99,1,00,1,00,1,99999,9,00,1,00,1",,"01,9",,,,"99999,9,08202,1","2,1,012,1,+006,1",,"SYN082AAXX  09151 76373 32980 00000 10172 20018 38202 40147 52012 91450 333 30/// 58006;",
"76373099999","2011-04-09T18:00:00","4","25.35","-105.75","1967.0","TEPEHUANES DGO., MX","FM-12","99999","V020","230,1,N,0020,1","22000,1,9,N","030000,1,N,1","+0276,1","-0028,1","10153,1",,,,,"00,1,+99999,9,99,9",,"00,99,1,00,1,00,1,99999,9,00,1,00,1",,"01,9",,"120,M,+0280,1","240,N,+0050,1","99999,9,08207,1","2,1,005,1,+024,1",,"SYN094AAXX  09181 76373 32980 02302 10276 21028 38207 40153 52005 91735 333 10280 20050 30/// 58024;",
"76373099999","2011-04-10T00:00:00","4","25.35","-105.75","1967.0","TEPEHUANES DGO., MX","FM-12","99999","V020","240,1,N,0020,1","22000,1,9,N","030000,1,N,1","+0254,1","-0032,1","10122,1","24,0000,9,1",,,,"00,1,+99999,9,99,9",,"00,99,1,00,1,00,1,99999,9,00,1,00,1",,"01,9",,"120,M,+0303,1","180,N,+0050,1","99999,9,08182,1","7,1,007,1,+009,1",,"SYN106AAXX  10001 76373 32980 02402 10254 21032 38182 40122 57007 92350 333 10303 20050 30/// 50881 58009 70000;","Q01  00002PRCP24"
"76373099999","2011-04-10T12:00:00","4","25.35","-105.75","1967.0","TEPEHUANES DGO., MX","FM-12","99999","V020","999,9,C,0000,1","22000,1,9,N","010000,1,N,1","+0072,1","+0013,1","10145,1",,,,,"00,1,+99999,9,99,9",,"00,99,1,00,1,00,1,99999,9,00,1,00,1","0690,9","01,9","999,+0035,9","120,N,+0062,1","240,M,+0303,1","99999,9,08201,1","9,9,999,9,+007,1",,"SYN112AAXX  10121 76373 32960 00000 10072 20013 38201 40145 5//// 91150 333 10303 20062 30035 55115 22553 58007 70000;",
"76373099999","2011-04-10T18:00:00","4","25.35","-105.75","1967.0","TEPEHUANES DGO., MX","FM-12","99999","V020","240,1,N,0020,1","22000,1,9,N","030000,1,N,1","+0280,1","-0058,1","10142,1",,,,,"00,1,+99999,9,99,9",,"00,99,1,00,1,00,1,99999,9,00,1,00,1",,"01,9",,"120,M,+0290,1","240,N,+0062,1","99999,9,08198,1","7,1,005,1,-009,1",,"SYN094AAXX  10181 76373 32980 02402 10280 21058 38198 40142 57005 91750 333 10290 20062 30/// 59009;",
"76373099999","2011-04-10T21:00:00","4","25.35","-105.75","1967.0","TEPEHUANES DGO., MX","FM-12","99999","V020","240,1,N,0020,1","22000,1,9,N","030000,1,N,1","+0303,1","-0068,1","10126,1",,,,,"01,1,+00990,1,06,1",,"01,99,1,01,1,06,1,01250,1,00,1,00,1",,"01,9",,,,"99999,9,08185,1","7,1,013,1,-004,1",,"SYN100AAXX  10211 76373 32680 12402 10303 21068 38185 40126 57013 81600 92050 333 30/// 56900 59004 81633;",
"76373099999","2011-04-11T00:00:00","4","25.35","-105.75","1967.0","TEPEHUANES DGO., MX","FM-12","99999","V020","220,1,N,0010,1","22000,1,9,N","030000,1,N,1","+0272,1","-0064,1","10127,1","24,0000,9,1",,,,"00,1,+99999,9,99,9",,"00,99,1,00,1,00,1,99999,9,00,1,00,1",,"01,9",,"120,M,+0320,1","180,N,+0062,1","99999,9,08186,1","5,1,001,1,+004,1",,"SYN106AAXX  11001 76373 32980 02201 10272 21064 38186 40127 55001 92350 333 10320 20062 30/// 50921 58004 70000;","Q01  00002PRCP24"
"76373099999","2011-04-11T03:00:00","4","25.35","-105.75","1967.0","TEPEHUANES DGO., MX","FM-12","99999","V020","999,9,C,0000,1","22000,1,9,N","010000,1,N,1","+0180,1","-0060,1","10156,1",,,,,"00,1,+99999,9,99,9",,"00,99,1,00,1,00,1,99999,9,00,1,00,1",,"01,9",,,,"99999,9,08209,1","2,1,023,1,+999,9",,"SYN082AAXX  11031 76373 32960 00000 10180 21060 38209 40156 52023 90250 333 30/// 58///;",
"76373099999","2011-04-11T12:00:00","4","25.35","-105.75","1967.0","TEPEHUANES DGO., MX","FM-12","99999","V020","999,9,C,0000,1","22000,1,9,N","010000,1,N,1","+0040,1","-0050,1","10182,1",,,,,"00,1,+99999,9,99,9",,"00,99,1,00,1,00,1,99999,9,00,1,00,1","0678,9","09,9","999,-0008,9","120,N,+0026,1","240,M,+0320,1","99999,9,08231,1","9,9,999,9,+030,1",,"SYN112AAXX  11121 76373 32960 00000 10040 21050 38231 40182 5//// 91150 333 10320 20026 31008 55113 22561 58030 70000;",
"76373099999","2011-04-11T18:00:00","4","25.35","-105.75","1967.0","TEPEHUANES DGO., MX","FM-12","99999","V020","110,1,N,0020,1","22000,1,9,N","030000,1,N,1","+0236,1","-0098,1","10178,1",,,,,"03,1,+05100,1,01,1",,"03,99,1,00,1,00,1,99999,9,00,1,09,1",,"01,9",,"120,M,+0250,1","240,N,+0026,1","99999,9,08228,1","7,1,008,1,+030,1",,"SYN112AAXX  11181 76373 32980 31102 10236 21098 38228 40178 57008 80009 91750 333 10250 20026 30/// 56009 58030 83167;",
"76373099999","2011-04-11T21:00:00","4","25.35","-105.75","1967.0","TEPEHUANES DGO., MX","FM-12","99999","V020","130,1,N,0020,1","22000,1,9,N","030000,1,N,1","+0289,1","-0103,1","10140,1",,,,,"04,1,+05100,1,01,1",,"04,99,1,00,1,00,1,99999,9,00,1,09,1",,"01,9",,,,"99999,9,08197,1","7,1,019,1,+012,1",,"SYN100AAXX  11211 76373 32980 41302 10289 21103 38197 40140 57019 80009 92050 333 30/// 56009 58012 84167;",
"76373099999","2011-04-12T00:00:00","4","25.35","-105.75","1967.0","TEPEHUANES DGO., MX","FM-12","99999","V020","140,1,N,0020,1","22000,1,9,N","030000,1,N,1","+0276,1","-0090,1","10121,1","24,0000,9,1",,,,,,"02,99,1,00,1,00,1,99999,9,00,1,09,1",,"01,9",,"120,M,+0310,1","180,N,+0026,1","99999,9,08181,1","7,1,016,1,-005,1",,"SYN124AAXX  12001 76373 32980 21402 10276 21090 38181 40121 57016 80009 92350 333 10310 20026 30/// 50721 56009 59005 70000 82167;",
"76373099999","2011-04-12T12:00:00","4","25.35","-105.75","1967.0","TEPEHUANES DGO., MX","FM-12","99999","V020","999,9,C,0000,1","22000,1,9,N","000600,1,N,1","+0037,1","-0055,1","10170,1","24,0000,9,1",,,,"00,1,+99999,9,99,9",,"00,99,1,00,1,00,1,99999,9,00,1,00,1","0660,9","01,9","999,+0014,9","120,N,+0028,1","240,M,+0310,1","99999,9,08221,1","9,9,999,9,-010,1",,"SYN130AAXX  12121 76373 32906 00000 10037 21055 38221 40170 5//// 82200 91150 333 10310 20028 30014 55110 22609 56900 59010 70000 82827;",
"76373099999","2011-04-12T15:00:00","4","25.35","-105.75","1967.0","TEPEHUANES DGO., MX","FM-12","99999","V020","999,9,C,0000,1","22000,1,9,N","030000,1,N,1","+0153,1","-0053,1","10175,1",,,,,"02,1,+00810,1,08,1",,"02,99,1,02,1,02,1,01250,1,00,1,00,1",,"01,9",,,,"99999,9,08225,1","2,1,004,1,-011,1",,"SYN100AAXX  12151 76373 32680 20000 10153 21053 38225 40175 52004 82200 91450 333 30/// 56900 59011 82827;",
"76373099999","2011-04-12T18:00:00","4","25.35","-105.75","1967.0","TEPEHUANES DGO., MX","FM-12","99999","V020","300,1,N,0010,1","22000,1,9,N","030000,1,N,1","+0295,1","-0082,1","10146,1",,,,,"02,1,+00810,1,08,1",,"02,99,1,02,1,02,1,01250,1,00,1,00,1",,"01,9",,"120,M,+0300,1","240,N,+0028,1","99999,9,08201,1","7,1,014,1,-027,1",,"SYN112AAXX  12181 76373 32680 23001 10295 21082 38201 40146 57014 82200 91750 333 10300 20028 30/// 56900 59027 82827;",
"76373099999","2011-04-12T21:00:00","4","25.35","-105.75","1967.0","TEPEHUANES DGO., MX","FM-12","99999","V020","270,1,N,0030,1","22000,1,9,N","030000,1,N,1","+0316,1","-0114,1","10124,1",,,,,"01,1,+00810,1,08,1",,"04,99,1,01,1,02,1,01250,1,00,1,04,1",,"01,9",,,,"99999,9,08184,1","7,1,017,1,-013,1",,"SYN106AAXX  12211 76373 32680 42703 10316 21114 38184 40124 57017 81204 92050 333 30/// 56909 59013 81827 83067;",
"76373099999","2011-04-13T00:00:00","4","25.35","-105.75","1967.0","TEPEHUANES DGO., MX","FM-12","99999","V020","240,1,N,0020,1","22000,1,9,N","030000,1,N,1","+0305,1","-0072,1","10117,1","24,0000,9,1",,,,"02,1,+00810,1,08,1",,"04,99,1,02,1,02,1,01250,1,00,1,04,1",,"01,9",,"120,M,+0346,1","180,N,+0028,1","99999,9,08178,1","7,1,006,1,-003,1",,"SYN130AAXX  13001 76373 32680 42402 10305 21072 38178 40117 57006 82204 92340 333 10346 20028 30/// 50921 56909 59003 70000 82827 82067;",
"76373099999","2011-04-13T12:00:00","4","25.35","-105.75","1967.0","TEPEHUANES DGO., MX","FM-12","99999","V020","999,9,C,0000,1","22000,1,9,N","000600,1,N,1","+0056,1","-0049,1","10164,1","24,0000,9,1",,,,,,"01,99,1,01,1,02,1,01250,1,00,1,00,1","0672,9","01,9","999,+0020,9","120,N,+0046,1","240,M,+0346,1","99999,9,08216,1","9,9,999,9,-005,1",,"SYN130AAXX  13121 76373 32606 10000 10056 21049 38216 40164 5//// 81200 91155 333 10346 20046 30020 55112 22609 56900 59005 70000 81827;",
"76373099999","2011-04-13T15:00:00","4","25.35","-105.75","1967.0","TEPEHUANES DGO., MX","FM-12","99999","V020","999,9,C,0000,1","22000,1,9,N","030000,1,N,1","+0168,1","-0023,1","10182,1",,,,,"02,1,+00810,1,08,1",,"04,99,1,02,1,02,1,01250,1,00,1,02,1",,"01,9",,,,"99999,9,08230,1","2,1,014,1,+005,1",,"SYN106AAXX  13151 76373 32680 40000 10168 21023 38230 40182 52014 82202 91450 333 30/// 56909 58005 82827 82067;",
"76373099999","2011-04-13T18:00:00","4","25.35","-105.75","1967.0","TEPEHUANES DGO., MX","FM-12","99999","V020","070,1,N,0010,1","22000,1,9,N","030000,1,N,1","+0303,1","-0079,1","10160,1",,,,,"01,1,+00810,1,08,1",,"02,99,1,01,1,02,1,01250,1,00,1,02,1",,"01,9",,"120,M,+0312,1","240,N,+0046,1","99999,9,08213,1","7,1,017,1,+012,1",,"SYN112AAXX  13181 76373 32680 20701 10303 21079 38213 40160 57017 81202 91750 333 10312 20046 30/// 56909 58012 81827;",
"76373099999","2011-04-13T21:00:00","4","25.35","-105.75","1967.0","TEPEHUANES DGO., MX","FM-12","99999","V020","230,1,N,0020,1","22000,1,C,N","030000,1,N,1","+0315,1","-0093,1","10134,1",,,,,"02,1,+00810,1,08,1",,"05,99,1,02,1,02,1,01250,1,00,1,04,1",,"01,9",,,,"99999,9,08192,1","7,1,015,1,+008,1",,"SYN106AAXX  13211 76373 32680 52302 10315 21093 38192 40134 57015 82204 92050 333 30/// 56909 58008 82827 83067;",
"76373099999","2011-04-14T00:00:00","4","25.35","-105.75","1967.0","TEPEHUANES DGO., MX","FM-12","99999","V020","300,1,N,0020,1","00750,1,9,N","030000,1,N,1","+0287,1","-0084,1","10135,1","24,0000,9,1",,,,,,"05,99,1,05,1,04,1,00800,1,00,1,00,1",,"01,9",,"120,M,+0348,1","180,N,+0046,1","99999,9,08193,1","3,1,001,1,+006,1",,"SYN124AAXX  14001 76373 32580 53002 10287 21084 38193 40135 53001 85400 92340 333 10348 20046 30/// 50971 56900 58006 70000 85624;",
"76373099999","2011-04-14T03:00:00","4","25.35","-105.75","1967.0","TEPEHUANES DGO., MX","FM-12","99999","V020","999,9,C,0000,1","22000,1,9,N","000600,1,N,1","+0213,1","-0070,1","10158,1",,,,,"01,1,+00810,1,08,1",,"03,99,1,01,1,02,1,01250,1,00,1,07,1",,"01,9",,,,"99999,9,08211,1","2,1,018,1,+015,1",,"SYN106AAXX  14031 76373 32606 30000 10213 21070 38211 40158 52018 81207 90250 333 30/// 56909 58015 81827 82267;",
"76373099999","2011-04-14T12:00:00","4","25.35","-105.75","1967.0","TEPEHUANES DGO., MX","FM-12","99999","V020","999,9,C,0000,1","22000,1,9,N","000600,1,N,1","+0083,1","-0031,1","10150,1",,,,,"00,1,+99999,9,99,9",,"00,99,1,00,1,00,1,99999,9,00,1,00,1","0630,9","01,9",,"120,N,+0078,1","240,M,+0348,1","99999,9,08205,1","9,9,999,9,-011,1",,"SYN112AAXX  14121 76373 32906 00000 10083 21031 38205 40150 5//// 91150 333 10348 20078 30060 55105 22360 59011 70000;",
"76373099999","2011-04-14T15:00:00","4","25.35","-105.75","1967.0","TEPEHUANES DGO., MX","FM-12","99999","V020","999,9,C,0000,1","00720,1,9,N","020000,1,N,1","+0122,1","-0023,1","10159,1",,,,,"07,1,+00720,1,07,1",,"07,99,1,07,1,06,1,00800,1,00,1,00,1",,"01,9",,,,"99999,9,08212,1","2,1,007,1,-018,1",,"SYN100AAXX  14151 76373 32570 70000 10122 21023 38212 40159 52007 87600 91445 333 30/// 56900 59018 87724;",
"76373099999","2011-04-14T18:00:00","4","25.35","-105.75","1967.0","TEPEHUANES DGO., MX","FM-12","99999","V020","320,1,N,0010,1","00750,1,9,N","010000,1,N,1","+0262,1","-0093,1","10145,1",,,,,"07,1,+00750,1,06,1",,"07,99,1,07,1,07,1,00800,1,00,1,00,1",,"01,9",,"120,M,+0270,1","240,N,+0078,1","99999,9,08201,1","7,1,011,1,-002,1",,"SYN112AAXX  14181 76373 32560 73201 10262 21093 38201 40145 57011 87700 91755 333 10270 20078 30/// 56900 59002 87625;",
"76373099999","2011-04-14T21:00:00","4","25.35","-105.75","1967.0","TEPEHUANES DGO., MX","FM-12","99999","V020","290,1,N,0020,1","22000,1,9,N","010000,1,N,1","+0306,1","-0167,1","10111,1",,,,,"02,1,+01050,1,03,1",,"04,99,1,04,1,00,1,00800,1,02,1,02,1",,"01,9",,,,"99999,9,08173,1","7,1,028,1,-019,1",,"SYN106AAXX  14211 76373 32560 42902 10306 21167 38173 40111 57028 84022 92055 333 30/// 56099 59019 82335 82067;",
"76373099999","2011-04-15T03:00:00","4","25.35","-105.75","1967.0","TEPEHUANES DGO., MX","FM-12","99999","V020","290,1,N,0010,1","22000,1,9,N","001000,1,N,1","+0218,1","-0046,1","10121,1",,,,,"01,1,+01050,1,08,1",,"02,99,1,02,1,99,9,00800,1,01,1,01,1",,"01,9",,,,"99999,9,08181,1","2,1,016,1,-030,1",,"SYN106AAXX  15031 76373 32510 22901 10218 21046 38181 40121 52016 82011 90255 333 30/// 56099 59030 81835 81067;",
"76373099999","2011-04-15T12:00:00","4","25.35","-105.75","1967.0","TEPEHUANES DGO., MX","FM-12","99999","V020","999,9,C,0000,1","22000,1,9,N","001000,1,N,1","+0048,1","-0043,1","10132,1","24,0000,9,1",,,,,,"02,99,1,02,1,00,1,00800,1,02,1,00,1","0420,9","01,9","999,+0026,9","120,N,+0038,1","240,M,+0332,1","99999,9,08190,1","9,9,999,9,+015,1",,"SYN130AAXX  15121 76373 32510 20000 10048 21043 38190 40132 5//// 82020 91155 333 10332 20038 30026 55070 21731 56090 58015 70000 82330;",
"76373099999","2011-04-15T15:00:00","4","25.35","-105.75","1967.0","TEPEHUANES DGO., MX","FM-12","99999","V020","999,9,C,0000,1","22000,1,9,N","003000,1,N,1","+0140,1","-0032,1","10149,1",,,,,"01,1,+00600,1,08,1","01,1,+00900,1,03,1","03,99,1,03,1,01,1,00800,1,01,1,01,1",,"01,9",,,,"99999,9,08204,1","2,1,014,1,-008,1",,"SYN112AAXX  15151 76373 32530 30000 10140 21032 38204 40149 52014 83111 91455 333 30/// 56999 59008 81820 81330 81067;",
"76373099999","2011-04-15T18:00:00","4","25.35","-105.75","1967.0","TEPEHUANES DGO., MX","FM-12","99999","V020","110,1,N,0010,1","22000,1,9,N","004000,1,N,1","+0272,1","-0071,1","10137,1",,,,,"01,1,+00900,1,03,1",,"03,99,1,03,1,00,1,00800,1,01,1,02,1",,"01,9",,"120,M,+0280,1","240,N,+0038,1","99999,9,08194,1","7,1,012,1,-007,1",,"SYN118AAXX  15181 76373 32540 31101 10272 21071 38194 40137 57110 83012 91755 333 10280 20038 30/// 56099 59007 81330 82060;",
"76373099999","2011-04-15T21:00:00","4","25.35","-105.75","1967.0","TEPEHUANES DGO., MX","FM-12","99999","V020","140,1,N,0010,1","22000,1,9,N","004000,1,N,1","+0316,1","-0089,1","99999,9",,,,,,,"04,99,1,99,9,99,9,00800,1,99,9,99,9",,,,,,,,,"SYN106AAXX  15211 76373 32540 41401 10316 21089 27028 38166 40102 84022 92055 333 30/// 56099 59007 82330 82067;",
"76373099999","2011-04-16T00:00:00","4","25.35","-105.75","1967.0","TEPEHUANES DGO., MX","FM-12","99999","V020","140,1,N,0020,1","00750,1,9,N","005000,1,N,1","+0294,1","-0108,1","10085,1","24,0000,9,1",,,,"02,1,+01050,1,03,1",,"05,99,1,05,1,00,1,00800,1,02,1,03,1",,"01,9",,"120,M,+0330,1","180,N,+0038,1","99999,9,08152,1","7,1,014,1,-013,1",,"SYN130AAXX  16001 76373 32550 51402 10294 21108 38152 40085 57014 85023 92355 333 10330 20038 30/// 50781 56099 59013 70000 82335 83060;",
"76373099999","2011-04-16T03:00:00","4","25.35","-105.75","1967.0","TEPEHUANES DGO., MX","FM-12","99999","V020","999,9,C,0000,1","22000,1,9,N","001000,1,N,1","+0208,1","-0099,1","10111,1",,,,,"03,1,+00900,1,03,1",,"03,99,1,03,1,00,1,00800,1,03,1,00,1",,"01,9",,,,"99999,9,08173,1","2,1,021,1,-008,1",,"SYN100AAXX  16031 76373 32510 30000 10208 21099 38173 40111 52021 83030 90250 333 30/// 56090 59008 83330;",
"76373099999","2011-04-16T12:00:00","4","25.35","-105.75","1967.0","TEPEHUANES DGO., MX","FM-12","99999","V020","999,9,C,0000,1","00750,1,9,N","001000,1,N,1","+0060,1","-0054,1","10135,1","24,0000,9,1",,,,"02,1,+00750,1,06,1",,"05,99,1,05,1,02,1,00800,1,03,1,00,1","0552,9","01,9","999,+0040,9","120,N,+0050,1","240,M,+0330,1","99999,9,08193,1","9,9,999,9,+003,1",,"SYN136AAXX  16121 76373 32510 50000 10060 21054 38193 40135 5//// 85230 91155 333 10330 20050 30040 55092 22093 56990 58003 70000 82625 83330;",
"76373099999","2011-04-16T15:00:00","4","25.35","-105.75","1967.0","TEPEHUANES DGO., MX","FM-12","99999","V020","999,9,C,0000,1","22000,1,9,N","030000,1,N,1","+0176,1","-0056,1","10140,1",,,,,"02,1,+00900,1,03,1",,"02,99,1,02,1,00,1,00800,1,02,1,00,1",,"01,9",,,,"99999,9,08197,1","3,1,004,1,-007,1",,"SYN100AAXX  16151 76373 32580 20000 10176 21056 38197 40140 53004 82020 91455 333 30/// 56090 59007 82330;",
"76373099999","2011-04-16T18:00:00","4","25.35","-105.75","1967.0","TEPEHUANES DGO., MX","FM-12","99999","V020","110,1,N,0010,1","22000,1,9,N","005000,1,N,1","+0284,1","-0074,1","10122,1",,,,,"02,1,+00900,1,03,1",,"02,99,1,02,1,00,1,00800,1,02,1,00,1",,"01,9",,"120,M,+0286,1","240,N,+0050,1","99999,9,08182,1","7,1,015,1,-012,1",,"SYN112AAXX  16181 76373 32550 21101 10284 21074 38182 40122 57015 82020 91750 333 10286 20050 30/// 56090 59012 82330;",
"76373099999","2011-04-16T21:00:00","4","25.35","-105.75","1967.0","TEPEHUANES DGO., MX","FM-12","99999","V020","220,1,N,0020,1","22000,1,9,N","020000,1,N,1","+0338,1","-0124,1","10088,1",,,,,"01,1,+00810,1,08,1",,"02,99,1,01,1,02,1,01250,1,02,1,00,1",,"01,9",,,,"99999,9,08155,1","7,1,027,1,-011,1",,"SYN100AAXX  16211 76373 32670 22202 10338 21124 38155 40088 57027 81220 92050 333 30/// 56990 59011 81827;",
"76373099999","2011-04-17T00:00:00","4","25.35","-105.75","1967.0","TEPEHUANES DGO., MX","FM-12","99999","V020","240,1,N,0010,1","22000,1,9,N","020000,1,N,1","+0297,1","-0093,1","10069,1","24,0000,9,1",,,,,,"03,99,1,02,1,00,1,01750,1,03,1,04,1",,"01,9",,"120,M,+0350,1","180,N,+0050,1","99999,9,08140,1","7,1,015,1,-053,1",,"SYN124AAXX  17001 76373 32770 32401 10297 21093 38140 40069 57015 82034 92350 333 10350 20050 30/// 50931 56099 59053 70000 82356;",
"76373099999","2011-04-17T03:00:00","4","25.35","-105.75","1967.0","TEPEHUANES DGO., MX","FM-12","99999","V020","240,1,N,0010,1","22000,1,9,N","010000,1,N,1","+0207,1","+0028,2","10123,1",,,,,"00,1,+99999,9,99,9",,"00,99,1,00,1,00,1,99999,9,00,1,00,1",,"01,9",,,,"99999,9,08183,1","2,1,043,1,-028,1",,"SYN082AAXX  17031 76373 32960 02401 10207 20028 38183 40123 52043 90250 333 30/// 59028;",
"76373099999","2011-04-17T12:00:00","4","25.35","-105.75","1967.0","TEPEHUANES DGO., MX","FM-12","99999","V020","999,9,C,0000,1","22000,1,9,N","010000,1,N,1","+9999,9","+9999,9","10149,1",,,,,"00,1,+99999,9,99,9",,"00,99,1,00,1,00,1,99999,9,00,1,00,1","0726,9","01,9","999,+0017,9","120,N,+0052,1","240,M,+0350,1","99999,9,08204,1","9,9,999,9,+011,1",,"SYN112AAXX  17121 76373 32960 00000 10002 20006 38204 40149 5//// 91150 333 10350 20052 30017 55121 22376 58011 70000;","Q01 +00023ATOT  "
"76373099999","2011-04-17T15:00:00","4","25.35","-105.75","1967.0","TEPEHUANES DGO., MX","FM-12","99999","V020","999,9,C,0000,1","22000,1,9,N","025000,1,N,1","+0154,1","+0025,1","10160,1",,,,,"00,1,+99999,9,99,9",,"00,99,1,00,1,00,1,99999,9,00,1,00,1",,"01,9",,,,"99999,9,08213,1","7,1,001,1,+016,1",,"SYN082AAXX  17151 76373 32975 00000 10154 20025 38213 40160 57001 91450 333 30/// 58016;",
"76373099999","2011-04-17T21:00:00","4","25.35","-105.75","1967.0","TEPEHUANES DGO., MX","FM-12","99999","V020","290,1,N,0020,1","22000,1,9,N","025000,1,N,1","+0300,1","-0083,1","10101,1",,,,,"00,1,+99999,9,99,9",,"00,99,1,00,1,00,1,99999,9,00,1,00,1",,"01,9",,,,"99999,9,08165,1","9,9,999,9,+010,1",,"SYN082AAXX  17211 76373 32975 02902 10300 21083 38165 40101 5//// 92050 333 30/// 58010;",
"76373099999","2011-04-18T00:00:00","4","25.35","-105.75","1967.0","TEPEHUANES DGO., MX","FM-12","99999","V020","240,1,N,0010,1","22000,1,9,N","024000,1,N,1","+0272,1","-0034,1","10104,1","24,0000,9,1",,,,"00,1,+99999,9,99,9",,"00,99,1,00,1,00,1,99999,9,00,1,00,1",,"01,9",,"120,M,+0320,1","180,N,+0052,1","99999,9,08168,1","2,1,003,1,+028,1",,"SYN106AAXX  18001 76373 32974 02401 10272 21034 38168 40104 52003 92350 333 10320 20052 30/// 50801 58028 70000;","Q01  00002PRCP24"
"76373099999","2011-04-18T03:00:00","4","25.35","-105.75","1967.0","TEPEHUANES DGO., MX","FM-12","99999","V020","240,1,N,0010,1","22000,1,9,N","010000,1,N,1","+0205,1","+0023,1","10132,1",,,,,"00,1,+99999,9,99,9",,"00,99,1,00,1,00,1,99999,9,00,1,00,1",,"01,9",,,,"99999,9,08190,1","2,1,022,1,+007,1",,"SYN082AAXX  18031 76373 32960 02401 10205 20023 38190 40132 52022 90250 333 30/// 58007;",
"76373099999","2011-04-18T12:00:00","4","25.35","-105.75","1967.0","TEPEHUANES DGO., MX","FM-12","99999","V020","999,9,C,0000,1","22000,1,9,N","010000,1,N,1","+0062,1","+0021,1","10145,1",,,,,"00,1,+99999,9,99,9",,"00,99,1,00,1,00,1,99999,9,00,1,00,1","0762,9","01,9","999,+0010,9","120,N,+0050,1","240,M,+0320,1","99999,9,08201,1","9,9,999,9,+003,1",,"SYN112AAXX  18121 76373 32960 00000 10062 20021 38201 40145 5//// 91150 333 10320 20050 30010 55127 22513 58003 70000;",
"76373099999","2011-04-18T18:00:00","4","25.35","-105.75","1967.0","TEPEHUANES DGO., MX","FM-12","99999","V020","999,9,C,0000,1","22000,1,9,N","024000,1,N,1","+0278,1","-0084,1","10137,1",,,,,"00,1,+99999,9,99,9",,"00,99,1,00,1,00,1,99999,9,00,1,00,1",,"01,9",,"120,M,+0290,1","240,N,+0050,1","99999,9,08194,1","9,9,999,9,+028,1",,"SYN094AAXX  18181 76373 32974 00000 10278 21084 38194 40137 5//// 91750 333 10290 20050 30/// 58028;",
"76373099999","2011-04-18T21:00:00","4","25.35","-105.75","1967.0","TEPEHUANES DGO., MX","FM-12","99999","V020","290,1,N,0010,1","22000,1,9,N","024000,1,N,1","+0304,1","-0108,1","10097,1",,,,,"00,1,+99999,9,99,9",,"00,99,1,00,1,00,1,99999,9,00,1,00,1",,"01,9",,,,"99999,9,08162,1","7,1,032,1,+007,1",,"SYN082AAXX  18211 76373 32974 02901 10304 21108 38162 40097 57032 92050 333 30/// 58007;",
"76373099999","2011-04-19T00:00:00","4","25.35","-105.75","1967.0","TEPEHUANES DGO., MX","FM-12","99999","V020","220,1,N,0020,1","22000,1,9,N","024000,1,N,1","+0265,1","-0048,1","10098,1","24,0000,9,1",,,,"00,1,+99999,9,99,9",,"00,99,1,00,1,00,1,99999,9,00,1,00,1",,"01,9",,"120,M,+0320,1","180,N,+0050,1","99999,9,08163,1","2,1,001,1,-005,1",,"SYN106AAXX  19001 76373 32974 02202 10265 21048 38163 40098 52001 92350 333 10320 20050 30/// 50101 59005 70000;","Q01  00002PRCP24"
"76373099999","2011-04-19T12:00:00","4","25.35","-105.75","1967.0","TEPEHUANES DGO., MX","FM-12","99999","V020","999,9,C,0000,1","22000,1,9,N","001000,1,N,1","+0051,1","-0059,1","10139,1","24,0000,9,1",,,,,,"03,99,1,00,1,00,1,99999,9,00,1,04,1","0780,9","01,9","999,+0018,9","120,N,+0039,1","240,M,+0320,1","99999,9,08196,1","9,9,999,9,-005,1",,"SYN130AAXX  19121 76373 32910 30000 10051 21059 38196 40139 5//// 80004 91150 333 10320 20039 30018 55130 22577 56009 59005 70000 83067;",
"76373099999","2011-04-19T15:00:00","4","25.35","-105.75","1967.0","TEPEHUANES DGO., MX","FM-12","99999","V020","999,9,C,0000,1","22000,1,9,N","030000,1,N,1","+0128,1","-0056,1","10148,1",,,,,"01,1,+05100,1,00,1",,"01,99,1,00,1,00,1,99999,9,00,1,04,1",,"01,9",,,,"99999,9,08203,1","2,1,007,1,+002,1",,"SYN100AAXX  19151 76373 32980 10000 10128 21056 38203 40148 52007 80004 91450 333 30/// 56909 58002 81067;",
"76373099999","2011-04-19T18:00:00","4","25.35","-105.75","1967.0","TEPEHUANES DGO., MX","FM-12","99999","V020","120,1,N,0010,1","22000,1,9,N","030000,1,N,1","+0277,1","-0121,1","10132,1",,,,,"01,1,+00810,1,08,1",,"01,99,1,01,1,01,1,01250,1,00,1,00,1",,"01,9",,"120,M,+0288,1","240,N,+0039,1","99999,9,08190,1","7,1,013,1,-004,1",,"SYN112AAXX  19181 76373 32680 11201 10277 21121 38190 40132 57013 81100 91750 333 10288 20039 30/// 56900 59004 81827;",
"76373099999","2011-04-19T21:00:00","4","25.35","-105.75","1967.0","TEPEHUANES DGO., MX","FM-12","99999","V020","310,1,N,0010,1","22000,1,9,N","030000,1,N,1","+0308,1","-0144,1","10098,1",,,,,"01,1,+00810,1,08,1",,"01,99,1,01,1,01,1,01250,1,00,1,00,1",,"01,9",,,,"99999,9,08163,1","7,1,027,1,+001,1",,"SYN100AAXX  19211 76373 32680 13101 10308 21144 38163 40098 57027 81100 92050 333 30/// 56900 58001 81827;",
"76373099999","2011-04-20T00:00:00","4","25.35","-105.75","1967.0","TEPEHUANES DGO., MX","FM-12","99999","V020","240,1,N,0010,1","22000,1,9,N","030000,1,N,1","+0301,1","-0146,1","10091,1","24,0000,9,1",,,,,,"01,99,1,01,1,01,1,01250,1,00,1,00,1",,"01,9",,"120,M,+0338,1","180,N,+0039,1","99999,9,08157,1","7,1,006,1,-006,1",,"SYN124AAXX  20001 76373 32680 12401 10301 21146 38157 40091 57006 81100 92345 333 10338 20039 30/// 50831 56900 59006 70000 81827;",
"76373099999","2011-04-20T12:00:00","4","25.35","-105.75","1967.0","TEPEHUANES DGO., MX","FM-12","99999","V020","999,9,C,0000,1","22000,1,9,N","000800,1,N,1","+0051,1","-0050,1","10150,1",,,,,"00,1,+99999,9,99,9",,"00,99,1,00,1,00,1,99999,9,00,1,00,1","0720,9","01,9","999,+0027,9","120,N,+0038,1","240,M,+0338,1","99999,9,08205,1","9,9,999,9,+009,1",,"SYN112AAXX  20121 76373 32908 00000 10051 21050 38205 40150 5//// 91150 333 10338 20038 30027 55120 22746 58009 70000;",
"76373099999","2011-04-20T15:00:00","4","25.35","-105.75","1967.0","TEPEHUANES DGO., MX","FM-12","99999","V020","999,9,C,0000,1","22000,1,9,N","030000,1,N,1","+0144,1","-0043,1","10161,1",,,,,"00,1,+99999,9,99,9",,"00,99,1,00,1,00,1,99999,9,00,1,00,1",,"01,9",,,,"99999,9,08214,1","2,1,009,1,+011,1",,"SYN082AAXX  20151 76373 32980 00000 10144 21043 38214 40161 52009 91450 333 30/// 58011;",
"76373099999","2011-04-20T18:00:00","4","25.35","-105.75","1967.0","TEPEHUANES DGO., MX","FM-12","99999","V020","999,9,C,0000,1","22000,1,9,N","030000,1,N,1","+0275,1","-0113,1","10145,1",,,,,"00,1,+99999,9,99,9",,"00,99,1,00,1,00,1,99999,9,00,1,00,1",,"01,9",,"120,M,+0282,1","240,N,+0038,1","99999,9,08201,1","7,1,013,1,+011,1",,"SYN094AAXX  20181 76373 32980 00000 10275 21113 38201 40145 57013 91750 333 10282 20038 30/// 58011;",
"76373099999","2011-04-20T21:00:00","4","25.35","-105.75","1967.0","TEPEHUANES DGO., MX","FM-12","99999","V020","060,1,N,0010,1","22000,1,9,N","030000,1,N,1","+0333,2","-0120,1","10114,1",,,,,"00,1,+99999,9,99,9",,"00,99,1,00,1,00,1,99999,9,00,1,00,1",,"01,9",,,,"99999,9,08176,1","7,1,025,1,+013,1",,"SYN082AAXX  20211 76373 32980 00601 10333 21120 38176 40114 57025 92040 333 30/// 58013;",
"76373099999","2011-04-21T00:00:00","4","25.35","-105.75","1967.0","TEPEHUANES DGO., MX","FM-12","99999","V020","280,1,N,0020,1","22000,1,9,N","030000,1,N,1","+0304,1","-0108,1","10102,1","24,0000,9,1",,,,"00,1,+99999,9,99,9",,"00,99,1,00,1,00,1,99999,9,00,1,00,1",,"01,9",,"120,M,+0356,1","180,N,+0038,1","99999,9,08166,1","7,1,010,1,+009,1",,"SYN106AAXX  21001 76373 32980 02802 10304 21108 38166 40102 57010 92345 333 10356 20038 30/// 50911 58009 70000;","Q01  00002PRCP24"
"76373099999","2011-04-21T03:00:00","4","25.35","-105.75","1967.0","TEPEHUANES DGO., MX","FM-12","99999","V020","250,1,N,0010,1","22000,1,9,N","000800,1,N,1","+0218,1","-0077,1","10128,1",,,,,"00,1,+99999,9,99,9",,"00,99,1,00,1,00,1,99999,9,00,1,00,1",,"01,9",,,,"99999,9,08187,1","2,1,022,1,-002,1",,"SYN082AAXX  21031 76373 32908 02501 10218 21077 38187 40128 52022 90250 333 30/// 59002;",
"76373099999","2011-04-21T15:00:00","4","25.35","-105.75","1967.0","TEPEHUANES DGO., MX","FM-12","99999","V020","999,9,C,0000,1","22000,1,9,N","030000,1,N,1","+0129,1","-0066,1","10152,1",,,,,"00,1,+99999,9,99,9",,"00,99,1,00,1,00,1,99999,9,00,1,00,1",,"01,9",,,,"99999,9,08206,1","2,1,006,1,-008,1",,"SYN082AAXX  21151 76373 32980 00000 10129 21066 38206 40152 52006 91450 333 30/// 59008;",
"76373099999","2011-04-21T18:00:00","4","25.35","-105.75","1967.0","TEPEHUANES DGO., MX","FM-12","99999","V020","110,1,N,0010,1","22000,1,9,N","010000,1,N,1","+9999,9","-0085,1","10131,1",,,,,"00,1,+99999,9,99,9",,"00,99,1,00,1,00,1,99999,9,00,1,00,1",,"01,9",,"120,M,+0290,1","240,N,+0036,1","99999,9,08190,1","7,1,016,1,-011,1",,"SYN094AAXX  21181 76373 32960 01101 10274 21085 38190 40131 57016 91750 333 10290 20036 30/// 59011;",
"76373099999","2011-04-22T03:00:00","4","25.35","-105.75","1967.0","TEPEHUANES DGO., MX","FM-12","99999","V020","999,9,C,0000,1","22000,1,9,N","001000,1,N,1","+0212,1","-0024,1","10122,1",,,,,"00,1,+99999,9,99,9",,"00,99,1,00,1,00,1,99999,9,00,1,00,1",,"01,9",,,,"99999,9,08182,1","2,1,018,1,-005,1",,"SYN082AAXX  22031 76373 32910 00000 10212 21024 38182 40122 52018 90250 333 30/// 59005;",
"76373099999","2011-04-22T21:00:00","4","25.35","-105.75","1967.0","TEPEHUANES DGO., MX","FM-12","99999","V020","290,1,N,0020,1","22000,1,9,N","005000,1,N,1","+0328,1","-0144,1","10090,1",,,,,"00,1,+99999,9,99,9",,"00,99,1,00,1,00,1,99999,9,00,1,00,1",,"01,9",,,,"99999,9,08156,1","7,1,025,1,-004,1",,"SYN082AAXX  22211 76373 32950 02902 10328 21144 38156 40090 57025 92055 333 30/// 59004;",
"76373099999","2011-04-23T00:00:00","4","25.35","-105.75","1967.0","TEPEHUANES DGO., MX","FM-12","99999","V020","250,1,N,0020,1","22000,1,9,N","010000,1,N,1","+0306,1","-0076,1","10079,1","24,0000,9,1",,,,"00,1,+99999,9,99,9",,"00,99,1,00,1,00,1,99999,9,00,1,00,1",,"01,9",,"120,M,+0350,1","180,N,+0042,1","99999,9,08148,1","5,1,008,1,-014,1",,"SYN106AAXX  23001 76373 32960 02502 10306 21076 38148 40079 55008 92350 333 10350 20042 30/// 50881 59014 70000;","Q01  00002PRCP24"
"76373099999","2011-04-23T03:00:00","4","25.35","-105.75","1967.0","TEPEHUANES DGO., MX","FM-12","99999","V020","250,1,N,0010,1","22000,1,9,N","001000,1,N,1","+0222,1","+0028,1","10115,1",,,,,"00,1,+99999,9,99,9",,"00,99,1,00,1,00,1,99999,9,00,1,00,1",,"01,9",,,,"99999,9,08177,1","2,1,029,1,-005,1",,"SYN082AAXX  23031 76373 32910 02501 10222 20028 38177 40115 52029 90250 333 30/// 59005;",
"76373099999","2011-04-23T12:00:00","4","25.35","-105.75","1967.0","TEPEHUANES DGO., MX","FM-12","99999","V020","999,9,C,0000,1","22000,1,9,N","001000,1,N,1","+0082,1","+0021,1","10137,1",,,,,"00,1,+99999,9,99,9",,"00,99,1,00,1,00,1,99999,9,00,1,00,1","0720,9","01,9",,"120,N,+0070,1","240,M,+0350,1","99999,9,08194,1","9,9,999,9,-001,1",,"SYN112AAXX  23121 76373 32910 00000 10082 20021 38194 40137 5//// 91150 333 10350 20070 30058 55120 22536 59001 70000;",
"76373099999","2011-04-23T15:00:00","4","25.35","-105.75","1967.0","TEPEHUANES DGO., MX","FM-12","99999","V020","290,1,N,0010,1","22000,1,9,N","005000,1,N,1","+0152,1","+0039,1","99999,9",,,,,,,"04,99,1,99,9,99,9,00800,1,99,9,99,9",,,,,,,,,"SYN108AAXX  23151 76373 32550 42901 10152 20039 3 38201 40145 57007 84022 91455 333 30/// 56099 58000 82625 82067;",
"76373099999","2011-04-23T18:00:00","4","25.35","-105.75","1967.0","TEPEHUANES DGO., MX","FM-12","99999","V020","320,1,N,0010,1","22000,1,9,N","010000,1,N,1","+0280,1","-0058,1","10117,1",,,,,"01,1,+00750,1,03,1",,"03,99,1,03,1,00,1,00800,1,01,1,02,1",,"01,9",,"120,M,+0290,1","240,N,+0070,1","99999,9,08178,1","7,1,023,1,-003,1",,"SYN118AAXX  23181 76373 32560 33201 10280 21058 38178 40117 57023 83012 91755 333 10290 20070 30/// 56099 59003 81325 82067;",
"76373099999","2011-04-23T21:00:00","4","25.35","-105.75","1967.0","TEPEHUANES DGO., MX","FM-12","99999","V020","230,1,N,0020,1","22000,1,9,N","005000,1,N,1","+0324,2","-0108,1","10093,1",,,,,"01,1,+00900,1,03,1",,"03,99,1,03,1,00,1,00800,1,01,1,02,1",,"01,9",,,,"99999,9,08154,1","7,1,019,1,+003,1",,"SYN106AAXX  23211 76373 32550 32302 10324 21108 38154 40093 57019 83012 92055 333 30/// 56099 58003 81330 82067;",
"76373099999","2011-04-24T00:00:00","4","25.35","-105.75","1967.0","TEPEHUANES DGO., MX","FM-12","99999","V020","240,1,N,0020,1","22000,1,9,N","024000,1,N,1","+0289,1","-0082,1","10091,1","24,0000,9,1",,,,"01,1,+01500,1,03,1",,"03,99,1,01,1,00,1,01750,1,03,1,04,1",,"01,9",,"120,M,+0350,1","180,N,+0066,1","99999,9,08157,1","7,1,002,1,+999,9",,"SYN118AAXX  24001 76373 32774 32402 10289 21082 38157 40091 57002 81034 92350 333 10350 20066 30/// 50941 56099 70000 81350;",
"76373099999","2011-04-24T12:00:00","4","25.35","-105.75","1967.0","TEPEHUANES DGO., MX","FM-12","99999","V020","999,9,C,0000,1","22000,1,9,N","010000,1,N,1","+0072,1","-0046,1","10139,1",,,,,"00,1,+99999,9,99,9",,"00,99,1,00,1,00,1,99999,9,00,1,00,1","0702,9","01,9","999,+0030,9","120,N,+0060,1","240,M,+0350,1","99999,9,08196,1","9,9,999,9,+002,1",,"SYN112AAXX  24121 76373 32960 00000 10072 21046 38196 40139 5//// 91150 333 10350 20060 30030 55117 22561 58002 70000;",
"76373099999","2011-04-24T15:00:00","4","25.35","-105.75","1967.0","TEPEHUANES DGO., MX","FM-12","99999","V020","999,9,C,0000,1","03600,1,C,N","024000,1,N,1","+0140,1","-0047,1","10152,1",,,,,"01,1,+00900,1,08,1",,"05,99,1,03,1,02,1,01750,1,03,1,02,1",,"01,9",,,,"99999,9,08206,1","2,1,010,1,+005,1",,"SYN100AAXX  24151 76373 32774 50000 10140 21047 38206 40152 52010 83232 91450 333 30/// 58005 81830 83350;",
"76373099999","2011-04-24T18:00:00","4","25.35","-105.75","1967.0","TEPEHUANES DGO., MX","FM-12","99999","V020","240,1,N,0030,1","22000,1,9,N","024000,1,N,1","+0297,2","-0148,1","10137,1",,,,,"03,1,+01500,1,03,1",,"05,99,1,03,1,00,1,01750,1,03,1,04,1",,"01,9",,"120,M,+0305,1","240,N,+0060,1","99999,9,08194,1","7,1,012,1,+016,1",,"SYN112AAXX  24181 76373 32774 52403 10297 21148 38194 40137 57012 83034 91450 333 10305 20060 30/// 56099 58016 83350;",
"76373099999","2011-04-24T21:00:00","4","25.35","-105.75","1967.0","TEPEHUANES DGO., MX","FM-12","99999","V020","240,1,N,0020,1","01500,1,9,N","024000,1,N,1","+0287,1","-0111,1","10112,1",,,,,"05,1,+01500,1,03,1",,"06,99,1,05,1,00,1,01750,1,04,1,04,1",,"01,9",,,,"99999,9,08174,1","7,1,020,1,+015,1",,"SYN100AAXX  24211 76373 32774 62402 10287 21111 38174 40112 57020 85044 92050 333 30/// 56099 58015 85350;",
"76373099999","2011-04-25T00:00:00","4","25.35","-105.75","1967.0","TEPEHUANES DGO., MX","FM-12","99999","V020","220,1,N,0030,1","22000,1,9,N","024000,1,N,1","+0267,1","-0048,1","10106,1","24,0000,9,1",,,,,,"04,99,1,03,1,00,1,01750,1,04,1,04,1",,"01,9",,"120,M,+0320,1","180,N,+0060,1","99999,9,08169,1","7,1,005,1,+012,1",,"SYN124AAXX  25001 76373 32774 42203 10267 21048 38169 40106 57005 83044 92350 333 10320 20060 30/// 50871 56099 58012 70000 83350;",
"76373099999","2011-04-25T03:00:00","4","25.35","-105.75","1967.0","TEPEHUANES DGO., MX","FM-12","99999","V020","999,9,C,0000,1","22000,1,9,N","010000,1,N,1","+0203,1","+0019,1","10137,1",,,,,,,"03,99,1,03,1,00,1,01750,1,04,1,00,1",,"01,9",,,,"99999,9,08195,1","2,1,026,1,+007,1",,"SYN088AAXX  25031 76373 32760 30000 10203 20019 38195 40137 52026 83040 90250 333 30/// 58007;",
"76373099999","2011-04-25T12:00:00","4","25.35","-105.75","1967.0","TEPEHUANES DGO., MX","FM-12","99999","V020","999,9,C,0000,1","22000,1,9,N","010000,1,N,1","+0042,1","-0016,1","10152,1",,,,,"00,1,+99999,9,99,9",,"00,99,1,00,1,00,1,99999,9,00,1,00,1","0462,9","01,9","999,+0010,9","120,N,+0030,1","240,M,+0320,1","99999,9,08206,1","9,9,999,9,+010,1",,"SYN112AAXX  25121 76373 32960 00000 10042 21016 38206 40152 5//// 91150 333 10320 20030 30010 55077 21901 58010 70000;",
"76373099999","2011-04-25T15:00:00","4","25.35","-105.75","1967.0","TEPEHUANES DGO., MX","FM-12","99999","V020","999,9,C,0000,1","22000,1,9,N","024000,1,N,1","+0146,1","-0043,1","10155,1",,,,,"00,1,+99999,9,99,9",,"00,99,1,00,1,00,1,99999,9,00,1,00,1",,"01,9",,,,"99999,9,08209,1","2,1,003,1,+003,1",,"SYN082AAXX  25151 76373 32974 00000 10146 21043 38209 40155 52003 91450 333 30/// 58003;",
"76373099999","2011-04-25T18:00:00","4","25.35","-105.75","1967.0","TEPEHUANES DGO., MX","FM-12","99999","V020","240,1,N,0010,1","22000,1,9,N","024000,1,N,1","+0286,1","-0114,1","10124,1",,,,,"00,1,+99999,9,99,9",,"00,99,1,00,1,00,1,99999,9,00,1,00,1",,"01,9",,"120,M,+0290,1","240,N,+0030,1","99999,9,08184,1","7,1,014,1,-010,1",,"SYN094AAXX  25181 76373 32974 02401 10286 21114 38184 40124 57014 91750 333 10290 20030 30/// 59010;",
"76373099999","2011-04-25T21:00:00","4","25.35","-105.75","1967.0","TEPEHUANES DGO., MX","FM-12","99999","V020","290,1,N,0020,1","22000,1,9,N","024000,1,N,1","+0322,2","-0144,1","10090,1",,,,,"00,1,+99999,9,99,9",,"00,99,1,00,1,00,1,99999,9,00,1,00,1",,"01,9",,,,"99999,9,08156,1","7,1,028,1,-018,1",,"SYN082AAXX  25211 76373 32974 02902 10322 21144 38156 40090 57028 92050 333 30/// 59018;",
"76373099999","2011-04-26T00:00:00","4","25.35","-105.75","1967.0","TEPEHUANES DGO., MX","FM-12","99999","V020","290,1,N,0030,1","22000,1,9,N","024000,1,N,1","+0295,1","-0123,1","10077,1","24,0000,9,1",,,,"00,1,+99999,9,99,9",,"00,99,1,00,1,00,1,99999,9,00,1,00,1",,"01,9",,"120,M,+0340,1","180,N,+0030,1","99999,9,08146,1","7,1,010,1,-023,1",,"SYN106AAXX  26001 76373 32974 02903 10295 21123 38146 40077 57010 92350 333 10340 20030 30/// 50941 59023 70000;","Q01  00002PRCP24"
"76373099999","2011-04-26T12:00:00","4","25.35","-105.75","1967.0","TEPEHUANES DGO., MX","FM-12","99999","V020","290,1,N,0010,1","22000,1,9,N","010000,1,N,1","+0082,1","+0000,1","10110,1",,,,,"00,1,+99999,9,99,9",,"00,99,1,00,1,00,1,99999,9,00,1,00,1","0732,9","01,9","999,+0030,9","120,N,+0062,1","240,M,+0340,1","99999,9,08172,1","9,9,999,9,-028,1",,"SYN112AAXX  26121 76373 32960 02901 10082 20000 38172 40110 5//// 91150 333 10340 20062 30030 55122 22730 59028 70000;",
"76373099999","2011-04-26T21:00:00","4","25.35","-105.75","1967.0","TEPEHUANES DGO., MX","FM-12","99999","V020","290,1,N,0020,1","22000,1,9,N","024000,1,N,1","+0317,1","-0063,1","10061,1",,,,,"00,1,+99999,9,99,9",,"00,99,1,00,1,00,1,99999,9,00,1,00,1",,"01,9",,,,"99999,9,08133,1","7,1,020,1,-023,1",,"SYN082AAXX  26211 76373 32974 02902 10317 21063 38133 40061 57020 92050 333 30/// 59023;",
"76373099999","2011-04-27T00:00:00","4","25.35","-105.75","1967.0","TEPEHUANES DGO., MX","FM-12","99999","V020","250,1,N,0030,1","22000,1,9,N","024000,1,N,1","+0291,1","-0051,1","10056,1","24,0000,9,1",,,,"00,1,+99999,9,99,9",,"00,99,1,00,1,00,1,99999,9,00,1,00,1",,"01,9",,"120,M,+0330,1","180,N,+0062,1","99999,9,08129,1","7,1,004,1,-017,1",,"SYN106AAXX  27001 76373 32974 02503 10291 21051 38129 40056 57004 92350 333 10330 20062 30/// 50101 59017 70000;","Q01  00002PRCP24"
"76373099999","2011-04-27T03:00:00","4","25.35","-105.75","1967.0","TEPEHUANES DGO., MX","FM-12","99999","V020","220,1,N,0010,1","22000,1,9,N","010000,1,N,1","+0215,1","+0027,1","10094,1",,,,,"00,1,+99999,9,99,9",,"00,99,1,00,1,00,1,99999,9,00,1,00,1",,"01,9",,,,"99999,9,08159,1","2,1,030,1,+999,9",,"SYN082AAXX  27031 76373 32960 02201 10215 20027 38159 40094 52030 90245 333 30/// 58///;",
"76373099999","2011-04-27T12:00:00","4","25.35","-105.75","1967.0","TEPEHUANES DGO., MX","FM-12","99999","V020","999,9,C,0000,1","22000,1,9,N","010000,1,N,1","+0082,1","+0021,1","10126,1",,,,,"00,1,+99999,9,99,9",,"00,99,1,00,1,00,1,99999,9,00,1,00,1","0732,9","01,9","999,+0032,9","120,N,+0068,1","240,M,+0330,1","99999,9,08185,1","9,9,999,9,+013,1",,"SYN112AAXX  27121 76373 32960 00000 10082 20021 38185 40126 5//// 91150 333 10330 20068 30032 55122 22698 58013 70000;",
"76373099999","2011-04-27T15:00:00","4","25.35","-105.75","1967.0","TEPEHUANES DGO., MX","FM-12","99999","V020","999,9,C,0000,1","22000,1,9,N","024000,1,N,1","+0178,1","+0036,1","10127,1",,,,,"00,1,+99999,9,99,9",,"00,99,1,00,1,00,1,99999,9,00,1,00,1",,"01,9",,,,"99999,9,08186,1","0,1,001,1,+013,1",,"SYN082AAXX  27151 76373 32974 00000 10178 20036 38186 40127 50001 91450 333 30/// 58013;",
"76373099999","2011-04-27T18:00:00","4","25.35","-105.75","1967.0","TEPEHUANES DGO., MX","FM-12","99999","V020","999,9,C,0000,1","22000,1,9,N","024000,1,N,1","+0297,1","+0065,1","10120,1",,,,,"00,1,+99999,9,99,9",,"00,99,1,00,1,00,1,99999,9,00,1,00,1",,"01,9",,"120,M,+0308,1","240,N,+0068,1","99999,9,08181,1","7,1,005,1,+027,1",,"SYN094AAXX  27181 76373 32974 00000 10297 20065 38181 40120 57005 91750 333 10308 20068 30/// 58027;",
"76373099999","2011-04-27T21:00:00","4","25.35","-105.75","1967.0","TEPEHUANES DGO., MX","FM-12","99999","V020","300,1,N,0010,1","22000,1,9,N","024000,1,N,1","+0340,1","+9999,9","10089,1",,,,,"00,1,+99999,9,99,9",,"00,99,1,00,1,00,1,99999,9,00,1,00,1",,"01,9",,,,"99999,9,08156,1","7,1,015,1,+023,1",,"SYN082AAXX  27211 76373 32974 03001 10340 21103 38156 40089 57015 92050 333 30/// 58023;",
"76373099999","2011-04-28T00:00:00","4","25.35","-105.75","1967.0","TEPEHUANES DGO., MX","FM-12","99999","V020","290,1,N,0020,1","22000,1,9,N","024000,1,N,1","+0325,1","-0111,2","10088,1","24,0000,9,1",,,,"00,1,+99999,9,99,9",,"00,99,1,00,1,00,1,99999,9,00,1,00,1",,"01,9",,"120,M,+0370,1","180,N,+0068,1","99999,9,08154,1","0,1,002,1,+025,1",,"SYN106AAXX  28001 76373 32974 02902 10325 21111 38154 40088 50002 92350 333 10370 20068 30/// 50731 58025 70000;","Q01  00002PRCP24"
"76373099999","2011-04-28T03:00:00","4","25.35","-105.75","1967.0","TEPEHUANES DGO., MX","FM-12","99999","V020","999,9,C,0000,1","22000,1,9,N","010000,1,N,1","+0240,1","+9999,9","10133,1",,,,,"00,1,+99999,9,99,9",,"00,99,1,00,1,00,1,99999,9,00,1,00,1",,"01,9",,,,"99999,9,08191,1","2,1,037,1,+032,1",,"SYN082AAXX  28031 76373 32960 00000 10240 20011 38191 40133 52037 90250 333 30/// 58032;",
"76373099999","2011-04-28T12:00:00","4","25.35","-105.75","1967.0","TEPEHUANES DGO., MX","FM-12","99999","V020","999,9,C,0000,1","22000,1,9,N","010000,1,N,1","+0092,1","+0013,1","10166,1",,,,,"00,1,+99999,9,99,9",,"00,99,1,00,1,00,1,99999,9,00,1,00,1","0726,9","01,9","999,+0042,9","120,N,+0080,1","240,M,+0370,1","99999,9,08218,1","0,1,166,2,+033,1",,"SYN112AAXX  28121 76373 32960 00000 10092 20013 38218 40166 50166 91150 333 10370 20080 30042 55121 22657 58033 70000;",
"76373099999","2011-04-28T15:00:00","4","25.35","-105.75","1967.0","TEPEHUANES DGO., MX","FM-12","99999","V020","999,9,C,0000,1","22000,1,9,N","024000,1,N,1","+0191,1","+0033,1","10181,1",,,,,"00,1,+99999,9,99,9",,"00,99,1,00,1,00,1,99999,9,00,1,00,1",,"01,9",,,,"99999,9,08230,1","2,1,012,1,+044,1",,"SYN082AAXX  28151 76373 32974 00000 10191 20033 38230 40181 52012 91450 333 30/// 58044;",
"76373099999","2011-04-28T18:00:00","4","25.35","-105.75","1967.0","TEPEHUANES DGO., MX","FM-12","99999","V020","110,1,N,0010,1","22000,1,9,N","010000,1,N,1","+0294,1","-0031,1","10165,1",,,,,"00,1,+99999,9,99,9",,"00,99,1,00,1,00,1,99999,9,00,1,00,1",,"01,9",,"120,M,+0310,1","240,N,+0080,1","99999,9,08217,1","7,1,013,1,+036,1",,"SYN094AAXX  28181 76373 32960 01101 10294 21031 38217 40165 57013 91750 333 10310 20080 30/// 58036;",
"76373099999","2011-04-28T21:00:00","4","25.35","-105.75","1967.0","TEPEHUANES DGO., MX","FM-12","99999","V020","140,1,N,0020,1","22000,1,9,N","010000,1,N,1","+0350,1","-0065,1","10124,1",,,,,"02,1,+00750,1,08,1",,"02,99,1,02,1,02,1,00800,1,00,1,00,1",,"01,9",,,,"99999,9,08184,1","7,1,033,1,+028,1",,"SYN100AAXX  28211 76373 32560 21402 10350 21065 38184 40124 57033 82200 92055 333 30/// 56900 58028 82825;",
"76373099999","2011-04-29T00:00:00","4","25.35","-105.75","1967.0","TEPEHUANES DGO., MX","FM-12","99999","V020","230,1,N,0010,1","00750,1,9,N","010000,1,N,1","+0312,1","-0050,1","10111,1","24,0000,9,1",,,,"03,1,+00600,1,06,1",,"06,99,1,06,1,06,1,00800,1,00,1,00,1",,"01,9",,"120,M,+0370,1","180,N,+0080,1","99999,9,08173,1","5,1,011,1,+019,1",,"SYN130AAXX  29001 76373 32560 62301 10312 21050 38173 40111 55011 86600 92350 333 10370 20080 30/// 50991 56900 58019 70000 83620 83825;",
"76373099999","2011-04-29T03:00:00","4","25.35","-105.75","1967.0","TEPEHUANES DGO., MX","FM-12","99999","V020","250,1,N,0010,1","22000,1,9,N","001000,1,N,1","+0246,1","-0018,1","10142,1",,,,,"01,1,+00600,1,06,1",,"03,99,1,03,1,03,1,00800,1,00,1,00,1",,"01,9",,,,"99999,9,08198,1","2,1,025,1,+025,1",,"SYN106AAXX  29031 76373 32510 32501 10246 21018 38198 40142 52025 83300 90250 333 30/// 56900 58025 81620 82825;",
"76373099999","2011-04-29T15:00:00","4","25.35","-105.75","1967.0","TEPEHUANES DGO., MX","FM-12","99999","V020","320,1,N,0010,1","22000,1,9,N","005000,1,N,1","+0182,1","+0012,1","10155,1",,,,,"00,1,+99999,9,99,9",,"00,99,1,00,1,00,1,99999,9,00,1,00,1",,"01,9",,,,"99999,9,08209,1","5,1,004,1,-021,1",,"SYN082AAXX  29151 76373 32950 03201 10182 20012 38209 40155 55004 91455 333 30/// 59021;",
"76373099999","2011-04-29T18:00:00","4","25.35","-105.75","1967.0","TEPEHUANES DGO., MX","FM-12","99999","V020","250,1,N,0040,1","22000,1,9,N","010000,1,N,1","+0330,1","-0058,1","10130,1",,,,,"00,1,+99999,9,99,9",,"00,99,1,00,1,00,1,99999,9,00,1,00,1",,"01,9",,"120,M,+0340,1","240,N,+0090,1","99999,9,08189,1","7,1,020,1,-028,1",,"SYN094AAXX  29181 76373 32960 02504 10330 21058 38189 40130 57020 91750 333 10340 20090 30/// 59028;",
"76373099999","2011-04-29T21:00:00","4","25.35","-105.75","1967.0","TEPEHUANES DGO., MX","FM-12","99999","V020","230,1,N,0030,1","22000,1,9,N","010000,1,N,1","+0346,1","-0047,1","10111,1",,,,,"01,1,+00750,1,08,1",,"01,99,1,01,1,01,1,00800,1,00,1,00,1",,"01,9",,,,"99999,9,08173,1","7,1,016,1,-011,1",,"SYN100AAXX  29211 76373 32560 12303 10346 21047 38173 40111 57016 81100 92055 333 30/// 56900 59011 81825;",
"76373099999","2011-04-30T00:00:00","4","25.35","-105.75","1967.0","TEPEHUANES DGO., MX","FM-12","99999","V020","230,1,N,0020,1","22000,1,9,N","010000,1,N,1","+0294,1","-0023,1","10107,1","24,0000,9,1",,,,"00,1,+99999,9,99,9",,"00,99,1,00,1,00,1,99999,9,00,1,00,1",,"01,9",,"120,M,+0350,1","180,N,+0090,1","99999,9,08170,1","5,1,003,1,-003,1",,"SYN106AAXX  30001 76373 32960 02302 10294 21023 38170 40107 55003 92355 333 10350 20090 30/// 51191 59003 70000;","Q01  00002PRCP24"
"76373099999","2011-04-30T21:00:00","4","25.35","-105.75","1967.0","TEPEHUANES DGO., MX","FM-12","99999","V020","290,1,N,0040,1","22000,1,9,N","024000,1,N,1","+0305,1","-0062,1","10093,1",,,,,"02,1,+01500,1,03,1",,"04,99,1,04,1,00,1,01750,1,03,1,04,1",,"01,9",,,,"99999,9,08158,1","7,1,018,1,-015,1",,"SYN100AAXX  30211 76373 32774 42904 10305 21062 38158 40093 57018 84034 92050 333 30/// 56099 59015 82350;",
"76373099999","2011-05-01T00:00:00","4","25.35","-105.75","1967.0","TEPEHUANES DGO., MX","FM-12","99999","V020","240,1,N,0020,1","22000,1,9,N","024000,1,N,1","+0271,1","-0034,1","10086,1","24,0000,9,1",,,,,,"04,99,1,03,1,00,1,01750,1,03,1,04,1",,"01,9",,"120,M,+0330,1","180,N,+0080,1","99999,9,08153,1","7,1,005,1,-017,1",,"SYN124AAXX  01001 76373 32774 42402 10271 21034 38153 40086 57005 83034 92350 333 10330 20080 30/// 50101 56099 59017 70000 83350;",
"76373099999","2011-05-01T03:00:00","4","25.35","-105.75","1967.0","TEPEHUANES DGO., MX","FM-12","99999","V020","250,1,N,0010,1","22000,1,9,N","010000,1,N,1","+0220,1","+0001,1","10112,1",,,,,"00,1,+99999,9,99,9",,"00,99,1,00,1,00,1,99999,9,00,1,00,1",,"01,9",,,,"99999,9,08174,1","2,1,021,1,+999,9",,"SYN082AAXX  01031 76373 32960 02501 10220 20001 38174 40112 52021 90250 333 30/// 58///;",
"76373099999","2011-05-01T12:00:00","4","25.35","-105.75","1967.0","TEPEHUANES DGO., MX","FM-12","99999","V020","999,9,C,0000,1","22000,1,9,N","010000,1,N,1","+0086,1","-0006,1","10118,1",,,,,"00,1,+99999,9,99,9",,"00,99,1,00,1,00,1,99999,9,00,1,00,1","0540,9","01,9","999,+0038,9","120,N,+0075,1","240,M,+0330,1","99999,9,08179,1","9,9,999,9,-010,1",,"SYN112AAXX  01121 76373 32960 00000 10086 21006 38179 40118 5//// 91150 333 10330 20075 30038 55090 22319 59010 70000;",
"76373099999","2011-05-01T15:00:00","4","25.35","-105.75","1967.0","TEPEHUANES DGO., MX","FM-12","99999","V020","999,9,C,0000,1","22000,1,9,N","024000,1,N,1","+0193,1","-0013,1","10115,1",,,,,"00,1,+99999,9,99,9",,"00,99,1,00,1,00,1,99999,9,00,1,00,1",,"01,9",,,,"99999,9,08176,1","1,1,003,1,-017,1",,"SYN082AAXX  01151 76373 32974 00000 10193 21013 38176 40115 51003 91450 333 30/// 59017;",
"76373099999","2011-05-01T18:00:00","4","25.35","-105.75","1967.0","TEPEHUANES DGO., MX","FM-12","99999","V020","290,1,N,0010,1","22000,1,9,N","024000,1,N,1","+0300,2","-0141,2","10096,1",,,,,"00,1,+99999,9,99,9",,"00,99,1,00,1,00,1,99999,9,00,1,00,1",,"01,9",,"120,M,+0315,1","240,N,+0075,1","99999,9,08161,1","7,1,015,1,-015,1",,"SYN094AAXX  01181 76373 32974 02901 10300 21141 38161 40096 57015 91750 333 10315 20075 30/// 59015;",
"76373099999","2011-05-02T00:00:00","4","25.35","-105.75","1967.0","TEPEHUANES DGO., MX","FM-12","99999","V020","290,1,N,0010,1","22000,1,9,N","024000,1,N,1","+0286,1","-0087,1","10079,1","24,0000,9,1",,,,"00,1,+99999,9,99,9",,"00,99,1,00,1,00,1,99999,9,00,1,00,1",,"01,9",,"120,M,+0340,1","180,N,+0075,1","99999,9,08148,1","9,9,999,9,-005,1",,"SYN106AAXX  02001 76373 32974 02901 10286 21087 38148 40079 5//// 92350 333 10340 20075 30/// 50111 59005 70000;","Q01  00002PRCP24"
"76373099999","2011-05-02T03:00:00","4","25.35","-105.75","1967.0","TEPEHUANES DGO., MX","FM-12","99999","V020","240,1,N,0010,1","22000,1,9,N","010000,1,N,1","+0213,1","-0025,1","10110,1",,,,,"00,1,+99999,9,99,9",,"00,99,1,00,1,00,1,99999,9,00,1,00,1",,"01,9",,,,"99999,9,08172,1","2,1,024,1,-002,1",,"SYN082AAXX  02031 76373 32960 02401 10213 21025 38172 40110 52024 90250 333 30/// 59002;",
"76373099999","2011-05-02T15:00:00","4","25.35","-105.75","1967.0","TEPEHUANES DGO., MX","FM-12","99999","V020","999,9,C,0000,1","22000,1,9,N","024000,1,N,1","+0107,1","-0040,1","10133,1",,,,,"01,1,+01500,1,06,1",,"01,99,1,01,1,05,1,01750,1,00,1,00,1",,"01,9",,,,"99999,9,08191,1","7,1,001,1,+015,1",,"SYN100AAXX  02151 76373 32774 10000 10107 21040 38191 40133 57001 81500 91450 333 30/// 56900 58015 81650;",
"76373099999","2011-05-03T12:00:00","4","25.35","-105.75","1967.0","TEPEHUANES DGO., MX","FM-12","99999","V020","999,9,C,0000,1","22000,1,9,N","001000,1,N,1","+0106,1","-0036,1","10195,1","24,0000,9,1",,,,,,"04,99,1,00,1,00,1,99999,9,00,1,04,1","0690,9","01,9",,"120,N,+0096,1","240,M,+0334,1","99999,9,08241,1","9,9,999,9,+049,1",,"SYN130AAXX  03121 76373 32910 40000 10106 21036 38241 40195 5//// 80004 91150 333 10334 20096 30080 55115 22641 56009 58049 70000 84057;",
"76373099999","2011-05-03T15:00:00","4","25.35","-105.75","1967.0","TEPEHUANES DGO., MX","FM-12","99999","V020","999,9,C,0000,1","22000,1,9,N","020000,1,N,1","+0156,1","-0016,1","10217,1",,,,,"04,1,+02100,1,00,1",,"04,99,1,00,1,00,1,99999,9,00,1,04,1",,"01,9",,,,"99999,9,08259,1","2,1,018,1,+068,1",,"SYN100AAXX  03151 76373 32970 40000 10156 21016 38259 40217 52018 80004 91450 333 30/// 56009 58068 84057;",
"76373099999","2011-05-03T18:00:00","4","25.35","-105.75","1967.0","TEPEHUANES DGO., MX","FM-12","99999","V020","120,1,N,0020,1","00750,1,9,N","030000,1,N,1","+0215,1","-0004,1","10207,1",,,,,"06,1,+00750,1,07,1",,"06,99,1,06,1,06,1,00800,1,00,1,00,1",,"01,9",,"120,M,+0230,1","240,N,+0096,1","99999,9,08251,1","7,1,008,1,+999,9",,"SYN112AAXX  03181 76373 32580 61202 10215 21004 38251 40207 57008 86600 91750 333 10230 20096 30/// 56900 58/// 86725;",
"76373099999","2011-05-03T21:00:00","4","25.35","-105.75","1967.0","TEPEHUANES DGO., MX","FM-12","99999","V020","130,1,N,0020,1","22000,1,9,N","030000,1,N,1","+0250,1","+0023,1","10168,1",,,,,"04,1,+02100,1,00,1",,"04,99,1,00,1,00,1,99999,9,00,1,04,1",,"01,9",,,,"99999,9,08219,1","7,1,052,1,+999,9",,"SYN100AAXX  03211 76373 32980 41302 10250 20023 38219 40168 57052 80004 92050 333 30/// 56009 58/// 84057;",
"76373099999","2011-05-04T00:00:00","4","25.35","-105.75","1967.0","TEPEHUANES DGO., MX","FM-12","99999","V020","130,1,N,0020,1","00750,1,9,N","030000,1,N,1","+0245,1","+0027,1","10150,1","24,0000,9,1",,,,,,"08,99,1,08,1,06,1,00800,1,00,1,00,1",,"01,9",,"120,M,+0276,1","180,N,+0096,1","99999,9,08205,1","7,1,014,1,+999,9",,"SYN124AAXX  04001 76373 32580 81302 10245 20027 38205 40150 57014 88600 92350 333 10276 20096 30/// 20971 56900 58/// 70000 88725;",
"76373099999","2011-05-04T03:00:00","4","25.35","-105.75","1967.0","TEPEHUANES DGO., MX","FM-12","99999","V020","090,1,N,0010,1","00750,1,9,N","000800,1,N,1","+0208,1","+0031,1","10170,1",,,,,"07,1,+00750,1,07,1",,"07,99,1,07,1,06,1,00800,1,00,1,00,1",,"01,9",,,,"99999,9,08221,1","2,1,016,1,+999,9",,"SYN100AAXX  04031 76373 32508 70901 10208 20031 38221 40170 52016 87600 90250 333 30/// 56900 58/// 87725;",
"76373099999","2011-05-04T15:00:00","4","25.35","-105.75","1967.0","TEPEHUANES DGO., MX","FM-12","99999","V020","999,9,C,0000,1","22000,1,9,N","030000,1,N,1","+0184,1","+0032,1","10205,1",,,,,"04,1,+02100,1,00,1",,"04,99,1,00,1,00,1,99999,9,00,1,04,1",,"01,9",,,,"99999,9,08249,1","2,1,008,1,-010,1",,"SYN100AAXX  04151 76373 32980 40000 10184 20032 38249 40205 52008 80004 91450 333 30/// 56009 59010 84057;",
"76373099999","2011-05-04T18:00:00","4","25.35","-105.75","1967.0","TEPEHUANES DGO., MX","FM-12","99999","V020","070,1,N,0010,1","00750,1,9,N","030000,1,N,1","+0270,1","+0052,1","10187,1",,,,,"08,1,+00750,1,07,1",,"08,99,1,08,1,07,1,00800,1,00,1,00,1",,"01,9",,"120,M,+0282,1","240,N,+0118,1","99999,9,08235,1","7,1,014,1,-016,1",,"SYN112AAXX  04181 76373 32580 80701 10270 20052 38235 40187 57014 88700 91750 333 10282 20118 30/// 56900 59016 88725;",
"76373099999","2011-05-04T21:00:00","4","25.35","-105.75","1967.0","TEPEHUANES DGO., MX","FM-12","99999","V020","280,1,N,0010,1","00750,1,9,N","030000,1,N,1","+0280,1","+0006,1","10158,1",,,,,"05,1,+00750,1,06,1",,"07,99,1,07,1,04,1,00800,1,00,1,00,1",,"01,9",,,,"99999,9,08211,1","7,1,024,1,-008,1",,"SYN106AAXX  04211 76373 32580 72801 10280 20006 38211 40158 57024 87400 92050 333 30/// 56900 59008 85625 82725;",
"76373099999","2011-05-05T03:00:00","4","25.35","-105.75","1967.0","TEPEHUANES DGO., MX","FM-12","99999","V020","999,9,C,0000,1","00690,1,9,N","000800,1,N,1","+0184,1","+0094,1","10185,1","03,0070,9,1",,"5,1,03,1","2,1,03,1","08,1,+00690,1,09,1",,"99,99,9,08,1,09,1,00800,1,00,1,00,1",,"09,9",,,,"99999,9,08233,1","2,1,013,1,+012,1","01,1","SYN112AAXX  05031 76373 21508 70000 10184 20094 38233 40185 52013 70152 88900 90240 333 31/// 56900 58012 60077 88923;","Q01+000072SCOTCV"
"76373099999","2011-05-05T12:00:00","4","25.35","-105.75","1967.0","TEPEHUANES DGO., MX","FM-12","99999","V020","999,9,C,0000,1","22000,1,9,N","000800,1,N,1","+0086,1","+0045,1","10198,1","24,0070,9,1",,,,,,"02,99,1,02,1,04,1,01250,1,00,1,00,1","0348,9","01,9",,"120,N,+0075,1","240,M,+0326,1","99999,9,08243,1","9,9,999,9,+002,1",,"SYN130AAXX  05121 76373 32608 20000 10086 20045 38243 40198 5//// 82400 91150 333 10326 20075 30060 55058 21498 56900 58002 70070 82627;",
"76373099999","2011-05-05T15:00:00","4","25.35","-105.75","1967.0","TEPEHUANES DGO., MX","FM-12","99999","V020","999,9,C,0000,1","22000,1,9,N","030000,1,N,1","+0154,1","+0056,1","10201,1",,,,,"04,1,+02100,1,00,1",,"04,99,1,00,1,00,1,99999,9,00,1,04,1",,"01,9",,,,"99999,9,08246,1","0,1,003,1,-003,1",,"SYN100AAXX  05151 76373 32980 40000 10154 20056 38246 40201 50003 80004 91450 333 30/// 56009 59003 84057;",
"76373099999","2011-05-05T18:00:00","4","25.35","-105.75","1967.0","TEPEHUANES DGO., MX","FM-12","99999","V020","110,1,N,0010,1","22000,1,9,N","010000,1,N,1","+0286,2","+0057,1","10172,1",,,,,"03,1,+00600,1,06,1",,"04,99,1,04,1,04,1,00800,1,00,1,00,1",,"01,9",,"120,M,+0294,1","240,N,+0075,1","99999,9,08222,1","7,1,024,1,-013,1",,"SYN124AAXX  05181 76373 32560 41101 10286 20057 38222 40172 57024 84400 91755 333 10294 20075 30/// 56900 56900 59013 83620 81825;",
"76373099999","2011-05-05T21:00:00","4","25.35","-105.75","1967.0","TEPEHUANES DGO., MX","FM-12","99999","V020","140,1,N,0010,1","00750,1,9,N","010000,1,N,1","+0264,1","+0012,1","10147,1",,,,,"03,1,+00600,1,06,1",,"07,99,1,07,1,07,1,00800,1,00,1,00,1",,"01,9",,,,"99999,9,08202,1","7,1,020,1,-012,1",,"SYN106AAXX  05211 76373 32560 71401 10264 20012 38202 40147 57020 87700 92050 333 30/// 56900 59012 83620 84725;",
"76373099999","2011-05-06T00:00:00","4","25.35","-105.75","1967.0","TEPEHUANES DGO., MX","FM-12","99999","V020","999,9,C,0000,1","01200,1,9,N","010000,1,N,1","+0272,1","+0008,1","10126,1","24,0070,9,1",,,,"04,1,+00600,1,07,1",,"08,99,1,08,1,08,1,00800,1,00,1,00,1",,"01,9",,"120,M,+0330,1","180,N,+0075,1","99999,9,08185,1","7,1,017,1,-035,1",,"SYN130AAXX  06001 76373 32560 80000 10272 20008 38185 40126 57017 88800 92355 333 10330 20075 30/// 50451 56900 59035 70070 84720 84625;",
"76373099999","2011-05-06T03:00:00","4","25.35","-105.75","1967.0","TEPEHUANES DGO., MX","FM-12","99999","V020","160,1,N,0010,1","00750,1,9,N","001000,1,N,1","+0224,1","+0026,1","10160,1",,,,,"03,1,+00600,1,06,1",,"06,99,1,06,1,06,1,00800,1,00,1,00,1",,"01,9",,,,"99999,9,08213,1","7,1,028,1,-020,1",,"SYN106AAXX  06031 76373 32510 61601 10224 20026 38213 40160 57028 86600 90250 333 30/// 56900 59020 83620 83725;",
"76373099999","2011-05-06T12:00:00","4","25.35","-105.75","1967.0","TEPEHUANES DGO., MX","FM-12","99999","V020","999,9,C,0000,1","22000,1,9,N","001000,1,N,1","+0096,1","+0036,1","10170,1",,,,,"00,1,+99999,9,99,9",,"00,99,1,00,1,00,1,99999,9,00,1,00,1","0420,9","01,9",,"120,N,+0084,1","240,M,+0330,1","99999,9,08221,1","9,9,999,9,-022,1",,"SYN112AAXX  06121 76373 32910 00000 10096 20036 38221 40170 5//// 91155 333 10330 20084 30060 55070 21650 59022 70000;",
"76373099999","2011-05-06T15:00:00","4","25.35","-105.75","1967.0","TEPEHUANES DGO., MX","FM-12","99999","V020","999,9,C,0000,1","22000,1,9,N","010000,1,N,1","+0178,1","+0046,1","10178,1",,,,,"00,1,+99999,9,99,9",,"00,99,1,00,1,00,1,99999,9,00,1,00,1",,"01,9",,,,"99999,9,08227,1","5,1,006,1,-019,1",,"SYN082AAXX  06151 76373 32960 00000 10178 20046 38227 40178 55006 91455 333 30/// 59019;",
"76373099999","2011-05-06T18:00:00","4","25.35","-105.75","1967.0","TEPEHUANES DGO., MX","FM-12","99999","V020","110,1,N,0010,1","22000,1,9,N","020000,1,N,1","+0284,1","+0000,1","10164,1",,,,,"02,1,+00750,1,08,1",,"02,99,1,02,1,02,1,00800,1,00,1,00,1",,"01,9",,"120,M,+0290,1","240,N,+0084,1","99999,9,08216,1","7,1,011,1,-006,1",,"SYN112AAXX  06181 76373 32570 21101 10284 20000 38216 40164 57011 82200 91750 333 10290 20084 30/// 56900 59006 82825;",
"76373099999","2011-05-06T21:00:00","4","25.35","-105.75","1967.0","TEPEHUANES DGO., MX","FM-12","99999","V020","070,1,N,0010,1","22000,1,9,N","020000,1,N,1","+0324,1","-0035,1","10120,1",,,,,"03,1,+00600,1,08,1",,"03,99,1,03,1,03,1,00800,1,00,1,00,1",,"01,9",,,,"99999,9,08181,1","7,1,035,1,-021,1",,"SYN100AAXX  06211 76373 32570 30701 10324 21035 38181 40120 57035 83300 92050 333 30/// 56900 59021 83820;",
"76373099999","2011-05-07T00:00:00","4","25.35","-105.75","1967.0","TEPEHUANES DGO., MX","FM-12","99999","V020","250,1,N,0010,1","22000,1,9,N","020000,1,N,1","+0308,1","-0081,1","10093,1","24,0000,9,1",,,,,,"03,99,1,03,1,03,1,00800,1,00,1,00,1",,"01,9",,"120,M,+0340,1","180,N,+0084,1","99999,9,08159,1","7,1,022,1,-026,1",,"SYN124AAXX  07001 76373 32570 32501 10308 21081 38159 40093 57022 83300 92355 333 10340 20084 30/// 50901 56900 59026 70000 83825;",
"76373099999","2011-05-07T03:00:00","4","25.35","-105.75","1967.0","TEPEHUANES DGO., MX","FM-12","99999","V020","230,1,N,0010,1","22000,1,9,N","001000,1,N,1","+0230,1","+0009,1","10128,1",,,,,"01,1,+00750,1,08,1",,"01,99,1,01,1,01,1,00800,1,00,1,00,1",,"01,9",,,,"99999,9,08187,1","2,1,028,1,-026,1",,"SYN100AAXX  07031 76373 32510 12301 10230 20009 38187 40128 52028 81100 90255 333 30/// 56900 59026 81825;",
"76373099999","2011-05-07T15:00:00","4","25.35","-105.75","1967.0","TEPEHUANES DGO., MX","FM-12","99999","V020","999,9,C,0000,1","22000,1,9,N","005000,1,N,1","+0174,1","-0002,1","10162,1",,,,,"00,1,+99999,9,99,9",,"00,99,1,00,1,00,1,99999,9,00,1,00,1",,"01,9",,,,"99999,9,08214,1","2,1,012,1,-013,1",,"SYN082AAXX  07151 76373 32950 00000 10174 21002 38214 40162 52012 91455 333 30/// 59013;",
"76373099999","2011-05-07T18:00:00","4","25.35","-105.75","1967.0","TEPEHUANES DGO., MX","FM-12","99999","V020","110,1,N,0010,1","22000,1,9,N","005000,1,N,1","+9999,9","+0012,1","10144,1",,,,,"01,1,+00900,1,03,1",,"03,99,1,03,1,00,1,00800,1,01,1,02,1",,"01,9",,"120,M,+0310,1","240,N,+0090,1","99999,9,08200,1","7,1,014,1,-016,1",,"SYN118AAXX  07181 76373 32550 31101 10304 20012 38200 40144 57014 83012 91755 333 10310 20090 30/// 56099 59016 81330 82067;","Q01+003043ATOT  "
"76373099999","2011-05-08T03:00:00","4","25.35","-105.75","1967.0","TEPEHUANES DGO., MX","FM-12","99999","V020","999,9,C,0000,1","00750,1,9,N","000800,1,N,1","+0229,1","-0001,1","10137,1",,,,,"05,1,+00750,1,07,1",,"05,99,1,05,1,05,1,01250,1,00,1,00,1",,"01,9",,,,"99999,9,08194,1","2,1,028,1,+007,1",,"SYN100AAXX  08031 76373 32608 50000 10229 21001 38194 40137 52028 85500 90250 333 30/// 56900 58007 85725;",
"76373099999","2011-05-08T12:00:00","4","25.35","-105.75","1967.0","TEPEHUANES DGO., MX","FM-12","99999","V020","290,1,N,0010,1","22000,1,9,N","000800,1,N,1","+0114,1","-0006,1","10144,1","24,0000,9,1",,,,,,"01,99,1,01,1,02,1,01250,1,00,1,00,1","0576,9","01,9",,"120,N,+0108,1","240,M,+0350,1","99999,9,08200,1","9,9,999,9,-002,1",,"SYN130AAXX  08121 76373 32608 12901 10114 21006 38200 40144 5//// 81200 91150 333 10350 20108 30084 55096 22070 56200 59002 70000 81827;",
"76373099999","2011-05-08T18:00:00","4","25.35","-105.75","1967.0","TEPEHUANES DGO., MX","FM-12","99999","V020","310,1,N,0010,1","22000,1,9,N","030000,1,N,1","+0312,1","-0050,1","10124,1",,,,,"01,1,+00810,1,08,1",,"01,99,1,01,1,01,1,01250,1,00,1,00,1",,"01,9",,"120,M,+0322,1","240,N,+0108,1","99999,9,08184,1","7,1,016,1,-016,1",,"SYN112AAXX  08181 76373 32680 13101 10312 21050 38184 40124 57016 81100 91750 333 10322 20108 30/// 56900 59016 81827;",
"76373099999","2011-05-08T21:00:00","4","25.35","-105.75","1967.0","TEPEHUANES DGO., MX","FM-12","99999","V020","300,1,N,0030,1","22000,1,9,N","030000,1,N,1","+0330,1","-0096,1","10090,1",,,,,"03,1,+00780,1,06,1",,"04,99,1,03,1,04,1,01250,1,00,1,04,1",,"01,9",,,,"99999,9,08156,1","7,1,028,1,-023,1",,"SYN100AAXX  08211 76373 32680 43003 10330 21096 38156 40090 57028 83404 92050 333 30/// 56909 59023 83626;",
"76373099999","2011-05-09T00:00:00","4","25.35","-105.75","1967.0","TEPEHUANES DGO., MX","FM-12","99999","V020","280,1,N,0020,1","01200,1,9,N","020000,1,N,1","+0310,1","-0043,1","10098,1","24,0000,9,1",,,,,,"06,99,1,05,1,04,1,01250,1,00,1,04,1",,"01,9",,"120,M,+0352,1","180,N,+0108,1","99999,9,08156,1","4,1,000,1,-010,1",,"SYN124AAXX  09001 76373 32670 62802 10310 21043 38156 40098 54000 85404 92350 333 10352 20108 30/// 51021 56909 59010 70000 85626;",
"76373099999","2011-05-09T03:00:00","4","25.35","-105.75","1967.0","TEPEHUANES DGO., MX","FM-12","99999","V020","240,1,N,0010,1","00780,1,9,N","000800,1,N,1","+0240,1","+0018,1","10116,1",,,,,"05,1,+00780,1,06,1",,"05,99,1,05,1,04,1,01250,1,00,1,00,1",,"01,9",,,,"99999,9,08177,1","2,1,022,1,-017,1",,"SYN100AAXX  09031 76373 32608 52401 10240 20018 38177 40116 52022 85400 90250 333 30/// 56900 59017 85626;",
"76373099999","2011-05-09T12:00:00","4","25.35","-105.75","1967.0","TEPEHUANES DGO., MX","FM-12","99999","V020","999,9,C,0000,1","22000,1,9,N","000800,1,N,1","+0167,1","-0015,1","10129,1","24,0000,9,1",,,,,,"01,99,1,01,1,02,1,01250,1,00,1,00,1","0666,9","01,9",,"120,N,+0158,1","240,M,+0352,1","99999,9,08188,1","9,9,999,9,-012,1",,"SYN130AAXX  09121 76373 32608 10000 10167 21015 38188 40129 5//// 81200 91150 333 10352 20158 30120 55111 22150 56900 59012 70000 81826;",
"76373099999","2011-05-09T15:00:00","4","25.35","-105.75","1967.0","TEPEHUANES DGO., MX","FM-12","99999","V020","300,1,N,0010,1","22000,1,9,N","020000,1,N,1","+0230,1","-0028,1","10138,1",,,,,"01,1,+00780,1,08,1",,"01,99,1,01,1,02,1,01250,1,00,1,00,1",,"01,9",,,,"99999,9,08195,1","2,1,007,1,-003,1",,"SYN100AAXX  09151 76373 32670 13001 10230 21028 38195 40138 52007 81200 91450 333 30/// 56900 59003 81826;",
"76373099999","2011-05-09T18:00:00","4","25.35","-105.75","1967.0","TEPEHUANES DGO., MX","FM-12","99999","V020","260,1,N,0020,1","22000,1,9,N","020000,1,N,1","+0310,1","-0043,1","10119,1",,,,,"01,1,+00780,1,06,1",,"01,99,1,01,1,04,1,01250,1,00,1,00,1",,"01,9",,"120,M,+0328,1","240,N,+0158,1","99999,9,08180,1","7,1,015,1,-004,1",,"SYN112AAXX  09181 76373 32670 12602 10310 21043 38180 40119 57015 81400 91750 333 10328 20158 30/// 56900 59004 81626;",
"76373099999","2011-05-09T21:00:00","4","25.35","-105.75","1967.0","TEPEHUANES DGO., MX","FM-12","99999","V020","260,1,N,0030,1","22000,1,9,N","020000,1,N,1","+0308,1","-0035,1","10093,1",,,,,"03,1,+00750,1,06,1",,"03,99,1,03,1,04,1,01250,1,00,1,00,1",,"01,9",,,,"99999,9,08159,1","7,1,021,1,+003,1",,"SYN100AAXX  09211 76373 32670 32603 10308 21035 38159 40093 57021 83400 92050 333 30/// 56900 58003 83625;",
"76373099999","2011-05-10T00:00:00","4","25.35","-105.75","1967.0","TEPEHUANES DGO., MX","FM-12","99999","V020","250,1,N,0020,1","22000,1,9,N","020000,1,N,1","+0276,1","-0026,1","10084,1","24,0000,9,1",,,,,,"04,99,1,04,1,04,1,01250,1,00,1,00,1",,"01,9",,"120,M,+0330,1","180,N,+0158,1","99999,9,08152,1","7,1,007,1,-004,1",,"SYN124AAXX  10001 76373 32670 42502 10276 21026 38152 40084 57007 84400 92335 333 10330 20158 30/// 50931 56900 59004 70000 84626;",
"76373099999","2011-05-10T12:00:00","4","25.35","-105.75","1967.0","TEPEHUANES DGO., MX","FM-12","99999","V020","999,9,C,0000,1","22000,1,9,N","000800,1,N,1","+0118,1","+0008,1","10117,1","24,0000,9,1",,,,,,"01,99,1,01,1,02,1,01250,1,00,1,00,1","0540,9","01,9",,"120,N,+0110,1","240,M,+0330,1","99999,9,08178,1","9,9,999,9,-010,1",,"SYN130AAXX  10121 76373 32608 10000 10118 20008 38178 40117 5//// 81200 91150 333 10330 20110 30100 55090 22005 56900 59010 70000 81826;",
"76373099999","2011-05-10T15:00:00","4","25.35","-105.75","1967.0","TEPEHUANES DGO., MX","FM-12","99999","V020","999,9,C,0000,1","22000,1,9,N","030000,1,N,1","+0179,1","+0006,1","10124,1",,,,,"01,1,+00780,1,08,1",,"01,99,1,01,1,02,1,01250,1,00,1,00,1",,"01,9",,,,"99999,9,08184,1","2,1,006,1,-011,1",,"SYN100AAXX  10151 76373 32680 10000 10179 20006 38184 40124 52006 81200 91450 333 30/// 56900 59011 81826;",
"76373099999","2011-05-10T18:00:00","4","25.35","-105.75","1967.0","TEPEHUANES DGO., MX","FM-12","99999","V020","260,1,N,0020,1","22000,1,9,N","030000,1,N,1","+0279,1","-0059,1","10104,1",,,,,"01,1,+00780,1,08,1",,"01,99,1,01,1,02,1,01250,1,00,1,00,1",,"01,9",,"120,M,+0290,1","240,N,+0110,1","99999,9,08168,1","7,1,016,1,-012,1",,"SYN112AAXX  10181 76373 32680 12602 10279 21059 38168 40104 57016 81200 91750 333 10290 20110 30/// 56900 59012 81826;",
"76373099999","2011-05-10T21:00:00","4","25.35","-105.75","1967.0","TEPEHUANES DGO., MX","FM-12","99999","V020","240,1,N,0020,1","22000,1,9,N","030000,1,N,1","+0305,1","-0057,1","10086,1",,,,,"01,1,+00810,1,08,1",,"01,99,1,01,1,02,1,01250,1,00,1,00,1",,"01,9",,,,"99999,9,08153,1","7,1,015,1,-006,1",,"SYN100AAXX  10211 76373 32680 12402 10305 21057 38153 40086 57015 81200 92045 333 30/// 56900 59006 81827;",
"76373099999","2011-05-11T00:00:00","4","25.35","-105.75","1967.0","TEPEHUANES DGO., MX","FM-12","99999","V020","250,1,N,0030,1","22000,1,9,N","030000,1,N,1","+0265,1","-0028,1","10079,1","24,0000,9,1",,,,,,"01,99,1,01,1,02,1,01250,1,00,1,00,1",,"01,9",,"120,M,+0318,1","180,N,+0110,1","99999,9,08148,1","7,1,005,1,-004,1",,"SYN124AAXX  11001 76373 32680 12503 10265 21028 38148 40079 57005 81200 92350 333 10318 20110 30/// 50971 56900 59004 70000 81826;",
"76373099999","2011-05-11T03:00:00","4","25.35","-105.75","1967.0","TEPEHUANES DGO., MX","FM-12","99999","V020","280,1,N,0010,1","22000,1,9,N","000600,1,N,1","+0207,1","-0033,1","10102,1",,,,,"02,1,+00780,1,06,1",,"03,99,1,02,1,04,1,01250,1,00,1,04,1",,"01,9",,,,"99999,9,08166,1","2,1,018,1,+999,9",,"SYN100AAXX  11031 76373 32606 32801 10207 21033 38166 40102 52018 82404 90250 333 30/// 56909 58/// 82626;",
"76373099999","2011-05-11T12:00:00","4","25.35","-105.75","1967.0","TEPEHUANES DGO., MX","FM-12","99999","V020","999,9,C,0000,1","22000,1,9,N","001000,1,N,1","+0073,1","+0001,1","10111,1","24,0000,9,1",,,,,,"01,99,1,01,1,02,1,01250,1,00,1,00,1","0678,9","01,9","999,+0036,9","120,N,+0064,1","240,M,+0318,1","99999,9,08173,1","9,9,999,9,-005,1",,"SYN130AAXX  11121 76373 32610 10000 10073 20001 38173 40111 5//// 81200 91150 333 10318 20064 30036 55113 22424 56200 59005 70000 81826;",
"76373099999","2011-05-11T15:00:00","4","25.35","-105.75","1967.0","TEPEHUANES DGO., MX","FM-12","99999","V020","999,9,C,0000,1","22000,1,9,N","020000,1,N,1","+0163,1","+0006,1","10121,1",,,,,"01,1,+00780,1,08,1",,"01,99,1,01,1,02,1,01250,1,00,1,00,1",,"01,9",,,,"99999,9,08181,1","2,1,008,1,-003,1",,"SYN100AAXX  11151 76373 32670 10000 10163 20006 38181 40121 52008 81200 91450 333 30/// 56200 59003 81826;",
"76373099999","2011-05-11T18:00:00","4","25.35","-105.75","1967.0","TEPEHUANES DGO., MX","FM-12","99999","V020","260,1,N,0030,1","22000,1,9,N","030000,1,N,1","+0278,1","-0073,1","10112,1",,,,,"01,1,+00780,1,08,1",,"01,99,1,01,1,02,1,01250,1,00,1,00,1",,"01,9",,"120,M,+0290,1","240,N,+0064,1","99999,9,08174,1","7,1,007,1,+006,1",,"SYN112AAXX  11181 76373 32680 12603 10278 21073 38174 40112 57007 81200 91750 333 10290 20064 30/// 56200 58006 81826;",
"76373099999","2011-05-12T00:00:00","4","25.35","-105.75","1967.0","TEPEHUANES DGO., MX","FM-12","99999","V020","230,1,N,0020,1","22000,1,9,N","030000,1,N,1","+0271,1","-0061,1","10104,1","24,0000,9,1",,,,,,"01,99,1,01,1,02,1,01250,1,00,1,00,1",,"01,9",,"120,M,+0316,1","180,N,+0064,1","99999,9,08167,1","7,1,032,1,+019,1",,"SYN124AAXX  12001 76373 32680 12302 10271 21061 38167 40104 57032 81200 92350 333 10316 20064 30/// 51131 56200 58019 70000 81826;",
"76373099999","2011-05-12T03:00:00","4","25.35","-105.75","1967.0","TEPEHUANES DGO., MX","FM-12","99999","V020","240,1,N,0010,1","22000,1,9,N","000600,1,N,1","+0207,1","-0037,1","10126,1",,,,,"00,1,+99999,9,99,9",,"00,99,1,00,1,00,1,99999,9,00,1,00,1",,"01,9",,,,"99999,9,08185,1","2,1,021,1,+019,1",,"SYN082AAXX  12031 76373 32906 02401 10207 21037 38185 40126 52021 90250 333 30/// 58019;",
"76373099999","2011-05-12T12:00:00","4","25.35","-105.75","1967.0","TEPEHUANES DGO., MX","FM-12","99999","V020","999,9,C,0000,1","22000,1,9,N","000800,1,N,1","+0052,1","-0029,1","10154,1","24,0000,9,1",,,,,,"01,99,1,01,1,02,1,01250,1,00,1,00,1","0726,9","01,9","999,+0018,9","120,N,+0040,1","240,M,+0316,1","99999,9,08208,1","9,9,999,9,+031,1",,"SYN130AAXX  12121 76373 32608 10000 10052 21029 38208 40154 5//// 81200 91150 333 10316 20040 30018 55121 22647 56200 58031 70000 81826;",
"76373099999","2011-05-12T15:00:00","4","25.35","-105.75","1967.0","TEPEHUANES DGO., MX","FM-12","99999","V020","999,9,C,0000,1","22000,1,9,N","020000,1,N,1","+0153,1","-0012,1","10167,1",,,,,"00,1,+99999,9,99,9",,"00,99,1,00,1,00,1,99999,9,00,1,00,1",,"01,9",,,,"99999,9,08219,1","2,1,011,1,+038,1",,"SYN082AAXX  12151 76373 32970 00000 10153 21012 38219 40167 52011 91450 333 30/// 58038;",
"76373099999","2011-05-12T18:00:00","4","25.35","-105.75","1967.0","TEPEHUANES DGO., MX","FM-12","99999","V020","050,1,N,0010,1","22000,1,9,N","010000,1,N,1","+0284,1","-0081,1","10130,1",,,,,"00,1,+99999,9,99,9",,"00,99,1,00,1,00,1,99999,9,00,1,00,1",,"01,9",,"120,M,+0290,1","240,N,+0042,1","99999,9,08189,1","7,1,030,1,+015,1",,"SYN094AAXX  12181 76373 32960 00501 10284 21081 38189 40130 57030 91755 333 10290 20042 30/// 58015;",
"76373099999","2011-05-12T21:00:00","4","25.35","-105.75","1967.0","TEPEHUANES DGO., MX","FM-12","99999","V020","250,1,N,0020,1","22000,1,9,N","030000,1,N,1","+0304,1","-0094,1","10123,1",,,,,"00,1,+99999,9,99,9",,"00,99,1,00,1,00,1,99999,9,00,1,00,1",,"01,9",,,,"99999,9,08183,1","5,1,006,1,-013,1",,"SYN082AAXX  12211 76373 32980 02502 10304 21094 38183 40123 55006 92055 333 30/// 59013;",
"76373099999","2011-05-13T12:00:00","4","25.35","-105.75","1967.0","TEPEHUANES DGO., MX","FM-12","99999","V020","999,9,C,0000,1","22000,1,9,N","001000,1,N,1","+0058,1","-0043,1","10157,1",,,,,"00,1,+99999,9,99,9",,"00,99,1,00,1,00,1,99999,9,00,1,00,1","0678,9","01,9","999,+0010,9","120,N,+0030,1","240,M,+0320,1","99999,9,08211,1","9,9,999,9,+003,1",,"SYN112AAXX  13121 76373 32910 00000 10058 21043 38211 40157 5//// 91155 333 10320 20030 30010 55113 22456 58003 70000;",
"76373099999","2011-05-13T15:00:00","4","25.35","-105.75","1967.0","TEPEHUANES DGO., MX","FM-12","99999","V020","999,9,C,0000,1","22000,1,9,N","005000,1,N,1","+0148,1","-0033,1","10175,1",,,,,"00,1,+99999,9,99,9",,"00,99,1,00,1,00,1,99999,9,00,1,00,1",,"01,9",,,,"99999,9,08225,1","2,1,014,1,+006,1",,"SYN082AAXX  13151 76373 32950 00000 10148 21033 38225 40175 52014 91455 333 30/// 58006;",
"76373099999","2011-05-13T21:00:00","4","25.35","-105.75","1967.0","TEPEHUANES DGO., MX","FM-12","99999","V020","110,1,N,0010,1","22000,1,9,N","005000,1,N,1","+0326,2","-0106,1","10113,1",,,,,"02,1,+05100,1,00,1",,"02,99,1,00,1,00,1,99999,9,00,1,02,1",,"01,9",,,,"99999,9,08175,1","7,1,025,1,-008,1",,"SYN100AAXX  13211 76373 32950 21101 10326 21106 38175 40113 57025 82002 91455 333 30/// 56009 59008 82067;","Q01+000022SCOTLC"
"76373099999","2011-05-14T00:00:00","4","25.35","-105.75","1967.0","TEPEHUANES DGO., MX","FM-12","99999","V020","110,1,N,0010,1","22000,1,9,N","030000,1,N,1","+0322,1","-0099,1","10096,1","24,0000,9,1",,,,"00,1,+99999,9,99,9",,"00,99,1,00,1,00,1,99999,9,00,1,00,1",,"01,9",,"120,M,+0350,1","180,N,+0030,1","99999,9,08161,1","7,1,029,1,-022,1",,"SYN106AAXX  14001 76373 32980 01101 10322 21099 38161 40096 57029 92355 333 10350 20030 30/// 50471 59022 70000;","Q01  00002PRCP24"
"76373099999","2011-05-15T03:00:00","4","25.35","-105.75","1967.0","TEPEHUANES DGO., MX","FM-12","99999","V020","999,9,C,0000,1","22000,1,9,N","000500,1,N,1","+0226,1","-0029,1","10109,1",,,,,"00,1,+99999,9,99,9",,"00,99,1,00,1,00,1,99999,9,00,1,00,1",,"01,9",,,,"99999,9,08172,1",,,"SYN082AAXX  15031 76373 32905 00000 10226 21029 38172 40109 5//// 90250 333 30/// 58///;",
"76373099999","2011-05-15T15:00:00","4","25.35","-105.75","1967.0","TEPEHUANES DGO., MX","FM-12","99999","V020","999,9,C,0000,1","22000,1,9,N","001000,1,N,1","+0163,1","-0006,1","10099,1",,,,,"00,1,+99999,9,99,9",,"00,99,1,00,1,00,1,99999,9,00,1,00,1",,"01,9",,,,"99999,9,08164,1","7,1,025,1,+999,9",,"SYN082AAXX  15151 76373 32910 00000 10163 21006 38164 40099 57025 91450 333 30/// 58///;",
"76373099999","2011-05-15T18:00:00","4","25.35","-105.75","1967.0","TEPEHUANES DGO., MX","FM-12","99999","V020","999,9,C,0000,1","22000,1,9,N","001000,1,N,1","+0307,1","-0088,1","10125,1",,,,,"00,1,+99999,9,99,9",,"00,99,1,00,1,00,1,99999,9,00,1,00,1",,"01,9",,"120,M,+0310,1","240,N,+0062,1","99999,9,08184,1","2,1,020,1,+999,9",,"SYN094AAXX  15181 76373 32910 00000 10307 21088 38184 40125 52020 91450 333 10310 20062 30/// 58///;",
"76373099999","2011-05-15T21:00:00","4","25.35","-105.75","1967.0","TEPEHUANES DGO., MX","FM-12","99999","V020","290,1,N,0020,1","22000,1,9,N","001000,1,N,1","+0321,1","-0111,1","10107,1",,,,,"00,1,+99999,9,99,9",,"00,99,1,00,1,00,1,99999,9,00,1,00,1",,"01,9",,,,"99999,9,08170,1","7,1,014,1,+999,9",,"SYN082AAXX  15211 76373 32910 02902 10321 21111 38170 40107 57014 92050 333 30/// 58///;",
"76373099999","2011-05-16T00:00:00","4","25.35","-105.75","1967.0","TEPEHUANES DGO., MX","FM-12","99999","V020","290,1,N,0010,1","22000,1,9,N","001000,1,N,1","+0300,1","-0125,1","10105,1","24,0000,9,1",,,,"00,1,+99999,9,99,9",,"00,99,1,00,1,00,1,99999,9,00,1,00,1",,"01,9",,"120,M,+0330,1","180,N,+0062,1","99999,9,08169,1","7,1,001,1,+009,1",,"SYN106AAXX  16001 76373 32910 02901 10300 21125 38169 40105 57001 92350 333 10330 20062 30/// 50991 58009 70000;","Q01  00002PRCP24"
"76373099999","2011-05-16T15:00:00","4","25.35","-105.75","1967.0","TEPEHUANES DGO., MX","FM-12","99999","V020","999,9,C,0000,1","22000,1,9,N","001000,1,N,1","+0162,1","+0162,1","99999,9",,,,,"00,1,+99999,9,99,9",,"00,99,1,00,1,00,1,99999,9,00,1,00,1",,,,,,,,,"SYN088AAXX  16151 76373 32910 00000 10162 20162 21003 38212 40159 57006 91457 333 30/// 58048;",
"76373099999","2011-05-16T18:00:00","4","25.35","-105.75","1967.0","TEPEHUANES DGO., MX","FM-12","99999","V020","999,9,C,0000,1","22000,1,9,N","005000,1,N,1","+0300,1","+9999,9","10136,1",,,,,"04,1,+01500,1,03,1",,"04,99,1,04,1,00,1,01750,1,05,1,00,1",,"01,9",,"120,M,+0310,1","240,N,+0065,1","99999,9,08194,1","7,1,008,1,+010,1",,"SYN112AAXX  16181 76373 32750 40000 10300 21095 38194 40136 57008 84050 91750 333 10310 20065 30/// 56090 58010 84350;","Q01-000953ATOD  "
"76373099999","2011-05-16T21:00:00","4","25.35","-105.75","1967.0","TEPEHUANES DGO., MX","FM-12","99999","V020","290,1,N,0020,1","22000,1,9,N","005000,1,N,1","+0325,1","-0134,2","10119,1",,,,,"02,1,+01500,1,03,1",,"02,99,1,99,9,99,9,01750,1,99,9,99,9",,"01,9",,,,"99999,9,08180,1","2,1,014,1,+010,1",,"SYN094AAXX  16211 76373 32750 22902 10325 21134 38180 40119 52014 92050 333 30/// 56090 58010 82350;",
"76373099999","2011-05-17T00:00:00","4","25.35","-105.75","1967.0","TEPEHUANES DGO., MX","FM-12","99999","V020","280,1,N,0030,1","22000,1,9,N","005000,1,N,1","+0304,1","-0120,1","10101,1","24,0000,9,1",,,,,,"01,99,1,00,1,00,1,99999,9,00,1,04,1",,"01,9",,"120,M,+0340,1","180,N,+0065,1","99999,9,08165,1","7,1,015,1,-004,1",,"SYN124AAXX  17001 76373 32950 12803 10304 21120 38165 40101 57015 80004 92350 333 10340 20065 30/// 51111 56009 59004 70000 81067;",
"76373099999","2011-05-17T12:00:00","4","25.35","-105.75","1967.0","TEPEHUANES DGO., MX","FM-12","99999","V020","999,9,C,0000,1","22000,1,9,N","000600,1,N,1","+0069,1","-0035,1","10138,1",,,,,"00,1,+99999,9,99,9",,"00,99,1,00,1,00,1,99999,9,00,1,00,1","0678,9","01,9","999,+0048,9","120,N,+0060,1","240,M,+0340,1","99999,9,08196,1","9,9,999,9,-012,1",,"SYN112AAXX  17121 76373 32906 00000 10069 21035 38196 40138 5//// 91150 333 10340 20060 30048 55113 22408 59012 70000;",
"76373099999","2011-05-17T15:00:00","4","25.35","-105.75","1967.0","TEPEHUANES DGO., MX","FM-12","99999","V020","999,9,C,0000,1","22000,1,9,N","005000,1,N,1","+0159,1","-0024,1","10143,1",,,,,"00,1,+99999,9,99,9",,"00,99,1,00,1,00,1,99999,9,00,1,00,1",,"01,9",,,,"99999,9,08199,1","0,1,003,1,-013,1",,"SYN082AAXX  17151 76373 32950 00000 10159 21024 38199 40143 50003 91450 333 30/// 59013;",
"76373099999","2011-05-17T18:00:00","4","25.35","-105.75","1967.0","TEPEHUANES DGO., MX","FM-12","99999","V020","300,1,N,0030,1","22000,1,9,N","005000,1,N,1","+0304,1","-0131,1","10114,1",,,,,,,"01,99,1,01,1,02,1,01250,1,00,1,00,1",,"01,9",,"120,M,+0308,1","240,N,+0060,1","99999,9,08176,1","7,1,023,1,-018,1",,"SYN112AAXX  17181 76373 32650 13003 10304 21131 38176 40114 57023 81200 91750 333 10308 20060 30/// 26900 59018 81826;",
"76373099999","2011-05-17T21:00:00","4","25.35","-105.75","1967.0","TEPEHUANES DGO., MX","FM-12","99999","V020","300,1,N,0030,1","22000,1,9,N","005000,1,N,1","+0311,1","-0124,1","10101,1",,,,,"01,1,+00780,1,08,1",,"01,99,1,01,1,02,1,01250,1,00,1,00,1",,"01,9",,,,"99999,9,08165,1","7,1,011,1,-015,1",,"SYN100AAXX  17211 76373 32650 13003 10311 21124 38165 40101 57011 81200 92050 333 30/// 56100 59015 81826;",
"76373099999","2011-05-18T00:00:00","4","25.35","-105.75","1967.0","TEPEHUANES DGO., MX","FM-12","99999","V020","300,1,N,0030,1","22000,1,9,N","005000,1,N,1","+0288,1","-0100,1","10091,1","24,0000,9,1",,,,,,"01,99,1,01,1,02,1,01250,1,00,1,00,1",,"01,9",,"120,M,+0323,1","180,N,+0060,1","99999,9,08157,1","7,1,008,1,-008,1",,"SYN124AAXX  18001 76373 32650 13003 10288 21100 38157 40091 57008 81200 92350 333 10323 20060 30/// 51291 56100 59008 70000 81826;",
"76373099999","2011-05-18T03:00:00","4","25.35","-105.75","1967.0","TEPEHUANES DGO., MX","FM-12","99999","V020","999,9,C,0000,1","22000,1,9,N","000600,1,N,1","+0223,1","-0039,1","10144,1",,,,,"00,1,+99999,9,99,9",,"00,99,1,00,1,00,1,99999,9,00,1,00,1",,"01,9",,,,"99999,9,08200,1","2,1,043,1,+999,9",,"SYN082AAXX  18031 76373 32906 00000 10223 21039 38200 40144 52043 90250 333 30/// 58///;",
"76373099999","2011-05-18T12:00:00","4","25.35","-105.75","1967.0","TEPEHUANES DGO., MX","FM-12","99999","V020","999,9,C,0000,1","22000,1,9,N","001000,1,N,1","+0060,1","-0054,1","10109,1",,,,,"00,1,+99999,9,99,9",,"00,99,1,00,1,00,1,99999,9,00,1,00,1","0726,9","01,9","999,+0028,9","120,N,+0049,1","240,M,+0323,1","99999,9,08172,1","9,9,999,9,-024,1",,"SYN112AAXX  18121 76373 32910 00000 10060 21054 38172 40109 5//// 91150 333 10323 20049 30028 55121 22810 59024 70000;",
"76373099999","2011-05-18T15:00:00","4","25.35","-105.75","1967.0","TEPEHUANES DGO., MX","FM-12","99999","V020","999,9,C,0000,1","22000,1,9,N","005000,1,N,1","+0157,1","-0035,1","10106,1",,,,,"00,1,+99999,9,99,9",,"00,99,1,00,1,00,1,99999,9,00,1,00,1",,"01,9",,,,"99999,9,08170,1","7,1,002,1,-029,1",,"SYN082AAXX  18151 76373 32950 00000 10157 21035 38170 40106 57002 91450 333 30/// 59029;",
"76373099999","2011-05-18T21:00:00","4","25.35","-105.75","1967.0","TEPEHUANES DGO., MX","FM-12","99999","V020","290,1,N,0040,1","22000,1,9,N","025000,1,N,1","+0295,1","-0100,1","10076,1",,,,,"00,1,+99999,9,99,9",,"00,99,1,00,1,00,1,99999,9,00,1,00,1",,"01,9",,,,"99999,9,08145,1","7,1,013,1,-020,1",,"SYN082AAXX  18211 76373 32975 02904 10295 21100 38145 40076 57013 92050 333 30/// 59020;",
"76373099999","2011-05-19T00:00:00","4","25.35","-105.75","1967.0","TEPEHUANES DGO., MX","FM-12","99999","V020","280,1,N,0030,1","22000,1,9,N","025000,1,N,1","+0262,1","-0099,1","10074,1","24,0000,9,1",,,,"00,1,+99999,9,99,9",,"00,99,1,00,1,00,1,99999,9,00,1,00,1",,"01,9",,"120,M,+0327,1","180,N,+0049,1","99999,9,08143,1","7,1,002,1,-014,1",,"SYN106AAXX  19001 76373 32975 02803 10262 21099 38143 40074 57002 92350 333 10327 20049 30/// 51061 59014 70000;","Q01  00002PRCP24"
"76373099999","2011-05-19T03:00:00","4","25.35","-105.75","1967.0","TEPEHUANES DGO., MX","FM-12","99999","V020","280,1,N,0010,1","22000,1,9,N","000800,1,N,1","+0204,1","-0006,1","10093,1",,,,,"00,1,+99999,9,99,9",,"00,99,1,00,1,00,1,99999,9,00,1,00,1",,"01,9",,,,"99999,9,08159,1","2,1,016,1,-041,1",,"SYN082AAXX  19031 76373 32908 02801 10204 21006 38159 40093 52016 90250 333 30/// 59041;",
"76373099999","2011-05-19T12:00:00","4","25.35","-105.75","1967.0","TEPEHUANES DGO., MX","FM-12","99999","V020","999,9,C,0000,1","22000,1,9,N","000600,1,N,1","+0052,1","-0024,1","10110,1",,,,,"00,1,+99999,9,99,9",,"00,99,1,00,1,00,1,99999,9,00,1,00,1","0702,9","01,9","999,+0018,9","120,N,+0040,1","240,M,+0327,1","99999,9,08173,1","9,9,999,9,+001,1",,"SYN112AAXX  19121 76373 32906 00000 10052 21024 38173 40110 5//// 91150 333 10327 20040 30018 55117 22649 58001 70000;",
"76373099999","2011-05-19T15:00:00","4","25.35","-105.75","1967.0","TEPEHUANES DGO., MX","FM-12","99999","V020","999,9,C,0000,1","22000,1,9,N","005000,1,N,1","+0136,1","-0024,1","10121,1",,,,,"00,1,+99999,9,99,9",,"00,99,1,00,1,00,1,99999,9,00,1,00,1",,"01,9",,,,"99999,9,08181,1","2,1,008,1,-011,1",,"SYN082AAXX  19151 76373 32950 00000 10136 21024 38181 40121 52008 91450 333 30/// 59011;",
"76373099999","2011-05-19T18:00:00","4","25.35","-105.75","1967.0","TEPEHUANES DGO., MX","FM-12","99999","V020","290,1,N,0010,1","22000,1,9,N","020000,1,N,1","+0276,1","-0090,1","10101,1",,,,,"00,1,+99999,9,99,9",,"00,99,1,00,1,00,1,99999,9,00,1,00,1",,"01,9",,"120,M,+0280,1","240,N,+0040,1","99999,9,08165,1","7,1,016,1,+007,1",,"SYN094AAXX  19181 76373 32970 02901 10276 21090 38165 40101 57016 91755 333 10280 20040 30/// 58007;",
"76373099999","2011-05-19T21:00:00","4","25.35","-105.75","1967.0","TEPEHUANES DGO., MX","FM-12","99999","V020","250,1,N,0020,1","22000,1,9,N","005000,1,N,1","+0294,1","-0074,1","10089,1",,,,,"00,1,+99999,9,99,9",,"00,99,1,00,1,00,1,99999,9,00,1,00,1",,"01,9",,,,"99999,9,08155,1","7,1,010,1,+010,1",,"SYN082AAXX  19211 76373 32950 02502 10294 21074 38155 40089 57010 92055 333 30/// 58010;",
"76373099999","2011-05-20T00:00:00","4","25.35","-105.75","1967.0","TEPEHUANES DGO., MX","FM-12","99999","V020","250,1,N,0020,1","22000,1,9,N","010000,1,N,1","+0252,1","-0054,1","10091,1","24,0000,9,1",,,,"00,1,+99999,9,99,9",,"00,99,1,00,1,00,1,99999,9,00,1,00,1",,"01,9",,"120,M,+0302,1","180,N,+0040,1","99999,9,08161,1","5,1,006,1,+018,1",,"SYN106AAXX  20001 76373 32960 02502 10252 21054 38161 40091 55006 92355 333 10302 20040 30/// 51101 58018 70000;","Q01  00002PRCP24"
"76373099999","2011-05-20T03:00:00","4","25.35","-105.75","1967.0","TEPEHUANES DGO., MX","FM-12","99999","V020","290,1,N,0010,1","22000,1,9,N","001000,1,N,1","+0186,1","-0040,1","10115,1",,,,,"00,1,+99999,9,99,9",,"00,99,1,00,1,00,1,99999,9,00,1,00,1",,"01,9",,,,"99999,9,08176,1","2,1,015,1,+017,1",,"SYN082AAXX  20031 76373 32910 02901 10186 21040 38176 40115 52015 90255 333 30/// 58017;",
"76373099999","2011-05-20T12:00:00","4","25.35","-105.75","1967.0","TEPEHUANES DGO., MX","FM-12","99999","V020","999,9,C,0000,1","22000,1,9,N","002000,1,N,1","+0074,1","+0015,1","10124,1",,,,,"00,1,+99999,9,99,9",,"00,99,1,00,1,00,1,99999,9,00,1,00,1","0720,9","01,9","999,+0030,9","120,N,+0062,1","240,M,+0302,1","99999,9,08184,1","9,9,999,9,+011,1",,"SYN112AAXX  20121 76373 32920 00000 10074 20015 38184 40124 5//// 91155 333 10302 20062 30030 55120 22657 58011 70000;",
"76373099999","2011-05-20T15:00:00","4","25.35","-105.75","1967.0","TEPEHUANES DGO., MX","FM-12","99999","V020","999,9,C,0000,1","22000,1,9,N","005000,1,N,1","+0154,1","+0017,1","10134,1",,,,,"00,1,+99999,9,99,9",,"00,99,1,00,1,00,1,99999,9,00,1,00,1",,"01,9",,,,"99999,9,08192,1","2,1,008,1,+011,1",,"SYN082AAXX  20151 76373 32950 00000 10154 20017 38192 40134 52008 91455 333 30/// 58011;",
"76373099999","2011-05-20T18:00:00","4","25.35","-105.75","1967.0","TEPEHUANES DGO., MX","FM-12","99999","V020","320,1,N,0010,1","22000,1,9,N","005000,1,N,1","+0272,1","-0064,1","10119,1",,,,,"00,1,+99999,9,99,9",,"00,99,1,00,1,00,1,99999,9,00,1,00,1",,"01,9",,"120,M,+0280,1","240,N,+0062,1","99999,9,08180,1","7,1,012,1,+025,1",,"SYN094AAXX  20181 76373 32950 03201 10272 21064 38180 40119 57012 91750 333 10280 20062 30/// 58025;",
"76373099999","2011-05-20T21:00:00","4","25.35","-105.75","1967.0","TEPEHUANES DGO., MX","FM-12","99999","V020","250,1,N,0020,1","22000,1,9,N","005000,1,N,1","+0308,1","-0070,1","10107,1",,,,,"00,1,+99999,9,99,9",,"00,99,1,00,1,00,1,99999,9,00,1,00,1",,"01,9",,,,"99999,9,08170,1","7,1,010,1,+025,1",,"SYN082AAXX  20211 76373 32950 02502 10308 21070 38170 40107 57010 92055 333 30/// 58025;",
"76373099999","2011-05-21T00:00:00","4","25.35","-105.75","1967.0","TEPEHUANES DGO., MX","FM-12","99999","V020","250,1,N,0010,1","22000,1,9,N","005000,1,N,1","+0276,1","-0023,1","10108,1","24,0000,9,1",,,,"00,1,+99999,9,99,9",,"00,99,1,00,1,00,1,99999,9,00,1,00,1",,"01,9",,"120,M,+0320,1","180,N,+0062,1","99999,9,08171,1","5,1,001,1,+010,1",,"SYN106AAXX  21001 76373 32950 02501 10276 21023 38171 40108 55001 92355 333 10320 20062 30/// 50951 58010 70000;","Q01  00002PRCP24"
"76373099999","2011-05-21T12:00:00","4","25.35","-105.75","1967.0","TEPEHUANES DGO., MX","FM-12","99999","V020","999,9,C,0000,1","22000,1,9,N","001000,1,N,1","+0066,1","+0002,1","10137,1",,,,,"00,1,+99999,9,99,9",,"00,99,1,00,1,00,1,99999,9,00,1,00,1","0720,9","01,9","999,+0020,9","120,N,+0052,1","240,M,+0320,1","99999,9,08194,1","9,9,999,9,+010,1",,"SYN112AAXX  21121 76373 32910 00000 10066 20002 38194 40137 5//// 91150 333 10320 20052 30020 55120 22576 58010 70000;",
"76373099999","2011-05-21T15:00:00","4","25.35","-105.75","1967.0","TEPEHUANES DGO., MX","FM-12","99999","V020","999,9,C,0000,1","22000,1,9,N","005000,1,N,1","+0182,1","+0033,1","10143,1",,,,,"00,1,+99999,9,99,9",,"00,99,1,00,1,00,1,99999,9,00,1,00,1",,"01,9",,,,"99999,9,08199,1","2,1,005,1,+007,1",,"SYN082AAXX  21151 76373 32950 00000 10182 20033 38199 40143 52005 91455 333 30/// 58007;",
"76373099999","2011-05-21T18:00:00","4","25.35","-105.75","1967.0","TEPEHUANES DGO., MX","FM-12","99999","V020","140,1,N,0010,1","22000,1,9,N","010000,1,N,1","+0300,1","-0041,1","10121,1",,,,,"00,1,+99999,9,99,9",,"00,99,1,00,1,00,1,99999,9,00,1,00,1",,"01,9",,"120,M,+0310,1","240,N,+0052,1","99999,9,08181,1","7,1,018,1,+001,1",,"SYN094AAXX  21181 76373 32960 01401 10300 21041 38181 40121 57018 91755 333 10310 20052 30/// 58001;",
"76373099999","2011-05-22T00:00:00","4","25.35","-105.75","1967.0","TEPEHUANES DGO., MX","FM-12","99999","V020","290,1,N,0010,1","22000,1,9,N","030000,1,N,1","+0304,1","-0028,1","10087,1","24,0000,9,1",,,,"00,1,+99999,9,99,9",,"00,99,1,00,1,00,1,99999,9,00,1,00,1",,"01,9",,"120,M,+0360,1","180,N,+0052,1","99999,9,08154,1","7,1,003,1,-015,1",,"SYN106AAXX  22001 76373 32980 02901 10304 21028 38154 40087 57003 92350 333 10360 20052 30/// 50961 59015 70000;","Q01  00002PRCP24"
"76373099999","2011-05-22T03:00:00","4","25.35","-105.75","1967.0","TEPEHUANES DGO., MX","FM-12","99999","V020","999,9,C,0000,1","22000,1,9,N","010000,1,N,1","+0223,1","+0046,1","10123,1",,,,,"00,1,+99999,9,99,9",,"00,99,1,00,1,00,1,99999,9,00,1,00,1",,"01,9",,,,"99999,9,08183,1","2,1,029,1,-003,1",,"SYN082AAXX  22031 76373 32960 00000 10223 20046 38183 40123 52029 90250 333 30/// 59003;",
"76373099999","2011-05-22T12:00:00","4","25.35","-105.75","1967.0","TEPEHUANES DGO., MX","FM-12","99999","V020","999,9,C,0000,1","22000,1,9,N","010000,1,N,1","+0090,1","+0022,1","10139,1",,,,,"00,1,+99999,9,99,9",,"00,99,1,00,1,00,1,99999,9,00,1,00,1","0708,9","01,9","999,+0041,9","120,N,+0078,1","240,M,+0360,1","99999,9,08196,1","9,9,999,9,+002,1",,"SYN112AAXX  22121 76373 32960 00000 10090 20022 38196 40139 5//// 91150 333 10360 20078 30041 55118 22488 58002 70000;",
"76373099999","2011-05-22T15:00:00","4","25.35","-105.75","1967.0","TEPEHUANES DGO., MX","FM-12","99999","V020","999,9,C,0000,1","22000,1,9,N","025000,1,N,1","+0176,1","+0018,1","10145,1",,,,,"00,1,+99999,9,99,9",,"00,99,1,00,1,00,1,99999,9,00,1,00,1",,"01,9",,,,"99999,9,08201,1","2,1,005,1,+002,1",,"SYN082AAXX  22151 76373 32975 00000 10176 20018 38201 40145 52005 91450 333 30/// 58002;",
"76373099999","2011-05-22T18:00:00","4","25.35","-105.75","1967.0","TEPEHUANES DGO., MX","FM-12","99999","V020","999,9,C,0000,1","22000,1,9,N","025000,1,N,1","+9999,9","-0052,1","10124,1",,,,,"04,1,+01800,1,04,1",,"04,99,1,04,1,00,1,01750,1,01,1,00,1",,"01,9",,"120,M,+0300,1","240,N,+0078,1","99999,9,08184,1","7,1,017,1,+003,1",,"SYN112AAXX  22181 76373 32775 40000 10289 21052 38184 40124 57017 84010 91750 333 10300 20078 30/// 56090 58003 84456;","Q01+002893ATOT  "
"76373099999","2011-05-23T00:00:00","4","25.35","-105.75","1967.0","TEPEHUANES DGO., MX","FM-12","99999","V020","999,9,9,9999,9","22000,1,9,N","025000,1,N,1","+0308,1","-0015,1","10099,1","24,0000,9,1",,,,,,"01,99,1,01,1,00,1,01750,1,01,1,00,1",,"01,9",,"120,M,+0345,1","180,N,+0078,1","99999,9,08164,1","7,1,015,1,+010,1",,"SYN118AAXX  23001 76373 32775 10308 21015 38164 40099 57015 81010 92350 333 10345 20078 30/// 50101 56090 58010 70000 81456;",
"76373099999","2011-05-23T15:00:00","4","25.35","-105.75","1967.0","TEPEHUANES DGO., MX","FM-12","99999","V020","999,9,C,0000,1","22000,1,9,N","025000,1,N,1","+0170,1","+0028,1","10152,1",,,,,"03,1,+01800,1,04,1",,"03,99,1,03,1,00,1,01750,1,03,1,00,1",,"01,9",,,,"99999,9,08206,1","2,1,005,1,+005,1",,"SYN100AAXX  23151 76373 32775 30000 10170 20028 38206 40152 52005 83030 91450 333 30/// 56090 58005 83456;",
"76373099999","2011-05-23T18:00:00","4","25.35","-105.75","1967.0","TEPEHUANES DGO., MX","FM-12","99999","V020","999,9,C,0000,1","22000,1,9,N","025000,1,N,1","+0291,1","-0047,1","10136,1",,,,,"00,1,+99999,9,99,9",,"00,99,1,00,1,00,1,99999,9,00,1,00,1",,"01,9",,"120,M,+0303,1","240,N,+0071,1","99999,9,08194,1","7,1,004,1,+010,1",,"SYN094AAXX  23181 76373 32975 00000 10291 21047 38194 40136 57004 91750 333 10303 20071 30/// 58010;",
"76373099999","2011-05-24T00:00:00","4","25.35","-105.75","1967.0","TEPEHUANES DGO., MX","FM-12","99999","V020","290,1,N,0010,1","22000,1,9,N","025000,1,N,1","+0311,1","-0041,1","10102,1","24,0000,9,1",,,,"00,1,+99999,9,99,9",,"00,99,1,00,1,00,1,99999,9,00,1,00,1",,"01,9",,"120,M,+0350,1","180,N,+0071,1","99999,9,08166,1","2,1,002,1,+002,1",,"SYN106AAXX  24001 76373 32975 02901 10311 21041 38166 40102 52002 92350 333 10350 20071 30/// 50991 58002 70000;","Q01  00002PRCP24"
"76373099999","2011-05-24T12:00:00","4","25.35","-105.75","1967.0","TEPEHUANES DGO., MX","FM-12","99999","V020","999,9,C,0000,1","22000,1,9,N","010000,1,N,1","+0086,1","+0004,1","10135,1","24,0000,9,1",,,,,,"01,99,1,01,1,00,1,01750,1,03,1,00,1","0720,9","01,9","999,+0042,9","120,N,+0072,1","240,M,+0350,1","99999,9,08193,1","9,9,999,9,-008,1",,"SYN130AAXX  24121 76373 32760 10000 10086 20004 38193 40135 5//// 81030 91150 333 10350 20072 30042 55120 22319 56010 59008 70000 81456;",
"76373099999","2011-05-24T15:00:00","4","25.35","-105.75","1967.0","TEPEHUANES DGO., MX","FM-12","99999","V020","999,9,C,0000,1","22000,1,9,N","025000,1,N,1","+0187,1","+0022,1","10140,1",,,,,"00,1,+99999,9,99,9",,"00,99,1,00,1,00,1,99999,9,00,1,00,1",,"01,9",,,,"99999,9,08197,1","7,1,004,1,-009,1",,"SYN082AAXX  24151 76373 32975 00000 10187 20022 38197 40140 57004 91450 333 30/// 59009;",
"76373099999","2011-05-24T21:00:00","4","25.35","-105.75","1967.0","TEPEHUANES DGO., MX","FM-12","99999","V020","290,1,N,0010,1","22000,1,9,N","025000,1,N,1","+0345,1","-0144,1","10102,1",,,,,"00,1,+99999,9,99,9",,"00,99,1,00,1,00,1,99999,9,00,1,00,1",,"01,9",,,,"99999,9,08166,1","7,1,024,1,+003,1",,"SYN082AAXX  24211 76373 32975 02901 10345 21144 38166 40102 57024 92050 333 30/// 58003;",
"76373099999","2011-05-25T00:00:00","4","25.35","-105.75","1967.0","TEPEHUANES DGO., MX","FM-12","99999","V020","240,1,N,0010,1","22000,1,9,N","025000,1,N,1","+0336,1","-0144,1","10096,1","24,0000,9,1",,,,"00,1,+99999,9,99,9",,"00,99,1,00,1,00,1,99999,9,00,1,00,1",,"01,9",,"120,M,+0370,1","180,N,+0072,1","99999,9,08161,1","7,1,005,1,-005,1",,"SYN106AAXX  25001 76373 32975 02401 10336 21144 38161 40096 57005 92350 333 10370 20072 30/// 50831 59005 70000;","Q01  00002PRCP24"
"76373099999","2011-05-25T03:00:00","4","25.35","-105.75","1967.0","TEPEHUANES DGO., MX","FM-12","99999","V020","999,9,C,0000,1","22000,1,9,N","010000,1,N,1","+0255,1","+0044,2","10124,1",,,,,"00,1,+99999,9,99,9",,"00,99,1,00,1,00,1,99999,9,00,1,00,1",,"01,9",,,,"99999,9,08184,1","2,1,023,1,+999,9",,"SYN082AAXX  25031 76373 32960 00000 10255 20044 38184 40124 52023 90250 333 30/// 58///;",
"76373099999","2011-05-25T12:00:00","4","25.35","-105.75","1967.0","TEPEHUANES DGO., MX","FM-12","99999","V020","999,9,C,0000,1","22000,1,9,N","010000,1,N,1","+0104,1","+0021,1","10152,1",,,,,"00,1,+99999,9,99,9",,"00,99,1,00,1,00,1,99999,9,00,1,00,1","0720,9","01,9",,"120,N,+0098,1","240,M,+0370,1","99999,9,08207,1","9,9,999,9,+014,1",,"SYN112AAXX  25121 76373 32960 00000 10104 20021 38207 40152 5//// 91150 333 10370 20098 30058 55120 22633 58014 70000;",
"76373099999","2011-05-25T15:00:00","4","25.35","-105.75","1967.0","TEPEHUANES DGO., MX","FM-12","99999","V020","999,9,C,0000,1","22000,1,9,N","025000,1,N,1","+0193,1","+0029,1","10155,1",,,,,"00,1,+99999,9,99,9",,"00,99,1,00,1,00,1,99999,9,00,1,00,1",,"01,9",,,,"99999,9,08209,1","2,1,002,1,+012,1",,"SYN082AAXX  25151 76373 32975 00000 10193 20029 38209 40155 52002 91450 333 30/// 58012;",
"76373099999","2011-05-25T18:00:00","4","25.35","-105.75","1967.0","TEPEHUANES DGO., MX","FM-12","99999","V020","999,9,C,0000,1","22000,1,9,N","025000,1,N,1","+0320,1","-0023,1","10140,1",,,,,"00,1,+99999,9,99,9",,"00,99,1,00,1,00,1,99999,9,00,1,00,1",,"01,9",,"120,M,+0330,1","240,N,+0098,1","99999,9,08197,1","7,1,012,1,+017,1",,"SYN094AAXX  25181 76373 32975 00000 10320 21023 38197 40140 57012 91750 333 10330 20098 30/// 58017;",
"76373099999","2011-05-25T21:00:00","4","25.35","-105.75","1967.0","TEPEHUANES DGO., MX","FM-12","99999","V020","110,1,N,0010,1","22000,1,9,N","020000,1,N,1","+0364,1","-0111,1","10107,1",,,,,"00,1,+99999,9,99,9",,"00,99,1,00,1,00,1,99999,9,00,1,00,1",,"01,9",,,,"99999,9,08170,1","7,1,027,1,+004,1",,"SYN082AAXX  25211 76373 32970 01101 10364 21111 38170 40107 57027 92050 333 30/// 58004;",
"76373099999","2011-05-26T00:00:00","4","25.35","-105.75","1967.0","TEPEHUANES DGO., MX","FM-12","99999","V020","110,1,N,0010,1","22000,1,9,N","020000,1,N,1","+0344,1","-0103,1","10091,1","24,0000,9,1",,,,"00,1,+99999,9,99,9",,"00,99,1,00,1,00,1,99999,9,00,1,00,1",,"01,9",,"120,M,+0380,1","180,N,+0098,1","99999,9,08157,1","6,1,013,1,-004,1",,"SYN106AAXX  26001 76373 32970 01101 10344 21103 38157 40091 56013 92350 333 10380 20098 30/// 50931 59004 70000;","Q01  00002PRCP24"
"76373099999","2011-05-26T03:00:00","4","25.35","-105.75","1967.0","TEPEHUANES DGO., MX","FM-12","99999","V020","999,9,C,0000,1","22000,1,9,N","010000,1,N,1","+0261,1","+0027,2","10114,1",,,,,"00,1,+99999,9,99,9",,"00,99,1,00,1,00,1,99999,9,00,1,00,1",,"01,9",,,,"99999,9,08176,1","2,1,019,1,+008,1",,"SYN082AAXX  26031 76373 32960 00000 10261 20027 38176 40114 52019 90250 333 30/// 58008;",
"76373099999","2011-05-26T12:00:00","4","25.35","-105.75","1967.0","TEPEHUANES DGO., MX","FM-12","99999","V020","999,9,C,0000,1","22000,1,9,N","010000,1,N,1","+0097,1","-0009,1","10147,1","24,0000,9,1",,,,,,"01,99,1,01,1,00,1,99999,9,03,1,00,1","0702,9","01,9","999,+0050,9","120,N,+0088,1","240,M,+0380,1","99999,9,08202,1","9,9,999,9,-005,1",,"SYN130AAXX  26121 76373 32960 10000 10097 21009 38202 40147 5//// 81030 91150 333 10380 20088 30050 55117 22416 56020 59005 70000 81356;",
"76373099999","2011-05-26T15:00:00","4","25.35","-105.75","1967.0","TEPEHUANES DGO., MX","FM-12","99999","V020","999,9,C,0000,1","22000,1,9,N","020000,1,N,1","+0180,1","+0006,1","10157,1",,,,,"02,1,+05100,1,00,1",,"02,99,1,00,1,00,1,99999,9,00,1,04,1",,"01,9",,,,"99999,9,08210,1","2,1,008,1,+001,1",,"SYN100AAXX  26151 76373 32970 20000 10180 20006 38210 40157 52008 80004 91440 333 30/// 56009 58001 82067;",
"76373099999","2011-05-26T18:00:00","4","25.35","-105.75","1967.0","TEPEHUANES DGO., MX","FM-12","99999","V020","110,1,N,0010,1","22000,1,9,N","005000,1,N,1","+0338,1","-0116,2","10140,1",,,,,"01,1,+01050,1,03,1",,"02,99,1,02,1,00,1,00800,1,01,1,01,1",,"01,9",,"120,M,+0350,1","240,N,+0088,1","99999,9,08194,1","7,1,013,1,+000,1",,"SYN118AAXX  26181 76373 32550 21101 10338 21116 38194 40140 57013 82011 91755 333 10350 20088 30/// 56099 58000 81335 81067;",
"76373099999","2011-05-26T21:00:00","4","25.35","-105.75","1967.0","TEPEHUANES DGO., MX","FM-12","99999","V020","050,1,N,0010,1","22000,1,9,N","005000,1,N,1","+0374,1","-0108,1","10104,1",,,,,"00,1,+99999,9,99,9",,"00,99,1,00,1,00,1,99999,9,00,1,00,1",,"01,9",,,,"99999,9,08168,1","7,1,029,1,-002,1",,"SYN082AAXX  26211 76373 32950 00501 10374 21108 38168 40104 57029 92050 333 30/// 59002;",
"76373099999","2011-05-27T00:00:00","4","25.35","-105.75","1967.0","TEPEHUANES DGO., MX","FM-12","99999","V020","290,1,N,0010,1","22000,1,9,N","005000,1,N,1","+0356,1","-0031,1","10087,1","24,0000,9,1",,,,"00,1,+99999,9,99,9",,"00,99,1,00,1,00,1,99999,9,00,1,00,1",,"01,9",,"120,M,+0392,1","180,N,+0088,1","99999,9,08154,1","7,1,014,1,-003,1",,"SYN106AAXX  27001 76373 32950 02901 10356 21031 38154 40087 57014 92350 333 10392 20088 30/// 50961 59003 70000;","Q01  00002PRCP24"
"76373099999","2011-05-27T03:00:00","4","25.35","-105.75","1967.0","TEPEHUANES DGO., MX","FM-12","99999","V020","999,9,C,0000,1","22000,1,9,N","001000,1,N,1","+0276,1","-0002,1","10119,1",,,,,"00,1,+99999,9,99,9",,"00,99,1,00,1,00,1,99999,9,00,1,00,1",,"01,9",,,,"99999,9,08180,1","2,1,032,1,+004,1",,"SYN082AAXX  27031 76373 32910 00000 10276 21002 38180 40119 52032 90255 333 30/// 58004;",
"76373099999","2011-05-27T12:00:00","4","25.35","-105.75","1967.0","TEPEHUANES DGO., MX","FM-12","99999","V020","999,9,C,0000,1","22000,1,9,N","001000,1,N,1","+0124,1","-0001,1","10145,1",,,,,"00,1,+99999,9,99,9",,"00,99,1,00,1,00,1,99999,9,00,1,00,1","0672,9","01,9",,"120,N,+0112,1","240,M,+0392,1","99999,9,08201,1","9,9,999,9,-001,1",,"SYN112AAXX  27121 76373 32910 00000 10124 21001 38201 40145 5//// 91155 333 10392 20112 30080 55112 22335 59001 70000;",
"76373099999","2011-05-27T18:00:00","4","25.35","-105.75","1967.0","TEPEHUANES DGO., MX","FM-12","99999","V020","999,9,C,0000,1","22000,1,9,N","005000,1,N,1","+0340,1","-0004,1","10131,1",,,,,"01,1,+00750,1,08,1",,"01,99,1,01,1,01,1,00800,1,00,1,00,1",,"01,9",,"120,M,+0348,1","240,N,+0112,1","99999,9,08190,1","7,1,011,1,-007,1",,"SYN112AAXX  27181 76373 32550 10000 10340 21004 38190 40131 57011 81100 91750 333 10348 20112 30/// 56900 59007 81825;",
"76373099999","2011-05-27T21:00:00","4","25.35","-105.75","1967.0","TEPEHUANES DGO., MX","FM-12","99999","V020","110,1,N,0010,1","22000,1,9,N","005000,1,N,1","+0384,1","-0053,1","10099,1",,,,,"03,1,+00750,1,08,1",,"03,99,1,03,1,03,1,00800,1,00,1,00,1",,"01,9",,,,"99999,9,08164,1","7,1,026,1,-004,1",,"SYN100AAXX  27211 76373 32550 31101 10384 21053 38164 40099 57026 83300 92050 333 30/// 56900 59004 83825;",
"76373099999","2011-05-28T00:00:00","4","25.35","-105.75","1967.0","TEPEHUANES DGO., MX","FM-12","99999","V020","050,1,N,0010,1","00750,1,9,N","005000,1,N,1","+0306,1","-0004,1","10108,1","24,0000,9,1",,,,"03,1,+00600,1,07,1",,"07,99,1,07,1,07,1,00800,1,00,1,00,1",,"01,9",,"120,M,+0400,1","180,N,+0112,1","99999,9,08171,1","5,1,007,1,+017,1",,"SYN130AAXX  28001 76373 32550 70501 10306 21004 38171 40108 55007 87700 92355 333 10400 20112 30/// 51141 56900 58017 70000 83720 84625;",
"76373099999","2011-05-28T03:00:00","4","25.35","-105.75","1967.0","TEPEHUANES DGO., MX","FM-12","99999","V020","999,9,C,0000,1","22000,1,9,N","001000,1,N,1","+0248,1","+0017,1","10117,1",,,,,"01,1,+00750,1,08,1",,"01,99,1,01,1,01,1,00800,1,00,1,00,1",,"01,9",,,,"99999,9,08178,1","7,1,007,1,-002,1",,"SYN100AAXX  28031 76373 32510 10000 10248 20017 38178 40117 57007 81100 90255 333 30/// 56900 59002 81825;",
"76373099999","2011-05-28T12:00:00","4","25.35","-105.75","1967.0","TEPEHUANES DGO., MX","FM-12","99999","V020","999,9,C,0000,1","22000,1,9,N","001000,1,N,1","+0138,1","+0055,1","10125,1",,,,,"00,1,+99999,9,99,9",,"00,99,1,00,1,00,1,99999,9,00,1,00,1","0480,9","01,9",,"120,N,+0130,1","240,M,+0400,1","99999,9,08185,1","9,9,999,9,-016,1",,"SYN112AAXX  28121 76373 32910 00000 10138 20055 38185 40125 5//// 91150 333 10400 20130 30100 55080 21650 59016 70000;",
"76373099999","2011-05-28T15:00:00","4","25.35","-105.75","1967.0","TEPEHUANES DGO., MX","FM-12","99999","V020","999,9,C,0000,1","22000,1,9,N","004000,1,N,1","+0204,1","+0078,1","10127,1",,,,,"00,1,+99999,9,99,9",,"00,99,1,00,1,00,1,99999,9,00,1,00,1",,"01,9",,,,"99999,9,08186,1","5,1,001,1,-015,1",,"SYN082AAXX  28151 76373 32940 00000 10204 20078 38186 40127 55001 91455 333 30/// 59015;",
"76373099999","2011-05-28T18:00:00","4","25.35","-105.75","1967.0","TEPEHUANES DGO., MX","FM-12","99999","V020","110,1,N,0010,1","22000,1,9,N","005000,1,N,1","+0354,1","-0036,1","10104,1",,,,,"00,1,+99999,9,99,9",,"00,99,1,00,1,00,1,99999,9,00,1,00,1",,"01,9",,"120,M,+0360,1","240,N,+9999,9","99999,9,08168,1","7,1,018,1,-022,1",,"SYN094AAXX  28181 76373 32950 01101 10354 21036 38168 40104 57018 91755 333 10360 21030 30/// 59022;","Q01 -00302ATMN  "
"76373099999","2011-05-28T21:00:00","4","25.35","-105.75","1967.0","TEPEHUANES DGO., MX","FM-12","99999","V020","310,1,N,0010,1","22000,1,9,N","020000,1,N,1","+0380,1","-0092,2","10068,1",,,,,"02,1,+00810,1,08,1",,"02,99,1,02,1,02,1,01250,1,00,1,00,1",,"01,9",,,,"99999,9,08138,1","7,1,030,1,-026,1",,"SYN100AAXX  28211 76373 32670 23101 10380 21092 38138 40068 57030 82200 92050 333 30/// 56900 59026 82827;",
"76373099999","2011-05-29T00:00:00","4","25.35","-105.75","1967.0","TEPEHUANES DGO., MX","FM-12","99999","V020","280,1,N,0010,1","22000,1,9,N","020000,1,N,1","+0349,1","-0062,1","10058,1","24,0000,9,1",,,,,,"02,99,1,02,1,02,1,01250,1,00,1,00,1",,"01,9",,"120,M,+0408,1","180,N,+0130,1","99999,9,08131,1","7,1,007,1,-040,1",,"SYN124AAXX  29001 76373 32670 22801 10349 21062 38131 40058 57007 82200 92345 333 10408 20130 30/// 50921 56900 59040 70000 82827;",
"76373099999","2011-05-29T03:00:00","4","25.35","-105.75","1967.0","TEPEHUANES DGO., MX","FM-12","99999","V020","999,9,C,0000,1","22000,1,9,N","000600,1,N,1","+0279,1","+0023,1","10088,1",,,,,"02,1,+00810,1,08,1",,"02,99,1,02,1,02,1,01250,1,00,1,00,1",,"01,9",,,,"99999,9,08154,1","2,1,023,1,-024,1",,"SYN100AAXX  29031 76373 32606 20000 10279 20023 38154 40088 52023 82200 90250 333 30/// 56900 59024 82827;",
"76373099999","2011-05-29T12:00:00","4","25.35","-105.75","1967.0","TEPEHUANES DGO., MX","FM-12","99999","V020","999,9,C,0000,1","22000,1,9,N","000600,1,N,1","+0122,1","+0066,1","10104,1",,,,,"00,1,+99999,9,99,9",,"00,99,1,00,1,00,1,99999,9,00,1,00,1","0648,9","01,9",,"120,N,+0104,1","240,M,+0408,1","99999,9,08167,1","9,9,999,9,-018,1",,"SYN112AAXX  29121 76373 32906 00000 10122 20066 38167 40104 5//// 91150 333 10408 20104 30074 55108 22351 59018 70000;",
"76373099999","2011-05-29T18:00:00","4","25.35","-105.75","1967.0","TEPEHUANES DGO., MX","FM-12","99999","V020","999,9,C,0000,1","22000,1,9,N","020000,1,N,1","+0339,1","+0015,1","10097,1",,,,,"00,1,+99999,9,99,9",,"00,99,1,00,1,00,1,99999,9,00,1,00,1",,"01,9",,"120,M,+0348,1","240,N,+0104,1","99999,9,08162,1","7,1,011,1,-006,1",,"SYN094AAXX  29181 76373 32970 00000 10339 20015 38162 40097 57011 91750 333 10348 20104 30/// 59006;",
"76373099999","2011-05-29T21:00:00","4","25.35","-105.75","1967.0","TEPEHUANES DGO., MX","FM-12","99999","V020","250,1,N,0010,1","22000,1,9,N","020000,1,N,1","+0382,1","-0068,1","10073,1",,,,,"01,1,+00810,1,08,1",,"01,99,1,01,1,01,1,01250,1,00,1,00,1",,"01,9",,,,"99999,9,08143,1","7,1,019,1,+005,1",,"SYN100AAXX  29211 76373 32670 12501 10382 21068 38143 40073 57019 81100 92050 333 30/// 56900 58005 81827;",
"76373099999","2011-05-30T00:00:00","4","25.35","-105.75","1967.0","TEPEHUANES DGO., MX","FM-12","99999","V020","230,1,N,0010,1","22000,1,9,N","020000,1,N,1","+0344,1","-0001,1","10069,1","24,0000,9,1",,,,,,"01,99,1,01,1,02,1,01250,1,00,1,00,1",,"01,9",,"120,M,+0397,1","180,N,+0104,1","99999,9,08140,1","5,1,003,1,+009,1",,"SYN124AAXX  30001 76373 32670 12301 10344 21001 38140 40069 55003 81200 92350 333 10397 20104 30/// 51221 56900 58009 70000 81827;",
"76373099999","2011-05-30T15:00:00","4","25.35","-105.75","1967.0","TEPEHUANES DGO., MX","FM-12","99999","V020","999,9,C,0000,1","22000,1,9,N","020000,1,N,1","+0204,1","-0082,1","10142,1",,,,,"00,1,+99999,9,99,9",,"00,99,1,00,1,00,1,99999,9,00,1,00,1",,"01,9",,,,"99999,9,08198,1","2,1,014,1,+025,1",,"SYN082AAXX  30151 76373 32970 00000 10204 21082 38198 40142 52014 91450 333 30/// 58025;",
"76373099999","2011-05-30T18:00:00","4","25.35","-105.75","1967.0","TEPEHUANES DGO., MX","FM-12","99999","V020","999,9,C,0000,1","22000,1,9,N","020000,1,N,1","+0335,1","-0085,1","10124,1",,,,,"01,1,+05400,1,00,1",,"01,99,1,00,1,00,1,99999,9,00,1,02,1",,"01,9",,"120,M,+0341,1","240,N,+0118,1","99999,9,08184,1","7,1,014,1,+016,1",,"SYN112AAXX  30181 76373 32970 10000 10335 21085 38184 40124 57014 80002 91755 333 10341 20118 30/// 56009 58016 81068;",
"76373099999","2011-05-30T21:00:00","4","25.35","-105.75","1967.0","TEPEHUANES DGO., MX","FM-12","99999","V020","210,1,N,0010,1","05100,1,9,N","020000,1,N,1","+0382,2","-0092,1","10096,1",,,,,"06,1,+05100,1,00,1",,"06,99,1,00,1,00,1,99999,9,00,1,04,1",,"01,9",,,,"99999,9,08161,1","7,1,023,1,+018,1",,"SYN100AAXX  30211 76373 32970 62101 10382 21092 38161 40096 57023 80004 92050 333 30/// 56009 58018 86067;",
"76373099999","2011-05-31T00:00:00","4","25.35","-105.75","1967.0","TEPEHUANES DGO., MX","FM-12","99999","V020","300,1,N,0010,1","99999,9,9,N","020000,1,N,1","+0328,1","-0040,1","10096,1","24,0000,9,1",,,,,,"06,99,1,00,1,00,1,99999,9,00,1,04,1",,"01,9",,"120,M,+0394,1","180,N,+0118,1","99999,9,08161,1","4,1,000,1,+021,1",,"SYN124AAXX  31001 76373 32970 63001 10328 21040 38161 40096 54000 80004 92350 333 10394 20118 30/// 51041 56009 58021 70000 86067;",
"76373099999","2011-05-31T03:00:00","4","25.35","-105.75","1967.0","TEPEHUANES DGO., MX","FM-12","99999","V020","999,9,C,0000,1","05100,1,9,N","000600,1,N,1","+0278,1","+0014,1","10117,1",,,,,"05,1,+05100,1,00,1",,"05,99,1,00,1,00,1,99999,9,00,1,04,1",,"01,9",,,,"99999,9,08178,1","2,1,017,1,+999,9",,"SYN100AAXX  31031 76373 32906 50000 10278 20014 38178 40117 52017 80004 90250 333 30/// 56009 58/// 85067;",
"76373099999","2011-05-31T12:00:00","4","25.35","-105.75","1967.0","TEPEHUANES DGO., MX","FM-12","99999","V020","999,9,C,0000,1","22000,1,9,N","000800,1,N,1","+0152,1","+0047,1","10154,1","24,0000,9,1",,,,,,"02,99,1,02,1,02,1,01250,1,00,1,00,1","0636,9","01,9",,"120,N,+0144,1","240,M,+0394,1","99999,9,08208,1","9,9,999,9,+026,1",,"SYN130AAXX  31121 76373 32608 20000 10152 20047 38208 40154 5//// 82200 91150 333 10394 20144 30120 55106 22343 56900 58026 70000 82828;",
"76373099999","2011-05-31T15:00:00","4","25.35","-105.75","1967.0","TEPEHUANES DGO., MX","FM-12","99999","V020","999,9,C,0000,1","05100,1,9,N","020000,1,N,1","+0232,1","+0058,1","10172,1",,,,,"06,1,+05100,1,00,1",,"06,99,1,00,1,00,1,99999,9,00,1,04,1",,"01,9",,,,"99999,9,08222,1","2,1,014,1,+024,1",,"SYN100AAXX  31151 76373 32970 60000 10232 20058 38222 40172 52014 80004 91450 333 30/// 56009 58024 86067;",
"76373099999","2011-06-01T00:00:00","4","25.35","-105.75","1967.0","TEPEHUANES DGO., MX","FM-12","99999","V020","120,1,N,0010,1","00750,1,9,N","020000,1,N,1","+0326,1","-0025,1","10145,1","24,0000,9,1",,,,"04,1,+00750,1,07,1",,"06,99,1,06,1,06,1,00800,1,00,1,00,1",,"01,9",,"120,M,+0380,1","180,N,+0144,1","99999,9,08201,1","7,1,005,1,+040,1",,"SYN130AAXX  01001 76373 32570 61201 10326 21025 38201 40145 57005 86600 92350 333 10380 20144 30/// 51171 56900 58040 70000 84725 82625;",
"76373099999","2011-06-01T03:00:00","4","25.35","-105.75","1967.0","TEPEHUANES DGO., MX","FM-12","99999","V020","999,9,C,0000,1","00750,1,9,N","000800,1,N,1","+0273,1","-0004,1","10154,1",,,,,"07,1,+00750,1,07,1",,"07,99,1,07,1,06,1,00800,1,00,1,00,1",,"01,9",,,,"99999,9,08208,1","2,1,007,1,+030,1",,"SYN100AAXX  01031 76373 32508 70000 10273 21004 38208 40154 52007 87600 90250 333 30/// 56900 58030 87725;",
"76373099999","2011-06-01T12:00:00","4","25.35","-105.75","1967.0","TEPEHUANES DGO., MX","FM-12","99999","V020","999,9,C,0000,1","22000,1,9,N","001000,1,N,1","+0165,1","+0046,1","10192,1","24,0000,9,1",,,,,,"01,99,1,01,1,00,1,01750,1,07,1,00,1","0480,9",,,"240,M,+0380,1",,"99999,9,08239,1","9,9,999,9,+031,1",,"SYN130AAXX  01121 76373 32710 10000 10165 20046 38239 40192 5//// 81070 91150 333 10380 50157 30124 55080 22174 56090 58031 70000 81357;",
"76373099999","2011-06-01T15:00:00","4","25.35","-105.75","1967.0","TEPEHUANES DGO., MX","FM-12","99999","V020","999,9,C,0000,1","22000,1,9,N","020000,1,N,1","+0260,1","+0091,1","10211,1",,,,,"01,1,+02100,1,03,1",,"01,99,1,01,1,00,1,01750,1,07,1,00,1",,"01,9",,,,"99999,9,08254,1","2,1,016,1,+032,1",,"SYN100AAXX  01151 76373 32770 10000 10260 20091 38254 40211 52016 81070 91450 333 30/// 56020 58032 81357;",
"76373099999","2011-06-01T18:00:00","4","25.35","-105.75","1967.0","TEPEHUANES DGO., MX","FM-12","99999","V020","999,9,C,0000,1","02100,1,9,N","020000,1,N,1","+0305,1","+0079,1","10199,1",,,,,"06,1,+02100,1,03,1",,"06,99,1,06,1,00,1,01750,1,07,1,00,1",,"01,9",,"120,M,+0320,1","240,N,+0157,1","99999,9,08244,1","7,1,010,1,+022,1",,"SYN112AAXX  01181 76373 32770 60000 10305 20079 38244 40199 57010 86070 91750 333 10320 20157 30/// 56090 58022 86357;",
"76373099999","2011-06-01T21:00:00","4","25.35","-105.75","1967.0","TEPEHUANES DGO., MX","FM-12","99999","V020","120,1,N,0010,1","22000,1,9,N","020000,1,N,1","+0343,1","+0053,1","10162,1",,,,,"02,1,+00810,1,08,1",,"03,99,1,02,1,02,1,01250,1,07,1,00,1",,"01,9",,,,"99999,9,08214,1","7,1,030,1,+008,1",,"SYN100AAXX  01211 76373 32670 31201 10343 20053 38214 40162 57030 82270 92050 333 30/// 56990 58008 82827;",
"76373099999","2011-06-02T00:00:00","4","25.35","-105.75","1967.0","TEPEHUANES DGO., MX","FM-12","99999","V020","080,1,N,0010,1","22000,1,9,N","020000,1,N,1","+0334,1","+0006,1","10135,1","24,0000,9,1",,,,,,"04,99,1,04,1,04,1,01250,1,00,1,00,1",,"01,9",,"120,M,+0368,1","180,N,+0157,1","99999,9,08193,1","7,1,023,1,-008,1",,"SYN124AAXX  02001 76373 32670 40801 10334 20006 38193 40135 57023 84400 92350 333 10368 20157 30/// 51271 56900 59008 70000 84625;",
"76373099999","2011-06-02T03:00:00","4","25.35","-105.75","1967.0","TEPEHUANES DGO., MX","FM-12","99999","V020","999,9,C,0000,1","22000,1,9,N","000800,1,N,1","+0268,1","-0011,1","10147,1",,,,,"02,1,+00810,1,08,1",,"02,99,1,02,1,02,1,01250,1,00,1,00,1",,"01,9",,,,"99999,9,08202,1","2,1,009,1,-006,1",,"SYN100AAXX  02031 76373 32608 20000 10268 21011 38202 40147 52009 82200 90250 333 30/// 56900 59006 82827;",
"76373099999","2011-06-02T12:00:00","4","25.35","-105.75","1967.0","TEPEHUANES DGO., MX","FM-12","99999","V020","999,9,C,0000,1","22000,1,9,N","001000,1,N,1","+0232,1","+0020,1","10165,1","24,0000,9,1",,,,,,"01,99,1,01,1,04,1,01250,1,00,1,00,1","0612,9","01,9",,"120,N,+0124,1","240,M,+0368,1","99999,9,08217,1","9,9,999,9,-022,1",,"SYN130AAXX  02121 76373 32610 10000 10232 20020 38217 40165 5//// 81400 91150 333 10368 20124 30096 55102 22360 56200 59022 70000 81627;",
"76373099999","2011-06-02T15:00:00","4","25.35","-105.75","1967.0","TEPEHUANES DGO., MX","FM-12","99999","V020","999,9,C,0000,1","22000,1,9,N","020000,1,N,1","+0223,1","+0069,1","10170,1",,,,,"00,1,+99999,9,99,9",,"00,99,1,00,1,00,1,99999,9,00,1,00,1",,"01,9",,,,"99999,9,08221,1","2,1,004,1,-033,1",,"SYN082AAXX  02151 76373 32970 00000 10223 20069 38221 40170 52004 91450 333 30/// 59033;",
"76373099999","2011-06-02T18:00:00","4","25.35","-105.75","1967.0","TEPEHUANES DGO., MX","FM-12","99999","V020","110,1,N,0010,1","22000,1,9,N","010000,1,N,1","+0336,1","+0021,1","10149,1",,,,,"02,1,+00600,1,08,1",,"02,99,1,02,1,02,1,00800,1,00,1,00,1",,"01,9",,"120,M,+0350,1","240,N,+0124,1","99999,9,08204,1","7,1,017,1,-040,1",,"SYN112AAXX  02181 76373 32560 21101 10336 20021 38204 40149 57017 82200 91755 333 10350 20124 30/// 56900 59040 82820;",
"76373099999","2011-06-02T21:00:00","4","25.35","-105.75","1967.0","TEPEHUANES DGO., MX","FM-12","99999","V020","230,1,N,0010,1","22000,1,9,N","010000,1,N,1","+0342,1","+0040,1","10117,1",,,,,"02,1,+00600,1,06,1",,"04,99,1,04,1,04,1,00800,1,00,1,00,1",,"01,9",,,,"99999,9,08178,1","7,1,026,1,-036,1",,"SYN106AAXX  02211 76373 32560 42301 10342 20040 38178 40117 57026 84400 92055 333 30/// 56900 59036 82620 82825;",
"76373099999","2011-06-03T00:00:00","4","25.35","-105.75","1967.0","TEPEHUANES DGO., MX","FM-12","99999","V020","320,1,N,0010,1","00750,1,9,N","010000,1,N,1","+0274,1","+0043,1","10118,1","24,0000,9,1",,,,"04,1,+00600,1,06,1",,"07,99,1,07,1,07,1,00800,1,00,1,00,1",,"01,9",,"120,M,+0376,1","180,N,+0124,1","99999,9,08179,1","5,1,001,1,-014,1",,"SYN130AAXX  03001 76373 32560 73201 10274 20043 38179 40118 55001 87700 92355 333 10376 20124 30/// 51051 56900 59014 70000 84620 83725;",
"76373099999","2011-06-03T03:00:00","4","25.35","-105.75","1967.0","TEPEHUANES DGO., MX","FM-12","99999","V020","320,1,N,0010,1","00750,1,9,N","001000,1,N,1","+0238,1","+0053,1","10137,1",,,,,"03,1,+00600,1,07,1",,"06,99,1,06,1,06,1,00800,1,00,1,00,1",,"01,9",,,,"99999,9,08194,1","2,1,015,1,-008,1",,"SYN106AAXX  03031 76373 32510 63201 10238 20053 38194 40137 52015 86600 90250 333 30/// 56900 59008 83720 83625;",
"76373099999","2011-06-03T12:00:00","4","25.35","-105.75","1967.0","TEPEHUANES DGO., MX","FM-12","99999","V020","999,9,C,0000,1","22000,1,9,N","001000,1,N,1","+0120,1","+0037,1","10157,1",,,,,"00,1,+99999,9,99,9",,"00,99,1,00,1,00,1,99999,9,00,1,00,1","0498,9","01,9",,"120,N,+0112,1","240,M,+0376,1","99999,9,08211,1","9,9,999,9,-006,1",,"SYN112AAXX  03121 76373 32910 00000 10120 20037 38211 40157 5//// 91155 333 10376 20112 30090 55083 21159 59006 70000;",
"76373099999","2011-06-03T15:00:00","4","25.35","-105.75","1967.0","TEPEHUANES DGO., MX","FM-12","99999","V020","999,9,C,0000,1","22000,1,9,N","010000,1,N,1","+0228,1","+0076,1","10135,1",,,,,"00,1,+99999,9,99,9",,"00,99,1,00,1,00,1,99999,9,00,1,00,1",,"01,9",,,,"99999,9,08207,1","5,1,004,1,-014,1",,"SYN082AAXX  03151 76373 32960 00000 10228 20076 38207 40135 55004 91455 333 30/// 59014;",
"76373099999","2011-06-03T18:00:00","4","25.35","-105.75","1967.0","TEPEHUANES DGO., MX","FM-12","99999","V020","110,1,N,0010,1","22000,1,9,N","030000,1,N,1","+0320,1","+0054,1","10140,1",,,,,"02,1,+00750,1,07,1",,"02,99,1,02,1,02,1,00800,1,00,1,00,1",,"01,9",,"120,M,+0332,1","240,N,+0112,1","99999,9,08197,1","7,1,010,1,-007,1",,"SYN112AAXX  03181 76373 32580 21101 10320 20054 38197 40140 57010 82200 91750 333 10332 20112 30090 56900 59007 82725;",
"76373099999","2011-06-03T21:00:00","4","25.35","-105.75","1967.0","TEPEHUANES DGO., MX","FM-12","99999","V020","140,1,N,0010,1","00750,1,9,N","030000,1,N,1","+0336,1","+0014,1","10114,1",,,,,"02,1,+00600,1,07,1",,"05,99,1,05,1,05,1,00800,1,00,1,00,1",,"01,9",,,,"99999,9,08176,1","7,1,021,1,-002,1",,"SYN106AAXX  03211 76373 32580 51401 10336 20014 38176 40114 57021 85500 92050 333 30/// 56900 59002 82720 83625;",
"76373099999","2011-06-04T12:00:00","4","25.35","-105.75","1967.0","TEPEHUANES DGO., MX","FM-12","99999","V020","999,9,C,0000,1","22000,1,9,N","001000,1,N,1","+0134,1","+0045,1","10163,1","24,0000,9,1",,,,,,"02,99,1,02,1,02,1,00800,1,00,1,00,1","0450,9","01,9",,"120,N,+0130,1","240,M,+0370,1","99999,9,08216,1","9,9,999,9,+005,1",,"SYN130AAXX  04121 76373 32510 20000 10134 20045 38216 40163 5//// 82200 91145 333 10370 20130 30100 55075 21650 56900 58005 70000 82620;",
"76373099999","2011-06-04T15:00:00","4","25.35","-105.75","1967.0","TEPEHUANES DGO., MX","FM-12","99999","V020","999,9,C,0000,1","22000,1,9,N","030000,1,N,1","+0224,1","+0057,1","10176,1",,,,,"00,1,+99999,9,99,9",,"00,99,1,00,1,00,1,99999,9,00,1,00,1",,"01,9",,,,"99999,9,08226,1","2,1,010,1,+019,1",,"SYN082AAXX  04151 76373 32980 00000 10224 20057 38226 40176 52010 91455 333 30/// 58019;",
"76373099999","2011-06-04T18:00:00","4","25.35","-105.75","1967.0","TEPEHUANES DGO., MX","FM-12","99999","V020","110,1,N,0010,1","22000,1,9,N","030000,1,N,1","+0322,2","+0052,1","10164,1",,,,,"02,1,+00750,1,08,1",,"02,99,1,02,1,02,1,00800,1,00,1,00,1",,"01,9",,"120,M,+0330,1","240,N,+0130,1","99999,9,08217,1","7,1,009,1,+020,1",,"SYN112AAXX  04181 76373 32580 21101 10322 20052 38217 40164 57009 82200 91750 333 10330 20130 30/// 56900 58020 82825;",
"76373099999","2011-06-04T21:00:00","4","25.35","-105.75","1967.0","TEPEHUANES DGO., MX","FM-12","99999","V020","140,1,N,0010,1","00750,1,9,N","020000,1,N,1","+0318,1","+0028,1","10145,1",,,,,"02,1,+00750,1,07,1",,"05,99,1,05,1,04,1,00800,1,00,1,00,1",,"01,9",,,,"99999,9,08201,1","7,1,016,1,+025,1",,"SYN106AAXX  04211 76373 32570 51401 10318 20028 38201 40145 57016 85400 92050 333 30/// 56900 58025 82725 83625;",
"76373099999","2011-06-05T00:00:00","4","25.35","-105.75","1967.0","TEPEHUANES DGO., MX","FM-12","99999","V020","080,1,N,0020,1","00750,1,9,N","020000,1,N,1","+0292,1","+0038,1","10139,1","24,0000,9,1",,,,,,"07,99,1,07,1,07,1,00800,1,00,1,00,1",,"01,9",,"120,M,+0368,1","180,N,+0130,1","99999,9,08196,1","7,1,005,1,+018,1",,"SYN124AAXX  05001 76373 32570 70802 10292 20038 38196 40139 57005 87700 92350 333 10368 20130 30/// 50751 56900 58018 70000 87725;",
"76373099999","2011-06-05T03:00:00","4","25.35","-105.75","1967.0","TEPEHUANES DGO., MX","FM-12","99999","V020","999,9,C,0000,1","00750,1,9,N","000600,1,N,1","+0260,1","+0047,1","10156,1",,,,,"07,1,+00750,1,07,1",,"99,99,9,06,1,07,1,00800,1,00,1,00,1",,"01,9",,,,"99999,9,08209,1","2,1,015,1,+006,1",,"SYN100AAXX  05031 76373 32506 60000 10260 20047 38209 40156 52015 86700 90250 333 30/// 56900 58006 87725;","Q01+000062SCOTCV"
"76373099999","2011-06-05T12:00:00","4","25.35","-105.75","1967.0","TEPEHUANES DGO., MX","FM-12","99999","V020","999,9,C,0000,1","22000,1,9,N","000800,1,N,1","+0132,1","+0047,1","10180,1",,,,,"00,1,+99999,9,99,9",,"00,99,1,00,1,00,1,99999,9,00,1,00,1","0534,9","01,9",,"120,N,+0124,1","240,M,+0368,1","99999,9,08229,1","9,9,999,9,+013,1",,"SYN112AAXX  05121 76373 32908 00000 10132 20047 38229 40180 5//// 91150 333 10368 20124 30100 55089 21699 58013 70000;",
"76373099999","2011-06-05T15:00:00","4","25.35","-105.75","1967.0","TEPEHUANES DGO., MX","FM-12","99999","V020","999,9,C,0000,1","22000,1,9,N","020000,1,N,1","+0229,1","+0072,1","10191,1",,,,,"00,1,+99999,9,99,9",,"00,99,1,00,1,00,1,99999,9,00,1,00,1",,"01,9",,,,"99999,9,08238,1","2,1,009,1,+012,1",,"SYN082AAXX  05151 76373 32970 00000 10229 20072 38238 40191 52009 91450 333 30/// 58012;",
"76373099999","2011-06-05T21:00:00","4","25.35","-105.75","1967.0","TEPEHUANES DGO., MX","FM-12","99999","V020","110,1,N,0010,1","22000,1,9,N","020000,1,N,1","+0320,1","+0036,1","10152,1",,,,,"01,1,+00900,1,08,1",,"01,99,1,01,1,02,1,99999,9,00,1,00,1",,"01,9",,,,"99999,9,08206,1","7,1,008,1,+005,1",,"SYN100AAXX  05211 76373 32970 11101 10320 20036 38206 40152 57008 81200 92045 333 30/// 56900 58005 81830;",
"76373099999","2011-06-06T00:00:00","4","25.35","-105.75","1967.0","TEPEHUANES DGO., MX","FM-12","99999","V020","030,1,N,0010,1","22000,1,9,N","020000,1,N,1","+0313,1","+0004,1","10137,1","24,0000,9,1",,,,,,"01,99,1,01,1,02,1,99999,9,00,1,00,1",,"01,9",,"120,M,+0350,1","180,N,+0124,1","99999,9,08194,1","7,1,012,1,+002,1",,"SYN124AAXX  06001 76373 32970 10301 10313 20004 38194 40137 57012 81200 92350 333 10350 20124 30/// 50901 56900 58002 70000 81830;",
"76373099999","2011-06-06T15:00:00","4","25.35","-105.75","1967.0","TEPEHUANES DGO., MX","FM-12","99999","V020","999,9,C,0000,1","22000,1,9,N","020000,1,N,1","+0220,1","+0050,1","10163,1",,,,,"00,1,+99999,9,99,9",,"00,99,1,00,1,00,1,99999,9,00,1,00,1",,"01,9",,,,"99999,9,08215,1","4,1,000,1,+023,1",,"SYN082AAXX  06151 76373 32970 00000 10220 20050 38215 40163 54000 91450 333 30/// 58023;",
"76373099999","2011-06-06T18:00:00","4","25.35","-105.75","1967.0","TEPEHUANES DGO., MX","FM-12","99999","V020","110,1,N,0010,1","22000,1,9,N","020000,1,N,1","+0315,1","+0048,1","10149,1",,,,,"00,1,+99999,9,99,9",,"00,99,1,00,1,00,1,99999,9,00,1,00,1",,"01,9",,"120,M,+0320,1","240,N,+0115,1","99999,9,08204,1","7,1,011,1,-014,1",,"SYN094AAXX  06181 76373 32970 01101 10315 20048 38204 40149 57011 91750 333 10320 20115 30/// 59014;",
"76373099999","2011-06-06T21:00:00","4","25.35","-105.75","1967.0","TEPEHUANES DGO., MX","FM-12","99999","V020","090,1,N,0010,1","22000,1,9,N","020000,1,N,1","+0340,1","+0003,1","10125,1",,,,,"01,1,+00900,1,08,1",,"01,99,1,01,1,02,1,00800,1,00,1,00,1",,"01,9",,,,"99999,9,08185,1","7,1,019,1,-021,1",,"SYN100AAXX  06211 76373 32570 10901 10340 20003 38185 40125 57019 81200 92050 333 30/// 56900 59021 81830;",
"76373099999","2011-06-07T00:00:00","4","25.35","-105.75","1967.0","TEPEHUANES DGO., MX","FM-12","99999","V020","070,1,N,0010,1","00750,1,9,N","020000,1,N,1","+0308,1","-0007,1","10114,1","24,0000,9,1",,,,,,"06,99,1,06,1,07,1,00800,1,00,1,00,1",,"01,9",,"120,M,+0360,1","180,N,+0115,1","99999,9,08176,1","7,1,009,1,-018,1",,"SYN124AAXX  07001 76373 32570 60701 10308 21007 38176 40114 57009 86700 92350 333 10360 20115 30/// 50971 56900 59018 70000 86725;",
"76373099999","2011-06-07T12:00:00","4","25.35","-105.75","1967.0","TEPEHUANES DGO., MX","FM-12","99999","V020","999,9,C,0000,1","22000,1,9,N","000800,1,N,1","+0141,1","+0049,1","10147,1",,,,,"00,1,+99999,9,99,9",,"00,99,1,00,1,00,1,99999,9,00,1,00,1","0594,9","01,9",,"120,N,+0131,1","240,M,+0360,1","99999,9,08203,1","9,9,999,9,-015,1",,"SYN112AAXX  07121 76373 32908 00000 10141 20049 38203 40147 5//// 91150 333 10360 20131 30106 55099 22054 59015 70000;",
"76373099999","2011-06-07T15:00:00","4","25.35","-105.75","1967.0","TEPEHUANES DGO., MX","FM-12","99999","V020","999,9,C,0000,1","22000,1,9,N","020000,1,N,1","+0229,1","+0062,1","10155,1",,,,,"02,1,+01800,1,03,1",,"02,99,1,02,1,00,1,01750,1,06,1,00,1",,"01,9",,,,"99999,9,08209,1","3,1,006,1,-006,1",,"SYN100AAXX  07151 76373 32770 20000 10229 20062 38209 40155 53006 82060 91450 333 30/// 56090 59006 82356;",
"76373099999","2011-06-07T18:00:00","4","25.35","-105.75","1967.0","TEPEHUANES DGO., MX","FM-12","99999","V020","120,1,N,0010,1","22000,1,9,N","020000,1,N,1","+0323,1","+0020,1","10137,1",,,,,"02,1,+00810,1,08,1",,"02,99,1,02,1,02,1,01250,1,00,1,00,1",,"01,9",,"120,M,+0340,1","240,N,+0131,1","99999,9,08195,1","7,1,014,1,-009,1",,"SYN112AAXX  07181 76373 32670 21201 10323 20020 38195 40137 57014 82200 91750 333 10340 20131 30/// 56900 59009 82827;",
"76373099999","2011-06-07T21:00:00","4","25.35","-105.75","1967.0","TEPEHUANES DGO., MX","FM-12","99999","V020","120,1,N,0020,1","00750,1,9,N","020000,1,N,1","+0339,1","-0013,1","10113,1",,,,,"03,1,+00750,1,06,1",,"05,99,1,05,1,04,1,00800,1,00,1,00,1",,"01,9",,,,"99999,9,08175,1","7,1,020,1,-010,1",,"SYN106AAXX  07211 76373 32570 51202 10339 21013 38175 40113 57020 85400 92050 333 30/// 56900 59010 83625 82825;",
"76373099999","2011-06-08T00:00:00","4","25.35","-105.75","1967.0","TEPEHUANES DGO., MX","FM-12","99999","V020","130,1,N,0010,1","00750,1,9,N","020000,1,N,1","+0325,1","-0015,1","10096,1","24,0000,9,1",,,,,,"05,99,1,05,1,07,1,00800,1,00,1,00,1",,"01,9",,"120,M,+0375,1",,"99999,9,08166,1","7,1,014,1,-010,1",,"SYN124AAXX  08001 76373 32570 51301 10325 21015 38166 40096 57014 85700 92350 333 10375 30131 30/// 51091 56900 59010 70000 84725;",
"76373099999","2011-06-08T03:00:00","4","25.35","-105.75","1967.0","TEPEHUANES DGO., MX","FM-12","99999","V020","310,1,N,0010,1","22000,1,9,N","000600,1,N,1","+0233,1","+0053,1","10132,1",,,,,"04,1,+00750,1,07,1",,"04,99,1,04,1,07,1,00800,1,00,1,00,1",,"01,9",,,,"99999,9,08191,1","2,1,030,1,+999,9",,"SYN100AAXX  08031 76373 32506 43101 10233 20053 38191 40132 52030 84700 90250 333 30/// 56900 58/// 84725;",
"76373099999","2011-06-08T15:00:00","4","25.35","-105.75","1967.0","TEPEHUANES DGO., MX","FM-12","99999","V020","999,9,C,0000,1","22000,1,9,N","020000,1,N,1","+0204,1","+0056,1","10159,1",,,,,"00,1,+99999,9,99,9",,"00,99,1,00,1,00,1,99999,9,00,1,00,1",,"01,9",,,,"99999,9,08212,1","2,1,004,1,+003,1",,"SYN082AAXX  08151 76373 32970 00000 10204 20056 38212 40159 52004 91450 333 30/// 58003;",
"76373099999","2011-06-08T21:00:00","4","25.35","-105.75","1967.0","TEPEHUANES DGO., MX","FM-12","99999","V020","190,1,N,0010,1","00780,1,9,N","020000,1,N,1","+0355,1","-0034,1","10116,1",,,,,"05,1,+00780,1,06,1",,"05,99,1,05,1,04,1,00800,1,00,1,00,1",,"01,9",,,,"99999,9,08178,1","7,1,020,1,+003,1",,"SYN100AAXX  08211 76373 32570 51901 10355 21034 38178 40116 57020 85400 92050 333 30/// 56900 58003 85626;",
"76373099999","2011-06-09T00:00:00","4","25.35","-105.75","1967.0","TEPEHUANES DGO., MX","FM-12","99999","V020","290,1,N,0010,1","00750,1,9,N","020000,1,N,1","+0313,1","+0018,1","10107,1","24,0000,9,1",,,,"04,1,+00750,1,07,1",,"07,99,1,07,1,07,1,00800,1,00,1,00,1",,"01,9",,"120,M,+0390,1","180,N,+0111,1","99999,9,08170,1","5,1,008,1,+009,1",,"SYN130AAXX  09001 76373 32570 72901 10313 20018 38170 40107 55008 87700 92350 333 10390 20111 30/// 51131 56900 58009 70000 84725 83625;",
"76373099999","2011-06-09T03:00:00","4","25.35","-105.75","1967.0","TEPEHUANES DGO., MX","FM-12","99999","V020","300,1,N,0020,1","00750,1,9,N","000600,1,N,1","+0243,1","+0053,1","10140,1",,,,,"08,1,+00750,1,07,1",,"08,99,1,08,1,07,1,00800,1,00,1,00,1",,"01,9",,,,"99999,9,08196,1","2,1,026,1,+005,1",,"SYN100AAXX  09031 76373 32506 83002 10243 20053 38196 40140 52026 88700 90250 333 30/// 56900 58005 88725;",
"76373099999","2011-06-09T12:00:00","4","25.35","-105.75","1967.0","TEPEHUANES DGO., MX","FM-12","99999","V020","999,9,C,0000,1","22000,1,9,N","001000,1,N,1","+0141,1","+0042,1","10154,1","24,0000,9,1",,,,,,"04,99,1,04,1,05,1,01250,1,00,1,00,1","0576,9","01,9",,"120,N,+0129,1","240,M,+0390,1","99999,9,08208,1","9,9,999,9,+000,1",,"SYN130AAXX  09121 76373 32610 40000 10141 20042 38208 40154 5//// 84500 91150 333 10390 20129 30110 55096 22335 56900 58000 70000 84626;",
"76373099999","2011-06-09T15:00:00","4","25.35","-105.75","1967.0","TEPEHUANES DGO., MX","FM-12","99999","V020","999,9,C,0000,1","22000,1,9,N","020000,1,N,1","+0205,1","+0061,1","10163,1",,,,,"01,1,+02100,1,03,1",,"01,99,1,01,1,00,1,01750,1,07,1,00,1",,"01,9",,,,"99999,9,08216,1","2,1,008,1,+004,1",,"SYN100AAXX  09151 76373 32770 10000 10205 20061 38216 40163 52008 81070 91435 333 30/// 56090 58004 81357;",
"76373099999","2011-06-09T18:00:00","4","25.35","-105.75","1967.0","TEPEHUANES DGO., MX","FM-12","99999","V020","110,1,N,0010,1","22000,1,9,N","030000,1,N,1","+0340,1","+0029,1","10143,1",,,,,"03,1,+00750,1,08,1",,"03,99,1,03,1,03,1,00800,1,00,1,00,1",,"01,9",,"120,M,+0352,1","240,N,+0129,1","99999,9,08199,1","7,1,017,1,+001,1",,"SYN112AAXX  09181 76373 32580 31101 10340 20029 38199 40143 57017 83300 91755 333 10352 20129 30/// 56900 58001 83825;",
"76373099999","2011-06-09T21:00:00","4","25.35","-105.75","1967.0","TEPEHUANES DGO., MX","FM-12","99999","V020","250,1,N,0010,1","00750,1,9,N","030000,1,N,1","+0374,1","-0011,1","10116,1",,,,,"03,1,+00600,1,08,1",,"05,99,1,05,1,05,1,00800,1,00,1,00,1",,"01,9",,,,"99999,9,08177,1","7,1,025,1,-001,1",,"SYN106AAXX  09211 76373 32580 52501 10374 21011 38177 40116 57025 85500 92055 333 30/// 56900 59001 83820 82725;",
"76373099999","2011-06-10T00:00:00","4","25.35","-105.75","1967.0","TEPEHUANES DGO., MX","FM-12","99999","V020","290,1,N,0010,1","01200,1,9,N","030000,1,N,1","+0284,1","+0054,1","10118,1","24,0000,9,1",,,,"04,1,+00600,1,07,1",,"08,99,1,08,1,08,1,00800,1,00,1,00,1",,"01,9",,"120,M,+0396,1","180,N,+0129,1","99999,9,08179,1","2,1,002,1,+009,1",,"SYN130AAXX  10001 76373 32580 82901 10284 20054 38179 40118 52002 88800 92355 333 10396 20129 30/// 51141 56900 58009 70000 84720 84625;",
"76373099999","2011-06-10T03:00:00","4","25.35","-105.75","1967.0","TEPEHUANES DGO., MX","FM-12","99999","V020","290,1,N,0010,1","01200,1,C,N","001000,1,N,1","+0228,1","+0093,1","10157,1",,,,,"04,1,+00600,1,07,1",,"08,99,1,08,1,08,1,00800,1,00,1,00,1",,"01,9",,,,"99999,9,08210,1","2,1,031,1,+014,1",,"SYN106AAXX  10031 76373 32510 82901 10228 20093 38210 40157 52031 88800 90255 333 30/// 56900 58014 84720 84625;",
"76373099999","2011-06-10T12:00:00","4","25.35","-105.75","1967.0","TEPEHUANES DGO., MX","FM-12","99999","V020","290,1,N,0010,1","22000,1,9,N","001000,1,N,1","+0132,1","+0099,1","10152,1","24,0010,9,1",,,,,,"02,99,1,02,1,02,1,00800,1,00,1,00,1","0498,9","01,9",,"120,N,+0120,1","240,M,+0396,1","99999,9,08206,1","9,9,999,9,-002,1",,"SYN130AAXX  10121 76373 32510 22901 10132 20099 38206 40152 5//// 82200 91155 333 10396 20120 30100 55083 21731 56900 59002 70010 82820;",
"76373099999","2011-06-10T15:00:00","4","25.35","-105.75","1967.0","TEPEHUANES DGO., MX","FM-12","99999","V020","999,9,C,0000,1","22000,1,9,N","010000,1,N,1","+0198,1","+0105,1","10163,1",,,,,"00,1,+99999,9,99,9",,"00,99,1,00,1,00,1,99999,9,00,1,00,1",,"01,9",,,,"99999,9,08215,1","2,1,014,1,-001,1",,"SYN082AAXX  10151 76373 32960 00000 10198 20105 38215 40163 52014 91450 333 30/// 59001;",
"76373099999","2011-06-10T18:00:00","4","25.35","-105.75","1967.0","TEPEHUANES DGO., MX","FM-12","99999","V020","050,1,N,0010,1","22000,1,9,N","030000,1,N,1","+0338,1","+0044,1","10137,1",,,,,"02,1,+00750,1,08,1",,"02,99,1,02,1,02,1,00800,1,00,1,00,1",,"01,9",,"120,M,+0348,1","240,N,+0120,1","99999,9,08194,1","7,1,021,1,-005,1",,"SYN112AAXX  10181 76373 32580 20501 10338 20044 38194 40137 57021 82200 91755 333 10348 20120 30/// 56900 59005 82825;",
"76373099999","2011-06-10T21:00:00","4","25.35","-105.75","1967.0","TEPEHUANES DGO., MX","FM-12","99999","V020","290,1,N,0020,1","22000,1,9,N","030000,1,N,1","+0362,1","+0007,1","10111,1",,,,,"03,1,+00750,1,08,1",,"03,99,1,03,1,03,1,00800,1,00,1,00,1",,"01,9",,,,"99999,9,08174,1","7,1,020,1,-003,1",,"SYN100AAXX  10211 76373 32580 32902 10362 20007 38174 40111 57020 83300 92050 333 30/// 56900 59003 83825;",
"76373099999","2011-06-11T00:00:00","4","25.35","-105.75","1967.0","TEPEHUANES DGO., MX","FM-12","99999","V020","290,1,N,0020,1","22000,1,9,N","010000,1,N,1","+0334,1","+0003,1","10096,1","24,0010,9,1",,,,,,"03,99,1,03,1,03,1,00800,1,00,1,00,1",,"01,9",,"120,M,+0370,1","180,N,+0120,1","99999,9,08161,1","7,1,013,1,-018,1",,"SYN124AAXX  11001 76373 32560 32902 10334 20003 38161 40096 57013 83300 92355 333 10370 20120 30/// 50951 56900 59018 70010 83825;",
"76373099999","2011-06-11T03:00:00","4","25.35","-105.75","1967.0","TEPEHUANES DGO., MX","FM-12","99999","V020","290,1,N,0010,1","00750,1,9,N","001000,1,N,1","+0266,1","+0095,1","10122,1",,,,,"02,1,+00600,1,07,1",,"06,99,1,06,1,06,1,00800,1,00,1,00,1",,"01,9",,,,"99999,9,08182,1","2,1,021,1,-028,1",,"SYN106AAXX  11031 76373 32510 62901 10266 20095 38182 40122 52021 86600 90255 333 30/// 56900 59028 82720 84625;",
"76373099999","2011-06-11T15:00:00","4","25.35","-105.75","1967.0","TEPEHUANES DGO., MX","FM-12","99999","V020","999,9,C,0000,1","22000,1,9,N","005000,1,N,1","+0226,1","+0120,1","10144,1",,,,,"00,1,+99999,9,99,9",,"00,99,1,00,1,00,1,99999,9,00,1,00,1",,"01,9",,,,"99999,9,08200,1","2,1,006,1,-015,1",,"SYN082AAXX  11151 76373 32950 00000 10226 20120 38200 40144 52006 91450 333 30/// 59015;",
"76373099999","2011-06-11T18:00:00","4","25.35","-105.75","1967.0","TEPEHUANES DGO., MX","FM-12","99999","V020","140,1,N,0010,1","22000,1,9,N","010000,1,N,1","+0334,1","+0084,1","10129,1",,,,,"02,1,+00600,1,08,1",,"02,99,1,02,1,02,1,00800,1,00,1,00,1",,"01,9",,"120,M,+0350,1","240,N,+0142,1","99999,9,08188,1","7,1,012,1,-006,1",,"SYN112AAXX  11181 76373 32560 21401 10334 20084 38188 40129 57012 82200 91750 333 10350 20142 30/// 56900 59006 82820;",
"76373099999","2011-06-12T00:00:00","4","25.35","-105.75","1967.0","TEPEHUANES DGO., MX","FM-12","99999","V020","310,1,N,0010,1","99999,9,9,N","020000,1,N,1","+0301,1","+0007,1","10094,1","24,0000,9,1",,,,,,"07,99,1,99,9,07,1,99999,9,00,1,00,1",,"01,9",,"120,M,+0395,1","180,N,+0142,1","99999,9,08160,1","7,1,004,1,+001,1",,"SYN124AAXX  12001 76373 32970 73101 10301 20007 38160 40094 57004 85700 92350 333 10395 20142 30/// 51071 56900 58001 70000 85625;","Q01+000052SCOTLC"
"76373099999","2011-06-12T03:00:00","4","25.35","-105.75","1967.0","TEPEHUANES DGO., MX","FM-12","99999","V020","999,9,C,0000,1","22000,1,9,N","010000,1,N,1","+0245,1","+0036,1","10119,1",,,,,"00,1,+99999,9,99,9",,"00,99,1,00,1,00,1,99999,9,00,1,00,1",,"01,9",,,,"99999,9,08180,1","2,1,020,1,-002,1",,"SYN082AAXX  12031 76373 32960 00000 10245 20036 38180 40119 52020 90250 333 30/// 59002;",
"76373099999","2011-06-12T12:00:00","4","25.35","-105.75","1967.0","TEPEHUANES DGO., MX","FM-12","99999","V020","999,9,C,0000,1","22000,1,9,N","010000,1,N,1","+0152,1","+0026,1","10134,1",,,,,"00,1,+99999,9,99,9",,"00,99,1,00,1,00,1,99999,9,00,1,00,1","0540,9","01,9",,"120,N,+0140,1","240,M,+0395,1","99999,9,08192,1","9,9,999,9,-002,1",,"SYN112AAXX  12121 76373 32960 00000 10152 20026 38192 40134 5//// 91150 333 10395 20140 30110 55090 21973 59002 70000;",
"76373099999","2011-06-12T15:00:00","4","25.35","-105.75","1967.0","TEPEHUANES DGO., MX","FM-12","99999","V020","999,9,C,0000,1","22000,1,9,N","020000,1,N,1","+0222,1","+0033,1","10143,1",,,,,"00,1,+99999,9,99,9",,"00,99,1,00,1,00,1,99999,9,00,1,00,1",,"01,9",,,,"99999,9,08199,1","2,1,007,1,-001,1",,"SYN082AAXX  12151 76373 32970 00000 10222 20033 38199 40143 52007 91450 333 30/// 59001;",
"76373099999","2011-06-12T18:00:00","4","25.35","-105.75","1967.0","TEPEHUANES DGO., MX","FM-12","99999","V020","110,1,N,0010,1","22000,1,9,N","020000,1,N,1","+0330,1","+0042,1","10129,1",,,,,"01,1,+00900,1,08,1",,"01,99,1,01,1,02,1,99999,9,00,1,00,1",,"01,9",,"120,M,+0350,1","240,N,+0140,1","99999,9,08188,1","7,1,011,1,+000,1",,"SYN112AAXX  12181 76373 32970 11101 10330 20042 38188 40129 57011 81200 91750 333 10350 20140 30/// 56900 58000 81830;",
"76373099999","2011-06-12T21:00:00","4","25.35","-105.75","1967.0","TEPEHUANES DGO., MX","FM-12","99999","V020","110,1,N,0010,1","22000,1,9,N","020000,1,N,1","+0374,1","-0019,1","10101,1",,,,,"03,1,+00900,1,08,1",,"03,99,1,03,1,02,1,99999,9,00,1,00,1",,"01,9",,,,"99999,9,08165,1","7,1,023,1,-010,1",,"SYN100AAXX  12211 76373 32970 31101 10374 21019 38165 40101 57023 83200 92050 333 30/// 56900 59010 83830;",
"76373099999","2011-06-13T00:00:00","4","25.35","-105.75","1967.0","TEPEHUANES DGO., MX","FM-12","99999","V020","120,1,N,0010,1","22000,1,9,N","020000,1,N,1","+0329,1","-0046,1","10096,1","24,0000,9,1",,,,,,"04,99,1,04,1,07,1,99999,9,00,1,00,1",,"01,9",,"120,M,+0398,1","180,N,+0140,1","99999,9,08161,1","7,1,004,1,+001,1",,"SYN124AAXX  13001 76373 32970 41201 10329 21046 38161 40096 57004 84700 92350 333 10398 20140 30/// 51101 56900 58001 70000 84630;",
"76373099999","2011-06-13T12:00:00","4","25.35","-105.75","1967.0","TEPEHUANES DGO., MX","FM-12","99999","V020","999,9,C,0000,1","22000,1,9,N","010000,1,N,1","+0136,1","+0039,1","10153,1",,,,,"00,1,+99999,9,99,9",,"00,99,1,00,1,00,1,99999,9,00,1,00,1",,"01,9",,"120,N,+0128,1","240,M,+0398,1","99999,9,08207,1","9,9,999,9,+015,1",,"SYN112AAXX  13121 76373 32960 00000 10136 20039 38207 40153 5//// 91150 333 10398 20128 30100 55970 22174 58015 70000;",
"76373099999","2011-06-13T15:00:00","4","25.35","-105.75","1967.0","TEPEHUANES DGO., MX","FM-12","99999","V020","999,9,C,0000,1","22000,1,9,N","020000,1,N,1","+0236,1","+0042,1","10168,1",,,,,"00,1,+99999,9,99,9",,"00,99,1,00,1,00,1,99999,9,00,1,00,1",,"01,9",,,,"99999,9,08219,1","2,1,012,1,+020,1",,"SYN082AAXX  13151 76373 32970 00000 10236 20042 38219 40168 52012 91450 333 30/// 58020;",
"76373099999","2011-06-13T18:00:00","4","25.35","-105.75","1967.0","TEPEHUANES DGO., MX","FM-12","99999","V020","160,1,N,0010,1","22000,1,9,N","020000,1,N,1","+0338,1","+0019,1","10154,1",,,,,"00,1,+99999,9,99,9",,"00,99,1,00,1,00,1,99999,9,00,1,00,1",,"01,9",,"120,M,+0350,1","240,N,+0128,1","99999,9,08208,1","7,1,011,1,+020,1",,"SYN094AAXX  13181 76373 32970 01601 10338 20019 38208 40154 57011 91750 333 10350 20128 30/// 58020;",
"76373099999","2011-06-13T21:00:00","4","25.35","-105.75","1967.0","TEPEHUANES DGO., MX","FM-12","99999","V020","050,1,N,0010,1","22000,1,9,N","020000,1,N,1","+0365,1","-0024,1","10129,1",,,,,"01,1,+00750,1,08,1",,"01,99,1,01,1,02,1,01750,1,00,1,00,1",,"01,9",,,,"99999,9,08188,1","7,1,020,1,+023,1",,"SYN100AAXX  13211 76373 32770 10501 10365 21024 38188 40129 57020 81200 92050 333 30/// 56900 58023 81825;",
"76373099999","2011-06-14T00:00:00","4","25.35","-105.75","1967.0","TEPEHUANES DGO., MX","FM-12","99999","V020","070,1,N,0010,1","22000,1,9,N","020000,1,N,1","+0350,1","-0024,1","10107,1","24,0000,9,1",,,,,,"03,99,1,03,1,02,1,01750,1,00,1,00,1",,"01,9",,"120,M,+0400,1","180,N,+0128,1","99999,9,08170,1","7,1,018,1,+009,1",,"SYN124AAXX  14001 76373 32770 30701 10350 21024 38170 40107 57018 83200 92350 333 10400 20128 30/// 51061 56900 58009 70000 83825;",
"76373099999","2011-06-14T12:00:00","4","25.35","-105.75","1967.0","TEPEHUANES DGO., MX","FM-12","99999","V020","999,9,C,0000,1","22000,1,9,N","010000,1,N,1","+0130,1","-0001,1","10164,1",,,,,"00,1,+99999,9,99,9",,"00,99,1,00,1,00,1,99999,9,00,1,00,1","0666,9","01,9",,"120,N,+0120,1","240,M,+0400,1","99999,9,08216,1","9,9,999,9,+009,1",,"SYN112AAXX  14121 76373 32960 00000 10130 21001 38216 40164 5//// 91150 333 10400 20120 30095 55111 22174 58009 70000;",
"76373099999","2011-06-14T15:00:00","4","25.35","-105.75","1967.0","TEPEHUANES DGO., MX","FM-12","99999","V020","999,9,C,0000,1","22000,1,9,N","020000,1,N,1","+0230,1","+0072,1","10167,1",,,,,"00,1,+99999,9,99,9",,"00,99,1,00,1,00,1,99999,9,00,1,00,1",,"01,9",,,,"99999,9,08218,1","3,1,002,1,+001,1",,"SYN082AAXX  14151 76373 32970 00000 10230 20072 38218 40167 53002 91450 333 30/// 58001;",
"76373099999","2011-06-14T18:00:00","4","25.35","-105.75","1967.0","TEPEHUANES DGO., MX","FM-12","99999","V020","999,9,C,0000,1","22000,1,9,N","020000,1,N,1","+0347,1","+0008,1","10147,1",,,,,"00,1,+99999,9,99,9",,"00,99,1,00,1,00,1,99999,9,00,1,00,1",,"01,9",,"120,M,+0360,1","240,N,+0120,1","99999,9,08202,1","7,1,016,1,-006,1",,"SYN094AAXX  14181 76373 32970 00000 10347 20008 38202 40147 57016 91750 333 10360 20120 30/// 59006;",
"76373099999","2011-06-14T21:00:00","4","25.35","-105.75","1967.0","TEPEHUANES DGO., MX","FM-12","99999","V020","050,1,N,0010,1","22000,1,9,N","020000,1,N,1","+0350,1","-0031,1","10119,1",,,,,"02,1,+00750,1,08,1",,"02,99,1,02,1,02,1,01750,1,00,1,00,1",,"01,9",,,,"99999,9,08180,1","7,1,022,1,-008,1",,"SYN100AAXX  14211 76373 32770 20501 10350 21031 38180 40119 57022 82200 92050 333 30/// 56900 59008 82825;",
"76373099999","2011-06-15T00:00:00","4","25.35","-105.75","1967.0","TEPEHUANES DGO., MX","FM-12","99999","V020","070,1,N,0010,1","99999,9,9,N","020000,1,N,1","+0330,1","-0032,1","10106,1","24,0000,9,1",,,,"03,1,+00750,1,06,1",,"05,99,1,03,1,07,1,01750,1,00,1,00,1",,"01,9",,"120,M,+0385,1","180,N,+0120,1","99999,9,08169,1","7,1,011,1,+999,9",,"SYN118AAXX  15001 76373 32770 50701 10330 21032 38169 40106 57011 83700 92350 333 10385 20120 30/// 50991 56900 70000 83625;",
"76373099999","2011-06-15T03:00:00","4","25.35","-105.75","1967.0","TEPEHUANES DGO., MX","FM-12","99999","V020","999,9,C,0000,1","22000,1,9,N","010000,1,N,1","+0269,1","+0118,2","10126,1",,,,,"02,1,+00750,1,08,1",,"02,99,1,02,1,02,1,01750,1,00,1,00,1",,"01,9",,,,"99999,9,08185,1","2,1,016,1,-054,1",,"SYN100AAXX  15031 76373 32760 20000 10269 20118 38185 40126 52016 82200 90250 333 30/// 56900 59054 82825;",
"76373099999","2011-06-15T12:00:00","4","25.35","-105.75","1967.0","TEPEHUANES DGO., MX","FM-12","99999","V020","999,9,C,0000,1","22000,1,9,N","010000,1,N,1","+0140,1","+0057,1","10140,1",,,,,"00,1,+99999,9,99,9",,"00,99,1,00,1,00,1,99999,9,00,1,00,1",,"01,9",,"120,N,+0130,1","240,M,+0385,1","99999,9,08197,1","9,9,999,9,-019,1",,"SYN112AAXX  15121 76373 32960 00000 10140 20057 38197 40140 5//// 91150 333 10385 20130 30099 55945 22045 59019 70000;",
"76373099999","2011-06-15T15:00:00","4","25.35","-105.75","1967.0","TEPEHUANES DGO., MX","FM-12","99999","V020","999,9,C,0000,1","22000,1,9,N","020000,1,N,1","+0210,1","+0028,1","10144,1",,,,,"00,1,+99999,9,99,9",,"00,99,1,00,1,00,1,99999,9,00,1,00,1",,"01,9",,,,"99999,9,08200,1","7,1,003,1,-018,1",,"SYN082AAXX  15151 76373 32970 00000 10210 20028 38200 40144 57003 91450 333 30/// 59018;",
"76373099999","2011-06-15T18:00:00","4","25.35","-105.75","1967.0","TEPEHUANES DGO., MX","FM-12","99999","V020","999,9,C,0000,1","22000,1,9,N","020000,1,N,1","+0353,1","+0062,1","10132,1",,,,,"01,1,+00810,1,08,1",,"01,99,1,01,1,01,1,01250,1,00,1,00,1",,"01,9",,"120,M,+0370,1","240,N,+0130,1","99999,9,08191,1","7,1,009,1,-011,1",,"SYN112AAXX  15181 76373 32670 10000 10353 20062 38191 40132 57009 81100 91750 333 10370 20130 30/// 56900 59011 81827;",
"76373099999","2011-06-15T21:00:00","4","25.35","-105.75","1967.0","TEPEHUANES DGO., MX","FM-12","99999","V020","130,1,N,0010,1","22000,1,9,N","020000,1,N,1","+0356,1","-0019,1","10108,1",,,,,"03,1,+00780,1,06,1",,"04,99,1,04,1,04,1,01250,1,00,1,00,1",,"01,9",,,,"99999,9,08171,1","7,1,020,1,-009,1",,"SYN106AAXX  15211 76373 32670 41301 10356 21019 38171 40108 57020 84400 92050 333 30/// 56900 59009 83626 81826;",
"76373099999","2011-06-16T00:00:00","4","25.35","-105.75","1967.0","TEPEHUANES DGO., MX","FM-12","99999","V020","999,9,C,0000,1","01200,1,9,N","020000,1,N,1","+0328,1","-0018,1","10096,1","24,0000,9,1",,,,"04,1,+00750,1,07,1",,"06,99,1,06,1,06,1,01250,1,00,1,00,1",,"01,9",,"120,M,+0389,1","180,N,+0130,1","99999,9,08161,1","7,1,010,1,-008,1",,"SYN130AAXX  16001 76373 32670 60000 10328 21018 38161 40096 57010 86600 92345 333 10389 20130 30/// 50721 56900 59008 70000 84725 82625;",
"76373099999","2011-06-16T03:00:00","4","25.35","-105.75","1967.0","TEPEHUANES DGO., MX","FM-12","99999","V020","270,1,N,0010,1","00750,1,9,N","001000,1,N,1","+0268,1","+0083,1","10111,1",,,,,"06,1,+00750,1,07,1",,"06,99,1,06,1,07,1,01250,1,00,1,00,1",,"01,9",,,,"99999,9,08173,1","2,1,011,1,-012,1",,"SYN100AAXX  16031 76373 32610 62701 10268 20083 38173 40111 52011 86700 90250 333 30/// 56900 59012 86725;",
"76373099999","2011-06-16T12:00:00","4","25.35","-105.75","1967.0","TEPEHUANES DGO., MX","FM-12","99999","V020","999,9,C,0000,1","22000,1,9,N","001000,1,N,1","+0142,1","+0058,1","10128,1","24,0000,9,1",,,,,,"01,99,1,01,1,04,1,01250,1,00,1,00,1","0540,9","01,9",,"120,N,+0131,1","240,M,+0389,1","99999,9,08187,1","9,9,999,9,-010,1",,"SYN130AAXX  16121 76373 32610 10000 10142 20058 38187 40128 5//// 81400 91150 333 10389 20131 30108 55090 21683 56300 59010 70000 81626;",
"76373099999","2011-06-16T15:00:00","4","25.35","-105.75","1967.0","TEPEHUANES DGO., MX","FM-12","99999","V020","999,9,C,0000,1","22000,1,9,N","020000,1,N,1","+0221,1","+0064,1","10138,1",,,,,"00,1,+99999,9,99,9",,"00,99,1,00,1,00,1,99999,9,00,1,00,1",,"01,9",,,,"99999,9,08195,1","2,1,008,1,-005,1",,"SYN082AAXX  16151 76373 32970 00000 10221 20064 38195 40138 52008 91450 333 30/// 59005;",
"76373099999","2011-06-16T18:00:00","4","25.35","-105.75","1967.0","TEPEHUANES DGO., MX","FM-12","99999","V020","110,1,N,0010,1","22000,1,9,N","010000,1,N,1","+0350,1","+0037,1","10124,1",,,,,"02,1,+00750,1,08,1",,"02,99,1,02,1,02,1,00800,1,00,1,00,1",,"01,9",,"120,M,+0360,1","240,N,+0131,1","99999,9,08184,1","7,1,011,1,-007,1",,"SYN112AAXX  16181 76373 32560 21101 10350 20037 38184 40124 57011 82200 91750 333 10360 20131 30/// 56900 59007 82825;",
"76373099999","2011-06-17T00:00:00","4","25.35","-105.75","1967.0","TEPEHUANES DGO., MX","FM-12","99999","V020","320,1,N,0030,1","00750,1,9,N","030000,1,N,1","+0320,1","+0054,1","10086,1","24,0000,9,1",,,,"02,1,+00600,1,07,1",,"06,99,1,06,1,06,1,00800,1,00,1,00,1",,"01,9",,"120,M,+0400,1","180,N,+0131,1","99999,9,08154,1","7,1,010,1,-007,1",,"SYN130AAXX  17001 76373 32580 63203 10320 20054 38154 40086 57010 86600 92355 333 10400 20131 30/// 51141 56900 59007 70000 82720 84625;",
"76373099999","2011-06-17T03:00:00","4","25.35","-105.75","1967.0","TEPEHUANES DGO., MX","FM-12","99999","V020","320,1,N,0010,1","00750,1,9,N","001000,1,N,1","+0262,1","+0058,1","10114,1",,,,,"03,1,+00600,1,07,1",,"07,99,1,07,1,07,1,00800,1,00,1,00,1",,"01,9",,,,"99999,9,08176,1","2,1,023,1,+003,1",,"SYN106AAXX  17031 76373 32510 73201 10262 20058 38176 40114 52023 87700 90250 333 30/// 56900 58003 83720 84625;",
"76373099999","2011-06-17T12:00:00","4","25.35","-105.75","1967.0","TEPEHUANES DGO., MX","FM-12","99999","V020","999,9,C,0000,1","22000,1,9,N","001000,1,N,1","+0144,1","+0041,1","10128,1","24,0000,9,1",,,,,,"02,99,1,02,1,02,1,00800,1,00,1,00,1","0570,9","01,9",,"120,N,+0138,1","240,M,+0400,1","99999,9,08187,1","9,9,999,9,+000,1",,"SYN130AAXX  17121 76373 32510 20000 10144 20041 38187 40128 5//// 82200 91155 333 10400 20138 30102 55095 21973 56900 58000 70000 82720;",
"76373099999","2011-06-17T15:00:00","4","25.35","-105.75","1967.0","TEPEHUANES DGO., MX","FM-12","99999","V020","999,9,C,0000,1","22000,1,9,N","005000,1,N,1","+0224,1","+0071,1","10150,1",,,,,"00,1,+99999,9,99,9",,"00,99,1,00,1,00,1,99999,9,00,1,00,1",,"01,9",,,,"99999,9,08205,1","2,1,018,1,+010,1",,"SYN082AAXX  17151 76373 32950 00000 10224 20071 38205 40150 52018 91455 333 30/// 58010;",
"76373099999","2011-06-17T18:00:00","4","25.35","-105.75","1967.0","TEPEHUANES DGO., MX","FM-12","99999","V020","140,1,N,0010,1","22000,1,9,N","010000,1,N,1","+0352,1","+0030,1","10135,1",,,,,"01,1,+00750,1,08,1",,"01,99,1,01,1,01,1,00800,1,00,1,00,1",,"01,9",,"120,M,+0362,1","240,N,+0138,1","99999,9,08193,1","7,1,012,1,+009,1",,"SYN112AAXX  17181 76373 32560 11401 10352 20030 38193 40135 57012 81100 91755 333 10362 20138 30/// 56900 58009 81825;",
"76373099999","2011-06-17T21:00:00","4","25.35","-105.75","1967.0","TEPEHUANES DGO., MX","FM-12","99999","V020","050,1,N,0010,1","22000,1,9,N","030000,1,N,1","+0332,1","+0004,1","10114,1",,,,,"04,1,+00750,1,06,1",,"04,99,1,04,1,04,1,00800,1,00,1,00,1",,"01,9",,,,"99999,9,08175,1","7,1,018,1,+012,1",,"SYN100AAXX  17211 76373 32580 40501 10332 20004 38175 40114 57018 84400 92050 333 30/// 56900 58012 84625;",
"76373099999","2011-06-18T00:00:00","4","25.35","-105.75","1967.0","TEPEHUANES DGO., MX","FM-12","99999","V020","070,1,N,0010,1","22000,1,9,N","030000,1,N,1","+0352,1","-0016,1","10097,1","24,0000,9,1",,,,,,"03,99,1,03,1,03,1,00800,1,00,1,00,1",,"01,9",,"120,M,+0390,1","180,N,+0138,1","99999,9,08162,1","7,1,012,1,+009,1",,"SYN124AAXX  18001 76373 32580 30701 10352 21016 38162 40097 57012 83300 92355 333 10390 20138 30/// 50901 56900 58009 70000 83625;",
"76373099999","2011-06-18T03:00:00","4","25.35","-105.75","1967.0","TEPEHUANES DGO., MX","FM-12","99999","V020","999,9,C,0000,1","22000,1,9,N","001000,1,N,1","+0276,1","-0016,1","10111,1",,,,,"01,1,+03600,1,04,1",,"04,99,1,04,1,04,1,00800,1,99,9,00,1",,"01,9",,,,"99999,9,08173,1","2,1,011,1,-003,1",,"SYN101AAXX  18031 76373 32510 40000 10276 21016 38173 40111 52011 84400 90255 333 30/// 56900 59003 814625;","Q01+000002SCOMCG"
"76373099999","2011-06-18T12:00:00","4","25.35","-105.75","1967.0","TEPEHUANES DGO., MX","FM-12","99999","V020","999,9,C,0000,1","22000,1,9,N","001000,1,N,1","+0136,1","+0004,1","10141,1",,,,,"00,1,+99999,9,99,9",,"00,99,1,00,1,00,1,99999,9,00,1,00,1","0540,9","01,9",,"120,N,+0128,1","240,M,+0390,1","99999,9,08198,1","9,9,999,9,+011,1",,"SYN112AAXX  18121 76373 32910 00000 10136 20004 38198 40141 5//// 91155 333 10390 20128 30100 55090 21731 58011 70000;",
"76373099999","2011-06-18T15:00:00","4","25.35","-105.75","1967.0","TEPEHUANES DGO., MX","FM-12","99999","V020","999,9,C,0000,1","22000,1,9,N","010000,1,N,1","+0248,1","+0035,1","10147,1",,,,,"00,1,+99999,9,99,9",,"00,99,1,00,1,00,1,99999,9,00,1,00,1",,"01,9",,,,"99999,9,08202,1","5,1,004,1,-003,1",,"SYN082AAXX  18151 76373 32960 00000 10248 20035 38202 40147 55004 91455 333 30/// 59003;",
"76373099999","2011-06-18T18:00:00","4","25.35","-105.75","1967.0","TEPEHUANES DGO., MX","FM-12","99999","V020","140,1,N,0010,1","22000,1,9,N","030000,1,N,1","+0358,1","-0002,1","10134,1",,,,,"01,1,+00750,1,08,1",,"01,99,1,01,1,01,1,00800,1,00,1,00,1",,"01,9",,"120,M,+0372,1","240,N,+0128,1","99999,9,08192,1","7,1,010,1,-001,1",,"SYN112AAXX  18181 76373 32580 11401 10358 21002 38192 40134 57010 81100 91755 333 10372 20128 30/// 56900 59001 81825;",
"76373099999","2011-06-19T00:00:00","4","25.35","-105.75","1967.0","TEPEHUANES DGO., MX","FM-12","99999","V020","110,1,N,0010,1","22000,1,9,N","020000,1,N,1","+0368,1","+0085,1","10097,1","24,0000,9,1",,,,,,"04,99,1,04,1,02,1,01750,1,00,1,00,1",,"01,9",,"120,M,+0405,1","180,N,+0128,1","99999,9,08162,1","7,1,006,1,+000,1",,"SYN124AAXX  19001 76373 32770 41101 10368 20085 38162 40097 57006 84200 92350 333 10405 20128 30/// 51031 56900 58000 70000 84825;",
"76373099999","2011-06-19T03:00:00","4","25.35","-105.75","1967.0","TEPEHUANES DGO., MX","FM-12","99999","V020","110,1,N,0010,1","22000,1,9,N","010000,1,N,1","+0308,1","+0004,1","10107,1",,,,,"00,1,+99999,9,99,9",,"00,99,1,00,1,00,1,99999,9,00,1,00,1",,"01,9",,,,"99999,9,08170,1","2,1,008,1,-003,1",,"SYN082AAXX  19031 76373 32960 01101 10308 20004 38170 40107 52008 90250 333 30/// 59003;",
"76373099999","2011-06-19T12:00:00","4","25.35","-105.75","1967.0","TEPEHUANES DGO., MX","FM-12","99999","V020","999,9,C,0000,1","22000,1,9,N","010000,1,N,1","+0143,1","+0006,1","10129,1",,,,,"00,1,+99999,9,99,9",,"00,99,1,00,1,00,1,99999,9,00,1,00,1","0642,9","01,9",,"120,N,+0135,1","240,M,+0405,1","99999,9,08188,1","9,9,999,9,-010,1",,"SYN112AAXX  19121 76373 32960 00000 10143 20006 38188 40129 5//// 91150 333 10405 20135 30102 55107 22416 59010 70000;",
"76373099999","2011-06-19T15:00:00","4","25.35","-105.75","1967.0","TEPEHUANES DGO., MX","FM-12","99999","V020","999,9,C,0000,1","22000,1,9,N","020000,1,N,1","+0246,1","+0028,1","10129,1",,,,,"00,1,+99999,9,99,9",,"00,99,1,00,1,00,1,99999,9,00,1,00,1",,"01,9",,,,"99999,9,08188,1","4,1,000,1,-014,1",,"SYN082AAXX  19151 76373 32970 00000 10246 20028 38188 40129 54000 91450 333 30/// 59014;",
"76373099999","2011-06-19T18:00:00","4","25.35","-105.75","1967.0","TEPEHUANES DGO., MX","FM-12","99999","V020","070,1,N,0010,1","22000,1,9,N","020000,1,N,1","+0369,1","+0000,1","10111,1",,,,,"01,1,+00750,1,08,1",,"01,99,1,01,1,02,1,01750,1,00,1,00,1",,"01,9",,"120,M,+0377,1","240,N,+0135,1","99999,9,08173,1","2,1,015,1,-019,1",,"SYN112AAXX  19181 76373 32770 10701 10369 20000 38173 40111 52015 81200 91750 333 10377 20135 30/// 56900 59019 81825;",
"76373099999","2011-06-19T21:00:00","4","25.35","-105.75","1967.0","TEPEHUANES DGO., MX","FM-12","99999","V020","110,1,N,0010,1","22000,1,9,N","020000,1,N,1","+0385,1","-0002,1","10080,1",,,,,"03,1,+00750,1,08,1",,"03,99,1,03,1,02,1,01750,1,00,1,00,1",,"01,9",,,,"99999,9,08148,1","7,1,025,1,-025,1",,"SYN100AAXX  19211 76373 32770 31101 10385 21002 38148 40080 57025 83200 92050 333 30/// 56900 59025 83825;",
"76373099999","2011-06-20T03:00:00","4","25.35","-105.75","1967.0","TEPEHUANES DGO., MX","FM-12","99999","V020","999,9,C,0000,1","22000,1,9,N","010000,1,N,1","+0288,1","-0114,1","99999,9",,,,,"00,1,+99999,9,99,9",,"00,99,1,00,1,00,1,99999,9,00,1,00,1",,"01,9",,,,"99999,9,08150,1","2,1,018,1,-020,1",,"SYN076AAXX  20031 76373 32960 00000 10288 21114 38150 52018 90250 333 30/// 59020;",
"76373099999","2011-06-20T15:00:00","4","25.35","-105.75","1967.0","TEPEHUANES DGO., MX","FM-12","99999","V020","999,9,C,0000,1","22000,1,9,N","020000,1,N,1","+0241,1","-0131,1","10104,1",,,,,"00,1,+99999,9,99,9",,"00,99,1,00,1,00,1,99999,9,00,1,00,1",,"01,9",,,,"99999,9,08168,1","7,1,002,1,-020,1",,"SYN082AAXX  20151 76373 32970 00000 10241 21131 38168 40104 57002 91450 333 30/// 59020;",
"76373099999","2011-06-20T18:00:00","4","25.35","-105.75","1967.0","TEPEHUANES DGO., MX","FM-12","99999","V020","999,9,C,0000,1","22000,1,9,N","020000,1,N,1","+0353,1","+9999,9","10086,1",,,,,"01,1,+00750,1,08,1",,"01,99,1,01,1,02,1,01750,1,00,1,00,1",,"01,9",,"120,M,+0360,1","240,N,+0168,1","99999,9,08153,1","7,1,015,1,-020,1",,"SYN112AAXX  20181 76373 32770 10000 10353 20065 38153 40086 57015 81200 91750 333 10360 20168 30/// 56900 59020 81825;","Q01+000653ATOD  "
"76373099999","2011-06-20T21:00:00","4","25.35","-105.75","1967.0","TEPEHUANES DGO., MX","FM-12","99999","V020","120,1,N,0010,1","00750,1,9,N","020000,1,N,1","+0386,1","+0021,1","10063,1",,,,,"05,1,+00750,1,08,1",,"05,99,1,05,1,02,1,01750,1,00,1,00,1",,"01,9",,,,"99999,9,08134,1","7,1,019,1,-014,1",,"SYN100AAXX  20211 76373 32770 51201 10386 20021 38134 40063 57019 85200 92050 333 30/// 56900 59014 85825;",
"76373099999","2011-06-21T00:00:00","4","25.35","-105.75","1967.0","TEPEHUANES DGO., MX","FM-12","99999","V020","300,1,N,0010,1","01500,1,9,N","020000,1,N,1","+0342,1","+0023,1","10050,1","24,0000,9,1",,,,,,"07,99,1,07,1,07,1,01750,1,00,1,00,1",,"01,9",,"120,M,+0400,1","180,N,+0168,1","99999,9,08124,1","7,1,010,1,-008,1",,"SYN124AAXX  21001 76373 32770 73001 10342 20023 38124 40050 57010 87700 92350 333 10400 20168 30/// 50871 56900 59008 70000 87625;",
"76373099999","2011-06-21T12:00:00","4","25.35","-105.75","1967.0","TEPEHUANES DGO., MX","FM-12","99999","V020","999,9,C,0000,1","22000,1,9,N","010000,1,N,1","+0200,1","+0052,1","10090,1","24,0000,9,1",,,,,,"03,99,1,03,1,07,1,01750,1,00,1,00,1","0510,9","01,9",,"120,N,+0180,1","240,M,+0400,1","99999,9,08156,1","9,9,999,9,-014,1",,"SYN130AAXX  21121 76373 32760 30000 10200 20052 38156 40090 5//// 83700 91150 333 10400 20180 30165 55085 21675 56900 59014 70000 83725;",
"76373099999","2011-06-21T15:00:00","4","25.35","-105.75","1967.0","TEPEHUANES DGO., MX","FM-12","99999","V020","999,9,C,0000,1","22000,1,9,N","020000,1,N,1","+0246,1","+0080,1","10102,1",,,,,"00,1,+99999,9,99,9",,"00,99,1,00,1,00,1,99999,9,00,1,00,1",,"01,9",,,,"99999,9,08166,1","2,1,005,1,-002,1",,"SYN082AAXX  21151 76373 32970 00000 10246 20080 38166 40102 52005 91440 333 30/// 59002;",
"76373099999","2011-06-21T18:00:00","4","25.35","-105.75","1967.0","TEPEHUANES DGO., MX","FM-12","99999","V020","150,1,N,0010,1","22000,1,9,N","020000,1,N,1","+0364,1","-0002,1","10093,1",,,,,"01,1,+00810,1,08,1",,"02,99,1,01,1,01,1,01750,1,00,1,00,1",,"01,9",,"120,M,+0370,1","240,N,+0180,1","99999,9,08158,1","8,1,003,1,+005,1",,"SYN112AAXX  21181 76373 32770 21501 10364 21002 38158 40093 58003 81100 91750 333 10370 20180 30/// 56900 58005 81827;",
"76373099999","2011-06-21T21:00:00","4","25.35","-105.75","1967.0","TEPEHUANES DGO., MX","FM-12","99999","V020","120,1,N,0010,1","22000,1,9,N","020000,1,N,1","+0374,1","+9999,9","10096,1",,,,,"01,1,+00780,1,06,1",,"03,99,1,03,1,04,1,01750,1,00,1,00,1",,"01,9",,,,"99999,9,08140,1","7,1,009,1,+006,1",,"SYN106AAXX  21211 76373 32770 31201 10374 21096 38140 40096 57009 83400 92050 333 30/// 56900 58006 81626 82827;","Q01 -00963ATOD  "
"76373099999","2011-06-22T00:00:00","4","25.35","-105.75","1967.0","TEPEHUANES DGO., MX","FM-12","99999","V020","300,1,N,0020,1","00750,1,C,N","020000,1,N,1","+0324,1","+0006,1","10051,1","24,0000,9,1",,,,"06,1,+00750,1,07,1",,"07,99,1,07,1,07,1,01250,1,00,1,00,1",,"01,9",,"120,M,+0396,1","180,N,+0180,1","99999,9,08124,1","7,1,016,1,+000,1",,"SYN130AAXX  22001 76373 32670 73002 10324 20006 38124 40051 57016 87700 92350 333 10396 20180 30/// 50831 56900 58000 70000 86725 81625;",
"76373099999","2011-06-22T03:00:00","4","25.35","-105.75","1967.0","TEPEHUANES DGO., MX","FM-12","99999","V020","999,9,C,0000,1","00750,1,9,N","000600,1,N,1","+0251,1","+0146,2","10094,1",,,,,"08,1,+00750,1,07,1",,"08,99,1,08,1,07,1,00800,1,00,1,00,1",,"01,9",,,,"99999,9,08160,1","2,1,036,1,+999,9",,"SYN100AAXX  22031 76373 32506 80000 10251 20146 38160 40094 52036 88700 90250 333 30/// 56900 58/// 88725;",
"76373099999","2011-06-22T12:00:00","4","25.35","-105.75","1967.0","TEPEHUANES DGO., MX","FM-12","99999","V020","999,9,C,0000,1","22000,1,9,N","001000,1,N,1","+0169,1","+0123,1","10135,1","24,0000,9,1",,,,,,"01,99,1,01,1,04,1,01250,1,00,1,00,1","0528,9","01,9",,"120,N,+0157,1","240,M,+0396,1","99999,9,08193,1","9,9,999,9,+023,1",,"SYN130AAXX  22121 76373 32610 10000 10169 20123 38193 40135 5//// 81400 92350 333 10396 20157 30138 55088 21828 56900 58023 70000 81626;",
"76373099999","2011-06-22T15:00:00","4","25.35","-105.75","1967.0","TEPEHUANES DGO., MX","FM-12","99999","V020","999,9,C,0000,1","22000,1,9,N","020000,1,N,1","+0250,1","+0136,1","10133,1",,,,,"01,1,+00810,1,08,1",,"01,99,1,01,1,02,1,01750,1,00,1,00,1",,"01,9",,,,"99999,9,08191,1","8,1,002,1,+030,1",,"SYN100AAXX  22151 76373 32770 10000 10250 20136 38191 40133 58002 81200 91450 333 30/// 56900 58030 81827;",
"76373099999","2011-06-22T18:00:00","4","25.35","-105.75","1967.0","TEPEHUANES DGO., MX","FM-12","99999","V020","130,1,N,0010,1","22000,1,9,N","020000,1,N,1","+0327,1","+0094,1","10121,1",,,,,"01,1,+00810,1,07,1",,"02,99,1,01,1,02,1,01250,1,00,1,04,1",,"01,9",,"120,M,+0338,1","240,N,+0157,1","99999,9,08181,1","7,1,010,1,+023,1",,"SYN112AAXX  22181 76373 32670 21301 10327 20094 38181 40121 57010 81204 91750 333 10338 20157 30/// 56909 58023 81727;",
"76373099999","2011-06-22T21:00:00","4","25.35","-105.75","1967.0","TEPEHUANES DGO., MX","FM-12","99999","V020","060,1,N,0010,1","00780,1,9,N","020000,1,N,1","+0316,1","+0032,1","10100,1",,,,,"06,1,+00780,1,07,1",,"07,99,1,07,1,07,1,01250,1,00,1,00,1",,"01,9",,,,"99999,9,08164,1","7,1,017,1,+024,1",,"SYN100AAXX  22211 76373 32670 70601 10316 20032 38164 40100 57017 87700 92050 333 30/// 56900 58024 86726;",
"76373099999","2011-06-23T03:00:00","4","25.35","-105.75","1967.0","TEPEHUANES DGO., MX","FM-12","99999","V020","999,9,C,0000,1","00750,1,9,N","000600,1,N,1","+0225,1","+0095,1","10127,1",,,,,"08,1,+00750,1,07,1",,"08,99,1,08,1,07,1,00800,1,00,1,00,1",,"01,9",,,,"99999,9,08186,1","7,1,006,1,+026,1",,"SYN100AAXX  23031 76373 32506 80000 10225 20095 38186 40127 57006 88700 90250 333 30/// 56900 58026 88725;",
"76373099999","2011-06-23T12:00:00","4","25.35","-105.75","1967.0","TEPEHUANES DGO., MX","FM-12","99999","V020","999,9,C,0000,1","22000,1,9,N","001000,1,N,1","+0141,1","+0091,1","10149,1","24,0000,9,1",,,,"01,1,+00810,1,06,1",,"03,99,1,01,1,04,1,01250,1,00,1,04,1","0438,9","01,9",,"120,N,+0130,1","240,M,+0352,1","99999,9,08204,1","9,9,999,9,+011,1",,"SYN136AAXX  23121 76373 32610 30000 10141 20091 38204 40149 5//// 81404 91150 333 10352 20130 30116 55073 21586 56709 58011 70000 81627 82067;",
"76373099999","2011-06-23T15:00:00","4","25.35","-105.75","1967.0","TEPEHUANES DGO., MX","FM-12","99999","V020","999,9,C,0000,1","22000,1,9,N","020000,1,N,1","+0211,1","+0102,1","10164,1",,,,,"02,1,+00780,1,06,1",,"03,99,1,02,1,04,1,01250,1,00,1,04,1",,"01,9",,,,"99999,9,08216,1","2,1,012,1,+025,1",,"SYN100AAXX  23151 76373 32670 30000 10211 20102 38216 40164 52012 82404 91450 333 30/// 56909 58025 82626;",
"76373099999","2011-06-23T21:00:00","4","25.35","-105.75","1967.0","TEPEHUANES DGO., MX","FM-12","99999","V020","070,1,N,0010,1","22000,1,9,N","030000,1,N,1","+0346,1","+0035,1","10118,1",,,,,"02,1,+00750,1,08,1",,"03,99,1,03,1,02,1,00800,1,01,1,00,1",,"01,9",,,,"99999,9,08179,1","7,1,017,1,+015,1",,"SYN106AAXX  23211 76373 32580 30701 10346 20035 38179 40118 57017 83210 92055 333 30/// 56990 58015 82825 81335;",
"76373099999","2011-06-24T00:00:00","4","25.35","-105.75","1967.0","TEPEHUANES DGO., MX","FM-12","99999","V020","070,1,N,0010,1","22000,1,9,N","030000,1,N,1","+0332,1","-0023,1","10107,1","24,0000,9,1",,,,,,"01,99,1,01,1,01,1,00800,1,00,1,00,1",,"01,9",,"120,M,+0362,1","180,N,+0130,1","99999,9,08170,1","7,1,009,1,+000,1",,"SYN124AAXX  24001 76373 32580 10701 10332 21023 38170 40107 57009 81100 92355 333 10362 20130 30/// 50761 56900 58000 70000 81825;",
"76373099999","2011-06-24T03:00:00","4","25.35","-105.75","1967.0","TEPEHUANES DGO., MX","FM-12","99999","V020","110,1,N,0010,1","22000,1,9,N","001000,1,N,1","+0262,1","-0017,1","10126,1",,,,,"00,1,+99999,9,99,9",,"00,99,1,00,1,00,1,99999,9,00,1,00,1",,"01,9",,,,"99999,9,08185,1","2,1,015,1,-001,1",,"SYN082AAXX  24031 76373 32910 01101 10262 21017 38185 40126 52015 90255 333 30/// 59001;",
"76373099999","2011-06-24T12:00:00","4","25.35","-105.75","1967.0","TEPEHUANES DGO., MX","FM-12","99999","V020","999,9,C,0000,1","22000,1,9,N","001000,1,N,1","+0102,1","-0010,1","10144,1",,,,,"00,1,+99999,9,99,9",,"00,99,1,00,1,00,1,99999,9,00,1,00,1","0750,9","01,9",,"120,N,+0090,1","240,M,+0362,1","99999,9,08100,1","9,9,999,9,-004,1",,"SYN112AAXX  24121 76373 32910 00000 10102 21010 38100 40144 5//// 91150 333 10362 20090 30060 55125 21852 59004 70000;",
"76373099999","2011-06-24T15:00:00","4","25.35","-105.75","1967.0","TEPEHUANES DGO., MX","FM-12","99999","V020","999,9,C,0000,1","22000,1,9,N","010000,1,N,1","+0222,1","+0024,1","10147,1",,,,,"00,1,+99999,9,99,9",,"00,99,1,00,1,00,1,99999,9,00,1,00,1",,"01,9",,,,,"5,1,002,1,-014,1",,"SYN082AAXX  24151 76373 32960 00000 10222 20024 38202 40147 55002 91455 333 30/// 59014;","Q01+082023APOSP "
"76373099999","2011-06-24T18:00:00","4","25.35","-105.75","1967.0","TEPEHUANES DGO., MX","FM-12","99999","V020","140,1,N,0010,1","22000,1,9,N","020000,1,N,1","+0326,1","-0002,1","10124,1",,,,,"00,1,+99999,9,99,9",,"00,99,1,00,1,00,1,99999,9,00,1,00,1",,"01,9",,"120,M,+0340,1","240,N,+0090,1","99999,9,08184,1","7,1,018,1,-012,1",,"SYN094AAXX  24181 76373 32970 01401 10326 21002 38184 40124 57018 91750 333 10340 20090 30/// 59012;",
"76373099999","2011-06-24T21:00:00","4","25.35","-105.75","1967.0","TEPEHUANES DGO., MX","FM-12","99999","V020","070,1,N,0010,1","22000,1,9,N","030000,1,N,1","+0350,1","-0042,1","10101,1",,,,,"00,1,+99999,9,99,9",,"00,99,1,00,1,00,1,99999,9,00,1,00,1",,"01,9",,,,"99999,9,08165,1","7,1,019,1,-014,1",,"SYN082AAXX  24211 76373 32980 00701 10350 21042 38165 40101 57019 92050 333 30/// 59014;",
"76373099999","2011-06-25T00:00:00","4","25.35","-105.75","1967.0","TEPEHUANES DGO., MX","FM-12","99999","V020","070,1,N,0010,1","22000,1,9,N","030000,1,N,1","+0340,1","-0042,1","10094,1","24,0000,9,1",,,,"00,1,+99999,9,99,9",,"00,99,1,00,1,00,1,99999,9,00,1,00,1",,"01,9",,"120,M,+0372,1","180,N,+0090,1","99999,9,08159,1","5,1,006,1,-011,1",,"SYN106AAXX  25001 76373 32980 00701 10340 21042 38159 40094 55006 92355 333 10372 20090 30/// 51111 59011 70000;","Q01  00002PRCP24"
"76373099999","2011-06-25T03:00:00","4","25.35","-105.75","1967.0","TEPEHUANES DGO., MX","FM-12","99999","V020","999,9,C,0000,1","22000,1,9,N","001000,1,N,1","+0268,1","-0046,1","10102,1",,,,,"00,1,+99999,9,99,9",,"00,99,1,00,1,00,1,99999,9,00,1,00,1",,"01,9",,,,"99999,9,08166,1","2,1,007,1,-019,1",,"SYN082AAXX  25031 76373 32910 00000 10268 21046 38166 40102 52007 90250 333 30/// 59019;",
"76373099999","2011-06-25T12:00:00","4","25.35","-105.75","1967.0","TEPEHUANES DGO., MX","FM-12","99999","V020","999,9,C,0000,1","22000,1,9,N","001000,1,N,1","+0132,1","+0024,1","10127,1",,,,,"00,1,+99999,9,99,9",,"00,99,1,00,1,00,1,99999,9,00,1,00,1","0756,9",,,"120,N,+0120,1","240,M,+0372,1","99999,9,08187,1","9,9,999,9,-013,1",,"SYN112AAXX  25121 76373 32910 00000 10132 20024 38187 40127 5//// 91155 333 10372 20120 20098 55126 22617 59013 70000;",
"76373099999","2011-06-25T15:00:00","4","25.35","-105.75","1967.0","TEPEHUANES DGO., MX","FM-12","99999","V020","999,9,C,0000,1","22000,1,9,N","020000,1,N,1","+0220,1","+0073,1","10135,1",,,,,"00,1,+99999,9,99,9",,"00,99,1,00,1,00,1,99999,9,00,1,00,1",,"01,9",,,,"99999,9,08193,1","5,1,006,1,-009,1",,"SYN082AAXX  25151 76373 32970 00000 10220 20073 38193 40135 55006 91455 333 30/// 59009;",
"76373099999","2011-06-25T18:00:00","4","25.35","-105.75","1967.0","TEPEHUANES DGO., MX","FM-12","99999","V020","110,1,N,0010,1","22000,1,9,N","020000,1,N,1","+0334,1","-0003,1","10113,1",,,,,"00,1,+99999,9,99,9",,"00,99,1,00,1,00,1,99999,9,00,1,00,1",,"01,9",,"120,M,+0340,1","240,N,+0120,1","99999,9,08175,1","7,1,018,1,-009,1",,"SYN094AAXX  25181 76373 32970 01101 10334 21003 38175 40113 57018 91755 333 10340 20120 30/// 59009;",
"76373099999","2011-06-25T21:00:00","4","25.35","-105.75","1967.0","TEPEHUANES DGO., MX","FM-12","99999","V020","080,1,N,0020,1","22000,1,9,N","020000,1,N,1","+0370,1","-0034,1","10102,1",,,,,"00,1,+99999,9,99,9",,"00,99,1,00,1,00,1,99999,9,00,1,00,1",,"01,9",,,,"99999,9,08166,1","7,1,009,1,+001,1",,"SYN082AAXX  25211 76373 32970 00802 10370 21034 38166 40102 57009 92050 333 30/// 58001;",
"76373099999","2011-06-26T00:00:00","4","25.35","-105.75","1967.0","TEPEHUANES DGO., MX","FM-12","99999","V020","060,1,N,0020,1","22000,1,9,N","020000,1,N,1","+0347,1","-0059,1","10091,1","24,0000,9,1",,,,"00,1,+99999,9,99,9",,"00,99,1,00,1,00,1,99999,9,00,1,00,1",,"01,9",,"120,M,+0348,1","180,N,+0120,1","99999,9,08157,1","7,1,009,1,-002,1",,"SYN106AAXX  26001 76373 32970 00602 10347 21059 38157 40091 57009 92350 333 10348 20120 30/// 51011 59002 70000;","Q01  00002PRCP24"
"76373099999","2011-06-26T03:00:00","4","25.35","-105.75","1967.0","TEPEHUANES DGO., MX","FM-12","99999","V020","060,1,N,0010,1","22000,1,9,N","001000,1,N,1","+0293,1","+0001,1","10110,1",,,,,"00,1,+99999,9,99,9",,"00,99,1,00,1,00,1,99999,9,00,1,00,1",,"01,9",,,,"99999,9,08173,1","2,1,016,1,+007,1",,"SYN082AAXX  26031 76373 32910 00601 10293 20001 38173 40110 52016 90250 333 30/// 58007;",
"76373099999","2011-06-26T12:00:00","4","25.35","-105.75","1967.0","TEPEHUANES DGO., MX","FM-12","99999","V020","999,9,C,0000,1","22000,1,9,N","001000,1,N,1","+0136,1","+0019,1","10131,1",,,,,"00,1,+99999,9,99,9",,"00,99,1,00,1,00,1,99999,9,00,1,00,1","0762,9","01,9",,"120,N,+0127,1","240,M,+0348,1","99999,9,08189,1","9,9,999,9,+002,1",,"SYN112AAXX  26121 76373 32910 00000 10136 20019 38189 40131 5//// 91150 333 10348 20127 30108 55127 22770 58002 70000;",
"76373099999","2011-06-26T15:00:00","4","25.35","-105.75","1967.0","TEPEHUANES DGO., MX","FM-12","99999","V020","999,9,C,0000,1","22000,1,9,N","020000,1,N,1","+0240,1","+0040,1","10139,1",,,,,"00,1,+99999,9,99,9",,"00,99,1,00,1,00,1,99999,9,00,1,00,1",,"01,9",,,,"99999,9,08196,1","2,1,007,1,+003,1",,"SYN082AAXX  26151 76373 32970 00000 10240 20040 38196 40139 52007 91450 333 30/// 58003;",
"76373099999","2011-06-26T21:00:00","4","25.35","-105.75","1967.0","TEPEHUANES DGO., MX","FM-12","99999","V020","080,1,N,0030,1","22000,1,9,N","020000,1,N,1","+0351,1","-0036,1","10107,1",,,,,"01,1,+00810,1,08,1",,"01,99,1,01,1,01,1,01750,1,00,1,00,1",,"01,9",,,,"99999,9,08170,1","7,1,017,1,+004,1",,"SYN100AAXX  26211 76373 32770 10803 10351 21036 38170 40107 57017 81100 92050 333 30/// 56900 58004 81827;",
"76373099999","2011-06-27T00:00:00","4","25.35","-105.75","1967.0","TEPEHUANES DGO., MX","FM-12","99999","V020","060,1,N,0020,1","22000,1,9,N","020000,1,N,1","+0336,1","-0021,1","10091,1","24,0000,9,1",,,,,,"01,99,1,01,1,01,1,01750,1,00,1,00,1",,"01,9",,"120,M,+0374,1","180,N,+0127,1","99999,9,08157,1","7,1,013,1,+000,1",,"SYN124AAXX  27001 76373 32770 10602 10336 21021 38157 40091 57013 81100 92350 333 10374 20127 30/// 51141 56900 58000 70000 81827;",
"76373099999","2011-06-27T12:00:00","4","25.35","-105.75","1967.0","TEPEHUANES DGO., MX","FM-12","99999","V020","999,9,C,0000,1","22000,1,9,N","001000,1,N,1","+0127,1","+0006,1","10127,1",,,,,"00,1,+99999,9,99,9",,"00,99,1,00,1,00,1,99999,9,00,1,00,1","0780,9","01,9",,"120,N,+0118,1","240,M,+0374,1","99999,9,08186,1","9,9,999,9,-003,1",,"SYN112AAXX  27121 76373 32910 00000 10127 20006 38186 40127 5//// 91150 333 10374 20118 30096 55130 22513 59003 70000;",
"76373099999","2011-06-27T15:00:00","4","25.35","-105.75","1967.0","TEPEHUANES DGO., MX","FM-12","99999","V020","999,9,C,0000,1","22000,1,9,N","020000,1,N,1","+0242,1","-0037,1","10141,1",,,,,"00,1,+99999,9,99,9",,"00,99,1,00,1,00,1,99999,9,00,1,00,1",,"01,9",,,,"99999,9,08197,1","2,1,011,1,+001,1",,"SYN082AAXX  27151 76373 32970 00000 10242 21037 38197 40141 52011 91450 333 30/// 58001;",
"76373099999","2011-06-27T18:00:00","4","25.35","-105.75","1967.0","TEPEHUANES DGO., MX","FM-12","99999","V020","130,1,N,0010,1","22000,1,9,N","020000,1,N,1","+0326,1","+0057,1","10128,1",,,,,"01,1,+00810,1,08,1",,"01,99,1,01,1,01,1,01750,1,00,1,00,1",,"01,9",,"120,M,+0340,1","240,N,+0118,1","99999,9,08187,1","7,1,010,1,+000,1",,"SYN112AAXX  27181 76373 32770 11301 10326 20057 38187 40128 57010 81100 91750 333 10340 20118 30/// 56900 58000 81827;",
"76373099999","2011-06-27T21:00:00","4","25.35","-105.75","1967.0","TEPEHUANES DGO., MX","FM-12","99999","V020","090,1,N,0010,1","22000,1,9,N","020000,1,N,1","+0361,1","+0007,1","10112,1",,,,,"01,1,+00810,1,08,1",,"01,99,1,01,1,02,1,01750,1,00,1,00,1",,"01,9",,,,"99999,9,08174,1","7,1,013,1,+004,1",,"SYN100AAXX  27211 76373 32770 10901 10361 20007 38174 40112 57013 81200 92050 333 30/// 56900 58004 81827;",
"76373099999","2011-06-28T00:00:00","4","25.35","-105.75","1967.0","TEPEHUANES DGO., MX","FM-12","99999","V020","060,1,N,0010,1","22000,1,9,N","020000,1,N,1","+0337,1","+0019,1","10101,1","24,0000,9,1",,,,,,"02,99,1,02,1,02,1,01750,1,00,1,00,1",,"01,9",,"120,M,+0378,1","180,N,+0118,1","99999,9,08165,1","7,1,009,1,+008,1",,"SYN124AAXX  28001 76373 32770 20601 10337 20019 38165 40101 57009 82200 92350 333 10378 20118 30/// 51071 56900 58008 70000 82827;",
"76373099999","2011-06-28T03:00:00","4","25.35","-105.75","1967.0","TEPEHUANES DGO., MX","FM-12","99999","V020","050,1,N,0010,1","22000,1,9,N","000600,1,N,1","+0293,1","+0059,1","10116,1",,,,,"04,1,+00750,1,06,1",,"04,99,1,04,1,05,1,01750,1,00,1,00,1",,"01,9",,,,"99999,9,08177,1","2,1,012,1,+999,9",,"SYN100AAXX  28031 76373 32706 40501 10293 20059 38177 40116 52012 84500 90250 333 30/// 56900 58/// 84625;",
"76373099999","2011-06-28T12:00:00","4","25.35","-105.75","1967.0","TEPEHUANES DGO., MX","FM-12","99999","V020","999,9,C,0000,1","22000,1,9,N","001000,1,N,1","+0159,1","+0048,1","10142,1","24,0000,9,1",,,,,,"01,99,1,01,1,01,1,01750,1,00,1,00,1","0750,9","01,9",,"120,N,+0149,1","240,M,+0378,1","99999,9,08199,1","9,9,999,9,-013,1",,"SYN130AAXX  28121 76373 32710 10000 10159 20048 38199 40142 5//// 81100 91150 333 10378 20149 30130 55125 22311 56900 59013 70000 81827;",
"76373099999","2011-06-28T15:00:00","4","25.35","-105.75","1967.0","TEPEHUANES DGO., MX","FM-12","99999","V020","999,9,C,0000,1","22000,1,9,N","020000,1,N,1","+0254,1","+9999,9","10157,1",,,,,"01,1,+00810,1,08,1",,"02,99,1,01,1,02,1,01750,1,07,1,00,1",,"01,9",,,,"99999,9,08210,1","2,1,011,1,+013,1",,"SYN100AAXX  28151 76373 32770 20000 10254 21070 38210 40157 52011 81270 91450 333 30/// 56990 58013 81827;","Q01-000703ATOD  Q02 -00703ATOD  "
"76373099999","2011-06-28T18:00:00","4","25.35","-105.75","1967.0","TEPEHUANES DGO., MX","FM-12","99999","V020","110,1,N,0020,1","22000,1,9,N","020000,1,N,1","+0324,1","+0074,1","10147,1",,,,,"03,1,+00780,1,08,1",,"03,99,1,03,1,02,1,01750,1,00,1,00,1",,"01,9",,"120,M,+0340,1","240,N,+0149,1","99999,9,08202,1","7,1,008,1,+015,1",,"SYN112AAXX  28181 76373 32770 31102 10324 20074 38202 40147 57008 83200 91750 333 10340 20149 30/// 56900 58015 83826;",
"76373099999","2011-06-28T21:00:00","4","25.35","-105.75","1967.0","TEPEHUANES DGO., MX","FM-12","99999","V020","080,1,N,0010,1","22000,1,9,N","020000,1,N,1","+0355,1","+0040,1","10125,1",,,,,"03,1,+00780,1,06,1",,"04,99,1,04,1,04,1,01250,1,00,1,00,1",,"01,9",,,,"99999,9,08185,1","7,1,017,1,+011,1",,"SYN100AAXX  28211 76373 32670 40801 10355 20040 38185 40125 57017 84400 92050 333 30/// 56900 58011 83626;",
"76373099999","2011-06-29T00:00:00","4","25.35","-105.75","1967.0","TEPEHUANES DGO., MX","FM-12","99999","V020","050,1,N,0010,1","22000,1,9,N","020000,1,N,1","+0340,1","+0029,1","10101,1","24,0000,9,1",,,,,,"03,99,1,03,1,04,1,01250,1,00,1,00,1",,"01,9",,"120,M,+0376,1","180,N,+0149,1","99999,9,08165,1","7,1,020,1,+000,1",,"SYN124AAXX  29001 76373 32670 30501 10340 20029 38165 40101 57020 83400 92350 333 10376 20149 30/// 51051 56900 58000 70000 83626;",
"76373099999","2011-06-29T03:00:00","4","25.35","-105.75","1967.0","TEPEHUANES DGO., MX","FM-12","99999","V020","050,1,N,0010,1","22000,1,9,N","000600,1,N,1","+0280,1","+0010,1","10121,1",,,,,"02,1,+00780,1,06,1",,"03,99,1,03,1,04,1,01250,1,00,1,00,1",,"01,9",,,,"99999,9,08181,1","2,1,016,1,+004,1",,"SYN100AAXX  29031 76373 32606 30501 10280 20010 38181 40121 52016 83400 90250 333 30/// 56900 58004 82626;",
"76373099999","2011-06-29T12:00:00","4","25.35","-105.75","1967.0","TEPEHUANES DGO., MX","FM-12","99999","V020","999,9,C,0000,1","22000,1,9,N","001000,1,N,1","+0143,1","+0021,1","10147,1",,,,,"00,1,+99999,9,99,9",,"00,99,1,00,1,00,1,99999,9,00,1,00,1","0720,9","01,9",,"120,N,+0134,1","240,M,+0378,1","99999,9,08202,1","9,9,999,9,+003,1",,"SYN112AAXX  29121 76373 32910 00000 10143 20021 38202 40147 5//// 91150 333 10378 20134 30116 55120 21756 58003 70000;",
"76373099999","2011-06-29T15:00:00","4","25.35","-105.75","1967.0","TEPEHUANES DGO., MX","FM-12","99999","V020","999,9,C,0000,1","22000,1,9,N","020000,1,N,1","+0243,1","+0071,1","10164,1",,,,,"01,1,+00810,1,08,1",,"01,99,1,01,1,01,1,01750,1,00,1,00,1",,"01,9",,,,"99999,9,08217,1","2,1,015,1,+007,1",,"SYN100AAXX  29151 76373 32770 10000 10243 20071 38217 40164 52015 81100 91450 333 30/// 56900 58007 81827;",
"76373099999","2011-06-29T18:00:00","4","25.35","-105.75","1967.0","TEPEHUANES DGO., MX","FM-12","99999","V020","130,1,N,0020,1","22000,1,9,N","020000,1,N,1","+0307,1","+0086,1","10155,1",,,,,"02,1,+00810,1,08,1",,"03,99,1,02,1,02,1,01750,1,00,1,04,1",,"01,9",,"120,M,+0320,1","240,N,+0134,1","99999,9,08209,1","7,1,008,1,+007,1",,"SYN112AAXX  29181 76373 32770 31302 10307 20086 38209 40155 57008 82204 91750 333 10320 20134 30/// 56909 58007 82827;",
"76373099999","2011-06-29T21:00:00","4","25.35","-105.75","1967.0","TEPEHUANES DGO., MX","FM-12","99999","V020","090,1,N,0010,1","22000,1,9,N","020000,1,N,1","+0351,1","+0018,1","10126,1",,,,,"03,1,+00780,1,06,1",,"03,99,1,03,1,04,1,01250,1,00,1,00,1",,"01,9",,,,"99999,9,08185,1","7,1,024,1,+000,1",,"SYN100AAXX  29211 76373 32670 30901 10351 20018 38185 40126 57024 83400 92035 333 30/// 56900 58000 83626;",
"76373099999","2011-06-30T18:00:00","4","25.35","-105.75","1967.0","TEPEHUANES DGO., MX","FM-12","99999","V020","110,1,N,0010,1","22000,1,9,N","010000,1,N,1","+0320,1","+0036,1","10132,1",,,,,"02,1,+00750,1,08,1",,"02,99,1,02,1,02,1,00800,1,00,1,00,1",,"01,9",,"120,M,+0330,1","240,N,+0098,1","99999,9,08190,1","5,1,001,1,-019,1",,"SYN112AAXX  30181 76373 32560 21101 10320 20036 38190 40132 55001 82200 91755 333 10330 20098 30/// 56900 59019 82825;",
"76373099999","2011-06-30T21:00:00","4","25.35","-105.75","1967.0","TEPEHUANES DGO., MX","FM-12","99999","V020","070,1,N,0020,1","22000,1,9,N","030000,1,N,1","+0340,1","+0023,1","10110,1",,,,,"02,1,+00750,1,08,1",,"02,99,1,02,1,02,1,00800,1,00,1,00,1",,"01,9",,,,"99999,9,08174,1","7,1,017,1,-011,1",,"SYN100AAXX  30211 76373 32580 20702 10340 20023 38174 40110 57017 82200 92050 333 30/// 56900 59011 82825;",
"76373099999","2011-07-01T00:00:00","4","25.35","-105.75","1967.0","TEPEHUANES DGO., MX","FM-12","99999","V020","070,1,N,0020,1","22000,1,9,N","030000,1,N,1","+0320,1","+0026,1","10091,1","24,0000,9,1",,,,,,"02,99,1,02,1,02,1,00800,1,00,1,00,1",,"01,9",,"120,M,+0354,1","180,N,+0098,1","99999,9,08157,1","7,1,016,1,+000,1",,"SYN124AAXX  01001 76373 32580 20702 10320 20026 38157 40091 57016 82200 92355 333 10354 20098 30/// 51081 56900 58000 70000 82825;",
"76373099999","2011-07-01T03:00:00","4","25.35","-105.75","1967.0","TEPEHUANES DGO., MX","FM-12","99999","V020","070,1,N,0010,1","22000,1,9,N","001000,1,N,1","+0266,1","+0026,1","10107,1",,,,,"02,1,+00750,1,08,1",,"02,99,1,02,1,02,1,00800,1,00,1,00,1",,"01,9",,,,"99999,9,08170,1","2,1,013,1,+000,1",,"SYN100AAXX  01031 76373 32510 20701 10266 20026 38170 40107 52013 82200 90250 333 30/// 56900 58000 82825;",
"76373099999","2011-07-01T12:00:00","4","25.35","-105.75","1967.0","TEPEHUANES DGO., MX","FM-12","99999","V020","999,9,C,0000,1","22000,1,9,N","002000,1,N,1","+0170,1","+0102,1","10116,1","24,0000,9,1",,,,,,"01,99,1,01,1,01,1,00800,1,00,1,00,1","0756,9","01,9",,"120,N,+0160,1","240,M,+0354,1","99999,9,08177,1","9,9,999,9,+000,1",,"SYN130AAXX  01121 76373 32520 10000 10170 20102 38177 40116 5//// 81100 91155 333 10354 20160 30132 55126 22536 56900 58000 70000 81625;",
"76373099999","2011-07-01T15:00:00","4","25.35","-105.75","1967.0","TEPEHUANES DGO., MX","FM-12","99999","V020","999,9,C,0000,1","00600,1,9,N","030000,1,N,1","+0220,1","+0129,1","10125,1",,,,,"06,1,+00600,1,06,1",,"08,99,1,08,1,08,1,00800,1,00,1,00,1",,"01,9",,,,"99999,9,08185,1","2,1,008,1,-005,1",,"SYN106AAXX  01151 76373 32580 80000 10220 20129 38185 40125 52008 88800 91455 333 30/// 56900 59005 86620 82725;",
"76373099999","2011-07-01T18:00:00","4","25.35","-105.75","1967.0","TEPEHUANES DGO., MX","FM-12","99999","V020","110,1,N,0010,1","01200,1,C,N","030000,1,N,1","+0254,1","+0116,1","10118,1",,,,,"03,1,+00600,1,07,1",,"08,99,1,08,1,08,1,00800,1,00,1,00,1",,"01,9",,"120,M,+0266,1","240,N,+0160,1","99999,9,08179,1","5,1,006,1,-011,1",,"SYN118AAXX  01181 76373 32580 81101 10254 20116 38179 40118 55006 88800 91755 333 10266 20160 30/// 56900 59011 83720 85625;",
"76373099999","2011-07-02T00:00:00","4","25.35","-105.75","1967.0","TEPEHUANES DGO., MX","FM-12","99999","V020","320,1,N,0010,1","01200,1,9,N","030000,1,N,1","+0234,1","+0161,1","10104,1","24,0000,9,1",,,,"03,1,+00600,1,07,1",,"08,99,1,08,1,08,1,00800,1,00,1,00,1",,"01,9",,"120,M,+0268,1","180,N,+0160,1","99999,9,08167,1","7,1,011,1,+010,1",,"SYN130AAXX  02001 76373 32580 83201 10234 20161 38167 40104 57011 88800 92355 333 10268 20160 30/// 50571 56900 58010 70000 83720 85625;",
"76373099999","2011-07-02T03:00:00","4","25.35","-105.75","1967.0","TEPEHUANES DGO., MX","FM-12","99999","V020","999,9,C,0000,1","01200,1,C,N","001000,1,N,1","+0196,1","+0163,1","10129,1",,,,,"04,1,+00600,1,07,1",,"08,99,1,08,1,08,1,00800,1,00,1,00,1",,"01,9",,,,"99999,9,08188,1","2,1,021,1,+018,1",,"SYN106AAXX  02031 76373 32510 80000 10196 20163 38188 40129 52021 88800 90255 333 30/// 56900 58018 84720 84625;",
"76373099999","2011-07-02T15:00:00","4","25.35","-105.75","1967.0","TEPEHUANES DGO., MX","FM-12","99999","V020","140,1,N,0010,1","00750,1,9,N","005000,1,N,1","+0198,1","+0151,1","10147,1",,,,,"08,1,+00750,1,07,1",,"08,99,1,08,1,08,1,00800,1,00,1,00,1",,"01,9",,,,"99999,9,08202,1","2,1,013,1,+017,1",,"SYN100AAXX  02151 76373 32550 81401 10198 20151 38202 40147 52013 88800 91455 333 30/// 56900 58017 88725;",
"76373099999","2011-07-02T18:00:00","4","25.35","-105.75","1967.0","TEPEHUANES DGO., MX","FM-12","99999","V020","140,1,N,0010,1","00750,1,9,N","030000,1,N,1","+0214,1","+0158,1","10157,1",,,,,"08,1,+00750,1,07,1",,"08,99,1,08,1,08,1,00800,1,00,1,00,1",,"01,9",,"120,M,+0222,1","240,N,+0162,1","99999,9,08210,1","2,1,008,1,+031,1",,"SYN112AAXX  02181 76373 32580 81401 10214 20158 38210 40157 52008 88800 91755 333 10222 20162 30/// 56900 58031 88725;",
"76373099999","2011-07-03T00:00:00","4","25.35","-105.75","1967.0","TEPEHUANES DGO., MX","FM-12","99999","V020","140,1,N,0010,1","00750,1,9,N","020000,1,N,1","+0234,1","+0135,1","10127,1","24,0040,9,1",,,,,,"08,99,1,08,1,07,1,00800,1,00,1,00,1",,"01,9",,"120,M,+0270,1","180,N,+0162,1","99999,9,08186,1","7,1,011,1,+019,1",,"SYN124AAXX  03001 76373 32570 81401 10234 20135 38186 40127 57011 88700 92350 333 10270 20162 30/// 50361 56900 58019 70040 88625;",
"76373099999","2011-07-03T03:00:00","4","25.35","-105.75","1967.0","TEPEHUANES DGO., MX","FM-12","99999","V020","999,9,C,0000,1","00750,1,9,N","005000,1,N,1","+0187,1","+0152,1","10140,1","03,0010,9,1",,,,"08,1,+00750,1,06,1",,"08,99,1,08,1,07,1,00800,1,00,1,00,1",,"01,9",,,,"99999,9,08197,1","2,1,011,1,-009,1",,"SYN106AAXX  03031 76373 12550 80000 10187 20152 38197 40140 52011 60017 88700 90250 333 30/// 56900 59009 88625;",
"76373099999","2011-07-03T12:00:00","4","25.35","-105.75","1967.0","TEPEHUANES DGO., MX","FM-12","99999","V020","999,9,C,0000,1","00750,1,9,N","005000,1,N,1","+0159,1","+0151,1","10142,1","24,0124,9,1",,,,,,"08,99,1,08,1,07,1,00800,1,00,1,00,1","0072,9",,,"120,N,+0140,1","240,M,+0270,1","99999,9,08198,1","9,9,999,9,+009,1",,"SYN130AAXX  03121 76373 32550 80000 10159 20151 38198 40142 5//// 88700 91150 333 10270 20140 20130 55012 20886 56900 58009 70124 88625;",
"76373099999","2011-07-03T15:00:00","4","25.35","-105.75","1967.0","TEPEHUANES DGO., MX","FM-12","99999","V020","999,9,C,0000,1","00750,1,9,N","020000,1,N,1","+0184,1","+0153,1","10150,1",,,,,"08,1,+00750,1,06,1",,"08,99,1,08,1,07,1,00800,1,00,1,00,1",,"01,9",,,,"99999,9,08205,1","2,1,007,1,+003,1",,"SYN100AAXX  03151 76373 32570 80000 10184 20153 38205 40150 52007 88700 91450 333 30/// 56900 58003 88625;",
"76373099999","2011-07-03T21:00:00","4","25.35","-105.75","1967.0","TEPEHUANES DGO., MX","FM-12","99999","V020","070,1,N,0010,1","00750,1,9,N","020000,1,N,1","+0260,1","+0124,1","10135,1",,,,,"08,1,+00750,1,06,1",,"08,99,1,08,1,07,1,00800,1,00,1,00,1",,"01,9",,,,"99999,9,08193,1","7,1,007,1,-004,1",,"SYN100AAXX  03211 76373 32570 80701 10260 20124 38193 40135 57007 88700 92050 333 30/// 56900 59004 88625;",
"76373099999","2011-07-04T00:00:00","4","25.35","-105.75","1967.0","TEPEHUANES DGO., MX","FM-12","99999","V020","140,1,N,0010,1","00750,1,9,N","020000,1,N,1","+0258,1","+0122,1","10110,1","24,0124,9,1",,,,"07,1,+00750,1,06,1",,"07,99,1,07,1,07,1,00800,1,00,1,00,1",,"01,9",,"120,M,+0300,1","180,N,+0140,1","99999,9,08173,1","7,1,020,1,-013,1",,"SYN118AAXX  04001 76373 32570 71401 10258 20122 38173 40110 57020 87700 92350 333 10300 20140 30/// 56900 59013 70124 87625;",
"76373099999","2011-07-04T03:00:00","4","25.35","-105.75","1967.0","TEPEHUANES DGO., MX","FM-12","99999","V020","999,9,C,0000,1","00750,1,9,N","005000,1,N,1","+0180,1","+0152,1","10143,1","03,0030,9,1",,,,"08,1,+00750,1,06,1",,"08,99,1,08,1,07,1,00800,1,00,1,00,1",,"09,9",,,,"99999,9,08199,1","2,1,026,1,+002,1",,"SYN106AAXX  04031 76373 22550 80000 10180 20152 38199 40143 52026 88700 90250 333 31/// 56900 58002 60037 88625;",
"76373099999","2011-07-04T12:00:00","4","25.35","-105.75","1967.0","TEPEHUANES DGO., MX","FM-12","99999","V020","999,9,C,0000,1","00750,1,9,N","005000,1,N,1","+0153,1","+0143,1","10145,1","24,0025,9,1",,,,,,"08,99,1,08,1,07,1,00800,1,00,1,00,1","0294,9","01,9",,"120,N,+0143,1","240,M,+0300,1","99999,9,08201,1","9,9,999,9,+003,1",,"SYN130AAXX  04121 76373 32550 80000 10153 20143 38201 40145 5//// 88700 91150 333 10300 20143 30133 55049 21611 56900 58003 70025 88625;",
"76373099999","2011-07-04T15:00:00","4","25.35","-105.75","1967.0","TEPEHUANES DGO., MX","FM-12","99999","V020","999,9,C,0000,1","00750,1,9,N","020000,1,N,1","+0193,1","+0139,1","10148,1",,,,,"08,1,+00750,1,06,1",,"08,99,1,08,1,07,1,00800,1,00,1,00,1",,"01,9",,,,"99999,9,08203,1","2,1,003,1,-002,1",,"SYN100AAXX  04151 76373 32570 80000 10193 20139 38203 40148 52003 88700 91450 333 30/// 56900 59002 88625;",
"76373099999","2011-07-04T18:00:00","4","25.35","-105.75","1967.0","TEPEHUANES DGO., MX","FM-12","99999","V020","999,9,C,0000,1","00750,1,9,N","020000,1,N,1","+0251,1","+0127,1","10140,1",,,,,"08,1,+00750,1,08,1",,"08,99,1,08,1,02,1,00800,1,00,1,00,1",,"01,9",,"120,M,+0270,1","240,N,+0140,1","99999,9,08197,1","7,1,006,1,-003,1",,"SYN112AAXX  04181 76373 32570 80000 10251 20127 38197 40140 57006 88200 91750 333 10270 20140 30/// 56900 59003 88825;",
"76373099999","2011-07-04T21:00:00","4","25.35","-105.75","1967.0","TEPEHUANES DGO., MX","FM-12","99999","V020","110,1,N,0020,1","00750,1,9,N","020000,1,N,1","+0265,1","+0109,1","10116,1",,,,,"08,1,+00750,1,06,1",,"08,99,1,08,1,07,1,00800,1,00,1,00,1",,"01,9",,,,"99999,9,08177,1","7,1,020,1,-020,1",,"SYN100AAXX  04211 76373 32570 81102 10265 20109 38177 40116 57020 88700 92050 333 30/// 56900 59020 88625;",
"76373099999","2011-07-05T00:00:00","4","25.35","-105.75","1967.0","TEPEHUANES DGO., MX","FM-12","99999","V020","130,1,N,0010,1","00750,1,9,N","020000,1,N,1","+0269,1","+0106,1","10094,1","24,0025,9,1",,,,"08,1,+00750,1,06,1",,"08,99,1,08,1,07,1,00800,1,00,1,00,1",,"01,9",,"120,M,+0300,1","180,N,+0140,1","99999,9,08160,1","7,1,017,1,-013,1",,"SYN118AAXX  05001 76373 32570 81301 10269 20106 38160 40094 57017 88700 92350 333 10300 20140 30/// 56900 59013 70025 88625;",
"76373099999","2011-07-07T21:00:00","4","25.35","-105.75","1967.0","TEPEHUANES DGO., MX","FM-12","99999","V020","140,1,N,0010,1","00750,1,9,N","030000,1,N,1","+0316,1","+0053,1","10122,1",,,,,"04,1,+00600,1,06,1",,"06,99,1,06,1,06,1,00800,1,00,1,00,1",,"01,9",,,,"99999,9,08182,1","7,1,016,1,+000,1",,"SYN106AAXX  07211 76373 32580 61401 10316 20053 38182 40122 57016 86600 92055 333 30/// 56900 58000 84620 82825;",
"76373099999","2011-07-08T00:00:00","4","25.35","-105.75","1967.0","TEPEHUANES DGO., MX","FM-12","99999","V020","070,1,N,0010,1","00750,1,9,N","030000,1,N,1","+0290,1","+0074,1","10108,1","24,0000,9,1",,,,"02,1,+00600,1,06,1",,"07,99,1,07,1,07,1,00800,1,00,1,00,1",,"01,9",,"120,M,+0340,1","180,N,+0092,1","99999,9,08171,1","7,1,011,1,+000,1",,"SYN130AAXX  08001 76373 32580 70701 10290 20074 38171 40108 57011 87700 92355 333 10340 20092 30/// 50881 56900 58000 70000 82620 82825;",
"76373099999","2011-07-08T03:00:00","4","25.35","-105.75","1967.0","TEPEHUANES DGO., MX","FM-12","99999","V020","999,9,C,0000,1","00750,1,9,N","001000,1,N,1","+0246,1","+0071,1","10120,1",,,,,"07,1,+00750,1,06,1",,"07,99,1,07,1,07,1,00800,1,00,1,00,1",,"01,9",,,,"99999,9,08180,1","5,1,009,1,+000,1",,"SYN100AAXX  08031 76373 32510 70000 10246 20071 38180 40120 55009 87700 90255 333 30/// 56900 58000 87625;",
"76373099999","2011-07-08T15:00:00","4","25.35","-105.75","1967.0","TEPEHUANES DGO., MX","FM-12","99999","V020","999,9,C,0000,1","22000,1,9,N","030000,1,N,1","+0218,1","+0140,1","10139,1",,,,,"02,1,+00750,1,08,1",,"02,99,1,02,1,02,1,00800,1,00,1,00,1",,"01,9",,,,"99999,9,08196,1","5,1,009,1,+000,1",,"SYN100AAXX  08151 76373 32580 20000 10218 20140 38196 40139 55009 82200 91455 333 30/// 56900 58000 82825;",
"76373099999","2011-07-08T18:00:00","4","25.35","-105.75","1967.0","TEPEHUANES DGO., MX","FM-12","99999","V020","140,1,N,0010,1","22000,1,9,N","030000,1,N,1","+0312,1","+0112,1","10121,1",,,,,"03,1,+00600,1,06,1",,"04,99,1,04,1,04,1,00800,1,00,1,00,1",,"01,9",,"120,M,+0320,1","240,N,+0150,1","99999,9,08181,1","7,1,015,1,-017,1",,"SYN118AAXX  08181 76373 32580 41401 10312 20112 38181 40121 57015 84400 91750 333 10320 20150 30/// 56900 59017 83620 81825;",
"76373099999","2011-07-08T21:00:00","4","25.35","-105.75","1967.0","TEPEHUANES DGO., MX","FM-12","99999","V020","140,1,N,0010,1","22000,1,9,N","030000,1,N,1","+0348,1","+0063,1","10092,1",,,,,"02,1,+00600,1,06,1",,"04,99,1,04,1,04,1,00800,1,00,1,00,1",,"01,9",,,,"99999,9,08158,1","7,1,023,1,-024,1",,"SYN106AAXX  08211 76373 32580 41401 10348 20063 38158 40092 57023 84400 92055 333 30/// 56900 59024 82620 82825;",
"76373099999","2011-07-09T00:00:00","4","25.35","-105.75","1967.0","TEPEHUANES DGO., MX","FM-12","99999","V020","320,1,N,0010,1","01200,1,9,N","030000,1,N,1","+0276,1","+0097,1","10094,1","24,0000,9,1",,,,"04,1,+00600,1,07,1",,"08,99,1,08,1,08,1,00800,1,00,1,00,1",,"01,9",,"120,M,+0362,1","180,N,+0150,1","99999,9,08160,1","1,1,002,1,-011,1",,"SYN130AAXX  09001 76373 32580 83201 10276 20097 38160 40094 51002 88800 92350 333 10362 20150 30/// 50731 56900 59011 70000 84720 84625;",
"76373099999","2011-07-09T03:00:00","4","25.35","-105.75","1967.0","TEPEHUANES DGO., MX","FM-12","99999","V020","250,1,N,0010,1","01200,1,C,N","030000,1,N,1","+0234,1","+0135,1","10119,1",,,,,"04,1,+00600,1,07,1",,"08,99,1,08,1,08,1,00800,1,00,1,00,1",,"01,9",,,,"99999,9,08180,1","2,1,020,1,+000,1",,"SYN106AAXX  09031 76373 32580 82501 10234 20135 38180 40119 52020 88800 90255 333 30/// 56900 58000 84720 84625;",
"76373099999","2011-07-09T15:00:00","4","25.35","-105.75","1967.0","TEPEHUANES DGO., MX","FM-12","99999","V020","999,9,C,0000,1","22000,1,9,N","010000,1,N,1","+0202,1","+0122,1","10139,1",,,,,"01,1,+00600,1,06,1",,"01,99,1,01,1,01,1,00800,1,00,1,00,1",,"01,9",,,,"99999,9,08196,1","2,1,009,1,+000,1",,"SYN100AAXX  09151 76373 32560 10000 10202 20122 38196 40139 52009 81100 91455 333 30/// 56900 58000 81620;",
"76373099999","2011-07-09T18:00:00","4","25.35","-105.75","1967.0","TEPEHUANES DGO., MX","FM-12","99999","V020","110,1,N,0010,1","22000,1,9,N","030000,1,N,1","+0308,1","+0106,1","10122,1",,,,,"03,1,+00750,1,06,1",,"03,99,1,03,1,03,1,00800,1,00,1,00,1",,"01,9",,"120,M,+0320,1","240,N,+0148,1","99999,9,08182,1","7,1,014,1,+002,1",,"SYN112AAXX  09181 76373 32580 31101 10308 20106 38182 40122 57014 83300 91750 333 10320 20148 30/// 56900 58002 83625;",
"76373099999","2011-07-10T00:00:00","4","25.35","-105.75","1967.0","TEPEHUANES DGO., MX","FM-12","99999","V020","340,1,N,0010,1","00750,1,9,N","020000,1,N,1","+0258,1","+0097,1","10109,1","24,0000,9,1",,,,,,"08,99,1,08,1,07,1,00800,1,00,1,00,1",,"01,9",,"120,M,+0345,1","180,N,+0148,1","99999,9,08172,1","1,1,001,1,+012,1",,"SYN124AAXX  10001 76373 32570 83401 10258 20097 38172 40109 51001 88700 92350 333 10345 20148 30/// 50531 56900 58012 70000 88625;",
"76373099999","2011-07-10T03:00:00","4","25.35","-105.75","1967.0","TEPEHUANES DGO., MX","FM-12","99999","V020","110,1,N,0010,1","00750,1,9,N","005000,1,N,1","+0205,1","+0133,1","10129,1",,,,,"08,1,+00750,1,06,1",,"08,99,1,08,1,07,1,00800,1,00,1,00,1",,"01,9",,,,"99999,9,08188,1","2,1,018,1,+008,1",,"SYN100AAXX  10031 76373 32550 81101 10205 20133 38188 40129 52018 88700 90250 333 30/// 56900 58008 88625;",
"76373099999","2011-07-10T12:00:00","4","25.35","-105.75","1967.0","TEPEHUANES DGO., MX","FM-12","99999","V020","999,9,C,0000,1","00750,1,9,N","005000,1,N,1","+0171,1","+0137,1","10131,1","24,0000,9,1",,,,,,"07,99,1,07,1,05,1,00800,1,00,1,00,1","0396,9","01,9",,"120,N,+0160,1","240,M,+0345,1","99999,9,08189,1","9,9,999,9,+002,1",,"SYN130AAXX  10121 76373 32550 70000 10171 20137 38189 40131 5//// 87500 91150 333 10345 20160 30147 55066 21772 56900 58002 70000 87625;",
"76373099999","2011-07-10T18:00:00","4","25.35","-105.75","1967.0","TEPEHUANES DGO., MX","FM-12","99999","V020","999,9,C,0000,1","00750,1,9,N","020000,1,N,1","+0269,1","+0121,1","10135,1",,,,,"08,1,+00750,1,06,1",,"08,99,1,08,1,07,1,00800,1,00,1,00,1",,"01,9",,"120,M,+0280,1","240,N,+0160,1","99999,9,08192,1","4,1,000,1,+010,1",,"SYN112AAXX  10181 76373 32570 80000 10269 20121 38192 40135 54000 88700 91750 333 10280 20160 30/// 56900 58010 88625;",
"76373099999","2011-07-10T21:00:00","4","25.35","-105.75","1967.0","TEPEHUANES DGO., MX","FM-12","99999","V020","310,1,N,0010,1","00750,1,9,N","020000,1,N,1","+0206,1","+0126,1","10135,1",,,,,"08,1,+00750,1,06,1",,"08,99,1,08,1,07,1,00800,1,00,1,00,1",,"01,9",,,,"99999,9,08193,1","2,1,001,1,+022,1",,"SYN100AAXX  10211 76373 32570 83101 10206 20126 38193 40135 52001 88700 92050 333 30/// 56900 58022 88625;",
"76373099999","2011-07-11T00:00:00","4","25.35","-105.75","1967.0","TEPEHUANES DGO., MX","FM-12","99999","V020","290,1,N,0010,1","00750,1,9,N","020000,1,N,1","+0223,1","+0121,1","10126,1","24,0000,9,1",,,,,,"08,99,1,08,1,07,1,00800,1,00,1,00,1",,"01,9",,"120,M,+0280,1","180,N,+0160,1","99999,9,08185,1","7,1,008,1,+013,1",,"SYN124AAXX  11001 76373 32570 82901 10223 20121 38185 40126 57008 88700 92350 333 10280 20160 30/// 50451 56900 58013 70000 88625;",
"76373099999","2011-07-11T03:00:00","4","25.35","-105.75","1967.0","TEPEHUANES DGO., MX","FM-12","99999","V020","999,9,C,0000,1","00750,1,9,N","005000,1,N,1","+0200,1","+0121,1","10137,1",,,,,"08,1,+00750,1,06,1",,"08,99,1,08,1,07,1,00800,1,00,1,00,1",,"01,9",,,,"99999,9,08194,1","2,1,009,1,+006,1",,"SYN100AAXX  11031 76373 32550 80000 10200 20121 38194 40137 52009 88700 90250 333 30/// 56900 58006 88625;",
"76373099999","2011-07-11T15:00:00","4","25.35","-105.75","1967.0","TEPEHUANES DGO., MX","FM-12","99999","V020","999,9,C,0000,1","99999,9,9,N","020000,1,N,1","+0190,1","+0154,1","99999,9",,,,,,,"08,99,1,99,9,99,9,00800,1,99,9,99,9",,,,,,,,,"SYN101AAXX  11151 76373 32570 80000 10190 20154 3 38218 4016 52001 88700 91450 333 30/// 56900 58017 88625;",
"76373099999","2011-07-11T21:00:00","4","25.35","-105.75","1967.0","TEPEHUANES DGO., MX","FM-12","99999","V020","310,1,N,0010,1","99999,9,9,N","020000,1,N,1","+0253,1","+0145,1","10137,1",,,,,"04,1,+00750,1,08,1",,"07,99,1,04,1,02,1,00800,1,00,1,00,1",,"01,9",,,,"99999,9,08194,1","7,1,012,1,+001,1",,"SYN100AAXX  11211 76373 32570 73101 10253 20145 38194 40137 57012 84200 92050 333 30/// 56900 58001 84825;",
"76373099999","2011-07-12T00:00:00","4","25.35","-105.75","1967.0","TEPEHUANES DGO., MX","FM-12","99999","V020","130,1,N,0010,1","99999,9,9,N","020000,1,N,1","+0279,1","+0110,1","10117,1","24,0000,9,1",,,,,,"07,99,1,99,9,02,1,00800,1,00,1,00,1",,"01,9",,"120,M,+0320,1","180,N,+0160,1","99999,9,08178,1","7,1,016,1,-007,1",,"SYN124AAXX  12001 76373 32570 71301 10279 20110 38178 40117 57016 84200 92350 333 10320 20160 30/// 50391 56900 59007 70000 84825;","Q01+000042SCOTLC"
"76373099999","2011-07-14T21:00:00","4","25.35","-105.75","1967.0","TEPEHUANES DGO., MX","FM-12","99999","V020","140,1,N,0020,1","22000,1,9,N","030000,1,N,1","+0316,1","+0122,1","10097,1",,,,,"01,1,+00600,1,07,1",,"04,99,1,04,1,04,1,00800,1,00,1,00,1",,"01,9",,,,"99999,9,08162,1","7,1,027,1,+000,1",,"SYN106AAXX  14211 76373 32580 41402 10316 20122 38162 40097 57027 84400 92050 333 30/// 56900 58000 81720 83625;",
"76373099999","2011-07-15T00:00:00","4","25.35","-105.75","1967.0","TEPEHUANES DGO., MX","FM-12","99999","V020","160,1,N,0010,1","01200,1,9,N","030000,1,N,1","+0258,1","+0128,1","10089,1","24,0000,9,1",,,,"04,1,+00600,1,07,1",,"08,99,1,08,1,08,1,00800,1,00,1,00,1",,"01,9",,"120,M,+0330,1","180,N,+0102,1","99999,9,08155,1","7,1,007,1,+000,1",,"SYN130AAXX  15001 76373 32580 81601 10258 20128 38155 40089 57007 88800 92355 333 10330 20102 30/// 50711 56900 58000 70000 84720 84625;",
"76373099999","2011-07-15T03:00:00","4","25.35","-105.75","1967.0","TEPEHUANES DGO., MX","FM-12","99999","V020","999,9,C,0000,1","00600,1,9,N","001000,1,N,1","+0210,1","+0144,1","10118,1",,,,,"06,1,+00600,1,07,1",,"08,99,1,08,1,08,1,00800,1,00,1,00,1",,"01,9",,,,"99999,9,08179,1","2,1,024,1,+000,1",,"SYN106AAXX  15031 76373 32510 80000 10210 20144 38179 40118 52024 88800 90250 333 30/// 56900 58000 86720 82625;",
"76373099999","2011-07-15T15:00:00","4","25.35","-105.75","1967.0","TEPEHUANES DGO., MX","FM-12","99999","V020","999,9,C,0000,1","22000,1,9,N","030000,1,N,1","+0226,1","+0145,1","10129,1",,,,,"01,1,+00750,1,08,1",,"01,99,1,01,1,01,1,00800,1,00,1,00,1",,"01,9",,,,"99999,9,08188,1","5,1,003,1,+000,1",,"SYN100AAXX  15151 76373 32580 10000 10226 20145 38188 40129 55003 81100 91455 333 30/// 56900 58000 81825;",
"76373099999","2011-07-15T18:00:00","4","25.35","-105.75","1967.0","TEPEHUANES DGO., MX","FM-12","99999","V020","070,1,N,0010,1","22000,1,9,N","030000,1,N,1","+0296,1","+0148,1","10116,1",,,,,"03,1,+00750,1,08,1",,"03,99,1,03,1,03,1,00800,1,00,1,00,1",,"01,9",,"120,M,+0300,1","240,N,+0150,1","99999,9,08177,1","7,1,011,1,-012,1",,"SYN112AAXX  15181 76373 32580 30701 10296 20148 38177 40116 57011 83300 91755 333 10300 20150 30/// 56900 59012 83825;",
"76373099999","2011-07-15T21:00:00","4","25.35","-105.75","1967.0","TEPEHUANES DGO., MX","FM-12","99999","V020","140,1,N,0010,1","22000,1,9,N","030000,1,N,1","+0322,1","+0126,1","10087,1",,,,,"02,1,+00600,1,07,1",,"04,99,1,04,1,04,1,00800,1,00,1,00,1",,"01,9",,,,"99999,9,08154,1","7,1,023,1,-008,1",,"SYN106AAXX  15211 76373 32580 41401 10322 20126 38154 40087 57023 84400 92055 333 30/// 56900 59008 82720 82625;",
"76373099999","2011-07-16T00:00:00","4","25.35","-105.75","1967.0","TEPEHUANES DGO., MX","FM-12","99999","V020","140,1,N,0010,1","00750,1,9,N","030000,1,N,1","+0296,1","+0110,1","10070,1","24,0000,9,1",,,,"02,1,+00600,1,07,1",,"05,99,1,05,1,05,1,00800,1,00,1,00,1",,"01,9",,"120,M,+0340,1","180,N,+0150,1","99999,9,08140,1","7,1,014,1,-015,1",,"SYN130AAXX  16001 76373 32580 51401 10296 20110 38140 40070 57014 85500 92350 333 10340 20150 30/// 50621 56900 59015 70000 82720 83625;",
"76373099999","2011-07-16T03:00:00","4","25.35","-105.75","1967.0","TEPEHUANES DGO., MX","FM-12","99999","V020","070,1,N,0010,1","01200,1,C,N","001000,1,N,1","+0204,1","+0154,1","10105,1",,,,,"04,1,+00600,1,09,1",,"08,99,1,08,1,08,1,00800,1,00,1,00,1",,"01,9",,,,"99999,9,08168,1","2,1,028,1,-011,1",,"SYN106AAXX  16031 76373 32510 80701 10204 20154 38168 40105 52028 88800 90250 333 30/// 56900 59011 84920 84725;",
"76373099999","2011-07-16T12:00:00","4","25.35","-105.75","1967.0","TEPEHUANES DGO., MX","FM-12","99999","V020","999,9,C,0000,1","22000,1,9,N","001000,1,N,1","+0152,1","+0136,1","10112,1","24,0000,9,1",,,,,,"01,99,1,01,1,01,1,00800,1,00,1,00,1","0576,9","01,9",,"120,N,+0140,1","240,M,+0340,1","99999,9,08174,1","9,9,999,9,-011,1",,"SYN130AAXX  16121 76373 32510 10000 10152 20136 38174 40112 5//// 81100 91155 333 10340 20140 30128 55096 21691 56900 59011 70000 81825;",
"76373099999","2011-07-16T15:00:00","4","25.35","-105.75","1967.0","TEPEHUANES DGO., MX","FM-12","99999","V020","999,9,C,0000,1","22000,1,9,N","030000,1,N,1","+0212,1","+0139,1","10120,1",,,,,"01,1,+00750,1,08,1",,"01,99,1,01,1,01,1,00800,1,00,1,00,1",,"01,9",,,,"99999,9,08181,1","7,1,007,1,-007,1",,"SYN100AAXX  16151 76373 32580 10000 10212 20139 38181 40120 57007 81100 91455 333 30/// 56900 59007 81825;",
"76373099999","2011-07-17T00:00:00","4","25.35","-105.75","1967.0","TEPEHUANES DGO., MX","FM-12","99999","V020","110,1,N,0010,1","00750,1,9,N","020000,1,N,1","+0298,1","+0077,1","10073,1","24,0000,9,1",,,,,,"05,99,1,05,1,02,1,00800,1,00,1,00,1",,"01,9",,"120,M,+0340,1","180,N,+0140,1","99999,9,08142,1","7,1,014,1,+002,1",,"SYN124AAXX  17001 76373 32570 51101 10298 20077 38142 40073 57014 85200 92350 333 10340 20140 30/// 50881 56900 58002 70000 85825;",
"76373099999","2011-07-17T03:00:00","4","25.35","-105.75","1967.0","TEPEHUANES DGO., MX","FM-12","99999","V020","999,9,C,0000,1","00750,1,9,N","005000,1,N,1","+0249,1","+0093,1","10089,1",,,,,"07,1,+00750,1,06,1",,"07,99,1,07,1,07,1,01750,1,00,1,00,1",,"01,9",,,,"99999,9,08155,1","2,1,013,1,-013,1",,"SYN100AAXX  17031 76373 32750 70000 10249 20093 38155 40089 52013 87700 90250 333 30/// 56900 59013 87625;",
"76373099999","2011-07-17T12:00:00","4","25.35","-105.75","1967.0","TEPEHUANES DGO., MX","FM-12","99999","V020","999,9,C,0000,1","22000,1,9,N","005000,1,N,1","+0158,1","+0123,1","10129,1","24,0000,9,1",,,,,,"01,99,1,01,1,02,1,00800,1,00,1,00,1","0660,9","01,9",,"120,N,+0150,1","240,M,+0340,1","99999,9,08188,1","9,9,999,9,+014,1",,"SYN130AAXX  17121 76373 32550 10000 10158 20123 38188 40129 5//// 81200 91150 333 10340 20150 30128 55110 21812 56900 58014 70000 81825;",
"76373099999","2011-07-17T15:00:00","4","25.35","-105.75","1967.0","TEPEHUANES DGO., MX","FM-12","99999","V020","999,9,C,0000,1","22000,1,9,N","020000,1,N,1","+0223,1","+0117,1","10140,1",,,,,"01,1,+00750,1,08,1",,"01,99,1,01,1,02,1,00800,1,00,1,00,1",,"01,9",,,,"99999,9,08197,1","2,1,009,1,-016,1",,"SYN100AAXX  17151 76373 32570 10000 10223 20117 38197 40140 52009 81200 91450 333 30/// 56900 59016 81825;",
"76373099999","2011-07-17T18:00:00","4","25.35","-105.75","1967.0","TEPEHUANES DGO., MX","FM-12","99999","V020","130,1,N,0010,1","22000,1,9,N","020000,1,N,1","+0285,1","+0090,1","10141,1",,,,,"02,1,+00750,1,08,1",,"02,99,1,02,1,02,1,00800,1,00,1,00,1",,"01,9",,"120,M,+0295,1","240,N,+0150,1","99999,9,08198,1","2,1,001,1,+028,1",,"SYN112AAXX  17181 76373 32570 21301 10285 20090 38198 40141 52001 82200 91745 333 10295 20150 30/// 56900 58028 82825;",
"76373099999","2011-07-18T00:00:00","4","25.35","-105.75","1967.0","TEPEHUANES DGO., MX","FM-12","99999","V020","110,1,N,0010,1","00750,1,9,N","020000,1,N,1","+0276,1","+0082,1","10119,1","24,0000,9,1",,,,,,"05,99,1,05,1,07,1,00800,1,00,1,00,1",,"01,9",,"120,M,+0323,1","180,N,+0150,1","99999,9,08180,1","7,1,010,1,+032,1",,"SYN124AAXX  18001 76373 32570 51101 10276 20082 38180 40119 57010 85700 92350 333 10323 20150 30/// 50901 56900 58032 70000 87625;",
"76373099999","2011-07-18T12:00:00","4","25.35","-105.75","1967.0","TEPEHUANES DGO., MX","FM-12","99999","V020","999,9,C,0000,1","22000,1,9,N","005000,1,N,1","+0181,1","+0139,1","10157,1","24,0000,9,1",,,,,,"02,99,1,02,1,02,1,00800,1,00,1,00,1","0540,9","01,9",,"120,N,+0170,1","240,M,+0323,1","99999,9,08210,1","9,9,999,9,+022,1",,"SYN130AAXX  18121 76373 32550 20000 10181 20139 38210 40157 5//// 82200 91150 333 10323 20170 30150 55090 21691 56900 58022 70000 82825;",
"76373099999","2011-07-18T18:00:00","4","25.35","-105.75","1967.0","TEPEHUANES DGO., MX","FM-12","99999","V020","140,1,N,0010,1","22000,1,9,N","020000,1,N,1","+0257,1","+0127,1","10166,1",,,,,"02,1,+00750,1,08,1",,"02,99,1,02,1,02,1,00800,1,00,1,00,1",,"01,9",,"120,M,+0270,1","240,N,+0170,1","99999,9,08218,1","2,1,004,1,+020,1",,"SYN112AAXX  18181 76373 32570 21401 10257 20127 38218 40166 52004 82200 91750 333 10270 20170 30/// 56900 58020 82825;",
"76373099999","2011-07-19T00:00:00","4","25.35","-105.75","1967.0","TEPEHUANES DGO., MX","FM-12","99999","V020","130,1,N,0010,1","22000,1,9,N","020000,1,N,1","+0299,1","+0112,1","10121,1","24,0000,9,1",,,,,,"04,99,1,04,1,02,1,00800,1,00,1,00,1",,"01,9",,"120,M,+0330,1","180,N,+0170,1","99999,9,08181,1","7,1,010,1,+001,1",,"SYN124AAXX  19001 76373 32570 41301 10299 20112 38181 40121 57010 84200 92350 333 10330 20170 30/// 50771 56900 58001 70000 84825;",
"76373099999","2011-07-19T12:00:00","4","25.35","-105.75","1967.0","TEPEHUANES DGO., MX","FM-12","99999","V020","999,9,C,0000,1","22000,1,9,N","005000,1,N,1","+0163,1","+0160,1","10168,1","24,0085,9,1",,,,,,"01,99,1,01,1,02,1,00800,1,00,1,00,1","0510,9","01,9",,"120,N,+0150,1","240,M,+0330,1","99999,9,08220,1","9,9,999,9,+010,1",,"SYN130AAXX  19121 76373 32550 10000 10163 20160 38220 40168 5//// 81200 91150 333 10330 20150 30130 55085 21933 56900 58010 70085 81825;",
"76373099999","2011-07-19T15:00:00","4","25.35","-105.75","1967.0","TEPEHUANES DGO., MX","FM-12","99999","V020","999,9,C,0000,1","22000,1,9,N","020000,1,N,1","+0215,1","+0164,1","10170,1",,,,,"00,1,+99999,9,99,9",,"00,99,1,00,1,00,1,99999,9,00,1,00,1",,"01,9",,,,"99999,9,08221,1","2,1,001,1,-001,1",,"SYN082AAXX  19151 76373 32970 00000 10215 20164 38221 40170 52001 91450 333 30/// 59001;",
"76373099999","2011-07-19T18:00:00","4","25.35","-105.75","1967.0","TEPEHUANES DGO., MX","FM-12","99999","V020","999,9,C,0000,1","22000,1,9,N","020000,1,N,1","+0290,1","+0138,1","10159,1",,,,,"03,1,+00750,1,08,1",,"03,99,1,03,1,02,1,00800,1,00,1,00,1",,"01,9",,"120,M,+0310,1","240,N,+0150,1","99999,9,08212,1","7,1,009,1,-006,1",,"SYN112AAXX  19181 76373 32570 30000 10290 20138 38212 40159 57009 83200 91750 333 10310 20150 30/// 56900 59006 83825;",
"76373099999","2011-07-20T12:00:00","4","25.35","-105.75","1967.0","TEPEHUANES DGO., MX","FM-12","99999","V020","999,9,C,0000,1","22000,1,9,N","005000,1,N,1","+0251,1","+0131,1","10157,1","24,0000,9,1",,,,"00,1,+99999,9,99,9",,"00,99,1,00,1,00,1,99999,9,00,1,00,1",,"01,9",,"120,N,+0150,1","240,M,+0330,1","99999,9,08210,1",,,"SYN094AAXX  20121 76373 32950 00000 10251 20131 38210 40157 5//// 91150 333 10330 20150 30130 70000;","Q01  00002PRCP24"
"76373099999","2011-07-21T00:00:00","4","25.35","-105.75","1967.0","TEPEHUANES DGO., MX","FM-12","99999","V020","310,1,N,0010,1","00750,1,9,N","020000,1,N,1","+0207,1","+0136,1","10136,1","24,0000,9,1",,,,,,"07,99,1,07,1,07,1,00800,1,00,1,00,1",,"01,9",,"120,M,+0300,1","180,N,+0150,1","99999,9,08194,1","9,9,999,9,+006,1",,"SYN124AAXX  21001 76373 32570 73101 10207 20136 38194 40136 5//// 87700 92350 333 10300 20150 30/// 50671 56900 58006 70000 87625;",
"76373099999","2011-07-21T12:00:00","4","25.35","-105.75","1967.0","TEPEHUANES DGO., MX","FM-12","99999","V020","999,9,C,0000,1","22000,1,9,N","005000,1,N,1","+0174,1","+0145,1","10155,1","24,0000,9,1",,,,"00,1,+99999,9,99,9",,"00,99,1,00,1,00,1,99999,9,00,1,00,1",,"01,9",,"120,N,+0140,1","240,M,+0300,1","99999,9,08209,1","9,9,999,9,-001,1",,"SYN100AAXX  21121 76373 32950 00000 10174 20145 38209 40155 5//// 91150 333 10300 20140 30120 59001 70000;","Q01  00002PRCP24"
"76373099999","2011-07-21T18:00:00","4","25.35","-105.75","1967.0","TEPEHUANES DGO., MX","FM-12","99999","V020","110,1,N,0010,1","22000,1,9,N","030000,1,N,1","+0282,1","+0134,1","10144,1",,,,,"02,1,+00600,1,07,1",,"04,99,1,04,1,04,1,00800,1,00,1,00,1",,"01,9",,"120,M,+0298,1","240,N,+0140,1","99999,9,08200,1","7,1,010,1,+023,1",,"SYN118AAXX  21181 76373 32580 41101 10282 20134 38200 40144 57010 84400 91755 333 10298 20140 30/// 56900 58023 82720 82825;",
"76373099999","2011-07-21T21:00:00","4","25.35","-105.75","1967.0","TEPEHUANES DGO., MX","FM-12","99999","V020","230,1,N,0020,1","00750,1,9,N","030000,1,N,1","+0250,1","+0111,1","10125,1",,,,,"02,1,+00600,1,07,1",,"06,99,1,06,1,06,1,00800,1,00,1,00,1",,"01,9",,,,"99999,9,08184,1","7,1,016,1,+038,1",,"SYN106AAXX  21211 76373 32580 62302 10250 20111 38184 40125 57016 86600 92055 333 30/// 56900 58038 82720 84725;",
"76373099999","2011-07-22T03:00:00","4","25.35","-105.75","1967.0","TEPEHUANES DGO., MX","FM-12","99999","V020","320,1,N,0010,1","00600,1,9,N","001000,1,N,1","+0220,1","+0110,1","10155,1",,,,,"06,1,+00600,1,07,1",,"08,99,1,08,1,08,1,00800,1,00,1,00,1",,"01,9",,,,"99999,9,08209,1","2,1,025,1,+005,1",,"SYN106AAXX  22031 76373 32510 83201 10220 20110 38209 40155 52025 88800 90255 333 30/// 56900 58005 86720 82925;",
"76373099999","2011-07-22T15:00:00","4","25.35","-105.75","1967.0","TEPEHUANES DGO., MX","FM-12","99999","V020","320,1,N,0010,1","00600,1,9,N","030000,1,N,1","+0190,1","+0131,1","10168,1",,,,,"05,1,+00600,1,06,1",,"08,99,1,08,1,08,1,00800,1,00,1,00,1",,"01,9",,,,"99999,9,08219,1","2,1,007,1,+009,1",,"SYN106AAXX  22151 76373 32580 83201 10190 20131 38219 40168 52007 88800 91450 333 30/// 56900 58009 85620 83825;",
"76373099999","2011-07-22T18:00:00","4","25.35","-105.75","1967.0","TEPEHUANES DGO., MX","FM-12","99999","V020","140,1,N,0010,1","00750,1,9,N","030000,1,N,1","+0276,1","+0129,1","10158,1",,,,,"04,1,+00600,1,07,1",,"06,99,1,06,1,06,1,00800,1,00,1,00,1",,"01,9",,"120,M,+0290,1","240,N,+0150,1","99999,9,08211,1","7,1,008,1,+011,1",,"SYN118AAXX  22181 76373 32580 61401 10276 20129 38211 40158 57008 86600 91755 333 10290 20150 30/// 56900 58011 84720 82825;",
"76373099999","2011-07-22T21:00:00","4","25.35","-105.75","1967.0","TEPEHUANES DGO., MX","FM-12","99999","V020","340,1,N,0010,1","00750,1,9,N","030000,1,N,1","+0288,1","+0106,1","10127,1",,,,,"04,1,+00600,1,07,1",,"06,99,1,06,1,06,1,00800,1,00,1,00,1",,"01,9",,,,"99999,9,08186,1","7,1,025,1,+002,1",,"SYN106AAXX  22211 76373 32580 63401 10288 20106 38186 40127 57025 86600 92050 333 30/// 56900 58002 84720 82625;",
"76373099999","2011-07-23T03:00:00","4","25.35","-105.75","1967.0","TEPEHUANES DGO., MX","FM-12","99999","V020","999,9,C,0000,1","00600,1,9,N","001000,1,N,1","+0176,1","+0161,1","10161,1",,,,,"06,1,+00600,1,09,1",,"08,99,1,08,1,08,1,00800,1,00,1,00,1",,"01,9",,,,"99999,9,08214,1","2,1,017,1,+005,1",,"SYN106AAXX  23031 76373 32510 80000 10176 20161 38214 40161 52017 88800 90255 333 30/// 56900 58005 86920 82725;",
"76373099999","2011-07-23T12:00:00","4","25.35","-105.75","1967.0","TEPEHUANES DGO., MX","FM-12","99999","V020","999,9,C,0000,1","01200,1,9,N","001000,1,N,1","+0164,1","+0151,1","10172,1","24,0300,9,1",,,,"02,1,+00600,1,09,1",,"08,99,1,08,1,08,1,00800,1,00,1,00,1","0270,9","01,9",,"120,N,+0148,1","240,M,+0320,1","99999,9,08222,1","9,9,999,9,+010,1",,"SYN136AAXX  23121 76373 32510 80000 10164 20151 38222 40172 5//// 88800 91155 333 10320 20148 30130 55045 21046 56900 58010 70300 82920 86725;",
"76373099999","2011-07-23T15:00:00","4","25.35","-105.75","1967.0","TEPEHUANES DGO., MX","FM-12","99999","V020","999,9,C,0000,1","22000,1,9,N","030000,1,N,1","+0208,1","+0148,1","10184,1",,,,,"01,1,+00600,1,07,1",,"04,99,1,04,1,04,1,00800,1,00,1,00,1",,"01,9",,,,"99999,9,08233,1","2,1,011,1,+014,1",,"SYN106AAXX  23151 76373 32580 40000 10208 20148 38233 40184 52011 84400 91455 333 30/// 56900 58014 81720 83825;",
"76373099999","2011-07-23T18:00:00","4","25.35","-105.75","1967.0","TEPEHUANES DGO., MX","FM-12","99999","V020","999,9,C,0000,1","22000,1,9,N","030000,1,N,1","+0264,1","+0132,1","10172,1",,,,,"03,1,+00600,1,08,1",,"03,99,1,03,1,03,1,00800,1,00,1,00,1",,"01,9",,"120,M,+0270,1","240,N,+0148,1","99999,9,08223,1","7,1,010,1,+012,1",,"SYN112AAXX  23181 76373 32580 30000 10264 20132 38223 40172 57010 83300 91755 333 10270 20148 30/// 56900 58012 83820;",
"76373099999","2011-07-24T00:00:00","4","25.35","-105.75","1967.0","TEPEHUANES DGO., MX","FM-12","99999","V020","999,9,C,0000,1","00750,1,9,N","020000,1,N,1","+0253,1","+0127,1","10145,1","24,0040,9,1",,,,,,"06,99,1,06,1,07,1,00800,1,00,1,00,1",,"01,9",,"120,M,+0290,1","180,N,+0148,1","99999,9,08200,1","7,1,016,1,+003,1",,"SYN124AAXX  24001 76373 32570 60000 10253 20127 38200 40145 57016 86700 92350 333 10290 20148 30/// 50591 56900 58003 70040 86625;",
"76373099999","2011-07-24T03:00:00","4","25.35","-105.75","1967.0","TEPEHUANES DGO., MX","FM-12","99999","V020","999,9,C,0000,1","00750,1,9,N","005000,1,N,1","+0203,1","+0140,1","10180,1",,,,,"07,1,+00750,1,06,1",,"07,99,1,07,1,07,1,00800,1,00,1,00,1",,"01,9",,,,"99999,9,08229,1","2,1,029,1,+015,1",,"SYN100AAXX  24031 76373 32550 70000 10203 20140 38229 40180 52029 87700 90250 333 30/// 56900 58015 87625;",
"76373099999","2011-07-24T12:00:00","4","25.35","-105.75","1967.0","TEPEHUANES DGO., MX","FM-12","99999","V020","130,1,N,0010,1","22000,1,9,N","005000,1,N,1","+0171,1","+0140,1","10201,1","24,0040,9,1",,,,,,"02,99,1,02,1,05,1,00800,1,00,1,00,1","0462,9","01,9",,"120,N,+0160,1","240,M,+0290,1","99999,9,08146,1","9,9,999,9,+026,1",,"SYN130AAXX  24121 76373 32550 21301 10171 20140 38146 40201 5//// 82500 91150 333 10290 20160 30148 55077 21756 56900 58026 70040 82625;",
"76373099999","2011-07-24T15:00:00","4","25.35","-105.75","1967.0","TEPEHUANES DGO., MX","FM-12","99999","V020","999,9,C,0000,1","22000,1,9,N","020000,1,N,1","+0216,1","+0134,1","10215,1",,,,,"04,1,+00750,1,06,1",,"04,99,1,04,1,05,1,00800,1,00,1,00,1",,"01,9",,,,,"2,1,011,1,+024,1",,"SYN100AAXX  24151 76373 32570 40000 10216 20134 38257 40215 52011 84500 91450 333 30/// 56900 58024 84625;","Q01+082573APOSP "
"76373099999","2011-07-24T18:00:00","4","25.35","-105.75","1967.0","TEPEHUANES DGO., MX","FM-12","99999","V020","110,1,N,0010,1","22000,1,9,N","020000,1,N,1","+0255,1","+0130,1","10199,1",,,,,"03,1,+00750,1,08,1",,"03,99,1,03,1,02,1,00800,1,00,1,00,1",,"01,9",,"120,M,+0270,1","240,N,+0160,1","99999,9,08245,1","7,1,012,1,+025,1",,"SYN112AAXX  24181 76373 32570 31101 10255 20130 38245 40199 57012 83200 91750 333 10270 20160 30/// 56900 58025 83825;",
"76373099999","2011-07-24T21:00:00","4","25.35","-105.75","1967.0","TEPEHUANES DGO., MX","FM-12","99999","V020","130,1,N,0010,1","00750,1,C,N","020000,1,N,1","+0271,1","+0106,1","10177,1",,,,,"03,1,+00750,1,08,1",,"06,99,1,06,1,05,1,00800,1,00,1,00,1",,"01,9",,,,"99999,9,08226,1","7,1,019,1,+010,1",,"SYN106AAXX  24211 76373 32570 61301 10271 20106 38226 40177 57019 86500 92050 333 30/// 56900 58010 83825 83650;",
"76373099999","2011-07-25T00:00:00","4","25.35","-105.75","1967.0","TEPEHUANES DGO., MX","FM-12","99999","V020","999,9,C,0000,1","00750,1,9,N","020000,1,N,1","+0251,1","+0119,1","10167,1","24,0000,9,1",,,,,,"06,99,1,06,1,05,1,00800,1,00,1,00,1",,"01,9",,"120,M,+0310,1","180,N,+0160,1",,"7,1,008,1,+018,1",,"SYN124AAXX  25001 76373 32570 60000 10251 20119 38118 40167 57008 86500 92350 333 10310 20160 30/// 50651 56900 58018 70000 86725;","Q01+081183APOSP "
"76373099999","2011-07-25T03:00:00","4","25.35","-105.75","1967.0","TEPEHUANES DGO., MX","FM-12","99999","V020","999,9,C,0000,1","00750,1,9,N","005000,1,N,1","+0212,1","+0125,1","10185,1",,,,,"08,1,+00750,1,06,1",,"08,99,1,08,1,07,1,00800,1,00,1,00,1",,"01,9",,,,"99999,9,08233,1","2,1,015,1,+004,1",,"SYN100AAXX  25031 76373 32550 80000 10212 20125 38233 40185 52015 88700 90250 333 30/// 56900 58004 88625;",
"76373099999","2011-07-25T12:00:00","4","25.35","-105.75","1967.0","TEPEHUANES DGO., MX","FM-12","99999","V020","999,9,C,0000,1","22000,1,9,N","005000,1,N,1","+0150,1","+0132,1","10188,1",,,,,"00,1,+99999,9,99,9",,"00,99,1,00,1,00,1,99999,9,00,1,00,1","0414,9","01,9",,"120,N,+0140,1","240,M,+0310,1","99999,9,08236,1","9,9,999,9,-010,1",,"SYN112AAXX  25121 76373 32950 00000 10150 20132 38236 40188 5//// 91150 333 10310 20140 30130 55069 21796 59010 70000;",
"76373099999","2011-07-25T15:00:00","4","25.35","-105.75","1967.0","TEPEHUANES DGO., MX","FM-12","99999","V020","999,9,C,0000,1","22000,1,9,N","020000,1,N,1","+0227,1","+0137,1","10196,1",,,,,"00,1,+99999,9,99,9",,"00,99,1,00,1,00,1,99999,9,00,1,00,1",,"01,9",,,,"99999,9,08242,1","2,1,006,1,-015,1",,"SYN082AAXX  25151 76373 32970 00000 10227 20137 38242 40196 52006 91450 333 30/// 59015;",
"76373099999","2011-07-25T18:00:00","4","25.35","-105.75","1967.0","TEPEHUANES DGO., MX","FM-12","99999","V020","999,9,C,0000,1","22000,1,9,N","020000,1,N,1","+0281,1","+0139,1","10173,1",,,,,"01,1,+00750,1,08,1",,"01,99,1,01,1,02,1,00800,1,00,1,00,1",,"01,9",,"120,M,+0295,1","240,N,+0140,1","99999,9,08224,1","7,1,020,1,-021,1",,"SYN112AAXX  25181 76373 32570 10000 10281 20139 38224 40173 57020 81200 91750 333 10295 20140 30/// 56900 59021 81825;",
"76373099999","2011-07-25T21:00:00","4","25.35","-105.75","1967.0","TEPEHUANES DGO., MX","FM-12","99999","V020","130,1,N,0020,1","00750,1,9,N","020000,1,N,1","+0266,1","+0119,1","10155,1",,,,,"05,1,+00750,1,07,1",,"07,99,1,05,1,07,1,00800,1,00,1,00,1",,"01,9",,,,"99999,9,08208,1","7,1,016,1,-018,1",,"SYN100AAXX  25211 76373 32570 71302 10266 20119 38208 40155 57016 85700 92050 333 30/// 56900 59018 85725;",
"76373099999","2011-07-26T00:00:00","4","25.35","-105.75","1967.0","TEPEHUANES DGO., MX","FM-12","99999","V020","140,1,N,0010,1","00750,1,9,N","020000,1,N,1","+0280,1","+0086,1","10134,1","24,0000,9,1",,,,,,"06,99,1,06,1,07,1,00800,1,00,1,00,1",,"01,9",,"120,M,+0316,1","180,N,+0140,1","99999,9,08192,1","7,1,016,1,-016,1",,"SYN124AAXX  26001 76373 32570 61401 10280 20086 38192 40134 57016 86700 92350 333 10316 20140 30/// 50631 56900 59016 70000 86725;",
"76373099999","2011-07-26T15:00:00","4","25.35","-105.75","1967.0","TEPEHUANES DGO., MX","FM-12","99999","V020","999,9,C,0000,1","22000,1,9,N","020000,1,N,1","+0209,1","+0128,1","10163,1",,,,,"00,1,+99999,9,99,9",,"00,99,1,00,1,00,1,99999,9,00,1,00,1",,"01,9",,,,"99999,9,08216,1","2,1,012,1,-026,1",,"SYN082AAXX  26151 76373 32970 00000 10209 20128 38216 40163 52012 91450 333 30/// 59026;",
"76373099999","2011-07-26T18:00:00","4","25.35","-105.75","1967.0","TEPEHUANES DGO., MX","FM-12","99999","V020","999,9,C,0000,1","22000,1,9,N","020000,1,N,1","+0285,1","+0104,1","10147,1",,,,,"02,1,+00810,1,08,1",,"02,99,1,02,1,02,1,01250,1,00,1,00,1",,"01,9",,"120,M,+0306,1","240,N,+0130,1","99999,9,08202,1","7,1,014,1,-022,1",,"SYN112AAXX  26181 76373 32670 20000 10285 20104 38202 40147 57014 82200 91750 333 10306 20130 30/// 56900 59022 82827;",
"76373099999","2011-07-26T21:00:00","4","25.35","-105.75","1967.0","TEPEHUANES DGO., MX","FM-12","99999","V020","140,1,N,0010,1","22000,1,9,N","020000,1,N,1","+0322,1","+0106,1","10117,1",,,,,"03,1,+00810,1,08,1",,"03,99,1,03,1,02,1,01250,1,00,1,00,1",,"01,9",,,,"99999,9,08178,1","7,1,024,1,-030,1",,"SYN100AAXX  26211 76373 32670 31401 10322 20106 38178 40117 57024 83200 92050 333 30/// 56900 59030 83827;",
"76373099999","2011-07-27T00:00:00","4","25.35","-105.75","1967.0","TEPEHUANES DGO., MX","FM-12","99999","V020","280,1,N,0030,1","22000,1,9,N","020000,1,N,1","+0269,1","+0109,1","10107,1","24,0000,9,1",,,,"01,1,+00750,1,06,1",,"03,99,1,03,1,02,1,01250,1,00,1,00,1",,"01,9",,"120,M,+0344,1","180,N,+0130,1","99999,9,08170,1","7,1,008,1,-022,1",,"SYN130AAXX  27001 76373 32670 32803 10269 20109 38170 40107 57008 83200 92350 333 10344 20130 30/// 50811 56900 59022 70000 81625 82827;",
"76373099999","2011-07-27T03:00:00","4","25.35","-105.75","1967.0","TEPEHUANES DGO., MX","FM-12","99999","V020","240,1,N,0010,1","22000,1,9,N","001000,1,N,1","+0214,1","+0128,1","10137,1",,,,,"01,1,+00750,1,06,1",,"03,99,1,03,1,02,1,01250,1,00,1,00,1",,"01,9",,,,"99999,9,08194,1","2,1,024,1,+999,9",,"SYN106AAXX  27031 76373 32610 32401 10214 20128 38194 40137 52024 83200 90250 333 30/// 56900 58/// 81625 82827;",
"76373099999","2011-07-27T12:00:00","4","25.35","-105.75","1967.0","TEPEHUANES DGO., MX","FM-12","99999","V020","999,9,C,0000,1","22000,1,9,N","000600,1,N,1","+0141,1","+0122,1","10142,1",,,,,"00,1,+99999,9,99,9",,"00,99,1,00,1,00,1,99999,9,00,1,00,1","0666,9","01,9",,"120,N,+0130,1","240,M,+0344,1","99999,9,08198,1","9,9,999,9,-006,1",,"SYN112AAXX  27121 76373 32906 00000 10141 20122 38198 40142 5//// 91150 333 10344 20130 30106 55111 22327 59006 70000;",
"76373099999","2011-07-27T15:00:00","4","25.35","-105.75","1967.0","TEPEHUANES DGO., MX","FM-12","99999","V020","999,9,C,0000,1","22000,1,9,N","020000,1,N,1","+0212,1","+0130,1","10157,1",,,,,"00,1,+99999,9,99,9",,"00,99,1,00,1,00,1,99999,9,00,1,00,1",,"01,9",,,,"99999,9,08210,1","2,1,012,1,-006,1",,"SYN082AAXX  27151 76373 32970 00000 10212 20130 38210 40157 52012 91450 333 30/// 59006;",
"76373099999","2011-07-27T18:00:00","4","25.35","-105.75","1967.0","TEPEHUANES DGO., MX","FM-12","99999","V020","130,1,N,0010,1","22000,1,9,N","020000,1,N,1","+0277,1","+0136,1","10143,1",,,,,"01,1,+00810,1,08,1",,"01,99,1,01,1,02,1,01750,1,00,1,00,1",,"01,9",,"120,M,+0298,1","240,N,+0130,1","99999,9,08199,1","7,1,011,1,-003,1",,"SYN112AAXX  27181 76373 32770 11301 10277 20136 38199 40143 57011 81200 91750 333 10298 20130 30/// 56900 59003 81827;",
"76373099999","2011-07-27T21:00:00","4","25.35","-105.75","1967.0","TEPEHUANES DGO., MX","FM-12","99999","V020","120,1,N,0010,1","22000,1,9,N","020000,1,N,1","+0321,1","+0119,1","10113,1",,,,,"02,1,+00750,1,06,1",,"03,99,1,03,1,04,1,00800,1,00,1,00,1",,"01,9",,,,"99999,9,08175,1","7,1,028,1,-003,1",,"SYN106AAXX  27211 76373 32570 31201 10321 20119 38175 40113 57028 83400 92050 333 30/// 56900 59003 82625 81827;",
"76373099999","2011-07-28T00:00:00","4","25.35","-105.75","1967.0","TEPEHUANES DGO., MX","FM-12","99999","V020","170,1,N,0020,1","00750,1,9,N","020000,1,N,1","+0286,1","+0124,1","10093,1","24,0000,9,1",,,,"05,1,+00750,1,07,1",,"07,99,1,07,1,07,1,00800,1,00,1,00,1",,"01,9",,"120,M,+0343,1","180,N,+0130,1","99999,9,08159,1","7,1,016,1,-019,1",,"SYN130AAXX  28001 76373 32570 71702 10286 20124 38159 40093 57016 87700 92350 333 10343 20130 30/// 50761 56900 59019 70000 85725 82625;",
"76373099999","2011-07-28T03:00:00","4","25.35","-105.75","1967.0","TEPEHUANES DGO., MX","FM-12","99999","V020","320,1,N,0020,1","00600,1,9,N","000600,1,N,1","+0190,1","+0147,1","10142,1","03,0040,9,1",,"5,1,03,1","2,1,03,1","08,1,+00600,1,09,1",,"08,99,1,08,1,09,1,00800,1,00,1,00,1",,"09,9",,,,"99999,9,08199,1","2,1,040,1,+005,1","15,1","SYN112AAXX  28031 76373 21506 83202 10190 20147 38199 40142 52040 71552 88900 90250 333 31/// 56900 58005 60047 88920;",
"76373099999","2011-07-28T12:00:00","4","25.35","-105.75","1967.0","TEPEHUANES DGO., MX","FM-12","99999","V020","999,9,C,0000,1","22000,1,9,N","001000,1,N,1","+0144,1","+0137,1","10146,1","24,0105,9,1",,,,,,"01,99,1,00,1,00,1,99999,9,00,1,04,1","0630,9","01,9",,"120,N,+0131,1","240,M,+0343,1","99999,9,08201,1","9,9,999,9,+003,1",,"SYN130AAXX  28121 76373 32910 10000 10144 20137 38201 40146 5//// 80004 91150 333 10343 20131 30120 55105 22424 56009 58003 70105 81067;",
"76373099999","2011-07-28T15:00:00","4","25.35","-105.75","1967.0","TEPEHUANES DGO., MX","FM-12","99999","V020","999,9,C,0000,1","22000,1,9,N","020000,1,N,1","+0210,1","+0142,1","10157,1",,,,,"00,1,+99999,9,99,9",,"00,99,1,00,1,00,1,99999,9,00,1,00,1",,"01,9",,,,"99999,9,08211,1","2,1,010,1,+001,1",,"SYN082AAXX  28151 76373 32970 00000 10210 20142 38211 40157 52010 91450 333 30/// 58001;",
"76373099999","2011-07-28T18:00:00","4","25.35","-105.75","1967.0","TEPEHUANES DGO., MX","FM-12","99999","V020","290,1,N,0010,1","22000,1,9,N","030000,1,N,1","+0264,1","+0147,1","10145,1",,,,,"01,1,+00750,1,08,1",,"01,99,1,01,1,01,1,00800,1,00,1,00,1",,"01,9",,"120,M,+0280,1","240,N,+0131,1","99999,9,08201,1","7,1,011,1,+002,1",,"SYN112AAXX  28181 76373 32580 12901 10264 20147 38201 40145 57011 81100 91755 333 10280 20131 30/// 56900 58002 81825;",
"76373099999","2011-07-28T21:00:00","4","25.35","-105.75","1967.0","TEPEHUANES DGO., MX","FM-12","99999","V020","140,1,N,0020,1","22000,1,9,N","030000,1,N,1","+0300,1","+0127,1","10125,1",,,,,"01,1,+00600,1,06,1",,"03,99,1,03,1,03,1,00800,1,00,1,00,1",,"01,9",,,,"99999,9,08185,1","7,1,016,1,+010,1",,"SYN106AAXX  28211 76373 32580 31402 10300 20127 38185 40125 57016 83300 92055 333 30/// 56900 58010 81620 82825;",
"76373099999","2011-07-29T00:00:00","4","25.35","-105.75","1967.0","TEPEHUANES DGO., MX","FM-12","99999","V020","230,1,N,0020,1","00750,1,9,N","030000,1,N,1","+0262,1","+0099,1","10120,1","24,0105,9,1",,,,"02,1,+00600,1,07,1",,"05,99,1,05,1,05,1,00800,1,00,1,00,1",,"01,9",,"120,M,+0330,1","180,N,+0131,1","99999,9,08181,1","5,1,004,1,+022,1",,"SYN130AAXX  29001 76373 32580 52302 10262 20099 38181 40120 55004 85500 92355 333 10330 20131 30/// 50971 56900 58022 70105 82720 83625;",
"76373099999","2011-07-29T03:00:00","4","25.35","-105.75","1967.0","TEPEHUANES DGO., MX","FM-12","99999","V020","340,1,N,0010,1","00600,1,9,N","001000,1,N,1","+0166,1","+0137,1","10179,1","03,0020,9,1",,"5,1,03,1","1,1,03,1","08,1,+00600,1,09,1",,"08,99,1,08,1,08,1,00800,1,00,1,00,1",,"09,9",,,,"99999,9,08228,1","2,1,047,1,+029,1","50,1","SYN112AAXX  29031 76373 21510 83401 10166 20137 38228 40179 52047 75051 88800 90255 333 31/// 56900 58029 60027 88920;",
"76373099999","2011-07-29T12:00:00","4","25.35","-105.75","1967.0","TEPEHUANES DGO., MX","FM-12","99999","V020","290,1,N,0010,1","22000,1,9,N","001000,1,N,1","+0142,1","+0129,1","10150,1","24,0050,9,1",,,,"02,1,+00600,1,07,1",,"04,99,1,04,1,04,1,00800,1,00,1,00,1","0612,9","01,9",,"120,N,+0130,1","240,M,+0330,1","99999,9,08105,1","9,9,999,9,+004,1",,"SYN136AAXX  29121 76373 32510 42901 10142 20129 38105 40150 5//// 84400 91155 333 10330 20130 30118 55102 22376 56900 58004 70050 82720 82625;",
"76373099999","2011-07-29T18:00:00","4","25.35","-105.75","1967.0","TEPEHUANES DGO., MX","FM-12","99999","V020","140,1,N,0010,1","22000,1,9,N","030000,1,N,1","+0258,1","+0146,1","10162,1",,,,,"02,1,+00600,1,08,1","01,1,+01050,1,03,1","04,99,1,04,1,02,1,00800,1,01,1,01,1",,"01,9",,"120,M,+0274,1","240,N,+0130,1",,"4,1,000,1,+013,1",,"SYN124AAXX  29181 76373 32580 41401 10258 20146 38214 40162 54000 84211 91755 333 10274 20130 30/// 56999 58013 82820 81335 81067;","Q01+082143APOSP "
"76373099999","2011-07-29T21:00:00","4","25.35","-105.75","1967.0","TEPEHUANES DGO., MX","FM-12","99999","V020","140,1,N,0030,1","00750,1,9,N","030000,1,N,1","+0292,1","+0121,1","10129,1",,,,,"02,1,+00600,1,07,1",,"06,99,1,06,1,06,1,00800,1,00,1,00,1",,"01,9",,,,"99999,9,08188,1","7,1,026,1,+003,1",,"SYN106AAXX  29211 76373 32580 61403 10292 20121 38188 40129 57026 86600 92055 333 30/// 56900 58003 82720 82625;",
"76373099999","2011-07-30T00:00:00","4","25.35","-105.75","1967.0","TEPEHUANES DGO., MX","FM-12","99999","V020","140,1,N,0010,1","00750,1,9,N","030000,1,N,1","+0260,1","+0116,1","10123,1","24,0050,9,1",,,,"02,1,+00600,1,07,1","04,1,+00750,1,06,1","07,99,1,07,1,07,1,00800,1,00,1,00,1",,"01,9",,"120,M,+0322,1","180,N,+0130,1","99999,9,08183,1","5,1,005,1,+002,1",,"SYN136AAXX  30001 76373 32580 71401 10260 20116 38183 40123 55005 87700 92355 333 10322 20130 30/// 50771 56900 58002 70050 82720 84625 81337;",
"76373099999","2011-07-30T03:00:00","4","25.35","-105.75","1967.0","TEPEHUANES DGO., MX","FM-12","99999","V020","290,1,N,0010,1","00750,1,9,N","001000,1,N,1","+0202,1","+0136,1","10144,1",,,,,"04,1,+00600,1,07,1",,"07,99,1,07,1,07,1,00800,1,00,1,00,1",,"01,9",,,,"99999,9,08200,1","2,1,017,1,-028,1",,"SYN106AAXX  30031 76373 32510 72901 10202 20136 38200 40144 52017 87700 90255 333 30/// 56900 59028 84720 83625;",
"76373099999","2011-07-30T12:00:00","4","25.35","-105.75","1967.0","TEPEHUANES DGO., MX","FM-12","99999","V020","999,9,C,0000,1","00750,1,9,N","001000,1,N,1","+0168,1","+0139,1","10159,1","24,0000,9,1",,,,"04,1,+00600,1,07,1",,"06,99,1,06,1,06,1,00800,1,00,1,00,1","0480,9","01,9",,"120,N,+0160,1","240,M,+0322,1","99999,9,08212,1","9,9,999,9,+007,1",,"SYN136AAXX  30121 76373 32510 60000 10168 20139 38212 40159 5//// 86600 91155 333 10322 20160 30140 55080 21933 56900 58007 70000 84720 82625;",
"76373099999","2011-07-30T15:00:00","4","25.35","-105.75","1967.0","TEPEHUANES DGO., MX","FM-12","99999","V020","999,9,C,0000,1","22000,1,9,N","030000,1,N,1","+0230,1","+0125,1","10168,1",,,,,"02,1,+00750,1,08,1",,"03,99,1,03,1,02,1,00800,1,01,1,00,1",,"01,9",,,,"99999,9,08220,1","2,1,008,1,+006,1",,"SYN106AAXX  30151 76373 32580 30000 10230 20125 38220 40168 52008 83210 91455 333 30/// 56990 58006 82825 81337;",
"76373099999","2011-07-30T18:00:00","4","25.35","-105.75","1967.0","TEPEHUANES DGO., MX","FM-12","99999","V020","140,1,N,0020,1","22000,1,9,N","030000,1,N,1","+0286,1","+0123,1","10166,1",,,,,"02,1,+00750,1,08,1",,"02,99,1,02,1,02,1,00800,1,00,1,00,1",,"01,9",,"120,M,+0300,1","240,N,+0160,1","99999,9,08218,1","5,1,002,1,+004,1",,"SYN112AAXX  30181 76373 32580 21402 10286 20123 38218 40166 55002 82200 91755 333 10300 20160 30/// 56900 58004 82825;",
"76373099999","2011-07-30T21:00:00","4","25.35","-105.75","1967.0","TEPEHUANES DGO., MX","FM-12","99999","V020","130,1,N,0010,1","22000,1,9,N","020000,1,N,1","+0298,1","+0091,1","10137,1",,,,,"04,1,+00750,1,08,1",,"04,99,1,04,1,03,1,00800,1,00,1,00,1",,"01,9",,,,"99999,9,08194,1","7,1,022,1,+006,1",,"SYN100AAXX  30211 76373 32570 41301 10298 20091 38194 40137 57022 84300 92050 333 30/// 56900 58006 84825;",
"76373099999","2011-07-31T00:00:00","4","25.35","-105.75","1967.0","TEPEHUANES DGO., MX","FM-12","99999","V020","050,1,N,0010,1","22000,1,9,N","020000,1,N,1","+0291,1","+0091,1","10119,1","24,0000,9,1",,,,,,"04,99,1,04,1,03,1,00800,1,00,1,00,1",,"01,9",,"120,M,+0338,1","180,N,+0160,1","99999,9,08180,1","7,1,014,1,-003,1",,"SYN124AAXX  31001 76373 32570 40501 10291 20091 38180 40119 57014 84300 92350 333 10338 20160 30/// 50721 56900 59003 70000 84825;",
"76373099999","2011-07-31T12:00:00","4","25.35","-105.75","1967.0","TEPEHUANES DGO., MX","FM-12","99999","V020","999,9,C,0000,1","22000,1,9,N","005000,1,N,1","+0158,1","+0125,1","10169,1","24,0000,9,1",,,,,,"01,99,1,01,1,02,1,00800,1,00,1,00,1","0684,9","01,9",,"120,N,+0148,1","240,M,+0338,1","99999,9,08220,1","9,9,999,9,+008,1",,"SYN130AAXX  31121 76373 32550 10000 10158 20125 38220 40169 5//// 81200 91150 333 10338 20148 30130 55114 22416 56900 58008 70000 81825;",
"76373099999","2011-07-31T15:00:00","4","25.35","-105.75","1967.0","TEPEHUANES DGO., MX","FM-12","99999","V020","999,9,C,0000,1","22000,1,9,N","020000,1,N,1","+0205,1","+0133,1","10185,1",,,,,"03,1,+00750,1,08,1",,"03,99,1,03,1,02,1,00800,1,00,1,00,1",,"01,9",,,,"99999,9,08233,1","2,1,013,1,+013,1",,"SYN100AAXX  31151 76373 32570 30000 10205 20133 38233 40185 52013 83200 91450 333 30/// 56900 58013 83825;",
"76373099999","2011-07-31T18:00:00","4","25.35","-105.75","1967.0","TEPEHUANES DGO., MX","FM-12","99999","V020","130,1,N,0020,1","22000,1,9,N","020000,1,N,1","+0280,1","+0125,1","10175,1",,,,,"03,1,+00750,1,08,1",,"03,99,1,03,1,02,1,00800,1,00,1,00,1",,"01,9",,"120,M,+0300,1","240,N,+0148,1","99999,9,08225,1","7,1,008,1,+007,1",,"SYN112AAXX  31181 76373 32570 31302 10280 20125 38225 40175 57008 83200 91750 333 10300 20148 30/// 56900 58007 83825;",
"76373099999","2011-07-31T21:00:00","4","25.35","-105.75","1967.0","TEPEHUANES DGO., MX","FM-12","99999","V020","130,1,N,0020,1","22000,1,9,N","020000,1,N,1","+0308,1","+0110,1","10159,1",,,,,"04,1,+00750,1,08,1",,"04,99,1,04,1,02,1,00800,1,00,1,00,1",,"01,9",,,,"99999,9,08212,1","7,1,013,1,+016,1",,"SYN100AAXX  31211 76373 32570 41302 10308 20110 38212 40159 57013 84200 92050 333 30/// 56900 58016 84825;",
"76373099999","2011-08-01T00:00:00","4","25.35","-105.75","1967.0","TEPEHUANES DGO., MX","FM-12","99999","V020","360,1,N,0010,1","22000,1,9,N","020000,1,N,1","+0303,1","+0104,1","10135,1","24,0000,9,1",,,,,,"04,99,1,04,1,02,1,00800,1,00,1,00,1",,"01,9",,"120,M,+0330,1","180,N,+0148,1","99999,9,08193,1","7,1,019,1,+013,1",,"SYN124AAXX  01001 76373 32570 43601 10303 20104 38193 40135 57019 84200 92350 333 10330 20148 30/// 50901 56900 58013 70000 84825;",
"76373099999","2011-08-01T03:00:00","4","25.35","-105.75","1967.0","TEPEHUANES DGO., MX","FM-12","99999","V020","999,9,C,0000,1","22000,1,9,N","005000,1,N,1","+0253,1","+0095,1","10151,1",,,,,"00,1,+99999,9,99,9",,"00,99,1,00,1,00,1,99999,9,00,1,00,1",,"01,9",,,,"99999,9,08206,1","2,1,013,1,+010,1",,"SYN082AAXX  01031 76373 32950 00000 10253 20095 38206 40151 52013 90250 333 30/// 58010;",
"76373099999","2011-08-01T15:00:00","4","25.35","-105.75","1967.0","TEPEHUANES DGO., MX","FM-12","99999","V020","999,9,C,0000,1","22000,1,9,N","020000,1,N,1","+0204,1","+0119,1","10193,1",,,,,"00,1,+99999,9,99,9",,"00,99,1,00,1,00,1,99999,9,00,1,00,1",,"01,9",,,,"99999,9,08240,1","7,1,005,1,+007,1",,"SYN082AAXX  01151 76373 32970 00000 10204 20119 38240 40193 57005 91445 333 30/// 58007;",
"76373099999","2011-08-01T18:00:00","4","25.35","-105.75","1967.0","TEPEHUANES DGO., MX","FM-12","99999","V020","130,1,N,0020,1","22000,1,9,N","020000,1,N,1","+0291,1","+0112,1","10178,1",,,,,"01,1,+00750,1,08,1",,"01,99,1,01,1,02,1,00800,1,00,1,00,1",,"01,9",,"120,M,+0305,1","240,N,+0133,1","99999,9,08228,1","7,1,012,1,+003,1",,"SYN112AAXX  01181 76373 32570 11302 10291 20112 38228 40178 57012 81200 91750 333 10305 20133 30/// 56900 58003 81825;",
"76373099999","2011-08-01T21:00:00","4","25.35","-105.75","1967.0","TEPEHUANES DGO., MX","FM-12","99999","V020","130,1,N,0010,1","22000,1,9,N","020000,1,N,1","+0318,1","+0092,1","10158,1",,,,,"03,1,+00750,1,08,1",,"03,99,1,03,1,02,1,00800,1,00,1,00,1",,"01,9",,,,"99999,9,08211,1","7,1,017,1,-001,1",,"SYN100AAXX  01211 76373 32570 31301 10318 20092 38211 40158 57017 83200 92050 333 30/// 56900 59001 83825;",
"76373099999","2011-08-02T00:00:00","4","25.35","-105.75","1967.0","TEPEHUANES DGO., MX","FM-12","99999","V020","070,1,N,0010,1","22000,1,9,N","020000,1,N,1","+0310,1","+0080,1","10144,1","24,0000,9,1",,,,,,"04,99,1,04,1,02,1,00800,1,00,1,00,1",,"01,9",,"120,M,+0340,1","180,N,+0133,1","99999,9,08200,1","7,1,011,1,+007,1",,"SYN124AAXX  02001 76373 32570 40701 10310 20080 38200 40144 57011 84200 92350 333 10340 20133 30/// 50801 56900 58007 70000 84825;",
"76373099999","2011-08-02T12:00:00","4","25.35","-105.75","1967.0","TEPEHUANES DGO., MX","FM-12","99999","V020","999,9,C,0000,1","22000,1,9,N","001000,1,N,1","+0131,1","+0088,1","10167,1",,,,,"00,1,+99999,9,99,9",,"00,99,1,00,1,00,1,99999,9,00,1,00,1","0714,9","01,9",,"120,N,+0120,1","240,M,+0340,1","99999,9,08218,1","9,9,999,9,-017,1",,"SYN112AAXX  02121 76373 32910 00000 10131 20088 38218 40167 5//// 91150 333 10340 20120 30098 55119 22456 59017 70000;",
"76373099999","2011-08-02T15:00:00","4","25.35","-105.75","1967.0","TEPEHUANES DGO., MX","FM-12","99999","V020","999,9,C,0000,1","22000,1,9,N","020000,1,N,1","+0229,1","+0097,1","10175,1",,,,,"00,1,+99999,9,99,9",,"00,99,1,00,1,00,1,99999,9,00,1,00,1",,"01,9",,,,"99999,9,08225,1","2,1,007,1,-015,1",,"SYN082AAXX  02151 76373 32970 00000 10229 20097 38225 40175 52007 91450 333 30/// 59015;",
"76373099999","2011-08-02T18:00:00","4","25.35","-105.75","1967.0","TEPEHUANES DGO., MX","FM-12","99999","V020","070,1,N,0020,1","22000,1,9,N","020000,1,N,1","+0307,1","+0061,1","10160,1",,,,,"01,1,+00810,1,08,1",,"01,99,1,01,1,01,1,01250,1,00,1,00,1",,"01,9",,"120,M,+0322,1","240,N,+0120,1","99999,9,08213,1","7,1,012,1,-015,1",,"SYN112AAXX  02181 76373 32670 10702 10307 20061 38213 40160 57012 81100 91750 333 10322 20120 30/// 56900 59015 81827;",
"76373099999","2011-08-02T21:00:00","4","25.35","-105.75","1967.0","TEPEHUANES DGO., MX","FM-12","99999","V020","060,1,N,0010,1","22000,1,9,N","020000,1,N,1","+0337,1","+0044,1","10137,1",,,,,"01,1,+00810,1,08,1",,"01,99,1,01,1,02,1,01250,1,00,1,00,1",,"01,9",,,,"99999,9,08195,1","7,1,011,1,-016,1",,"SYN100AAXX  02211 76373 32670 10601 10337 20044 38195 40137 57011 81200 92050 333 30/// 56900 59016 81827;",
"76373099999","2011-08-03T00:00:00","4","25.35","-105.75","1967.0","TEPEHUANES DGO., MX","FM-12","99999","V020","050,1,N,0020,1","22000,1,9,N","020000,1,N,1","+0335,1","+0033,1","10127,1","24,0000,9,1",,,,,,"02,99,1,02,1,02,1,01250,1,00,1,00,1",,"01,9",,"120,M,+0336,1","180,N,+0120,1","99999,9,08186,1","7,1,009,1,-014,1",,"SYN124AAXX  03001 76373 32670 20502 10335 20033 38186 40127 57009 82200 92350 333 10336 20120 30/// 50991 56900 59014 70000 82827;",
"76373099999","2011-08-03T03:00:00","4","25.35","-105.75","1967.0","TEPEHUANES DGO., MX","FM-12","99999","V020","040,1,N,0010,1","22000,1,9,N","000600,1,N,1","+0270,1","+0040,1","10135,1",,,,,"02,1,+00750,1,06,1",,"02,99,1,02,1,05,1,00800,1,00,1,00,1",,"01,9",,,,"99999,9,08193,1","2,1,007,1,+999,9",,"SYN100AAXX  03031 76373 32506 20401 10270 20040 38193 40135 52007 82500 90240 333 30/// 56900 58/// 82625;",
"76373099999","2011-08-03T12:00:00","4","25.35","-105.75","1967.0","TEPEHUANES DGO., MX","FM-12","99999","V020","999,9,C,0000,1","22000,1,9,N","001000,1,N,1","+0134,1","+0077,1","10146,1",,,,,"00,1,+99999,9,99,9",,"00,99,1,00,1,00,1,99999,9,00,1,00,1","0738,9","01,9",,"120,N,+0120,1","240,M,+0356,1","99999,9,08201,1","9,9,999,9,-017,1",,"SYN112AAXX  03121 76373 32910 00000 10134 20077 38201 40146 5//// 91150 333 10356 20120 30097 55123 22601 59017 70000;",
"76373099999","2011-08-03T15:00:00","4","25.35","-105.75","1967.0","TEPEHUANES DGO., MX","FM-12","99999","V020","999,9,C,0000,1","22000,1,9,N","020000,1,N,1","+0227,1","+0100,1","10158,1",,,,,"01,1,+00810,1,08,1",,"01,99,1,01,1,01,1,01250,1,00,1,00,1",,"01,9",,,,"99999,9,08211,1","2,1,010,1,-014,1",,"SYN100AAXX  03151 76373 32670 10000 10227 20100 38211 40158 52010 81100 91450 333 30/// 56900 59014 81827;",
"76373099999","2011-08-03T18:00:00","4","25.35","-105.75","1967.0","TEPEHUANES DGO., MX","FM-12","99999","V020","050,1,N,0010,1","22000,1,9,N","020000,1,N,1","+0314,1","+0079,1","10150,1",,,,,"02,1,+00810,1,08,1",,"02,99,1,02,1,02,1,01250,1,00,1,00,1",,"01,9",,"120,M,+0330,1","240,N,+0120,1","99999,9,08205,1","7,1,006,1,-008,1",,"SYN112AAXX  03181 76373 32670 20501 10314 20079 38205 40150 57006 82200 91750 333 10330 20120 30/// 56900 59008 82827;",
"76373099999","2011-08-03T21:00:00","4","25.35","-105.75","1967.0","TEPEHUANES DGO., MX","FM-12","99999","V020","050,1,N,0020,1","22000,1,9,N","020000,1,N,1","+0341,1","+0075,1","10121,1",,,,,"03,1,+00750,1,06,1",,"04,99,1,04,1,04,1,01250,1,00,1,00,1",,"01,9",,,,"99999,9,08181,1","7,1,024,1,-014,1",,"SYN106AAXX  03211 76373 32670 40502 10341 20075 38181 40121 57024 84400 92050 333 30/// 56900 59014 83625 81827;",
"76373099999","2011-08-04T00:00:00","4","25.35","-105.75","1967.0","TEPEHUANES DGO., MX","FM-12","99999","V020","110,1,N,0030,1","22000,1,9,N","020000,1,N,1","+0304,1","+0073,1","10104,1","24,0000,9,1",,,,"03,1,+00750,1,06,1",,"04,99,1,04,1,04,1,00800,1,00,1,00,1",,"01,9",,"120,M,+0358,1","180,N,+0120,1","99999,9,08168,1","7,1,013,1,-018,1",,"SYN130AAXX  04001 76373 32570 41103 10304 20073 38168 40104 57013 84400 92350 333 10358 20120 30/// 50991 56900 59018 70000 83625 81827;",
"76373099999","2011-08-04T03:00:00","4","25.35","-105.75","1967.0","TEPEHUANES DGO., MX","FM-12","99999","V020","999,9,C,0000,1","22000,1,9,N","000600,1,N,1","+0260,1","+0074,1","10109,1",,,,,"02,1,+00750,1,06,1",,"03,99,1,03,1,04,1,00800,1,00,1,00,1",,"01,9",,,,"99999,9,08172,1","2,1,004,1,-021,1",,"SYN106AAXX  04031 76373 32506 30000 10260 20074 38172 40109 52004 83400 90245 333 30/// 56900 59021 82625 81827;",
"76373099999","2011-08-04T12:00:00","4","25.35","-105.75","1967.0","TEPEHUANES DGO., MX","FM-12","99999","V020","999,9,C,0000,1","22000,1,9,N","001000,1,N,1","+0155,1","+0118,1","10145,1",,,,,"00,1,+99999,9,99,9",,"00,99,1,00,1,00,1,99999,9,00,1,00,1","0660,9","01,9",,"120,N,+0141,1","240,M,+0358,1","99999,9,08201,1","9,9,999,9,+000,1",,"SYN112AAXX  04121 76373 32910 00000 10155 20118 38201 40145 5//// 91150 333 10358 20141 30330 55110 22408 58000 70000;",
"76373099999","2011-08-04T15:00:00","4","25.35","-105.75","1967.0","TEPEHUANES DGO., MX","FM-12","99999","V020","999,9,C,0000,1","22000,1,9,N","020000,1,N,1","+0227,1","+0142,1","10156,1",,,,,"00,1,+99999,9,99,9",,"00,99,1,00,1,00,1,99999,9,00,1,00,1",,"01,9",,,,"99999,9,08209,1","2,1,008,1,-002,1",,"SYN082AAXX  04151 76373 32970 00000 10227 20142 38209 40156 52008 91450 333 30/// 59002;",
"76373099999","2011-08-04T18:00:00","4","25.35","-105.75","1967.0","TEPEHUANES DGO., MX","FM-12","99999","V020","110,1,N,0010,1","00750,1,9,N","030000,1,N,1","+0322,1","+0106,1","10142,1",,,,,"02,1,+00600,1,06,1",,"05,99,1,05,1,05,1,00800,1,00,1,00,1",,"01,9",,"120,M,+0330,1","240,N,+0141,1","99999,9,08198,1","7,1,011,1,-007,1",,"SYN118AAXX  04181 76373 32580 51101 10322 20106 38198 40142 57011 85500 91755 333 10330 20141 30/// 56900 59007 82620 82825;",
"76373099999","2011-08-04T21:00:00","4","25.35","-105.75","1967.0","TEPEHUANES DGO., MX","FM-12","99999","V020","110,1,N,0010,1","00750,1,9,N","030000,1,N,1","+0330,1","+0078,1","10114,1",,,,,"03,1,+00600,1,06,1",,"05,99,1,05,1,05,1,00800,1,00,1,00,1",,"01,9",,,,"99999,9,08176,1","7,1,020,1,-005,1",,"SYN106AAXX  04211 76373 32580 51101 10330 20078 38176 40114 57020 85500 92050 333 30/// 56900 59005 83620 82825;",
"76373099999","2011-08-05T00:00:00","4","25.35","-105.75","1967.0","TEPEHUANES DGO., MX","FM-12","99999","V020","250,1,N,0020,1","00750,1,9,N","030000,1,N,1","+0236,1","+0136,1","10106,1","24,0030,9,1",,,,"04,1,+00600,1,07,1",,"07,99,1,07,1,07,1,00800,1,00,1,00,1",,"01,9",,"120,M,+0360,1","180,N,+0141,1","99999,9,08170,1","7,1,006,1,+002,1",,"SYN136AAXX  05001 76373 32580 72502 10236 20136 38170 40106 57006 87700 92355 333 10360 20141 30/// 56900 50881 56900 58002 70030 84720 83625;",
"76373099999","2011-08-05T03:00:00","4","25.35","-105.75","1967.0","TEPEHUANES DGO., MX","FM-12","99999","V020","250,1,N,0020,1","00600,1,9,N","001000,1,N,1","+0190,1","+0154,1","10159,1","03,0040,9,1",,"1,1,03,1","6,1,03,1","08,1,+00600,1,09,1",,"08,99,1,08,1,09,1,00800,1,00,1,00,1",,"09,9",,,,"99999,9,08212,1","2,1,042,1,+040,1","60,1","SYN112AAXX  05031 76373 21510 82502 10190 20154 38212 40159 52042 76016 88900 90255 333 31/// 56900 58040 60047 88920;",
"76373099999","2011-08-05T12:00:00","4","25.35","-105.75","1967.0","TEPEHUANES DGO., MX","FM-12","99999","V020","999,9,C,0000,1","22000,1,9,N","001000,1,N,1","+0160,1","+0149,1","10162,1","24,0200,9,1",,,,,,"04,99,1,04,1,04,1,00800,1,00,1,00,1","0510,9","01,9",,"120,N,+0142,1","240,M,+0360,1","99999,9,08214,1","9,9,999,9,+013,1",,"SYN130AAXX  05121 76373 32510 40000 10160 20149 38214 40162 5//// 84400 91155 333 10360 20142 30134 55085 21369 56900 58013 70200 84720;",
"76373099999","2011-08-05T15:00:00","4","25.35","-105.75","1967.0","TEPEHUANES DGO., MX","FM-12","99999","V020","999,9,C,0000,1","22000,1,9,N","030000,1,N,1","+0192,1","+0153,1","10167,1",,,,,"03,1,+00600,1,06,1",,"03,99,1,03,1,03,1,00800,1,00,1,00,1",,"01,9",,,,"99999,9,08219,1","5,1,005,1,+010,1",,"SYN100AAXX  05151 76373 32580 30000 10192 20153 38219 40167 55005 83300 91455 333 30/// 56900 58010 83620;",
"76373099999","2011-08-05T18:00:00","4","25.35","-105.75","1967.0","TEPEHUANES DGO., MX","FM-12","99999","V020","140,1,N,0010,1","22000,1,9,N","030000,1,N,1","+0272,1","+0159,1","10168,1",,,,,"02,1,+00600,1,06,1",,"03,99,1,03,1,03,1,00800,1,00,1,00,1",,"01,9",,"120,M,+0290,1","240,N,+0142,1","99999,9,08219,1","4,1,000,1,+021,1",,"SYN118AAXX  05181 76373 32580 31401 10272 20159 38219 40168 54000 83300 91755 333 10290 20142 30/// 56900 58021 82620 81337;",
"76373099999","2011-08-05T21:00:00","4","25.35","-105.75","1967.0","TEPEHUANES DGO., MX","FM-12","99999","V020","110,1,N,0010,1","00750,1,9,N","030000,1,N,1","+0316,1","+0114,1","10137,1",,,,,"02,1,+00600,1,07,1",,"05,99,1,05,1,05,1,00800,1,00,1,00,1",,"01,9",,,,"99999,9,08194,1","7,1,025,1,+018,1",,"SYN106AAXX  05211 76373 32580 51101 10316 20114 38194 40137 57025 85500 92055 333 30/// 56900 58018 82720 83625;",
"76373099999","2011-08-06T00:00:00","4","25.35","-105.75","1967.0","TEPEHUANES DGO., MX","FM-12","99999","V020","290,1,N,0010,1","00600,1,C,N","030000,1,N,1","+0228,1","+0138,1","10150,1","24,0180,9,1",,,,"05,1,+00600,1,07,1",,"08,99,1,08,1,08,1,00800,1,00,1,00,1",,"01,9",,"120,M,+0340,1","180,N,+0142,1","99999,9,08204,1","2,1,010,1,+034,1",,"SYN130AAXX  06001 76373 32580 82901 10228 20138 38204 40150 52010 88800 92355 333 10340 20142 30/// 50991 56900 58034 70180 85720 83625;",
"76373099999","2011-08-06T03:00:00","4","25.35","-105.75","1967.0","TEPEHUANES DGO., MX","FM-12","99999","V020","999,9,C,0000,1","00600,1,9,N","001000,1,N,1","+0198,1","+0151,1","10170,1",,,,,"05,1,+00600,1,07,1",,"08,99,1,08,1,08,1,00800,1,00,1,00,1",,"01,9",,,,"99999,9,08221,1","2,1,023,1,+009,1",,"SYN106AAXX  06031 76373 32510 80000 10198 20151 38221 40170 52023 88800 90255 333 30/// 56900 58009 85720 83625;",
"76373099999","2011-08-06T15:00:00","4","25.35","-105.75","1967.0","TEPEHUANES DGO., MX","FM-12","99999","V020","320,1,N,0010,1","00750,1,9,N","030000,1,N,1","+0196,1","+0153,1","10182,1",,,,,"02,1,+00600,1,07,1",,"06,99,1,06,1,06,1,00800,1,00,1,00,1",,"01,9",,,,"99999,9,08231,1","5,1,001,1,+012,1",,"SYN106AAXX  06151 76373 32580 63201 10196 20153 38231 40182 55001 86600 91455 333 30/// 56900 58012 82720 84625;",
"76373099999","2011-08-06T21:00:00","4","25.35","-105.75","1967.0","TEPEHUANES DGO., MX","FM-12","99999","V020","120,1,N,0010,1","00750,1,9,N","020000,1,N,1","+0299,1","+0130,1","10144,1",,,,,"07,1,+00750,1,07,1",,"07,99,1,07,1,07,1,00800,1,00,1,00,1",,"01,9",,,,"99999,9,08200,1","7,1,025,1,+006,1",,"SYN100AAXX  06211 76373 32570 71201 10299 20130 38200 40144 57025 87700 92050 333 30/// 56900 58006 87725;",
"76373099999","2011-08-07T03:00:00","4","25.35","-105.75","1967.0","TEPEHUANES DGO., MX","FM-12","99999","V020","999,9,C,0000,1","22000,1,9,N","000600,1,N,1","+0223,1","+0149,1","10152,1",,,,,"02,1,+00810,1,06,1",,"03,99,1,02,1,04,1,01250,1,07,1,00,1",,"01,9",,,,"99999,9,08206,1","2,1,017,1,-015,1",,"SYN100AAXX  07031 76373 32606 30000 10223 20149 38206 40152 52017 82470 90245 333 30/// 56900 59015 82627;",
"76373099999","2011-08-07T12:00:00","4","25.35","-105.75","1967.0","TEPEHUANES DGO., MX","FM-12","99999","V020","999,9,C,0000,1","22000,1,9,N","001000,1,N,1","+0151,1","+0142,1","10164,1","24,0000,9,1",,,,,,"01,99,1,00,1,00,1,99999,9,00,1,04,1","0438,9","01,9",,"120,N,+0138,1","240,M,+0334,1","99999,9,08216,1","9,9,999,9,-014,1",,"SYN130AAXX  07121 76373 32910 10000 10151 20142 38216 40164 5//// 80004 91150 333 10334 20138 30127 55073 21490 56009 59014 70000 81056;",
"76373099999","2011-08-07T15:00:00","4","25.35","-105.75","1967.0","TEPEHUANES DGO., MX","FM-12","99999","V020","999,9,C,0000,1","22000,1,9,N","020000,1,N,1","+0215,1","+0151,1","10185,1",,,,,"02,1,+00810,1,06,1",,"03,99,1,02,1,04,1,01250,1,00,1,04,1",,"01,9",,,,"99999,9,08232,1","2,1,017,1,+002,1",,"SYN100AAXX  07151 76373 32670 30000 10215 20151 38232 40185 52017 82404 91450 333 30/// 56909 58002 82627;",
"76373099999","2011-08-07T18:00:00","4","25.35","-105.75","1967.0","TEPEHUANES DGO., MX","FM-12","99999","V020","080,1,N,0010,1","00690,1,9,N","020000,1,N,1","+0265,1","+0156,1","10167,1",,,,,"07,1,+00690,1,07,1",,"08,99,1,08,1,07,1,00800,1,00,1,00,1",,"01,9",,"120,M,+0288,1","240,N,+0138,1","99999,9,08218,1","7,1,015,1,-007,1",,"SYN112AAXX  07181 76373 32570 80801 10265 20156 38218 40167 57015 88700 91750 333 10288 20138 30/// 56900 59007 87723;",
"76373099999","2011-08-07T21:00:00","4","25.35","-105.75","1967.0","TEPEHUANES DGO., MX","FM-12","99999","V020","999,9,C,0000,1","22000,1,9,N","020000,1,N,1","+0282,1","+0154,1","10139,1",,,,,"02,1,+00690,1,07,1",,"04,99,1,04,1,07,1,00800,1,00,1,00,1",,"01,9",,,,"99999,9,08196,1","7,1,016,1,-004,1",,"SYN106AAXX  07211 76373 32570 40000 10282 20154 38196 40139 57016 84700 92050 333 30/// 56900 59004 82723 82625;",
"76373099999","2011-08-08T00:00:00","4","25.35","-105.75","1967.0","TEPEHUANES DGO., MX","FM-12","99999","V020","999,9,C,0000,1","22000,1,9,N","020000,1,N,1","+0318,1","+0102,1","10110,1","24,0000,9,1",,,,"02,1,+00750,1,06,1",,"04,99,1,04,1,04,1,00800,1,00,1,00,1",,"01,9",,"120,M,+0347,1","180,N,+0138,1","99999,9,08173,1","7,1,023,1,-016,1",,"SYN130AAXX  08001 76373 32570 40000 10318 20102 38173 40110 57023 84400 92350 333 10347 20138 30/// 50861 56900 59016 70000 82625 82827;",
"76373099999","2011-08-08T15:00:00","4","25.35","-105.75","1967.0","TEPEHUANES DGO., MX","FM-12","99999","V020","999,9,C,0000,1","00690,1,9,N","020000,1,N,1","+0165,1","+0150,1","10183,1",,,,,"07,1,+00690,1,07,1",,"07,99,1,07,1,07,1,00800,1,00,1,00,1",,"01,9",,,,"99999,9,08231,1","2,1,019,1,-002,1",,"SYN100AAXX  08151 76373 32570 70000 10165 20150 38231 40183 52019 87700 91450 333 30/// 56900 59002 87723;",
"76373099999","2011-08-08T18:00:00","4","25.35","-105.75","1967.0","TEPEHUANES DGO., MX","FM-12","99999","V020","999,9,C,0000,1","22000,1,9,N","020000,1,N,1","+0254,1","+0136,1","10163,1",,,,,"01,1,+00810,1,08,1",,"01,99,1,01,1,02,1,01250,1,00,1,00,1",,"01,9",,"120,M,+0267,1","240,N,+0135,1","99999,9,08215,1","7,1,016,1,-003,1",,"SYN112AAXX  08181 76373 32670 10000 10254 20136 38215 40163 57016 81200 91750 333 10267 20135 30/// 56900 59003 81827;",
"76373099999","2011-08-08T21:00:00","4","25.35","-105.75","1967.0","TEPEHUANES DGO., MX","FM-12","99999","V020","110,1,N,0010,1","22000,1,9,N","020000,1,N,1","+0307,1","+0114,1","10122,1",,,,,"02,1,+00750,1,06,1",,"02,99,1,02,1,04,1,00800,1,00,1,00,1",,"01,9",,,,"99999,9,08182,1","7,1,026,1,-014,1",,"SYN100AAXX  08211 76373 32570 21101 10307 20114 38182 40122 57026 82400 92050 333 30/// 56900 59014 82625;",
"76373099999","2011-08-09T00:00:00","4","25.35","-105.75","1967.0","TEPEHUANES DGO., MX","FM-12","99999","V020","150,1,N,0010,1","22000,1,9,N","020000,1,N,1","+0308,1","+0108,1","10098,1","24,0084,9,1",,,,"02,1,+00810,1,05,1",,"04,99,1,04,1,07,1,00800,1,00,1,00,1",,"01,9",,"120,M,+0344,1","180,N,+0135,1","99999,9,08162,1","7,1,020,1,-011,1",,"SYN130AAXX  09001 76373 32570 41501 10308 20108 38162 40098 57020 84700 92350 333 10344 20135 30/// 50861 56900 59011 70084 82527 82625;",
"76373099999","2011-08-09T03:00:00","4","25.35","-105.75","1967.0","TEPEHUANES DGO., MX","FM-12","99999","V020","130,1,N,0010,1","00600,1,9,N","000600,1,N,1","+0181,1","+0151,1","10155,1","03,0080,9,1",,"5,1,03,1","2,1,03,1","08,1,+00600,1,09,1",,"08,99,1,08,1,09,1,00800,1,00,1,00,1",,"09,9",,,,"99999,9,08209,1","2,1,047,1,+999,9","16,1","SYN112AAXX  09031 76373 21506 81301 10181 20151 38209 40155 52047 71652 88900 90250 333 31/// 56900 58/// 60087 88920;",
"76373099999","2011-08-09T12:00:00","4","25.35","-105.75","1967.0","TEPEHUANES DGO., MX","FM-12","99999","V020","999,9,C,0000,1","22000,1,9,N","001000,1,N,1","+0143,1","+0139,1","10147,1","24,0110,9,1",,,,,,"02,99,1,02,1,01,1,01250,1,00,1,00,1","0462,9","01,9",,"120,N,+0130,1","240,M,+0344,1","99999,9,08202,1","9,9,999,9,-010,1",,"SYN130AAXX  09121 76373 32610 20000 10143 20139 38202 40147 5//// 82100 91150 333 10344 20130 30119 55077 22174 56900 59010 70110 82827;",
"76373099999","2011-08-09T15:00:00","4","25.35","-105.75","1967.0","TEPEHUANES DGO., MX","FM-12","99999","V020","999,9,C,0000,1","00690,1,9,N","020000,1,N,1","+0177,1","+0144,1","10157,1",,,,,"05,1,+00690,1,06,1",,"05,99,1,05,1,05,1,00800,1,00,1,00,1",,"01,9",,,,"99999,9,08212,1","2,1,009,1,-001,1",,"SYN100AAXX  09151 76373 32570 50000 10177 20144 38212 40157 52009 85500 91450 333 30/// 56900 59001 85623;",
"76373099999","2011-08-09T18:00:00","4","25.35","-105.75","1967.0","TEPEHUANES DGO., MX","FM-12","99999","V020","999,9,C,0000,1","00750,1,9,N","020000,1,N,1","+0257,1","+0149,1","10155,1",,,,,"06,1,+00750,1,06,1",,"06,99,1,06,1,05,1,00800,1,00,1,00,1",,"01,9",,"120,M,+0268,1","240,N,+0130,1","99999,9,08209,1","8,1,002,1,-006,1",,"SYN112AAXX  09181 76373 32570 60000 10257 20149 38209 40155 58002 86500 91750 333 10268 20130 30/// 56900 59006 86625;",
"76373099999","2011-08-09T21:00:00","4","25.35","-105.75","1967.0","TEPEHUANES DGO., MX","FM-12","99999","V020","140,1,N,0030,1","22000,1,9,N","020000,1,N,1","+0300,1","+0112,1","10122,1",,,,,"04,1,+00750,1,06,1",,"04,99,1,04,1,04,1,00800,1,00,1,00,1",,"01,9",,,,"99999,9,08182,1","7,1,021,1,+000,1",,"SYN100AAXX  09211 76373 32570 41403 10300 20112 38182 40122 57021 84400 92050 333 30/// 56900 58000 84625;",
"76373099999","2011-08-10T00:00:00","4","25.35","-105.75","1967.0","TEPEHUANES DGO., MX","FM-12","99999","V020","999,9,C,0000,1","00750,1,9,N","020000,1,N,1","+0217,1","+0155,1","10137,1","24,0013,9,1",,,,,,"07,99,1,07,1,07,1,00800,1,00,1,00,1",,"01,9",,"120,M,+0320,1","180,N,+0130,1","99999,9,08195,1","0,1,015,1,+033,1",,"SYN124AAXX  10001 76373 32570 70000 10217 20155 38195 40137 50137 87700 92350 333 10320 20130 30/// 51211 56900 58033 70013 87723;","Q01+001372APC3  "
"76373099999","2011-08-10T03:00:00","4","25.35","-105.75","1967.0","TEPEHUANES DGO., MX","FM-12","99999","V020","999,9,C,0000,1","00600,1,9,N","001000,1,N,1","+0185,1","+0136,1","10151,1",,,,,"05,1,+00600,1,07,1",,"05,99,1,05,1,07,1,00800,1,00,1,00,1",,"01,9",,,,"99999,9,08205,1","2,1,010,1,-004,1",,"SYN100AAXX  10031 76373 32510 50000 10185 20136 38205 40151 52010 85700 90250 333 30/// 56900 59004 85720;",
"76373099999","2011-08-10T12:00:00","4","25.35","-105.75","1967.0","TEPEHUANES DGO., MX","FM-12","99999","V020","999,9,C,0000,1","22000,1,9,N","000600,1,N,1","+0139,1","+0135,1","10160,1","24,0020,9,1",,,,,,"01,99,1,01,1,01,1,01250,1,00,1,00,1","0414,9","01,9",,"120,N,+0128,1","240,M,+0320,1","99999,9,08213,1","9,9,999,9,+011,1",,"SYN130AAXX  10121 76373 32606 10000 10139 20135 38213 40160 5//// 81100 91150 333 10320 20128 30113 55069 21981 56900 58011 70020 81827;",
"76373099999","2011-08-10T15:00:00","4","25.35","-105.75","1967.0","TEPEHUANES DGO., MX","FM-12","99999","V020","999,9,C,0000,1","22000,1,9,N","020000,1,N,1","+0195,1","+0134,1","10174,1",,,,,"01,1,+00810,1,08,1",,"02,99,1,01,1,01,1,01250,1,07,1,00,1",,"01,9",,,,"99999,9,08224,1","2,1,011,1,+013,1",,"SYN100AAXX  10151 76373 32670 20000 10195 20134 38224 40174 52011 81170 91450 333 30/// 56990 58013 81827;",
"76373099999","2011-08-10T18:00:00","4","25.35","-105.75","1967.0","TEPEHUANES DGO., MX","FM-12","99999","V020","310,1,N,0020,1","22000,1,9,N","020000,1,N,1","+0265,1","+0136,1","10162,1",,,,,"02,1,+00840,1,08,1",,"03,99,1,02,1,02,1,01250,1,07,1,00,1",,"01,9",,"120,M,+0270,1","240,N,+0128,1","99999,9,08214,1","7,1,010,1,+005,1",,"SYN112AAXX  10181 76373 32670 33102 10265 20136 38214 40162 57010 82270 91750 333 10270 20128 30/// 56990 58005 82828;",
"76373099999","2011-08-10T21:00:00","4","25.35","-105.75","1967.0","TEPEHUANES DGO., MX","FM-12","99999","V020","310,1,N,0010,1","22000,1,9,N","020000,1,N,1","+0300,1","+0109,1","10136,1",,,,,"02,1,+00810,1,08,1",,"02,99,1,02,1,02,1,01250,1,00,1,00,1",,"01,9",,,,"99999,9,08194,1","7,1,030,1,+012,1",,"SYN100AAXX  10211 76373 32670 23101 10300 20109 38194 40136 57030 82200 92050 333 30/// 56900 58012 82827;",
"76373099999","2011-08-11T00:00:00","4","25.35","-105.75","1967.0","TEPEHUANES DGO., MX","FM-12","99999","V020","120,1,N,0010,1","22000,1,9,N","020000,1,N,1","+0273,1","+0143,1","10116,1","24,0020,9,1",,,,,,"04,99,1,04,1,07,1,00800,1,00,1,00,1",,"01,9",,"120,M,+0320,1","180,N,+0130,1","99999,9,08178,1","7,1,016,1,+017,1",,"SYN124AAXX  11001 76373 32570 41201 10273 20143 38178 40116 57016 84700 92350 333 10320 20130 30/// 50831 56900 58017 70020 83723;",
"76373099999","2011-08-11T03:00:00","4","25.35","-105.75","1967.0","TEPEHUANES DGO., MX","FM-12","99999","V020","300,1,N,0010,1","22000,1,9,N","020000,1,N,1","+0232,1","+0140,1","10142,1",,,,,"02,1,+00810,1,08,1",,"02,99,1,02,1,02,1,01250,1,00,1,00,1",,"01,9",,,,"99999,9,08199,1","2,1,021,1,-006,1",,"SYN100AAXX  11031 76373 32670 23001 10232 20140 38199 40142 52021 82200 90250 333 30/// 56900 59006 82827;",
"76373099999","2011-08-16T12:00:00","4","25.35","-105.75","1967.0","TEPEHUANES DGO., MX","FM-12","99999","V020","999,9,C,0000,1","22000,1,9,N","001000,1,N,1","+0144,1","+0130,1","10154,1","24,0000,9,1",,,,,,"02,99,1,02,1,02,1,01250,1,00,1,00,1",,"01,9",,"120,N,+0130,1","240,M,+0314,1","99999,9,08204,1",,,"SYN130AAXX  16121 76373 32610 20000 10144 20130 38204 40154 5//// 82200 91150 333 10314 20130 30111 55/// 2//// 56900 58/// 70000 82827;",
"76373099999","2011-08-16T15:00:00","4","25.35","-105.75","1967.0","TEPEHUANES DGO., MX","FM-12","99999","V020","999,9,C,0000,1","22000,1,9,N","020000,1,N,1","+0212,1","+0139,1","10165,1",,,,,"00,1,+99999,9,99,9",,"00,99,1,00,1,00,1,99999,9,00,1,00,1",,"01,9",,,,"99999,9,08217,1","2,1,009,1,+999,9",,"SYN082AAXX  16151 76373 32970 00000 10212 20139 38217 40165 52009 91450 333 30/// 58///;",
"76373099999","2011-08-16T18:00:00","4","25.35","-105.75","1967.0","TEPEHUANES DGO., MX","FM-12","99999","V020","080,1,N,0010,1","22000,1,9,N","020000,1,N,1","+0295,1","+0139,1","10159,1",,,,,"02,1,+00810,1,08,1",,"02,99,1,02,1,08,1,01250,1,00,1,00,1",,"01,9",,"120,M,+0306,1","240,N,+0130,1","99999,9,08212,1","7,1,006,1,+999,9",,"SYN112AAXX  16181 76373 32670 20801 10295 20139 38212 40159 57006 82800 92750 333 10306 20130 30/// 56900 58/// 82827;",
"76373099999","2011-08-16T21:00:00","4","25.35","-105.75","1967.0","TEPEHUANES DGO., MX","FM-12","99999","V020","140,1,N,0030,1","22000,1,9,N","020000,1,N,1","+0314,1","+0107,1","10142,1",,,,,"03,1,+00750,1,06,1",,"04,99,1,04,1,04,1,01250,1,00,1,00,1",,"01,9",,,,"99999,9,08198,1","7,1,014,1,+999,9",,"SYN100AAXX  16211 76373 32670 41403 10314 20107 38198 40142 57014 84400 92050 333 30/// 56900 58/// 83625;",
"76373099999","2011-08-17T00:00:00","4","25.35","-105.75","1967.0","TEPEHUANES DGO., MX","FM-12","99999","V020","310,1,N,0010,1","00750,1,9,N","020000,1,N,1","+0262,1","+0137,1","10133,1","24,0000,9,1",,,,,,"05,99,1,05,1,07,1,00800,1,00,1,00,1",,"01,9",,"120,M,+0340,1","180,N,+0130,1","99999,9,08191,1","7,1,007,1,+999,9",,"SYN124AAXX  17001 76373 32570 53101 10262 20137 38191 40133 57007 85700 92350 333 10340 20130 30/// 50831 56900 58/// 70000 84723;",
"76373099999","2011-08-17T03:00:00","4","25.35","-105.75","1967.0","TEPEHUANES DGO., MX","FM-12","99999","V020","310,1,N,0010,1","22000,1,9,N","001000,1,N,1","+0207,1","+0155,1","10149,1",,,,,"04,1,+00750,1,06,1",,"04,99,1,04,1,06,1,00800,1,00,1,00,1",,"01,9",,,,"99999,9,08204,1","2,1,013,1,+999,9",,"SYN100AAXX  17031 76373 32510 43101 10207 20155 38204 40149 52013 84600 90250 333 30/// 56900 58/// 84625;",
"76373099999","2011-08-17T15:00:00","4","25.35","-105.75","1967.0","TEPEHUANES DGO., MX","FM-12","99999","V020","999,9,C,0000,1","22000,1,9,N","020000,1,N,1","+0216,1","+0137,1","10193,1",,,,,"00,1,+99999,9,99,9",,"00,99,1,00,1,00,1,99999,9,00,1,00,1",,"01,9",,,,"99999,9,08240,1","2,1,008,1,+023,1",,"SYN082AAXX  17151 76373 32970 00000 10216 20137 38240 40193 52008 91450 333 30/// 58023;",
"76373099999","2011-08-17T18:00:00","4","25.35","-105.75","1967.0","TEPEHUANES DGO., MX","FM-12","99999","V020","130,1,N,0010,1","22000,1,9,N","020000,1,N,1","+0300,1","+0135,1","10184,1",,,,,"02,1,+00750,1,06,1",,"03,99,1,03,1,04,1,01250,1,00,1,00,1",,"01,9",,"120,M,+0316,1","240,N,+0128,1","99999,9,08232,1","7,1,008,1,+020,1",,"SYN112AAXX  17181 76373 32670 31301 10300 20135 38232 40184 57008 83400 91750 333 10316 20128 30/// 56900 58020 82625;",
"76373099999","2011-08-17T21:00:00","4","25.35","-105.75","1967.0","TEPEHUANES DGO., MX","FM-12","99999","V020","120,1,N,0020,1","22000,1,9,N","020000,1,N,1","+0320,1","+0085,1","10164,1",,,,,"03,1,+00720,1,06,1",,"03,99,1,03,1,04,1,00800,1,00,1,00,1",,"01,9",,,,"99999,9,08216,1","7,1,016,1,+018,1",,"SYN100AAXX  17211 76373 32570 31202 10320 20085 38216 40164 57016 83400 92050 333 30/// 56900 58018 83624;",
"76373099999","2011-08-18T00:00:00","4","25.35","-105.75","1967.0","TEPEHUANES DGO., MX","FM-12","99999","V020","130,1,N,0020,1","22000,1,9,N","020000,1,N,1","+0312,1","+0072,1","10141,1","24,0000,9,1",,,,,,"02,99,1,02,1,02,1,01250,1,00,1,00,1",,"01,9",,"120,M,+0350,1","180,N,+0128,1","99999,9,08198,1","7,1,018,1,+007,1",,"SYN124AAXX  18001 76373 32670 21302 10312 20072 38198 40141 57018 82200 92350 333 10350 20128 30/// 50661 56900 58007 70000 82827;",
"76373099999","2011-08-18T03:00:00","4","25.35","-105.75","1967.0","TEPEHUANES DGO., MX","FM-12","99999","V020","290,1,N,0020,1","22000,1,9,N","020000,1,N,1","+0247,1","+0088,1","10157,1",,,,,"02,1,+00750,1,08,1",,"02,99,1,02,1,02,1,01250,1,00,1,00,1",,"01,9",,,,"99999,9,08210,1","2,1,012,1,+006,1",,"SYN100AAXX  18031 76373 32670 22902 10247 20088 38210 40157 52012 82200 90250 333 30/// 56900 58006 82825;",
"76373099999","2011-08-18T12:00:00","4","25.35","-105.75","1967.0","TEPEHUANES DGO., MX","FM-12","99999","V020","999,9,C,0000,1","22000,1,9,N","000600,1,N,1","+0136,1","+0108,1","10183,1","24,0000,9,1",,,,,,"01,99,1,00,1,00,1,99999,9,00,1,04,1","0690,9","01,9",,"120,N,+0124,1","240,M,+0350,1","99999,9,08232,1","9,9,999,9,+008,1",,"SYN130AAXX  18121 76373 32906 10000 10136 20108 38232 40183 5//// 80004 91150 333 10350 20124 30107 55115 21917 56006 58008 70000 81067;",
"76373099999","2011-08-18T15:00:00","4","25.35","-105.75","1967.0","TEPEHUANES DGO., MX","FM-12","99999","V020","999,9,C,0000,1","22000,1,9,N","020000,1,N,1","+0204,1","+0117,1","10193,1",,,,,"01,1,+05100,1,00,1",,"01,99,1,00,1,00,1,99999,9,00,1,04,1",,"01,9",,,,"99999,9,08240,1","2,1,008,1,+000,1",,"SYN100AAXX  18151 76373 32970 10000 10204 20117 38240 40193 52008 80004 91445 333 30/// 56006 58000 81067;",
"76373099999","2011-08-23T12:00:00","4","25.35","-105.75","1967.0","TEPEHUANES DGO., MX","FM-12","99999","V020","999,9,C,0000,1","00750,1,9,N","000600,1,N,1","+0181,1","+0132,1","10161,1","24,0000,9,1",,,,,,"07,99,1,07,1,05,1,00800,1,00,1,00,1",,"01,9",,"120,N,+0170,1",,"99999,9,08214,1",,,"SYN130AAXX  23121 76373 32506 70000 10181 20132 38214 40161 5//// 87500 91150 333 1//// 20170 30150 55/// 2//// 56900 58/// 70000 87725;",
"76373099999","2011-08-23T15:00:00","4","25.35","-105.75","1967.0","TEPEHUANES DGO., MX","FM-12","99999","V020","999,9,C,0000,1","22000,1,9,N","020000,1,N,1","+0227,1","+0139,1","10162,1",,,,,"01,1,+00810,1,08,1",,"04,99,1,01,1,01,1,00800,1,00,1,04,1",,"01,9",,,,"99999,9,08214,1","0,1,000,1,+999,9",,"SYN106AAXX  23151 76373 32570 40000 10227 20139 38214 40162 50000 81104 91450 333 30/// 26909 58/// 81827 83067;",
"76373099999","2011-08-23T18:00:00","4","25.35","-105.75","1967.0","TEPEHUANES DGO., MX","FM-12","99999","V020","130,1,N,0020,1","22000,1,9,N","020000,1,N,1","+0293,1","+0117,1","10157,1",,,,,"02,1,+00810,1,08,1",,"03,99,1,02,1,02,1,01250,1,00,1,04,1",,"01,9",,"120,M,+0308,1","240,N,+0170,1","99999,9,08210,1","7,1,004,1,+999,9",,"SYN112AAXX  23181 76373 32670 31302 10293 20117 38210 40157 57004 82204 91750 333 10308 20170 30/// 56909 58/// 82827;",
"76373099999","2011-08-24T12:00:00","4","25.35","-105.75","1967.0","TEPEHUANES DGO., MX","FM-12","99999","V020","999,9,C,0000,1","22000,1,9,N","000600,1,N,1","+0144,1","+0128,1","10144,1","24,0000,9,1",,,,,,"02,99,1,02,1,02,1,01250,1,00,1,00,1","0624,9","01,9",,"120,N,+0132,1","240,M,+0334,1","99999,9,08200,1","9,9,999,9,-014,1",,"SYN130AAXX  24121 76373 32606 20000 10144 20128 38200 40144 5//// 82200 91150 333 10334 20132 30113 55104 21784 56200 59014 70000 82825;",
"76373099999","2011-08-24T15:00:00","4","25.35","-105.75","1967.0","TEPEHUANES DGO., MX","FM-12","99999","V020","999,9,C,0000,1","00690,1,9,N","020000,1,N,1","+0218,1","+0136,1","10154,1",,,,,"07,1,+00690,1,06,1",,"07,99,1,07,1,05,1,00800,1,00,1,00,1",,"01,9",,,,"99999,9,08208,1","2,1,008,1,-006,1",,"SYN100AAXX  24151 76373 32570 70000 10218 20136 38208 40154 52008 87500 91450 333 30/// 56900 59006 87623;",
"76373099999","2011-08-24T18:00:00","4","25.35","-105.75","1967.0","TEPEHUANES DGO., MX","FM-12","99999","V020","999,9,C,0000,1","00690,1,9,N","020000,1,N,1","+0273,1","+0134,1","10149,1",,,,,"07,1,+00690,1,06,1",,"08,99,1,08,1,05,1,00800,1,00,1,00,1",,"01,9",,"120,M,+0290,1","240,N,+0132,1","99999,9,08204,1","7,1,004,1,+999,9",,"SYN112AAXX  24181 76373 32570 80000 10273 20134 38204 40149 57004 88500 91750 333 10290 20132 30/// 56900 56906 87623;",
"76373099999","2011-08-24T21:00:00","4","25.35","-105.75","1967.0","TEPEHUANES DGO., MX","FM-12","99999","V020","060,1,N,0010,1","00690,1,9,N","020000,1,N,1","+0306,1","+0094,1","10117,1",,,,,"07,1,+00690,1,07,1",,"07,99,1,07,1,06,1,00800,1,00,1,00,1",,"01,9",,,,"99999,9,08178,1","7,1,026,1,-012,1",,"SYN100AAXX  24211 76373 32570 70601 10306 20094 38178 40117 57026 87600 92050 333 30/// 56900 59012 87723;",
"76373099999","2011-08-25T00:00:00","4","25.35","-105.75","1967.0","TEPEHUANES DGO., MX","FM-12","99999","V020","070,1,N,0010,1","22000,1,9,N","020000,1,N,1","+0302,1","+0093,1","10102,1","24,0000,9,1",,,,,,"05,99,1,04,1,05,1,00800,1,00,1,04,1",,"01,9",,"120,M,+0326,1","180,N,+0132,1","99999,9,08166,1","7,1,012,1,-008,1",,"SYN124AAXX  25001 76373 32570 50701 10302 20093 38166 40102 57012 84504 92350 333 10326 20132 30/// 50671 56909 59008 70000 84625;",
"76373099999","2011-08-25T15:00:00","4","25.35","-105.75","1967.0","TEPEHUANES DGO., MX","FM-12","99999","V020","999,9,C,0000,1","22000,1,9,N","020000,1,N,1","+0240,1","+0130,1","10154,1",,,,,"01,1,+00810,1,08,1",,"02,99,1,01,1,02,1,01250,1,00,1,04,1",,"01,9",,,,"99999,9,08208,1","2,1,015,1,+000,1",,"SYN106AAXX  25151 76373 32670 20000 10240 20130 38208 40154 52015 81204 91450 333 30/// 56209 58000 81827 81067;",
"76373099999","2011-08-25T21:00:00","4","25.35","-105.75","1967.0","TEPEHUANES DGO., MX","FM-12","99999","V020","070,1,N,0020,1","00750,1,9,N","030000,1,N,1","+0330,1","+0092,1","10115,1",,,,,"06,1,+00750,1,08,1",,"06,99,1,06,1,06,1,00800,1,00,1,00,1",,"01,9",,,,"99999,9,08176,1","7,1,002,1,-002,1",,"SYN100AAXX  25211 76373 32580 60702 10330 20092 38176 40115 57002 86600 92055 333 30/// 56900 59002 86825;",
"76373099999","2011-08-26T00:00:00","4","25.35","-105.75","1967.0","TEPEHUANES DGO., MX","FM-12","99999","V020","070,1,N,0020,1","00750,1,9,N","030000,1,N,1","+0286,1","+0103,1","10104,1","24,0000,9,1",,,,,,"05,99,1,05,1,05,1,00800,1,00,1,00,1",,"01,9",,"120,M,+0350,1","180,N,+0124,1","99999,9,08168,1","7,1,008,1,+002,1",,"SYN124AAXX  26001 76373 32580 50702 10286 20103 38168 40104 57008 85500 92355 333 10350 20124 30/// 50781 56900 58002 70000 85825;",
"76373099999","2011-08-26T03:00:00","4","25.35","-105.75","1967.0","TEPEHUANES DGO., MX","FM-12","99999","V020","999,9,C,0000,1","22000,1,9,N","001000,1,N,1","+0248,1","+0095,1","10125,1",,,,,"04,1,+00750,1,08,1",,"04,99,1,04,1,04,1,00800,1,00,1,00,1",,"01,9",,,,"99999,9,08184,1","2,1,016,1,+008,1",,"SYN100AAXX  26031 76373 32510 40000 10248 20095 38184 40125 52016 84400 90255 333 30/// 56900 58008 84825;",
"76373099999","2011-08-26T15:00:00","4","25.35","-105.75","1967.0","TEPEHUANES DGO., MX","FM-12","99999","V020","999,9,C,0000,1","22000,1,9,N","030000,1,N,1","+0228,1","+0135,1","10160,1",,,,,"02,1,+00600,1,06,1",,"04,99,1,04,1,04,1,00800,1,00,1,00,1",,"01,9",,,,"99999,9,08213,1","2,1,013,1,+005,1",,"SYN106AAXX  26151 76373 32580 40000 10228 20135 38213 40160 52013 84400 91455 333 30/// 56909 58005 82620 82067;",
"76373099999","2011-08-26T18:00:00","4","25.35","-105.75","1967.0","TEPEHUANES DGO., MX","FM-12","99999","V020","070,1,N,0010,1","00600,1,9,N","030000,1,N,1","+0284,1","+0113,1","10159,1",,,,,"05,1,+00600,1,06,1",,"06,99,1,06,1,06,1,00800,1,00,1,00,1",,"01,9",,"120,M,+0290,1","240,N,+0170,1",,"5,1,001,1,+032,1",,"SYN118AAXX  26181 76373 32580 60701 10284 20113 38112 40159 55001 86600 91755 333 10290 20170 30/// 56900 58032 85620 81720;","Q01+081123APOSP "
"76373099999","2011-08-26T21:00:00","4","25.35","-105.75","1967.0","TEPEHUANES DGO., MX","FM-12","99999","V020","140,1,N,0010,1","00750,1,9,N","030000,1,N,1","+0300,1","+0106,1","10140,1",,,,,"01,1,+00600,1,07,1",,"06,99,1,06,1,06,1,00800,1,00,1,00,1",,"01,9",,,,"99999,9,08197,1","7,1,015,1,+021,1",,"SYN106AAXX  26211 76373 32580 61401 10300 20106 38197 40140 57015 86600 92055 333 30/// 56900 58021 81720 85625;",
"76373099999","2011-08-27T00:00:00","4","25.35","-105.75","1967.0","TEPEHUANES DGO., MX","FM-12","99999","V020","070,1,N,0020,1","00750,1,9,N","030000,1,N,1","+0256,1","+0118,1","10128,1","24,0000,9,1",,,,"02,1,+00600,1,07,1",,"06,99,1,06,1,06,1,00800,1,00,1,00,1",,"01,9",,"120,M,+0320,1","180,N,+0170,1","99999,9,08187,1","7,1,010,1,+019,1",,"SYN130AAXX  27001 76373 32580 60702 10256 20118 38187 40128 57010 86600 92355 333 10320 20170 30/// 50671 56900 58019 70000 82720 84625;",
"76373099999","2011-08-27T12:00:00","4","25.35","-105.75","1967.0","TEPEHUANES DGO., MX","FM-12","99999","V020","999,9,C,0000,1","00600,1,C,N","001000,1,N,1","+0172,1","+0166,1","10165,1","24,0090,9,1",,,,"06,1,+00600,1,07,1",,"08,99,1,08,1,08,1,00800,1,00,1,00,1","0486,9","01,9",,"120,N,+0160,1","240,M,+0320,1","99999,9,08217,1","9,9,999,9,+018,1",,"SYN136AAXX  27121 76373 32510 80000 10172 20166 38217 40165 5//// 88800 91155 333 10320 20160 30140 55081 21159 56900 58018 70090 86720 82625;",
"76373099999","2011-08-27T15:00:00","4","25.35","-105.75","1967.0","TEPEHUANES DGO., MX","FM-12","99999","V020","999,9,C,0000,1","00600,1,9,N","030000,1,N,1","+0192,1","+0160,1","10175,1",,,,,"06,1,+00600,1,07,1",,"08,99,1,08,1,08,1,00800,1,00,1,00,1",,"01,9",,,,"99999,9,08225,1","2,1,008,1,+012,1",,"SYN106AAXX  27151 76373 32580 80000 10192 20160 38225 40175 52008 88800 91450 333 30/// 56900 58012 86720 82625;",
"76373099999","2011-08-30T12:00:00","4","25.35","-105.75","1967.0","TEPEHUANES DGO., MX","FM-12","99999","V020","999,9,C,0000,1","22000,1,9,N","000600,1,N,1","+0109,1","+0074,1","10140,1",,,,,"00,1,+99999,9,99,9",,"00,99,1,00,1,00,1,99999,9,00,1,00,1",,"01,9",,"120,N,+0097,1",,"99999,9,08197,1",,,"SYN112AAXX  30121 76373 32906 00000 10109 20074 38197 40140 5//// 91150 333 1//// 20097 30080 55/// 2//// 58/// 70000;",
"76373099999","2011-08-30T15:00:00","4","25.35","-105.75","1967.0","TEPEHUANES DGO., MX","FM-12","99999","V020","999,9,C,0000,1","22000,1,9,N","020000,1,N,1","+0185,1","+0092,1","10146,1",,,,,"00,1,+99999,9,99,9",,"00,99,1,00,1,00,1,99999,9,00,1,00,1",,"01,9",,,,"99999,9,08201,1","2,1,004,1,+999,9",,"SYN082AAXX  30151 76373 32970 00000 10185 20092 38201 40146 52004 91450 333 30/// 58///;",
"76373099999","2011-08-30T18:00:00","4","25.35","-105.75","1967.0","TEPEHUANES DGO., MX","FM-12","99999","V020","120,1,N,0010,1","22000,1,9,N","020000,1,N,1","+0295,1","+0060,1","10137,1",,,,,"00,1,+99999,9,99,9",,"00,99,1,00,1,00,1,99999,9,00,1,00,1",,"01,9",,"120,M,+0310,1","240,N,+0097,1","99999,9,08194,1","7,1,007,1,+999,9",,"SYN094AAXX  30181 76373 32970 01201 10295 20060 38194 40137 57007 91750 333 10310 20097 30/// 58///;",
"76373099999","2011-08-30T21:00:00","4","25.35","-105.75","1967.0","TEPEHUANES DGO., MX","FM-12","99999","V020","120,1,N,0020,1","22000,1,9,N","020000,1,N,1","+0333,1","+0014,1","10109,1",,,,,"00,1,+99999,9,99,9",,"00,99,1,00,1,00,1,99999,9,00,1,00,1",,"01,9",,,,"99999,9,08172,1","7,1,022,1,+999,9",,"SYN082AAXX  30211 76373 32970 01202 10333 20014 38172 40109 57022 92050 333 30/// 58///;",
"76373099999","2011-08-31T00:00:00","4","25.35","-105.75","1967.0","TEPEHUANES DGO., MX","FM-12","99999","V020","120,1,N,0020,1","22000,1,9,N","020000,1,N,1","+0316,1","-0016,1","10099,1","24,0000,9,1",,,,"00,1,+99999,9,99,9",,"00,99,1,00,1,00,1,99999,9,00,1,00,1",,"01,9",,"120,M,+0350,1","180,N,+0097,1","99999,9,08164,1","7,1,008,1,+999,9",,"SYN106AAXX  31001 76373 32970 01202 10316 21016 38164 40099 57008 92350 333 10350 20097 30/// 50801 58/// 70000;","Q01  00002PRCP24"
"76373099999","2011-08-31T03:00:00","4","25.35","-105.75","1967.0","TEPEHUANES DGO., MX","FM-12","99999","V020","999,9,C,0000,1","22000,1,9,N","000600,1,N,1","+0229,1","-0004,1","10114,1",,,,,"00,1,+99999,9,99,9",,"00,99,1,00,1,00,1,99999,9,00,1,00,1",,"01,9",,,,"99999,9,08176,1","2,1,012,1,+999,9",,"SYN082AAXX  31031 76373 32906 00000 10229 21004 38176 40114 52012 90250 333 30/// 58///;",
"76373099999","2011-08-31T12:00:00","4","25.35","-105.75","1967.0","TEPEHUANES DGO., MX","FM-12","99999","V020","999,9,C,0000,1","22000,1,9,N","000600,1,N,1","+0096,1","+0045,1","10129,1",,,,,"00,1,+99999,9,99,9",,"00,99,1,00,1,00,1,99999,9,00,1,00,1","0708,9","01,9",,"120,N,+0088,1","240,M,+0350,1","99999,9,08188,1","9,9,999,9,-009,1",,"SYN112AAXX  31121 76373 32906 00000 10096 20045 38188 40129 5//// 91150 333 10350 20088 30070 55118 22577 59009 70000;",
"76373099999","2011-08-31T15:00:00","4","25.35","-105.75","1967.0","TEPEHUANES DGO., MX","FM-12","99999","V020","999,9,C,0000,1","22000,1,9,N","020000,1,N,1","+0167,1","+0045,1","10144,1",,,,,"00,1,+99999,9,99,9",,"00,99,1,00,1,00,1,99999,9,00,1,00,1",,"01,9",,,,"99999,9,08197,1","2,1,009,1,-004,1",,"SYN082AAXX  31151 76373 32970 00000 10167 20045 38197 40144 52009 91450 333 30/// 59004;",
"76373099999","2011-08-31T18:00:00","4","25.35","-105.75","1967.0","TEPEHUANES DGO., MX","FM-12","99999","V020","999,9,C,0000,1","22000,1,9,N","020000,1,N,1","+0301,1","+0041,1","10130,1",,,,,"01,1,+05100,1,00,1",,"01,99,1,00,1,00,1,99999,9,00,1,05,1",,"01,9",,"120,M,+0310,1","240,N,+0088,1","99999,9,08189,1","7,1,008,1,-005,1",,"SYN112AAXX  31181 76373 32970 10000 10301 20041 38189 40130 57008 80005 91750 333 10310 20088 30/// 56002 59005 81067;",
"76373099999","2011-08-31T21:00:00","4","25.35","-105.75","1967.0","TEPEHUANES DGO., MX","FM-12","99999","V020","120,1,N,0020,1","22000,1,9,N","020000,1,N,1","+0320,1","+0039,1","10107,1",,,,,"01,1,+00810,1,08,1",,"02,99,1,01,1,02,1,01250,1,07,1,00,1",,"01,9",,,,"99999,9,08170,1","7,1,019,1,-002,1",,"SYN100AAXX  31211 76373 32670 21202 10320 20039 38170 40107 57019 81270 92050 333 30/// 56990 59002 81827;",
"76373099999","2011-09-01T00:00:00","4","25.35","-105.75","1967.0","TEPEHUANES DGO., MX","FM-12","99999","V020","110,1,N,0010,1","22000,1,9,N","020000,1,N,1","+0316,1","+0041,1","10099,1","24,0000,9,1",,,,"02,1,+00720,1,06,1",,"03,99,1,03,1,04,1,01250,1,00,1,00,1",,"01,9",,"120,M,+0340,1","180,N,+0088,1","99999,9,08164,1","7,1,006,1,+000,1",,"SYN130AAXX  01001 76373 32670 31101 10316 20041 38164 40099 57006 83400 92350 333 10340 20088 30/// 50781 56900 58000 70000 82624 81825;",
"76373099999","2011-09-01T03:00:00","4","25.35","-105.75","1967.0","TEPEHUANES DGO., MX","FM-12","99999","V020","110,1,N,0010,1","00690,1,9,N","001000,1,N,1","+0259,1","+0053,1","10114,1",,,,,"05,1,+00690,1,06,1",,"05,99,1,05,1,05,1,00800,1,00,1,00,1",,"01,9",,,,"99999,9,08176,1","2,1,012,1,+000,1",,"SYN100AAXX  01031 76373 32510 51101 10259 20053 38176 40114 52012 85500 90250 333 30/// 56900 58000 85623;",
"76373099999","2011-09-01T15:00:00","4","25.35","-105.75","1967.0","TEPEHUANES DGO., MX","FM-12","99999","V020","999,9,C,0000,1","00690,1,9,N","020000,1,N,1","+0179,1","+0096,1","10155,1",,,,,"08,1,+00690,1,07,1",,"08,99,1,08,1,07,1,00800,1,00,1,00,1",,"01,9",,,,"99999,9,08209,1","2,1,015,1,+012,1",,"SYN100AAXX  01151 76373 32570 80000 10179 20096 38209 40155 52015 88700 91450 333 30/// 56900 58012 88723;",
"76373099999","2011-09-04T00:00:00","4","25.35","-105.75","1967.0","TEPEHUANES DGO., MX","FM-12","99999","V020","999,9,C,0000,1","00750,1,9,N","020000,1,N,1","+0227,1","+0158,1","10102,1","24,0200,9,1",,,,,,"08,99,1,08,1,07,1,00800,1,00,1,00,1",,"01,9",,"120,M,+0280,1","180,N,+0150,1","99999,9,08166,1","7,1,002,1,+999,9",,"SYN124AAXX  04001 76373 32570 80000 10227 20158 38166 40102 57002 88700 92350 333 10280 20150 30/// 50771 56900 58/// 70200 88625;",
"76373099999","2011-09-04T03:00:00","4","25.35","-105.75","1967.0","TEPEHUANES DGO., MX","FM-12","99999","V020","999,9,C,0000,1","99999,9,9,N","005000,1,N,1","+0176,1","+0165,1","10134,1",,,,,,,"08,99,1,99,9,99,9,00800,1,99,9,99,9",,,,,,"99999,9,08192,1",,,"SYN106AAXX  04031 76373 12550 80000 10176 20165 38192 40134 50657 52026 88700 90250 333 31/// 56900 58/// 88625;","Q01+000007APCTEN"
"76373099999","2011-09-04T15:00:00","4","25.35","-105.75","1967.0","TEPEHUANES DGO., MX","FM-12","99999","V020","999,9,C,0000,1","00750,1,9,N","005000,1,N,1","+0162,1","+0154,1","10146,1",,,,,"08,1,+00750,1,06,1",,"08,99,1,08,1,06,1,00800,1,00,1,00,1",,"01,9",,,,"99999,9,08202,1","2,1,011,1,+999,9",,"SYN100AAXX  04151 76373 32550 80000 10162 20154 38202 40146 52011 88600 91450 333 30/// 56900 58/// 88625;",
"76373099999","2011-09-04T18:00:00","4","25.35","-105.75","1967.0","TEPEHUANES DGO., MX","FM-12","99999","V020","999,9,C,0000,1","22000,1,9,N","020000,1,N,1","+0232,1","+0172,1","10145,1",,,,,"03,1,+00750,1,08,1",,"03,99,1,03,1,02,1,00800,1,00,1,00,1",,"01,9",,"120,M,+0250,1","240,N,+0050,1","99999,9,08201,1","7,1,001,1,+999,9",,"SYN112AAXX  04181 76373 32570 30000 10232 20172 38201 40145 57001 83200 91750 333 10250 20050 30/// 56900 58/// 83825;",
"76373099999","2011-09-04T21:00:00","4","25.35","-105.75","1967.0","TEPEHUANES DGO., MX","FM-12","99999","V020","140,1,N,0030,1","00750,1,9,N","020000,1,N,1","+0265,1","+0156,1","10119,1",,,,,"07,1,+00750,1,06,1",,"07,99,1,07,1,07,1,00800,1,00,1,00,1",,"01,9",,,,"99999,9,08180,1","2,1,021,1,+012,1",,"SYN100AAXX  04211 76373 32570 71403 10265 20156 38180 40119 52021 87700 92050 333 30/// 56900 58012 87625;",
"76373099999","2011-09-05T00:00:00","4","25.35","-105.75","1967.0","TEPEHUANES DGO., MX","FM-12","99999","V020","999,9,C,0000,1","00750,1,9,N","020000,1,N,1","+0222,1","+0161,1","10117,1","03,0030,9,1","24,0124,9,1",,,,,"06,99,1,06,1,04,1,00800,1,00,1,00,1",,"01,9",,"120,M,+0300,1","180,N,+0150,1","99999,9,08178,1","2,1,008,1,+012,1",,"SYN130AAXX  05001 76373 12570 63400 10222 20161 38178 40117 52008 60037 86400 92350 333 10300 20150 30/// 50421 56900 58012 70124 86625;",
"76373099999","2011-09-05T03:00:00","4","25.35","-105.75","1967.0","TEPEHUANES DGO., MX","FM-12","99999","V020","999,9,C,0000,1","22000,1,9,N","005000,1,N,1","+0190,1","+0165,1","10139,1",,,,,"00,1,+99999,9,99,9",,"00,99,1,00,1,00,1,99999,9,00,1,00,1",,"01,9",,,,"99999,9,08196,1","2,1,018,1,+004,1",,"SYN082AAXX  05031 76373 32950 00000 10190 20165 38196 40139 52018 90250 333 30/// 58004;",
"76373099999","2011-09-06T21:00:00","4","25.35","-105.75","1967.0","TEPEHUANES DGO., MX","FM-12","99999","V020","190,1,N,0010,1","22000,1,9,N","020000,1,N,1","+0293,1","+0125,1","10144,1",,,,,"03,1,+00750,1,06,1",,"04,99,1,04,1,04,1,01250,1,00,1,00,1",,"01,9",,,,"99999,9,08200,1","7,1,017,1,+999,9",,"SYN106AAXX  06211 76373 32670 41901 10293 20125 38200 40144 57017 84400 92050 333 30/// 56900 58/// 83625 81827;",
"76373099999","2011-09-07T00:00:00","4","25.35","-105.75","1967.0","TEPEHUANES DGO., MX","FM-12","99999","V020","070,1,N,0010,1","22000,1,9,N","020000,1,N,1","+0255,1","+0107,1","10141,1","24,0000,9,1",,,,"01,1,+00750,1,06,1",,"02,99,1,02,1,04,1,01250,1,00,1,00,1",,"01,9",,"120,M,+0310,1","180,N,+0117,1","99999,9,08197,1","7,1,003,1,+999,9",,"SYN130AAXX  07001 76373 32670 20701 10255 20107 38197 40141 57003 82400 92350 333 10310 20117 30/// 50421 56900 58/// 70000 81625 81827;",
"76373099999","2011-09-07T03:00:00","4","25.35","-105.75","1967.0","TEPEHUANES DGO., MX","FM-12","99999","V020","999,9,C,0000,1","22000,1,9,N","000600,1,N,1","+0198,1","+0107,1","10177,1",,,,,"01,1,+00810,1,08,1",,"01,99,1,01,1,08,1,01250,1,00,1,00,1",,"01,9",,,,"99999,9,08211,1","2,1,014,1,+999,9",,"SYN100AAXX  07031 76373 32606 10000 10198 20107 38211 40177 52014 81800 90250 333 30/// 56900 58/// 81827;",
"76373099999","2011-09-07T12:00:00","4","25.35","-105.75","1967.0","TEPEHUANES DGO., MX","FM-12","99999","V020","999,9,C,0000,1","22000,1,9,N","001000,1,N,1","+0098,1","+0086,1","10175,1",,,,,"00,1,+99999,9,99,9",,"00,99,1,00,1,00,1,99999,9,00,1,00,1","0540,9","01,9",,"120,N,+0090,1","240,M,+0311,1","99999,9,08225,1","9,9,999,9,+005,1",,"SYN112AAXX  07121 76373 32910 00000 10098 20086 38225 40175 5//// 91150 333 10311 20090 30072 55090 21772 58005 70000;",
"76373099999","2011-09-07T15:00:00","4","25.35","-105.75","1967.0","TEPEHUANES DGO., MX","FM-12","99999","V020","999,9,C,0000,1","22000,1,9,N","020000,1,N,1","+0156,1","+0095,1","10187,1",,,,,"00,1,+99999,9,99,9",,"00,99,1,00,1,00,1,99999,9,00,1,00,1",,"01,9",,,,"99999,9,08235,1","2,1,007,1,+021,1",,"SYN082AAXX  07151 76373 32970 00000 10156 20095 38235 40187 52007 91450 333 30/// 58021;",
"76373099999","2011-09-07T18:00:00","4","25.35","-105.75","1967.0","TEPEHUANES DGO., MX","FM-12","99999","V020","140,1,N,0010,1","22000,1,9,N","020000,1,N,1","+0272,1","+0055,1","10186,1",,,,,"00,1,+99999,9,99,9",,"00,99,1,00,1,00,1,99999,9,00,1,00,1",,"01,9",,"120,M,+0280,1","240,N,+0090,1","99999,9,08234,1","0,1,002,1,+017,1",,"SYN094AAXX  07181 76373 32970 01401 10272 20055 38234 40186 50002 91750 333 10280 20090 30/// 58017;",
"76373099999","2011-09-07T21:00:00","4","25.35","-105.75","1967.0","TEPEHUANES DGO., MX","FM-12","99999","V020","130,1,N,0020,1","22000,1,9,N","020000,1,N,1","+0291,1","+0022,1","10170,1",,,,,"00,1,+99999,9,99,9",,"00,99,1,00,1,00,1,99999,9,00,1,00,1",,"01,9",,,,"99999,9,08221,1","7,1,023,1,+021,1",,"SYN082AAXX  07211 76373 32970 01302 10291 20022 38221 40170 57023 92050 333 30/// 58021;",
"76373099999","2011-09-08T00:00:00","4","25.35","-105.75","1967.0","TEPEHUANES DGO., MX","FM-12","99999","V020","140,1,N,0010,1","22000,1,9,N","020000,1,N,1","+0284,1","-0003,1","10153,1","24,0000,9,1",,,,"00,1,+99999,9,99,9",,"00,99,1,00,1,00,1,99999,9,00,1,00,1",,"01,9",,"120,M,+0307,1","180,N,+0090,1","99999,9,08207,1","7,1,014,1,+010,1",,"SYN106AAXX  08001 76373 32970 01401 10284 21003 38207 40153 57014 92350 333 10307 20090 30/// 50811 58010 70000;","Q01  00002PRCP24"
"76373099999","2011-09-08T03:00:00","4","25.35","-105.75","1967.0","TEPEHUANES DGO., MX","FM-12","99999","V020","200,1,N,0010,1","22000,1,9,N","000600,1,N,1","+0190,1","+0001,1","10176,1",,,,,"00,1,+99999,9,99,9",,"00,99,1,00,1,00,1,99999,9,00,1,00,1",,"01,9",,,,"99999,9,08226,1","2,1,019,1,+015,1",,"SYN082AAXX  08031 76373 32906 02001 10190 20001 38226 40176 52019 90250 333 30/// 58015;",
"76373099999","2011-09-08T12:00:00","4","25.35","-105.75","1967.0","TEPEHUANES DGO., MX","FM-12","99999","V020","999,9,C,0000,1","22000,1,9,N","001000,1,N,1","+0046,1","+0015,1","10208,1",,,,,"00,1,+99999,9,99,9",,"00,99,1,00,1,00,1,99999,9,00,1,00,1","0666,9","01,9","999,+0032,9","120,N,+0040,1","240,M,+0307,1","99999,9,08251,1","9,9,999,9,+026,1",,"SYN112AAXX  08121 76373 32910 00000 10046 20015 38251 40208 5//// 91150 333 10307 20040 30032 55111 22625 58026 70000;",
"76373099999","2011-09-08T18:00:00","4","25.35","-105.75","1967.0","TEPEHUANES DGO., MX","FM-12","99999","V020","140,1,N,0010,1","22000,1,9,N","030000,1,N,1","+0264,1","+0018,1","10201,1",,,,,"00,1,+99999,9,99,9",,"00,99,1,00,1,00,1,99999,9,00,1,00,1",,"01,9",,"120,M,+0302,1","240,N,+0040,1","99999,9,08246,1","7,1,010,1,+012,1",,"SYN094AAXX  08181 76373 32980 01401 10264 20018 38246 40201 57010 91755 333 10302 20040 30/// 58012;",
"76373099999","2011-09-08T21:00:00","4","25.35","-105.75","1967.0","TEPEHUANES DGO., MX","FM-12","99999","V020","140,1,N,0030,1","22000,1,9,N","030000,1,N,1","+0290,1","-0016,1","10172,1",,,,,"00,1,+99999,9,99,9",,"00,99,1,00,1,00,1,99999,9,00,1,00,1",,"01,9",,,,"99999,9,08222,1","7,1,024,1,+001,1",,"SYN082AAXX  08211 76373 32980 01403 10290 21016 38222 40172 57024 92055 333 30/// 58001;",
"76373099999","2011-09-09T00:00:00","4","25.35","-105.75","1967.0","TEPEHUANES DGO., MX","FM-12","99999","V020","140,1,N,0010,1","22000,1,9,N","030000,1,N,1","+0276,1","-0008,1","10158,1","24,0000,9,1",,,,"00,1,+99999,9,99,9",,"00,99,1,00,1,00,1,99999,9,00,1,00,1",,"01,9",,"120,M,+0310,1","180,N,+0040,1","99999,9,08211,1","7,1,011,1,+004,1",,"SYN106AAXX  09001 76373 32980 01401 10276 21008 38211 40158 57011 92355 333 10310 20040 30/// 50581 58004 70000;","Q01  00002PRCP24"
"76373099999","2011-09-09T03:00:00","4","25.35","-105.75","1967.0","TEPEHUANES DGO., MX","FM-12","99999","V020","999,9,C,0000,1","22000,1,9,N","001000,1,N,1","+0172,1","+0001,1","10178,1",,,,,"00,1,+99999,9,99,9",,"00,99,1,00,1,00,1,99999,9,00,1,00,1",,"01,9",,,,"99999,9,08228,1","2,1,017,1,+002,1",,"SYN082AAXX  09031 76373 32910 00000 10172 20001 38228 40178 52017 90255 333 30/// 58002;",
"76373099999","2011-09-09T12:00:00","4","25.35","-105.75","1967.0","TEPEHUANES DGO., MX","FM-12","99999","V020","999,9,C,0000,1","22000,1,9,N","001000,1,N,1","+0058,1","+0017,1","10192,1",,,,,"00,1,+99999,9,99,9",,"00,99,1,00,1,00,1,99999,9,00,1,00,1","0660,9","01,9","999,+0010,9","120,N,+0042,1","240,M,+0310,1","99999,9,08239,1","9,9,999,9,-012,1",,"SYN112AAXX  09121 76373 32910 00000 10058 20017 38239 40192 5//// 91155 333 10310 20042 30010 55110 22563 59012 70000;",
"76373099999","2011-09-09T18:00:00","4","25.35","-105.75","1967.0","TEPEHUANES DGO., MX","FM-12","99999","V020","999,9,C,0000,1","22000,1,9,N","030000,1,N,1","+0264,1","+0018,1","10180,1",,,,,"01,1,+05100,1,00,1",,"01,99,1,00,1,00,1,99999,9,00,1,01,1",,"01,9",,"120,M,+0270,1","240,N,+0042,1","99999,9,08229,1","7,1,010,1,-017,1",,"SYN112AAXX  09181 76373 32980 10000 10264 20018 38229 40180 57010 81001 91755 333 10270 20042 30/// 56009 59017 81067;","Q01+000012SCOTLC"
"76373099999","2011-09-09T21:00:00","4","25.35","-105.75","1967.0","TEPEHUANES DGO., MX","FM-12","99999","V020","140,1,N,0010,1","22000,1,9,N","030000,1,N,1","+0294,1","+0023,1","10145,1",,,,,"00,1,+99999,9,99,9",,"00,99,1,00,1,00,1,99999,9,00,1,00,1",,"01,9",,,,"99999,9,08201,1","7,1,028,1,-019,1",,"SYN082AAXX  09211 76373 32980 01401 10294 20023 38201 40145 57028 92055 333 30/// 59019;",
"76373099999","2011-09-10T00:00:00","4","25.35","-105.75","1967.0","TEPEHUANES DGO., MX","FM-12","99999","V020","140,1,N,0020,1","22000,1,9,N","030000,1,N,1","+0274,1","+0031,1","10126,1","24,0000,9,1",,,,"00,1,+99999,9,99,9",,"00,99,1,00,1,00,1,99999,9,00,1,00,1",,"01,9",,"120,M,+0300,1","180,N,+0042,1","99999,9,08185,1","7,1,016,1,-026,1",,"SYN106AAXX  10001 76373 32980 01402 10274 20031 38185 40126 57016 92355 333 10300 20042 30/// 50841 59026 70000;","Q01  00002PRCP24"
"76373099999","2011-09-10T03:00:00","4","25.35","-105.75","1967.0","TEPEHUANES DGO., MX","FM-12","99999","V020","999,9,C,0000,1","22000,1,9,N","001000,1,N,1","+0198,1","+0051,1","10142,1",,,,,"00,1,+99999,9,99,9",,"00,99,1,00,1,00,1,99999,9,00,1,00,1",,"01,9",,,,"99999,9,08198,1","2,1,013,1,-030,1",,"SYN082AAXX  10031 76373 32910 00000 10198 20051 38198 40142 52013 90255 333 30/// 59030;",
"76373099999","2011-09-10T15:00:00","4","25.35","-105.75","1967.0","TEPEHUANES DGO., MX","FM-12","99999","V020","999,9,C,0000,1","22000,1,9,N","030000,1,N,1","+9999,9","+9999,9","10183,1",,,,,"02,1,+05100,1,00,1",,"02,99,1,00,1,00,1,99999,9,00,1,02,1",,"01,9",,,,"99999,9,08231,1","2,1,011,1,-008,1",,"SYN094AAXX  10151 76373 32980 20000 20067 38231 40183 52011 82002 91455 333 30/// 56009 59008 82067;","Q01+000022SCOTLC"
"76373099999","2011-09-11T00:00:00","4","25.35","-105.75","1967.0","TEPEHUANES DGO., MX","FM-12","99999","V020","110,1,N,0010,1","22000,1,9,N","020000,1,N,1","+0291,1","+0034,1","10130,1","24,0000,9,1",,,,,,"02,99,1,99,9,02,1,00800,1,00,1,00,1",,"01,9",,"120,M,+0317,1","180,N,+0070,1","99999,9,08188,1","2,1,006,1,+003,1",,"SYN124AAXX  11001 76373 32570 21101 10291 20034 38188 40130 52006 81200 92350 333 10317 20070 30/// 50571 56900 58003 70000 81825;","Q01+000012SCOTLC"
"76373099999","2011-09-11T03:00:00","4","25.35","-105.75","1967.0","TEPEHUANES DGO., MX","FM-12","99999","V020","999,9,C,0000,1","22000,1,9,N","005000,1,N,1","+0208,1","+0045,1","10146,1",,,,,"00,1,+99999,9,99,9",,"00,99,1,00,1,00,1,99999,9,00,1,00,1",,"01,9",,,,"99999,9,08202,1","2,1,020,1,+004,1",,"SYN082AAXX  11031 76373 32950 00000 10208 20045 38202 40146 52020 90250 333 30/// 58004;",
"76373099999","2011-09-11T12:00:00","4","25.35","-105.75","1967.0","TEPEHUANES DGO., MX","FM-12","99999","V020","999,9,C,0000,1","22000,1,9,N","005000,1,N,1","+0090,1","+0057,1","10190,1",,,,,"00,1,+99999,9,99,9",,"00,99,1,00,1,00,1,99999,9,00,1,00,1","0648,9","01,9","999,+0035,9","120,N,+0075,1","240,M,+0317,1","99999,9,08237,1","9,9,999,9,+015,1",,"SYN112AAXX  11121 76373 32950 00000 10090 20057 38237 40190 5//// 91150 333 10317 20075 30035 55108 23076 58015 70000;",
"76373099999","2011-09-11T15:00:00","4","25.35","-105.75","1967.0","TEPEHUANES DGO., MX","FM-12","99999","V020","999,9,C,0000,1","22000,1,9,N","020000,1,N,1","+0159,1","+0065,1","10201,1",,,,,"00,1,+99999,9,99,9",,"00,99,1,00,1,00,1,99999,9,00,1,00,1",,"01,9",,,,"99999,9,08246,1","2,1,009,1,+015,1",,"SYN082AAXX  11151 76373 32970 00000 10159 20065 38246 40201 52009 91450 333 30/// 58015;",
"76373099999","2011-09-11T18:00:00","4","25.35","-105.75","1967.0","TEPEHUANES DGO., MX","FM-12","99999","V020","130,1,N,0010,1","22000,1,9,N","020000,1,N,1","+0278,1","+0062,1","10191,1",,,,,"00,1,+99999,9,99,9",,"00,99,1,00,1,00,1,99999,9,00,1,00,1",,"01,9",,"120,M,+0280,1","240,N,+0075,1","99999,9,08238,1","7,1,008,1,+017,1",,"SYN094AAXX  11181 76373 32970 01301 10278 20062 38238 40191 57008 91750 333 10280 20075 30/// 58017;",
"76373099999","2011-09-11T21:00:00","4","25.35","-105.75","1967.0","TEPEHUANES DGO., MX","FM-12","99999","V020","130,1,N,0010,1","22000,1,9,N","020000,1,N,1","+0312,1","+0038,1","10164,1",,,,,"02,1,+00750,1,08,1",,"02,99,1,02,1,02,1,00800,1,00,1,00,1",,"01,9",,,,"99999,9,08216,1","7,1,022,1,+022,1",,"SYN100AAXX  11211 76373 32570 21301 10312 20038 38216 40164 57022 82200 92050 333 30/// 56900 58022 82825;",
"76373099999","2011-09-12T00:00:00","4","25.35","-105.75","1967.0","TEPEHUANES DGO., MX","FM-12","99999","V020","110,1,N,0010,1","22000,1,9,N","020000,1,N,1","+0283,1","+0009,1","10160,1","24,0000,9,1",,,,,,"02,99,1,02,1,02,1,00800,1,00,1,00,1",,"01,9",,"120,M,+0320,1","180,N,+0075,1","99999,9,08213,1","7,1,003,1,+025,1",,"SYN124AAXX  12001 76373 32570 21101 10283 20009 38213 40160 57003 82200 92350 333 10320 20075 30/// 50601 56900 58025 70000 82825;",
"76373099999","2011-09-12T12:00:00","4","25.35","-105.75","1967.0","TEPEHUANES DGO., MX","FM-12","99999","V020","999,9,C,0000,1","22000,1,9,N","005000,1,N,1","+0090,1","+0048,1","10210,1",,,,,"00,1,+99999,9,99,9",,"00,99,1,00,1,00,1,99999,9,00,1,00,1","0660,9","01,9","999,+0025,9","120,N,+0078,1","240,M,+0320,1","99999,9,08253,1","9,9,999,9,+026,1",,"SYN112AAXX  12121 76373 32950 00000 10090 20048 38253 40210 5//// 91150 333 10320 20078 30025 55110 22013 58026 70000;",
"76373099999","2011-09-12T15:00:00","4","25.35","-105.75","1967.0","TEPEHUANES DGO., MX","FM-12","99999","V020","999,9,C,0000,1","22000,1,9,N","020000,1,N,1","+0172,1","+0055,1","10226,1",,,,,"00,1,+99999,9,99,9",,"00,99,1,00,1,00,1,99999,9,00,1,00,1",,"01,9",,,,"99999,9,08266,1","2,1,013,1,+020,1",,"SYN082AAXX  12151 76373 32970 00000 10172 20055 38266 40226 52013 91450 333 30/// 58020;",
"76373099999","2011-09-12T18:00:00","4","25.35","-105.75","1967.0","TEPEHUANES DGO., MX","FM-12","99999","V020","999,9,C,0000,1","22000,1,9,N","020000,1,N,1","+0289,1","+0068,1","10210,1",,,,,"00,1,+99999,9,99,9",,"00,99,1,00,1,00,1,99999,9,00,1,00,1",,"01,9",,"120,M,+0295,1","240,N,+0078,1","99999,9,08253,1","7,1,013,1,+015,1",,"SYN094AAXX  12181 76373 32970 00000 10289 20068 38253 40210 57013 91750 333 10295 20078 30/// 58015;",
"76373099999","2011-09-12T21:00:00","4","25.35","-105.75","1967.0","TEPEHUANES DGO., MX","FM-12","99999","V020","130,1,N,0010,1","22000,1,9,N","020000,1,N,1","+0310,1","+0052,1","10175,1",,,,,"02,1,+00750,1,08,1",,"02,99,1,02,1,02,1,00800,1,00,1,00,1",,"01,9",,,,"99999,9,08225,1","7,1,028,1,+009,1",,"SYN100AAXX  12211 76373 32570 21301 10310 20052 38225 40175 57028 82200 92050 333 30/// 56900 58009 82825;",
"76373099999","2011-09-13T00:00:00","4","25.35","-105.75","1967.0","TEPEHUANES DGO., MX","FM-12","99999","V020","130,1,N,0010,1","22000,1,9,N","020000,1,N,1","+0285,1","+0060,1","10165,1","24,0000,9,1",,,,,,"04,99,1,04,1,02,1,00800,1,00,1,00,1",,"01,9",,"120,M,+0328,1","180,N,+0078,1","99999,9,08217,1","7,1,008,1,+004,1",,"SYN124AAXX  13001 76373 32570 41301 10285 20060 38217 40165 57008 84200 92350 333 10328 20078 30/// 50751 56900 58004 70000 84825;",
"76373099999","2011-09-13T21:00:00","4","25.35","-105.75","1967.0","TEPEHUANES DGO., MX","FM-12","99999","V020","110,1,N,0010,1","22000,1,9,N","020000,1,N,1","+0342,1","+0065,1","10155,1",,,,,"03,1,+00750,1,08,1",,"03,99,1,03,1,02,1,00800,1,00,1,00,1",,"01,9",,,,"99999,9,08209,1","7,1,010,1,-016,1",,"SYN100AAXX  13211 76373 32570 31101 10342 20065 38209 40155 57010 83200 92050 333 30/// 56900 59016 83825;",
"76373099999","2011-09-14T00:00:00","4","25.35","-105.75","1967.0","TEPEHUANES DGO., MX","FM-12","99999","V020","999,9,C,0000,1","03600,1,9,N","020000,1,N,1","+0297,1","+0062,1","10145,1","24,0000,9,1",,,,,,"05,99,1,03,1,02,1,00800,1,02,1,00,1",,"01,9",,"120,M,+0350,1","180,N,+0120,1","99999,9,08201,1","7,1,008,1,-016,1",,"SYN124AAXX  14001 76373 32570 50000 10297 20062 38201 40145 57008 83220 92350 333 10350 20120 30/// 50711 56900 59016 70000 83825;",
"76373099999","2011-09-14T03:00:00","4","25.35","-105.75","1967.0","TEPEHUANES DGO., MX","FM-12","99999","V020","999,9,C,0000,1","22000,1,9,N","005000,1,N,1","+0231,1","+0114,1","10159,1",,,,,"00,1,+99999,9,99,9",,"00,99,1,00,1,00,1,99999,9,00,1,00,1",,"01,9",,,,"99999,9,08212,1","2,1,011,1,+005,1",,"SYN082AAXX  14031 76373 32950 00000 10231 20114 38212 40159 52011 90250 333 30/// 58005;",
"76373099999","2011-09-14T12:00:00","4","25.35","-105.75","1967.0","TEPEHUANES DGO., MX","FM-12","99999","V020","999,9,C,0000,1","22000,1,9,N","005000,1,N,1","+0135,1","+0102,1","10163,1",,,,,"00,1,+99999,9,99,9",,"00,99,1,00,1,00,1,99999,9,00,1,00,1","0546,9","01,9",,"120,N,+0120,1","240,M,+0350,1","99999,9,08215,1","9,9,999,9,-028,1",,"SYN112AAXX  14121 76373 32950 00000 10135 20102 38215 40163 5//// 91150 333 10350 20120 30078 55091 21949 59028 70000;",
"76373099999","2011-09-14T15:00:00","4","25.35","-105.75","1967.0","TEPEHUANES DGO., MX","FM-12","99999","V020","999,9,C,0000,1","22000,1,9,N","020000,1,N,1","+0194,1","+0112,1","10165,1",,,,,"00,1,+99999,9,99,9",,"00,99,1,00,1,00,1,99999,9,00,1,00,1",,"01,9",,,,"99999,9,08217,1","2,1,002,1,-015,1",,"SYN082AAXX  14151 76373 32970 00000 10194 20112 38217 40165 52002 91450 333 30/// 59015;",
"76373099999","2011-09-14T21:00:00","4","25.35","-105.75","1967.0","TEPEHUANES DGO., MX","FM-12","99999","V020","340,1,N,0020,1","99999,9,9,N","020000,1,N,1","+0287,1","+0094,1","10132,1",,,,,"04,1,+00750,1,06,1",,"06,99,1,04,1,07,1,00800,1,99,9,00,1",,"01,9",,,,"99999,9,08190,1","7,1,011,1,-019,1",,"SYN100AAXX  14211 76373 32570 63402 10287 20094 38190 40132 57011 847/0 92050 333 30/// 56900 59019 84625;",
"76373099999","2011-09-15T00:00:00","4","25.35","-105.75","1967.0","TEPEHUANES DGO., MX","FM-12","99999","V020","110,1,N,0010,1","00750,1,9,N","020000,1,N,1","+0225,1","+0115,1","10139,1","24,0000,9,1",,,,,,"08,99,1,08,1,07,1,00800,1,00,1,00,1",,"01,9",,"120,M,+0322,1","180,N,+0120,1","99999,9,08196,1","2,1,006,1,-005,1",,"SYN124AAXX  15001 76373 32570 81101 10225 20115 38196 40139 52006 88700 92350 333 10322 20120 30/// 50681 56900 59005 70000 88625;",
"76373099999","2011-09-15T03:00:00","4","25.35","-105.75","1967.0","TEPEHUANES DGO., MX","FM-12","99999","V020","110,1,N,0010,1","99999,9,9,N","005000,1,N,1","+0173,1","+0148,1","10155,1",,,,,,,"08,99,1,99,9,02,1,00800,1,05,1,00,1",,,,,,"99999,9,08209,1","2,1,013,1,-003,1",,"SYN100AAXX  15031 76373 32550 81101 10173 20148 38209 40155 52013 80250 88600 333 30/// 56900 59003 88625;","Q01+000002SCOTLC"
"76373099999","2011-09-15T12:00:00","4","25.35","-105.75","1967.0","TEPEHUANES DGO., MX","FM-12","99999","V020","999,9,C,0000,1","22000,1,9,N","005000,1,N,1","+0141,1","+0134,1","10149,1","24,0020,9,1",,,,,,"03,99,1,03,1,04,1,00800,1,00,1,00,1","0390,9","01,9",,"120,N,+0128,1","240,M,+0322,1","99999,9,08204,1","9,9,999,9,-011,1",,"SYN124AAXX  15121 76373 32550 30000 10141 20134 38204 40149 5//// 83400 91150 333 10322 20128 30118 55065 21594 59011 70020 83625;",
"76373099999","2011-09-15T15:00:00","4","25.35","-105.75","1967.0","TEPEHUANES DGO., MX","FM-12","99999","V020","999,9,C,0000,1","22000,1,9,N","020000,1,N,1","+0171,1","+0133,1","10160,1",,,,,"01,1,+00750,1,06,1",,"01,99,1,01,1,04,1,00800,1,00,1,00,1",,"01,9",,,,"99999,9,08213,1","2,1,009,1,-004,1",,"SYN100AAXX  15151 76373 32570 10000 10171 20133 38213 40160 52009 81400 91450 333 30/// 56200 59004 81625;",
"76373099999","2011-09-15T18:00:00","4","25.35","-105.75","1967.0","TEPEHUANES DGO., MX","FM-12","99999","V020","999,9,C,0000,1","22000,1,9,N","020000,1,N,1","+0282,2","+0122,1","10152,1",,,,,"01,1,+00750,1,08,1",,"01,99,1,01,1,02,1,00800,1,00,1,00,1",,"01,9",,"120,M,+0290,1","240,N,+0128,1","99999,9,08206,1","7,1,007,1,-005,1",,"SYN112AAXX  15181 76373 32570 10000 10282 20122 38206 40152 57007 81200 91750 333 10290 20128 30/// 56900 59005 81825;",
"76373099999","2011-09-16T00:00:00","4","25.35","-105.75","1967.0","TEPEHUANES DGO., MX","FM-12","99999","V020","230,1,N,0010,1","22000,1,9,N","030000,1,N,1","+0276,1","+0086,1","10116,1","24,0020,9,1",,,,"02,1,+00600,1,06,1",,"04,99,1,04,1,04,1,00800,1,00,1,00,1",,"01,9",,"120,M,+0312,1","180,N,+0128,1","99999,9,08177,1","7,1,017,1,-019,1",,"SYN130AAXX  16001 76373 32580 42301 10276 20086 38177 40116 57017 84400 92355 333 10312 20128 30/// 50461 56900 59019 70020 82620 82825;",
"76373099999","2011-09-16T15:00:00","4","25.35","-105.75","1967.0","TEPEHUANES DGO., MX","FM-12","99999","V020","320,1,N,0010,1","00750,1,9,N","030000,1,N,1","+0174,1","+0124,1","10180,1",,,,,"04,1,+00600,1,06,1",,"05,99,1,05,1,05,1,00800,1,00,1,00,1",,"01,9",,,,"99999,9,08229,1","2,1,007,1,+016,1",,"SYN106AAXX  16151 76373 32580 53201 10174 20124 38229 40180 52007 85500 91455 333 30/// 56900 58016 84620 81825;",
"76373099999","2011-09-16T18:00:00","4","25.35","-105.75","1967.0","TEPEHUANES DGO., MX","FM-12","99999","V020","140,1,N,0010,1","00750,1,9,N","030000,1,N,1","+0262,1","+0141,1","10176,1",,,,,"02,1,+00600,1,06,1","01,1,+00750,1,08,1","05,99,1,05,1,02,1,00800,1,01,1,02,1",,"01,9",,"120,M,+0270,1","240,N,+0120,1","99999,9,08226,1","5,1,000,1,+020,1",,"SYN124AAXX  16181 76373 32580 51401 10262 20141 38226 40176 55000 85212 91755 333 10270 20120 30/// 56999 58020 82620 81825 81067;",
"76373099999","2011-09-16T21:00:00","4","25.35","-105.75","1967.0","TEPEHUANES DGO., MX","FM-12","99999","V020","140,1,N,0010,1","22000,1,9,N","030000,1,N,1","+0294,1","+0103,1","10148,1",,,,,"02,1,+00750,1,08,1",,"04,99,1,04,1,04,1,00800,1,00,1,00,1",,"01,9",,,,"99999,9,08230,1","7,1,023,1,+011,1",,"SYN106AAXX  16211 76373 32580 41401 10294 20103 38230 40148 57023 84400 92055 333 30/// 569// 58011 82825 82725;",
"76373099999","2011-09-17T03:00:00","4","25.35","-105.75","1967.0","TEPEHUANES DGO., MX","FM-12","99999","V020","999,9,C,0000,1","01200,1,C,N","001000,1,N,1","+0188,1","+0148,1","10178,1",,,,,"04,1,+00600,1,07,1",,"08,99,1,08,1,08,1,00800,1,00,1,00,1",,"01,9",,,,"99999,9,08227,1","2,1,027,1,+000,1",,"SYN106AAXX  17031 76373 32510 80000 10188 20148 38227 40178 52027 88800 90245 333 30/// 56900 58000 84720 84625;",
"76373099999","2011-09-17T15:00:00","4","25.35","-105.75","1967.0","TEPEHUANES DGO., MX","FM-12","99999","V020","999,9,C,0000,1","00600,1,9,N","030000,1,N,1","+0146,1","+0133,1","10193,1",,,,,"06,1,+00600,1,06,1",,"06,99,1,06,1,06,1,00800,1,00,1,00,1",,"01,9",,,,"99999,9,08239,1","2,1,014,1,+010,1",,"SYN100AAXX  17151 76373 32580 60000 10146 20133 38239 40193 52014 86600 91455 333 30/// 56900 58010 86620;",
"76373099999","2011-09-17T18:00:00","4","25.35","-105.75","1967.0","TEPEHUANES DGO., MX","FM-12","99999","V020","140,1,N,0010,1","00750,1,C,N","030000,1,N,1","+0252,1","+0132,1","10189,1",,,,,"04,1,+00750,1,06,1",,"06,99,1,06,1,06,1,00800,1,00,1,00,1",,"01,9",,"120,M,+0262,1","240,N,+0112,1","99999,9,08236,1","4,1,000,1,+016,1",,"SYN118AAXX  17181 76373 32580 61401 10252 20132 38236 40189 54000 86600 91755 333 10262 20112 30/// 56900 58016 84625 82337;",
"76373099999","2011-09-18T00:00:00","4","25.35","-105.75","1967.0","TEPEHUANES DGO., MX","FM-12","99999","V020","999,9,C,0000,1","00750,1,9,N","020000,1,N,1","+0177,1","+0154,1","10164,1","03,0051,9,1","24,0051,9,1",,,,,"08,99,1,08,1,07,1,00800,1,00,1,00,1",,"09,9",,"120,M,+0305,1","180,N,+0112,1","99999,9,08216,1","2,1,012,1,+016,1",,"SYN130AAXX  18001 76373 12570 80000 10177 20154 38216 40164 52012 60057 88700 92350 333 10305 20112 31/// 50901 56900 58016 70051 88625;",
"76373099999","2011-09-18T03:00:00","4","25.35","-105.75","1967.0","TEPEHUANES DGO., MX","FM-12","99999","V020","999,9,C,0000,1","00750,1,9,N","005000,1,N,1","+0171,1","+0154,1","10178,1",,,,,"08,1,+00750,1,06,1",,"08,99,1,08,1,07,1,00800,1,00,1,00,1",,"01,9",,,,"99999,9,08228,1","2,1,012,1,+001,1",,"SYN100AAXX  18031 76373 32550 80000 10171 20154 38228 40178 52012 88700 90250 333 30/// 56900 58001 88625;",
"76373099999","2011-09-18T12:00:00","4","25.35","-105.75","1967.0","TEPEHUANES DGO., MX","FM-12","99999","V020","999,9,C,0000,1","22000,1,9,N","005000,1,N,1","+0123,1","+0119,1","10183,1",,,,,"00,1,+99999,9,99,9",,"00,99,1,00,1,00,1,99999,9,00,1,00,1","0174,9","01,9",,"120,N,+0116,1","240,M,+0305,1","99999,9,08232,1","9,9,999,9,+007,1",,"SYN112AAXX  18121 76373 32950 00000 10123 20119 38232 40183 5//// 91150 333 10305 20116 30088 55029 21192 58007 70051;",
"76373099999","2011-09-18T15:00:00","4","25.35","-105.75","1967.0","TEPEHUANES DGO., MX","FM-12","99999","V020","999,9,C,0000,1","22000,1,9,N","020000,1,N,1","+0174,1","+0134,1","10193,1",,,,,"01,1,+00750,1,06,1",,"01,99,1,01,1,04,1,00800,1,00,1,00,1",,"01,9",,,,"99999,9,08240,1","2,1,008,1,+001,1",,"SYN100AAXX  18151 76373 32570 10000 10174 20134 38240 40193 52008 81400 91450 333 30/// 56900 58001 81625;",
"76373099999","2011-09-18T18:00:00","4","25.35","-105.75","1967.0","TEPEHUANES DGO., MX","FM-12","99999","V020","130,1,N,0010,1","22000,1,9,N","020000,1,N,1","+0261,1","+0151,1","10185,1",,,,,"01,1,+00750,1,08,1",,"01,99,1,01,1,02,1,00800,1,00,1,00,1",,"01,9",,"120,M,+0270,1","240,N,+0116,1","99999,9,08233,1","7,1,007,1,-006,1",,"SYN112AAXX  18181 76373 32570 11301 10261 20151 38233 40185 57007 81200 91750 333 10270 20116 30/// 56900 59006 81825;",
"76373099999","2011-09-18T21:00:00","4","25.35","-105.75","1967.0","TEPEHUANES DGO., MX","FM-12","99999","V020","110,1,N,0010,1","22000,1,9,N","020000,1,N,1","+0301,1","+0089,1","10154,1",,,,,"04,1,+00750,1,08,1",,"04,99,1,04,1,02,1,00800,1,00,1,00,1",,"01,9",,,,"99999,9,08208,1","7,1,025,1,+004,1",,"SYN100AAXX  18211 76373 32570 41101 10301 20089 38208 40154 57025 84200 92050 333 30/// 56900 58004 84825;",
"76373099999","2011-09-19T12:00:00","4","25.35","-105.75","1967.0","TEPEHUANES DGO., MX","FM-12","99999","V020","999,9,C,0000,1","22000,1,9,N","005000,1,N,1","+0103,1","+0088,1","10185,1",,,,,"00,1,+99999,9,99,9",,"00,99,1,00,1,00,1,99999,9,00,1,00,1","0486,9","01,9",,"120,N,+9999,9","240,M,+0320,1","99999,9,08233,1","9,9,999,9,+001,1",,"SYN112AAXX  19121 76373 32950 00000 10103 20088 38233 40185 5//// 91150 333 10320 20110 30055 55081 21812 58001 70000;","Q01 +01102ATMN  "
"76373099999","2011-09-19T18:00:00","4","25.35","-105.75","1967.0","TEPEHUANES DGO., MX","FM-12","99999","V020","120,1,N,0010,1","22000,1,9,N","020000,1,N,1","+0286,2","+0059,1","10183,1",,,,,"03,1,+00750,1,08,1",,"03,99,1,03,1,02,1,00800,1,00,1,00,1",,"01,9",,"120,M,+0295,1","240,N,+0090,1","99999,9,08232,1","7,1,002,1,-001,1",,"SYN112AAXX  19181 76373 32570 31201 10286 20059 38232 40183 57002 83200 91750 333 10295 20090 30/// 56900 59001 83825;",
"76373099999","2011-09-20T00:00:00","4","25.35","-105.75","1967.0","TEPEHUANES DGO., MX","FM-12","99999","V020","999,9,C,0000,1","22000,1,9,N","020000,1,N,1","+0272,1","+0050,1","10150,1","24,0000,9,1",,,,"02,1,+00810,1,08,1",,"03,99,1,02,1,02,1,01250,1,00,1,00,1",,"01,9",,"120,M,+0317,1","180,N,+0090,1","99999,9,08205,1","7,1,008,1,-003,1",,"SYN130AAXX  20001 76373 32670 30000 10272 20050 38205 40150 57008 82200 92350 333 10317 20090 30/// 50471 56900 59003 70000 82827 81625;",
"76373099999","2011-09-20T12:00:00","4","25.35","-105.75","1967.0","TEPEHUANES DGO., MX","FM-12","99999","V020","999,9,C,0000,1","22000,1,9,N","000600,1,N,1","+0091,1","+0055,1","10178,1",,,,,"00,1,+99999,9,99,9",,"00,99,1,00,1,00,1,99999,9,00,1,00,1","0546,9","01,9",,"120,N,+0080,1","240,M,+0317,1","99999,9,08228,1","9,9,999,9,-005,1",,"SYN112AAXX  20121 76373 32906 00000 10091 20055 38228 40178 5//// 91150 333 10317 20080 30066 55091 21562 59005 70000;",
"76373099999","2011-09-20T15:00:00","4","25.35","-105.75","1967.0","TEPEHUANES DGO., MX","FM-12","99999","V020","999,9,C,0000,1","22000,1,9,N","020000,1,N,1","+0153,1","+0066,1","10191,1",,,,,"01,1,+05100,1,00,1",,"01,99,1,00,1,00,1,99999,9,00,1,04,1",,"01,9",,,,"99999,9,08238,1","2,1,010,1,-003,1",,"SYN100AAXX  20151 76373 32970 10000 10153 20066 38238 40191 52010 80004 91445 333 30/// 56009 59003 81067;",
"76373099999","2011-09-20T18:00:00","4","25.35","-105.75","1967.0","TEPEHUANES DGO., MX","FM-12","99999","V020","130,1,N,0010,1","22000,1,9,N","020000,1,N,1","+0281,1","+0086,1","10171,1",,,,,"02,1,+00810,1,08,1",,"03,99,1,02,1,02,1,01250,1,00,1,07,1",,"01,9",,"120,M,+0290,1","240,N,+0080,1","99999,9,08221,1","7,1,017,1,-011,1",,"SYN112AAXX  20181 76373 32670 31301 10281 20086 38221 40171 57017 82207 91750 333 10290 20080 30/// 56909 59011 82827;",
"76373099999","2011-09-20T21:00:00","4","25.35","-105.75","1967.0","TEPEHUANES DGO., MX","FM-12","99999","V020","080,1,N,0010,1","22000,1,9,N","020000,1,N,1","+0298,1","+0018,1","10144,1",,,,,"04,1,+00690,1,06,1",,"04,99,1,04,1,04,1,00800,1,00,1,00,1",,"01,9",,,,"99999,9,08200,1","7,1,021,1,+999,9",,"SYN100AAXX  20211 76373 32570 40801 10298 20018 38200 40144 57021 84400 92050 333 30/// 56900 58/// 84623;",
"76373099999","2011-09-21T00:00:00","4","25.35","-105.75","1967.0","TEPEHUANES DGO., MX","FM-12","99999","V020","050,1,N,0020,1","22000,1,9,N","020000,1,N,1","+0272,1","+0055,1","10133,1","24,0000,9,1",,,,"03,1,+00690,1,06,1",,"04,99,1,03,1,04,1,00800,1,00,1,00,1",,"01,9",,"120,M,+0326,1","180,N,+0080,1","99999,9,08191,1","7,1,009,1,-014,1",,"SYN130AAXX  21001 76373 32570 40502 10272 20055 38191 40133 57009 83400 92350 333 10326 20080 30/// 50601 56900 59014 70000 83623 81827;",
"76373099999","2011-09-21T03:00:00","4","25.35","-105.75","1967.0","TEPEHUANES DGO., MX","FM-12","99999","V020","999,9,C,0000,1","22000,1,9,N","020000,1,N,1","+0210,1","+0066,1","10149,1",,,,,"01,1,+00810,1,08,1",,"01,99,1,01,1,02,1,01250,1,00,1,00,1",,"01,9",,,,"99999,9,08204,1","2,1,013,1,+999,9",,"SYN100AAXX  21031 76373 32670 10000 10210 20066 38204 40149 52013 81200 90250 333 30/// 56900 58/// 81827;",
"76373099999","2011-09-21T12:00:00","4","25.35","-105.75","1967.0","TEPEHUANES DGO., MX","FM-12","99999","V020","999,9,C,0000,1","22000,1,9,N","000600,1,N,1","+0086,1","+0050,1","10166,1",,,,,"00,1,+99999,9,99,9",,"00,99,1,00,1,00,1,99999,9,00,1,00,1","0534,9","01,9",,"120,N,+0079,1","240,M,+0326,1","99999,9,08218,1",,,"SYN112AAXX  21121 76373 32906 00000 10086 20050 38218 40166 5//// 91150 333 10326 20079 30052 55089 21812 55010 70000;",
"76373099999","2011-09-21T15:00:00","4","25.35","-105.75","1967.0","TEPEHUANES DGO., MX","FM-12","99999","V020","999,9,C,0000,1","22000,1,9,N","020000,1,N,1","+0154,1","+0061,1","10164,1",,,,,"00,1,+99999,9,99,9",,"00,99,1,00,1,00,1,99999,9,00,1,00,1",,"01,9",,,,"99999,9,08216,1","8,1,002,1,-022,1",,"SYN082AAXX  21151 76373 32970 00000 10154 20061 38216 40164 58002 91450 333 30/// 59022;",
"76373099999","2011-09-21T18:00:00","4","25.35","-105.75","1967.0","TEPEHUANES DGO., MX","FM-12","99999","V020","130,1,N,0010,1","22000,1,9,N","020000,1,N,1","+0286,1","+0073,1","10172,1",,,,,"01,1,+00810,1,08,1",,"01,99,1,01,1,02,1,01250,1,00,1,00,1",,"01,9",,"120,M,+0295,1","240,N,+0079,1","99999,9,08222,1","2,1,006,1,+001,1",,"SYN112AAXX  21181 76373 32670 11301 10286 20073 38222 40172 52006 81200 91750 333 10295 20079 30/// 56900 58001 81827;",
"76373099999","2011-09-21T21:00:00","4","25.35","-105.75","1967.0","TEPEHUANES DGO., MX","FM-12","99999","V020","110,1,N,0020,1","22000,1,9,N","020000,1,N,1","+0303,1","+0042,1","10146,1",,,,,"03,1,+00690,1,06,1",,"03,99,1,03,1,04,1,00800,1,00,1,00,1",,"01,9",,,,"99999,9,08201,1","7,1,021,1,+001,1",,"SYN100AAXX  21211 76373 32570 31102 10303 20042 38201 40146 57021 83400 92050 333 30/// 56900 58001 83623;",
"76373099999","2011-09-22T00:00:00","4","25.35","-105.75","1967.0","TEPEHUANES DGO., MX","FM-12","99999","V020","050,1,N,0010,1","99999,9,9,N","020000,1,N,1","+0266,1","+0039,1","10144,1","24,0000,9,1",,,,"04,1,+00690,1,07,1",,"06,99,1,04,1,07,1,00800,1,00,1,00,1",,"01,9",,"120,M,+0322,1","180,N,+0079,1","99999,9,08197,1","7,1,004,1,+006,1",,"SYN130AAXX  22001 76373 32570 60501 10266 20039 38197 40144 57004 84700 92350 333 10322 20079 30/// 50501 56900 58006 70000 84723 82625;",
"76373099999","2011-09-22T03:00:00","4","25.35","-105.75","1967.0","TEPEHUANES DGO., MX","FM-12","99999","V020","999,9,C,0000,1","22000,1,9,N","001000,1,N,1","+0200,1","+0040,1","10159,1",,,,,"01,1,+00810,1,08,1",,"01,99,1,01,1,02,1,01250,1,00,1,00,1",,"01,9",,,,"99999,9,08212,1","2,1,015,1,+008,1",,"SYN100AAXX  22031 76373 32610 10000 10200 20040 38212 40159 52015 81200 90250 333 30/// 56900 58008 81827;",
"76373099999","2011-09-22T12:00:00","4","25.35","-105.75","1967.0","TEPEHUANES DGO., MX","FM-12","99999","V020","999,9,C,0000,1","22000,1,9,N","000600,1,N,1","+0090,1","+0052,1","10183,1",,,,,"00,1,+99999,9,99,9",,"00,99,1,00,1,00,1,99999,9,00,1,00,1","0516,9","01,9",,"120,N,+0081,1","240,M,+0322,1","99999,9,08231,1","9,9,999,9,+013,1",,"SYN112AAXX  22121 76373 32906 00000 10090 20052 38231 40183 5//// 91150 333 10322 20081 30063 55086 21796 58013 70000;",
"76373099999","2011-09-22T15:00:00","4","25.35","-105.75","1967.0","TEPEHUANES DGO., MX","FM-12","99999","V020","999,9,C,0000,1","22000,1,9,N","020000,1,N,1","+0158,1","+0070,1","10200,1",,,,,"01,1,+00840,1,08,1",,"01,99,1,01,1,01,1,01250,1,00,1,00,1",,"01,9",,,,"99999,9,08245,1","2,1,014,1,+029,1",,"SYN100AAXX  22151 76373 32670 10000 10158 20070 38245 40200 52014 81100 91450 333 30/// 56900 58029 81828;",
"76373099999","2011-09-22T18:00:00","4","25.35","-105.75","1967.0","TEPEHUANES DGO., MX","FM-12","99999","V020","140,1,N,0010,1","22000,1,9,N","030000,1,N,1","+0288,1","+0045,1","10183,1",,,,,"00,1,+99999,9,99,9",,"00,99,1,00,1,00,1,99999,9,00,1,00,1",,"01,9",,"120,M,+0294,1","240,N,+0081,1","99999,9,08231,1","7,1,014,1,+009,1",,"SYN094AAXX  22181 76373 32980 01401 10288 20045 38231 40183 57014 91755 333 10294 20081 30/// 58009;",
"76373099999","2011-09-22T21:00:00","4","25.35","-105.75","1967.0","TEPEHUANES DGO., MX","FM-12","99999","V020","140,1,N,0030,1","22000,1,9,N","030000,1,N,1","+0310,1","+0011,1","10156,1",,,,,"02,1,+00750,1,08,1",,"02,99,1,02,1,02,1,00800,1,00,1,00,1",,"01,9",,,,"99999,9,08210,1","7,1,021,1,+008,1",,"SYN100AAXX  22211 76373 32580 21403 10310 20011 38210 40156 57021 82200 92055 333 30/// 56900 58008 82825;",
"76373099999","2011-09-23T00:00:00","4","25.35","-105.75","1967.0","TEPEHUANES DGO., MX","FM-12","99999","V020","110,1,N,0010,1","22000,1,9,N","030000,1,N,1","+0282,1","+0017,1","10143,1","24,0000,9,1",,,,,,"03,99,1,03,1,03,1,00800,1,00,1,00,1",,"01,9",,"120,M,+0330,1","180,N,+0081,1","99999,9,08199,1","7,1,011,1,+002,1",,"SYN124AAXX  23001 76373 32580 31101 10282 20017 38199 40143 57011 83300 92350 333 10330 20081 30/// 50801 56900 58002 70000 83825;",
"76373099999","2011-09-23T03:00:00","4","25.35","-105.75","1967.0","TEPEHUANES DGO., MX","FM-12","99999","V020","160,1,N,0010,1","22000,1,9,N","001000,1,N,1","+0224,1","+0029,1","10165,1",,,,,"02,1,+00750,1,08,1",,"02,99,1,02,1,02,1,00800,1,00,1,00,1",,"01,9",,,,"99999,9,08217,1","2,1,018,1,+005,1",,"SYN100AAXX  23031 76373 32510 21601 10224 20029 38217 40165 52018 82200 90255 333 30/// 56900 58005 82825;",
"76373099999","2011-09-23T15:00:00","4","25.35","-105.75","1967.0","TEPEHUANES DGO., MX","FM-12","99999","V020","050,1,N,0010,1","22000,1,9,N","030000,1,N,1","+0188,1","+0072,1","10213,1",,,,,"00,1,+99999,9,99,9",,"00,99,1,00,1,00,1,99999,9,00,1,00,1",,"01,9",,,,"99999,9,08256,1","2,1,008,1,+011,1",,"SYN082AAXX  23151 76373 32980 00501 10188 20072 38256 40213 52008 91455 333 30/// 58011;",
"76373099999","2011-09-23T18:00:00","4","25.35","-105.75","1967.0","TEPEHUANES DGO., MX","FM-12","99999","V020","110,1,N,0010,1","22000,1,9,N","030000,1,N,1","+0278,1","+0083,1","10202,1",,,,,"01,1,+00750,1,08,1",,"01,99,1,01,1,01,1,00800,1,00,1,00,1",,"01,9",,"120,M,+0288,1","240,N,+0090,1","99999,9,08247,1","7,1,010,1,+016,1",,"SYN112AAXX  23181 76373 32580 11101 10278 20083 38247 40202 57010 81100 91750 333 10288 20090 30/// 56900 58016 81825;",
"76373099999","2011-09-23T21:00:00","4","25.35","-105.75","1967.0","TEPEHUANES DGO., MX","FM-12","99999","V020","110,1,N,0020,1","22000,1,9,N","030000,1,N,1","+0292,1","+0058,1","10166,1",,,,,"04,1,+00600,1,06,1",,"04,99,1,04,1,04,1,00800,1,00,1,00,1",,"01,9",,,,"99999,9,08218,1","7,1,029,1,+008,1",,"SYN100AAXX  23211 76373 32580 41102 10292 20058 38218 40166 57029 84400 92055 333 30/// 56900 58008 84620;",
"76373099999","2011-09-24T00:00:00","4","25.35","-105.75","1967.0","TEPEHUANES DGO., MX","FM-12","99999","V020","140,1,N,0010,1","22000,1,9,N","030000,1,N,1","+0284,1","+0039,1","10156,1","24,0000,9,1",,,,,,"04,99,1,04,1,04,1,00800,1,00,1,00,1",,"01,9",,"120,M,+0322,1","180,N,+0090,1","99999,9,08210,1","7,1,007,1,+011,1",,"SYN124AAXX  24001 76373 32580 41401 10284 20039 38210 40156 57007 84400 92350 333 10322 20090 30/// 50671 56900 58011 70000 84620;",
"76373099999","2011-09-24T03:00:00","4","25.35","-105.75","1967.0","TEPEHUANES DGO., MX","FM-12","99999","V020","140,1,N,0010,1","22000,1,9,N","001000,1,N,1","+0222,1","+0064,1","10178,1",,,,,"02,1,+00600,1,06,1",,"02,99,1,02,1,02,1,00800,1,00,1,00,1",,"01,9",,,,"99999,9,08227,1","2,1,017,1,+010,1",,"SYN100AAXX  24031 76373 32510 21401 10222 20064 38227 40178 52017 82200 90255 333 30/// 56900 58010 82620;",
"76373099999","2011-09-24T15:00:00","4","25.35","-105.75","1967.0","TEPEHUANES DGO., MX","FM-12","99999","V020","999,9,C,0000,1","22000,1,9,N","030000,1,N,1","+0170,1","+0079,1","10203,1",,,,,"00,1,+99999,9,99,9",,"00,99,1,00,1,00,1,99999,9,00,1,00,1",,"01,9",,,,"99999,9,08247,1","7,1,006,1,-009,1",,"SYN082AAXX  24151 76373 32980 00000 10170 20079 38247 40203 57006 91455 333 30/// 59009;",
"76373099999","2011-09-24T18:00:00","4","25.35","-105.75","1967.0","TEPEHUANES DGO., MX","FM-12","99999","V020","110,1,N,0020,1","22000,1,9,N","030000,1,N,1","+0280,1","+0086,1","10185,1",,,,,"02,1,+00750,1,08,1",,"02,99,1,02,1,02,1,00800,1,00,1,00,1",,"01,9",,"120,M,+0290,1","240,N,+0098,1","99999,9,08233,1","7,1,014,1,-014,1",,"SYN112AAXX  24181 76373 32580 21102 10280 20086 38233 40185 57014 82200 91755 333 10290 20098 30/// 56900 59014 82825;",
"76373099999","2011-09-25T00:00:00","4","25.35","-105.75","1967.0","TEPEHUANES DGO., MX","FM-12","99999","V020","110,1,N,0010,1","22000,1,9,N","020000,1,N,1","+0291,1","-0007,1","10137,1","24,0000,9,1",,,,,,"01,99,1,01,1,02,1,00800,1,00,1,00,1",,"01,9",,"120,M,+0330,1","180,N,+0098,1","99999,9,08194,1","7,1,010,1,-016,1",,"SYN124AAXX  25001 76373 32570 11101 10291 21007 38194 40137 57010 81200 92350 333 10330 20098 30/// 50721 56900 59016 70000 81825;",
"76373099999","2011-09-25T03:00:00","4","25.35","-105.75","1967.0","TEPEHUANES DGO., MX","FM-12","99999","V020","999,9,C,0000,1","22000,1,9,N","005000,1,N,1","+0212,1","+0003,1","10151,1",,,,,"00,1,+99999,9,99,9",,"00,99,1,00,1,00,1,99999,9,00,1,00,1",,"01,9",,,,"99999,9,08206,1","2,1,012,1,-021,1",,"SYN082AAXX  25031 76373 32950 00000 10212 20003 38206 40151 52012 90250 333 30/// 59021;",
"76373099999","2011-09-25T15:00:00","4","25.35","-105.75","1967.0","TEPEHUANES DGO., MX","FM-12","99999","V020","999,9,C,0000,1","00750,1,9,N","020000,1,N,1","+0137,1","+0073,1","10180,1",,,,,"05,1,+00750,1,06,1",,"05,99,1,05,1,06,1,00800,1,00,1,00,1",,"01,9",,,,"99999,9,08229,1","2,1,011,1,-018,1",,"SYN100AAXX  25151 76373 32570 50000 10137 20073 38229 40180 52011 85600 91450 333 30/// 56900 59018 85625;",
"76373099999","2011-09-25T18:00:00","4","25.35","-105.75","1967.0","TEPEHUANES DGO., MX","FM-12","99999","V020","999,9,C,0000,1","22000,1,9,N","020000,1,N,1","+0273,1","+0120,1","10160,1",,,,,"02,1,+00750,1,06,1",,"03,99,1,02,1,02,1,00800,1,06,1,00,1",,"01,9",,"120,M,+0280,1","240,N,+0092,1","99999,9,08213,1","7,1,016,1,-020,1",,"SYN112AAXX  25181 76373 32570 30000 10273 20120 38213 40160 57016 82260 91750 333 10280 20092 30/// 56990 59020 82625;",
"76373099999","2011-09-25T21:00:00","4","25.35","-105.75","1967.0","TEPEHUANES DGO., MX","FM-12","99999","V020","050,1,N,0010,1","22000,1,9,N","020000,1,N,1","+0313,2","+0032,1","10124,1",,,,,"03,1,+00750,1,08,1",,"03,99,1,03,1,02,1,00800,1,00,1,00,1",,"01,9",,,,"99999,9,08183,1","7,1,030,1,-031,1",,"SYN100AAXX  25211 76373 32570 30501 10313 20032 38183 40124 57030 83200 92050 333 30/// 56900 59031 83825;",
"76373099999","2011-09-26T00:00:00","4","25.35","-105.75","1967.0","TEPEHUANES DGO., MX","FM-12","99999","V020","130,1,N,0010,1","00750,1,9,N","020000,1,N,1","+0288,1","+0036,1","10112,1","24,0000,9,1",,,,,,"06,99,1,06,1,06,1,00800,1,00,1,00,1",,"01,9",,"120,M,+0343,1","180,N,+0092,1","99999,9,08174,1","7,1,009,1,-020,1",,"SYN124AAXX  26001 76373 32570 61301 10288 20036 38174 40112 57009 86600 92350 333 10343 20092 30/// 50601 56900 59020 70000 86625;",
"76373099999","2011-09-26T03:00:00","4","25.35","-105.75","1967.0","TEPEHUANES DGO., MX","FM-12","99999","V020","999,9,C,0000,1","00750,1,9,N","005000,1,N,1","+0210,1","+0092,1","10147,1",,,,,"08,1,+00750,1,06,1",,"08,99,1,08,1,07,1,00800,1,00,1,00,1",,"01,9",,,,"99999,9,08202,1","2,1,028,1,-004,1",,"SYN100AAXX  26031 76373 32550 80000 10210 20092 38202 40147 52028 88700 90250 333 30/// 56900 59004 88625;",
"76373099999","2011-09-26T12:00:00","4","25.35","-105.75","1967.0","TEPEHUANES DGO., MX","FM-12","99999","V020","999,9,C,0000,1","22000,1,9,N","005000,1,N,1","+0128,1","+0104,1","10152,1",,,,,"00,1,+99999,9,99,9",,"00,99,1,00,1,00,1,99999,9,00,1,00,1","0408,9","01,9",,"120,N,+0110,1","240,M,+0343,1","99999,9,08206,1","9,9,999,9,-012,1",,"SYN112AAXX  26121 76373 32950 00000 10128 20104 38206 40152 5//// 91150 333 10343 20110 30085 55068 21699 59012 70000;",
"76373099999","2011-09-26T18:00:00","4","25.35","-105.75","1967.0","TEPEHUANES DGO., MX","FM-12","99999","V020","110,1,N,0010,1","22000,1,9,N","020000,1,N,1","+0304,1","+0068,1","10150,1",,,,,"02,1,+00750,1,08,1",,"02,99,1,02,1,02,1,00800,1,00,1,00,1",,"01,9",,"120,M,+0310,1","240,N,+0110,1","99999,9,08205,1","7,1,015,1,-008,1",,"SYN112AAXX  26181 76373 32570 21101 10304 20068 38205 40150 57015 82200 91750 333 10310 20110 30/// 56900 59008 82825;",
"76373099999","2011-09-26T21:00:00","4","25.35","-105.75","1967.0","TEPEHUANES DGO., MX","FM-12","99999","V020","110,1,N,0010,1","00750,1,9,N","020000,1,N,1","+0310,1","+0055,1","10124,1",,,,,"05,1,+00750,1,08,1",,"05,99,1,05,1,02,1,00800,1,00,1,00,1",,"01,9",,,,"99999,9,08184,1","7,1,021,1,+001,1",,"SYN100AAXX  26211 76373 32570 51101 10310 20055 38184 40124 57021 85200 92050 333 30/// 56900 58001 85825;",
"76373099999","2011-09-27T00:00:00","4","25.35","-105.75","1967.0","TEPEHUANES DGO., MX","FM-12","99999","V020","160,1,N,0020,1","00750,1,9,N","020000,1,N,1","+0265,1","+0060,1","10116,1","24,0000,9,1",,,,,,"06,99,1,06,1,06,1,00800,1,00,1,00,1",,"01,9",,"120,M,+0345,1","180,N,+0110,1","99999,9,08177,1","7,1,007,1,+003,1",,"SYN124AAXX  27001 76373 32570 61602 10265 20060 38177 40116 57007 86600 92350 333 10345 20110 30/// 50591 56900 58003 70000 86625;",
"76373099999","2011-09-27T12:00:00","4","25.35","-105.75","1967.0","TEPEHUANES DGO., MX","FM-12","99999","V020","999,9,C,0000,1","00750,1,9,N","000600,1,N,1","+0119,1","+0104,1","10165,1","24,0000,9,1",,,,,,"05,99,1,05,1,04,1,00800,1,00,1,00,1","0534,9","01,9",,"120,N,+0108,1","240,M,+0345,1","99999,9,08217,1","9,9,999,9,+011,1",,"SYN130AAXX  27121 76373 32506 50000 10119 20104 38217 40165 5//// 85400 91150 333 10345 20108 30097 55089 21825 56900 58011 70000 85623;",
"76373099999","2011-09-27T15:00:00","4","25.35","-105.75","1967.0","TEPEHUANES DGO., MX","FM-12","99999","V020","999,9,C,0000,1","00690,1,9,N","020000,1,N,1","+0167,1","+0115,1","10178,1",,,,,"07,1,+00690,1,06,1",,"07,99,1,07,1,05,1,00800,1,00,1,00,1",,"01,9",,,,"99999,9,08227,1","2,1,010,1,+007,1",,"SYN100AAXX  27151 76373 32570 70000 10167 20115 38227 40178 52010 87500 91450 333 30/// 56900 58007 87623;",
"76373099999","2011-09-27T18:00:00","4","25.35","-105.75","1967.0","TEPEHUANES DGO., MX","FM-12","99999","V020","120,1,N,0010,1","22000,1,9,N","020000,1,N,1","+9999,9","+0115,1","10168,1",,,,,"02,1,+00810,1,08,1",,"03,99,1,02,1,02,1,01250,1,07,1,00,1",,"01,9",,"120,M,+0286,1","240,N,+0108,1","99999,9,08220,1","7,1,007,1,+015,1",,"SYN112AAXX  27181 76373 32670 31201 10279 20115 38220 40168 57007 82270 91750 333 10286 20108 30/// 56990 58015 82827;","Q01+002793ATOT  Q02 +02793ATOT  "
"76373099999","2011-09-27T21:00:00","4","25.35","-105.75","1967.0","TEPEHUANES DGO., MX","FM-12","99999","V020","300,1,N,0010,1","00570,1,9,N","014000,1,N,1","+0168,1","+0118,1","10175,1","03,0010,9,1",,"5,1,03,1","1,1,03,1","08,1,+00570,1,09,1",,"08,99,1,08,1,09,1,00800,1,00,1,00,1",,"09,9",,,,"99999,9,08225,1","2,1,005,1,+041,1","50,1","SYN112AAXX  27211 76373 21564 83001 10168 20118 38225 40175 52005 75051 88900 92050 333 31/// 56900 58041 60017 88919;",
"76373099999","2011-09-28T00:00:00","4","25.35","-105.75","1967.0","TEPEHUANES DGO., MX","FM-12","99999","V020","300,1,N,0010,1","01200,1,9,N","020000,1,N,1","+0193,1","+0112,1","10167,1","24,0010,9,1",,,,,,"08,99,1,08,1,08,1,00800,1,00,1,00,1",,"01,9",,"120,M,+0300,1","180,N,+0108,1","99999,9,08219,1","7,1,006,1,+042,1",,"SYN124AAXX  28001 76373 32570 83001 10193 20112 38219 40167 57006 88800 92350 333 10300 20108 30/// 50381 56900 58042 70010 88923;",
"76373099999","2011-09-28T03:00:00","4","25.35","-105.75","1967.0","TEPEHUANES DGO., MX","FM-12","99999","V020","999,9,C,0000,1","00570,1,9,N","000600,1,N,1","+0153,1","+0139,1","10204,1","03,0030,9,1",,"5,1,03,1","2,1,03,1","08,1,+00570,1,09,1",,"08,99,1,08,1,09,1,00800,1,00,1,00,1",,"09,9",,,,"99999,9,08248,1","2,1,025,1,+999,9","51,1","SYN112AAXX  28031 76373 21506 80000 10153 20139 38248 40204 52025 75152 88900 90250 333 31/// 56900 58/// 60037 88919;",
"76373099999","2011-09-28T12:00:00","4","25.35","-105.75","1967.0","TEPEHUANES DGO., MX","FM-12","99999","V020","999,9,C,0000,1","00750,1,9,N","000600,1,N,1","+0132,1","+0129,1","10178,1","24,0053,9,1",,,,,,"08,99,1,08,1,07,1,00800,1,00,1,00,1","0276,9","01,9",,"120,N,+0118,1","240,M,+0300,1","99999,9,08227,1","9,9,999,9,+010,1",,"SYN130AAXX  28121 76373 32506 80000 10132 20129 38227 40178 5//// 88700 91150 333 10300 20118 30110 55046 21232 56900 58010 70053 88722;",
"76373099999","2011-09-28T15:00:00","4","25.35","-105.75","1967.0","TEPEHUANES DGO., MX","FM-12","99999","V020","999,9,C,0000,1","22000,1,9,N","020000,1,N,1","+0159,1","+0130,1","10193,1",,,,,"01,1,+00810,1,08,1",,"02,99,1,01,1,02,1,01250,1,07,1,00,1",,"01,9",,,,"99999,9,08240,1","2,1,013,1,+013,1",,"SYN100AAXX  28151 76373 32670 20000 10159 20130 38240 40193 52013 81270 91450 333 30/// 56990 58013 81827;",
"76373099999","2011-09-28T18:00:00","4","25.35","-105.75","1967.0","TEPEHUANES DGO., MX","FM-12","99999","V020","999,9,C,0000,1","22000,1,9,N","020000,1,N,1","+0252,1","+0125,1","10171,1",,,,,"01,1,+00750,1,06,1",,"01,99,1,01,1,04,1,01250,1,00,1,00,1",,"01,9",,"120,M,+0258,1","240,N,+0118,1","99999,9,08222,1","7,1,018,1,+002,1",,"SYN112AAXX  28181 76373 32670 10000 10252 20125 38222 40171 57018 81400 91750 333 10258 20118 30/// 56900 58002 81625;",
"76373099999","2011-09-28T21:00:00","4","25.35","-105.75","1967.0","TEPEHUANES DGO., MX","FM-12","99999","V020","120,1,N,0020,1","22000,1,9,N","020000,1,N,1","+0305,1","+0095,1","10134,1",,,,,"04,1,+00690,1,06,1",,"04,99,1,04,1,04,1,01250,1,00,1,00,1",,"01,9",,,,"99999,9,08192,1","7,1,030,1,-033,1",,"SYN100AAXX  28211 76373 32670 41202 10305 20095 38192 40134 57030 84400 92050 333 30/// 56900 59033 84623;",
"76373099999","2011-09-29T03:00:00","4","25.35","-105.75","1967.0","TEPEHUANES DGO., MX","FM-12","99999","V020","310,1,N,0020,1","00570,1,9,N","000600,1,N,1","+0151,1","+0131,1","10164,1","03,0060,9,1",,"5,1,03,1","2,1,03,1","08,1,+00570,1,09,1",,"08,99,1,08,1,09,1,00800,1,00,1,00,1",,"01,9",,,,"99999,9,08216,1","0,1,016,1,-028,1","51,1","SYN112AAXX  29031 76373 21506 83102 10151 20131 38216 40164 50016 75152 88900 90250 333 30/// 56900 59028 60067 88919;",
"76373099999","2011-09-29T12:00:00","4","25.35","-105.75","1967.0","TEPEHUANES DGO., MX","FM-12","99999","V020","999,9,C,0000,1","22000,1,9,N","000600,1,N,1","+0093,1","+0091,1","10165,1",,,,,"00,1,+99999,9,99,9",,"00,99,1,00,1,00,1,99999,9,00,1,00,1","0390,9","01,9",,"120,N,+0080,1","240,M,+0309,1","99999,9,08217,1","9,9,999,9,-010,1",,"SYN112AAXX  29121 76373 32906 00000 10093 20091 38217 40165 5//// 91150 333 10309 20080 30071 55065 21860 59010 70056;",
"76373099999","2011-09-29T15:00:00","4","25.35","-105.75","1967.0","TEPEHUANES DGO., MX","FM-12","99999","V020","999,9,C,0000,1","22000,1,9,N","015000,1,N,1","+0133,1","+0106,1","10178,1",,,,,"00,1,+99999,9,99,9",,"00,99,1,00,1,00,1,99999,9,00,1,00,1",,"01,9",,,,"99999,9,08227,1","2,1,010,1,-013,1",,"SYN082AAXX  29151 76373 32965 00000 10133 20106 38227 40178 52010 91450 333 30/// 59013;",
"76373099999","2011-09-29T21:00:00","4","25.35","-105.75","1967.0","TEPEHUANES DGO., MX","FM-12","99999","V020","140,1,N,0010,1","22000,1,9,N","030000,1,N,1","+0292,1","+0078,1","10143,1",,,,,"03,1,+00600,1,06,1",,"03,99,1,03,1,03,1,00800,1,00,1,00,1",,"01,9",,,,"99999,9,08199,1","7,1,011,1,+007,1",,"SYN100AAXX  29211 76373 32580 31401 10292 20078 38199 40143 57011 83300 92055 333 30/// 56900 58007 83620;",
"76373099999","2011-09-30T00:00:00","4","25.35","-105.75","1967.0","TEPEHUANES DGO., MX","FM-12","99999","V020","320,1,N,0010,1","22000,1,9,N","030000,1,N,1","+0274,1","+0053,1","10113,1","24,0056,9,1",,,,,,"03,99,1,03,1,03,1,00800,1,00,1,00,1",,"01,9",,"120,M,+0300,1","180,N,+0080,1","99999,9,08175,1","7,1,024,1,-025,1",,"SYN124AAXX  30001 76373 32580 33201 10274 20053 38175 40113 57024 83300 92355 333 10300 20080 30/// 50531 56900 59025 70056 83625;",
"76373099999","2011-09-30T12:00:00","4","25.35","-105.75","1967.0","TEPEHUANES DGO., MX","FM-12","99999","V020","999,9,C,0000,1","22000,1,9,N","001000,1,N,1","+0120,1","+0096,1","10170,1","24,0000,9,1",,,,,,"02,99,1,02,1,02,1,00800,1,00,1,00,1","0588,9","01,9",,"120,N,+0102,1","240,M,+0300,1","99999,9,08221,1","9,9,999,9,-004,1",,"SYN130AAXX  30121 76373 32510 20000 10120 20096 38221 40170 5//// 82200 91135 333 10300 20102 30090 55098 21530 56900 59004 70000 82620;",
"76373099999","2011-09-30T18:00:00","4","25.35","-105.75","1967.0","TEPEHUANES DGO., MX","FM-12","99999","V020","140,1,N,0010,1","22000,1,9,N","030000,1,N,1","+0258,1","+0102,1","10171,1",,,,,"04,1,+00750,1,06,1",,"04,99,1,04,1,04,1,00800,1,00,1,00,1",,"01,9",,"120,M,+0260,1","240,N,+0102,1","99999,9,08222,1","7,1,010,1,+012,1",,"SYN112AAXX  30181 76373 32580 41401 10258 20102 38222 40171 57010 84400 91750 333 10260 20102 30/// 56900 58012 84625;",
"76373099999","2011-10-01T12:00:00","4","25.35","-105.75","1967.0","TEPEHUANES DGO., MX","FM-12","99999","V020","999,9,C,0000,1","22000,1,9,N","001000,1,N,1","+0118,1","+0107,1","10184,1",,,,,"00,1,+99999,9,99,9",,"00,99,1,00,1,00,1,99999,9,00,1,00,1","0468,9","01,9",,"120,N,+0100,1","240,M,+0290,1","99999,9,08232,1","9,9,999,9,+011,1",,"SYN112AAXX  01121 76373 32910 00000 10118 20107 38232 40184 5//// 91155 333 10290 20100 30088 55078 21127 58011 70000;",
"76373099999","2011-10-01T15:00:00","4","25.35","-105.75","1967.0","TEPEHUANES DGO., MX","FM-12","99999","V020","999,9,C,0000,1","22000,1,9,N","030000,1,N,1","+0166,1","+0121,1","10196,1",,,,,"00,1,+99999,9,99,9",,"00,99,1,00,1,00,1,99999,9,00,1,00,1",,"01,9",,,,"99999,9,08242,1","2,1,010,1,+015,1",,"SYN082AAXX  01151 76373 32980 00000 10166 20121 38242 40196 52010 91455 333 30/// 58015;",
"76373099999","2011-10-01T18:00:00","4","25.35","-105.75","1967.0","TEPEHUANES DGO., MX","FM-12","99999","V020","140,1,N,0010,1","22000,1,9,N","030000,1,N,1","+0254,1","+0104,1","10188,1",,,,,"03,1,+00750,1,08,1",,"03,99,1,03,1,03,1,00800,1,00,1,00,1",,"01,9",,"120,M,+0260,1","240,N,+0100,1","99999,9,08235,1","7,1,007,1,+025,1",,"SYN112AAXX  01181 76373 32580 31401 10254 20104 38235 40188 57007 83300 91755 333 10260 20100 30/// 56900 58025 83825;",
"76373099999","2011-10-04T12:00:00","4","25.35","-105.75","1967.0","TEPEHUANES DGO., MX","FM-12","99999","V020","999,9,C,0000,1","22000,1,9,N","000600,1,N,1","+0111,1","+0102,1","10184,1",,,,,"00,1,+99999,9,99,9",,"00,99,1,00,1,00,1,99999,9,00,1,00,1",,"01,9",,"120,N,+0106,1",,"99999,9,08232,1",,,"SYN112AAXX  04121 76373 32906 00000 10111 20102 38232 40184 5//// 91150 333 1//// 20106 30094 55/// 2//// 58/// 70000;",
"76373099999","2011-10-04T15:00:00","4","25.35","-105.75","1967.0","TEPEHUANES DGO., MX","FM-12","99999","V020","999,9,C,0000,1","22000,1,9,N","020000,1,N,1","+0151,1","+0110,1","10198,1",,,,,"01,1,+00810,1,08,1",,"01,99,1,01,1,01,1,01250,1,00,1,00,1",,"01,9",,,,"99999,9,08244,1","2,1,012,1,+999,9",,"SYN100AAXX  04151 76373 32670 10000 10151 20110 38244 40198 52012 81100 91450 333 30/// 56900 58/// 81827;",
"76373099999","2011-10-04T18:00:00","4","25.35","-105.75","1967.0","TEPEHUANES DGO., MX","FM-12","99999","V020","140,1,N,0010,1","22000,1,9,N","020000,1,N,1","+0260,1","+0100,1","10181,1",,,,,"02,1,+00810,1,08,1",,"02,99,1,02,1,02,1,01250,1,00,1,00,1",,"01,9",,"120,M,+0270,1","240,N,+0106,1","99999,9,08230,1","7,1,014,1,+999,9",,"SYN112AAXX  04181 76373 32670 21401 10260 20100 38230 40181 57014 82200 91750 333 10270 20106 30/// 56900 58/// 82827;",
"76373099999","2011-10-04T21:00:00","4","25.35","-105.75","1967.0","TEPEHUANES DGO., MX","FM-12","99999","V020","330,1,N,0010,1","22000,1,9,N","020000,1,N,1","+0275,1","+0071,1","10145,1",,,,,"03,1,+00690,1,06,1",,"04,99,1,04,1,04,1,00800,1,00,1,00,1",,"01,9",,,,"99999,9,08201,1","7,1,029,1,+999,9",,"SYN106AAXX  04211 76373 32570 43301 10275 20071 38201 40145 57029 84400 92050 333 30/// 56900 58/// 83623 81827;",
"76373099999","2011-10-05T00:00:00","4","25.35","-105.75","1967.0","TEPEHUANES DGO., MX","FM-12","99999","V020","310,1,N,0020,1","22000,1,9,N","020000,1,N,1","+0268,1","+0028,1","10137,1","24,0000,9,1",,,,,,"02,99,1,01,1,02,1,01250,1,00,1,04,1",,"01,9",,"120,M,+0310,1","180,N,+0106,1","99999,9,08195,1","7,1,006,1,+999,9",,"SYN124AAXX  05001 76373 32670 23102 10268 20028 38195 40137 57006 81204 92350 333 10310 20106 30/// 57091 56908 58/// 70000 81827;",
"76373099999","2011-10-05T03:00:00","4","25.35","-105.75","1967.0","TEPEHUANES DGO., MX","FM-12","99999","V020","999,9,C,0000,1","22000,1,9,N","020000,1,N,1","+0196,1","+0080,1","10163,1",,,,,"01,1,+00810,1,08,1",,"01,99,1,01,1,02,1,01250,1,00,1,00,1",,"01,9",,,,"99999,9,08215,1","2,1,020,1,+999,9",,"SYN100AAXX  05031 76373 32670 10000 10196 20080 38215 40163 52020 81200 90250 333 30/// 56900 58/// 81827;",
"76373099999","2011-10-05T12:00:00","4","25.35","-105.75","1967.0","TEPEHUANES DGO., MX","FM-12","99999","V020","999,9,C,0000,1","22000,1,9,N","000600,1,N,1","+0094,1","+0072,1","10174,1",,,,,"00,1,+99999,9,99,9",,"00,99,1,00,1,00,1,99999,9,00,1,00,1","0630,9","01,9",,"120,N,+0087,1","240,M,+0310,1","99999,9,08224,1","9,9,999,9,-008,1",,"SYN112AAXX  05121 76373 32906 00000 10094 20072 38224 40174 5//// 91150 333 10310 20087 30075 55105 2//// 59008 70000;",
"76373099999","2011-10-05T15:00:00","4","25.35","-105.75","1967.0","TEPEHUANES DGO., MX","FM-12","99999","V020","999,9,C,0000,1","22000,1,9,N","020000,1,N,1","+0147,1","+0093,1","10182,1",,,,,"00,1,+99999,9,99,9",,"00,99,1,00,1,00,1,99999,9,00,1,00,1",,"01,9",,,,"99999,9,08231,1","2,1,007,1,-013,1",,"SYN082AAXX  05151 76373 32970 00000 10147 20093 38231 40182 52007 91450 333 30/// 59013;",
"76373099999","2011-10-05T18:00:00","4","25.35","-105.75","1967.0","TEPEHUANES DGO., MX","FM-12","99999","V020","310,1,N,0010,1","22000,1,9,N","020000,1,N,1","+0270,1","+0066,1","10163,1",,,,,"00,1,+99999,9,99,9",,"00,99,1,00,1,00,1,99999,9,00,1,00,1",,"01,9",,"120,M,+0275,1","240,N,+0087,1","99999,9,08216,1","7,1,015,1,-014,1",,"SYN094AAXX  05181 76373 32970 03101 10270 20066 38216 40163 57015 91750 333 10275 20087 30/// 59014;",
"76373099999","2011-10-05T21:00:00","4","25.35","-105.75","1967.0","TEPEHUANES DGO., MX","FM-12","99999","V020","310,1,N,0020,1","22000,1,9,N","020000,1,N,1","+0303,1","+0019,1","10127,1",,,,,"01,1,+00810,1,08,1",,"01,99,1,01,1,01,1,01250,1,00,1,00,1",,"01,9",,,,"99999,9,08186,1","7,1,030,1,-025,1",,"SYN100AAXX  05211 76373 32670 13102 10303 20019 38186 40127 57030 81100 92050 333 30/// 56900 59025 81827;",
"76373099999","2011-10-06T00:00:00","4","25.35","-105.75","1967.0","TEPEHUANES DGO., MX","FM-12","99999","V020","230,1,N,0020,1","22000,1,9,N","020000,1,N,1","+0267,1","+0055,1","10127,1","24,0000,9,1",,,,,,"01,99,1,01,1,01,1,01250,1,00,1,00,1",,"01,9",,"120,M,+0316,1","180,N,+0087,1","99999,9,08186,1","4,1,000,1,-009,1",,"SYN124AAXX  06001 76373 32670 12302 10267 20055 38186 40127 54000 81100 92350 333 10316 20087 30/// 50691 56900 59009 70000 81827;",
"76373099999","2011-10-06T21:00:00","4","25.35","-105.75","1967.0","TEPEHUANES DGO., MX","FM-12","99999","V020","290,1,N,0030,1","22000,1,9,N","030000,1,N,1","+0310,1","-0039,1","10110,1",,,,,"00,1,+99999,9,99,9",,"00,99,1,00,1,00,1,99999,9,00,1,00,1",,"01,9",,,,"99999,9,08172,1","7,1,017,1,-014,1",,"SYN082AAXX  06211 76373 32980 02903 10310 21039 38172 40110 57017 92050 333 30/// 59014;",
"76373099999","2011-10-07T00:00:00","4","25.35","-105.75","1967.0","TEPEHUANES DGO., MX","FM-12","99999","V020","230,1,N,0020,1","22000,1,9,N","030000,1,N,1","+0270,1","-0014,1","10117,1","24,0000,9,1",,,,,,"01,99,1,01,1,01,1,00800,1,00,1,00,1",,"01,9",,"120,M,+0322,1","180,N,+0070,1","99999,9,08178,1","2,1,006,1,-008,1",,"SYN124AAXX  07001 76373 32580 12302 10270 21014 38178 40117 52006 81100 92355 333 10322 20070 30/// 50731 56900 59008 70000 81825;",
"76373099999","2011-10-07T12:00:00","4","25.35","-105.75","1967.0","TEPEHUANES DGO., MX","FM-12","99999","V020","999,9,C,0000,1","22000,1,9,N","001000,1,N,1","+0080,1","+0037,1","10150,1","24,0000,9,1",,,,"00,1,+99999,9,99,9",,"00,99,1,00,1,00,1,99999,9,00,1,00,1","0630,9","01,9","999,+0032,9","120,N,+0062,1","240,M,+0322,1","99999,9,08205,1","9,9,999,9,+000,1",,"SYN106AAXX  07121 76373 32910 00000 10080 20037 38205 40150 5//// 91155 333 10322 20062 30032 55105 58000 70000;","Q01  00002PRCP24"
"76373099999","2011-10-07T15:00:00","4","25.35","-105.75","1967.0","TEPEHUANES DGO., MX","FM-12","99999","V020","999,9,C,0000,1","22000,1,9,N","020000,1,N,1","+0144,1","+0062,1","10162,1",,,,,"00,1,+99999,9,99,9",,"00,99,1,00,1,00,1,99999,9,00,1,00,1",,"01,9",,,,"99999,9,08215,1","2,1,010,1,+000,1",,"SYN082AAXX  07151 76373 32970 00000 10144 20062 38215 40162 52010 91450 333 30/// 58000;",
"76373099999","2011-10-07T18:00:00","4","25.35","-105.75","1967.0","TEPEHUANES DGO., MX","FM-12","99999","V020","320,1,N,0010,1","22000,1,9,N","020000,1,N,1","+0252,1","+0008,1","10148,1",,,,,"00,1,+99999,9,99,9",,"00,99,1,00,1,00,1,99999,9,00,1,00,1",,"01,9",,"120,M,+0260,1","240,N,+0062,1","99999,9,08203,1","7,1,012,1,+014,1",,"SYN094AAXX  07181 76373 32970 03201 10252 20008 38203 40148 57012 91750 333 10260 20062 30/// 58014;",
"76373099999","2011-10-07T21:00:00","4","25.35","-105.75","1967.0","TEPEHUANES DGO., MX","FM-12","99999","V020","320,1,N,0020,1","22000,1,9,N","020000,1,N,1","+0290,1","-0020,1","10125,1",,,,,"01,1,+00750,1,08,1",,"01,99,1,01,1,01,1,00800,1,00,1,00,1",,"01,9",,,,"99999,9,08185,1","7,1,018,1,+013,1",,"SYN100AAXX  07211 76373 32570 13202 10290 21020 38185 40125 57018 81100 92050 333 30/// 56900 58013 81825;",
"76373099999","2011-10-08T00:00:00","4","25.35","-105.75","1967.0","TEPEHUANES DGO., MX","FM-12","99999","V020","290,1,N,0020,1","22000,1,9,N","030000,1,N,1","+0252,1","-0011,1","10126,1","24,0000,9,1",,,,,,"02,99,1,00,1,00,1,99999,9,00,1,02,1",,"01,9",,"120,M,+0300,1","180,N,+0062,1","99999,9,08185,1","4,1,000,1,+007,1",,"SYN124AAXX  08001 76373 32980 22902 10252 21011 38185 40126 54000 82002 92355 333 10300 20062 30/// 50761 56009 58007 70000 82067;","Q01+000022SCOTLC"
"76373099999","2011-10-08T03:00:00","4","25.35","-105.75","1967.0","TEPEHUANES DGO., MX","FM-12","99999","V020","999,9,C,0000,1","22000,1,9,N","001000,1,N,1","+0174,1","+0036,1","10146,1",,,,,"01,1,+05100,1,00,1",,"01,99,1,00,1,00,1,99999,9,00,1,01,1",,"01,9",,,,"99999,9,08201,1","2,1,016,1,+007,1",,"SYN100AAXX  08031 76373 32910 10000 10174 20036 38201 40146 52016 81001 90255 333 30/// 56009 58007 81067;","Q01+000012SCOTLC"
"76373099999","2011-10-08T12:00:00","4","25.35","-105.75","1967.0","TEPEHUANES DGO., MX","FM-12","99999","V020","999,9,C,0000,1","22000,1,9,N","001000,1,N,1","+0068,1","+0037,1","10148,1","24,0000,9,1",,,,"00,1,+99999,9,99,9",,"00,99,1,00,1,00,1,99999,9,00,1,00,1","0636,9","01,9","999,+0030,9","120,N,+0050,1","240,M,+0300,1","99999,9,08203,1","9,9,999,9,-002,1",,"SYN106AAXX  08121 76373 32910 00000 10068 20037 38203 40148 5//// 91155 333 10300 20050 30030 55106 59002 70000;","Q01  00002PRCP24"
"76373099999","2011-10-08T15:00:00","4","25.35","-105.75","1967.0","TEPEHUANES DGO., MX","FM-12","99999","V020","999,9,C,0000,1","22000,1,9,N","020000,1,N,1","+0134,1","+0059,1","10155,1",,,,,"01,1,+00750,1,08,1",,"01,99,1,01,1,01,1,00800,1,00,1,00,1",,"01,9",,,,"99999,9,08209,1","2,1,006,1,-006,1",,"SYN100AAXX  08151 76373 32570 10000 10134 20059 38209 40155 52006 81100 91455 333 30/// 56900 59006 81825;",
"76373099999","2011-10-08T18:00:00","4","25.35","-105.75","1967.0","TEPEHUANES DGO., MX","FM-12","99999","V020","320,1,N,0010,1","22000,1,9,N","030000,1,N,1","+0234,1","+0066,1","10144,1",,,,,"03,1,+00600,1,08,1",,"03,99,1,03,1,03,1,00800,1,00,1,00,1",,"01,9",,"120,M,+0240,1","240,N,+0050,1","99999,9,08200,1","7,1,009,1,-003,1",,"SYN112AAXX  08181 76373 32580 33201 10234 20066 38200 40144 57009 83300 91750 333 10240 20050 30/// 56900 59003 83820;",
"76373099999","2011-10-09T00:00:00","4","25.35","-105.75","1967.0","TEPEHUANES DGO., MX","FM-12","99999","V020","240,1,N,0010,1","22000,1,9,N","020000,1,N,1","+0240,1","+0037,1","10099,1","24,0000,9,1",,,,,,"02,99,1,02,1,02,1,00800,1,00,1,00,1",,"01,9",,"120,M,+0275,1","180,N,+0050,1","99999,9,08164,1","7,1,001,1,-019,1",,"SYN124AAXX  09001 76373 32570 22401 10240 20037 38164 40099 57001 82200 92350 333 10275 20050 30/// 50661 56900 59019 70000 82825;",
"76373099999","2011-10-09T03:00:00","4","25.35","-105.75","1967.0","TEPEHUANES DGO., MX","FM-12","99999","V020","999,9,C,0000,1","22000,1,9,N","005000,1,N,1","+0169,1","+0050,1","10127,1",,,,,"00,1,+99999,9,99,9",,"00,99,1,00,1,00,1,99999,9,00,1,00,1",,"01,9",,,,"99999,9,08186,1","2,1,022,1,-015,1",,"SYN082AAXX  09031 76373 32950 00000 10169 20050 38186 40127 52022 90250 333 30/// 59015;",
"76373099999","2011-10-09T12:00:00","4","25.35","-105.75","1967.0","TEPEHUANES DGO., MX","FM-12","99999","V020","999,9,C,0000,1","22000,1,9,N","005000,1,N,1","+0058,1","+0042,1","10139,1","24,0000,9,1",,,,"00,1,+99999,9,99,9",,"00,99,1,00,1,00,1,99999,9,00,1,00,1","0612,9","01,9","999,+0018,9","120,N,+0041,1","240,M,+0275,1","99999,9,08196,1","9,9,999,9,-007,1",,"SYN106AAXX  09121 76373 32950 00000 10058 20042 38196 40139 5//// 91150 333 10275 20041 30018 55102 59007 70000;","Q01  00002PRCP24"
"76373099999","2011-10-09T15:00:00","4","25.35","-105.75","1967.0","TEPEHUANES DGO., MX","FM-12","99999","V020","999,9,C,0000,1","22000,1,9,N","020000,1,N,1","+0120,1","+0053,1","10142,1",,,,,"00,1,+99999,9,99,9",,"00,99,1,00,1,00,1,99999,9,00,1,00,1",,"01,9",,,,"99999,9,08198,1","7,1,002,1,-011,1",,"SYN082AAXX  09151 76373 32970 00000 10120 20053 38198 40142 57002 91450 333 30/// 59011;",
"76373099999","2011-10-09T18:00:00","4","25.35","-105.75","1967.0","TEPEHUANES DGO., MX","FM-12","99999","V020","999,9,C,0000,1","22000,1,9,N","020000,1,N,1","+0242,1","+0012,1","10128,1",,,,,"00,1,+99999,9,99,9",,"00,99,1,00,1,00,1,99999,9,00,1,00,1",,"01,9",,"120,M,+0275,1","240,N,+0041,1","99999,9,08187,1","7,1,011,1,+013,1",,"SYN094AAXX  09181 76373 32970 00000 10242 20012 38187 40128 57011 91750 333 10275 20041 30/// 58013;",
"76373099999","2011-10-09T21:00:00","4","25.35","-105.75","1967.0","TEPEHUANES DGO., MX","FM-12","99999","V020","140,1,N,0010,1","22000,1,9,N","020000,1,N,1","+0295,1","-0059,1","10091,1",,,,,"00,1,+99999,9,99,9",,"00,99,1,00,1,00,1,99999,9,00,1,00,1",,"01,9",,,,"99999,9,08157,1","7,1,020,1,+008,1",,"SYN082AAXX  09211 76373 32970 01401 10295 21059 38157 40091 57020 92050 333 30/// 58008;",
"76373099999","2011-10-10T00:00:00","4","25.35","-105.75","1967.0","TEPEHUANES DGO., MX","FM-12","99999","V020","130,1,N,0010,1","22000,1,9,N","020000,1,N,1","+0273,1","-0051,1","10079,1","24,0000,9,1",,,,"00,1,+99999,9,99,9",,"00,99,1,00,1,00,1,99999,9,00,1,00,1",,"01,9",,"120,M,+0310,1","180,N,+0041,1","99999,9,08148,1","7,1,009,1,-016,1",,"SYN106AAXX  10001 76373 32970 01301 10273 21051 38148 40079 57009 92350 333 10310 20041 30/// 50551 59016 70000;","Q01  00002PRCP24"
"76373099999","2011-10-10T03:00:00","4","25.35","-105.75","1967.0","TEPEHUANES DGO., MX","FM-12","99999","V020","999,9,C,0000,1","22000,1,9,N","005000,1,N,1","+0180,1","+0033,1","10111,1",,,,,"00,1,+99999,9,99,9",,"00,99,1,00,1,00,1,99999,9,00,1,00,1",,"01,9",,,,"99999,9,08173,1","2,1,025,1,-013,1",,"SYN082AAXX  10031 76373 32950 00000 10180 20033 38173 40111 52025 90250 333 30/// 59013;",
"76373099999","2011-10-10T12:00:00","4","25.35","-105.75","1967.0","TEPEHUANES DGO., MX","FM-12","99999","V020","999,9,C,0000,1","22000,1,9,N","005000,1,N,1","+0055,1","+0003,1","10133,1","24,0000,9,1",,,,"00,1,+99999,9,99,9",,"00,99,1,00,1,00,1,99999,9,00,1,00,1","0630,9","01,9","999,+0015,9","120,N,+0040,1","240,M,+0310,1","99999,9,08191,1","9,9,999,9,-005,1",,"SYN106AAXX  10121 76373 32950 00000 10055 20003 38191 40133 5//// 91150 333 10310 20040 30015 55105 59005 70000;","Q01  00002PRCP24"
"76373099999","2011-10-10T15:00:00","4","25.35","-105.75","1967.0","TEPEHUANES DGO., MX","FM-12","99999","V020","999,9,C,0000,1","22000,1,9,N","020000,1,N,1","+0125,1","+0025,1","10147,1",,,,,"00,1,+99999,9,99,9",,"00,99,1,00,1,00,1,99999,9,00,1,00,1",,"01,9",,,,,"2,1,011,1,+004,1",,"SYN082AAXX  10151 76373 32970 00000 10125 20025 38002 40147 52011 91450 333 30/// 58004;","Q01+080023APOSP "
"76373099999","2011-10-10T18:00:00","4","25.35","-105.75","1967.0","TEPEHUANES DGO., MX","FM-12","99999","V020","120,1,N,0010,1","22000,1,9,N","025000,1,N,1","+0260,1","+0013,1","10130,1",,,,,"00,1,+99999,9,99,9",,"00,99,1,00,1,00,1,99999,9,00,1,00,1",,"01,9",,"120,M,+0270,1","240,N,+0040,1","99999,9,08189,1","7,1,013,1,+002,1",,"SYN094AAXX  10181 76373 32975 01201 10260 20013 38189 40130 57013 91750 333 10270 20040 30/// 58002;",
"76373099999","2011-10-10T21:00:00","4","25.35","-105.75","1967.0","TEPEHUANES DGO., MX","FM-12","99999","V020","130,1,N,0010,1","22000,1,9,N","025000,1,N,1","+0298,2","+0036,1","10084,1",,,,,"02,1,+00750,1,08,1",,"02,99,1,02,1,08,1,00800,1,00,1,00,1",,"01,9",,,,"99999,9,08152,1","7,1,037,1,+005,1",,"SYN100AAXX  10211 76373 32575 21301 10298 20036 38152 40084 57037 82800 92050 333 30/// 56900 58005 82825;",
"76373099999","2011-10-11T00:00:00","4","25.35","-105.75","1967.0","TEPEHUANES DGO., MX","FM-12","99999","V020","150,1,N,0020,1","00750,1,9,N","020000,1,N,1","+0240,1","+0062,1","10084,1","24,0000,9,1",,,,,,"07,99,1,07,1,07,1,00800,1,00,1,00,1",,"01,9",,"120,M,+0320,1","180,N,+0040,1","99999,9,08152,1","5,1,000,1,+004,1",,"SYN124AAXX  11001 76373 32570 71502 10240 20062 38152 40084 55000 87700 92350 333 10320 20040 30/// 50601 56900 58004 70000 87625;",
"76373099999","2011-10-11T12:00:00","4","25.35","-105.75","1967.0","TEPEHUANES DGO., MX","FM-12","99999","V020","999,9,C,0000,1","22000,1,9,N","000600,1,N,1","+0104,1","+0081,1","10119,1","24,0000,9,1",,,,,,"04,99,1,04,1,05,1,01250,1,00,1,00,1","0552,9","01,9",,"120,N,+0090,1","240,M,+0320,1","99999,9,08180,1","9,9,999,9,-011,1",,"SYN130AAXX  11121 76373 32606 40000 10104 20081 38180 40119 5//// 84500 91150 333 10320 20090 30078 55092 2//// 56900 59011 70000 84625;",
"76373099999","2011-10-11T15:00:00","4","25.35","-105.75","1967.0","TEPEHUANES DGO., MX","FM-12","99999","V020","999,9,C,0000,1","22000,1,9,N","020000,1,N,1","+0144,1","+0088,1","10133,1",,,,,"03,1,+00690,1,06,1",,"05,99,1,03,1,05,1,00800,1,00,1,04,1",,"01,9",,,,"99999,9,08191,1","2,1,011,1,-011,1",,"SYN100AAXX  11151 76373 32570 50000 10144 20088 38191 40133 52011 83504 91450 333 30/// 56909 59011 83623;",
"76373099999","2011-10-11T18:00:00","4","25.35","-105.75","1967.0","TEPEHUANES DGO., MX","FM-12","99999","V020","999,9,C,0000,1","22000,1,9,N","020000,1,N,1","+0255,1","+0110,1","10116,1",,,,,"02,1,+00750,1,06,1",,"05,99,1,02,1,04,1,01250,1,00,1,04,1",,"01,9",,"120,M,+0262,1","240,N,+0090,1","99999,9,08177,1","7,1,014,1,-012,1",,"SYN118AAXX  11181 76373 32670 50000 10255 20110 38177 40116 57014 82404 91750 333 10262 20090 30/// 56909 59012 82625 83056;",
"76373099999","2011-10-11T21:00:00","4","25.35","-105.75","1967.0","TEPEHUANES DGO., MX","FM-12","99999","V020","140,1,N,0020,1","00660,1,9,N","020000,1,N,1","+0279,1","+0095,1","10090,1",,,,,"06,1,+00660,1,06,1",,"06,99,1,06,1,04,1,00800,1,00,1,00,1",,"01,9",,,,"99999,9,08156,1","7,1,021,1,+004,1",,"SYN100AAXX  11211 76373 32570 61402 10279 20095 38156 40090 57021 86400 92050 333 30/// 56900 58004 86622;",
"76373099999","2011-10-12T00:00:00","4","25.35","-105.75","1967.0","TEPEHUANES DGO., MX","FM-12","99999","V020","310,1,N,0010,1","00750,1,9,N","020000,1,N,1","+0225,1","+0111,1","10088,1","24,0000,9,1",,,,,,"06,99,1,06,1,06,1,00800,1,00,1,00,1",,"01,9",,"120,M,+0290,1","180,N,+0090,1","99999,9,08155,1","2,1,001,1,+003,1",,"SYN124AAXX  12001 76373 32570 63101 10225 20111 38155 40088 52001 86600 92350 333 10290 20090 30/// 50391 56900 58003 70000 86723;",
"76373099999","2011-10-12T03:00:00","4","25.35","-105.75","1967.0","TEPEHUANES DGO., MX","FM-12","99999","V020","999,9,C,0000,1","99999,9,9,N","001000,1,N,1","+0189,1","+0108,1","10109,1",,,,,,,"06,99,1,00,1,00,1,99999,9,00,1,07,1",,"01,9",,,,"99999,9,08172,1","2,1,017,1,+999,9",,"SYN100AAXX  12031 76373 32910 60000 10189 20108 38172 40109 52017 80007 90250 333 30/// 56909 58/// 86252;",
"76373099999","2011-10-12T12:00:00","4","25.35","-105.75","1967.0","TEPEHUANES DGO., MX","FM-12","99999","V020","999,9,C,0000,1","22000,1,9,N","000600,1,N,1","+0091,1","+0086,1","10119,1","24,0000,9,1",,,,"01,1,+00750,1,06,1",,"03,99,1,01,1,04,1,01250,1,00,1,04,1","0396,9","01,9",,"120,N,+0077,1","240,M,+0290,1","99999,9,08180,1","9,9,999,9,+000,1",,"SYN136AAXX  12121 76373 32606 30000 10091 20086 38180 40119 5//// 81404 91150 333 10290 20077 30068 55066 2//// 56909 58000 70000 81625 82067;",
"76373099999","2011-10-12T15:00:00","4","25.35","-105.75","1967.0","TEPEHUANES DGO., MX","FM-12","99999","V020","999,9,C,0000,1","05100,1,9,N","020000,1,N,1","+0229,1","+0096,1","10139,1",,,,,"06,1,+05100,1,02,1",,"06,99,1,00,1,00,1,99999,9,00,1,07,1",,"01,9",,,,"99999,9,08196,1","2,1,016,1,+005,1",,"SYN100AAXX  12151 76373 32970 60000 10229 20096 38196 40139 52016 80007 91450 333 30/// 56009 58005 86267;",
"76373099999","2011-10-12T18:00:00","4","25.35","-105.75","1967.0","TEPEHUANES DGO., MX","FM-12","99999","V020","130,1,N,0010,1","05100,1,9,N","020000,1,N,1","+0243,1","+0106,1","10137,1",,,,,"07,1,+05100,1,02,1",,"07,99,1,00,1,00,1,99999,9,00,1,07,1",,"01,9",,"120,M,+0250,1","240,N,+0077,1","99999,9,08194,1","8,1,002,1,+017,1",,"SYN112AAXX  12181 76373 32970 71301 10243 20106 38194 40137 58002 80007 91750 333 10250 20077 30/// 56909 58017 87267;",
"76373099999","2011-10-12T21:00:00","4","25.35","-105.75","1967.0","TEPEHUANES DGO., MX","FM-12","99999","V020","140,1,N,0030,1","22000,1,9,N","020000,1,N,1","+0289,1","+0038,1","10113,1",,,,,"04,1,+05100,1,02,1",,"04,99,1,00,1,00,1,99999,9,00,1,07,1",,"01,9",,,,"99999,9,08175,1","7,1,019,1,+019,1",,"SYN100AAXX  12211 76373 32970 41403 10289 20038 38175 40113 57019 80007 92050 333 30/// 56009 58019 84267;",
"76373099999","2011-10-13T00:00:00","4","25.35","-105.75","1967.0","TEPEHUANES DGO., MX","FM-12","99999","V020","170,1,N,0010,1","22000,1,9,N","020000,1,N,1","+0263,1","+0040,1","10109,1","24,0000,9,1",,,,,,"03,99,1,01,1,02,1,01250,1,00,1,04,1",,"01,9",,"120,M,+0300,1","180,N,+0077,1","99999,9,08172,1","7,1,003,1,+017,1",,"SYN124AAXX  13001 76373 32670 31701 10263 20040 38172 40109 57003 81204 92350 333 10300 20077 30/// 50471 56909 58017 70000 81825;",
"76373099999","2011-10-13T12:00:00","4","25.35","-105.75","1967.0","TEPEHUANES DGO., MX","FM-12","99999","V020","999,9,C,0000,1","22000,1,9,N","000600,1,N,1","+0076,1","+0046,1","10156,1",,,,,"00,1,+99999,9,99,9",,"00,99,1,00,1,00,1,99999,9,00,1,00,1","0552,9","01,9",,"120,N,+0064,1","240,M,+0300,1","99999,9,08210,1","9,9,999,9,+030,1",,"SYN112AAXX  13121 76373 32906 00000 10076 20046 38210 40156 5//// 91150 333 10300 20064 30052 55092 2//// 58030 70000;",
"76373099999","2011-10-13T15:00:00","4","25.35","-105.75","1967.0","TEPEHUANES DGO., MX","FM-12","99999","V020","999,9,C,0000,1","22000,1,9,N","020000,1,N,1","+0138,1","+0066,1","10170,1",,,,,"00,1,+99999,9,99,9",,"00,99,1,00,1,00,1,99999,9,00,1,00,1",,"01,9",,,,"99999,9,08221,1","2,1,011,1,+025,1",,"SYN082AAXX  13151 76373 32970 00000 10138 20066 38221 40170 52011 91450 333 30/// 58025;",
"76373099999","2011-10-13T18:00:00","4","25.35","-105.75","1967.0","TEPEHUANES DGO., MX","FM-12","99999","V020","140,1,N,0020,1","22000,1,9,N","030000,1,N,1","+0276,1","+0039,1","10151,1",,,,,"00,1,+99999,9,99,9",,"00,99,1,00,1,00,1,99999,9,00,1,00,1",,"01,9",,"120,M,+0282,1","240,N,+0064,1","99999,9,08206,1","7,1,015,1,+012,1",,"SYN094AAXX  13181 76373 32980 01402 10276 20039 38206 40151 57015 91755 333 10282 20064 30/// 58012;",
"76373099999","2011-10-14T00:00:00","4","25.35","-105.75","1967.0","TEPEHUANES DGO., MX","FM-12","99999","V020","050,1,N,0010,1","22000,1,9,N","030000,1,N,1","+0278,1","+0026,1","10116,1","24,0000,9,1",,,,,,"01,99,1,01,1,01,1,00800,1,00,1,00,1",,"01,9",,"120,M,+0310,1","180,N,+0064,1","99999,9,08177,1","1,1,002,1,+005,1",,"SYN124AAXX  14001 76373 32580 10501 10278 20026 38177 40116 51002 81100 92355 333 10310 20064 30/// 50671 56900 58005 70000 81825;",
"76373099999","2011-10-14T03:00:00","4","25.35","-105.75","1967.0","TEPEHUANES DGO., MX","FM-12","99999","V020","999,9,C,0000,1","22000,1,9,N","001000,1,N,1","+0196,1","+0023,1","10136,1",,,,,"00,1,+99999,9,99,9",,"00,99,1,00,1,00,1,99999,9,00,1,00,1",,"01,9",,,,"99999,9,08193,1","2,1,016,1,-003,1",,"SYN082AAXX  14031 76373 32910 00000 10196 20023 38193 40136 52016 90245 333 30/// 59003;",
"76373099999","2011-10-14T12:00:00","4","25.35","-105.75","1967.0","TEPEHUANES DGO., MX","FM-12","99999","V020","999,9,C,0000,1","22000,1,9,N","001000,1,N,1","+0060,1","+0019,1","10155,1","24,0000,9,1",,,,"00,1,+99999,9,99,9",,"00,99,1,00,1,00,1,99999,9,00,1,00,1","0624,9","01,9","999,+0026,9","120,N,+0048,1","240,M,+0310,1","99999,9,08209,1","9,9,999,9,-001,1",,"SYN106AAXX  14121 76373 32910 00000 10060 20019 38209 40155 5//// 91155 333 10310 20048 30026 55104 59001 70000;","Q01  00002PRCP24"
"76373099999","2011-10-14T15:00:00","4","25.35","-105.75","1967.0","TEPEHUANES DGO., MX","FM-12","99999","V020","999,9,C,0000,1","22000,1,9,N","030000,1,N,1","+0134,1","+0032,1","10167,1",,,,,"00,1,+99999,9,99,9",,"00,99,1,00,1,00,1,99999,9,00,1,00,1",,"01,9",,,,"99999,9,08219,1","2,1,010,1,-002,1",,"SYN082AAXX  14151 76373 32980 00000 10134 20032 38219 40167 52010 91450 333 30/// 59002;",
"76373099999","2011-10-14T18:00:00","4","25.35","-105.75","1967.0","TEPEHUANES DGO., MX","FM-12","99999","V020","110,1,N,0010,1","22000,1,9,N","030000,1,N,1","+0272,1","+0033,1","10155,1",,,,,"00,1,+99999,9,99,9",,"00,99,1,00,1,00,1,99999,9,00,1,00,1",,"01,9",,"120,M,+0280,1","240,N,+0048,1","99999,9,08209,1","7,1,010,1,+003,1",,"SYN094AAXX  14181 76373 32980 01101 10272 20033 38209 40155 57010 91755 333 10280 20048 30/// 58003;",
"76373099999","2011-10-14T21:00:00","4","25.35","-105.75","1967.0","TEPEHUANES DGO., MX","FM-12","99999","V020","110,1,N,0010,1","22000,1,9,N","030000,1,N,1","+0312,2","-0018,1","10116,1",,,,,"00,1,+99999,9,99,9",,"00,99,1,00,1,00,1,99999,9,00,1,00,1",,"01,9",,,,"99999,9,08177,1","7,1,032,1,-003,1",,"SYN082AAXX  14211 76373 32980 01101 10312 21018 38177 40116 57032 92055 333 30/// 59003;",
"76373099999","2011-10-15T00:00:00","4","25.35","-105.75","1967.0","TEPEHUANES DGO., MX","FM-12","99999","V020","110,1,N,0010,1","22000,1,9,N","030000,1,N,1","+0277,1","-0002,1","10119,1","24,0000,9,1",,,,"00,1,+99999,9,99,9",,"00,99,1,00,1,00,1,99999,9,00,1,00,1",,"01,9",,"120,M,+0320,1","180,N,+0048,1","99999,9,08180,1","1,1,003,1,+003,1",,"SYN106AAXX  15001 76373 32980 01101 10277 21002 38180 40119 51003 92355 333 10320 20048 30/// 50611 58003 70000;","Q01  00002PRCP24"
"76373099999","2011-10-15T03:00:00","4","25.35","-105.75","1967.0","TEPEHUANES DGO., MX","FM-12","99999","V020","140,1,N,0010,1","22000,1,9,N","001000,1,N,1","+0190,1","-0003,1","10138,1",,,,,"00,1,+99999,9,99,9",,"00,99,1,00,1,00,1,99999,9,00,1,00,1",,"01,9",,,,"99999,9,08195,1","2,1,015,1,+002,1",,"SYN082AAXX  15031 76373 32910 01401 10190 21003 38195 40138 52015 90255 333 30/// 58002;",
"76373099999","2011-10-15T12:00:00","4","25.35","-105.75","1967.0","TEPEHUANES DGO., MX","FM-12","99999","V020","999,9,C,0000,1","22000,1,9,N","001000,1,N,1","+0052,1","+0002,1","10167,1","24,0000,9,1",,,,"00,1,+99999,9,99,9",,"00,99,1,00,1,00,1,99999,9,00,1,00,1","0624,9","01,9","999,+0022,9","120,N,+0040,1","240,M,+0320,1","99999,9,08218,1","9,9,999,9,+009,1",,"SYN106AAXX  15121 76373 32910 00000 10052 20002 38218 40167 5//// 91155 333 10320 20040 30022 55104 58009 70000;","Q01  00002PRCP24"
"76373099999","2011-10-15T15:00:00","4","25.35","-105.75","1967.0","TEPEHUANES DGO., MX","FM-12","99999","V020","999,9,C,0000,1","22000,1,9,N","030000,1,N,1","+0132,1","+0024,1","10178,1",,,,,"00,1,+99999,9,99,9",,"00,99,1,00,1,00,1,99999,9,00,1,00,1",,"01,9",,,,"99999,9,08227,1","2,1,009,1,+008,1",,"SYN082AAXX  15151 76373 32980 00000 10132 20024 38227 40178 52009 91455 333 30/// 58008;",
"76373099999","2011-10-16T00:00:00","4","25.35","-105.75","1967.0","TEPEHUANES DGO., MX","FM-12","99999","V020","080,1,N,0010,1","22000,1,9,N","020000,1,N,1","+0277,1","-0033,1","10135,1","24,0000,9,1",,,,"00,1,+99999,9,99,9",,"00,99,1,00,1,00,1,99999,9,00,1,00,1",,"01,9",,"120,M,+0316,1","180,N,+0040,1","99999,9,08193,1","7,1,017,1,+013,1",,"SYN106AAXX  16001 76373 32970 00801 10277 21033 38193 40135 57017 92350 333 10316 20040 30/// 50591 58013 70000;","Q01  00002PRCP24"
"76373099999","2011-10-16T03:00:00","4","25.35","-105.75","1967.0","TEPEHUANES DGO., MX","FM-12","99999","V020","999,9,C,0000,1","22000,1,9,N","000600,1,N,1","+0193,1","-0023,1","10155,1",,,,,"00,1,+99999,9,99,9",,"00,99,1,00,1,00,1,99999,9,00,1,00,1",,"01,9",,,,"99999,9,08209,1","2,1,016,1,+014,1",,"SYN082AAXX  16031 76373 32906 00000 10193 21023 38209 40155 52016 90250 333 30/// 58014;",
"76373099999","2011-10-16T15:00:00","4","25.35","-105.75","1967.0","TEPEHUANES DGO., MX","FM-12","99999","V020","999,9,C,0000,1","22000,1,9,N","020000,1,N,1","+0127,1","+0010,1","10200,1",,,,,"00,1,+99999,9,99,9",,"00,99,1,00,1,00,1,99999,9,00,1,00,1",,"01,9",,,,"99999,9,08246,1","2,1,010,1,+019,1",,"SYN082AAXX  16151 76373 32970 00000 10127 20010 38246 40200 52010 91450 333 30/// 58019;",
"76373099999","2011-10-16T18:00:00","4","25.35","-105.75","1967.0","TEPEHUANES DGO., MX","FM-12","99999","V020","999,9,C,0000,1","22000,1,9,N","020000,1,N,1","+0267,1","-0002,1","10185,1",,,,,"00,1,+99999,9,99,9",,"00,99,1,00,1,00,1,99999,9,00,1,00,1",,"01,9",,"120,M,+0272,1","240,N,+0040,1","99999,9,08233,1","7,1,013,1,+016,1",,"SYN094AAXX  16181 76373 32970 00000 10267 21002 38233 40185 57013 91750 333 10272 20040 30/// 58016;",
"76373099999","2011-10-16T21:00:00","4","25.35","-105.75","1967.0","TEPEHUANES DGO., MX","FM-12","99999","V020","140,1,N,0010,1","22000,1,9,N","020000,1,N,1","+0300,1","-0029,1","10149,1",,,,,"00,1,+99999,9,99,9",,"00,99,1,00,1,00,1,99999,9,00,1,00,1",,"01,9",,,,"99999,9,08204,1","7,1,029,1,-006,1",,"SYN082AAXX  16211 76373 32970 01401 10300 21029 38204 40149 57029 92050 333 30/// 59006;",
"76373099999","2011-10-17T00:00:00","4","25.35","-105.75","1967.0","TEPEHUANES DGO., MX","FM-12","99999","V020","130,1,N,0010,1","22000,1,9,N","020000,1,N,1","+0267,1","-0046,1","10142,1","24,0000,9,1",,,,"00,1,+99999,9,99,9",,"00,99,1,00,1,00,1,99999,9,00,1,00,1",,"01,9",,"120,M,+0313,1","180,N,+0040,1","99999,9,08198,1","7,1,006,1,+005,1",,"SYN106AAXX  17001 76373 32970 01301 10267 21046 38198 40142 57006 92350 333 10313 20040 30/// 50521 58005 70000;","Q01  00002PRCP24"
"76373099999","2011-10-17T12:00:00","4","25.35","-105.75","1967.0","TEPEHUANES DGO., MX","FM-12","99999","V020","999,9,C,0000,1","22000,1,9,N","000600,1,N,1","+0041,1","-0013,1","10187,1",,,,,"00,1,+99999,9,99,9",,"00,99,1,00,1,00,1,99999,9,00,1,00,1","0630,9","01,9","999,+0022,9","120,N,+0030,1","240,M,+0313,1","99999,9,08234,1","9,9,999,9,-002,1",,"SYN112AAXX  17121 76373 32906 00000 10041 21013 38234 40187 5//// 91150 333 10313 20030 30022 55105 2//// 59002 70000;",
"76373099999","2011-10-17T15:00:00","4","25.35","-105.75","1967.0","TEPEHUANES DGO., MX","FM-12","99999","V020","999,9,C,0000,1","22000,1,9,N","020000,1,N,1","+0110,1","-0003,1","10199,1",,,,,"00,1,+99999,9,99,9",,"00,99,1,00,1,00,1,99999,9,00,1,00,1",,"01,9",,,,"99999,9,08244,1","2,1,010,1,-002,1",,"SYN082AAXX  17151 76373 32970 00000 10110 21003 38244 40199 52010 91450 333 30/// 59002;",
"76373099999","2011-10-17T18:00:00","4","25.35","-105.75","1967.0","TEPEHUANES DGO., MX","FM-12","99999","V020","999,9,C,0000,1","22000,1,9,N","020000,1,N,1","+9999,9","-0012,1","10172,1",,,,,"00,1,+99999,9,99,9",,"00,99,1,00,1,00,1,99999,9,00,1,00,1",,"01,9",,"120,M,+0280,1","240,N,+0030,1","99999,9,08222,1","7,1,022,1,-011,1",,"SYN094AAXX  17181 76373 32970 00000 10276 21012 38222 40172 57022 91750 333 10280 20030 30/// 59011;","Q01+002763ATOT  "
"76373099999","2011-10-17T21:00:00","4","25.35","-105.75","1967.0","TEPEHUANES DGO., MX","FM-12","99999","V020","130,1,N,0010,1","22000,1,9,N","020000,1,N,1","+0318,2","-0028,1","10131,1",,,,,"00,1,+99999,9,99,9",,"00,99,1,00,1,00,1,99999,9,00,1,00,1",,"01,9",,,,"99999,9,08190,1","7,1,032,1,-014,1",,"SYN082AAXX  17211 76373 32970 01301 10318 21028 38190 40131 57032 92050 333 30/// 59014;",
"76373099999","2011-10-18T00:00:00","4","25.35","-105.75","1967.0","TEPEHUANES DGO., MX","FM-12","99999","V020","130,1,N,0010,1","22000,1,9,N","020000,1,N,1","+0276,1","-0044,1","10121,1","24,0000,9,1",,,,"00,1,+99999,9,99,9",,"00,99,1,00,1,00,1,99999,9,00,1,00,1",,"01,9",,"120,M,+0322,1","180,N,+0030,1","99999,9,08181,1","7,1,009,1,-017,1",,"SYN106AAXX  18001 76373 32970 01301 10276 21044 38181 40121 57009 92350 333 10322 20030 30/// 50741 59017 70000;","Q01  00002PRCP24"
"76373099999","2011-10-18T03:00:00","4","25.35","-105.75","1967.0","TEPEHUANES DGO., MX","FM-12","99999","V020","999,9,C,0000,1","22000,1,9,N","000600,1,N,1","+0187,1","+0018,1","10145,1",,,,,"00,1,+99999,9,99,9",,"00,99,1,00,1,00,1,99999,9,00,1,00,1",,"01,9",,,,"99999,9,08201,1","2,1,020,1,+999,9",,"SYN082AAXX  18031 76373 32906 00000 10187 20018 38201 40145 52020 90250 333 30/// 58///;",
"76373099999","2011-10-18T12:00:00","4","25.35","-105.75","1967.0","TEPEHUANES DGO., MX","FM-12","99999","V020","999,9,C,0000,1","22000,1,9,N","000600,1,N,1","+0066,1","+0022,1","10165,1",,,,,"00,1,+99999,9,99,9",,"00,99,1,00,1,00,1,99999,9,00,1,00,1","0630,9","01,9","999,+0040,9","120,N,+0051,1","240,M,+0322,1","99999,9,08217,1","9,9,999,9,-017,1",,"SYN112AAXX  18121 76373 32906 00000 10066 20022 38217 40165 5//// 91150 333 10322 20051 30040 55105 2//// 59017 70000;",
"76373099999","2011-10-18T15:00:00","4","25.35","-105.75","1967.0","TEPEHUANES DGO., MX","FM-12","99999","V020","999,9,C,0000,1","22000,1,9,N","020000,1,N,1","+0140,1","+0056,1","10178,1",,,,,"00,1,+99999,9,99,9",,"00,99,1,00,1,00,1,99999,9,00,1,00,1",,"01,9",,,,"99999,9,08227,1","2,1,010,1,-017,1",,"SYN082AAXX  18151 76373 32970 00000 10140 20056 38227 40178 52010 91450 333 30/// 59017;",
"76373099999","2011-10-18T18:00:00","4","25.35","-105.75","1967.0","TEPEHUANES DGO., MX","FM-12","99999","V020","130,1,N,0010,1","22000,1,9,N","020000,1,N,1","+0275,1","-0025,1","10164,1",,,,,"00,1,+99999,9,99,9",,"00,99,1,00,1,00,1,99999,9,00,1,00,1",,"01,9",,"120,M,+0283,1","240,N,+0051,1","99999,9,08216,1","7,1,011,1,-006,1",,"SYN094AAXX  18181 76373 32970 01301 10275 21025 38216 40164 57011 91750 333 10283 20051 30/// 59006;",
"76373099999","2011-10-18T21:00:00","4","25.35","-105.75","1967.0","TEPEHUANES DGO., MX","FM-12","99999","V020","140,1,N,0020,1","22000,1,9,N","020000,1,N,1","+0303,1","-0034,1","10138,1",,,,,"00,1,+99999,9,99,9",,"00,99,1,00,1,00,1,99999,9,00,1,00,1",,"01,9",,,,"99999,9,08195,1","7,1,021,1,+005,1",,"SYN082AAXX  18211 76373 32970 01402 10303 21034 38195 40138 57021 92050 333 30/// 58005;",
"76373099999","2011-10-19T00:00:00","4","25.35","-105.75","1967.0","TEPEHUANES DGO., MX","FM-12","99999","V020","080,1,N,0020,1","22000,1,9,N","020000,1,N,1","+0267,1","-0046,1","10138,1","24,0000,9,1",,,,"00,1,+99999,9,99,9",,"00,99,1,00,1,00,1,99999,9,00,1,00,1",,"01,9",,"120,M,+0321,1","180,N,+0051,1","99999,9,08195,1","5,1,000,1,+014,1",,"SYN106AAXX  19001 76373 32970 00802 10267 21046 38195 40138 55000 92350 333 10321 20051 30/// 50561 58014 70000;","Q01  00002PRCP24"
"76373099999","2011-10-19T03:00:00","4","25.35","-105.75","1967.0","TEPEHUANES DGO., MX","FM-12","99999","V020","999,9,C,0000,1","22000,1,9,N","000600,1,N,1","+0186,1","-0025,1","10164,1",,,,,"00,1,+99999,9,99,9",,"00,99,1,00,1,00,1,99999,9,00,1,00,1",,"01,9",,,,"99999,9,08216,1","2,1,021,1,+015,1",,"SYN082AAXX  19031 76373 32906 00000 10186 21025 38216 40164 52021 90250 333 30/// 58015;",
"76373099999","2011-10-19T12:00:00","4","25.35","-105.75","1967.0","TEPEHUANES DGO., MX","FM-12","99999","V020","999,9,C,0000,1","22000,1,9,N","000600,1,N,1","+0062,1","-0012,1","10185,1",,,,,"00,1,+99999,9,99,9",,"00,99,1,00,1,00,1,99999,9,00,1,00,1","0630,9","01,9","999,+0042,9","120,N,+0051,1","240,M,+0321,1","99999,9,08233,1","9,9,999,9,+016,1",,"SYN112AAXX  19121 76373 32906 00000 10062 21012 38233 40185 5//// 91150 333 10321 20051 30042 55105 2//// 58016 70000;",
"76373099999","2011-10-19T15:00:00","4","25.35","-105.75","1967.0","TEPEHUANES DGO., MX","FM-12","99999","V020","999,9,C,0000,1","22000,1,9,N","014000,1,N,1","+0116,1","+0009,1","10200,1",,,,,"00,1,+99999,9,99,9",,"00,99,1,00,1,00,1,99999,9,00,1,00,1",,"01,9",,,,"99999,9,08245,1","2,1,012,1,+018,1",,"SYN082AAXX  19151 76373 32964 00000 10116 20009 38245 40200 52012 91450 333 30/// 58018;",
"76373099999","2011-10-19T18:00:00","4","25.35","-105.75","1967.0","TEPEHUANES DGO., MX","FM-12","99999","V020","100,1,N,0010,1","22000,1,9,N","016000,1,N,1","+0237,1","-0003,1","10187,1",,,,,"00,1,+99999,9,99,9",,"00,99,1,00,1,00,1,99999,9,00,1,00,1",,"01,9",,"120,M,+0248,1","240,N,+0051,1","99999,9,08235,1","7,1,010,1,+019,1",,"SYN094AAXX  19181 76373 32966 01001 10237 21003 38235 40187 57010 91750 333 10248 20051 30/// 58019;",
"76373099999","2011-10-19T21:00:00","4","25.35","-105.75","1967.0","TEPEHUANES DGO., MX","FM-12","99999","V020","120,1,N,0010,1","22000,1,9,N","020000,1,N,1","+0275,1","-0046,1","10157,1",,,,,"00,1,+99999,9,99,9",,"00,99,1,00,1,00,1,99999,9,00,1,00,1",,"01,9",,,,"99999,9,08210,1","7,1,025,1,+015,1",,"SYN082AAXX  19211 76373 32970 01201 10275 21046 38210 40157 57025 92050 333 30/// 58015;",
"76373099999","2011-10-20T00:00:00","4","25.35","-105.75","1967.0","TEPEHUANES DGO., MX","FM-12","99999","V020","130,1,N,0010,1","22000,1,9,N","020000,1,N,1","+0253,1","-0030,1","10147,1","24,0000,9,1",,,,"00,1,+99999,9,99,9",,"00,99,1,00,1,00,1,99999,9,00,1,00,1",,"01,9",,"120,M,+0298,1","180,N,+0051,1","99999,9,08202,1","7,1,008,1,+007,1",,"SYN106AAXX  20001 76373 32970 01301 10253 21030 38202 40147 57008 92350 333 10298 20051 30/// 50471 58007 70000;","Q01  00002PRCP24"
"76373099999","2011-10-20T03:00:00","4","25.35","-105.75","1967.0","TEPEHUANES DGO., MX","FM-12","99999","V020","999,9,C,0000,1","22000,1,9,N","000600,1,N,1","+0163,1","-0018,1","10169,1",,,,,"00,1,+99999,9,99,9",,"00,99,1,00,1,00,1,99999,9,00,1,00,1",,"01,9",,,,"99999,9,08220,1","2,1,018,1,+004,1",,"SYN082AAXX  20031 76373 32906 00000 10163 21018 38220 40169 52018 90250 333 30/// 58004;",
"76373099999","2011-10-20T12:00:00","4","25.35","-105.75","1967.0","TEPEHUANES DGO., MX","FM-12","99999","V020","999,9,C,0000,1","22000,1,9,N","000600,1,N,1","+0062,1","-0004,1","10197,1",,,,,"00,1,+99999,9,99,9",,"00,99,1,00,1,00,1,99999,9,00,1,00,1","0612,9","01,9","999,+0039,9","120,N,+0050,1","240,M,+0298,1","99999,9,08243,1","9,9,999,9,+010,1",,"SYN112AAXX  20121 76373 32906 00000 10062 21004 38243 40197 5//// 91150 333 10298 20050 30039 55102 2//// 58010 70000;",
"76373099999","2011-10-20T15:00:00","4","25.35","-105.75","1967.0","TEPEHUANES DGO., MX","FM-12","99999","V020","999,9,C,0000,1","22000,1,9,N","013000,1,N,1","+0114,1","+0032,1","10208,1",,,,,"00,1,+99999,9,99,9",,"00,99,1,00,1,00,1,99999,9,00,1,00,1",,"01,9",,,,"99999,9,08252,1","2,1,009,1,+007,1",,"SYN082AAXX  20151 76373 32963 00000 10114 20032 38252 40208 52009 91440 333 30/// 58007;",
"76373099999","2011-10-20T18:00:00","4","25.35","-105.75","1967.0","TEPEHUANES DGO., MX","FM-12","99999","V020","140,1,N,0010,1","22000,1,9,N","015000,1,N,1","+9999,9","-0006,1","10186,1",,,,,"00,1,+99999,9,99,9",,"00,99,1,00,1,00,1,99999,9,00,1,00,1",,"01,9",,"120,M,+0280,1","240,N,+0050,1","99999,9,08234,1","7,1,018,1,-001,1",,"SYN094AAXX  20181 76373 32965 01401 10274 21006 38234 40186 57018 91755 333 10280 20050 30/// 59001;","Q01+002743ATOT  "
"76373099999","2011-10-20T21:00:00","4","25.35","-105.75","1967.0","TEPEHUANES DGO., MX","FM-12","99999","V020","070,1,N,0010,1","22000,1,9,N","030000,1,N,1","+0306,2","-0019,1","10153,1",,,,,"01,1,+00750,1,08,1",,"01,99,1,01,1,01,1,00800,1,00,1,00,1",,"01,9",,,,"99999,9,08207,1","7,1,027,1,-003,1",,"SYN100AAXX  20211 76373 32580 10701 10306 21019 38207 40153 57027 81100 92050 333 30/// 56900 59003 81825;",
"76373099999","2011-10-21T00:00:00","4","25.35","-105.75","1967.0","TEPEHUANES DGO., MX","FM-12","99999","V020","250,1,N,0010,1","22000,1,9,N","030000,1,N,1","+0282,1","+0011,1","10146,1","24,0000,9,1",,,,,,"01,99,1,01,1,01,1,00800,1,00,1,00,1",,"01,9",,"120,M,+0324,1","180,N,+0050,1","99999,9,08201,1","7,1,006,1,-001,1",,"SYN124AAXX  21001 76373 32580 12501 10282 20011 38201 40146 57006 81100 92355 333 10324 20050 30/// 50601 56900 59001 70000 81825;",
"76373099999","2011-10-21T03:00:00","4","25.35","-105.75","1967.0","TEPEHUANES DGO., MX","FM-12","99999","V020","999,9,C,0000,1","22000,1,9,N","001000,1,N,1","+0200,1","+0096,1","10181,1",,,,,"00,1,+99999,9,99,9",,"00,99,1,00,1,00,1,99999,9,00,1,00,1",,"01,9",,,,"99999,9,08230,1","2,1,029,1,+010,1",,"SYN082AAXX  21031 76373 32910 00000 10200 20096 38230 40181 52029 90255 333 30/// 58010;",
"76373099999","2011-10-21T12:00:00","4","25.35","-105.75","1967.0","TEPEHUANES DGO., MX","FM-12","99999","V020","999,9,C,0000,1","22000,1,9,N","001000,1,N,1","+0098,1","+0070,1","10203,1","24,0000,9,1",,,,"00,1,+99999,9,99,9",,"00,99,1,00,1,00,1,99999,9,00,1,00,1","0600,9","01,9","999,+0014,9","120,N,+0030,1","240,M,+0324,1","99999,9,08247,1","9,9,999,9,+004,1",,"SYN106AAXX  21121 76373 32910 00000 10098 20070 38247 40203 5//// 91150 333 10324 20030 30014 55100 58004 70000;","Q01  00002PRCP24"
"76373099999","2011-10-21T18:00:00","4","25.35","-105.75","1967.0","TEPEHUANES DGO., MX","FM-12","99999","V020","140,1,N,0010,1","22000,1,9,N","030000,1,N,1","+0270,1","+0071,1","10201,1",,,,,"00,1,+99999,9,99,9",,"00,99,1,00,1,00,1,99999,9,00,1,00,1",,"01,9",,"120,M,+0276,1","240,N,+0030,1","99999,9,08246,1","7,1,016,1,+012,1",,"SYN094AAXX  21181 76373 32980 01401 10270 20071 38246 40201 57016 91755 333 10276 20030 30/// 58012;",
"76373099999","2011-10-21T21:00:00","4","25.35","-105.75","1967.0","TEPEHUANES DGO., MX","FM-12","99999","V020","110,1,N,0010,1","22000,1,9,N","030000,1,N,1","+0300,1","-0017,1","10165,1",,,,,"00,1,+99999,9,99,9",,"00,99,1,00,1,00,1,99999,9,00,1,00,1",,"01,9",,,,"99999,9,08217,1","7,1,029,1,+010,1",,"SYN082AAXX  21211 76373 32980 01101 10300 21017 38217 40165 57029 92055 333 30/// 58010;",
"76373099999","2011-10-22T00:00:00","4","25.35","-105.75","1967.0","TEPEHUANES DGO., MX","FM-12","99999","V020","140,1,N,0010,1","22000,1,9,N","030000,1,N,1","+0280,1","-0007,1","10148,1","24,0000,9,1",,,,,,"02,99,1,00,1,00,1,99999,9,00,1,02,1",,"01,9",,"120,M,+0320,1","180,N,+0030,1","99999,9,08203,1","7,1,014,1,+002,1",,"SYN124AAXX  22001 76373 32980 21401 10280 21007 38203 40148 57014 80002 92355 333 10320 20030 30/// 50491 56009 58002 70000 82067;",
"76373099999","2011-10-22T03:00:00","4","25.35","-105.75","1967.0","TEPEHUANES DGO., MX","FM-12","99999","V020","999,9,C,0000,1","22000,1,9,N","001000,1,N,1","+0200,1","+0076,1","10173,1",,,,,"00,1,+99999,9,99,9",,"00,99,1,00,1,00,1,99999,9,00,1,00,1",,"01,9",,,,"99999,9,08224,1","2,1,021,1,-006,1",,"SYN082AAXX  22031 76373 32910 00000 10200 20076 38224 40173 52021 90255 333 30/// 59006;",
"76373099999","2011-10-22T12:00:00","4","25.35","-105.75","1967.0","TEPEHUANES DGO., MX","FM-12","99999","V020","999,9,C,0000,1","22000,1,9,N","001000,1,N,1","+0108,1","+0066,1","10180,1","24,0000,9,1",,,,,,"02,99,1,00,1,00,1,99999,9,00,1,02,1","0600,9","01,9",,"120,N,+0092,1","240,M,+0320,1","99999,9,08229,1","9,9,999,9,-018,1",,"SYN124AAXX  22121 76373 32910 20000 10108 20066 38229 40180 5//// 80002 91155 333 10320 20092 30056 55100 56009 59018 70000 82067;",
"76373099999","2011-10-22T15:00:00","4","25.35","-105.75","1967.0","TEPEHUANES DGO., MX","FM-12","99999","V020","999,9,C,0000,1","00750,1,9,N","020000,1,N,1","+0124,1","+0074,1","10149,1",,,,,"06,1,+00750,1,06,1",,"06,99,1,06,1,06,1,00800,1,00,1,00,1",,"01,9",,,,"99999,9,08241,1","2,1,012,1,-021,1",,"SYN100AAXX  22151 76373 32570 60000 10124 20074 38241 40149 52012 86600 91450 333 30/// 56900 59021 86625;",
"76373099999","2011-10-22T18:00:00","4","25.35","-105.75","1967.0","TEPEHUANES DGO., MX","FM-12","99999","V020","290,1,N,0010,1","00750,1,9,N","020000,1,N,1","+0203,1","+0087,1","10187,1",,,,,"06,1,+00750,1,06,1",,"06,99,1,06,1,06,1,00800,1,00,1,00,1",,"01,9",,"120,M,+0220,1","240,N,+0092,1","99999,9,08236,1","7,1,007,1,-010,1",,"SYN112AAXX  22181 76373 32570 62901 10203 20087 38236 40187 57007 86600 91755 333 10220 20092 30/// 56900 59010 86625;",
"76373099999","2011-10-23T00:00:00","4","25.35","-105.75","1967.0","TEPEHUANES DGO., MX","FM-12","99999","V020","999,9,C,0000,1","00750,1,9,N","020000,1,N,1","+0254,1","+0022,1","10147,1","24,0000,9,1",,,,,,"08,99,1,08,1,06,1,00800,1,00,1,00,1",,"01,9",,"120,M,+0267,1","180,N,+0092,1","99999,9,08202,1","7,1,006,1,-001,1",,"SYN124AAXX  23001 76373 32570 80000 10254 20022 38202 40147 57006 88600 92350 333 10267 20092 30/// 50331 56900 59001 70000 88625;",
"76373099999","2011-10-23T12:00:00","4","25.35","-105.75","1967.0","TEPEHUANES DGO., MX","FM-12","99999","V020","999,9,C,0000,1","22000,1,9,N","005000,1,N,1","+0145,1","+0082,1","10160,1","24,0000,9,1",,,,"00,1,+99999,9,99,9",,"00,99,1,00,1,00,1,99999,9,00,1,00,1",,"01,9",,"120,N,+0132,1","240,M,+0267,1","99999,9,08213,1","9,9,999,9,-016,1",,"SYN100AAXX  23121 76373 32950 00000 10145 20082 38213 40160 5//// 91150 333 10267 20132 30108 59016 70000;","Q01  00002PRCP24"
"76373099999","2011-10-23T15:00:00","4","25.35","-105.75","1967.0","TEPEHUANES DGO., MX","FM-12","99999","V020","999,9,C,0000,1","22000,1,9,N","020000,1,N,1","+0172,1","+0091,1","10178,1",,,,,"03,1,+00750,1,06,1",,"03,99,1,03,1,06,1,00800,1,00,1,00,1",,"01,9",,,,"99999,9,08228,1","2,1,015,1,-013,1",,"SYN100AAXX  23151 76373 32570 30000 10172 20091 38228 40178 52015 83600 91450 333 30/// 56900 59013 83625;",
"76373099999","2011-10-23T18:00:00","4","25.35","-105.75","1967.0","TEPEHUANES DGO., MX","FM-12","99999","V020","110,1,N,0010,1","22000,1,9,N","020000,1,N,1","+0272,1","+0035,1","10170,1",,,,,"01,1,+00750,1,08,1",,"01,99,1,01,1,02,1,00800,1,00,1,00,1",,"01,9",,"120,M,+0282,1","240,N,+0132,1","99999,9,08221,1","7,1,007,1,-013,1",,"SYN112AAXX  23181 76373 32570 11101 10272 20035 38221 40170 57007 81200 91750 333 10282 20132 30/// 56900 59013 81825;",
"76373099999","2011-10-23T21:00:00","4","25.35","-105.75","1967.0","TEPEHUANES DGO., MX","FM-12","99999","V020","110,1,N,0010,1","22000,1,9,N","020000,1,N,1","+0284,1","-0003,1","10141,1",,,,,"04,1,+00750,1,08,1",,"04,99,1,04,1,02,1,00800,1,00,1,00,1",,"01,9",,,,"99999,9,08198,1","7,1,023,1,-004,1",,"SYN100AAXX  23211 76373 32570 41101 10284 21003 38198 40141 57023 84200 92050 333 30/// 56900 59004 84825;",
"76373099999","2011-10-24T00:00:00","4","25.35","-105.75","1967.0","TEPEHUANES DGO., MX","FM-12","99999","V020","999,9,C,0000,1","22000,1,9,N","020000,1,N,1","+0256,1","-0002,1","10147,1","24,0000,9,1",,,,,,"04,99,1,04,1,06,1,00800,1,00,1,00,1",,"01,9",,"120,M,+0310,1","180,N,+0132,1","99999,9,08202,1","2,1,004,1,+006,1",,"SYN124AAXX  24001 76373 32570 40000 10256 21002 38202 40147 52004 84600 92350 333 10310 20132 30/// 50551 56900 58006 70000 84625;",
"76373099999","2011-10-24T03:00:00","4","25.35","-105.75","1967.0","TEPEHUANES DGO., MX","FM-12","99999","V020","999,9,C,0000,1","22000,1,9,N","005000,1,N,1","+0204,1","-0003,1","10170,1",,,,,"00,1,+99999,9,99,9",,"00,99,1,00,1,00,1,99999,9,00,1,00,1",,"01,9",,,,"99999,9,08221,1","2,1,019,1,+999,9",,"SYN082AAXX  24031 76373 32950 00000 10204 21003 38221 40170 52019 90250 333 30/// 58///;",
"76373099999","2011-10-24T12:00:00","4","25.35","-105.75","1967.0","TEPEHUANES DGO., MX","FM-12","99999","V020","999,9,C,0000,1","22000,1,9,N","005000,1,N,1","+0068,1","+0002,1","10193,1","24,0000,9,1",,,,"00,1,+99999,9,99,9",,"00,99,1,00,1,00,1,99999,9,00,1,00,1","0546,9","01,9","999,+0030,9","120,N,+0052,1","240,M,+0310,1","99999,9,08240,1","9,9,999,9,+027,1",,"SYN106AAXX  24121 76373 32950 00000 10068 20002 38240 40193 5//// 91150 333 10310 20052 30030 55091 58027 70000;","Q01  00002PRCP24"
"76373099999","2011-10-24T15:00:00","4","25.35","-105.75","1967.0","TEPEHUANES DGO., MX","FM-12","99999","V020","999,9,C,0000,1","22000,1,9,N","020000,1,N,1","+0123,1","+0006,1","10211,1",,,,,"00,1,+99999,9,99,9",,"00,99,1,00,1,00,1,99999,9,00,1,00,1",,"01,9",,,,"99999,9,08254,1","2,1,014,1,+026,1",,"SYN082AAXX  24151 76373 32970 00000 10123 20006 38254 40211 52014 91450 333 30/// 58026;",
"76373099999","2011-10-24T18:00:00","4","25.35","-105.75","1967.0","TEPEHUANES DGO., MX","FM-12","99999","V020","130,1,N,0010,1","22000,1,9,N","020000,1,N,1","+0267,1","-0002,1","10195,1",,,,,"00,1,+99999,9,99,9",,"00,99,1,00,1,00,1,99999,9,00,1,00,1",,"01,9",,"120,M,+0277,1","240,N,+0052,1","99999,9,08241,1","7,1,013,1,+020,1",,"SYN094AAXX  24181 76373 32970 01301 10267 21002 38241 40195 57013 91750 333 10277 20052 30/// 58020;",
"76373099999","2011-10-24T21:00:00","4","25.35","-105.75","1967.0","TEPEHUANES DGO., MX","FM-12","99999","V020","110,1,N,0010,1","22000,1,9,N","020000,1,N,1","+0293,1","-0006,1","10162,1",,,,,"01,1,+00750,1,08,1",,"01,99,1,01,1,02,1,00800,1,00,1,00,1",,"01,9",,,,"99999,9,08214,1","7,1,027,1,+016,1",,"SYN100AAXX  24211 76373 32570 11101 10293 21006 38214 40162 57027 81200 92050 333 30/// 56900 58016 81825;",
"76373099999","2011-10-25T12:00:00","4","25.35","-105.75","1967.0","TEPEHUANES DGO., MX","FM-12","99999","V020","999,9,C,0000,1","22000,1,9,N","000600,1,N,1","+0058,1","+0003,1","10198,1",,,,,"00,1,+99999,9,99,9",,"00,99,1,00,1,00,1,99999,9,00,1,00,1","0600,9","01,9","999,+0031,9","120,N,+0044,1","240,M,+0305,1","99999,9,08244,1","9,9,999,9,+004,1",,"SYN112AAXX  25121 76373 32906 00000 10058 20003 38244 40198 5//// 91150 333 10305 20044 30031 55100 2//// 58004 70000;",
"76373099999","2011-10-25T15:00:00","4","25.35","-105.75","1967.0","TEPEHUANES DGO., MX","FM-12","99999","V020","999,9,C,0000,1","22000,1,9,N","020000,1,N,1","+0122,1","+0025,1","10211,1",,,,,"00,1,+99999,9,99,9",,"00,99,1,00,1,00,1,99999,9,00,1,00,1",,"01,9",,,,"99999,9,08245,1","2,1,011,1,-011,1",,"SYN082AAXX  25151 76373 32970 00000 10122 20025 38245 40211 52011 91450 333 30/// 59011;",
"76373099999","2011-10-25T18:00:00","4","25.35","-105.75","1967.0","TEPEHUANES DGO., MX","FM-12","99999","V020","110,1,N,0010,1","22000,1,9,N","020000,1,N,1","+0264,1","+0012,1","10191,1",,,,,"00,1,+99999,9,99,9",,"00,99,1,00,1,00,1,99999,9,00,1,00,1",,,,"240,N,+0044,1",,"99999,9,08238,1","7,1,016,1,+999,9",,"SYN094AAXX  25181 76373 32970 01101 10264 20012 38238 40191 57016 9150 333 1 0276 20044 30/// 59003;",
"76373099999","2011-10-25T21:00:00","4","25.35","-105.75","1967.0","TEPEHUANES DGO., MX","FM-12","99999","V020","120,1,N,0010,1","22000,1,9,N","020000,1,N,1","+0305,2","-0014,1","10152,1",,,,,"01,1,+00810,1,08,1",,"01,99,1,01,1,02,1,01250,1,00,1,00,1",,"01,9",,,,"99999,9,08206,1","7,1,032,1,-008,1",,"SYN100AAXX  25211 76373 32670 11201 10305 21014 38206 40152 57032 81200 92050 333 30/// 56900 59008 81827;",
"76373099999","2011-10-26T00:00:00","4","25.35","-105.75","1967.0","TEPEHUANES DGO., MX","FM-12","99999","V020","130,1,N,0010,1","01200,1,9,N","020000,1,N,1","+0262,1","-0012,1","10139,1","24,0000,9,1",,,,,,"05,99,1,05,1,05,1,01250,1,00,1,00,1",,"01,9",,"120,M,+0320,1","180,N,+0044,1","99999,9,08196,1","7,1,010,1,+999,9",,"SYN124AAXX  26001 76373 32670 51301 10262 21012 38196 40139 57010 85500 92350 333 10320 20044 30/// 50671 56900 58/// 70000 85623;",
"76373099999","2011-10-26T03:00:00","4","25.35","-105.75","1967.0","TEPEHUANES DGO., MX","FM-12","99999","V020","999,9,C,0000,1","22000,1,9,N","000600,1,N,1","+0204,1","+0051,1","10160,1",,,,,"00,1,+99999,9,99,9",,"00,99,1,00,1,00,1,99999,9,00,1,00,1",,"01,9",,,,"99999,9,08213,1","2,1,017,1,+999,9",,"SYN082AAXX  26031 76373 32906 00000 10204 20051 38213 40160 52017 90250 333 30/// 58///;",
"76373099999","2011-10-26T12:00:00","4","25.35","-105.75","1967.0","TEPEHUANES DGO., MX","FM-12","99999","V020","999,9,C,0000,1","22000,1,9,N","000600,1,N,1","+0085,1","+0038,1","10161,1",,,,,"00,1,+99999,9,99,9",,"00,99,1,00,1,00,1,99999,9,00,1,00,1","0540,9","01,9",,"120,N,+0072,1","240,M,+0320,1","99999,9,08214,1","9,9,999,9,-030,1",,"SYN112AAXX  26121 76373 32906 00000 10085 20038 38214 40161 5//// 91150 333 10320 20072 30060 55090 2//// 59030 70000;",
"76373099999","2011-10-26T15:00:00","4","25.35","-105.75","1967.0","TEPEHUANES DGO., MX","FM-12","99999","V020","999,9,C,0000,1","22000,1,9,N","020000,1,N,1","+0125,1","+0085,1","10172,1",,,,,"01,1,+01800,1,03,1",,"01,99,1,99,9,00,1,01750,1,07,1,00,1",,"01,9",,,,"99999,9,08223,1","2,1,009,1,-031,1",,"SYN100AAXX  26151 76373 32770 10000 10125 20085 38223 40172 52009 80070 91450 333 30/// 56090 59031 81356;","Q01+000002SCOTLC"
"76373099999","2011-10-26T18:00:00","4","25.35","-105.75","1967.0","TEPEHUANES DGO., MX","FM-12","99999","V020","999,9,C,0000,1","22000,1,9,N","020000,1,N,1","+0263,1","+0046,1","10155,1",,,,,"01,1,+00750,1,08,1",,"01,99,1,01,1,02,1,01250,1,00,1,00,1",,"01,9",,"120,M,+0268,1","240,N,+0072,1","99999,9,08209,1","7,1,014,1,-029,1",,"SYN112AAXX  26181 76373 32670 10000 10263 20046 38209 40155 57014 81200 91750 333 10268 20072 30/// 56900 59029 81825;",
"76373099999","2011-10-26T21:00:00","4","25.35","-105.75","1967.0","TEPEHUANES DGO., MX","FM-12","99999","V020","140,1,N,0010,1","22000,1,9,N","020000,1,N,1","+0296,2","-0007,1","10116,1",,,,,"03,1,+00750,1,08,1",,"03,99,1,03,1,02,1,01250,1,00,1,00,1",,"01,9",,,,"99999,9,08177,1","7,1,032,1,-029,1",,"SYN100AAXX  26211 76373 32670 31401 10296 21007 38177 40116 57032 83200 92045 333 30/// 56900 59029 83825;",
"76373099999","2011-10-27T00:00:00","4","25.35","-105.75","1967.0","TEPEHUANES DGO., MX","FM-12","99999","V020","240,1,N,0020,1","22000,1,9,N","020000,1,N,1","+0257,1","+0007,1","10109,1","24,0000,9,1",,,,,,"02,99,1,01,1,02,1,01250,1,00,1,04,1",,"01,9",,"120,M,+0316,1","180,N,+0072,1","99999,9,08172,1","5,1,005,1,-024,1",,"SYN124AAXX  27001 76373 32670 22402 10257 20007 38172 40109 55005 81204 92350 333 10316 20072 30/// 50511 56909 59024 70000 81825;",
"76373099999","2011-10-27T03:00:00","4","25.35","-105.75","1967.0","TEPEHUANES DGO., MX","FM-12","99999","V020","999,9,C,0000,1","22000,1,9,N","000600,1,N,1","+0190,1","+0086,1","10130,1",,,,,"01,1,+05100,1,00,1",,"01,99,1,00,1,00,1,99999,9,00,1,04,1",,"01,9",,,,"99999,9,08189,1","2,1,017,1,-024,1",,"SYN100AAXX  27031 76373 32906 10000 10190 20086 38189 40130 52017 80004 90250 333 30/// 56009 59024 81067;",
"76373099999","2011-10-27T12:00:00","4","25.35","-105.75","1967.0","TEPEHUANES DGO., MX","FM-12","99999","V020","999,9,C,0000,1","22000,1,9,N","000600,1,N,1","+0078,1","+0059,1","10124,1",,,,,"00,1,+99999,9,99,9",,"00,99,1,00,1,00,1,99999,9,00,1,00,1","0612,9","01,9","999,+0050,9","120,N,+0065,1","240,M,+0316,1","99999,9,08184,1","9,9,999,9,-030,1",,"SYN112AAXX  27121 76373 32906 00000 10078 20059 38184 40124 5//// 91150 333 10316 20065 30050 55102 2//// 59030 70000;",
"76373099999","2011-10-27T15:00:00","4","25.35","-105.75","1967.0","TEPEHUANES DGO., MX","FM-12","99999","V020","290,1,N,0010,1","22000,1,9,N","020000,1,N,1","+0112,1","+0063,1","10139,1",,,,,"00,1,+99999,9,99,9",,"00,99,1,00,1,00,1,99999,9,00,1,00,1",,"01,9",,,,"99999,9,08196,1","2,1,012,1,-027,1",,"SYN082AAXX  27151 76373 32970 02901 10112 20063 38196 40139 52012 91450 333 30/// 59027;",
"76373099999","2011-10-27T18:00:00","4","25.35","-105.75","1967.0","TEPEHUANES DGO., MX","FM-12","99999","V020","290,1,N,0010,1","22000,1,9,N","030000,1,N,1","+0246,1","+0041,1","10119,1",,,,,"00,1,+99999,9,99,9",,"00,99,1,00,1,00,1,99999,9,00,1,00,1",,"01,9",,"120,M,+0256,1","240,N,+0065,1","99999,9,08179,1","7,1,017,1,-030,1",,"SYN094AAXX  27181 76373 32980 02901 10246 20041 38179 40119 57017 91750 333 10256 20065 30/// 59030;",
"76373099999","2011-10-27T21:00:00","4","25.35","-105.75","1967.0","TEPEHUANES DGO., MX","FM-12","99999","V020","250,1,N,0020,1","22000,1,9,N","030000,1,N,1","+0278,1","+0014,1","10092,1",,,,,"01,1,+00750,1,08,1",,"01,99,1,01,1,01,1,00800,1,00,1,00,1",,"01,9",,,,"99999,9,08158,1","7,1,021,1,-019,1",,"SYN100AAXX  27211 76373 32580 12502 10278 20014 38158 40092 57021 81100 92050 333 30/// 56900 59019 81825;",
"76373099999","2011-10-28T00:00:00","4","25.35","-105.75","1967.0","TEPEHUANES DGO., MX","FM-12","99999","V020","200,1,N,0020,1","22000,1,9,N","030000,1,N,1","+0246,1","+0025,1","10100,1","24,0000,9,1",,,,"00,1,+99999,9,99,9",,"00,99,1,00,1,00,1,99999,9,00,1,00,1",,"01,9",,"120,M,+0298,1","180,N,+0065,1","99999,9,08165,1","2,1,007,1,-006,1",,"SYN106AAXX  28001 76373 32980 02002 10246 20025 38165 40100 52007 92355 333 10298 20065 30/// 50731 59006 70000;","Q01  00002PRCP24"
"76373099999","2011-10-28T03:00:00","4","25.35","-105.75","1967.0","TEPEHUANES DGO., MX","FM-12","99999","V020","250,1,N,0010,1","22000,1,9,N","001000,1,N,1","+0186,1","+0062,1","10132,1",,,,,"00,1,+99999,9,99,9",,"00,99,1,00,1,00,1,99999,9,00,1,00,1",,"01,9",,,,"99999,9,08190,1","2,1,025,1,+002,1",,"SYN082AAXX  28031 76373 32910 02501 10186 20062 38190 40132 52025 90255 333 30/// 58002;",
"76373099999","2011-10-28T12:00:00","4","25.35","-105.75","1967.0","TEPEHUANES DGO., MX","FM-12","99999","V020","999,9,C,0000,1","22000,1,9,N","001000,1,N,1","+0062,1","+0034,1","10154,1","24,0000,9,1",,,,"00,1,+99999,9,99,9",,"00,99,1,00,1,00,1,99999,9,00,1,00,1","0606,9","01,9","999,+0026,9","120,N,+0048,1","240,M,+0298,1","99999,9,08208,1","9,9,999,9,+024,1",,"SYN106AAXX  28121 76373 32910 00000 10062 20034 38208 40154 5//// 91150 333 10298 20048 30026 55101 58024 70000;","Q01  00002PRCP24"
"76373099999","2011-10-28T15:00:00","4","25.35","-105.75","1967.0","TEPEHUANES DGO., MX","FM-12","99999","V020","999,9,C,0000,1","22000,1,9,N","020000,1,N,1","+0110,1","+0047,1","10180,1",,,,,"00,1,+99999,9,99,9",,"00,99,1,00,1,00,1,99999,9,00,1,00,1",,"01,9",,,,"99999,9,08229,1","2,1,021,1,+033,1",,"SYN082AAXX  28151 76373 32970 00000 10110 20047 38229 40180 52021 91450 333 30/// 58033;",
"76373099999","2011-10-28T18:00:00","4","25.35","-105.75","1967.0","TEPEHUANES DGO., MX","FM-12","99999","V020","110,1,N,0010,1","22000,1,9,N","030000,1,N,1","+0239,1","+0053,1","10180,1",,,,,"00,1,+99999,9,99,9",,"00,99,1,00,1,00,1,99999,9,00,1,00,1",,"01,9",,"120,M,+0240,1","240,N,+0048,1","99999,9,08229,1","4,1,000,1,+050,1",,"SYN094AAXX  28181 76373 32980 01101 10239 20053 38229 40180 54000 91755 333 10240 20048 30/// 58050;",
"76373099999","2011-10-28T21:00:00","4","25.35","-105.75","1967.0","TEPEHUANES DGO., MX","FM-12","99999","V020","110,1,N,0020,1","22000,1,9,N","030000,1,N,1","+0268,1","+0031,1","10141,1",,,,,"00,1,+99999,9,99,9",,"00,99,1,00,1,00,1,99999,9,00,1,00,1",,"01,9",,,,"99999,9,08198,1","7,1,031,1,+040,1",,"SYN082AAXX  28211 76373 32980 01102 10268 20031 38198 40141 57031 92055 333 30/// 58040;",
"76373099999","2011-10-29T00:00:00","4","25.35","-105.75","1967.0","TEPEHUANES DGO., MX","FM-12","99999","V020","110,1,N,0020,1","22000,1,9,N","030000,1,N,1","+0230,1","-0004,1","10145,1","24,0000,9,1",,,,"00,1,+99999,9,99,9",,"00,99,1,00,1,00,1,99999,9,00,1,00,1",,"01,9",,"120,M,+0280,1","180,N,+0048,1","99999,9,08201,1","1,1,003,1,+036,1",,"SYN106AAXX  29001 76373 32980 01102 10230 21004 38201 40145 51003 92355 333 10280 20048 30/// 50551 58036 70000;","Q01  00002PRCP24"
"76373099999","2011-10-29T03:00:00","4","25.35","-105.75","1967.0","TEPEHUANES DGO., MX","FM-12","99999","V020","999,9,C,0000,1","22000,1,9,N","001000,1,N,1","+0158,1","+0023,1","10165,1",,,,,"00,1,+99999,9,99,9",,"00,99,1,00,1,00,1,99999,9,00,1,00,1",,"01,9",,,,"99999,9,08217,1","2,1,016,1,+027,1",,"SYN082AAXX  29031 76373 32910 00000 10158 20023 38217 40165 52016 90255 333 30/// 58027;",
"76373099999","2011-10-29T12:00:00","4","25.35","-105.75","1967.0","TEPEHUANES DGO., MX","FM-12","99999","V020","999,9,C,0000,1","22000,1,9,N","001000,1,N,1","+0050,1","+0013,1","10192,1","24,0000,9,1",,,,"00,1,+99999,9,99,9",,"00,99,1,00,1,00,1,99999,9,00,1,00,1","0606,9","01,9","999,+0020,9","120,N,+0032,1","240,M,+0280,1","99999,9,08239,1","9,9,999,9,+031,1",,"SYN106AAXX  29121 76373 32910 00000 10050 20013 38239 40192 5//// 91155 333 10280 20032 30020 55101 58031 70000;","Q01  00002PRCP24"
"76373099999","2011-10-29T15:00:00","4","25.35","-105.75","1967.0","TEPEHUANES DGO., MX","FM-12","99999","V020","999,9,C,0000,1","22000,1,9,N","010000,1,N,1","+0102,1","+0031,1","10208,1",,,,,"00,1,+99999,9,99,9",,"00,99,1,00,1,00,1,99999,9,00,1,00,1",,"01,9",,,,"99999,9,08251,1","2,1,012,1,+022,1",,"SYN082AAXX  29151 76373 32960 00000 10102 20031 38251 40208 52012 91455 333 30/// 58022;",
"76373099999","2011-10-29T18:00:00","4","25.35","-105.75","1967.0","TEPEHUANES DGO., MX","FM-12","99999","V020","110,1,N,0020,1","22000,1,9,N","030000,1,N,1","+0230,1","+0046,1","10183,1",,,,,"00,1,+99999,9,99,9",,"00,99,1,00,1,00,1,99999,9,00,1,00,1",,"01,9",,"120,M,+0240,1","240,N,+0032,1","99999,9,08231,1","7,1,020,1,+002,1",,"SYN094AAXX  29181 76373 32980 01102 10230 20046 38231 40183 57020 91755 333 10240 20032 30/// 58002;",
"76373099999","2011-10-30T00:00:00","4","25.35","-105.75","1967.0","TEPEHUANES DGO., MX","FM-12","99999","V020","160,1,N,0010,1","22000,1,9,N","020000,1,N,1","+0248,1","-0010,1","10132,1","24,0000,9,1",,,,"00,1,+99999,9,99,9",,"00,99,1,00,1,00,1,99999,9,00,1,00,1",,"01,9",,"120,M,+0300,1","180,N,+0032,1","99999,9,08190,1","7,1,018,1,-011,1",,"SYN106AAXX  30001 76373 32970 01601 10248 21010 38190 40132 57018 92350 333 10300 20032 30/// 50461 59011 70000;","Q01  00002PRCP24"
"76373099999","2011-10-30T15:00:00","4","25.35","-105.75","1967.0","TEPEHUANES DGO., MX","FM-12","99999","V020","999,9,C,0000,1","22000,1,9,N","020000,1,N,1","+0096,1","+0027,1","10189,1",,,,,"00,1,+99999,9,99,9",,"00,99,1,00,1,00,1,99999,9,00,1,00,1",,"01,9",,,,"99999,9,08237,1","9,9,999,9,-014,1",,"SYN082AAXX  30151 76373 32970 00000 10096 20027 38237 40189 5//// 91450 333 30/// 59014;",
"76373099999","2011-10-30T18:00:00","4","25.35","-105.75","1967.0","TEPEHUANES DGO., MX","FM-12","99999","V020","999,9,C,0000,1","22000,1,9,N","020000,1,N,1","+0235,1","-0005,1","10172,1",,,,,"00,1,+99999,9,99,9",,"00,99,1,00,1,00,1,99999,9,00,1,00,1",,"01,9",,"120,M,+0240,1","240,N,+0025,1","99999,9,08222,1","7,1,015,1,-009,1",,"SYN094AAXX  30181 76373 32970 00000 10235 21005 38222 40172 57015 91750 333 10240 20025 30/// 59009;",
"76373099999","2011-10-30T21:00:00","4","25.35","-105.75","1967.0","TEPEHUANES DGO., MX","FM-12","99999","V020","999,9,C,0000,1","22000,1,9,N","020000,1,N,1","+0289,2","-0045,1","10139,1",,,,,"00,1,+99999,9,99,9",,"00,99,1,00,1,00,1,99999,9,00,1,00,1",,"01,9",,,,"99999,9,08196,1","7,1,026,1,+999,9",,"SYN082AAXX  30211 76373 32970 00000 10289 21045 38196 40139 57026 92050 333 30/// 58///;",
"76373099999","2011-10-31T00:00:00","4","25.35","-105.75","1967.0","TEPEHUANES DGO., MX","FM-12","99999","V020","999,9,C,0000,1","22000,1,9,N","020000,1,N,1","+0260,1","-0030,1","10138,1","24,0000,9,1",,,,"00,1,+99999,9,99,9",,"00,99,1,00,1,00,1,99999,9,00,1,00,1",,"01,9",,"120,M,+0300,1","180,N,+0025,1","99999,9,08195,1","5,1,001,1,+005,1",,"SYN106AAXX  31001 76373 32970 00000 10260 21030 38195 40138 55001 92340 333 10300 20025 30/// 50501 58005 70000;","Q01  00002PRCP24"
"76373099999","2011-10-31T12:00:00","4","25.35","-105.75","1967.0","TEPEHUANES DGO., MX","FM-12","99999","V020","999,9,C,0000,1","22000,1,9,N","005000,1,N,1","+0051,1","+0001,1","10190,1","24,0000,9,1",,,,"00,1,+99999,9,99,9",,"00,99,1,00,1,00,1,99999,9,00,1,00,1","0624,9","01,9","999,+0020,9","120,N,+0036,1","240,M,+0300,1","99999,9,08237,1",,,"SYN106AAXX  31121 76373 32950 00000 10051 20001 38237 40190 5//// 91150 333 10300 20036 30020 55104 58/// 70000;","Q01  00002PRCP24"
"76373099999","2011-10-31T15:00:00","4","25.35","-105.75","1967.0","TEPEHUANES DGO., MX","FM-12","99999","V020","999,9,C,0000,1","22000,1,9,N","020000,1,N,1","+0110,1","+0021,1","10205,1",,,,,"00,1,+99999,9,99,9",,"00,99,1,00,1,00,1,99999,9,00,1,00,1",,"01,9",,,,"99999,9,08249,1","2,1,012,1,+012,1",,"SYN082AAXX  31151 76373 32970 00000 10110 20021 38249 40205 52012 91450 333 30/// 58012;",
"76373099999","2011-10-31T18:00:00","4","25.35","-105.75","1967.0","TEPEHUANES DGO., MX","FM-12","99999","V020","110,1,N,0020,1","22000,1,9,N","020000,1,N,1","+0234,1","+0015,1","10191,1",,,,,"00,1,+99999,9,99,9",,"00,99,1,00,1,00,1,99999,9,00,1,00,1",,"01,9",,"120,M,+0301,1","240,N,+0036,1","99999,9,08228,1","7,1,011,1,+016,1",,"SYN094AAXX  31181 76373 32970 01102 10234 20015 38228 40191 57011 91750 333 10301 20036 30/// 58016;",
"76373099999","2011-10-31T21:00:00","4","25.35","-105.75","1967.0","TEPEHUANES DGO., MX","FM-12","99999","V020","060,1,N,0010,1","22000,1,9,N","020000,1,N,1","+0273,1","+0010,1","10144,1",,,,,"00,1,+99999,9,99,9",,"00,99,1,00,1,00,1,99999,9,00,1,00,1",,"01,9",,,,"99999,9,08200,1","7,1,038,1,+004,1",,"SYN082AAXX  31211 76373 32970 00601 10273 20010 38200 40144 57038 92050 333 30/// 58004;",
"76373099999","2011-11-01T00:00:00","4","25.35","-105.75","1967.0","TEPEHUANES DGO., MX","FM-12","99999","V020","110,1,N,0010,1","22000,1,9,N","020000,1,N,1","+0254,1","+0012,1","10132,1","24,0000,9,1",,,,"00,1,+99999,9,99,9",,"00,99,1,00,1,00,1,99999,9,00,1,00,1",,"01,9",,"120,M,+0300,1","180,N,+0036,1","99999,9,08190,1","7,1,010,1,-005,1",,"SYN106AAXX  01001 76373 32970 01101 10254 20012 38190 40132 57010 92350 333 10300 20036 30/// 50531 59005 70000;","Q01  00002PRCP24"
"76373099999","2011-11-01T12:00:00","4","25.35","-105.75","1967.0","TEPEHUANES DGO., MX","FM-12","99999","V020","999,9,C,0000,1","22000,1,9,N","000600,1,N,1","+0060,1","+0017,1","10168,1",,,,,"00,1,+99999,9,99,9",,"00,99,1,00,1,00,1,99999,9,00,1,00,1","0600,9","01,9","999,+0036,9","120,N,+0048,1","240,M,+0300,1","99999,9,08214,1","9,9,999,9,-018,1",,"SYN112AAXX  01121 76373 32906 00000 10060 20017 38214 40168 5//// 91150 333 10300 20048 30036 55100 2//// 59018 70000;",
"76373099999","2011-11-01T15:00:00","4","25.35","-105.75","1967.0","TEPEHUANES DGO., MX","FM-12","99999","V020","999,9,C,0000,1","22000,1,9,N","020000,1,N,1","+0113,1","+0035,1","10183,1",,,,,"00,1,+99999,9,99,9",,"00,99,1,00,1,00,1,99999,9,00,1,00,1",,"01,9",,,,"99999,9,08231,1","2,1,012,1,-018,1",,"SYN082AAXX  01151 76373 32970 00000 10113 20035 38231 40183 52012 91450 333 30/// 59018;",
"76373099999","2011-11-01T18:00:00","4","25.35","-105.75","1967.0","TEPEHUANES DGO., MX","FM-12","99999","V020","070,1,N,0010,1","22000,1,9,N","020000,1,N,1","+0256,1","+0048,1","10163,1",,,,,"00,1,+99999,9,99,9",,"00,99,1,00,1,00,1,99999,9,00,1,00,1",,"01,9",,"120,M,+0274,1","240,N,+0048,1","99999,9,08216,1","7,1,015,1,-022,1",,"SYN094AAXX  01181 76373 32970 00701 10256 20048 38216 40163 57015 91750 333 10274 20048 30/// 59022;",
"76373099999","2011-11-01T21:00:00","4","25.35","-105.75","1967.0","TEPEHUANES DGO., MX","FM-12","99999","V020","120,1,N,0010,1","22000,1,9,N","020000,1,N,1","+0296,2","+0028,1","10124,1",,,,,"01,1,+00810,1,08,1",,"01,99,1,01,1,02,1,01250,1,00,1,00,1",,"01,9",,,,"99999,9,08184,1","7,1,032,1,-016,1",,"SYN100AAXX  01211 76373 32670 11201 10296 20028 38184 40124 57032 81200 92045 333 30/// 56900 59016 81827;",
"76373099999","2011-11-02T00:00:00","4","25.35","-105.75","1967.0","TEPEHUANES DGO., MX","FM-12","99999","V020","260,1,N,0020,1","22000,1,9,N","020000,1,N,1","+0259,1","+0046,1","10124,1","24,0000,9,1",,,,,,"02,99,1,02,1,04,1,01250,1,00,1,00,1",,"01,9",,"120,M,+0326,1","180,N,+0048,1","99999,9,08184,1","5,1,000,1,-006,1",,"SYN124AAXX  02001 76373 32670 22602 10259 20046 38184 40124 55000 82400 92350 333 10326 20048 30/// 50511 56900 59006 70000 81625;",
"76373099999","2011-11-02T03:00:00","4","25.35","-105.75","1967.0","TEPEHUANES DGO., MX","FM-12","99999","V020","999,9,C,0000,1","22000,1,9,N","000600,1,N,1","+0190,1","+0064,1","10149,1",,,,,"01,1,+00810,1,08,1",,"01,99,1,01,1,02,1,01250,1,00,1,00,1",,"01,9",,,,"99999,9,08204,1","2,1,020,1,+999,9",,"SYN100AAXX  02031 76373 32606 10000 10190 20064 38204 40149 52020 81200 90250 333 30/// 56900 58/// 81827;",
"76373099999","2011-11-02T15:00:00","4","25.35","-105.75","1967.0","TEPEHUANES DGO., MX","FM-12","99999","V020","999,9,C,0000,1","22000,1,9,N","020000,1,N,1","+0112,1","+0059,1","10186,1","00,1450,9,1",,,,"00,1,+99999,9,99,9",,"00,99,1,00,1,00,1,99999,9,00,1,00,1",,"01,9",,,,"99999,9,08234,1","2,1,015,1,+003,1",,"SYN082AAXX  02151 76373 32970 00000 10112 20059 38234 40186 52015 61450 333 30/// 58003;",
"76373099999","2011-11-02T21:00:00","4","25.35","-105.75","1967.0","TEPEHUANES DGO., MX","FM-12","99999","V020","220,1,N,0020,1","22000,1,9,N","020000,1,N,1","+0286,2","+0005,1","10140,1",,,,,"01,1,+00810,1,08,1",,"01,99,1,01,1,01,1,01250,1,00,1,00,1",,"01,9",,,,"99999,9,08197,1","7,1,025,1,+013,1",,"SYN100AAXX  02211 76373 32670 12202 10286 20005 38197 40140 57025 81100 92050 333 30/// 56900 58013 81827;",
"76373099999","2011-11-03T00:00:00","4","25.35","-105.75","1967.0","TEPEHUANES DGO., MX","FM-12","99999","V020","220,1,N,0010,1","22000,1,9,N","020000,1,N,1","+0254,1","+0009,1","10143,1","24,0000,9,1",,,,,,"01,99,1,01,1,01,1,01250,1,00,1,00,1",,"01,9",,"120,M,+0298,1","180,N,+0068,1","99999,9,08199,1","3,1,002,1,+015,1",,"SYN124AAXX  03001 76373 32670 12201 10254 20009 38199 40143 53002 81100 92350 333 10298 20068 30/// 50451 56900 58015 70000 81827;",
"76373099999","2011-11-03T03:00:00","4","25.35","-105.75","1967.0","TEPEHUANES DGO., MX","FM-12","99999","V020","999,9,C,0000,1","22000,1,9,N","000600,1,N,1","+0179,1","+0051,1","10175,1",,,,,"01,1,+00810,1,08,1",,"01,99,1,01,1,02,1,01250,1,00,1,00,1",,"01,9",,,,"99999,9,08225,1","2,1,026,1,+021,1",,"SYN100AAXX  03031 76373 32606 10000 10179 20051 38225 40175 52026 81200 90250 333 30/// 56900 58021 81827;",
"76373099999","2011-11-03T18:00:00","4","25.35","-105.75","1967.0","TEPEHUANES DGO., MX","FM-12","99999","V020","110,1,N,0010,1","22000,1,9,N","030000,1,N,1","+0228,1","+0016,1","10203,1",,,,,"00,1,+99999,9,99,9",,"00,99,1,00,1,00,1,99999,9,00,1,00,1",,"01,9",,"120,M,+0241,1","240,N,+0036,1","99999,9,08247,1","7,1,010,1,+025,1",,"SYN094AAXX  03181 76373 32980 01101 10228 20016 38247 40203 57010 91755 333 10241 20036 30/// 58025;",
"76373099999","2011-11-03T21:00:00","4","25.35","-105.75","1967.0","TEPEHUANES DGO., MX","FM-12","99999","V020","110,1,N,0020,1","22000,1,9,N","020000,1,N,1","+0262,1","+0015,1","10158,1",,,,,"00,1,+99999,9,99,9",,"00,99,1,00,1,00,1,99999,9,00,1,00,1",,"01,9",,,,"99999,9,08211,1","7,1,036,1,+014,1",,"SYN082AAXX  03211 76373 32970 01102 10262 20015 38211 40158 57036 92050 333 30/// 58014;",
"76373099999","2011-11-04T00:00:00","4","25.35","-105.75","1967.0","TEPEHUANES DGO., MX","FM-12","99999","V020","110,1,N,0010,1","22000,1,9,N","030000,1,N,1","+0230,1","+0009,1","10145,1","24,0000,9,1",,,,,,"03,99,1,03,1,03,1,00800,1,00,1,00,1",,"01,9",,"120,M,+0272,1","180,N,+0036,1","99999,9,08201,1","7,1,010,1,+002,1",,"SYN124AAXX  04001 76373 32580 31101 10230 20009 38201 40145 57010 83300 92355 333 10272 20036 30/// 50681 56900 58002 70000 83825;",
"76373099999","2011-11-04T03:00:00","4","25.35","-105.75","1967.0","TEPEHUANES DGO., MX","FM-12","99999","V020","999,9,C,0000,1","22000,1,9,N","001000,1,N,1","+0180,1","+0024,1","10170,1",,,,,"04,1,+00750,1,08,1",,"04,99,1,04,1,04,1,00800,1,00,1,00,1",,"01,9",,,,"99999,9,08221,1","2,1,020,1,-004,1",,"SYN100AAXX  04031 76373 32510 40000 10180 20024 38221 40170 52020 84400 90255 333 30/// 56900 59004 84825;",
"76373099999","2011-11-04T15:00:00","4","25.35","-105.75","1967.0","TEPEHUANES DGO., MX","FM-12","99999","V020","999,9,C,0000,1","22000,1,9,N","010000,1,N,1","+0104,1","+0024,1","10180,1",,,,,"00,1,+99999,9,99,9",,"00,99,1,00,1,00,1,99999,9,00,1,00,1",,"01,9",,,,"99999,9,08229,1","2,1,006,1,+000,1",,"SYN082AAXX  04151 76373 32960 00000 10104 20024 38229 40180 52006 91455 333 30/// 58000;",
"76373099999","2011-11-04T18:00:00","4","25.35","-105.75","1967.0","TEPEHUANES DGO., MX","FM-12","99999","V020","160,1,N,0030,1","22000,1,9,N","030000,1,N,1","+0260,1","-0028,1","10163,1",,,,,"00,1,+99999,9,99,9",,"00,99,1,00,1,00,1,99999,9,00,1,00,1",,"01,9",,"120,M,+0268,1","240,N,+0052,1","99999,9,08216,1","7,1,013,1,-031,1",,"SYN094AAXX  04181 76373 32980 01603 10260 21028 38216 40163 57013 91755 333 10268 20052 30/// 59031;",
"76373099999","2011-11-04T21:00:00","4","25.35","-105.75","1967.0","TEPEHUANES DGO., MX","FM-12","99999","V020","160,1,N,0030,1","22000,1,9,N","030000,1,N,1","+0268,1","-0018,1","10132,1",,,,,"01,1,+00750,1,08,1",,"01,99,1,01,1,01,1,00800,1,00,1,00,1",,"01,9",,,,"99999,9,08190,1","7,1,026,1,-021,1",,"SYN100AAXX  04211 76373 32580 11603 10268 21018 38190 40132 57026 81100 92055 333 30/// 56900 59021 81825;",
"76373099999","2011-11-05T00:00:00","4","25.35","-105.75","1967.0","TEPEHUANES DGO., MX","FM-12","99999","V020","160,1,N,0020,1","22000,1,9,N","030000,1,N,1","+0212,1","-0024,1","10142,1","24,0000,9,1",,,,,,"03,99,1,00,1,00,1,99999,9,00,1,03,1",,"01,9",,"120,M,+0280,1","180,N,+0052,1","99999,9,08199,1","2,1,010,1,-002,1",,"SYN124AAXX  05001 76373 32980 31602 10212 21024 38199 40142 52010 80003 92355 333 10280 20052 30/// 50641 56009 59002 70000 83067;",
"76373099999","2011-11-05T03:00:00","4","25.35","-105.75","1967.0","TEPEHUANES DGO., MX","FM-12","99999","V020","999,9,C,0000,1","22000,1,9,N","001000,1,N,1","+0154,1","-0001,1","10162,1",,,,,"00,1,+99999,9,99,9",,"00,99,1,00,1,00,1,99999,9,00,1,00,1",,"01,9",,,,"99999,9,08214,1","2,1,015,1,-007,1",,"SYN082AAXX  05031 76373 32910 00000 10154 21001 38214 40162 52015 90255 333 30/// 59007;",
"76373099999","2011-11-05T15:00:00","4","25.35","-105.75","1967.0","TEPEHUANES DGO., MX","FM-12","99999","V020","999,9,C,0000,1","22000,1,9,N","030000,1,N,1","+0092,1","+0016,1","10152,1",,,,,"03,1,+00750,1,08,1",,"03,99,1,03,1,03,1,00800,1,00,1,00,1",,"01,9",,,,"99999,9,08207,1","2,1,006,1,-022,1",,"SYN100AAXX  05151 76373 32580 30000 10092 20016 38207 40152 52006 83300 91455 333 30/// 56900 59022 83825;",
"76373099999","2011-11-06T00:00:00","4","25.35","-105.75","1967.0","TEPEHUANES DGO., MX","FM-12","99999","V020","220,1,N,0010,1","22000,1,9,N","020000,1,N,1","+0197,1","-0013,1","10126,1","24,0000,9,1",,,,"00,1,+99999,9,99,9",,"00,99,1,00,1,00,1,99999,9,00,1,00,1",,"01,9",,"120,M,+0250,1","180,N,+0022,1","99999,9,08186,1","7,1,004,1,-013,1",,"SYN106AAXX  06001 76373 32970 02201 10197 21013 38186 40126 57004 92350 333 10250 20022 30/// 50581 59013 70000;","Q01  00002PRCP24"
"76373099999","2011-11-06T03:00:00","4","25.35","-105.75","1967.0","TEPEHUANES DGO., MX","FM-12","99999","V020","999,9,C,0000,1","22000,1,9,N","005000,1,N,1","+0146,1","-0004,1","10149,1",,,,,"00,1,+99999,9,99,9",,"00,99,1,00,1,00,1,99999,9,00,1,00,1",,"01,9",,,,"99999,9,08204,1","2,1,018,1,-010,1",,"SYN082AAXX  06031 76373 32950 00000 10146 21004 38204 40149 52018 90250 333 30/// 59010;",
"76373099999","2011-11-06T12:00:00","4","25.35","-105.75","1967.0","TEPEHUANES DGO., MX","FM-12","99999","V020","999,9,C,0000,1","22000,1,9,N","005000,1,N,1","+0018,1","-0019,1","10162,1",,,,,"00,1,+99999,9,99,9",,"00,99,1,00,1,00,1,99999,9,00,1,00,1","0600,9","09,9","999,-0010,9","120,N,+0003,1","240,M,+0250,1","99999,9,08214,1","9,9,999,9,+013,1",,"SYN112AAXX  06121 76373 32950 00000 10018 21019 38214 40162 5//// 91150 333 10250 20003 31010 55100 21917 58013 70000;",
"76373099999","2011-11-06T15:00:00","4","25.35","-105.75","1967.0","TEPEHUANES DGO., MX","FM-12","99999","V020","999,9,C,0000,1","22000,1,9,N","020000,1,N,1","+0078,1","+0004,1","10175,1",,,,,"00,1,+99999,9,99,9",,"00,99,1,00,1,00,1,99999,9,00,1,00,1",,"01,9",,,,"99999,9,08225,1","2,1,011,1,+018,1",,"SYN082AAXX  06151 76373 32970 00000 10078 20004 38225 40175 52011 91450 333 30/// 58018;",
"76373099999","2011-11-06T18:00:00","4","25.35","-105.75","1967.0","TEPEHUANES DGO., MX","FM-12","99999","V020","250,1,N,0010,1","22000,1,9,N","020000,1,N,1","+0217,1","-0009,1","10152,1",,,,,"00,1,+99999,9,99,9",,"00,99,1,00,1,00,1,99999,9,00,1,00,1",,"01,9",,"120,M,+0220,1","240,N,+0003,1","99999,9,08206,1","7,1,019,1,+010,1",,"SYN094AAXX  06181 76373 32570 02501 10217 21009 38206 40152 57019 91750 333 10220 20003 30/// 58010;",
"76373099999","2011-11-07T00:00:00","4","25.35","-105.75","1967.0","TEPEHUANES DGO., MX","FM-12","99999","V020","160,1,N,0010,1","22000,1,9,N","020000,1,N,1","+0201,1","-0033,1","10134,1","24,0000,9,1",,,,"00,1,+99999,9,99,9",,"00,99,1,00,1,00,1,99999,9,00,1,00,1",,"01,9",,"120,M,+0270,1","180,N,+0003,1","99999,9,08192,1","2,1,005,1,+026,1",,"SYN106AAXX  07001 76373 32970 01601 10201 21033 38192 40134 52005 92350 333 10270 20003 30/// 50511 58026 70000;","Q01  00002PRCP24"
"76373099999","2011-11-07T03:00:00","4","25.35","-105.75","1967.0","TEPEHUANES DGO., MX","FM-12","99999","V020","999,9,C,0000,1","22000,1,9,N","005000,1,N,1","+0129,1","+0000,1","10157,1",,,,,"00,1,+99999,9,99,9",,"00,99,1,00,1,00,1,99999,9,00,1,00,1",,"01,9",,,,"99999,9,08210,1","2,1,018,1,+006,1",,"SYN082AAXX  07031 76373 32950 00000 10129 20000 38210 40157 52018 90250 333 30/// 58006;",
"76373099999","2011-11-07T12:00:00","4","25.35","-105.75","1967.0","TEPEHUANES DGO., MX","FM-12","99999","V020","999,9,C,0000,1","22000,1,9,N","005000,1,N,1","+0031,1","-0016,1","10153,1",,,,,"00,1,+99999,9,99,9",,"00,99,1,00,1,00,1,99999,9,00,1,00,1",,"01,9","999,+0000,9","120,N,+0015,1","240,M,+0270,1","99999,9,08208,1","9,9,999,9,-006,1",,"SYN112AAXX  07121 76373 32950 00000 10031 21016 38208 40153 5//// 91150 333 10270 20015 30000 55935 21836 59006 70000;",
"76373099999","2011-11-07T18:00:00","4","25.35","-105.75","1967.0","TEPEHUANES DGO., MX","FM-12","99999","V020","260,1,N,0030,1","22000,1,9,N","020000,1,N,1","+0224,1","+0029,1","10146,1",,,,,"02,1,+00750,1,08,1",,"04,99,1,04,1,02,1,00800,1,05,1,00,1",,"01,9",,"120,M,+0230,1","240,N,+0015,1","99999,9,08201,1","7,1,011,1,-005,1",,"SYN112AAXX  07181 76373 32570 42603 10224 20029 38201 40146 57011 84250 91750 333 10230 20015 30/// 56990 59005 82825;",
"76373099999","2011-11-07T21:00:00","4","25.35","-105.75","1967.0","TEPEHUANES DGO., MX","FM-12","99999","V020","200,1,N,0030,1","22000,1,9,N","020000,1,N,1","+0282,1","+0021,1","10126,1",,,,,"02,1,+00750,1,08,1",,"04,99,1,02,1,02,1,00800,1,05,1,00,1",,"01,9",,,,,"7,1,015,1,+002,1",,"SYN100AAXX  07211 76373 32570 42003 10282 20021 38126 40126 57015 82250 92050 333 30/// 56990 58002 82825;","Q01+081263APOSP "
"76373099999","2011-11-08T00:00:00","4","25.35","-105.75","1967.0","TEPEHUANES DGO., MX","FM-12","99999","V020","220,1,N,0020,1","22000,1,9,N","020000,1,N,1","+0188,1","+0028,1","10132,1","24,0000,9,1",,,,,,"01,99,1,99,9,02,1,00800,1,00,1,00,1",,"01,9",,"120,M,+0240,1","180,N,+0015,1","99999,9,08190,1","2,1,024,1,-002,1",,"SYN124AAXX  08001 76373 32570 12202 10188 20028 38190 40132 52024 82200 92350 333 10240 20015 30/// 50401 56900 59002 70000 82825;","Q01+000022SCOTLC"
"76373099999","2011-11-08T03:00:00","4","25.35","-105.75","1967.0","TEPEHUANES DGO., MX","FM-12","99999","V020","999,9,C,0000,1","22000,1,9,N","010000,1,N,1","+0150,1","+0033,1","10140,1",,,,,"01,1,+00750,1,05,1",,"01,99,1,01,1,05,1,00800,1,00,1,00,1",,"01,9",,,,"99999,9,08197,1","2,1,007,1,-013,1",,"SYN100AAXX  08031 76373 32560 10000 10150 20033 38197 40140 52007 81500 90250 333 30/// 56900 59013 81525;",
"76373099999","2011-11-08T12:00:00","4","25.35","-105.75","1967.0","TEPEHUANES DGO., MX","FM-12","99999","V020","999,9,C,0000,1","22000,1,9,N","005000,1,N,1","+0038,1","+0007,1","10140,1",,,,,"00,1,+99999,9,99,9",,"00,99,1,00,1,00,1,99999,9,00,1,00,1","0486,9","01,9","999,+0005,9","120,N,+0020,1","240,M,+0240,1","99999,9,08197,1","9,9,999,9,-011,1",,"SYN112AAXX  08121 76373 32950 00000 10038 20007 38197 40140 5//// 91150 333 10240 20020 30005 55081 21369 59011 70000;",
"76373099999","2011-11-08T15:00:00","4","25.35","-105.75","1967.0","TEPEHUANES DGO., MX","FM-12","99999","V020","999,9,C,0000,1","22000,1,9,N","020000,1,N,1","+0095,1","+0026,1","10152,1",,,,,"00,1,+99999,9,99,9",,"00,99,1,00,1,00,1,99999,9,00,1,00,1",,"01,9",,,,"99999,9,08206,1","2,1,009,1,-006,1",,"SYN082AAXX  08151 76373 32970 00000 10095 20026 38206 40152 52009 91450 333 30/// 59006;",
"76373099999","2011-11-08T21:00:00","4","25.35","-105.75","1967.0","TEPEHUANES DGO., MX","FM-12","99999","V020","999,9,C,0000,1","22000,1,9,N","020000,1,N,1","+0251,1","+0012,1","10146,1",,,,,"00,1,+99999,9,99,9",,"00,99,1,00,1,00,1,99999,9,00,1,00,1",,"01,9",,,,"99999,9,08201,1","7,1,008,1,+002,1",,"SYN082AAXX  08211 76373 32970 00000 10251 20012 38201 40146 57008 92050 333 30/// 58002;",
"76373099999","2011-11-09T00:00:00","4","25.35","-105.75","1967.0","TEPEHUANES DGO., MX","FM-12","99999","V020","220,1,N,0010,1","22000,1,9,N","020000,1,N,1","+0202,1","+0015,1","10135,1","24,0000,9,1",,,,"00,1,+99999,9,99,9",,"00,99,1,00,1,00,1,99999,9,00,1,00,1",,"01,9",,"120,M,+0260,1","180,N,+0020,1","99999,9,08193,1","7,1,008,1,+003,1",,"SYN106AAXX  09001 76373 32970 02201 10202 20015 38193 40135 57008 92350 333 10260 20020 30/// 50401 58003 70000;","Q01  00002PRCP24"
"76373099999","2011-11-09T03:00:00","4","25.35","-105.75","1967.0","TEPEHUANES DGO., MX","FM-12","99999","V020","999,9,C,0000,1","22000,1,9,N","005000,1,N,1","+0136,1","+0022,1","10104,1",,,,,"00,1,+99999,9,99,9",,"00,99,1,00,1,00,1,99999,9,00,1,00,1",,"01,9",,,,"99999,9,08216,1","2,1,023,1,-009,1",,"SYN082AAXX  09031 76373 32950 00000 10136 20022 38216 40104 52023 90250 333 30/// 59009;",
"76373099999","2011-11-09T12:00:00","4","25.35","-105.75","1967.0","TEPEHUANES DGO., MX","FM-12","99999","V020","999,9,C,0000,1","22000,1,9,N","005000,1,N,1","+0014,1","-0006,1","10170,1",,,,,"00,1,+99999,9,99,9",,"00,99,1,00,1,00,1,99999,9,00,1,00,1","0594,9","09,9","999,-0015,9","120,N,+0000,1","240,M,+0260,1","99999,9,08221,1","9,9,999,9,+024,1",,"SYN112AAXX  09121 76373 32950 00000 10014 21006 38221 40170 5//// 91150 333 10260 20000 31015 55099 21812 58024 70000;",
"76373099999","2011-11-09T15:00:00","4","25.35","-105.75","1967.0","TEPEHUANES DGO., MX","FM-12","99999","V020","999,9,C,0000,1","22000,1,9,N","020000,1,N,1","+0064,1","+0006,1","10190,1",,,,,"04,1,+05100,1,02,1",,"04,99,1,00,1,00,1,99999,9,00,1,08,1",,"01,9",,,,"99999,9,08237,1","2,1,016,1,+031,1",,"SYN100AAXX  09151 76373 32970 40000 10064 20006 38237 40190 52016 80008 91450 333 30/// 56900 58031 84267;",
"76373099999","2011-11-09T18:00:00","4","25.35","-105.75","1967.0","TEPEHUANES DGO., MX","FM-12","99999","V020","999,9,C,0000,1","01800,1,9,N","020000,1,N,1","+0173,1","+0010,1","10182,1",,,,,"06,1,+01800,1,04,1",,"06,99,1,06,1,00,1,01750,1,02,1,00,1",,"01,9",,"120,M,+0180,1","240,N,+0000,1","99999,9,08230,1","7,1,007,1,+026,1",,"SYN112AAXX  09181 76373 32770 60000 10173 20010 38230 40182 57007 86020 91750 333 10180 20000 30/// 56090 58026 86456;",
"76373099999","2011-11-09T21:00:00","4","25.35","-105.75","1967.0","TEPEHUANES DGO., MX","FM-12","99999","V020","120,1,N,0010,1","22000,1,9,N","020000,1,N,1","+0207,1","-0018,1","10137,1",,,,,"06,1,+01800,1,04,1",,"99,99,9,04,1,00,1,01750,1,02,1,00,1",,"01,9",,,,"99999,9,08194,1","7,1,036,1,-007,1",,"SYN100AAXX  09211 76373 32770 41201 10207 21018 38194 40137 57036 84020 92050 333 30/// 56090 59007 86456;","Q01+000042SCOTCV"
"76373099999","2011-11-10T00:00:00","4","25.35","-105.75","1967.0","TEPEHUANES DGO., MX","FM-12","99999","V020","110,1,N,0010,1","22000,1,9,N","020000,1,N,1","+0171,1","-0024,1","10139,1","24,0000,9,1",,,,,,"02,99,1,02,1,00,1,01750,1,02,1,00,1",,"01,9",,"120,M,+0225,1","180,N,+0000,1","99999,9,08196,1","2,1,002,1,+003,1",,"SYN124AAXX  10001 76373 32770 21101 10171 21024 38196 40139 52002 82020 92350 333 10225 20000 30/// 50341 56090 58003 70000 82456;",
"76373099999","2011-11-10T03:00:00","4","25.35","-105.75","1967.0","TEPEHUANES DGO., MX","FM-12","99999","V020","999,9,C,0000,1","22000,1,9,N","005000,1,N,1","+0124,1","-0028,1","10177,1",,,,,"00,1,+99999,9,99,9",,"00,99,1,00,1,00,1,99999,9,00,1,00,1",,"01,9",,,,"99999,9,08226,1","2,1,030,1,+010,1",,"SYN082AAXX  10031 76373 32950 00000 10124 21028 38226 40177 52030 90250 333 30/// 58010;",
"76373099999","2011-11-10T15:00:00","4","25.35","-105.75","1967.0","TEPEHUANES DGO., MX","FM-12","99999","V020","999,9,C,0000,1","22000,1,9,N","020000,1,N,1","+0045,1","-0032,1","10242,1",,,,,"00,1,+99999,9,99,9",,"00,99,1,00,1,00,1,99999,9,00,1,00,1",,"01,9",,,,"99999,9,08279,1","2,1,013,1,+042,1",,"SYN082AAXX  10151 76373 32970 00000 10045 21032 38279 40242 52013 91450 333 30/// 58042;",
"76373099999","2011-11-10T18:00:00","4","25.35","-105.75","1967.0","TEPEHUANES DGO., MX","FM-12","99999","V020","110,1,N,0020,1","22000,1,9,N","030000,1,N,1","+0144,1","-0032,1","10236,1",,,,,"00,1,+99999,9,99,9",,"00,99,1,00,1,00,1,99999,9,00,1,00,1",,"01,9",,"120,M,+0150,1","240,N,-0015,1","99999,9,08274,1","1,1,005,1,+044,1",,"SYN094AAXX  10181 76373 32980 01102 10144 21032 38274 40236 51005 91750 333 10150 21015 30/// 58044;",
"76373099999","2011-11-10T21:00:00","4","25.35","-105.75","1967.0","TEPEHUANES DGO., MX","FM-12","99999","V020","110,1,N,0030,1","22000,1,9,N","030000,1,N,1","+0164,1","-0028,1","10188,1",,,,,"00,1,+99999,9,99,9",,"00,99,1,00,1,00,1,99999,9,00,1,00,1",,"01,9",,,,"99999,9,08236,1","7,1,038,1,+042,1",,"SYN082AAXX  10211 76373 35980 01103 10164 21028 38236 40188 57038 92050 333 30/// 58042;",
"76373099999","2011-11-11T00:00:00","4","25.35","-105.75","1967.0","TEPEHUANES DGO., MX","FM-12","99999","V020","110,1,N,0020,1","22000,1,9,N","030000,1,N,1","+0140,1","-0032,1","10182,1","24,0000,9,1",,,,"00,1,+99999,9,99,9",,"00,99,1,00,1,00,1,99999,9,00,1,00,1",,"01,9",,"120,M,+0180,1","180,N,-0015,1","99999,9,08230,1","7,1,003,1,+034,1",,"SYN106AAXX  11001 76373 32980 01102 10140 21032 38230 40182 57003 92355 333 10180 21015 30/// 50401 58034 70000;","Q01  00002PRCP24"
"76373099999","2011-11-11T03:00:00","4","25.35","-105.75","1967.0","TEPEHUANES DGO., MX","FM-12","99999","V020","999,9,C,0000,1","22000,1,9,N","001000,1,N,1","+0086,1","-0031,1","10198,1",,,,,"00,1,+99999,9,99,9",,"00,99,1,00,1,00,1,99999,9,00,1,00,1",,"01,9",,,,"99999,9,08244,1","2,1,014,1,+018,1",,"SYN082AAXX  11031 76373 32910 00000 10086 21031 38244 40198 52014 90255 333 30/// 58018;",
"76373099999","2011-11-11T15:00:00","4","25.35","-105.75","1967.0","TEPEHUANES DGO., MX","FM-12","99999","V020","999,9,C,0000,1","22000,1,9,N","020000,1,N,1","+0016,1","-0048,1","10198,1",,,,,"03,1,+05100,1,00,1",,"03,99,1,00,1,00,1,99999,9,00,1,03,1",,"01,9",,,,"99999,9,08244,1","1,1,003,1,-035,1",,"SYN100AAXX  11151 76373 32970 30000 10016 21048 38244 40198 51003 80003 91455 333 30/// 56009 59035 83067;",
"76373099999","2011-11-11T18:00:00","4","25.35","-105.75","1967.0","TEPEHUANES DGO., MX","FM-12","99999","V020","110,1,N,0010,1","22000,1,9,N","030000,1,N,1","+0150,1","-0023,1","10172,1",,,,,"03,1,+05100,1,00,1",,"03,99,1,00,1,00,1,99999,9,00,1,03,1",,"01,9",,"120,M,+0160,1","240,N,-0050,1","99999,9,08222,1","7,1,022,1,-008,1",,"SYN112AAXX  11181 76373 32980 31101 10150 21023 38222 40172 57022 80003 91750 333 10160 21050 30/// 56009 59008 83067;",
"76373099999","2011-11-12T00:00:00","4","25.35","-105.75","1967.0","TEPEHUANES DGO., MX","FM-12","99999","V020","230,1,N,0010,1","22000,1,9,N","030000,1,N,1","+0198,1","-0005,1","10135,1","24,0000,9,1",,,,,,"03,99,1,00,1,00,1,99999,9,00,1,03,1",,"01,9",,"120,M,+0260,1","180,N,-0050,1","99999,9,08193,1","1,1,006,1,-037,1",,"SYN124AAXX  12001 76373 32980 32301 10198 21005 38193 40135 51006 80003 92350 333 10260 21050 30/// 50401 56009 59037 70000 83067;",
"76373099999","2011-11-12T03:00:00","4","25.35","-105.75","1967.0","TEPEHUANES DGO., MX","FM-12","99999","V020","250,1,N,0010,1","22000,1,9,N","001000,1,N,1","+0138,1","+0019,1","10160,1",,,,,"03,1,+05100,1,00,1",,"99,99,9,00,1,00,1,99999,9,00,1,02,1",,"01,9",,,,"99999,9,08213,1","2,1,020,1,-031,1",,"SYN100AAXX  12031 76373 32910 22501 10138 20019 38213 40160 52020 80002 90250 333 30/// 56009 59031 83067;","Q01+000022SCOTCV"
"76373099999","2011-11-12T12:00:00","4","25.35","-105.75","1967.0","TEPEHUANES DGO., MX","FM-12","99999","V020","999,9,C,0000,1","22000,1,9,N","001000,1,N,1","+0012,1","-0006,1","10155,1","24,0000,9,1",,,,,,"02,99,1,00,1,00,1,99999,9,00,1,02,1","0600,9","09,9","999,-0022,9","120,N,-0010,1","240,M,+0260,1","99999,9,08209,1","9,9,999,9,-032,1",,"SYN130AAXX  12121 76373 32910 20000 10012 21006 38209 40155 5//// 80002 91155 333 10260 21010 31022 55100 21650 56009 59032 70000 82067;",
"76373099999","2011-11-12T15:00:00","4","25.35","-105.75","1967.0","TEPEHUANES DGO., MX","FM-12","99999","V020","999,9,C,0000,1","22000,1,9,N","020000,1,N,1","+0056,1","+0006,1","10163,1",,,,,"01,1,+05100,1,00,1",,"01,99,1,00,1,00,1,99999,9,00,1,01,1",,"01,9",,,,"99999,9,08216,1","1,1,007,1,-058,1",,"SYN100AAXX  12151 76373 32970 10000 10056 20006 38216 40163 51007 80001 91455 333 30/// 56009 59058 81067;",
"76373099999","2011-11-13T00:00:00","4","25.35","-105.75","1967.0","TEPEHUANES DGO., MX","FM-12","99999","V020","200,1,N,0010,1","22000,1,9,N","020000,1,N,1","+0201,1","+0000,1","10135,1","24,0000,9,1",,,,"00,1,+99999,9,99,9",,"00,99,1,00,1,00,1,99999,9,00,1,00,1",,"01,9",,"120,M,+0270,1","180,N,-0010,1","99999,9,08193,1",,,"SYN100AAXX  13001 76373 32970 02001 10201 20000 38193 40135 5//// 92350 333 10270 21010 30/// 50431 70000;","Q01  00002PRCP24"
"76373099999","2011-11-13T03:00:00","4","25.35","-105.75","1967.0","TEPEHUANES DGO., MX","FM-12","99999","V020","999,9,C,0000,1","22000,1,9,N","005000,1,N,1","+0142,1","+0049,1","10160,1",,,,,"00,1,+99999,9,99,9",,"00,99,1,00,1,00,1,99999,9,00,1,00,1",,"01,9",,,,"99999,9,08213,1","2,1,010,1,+000,1",,"SYN082AAXX  13031 76373 32950 00000 10142 20049 38213 40160 52010 90250 333 30/// 58000;",
"76373099999","2011-11-13T12:00:00","4","25.35","-105.75","1967.0","TEPEHUANES DGO., MX","FM-12","99999","V020","999,9,C,0000,1","22000,1,9,N","005000,1,N,1","+0019,1","+0010,1","10102,1",,,,,"00,1,+99999,9,99,9",,"00,99,1,00,1,00,1,99999,9,00,1,00,1","0588,9","09,9","999,-0016,9","120,N,+0000,1","240,M,+0270,1","99999,9,08214,1","9,9,999,9,+005,1",,"SYN112AAXX  13121 76373 32950 00000 10019 20010 38214 40102 5//// 91150 333 10270 20000 31016 55098 21836 58005 70000;",
"76373099999","2011-11-13T15:00:00","4","25.35","-105.75","1967.0","TEPEHUANES DGO., MX","FM-12","99999","V020","999,9,C,0000,1","22000,1,9,N","020000,1,N,1","+0061,1","+0012,1","99999,9",,,,,"00,1,+99999,9,99,9",,"00,99,1,00,1,00,1,99999,9,00,1,00,1",,"01,9",,,,"99999,9,08217,1","3,1,003,1,+015,1",,"SYN082AAXX  13151 76373 32970 00000 10061 20012 38217 40165 53003 91450 333 30/// 58015;","Q01+101653APOSLP"
"76373099999","2011-11-13T18:00:00","4","25.35","-105.75","1967.0","TEPEHUANES DGO., MX","FM-12","99999","V020","130,1,N,0010,1","22000,1,9,N","020000,1,N,1","+0209,1","-0016,1","10145,1",,,,,"00,1,+99999,9,99,9",,"00,99,1,00,1,00,1,99999,9,00,1,00,1",,"01,9",,"120,M,+0220,1","240,N,+0000,1","99999,9,08200,1","7,1,017,1,-006,1",,"SYN094AAXX  13181 76373 32970 01301 10209 21016 38200 40145 57017 91750 333 10220 20000 30/// 59006;",
"76373099999","2011-11-13T21:00:00","4","25.35","-105.75","1967.0","TEPEHUANES DGO., MX","FM-12","99999","V020","240,1,N,0020,1","22000,1,9,N","020000,1,N,1","+0257,2","-0072,1","10116,1",,,,,"00,1,+99999,9,99,9",,"00,99,1,00,1,00,1,99999,9,00,1,00,1",,"01,9",,,,"99999,9,08177,1","7,1,023,1,+999,9",,"SYN082AAXX  13211 76373 32970 02402 10257 21072 38177 40116 57023 92050 333 30/// 58///;",
"76373099999","2011-11-14T00:00:00","4","25.35","-105.75","1967.0","TEPEHUANES DGO., MX","FM-12","99999","V020","220,1,N,0010,1","22000,1,9,N","020000,1,N,1","+0194,1","+0024,1","10132,1","24,0000,9,1",,,,"00,1,+99999,9,99,9",,"00,99,1,00,1,00,1,99999,9,00,1,00,1",,"01,9",,"120,M,+0269,1","180,N,+0000,1","99999,9,08190,1","2,1,013,1,-003,1",,"SYN106AAXX  14001 76373 32970 02201 10194 20024 38190 40132 52013 92350 333 10269 20000 30/// 50371 59003 70000;","Q01  00002PRCP24"
"76373099999","2011-11-14T03:00:00","4","25.35","-105.75","1967.0","TEPEHUANES DGO., MX","FM-12","99999","V020","270,1,N,0010,1","22000,1,9,N","005000,1,N,1","+0137,1","+0050,1","10149,1",,,,,"00,1,+99999,9,99,9",,"00,99,1,00,1,00,1,99999,9,00,1,00,1",,"01,9",,,,"99999,9,08204,1","2,1,014,1,+001,1",,"SYN082AAXX  14031 76373 32950 02701 10137 20050 38204 40149 52014 90250 333 30/// 58001;",
"76373099999","2011-11-14T12:00:00","4","25.35","-105.75","1967.0","TEPEHUANES DGO., MX","FM-12","99999","V020","999,9,C,0000,1","22000,1,9,N","005000,1,N,1","+0023,1","+0007,1","10112,1",,,,,"00,1,+99999,9,99,9",,"00,99,1,00,1,00,1,99999,9,00,1,00,1","0594,9","09,9","999,-0005,9","120,N,+0010,1","240,M,+0269,1","99999,9,08174,1","9,9,999,9,-040,1",,"SYN112AAXX  14121 76373 32950 00000 10023 20007 38174 40112 5//// 91150 333 10269 20010 31005 55099 21933 59040 70000;",
"76373099999","2011-11-14T18:00:00","4","25.35","-105.75","1967.0","TEPEHUANES DGO., MX","FM-12","99999","V020","160,1,N,0020,1","22000,1,9,N","020000,1,N,1","+0214,2","+0077,1","10098,1",,,,,"03,1,+00750,1,06,1",,"03,99,1,03,1,05,1,00800,1,00,1,00,1",,"01,9",,"120,M,+9999,9","240,N,+0010,1","99999,9,08163,1","7,1,011,1,-037,1",,"SYN112AAXX  14181 76373 32570 31602 10214 20077 38163 40098 57011 83500 91750 333 10205 20010 30/// 56900 59037 83625;","Q01 +02052ATMX  "
"76373099999","2011-11-14T21:00:00","4","25.35","-105.75","1967.0","TEPEHUANES DGO., MX","FM-12","99999","V020","290,1,N,0010,1","00750,1,9,N","020000,1,N,1","+0166,1","+0095,1","10079,1",,,,,"07,1,+00750,1,06,1",,"07,99,1,07,1,07,1,00800,1,00,1,00,1",,"01,9",,,,"99999,9,08148,1","2,1,015,1,-031,1",,"SYN100AAXX  14211 76373 32570 72901 10166 20095 38148 40079 52015 87700 92050 333 30/// 56900 59031 87625;",
"76373099999","2011-11-15T00:00:00","4","25.35","-105.75","1967.0","TEPEHUANES DGO., MX","FM-12","99999","V020","250,1,N,0010,1","00750,1,9,N","020000,1,N,1","+0144,1","+0091,1","10088,1","24,0000,9,1",,,,,,"06,99,1,06,1,07,1,00800,1,00,1,00,1",,"01,9",,"120,M,+0233,1","180,N,+0010,1","99999,9,08154,1","2,1,006,1,-036,1",,"SYN124AAXX  15001 76373 32570 62501 10144 20091 38154 40088 52006 86700 92350 333 10233 20010 30/// 50291 56900 59036 70000 86625;",
"76373099999","2011-11-15T15:00:00","4","25.35","-105.75","1967.0","TEPEHUANES DGO., MX","FM-12","99999","V020","999,9,C,0000,1","22000,1,9,N","020000,1,N,1","+0032,1","-0004,1","10151,1",,,,,"00,1,+99999,9,99,9",,"00,99,1,00,1,00,1,99999,9,00,1,00,1",,"01,9",,,,"99999,9,08205,1","2,1,021,1,+031,1",,"SYN082AAXX  15151 76373 32970 00000 10032 21004 38205 40151 52021 91450 333 30/// 58031;",
"76373099999","2011-11-15T18:00:00","4","25.35","-105.75","1967.0","TEPEHUANES DGO., MX","FM-12","99999","V020","120,1,N,0010,1","22000,1,9,N","020000,1,N,1","+0178,1","-0047,1","10138,1",,,,,"00,1,+99999,9,99,9",,"00,99,1,00,1,00,1,99999,9,00,1,00,1",,"01,9",,"120,M,+0183,1","240,N,+0001,1","99999,9,08195,1","7,1,018,1,+028,1",,"SYN094AAXX  15181 76373 32970 01201 10178 21047 38195 40138 57018 91750 333 10183 20001 30/// 58028;",
"76373099999","2011-11-15T21:00:00","4","25.35","-105.75","1967.0","TEPEHUANES DGO., MX","FM-12","99999","V020","080,1,N,0010,1","22000,1,9,N","020000,1,N,1","+0237,1","-0063,1","10103,1",,,,,"00,1,+99999,9,99,9",,"00,99,1,00,1,00,1,99999,9,00,1,00,1",,"01,9",,,,"99999,9,08167,1","7,1,028,1,+019,1",,"SYN082AAXX  15211 76373 32970 00801 10237 21063 38167 40103 57028 92050 333 30/// 58019;",
"76373099999","2011-11-16T00:00:00","4","25.35","-105.75","1967.0","TEPEHUANES DGO., MX","FM-12","99999","V020","170,1,N,0020,1","22000,1,9,N","020000,1,N,1","+0195,1","-0067,1","10104,1","24,0000,9,1",,,,,,"02,99,1,00,1,00,1,99999,9,00,1,04,1",,"01,9",,"120,M,+0254,1","180,N,+0001,1","99999,9,08167,1","5,1,000,1,+013,1",,"SYN124AAXX  16001 76373 32970 21702 10195 21067 38167 40104 55000 80004 92350 333 10254 20001 30/// 50291 56009 58013 70000 82067;",
"76373099999","2011-11-16T03:00:00","4","25.35","-105.75","1967.0","TEPEHUANES DGO., MX","FM-12","99999","V020","310,1,N,0010,1","22000,1,9,N","000600,1,N,1","+0119,1","-0008,1","10131,1",,,,,"01,1,+05100,1,00,1",,"01,99,1,00,1,00,1,99999,9,00,1,04,1",,"01,9",,,,"99999,9,08190,1","2,1,023,1,+999,9",,"SYN100AAXX  16031 76373 32906 13101 10119 21008 38190 40131 52023 80004 90250 333 30/// 56009 58/// 81067;",
"76373099999","2011-11-16T12:00:00","4","25.35","-105.75","1967.0","TEPEHUANES DGO., MX","FM-12","99999","V020","999,9,C,0000,1","22000,1,9,N","000600,1,N,1","+0002,1","-0016,1","10152,1",,,,,"00,1,+99999,9,99,9",,"00,99,1,00,1,00,1,99999,9,00,1,00,1","0594,9","09,9","999,-0023,9","120,N,-0011,1","240,M,+0254,1","99999,9,08207,1","9,9,999,9,+023,1",,"SYN112AAXX  16121 76373 32906 00000 10002 21016 38207 40152 5//// 91150 333 10254 21011 31023 55099 22021 58023 70000;",
"76373099999","2011-11-16T15:00:00","4","25.35","-105.75","1967.0","TEPEHUANES DGO., MX","FM-12","99999","V020","999,9,C,0000,1","22000,1,9,N","020000,1,N,1","+0033,1","-0011,1","10175,1",,,,,"00,1,+99999,9,99,9",,"00,99,1,00,1,00,1,99999,9,00,1,00,1",,"01,9",,,,"99999,9,08225,1","2,1,018,1,+020,1",,"SYN082AAXX  16151 76373 32970 00000 10033 21011 38225 40175 52018 91450 333 30/// 58020;",
"76373099999","2011-11-16T18:00:00","4","25.35","-105.75","1967.0","TEPEHUANES DGO., MX","FM-12","99999","V020","999,9,C,0000,1","22000,1,9,N","020000,1,N,1","+0190,1","-0051,1","10163,1",,,,,"00,1,+99999,9,99,9",,"00,99,1,00,1,00,1,99999,9,00,1,00,1",,"01,9",,"120,M,+0202,1","240,N,-0011,1","99999,9,08210,1","8,1,010,1,+015,1",,"SYN094AAXX  16181 76373 32970 00000 10190 21051 38210 40163 58010 91750 333 10202 21011 30/// 58015;",
"76373099999","2011-11-16T21:00:00","4","25.35","-105.75","1967.0","TEPEHUANES DGO., MX","FM-12","99999","V020","080,1,N,0020,1","22000,1,9,N","020000,1,N,1","+0252,2","-0081,1","10129,1",,,,,"00,1,+99999,9,99,9",,"00,99,1,00,1,00,1,99999,9,00,1,00,1",,"01,9",,,,"99999,9,08188,1","7,1,027,1,+021,1",,"SYN082AAXX  16211 76373 32970 00802 10252 21081 38188 40129 57027 92050 333 30/// 58021;",
"76373099999","2011-11-17T00:00:00","4","25.35","-105.75","1967.0","TEPEHUANES DGO., MX","FM-12","99999","V020","120,1,N,0020,1","22000,1,9,N","020000,1,N,1","+0216,1","-0077,1","10135,1","24,0000,9,1",,,,"00,1,+99999,9,99,9",,"00,99,1,00,1,00,1,99999,9,00,1,00,1",,"01,9",,"120,M,+0272,1","180,N,-0011,1","99999,9,08193,1","3,1,005,1,+026,1",,"SYN106AAXX  17001 76373 32970 01202 10216 21077 38193 40135 53005 92350 333 10272 21011 30/// 50301 58026 70000;","Q01  00002PRCP24"
"76373099999","2011-11-17T03:00:00","4","25.35","-105.75","1967.0","TEPEHUANES DGO., MX","FM-12","99999","V020","240,1,N,0010,1","22000,1,9,N","000600,1,N,1","+0132,1","-0057,1","10169,1",,,,,"00,1,+99999,9,99,9",,"00,99,1,00,1,00,1,99999,9,00,1,00,1",,"01,9",,,,"99999,9,08220,1","2,1,027,1,+030,1",,"SYN082AAXX  17031 76373 32906 02401 10132 21057 38220 40169 52027 90250 333 30/// 58030;",
"76373099999","2011-11-17T12:00:00","4","25.35","-105.75","1967.0","TEPEHUANES DGO., MX","FM-12","99999","V020","999,9,C,0000,1","22000,1,9,N","000600,1,N,1","-0003,1","-0040,1","10198,1",,,,,"00,1,+99999,9,99,9",,"00,99,1,00,1,00,1,99999,9,00,1,00,1","0594,9","09,9","999,-0027,9","120,N,-0014,1","240,M,+0272,1","99999,9,08244,1","9,9,999,9,+037,1",,"SYN112AAXX  17121 76373 32906 00000 11003 21040 38244 40198 5//// 91150 333 10272 21014 31027 55099 22110 58037 70000;",
"76373099999","2011-11-17T15:00:00","4","25.35","-105.75","1967.0","TEPEHUANES DGO., MX","FM-12","99999","V020","999,9,C,0000,1","22000,1,9,N","020000,1,N,1","+0038,1","-0026,1","10218,1",,,,,"00,1,+99999,9,99,9",,"00,99,1,00,1,00,1,99999,9,00,1,00,1",,"01,9",,,,"99999,9,08260,1","2,1,017,1,+035,1",,"SYN082AAXX  17151 76373 32970 00000 10038 21026 38260 40218 52017 91450 333 30/// 58035;",
"76373099999","2011-11-17T18:00:00","4","25.35","-105.75","1967.0","TEPEHUANES DGO., MX","FM-12","99999","V020","110,1,N,0010,1","22000,1,9,N","030000,1,N,1","+0190,1","-0012,1","10192,1",,,,,"00,1,+99999,9,99,9",,"00,99,1,00,1,00,1,99999,9,00,1,00,1",,"01,9",,"120,M,+0200,1","240,N,-0014,1","99999,9,08239,1","7,1,022,1,+024,1",,"SYN094AAXX  17181 76373 32980 01101 10190 21012 38239 40192 57022 91755 333 10200 21014 30/// 58024;",
"76373099999","2011-11-17T21:00:00","4","25.35","-105.75","1967.0","TEPEHUANES DGO., MX","FM-12","99999","V020","110,1,N,0010,1","22000,1,9,N","030000,1,N,1","+0246,1","-0018,1","10139,1",,,,,"00,1,+99999,9,99,9",,"00,99,1,00,1,00,1,99999,9,00,1,00,1",,"01,9",,,,"99999,9,08196,1","7,1,043,1,+008,1",,"SYN082AAXX  17211 76373 32980 01101 10246 21018 38196 40139 57043 90255 333 30/// 58008;",
"76373099999","2011-11-18T00:00:00","4","25.35","-105.75","1967.0","TEPEHUANES DGO., MX","FM-12","99999","V020","110,1,N,0010,1","22000,1,9,N","030000,1,N,1","+0224,1","-0017,1","10132,1","24,0000,9,1",,,,"00,1,+99999,9,99,9",,"00,99,1,00,1,00,1,99999,9,00,1,00,1",,"01,9",,"120,M,+0270,1","180,N,-0014,1","99999,9,08190,1","1,1,006,1,-003,1",,"SYN106AAXX  18001 76373 32980 01101 10224 21017 38190 40132 51006 92350 333 10270 21014 30/// 50461 59003 70000;","Q01  00002PRCP24"
"76373099999","2011-11-18T03:00:00","4","25.35","-105.75","1967.0","TEPEHUANES DGO., MX","FM-12","99999","V020","999,9,C,0000,1","22000,1,9,N","001000,1,N,1","+0138,1","-0019,1","10157,1",,,,,"00,1,+99999,9,99,9",,"00,99,1,00,1,00,1,99999,9,00,1,00,1",,"01,9",,,,"99999,9,08211,1","2,1,021,1,+999,9",,"SYN082AAXX  18031 76373 32910 00000 10138 21019 38211 40157 52021 90255 333 30/// 50009;",
"76373099999","2011-11-18T15:00:00","4","25.35","-105.75","1967.0","TEPEHUANES DGO., MX","FM-12","99999","V020","999,9,C,0000,1","22000,1,9,N","010000,1,N,1","+0052,1","-0003,1","10168,1",,,,,"00,1,+99999,9,99,9",,"00,99,1,00,1,00,1,99999,9,00,1,00,1",,"01,9",,,,"99999,9,08219,1","1,1,003,1,-042,1",,"SYN082AAXX  18151 76373 32960 00000 10052 21003 38219 40168 51003 91450 333 30/// 59042;",
"76373099999","2011-11-18T18:00:00","4","25.35","-105.75","1967.0","TEPEHUANES DGO., MX","FM-12","99999","V020","160,1,N,0020,1","22000,1,9,N","020000,1,N,1","+9999,9","-0010,1","10147,1",,,,,"00,1,+99999,9,99,9",,"00,99,1,00,1,00,1,99999,9,00,1,00,1",,"01,9",,"120,M,+0250,1","240,N,+0004,1","99999,9,08202,1","7,1,012,1,-037,1",,"SYN094AAXX  18181 76373 32970 01602 10242 21010 38202 40147 57012 91755 333 10250 20004 30/// 59037;","Q01+002423ATOT  "
"76373099999","2011-11-18T21:00:00","4","25.35","-105.75","1967.0","TEPEHUANES DGO., MX","FM-12","99999","V020","140,1,N,0030,1","22000,1,9,N","030000,1,N,1","+0252,2","-0045,1","10127,1",,,,,"00,1,+99999,9,99,9",,"00,99,1,00,1,00,1,99999,9,00,1,00,1",,"01,9",,,,"99999,9,08186,1","7,1,016,1,-010,1",,"SYN082AAXX  18211 76373 32980 01403 10252 21045 38186 40127 57016 92050 333 30/// 59010;",
"76373099999","2011-11-19T00:00:00","4","25.35","-105.75","1967.0","TEPEHUANES DGO., MX","FM-12","99999","V020","140,1,N,0020,1","22000,1,9,N","030000,1,N,1","+0204,1","-0033,1","10130,1","24,0000,9,1",,,,"00,1,+99999,9,99,9",,"00,99,1,00,1,00,1,99999,9,00,1,00,1",,"01,9",,"120,M,+0260,1","180,N,+0004,1","99999,9,08189,1","1,1,003,1,-001,1",,"SYN106AAXX  19001 76373 32980 01402 10204 21033 38189 40130 51003 92355 333 10260 20004 30/// 50521 59001 70000;","Q01  00002PRCP24"
"76373099999","2011-11-19T03:00:00","4","25.35","-105.75","1967.0","TEPEHUANES DGO., MX","FM-12","99999","V020","999,9,C,0000,1","22000,1,9,N","001000,1,N,1","+0124,1","-0010,1","10145,1",,,,,"00,1,+99999,9,99,9",,"00,99,1,00,1,00,1,99999,9,00,1,00,1",,"01,9",,,,"99999,9,08201,1","2,1,012,1,-010,1",,"SYN082AAXX  19031 76373 32910 00000 10124 21010 38201 40145 52012 90250 333 30/// 59010;",
"76373099999","2011-11-19T12:00:00","4","25.35","-105.75","1967.0","TEPEHUANES DGO., MX","FM-12","99999","V020","999,9,C,0000,1","22000,1,9,N","001000,1,N,1","+0008,1","-0019,1","10150,1",,,,,"00,1,+99999,9,99,9",,"00,99,1,00,1,00,1,99999,9,00,1,00,1","0588,9","09,9","999,-0028,9","120,N,-0010,1","240,M,+0260,1","99999,9,08205,1","9,9,999,9,-011,1",,"SYN112AAXX  19121 76373 32910 00000 10008 21019 38205 40150 5//// 91150 333 10260 21010 31028 55098 21731 59011 70000;",
"76373099999","2011-11-19T15:00:00","4","25.35","-105.75","1967.0","TEPEHUANES DGO., MX","FM-12","99999","V020","999,9,C,0000,1","22000,1,9,N","010000,1,N,1","+0054,1","-0001,1","10163,1",,,,,"00,1,+99999,9,99,9",,"00,99,1,00,1,00,1,99999,9,00,1,00,1",,"01,9",,,,"99999,9,08216,1","2,1,011,1,-003,1",,"SYN082AAXX  19151 76373 32960 00000 10054 21001 38216 40163 52011 91455 333 30/// 59003;",
"76373099999","2011-11-19T18:00:00","4","25.35","-105.75","1967.0","TEPEHUANES DGO., MX","FM-12","99999","V020","200,1,N,0040,1","22000,1,9,N","030000,1,N,1","+9999,9","-0004,1","10157,1",,,,,"00,1,+99999,9,99,9",,"00,99,1,00,1,00,1,99999,9,00,1,00,1",,"01,9",,"120,M,+0238,1","240,N,-0010,1","99999,9,08210,1","1,1,006,1,+008,1",,"SYN094AAXX  19181 76373 32980 02004 10230 21004 38210 40157 51006 91750 333 10238 21010 30/// 58008;","Q01+002303ATOT  "
"76373099999","2011-11-20T03:00:00","4","25.35","-105.75","1967.0","TEPEHUANES DGO., MX","FM-12","99999","V020","999,9,C,0000,1","22000,1,9,N","005000,1,N,1","+0145,1","+0049,1","10149,1",,,,,"00,1,+99999,9,99,9",,"00,99,1,00,1,00,1,99999,9,00,1,00,1",,"01,9",,,,"99999,9,08204,1","2,1,006,1,+003,1",,"SYN082AAXX  20031 76373 32950 00000 10145 20049 38204 40149 52006 90250 333 30/// 58003;",
"76373099999","2011-11-20T12:00:00","4","25.35","-105.75","1967.0","TEPEHUANES DGO., MX","FM-12","99999","V020","999,9,C,0000,1","22000,1,9,N","005000,1,N,1","+0044,1","+0028,1","10155,1",,,,,"00,1,+99999,9,99,9",,"00,99,1,00,1,00,1,99999,9,00,1,00,1","0594,9","01,9","999,+0010,9","120,N,+0030,1","240,M,+0265,1","99999,9,08209,1","9,9,999,9,+004,1",,"SYN112AAXX  20121 76373 32950 00000 10044 20028 38209 40155 5//// 91150 333 10265 20030 30010 55099 21804 58004 70000;",
"76373099999","2011-11-20T15:00:00","4","25.35","-105.75","1967.0","TEPEHUANES DGO., MX","FM-12","99999","V020","999,9,C,0000,1","22000,1,9,N","020000,1,N,1","+0085,1","+0040,1","10168,1",,,,,"00,1,+99999,9,99,9",,"00,99,1,00,1,00,1,99999,9,00,1,00,1",,"01,9",,,,"99999,9,08220,1","2,1,011,1,+004,1",,"SYN082AAXX  20151 76373 32970 00000 10085 20040 38220 40168 52011 91450 333 30/// 58004;",
"76373099999","2011-11-20T18:00:00","4","25.35","-105.75","1967.0","TEPEHUANES DGO., MX","FM-12","99999","V020","250,1,N,0030,1","22000,1,9,N","020000,1,N,1","+0236,1","+0047,1","10168,1",,,,,"01,1,+00750,1,08,1",,"01,99,1,01,1,02,1,00800,1,00,1,00,1",,"01,9",,"120,M,+0240,1","240,N,+0030,1","99999,9,08220,1","4,1,000,1,+010,1",,"SYN112AAXX  20181 76373 32570 12503 10236 20047 38220 40168 54000 81200 91750 333 10240 20030 30/// 56900 58010 81825;",
"76373099999","2011-11-20T21:00:00","4","25.35","-105.75","1967.0","TEPEHUANES DGO., MX","FM-12","99999","V020","160,1,N,0030,1","22000,1,9,N","020000,1,N,1","+0255,2","+0016,1","10149,1",,,,,"00,1,+99999,9,99,9",,"00,99,1,00,1,00,1,99999,9,00,1,00,1",,"01,9",,,,"99999,9,08204,1","7,1,016,1,+000,1",,"SYN082AAXX  20211 76373 32970 01603 10255 20016 38204 40149 57016 92050 333 30/// 58000;",
"76373099999","2011-11-21T00:00:00","4","25.35","-105.75","1967.0","TEPEHUANES DGO., MX","FM-12","99999","V020","200,1,N,0010,1","22000,1,9,N","020000,1,N,1","+0210,1","+0040,1","10153,1","24,0000,9,1",,,,"00,1,+99999,9,99,9",,"00,99,1,00,1,00,1,99999,9,00,1,00,1",,"01,9",,"120,M,+0265,1","180,N,+0030,1","99999,9,08207,1","2,1,003,1,+013,1",,"SYN106AAXX  21001 76373 32970 02001 10210 20040 38207 40153 52003 92350 333 10265 20030 30/// 50451 58013 70000;","Q01  00002PRCP24"
"76373099999","2011-11-21T03:00:00","4","25.35","-105.75","1967.0","TEPEHUANES DGO., MX","FM-12","99999","V020","999,9,C,0000,1","22000,1,9,N","005000,1,N,1","+0138,1","+0048,1","10180,1",,,,,"00,1,+99999,9,99,9",,"00,99,1,00,1,00,1,99999,9,00,1,00,1",,"01,9",,,,"99999,9,08229,1","2,1,022,1,+025,1",,"SYN082AAXX  21031 76373 32950 00000 10138 20048 38229 40180 52022 90250 333 30/// 58025;",
"76373099999","2011-11-21T12:00:00","4","25.35","-105.75","1967.0","TEPEHUANES DGO., MX","FM-12","99999","V020","999,9,C,0000,1","22000,1,9,N","005000,1,N,1","+0034,1","+0017,1","10173,1",,,,,"00,1,+99999,9,99,9",,"00,99,1,00,1,00,1,99999,9,00,1,00,1","0588,9","01,9","999,+0000,9","120,N,+0020,1","240,M,+0265,1","99999,9,08224,1","9,9,999,9,+015,1",,"SYN112AAXX  21121 76373 32950 00000 10034 20017 38224 40173 5//// 91150 333 10265 20020 30000 55098 21820 58015 70000;",
"76373099999","2011-11-21T15:00:00","4","25.35","-105.75","1967.0","TEPEHUANES DGO., MX","FM-12","99999","V020","999,9,C,0000,1","22000,1,9,N","020000,1,N,1","+0056,1","+0028,1","10183,1",,,,,"04,1,+00750,1,06,1",,"04,99,1,04,1,06,1,00800,1,00,1,00,1",,"01,9",,,,"99999,9,08231,1","2,1,007,1,+011,1",,"SYN100AAXX  21151 76373 32570 40000 10056 20028 38231 40183 52007 84600 91450 333 30/// 56900 58011 84625;",
"76373099999","2011-11-21T21:00:00","4","25.35","-105.75","1967.0","TEPEHUANES DGO., MX","FM-12","99999","V020","250,1,N,0030,1","22000,1,9,N","020000,1,N,1","+0240,1","+0008,1","10139,1",,,,,"04,1,+00750,1,06,1",,"04,99,1,04,1,06,1,00800,1,00,1,00,1",,"01,9",,,,"99999,9,08196,1","7,1,036,1,-008,1",,"SYN100AAXX  21211 76373 32570 42503 10240 20008 38196 40139 57036 84600 92050 333 30/// 56900 59008 84625;",
"76373099999","2011-11-22T00:00:00","4","25.35","-105.75","1967.0","TEPEHUANES DGO., MX","FM-12","99999","V020","200,1,N,0020,1","00750,1,9,N","020000,1,N,1","+0202,1","+0049,1","10144,1","24,0000,9,1",,,,,,"05,99,1,05,1,06,1,00800,1,00,1,00,1",,"01,9",,"120,M,+0260,1","180,N,+0020,1","99999,9,08200,1","2,1,004,1,-007,1",,"SYN124AAXX  22001 76373 32570 52002 10202 20049 38200 40144 52004 85600 92350 333 10260 20020 30/// 50451 56900 59007 70000 85625;",
"76373099999","2011-11-22T12:00:00","4","25.35","-105.75","1967.0","TEPEHUANES DGO., MX","FM-12","99999","V020","999,9,C,0000,1","22000,1,9,N","000600,1,N,1","+0014,1","-0013,1","10175,1",,,,,"00,1,+99999,9,99,9",,"00,99,1,00,1,00,1,99999,9,00,1,00,1","0552,9","09,9","999,-0011,9","120,N,+0002,1","240,M,+0260,1","99999,9,08225,1","9,9,999,9,+001,1",,"SYN112AAXX  22121 76373 32906 00000 10014 21013 38225 40175 5//// 91150 333 10260 20002 31011 55092 21772 58001 70000;",
"76373099999","2011-11-22T15:00:00","4","25.35","-105.75","1967.0","TEPEHUANES DGO., MX","FM-12","99999","V020","999,9,C,0000,1","22000,1,9,N","020000,1,N,1","+0038,1","-0009,1","10208,1",,,,,"03,1,+05100,1,00,1",,"03,99,1,00,1,00,1,99999,9,00,1,04,1",,"01,9",,,,"99999,9,08251,1","2,1,026,1,+020,1",,"SYN100AAXX  22151 76373 32970 30000 10038 21009 38251 40208 52026 80004 91450 333 30/// 56009 58020 83067;",
"76373099999","2011-11-22T18:00:00","4","25.35","-105.75","1967.0","TEPEHUANES DGO., MX","FM-12","99999","V020","110,1,N,0010,1","22000,1,9,N","020000,1,N,1","+0188,1","-0032,1","10195,1",,,,,"01,1,+01800,1,03,1",,"01,99,1,01,1,00,1,01750,1,07,1,00,1",,"01,9",,"120,M,+0200,1","240,N,+0002,1","99999,9,08241,1","7,1,010,1,+008,1",,"SYN112AAXX  22181 76373 32770 11101 10188 21032 38241 40195 57010 81070 91750 333 10200 20002 30/// 56090 58008 81356;",
"76373099999","2011-11-22T21:00:00","4","25.35","-105.75","1967.0","TEPEHUANES DGO., MX","FM-12","99999","V020","130,1,N,0010,1","22000,1,9,N","020000,1,N,1","+0259,2","-0091,1","10154,1",,,,,"01,1,+05100,1,00,1",,"01,99,1,00,1,00,1,99999,9,00,1,04,1",,"01,9",,,,"99999,9,08208,1","7,1,033,1,+012,1",,"SYN100AAXX  22211 76373 32970 11301 10259 21091 38208 40154 57033 80004 92050 333 30/// 56909 58012 81067;",
"76373099999","2011-11-23T00:00:00","4","25.35","-105.75","1967.0","TEPEHUANES DGO., MX","FM-12","99999","V020","110,1,N,0020,1","22000,1,9,N","020000,1,N,1","+0203,1","-0086,1","10161,1","24,0000,9,1",,,,,,"01,99,1,00,1,00,1,99999,9,00,1,04,1",,"01,9",,"120,M,+0280,1","180,N,+0002,1","99999,9,08213,1","2,1,005,1,+013,1",,"SYN124AAXX  23001 76373 32970 11102 10203 21086 38213 40161 52005 80004 92350 333 10280 20002 30/// 50271 56009 58013 70000 81067;",
"76373099999","2011-11-23T03:00:00","4","25.35","-105.75","1967.0","TEPEHUANES DGO., MX","FM-12","99999","V020","999,9,C,0000,1","22000,1,9,N","000600,1,N,1","+0118,1","-0075,1","10201,1",,,,,"01,1,+05100,1,00,1",,"01,99,1,00,1,00,1,99999,9,00,1,04,1",,"01,9",,,,"99999,9,08246,1","2,1,033,1,+999,9",,"SYN100AAXX  23031 76373 32906 10000 10118 21075 38246 40201 52033 80004 90250 333 30/// 56009 58/// 81067;",
"76373099999","2011-11-23T12:00:00","4","25.35","-105.75","1967.0","TEPEHUANES DGO., MX","FM-12","99999","V020","999,9,C,0000,1","22000,1,9,N","000600,1,N,1","-0005,1","-0055,1","10224,1",,,,,"00,1,+99999,9,99,9",,"00,99,1,00,1,00,1,99999,9,00,1,00,1","0588,9","09,9","999,-0027,9","120,N,-0012,1","240,M,+0280,1","99999,9,08265,1","9,9,999,9,+040,1",,"SYN112AAXX  23121 76373 32906 00000 11005 21055 38265 40224 5//// 91150 333 10280 21012 31027 55098 22005 58040 70000;",
"76373099999","2011-11-23T15:00:00","4","25.35","-105.75","1967.0","TEPEHUANES DGO., MX","FM-12","99999","V020","999,9,C,0000,1","22000,1,9,N","020000,1,N,1","+0025,1","-0048,1","10245,1",,,,,"02,1,+00810,1,06,1",,"02,99,1,02,1,04,1,01250,1,00,1,00,1",,"01,9",,,,"99999,9,08281,1","2,1,016,1,+030,1",,"SYN100AAXX  23151 76373 32670 20000 10025 21048 38281 40245 52016 82400 91450 333 30/// 56900 58030 82627;",
"76373099999","2011-11-23T18:00:00","4","25.35","-105.75","1967.0","TEPEHUANES DGO., MX","FM-12","99999","V020","120,1,N,0010,1","22000,1,9,N","020000,1,N,1","+0174,1","-0038,1","10225,1",,,,,"01,1,+05100,1,00,1",,"01,99,1,00,1,00,1,99999,9,00,1,02,1",,"01,9",,"120,M,+0187,1","240,N,-0012,1","99999,9,08265,1","7,1,016,1,+024,1",,"SYN112AAXX  23181 76373 32970 11201 10174 21038 38265 40225 57016 80002 91750 333 10187 21012 30/// 56009 58024 81067;",
"76373099999","2011-11-23T21:00:00","4","25.35","-105.75","1967.0","TEPEHUANES DGO., MX","FM-12","99999","V020","120,1,N,0020,1","22000,1,9,N","020000,1,N,1","+0245,1","-0067,1","10178,1",,,,,"02,1,+02100,1,03,1",,"02,99,1,02,1,00,1,01750,1,08,1,00,1",,"01,9",,,,"99999,9,08228,1","7,1,037,1,+020,1",,"SYN100AAXX  23211 76373 32770 21202 10245 21067 38228 40178 57037 82080 92050 333 30/// 56090 58020 82357;",
"76373099999","2011-11-24T00:00:00","4","25.35","-105.75","1967.0","TEPEHUANES DGO., MX","FM-12","99999","V020","120,1,N,0010,1","22000,1,9,N","020000,1,N,1","+0224,1","-0047,1","10171,1","24,0000,9,1",,,,,,"01,99,1,01,1,01,1,01250,1,00,1,00,1",,"01,9",,"120,M,+0276,1","180,N,-0012,1","99999,9,08222,1","5,1,006,1,+009,1",,"SYN124AAXX  24001 76373 32670 11201 10224 21047 38222 40171 55006 81100 92350 333 10276 21012 30/// 50471 56900 58009 70000 81828;",
"76373099999","2011-11-24T03:00:00","4","25.35","-105.75","1967.0","TEPEHUANES DGO., MX","FM-12","99999","V020","999,9,C,0000,1","22000,1,9,N","000600,1,N,1","+0138,1","-0029,1","10203,1",,,,,"00,1,+99999,9,99,9",,"00,99,1,00,1,00,1,99999,9,00,1,00,1",,"01,9",,,,"99999,9,08248,1","2,1,026,1,+002,1",,"SYN082AAXX  24031 76373 32906 00000 10138 21029 38248 40203 52026 90250 333 30/// 58002;",
"76373099999","2011-11-24T15:00:00","4","25.35","-105.75","1967.0","TEPEHUANES DGO., MX","FM-12","99999","V020","999,9,C,0000,1","22000,1,9,N","020000,1,N,1","+0041,1","-0024,1","10223,1",,,,,"00,1,+99999,9,99,9",,"00,99,1,00,1,00,1,99999,9,00,1,00,1",,"01,9",,,,"99999,9,08264,1","2,1,013,1,-017,1",,"SYN082AAXX  24151 76373 32970 00000 10041 21024 38264 40223 52013 91450 333 30/// 59017;",
"76373099999","2011-11-24T18:00:00","4","25.35","-105.75","1967.0","TEPEHUANES DGO., MX","FM-12","99999","V020","999,9,C,0000,1","22000,1,9,N","020000,1,N,1","+9999,9","-0016,1","10206,1",,,,,"00,1,+99999,9,99,9",,"00,99,1,00,1,00,1,99999,9,00,1,00,1",,"01,9",,"120,M,+0210,1","240,N,+0006,1","99999,9,08250,1","7,1,017,1,+019,1",,"SYN094AAXX  24181 76373 32970 00000 10204 21016 38250 40206 57017 91750 333 10210 20006 30/// 58019;","Q01+002043ATOT  "
"76373099999","2011-11-24T21:00:00","4","25.35","-105.75","1967.0","TEPEHUANES DGO., MX","FM-12","99999","V020","140,1,N,0030,1","22000,1,9,N","030000,1,N,1","+0282,2","+0005,1","10166,1",,,,,"01,1,+00750,1,08,1",,"01,99,1,01,1,01,1,00800,1,00,1,00,1",,"01,9",,,,"99999,9,08218,1","7,1,032,1,-010,1",,"SYN100AAXX  24211 76373 32580 11403 10282 20005 38218 40166 57032 81100 92055 333 30/// 56900 59010 81825;",
"76373099999","2011-11-25T00:00:00","4","25.35","-105.75","1967.0","TEPEHUANES DGO., MX","FM-12","99999","V020","200,1,N,0020,1","22000,1,9,N","030000,1,N,1","+0228,1","-0004,1","10163,1","24,0000,9,1",,,,,,"01,99,1,01,1,01,1,00800,1,00,1,00,1",,"01,9",,"120,M,+0300,1","180,N,+0006,1","99999,9,08216,1","7,1,002,1,-006,1",,"SYN124AAXX  25001 76373 32580 12002 10228 21004 38216 40163 57002 81100 92355 333 10300 20006 30/// 50381 56900 59006 70000 81825;",
"76373099999","2011-11-25T03:00:00","4","25.35","-105.75","1967.0","TEPEHUANES DGO., MX","FM-12","99999","V020","230,1,N,0010,1","22000,1,9,N","001000,1,N,1","+0162,1","+0017,1","10181,1",,,,,"00,1,+99999,9,99,9",,"00,99,1,00,1,00,1,99999,9,00,1,00,1",,"01,9",,,,"99999,9,08230,1","2,1,014,1,-018,1",,"SYN082AAXX  25031 76373 32910 02301 10162 20017 38230 40181 52014 90255 333 30/// 59018;",
"76373099999","2011-11-25T12:00:00","4","25.35","-105.75","1967.0","TEPEHUANES DGO., MX","FM-12","99999","V020","999,9,C,0000,1","22000,1,9,N","001000,1,N,1","+0038,1","-0005,1","10162,1",,,,,"00,1,+99999,9,99,9",,"00,99,1,00,1,00,1,99999,9,00,1,00,1","0588,9","01,9","999,+0010,9","120,N,+0028,1","240,M,+0300,1","99999,9,08215,1","9,9,999,9,-036,1",,"SYN112AAXX  25121 76373 32910 00000 10038 21005 38215 40162 5//// 91155 333 10300 20028 30010 55098 21772 59036 70000;",
"76373099999","2011-11-25T15:00:00","4","25.35","-105.75","1967.0","TEPEHUANES DGO., MX","FM-12","99999","V020","999,9,C,0000,1","22000,1,9,N","020000,1,N,1","+0064,1","+0008,1","10157,1",,,,,"00,1,+99999,9,99,9",,"00,99,1,00,1,00,1,99999,9,00,1,00,1",,"01,9",,,,"99999,9,08210,1","7,1,004,1,-054,1",,"SYN082AAXX  25151 76373 32970 00000 10064 20008 38210 40157 57004 91450 333 30/// 59054;",
"76373099999","2011-11-25T18:00:00","4","25.35","-105.75","1967.0","TEPEHUANES DGO., MX","FM-12","99999","V020","200,1,N,0030,1","22000,1,9,N","030000,1,N,1","+9999,9","+0052,1","10142,1",,,,,"03,1,+00600,1,06,1",,"04,99,1,04,1,04,1,00800,1,00,1,00,1",,"01,9",,"120,M,+0238,1","240,N,+0028,1","99999,9,08198,1","7,1,012,1,-042,1",,"SYN118AAXX  25181 76373 32580 42003 10224 20052 38198 40142 57012 84400 91755 333 10238 20028 30/// 56900 59042 83620 81825;","Q01+002243ATOT  "
"76373099999","2011-11-26T00:00:00","4","25.35","-105.75","1967.0","TEPEHUANES DGO., MX","FM-12","99999","V020","160,1,N,0020,1","00750,1,9,N","030000,1,N,1","+0178,1","+0073,1","10125,1","24,0000,9,1",,,,"03,1,+00600,1,07,1",,"07,99,1,07,1,07,1,00800,1,00,1,00,1",,"01,9",,"120,M,+0250,1","180,N,+0028,1","99999,9,08185,1","1,1,007,1,-031,1",,"SYN130AAXX  26001 76373 32580 71602 10178 20073 38185 40125 51007 87700 92350 333 10250 20028 30/// 50451 56900 59031 70000 83720 84625;",
"76373099999","2011-11-26T03:00:00","4","25.35","-105.75","1967.0","TEPEHUANES DGO., MX","FM-12","99999","V020","160,1,N,0010,1","00600,1,9,N","001000,1,N,1","+0112,1","+0105,1","10150,1",,,,,"06,1,+00600,1,07,1",,"08,99,1,08,1,08,1,00800,1,00,1,00,1",,"01,9",,,,"99999,9,08205,1","2,1,020,1,-025,1",,"SYN106AAXX  26031 76373 32510 81601 10112 20105 38205 40150 52020 88800 90255 333 30/// 56900 59025 86720 82625;",
"76373099999","2011-11-26T12:00:00","4","25.35","-105.75","1967.0","TEPEHUANES DGO., MX","FM-12","99999","V020","999,9,C,0000,1","22000,1,9,N","001000,1,N,1","+0048,1","+0047,1","10147,1",,,,,"00,1,+99999,9,99,9",,"00,99,1,00,1,00,1,99999,9,00,1,00,1","0540,9","01,9","999,+0010,9","120,N,+0030,1","240,M,+0250,1","99999,9,08203,1","9,9,999,9,-012,1",,"SYN112AAXX  26121 76373 32910 00000 10048 20047 38203 40147 5//// 91150 333 10250 20030 30010 55090 21328 59012 70085;",
"76373099999","2011-11-26T15:00:00","4","25.35","-105.75","1967.0","TEPEHUANES DGO., MX","FM-12","99999","V020","999,9,C,0000,1","22000,1,9,N","030000,1,N,1","+0060,1","+0048,1","10167,1",,,,,"01,1,+00750,1,08,1",,"01,99,1,01,1,01,1,00800,1,00,1,00,1",,"01,9",,,,"99999,9,08218,1","2,1,015,1,+008,1",,"SYN100AAXX  26151 76373 32580 10000 10060 20048 38218 40167 52015 81100 91450 333 30/// 56900 58008 81825;",
"76373099999","2011-11-26T18:00:00","4","25.35","-105.75","1967.0","TEPEHUANES DGO., MX","FM-12","99999","V020","110,1,N,0010,1","22000,1,9,N","030000,1,N,1","+0148,1","+0063,1","10176,1",,,,,"02,1,+00750,1,08,1",,"02,99,1,02,1,02,1,00800,1,00,1,00,1",,"01,9",,"120,M,+0160,1","240,N,+0030,1","99999,9,08225,1","2,1,007,1,+027,1",,"SYN112AAXX  26181 76373 32580 21101 10148 20063 38225 40176 52007 82200 91750 333 10160 20030 30/// 56900 58027 82825;",
"76373099999","2011-11-26T21:00:00","4","25.35","-105.75","1967.0","TEPEHUANES DGO., MX","FM-12","99999","V020","110,1,N,0010,1","22000,1,9,N","030000,1,N,1","+0178,1","+0003,1","10157,1",,,,,"00,1,+99999,9,99,9",,"00,99,1,00,1,00,1,99999,9,00,1,00,1",,,,,,"99999,9,08210,1","3,1,019,1,+999,9",,"SYN082AAXX  26211 76373 32080 01101 10178 20003 38210 40157 53019 9250 333 3 0/// 58004;",
"76373099999","2011-11-27T00:00:00","4","25.35","-105.75","1967.0","TEPEHUANES DGO., MX","FM-12","99999","V020","360,1,N,0010,1","22000,1,9,N","020000,1,N,1","+0145,1","-0031,1","10163,1","24,0084,9,1",,,,"00,1,+99999,9,99,9",,"00,99,1,00,1,00,1,99999,9,00,1,00,1",,"01,9",,"120,M,+0200,1","180,N,+0030,1","99999,9,08215,1","2,1,005,1,+030,1",,"SYN106AAXX  27001 76373 32970 03601 10145 21031 38215 40163 52005 92350 333 10200 20030 30/// 50351 58030 70085;",
"76373099999","2011-11-27T12:00:00","4","25.35","-105.75","1967.0","TEPEHUANES DGO., MX","FM-12","99999","V020","999,9,C,0000,1","22000,1,9,N","005000,1,N,1","+0005,1","-0031,1","10261,1",,,,,"00,1,+99999,9,99,9",,"00,99,1,00,1,00,1,99999,9,00,1,00,1","0528,9","09,9","999,-0020,9","120,N,-0008,1","240,M,+0200,1","99999,9,08294,1","9,9,999,9,+091,1",,"SYN112AAXX  27121 76373 32950 00000 10005 21031 38294 40261 5//// 91150 333 10200 21008 31020 55088 51699 58091 70000;",
"76373099999","2011-11-27T15:00:00","4","25.35","-105.75","1967.0","TEPEHUANES DGO., MX","FM-12","99999","V020","999,9,C,0000,1","22000,1,9,N","020000,1,N,1","+0012,1","-0068,1","10285,1",,,,,"00,1,+99999,9,99,9",,"00,99,1,00,1,00,1,99999,9,00,1,00,1",,"01,9",,,,"99999,9,08314,1","2,1,020,1,+096,1",,"SYN082AAXX  27151 76373 32970 00000 10012 21068 38314 40285 52020 91450 333 30/// 58096;",
"76373099999","2011-11-27T21:00:00","4","25.35","-105.75","1967.0","TEPEHUANES DGO., MX","FM-12","99999","V020","110,1,N,0020,1","22000,1,9,N","030000,1,N,1","+0131,1","+0013,1","10233,1",,,,,"00,1,+99999,9,99,9",,"00,99,1,00,1,00,1,99999,9,00,1,00,1",,"01,9",,,,"99999,9,08272,1","5,1,033,1,+004,1",,"SYN082AAXX  27211 76373 32080 01102 10131 20013 38272 40233 55033 92055 333 30/// 58004;",
"76373099999","2011-11-28T00:00:00","4","25.35","-105.75","1967.0","TEPEHUANES DGO., MX","FM-12","99999","V020","110,1,N,0010,1","22000,1,9,N","020000,1,N,1","+0100,1","+9999,9","10219,1","24,0000,9,1",,,,"00,1,+99999,9,99,9",,"00,99,1,00,1,00,1,99999,9,00,1,00,1",,"01,9",,"120,M,+0145,1","180,N,-0008,1","99999,9,08261,1","7,1,011,1,+146,1",,"SYN106AAXX  28001 76373 32970 01101 10100 21145 38261 40219 57011 92350 333 10145 21008 30/// 50421 58146 70000;","Q01-001453ATOD  Q02  00002PRCP24"
"76373099999","2011-11-28T03:00:00","4","25.35","-105.75","1967.0","TEPEHUANES DGO., MX","FM-12","99999","V020","999,9,C,0000,1","22000,1,9,N","005000,1,N,1","+0018,1","-0076,1","10233,1",,,,,"00,1,+99999,9,99,9",,"00,99,1,00,1,00,1,99999,9,00,1,00,1",,"01,9",,,,"99999,9,08272,1","2,1,011,1,+999,9",,"SYN082AAXX  28031 76373 32950 00000 10018 21076 38272 40233 52011 90250 333 30/// 58///;",
"76373099999","2011-11-28T12:00:00","4","25.35","-105.75","1967.0","TEPEHUANES DGO., MX","FM-12","99999","V020","999,9,C,0000,1","22000,1,9,N","005000,1,N,1","+0175,1","-0105,1","10244,1",,,,,"00,1,+99999,9,99,9",,"00,99,1,00,1,00,1,99999,9,00,1,00,1","0588,9","09,9",,"120,N,-0090,1","240,M,+9999,9","99999,9,08281,1","9,9,999,9,-013,1",,"SYN112AAXX  28121 76373 32950 00000 10175 21105 38281 40244 5//// 91150 333 10145 21090 31110 55098 21852 59013 70000;","Q01 +01452ATMX  "
"76373099999","2011-11-28T15:00:00","4","25.35","-105.75","1967.0","TEPEHUANES DGO., MX","FM-12","99999","V020","999,9,C,0000,1","22000,1,9,N","020000,1,N,1","+9999,9","-0079,1","10248,1",,,,,"00,1,+99999,9,99,9",,"00,99,1,00,1,00,1,99999,9,00,1,00,1",,"01,9",,,,"99999,9,08284,1","2,1,003,1,-030,1",,"SYN082AAXX  28151 76373 32970 00000 11035 21079 38284 40248 52003 91450 333 30/// 59030;","Q01-000353ATOT  Q02 -00353ATOT  "
"76373099999","2011-11-28T21:00:00","4","25.35","-105.75","1967.0","TEPEHUANES DGO., MX","FM-12","99999","V020","110,1,N,0010,1","22000,1,9,N","020000,1,N,1","+0175,1","-0157,1","10183,1",,,,,"00,1,+99999,9,99,9",,"00,99,1,00,1,00,1,99999,9,00,1,00,1",,"01,9",,,,"99999,9,08231,1","7,1,030,1,-041,1",,"SYN082AAXX  28211 76373 32970 01101 10175 21157 38231 40183 57030 92050 333 30/// 59041;",
"76373099999","2011-11-29T00:00:00","4","25.35","-105.75","1967.0","TEPEHUANES DGO., MX","FM-12","99999","V020","999,9,C,0000,1","22000,1,9,N","020000,1,N,1","+0147,1","-0151,1","10175,1","24,0000,9,1",,,,"00,1,+99999,9,99,9",,"00,99,1,00,1,00,1,99999,9,00,1,00,1",,"01,9",,"120,M,+0200,1","180,N,-0090,1","99999,9,08225,1","7,1,006,1,-036,1",,"SYN106AAXX  29001 76373 32970 00000 10147 21151 38225 40175 57006 92350 333 10200 21090 30/// 50251 59036 70000;","Q01  00002PRCP24"
"76373099999","2011-11-29T15:00:00","4","25.35","-105.75","1967.0","TEPEHUANES DGO., MX","FM-12","99999","V020","999,9,C,0000,1","22000,1,9,N","015000,1,N,1","-0037,1","-0072,1","10228,1",,,,,"01,1,+00810,1,08,1",,"01,99,1,01,1,01,1,01250,1,00,1,00,1",,"01,9",,,,"99999,9,08268,1","2,1,019,1,-016,1",,"SYN100AAXX  29151 76373 32665 10000 11037 21072 38268 40228 52019 81100 91450 333 30/// 56900 59016 81827;",
"76373099999","2011-11-29T18:00:00","4","25.35","-105.75","1967.0","TEPEHUANES DGO., MX","FM-12","99999","V020","120,1,N,0010,1","22000,1,9,N","020000,1,N,1","+9999,9","-0081,1","10212,1",,,,,"01,1,+00810,1,08,1",,"01,99,1,01,1,01,1,01250,1,00,1,00,1",,"01,9",,"120,M,+0140,1","240,N,-0080,1","99999,9,08255,1","7,1,013,1,-006,1",,"SYN112AAXX  29181 76373 32670 11201 10124 21081 38255 40212 57013 81100 91750 333 10140 21080 30/// 56900 59006 81827;","Q01+001243ATOT  "
"76373099999","2011-11-29T21:00:00","4","25.35","-105.75","1967.0","TEPEHUANES DGO., MX","FM-12","99999","V020","120,1,N,0010,1","22000,1,9,N","020000,1,N,1","+0218,1","-0141,1","10163,1",,,,,"01,1,+00810,1,08,1",,"01,99,1,01,1,08,1,01250,1,00,1,00,1",,"01,9",,,,"99999,9,08216,1","7,1,039,1,-015,1",,"SYN100AAXX  29211 76373 32670 11201 10218 21141 38216 40163 57039 81800 92050 333 30/// 56900 59015 81827;",
"76373099999","2011-11-30T00:00:00","4","25.35","-105.75","1967.0","TEPEHUANES DGO., MX","FM-12","99999","V020","120,1,N,0010,1","22000,1,9,N","020000,1,N,1","+0188,1","-0174,1","10155,1","24,0000,9,1",,,,,,"01,99,1,01,1,04,1,01250,1,00,1,00,1",,"01,9",,"120,M,+0240,1","180,N,-0080,1","99999,9,08209,1","7,1,007,1,-016,1",,"SYN124AAXX  30001 76373 32670 11201 10188 21174 38209 40155 57007 81400 92350 333 10240 21080 30/// 50271 56900 59016 70000 81626;",
"76373099999","2011-11-30T03:00:00","4","25.35","-105.75","1967.0","TEPEHUANES DGO., MX","FM-12","99999","V020","150,1,N,0010,1","22000,1,9,N","000400,1,N,1","+0078,1","-0077,1","10189,1",,,,,"01,1,+05100,1,00,1",,"01,99,1,00,1,00,1,99999,9,00,1,04,1",,"01,9",,,,"99999,9,08236,1","2,1,027,1,+999,9",,"SYN100AAXX  30031 76373 32904 11501 10078 21077 38236 40189 52027 80004 90250 333 30/// 56009 58/// 81067;",
"76373099999","2011-11-30T12:00:00","4","25.35","-105.75","1967.0","TEPEHUANES DGO., MX","FM-12","99999","V020","999,9,C,0000,1","22000,1,9,N","000400,1,N,1","-0046,1","-0074,1","10192,1",,,,,"00,1,+99999,9,99,9",,"00,99,1,00,1,00,1,99999,9,00,1,00,1","0582,9","09,9",,"120,N,-0052,1","240,M,+0240,1","99999,9,08239,1","9,9,999,9,-010,1",,"SYN112AAXX  30121 76373 32904 00000 11046 21074 38239 40192 5//// 91150 333 10240 21052 31064 55097 22062 59010 70000;",
"76373099999","2011-11-30T15:00:00","4","25.35","-105.75","1967.0","TEPEHUANES DGO., MX","FM-12","99999","V020","999,9,C,0000,1","22000,1,9,N","015000,1,N,1","-0015,1","-0067,1","10200,1",,,,,"02,1,+05100,1,00,1",,"02,99,1,00,1,00,1,99999,9,00,1,04,1",,"01,9",,,,"99999,9,08245,1","2,1,006,1,-023,1",,"SYN100AAXX  30151 76373 32965 20000 11015 21067 38245 40200 52006 80004 91450 333 30/// 56009 59023 82067;",
"76373099999","2011-11-30T18:00:00","4","25.35","-105.75","1967.0","TEPEHUANES DGO., MX","FM-12","99999","V020","999,9,C,0000,1","22000,1,9,N","020000,1,N,1","+0143,1","-0092,1","10180,1",,,,,"02,1,+05100,1,00,1",,"02,99,1,00,1,00,1,99999,9,00,1,04,1",,"01,9",,"120,M,+0156,1","240,N,-0052,1","99999,9,08229,1","7,1,016,1,-026,1",,"SYN112AAXX  30181 76373 32970 20000 10143 21092 38229 40180 57016 80004 91750 333 10156 21052 30/// 56009 59026 82067;",
"76373099999","2011-11-30T21:00:00","4","25.35","-105.75","1967.0","TEPEHUANES DGO., MX","FM-12","99999","V020","140,1,N,0010,1","22000,1,9,N","020000,1,N,1","+0228,2","-0132,1","10126,1",,,,,"01,1,+05100,1,00,1",,"01,99,1,00,1,00,1,99999,9,00,1,04,1",,"01,9",,,,"99999,9,08185,1","7,1,048,1,-031,1",,"SYN100AAXX  30211 76373 32970 11401 10228 21132 38185 40126 57048 80004 92050 333 30/// 56009 59031 81067;",
"76373099999","2011-12-01T03:00:00","4","25.35","-105.75","1967.0","TEPEHUANES DGO., MX","FM-12","99999","V020","999,9,C,0000,1","22000,1,9,N","000400,1,N,1","+0092,1","-0093,1","10148,1",,,,,"01,1,+05100,1,02,1",,"01,99,1,00,1,00,1,99999,9,00,1,08,1",,"01,9",,,,"99999,9,08203,1","2,1,019,1,-033,1",,"SYN100AAXX  01031 76373 32904 10000 10092 21093 38203 40148 52019 80008 90250 333 30/// 56009 59033 81267;",
"76373099999","2011-12-01T12:00:00","4","25.35","-105.75","1967.0","TEPEHUANES DGO., MX","FM-12","99999","V020","999,9,C,0000,1","22000,1,9,N","000600,1,N,1","-0033,1","-0080,1","10148,1",,,,,"00,1,+99999,9,99,9",,"00,99,1,00,1,00,1,99999,9,00,1,00,1","0570,9","09,9",,"120,N,-0041,1","240,M,+0260,1","99999,9,08203,1","9,9,999,9,-036,1",,"SYN112AAXX  01121 76373 32906 00000 11033 21080 38203 40148 5//// 91150 333 10260 21041 31053 55095 21901 59036 70000;",
"76373099999","2011-12-01T15:00:00","4","25.35","-105.75","1967.0","TEPEHUANES DGO., MX","FM-12","99999","V020","999,9,C,0000,1","22000,1,9,N","015000,1,N,1","-0003,1","-0059,1","10158,1",,,,,"01,1,+05100,1,02,1",,"01,99,1,00,1,00,1,99999,9,00,1,08,1",,"01,9",,,,"99999,9,08212,1","2,1,009,1,-033,1",,"SYN100AAXX  01151 76373 32965 10000 11003 21059 38212 40158 52009 80008 91445 333 30/// 56009 59033 81267;",
"76373099999","2011-12-01T18:00:00","4","25.35","-105.75","1967.0","TEPEHUANES DGO., MX","FM-12","99999","V020","200,1,N,0030,1","22000,1,9,N","030000,1,N,1","+9999,9","-0011,1","10143,1",,,,,"02,1,+05100,1,00,1",,"02,99,1,00,1,00,1,99999,9,00,1,02,1",,"01,9",,"120,M,+0200,1","240,N,-0041,1","99999,9,08199,1","7,1,013,1,-030,1",,"SYN112AAXX  01181 76373 32980 22003 10196 21011 38199 40143 57013 80002 91755 333 10200 21041 30/// 56009 59030 82067;","Q01+001963ATOT  "
"76373099999","2011-12-01T21:00:00","4","25.35","-105.75","1967.0","TEPEHUANES DGO., MX","FM-12","99999","V020","160,1,N,0030,1","22000,1,9,N","030000,1,N,1","+0216,2","-0016,1","10127,1",,,,,"01,1,+00750,1,08,1",,"02,99,1,02,1,01,1,00800,1,01,1,00,1",,"01,9",,,,"99999,9,08186,1","7,1,011,1,+001,1",,"SYN106AAXX  01211 76373 32580 21603 10216 21016 38186 40127 57011 82110 92055 333 30/// 56990 58001 81825 81337;",
"76373099999","2011-12-02T00:00:00","4","25.35","-105.75","1967.0","TEPEHUANES DGO., MX","FM-12","99999","V020","160,1,N,0020,1","22000,1,9,N","030000,1,N,1","+0166,1","-0013,1","10137,1","24,0000,9,1",,,,,,"02,99,1,02,1,02,1,00800,1,00,1,00,1",,"01,9",,"120,M,+0228,1","180,N,-0041,1","99999,9,08194,1","1,1,008,1,+010,1",,"SYN124AAXX  02001 76373 32580 21602 10166 21013 38194 40137 51008 82200 92355 333 10228 21041 30/// 50441 56900 58010 70000 82820;",
"76373099999","2011-12-03T03:00:00","4","25.35","-105.75","1967.0","TEPEHUANES DGO., MX","FM-12","99999","V020","999,9,C,0000,1","22000,1,9,N","001000,1,N,1","+0092,1","-0017,1","10147,1",,,,,"00,1,+99999,9,99,9",,"00,99,1,00,1,00,1,99999,9,00,1,00,1",,"01,9",,,,"99999,9,08203,1","2,1,012,1,-013,1",,"SYN082AAXX  03031 76373 32910 00000 10092 21017 38203 40147 52012 90255 333 30/// 59013;",
"76373099999","2011-12-03T06:00:00","4","25.35","-105.75","1967.0","TEPEHUANES DGO., MX","FM-12","99999","V020","110,1,N,0010,1","22000,1,9,N","001000,1,N,1","+0096,1","+0003,1","10129,1",,,,,,,"01,99,1,00,1,00,1,99999,9,00,1,01,1","0294,9","01,9",,"240,M,+0218,1","240,N,-0010,1","99999,9,08188,1","7,1,015,1,-033,1",,"SYN124AAXX  03061 76373 32910 11101 10096 20003 38188 40129 57015 80001 90550 333 10218 21010 30/// 55049 21159 56009 59033 81067;",
"76373099999","2011-12-03T15:00:00","4","25.35","-105.75","1967.0","TEPEHUANES DGO., MX","FM-12","99999","V020","230,1,N,0010,1","22000,1,9,N","030000,1,N,1","+0108,1","+0026,1","10147,1",,,,,"03,1,+00600,1,06,1",,"03,99,1,03,1,03,1,00800,1,00,1,00,1",,"01,9",,,,"99999,9,08202,1","2,1,009,1,-026,1",,"SYN100AAXX  03151 76373 32580 32301 10108 20026 38202 40147 52009 83300 91450 333 30/// 56900 59026 83620;",
"76373099999","2011-12-03T18:00:00","4","25.35","-105.75","1967.0","TEPEHUANES DGO., MX","FM-12","99999","V020","200,1,N,0010,1","22000,1,9,N","030000,1,N,1","+0164,1","+0058,1","10153,1",,,,,"03,1,+00600,1,08,1",,"04,99,1,04,1,03,1,00800,1,01,1,00,1",,"01,9",,"120,M,+0220,1","240,N,+0000,1","99999,9,08208,1","2,1,006,1,+005,1",,"SYN117AAXX  03181 76373 32580 42001 10164 20058 38208 40153 52006 84310 91750 333 10220 21000 30/// 56990 58005 83820 1337;",
"76373099999","2011-12-03T21:00:00","4","25.35","-105.75","1967.0","TEPEHUANES DGO., MX","FM-12","99999","V020","160,1,N,0030,1","00750,1,C,N","030000,1,N,1","+0190,1","+9999,9","10130,1",,,,,"03,1,+00600,1,08,1",,"06,99,1,06,1,03,1,00800,1,03,1,00,1",,"01,9",,,,"99999,9,08199,1","7,1,023,1,+008,1",,"SYN100AAXX  03211 76373 35580 61603 10190 21057 38199 40130 57023 86330 92050 333 30/// 58008 83820 83337;","Q01-000573ATOD  "
"76373099999","2011-12-04T00:00:00","4","25.35","-105.75","1967.0","TEPEHUANES DGO., MX","FM-12","99999","V020","160,1,N,0030,1","00750,1,9,N","030000,1,N,1","+0151,1","+0036,1","10144,1","24,0000,9,1",,,,"03,1,+00600,1,08,1",,"06,99,1,06,1,03,1,00800,1,03,1,00,1",,"01,9",,"120,M,+0220,1","180,N,+0000,1","99999,9,08200,1","2,1,005,1,+015,1",,"SYN130AAXX  04001 76373 35580 61603 10151 20036 38200 40144 52005 86330 92355 333 10220 21000 30/// 50381 56900 58015 70000 83820 83337;",
"76373099999","2011-12-04T03:00:00","4","25.35","-105.75","1967.0","TEPEHUANES DGO., MX","FM-12","99999","V020","999,9,C,0000,1","22000,1,9,N","001000,1,N,1","+0120,1","+0024,1","10156,1",,,,,"00,1,+99999,9,99,9",,"00,99,1,00,1,00,1,99999,9,00,1,00,1",,"01,9",,,,"99999,9,08210,1","2,1,012,1,+005,1",,"SYN082AAXX  04031 76373 32910 00000 10120 20024 38210 40156 52012 90250 333 30/// 58005;",
"76373099999","2011-12-04T06:00:00","4","25.35","-105.75","1967.0","TEPEHUANES DGO., MX","FM-12","99999","V020","999,9,C,0000,1","22000,1,9,N","001000,1,N,1","+0087,1","+0012,1","10155,1",,,,,"00,1,+99999,9,99,9",,"00,99,1,00,1,00,1,99999,9,00,1,00,1",,"01,9",,"240,M,+0220,1",,"99999,9,08209,1","7,1,006,1,+999,9",,"SYN106AAXX  04061 76373 32910 00000 10087 20012 38209 40155 57006 90550 333 10220 20540 30/// 55616 21159 58016;",
"76373099999","2011-12-04T12:00:00","4","25.35","-105.75","1967.0","TEPEHUANES DGO., MX","FM-12","99999","V020","999,9,C,0000,1","22000,1,9,N","001000,1,N,1","+0011,1","-0006,1","10140,1","24,0000,9,1",,,,"00,1,+99999,9,99,9",,"00,99,1,00,1,00,1,99999,9,00,1,00,1",,"01,9","999,+0030,9","120,N,+0000,1","240,M,+0220,1","99999,9,08197,1","9,9,999,9,+004,1",,"SYN100AAXX  04121 76373 32910 00000 10011 21006 38197 40140 5//// 91155 333 10220 21000 30030 58004 70000;","Q01  00002PRCP24"
"76373099999","2011-12-04T15:00:00","4","25.35","-105.75","1967.0","TEPEHUANES DGO., MX","FM-12","99999","V020","230,1,N,0010,1","22000,1,9,N","030000,1,N,1","+0012,1","-0003,1","10145,1",,,,,"02,1,+00600,1,08,1",,"03,99,1,99,9,02,1,00800,1,00,1,00,1",,"01,9",,,,"99999,9,08201,1","2,1,004,1,+001,1",,"SYN100AAXX  04151 76373 32580 32301 10012 21003 38201 40145 52004 84200 91450 333 30/// 58001 82820 82337;","Q01+000042SCOTLC"
"76373099999","2011-12-04T18:00:00","4","25.35","-105.75","1967.0","TEPEHUANES DGO., MX","FM-12","99999","V020","110,1,N,0010,1","22000,1,9,N","030000,1,N,1","+9999,9","+0012,1","10132,1",,,,,"01,1,+05100,1,00,1",,"01,99,1,00,1,00,1,99999,9,00,1,01,1",,"01,9",,"120,M,+0183,1","240,N,-0030,1","99999,9,08190,1","7,1,013,1,-002,1",,"SYN112AAXX  04181 76373 32980 11101 10176 20012 38190 40132 57013 80001 91750 333 10183 21030 30/// 56009 59002 81067;","Q01+001763ATOT  "
"76373099999","2011-12-04T21:00:00","4","25.35","-105.75","1967.0","TEPEHUANES DGO., MX","FM-12","99999","V020","160,1,N,0030,1","22000,1,9,N","030000,1,N,1","+0193,1","+0002,1","10110,1",,,,,"01,1,+00750,1,08,1",,"02,99,1,02,1,01,1,00800,1,01,1,00,1",,"01,9",,,,"99999,9,08172,1","7,1,018,1,-023,1",,"SYN100AAXX  04211 76373 32580 21603 10193 20002 38172 40110 57018 82110 92050 333 30/// 59023 81825 81337;",
"76373099999","2011-12-05T00:00:00","4","25.35","-105.75","1967.0","TEPEHUANES DGO., MX","FM-12","99999","V020","999,9,C,0000,1","22000,1,9,N","030000,1,N,1","+0151,1","-0007,1","10107,1","24,0000,9,1",,,,"00,1,+99999,9,99,9",,"00,99,1,00,1,00,1,99999,9,00,1,00,1",,"01,9",,"120,M,+0183,1","180,N,-0030,1","99999,9,08170,1","7,1,002,1,-038,1",,"SYN106AAXX  05001 76373 32980 00000 10151 21007 38170 40107 57002 92350 333 10183 21030 30/// 50381 59038 70000;","Q01  00002PRCP24"
"76373099999","2011-12-05T03:00:00","4","25.35","-105.75","1967.0","TEPEHUANES DGO., MX","FM-12","99999","V020","999,9,C,0000,1","22000,1,9,N","001000,1,N,1","+0105,1","-0007,1","10126,1",,,,,"00,1,+99999,9,99,9",,"00,99,1,00,1,00,1,99999,9,00,1,00,1",,"01,9",,,,"99999,9,08185,1","2,1,019,1,-003,1",,"SYN082AAXX  05031 76373 32910 00000 10105 21007 38185 40126 52019 90240 333 30/// 59003;",
"76373099999","2011-12-05T06:00:00","4","25.35","-105.75","1967.0","TEPEHUANES DGO., MX","FM-12","99999","V020","999,9,C,0000,1","22000,1,9,N","001000,1,N,1","+0059,1","-0005,1","10148,1",,,,,"00,1,+99999,9,99,9",,"00,99,1,00,1,00,1,99999,9,00,1,00,1","0558,9","01,9",,"240,M,+0183,1","240,N,+9999,9","99999,9,08203,1","2,1,018,1,+999,9",,"SYN106AAXX  05061 76373 32910 00000 10059 21005 38203 40148 52018 90550 333 10183 21301 30/// 55093 21164 59001;","Q01 -03012ATMN  "
"76373099999","2011-12-05T12:00:00","4","25.35","-105.75","1967.0","TEPEHUANES DGO., MX","FM-12","99999","V020","999,9,C,0000,1","22000,1,9,N","001000,1,N,1","-0035,1","-0050,1","10140,1","24,0000,9,1",,,,"00,1,+99999,9,99,9",,"00,99,1,00,1,00,1,99999,9,00,1,00,1",,"01,9","999,+0030,9","120,N,-0050,1","240,M,+0183,1","99999,9,08196,1","9,9,999,9,-001,1",,"SYN100AAXX  05121 76373 32910 00000 11035 21050 38196 40140 5//// 91155 333 10183 21050 30030 59001 70000;","Q01  00002PRCP24"
"76373099999","2011-12-05T15:00:00","4","25.35","-105.75","1967.0","TEPEHUANES DGO., MX","FM-12","99999","V020","999,9,C,0000,1","22000,1,9,N","001000,1,N,1","-0030,1","-0072,1","10162,1",,,,,"00,1,+99999,9,99,9",,"00,99,1,00,1,00,1,99999,9,00,1,00,1",,"01,9",,,,"99999,9,08214,1","2,1,018,1,+013,1",,"SYN082AAXX  05151 76373 32910 00000 11030 21072 38214 40162 52018 91450 333 30/// 58013;",
"76373099999","2011-12-05T18:00:00","4","25.35","-105.75","1967.0","TEPEHUANES DGO., MX","FM-12","99999","V020","999,9,C,0000,1","22000,1,9,N","020000,1,N,1","+0110,1","-0077,1","10140,1",,,,,"00,1,+99999,9,99,9",,"00,99,1,00,1,00,1,99999,9,00,1,00,1",,"01,9",,"120,M,+0115,1","240,N,-0050,1","99999,9,08197,1","7,1,017,1,+007,1",,"SYN094AAXX  05181 76373 32970 00000 10110 21077 38197 40140 57017 91750 333 10115 21050 30/// 58007;",
"76373099999","2011-12-05T21:00:00","4","25.35","-105.75","1967.0","TEPEHUANES DGO., MX","FM-12","99999","V020","320,1,N,0030,1","22000,1,9,N","030000,1,N,1","+0214,2","+9999,9","10100,1",,,,,"01,1,+00750,1,08,1",,"02,99,1,02,1,01,1,00800,1,01,1,00,1",,"01,9",,,,"99999,9,08165,1","7,1,032,1,+007,1",,"SYN100AAXX  05211 76373 35580 23203 10214 2//// 38165 40100 57032 82110 92055 333 30/// 58007 81825 81337;",
"76373099999","2011-12-06T00:00:00","4","25.35","-105.75","1967.0","TEPEHUANES DGO., MX","FM-12","99999","V020","160,1,N,0030,1","22000,1,9,N","030000,1,N,1","+0175,1","-0210,1","10111,1","24,0000,9,1",,,,"01,1,+00750,1,08,1",,"02,99,1,02,1,01,1,00800,1,01,1,00,1",,"01,9",,"120,M,+0220,1","180,N,-0051,1","99999,9,08173,1","2,1,008,1,+003,1",,"SYN130AAXX  06001 76373 32580 21603 10175 21210 38173 40111 52008 82110 92355 333 10220 21051 30/// 50381 56900 58003 70000 81825 81337;",
"76373099999","2011-12-06T03:00:00","4","25.35","-105.75","1967.0","TEPEHUANES DGO., MX","FM-12","99999","V020","999,9,C,0000,1","22000,1,9,N","001000,1,N,1","+0086,1","-0103,1","10137,1",,,,,"00,1,+99999,9,99,9",,"00,99,1,00,1,00,1,99999,9,00,1,00,1",,"01,9",,,,"99999,9,08194,1","2,1,021,1,+009,1",,"SYN082AAXX  06031 76373 32910 00000 10086 21103 38194 40137 52021 90250 333 30/// 58009;",
"76373099999","2011-12-06T06:00:00","4","25.35","-105.75","1967.0","TEPEHUANES DGO., MX","FM-12","99999","V020","999,9,C,0000,1","22000,1,9,N","001000,1,N,1","+0001,1","-0127,1","10152,1",,,,,"00,1,+99999,9,99,9",,"00,99,1,00,1,00,1,99999,9,00,1,00,1","0576,9","01,9",,"240,M,+0220,1","240,N,-0051,1","99999,9,08206,1","2,1,012,1,+999,9",,"SYN106AAXX  06061 76373 32910 00000 10001 21127 38206 40152 52012 90550 333 10220 21051 30/// 55096 22714 58003;",
"76373099999","2011-12-06T15:00:00","4","25.35","-105.75","1967.0","TEPEHUANES DGO., MX","FM-12","99999","V020","999,9,C,0000,1","22000,1,9,N","030000,1,N,1","-0053,1","-0110,1","10167,1",,,,,"03,1,+00600,1,06,1",,"03,99,1,03,1,03,1,00800,1,00,1,00,1",,"01,9",,,,"99999,9,08219,1","2,1,012,1,+005,1",,"SYN100AAXX  06151 76373 32580 32300 11053 21110 38219 40167 52012 83300 91450 333 30/// 56900 58005 83620;",
"76373099999","2011-12-06T18:00:00","4","25.35","-105.75","1967.0","TEPEHUANES DGO., MX","FM-12","99999","V020","110,1,N,0010,1","22000,1,9,N","030000,1,N,1","+9999,9","-0100,1","10172,1",,,,,"01,1,+05100,1,00,1",,"01,99,1,00,1,00,1,99999,9,00,1,01,1",,"01,9",,"120,M,+0130,1","240,N,-0063,1","99999,9,08222,1","2,1,005,1,+025,1",,"SYN112AAXX  06181 76373 32980 11101 10107 21100 38222 40172 52005 80001 91755 333 10130 21063 30/// 56009 58025 81067;","Q01+001073ATOT  "
"76373099999","2011-12-06T21:00:00","4","25.35","-105.75","1967.0","TEPEHUANES DGO., MX","FM-12","99999","V020","999,9,C,0000,1","01800,1,9,N","015000,1,N,1","+0208,2","-0017,1","99999,9",,,,,"06,1,+01800,1,03,1",,"06,99,1,06,1,00,1,01750,1,07,1,00,1",,"01,9",,,,,"7,1,065,1,-008,1",,"SYN100AAXX  06211 76373 32765 60000 10208 21017 38157 40091 57065 86070 92050 333 30/// 56090 59008 86356;","Q01+081573APOSP "
"76373099999","2011-12-07T00:00:00","4","25.35","-105.75","1967.0","TEPEHUANES DGO., MX","FM-12","99999","V020","150,1,N,0010,1","99999,9,9,N","015000,1,N,1","+0184,1","+9999,9","10144,1","24,0000,9,1",,,,,,"05,99,1,00,1,00,1,99999,9,00,1,04,1",,"01,9",,"120,M,+0222,1","180,N,-0063,1","99999,9,08196,1","7,1,004,1,+023,1",,"SYN124AAXX  07001 76373 32965 51501 10184 21208 38196 40144 57004 80004 92350 333 10222 21063 30/// 50261 56009 58023 70000 85067;","Q01-002083ATOD  "
"76373099999","2011-12-07T03:00:00","4","25.35","-105.75","1967.0","TEPEHUANES DGO., MX","FM-12","99999","V020","999,9,C,0000,1","09000,1,C,N","000600,1,N,1","+0082,1","-0137,1","10177,1",,,,,"03,1,+01800,1,03,1",,"06,99,1,03,1,00,1,01750,1,07,1,08,1",,"01,9",,,,"99999,9,08226,1","2,1,030,1,+032,1",,"SYN106AAXX  07031 76373 32706 60000 10082 21137 38226 40177 52030 83078 90250 333 30/// 56099 58032 83356 83067;",
"76373099999","2011-12-07T06:00:00","4","25.35","-105.75","1967.0","TEPEHUANES DGO., MX","FM-12","99999","V020","999,9,C,0000,1","22000,1,9,N","000600,1,N,1","+0029,1","-0116,1","10195,1",,,,,,,"02,99,1,00,1,00,1,99999,9,00,1,08,1","0468,9","01,9",,"240,M,+0222,1","240,N,-0063,1","99999,9,08241,1","2,1,015,1,+035,1",,"SYN124AAXX  07061 76373 32906 20000 10029 21116 38241 40195 52015 80008 90550 333 10222 21063 30/// 55078 21603 56009 58035 82267;",
"76373099999","2011-12-07T15:00:00","4","25.35","-105.75","1967.0","TEPEHUANES DGO., MX","FM-12","99999","V020","999,9,C,0000,1","22000,1,9,N","015000,1,N,1","-0021,1","-0091,1","10218,1",,,,,"01,1,+00810,1,08,1",,"01,99,1,01,1,01,1,01250,1,00,1,00,1",,"01,9",,,,"99999,9,08260,1","2,1,024,1,+041,1",,"SYN100AAXX  07151 76373 32665 10000 11021 21091 38260 40218 52024 81100 91450 333 30/// 56900 58041 81827;",
"76373099999","2011-12-07T18:00:00","4","25.35","-105.75","1967.0","TEPEHUANES DGO., MX","FM-12","99999","V020","999,9,C,0000,1","22000,1,9,N","020000,1,N,1","+0126,1","-0095,1","10210,1",,,,,"03,1,+05100,1,00,1",,"03,99,1,00,1,00,1,99999,9,00,1,04,1",,"01,9",,"120,M,+0137,1","240,N,-0052,1","99999,9,08253,1","8,1,007,1,+031,1",,"SYN112AAXX  07181 76373 32970 30000 10126 21095 38253 40210 58007 80004 91750 333 10137 21052 30/// 56009 58031 83067;",
"76373099999","2011-12-07T21:00:00","4","25.35","-105.75","1967.0","TEPEHUANES DGO., MX","FM-12","99999","V020","140,1,N,0010,1","22000,1,9,N","020000,1,N,1","+0184,2","-0142,1","10160,1",,,,,"01,1,+00810,1,08,1",,"01,99,1,01,1,02,1,01250,1,00,1,00,1",,"01,9",,,,"99999,9,08213,1","7,1,040,1,+013,1",,"SYN100AAXX  07211 76373 32670 11401 10184 21142 38213 40160 57040 81200 92050 333 30/// 56300 58013 81827;",
"76373099999","2011-12-08T00:00:00","4","25.35","-105.75","1967.0","TEPEHUANES DGO., MX","FM-12","99999","V020","999,9,C,0000,1","22000,1,9,N","020000,1,N,1","+0155,1","-0142,1","10146,1","24,0000,9,1",,,,,,"02,99,1,00,1,00,1,99999,9,00,1,04,1",,"01,9",,"120,M,+0210,1","180,N,-0052,1","99999,9,08201,1","7,1,012,1,+005,1",,"SYN124AAXX  08001 76373 32970 20000 10155 21142 38201 40146 57012 80004 92350 333 10210 21052 30/// 50301 56009 58005 70000 82067;",
"76373099999","2011-12-08T06:00:00","4","25.35","-105.75","1967.0","TEPEHUANES DGO., MX","FM-12","99999","V020","999,9,C,0000,1","22000,1,9,N","000600,1,N,1","+0009,1","-0103,1","10172,1",,,,,,,"02,99,1,00,1,00,1,99999,9,00,1,04,1","0582,9","01,9",,"240,M,+0210,1","240,N,-0052,1","99999,9,08222,1","2,1,003,1,-019,1",,"SYN124AAXX  08061 76373 32906 20000 10009 21103 38222 40172 52003 80004 90550 333 10210 21052 30/// 55097 21949 56009 59019 82067;",
"76373099999","2011-12-08T15:00:00","4","25.35","-105.75","1967.0","TEPEHUANES DGO., MX","FM-12","99999","V020","999,9,C,0000,1","22000,1,9,N","015000,1,N,1","-0026,1","-0123,1","10190,1",,,,,"02,1,+05100,1,00,1",,"02,99,1,00,1,00,1,99999,9,00,1,04,1",,"01,9",,,,"99999,9,08237,1","2,1,007,1,-023,1",,"SYN100AAXX  08151 76373 32965 20000 11026 21123 38237 40190 52007 80004 91450 333 30/// 56009 59023 82067;",
"76373099999","2011-12-08T18:00:00","4","25.35","-105.75","1967.0","TEPEHUANES DGO., MX","FM-12","99999","V020","999,9,C,0000,1","22000,1,9,N","030000,1,N,1","+9999,9","-0056,1","10176,1",,,,,"01,1,+05100,1,00,1",,"01,99,1,00,1,00,1,99999,9,00,1,01,1",,"01,9",,"120,M,+0190,1","240,N,-0050,1","99999,9,08226,1","7,1,011,1,-027,1",,"SYN112AAXX  08181 76373 32980 10000 10172 21056 38226 40176 57011 80001 91755 333 10190 21050 30/// 56009 59027 81067;","Q01+001723ATOT  "
"76373099999","2011-12-08T21:00:00","4","25.35","-105.75","1967.0","TEPEHUANES DGO., MX","FM-12","99999","V020","999,9,C,0000,1","22000,1,9,N","030000,1,N,1","+0172,1","-0056,1","10176,1",,,,,"01,1,+05100,1,00,1",,"01,99,1,00,1,00,1,99999,9,00,1,01,1",,"01,9",,"999,M,+0190,1","999,N,-0050,1","99999,9,08226,1","7,1,011,1,-027,1",,"SYN112AAXX  08211 76373 32980 10000 10172 21056 38226 40176 57011 80001 91755 333 10190 21050 30/// 56009 59027 81067;",
"76373099999","2011-12-09T00:00:00","4","25.35","-105.75","1967.0","TEPEHUANES DGO., MX","FM-12","99999","V020","160,1,N,0010,1","03600,1,9,N","030000,1,N,1","+0180,1","-0047,1","10147,1","24,0000,9,1",,,,"02,1,+00750,1,08,1","02,1,+01110,1,03,1","06,99,1,04,1,02,1,00800,1,02,1,02,1",,"01,9",,"120,M,+0244,1","180,N,-0050,1","99999,9,08202,1","1,1,001,1,+001,1",,"SYN136AAXX  09001 76373 32580 61601 10180 21047 38202 40147 51001 84222 92350 333 10244 21050 30/// 50431 56999 58001 70000 82825 82337 82067;",
"76373099999","2011-12-09T03:00:00","4","25.35","-105.75","1967.0","TEPEHUANES DGO., MX","FM-12","99999","V020","999,9,C,0000,1","03600,1,C,N","001000,1,N,1","+0116,1","-0037,1","10170,1",,,,,"01,1,+00750,1,08,1","02,1,+01110,1,03,1","06,99,1,03,1,01,1,00800,1,02,1,03,1",,"01,9",,,,"99999,9,08221,1","2,1,011,1,+002,1",,"SYN112AAXX  09031 76373 32510 60000 10116 21037 38221 40170 52011 83123 90555 333 30/// 56999 58002 81825 82337 83067;",
"76373099999","2011-12-09T06:00:00","4","25.35","-105.75","1967.0","TEPEHUANES DGO., MX","FM-12","99999","V020","999,9,C,0000,1","22000,1,9,N","001000,1,N,1","+0078,1","-0032,1","10173,1",,,,,"01,1,+00750,1,08,1","02,1,+01110,1,03,1","04,99,1,03,1,01,1,00800,1,02,1,01,1","0546,9","01,9",,"240,M,+0144,1","240,N,-0050,1","99999,9,08223,1","1,1,002,1,+001,1",,"SYN136AAXX  09061 76373 32510 40000 10078 21032 38223 40173 51002 83121 90545 333 10144 21050 30/// 55091 21650 56999 58001 81825 82337 81067;",
"76373099999","2011-12-09T12:00:00","4","25.35","-105.75","1967.0","TEPEHUANES DGO., MX","FM-12","99999","V020","999,9,C,0000,1","22000,1,9,N","001000,1,N,1","+0009,1","-0032,1","10163,1","24,0000,9,1",,,,"01,1,+01110,1,03,1",,"02,99,1,01,1,00,1,00800,1,01,1,01,1",,"09,9","999,-0014,9","120,N,+0006,1","240,M,+0244,1","99999,9,08216,1","9,9,999,9,-014,1",,"SYN124AAXX  09121 76373 32510 20000 10009 21032 38216 40163 5//// 81011 91150 333 10244 20006 31014 56099 59014 70000 81337 81067;",
"76373099999","2011-12-09T15:00:00","4","25.35","-105.75","1967.0","TEPEHUANES DGO., MX","FM-12","99999","V020","999,9,C,0000,1","22000,1,9,N","020000,1,N,1","+0020,1","-0030,1","10183,1",,,,,"02,1,+00750,1,08,1","01,1,+01110,1,03,1","04,99,1,03,1,02,1,00800,1,01,1,01,1",,"01,9",,,,"99999,9,08231,1","2,1,015,1,+006,1",,"SYN112AAXX  09151 76373 32570 40000 10020 21030 38231 40183 52015 83211 91455 333 30/// 56999 58006 82825 81337 81067;",
"76373099999","2011-12-09T18:00:00","4","25.35","-105.75","1967.0","TEPEHUANES DGO., MX","FM-12","99999","V020","160,1,N,0010,1","03600,1,C,N","030000,1,N,1","+0154,1","+0004,1","10173,1",,,,,"02,1,+00750,1,08,1","01,1,+01110,1,03,1","05,99,1,03,1,02,1,00800,1,01,1,02,1",,"01,9",,"120,M,+0178,1","240,N,-0006,1","99999,9,08224,1","7,1,007,1,-002,1",,"SYN124AAXX  09181 76373 32580 51601 10154 20004 38224 40173 57007 83212 91755 333 10178 21006 30/// 56999 59002 82825 81337 82067;",
"76373099999","2011-12-09T21:00:00","4","25.35","-105.75","1967.0","TEPEHUANES DGO., MX","FM-12","99999","V020","140,1,N,0010,1","03600,1,C,N","030000,1,N,1","+0220,2","-0016,1","10149,1",,,,,"02,1,+00750,1,08,1","02,1,+01110,1,03,1","06,99,1,04,1,02,1,00800,1,02,1,02,1",,"01,9",,,,"99999,9,08204,1","7,1,020,1,+003,1",,"SYN112AAXX  09211 76373 32580 61401 10220 21016 38204 40149 57020 84222 92050 333 30/// 56999 58003 82825 82337 82067;",
"76373099999","2011-12-10T00:00:00","4","25.35","-105.75","1967.0","TEPEHUANES DGO., MX","FM-12","99999","V020","140,1,N,0010,1","03600,1,9,N","030000,1,N,1","+0176,1","-0006,1","10157,1","24,0000,9,1",,,,"02,1,+00750,1,08,1","02,1,+01110,1,03,1","05,99,1,03,1,02,1,00800,1,02,1,01,1",,"01,9",,"120,M,+0240,1","180,N,-0006,1","99999,9,08210,1","1,1,006,1,+008,1",,"SYN136AAXX  10001 76373 32580 51401 10176 21006 38210 40157 51006 83221 92355 333 10240 21006 30/// 50331 56999 58008 70000 82825 82337 81067;",
"76373099999","2011-12-10T03:00:00","4","25.35","-105.75","1967.0","TEPEHUANES DGO., MX","FM-12","99999","V020","999,9,C,0000,1","22000,1,9,N","001000,1,N,1","+0118,1","+0013,1","10173,1",,,,,"02,1,+01110,1,03,1",,"02,99,1,02,1,00,1,00800,1,02,1,00,1",,"01,9",,,,"99999,9,08223,1","2,1,013,1,+002,1",,"SYN100AAXX  10031 76373 32510 20000 10118 20013 38223 40173 52013 82020 90255 333 30/// 56090 58002 82337;",
"76373099999","2011-12-10T15:00:00","4","25.35","-105.75","1967.0","TEPEHUANES DGO., MX","FM-12","99999","V020","999,9,C,0000,1","00600,1,9,N","030000,1,N,1","+0058,1","+0017,1","10185,1",,,,,"06,1,+00600,1,06,1",,"08,99,1,08,1,08,1,00800,1,00,1,00,1",,"01,9",,,,"99999,9,08233,1","2,1,013,1,+002,1",,"SYN106AAXX  10151 76373 32580 80000 10058 20017 38233 40185 52013 88800 91445 333 30/// 56900 58002 86620 82725;",
"76373099999","2011-12-10T18:00:00","4","25.35","-105.75","1967.0","TEPEHUANES DGO., MX","FM-12","99999","V020","999,9,C,0000,1","00600,1,9,N","030000,1,N,1","+0107,1","+0024,1","10203,1",,,,,"06,1,+00600,1,06,1",,"08,99,1,08,1,08,1,00800,1,00,1,00,1",,"01,9",,"120,M,+0113,1","240,N,+0030,1","99999,9,08248,1","2,1,015,1,+024,1",,"SYN118AAXX  10181 76373 32580 80000 10107 20024 38248 40203 52015 88800 91750 333 10113 20030 30/// 56900 58024 86620 82725;",
"76373099999","2011-12-10T21:00:00","4","25.35","-105.75","1967.0","TEPEHUANES DGO., MX","FM-12","99999","V020","160,1,N,0010,1","03600,1,C,N","030000,1,N,1","+0181,1","+0017,1","10162,1",,,,,"02,1,+00750,1,08,1","02,1,+01110,1,03,1","06,99,1,04,1,02,1,00800,1,02,1,02,1",,"01,9",,,,"99999,9,08214,1","7,1,034,1,+001,1",,"SYN112AAXX  10211 76373 32580 61601 10181 20017 38214 40162 57034 84222 92050 333 30/// 56999 58001 82825 82337 82067;",
"76373099999","2011-12-11T00:00:00","4","25.35","-105.75","1967.0","TEPEHUANES DGO., MX","FM-12","99999","V020","120,1,N,0010,1","22000,1,9,N","020000,1,N,1","+0170,1","+0002,1","10132,1","24,0000,9,1",,,,,,"04,99,1,04,1,05,1,00800,1,00,1,00,1",,"01,9",,"120,M,+0200,1","180,N,+0030,1","99999,9,08190,1","7,1,024,1,-020,1",,"SYN124AAXX  11001 76373 32570 41201 10170 20002 38190 40132 57024 84500 92350 333 10200 20030 30/// 50221 56900 59020 70000 84625;",
"76373099999","2011-12-11T06:00:00","4","25.35","-105.75","1967.0","TEPEHUANES DGO., MX","FM-12","99999","V020","999,9,C,0000,1","22000,1,9,N","005000,1,N,1","+0048,1","-0018,1","10167,1",,,,,"00,1,+99999,9,99,9",,"00,99,1,00,1,00,1,99999,9,00,1,00,1","0210,9","01,9",,"240,M,+0200,1","240,N,+0030,1","99999,9,08214,1","2,1,009,1,+999,9",,"SYN106AAXX  11061 76373 32950 00000 10048 21018 38214 40167 52009 90550 333 10200 20030 30/// 55035 20846 59002;",
"76373099999","2011-12-11T12:00:00","4","25.35","-105.75","1967.0","TEPEHUANES DGO., MX","FM-12","99999","V020","999,9,C,0000,1","22000,1,9,N","005000,1,N,1","-0007,1","-0028,1","10152,1","24,0000,9,1",,,,,,"02,99,1,02,1,00,1,00800,1,03,1,00,1","0210,9","09,9","999,-0038,9","120,N,-0020,1","240,M,+0200,1","99999,9,08206,1","9,9,999,9,-014,1",,"SYN130AAXX  11121 76373 32550 20000 11007 21028 38206 40152 5//// 82030 91150 333 10200 21020 31038 55035 20846 56900 59014 70000 82330;",
"76373099999","2011-12-11T18:00:00","4","25.35","-105.75","1967.0","TEPEHUANES DGO., MX","FM-12","99999","V020","999,9,C,0000,1","22000,1,9,N","020000,1,N,1","+0158,1","+0005,1","10146,1",,,,,"04,1,+00900,1,06,1",,"04,99,1,04,1,99,9,00800,1,05,1,00,1",,"01,9",,"120,M,+9999,9","240,N,-0020,1","99999,9,08202,1","7,1,012,1,-046,1",,"SYN112AAXX  11181 76373 32570 40000 10158 20005 38202 40146 57012 84050 91750 333 10140 21020 30/// 56090 59046 84630;","Q01+000002SCOLCGQ02 +01402ATMX  "
"76373099999","2011-12-12T00:00:00","4","25.35","-105.75","1967.0","TEPEHUANES DGO., MX","FM-12","99999","V020","160,1,N,0010,1","22000,1,9,N","020000,1,N,1","+0195,1","-0010,1","10119,1","24,0000,9,1",,,,"00,1,+99999,9,99,9",,"00,99,1,00,1,00,1,99999,9,00,1,00,1",,"01,9",,"120,M,+0250,1","180,N,-0020,1","99999,9,08180,1","2,1,009,1,-010,1",,"SYN106AAXX  12001 76373 32970 01601 10195 21010 38180 40119 52009 92350 333 10250 21020 30/// 50261 59010 70000;","Q01  00002PRCP24"
"76373099999","2011-12-12T03:00:00","4","25.35","-105.75","1967.0","TEPEHUANES DGO., MX","FM-12","99999","V020","310,1,N,0010,1","22000,1,9,N","005000,1,N,1","+0129,1","+0012,1","10139,1",,,,,"00,1,+99999,9,99,9",,"00,99,1,00,1,00,1,99999,9,00,1,00,1",,"01,9",,,,"99999,9,08196,1","2,1,016,1,-014,1",,"SYN082AAXX  12031 76373 32950 03101 10129 20012 38196 40139 52016 90250 333 30/// 59014;",
"76373099999","2011-12-12T12:00:00","4","25.35","-105.75","1967.0","TEPEHUANES DGO., MX","FM-12","99999","V020","999,9,C,0000,1","22000,1,9,N","005000,1,N,1","+0024,1","-0010,1","10150,1",,,,,"00,1,+99999,9,99,9",,"00,99,1,00,1,00,1,99999,9,00,1,00,1","0516,9","09,9","999,-0010,9","120,N,+0011,1","240,M,+0250,1","99999,9,08205,1","9,9,999,9,-001,1",,"SYN112AAXX  12121 76373 32950 00000 10024 21010 38205 40150 5//// 91150 333 10250 20011 31010 55086 21578 59001 70000;",
"76373099999","2011-12-12T15:00:00","4","25.35","-105.75","1967.0","TEPEHUANES DGO., MX","FM-12","99999","V020","999,9,C,0000,1","01200,1,9,N","020000,1,N,1","+0032,1","-0007,1","10165,1",,,,,"08,1,+01200,1,03,1",,"08,99,1,08,1,00,1,01250,1,05,1,00,1",,"01,9",,,,"99999,9,08217,1","2,1,012,1,+999,9",,"SYN094AAXX  12151 76373 32670 80000 10032 21007 38217 40165 52012 88050 91450 333 30/// 56090 88340;",
"76373099999","2011-12-12T18:00:00","4","25.35","-105.75","1967.0","TEPEHUANES DGO., MX","FM-12","99999","V020","999,9,C,0000,1","01200,1,9,N","020000,1,N,1","+0186,1","-0032,1","10152,1",,,,,"05,1,+01200,1,03,1",,"05,99,1,05,1,00,1,01250,1,05,1,00,1",,"01,9",,"120,M,+0190,1","240,N,+0011,1","99999,9,08206,1","7,1,011,1,+004,1",,"SYN112AAXX  12181 76373 32670 50000 10186 21032 38206 40152 57011 85050 91750 333 10190 20011 30/// 56090 58004 85340;",
"76373099999","2011-12-12T21:00:00","4","25.35","-105.75","1967.0","TEPEHUANES DGO., MX","FM-12","99999","V020","160,1,N,0010,1","01200,1,9,N","020000,1,N,1","+0150,1","-0010,1","10130,1",,,,,"05,1,+01200,1,03,1",,"06,99,1,99,9,00,1,01250,1,05,1,00,1",,"01,9",,,,"99999,9,08189,1","2,1,008,1,+043,1",,"SYN100AAXX  12211 76373 32670 61601 10150 21010 38189 40130 52008 85050 92050 333 30/// 56090 58043 85340;","Q01+000052SCOTLC"
"76373099999","2011-12-13T00:00:00","4","25.35","-105.75","1967.0","TEPEHUANES DGO., MX","FM-12","99999","V020","110,1,N,0010,1","22000,1,9,N","001000,1,N,1","+0205,1","-0033,1","10137,1","24,0000,9,1",,,,,,"01,99,1,00,1,00,1,99999,9,00,1,01,1",,"01,9",,"120,M,+0260,1","180,N,+0011,1","99999,9,08194,1","7,1,002,1,+014,1",,"SYN124AAXX  13001 76373 32910 11101 10205 21033 38194 40137 57002 80001 92355 333 10260 20011 30/// 50211 56009 58014 70000 81067;",
"76373099999","2011-12-13T03:00:00","4","25.35","-105.75","1967.0","TEPEHUANES DGO., MX","FM-12","99999","V020","999,9,C,0000,1","22000,1,9,N","001000,1,N,1","+0135,1","+0009,1","10158,1",,,,,"00,1,+99999,9,99,9",,"00,99,1,00,1,00,1,99999,9,00,1,00,1",,"01,9",,,,"99999,9,08212,1","2,1,005,1,+016,1",,"SYN082AAXX  13031 76373 32910 00000 10135 20009 38212 40158 52005 90250 333 30/// 58016;",
"76373099999","2011-12-13T12:00:00","4","25.35","-105.75","1967.0","TEPEHUANES DGO., MX","FM-12","99999","V020","999,9,C,0000,1","22000,1,9,N","001000,1,N,1","+0037,1","-0004,1","10178,1","24,0000,9,1",,,,"01,1,+01110,1,03,1",,"02,99,1,01,1,00,1,00800,1,01,1,01,1","0516,9","09,9","999,-0010,9","120,N,+0020,1","240,M,+0260,1","99999,9,08227,1","9,9,999,9,+016,1",,"SYN136AAXX  13121 76373 32510 20000 10037 21004 38227 40178 5//// 81011 91150 333 10260 20020 31010 55086 21599 56099 58016 70000 81337 81067;",
"76373099999","2011-12-13T15:00:00","4","25.35","-105.75","1967.0","TEPEHUANES DGO., MX","FM-12","99999","V020","999,9,C,0000,1","00900,1,9,N","020000,1,N,1","+0041,1","-0001,1","10190,1",,,,,"05,1,+00900,1,04,1",,"05,99,1,99,9,00,1,00800,1,03,1,00,1",,"01,9",,,,"99999,9,08238,1","2,1,012,1,+021,1",,"SYN100AAXX  13151 76373 32570 50000 10041 21001 38238 40190 52012 84030 91455 333 30/// 56900 58021 85430;","Q01+000042SCOTLC"
"76373099999","2011-12-13T18:00:00","4","25.35","-105.75","1967.0","TEPEHUANES DGO., MX","FM-12","99999","V020","999,9,C,0000,1","22000,1,9,N","030000,1,N,1","+0171,1","+0039,1","10181,1",,,,,"01,1,+05100,1,00,1",,"01,99,1,00,1,00,1,99999,9,00,1,01,1",,"01,9",,"120,M,+0190,1","240,N,+0020,1","99999,9,08230,1","6,1,008,1,+027,1",,"SYN112AAXX  13181 76373 32980 10000 10171 20039 38230 40181 56008 80001 91755 333 10190 20020 30/// 56009 58027 81067;",
"76373099999","2011-12-13T21:00:00","4","25.35","-105.75","1967.0","TEPEHUANES DGO., MX","FM-12","99999","V020","160,1,N,0010,1","01200,1,9,N","020000,1,N,1","+0230,1","+0043,1","10155,1",,,,,"06,1,+01200,1,03,1",,"06,99,1,99,9,00,1,01250,1,06,1,00,1",,"01,9",,,,"99999,9,08209,1","7,1,021,1,-005,1",,"SYN100AAXX  13211 76373 32670 61601 10230 20043 38209 40155 57021 85060 92050 333 30/// 56090 59005 86340;","Q01+000052SCOTLC"
"76373099999","2011-12-14T00:00:00","4","25.35","-105.75","1967.0","TEPEHUANES DGO., MX","FM-12","99999","V020","230,1,N,0020,1","22000,1,9,N","030000,1,N,1","+0181,1","+0005,1","10160,1","24,0000,9,1",,,,,,"02,99,1,02,1,02,1,00800,1,00,1,00,1",,"01,9",,"120,M,+0260,1","180,N,+0020,1","99999,9,08213,1","2,1,004,1,+019,1",,"SYN124AAXX  14001 76373 32580 22302 10181 20005 38213 40160 52004 82200 92355 333 10260 20020 30/// 50201 56900 58019 70000 82820;",
"76373099999","2011-12-14T03:00:00","4","25.35","-105.75","1967.0","TEPEHUANES DGO., MX","FM-12","99999","V020","999,9,C,0000,1","22000,1,9,N","001000,1,N,1","+0141,1","+0055,1","10155,1",,,,,"00,1,+99999,9,99,9",,"00,99,1,00,1,00,1,99999,9,00,1,00,1",,"01,9",,,,"99999,9,08209,1","6,1,004,1,-003,1",,"SYN082AAXX  14031 76373 32910 00000 10141 20055 38209 40155 56004 90250 333 30/// 59003;",
"76373099999","2011-12-14T06:00:00","4","25.35","-105.75","1967.0","TEPEHUANES DGO., MX","FM-12","99999","V020","999,9,C,0000,1","22000,1,9,N","001000,1,N,1","+0095,1","+0038,1","10178,1",,,,,"00,1,+99999,9,99,9",,"00,99,1,00,1,00,1,99999,9,00,1,00,1","0408,9","01,9",,"240,M,+0240,1","240,N,+0020,1","99999,9,08227,1","2,1,018,1,+999,9",,"SYN106AAXX  14061 76373 32910 00000 10095 20038 38227 40178 52018 90550 333 10240 20020 30/// 55068 21458 58027;",
"76373099999","2011-12-14T12:00:00","4","25.35","-105.75","1967.0","TEPEHUANES DGO., MX","FM-12","99999","V020","999,9,C,0000,1","22000,1,9,N","001000,1,N,1","+0019,1","+0010,1","10163,1","24,0000,9,1",,,,"00,1,+99999,9,99,9",,"00,99,1,00,1,00,1,99999,9,00,1,00,1",,"09,9","999,-0010,9","120,N,+0005,1","240,M,+0240,1","99999,9,08216,1","9,9,999,9,-011,1",,"SYN100AAXX  14121 76373 32910 00000 10019 20010 38216 40163 5//// 91150 333 10240 20005 31010 59011 70000;","Q01  00002PRCP24"
"76373099999","2011-12-14T15:00:00","4","25.35","-105.75","1967.0","TEPEHUANES DGO., MX","FM-12","99999","V020","999,9,C,0000,1","22000,1,9,N","001000,1,N,1","+0035,1","+0012,1","10168,1",,,,,"00,1,+99999,9,99,9",,"00,99,1,00,1,00,1,99999,9,00,1,00,1",,"01,9",,,,"99999,9,08220,1","2,1,004,1,-018,1",,"SYN082AAXX  14151 76373 32910 00000 10035 20012 38220 40168 52004 91450 333 30/// 59018;",
"76373099999","2011-12-14T18:00:00","4","25.35","-105.75","1967.0","TEPEHUANES DGO., MX","FM-12","99999","V020","999,9,C,0000,1","22000,1,9,N","030000,1,N,1","+0193,1","+0015,1","10162,1",,,,,"00,1,+99999,9,99,9",,"00,99,1,00,1,00,1,99999,9,00,1,00,1",,"01,9",,"120,M,+0198,1","240,N,+0005,1","99999,9,08214,1","7,1,006,1,-016,1",,"SYN094AAXX  14181 76373 32980 00000 10193 20015 38214 40162 57006 91750 333 10198 20005 30/// 59016;",
"76373099999","2011-12-14T21:00:00","4","25.35","-105.75","1967.0","TEPEHUANES DGO., MX","FM-12","99999","V020","200,1,N,0010,1","22000,1,9,N","030000,1,N,1","+0232,2","-0026,1","10137,1",,,,,"00,1,+99999,9,99,9",,"00,99,1,00,1,00,1,99999,9,00,1,00,1",,"01,9",,,,"99999,9,08194,1","7,1,002,1,-015,1",,"SYN082AAXX  14211 76373 32980 02001 10232 21026 38194 40137 57002 92050 333 30/// 59015;",
"76373099999","2011-12-15T00:00:00","4","25.35","-105.75","1967.0","TEPEHUANES DGO., MX","FM-12","99999","V020","140,1,N,0020,1","22000,1,9,N","030000,1,N,1","+0204,1","-0022,1","10139,1","24,0000,9,1",,,,"00,1,+99999,9,99,9",,"00,99,1,00,1,00,1,99999,9,00,1,00,1",,"01,9",,"120,M,+0250,1","180,N,+0005,1","99999,9,08196,1","2,1,001,1,-017,1",,"SYN106AAXX  15001 76373 32980 01402 10204 21022 38196 40139 52001 92355 333 10250 20005 30/// 50291 59017 70000;","Q01  00002PRCP24"
"76373099999","2011-12-15T12:00:00","4","25.35","-105.75","1967.0","TEPEHUANES DGO., MX","FM-12","99999","V020","999,9,C,0000,1","22000,1,9,N","001000,1,N,1","+0002,1","-0016,1","10148,1","24,0000,9,1",,,,"00,1,+99999,9,99,9",,"00,99,1,00,1,00,1,99999,9,00,1,00,1",,"09,9","999,-0010,9","120,N,-0010,1","240,M,+0250,1","99999,9,08203,1","9,9,999,9,-013,1",,"SYN100AAXX  15121 76373 32910 00000 10002 21016 38203 40148 5//// 91150 333 10250 21010 31010 59013 70000;","Q01  00002PRCP24"
"76373099999","2011-12-15T15:00:00","4","25.35","-105.75","1967.0","TEPEHUANES DGO., MX","FM-12","99999","V020","999,9,C,0000,1","22000,1,9,N","001000,1,N,1","+0009,1","-0011,1","10165,1",,,,,"02,1,+00600,1,08,1",,"04,99,1,04,1,02,1,99999,9,02,1,00,1",,"01,9",,,,"99999,9,08217,1","2,1,014,1,-003,1",,"SYN106AAXX  15151 76373 32910 40000 10009 21011 38217 40165 52014 84220 91450 333 30/// 56990 59003 82820 82337;",
"76373099999","2011-12-16T00:00:00","4","25.35","-105.75","1967.0","TEPEHUANES DGO., MX","FM-12","99999","V020","160,1,N,0020,1","22000,1,9,N","030000,1,N,1","+0186,1","-0094,1","10121,1","24,0000,9,1",,,,"00,1,+99999,9,99,9",,"00,99,1,00,1,00,1,99999,9,00,1,00,1",,"09,9","999,-0010,9","120,M,+0250,1","180,N,-0010,1","99999,9,08181,1","7,1,006,1,-015,1",,"SYN106AAXX  16001 76373 32980 01602 10186 21094 38181 40121 57006 92350 333 10250 21010 31010 50411 59015 70000;","Q01  00002PRCP24"
"76373099999","2011-12-17T12:00:00","4","25.35","-105.75","1967.0","TEPEHUANES DGO., MX","FM-12","99999","V020","999,9,C,0000,1","22000,1,9,N","001000,1,N,1","+0035,1","+0004,1","10200,1","24,0000,9,1",,,,"00,1,+99999,9,99,9",,"00,99,1,00,1,00,1,99999,9,00,1,00,1",,"09,9","999,-0010,9","120,N,-0015,1","240,M,+0260,1","99999,9,08245,1","9,9,999,9,+024,1",,"SYN100AAXX  17121 76373 32910 00000 10035 20004 38245 40200 5//// 91150 333 10260 21015 31010 58024 70000;","Q01  00002PRCP24"
"76373099999","2011-12-17T15:00:00","4","25.35","-105.75","1967.0","TEPEHUANES DGO., MX","FM-12","99999","V020","999,9,C,0000,1","22000,1,9,N","001000,1,N,1","+0030,1","-0001,1","10226,1",,,,,"00,1,+99999,9,99,9",,"00,99,1,00,1,00,1,99999,9,00,1,00,1",,"01,9",,,,"99999,9,08266,1","2,1,021,1,+049,1",,"SYN082AAXX  17151 76373 32910 00000 10030 21001 38266 40226 52021 91450 333 30/// 58049;",
"76373099999","2011-12-17T18:00:00","4","25.35","-105.75","1967.0","TEPEHUANES DGO., MX","FM-12","99999","V020","160,1,N,0010,1","22000,1,9,N","030000,1,N,1","+0152,1","+0037,1","10210,1",,,,,"00,1,+99999,9,99,9",,"00,99,1,00,1,00,1,99999,9,00,1,00,1",,"01,9",,"120,M,+0160,1","240,N,-0015,1","99999,9,08253,1","2,1,013,1,+017,1",,"SYN094AAXX  17181 76373 32980 01601 10152 20037 38253 40210 52013 91750 333 10160 21015 30/// 58017;",
"76373099999","2011-12-17T21:00:00","4","25.35","-105.75","1967.0","TEPEHUANES DGO., MX","FM-12","99999","V020","160,1,N,0010,1","09000,1,C,N","030000,1,N,1","+0224,2","+0021,1","10177,1",,,,,"03,1,+01800,1,03,1",,"06,99,1,03,1,00,1,01750,1,07,1,08,1",,"01,9",,,,"99999,9,08226,1","7,1,027,1,+018,1",,"SYN106AAXX  17211 76373 32780 61601 10224 20021 38226 40177 57027 83078 92050 333 30/// 56099 58018 83356 83067;",
"76373099999","2011-12-18T00:00:00","4","25.35","-105.75","1967.0","TEPEHUANES DGO., MX","FM-12","99999","V020","200,1,N,0010,1","22000,1,9,N","020000,1,N,1","+0201,1","+0007,1","10168,1","24,0000,9,1",,,,"00,1,+99999,9,99,9",,"00,99,1,00,1,00,1,99999,9,00,1,00,1",,"01,9",,"120,M,+0250,1","180,N,-0015,1","99999,9,08220,1","7,1,006,1,+999,9",,"SYN106AAXX  18001 76373 32970 02001 10201 20007 38220 40168 57006 92350 333 10250 21015 30/// 50321 58/// 70000;","Q01  00002PRCP24"
"76373099999","2011-12-18T03:00:00","4","25.35","-105.75","1967.0","TEPEHUANES DGO., MX","FM-12","99999","V020","999,9,C,0000,1","22000,1,9,N","005000,1,N,1","+0150,1","+0014,1","10193,1",,,,,"00,1,+99999,9,99,9",,"00,99,1,00,1,00,1,99999,9,00,1,00,1",,"01,9",,,,"99999,9,08240,1","2,1,020,1,+999,9",,"SYN082AAXX  18031 76373 32950 00000 10150 20014 38240 40193 52020 90250 333 30/// 58///;",
"76373099999","2011-12-18T06:00:00","4","25.35","-105.75","1967.0","TEPEHUANES DGO., MX","FM-12","99999","V020","999,9,C,0000,1","22000,1,9,N","005000,1,N,1","+0098,1","+0000,1","10203,1",,,,,"00,1,+99999,9,99,9",,"00,99,1,00,1,00,1,99999,9,00,1,00,1","0558,9","01,9",,"240,M,+0250,1","240,N,-0015,1","99999,9,08248,1","2,1,008,1,+999,9",,"SYN106AAXX  18061 76373 32950 00000 10098 20000 38248 40203 52008 90550 333 10250 21015 30/// 55093 21586 58///;",
"76373099999","2011-12-18T18:00:00","4","25.35","-105.75","1967.0","TEPEHUANES DGO., MX","FM-12","99999","V020","090,1,N,0010,1","22000,1,9,N","020000,1,N,1","+0176,1","-0001,1","10178,1",,,,,"04,1,+00750,1,06,1",,"04,99,1,04,1,05,1,00800,1,00,1,00,1",,"01,9",,"120,M,+0180,1","240,N,-0015,1","99999,9,08228,1","7,1,018,1,-025,1",,"SYN112AAXX  18181 76373 32570 40901 10176 21001 38228 40178 57018 84500 91750 333 10180 21015 30/// 56900 59025 84625;",
"76373099999","2011-12-18T21:00:00","4","25.35","-105.75","1967.0","TEPEHUANES DGO., MX","FM-12","99999","V020","210,1,N,0030,1","00750,1,9,N","020000,1,N,1","+0216,1","+0010,1","10143,1",,,,,"05,1,+00750,1,06,1",,"06,99,1,05,1,05,1,00800,1,00,1,00,1",,"01,9",,,,"99999,9,08199,1","7,1,029,1,-027,1",,"SYN100AAXX  18211 76373 32570 62103 10216 20010 38199 40143 57029 85500 92050 333 30/// 56900 59027 85625;",
"76373099999","2011-12-19T00:00:00","4","25.35","-105.75","1967.0","TEPEHUANES DGO., MX","FM-12","99999","V020","180,1,N,0010,1","22000,1,9,N","020000,1,N,1","+0177,1","+0021,1","10142,1","24,0000,9,1",,,,,,"01,99,1,01,1,02,1,00800,1,00,1,00,1",,"01,9",,"120,M,+0235,1","180,N,-0015,1","99999,9,08198,1","7,1,001,1,-042,1",,"SYN124AAXX  19001 76373 32570 11801 10177 20021 38198 40142 57001 81200 92350 333 10235 21015 30/// 50331 56900 59042 70000 81825;",
"76373099999","2011-12-19T03:00:00","4","25.35","-105.75","1967.0","TEPEHUANES DGO., MX","FM-12","99999","V020","999,9,C,0000,1","22000,1,9,N","005000,1,N,1","+0132,1","+0018,1","10138,1",,,,,"00,1,+99999,9,99,9",,"00,99,1,00,1,00,1,99999,9,00,1,00,1",,"01,9",,,,"99999,9,08195,1","7,1,003,1,-045,1",,"SYN082AAXX  19031 76373 32950 00000 10132 20018 38195 40138 57003 90250 333 30/// 59045;",
"76373099999","2011-12-19T06:00:00","4","25.35","-105.75","1967.0","TEPEHUANES DGO., MX","FM-12","99999","V020","999,9,C,0000,1","22000,1,9,N","005000,1,N,1","+0141,1","+0020,1","10120,1",,,,,"00,1,+99999,9,99,9",,"00,99,1,00,1,00,1,99999,9,00,1,00,1","0324,9","01,9",,"240,M,+0235,1","240,N,-0015,1","99999,9,08181,1","7,1,014,1,+999,9",,"SYN106AAXX  19061 76373 32950 00000 10141 20020 38181 40120 57014 90545 333 10235 21015 30/// 55054 21152 59067;",
"76373099999","2011-12-19T15:00:00","4","25.35","-105.75","1967.0","TEPEHUANES DGO., MX","FM-12","99999","V020","240,1,N,0010,1","22000,1,9,N","020000,1,N,1","+0124,1","-0056,1","10111,1",,,,,"00,1,+99999,9,99,9",,"00,99,1,00,1,00,1,99999,9,00,1,00,1",,"01,9",,,,"99999,9,08173,1","2,1,010,1,-071,1",,"SYN082AAXX  19151 76373 32970 02401 10124 21056 38173 40111 52010 91450 333 30/// 59071;",
"76373099999","2011-12-19T18:00:00","4","25.35","-105.75","1967.0","TEPEHUANES DGO., MX","FM-12","99999","V020","290,1,N,0020,1","22000,1,9,N","030000,1,N,1","+0195,1","-0135,1","10132,1",,,,,"00,1,+99999,9,99,9",,"00,99,1,00,1,00,1,99999,9,00,1,00,1",,"01,9",,"120,M,+0210,1","240,N,+0080,1","99999,9,08190,1","2,1,023,1,-039,1",,"SYN094AAXX  19181 76373 32980 02902 10195 21135 38190 40132 52023 91750 333 10210 20080 30/// 59039;",
"76373099999","2011-12-19T21:00:00","4","25.35","-105.75","1967.0","TEPEHUANES DGO., MX","FM-12","99999","V020","250,1,N,0030,1","22000,1,9,N","030000,1,N,1","+0203,1","-0128,1","10097,1",,,,,"00,1,+99999,9,99,9",,"00,99,1,00,1,00,1,99999,9,00,1,00,1",,"01,9",,,,"99999,9,08162,1","7,1,032,1,-037,1",,"SYN082AAXX  19211 76373 32980 02503 10203 21128 38162 40097 57032 92050 333 30/// 59037;",
"76373099999","2011-12-20T00:00:00","4","25.35","-105.75","1967.0","TEPEHUANES DGO., MX","FM-12","99999","V020","160,1,N,0020,1","22000,1,9,N","020000,1,N,1","+0177,1","-0085,1","10097,1","24,0000,9,1",,,,"00,1,+99999,9,99,9",,"00,99,1,00,1,00,1,99999,9,00,1,00,1",,"01,9",,"120,M,+0220,1","180,N,+0080,1","99999,9,08162,1","4,1,000,1,-036,1",,"SYN106AAXX  20001 76373 32970 01602 10177 21085 38162 40097 54000 92355 333 10220 20080 30/// 50571 59036 70000;","Q01  00002PRCP24"
"76373099999","2011-12-20T03:00:00","4","25.35","-105.75","1967.0","TEPEHUANES DGO., MX","FM-12","99999","V020","999,9,C,0000,1","22000,1,9,N","001000,1,N,1","+0100,1","-0052,1","10120,1",,,,,"00,1,+99999,9,99,9",,"00,99,1,00,1,00,1,99999,9,00,1,00,1",,"01,9",,,,"99999,9,08181,1","2,1,007,1,-014,1",,"SYN082AAXX  20031 76373 32910 00000 10100 21052 38181 40120 52007 90255 333 30/// 59014;",
"76373099999","2011-12-20T06:00:00","4","25.35","-105.75","1967.0","TEPEHUANES DGO., MX","FM-12","99999","V020","999,9,C,0000,1","22000,1,9,N","001000,1,N,1","+0040,1","-0065,1","10139,1",,,,,"00,1,+99999,9,99,9",,"00,99,1,00,1,00,1,99999,9,00,1,00,1","0588,9","01,9",,"240,M,+0220,1","240,N,+9999,9","99999,9,08196,1","2,1,015,1,+999,9",,"SYN106AAXX  20061 76373 32910 00000 10040 21065 38196 40139 52015 90550 333 10220 20080 30/// 55098 21772 58015;","Q01 +00802ATMN  "
"76373099999","2011-12-20T12:00:00","4","25.35","-105.75","1967.0","TEPEHUANES DGO., MX","FM-12","99999","V020","999,9,C,0000,1","22000,1,9,N","001000,1,N,1","-0033,1","-0080,1","10126,1","24,0000,9,1",,,,"00,1,+99999,9,99,9",,"00,99,1,00,1,00,1,99999,9,00,1,00,1",,"09,9",,"120,N,-0050,1","240,M,+0220,1","99999,9,08185,1","9,9,999,9,+022,1",,"SYN100AAXX  20121 76373 32910 00000 11033 21080 38185 40126 5//// 91150 333 10220 21050 31062 58022 70000;","Q01  00002PRCP24"
"76373099999","2011-12-20T15:00:00","4","25.35","-105.75","1967.0","TEPEHUANES DGO., MX","FM-12","99999","V020","999,9,C,0000,1","22000,1,9,N","020000,1,N,1","-0031,1","-0071,1","10127,1",,,,,"00,1,+99999,9,99,9",,"00,99,1,00,1,00,1,99999,9,00,1,00,1",,"01,9",,,,"99999,9,08186,1","2,1,001,1,+013,1",,"SYN082AAXX  20151 76373 32970 00000 11031 21071 38186 40127 52001 91450 333 30/// 58013;",
"76373099999","2011-12-20T18:00:00","4","25.35","-105.75","1967.0","TEPEHUANES DGO., MX","FM-12","99999","V020","999,9,C,0000,1","22000,1,9,N","030000,1,N,1","+0112,1","-0063,1","10131,1",,,,,"00,1,+99999,9,99,9",,"00,99,1,00,1,00,1,99999,9,00,1,00,1",,"01,9",,"120,M,+0200,1","240,N,-0050,1","99999,9,08190,1","2,1,004,1,+006,1",,"SYN094AAXX  20181 76373 32980 00000 10112 21063 38190 40131 52004 91750 333 10200 21050 30/// 58006;",
"76373099999","2011-12-20T21:00:00","4","25.35","-105.75","1967.0","TEPEHUANES DGO., MX","FM-12","99999","V020","140,1,N,0020,1","22000,1,9,N","020000,1,N,1","+0209,2","-0013,1","10086,1",,,,,"02,1,+01800,1,03,1",,"02,99,1,02,1,00,1,01750,1,07,1,00,1",,"01,9",,,,"99999,9,08153,1","7,1,043,1,-009,1",,"SYN100AAXX  20211 76373 32770 21402 10209 21013 38153 40086 57043 82070 92050 333 30/// 56090 59009 82356;",
"76373099999","2011-12-21T00:00:00","4","25.35","-105.75","1967.0","TEPEHUANES DGO., MX","FM-12","99999","V020","150,1,N,0010,1","01200,1,9,N","015000,1,N,1","+0153,1","-0122,1","10088,1","24,0000,9,1",,,,,,"05,99,1,05,1,05,1,01250,1,00,1,00,1",,"01,9",,"120,M,+0220,1","180,N,+0080,1","99999,9,08155,1","3,1,002,1,-007,1",,"SYN124AAXX  21001 76373 32665 51501 10153 21122 38155 40088 53002 85500 92350 333 10220 20080 30/// 50291 56900 59007 70000 85623;",
"76373099999","2011-12-21T03:00:00","4","25.35","-105.75","1967.0","TEPEHUANES DGO., MX","FM-12","99999","V020","200,1,N,0010,1","22000,1,9,N","001000,1,N,1","+0107,1","+9999,9","10096,1",,,,,"00,1,+99999,9,99,9",,"00,99,1,00,1,00,1,99999,9,00,1,00,1",,"01,9",,,,"99999,9,08161,1","2,1,006,1,-020,1",,"SYN076AAXX  21031 76373 32910 02001 10107 38161 40096 52006 90250 333 30/// 59020;",
"76373099999","2011-12-21T06:00:00","4","25.35","-105.75","1967.0","TEPEHUANES DGO., MX","FM-12","99999","V020","999,9,C,0000,1","22000,1,9,N","000600,1,N,1","+0042,1","+9999,9","10100,1",,,,,"00,1,+99999,9,99,9",,"00,99,1,00,1,00,1,99999,9,00,1,00,1","0528,9","01,9",,"240,M,+0220,1","240,N,-0050,1","99999,9,08165,1","0,1,004,1,+999,9",,"SYN100AAXX  21061 76373 32906 00000 10042 38165 40100 50004 90550 333 10220 21050 30/// 55088 21868 59031;",
"76373099999","2011-12-21T12:00:00","4","25.35","-105.75","1967.0","TEPEHUANES DGO., MX","FM-12","99999","V020","200,1,N,0010,1","22000,1,9,N","000600,1,N,1","+0119,1","+0033,1","10075,1","24,0000,9,1",,,,"02,1,+00690,1,06,1",,"02,99,1,02,1,04,1,01250,1,00,1,00,1",,"01,9",,"120,N,+0093,1","240,M,+0220,1","99999,9,08144,1","9,9,999,9,-041,1",,"SYN118AAXX  21121 76373 32606 22001 10119 20033 38144 40075 5//// 82400 91150 333 10220 20093 30070 56900 59041 70000 82623;",
"76373099999","2011-12-21T15:00:00","4","25.35","-105.75","1967.0","TEPEHUANES DGO., MX","FM-12","99999","V020","220,1,N,0020,1","00750,1,9,N","015000,1,N,1","+0129,1","+0041,1","10092,1",,,,,"07,1,+00750,1,07,1",,"07,99,1,07,1,07,1,00800,1,00,1,00,1",,"01,9",,,,"99999,9,08158,1","2,1,014,1,-028,1",,"SYN100AAXX  21151 76373 32565 72202 10129 20041 38158 40092 52014 87700 91450 333 30/// 56900 59028 87725;",
"76373099999","2011-12-21T18:00:00","4","25.35","-105.75","1967.0","TEPEHUANES DGO., MX","FM-12","99999","V020","210,1,N,0020,1","00660,1,9,N","015000,1,N,1","+0123,1","+0064,1","10096,1",,,,,"08,1,+00660,1,07,1",,"08,99,1,08,1,07,1,00800,1,00,1,00,1",,"01,9",,"120,M,+0176,1","240,N,+0093,1","99999,9,08162,1","0,1,004,1,-034,1",,"SYN112AAXX  21181 76373 32565 82102 10123 20064 38162 40096 50004 88700 91750 333 10176 20093 30/// 56900 59034 88722;",
"76373099999","2011-12-21T21:00:00","4","25.35","-105.75","1967.0","TEPEHUANES DGO., MX","FM-12","99999","V020","200,1,N,0020,1","00660,1,9,N","015000,1,N,1","+0119,1","+0057,1","10074,1","03,0006,9,1",,"5,1,03,1","2,1,03,1","08,1,+00660,1,07,1",,"08,99,1,08,1,07,1,00800,1,00,1,00,1",,"09,9",,,,"99999,9,08143,1","7,1,019,1,-010,1","50,1","SYN112AAXX  21211 76373 21565 82002 10119 20057 38143 40074 57019 75052 88700 92050 333 31/// 56900 59010 69967 88722;",
"76373099999","2011-12-22T00:00:00","4","25.35","-105.75","1967.0","TEPEHUANES DGO., MX","FM-12","99999","V020","999,9,C,9999,9","22000,1,9,N","015000,1,N,1","+9999,9","+9999,9","10091,1","24,0010,9,1",,,,,,"01,99,1,99,9,04,1,01250,1,00,1,00,1",,"01,9",,"120,M,+0176,1","180,N,+0093,1","99999,9,08157,1","2,1,014,1,+002,1",,"SYN118AAXX  22001 76373 32665 10096 21005 38157 40091 52014 82400 92350 333 10176 20093 30/// 50241 56900 58002 70010 82625;","Q01+009601WOSPD "
"76373099999","2011-12-22T03:00:00","4","25.35","-105.75","1967.0","TEPEHUANES DGO., MX","FM-12","99999","V020","999,9,C,0000,1","22000,1,9,N","000600,1,N,1","+0049,1","-0016,1","10114,1",,,,,"00,1,+99999,9,99,9",,"00,99,1,00,1,00,1,99999,9,00,1,00,1",,"01,9",,,,"99999,9,08176,1","2,1,019,1,+015,1",,"SYN082AAXX  22031 76373 32906 00000 10049 21016 38176 40114 52019 90350 333 30/// 58015;",
"76373099999","2011-12-22T06:00:00","4","25.35","-105.75","1967.0","TEPEHUANES DGO., MX","FM-12","99999","V020","230,1,N,0010,1","22000,1,9,N","000600,1,N,1","+0019,1","-0030,1","10126,1",,,,,"00,1,+99999,9,99,9",,"00,99,1,00,1,00,1,99999,9,00,1,00,1","0258,9","01,9",,"240,M,+0178,1","240,N,+9999,9","99999,9,08186,1","2,1,020,1,+999,9",,"SYN106AAXX  22061 76373 32906 02301 10019 21030 38186 40126 52020 90550 333 10178 20093 30/// 55043 20966 59021;","Q01 +00932ATMN  "
"76373099999","2011-12-22T12:00:00","4","25.35","-105.75","1967.0","TEPEHUANES DGO., MX","FM-12","99999","V020","999,9,C,0000,1","22000,1,9,N","000600,1,N,1","-0063,1","-0087,1","10130,1","24,0010,9,1",,,,"00,1,+99999,9,99,9",,"00,99,1,00,1,00,1,99999,9,00,1,00,1",,"09,9",,"120,N,-0078,1","240,M,+0178,1","99999,9,08189,1","9,9,999,9,+045,1",,"SYN100AAXX  22121 76373 32906 00000 11063 21087 38189 40130 5//// 91150 333 10178 21078 31088 58045 70010;",
"76373099999","2011-12-22T15:00:00","4","25.35","-105.75","1967.0","TEPEHUANES DGO., MX","FM-12","99999","V020","999,9,C,0000,1","22000,1,9,N","015000,1,N,1","-0068,1","-0089,1","10158,1",,,,,"01,1,+00810,1,08,1",,"01,99,1,01,1,01,1,01250,1,00,1,00,1",,"01,9",,,,"99999,9,08211,1","2,1,022,1,+053,1",,"SYN100AAXX  22151 76373 32665 10000 11068 21089 38211 40158 52022 81100 91450 333 30/// 56900 58053 81827;",
"76373099999","2011-12-22T18:00:00","4","25.35","-105.75","1967.0","TEPEHUANES DGO., MX","FM-12","99999","V020","999,9,C,0000,1","22000,1,9,N","015000,1,N,1","+0071,1","-0111,1","10155,1",,,,,"00,1,+99999,9,99,9",,"00,99,1,00,1,00,1,99999,9,00,1,00,1",,"01,9",,"120,M,+0180,1","240,N,-0078,1","99999,9,08208,1","7,1,014,1,+046,1",,"SYN094AAXX  22181 76373 32965 00000 10071 21111 38208 40155 57014 91750 333 10180 21078 30/// 58046;",
"76373099999","2011-12-22T21:00:00","4","25.35","-105.75","1967.0","TEPEHUANES DGO., MX","FM-12","99999","V020","160,1,N,0010,1","22000,1,9,N","030000,1,N,1","+0178,1","-0124,1","10117,1",,,,,"00,1,+99999,9,99,9",,"00,99,1,00,1,00,1,99999,9,00,1,00,1",,"01,9",,,,"99999,9,08178,1","7,1,030,1,+035,1",,"SYN082AAXX  22211 76373 32980 01601 10178 21124 38178 40117 57030 92050 333 30/// 58035;",
"76373099999","2011-12-23T00:00:00","4","25.35","-105.75","1967.0","TEPEHUANES DGO., MX","FM-12","99999","V020","200,1,N,0010,1","22000,1,9,N","030000,1,N,1","+0181,1","-0212,1","10108,1","24,0000,9,1",,,,"00,1,+99999,9,99,9",,"00,99,1,00,1,00,1,99999,9,00,1,00,1",,"01,9",,"120,M,+0220,1","180,N,-0078,1","99999,9,08171,1","7,1,007,1,+026,1",,"SYN106AAXX  23001 76373 32980 02001 10181 21212 38171 40108 57007 92355 333 10220 21078 30/// 50231 58026 70000;","Q01  00002PRCP24"
"76373099999","2011-12-23T06:00:00","4","25.35","-105.75","1967.0","TEPEHUANES DGO., MX","FM-12","99999","V020","999,9,C,0000,1","22000,1,9,N","001000,1,N,1","+0005,1","-0131,1","10157,1",,,,,"00,1,+99999,9,99,9",,"00,99,1,00,1,00,1,99999,9,00,1,00,1","0588,9","01,9",,"240,M,+0220,1","240,N,-0078,1","99999,9,08210,1","2,1,039,1,+999,9",,"SYN106AAXX  23061 76373 32910 00000 10005 21131 38210 40157 52039 90550 333 10220 21078 30/// 55098 21949 58024;",
"76373099999","2011-12-23T12:00:00","4","25.35","-105.75","1967.0","TEPEHUANES DGO., MX","FM-12","99999","V020","999,9,C,0000,1","22000,1,9,N","001000,1,N,1","-0045,1","-0117,1","10167,1","24,0000,9,1",,,,"00,1,+99999,9,99,9",,"00,99,1,00,1,00,1,99999,9,00,1,00,1",,"09,9",,"120,N,-0063,1","240,M,+0210,1","99999,9,08218,1","9,9,999,9,+029,1",,"SYN100AAXX  23121 76373 32910 00000 11045 21117 38218 40167 5//// 91150 333 10210 21063 31075 58029 70000;","Q01  00002PRCP24"
"76373099999","2011-12-23T15:00:00","4","25.35","-105.75","1967.0","TEPEHUANES DGO., MX","FM-12","99999","V020","999,9,C,0000,1","22000,1,9,N","001000,1,N,1","-0050,1","-0108,1","10175,1",,,,,"01,1,+05100,1,00,1",,"01,99,1,00,1,00,1,99999,9,00,1,01,1",,"01,9",,,,"99999,9,08225,1","2,1,013,1,+014,1",,"SYN100AAXX  23151 76373 32910 10000 11050 21108 38225 40175 52013 80001 91755 333 30/// 56009 58014 81067;",
"76373099999","2011-12-23T21:00:00","4","25.35","-105.75","1967.0","TEPEHUANES DGO., MX","FM-12","99999","V020","160,1,N,0020,1","22000,1,9,N","030000,1,N,1","+9999,9","-0126,1","10112,1",,,,,"00,1,+99999,9,99,9",,"00,99,1,00,1,00,1,99999,9,00,1,00,1",,"01,9",,,,"99999,9,08174,1","2,1,031,1,-004,1",,"SYN082AAXX  23211 76373 32980 01602 10216 21126 38174 40112 52031 92250 333 30/// 59004;","Q01+002163ATOT  "
"76373099999","2011-12-24T00:00:00","4","25.35","-105.75","1967.0","TEPEHUANES DGO., MX","FM-12","99999","V020","160,1,N,0010,1","22000,1,9,N","030000,1,N,1","+0173,1","-0095,1","10146,1","24,0000,9,1",,,,"00,1,+99999,9,99,9",,"00,99,1,00,1,00,1,99999,9,00,1,00,1",,"01,9",,"120,M,+0230,1","180,N,-0063,1","99999,9,08201,1","2,1,005,1,+030,1",,"SYN106AAXX  24001 76373 32980 01601 10173 21095 38201 40146 52005 92355 333 10230 21063 30/// 50341 58030 70000;","Q01  00002PRCP24"
"76373099999","2011-12-24T06:00:00","4","25.35","-105.75","1967.0","TEPEHUANES DGO., MX","FM-12","99999","V020","999,9,C,0000,1","22000,1,9,N","001000,1,N,1","+0028,1","-0062,1","10158,1",,,,,"00,1,+99999,9,99,9",,"00,99,1,00,1,00,1,99999,9,00,1,00,1","0594,9","01,9",,"240,M,+0230,1","240,N,-0063,1","99999,9,08212,1","2,1,012,1,+999,9",,"SYN106AAXX  24061 76373 32910 00000 10028 21062 38212 40158 52012 90550 333 10230 21063 30/// 55099 21944 58002;",
"76373099999","2011-12-25T12:00:00","4","25.35","-105.75","1967.0","TEPEHUANES DGO., MX","FM-12","99999","V020","999,9,C,0000,1","22000,1,9,N","001000,1,N,1","-0036,1","-0072,1","10218,1",,,,,"00,1,+99999,9,99,9",,"00,99,1,00,1,00,1,99999,9,00,1,00,1",,,,"120,N,-0065,1",,"99999,9,08260,1","9,9,999,9,+050,1",,"SYN100AAXX  25121 76373 32910 00000 11036 21072 38260 40218 5/// 91155 333 1 0225 21065 31080 58050 70000;",
"76373099999","2011-12-25T15:00:00","4","25.35","-105.75","1967.0","TEPEHUANES DGO., MX","FM-12","99999","V020","999,9,C,0000,1","22000,1,9,N","001000,1,N,1","-0041,1","-0075,1","10218,1",,,,,"01,1,+00750,1,06,1",,"02,99,1,02,1,04,1,01250,1,00,1,00,1",,"01,9",,,,"99999,9,08260,1","4,1,000,1,-001,1",,"SYN100AAXX  25151 76373 32610 20000 11041 21075 38260 40218 57060 82400 91450 333 30/// 56900 59001 81625;","Q01+000072APCTEN"
"76373099999","2011-12-25T21:00:00","4","25.35","-105.75","1967.0","TEPEHUANES DGO., MX","FM-12","99999","V020","200,1,N,0010,1","22000,1,9,N","030000,1,N,1","+0112,1","-0048,1","10182,1",,,,,"00,1,+99999,9,99,9",,"00,99,1,00,1,00,1,99999,9,00,1,00,1",,"01,9",,,,"99999,9,08230,1","2,1,002,1,+003,1",,"SYN082AAXX  25211 76373 32980 02001 10112 21048 38230 40182 52002 92050 333 30/// 58003;",
"76373099999","2011-12-26T00:00:00","4","25.35","-105.75","1967.0","TEPEHUANES DGO., MX","FM-12","99999","V020","210,1,N,0020,1","22000,1,9,N","030000,1,N,1","+0010,1","-0052,1","10151,1","24,0000,9,1",,,,"01,1,+00750,1,08,1",,"02,99,1,02,1,01,1,00800,1,01,1,00,1",,"01,9",,"120,M,+0195,1","180,N,-0063,1","99999,9,08206,1","2,1,036,1,+004,1",,"SYN130AAXX  26001 76373 32580 22102 10010 21052 38206 40151 52036 82110 92355 333 10195 21063 30/// 50400 56900 58004 70000 81825 81337;",
"76373099999","2011-12-26T06:00:00","4","25.35","-105.75","1967.0","TEPEHUANES DGO., MX","FM-12","99999","V020","999,9,C,0000,1","22000,1,9,N","001000,1,N,1","-0017,1","-0067,1","10193,1",,,,,"00,1,+99999,9,99,9",,"00,99,1,00,1,00,1,99999,9,00,1,00,1","0462,9","01,9",,"240,M,+0195,1","240,N,-0063,1","99999,9,08240,1","2,1,033,1,+999,9",,"SYN106AAXX  26061 76373 32910 00000 11017 21067 38240 40193 52033 90550 333 10195 21063 30/// 55077 21578 58008;",
"76373099999","2011-12-26T12:00:00","4","25.35","-105.75","1967.0","TEPEHUANES DGO., MX","FM-12","99999","V020","999,9,C,0000,1","22000,1,9,N","001000,1,N,1","-0079,1","-0094,1","10190,1","24,0000,9,1",,,,"00,1,+99999,9,99,9",,"00,99,1,00,1,00,1,99999,9,00,1,00,1",,"09,9","999,-0012,9","120,N,+9999,9","240,M,+0195,1","99999,9,08237,1","9,9,999,9,-031,1",,"SYN100AAXX  26121 76373 32910 00000 11079 21094 38237 40190 5//// 91155 333 10195 21010 31012 59031 70000;","Q01  00002PRCP24Q02 -00102ATMN  "
"76373099999","2011-12-26T15:00:00","4","25.35","-105.75","1967.0","TEPEHUANES DGO., MX","FM-12","99999","V020","999,9,C,0000,1","22000,1,9,N","020000,1,N,1","-0049,1","-0082,1","10206,1",,,,,"00,1,+99999,9,99,9",,"00,99,1,00,1,00,1,99999,9,00,1,00,1",,"01,9",,,,"99999,9,08250,1","2,1,027,1,+050,1",,"SYN082AAXX  26151 76373 32970 00000 11049 21082 38250 40206 52027 91455 333 30/// 58050;",
"76373099999","2011-12-26T21:00:00","4","25.35","-105.75","1967.0","TEPEHUANES DGO., MX","FM-12","99999","V020","160,1,N,0010,1","22000,1,9,N","030000,1,N,1","+0169,1","-0078,1","10160,1",,,,,"00,1,+99999,9,99,9",,"00,99,1,00,1,00,1,99999,9,00,1,00,1",,"01,9",,,,"99999,9,08213,1","7,1,045,1,+033,1",,"SYN082AAXX  26211 76373 32980 01601 10169 21078 38213 40160 57045 92055 333 30/// 58033;",
"76373099999","2011-12-27T00:00:00","4","25.35","-105.75","1967.0","TEPEHUANES DGO., MX","FM-12","99999","V020","160,1,N,0010,1","22000,1,9,N","030000,1,N,1","+0162,1","-0082,1","10170,1","24,0000,9,1",,,,"00,1,+99999,9,99,9",,"00,99,1,00,1,00,1,99999,9,00,1,00,1",,"01,9",,"120,M,+0210,1","180,N,-0010,1","99999,9,08221,1","2,1,011,1,+015,1",,"SYN106AAXX  27001 76373 32980 01601 10162 21082 38221 40170 52011 92355 333 10210 21010 30/// 50200 58015 70000;","Q01  00002PRCP24"
"76373099999","2011-12-27T03:00:00","4","25.35","-105.75","1967.0","TEPEHUANES DGO., MX","FM-12","99999","V020","999,9,C,0000,1","22000,1,9,N","001000,1,N,1","+0071,1","-0111,1","10213,1",,,,,"00,1,+99999,9,99,9",,"00,99,1,00,1,00,1,99999,9,00,1,00,1",,"01,9",,,,"99999,9,08256,1","2,1,035,1,+048,1",,"SYN082AAXX  27031 76373 32910 00000 10071 21111 38256 40213 52035 90250 333 30/// 58048;",
"76373099999","2011-12-27T06:00:00","4","25.35","-105.75","1967.0","TEPEHUANES DGO., MX","FM-12","99999","V020","999,9,C,0000,1","22000,1,9,N","001000,1,N,1","+0018,1","-0112,1","10237,1",,,,,"00,1,+99999,9,99,9",,"00,99,1,00,1,00,1,99999,9,00,1,00,1","0582,9","01,9",,"240,M,+0210,1","240,N,-0010,1","99999,9,08275,1","2,1,021,1,+999,9",,"SYN106AAXX  27061 76373 32910 00000 10018 21112 38275 40237 52021 90555 333 10210 21010 30/// 55097 21586 58035;",
"76373099999","2011-12-27T12:00:00","4","25.35","-105.75","1967.0","TEPEHUANES DGO., MX","FM-12","99999","V020","999,9,C,0000,1","22000,1,9,N","001000,1,N,1","-0067,1","-0124,1","10196,1","24,0000,9,1",,,,"00,1,+99999,9,99,9",,"00,99,1,00,1,00,1,99999,9,00,1,00,1",,"09,9",,"120,N,-0095,1","240,M,+0210,1","99999,9,08242,1","9,9,999,9,-033,1",,"SYN100AAXX  27121 76373 32910 00000 11067 21124 38242 40196 5//// 91150 333 10210 21095 31105 59033 70000;","Q01  00002PRCP24"
"76373099999","2011-12-27T15:00:00","4","25.35","-105.75","1967.0","TEPEHUANES DGO., MX","FM-12","99999","V020","999,9,C,0000,1","22000,1,9,N","001000,1,N,1","-0049,1","-0114,1","10236,1",,,,,"00,1,+99999,9,99,9",,"00,99,1,00,1,00,1,99999,9,00,1,00,1",,"01,9",,,,"99999,9,08274,1","2,1,034,1,+024,1",,"SYN082AAXX  27151 76373 32910 00000 11049 21114 38274 40236 52034 91455 333 30/// 58024;",
"76373099999","2011-12-27T18:00:00","4","25.35","-105.75","1967.0","TEPEHUANES DGO., MX","FM-12","99999","V020","999,9,C,0000,1","22000,1,9,N","030000,1,N,1","+0096,1","-0106,1","10253,1",,,,,"00,1,+99999,9,99,9",,"00,99,1,00,1,00,1,99999,9,00,1,00,1",,"01,9",,"120,M,+0110,1","240,N,-0095,1","99999,9,08288,1","2,1,014,1,+038,1",,"SYN094AAXX  27181 76373 32980 00000 10096 21106 38288 40253 52014 91750 333 10110 21095 30/// 58038;",
"76373099999","2011-12-27T21:00:00","4","25.35","-105.75","1967.0","TEPEHUANES DGO., MX","FM-12","99999","V020","160,1,N,0010,1","22000,1,9,N","030000,1,N,1","+0186,1","-0184,1","10182,1",,,,,"00,1,+99999,9,99,9",,"00,99,1,00,1,00,1,99999,9,00,1,00,1",,"01,9",,,,"99999,9,08230,1","7,1,058,1,+021,1",,"SYN082AAXX  27211 76373 32980 01601 10186 21184 38230 40182 57058 92055 333 30/// 58021;",
"76373099999","2011-12-28T00:00:00","4","25.35","-105.75","1967.0","TEPEHUANES DGO., MX","FM-12","99999","V020","200,1,N,0010,1","22000,1,9,N","030000,1,N,1","+0180,1","-0163,1","10168,1","24,0000,9,1",,,,"00,1,+99999,9,99,9",,"00,99,1,00,1,00,1,99999,9,00,1,00,1",,"01,9",,"120,M,+0230,1","180,N,-0095,1","99999,9,08220,1","7,1,001,1,+001,1",,"SYN106AAXX  28001 76373 32980 02001 10180 21163 38220 40168 57001 92355 333 10230 21095 30/// 50381 58001 70000;","Q01  00002PRCP24"
"76373099999","2011-12-28T03:00:00","4","25.35","-105.75","1967.0","TEPEHUANES DGO., MX","FM-12","99999","V020","999,9,C,0000,1","22000,1,9,N","001000,1,N,1","+0069,1","-0151,1","10194,1",,,,,"00,1,+99999,9,99,9",,"00,99,1,00,1,00,1,99999,9,00,1,00,1",,"01,9",,,,"99999,9,08240,1","2,1,004,1,-016,1",,"SYN082AAXX  28031 76373 32910 00000 10069 21151 38240 40194 52004 90250 333 30/// 59016;",
"76373099999","2011-12-28T06:00:00","4","25.35","-105.75","1967.0","TEPEHUANES DGO., MX","FM-12","99999","V020","999,9,C,0000,1","22000,1,9,N","001000,1,N,1","+0032,1","-0142,1","10210,1",,,,,"00,1,+99999,9,99,9",,"00,99,1,00,1,00,1,99999,9,00,1,00,1","0558,9","01,9",,"240,M,+0230,1","240,N,-0095,1","99999,9,08253,1","2,1,013,1,+999,9",,"SYN106AAXX  28061 76373 32910 00000 10032 21142 38253 40210 52013 90550 333 10230 21095 30/// 55093 21691 59022;",
"76373099999","2011-12-28T12:00:00","4","25.35","-105.75","1967.0","TEPEHUANES DGO., MX","FM-12","99999","V020","999,9,C,0000,1","22000,1,9,N","001000,1,N,1","-0006,1","-0126,1","10186,1","24,0000,9,1",,,,"00,1,+99999,9,99,9",,"00,99,1,00,1,00,1,99999,9,00,1,00,1",,"09,9","999,-0037,9","120,N,-0025,1","240,M,+0230,1","99999,9,08234,1","9,9,999,9,-012,1",,"SYN100AAXX  28121 76373 32910 00000 11006 21126 38234 40186 5//// 91155 333 10230 21025 31037 59012 70000;","Q01  00002PRCP24"
"76373099999","2011-12-28T15:00:00","4","25.35","-105.75","1967.0","TEPEHUANES DGO., MX","FM-12","99999","V020","999,9,C,0000,1","00750,1,C,N","001000,1,N,1","-0010,1","-0119,1","10206,1",,,,,"02,1,+00600,1,08,1",,"06,99,1,06,1,02,1,00800,1,04,1,00,1",,"01,9",,,,"99999,9,08250,1","2,1,024,1,-024,1",,"SYN100AAXX  28151 76373 32510 60000 11010 21119 38250 40206 52024 86240 91455 333 30/// 59024 82820 84337;",
"76373099999","2011-12-28T18:00:00","4","25.35","-105.75","1967.0","TEPEHUANES DGO., MX","FM-12","99999","V020","999,9,C,0000,1","00750,1,C,N","020000,1,N,1","+0099,1","-0128,1","10219,1",,,,,"01,1,+00600,1,08,1",,"05,99,1,05,1,01,1,00800,1,04,1,00,1",,"01,9",,"120,M,+0105,1","240,N,-0025,1","99999,9,08260,1","2,1,010,1,-028,1",,"SYN118AAXX  28181 76373 32570 50000 10099 21128 38260 40219 52010 85140 91750 333 10105 21025 30/// 56990 59028 81820 84337;",
"76373099999","2011-12-28T21:00:00","4","25.35","-105.75","1967.0","TEPEHUANES DGO., MX","FM-12","99999","V020","999,9,C,0000,1","22000,1,9,N","030000,1,N,1","+0223,2","-0154,1","10164,1",,,,,"00,1,+99999,9,99,9",,"00,99,1,00,1,00,1,99999,9,00,1,00,1",,"01,9",,,,"99999,9,08216,1","7,1,056,1,-028,1",,"SYN082AAXX  28211 76373 32980 00000 10223 21154 38216 40164 57056 92050 333 30/// 59028;",
"76373099999","2011-12-29T00:00:00","4","25.35","-105.75","1967.0","TEPEHUANES DGO., MX","FM-12","99999","V020","160,1,N,0010,1","22000,1,9,N","030000,1,N,1","+0198,1","-0177,1","10165,1","24,0000,9,1",,,,"00,1,+99999,9,99,9",,"00,99,1,00,1,00,1,99999,9,00,1,00,1",,"01,9",,"120,M,+0240,1","180,N,-0025,1","99999,9,08217,1","7,1,011,1,-013,1",,"SYN106AAXX  29001 76373 32980 01601 10198 21177 38217 40165 57011 92355 333 10240 21025 30/// 50401 59013 70000;","Q01  00002PRCP24"
"76373099999","2011-12-29T06:00:00","4","25.35","-105.75","1967.0","TEPEHUANES DGO., MX","FM-12","99999","V020","999,9,C,0000,1","22000,1,9,N","001000,1,N,1","+0020,2","+9999,9","10208,1",,,,,"00,1,+99999,9,99,9",,"00,99,1,00,1,00,1,99999,9,00,1,00,1","0468,9","01,9",,"240,M,+0240,1","240,N,-0025,1","99999,9,08252,1","2,1,043,1,+999,9",,"SYN106AAXX  29061 76373 32910 00000 10020 20160 38252 40208 52043 90555 333 10240 21025 30/// 55078 21674 59001;",
"76373099999","2011-12-29T15:00:00","4","25.35","-105.75","1967.0","TEPEHUANES DGO., MX","FM-12","99999","V020","100,1,N,9999,9","22000,1,9,N","020000,1,N,1","+9999,9","+9999,9","10186,1",,,,,,,"01,99,1,99,9,99,9,99999,9,99,9,99,9",,"01,9",,,,"99999,9,08234,1","7,1,011,1,-024,1",,"SYN076AAXX  29151 76373 32970 11045 21133 38234 40186 57011 91450 333 30/// 59024;","Q01+004503WOSPD "
"76373099999","2011-12-29T18:00:00","4","25.35","-105.75","1967.0","TEPEHUANES DGO., MX","FM-12","99999","V020","999,9,C,0000,1","22000,1,9,N","030000,1,N,1","+0124,1","-0128,1","10173,1",,,,,"00,1,+99999,9,99,9",,"00,99,1,00,1,00,1,99999,9,00,1,00,1",,"01,9",,"120,M,+0130,1","240,N,-0080,1","99999,9,08224,1","7,1,001,1,-042,1",,"SYN094AAXX  29181 76373 32980 00000 10124 21128 38224 40173 57001 91755 333 10130 21080 30/// 59042;",
"76373099999","2011-12-29T21:00:00","4","25.35","-105.75","1967.0","TEPEHUANES DGO., MX","FM-12","99999","V020","160,1,N,0010,1","22000,1,9,N","030000,1,N,1","+0218,1","-0150,1","10147,1",,,,,"00,1,+99999,9,99,9",,"00,99,1,00,1,00,1,99999,9,00,1,00,1",,"01,9",,,,"99999,9,08202,1","7,1,022,1,-014,1",,"SYN082AAXX  29211 76373 32980 01601 10218 21150 38202 40147 57022 92050 333 30/// 59014;",
"76373099999","2011-12-30T00:00:00","4","25.35","-105.75","1967.0","TEPEHUANES DGO., MX","FM-12","99999","V020","140,1,N,0010,1","22000,1,9,N","020000,1,N,1","+0211,1","-0102,1","10130,1","24,0000,9,1",,,,"00,1,+99999,9,99,9",,"00,99,1,00,1,00,1,99999,9,00,1,00,1",,"01,9",,"120,M,+0250,1","180,N,-0080,1","99999,9,08198,1","7,1,017,1,-031,1",,"SYN106AAXX  30001 76373 32970 01401 10211 21102 38198 40130 57017 90055 333 10250 21080 30/// 50341 59031 70000;","Q01  00002PRCP24"
"76373099999","2011-12-30T03:00:00","4","25.35","-105.75","1967.0","TEPEHUANES DGO., MX","FM-12","99999","V020","999,9,C,0000,1","22000,1,9,N","001000,1,N,1","+0123,1","-0093,1","10146,1",,,,,"00,1,+99999,9,99,9",,"00,99,1,00,1,00,1,99999,9,00,1,00,1",,"01,9",,,,"99999,9,08202,1","2,1,013,1,-011,1",,"SYN082AAXX  30031 76373 32910 00000 10123 21093 38202 40146 52013 90255 333 30/// 59011;",
"76373099999","2011-12-30T15:00:00","4","25.35","-105.75","1967.0","TEPEHUANES DGO., MX","FM-12","99999","V020","999,9,C,0000,1","22000,1,9,N","020000,1,N,1","-0008,1","-0084,1","10201,1",,,,,"00,1,+99999,9,99,9",,"00,99,1,00,1,00,1,99999,9,00,1,00,1",,"01,9",,,,"99999,9,08246,1","2,1,014,1,+012,1",,"SYN082AAXX  30151 76373 32970 00000 11008 21084 38246 40201 52014 91455 333 30/// 58012;",
"76373099999","2011-12-30T21:00:00","4","25.35","-105.75","1967.0","TEPEHUANES DGO., MX","FM-12","99999","V020","140,1,N,0010,1","22000,1,9,N","030000,1,N,1","+0228,2","-0112,1","10154,1",,,,,"00,1,+99999,9,99,9",,"00,99,1,00,1,00,1,99999,9,00,1,00,1",,"01,9",,,,"99999,9,08208,1","7,1,048,1,+006,1",,"SYN082AAXX  30211 76373 32980 01401 10228 21112 38208 40154 57048 92055 333 30/// 58006;",
"76373099999","2011-12-31T00:00:00","4","25.35","-105.75","1967.0","TEPEHUANES DGO., MX","FM-12","99999","V020","160,1,N,0020,1","22000,1,9,N","030000,1,N,1","+0210,1","-0126,1","10140,1","24,0000,9,1",,,,"00,1,+99999,9,99,9",,"00,99,1,00,1,00,1,99999,9,00,1,00,1",,"01,9",,"120,M,+0250,1","180,N,-0045,1","99999,9,08197,1","7,1,011,1,+013,1",,"SYN106AAXX  31001 76373 32980 01602 10210 21126 38197 40140 57011 92350 333 10250 21045 30/// 50301 58013 70000;","Q01  00002PRCP24"
"76373099999","2011-12-31T03:00:00","4","25.35","-105.75","1967.0","TEPEHUANES DGO., MX","FM-12","99999","V020","999,9,C,0000,1","22000,1,9,N","001000,1,N,1","+0104,1","-0109,1","10173,1",,,,,"00,1,+99999,9,99,9",,"00,99,1,00,1,00,1,99999,9,00,1,00,1",,"01,9",,,,"99999,9,08224,1","2,1,033,1,+029,1",,"SYN082AAXX  31031 76373 32910 00000 10104 21109 38224 40173 52033 90250 333 30/// 58029;",
"76373099999","2011-12-31T12:00:00","4","25.35","-105.75","1967.0","TEPEHUANES DGO., MX","FM-12","99999","V020","999,9,C,0000,1","22000,1,9,N","001000,1,N,1","-0014,1","-0120,1","10192,1","24,0000,9,1",,,,"00,1,+99999,9,99,9",,"00,99,1,00,1,00,1,99999,9,00,1,00,1",,"09,9","999,-0010,9","120,N,-0040,1","240,M,+0250,1","99999,9,08239,1","9,9,999,9,+001,1",,"SYN100AAXX  31121 76373 32910 00000 11014 21120 38239 40192 5//// 91155 333 10250 21040 31010 58001 70000;","Q01  00002PRCP24"
"76373099999","2011-12-31T15:00:00","4","25.35","-105.75","1967.0","TEPEHUANES DGO., MX","FM-12","99999","V020","999,9,C,0000,1","22000,1,9,N","020000,1,N,1","-0002,1","-0104,1","10198,1",,,,,"00,1,+99999,9,99,9",,"00,99,1,00,1,00,1,99999,9,00,1,00,1",,"01,9",,,,"99999,9,08244,1","2,1,005,1,-002,1",,"SYN082AAXX  31151 76373 32970 00000 11002 21104 38244 40198 52005 91455 333 30/// 59002;",
"76373099999","2011-12-31T18:00:00","4","25.35","-105.75","1967.0","TEPEHUANES DGO., MX","FM-12","99999","V020","999,9,C,0000,1","22000,1,9,N","030000,1,N,1","+0148,1","-0130,1","10159,1",,,,,"00,1,+99999,9,99,9",,"00,99,1,00,1,00,1,99999,9,00,1,00,1",,"01,9",,"120,M,+0160,1","240,N,-0040,1","99999,9,08212,1","7,1,032,1,+011,1",,"SYN094AAXX  31181 76373 32980 00000 10148 21130 38212 40159 57032 91755 333 10160 21040 30/// 58011;",
"76373099999","2011-12-31T21:00:00","4","25.35","-105.75","1967.0","TEPEHUANES DGO., MX","FM-12","99999","V020","140,1,N,0010,1","22000,1,9,N","000600,1,N,1","+0224,2","-0031,1","10144,1",,,,,"02,1,+00690,1,06,1",,"02,99,1,02,1,04,1,01250,1,00,1,00,1",,"01,9",,,,"99999,9,08200,1","2,1,018,1,-008,1",,"SYN100AAXX  31211 76373 32606 21401 10224 21031 38200 40144 52018 82400 92050 333 30/// 56900 59008 82623;",
