"STATION","DATE","SOURCE","LATITUDE","LONGITUDE","ELEVATION","NAME","REPORT_TYPE","CALL_SIGN","QUALITY_CONTROL","WND","CIG","VIS","TMP","DEW","SLP","AA1","AA2","AA3","AY1","AY2","GA1","GA2","GA3","GF1","GJ1","IA1","IA2","KA1","KA2","MA1","MD1","MW1","REM","EQD"
"76373099999","2006-01-01T15:00:00","4","25.35","-105.75","1967.0","TEPEHUANES DGO., MX","FM-12","99999","V020","999,9,C,0000,1","22000,1,9,N","070000,1,N,1","-0014,1","-0017,1","10235,1",,,,,,"00,1,+99999,9,99,9",,,"00,99,1,00,1,00,1,99999,9,00,1,00,1",,"01,9",,,,"99999,9,08215,1","9,9,999,9,+004,1",,"SYN082AAXX  01151 76373 32988 00000 11014 21017 38215 40235 5//// 91455 333 30/// 58004;",
"76373099999","2006-01-03T12:00:00","4","25.35","-105.75","1967.0","TEPEHUANES DGO., MX","FM-12","99999","V020","999,9,C,0000,1","22000,1,9,N","000100,1,N,1","-0020,1","-0070,1","10254,1","24,0000,9,1",,,,,"00,1,+99999,9,99,9",,,"00,99,1,00,1,00,1,99999,9,00,1,00,1",,"09,9","999,-0056,1","120,N,-0024,1","240,M,+0256,1","99999,9,08241,1",,,"SYN100AAXX  03121 76373 32901 00000 11020 21070 38241 40254 5//// 91155 333 10256 21024 31056 58/// 70000;","Q01  00002PRCP24"
"76373099999","2006-01-03T15:00:00","4","25.35","-105.75","1967.0","TEPEHUANES DGO., MX","FM-12","99999","V020","999,9,C,0000,1","22000,1,9,N","070000,1,N,1","-0004,1","-0030,1","10289,1",,,,,,"01,1,+06000,1,00,1",,,"01,99,1,00,1,00,1,99999,9,00,1,02,1",,"01,9",,,,"99999,9,08252,1","2,1,011,1,+000,1",,"SYN100AAXX  03151 76373 32988 10000 11004 21030 38252 40289 52011 80002 91448 333 30/// 56002 58000 81070;",
"76373099999","2006-01-03T18:00:00","4","25.35","-105.75","1967.0","TEPEHUANES DGO., MX","FM-12","99999","V020","999,9,C,0000,1","22000,1,9,N","070000,1,N,1","+9999,9","-0018,1","10257,1",,,,,,"02,1,+06000,1,00,1",,,"02,99,1,00,1,00,1,99999,9,00,1,02,1",,"01,9",,"120,M,+0180,1","240,N,-0032,1","99999,9,08238,1","7,1,014,1,+017,1",,"SYN112AAXX  03181 76373 32988 20000 10160 21018 38238 40257 57014 80002 91750 333 10180 21032 30/// 56002 58017 82070;","Q01+001603ATOT  "
"76373099999","2006-01-04T00:00:00","4","25.35","-105.75","1967.0","TEPEHUANES DGO., MX","FM-12","99999","V020","240,1,N,0020,1","01200,1,9,N","070000,1,N,1","+0234,1","-0066,1","10144,1","24,0000,9,1",,,,,,,,"08,99,1,08,1,00,1,01250,1,03,1,00,1",,"01,9",,"120,M,+0298,1","180,N,-0032,1","99999,9,08221,1","6,1,001,1,+999,9",,"SYN124AAXX  04001 76373 32688 82402 10234 21066 38221 40144 56001 88030 92340 333 10298 21032 30/// 50300 56060 58/// 70000 88360;",
"76373099999","2006-01-04T12:00:00","4","25.35","-105.75","1967.0","TEPEHUANES DGO., MX","FM-12","99999","V020","999,9,C,0000,1","22000,1,9,N","000100,1,N,1","+0088,1","+0070,1","10170,1","24,0000,9,1",,,,,"03,1,+06000,1,00,1",,,"03,99,1,00,1,00,1,99999,9,00,1,06,1",,"01,9","999,+0036,1","120,N,+0073,1","240,M,+0298,1","99999,9,08236,1","9,9,999,9,-005,1",,"SYN118AAXX  04121 76373 32901 30000 10088 20070 38236 40170 5//// 80006 91140 333 10298 20073 30036 56006 59005 70000 83070;",
"76373099999","2006-01-04T15:00:00","4","25.35","-105.75","1967.0","TEPEHUANES DGO., MX","FM-12","99999","V020","999,9,C,0000,1","22000,1,9,N","070000,1,N,1","+0084,1","-0020,1","10214,1",,,,,,"01,1,+00360,1,08,1","01,1,+03000,1,03,1",,"03,99,1,01,1,01,1,00450,1,04,1,02,1",,"01,9",,,,"99999,9,08253,1","2,1,017,1,+001,1",,"SYN112AAXX  04151 76373 32488 30000 10084 21020 38253 40214 52017 81142 91450 333 30/// 56666 58001 81812 81360 81070;",
"76373099999","2006-01-04T18:00:00","4","25.35","-105.75","1967.0","TEPEHUANES DGO., MX","FM-12","99999","V020","160,1,N,0010,1","22000,1,9,N","070000,1,N,1","+9999,9","-0011,1","10205,1",,,,,,"01,1,+03000,1,03,1",,,"02,99,1,01,1,00,1,01250,1,03,1,02,1",,"01,9",,"120,M,+0220,1","240,N,+0055,1","99999,9,08249,1","8,1,004,1,+011,1",,"SYN118AAXX  04181 76373 32688 21601 10196 21011 38249 40205 58004 81032 91745 333 10220 20055 30/// 56066 58011 81360 81070;","Q01+001963ATOT  "
"76373099999","2006-01-05T12:00:00","4","25.35","-105.75","1967.0","TEPEHUANES DGO., MX","FM-12","99999","V020","999,9,C,0000,1","01800,1,9,N","000100,1,N,1","+0050,1","-0037,1","10219,1","24,0000,9,1",,,,,"08,1,+01800,1,04,1",,,"08,99,1,08,1,00,1,01250,1,02,1,00,1",,"01,9","999,+0022,1","120,N,+0042,1","240,M,+0288,1","99999,9,08260,1","9,9,999,9,+024,1",,"SYN118AAXX  05121 76373 32601 80000 10050 21037 38260 40219 5//// 88020 91145 333 10288 20042 30022 56090 58024 70000 88456;",
"76373099999","2006-01-05T15:00:00","4","25.35","-105.75","1967.0","TEPEHUANES DGO., MX","FM-12","99999","V020","999,9,C,0000,1","03600,1,C,N","070000,1,N,1","+0062,1","-0026,1","10261,1",,,,,,"01,1,+00360,1,01,1",,,"07,99,1,01,1,01,1,00450,1,03,1,00,1",,"01,9",,,,"99999,9,08275,1","2,1,015,1,+022,1",,"SYN106AAXX  05151 76373 32488 70000 10062 21026 38275 40261 52015 81130 91448 333 30/// 56660 58022 81112 86358;",
"76373099999","2006-01-05T18:00:00","4","25.35","-105.75","1967.0","TEPEHUANES DGO., MX","FM-12","99999","V020","120,1,N,0030,1","22000,1,9,N","070000,1,N,1","+0166,1","-0033,1","10261,1",,,,,,"03,1,+03000,1,03,1",,,"04,99,1,03,1,00,1,01250,1,03,1,09,1",,"01,9",,"120,M,+0190,1","240,N,+0042,1","99999,9,08275,1","0,1,000,1,+026,1",,"SYN118AAXX  05181 76373 32688 41203 10166 21033 38275 40261 50000 83039 91745 333 10190 20042 30/// 56066 58026 83360 81170;",
"76373099999","2006-01-05T21:00:00","4","25.35","-105.75","1967.0","TEPEHUANES DGO., MX","FM-12","99999","V020","150,1,N,0060,1","22000,1,9,N","070000,1,N,1","+0210,1","-0082,1","99999,9",,,,,,"01,1,+03000,1,03,1",,,"01,99,1,01,1,00,1,01250,1,03,1,00,1",,"01,9",,,,"99999,9,08244,1","6,1,031,1,+999,9",,"SYN100AAXX  05211 76373 32688 11506 10210 21082 38244 40195 56031 81030 92055 333 30/// 56060 58/// 81360;","Q01+101953APOSLP"
"76373099999","2006-01-06T12:00:00","4","25.35","-105.75","1967.0","TEPEHUANES DGO., MX","FM-12","99999","V020","999,9,C,0000,1","22000,1,9,N","000100,1,N,1","-0018,1","-0071,1","10290,1","24,0000,9,1",,,,,"00,1,+99999,9,99,9",,,"00,99,1,00,1,00,1,99999,9,00,1,00,1",,"09,9","999,-0055,1","120,N,-0025,1","240,M,+0234,1","99999,9,08285,1","9,9,999,9,+025,1",,"SYN100AAXX  06121 76373 32901 00000 11018 21071 38285 40290 5//// 91150 333 10234 21025 31055 58025 70000;","Q01  00002PRCP24"
"76373099999","2006-01-06T15:00:00","4","25.35","-105.75","1967.0","TEPEHUANES DGO., MX","FM-12","99999","V020","999,9,C,0000,1","22000,1,9,N","070000,1,N,1","+0002,1","-0066,1","10344,1",,,,,,"00,1,+99999,9,99,9",,,"00,99,1,00,1,00,1,99999,9,00,1,00,1",,"01,9",,,,"99999,9,08305,1","2,1,020,1,+030,1",,"SYN082AAXX  06151 76373 32988 00000 10002 21066 38305 40344 52020 91450 333 30/// 58030;",
"76373099999","2006-01-06T18:00:00","4","25.35","-105.75","1967.0","TEPEHUANES DGO., MX","FM-12","99999","V020","100,1,N,0010,1","22000,1,9,N","070000,1,N,1","+0124,1","-0048,1","10328,1",,,,,,"00,1,+99999,9,99,9",,,"00,99,1,00,1,00,1,99999,9,00,1,00,1",,"01,9",,"120,M,+0148,1","240,N,-0040,1","99999,9,08295,1","8,1,010,1,+020,1",,"SYN094AAXX  06181 76373 32988 01001 10124 21048 38295 40328 58010 91750 333 10148 21040 30/// 58020;",
"76373099999","2006-01-06T21:00:00","4","25.35","-105.75","1967.0","TEPEHUANES DGO., MX","FM-12","99999","V020","140,1,N,0030,1","99999,9,9,N","070000,1,N,1","+0176,1","-0040,1","99999,9",,,,,,"09,1,+99999,9,99,9",,,"09,99,1,09,1,99,9,99999,9,99,9,99,9",,"01,9",,,,"99999,9,08254,1","7,1,041,1,-021,1",,"SYN082AAXX  06211 76373 32988 91403 10176 21040 38254 40247 57041 92040 333 30/// 59021;","Q01+102473APOSLP"
"76373099999","2006-01-07T18:00:00","4","25.35","-105.75","1967.0","TEPEHUANES DGO., MX","FM-12","99999","V020","120,1,N,0010,1","22000,1,9,N","070000,1,N,1","+0100,1","-0055,1","10287,1",,,,,,"00,1,+99999,9,99,9",,,"00,99,1,00,1,00,1,99999,9,00,1,00,1",,"01,9",,"120,M,+0130,1","240,N,-0080,1","99999,9,08260,1","8,1,006,1,-035,1",,"SYN094AAXX  07181 76373 32988 01201 10100 21055 38260 40287 58006 91750 333 10130 21080 30/// 59035;",
"76373099999","2006-01-07T21:00:00","4","25.35","-105.75","1967.0","TEPEHUANES DGO., MX","FM-12","99999","V020","090,1,N,0040,1","22000,1,9,N","070000,1,N,1","+0192,1","-0083,1","99999,9",,,,,,"00,1,+99999,9,99,9",,,"00,99,1,00,1,00,1,99999,9,00,1,00,1",,"01,9",,,,"99999,9,08211,1","6,1,049,1,-043,1",,"SYN082AAXX  07211 76373 32988 00904 10192 21083 38211 40216 56049 92045 333 30/// 59043;","Q01+102163APOSLP"
"76373099999","2006-01-08T00:00:00","4","25.35","-105.75","1967.0","TEPEHUANES DGO., MX","FM-12","99999","V020","140,1,N,0030,1","22000,1,9,N","070000,1,N,1","+0198,1","-0118,1","10151,2","24,0000,9,1",,,,,"00,1,+99999,9,99,9",,,"00,99,1,00,1,00,1,99999,9,00,1,00,1",,"01,9",,"120,M,+0224,1","180,N,-0080,1","99999,9,08199,1","6,1,012,1,-044,1",,"SYN106AAXX  08001 76373 32988 01403 10198 21118 38199 40151 56012 92345 333 10224 21080 30/// 50300 59044 70000;","Q01  00002PRCP24"
"76373099999","2006-01-08T03:00:00","4","25.35","-105.75","1967.0","TEPEHUANES DGO., MX","FM-12","99999","V020","999,9,C,0000,1","22000,1,9,N","010000,1,N,1","+9999,9","-0083,1","10151,1",,,,,,"00,1,+99999,9,99,9",,,"00,99,1,00,1,00,1,99999,9,00,1,00,1",,"01,9",,,,"99999,9,08222,1","2,1,023,1,+999,9",,"SYN082AAXX  08031 76373 32960 00000 10084 21083 38222 40151 52023 90240 333 30/// 58///;","Q01+000843ATOT  "
"76373099999","2006-01-08T15:00:00","4","25.35","-105.75","1967.0","TEPEHUANES DGO., MX","FM-12","99999","V020","999,9,C,0000,1","22000,1,9,N","070000,1,N,1","+0000,1","-0079,1","10261,1",,,,,,"01,1,+03000,1,03,1",,,"01,99,1,01,1,00,1,01250,1,04,1,00,1",,"01,9",,,,"99999,9,08233,1","2,1,011,1,+999,9",,"SYN100AAXX  08151 76373 32688 10000 10000 21079 38233 40261 52011 81040 91450 333 30/// 56060 58/// 81360;",
"76373099999","2006-01-08T18:00:00","4","25.35","-105.75","1967.0","TEPEHUANES DGO., MX","FM-12","99999","V020","110,1,N,0020,1","22000,1,9,N","070000,1,N,1","+0126,1","-0019,1","10259,1",,,,,,"02,1,+03000,1,03,1",,,"02,99,1,02,1,00,1,01250,1,03,1,00,1",,"01,9",,"120,M,+0158,1","240,N,-0046,1","99999,9,08228,1","8,1,005,1,-032,1",,"SYN112AAXX  08181 76373 32688 21102 10126 21019 38228 40259 58005 82030 91748 333 10158 21046 30/// 56060 59032 82360;",
"76373099999","2006-01-08T21:00:00","4","25.35","-105.75","1967.0","TEPEHUANES DGO., MX","FM-12","99999","V020","320,1,N,0060,1","22000,1,9,N","070000,1,N,1","+0234,2","-0020,1","99999,9",,,,,,"00,1,+99999,9,99,9",,,"00,99,1,00,1,00,1,99999,9,00,1,00,1",,"01,9",,,,"99999,9,08185,1","6,1,043,1,-026,1",,"SYN082AAXX  08211 76373 32988 03206 10234 21020 38185 40162 56043 92040 333 30/// 59026;","Q01+101623APOSLP"
"76373099999","2006-01-09T00:00:00","4","25.35","-105.75","1967.0","TEPEHUANES DGO., MX","FM-12","99999","V020","270,1,N,0050,1","22000,1,9,N","070000,1,N,1","+0196,1","-0006,1","10113,2","24,0000,9,1",,,,,"00,1,+99999,9,99,9",,,"00,99,1,00,1,00,1,99999,9,00,1,00,1",,"01,9",,"120,M,+0248,1","180,N,-0046,1","99999,9,08184,1","6,1,001,1,-015,1",,"SYN106AAXX  09001 76373 32988 02705 10196 21006 38184 40113 56001 92340 333 10248 21046 30/// 50260 59015 70000;","Q01  00002PRCP24"
"76373099999","2006-01-09T12:00:00","4","25.35","-105.75","1967.0","TEPEHUANES DGO., MX","FM-12","99999","V020","999,9,C,0000,1","22000,1,9,N","000200,1,N,1","+0016,1","-0035,1","10198,1","24,0000,9,1",,,,,"00,1,+99999,9,99,9",,,"00,99,1,00,1,00,1,99999,9,00,1,00,1",,"09,9","999,-0025,1","120,N,+0000,1","240,M,+0248,1","99999,9,08222,1","9,9,999,9,+000,1",,"SYN100AAXX  09121 76373 32902 00000 10016 21035 38222 40198 5//// 91152 333 10248 20000 31025 58000 70000;","Q01  00002PRCP24"
"76373099999","2006-01-09T15:00:00","4","25.35","-105.75","1967.0","TEPEHUANES DGO., MX","FM-12","99999","V020","340,1,N,0010,1","22000,1,9,N","070000,1,N,1","+0016,1","-0026,1","10240,1",,,,,,"02,1,+03000,1,03,1",,,"04,99,1,02,1,00,1,01250,1,04,1,01,1",,"01,9",,,,"99999,9,08234,1","3,1,012,1,+001,1",,"SYN106AAXX  09151 76373 32688 43401 10016 21026 38234 40240 53012 82041 91450 333 30/// 56066 58001 82360 82070;",
"76373099999","2006-01-09T18:00:00","4","25.35","-105.75","1967.0","TEPEHUANES DGO., MX","FM-12","99999","V020","100,1,N,0010,1","22000,1,9,N","070000,1,N,1","+0148,1","+0013,1","10230,1",,,,,,"01,1,+00360,1,08,1",,,"02,99,1,01,1,01,1,00450,1,03,1,00,1",,"01,9",,"120,M,+0176,1","240,N,-0010,1","99999,9,08230,1","8,1,004,1,+002,1",,"SYN118AAXX  09181 76373 32488 21001 10148 20013 38230 40230 58004 81130 91750 333 10176 21010 30/// 56660 58002 81812 81360;",
"76373099999","2006-01-09T21:00:00","4","25.35","-105.75","1967.0","TEPEHUANES DGO., MX","FM-12","99999","V020","110,1,N,0030,1","03000,1,9,N","070000,1,N,1","+0200,1","+0002,1","10160,1",,,,,,"02,1,+00300,1,09,1","01,1,+00300,1,08,1","03,1,+03000,1,04,1","07,99,1,02,1,03,1,00450,1,02,1,04,1",,"01,9",,,,"99999,9,08200,1","6,1,030,1,+015,1",,"SYN118AAXX  09211 76373 32488 71103 10200 20002 38200 40160 56030 82324 92050 333 30/// 56666 58015 82910 81810 83460 81070;",
"76373099999","2006-01-10T00:00:00","4","25.35","-105.75","1967.0","TEPEHUANES DGO., MX","FM-12","99999","V020","280,1,N,0040,1","22000,1,9,N","070000,1,N,1","+0202,1","-0024,1","10123,1","24,0000,9,1",,,,,"02,1,+00300,1,08,1",,,"04,99,1,02,1,02,1,00450,1,03,1,00,1",,"01,9",,"120,M,+0232,1","180,N,-0010,1","99999,9,08198,1","7,1,002,1,+014,1",,"SYN130AAXX  10001 76373 32488 42804 10202 21024 38198 40123 57002 82230 92350 333 10232 21010 30/// 50130 56670 58014 70000 82810 82360;",
"76373099999","2006-01-10T03:00:00","4","25.35","-105.75","1967.0","TEPEHUANES DGO., MX","FM-12","99999","V020","270,1,N,0040,1","22000,1,9,N","010000,1,N,1","+0094,1","+0009,1","10129,1",,,,,,"03,1,+03000,1,03,1",,,"03,99,1,03,1,00,1,01250,1,03,1,00,1",,"01,9",,,,"99999,9,08220,1","2,1,022,1,+999,9",,"SYN100AAXX  10031 76373 32660 32704 10094 20009 38220 40129 52022 83030 90240 333 30/// 56060 58/// 83360;",
"76373099999","2006-01-10T06:00:00","4","25.35","-105.75","1967.0","TEPEHUANES DGO., MX","FM-12","99999","V020","999,9,C,0000,1","22000,1,9,N","010000,1,N,1","+0078,1","+0013,1","10158,1",,,,,,"00,1,+99999,9,99,9",,,"00,99,1,00,1,00,1,99999,9,00,1,00,1",,"01,9",,"240,M,+0232,1","240,N,-0010,1","99999,9,08240,1","2,1,020,1,+999,9",,"SYN094AAXX  10061 76373 32960 00000 10078 20013 38240 40158 52020 90540 333 10232 21010 30/// 58///;",
"76373099999","2006-01-10T12:00:00","4","25.35","-105.75","1967.0","TEPEHUANES DGO., MX","FM-12","99999","V020","999,9,C,0000,1","22000,1,9,N","000200,1,N,1","+0010,1","-0022,1","10224,1","24,0000,9,1",,,,,"00,1,+99999,9,99,9",,,"00,99,1,00,1,00,1,99999,9,00,1,00,1",,"09,9","999,-0028,1","120,N,+0000,1","240,M,+0232,1","99999,9,08241,1","9,9,999,9,+021,1",,"SYN100AAXX  10121 76373 32902 00000 10010 21022 38241 40224 5//// 91145 333 10232 20000 31028 58021 70000;","Q01  00002PRCP24"
"76373099999","2006-01-10T15:00:00","4","25.35","-105.75","1967.0","TEPEHUANES DGO., MX","FM-12","99999","V020","999,9,C,0000,1","22000,1,9,N","070000,1,N,1","+0022,1","-0014,1","10266,1",,,,,,"01,1,+03000,1,03,1",,,"03,99,1,01,1,00,1,01250,1,03,1,04,1",,"01,9",,,,"99999,9,08255,1","2,1,014,1,+021,1",,"SYN106AAXX  10151 76373 32688 30000 10022 21014 38255 40266 52014 81034 91450 333 30/// 56066 58021 81360 82070;",
"76373099999","2006-01-11T00:00:00","4","25.35","-105.75","1967.0","TEPEHUANES DGO., MX","FM-12","99999","V020","140,1,N,0030,1","09000,1,9,N","070000,1,N,1","+0178,1","+0000,1","10139,1","24,0000,9,1",,,,,"01,1,+00300,1,08,1","01,1,+03000,1,03,1",,"06,99,1,01,1,01,1,00450,1,03,1,04,1",,"01,9",,"120,M,+0210,1","180,N,-0015,1","99999,9,08204,1","7,1,009,1,+006,1",,"SYN136AAXX  11001 76373 32488 61403 10178 20000 38204 40139 57009 81134 92350 333 10210 21015 30/// 50280 56666 58006 70000 81810 81360 84070;",
"76373099999","2006-01-11T03:00:00","4","25.35","-105.75","1967.0","TEPEHUANES DGO., MX","FM-12","99999","V020","999,9,C,0000,1","03600,1,C,N","010000,1,N,1","+0134,1","-0019,1","10129,1",,,,,,"04,1,+00600,1,08,1",,,"06,99,1,04,1,02,1,00250,1,03,1,00,1",,"01,9",,,,"99999,9,08218,1","2,1,014,1,-002,1",,"SYN106AAXX  11031 76373 32360 60000 10134 21019 38218 40129 52014 84230 90240 333 30/// 56660 59002 84820 82360;",
"76373099999","2006-01-11T06:00:00","4","25.35","-105.75","1967.0","TEPEHUANES DGO., MX","FM-12","99999","V020","999,9,C,0000,1","22000,1,9,N","010000,1,N,1","+0060,1","-0008,1","10155,1",,,,,,"00,1,+99999,9,99,9",,,"00,99,1,00,1,00,1,99999,9,00,1,00,1","0510,9","01,9",,"240,M,+0210,1","240,N,-0015,1","99999,9,08235,1","2,1,017,1,-005,1",,"SYN100AAXX  11061 76373 32960 00000 10060 21008 38235 40155 52017 90540 333 10210 21015 30/// 55085 59005;",
"76373099999","2006-01-11T12:00:00","4","25.35","-105.75","1967.0","TEPEHUANES DGO., MX","FM-12","99999","V020","999,9,C,0000,1","22000,1,9,N","000200,1,N,1","+0010,1","-0033,1","10195,1","24,0000,9,1",,,,,"03,1,+03000,1,03,1",,,"03,99,1,03,1,00,1,01250,1,04,1,00,1",,"09,9","999,-0020,1","120,N,+0002,1","240,M,+0210,1","99999,9,08218,1","9,9,999,9,-023,1",,"SYN118AAXX  11121 76373 32602 30000 10010 21033 38218 40195 5//// 83040 91150 333 10210 20002 31020 56060 59023 70000 83360;",
"76373099999","2006-01-11T15:00:00","4","25.35","-105.75","1967.0","TEPEHUANES DGO., MX","FM-12","99999","V020","999,9,C,0000,1","03000,1,9,N","070000,1,N,1","+0018,1","-0027,1","10242,1",,,,,,"08,1,+03000,1,03,1",,,"08,99,1,08,1,00,1,01250,1,03,1,00,1",,"01,9",,,,"99999,9,08233,1","2,1,015,1,-022,1",,"SYN100AAXX  11151 76373 32688 80000 10018 21027 38233 40242 52015 88030 91450 333 30/// 56060 59022 88360;",
"76373099999","2006-01-11T18:00:00","4","25.35","-105.75","1967.0","TEPEHUANES DGO., MX","FM-12","99999","V020","999,9,C,0000,1","03000,1,9,N","070000,1,N,1","+0138,1","-0002,1","10226,1",,,,,,"05,1,+03000,1,03,1",,,"07,99,1,05,1,00,1,01250,1,03,1,04,1",,"01,9",,"120,M,+0162,1","240,N,-0002,1","99999,9,08223,1","8,1,010,1,-026,1",,"SYN118AAXX  11181 76373 32688 70000 10138 21002 38223 40226 58010 85034 91750 333 10162 21002 30/// 56066 59026 85360 82070;",
"76373099999","2006-01-11T21:00:00","4","25.35","-105.75","1967.0","TEPEHUANES DGO., MX","FM-12","99999","V020","240,1,N,0050,1","06000,1,9,N","070000,1,N,1","+0206,1","+0000,1","99999,9",,,,,,"01,1,+00300,1,08,1","01,1,+03000,1,03,1","08,1,+06000,1,02,1","08,99,1,01,1,01,1,00450,1,03,1,07,1",,"01,9",,,,"99999,9,08186,1","7,1,017,1,+027,1",,"SYN118AAXX  11211 76373 32488 82405 10206 20000 38186 40146 57017 81137 92050 333 30/// 56666 58027 81810 81360 88270 99020;","Q01+101463APOSLP"
"76373099999","2006-01-12T00:00:00","4","25.35","-105.75","1967.0","TEPEHUANES DGO., MX","FM-12","99999","V020","270,1,N,0030,1","03600,1,9,N","070000,1,N,1","+0182,1","+0015,1","10120,1","24,0000,9,1",,,,,"02,1,+00360,1,08,1","02,1,+03000,1,03,1",,"06,99,1,01,1,01,1,00450,1,04,1,02,1",,"01,9",,"120,M,+0224,1","180,N,-0002,1","99999,9,08181,1","8,1,005,1,-023,1",,"SYN136AAXX  12001 76373 32488 62703 10182 20015 38181 40120 58005 81142 92350 333 10224 21002 30/// 50310 56666 59023 70000 82812 82360 83070;",
"76373099999","2006-01-12T03:00:00","4","25.35","-105.75","1967.0","TEPEHUANES DGO., MX","FM-12","99999","V020","999,9,C,0000,1","22000,1,9,N","001000,1,N,1","+0124,1","-0004,1","10097,1",,,,,,"01,1,+09000,1,00,1",,,"01,99,1,00,1,00,1,99999,9,00,1,05,1",,"01,9",,,,"99999,9,08192,1","2,1,008,1,-026,1",,"SYN100AAXX  12031 76373 32910 10000 10124 21004 38192 40097 52008 80005 90240 333 30/// 56006 59026 81080;",
"76373099999","2006-01-12T06:00:00","4","25.35","-105.75","1967.0","TEPEHUANES DGO., MX","FM-12","99999","V020","999,9,C,0000,1","22000,1,9,N","010000,1,N,1","+0048,1","-0022,1","10123,1",,,,,,"01,1,+09000,1,00,1",,,"01,99,1,00,1,00,1,99999,9,00,1,05,1",,"01,9",,"240,M,+0224,1","240,N,-0002,1","99999,9,08214,1","2,1,022,1,-021,1",,"SYN112AAXX  12061 76373 32960 10000 10048 21022 38214 40123 52022 80005 90540 333 10224 21002 30/// 56006 59021 81080;",
"76373099999","2006-01-12T12:00:00","4","25.35","-105.75","1967.0","TEPEHUANES DGO., MX","FM-12","99999","V020","280,1,N,0010,1","22000,1,9,N","000200,1,N,1","-0012,1","-0053,1","10174,1","24,0000,9,1",,,,,"03,1,+06000,1,00,1",,,"03,99,1,00,1,00,1,99999,9,00,1,05,1",,"09,9","999,-0036,1","120,N,-0018,1","240,M,+0224,1","99999,9,08191,1","9,9,999,9,-027,1",,"SYN118AAXX  12121 76373 32902 32801 11012 21053 38191 40174 5//// 80005 91155 333 10224 21018 31036 56006 59027 70000 83070;",
"76373099999","2006-01-12T18:00:00","4","25.35","-105.75","1967.0","TEPEHUANES DGO., MX","FM-12","99999","V020","090,1,N,0010,1","03000,1,9,N","070000,1,N,1","+0132,1","-0019,1","10207,1",,,,,,"07,1,+03000,1,03,1",,,"07,99,1,07,1,00,1,01250,1,07,1,00,1",,"01,9",,"120,M,+0152,1","240,N,-0022,1","99999,9,08199,1","8,1,003,1,-024,1",,"SYN112AAXX  12181 76373 32688 70901 10132 21019 38199 40207 58003 87070 91750 333 10152 21022 30/// 56060 59024 87360;",
"76373099999","2006-01-12T21:00:00","4","25.35","-105.75","1967.0","TEPEHUANES DGO., MX","FM-12","99999","V020","300,1,N,0060,1","09000,1,C,N","070000,1,N,1","+0208,1","-0046,1","10139,1",,,,,,"01,1,+03000,1,03,1",,,"08,99,1,01,1,00,1,01250,1,03,1,08,1",,"01,9",,,,"99999,9,08177,1","6,1,022,1,-009,1",,"SYN106AAXX  12211 76373 32688 83006 10208 21046 38177 40139 56022 81038 92045 333 30/// 56066 59009 81360 87270;",
"76373099999","2006-01-13T03:00:00","4","25.35","-105.75","1967.0","TEPEHUANES DGO., MX","FM-12","99999","V020","999,9,C,0000,1","22000,1,9,N","010000,1,N,1","+0096,1","-0066,1","10102,1",,,,,,"00,1,+99999,9,99,9",,,"00,99,1,00,1,00,1,99999,9,00,1,00,1",,"01,9",,,,"99999,9,08195,1","2,1,019,1,+003,1",,"SYN082AAXX  13031 76373 32960 00000 10096 21066 38195 40102 52019 90240 333 30/// 58003;",
"76373099999","2006-01-13T06:00:00","4","25.35","-105.75","1967.0","TEPEHUANES DGO., MX","FM-12","99999","V020","999,9,C,0000,1","22000,1,9,N","010000,1,N,1","+0036,1","-0031,1","10127,1",,,,,,"00,1,+99999,9,99,9",,,"00,99,1,00,1,00,1,99999,9,00,1,00,1","0486,9","01,9",,"240,M,+0225,1","240,N,-0022,1","99999,9,08209,1","2,1,014,1,-005,1",,"SYN100AAXX  13061 76373 32960 00000 10036 21031 38209 40127 52014 90540 333 10225 21022 30/// 55081 59005;",
"76373099999","2006-01-13T12:00:00","4","25.35","-105.75","1967.0","TEPEHUANES DGO., MX","FM-12","99999","V020","999,9,C,0000,1","06000,1,9,N","001000,1,N,1","-0020,1","-0073,1","10233,1","24,0000,9,1",,,,,"06,1,+06000,1,02,1",,,"06,99,1,00,1,00,1,99999,9,00,1,07,1",,"09,9","999,-0058,1","120,N,-0024,1","240,M,+0224,1","99999,9,08231,1","9,9,999,9,+040,1",,"SYN118AAXX  13121 76373 32910 60000 11020 21073 38231 40233 5//// 80007 91155 333 10224 21024 31058 56006 58040 70000 86270;",
"76373099999","2006-01-13T15:00:00","4","25.35","-105.75","1967.0","TEPEHUANES DGO., MX","FM-12","99999","V020","999,9,C,0000,1","03000,1,9,N","070000,1,N,1","-0014,1","-0060,1","10290,1",,,,,,"07,1,+03000,1,03,1",,,"08,99,1,08,1,00,1,01250,1,07,1,00,1",,"01,9",,,,"99999,9,08250,1","2,1,019,1,+048,1",,"SYN100AAXX  13151 76373 32688 80000 11014 21060 38250 40290 52019 88070 91455 333 30/// 56060 58048 87360;",
"76373099999","2006-01-13T18:00:00","4","25.35","-105.75","1967.0","TEPEHUANES DGO., MX","FM-12","99999","V020","040,1,N,0010,1","03000,1,9,N","070000,1,N,1","+0104,1","-0014,1","10290,1",,,,,,"06,1,+03000,1,02,1",,,"08,99,1,06,1,00,1,01250,1,07,1,02,1",,"01,9",,"120,M,+0126,1","240,N,-0036,1","99999,9,08254,1","8,1,004,1,+055,1",,"SYN118AAXX  13181 76373 32688 80401 10104 21014 38254 40290 58004 86072 91750 333 10126 21036 30/// 56066 58055 86260 82070;",
"76373099999","2006-01-13T21:00:00","4","25.35","-105.75","1967.0","TEPEHUANES DGO., MX","FM-12","99999","V020","150,1,N,0010,1","03000,1,9,N","070000,1,N,1","+0170,1","-0036,1","99999,9",,,,,,"08,1,+03000,1,04,1",,,"08,99,1,08,1,00,1,01750,1,07,1,00,1",,"01,9",,,,"99999,9,08226,1","6,1,028,1,+049,1",,"SYN100AAXX  13211 76373 32788 81501 10170 21036 38226 40226 56028 88070 92050 333 30/// 56070 58049 88460;","Q01+102263APOSLP"
"76373099999","2006-01-14T00:00:00","4","25.35","-105.75","1967.0","TEPEHUANES DGO., MX","FM-12","99999","V020","130,1,N,0030,1","03000,1,C,N","070000,1,N,1","+0168,1","-0016,1","10188,1","24,0000,9,1",,,,,"06,1,+03000,1,04,1",,,"08,99,1,06,1,00,1,01750,1,07,1,02,1",,"01,9",,"120,M,+0194,1","180,N,-0036,1","99999,9,08226,1","4,1,000,1,-049,1",,"SYN130AAXX  14001 76373 32788 81303 10168 21016 38226 40188 54000 86072 92350 333 10194 21036 30/// 50228 56066 59049 70000 86460 82070;",
"76373099999","2006-01-14T18:00:00","4","25.35","-105.75","1967.0","TEPEHUANES DGO., MX","FM-12","99999","V020","330,1,N,0010,1","09000,1,C,N","070000,1,N,1","+0134,1","-0042,1","10240,1",,,,,,"02,1,+03000,1,03,1",,,"08,99,1,02,1,00,1,01250,1,03,1,08,1",,"01,9",,"120,M,+0152,1","240,N,+0004,1","99999,9,08240,1","6,1,005,1,-010,1",,"SYN118AAXX  14181 76373 32688 83301 10134 21042 38240 40240 56005 82038 91750 333 10152 20004 30/// 56066 59010 82360 87270;",
"76373099999","2006-01-14T21:00:00","4","25.35","-105.75","1967.0","TEPEHUANES DGO., MX","FM-12","99999","V020","300,1,N,0010,1","09000,1,C,N","070000,1,N,1","+0202,1","-0017,1","10193,1",,,,,,"01,1,+03000,1,03,1",,,"08,99,1,01,1,00,1,01250,1,04,1,08,1",,"01,9",,,,"99999,9,08226,1","7,1,014,1,+000,1",,"SYN106AAXX  14211 76373 32688 83001 10202 21017 38226 40193 57014 81048 92050 333 30/// 56066 58000 81360 88270;",
"76373099999","2006-01-15T12:00:00","4","25.35","-105.75","1967.0","TEPEHUANES DGO., MX","FM-12","99999","V020","999,9,C,0000,1","22000,1,9,N","001000,1,N,1","+0024,1","-0020,1","10170,1","24,0000,9,1",,,,,"04,1,+03000,1,03,1",,,"04,99,1,04,1,00,1,01250,1,03,1,00,1",,"09,9","999,-0010,1","120,N,+0018,1","240,M,+0232,1","99999,9,08215,1",,,"SYN118AAXX  15121 76373 32610 40000 10024 21020 38215 40170 5//// 84030 91150 333 10232 20018 31010 56060 58/// 70000 84360;",
"76373099999","2006-01-15T15:00:00","4","25.35","-105.75","1967.0","TEPEHUANES DGO., MX","FM-12","99999","V020","330,1,N,0010,1","22000,1,9,N","070000,1,N,1","+0048,1","-0010,1","10214,1",,,,,,"02,1,+03000,1,03,1",,,"02,99,1,02,1,00,1,01250,1,03,1,00,1",,"01,9",,,,"99999,9,08225,1","2,1,010,1,-020,1",,"SYN100AAXX  15151 76373 32688 23301 10048 21010 38225 40214 52010 82030 91453 333 30/// 56060 59020 82360;",
"76373099999","2006-01-15T18:00:00","4","25.35","-105.75","1967.0","TEPEHUANES DGO., MX","FM-12","99999","V020","310,1,N,0030,1","03600,1,C,N","070000,1,N,1","+0186,2","+0039,1","10191,1",,,,,,"03,1,+00360,1,06,1",,,"06,99,1,03,1,04,1,00450,1,03,1,00,1",,"01,9",,"120,M,+0196,1","240,N,+0012,1","99999,9,08212,1","8,1,013,1,-028,1",,"SYN118AAXX  15181 76373 32488 63103 10186 20039 38212 40191 58013 83430 91750 333 10196 20012 30/// 56660 59028 83612 83360;",
"76373099999","2006-01-15T21:00:00","4","25.35","-105.75","1967.0","TEPEHUANES DGO., MX","FM-12","99999","V020","280,1,N,0050,1","03600,1,C,N","070000,1,N,1","+0178,1","+0033,1","10144,1",,,,,,"03,1,+00600,1,06,1",,,"08,99,1,03,1,04,1,00250,1,06,1,00,1",,"01,9",,,,"99999,9,08194,1","6,1,018,1,-032,1",,"SYN106AAXX  15211 76373 32388 82805 10178 20033 38194 40144 56018 83460 92040 333 30/// 56660 59032 83620 85360;",
"76373099999","2006-01-16T00:00:00","4","25.35","-105.75","1967.0","TEPEHUANES DGO., MX","FM-12","99999","V020","210,1,N,0040,1","03600,1,9,N","070000,1,N,1","+0164,1","+0021,1","10097,1","24,0000,9,1",,,,,"02,1,+00600,1,06,1",,,"06,99,1,02,1,04,1,00250,1,06,1,00,1",,"01,9",,"120,M,+0218,1","180,N,+0012,1","99999,9,08180,1","6,1,014,1,+999,9",,"SYN130AAXX  16001 76373 32388 62104 10164 20021 38180 40097 56014 82460 92340 333 10218 20012 30/// 50250 56660 58/// 70000 82620 84360;",
"76373099999","2006-01-16T12:00:00","4","25.35","-105.75","1967.0","TEPEHUANES DGO., MX","FM-12","99999","V020","100,1,N,0010,1","22000,1,9,N","001000,1,N,1","+0098,1","+0023,1","10106,1","24,0000,9,1",,,,,"03,1,+00360,1,08,1",,,"03,99,1,03,1,02,1,00450,1,00,1,00,1",,"01,9","999,+0040,1","120,N,+0082,1","240,M,+0218,1","99999,9,08173,1","9,9,999,9,-042,1",,"SYN118AAXX  16121 76373 32410 31001 10098 20023 38173 40106 5//// 83200 91150 333 10218 20082 30040 56600 59042 70000 83812;",
"76373099999","2006-01-16T15:00:00","4","25.35","-105.75","1967.0","TEPEHUANES DGO., MX","FM-12","99999","V020","020,1,N,0010,1","22000,1,9,N","070000,1,N,1","+0108,1","+0040,1","10106,1",,,,,,"02,1,+00360,1,08,1","01,1,+03000,1,03,1",,"04,99,1,02,1,01,1,00450,1,03,1,07,1",,"01,9",,,,"99999,9,08168,1","8,1,005,1,-057,1",,"SYN112AAXX  16151 76373 32488 40201 10108 20040 38168 40106 58005 82137 91450 333 30/// 56666 59057 82812 81360 81070;",
"76373099999","2006-01-16T21:00:00","4","25.35","-105.75","1967.0","TEPEHUANES DGO., MX","FM-12","99999","V020","270,1,N,0090,1","22000,1,9,N","070000,1,N,1","+0170,1","-0013,1","10058,1",,,,,,"00,1,+99999,9,99,9",,,"00,99,1,00,1,00,1,99999,9,00,1,00,1",,"01,9",,,,"99999,9,08143,1","6,1,021,1,-051,1",,"SYN082AAXX  16211 76373 32988 02709 10170 21013 38143 40058 56021 92050 333 30/// 59051;",
"76373099999","2006-01-17T00:00:00","4","25.35","-105.75","1967.0","TEPEHUANES DGO., MX","FM-12","99999","V020","270,1,N,0060,1","22000,1,9,N","070000,1,N,1","+0140,1","-0056,1","10048,1","24,0000,9,1",,,,,"00,1,+99999,9,99,9",,,"00,99,1,00,1,00,1,99999,9,00,1,00,1",,"01,9",,"120,M,+0188,1","180,N,+0075,1","99999,9,08144,1","2,1,001,1,-036,1",,"SYN106AAXX  17001 76373 32988 02706 10140 21056 38144 40048 52001 92350 333 10188 20075 30/// 50410 59036 70000;","Q01  00002PRCP24"
"76373099999","2006-01-17T03:00:00","4","25.35","-105.75","1967.0","TEPEHUANES DGO., MX","FM-12","99999","V020","280,1,N,0010,1","22000,1,9,N","070000,1,N,1","+0072,1","-0079,1","10072,1",,,,,,"00,1,+99999,9,99,9",,,"00,99,1,00,1,00,1,99999,9,00,1,00,1",,"01,9",,,,"99999,9,08159,1","2,1,015,1,+999,9",,"SYN082AAXX  17031 76373 32988 02801 10072 21079 38159 40072 52015 90240 333 30/// 58///;",
"76373099999","2006-01-17T06:00:00","4","25.35","-105.75","1967.0","TEPEHUANES DGO., MX","FM-12","99999","V020","999,9,C,0000,1","22000,1,9,N","010000,1,N,1","+0018,1","-0084,1","10111,1",,,,,,"00,1,+99999,9,99,9",,,"00,99,1,00,1,00,1,99999,9,00,1,00,1","0588,9","01,9",,"240,M,+0188,1","240,N,+9999,9","99999,9,08180,1","2,1,021,1,+999,9",,"SYN100AAXX  17061 76373 32960 00000 10018 21084 38180 40111 52021 90540 333 10188 20075 30/// 55098 58///;","Q01 +00752ATMN  "
"76373099999","2006-01-17T12:00:00","4","25.35","-105.75","1967.0","TEPEHUANES DGO., MX","FM-12","99999","V020","999,9,C,0000,1","22000,1,9,N","001000,1,N,1","-0042,1","-0042,1","99999,9","24,0000,9,1",,,,,"00,1,+99999,9,99,9",,,"00,99,1,00,1,00,1,99999,9,00,1,00,1",,"09,9","999,-0092,1","120,N,-0055,1","240,M,+0188,1","99999,9,08238,1","9,9,999,9,+065,1",,"SYN100AAXX  17121 76373 32910 00000 11042 21042 38238 40254 5//// 91147 333 10188 21055 31092 58065 70000;","Q01+102543APOSLPQ02  00002PRCP24"
"76373099999","2006-01-17T18:00:00","4","25.35","-105.75","1967.0","TEPEHUANES DGO., MX","FM-12","99999","V020","090,1,N,0020,1","22000,1,9,N","070000,1,N,1","+0058,1","-0074,1","10287,1",,,,,,"00,1,+99999,9,99,9",,,"00,99,1,00,1,00,1,99999,9,00,1,00,1",,"01,9",,"120,M,+0080,1","240,N,-0080,1","99999,9,08257,1","0,1,000,1,+093,1",,"SYN094AAXX  17181 76373 32988 00902 10058 21074 38257 40287 50000 91745 333 10080 21080 30/// 58093;",
"76373099999","2006-01-17T21:00:00","4","25.35","-105.75","1967.0","TEPEHUANES DGO., MX","FM-12","99999","V020","150,1,N,0020,1","22000,1,9,N","070000,1,N,1","+0112,1","-0069,1","10257,1",,,,,,"00,1,+99999,9,99,9",,,"00,99,1,00,1,00,1,99999,9,00,1,00,1",,"01,9",,,,"99999,9,08230,1","6,1,029,1,+087,1",,"SYN082AAXX  17211 76373 32988 01502 10112 21069 38230 40257 56029 92050 333 30/// 58087;",
"76373099999","2006-01-18T00:00:00","4","25.35","-105.75","1967.0","TEPEHUANES DGO., MX","FM-12","99999","V020","120,1,N,0040,1","22000,1,9,N","070000,1,N,1","+0116,1","-0102,1","10231,1","24,0000,9,1",,,,,"00,1,+99999,9,99,9",,,"00,99,1,00,1,00,1,99999,9,00,1,00,1",,"01,9",,"120,M,+0144,1","180,N,-0080,1","99999,9,08233,1","2,1,003,1,+089,1",,"SYN100AAXX  18001 76373 32988 01204 10116 21102 38233 40231 52003 92350 333 10144 21080 30/// 58089 70000;","Q01  00002PRCP24"
"76373099999","2006-01-18T12:00:00","4","25.35","-105.75","1967.0","TEPEHUANES DGO., MX","FM-12","99999","V020","999,9,C,0000,1","22000,1,9,N","001000,1,N,1","-0102,1","+9999,9","10275,1","24,0000,9,1",,,,,"00,1,+99999,9,99,9",,,"00,99,1,00,1,00,1,99999,9,00,1,00,1",,"09,9","999,-0140,1","120,N,-0110,1","240,M,+0144,1","99999,9,08261,1","9,9,999,9,+023,1",,"SYN100AAXX  18121 76373 32910 00000 11102 2//// 38261 40275 5//// 91150 333 10144 21110 31140 58023 70000;","Q01  00002PRCP24"
"76373099999","2006-01-18T15:00:00","4","25.35","-105.75","1967.0","TEPEHUANES DGO., MX","FM-12","99999","V020","999,9,C,0000,1","22000,1,9,N","070000,1,N,1","-0080,1","-0114,1","10249,1",,,,,,"00,1,+99999,9,99,9",,,"00,99,1,00,1,00,1,99999,9,00,1,00,1",,"01,9",,,,"99999,9,08263,1","1,1,002,1,+006,1",,"SYN082AAXX  18151 76373 32988 00000 11080 21114 38263 40249 51002 91450 333 30/// 58006;",
"76373099999","2006-01-18T21:00:00","4","25.35","-105.75","1967.0","TEPEHUANES DGO., MX","FM-12","99999","V020","120,1,N,0010,1","22000,1,9,N","070000,1,N,1","+0200,1","-0055,1","10145,1",,,,,,"00,1,+99999,9,99,9",,,"00,99,1,00,1,00,1,99999,9,00,1,00,1",,"01,9",,,,"99999,9,08208,1","6,1,046,1,-022,1",,"SYN082AAXX  18211 76373 32988 01201 10200 21055 38208 40145 56046 92050 333 30/// 59022;",
"76373099999","2006-01-19T00:00:00","4","25.35","-105.75","1967.0","TEPEHUANES DGO., MX","FM-12","99999","V020","240,1,N,0040,1","22000,1,9,N","070000,1,N,1","+0210,1","-0080,1","10177,1","24,0000,9,1",,,,,"00,1,+99999,9,99,9",,,"00,99,1,00,1,00,1,99999,9,00,1,00,1",,"01,9",,"120,M,+0256,1","180,N,-0120,1","99999,9,08211,1","3,1,003,1,-022,1",,"SYN106AAXX  19001 76373 32988 02404 10210 21080 38211 40177 53003 92350 333 10256 21120 30/// 50230 59022 70000;","Q01  00002PRCP24"
"76373099999","2006-01-19T12:00:00","4","25.35","-105.75","1967.0","TEPEHUANES DGO., MX","FM-12","99999","V020","999,9,C,0000,1","22000,1,9,N","000400,1,N,1","-0056,1","-0083,1","10245,1","24,0000,9,1",,,,,"00,1,+99999,9,99,9",,,"00,99,1,00,1,00,1,99999,9,00,1,00,1",,"09,9","999,-0090,1","120,N,-0060,1","240,M,+0256,1","99999,9,08227,1","9,9,999,9,-034,1",,"SYN100AAXX  19121 76373 32904 00000 11056 21083 38227 40245 5//// 91148 333 10256 21060 31090 59034 70000;","Q01  00002PRCP24"
"76373099999","2006-01-19T15:00:00","4","25.35","-105.75","1967.0","TEPEHUANES DGO., MX","FM-12","99999","V020","999,9,C,0000,1","22000,1,9,N","070000,1,N,1","-0040,1","-0084,1","10247,1",,,,,,"02,1,+03000,1,03,1",,,"04,99,1,02,1,00,1,01250,1,03,1,04,1",,"01,9",,,,"99999,9,08230,1","1,1,003,1,-033,1",,"SYN106AAXX  19151 76373 32688 40000 11040 21084 38230 40247 51003 82034 91445 333 30/// 56066 59033 82360 82070;",
"76373099999","2006-01-19T18:00:00","4","25.35","-105.75","1967.0","TEPEHUANES DGO., MX","FM-12","99999","V020","300,1,N,0020,1","22000,1,9,N","070000,1,N,1","+9999,9","-0025,1","10245,1",,,,,,"01,1,+03000,1,03,1",,,"02,99,1,01,1,00,1,01250,1,03,1,01,1",,"01,9",,"120,M,+0150,1","240,N,-0070,1","99999,9,08220,1","8,1,010,1,-034,1",,"SYN118AAXX  19181 76373 32688 23002 10136 21025 38220 40245 58010 81031 91750 333 10150 21070 30/// 56066 59034 81360 82070;","Q01+001363ATOT  "
"76373099999","2006-01-19T21:00:00","4","25.35","-105.75","1967.0","TEPEHUANES DGO., MX","FM-12","99999","V020","270,1,N,0050,1","09000,1,C,N","070000,1,N,1","+0222,1","-0024,1","99999,9",,,,,,"03,1,+03000,1,03,1",,,"07,99,1,03,1,00,1,01250,1,03,1,04,1",,"01,9",,,,"99999,9,08187,1","6,1,033,1,-021,1",,"SYN106AAXX  19211 76373 32688 72705 10222 21024 38187 40174 56033 83034 92045 333 30/// 56066 59021 83360 84070;","Q01+101743APOSLP"
"76373099999","2006-01-20T12:00:00","4","25.35","-105.75","1967.0","TEPEHUANES DGO., MX","FM-12","99999","V020","999,9,C,0000,1","22000,1,9,N","000100,1,N,1","-0030,1","-0057,1","10181,1","24,0000,9,1",,,,,"01,1,+03000,1,03,1",,,"03,99,1,01,1,00,1,99999,9,03,1,05,1",,"09,9","999,-0070,1","120,N,-0038,1","240,M,+0245,1","99999,9,08194,1","9,9,999,9,-033,1",,"SYN124AAXX  20121 76373 32901 30000 11030 21057 38194 40181 5//// 81035 91155 333 10245 21038 31070 56066 59033 70000 81360 82070;",
"76373099999","2006-01-20T15:00:00","4","25.35","-105.75","1967.0","TEPEHUANES DGO., MX","FM-12","99999","V020","999,9,C,0000,1","22000,1,C,N","070000,1,N,1","+0008,1","-0064,1","10228,1",,,,,,"02,1,+03000,1,03,1",,,"05,99,1,02,1,00,1,01250,1,04,1,04,1",,"01,9",,,,"99999,9,08206,1","2,1,012,1,-024,1",,"SYN106AAXX  20151 76373 32688 50000 10008 21064 38206 40228 52012 82044 91455 333 30/// 56066 59024 82360 83070;",
"76373099999","2006-01-20T18:00:00","4","25.35","-105.75","1967.0","TEPEHUANES DGO., MX","FM-12","99999","V020","020,1,N,0010,1","22000,1,9,N","070000,1,N,1","+0160,1","-0007,1","10214,1",,,,,,"01,1,+03000,1,03,1",,,"01,99,1,01,1,00,1,01250,1,04,1,02,1",,"01,9",,"120,M,+0190,1","240,N,-0046,1","99999,9,08202,1","0,1,004,1,-018,1",,"SYN118AAXX  20181 76373 32688 10201 10160 21007 38202 40214 50004 81042 91748 333 10190 21046 30/// 56066 59018 81360 81070;",
"76373099999","2006-01-20T21:00:00","4","25.35","-105.75","1967.0","TEPEHUANES DGO., MX","FM-12","99999","V020","250,1,N,0040,1","22000,1,9,N","070000,1,N,1","+0230,2","+0009,1","99999,9",,,,,,"02,1,+03000,1,03,1",,,"02,99,1,02,1,00,1,01250,1,03,1,00,1",,"01,9",,,,"99999,9,08172,1","6,1,030,1,-015,1",,"SYN100AAXX  20211 76373 32688 22504 10230 20009 38172 40137 56030 82030 92050 333 30/// 56060 59015 82360;","Q01+101373APOSLP"
"76373099999","2006-01-21T18:00:00","4","25.35","-105.75","1967.0","TEPEHUANES DGO., MX","FM-12","99999","V020","060,1,N,0010,1","09000,1,C,N","070000,1,N,1","+0136,1","-0016,1","10202,1",,,,,,"01,1,+03000,1,03,1",,,"08,99,1,01,1,00,1,01250,1,03,1,02,1",,"01,9",,"120,M,+0158,1","240,N,-0048,1","99999,9,08192,1","8,1,010,1,-010,1",,"SYN118AAXX  21181 76373 32688 80601 10136 21016 38192 40202 58010 81032 91750 333 10158 21048 30/// 56066 59010 81360 81070;",
"76373099999","2006-01-22T12:00:00","4","25.35","-105.75","1967.0","TEPEHUANES DGO., MX","FM-12","99999","V020","180,1,N,0010,1","22000,1,9,N","000100,1,N,1","-0040,1","+9999,9","10184,1","24,0000,9,1",,,,,"01,1,+06000,1,00,1",,,"01,99,1,00,1,00,1,99999,9,00,1,02,1",,"09,9","999,-0083,1","120,N,-0047,1","240,M,+0248,1","99999,9,08190,1",,,"SYN118AAXX  22121 76373 32901 11801 11040 20188 38190 40184 5//// 80002 91145 333 10248 21047 31083 56006 58/// 70000 81070;",
"76373099999","2006-01-22T18:00:00","4","25.35","-105.75","1967.0","TEPEHUANES DGO., MX","FM-12","99999","V020","080,1,N,0010,1","06000,1,9,N","070000,1,N,1","+9999,9","-0074,1","10221,1",,,,,,"06,1,+06000,1,02,1",,,"06,99,1,00,1,00,1,99999,9,00,1,08,1",,"01,9",,"120,M,+0170,1","240,N,-0062,1","99999,9,08197,1","8,1,005,1,+005,1",,"SYN112AAXX  22181 76373 32988 60801 10136 21074 38197 40221 58005 80008 91745 333 10170 21062 30/// 56006 58005 86270;","Q01+001363ATOT  "
"76373099999","2006-01-23T00:00:00","4","25.35","-105.75","1967.0","TEPEHUANES DGO., MX","FM-12","99999","V020","240,1,N,0010,1","99999,9,9,N","070000,1,N,1","+0176,1","-0104,1","10113,1","24,0000,9,1",,,,,,,,"08,99,1,00,1,00,1,99999,9,00,1,08,1",,"01,9",,"120,M,+0244,1","180,N,-0062,1","99999,9,08176,1","2,1,003,1,+010,1",,"SYN124AAXX  23001 76373 32988 82401 10176 21104 38176 40113 52003 80008 92340 333 10244 21062 30/// 50270 56006 58010 70000 88280;",
"76373099999","2006-01-23T12:00:00","4","25.35","-105.75","1967.0","TEPEHUANES DGO., MX","FM-12","99999","V020","999,9,C,0000,1","99999,9,9,N","000100,1,N,1","-0010,1","-0112,1","10188,1","24,0000,9,1",,,,,,,,"08,99,1,00,1,00,1,99999,9,00,1,07,1",,"09,9","999,-0048,1","120,N,-0020,1","240,M,+0244,1","99999,9,08199,1","9,9,999,9,+006,1",,"SYN118AAXX  23121 76373 32901 80000 11010 21112 38199 40188 5//// 80007 91145 333 10244 21020 31048 58006 58009 70000 88272;",
"76373099999","2006-01-23T15:00:00","4","25.35","-105.75","1967.0","TEPEHUANES DGO., MX","FM-12","99999","V020","999,9,C,0000,1","22000,1,C,N","070000,1,N,1","-0016,1","-0100,1","10233,1",,,,,,"03,1,+03000,1,03,1",,,"06,99,1,03,1,00,1,01250,1,07,1,04,1",,"01,9",,,,"99999,9,08212,1","2,1,014,1,+010,1",,"SYN106AAXX  23151 76373 32688 60000 11016 21100 38212 40233 52014 83074 91450 333 30/// 56066 58010 83360 83070;",
"76373099999","2006-01-23T18:00:00","4","25.35","-105.75","1967.0","TEPEHUANES DGO., MX","FM-12","99999","V020","100,1,N,0020,1","22000,1,9,N","070000,1,N,1","+0136,1","-0053,1","10219,1",,,,,,"01,1,+03000,1,03,1",,,"04,99,1,01,1,00,1,01250,1,03,1,02,1",,"01,9",,"120,M,+0158,1","240,N,-0026,1","99999,9,08204,1","8,1,008,1,+007,1",,"SYN118AAXX  23181 76373 32688 41002 10136 21053 38204 40219 58008 81032 91750 333 10158 21026 30/// 56066 58007 81360 83070;",
"76373099999","2006-01-23T21:00:00","4","25.35","-105.75","1967.0","TEPEHUANES DGO., MX","FM-12","99999","V020","210,1,N,0070,1","22000,1,9,N","070000,1,N,1","+0222,2","+0026,1","99999,9",,,,,,"02,1,+00300,1,08,1",,,"03,99,1,02,1,01,1,00450,1,03,1,00,1",,"01,9",,,,"99999,9,08183,1","7,1,021,1,+010,1",,"SYN106AAXX  23211 76373 32488 32107 10222 20026 38183 40153 57021 82130 92050 333 30/// 56660 58010 82810 81360;","Q01+101533APOSLP"
"76373099999","2006-01-24T06:00:00","4","25.35","-105.75","1967.0","TEPEHUANES DGO., MX","FM-12","99999","V020","999,9,C,0000,1","22000,1,9,N","010000,1,N,1","+0058,1","-0027,1","10132,1",,,,,,"00,1,+99999,9,99,9",,,"00,99,1,00,1,00,1,99999,9,00,1,00,1","0540,9","01,9",,"240,M,+0246,1","240,N,-0026,1","99999,9,08219,1","2,1,008,1,+999,9",,"SYN100AAXX  24061 76373 32960 00000 10058 21027 38219 40132 52008 90540 333 10246 21026 30/// 55090 58///;",
"76373099999","2006-01-24T12:00:00","4","25.35","-105.75","1967.0","TEPEHUANES DGO., MX","FM-12","99999","V020","999,9,C,0000,1","03000,1,9,N","000100,1,N,1","+0018,1","-0026,1","10207,1","24,0000,9,1",,,,,"08,1,+03000,1,03,1",,,"08,99,1,08,1,00,1,01250,1,07,1,00,1",,"09,9","999,-0010,1","120,N,+0008,1","240,M,+0246,1","99999,9,08223,1","9,9,999,9,+025,1",,"SYN118AAXX  24121 76373 32601 80000 10018 21026 38223 40207 5//// 88070 91150 333 10246 20008 31010 56090 58025 70000 88360;",
"76373099999","2006-01-24T15:00:00","4","25.35","-105.75","1967.0","TEPEHUANES DGO., MX","FM-12","99999","V020","999,9,C,0000,1","02400,1,9,N","070000,1,N,1","+0026,1","-0023,1","10249,1",,,,,,"08,1,+02400,1,04,1",,,"08,99,1,08,1,00,1,01250,1,02,1,00,1",,"01,9",,,,"99999,9,08239,1","2,1,009,1,+026,1",,"SYN100AAXX  24151 76373 32688 80000 10026 21023 38239 40249 52009 88020 91450 333 30/// 56060 58026 88458;",
"76373099999","2006-01-24T18:00:00","4","25.35","-105.75","1967.0","TEPEHUANES DGO., MX","FM-12","99999","V020","160,1,N,0010,1","09000,1,C,N","070000,1,N,1","+0140,1","-0004,1","10242,1",,,,,,"03,1,+02400,1,03,1",,,"07,99,1,03,1,00,1,01250,1,03,1,05,1",,"01,9",,"120,M,+0158,1","240,N,+0005,1","99999,9,08239,1","0,1,000,1,+035,1",,"SYN118AAXX  24181 76373 32688 71601 10140 21004 38239 40242 50000 83035 91750 333 10158 20005 30/// 56066 58035 83358 84070;",
"76373099999","2006-01-25T00:00:00","4","25.35","-105.75","1967.0","TEPEHUANES DGO., MX","FM-12","99999","V020","130,1,N,0060,1","03000,1,C,N","070000,1,N,1","+0192,1","+0032,1","99999,9","24,0000,9,1",,,,,"06,1,+03000,1,03,1",,,"08,99,1,06,1,00,1,01250,1,06,1,02,1",,"01,9",,"120,M,+0238,1","180,N,+0005,1","99999,9,08210,1","2,1,002,1,+021,1",,"SYN130AAXX  25001 76373 32688 81306 10192 20032 38210 40139 52002 86062 92350 333 10238 20005 30/// 50230 56066 58021 70000 86360 82070;","Q01+101393APOSLP"
"76373099999","2006-01-25T12:00:00","4","25.35","-105.75","1967.0","TEPEHUANES DGO., MX","FM-12","99999","V020","330,1,N,0010,1","99999,9,9,N","000100,1,N,1","+0076,1","+0045,1","10209,1","01,0000,2,1",,,"2,1,06,1","2,1,06,1",,,,"08,99,1,99,9,99,9,00450,1,99,9,99,9",,,,,,"99999,9,08248,1",,"50,1","SYN072AAXX  25121 76373 01401 83301 10076 20045 38248 40209 5//// 69905 75022;",
"76373099999","2006-01-25T15:00:00","4","25.35","-105.75","1967.0","TEPEHUANES DGO., MX","FM-12","99999","V020","250,1,N,0020,1","03600,1,C,N","070000,1,N,1","+0067,1","+0048,1","10233,1",,,,,,"03,1,+00300,1,07,1",,,"08,99,1,03,1,07,1,00450,1,02,1,00,1",,"09,9",,,,"99999,9,08258,1","2,1,010,1,+019,1",,"SYN106AAXX  25151 76373 32488 82502 10067 20048 38258 40233 52010 83720 91450 333 31/// 56660 58019 83710 85458;",
"76373099999","2006-01-25T18:00:00","4","25.35","-105.75","1967.0","TEPEHUANES DGO., MX","FM-12","99999","V020","180,1,N,0010,1","02400,1,9,N","070000,1,N,1","+0124,1","+0059,1","10247,1","03,9999,9,9","06,0000,2,1",,,,"08,1,+02400,1,04,1",,,"08,99,1,08,1,00,1,01250,1,02,1,00,1",,"01,9",,"120,M,+0138,1","240,N,+0060,1","99999,9,08266,1","8,1,008,1,+027,1",,"SYN124AAXX  25181 76373 02688 81801 10124 20059 38266 40247 58008 69901 88020 91750 333 10138 20060 30/// 56060 58027 69907 88458;","Q01  99992PRCP03"
"76373099999","2006-01-25T21:00:00","4","25.35","-105.75","1967.0","TEPEHUANES DGO., MX","FM-12","99999","V020","140,1,N,0030,1","00300,1,9,N","070000,1,N,1","+0154,1","+0047,1","99999,9",,,,,,"04,1,+00300,1,09,1","02,1,+00300,1,08,1",,"08,99,1,06,1,09,1,00250,1,03,1,00,1",,"01,9",,,,"99999,9,08228,1","6,1,038,1,+020,1",,"SYN112AAXX  25211 76373 32388 81403 10154 20047 38228 40172 56038 86930 92050 333 30/// 56660 58020 84910 82810 82360;","Q01+101723APOSLP"
"76373099999","2006-01-26T12:00:00","4","25.35","-105.75","1967.0","TEPEHUANES DGO., MX","FM-12","99999","V020","999,9,C,0000,1","99999,9,9,N","000000,1,N,1","+0022,1","+0022,1","10242,1","12,0000,9,1",,,,,,,,"08,99,1,99,9,99,9,00025,1,99,9,99,9",,,,,,"99999,9,08243,1",,"10,1","SYN072AAXX  26121 76373 01000 80000 10022 20022 38243 40242 5//// 69902 710//;","Q01  00002PRCP12"
"76373099999","2006-01-26T15:00:00","4","25.35","-105.75","1967.0","TEPEHUANES DGO., MX","FM-12","99999","V020","999,9,C,0000,1","00015,1,9,N","000100,1,N,1","+0022,1","+0022,1","10266,1","03,0001,9,1",,,"4,1,03,1","4,1,03,1","08,1,+00015,1,07,1",,,"08,99,1,08,1,07,1,00025,1,99,9,99,9",,"09,9",,,,"99999,9,08252,1","2,1,009,1,-006,1","10,1","SYN112AAXX  26151 76373 21001 80000 10022 20022 38252 40266 52009 71044 887// 91450 333 31/// 566// 59006 69917 88700;",
"76373099999","2006-01-26T18:00:00","4","25.35","-105.75","1967.0","TEPEHUANES DGO., MX","FM-12","99999","V020","090,1,N,0010,1","03600,1,C,N","070000,1,N,1","+0106,1","+0052,1","10261,1",,,,,,"01,1,+00360,1,08,1","01,1,+03000,1,03,1",,"08,99,1,01,1,01,1,00450,1,04,1,08,1",,"09,9",,"120,M,+0180,1","240,N,+0010,1","99999,9,08252,1","0,1,000,1,-014,1",,"SYN124AAXX  26181 76373 32488 80901 10106 20052 38252 40261 50000 81148 91750 333 10180 20010 31/// 56666 59014 81812 81360 86270;",
"76373099999","2006-01-26T21:00:00","4","25.35","-105.75","1967.0","TEPEHUANES DGO., MX","FM-12","99999","V020","150,1,N,0030,1","00300,1,9,N","070000,1,N,1","+0174,1","+0054,1","99999,9","03,0005,9,1",,,"6,1,03,1","5,1,03,1","06,1,+00300,1,06,1",,,"08,99,1,06,1,07,1,00250,1,03,1,00,1",,"09,9",,,,"99999,9,08221,1","6,1,031,1,-007,1","51,1","SYN118AAXX  26211 76373 11388 81503 10174 20054 38221 40200 56031 69957 75165 86730 92050 333 31/// 56660 59007 86610 82360;","Q01+102003APOSLP"
"76373099999","2006-01-27T00:00:00","4","25.35","-105.75","1967.0","TEPEHUANES DGO., MX","FM-12","99999","V020","210,1,N,0060,1","00300,1,C,N","070000,1,N,1","+0184,1","-0002,1","10160,1","24,0006,9,1",,,,,"04,1,+00300,1,09,1","01,1,+00300,1,08,1","01,1,+03000,1,03,1","08,99,1,05,1,09,1,00250,1,03,1,02,1",,"01,9",,"120,M,+0220,1","180,N,+0010,1","99999,9,08214,1","7,1,007,1,-024,1",,"SYN142AAXX  27001 76373 32388 82106 10184 21002 38214 40160 57007 85932 92350 333 10220 20010 30/// 50120 56666 59024 70006 84910 81810 81360 82070;",
"76373099999","2006-01-27T03:00:00","4","25.35","-105.75","1967.0","TEPEHUANES DGO., MX","FM-12","99999","V020","999,9,C,0000,1","99999,9,9,N","010000,1,N,1","+0114,1","+0029,1","10165,1",,,,,,,,,,,"01,9",,,,"99999,9,08233,1","2,1,019,1,+999,9",,"SYN088AAXX  27031 76373 32360 /0000 10114 20029 38233 40165 52019 8//// 90240 333 30/// 58///;",
"76373099999","2006-01-27T06:00:00","4","25.35","-105.75","1967.0","TEPEHUANES DGO., MX","FM-12","99999","V020","270,1,N,0020,1","99999,9,9,N","010000,1,N,1","+0064,1","+0027,1","10172,1",,,,,,,,,,"0288,9","01,9",,"240,M,+0220,1","240,N,+0010,1","99999,9,08241,1","2,1,008,1,+999,9",,"SYN112AAXX  27061 76373 32360 /2702 10064 20027 38241 40172 52008 8//// 90540 333 10220 20010 30/// 55048 56/// 58///;",
"76373099999","2006-01-27T12:00:00","4","25.35","-105.75","1967.0","TEPEHUANES DGO., MX","FM-12","99999","V020","999,9,C,0000,1","22000,1,9,N","000100,1,N,1","+0006,1","+0001,1","10226,1","24,0005,9,1",,,,,"00,1,+99999,9,99,9",,,"00,99,1,00,1,00,1,99999,9,00,1,00,1",,"09,9","999,-0024,1","120,N,+0000,1","240,M,+0220,1","99999,9,08238,1","9,9,999,9,-005,1",,"SYN100AAXX  27121 76373 32901 00000 10006 20001 38238 40226 5//// 91150 333 10220 20000 31024 59005 70006;",
"76373099999","2006-01-27T15:00:00","4","25.35","-105.75","1967.0","TEPEHUANES DGO., MX","FM-12","99999","V020","999,9,C,0000,1","02400,1,9,N","070000,1,N,1","+0000,1","+0000,1","10254,1",,,,,,"06,1,+02400,1,03,1",,,"06,99,1,06,1,00,1,01250,1,03,1,00,1",,"01,9",,,,"99999,9,08239,1","1,1,001,1,-013,1",,"SYN100AAXX  27151 76373 32688 60000 10000 20000 38239 40254 51001 86030 91450 333 30/// 56060 59013 86358;",
"76373099999","2006-01-27T18:00:00","4","25.35","-105.75","1967.0","TEPEHUANES DGO., MX","FM-12","99999","V020","999,9,C,0000,1","03600,1,C,N","070000,1,N,1","+0096,1","+0047,1","10254,1",,,,,,"02,1,+00360,1,06,1",,,"08,99,1,02,1,04,1,00450,1,02,1,00,1",,"01,9",,"120,M,+0116,1","240,N,-0013,1","99999,9,08238,1","8,1,001,1,-014,1",,"SYN118AAXX  27181 76373 32488 80000 10096 20047 38238 40254 58001 82420 91750 333 10116 21013 30/// 56660 59014 82612 86460;",
"76373099999","2006-01-27T21:00:00","4","25.35","-105.75","1967.0","TEPEHUANES DGO., MX","FM-12","99999","V020","270,1,N,0040,1","00300,1,9,N","070000,1,N,1","+0162,1","+0057,1","10198,1",,,,,,"06,1,+00300,1,02,1",,,"08,99,1,06,1,06,1,00450,1,02,1,00,1",,"01,9",,,,"99999,9,08212,1","6,1,026,1,-009,1",,"SYN106AAXX  27211 76373 32488 82704 10162 20057 38212 40198 56026 86620 92045 333 30/// 56660 59009 86210 82460;",
"76373099999","2006-01-28T00:00:00","4","25.35","-105.75","1967.0","TEPEHUANES DGO., MX","FM-12","99999","V020","240,1,N,0050,1","00210,1,9,N","030000,1,N,1","+0146,1","+0078,1","10170,1","01,0000,2,1","06,9999,2,9","24,9999,2,9","5,1,06,1","5,1,06,1",,,,"08,99,1,08,1,07,1,00250,1,99,9,99,9",,"09,9",,"120,M,+0178,1","180,N,-0010,1","99999,9,08212,1","4,1,000,1,-005,1","50,1","SYN142AAXX  28001 76373 01380 82405 10146 20078 38212 40170 54000 69905 75055 887// 92357 333 10178 21010 31/// 50110 56600 59005 69901 79999 88610;",
"76373099999","2006-01-28T18:00:00","4","25.35","-105.75","1967.0","TEPEHUANES DGO., MX","FM-12","99999","V020","999,9,C,0000,1","03600,1,C,N","070000,1,N,1","+0098,1","+0073,1","10226,1","18,0050,9,1",,,,,"02,1,+00300,1,06,1",,,"08,99,1,02,1,05,1,00250,1,07,1,99,9",,"09,9",,"120,M,+0110,1","240,N,+0060,1","99999,9,08246,1","2,1,014,1,+008,1",,"SYN130AAXX  28181 76373 02388 80000 10098 20073 38246 40226 52014 60053 8257/ 91748 333 10110 20060 31/// 56660 58008 60053 82610 88460;",
"76373099999","2006-01-28T21:00:00","4","25.35","-105.75","1967.0","TEPEHUANES DGO., MX","FM-12","99999","V020","310,1,N,0020,1","06000,1,9,N","070000,1,N,1","+0144,1","+0063,1","10184,1",,,,,,"01,1,+00300,1,08,1","08,1,+06000,1,02,1",,"08,99,1,01,1,99,9,00250,1,00,1,07,1",,"09,9",,,,"99999,9,08220,1","6,1,026,1,+008,1",,"SYN112AAXX  28211 76373 32388 83102 10144 20063 38220 40184 56026 81007 92057 333 31/// 56606 58008 81810 88270 99020;","Q01+000002SCOLCG"
"76373099999","2006-01-29T00:00:00","4","25.35","-105.75","1967.0","TEPEHUANES DGO., MX","FM-12","99999","V020","120,1,N,0020,1","22000,1,9,N","070000,1,N,1","+0156,1","+0028,1","10155,1","24,0005,9,1",,,,,,,,"03,99,1,00,1,00,1,99999,9,00,1,08,1",,"09,9",,"120,M,+0174,1","180,N,+0060,1","99999,9,08210,1","6,1,010,1,+002,1",,"SYN124AAXX  29001 76373 32988 31202 10156 20028 38210 40155 56010 80008 92340 333 10174 20060 31/// 50010 56006 58002 70005 83280;",
"76373099999","2006-01-29T15:00:00","4","25.35","-105.75","1967.0","TEPEHUANES DGO., MX","FM-12","99999","V020","999,9,C,0000,1","22000,1,9,N","070000,1,N,1","-0018,1","-0018,1","10264,1",,,,,,"00,1,+99999,9,99,9",,,"00,99,1,00,1,00,1,99999,9,00,1,00,1",,"01,9",,,,"99999,9,08231,1","2,1,013,1,-001,1",,"SYN082AAXX  29151 76373 32988 00000 11018 21018 38231 40264 52013 91440 333 30/// 59001;",
"76373099999","2006-01-29T18:00:00","4","25.35","-105.75","1967.0","TEPEHUANES DGO., MX","FM-12","99999","V020","120,1,N,0010,1","22000,1,9,N","070000,1,N,1","+0122,1","+0022,1","10254,1",,,,,,"00,1,+99999,9,99,9",,,"00,99,1,00,1,00,1,99999,9,00,1,00,1",,"01,9",,"120,M,+0136,1","240,N,-0040,1","99999,9,08226,1","8,1,005,1,-020,1",,"SYN094AAXX  29181 76373 32988 01201 10122 20022 38226 40254 58005 91750 333 10136 21040 30/// 59020;",
"76373099999","2006-01-29T21:00:00","4","25.35","-105.75","1967.0","TEPEHUANES DGO., MX","FM-12","99999","V020","270,1,N,0040,1","22000,1,9,N","070000,1,N,1","+0208,1","-0019,1","10268,1",,,,,,"00,1,+99999,9,99,9",,,"00,99,1,00,1,00,1,99999,9,00,1,00,1",,"01,9",,,,"99999,9,08197,1","6,1,029,1,-023,1",,"SYN082AAXX  29211 76373 32988 02704 10208 21019 38197 40268 56029 92040 333 30/// 59023;",
"76373099999","2006-01-30T12:00:00","4","25.35","-105.75","1967.0","TEPEHUANES DGO., MX","FM-12","99999","V020","070,1,N,0010,1","22000,1,9,N","000100,1,N,1","-0008,1","-0018,1","10205,1","24,0000,9,1",,,,,"00,1,+99999,9,99,9",,,"00,99,1,00,1,00,1,99999,9,00,1,00,1",,"09,9","999,-0045,1","120,N,-0020,1","240,M,+0235,1","99999,9,08218,1","9,9,999,9,+000,1",,"SYN100AAXX  30121 76373 32901 00701 11008 21018 38218 40205 5//// 91147 333 10235 21020 31045 58000 70000;","Q01  00002PRCP24"
"76373099999","2006-01-30T15:00:00","4","25.35","-105.75","1967.0","TEPEHUANES DGO., MX","FM-12","99999","V020","999,9,C,0000,1","22000,1,9,N","070000,1,N,1","+0000,1","-0023,1","10259,1",,,,,,"01,1,+06000,1,00,1",,,"01,99,1,00,1,00,1,99999,9,00,1,02,1",,"01,9",,,,"99999,9,08235,1","2,1,017,1,+004,1",,"SYN100AAXX  30151 76373 32988 10000 10000 21023 38235 40259 52017 80002 91450 333 30/// 56006 58004 81070;",
"76373099999","2006-01-30T18:00:00","4","25.35","-105.75","1967.0","TEPEHUANES DGO., MX","FM-12","99999","V020","090,1,N,0010,1","22000,1,9,N","070000,1,N,1","+0140,1","+0016,1","10242,1",,,,,,"00,1,+99999,9,99,9",,,"00,99,1,00,1,00,1,99999,9,00,1,00,1",,"01,9",,"120,M,+0160,1","240,N,-0030,1","99999,9,08229,1","8,1,006,1,+003,1",,"SYN094AAXX  30181 76373 32988 00901 10140 20016 38229 40242 58006 91750 333 10160 21030 30/// 58003;",
"76373099999","2006-01-30T21:00:00","4","25.35","-105.75","1967.0","TEPEHUANES DGO., MX","FM-12","99999","V020","120,1,N,0050,1","22000,1,9,N","070000,1,N,1","+0210,2","-0009,1","10184,1",,,,,,"00,1,+99999,9,99,9",,,"00,99,1,00,1,00,1,99999,9,00,1,00,1",,"01,9",,,,"99999,9,08199,1","6,1,030,1,+005,1",,"SYN082AAXX  30211 76373 32988 01205 10210 21009 38199 40184 56030 92048 333 30/// 58005;",
"76373099999","2006-01-31T03:00:00","4","25.35","-105.75","1967.0","TEPEHUANES DGO., MX","FM-12","99999","V020","999,9,C,0000,1","22000,1,9,N","010000,1,N,1","+0106,1","+0005,1","10106,1",,,,,,"00,1,+99999,9,99,9",,,"00,99,1,00,1,00,1,99999,9,00,1,00,1",,"01,9",,,,"99999,9,08201,1","2,1,018,1,+999,9",,"SYN082AAXX  31031 76373 32960 00000 10106 20005 38201 40106 52018 90240 333 30/// 58///;",
"76373099999","2006-01-31T12:00:00","4","25.35","-105.75","1967.0","TEPEHUANES DGO., MX","FM-12","99999","V020","300,1,N,0010,1","22000,1,9,N","000100,1,N,1","-0002,1","-0022,1","10184,1","24,0000,9,1",,,,,"00,1,+99999,9,99,9",,,"00,99,1,00,1,00,1,99999,9,00,1,00,1",,"09,9","999,-0040,1","120,N,-0010,1","240,M,+0241,1","99999,9,08202,1","9,9,999,9,-016,1",,"SYN100AAXX  31121 76373 32901 03001 11002 21022 38202 40184 5//// 91150 333 10241 21010 31040 59016 70000;","Q01  00002PRCP24"
"76373099999","2006-01-31T15:00:00","4","25.35","-105.75","1967.0","TEPEHUANES DGO., MX","FM-12","99999","V020","999,9,C,0000,1","09000,1,C,N","070000,1,N,1","+0004,1","-0016,1","10219,1",,,,,,"01,1,+02400,1,03,1",,,"06,99,1,01,1,00,1,01250,1,04,1,05,1",,"01,9",,,,"99999,9,08207,1","1,1,005,1,-028,1",,"SYN106AAXX  31151 76373 32688 60000 10004 21016 38207 40219 51005 81045 91450 333 30/// 56066 59028 81358 85270;",
"76373099999","2006-01-31T18:00:00","4","25.35","-105.75","1967.0","TEPEHUANES DGO., MX","FM-12","99999","V020","040,1,N,0010,1","22000,1,9,N","070000,1,N,1","+9999,9","+0003,1","10198,1",,,,,,"02,1,+06000,1,00,1",,,"02,99,1,00,1,00,1,99999,9,00,1,02,1",,"01,9",,"120,M,+0196,1","240,N,-0026,1","99999,9,08198,1","8,1,009,1,-031,1",,"SYN112AAXX  31181 76373 32988 20401 10170 20003 38198 40198 58009 80002 91750 333 10196 21026 30/// 56006 59031 82070;","Q01+001703ATOT  "
"76373099999","2006-02-01T06:00:00","4","25.35","-105.75","1967.0","TEPEHUANES DGO., MX","FM-12","99999","V020","270,1,N,0020,1","99999,9,9,N","010000,1,N,1","+0114,1","+0005,1","10093,1",,,,,,,,,"08,99,1,00,1,00,1,99999,9,00,1,08,1","0576,9","01,9",,"240,M,+0270,1","240,N,-0026,1","99999,9,08198,1","2,1,005,1,-010,1",,"SYN118AAXX  01061 76373 32960 82702 10114 20005 38198 40093 52005 80008 90540 333 10270 21026 30/// 55096 56006 59010 88280;",
"76373099999","2006-02-01T12:00:00","4","25.35","-105.75","1967.0","TEPEHUANES DGO., MX","FM-12","99999","V020","280,1,N,0010,1","02400,1,9,N","000100,1,N,1","+0076,1","+0018,1","10122,1","24,0000,9,1",,,,,"08,1,+02400,1,04,1",,,"08,99,1,08,1,00,1,01250,1,02,1,99,9",,"01,9","999,+0045,1","120,N,+0068,1","240,M,+0270,1","99999,9,08184,1","9,9,999,9,-018,1",,"SYN118AAXX  01121 76373 32601 82801 10076 20018 38184 40122 5//// 8802/ 91150 333 10270 20068 30045 5606/ 59018 70000 88458;",
"76373099999","2006-02-01T15:00:00","4","25.35","-105.75","1967.0","TEPEHUANES DGO., MX","FM-12","99999","V020","999,9,C,0000,1","02400,1,9,N","070000,1,N,1","+0058,1","+0025,1","10160,1",,,,,,"06,1,+02400,1,03,1",,,"08,99,1,06,1,00,1,01250,1,03,1,04,1",,"01,9",,,,"99999,9,08198,1","2,1,014,1,-009,1",,"SYN106AAXX  01151 76373 32688 80000 10058 20025 38198 40160 52014 86034 91450 333 30/// 56066 59009 86358 82070;",
"76373099999","2006-02-01T18:00:00","4","25.35","-105.75","1967.0","TEPEHUANES DGO., MX","FM-12","99999","V020","330,1,N,0010,1","06000,1,9,N","070000,1,N,1","+0170,1","+0031,1","10144,1",,,,,,"07,1,+06000,1,02,1",,,"07,99,1,00,1,00,1,99999,9,00,1,08,1",,"01,9",,"120,M,+0184,1","240,N,+0048,1","99999,9,08192,1","8,1,006,1,-006,1",,"SYN112AAXX  01181 76373 32988 73301 10170 20031 38192 40144 58006 80008 91750 333 10184 20048 30/// 56006 59006 87270;",
"76373099999","2006-02-01T21:00:00","4","25.35","-105.75","1967.0","TEPEHUANES DGO., MX","FM-12","99999","V020","290,1,N,0060,1","22000,1,9,N","070000,1,N,1","+0228,2","-0021,1","10072,1",,,,,,"03,1,+06000,1,00,1",,,"03,99,1,00,1,00,1,99999,9,00,1,02,1",,"01,9",,,,"99999,9,08155,1","6,1,037,1,-017,1",,"SYN100AAXX  01211 76373 32988 32906 10228 21021 38155 40072 56037 80002 92048 333 30/// 56006 59017 83070;",
"76373099999","2006-02-02T00:00:00","4","25.35","-105.75","1967.0","TEPEHUANES DGO., MX","FM-12","99999","V020","270,1,N,0060,1","22000,1,9,N","070000,1,N,1","+0212,1","-0038,1","10044,1","24,0000,9,1",,,,,,,,"01,99,1,00,1,00,1,99999,9,00,1,05,1",,"01,9",,"120,M,+0250,1","180,N,+0048,1","99999,9,08153,1","7,1,002,1,-020,1",,"SYN124AAXX  02001 76373 32988 12706 10212 21038 38153 40044 57002 80005 92345 333 10250 20048 30/// 50460 56006 59020 70000 81070;",
"76373099999","2006-02-02T18:00:00","4","25.35","-105.75","1967.0","TEPEHUANES DGO., MX","FM-12","99999","V020","090,1,N,0010,1","22000,1,9,N","070000,1,N,1","+0158,1","-0004,1","10172,1",,,,,,"00,1,+99999,9,99,9",,,"00,99,1,00,1,00,1,99999,9,00,1,00,1",,"01,9",,"120,M,+0172,1","240,N,-0010,1","99999,9,08187,1","6,1,004,1,-005,1",,"SYN094AAXX  02181 76373 32988 00901 10158 21004 38187 40172 56004 91746 333 10172 21010 30/// 59005;",
"76373099999","2006-02-03T15:00:00","4","25.35","-105.75","1967.0","TEPEHUANES DGO., MX","FM-12","99999","V020","999,9,C,0000,1","22000,1,9,N","070000,1,N,1","+0008,1","-0030,1","10200,1",,,,,,"01,1,+02400,1,03,1",,,"01,99,1,01,1,00,1,01250,1,04,1,00,1",,"01,9",,,,"99999,9,08198,1","2,1,019,1,+007,1",,"SYN100AAXX  03151 76373 32688 10000 10008 21030 38198 40200 52019 81040 91450 333 30/// 56060 58007 81358;",
"76373099999","2006-02-03T18:00:00","4","25.35","-105.75","1967.0","TEPEHUANES DGO., MX","FM-12","99999","V020","090,1,N,0020,1","22000,1,9,N","070000,1,N,1","+0158,1","-0026,1","10198,1",,,,,,"02,1,+06000,1,00,1",,,"02,99,1,00,1,00,1,99999,9,00,1,02,1",,"01,9",,"120,M,+0180,1","240,N,-0024,1","99999,9,08200,1","2,1,002,1,+013,1",,"SYN112AAXX  03181 76373 32988 20902 10158 21026 38200 40198 52002 80002 91748 333 10180 21024 30/// 56006 58013 82070;",
"76373099999","2006-02-03T21:00:00","4","25.35","-105.75","1967.0","TEPEHUANES DGO., MX","FM-12","99999","V020","090,1,N,0030,1","22000,1,9,N","070000,1,N,1","+0222,2","-0045,1","99999,9",,,,,,"00,1,+99999,9,99,9",,,"00,99,1,00,1,00,1,99999,9,00,1,00,1",,"01,9",,,,"99999,9,08173,1","6,1,027,1,+030,1",,"SYN082AAXX  03211 76373 32988 00903 10222 21045 38173 40127 56027 92045 333 30/// 58030;","Q01+101273APOSLP"
"76373099999","2006-02-04T15:00:00","4","25.35","-105.75","1967.0","TEPEHUANES DGO., MX","FM-12","99999","V020","080,1,N,0010,1","22000,1,9,N","070000,1,N,1","-0004,1","-0067,1","10252,1",,,,,,"03,1,+06000,1,00,1",,,"03,99,1,00,1,00,1,99999,9,00,1,02,1",,"01,9",,,,"99999,9,08238,1","1,1,018,1,+047,1",,"SYN100AAXX  04151 76373 32988 30801 11004 21067 38238 40252 51018 80002 91447 333 30/// 56006 58047 83070;",
"76373099999","2006-02-04T18:00:00","4","25.35","-105.75","1967.0","TEPEHUANES DGO., MX","FM-12","99999","V020","140,1,N,0020,1","22000,1,9,N","070000,1,N,1","+9999,9","-0029,1","10252,1",,,,,,"01,1,+06000,1,00,1",,,"01,99,1,00,1,00,1,99999,9,00,1,02,1",,"01,9",,"120,M,+0168,1","240,N,-0038,1","99999,9,08236,1","7,1,002,1,+034,1",,"SYN112AAXX  04181 76373 32988 11402 10150 21029 38236 40252 57002 80002 91750 333 10168 21038 30/// 56006 58034 81070;","Q01+001503ATOT  "
"76373099999","2006-02-05T12:00:00","4","25.35","-105.75","1967.0","TEPEHUANES DGO., MX","FM-12","99999","V020","999,9,C,0000,1","22000,1,9,N","000100,1,N,1","-0006,1","-0056,1","10186,1","24,0000,9,1",,,,,"00,1,+99999,9,99,9",,,"00,99,1,00,1,00,1,99999,9,00,1,00,1",,"09,9","999,-0040,1","120,N,-0012,1","240,M,+0246,1","99999,9,08205,1",,,"SYN100AAXX  05121 76373 32901 00000 11006 21056 38205 40186 5//// 91150 333 10246 21012 31040 58/// 70000;","Q01  00002PRCP24"
"76373099999","2006-02-05T15:00:00","4","25.35","-105.75","1967.0","TEPEHUANES DGO., MX","FM-12","99999","V020","999,9,C,0000,1","22000,1,9,N","070000,1,N,1","+0028,1","-0041,1","10231,1",,,,,,"00,1,+99999,9,99,9",,,"00,99,1,00,1,00,1,99999,9,00,1,00,1",,"01,9",,,,"99999,9,08217,1","2,1,012,1,-021,1",,"SYN082AAXX  05151 76373 32988 00000 10028 21041 38217 40231 52012 91450 333 30/// 59021;",
"76373099999","2006-02-05T18:00:00","4","25.35","-105.75","1967.0","TEPEHUANES DGO., MX","FM-12","99999","V020","310,1,N,0020,1","22000,1,9,N","070000,1,N,1","+9999,9","-0016,1","10200,1",,,,,,"00,1,+99999,9,99,9",,,"00,99,1,00,1,00,1,99999,9,00,1,00,1",,"01,9",,"120,M,+0228,1","240,N,-0026,1","99999,9,08206,1","7,1,011,1,-030,1",,"SYN094AAXX  05181 76373 32988 03102 10216 21016 38206 40200 57011 91750 333 10228 21026 30/// 59030;","Q01+002163ATOT  "
"76373099999","2006-02-06T12:00:00","4","25.35","-105.75","1967.0","TEPEHUANES DGO., MX","FM-12","99999","V020","330,1,N,0010,1","22000,1,9,N","000100,1,N,1","-0002,1","-0041,1","10191,1","24,0000,9,1",,,,,"00,1,+99999,9,99,9",,,"00,99,1,00,1,00,1,99999,9,00,1,00,1",,"09,9","999,-0042,1","120,N,-0012,1","240,M,+0270,1","99999,9,08214,1","9,9,999,9,+009,1",,"SYN100AAXX  06121 76373 32901 03301 11002 21041 38214 40191 5//// 91150 333 10270 21012 31042 58009 70000;","Q01  00002PRCP24"
"76373099999","2006-02-06T15:00:00","4","25.35","-105.75","1967.0","TEPEHUANES DGO., MX","FM-12","99999","V020","999,9,C,0000,1","22000,1,9,N","070000,1,N,1","+0018,1","-0039,1","10242,1",,,,,,"03,1,+02400,1,03,1",,,"03,99,1,03,1,00,1,01250,1,03,1,00,1",,"01,9",,,,"99999,9,08230,1","2,1,016,1,+013,1",,"SYN100AAXX  06151 76373 32688 30000 10018 21039 38230 40242 52016 83030 91450 333 30/// 56060 58013 83358;",
"76373099999","2006-02-06T18:00:00","4","25.35","-105.75","1967.0","TEPEHUANES DGO., MX","FM-12","99999","V020","090,1,N,0010,1","22000,1,9,N","070000,1,N,1","+0160,1","-0003,1","10245,1",,,,,,"01,1,+03000,1,03,1",,,"02,99,1,01,1,00,1,01250,1,03,1,02,1",,"01,9",,"120,M,+0174,1","240,N,-0022,1","99999,9,08239,1","1,1,004,1,+033,1",,"SYN118AAXX  06181 76373 32688 20901 10160 21003 38239 40245 51004 81032 91750 333 10174 21022 30/// 56066 58033 81360 81070;",
"76373099999","2006-02-06T21:00:00","4","25.35","-105.75","1967.0","TEPEHUANES DGO., MX","FM-12","99999","V020","150,1,N,0030,1","03600,1,C,N","070000,1,N,1","+0242,2","-0031,1","99999,9",,,,,,"02,1,+00300,1,08,1",,,"05,99,1,02,1,01,1,00450,1,03,1,00,1",,"01,9",,,,"99999,9,08210,1","7,1,029,1,+999,9",,"SYN106AAXX  06211 76373 32488 51503 10242 21031 38210 40172 57029 82130 92050 333 30/// 56660 58/// 82810 83360;","Q01+101723APOSLP"
"76373099999","2006-02-07T12:00:00","4","25.35","-105.75","1967.0","TEPEHUANES DGO., MX","FM-12","99999","V020","999,9,C,0000,1","22000,1,9,N","000100,1,N,1","+0002,1","-0053,1","10238,1","24,0000,9,1",,,,,"00,1,+99999,9,99,9",,,"00,99,1,00,1,00,1,99999,9,00,1,00,1",,"09,9","999,-0045,1","120,N,-0010,1","240,M,+0268,1","99999,9,08252,1","9,9,999,9,+038,1",,"SYN100AAXX  07121 76373 32901 00000 10002 21053 38252 40238 5//// 91150 333 10268 21010 31045 58038 70000;","Q01  00002PRCP24"
"76373099999","2006-02-07T15:00:00","4","25.35","-105.75","1967.0","TEPEHUANES DGO., MX","FM-12","99999","V020","999,9,C,0000,1","22000,1,9,N","070000,1,N,1","+0010,1","-0065,1","10280,1",,,,,,"00,1,+99999,9,99,9",,,"00,99,1,00,1,00,1,99999,9,00,1,00,1",,"01,9",,,,"99999,9,08262,1","2,1,010,1,+032,1",,"SYN082AAXX  07151 76373 32988 00000 10010 21065 38262 40280 52010 91450 333 30/// 58032;",
"76373099999","2006-02-08T12:00:00","4","25.35","-105.75","1967.0","TEPEHUANES DGO., MX","FM-12","99999","V020","999,9,C,0000,1","06000,1,9,N","000100,1,N,1","+0023,1","-0050,1","10202,1","24,0000,9,1",,,,,"06,1,+06000,1,02,1",,,"06,99,1,00,1,00,1,99999,9,00,1,08,1",,"09,9","999,-0012,1","120,N,+0015,1","240,M,+0227,1","99999,9,08228,1","9,9,999,9,+026,1",,"SYN118AAXX  08121 76373 32901 60000 10023 21050 38228 40202 5//// 80008 91150 333 10227 20015 31012 56006 58026 70000 86270;",
"76373099999","2006-02-08T15:00:00","4","25.35","-105.75","1967.0","TEPEHUANES DGO., MX","FM-12","99999","V020","320,1,N,0010,1","00600,1,9,N","070000,1,N,1","+0042,1","-0044,1","10235,1",,,,,,"08,1,+00600,1,06,1",,,"08,99,1,08,1,05,1,00800,1,00,1,00,1",,"01,9",,,,"99999,9,08235,1","3,1,007,1,-007,1",,"SYN100AAXX  08151 76373 32588 83201 10042 21044 38235 40235 53007 88500 91455 333 30/// 56600 59007 88620;",
"76373099999","2006-02-08T18:00:00","4","25.35","-105.75","1967.0","TEPEHUANES DGO., MX","FM-12","99999","V020","090,1,N,0010,1","03000,1,9,N","070000,1,N,1","+0098,1","-0022,1","10240,1",,,,,,"08,1,+03000,1,04,1",,,"08,99,1,08,1,00,1,01250,1,07,1,99,9",,"01,9",,"120,M,+0110,1","240,N,+0014,1","99999,9,08242,1","2,1,007,1,-017,1",,"SYN112AAXX  08181 76373 32688 80901 10098 21022 38242 40240 52007 8807/ 91750 333 10110 20014 30/// 56060 59017 88460;",
"76373099999","2006-02-08T21:00:00","4","25.35","-105.75","1967.0","TEPEHUANES DGO., MX","FM-12","99999","V020","060,1,N,0020,1","09000,1,C,N","070000,1,N,1","+0178,1","-0022,1","10186,1",,,,,,"04,1,+03000,1,04,1",,,"08,99,1,04,1,00,1,01250,1,07,1,04,1",,"01,9",,,,"99999,9,08215,1","6,1,027,1,-002,1",,"SYN106AAXX  08211 76373 32688 80602 10178 21022 38215 40186 56027 84074 92050 333 30/// 56066 59002 84460 84070;",
"76373099999","2006-02-09T12:00:00","4","25.35","-105.75","1967.0","TEPEHUANES DGO., MX","FM-12","99999","V020","999,9,C,0000,1","03000,1,9,N","000100,1,N,1","+0042,1","-0022,1","10164,1","24,0000,9,1",,,,,"08,1,+03000,1,04,1",,,"08,99,1,08,1,00,1,01250,1,02,1,99,9",,"01,9","999,+0022,1","120,N,+0030,1","240,M,+0222,1","99999,9,08214,1","9,9,999,9,-014,1",,"SYN118AAXX  09121 76373 32601 80000 10042 21022 38214 40164 5//// 8802/ 91150 333 10222 20030 30022 5606/ 59014 70000 88460;",
"76373099999","2006-02-09T15:00:00","4","25.35","-105.75","1967.0","TEPEHUANES DGO., MX","FM-12","99999","V020","999,9,C,0000,1","09000,1,C,N","070000,1,N,1","+0042,1","-0016,1","10200,1",,,,,,"02,1,+02400,1,03,1",,,"08,99,1,02,1,00,1,01250,1,03,1,08,1",,"01,9",,,,"99999,9,08218,1","1,1,004,1,-017,1",,"SYN106AAXX  09151 76373 32688 80000 10042 21016 38218 40200 51004 82038 91450 333 30/// 56066 59017 82358 86270;",
"76373099999","2006-02-09T18:00:00","4","25.35","-105.75","1967.0","TEPEHUANES DGO., MX","FM-12","99999","V020","300,1,N,0010,1","06000,1,9,N","070000,1,N,1","+0166,1","+0032,1","10181,1",,,,,,"08,1,+06000,1,02,1",,,"08,99,1,00,1,00,1,99999,9,00,1,08,1",,"01,9",,"120,M,+0184,1","240,N,+0012,1","99999,9,08207,1","7,1,011,1,-035,1",,"SYN112AAXX  09181 76373 32988 83001 10166 20032 38207 40181 57011 80008 91747 333 10184 20012 30/// 56006 59035 88270;",
"76373099999","2006-02-09T21:00:00","4","25.35","-105.75","1967.0","TEPEHUANES DGO., MX","FM-12","99999","V020","240,1,N,0070,1","09000,1,C,N","070000,1,N,1","+0244,2","-0074,1","99999,9",,,,,,"02,1,+03000,1,03,1",,,"06,99,1,02,1,00,1,01250,1,03,1,02,1",,"01,9",,,,"99999,9,08176,1","6,1,031,1,-069,1",,"SYN106AAXX  09211 76373 32688 62407 10244 21074 38176 40102 56031 82032 92048 333 30/// 56066 59069 82360 84070;","Q01+101023APOSLP"
"76373099999","2006-02-10T00:00:00","4","25.35","-105.75","1967.0","TEPEHUANES DGO., MX","FM-12","99999","V020","220,1,N,0050,1","22000,1,9,N","070000,1,N,1","+0202,1","+0018,1","10072,1","24,0000,9,1",,,,,"01,1,+03000,1,03,1",,,"02,99,1,01,1,00,1,01250,1,03,1,02,1",,"01,9",,"120,M,+0262,1","180,N,+0012,1","99999,9,08179,1","2,1,003,1,-019,1",,"SYN130AAXX  10001 76373 32688 22205 10202 20018 38179 40072 52003 81032 92347 333 10262 20012 30/// 50340 56066 59019 70000 81360 81070;",
"76373099999","2006-02-10T12:00:00","4","25.35","-105.75","1967.0","TEPEHUANES DGO., MX","FM-12","99999","V020","310,1,N,0040,1","22000,1,9,N","000100,1,N,1","+0090,1","+0023,1","10127,1","24,0000,9,1",,,,,"00,1,+99999,9,99,9",,,"00,99,1,00,1,00,1,99999,9,00,1,00,1",,"01,9","999,+0015,1","120,N,+0047,1","240,M,+0262,1","99999,9,08175,1","9,9,999,9,-039,1",,"SYN100AAXX  10121 76373 32901 03104 10090 20023 38175 40127 5//// 91150 333 10262 20047 30015 59039 70000;","Q01  00002PRCP24"
"76373099999","2006-02-10T15:00:00","4","25.35","-105.75","1967.0","TEPEHUANES DGO., MX","FM-12","99999","V020","300,1,N,0030,1","22000,1,9,N","070000,1,N,1","+0122,1","+0035,1","10139,1",,,,,,"00,1,+99999,9,99,9",,,"00,99,1,00,1,00,1,99999,9,00,1,00,1",,"01,9",,,,"99999,9,08187,1","2,1,012,1,-031,1",,"SYN082AAXX  10151 76373 32988 03003 10122 20035 38187 40139 52012 91450 333 30/// 59031;",
"76373099999","2006-02-10T18:00:00","4","25.35","-105.75","1967.0","TEPEHUANES DGO., MX","FM-12","99999","V020","190,1,N,0060,1","22000,1,9,N","070000,1,N,1","+0194,1","-0002,1","10132,1",,,,,,"00,1,+99999,9,99,9",,,"00,99,1,00,1,00,1,99999,9,00,1,00,1",,"01,9",,"120,M,+0210,1","240,N,+0048,1","99999,9,08192,1","2,1,005,1,-015,1",,"SYN094AAXX  10181 76373 32988 01906 10194 21002 38192 40132 52005 91747 333 10210 20048 30/// 59015;",
"76373099999","2006-02-10T21:00:00","4","25.35","-105.75","1967.0","TEPEHUANES DGO., MX","FM-12","99999","V020","240,1,N,0070,1","22000,1,9,N","070000,1,N,1","+9999,9","+9999,9","10088,1",,,,,,"00,1,+99999,9,99,9",,,"00,99,1,00,1,00,1,99999,9,00,1,00,1",,"01,9",,,,"99999,9,08178,1","6,1,014,1,+002,1",,"SYN076AAXX  10211 76373 32988 02407 21031 38178 40088 56014 92045 333 30/// 58002;",
"76373099999","2006-02-11T15:00:00","4","25.35","-105.75","1967.0","TEPEHUANES DGO., MX","FM-12","99999","V020","999,9,C,0000,1","22000,1,9,N","070000,1,N,1","+0004,1","-0034,1","10266,1",,,,,,"00,1,+99999,9,99,9",,,"00,99,1,00,1,00,1,99999,9,00,1,00,1",,"01,9",,,,"99999,9,08251,1","1,1,022,1,+064,1",,"SYN082AAXX  11151 76373 32988 00000 10004 21034 38251 40266 51022 91448 333 30/// 58064;",
"76373099999","2006-02-11T18:00:00","4","25.35","-105.75","1967.0","TEPEHUANES DGO., MX","FM-12","99999","V020","100,1,N,0030,1","22000,1,9,N","070000,1,N,1","+9999,9","+0005,1","10259,1",,,,,,"00,1,+99999,9,99,9",,,"00,99,1,00,1,00,1,99999,9,00,1,00,1",,"01,9",,"120,M,+0162,1","240,N,-0028,1","99999,9,08248,1","7,1,003,1,+056,1",,"SYN094AAXX  11181 76373 32988 01003 10146 20005 38248 40259 57003 91748 333 10162 21028 30/// 58056;","Q01+001463ATOT  "
"76373099999","2006-02-12T15:00:00","4","25.35","-105.75","1967.0","TEPEHUANES DGO., MX","FM-12","99999","V020","999,9,C,0000,1","22000,1,9,N","070000,1,N,1","+0028,1","-0016,1","10299,1",,,,,,"00,1,+99999,9,99,9",,,"00,99,1,00,1,00,1,99999,9,00,1,00,1",,"01,9",,,,"99999,9,08278,1","2,1,021,1,-027,1",,"SYN082AAXX  12151 76373 32988 00000 10028 21016 38278 40299 52021 91450 333 30/// 59027;",
"76373099999","2006-02-12T18:00:00","4","25.35","-105.75","1967.0","TEPEHUANES DGO., MX","FM-12","99999","V020","160,1,N,0040,1","22000,1,9,N","070000,1,N,1","+0136,1","-0005,1","10290,1",,,,,,"00,1,+99999,9,99,9",,,"00,99,1,00,1,00,1,99999,9,00,1,00,1",,"01,9",,"120,M,+0146,1","240,N,-0030,1","99999,9,08270,1","8,1,008,1,+022,1",,"SYN094AAXX  12181 76373 32988 01604 10136 21005 38270 40290 58008 91750 333 10146 21030 30/// 58022;",
"76373099999","2006-02-13T12:00:00","4","25.35","-105.75","1967.0","TEPEHUANES DGO., MX","FM-12","99999","V020","999,9,C,0000,1","22000,1,9,N","000300,1,N,1","-0018,1","-0069,1","10266,1","24,0000,9,1",,,,,"01,1,+06000,1,00,1",,,"01,99,1,00,1,00,1,99999,9,00,1,02,1",,"09,9","999,-0053,1","120,N,-0026,1","240,M,+0195,1","99999,9,08258,1","9,9,999,9,+001,1",,"SYN118AAXX  13121 76373 32903 10000 11018 21069 38258 40266 5//// 80002 91150 333 10195 21026 31053 56006 58001 70000 81070;",
"76373099999","2006-02-13T15:00:00","4","25.35","-105.75","1967.0","TEPEHUANES DGO., MX","FM-12","99999","V020","999,9,C,0000,1","22000,1,9,N","070000,1,N,1","-0004,1","-0063,1","10306,1",,,,,,"06,1,+06000,1,00,1",,,"99,99,9,00,1,00,1,99999,9,00,1,04,1",,"01,9",,,,"99999,9,08267,1","2,1,009,1,-011,1",,"SYN100AAXX  13151 76373 32988 30000 11004 21063 38267 40306 52009 80004 91450 333 30/// 56006 59011 86070;","Q01+000032SCOTCV"
"76373099999","2006-02-13T18:00:00","4","25.35","-105.75","1967.0","TEPEHUANES DGO., MX","FM-12","99999","V020","100,1,N,0020,1","22000,1,9,N","070000,1,N,1","+0142,1","-0034,1","10275,1",,,,,,"04,1,+06000,1,00,1",,,"04,99,1,00,1,00,1,99999,9,00,1,02,1",,"01,9",,"120,M,+0170,1","240,N,-0036,1","99999,9,08253,1","6,1,014,1,-017,1",,"SYN112AAXX  13181 76373 32988 41002 10142 21034 38253 40275 56014 80002 91750 333 10170 21036 30/// 56006 59017 84070;",
"76373099999","2006-02-13T21:00:00","4","25.35","-105.75","1967.0","TEPEHUANES DGO., MX","FM-12","99999","V020","120,1,N,0020,1","06000,1,9,N","070000,1,N,1","+0214,1","-0008,1","99999,9",,,,,,"08,1,+06000,1,02,1",,,"08,99,1,00,1,00,1,99999,9,00,1,07,1",,"01,9",,,,"99999,9,08214,1","6,1,039,1,+999,9",,"SYN106AAXX  13211 76373 32988 81202 10214 21008 38214 40191 56039 80007 92045 333 30/// 56006 58/// 88270 99020;","Q01+101913APOSLP"
"76373099999","2006-02-14T12:00:00","4","25.35","-105.75","1967.0","TEPEHUANES DGO., MX","FM-12","99999","V020","999,9,C,0000,1","03600,1,C,N","000300,1,N,1","+0044,1","-0014,1","10174,1","24,0000,9,1",,,,,"02,1,+00360,1,08,1",,,"08,99,1,02,1,01,1,00450,1,03,1,00,1",,"09,9","999,-0015,1","120,N,+0036,1","240,M,+0259,1","99999,9,08217,1","9,9,999,9,-041,1",,"SYN124AAXX  14121 76373 32403 80000 10044 21014 38217 40174 5//// 82130 91150 333 10259 20036 31015 56660 59041 70000 82812 86360;",
"76373099999","2006-02-14T15:00:00","4","25.35","-105.75","1967.0","TEPEHUANES DGO., MX","FM-12","99999","V020","999,9,C,0000,1","09000,1,C,N","070000,1,N,1","+0058,1","+0002,1","10209,1",,,,,,"03,1,+03000,1,03,1",,,"06,99,1,03,1,00,1,01250,1,04,1,09,1",,"01,9",,,,"99999,9,08226,1","2,1,009,1,-041,1",,"SYN106AAXX  14151 76373 32688 60000 10058 20002 38226 40209 52009 83049 91450 333 30/// 56066 59041 83360 83170;",
"76373099999","2006-02-14T18:00:00","4","25.35","-105.75","1967.0","TEPEHUANES DGO., MX","FM-12","99999","V020","050,1,N,0010,1","09000,1,C,N","070000,1,N,1","+9999,9","+0051,1","10193,1",,,,,,"04,1,+03000,1,03,1",,,"06,99,1,04,1,00,1,01250,1,03,1,02,1",,"01,9",,"120,M,+0184,1","240,N,+0030,1","99999,9,08220,1","7,1,006,1,-033,1",,"SYN118AAXX  14181 76373 32688 60501 10174 20051 38220 40193 57006 84032 91745 333 10184 20030 30/// 56066 59033 84360 82070;","Q01+001743ATOT  "
"76373099999","2006-02-14T21:00:00","4","25.35","-105.75","1967.0","TEPEHUANES DGO., MX","FM-12","99999","V020","240,1,N,0070,1","22000,1,9,N","070000,1,N,1","+0222,1","+0027,1","99999,9",,,,,,"01,1,+00300,1,08,1","01,1,+03000,1,03,1",,"03,99,1,01,1,01,1,00450,1,03,1,02,1",,"01,9",,,,"99999,9,08194,1","6,1,026,1,-020,1",,"SYN112AAXX  14211 76373 32488 32407 10222 20027 38194 40130 56026 81132 92050 333 30/// 56666 59020 81810 81360 81070;","Q01+101303APOSLP"
"76373099999","2006-02-15T12:00:00","4","25.35","-105.75","1967.0","TEPEHUANES DGO., MX","FM-12","99999","V020","999,9,C,0000,1","22000,1,9,N","000300,1,N,1","+0046,1","+0026,1","10170,1","24,0000,9,1",,,,,"01,1,+00300,1,08,1",,,"01,99,1,01,1,02,1,00450,1,00,1,00,1",,"01,9","999,+0015,1","120,N,+0040,1","240,M,+0254,1","99999,9,08215,1","9,9,999,9,+002,1",,"SYN118AAXX  15121 76373 32403 10000 10046 20026 38215 40170 5//// 81200 91150 333 10254 20040 30015 56600 58002 70000 81810;",
"76373099999","2006-02-15T15:00:00","4","25.35","-105.75","1967.0","TEPEHUANES DGO., MX","FM-12","99999","V020","310,1,N,0010,1","22000,1,9,N","070000,1,N,1","+0060,1","+0032,1","10207,1",,,,,,"00,1,+99999,9,99,9",,,"00,99,1,00,1,00,1,99999,9,00,1,00,1",,"01,9",,,,"99999,9,08226,1","2,1,011,1,+000,1",,"SYN082AAXX  15151 76373 32988 03101 10060 20032 38226 40207 52011 91450 333 30/// 58000;",
"76373099999","2006-02-15T18:00:00","4","25.35","-105.75","1967.0","TEPEHUANES DGO., MX","FM-12","99999","V020","300,1,N,0020,1","22000,1,9,N","070000,1,N,1","+9999,9","+0059,1","10185,1",,,,,,"00,1,+99999,9,99,9",,,"00,99,1,00,1,00,1,99999,9,00,1,00,1",,"01,9",,"120,M,+0212,1","240,N,+0024,1","99999,9,08220,1","7,1,006,1,+000,1",,"SYN094AAXX  15181 76373 32988 03002 10196 20059 38220 40185 57006 91748 333 10212 20024 30/// 58000;","Q01+001963ATOT  "
"76373099999","2006-02-16T12:00:00","4","25.35","-105.75","1967.0","TEPEHUANES DGO., MX","FM-12","99999","V020","999,9,C,0000,1","22000,1,9,N","000300,1,N,1","+0026,1","-0025,1","10151,1","24,0000,9,1",,,,,"00,1,+99999,9,99,9",,,"00,99,1,00,1,00,1,99999,9,00,1,00,1",,"09,9","999,-0015,1","120,N,+0018,1","240,M,+0262,1","99999,9,08202,1","9,9,999,9,-013,1",,"SYN100AAXX  16121 76373 32903 00000 10026 21025 38202 40151 5//// 91150 333 10262 20018 31015 59013 70000;","Q01  00002PRCP24"
"76373099999","2006-02-16T15:00:00","4","25.35","-105.75","1967.0","TEPEHUANES DGO., MX","FM-12","99999","V020","999,9,C,0000,1","22000,1,9,N","070000,1,N,1","+0042,1","-0001,1","10195,1",,,,,,"04,1,+06000,1,00,1",,,"04,99,1,00,1,00,1,99999,9,00,1,04,1",,"01,9",,,,"99999,9,08212,1","2,1,010,1,-014,1",,"SYN100AAXX  16151 76373 32988 40000 10042 21001 38212 40195 52010 80004 91444 333 30/// 56006 59014 84070;",
"76373099999","2006-02-16T18:00:00","4","25.35","-105.75","1967.0","TEPEHUANES DGO., MX","FM-12","99999","V020","300,1,N,0020,1","06000,1,9,N","070000,1,N,1","+9999,9","+0001,1","10181,1",,,,,,"08,1,+06000,1,02,1",,,"08,99,1,00,1,00,1,99999,9,00,1,07,1",,"01,9",,"120,M,+0208,1","240,N,+0002,1","99999,9,08207,1","7,1,005,1,-013,1",,"SYN118AAXX  16181 76373 32988 83002 10196 20001 38207 40181 57005 80007 91750 333 10208 20002 30/// 56006 59013 88270 99020;","Q01+001963ATOT  "
"76373099999","2006-02-16T21:00:00","4","25.35","-105.75","1967.0","TEPEHUANES DGO., MX","FM-12","99999","V020","300,1,N,0070,1","06000,1,9,N","070000,1,N,1","+0256,1","-0061,1","10116,1",,,,,,"07,1,+06000,1,02,1",,,"07,99,1,00,1,00,1,99999,9,00,1,08,1",,"01,9",,,,"99999,9,08179,1","6,1,028,1,-005,1",,"SYN100AAXX  16211 76373 32988 73007 10256 21061 38179 40116 56028 80008 92050 333 30/// 56006 59005 87270;",
"76373099999","2006-02-17T03:00:00","4","25.35","-105.75","1967.0","TEPEHUANES DGO., MX","FM-12","99999","V020","320,1,N,0010,1","22000,1,9,N","010000,1,N,1","+0148,1","-0077,1","10076,1",,,,,,"04,1,+09000,1,02,1",,,"04,99,1,00,1,00,1,99999,9,00,1,07,1",,"01,9",,,,"99999,9,08203,1","2,1,025,1,+999,9",,"SYN100AAXX  17031 76373 32960 43201 10148 21077 38203 40076 52025 80007 90245 333 30/// 56006 58/// 84280;",
"76373099999","2006-02-17T12:00:00","4","25.35","-105.75","1967.0","TEPEHUANES DGO., MX","FM-12","99999","V020","999,9,C,0000,1","03000,1,9,N","000300,1,N,1","+0028,1","-0041,1","10177,1","24,0000,9,1",,,,,"06,1,+03000,1,03,1",,,"06,99,1,06,1,00,1,01250,1,03,1,00,1",,"09,9","999,-0002,1","120,N,+0020,1","240,M,+0272,1","99999,9,08219,1","9,9,999,9,+017,1",,"SYN118AAXX  17121 76373 32603 60000 10028 21041 38219 40177 5//// 86030 91150 333 10272 20020 31002 56060 58017 70000 86360;",
"76373099999","2006-02-17T15:00:00","4","25.35","-105.75","1967.0","TEPEHUANES DGO., MX","FM-12","99999","V020","999,9,C,0000,1","22000,1,9,N","070000,1,N,1","+0066,1","-0045,1","10214,1",,,,,,"02,1,+06000,1,00,1",,,"02,99,1,00,1,00,1,99999,9,00,1,02,1",,"01,9",,,,"99999,9,08227,1","1,1,010,1,+015,1",,"SYN100AAXX  17151 76373 32988 20000 10066 21045 38227 40214 51010 80002 91450 333 30/// 56060 58015 82070;",
"76373099999","2006-02-17T18:00:00","4","25.35","-105.75","1967.0","TEPEHUANES DGO., MX","FM-12","99999","V020","120,1,N,0040,1","22000,1,9,N","070000,1,N,1","+0194,1","-0039,1","10188,1",,,,,,"02,1,+06000,1,01,1",,,"04,99,1,00,1,00,1,99999,9,00,1,04,1",,"01,9",,"120,M,+0212,1","240,N,+0018,1","99999,9,08217,1","7,1,010,1,+010,1",,"SYN118AAXX  17181 76373 32988 41204 10194 21039 38217 40188 57010 80004 91747 333 10212 20018 30/// 56006 58010 82170 81070;",
"76373099999","2006-02-17T21:00:00","4","25.35","-105.75","1967.0","TEPEHUANES DGO., MX","FM-12","99999","V020","240,1,N,0040,1","22000,1,9,N","070000,1,N,1","+0278,1","-0004,1","99999,9",,,,,,"03,1,+06000,1,00,1",,,"03,99,1,00,1,00,1,99999,9,00,1,02,1",,"01,9",,,,"99999,9,08183,1","6,1,034,1,+004,1",,"SYN100AAXX  17211 76373 32988 32404 10278 21004 38183 40106 56034 80002 92045 333 30/// 56006 58004 83070;","Q01+101063APOSLP"
"76373099999","2006-02-18T00:00:00","4","25.35","-105.75","1967.0","TEPEHUANES DGO., MX","FM-12","99999","V020","210,1,N,0040,1","22000,1,9,N","070000,1,N,1","+0268,1","-0006,1","10060,2","24,0000,9,1",,,,,,,,"01,99,1,00,1,00,1,99999,9,00,1,05,1",,"01,9",,"120,M,+0312,1","180,N,+0018,1","99999,9,08182,1","7,1,001,1,+004,1",,"SYN124AAXX  18001 76373 32988 12104 10268 21006 38182 40060 57001 80005 92345 333 10312 20018 30/// 50450 56006 58004 70000 81070;",
"76373099999","2006-02-18T15:00:00","4","25.35","-105.75","1967.0","TEPEHUANES DGO., MX","FM-12","99999","V020","999,9,C,0000,1","22000,1,9,N","070000,1,N,1","+0058,1","-0022,1","10212,1",,,,,,"00,1,+99999,9,99,9",,,"00,99,1,00,1,00,1,99999,9,00,1,00,1",,"01,9",,,,"99999,9,08237,1","2,1,016,1,+010,1",,"SYN082AAXX  18151 76373 32988 00000 10058 21022 38237 40212 52016 91446 333 30/// 58010;",
"76373099999","2006-02-18T18:00:00","4","25.35","-105.75","1967.0","TEPEHUANES DGO., MX","FM-12","99999","V020","150,1,N,0020,1","22000,1,9,N","070000,1,N,1","+0210,1","+0003,1","10191,1",,,,,,"00,1,+99999,9,99,9",,,"00,99,1,00,1,00,1,99999,9,00,1,00,1",,"01,9",,"120,M,+0230,1","240,N,+0018,1","99999,9,08223,1","6,1,014,1,+006,1",,"SYN094AAXX  18181 76373 32988 01502 10210 20003 38223 40191 56014 91747 333 10230 20018 30/// 58006;",
"76373099999","2006-02-18T21:00:00","4","25.35","-105.75","1967.0","TEPEHUANES DGO., MX","FM-12","99999","V020","210,1,N,0060,1","22000,1,9,N","070000,1,N,1","+0286,2","+0039,1","10155,1",,,,,,"00,1,+99999,9,99,9",,,"00,99,1,00,1,00,1,99999,9,00,1,00,1",,"01,9",,,,"99999,9,08195,1","6,1,028,1,+012,1",,"SYN082AAXX  18211 76373 32988 02106 10286 20039 38195 40155 56028 92045 333 30/// 58012;",
"76373099999","2006-02-19T12:00:00","4","25.35","-105.75","1967.0","TEPEHUANES DGO., MX","FM-12","99999","V020","999,9,C,0000,1","22000,1,9,N","000300,1,N,1","+0052,1","-0010,1","10151,1","24,0000,9,1",,,,,"00,1,+99999,9,99,9",,,"00,99,1,00,1,00,1,99999,9,00,1,00,1",,"01,9","999,+0016,1","120,N,+0040,1","240,M,+0318,1","99999,9,08213,1","9,9,999,9,-009,1",,"SYN100AAXX  19121 76373 32903 00000 10052 21010 38213 40151 5//// 91150 333 10318 20040 30016 59009 70000;","Q01  00002PRCP24"
"76373099999","2006-02-19T15:00:00","4","25.35","-105.75","1967.0","TEPEHUANES DGO., MX","FM-12","99999","V020","290,1,N,0010,1","22000,1,9,N","070000,1,N,1","+0072,1","+0010,1","10198,1",,,,,,"00,1,+99999,9,99,9",,,"00,99,1,00,1,00,1,99999,9,00,1,00,1",,"01,9",,,,"99999,9,08226,1","2,1,013,1,-011,1",,"SYN082AAXX  19151 76373 32988 02901 10072 20010 38226 40198 52013 91450 333 30/// 59011;",
"76373099999","2006-02-20T00:00:00","4","25.35","-105.75","1967.0","TEPEHUANES DGO., MX","FM-12","99999","V020","270,1,N,0080,1","22000,1,9,N","070000,1,N,1","+0232,1","-0017,1","10125,1","24,0000,9,1",,,,,"00,1,+99999,9,99,9",,,"00,99,1,00,1,00,1,99999,9,00,1,00,1",,"01,9",,"120,M,+0292,1","180,N,+0026,1","99999,9,08203,1","2,1,014,1,+014,1",,"SYN106AAXX  20001 76373 32988 02708 10232 21017 38203 40125 52014 92345 333 10292 20026 30/// 50110 58014 70000;","Q01  00002PRCP24"
"76373099999","2006-02-20T12:00:00","4","25.35","-105.75","1967.0","TEPEHUANES DGO., MX","FM-12","99999","V020","999,9,C,0000,1","22000,1,9,N","000300,1,N,1","+0036,1","-0018,1","10162,1","24,0000,9,1",,,,,"00,1,+99999,9,99,9",,,"00,99,1,00,1,00,1,99999,9,00,1,00,1",,"01,9","999,+0005,1","120,N,+0036,1","240,M,+0292,1","99999,9,08212,1","9,9,999,9,+001,1",,"SYN100AAXX  20121 76373 32903 00000 10036 21018 38212 40162 5//// 91150 333 10292 20036 30005 58001 70000;","Q01  00002PRCP24"
"76373099999","2006-02-20T15:00:00","4","25.35","-105.75","1967.0","TEPEHUANES DGO., MX","FM-12","99999","V020","999,9,C,0000,1","06000,1,9,N","070000,1,N,1","+0066,1","+0003,1","10202,1",,,,,,"06,1,+06000,1,02,1",,,"06,99,1,00,1,00,1,99999,9,00,1,08,1",,"01,9",,,,"99999,9,08223,1","2,1,011,1,-004,1",,"SYN100AAXX  20151 76373 32988 60000 10066 20003 38223 40202 52011 80008 91450 333 30/// 56006 59004 86270;",
"76373099999","2006-02-20T18:00:00","4","25.35","-105.75","1967.0","TEPEHUANES DGO., MX","FM-12","99999","V020","240,1,N,0010,1","22000,1,9,N","070000,1,N,1","+9999,9","+0034,1","10179,1",,,,,,"04,1,+06000,1,00,1",,,"04,99,1,00,1,00,1,99999,9,00,1,06,1",,"01,9",,"120,M,+0230,1","240,N,+0016,1","99999,9,08216,1","7,1,007,1,+999,9",,"SYN112AAXX  20181 76373 32988 42401 10216 20034 38216 40179 57007 80006 91747 333 10230 20016 30/// 56006 58/// 84070;","Q01+002163ATOT  "
"76373099999","2006-02-21T03:00:00","4","25.35","-105.75","1967.0","TEPEHUANES DGO., MX","FM-12","99999","V020","270,1,N,0010,1","09000,1,9,N","010000,1,N,1","+0180,1","+0003,1","10109,1",,,,,,"06,1,+09000,1,02,1",,,"06,99,1,00,1,00,1,99999,9,00,1,08,1",,"01,9",,,,"99999,9,08206,1","2,1,019,1,+999,9",,"SYN100AAXX  21031 76373 32960 62701 10180 20003 38206 40109 52019 80008 90245 333 30/// 56006 58/// 86280;",
"76373099999","2006-02-21T06:00:00","4","25.35","-105.75","1967.0","TEPEHUANES DGO., MX","FM-12","99999","V020","999,9,C,0000,1","22000,1,9,N","010000,1,N,1","+0110,1","-0011,1","10134,1",,,,,,"00,1,+99999,9,99,9",,,"00,99,1,00,1,00,1,99999,9,00,1,00,1","0636,9","01,9",,"240,M,+0272,1","240,N,+0016,1","99999,9,08220,1","2,1,014,1,+999,9",,"SYN100AAXX  21061 76373 32960 00000 10110 21011 38220 40134 52014 90540 333 10272 20016 30/// 55106 5////;",
"76373099999","2006-02-21T12:00:00","4","25.35","-105.75","1967.0","TEPEHUANES DGO., MX","FM-12","99999","V020","310,1,N,0010,1","22000,1,9,N","000100,1,N,1","+0034,1","-0007,1","10155,1","24,0000,9,1",,,,,"02,1,+06000,1,00,1",,,"02,99,1,00,1,00,1,99999,9,00,1,02,1",,"01,9","999,+0000,1","120,N,+0023,1","240,M,+0272,1","99999,9,08210,1","9,9,999,9,-002,1",,"SYN118AAXX  21121 76373 32901 23101 10034 21007 38210 40155 5//// 80002 91150 333 10272 20023 30000 56006 59002 70000 82070;",
"76373099999","2006-02-21T15:00:00","4","25.35","-105.75","1967.0","TEPEHUANES DGO., MX","FM-12","99999","V020","330,1,N,0010,1","22000,1,9,N","070000,1,N,1","+0064,1","+0009,1","10193,1",,,,,,"01,1,+02400,1,03,1",,,"02,99,1,01,1,00,1,01250,1,04,1,02,1",,"01,9",,,,"99999,9,08215,1","3,1,005,1,-008,1",,"SYN106AAXX  21151 76373 32688 23301 10064 20009 38215 40193 53005 81042 91450 333 30/// 56066 59008 81358 81070;",
"76373099999","2006-02-21T18:00:00","4","25.35","-105.75","1967.0","TEPEHUANES DGO., MX","FM-12","99999","V020","090,1,N,0020,1","22000,1,9,N","070000,1,N,1","+0206,1","+0063,1","10170,1",,,,,,"01,1,+06000,1,00,1",,,"01,99,1,00,1,00,1,99999,9,00,1,02,1",,"01,9",,"120,M,+0220,1","240,N,+0010,1","99999,9,08203,1","6,1,012,1,-013,1",,"SYN112AAXX  21181 76373 32988 10902 10206 20063 38203 40170 56012 80002 91747 333 10220 20010 30/// 56006 59013 81070;",
"76373099999","2006-02-21T21:00:00","4","25.35","-105.75","1967.0","TEPEHUANES DGO., MX","FM-12","99999","V020","290,1,N,0070,1","22000,1,9,N","070000,1,N,1","+0248,2","+0029,1","99999,9",,,,,,"01,1,+06000,1,00,1",,,"01,99,1,00,1,00,1,99999,9,00,1,01,1",,"01,9",,,,"99999,9,08173,1","6,1,030,1,-016,1",,"SYN100AAXX  21211 76373 32988 12907 10248 20029 38173 40100 56030 80001 92045 333 30/// 56006 59016 81070;","Q01+101003APOSLP"
"76373099999","2006-02-22T00:00:00","4","25.35","-105.75","1967.0","TEPEHUANES DGO., MX","FM-12","99999","V020","280,1,N,0040,1","22000,1,9,N","070000,1,N,1","+0228,1","-0025,1","10058,1","24,0000,9,1",,,,,,,,"01,99,1,00,1,00,1,99999,9,00,1,02,1",,"01,9",,"120,M,+0272,1","180,N,+0010,1","99999,9,08171,1","7,1,002,1,-016,1",,"SYN124AAXX  22001 76373 32988 12804 10228 21025 38171 40058 57002 80002 92345 333 10272 20010 30/// 50420 56006 59016 70000 81070;",
"76373099999","2006-02-22T12:00:00","4","25.35","-105.75","1967.0","TEPEHUANES DGO., MX","FM-12","99999","V020","999,9,C,0000,1","22000,1,9,N","000100,1,N,1","+0036,1","-0007,1","10137,1","24,0000,9,1",,,,,"00,1,+99999,9,99,9",,,"00,99,1,00,1,00,1,99999,9,00,1,00,1",,"01,9","999,+0000,1","120,N,+0030,1","240,M,+0272,1","99999,9,08194,1","9,9,999,9,-016,1",,"SYN100AAXX  22121 76373 32901 00000 10036 21007 38194 40137 5//// 91150 333 10272 20030 30000 59016 70000;","Q01  00002PRCP24"
"76373099999","2006-02-22T15:00:00","4","25.35","-105.75","1967.0","TEPEHUANES DGO., MX","FM-12","99999","V020","290,1,N,0010,1","06000,1,9,N","070000,1,N,1","+0072,1","+0000,1","10164,1",,,,,,"08,1,+06000,1,02,1",,,"99,99,9,00,1,00,1,99999,9,00,1,08,1",,"01,9",,,,"99999,9,08202,1","1,1,008,1,-013,1",,"SYN100AAXX  22151 76373 32988 62901 10072 20000 38202 40164 51008 80008 91450 333 30/// 56006 59013 88270;","Q01+000062SCOTCV"
"76373099999","2006-02-22T18:00:00","4","25.35","-105.75","1967.0","TEPEHUANES DGO., MX","FM-12","99999","V020","300,1,N,0070,1","06000,1,9,N","070000,1,N,1","+0198,1","+0021,1","10153,1",,,,,,"08,1,+06000,1,02,1",,,"08,99,1,00,1,00,1,99999,9,00,1,07,1",,"01,9",,"120,M,+0212,1","240,N,+0016,1","99999,9,08196,1","6,1,006,1,-007,1",,"SYN118AAXX  22181 76373 32988 83007 10198 20021 38196 40153 56006 80007 91745 333 10212 20016 30/// 56006 59007 88270 99020;",
"76373099999","2006-02-22T21:00:00","4","25.35","-105.75","1967.0","TEPEHUANES DGO., MX","FM-12","99999","V020","240,1,N,0030,1","06000,1,9,N","070000,1,N,1","+0232,1","-0024,1","10102,1",,,,,,"06,1,+06000,1,02,1",,,"06,99,1,00,1,00,1,99999,9,00,1,08,1",,"01,9",,,,"99999,9,08174,1","6,1,022,1,+001,1",,"SYN100AAXX  22211 76373 32988 62403 10232 21024 38174 40102 56022 80008 92045 333 30/// 56006 58001 86270;",
"76373099999","2006-02-23T00:00:00","4","25.35","-105.75","1967.0","TEPEHUANES DGO., MX","FM-12","99999","V020","270,1,N,0050,1","99999,9,9,N","070000,1,N,1","+0218,1","+0027,1","10067,1","24,0000,9,1",,,,,,,,"06,99,1,00,1,00,1,99999,9,00,1,08,1",,"01,9",,"120,M,+0260,1","180,N,+0016,1","99999,9,08173,1","7,1,001,1,+002,1",,"SYN124AAXX  23001 76373 32988 62705 10218 20027 38173 40067 57001 80008 92346 333 10260 20016 30/// 50500 56006 58002 70000 86270;",
"76373099999","2006-02-23T15:00:00","4","25.35","-105.75","1967.0","TEPEHUANES DGO., MX","FM-12","99999","V020","300,1,N,0010,1","22000,1,9,N","070000,1,N,1","+0056,1","+0005,1","10191,1",,,,,,"01,1,+03000,1,03,1",,,"02,99,1,01,1,00,1,01250,1,04,1,02,1",,"01,9",,,,"99999,9,08216,1","2,1,011,1,+014,1",,"SYN106AAXX  23151 76373 32688 23001 10056 20005 38216 40191 52011 81042 91450 333 30/// 56066 58014 81360 81070;",
"76373099999","2006-02-23T18:00:00","4","25.35","-105.75","1967.0","TEPEHUANES DGO., MX","FM-12","99999","V020","050,1,N,0020,1","06000,1,9,N","070000,1,N,1","+9999,9","+0031,1","10177,1",,,,,,"07,1,+06000,1,02,1",,,"07,99,1,00,1,00,1,99999,9,00,1,08,1",,"01,9",,"120,M,+0212,1","240,N,+0022,1","99999,9,08211,1","7,1,005,1,+015,1",,"SYN112AAXX  23181 76373 32988 70502 10194 20031 38211 40177 57005 80008 91746 333 10212 20022 30/// 56006 58015 87270;","Q01+001943ATOT  "
"76373099999","2006-02-24T15:00:00","4","25.35","-105.75","1967.0","TEPEHUANES DGO., MX","FM-12","99999","V020","999,9,C,0000,1","22000,1,9,N","070000,1,N,1","+0064,1","+0001,1","10181,1",,,,,,"04,1,+06000,1,00,1",,,"04,99,1,00,1,00,1,99999,9,00,1,04,1",,"01,9",,,,"99999,9,08209,1","2,1,019,1,-007,1",,"SYN100AAXX  24151 76373 32988 40000 10064 20001 38209 40181 52019 80004 91446 333 30/// 56006 59007 84070;",
"76373099999","2006-02-24T18:00:00","4","25.35","-105.75","1967.0","TEPEHUANES DGO., MX","FM-12","99999","V020","330,1,N,0020,1","06000,1,9,N","070000,1,N,1","+9999,9","+0009,1","10153,1",,,,,,"08,1,+06000,1,02,1",,,"08,99,1,00,1,00,1,99999,9,00,1,07,1",,"01,9",,"120,M,+0220,1","240,N,+0020,1","99999,9,08195,1","6,1,014,1,-016,1",,"SYN118AAXX  24181 76373 32988 83302 10204 20009 38195 40153 56014 80007 91750 333 10220 20020 30/// 56006 59016 88270 99020;","Q01+002043ATOT  "
"76373099999","2006-02-25T15:00:00","4","25.35","-105.75","1967.0","TEPEHUANES DGO., MX","FM-12","99999","V020","300,1,N,0010,1","22000,1,9,N","070000,1,N,1","+0048,1","+0001,1","10231,1",,,,,,"00,1,+99999,9,99,9",,,"00,99,1,00,1,00,1,99999,9,00,1,00,1",,"01,9",,,,"99999,9,08244,1","2,1,027,1,+035,1",,"SYN082AAXX  25151 76373 32988 03001 10048 20001 38244 40231 52027 91445 333 30/// 58035;",
"76373099999","2006-02-25T18:00:00","4","25.35","-105.75","1967.0","TEPEHUANES DGO., MX","FM-12","99999","V020","320,1,N,0020,1","22000,1,9,N","070000,1,N,1","+9999,9","+0014,1","10214,1",,,,,,"00,1,+99999,9,99,9",,,"00,99,1,00,1,00,1,99999,9,00,1,00,1",,"01,9",,"120,M,+0210,1","240,N,+0010,1","99999,9,08269,1","8,1,005,1,+044,1",,"SYN094AAXX  25181 76373 32988 03202 10190 20014 38269 40214 58005 91748 333 10210 20010 30/// 58044;","Q01+001903ATOT  "
"76373099999","2006-02-27T12:00:00","4","25.35","-105.75","1967.0","TEPEHUANES DGO., MX","FM-12","99999","V020","999,9,C,0000,1","22000,1,9,N","000100,1,N,1","+0044,1","-0022,1","10172,1","24,0000,9,1",,,,,"00,1,+99999,9,99,9",,,"00,99,1,00,1,00,1,99999,9,00,1,00,1",,"01,9","999,+0012,1","120,N,+0038,1","240,M,+0268,1","99999,9,08226,1",,,"SYN100AAXX  27121 76373 32901 00000 10044 21022 38226 40172 5//// 91155 333 10268 20038 30012 58/// 70000;","Q01  00002PRCP24"
"76373099999","2006-02-27T15:00:00","4","25.35","-105.75","1967.0","TEPEHUANES DGO., MX","FM-12","99999","V020","999,9,C,0000,1","22000,1,9,N","070000,1,N,1","+0076,1","+0000,1","10207,1",,,,,,"00,1,+99999,9,99,9",,,"00,99,1,00,1,00,1,99999,9,00,1,00,1",,"01,9",,,,"99999,9,08233,1","2,1,007,1,+999,9",,"SYN082AAXX  27151 76373 32988 00000 10076 20000 38233 40207 52007 91450 333 30/// 58///;",
"76373099999","2006-02-27T18:00:00","4","25.35","-105.75","1967.0","TEPEHUANES DGO., MX","FM-12","99999","V020","030,1,N,0020,1","22000,1,9,N","070000,1,N,1","+9999,9","+0087,1","10182,1",,,,,,"00,1,+99999,9,99,9",,,"00,99,1,00,1,00,1,99999,9,00,1,00,1",,"01,9",,"120,M,+0248,1","240,N,+0020,1","99999,9,08222,1","6,1,011,1,+999,9",,"SYN094AAXX  27181 76373 32988 00302 10230 20087 38222 40182 56011 91748 333 10248 20020 30/// 58///;","Q01+002303ATOT  "
"76373099999","2006-02-28T12:00:00","4","25.35","-105.75","1967.0","TEPEHUANES DGO., MX","FM-12","99999","V020","330,1,N,0020,1","22000,1,9,N","000100,1,N,1","+0046,1","-0012,1","10162,1","24,0000,9,1",,,,,"00,1,+99999,9,99,9",,,"00,99,1,00,1,00,1,99999,9,00,1,00,1",,"01,9","999,+0010,1","120,N,+0040,1","240,M,+0292,1","99999,9,08225,1","9,9,999,9,-001,1",,"SYN100AAXX  28121 76373 32901 03302 10046 21012 38225 40162 5//// 91150 333 10292 20040 30010 59001 70000;","Q01  00002PRCP24"
"76373099999","2006-02-28T15:00:00","4","25.35","-105.75","1967.0","TEPEHUANES DGO., MX","FM-12","99999","V020","999,9,C,0000,1","22000,1,9,N","070000,1,N,1","+0080,1","-0014,1","10214,1",,,,,,"00,1,+99999,9,99,9",,,"00,99,1,00,1,00,1,99999,9,00,1,00,1",,"01,9",,,,"99999,9,08238,1","2,1,013,1,+005,1",,"SYN082AAXX  28151 76373 32988 00000 10080 21014 38238 40214 52013 91450 333 30/// 58005;",
"76373099999","2006-02-28T18:00:00","4","25.35","-105.75","1967.0","TEPEHUANES DGO., MX","FM-12","99999","V020","120,1,N,0020,1","22000,1,9,N","070000,1,N,1","+0212,1","+0008,1","10191,1",,,,,,"00,1,+99999,9,99,9",,,"00,99,1,00,1,00,1,99999,9,00,1,00,1",,"01,9",,"120,M,+0232,1","240,N,+0028,1","99999,9,08229,1","6,1,009,1,+007,1",,"SYN094AAXX  28181 76373 32988 01202 10212 20008 38229 40191 56009 91746 333 10232 20028 30/// 58007;",
"76373099999","2006-02-28T21:00:00","4","25.35","-105.75","1967.0","TEPEHUANES DGO., MX","FM-12","99999","V020","120,1,N,0050,1","22000,1,9,N","070000,1,N,1","+0272,2","-0009,1","99999,9",,,,,,"00,1,+99999,9,99,9",,,"00,99,1,00,1,00,1,99999,9,00,1,00,1",,"01,9",,,,"99999,9,08200,1","6,1,029,1,+008,1",,"SYN082AAXX  28211 76373 32988 01205 10272 21009 38200 40125 56029 92046 333 30/// 58008;","Q01+101253APOSLP"
"76373099999","2006-03-01T00:00:00","4","25.35","-105.75","1967.0","TEPEHUANES DGO., MX","FM-12","99999","V020","160,1,N,0060,1","22000,1,9,N","070000,1,N,1","+0258,1","-0066,1","10072,1","24,0000,9,1",,,,,"00,1,+99999,9,99,9",,,"00,99,1,00,1,00,1,99999,9,00,1,00,1",,"01,9",,"120,M,+0290,1","180,N,+0028,1","99999,9,08186,1","6,1,014,1,-003,1",,"SYN106AAXX  01001 76373 32988 01606 10258 21066 38186 40072 56014 92357 333 10290 20028 30/// 50430 59003 70000;","Q01  00002PRCP24"
"76373099999","2006-03-01T12:00:00","4","25.35","-105.75","1967.0","TEPEHUANES DGO., MX","FM-12","99999","V020","999,9,C,0000,1","22000,1,9,N","000100,1,N,1","+0026,1","-0050,1","10167,1","24,0000,9,1",,,,,"00,1,+99999,9,99,9",,,"00,99,1,00,1,00,1,99999,9,00,1,00,1",,"09,9","999,-0005,1","120,N,+0020,1","240,M,+0290,1","99999,9,08316,1","9,9,999,9,-009,1",,"SYN100AAXX  01121 76373 32901 00000 10026 21050 38316 40167 5//// 91150 333 10290 20020 31005 59009 70000;","Q01  00002PRCP24"
"76373099999","2006-03-01T15:00:00","4","25.35","-105.75","1967.0","TEPEHUANES DGO., MX","FM-12","99999","V020","999,9,C,0000,1","22000,1,9,N","070000,1,N,1","+0062,1","-0050,1","10212,1",,,,,,"00,1,+99999,9,99,9",,,"00,99,1,00,1,00,1,99999,9,00,1,00,1",,"01,9",,,,"99999,9,08226,1","2,1,010,1,-012,1",,"SYN082AAXX  01151 76373 32988 00000 10062 21050 38226 40212 52010 91450 333 30/// 59012;",
"76373099999","2006-03-01T18:00:00","4","25.35","-105.75","1967.0","TEPEHUANES DGO., MX","FM-12","99999","V020","090,1,N,0010,1","06000,1,9,N","070000,1,N,1","+9999,9","+0010,1","10188,1",,,,,,"06,1,+06000,1,02,1",,,"06,99,1,00,1,00,1,99999,9,00,1,08,1",,"01,9",,"120,M,+0238,1","240,N,+0010,1","99999,9,08218,1","7,1,008,1,-011,1",,"SYN112AAXX  01181 76373 32988 60901 10214 20010 38218 40188 57008 80008 91750 333 10238 20010 30/// 56006 59011 86270;","Q01+002143ATOT  "
"76373099999","2006-03-02T12:00:00","4","25.35","-105.75","1967.0","TEPEHUANES DGO., MX","FM-12","99999","V020","999,9,C,0000,1","22000,1,9,N","000100,1,N,1","+0058,1","+0002,1","10148,1","24,0000,9,1",,,,,"00,1,+99999,9,99,9",,,"00,99,1,00,1,00,1,99999,9,00,1,00,1",,"01,9","999,+0025,1","120,N,+0052,1","240,M,+0312,1","99999,9,08203,1","9,9,999,9,-013,1",,"SYN100AAXX  02121 76373 32901 00000 10058 20002 38203 40148 5//// 91150 333 10312 20052 30025 59013 70000;","Q01  00002PRCP24"
"76373099999","2006-03-02T15:00:00","4","25.35","-105.75","1967.0","TEPEHUANES DGO., MX","FM-12","99999","V020","320,1,N,0010,1","22000,1,9,N","070000,1,N,1","+0088,1","+0006,1","10167,1",,,,,,"00,1,+99999,9,99,9",,,"00,99,1,00,1,00,1,99999,9,00,1,00,1",,"01,9",,,,"99999,9,08212,1","2,1,009,1,-023,1",,"SYN082AAXX  02151 76373 32988 03201 10088 20006 38212 40167 52009 91450 333 30/// 59023;",
"76373099999","2006-03-02T18:00:00","4","25.35","-105.75","1967.0","TEPEHUANES DGO., MX","FM-12","99999","V020","140,1,N,0020,1","22000,1,9,N","070000,1,N,1","+0222,1","+0024,1","10139,1",,,,,,"00,1,+99999,9,99,9",,,"00,99,1,00,1,00,1,99999,9,00,1,00,1",,"01,9",,"120,M,+0242,1","240,N,+0038,1","99999,9,08195,1","7,1,017,1,-023,1",,"SYN094AAXX  02181 76373 32988 01402 10222 20024 38195 40139 57017 91746 333 10242 20038 30/// 59023;",
"76373099999","2006-03-02T21:00:00","4","25.35","-105.75","1967.0","TEPEHUANES DGO., MX","FM-12","99999","V020","240,1,N,0060,1","22000,1,9,N","070000,1,N,1","+0296,2","-0019,1","99999,9",,,,,,"02,1,+00300,1,08,1",,,"02,99,1,02,1,01,1,00450,1,00,1,00,1",,"01,9",,,,"99999,9,08169,1","6,1,026,1,-010,1",,"SYN100AAXX  02211 76373 32488 22406 10296 21019 38169 40076 56026 82100 92052 333 30/// 56600 59010 82810;","Q01+100763APOSLP"
"76373099999","2006-03-03T00:00:00","4","25.35","-105.75","1967.0","TEPEHUANES DGO., MX","FM-12","99999","V020","250,1,N,0070,1","22000,1,9,N","070000,1,N,1","+0268,1","+0014,1","10044,1","24,0000,9,1",,,,,"01,1,+00300,1,09,1",,,"02,99,1,01,1,03,1,00450,1,00,1,00,1",,"01,9",,"120,M,+0318,1","180,N,+0038,1","99999,9,08172,1","6,1,003,1,+006,1",,"SYN130AAXX  03001 76373 32488 22507 10268 20014 38172 40044 56003 81300 92350 333 10318 20038 30/// 50600 56600 58006 70000 81910 81810;",
"76373099999","2006-03-03T12:00:00","4","25.35","-105.75","1967.0","TEPEHUANES DGO., MX","FM-12","99999","V020","999,9,C,0000,1","22000,1,9,N","000100,1,N,1","+0046,1","+0007,1","10142,1","24,0000,9,1",,,,,"00,1,+99999,9,99,9",,,"00,99,1,00,1,00,1,99999,9,00,1,00,1",,"01,9","999,+0018,1","120,N,+0046,1","240,M,+0318,1","99999,9,08208,1","9,9,999,9,+005,1",,"SYN100AAXX  03121 76373 32901 00000 10046 20007 38208 40142 5//// 91150 333 10318 20046 30018 58005 70000;","Q01  00002PRCP24"
"76373099999","2006-03-03T15:00:00","4","25.35","-105.75","1967.0","TEPEHUANES DGO., MX","FM-12","99999","V020","999,9,C,0000,1","22000,1,9,N","070000,1,N,1","+0082,1","+0028,1","10186,1",,,,,,"02,1,+06000,1,00,1",,,"02,99,1,00,1,00,1,99999,9,00,1,05,1",,"01,9",,,,"99999,9,08219,1","2,1,011,1,+007,1",,"SYN100AAXX  03151 76373 32988 20000 10082 20028 38219 40186 52011 80005 91450 333 30/// 56006 58007 82070;",
"76373099999","2006-03-03T18:00:00","4","25.35","-105.75","1967.0","TEPEHUANES DGO., MX","FM-12","99999","V020","070,1,N,0020,1","06000,1,9,N","070000,1,N,1","+9999,9","+0032,1","10165,1",,,,,,"05,1,+06000,1,00,1",,,"05,99,1,00,1,00,1,99999,9,00,1,04,1",,"01,9",,"120,M,+0232,1","240,N,+0026,1","99999,9,08210,1","7,1,009,1,+015,1",,"SYN112AAXX  03181 76373 32988 50702 10214 20032 38210 40165 57009 80004 91749 333 10232 20026 30/// 56006 58015 85070;","Q01+002143ATOT  "
"76373099999","2006-03-04T15:00:00","4","25.35","-105.75","1967.0","TEPEHUANES DGO., MX","FM-12","99999","V020","150,1,N,0010,1","06000,1,9,N","070000,1,N,1","+0096,1","-0005,1","10174,1",,,,,,"07,1,+06000,1,02,1",,,"07,99,1,00,1,00,1,99999,9,00,1,08,1",,"01,9",,,,"99999,9,08219,1","2,1,021,1,+000,1",,"SYN100AAXX  04151 76373 32988 71501 10096 21005 38219 40174 52021 80008 91446 333 30/// 56006 58000 87270;",
"76373099999","2006-03-04T18:00:00","4","25.35","-105.75","1967.0","TEPEHUANES DGO., MX","FM-12","99999","V020","090,1,N,0020,1","06000,1,9,N","060000,1,N,1","+9999,9","-0001,1","10162,1",,,,,,"06,1,+06000,1,02,1",,,"06,99,1,00,1,00,1,99999,9,00,1,08,1",,"01,9",,"120,M,+0248,1","240,N,+0050,1","99999,9,08215,1","7,1,004,1,+005,1",,"SYN112AAXX  04181 76373 32986 60902 10228 21001 38215 40162 57004 80008 91747 333 10248 20050 30/// 56006 58005 86270;","Q01+002283ATOT  "
"76373099999","2006-03-05T12:00:00","4","25.35","-105.75","1967.0","TEPEHUANES DGO., MX","FM-12","99999","V020","999,9,C,0000,1","22000,1,9,N","000100,1,N,1","+0040,1","-0003,1","10193,1","24,0000,9,1",,,,,"00,1,+99999,9,99,9",,,"00,99,1,00,1,00,1,99999,9,00,1,00,1",,"01,9","999,+0008,1","120,N,+0036,1","240,M,+0290,1","99999,9,08241,1",,,"SYN100AAXX  05121 76373 32901 00000 10040 21003 38241 40193 5//// 91150 333 10290 20036 30008 58/// 70000;","Q01  00002PRCP24"
"76373099999","2006-03-05T18:00:00","4","25.35","-105.75","1967.0","TEPEHUANES DGO., MX","FM-12","99999","V020","080,1,N,0010,1","22000,1,9,N","070000,1,N,1","+0200,1","+0046,1","10221,1",,,,,,"00,1,+99999,9,99,9",,,"00,99,1,00,1,00,1,99999,9,00,1,00,1",,"01,9",,"120,M,+0220,1","240,N,+0020,1","99999,9,08247,1","8,1,008,1,+032,1",,"SYN094AAXX  05181 76373 32988 00801 10200 20046 38247 40221 58008 91750 333 10220 20020 30/// 58032;",
"76373099999","2006-03-06T12:00:00","4","25.35","-105.75","1967.0","TEPEHUANES DGO., MX","FM-12","99999","V020","999,9,C,0000,1","22000,1,9,N","000100,1,N,1","+0048,1","-0022,1","10184,1","24,0000,9,1",,,,,"00,1,+99999,9,99,9",,,"00,99,1,00,1,00,1,99999,9,00,1,00,1",,"01,9","999,+0050,1","120,N,+0046,1","240,M,+0310,1","99999,9,08242,1","9,9,999,9,+001,1",,"SYN100AAXX  06121 76373 32901 00000 10048 21022 38242 40184 5//// 91150 333 10310 20046 30050 58001 70000;","Q01  00002PRCP24"
"76373099999","2006-03-06T15:00:00","4","25.35","-105.75","1967.0","TEPEHUANES DGO., MX","FM-12","99999","V020","999,9,C,0000,1","22000,1,9,N","070000,1,N,1","+0090,1","-0013,1","10231,1",,,,,,"01,1,+06000,1,00,1",,,"01,99,1,00,1,00,1,99999,9,00,1,02,1",,"01,9",,,,"99999,9,08255,1","2,1,013,1,+000,1",,"SYN100AAXX  06151 76373 32988 10000 10090 21013 38255 40231 52013 80002 91450 333 30/// 56006 58000 81070;",
"76373099999","2006-03-06T18:00:00","4","25.35","-105.75","1967.0","TEPEHUANES DGO., MX","FM-12","99999","V020","120,1,N,0010,1","22000,1,9,N","070000,1,N,1","+0226,1","-0025,1","10212,1",,,,,,"00,1,+99999,9,99,9",,,"00,99,1,00,1,00,1,99999,9,00,1,00,1",,"01,9",,"120,M,+0248,1","240,N,+0032,1","99999,9,08249,1","7,1,006,1,+002,1",,"SYN094AAXX  06181 76373 32988 01201 10226 21025 38249 40212 57006 91745 333 10248 20032 30/// 58002;",
"76373099999","2006-03-06T21:00:00","4","25.35","-105.75","1967.0","TEPEHUANES DGO., MX","FM-12","99999","V020","250,1,N,0060,1","22000,1,9,N","070000,1,N,1","+0298,2","-0096,1","99999,9",,,,,,"01,1,+00300,1,08,1",,,"01,99,1,01,1,01,1,00450,1,00,1,00,1",,"01,9",,,,"99999,9,08214,1","6,1,035,1,+999,9",,"SYN100AAXX  06211 76373 32488 12506 10298 21096 38214 40130 56035 81100 92045 333 30/// 56600 58/// 81810;","Q01+101303APOSLP"
"76373099999","2006-03-07T00:00:00","4","25.35","-105.75","1967.0","TEPEHUANES DGO., MX","FM-12","99999","V020","230,1,N,0050,1","22000,1,9,N","070000,1,N,1","+0276,1","-0015,1","10090,2","24,0000,9,1",,,,,,,,"01,99,1,01,1,01,1,00450,1,00,1,00,1",,"01,9",,"120,M,+0322,1","180,N,+0032,1","99999,9,08214,1","4,1,000,1,+012,1",,"SYN124AAXX  07001 76373 32488 12305 10276 21015 38214 40090 54000 81100 92345 333 10322 20032 30/// 50610 56600 58012 70000 81810;",
"76373099999","2006-03-07T12:00:00","4","25.35","-105.75","1967.0","TEPEHUANES DGO., MX","FM-12","99999","V020","999,9,C,0000,1","22000,1,9,N","000100,1,N,1","+0038,1","-0029,1","10174,1","24,0000,9,1",,,,,"00,1,+99999,9,99,9",,,"00,99,1,00,1,00,1,99999,9,00,1,00,1",,"01,9","999,+0000,1","120,N,+0036,1","240,M,+0322,1","99999,9,08231,1","9,9,999,9,-011,1",,"SYN100AAXX  07121 76373 32901 00000 10038 21029 38231 40174 5//// 91150 333 10322 20036 30000 59011 70000;","Q01  00002PRCP24"
"76373099999","2006-03-07T15:00:00","4","25.35","-105.75","1967.0","TEPEHUANES DGO., MX","FM-12","99999","V020","030,1,N,0010,1","22000,1,9,N","070000,1,N,1","+0072,1","-0030,1","10216,1",,,,,,"01,1,+03000,1,03,1",,,"02,99,1,01,1,00,1,01250,1,04,1,01,1",,"01,9",,,,"99999,9,08238,1","1,1,007,1,-017,1",,"SYN106AAXX  07151 76373 32688 20301 10072 21030 38238 40216 51007 81041 91450 333 30/// 56066 59017 81360 81070;",
"76373099999","2006-03-07T21:00:00","4","25.35","-105.75","1967.0","TEPEHUANES DGO., MX","FM-12","99999","V020","210,1,N,0070,1","06000,1,9,N","070000,1,N,1","+9999,9","-0034,1","99999,9",,,,,,"08,1,+06000,1,02,1",,,"08,99,1,00,1,00,1,99999,9,00,1,07,1",,"01,9",,,,"99999,9,08187,1","6,1,040,1,-027,1",,"SYN106AAXX  07211 76373 32988 82107 10296 21034 38187 40104 56040 80007 92045 333 30/// 56006 59027 88270 99020;","Q01+002963ATOT  "
"76373099999","2006-03-08T12:00:00","4","25.35","-105.75","1967.0","TEPEHUANES DGO., MX","FM-12","99999","V020","999,9,C,0000,1","22000,1,9,N","000100,1,N,1","+0038,1","-0029,1","10132,1","24,0000,9,1",,,,,"00,1,+99999,9,99,9",,,"00,99,1,00,1,00,1,99999,9,00,1,00,1",,"09,9","999,-0006,1","120,N,+0024,1","240,M,+0332,1","99999,9,08196,1","9,9,999,9,-035,1",,"SYN100AAXX  08121 76373 32901 00000 10038 21029 38196 40132 5//// 91150 333 10332 20024 31006 59035 70000;","Q01  00002PRCP24"
"76373099999","2006-03-08T18:00:00","4","25.35","-105.75","1967.0","TEPEHUANES DGO., MX","FM-12","99999","V020","300,1,N,0080,1","22000,1,C,N","070000,1,N,1","+0224,1","+0037,1","10139,1",,,,,,"01,1,+03000,1,03,1",,,"05,99,1,01,1,00,1,01250,1,03,1,04,1",,"01,9",,"120,M,+0240,1","240,N,+0016,1","99999,9,08183,1","6,1,010,1,-044,1",,"SYN118AAXX  08181 76373 32688 53008 10224 20037 38183 40139 56010 81034 91750 333 10240 20016 30/// 56066 59044 81360 84070;",
"76373099999","2006-03-08T21:00:00","4","25.35","-105.75","1967.0","TEPEHUANES DGO., MX","FM-12","99999","V020","290,1,N,0090,1","03600,1,C,N","070000,1,N,1","+0244,1","+0031,1","10081,1",,,,,,"01,1,+00300,1,08,1","02,1,+03000,1,03,1",,"07,99,1,01,1,01,1,00450,1,03,1,04,1",,"01,9",,,,"99999,9,08164,1","7,1,019,1,-023,1",,"SYN112AAXX  08211 76373 32488 72909 10244 20031 38164 40081 57019 81134 92046 333 30/// 56666 59023 81810 82360 84070;",
"76373099999","2006-03-09T12:00:00","4","25.35","-105.75","1967.0","TEPEHUANES DGO., MX","FM-12","99999","V020","999,9,C,0000,1","22000,1,9,N","000100,1,N,1","+0110,1","-0006,1","10065,1","24,0000,9,1",,,,,"01,1,+03000,1,03,1",,,"04,99,1,01,1,00,1,01250,1,04,1,02,1",,"01,9","999,+0055,1","120,N,+0105,1","240,M,+0270,1","99999,9,08153,1","9,9,999,9,-043,1",,"SYN124AAXX  09121 76373 32601 40000 10110 21006 38153 40065 5//// 81042 91150 333 10270 20105 30055 56066 59043 70000 81360 83070;",
"76373099999","2006-03-09T15:00:00","4","25.35","-105.75","1967.0","TEPEHUANES DGO., MX","FM-12","99999","V020","999,9,C,0000,1","22000,1,9,N","070000,1,N,1","+0132,1","-0001,1","10081,1",,,,,,"01,1,+03000,1,03,1","01,1,+09000,1,04,1",,"03,99,1,01,1,01,1,00450,1,04,1,02,1",,"01,9",,,,"99999,9,08159,1","3,1,006,1,-034,1",,"SYN112AAXX  09151 76373 32488 30000 10132 21001 38159 40081 53006 81142 91450 333 30/// 56666 59034 81480 81360 81070;",
"76373099999","2006-03-09T18:00:00","4","25.35","-105.75","1967.0","TEPEHUANES DGO., MX","FM-12","99999","V020","270,1,N,0040,1","06000,1,9,N","070000,1,N,1","+0212,1","-0045,1","10062,1",,,,,,"08,1,+06000,1,02,1",,,"08,99,1,00,1,00,1,99999,9,00,1,07,1",,"01,9",,"120,M,+0232,1","240,N,+0088,1","99999,9,08154,1","7,1,005,1,-029,1",,"SYN118AAXX  09181 76373 32988 82704 10212 21045 38154 40062 57005 80007 91746 333 10232 20088 30/// 56006 59029 88270 99020;",
"76373099999","2006-03-10T12:00:00","4","25.35","-105.75","1967.0","TEPEHUANES DGO., MX","FM-12","99999","V020","290,1,N,0020,1","22000,1,9,N","000100,1,N,1","+0038,1","-0021,1","10158,1","24,0000,9,1",,,,,"02,1,+03000,1,03,1",,,"02,99,1,02,1,00,1,99999,9,04,1,00,1",,"01,9","999,+0005,1","120,N,+0032,1","240,M,+0235,1","99999,9,08204,1","9,9,999,9,+051,1",,"SYN118AAXX  10121 76373 32901 22902 10038 21021 38204 40158 5//// 82040 91150 333 10235 20032 30005 56060 58051 70000 82360;",
"76373099999","2006-03-10T15:00:00","4","25.35","-105.75","1967.0","TEPEHUANES DGO., MX","FM-12","99999","V020","999,9,C,0000,1","22000,1,9,N","070000,1,N,1","+0092,1","-0005,1","99999,9",,,,,,"02,1,+06000,1,00,1",,,"02,99,1,00,1,00,1,99999,9,00,1,02,1",,"01,9",,,,"99999,9,08211,1","2,1,007,1,-052,1",,"SYN100AAXX  10151 76373 32488 20000 10092 21005 38211 40084 52007 80002 91450 333 30/// 56006 59052 82070;","Q01+004502SCOLCB"
"76373099999","2006-03-10T18:00:00","4","25.35","-105.75","1967.0","TEPEHUANES DGO., MX","FM-12","99999","V020","210,1,N,0060,1","22000,1,9,N","070000,1,N,1","+0194,1","-0060,1","10088,1",,,,,,"01,1,+06000,1,00,1",,,"01,99,1,00,1,00,1,99999,9,00,1,05,1",,"01,9",,"120,M,+0218,1","240,N,+0018,1",,"7,1,012,1,-007,1",,"SYN112AAXX  10181 76373 32988 12106 10194 21060 38147 40088 57012 80005 91749 333 10218 20018 30/// 56006 59007 81070;","Q01+081473APOSP "
"76373099999","2006-03-11T00:00:00","4","25.35","-105.75","1967.0","TEPEHUANES DGO., MX","FM-12","99999","V020","250,1,N,0030,1","22000,1,9,N","070000,1,N,1","+0192,1","-0011,1","10025,1","24,0000,9,1",,,,,"00,1,+99999,9,99,9",,,"00,99,1,00,1,00,1,99999,9,00,1,00,1",,"01,9",,"120,M,+0232,1","180,N,+0018,1","99999,9,08138,1","7,1,001,1,-001,1",,"SYN106AAXX  11001 76373 32988 02503 10192 21011 38138 40025 57001 92345 333 10232 20018 30/// 50460 59001 70000;","Q01  00002PRCP24"
"76373099999","2006-03-11T15:00:00","4","25.35","-105.75","1967.0","TEPEHUANES DGO., MX","FM-12","99999","V020","999,9,C,0000,1","22000,1,9,N","070000,1,N,1","+0074,1","-0022,1","10148,1",,,,,,"00,1,+99999,9,99,9",,,"00,99,1,00,1,00,1,99999,9,00,1,00,1",,"01,9",,,,"99999,9,08174,1","9,9,999,9,+015,1",,"SYN082AAXX  11151 76373 32988 00000 10074 21022 38174 40148 5//// 91445 333 30/// 58015;",
"76373099999","2006-03-11T18:00:00","4","25.35","-105.75","1967.0","TEPEHUANES DGO., MX","FM-12","99999","V020","190,1,N,0040,1","22000,1,9,N","070000,1,N,1","+9999,9","+0054,1","10127,1",,,,,,"00,1,+99999,9,99,9",,,"00,99,1,00,1,00,1,99999,9,00,1,00,1",,"01,9",,"120,M,+0230,1","240,N,+0010,1","99999,9,08170,1","6,1,004,1,+023,1",,"SYN094AAXX  11181 76373 32988 01904 10212 20054 38170 40127 56004 91749 333 10230 20010 30/// 58023;","Q01+002123ATOT  "
"76373099999","2006-03-12T12:00:00","4","25.35","-105.75","1967.0","TEPEHUANES DGO., MX","FM-12","99999","V020","999,9,C,0000,1","22000,1,9,N","000100,1,N,1","+0020,1","-0005,1","10153,1","24,0000,9,1",,,,,"02,1,+03000,1,03,1",,,"02,99,1,02,1,00,1,01250,1,04,1,00,1",,"09,9","999,-0012,1","120,N,+0014,1","240,M,+0280,1","99999,9,08195,1",,,"SYN118AAXX  12121 76373 32601 20000 10020 21005 38195 40153 5//// 82040 91150 333 10280 20014 31012 56060 58/// 70000 82360;",
"76373099999","2006-03-12T15:00:00","4","25.35","-105.75","1967.0","TEPEHUANES DGO., MX","FM-12","99999","V020","030,1,N,0010,1","22000,1,9,N","070000,1,N,1","+0070,1","+0010,1","10186,1",,,,,,"04,1,+06000,1,00,1",,,"04,99,1,00,1,00,1,99999,9,00,1,04,1",,"01,9",,,,"99999,9,08204,1","2,1,009,1,+021,1",,"SYN100AAXX  12151 76373 32988 40301 10070 20010 38204 40186 52009 80004 91450 333 30/// 56006 58021 84070;",
"76373099999","2006-03-13T12:00:00","4","25.35","-105.75","1967.0","TEPEHUANES DGO., MX","FM-12","99999","V020","999,9,C,0000,1","06000,1,9,N","000200,1,N,1","+0010,1","-0033,1","10158,1","24,0000,9,1",,,,,"06,1,+06000,1,02,1",,,"06,99,1,00,1,00,1,99999,9,00,1,08,1",,"09,9","999,-0020,1","120,N,+0005,1","240,M,+0276,1","99999,9,08199,1","9,9,999,9,+004,1",,"SYN118AAXX  13121 76373 32902 60000 10010 21033 38199 40158 5//// 80008 91150 333 10276 20005 31020 56006 58004 70000 86270;",
"76373099999","2006-03-13T15:00:00","4","25.35","-105.75","1967.0","TEPEHUANES DGO., MX","FM-12","99999","V020","310,1,N,0010,1","99999,9,9,N","070000,1,N,1","+0054,1","-0032,1","10198,1",,,,,,"04,1,+03000,1,03,1",,,"07,99,1,04,1,00,1,99999,9,07,1,02,1",,"01,9",,,,"99999,9,08207,1","3,1,006,1,+001,1",,"SYN106AAXX  13151 76373 32988 73101 10054 21032 38207 40198 53006 84072 91450 333 30/// 56066 58001 84360 83070;",
"76373099999","2006-03-13T18:00:00","4","25.35","-105.75","1967.0","TEPEHUANES DGO., MX","FM-12","99999","V020","090,1,N,0010,1","06000,1,9,N","070000,1,N,1","+0178,1","+0056,1","10186,1",,,,,,"08,1,+06000,1,02,1",,,"08,99,1,00,1,00,1,99999,9,00,1,08,1",,"01,9",,"120,M,+0216,1","240,N,-0002,1","99999,9,08204,1","7,1,003,1,+014,1",,"SYN112AAXX  13181 76373 32988 80901 10178 20056 38204 40186 57003 80008 91748 333 10216 21002 30/// 56006 58014 88270;",
"76373099999","2006-03-13T21:00:00","4","25.35","-105.75","1967.0","TEPEHUANES DGO., MX","FM-12","99999","V020","300,1,N,0080,1","06000,1,9,N","070000,1,N,1","+0260,2","+9999,9","99999,9",,,,,,"08,1,+06000,1,02,1",,,"08,99,1,00,1,00,1,99999,9,00,1,07,1",,"01,9",,,,"99999,9,08166,1","6,1,038,1,+999,9",,"SYN106AAXX  13211 76373 32988 83008 10260 21061 38166 40102 56038 80007 92045 333 30/// 56006 58/// 88270 99020;","Q01-000613ATOD  "
"76373099999","2006-03-14T00:00:00","4","25.35","-105.75","1967.0","TEPEHUANES DGO., MX","FM-12","99999","V020","300,1,N,0060,1","99999,9,9,N","070000,1,N,1","+0254,1","-0028,1","10051,2","24,0000,9,1",,,,,,,,"08,99,1,00,1,00,1,99999,9,00,1,08,1",,"01,9",,"120,M,+0288,1","180,N,-0002,1","99999,9,08162,1","6,1,004,1,+999,9",,"SYN124AAXX  14001 76373 32988 83006 10254 21028 38162 40051 56004 80008 92345 333 10288 21002 30/// 50580 56006 58/// 70000 88270;",
"76373099999","2006-03-14T12:00:00","4","25.35","-105.75","1967.0","TEPEHUANES DGO., MX","FM-12","99999","V020","999,9,C,0000,1","06000,1,9,N","000200,1,N,1","+0020,1","-0057,1","10141,1","24,0000,9,1",,,,,"06,1,+06000,1,02,1",,,"06,99,1,00,1,00,1,99999,9,00,1,08,1",,"09,9","999,-0014,1","120,N,+0014,1","240,M,+0288,1","99999,9,08194,1","9,9,999,9,-005,1",,"SYN118AAXX  14121 76373 32902 60000 10020 21057 38194 40141 5//// 80008 91150 333 10288 20014 31014 56006 59005 70000 86270;",
"76373099999","2006-03-14T15:00:00","4","25.35","-105.75","1967.0","TEPEHUANES DGO., MX","FM-12","99999","V020","999,9,C,0000,1","06000,1,9,N","070000,1,N,1","+0050,1","-0041,1","10195,1",,,,,,"05,1,+06000,1,02,1",,,"05,99,1,00,1,00,1,99999,9,00,1,08,1",,"01,9",,,,"99999,9,08210,1","2,1,016,1,+003,1",,"SYN100AAXX  14151 76373 32988 50000 10050 21041 38210 40195 52016 80008 91450 333 30/// 56006 58003 85270;",
"76373099999","2006-03-14T18:00:00","4","25.35","-105.75","1967.0","TEPEHUANES DGO., MX","FM-12","99999","V020","120,1,N,0010,1","06000,1,9,N","070000,1,N,1","+9999,9","-0015,1","10172,1",,,,,,"07,1,+06000,1,02,1",,,"07,99,1,00,1,00,1,99999,9,00,1,08,1",,"01,9",,"120,M,+0228,1","240,N,+0004,1","99999,9,08200,1","7,1,010,1,-004,1",,"SYN112AAXX  14181 76373 32988 71201 10204 21015 38200 40172 57010 80008 91755 333 10228 20004 30/// 56006 59004 87270;","Q01+002043ATOT  "
"76373099999","2006-03-15T12:00:00","4","25.35","-105.75","1967.0","TEPEHUANES DGO., MX","FM-12","99999","V020","999,9,C,0000,1","09000,1,C,N","000200,1,N,1","+0038,1","-0053,1","10134,1","24,0000,9,1",,,,,"03,1,+03000,1,03,1",,,"05,99,1,03,1,00,1,01250,1,03,1,05,1",,"01,9","999,+0002,1","120,N,+0032,1","240,M,+0332,1","99999,9,08203,1","9,9,999,9,+012,1",,"SYN124AAXX  15121 76373 32602 50000 10038 21053 38203 40134 5//// 83035 91150 333 10332 20032 30002 56066 58012 70000 83360 82070;",
"76373099999","2006-03-15T15:00:00","4","25.35","-105.75","1967.0","TEPEHUANES DGO., MX","FM-12","99999","V020","999,9,C,0000,1","06000,1,9,N","070000,1,N,1","+0100,1","-0041,1","10186,1",,,,,,"08,1,+06000,1,02,1",,,"08,99,1,00,1,00,1,99999,9,00,1,08,1",,"01,9",,,,"99999,9,08218,1","2,1,015,1,+008,1",,"SYN100AAXX  15151 76373 32988 80000 10100 21041 38218 40186 52015 80008 91450 333 30/// 56006 58008 88270;",
"76373099999","2006-03-15T18:00:00","4","25.35","-105.75","1967.0","TEPEHUANES DGO., MX","FM-12","99999","V020","999,9,C,0000,1","06000,1,9,N","070000,1,N,1","+0238,1","-0019,1","10167,1",,,,,,"08,1,+06000,1,02,1",,,"08,99,1,00,1,00,1,99999,9,00,1,07,1",,"01,9",,"120,M,+0260,1","240,N,+0028,1","99999,9,08208,1","7,1,010,1,+008,1",,"SYN118AAXX  15181 76373 32988 80000 10238 21019 38208 40167 57010 80007 91746 333 10260 20028 30/// 56006 58008 88270 99020;",
"76373099999","2006-03-15T21:00:00","4","25.35","-105.75","1967.0","TEPEHUANES DGO., MX","FM-12","99999","V020","240,1,N,0060,1","06000,1,9,N","070000,1,N,1","+0274,2","-0027,1","10111,1",,,,,,"08,1,+06000,1,02,1",,,"08,99,1,00,1,00,1,99999,9,00,1,07,1",,"01,9",,,,"99999,9,08192,1","6,1,016,1,+024,1",,"SYN106AAXX  15211 76373 32988 82406 10274 21027 38192 40111 56016 80007 92045 333 30/// 56006 58024 88270 99020;",
"76373099999","2006-03-16T12:00:00","4","25.35","-105.75","1967.0","TEPEHUANES DGO., MX","FM-12","99999","V020","999,9,C,0000,1","06000,1,9,N","000200,1,N,1","+0068,1","+0005,1","10160,1","24,0000,9,1",,,,,"08,1,+06000,1,02,1",,,"08,99,1,00,1,00,1,99999,9,00,1,07,1",,"01,9","999,+0044,1","120,N,+0062,1","240,M,+0312,1","99999,9,08228,1","9,9,999,9,+025,1",,"SYN118AAXX  16121 76373 32902 80000 10068 20005 38228 40160 5//// 80007 91150 333 10312 20062 30044 56006 58025 70000 88270;",
"76373099999","2006-03-16T15:00:00","4","25.35","-105.75","1967.0","TEPEHUANES DGO., MX","FM-12","99999","V020","999,9,C,0000,1","06000,1,9,N","070000,1,N,1","+0096,1","+0011,1","10193,1",,,,,,"08,1,+06000,1,02,1",,,"08,99,1,00,1,00,1,99999,9,00,1,08,1",,"01,9",,,,"99999,9,08237,1","2,1,009,1,+019,1",,"SYN100AAXX  16151 76373 32988 80000 10096 20011 38237 40193 52009 80008 91450 333 30/// 56006 58019 88270;",
"76373099999","2006-03-16T18:00:00","4","25.35","-105.75","1967.0","TEPEHUANES DGO., MX","FM-12","99999","V020","060,1,N,0010,1","09000,1,C,N","070000,1,N,1","+0212,1","+0053,1","10181,1",,,,,,"04,1,+03000,1,03,1",,,"08,99,1,04,1,00,1,01250,1,03,1,08,1",,"01,9",,"120,M,+0228,1","240,N,+0054,1","99999,9,08233,1","6,1,004,1,+025,1",,"SYN118AAXX  16181 76373 32688 80601 10212 20053 38233 40181 56004 84038 91745 333 10228 20054 30/// 56066 58025 84360 86270;",
"76373099999","2006-03-16T21:00:00","4","25.35","-105.75","1967.0","TEPEHUANES DGO., MX","FM-12","99999","V020","060,1,N,0010,1","03600,1,C,N","070000,1,N,1","+0256,1","+0031,1","99999,9",,,,,,"01,1,+00300,1,08,1","02,1,+03000,1,03,1",,"08,99,1,01,1,01,1,00450,1,03,1,08,1",,"01,9",,,,"99999,9,08204,1","7,1,029,1,-004,1",,"SYN112AAXX  16211 76373 32488 80601 10256 20031 38204 40118 57029 81138 92045 333 30/// 56666 59004 81810 82360 86270;","Q01+101183APOSLP"
"76373099999","2006-03-17T12:00:00","4","25.35","-105.75","1967.0","TEPEHUANES DGO., MX","FM-12","99999","V020","260,1,N,0010,1","22000,1,9,N","000100,1,N,1","+0058,1","+0017,1","10153,1","24,0000,9,1",,,,,"00,1,+99999,9,99,9",,,"00,99,1,00,1,00,1,99999,9,00,1,00,1",,"01,9","999,+0022,1","120,N,+0050,1","240,M,+0290,1","99999,9,08216,1","9,9,999,9,-012,1",,"SYN100AAXX  17121 76373 32901 02601 10058 20017 38216 40153 5//// 91150 333 10290 20050 30022 59012 70000;","Q01  00002PRCP24"
"76373099999","2006-03-17T18:00:00","4","25.35","-105.75","1967.0","TEPEHUANES DGO., MX","FM-12","99999","V020","120,1,N,0020,1","22000,1,9,N","070000,1,N,1","+9999,9","-0004,1","10162,1",,,,,,"01,1,+03000,1,03,1",,,"02,99,1,01,1,00,1,01250,1,03,1,02,1",,"01,9",,"120,M,+0255,1","240,N,+0032,1","99999,9,08211,1","7,1,014,1,-022,1",,"SYN118AAXX  17181 76373 32688 21202 10230 21004 38211 40162 57014 81032 91749 333 10255 20032 30/// 56066 59022 81360 81070;","Q01+002303ATOT  "
"76373099999","2006-03-18T00:00:00","4","25.35","-105.75","1967.0","TEPEHUANES DGO., MX","FM-12","99999","V020","210,1,N,0060,1","22000,1,9,N","070000,1,N,1","+0262,1","+0002,1","10048,1","24,0000,9,1",,,,,"01,1,+03000,1,03,1",,,"02,99,1,01,1,00,1,01250,1,03,1,02,1",,"01,9",,"120,M,+0318,1","180,N,+0032,1","99999,9,08178,1","6,1,002,1,-012,1",,"SYN130AAXX  18001 76373 32688 22106 10262 20002 38178 40048 56002 81032 92345 333 10318 20032 30/// 50450 56066 59012 70000 81360 81070;",
"76373099999","2006-03-18T15:00:00","4","25.35","-105.75","1967.0","TEPEHUANES DGO., MX","FM-12","99999","V020","999,9,C,0000,1","22000,1,9,N","070000,1,N,1","+0106,1","+0019,1","10139,1",,,,,,"01,1,+03000,1,03,1",,,"02,99,1,01,1,00,1,01250,1,03,1,02,1",,"01,9",,,,"99999,9,08190,1","2,1,010,1,-035,1",,"SYN106AAXX  18151 76373 32688 20000 10106 20019 38190 40139 52010 81032 91447 333 30/// 56066 59035 81360 81070;",
"76373099999","2006-03-18T18:00:00","4","25.35","-105.75","1967.0","TEPEHUANES DGO., MX","FM-12","99999","V020","200,1,N,0060,1","22000,1,9,N","070000,1,N,1","+9999,9","+0012,1","10120,1",,,,,,"01,1,+03000,1,03,1",,,"02,99,1,01,1,00,1,01250,1,04,1,02,1",,"01,9",,"120,M,+0256,1","240,N,+0038,1","99999,9,08180,1","7,1,010,1,-031,1",,"SYN118AAXX  18181 76373 32688 22006 10242 20012 38180 40120 57010 81042 91750 333 10256 20038 30/// 56066 59031 81360 81070;","Q01+002423ATOT  "
"76373099999","2006-03-19T12:00:00","4","25.35","-105.75","1967.0","TEPEHUANES DGO., MX","FM-12","99999","V020","999,9,C,0000,1","22000,1,9,N","000100,1,N,1","+0078,1","+0021,1","10072,1","24,0000,9,1",,,,,"00,1,+99999,9,99,9",,,"00,99,1,00,1,00,1,99999,9,00,1,00,1",,"01,9","999,+0036,1","120,N,+0068,1","240,M,+0270,1","99999,9,08143,1","9,9,999,9,-037,1",,"SYN100AAXX  19121 76373 32901 00000 10078 20021 38143 40072 5//// 91150 333 10270 20068 30036 59037 70000;","Q01  00002PRCP24"
"76373099999","2006-03-19T15:00:00","4","25.35","-105.75","1967.0","TEPEHUANES DGO., MX","FM-12","99999","V020","220,1,N,0070,1","22000,1,9,N","070000,1,N,1","+0152,1","+0034,1","10086,1",,,,,,"01,1,+00360,1,08,1",,,"02,99,1,01,1,01,1,00450,1,04,1,00,1",,"01,9",,,,"99999,9,08148,1","3,1,008,1,-042,1",,"SYN106AAXX  19151 76373 32488 22207 10152 20034 38148 40086 53008 81140 91450 333 30/// 56660 59042 81812 81350;",
"76373099999","2006-03-19T18:00:00","4","25.35","-105.75","1967.0","TEPEHUANES DGO., MX","FM-12","99999","V020","240,1,N,0100,1","03000,1,9,N","070000,1,N,1","+0206,1","+0045,1","10062,1",,,,,,"03,1,+00360,1,08,1","02,1,+03000,1,03,1",,"06,99,1,03,1,02,1,00450,1,04,1,02,1",,"01,9",,"120,M,+0224,1","240,N,+0065,1","99999,9,08140,1","6,1,008,1,-040,1",,"SYN124AAXX  19181 76373 32488 62410 10206 20045 38140 40062 56008 83242 91750 333 10224 20065 30/// 56555 59040 83812 82360 81070;",
"76373099999","2006-03-20T12:00:00","4","25.35","-105.75","1967.0","TEPEHUANES DGO., MX","FM-12","99999","V020","270,1,N,0030,1","22000,1,9,N","000100,1,N,1","+0070,1","+0004,1","10081,1","18,0050,9,1","24,0051,9,1",,,,"00,1,+99999,9,99,9",,,"00,99,1,00,1,00,1,99999,9,00,1,00,1",,"01,9","999,+0036,1","120,N,+0064,1","240,M,+0224,1","99999,9,08148,1","9,9,999,9,+005,1",,"SYN112AAXX  20121 76373 02901 02703 10070 20004 38148 40081 5//// 60053 91150 333 10224 20064 30036 58005 60053 70051;",
"76373099999","2006-03-20T15:00:00","4","25.35","-105.75","1967.0","TEPEHUANES DGO., MX","FM-12","99999","V020","250,1,N,0070,1","22000,1,9,N","070000,1,N,1","+0136,1","-0004,1","10076,1",,,,,,"00,1,+99999,9,99,9",,,"00,99,1,00,1,00,1,99999,9,00,1,00,1",,"09,9",,,,"99999,9,08140,1","8,1,008,1,-008,1",,"SYN082AAXX  20151 76373 32988 02507 10136 21004 38140 40076 58008 91450 333 31/// 59008;",
"76373099999","2006-03-20T18:00:00","4","25.35","-105.75","1967.0","TEPEHUANES DGO., MX","FM-12","99999","V020","250,1,N,0080,1","22000,1,9,N","070000,1,N,1","+0184,1","-0003,1","10066,1",,,,,,"01,1,+06000,1,00,1",,,"01,99,1,00,1,00,1,99999,9,00,1,05,1",,"01,9",,"120,M,+0200,1","240,N,+0056,1","99999,9,08149,1","2,1,009,1,+009,1",,"SYN112AAXX  20181 76373 32988 12508 10184 21003 38149 40066 52009 80005 91750 333 10200 20056 30/// 56006 58009 81070;",
"76373099999","2006-03-21T00:00:00","4","25.35","-105.75","1967.0","TEPEHUANES DGO., MX","FM-12","99999","V020","240,1,N,0060,1","22000,1,9,N","070000,1,N,1","+0194,1","+0020,1","10025,1","24,0000,9,1",,,,,,,,"01,99,1,00,1,00,1,99999,9,00,1,05,1",,"01,9",,"120,M,+0234,1","180,N,+0056,1","99999,9,08143,1","2,1,003,1,-009,1",,"SYN124AAXX  21001 76373 32988 12406 10194 20020 38143 40025 52003 80005 92350 333 10234 20056 30/// 50520 56006 59009 70000 81070;",
"76373099999","2006-03-21T12:00:00","4","25.35","-105.75","1967.0","TEPEHUANES DGO., MX","FM-12","99999","V020","300,1,N,0010,1","22000,1,9,N","000100,1,N,1","+0018,1","+0008,1","10141,1","24,0000,9,1",,,,,"00,1,+99999,9,99,9",,,"00,99,1,00,1,00,1,99999,9,00,1,00,1",,"09,9","999,-0012,1","120,N,+0008,1","240,M,+0234,1","99999,9,99999,9","9,9,999,9,+033,1",,"SYN100AAXX  21121 76373 32901 03001 10018 20008 37181 40141 5//// 91150 333 10234 20008 31012 58033 70000;","Q01  00002PRCP24Q02 071813APOSP "
"76373099999","2006-03-21T15:00:00","4","25.35","-105.75","1967.0","TEPEHUANES DGO., MX","FM-12","99999","V020","310,1,N,0020,1","22000,1,9,N","070000,1,N,1","+0052,1","+0011,1","10181,1",,,,,,"00,1,+99999,9,99,9",,,"00,99,1,00,1,00,1,99999,9,00,1,00,1",,"01,9",,,,,"2,1,012,1,+053,1",,"SYN082AAXX  21151 76373 32988 03102 10052 20011 38193 40181 52012 91450 333 30/// 58053;","Q01+081933APOSP "
"76373099999","2006-03-21T18:00:00","4","25.35","-105.75","1967.0","TEPEHUANES DGO., MX","FM-12","99999","V020","090,1,N,0010,1","22000,1,9,N","070000,1,N,1","+9999,9","-0006,1","10151,1",,,,,,"00,1,+99999,9,99,9",,,"00,99,1,00,1,00,1,99999,9,00,1,00,1",,"01,9",,"120,M,+0210,1","240,N,-0002,1","99999,9,08178,1","6,1,015,1,+029,1",,"SYN094AAXX  21181 76373 32988 00901 10188 21006 38178 40151 56015 91750 333 10210 21002 30/// 58029;","Q01+001883ATOT  "
"76373099999","2006-03-22T00:00:00","4","25.35","-105.75","1967.0","TEPEHUANES DGO., MX","FM-12","99999","V020","240,1,N,0050,1","22000,1,9,N","070000,1,N,1","+0220,1","-0029,1","10055,1","24,0000,9,1",,,,,"00,1,+99999,9,99,9",,,"00,99,1,00,1,00,1,99999,9,00,1,00,1",,"01,9",,"120,M,+0267,1","180,N,-0002,1","99999,9,08160,1","7,1,002,1,+017,1",,"SYN106AAXX  22001 76373 32988 02405 10220 21029 38160 40055 57002 92350 333 10267 21002 30/// 50540 58017 70000;","Q01  00002PRCP24"
"76373099999","2006-03-22T12:00:00","4","25.35","-105.75","1967.0","TEPEHUANES DGO., MX","FM-12","99999","V020","300,1,N,0010,1","22000,1,9,N","000100,1,N,1","-0002,1","-0025,1","10151,1","24,0000,9,1",,,,,"00,1,+99999,9,99,9",,,"00,99,1,00,1,00,1,99999,9,00,1,00,1",,"09,9","999,-0034,1","120,N,-0008,1","240,M,+0267,1","99999,9,08184,1","9,9,999,9,+003,1",,"SYN100AAXX  22121 76373 32901 03001 11002 21025 38184 40151 5//// 91150 333 10267 21008 31034 58003 70000;","Q01  00002PRCP24"
"76373099999","2006-03-22T15:00:00","4","25.35","-105.75","1967.0","TEPEHUANES DGO., MX","FM-12","99999","V020","280,1,N,0010,1","22000,1,9,N","070000,1,N,1","+0052,1","-0010,1","10188,1",,,,,,"00,1,+99999,9,99,9",,,"00,99,1,00,1,00,1,99999,9,00,1,00,1",,"01,9",,,,"99999,9,08192,1","2,1,008,1,-001,1",,"SYN082AAXX  22151 76373 32988 02801 10052 21010 38192 40188 52008 91450 333 30/// 59001;",
"76373099999","2006-03-22T18:00:00","4","25.35","-105.75","1967.0","TEPEHUANES DGO., MX","FM-12","99999","V020","240,1,N,0020,1","22000,1,9,N","070000,1,N,1","+0196,1","-0028,1","10155,1",,,,,,"00,1,+99999,9,99,9",,,"00,99,1,00,1,00,1,99999,9,00,1,00,1",,"01,9",,"120,M,+0218,1","240,N,-0014,1","99999,9,08178,1","6,1,014,1,+000,1",,"SYN094AAXX  22181 76373 32988 02402 10196 21028 38178 40155 56014 91745 333 10218 21014 30/// 58000;",
"76373099999","2006-03-22T21:00:00","4","25.35","-105.75","1967.0","TEPEHUANES DGO., MX","FM-12","99999","V020","240,1,N,0080,1","22000,1,9,N","070000,1,N,1","+0248,2","-0026,1","99999,9",,,,,,"00,1,+99999,9,99,9",,,"00,99,1,00,1,00,1,99999,9,00,1,00,1",,"01,9",,,,"99999,9,08159,1","6,1,019,1,+001,1",,"SYN082AAXX  22211 76373 32988 02408 10248 21026 38159 40093 56019 92046 333 30/// 58001;","Q01+100933APOSLP"
"76373099999","2006-03-23T12:00:00","4","25.35","-105.75","1967.0","TEPEHUANES DGO., MX","FM-12","99999","V020","080,1,N,0010,1","22000,1,9,N","000100,1,N,1","+0012,1","-0031,1","10188,1","24,0000,9,1",,,,,"01,1,+06000,1,00,1",,,"01,99,1,00,1,00,1,99999,9,00,1,05,1",,"09,9","999,-0020,1","120,N,+0006,1","240,M,+0270,1","99999,9,08223,1","9,9,999,9,+039,1",,"SYN118AAXX  23121 76373 32901 10801 10012 21031 38223 40188 5//// 80005 91150 333 10270 20006 31020 56006 58039 70000 81070;",
"76373099999","2006-03-23T15:00:00","4","25.35","-105.75","1967.0","TEPEHUANES DGO., MX","FM-12","99999","V020","999,9,C,0000,1","22000,1,9,N","070000,1,N,1","+0066,1","-0032,1","10233,1",,,,,,"04,1,+06000,1,00,1",,,"04,99,1,00,1,00,1,99999,9,00,1,05,1",,"01,9",,,,"99999,9,08241,1","2,1,018,1,+049,1",,"SYN100AAXX  23151 76373 32988 40000 10066 21032 38241 40233 52018 80005 91450 333 30/// 56006 58049 84070;",
"76373099999","2006-03-23T18:00:00","4","25.35","-105.75","1967.0","TEPEHUANES DGO., MX","FM-12","99999","V020","110,1,N,0030,1","06000,1,9,N","070000,1,N,1","+0172,1","-0004,1","10231,1",,,,,,"08,1,+06000,1,02,1",,,"08,99,1,00,1,00,1,99999,9,00,1,07,1",,"01,9",,"120,M,+0192,1","240,N,-0005,1","99999,9,08240,1","8,1,001,1,+062,1",,"SYN118AAXX  23181 76373 32988 81103 10172 21004 38240 40231 58001 80007 91750 333 10192 21005 30/// 56006 58062 88270 99020;",
"76373099999","2006-03-24T12:00:00","4","25.35","-105.75","1967.0","TEPEHUANES DGO., MX","FM-12","99999","V020","999,9,C,0000,1","22000,1,9,N","000100,1,N,1","+0024,1","-0037,1","10205,1","24,0000,9,1",,,,,"03,1,+06000,1,00,1",,,"03,99,1,00,1,00,1,99999,9,00,1,05,1",,"09,9","999,-0002,1","120,N,+0020,1","240,M,+0232,1","99999,9,08234,1","9,9,999,9,+011,1",,"SYN118AAXX  24121 76373 32901 30000 10024 21037 38234 40205 5//// 80005 91150 333 10232 20020 31002 56006 58011 70000 83070;",
"76373099999","2006-03-24T15:00:00","4","25.35","-105.75","1967.0","TEPEHUANES DGO., MX","FM-12","99999","V020","999,9,C,0000,1","03000,1,9,N","070000,1,N,1","+0058,1","-0027,1","10235,1",,,,,,"08,1,+03000,1,03,1",,,"08,99,1,08,1,00,1,01250,1,03,1,00,1",,"01,9",,,,"99999,9,08240,1","2,1,006,1,-001,1",,"SYN100AAXX  24151 76373 32688 80000 10058 21027 38240 40235 52006 88030 91450 333 30/// 56060 59001 88360;",
"76373099999","2006-03-24T18:00:00","4","25.35","-105.75","1967.0","TEPEHUANES DGO., MX","FM-12","99999","V020","120,1,N,0040,1","09000,1,C,N","070000,1,N,1","+0170,1","+0040,1","10212,1",,,,,,"01,1,+03000,1,03,1",,,"07,99,1,01,1,00,1,01250,1,03,1,08,1",,"01,9",,"120,M,+0192,1","240,N,+0018,1","99999,9,08230,1","6,1,010,1,-010,1",,"SYN118AAXX  24181 76373 32688 71204 10170 20040 38230 40212 56010 81038 91747 333 10192 20018 30/// 56066 59010 81360 86270;",
"76373099999","2006-03-24T21:00:00","4","25.35","-105.75","1967.0","TEPEHUANES DGO., MX","FM-12","99999","V020","110,1,N,0020,1","03000,1,9,N","070000,1,N,1","+0204,1","+0021,1","99999,9",,,,,,"06,1,+03000,1,03,1",,,"08,99,1,06,1,00,1,01250,1,07,1,06,1",,"01,9",,,,"99999,9,08198,1","6,1,032,1,+999,9",,"SYN106AAXX  24211 76373 32688 81102 10204 20021 38198 40144 56032 86076 92046 333 30/// 56066 58/// 86360 82070;","Q01+101443APOSLP"
"76373099999","2006-03-25T00:00:00","4","25.35","-105.75","1967.0","TEPEHUANES DGO., MX","FM-12","99999","V020","240,1,N,0050,1","01200,1,9,N","070000,1,N,1","+0222,1","-0053,1","10093,1","24,0000,9,1",,,,,,,,"08,99,1,08,1,00,1,01250,1,07,1,00,1",,"01,9",,"120,M,+0265,1","180,N,+0018,1","99999,9,08183,1","7,1,015,1,+999,9",,"SYN124AAXX  25001 76373 32688 82405 10222 21053 38183 40093 57015 88070 92346 333 10265 20018 30/// 50340 56060 58/// 70000 88360;",
"76373099999","2006-03-25T15:00:00","4","25.35","-105.75","1967.0","TEPEHUANES DGO., MX","FM-12","99999","V020","999,9,C,0000,1","22000,1,9,N","070000,1,N,1","+0094,1","-0002,1","10188,1",,,,,,"03,1,+03000,1,03,1",,,"03,99,1,03,1,00,1,01250,1,03,1,00,1",,"01,9",,,,"99999,9,08225,1","2,1,015,1,-011,1",,"SYN100AAXX  25151 76373 32688 30000 10094 21002 38225 40188 52015 83030 91445 333 30/// 56060 59011 83360;",
"76373099999","2006-03-25T18:00:00","4","25.35","-105.75","1967.0","TEPEHUANES DGO., MX","FM-12","99999","V020","110,1,N,0020,1","22000,1,9,N","070000,1,N,1","+9999,9","+0046,1","10167,1",,,,,,"03,1,+00300,1,08,1",,,"03,99,1,03,1,02,1,00450,1,00,1,00,1",,"01,9",,"120,M,+0246,1","240,N,+0040,1","99999,9,08214,1","6,1,011,1,-016,1",,"SYN112AAXX  25181 76373 32488 31102 10214 20046 38214 40167 56011 83200 91745 333 10246 20040 30/// 56600 59016 83810;","Q01+002143ATOT  "
"76373099999","2006-03-27T15:00:00","4","25.35","-105.75","1967.0","TEPEHUANES DGO., MX","FM-12","99999","V020","999,9,C,0000,1","03000,1,9,N","070000,1,N,1","+0096,1","+0000,1","10165,1",,,,,,"08,1,+03000,1,03,1",,,"08,99,1,08,1,00,1,01250,1,07,1,00,1",,"01,9",,,,"99999,9,08219,1","2,1,015,1,+999,9",,"SYN100AAXX  27151 76373 32688 80000 10096 20000 38219 40165 52015 88070 91445 333 30/// 56060 58/// 88360;",
"76373099999","2006-03-27T18:00:00","4","25.35","-105.75","1967.0","TEPEHUANES DGO., MX","FM-12","99999","V020","330,1,N,0010,1","03000,1,9,N","070000,1,N,1","+0164,1","+0026,1","10170,1",,,,,,"08,1,+03000,1,04,1",,,"08,99,1,08,1,00,1,01250,1,07,1,00,1",,"01,9",,"120,M,+0180,1","240,N,+0080,1","99999,9,08224,1","2,1,005,1,+999,9",,"SYN112AAXX  27181 76373 32688 83301 10164 20026 38224 40170 52005 88070 91745 333 10180 20080 30/// 56060 58/// 88460;",
"76373099999","2006-03-27T21:00:00","4","25.35","-105.75","1967.0","TEPEHUANES DGO., MX","FM-12","99999","V020","090,1,N,0020,1","03600,1,C,N","070000,1,N,1","+0206,1","-0016,1","10130,1",,,,,,"02,1,+00300,1,08,1",,,"08,99,1,02,1,01,1,00450,1,03,1,00,1",,"01,9",,,,"99999,9,08204,1","6,1,020,1,+999,9",,"SYN106AAXX  27211 76373 32488 80902 10206 21016 38204 40130 56020 82130 92045 333 30/// 56660 58/// 82810 86360;",
"76373099999","2006-03-28T00:00:00","4","25.35","-105.75","1967.0","TEPEHUANES DGO., MX","FM-12","99999","V020","250,1,N,0050,1","03600,1,9,N","070000,1,N,1","+0216,1","-0006,1","10104,1","24,0000,9,1",,,,,"02,1,+00300,1,08,1",,,"05,99,1,02,1,02,1,00450,1,03,1,00,1",,"01,9",,"120,M,+0234,1","180,N,+0080,1","99999,9,08202,1","7,1,002,1,+999,9",,"SYN130AAXX  28001 76373 32488 52505 10216 21006 38202 40104 57002 82230 92345 333 10234 20080 30/// 50330 56660 58/// 70000 82810 83360;",
"76373099999","2006-03-28T15:00:00","4","25.35","-105.75","1967.0","TEPEHUANES DGO., MX","FM-12","99999","V020","330,1,N,0010,1","06000,1,9,N","070000,1,N,1","+0070,1","-0033,1","10231,1",,,,,,"08,1,+06000,1,02,1",,,"08,99,1,00,1,00,1,99999,9,00,1,07,1",,"01,9",,,,"99999,9,08234,1","2,1,017,1,+015,1",,"SYN106AAXX  28151 76373 32988 83301 10070 21033 38234 40231 52017 80007 91445 333 30/// 56006 58015 88270 99020;",
"76373099999","2006-03-28T18:00:00","4","25.35","-105.75","1967.0","TEPEHUANES DGO., MX","FM-12","99999","V020","120,1,N,0020,1","06000,1,9,N","070000,1,N,1","+0200,1","+0002,1","10200,1",,,,,,"08,1,+06000,1,02,1",,,"08,99,1,00,1,00,1,99999,9,00,1,07,1",,"01,9",,"120,M,+0228,1","240,N,-0002,1","99999,9,08222,1","6,1,012,1,-002,1",,"SYN118AAXX  28181 76373 32988 81202 10200 20002 38222 40200 56012 80007 91745 333 10228 21002 30/// 56006 59002 88270 99020;",
"76373099999","2006-03-28T21:00:00","4","25.35","-105.75","1967.0","TEPEHUANES DGO., MX","FM-12","99999","V020","250,1,N,0030,1","06000,1,9,N","070000,1,N,1","+0256,1","-0024,1","10146,1",,,,,,"01,1,+00300,1,08,1","08,1,+06000,1,02,1",,"08,99,1,01,1,01,1,00450,1,00,1,07,1",,"01,9",,,,"99999,9,08198,1","6,1,024,1,-006,1",,"SYN112AAXX  28211 76373 32488 82503 10256 21024 38198 40146 56024 81107 92047 333 30/// 56606 59006 81810 88270 99020;",
"76373099999","2006-03-29T00:00:00","4","25.35","-105.75","1967.0","TEPEHUANES DGO., MX","FM-12","99999","V020","240,1,N,0040,1","99999,9,9,N","070000,1,N,1","+0220,1","-0009,1","10093,1","24,0000,9,1",,,,,,,,"08,99,1,00,1,00,1,99999,9,00,1,08,1",,"01,9",,"120,M,+0274,1","180,N,-0002,1","99999,9,08195,1","7,1,003,1,-007,1",,"SYN124AAXX  29001 76373 32988 82404 10220 21009 38195 40093 57003 80008 92345 333 10274 21002 30/// 50390 56006 59007 70000 88270;",
"76373099999","2006-03-29T12:00:00","4","25.35","-105.75","1967.0","TEPEHUANES DGO., MX","FM-12","99999","V020","290,1,N,0010,1","22000,1,9,N","000100,1,N,1","+0036,1","-0007,1","10151,1","24,0000,9,1",,,,,"00,1,+99999,9,99,9",,,"00,99,1,00,1,00,1,99999,9,00,1,00,1",,"09,9","999,-0008,1","120,N,+0022,1","240,M,+0274,1","99999,9,08207,1",,,"SYN100AAXX  29121 76373 32901 02901 10036 21007 38207 40151 5//// 91150 333 10274 20022 31008 58/// 70000;","Q01  00002PRCP24"
"76373099999","2006-03-29T15:00:00","4","25.35","-105.75","1967.0","TEPEHUANES DGO., MX","FM-12","99999","V020","999,9,C,0000,1","22000,1,9,N","070000,1,N,1","+0078,1","+0002,1","10195,1",,,,,,"00,1,+99999,9,99,9",,,"00,99,1,00,1,00,1,99999,9,00,1,00,1",,"01,9",,,,"99999,9,08218,1","2,1,011,1,-016,1",,"SYN082AAXX  29151 76373 32988 00000 10078 20002 38218 40195 52011 91450 333 30/// 59016;",
"76373099999","2006-03-29T18:00:00","4","25.35","-105.75","1967.0","TEPEHUANES DGO., MX","FM-12","99999","V020","300,1,N,0010,1","22000,1,9,N","070000,1,N,1","+0214,1","-0009,1","10162,1",,,,,,"02,1,+06600,1,00,1",,,"02,99,1,00,1,00,1,99999,9,00,1,05,1",,"01,9",,"120,M,+0230,1","240,N,+0010,1","99999,9,08205,1","6,1,013,1,-017,1",,"SYN112AAXX  29181 76373 32988 23001 10214 21009 38205 40162 56013 80005 91748 333 10230 20010 30/// 56006 59017 82072;",
"76373099999","2006-03-29T21:00:00","4","25.35","-105.75","1967.0","TEPEHUANES DGO., MX","FM-12","99999","V020","240,1,N,0070,1","22000,1,9,N","070000,1,N,1","+0266,1","-0029,1","10106,1",,,,,,"01,1,+06000,1,00,1",,,"01,99,1,00,1,00,1,99999,9,00,1,05,1",,"01,9",,,,"99999,9,08183,1","7,1,022,1,-015,1",,"SYN100AAXX  29211 76373 32988 12407 10266 21029 38183 40106 57022 80005 92045 333 30/// 56006 59015 81070;",
"76373099999","2006-03-30T00:00:00","4","25.35","-105.75","1967.0","TEPEHUANES DGO., MX","FM-12","99999","V020","290,1,N,0070,1","22000,1,9,N","070000,1,N,1","+0232,1","+0000,1","10069,1","24,0000,9,1",,,,,"00,1,+99999,9,99,9",,,"00,99,1,00,1,00,1,99999,9,00,1,00,1",,"01,9",,"120,M,+0288,1","180,N,+0010,1","99999,9,08183,1","4,1,000,1,-012,1",,"SYN106AAXX  30001 76373 32988 02907 10232 20000 38183 40069 54000 92346 333 10288 20010 30/// 56010 59012 70000;","Q01  00002PRCP24"
"76373099999","2006-03-30T12:00:00","4","25.35","-105.75","1967.0","TEPEHUANES DGO., MX","FM-12","99999","V020","999,9,C,0000,1","22000,1,9,N","000100,1,N,1","+0022,1","-0004,1","10144,1","24,0000,9,1",,,,,"00,1,+99999,9,99,9",,,"00,99,1,00,1,00,1,99999,9,00,1,00,1",,"09,9","999,-0004,1","120,N,+0022,1","240,M,+0288,1","99999,9,08200,1","9,9,999,9,-007,1",,"SYN100AAXX  30121 76373 32901 00000 10022 21004 38200 40144 5//// 91150 333 10288 20022 31004 59007 70000;","Q01  00002PRCP24"
"76373099999","2006-03-30T15:00:00","4","25.35","-105.75","1967.0","TEPEHUANES DGO., MX","FM-12","99999","V020","999,9,C,0000,1","22000,1,9,N","070000,1,N,1","+0074,1","+0005,1","10179,1",,,,,,"00,1,+99999,9,99,9",,,"00,99,1,00,1,00,1,99999,9,00,1,00,1",,"01,9",,,,"99999,9,08207,1","2,1,007,1,-001,1",,"SYN082AAXX  30151 76373 32988 00000 10074 20005 38207 40179 52007 91450 333 30/// 59001;",
"76373099999","2006-03-30T18:00:00","4","25.35","-105.75","1967.0","TEPEHUANES DGO., MX","FM-12","99999","V020","330,1,N,0030,1","22000,1,9,N","070000,1,N,1","+0224,1","-0029,1","10155,1",,,,,,"01,1,+06000,1,00,1",,,"01,99,1,00,1,00,1,99999,9,00,1,05,1",,"01,9",,"120,M,+0242,1","240,N,+0010,1","99999,9,08195,1","7,1,012,1,-010,1",,"SYN112AAXX  30181 76373 32988 13303 10224 21029 38195 40155 57012 80005 91750 333 10242 20010 30/// 56006 59010 81070;",
"76373099999","2006-03-30T21:00:00","4","25.35","-105.75","1967.0","TEPEHUANES DGO., MX","FM-12","99999","V020","250,1,N,0060,1","06000,1,9,N","070000,1,N,1","+0276,2","-0069,1","99999,9",,,,,,"06,1,+06000,1,02,1",,,"06,99,1,00,1,00,1,99999,9,00,1,08,1",,"01,9",,,,"99999,9,08173,1","7,1,022,1,-010,1",,"SYN100AAXX  30211 76373 32988 62506 10276 21069 38173 40088 57022 80008 92050 333 30/// 56006 59010 86270;","Q01+100883APOSLP"
"76373099999","2006-03-31T12:00:00","4","25.35","-105.75","1967.0","TEPEHUANES DGO., MX","FM-12","99999","V020","290,1,N,0010,1","03600,1,C,N","000100,1,N,1","+0050,1","-0032,1","10146,1","24,0000,9,1",,,,,"01,1,+00360,1,08,1",,,"07,99,1,01,1,01,1,00450,1,01,1,00,1",,"01,9","999,+0015,1","120,N,+0040,1","240,M,+0300,1","99999,9,08210,1","9,9,999,9,+010,1",,"SYN124AAXX  31121 76373 32401 72901 10050 21032 38210 40146 5//// 81110 91155 333 10300 20040 30015 56660 58010 70000 81812 87458;",
"76373099999","2006-03-31T15:00:00","4","25.35","-105.75","1967.0","TEPEHUANES DGO., MX","FM-12","99999","V020","320,1,N,0010,1","06000,1,9,N","070000,1,N,1","+0098,1","-0005,1","10184,1",,,,,,"08,1,+06000,1,02,1",,,"08,99,1,00,1,00,1,99999,9,00,1,07,1",,"01,9",,,,"99999,9,08221,1","2,1,011,1,+014,1",,"SYN100AAXX  31151 76373 32988 83201 10098 21005 38221 40184 52011 80007 91450 333 30/// 56006 58014 88270;",
"76373099999","2006-03-31T18:00:00","4","25.35","-105.75","1967.0","TEPEHUANES DGO., MX","FM-12","99999","V020","130,1,N,0010,1","09000,1,C,N","070000,1,N,1","+0222,1","-0018,1","10167,1",,,,,,"04,1,+02400,1,03,1",,,"06,99,1,04,1,00,1,00250,1,03,1,05,1",,"01,9",,"120,M,+0242,1","240,N,+0040,1","99999,9,08213,1","6,1,008,1,+018,1",,"SYN118AAXX  31181 76373 32388 61301 10222 21018 38213 40167 56008 84035 91750 333 10242 20040 30/// 56076 58018 84358 82070;",
"76373099999","2006-03-31T21:00:00","4","25.35","-105.75","1967.0","TEPEHUANES DGO., MX","FM-12","99999","V020","230,1,N,0050,1","09000,1,C,N","070000,1,N,1","+0260,1","-0043,1","10144,1",,,,,,"04,1,+02400,1,03,1",,,"06,99,1,04,1,00,1,01250,1,06,1,02,1",,"01,9",,,,"99999,9,08203,1","6,1,010,1,+030,1",,"SYN106AAXX  31211 76373 32688 62305 10260 21043 38203 40144 56010 84062 92050 333 30/// 56066 58030 84358 82070;",
"76373099999","2006-04-01T12:00:00","4","25.35","-105.75","1967.0","TEPEHUANES DGO., MX","FM-12","99999","V020","999,9,C,0000,1","22000,1,9,N","000100,1,N,1","+0054,1","-0010,1","10158,1","24,0000,9,1",,,,,"01,1,+02400,1,03,1",,,"01,99,1,01,1,00,1,01250,1,04,1,00,1",,"01,9","999,+0025,1","120,N,+0050,1","240,M,+0302,1","99999,9,08225,1","9,9,999,9,+015,1",,"SYN118AAXX  01121 76373 32601 10000 10054 21010 38225 40158 5//// 81040 91150 333 10302 20050 30025 560/0 58015 70000 81358;",
"76373099999","2006-04-01T15:00:00","4","25.35","-105.75","1967.0","TEPEHUANES DGO., MX","FM-12","99999","V020","270,1,N,0010,1","09000,1,C,N","070000,1,N,1","+0120,1","+0025,1","10191,1",,,,,,"01,1,+02400,1,03,1",,,"07,99,1,01,1,00,1,01250,1,04,1,08,1",,"01,9",,,,"99999,9,08231,1","1,1,006,1,+010,1",,"SYN106AAXX  01151 76373 32688 72701 10120 20025 38231 40191 51006 81048 91450 333 30/// 56066 58010 81358 86270;",
"76373099999","2006-04-01T18:00:00","4","25.35","-105.75","1967.0","TEPEHUANES DGO., MX","FM-12","99999","V020","210,1,N,0070,1","06000,1,9,N","070000,1,N,1","+9999,9","-0034,1","10167,1",,,,,,"07,1,+06000,1,02,1",,,"07,99,1,00,1,00,1,99999,9,00,1,08,1",,"01,9",,"120,M,+0284,1","240,N,+0042,1","99999,9,08220,1","7,1,011,1,+007,1",,"SYN112AAXX  01181 76373 32988 72107 10264 21034 38220 40167 57011 80008 91750 333 10284 20042 30/// 56006 58007 87270;",
"76373099999","2006-04-02T15:00:00","4","25.35","-105.75","1967.0","TEPEHUANES DGO., MX","FM-12","99999","V020","999,9,C,0000,1","22000,1,9,N","070000,1,N,1","+0114,1","+0010,1","10195,1",,,,,,"00,1,+99999,9,99,9",,,"00,99,1,00,1,00,1,99999,9,00,1,00,1",,"01,9",,,,"99999,9,08230,1","0,1,006,1,-001,1",,"SYN082AAXX  02151 76373 32988 00000 10114 20010 38230 40195 50006 91450 333 30/// 59001;",
"76373099999","2006-04-02T18:00:00","4","25.35","-105.75","1967.0","TEPEHUANES DGO., MX","FM-12","99999","V020","310,1,N,0010,1","22000,1,9,N","070000,1,N,1","+9999,9","-0003,1","10172,1",,,,,,"00,1,+99999,9,99,9",,,"00,99,1,00,1,00,1,99999,9,00,1,00,1",,"01,9",,"120,M,+0272,1","240,N,+0028,1","99999,9,08220,1","7,1,010,1,+000,1",,"SYN094AAXX  02181 76373 32988 03101 10256 21003 38220 40172 57010 91750 333 10272 20028 30/// 58000;",
"76373099999","2006-04-03T12:00:00","4","25.35","-105.75","1967.0","TEPEHUANES DGO., MX","FM-12","99999","V020","999,9,C,0000,1","22000,1,9,N","000200,1,N,1","+0050,1","-0034,1","10139,1","24,0000,9,1",,,,,"00,1,+99999,9,99,9",,,"00,99,1,00,1,00,1,99999,9,00,1,00,1",,"01,9","999,+0015,1","120,N,+0048,1","240,M,+0332,1","99999,9,08231,1","9,9,999,9,+007,1",,"SYN100AAXX  03121 76373 32902 00000 10050 21034 38231 40139 5//// 91150 333 10332 20048 30015 58007 70000;","Q01  00002PRCP24"
"76373099999","2006-04-03T15:00:00","4","25.35","-105.75","1967.0","TEPEHUANES DGO., MX","FM-12","99999","V020","999,9,C,0000,1","22000,1,9,N","070000,1,N,1","+0116,1","-0028,1","99999,9",,,,,,"00,1,+99999,9,99,9",,,"00,99,1,00,1,00,1,99999,9,00,1,00,1",,"01,9",,,,"99999,9,08243,1","3,1,012,1,+013,1",,"SYN082AAXX  03151 76373 32988 00000 10116 21028 38243 40207 53012 91450 333 30/// 58013;",
"76373099999","2006-04-03T18:00:00","4","25.35","-105.75","1967.0","TEPEHUANES DGO., MX","FM-12","99999","V020","130,1,N,0060,1","22000,1,9,N","070000,1,N,1","+0258,1","-0057,1","10179,1",,,,,,"00,1,+99999,9,99,9",,,"00,99,1,00,1,00,1,99999,9,00,1,00,1",,"01,9",,"120,M,+0286,1","240,N,+0032,1","99999,9,08232,1","7,1,011,1,+012,1",,"SYN094AAXX  03181 76373 32988 01306 10258 21057 38232 40179 57011 91750 333 10286 20032 30/// 58012;",
"76373099999","2006-04-03T21:00:00","4","25.35","-105.75","1967.0","TEPEHUANES DGO., MX","FM-12","99999","V020","060,1,N,0040,1","22000,1,9,N","070000,1,N,1","+0306,1","-0069,1","99999,9",,,,,,"00,1,+99999,9,99,9",,,"00,99,1,00,1,00,1,99999,9,00,1,00,1",,"01,9",,,,"99999,9,08201,1","6,1,031,1,+999,9",,"SYN082AAXX  03211 76373 32988 00604 10306 21069 38201 40104 56031 92048 333 30/// 58///;",
"76373099999","2006-04-04T12:00:00","4","25.35","-105.75","1967.0","TEPEHUANES DGO., MX","FM-12","99999","V020","999,9,C,0000,1","22000,1,9,N","000200,1,N,1","+0070,1","-0016,1","10127,1","24,0000,9,1",,,,,"00,1,+99999,9,99,9",,,"00,99,1,00,1,00,1,99999,9,00,1,00,1",,"01,9","999,+0035,1","120,N,+0064,1","240,M,+0347,1","99999,9,08215,1","9,9,999,9,-016,1",,"SYN100AAXX  04121 76373 32902 00000 10070 21016 38215 40127 5//// 91150 333 10347 20064 30035 59016 70000;","Q01  00002PRCP24"
"76373099999","2006-04-04T15:00:00","4","25.35","-105.75","1967.0","TEPEHUANES DGO., MX","FM-12","99999","V020","999,9,C,0000,1","22000,1,9,N","070000,1,N,1","+0146,1","-0013,1","10167,1",,,,,,"00,1,+99999,9,99,9",,,"00,99,1,00,1,00,1,99999,9,00,1,00,1",,"01,9",,,,"99999,9,08220,1","0,1,005,1,-023,1",,"SYN082AAXX  04151 76373 32988 00000 10146 21013 38220 40167 50005 91450 333 30/// 59023;",
"76373099999","2006-04-04T18:00:00","4","25.35","-105.75","1967.0","TEPEHUANES DGO., MX","FM-12","99999","V020","120,1,N,0030,1","22000,1,9,N","070000,1,N,1","+0288,1","-0016,1","10132,1",,,,,,"00,1,+99999,9,99,9",,,"00,99,1,00,1,00,1,99999,9,00,1,00,1",,"01,9",,"120,M,+0302,1","240,N,+0053,1","99999,9,08205,1","7,1,015,1,-027,1",,"SYN094AAXX  04181 76373 32988 01203 10288 21016 38205 40132 57015 91750 333 10302 20053 30/// 59027;",
"76373099999","2006-04-04T21:00:00","4","25.35","-105.75","1967.0","TEPEHUANES DGO., MX","FM-12","99999","V020","180,1,N,0030,1","06000,1,9,N","070000,1,N,1","+0332,2","-0055,1","99999,9",,,,,,"08,1,+06000,1,02,1",,,"08,99,1,00,1,00,1,99999,9,00,1,08,1",,"01,9",,,,"99999,9,08178,1","6,1,027,1,-023,1",,"SYN100AAXX  04211 76373 32988 81803 10332 21055 38178 40060 56027 80008 92045 333 30/// 56006 59023 88270;",
"76373099999","2006-04-05T00:00:00","4","25.35","-105.75","1967.0","TEPEHUANES DGO., MX","FM-12","99999","V020","250,1,N,0050,1","09000,1,9,N","070000,1,N,1","+0306,1","-0032,1","10012,2","24,0000,9,1",,,,,"01,1,+03000,1,03,1",,,"05,99,1,01,1,00,1,01250,1,03,1,02,1",,"01,9",,"120,M,+0360,1","180,N,+0053,1","99999,9,08171,1","7,1,007,1,-007,1",,"SYN130AAXX  05001 76373 32688 52505 10306 21032 38171 40012 57007 81032 92345 333 10360 20053 30/// 50850 56066 59007 70000 81360 84070;",
"76373099999","2006-04-05T12:00:00","4","25.35","-105.75","1967.0","TEPEHUANES DGO., MX","FM-12","99999","V020","999,9,C,0000,1","22000,1,9,N","000200,1,N,1","+0074,1","-0003,1","10113,1","24,0000,9,1",,,,,"00,1,+99999,9,99,9",,,"00,99,1,00,1,00,1,99999,9,00,1,00,1",,"01,9","999,+0038,1","120,N,+0074,1","240,M,+0360,1","99999,9,08208,1","9,9,999,9,-006,1",,"SYN100AAXX  05121 76373 32902 00000 10074 21003 38208 40113 5//// 91150 333 10360 20074 30038 59006 70000;","Q01  00002PRCP24"
"76373099999","2006-04-05T15:00:00","4","25.35","-105.75","1967.0","TEPEHUANES DGO., MX","FM-12","99999","V020","999,9,C,0000,1","22000,1,9,N","070000,1,N,1","+0126,1","-0004,1","10155,1",,,,,,"02,1,+06000,1,00,1",,,"02,99,1,00,1,00,1,99999,9,00,1,05,1",,"01,9",,,,"99999,9,08218,1","2,1,010,1,-002,1",,"SYN100AAXX  05151 76373 32988 20000 10126 21004 38218 40155 52010 80005 91450 333 30/// 56066 59002 82070;",
"76373099999","2006-04-05T18:00:00","4","25.35","-105.75","1967.0","TEPEHUANES DGO., MX","FM-12","99999","V020","080,1,N,0010,1","06000,1,9,N","070000,1,N,1","+0268,1","-0017,1","10120,1",,,,,,"06,1,+06000,1,02,1",,,"06,99,1,00,1,00,1,99999,9,00,1,08,1",,"01,9",,"120,M,+0298,1","240,N,+0060,1","99999,9,08198,1","7,1,020,1,-007,1",,"SYN112AAXX  05181 76373 32988 60801 10268 21017 38198 40120 57020 80008 91750 333 10298 20060 30/// 56006 59007 86270;",
"76373099999","2006-04-05T21:00:00","4","25.35","-105.75","1967.0","TEPEHUANES DGO., MX","FM-12","99999","V020","240,1,N,0060,1","06000,1,9,N","070000,1,N,1","+0316,2","-0056,1","99999,9",,,,,,"08,1,+06000,1,02,1",,,"08,99,1,00,1,00,1,99999,9,00,1,07,1",,"01,9",,,,"99999,9,08161,1","6,1,027,1,-007,1",,"SYN106AAXX  05211 76373 32988 82406 10316 21056 38161 40055 56027 80007 92048 333 30/// 56006 59007 88270 99020;",
"76373099999","2006-04-06T12:00:00","4","25.35","-105.75","1967.0","TEPEHUANES DGO., MX","FM-12","99999","V020","999,9,C,0000,1","09000,1,C,N","000300,1,N,1","+0106,1","+0032,1","10078,1","24,0000,9,1",,,,,"02,1,+01800,1,03,1",,,"06,99,1,02,1,00,1,01250,1,03,1,05,1",,"01,9","999,+0068,1","120,N,+0100,1","240,M,+0341,1","99999,9,08181,1","9,9,999,9,-027,1",,"SYN124AAXX  06121 76373 32603 60000 10106 20032 38181 40078 5//// 82035 91150 333 10341 20100 30068 56066 59027 70000 82356 84068;",
"76373099999","2006-04-06T15:00:00","4","25.35","-105.75","1967.0","TEPEHUANES DGO., MX","FM-12","99999","V020","320,1,N,0010,1","09000,1,C,N","070000,1,N,1","+0140,1","+0011,1","10106,1",,,,,,"02,1,+01800,1,03,1",,,"08,99,1,02,1,00,1,01250,1,04,1,06,1",,"01,9",,,,"99999,9,08186,1","3,1,005,1,-032,1",,"SYN106AAXX  06151 76373 32688 83201 10140 20011 38186 40106 53005 82046 91450 333 30/// 56066 59032 82356 86076;",
"76373099999","2006-04-06T18:00:00","4","25.35","-105.75","1967.0","TEPEHUANES DGO., MX","FM-12","99999","V020","290,1,N,0060,1","22000,1,9,N","070000,1,N,1","+0252,1","-0017,1","10088,1",,,,,,"02,1,+02400,1,03,1",,,"04,99,1,02,1,00,1,01250,1,07,1,04,1",,"01,9",,"120,M,+0270,1","240,N,+0088,1","99999,9,08177,1","8,1,009,1,-021,1",,"SYN118AAXX  06181 76373 32688 42906 10252 21017 38177 40088 58009 82074 91750 333 10270 20088 30/// 56066 59021 82358 82070;",
"76373099999","2006-04-06T21:00:00","4","25.35","-105.75","1967.0","TEPEHUANES DGO., MX","FM-12","99999","V020","270,1,N,0080,1","22000,1,9,N","070000,1,N,1","+0276,1","+0029,1","10037,1",,,,,,"01,1,+06000,1,00,1",,,"01,99,1,00,1,00,1,99999,9,00,1,05,1",,"01,9",,,,"99999,9,08157,1","6,1,020,1,-014,1",,"SYN100AAXX  06211 76373 32988 12708 10276 20029 38157 40037 56020 80005 92045 333 30/// 56006 59014 81070;",
"76373099999","2006-04-07T00:00:00","4","25.35","-105.75","1967.0","TEPEHUANES DGO., MX","FM-12","99999","V020","250,1,N,0070,1","22000,1,9,N","070000,1,N,1","+0258,1","-0039,1","10009,1","24,0000,9,1",,,,,"00,1,+99999,9,99,9",,,"00,99,1,00,1,00,1,99999,9,00,1,00,1",,"01,9",,"120,M,+0297,1","180,N,+0088,1","99999,9,08155,1","7,1,002,1,-013,1",,"SYN106AAXX  07001 76373 32988 02507 10258 21039 38155 40009 57002 92347 333 10297 20088 30/// 50850 59013 70000;","Q01  00002PRCP24"
"76373099999","2006-04-07T12:00:00","4","25.35","-105.75","1967.0","TEPEHUANES DGO., MX","FM-12","99999","V020","190,1,N,0030,1","22000,1,9,N","000200,1,N,1","+0054,1","+0018,1","10118,1","24,0000,9,1",,,,,"00,1,+99999,9,99,9",,,"00,99,1,00,1,00,1,99999,9,00,1,00,1",,"01,9","999,+0018,1","120,N,+0048,1","240,M,+0297,1","99999,9,08193,1","9,9,999,9,+012,1",,"SYN100AAXX  07121 76373 32902 01903 10054 20018 38193 40118 5//// 91150 333 10297 20048 30018 58012 70000;","Q01  00002PRCP24"
"76373099999","2006-04-07T15:00:00","4","25.35","-105.75","1967.0","TEPEHUANES DGO., MX","FM-12","99999","V020","310,1,N,0010,1","22000,1,9,N","070000,1,N,1","+0093,1","+0034,1","10153,1",,,,,,"00,1,+99999,9,99,9",,,"00,99,1,00,1,00,1,99999,9,00,1,00,1",,"01,9",,,,"99999,9,08199,1","1,1,006,1,+013,1",,"SYN082AAXX  07151 76373 32988 03101 10093 20034 38199 40153 51006 91445 333 30/// 58013;",
"76373099999","2006-04-07T18:00:00","4","25.35","-105.75","1967.0","TEPEHUANES DGO., MX","FM-12","99999","V020","110,1,N,0020,1","22000,1,9,N","070000,1,N,1","+0244,1","-0042,1","10130,1",,,,,,"00,1,+99999,9,99,9",,,"00,99,1,00,1,00,1,99999,9,00,1,00,1",,"01,9",,"120,M,+0270,1","240,N,+0035,1","99999,9,08190,1","6,1,009,1,+013,1",,"SYN094AAXX  07181 76373 32988 01102 10244 21042 38190 40130 56009 91746 333 10270 20035 30/// 58013;",
"76373099999","2006-04-07T21:00:00","4","25.35","-105.75","1967.0","TEPEHUANES DGO., MX","FM-12","99999","V020","290,1,N,0060,1","22000,1,9,N","070000,1,N,1","+0304,2","-0064,1","99999,9",,,,,,"00,1,+99999,9,99,9",,,"00,99,1,00,1,00,1,99999,9,00,1,00,1",,"01,9",,,,"99999,9,08165,1","7,1,025,1,+008,1",,"SYN082AAXX  07211 76373 32988 02906 10304 21064 38165 40067 57025 92048 333 30/// 58008;",
"76373099999","2006-04-10T12:00:00","4","25.35","-105.75","1967.0","TEPEHUANES DGO., MX","FM-12","99999","V020","999,9,C,0000,1","09000,1,C,N","000200,1,N,1","+0088,1","-0002,1","10093,1","24,0000,9,1",,,,,"02,1,+02400,1,03,1",,,"07,99,1,02,1,00,1,01250,1,07,1,05,1",,"01,9","999,+0055,1","120,N,+0088,1","240,M,+0318,1","99999,9,08189,1",,,"SYN124AAXX  10121 76373 32602 70000 10088 21002 38189 40093 5//// 82075 91150 333 10318 20088 30055 56066 58/// 70000 82358 85070;",
"76373099999","2006-04-10T18:00:00","4","25.35","-105.75","1967.0","TEPEHUANES DGO., MX","FM-12","99999","V020","120,1,N,0030,1","22000,1,9,N","070000,1,N,1","+9999,9","+0024,1","10104,1",,,,,,"04,1,+06000,1,00,1",,,"04,99,1,00,1,00,1,99999,9,00,1,05,1",,"01,9",,"120,M,+0288,1","240,N,+0074,1","99999,9,08187,1","7,1,012,1,+999,9",,"SYN112AAXX  10181 76373 32988 41203 10270 20024 38187 40104 57012 80005 91755 333 10288 20074 30/// 56006 58/// 84070;",
"76373099999","2006-04-11T12:00:00","4","25.35","-105.75","1967.0","TEPEHUANES DGO., MX","FM-12","99999","V020","999,9,C,0000,1","02400,1,9,N","000200,1,N,1","+0112,1","+0002,1","10100,1","24,0000,9,1",,,,,"08,1,+02400,1,05,1",,,"08,99,1,08,1,00,1,01250,1,02,1,00,1",,"01,9","999,+0080,1","120,N,+0105,1","240,M,+0337,1","99999,9,08199,1","9,9,999,9,+010,1",,"SYN118AAXX  11121 76373 32602 80000 10112 20002 38199 40100 5//// 88020 91150 333 10337 20105 30080 56060 58010 70000 88558;",
"76373099999","2006-04-11T18:00:00","4","25.35","-105.75","1967.0","TEPEHUANES DGO., MX","FM-12","99999","V020","999,9,C,0000,1","02400,1,9,N","070000,1,N,1","+0246,1","+0002,1","10127,1",,,,,,"03,1,+00360,1,09,1","02,1,+02400,1,03,1",,"08,99,1,03,1,03,1,00450,1,03,1,02,1",,"01,9",,"120,M,+0274,1","240,N,+0094,1","99999,9,08211,1","8,1,009,1,+024,1",,"SYN124AAXX  11181 76373 32488 80000 10246 20002 38211 40127 58009 83332 91750 333 10274 20094 30/// 56666 58024 83912 82358 83070;",
"76373099999","2006-04-12T12:00:00","4","25.35","-105.75","1967.0","TEPEHUANES DGO., MX","FM-12","99999","V020","999,9,C,0000,1","05400,1,9,N","000200,1,N,1","+0134,1","+0002,1","10113,1","24,0000,9,1",,,,,"08,1,+05400,1,02,1",,,"08,99,1,00,1,00,1,99999,9,00,1,08,1",,"01,9","999,+0115,1","120,N,+0132,1","240,M,+0310,1","99999,9,08218,1","9,9,999,9,+019,1",,"SYN118AAXX  12121 76373 32902 80000 10134 20002 38218 40113 5//// 80008 91150 333 10310 20132 30115 56006 58019 70000 88268;",
"76373099999","2006-04-12T15:00:00","4","25.35","-105.75","1967.0","TEPEHUANES DGO., MX","FM-12","99999","V020","070,1,N,0010,1","03000,1,9,N","070000,1,N,1","+0186,1","+0039,1","10144,1",,,,,,"07,1,+03000,1,03,1",,,"07,99,1,07,1,00,1,01250,1,03,1,00,1",,"01,9",,,,"99999,9,08232,1","2,1,014,1,+012,1",,"SYN100AAXX  12151 76373 32688 70701 10186 20039 38232 40144 52014 87030 91455 333 30/// 56060 58012 87360;",
"76373099999","2006-04-12T18:00:00","4","25.35","-105.75","1967.0","TEPEHUANES DGO., MX","FM-12","99999","V020","110,1,N,0040,1","03600,1,C,N","070000,1,N,1","+0276,1","+0040,1","10137,1",,,,,,"03,1,+00360,1,09,1","01,1,+02400,1,03,1",,"05,99,1,03,1,03,1,00450,1,04,1,02,1",,"01,9",,"120,M,+0298,1","240,N,+0122,1","99999,9,08235,1","0,1,003,1,+024,1",,"SYN124AAXX  12181 76373 32488 51104 10276 20040 38235 40137 50003 83342 91750 333 10298 20122 30/// 56666 58024 83912 81358 81070;",
"76373099999","2006-04-13T00:00:00","4","25.35","-105.75","1967.0","TEPEHUANES DGO., MX","FM-12","99999","V020","100,1,N,0020,1","03600,1,9,N","070000,1,N,1","+0286,1","+0005,1","10044,1","24,0000,9,1",,,,,"02,1,+00300,1,09,1","01,1,+00300,1,08,1","01,1,+03000,1,03,1","06,99,1,02,1,03,1,00450,1,03,1,02,1",,"01,9",,"120,M,+0320,1","180,N,+0122,1","99999,9,08190,1","6,1,027,1,+004,1",,"SYN142AAXX  13001 76373 32488 61002 10286 20005 38190 40044 56027 82332 92345 333 10320 20122 30/// 50600 56676 58004 70000 82910 81810 81360 82070;",
"76373099999","2006-04-13T12:00:00","4","25.35","-105.75","1967.0","TEPEHUANES DGO., MX","FM-12","99999","V020","999,9,C,0000,1","22000,1,9,N","000200,1,N,1","+0100,1","+0060,1","10146,1","06,0010,9,1","24,0013,9,1",,,,"00,1,+99999,9,99,9",,,"00,99,1,00,1,00,1,99999,9,00,1,00,1",,"01,9","999,+0075,1","120,N,+0098,1","240,M,+0320,1","99999,9,08237,1","9,9,999,9,+019,1",,"SYN112AAXX  13121 76373 02902 00000 10100 20060 38237 40146 5//// 60011 91150 333 10320 20098 30075 58019 60011 70013;",
"76373099999","2006-04-13T15:00:00","4","25.35","-105.75","1967.0","TEPEHUANES DGO., MX","FM-12","99999","V020","999,9,C,0000,1","22000,1,9,N","070000,1,N,1","+0160,1","+0078,1","10179,1",,,,,,"00,1,+99999,9,99,9",,,"00,99,1,00,1,00,1,99999,9,00,1,00,1",,"01,9",,,,"99999,9,08247,1","2,1,010,1,-015,1",,"SYN082AAXX  13151 76373 32988 00000 10160 20078 38247 40179 52010 91450 333 30/// 59015;",
"76373099999","2006-04-13T18:00:00","4","25.35","-105.75","1967.0","TEPEHUANES DGO., MX","FM-12","99999","V020","080,1,N,0020,1","22000,1,9,N","070000,1,N,1","+9999,9","+0071,1","10153,1",,,,,,"03,1,+00360,1,09,1",,,"04,99,1,03,1,03,1,00450,1,00,1,01,1",,"01,9",,"120,M,+0292,1","240,N,+0092,1","99999,9,08234,1","7,1,013,1,+001,1",,"SYN118AAXX  13181 76373 32488 40802 10270 20071 38234 40153 57013 83301 91750 333 10292 20092 30/// 56606 58001 83912 81070;",
"76373099999","2006-04-14T00:00:00","4","25.35","-105.75","1967.0","TEPEHUANES DGO., MX","FM-12","99999","V020","120,1,N,0020,1","03000,1,C,N","070000,1,N,1","+0298,1","-0014,1","10025,2","24,0013,9,1",,,,,"04,1,+00300,1,08,1","01,1,+03000,1,03,1",,"07,99,1,04,1,02,1,00450,1,03,1,02,1",,"01,9",,"120,M,+0347,1","180,N,+0092,1","99999,9,08184,1","7,1,021,1,-019,1",,"SYN136AAXX  14001 76373 32488 71202 10298 21014 38184 40025 57021 84232 92345 333 10347 20092 30/// 50660 56676 59019 70013 84810 81360 82070;",
"76373099999","2006-04-14T12:00:00","4","25.35","-105.75","1967.0","TEPEHUANES DGO., MX","FM-12","99999","V020","270,1,N,0010,1","22000,1,9,N","000200,1,N,1","+0120,1","+0042,1","10097,1","24,0000,9,1",,,,,"00,1,+99999,9,99,9",,,"00,99,1,00,1,00,1,99999,9,00,1,00,1",,"01,9","999,+0072,1","120,N,+0113,1","240,M,+0347,1","99999,9,99999,9","9,9,999,9,-028,1",,"SYN100AAXX  14121 76373 32902 02701 10120 20042 37211 40097 5//// 91150 333 10347 20113 30072 59028 70000;","Q01  00002PRCP24Q02 072113APOSP "
"76373099999","2006-04-14T15:00:00","4","25.35","-105.75","1967.0","TEPEHUANES DGO., MX","FM-12","99999","V020","310,1,N,0010,1","22000,1,9,N","070000,1,N,1","+0164,1","+0056,1","10132,1",,,,,,"00,1,+99999,9,99,9",,,"00,99,1,00,1,00,1,99999,9,00,1,00,1",,"01,9",,,,,"1,1,010,1,-026,1",,"SYN082AAXX  14151 76373 32988 03101 10164 20056 38221 40132 51010 91450 333 30/// 59026;",
"76373099999","2006-04-14T18:00:00","4","25.35","-105.75","1967.0","TEPEHUANES DGO., MX","FM-12","99999","V020","120,1,N,0020,1","22000,1,9,N","070000,1,N,1","+0276,1","+0049,1","10113,1",,,,,,"01,1,+00300,1,08,1",,,"01,99,1,01,1,01,1,00450,1,00,1,00,1",,"01,9",,"120,M,+0300,1","240,N,+0102,1","99999,9,08214,1","6,1,007,1,-020,1",,"SYN112AAXX  14181 76373 32488 11202 10276 20049 38214 40113 56007 81100 91745 333 10300 20102 30/// 56600 59020 81810;",
"76373099999","2006-04-14T21:00:00","4","25.35","-105.75","1967.0","TEPEHUANES DGO., MX","FM-12","99999","V020","050,1,N,0020,1","22000,1,9,N","070000,1,N,1","+0324,1","+0001,1","99999,9",,,,,,"02,1,+00300,1,08,1",,,"02,99,1,02,1,01,1,00450,1,00,1,00,1",,"01,9",,,,"99999,9,08178,1","6,1,036,1,-027,1",,"SYN100AAXX  14211 76373 32488 20502 10324 20001 38178 40044 56036 82100 92045 333 30/// 56600 59027 82810;",
"76373099999","2006-04-17T12:00:00","4","25.35","-105.75","1967.0","TEPEHUANES DGO., MX","FM-12","99999","V020","300,1,N,0010,1","22000,1,9,N","000200,1,N,1","+0100,1","+0025,1","10090,1","24,0000,9,1",,,,,"02,1,+06000,1,00,1",,,"02,99,1,00,1,00,1,99999,9,00,1,05,1",,"01,9","999,+0065,1","120,N,+0096,1","240,M,+0343,1","99999,9,08195,1",,,"SYN118AAXX  17121 76373 32902 23001 10100 20025 38195 40090 5//// 80005 91150 333 10343 20096 30065 56006 58/// 70000 82070;",
"76373099999","2006-04-17T15:00:00","4","25.35","-105.75","1967.0","TEPEHUANES DGO., MX","FM-12","99999","V020","330,1,N,0010,1","22000,1,9,N","070000,1,N,1","+0168,1","+0046,1","10127,1",,,,,,"02,1,+06000,1,00,1",,,"02,99,1,00,1,00,1,99999,9,00,1,02,1",,"01,9",,,,"99999,9,08205,1","1,1,010,1,+999,9",,"SYN100AAXX  17151 76373 32988 23301 10168 20046 38205 40127 51010 80002 91445 333 30/// 56006 58/// 82070;",
"76373099999","2006-04-17T18:00:00","4","25.35","-105.75","1967.0","TEPEHUANES DGO., MX","FM-12","99999","V020","310,1,N,0020,1","22000,1,9,N","070000,1,N,1","+9999,9","-0012,1","10094,1",,,,,,"01,1,+00360,1,03,1",,,"03,99,1,01,1,03,1,00450,1,00,1,05,1",,"01,9",,"120,M,+0314,1","240,N,+0084,1","99999,9,08188,1","7,1,017,1,+999,9",,"SYN118AAXX  17181 76373 32488 33102 10290 21012 38188 40094 57017 81305 91750 333 10314 20084 30/// 56606 58/// 81312 82070;",
"76373099999","2006-04-18T00:00:00","4","25.35","-105.75","1967.0","TEPEHUANES DGO., MX","FM-12","99999","V020","270,1,N,0070,1","22000,1,9,N","070000,1,N,1","+0300,1","-0041,1","09991,1","24,0000,9,1",,,,,"01,1,+00300,1,08,1",,,"02,99,1,01,1,01,1,00450,1,00,1,01,1",,"01,9",,"120,M,+0348,1","180,N,+0084,1","99999,9,08162,1","7,1,004,1,-009,1",,"SYN130AAXX  18001 76373 32488 22707 10300 21041 38162 49991 57004 81101 92346 333 10348 20084 30/// 50820 56606 59009 70000 81810 81070;",
"76373099999","2006-04-18T12:00:00","4","25.35","-105.75","1967.0","TEPEHUANES DGO., MX","FM-12","99999","V020","290,1,N,0020,1","22000,1,9,N","000200,1,N,1","+0092,1","+0006,1","10085,1","24,0000,9,1",,,,,"00,1,+99999,9,99,9",,,"00,99,1,00,1,00,1,99999,9,00,1,00,1",,"01,9","999,+0042,1","120,N,+0082,1","240,M,+0348,1","99999,9,08188,1","9,9,999,9,-007,1",,"SYN100AAXX  18121 76373 32902 02902 10092 20006 38188 40085 5//// 91150 333 10348 20082 30042 59007 70000;","Q01  00002PRCP24"
"76373099999","2006-04-18T15:00:00","4","25.35","-105.75","1967.0","TEPEHUANES DGO., MX","FM-12","99999","V020","330,1,N,0010,1","22000,1,9,N","070000,1,N,1","+0160,1","+0020,1","10134,1",,,,,,"00,1,+99999,9,99,9",,,"00,99,1,00,1,00,1,99999,9,00,1,00,1",,"01,9",,,,"99999,9,08190,1","0,1,002,1,-015,1",,"SYN082AAXX  18151 76373 32988 03301 10160 20020 38190 40134 50002 91450 333 30/// 59015;",
"76373099999","2006-04-18T18:00:00","4","25.35","-105.75","1967.0","TEPEHUANES DGO., MX","FM-12","99999","V020","060,1,N,0020,1","22000,1,9,N","070000,1,N,1","+0302,1","-0028,1","10072,1",,,,,,"01,1,+02400,1,03,1",,,"02,99,1,01,1,00,1,01250,1,04,1,02,1",,"01,9",,"120,M,+0326,1","240,N,+0082,1","99999,9,08170,1","7,1,020,1,-018,1",,"SYN118AAXX  18181 76373 32688 20602 10302 21028 38170 40072 57020 81042 91750 333 10326 20082 30/// 56066 59018 81358 81070;",
"76373099999","2006-04-18T21:00:00","4","25.35","-105.75","1967.0","TEPEHUANES DGO., MX","FM-12","99999","V020","240,1,N,0070,1","22000,1,9,N","070000,1,N,1","+0328,1","-0033,1","10021,1",,,,,,"01,1,+00300,1,08,1",,,"02,99,1,01,1,01,1,00450,1,03,1,00,1",,"01,9",,,,"99999,9,08158,1","6,1,012,1,-008,1",,"SYN106AAXX  18211 76373 32488 22407 10328 21033 38158 40021 56012 81130 92045 333 30/// 56660 59008 81810 81360;",
"76373099999","2006-04-19T00:00:00","4","25.35","-105.75","1967.0","TEPEHUANES DGO., MX","FM-12","99999","V020","240,1,N,0060,1","22000,1,9,N","070000,1,N,1","+0296,1","-0026,1","09994,1","24,0000,9,1",,,,,,,,"01,99,1,01,1,01,1,00450,1,00,1,00,1",,"01,9",,"120,M,+0350,1","180,N,+0082,1","99999,9,08155,1","7,1,003,1,-007,1",,"SYN124AAXX  19001 76373 32488 12406 10296 21026 38155 49994 57003 81100 92347 333 10350 20082 30/// 50820 56600 59007 70000 81810;",
"76373099999","2006-04-19T12:00:00","4","25.35","-105.75","1967.0","TEPEHUANES DGO., MX","FM-12","99999","V020","999,9,C,0000,1","22000,1,9,N","000200,1,N,1","+0080,1","-0020,1","10076,1","24,0000,9,1",,,,,"00,1,+99999,9,99,9",,,"00,99,1,00,1,00,1,99999,9,00,1,00,1",,"01,9","999,+0036,1","120,N,+0076,1","240,M,+0350,1","99999,9,08175,1","9,9,999,9,-013,1",,"SYN100AAXX  19121 76373 32902 00000 10080 21020 38175 40076 5//// 91150 333 10350 20076 30036 59013 70000;","Q01  00002PRCP24"
"76373099999","2006-04-19T15:00:00","4","25.35","-105.75","1967.0","TEPEHUANES DGO., MX","FM-12","99999","V020","320,1,N,0010,1","22000,1,9,N","070000,1,N,1","+0144,1","-0016,1","10104,1",,,,,,"00,1,+99999,9,99,9",,,"00,99,1,00,1,00,1,99999,9,00,1,00,1",,"01,9",,,,"99999,9,08178,1","0,1,003,1,-015,1",,"SYN082AAXX  19151 76373 32988 03201 10144 21016 38178 40104 50003 91450 333 30/// 59015;",
"76373099999","2006-04-19T18:00:00","4","25.35","-105.75","1967.0","TEPEHUANES DGO., MX","FM-12","99999","V020","280,1,N,0040,1","22000,1,9,N","070000,1,N,1","+9999,9","-0068,1","10074,1",,,,,,"00,1,+99999,9,99,9",,,"00,99,1,00,1,00,1,99999,9,00,1,00,1",,"01,9",,"120,M,+0310,1","240,N,+0063,1","99999,9,08165,1","7,1,013,1,-005,1",,"SYN094AAXX  19181 76373 32988 02804 10290 21068 38165 40074 57013 91750 333 10310 20063 30/// 59005;",
"76373099999","2006-04-20T00:00:00","4","25.35","-105.75","1967.0","TEPEHUANES DGO., MX","FM-12","99999","V020","240,1,N,0040,1","22000,1,9,N","070000,1,N,1","+0276,1","-0027,1","09986,1","24,0000,9,1",,,,,"00,1,+99999,9,99,9",,,"00,99,1,00,1,00,1,99999,9,00,1,00,1",,"01,9",,"120,M,+0322,1","180,N,+0063,1","99999,9,08149,1","6,1,008,1,-006,1",,"SYN106AAXX  20001 76373 32988 02404 10276 21027 38149 49986 56008 92345 333 10322 20063 30/// 50760 59006 70000;","Q01  00002PRCP24"
"76373099999","2006-04-20T12:00:00","4","25.35","-105.75","1967.0","TEPEHUANES DGO., MX","FM-12","99999","V020","999,9,C,0000,1","22000,1,9,N","000200,1,N,1","+0048,1","-0019,1","10102,1","24,0000,9,1",,,,,"00,1,+99999,9,99,9",,,"00,99,1,00,1,00,1,99999,9,00,1,00,1",,"01,9","999,+0012,1","120,N,+0044,1","240,M,+0322,1","99999,9,08179,1","9,9,999,9,+004,1",,"SYN100AAXX  20121 76373 32902 00000 10048 21019 38179 40102 5//// 91150 333 10322 20044 30012 58004 70000;","Q01  00002PRCP24"
"76373099999","2006-04-20T15:00:00","4","25.35","-105.75","1967.0","TEPEHUANES DGO., MX","FM-12","99999","V020","340,1,N,0010,1","22000,1,9,N","070000,1,N,1","+0130,1","+0002,1","10139,1",,,,,,"00,1,+99999,9,99,9",,,"00,99,1,00,1,00,1,99999,9,00,1,00,1",,"01,9",,,,"99999,9,08190,1","1,1,011,1,+012,1",,"SYN082AAXX  20151 76373 32988 03401 10130 20002 38190 40139 51011 91455 333 30/// 58012;",
"76373099999","2006-04-20T18:00:00","4","25.35","-105.75","1967.0","TEPEHUANES DGO., MX","FM-12","99999","V020","120,1,N,0010,1","22000,1,9,N","070000,1,N,1","+0260,1","-0061,1","10109,1",,,,,,"00,1,+99999,9,99,9",,,"00,99,1,00,1,00,1,99999,9,00,1,00,1",,"01,9",,"120,M,+0290,1","240,N,+0036,1","99999,9,08174,1","7,1,016,1,+009,1",,"SYN094AAXX  20181 76373 32988 01201 10260 21061 38174 40109 57016 91750 333 10290 20036 30/// 58009;",
"76373099999","2006-04-20T21:00:00","4","25.35","-105.75","1967.0","TEPEHUANES DGO., MX","FM-12","99999","V020","300,1,N,0050,1","22000,1,9,N","070000,1,N,1","+0308,2","-0087,1","99999,9",,,,,,"00,1,+99999,9,99,9",,,"00,99,1,00,1,00,1,99999,9,00,1,00,1",,"01,9",,,,"99999,9,08153,1","6,1,021,1,-004,1",,"SYN082AAXX  20211 76373 32988 03005 10308 21087 38153 40044 56021 92048 333 30/// 59004;",
"76373099999","2006-04-21T12:00:00","4","25.35","-105.75","1967.0","TEPEHUANES DGO., MX","FM-12","99999","V020","320,1,N,0010,1","22000,1,9,N","000200,1,N,1","+0044,1","-0059,1","10123,1","24,0000,9,1",,,,,"00,1,+99999,9,99,9",,,"00,99,1,00,1,00,1,99999,9,00,1,00,1",,"01,9","999,+0002,1","120,N,+0036,1","240,M,+0332,1","99999,9,08195,1","9,9,999,9,+016,1",,"SYN100AAXX  21121 76373 32902 03201 10044 21059 38195 40123 5//// 91155 333 10332 20036 30002 58016 70000;","Q01  00002PRCP24"
"76373099999","2006-04-21T15:00:00","4","25.35","-105.75","1967.0","TEPEHUANES DGO., MX","FM-12","99999","V020","999,9,C,0000,1","22000,1,9,N","070000,1,N,1","+0126,1","-0031,1","10165,1",,,,,,"00,1,+99999,9,99,9",,,"00,99,1,00,1,00,1,99999,9,00,1,00,1",,"01,9",,,,"99999,9,08208,1","2,1,013,1,+018,1",,"SYN082AAXX  21151 76373 32988 00000 10126 21031 38208 40165 52013 91450 333 30/// 58018;",
"76373099999","2006-04-21T21:00:00","4","25.35","-105.75","1967.0","TEPEHUANES DGO., MX","FM-12","99999","V020","090,1,N,0050,1","06000,1,9,N","070000,1,N,1","+9999,9","-0090,1","99999,9",,,,,,"07,1,+06000,1,02,1",,,"07,99,1,00,1,00,1,99999,9,00,1,08,1",,"01,9",,,,"99999,9,08170,1","6,1,028,1,-017,1",,"SYN100AAXX  21211 76373 32988 70905 10296 21090 38170 40069 56028 80008 92045 333 30/// 56006 59017 87270;",
"76373099999","2006-04-22T12:00:00","4","25.35","-105.75","1967.0","TEPEHUANES DGO., MX","FM-12","99999","V020","999,9,C,0000,1","02400,1,9,N","000200,1,N,1","+0098,1","+0014,1","10104,1","24,0000,9,1",,,,,"05,1,+02400,1,03,1",,,"05,99,1,05,1,00,1,01250,1,03,1,00,1",,"01,9","999,+0068,1","120,N,+0096,1","240,M,+0342,1","99999,9,08202,1","9,9,999,9,+007,1",,"SYN118AAXX  22121 76373 32602 50000 10098 20014 38202 40104 5//// 85030 91150 333 10342 20096 30068 56060 58007 70000 85358;",
"76373099999","2006-04-22T15:00:00","4","25.35","-105.75","1967.0","TEPEHUANES DGO., MX","FM-12","99999","V020","999,9,C,0000,1","22000,1,9,N","070000,1,N,1","+0164,1","+0005,1","10132,1",,,,,,"01,1,+06000,1,00,1",,,"01,99,1,00,1,00,1,99999,9,00,1,01,1",,"01,9",,,,"99999,9,08207,1","0,1,005,1,-001,1",,"SYN100AAXX  22151 76373 32988 10000 10164 20005 38207 40132 50005 80001 91455 333 30/// 56006 59001 81070;",
"76373099999","2006-04-22T18:00:00","4","25.35","-105.75","1967.0","TEPEHUANES DGO., MX","FM-12","99999","V020","070,1,N,0040,1","22000,1,9,N","070000,1,N,1","+9999,9","+0028,1","10093,1",,,,,,"01,1,+00360,1,08,1",,,"03,99,1,01,1,02,1,00450,1,00,1,05,1",,"01,9",,"120,M,+0314,1","240,N,+0088,1","99999,9,08187,1","1,1,020,1,-011,1",,"SYN118AAXX  22181 76373 32488 30704 10294 20028 38187 40093 51020 81205 91750 333 10314 20088 30/// 56606 59011 81812 82070;",
"76373099999","2006-04-23T15:00:00","4","25.35","-105.75","1967.0","TEPEHUANES DGO., MX","FM-12","99999","V020","999,9,C,0000,1","22000,1,9,N","070000,1,N,1","+0158,1","+0031,1","10151,1",,,,,,"02,1,+02400,1,03,1",,,"04,99,1,02,1,00,1,01250,1,03,1,02,1",,"01,9",,,,"99999,9,08222,1","1,1,011,1,+015,1",,"SYN106AAXX  23151 76373 32688 40000 10158 20031 38222 40151 51011 82032 91450 333 30/// 56066 58015 82358 82070;",
"76373099999","2006-04-23T18:00:00","4","25.35","-105.75","1967.0","TEPEHUANES DGO., MX","FM-12","99999","V020","270,1,N,0050,1","22000,1,9,N","070000,1,N,1","+9999,9","-0008,1","10120,1",,,,,,"01,1,+02400,1,04,1",,,"03,99,1,01,1,00,1,01250,1,01,1,02,1",,"01,9",,"120,M,+0300,1","240,N,+0103,1","99999,9,08209,1","7,1,013,1,+022,1",,"SYN118AAXX  23181 76373 32688 32705 10276 21008 38209 40120 57013 81012 91750 333 10300 20103 30/// 56066 58022 81458 82070;",
"76373099999","2006-04-24T12:00:00","4","25.35","-105.75","1967.0","TEPEHUANES DGO., MX","FM-12","99999","V020","999,9,C,0000,1","22000,1,9,N","000200,1,N,1","+0074,1","-0003,1","10123,1","24,0000,9,1",,,,,"03,1,+06000,1,00,1",,,"03,99,1,00,1,00,1,99999,9,00,1,05,1",,"01,9","999,+0040,1","120,N,+0070,1","240,M,+0330,1","99999,9,08206,1","9,9,999,9,-005,1",,"SYN118AAXX  24121 76373 32902 30000 10074 21003 38206 40123 5//// 80005 91150 333 10330 20070 30040 56006 59005 70000 83070;",
"76373099999","2006-04-24T15:00:00","4","25.35","-105.75","1967.0","TEPEHUANES DGO., MX","FM-12","99999","V020","330,1,N,0010,1","22000,1,9,N","070000,1,N,1","+0152,1","+0002,1","10153,1",,,,,,"02,1,+02400,1,03,1",,,"04,99,1,02,1,00,1,01250,1,07,1,04,1",,"01,9",,,,"99999,9,08213,1","1,1,007,1,-009,1",,"SYN106AAXX  24151 76373 31688 43301 10152 20002 38213 40153 51007 82074 91450 333 30/// 56066 59009 82358 82070;",
"76373099999","2006-04-24T18:00:00","4","25.35","-105.75","1967.0","TEPEHUANES DGO., MX","FM-12","99999","V020","040,1,N,0030,1","22000,1,9,N","070000,1,N,1","+9999,9","+0015,1","10125,1",,,,,,"02,1,+02400,1,03,1",,,"02,99,1,02,1,00,1,01250,1,04,1,00,1",,"01,9",,"120,M,+0294,1","240,N,+0060,1","99999,9,08199,1","2,1,014,1,-010,1",,"SYN112AAXX  24181 76373 32688 20403 10266 20015 38199 40125 52014 82040 91750 333 10294 20060 30/// 56060 59010 82358;",
"76373099999","2006-04-25T12:00:00","4","25.35","-105.75","1967.0","TEPEHUANES DGO., MX","FM-12","99999","V020","999,9,C,0000,1","09000,1,C,N","000200,1,N,1","+0068,1","-0013,1","10111,1","24,0000,9,1",,,,,"03,1,+02400,1,03,1",,,"06,99,1,03,1,00,1,01250,1,07,1,02,1",,"01,9","999,+0035,1","120,N,+0064,1","240,M,+0330,1","99999,9,08196,1","9,9,999,9,-010,1",,"SYN124AAXX  25121 76373 32602 60000 10068 21013 38196 40111 5//// 83072 91150 333 10330 20064 30035 56066 59010 70000 83358 83070;",
"76373099999","2006-04-25T15:00:00","4","25.35","-105.75","1967.0","TEPEHUANES DGO., MX","FM-12","99999","V020","330,1,N,0010,1","06000,1,9,N","070000,1,N,1","+0104,1","-0008,1","10155,1",,,,,,"06,1,+06000,1,02,1",,,"06,99,1,00,1,00,1,99999,9,00,1,08,1",,"01,9",,,,"99999,9,08210,1","2,1,014,1,-003,1",,"SYN100AAXX  25151 76373 32988 63301 10104 21008 38210 40155 52014 80008 91450 333 30/// 56006 59003 86270;",
"76373099999","2006-04-25T18:00:00","4","25.35","-105.75","1967.0","TEPEHUANES DGO., MX","FM-12","99999","V020","999,9,C,0000,1","09000,1,C,N","070000,1,N,1","+0236,1","-0006,1","10134,1",,,,,,"04,1,+02400,1,03,1",,,"07,99,1,04,1,00,1,01250,1,03,1,02,1",,"01,9",,"120,M,+0252,1","240,N,+0060,1","99999,9,08198,1","7,1,012,1,-001,1",,"SYN118AAXX  25181 76373 32688 70000 10236 21006 38198 40134 57012 84032 91750 333 10252 20060 30/// 56066 59001 84358 83070;",
"76373099999","2006-04-25T21:00:00","4","25.35","-105.75","1967.0","TEPEHUANES DGO., MX","FM-12","99999","V020","200,1,N,0050,1","09000,1,C,N","070000,1,N,1","+0312,2","+0001,1","99999,9",,,,,,"02,1,+03000,1,03,1",,,"05,99,1,02,1,00,1,01250,1,03,1,02,1",,"01,9",,,,"99999,9,08174,1","6,1,024,1,-006,1",,"SYN106AAXX  25211 76373 32688 52005 10312 20001 38174 40058 56024 82032 92050 333 30/// 56066 59006 82360 83070;",
"76373099999","2006-04-26T12:00:00","4","25.35","-105.75","1967.0","TEPEHUANES DGO., MX","FM-12","99999","V020","999,9,C,0000,1","02400,1,9,N","000200,1,N,1","+0094,1","-0010,1","10109,1","24,0000,9,1",,,,,"08,1,+02400,1,03,1",,,"08,99,1,08,1,00,1,01250,1,03,1,00,1",,"01,9","999,+0050,1","120,N,+0084,1","240,M,+0336,1","99999,9,08201,1","9,9,999,9,+005,1",,"SYN118AAXX  26121 76373 32602 80000 10094 21010 38201 40109 5//// 88030 91250 333 10336 20084 30050 56060 58005 70000 88358;",
"76373099999","2006-04-26T15:00:00","4","25.35","-105.75","1967.0","TEPEHUANES DGO., MX","FM-12","99999","V020","999,9,C,0000,1","02400,1,9,N","070000,1,N,1","+0130,1","-0001,1","10139,1",,,,,,"08,1,+02400,1,03,1",,,"08,99,1,08,1,00,1,01250,1,07,1,00,1",,"01,9",,,,"99999,9,08207,1","1,1,006,1,-003,1",,"SYN100AAXX  26151 76373 32688 80000 10130 21001 38207 40139 51006 88070 91450 333 30/// 56060 59003 88358;",
"76373099999","2006-04-26T18:00:00","4","25.35","-105.75","1967.0","TEPEHUANES DGO., MX","FM-12","99999","V020","110,1,N,0010,1","09000,1,C,N","070000,1,N,1","+9999,9","-0035,1","10120,1",,,,,,"03,1,+02400,1,03,1",,,"05,99,1,03,1,00,1,01250,1,03,1,02,1",,"01,9",,"120,M,+0292,1","240,N,+0082,1","99999,9,08197,1","8,1,010,1,-001,1",,"SYN118AAXX  26181 76373 32688 51101 10260 21035 38197 40120 58010 83032 91750 333 10292 20082 30/// 56076 59001 83358 82070;",
"76373099999","2006-04-27T12:00:00","4","25.35","-105.75","1967.0","TEPEHUANES DGO., MX","FM-12","99999","V020","999,9,C,0000,1","02400,1,9,N","000200,1,N,1","+0090,1","-0021,1","10100,1","24,0000,9,1",,,,,"07,1,+02400,1,03,1",,,"07,99,1,07,1,00,1,01250,1,03,1,00,1",,"01,9","999,+0051,1","120,N,+0083,1","240,M,+0343,1","99999,9,08200,1","9,9,999,9,-001,1",,"SYN118AAXX  27121 76373 32602 70000 10090 21021 38200 40100 5//// 87030 91150 333 10343 20083 30051 56060 59001 70000 87358;",
"76373099999","2006-04-27T15:00:00","4","25.35","-105.75","1967.0","TEPEHUANES DGO., MX","FM-12","99999","V020","320,1,N,0010,1","09000,1,C,N","070000,1,N,1","+0142,1","-0007,1","10132,1",,,,,,"03,1,+03000,1,03,1",,,"05,99,1,03,1,00,1,01250,1,03,1,02,1",,"01,9",,,,"99999,9,08206,1","1,1,006,1,-001,1",,"SYN106AAXX  27151 76373 32688 53201 10142 21007 38206 40132 51006 83032 91457 333 30/// 56066 59001 83360 82070;",
"76373099999","2006-04-27T18:00:00","4","25.35","-105.75","1967.0","TEPEHUANES DGO., MX","FM-12","99999","V020","270,1,N,0050,1","04800,1,9,N","070000,1,N,1","+9999,9","-0022,1","10100,1",,,,,,"07,1,+04800,1,02,1",,,"07,99,1,00,1,00,1,99999,9,00,1,07,1",,"01,9",,"120,M,+0300,1","240,N,+0083,1","99999,9,08188,1","7,1,018,1,-009,1",,"SYN118AAXX  27181 76373 32988 72705 10282 21022 38188 40100 57018 80007 91750 333 10300 20083 30/// 56006 59009 87266 99020;",
"76373099999","2006-04-28T18:00:00","4","25.35","-105.75","1967.0","TEPEHUANES DGO., MX","FM-12","99999","V020","250,1,N,0060,1","22000,1,9,N","070000,1,N,1","+0254,1","-0040,1","10095,1",,,,,,"04,1,+06000,1,00,1",,,"04,99,1,00,1,00,1,99999,9,00,1,06,1",,"01,9",,"120,M,+0272,1","240,N,+0068,1","99999,9,08182,1","2,1,003,1,+006,1",,"SYN112AAXX  28181 76373 32988 42506 10254 21040 38182 40095 52003 80006 91750 333 10272 20068 30/// 56006 58006 84070;",
"76373099999","2006-04-29T15:00:00","4","25.35","-105.75","1967.0","TEPEHUANES DGO., MX","FM-12","99999","V020","320,1,N,0010,1","06000,1,9,N","070000,1,N,1","+0084,1","-0059,1","10177,1",,,,,,"06,1,+06000,1,02,1",,,"06,99,1,00,1,00,1,99999,9,00,1,08,1",,"01,9",,,,"99999,9,08210,1","2,1,019,1,+031,1",,"SYN100AAXX  29151 76373 32988 63201 10084 21059 38210 40177 52019 80008 91448 333 30/// 56006 58031 86270;",
"76373099999","2006-05-01T15:00:00","4","25.35","-105.75","1967.0","TEPEHUANES DGO., MX","FM-12","99999","V020","330,1,N,0040,1","22000,1,9,N","006000,1,N,1","+0132,1","+0010,1","10132,1",,,,"4,1,03,1","4,1,03,1","00,1,+99999,9,99,9",,,"00,99,1,00,1,00,1,99999,9,00,1,00,1",,"01,9",,,,"99999,9,08198,1","2,1,014,1,+999,9","04,1","SYN088AAXX  01151 76373 31956 03304 10132 20010 38198 40132 52014 70444 91448 333 30/// 58///;",
"76373099999","2006-05-01T18:00:00","4","25.35","-105.75","1967.0","TEPEHUANES DGO., MX","FM-12","99999","V020","120,1,N,0030,1","22000,1,9,N","070000,1,N,1","+0274,1","-0048,1","10104,1",,,,"4,1,06,1","4,1,06,1","00,1,+99999,9,99,9",,,"00,99,1,00,1,00,1,99999,9,00,1,00,1",,"01,9",,"120,M,+0300,1","240,N,+0062,1","99999,9,08184,1","6,1,014,1,+999,9","04,1","SYN100AAXX  01181 76373 31988 01203 10274 21048 38184 40104 56014 70444 91748 333 10300 20062 30/// 58///;",
"76373099999","2006-05-01T21:00:00","4","25.35","-105.75","1967.0","TEPEHUANES DGO., MX","FM-12","99999","V020","240,1,N,0040,1","22000,1,9,N","070000,1,N,1","+0308,2","+9999,9","10053,1",,,,,,"00,1,+99999,9,99,9",,,"00,99,1,00,1,00,1,99999,9,00,1,00,1",,"01,9",,,,"99999,9,08169,1","6,1,015,1,+999,9",,"SYN082AAXX  01211 76373 32988 02404 10308 20280 38169 40053 56015 92045 333 30/// 58///;",
"76373099999","2006-05-02T15:00:00","4","25.35","-105.75","1967.0","TEPEHUANES DGO., MX","FM-12","99999","V020","300,1,N,0010,1","22000,1,9,N","030000,1,N,1","+0130,1","-0025,1","10155,1",,,,"4,1,03,1","4,1,03,1","00,1,+99999,9,99,9",,,"00,99,1,00,1,00,1,99999,9,00,1,00,1",,"01,9",,,,"99999,9,08221,1","2,1,015,1,+023,1","04,1","SYN088AAXX  02151 76373 31980 03001 10130 21025 38221 40155 52015 70444 91445 333 30/// 58023;",
"76373099999","2006-05-02T18:00:00","4","25.35","-105.75","1967.0","TEPEHUANES DGO., MX","FM-12","99999","V020","310,1,N,0020,1","22000,1,9,N","070000,1,N,1","+0266,1","+0010,1","10127,1",,,,"4,1,06,1","4,1,06,1","00,1,+99999,9,99,9",,,"00,99,1,00,1,00,1,99999,9,00,1,00,1",,"01,9",,"120,M,+0284,1","240,N,+0042,1","99999,9,08202,1","6,1,019,1,+018,1","04,1","SYN100AAXX  02181 76373 31988 03102 10266 20010 38202 40127 56019 70444 91746 333 10284 20042 30/// 58018;",
"76373099999","2006-05-02T21:00:00","4","25.35","-105.75","1967.0","TEPEHUANES DGO., MX","FM-12","99999","V020","240,1,N,0060,1","22000,1,9,N","030000,1,N,1","+0296,1","-0034,1","10076,1",,,,"4,1,03,1","4,1,03,1","03,1,+06000,1,00,1",,,"03,99,1,00,1,00,1,99999,9,00,1,02,1",,"01,9",,,,"99999,9,08185,1","7,1,017,1,+016,1","05,1","SYN106AAXX  02211 76373 31980 32406 10296 21034 38185 40076 57017 70544 80002 92047 333 30/// 56006 58016 83070;",
"76373099999","2006-05-03T12:00:00","4","25.35","-105.75","1967.0","TEPEHUANES DGO., MX","FM-12","99999","V020","020,1,N,0010,1","03000,1,9,N","000300,1,N,1","+0104,1","-0019,1","10120,1","24,0000,9,1",,,,,"08,1,+03000,1,05,1",,,"08,99,1,08,1,00,1,01250,1,02,1,99,9",,"01,9","999,+0060,1","120,N,+0088,1","240,M,+0324,1","99999,9,08203,1","9,9,999,9,-003,1",,"SYN118AAXX  03121 76373 32603 80201 10104 21019 38203 40120 5//// 8802/ 91150 333 10324 20088 30060 5609/ 59003 70000 88560;",
"76373099999","2006-05-03T15:00:00","4","25.35","-105.75","1967.0","TEPEHUANES DGO., MX","FM-12","99999","V020","999,9,C,0000,1","02400,1,9,N","070000,1,N,1","+0134,1","+0033,1","10153,1",,,,,,"08,1,+02400,1,05,1",,,"08,99,1,08,1,00,1,01250,1,02,1,00,1",,"01,9",,,,"99999,9,08218,1","1,1,005,1,-003,1",,"SYN100AAXX  03151 76373 32688 80000 10134 20033 38218 40153 51005 88020 91450 333 30/// 56060 59003 88558;",
"76373099999","2006-05-03T18:00:00","4","25.35","-105.75","1967.0","TEPEHUANES DGO., MX","FM-12","99999","V020","300,1,N,0020,1","06000,1,9,N","040000,1,N,1","+9999,9","+0001,1","10127,1",,,,"4,1,06,1","4,1,06,1","08,1,+06000,1,02,1",,,"08,99,1,00,1,00,1,99999,9,00,1,07,1",,"01,9",,"120,M,+0272,1","240,N,+0088,1","99999,9,08204,1","6,1,014,1,+002,1","04,1","SYN124AAXX  03181 76373 31982 83002 10252 20001 38204 40127 56014 70444 80007 91749 333 10272 20088 30/// 56003 58002 88270 99020;",
"76373099999","2006-05-04T12:00:00","4","25.35","-105.75","1967.0","TEPEHUANES DGO., MX","FM-12","99999","V020","320,1,N,0010,1","02400,1,9,N","000400,1,N,1","+0126,1","+0035,1","10118,1","24,0000,9,1",,,,,"08,1,+02400,1,03,1",,,"08,99,1,08,1,00,1,01250,1,07,1,99,9",,"01,9","999,+0104,1","120,N,+0123,1","240,M,+0310,1","99999,9,08215,1","9,9,999,9,+012,1",,"SYN118AAXX  04121 76373 32604 83201 10126 20035 38215 40118 5//// 8807/ 91150 333 10310 20123 30104 5606/ 58012 70000 88358;",
"76373099999","2006-05-04T15:00:00","4","25.35","-105.75","1967.0","TEPEHUANES DGO., MX","FM-12","99999","V020","310,1,N,0020,1","22000,1,9,N","001500,1,N,1","+0182,1","+0039,1","10139,1",,,,"4,1,03,1","1,1,03,1","03,1,+02400,1,03,1",,,"04,99,1,03,1,00,1,01250,1,03,1,02,1",,"01,9",,,,"99999,9,08222,1","1,1,007,1,+004,1","04,1","SYN112AAXX  04151 76373 31615 43102 10182 20039 38222 40139 51007 70441 83032 91450 333 30/// 56066 58004 83358 81070;",
"76373099999","2006-05-04T18:00:00","4","25.35","-105.75","1967.0","TEPEHUANES DGO., MX","FM-12","99999","V020","280,1,N,0030,1","22000,1,9,N","015000,1,N,1","+0262,1","-0026,1","10113,1",,,,"4,1,06,1","4,1,06,1","02,1,+03000,1,03,1",,,"02,99,1,02,1,00,1,01250,1,04,1,00,1",,"01,9",,"120,M,+0290,1","240,N,+0118,1","99999,9,08210,1","7,1,012,1,-006,1","04,1","SYN118AAXX  04181 76373 31665 22803 10262 21026 38210 40113 57012 70444 82040 91750 333 10290 20118 30/// 56060 59006 82360;",
"76373099999","2006-05-05T00:00:00","4","25.35","-105.75","1967.0","TEPEHUANES DGO., MX","FM-12","99999","V020","270,1,N,0060,1","99999,9,9,N","008000,1,N,1","+0270,1","-0028,1","10025,1","24,0000,9,1",,,"4,1,06,1","4,1,06,1",,,,"06,99,1,00,1,00,1,99999,9,00,1,08,1",,"01,9",,"120,M,+0306,1","180,N,+0118,1","99999,9,08181,1","7,1,008,1,-005,1","04,1","SYN130AAXX  05001 76373 31958 62706 10270 21028 38181 40025 57008 70444 80008 92349 333 10306 20118 30/// 50870 56006 59005 70000 86270;",
"76373099999","2006-05-05T12:00:00","4","25.35","-105.75","1967.0","TEPEHUANES DGO., MX","FM-12","99999","V020","280,1,N,0010,1","22000,1,9,N","001000,1,N,1","+0084,1","+0001,1","10120,1","24,0000,9,1",,,,,"02,1,+02400,1,03,1",,,"02,99,1,02,1,00,1,01250,1,04,1,00,1",,"01,9","999,+0050,1","120,N,+0084,1","240,M,+0306,1","99999,9,08210,1","9,9,999,9,-005,1",,"SYN118AAXX  05121 76373 32610 22801 10084 20001 38210 40120 5//// 82040 91150 333 10306 20084 30050 56060 59005 70000 82358;",
"76373099999","2006-05-05T15:00:00","4","25.35","-105.75","1967.0","TEPEHUANES DGO., MX","FM-12","99999","V020","999,9,C,0000,1","22000,1,9,N","015000,1,N,1","+0160,1","+0005,1","10146,1",,,,"4,1,03,1","4,1,03,1","02,1,+06000,1,00,1",,,"02,99,1,00,1,00,1,99999,9,00,1,02,1",,"01,9",,,,"99999,9,08213,1","0,1,003,1,-009,1","04,1","SYN106AAXX  05151 76373 31965 20000 10160 20005 38213 40146 50003 70444 80002 91450 333 30/// 56006 59009 82070;",
"76373099999","2006-05-05T18:00:00","4","25.35","-105.75","1967.0","TEPEHUANES DGO., MX","FM-12","99999","V020","300,1,N,0060,1","06000,1,9,N","050000,1,N,1","+0276,1","-0078,1","10106,1",,,,"4,1,06,1","4,1,06,1","06,1,+06000,1,02,1",,,"06,99,1,00,1,00,1,99999,9,00,1,08,1",,"01,9",,"120,M,+0290,1","240,N,+0065,1","99999,9,08194,1","7,1,019,1,-016,1","04,1","SYN118AAXX  05181 76373 31984 63006 10276 21078 38194 40106 57019 70444 80008 91748 333 10290 20065 30/// 56009 59016 86270;",
"76373099999","2006-05-05T21:00:00","4","25.35","-105.75","1967.0","TEPEHUANES DGO., MX","FM-12","99999","V020","300,1,N,0070,1","22000,1,9,N","010000,1,N,1","+0304,1","-0023,1","99999,9",,,,"4,1,03,1","4,1,03,1","02,1,+06000,1,00,1",,,"03,99,1,00,1,00,1,99999,9,00,1,02,1",,"01,9",,,,"99999,9,08168,1","6,1,026,1,-021,1","04,1","SYN106AAXX  05211 76373 31960 33007 10304 21023 38168 40046 56026 70444 80002 92045 333 30/// 56006 59021 82070;",
"76373099999","2006-05-06T12:00:00","4","25.35","-105.75","1967.0","TEPEHUANES DGO., MX","FM-12","99999","V020","999,9,C,0000,1","22000,1,9,N","000300,1,N,1","+0064,1","+0001,1","10113,1","24,0000,9,1",,,"4,1,06,1","4,1,06,1","02,1,+03000,1,03,1",,,"02,99,1,02,1,00,1,01250,1,04,1,00,1",,"01,9","999,+0032,1","120,N,+0064,1","240,M,+0320,1","99999,9,08200,1","9,9,999,9,-010,1","04,1","SYN124AAXX  06121 76373 31603 20000 10064 20001 38200 40113 5//// 70444 82040 91155 333 10320 20064 30032 56090 59010 70000 82360;",
"76373099999","2006-05-06T15:00:00","4","25.35","-105.75","1967.0","TEPEHUANES DGO., MX","FM-12","99999","V020","999,9,C,0000,1","06000,1,9,N","015000,1,N,1","+0162,1","+0018,1","10141,1",,,,"4,1,03,1","4,1,03,1","05,1,+06000,1,02,1",,,"05,99,1,00,1,00,1,99999,9,00,1,08,1",,"01,9",,,,"99999,9,08204,1","1,1,004,1,-009,1","04,1","SYN106AAXX  06151 76373 31965 50000 10162 20018 38204 40141 51004 70444 80008 91450 333 30/// 56006 59009 85270;",
"76373099999","2006-05-06T18:00:00","4","25.35","-105.75","1967.0","TEPEHUANES DGO., MX","FM-12","99999","V020","320,1,N,0040,1","22000,1,9,N","015000,1,N,1","+0266,1","-0060,1","10109,1",,,,"4,1,06,1","4,1,06,1","02,1,+06000,1,00,1",,,"02,99,1,00,1,00,1,99999,9,00,1,05,1",,"01,9",,"120,M,+0288,1","240,N,+0056,1","99999,9,08187,1","7,1,017,1,-007,1","04,1","SYN118AAXX  06181 76373 31965 23204 10266 21060 38187 40109 57017 70444 80005 91750 333 10288 20056 30/// 56006 59007 82070;",
"76373099999","2006-05-06T21:00:00","4","25.35","-105.75","1967.0","TEPEHUANES DGO., MX","FM-12","99999","V020","310,1,N,0040,1","05400,1,9,N","015000,1,N,1","+0308,1","-0044,1","99999,9",,,,"4,1,03,1","4,1,03,1","08,1,+05400,1,02,1",,,"08,99,1,00,1,00,1,99999,9,00,1,08,1",,"01,9",,,,"99999,9,08166,1","6,1,021,1,-002,1","04,1","SYN106AAXX  06211 76373 31965 83104 10308 21044 38166 40048 56021 70444 80008 92050 333 30/// 56006 59002 88268;",
"76373099999","2006-05-07T12:00:00","4","25.35","-105.75","1967.0","TEPEHUANES DGO., MX","FM-12","99999","V020","280,1,N,0010,1","09000,1,C,N","000300,1,N,1","+0084,1","-0020,1","10088,1","24,0000,9,1",,,,,"04,1,+02400,1,03,1",,,"06,99,1,04,1,00,1,01250,1,03,1,09,1",,"01,9","999,+0052,1","120,N,+0080,1","240,M,+0326,1","99999,9,08188,1","9,9,999,9,-012,1",,"SYN124AAXX  07121 76373 32603 62801 10084 21020 38188 40088 5//// 84039 91150 333 10326 20080 30052 56066 59012 70000 84358 82168;",
"76373099999","2006-05-07T15:00:00","4","25.35","-105.75","1967.0","TEPEHUANES DGO., MX","FM-12","99999","V020","999,9,C,0000,1","02400,1,9,N","015000,1,N,1","+0140,1","-0010,1","10123,1",,,,"4,1,03,1","4,1,03,1","08,1,+02400,1,03,1",,,"08,99,1,08,1,00,1,01250,1,03,1,00,1",,"01,9",,,,"99999,9,08195,1","1,1,007,1,-009,1","04,1","SYN106AAXX  07151 76373 31665 80000 10140 21010 38195 40123 51007 70444 88030 91450 333 30/// 56060 59009 88358;",
"76373099999","2006-05-07T18:00:00","4","25.35","-105.75","1967.0","TEPEHUANES DGO., MX","FM-12","99999","V020","330,1,N,0020,1","09000,1,C,N","015000,1,N,1","+0268,1","-0041,1","10095,1",,,,"4,1,06,1","4,1,06,1","01,1,+02400,1,03,1",,,"08,99,1,02,1,00,1,01250,1,04,1,08,1",,"01,9",,"120,M,+0290,1","240,N,+0080,1","99999,9,08181,1","7,1,014,1,-006,1","04,1","SYN124AAXX  07181 76373 31665 83302 10268 21041 38181 40095 57014 70444 82048 91750 333 10290 20080 30/// 56066 59006 81358 87268;",
"76373099999","2006-05-07T21:00:00","4","25.35","-105.75","1967.0","TEPEHUANES DGO., MX","FM-12","99999","V020","240,1,N,0060,1","02400,1,9,N","015000,1,N,1","+0322,2","-0058,1","10039,1",,,,"4,1,03,1","4,1,03,1","05,1,+02400,1,03,1",,,"08,99,1,05,1,00,1,01250,1,03,1,05,1",,"01,9",,,,"99999,9,08159,1","7,1,022,1,-007,1","04,1","SYN112AAXX  07211 76373 31665 82406 10322 21058 38159 40039 57022 70444 85035 92053 333 30/// 56076 59007 85358 83068;",
"76373099999","2006-05-08T12:00:00","4","25.35","-105.75","1967.0","TEPEHUANES DGO., MX","FM-12","99999","V020","999,9,C,0000,1","22000,1,9,N","000400,1,N,1","+0116,1","-0024,1","10088,1","24,0000,9,1",,,"4,1,06,1","4,1,06,1","04,1,+02400,1,03,1",,,"04,99,1,04,1,00,1,01250,1,03,1,00,1",,"01,9","999,+0082,1","120,N,+0108,1","240,M,+0341,1","99999,9,08197,1","9,9,999,9,-009,1","04,1","SYN124AAXX  08121 76373 31604 40000 10116 21024 38197 40088 5//// 70444 84030 91150 333 10341 20108 30082 56060 59009 70000 84358;",
"76373099999","2006-05-08T15:00:00","4","25.35","-105.75","1967.0","TEPEHUANES DGO., MX","FM-12","99999","V020","999,9,C,0000,1","02400,1,9,N","015000,1,N,1","+0150,1","-0001,1","10125,1",,,,"4,1,03,1","4,1,03,1","08,1,+02400,1,03,1",,,"08,99,1,08,1,00,1,01250,1,03,1,00,1",,"01,9",,,,"99999,9,08209,1","2,1,012,1,+014,1","04,1","SYN106AAXX  08151 76373 31665 80000 10150 21001 38209 40125 52012 70444 88030 91450 333 30/// 56060 58014 88358;",
"76373099999","2006-05-08T18:00:00","4","25.35","-105.75","1967.0","TEPEHUANES DGO., MX","FM-12","99999","V020","999,9,C,0000,1","03000,1,9,N","020000,1,N,1","+0254,1","-0034,1","99999,9",,,,"4,1,06,1","4,1,06,1","05,1,+03000,1,03,1",,,"05,99,1,05,1,00,1,01250,1,06,1,00,1",,"01,9",,"120,M,+0262,1","240,N,+0098,1","99999,9,08195,1","6,1,014,1,-014,1","04,1","SYN118AAXX  08181 76373 31670 50000 10254 21034 38195 40051 56014 70444 85060 91745 333 10262 20098 30/// 56060 59014 85360;",
"76373099999","2006-05-09T12:00:00","4","25.35","-105.75","1967.0","TEPEHUANES DGO., MX","FM-12","99999","V020","280,1,N,0010,1","22000,1,9,N","000500,1,N,1","+0128,1","+0019,1","10074,1","24,0000,9,1",,,"4,1,06,1","4,1,06,1","08,1,+01500,1,03,1",,,"99,99,9,08,1,00,1,01250,1,06,1,00,1",,"01,9","999,+0102,1","120,N,+0128,1","240,M,+0336,1","99999,9,08182,1","9,9,999,9,-015,1","04,1","SYN124AAXX  09121 76373 32605 22801 10128 20019 38182 40074 5//// 70444 88060 91150 333 10336 20128 30102 56060 59015 70000 88350;",
"76373099999","2006-05-09T15:00:00","4","25.35","-105.75","1967.0","TEPEHUANES DGO., MX","FM-12","99999","V020","280,1,N,0030,1","01800,1,9,N","020000,1,N,1","+0182,1","+0016,1","10113,1",,,,,,"08,1,+01800,1,03,1",,,"08,99,1,08,1,00,1,01250,1,06,1,00,1",,"01,9",,,,"99999,9,08201,1","2,1,019,1,-008,1",,"SYN100AAXX  09151 76373 32670 82803 10182 20016 38201 40113 52019 88060 91450 333 30/// 56060 59008 88356;",
"76373099999","2006-05-09T18:00:00","4","25.35","-105.75","1967.0","TEPEHUANES DGO., MX","FM-12","99999","V020","130,1,N,0040,1","03600,1,C,N","070000,1,N,1","+0222,1","+0045,1","10111,1","01,0000,2,1",,,"5,1,06,1","5,1,06,1","01,1,+00300,1,08,1","02,1,+00300,1,06,1",,"08,99,1,02,1,06,1,00450,1,07,1,00,1",,"01,9",,"120,M,+0232,1","240,N,+0126,1","99999,9,08204,1","2,1,003,1,+009,1","16,1","SYN136AAXX  09181 76373 21488 81304 10222 20045 38204 40111 52003 71655 82670 91750 333 10232 20126 30/// 56660 58009 69905 81810 82610 85460;",
"76373099999","2006-05-10T12:00:00","4","25.35","-105.75","1967.0","TEPEHUANES DGO., MX","FM-12","99999","V020","999,9,C,0000,1","22000,1,9,N","001000,1,N,1","+0058,1","+0020,1","10141,1","24,0000,9,1",,,,,"00,1,+99999,9,99,9",,,"00,99,1,00,1,00,1,99999,9,00,1,00,1",,"01,9","999,+0033,1","120,N,+0055,1","240,M,+0265,1","99999,9,08204,1","9,9,999,9,+022,1",,"SYN100AAXX  10121 76373 32910 00000 10058 20020 38204 40141 5//// 91150 333 10265 20055 30033 58022 70000;","Q01  00002PRCP24"
"76373099999","2006-05-10T15:00:00","4","25.35","-105.75","1967.0","TEPEHUANES DGO., MX","FM-12","99999","V020","999,9,C,0000,1","22000,1,9,N","070000,1,N,1","+0156,1","+0047,1","10170,1",,,,,,"00,1,+99999,9,99,9",,,"00,99,1,00,1,00,1,99999,9,00,1,00,1",,"01,9",,,,"99999,9,08213,1","2,1,009,1,+012,1",,"SYN082AAXX  10151 76373 32988 00000 10156 20047 38213 40170 52009 91450 333 30/// 58012;",
"76373099999","2006-05-10T18:00:00","4","25.35","-105.75","1967.0","TEPEHUANES DGO., MX","FM-12","99999","V020","120,1,N,0030,1","22000,1,9,N","070000,1,N,1","+0276,1","+0010,1","10130,1",,,,,,"01,1,+00300,1,08,1",,,"01,99,1,01,1,01,1,00450,1,00,1,00,1",,"01,9",,"120,M,+0298,1","240,N,+0053,1","99999,9,08199,1","7,1,014,1,-005,1",,"SYN112AAXX  10181 76373 32488 11203 10276 20010 38199 40130 57014 81100 91750 333 10298 20053 30/// 56600 59005 81810;",
"76373099999","2006-05-10T21:00:00","4","25.35","-105.75","1967.0","TEPEHUANES DGO., MX","FM-12","99999","V020","150,1,N,0020,1","22000,1,9,N","070000,1,N,1","+0312,1","+0009,1","10058,1",,,,,,"02,1,+00300,1,08,1",,,"02,99,1,02,1,01,1,00450,1,00,1,00,1",,"01,9",,,,"99999,9,08172,1","6,1,027,1,-028,1",,"SYN100AAXX  10211 76373 32488 21502 10312 20009 38172 40058 56027 82100 92045 333 30/// 56600 59028 82810;",
"76373099999","2006-05-11T00:00:00","4","25.35","-105.75","1967.0","TEPEHUANES DGO., MX","FM-12","99999","V020","210,1,N,0040,1","22000,1,9,N","060000,1,N,1","+0306,1","-0049,1","10012,1","24,0000,9,1",,,"4,1,06,1","4,1,06,1","00,1,+99999,9,99,9",,,"00,99,1,00,1,00,1,99999,9,00,1,00,1",,"01,9",,"120,M,+0345,1","180,N,+0053,1","99999,9,08171,1","7,1,001,1,-025,1","04,1","SYN112AAXX  11001 76373 31986 02104 10306 21049 38171 40012 57001 70444 92346 333 10345 20053 30/// 50590 59025 70000;","Q01  00002PRCP24"
"76373099999","2006-05-11T12:00:00","4","25.35","-105.75","1967.0","TEPEHUANES DGO., MX","FM-12","99999","V020","999,9,C,0000,1","22000,1,9,N","001000,1,N,1","+0110,1","+0024,1","10100,1","24,0000,9,1",,,,,"01,1,+03000,1,03,1",,,"01,99,1,01,1,00,1,01250,1,04,1,00,1",,"01,9","999,+0072,1","120,N,+0108,1","240,M,+0345,1","99999,9,08205,1","9,9,999,9,+001,1",,"SYN118AAXX  11121 76373 32610 10000 10110 20024 38205 40100 5//// 81040 91150 333 10345 20108 30072 56060 58001 70000 81360;",
"76373099999","2006-05-11T15:00:00","4","25.35","-105.75","1967.0","TEPEHUANES DGO., MX","FM-12","99999","V020","330,1,N,0010,1","22000,1,9,N","015000,1,N,1","+0174,1","+0051,1","10127,1",,,,,,"00,1,+99999,9,99,9",,,"00,99,1,00,1,00,1,99999,9,00,1,00,1",,"01,9",,,,"99999,9,08213,1","1,1,008,1,+000,1",,"SYN082AAXX  11151 76373 31965 03301 10174 20051 38213 40127 51008 91450 333 30/// 58000;",
"76373099999","2006-05-11T18:00:00","4","25.35","-105.75","1967.0","TEPEHUANES DGO., MX","FM-12","99999","V020","100,1,N,0030,1","22000,1,9,N","070000,1,N,1","+9999,9","+0027,1","10093,1",,,,,,"01,1,+00300,1,08,1",,,"01,99,1,01,1,01,1,00450,1,00,1,00,1",,"01,9",,"120,M,+0312,1","240,N,+0097,1","99999,9,08200,1","7,1,013,1,+001,1",,"SYN112AAXX  11181 76373 32488 11003 10290 20027 38200 40093 57013 81100 91746 333 10312 20097 30/// 56600 58001 81810;",
"76373099999","2006-05-12T12:00:00","4","25.35","-105.75","1967.0","TEPEHUANES DGO., MX","FM-12","99999","V020","999,9,C,0000,1","22000,1,9,N","001000,1,N,1","+0086,1","+0012,1","10097,1","24,0000,9,1",,,,,"02,1,+02400,1,03,1",,,"02,99,1,02,1,00,1,01250,1,04,1,00,1",,"01,9","999,+0052,1","120,N,+0084,1","240,M,+0362,1","99999,9,08203,1","9,9,999,9,-002,1",,"SYN118AAXX  12121 76373 31610 20200 10086 20012 38203 40097 5//// 82040 91150 333 10362 20084 30052 56060 59002 70000 82358;",
"76373099999","2006-05-12T15:00:00","4","25.35","-105.75","1967.0","TEPEHUANES DGO., MX","FM-12","99999","V020","050,1,N,0010,1","22000,1,9,N","028000,1,N,1","+0152,1","+0028,1","10132,1",,,,"4,1,03,1","4,1,03,1","01,1,+06000,1,00,1",,,"01,99,1,00,1,00,1,99999,9,00,1,02,1",,"01,9",,,,"99999,9,08213,1","2,1,010,1,+000,1","04,1","SYN106AAXX  12151 76373 31978 10501 10152 20028 38213 40132 52010 70444 80002 91445 333 30/// 56006 58000 81070;",
"76373099999","2006-05-12T18:00:00","4","25.35","-105.75","1967.0","TEPEHUANES DGO., MX","FM-12","99999","V020","110,1,N,0020,1","22000,1,9,N","060000,1,N,1","+9999,9","+0013,1","99999,9",,,,"4,1,06,1","4,1,06,1","00,1,+99999,9,99,9",,,"00,99,1,00,1,00,1,99999,9,00,1,00,1",,"01,9",,"120,M,+0314,1","240,N,+0080,1","99999,9,08198,1","6,1,015,1,-002,1","04,1","SYN100AAXX  12181 76373 31986 01102 10290 20013 38198 40051 56015 70444 91750 333 10314 20080 30/// 59002;",
"76373099999","2006-05-13T15:00:00","4","25.35","-105.75","1967.0","TEPEHUANES DGO., MX","FM-12","99999","V020","330,1,N,0010,1","22000,1,9,N","070000,1,N,1","+0174,1","+0058,1","10137,1",,,,"4,1,03,1","4,1,03,1","00,1,+99999,9,99,9",,,"00,99,1,00,1,00,1,99999,9,00,1,00,1",,"01,9",,,,"99999,9,08216,1","2,1,011,1,+003,1","04,1","SYN088AAXX  13151 76373 31988 03301 10174 20058 38216 40137 52011 70444 91445 333 30/// 58003;",
"76373099999","2006-05-13T18:00:00","4","25.35","-105.75","1967.0","TEPEHUANES DGO., MX","FM-12","99999","V020","060,1,N,0020,1","22000,1,9,N","070000,1,N,1","+9999,9","+0027,1","10106,1",,,,"4,1,06,1","4,1,06,1","02,1,+06000,1,00,1",,,"02,99,1,00,1,00,1,99999,9,00,1,02,1",,"01,9",,"120,M,+0312,1","240,N,+0096,1","99999,9,08201,1","6,1,015,1,+003,1","04,1","SYN118AAXX  13181 76373 31988 20602 10290 20027 38201 40106 56015 70444 80002 91745 333 10312 20096 30/// 56006 58003 82070;",
"76373099999","2006-05-15T12:00:00","4","25.35","-105.75","1967.0","TEPEHUANES DGO., MX","FM-12","99999","V020","999,9,C,0000,1","22000,1,9,N","001000,1,N,1","+0110,1","+0005,1","10097,1","24,0000,9,1",,,"4,1,06,1","4,1,06,1","01,1,+02400,1,03,1",,,"03,99,1,01,1,00,1,01250,1,04,1,05,1",,"01,9","999,+0060,1","120,N,+9999,9","240,M,+0349,1","99999,9,08206,1","9,9,999,9,-014,1","04,1","SYN130AAXX  15121 76373 31610 30000 10110 20005 38206 40097 5//// 70444 81045 91150 333 10349 20118 30060 56066 59014 70000 81358 82070;","Q01 +01182ATMN  "
"76373099999","2006-05-15T15:00:00","4","25.35","-105.75","1967.0","TEPEHUANES DGO., MX","FM-12","99999","V020","280,1,N,0010,1","22000,1,9,N","015000,1,N,1","+0178,1","+0047,1","10127,1",,,,,,"04,1,+06000,1,00,1",,,"04,99,1,00,1,00,1,99999,9,00,1,02,1",,"01,9",,,,"99999,9,08213,1","0,1,007,1,+999,9",,"SYN100AAXX  15151 76373 31965 42801 10178 20047 38213 40127 50007 80002 91450 333 30/// 56006 58/// 84070;",
"76373099999","2006-05-15T18:00:00","4","25.35","-105.75","1967.0","TEPEHUANES DGO., MX","FM-12","99999","V020","090,1,N,0020,1","06000,1,9,N","070000,1,N,1","+9999,9","+0013,1","10106,1",,,,"4,1,06,1","4,1,06,1","08,1,+06000,1,02,1",,,"08,99,1,00,1,00,1,99999,9,00,1,07,1",,"01,9",,"120,M,+0326,1","240,N,+0098,1","99999,9,08206,1","7,1,007,1,+999,9","04,1","SYN124AAXX  15181 76373 31988 80902 10302 20013 38206 40106 57007 70444 80007 91750 333 10326 20098 30/// 56006 58/// 88270 99020;",
"76373099999","2006-05-16T12:00:00","4","25.35","-105.75","1967.0","TEPEHUANES DGO., MX","FM-12","99999","V020","999,9,C,0000,1","09000,1,C,N","001000,1,N,1","+0126,1","+0081,1","10123,1","24,0000,9,1",,,,,"02,1,+02400,1,03,1",,,"05,99,1,02,1,00,1,01250,1,01,1,03,1",,"01,9","999,+0090,1","120,N,+0126,1","240,M,+0355,1","99999,9,08230,1","9,9,999,9,+024,1",,"SYN124AAXX  16121 76373 32610 50000 10126 20081 38230 40123 5//// 82013 91150 333 10355 20126 30090 56066 58024 79999 82358 83070;","Q01  00002PRCP24"
"76373099999","2006-05-16T15:00:00","4","25.35","-105.75","1967.0","TEPEHUANES DGO., MX","FM-12","99999","V020","340,1,N,0010,1","06000,1,9,N","030000,1,N,1","+0166,1","+0101,1","10146,1",,,,,,"08,1,+06000,1,02,1",,,"08,99,1,00,1,00,1,99999,9,00,1,08,1",,"01,9",,,,"99999,9,08234,1","0,1,004,1,+021,1",,"SYN100AAXX  16151 76373 32980 83401 10166 20101 38234 40146 50004 80008 91450 333 30/// 56006 58021 88270;",
"76373099999","2006-05-16T18:00:00","4","25.35","-105.75","1967.0","TEPEHUANES DGO., MX","FM-12","99999","V020","100,1,N,0040,1","09000,1,C,N","070000,1,N,1","+0250,1","+0122,1","10125,1",,,,,,"02,1,+00300,1,09,1",,,"08,99,1,02,1,03,1,00450,1,00,1,08,1",,"01,9",,"120,M,+0270,1","240,N,+0116,1","99999,9,08224,1","6,1,010,1,-018,1",,"SYN118AAXX  16181 76373 32488 81004 10250 20122 38224 40125 56010 82308 91745 333 10270 20116 30/// 56606 59018 82910 87270;",
"76373099999","2006-05-16T21:00:00","4","25.35","-105.75","1967.0","TEPEHUANES DGO., MX","FM-12","99999","V020","160,1,N,0050,1","00300,1,9,N","070000,1,N,1","+0246,1","+0093,1","10083,1","01,0000,2,1",,,"9,1,03,1","5,1,03,1","05,1,+00300,1,09,1",,,"08,99,1,08,1,09,1,00450,1,00,1,00,1",,"01,9",,,,"99999,9,08202,1","6,1,022,1,+019,1","50,1","SYN118AAXX  16211 76373 11488 81605 10246 20093 38202 40083 56022 69905 75095 88900 92045 333 30/// 56600 58019 85910 83610;",
"76373099999","2006-05-17T00:00:00","4","25.35","-105.75","1967.0","TEPEHUANES DGO., MX","FM-12","99999","V020","300,1,N,0050,1","00300,1,C,N","070000,1,N,1","+0194,1","+0122,1","10055,1","01,0000,2,1","03,9999,2,9","24,9999,2,9","9,1,06,1","5,1,06,1","05,1,+00300,1,09,1",,,"08,99,1,08,1,09,1,00450,1,00,1,00,1",,"01,9",,"120,M,+0298,1","180,N,+0116,1","99999,9,08189,1","7,1,013,1,+600,1","50,1","SYN148AAXX  17001 76373 01488 83005 10194 20122 38189 40055 57013 69905 75095 88900 92345 333 10298 20116 30/// 50780 58600 58018 69907 79999 85910 83610;",
"76373099999","2006-05-17T15:00:00","4","25.35","-105.75","1967.0","TEPEHUANES DGO., MX","FM-12","99999","V020","300,1,N,0010,1","22000,1,9,N","070000,1,N,1","+0150,1","+0115,1","10160,1","15,0020,9,1",,,,,"02,1,+00300,1,08,1",,,"02,99,1,02,1,01,1,00450,1,00,1,00,1",,"09,9",,,,"99999,9,08228,1","2,1,010,1,+015,1",,"SYN112AAXX  17151 76373 02488 23001 10150 20115 38228 40160 52010 60029 82100 91445 333 31/// 56600 58015 60029 82810;",
"76373099999","2006-05-17T18:00:00","4","25.35","-105.75","1967.0","TEPEHUANES DGO., MX","FM-12","99999","V020","120,1,N,0030,1","00420,1,C,N","070000,1,N,1","+0214,1","+0128,1","10141,1",,,,,,"02,1,+00300,1,08,1",,,"05,99,1,05,1,03,1,00450,1,00,1,00,1",,"01,9",,"120,M,+0242,1","240,N,+0098,1","99999,9,08222,1","6,1,006,1,-002,1",,"SYN118AAXX  17181 76373 32488 51203 10214 20128 38222 40141 56006 85300 91745 333 10242 20098 30/// 56600 59002 82810 83910;",
"76373099999","2006-05-17T21:00:00","4","25.35","-105.75","1967.0","TEPEHUANES DGO., MX","FM-12","99999","V020","120,1,N,0050,1","00300,1,9,N","070000,1,N,1","+0254,1","+0099,1","10086,1",,,,,,"04,1,+00300,1,09,1","01,1,+00300,1,08,1",,"06,99,1,05,1,03,1,00450,1,03,1,00,1",,"01,9",,,,"99999,9,08192,1","6,1,030,1,-010,1",,"SYN112AAXX  17211 76373 32488 61205 10254 20099 38192 40086 56030 85330 92045 333 30/// 56660 59010 81810 84910 81360;",
"76373099999","2006-05-18T12:00:00","4","25.35","-105.75","1967.0","TEPEHUANES DGO., MX","FM-12","99999","V020","999,9,C,0000,1","22000,1,9,N","001000,1,N,1","+0096,1","+0089,1","10165,1","06,0140,9,1","12,0140,9,1","24,0142,9,1",,,"01,1,+00360,1,08,1",,,"03,99,1,01,1,01,1,00450,1,05,1,00,1",,"01,9","999,+0080,1","120,N,+0094,1","240,M,+0288,1","99999,9,08221,1","9,9,999,9,+004,1",,"SYN136AAXX  18121 76373 02410 30000 10096 20089 38221 40165 5//// 60142 81150 91150 333 10288 20094 30080 56660 58004 60141 70142 81812 82358;",
"76373099999","2006-05-18T15:00:00","4","25.35","-105.75","1967.0","TEPEHUANES DGO., MX","FM-12","99999","V020","270,1,N,0010,1","22000,1,9,N","070000,1,N,1","+0140,1","+0097,1","10176,1",,,,,,"01,1,+00360,1,09,1","01,1,+02400,1,03,1",,"03,99,1,01,1,03,1,00450,1,04,1,02,1",,"09,9",,,,"99999,9,08227,1","1,1,006,1,+002,1",,"SYN112AAXX  18151 76373 32488 32701 10140 20097 38227 40176 51006 81342 91450 333 31/// 56666 58002 81912 81358 81070;",
"76373099999","2006-05-18T18:00:00","4","25.35","-105.75","1967.0","TEPEHUANES DGO., MX","FM-12","99999","V020","120,1,N,0020,1","22000,1,9,N","070000,1,N,1","+0214,1","+0122,1","10165,1",,,,,,"01,1,+00300,1,08,1",,,"03,99,1,03,1,03,1,00450,1,00,1,00,1",,"01,9",,"120,M,+0232,1","240,N,+0090,1","99999,9,08225,1","2,1,002,1,+003,1",,"SYN118AAXX  18181 76373 32488 31202 10214 20122 38225 40165 52002 83300 91745 333 10232 20090 30/// 56600 58003 81810 82910;",
"76373099999","2006-05-18T21:00:00","4","25.35","-105.75","1967.0","TEPEHUANES DGO., MX","FM-12","99999","V020","120,1,N,0050,1","00300,1,9,N","070000,1,N,1","+0232,1","+0077,1","99999,9",,,,,,"05,1,+00300,1,09,1",,,"06,99,1,05,1,09,1,00450,1,00,1,00,1",,"01,9",,,,"99999,9,08192,1","6,1,033,1,+000,1",,"SYN106AAXX  18211 76373 32488 61205 10232 20077 38192 40092 56033 85900 92050 333 30/// 56600 58000 85910 81810;",
"76373099999","2006-05-19T12:00:00","4","25.35","-105.75","1967.0","TEPEHUANES DGO., MX","FM-12","99999","V020","290,1,N,0010,1","22000,1,9,N","001000,1,N,1","+0092,1","+0074,1","10158,1","24,0000,9,1",,,,,"00,1,+99999,9,99,9",,,"00,99,1,00,1,00,1,99999,9,00,1,00,1",,"01,9","999,+0060,1","120,N,+0084,1","240,M,+0274,1","99999,9,08227,1","9,9,999,9,+006,1",,"SYN100AAXX  19121 76373 32910 02901 10092 20074 38227 40158 5//// 91155 333 10274 20084 30060 58006 79999;","Q01  00002PRCP24"
"76373099999","2006-05-19T15:00:00","4","25.35","-105.75","1967.0","TEPEHUANES DGO., MX","FM-12","99999","V020","060,1,N,0010,1","22000,1,9,N","070000,1,N,1","+0162,1","+0085,1","10181,1",,,,,,"00,1,+99999,9,99,9",,,"00,99,1,00,1,00,1,99999,9,00,1,00,1",,"01,9",,,,"99999,9,08236,1","2,1,009,1,+009,1",,"SYN082AAXX  19151 76373 32988 00601 10162 20085 38236 40181 52009 91455 333 30/// 58009;",
"76373099999","2006-05-19T18:00:00","4","25.35","-105.75","1967.0","TEPEHUANES DGO., MX","FM-12","99999","V020","140,1,N,0040,1","22000,1,9,N","070000,1,N,1","+0256,1","-0024,1","10151,1",,,,,,"01,1,+00300,1,08,1",,,"01,99,1,01,1,01,1,00450,1,00,1,00,1",,"01,9",,"120,M,+0280,1","240,N,+0078,1","99999,9,08225,1","6,1,011,1,+000,1",,"SYN112AAXX  19181 76373 32488 11404 10256 21024 38225 40151 56011 81100 91746 333 10280 20078 30/// 56600 58000 81810;",
"76373099999","2006-05-20T12:00:00","4","25.35","-105.75","1967.0","TEPEHUANES DGO., MX","FM-12","99999","V020","280,1,N,0020,1","22000,1,9,N","002000,1,N,1","+0114,1","+0085,1","10111,1","24,0000,9,1",,,,,"00,1,+99999,9,99,9",,,"00,99,1,00,1,00,1,99999,9,00,1,00,1",,"01,9","999,+0090,1","120,N,+0106,1","240,M,+0318,1","99999,9,08212,1","9,9,999,9,-016,1",,"SYN100AAXX  20121 76373 32920 02802 10114 20085 38212 40111 5//// 91150 333 10318 20106 30090 59016 70000;","Q01  00002PRCP24"
"76373099999","2006-05-20T15:00:00","4","25.35","-105.75","1967.0","TEPEHUANES DGO., MX","FM-12","99999","V020","999,9,C,0000,1","22000,1,9,N","070000,1,N,1","+0170,1","+0108,1","10141,1",,,,,,"00,1,+99999,9,99,9",,,"00,99,1,00,1,00,1,99999,9,00,1,00,1",,"01,9",,,,"99999,9,08221,1","2,1,009,1,-015,1",,"SYN082AAXX  20151 76373 32988 00000 10170 20108 38221 40141 52009 91440 333 30/// 59015;",
"76373099999","2006-05-20T18:00:00","4","25.35","-105.75","1967.0","TEPEHUANES DGO., MX","FM-12","99999","V020","310,1,N,0030,1","22000,1,9,N","070000,1,N,1","+0276,1","+0108,1","10112,1",,,,,,"03,1,+00360,1,09,1",,,"03,99,1,03,1,03,1,00450,1,00,1,00,1",,"01,9",,"120,M,+0300,1","240,N,+0105,1","99999,9,08207,1","7,1,014,1,-018,1",,"SYN112AAXX  20181 76373 32488 33103 10276 20108 38207 40112 57014 83300 91750 333 10300 20105 30/// 56600 59018 83912;",
"76373099999","2006-05-21T15:00:00","4","25.35","-105.75","1967.0","TEPEHUANES DGO., MX","FM-12","99999","V020","300,1,N,0010,1","22000,1,9,N","070000,1,N,1","+0172,1","+0073,1","10132,1","12,0000,9,1",,,,,"00,1,+99999,9,99,9",,,"00,99,1,00,1,00,1,99999,9,00,1,00,1",,"01,9",,,,"99999,9,08211,1","0,1,007,1,-010,1",,"SYN088AAXX  21151 76373 02988 03001 10172 20073 38211 40132 50007 69902 91450 333 30/// 59010;","Q01  00002PRCP12"
"76373099999","2006-05-21T18:00:00","4","25.35","-105.75","1967.0","TEPEHUANES DGO., MX","FM-12","99999","V020","120,1,N,0020,1","22000,1,9,N","070000,1,N,1","+9999,9","+0056,1","10100,1",,,,,,"03,1,+00360,1,03,1",,,"04,99,1,03,1,03,1,00450,1,00,1,00,1",,"01,9",,"120,M,+0305,1","240,N,+0088,1","99999,9,08194,1","7,1,017,1,-013,1",,"SYN118AAXX  21181 76373 32488 41202 10282 20056 38194 40100 57017 83300 91750 333 10305 20088 30/// 56600 59013 83312 81812;",
"76373099999","2006-05-22T12:00:00","4","25.35","-105.75","1967.0","TEPEHUANES DGO., MX","FM-12","99999","V020","270,1,N,0010,1","22000,1,9,N","005000,1,N,1","+0126,1","+0074,1","10083,1","24,0000,9,1",,,,,"00,1,+99999,9,99,9",,,"00,99,1,00,1,00,1,99999,9,00,1,00,1",,"01,9","999,+0096,1","120,N,+0120,1","240,M,+0353,1","99999,9,08199,1","9,9,999,9,-005,1",,"SYN100AAXX  22121 76373 32950 02701 10126 20074 38199 40083 5//// 91150 333 10353 20120 30096 59005 70000;","Q01  00002PRCP24"
"76373099999","2006-05-22T15:00:00","4","25.35","-105.75","1967.0","TEPEHUANES DGO., MX","FM-12","99999","V020","300,1,N,0020,1","09000,1,C,N","070000,1,N,1","+0186,1","+0090,1","10111,1",,,,,,"01,1,+00360,1,03,1",,,"08,99,1,01,1,00,1,01250,1,03,1,08,1",,"01,9",,,,"99999,9,08206,1","2,1,007,1,-005,1",,"SYN106AAXX  22151 76373 32688 83002 10186 20090 38206 40111 52007 81038 91458 333 30/// 56066 59005 81312 87270;",
"76373099999","2006-05-22T18:00:00","4","25.35","-105.75","1967.0","TEPEHUANES DGO., MX","FM-12","99999","V020","060,1,N,0010,1","06000,1,9,N","070000,1,N,1","+0292,1","+0067,1","10083,1",,,,,,"01,1,+00300,1,08,1","08,1,+06000,1,02,1",,"08,99,1,01,1,01,1,00450,1,00,1,07,1",,"01,9",,"120,M,+0312,1","240,N,+0112,1","99999,9,08194,1","6,1,012,1,+000,1",,"SYN124AAXX  22181 76373 32488 80601 10292 20067 38194 40083 56012 81107 91745 333 10312 20112 30/// 56606 58000 81810 88270 99020;",
"76373099999","2006-05-22T21:00:00","4","25.35","-105.75","1967.0","TEPEHUANES DGO., MX","FM-12","99999","V020","120,1,N,0020,1","06000,1,9,N","070000,1,N,1","+0328,1","+0042,1","10035,1",,,,,,"01,1,+00300,1,08,1","08,1,+06000,1,02,1",,"08,99,1,01,1,01,1,00450,1,00,1,07,1",,"01,9",,,,"99999,9,08175,1","6,1,019,1,-019,1",,"SYN112AAXX  22211 76373 32488 81202 10328 20042 38175 40035 56019 81107 92045 333 30/// 56606 59019 81810 88270 99020;",
"76373099999","2006-05-23T12:00:00","4","25.35","-105.75","1967.0","TEPEHUANES DGO., MX","FM-12","99999","V020","999,9,C,0000,1","22000,1,9,N","005000,1,N,1","+0114,1","+0042,1","10093,1","24,0000,9,1",,,,,"00,1,+99999,9,99,9",,,"00,99,1,00,1,00,1,99999,9,00,1,00,1",,"01,9","999,+0076,1","120,N,+0112,1","240,M,+0360,1","99999,9,08206,1","9,9,999,9,+007,1",,"SYN100AAXX  23121 76373 32950 00000 10114 20042 38206 40093 5//// 91150 333 10360 20112 30076 58007 70000;","Q01  00002PRCP24"
"76373099999","2006-05-23T15:00:00","4","25.35","-105.75","1967.0","TEPEHUANES DGO., MX","FM-12","99999","V020","330,1,N,0020,1","22000,1,9,N","070000,1,N,1","+0186,1","+0044,1","10130,1",,,,,,"00,1,+99999,9,99,9",,,"00,99,1,00,1,00,1,99999,9,00,1,00,1",,"01,9",,,,"99999,9,08219,1","2,1,013,1,+013,1",,"SYN082AAXX  23151 76373 32988 03302 10186 20044 38219 40130 52013 91445 333 30/// 58013;",
"76373099999","2006-05-23T18:00:00","4","25.35","-105.75","1967.0","TEPEHUANES DGO., MX","FM-12","99999","V020","280,1,N,0030,1","22000,1,9,N","070000,1,N,1","+9999,9","+0042,1","10099,1",,,,,,"01,1,+00300,1,08,1",,,"01,99,1,01,1,01,1,00450,1,00,1,00,1",,"01,9",,"120,M,+0342,1","240,N,+0102,1","99999,9,08206,1","6,1,013,1,+012,1",,"SYN112AAXX  23181 76373 32488 12803 10310 20042 38206 40099 56013 81100 91750 333 10342 20102 30/// 56600 58012 81810;",
"76373099999","2006-05-24T12:00:00","4","25.35","-105.75","1967.0","TEPEHUANES DGO., MX","FM-12","99999","V020","999,9,C,0000,1","22000,1,9,N","005000,1,N,1","+0128,1","+0052,1","10113,1","24,0000,9,1",,,,,"00,1,+99999,9,99,9",,,"00,99,1,00,1,00,1,99999,9,00,1,00,1",,"01,9","999,+0095,1","120,N,+0126,1","240,M,+0376,1","99999,9,08212,1","9,9,999,9,+006,1",,"SYN100AAXX  24121 76373 32950 00000 10128 20052 38212 40113 5//// 91145 333 10376 20126 30095 58006 70000;","Q01  00002PRCP24"
"76373099999","2006-05-24T15:00:00","4","25.35","-105.75","1967.0","TEPEHUANES DGO., MX","FM-12","99999","V020","050,1,N,0010,1","22000,1,9,N","070000,1,N,1","+0210,1","+9999,9","10118,1",,,,,,"00,1,+99999,9,99,9",,,"00,99,1,00,1,00,1,99999,9,00,1,00,1",,"01,9",,,,"99999,9,08220,1","2,1,008,1,+001,1",,"SYN082AAXX  24151 76373 32988 00501 10210 20181 38220 40118 52008 91450 333 30/// 58001;","P01 +01813ATOD  "
"76373099999","2006-05-24T18:00:00","4","25.35","-105.75","1967.0","TEPEHUANES DGO., MX","FM-12","99999","V020","120,1,N,0040,1","22000,1,9,N","070000,1,N,1","+9999,9","+0047,1","10095,1",,,,,,"01,1,+00300,1,09,1",,,"02,99,1,02,1,03,1,00450,1,00,1,00,1",,"01,9",,"120,M,+0342,1","240,N,+0120,1","99999,9,08212,1","6,1,008,1,+006,1",,"SYN118AAXX  24181 76373 32488 21204 10322 20047 38212 40095 56008 82300 91745 333 10342 20120 30/// 56600 58006 81910 81810;",
"76373099999","2006-05-25T12:00:00","4","25.35","-105.75","1967.0","TEPEHUANES DGO., MX","FM-12","99999","V020","999,9,C,0000,1","22000,1,9,N","005000,1,N,1","+0142,1","+0060,1","10083,1","24,0000,9,1",,,,,"02,1,+06000,1,00,1",,,"02,99,1,00,1,00,1,99999,9,00,1,02,1",,"01,9","999,+0095,1","120,N,+0132,1","240,M,+0377,1","99999,9,08199,1","9,9,999,9,-013,1",,"SYN118AAXX  25121 76373 32950 20000 10142 20060 38199 40083 5//// 80002 91143 333 10377 20132 30095 56009 59013 70000 82070;",
"76373099999","2006-05-25T15:00:00","4","25.35","-105.75","1967.0","TEPEHUANES DGO., MX","FM-12","99999","V020","320,1,N,0010,1","22000,1,9,N","070000,1,N,1","+0190,1","+0068,1","10099,1",,,,,,"01,1,+06000,1,00,1",,,"01,99,1,00,1,00,1,99999,9,00,1,05,1",,"01,9",,,,"99999,9,08204,1","0,1,005,1,-016,1",,"SYN100AAXX  25151 76373 32988 13201 10190 20068 38204 40099 50005 80005 91442 333 30/// 56009 59016 81070;",
"76373099999","2006-05-25T18:00:00","4","25.35","-105.75","1967.0","TEPEHUANES DGO., MX","FM-12","99999","V020","090,1,N,0020,1","22000,1,9,N","070000,1,N,1","+9999,9","+0040,1","10074,1",,,,,,"02,1,+00300,1,09,1",,,"02,99,1,02,1,03,1,00450,1,00,1,00,1",,"01,9",,"120,M,+0338,1","240,N,+0124,1","99999,9,08195,1","6,1,009,1,-017,1",,"SYN112AAXX  25181 76373 32488 20902 10312 20040 38195 40074 56009 82300 91745 333 10338 20124 30/// 56600 59017 82910;",
"76373099999","2006-05-26T00:00:00","4","25.35","-105.75","1967.0","TEPEHUANES DGO., MX","FM-12","99999","V020","240,1,N,0040,1","00420,1,9,N","030000,1,N,1","+0254,1","+0045,1","10002,1","24,0000,9,1",,,"9,1,06,1","9,1,06,1",,,,"08,99,1,08,1,06,1,00450,1,00,1,00,1",,"01,9",,"120,M,+0368,1","180,N,+0124,1","99999,9,08174,1","2,1,011,1,-025,1","04,1","SYN130AAXX  26001 76373 31480 82404 10254 20045 38174 40002 52011 70499 88600 92347 333 10368 20124 30/// 50650 56600 59025 70000 88610;",
"76373099999","2006-05-26T12:00:00","4","25.35","-105.75","1967.0","TEPEHUANES DGO., MX","FM-12","99999","V020","999,9,C,0000,1","22000,1,9,N","005000,1,N,1","+0108,1","+0073,1","10076,1","12,0000,9,1","24,0000,9,1",,,,"02,1,+02400,1,03,1",,,"02,99,1,02,1,00,1,01250,1,03,1,00,1",,"01,9","999,+0076,1","120,N,+0107,1","240,M,+0368,1","99999,9,08182,1","9,9,999,9,-017,1",,"SYN130AAXX  26121 76373 02650 20000 10108 20073 38182 40076 5//// 69902 82030 91150 333 10368 20107 30076 56060 59017 69902 79999 82358;","Q01  00002PRCP24Q02  00002PRCP12"
"76373099999","2006-05-26T15:00:00","4","25.35","-105.75","1967.0","TEPEHUANES DGO., MX","FM-12","99999","V020","330,1,N,0010,1","22000,1,9,N","070000,1,N,1","+0182,1","+0082,1","10093,1",,,,,,"00,1,+99999,9,99,9",,,"00,99,1,00,1,00,1,99999,9,00,1,00,1",,"01,9",,,,"99999,9,08185,1","0,1,003,1,-019,1",,"SYN082AAXX  26151 76373 32988 03301 10182 20082 38185 40093 50003 91450 333 30/// 59019;",
"76373099999","2006-05-26T18:00:00","4","25.35","-105.75","1967.0","TEPEHUANES DGO., MX","FM-12","99999","V020","270,1,N,0030,1","22000,1,9,N","070000,1,N,1","+0296,1","+0038,1","10067,1",,,,,,"01,1,+00300,1,08,1",,,"01,99,1,01,1,01,1,00450,1,00,1,00,1",,"01,9",,"120,M,+0318,1","240,N,+0102,1","99999,9,08177,1","6,1,008,1,-002,1",,"SYN112AAXX  26181 76373 32488 12703 10296 20038 38177 40067 56008 81100 91745 333 10318 20102 30/// 56600 59002 81810;",
"76373099999","2006-05-26T21:00:00","4","25.35","-105.75","1967.0","TEPEHUANES DGO., MX","FM-12","99999","V020","300,1,N,0060,1","22000,1,9,N","070000,1,N,1","+0312,1","+0016,1","10012,1",,,,,,"02,1,+00300,1,08,1",,,"03,99,1,03,1,01,1,00450,1,00,1,00,1",,"01,9",,,,"99999,9,08154,1","6,1,023,1,-041,1",,"SYN106AAXX  26211 76373 32488 33006 10312 20016 38154 40012 56023 83100 92048 333 30/// 56600 59041 82810 81910;",
"76373099999","2006-05-27T15:00:00","4","25.35","-105.75","1967.0","TEPEHUANES DGO., MX","FM-12","99999","V020","310,1,N,0010,1","22000,1,9,N","028000,1,N,1","+0186,1","+0112,1","10095,1",,,,"4,1,03,1","4,1,03,1","00,1,+99999,9,99,9",,,"00,99,1,00,1,00,1,99999,9,00,1,00,1",,"01,9",,,,"99999,9,08191,1","1,1,014,1,+006,1","04,1","SYN088AAXX  27151 76373 31978 03101 10186 20112 38191 40095 51014 70444 91445 333 30/// 58006;",
"76373099999","2006-05-27T18:00:00","4","25.35","-105.75","1967.0","TEPEHUANES DGO., MX","FM-12","99999","V020","300,1,N,0030,1","22000,1,9,N","070000,1,N,1","+0276,1","+0070,1","10072,1",,,,,,"01,1,+00300,1,09,1",,,"02,99,1,02,1,03,1,00450,1,00,1,00,1",,"01,9",,"120,M,+0298,1","240,N,+0110,1","99999,9,08179,1","7,1,012,1,+002,1",,"SYN118AAXX  27181 76373 32488 23003 10276 20070 38179 40072 57012 82300 91748 333 10298 20110 30/// 56600 58002 81910 81810;",
"76373099999","2006-05-28T12:00:00","4","25.35","-105.75","1967.0","TEPEHUANES DGO., MX","FM-12","99999","V020","999,9,C,0000,1","22000,1,9,N","005000,1,N,1","+0106,1","+0071,1","10095,1","24,0000,9,1",,,,,"00,1,+99999,9,99,9",,,"00,99,1,00,1,00,1,99999,9,00,1,00,1",,"01,9","999,+0076,1","120,N,+0102,1","240,M,+0320,1","99999,9,08197,1","9,9,999,9,+020,1",,"SYN100AAXX  28121 76373 32950 00000 10106 20071 38197 40095 5//// 91142 333 10320 20102 30076 58020 70000;","Q01  00002PRCP24"
"76373099999","2006-05-28T15:00:00","4","25.35","-105.75","1967.0","TEPEHUANES DGO., MX","FM-12","99999","V020","330,1,N,0010,1","22000,1,9,N","070000,1,N,1","+0186,1","+0109,1","10125,1",,,,,,"00,1,+99999,9,99,9",,,"00,99,1,00,1,00,1,99999,9,00,1,00,1",,"01,9",,,,"99999,9,08209,1","0,1,012,1,+018,1",,"SYN082AAXX  28151 76373 32988 03301 10186 20109 38209 40125 50012 91445 333 30/// 58018;",
"76373099999","2006-05-28T18:00:00","4","25.35","-105.75","1967.0","TEPEHUANES DGO., MX","FM-12","99999","V020","320,1,N,0040,1","22000,1,9,N","070000,1,N,1","+0272,1","+0015,1","10100,1",,,,,,"02,1,+00360,1,08,1",,,"02,99,1,02,1,01,1,00450,1,00,1,00,1",,"01,9",,"120,M,+0290,1","240,N,+0096,1","99999,9,08198,1","7,1,011,1,+019,1",,"SYN112AAXX  28181 76373 32488 23204 10272 20015 38198 40100 57011 82100 91750 333 10290 20096 30/// 56600 58019 82812;",
"76373099999","2006-05-28T21:00:00","4","25.35","-105.75","1967.0","TEPEHUANES DGO., MX","FM-12","99999","V020","320,1,N,0050,1","22000,1,9,N","070000,1,N,1","+0292,1","+0024,1","10058,1",,,,,,"03,1,+00360,1,09,1",,,"04,99,1,04,1,03,1,00450,1,00,1,00,1",,"01,9",,,,"99999,9,08181,1","7,1,017,1,+999,9",,"SYN106AAXX  28211 76373 32488 43205 10292 20024 38181 40058 57017 84300 92050 333 30/// 56600 58/// 83912 81812;",
"76373099999","2006-05-29T12:00:00","4","25.35","-105.75","1967.0","TEPEHUANES DGO., MX","FM-12","99999","V020","290,1,N,0010,1","22000,1,9,N","005000,1,N,1","+0114,1","+0047,1","10113,1","24,0000,9,1",,,,,"03,1,+00360,1,08,1",,,"03,99,1,03,1,01,1,00450,1,00,1,00,1",,"01,9","999,+0095,1","120,N,+0110,1","240,M,+0322,1","99999,9,08216,1","9,9,999,9,+019,1",,"SYN118AAXX  29121 76373 32450 32901 10114 20047 38216 40113 5//// 83100 91150 333 10322 20110 30095 56600 58019 70000 83812;",
"76373099999","2006-05-29T15:00:00","4","25.35","-105.75","1967.0","TEPEHUANES DGO., MX","FM-12","99999","V020","290,1,N,0010,1","22000,1,9,N","070000,1,N,1","+0180,1","+0054,1","10137,1",,,,,,"01,1,+02400,1,03,1",,,"01,99,1,01,1,00,1,99999,9,03,1,00,1",,"01,9",,,,"99999,9,08217,1","0,1,010,1,+008,1",,"SYN100AAXX  29151 76373 32988 12901 10180 20054 38217 40137 50010 81030 91450 333 30/// 56060 58008 81358;",
"76373099999","2006-05-29T18:00:00","4","25.35","-105.75","1967.0","TEPEHUANES DGO., MX","FM-12","99999","V020","180,1,N,0020,1","22000,1,9,N","070000,1,N,1","+0282,1","+0046,1","10104,1",,,,,,"01,1,+00300,1,08,1",,,"01,99,1,01,1,01,1,00450,1,00,1,00,1",,"01,9",,"120,M,+0300,1","240,N,+0114,1","99999,9,08204,1","6,1,013,1,+006,1",,"SYN112AAXX  29181 76373 32488 11802 10282 20046 38204 40104 56013 81100 91745 333 10300 20114 30/// 56600 58006 81810;",
"76373099999","2006-05-29T21:00:00","4","25.35","-105.75","1967.0","TEPEHUANES DGO., MX","FM-12","99999","V020","290,1,N,0030,1","22000,1,9,N","070000,1,N,1","+0314,1","+0016,1","10051,1",,,,,,"03,1,+00300,1,08,1",,,"03,99,1,03,1,01,1,00450,1,00,1,00,1",,"01,9",,,,"99999,9,08183,1","6,1,021,1,+002,1",,"SYN100AAXX  29211 76373 32488 32903 10314 20016 38183 40051 56021 83100 92045 333 30/// 56600 58002 83810;",
"76373099999","2006-05-30T12:00:00","4","25.35","-105.75","1967.0","TEPEHUANES DGO., MX","FM-12","99999","V020","999,9,C,0000,1","22000,1,9,N","006000,1,N,1","+0128,1","+0059,1","10088,1","24,0000,9,1",,,,,"02,1,+02400,1,03,1",,,"02,99,1,02,1,00,1,01250,1,03,1,00,1",,"01,9","999,+0100,1","120,N,+0122,1","240,M,+0348,1","99999,9,08199,1","9,9,999,9,-008,1",,"SYN118AAXX  30121 76373 32656 20000 10128 20059 38199 40088 5//// 82030 91150 333 10348 20122 30100 56060 59008 70000 82358;",
"76373099999","2006-05-30T15:00:00","4","25.35","-105.75","1967.0","TEPEHUANES DGO., MX","FM-12","99999","V020","310,1,N,0010,1","22000,1,9,N","070000,1,N,1","+0184,1","+0064,1","10116,1",,,,,,"01,1,+01800,1,03,1",,,"01,99,1,01,1,00,1,01250,1,04,1,00,1",,"01,9",,,,"99999,9,08207,1","1,1,008,1,-010,1",,"SYN100AAXX  30151 76373 32688 13101 10184 20064 38207 40116 51008 81040 91442 333 30/// 56060 59010 81356;",
"76373099999","2006-05-30T18:00:00","4","25.35","-105.75","1967.0","TEPEHUANES DGO., MX","FM-12","99999","V020","120,1,N,0050,1","22000,1,9,N","070000,1,N,1","+0288,1","+0089,1","10088,1",,,,,,"02,1,+00300,1,09,1",,,"03,99,1,03,1,03,1,00450,1,00,1,00,1",,"01,9",,"120,M,+0310,1","240,N,+0110,1","99999,9,08196,1","6,1,011,1,-008,1",,"SYN118AAXX  30181 76373 32488 31205 10288 20089 38196 40088 56011 83300 91745 333 10310 20110 30/// 56600 59008 82910 81810;",
"76373099999","2006-05-31T12:00:00","4","25.35","-105.75","1967.0","TEPEHUANES DGO., MX","FM-12","99999","V020","999,9,C,0000,1","22000,1,9,N","006000,1,N,1","+0118,1","+0076,1","10104,1","24,0004,9,1",,,,,"02,1,+02400,1,03,1",,,"02,99,1,02,1,00,1,01250,1,03,1,00,1",,"01,9","999,+0095,1","120,N,+0114,1","240,M,+0340,1","99999,9,08200,1","9,9,999,9,-001,1",,"SYN118AAXX  31121 76373 32656 20000 10118 20076 38200 40104 5//// 82030 91150 333 10340 20114 30095 56060 59001 70004 82358;",
"76373099999","2006-05-31T15:00:00","4","25.35","-105.75","1967.0","TEPEHUANES DGO., MX","FM-12","99999","V020","320,1,N,0010,1","22000,1,9,N","070000,1,N,1","+0184,1","+0081,1","10125,1",,,,,,"02,1,+06000,1,00,1",,,"02,99,1,00,1,00,1,99999,9,00,1,02,1",,"01,9",,,,"99999,9,08210,1","2,1,010,1,+003,1",,"SYN100AAXX  31151 76373 32988 23201 10184 20081 38210 40125 52010 80002 91450 333 30/// 56006 58003 82070;",
"76373099999","2006-05-31T18:00:00","4","25.35","-105.75","1967.0","TEPEHUANES DGO., MX","FM-12","99999","V020","090,1,N,0020,1","22000,1,9,N","070000,1,N,1","+9999,9","+0061,1","10099,1",,,,,,"02,1,+00300,1,09,1",,,"03,99,1,03,1,03,1,00450,1,00,1,00,1",,"01,9",,"120,M,+0318,1","240,N,+0106,1","99999,9,08201,1","6,1,009,1,+005,1",,"SYN118AAXX  31181 76373 32488 30902 10294 20061 38201 40099 56009 83300 91745 333 10318 20106 30/// 56600 58005 82910 81810;",
"76373099999","2006-06-01T12:00:00","4","25.35","-105.75","1967.0","TEPEHUANES DGO., MX","FM-12","99999","V020","999,9,C,0000,1","22000,1,9,N","005000,1,N,1","+0122,1","+0088,1","10141,1","24,0000,9,1",,,,,"01,1,+00360,1,08,1",,,"03,99,1,01,1,01,1,00450,1,03,1,00,1",,"01,9","999,+0095,1","120,N,+0120,1","240,M,+0348,1","99999,9,08227,1","9,9,999,9,+027,1",,"SYN124AAXX  01121 76373 32450 30000 10122 20088 38227 40141 5//// 81130 91150 333 10348 20120 30095 56660 58027 70000 81812 82356;",
"76373099999","2006-06-01T15:00:00","4","25.35","-105.75","1967.0","TEPEHUANES DGO., MX","FM-12","99999","V020","060,1,N,0010,1","22000,1,9,N","070000,1,N,1","+0182,1","+0108,1","10148,1",,,,,,"02,1,+01800,1,03,1",,,"02,99,1,02,1,00,1,01250,1,03,1,00,1",,"01,9",,,,"99999,9,08229,1","3,1,002,1,+019,1",,"SYN100AAXX  01151 76373 32688 20601 10182 20108 38229 40148 53002 82030 91440 333 30/// 56060 58019 82356;",
"76373099999","2006-06-01T18:00:00","4","25.35","-105.75","1967.0","TEPEHUANES DGO., MX","FM-12","99999","V020","120,1,N,0040,1","03600,1,C,N","070000,1,N,1","+0266,1","+0083,1","10127,1",,,,,,"01,1,+00300,1,09,1","01,1,+00300,1,08,1",,"08,99,1,02,1,03,1,00450,1,03,1,00,1",,"01,9",,"120,M,+0284,1","240,N,+0116,1","99999,9,08223,1","6,1,006,1,+022,1",,"SYN124AAXX  01181 76373 32488 81204 10266 20083 38223 40127 56006 82330 91745 333 10284 20116 30/// 56660 58022 81910 81810 87360;",
"76373099999","2006-06-02T12:00:00","4","25.35","-105.75","1967.0","TEPEHUANES DGO., MX","FM-12","99999","V020","999,9,C,0000,1","22000,1,9,N","006000,1,N,1","+0112,1","+0077,1","10134,1","24,0000,9,1",,,,,"01,1,+00360,1,08,1",,,"01,99,1,01,1,01,1,00450,1,00,1,00,1",,"01,9","999,+0080,1","120,N,+0108,1","240,M,+0312,1","99999,9,08229,1","9,9,999,9,+003,1",,"SYN118AAXX  02121 76373 32456 10000 10112 20077 38229 40134 5//// 81100 91140 333 10312 20108 30080 56200 58003 79999 81812;","Q01  00002PRCP24"
"76373099999","2006-06-02T15:00:00","4","25.35","-105.75","1967.0","TEPEHUANES DGO., MX","FM-12","99999","V020","290,1,N,0010,1","22000,1,9,N","070000,1,N,1","+0184,1","+0096,1","10160,1",,,,,,,,,"02,99,1,02,1,01,1,00450,1,00,1,00,1",,"01,9",,,,"99999,9,08237,1","1,1,008,1,+008,1",,"SYN100AAXX  02151 76373 32488 22901 10184 20096 38237 40160 51008 82100 91450 333 30/// 56100 58008 92812;",
"76373099999","2006-06-02T18:00:00","4","25.35","-105.75","1967.0","TEPEHUANES DGO., MX","FM-12","99999","V020","060,1,N,0020,1","00420,1,C,N","070000,1,N,1","+0258,1","+0088,1","10137,1",,,,,,"03,1,+00300,1,09,1",,,"05,99,1,05,1,03,1,00450,1,00,1,00,1",,"01,9",,"120,M,+0272,1","240,N,+0102,1","99999,9,08229,1","6,1,008,1,+006,1",,"SYN118AAXX  02181 76373 32488 50602 10258 20088 38229 40137 56008 85300 91745 333 10272 20102 30/// 56900 58006 83910 82810;",
"76373099999","2006-06-03T18:00:00","4","25.35","-105.75","1967.0","TEPEHUANES DGO., MX","FM-12","99999","V020","120,1,N,0060,1","00300,1,9,N","070000,1,N,1","+0258,1","+0081,1","10009,1",,,,,,"05,1,+00300,1,09,1",,,"07,99,1,07,1,03,1,00450,1,00,1,00,1",,"01,9",,"120,M,+0292,1","240,N,+0156,1","99999,9,08213,1","7,1,013,1,-016,1",,"SYN118AAXX  03181 76373 32488 71206 10258 20081 38213 40009 57013 87300 91745 333 10292 20156 30/// 56200 59016 85910 82100;",
"76373099999","2006-06-04T12:00:00","4","25.35","-105.75","1967.0","TEPEHUANES DGO., MX","FM-12","99999","V020","290,1,N,0010,1","00300,1,9,N","006000,1,N,1","+0138,1","+0137,1","10123,1","12,0020,9,1","15,0041,9,1","24,0060,9,1","5,1,06,1","2,1,06,1","08,1,+00300,1,07,1",,,"08,99,1,08,1,07,1,00450,1,00,1,00,1",,"01,9","999,+0138,1","120,N,+0138,1","240,M,+0326,1","99999,9,08206,1","9,9,999,9,-008,1","50,1","SYN136AAXX  04121 76373 01456 82901 10138 20137 38206 40123 5//// 60049 75052 88700 91150 333 10326 20138 30138 56600 59008 60022 70060 88710;",
"76373099999","2006-06-04T15:00:00","4","25.35","-105.75","1967.0","TEPEHUANES DGO., MX","FM-12","99999","V020","280,1,N,0010,1","00300,1,9,N","020000,1,N,1","+0146,1","+0133,1","10144,1","03,0040,9,1",,,"5,1,03,1","5,1,03,1","08,1,+00300,1,07,1",,,"08,99,1,08,1,07,1,00450,1,00,1,00,1",,"11,9",,,,"99999,9,08220,1","2,1,014,1,-006,1","50,1","SYN112AAXX  04151 76373 21470 82801 10146 20133 38220 40144 52014 75055 88700 91450 333 32/// 56600 59006 60047 88710;",
"76373099999","2006-06-04T18:00:00","4","25.35","-105.75","1967.0","TEPEHUANES DGO., MX","FM-12","99999","V020","999,9,C,0000,1","00300,1,9,N","001800,1,N,1","+0170,1","+0142,1","10139,1","03,0003,9,1","06,0041,9,1",,"5,1,06,1","5,1,06,1","08,1,+00300,1,07,1",,,"08,99,1,08,1,07,1,00450,1,00,1,00,1",,"09,9",,"120,M,+0182,1","240,N,+0138,1","99999,9,08218,1","6,1,002,1,-008,1","50,1","SYN130AAXX  04181 76373 01418 80000 10170 20142 38218 40139 56002 60041 75055 88700 91750 333 10182 20138 31/// 56060 59008 69937 88710;",
"76373099999","2006-06-05T12:00:00","4","25.35","-105.75","1967.0","TEPEHUANES DGO., MX","FM-12","99999","V020","999,9,C,0000,1","03600,1,C,N","999999,9,N,1","+0156,1","+0134,1","10090,1","15,9999,9,9","18,0000,2,1","24,0043,9,1",,,"04,1,+00360,1,06,1",,,"08,99,1,04,1,04,1,00450,1,06,1,00,1",,"01,9","999,+0140,1","120,N,+0154,1","240,M,+0280,1","99999,9,08199,1","9,9,999,9,-007,1",,"SYN136AAXX  05121 76373 02454 80000 10156 20134 38199 40090 5//// 69923 84460 91150 333 10280 20154 30140 56660 59007 69909 70043 84612 84358;","Q01  99992PRCP15"
"76373099999","2006-06-05T15:00:00","4","25.35","-105.75","1967.0","TEPEHUANES DGO., MX","FM-12","99999","V020","999,9,C,0000,1","03600,1,C,N","070000,1,N,1","+0176,1","+0132,1","10111,1",,,,,,"02,1,+00360,1,09,1","01,1,+00360,1,08,1",,"05,99,1,03,1,03,1,00450,1,03,1,00,1",,"09,9",,,,"99999,9,08208,1","2,1,009,1,-012,1",,"SYN112AAXX  05151 76373 32488 50000 10176 20132 38208 40111 52009 83330 91450 333 31/// 56660 59012 82912 81812 82356;",
"76373099999","2006-06-05T18:00:00","4","25.35","-105.75","1967.0","TEPEHUANES DGO., MX","FM-12","99999","V020","150,1,N,0020,1","22000,1,9,N","070000,1,N,1","+0254,1","+0116,1","10083,1",,,,,,"02,1,+00300,1,09,1",,,"03,99,1,02,1,03,1,00450,1,03,1,00,1",,"01,9",,"120,M,+0280,1","240,N,+0150,1","99999,9,08196,1","6,1,012,1,-022,1",,"SYN118AAXX  05181 76373 32488 31502 10254 20116 38196 40083 56012 82330 91745 333 10280 20150 30/// 56220 59022 82910 81360;",
"76373099999","2006-06-05T21:00:00","4","25.35","-105.75","1967.0","TEPEHUANES DGO., MX","FM-12","99999","V020","320,1,N,0070,1","00300,1,C,N","070000,1,N,1","+0256,1","+0115,1","10048,1","01,0000,2,1",,,"5,1,03,1","2,1,03,1","04,1,+00300,1,09,1","01,1,+00300,1,08,1",,"06,99,1,04,1,03,1,00450,1,03,1,00,1",,"01,9",,,,"99999,9,08178,1","6,1,018,1,+999,9","50,1","SYN124AAXX  05211 76373 11488 63207 10256 20115 38178 40048 56018 69905 75052 84330 92045 333 30/// 56220 58/// 84910 81810 81360;",
"76373099999","2006-06-06T00:00:00","4","25.35","-105.75","1967.0","TEPEHUANES DGO., MX","FM-12","99999","V020","310,1,N,0040,1","00420,1,9,N","070000,1,N,1","+0186,1","+0153,1","10053,1","03,0020,9,1","24,0023,9,1",,"9,1,06,1","5,1,06,1",,,,"08,99,1,08,1,09,1,00450,1,00,1,00,1",,"09,9",,"120,M,+0308,1","180,N,+0150,1","99999,9,08138,1","1,1,010,1,+013,1","50,1","SYN142AAXX  06001 76373 01488 83104 10186 20153 38138 40053 51010 60027 75095 88900 92345 333 10308 20150 31/// 50480 56200 58013 60027 70023 88910;",
"76373099999","2006-06-06T12:00:00","4","25.35","-105.75","1967.0","TEPEHUANES DGO., MX","FM-12","99999","V020","999,9,C,0000,1","22000,1,9,N","006000,1,N,1","+0128,1","+0121,1","10102,1","24,0023,9,1",,,,,"01,1,+00360,1,09,1","01,1,+00360,1,08,1",,"03,99,1,02,1,03,1,00450,1,04,1,00,1",,"01,9","999,+0110,1","120,N,+0128,1","240,M,+0308,1","99999,9,08193,1","9,9,999,9,-006,1",,"SYN130AAXX  06121 76373 32456 30000 10128 20121 38193 40102 5//// 82340 91150 333 10308 20128 30110 56660 59006 70023 81912 81812 81356;",
"76373099999","2006-06-06T15:00:00","4","25.35","-105.75","1967.0","TEPEHUANES DGO., MX","FM-12","99999","V020","310,1,N,0010,1","22000,1,9,N","070000,1,N,1","+0178,1","+0132,1","10118,1",,,,,,"01,1,+01800,1,03,1",,,"01,99,1,01,1,00,1,01250,1,04,1,00,1",,"09,9",,,,"99999,9,08203,1","2,1,010,1,-005,1",,"SYN100AAXX  06151 76373 32688 13101 10178 20132 38203 40118 52010 81040 91450 333 31/// 56060 59005 81356;",
"76373099999","2006-06-06T18:00:00","4","25.35","-105.75","1967.0","TEPEHUANES DGO., MX","FM-12","99999","V020","120,1,N,0050,1","22000,1,9,N","070000,1,N,1","+0272,1","+0101,1","10093,1",,,,,,"02,1,+00300,1,09,1",,,"03,99,1,02,1,03,1,00450,1,03,1,00,1",,"01,9",,"120,M,+0290,1","240,N,+0122,1","99999,9,08197,1","6,1,006,1,+001,1",,"SYN118AAXX  06181 76373 32488 31205 10272 20101 38197 40093 56006 82330 91745 333 10290 20122 30/// 56220 58001 82910 81360;",
"76373099999","2006-06-06T21:00:00","4","25.35","-105.75","1967.0","TEPEHUANES DGO., MX","FM-12","99999","V020","320,1,N,0030,1","00300,1,9,N","070000,1,N,1","+0268,1","+0116,1","10048,1","03,0000,9,1",,,"9,1,03,1","5,1,03,1","05,1,+00300,1,09,1",,,"08,99,1,08,1,09,1,00450,1,00,1,00,1",,"01,9",,,,"99999,9,08176,1","6,1,021,1,-002,1","17,1","SYN118AAXX  06211 76373 11488 83203 10268 20116 38176 40048 56021 69907 71795 88900 92048 333 30/// 56200 59002 85910 83810;","Q01  00002PRCP03"
"76373099999","2006-06-07T12:00:00","4","25.35","-105.75","1967.0","TEPEHUANES DGO., MX","FM-12","99999","V020","250,1,N,0010,1","22000,1,9,N","006000,1,N,1","+0140,1","+0130,1","10109,1","24,0000,9,1",,,,,"04,1,+00360,1,06,1",,,"04,99,1,04,1,04,1,00450,1,00,1,00,1",,"01,9","999,+0120,1","120,N,+0138,1","240,M,+0300,1","99999,9,08203,1","9,9,999,9,+010,1",,"SYN118AAXX  07121 76373 32456 42501 10140 20130 38203 40109 5//// 84400 91150 333 10300 20138 30120 56900 58010 79999 84612;","Q01  00002PRCP24"
"76373099999","2006-06-07T15:00:00","4","25.35","-105.75","1967.0","TEPEHUANES DGO., MX","FM-12","99999","V020","999,9,C,0000,1","22000,1,9,N","070000,1,N,1","+0150,1","+0134,1","10130,1",,,,,,"01,1,+00360,1,08,1",,,"02,99,1,01,1,01,1,00450,1,03,1,00,1",,"01,9",,,,"99999,9,08216,1","2,1,013,1,+013,1",,"SYN106AAXX  07151 76373 32488 20000 10150 20134 38216 40130 52013 81130 91445 333 30/// 56220 58013 81812 81356;",
"76373099999","2006-06-07T18:00:00","4","25.35","-105.75","1967.0","TEPEHUANES DGO., MX","FM-12","99999","V020","120,1,N,0060,1","22000,1,9,N","070000,1,N,1","+9999,9","+0113,1","10111,1",,,,,,"01,1,+00300,1,09,1",,,"02,99,1,01,1,03,1,00450,1,03,1,00,1",,"01,9",,"120,M,+0282,1","240,N,+0138,1","99999,9,08211,1","8,1,005,1,-014,1",,"SYN118AAXX  07181 76373 32488 21206 10264 20113 38211 40111 58005 81330 91750 333 10282 20138 30/// 56220 59014 81910 81360;",
"76373099999","2006-06-08T12:00:00","4","25.35","-105.75","1967.0","TEPEHUANES DGO., MX","FM-12","99999","V020","999,9,C,0000,1","22000,1,9,N","005000,1,N,1","+0116,1","+0109,1","10125,1","06,9999,9,9","12,0003,9,1","24,0003,9,1",,,"00,1,+99999,9,99,9",,,"00,99,1,00,1,00,1,99999,9,00,1,00,1",,"01,9","999,+0095,1","120,N,+0116,1","240,M,+0322,1","99999,9,08213,1","9,9,999,9,+010,1",,"SYN112AAXX  08121 76373 02950 00000 10116 20109 38213 40125 5//// 69932 91150 333 10322 20116 30095 58010 69901 70003;","Q01  99992PRCP06"
"76373099999","2006-06-08T15:00:00","4","25.35","-105.75","1967.0","TEPEHUANES DGO., MX","FM-12","99999","V020","320,1,N,0010,1","22000,1,9,N","070000,1,N,1","+0178,1","+0125,1","10141,1",,,,,,"01,1,+06000,1,00,1",,,"01,99,1,00,1,00,1,99999,9,00,1,02,1",,"01,9",,,,"99999,9,08221,1","1,1,008,1,+005,1",,"SYN100AAXX  08151 76373 32988 13201 10178 20125 38221 40141 51008 80002 91450 333 30/// 56002 58005 81070;",
"76373099999","2006-06-08T18:00:00","4","25.35","-105.75","1967.0","TEPEHUANES DGO., MX","FM-12","99999","V020","120,1,N,0050,1","22000,1,9,N","070000,1,N,1","+0274,1","+0086,1","10109,1",,,,,,"01,1,+00300,1,08,1",,,"03,99,1,01,1,01,1,00450,1,00,1,02,1",,"01,9",,"120,M,+0292,1","240,N,+0112,1","99999,9,08208,1","6,1,013,1,-003,1",,"SYN118AAXX  08181 76373 32488 31205 10274 20086 38208 40109 56013 81102 91746 333 10292 20112 30/// 56360 59003 81810 82070;",
"76373099999","2006-06-08T21:00:00","4","25.35","-105.75","1967.0","TEPEHUANES DGO., MX","FM-12","99999","V020","130,1,N,0060,1","22000,1,9,N","070000,1,N,1","+0314,1","+0070,1","10060,1",,,,,,"02,1,+00300,1,09,1","01,1,+00300,1,08,1",,"04,99,1,03,1,03,1,00450,1,00,1,02,1",,"01,9",,,,"99999,9,08189,1","6,1,019,1,+005,1",,"SYN112AAXX  08211 76373 32488 41306 10314 20070 38189 40060 56019 83302 92045 333 30/// 56606 58005 82910 81810 81070;",
"76373099999","2006-06-09T00:00:00","4","25.35","-105.75","1967.0","TEPEHUANES DGO., MX","FM-12","99999","V020","120,1,N,0040,1","22000,1,9,N","070000,1,N,1","+0302,1","+0064,1","10009,1","24,0003,9,1",,,,,"02,1,+00300,1,09,1",,,"04,99,1,03,1,06,1,00450,1,03,1,00,1",,"01,9",,"120,M,+0342,1","180,N,+0112,1","99999,9,08173,1","6,1,016,1,-034,1",,"SYN130AAXX  09001 76373 32488 41204 10302 20064 38173 40009 56016 83630 92348 333 10342 20112 30/// 50610 56990 59034 70003 82910 81810;",
"76373099999","2006-06-09T12:00:00","4","25.35","-105.75","1967.0","TEPEHUANES DGO., MX","FM-12","99999","V020","999,9,C,0000,1","22000,1,9,N","005000,1,N,1","+0136,1","+0109,1","10113,1","24,0000,9,1",,,,,"01,1,+06000,1,00,1",,,"01,99,1,00,1,00,1,99999,9,00,1,02,1",,"01,9","999,+0106,1","120,N,+0132,1","240,M,+0342,1","99999,9,08209,1","9,9,999,9,-004,1",,"SYN118AAXX  09121 76373 32950 10000 10136 20109 38209 40113 5//// 80002 91155 333 10342 20132 30106 56009 59004 70000 81070;",
"76373099999","2006-06-09T15:00:00","4","25.35","-105.75","1967.0","TEPEHUANES DGO., MX","FM-12","99999","V020","050,1,N,0010,1","22000,1,9,N","070000,1,N,1","+0196,1","+0129,1","10118,1",,,,,,"00,1,+99999,9,99,9",,,"00,99,1,00,1,00,1,99999,9,00,1,00,1",,"01,9",,,,"99999,9,08218,1","1,1,009,1,-003,1",,"SYN082AAXX  09151 76373 32988 00501 10196 20129 38218 40118 51009 91450 333 30/// 59003;",
"76373099999","2006-06-09T18:00:00","4","25.35","-105.75","1967.0","TEPEHUANES DGO., MX","FM-12","99999","V020","120,1,N,0030,1","22000,1,9,N","070000,1,N,1","+0284,1","+0070,1","10095,1",,,,,,"01,1,+00300,1,08,1",,,"01,99,1,01,1,01,1,00450,1,00,1,00,1",,"01,9",,"120,M,+0314,1","240,N,+0128,1","99999,9,08208,1","6,1,010,1,+000,1",,"SYN112AAXX  09181 76373 32488 11203 10284 20070 38208 40095 56010 81100 91748 333 10314 20128 30/// 56600 58000 81810;",
"76373099999","2006-06-10T12:00:00","4","25.35","-105.75","1967.0","TEPEHUANES DGO., MX","FM-12","99999","V020","280,1,N,0010,1","22000,1,9,N","015000,1,N,1","+0148,1","+0119,1","10046,1","24,0000,9,1",,,,,"00,1,+99999,9,99,9",,,"00,99,1,00,1,00,1,99999,9,00,1,00,1",,"01,9","999,+0120,1","120,N,+0144,1","240,M,+0342,1","99999,9,08182,1","9,9,999,9,-027,1",,"SYN100AAXX  10121 76373 32965 02801 10148 20119 38182 40046 5//// 91150 333 10342 20144 30120 59027 70000;","Q01  00002PRCP24"
"76373099999","2006-06-10T15:00:00","4","25.35","-105.75","1967.0","TEPEHUANES DGO., MX","FM-12","99999","V020","060,1,N,0010,1","22000,1,9,N","070000,1,N,1","+0204,1","+0134,1","10076,1",,,,,,"00,1,+99999,9,99,9",,,"00,99,1,00,1,00,1,99999,9,00,1,00,1",,"01,9",,,,"99999,9,08191,1","1,1,009,1,-036,1",,"SYN082AAXX  10151 76373 32988 00601 10204 20134 38191 40076 51009 91448 333 30/// 59036;",
"76373099999","2006-06-10T18:00:00","4","25.35","-105.75","1967.0","TEPEHUANES DGO., MX","FM-12","99999","V020","110,1,N,0030,1","22000,1,9,N","070000,1,N,1","+0304,1","+0112,1","10051,1",,,,,,"01,1,+00300,1,09,1",,,"03,99,1,03,1,01,1,00450,1,00,1,00,1",,"01,9",,"120,M,+0328,1","240,N,+0138,1","99999,9,08178,1","6,1,013,1,-030,1",,"SYN118AAXX  10181 76373 32488 31103 10304 20112 38178 40051 56013 83100 91745 333 10328 20138 30/// 56600 59030 81910 82810;",
"76373099999","2006-06-11T12:00:00","4","25.35","-105.75","1967.0","TEPEHUANES DGO., MX","FM-12","99999","V020","999,9,C,0000,1","22000,1,9,N","006000,1,N,1","+0144,1","+0106,1","10039,1","24,0000,9,1",,,,,"03,1,+01800,1,03,1",,,"03,99,1,03,1,00,1,01250,1,03,1,00,1",,"01,9","999,+0110,1","120,N,+0144,1","240,M,+0371,1","99999,9,08174,1","9,9,999,9,-008,1",,"SYN118AAXX  11121 76373 32656 30000 10144 20106 38174 40039 5//// 83030 91150 333 10371 20144 30110 56060 59008 70000 83356;",
"76373099999","2006-06-11T15:00:00","4","25.35","-105.75","1967.0","TEPEHUANES DGO., MX","FM-12","99999","V020","999,9,C,0000,1","22000,1,9,N","070000,1,N,1","+0220,1","+0111,1","10058,1",,,,,,"02,1,+02400,1,03,1",,,"02,99,1,02,1,00,1,01250,1,03,1,00,1",,"01,9",,,,"99999,9,08178,1","1,1,004,1,-013,1",,"SYN100AAXX  11151 76373 32688 20000 10220 20111 38178 40058 51004 82030 91450 333 30/// 56060 59013 82358;",
"76373099999","2006-06-11T18:00:00","4","25.35","-105.75","1967.0","TEPEHUANES DGO., MX","FM-12","99999","V020","160,1,N,0040,1","22000,1,9,N","070000,1,N,1","+0310,1","+0070,1","10035,1",,,,,,"01,1,+00360,1,08,1",,,"01,99,1,01,1,01,1,00450,1,00,1,00,1",,"01,9",,"120,M,+0332,1","240,N,+0140,1","99999,9,08170,1","6,1,008,1,-008,1",,"SYN112AAXX  11181 76373 32488 11604 10310 20070 38170 40035 56008 81100 91750 333 10332 20140 30/// 56200 59008 81812;",
"76373099999","2006-06-12T12:00:00","4","25.35","-105.75","1967.0","TEPEHUANES DGO., MX","FM-12","99999","V020","290,1,N,0010,1","22000,1,9,N","015000,1,N,1","+0138,1","+0069,1","10062,1","24,0000,9,1",,,,,"02,1,+06000,1,00,1",,,"02,99,1,00,1,00,1,99999,9,00,1,01,1",,"01,9","999,+0102,1","120,N,+0138,1","240,M,+0362,1","99999,9,08193,1","9,9,999,9,-019,1",,"SYN118AAXX  12121 76373 32965 22901 10138 20069 38193 40062 5//// 80001 91150 333 10362 20138 30102 56009 59019 70000 82070;",
"76373099999","2006-06-12T15:00:00","4","25.35","-105.75","1967.0","TEPEHUANES DGO., MX","FM-12","99999","V020","040,1,N,0010,1","22000,1,9,N","070000,1,N,1","+0210,1","+0119,1","10097,1",,,,,,"02,1,+06000,1,00,1",,,"02,99,1,00,1,00,1,99999,9,00,1,01,1",,"01,9",,,,"99999,9,08206,1","2,1,013,1,+028,1",,"SYN100AAXX  12151 76373 32988 20401 10210 20119 38206 40097 52013 80001 91450 333 30/// 56009 58028 82070;",
"76373099999","2006-06-12T18:00:00","4","25.35","-105.75","1967.0","TEPEHUANES DGO., MX","FM-12","99999","V020","140,1,N,0050,1","22000,1,9,N","070000,1,N,1","+0316,1","+0047,1","10058,1",,,,,,"01,1,+00300,1,08,1",,,"01,99,1,01,1,01,1,00450,1,00,1,00,1",,"01,9",,"120,M,+0340,1","240,N,+0134,1","99999,9,08184,1","6,1,022,1,+014,1",,"SYN112AAXX  12181 76373 32488 11405 10316 20047 38184 40058 56022 81100 91745 333 10340 20134 30/// 56200 58014 81810;",
"76373099999","2006-06-12T21:00:00","4","25.35","-105.75","1967.0","TEPEHUANES DGO., MX","FM-12","99999","V020","060,1,N,0040,1","22000,1,9,N","070000,1,N,1","+0336,1","+0057,1","10037,1",,,,,,"04,1,+00300,1,08,1",,,"04,99,1,04,1,01,1,00450,1,00,1,00,1",,"01,9",,,,"99999,9,08187,1","2,1,003,1,+999,9",,"SYN100AAXX  12211 76373 32488 40604 10336 20057 38187 40037 52003 84100 92045 333 30/// 56600 58/// 84810;",
"76373099999","2006-06-13T12:00:00","4","25.35","-105.75","1967.0","TEPEHUANES DGO., MX","FM-12","99999","V020","999,9,C,0000,1","22000,1,9,N","006000,1,N,1","+0132,1","+0069,1","10088,1","24,0000,9,1",,,,,"00,1,+99999,9,99,9",,,"00,99,1,00,1,00,1,99999,9,00,1,00,1",,"01,9","999,+0092,1","120,N,+0130,1","240,M,+0372,1","99999,9,08212,1",,,"SYN100AAXX  13121 76373 32956 00000 10132 20069 38212 40088 5//// 91150 333 10372 20130 30092 56019 70000;","Q01  00002PRCP24"
"76373099999","2006-06-13T15:00:00","4","25.35","-105.75","1967.0","TEPEHUANES DGO., MX","FM-12","99999","V020","060,1,N,0010,1","22000,1,9,N","070000,1,N,1","+0218,1","+0067,1","10120,1",,,,,,"00,1,+99999,9,99,9",,,"00,99,1,00,1,00,1,99999,9,00,1,00,1",,"01,9",,,,"99999,9,08222,1","2,1,010,1,+016,1",,"SYN082AAXX  13151 76373 32988 00601 10218 20067 38222 40120 52010 91450 333 30/// 58016;",
"76373099999","2006-06-13T18:00:00","4","25.35","-105.75","1967.0","TEPEHUANES DGO., MX","FM-12","99999","V020","090,1,N,0050,1","22000,1,9,N","070000,1,N,1","+0310,1","+0023,1","10099,1",,,,,,"01,1,+00300,1,08,1",,,"01,99,1,01,1,01,1,00450,1,00,1,00,1",,"01,9",,"120,M,+0330,1","240,N,+0122,1","99999,9,08214,1","6,1,008,1,+030,1",,"SYN112AAXX  13181 76373 32488 10905 10310 20023 38214 40099 56008 81100 91745 333 10330 20122 30/// 56600 58030 81810;",
"76373099999","2006-06-13T21:00:00","4","25.35","-105.75","1967.0","TEPEHUANES DGO., MX","FM-12","99999","V020","120,1,N,0030,1","22000,1,9,N","070000,1,N,1","+0326,1","+0044,1","10060,1",,,,,,"01,1,+00300,1,08,1",,,"01,99,1,01,1,01,1,00450,1,00,1,00,1",,"01,9",,,,"99999,9,08203,1","6,1,011,1,+016,1",,"SYN100AAXX  13211 76373 32488 11203 10326 20044 38203 40060 56011 81100 92045 333 30/// 56200 58016 81810;",
"76373099999","2006-06-14T12:00:00","4","25.35","-105.75","1967.0","TEPEHUANES DGO., MX","FM-12","99999","V020","999,9,C,0000,1","22000,1,9,N","015000,1,N,1","+0128,1","+0024,1","10095,1","24,0000,9,1",,,,,"00,1,+99999,9,99,9",,,"00,99,1,00,1,00,1,99999,9,00,1,00,1",,"01,9","999,+0096,1","120,N,+0122,1","240,M,+0360,1","99999,9,08223,1","9,9,999,9,+011,1",,"SYN100AAXX  14121 76373 32965 00000 10128 20024 38223 40095 5//// 91150 333 10360 20122 30096 58011 70000;","Q01  00002PRCP24"
"76373099999","2006-06-14T15:00:00","4","25.35","-105.75","1967.0","TEPEHUANES DGO., MX","FM-12","99999","V020","050,1,N,0010,1","22000,1,9,N","070000,1,N,1","+0214,1","+0062,1","10120,1",,,,,,"00,1,+99999,9,99,9",,,"00,99,1,00,1,00,1,99999,9,00,1,00,1",,"01,9",,,,"99999,9,08228,1","5,1,005,1,+006,1",,"SYN082AAXX  14151 76373 32988 00501 10214 20062 38228 40120 55005 91440 333 30/// 58006;",
"76373099999","2006-06-14T18:00:00","4","25.35","-105.75","1967.0","TEPEHUANES DGO., MX","FM-12","99999","V020","120,1,N,0060,1","22000,1,9,N","070000,1,N,1","+0298,1","+0023,1","10106,1",,,,,,"01,1,+00300,1,08,1",,,"01,99,1,01,1,01,1,00450,1,00,1,00,1",,"01,9",,"120,M,+0319,1","240,N,+0118,1","99999,9,08224,1","7,1,004,1,+010,1",,"SYN112AAXX  14181 76373 32488 11206 10298 20023 38224 40106 57004 81100 91745 333 10319 20118 30/// 56200 58010 81810;",
"76373099999","2006-06-14T21:00:00","4","25.35","-105.75","1967.0","TEPEHUANES DGO., MX","FM-12","99999","V020","060,1,N,0050,1","22000,1,9,N","070000,1,N,1","+0326,1","-0001,1","10058,1",,,,,,"00,1,+99999,9,99,9",,,"00,99,1,00,1,00,1,99999,9,00,1,00,1",,"01,9",,,,"99999,9,08202,1","6,1,022,1,-001,1",,"SYN082AAXX  14211 76373 32988 00605 10326 21001 38202 40058 56022 92045 333 30/// 59001;",
"76373099999","2006-06-15T00:00:00","4","25.35","-105.75","1967.0","TEPEHUANES DGO., MX","FM-12","99999","V020","050,1,N,0040,1","22000,1,9,N","070000,1,N,1","+0326,1","+0025,1","10002,1","24,0000,9,1",,,,,,,,"01,99,1,01,1,00,1,01250,1,03,1,00,1",,"01,9",,"120,M,+0358,1","180,N,+0118,1","99999,9,08182,1","6,1,020,1,-011,1",,"SYN124AAXX  15001 76373 32688 10504 10326 20025 38182 40002 56020 81030 92345 333 10358 20118 30/// 51020 56020 59011 70000 81360;",
"76373099999","2006-06-15T12:00:00","4","25.35","-105.75","1967.0","TEPEHUANES DGO., MX","FM-12","99999","V020","999,9,C,0000,1","22000,1,9,N","006000,1,N,1","+0120,1","+0027,1","10081,1","24,0000,9,1",,,,,"00,1,+99999,9,99,9",,,"00,99,1,00,1,00,1,99999,9,00,1,00,1",,"01,9","999,+0094,1","120,N,+0118,1","240,M,+0358,1","99999,9,08206,1","9,9,999,9,-017,1",,"SYN100AAXX  15121 76373 32956 00000 10120 20027 38206 40081 5//// 91145 333 10358 20118 30094 59017 70000;","Q01  00002PRCP24"
"76373099999","2006-06-15T15:00:00","4","25.35","-105.75","1967.0","TEPEHUANES DGO., MX","FM-12","99999","V020","340,1,N,0010,1","22000,1,9,N","070000,1,N,1","+0206,1","+0045,1","10106,1",,,,,,"00,1,+99999,9,99,9",,,"00,99,1,00,1,00,1,99999,9,00,1,00,1",,"01,9",,,,"99999,9,08209,1","1,1,003,1,-019,1",,"SYN082AAXX  15151 76373 32988 03401 10206 20045 38209 40106 51003 91445 333 30/// 59019;",
"76373099999","2006-06-15T18:00:00","4","25.35","-105.75","1967.0","TEPEHUANES DGO., MX","FM-12","99999","V020","240,1,N,0010,1","22000,1,9,N","070000,1,N,1","+0308,1","+0043,1","10081,1",,,,,,"01,1,+00300,1,08,1",,,"01,99,1,01,1,01,1,00450,1,00,1,00,1",,"01,9",,"120,M,+0334,1","240,N,+0108,1","99999,9,08197,1","6,1,012,1,-027,1",,"SYN112AAXX  15181 76373 32488 12401 10308 20043 38197 40081 56012 81100 91745 333 10334 20108 30/// 56600 59027 81810;",
"76373099999","2006-06-15T21:00:00","4","25.35","-105.75","1967.0","TEPEHUANES DGO., MX","FM-12","99999","V020","110,1,N,0050,1","22000,1,9,N","070000,1,N,1","+0342,1","+0001,1","99999,9",,,,,,"01,1,+99999,9,08,1",,,"01,99,1,01,1,01,1,00450,1,00,1,00,1",,"01,9",,,,"99999,9,08168,1","6,1,029,1,-034,1",,"SYN099AAXX  15211 76373 32488 11105 10342 20001 38168 40018 56029 81100 92045 333 30/// 56200 59034 8181;",
"76373099999","2006-06-16T00:00:00","4","25.35","-105.75","1967.0","TEPEHUANES DGO., MX","FM-12","99999","V020","270,1,N,0070,1","22000,1,9,N","070000,1,N,1","+0344,1","+0075,1","09959,2","24,0000,9,1",,,,,"02,1,+00300,1,08,1",,,"03,99,1,03,1,02,1,00450,1,00,1,00,1",,"01,9",,"120,M,+0370,1","180,N,+0108,1","99999,9,08150,1","7,1,018,1,-032,1",,"SYN130AAXX  16001 76373 32488 32707 10344 20075 38150 49959 57018 83200 92350 333 10370 20108 30/// 50830 56200 59032 70000 82810 81910;",
"76373099999","2006-06-16T12:00:00","4","25.35","-105.75","1967.0","TEPEHUANES DGO., MX","FM-12","99999","V020","999,9,C,0000,1","22000,1,9,N","015000,1,N,1","+0168,1","+0121,1","10055,1","24,0000,9,1",,,,,"01,1,+00300,1,08,1",,,"02,99,1,01,1,01,1,00450,1,04,1,00,1",,"01,9","999,+0137,1","120,N,+0168,1","240,M,+0370,1","99999,9,08191,1","9,9,999,9,-015,1",,"SYN124AAXX  16121 76373 32465 20000 10168 20121 38191 40055 5//// 81140 91150 333 10370 20168 30137 56990 59015 70000 81810 81356;",
"76373099999","2006-06-16T15:00:00","4","25.35","-105.75","1967.0","TEPEHUANES DGO., MX","FM-12","99999","V020","320,1,N,0060,1","22000,1,9,N","015000,1,N,1","+0248,1","+0138,1","10076,1",,,,"4,1,03,1","4,1,03,1","00,1,+99999,9,99,9",,,"00,99,1,00,1,00,1,99999,9,00,1,00,1",,"01,9",,,,"99999,9,08200,1","2,1,009,1,-009,1","04,1","SYN088AAXX  16151 76373 31965 03206 10248 20138 38200 40076 52009 70444 91450 333 30/// 59009;",
"76373099999","2006-06-16T18:00:00","4","25.35","-105.75","1967.0","TEPEHUANES DGO., MX","FM-12","99999","V020","240,1,N,0030,1","22000,1,9,N","070000,1,N,1","+0312,1","+0109,1","10048,1",,,,,,"02,1,+00300,1,09,1",,,"03,99,1,02,1,09,1,00450,1,03,1,00,1",,"01,9",,"120,M,+0332,1","240,N,+0162,1","99999,9,08188,1","6,1,012,1,-009,1",,"SYN118AAXX  16181 76373 32488 32403 10312 20109 38188 40048 56012 82930 91750 333 10332 20162 30/// 56220 59009 82910 81360;",
"76373099999","2006-06-16T21:00:00","4","25.35","-105.75","1967.0","TEPEHUANES DGO., MX","FM-12","99999","V020","330,1,N,0040,1","03600,1,C,N","070000,1,N,1","+0308,1","+0039,1","10005,1",,,,,,"04,1,+00300,1,09,1",,,"07,99,1,04,1,03,1,00450,1,03,1,00,1",,"01,9",,,,"99999,9,08168,1","6,1,020,1,+000,1",,"SYN106AAXX  16211 76373 32488 73304 10308 20039 38168 40005 56020 84330 92048 333 30/// 56220 58000 84910 83360;",
"76373099999","2006-06-17T00:00:00","4","25.35","-105.75","1967.0","TEPEHUANES DGO., MX","FM-12","99999","V020","090,1,N,0020,1","03600,1,9,N","070000,1,N,1","+0304,1","+0096,1","09982,1","24,0000,9,1",,,,,"01,1,+00300,1,09,1","01,1,+00300,1,08,1","02,1,+03000,1,03,1","06,99,1,02,1,03,1,00450,1,03,1,02,1",,"01,9",,"120,M,+0362,1","180,N,+0162,1","99999,9,08167,1","7,1,001,1,+017,1",,"SYN142AAXX  17001 76373 32488 60902 10304 20096 38167 49982 57001 82332 92346 333 10362 20162 30/// 50690 56666 58017 70000 81910 81810 82360 82070;",
"76373099999","2006-06-17T15:00:00","4","25.35","-105.75","1967.0","TEPEHUANES DGO., MX","FM-12","99999","V020","120,1,N,0010,1","03000,1,9,N","070000,1,N,1","+0196,1","+0114,1","10090,1",,,,,,"05,1,+03000,1,03,1",,,"05,99,1,05,1,00,1,01250,1,03,1,00,1",,"01,9",,,,"99999,9,08204,1","6,1,004,1,-005,1",,"SYN100AAXX  17151 76373 32688 51201 10196 20114 38204 40090 56004 85030 91445 333 30/// 56020 59005 85360;",
"76373099999","2006-06-17T18:00:00","4","25.35","-105.75","1967.0","TEPEHUANES DGO., MX","FM-12","99999","V020","180,1,N,0020,1","22000,1,9,N","070000,1,N,1","+0304,1","+0085,1","10083,1",,,,,,"01,1,+00300,1,08,1",,,"02,99,1,01,1,01,1,00450,1,03,1,00,1",,"01,9",,"120,M,+0330,1","240,N,+0148,1","99999,9,08208,1","2,1,004,1,+020,1",,"SYN118AAXX  17181 76373 32488 21802 10304 20085 38208 40083 52004 81130 91745 333 10330 20148 30/// 56220 58020 81810 81360;",
"76373099999","2006-06-18T12:00:00","4","25.35","-105.75","1967.0","TEPEHUANES DGO., MX","FM-12","99999","V020","290,1,N,0020,1","22000,1,9,N","015000,1,N,1","+0158,1","+0133,1","10088,1","12,0010,9,1","24,0010,9,1",,,,"00,1,+99999,9,99,9",,,"00,99,1,00,1,00,1,99999,9,00,1,00,1",,"01,9","999,+0135,1","120,N,+0154,1","240,M,+0374,1","99999,9,08202,1","9,9,999,9,-009,1",,"SYN112AAXX  18121 76373 02965 02902 10158 20133 38202 40088 5//// 60012 91155 333 10374 20154 30135 59009 60012 70011;",
"76373099999","2006-06-18T15:00:00","4","25.35","-105.75","1967.0","TEPEHUANES DGO., MX","FM-12","99999","V020","060,1,N,0010,1","22000,1,9,N","070000,1,N,1","+0222,1","+0161,1","10111,1",,,,,,"00,1,+99999,9,99,9",,,"00,99,1,00,1,00,1,99999,9,00,1,00,1",,"01,9",,,,"99999,9,08218,1","2,1,010,1,+015,1",,"SYN082AAXX  18151 76373 32988 00601 10222 20161 38218 40111 52010 91450 333 30/// 58015;",
"76373099999","2006-06-18T18:00:00","4","25.35","-105.75","1967.0","TEPEHUANES DGO., MX","FM-12","99999","V020","150,1,N,0020,1","22000,1,9,N","070000,1,N,1","+0314,1","+0089,1","10081,1",,,,,,"03,1,+00360,1,03,1",,,"04,99,1,04,1,03,1,00450,1,00,1,00,1",,"01,9",,"120,M,+0340,1","240,N,+0154,1","99999,9,08205,1","7,1,013,1,-003,1",,"SYN118AAXX  18181 76373 32488 41502 10314 20089 38205 40081 57013 84300 91750 333 10340 20154 30/// 56200 59003 83312 81812;",
"76373099999","2006-06-19T12:00:00","4","25.35","-105.75","1967.0","TEPEHUANES DGO., MX","FM-12","99999","V020","260,1,N,0010,1","06000,1,9,N","015000,1,N,1","+0160,1","+0125,1","10093,1","24,0000,9,1",,,,,"06,1,+06000,1,02,1",,,"06,99,1,00,1,00,1,99999,9,00,1,08,1",,"01,9","999,+0130,1","120,N,+0158,1","240,M,+0386,1","99999,9,08218,1","9,9,999,9,+009,1",,"SYN118AAXX  19121 76373 32965 62601 10160 20125 38218 40093 5//// 80008 91150 333 10386 20158 30130 56002 58009 70000 86270;",
"76373099999","2006-06-19T15:00:00","4","25.35","-105.75","1967.0","TEPEHUANES DGO., MX","FM-12","99999","V020","310,1,N,0010,1","06000,1,9,N","070000,1,N,1","+0222,1","+0128,1","10116,1",,,,,,"06,1,+06000,1,02,1",,,"06,99,1,00,1,00,1,99999,9,00,1,08,1",,"01,9",,,,"99999,9,08229,1","1,1,011,1,+011,1",,"SYN100AAXX  19151 76373 32988 63101 10222 20128 38229 40116 51011 80008 91450 333 30/// 56002 58011 86270;",
"76373099999","2006-06-19T18:00:00","4","25.35","-105.75","1967.0","TEPEHUANES DGO., MX","FM-12","99999","V020","150,1,N,0030,1","22000,1,9,N","070000,1,N,1","+0306,1","+0094,1","10095,1",,,,,,"02,1,+00300,1,09,1",,,"03,99,1,03,1,03,1,00450,1,00,1,00,1",,"01,9",,"120,M,+0330,1","240,N,+0156,1","99999,9,08221,1","6,1,008,1,+016,1",,"SYN118AAXX  19181 76373 32488 31503 10306 20094 38221 40095 56008 83300 91745 333 10330 20156 30/// 56200 58016 82910 81810;",
"76373099999","2006-06-20T00:00:00","4","25.35","-105.75","1967.0","TEPEHUANES DGO., MX","FM-12","99999","V020","280,1,N,0080,1","00300,1,C,N","070000,1,N,1","+0274,1","+0067,1","10007,1","02,0000,9,1","24,9999,9,9",,"9,1,06,1","5,1,06,1","06,1,+00300,1,09,1",,,"08,99,1,06,1,09,1,00450,1,00,1,02,1",,"01,9",,"120,M,+0365,1","180,N,+0056,1","99999,9,08186,1","7,1,010,1,+999,9","16,1","SYN148AAXX  20001 76373 01488 82808 10274 20067 38186 40007 57010 69906 71695 86902 92345 333 10365 20056 30/// 50670 56202 58/// 69906 79999 86910 82070;","Q01  00002PRCP02Q02  99992PRCP24"
"76373099999","2006-06-20T12:00:00","4","25.35","-105.75","1967.0","TEPEHUANES DGO., MX","FM-12","99999","V020","320,1,N,0010,1","06000,1,9,N","006000,1,N,1","+0156,1","+0114,1","10100,1","24,0000,9,1",,,,,"05,1,+06000,1,02,1",,,"05,99,1,00,1,00,1,99999,9,00,1,08,1",,"01,9","999,+0132,1","120,N,+0154,1","240,M,+0365,1","99999,9,08222,1","9,9,999,9,+004,1",,"SYN118AAXX  20121 76373 32956 53201 10156 20114 38222 40100 5//// 80008 91150 333 10365 20154 30132 56002 58004 79999 85270;","Q01  00002PRCP24"
"76373099999","2006-06-20T15:00:00","4","25.35","-105.75","1967.0","TEPEHUANES DGO., MX","FM-12","99999","V020","999,9,C,0000,1","22000,1,9,N","070000,1,N,1","+0222,1","+0109,1","10113,1",,,,,,"02,1,+06000,1,00,1",,,"02,99,1,00,1,00,1,99999,9,00,1,02,1",,"01,9",,,,"99999,9,08226,1","3,1,004,1,-003,1",,"SYN100AAXX  20151 76373 32988 20000 10222 20109 38226 40113 53004 80002 91450 333 30/// 56002 59003 82070;",
"76373099999","2006-06-20T18:00:00","4","25.35","-105.75","1967.0","TEPEHUANES DGO., MX","FM-12","99999","V020","150,1,N,0020,1","22000,1,9,N","070000,1,N,1","+0312,1","+0091,1","10083,1",,,,,,"02,1,+00300,1,09,1",,,"03,99,1,03,1,03,1,00450,1,00,1,00,1",,"01,9",,"120,M,+0334,1","240,N,+0148,1","99999,9,08212,1","0,1,014,1,-009,1",,"SYN118AAXX  20181 76373 32488 31502 10312 20091 38212 40083 50014 83300 91746 333 10334 20148 30/// 56200 59009 82910 81810;",
"76373099999","2006-06-21T12:00:00","4","25.35","-105.75","1967.0","TEPEHUANES DGO., MX","FM-12","99999","V020","330,1,N,0020,1","22000,1,9,N","015000,1,N,1","+0174,1","+0134,1","10104,1","24,0036,9,1",,,,,"04,1,+01800,1,03,1",,,"04,99,1,04,1,00,1,01250,1,06,1,00,1",,"01,9","999,+0150,1","120,N,+0170,1","240,M,+0360,1","99999,9,08217,1","9,9,999,9,-005,1",,"SYN118AAXX  21121 76373 32665 43302 10174 20134 38217 40104 5//// 84060 91150 333 10360 20170 30150 56020 59005 70036 84356;",
"76373099999","2006-06-21T15:00:00","4","25.35","-105.75","1967.0","TEPEHUANES DGO., MX","FM-12","99999","V020","310,1,N,0030,1","22000,1,9,N","070000,1,N,1","+0210,1","+0135,1","10118,1",,,,,,"04,1,+01800,1,03,1",,,"04,99,1,04,1,00,1,01250,1,03,1,00,1",,"09,9",,,,"99999,9,08222,1","1,1,005,1,-004,1",,"SYN100AAXX  21151 76373 32688 43103 10210 20135 38222 40118 51005 84030 91450 333 31/// 56020 59004 84356;",
"76373099999","2006-06-21T21:00:00","4","25.35","-105.75","1967.0","TEPEHUANES DGO., MX","FM-12","99999","V020","330,1,N,0040,1","00300,1,9,N","070000,1,N,1","+0302,1","+0055,1","99999,9",,,,,,"04,1,+00300,1,09,1","01,1,+00300,1,08,1",,"06,99,1,05,1,03,1,00450,1,03,1,00,1",,"01,9",,,,"99999,9,08186,1","6,1,026,1,+000,1",,"SYN112AAXX  21211 76373 32488 63304 10302 20055 38186 40037 56026 85330 92045 333 30/// 56220 58000 84910 81810 81360;",
"76373099999","2006-06-22T12:00:00","4","25.35","-105.75","1967.0","TEPEHUANES DGO., MX","FM-12","99999","V020","300,1,N,0010,1","09000,1,C,N","015000,1,N,1","+0146,1","+0121,1","10104,1","24,0000,9,1",,,,,"04,1,+03000,1,03,1",,,"06,99,1,04,1,00,1,01250,1,03,1,02,1",,"01,9","999,+0122,1","120,N,+0140,1","240,M,+0342,1","99999,9,08214,1","9,9,999,9,-003,1",,"SYN124AAXX  22121 76373 32665 63001 10146 20121 38214 40104 5//// 84032 91150 333 10342 20140 30122 56022 59003 79999 84360 82070;","Q01  00002PRCP24"
"76373099999","2006-06-22T15:00:00","4","25.35","-105.75","1967.0","TEPEHUANES DGO., MX","FM-12","99999","V020","280,1,N,0030,1","22000,1,9,N","070000,1,N,1","+0218,1","+0133,1","10125,1",,,,,,"04,1,+03000,1,03,1",,,"04,99,1,04,1,00,1,01250,1,03,1,00,1",,"01,9",,,,"99999,9,08224,1","2,1,010,1,+002,1",,"SYN100AAXX  22151 76373 32688 42803 10218 20133 38224 40125 52010 84030 91145 333 30/// 56020 58002 84360;",
"76373099999","2006-06-22T18:00:00","4","25.35","-105.75","1967.0","TEPEHUANES DGO., MX","FM-12","99999","V020","120,1,N,0040,1","22000,1,9,N","070000,1,N,1","+0310,1","+0105,1","10095,1",,,,,,"03,1,+00300,1,09,1",,,"99,99,9,03,1,03,1,00450,1,00,1,00,1",,"01,9",,"120,M,+0328,1","240,N,+0140,1","99999,9,08214,1","6,1,010,1,+028,1",,"SYN112AAXX  22181 76373 32488 11204 10310 20105 38214 40095 56010 83300 91758 333 10328 20140 30/// 56200 58028 83910;",
"76373099999","2006-06-22T21:00:00","4","25.35","-105.75","1967.0","TEPEHUANES DGO., MX","FM-12","99999","V020","120,1,N,0080,1","00300,1,9,N","070000,1,N,1","+0322,1","+0078,1","10048,1",,,,,,"05,1,+00300,1,09,1",,,"07,99,1,05,1,03,1,00450,1,00,1,02,1",,"01,9",,,,"99999,9,08195,1","6,1,019,1,+009,1",,"SYN106AAXX  22211 76373 32488 71208 10322 20078 38195 40048 56019 85302 92045 333 30/// 56202 58009 85910 82070;",
"76373099999","2006-06-23T12:00:00","4","25.35","-105.75","1967.0","TEPEHUANES DGO., MX","FM-12","99999","V020","340,1,N,0010,1","22000,1,9,N","015000,1,N,1","+0176,1","+0123,1","10111,1","12,0000,9,1","24,0000,9,1",,,,"02,1,+03000,1,03,1",,,"04,99,1,02,1,00,1,01250,1,03,1,05,1",,"01,9","999,+0160,1","120,N,+0174,1","240,M,+0352,1","99999,9,08228,1","9,9,999,9,+014,1",,"SYN136AAXX  23121 76373 02665 43401 10176 20123 38228 40111 5//// 69902 82035 91150 333 10352 20174 30160 56022 58014 69902 79999 82360 82070;","Q01  00002PRCP24Q02  00002PRCP12"
"76373099999","2006-06-23T15:00:00","4","25.35","-105.75","1967.0","TEPEHUANES DGO., MX","FM-12","99999","V020","320,1,N,0010,1","22000,1,9,N","070000,1,N,1","+0208,1","+0128,1","10125,1",,,,,,"01,1,+03000,1,03,1",,,"02,99,1,01,1,00,1,01250,1,04,1,02,1",,"01,9",,,,"99999,9,08234,1","1,1,006,1,+010,1",,"SYN106AAXX  23151 76373 32688 23201 10208 20128 38234 40125 51006 81042 91450 333 30/// 56099 58010 81360 81070;",
"76373099999","2006-06-23T18:00:00","4","25.35","-105.75","1967.0","TEPEHUANES DGO., MX","FM-12","99999","V020","150,1,N,0030,1","22000,1,9,N","070000,1,N,1","+0288,1","+0125,1","10099,1",,,,,,"02,1,+00300,1,09,1","01,1,+00300,1,08,1",,"04,99,1,03,1,03,1,00450,1,03,1,00,1",,"01,9",,"120,M,+0310,1","240,N,+0170,1","99999,9,08226,1","7,1,008,1,+012,1",,"SYN124AAXX  23181 76373 32488 41503 10288 20125 38226 40099 57008 83330 91745 333 10310 20170 30/// 56220 58012 82910 81810 81360;",
"76373099999","2006-06-24T00:00:00","4","25.35","-105.75","1967.0","TEPEHUANES DGO., MX","FM-12","99999","V020","240,1,N,0030,1","00300,1,C,N","070000,1,N,1","+0234,1","+0138,1","10051,1","03,0005,9,1","24,0010,9,1",,"9,1,06,1","5,1,06,1","02,1,+00300,1,09,1","03,1,+00300,1,08,1",,"08,99,1,05,1,07,1,00450,1,06,1,00,1",,"09,9",,"120,M,+0315,1","180,N,+0170,1","99999,9,08198,1","7,1,009,1,+003,1","50,1","SYN154AAXX  24001 76373 01488 82403 10234 20138 38198 40051 57009 69957 75095 85760 92348 333 10315 20170 31/// 50560 56220 58003 69957 70010 82910 83810 83360;",
"76373099999","2006-06-24T15:00:00","4","25.35","-105.75","1967.0","TEPEHUANES DGO., MX","FM-12","99999","V020","999,9,C,0000,1","03600,1,C,N","070000,1,N,1","+0186,1","+0137,1","10127,1","15,0002,9,1",,,,,"01,1,+00300,1,08,1",,,"08,99,1,01,1,01,1,00450,1,03,1,00,1",,"01,9",,,,"99999,9,08242,1","2,1,013,1,+018,1",,"SYN118AAXX  24151 76373 02488 80000 10186 20137 38242 40127 52013 69929 81130 91440 333 30/// 56220 58018 69929 81810 87360;",
"76373099999","2006-06-24T18:00:00","4","25.35","-105.75","1967.0","TEPEHUANES DGO., MX","FM-12","99999","V020","060,1,N,0030,1","03600,1,C,N","070000,1,N,1","+0256,1","+0151,1","10113,1",,,,,,"03,1,+00300,1,09,1",,,"08,99,1,03,1,03,1,00450,1,03,1,00,1",,"01,9",,"120,M,+0280,1","240,N,+0162,1","99999,9,08233,1","6,1,009,1,+003,1",,"SYN118AAXX  24181 76373 32488 80603 10256 20151 38233 40113 56009 83330 91745 333 10280 20162 30/// 56220 58003 83910 86360;",
"76373099999","2006-06-25T12:00:00","4","25.35","-105.75","1967.0","TEPEHUANES DGO., MX","FM-12","99999","V020","240,1,N,0010,1","00300,1,9,N","015000,1,N,1","+0158,1","+0145,1","10134,1","06,0020,9,1","12,0020,9,1","24,0024,9,1",,,"08,1,+00300,1,06,1",,,"08,99,1,08,1,04,1,00450,1,99,9,99,9",,"01,9","999,+0150,1","120,N,+0152,1","240,M,+0300,1","99999,9,08237,1","9,9,999,9,+008,1",,"SYN130AAXX  25121 76373 02465 82401 10158 20145 38237 40134 5//// 60022 884// 91150 333 10300 20152 30150 562// 58008 60021 70024 88610;",
"76373099999","2006-06-25T15:00:00","4","25.35","-105.75","1967.0","TEPEHUANES DGO., MX","FM-12","99999","V020","260,1,N,0020,1","22000,1,9,N","070000,1,N,1","+0192,1","+0156,1","10148,1",,,,,,"02,1,+00300,1,09,1",,,"04,99,1,02,1,09,1,00450,1,03,1,00,1",,"09,9",,,,"99999,9,08241,1","1,1,004,1,-001,1",,"SYN106AAXX  25151 76373 32488 42602 10192 20156 38241 40148 51004 82930 91450 333 31/// 56220 59001 82910 82356;",
"76373099999","2006-06-25T18:00:00","4","25.35","-105.75","1967.0","TEPEHUANES DGO., MX","FM-12","99999","V020","070,1,N,0030,1","03600,1,C,N","070000,1,N,1","+0252,1","+0139,1","10127,1",,,,,,"04,1,+00300,1,09,1",,,"06,99,1,04,1,03,1,00450,1,04,1,00,1",,"01,9",,"120,M,+0275,1","240,N,+0152,1","99999,9,08230,1","7,1,011,1,-003,1",,"SYN118AAXX  25181 76373 32488 60703 10252 20139 38230 40127 57011 84340 91750 333 10275 20152 30/// 56220 59003 84910 82356;",
"76373099999","2006-06-26T12:00:00","4","25.35","-105.75","1967.0","TEPEHUANES DGO., MX","FM-12","99999","V020","999,9,C,0000,1","03600,1,C,N","015000,1,N,1","+0145,1","+0140,1","10144,1","06,0120,9,2","12,0119,9,2","24,0122,9,1",,,"03,1,+00300,1,06,1",,,"08,99,1,03,1,05,1,00450,1,02,1,00,1",,"01,9","999,+0138,1","120,N,+0138,1","240,M,+0294,1","99999,9,08227,1","9,9,999,9,-010,1",,"SYN136AAXX  26121 76373 02465 80000 10145 20140 38227 40144 5//// 60122 83520 91150 333 10294 20138 30138 56220 59010 60121 70122 83610 85556;",
"76373099999","2006-06-26T15:00:00","4","25.35","-105.75","1967.0","TEPEHUANES DGO., MX","FM-12","99999","V020","999,9,C,0000,1","00300,1,9,N","070000,1,N,1","+0160,1","+0145,1","10158,1","03,0008,9,1",,,"5,1,03,1","2,1,03,1","06,1,+00300,1,07,1",,,"08,99,1,06,1,07,1,00450,1,02,1,00,1",,"11,9",,,,"99999,9,08234,1","1,1,007,1,-007,1","50,1","SYN118AAXX  26151 76373 21488 80000 10160 20145 38234 40158 51007 75052 86720 91450 333 32/// 56220 59007 69987 86710 82456;",
"76373099999","2006-06-26T18:00:00","4","25.35","-105.75","1967.0","TEPEHUANES DGO., MX","FM-12","99999","V020","300,1,N,0010,1","00300,1,9,N","050000,1,N,1","+0186,1","+0141,1","10173,1","03,9999,2,9","06,0010,9,1",,"5,1,06,1","5,1,06,1","06,1,+00300,1,02,1",,,"08,99,1,08,1,07,1,00250,1,00,1,00,1",,"09,9",,"120,M,+0200,1","240,N,+0136,1","99999,9,08236,1","2,1,002,1,+006,1","50,1","SYN130AAXX  26181 76373 01384 83001 10186 20141 38236 40173 52002 60011 75055 88700 91747 333 10200 20136 31/// 56200 58006 69907 86210;",
"76373099999","2006-06-26T21:00:00","4","25.35","-105.75","1967.0","TEPEHUANES DGO., MX","FM-12","99999","V020","090,1,N,0020,1","03600,1,C,N","070000,1,N,1","+0252,1","+0135,1","99999,9",,,,,,"02,1,+00300,1,09,1","02,1,+03000,1,03,1",,"08,99,1,02,1,03,1,00450,1,04,1,00,1",,"01,9",,,,"99999,9,08210,1","5,1,026,1,+999,9",,"SYN112AAXX  26211 76373 32488 80902 10252 20135 38210 40104 55026 82340 92050 333 30/// 56222 58/// 82910 82360 84070;",
"76373099999","2006-06-27T00:00:00","4","25.35","-105.75","1967.0","TEPEHUANES DGO., MX","FM-12","99999","V020","320,1,N,0030,1","00300,1,C,N","070000,1,N,1","+0178,1","+0141,1","10095,1","02,0000,2,1","24,0129,9,1",,"9,1,06,1","5,1,06,1","06,1,+00300,1,09,1",,,"08,99,1,06,1,09,1,00450,1,00,1,00,1",,"01,9",,"120,M,+0282,1","180,N,+0136,1","99999,9,08212,1","2,1,002,1,+999,9","50,1","SYN148AAXX  27001 76373 01488 83203 10178 20141 38212 40095 52002 69906 75095 86900 92345 333 10282 20136 30/// 50630 56200 58/// 69906 70129 86910 82810;",
"76373099999","2006-06-27T12:00:00","4","25.35","-105.75","1967.0","TEPEHUANES DGO., MX","FM-12","99999","V020","230,1,N,0020,1","99999,9,9,N","005000,1,N,1","+0144,1","+0137,1","10151,1","12,0061,9,1",,,"5,1,06,1","2,1,06,1",,,,"08,99,1,99,9,99,9,00450,1,99,9,99,9",,,,,,"99999,9,08228,1",,"51,1","SYN072AAXX  27121 76373 01450 82302 10144 20137 38228 40151 5//// 60062 75152;",
"76373099999","2006-06-27T15:00:00","4","25.35","-105.75","1967.0","TEPEHUANES DGO., MX","FM-12","99999","V020","999,9,C,0000,1","00300,1,9,N","015000,1,N,1","+0156,1","+0137,1","10162,1",,,,,,"08,1,+00300,1,07,1",,,"08,99,1,08,1,07,1,00450,1,99,9,99,9",,"11,9",,,,"99999,9,08237,1","2,1,009,1,+003,1",,"SYN100AAXX  27151 76373 32465 80000 10156 20137 38237 40162 52009 887// 91450 333 32/// 562// 58003 88710;",
"76373099999","2006-06-27T18:00:00","4","25.35","-105.75","1967.0","TEPEHUANES DGO., MX","FM-12","99999","V020","140,1,N,0040,1","00300,1,9,N","060000,1,N,1","+0210,1","+0153,1","10151,1",,,,,,"06,1,+00300,1,06,1",,,"08,99,1,06,1,06,1,00250,1,03,1,00,1",,"09,9",,"120,M,+0228,1","240,N,+0140,1","99999,9,08234,1","7,1,003,1,-002,1",,"SYN118AAXX  27181 76373 32386 81404 10210 20153 38234 40151 57003 86630 91745 333 10228 20140 31/// 56220 59002 86610 82360;",
"76373099999","2006-06-27T21:00:00","4","25.35","-105.75","1967.0","TEPEHUANES DGO., MX","FM-12","99999","V020","110,1,N,0040,1","22000,1,9,N","070000,1,N,1","+0236,1","+0137,1","10111,1",,,,,,"01,1,+00300,1,09,1","01,1,+00300,1,08,1",,"04,99,1,02,1,03,1,00450,1,03,1,00,1",,"01,9",,,,"99999,9,08216,1","6,1,018,1,+006,1",,"SYN112AAXX  27211 76373 32488 41104 10236 20137 38216 40111 56018 82330 92045 333 30/// 56220 58006 81910 81810 82360;",
"76373099999","2006-06-28T12:00:00","4","25.35","-105.75","1967.0","TEPEHUANES DGO., MX","FM-12","99999","V020","999,9,C,0000,1","22000,1,9,N","015000,1,N,1","+0139,1","+0137,1","10162,1","06,0006,9,2","12,0005,9,2","24,0074,9,1",,,"02,1,+00300,1,08,1",,,"02,99,1,02,1,01,1,00450,1,00,1,00,1",,"01,9","999,+0126,1","120,N,+0138,1","240,M,+0260,1","99999,9,08243,1","9,9,999,9,+015,1",,"SYN130AAXX  28121 76373 02465 20000 10139 20137 38243 40162 5//// 69942 82100 91150 333 10260 20138 30126 56200 58015 69961 70074 82810;",
"76373099999","2006-06-28T15:00:00","4","25.35","-105.75","1967.0","TEPEHUANES DGO., MX","FM-12","99999","V020","999,9,C,0000,1","22000,1,9,N","015000,1,N,1","+0162,1","+0141,1","10179,1",,,,,,"02,1,+00300,1,09,1","01,1,+00300,1,08,1",,"04,99,1,03,1,03,1,00450,1,03,1,00,1",,"09,9",,,,"99999,9,08250,1","1,1,007,1,+013,1",,"SYN112AAXX  28151 76373 32465 40000 10162 20141 38250 40179 51007 83330 91450 333 31/// 56220 58013 82910 81810 81358;",
"76373099999","2006-06-28T18:00:00","4","25.35","-105.75","1967.0","TEPEHUANES DGO., MX","FM-12","99999","V020","120,1,N,0050,1","22000,1,9,N","070000,1,N,1","+0230,1","+0133,1","10155,1",,,,,,"01,1,+00300,1,09,1","02,1,+00300,1,08,1",,"04,99,1,03,1,02,1,00450,1,03,1,00,1",,"09,9",,"120,M,+0250,1","240,N,+0132,1","99999,9,08242,1","6,1,008,1,+008,1",,"SYN124AAXX  28181 76373 32488 41205 10230 20133 38242 40155 56008 83230 91745 333 10250 20132 31/// 56220 58008 82810 81910 81360;",
"76373099999","2006-06-29T12:00:00","4","25.35","-105.75","1967.0","TEPEHUANES DGO., MX","FM-12","99999","V020","310,1,N,0010,1","22000,1,9,N","015000,1,N,1","+0126,1","+0119,1","10162,1","24,0000,9,1",,,,,"02,1,+02400,1,03,1",,,"02,99,1,02,1,00,1,01250,1,04,1,00,1",,"01,9","999,+0100,1","120,N,+0124,1","240,M,+0288,1","99999,9,08241,1","9,9,999,9,-002,1",,"SYN118AAXX  29121 76373 32665 23101 10126 20119 38241 40162 5//// 82040 91150 333 10288 20124 30100 56020 59002 79999 82358;","Q01  00002PRCP24"
"76373099999","2006-06-29T15:00:00","4","25.35","-105.75","1967.0","TEPEHUANES DGO., MX","FM-12","99999","V020","999,9,C,0000,1","22000,1,9,N","070000,1,N,1","+0158,1","+0123,1","10181,1",,,,,,"01,1,+00300,1,08,1",,,"04,99,1,01,1,01,1,00450,1,03,1,00,1",,"09,9",,,,"99999,9,08251,1","2,1,010,1,+001,1",,"SYN106AAXX  29151 76373 32488 40000 10158 20123 38251 40181 52010 81130 91440 333 31/// 56220 58001 81810 83358;",
"76373099999","2006-06-29T18:00:00","4","25.35","-105.75","1967.0","TEPEHUANES DGO., MX","FM-12","99999","V020","110,1,N,0040,1","22000,1,9,N","070000,1,N,1","+0238,1","+0129,1","10158,1",,,,,,"02,1,+00300,1,09,1",,,"03,99,1,02,1,03,1,00450,1,03,1,00,1",,"01,9",,"120,M,+0260,1","240,N,+0118,1","99999,9,08244,1","7,1,033,1,+002,1",,"SYN118AAXX  29181 76373 32488 31104 10238 20129 38244 40158 57033 82330 91745 333 10260 20118 30/// 56220 58002 82910 81360;",
"76373099999","2006-06-29T21:00:00","4","25.35","-105.75","1967.0","TEPEHUANES DGO., MX","FM-12","99999","V020","060,1,N,0040,1","00300,1,9,N","070000,1,N,1","+0246,1","+0102,1","10125,1",,,,,,"06,1,+00300,1,09,1",,,"07,99,1,06,1,03,1,00450,1,03,1,00,1",,"01,9",,,,"99999,9,08232,1","6,1,012,1,+006,1",,"SYN106AAXX  29211 76373 32488 70604 10246 20102 38232 40125 56012 86330 92045 333 30/// 56220 58006 86910 81360;",
"76373099999","2006-06-30T00:00:00","4","25.35","-105.75","1967.0","TEPEHUANES DGO., MX","FM-12","99999","V020","310,1,N,0030,1","09000,1,9,N","070000,1,N,1","+0234,1","+0097,1","10090,1","24,0000,9,1",,,,,"01,1,+00300,1,09,1","01,1,+00300,1,08,1","02,1,+03000,1,03,1","05,99,1,02,1,03,1,00450,1,03,1,02,1",,"01,9",,"120,M,+0295,1","180,N,+0118,1","99999,9,08219,1","7,1,013,1,-010,1",,"SYN142AAXX  30001 76373 32488 53103 10234 20097 38219 40090 57013 82332 92345 333 10295 20118 30/// 50430 56222 59010 70000 81910 81810 82360 81070;",
"76373099999","2006-06-30T12:00:00","4","25.35","-105.75","1967.0","TEPEHUANES DGO., MX","FM-12","99999","V020","310,1,N,0020,1","00360,1,9,N","015000,1,N,1","+0154,1","+0135,1","10125,1","24,0000,9,1",,,,,"08,1,+00360,1,06,1",,,"08,99,1,08,1,06,1,00450,1,00,1,00,1",,"01,9","999,+0135,1","120,N,+0150,1","240,M,+0295,1","99999,9,08229,1","9,9,999,9,-012,1",,"SYN118AAXX  30121 76373 32465 83102 10154 20135 38229 40125 5//// 88600 91150 333 10295 20150 30135 56200 59012 70000 88612;",
"76373099999","2006-06-30T15:00:00","4","25.35","-105.75","1967.0","TEPEHUANES DGO., MX","FM-12","99999","V020","030,1,N,0010,1","22000,1,9,N","070000,1,N,1","+0188,1","+0132,1","10141,1",,,,,,"01,1,+00300,1,08,1",,,"02,99,1,01,1,02,1,00450,1,03,1,00,1",,"01,9",,,,"99999,9,08233,1","1,1,004,1,-018,1",,"SYN106AAXX  30151 76373 32488 20301 10188 20132 38233 40141 51004 81230 91445 333 30/// 56220 59018 81810 81360;",
"76373099999","2006-06-30T18:00:00","4","25.35","-105.75","1967.0","TEPEHUANES DGO., MX","FM-12","99999","V020","120,1,N,0030,1","22000,1,9,N","070000,1,N,1","+0262,1","+0119,1","10116,1",,,,,,"03,1,+00300,1,09,1",,,"04,99,1,03,1,03,1,00450,1,03,1,00,1",,"01,9",,"120,M,+0290,1","240,N,+0149,1","99999,9,08222,1","6,1,011,1,-022,1",,"SYN118AAXX  30181 76373 32488 41203 10262 20119 38222 40116 56011 83330 91750 333 10290 20149 30/// 56220 59022 83910 81360;",
"76373099999","2006-06-30T21:00:00","4","25.35","-105.75","1967.0","TEPEHUANES DGO., MX","FM-12","99999","V020","030,1,N,0040,1","03600,1,C,N","070000,1,N,1","+0274,1","+0115,1","10069,1",,,,,,"02,1,+00300,1,06,1","02,1,+00300,1,08,1",,"05,99,1,03,1,03,1,00450,1,03,1,00,1",,"01,9",,,,"99999,9,08199,1","6,1,023,1,-003,1",,"SYN112AAXX  30211 76373 32488 50304 10274 20115 38199 40069 56023 83330 92040 333 30/// 56220 59003 82610 82810 82360;",
"76373099999","2006-07-01T15:00:00","4","25.35","-105.75","1967.0","TEPEHUANES DGO., MX","FM-12","99999","V020","310,1,N,0010,1","09000,1,C,N","070000,1,N,1","+0166,1","+0138,1","10137,1","15,0120,9,1",,,,,"02,1,+03000,1,03,1",,,"06,99,1,02,1,00,1,01250,1,03,1,02,1",,"09,9",,,,"99999,9,08223,1","9,9,999,9,-010,1",,"SYN118AAXX  01151 76373 02688 63101 10166 20138 38223 40137 5//// 60129 82032 91440 333 31/// 56022 59010 60129 82360 84070;",
"76373099999","2006-07-01T18:00:00","4","25.35","-105.75","1967.0","TEPEHUANES DGO., MX","FM-12","99999","V020","120,1,N,0050,1","00300,1,9,N","070000,1,N,1","+0230,1","+0150,1","10120,1",,,,"9,1,06,1","9,1,06,1","04,1,+00300,1,09,1","01,1,+00300,1,08,1",,"07,99,1,05,1,09,1,00450,1,03,1,00,1",,"01,9",,"120,M,+0262,1","240,N,+0130,1","99999,9,08217,1","6,1,006,1,-005,1","17,1","SYN130AAXX  01181 76373 31488 71205 10230 20150 38217 40120 56006 71799 85930 91740 333 10262 20130 30/// 56220 59005 84910 81810 82360;",
"76373099999","2006-07-02T12:00:00","4","25.35","-105.75","1967.0","TEPEHUANES DGO., MX","FM-12","99999","V020","290,1,N,0010,1","03600,1,C,N","005000,1,N,1","+0144,1","+0137,1","10141,1","06,0003,9,1","12,0110,9,1","24,0320,9,1",,,"03,1,+00300,1,06,1",,,"08,99,1,03,1,04,1,00450,1,02,1,00,1",,"01,9","999,+0135,1","120,N,+0140,1","240,M,+0262,1","99999,9,08225,1",,,"SYN136AAXX  02121 76373 02450 82901 10144 20137 38225 40141 5//// 69931 83420 91150 333 10262 20140 30135 56220 58/// 60112 70320 83610 85458;",
"76373099999","2006-07-02T15:00:00","4","25.35","-105.75","1967.0","TEPEHUANES DGO., MX","FM-12","99999","V020","999,9,C,0000,1","01800,1,9,N","070000,1,N,1","+0158,1","+0136,1","10162,1","03,0002,9,1",,,,,"08,1,+01800,1,04,1",,,"08,99,1,08,1,00,1,00450,1,02,1,00,1",,"09,9",,,,"99999,9,08237,1","2,1,012,1,+014,1",,"SYN106AAXX  02151 76373 21488 80000 10158 20136 38237 40162 52012 88020 91450 333 31/// 56020 58014 69927 88456;",
"76373099999","2006-07-02T18:00:00","4","25.35","-105.75","1967.0","TEPEHUANES DGO., MX","FM-12","99999","V020","020,1,N,0010,1","03600,1,C,N","070000,1,N,1","+0190,1","+0125,1","10155,1",,,,,,"04,1,+00300,1,03,1",,,"08,99,1,04,1,03,1,00450,1,02,1,00,1",,"09,9",,"120,M,+0220,1","240,N,+0140,1","99999,9,08237,1","0,1,000,1,+020,1",,"SYN118AAXX  02181 76373 32488 80201 10190 20125 38237 40155 50000 84320 91140 333 10220 20140 31/// 56220 58020 84310 84456;",
"76373099999","2006-07-03T12:00:00","4","25.35","-105.75","1967.0","TEPEHUANES DGO., MX","FM-12","99999","V020","999,9,C,0000,1","03600,1,C,N","015000,1,N,1","+0150,1","+0127,1","10158,1","12,0030,9,1","18,0030,9,1","24,0060,9,1",,,"03,1,+00300,1,07,1",,,"07,99,1,03,1,06,1,00450,1,03,1,02,1",,"01,9","999,+0140,1","120,N,+0144,1","240,M,+0282,1","99999,9,08241,1","9,9,999,9,+016,1",,"SYN136AAXX  03121 76373 02465 70000 10150 20127 38241 40158 5//// 60033 83632 91150 333 10282 20144 30140 56222 58016 60032 70060 83710 82358;",
"76373099999","2006-07-03T15:00:00","4","25.35","-105.75","1967.0","TEPEHUANES DGO., MX","FM-12","99999","V020","320,1,N,0010,1","22000,1,9,N","070000,1,N,1","+0184,1","+0152,1","10167,1",,,,,,"02,1,+00300,1,08,1",,,"04,99,1,02,1,01,1,00450,1,03,1,00,1",,"09,9",,,,"99999,9,08250,1","2,1,009,1,+025,1",,"SYN106AAXX  03151 76373 32488 43201 10184 20152 38250 40167 52009 82130 91450 333 31/// 56220 58025 82810 82360;",
"76373099999","2006-07-03T18:00:00","4","25.35","-105.75","1967.0","TEPEHUANES DGO., MX","FM-12","99999","V020","090,1,N,0010,1","22000,1,9,N","070000,1,N,1","+0240,1","+0149,1","10144,1",,,,,,"02,1,+00300,1,09,1",,,"03,99,1,02,1,09,1,00450,1,00,1,02,1",,"09,9",,"120,M,+0262,1","240,N,+0142,1","99999,9,08239,1","6,1,011,1,+002,1",,"SYN118AAXX  03181 76373 32488 30901 10240 20149 38239 40144 56011 82902 91752 333 10262 20142 31/// 56202 58002 82910 81070;",
"76373099999","2006-07-03T21:00:00","4","25.35","-105.75","1967.0","TEPEHUANES DGO., MX","FM-12","99999","V020","120,1,N,0030,1","22000,1,C,N","070000,1,N,1","+0278,1","+0116,1","10099,1",,,,,,"03,1,+00300,1,09,1",,,"06,99,1,03,1,03,1,00450,1,00,1,04,1",,"01,9",,,,"99999,9,08220,1","6,1,019,1,+999,9",,"SYN106AAXX  03211 76373 32488 61203 10278 20116 38220 40099 56019 83304 92040 333 30/// 56202 58/// 83910 83070;",
"76373099999","2006-07-04T00:00:00","4","25.35","-105.75","1967.0","TEPEHUANES DGO., MX","FM-12","99999","V020","300,1,N,0030,1","00420,1,9,N","070000,1,N,1","+0182,1","+0158,1","10109,1","02,0070,9,1","24,0091,9,1",,"9,1,06,1","6,1,06,1",,,,"08,99,1,08,1,09,1,00450,1,00,1,00,1",,"11,9",,"120,M,+0308,1","180,N,+0142,1","99999,9,08233,1","2,1,016,1,+999,9","51,1","SYN142AAXX  04001 76373 01488 83003 10182 20158 38233 40109 52016 60076 75196 88900 92346 333 10308 20142 32/// 50580 56200 58/// 60076 70091 88910;",
"76373099999","2006-07-04T12:00:00","4","25.35","-105.75","1967.0","TEPEHUANES DGO., MX","FM-12","99999","V020","999,9,C,0000,1","22000,1,9,N","015000,1,N,1","+0126,1","+0119,1","10165,1","24,0065,9,1",,,,,"02,1,+03000,1,03,1",,,"02,99,1,02,1,00,1,01250,1,04,1,00,1",,"01,9","999,+0112,1","120,N,+0122,1","240,M,+0308,1","99999,9,08243,1","9,9,999,9,+002,1",,"SYN118AAXX  04121 76373 32665 20000 10126 20119 38243 40165 5//// 82040 91150 333 10308 20122 30112 56020 58002 70065 82360;",
"76373099999","2006-07-04T15:00:00","4","25.35","-105.75","1967.0","TEPEHUANES DGO., MX","FM-12","99999","V020","999,9,C,0000,1","22000,1,9,N","070000,1,N,1","+0174,1","+0138,1","10174,1",,,,,,"02,1,+03000,1,03,1",,,"02,99,1,02,1,00,1,01250,1,03,1,00,1",,"09,9",,,,"99999,9,08248,1","1,1,005,1,-002,1",,"SYN100AAXX  04151 76373 32688 20000 10174 20138 38248 40174 51005 82030 91450 333 31/// 56020 59002 82360;",
"76373099999","2006-07-04T18:00:00","4","25.35","-105.75","1967.0","TEPEHUANES DGO., MX","FM-12","99999","V020","090,1,N,0020,1","22000,1,9,N","070000,1,N,1","+0254,1","+0119,1","10153,1",,,,,,"01,1,+00300,1,08,1",,,"02,99,1,01,1,01,1,00450,1,03,1,00,1",,"09,9",,"120,M,+0270,1","240,N,+0120,1","99999,9,08242,1","7,1,006,1,+003,1",,"SYN118AAXX  04181 76373 32488 20902 10254 20119 38242 40153 57006 81130 91742 333 10270 20120 31/// 56220 58003 81810 81360;",
"76373099999","2006-07-04T21:00:00","4","25.35","-105.75","1967.0","TEPEHUANES DGO., MX","FM-12","99999","V020","120,1,N,0020,1","22000,1,9,N","070000,1,N,1","+0292,1","+0109,1","10097,1",,,,,,"03,1,+00300,1,09,1",,,"04,99,1,04,1,03,1,00450,1,00,1,00,1",,"01,9",,,,"99999,9,08215,1","6,1,027,1,-005,1",,"SYN106AAXX  04211 76373 32488 41202 10292 20109 38215 40097 56027 84300 92040 333 30/// 56200 59005 83910 81810;",
"76373099999","2006-07-05T12:00:00","4","25.35","-105.75","1967.0","TEPEHUANES DGO., MX","FM-12","99999","V020","270,1,N,0020,1","22000,1,9,N","015000,1,N,1","+0138,1","+0120,1","10111,1","24,0000,9,1",,,,,"01,1,+06000,1,00,1",,,"01,99,1,00,1,00,1,99999,9,00,1,05,1",,"01,9","999,+0110,1","120,N,+0136,1","240,M,+0328,1","99999,9,08223,1","9,9,999,9,-020,1",,"SYN118AAXX  05121 76373 32965 12702 10138 20120 38223 40111 5//// 80005 91150 333 10328 20136 30110 56009 59020 70000 81070;",
"76373099999","2006-07-05T15:00:00","4","25.35","-105.75","1967.0","TEPEHUANES DGO., MX","FM-12","99999","V020","290,1,N,0020,1","22000,1,9,N","070000,1,N,1","+0194,1","+0126,1","10141,1",,,,,,"01,1,+03000,1,03,1",,,"02,99,1,01,1,00,1,01250,1,04,1,02,1",,"01,9",,,,"99999,9,08231,1","1,1,008,1,-017,1",,"SYN106AAXX  05151 76373 32688 22902 10194 20126 38231 40141 51008 81042 91455 333 30/// 56022 59017 81360 81070;",
"76373099999","2006-07-05T18:00:00","4","25.35","-105.75","1967.0","TEPEHUANES DGO., MX","FM-12","99999","V020","090,1,N,0030,1","03600,1,C,N","070000,1,N,1","+0264,1","+0125,1","10120,1",,,,,,"01,1,+00300,1,09,1","01,1,+00300,1,08,1","02,1,+03000,1,03,1","07,99,1,02,1,03,1,00450,1,03,1,04,1",,"01,9",,"120,M,+0288,1","240,N,+0128,1","99999,9,08223,1","6,1,008,1,-019,1",,"SYN130AAXX  05181 76373 32488 70903 10264 20125 38223 40120 56008 82334 91742 333 10288 20128 30/// 56222 59019 81910 81810 82360 83070;",
"76373099999","2006-07-05T21:00:00","4","25.35","-105.75","1967.0","TEPEHUANES DGO., MX","FM-12","99999","V020","210,1,N,0080,1","00300,1,9,N","070000,1,N,1","+0286,1","+0100,1","10076,1",,,,,,"03,1,+00300,1,09,1","02,1,+00300,1,08,1","02,1,+03000,1,03,1","08,99,1,07,1,03,1,00450,1,03,1,02,1",,"01,9",,,,"99999,9,08204,1","7,1,019,1,-020,1",,"SYN118AAXX  05211 76373 32488 82108 10286 20100 38204 40076 57019 87332 92040 333 30/// 56222 59020 83910 82810 82360 81070;",
"76373099999","2006-07-06T12:00:00","4","25.35","-105.75","1967.0","TEPEHUANES DGO., MX","FM-12","99999","V020","290,1,N,0020,1","99999,9,9,N","005000,1,N,1","+0160,1","+0157,1","10148,1","12,0020,9,1",,,"5,1,06,1","2,1,06,1",,,,"08,99,1,99,9,99,9,00250,1,99,9,99,9",,,,,,"99999,9,08237,1",,"50,1","SYN072AAXX  06121 76373 01350 82902 10160 20157 38237 40148 5//// 60022 75052;",
"76373099999","2006-07-06T15:00:00","4","25.35","-105.75","1967.0","TEPEHUANES DGO., MX","FM-12","99999","V020","999,9,C,0000,1","03600,1,C,N","015000,1,N,1","+0175,1","+0152,1","10160,1",,,,,,"03,1,+00300,1,06,1",,,"08,99,1,03,1,06,1,00450,1,03,1,00,1",,"09,9",,,,"99999,9,08246,1","2,1,009,1,+015,1",,"SYN106AAXX  06151 76373 32465 80000 10175 20152 38246 40160 52009 83630 91450 333 31/// 56220 58015 83610 85358;",
"76373099999","2006-07-06T18:00:00","4","25.35","-105.75","1967.0","TEPEHUANES DGO., MX","FM-12","99999","V020","090,1,N,0020,1","03000,1,9,N","070000,1,N,1","+0232,1","+0149,1","10148,1",,,,,,"01,1,+00300,1,09,1","01,1,+00300,1,08,1","04,1,+03000,1,03,1","07,99,1,02,1,03,1,00450,1,03,1,02,1",,"09,9",,"120,M,+0252,1","240,N,+0156,1","99999,9,08244,1","7,1,002,1,+021,1",,"SYN130AAXX  06181 76373 32488 70902 10232 20149 38244 40148 57002 82332 91747 333 10252 20156 31/// 56222 58021 81910 81810 84360 81070;",
"76373099999","2006-07-06T21:00:00","4","25.35","-105.75","1967.0","TEPEHUANES DGO., MX","FM-12","99999","V020","120,1,N,0050,1","03000,1,9,N","070000,1,N,1","+0270,1","+0138,1","10097,1",,,,,,"02,1,+00300,1,09,1","01,1,+00300,1,08,1","02,1,+03000,1,03,1","06,99,1,03,1,02,1,00450,1,03,1,02,1",,"01,9",,,,"99999,9,08223,1","6,1,021,1,+019,1",,"SYN118AAXX  06211 76373 32488 61205 10270 20138 38223 40097 56021 83232 92048 333 30/// 56222 58019 82910 81810 82360 81070;",
"76373099999","2006-07-07T12:00:00","4","25.35","-105.75","1967.0","TEPEHUANES DGO., MX","FM-12","99999","V020","999,9,C,0000,1","03600,1,C,N","015000,1,N,1","+0158,1","+0153,1","10158,1","06,0003,9,1","12,0061,9,1","24,0063,9,1",,,"03,1,+00360,1,06,1",,,"07,99,1,03,1,05,1,00450,1,02,1,00,1",,"01,9","999,+0148,1","120,N,+0155,1","240,M,+0302,1","99999,9,08245,1","9,9,999,9,+008,1",,"SYN136AAXX  07121 76373 02465 70000 10158 20153 38245 40158 5//// 60062 83520 91150 333 10302 20155 30148 56220 58008 69931 70063 83612 84458;",
"76373099999","2006-07-07T15:00:00","4","25.35","-105.75","1967.0","TEPEHUANES DGO., MX","FM-12","99999","V020","999,9,C,0000,1","03000,1,9,N","070000,1,N,1","+0180,1","+0156,1","10170,1",,,,,,"02,1,+00300,1,08,1","03,1,+03000,1,03,1",,"08,99,1,02,1,01,1,00450,1,03,1,02,1",,"09,9",,,,"99999,9,08253,1","2,1,008,1,+007,1",,"SYN112AAXX  07151 76373 32488 80000 10180 20156 38253 40170 52008 82132 91450 333 31/// 56222 58007 82810 83360 83070;",
"76373099999","2006-07-07T18:00:00","4","25.35","-105.75","1967.0","TEPEHUANES DGO., MX","FM-12","99999","V020","090,1,N,0020,1","03600,1,C,N","070000,1,N,1","+0238,1","+0170,1","10158,1",,,,,,"01,1,+00300,1,09,1","02,1,+00300,1,08,1","01,1,+03000,1,03,1","05,99,1,03,1,02,1,00450,1,03,1,01,1",,"09,9",,"120,M,+0260,1","240,N,+0155,1","99999,9,08251,1","7,1,002,1,+007,1",,"SYN130AAXX  07181 76373 32488 50902 10238 20170 38251 40158 57002 83231 91746 333 10260 20155 31/// 56222 58007 82810 81910 81360 81070;",
"76373099999","2006-07-07T21:00:00","4","25.35","-105.75","1967.0","TEPEHUANES DGO., MX","FM-12","99999","V020","120,1,N,0040,1","22000,1,9,N","070000,1,N,1","+0258,1","+0157,1","10109,1",,,,"9,1,03,1","9,1,03,1","05,1,+00300,1,09,1",,,"99,99,9,05,1,09,1,00450,1,02,1,00,1",,"01,9",,,,"99999,9,08227,1","6,1,024,1,+004,1","16,1","SYN112AAXX  07211 76373 31488 11204 10258 20157 38227 40109 56024 71699 85920 92050 333 30/// 56220 58004 85910 82460;","Q01+000012SCOTCV"
"76373099999","2006-07-08T00:00:00","4","25.35","-105.75","1967.0","TEPEHUANES DGO., MX","FM-12","99999","V020","290,1,N,0050,1","03600,1,9,N","070000,1,N,1","+0210,1","+0160,1","10095,1","24,0063,9,1",,,"9,1,06,1","9,1,06,1","04,1,+00300,1,09,1",,,"08,99,1,04,1,09,1,00450,1,07,1,00,1",,"01,9",,"120,M,+0290,1","180,N,+0155,1","99999,9,08225,1","6,1,002,1,+009,1","29,1","SYN136AAXX  08001 76373 31488 82905 10210 20160 38225 40095 56002 72999 84970 92346 333 10290 20155 30/// 50420 56220 58009 70063 84910 84460;",
"76373099999","2006-07-08T15:00:00","4","25.35","-105.75","1967.0","TEPEHUANES DGO., MX","FM-12","99999","V020","090,1,N,0020,1","03000,1,9,N","020000,1,N,1","+0182,1","+0164,1","10134,1","15,0040,9,1",,,,,"04,1,+00300,1,06,1","02,1,+03000,1,03,1",,"07,99,1,04,1,06,1,00250,1,03,1,02,1",,"09,9",,,,"99999,9,08243,1","9,9,999,9,-007,1",,"SYN124AAXX  08151 76373 02370 70902 10182 20164 38243 40134 5//// 60049 84632 91440 333 31/// 56222 59007 60049 84610 82360 82070;",
"76373099999","2006-07-08T18:00:00","4","25.35","-105.75","1967.0","TEPEHUANES DGO., MX","FM-12","99999","V020","150,1,N,0030,1","00300,1,9,N","060000,1,N,1","+0216,1","+0173,1","10127,1",,,,,,"07,1,+00300,1,06,1",,,"08,99,1,07,1,06,1,00250,1,03,1,00,1",,"09,9",,"120,M,+0232,1","240,N,+0164,1","99999,9,08240,1","7,1,003,1,-011,1",,"SYN118AAXX  08181 76373 32386 81503 10216 20173 38240 40127 57003 87630 91746 333 10232 20164 31/// 56220 59011 87610 81360;",
"76373099999","2006-07-09T12:00:00","4","25.35","-105.75","1967.0","TEPEHUANES DGO., MX","FM-12","99999","V020","999,9,C,0000,1","02400,1,9,N","005000,1,N,1","+0158,1","+0155,1","10111,1","06,0050,9,2","12,0003,9,2","24,0056,9,1",,,"08,1,+02400,1,05,1",,,"08,99,1,08,1,00,1,00450,1,02,1,99,9",,"01,9","999,+0152,1","120,N,+0154,1","240,M,+0284,1","99999,9,08215,1",,,"SYN130AAXX  09121 76373 02450 80000 10158 20155 38215 40111 5//// 69932 8802/ 91150 333 10284 20154 30152 5602/ 58/// 60051 70056 88558;",
"76373099999","2006-07-09T15:00:00","4","25.35","-105.75","1967.0","TEPEHUANES DGO., MX","FM-12","99999","V020","310,1,N,0010,1","00300,1,9,N","015000,1,N,1","+0178,1","+0160,1","10127,1",,,,,,"08,1,+00300,1,07,1",,,"08,99,1,08,1,06,1,00250,1,99,9,99,9",,"09,9",,,,"99999,9,08223,1","1,1,006,1,-020,1",,"SYN100AAXX  09151 76373 32365 83101 10178 20160 38223 40127 51006 886// 91450 333 31/// 562// 59020 88710;",
"76373099999","2006-07-09T18:00:00","4","25.35","-105.75","1967.0","TEPEHUANES DGO., MX","FM-12","99999","V020","070,1,N,0020,1","22000,1,9,N","070000,1,N,1","+0248,1","+0171,1","10111,1",,,,,,"03,1,+00300,1,09,1",,,"04,99,1,03,1,09,1,00450,1,00,1,05,1",,"09,9",,"120,M,+0270,1","240,N,+0152,1","99999,9,08212,1","7,1,011,1,-028,1",,"SYN118AAXX  09181 76373 32488 40702 10248 20171 38212 40111 57011 83905 91750 333 10270 20152 31/// 56202 59028 83910 81070;",
"76373099999","2006-07-10T12:00:00","4","25.35","-105.75","1967.0","TEPEHUANES DGO., MX","FM-12","99999","V020","270,1,N,0010,1","99999,9,9,N","005000,1,N,1","+0168,1","+0165,1","10104,1","15,0041,9,1",,,"5,1,06,1","2,1,06,1",,,,"08,99,1,99,9,99,9,00250,1,99,9,99,9",,,,,,"99999,9,08208,1",,"51,1","SYN072AAXX  10121 76373 01350 82701 10168 20165 38208 40104 5//// 60049 75152;",
"76373099999","2006-07-10T15:00:00","4","25.35","-105.75","1967.0","TEPEHUANES DGO., MX","FM-12","99999","V020","310,1,N,0010,1","03600,1,C,N","015000,1,N,1","+0180,1","+0165,1","10113,1","03,0010,9,1",,,,,"02,1,+00300,1,07,1","02,1,+03000,1,03,1",,"07,99,1,02,1,06,1,00250,1,03,1,02,1",,"11,9",,,,"99999,9,08213,1","3,1,005,1,-010,1",,"SYN118AAXX  10151 76373 22365 73101 10180 20165 38213 40113 53005 82632 91450 333 32/// 56666 59010 60017 82710 82360 82070;",
"76373099999","2006-07-10T18:00:00","4","25.35","-105.75","1967.0","TEPEHUANES DGO., MX","FM-12","99999","V020","090,1,N,0020,1","22000,1,9,N","070000,1,N,1","+0244,1","+0163,1","10099,1",,,,,,"02,1,+00300,1,09,1","01,1,+03000,1,03,1",,"04,99,1,02,1,03,1,00450,1,03,1,02,1",,"09,9",,"120,M,+0266,1","240,N,+0165,1","99999,9,08210,1","7,1,003,1,-002,1",,"SYN124AAXX  10181 76373 32488 40902 10244 20163 38210 40099 57003 82332 91745 333 10266 20165 31/// 56222 59002 82910 81360 81070;",
"76373099999","2006-07-10T21:00:00","4","25.35","-105.75","1967.0","TEPEHUANES DGO., MX","FM-12","99999","V020","120,1,N,0060,1","09000,1,C,N","070000,1,N,1","+0274,1","+0169,1","10051,1",,,,,,"04,1,+00300,1,09,1",,,"06,99,1,04,1,03,1,00450,1,00,1,02,1",,"01,9",,,,"99999,9,08184,1","6,1,026,1,+999,9",,"SYN106AAXX  10211 76373 32488 61206 10274 20169 38184 40051 56026 84302 92050 333 30/// 56202 58/// 84910 82070;",
"76373099999","2006-07-11T12:00:00","4","25.35","-105.75","1967.0","TEPEHUANES DGO., MX","FM-12","99999","V020","270,1,N,0010,1","22000,1,9,N","015000,1,N,1","+0150,1","+0144,1","10116,1","06,0003,9,1","12,0003,9,1","24,0032,9,1",,,"02,1,+03000,1,03,1",,,"02,99,1,02,1,00,1,01250,1,04,1,00,1",,"01,9","999,+0136,1","120,N,+0148,1","240,M,+0298,1","99999,9,08216,1","9,9,999,9,+008,1",,"SYN130AAXX  11121 76373 02665 22701 10150 20144 38216 40116 5//// 69932 82040 91150 333 10298 20148 30136 56060 58008 69931 70032 82360;",
"76373099999","2006-07-11T15:00:00","4","25.35","-105.75","1967.0","TEPEHUANES DGO., MX","FM-12","99999","V020","999,9,C,0000,1","22000,1,9,N","070000,1,N,1","+0188,1","+0140,1","10132,1",,,,,,,,,"02,99,1,01,1,03,1,01250,1,03,1,00,1",,"09,9",,,,"99999,9,08222,1","1,1,006,1,+009,1",,"SYN106AAXX  11151 76373 32688 20000 10188 20140 38222 40132 51006 81330 91440 333 31/// 56220 58009 91910 91360;",
"76373099999","2006-07-11T18:00:00","4","25.35","-105.75","1967.0","TEPEHUANES DGO., MX","FM-12","99999","V020","060,1,N,0010,1","22000,1,9,N","070000,1,N,1","+0256,1","+0168,1","10113,1",,,,,,"01,1,+00300,1,09,1","01,1,+00300,1,08,1",,"03,99,1,02,1,03,1,00450,1,00,1,02,1",,"09,9",,"120,M,+0278,1","240,N,+0144,1","99999,9,08220,1","7,1,002,1,+010,1",,"SYN124AAXX  11181 76373 32488 30601 10256 20168 38220 40113 57002 82302 91740 333 10278 20144 31/// 56202 58010 81910 81810 81070;",
"76373099999","2006-07-12T00:00:00","4","25.35","-105.75","1967.0","TEPEHUANES DGO., MX","FM-12","99999","V020","140,1,N,0060,1","03600,1,9,N","070000,1,N,1","+0264,1","+0153,1","10046,1","24,0006,9,1",,,,,"01,1,+00300,1,09,1","01,1,+00300,1,08,1","01,1,+03000,1,03,1","08,99,1,02,1,03,1,00450,1,03,1,04,1",,"01,9",,"120,M,+0310,1","180,N,+0144,1","99999,9,08197,1","6,1,008,1,+018,1",,"SYN142AAXX  12001 76373 32488 81406 10264 20153 38197 40046 56008 82334 92346 333 10310 20144 30/// 50540 56222 58018 70006 81910 81810 81360 85070;",
"76373099999","2006-07-12T12:00:00","4","25.35","-105.75","1967.0","TEPEHUANES DGO., MX","FM-12","99999","V020","999,9,C,0000,1","22000,1,9,N","015000,1,N,1","+0140,1","+0133,1","10125,1","24,0000,9,1",,,,,"00,1,+99999,9,99,9",,,"00,99,1,00,1,00,1,99999,9,00,1,00,1",,"01,9","999,+0122,1","120,N,+0138,1","240,M,+0310,1","99999,9,08226,1","9,9,999,9,-010,1",,"SYN100AAXX  12121 76373 32965 00000 10140 20133 38226 40125 5//// 91150 333 10310 20138 30122 59010 70000;","Q01  00002PRCP24"
"76373099999","2006-07-12T15:00:00","4","25.35","-105.75","1967.0","TEPEHUANES DGO., MX","FM-12","99999","V020","999,9,C,0000,1","22000,1,9,N","070000,1,N,1","+0194,1","+0149,1","10146,1",,,,,,"01,1,+06000,1,00,1",,,"01,99,1,00,1,00,1,99999,9,00,1,02,1",,"01,9",,,,"99999,9,08233,1","1,1,007,1,+011,1",,"SYN100AAXX  12151 76373 32988 10000 10194 20149 38233 40146 51007 80002 91450 333 30/// 56002 58011 81070;",
"76373099999","2006-07-12T18:00:00","4","25.35","-105.75","1967.0","TEPEHUANES DGO., MX","FM-12","99999","V020","120,1,N,0040,1","22000,1,9,N","070000,1,N,1","+0274,1","+0125,1","10125,1",,,,,,"01,1,+00300,1,09,1",,,"04,99,1,02,1,03,1,00450,1,00,1,02,1",,"01,9",,"120,M,+0295,1","240,N,+0132,1","99999,9,08234,1","2,1,001,1,+014,1",,"SYN118AAXX  12181 76373 32488 41204 10274 20125 38234 40125 52001 82302 91740 333 10295 20132 30/// 56202 58014 81910 82070;",
"76373099999","2006-07-13T12:00:00","4","25.35","-105.75","1967.0","TEPEHUANES DGO., MX","FM-12","99999","V020","310,1,N,0010,1","22000,1,9,N","015000,1,N,1","+0150,1","+0131,1","10159,1","24,0000,9,1",,,,,"01,1,+00360,1,08,1",,,"02,99,1,01,1,01,1,00450,1,04,1,00,1",,"01,9","999,+0130,1","120,N,+0150,1","240,M,+0331,1","99999,9,08226,1","9,9,999,9,+000,1",,"SYN124AAXX  13121 76373 32465 23101 10150 20131 38226 40159 5//// 81140 91150 333 10331 20150 30130 56220 58000 70000 81812 81360;",
"76373099999","2006-07-13T15:00:00","4","25.35","-105.75","1967.0","TEPEHUANES DGO., MX","FM-12","99999","V020","110,1,N,0010,1","22000,1,9,N","070000,1,N,1","+0214,1","+0149,1","10137,1",,,,,,"01,1,+00300,1,09,1",,,"02,99,1,02,1,03,1,00450,1,00,1,00,1",,"01,9",,,,"99999,9,08238,1","2,1,012,1,+005,1",,"SYN106AAXX  13151 76373 32488 21101 10214 20149 38238 40137 52012 82300 91450 333 30/// 56200 58005 81910 81810;",
"76373099999","2006-07-13T18:00:00","4","25.35","-105.75","1967.0","TEPEHUANES DGO., MX","FM-12","99999","V020","060,1,N,0020,1","03600,1,C,N","070000,1,N,1","+0272,1","+0166,1","10113,1",,,,,,"02,1,+00300,1,09,1","01,1,+00300,1,08,1","01,1,+03000,1,03,1","05,99,1,03,1,03,1,00450,1,03,1,02,1",,"01,9",,"120,M,+0294,1","240,N,+0148,1","99999,9,08227,1","6,1,011,1,-007,1",,"SYN130AAXX  13181 76373 32488 50602 10272 20166 38227 40113 56011 83332 91745 333 10294 20148 30/// 56222 59007 82910 81810 81360 81070;",
"76373099999","2006-07-14T12:00:00","4","25.35","-105.75","1967.0","TEPEHUANES DGO., MX","FM-12","99999","V020","280,1,N,0010,1","22000,1,9,N","015000,1,N,1","+0164,1","+0139,1","10095,1","24,0000,9,1",,,,,"01,1,+00300,1,08,1",,,"02,99,1,01,1,01,1,00450,1,04,1,00,1",,"01,9","999,+0142,1","120,N,+0160,1","240,M,+0332,1","99999,9,08211,1","9,9,999,9,-015,1",,"SYN124AAXX  14121 76373 32465 22801 10164 20139 38211 40095 5//// 81140 91150 333 10332 20160 30142 56220 59015 70000 81810 81360;",
"76373099999","2006-07-14T15:00:00","4","25.35","-105.75","1967.0","TEPEHUANES DGO., MX","FM-12","99999","V020","330,1,N,0010,1","22000,1,9,N","070000,1,N,1","+0198,1","+0151,1","10113,1",,,,,,"01,1,+03000,1,03,1",,,"04,99,1,01,1,00,1,00450,1,04,1,04,1",,"01,9",,,,"99999,9,08217,1","1,1,006,1,-021,1",,"SYN106AAXX  14151 76373 32488 43301 10198 20151 38217 40113 51006 81044 91450 333 30/// 56022 59021 81360 83070;",
"76373099999","2006-07-14T18:00:00","4","25.35","-105.75","1967.0","TEPEHUANES DGO., MX","FM-12","99999","V020","120,1,N,0010,1","00300,1,9,N","070000,1,N,1","+0256,1","+0144,1","10099,1","06,0000,2,1",,,"2,1,06,1","2,1,06,1","04,1,+00300,1,09,1","01,1,+00300,1,08,1",,"07,99,1,05,1,03,1,00450,1,03,1,00,1",,"01,9",,"120,M,+0288,1","240,N,+0156,1","99999,9,08214,1","7,1,003,1,-013,1","50,1","SYN136AAXX  14181 76373 11488 71201 10256 20144 38214 40099 57003 69901 75022 85330 91745 333 10288 20156 30/// 56110 59013 84910 81810 82360;",
"76373099999","2006-07-15T15:00:00","4","25.35","-105.75","1967.0","TEPEHUANES DGO., MX","FM-12","99999","V020","270,1,N,0010,1","22000,1,9,N","070000,1,N,1","+0166,1","+0132,1","10160,1","12,0020,9,1",,,,,"01,1,+06000,1,00,1",,,"01,99,1,00,1,00,1,99999,9,00,1,05,1",,"09,9",,,,"99999,9,08238,1","9,9,999,9,+021,1",,"SYN112AAXX  15151 76373 02988 12701 10166 20132 38238 40160 5//// 60022 80005 91440 333 31/// 56202 58021 60022 81070;",
"76373099999","2006-07-15T18:00:00","4","25.35","-105.75","1967.0","TEPEHUANES DGO., MX","FM-12","99999","V020","090,1,N,0010,1","00600,1,9,N","070000,1,N,1","+0256,1","+0147,1","10144,1",,,,,,"03,1,+00300,1,09,1","02,1,+00600,1,08,1",,"06,99,1,05,1,03,1,00450,1,03,1,00,1",,"01,9",,"120,M,+0278,1","240,N,+0118,1","99999,9,08232,1","7,1,006,1,+018,1",,"SYN124AAXX  15181 76373 32488 60901 10256 20147 38232 40144 57006 85330 91745 333 10278 20118 30/// 56220 58018 83910 82820 81360;",
"76373099999","2006-07-16T12:00:00","4","25.35","-105.75","1967.0","TEPEHUANES DGO., MX","FM-12","99999","V020","280,1,N,0010,1","99999,9,9,N","015000,1,N,1","+0160,1","+0131,1","10148,1","12,0003,9,1",,,"5,1,06,1","2,1,06,1",,,,"08,99,1,99,9,99,9,00450,1,99,9,99,9",,,,,,"99999,9,08244,1",,"50,1","SYN072AAXX  16121 76373 01465 82801 10160 20131 38244 40148 5//// 69932 75052;",
"76373099999","2006-07-16T15:00:00","4","25.35","-105.75","1967.0","TEPEHUANES DGO., MX","FM-12","99999","V020","999,9,C,0000,1","03600,1,C,N","030000,1,N,1","+0178,1","+0141,1","10179,1",,,,,,"02,1,+00300,1,07,1",,,"08,99,1,02,1,06,1,00450,1,04,1,00,1",,"01,9",,,,"99999,9,08256,1","2,1,012,1,+018,1",,"SYN106AAXX  16151 76373 32480 80000 10178 20141 38256 40179 52012 82640 91450 333 30/// 56220 58018 82710 86458;",
"76373099999","2006-07-16T18:00:00","4","25.35","-105.75","1967.0","TEPEHUANES DGO., MX","FM-12","99999","V020","090,1,N,0020,1","02400,1,9,N","070000,1,N,1","+0234,1","+0149,1","10151,1",,,,,,"02,1,+00300,1,09,1","01,1,+00300,1,08,1","03,1,+02400,1,03,1","08,99,1,03,1,09,1,00450,1,03,1,01,1",,"01,9",,"120,M,+0254,1","240,N,+0153,1","99999,9,08248,1","8,1,008,1,+016,1",,"SYN130AAXX  16181 76373 32488 80902 10234 20149 38248 40151 58008 83931 91750 333 10254 20153 30/// 56222 58016 82910 81810 83358 82070;",
"76373099999","2006-07-17T12:00:00","4","25.35","-105.75","1967.0","TEPEHUANES DGO., MX","FM-12","99999","V020","999,9,C,0000,1","03600,1,C,N","015000,1,N,1","+0152,1","+0142,1","10148,1","24,0007,9,1",,,,,"02,1,+00360,1,08,1",,,"07,99,1,02,1,01,1,00450,1,03,1,00,1",,"01,9","999,+0135,1","120,N,+0150,1","240,M,+0284,1","99999,9,08238,1","9,9,999,9,-007,1",,"SYN124AAXX  17121 76373 32465 70000 10152 20142 38238 40148 5//// 82130 91150 333 10284 20150 30135 56220 59007 70007 82812 85360;",
"76373099999","2006-07-17T15:00:00","4","25.35","-105.75","1967.0","TEPEHUANES DGO., MX","FM-12","99999","V020","320,1,N,0010,1","09000,1,C,N","070000,1,N,1","+0184,1","+0154,1","10162,1",,,,,,"01,1,+00300,1,09,1","01,1,+00300,1,08,1","01,1,+03000,1,03,1","05,99,1,01,1,03,1,00450,1,04,1,02,1",,"01,9",,,,"99999,9,08247,1","1,1,009,1,-009,1",,"SYN118AAXX  17151 76373 32488 53201 10184 20154 38247 40162 51009 81342 91450 333 30/// 56222 59009 81910 81810 81360 82070;",
"76373099999","2006-07-17T18:00:00","4","25.35","-105.75","1967.0","TEPEHUANES DGO., MX","FM-12","99999","V020","120,1,N,0020,1","22000,1,9,N","070000,1,N,1","+0254,1","+0171,1","10139,1",,,,,,"01,1,+00300,1,09,1",,,"02,99,1,02,1,03,1,00450,1,00,1,00,1",,"01,9",,"120,M,+0274,1","240,N,+0148,1","99999,9,08239,1","6,1,008,1,-009,1",,"SYN118AAXX  17181 76373 32488 21202 10254 20171 38239 40139 56008 82300 91740 333 10274 20148 30/// 56200 59009 81910 81810;",
"76373099999","2006-07-17T21:00:00","4","25.35","-105.75","1967.0","TEPEHUANES DGO., MX","FM-12","99999","V020","120,1,N,0050,1","22000,1,9,N","070000,1,N,1","+0292,1","+0143,1","10093,1",,,,,,"03,1,+00300,1,09,1",,,"04,99,1,04,1,03,1,00450,1,00,1,00,1",,"01,9",,,,"99999,9,08218,1","6,1,021,1,+999,9",,"SYN106AAXX  17211 76373 32488 41205 10292 20143 38218 40093 56021 84300 92040 333 30/// 56200 58/// 83910 81810;",
"76373099999","2006-07-18T12:00:00","4","25.35","-105.75","1967.0","TEPEHUANES DGO., MX","FM-12","99999","V020","999,9,C,0000,1","22000,1,9,N","015000,1,N,1","+0128,1","+0122,1","10134,1","24,0000,9,1",,,,,"00,1,+99999,9,99,9",,,"00,99,1,00,1,00,1,99999,9,00,1,00,1",,"01,9","999,+0095,1","120,N,+0124,1","240,M,+0318,1","99999,9,08226,1","9,9,999,9,-012,1",,"SYN100AAXX  18121 76373 32965 00000 10128 20122 38226 40134 5//// 91150 333 10318 20124 30095 59012 70000;","Q01  00002PRCP24"
"76373099999","2006-07-18T15:00:00","4","25.35","-105.75","1967.0","TEPEHUANES DGO., MX","FM-12","99999","V020","999,9,C,0000,1","22000,1,9,N","070000,1,N,1","+0188,1","+0138,1","10155,1",,,,,,"00,1,+99999,9,99,9",,,"00,99,1,00,1,00,1,99999,9,00,1,00,1",,"01,9",,,,"99999,9,08234,1","1,1,006,1,-015,1",,"SYN082AAXX  18151 76373 32988 00000 10188 20138 38234 40155 51006 91450 333 30/// 59015;",
"76373099999","2006-07-18T18:00:00","4","25.35","-105.75","1967.0","TEPEHUANES DGO., MX","FM-12","99999","V020","090,1,N,0030,1","22000,1,9,N","070000,1,N,1","+0280,1","+0149,1","10132,1",,,,,,"01,1,+00300,1,09,1",,,"03,99,1,03,1,01,1,00450,1,00,1,00,1",,"01,9",,"120,M,+0300,1","240,N,+0120,1","99999,9,08228,1","7,1,004,1,-011,1",,"SYN118AAXX  18181 76373 32488 30903 10280 20149 38228 40132 57004 83100 91740 333 10300 20120 30/// 56200 59011 81910 82810;",
"76373099999","2006-07-18T21:00:00","4","25.35","-105.75","1967.0","TEPEHUANES DGO., MX","FM-12","99999","V020","120,1,N,0060,1","22000,1,9,N","070000,1,N,1","+0308,1","+0114,1","10088,1",,,,,,"02,1,+00300,1,09,1",,,"03,99,1,03,1,03,1,00450,1,00,1,00,1",,"01,9",,,,"99999,9,08215,1","7,1,013,1,-003,1",,"SYN106AAXX  18211 76373 32488 31206 10308 20114 38215 40088 57013 83300 92047 333 30/// 56200 59003 82910 81810;",
"76373099999","2006-07-19T12:00:00","4","25.35","-105.75","1967.0","TEPEHUANES DGO., MX","FM-12","99999","V020","999,9,C,0000,1","22000,1,9,N","015000,1,N,1","+0124,1","+0101,1","10111,1","24,0000,9,1",,,,,"02,1,+03000,1,03,1",,,"02,99,1,02,1,00,1,01250,1,04,1,00,1",,"01,9","999,+0084,1","120,N,+0120,1","240,M,+0332,1","99999,9,08216,1","9,9,999,9,-010,1",,"SYN118AAXX  19121 76373 32665 20000 10124 20101 38216 40111 5//// 82040 91150 333 10332 20120 30084 56020 59010 70000 82360;",
"76373099999","2006-07-19T15:00:00","4","25.35","-105.75","1967.0","TEPEHUANES DGO., MX","FM-12","99999","V020","320,1,N,0010,1","22000,1,9,N","070000,1,N,1","+0188,1","+0109,1","10139,1",,,,,,"02,1,+06000,1,00,1",,,"02,99,1,00,1,00,1,99999,9,00,1,05,1",,"01,9",,,,"99999,9,08224,1","1,1,008,1,-010,1",,"SYN100AAXX  19151 76373 32988 23201 10188 20109 38224 40139 51008 80005 91450 333 30/// 56009 59010 82070;",
"76373099999","2006-07-19T18:00:00","4","25.35","-105.75","1967.0","TEPEHUANES DGO., MX","FM-12","99999","V020","090,1,N,0020,1","22000,1,9,N","070000,1,N,1","+0278,1","+0116,1","10118,1",,,,,,"01,1,+00300,1,09,1",,,"02,99,1,02,1,03,1,00450,1,00,1,00,1",,"01,9",,"120,M,+0332,1","240,N,+0120,1","99999,9,08219,1","7,1,005,1,-009,1",,"SYN118AAXX  19181 76373 32488 20902 10278 20116 38219 40118 57005 82300 91740 333 10332 20120 30/// 56200 59009 81910 81810;",
"76373099999","2006-07-19T21:00:00","4","25.35","-105.75","1967.0","TEPEHUANES DGO., MX","FM-12","99999","V020","070,1,N,0040,1","22000,1,9,N","070000,1,N,1","+0296,1","+0104,1","10081,1",,,,,,"02,1,+00300,1,09,1","01,1,+00300,1,08,1",,"04,99,1,03,1,03,1,00450,1,03,1,00,1",,"01,9",,,,"99999,9,08207,1","6,1,012,1,-008,1",,"SYN112AAXX  19211 76373 32488 40704 10296 20104 38207 40081 56012 83330 92035 333 30/// 56220 59008 82910 81810 81360;",
"76373099999","2006-07-20T12:00:00","4","25.35","-105.75","1967.0","TEPEHUANES DGO., MX","FM-12","99999","V020","999,9,C,0000,1","22000,1,9,N","015000,1,N,1","+0136,1","+0113,1","10125,1","24,0000,9,1",,,,,"01,1,+00300,1,08,1",,,"04,99,1,01,1,01,1,00450,1,03,1,00,1",,"01,9","999,+0100,1","120,N,+0130,1","240,M,+0334,1","99999,9,08223,1","9,9,999,9,+005,1",,"SYN124AAXX  20121 76373 32465 40000 10136 20113 38223 40125 5//// 81130 91150 333 10334 20130 30100 56220 58005 70000 81810 83360;",
"76373099999","2006-07-20T15:00:00","4","25.35","-105.75","1967.0","TEPEHUANES DGO., MX","FM-12","99999","V020","020,1,N,0010,1","22000,1,9,N","070000,1,N,1","+0196,1","+0126,1","10151,1",,,,,,"01,1,+00360,1,08,1",,,"02,99,1,01,1,01,1,00450,1,03,1,00,1",,"01,9",,,,"99999,9,08231,1","1,1,008,1,+007,1",,"SYN106AAXX  20151 76373 32488 20201 10196 20126 38231 40151 51008 81130 91450 333 30/// 56220 58007 81812 81360;",
"76373099999","2006-07-20T18:00:00","4","25.35","-105.75","1967.0","TEPEHUANES DGO., MX","FM-12","99999","V020","120,1,N,0040,1","22000,1,9,N","070000,1,N,1","+0260,1","+0127,1","10127,1",,,,,,"02,1,+00300,1,09,1",,,"04,99,1,04,1,03,1,00450,1,00,1,00,1",,"01,9",,"120,M,+0298,1","240,N,+0128,1","99999,9,08225,1","6,1,006,1,+006,1",,"SYN118AAXX  20181 76373 32488 41204 10260 20127 38225 40127 56006 84300 91745 333 10298 20128 30/// 56200 58006 82910 82810;",
"76373099999","2006-07-21T15:00:00","4","25.35","-105.75","1967.0","TEPEHUANES DGO., MX","FM-12","99999","V020","999,9,C,0000,1","22000,1,9,N","070000,1,N,1","+0176,1","+0130,1","10144,1",,,,,,"01,1,+00300,1,08,1",,,"01,99,1,01,1,01,1,00450,1,00,1,00,1",,"01,9",,,,"99999,9,08231,1","9,9,999,9,+000,1",,"SYN100AAXX  21151 76373 32488 10000 10176 20130 38231 40144 5//// 81100 91440 333 30/// 56600 58000 81810;",
"76373099999","2006-07-21T18:00:00","4","25.35","-105.75","1967.0","TEPEHUANES DGO., MX","FM-12","99999","V020","140,1,N,0040,1","22000,1,9,N","070000,1,N,1","+0268,1","+0141,1","10120,1",,,,,,"01,1,+00300,1,09,1","01,1,+00300,1,08,1",,"03,99,1,02,1,03,1,00450,1,03,1,00,1",,"01,9",,"120,M,+0290,1","240,N,+0118,1","99999,9,08219,1","6,1,012,1,-006,1",,"SYN124AAXX  21181 76373 32488 31404 10268 20141 38219 40120 56012 82330 91740 333 10290 20118 30/// 56220 59006 81910 81810 81360;",
"76373099999","2006-07-21T21:00:00","4","25.35","-105.75","1967.0","TEPEHUANES DGO., MX","FM-12","99999","V020","320,1,N,0050,1","00420,1,C,N","070000,1,N,1","+0266,1","+0128,1","10083,1",,,,,,"03,1,+00300,1,09,1","02,1,+00300,1,03,1",,"06,99,1,05,1,03,1,00450,1,03,1,00,1",,"01,9",,,,"99999,9,08204,1","6,1,015,1,-003,1",,"SYN112AAXX  21211 76373 32488 63205 10266 20128 38204 40083 56015 85330 92040 333 30/// 56220 59003 83910 82310 81360;",
"76373099999","2006-07-22T15:00:00","4","25.35","-105.75","1967.0","TEPEHUANES DGO., MX","FM-12","99999","V020","999,9,C,0000,1","22000,1,9,N","070000,1,N,1","+0196,1","+0124,1","10137,1",,,,,,"01,1,+03000,1,03,1",,,"03,99,1,01,1,00,1,01250,1,03,1,02,1",,"01,9",,,,"99999,9,08230,1","9,9,999,9,-001,1",,"SYN106AAXX  22151 76373 32688 30000 10196 20124 38230 40137 5//// 81032 91438 333 30/// 56022 59001 81360 82070;",
"76373099999","2006-07-22T18:00:00","4","25.35","-105.75","1967.0","TEPEHUANES DGO., MX","FM-12","99999","V020","110,1,N,0020,1","00300,1,9,N","070000,1,N,1","+0242,1","+0130,1","10116,1",,,,,,"03,1,+00300,1,09,1","02,1,+00300,1,08,1",,"06,99,1,05,1,03,1,00450,1,03,1,00,1",,"01,9",,"120,M,+0280,1","240,N,+0134,1","99999,9,08219,1","6,1,011,1,+006,1",,"SYN124AAXX  22181 76373 32488 61102 10242 20130 38219 40116 56011 85330 91745 333 10280 20134 30/// 56220 58006 83910 82810 81360;",
"76373099999","2006-07-24T15:00:00","4","25.35","-105.75","1967.0","TEPEHUANES DGO., MX","FM-12","99999","V020","999,9,C,0000,1","03600,1,C,N","070000,1,N,1","+0190,1","+0138,1","10097,1","12,0002,9,1",,,,,"01,1,+00300,1,08,1","01,1,+03000,1,03,1",,"06,99,1,01,1,01,1,00450,1,03,1,02,1",,"01,9",,,,"99999,9,08199,1",,,"SYN124AAXX  24151 76373 02488 60000 10190 20138 38199 40097 5//// 69922 81132 91445 333 30/// 56222 58/// 69922 81810 81360 84070;",
"76373099999","2006-07-24T18:00:00","4","25.35","-105.75","1967.0","TEPEHUANES DGO., MX","FM-12","99999","V020","120,1,N,0040,1","03600,1,C,N","070000,1,N,1","+0258,1","+0132,1","10086,1",,,,,,"02,1,+00300,1,09,1","01,1,+00300,1,08,1","01,1,+03000,1,03,1","08,99,1,03,1,03,1,00450,1,03,1,04,1",,"01,9",,"120,M,+0280,1","240,N,+0138,1","99999,9,08196,1","7,1,003,1,+999,9",,"SYN130AAXX  24181 76373 32488 81204 10258 20132 38196 40086 57003 83334 91745 333 10280 20138 30/// 56222 58/// 82910 81810 81360 84070;",
"76373099999","2006-07-25T15:00:00","4","25.35","-105.75","1967.0","TEPEHUANES DGO., MX","FM-12","99999","V020","999,9,C,0000,1","00300,1,9,N","018000,1,N,1","+0166,1","+0151,1","10116,1","15,0020,9,1",,,,,"08,1,+00300,1,06,1",,,"08,99,1,08,1,06,1,00250,1,99,9,99,9",,"09,9",,,,"99999,9,08209,1","9,9,999,9,+010,1",,"SYN112AAXX  25151 76373 02368 80000 10166 20151 38209 40116 5//// 60029 886// 91445 333 31/// 56200 58010 60029 88610;",
"76373099999","2006-07-25T18:00:00","4","25.35","-105.75","1967.0","TEPEHUANES DGO., MX","FM-12","99999","V020","090,1,N,0010,1","99999,9,9,N","070000,1,N,1","+0218,1","+0153,1","10104,1","02,0000,9,1",,,"5,1,06,1","5,1,06,1",,,,"08,99,1,99,9,99,9,00250,1,99,9,99,9",,,,,,"99999,9,08206,1","7,1,003,1,+999,9","01,1","SYN072AAXX  25181 76373 01388 80901 10218 20153 38206 40104 57003 69906 70155;","Q01  00002PRCP02"
"76373099999","2006-07-26T15:00:00","4","25.35","-105.75","1967.0","TEPEHUANES DGO., MX","FM-12","99999","V020","999,9,C,0000,1","00300,1,9,N","018000,1,N,1","+0160,1","+0150,1","10141,1","15,0110,9,1",,,"6,1,03,1","5,1,03,1","08,1,+00300,1,06,1",,,"08,99,1,08,1,07,1,00250,1,99,9,99,9",,"11,9",,,,"99999,9,08232,1","9,9,999,9,+033,1","58,1","SYN118AAXX  26151 76373 01368 80000 10160 20150 38232 40141 5//// 60119 75865 887// 91452 333 32/// 56/// 58033 60119 88610;",
"76373099999","2006-07-26T18:00:00","4","25.35","-105.75","1967.0","TEPEHUANES DGO., MX","FM-12","99999","V020","999,9,C,0000,1","99999,9,9,N","050000,1,N,1","+0202,1","+0151,1","10134,1","03,0010,9,1",,,"6,1,06,1","5,1,06,1",,,,"08,99,1,99,9,99,9,00250,1,99,9,99,9",,,,,,"99999,9,08231,1","7,1,001,1,+999,9","01,1","SYN072AAXX  26181 76373 01384 80000 10202 20151 38231 40134 57001 60017 70165;",
"76373099999","2006-07-27T15:00:00","4","25.35","-105.75","1967.0","TEPEHUANES DGO., MX","FM-12","99999","V020","300,1,N,0010,1","22000,1,9,N","070000,1,N,1","+0164,1","+0144,1","10146,1","18,0020,9,1",,,,,"01,1,+03000,1,03,1",,,"02,99,1,01,1,00,1,01250,1,03,1,01,1",,"09,9",,,,"99999,9,08224,1","9,9,999,9,+005,1",,"SYN118AAXX  27151 76373 02688 23001 10164 20144 38224 40146 5//// 60023 81031 91440 333 31/// 56022 58005 60023 81360 81070;",
"76373099999","2006-07-27T18:00:00","4","25.35","-105.75","1967.0","TEPEHUANES DGO., MX","FM-12","99999","V020","240,1,N,0010,1","03600,1,C,N","070000,1,N,1","+0252,1","+0156,1","10123,1",,,,,,"02,1,+00300,1,09,1","01,1,+00300,1,08,1","01,1,+03000,1,03,1","05,99,1,03,1,03,1,00450,1,03,1,02,1",,"09,9",,"120,M,+0270,1","240,N,+0122,1","99999,9,08218,1","6,1,006,1,-013,1",,"SYN130AAXX  27181 76373 32488 52401 10252 20156 38218 40123 56006 83332 91745 333 10270 20122 31/// 56222 59013 82910 81810 81360 81070;",
"76373099999","2006-07-28T15:00:00","4","25.35","-105.75","1967.0","TEPEHUANES DGO., MX","FM-12","99999","V020","320,1,N,0010,1","22000,1,9,N","070000,1,N,1","+0156,1","+0138,1","10160,1","18,0160,9,1",,,,,"02,1,+03000,1,03,1",,,"03,99,1,02,1,00,1,01250,1,03,1,02,1",,"09,9",,,,"99999,9,08231,1","9,9,999,9,+007,1",,"SYN118AAXX  28151 76373 02688 33201 10156 20138 38231 40160 5//// 60163 82032 91440 333 31/// 56022 58007 60163 82360 81070;",
"76373099999","2006-07-28T18:00:00","4","25.35","-105.75","1967.0","TEPEHUANES DGO., MX","FM-12","99999","V020","090,1,N,0020,1","22000,1,9,N","070000,1,N,1","+0246,1","+0159,1","10132,1",,,,,,"02,1,+00300,1,09,1","03,1,+03000,1,00,1",,"04,99,1,02,1,03,1,00450,1,03,1,05,1",,"01,9",,"120,M,+0264,1","240,N,+0118,1","99999,9,08219,1","6,1,012,1,+001,1",,"SYN124AAXX  28181 76373 32488 40902 10246 20159 38219 40132 56012 82335 91750 333 10264 20118 30/// 56222 58001 82910 83060 81070;",
"76373099999","2006-07-29T15:00:00","4","25.35","-105.75","1967.0","TEPEHUANES DGO., MX","FM-12","99999","V020","999,9,C,0000,1","03600,1,C,N","028000,1,N,1","+0186,1","+0169,1","10125,1","15,0020,9,1",,,,,"03,1,+00300,1,06,1",,,"08,99,1,03,1,06,1,00250,1,03,1,00,1",,"09,9",,,,"99999,9,08231,1","9,9,999,9,+000,1",,"SYN118AAXX  29151 76373 02378 80000 10186 20169 38231 40125 5//// 60029 83630 91440 333 31/// 56220 58000 60029 83610 85360;",
"76373099999","2006-07-29T18:00:00","4","25.35","-105.75","1967.0","TEPEHUANES DGO., MX","FM-12","99999","V020","130,1,N,0010,1","06000,1,9,N","070000,1,N,1","+0236,1","+0166,1","10118,1",,,,,,"02,1,+00300,1,09,1","08,1,+06000,1,02,1",,"08,99,1,02,1,03,1,00450,1,00,1,07,1",,"09,9",,"120,M,+0258,1","240,N,+0168,1","99999,9,08230,1","7,1,001,1,+011,1",,"SYN124AAXX  29181 76373 32488 81301 10236 20166 38230 40118 57001 82307 91740 333 10258 20168 31/// 56202 58011 82910 88270 99020;",
"76373099999","2006-07-31T15:00:00","4","25.35","-105.75","1967.0","TEPEHUANES DGO., MX","FM-12","99999","V020","270,1,N,0010,1","22000,1,9,N","070000,1,N,1","+0186,1","+0150,1","10116,1",,,,,,"01,1,+00300,1,08,1","02,1,+03000,1,03,1",,"04,99,1,01,1,01,1,00450,1,03,1,02,1",,"01,9",,,,"99999,9,08213,1",,,"SYN112AAXX  31151 76373 32488 42701 10186 20150 38213 40116 5//// 81132 91440 333 30/// 56222 58/// 81810 82360 81070;",
"76373099999","2006-07-31T18:00:00","4","25.35","-105.75","1967.0","TEPEHUANES DGO., MX","FM-12","99999","V020","180,1,N,0010,1","22000,1,9,N","070000,1,N,1","+0246,1","+0145,1","10086,1",,,,,,"02,1,+00300,1,09,1",,,"04,99,1,02,1,03,1,00450,1,00,1,02,1",,"01,9",,"120,M,+0260,1","240,N,+0144,1","99999,9,08194,1","6,1,019,1,+999,9",,"SYN118AAXX  31181 76373 32488 41801 10246 20145 38194 40086 56019 82302 91740 333 10260 20144 30/// 56202 58/// 82910 82070;",
"76373099999","2006-08-01T15:00:00","4","25.35","-105.75","1967.0","TEPEHUANES DGO., MX","FM-12","99999","V020","999,9,C,0000,1","22000,1,9,N","070000,1,N,1","+0188,1","+0152,1","10132,1",,,,,,"02,1,+03000,1,03,1",,,"03,99,1,02,1,00,1,01250,1,03,1,02,1",,"01,9",,,,"99999,9,08224,1","9,9,999,9,+011,1",,"SYN106AAXX  01151 76373 32688 30000 10188 20152 38224 40132 5//// 82032 91440 333 30/// 56022 58011 82360 81070;",
"76373099999","2006-08-01T18:00:00","4","25.35","-105.75","1967.0","TEPEHUANES DGO., MX","FM-12","99999","V020","090,1,N,0020,1","22000,1,9,N","070000,1,N,1","+0264,1","+0150,1","10116,1",,,,,,"02,1,+00300,1,09,1",,,"03,99,1,03,1,03,1,00450,1,00,1,00,1",,"01,9",,"120,M,+0282,1","240,N,+0132,1","99999,9,08219,1","7,1,005,1,+025,1",,"SYN118AAXX  01181 76373 32488 30902 10264 20150 38219 40116 57005 83300 91745 333 10282 20132 30/// 56200 58025 82910 81810;",
"76373099999","2006-08-02T15:00:00","4","25.35","-105.75","1967.0","TEPEHUANES DGO., MX","FM-12","99999","V020","300,1,N,0010,1","03600,1,C,N","070000,1,N,1","+0178,1","+0145,1","10134,1",,,,,,"01,1,+00300,1,09,1","01,1,+00300,1,08,1","02,1,+03000,1,03,1","08,99,1,02,1,03,1,00450,1,03,1,02,1",,"01,9",,,,"99999,9,08230,1","9,9,999,9,+006,1",,"SYN118AAXX  02151 76373 32488 83001 10178 20145 38230 40134 5//// 82332 91440 333 30/// 56222 58006 81910 81810 82360 84070;",
"76373099999","2006-08-02T18:00:00","4","25.35","-105.75","1967.0","TEPEHUANES DGO., MX","FM-12","99999","V020","060,1,N,0010,1","22000,1,9,N","070000,1,N,1","+0254,1","+0135,1","10123,1",,,,,,"02,1,+00300,1,09,1","01,1,+00300,1,08,1",,"04,99,1,03,1,03,1,00450,1,00,1,01,1",,"01,9",,"120,M,+0272,1","240,N,+0138,1","99999,9,08223,1","6,1,007,1,+004,1",,"SYN124AAXX  02181 76373 32488 40601 10254 20135 38223 40123 56007 83301 91745 333 10272 20138 30/// 56202 58004 82910 81810 81070;",
"76373099999","2006-08-03T15:00:00","4","25.35","-105.75","1967.0","TEPEHUANES DGO., MX","FM-12","99999","V020","999,9,C,0000,1","22000,1,9,N","010000,1,N,1","+0176,1","+0148,1","10123,1","18,0060,9,1",,,,,"01,1,+00300,1,08,1","02,1,+03000,1,03,1",,"04,99,1,01,1,01,1,00250,1,03,1,02,1",,"09,9",,,,"99999,9,08215,1","9,9,999,9,-015,1",,"SYN124AAXX  03151 76373 02360 40000 10176 20148 38215 40123 5//// 60063 81132 91440 333 31/// 56777 59015 60063 81810 82360 81070;",
"76373099999","2006-08-03T18:00:00","4","25.35","-105.75","1967.0","TEPEHUANES DGO., MX","FM-12","99999","V020","180,1,N,0010,1","03600,1,C,N","070000,1,N,1","+0252,1","+0150,1","10102,1",,,,,,"03,1,+00300,1,09,1","01,1,+03000,1,03,1",,"05,99,1,03,1,03,1,00450,1,03,1,02,1",,"09,9",,"120,M,+0272,1","240,N,+0142,1","99999,9,08208,1","7,1,007,1,-015,1",,"SYN124AAXX  03181 76373 32488 51801 10252 20150 38208 40102 57007 83332 91750 333 10272 20142 31/// 56666 59015 83910 81360 81070;",
"76373099999","2006-08-04T15:00:00","4","25.35","-105.75","1967.0","TEPEHUANES DGO., MX","FM-12","99999","V020","999,9,C,0000,1","06000,1,9,N","070000,1,N,1","+0158,1","+0140,1","10141,1","18,0020,9,1",,,,,"07,1,+06000,1,02,1",,,"07,99,1,00,1,00,1,99999,9,00,1,08,1",,"09,9",,,,"99999,9,08229,1","9,9,999,9,+014,1",,"SYN112AAXX  04151 76373 02988 70000 10158 20140 38229 40141 5//// 60023 80008 91442 333 31/// 56006 58014 60023 87270;",
"76373099999","2006-08-04T18:00:00","4","25.35","-105.75","1967.0","TEPEHUANES DGO., MX","FM-12","99999","V020","090,1,N,0010,1","09000,1,C,N","070000,1,N,1","+0230,1","+0141,1","10123,1",,,,,,"02,1,+00300,1,09,1",,,"08,99,1,02,1,03,1,00450,1,00,1,08,1",,"09,9",,"120,M,+0250,1","240,N,+0130,1","99999,9,08220,1","6,1,009,1,+012,1",,"SYN118AAXX  04181 76373 32488 80901 10230 20141 38220 40123 56009 82308 91740 333 10250 20130 31/// 56606 58012 82910 86270;",
"76373099999","2006-08-05T15:00:00","4","25.35","-105.75","1967.0","TEPEHUANES DGO., MX","FM-12","99999","V020","300,1,N,0010,1","03600,1,C,N","030000,1,N,1","+0188,1","+0157,1","10109,1","18,0060,9,1",,,,,"03,1,+00300,1,06,1",,,"08,99,1,03,1,06,1,00250,1,03,1,00,1",,"09,9",,,,"99999,9,08214,1","9,9,999,9,-015,1",,"SYN118AAXX  05151 76373 02380 83001 10188 20157 38214 40109 5//// 60063 83630 91445 333 31/// 56220 59015 60063 83610 85360;",
"76373099999","2006-08-05T18:00:00","4","25.35","-105.75","1967.0","TEPEHUANES DGO., MX","FM-12","99999","V020","030,1,N,0010,1","99999,9,9,N","010000,1,N,1","+0200,1","+0156,1","10095,1","01,0000,2,1",,,"5,1,06,1","5,1,06,1",,,,"08,99,1,99,9,99,9,00250,1,99,9,99,9",,,,,,"99999,9,08212,1","7,1,002,1,+999,9","16,1","SYN072AAXX  05181 76373 01360 80301 10200 20156 38212 40095 57002 69925 71655;",
"76373099999","2006-08-07T15:00:00","4","25.35","-105.75","1967.0","TEPEHUANES DGO., MX","FM-12","99999","V020","999,9,C,0000,1","22000,1,9,N","070000,1,N,1","+0174,1","+0155,1","10144,1","00,0099,9,1","99,0100,9,1",,,,"01,1,+00300,1,06,1",,,"03,99,1,01,1,04,1,00250,1,03,1,00,1",,"09,9",,,,"99999,9,08232,1",,,"SYN118AAXX  07151 76373 02388 30000 10174 20155 38232 40144 5//// 60100 81430 91445 333 31/// 56660 58/// 60100 81610 82360;",
"76373099999","2006-08-07T18:00:00","4","25.35","-105.75","1967.0","TEPEHUANES DGO., MX","FM-12","99999","V020","140,1,N,0030,1","22000,1,9,N","070000,1,N,1","+0246,1","+0162,1","10125,1",,,,,,"03,1,+00300,1,09,1",,,"03,99,1,03,1,03,1,00450,1,00,1,00,1",,"09,9",,"120,M,+0268,1","240,N,+0138,1","99999,9,08231,1","7,1,001,1,+999,9",,"SYN112AAXX  07181 76373 32488 31403 10246 20162 38231 40125 57001 83300 91742 333 10268 20138 31/// 56200 58/// 83910;",
"76373099999","2006-08-08T15:00:00","4","25.35","-105.75","1967.0","TEPEHUANES DGO., MX","FM-12","99999","V020","180,1,N,0010,1","03600,1,C,N","055000,1,N,1","+0176,1","+0161,1","10151,1","06,0020,9,1",,,,,"02,1,+00300,1,06,1",,,"07,99,1,02,1,06,1,00250,1,03,1,00,1",,"09,9",,,,"99999,9,08241,1","9,9,999,9,+009,1",,"SYN118AAXX  08151 76373 02385 71801 10176 20161 38241 40151 5//// 60021 82630 91446 333 31/// 56220 58009 60021 82610 85360;",
"76373099999","2006-08-08T18:00:00","4","25.35","-105.75","1967.0","TEPEHUANES DGO., MX","FM-12","99999","V020","120,1,N,0040,1","22000,1,9,N","070000,1,N,1","+0240,1","+0158,1","10141,1",,,,,,"02,1,+00300,1,09,1","01,1,+00300,1,08,1",,"04,99,1,03,1,03,1,00450,1,00,1,02,1",,"09,9",,"120,M,+0260,1","240,N,+0143,1","99999,9,08241,1","4,1,000,1,+010,1",,"SYN124AAXX  08181 76373 32488 41204 10240 20158 38241 40141 54000 83302 91745 333 10260 20143 31/// 56202 58010 82910 81810 81070;",
"76373099999","2006-08-09T15:00:00","4","25.35","-105.75","1967.0","TEPEHUANES DGO., MX","FM-12","99999","V020","999,9,C,0000,1","03600,1,C,N","070000,1,N,1","+0184,1","+0138,1","10144,1","18,9000,9,2",,,,,"01,1,+00300,1,06,1",,,"05,99,1,01,1,04,1,00250,1,03,1,00,1",,"09,9",,,,"99999,9,08239,1","9,9,999,9,-002,1",,"SYN118AAXX  09151 76373 02388 50000 10184 20138 38239 40144 5//// 69903 81430 91446 333 31/// 56220 59002 69003 81610 84360;",
"76373099999","2006-08-09T18:00:00","4","25.35","-105.75","1967.0","TEPEHUANES DGO., MX","FM-12","99999","V020","090,1,N,0010,1","22000,1,9,N","070000,1,N,1","+0254,1","+0142,1","10132,1",,,,,,"02,1,+00300,1,09,1","01,1,+00300,1,08,1",,"04,99,1,03,1,03,1,00450,1,03,1,00,1",,"01,9",,"120,M,+0278,1","240,N,+0148,1","99999,9,08237,1","7,1,002,1,-004,1",,"SYN124AAXX  09181 76373 32488 40901 10254 20142 38237 40132 57002 83330 91745 333 10278 20148 30/// 56220 59004 82910 81810 81360;",
"76373099999","2006-08-10T15:00:00","4","25.35","-105.75","1967.0","TEPEHUANES DGO., MX","FM-12","99999","V020","999,9,C,0000,1","22000,1,9,N","070000,1,N,1","+0182,1","+0145,1","10139,1","09,0030,9,1",,,,,"01,1,+00300,1,06,1","02,1,+03000,1,03,1",,"04,99,1,01,1,04,1,00250,1,03,1,02,1",,"09,9",,,,"99999,9,08240,1","9,9,999,9,+001,1",,"SYN124AAXX  10151 76373 02388 40000 10182 20145 38240 40139 5//// 60038 81432 91446 333 31/// 56622 58001 60038 81610 82360 81070;",
"76373099999","2006-08-10T18:00:00","4","25.35","-105.75","1967.0","TEPEHUANES DGO., MX","FM-12","99999","V020","090,1,N,0010,1","09000,1,C,N","070000,1,N,1","+0252,1","+0163,1","10117,1",,,,,,"03,1,+00300,1,09,1","01,1,+00300,1,08,1",,"05,99,1,04,1,03,1,00450,1,00,1,02,1",,"09,9",,"120,M,+0270,1","240,N,+0144,1","99999,9,08232,1","7,1,008,1,-005,1",,"SYN124AAXX  10181 76373 32488 50901 10252 20163 38232 40117 57008 84302 91740 333 10270 20144 31/// 56202 59005 83910 81810 81070;",
"76373099999","2006-08-13T15:00:00","4","25.35","-105.75","1967.0","TEPEHUANES DGO., MX","FM-12","99999","V020","330,1,N,0010,1","03000,1,9,N","070000,1,N,1","+0176,1","+0132,1","10123,1",,,,,,"01,1,+00300,1,08,1","04,1,+03000,1,03,1",,"06,99,1,01,1,01,1,00450,1,03,1,02,1",,"01,9",,,,"99999,9,08216,1",,,"SYN112AAXX  13151 76373 32488 63301 10176 20132 38216 40123 5//// 81132 91445 333 30/// 56222 58/// 81810 84360 81070;",
"76373099999","2006-08-13T18:00:00","4","25.35","-105.75","1967.0","TEPEHUANES DGO., MX","FM-12","99999","V020","240,1,N,0020,1","22000,1,9,N","070000,1,N,1","+0250,1","+0147,1","10104,1",,,,,,"02,1,+00300,1,09,1","01,1,+03000,1,03,1",,"04,99,1,02,1,03,1,00450,1,03,1,02,1",,"01,9",,"120,M,+0274,1","240,N,+0135,1","99999,9,08215,1","7,1,001,1,+999,9",,"SYN124AAXX  13181 76373 32488 42402 10250 20147 38215 40104 57001 82332 91750 333 10274 20135 30/// 56222 58/// 82910 81360 81070;",
"76373099999","2006-08-14T15:00:00","4","25.35","-105.75","1967.0","TEPEHUANES DGO., MX","FM-12","99999","V020","090,1,N,0010,1","22000,1,9,N","070000,1,N,1","+0180,1","+0156,1","10137,1","15,0070,9,1",,,,,"01,1,+00300,1,06,1","01,1,+03000,1,03,1",,"02,99,1,01,1,04,1,00250,1,03,1,04,1",,"09,9",,,,"99999,9,08235,1","9,9,999,9,+019,1",,"SYN124AAXX  14151 76373 02388 20901 10180 20156 38235 40137 5//// 60079 81434 91448 333 31/// 56222 58019 60079 81610 81360 83070;",
"76373099999","2006-08-14T18:00:00","4","25.35","-105.75","1967.0","TEPEHUANES DGO., MX","FM-12","99999","V020","060,1,N,0020,1","22000,1,9,N","070000,1,N,1","+0248,1","+0164,1","10123,1",,,,,,"02,1,+00300,1,09,1",,,"03,99,1,02,1,03,1,00450,1,00,1,02,1",,"09,9",,"120,M,+0268,1","240,N,+0144,1","99999,9,08229,1","7,1,006,1,+014,1",,"SYN118AAXX  14181 76373 32488 30602 10248 20164 38229 40123 57006 82302 91750 333 10268 20144 31/// 56200 58014 82910 81070;",
"76373099999","2006-08-15T15:00:00","4","25.35","-105.75","1967.0","TEPEHUANES DGO., MX","FM-12","99999","V020","280,1,N,0010,1","22000,1,9,N","070000,1,N,1","+0168,1","+0147,1","10153,1","18,0030,9,1",,,,,"00,1,+99999,9,99,9",,,"00,99,1,00,1,00,1,99999,9,00,1,00,1",,"09,9",,,,"99999,9,08236,1","9,9,999,9,+007,1",,"SYN094AAXX  15151 76373 02988 02801 10168 20147 38236 40153 5//// 60033 91445 333 31/// 58007 60033;",
"76373099999","2006-08-15T18:00:00","4","25.35","-105.75","1967.0","TEPEHUANES DGO., MX","FM-12","99999","V020","120,1,N,0010,1","22000,1,9,N","070000,1,N,1","+0254,1","+0171,1","10137,1",,,,,,"02,1,+00300,1,09,1",,,"02,99,1,02,1,03,1,00450,1,00,1,00,1",,"01,9",,"120,M,+0272,1","240,N,+0128,1","99999,9,08231,1","7,1,005,1,+002,1",,"SYN112AAXX  15181 76373 32488 21201 10254 20171 38231 40137 57005 82300 91742 333 10272 20128 30/// 56200 58002 82910;",
"76373099999","2006-08-16T15:00:00","4","25.35","-105.75","1967.0","TEPEHUANES DGO., MX","FM-12","99999","V020","220,1,N,0010,1","22000,1,9,N","070000,1,N,1","+0152,1","+0120,1","10179,1",,,,,,"01,1,+00300,1,08,1","02,1,+03000,1,03,1",,"04,99,1,01,1,01,1,00450,1,03,1,02,1",,"01,9",,,,"99999,9,08251,1","9,9,999,9,+020,1",,"SYN112AAXX  16151 76373 32488 42201 10152 20120 38251 40179 5//// 81132 91450 333 30/// 56222 58020 81810 82360 81070;",
"76373099999","2006-08-16T18:00:00","4","25.35","-105.75","1967.0","TEPEHUANES DGO., MX","FM-12","99999","V020","150,1,N,0010,1","22000,1,C,N","070000,1,N,1","+0238,1","+0146,1","10153,1",,,,,,"01,1,+00300,1,09,1","01,1,+00300,1,08,1",,"05,99,1,02,1,03,1,00450,1,00,1,04,1",,"01,9",,"120,M,+0260,1","240,N,+0118,1","99999,9,08238,1","6,1,013,1,-007,1",,"SYN124AAXX  16181 76373 32488 51501 10238 20146 38238 40153 56013 82304 91750 333 10260 20118 30/// 56202 59007 81910 81810 83070;",
"76373099999","2006-08-17T15:00:00","4","25.35","-105.75","1967.0","TEPEHUANES DGO., MX","FM-12","99999","V020","999,9,C,0000,1","00300,1,9,N","015000,1,N,1","+0160,1","+0150,1","10160,1","12,0160,9,1",,,"6,1,03,1","5,1,03,1","08,1,+00300,1,06,1",,,"08,99,1,08,1,07,1,00250,1,00,1,00,1",,"09,9",,,,"99999,9,08253,1","9,9,999,9,+002,1","50,1","SYN112AAXX  17151 76373 21365 80000 10160 20150 38253 40160 5//// 75065 88700 91450 333 31/// 56200 58002 60162 88610;",
"76373099999","2006-08-17T18:00:00","4","25.35","-105.75","1967.0","TEPEHUANES DGO., MX","FM-12","99999","V020","060,1,N,0010,1","00300,1,9,N","030000,1,N,1","+0202,1","+0148,1","10167,1","03,0003,9,1",,,"5,1,06,1","5,1,06,1","08,1,+00300,1,06,1",,,"08,99,1,08,1,06,1,00250,1,00,1,00,1",,"09,9",,"120,M,+0220,1","240,N,+0149,1","99999,9,08256,1","2,1,003,1,+018,1","01,1","SYN124AAXX  17181 76373 11380 80601 10202 20148 38256 40167 52003 69937 70155 88600 91745 333 10220 20149 31/// 56200 58018 88610;",
"76373099999","2006-08-18T12:00:00","4","25.35","-105.75","1967.0","TEPEHUANES DGO., MX","FM-12","99999","V020","160,1,N,0010,1","22000,1,9,N","015000,1,N,1","+0160,1","+0152,1","10125,1","24,0008,9,1",,,,,"02,1,+03000,1,03,1",,,"99,99,9,02,1,00,1,01250,1,03,1,00,1",,"01,9","999,+0142,1","120,N,+0154,1","240,M,+0267,1","99999,9,08223,1",,,"SYN118AAXX  18121 76373 32665 11601 10160 20152 38223 40125 5//// 82030 91150 333 10267 20154 30142 56020 58/// 70008 82360;","Q01+000012SCOTCV"
"76373099999","2006-08-18T15:00:00","4","25.35","-105.75","1967.0","TEPEHUANES DGO., MX","FM-12","99999","V020","999,9,C,0000,1","03600,1,C,N","015000,1,N,1","+0168,1","+0149,1","10141,1",,,,,,"04,1,+00300,1,07,1",,,"07,99,1,04,1,06,1,00450,1,03,1,00,1",,"01,9",,,,"99999,9,08231,1","2,1,008,1,-022,1",,"SYN106AAXX  18151 76373 32465 70000 10168 20149 38231 40141 52008 84630 91450 333 30/// 56220 59022 84710 83358;",
"76373099999","2006-08-18T18:00:00","4","25.35","-105.75","1967.0","TEPEHUANES DGO., MX","FM-12","99999","V020","120,1,N,0050,1","22000,1,9,N","070000,1,N,1","+0246,1","+0149,1","10123,1",,,,,,"02,1,+00300,1,09,1",,,"03,99,1,02,1,03,1,00450,1,03,1,00,1",,"01,9",,"120,M,+0268,1","240,N,+0148,1","99999,9,08227,1","7,1,004,1,-029,1",,"SYN118AAXX  18181 76373 32488 31205 10246 20149 38227 40123 57004 82330 91747 333 10268 20148 30/// 56220 59029 82910 83060;",
"76373099999","2006-08-18T21:00:00","4","25.35","-105.75","1967.0","TEPEHUANES DGO., MX","FM-12","99999","V020","120,1,N,0060,1","22000,1,9,N","070000,1,N,1","+0276,1","+0151,1","10074,1",,,,,,"02,1,+00300,1,09,1","01,1,+00300,1,08,1",,"04,99,1,03,1,03,1,00450,1,03,1,00,1",,"01,9",,,,"99999,9,08200,1","6,1,027,1,+999,9",,"SYN112AAXX  18211 76373 32488 41206 10276 20151 38200 40074 56027 83330 92043 333 30/// 56220 58/// 82910 81810 81360;",
"76373099999","2006-08-19T15:00:00","4","25.35","-105.75","1967.0","TEPEHUANES DGO., MX","FM-12","99999","V020","300,1,N,0010,1","09000,1,C,N","070000,1,N,1","+0156,1","+0141,1","10148,1","12,0008,9,1",,,,,"02,1,+00300,1,06,1","02,1,+03000,1,03,1",,"05,99,1,02,1,04,1,00250,1,03,1,02,1",,"09,9",,,,"99999,9,08227,1","9,9,999,9,-004,1",,"SYN118AAXX  19151 76373 12388 53001 10156 20141 38227 40148 5//// 69982 82432 91445 333 31/// 56222 59004 82610 82360 81070;",
"76373099999","2006-08-19T18:00:00","4","25.35","-105.75","1967.0","TEPEHUANES DGO., MX","FM-12","99999","V020","110,1,N,0030,1","22000,1,9,N","070000,1,N,1","+0242,1","+0161,1","10132,1",,,,,,"02,1,+00300,1,09,1",,,"03,99,1,02,1,03,1,00450,1,00,1,02,1",,"01,9",,"120,M,+0260,1","240,N,+0124,1","99999,9,08223,1","7,1,004,1,-004,1",,"SYN118AAXX  19181 76373 32488 31103 10242 20161 38223 40132 57004 82302 91745 333 10260 20124 30/// 56202 59004 82910 81070;",
"76373099999","2006-08-20T12:00:00","4","25.35","-105.75","1967.0","TEPEHUANES DGO., MX","FM-12","99999","V020","999,9,C,0000,1","03000,1,9,N","001500,1,N,1","+0156,1","+0153,1","10118,1","03,0003,9,1","06,0020,9,1","24,0197,9,1",,,"06,1,+03000,1,05,1",,,"06,99,1,06,1,00,1,01250,1,02,1,00,1",,"01,9","999,+0148,1","120,N,+0152,1","240,M,+0302,1","99999,9,08210,1",,,"SYN130AAXX  20121 76373 01615 60000 10156 20153 38210 40118 5//// 60021 86020 91150 333 10302 20152 30148 56020 58/// 69937 70197 86560;",
"76373099999","2006-08-21T15:00:00","4","25.35","-105.75","1967.0","TEPEHUANES DGO., MX","FM-12","99999","V020","999,9,C,0000,1","00300,1,9,N","070000,1,N,1","+0152,1","+0142,1","10144,1","02,0004,9,1",,,"5,1,03,1","5,1,03,1","06,1,+00300,1,06,1",,,"08,99,1,06,1,07,1,00250,1,04,1,00,1",,"09,9",,,,"99999,9,08234,1",,"50,1","SYN118AAXX  21151 76373 21388 80000 10152 20142 38234 40144 5//// 75055 86740 91447 333 31/// 56220 58/// 69946 86610 82360;",
"76373099999","2006-08-21T18:00:00","4","25.35","-105.75","1967.0","TEPEHUANES DGO., MX","FM-12","99999","V020","150,1,N,0020,1","22000,1,9,N","070000,1,N,1","+0244,1","+0165,1","10132,1",,,,,,"02,1,+00300,1,09,1",,,"03,99,1,03,1,03,1,00450,1,00,1,00,1",,"09,9",,"120,M,+0266,1","240,N,+0130,1","99999,9,08230,1","6,1,004,1,+999,9",,"SYN118AAXX  21181 76373 32488 31502 10244 20165 38230 40132 56004 83300 91745 333 10266 20130 31/// 56200 58/// 82910 81810;",
"76373099999","2006-08-22T15:00:00","4","25.35","-105.75","1967.0","TEPEHUANES DGO., MX","FM-12","99999","V020","999,9,C,0000,1","22000,1,9,N","070000,1,N,1","+0180,1","+0140,1","10161,1",,,,,,"00,1,+99999,9,99,9",,,"00,99,1,00,1,00,1,99999,9,00,1,00,1",,"01,9",,,,"99999,9,08245,1","9,9,999,9,+011,1",,"SYN082AAXX  22151 76373 32988 00000 10180 20140 38245 40161 5//// 91440 333 30/// 58011;",
"76373099999","2006-08-22T18:00:00","4","25.35","-105.75","1967.0","TEPEHUANES DGO., MX","FM-12","99999","V020","120,1,N,0040,1","22000,1,9,N","070000,1,N,1","+0258,1","+0159,1","10151,1",,,,,,"02,1,+00300,1,09,1",,,"04,99,1,04,1,03,1,00450,1,00,1,00,1",,"01,9",,"120,M,+0278,1","240,N,+0140,1","99999,9,08248,1","2,1,003,1,+018,1",,"SYN118AAXX  22181 76373 32488 41204 10258 20159 38248 40151 52003 84300 91745 333 10278 20140 30/// 56200 58018 82910 82810;",
"76373099999","2006-08-23T15:00:00","4","25.35","-105.75","1967.0","TEPEHUANES DGO., MX","FM-12","99999","V020","130,1,N,0010,1","09000,1,C,N","070000,1,N,1","+0170,1","+0140,1","10162,1",,,,,,"01,1,+00300,1,08,1",,,"07,99,1,01,1,01,1,00250,1,00,1,08,1",,"01,9",,,,"99999,9,08247,1","9,9,999,9,+013,1",,"SYN106AAXX  23151 76373 32388 71301 10170 20140 38247 40162 5//// 81108 91450 333 30/// 56202 58013 81810 86270;",
"76373099999","2006-08-23T18:00:00","4","25.35","-105.75","1967.0","TEPEHUANES DGO., MX","FM-12","99999","V020","090,1,N,0030,1","09000,1,C,N","070000,1,N,1","+0246,1","+0159,1","10148,1",,,,,,"01,1,+00300,1,09,1","01,1,+00300,1,08,1",,"08,99,1,02,1,03,1,00450,1,00,1,08,1",,"01,9",,"120,M,+0268,1","240,N,+0132,1","99999,9,08243,1","7,1,004,1,-002,1",,"SYN124AAXX  23181 76373 32488 80903 10246 20159 38243 40148 57004 82308 91750 333 10268 20132 30/// 56202 59002 81910 81810 87270;",
"76373099999","2006-08-24T15:00:00","4","25.35","-105.75","1967.0","TEPEHUANES DGO., MX","FM-12","99999","V020","999,9,C,0000,1","00300,1,9,N","000400,1,N,1","+0152,1","+0146,1","10144,1","15,0180,9,1",,,,,"08,1,+00300,1,06,1",,,"08,99,1,08,1,06,1,00250,1,00,1,00,1",,"09,9",,,,"99999,9,08235,1","9,9,999,9,+012,1",,"SYN106AAXX  24151 76373 22304 80000 10152 20146 38235 40144 5//// 88600 91445 333 31/// 56200 58012 60189 88610;",
"76373099999","2006-08-24T18:00:00","4","25.35","-105.75","1967.0","TEPEHUANES DGO., MX","FM-12","99999","V020","240,1,N,0010,1","03600,1,C,N","070000,1,N,1","+0236,1","+0164,1","10125,1",,,,,,"02,1,+00300,1,08,1","01,1,+03000,1,03,1",,"08,99,1,02,1,03,1,00450,1,03,1,04,1",,"09,9",,"120,M,+0256,1","240,N,+0138,1","99999,9,08223,1","6,1,012,1,-020,1",,"SYN124AAXX  24181 76373 32488 82401 10236 20164 38223 40125 56012 82334 91747 333 10256 20138 31/// 56222 59020 82810 81360 85070;",
"76373099999","2006-08-25T15:00:00","4","25.35","-105.75","1967.0","TEPEHUANES DGO., MX","FM-12","99999","V020","330,1,N,0010,1","22000,1,9,N","070000,1,N,1","+0158,1","+0143,1","10120,1","18,0030,9,1",,,,,"02,1,+00300,1,06,1",,,"04,99,1,02,1,04,1,00250,1,00,1,02,1",,"09,9",,,,"99999,9,08207,1","9,9,999,9,-028,1",,"SYN112AAXX  25151 76373 22388 43301 10158 20143 38207 40120 5//// 82402 91445 333 31/// 56202 59028 60033 82610 82070;",
"76373099999","2006-08-25T18:00:00","4","25.35","-105.75","1967.0","TEPEHUANES DGO., MX","FM-12","99999","V020","090,1,N,0020,1","03600,1,C,N","070000,1,N,1","+0250,1","+0170,1","10102,1",,,,,,"03,1,+00300,1,09,1","01,1,+03000,1,03,1",,"05,99,1,03,1,03,1,00450,1,03,1,02,1",,"09,9",,"120,M,+0270,1","240,N,+0130,1","99999,9,08203,1","7,1,004,1,-020,1",,"SYN124AAXX  25181 76373 32488 50902 10250 20170 38203 40102 57004 83332 91745 333 10270 20130 31/// 56222 59020 83910 81360 81070;",
"76373099999","2006-08-26T15:00:00","4","25.35","-105.75","1967.0","TEPEHUANES DGO., MX","FM-12","99999","V020","030,1,N,0010,1","03600,1,C,N","050000,1,N,1","+0196,1","+0164,1","10086,1","15,0008,9,1",,,,,"03,1,+00300,1,06,1",,,"05,99,1,03,1,04,1,00250,1,03,1,00,1",,"09,9",,,,"99999,9,08197,1","9,9,999,9,-010,1",,"SYN112AAXX  26151 76373 22384 50301 10196 20164 38197 40086 5//// 83430 91446 333 31/// 56220 59010 69989 83610 82360;",
"76373099999","2006-08-26T18:00:00","4","25.35","-105.75","1967.0","TEPEHUANES DGO., MX","FM-12","99999","V020","060,1,N,0020,1","00300,1,9,N","070000,1,N,1","+0266,1","+0157,1","10083,1",,,,,,"05,1,+00300,1,04,1",,,"06,99,1,05,1,04,1,00250,1,03,1,00,1",,"09,9",,"120,M,+9999,9","240,N,+0160,1","99999,9,08200,1","7,1,003,1,-003,1",,"SYN118AAXX  26181 76373 32388 60602 10266 20157 38200 40083 57003 85430 91748 333 10258 20160 31/// 56220 59003 85410 81360;","Q01 +02582ATMX  "
"76373099999","2006-08-28T15:00:00","4","25.35","-105.75","1967.0","TEPEHUANES DGO., MX","FM-12","99999","V020","999,9,C,0000,1","00300,1,9,N","028000,1,N,1","+0174,1","+0165,1","10111,1","15,0004,9,1",,,,,"08,1,+00300,1,06,1",,,"08,99,1,08,1,06,1,00250,1,00,1,00,1",,"09,9",,,,"99999,9,08217,1",,,"SYN106AAXX  28151 76373 22378 80000 10174 20165 38217 40111 5//// 88600 91445 333 31/// 56200 58/// 69949 88610;",
"76373099999","2006-08-28T18:00:00","4","25.35","-105.75","1967.0","TEPEHUANES DGO., MX","FM-12","99999","V020","120,1,N,0030,1","00300,1,9,N","070000,1,N,1","+0252,1","+0179,1","10093,1",,,,,,"03,1,+00300,1,09,1","02,1,+00300,1,08,1",,"06,99,1,05,1,03,1,00450,1,03,1,00,1",,"09,9",,"120,M,+0270,1","240,N,+0162,1","99999,9,08207,1","7,1,010,1,+999,9",,"SYN124AAXX  28181 76373 32488 61203 10252 20179 38207 40093 57010 85330 91745 333 10270 20162 31/// 56220 58/// 83910 82810 81360;",
"76373099999","2006-08-29T15:00:00","4","25.35","-105.75","1967.0","TEPEHUANES DGO., MX","FM-12","99999","V020","999,9,C,0000,1","00300,1,9,N","050000,1,N,1","+0166,1","+0153,1","10144,1","15,0190,9,1",,,,,"08,1,+00300,1,06,1",,,"08,99,1,08,1,06,1,00250,1,00,1,00,1",,"09,9",,,,"99999,9,08226,1","9,9,999,9,+019,1",,"SYN106AAXX  29151 76373 22384 80000 10166 20153 38226 40144 5//// 88600 91448 333 31/// 56200 58019 60199 88610;",
"76373099999","2006-08-29T18:00:00","4","25.35","-105.75","1967.0","TEPEHUANES DGO., MX","FM-12","99999","V020","060,1,N,0010,1","22000,1,9,N","070000,1,N,1","+0232,1","+0159,1","10132,1",,,,,,"03,1,+00300,1,08,1",,,"04,99,1,04,1,02,1,00250,1,00,1,00,1",,"09,9",,"120,M,+0254,1","240,N,+0137,1","99999,9,08220,1","7,1,006,1,+013,1",,"SYN118AAXX  29181 76373 32388 40601 10232 20159 38220 40132 57006 84200 91746 333 10254 20137 31/// 56200 58013 83810 81910;",
"76373099999","2006-08-30T15:00:00","4","25.35","-105.75","1967.0","TEPEHUANES DGO., MX","FM-12","99999","V020","999,9,C,0000,1","22000,1,9,N","070000,1,N,1","+0178,1","+0148,1","10127,1",,,,,,"02,1,+00300,1,08,1",,,"02,99,1,02,1,01,1,00450,1,00,1,00,1",,"01,9",,,,"99999,9,08220,1","9,9,999,9,-006,1",,"SYN100AAXX  30151 76373 32488 20000 10178 20148 38220 40127 5//// 82100 91445 333 30/// 56200 59006 82810;",
"76373099999","2006-08-30T18:00:00","4","25.35","-105.75","1967.0","TEPEHUANES DGO., MX","FM-12","99999","V020","140,1,N,0040,1","22000,1,9,N","070000,1,N,1","+0246,1","+0142,1","10116,1",,,,,,"03,1,+00300,1,08,1",,,"03,99,1,03,1,02,1,00450,1,00,1,00,1",,"01,9",,"120,M,+0270,1","240,N,+0130,1","99999,9,08218,1","7,1,002,1,-002,1",,"SYN112AAXX  30181 76373 32488 31404 10246 20142 38218 40116 57002 83200 91745 333 10270 20130 30/// 56200 59002 83810;",
"76373099999","2006-08-31T15:00:00","4","25.35","-105.75","1967.0","TEPEHUANES DGO., MX","FM-12","99999","V020","999,9,C,0000,1","22000,1,9,N","070000,1,N,1","+0170,1","+0142,1","10116,1",,,,,,"01,1,+03000,1,03,1",,,"02,99,1,01,1,00,1,01250,1,03,1,02,1",,"01,9",,,,"99999,9,08209,1","9,9,999,9,-017,1",,"SYN106AAXX  31151 76373 32688 20000 10170 20142 38209 40116 5//// 81032 91446 333 30/// 56022 59017 81360 81070;",
"76373099999","2006-08-31T18:00:00","4","25.35","-105.75","1967.0","TEPEHUANES DGO., MX","FM-12","99999","V020","120,1,N,0050,1","09000,1,C,N","070000,1,N,1","+0262,1","+0151,1","10109,1",,,,,,"02,1,+00300,1,08,1",,,"08,99,1,02,1,02,1,00450,1,00,1,08,1",,"01,9",,"120,M,+0280,1","240,N,+0130,1","99999,9,08212,1","2,1,003,1,-006,1",,"SYN118AAXX  31181 76373 32488 81205 10262 20151 38212 40109 52003 82208 91750 333 10280 20130 30/// 56202 59006 82810 86270;",
"76373099999","2006-09-01T15:00:00","4","25.35","-105.75","1967.0","TEPEHUANES DGO., MX","FM-12","99999","V020","999,9,C,0000,1","03600,1,C,N","060000,1,N,1","+0168,1","+0163,1","10095,1","12,0050,9,1",,,,,"02,1,+00300,1,06,1",,,"08,99,1,02,1,06,1,00250,1,07,1,00,1",,"09,9",,,,"99999,9,08211,1","9,9,999,9,+002,1",,"SYN112AAXX  01151 76373 22386 80000 10168 20163 38211 40095 5//// 82670 91445 333 31/// 56220 58002 60052 82610 88360;",
"76373099999","2006-09-01T18:00:00","4","25.35","-105.75","1967.0","TEPEHUANES DGO., MX","FM-12","99999","V020","999,9,C,0000,1","03600,1,C,N","070000,1,N,1","+0220,1","+0161,1","10102,1",,,,,,"02,1,+00300,1,06,1",,,"08,99,1,02,1,04,1,00250,1,07,1,00,1",,"09,9",,"120,M,+0240,1","240,N,+0162,1","99999,9,08215,1","2,1,004,1,+003,1",,"SYN118AAXX  01181 76373 32388 80000 10220 20161 38215 40102 52004 82470 91745 333 10240 20162 31/// 56220 58003 82610 88760;",
"76373099999","2006-09-02T15:00:00","4","25.35","-105.75","1967.0","TEPEHUANES DGO., MX","FM-12","99999","V020","999,9,C,0000,1","00300,1,9,N","010000,1,N,1","+0174,1","+0165,1","10104,1","18,0180,9,1",,,,,"08,1,+00300,1,06,1",,,"08,99,1,08,1,06,1,00250,1,00,1,00,1",,"09,9",,,,"99999,9,08206,1","9,9,999,9,-005,1",,"SYN106AAXX  02151 76373 22360 80000 10174 20165 38206 40104 5//// 88600 91443 333 31/// 56200 59005 60183 88610;",
"76373099999","2006-09-02T18:00:00","4","25.35","-105.75","1967.0","TEPEHUANES DGO., MX","FM-12","99999","V020","120,1,N,0020,1","00300,1,9,N","060000,1,N,1","+0232,1","+0178,1","10093,1","01,0000,2,1",,,"5,1,06,1","5,1,06,1","05,1,+00300,1,06,1",,,"07,99,1,05,1,07,1,00250,1,03,1,00,1",,"09,9",,"120,M,+0242,1","240,N,+0160,1","99999,9,08203,1","2,1,003,1,-012,1","50,1","SYN130AAXX  02181 76373 31386 71202 10232 20178 38203 40093 52003 69905 75055 85730 91750 333 10242 20160 31/// 56220 59012 85610 82360;",
"76373099999","2006-09-04T15:00:00","4","25.35","-105.75","1967.0","TEPEHUANES DGO., MX","FM-12","99999","V020","999,9,C,0000,1","03600,1,C,N","070000,1,N,1","+0156,1","+0146,1","10169,1","15,0080,9,1",,,,,"02,1,+00300,1,06,1",,,"06,99,1,02,1,04,1,00250,1,03,1,00,1",,"09,9",,,,"99999,9,08223,1",,,"SYN112AAXX  04151 76373 22388 60000 10156 20146 38223 40169 5//// 82430 91445 333 31/// 56220 58/// 60089 82610 84360;",
"76373099999","2006-09-04T18:00:00","4","25.35","-105.75","1967.0","TEPEHUANES DGO., MX","FM-12","99999","V020","150,1,N,0010,1","22000,1,9,N","070000,1,N,1","+0244,1","+0166,1","10132,1",,,,,,"01,1,+00300,1,09,1",,,"02,99,1,02,1,03,1,00450,1,00,1,00,1",,"09,9",,"120,M,+0260,1","240,N,+0134,1","99999,9,08223,1","4,1,000,1,+999,9",,"SYN118AAXX  04181 76373 32488 21501 10244 20166 38223 40132 54000 82300 91745 333 10260 20134 31/// 56600 58/// 81910 81810;",
"76373099999","2006-09-05T15:00:00","4","25.35","-105.75","1967.0","TEPEHUANES DGO., MX","FM-12","99999","V020","999,9,C,0000,1","22000,1,9,N","070000,1,N,1","+0162,1","+0128,1","10179,1",,,,,,"01,1,+00300,1,08,1","01,1,+03000,1,03,1",,"04,99,1,01,1,01,1,00450,1,03,1,02,1",,"01,9",,,,"99999,9,08252,1","9,9,999,9,+029,1",,"SYN112AAXX  05151 76373 32488 40000 10162 20128 38252 40179 5//// 81132 91445 333 30/// 56222 58029 81810 81360 82070;",
"76373099999","2006-09-05T18:00:00","4","25.35","-105.75","1967.0","TEPEHUANES DGO., MX","FM-12","99999","V020","090,1,N,0010,1","09000,1,C,N","070000,1,N,1","+0236,1","+0133,1","10167,1",,,,,,"02,1,+00300,1,08,1",,,"08,99,1,02,1,01,1,00450,1,00,1,08,1",,"01,9",,"120,M,+0260,1","240,N,+0160,1","99999,9,08249,1","6,1,003,1,+026,1",,"SYN118AAXX  05181 76373 32488 80901 10236 20133 38249 40167 56003 82108 91745 333 10260 20160 30/// 56202 58026 82810 86270;",
"76373099999","2006-09-06T15:00:00","4","25.35","-105.75","1967.0","TEPEHUANES DGO., MX","FM-12","99999","V020","090,1,N,0010,1","03600,1,C,N","070000,1,N,1","+0190,1","+0146,1","10132,1",,,,,,"02,1,+00300,1,08,1",,,"08,99,1,02,1,01,1,00450,1,07,1,00,1",,"01,9",,,,"99999,9,08239,1","9,9,999,9,+016,1",,"SYN106AAXX  06151 76373 32488 80901 10190 20146 38239 40132 5//// 82170 91450 333 30/// 56220 58016 82810 87360;",
"76373099999","2006-09-06T18:00:00","4","25.35","-105.75","1967.0","TEPEHUANES DGO., MX","FM-12","99999","V020","060,1,N,0010,1","00300,1,9,N","070000,1,N,1","+0214,1","+0145,1","10139,1",,,,,,"08,1,+00300,1,06,1",,,"08,99,1,08,1,06,1,00450,1,00,1,00,1",,"01,9",,"120,M,+0232,1","240,N,+0154,1","99999,9,08243,1","7,1,004,1,-009,1",,"SYN112AAXX  06181 76373 32488 80601 10214 20145 38243 40139 57004 88600 91750 333 10232 20154 30/// 56200 59009 88610;",
"76373099999","2006-09-07T12:00:00","4","25.35","-105.75","1967.0","TEPEHUANES DGO., MX","FM-12","99999","V020","999,9,C,0000,1","99999,9,9,N","000200,1,N,1","+0152,1","+0149,1","10130,1","06,0000,2,1",,,"2,1,06,1","2,1,06,1",,,,"08,99,1,99,9,99,9,00250,1,99,9,99,9",,,,,,"99999,9,08209,1",,"50,1","SYN072AAXX  07121 76373 01302 80000 10152 20149 38209 40130 5//// 69901 75022;",
"76373099999","2006-09-07T15:00:00","4","25.35","-105.75","1967.0","TEPEHUANES DGO., MX","FM-12","99999","V020","999,9,C,0000,1","00300,1,9,N","015000,1,N,1","+0160,1","+0150,1","10130,1","03,0005,9,1",,,,,"08,1,+00300,1,07,1",,,"08,99,1,08,1,06,1,00450,1,99,9,99,9",,"09,9",,,,"99999,9,08213,1","1,1,004,1,-026,1",,"SYN106AAXX  07151 76373 32465 80000 10160 20150 38213 40130 51004 886// 91450 333 31/// 562// 59026 69957 88710;",
"76373099999","2006-09-07T18:00:00","4","25.35","-105.75","1967.0","TEPEHUANES DGO., MX","FM-12","99999","V020","270,1,N,0010,1","99999,9,9,N","018000,1,N,1","+0186,1","+0173,1","10127,1","01,0000,2,1",,,"2,1,06,1","2,1,06,1",,,,"08,99,1,99,9,99,9,00250,1,99,9,99,9",,,,,,"99999,9,08218,1","2,1,005,1,+999,9","50,1","SYN072AAXX  07181 76373 11368 82701 10186 20173 38218 40127 52005 69905 75022;",
"76373099999","2006-09-07T21:00:00","4","25.35","-105.75","1967.0","TEPEHUANES DGO., MX","FM-12","99999","V020","150,1,N,0020,1","03600,1,C,N","070000,1,N,1","+0212,1","+0159,1","10081,1","03,0080,9,1",,,"5,1,03,1","5,1,03,1","01,1,+00300,1,09,1","03,1,+00300,1,06,1",,"07,99,1,04,1,06,1,00250,1,03,1,00,1",,"09,9",,,,"99999,9,08190,1","7,1,028,1,+999,9","01,1","SYN124AAXX  07211 76373 21388 71502 10212 20159 38190 40081 57028 70155 84630 92045 333 31/// 56220 58/// 60087 83610 81910 83360;",
"76373099999","2006-09-08T12:00:00","4","25.35","-105.75","1967.0","TEPEHUANES DGO., MX","FM-12","99999","V020","300,1,N,0010,1","03000,1,9,N","010000,1,N,1","+0148,1","+0145,1","10111,1","24,0036,9,1",,,,,"06,1,+03000,1,03,1",,,"06,99,1,06,1,00,1,01250,1,03,1,00,1",,"01,9","999,+0134,1","120,N,+0142,1","240,M,+0258,1","99999,9,08199,1","9,9,999,9,-010,1",,"SYN118AAXX  08121 76373 32660 63001 10148 20145 38199 40111 5//// 86030 91150 333 10258 20142 30134 56020 59010 70036 86360;",
"76373099999","2006-09-08T15:00:00","4","25.35","-105.75","1967.0","TEPEHUANES DGO., MX","FM-12","99999","V020","999,9,C,0000,1","00360,1,9,N","070000,1,N,1","+0162,1","+0147,1","10120,1",,,,,,"08,1,+00360,1,06,1",,,"08,99,1,08,1,04,1,00450,1,00,1,00,1",,"09,9",,,,"99999,9,08207,1","1,1,008,1,-006,1",,"SYN100AAXX  08151 76373 32488 80000 10162 20147 38207 40120 51008 88400 91450 333 31/// 56200 59006 88612;",
"76373099999","2006-09-08T18:00:00","4","25.35","-105.75","1967.0","TEPEHUANES DGO., MX","FM-12","99999","V020","060,1,N,0010,1","22000,1,9,N","070000,1,N,1","+0232,1","+0132,1","10111,1",,,,,,"02,1,+00300,1,08,1",,,"04,99,1,02,1,01,1,00450,1,03,1,00,1",,"09,9",,"120,M,+0252,1","240,N,+0140,1","99999,9,08210,1","2,1,003,1,-008,1",,"SYN118AAXX  08181 76373 32488 40601 10232 20132 38210 40111 52003 82130 91743 333 10252 20140 31/// 56220 59008 82810 82360;",
"76373099999","2006-09-08T21:00:00","4","25.35","-105.75","1967.0","TEPEHUANES DGO., MX","FM-12","99999","V020","240,1,N,0030,1","03600,1,C,N","070000,1,N,1","+0250,1","+0143,1","10072,1",,,,,,"03,1,+00300,1,09,1","01,1,+00300,1,08,1",,"06,99,1,04,1,03,1,00450,1,03,1,00,1",,"01,9",,,,"99999,9,08189,1","6,1,021,1,-001,1",,"SYN112AAXX  08211 76373 32488 62403 10250 20143 38189 40072 56021 84330 92045 333 30/// 56220 59001 83910 81810 82360;",
"76373099999","2006-09-09T00:00:00","4","25.35","-105.75","1967.0","TEPEHUANES DGO., MX","FM-12","99999","V020","280,1,N,0040,1","99999,9,9,N","070000,1,N,1","+0234,1","+0148,1","10053,1","03,0150,9,1",,,"6,1,06,1","5,1,06,1",,,,"06,99,1,99,9,99,9,00450,1,99,9,99,9",,,,,,"99999,9,08183,1","7,1,006,1,+999,9","01,1","SYN072AAXX  09001 76373 11488 62804 10234 20148 38183 40053 57006 60157 70165;",
"76373099999","2006-09-09T15:00:00","4","25.35","-105.75","1967.0","TEPEHUANES DGO., MX","FM-12","99999","V020","999,9,C,0000,1","00300,1,9,N","070000,1,N,1","+0172,1","+0144,1","10125,1",,,,,,"08,1,+00300,1,06,1",,,"08,99,1,08,1,06,1,00250,1,00,1,00,1",,"09,9",,,,"99999,9,08215,1","9,9,999,9,+008,1",,"SYN100AAXX  09151 76373 32388 80000 10172 20144 38215 40125 5//// 88600 91443 333 31/// 56200 58008 88610;",
"76373099999","2006-09-09T18:00:00","4","25.35","-105.75","1967.0","TEPEHUANES DGO., MX","FM-12","99999","V020","110,1,N,0010,1","22000,1,9,N","070000,1,N,1","+0234,1","+0145,1","10109,1",,,,,,"02,1,+00300,1,03,1",,,"03,99,1,03,1,03,1,00450,1,00,1,00,1",,"09,9",,"120,M,+0250,1","240,N,+0140,1","99999,9,08209,1","2,1,006,1,-001,1",,"SYN118AAXX  09181 76373 32488 31101 10234 20145 38209 40109 52006 83300 91745 333 10250 20140 31/// 56200 59001 82310 81810;",
"76373099999","2006-09-10T12:00:00","4","25.35","-105.75","1967.0","TEPEHUANES DGO., MX","FM-12","99999","V020","999,9,C,0000,1","00300,1,9,N","000200,1,N,1","+0164,1","+0158,1","10111,1","24,0078,9,1",,,,,"08,1,+00300,1,07,1",,,"08,99,1,08,1,06,1,00450,1,99,9,99,9",,"01,9","999,+0156,1","120,N,+0156,1","240,M,+0296,1","99999,9,08211,1",,,"SYN118AAXX  10121 76373 32402 80000 10164 20158 38211 40111 5//// 886// 91150 333 10296 20156 30156 562// 58/// 70078 88710;",
"76373099999","2006-09-10T15:00:00","4","25.35","-105.75","1967.0","TEPEHUANES DGO., MX","FM-12","99999","V020","999,9,C,0000,1","00300,1,9,N","015000,1,N,1","+0180,1","+0155,1","10118,1","03,0006,9,1",,,,,"08,1,+00300,1,07,1",,,"08,99,1,08,1,07,1,00450,1,99,9,99,9",,"09,9",,,,"99999,9,08211,1","2,1,010,1,-004,1",,"SYN106AAXX  10151 76373 22465 80000 10180 20155 38211 40118 52010 887// 91450 333 31/// 562// 59004 69967 88710;",
"76373099999","2006-09-10T18:00:00","4","25.35","-105.75","1967.0","TEPEHUANES DGO., MX","FM-12","99999","V020","090,1,N,0020,1","22000,1,9,N","070000,1,N,1","+0240,1","+0169,1","10102,1",,,,,,"04,1,+00300,1,09,1",,,"04,99,1,04,1,03,1,00450,1,00,1,00,1",,"09,9",,"120,M,+0258,1","240,N,+0152,1","99999,9,08207,1","8,1,004,1,-002,1",,"SYN112AAXX  10181 76373 32488 40902 10240 20169 38207 40102 58004 84300 91745 333 10258 20152 31/// 56200 59002 84910;",
"76373099999","2006-09-11T12:00:00","4","25.35","-105.75","1967.0","TEPEHUANES DGO., MX","FM-12","99999","V020","280,1,N,0010,1","22000,1,9,N","000200,1,N,1","+0146,1","+9999,9","10109,1","03,0020,9,1","24,0021,9,1",,,,"01,1,+00300,1,07,1",,,"02,99,1,01,1,06,1,00450,1,04,1,00,1",,"01,9","999,+0128,1","120,N,+0144,1","240,M,+0300,1","99999,9,08208,1","9,9,999,9,+007,1",,"SYN136AAXX  11121 76373 02402 22801 10146 20149 38208 40109 5//// 60027 81640 91150 333 10300 20144 30128 56220 58007 60027 70021 81710 81360;",
"76373099999","2006-09-11T15:00:00","4","25.35","-105.75","1967.0","TEPEHUANES DGO., MX","FM-12","99999","V020","270,1,N,0020,1","00300,1,9,N","070000,1,N,1","+0158,1","+0145,1","10130,1",,,,,,"07,1,+00300,1,06,1",,,"08,99,1,08,1,05,1,00450,1,00,1,00,1",,"09,9",,,,"99999,9,08206,1","8,1,008,1,-005,1",,"SYN100AAXX  11151 76373 32488 82702 10158 20145 38206 40130 58008 88500 91445 333 31/// 56200 59005 87610;",
"76373099999","2006-09-11T18:00:00","4","25.35","-105.75","1967.0","TEPEHUANES DGO., MX","FM-12","99999","V020","060,1,N,0020,1","00210,1,C,N","070000,1,N,1","+0228,1","+0175,1","10123,1",,,,,,"04,1,+00300,1,08,1",,,"05,99,1,05,1,02,1,00250,1,00,1,00,1",,"09,9",,"120,M,+0248,1","240,N,+0138,1","99999,9,08218,1","2,1,002,1,+011,1",,"SYN118AAXX  11181 76373 32388 50602 10228 20175 38218 40123 52002 85200 91745 333 10248 20138 31/// 56200 58011 84810 81910;",
"76373099999","2006-09-11T21:00:00","4","25.35","-105.75","1967.0","TEPEHUANES DGO., MX","FM-12","99999","V020","140,1,N,0030,1","22000,1,9,N","070000,1,N,1","+0272,1","+0153,1","10074,1",,,,,,"03,1,+00300,1,09,1",,,"04,99,1,04,1,03,1,00450,1,00,1,00,1",,"01,9",,,,"99999,9,08192,1","7,1,026,1,-015,1",,"SYN106AAXX  11211 76373 32488 41403 10272 20153 38192 40074 57026 84300 92045 333 30/// 56600 59015 83910 81810;",
"76373099999","2006-09-12T00:00:00","4","25.35","-105.75","1967.0","TEPEHUANES DGO., MX","FM-12","99999","V020","120,1,N,0030,1","03000,1,C,N","070000,1,N,1","+0264,1","+0164,1","10065,1","24,0015,9,1",,,,,"04,1,+00300,1,09,1","02,1,+03000,1,03,1",,"07,99,1,04,1,09,1,00450,1,03,1,02,1",,"01,9",,"120,M,+0297,1","180,N,+0138,1","99999,9,08187,1","7,1,005,1,+999,9",,"SYN136AAXX  12001 76373 32488 71203 10264 20164 38187 40065 57005 84932 92345 333 10297 20138 30/// 50410 56777 58/// 70015 84910 82360 81070;",
"76373099999","2006-09-12T12:00:00","4","25.35","-105.75","1967.0","TEPEHUANES DGO., MX","FM-12","99999","V020","999,9,C,0000,1","22000,1,9,N","000300,1,N,1","+0136,1","+0125,1","10137,1","24,0000,9,1",,,,,"02,1,+06000,1,00,1",,,"02,99,1,00,1,00,1,99999,9,00,1,02,1",,"01,9","999,+0115,1","120,N,+0128,1","240,M,+0297,1","99999,9,08220,1","9,9,999,9,+012,1",,"SYN118AAXX  12121 76373 32903 20000 10136 20125 38220 40137 5//// 80002 91150 333 10297 20128 30115 56009 58012 70000 82070;",
"76373099999","2006-09-12T15:00:00","4","25.35","-105.75","1967.0","TEPEHUANES DGO., MX","FM-12","99999","V020","270,1,N,0010,1","22000,1,9,N","070000,1,N,1","+0168,1","+0140,1","10150,1",,,,,,"01,1,+00300,1,08,1","01,1,+03000,1,03,1",,"04,99,1,01,1,01,1,00450,1,03,1,05,1",,"01,9",,,,"99999,9,08231,1","2,1,011,1,+015,1",,"SYN112AAXX  12151 76373 32488 42701 10168 20140 38231 40150 52011 81135 91450 333 30/// 56222 58015 81810 81360 82070;",
"76373099999","2006-09-12T18:00:00","4","25.35","-105.75","1967.0","TEPEHUANES DGO., MX","FM-12","99999","V020","090,1,N,0030,1","03600,1,C,N","070000,1,N,1","+0242,1","+0157,1","10132,1",,,,,,"02,1,+00300,1,09,1","02,1,+00300,1,08,1",,"05,99,1,04,1,03,1,00450,1,03,1,00,1",,"01,9",,"120,M,+0266,1","240,N,+0121,1","99999,9,08226,1","7,1,005,1,+008,1",,"SYN124AAXX  12181 76373 32488 50903 10242 20157 38226 40132 57005 84330 91745 333 10266 20121 30/// 56220 58008 82910 82810 81360;",
"76373099999","2006-09-12T21:00:00","4","25.35","-105.75","1967.0","TEPEHUANES DGO., MX","FM-12","99999","V020","090,1,N,0030,1","03600,1,C,N","070000,1,N,1","+0268,1","+0162,1","10086,1",,,,,,"02,1,+00300,1,09,1","01,1,+03000,1,03,1",,"08,99,1,02,1,03,1,00450,1,03,1,08,1",,"01,9",,,,"99999,9,08202,1","6,1,024,1,-010,1",,"SYN112AAXX  12211 76373 32488 80903 10268 20162 38202 40086 56024 82338 92050 333 30/// 56222 59010 82910 81360 86270;",
"76373099999","2006-09-13T00:00:00","4","25.35","-105.75","1967.0","TEPEHUANES DGO., MX","FM-12","99999","V020","050,1,N,0010,1","03000,1,C,N","070000,1,N,1","+0242,1","+0157,1","10058,1","24,0000,9,1",,,,,"04,1,+00300,1,09,1","02,1,+03000,1,03,1",,"08,99,1,04,1,03,1,00450,1,02,1,02,1",,"01,9",,"120,M,+0292,1","180,N,+0121,1","99999,9,08196,1","7,1,006,1,+009,1",,"SYN136AAXX  13001 76373 32488 80501 10242 20157 38196 40058 57006 84322 92345 333 10292 20121 30/// 50450 56222 58009 70000 84910 82360 83070;",
"76373099999","2006-09-13T12:00:00","4","25.35","-105.75","1967.0","TEPEHUANES DGO., MX","FM-12","99999","V020","999,9,C,0000,1","09000,1,C,N","000300,1,N,1","+0146,1","+0139,1","10113,1","24,0000,9,1",,,,,"01,1,+00300,1,08,1",,,"05,99,1,01,1,01,1,00450,1,00,1,09,1",,"01,9","999,+0125,1","120,N,+0140,1","240,M,+0292,1","99999,9,08211,1","9,9,999,9,-009,1",,"SYN124AAXX  13121 76373 32403 50000 10146 20139 38211 40113 5//// 81109 91150 333 10292 20140 30125 56202 59009 70000 81810 84170;",
"76373099999","2006-09-13T15:00:00","4","25.35","-105.75","1967.0","TEPEHUANES DGO., MX","FM-12","99999","V020","999,9,C,0000,1","22000,1,9,N","070000,1,N,1","+0182,1","+0154,1","10127,1",,,,,,"02,1,+00300,1,03,1",,,"03,99,1,02,1,03,1,00450,1,03,1,00,1",,"01,9",,,,"99999,9,08217,1","1,1,006,1,-014,1",,"SYN106AAXX  13151 76373 32488 30000 10182 20154 38217 40127 51006 82330 91450 333 30/// 56220 59014 82310 81360;",
"76373099999","2006-09-13T18:00:00","4","25.35","-105.75","1967.0","TEPEHUANES DGO., MX","FM-12","99999","V020","120,1,N,0030,1","22000,1,9,N","070000,1,N,1","+0250,1","+0161,1","10111,1",,,,,,"02,1,+00300,1,03,1",,,"03,99,1,03,1,03,1,00450,1,00,1,00,1",,"01,9",,"120,M,+0270,1","240,N,+0136,1","99999,9,08214,1","7,1,003,1,-012,1",,"SYN118AAXX  13181 76373 32488 31203 10250 20161 38214 40111 57003 83300 91746 333 10270 20136 30/// 56200 59012 82310 81810;",
"76373099999","2006-09-13T21:00:00","4","25.35","-105.75","1967.0","TEPEHUANES DGO., MX","FM-12","99999","V020","130,1,N,0040,1","22000,1,9,N","070000,1,N,1","+0280,1","+0159,1","10058,1",,,,,,"02,1,+00300,1,09,1","01,1,+00300,1,08,1",,"04,99,1,03,1,03,1,00450,1,03,1,00,1",,"01,9",,,,"99999,9,08185,1","6,1,029,1,-007,1",,"SYN112AAXX  13211 76373 32488 41304 10280 20159 38185 40058 56029 83330 92045 333 30/// 56220 59007 82910 81810 81360;",
"76373099999","2006-09-14T00:00:00","4","25.35","-105.75","1967.0","TEPEHUANES DGO., MX","FM-12","99999","V020","120,1,N,0040,1","03000,1,C,N","070000,1,N,1","+0236,1","+0140,1","10025,1","24,0000,9,1",,,,,"03,1,+00300,1,09,1","03,1,+03000,1,03,1",,"08,99,1,03,1,03,1,00450,1,03,1,02,1",,"01,9",,"120,M,+0310,1","180,N,+0136,1","99999,9,08175,1","7,1,010,1,-021,1",,"SYN136AAXX  14001 76373 32488 81204 10236 20140 38175 40025 57010 83332 92354 333 10310 20136 30/// 50520 56222 59021 70000 83910 83360 82070;",
"76373099999","2006-09-14T12:00:00","4","25.35","-105.75","1967.0","TEPEHUANES DGO., MX","FM-12","99999","V020","999,9,C,0000,1","22000,1,9,N","000300,1,N,1","+0142,1","+0137,1","10074,1","24,0000,9,1",,,,,"00,1,+99999,9,99,9",,,"00,99,1,00,1,00,1,99999,9,00,1,00,1",,"01,9","999,+0120,1","120,N,+0140,1","240,M,+0310,1","99999,9,08184,1","9,9,999,9,-027,1",,"SYN100AAXX  14121 76373 32903 00000 10142 20137 38184 40074 5//// 91150 333 10310 20140 30120 59027 70000;","Q01  00002PRCP24"
"76373099999","2006-09-14T15:00:00","4","25.35","-105.75","1967.0","TEPEHUANES DGO., MX","FM-12","99999","V020","999,9,C,0000,1","22000,1,9,N","070000,1,N,1","+0180,1","+0150,1","10095,1",,,,,,"00,1,+99999,9,99,9",,,"00,99,1,00,1,00,1,99999,9,00,1,00,1",,"01,9",,,,"99999,9,08194,1","2,1,010,1,-023,1",,"SYN082AAXX  14151 76373 32988 00000 10180 20150 38194 40095 52010 91450 333 30/// 59023;",
"76373099999","2006-09-14T18:00:00","4","25.35","-105.75","1967.0","TEPEHUANES DGO., MX","FM-12","99999","V020","120,1,N,0030,1","22000,1,9,N","070000,1,N,1","+0260,1","+0169,1","10079,1",,,,,,"02,1,+00300,1,09,1",,,"02,99,1,02,1,03,1,00450,1,00,1,00,1",,"01,9",,"120,M,+0278,1","240,N,+0136,1","99999,9,08189,1","7,1,005,1,-025,1",,"SYN112AAXX  14181 76373 32488 21203 10260 20169 38189 40079 57005 82300 91740 333 10278 20136 30/// 56200 59025 82910;",
"76373099999","2006-09-14T21:00:00","4","25.35","-105.75","1967.0","TEPEHUANES DGO., MX","FM-12","99999","V020","100,1,N,0030,1","03600,1,C,N","070000,1,N,1","+0288,1","+0159,1","10032,1",,,,,,"03,1,+00300,1,09,1",,,"05,99,1,03,1,03,1,00450,1,03,1,00,1",,"01,9",,,,"99999,9,08166,1","7,1,023,1,-019,1",,"SYN106AAXX  14211 76373 32488 51003 10288 20159 38166 40032 57023 83330 92050 333 30/// 56220 59019 83910 82360;",
"76373099999","2006-09-15T00:00:00","4","25.35","-105.75","1967.0","TEPEHUANES DGO., MX","FM-12","99999","V020","240,1,N,0020,1","03600,1,9,N","070000,1,N,1","+0228,1","+0161,1","10014,1","24,0000,9,1",,,,,"02,1,+00300,1,09,1",,,"08,99,1,02,1,03,1,00450,1,07,1,00,1",,"01,9",,"120,M,+0308,1","180,N,+0136,1","99999,9,08166,1","4,1,000,1,-009,1",,"SYN130AAXX  15001 76373 32488 82402 10228 20161 38166 40014 54000 82370 92350 333 10308 20136 30/// 50450 56220 59009 70000 82910 88360;",
"76373099999","2006-09-15T12:00:00","4","25.35","-105.75","1967.0","TEPEHUANES DGO., MX","FM-12","99999","V020","210,1,N,0010,1","01800,1,9,N","000200,1,N,1","+0148,1","+0142,1","10081,1","24,0000,9,1",,,,,"08,1,+01800,1,04,1",,,"99,99,9,08,1,00,1,01250,1,02,1,99,9",,"01,9","999,+0125,1","120,N,+0140,1","240,M,+0308,1","99999,9,08187,1","9,9,999,9,-003,1",,"SYN118AAXX  15121 76373 32602 72101 10148 20142 38187 40081 5//// 8802/ 91150 333 10308 20140 30125 5602/ 59003 70000 88456;","Q01+000072SCOTCV"
"76373099999","2006-09-15T15:00:00","4","25.35","-105.75","1967.0","TEPEHUANES DGO., MX","FM-12","99999","V020","999,9,C,0000,1","03600,1,C,N","070000,1,N,1","+0162,1","+0153,1","10104,1",,,,,,"02,1,+00360,1,04,1",,,"08,99,1,02,1,04,1,00450,1,02,1,99,9",,"01,9",,,,"99999,9,08195,1","2,1,008,1,+001,1",,"SYN106AAXX  15151 76373 32488 80000 10162 20153 38195 40104 52008 8242/ 91450 333 30/// 5622/ 58001 82412 86460;",
"76373099999","2006-09-15T18:00:00","4","25.35","-105.75","1967.0","TEPEHUANES DGO., MX","FM-12","99999","V020","300,1,N,0010,1","03600,1,C,N","070000,1,N,1","+0226,1","+0165,1","10099,1",,,,,,"02,1,+00300,1,08,1",,,"08,99,1,02,1,01,1,00450,1,03,1,00,1",,"01,9",,"120,M,+0242,1","240,N,+0140,1","99999,9,08199,1","2,1,004,1,+010,1",,"SYN118AAXX  15181 76373 32488 83001 10226 20165 38199 40099 52004 82130 91743 333 10242 20140 30/// 56220 58010 82810 88360;",
"76373099999","2006-09-15T21:00:00","4","25.35","-105.75","1967.0","TEPEHUANES DGO., MX","FM-12","99999","V020","130,1,N,0030,1","03600,1,C,N","070000,1,N,1","+0264,1","+0164,1","10069,1",,,,,,"02,1,+00300,1,09,1",,,"08,99,1,02,1,03,1,00450,1,07,1,00,1",,"01,9",,,,"99999,9,08174,1","6,1,025,1,+008,1",,"SYN106AAXX  15211 76373 32488 81303 10264 20164 38174 40069 56025 82370 92045 333 30/// 56220 58008 82910 88360;",
"76373099999","2006-09-16T15:00:00","4","25.35","-105.75","1967.0","TEPEHUANES DGO., MX","FM-12","99999","V020","999,9,C,0000,1","00300,1,9,N","010000,1,N,1","+0172,1","+0163,1","10095,1","15,0080,9,1",,,"6,1,03,1","5,1,03,1","08,1,+00300,1,06,1",,,"08,99,1,08,1,07,1,00250,1,99,9,99,9",,"09,9",,,,"99999,9,08196,1","9,9,999,9,+000,1","50,1","SYN112AAXX  16151 76373 21360 80000 10172 20163 38196 40095 5//// 75065 887// 91444 333 31/// 562// 58000 60089 88610;",
"76373099999","2006-09-16T18:00:00","4","25.35","-105.75","1967.0","TEPEHUANES DGO., MX","FM-12","99999","V020","999,9,C,0000,1","99999,9,9,N","050000,1,N,1","+0198,1","+0178,1","10095,1","03,0000,2,1",,,"6,1,06,1","5,1,06,1",,,,"08,99,1,99,9,99,9,00250,1,99,9,99,9",,,,,,"99999,9,08199,1","2,1,003,1,+999,9","50,1","SYN072AAXX  16181 76373 11384 80000 10198 20178 38199 40095 52003 69927 75065;",
"76373099999","2006-09-17T12:00:00","4","25.35","-105.75","1967.0","TEPEHUANES DGO., MX","FM-12","99999","V020","999,9,C,0000,1","00300,1,9,N","000100,1,N,1","+0154,1","+0151,1","10102,1","03,0005,9,1","06,0020,9,1","24,0208,9,1",,,"08,1,+00300,1,07,1",,,"08,99,1,08,1,06,1,00450,1,99,9,99,9",,"01,9","999,+0150,1","120,N,+0150,1","240,M,+0214,1","99999,9,08195,1",,,"SYN130AAXX  17121 76373 02401 80000 10154 20151 38195 40102 5//// 60021 886// 91150 333 10214 20150 30150 569// 58/// 69957 70208 88710;",
"76373099999","2006-09-17T15:00:00","4","25.35","-105.75","1967.0","TEPEHUANES DGO., MX","FM-12","99999","V020","300,1,N,0010,1","00300,1,9,N","015000,1,N,1","+0172,1","+0155,1","10116,1","03,0005,9,1",,,,,"08,1,+00300,1,07,1",,,"08,99,1,08,1,06,1,00450,1,99,9,99,9",,"11,9",,,,"99999,9,08204,1","1,1,009,1,+008,1",,"SYN106AAXX  17151 76373 22465 83001 10172 20155 38204 40116 51009 886// 91450 333 32/// 566// 58008 69957 88710;",
"76373099999","2006-09-17T18:00:00","4","25.35","-105.75","1967.0","TEPEHUANES DGO., MX","FM-12","99999","V020","330,1,N,0010,1","03600,1,C,N","070000,1,N,1","+0228,1","+0168,1","10106,1",,,,,,"02,1,+00300,1,08,1",,,"05,99,1,02,1,02,1,00450,1,03,1,00,1",,"09,9",,"120,M,+0254,1","240,N,+0150,1","99999,9,08203,1","8,1,003,1,+004,1",,"SYN118AAXX  17181 76373 32488 53301 10228 20168 38203 40106 58003 82230 91750 333 10254 20150 31/// 56660 58004 82810 83360;",
"76373099999","2006-09-18T12:00:00","4","25.35","-105.75","1967.0","TEPEHUANES DGO., MX","FM-12","99999","V020","260,1,N,0010,1","22000,1,9,N","001000,1,N,1","+0144,1","+0134,1","10104,1","24,0012,9,1",,,,,"04,1,+03000,1,03,1",,,"04,99,1,04,1,00,1,01250,1,03,1,00,1",,"01,9","999,+0132,1","120,N,+0140,1","240,M,+0296,1","99999,9,08199,1","9,9,999,9,+004,1",,"SYN118AAXX  18121 76373 32610 42601 10144 20134 38199 40104 5//// 84030 91150 333 10296 20140 30132 56060 58004 70012 84360;",
"76373099999","2006-09-18T15:00:00","4","25.35","-105.75","1967.0","TEPEHUANES DGO., MX","FM-12","99999","V020","999,9,C,0000,1","22000,1,9,N","070000,1,N,1","+0170,1","+0145,1","10123,1",,,,,,"01,1,+00300,1,08,1","01,1,+03000,1,03,1",,"04,99,1,01,1,01,1,00450,1,03,1,09,1",,"09,9",,,,"99999,9,08212,1","2,1,013,1,+009,1",,"SYN112AAXX  18151 76373 32488 40000 10170 20145 38212 40123 52013 81139 91450 333 31/// 56666 58009 81810 81360 82170;",
"76373099999","2006-09-18T18:00:00","4","25.35","-105.75","1967.0","TEPEHUANES DGO., MX","FM-12","99999","V020","120,1,N,0020,1","03600,1,C,N","070000,1,N,1","+0242,1","+0161,1","10116,1",,,,,,"02,1,+00300,1,09,1","02,1,+00300,1,08,1",,"07,99,1,03,1,03,1,00450,1,03,1,00,1",,"01,9",,"120,M,+0266,1","240,N,+0134,1","99999,9,08215,1","2,1,003,1,+012,1",,"SYN124AAXX  18181 76373 32488 71202 10242 20161 38215 40116 52003 83330 91744 333 10266 20134 30/// 56220 58012 82910 82810 84360;",
"76373099999","2006-09-18T21:00:00","4","25.35","-105.75","1967.0","TEPEHUANES DGO., MX","FM-12","99999","V020","120,1,N,0040,1","22000,1,9,N","070000,1,N,1","+0268,1","+0152,1","10069,1",,,,,,"02,1,+00300,1,09,1","01,1,+00300,1,08,1",,"04,99,1,03,1,03,1,00450,1,03,1,00,1",,"01,9",,,,"99999,9,08191,1","6,1,024,1,+999,9",,"SYN112AAXX  18211 76373 32488 41204 10268 20152 38191 40069 56024 83330 92045 333 30/// 56220 58/// 82910 81810 81360;",
"76373099999","2006-09-19T00:00:00","4","25.35","-105.75","1967.0","TEPEHUANES DGO., MX","FM-12","99999","V020","140,1,N,0060,1","03600,1,9,N","070000,1,N,1","+0228,1","+0148,1","10046,1","24,0000,9,1",,,,,"02,1,+00300,1,09,1","01,1,+00300,1,08,1","01,1,+03000,1,03,1","05,99,1,03,1,03,1,00450,1,03,1,02,1",,"01,9",,"120,M,+0292,1","180,N,+0134,1","99999,9,08188,1","7,1,003,1,+999,9",,"SYN142AAXX  19001 76373 32488 51406 10228 20148 38188 40046 57003 83332 92345 333 10292 20134 30/// 50520 56222 58/// 70000 82910 81810 81360 81070;",
"76373099999","2006-09-19T12:00:00","4","25.35","-105.75","1967.0","TEPEHUANES DGO., MX","FM-12","99999","V020","270,1,N,0020,1","99999,9,9,N","001000,1,N,1","+0160,1","+0154,1","10123,1","06,0051,9,1",,,"5,1,06,1","2,1,06,1",,,,"07,99,1,99,9,99,9,00450,1,99,9,99,9",,,,,,"99999,9,08220,1",,"50,1","SYN072AAXX  19121 76373 01410 72702 10160 20154 38220 40123 5//// 60051 75052;",
"76373099999","2006-09-19T15:00:00","4","25.35","-105.75","1967.0","TEPEHUANES DGO., MX","FM-12","99999","V020","999,9,C,0000,1","22000,1,9,N","070000,1,N,1","+0192,1","+0159,1","10141,1",,,,,,"01,1,+00300,1,08,1","01,1,+03000,1,03,1",,"03,99,1,01,1,01,1,00450,1,03,1,02,1",,"09,9",,,,"99999,9,08231,1","2,1,011,1,+019,1",,"SYN112AAXX  19151 76373 32488 30000 10192 20159 38231 40141 52011 81132 91450 333 31/// 56222 58019 81810 81360 81070;",
"76373099999","2006-09-19T18:00:00","4","25.35","-105.75","1967.0","TEPEHUANES DGO., MX","FM-12","99999","V020","150,1,N,0030,1","22000,1,9,N","070000,1,N,1","+0250,1","+0170,1","10125,1",,,,,,"02,1,+00300,1,09,1",,,"03,99,1,03,1,03,1,00450,1,00,1,00,1",,"09,9",,"120,M,+0268,1","240,N,+0154,1","99999,9,08229,1","7,1,002,1,+011,1",,"SYN118AAXX  19181 76373 32488 31503 10250 20170 38229 40125 57002 83300 91744 333 10268 20154 31/// 56200 58011 82910 81810;",
"76373099999","2006-09-20T00:00:00","4","25.35","-105.75","1967.0","TEPEHUANES DGO., MX","FM-12","99999","V020","160,1,N,0030,1","03000,1,C,N","070000,1,N,1","+0228,1","+0148,1","10065,1","24,0053,9,1",,,,,"01,1,+00300,1,09,1","01,1,+00300,1,08,1","04,1,+03000,1,03,1","07,99,1,02,1,03,1,00450,1,05,1,02,1",,"01,9",,"120,M,+0287,1","180,N,+0150,1","99999,9,08206,1","7,1,006,1,+018,1",,"SYN142AAXX  20001 76373 32488 71603 10228 20148 38206 40065 57006 82352 92348 333 10287 20150 30/// 50510 56676 58018 70053 81910 81810 84360 81070;",
"76373099999","2006-09-20T12:00:00","4","25.35","-105.75","1967.0","TEPEHUANES DGO., MX","FM-12","99999","V020","999,9,C,0000,1","03000,1,9,N","001000,1,N,1","+0156,1","+0146,1","10128,1","24,0000,9,1",,,,,"06,1,+03000,1,03,1",,,"06,99,1,06,1,00,1,01250,1,03,1,00,1",,"01,9","999,+0125,1","120,N,+0144,1","240,M,+0287,1","99999,9,08219,1","9,9,999,9,-001,1",,"SYN118AAXX  20121 76373 32610 60000 10156 20146 38219 40128 5//// 86030 91150 333 10287 20144 30125 56020 59001 70000 86360;",
"76373099999","2006-09-20T15:00:00","4","25.35","-105.75","1967.0","TEPEHUANES DGO., MX","FM-12","99999","V020","999,9,C,0000,1","03000,1,9,N","070000,1,N,1","+0188,1","+0149,1","10134,1",,,,,,"02,1,+00300,1,08,1","03,1,+03000,1,03,1",,"07,99,1,02,1,01,1,00450,1,03,1,04,1",,"01,9",,,,"99999,9,08228,1","3,1,009,1,-003,1",,"SYN112AAXX  20151 76373 32488 70000 10188 20149 38228 40134 53009 82134 91450 333 30/// 56222 59003 82810 83360 82070;",
"76373099999","2006-09-20T18:00:00","4","25.35","-105.75","1967.0","TEPEHUANES DGO., MX","FM-12","99999","V020","120,1,N,0020,1","03600,1,C,N","070000,1,N,1","+0250,1","+0150,1","10111,1",,,,,,"02,1,+00300,1,09,1","01,1,+03000,1,03,1",,"07,99,1,02,1,03,1,00450,1,03,1,02,1",,"01,9",,"120,M,+0270,1","240,N,+0144,1","99999,9,08219,1","6,1,009,1,-010,1",,"SYN124AAXX  20181 76373 32488 71202 10250 20150 38219 40111 56009 82332 91745 333 10270 20144 30/// 56222 59010 82910 81360 84070;",
"76373099999","2006-09-20T21:00:00","4","25.35","-105.75","1967.0","TEPEHUANES DGO., MX","FM-12","99999","V020","310,1,N,0040,1","00300,1,9,N","070000,1,N,1","+0206,1","+0132,1","10093,1",,,,,,"06,1,+00300,1,09,1",,,"08,99,1,06,1,09,1,00450,1,03,1,00,1",,"01,9",,,,"99999,9,08211,1","7,1,008,1,-001,1",,"SYN106AAXX  20211 76373 32488 83104 10206 20132 38211 40093 57008 86930 92045 333 30/// 56770 59001 86910 82360;",
"76373099999","2006-09-21T00:00:00","4","25.35","-105.75","1967.0","TEPEHUANES DGO., MX","FM-12","99999","V020","999,9,C,0000,1","00300,1,C,N","070000,1,N,1","+0192,1","+0156,1","10076,1","03,0004,9,1","24,0004,9,1",,"5,1,06,1","5,1,06,1","06,1,+00300,1,06,1",,,"08,99,1,06,1,07,1,00450,1,03,1,00,1",,"09,9",,"120,M,+0280,1","180,N,+0144,1","99999,9,08203,1","7,1,008,1,-003,1","50,1","SYN142AAXX  21001 76373 21488 80000 10192 20156 38203 40076 57008 75055 86730 92345 333 10280 20144 31/// 50370 56770 59003 69947 70004 86610 82360;",
"76373099999","2006-09-21T12:00:00","4","25.35","-105.75","1967.0","TEPEHUANES DGO., MX","FM-12","99999","V020","270,1,N,0010,1","22000,1,9,N","000400,1,N,1","+0116,1","+0111,1","10123,1","24,0004,9,1",,,,,"02,1,+06000,1,00,1",,,"02,99,1,00,1,00,1,99999,9,00,1,02,1",,"01,9","999,+0094,1","120,N,+0110,1","240,M,+0280,1","99999,9,08201,1","9,9,999,9,-018,1",,"SYN118AAXX  21121 76373 32904 22701 10116 20111 38201 40123 5//// 80002 91150 333 10280 20110 30094 56009 59018 70004 82070;",
"76373099999","2006-09-21T15:00:00","4","25.35","-105.75","1967.0","TEPEHUANES DGO., MX","FM-12","99999","V020","999,9,C,0000,1","06000,1,9,N","070000,1,N,1","+0160,1","+0142,1","10132,1",,,,,,"06,1,+06000,1,02,1",,,"06,99,1,00,1,00,1,99999,9,00,1,08,1",,"01,9",,,,"99999,9,08204,1","3,1,003,1,-024,1",,"SYN100AAXX  21151 76373 32988 60000 10160 20142 38204 40132 53003 80008 91450 333 30/// 56006 59024 86270;",
"76373099999","2006-09-21T18:00:00","4","25.35","-105.75","1967.0","TEPEHUANES DGO., MX","FM-12","99999","V020","180,1,N,0010,1","03600,1,C,N","070000,1,N,1","+0238,1","+0146,1","10104,1",,,,,,"01,1,+00300,1,08,1","01,1,+03000,1,03,1",,"06,99,1,01,1,01,1,00450,1,03,1,02,1",,"01,9",,"120,M,+0254,1","240,N,+0106,1","99999,9,08194,1","8,1,010,1,-025,1",,"SYN124AAXX  21181 76373 32488 61801 10238 20146 38194 40104 58010 81132 91745 333 10254 20106 30/// 56666 59025 81810 81360 84070;",
"76373099999","2006-09-21T21:00:00","4","25.35","-105.75","1967.0","TEPEHUANES DGO., MX","FM-12","99999","V020","300,1,N,0060,1","99999,9,9,N","070000,1,N,1","+0274,1","+0126,1","99999,9",,,,,,"02,1,+00300,1,09,1","01,1,+00300,1,08,1",,"05,99,1,99,9,03,1,00450,1,00,1,02,1",,"01,9",,,,"99999,9,08164,1","6,1,030,1,-047,1",,"SYN112AAXX  21211 76373 32488 53006 10274 20126 38164 40044 56030 88302 92050 333 30/// 56606 59047 82910 81810 82070;","Q01+000082SCOTLC"
"76373099999","2006-09-22T00:00:00","4","25.35","-105.75","1967.0","TEPEHUANES DGO., MX","FM-12","99999","V020","300,1,N,0030,1","03600,1,9,N","070000,1,N,1","+0238,1","+0125,1","10018,1","24,0000,9,1",,,,,"01,1,+00300,1,08,1","02,1,+03000,1,03,1",,"08,99,1,01,1,03,1,00450,1,03,1,08,1",,"01,9",,"120,M,+0297,1","180,N,+0106,1","99999,9,08164,1","4,1,000,1,-039,1",,"SYN136AAXX  22001 76373 32488 83003 10238 20125 38164 40018 54000 81338 92345 333 10297 20106 30/// 50420 56666 59039 70000 81810 82360 85270;",
"76373099999","2006-09-22T15:00:00","4","25.35","-105.75","1967.0","TEPEHUANES DGO., MX","FM-12","99999","V020","999,9,C,0000,1","22000,1,9,N","070000,1,N,1","+0156,1","+0135,1","10104,1",,,,,,"01,1,+00300,1,08,1",,,"01,99,1,01,1,01,1,00450,1,00,1,00,1",,"01,9",,,,"99999,9,08195,1","9,9,999,9,-009,1",,"SYN100AAXX  22151 76373 32488 10000 10156 20135 38195 40104 5//// 81100 91440 333 30/// 56600 59009 81810;",
"76373099999","2006-09-22T18:00:00","4","25.35","-105.75","1967.0","TEPEHUANES DGO., MX","FM-12","99999","V020","999,9,C,0000,1","22000,1,9,N","070000,1,N,1","+0252,1","+0142,1","10083,1",,,,,,"03,1,+00300,1,08,1",,,"03,99,1,03,1,01,1,00450,1,00,1,00,1",,"01,9",,"120,M,+0268,1","240,N,+0110,1","99999,9,08184,1","6,1,011,1,+020,1",,"SYN112AAXX  22181 76373 32488 30000 10252 20142 38184 40083 56011 83100 91745 333 10268 20110 30/// 56600 58020 83810;",
"76373099999","2006-09-22T21:00:00","4","25.35","-105.75","1967.0","TEPEHUANES DGO., MX","FM-12","99999","V020","300,1,N,0050,1","22000,1,9,N","070000,1,N,1","+0256,1","+0111,1","10044,1",,,,,,"04,1,+00300,1,08,1",,,"04,99,1,04,1,02,1,00450,1,00,1,00,1",,"01,9",,,,"99999,9,08168,1","6,1,016,1,+004,1",,"SYN100AAXX  22211 76373 32488 43005 10256 20111 38168 40044 56016 84200 92045 333 30/// 56600 58004 84810;",
"76373099999","2006-09-23T00:00:00","4","25.35","-105.75","1967.0","TEPEHUANES DGO., MX","FM-12","99999","V020","280,1,N,0050,1","22000,1,9,N","070000,1,N,1","+0254,1","+0127,1","10021,1","24,0000,9,1",,,,,"02,1,+00300,1,08,1",,,"03,99,1,02,1,01,1,00450,1,03,1,00,1",,"01,9",,"120,M,+0280,1","180,N,+0110,1","99999,9,08166,1","7,1,002,1,+002,1",,"SYN130AAXX  23001 76373 32488 32805 10254 20127 38166 40021 57002 82130 92345 333 10280 20110 30/// 50430 56660 58002 70000 82810 81360;",
"76373099999","2006-09-23T15:00:00","4","25.35","-105.75","1967.0","TEPEHUANES DGO., MX","FM-12","99999","V020","999,9,C,0000,1","22000,1,9,N","070000,1,N,1","+0164,1","+0129,1","10120,1",,,,,,"01,1,+00300,1,08,1",,,"02,99,1,01,1,01,1,00450,1,00,1,02,1",,"01,9",,,,"99999,9,08212,1","9,9,999,9,+008,1",,"SYN106AAXX  23150 76373 32488 20000 10164 20129 38212 40120 5//// 81102 91448 333 30/// 56606 58008 81810 81070;",
"76373099999","2006-09-23T18:00:00","4","25.35","-105.75","1967.0","TEPEHUANES DGO., MX","FM-12","99999","V020","300,1,N,0030,1","22000,1,9,N","070000,1,N,1","+0232,1","+0108,1","10111,1",,,,,,"01,1,+00300,1,08,1",,,"02,99,1,01,1,01,1,00450,1,00,1,02,1",,"01,9",,"120,M,+0252,1","240,N,+0110,1","99999,9,08206,1","6,1,006,1,+022,1",,"SYN118AAXX  23181 76373 32488 23003 10232 20108 38206 40111 56006 81102 91744 333 10252 20110 30/// 56606 58022 81810 81070;",
"76373099999","2006-09-24T12:00:00","4","25.35","-105.75","1967.0","TEPEHUANES DGO., MX","FM-12","99999","V020","270,1,N,0010,1","22000,1,9,N","000300,1,N,1","+0118,1","+0111,1","10111,1","24,0000,9,1",,,,,,,,"01,99,1,99,9,99,9,99999,9,99,9,99,9",,"01,9","999,+0086,1","120,N,+0112,1","240,M,+0310,1","99999,9,08204,1",,,"SYN100AAXX  24121 76373 32903 12701 10118 20111 38204 40111 5//// 91150 333 10310 20112 30086 58/// 70000;","Q01  00002PRCP24"
"76373099999","2006-09-24T15:00:00","4","25.35","-105.75","1967.0","TEPEHUANES DGO., MX","FM-12","99999","V020","320,1,N,0010,1","22000,1,9,N","070000,1,N,1","+0162,1","+0137,1","10139,1",,,,,,"01,1,+00360,1,08,1",,,"02,99,1,01,1,01,1,00450,1,00,1,02,1",,"01,9",,,,"99999,9,08216,1","2,1,012,1,+004,1",,"SYN106AAXX  24151 76373 32488 23201 10162 20137 38216 40139 52012 81102 91450 333 30/// 56202 58004 81812 81070;",
"76373099999","2006-09-24T18:00:00","4","25.35","-105.75","1967.0","TEPEHUANES DGO., MX","FM-12","99999","V020","070,1,N,0020,1","22000,1,9,N","070000,1,N,1","+0262,1","+0151,1","10127,1",,,,,,"04,1,+00300,1,03,1",,,"04,99,1,04,1,03,1,00450,1,00,1,00,1",,"01,9",,"120,M,+0280,1","240,N,+0105,1","99999,9,08214,1","6,1,002,1,+008,1",,"SYN112AAXX  24181 76373 32488 40702 10262 20151 38214 40127 56002 84300 91750 333 10280 20105 30/// 56200 58008 84310;",
"76373099999","2006-09-25T12:00:00","4","25.35","-105.75","1967.0","TEPEHUANES DGO., MX","FM-12","99999","V020","240,1,N,0010,1","03600,1,C,N","000300,1,N,1","+0154,1","+0144,1","10132,1","24,0000,9,1",,,,,"04,1,+00360,1,06,1",,,"07,99,1,04,1,04,1,00450,1,03,1,00,1",,"01,9","999,+0132,1","120,N,+0150,1","240,M,+0310,1","99999,9,08229,1","9,9,999,9,+025,1",,"SYN124AAXX  25121 76373 32403 72401 10154 20144 38229 40132 5//// 84430 91150 333 10310 20150 30132 56220 58025 70000 84612 83360;",
"76373099999","2006-09-25T15:00:00","4","25.35","-105.75","1967.0","TEPEHUANES DGO., MX","FM-12","99999","V020","999,9,C,0000,1","00360,1,9,N","070000,1,N,1","+0172,1","+0150,1","10155,1",,,,,,"08,1,+00360,1,06,1",,,"08,99,1,08,1,04,1,00450,1,00,1,00,1",,"01,9",,,,"99999,9,08241,1","2,1,012,1,+025,1",,"SYN100AAXX  25151 76373 32488 80000 10172 20150 38241 40155 52012 88400 91450 333 30/// 56200 58025 88612;",
"76373099999","2006-09-25T18:00:00","4","25.35","-105.75","1967.0","TEPEHUANES DGO., MX","FM-12","99999","V020","090,1,N,0030,1","00300,1,9,N","070000,1,N,1","+0224,1","+0150,1","10155,1",,,,,,"06,1,+00300,1,06,1",,,"06,99,1,06,1,06,1,00250,1,00,1,00,1",,"01,9",,"120,M,+0244,1","240,N,+0144,1","99999,9,08247,1","2,1,006,1,+033,1",,"SYN112AAXX  25181 76373 32388 60903 10224 20150 38247 40155 52006 86600 91745 333 10244 20144 30/// 56200 58033 86610;",
"76373099999","2006-09-25T21:00:00","4","25.35","-105.75","1967.0","TEPEHUANES DGO., MX","FM-12","99999","V020","120,1,N,0020,1","09000,1,C,N","070000,1,N,1","+0252,1","+0142,1","10109,1",,,,,,"02,1,+00300,1,09,1","01,1,+00300,1,08,1",,"05,99,1,03,1,03,1,00450,1,00,1,02,1",,"01,9",,,,"99999,9,08222,1","7,1,025,1,+999,9",,"SYN112AAXX  25211 76373 32488 51202 10252 20142 38222 40109 57025 83302 92045 333 30/// 56202 58/// 82910 81810 82070;",
"76373099999","2006-09-26T00:00:00","4","25.35","-105.75","1967.0","TEPEHUANES DGO., MX","FM-12","99999","V020","150,1,N,0030,1","03600,1,9,N","070000,1,N,1","+0218,1","+0129,1","10090,1","24,0000,9,1",,,,,"02,1,+00300,1,08,1","02,1,+03000,1,03,1",,"06,99,1,02,1,02,1,00450,1,03,1,02,1",,"01,9",,"120,M,+0270,1","180,N,+0144,1","99999,9,08217,1","7,1,005,1,+999,9",,"SYN136AAXX  26001 76373 32488 61503 10218 20129 38217 40090 57005 82232 92346 333 10270 20144 30/// 50490 56222 58/// 70000 82810 82360 82070;",
"76373099999","2006-09-26T12:00:00","4","25.35","-105.75","1967.0","TEPEHUANES DGO., MX","FM-12","99999","V020","999,9,C,0000,1","00360,1,9,N","000200,1,N,1","+0132,1","+0125,1","10162,1","24,0000,9,1",,,,,"06,1,+00360,1,06,1",,,"06,99,1,06,1,04,1,99999,9,00,1,00,1",,"01,9","999,+0100,1","120,N,+0124,1","240,M,+0270,1","99999,9,08251,1","9,9,999,9,+022,1",,"SYN118AAXX  26121 76373 32902 60000 10132 20125 38251 40162 5//// 86400 91200 333 10270 20124 30100 56200 58022 70000 86612;",
"76373099999","2006-09-26T15:00:00","4","25.35","-105.75","1967.0","TEPEHUANES DGO., MX","FM-12","99999","V020","330,1,N,0010,1","03600,1,C,N","070000,1,N,1","+0164,1","+0126,1","10179,1",,,,,,"03,1,+00360,1,06,1",,,"05,99,1,03,1,04,1,00450,1,03,1,00,1",,"01,9",,,,"99999,9,08255,1","3,1,004,1,+014,1",,"SYN106AAXX  26151 76373 32488 53301 10164 20126 38255 40179 53004 83430 91445 333 30/// 56220 58014 83612 83360;",
"76373099999","2006-09-26T18:00:00","4","25.35","-105.75","1967.0","TEPEHUANES DGO., MX","FM-12","99999","V020","150,1,N,0020,1","09000,1,C,N","070000,1,N,1","+0246,1","+0128,1","10162,1",,,,,,"04,1,+00300,1,08,1",,,"06,99,1,04,1,02,1,00450,1,00,1,05,1",,"01,9",,"120,M,+0270,1","240,N,+0124,1","99999,9,08252,1","7,1,003,1,+011,1",,"SYN118AAXX  26181 76373 32488 61502 10246 20128 38252 40162 57003 84205 91752 333 10270 20124 30/// 56200 58011 84810 82070;",
"76373099999","2006-09-26T21:00:00","4","25.35","-105.75","1967.0","TEPEHUANES DGO., MX","FM-12","99999","V020","120,1,N,0020,1","06000,1,9,N","070000,1,N,1","+0254,1","+0150,1","10123,1",,,,,,"02,1,+00300,1,08,1","08,1,+06000,1,02,1",,"08,99,1,02,1,02,1,00450,1,00,1,07,1",,"01,9",,,,"99999,9,08232,1","7,1,020,1,+010,1",,"SYN112AAXX  26211 76373 32488 81202 10254 20150 38232 40123 57020 82207 92050 333 30/// 56202 58010 82810 88270 99020;",
"76373099999","2006-09-27T00:00:00","4","25.35","-105.75","1967.0","TEPEHUANES DGO., MX","FM-12","99999","V020","120,1,N,0020,1","03600,1,9,N","070000,1,N,1","+0234,1","+0128,1","10097,1","24,0000,9,1",,,,,"01,1,+00300,1,08,1",,,"08,99,1,01,1,01,1,00450,1,07,1,00,1",,"01,9",,"120,M,+0278,1","180,N,+0124,1","99999,9,08226,1","7,1,006,1,+009,1",,"SYN130AAXX  27001 76373 32488 81202 10234 20128 38226 40097 57006 81170 92345 333 10278 20124 30/// 50290 56220 58009 70000 81810 88360;",
"76373099999","2006-09-27T12:00:00","4","25.35","-105.75","1967.0","TEPEHUANES DGO., MX","FM-12","99999","V020","999,9,C,0000,1","22000,1,9,N","000200,1,N,1","+0118,1","+0111,1","10170,1","24,0000,9,1",,,,,"01,1,+00300,1,08,1",,,"03,99,1,01,1,01,1,00450,1,06,1,00,1",,"01,9","999,+0096,1","120,N,+0112,1","240,M,+0278,1","99999,9,08244,1","9,9,999,9,-007,1",,"SYN124AAXX  27121 76373 32402 30000 10118 20111 38244 40170 5//// 81160 91150 333 10278 20112 30096 56660 59007 70000 81810 82360;",
"76373099999","2006-09-27T15:00:00","4","25.35","-105.75","1967.0","TEPEHUANES DGO., MX","FM-12","99999","V020","999,9,C,0000,1","22000,1,9,N","070000,1,N,1","+0160,1","+0122,1","10191,1",,,,,,"02,1,+00360,1,08,1","01,1,+03000,1,03,1",,"04,99,1,02,1,02,1,00450,1,03,1,02,1",,"01,9",,,,"99999,9,08252,1","2,1,008,1,-003,1",,"SYN112AAXX  27151 76373 32488 40000 10160 20122 38252 40191 52008 82232 91440 333 30/// 56666 59003 82812 81360 81070;",
"76373099999","2006-09-27T18:00:00","4","25.35","-105.75","1967.0","TEPEHUANES DGO., MX","FM-12","99999","V020","060,1,N,0010,1","03600,1,C,N","070000,1,N,1","+0256,1","+0144,1","10167,1",,,,,,"02,1,+00300,1,09,1",,,"05,99,1,02,1,03,1,00450,1,03,1,00,1",,"01,9",,"120,M,+0270,1","240,N,+0110,1","99999,9,08246,1","7,1,006,1,-006,1",,"SYN118AAXX  27181 76373 32488 50601 10256 20144 38246 40167 57006 82330 91744 333 10270 20110 30/// 56220 59006 82910 83360;",
"76373099999","2006-09-27T21:00:00","4","25.35","-105.75","1967.0","TEPEHUANES DGO., MX","FM-12","99999","V020","270,1,N,0010,1","00420,1,C,N","070000,1,N,1","+0266,1","+0138,1","99999,9",,,,,,"04,1,+00300,1,09,1",,,"05,99,1,05,1,03,1,00450,1,00,1,00,1",,"01,9",,,,"99999,9,08218,1","7,1,028,1,-014,1",,"SYN106AAXX  27211 76373 32488 52701 10266 20138 38218 40106 57028 85300 92045 333 30/// 56200 59014 84910 81810;","Q01+101063APOSLP"
"76373099999","2006-09-28T00:00:00","4","25.35","-105.75","1967.0","TEPEHUANES DGO., MX","FM-12","99999","V020","090,1,N,0010,1","09000,1,9,N","070000,1,N,1","+0224,1","+0150,1","10083,1","03,9999,9,9","24,9999,9,9",,,,"01,1,+00300,1,09,1","01,1,+00300,1,08,1","02,1,+03000,1,03,1","05,99,1,02,1,03,1,00450,1,03,1,01,1",,"01,9",,"120,M,+0302,1","180,N,+0110,1","99999,9,08216,1","7,1,002,1,-010,1",,"SYN148AAXX  28001 76373 22488 50901 10224 20150 38216 40083 57002 82331 92345 333 10302 20110 30/// 50450 56222 59010 69907 79999 81910 81810 82360 81070;","Q01  99992PRCP03Q02  99992PRCP24"
"76373099999","2006-09-28T12:00:00","4","25.35","-105.75","1967.0","TEPEHUANES DGO., MX","FM-12","99999","V020","999,9,C,0000,1","22000,1,9,N","000300,1,N,1","+0118,1","+0115,1","10158,1","24,0000,9,1",,,,,"04,1,+06000,1,01,1",,,"04,99,1,00,1,00,1,99999,9,00,1,09,1",,"01,9","999,+0085,1","120,N,+0112,1","240,M,+0302,1","99999,9,08239,1","9,9,999,9,-005,1",,"SYN118AAXX  28121 76373 32903 40000 10118 20115 38239 40158 5//// 80009 91150 333 10302 20112 30085 56009 59005 70000 84170;",
"76373099999","2006-09-28T15:00:00","4","25.35","-105.75","1967.0","TEPEHUANES DGO., MX","FM-12","99999","V020","270,1,N,0020,1","22000,1,9,N","070000,1,N,1","+0166,1","+0132,1","10174,1",,,,,,"01,1,+00360,1,08,1",,,"02,99,1,01,1,02,1,00450,1,04,1,00,1",,"01,9",,,,"99999,9,08246,1","1,1,007,1,-006,1",,"SYN106AAXX  28151 76373 32488 22702 10166 20132 38246 40174 51007 81240 91450 333 30/// 56220 59006 81812 81360;",
"76373099999","2006-09-28T18:00:00","4","25.35","-105.75","1967.0","TEPEHUANES DGO., MX","FM-12","99999","V020","120,1,N,0030,1","22000,1,9,N","070000,1,N,1","+0260,1","+0138,1","10153,1",,,,,,"01,1,+00300,1,09,1",,,"02,99,1,02,1,03,1,00450,1,00,1,00,1",,"01,9",,"120,M,+0280,1","240,N,+0112,1","99999,9,08239,1","7,1,007,1,-007,1",,"SYN118AAXX  28181 76373 32488 21203 10260 20138 38239 40153 57007 82300 91745 333 10280 20112 30/// 56200 59007 81910 81810;",
"76373099999","2006-09-28T21:00:00","4","25.35","-105.75","1967.0","TEPEHUANES DGO., MX","FM-12","99999","V020","120,1,N,0020,1","22000,1,9,N","070000,1,N,1","+0286,1","+0078,1","10095,1",,,,,,"01,1,+00300,1,09,1","01,1,+00300,1,08,1",,"03,99,1,02,1,03,1,00450,1,03,1,00,1",,"01,9",,,,"99999,9,08211,1","6,1,028,1,-007,1",,"SYN112AAXX  28211 76373 32488 31202 10286 20078 38211 40095 56028 82330 92047 333 30/// 56110 59007 81910 81810 81360;",
"76373099999","2006-09-29T00:00:00","4","25.35","-105.75","1967.0","TEPEHUANES DGO., MX","FM-12","99999","V020","070,1,N,0020,1","22000,1,9,N","070000,1,N,1","+0264,1","+0097,1","10060,1","24,0000,9,1",,,,,"01,1,+00300,1,09,1","01,1,+00300,1,08,1","01,1,+03000,1,03,1","04,99,1,02,1,03,1,00450,1,03,1,01,1",,"01,9",,"120,M,+0314,1","180,N,+0112,1","99999,9,08203,1","7,1,008,1,-013,1",,"SYN142AAXX  29001 76373 32488 40702 10264 20097 38203 40060 57008 82331 92348 333 10314 20112 30/// 50470 56111 59013 70000 81910 81810 81360 81070;",
"76373099999","2006-09-29T15:00:00","4","25.35","-105.75","1967.0","TEPEHUANES DGO., MX","FM-12","99999","V020","070,1,N,0010,1","03000,1,9,N","070000,1,N,1","+0134,1","+0115,1","10177,1",,,,,,"08,1,+03000,1,03,1",,,"08,99,1,08,1,00,1,01250,1,02,1,00,1",,"01,9",,,,"99999,9,08235,1","3,1,010,1,-011,1",,"SYN100AAXX  29151 76373 32688 80701 10134 20115 38235 40177 53010 88020 91450 333 30/// 56060 59011 88360;",
"76373099999","2006-09-29T18:00:00","4","25.35","-105.75","1967.0","TEPEHUANES DGO., MX","FM-12","99999","V020","210,1,N,0010,1","09000,1,C,N","070000,1,N,1","+0218,1","+0119,1","10158,1",,,,,,"02,1,+03000,1,03,1",,,"08,99,1,02,1,00,1,01250,1,03,1,08,1",,"01,9",,"120,M,+0230,1","240,N,+0104,1","99999,9,08228,1","6,1,007,1,-011,1",,"SYN118AAXX  29181 76373 32688 82101 10218 20119 38228 40158 56007 82038 91748 333 10230 20104 30/// 56066 59011 82360 86270;",
"76373099999","2006-09-29T21:00:00","4","25.35","-105.75","1967.0","TEPEHUANES DGO., MX","FM-12","99999","V020","120,1,N,0030,1","03000,1,9,N","070000,1,N,1","+0256,1","+0086,1","99999,9",,,,,,"02,1,+00300,1,09,1","04,1,+03000,1,03,1",,"08,99,1,02,1,03,1,00450,1,03,1,02,1",,"01,9",,,,"99999,9,08201,1","6,1,027,1,-010,1",,"SYN112AAXX  29211 76373 32488 81203 10256 20086 38201 40097 56027 82332 92045 333 30/// 56666 59010 82910 84360 82070;","Q01+100973APOSLP"
"76373099999","2006-09-30T00:00:00","4","25.35","-105.75","1967.0","TEPEHUANES DGO., MX","FM-12","99999","V020","270,1,N,0050,1","03600,1,9,N","070000,1,N,1","+0220,1","+0103,1","10072,1","24,0000,9,1",,,,,"02,1,+00300,1,08,1",,,"08,99,1,02,1,02,1,00450,1,07,1,00,1",,"01,9",,"120,M,+0298,1","180,N,+0104,1","99999,9,08196,1","7,1,005,1,-007,1",,"SYN130AAXX  30001 76373 32488 82705 10220 20103 38196 40072 57005 82270 92348 333 10298 20104 30/// 50350 56660 59007 70000 82810 87360;",
"76373099999","2006-09-30T15:00:00","4","25.35","-105.75","1967.0","TEPEHUANES DGO., MX","FM-12","99999","V020","999,9,C,0000,1","03000,1,9,N","070000,1,N,1","+0164,1","+0135,1","10139,1",,,,,,"05,1,+03000,1,05,1",,,"07,99,1,07,1,00,1,01250,1,02,1,00,1",,"01,9",,,,"99999,9,08229,1","9,9,999,9,-006,1",,"SYN106AAXX  30151 76373 32688 70000 10164 20135 38229 40139 5//// 87020 91450 333 30/// 56060 59006 85560 82360;",
"76373099999","2006-09-30T18:00:00","4","25.35","-105.75","1967.0","TEPEHUANES DGO., MX","FM-12","99999","V020","320,1,N,0020,1","03600,1,C,N","070000,1,N,1","+0214,1","+0124,1","10141,1",,,,,,"03,1,+00300,1,09,1",,,"07,99,1,03,1,03,1,00450,1,03,1,00,1",,"01,9",,"120,M,+0232,1","240,N,+0142,1","99999,9,08230,1","0,1,001,1,+002,1",,"SYN118AAXX  30181 76373 32488 73202 10214 20124 38230 40141 50001 83330 91750 333 10232 20142 30/// 56660 58002 83910 84360;",
"76373099999","2006-10-01T12:00:00","4","25.35","-105.75","1967.0","TEPEHUANES DGO., MX","FM-12","99999","V020","999,9,C,0000,1","22000,1,9,N","000300,1,N,1","+0106,1","+0103,1","10148,1","24,0000,9,1",,,,,"01,1,+00300,1,08,1",,,"03,99,1,01,1,01,1,00450,1,03,1,00,1",,"01,9","999,+0076,1","120,N,+0098,1","240,M,+0242,1","99999,9,08227,1",,,"SYN124AAXX  01121 76373 32403 30000 10106 20103 38227 40148 5//// 81130 91150 333 10242 20098 30076 56660 58/// 79999 81810 82360;","Q01  00002PRCP24"
"76373099999","2006-10-01T15:00:00","4","25.35","-105.75","1967.0","TEPEHUANES DGO., MX","FM-12","99999","V020","999,9,C,0000,1","22000,1,9,N","070000,1,N,1","+0146,1","+0115,1","10181,1",,,,,,"03,1,+03000,1,03,1",,,"03,99,1,03,1,00,1,01250,1,03,1,00,1",,"01,9",,,,"99999,9,08240,1","2,1,013,1,+011,1",,"SYN100AAXX  01151 76373 32688 30000 10146 20115 38240 40181 52013 83030 91450 333 30/// 56060 58011 83360;",
"76373099999","2006-10-02T12:00:00","4","25.35","-105.75","1967.0","TEPEHUANES DGO., MX","FM-12","99999","V020","999,9,C,0000,1","22000,1,9,N","000300,1,N,1","+0100,1","+0096,1","10179,1","24,0038,9,1",,,,,"01,1,+00300,1,08,1",,,"03,99,1,01,1,01,1,00450,1,04,1,00,1",,"01,9","999,+0070,1","120,N,+0088,1","240,M,+0294,1","99999,9,08234,1","9,9,999,9,+007,1",,"SYN124AAXX  02121 76373 32403 30000 10100 20096 38234 40179 5//// 81140 91150 333 10294 20088 30070 56660 58007 70038 81810 82360;",
"76373099999","2006-10-02T15:00:00","4","25.35","-105.75","1967.0","TEPEHUANES DGO., MX","FM-12","99999","V020","999,9,C,0000,1","22000,1,9,N","070000,1,N,1","+0134,1","+0115,1","10198,1",,,,,,"00,1,+99999,9,99,9",,,"00,99,1,00,1,00,1,99999,9,00,1,00,1",,"09,9",,,,"99999,9,08243,1","2,1,009,1,+003,1",,"SYN082AAXX  02151 76373 32988 00000 10134 20115 38243 40198 52009 91450 333 31/// 58003;",
"76373099999","2006-10-02T18:00:00","4","25.35","-105.75","1967.0","TEPEHUANES DGO., MX","FM-12","99999","V020","090,1,N,0030,1","22000,1,9,N","070000,1,N,1","+0226,1","+0136,1","10181,1",,,,,,"02,1,+00300,1,09,1",,,"03,99,1,03,1,03,1,00450,1,00,1,00,1",,"01,9",,"120,M,+0246,1","240,N,+0086,1","99999,9,08242,1","7,1,001,1,+999,9",,"SYN118AAXX  02181 76373 32488 30903 10226 20136 38242 40181 57001 83300 91751 333 10246 20086 30/// 56200 58/// 82910 81810;",
"76373099999","2006-10-02T21:00:00","4","25.35","-105.75","1967.0","TEPEHUANES DGO., MX","FM-12","99999","V020","120,1,N,0050,1","99999,9,9,N","070000,1,N,1","+0268,1","+0130,1","99999,9",,,,,,"04,1,+00300,1,09,1",,,"05,99,1,04,1,03,1,00450,1,00,1,00,1",,"01,9",,,,"99999,9,08215,1","6,1,027,1,+999,9",,"SYN106AAXX  02211 76373 32488 51205 10268 20130 38215 40118 56027 84300 92048 333 30/// 56200 58/// 84910 81810;","Q01+101183APOSLP"
"76373099999","2006-10-03T12:00:00","4","25.35","-105.75","1967.0","TEPEHUANES DGO., MX","FM-12","99999","V020","300,1,N,0010,1","22000,1,9,N","000400,1,N,1","+0096,1","+0092,1","10172,1","24,0015,9,1",,,,,"00,1,+99999,9,99,9",,,"00,99,1,00,1,00,1,99999,9,00,1,00,1",,"01,9","999,+0072,1","120,N,+0092,1","240,M,+0284,1","99999,9,08237,1","9,9,999,9,+003,1",,"SYN100AAXX  03121 76373 32904 03001 10096 20092 38237 40172 5//// 91150 333 10284 20092 30072 58003 70015;",
"76373099999","2006-10-03T15:00:00","4","25.35","-105.75","1967.0","TEPEHUANES DGO., MX","FM-12","99999","V020","320,1,N,0010,1","22000,1,9,N","070000,1,N,1","+0140,1","+0111,1","10191,1",,,,,,"00,1,+99999,9,99,9",,,"00,99,1,00,1,00,1,99999,9,00,1,00,1",,"01,9",,,,"99999,9,08244,1","1,1,007,1,+001,1",,"SYN082AAXX  03151 76373 32988 03201 10140 20111 38244 40191 51007 91445 333 30/// 58001;",
"76373099999","2006-10-03T18:00:00","4","25.35","-105.75","1967.0","TEPEHUANES DGO., MX","FM-12","99999","V020","120,1,N,0010,1","22000,1,9,N","070000,1,N,1","+0234,1","+0138,1","10174,1",,,,,,"01,1,+00300,1,09,1",,,"02,99,1,02,1,03,1,00450,1,00,1,00,1",,"01,9",,"120,M,+0254,1","240,N,+0088,1","99999,9,08242,1","7,1,002,1,+999,9",,"SYN118AAXX  03181 76373 32488 21201 10234 20138 38242 40174 57002 82300 91750 333 10254 20088 30/// 56200 58/// 81910 81810;",
"76373099999","2006-10-03T21:00:00","4","25.35","-105.75","1967.0","TEPEHUANES DGO., MX","FM-12","99999","V020","060,1,N,0020,1","22000,1,9,N","070000,1,N,1","+0272,1","+0118,1","10111,1",,,,,,"02,1,+00300,1,09,1",,,"04,99,1,04,1,03,1,00450,1,00,1,00,1",,"01,9",,,,"99999,9,08214,1","6,1,028,1,-001,1",,"SYN106AAXX  03211 76373 32488 40602 10272 20118 38214 40111 56028 84300 92045 333 30/// 56200 59001 82910 82810;",
"76373099999","2006-10-04T00:00:00","4","25.35","-105.75","1967.0","TEPEHUANES DGO., MX","FM-12","99999","V020","270,1,N,0020,1","22000,1,9,N","070000,1,N,1","+0224,1","+0119,1","10081,1","24,0000,9,1",,,,,"01,1,+00300,1,09,1","02,1,+00300,1,08,1",,"04,99,1,03,1,02,1,00450,1,03,1,00,1",,"01,9",,"120,M,+0300,1","180,N,+0088,1","99999,9,08208,1","7,1,006,1,-004,1",,"SYN136AAXX  04001 76373 32488 42702 10224 20119 38208 40081 57006 83230 92351 333 10300 20088 30/// 50420 56110 59004 70000 81910 82810 81360;",
"76373099999","2006-10-04T12:00:00","4","25.35","-105.75","1967.0","TEPEHUANES DGO., MX","FM-12","99999","V020","999,9,C,0000,1","22000,1,9,N","000200,1,N,1","+0098,1","+9999,9","10160,1","24,0000,9,5",,,,,"00,1,+99999,9,99,9",,,"00,99,1,00,1,00,1,99999,9,00,1,00,1",,"01,9","999,+0065,1","120,N,+0092,1",,"99999,9,08229,1","9,9,999,9,-006,1",,"SYN100AAXX  04121 76373 32902 00000 10098 20118 38229 40160 5/// 91150 333 1 0300 20092 30065 59006 70000;",
"76373099999","2006-10-04T15:00:00","4","25.35","-105.75","1967.0","TEPEHUANES DGO., MX","FM-12","99999","V020","280,1,N,0010,1","22000,1,9,N","070000,1,N,1","+0142,1","+0119,1","10184,1",,,,,,"00,1,+99999,9,99,9",,,"00,99,1,00,1,00,1,99999,9,00,1,00,1",,"01,9",,,,"99999,9,08237,1","2,1,008,1,-007,1",,"SYN082AAXX  04151 76373 32988 02801 10142 20119 38237 40184 52008 91448 333 30/// 59007;",
"76373099999","2006-10-04T18:00:00","4","25.35","-105.75","1967.0","TEPEHUANES DGO., MX","FM-12","99999","V020","090,1,N,0020,1","22000,1,9,N","070000,1,N,1","+0246,1","+0139,1","10162,1",,,,,,"01,1,+00300,1,09,1",,,"03,99,1,03,1,02,1,00450,1,00,1,00,1",,"01,9",,"120,M,+0264,1","240,N,+0084,1","99999,9,08232,1","7,1,005,1,-010,1",,"SYN118AAXX  04181 76373 32488 30902 10246 20139 38232 40162 57005 83200 91752 333 10264 20084 30/// 56300 59010 81910 82810;",
"76373099999","2006-10-04T21:00:00","4","25.35","-105.75","1967.0","TEPEHUANES DGO., MX","FM-12","99999","V020","030,1,N,0030,1","22000,1,9,N","070000,1,N,1","+0272,1","+0097,1","10106,1",,,,,,"01,1,+00300,1,09,1",,,"04,99,1,04,1,02,1,00450,1,00,1,00,1",,"01,9",,,,"99999,9,08210,1","6,1,022,1,-004,1",,"SYN106AAXX  04211 76373 32488 40303 10272 20097 38210 40106 56022 84200 92050 333 30/// 56300 59004 81910 83810;",
"76373099999","2006-10-05T00:00:00","4","25.35","-105.75","1967.0","TEPEHUANES DGO., MX","FM-12","99999","V020","070,1,N,0020,1","22000,1,9,N","070000,1,N,1","+0234,1","+0110,1","10069,1","24,0000,9,1",,,,,"01,1,+00300,1,09,1","01,1,+00300,1,08,1",,"04,99,1,02,1,03,1,00450,1,03,1,00,1",,"01,9",,"120,M,+0300,1","180,N,+0084,1","99999,9,08208,1","7,1,002,1,+000,1",,"SYN136AAXX  05001 76373 32488 40702 10234 20110 38208 40069 57002 82330 92350 333 10300 20084 30/// 50300 56330 58000 70000 81910 81810 82360;",
"76373099999","2006-10-05T12:00:00","4","25.35","-105.75","1967.0","TEPEHUANES DGO., MX","FM-12","99999","V020","260,1,N,0010,1","22000,1,9,N","000200,1,N,1","+0110,1","+0099,1","10139,1","24,0000,9,1",,,,,"00,1,+99999,9,99,9",,,"00,99,1,00,1,00,1,99999,9,00,1,00,1",,"01,9","999,+0070,1","120,N,+0104,1","240,M,+0300,1","99999,9,08229,1","9,9,999,9,+000,1",,"SYN100AAXX  05121 76373 32902 02601 10110 20099 38229 40139 5//// 91150 333 10300 20104 30070 58000 70000;","Q01  00002PRCP24"
"76373099999","2006-10-05T15:00:00","4","25.35","-105.75","1967.0","TEPEHUANES DGO., MX","FM-12","99999","V020","999,9,C,0000,1","22000,1,9,N","070000,1,N,1","+0156,1","+0114,1","10174,1",,,,,,"01,1,+00300,1,08,1",,,"01,99,1,01,1,02,1,00450,1,00,1,00,1",,"01,9",,,,"99999,9,08243,1","2,1,014,1,+006,1",,"SYN100AAXX  05151 76373 32488 10000 10156 20114 38243 40174 52014 81200 91450 333 30/// 56300 58006 81810;",
"76373099999","2006-10-05T18:00:00","4","25.35","-105.75","1967.0","TEPEHUANES DGO., MX","FM-12","99999","V020","150,1,N,0040,1","22000,1,9,N","070000,1,N,1","+0252,1","+0110,1","10167,1",,,,,,"01,1,+00300,1,09,1",,,"03,99,1,03,1,02,1,00450,1,00,1,00,1",,"01,9",,"120,M,+0262,1","240,N,+0092,1","99999,9,08242,1","7,1,001,1,+010,1",,"SYN118AAXX  05181 76373 32488 31504 10252 20110 38242 40167 57001 83200 91745 333 10262 20092 30/// 56200 58010 81910 82810;",
"76373099999","2006-10-05T21:00:00","4","25.35","-105.75","1967.0","TEPEHUANES DGO., MX","FM-12","99999","V020","090,1,N,0030,1","22000,1,9,N","070000,1,N,1","+0250,1","+0103,1","99999,9",,,,,,"02,1,+00300,1,09,1",,,"04,99,1,02,1,06,1,00450,1,00,1,00,1",,"01,9",,,,"99999,9,08217,1","6,1,025,1,+007,1",,"SYN106AAXX  05211 76373 32488 40903 10250 20103 38217 40083 56025 82600 92052 333 30/// 56200 58007 82910 82820;","Q01+100833APOSLP"
"76373099999","2006-10-06T00:00:00","4","25.35","-105.75","1967.0","TEPEHUANES DGO., MX","FM-12","99999","V020","120,1,N,0020,1","22000,1,9,N","070000,1,N,1","+0214,1","+0114,1","10099,1","24,0000,9,1",,,,,"02,1,+00300,1,08,1","01,1,+03000,1,03,1",,"04,99,1,02,1,01,1,00450,1,03,1,01,1",,"01,9",,"120,M,+0280,1","180,N,+0092,1","99999,9,08217,1","4,1,000,1,+009,1",,"SYN136AAXX  06001 76373 32488 41202 10214 20114 38217 40099 54000 82131 92348 333 10280 20092 30/// 50580 56222 58009 70000 82810 81360 81070;",
"76373099999","2006-10-06T12:00:00","4","25.35","-105.75","1967.0","TEPEHUANES DGO., MX","FM-12","99999","V020","999,9,C,0000,1","22000,1,9,N","000400,1,N,1","+0077,1","+0071,1","10191,1","24,0000,9,1",,,,,"02,1,+06000,1,00,1",,,"99,99,9,00,1,00,1,99999,9,00,1,02,1",,"01,9","999,+0045,1","120,N,+0070,1","240,M,+0280,1","99999,9,08244,1","9,9,999,9,+015,1",,"SYN118AAXX  06121 76373 32904 10000 10077 20071 38244 40191 5//// 80002 91150 333 10280 20070 30045 56009 58015 70000 82070;","Q01+000012SCOTCV"
"76373099999","2006-10-06T15:00:00","4","25.35","-105.75","1967.0","TEPEHUANES DGO., MX","FM-12","99999","V020","999,9,C,0000,1","22000,1,9,N","070000,1,N,1","+0128,1","+0112,1","99999,9",,,,,,"00,1,+99999,9,99,9",,,"00,99,1,00,1,00,1,99999,9,00,1,00,1",,"01,9",,,,"99999,9,08250,1","3,1,006,1,+007,1",,"SYN082AAXX  06151 76373 32988 00000 10128 20112 38250 40112 53006 91450 333 30/// 58007;","Q01+101123APOSLP"
"76373099999","2006-10-06T18:00:00","4","25.35","-105.75","1967.0","TEPEHUANES DGO., MX","FM-12","99999","V020","150,1,N,0040,1","22000,1,9,N","070000,1,N,1","+0230,1","+0100,1","10186,1",,,,,,"02,1,+00300,1,08,1",,,"02,99,1,02,1,01,1,00450,1,00,1,00,1",,"01,9",,"120,M,+0246,1","240,N,+0064,1","99999,9,08244,1","6,1,006,1,+002,1",,"SYN112AAXX  06181 76373 32488 21504 10230 20100 38244 40186 56006 82100 91745 333 10246 20064 30/// 56200 58002 82810;",
"76373099999","2006-10-06T21:00:00","4","25.35","-105.75","1967.0","TEPEHUANES DGO., MX","FM-12","99999","V020","100,1,N,0040,1","03600,1,C,N","070000,1,N,1","+0252,1","+0110,1","99999,9",,,,,,"02,1,+00300,1,09,1","01,1,+00300,1,08,1",,"05,99,1,03,1,03,1,00450,1,03,1,00,1",,"01,9",,,,"99999,9,08216,1","6,1,028,1,-001,1",,"SYN112AAXX  06211 76373 32488 51004 10252 20110 38216 40125 56028 83330 92045 333 30/// 56220 59001 82910 81810 82360;","Q01+101253APOSLP"
"76373099999","2006-10-07T00:00:00","4","25.35","-105.75","1967.0","TEPEHUANES DGO., MX","FM-12","99999","V020","090,1,N,0030,1","03600,1,9,N","070000,1,N,1","+0222,1","+0105,1","10090,1","24,0000,9,1",,,,,"02,1,+00300,1,09,1","01,1,+00300,1,08,1",,"05,99,1,03,1,03,1,00450,1,02,1,00,1",,"01,9",,"120,M,+0276,1","180,N,+0064,1","99999,9,08210,1","7,1,006,1,-007,1",,"SYN136AAXX  07001 76373 32488 50903 10222 20105 38210 40090 57006 83320 92352 333 10276 20064 30/// 50450 56110 59007 70000 82910 81810 82360;",
"76373099999","2006-10-07T15:00:00","4","25.35","-105.75","1967.0","TEPEHUANES DGO., MX","FM-12","99999","V020","999,9,C,0000,1","22000,1,9,N","070000,1,N,1","+0130,1","+0118,1","10184,1",,,,,,"01,1,+06000,1,00,1",,,"01,99,1,00,1,00,1,99999,9,00,1,01,1",,"01,9",,,,"99999,9,08234,1","9,9,999,9,-016,1",,"SYN100AAXX  07151 76373 32988 10000 10130 20118 38234 40184 5//// 80001 91445 333 30/// 56002 59016 81070;",
"76373099999","2006-10-07T18:00:00","4","25.35","-105.75","1967.0","TEPEHUANES DGO., MX","FM-12","99999","V020","090,1,N,0020,1","22000,1,9,N","070000,1,N,1","+0236,1","+0115,1","10158,1",,,,,,"02,1,+00300,1,09,1",,,"03,99,1,02,1,03,1,00450,1,03,1,00,1",,"01,9",,"120,M,+0258,1","240,N,+0088,1","99999,9,08228,1","6,1,006,1,-016,1",,"SYN118AAXX  07181 76373 32488 30902 10236 20115 38228 40158 56006 82330 91747 333 10258 20088 30/// 56110 59016 82910 81360;",
"76373099999","2006-10-08T12:00:00","4","25.35","-105.75","1967.0","TEPEHUANES DGO., MX","FM-12","99999","V020","999,9,C,0000,1","06000,1,9,N","000400,1,N,1","+0106,1","+0103,1","10151,1","24,0000,9,1",,,,,"06,1,+06000,1,02,1",,,"06,99,1,00,1,00,1,99999,9,00,1,08,1",,"01,9","999,+0068,1","120,N,+0100,1","240,M,+0292,1","99999,9,08224,1","9,9,999,9,-006,1",,"SYN118AAXX  08121 76373 32904 60000 10106 20103 38224 40151 5//// 80008 91150 333 10292 20100 30068 56009 59006 70000 86270;",
"76373099999","2006-10-08T18:00:00","4","25.35","-105.75","1967.0","TEPEHUANES DGO., MX","FM-12","99999","V020","090,1,N,0020,1","22000,1,9,N","070000,1,N,1","+0240,1","+0101,1","10141,1",,,,,,"03,1,+00300,1,09,1",,,"03,99,1,03,1,03,1,00450,1,00,1,00,1",,"01,9",,"120,M,+0262,1","240,N,+0088,1","99999,9,08219,1","7,1,013,1,-009,1",,"SYN112AAXX  08181 76373 32488 30902 10240 20101 38219 40141 57013 83300 91750 333 10262 20088 30/// 56600 59009 83910;",
"76373099999","2006-10-09T12:00:00","4","25.35","-105.75","1967.0","TEPEHUANES DGO., MX","FM-12","99999","V020","999,9,C,0000,1","06000,1,9,N","000400,1,N,1","+0098,1","+0094,1","10146,1","24,0000,9,1",,,,,"08,1,+06000,1,02,1",,,"08,99,1,00,1,00,1,99999,9,00,1,07,1",,"01,9","999,+0070,1","120,N,+0092,1","240,M,+0305,1","99999,9,08214,1","9,9,999,9,-010,1",,"SYN118AAXX  09121 76373 32904 80000 10098 20094 38214 40146 5//// 80007 91150 333 10305 20092 30070 56006 59010 70000 88270;",
"76373099999","2006-10-09T15:00:00","4","25.35","-105.75","1967.0","TEPEHUANES DGO., MX","FM-12","99999","V020","330,1,N,0010,1","09000,1,C,N","070000,1,N,1","+0130,1","+0107,1","10170,1",,,,,,"02,1,+03000,1,03,1",,,"08,99,1,02,1,00,1,01250,1,07,1,08,1",,"01,9",,,,"99999,9,08223,1","2,1,009,1,-009,1",,"SYN106AAXX  09151 76373 32688 83301 10130 20107 38223 40170 52009 82078 91450 333 30/// 56066 59009 82360 86270;",
"76373099999","2006-10-09T18:00:00","4","25.35","-105.75","1967.0","TEPEHUANES DGO., MX","FM-12","99999","V020","090,1,N,0020,1","03600,1,C,N","070000,1,N,1","+0222,1","+0109,1","10153,1",,,,,,"01,1,+00300,1,08,1",,,"08,99,1,01,1,01,1,00450,1,07,1,00,1",,"01,9",,"120,M,+0242,1","240,N,+0090,1","99999,9,08222,1","7,1,001,1,+003,1",,"SYN118AAXX  09181 76373 32488 80902 10222 20109 38222 40153 57001 81170 91746 333 10242 20090 30/// 56220 58003 81810 88360;",
"76373099999","2006-10-09T21:00:00","4","25.35","-105.75","1967.0","TEPEHUANES DGO., MX","FM-12","99999","V020","040,1,N,0030,1","03600,1,C,N","070000,1,N,1","+0240,1","+0098,1","10104,1",,,,,,"02,1,+00300,1,08,1",,,"08,99,1,02,1,01,1,00450,1,07,1,00,1",,"01,9",,,,"99999,9,08200,1","6,1,022,1,+999,9",,"SYN106AAXX  09211 76373 32488 80403 10240 20098 38200 40104 56022 82170 92045 333 30/// 56660 58/// 82810 88360;",
"76373099999","2006-10-10T00:00:00","4","25.35","-105.75","1967.0","TEPEHUANES DGO., MX","FM-12","99999","V020","240,1,N,0020,1","01200,1,9,N","070000,1,N,1","+0232,1","+0094,1","10074,1","24,0000,9,1",,,,,,,,"08,99,1,08,1,00,1,01250,1,06,1,00,1",,"01,9",,"120,M,+0262,1","180,N,+0090,1","99999,9,08195,1","7,1,005,1,+999,9",,"SYN124AAXX  10001 76373 32688 82402 10232 20094 38195 40074 57005 88060 92340 333 10262 20090 30/// 50160 56060 58/// 70000 88460;",
"76373099999","2006-10-10T12:00:00","4","25.35","-105.75","1967.0","TEPEHUANES DGO., MX","FM-12","99999","V020","260,1,N,0010,1","03000,1,9,N","000400,1,N,1","+0116,1","+0099,1","10134,1","24,0000,9,1",,,,,"06,1,+03000,1,03,1",,,"08,99,1,06,1,00,1,01250,1,03,1,09,1",,"01,9","999,+0095,1","120,N,+0110,1","240,M,+0262,1","99999,9,08217,1","9,9,999,9,+003,1",,"SYN124AAXX  10121 76373 32604 82601 10116 20099 38217 40134 5//// 86039 91150 333 10262 20110 30095 56066 58003 70000 86360 82170;",
"76373099999","2006-10-10T15:00:00","4","25.35","-105.75","1967.0","TEPEHUANES DGO., MX","FM-12","99999","V020","270,1,N,0010,1","22000,1,C,N","070000,1,N,1","+9999,9","+9999,9","10158,1",,,,,,"01,1,+03000,1,03,1","04,1,+06000,1,00,1",,"06,99,1,01,1,00,1,01250,1,04,1,04,1",,"01,9",,,,"99999,9,08226,1","2,1,009,1,+003,1",,"SYN106AAXX  10151 76373 32688 62701 20104 38226 40158 52009 81044 91450 333 30/// 56066 58003 81360 84070 81970;",
"76373099999","2006-10-10T18:00:00","4","25.35","-105.75","1967.0","TEPEHUANES DGO., MX","FM-12","99999","V020","210,1,N,0010,1","22000,1,9,N","070000,1,N,1","+0246,1","+0106,1","10130,1",,,,,,"01,1,+00300,1,08,1",,,"03,99,1,01,1,01,1,00450,1,03,1,00,1",,"01,9",,"120,M,+0262,1","240,N,+0108,1","99999,9,08214,1","6,1,012,1,-008,1",,"SYN118AAXX  10181 76373 32488 32101 10246 20106 38214 40130 56012 81130 91745 333 10262 20108 30/// 56660 59008 81810 82360;",
"76373099999","2006-10-11T00:00:00","4","25.35","-105.75","1967.0","TEPEHUANES DGO., MX","FM-12","99999","V020","240,1,N,0030,1","03600,1,9,N","070000,1,N,1","+0254,1","+0119,1","10055,1","24,0000,9,1",,,,,"01,1,+00300,1,09,1","02,1,+00300,1,08,1","01,1,+03000,1,03,1","05,99,1,03,1,02,1,00450,1,03,1,01,1",,"01,9",,"120,M,+0300,1","180,N,+0108,1","99999,9,08188,1","2,1,001,1,-007,1",,"SYN142AAXX  11001 76373 32488 52403 10254 20119 38188 40055 52001 83231 92345 333 10300 20108 30/// 50460 56666 59007 70000 81910 82810 81360 81070;",
"76373099999","2006-10-11T12:00:00","4","25.35","-105.75","1967.0","TEPEHUANES DGO., MX","FM-12","99999","V020","999,9,C,0000,1","22000,1,9,N","000200,1,N,1","+0106,1","+0104,1","10120,1","24,0000,9,1",,,,,"02,1,+06000,1,00,1",,,"02,99,1,00,1,00,1,99999,9,00,1,05,1",,"01,9","999,+0092,1","120,N,+0102,1","240,M,+0300,1","99999,9,08208,1","9,9,999,9,-009,1",,"SYN118AAXX  11121 76373 32902 20000 10106 20104 38208 40120 5//// 80005 91150 333 10300 20102 30092 56006 59009 70000 82070;",
"76373099999","2006-10-11T15:00:00","4","25.35","-105.75","1967.0","TEPEHUANES DGO., MX","FM-12","99999","V020","999,9,C,0000,1","22000,1,9,N","070000,1,N,1","+0158,1","+0116,1","10148,1",,,,,,"01,1,+06000,1,00,1",,,"01,99,1,00,1,00,1,99999,9,00,1,02,1",,"01,9",,,,"99999,9,08217,1","1,1,009,1,-009,1",,"SYN100AAXX  11151 76373 32988 10000 10158 20116 38217 40148 51009 80002 91450 333 30/// 56006 59009 81070;",
"76373099999","2006-10-11T18:00:00","4","25.35","-105.75","1967.0","TEPEHUANES DGO., MX","FM-12","99999","V020","060,1,N,0010,1","22000,1,9,N","070000,1,N,1","+0246,1","+0097,1","10125,1",,,,,,"01,1,+00300,1,08,1",,,"02,99,1,01,1,01,1,00450,1,00,1,01,1",,"01,9",,"120,M,+0300,1","240,N,+0094,1","99999,9,08209,1","7,1,008,1,-005,1",,"SYN118AAXX  11181 76373 32488 20601 10246 20097 38209 40125 57008 81101 91744 333 10300 20094 30/// 58606 59005 81810 81070;",
"76373099999","2006-10-11T21:00:00","4","25.35","-105.75","1967.0","TEPEHUANES DGO., MX","FM-12","99999","V020","020,1,N,0020,1","22000,1,9,N","070000,1,N,1","+0288,1","+0094,1","99999,9",,,,,,"01,1,+00300,1,09,1","02,1,+00300,1,08,1",,"04,99,1,03,1,02,1,00450,1,00,1,02,1",,"01,9",,,,"99999,9,08179,1","6,1,030,1,-008,1",,"SYN112AAXX  11211 76373 32488 40202 10288 20094 38179 40065 56030 83202 92050 333 30/// 56606 59008 81910 82810 81070;","Q01+100653APOSLP"
"76373099999","2006-10-12T00:00:00","4","25.35","-105.75","1967.0","TEPEHUANES DGO., MX","FM-12","99999","V020","120,1,N,0020,1","03000,1,C,N","070000,1,N,1","+0248,1","+0138,1","10032,1","24,0000,9,1",,,,,"04,1,+00300,1,08,1","01,1,+03000,1,03,1",,"06,99,1,04,1,02,1,00450,1,03,1,02,1",,"01,9",,"120,M,+0318,1","180,N,+0094,1","99999,9,08175,1","7,1,004,1,-013,1",,"SYN136AAXX  12001 76373 32488 61202 10248 20138 38175 40032 57004 84232 92348 333 10318 20094 30/// 5//// 56666 59013 70000 84810 81360 81070;",
"76373099999","2006-10-12T15:00:00","4","25.35","-105.75","1967.0","TEPEHUANES DGO., MX","FM-12","99999","V020","330,1,N,0010,1","22000,1,9,N","070000,1,N,1","+0168,1","+0131,1","10118,1",,,,,,"01,1,+03000,1,03,1",,,"02,99,1,01,1,00,1,01250,1,03,1,01,1",,"01,9",,,,"99999,9,08195,1","0,1,004,1,-012,1",,"SYN106AAXX  12151 76373 32688 23301 10168 20131 38195 40118 50004 81031 91450 333 30/// 56056 59012 81360 81070;",
"76373099999","2006-10-12T18:00:00","4","25.35","-105.75","1967.0","TEPEHUANES DGO., MX","FM-12","99999","V020","300,1,N,0010,1","03600,1,C,N","070000,1,N,1","+0266,1","+0152,1","10086,1",,,,,,"02,1,+00300,1,08,1","02,1,+03000,1,03,1",,"06,99,1,02,1,02,1,00450,1,03,1,02,1",,"01,9",,"120,M,+0288,1","240,N,+0120,1","99999,9,08186,1","7,1,009,1,-023,1",,"SYN124AAXX  12181 76373 32488 63001 10266 20152 38186 40086 57009 82232 91748 333 10288 20120 30/// 56666 59023 82810 82360 82070;",
"76373099999","2006-10-12T21:00:00","4","25.35","-105.75","1967.0","TEPEHUANES DGO., MX","FM-12","99999","V020","290,1,N,0020,1","00300,1,9,N","070000,1,N,1","+0272,1","+0146,1","10032,1",,,,,,"05,1,+00300,1,08,1",,,"08,99,1,05,1,02,1,00450,1,03,1,00,1",,"01,9",,,,"99999,9,08163,1","6,1,023,1,-016,1",,"SYN106AAXX  12211 76373 32488 82902 10272 20146 38163 40032 56023 85230 92045 333 30/// 56660 59016 85810 83360;",
"76373099999","2006-10-13T00:00:00","4","25.35","-105.75","1967.0","TEPEHUANES DGO., MX","FM-12","99999","V020","270,1,N,0010,1","00300,1,C,N","070000,1,N,1","+0214,1","+0155,1","10021,1","03,0001,9,1","24,0001,9,1",,"5,1,06,1","5,1,06,1","05,1,+00300,1,08,1",,,"07,99,1,05,1,06,1,00450,1,03,1,00,1",,"01,9",,"120,M,+0320,1","180,N,+0120,1","99999,9,08167,1","2,1,004,1,-008,1","01,1","SYN142AAXX  13001 76373 21488 72701 10214 20155 38167 40021 52004 70155 85630 92359 333 10320 20120 30/// 50441 56660 59008 69917 70001 85810 82360;",
"76373099999","2006-10-13T15:00:00","4","25.35","-105.75","1967.0","TEPEHUANES DGO., MX","FM-12","99999","V020","120,1,N,0010,1","09000,1,C,N","070000,1,N,1","+0156,1","+0125,1","10113,1",,,,,,"01,1,+03000,1,03,1",,,"08,99,1,01,1,00,1,01250,1,03,1,08,1",,"01,9",,,,"99999,9,08193,1","9,9,999,9,-002,1",,"SYN106AAXX  13151 76373 32688 81201 10156 20125 38193 40113 5//// 81038 91448 333 30/// 56066 59002 81360 87270;",
"76373099999","2006-10-13T18:00:00","4","25.35","-105.75","1967.0","TEPEHUANES DGO., MX","FM-12","99999","V020","300,1,N,0020,1","03600,1,C,N","070000,1,N,1","+0254,1","+0155,1","10086,1",,,,,,"01,1,+00300,1,08,1","01,1,+03000,1,03,1",,"08,99,1,01,1,01,1,00450,1,03,1,08,1",,"01,9",,"120,M,+0268,1","240,N,+0110,1","99999,9,08180,1","6,1,013,1,-006,1",,"SYN124AAXX  13181 76373 32488 83002 10254 20155 38180 40086 56013 81138 91747 333 10268 20110 30/// 56666 59006 81810 81360 87270;",
"76373099999","2006-10-13T21:00:00","4","25.35","-105.75","1967.0","TEPEHUANES DGO., MX","FM-12","99999","V020","300,1,N,0010,1","03600,1,C,N","070000,1,N,1","+0292,1","+0143,1","99999,9",,,,,,"01,1,+00300,1,09,1","02,1,+00600,1,08,1","01,1,+03000,1,03,1","07,99,1,03,1,01,1,00450,1,03,1,02,1",,"01,9",,,,"99999,9,08152,1","7,1,028,1,-011,1",,"SYN118AAXX  13211 76373 32488 73001 10292 20143 38152 40023 57028 83132 92048 333 30/// 56666 59011 81910 82820 81360 83070;","Q01+100233APOSLP"
"76373099999","2006-10-14T00:00:00","4","25.35","-105.75","1967.0","TEPEHUANES DGO., MX","FM-12","99999","V020","270,1,N,0040,1","22000,1,9,N","070000,1,N,1","+0278,1","+0136,1","10000,1","24,0000,9,1",,,,,"01,1,+00300,1,09,1","01,1,+03000,1,03,1",,"04,99,1,01,1,03,1,00450,1,03,1,02,1",,"01,9",,"120,M,+0324,1","180,N,+0110,1","99999,9,08155,1","2,1,003,1,-012,1",,"SYN136AAXX  14001 76373 32488 42704 10278 20136 38155 40000 52003 81332 92345 333 10324 20110 30/// 50231 56666 59012 70000 81910 81360 82070;",
"76373099999","2006-10-14T15:00:00","4","25.35","-105.75","1967.0","TEPEHUANES DGO., MX","FM-12","99999","V020","300,1,N,0010,1","00300,1,9,N","070000,1,N,1","+0154,1","+9999,9","10079,1","02,0000,9,1",,,"5,1,03,1","5,1,03,1","08,1,+00300,1,06,1",,,"08,99,1,08,1,07,1,00450,1,99,9,99,9",,"09,9",,,,"99999,9,08192,1","9,9,999,9,-001,1","16,1","SYN112AAXX  14151 76373 11488 83001 10154 20169 38192 40079 5//// 69926 71655 887// 91448 333 31/// 56500 59001 88610;","Q01  00002PRCP02"
"76373099999","2006-10-14T18:00:00","4","25.35","-105.75","1967.0","TEPEHUANES DGO., MX","FM-12","99999","V020","120,1,N,0010,1","00300,1,9,N","070000,1,N,1","+0212,1","+0146,1","10069,1",,,,,,"08,1,+00300,1,06,1",,,"08,99,1,08,1,06,1,00250,1,00,1,00,1",,"01,9",,"120,M,+0222,1","240,N,+0132,1","99999,9,08186,1","6,1,006,1,+006,1",,"SYN112AAXX  14181 76373 32388 81201 10212 20146 38186 40069 56006 88600 91747 333 10222 20132 30/// 56500 58006 88610;",
"76373099999","2006-10-15T12:00:00","4","25.35","-105.75","1967.0","TEPEHUANES DGO., MX","FM-12","99999","V020","999,9,C,0000,1","22000,1,9,N","000200,1,N,1","+0120,1","+0113,1","10046,1","24,0002,9,1",,,,,"04,1,+06000,1,00,1",,,"04,99,1,00,1,00,1,99999,9,00,1,02,1",,"01,9","999,+0085,1","120,N,+0110,1","240,M,+0275,1","99999,9,08144,1",,,"SYN118AAXX  15121 76373 32902 40000 10120 20113 38144 40046 5//// 80002 91150 333 10275 20110 30085 56006 58/// 70002 84070;",
"76373099999","2006-10-15T15:00:00","4","25.35","-105.75","1967.0","TEPEHUANES DGO., MX","FM-12","99999","V020","999,9,C,0000,1","06000,1,9,N","070000,1,N,1","+0138,1","+0128,1","10060,1",,,,,,"08,1,+06000,1,02,1",,,"08,99,1,00,1,00,1,99999,9,00,1,08,1",,"01,9",,,,"99999,9,08148,1","1,1,004,1,-044,1",,"SYN100AAXX  15151 76373 32988 80000 10138 20128 38148 40060 51004 80008 91450 333 30/// 56006 59044 88270;",
"76373099999","2006-10-15T18:00:00","4","25.35","-105.75","1967.0","TEPEHUANES DGO., MX","FM-12","99999","V020","330,1,N,0020,1","22000,1,C,N","070000,1,N,1","+0242,1","+0148,1","10030,1",,,,,,"04,1,+00300,1,08,1",,,"06,99,1,04,1,01,1,00450,1,00,1,01,1",,"01,9",,"120,M,+0259,1","240,N,+0104,1","99999,9,08131,1","7,1,017,1,-055,1",,"SYN118AAXX  15181 76373 32488 63302 10242 20148 38131 40030 57017 84101 91750 333 10259 20104 30/// 56606 59055 84810 82070;",
"76373099999","2006-10-16T12:00:00","4","25.35","-105.75","1967.0","TEPEHUANES DGO., MX","FM-12","99999","V020","999,9,C,0000,1","22000,1,9,N","000400,1,N,1","+0068,1","+0060,1","10051,1","24,0000,9,1",,,,,"01,1,+00360,1,08,1",,,"02,99,1,01,1,01,1,00450,1,03,1,00,1",,"01,9","999,+0028,1","120,N,+0060,1","240,M,+0301,1","99999,9,08133,1","9,9,999,9,-011,1",,"SYN124AAXX  16121 76373 32404 20000 10068 20060 38133 40051 5//// 81130 91150 333 10301 20060 30028 56660 59011 70000 81812 81358;",
"76373099999","2006-10-16T15:00:00","4","25.35","-105.75","1967.0","TEPEHUANES DGO., MX","FM-12","99999","V020","999,9,C,0000,1","22000,1,9,N","070000,1,N,1","+0110,1","+0086,1","10083,1",,,,,,"01,1,+00360,1,08,1",,,"02,99,1,01,1,01,1,00450,1,03,1,00,1",,"01,9",,,,"99999,9,08146,1","2,1,013,1,-002,1",,"SYN106AAXX  16151 76373 32488 20000 10110 20086 38146 40083 52013 81130 91450 333 30/// 56660 59002 81812 81358;",
"76373099999","2006-10-16T18:00:00","4","25.35","-105.75","1967.0","TEPEHUANES DGO., MX","FM-12","99999","V020","280,1,N,0070,1","22000,1,9,N","070000,1,N,1","+0214,1","+0109,1","10072,1",,,,,,"01,1,+06000,1,00,1",,,"01,99,1,00,1,00,1,99999,9,00,1,01,1",,"01,9",,"120,M,+0225,1","240,N,+0051,1","99999,9,08147,1","7,1,001,1,+016,1",,"SYN112AAXX  16181 76373 32988 12807 10214 20109 38147 40072 57001 80001 91747 333 10225 20051 30/// 56006 58016 81070;",
"76373099999","2006-10-16T21:00:00","4","25.35","-105.75","1967.0","TEPEHUANES DGO., MX","FM-12","99999","V020","280,1,N,0060,1","22000,1,9,N","070000,1,N,1","+0244,1","+0083,1","99999,9",,,,,,"01,1,+06000,1,00,1",,,"01,99,1,00,1,00,1,99999,9,00,1,01,1",,"01,9",,,,"99999,9,08129,1","6,1,018,1,+999,9",,"SYN100AAXX  16211 76373 32988 12806 10244 20083 38129 40009 56018 80001 92048 333 30/// 56006 58/// 81070;","Q01+100093APOSLP"
"76373099999","2006-10-17T00:00:00","4","25.35","-105.75","1967.0","TEPEHUANES DGO., MX","FM-12","99999","V020","240,1,N,0040,1","22000,1,9,N","070000,1,N,1","+0228,1","+0056,1","09991,1","24,0000,9,1",,,,,,,,"01,99,1,00,1,00,1,99999,9,00,1,01,1",,"01,9",,"120,M,+0258,1","180,N,+0051,1","99999,9,08137,1","2,1,008,1,+999,9",,"SYN124AAXX  17001 76373 32988 12404 10228 20056 38137 49991 52008 80001 92350 333 10258 20051 30/// 50581 56006 58/// 70000 81070;",
"76373099999","2006-10-17T15:00:00","4","25.35","-105.75","1967.0","TEPEHUANES DGO., MX","FM-12","99999","V020","340,1,N,0010,1","22000,1,9,N","070000,1,N,1","+0086,1","+0060,1","10174,1",,,,,,"01,1,+06000,1,00,1",,,"01,99,1,00,1,00,1,99999,9,00,1,02,1",,"01,9",,,,"99999,9,08195,1","2,1,012,1,+049,1",,"SYN100AAXX  17151 76373 32988 13401 10086 20060 38195 40174 52012 80002 91450 333 30/// 56006 58049 81070;",
"76373099999","2006-10-17T18:00:00","4","25.35","-105.75","1967.0","TEPEHUANES DGO., MX","FM-12","99999","V020","120,1,N,0020,1","22000,1,9,N","070000,1,N,1","+0210,1","+0190,2","10170,1",,,,,,"00,1,+99999,9,99,9",,,"00,99,1,00,1,00,1,99999,9,00,1,00,1",,"01,9",,"120,M,+0218,1","240,N,+0018,1","99999,9,08205,1","2,1,010,1,+058,1",,"SYN094AAXX  17181 76373 32988 01202 10210 20190 38205 40170 52010 91750 333 10218 20018 30/// 58058;",
"76373099999","2006-10-17T21:00:00","4","25.35","-105.75","1967.0","TEPEHUANES DGO., MX","FM-12","99999","V020","240,1,N,0060,1","22000,1,9,N","070000,1,N,1","+0258,1","+0098,1","99999,9",,,,,,"00,1,+99999,9,99,9",,,"00,99,1,00,1,00,1,99999,9,00,1,00,1",,"01,9",,,,"99999,9,08154,1","6,1,051,1,+025,1",,"SYN082AAXX  17211 76373 32988 02406 10258 20098 38154 40069 56051 92048 333 30/// 58025;","Q01+100693APOSLP"
"76373099999","2006-10-18T00:00:00","4","25.35","-105.75","1967.0","TEPEHUANES DGO., MX","FM-12","99999","V020","240,1,N,0050,1","22000,1,9,N","070000,1,N,1","+0222,1","+0094,1","10044,2","24,0000,9,1",,,,,"00,1,+99999,9,99,9",,,"00,99,1,00,1,00,1,99999,9,00,1,00,1",,"01,9",,"120,M,+0272,1","180,N,+0018,1","99999,9,08163,1","2,1,009,1,+026,1",,"SYN106AAXX  18001 76373 32988 02405 10222 20094 38163 40044 52009 92345 333 10272 20018 30/// 50401 58026 70000;","Q01  00002PRCP24"
"76373099999","2006-10-18T12:00:00","4","25.35","-105.75","1967.0","TEPEHUANES DGO., MX","FM-12","99999","V020","999,9,C,0000,1","22000,1,9,N","000400,1,N,1","+0040,1","+0036,1","10155,1","24,0000,9,1",,,,,"00,1,+99999,9,99,9",,,"00,99,1,00,1,00,1,99999,9,00,1,00,1",,"01,9","999,+0000,1","120,N,+0032,1","240,M,+0272,1","99999,9,08200,1","9,9,999,9,+017,1",,"SYN100AAXX  18121 76373 32904 00000 10040 20036 38200 40155 5//// 91150 333 10272 20032 30000 58017 70000;","Q01  00002PRCP24"
"76373099999","2006-10-18T15:00:00","4","25.35","-105.75","1967.0","TEPEHUANES DGO., MX","FM-12","99999","V020","330,1,N,0010,1","22000,1,9,N","070000,1,N,1","+0090,1","+0070,1","10181,1",,,,,,"00,1,+99999,9,99,9",,,"00,99,1,00,1,00,1,99999,9,00,1,00,1",,"01,9",,,,"99999,9,08204,1","3,1,004,1,+011,1",,"SYN082AAXX  18151 76373 32988 03301 10090 20070 38204 40181 53004 91450 333 30/// 58011;",
"76373099999","2006-10-18T18:00:00","4","25.35","-105.75","1967.0","TEPEHUANES DGO., MX","FM-12","99999","V020","270,1,N,0010,1","22000,1,9,N","070000,1,N,1","+0206,1","+0112,1","10151,1",,,,,,"00,1,+99999,9,99,9",,,"00,99,1,00,1,00,1,99999,9,00,1,00,1",,"01,9",,"120,M,+0222,1","240,N,+0022,1","99999,9,08189,1","6,1,015,1,-011,1",,"SYN094AAXX  18181 76373 32988 02701 10206 20112 38189 40151 56015 91748 333 10222 20022 30/// 59011;",
"76373099999","2006-10-18T21:00:00","4","25.35","-105.75","1967.0","TEPEHUANES DGO., MX","FM-12","99999","V020","250,1,N,0060,1","22000,1,9,N","070000,1,N,1","+0272,2","+0069,1","99999,9",,,,,,"00,1,+99999,9,99,9",,,"00,99,1,00,1,00,1,99999,9,00,1,00,1",,"01,9",,,,"99999,9,08164,1","6,1,025,1,+010,1",,"SYN082AAXX  18211 76373 32988 02506 10272 20069 38164 40081 56025 92048 333 30/// 58010;","Q01+100813APOSLP"
"76373099999","2006-10-19T00:00:00","4","25.35","-105.75","1967.0","TEPEHUANES DGO., MX","FM-12","99999","V020","270,1,N,0040,1","22000,1,9,N","070000,1,N,1","+0232,1","+0114,1","10053,1","24,0000,9,1",,,,,"00,1,+99999,9,99,9",,,"00,99,1,00,1,00,1,99999,9,00,1,00,1",,"01,9",,"120,M,+0289,1","180,N,+0022,1","99999,9,08170,1","2,1,006,1,+007,1",,"SYN106AAXX  19001 76373 32988 02704 10232 20114 38170 40053 52006 92347 333 10289 20022 30/// 50381 58007 70000;","Q01  00002PRCP24"
"76373099999","2006-10-19T12:00:00","4","25.35","-105.75","1967.0","TEPEHUANES DGO., MX","FM-12","99999","V020","999,9,C,0000,1","22000,1,9,N","000200,1,N,1","+0052,1","+0048,1","10148,1","24,0000,9,1",,,,,"00,1,+99999,9,99,9",,,"00,99,1,00,1,00,1,99999,9,00,1,00,1",,"01,9","999,+0012,1","120,N,+0044,1","240,M,+0289,1","99999,9,08200,1","9,9,999,9,+000,1",,"SYN100AAXX  19121 76373 32902 00000 10052 20048 38200 40148 5//// 91150 333 10289 20044 30012 58000 70000;","Q01  00002PRCP24"
"76373099999","2006-10-19T15:00:00","4","25.35","-105.75","1967.0","TEPEHUANES DGO., MX","FM-12","99999","V020","999,9,C,0000,1","22000,1,9,N","070000,1,N,1","+0102,1","+0080,1","10184,1",,,,,,"00,1,+99999,9,99,9",,,"00,99,1,00,1,00,1,99999,9,00,1,00,1",,"01,9",,,,"99999,9,08212,1","2,1,012,1,+008,1",,"SYN082AAXX  19151 76373 32988 00000 10102 20080 38212 40184 52012 91450 333 30/// 58008;",
"76373099999","2006-10-19T18:00:00","4","25.35","-105.75","1967.0","TEPEHUANES DGO., MX","FM-12","99999","V020","110,1,N,0020,1","22000,1,9,N","070000,1,N,1","+0216,1","+0120,1","10160,1",,,,,,"00,1,+99999,9,99,9",,,"00,99,1,00,1,00,1,99999,9,00,1,00,1",,"01,9",,"120,M,+0244,1","240,N,+0038,1","99999,9,08207,1","7,1,005,1,+018,1",,"SYN094AAXX  19181 76373 32988 01102 10216 20120 38207 40160 57005 91745 333 10244 20038 30/// 58018;",
"76373099999","2006-10-19T21:00:00","4","25.35","-105.75","1967.0","TEPEHUANES DGO., MX","FM-12","99999","V020","150,1,N,0030,1","22000,1,9,N","070000,1,N,1","+0262,1","+0133,1","99999,9",,,,,,"01,1,+00300,1,08,1",,,"01,99,1,01,1,01,1,00450,1,00,1,00,1",,"01,9",,,,"99999,9,08175,1","6,1,032,1,+011,1",,"SYN100AAXX  19211 76373 32488 11503 10262 20133 38175 40086 56032 81100 92045 333 30/// 56600 58011 81810;","Q01+100863APOSLP"
"76373099999","2006-10-20T00:00:00","4","25.35","-105.75","1967.0","TEPEHUANES DGO., MX","FM-12","99999","V020","120,1,N,0030,1","22000,1,9,N","070000,1,N,1","+0246,1","+0121,1","10039,2","24,0000,9,1",,,,,,,,"01,99,1,01,1,01,1,00450,1,00,1,00,1",,"01,9",,"120,M,+0288,1","180,N,+0038,1","99999,9,08165,1","7,1,010,1,-005,1",,"SYN124AAXX  20001 76373 32488 11203 10246 20121 38165 40039 57010 81100 92346 333 10288 20038 30/// 50351 56600 59005 70000 81810;",
"76373099999","2006-10-20T12:00:00","4","25.35","-105.75","1967.0","TEPEHUANES DGO., MX","FM-12","99999","V020","999,9,C,0000,1","22000,1,9,N","000200,1,N,1","+0064,1","+0062,1","10116,1","24,0000,9,1",,,,,"00,1,+99999,9,99,9",,,"00,99,1,00,1,00,1,99999,9,00,1,00,1",,"01,9","999,+0028,1","120,N,+0058,1","240,M,+0288,1","99999,9,08181,1","9,9,999,9,-019,1",,"SYN100AAXX  20121 76373 32902 00000 10064 20062 38181 40116 5//// 91145 333 10288 20058 30028 59019 70000;","Q01  00002PRCP24"
"76373099999","2006-10-20T15:00:00","4","25.35","-105.75","1967.0","TEPEHUANES DGO., MX","FM-12","99999","V020","320,1,N,0010,1","22000,1,9,N","070000,1,N,1","+0114,1","+0088,1","10148,1",,,,,,"00,1,+99999,9,99,9",,,"00,99,1,00,1,00,1,99999,9,00,1,00,1",,"01,9",,,,"99999,9,08192,1","2,1,011,1,-020,1",,"SYN082AAXX  20151 76373 32988 03201 10114 20088 38192 40148 52011 91450 333 30/// 59020;",
"76373099999","2006-10-20T18:00:00","4","25.35","-105.75","1967.0","TEPEHUANES DGO., MX","FM-12","99999","V020","150,1,N,0010,1","22000,1,9,N","070000,1,N,1","+0234,1","+0147,1","10113,1",,,,,,"02,1,+00300,1,08,1",,,"02,99,1,02,1,01,1,00450,1,00,1,00,1",,"01,9",,"120,M,+0256,1","240,N,+0050,1","99999,9,08176,1","6,1,016,1,-031,1",,"SYN112AAXX  20181 76373 32488 21501 10234 20147 38176 40113 56016 82100 91745 333 10256 20050 30/// 56600 59031 82810;",
"76373099999","2006-10-20T21:00:00","4","25.35","-105.75","1967.0","TEPEHUANES DGO., MX","FM-12","99999","V020","230,1,N,0060,1","22000,1,9,N","070000,1,N,1","+0296,2","+0152,1","99999,9",,,,,,"03,1,+00300,1,08,1",,,"03,99,1,03,1,01,1,00450,1,00,1,00,1",,"01,9",,,,"99999,9,08150,1","7,1,026,1,-025,1",,"SYN100AAXX  20211 76373 32488 32306 10296 20152 38150 40044 57026 83100 92045 333 30/// 56600 59025 83810;","Q01+100443APOSLP"
"76373099999","2006-10-21T00:00:00","4","25.35","-105.75","1967.0","TEPEHUANES DGO., MX","FM-12","99999","V020","270,1,N,0040,1","22000,1,9,N","070000,1,N,1","+0248,1","+0141,1","10023,1","24,0000,9,1",,,,,,,,"02,99,1,02,1,01,1,00450,1,00,1,00,1",,"01,9",,"120,M,+0310,1","180,N,+0050,1","99999,9,08166,1","2,1,016,1,+001,1",,"SYN124AAXX  21001 76373 32488 22704 10248 20141 38166 40023 52016 82100 92348 333 10310 20050 30/// 50371 56600 58001 70000 82810;",
"76373099999","2006-10-21T15:00:00","4","25.35","-105.75","1967.0","TEPEHUANES DGO., MX","FM-12","99999","V020","080,1,N,0010,1","22000,1,9,N","070000,1,N,1","+0146,1","+0120,1","10137,1",,,,,,"01,1,+00360,1,08,1",,,"01,99,1,01,1,01,1,00450,1,00,1,00,1",,"01,9",,,,"99999,9,08196,1","9,9,999,9,+008,1",,"SYN100AAXX  21151 76373 32488 10801 10146 20120 38196 40137 5//// 81100 91450 333 30/// 56600 58008 81812;",
"76373099999","2006-10-21T18:00:00","4","25.35","-105.75","1967.0","TEPEHUANES DGO., MX","FM-12","99999","V020","230,1,N,0010,1","22000,1,9,N","070000,1,N,1","+0250,1","+0166,1","10109,1",,,,,,"04,1,+00360,1,06,1",,,"04,99,1,04,1,04,1,00450,1,00,1,00,1",,"01,9",,"120,M,+0265,1","240,N,+0073,1","99999,9,08187,1","8,1,009,1,+011,1",,"SYN112AAXX  21181 76373 32488 42301 10250 20166 38187 40109 58009 84400 91750 333 10265 20073 30/// 56600 58011 84612;",
"76373099999","2006-10-22T12:00:00","4","25.35","-105.75","1967.0","TEPEHUANES DGO., MX","FM-12","99999","V020","999,9,C,0000,1","22000,1,9,N","000200,1,N,1","+0096,1","+0089,1","10137,1","24,0000,9,1",,,,,"00,1,+99999,9,99,9",,,"00,99,1,00,1,00,1,99999,9,00,1,00,1",,"01,9","999,+0060,1","120,N,+0080,1","240,M,+0302,1","99999,9,08213,1","9,9,999,9,+027,1",,"SYN100AAXX  22121 76373 32902 00000 10096 20089 38213 40137 5//// 91150 333 10302 20080 30060 58027 70000;","Q01  00002PRCP24"
"76373099999","2006-10-22T15:00:00","4","25.35","-105.75","1967.0","TEPEHUANES DGO., MX","FM-12","99999","V020","999,9,C,0000,1","09000,1,C,N","070000,1,N,1","+0116,1","+0099,1","10174,1",,,,,,"02,1,+03000,1,03,1",,,"08,99,1,02,1,00,1,01250,1,03,1,08,1",,"01,9",,,,"99999,9,08228,1","2,1,015,1,+032,1",,"SYN106AAXX  22151 76373 32688 80000 10116 20099 38228 40174 52015 82038 91448 333 30/// 56066 58032 82360 86270;",
"76373099999","2006-10-22T18:00:00","4","25.35","-105.75","1967.0","TEPEHUANES DGO., MX","FM-12","99999","V020","100,1,N,0030,1","22000,1,9,N","070000,1,N,1","+9999,9","+0170,1","10148,1",,,,,,"02,1,+00300,1,03,1","01,1,+03000,1,03,1",,"04,99,1,02,1,03,1,00450,1,04,1,02,1",,"01,9",,"120,M,+0264,1","240,N,+0080,1","99999,9,08216,1","7,1,012,1,+019,1",,"SYN124AAXX  22181 76373 32488 41003 10244 20170 38216 40148 57012 82342 91750 333 10264 20080 30/// 56666 58019 82310 81360 81070;","Q01+002443ATOT  "
"76373099999","2006-10-23T12:00:00","4","25.35","-105.75","1967.0","TEPEHUANES DGO., MX","FM-12","99999","V020","280,1,N,0010,1","01800,1,9,N","000100,1,N,1","+0140,1","+0137,1","10144,1","24,0004,9,1",,,,,"07,1,+01800,1,04,1",,,"07,99,1,07,1,00,1,01250,1,02,1,99,9",,"01,9","999,+0128,1","120,N,+0132,1","240,M,+0299,1","99999,9,08226,1","9,9,999,9,+013,1",,"SYN118AAXX  23121 76373 32601 72801 10140 20137 38226 40144 5//// 8702/ 91150 333 10299 20132 30128 5609/ 58013 70004 87456;",
"76373099999","2006-10-23T15:00:00","4","25.35","-105.75","1967.0","TEPEHUANES DGO., MX","FM-12","99999","V020","330,1,N,0010,1","02400,1,9,N","015000,1,N,1","+0152,1","+0142,1","10167,1",,,,,,"02,1,+00300,1,07,1","04,1,+02400,1,03,1",,"08,99,1,02,1,07,1,00450,1,03,1,01,1",,"01,9",,,,"99999,9,08240,1","2,1,014,1,+012,1",,"SYN112AAXX  23151 76373 32465 83301 10152 20142 38240 40167 52014 82731 91450 333 30/// 56666 58012 82710 84358 82070;",
"76373099999","2006-10-23T18:00:00","4","25.35","-105.75","1967.0","TEPEHUANES DGO., MX","FM-12","99999","V020","080,1,N,0030,1","00300,1,9,N","070000,1,N,1","+0214,1","+0149,1","10148,1",,,,,,"07,1,+00300,1,06,1",,,"07,99,1,07,1,06,1,00250,1,00,1,00,1",,"01,9",,"120,M,+0230,1","240,N,+0130,1","99999,9,08233,1","7,1,007,1,+017,1",,"SYN112AAXX  23181 76373 32388 70803 10214 20149 38233 40148 57007 87600 91746 333 10230 20130 30/// 56200 58017 87610;",
"76373099999","2006-10-23T21:00:00","4","25.35","-105.75","1967.0","TEPEHUANES DGO., MX","FM-12","99999","V020","070,1,N,0020,1","00300,1,9,N","070000,1,N,1","+0220,1","+0148,1","10106,1",,,,,,"08,1,+00300,1,06,1",,,"08,99,1,08,1,06,1,00250,1,00,1,00,1",,"01,9",,,,"99999,9,08210,1","6,1,023,1,+999,9",,"SYN100AAXX  23211 76373 32388 80702 10220 20148 38210 40106 56023 88600 92046 333 30/// 56200 58/// 88610;",
"76373099999","2006-10-24T00:00:00","4","25.35","-105.75","1967.0","TEPEHUANES DGO., MX","FM-12","99999","V020","120,1,N,0030,1","09000,1,9,N","070000,1,N,1","+0212,1","+0150,1","10082,1","24,0003,9,1",,,,,"01,1,+00300,1,08,1","02,1,+03000,1,03,1",,"05,99,1,01,1,01,1,00450,1,03,1,02,1",,"01,9",,"120,M,+0239,1","180,N,+0130,1","99999,9,08198,1","7,1,012,1,+999,9",,"SYN136AAXX  24001 76373 32488 51203 10212 20150 38198 40082 57012 81132 92345 333 10239 20130 30/// 50201 56222 58/// 70003 81810 82360 82070;",
"76373099999","2006-10-24T12:00:00","4","25.35","-105.75","1967.0","TEPEHUANES DGO., MX","FM-12","99999","V020","999,9,C,0000,1","00300,1,9,N","000100,1,N,1","+0134,1","+0134,1","10130,1","24,0000,9,1",,,"4,1,06,1","4,1,06,1","08,1,+00300,1,07,1",,,"08,99,1,08,1,07,1,00450,1,99,9,99,9",,"01,9","999,+0105,1","120,N,+0128,1","240,M,+0239,1","99999,9,08214,1","9,9,999,9,-012,1","10,1","SYN124AAXX  24121 76373 31401 80000 10134 20134 38214 40130 5//// 71044 887// 91150 333 10239 20128 30105 564// 59012 70000 88710;",
"76373099999","2006-10-24T15:00:00","4","25.35","-105.75","1967.0","TEPEHUANES DGO., MX","FM-12","99999","V020","999,9,C,0000,1","03600,1,C,N","001500,1,N,1","+0142,1","+0137,1","10144,1",,,,,,"04,1,+00300,1,07,1",,,"08,99,1,04,1,06,1,00450,1,03,1,00,1",,"01,9",,,,"99999,9,08220,1","3,1,006,1,-020,1",,"SYN106AAXX  24151 76373 32415 80000 10142 20137 38220 40144 53006 84630 91450 333 30/// 56660 59020 84710 84358;",
"76373099999","2006-10-24T18:00:00","4","25.35","-105.75","1967.0","TEPEHUANES DGO., MX","FM-12","99999","V020","100,1,N,0010,1","03600,1,C,N","070000,1,N,1","+0214,1","+0152,1","10123,1",,,,,,"02,1,+00300,1,08,1",,,"08,99,1,02,1,01,1,00450,1,03,1,00,1",,"01,9",,"120,M,+0228,1","240,N,+0125,1","99999,9,08209,1","7,1,011,1,-024,1",,"SYN118AAXX  24181 76373 32488 81001 10214 20152 38209 40123 57011 82130 91748 333 10228 20125 30/// 56660 59024 82810 88360;",
"76373099999","2006-10-24T21:00:00","4","25.35","-105.75","1967.0","TEPEHUANES DGO., MX","FM-12","99999","V020","250,1,N,0030,1","00300,1,9,N","070000,1,N,1","+0236,1","+0157,1","10076,1",,,,,,"06,1,+00300,1,06,1",,,"08,99,1,06,1,06,1,00450,1,03,1,00,1",,"01,9",,,,"99999,9,08185,1","6,1,024,1,-025,1",,"SYN106AAXX  24211 76373 32488 82503 10236 20157 38185 40076 56024 86630 92046 333 30/// 56660 59025 86610 82360;",
"76373099999","2006-10-25T00:00:00","4","25.35","-105.75","1967.0","TEPEHUANES DGO., MX","FM-12","99999","V020","300,1,N,0020,1","00210,1,9,N","030000,1,N,1","+0198,1","+0140,1","10074,1","01,9999,2,9","24,9999,2,9",,"5,1,06,1","5,1,06,1",,,,"08,99,1,08,1,07,1,00250,1,00,1,00,1",,"09,9",,"120,M,+0258,1","180,N,+0125,1","99999,9,08193,1","2,1,008,1,-005,1","50,1","SYN136AAXX  25001 76373 21380 83002 10198 20140 38193 40074 52008 75055 88700 92345 333 10258 20125 31/// 50281 56500 59005 69905 79999 88610;",
"76373099999","2006-10-25T12:00:00","4","25.35","-105.75","1967.0","TEPEHUANES DGO., MX","FM-12","99999","V020","999,9,C,0000,1","99999,9,9,N","000100,1,N,1","+0152,1","+0149,1","10109,1","01,0030,9,1",,,,,,,,"08,99,1,99,9,99,9,01250,1,99,9,99,9",,,,,,"99999,9,08195,1",,"50,1","SYN073AAXX  25121 76373 01601 80000 10152 20149 38195 40109 5//// 60035 750///;",
"76373099999","2006-10-25T15:00:00","4","25.35","-105.75","1967.0","TEPEHUANES DGO., MX","FM-12","99999","V020","310,1,N,0010,1","00300,1,9,N","000400,1,N,1","+0138,1","+0136,1","10125,1","03,0040,9,1",,,"5,1,03,1","2,1,03,1","08,1,+00300,1,07,1",,,"08,99,1,08,1,07,1,00450,1,99,9,99,9",,"11,9",,,,"99999,9,08210,1","2,1,015,1,-010,1","50,1","SYN112AAXX  25151 76373 21404 83101 10138 20136 38210 40125 52015 75052 887// 91450 333 32/// 566// 59010 60047 88710;",
"76373099999","2006-10-25T18:00:00","4","25.35","-105.75","1967.0","TEPEHUANES DGO., MX","FM-12","99999","V020","110,1,N,0020,1","99999,9,9,N","070000,1,N,1","+0150,1","+0144,1","10118,1","03,0041,9,1",,,"6,1,06,1","5,1,06,1",,,,"08,99,1,99,9,99,9,00250,1,99,9,99,9",,,,,,"99999,9,08204,1","7,1,006,1,+999,9","50,1","SYN072AAXX  25181 76373 11388 81102 10150 20144 38204 40118 57006 60047 75065;",
"76373099999","2006-10-25T21:00:00","4","25.35","-105.75","1967.0","TEPEHUANES DGO., MX","FM-12","99999","V020","999,9,C,0000,1","00300,1,9,N","070000,1,N,1","+0166,1","+0132,1","10090,1","03,0020,9,1",,,"7,1,03,1","5,1,03,1","08,1,+00300,1,06,1",,,"08,99,1,08,1,07,1,00250,1,99,9,99,9",,"09,9",,,,"99999,9,08182,1","6,1,022,1,-003,1","50,1","SYN112AAXX  25211 76373 21388 80000 10166 20132 38182 40090 56022 75075 887// 92045 333 31/// 56500 59003 60027 88610;",
"76373099999","2006-10-26T00:00:00","4","25.35","-105.75","1967.0","TEPEHUANES DGO., MX","FM-12","99999","V020","300,1,N,0010,1","01500,1,9,N","070000,1,N,1","+0170,1","+0140,1","10090,1","03,9999,2,9","24,0120,9,1",,"5,1,06,1","5,1,06,1",,,,"08,99,1,08,1,00,1,01750,1,07,1,00,1",,"09,9",,"120,M,+0178,1","180,N,+0140,1","99999,9,08186,1","2,1,004,1,-007,1","01,1","SYN136AAXX  26001 76373 21788 83001 10170 20140 38186 40090 52004 70155 88070 92345 333 10178 20140 31/// 50041 56060 59007 69907 70120 88360;",
"76373099999","2006-10-26T12:00:00","4","25.35","-105.75","1967.0","TEPEHUANES DGO., MX","FM-12","99999","V020","999,9,C,0000,1","01800,1,9,N","000100,1,N,1","+0124,1","+0124,1","10146,1","24,0118,9,1",,,,,"08,1,+01800,1,04,1",,,"08,99,1,08,1,00,1,01250,1,02,1,99,9",,"01,9","999,+0088,1","120,N,+0104,1","240,M,+0178,1","99999,9,08210,1","9,9,999,9,+015,1",,"SYN118AAXX  26121 76373 32601 80000 10124 20124 38210 40146 5//// 8802/ 91150 333 10178 20104 30088 5606/ 58015 70118 88456;",
"76373099999","2006-10-26T15:00:00","4","25.35","-105.75","1967.0","TEPEHUANES DGO., MX","FM-12","99999","V020","160,1,N,0010,1","00420,1,9,N","070000,1,N,1","+0146,1","+0139,1","10165,1",,,,,,,,,"06,99,1,06,1,04,1,00450,1,00,1,00,1",,"09,9",,,,"99999,9,08225,1","2,1,015,1,+015,1",,"SYN101AAXX  26151 76373 32488 61601 10146 20139 38225 40165 52015 864000 91450 333 31/// 56400 58015 86612;",
"76373099999","2006-10-26T18:00:00","4","25.35","-105.75","1967.0","TEPEHUANES DGO., MX","FM-12","99999","V020","310,1,N,0020,1","22000,1,9,N","070000,1,N,1","+0206,1","+0143,1","10151,1",,,,,,"03,1,+00300,1,08,1",,,"03,99,1,03,1,02,1,00450,1,00,1,00,1",,"09,9",,"120,M,+0218,1","240,N,+0104,1","99999,9,08226,1","2,1,001,1,+022,1",,"SYN112AAXX  26181 76373 32488 33102 10206 20143 38226 40151 52001 83200 91748 333 10218 20104 31/// 56600 58022 83810;",
"76373099999","2006-10-26T21:00:00","4","25.35","-105.75","1967.0","TEPEHUANES DGO., MX","FM-12","99999","V020","300,1,N,0040,1","09000,1,C,N","070000,1,N,1","+0232,1","+0136,1","10097,1",,,,,,"04,1,+00300,1,08,1",,,"05,99,1,04,1,02,1,00450,1,00,1,02,1",,"01,9",,,,"99999,9,08201,1","6,1,025,1,+019,1",,"SYN106AAXX  26211 76373 32488 53004 10232 20136 38201 40097 56025 84202 92048 333 30/// 56606 58019 84810 81070;",
"76373099999","2006-10-27T00:00:00","4","25.35","-105.75","1967.0","TEPEHUANES DGO., MX","FM-12","99999","V020","270,1,N,0030,1","22000,1,9,N","070000,1,N,1","+0222,1","+0120,1","10083,1","24,0000,9,1",,,,,"01,1,+00300,1,08,1",,,"03,99,1,01,1,01,1,00450,1,00,1,02,1",,"01,9",,"120,M,+0252,1","180,N,+0104,1","99999,9,08205,1","2,1,004,1,+019,1",,"SYN130AAXX  27001 76373 32488 32703 10222 20120 38205 40083 52004 81102 92348 333 10252 20104 30/// 50091 56606 58019 70000 81810 82070;",
"76373099999","2006-10-27T12:00:00","4","25.35","-105.75","1967.0","TEPEHUANES DGO., MX","FM-12","99999","V020","290,1,N,0010,1","22000,1,9,N","000100,1,N,1","+0079,1","+0077,1","10186,1","24,0000,9,1",,,,,"02,1,+00300,1,08,1",,,"02,99,1,02,1,01,1,99999,9,00,1,00,1",,"01,9","999,+0050,1","120,N,+0070,1","240,M,+0252,1","99999,9,08235,1","9,9,999,9,+025,1",,"SYN118AAXX  27121 76373 32901 22901 10079 20077 38235 40186 5//// 82100 91155 333 10252 20070 30050 56600 58025 70000 82810;",
"76373099999","2006-10-27T15:00:00","4","25.35","-105.75","1967.0","TEPEHUANES DGO., MX","FM-12","99999","V020","110,1,N,0010,1","03600,1,C,N","070000,1,N,1","+0110,1","+0099,1","10221,1",,,,,,"02,1,+00300,1,08,1","02,1,+02400,1,03,1",,"06,99,1,02,1,01,1,00450,1,06,1,02,1",,"01,9",,,,"99999,9,08253,1","2,1,019,1,+028,1",,"SYN112AAXX  27151 76373 32488 61101 10110 20099 38253 40221 52019 82162 91450 333 30/// 56222 58028 82810 82358 82070;",
"76373099999","2006-10-27T18:00:00","4","25.35","-105.75","1967.0","TEPEHUANES DGO., MX","FM-12","99999","V020","070,1,N,0020,1","22000,1,9,N","070000,1,N,1","+0200,1","+0123,1","10207,1",,,,,,"01,1,+00300,1,08,1",,,"02,99,1,01,1,01,1,00450,1,00,1,01,1",,"01,9",,"120,M,+0218,1","240,N,+0070,1","99999,9,08255,1","2,1,002,1,+029,1",,"SYN118AAXX  27181 76373 32488 20702 10200 20123 38255 40207 52002 81101 91745 333 10218 20070 30/// 56202 58029 81810 81070;",
"76373099999","2006-10-27T21:00:00","4","25.35","-105.75","1967.0","TEPEHUANES DGO., MX","FM-12","99999","V020","120,1,N,0040,1","22000,1,9,N","070000,1,N,1","+0228,1","+0121,1","10160,1",,,,,,"01,1,+00300,1,08,1",,,"02,99,1,01,1,01,1,00450,1,00,1,01,1",,"01,9",,,,"99999,9,08236,1","6,1,019,1,+025,1",,"SYN106AAXX  27211 76373 32488 21204 10228 20121 38236 40160 56019 81101 92045 333 30/// 56202 58025 81810 81070;",
"76373099999","2006-10-28T00:00:00","4","25.35","-105.75","1967.0","TEPEHUANES DGO., MX","FM-12","99999","V020","150,1,N,0040,1","22000,1,9,N","070000,1,N,1","+0200,1","+0101,1","10144,1","24,0000,9,1",,,,,,,,"02,99,1,00,1,00,1,99999,9,00,1,02,1",,"01,9",,"120,M,+0247,1","180,N,+0070,1","99999,9,08242,1","2,1,006,1,+037,1",,"SYN124AAXX  28001 76373 32988 21504 10200 20101 38242 40144 52006 80002 92345 333 10247 20070 30/// 50431 56006 58037 70000 82070;",
"76373099999","2006-10-28T15:00:00","4","25.35","-105.75","1967.0","TEPEHUANES DGO., MX","FM-12","99999","V020","999,9,C,0000,1","22000,1,9,N","070000,1,N,1","+0060,1","+0032,1","10294,1",,,,,,"01,1,+06000,1,00,1",,,"01,99,1,00,1,00,1,99999,9,00,1,01,1",,"01,9",,,,"99999,9,08288,1","9,9,999,9,+035,1",,"SYN100AAXX  28151 76373 32988 10000 10060 20032 38288 40294 5//// 80001 91445 333 30/// 56006 58035 81070;",
"76373099999","2006-10-28T18:00:00","4","25.35","-105.75","1967.0","TEPEHUANES DGO., MX","FM-12","99999","V020","060,1,N,0030,1","22000,1,9,N","070000,1,N,1","+9999,9","+0084,1","10271,1",,,,,,"00,1,+99999,9,99,9",,,"00,99,1,00,1,00,1,99999,9,00,1,00,1",,"01,9",,"120,M,+0188,1","240,N,+0010,1","99999,9,08276,1","6,1,012,1,+021,1",,"SYN094AAXX  28181 76373 32988 00603 10174 20084 38276 40271 56012 91746 333 10188 20010 30/// 58021;","Q01+001743ATOT  "
"76373099999","2006-10-30T12:00:00","4","25.35","-105.75","1967.0","TEPEHUANES DGO., MX","FM-12","99999","V020","310,1,N,0010,1","22000,1,9,N","000100,1,N,1","+0078,1","+0078,1","10137,1","24,0000,9,1",,,,,"03,1,+02400,1,03,1",,,"03,99,1,03,1,00,1,01250,1,04,1,00,1",,"01,9","999,+0045,1","120,N,+0070,1","240,M,+0288,1","99999,9,08203,1",,,"SYN118AAXX  30121 76373 32601 33101 10078 20078 38203 40137 5//// 83040 91150 333 10288 20070 30045 56060 58/// 70000 83358;",
"76373099999","2006-10-30T15:00:00","4","25.35","-105.75","1967.0","TEPEHUANES DGO., MX","FM-12","99999","V020","320,1,N,0010,1","22000,1,9,N","070000,1,N,1","+0120,1","+0104,1","10162,1",,,,,,"02,1,+00360,1,08,1",,,"04,99,1,02,1,01,1,00450,1,03,1,00,1",,"01,9",,,,"99999,9,08210,1","2,1,007,1,+999,9",,"SYN106AAXX  30151 76373 32488 43201 10120 20104 38210 40162 52007 82130 91450 333 30/// 56660 58/// 82812 82358;",
"76373099999","2006-10-30T18:00:00","4","25.35","-105.75","1967.0","TEPEHUANES DGO., MX","FM-12","99999","V020","240,1,N,0040,1","22000,1,9,N","070000,1,N,1","+0240,1","+0128,1","10137,1",,,,,,"02,1,+00300,1,08,1",,,"03,99,1,02,1,01,1,00450,1,00,1,01,1",,"01,9",,"120,M,+0250,1","240,N,+0070,1","99999,9,08203,1","6,1,007,1,+999,9",,"SYN118AAXX  30181 76373 32488 32404 10240 20128 38203 40137 56007 82101 91745 333 10250 20070 30/// 56606 58/// 82810 81070;",
"76373099999","2006-10-30T21:00:00","4","25.35","-105.75","1967.0","TEPEHUANES DGO., MX","FM-12","99999","V020","240,1,N,0060,1","22000,1,9,N","070000,1,N,1","+0248,1","+0120,1","10083,1",,,,,,"01,1,+00300,1,08,1",,,"03,99,1,01,1,01,1,00450,1,00,1,02,1",,"01,9",,,,"99999,9,08182,1","6,1,021,1,+999,9",,"SYN106AAXX  30211 76373 32488 32406 10248 20120 38182 40083 56021 81102 92045 333 30/// 56606 58/// 81810 82070;",
"76373099999","2006-10-31T00:00:00","4","25.35","-105.75","1967.0","TEPEHUANES DGO., MX","FM-12","99999","V020","300,1,N,0040,1","22000,1,9,N","070000,1,N,1","+0216,1","+0124,1","10060,1","24,0000,9,1",,,,,"01,1,+00300,1,08,1","01,1,+03000,1,03,1",,"04,99,1,01,1,01,1,00450,1,03,1,02,1",,"01,9",,"120,M,+0268,1","180,N,+0070,1","99999,9,08186,1","2,1,004,1,+999,9",,"SYN136AAXX  31001 76373 32488 43004 10216 20124 38186 40060 52004 81132 92350 333 10268 20070 30/// 50391 56666 58/// 70000 81810 81360 82070;",
"76373099999","2006-10-31T12:00:00","4","25.35","-105.75","1967.0","TEPEHUANES DGO., MX","FM-12","99999","V020","999,9,C,0000,1","22000,1,9,N","000100,1,N,1","+0062,1","+0062,1","10155,1","24,0000,9,1",,,,,"00,1,+99999,9,99,9",,,"00,99,1,00,1,00,1,99999,9,00,1,00,1",,"01,9","999,+0025,1","120,N,+0054,1","240,M,+0268,1","99999,9,08209,1","9,9,999,9,+007,1",,"SYN100AAXX  31121 76373 32901 00000 10062 20062 38209 40155 5//// 91150 333 10268 20054 30025 58007 70000;","Q01  00002PRCP24"
"76373099999","2006-10-31T15:00:00","4","25.35","-105.75","1967.0","TEPEHUANES DGO., MX","FM-12","99999","V020","999,9,C,0000,1","22000,1,9,N","070000,1,N,1","+0100,1","+0079,1","10188,1",,,,,,"02,1,+06000,1,00,1",,,"02,99,1,00,1,00,1,99999,9,00,1,02,1",,"01,9",,,,"99999,9,08221,1","2,1,012,1,+011,1",,"SYN100AAXX  31151 76373 32988 20000 10100 20079 38221 40188 52012 80002 91450 333 30/// 56006 58011 82070;",
"76373099999","2006-10-31T18:00:00","4","25.35","-105.75","1967.0","TEPEHUANES DGO., MX","FM-12","99999","V020","120,1,N,0020,1","22000,1,9,N","070000,1,N,1","+9999,9","+0117,1","10158,1",,,,,,"02,1,+06000,1,00,1",,,"02,99,1,00,1,00,1,99999,9,00,1,02,1",,"01,9",,"120,M,+0226,1","240,N,+0044,1","99999,9,08208,1","7,1,013,1,+005,1",,"SYN112AAXX  31181 76373 32988 21202 10210 20117 38208 40158 57013 80002 91746 333 10226 20044 30/// 56006 58005 82070;","Q01+002103ATOT  "
"76373099999","2006-11-01T00:00:00","4","25.35","-105.75","1967.0","TEPEHUANES DGO., MX","FM-12","99999","V020","230,1,N,0020,1","22000,1,9,N","070000,1,N,1","+0236,1","+0108,1","10054,1","24,0000,9,1",,,,,"00,1,+99999,9,99,9",,,"00,99,1,00,1,00,1,99999,9,00,1,00,1",,"01,9",,"120,M,+0284,1","180,N,+0044,1","99999,9,08176,1","4,1,000,1,-010,1",,"SYN106AAXX  01001 76373 32988 02302 10236 20108 38176 40054 54000 92350 333 10284 20044 30/// 50221 59010 70000;","Q01  00002PRCP24"
"76373099999","2006-11-01T12:00:00","4","25.35","-105.75","1967.0","TEPEHUANES DGO., MX","FM-12","99999","V020","270,1,N,0010,1","22000,1,9,N","000100,1,N,1","+0040,1","+0040,1","10097,1","24,0000,9,1",,,,,"00,1,+99999,9,99,9",,,"00,99,1,00,1,00,1,99999,9,00,1,00,1",,"09,9","999,-0005,1","120,N,+0030,1","240,M,+0284,1","99999,9,08209,1","9,9,999,9,+000,1",,"SYN100AAXX  01121 76373 32901 02701 10040 20040 38209 40097 5//// 91150 333 10284 20030 31005 58000 70000;","Q01  00002PRCP24"
"76373099999","2006-11-01T15:00:00","4","25.35","-105.75","1967.0","TEPEHUANES DGO., MX","FM-12","99999","V020","280,1,N,0010,1","22000,1,9,N","070000,1,N,1","+0076,1","+0058,1","99999,9",,,,,,"00,1,+99999,9,99,9",,,"00,99,1,00,1,00,1,99999,9,00,1,00,1",,"01,9",,,,"99999,9,08226,1","2,1,017,1,+005,1",,"SYN082AAXX  01151 76373 32988 02801 10076 20058 38226 40207 52017 91450 333 30/// 58005;","Q01+102073APOSLP"
"76373099999","2006-11-01T18:00:00","4","25.35","-105.75","1967.0","TEPEHUANES DGO., MX","FM-12","99999","V020","030,1,N,0010,1","22000,1,9,N","070000,1,N,1","+0206,1","+0093,1","10179,1",,,,,,"00,1,+99999,9,99,9",,,"00,99,1,00,1,00,1,99999,9,00,1,00,1",,"01,9",,"120,M,+0222,1","240,N,+0020,1","99999,9,08214,1","7,1,012,1,-002,1",,"SYN094AAXX  01181 76373 32988 00301 10206 20093 38214 40179 57012 91746 333 10222 20020 30/// 59002;",
"76373099999","2006-11-01T21:00:00","4","25.35","-105.75","1967.0","TEPEHUANES DGO., MX","FM-12","99999","V020","270,1,N,0010,1","22000,1,9,N","070000,1,N,1","+0264,2","+0107,1","99999,9",,,,,,"00,1,+99999,9,99,9",,,"00,99,1,00,1,00,1,99999,9,00,1,00,1",,"01,9",,,,"99999,9,08178,1","6,1,036,1,+002,1",,"SYN082AAXX  01211 76373 32988 02701 10264 20107 38178 40102 56036 92055 333 30/// 58002;","Q01+101023APOSLP"
"76373099999","2006-11-02T00:00:00","4","25.35","-105.75","1967.0","TEPEHUANES DGO., MX","FM-12","99999","V020","120,1,N,0050,1","22000,1,9,N","070000,1,N,1","+0234,1","+0093,1","10067,1","24,0000,9,1",,,,,"00,1,+99999,9,99,9",,,"00,99,1,00,1,00,1,99999,9,00,1,00,1",,"01,9",,"120,M,+0297,1","180,N,+0020,1","99999,9,08179,1","2,1,001,1,+003,1",,"SYN106AAXX  02001 76373 32988 01205 10234 20093 38179 40067 52001 92345 333 10297 20020 30/// 50441 58003 70000;","Q01  00002PRCP24"
"76373099999","2006-11-02T12:00:00","4","25.35","-105.75","1967.0","TEPEHUANES DGO., MX","FM-12","99999","V020","999,9,C,0000,1","22000,1,9,N","000100,1,N,1","+0040,1","+0030,1","10188,1","24,0000,9,1",,,,,"00,1,+99999,9,99,9",,,"00,99,1,00,1,00,1,99999,9,00,1,00,1",,"09,9","999,-0006,1","120,N,+0030,1","240,M,+0297,1","99999,9,08223,1","9,9,999,9,+014,1",,"SYN100AAXX  02121 76373 32901 00000 10040 20030 38223 40188 5//// 91150 333 10297 20030 31006 58014 70000;","Q01  00002PRCP24"
"76373099999","2006-11-02T15:00:00","4","25.35","-105.75","1967.0","TEPEHUANES DGO., MX","FM-12","99999","V020","999,9,C,0000,1","22000,1,9,N","070000,1,N,1","+0096,1","+0050,1","10226,1",,,,,,"00,1,+99999,9,99,9",,,"00,99,1,00,1,00,1,99999,9,00,1,00,1",,"01,9",,,,"99999,9,08237,1","2,1,014,1,+011,1",,"SYN082AAXX  02151 76373 32988 00000 10096 20050 38237 40226 52014 91450 333 30/// 58011;",
"76373099999","2006-11-02T18:00:00","4","25.35","-105.75","1967.0","TEPEHUANES DGO., MX","FM-12","99999","V020","110,1,N,0040,1","22000,1,9,N","070000,1,N,1","+0218,1","+0123,1","10195,1",,,,,,"00,1,+99999,9,99,9",,,"00,99,1,00,1,00,1,99999,9,00,1,00,1",,"01,9",,"120,M,+0232,1","240,N,+0022,1","99999,9,08227,1","8,1,010,1,+013,1",,"SYN094AAXX  02181 76373 32988 01104 10218 20123 38227 40195 58010 91750 333 10232 20022 30/// 58013;",
"76373099999","2006-11-02T21:00:00","4","25.35","-105.75","1967.0","TEPEHUANES DGO., MX","FM-12","99999","V020","120,1,N,0050,1","22000,1,9,N","070000,1,N,1","+0258,1","+0136,1","99999,9",,,,,,"01,1,+00360,1,08,1",,,"01,99,1,01,1,01,1,00450,1,00,1,00,1",,"01,9",,,,"99999,9,08198,1","7,1,029,1,+020,1",,"SYN100AAXX  02211 76373 32488 11205 10258 20136 38198 40125 57029 81100 92050 333 30/// 56200 58020 81812;","Q01+101253APOSLP"
"76373099999","2006-11-03T00:00:00","4","25.35","-105.75","1967.0","TEPEHUANES DGO., MX","FM-12","99999","V020","140,1,N,0030,1","22000,1,9,N","070000,1,N,1","+0228,1","+0135,1","10083,1","24,0000,9,1",,,,,"00,1,+99999,9,99,9",,,"00,99,1,00,1,00,1,99999,9,00,1,00,1",,"01,9",,"120,M,+0276,1","180,N,+0022,1","99999,9,08194,1","6,1,004,1,+015,1",,"SYN106AAXX  03001 76373 32988 01403 10228 20135 38194 40083 56004 92350 333 10276 20022 30/// 50321 58015 70000;","Q01  00002PRCP24"
"76373099999","2006-11-03T12:00:00","4","25.35","-105.75","1967.0","TEPEHUANES DGO., MX","FM-12","99999","V020","999,9,C,0000,1","22000,1,9,N","000100,1,N,1","+0066,1","+0062,1","10172,1","24,0000,9,1",,,,,"00,1,+99999,9,99,9",,,"00,99,1,00,1,00,1,99999,9,00,1,00,1",,"01,9","999,+0028,1","120,N,+0058,1","240,M,+0276,1","99999,9,08225,1","9,9,999,9,+002,1",,"SYN100AAXX  03121 76373 32901 00000 10066 20062 38225 40172 5//// 91150 333 10276 20058 30028 58002 70000;","Q01  00002PRCP24"
"76373099999","2006-11-03T15:00:00","4","25.35","-105.75","1967.0","TEPEHUANES DGO., MX","FM-12","99999","V020","320,1,N,0010,1","06000,1,9,N","070000,1,N,1","+0100,1","+0083,1","10207,1",,,,,,"08,1,+06000,1,02,1",,,"08,99,1,00,1,00,1,99999,9,00,1,08,1",,"01,9",,,,"99999,9,08237,1","2,1,013,1,+001,1",,"SYN100AAXX  03151 76373 32988 83201 10100 20083 38237 40207 52013 80008 91450 333 30/// 56009 58001 88270;",
"76373099999","2006-11-03T21:00:00","4","25.35","-105.75","1967.0","TEPEHUANES DGO., MX","FM-12","99999","V020","120,1,N,0020,1","09000,1,C,N","070000,1,N,1","+0248,1","+0168,1","10132,1",,,,,,"01,1,+00390,1,08,1",,,"08,99,1,01,1,01,1,00450,1,00,1,07,1",,"01,9",,,,"99999,9,08202,1","7,1,026,1,+004,1",,"SYN106AAXX  03211 76373 32488 81202 10248 20168 38202 40132 57026 81107 92050 333 30/// 56206 58004 81813 87270;",
"76373099999","2006-11-04T00:00:00","4","25.35","-105.75","1967.0","TEPEHUANES DGO., MX","FM-12","99999","V020","240,1,N,0030,1","09000,1,9,N","070000,1,N,1","+0224,1","+0112,1","10092,1","24,0000,9,1",,,,,"02,1,+00360,1,08,1","01,1,+02400,1,03,1",,"05,99,1,02,1,01,1,00450,1,01,1,02,1",,"01,9",,"120,M,+0275,1","180,N,+0050,1","99999,9,08202,1","5,1,000,1,+008,1",,"SYN136AAXX  04001 76373 32488 52403 10224 20112 38202 40092 55000 82112 92350 333 10275 20050 30/// 50231 56666 58008 70000 82812 81358 82070;",
"76373099999","2006-11-04T15:00:00","4","25.35","-105.75","1967.0","TEPEHUANES DGO., MX","FM-12","99999","V020","330,1,N,0010,1","22000,1,9,N","070000,1,N,1","+0092,1","+0074,1","10212,1",,,,,,"02,1,+06000,1,00,1",,,"02,99,1,00,1,00,1,99999,9,00,1,02,1",,"01,9",,,,"99999,9,08237,1","9,9,999,9,-001,1",,"SYN100AAXX  04151 76373 32988 23301 10092 20074 38237 40212 5//// 80002 91450 333 30/// 56006 59001 82070;",
"76373099999","2006-11-04T18:00:00","4","25.35","-105.75","1967.0","TEPEHUANES DGO., MX","FM-12","99999","V020","160,1,N,0010,1","22000,1,9,N","070000,1,N,1","+9999,9","+0125,1","10177,1",,,,,,"02,1,+06000,1,00,1",,,"02,99,1,00,1,00,1,99999,9,00,1,02,1",,"01,9",,"120,M,+0250,1","240,N,+0040,1","99999,9,08222,1","7,1,015,1,-006,1",,"SYN112AAXX  04181 76373 32988 21601 10228 20125 38222 40177 57015 80002 91750 333 10250 20040 30/// 56006 59006 82070;","Q01+002283ATOT  "
"76373099999","2006-11-05T12:00:00","4","25.35","-105.75","1967.0","TEPEHUANES DGO., MX","FM-12","99999","V020","999,9,C,0000,1","22000,1,9,N","000400,1,N,1","+0056,1","+0056,1","10165,1","24,0000,9,1",,,,,"00,1,+99999,9,99,9",,,"00,99,1,00,1,00,1,99999,9,00,1,00,1",,"01,9","999,+0015,1","120,N,+0050,1","240,M,+0280,1","99999,9,08214,1","9,9,999,9,-014,1",,"SYN100AAXX  05121 76373 32904 00000 10056 20056 38214 40165 5//// 91150 333 10280 20050 30015 59014 70000;","Q01  00002PRCP24"
"76373099999","2006-11-05T15:00:00","4","25.35","-105.75","1967.0","TEPEHUANES DGO., MX","FM-12","99999","V020","999,9,C,0000,1","22000,1,9,N","070000,1,N,1","+0090,1","+0068,1","10200,1",,,,,,"01,1,+06000,1,00,1",,,"02,99,1,00,1,00,1,99999,9,00,1,05,1",,"01,9",,,,"99999,9,08225,1","2,1,011,1,-012,1",,"SYN100AAXX  05151 76373 32988 20000 10090 20068 38225 40200 52011 80005 91450 333 30/// 56006 59012 81070;",
"76373099999","2006-11-05T18:00:00","4","25.35","-105.75","1967.0","TEPEHUANES DGO., MX","FM-12","99999","V020","999,9,C,0000,1","22000,1,9,N","070000,1,N,1","+9999,9","+0120,1","10172,1",,,,,,"01,1,+06000,1,00,1",,,"01,99,1,00,1,00,1,99999,9,00,1,05,1",,"01,9",,"120,M,+0238,1","240,N,+0038,1","99999,9,08213,1","8,1,012,1,-009,1",,"SYN112AAXX  05181 76373 32988 10000 10216 20120 38213 40172 58012 80005 91750 333 10238 20038 30/// 56006 59009 81070;","Q01+002163ATOT  "
"76373099999","2006-11-06T15:00:00","4","25.35","-105.75","1967.0","TEPEHUANES DGO., MX","FM-12","99999","V020","999,9,C,0000,1","22000,1,9,N","070000,1,N,1","+0074,1","+0043,1","10226,1",,,,,,"00,1,+99999,9,99,9",,,"00,99,1,00,1,00,1,99999,9,00,1,00,1",,"01,9",,,,"99999,9,08234,1","2,1,008,1,+009,1",,"SYN082AAXX  06151 76373 32988 00000 10074 20043 38234 40226 52008 91450 333 30/// 58009;",
"76373099999","2006-11-06T18:00:00","4","25.35","-105.75","1967.0","TEPEHUANES DGO., MX","FM-12","99999","V020","090,1,N,0080,1","22000,1,9,N","070000,1,N,1","+0208,1","+0098,1","10200,1",,,,,,"00,1,+99999,9,99,9",,,"00,99,1,00,1,00,1,99999,9,00,1,00,1",,"01,9",,"120,M,+0225,1","240,N,+0012,1","99999,9,08225,1","6,1,009,1,+012,1",,"SYN094AAXX  06181 76373 32988 00908 10208 20098 38225 40200 56009 91747 333 10225 20012 30/// 58012;",
"76373099999","2006-11-06T21:00:00","4","25.35","-105.75","1967.0","TEPEHUANES DGO., MX","FM-12","99999","V020","120,1,N,0030,1","22000,1,9,N","070000,1,N,1","+0262,2","+0123,1","99999,9",,,,,,"01,1,+00300,1,08,1",,,"01,99,1,01,1,01,1,00450,1,00,1,00,1",,"01,9",,,,"99999,9,08200,1","6,1,025,1,+999,9",,"SYN100AAXX  06211 76373 32488 11203 10262 20123 38200 40132 56025 81100 92045 333 30/// 56600 58/// 81810;","Q01+101323APOSLP"
"76373099999","2006-11-07T00:00:00","4","25.35","-105.75","1967.0","TEPEHUANES DGO., MX","FM-12","99999","V020","150,1,N,0030,1","22000,1,9,N","070000,1,N,1","+0222,1","+0113,1","10090,1","24,0000,9,1",,,,,"00,1,+99999,9,99,9",,,"00,99,1,00,1,00,1,99999,9,00,1,00,1",,"01,9",,"120,M,+0280,1","180,N,+0012,1","99999,9,08198,1","7,1,002,1,+999,9",,"SYN106AAXX  07001 76373 32988 01503 10222 20113 38198 40090 57002 92347 333 10280 20012 30/// 50351 58/// 70000;","Q01  00002PRCP24"
"76373099999","2006-11-07T12:00:00","4","25.35","-105.75","1967.0","TEPEHUANES DGO., MX","FM-12","99999","V020","999,9,C,0000,1","22000,1,9,N","000400,1,N,1","+0044,1","+0044,1","10195,1","24,0000,9,1",,,,,"00,1,+99999,9,99,9",,,"00,99,1,00,1,00,1,99999,9,00,1,00,1",,"01,9","999,+0000,1","120,N,+0038,1","240,M,+0280,1","99999,9,08234,1","9,9,999,9,+008,1",,"SYN100AAXX  07121 76373 32904 00000 10044 20044 38234 40195 5//// 91145 333 10280 20038 30000 58008 70000;","Q01  00002PRCP24"
"76373099999","2006-11-07T15:00:00","4","25.35","-105.75","1967.0","TEPEHUANES DGO., MX","FM-12","99999","V020","320,1,N,0010,1","22000,1,9,N","070000,1,N,1","+0082,1","+0053,1","10226,1",,,,,,"00,1,+99999,9,99,9",,,"00,99,1,00,1,00,1,99999,9,00,1,00,1",,"01,9",,,,"99999,9,08242,1","1,1,008,1,+008,1",,"SYN082AAXX  07151 76373 32988 03201 10082 20053 38242 40226 51008 91445 333 30/// 58008;",
"76373099999","2006-11-07T18:00:00","4","25.35","-105.75","1967.0","TEPEHUANES DGO., MX","FM-12","99999","V020","090,1,N,0010,1","22000,1,9,N","070000,1,N,1","+0210,1","+0113,1","10198,1",,,,,,"00,1,+99999,9,99,9",,,"00,99,1,00,1,00,1,99999,9,00,1,00,1",,"01,9",,"120,M,+0222,1","240,N,+0030,1","99999,9,08233,1","7,1,009,1,+008,1",,"SYN094AAXX  07181 76373 32988 00901 10210 20113 38233 40198 57009 91745 333 10222 20030 30/// 58008;",
"76373099999","2006-11-07T21:00:00","4","25.35","-105.75","1967.0","TEPEHUANES DGO., MX","FM-12","99999","V020","120,1,N,0030,1","22000,1,9,N","070000,1,N,1","+0260,1","+0124,1","99999,9",,,,,,"00,1,+99999,9,99,9",,,"00,99,1,00,1,00,1,99999,9,00,1,00,1",,"01,9",,,,"99999,9,08194,1","6,1,039,1,-006,1",,"SYN082AAXX  07211 76373 32988 01203 10260 20124 38194 40118 56039 92045 333 30/// 59006;","Q01+101183APOSLP"
"76373099999","2006-11-08T00:00:00","4","25.35","-105.75","1967.0","TEPEHUANES DGO., MX","FM-12","99999","V020","150,1,N,0030,1","22000,1,9,N","070000,1,N,1","+0236,1","+0112,1","10067,2","24,0000,9,1",,,,,"00,1,+99999,9,99,9",,,"00,99,1,00,1,00,1,99999,9,00,1,00,1",,"01,9",,"120,M,+0289,1","180,N,+0030,1","99999,9,08184,1","7,1,010,1,-016,1",,"SYN106AAXX  08001 76373 32988 01503 10236 20112 38184 40067 57010 92350 333 10289 20030 30/// 50181 59016 70000;","Q01  00002PRCP24"
"76373099999","2006-11-08T12:00:00","4","25.35","-105.75","1967.0","TEPEHUANES DGO., MX","FM-12","99999","V020","999,9,C,0000,1","22000,1,9,N","000500,1,N,1","+0032,1","+0032,1","10170,1","24,0000,9,1",,,,,"00,1,+99999,9,99,9",,,"00,99,1,00,1,00,1,99999,9,00,1,00,1",,"09,9","999,-0008,1","120,N,+0030,1","240,M,+0289,1","99999,9,08209,1","9,9,999,9,-025,1",,"SYN100AAXX  08121 76373 32905 00000 10032 20032 38209 40170 5//// 91148 333 10289 20030 31008 59025 70000;","Q01  00002PRCP24"
"76373099999","2006-11-08T15:00:00","4","25.35","-105.75","1967.0","TEPEHUANES DGO., MX","FM-12","99999","V020","999,9,C,0000,1","22000,1,9,N","070000,1,N,1","+0066,1","+0050,1","10205,1",,,,,,"00,1,+99999,9,99,9",,,"00,99,1,00,1,00,1,99999,9,00,1,00,1",,"01,9",,,,"99999,9,08218,1","3,1,009,1,-024,1",,"SYN082AAXX  08151 76373 32988 00000 10066 20050 38218 40205 53009 91443 333 30/// 59024;",
"76373099999","2006-11-08T18:00:00","4","25.35","-105.75","1967.0","TEPEHUANES DGO., MX","FM-12","99999","V020","999,9,C,0000,1","22000,1,9,N","070000,1,N,1","+0212,1","+0092,1","10165,1",,,,,,"00,1,+99999,9,99,9",,,"00,99,1,00,1,00,1,99999,9,00,1,00,1",,"01,9",,"120,M,+0229,1","240,N,+0018,1","99999,9,08201,1","6,1,017,1,-032,1",,"SYN094AAXX  08181 76373 32988 00000 10212 20092 38201 40165 56017 91745 333 10229 20018 30/// 59032;",
"76373099999","2006-11-08T21:00:00","4","25.35","-105.75","1967.0","TEPEHUANES DGO., MX","FM-12","99999","V020","330,1,N,0030,1","22000,1,9,N","070000,1,N,1","+0270,2","+0101,1","99999,9",,,,,,"00,1,+99999,9,99,9",,,"00,99,1,00,1,00,1,99999,9,00,1,00,1",,"01,9",,,,"99999,9,08170,1","6,1,031,1,-024,1",,"SYN082AAXX  08211 76373 32988 03303 10270 20101 38170 40092 56031 92048 333 30/// 59024;","Q01+100923APOSLP"
"76373099999","2006-11-09T00:00:00","4","25.35","-105.75","1967.0","TEPEHUANES DGO., MX","FM-12","99999","V020","270,1,N,0030,1","22000,1,9,N","070000,1,N,1","+0224,1","+0112,1","10058,1","24,0000,9,1",,,,,"00,1,+99999,9,99,9",,,"00,99,1,00,1,00,1,99999,9,00,1,00,1",,"01,9",,"120,M,+0280,1","180,N,+0018,1","99999,9,08172,1","2,1,002,1,-012,1",,"SYN106AAXX  09001 76373 32988 02703 10224 20112 38172 40058 52002 92350 333 10280 20018 30/// 50461 59012 70000;","Q01  00002PRCP24"
"76373099999","2006-11-09T12:00:00","4","25.35","-105.75","1967.0","TEPEHUANES DGO., MX","FM-12","99999","V020","270,1,N,0020,1","22000,1,9,N","000200,1,N,1","+0044,1","+0035,1","10153,1","24,0000,9,1",,,,,"00,1,+99999,9,99,9",,,"00,99,1,00,1,00,1,99999,9,00,1,00,1",,"09,9","999,-0005,1","120,N,+0032,1","240,M,+0280,1","99999,9,08198,1","9,9,999,9,-010,1",,"SYN100AAXX  09121 76373 32902 02702 10044 20035 38198 40153 5//// 91150 333 10280 20032 31005 59010 70000;","Q01  00002PRCP24"
"76373099999","2006-11-09T15:00:00","4","25.35","-105.75","1967.0","TEPEHUANES DGO., MX","FM-12","99999","V020","270,1,N,0010,1","22000,1,9,N","070000,1,N,1","+0082,1","+0056,1","10186,1",,,,,,"00,1,+99999,9,99,9",,,"00,99,1,00,1,00,1,99999,9,00,1,00,1",,"01,9",,,,"99999,9,08206,1","2,1,008,1,-012,1",,"SYN082AAXX  09151 76373 32988 02701 10082 20056 38206 40186 52008 91450 333 30/// 59012;",
"76373099999","2006-11-09T18:00:00","4","25.35","-105.75","1967.0","TEPEHUANES DGO., MX","FM-12","99999","V020","090,1,N,0010,1","22000,1,9,N","070000,1,N,1","+0210,1","+0090,1","10151,1",,,,,,"00,1,+99999,9,99,9",,,"00,99,1,00,1,00,1,99999,9,00,1,00,1",,"01,9",,"120,M,+0223,1","240,N,+0022,1","99999,9,08194,1","7,1,012,1,+024,1",,"SYN094AAXX  09181 76373 32988 00901 10210 20090 38194 40151 57012 91745 333 10223 20022 30/// 58024;",
"76373099999","2006-11-09T21:00:00","4","25.35","-105.75","1967.0","TEPEHUANES DGO., MX","FM-12","99999","V020","300,1,N,0050,1","22000,1,9,N","070000,1,N,1","+0246,1","+0081,1","99999,9",,,,,,"00,1,+99999,9,99,9",,,"00,99,1,00,1,00,1,99999,9,00,1,00,1",,"01,9",,,,"99999,9,08171,1","6,1,023,1,+001,1",,"SYN082AAXX  09211 76373 32988 03005 10246 20081 38171 40090 56023 92050 333 30/// 58001;","Q01+100903APOSLP"
"76373099999","2006-11-10T00:00:00","4","25.35","-105.75","1967.0","TEPEHUANES DGO., MX","FM-12","99999","V020","270,1,N,0030,1","22000,1,9,N","070000,1,N,1","+0208,1","+0066,1","10069,1","24,0000,9,1",,,,,"00,1,+99999,9,99,9",,,"00,99,1,00,1,00,1,99999,9,00,1,00,1",,"01,9",,"120,M,+0260,1","180,N,+0022,1","99999,9,08179,1","2,1,008,1,+007,1",,"SYN106AAXX  10001 76373 32988 02703 10208 20066 38179 40069 52008 92348 333 10260 20022 30/// 50381 58007 70000;","Q01  00002PRCP24"
"76373099999","2006-11-10T12:00:00","4","25.35","-105.75","1967.0","TEPEHUANES DGO., MX","FM-12","99999","V020","270,1,N,0020,1","22000,1,9,N","000100,1,N,1","+0004,1","+0004,1","10179,1","24,0000,9,1",,,,,"00,1,+99999,9,99,9",,,"00,99,1,00,1,00,1,99999,9,00,1,00,1",,"09,9","999,-0036,1","120,N,+0004,1","240,M,+0260,1","99999,9,08208,1","9,9,999,9,+010,1",,"SYN100AAXX  10121 76373 32901 02702 10004 20004 38208 40179 5//// 91145 333 10260 20004 31036 58010 70000;","Q01  00002PRCP24"
"76373099999","2006-11-10T15:00:00","4","25.35","-105.75","1967.0","TEPEHUANES DGO., MX","FM-12","99999","V020","330,1,N,0010,1","22000,1,9,N","070000,1,N,1","+0042,1","+0022,1","10225,1",,,,,,"00,1,+99999,9,99,9",,,"00,99,1,00,1,00,1,99999,9,00,1,00,1",,"01,9",,,,"99999,9,08225,1","2,1,017,1,+019,1",,"SYN082AAXX  10151 76373 32988 03301 10042 20022 38225 40225 52017 91450 333 30/// 58019;",
"76373099999","2006-11-10T18:00:00","4","25.35","-105.75","1967.0","TEPEHUANES DGO., MX","FM-12","99999","V020","150,1,N,0020,1","22000,1,9,N","070000,1,N,1","+0190,1","+0075,1","10205,1",,,,,,"00,1,+99999,9,99,9",,,"00,99,1,00,1,00,1,99999,9,00,1,00,1",,"01,9",,"120,M,+0208,1","240,N,-0010,1","99999,9,08218,1","6,1,007,1,+024,1",,"SYN094AAXX  10181 76373 32988 01502 10190 20075 38218 40205 56007 91750 333 10208 21010 30/// 58024;",
"76373099999","2006-11-10T21:00:00","4","25.35","-105.75","1967.0","TEPEHUANES DGO., MX","FM-12","99999","V020","150,1,N,0040,1","22000,1,9,N","070000,1,N,1","+0246,2","+0085,1","99999,9",,,,,,"00,1,+99999,9,99,9",,,"00,99,1,00,1,00,1,99999,9,00,1,00,1",,"01,9",,,,"99999,9,08192,1","6,1,026,1,+021,1",,"SYN082AAXX  10211 76373 32988 01504 10246 20085 38192 40134 56026 92048 333 30/// 58021;","Q01+101343APOSLP"
"76373099999","2006-11-11T00:00:00","4","25.35","-105.75","1967.0","TEPEHUANES DGO., MX","FM-12","99999","V020","120,1,N,0030,1","22000,1,9,N","070000,1,N,1","+0210,1","+0064,1","10097,1","24,0000,9,1",,,,,"00,1,+99999,9,99,9",,,"00,99,1,00,1,00,1,99999,9,00,1,00,1",,"01,9",,"120,M,+0267,1","180,N,+0110,1","99999,9,08194,1","2,1,002,1,+015,1",,"SYN106AAXX  11001 76373 32988 01203 10210 20064 38194 40097 52002 92350 333 10267 20110 30/// 50301 58015 70000;","Q01  00002PRCP24"
"76373099999","2006-11-11T15:00:00","4","25.35","-105.75","1967.0","TEPEHUANES DGO., MX","FM-12","99999","V020","999,9,C,0000,1","22000,1,9,N","070000,1,N,1","+0050,1","-0002,1","10228,1",,,,,,"00,1,+99999,9,99,9",,,"00,99,1,00,1,00,1,99999,9,00,1,00,1",,"01,9",,,,"99999,9,08244,1","9,9,999,9,+019,1",,"SYN082AAXX  11151 76373 32988 00000 10050 21002 38244 40228 5//// 91445 333 30/// 58019;",
"76373099999","2006-11-11T18:00:00","4","25.35","-105.75","1967.0","TEPEHUANES DGO., MX","FM-12","99999","V020","060,1,N,0010,1","22000,1,9,N","070000,1,N,1","+9999,9","+0078,1","10207,1",,,,,,"00,1,+99999,9,99,9",,,"00,99,1,00,1,00,1,99999,9,00,1,00,1",,"01,9",,"120,M,+0204,1","240,N,-0004,1","99999,9,08234,1","7,1,010,1,+016,1",,"SYN094AAXX  11181 76373 32988 00601 10198 20078 38234 40207 57010 91745 333 10204 21004 30/// 58016;","Q01+001983ATOT  "
"76373099999","2006-11-12T12:00:00","4","25.35","-105.75","1967.0","TEPEHUANES DGO., MX","FM-12","99999","V020","999,9,C,0000,1","22000,1,9,N","000100,1,N,1","+0036,1","+0027,1","10174,1","24,0000,9,1",,,,,"00,1,+99999,9,99,9",,,"00,99,1,00,1,00,1,99999,9,00,1,00,1",,"01,9","999,+0000,1","120,N,+0034,1","240,M,+0252,1","99999,9,08210,1",,,"SYN100AAXX  12121 76373 32901 00000 10036 20027 38210 40174 5//// 91150 333 10252 20034 30000 58/// 70000;","Q01  00002PRCP24"
"76373099999","2006-11-12T15:00:00","4","25.35","-105.75","1967.0","TEPEHUANES DGO., MX","FM-12","99999","V020","999,9,C,0000,1","22000,1,9,N","070000,1,N,1","+0084,1","+0049,1","10207,1",,,,,,"02,1,+00360,1,08,1",,,"03,99,1,02,1,01,1,00450,1,04,1,00,1",,"01,9",,,,"99999,9,08221,1","2,1,011,1,-023,1",,"SYN106AAXX  12151 76373 32488 30000 10084 20049 38221 40207 52011 82140 91450 333 30/// 56660 59023 82812 81360;",
"76373099999","2006-11-12T18:00:00","4","25.35","-105.75","1967.0","TEPEHUANES DGO., MX","FM-12","99999","V020","310,1,N,0020,1","09000,1,C,N","070000,1,N,1","+9999,9","+0118,1","10184,1",,,,,,"02,1,+00360,1,08,1",,,"08,99,1,02,1,01,1,00450,1,00,1,08,1",,"01,9",,"120,M,+0220,1","240,N,+0020,1","99999,9,08213,1","8,1,008,1,-021,1",,"SYN118AAXX  12181 76373 32488 83102 10208 20118 38213 40184 58008 82108 91750 333 10220 20020 30/// 56606 59021 82812 86270;","Q01+002083ATOT  "
"76373099999","2006-11-13T12:00:00","4","25.35","-105.75","1967.0","TEPEHUANES DGO., MX","FM-12","99999","V020","999,9,C,0000,1","22000,1,9,N","000100,1,N,1","+0062,1","+0062,1","10186,1","24,0000,9,1",,,,,"04,1,+02400,1,03,1",,,"04,99,1,04,1,00,1,01250,1,03,1,00,1",,"01,9","999,+0025,1","120,N,+0052,1","240,M,+0267,1","99999,9,08232,1","9,9,999,9,-022,1",,"SYN118AAXX  13121 76373 32601 40000 10062 20062 38232 40186 5//// 84030 91150 333 10267 20052 30025 56060 59022 70000 84358;",
"76373099999","2006-11-13T15:00:00","4","25.35","-105.75","1967.0","TEPEHUANES DGO., MX","FM-12","99999","V020","320,1,N,0010,1","22000,1,9,N","070000,1,N,1","+0092,1","+0071,1","10209,1",,,,,,"01,1,+00300,1,08,1","01,1,+02400,1,03,1",,"03,99,1,01,1,01,1,00450,1,03,1,02,1",,"01,9",,,,"99999,9,08239,1","2,1,007,1,+018,1",,"SYN112AAXX  13151 76373 32488 33201 10092 20071 38239 40209 52007 81132 91450 333 30/// 56666 58018 81810 81358 81070;",
"76373099999","2006-11-13T18:00:00","4","25.35","-105.75","1967.0","TEPEHUANES DGO., MX","FM-12","99999","V020","320,1,N,0030,1","22000,1,9,N","070000,1,N,1","+0208,1","+0132,1","10186,1",,,,,,"01,1,+00300,1,08,1",,,"02,99,1,01,1,01,1,00450,1,00,1,02,1",,"01,9",,"120,M,+0222,1","240,N,+0044,1","99999,9,08230,1","6,1,009,1,+017,1",,"SYN118AAXX  13181 76373 32488 23203 10208 20132 38230 40186 56009 81102 91748 333 10222 20044 30/// 56606 58017 81810 81070;",
"76373099999","2006-11-13T21:00:00","4","25.35","-105.75","1967.0","TEPEHUANES DGO., MX","FM-12","99999","V020","270,1,N,0020,1","22000,1,9,N","070000,1,N,1","+0263,1","+0116,1","99999,9",,,,,,"01,1,+00300,1,08,1",,,"02,99,1,01,1,01,1,00450,1,00,1,05,1",,"01,9",,,,"99999,9,08195,1","6,1,035,1,+999,9",,"SYN106AAXX  13211 76373 32488 22702 10263 20116 38195 40111 56035 81105 92048 333 30/// 56606 58/// 81810 81070;","Q01+101113APOSLP"
"76373099999","2006-11-14T00:00:00","4","25.35","-105.75","1967.0","TEPEHUANES DGO., MX","FM-12","99999","V020","320,1,N,0040,1","22000,1,9,N","070000,1,N,1","+0210,1","+0101,1","10086,1","24,0000,9,1",,,,,"01,1,+00300,1,08,1",,,"02,99,1,01,1,01,1,00450,1,03,1,00,1",,"01,9",,"120,M,+0274,1","180,N,+0044,1","99999,9,08199,1","2,1,004,1,+999,9",,"SYN130AAXX  14001 76373 32488 23204 10210 20101 38199 40086 52004 81130 92358 333 10274 20044 30/// 50351 56660 58/// 70000 81810 81360;",
"76373099999","2006-11-14T12:00:00","4","25.35","-105.75","1967.0","TEPEHUANES DGO., MX","FM-12","99999","V020","999,9,C,0000,1","22000,1,9,N","000100,1,N,1","+0050,1","+0050,1","10170,1","24,0000,9,1",,,,,"00,1,+99999,9,99,9",,,"00,99,1,00,1,00,1,99999,9,00,1,00,1",,"01,9","999,+0016,1","120,N,+0042,1","240,M,+0274,1","99999,9,08214,1","9,9,999,9,-016,1",,"SYN100AAXX  14121 76373 32901 00000 10050 20050 38214 40170 5//// 91153 333 10274 20042 30016 59016 70000;","Q01  00002PRCP24"
"76373099999","2006-11-14T15:00:00","4","25.35","-105.75","1967.0","TEPEHUANES DGO., MX","FM-12","99999","V020","330,1,N,0010,1","22000,1,9,N","070000,1,N,1","+0098,1","+0065,1","10146,1",,,,,,"00,1,+99999,9,99,9",,,"00,99,1,00,1,00,1,99999,9,00,1,00,1",,"01,9",,,,"99999,9,08214,1","0,1,000,1,-025,1",,"SYN082AAXX  14151 76373 32988 03301 10098 20065 38214 40146 50000 91450 333 30/// 59025;",
"76373099999","2006-11-14T18:00:00","4","25.35","-105.75","1967.0","TEPEHUANES DGO., MX","FM-12","99999","V020","330,1,N,0030,1","22000,1,9,N","070000,1,N,1","+0216,1","+0133,1","10151,1",,,,,,"00,1,+99999,9,99,9",,,"00,99,1,00,1,00,1,99999,9,00,1,00,1",,"01,9",,"120,M,+0230,1","240,N,+0033,1","99999,9,08198,1","6,1,016,1,-032,1",,"SYN094AAXX  14181 76373 32988 03303 10216 20133 38198 40151 56016 91745 333 10230 20033 30/// 59032;",
"76373099999","2006-11-14T21:00:00","4","25.35","-105.75","1967.0","TEPEHUANES DGO., MX","FM-12","99999","V020","270,1,N,0050,1","22000,1,9,N","070000,1,N,1","+0266,1","+0113,1","99999,9",,,,,,"00,1,+99999,9,99,9",,,"00,99,1,00,1,00,1,99999,9,00,1,00,1",,"01,9",,,,"99999,9,08165,1","6,1,033,1,-030,1",,"SYN082AAXX  14211 76373 32988 02705 10266 20113 38165 40074 56033 92045 333 30/// 59030;","Q01+100743APOSLP"
"76373099999","2006-11-15T00:00:00","4","25.35","-105.75","1967.0","TEPEHUANES DGO., MX","FM-12","99999","V020","290,1,N,0040,1","22000,1,9,N","070000,1,N,1","+0222,1","+0105,1","10032,1","24,0000,9,1",,,,,"00,1,+99999,9,99,9",,,"00,99,1,00,1,00,1,99999,9,00,1,00,1",,"01,9",,"120,M,+0278,1","180,N,+0033,1","99999,9,08158,1","7,1,007,1,-041,1",,"SYN106AAXX  15001 76373 32988 02904 10222 20105 38158 40032 57007 92345 333 10278 20033 30/// 50221 59041 70000;","Q01  00002PRCP24"
"76373099999","2006-11-15T12:00:00","4","25.35","-105.75","1967.0","TEPEHUANES DGO., MX","FM-12","99999","V020","300,1,N,0010,1","22000,1,9,N","000100,1,N,1","+0054,1","+0050,1","10125,1","24,0000,9,1",,,,,"00,1,+99999,9,99,9",,,"00,99,1,00,1,00,1,99999,9,00,1,00,1",,"01,9","999,+0012,1","120,N,+0043,1","240,M,+0278,1","99999,9,08185,1","9,9,999,9,-029,1",,"SYN100AAXX  15121 76373 32901 03001 10054 20050 38185 40125 5//// 91150 333 10278 20043 30012 59029 70000;","Q01  00002PRCP24"
"76373099999","2006-11-15T15:00:00","4","25.35","-105.75","1967.0","TEPEHUANES DGO., MX","FM-12","99999","V020","300,1,N,0010,1","22000,1,9,N","070000,1,N,1","+0070,1","+0054,1","10172,1",,,,,,"00,1,+99999,9,99,9",,,"00,99,1,00,1,00,1,99999,9,00,1,00,1",,"01,9",,,,"99999,9,08203,1","2,1,018,1,-011,1",,"SYN082AAXX  15151 76373 32988 03001 10070 20054 38203 40172 52018 91450 333 30/// 59011;",
"76373099999","2006-11-15T18:00:00","4","25.35","-105.75","1967.0","TEPEHUANES DGO., MX","FM-12","99999","V020","090,1,N,0020,1","22000,1,9,N","070000,1,N,1","+0190,1","+0095,1","10158,1",,,,,,"00,1,+99999,9,99,9",,,"00,99,1,00,1,00,1,99999,9,00,1,00,1",,"01,9",,"120,M,+0204,1","240,N,+0022,1","99999,9,08199,1","7,1,004,1,+001,1",,"SYN094AAXX  15181 76373 32988 00902 10190 20095 38199 40158 57004 91745 333 10204 20022 30/// 58001;",
"76373099999","2006-11-15T21:00:00","4","25.35","-105.75","1967.0","TEPEHUANES DGO., MX","FM-12","99999","V020","150,1,N,0040,1","22000,1,9,N","070000,1,N,1","+0228,1","+0102,1","10099,1",,,,,,"00,1,+99999,9,99,9",,,"00,99,1,00,1,00,1,99999,9,00,1,00,1",,"01,9",,,,"99999,9,08172,1","6,1,027,1,+007,1",,"SYN082AAXX  15211 76373 32988 01504 10228 20102 38172 40099 56027 92050 333 30/// 58007;",
"76373099999","2006-11-16T00:00:00","4","25.35","-105.75","1967.0","TEPEHUANES DGO., MX","FM-12","99999","V020","150,1,N,0040,1","22000,1,9,N","070000,1,N,1","+0202,1","+0088,1","10081,1","24,0000,9,1",,,,,"00,1,+99999,9,99,9",,,"00,99,1,00,1,00,1,99999,9,00,1,00,1",,"01,9",,"120,M,+0246,1","180,N,+0022,1","99999,9,08177,1","2,1,005,1,+019,1",,"SYN106AAXX  16001 76373 32988 01504 10202 20088 38177 40081 52005 92345 333 10246 20022 30/// 50421 58019 70000;","Q01  00002PRCP24"
"76373099999","2006-11-16T12:00:00","4","25.35","-105.75","1967.0","TEPEHUANES DGO., MX","FM-12","99999","V020","999,9,C,0000,1","22000,1,9,N","000100,1,N,1","+0004,1","+0004,1","10188,1","24,0000,9,1",,,,,"00,1,+99999,9,99,9",,,"00,99,1,00,1,00,1,99999,9,00,1,00,1",,"09,9","999,-0028,1","120,N,-0002,1","240,M,+0246,1","99999,9,08208,1","9,9,999,9,+023,1",,"SYN100AAXX  16121 76373 32901 00000 10004 20004 38208 40188 5//// 91148 333 10246 21002 31028 58023 70000;","Q01  00002PRCP24"
"76373099999","2006-11-16T15:00:00","4","25.35","-105.75","1967.0","TEPEHUANES DGO., MX","FM-12","99999","V020","999,9,C,0000,1","22000,1,9,N","070000,1,N,1","+0038,1","+0013,1","10228,1",,,,,,"00,1,+99999,9,99,9",,,"00,99,1,00,1,00,1,99999,9,00,1,00,1",,"01,9",,,,"99999,9,08221,1","2,1,013,1,+018,1",,"SYN082AAXX  16151 76373 32988 00000 10038 20013 38221 40228 52013 91445 333 30/// 58018;",
"76373099999","2006-11-16T18:00:00","4","25.35","-105.75","1967.0","TEPEHUANES DGO., MX","FM-12","99999","V020","080,1,N,0010,1","22000,1,9,N","070000,1,N,1","+0158,1","+0064,1","10209,1",,,,,,"00,1,+99999,9,99,9",,,"00,99,1,00,1,00,1,99999,9,00,1,00,1",,"01,9",,"120,M,+0178,1","240,N,-0010,1","99999,9,08224,1","2,1,003,1,+025,1",,"SYN094AAXX  16181 76373 32988 00801 10158 20064 38224 40209 52003 91748 333 10178 21010 30/// 58025;",
"76373099999","2006-11-16T21:00:00","4","25.35","-105.75","1967.0","TEPEHUANES DGO., MX","FM-12","99999","V020","090,1,N,0020,1","22000,1,9,N","070000,1,N,1","+0222,1","+0097,1","10164,1",,,,,,"00,1,+99999,9,99,9",,,"00,99,1,00,1,00,1,99999,9,00,1,00,1",,"01,9",,,,"99999,9,08173,1","6,1,041,1,+011,1",,"SYN082AAXX  16211 76373 32988 00902 10222 20097 38173 40164 56041 92045 333 30/// 58011;",
"76373099999","2006-11-17T00:00:00","4","25.35","-105.75","1967.0","TEPEHUANES DGO., MX","FM-12","99999","V020","130,1,N,0020,1","22000,1,9,N","070000,1,N,1","+0206,1","+0093,1","99999,9","24,0000,9,1",,,,,"00,1,+99999,9,99,9",,,"00,99,1,00,1,00,1,99999,9,00,1,00,1",,"01,9",,"120,M,+0250,1","180,N,-0010,1","99999,9,08174,1","7,1,009,1,-003,1",,"SYN106AAXX  17001 76373 32988 01302 10206 20093 38174 40086 57009 92352 333 10250 21010 30/// 50221 59003 70000;","Q01+100863APOSLPQ02  00002PRCP24"
"76373099999","2006-11-17T12:00:00","4","25.35","-105.75","1967.0","TEPEHUANES DGO., MX","FM-12","99999","V020","999,9,C,0000,1","22000,1,9,N","000100,1,N,1","+0016,1","+0011,1","10195,1","24,0000,9,1",,,,,"00,1,+99999,9,99,9",,,"00,99,1,00,1,00,1,99999,9,00,1,00,1",,"09,9","999,-0025,1","120,N,+0010,1","240,M,+0250,1","99999,9,08214,1","9,9,999,9,-006,1",,"SYN100AAXX  17121 76373 32901 00000 10016 20011 38214 40195 5//// 91150 333 10250 20010 31025 59006 70000;","Q01  00002PRCP24"
"76373099999","2006-11-17T15:00:00","4","25.35","-105.75","1967.0","TEPEHUANES DGO., MX","FM-12","99999","V020","999,9,C,0000,1","22000,1,9,N","070000,1,N,1","+0060,1","+0027,1","10233,1",,,,,,"00,1,+99999,9,99,9",,,"00,99,1,00,1,00,1,99999,9,00,1,00,1",,"01,9",,,,"99999,9,08229,1","2,1,015,1,+008,1",,"SYN082AAXX  17151 76373 32988 00000 10060 20027 38229 40233 52015 91450 333 30/// 58008;",
"76373099999","2006-11-17T18:00:00","4","25.35","-105.75","1967.0","TEPEHUANES DGO., MX","FM-12","99999","V020","120,1,N,0010,1","22000,1,9,N","070000,1,N,1","+0190,1","+0103,1","10205,1",,,,,,"00,1,+99999,9,99,9",,,"00,99,1,00,1,00,1,99999,9,00,1,00,1",,"01,9",,"120,M,+0200,1","240,N,+0000,1","99999,9,08222,1","7,1,007,1,+008,1",,"SYN094AAXX  17181 76373 32988 01201 10190 20103 38222 40205 57007 91745 333 10200 20000 30/// 58008;",
"76373099999","2006-11-17T21:00:00","4","25.35","-105.75","1967.0","TEPEHUANES DGO., MX","FM-12","99999","V020","090,1,N,0030,1","22000,1,9,N","070000,1,N,1","+0260,2","+0116,1","99999,9",,,,,,"00,1,+99999,9,99,9",,,"00,99,1,00,1,00,1,99999,9,00,1,00,1",,"01,9",,,,"99999,9,08192,1","6,1,030,1,+009,1",,"SYN082AAXX  17211 76373 32988 00903 10260 20116 38192 40127 56030 92045 333 30/// 58009;","Q01+101273APOSLP"
"76373099999","2006-11-18T00:00:00","4","25.35","-105.75","1967.0","TEPEHUANES DGO., MX","FM-12","99999","V020","150,1,N,0050,1","22000,1,9,N","070000,1,N,1","+0230,1","+0096,1","10086,1","24,0000,9,1",,,,,"00,1,+99999,9,99,9",,,"00,99,1,00,1,00,1,99999,9,00,1,00,1",,"01,9",,"120,M,+0282,1","180,N,+0000,1","99999,9,08192,1","4,1,000,1,+018,1",,"SYN106AAXX  18001 76373 32988 01505 10230 20096 38192 40086 54000 92345 333 10282 20000 30/// 50161 58018 70000;","Q01  00002PRCP24"
"76373099999","2006-11-18T15:00:00","4","25.35","-105.75","1967.0","TEPEHUANES DGO., MX","FM-12","99999","V020","999,9,C,0000,1","22000,1,9,N","070000,1,N,1","+0046,1","+0006,1","10237,1",,,,,,"00,1,+99999,9,99,9",,,"00,99,1,00,1,00,1,99999,9,00,1,00,1",,"01,9",,,,"99999,9,08246,1","9,9,999,9,+017,1",,"SYN082AAXX  18151 76373 32988 00000 10046 20006 38246 40237 5//// 91445 333 30/// 58017;",
"76373099999","2006-11-18T18:00:00","4","25.35","-105.75","1967.0","TEPEHUANES DGO., MX","FM-12","99999","V020","120,1,N,0010,1","22000,1,9,N","070000,1,N,1","+9999,9","+0073,1","10224,1",,,,,,"00,1,+99999,9,99,9",,,"00,99,1,00,1,00,1,99999,9,00,1,00,1",,"01,9",,"120,M,+0210,1","240,N,-0010,1","99999,9,08237,1","6,1,009,1,+015,1",,"SYN094AAXX  18181 76373 32988 01201 10194 20073 38237 40224 56009 91745 333 10210 21010 30/// 58015;","Q01+001943ATOT  "
"76373099999","2006-11-19T12:00:00","4","25.35","-105.75","1967.0","TEPEHUANES DGO., MX","FM-12","99999","V020","999,9,C,0000,1","22000,1,9,N","000100,1,N,1","+0008,1","+0008,1","10195,1","24,0000,9,1",,,,,"00,1,+99999,9,99,9",,,"00,99,1,00,1,00,1,99999,9,00,1,00,1",,"09,9","999,-0040,1","120,N,+0000,1","240,M,+0278,1","99999,9,08226,1",,,"SYN100AAXX  19121 76373 32901 00000 10008 20008 38226 40195 5//// 91150 333 10278 20000 31040 58/// 70000;","Q01  00002PRCP24"
"76373099999","2006-11-19T15:00:00","4","25.35","-105.75","1967.0","TEPEHUANES DGO., MX","FM-12","99999","V020","999,9,C,0000,1","22000,1,9,N","070000,1,N,1","+0046,1","+0017,1","99999,9",,,,,,"00,1,+99999,9,99,9",,,"00,99,1,00,1,00,1,99999,9,00,1,00,1",,"01,9",,,,"99999,9,08246,1","2,1,020,1,+000,1",,"SYN082AAXX  19151 76373 32988 00000 10046 20017 38246 40257 52020 91450 333 30/// 58000;","Q01+102573APOSLP"
"76373099999","2006-11-19T18:00:00","4","25.35","-105.75","1967.0","TEPEHUANES DGO., MX","FM-12","99999","V020","120,1,N,0030,1","22000,1,9,N","070000,1,N,1","+9999,9","+0083,1","10209,1",,,,,,"00,1,+99999,9,99,9",,,"00,99,1,00,1,00,1,99999,9,00,1,00,1",,"01,9",,"120,M,+0220,1","240,N,-0010,1","99999,9,08251,1","8,1,005,1,+014,1",,"SYN094AAXX  19181 76373 32988 01203 10194 20083 38251 40209 58005 91750 333 10220 21010 30/// 58014;","Q01+001943ATOT  "
"76373099999","2006-11-20T12:00:00","4","25.35","-105.75","1967.0","TEPEHUANES DGO., MX","FM-12","99999","V020","999,9,C,0000,1","22000,1,9,N","000100,1,N,1","-0004,1","-0004,1","10252,1","24,0000,9,1",,,,,"00,1,+99999,9,99,9",,,"00,99,1,00,1,00,1,99999,9,00,1,00,1",,"09,9","999,-0045,1","120,N,-0008,1","240,M,+0252,1","99999,9,08268,1","9,9,999,9,+042,1",,"SYN100AAXX  20121 76373 32901 00000 11004 21004 38268 40252 5//// 91150 333 10252 21008 31045 58042 70000;","Q01  00002PRCP24"
"76373099999","2006-11-20T15:00:00","4","25.35","-105.75","1967.0","TEPEHUANES DGO., MX","FM-12","99999","V020","999,9,C,0000,1","22000,1,9,N","070000,1,N,1","+0030,1","-0003,1","10301,1",,,,,,"00,1,+99999,9,99,9",,,"00,99,1,00,1,00,1,99999,9,00,1,00,1",,"01,9",,,,"99999,9,08283,1","2,1,015,1,+037,1",,"SYN082AAXX  20151 76373 32988 00000 10030 21003 38283 40301 52015 91450 333 30/// 58037;",
"76373099999","2006-11-20T18:00:00","4","25.35","-105.75","1967.0","TEPEHUANES DGO., MX","FM-12","99999","V020","140,1,N,0070,1","22000,1,9,N","070000,1,N,1","+9999,9","+0092,1","10284,1",,,,,,"01,1,+00300,1,08,1",,,"01,99,1,01,1,01,1,00450,1,00,1,00,1",,"01,9",,"120,M,+0180,1","240,N,-0020,1","99999,9,08277,1","7,1,006,1,+026,1",,"SYN112AAXX  20181 76373 32488 11407 10172 20092 38277 40284 57006 81100 91758 333 10180 21020 30/// 56600 58026 81810;","Q01+001723ATOT  "
"76373099999","2006-11-21T00:00:00","4","25.35","-105.75","1967.0","TEPEHUANES DGO., MX","FM-12","99999","V020","070,1,N,0030,1","22000,1,9,N","070000,1,N,1","+0164,1","+0095,1","10195,1","24,0000,9,1",,,,,"00,1,+99999,9,99,9",,,"00,99,1,00,1,00,1,99999,9,00,1,00,1",,"01,9",,"120,M,+0198,1","180,N,-0020,1","99999,9,08254,1","7,1,007,1,+999,9",,"SYN106AAXX  21001 76373 32988 00703 10164 20095 38254 40195 57007 92345 333 10198 21020 30/// 50381 58/// 70000;","Q01  00002PRCP24"
"76373099999","2006-11-21T12:00:00","4","25.35","-105.75","1967.0","TEPEHUANES DGO., MX","FM-12","99999","V020","999,9,C,0000,1","22000,1,9,N","000100,1,N,1","-0014,1","-0014,1","10294,1","24,0000,9,1",,,,,"00,1,+99999,9,99,9",,,"00,99,1,00,1,00,1,99999,9,00,1,00,1",,"09,9","999,-0059,1","120,N,-0022,1","240,M,+0198,1","99999,9,08282,1","9,9,999,9,+014,1",,"SYN100AAXX  21121 76373 32901 00000 11014 21014 38282 40294 5//// 91150 333 10198 21022 31059 58014 70000;","Q01  00002PRCP24"
"76373099999","2006-11-21T15:00:00","4","25.35","-105.75","1967.0","TEPEHUANES DGO., MX","FM-12","99999","V020","999,9,C,0000,1","22000,1,9,N","070000,1,N,1","+0018,1","+0009,1","10330,1",,,,,,"00,1,+99999,9,99,9",,,"00,99,1,00,1,00,1,99999,9,00,1,00,1",,"01,9",,,,"99999,9,08289,1","2,1,007,1,+006,1",,"SYN082AAXX  21151 76373 32988 00000 10018 20009 38289 40330 52007 91450 333 30/// 58006;",
"76373099999","2006-11-21T18:00:00","4","25.35","-105.75","1967.0","TEPEHUANES DGO., MX","FM-12","99999","V020","150,1,N,0030,1","22000,1,9,N","070000,1,N,1","+0150,1","+0065,1","10301,1",,,,,,"00,1,+99999,9,99,9",,,"00,99,1,00,1,00,1,99999,9,00,1,00,1",,"01,9",,"120,M,+0166,1","240,N,-0030,1","99999,9,08277,1","7,1,012,1,+000,1",,"SYN094AAXX  21181 76373 32988 01503 10150 20065 38277 40301 57012 91745 333 10166 21030 30/// 58000;",
"76373099999","2006-11-21T21:00:00","4","25.35","-105.75","1967.0","TEPEHUANES DGO., MX","FM-12","99999","V020","150,1,N,0040,1","22000,1,9,N","070000,1,N,1","+0206,1","+0063,1","99999,9",,,,,,"00,1,+99999,9,99,9",,,"00,99,1,00,1,00,1,99999,9,00,1,00,1",,"01,9",,,,"99999,9,08241,1","6,1,036,1,-013,1",,"SYN082AAXX  21211 76373 32988 01504 10206 20063 38241 40219 56036 92045 333 30/// 59013;","Q01+102193APOSLP"
"76373099999","2006-11-22T00:00:00","4","25.35","-105.75","1967.0","TEPEHUANES DGO., MX","FM-12","99999","V020","130,1,N,0020,1","22000,1,9,N","070000,1,N,1","+0186,1","+0062,1","10177,2","24,0000,9,1",,,,,"00,1,+99999,9,99,9",,,"00,99,1,00,1,00,1,99999,9,00,1,00,1",,"01,9",,"120,M,+0228,1","180,N,-0030,1","99999,9,08230,1","7,1,011,1,-024,1",,"SYN106AAXX  22001 76373 32988 01302 10186 20062 38230 40177 57011 92346 333 10228 21030 30/// 50221 59024 70000;","Q01  00002PRCP24"
"76373099999","2006-11-22T12:00:00","4","25.35","-105.75","1967.0","TEPEHUANES DGO., MX","FM-12","99999","V020","999,9,C,0000,1","22000,1,9,N","000100,1,N,1","-0010,1","-0015,1","10275,1","24,0000,9,1",,,,,"00,1,+99999,9,99,9",,,"00,99,1,00,1,00,1,99999,9,00,1,00,1",,"09,9","999,-0046,1","120,N,-0021,1","240,M,+0228,1","99999,9,08262,1","9,9,999,9,-020,1",,"SYN100AAXX  22121 76373 32901 00000 11010 21015 38262 40275 5//// 91150 333 10228 21021 31046 59020 70000;","Q01  00002PRCP24"
"76373099999","2006-11-22T15:00:00","4","25.35","-105.75","1967.0","TEPEHUANES DGO., MX","FM-12","99999","V020","999,9,C,0000,1","22000,1,9,N","070000,1,N,1","+0012,1","-0008,1","10311,1",,,,,,"00,1,+99999,9,99,9",,,"00,99,1,00,1,00,1,99999,9,00,1,00,1",,"01,9",,,,"99999,9,08271,1","2,1,009,1,-017,1",,"SYN082AAXX  22151 76373 32988 00000 10012 21008 38271 40311 52009 91450 333 30/// 59017;",
"76373099999","2006-11-22T18:00:00","4","25.35","-105.75","1967.0","TEPEHUANES DGO., MX","FM-12","99999","V020","150,1,N,0020,1","22000,1,9,N","070000,1,N,1","+0150,1","+0063,1","10292,1",,,,,,"00,1,+99999,9,99,9",,,"00,99,1,00,1,00,1,99999,9,00,1,00,1",,"01,9",,"120,M,+0168,1","240,N,-0030,1","99999,9,08262,1","7,1,009,1,-015,1",,"SYN094AAXX  22181 76373 32988 01502 10150 20063 38262 40292 57009 91750 333 10168 21030 30/// 59015;",
"76373099999","2006-11-22T21:00:00","4","25.35","-105.75","1967.0","TEPEHUANES DGO., MX","FM-12","99999","V020","150,1,N,0050,1","22000,1,9,N","070000,1,N,1","+0230,2","+0065,1","99999,9",,,,,,"00,1,+99999,9,99,9",,,"00,99,1,00,1,00,1,99999,9,00,1,00,1",,"01,9",,,,"99999,9,08227,1","6,1,035,1,-014,1",,"SYN082AAXX  22211 76373 32988 01505 10230 20065 38227 40209 56035 92045 333 30/// 59014;","Q01+102093APOSLP"
"76373099999","2006-11-23T00:00:00","4","25.35","-105.75","1967.0","TEPEHUANES DGO., MX","FM-12","99999","V020","120,1,N,0020,1","22000,1,9,N","070000,1,N,1","+0206,1","+0063,1","99999,9","24,0000,9,1",,,,,"00,1,+99999,9,99,9",,,"00,99,1,00,1,00,1,99999,9,00,1,00,1",,"01,9",,"120,M,+0250,1","180,N,-0030,1","99999,9,08218,1","7,1,009,1,-012,1",,"SYN106AAXX  23001 76373 32988 01202 10206 20063 38218 40137 57009 92345 333 10250 21030 30/// 50281 59012 70000;","Q01+101373APOSLPQ02  00002PRCP24"
"76373099999","2006-11-23T12:00:00","4","25.35","-105.75","1967.0","TEPEHUANES DGO., MX","FM-12","99999","V020","999,9,C,0000,1","22000,1,9,N","070000,1,N,1","-0016,1","-0027,1","10249,1","24,0000,9,1",,,,,"00,1,+99999,9,99,9",,,"00,99,1,00,1,00,1,99999,9,00,1,00,1",,"09,9","999,-0068,1","120,N,-0027,1","240,M,+0250,1","99999,9,08243,1","9,9,999,9,-019,1",,"SYN100AAXX  23121 76373 32988 00000 11016 21027 38243 40249 5//// 91150 333 10250 21027 31068 59019 70000;","Q01  00002PRCP24"
"76373099999","2006-11-23T15:00:00","4","25.35","-105.75","1967.0","TEPEHUANES DGO., MX","FM-12","99999","V020","999,9,C,0000,1","22000,1,9,N","070000,1,N,1","+0022,1","-0020,1","10287,1",,,,,,"00,1,+99999,9,99,9",,,"00,99,1,00,1,00,1,99999,9,00,1,00,1",,"01,9",,,,"99999,9,08253,1","2,1,010,1,-018,1",,"SYN082AAXX  23151 76373 32988 00000 10022 21020 38253 40287 52010 91450 333 30/// 59018;",
"76373099999","2006-11-23T18:00:00","4","25.35","-105.75","1967.0","TEPEHUANES DGO., MX","FM-12","99999","V020","150,1,N,0010,1","22000,1,9,N","070000,1,N,1","+0160,1","+0033,1","10254,1",,,,,,"00,1,+99999,9,99,9",,,"00,99,1,00,1,00,1,99999,9,00,1,00,1",,"01,9",,"120,M,+0174,1","240,N,-0040,1","99999,9,08238,1","2,1,015,1,-024,1",,"SYN094AAXX  23181 76373 32988 01501 10160 20033 38238 40254 52015 91750 333 10174 21040 30/// 59024;",
"76373099999","2006-11-23T21:00:00","4","25.35","-105.75","1967.0","TEPEHUANES DGO., MX","FM-12","99999","V020","120,1,N,0020,1","22000,1,9,N","070000,1,N,1","+0228,2","+0034,1","99999,9",,,,,,"00,1,+99999,9,99,9",,,"00,99,1,00,1,00,1,99999,9,00,1,00,1",,"01,9",,,,"99999,9,08207,1","6,1,031,1,-020,1",,"SYN082AAXX  23211 76373 32988 01202 10228 20034 38207 40172 56031 92045 333 30/// 59020;","Q01+101723APOSLP"
"76373099999","2006-11-24T00:00:00","4","25.35","-105.75","1967.0","TEPEHUANES DGO., MX","FM-12","99999","V020","140,1,N,0030,1","22000,1,9,N","070000,1,N,1","+0194,1","+0032,1","10120,2","24,0000,9,1",,,,,"00,1,+99999,9,99,9",,,"00,99,1,00,1,00,1,99999,9,00,1,00,1",,"01,9",,"120,M,+0250,1","180,N,-0040,1","99999,9,08198,1","7,1,009,1,-020,1",,"SYN106AAXX  24001 76373 32988 01403 10194 20032 38198 40120 57009 92350 333 10250 21040 30/// 50301 59020 70000;","Q01  00002PRCP24"
"76373099999","2006-11-24T12:00:00","4","25.35","-105.75","1967.0","TEPEHUANES DGO., MX","FM-12","99999","V020","999,9,C,0000,1","22000,1,9,N","000100,1,N,1","-0024,1","-0040,1","10219,1","24,0000,9,1",,,,,"00,1,+99999,9,99,9",,,"00,99,1,00,1,00,1,99999,9,00,1,00,1",,"09,9","999,-0075,1","120,N,-0030,1","240,M,+0250,1","99999,9,08217,1","9,9,999,9,-026,1",,"SYN100AAXX  24121 76373 32901 00000 11024 21040 38217 40219 5//// 91150 333 10250 21030 31075 59026 70000;","Q01  00002PRCP24"
"76373099999","2006-11-24T15:00:00","4","25.35","-105.75","1967.0","TEPEHUANES DGO., MX","FM-12","99999","V020","999,9,C,0000,1","22000,1,9,N","070000,1,N,1","+0018,1","-0020,1","10278,1",,,,,,"00,1,+99999,9,99,9",,,"00,99,1,00,1,00,1,99999,9,00,1,00,1",,"01,9",,,,"99999,9,08230,1","2,1,023,1,-023,1",,"SYN082AAXX  24151 76373 32988 00000 10018 21020 38230 40278 52023 91450 333 30/// 59023;",
"76373099999","2006-11-24T18:00:00","4","25.35","-105.75","1967.0","TEPEHUANES DGO., MX","FM-12","99999","V020","180,1,N,0010,1","22000,1,9,N","070000,1,N,1","+0158,1","+0023,1","10233,1",,,,,,"00,1,+99999,9,99,9",,,"00,99,1,00,1,00,1,99999,9,00,1,00,1",,"01,9",,"120,M,+0170,1","240,N,-0045,1","99999,9,08217,1","7,1,013,1,-021,1",,"SYN094AAXX  24181 76373 32988 01801 10158 20023 38217 40233 57013 91746 333 10170 21045 30/// 59021;",
"76373099999","2006-11-24T21:00:00","4","25.35","-105.75","1967.0","TEPEHUANES DGO., MX","FM-12","99999","V020","130,1,N,0030,1","22000,1,9,N","070000,1,N,1","+0228,2","+0038,1","99999,9",,,,,,"00,1,+99999,9,99,9",,,"00,99,1,00,1,00,1,99999,9,00,1,00,1",,"01,9",,,,"99999,9,08179,1","6,1,038,1,-028,1",,"SYN082AAXX  24211 76373 32988 01303 10228 20038 38179 40146 56038 92045 333 30/// 59028;","Q01+101463APOSLP"
"76373099999","2006-11-25T00:00:00","4","25.35","-105.75","1967.0","TEPEHUANES DGO., MX","FM-12","99999","V020","180,1,N,0010,1","22000,1,9,N","070000,1,N,1","+0196,1","+0043,1","10090,2","24,0000,9,1",,,,,"00,1,+99999,9,99,9",,,"00,99,1,00,1,00,1,99999,9,00,1,00,1",,"01,9",,"120,M,+0256,1","180,N,-0045,1","99999,9,08171,1","6,1,008,1,-027,1",,"SYN106AAXX  25001 76373 32988 01801 10196 20043 38171 40090 56008 92346 333 10256 21045 30/// 50281 59027 70000;","Q01  00002PRCP24"
"76373099999","2006-11-25T15:00:00","4","25.35","-105.75","1967.0","TEPEHUANES DGO., MX","FM-12","99999","V020","999,9,C,0000,1","22000,1,9,N","070000,1,N,1","+0028,1","-0013,1","10212,1",,,,,,"00,1,+99999,9,99,9",,,"00,99,1,00,1,00,1,99999,9,00,1,00,1",,"01,9",,,,"99999,9,08210,1","9,9,999,9,-020,1",,"SYN082AAXX  25151 76373 32988 00000 10028 21013 38210 40212 5//// 91445 333 30/// 59020;",
"76373099999","2006-11-25T18:00:00","4","25.35","-105.75","1967.0","TEPEHUANES DGO., MX","FM-12","99999","V020","999,9,C,0000,1","22000,1,9,N","070000,1,N,1","+9999,9","+0079,1","10188,1",,,,,,"00,1,+99999,9,99,9",,,"00,99,1,00,1,00,1,99999,9,00,1,00,1",,"01,9",,"120,M,+0190,1","240,N,-0012,1","99999,9,08199,1","7,1,011,1,-018,1",,"SYN094AAXX  25181 76373 32988 00000 10170 20079 38199 40188 57011 91748 333 10190 21012 30/// 59018;","Q01+001703ATOT  "
"76373099999","2006-11-26T12:00:00","4","25.35","-105.75","1967.0","TEPEHUANES DGO., MX","FM-12","99999","V020","999,9,C,0000,1","22000,1,9,N","000100,1,N,1","+0004,1","+0004,1","10184,1","24,0000,9,1",,,,,"00,1,+99999,9,99,9",,,"00,99,1,00,1,00,1,99999,9,00,1,00,1",,"09,9","999,-0036,1","120,N,+0000,1","240,M,+0256,1","99999,9,08202,1",,,"SYN100AAXX  26121 76373 32901 00000 10004 20004 38202 40184 5//// 91145 333 10256 20000 31036 58/// 70000;","Q01  00002PRCP24"
"76373099999","2006-11-26T15:00:00","4","25.35","-105.75","1967.0","TEPEHUANES DGO., MX","FM-12","99999","V020","999,9,C,0000,1","22000,1,9,N","070000,1,N,1","+0020,1","-0002,1","10219,1",,,,,,"03,1,+06000,1,00,1",,,"03,99,1,00,1,00,1,99999,9,00,1,08,1",,"01,9",,,,"99999,9,08215,1","2,1,013,1,+005,1",,"SYN100AAXX  26151 76373 32988 30000 10020 21002 38215 40219 52013 83008 91450 333 30/// 56006 58005 83070;","Q01+000032SCOTLC"
"76373099999","2006-11-26T18:00:00","4","25.35","-105.75","1967.0","TEPEHUANES DGO., MX","FM-12","99999","V020","210,1,N,0020,1","22000,1,9,N","070000,1,N,1","+9999,9","+0078,1","10198,1",,,,,,"03,1,+06000,1,00,1",,,"03,99,1,00,1,00,1,99999,9,00,1,08,1",,"01,9",,"120,M,+0256,1","240,N,-0014,1","99999,9,08205,1","8,1,010,1,+006,1",,"SYN112AAXX  26181 76373 32988 32102 10182 20078 38205 40198 58010 80008 91750 333 10256 21014 30/// 56006 58006 83070;","Q01+001823ATOT  "
"76373099999","2006-11-27T12:00:00","4","25.35","-105.75","1967.0","TEPEHUANES DGO., MX","FM-12","99999","V020","999,9,C,0000,1","22000,1,9,N","000100,1,N,1","+0024,1","+0015,1","10181,1","24,0000,9,1",,,,,"02,1,+06000,1,00,1",,,"02,99,1,00,1,00,1,99999,9,00,1,02,1",,"09,9","999,-0019,1","120,N,+0015,1","240,M,+0240,1","99999,9,08205,1","9,9,999,9,+003,1",,"SYN118AAXX  27121 76373 32901 20000 10024 20015 38205 40181 5//// 80002 91150 333 10240 20015 31019 56006 58003 70000 82070;",
"76373099999","2006-11-27T15:00:00","4","25.35","-105.75","1967.0","TEPEHUANES DGO., MX","FM-12","99999","V020","300,1,N,0010,1","22000,1,9,N","070000,1,N,1","+0040,1","+0022,1","10214,1",,,,,,"01,1,+00360,1,08,1","01,1,+02400,1,03,1",,"04,99,1,01,1,01,1,00450,1,04,1,02,1",,"01,9",,,,"99999,9,08214,1","2,1,009,1,-001,1",,"SYN112AAXX  27151 76373 32488 43001 10040 20022 38214 40214 52009 81142 91450 333 30/// 56666 59001 81812 81358 82070;",
"76373099999","2006-11-27T18:00:00","4","25.35","-105.75","1967.0","TEPEHUANES DGO., MX","FM-12","99999","V020","210,1,N,0020,1","22000,1,9,N","070000,1,N,1","+0178,1","+0085,1","10191,1",,,,,,"02,1,+00300,1,08,1","01,1,+03000,1,03,1",,"04,99,1,02,1,01,1,00450,1,03,1,05,1",,"01,9",,"120,M,+0194,1","240,N,+0002,1","99999,9,08207,1","7,1,007,1,+002,1",,"SYN124AAXX  27181 76373 32488 42102 10178 20085 38207 40191 57007 82135 91750 333 10194 20002 30/// 56666 58002 82810 81360 81070;",
"76373099999","2006-11-27T21:00:00","4","25.35","-105.75","1967.0","TEPEHUANES DGO., MX","FM-12","99999","V020","290,1,N,0070,1","22000,1,9,N","070000,1,N,1","+0210,1","+0090,1","99999,9",,,,,,"02,1,+00300,1,08,1",,,"03,99,1,99,9,99,9,00450,1,99,9,99,9",,"01,9",,,,"99999,9,08182,1","6,1,025,1,+999,9",,"SYN100AAXX  27211 76373 32488 32907 10210 20090 38182 40127 56025 92045 333 30/// 56606 58/// 82810 81070;","Q01+101273APOSLP"
"76373099999","2006-11-28T00:00:00","4","25.35","-105.75","1967.0","TEPEHUANES DGO., MX","FM-12","99999","V020","250,1,N,0030,1","09000,1,9,N","070000,1,N,1","+0174,1","+0075,1","10106,1","24,0000,9,1",,,,,"02,1,+00300,1,08,1",,,"06,99,1,02,1,01,1,00450,1,00,1,05,1",,"01,9",,"120,M,+0234,1","180,N,+0002,1","99999,9,08189,1","2,1,007,1,+999,9",,"SYN130AAXX  28001 76373 32488 62503 10174 20075 38189 40106 52007 82105 92350 333 10234 20002 30/// 50191 56606 58/// 70000 82810 81070;",
"76373099999","2006-11-28T12:00:00","4","25.35","-105.75","1967.0","TEPEHUANES DGO., MX","FM-12","99999","V020","999,9,C,0000,1","22000,1,9,N","000100,1,N,1","-0004,1","-0007,1","10202,1","24,0000,9,1",,,,,"00,1,+99999,9,99,9",,,"00,99,1,00,1,00,1,99999,9,00,1,00,1",,"09,9","999,-0044,1","120,N,-0010,1","240,M,+0234,1","99999,9,08212,1","9,9,999,9,+007,1",,"SYN100AAXX  28121 76373 32901 00000 11004 21007 38212 40202 5//// 91150 333 10234 21010 31044 58007 70000;","Q01  00002PRCP24"
"76373099999","2006-11-28T15:00:00","4","25.35","-105.75","1967.0","TEPEHUANES DGO., MX","FM-12","99999","V020","320,1,N,0010,1","22000,1,9,N","070000,1,N,1","+0028,1","-0003,1","10238,1",,,,,,"01,1,+06000,1,00,1",,,"01,99,1,00,1,00,1,99999,9,00,1,02,1",,"01,9",,,,"99999,9,08220,1","2,1,008,1,+006,1",,"SYN100AAXX  28151 76373 32988 13201 10028 21003 38220 40238 52008 80002 91450 333 30/// 56009 58006 81070;",
"76373099999","2006-11-28T18:00:00","4","25.35","-105.75","1967.0","TEPEHUANES DGO., MX","FM-12","99999","V020","150,1,N,0010,1","06000,1,9,N","070000,1,N,1","+0160,1","+0066,1","10209,1",,,,,,"07,1,+06000,1,02,1",,,"07,99,1,00,1,00,1,99999,9,00,1,08,1",,"01,9",,"120,M,+0186,1","240,N,-0016,1","99999,9,08208,1","7,1,012,1,+019,1",,"SYN112AAXX  28181 76373 32988 71501 10160 20066 38208 40209 57012 80008 91747 333 10186 21016 30/// 56006 58019 87270;",
"76373099999","2006-11-28T21:00:00","4","25.35","-105.75","1967.0","TEPEHUANES DGO., MX","FM-12","99999","V020","240,1,N,0010,1","06000,1,9,N","070000,1,N,1","+0220,2","+0085,1","99999,9",,,,,,"06,1,+06000,1,02,1",,,"06,99,1,00,1,00,1,99999,9,00,1,08,1",,"01,9",,,,"99999,9,08172,1","6,1,036,1,-010,1",,"SYN100AAXX  28211 76373 32988 62401 10220 20085 38172 40127 56036 80008 92049 333 30/// 56006 59010 86270;","Q01+101273APOSLP"
"76373099999","2006-11-29T00:00:00","4","25.35","-105.75","1967.0","TEPEHUANES DGO., MX","FM-12","99999","V020","240,1,N,0030,1","99999,9,9,N","070000,1,N,1","+0186,1","+0074,1","10090,1","24,0000,9,1",,,,,,,,"06,99,1,00,1,00,1,99999,9,00,1,08,1",,"01,9",,"120,M,+0248,1","180,N,-0016,1","99999,9,08176,1","2,1,001,1,-016,1",,"SYN124AAXX  29001 76373 32988 62403 10186 20074 38176 40090 52001 80008 92345 333 10248 21016 30/// 50351 56006 59016 70000 86270;",
"76373099999","2006-11-29T12:00:00","4","25.35","-105.75","1967.0","TEPEHUANES DGO., MX","FM-12","99999","V020","999,9,C,0000,1","22000,1,9,N","000100,1,N,1","-0004,1","-0009,1","10167,1","24,0000,9,1",,,,,"00,1,+99999,9,99,9",,,"00,99,1,00,1,00,1,99999,9,00,1,00,1",,"09,9","999,-0038,1","120,N,-0010,1","240,M,+0248,1","99999,9,08186,1","9,9,999,9,-026,1",,"SYN100AAXX  29121 76373 32901 00000 11004 21009 38186 40167 5//// 91155 333 10248 21010 31038 59026 70000;","Q01  00002PRCP24"
"76373099999","2006-11-29T15:00:00","4","25.35","-105.75","1967.0","TEPEHUANES DGO., MX","FM-12","99999","V020","330,1,N,0010,1","22000,1,9,N","070000,1,N,1","+0030,1","+0004,1","10205,1",,,,,,"01,1,+02400,1,03,1",,,"01,99,1,01,1,00,1,01250,1,04,1,00,1",,"01,9",,,,"99999,9,08198,1","2,1,012,1,-022,1",,"SYN100AAXX  29151 76373 32688 13301 10030 20004 38198 40205 52012 81040 91450 333 30/// 56060 59022 81358;",
"76373099999","2006-11-29T18:00:00","4","25.35","-105.75","1967.0","TEPEHUANES DGO., MX","FM-12","99999","V020","310,1,N,0020,1","22000,1,9,N","070000,1,N,1","+0170,1","+0075,1","10174,1",,,,,,"01,1,+06000,1,00,1",,,"01,99,1,00,1,00,1,99999,9,00,1,02,1",,"01,9",,"120,M,+0190,1","240,N,-0018,1","99999,9,08183,1","7,1,015,1,-025,1",,"SYN112AAXX  29181 76373 32988 13102 10170 20075 38183 40174 57015 80002 91745 333 10190 21018 30/// 56009 59025 81070;",
"76373099999","2006-11-29T21:00:00","4","25.35","-105.75","1967.0","TEPEHUANES DGO., MX","FM-12","99999","V020","260,1,N,9999,9","22000,1,9,N","070000,1,N,1","+0214,2","+0070,1","99999,9",,,,,,"03,1,+06000,1,00,1",,,"03,99,1,00,1,00,1,99999,9,00,1,02,1",,"01,9",,,,"99999,9,08159,1","7,1,024,1,-013,1",,"SYN100AAXX  29211 76373 32988 32656 10214 20070 38159 40111 57024 80002 92050 333 30/// 56006 59013 83070;","Q01+005603WOSPD Q020005603WOSPD "
"76373099999","2006-11-30T00:00:00","4","25.35","-105.75","1967.0","TEPEHUANES DGO., MX","FM-12","99999","V020","250,1,N,0020,1","99999,9,9,N","070000,1,N,1","+0164,1","+0072,1","10093,1","24,0000,9,1",,,,,,,,"06,99,1,00,1,00,1,99999,9,00,1,08,1",,"01,9",,"120,M,+0230,1","180,N,-0018,1","99999,9,08171,1","2,1,012,1,-002,1",,"SYN124AAXX  30001 76373 32988 62502 10164 20072 38171 40093 52012 80008 92350 333 10230 21018 30/// 50291 56006 59002 70000 88270;",
"76373099999","2006-11-30T12:00:00","4","25.35","-105.75","1967.0","TEPEHUANES DGO., MX","FM-12","99999","V020","999,9,C,0000,1","22000,1,9,N","000100,1,N,1","-0018,1","-0022,1","10195,1","24,0000,9,1",,,,,"01,1,+01800,1,03,1",,,"01,99,1,01,1,00,1,01250,1,04,1,00,1",,"09,9","999,-0064,1","120,N,-0020,1","240,M,+0230,1","99999,9,08202,1","9,9,999,9,-016,1",,"SYN118AAXX  30121 76373 32601 10000 11018 21022 38202 40195 5//// 81040 91150 333 10230 21020 31064 56090 59016 70000 81356;",
"76373099999","2006-11-30T15:00:00","4","25.35","-105.75","1967.0","TEPEHUANES DGO., MX","FM-12","99999","V020","290,1,N,0020,1","06000,1,9,N","070000,1,N,1","+0006,1","-0004,1","10245,1",,,,,,"08,1,+06000,1,02,1",,,"08,99,1,00,1,00,1,99999,9,00,1,08,1",,"01,9",,,,"99999,9,08221,1","2,1,019,1,+023,1",,"SYN100AAXX  30151 76373 32988 82902 10006 21004 38221 40245 52019 80008 91450 333 30/// 56006 58023 88270;",
"76373099999","2006-11-30T18:00:00","4","25.35","-105.75","1967.0","TEPEHUANES DGO., MX","FM-12","99999","V020","150,1,N,0020,1","22000,1,9,N","070000,1,N,1","+9999,9","+0045,1","10228,1",,,,,,"04,1,+06000,1,00,1",,,"04,99,1,00,1,00,1,99999,9,00,1,05,1",,"01,9",,"120,M,+0180,1","240,N,-0035,1","99999,9,08215,1","8,1,006,1,+032,1",,"SYN112AAXX  30181 76373 32988 41502 10168 20045 38215 40228 58006 80005 91750 333 10180 21035 30/// 56006 58032 84070;","Q01+001683ATOT  "
"76373099999","2006-11-30T21:00:00","4","25.35","-105.75","1967.0","TEPEHUANES DGO., MX","FM-12","99999","V020","130,1,N,0070,1","09000,1,C,N","070000,1,N,1","+0206,2","+0063,1","10170,1",,,,,,"02,1,+02400,1,03,1",,,"08,99,1,02,1,00,1,01250,1,03,1,08,1",,"01,9",,,,"99999,9,08199,1","7,1,016,1,+040,1",,"SYN106AAXX  30211 76373 32688 81307 10206 20063 38199 40170 57016 82038 92045 333 30/// 56066 58040 82358 86270;",
"76373099999","2006-12-01T00:00:00","4","25.35","-105.75","1967.0","TEPEHUANES DGO., MX","FM-12","99999","V020","150,1,N,0050,1","99999,9,9,N","070000,1,N,1","+0150,1","+0031,1","10148,1","24,0000,9,1",,,,,,,,"05,99,1,00,1,00,1,99999,9,00,1,08,1",,"01,9",,"120,M,+0222,1","180,N,-0035,1","99999,9,08210,1","2,1,011,1,+029,1",,"SYN124AAXX  01001 76373 32988 51505 10150 20031 38210 40148 52011 80008 92350 333 10222 21035 30/// 50275 56006 58029 70000 88270;",
"76373099999","2006-12-01T12:00:00","4","25.35","-105.75","1967.0","TEPEHUANES DGO., MX","FM-12","99999","V020","999,9,C,0000,1","02400,1,9,N","000100,1,N,1","+0012,1","-0020,1","10235,1","24,0000,9,1",,,,,"08,1,+02400,1,02,1",,,"08,99,1,08,1,00,1,01250,1,02,1,00,1",,"09,9","999,-0030,1","120,N,+0005,1","240,M,+0222,1","99999,9,08235,1","9,9,999,9,+033,1",,"SYN118AAXX  01121 76373 32601 80000 10012 21020 38235 40235 5//// 88020 91150 333 10222 20005 31030 56090 58033 70000 88258;",
"76373099999","2006-12-01T15:00:00","4","25.35","-105.75","1967.0","TEPEHUANES DGO., MX","FM-12","99999","V020","999,9,C,0000,1","02400,1,9,N","030000,1,N,1","+0018,1","-0018,1","10264,1",,,,,,"06,1,+02400,1,03,1",,,"08,99,1,06,1,00,1,01250,1,07,1,02,1",,"01,9",,,,"99999,9,08244,1","2,1,009,1,+023,1",,"SYN106AAXX  01151 76373 32680 80000 10018 21018 38244 40264 52009 86072 91450 333 30/// 56066 58023 86358 82070;",
"76373099999","2006-12-01T18:00:00","4","25.35","-105.75","1967.0","TEPEHUANES DGO., MX","FM-12","99999","V020","999,9,C,0000,1","03000,1,9,N","070000,1,N,1","+0104,1","+0011,1","10240,1",,,,,,"07,1,+03000,1,03,1",,,"07,99,1,07,1,00,1,01750,1,07,1,00,1",,"01,9",,"120,M,+0124,1","240,N,+0002,1","99999,9,08230,1","7,1,014,1,+015,1",,"SYN112AAXX  01181 76373 32788 70000 10104 20011 38230 40240 57014 87070 91748 333 10124 20002 30/// 56060 58015 87360;",
"76373099999","2006-12-01T21:00:00","4","25.35","-105.75","1967.0","TEPEHUANES DGO., MX","FM-12","99999","V020","120,1,N,0010,1","09000,1,C,N","070000,1,N,1","+0182,1","+0039,1","99999,9",,,,,,"02,1,+03000,1,03,1",,,"05,99,1,02,1,00,1,01750,1,03,1,02,1",,"01,9",,,,"99999,9,08192,1","6,1,038,1,-007,1",,"SYN106AAXX  01211 76373 32788 51201 10182 20039 38192 40167 56038 82032 92045 333 30/// 56606 59007 82360 83070;","Q01+101673APOSLP"
"76373099999","2006-12-02T00:00:00","4","25.35","-105.75","1967.0","TEPEHUANES DGO., MX","FM-12","99999","V020","240,1,N,0010,1","03000,1,C,N","070000,1,N,1","+0202,1","+0062,1","10139,1","24,0000,9,1",,,,,"06,1,+03000,1,03,1",,,"07,99,1,06,1,00,1,01250,1,07,1,01,1",,"01,9",,"120,M,+0225,1","180,N,+0002,1","99999,9,08198,1","2,1,006,1,-012,1",,"SYN130AAXX  02001 76373 32688 72401 10202 20062 38198 40139 52006 86071 92350 333 10225 20002 30/// 50371 56066 59012 70000 86360 81070;",
"76373099999","2006-12-02T15:00:00","4","25.35","-105.75","1967.0","TEPEHUANES DGO., MX","FM-12","99999","V020","300,1,N,0010,1","22000,1,9,N","070000,1,N,1","+0058,1","+0012,1","10214,1",,,,,,"01,1,+03000,1,03,1",,,"01,99,1,01,1,00,1,01250,1,03,1,00,1",,"01,9",,,,"99999,9,08226,1","9,9,999,9,-018,1",,"SYN100AAXX  02151 76373 32688 13001 10058 20012 38226 40214 5//// 81030 91445 333 30/// 56060 59018 81360;",
"76373099999","2006-12-02T18:00:00","4","25.35","-105.75","1967.0","TEPEHUANES DGO., MX","FM-12","99999","V020","070,1,N,0010,1","22000,1,9,N","070000,1,N,1","+9999,9","+0084,1","10195,1",,,,,,"01,1,+03000,1,03,1",,,"01,99,1,01,1,00,1,01250,1,03,1,00,1",,"01,9",,"120,M,+0214,1","240,N,+0010,1","99999,9,08220,1","7,1,006,1,-010,1",,"SYN112AAXX  02181 76373 32688 10701 10206 20084 38220 40195 57006 81030 91745 333 10214 20010 30/// 56060 59010 81360;","Q01+002063ATOT  "
"76373099999","2006-12-03T15:00:00","4","25.35","-105.75","1967.0","TEPEHUANES DGO., MX","FM-12","99999","V020","999,9,C,0000,1","03600,1,C,N","070000,1,N,1","+0060,1","+0022,1","10231,1",,,,,,"02,1,+00300,1,08,1","02,1,+03000,1,03,1",,"08,99,1,01,1,01,1,00250,1,03,1,08,1",,"01,9",,,,"99999,9,08253,1","9,9,999,9,+027,1",,"SYN112AAXX  03151 76373 32388 80000 10060 20022 38253 40231 5//// 81138 91445 333 30/// 56666 58027 82810 82360 86270;",
"76373099999","2006-12-03T18:00:00","4","25.35","-105.75","1967.0","TEPEHUANES DGO., MX","FM-12","99999","V020","060,1,N,0010,1","03000,1,9,N","070000,1,N,1","+0164,1","+0067,1","10235,1",,,,,,"07,1,+03000,1,03,1",,,"07,99,1,07,1,00,1,01250,1,06,1,00,1",,"01,9",,"120,M,+0176,1","240,N,+0030,1","99999,9,08258,1","2,1,005,1,+038,1",,"SYN112AAXX  03181 76373 32688 70601 10164 20067 38258 40235 52005 87060 91745 333 10176 20030 30/// 56060 58038 87360;",
"76373099999","2006-12-04T15:00:00","4","25.35","-105.75","1967.0","TEPEHUANES DGO., MX","FM-12","99999","V020","300,1,N,0010,1","09000,1,C,N","070000,1,N,1","+0030,1","-0013,1","10306,1",,,,,,"03,1,+03000,1,03,1",,,"08,99,1,03,1,00,1,01250,1,06,1,04,1",,"01,9",,,,"99999,9,08293,1","9,9,999,9,+040,1",,"SYN106AAXX  04151 76373 32688 83001 10030 21013 38293 40306 5//// 83064 91445 333 30/// 56066 58040 83360 85070;",
"76373099999","2006-12-04T18:00:00","4","25.35","-105.75","1967.0","TEPEHUANES DGO., MX","FM-12","99999","V020","999,9,C,0000,1","03000,1,9,N","070000,1,N,1","+0094,1","+0032,1","10299,1",,,,,,"06,1,+03000,1,03,1",,,"08,99,1,06,1,00,1,01250,1,07,1,02,1",,"01,9",,"120,M,+0100,1","240,N,+0004,1","99999,9,08286,1","7,1,007,1,+028,1",,"SYN118AAXX  04181 76373 32688 80000 10094 20032 38286 40299 57007 86072 91748 333 10100 20004 30/// 56066 58028 86360 82070;",
"76373099999","2006-12-04T21:00:00","4","25.35","-105.75","1967.0","TEPEHUANES DGO., MX","FM-12","99999","V020","120,1,N,0030,1","09000,1,C,N","070000,1,N,1","+0166,1","+0083,1","99999,9",,,,,,"01,1,+00300,1,08,1",,,"08,99,1,01,1,01,1,00450,1,00,1,08,1",,"01,9",,,,"99999,9,08247,1","6,1,039,1,+999,9",,"SYN106AAXX  04211 76373 32488 81203 10166 20083 38247 40231 56039 81108 92050 333 30/// 56606 58/// 81810 87270;","Q01+102313APOSLP"
"76373099999","2006-12-05T00:00:00","4","25.35","-105.75","1967.0","TEPEHUANES DGO., MX","FM-12","99999","V020","200,1,N,0010,1","09000,1,9,N","070000,1,N,1","+0156,1","+0085,1","10198,1","24,0000,9,1",,,,,"01,1,+00300,1,08,1","02,1,+03000,1,03,1",,"05,99,1,01,1,01,1,00450,1,03,1,02,1",,"01,9",,"120,M,+0190,1","180,N,+0004,1","99999,9,08242,1","7,1,005,1,+999,9",,"SYN136AAXX  05001 76373 32488 52001 10156 20085 38242 40198 57005 81132 92350 333 10190 20004 30/// 50211 56666 58/// 70000 81810 82360 82070;",
"76373099999","2006-12-05T12:00:00","4","25.35","-105.75","1967.0","TEPEHUANES DGO., MX","FM-12","99999","V020","999,9,C,0000,1","06000,1,9,N","000100,1,N,1","+0008,1","+0003,1","10266,1","24,0000,9,1",,,,,"06,1,+06000,1,02,1",,,"06,99,1,00,1,00,1,99999,9,00,1,08,1",,"09,9","999,-0028,1","120,N,+0002,1","240,M,+0190,1","99999,9,08262,1","9,9,999,9,-018,1",,"SYN118AAXX  05121 76373 32901 60000 10008 20003 38262 40266 5//// 80008 91150 333 10190 20002 31028 56006 59018 70000 86270;",
"76373099999","2006-12-05T15:00:00","4","25.35","-105.75","1967.0","TEPEHUANES DGO., MX","FM-12","99999","V020","999,9,C,0000,1","06000,1,9,N","070000,1,N,1","+0032,1","+0011,1","10299,1",,,,,,"08,1,+06000,1,02,1",,,"08,99,1,00,1,00,1,99999,9,00,1,08,1",,"01,9",,,,"99999,9,08273,1","2,1,011,1,-020,1",,"SYN100AAXX  05151 76373 32988 80000 10032 20011 38273 40299 52011 80008 91450 333 30/// 56006 59020 88270;",
"76373099999","2006-12-05T18:00:00","4","25.35","-105.75","1967.0","TEPEHUANES DGO., MX","FM-12","99999","V020","090,1,N,0010,1","22000,1,9,N","070000,1,N,1","+0152,1","+0081,1","10273,1",,,,,,"02,1,+03000,1,03,1",,,"04,99,1,02,1,00,1,01250,1,03,1,02,1",,"01,9",,"120,M,+0162,1","240,N,+0000,1","99999,9,08264,1","6,1,008,1,-022,1",,"SYN118AAXX  05181 76373 32688 40901 10152 20081 38264 40273 56008 82032 91748 333 10162 20000 30/// 56066 59022 82360 82070;",
"76373099999","2006-12-05T21:00:00","4","25.35","-105.75","1967.0","TEPEHUANES DGO., MX","FM-12","99999","V020","310,1,N,0020,1","09000,1,C,N","070000,1,N,1","+0244,2","+0118,1","10182,1",,,,,,"01,1,+00300,1,08,1","02,1,+03000,1,03,1",,"05,99,1,01,1,01,1,00450,1,03,1,02,1",,"01,9",,,,"99999,9,08222,1","6,1,042,1,-025,1",,"SYN112AAXX  05211 76373 32488 53102 10244 20118 38222 40182 56042 81132 92046 333 30/// 56666 59025 81810 82360 82070;",
"76373099999","2006-12-06T00:00:00","4","25.35","-105.75","1967.0","TEPEHUANES DGO., MX","FM-12","99999","V020","030,1,N,0010,1","03600,1,9,N","070000,1,N,1","+0220,1","+0103,1","10137,2","24,0000,9,1",,,,,"01,1,+00300,1,08,1","01,1,+03000,1,03,1",,"08,99,1,01,1,01,1,00450,1,03,1,08,1",,"01,9",,"120,M,+0262,1","180,N,+0000,1","99999,9,08217,1","7,1,005,1,-025,1",,"SYN136AAXX  06001 76373 32488 80301 10220 20103 38217 40137 57005 81138 92350 333 10262 20000 30/// 50151 56666 59025 70000 81810 81360 86270;",
"76373099999","2006-12-06T15:00:00","4","25.35","-105.75","1967.0","TEPEHUANES DGO., MX","FM-12","99999","V020","160,1,N,0010,1","06000,1,9,N","070000,1,N,1","+0062,1","+0034,1","10233,1",,,,,,"08,1,+06000,1,02,1",,,"08,99,1,00,1,00,1,99999,9,00,1,08,1",,"01,9",,,,"99999,9,08254,1","2,1,021,1,-019,1",,"SYN100AAXX  06151 76373 32988 81601 10062 20034 38254 40233 52021 80008 91450 333 30/// 56006 59019 88270;",
"76373099999","2006-12-06T18:00:00","4","25.35","-105.75","1967.0","TEPEHUANES DGO., MX","FM-12","99999","V020","060,1,N,0010,1","09000,1,C,N","070000,1,N,1","+9999,9","+0108,1","10214,1",,,,,,"02,1,+03000,1,03,1",,,"08,99,1,02,1,00,1,01250,1,03,1,08,1",,"01,9",,"120,M,+0208,1","240,N,+0031,1","99999,9,08245,1","7,1,009,1,-019,1",,"SYN118AAXX  06181 76373 32688 80601 10194 20108 38245 40214 57009 82038 91750 333 10208 20031 30/// 56066 59019 82360 86270;","Q01+001943ATOT  "
"76373099999","2006-12-07T00:00:00","4","25.35","-105.75","1967.0","TEPEHUANES DGO., MX","FM-12","99999","V020","300,1,N,0040,1","01200,1,9,N","070000,1,N,1","+0216,1","+0102,1","10109,1","24,0000,9,1",,,,,,,,"08,99,1,08,1,00,1,01250,1,07,1,00,1",,"01,9",,"120,M,+0265,1","180,N,+0031,1","99999,9,08204,1","7,1,005,1,-013,1",,"SYN124AAXX  07001 76373 32688 83004 10216 20102 38204 40109 57005 88070 92350 333 10265 20031 30/// 50371 56060 59013 70000 88360;",
"76373099999","2006-12-07T12:00:00","4","25.35","-105.75","1967.0","TEPEHUANES DGO., MX","FM-12","99999","V020","999,9,C,0000,1","02400,1,9,N","000100,1,N,1","+0086,1","+0068,1","10167,1","24,0000,9,1",,,,,"08,1,+02400,1,03,1",,,"08,99,1,08,1,00,1,01250,1,02,1,00,1",,"01,9","999,+0050,1","120,N,+0080,1","240,M,+0265,1","99999,9,08233,1","9,9,999,9,-004,1",,"SYN118AAXX  07121 76373 32601 80000 10086 20068 38233 40167 5//// 88020 91150 333 10265 20080 30050 56060 59004 70000 88358;",
"76373099999","2006-12-07T18:00:00","4","25.35","-105.75","1967.0","TEPEHUANES DGO., MX","FM-12","99999","V020","060,1,N,0010,1","03000,1,9,N","070000,1,N,1","+0146,1","+0081,1","10205,1",,,,,,"08,1,+03000,1,03,1",,,"08,99,1,08,1,00,1,01250,1,07,1,00,1",,"01,9",,"120,M,+0158,1","240,N,+0080,1","99999,9,08249,1","2,1,007,1,+004,1",,"SYN112AAXX  07181 76373 32688 80601 10146 20081 38249 40205 52007 88070 91752 333 10158 20080 30/// 56060 58004 88360;",
"76373099999","2006-12-07T21:00:00","4","25.35","-105.75","1967.0","TEPEHUANES DGO., MX","FM-12","99999","V020","150,1,N,0030,1","03000,1,9,N","070000,1,N,1","+0146,1","+0069,1","10172,1",,,,,,"08,1,+03000,1,03,1",,,"08,99,1,08,1,00,1,01250,1,07,1,00,1",,"01,9",,,,"99999,9,08229,1","6,1,020,1,+020,1",,"SYN100AAXX  07211 76373 32688 81503 10146 20069 38229 40172 56020 88070 92050 333 30/// 56060 58020 88360;",
"76373099999","2006-12-08T00:00:00","4","25.35","-105.75","1967.0","TEPEHUANES DGO., MX","FM-12","99999","V020","320,1,N,0020,1","99999,9,9,N","006000,1,N,1","+0108,1","+0091,1","10174,1","03,0010,9,1",,,"5,1,06,1","5,1,06,1",,,,"08,99,1,99,9,99,9,00250,1,99,9,99,9",,,,,,"99999,9,08234,1","2,1,005,1,+999,9","50,1","SYN072AAXX  08001 76373 01356 83202 10108 20091 38234 40174 52005 60017 75055;",
"76373099999","2006-12-08T12:00:00","4","25.35","-105.75","1967.0","TEPEHUANES DGO., MX","FM-12","99999","V020","120,1,N,0010,1","99999,9,9,N","000100,1,N,1","+0086,1","+0082,1","10195,1","03,0005,9,1",,,"5,1,06,1","2,1,06,1",,,,"08,99,1,99,9,99,9,00450,1,99,9,99,9",,,,,,"99999,9,08227,1",,"50,1","SYN072AAXX  08121 76373 01401 81201 10086 20082 38227 40195 5//// 69957 75052;",
"76373099999","2006-12-08T15:00:00","4","25.35","-105.75","1967.0","TEPEHUANES DGO., MX","FM-12","99999","V020","130,1,N,0030,1","22000,1,9,N","070000,1,N,1","+0096,1","+0089,1","10209,1","03,0003,9,1",,,,,"04,1,+00300,1,06,1",,,"04,99,1,04,1,04,1,00450,1,00,1,00,1",,"11,9",,,,"99999,9,08238,1","2,1,011,1,-004,1",,"SYN106AAXX  08151 76373 22488 41303 10096 20089 38238 40209 52011 84400 91450 333 32/// 56300 59004 69937 84610;",
"76373099999","2006-12-08T18:00:00","4","25.35","-105.75","1967.0","TEPEHUANES DGO., MX","FM-12","99999","V020","120,1,N,0050,1","00300,1,9,N","070000,1,N,1","+0126,1","+0089,1","10207,1",,,,,,"08,1,+00300,1,06,1",,,"99,99,9,07,1,06,1,00250,1,00,1,00,1",,"09,9",,"120,M,+0140,1","240,N,+0075,1","99999,9,08242,1","2,1,004,1,-007,1",,"SYN112AAXX  08181 76373 32388 71205 10126 20089 38242 40207 52004 87600 91746 333 10140 20075 31/// 56600 59007 88610;","Q01+000072SCOTCV"
"76373099999","2006-12-09T00:00:00","4","25.35","-105.75","1967.0","TEPEHUANES DGO., MX","FM-12","99999","V020","110,1,N,0040,1","00210,1,9,N","070000,1,N,1","+0116,1","+0085,1","10165,1","03,9999,9,9","24,0099,9,1",,"5,1,06,1","5,1,06,1",,,,"05,99,1,05,1,06,1,00250,1,00,1,00,1",,"09,9",,"120,M,+0150,1","180,N,+0075,1","99999,9,08221,1","7,1,002,1,-013,1","01,1","SYN136AAXX  09001 76373 21388 51104 10116 20085 38221 40165 57002 70155 85600 92352 333 10150 20075 31/// 50261 56500 59013 69907 70099 85610;","Q01  99992PRCP03"
"76373099999","2006-12-09T15:00:00","4","25.35","-105.75","1967.0","TEPEHUANES DGO., MX","FM-12","99999","V020","290,1,N,0010,1","00300,1,9,N","006000,1,N,1","+0072,1","+0060,1","10124,1",,,,,,"08,1,+00300,1,06,1",,,"08,99,1,08,1,06,1,00250,1,99,9,99,9",,"09,9",,,,"99999,9,08240,1","9,9,999,9,+002,1",,"SYN100AAXX  09151 76373 32356 82901 10072 20060 38240 40124 5//// 886// 91445 333 31/// 56/// 58002 88610;",
"76373099999","2006-12-09T18:00:00","4","25.35","-105.75","1967.0","TEPEHUANES DGO., MX","FM-12","99999","V020","120,1,N,0010,1","22000,1,9,N","070000,1,N,1","+0106,1","+0093,1","99999,9",,,,,,"00,1,+99999,9,99,9",,,"00,99,1,00,1,00,1,99999,9,00,1,00,1",,"09,9",,"120,M,+0127,1","240,N,+0052,1","99999,9,08237,1","7,1,003,1,-005,1",,"SYN094AAXX  09181 76373 32988 01201 10106 20093 38237 40209 57003 91745 333 10127 20052 31/// 59005;","Q01+102093APOSLP"
"76373099999","2006-12-10T15:00:00","4","25.35","-105.75","1967.0","TEPEHUANES DGO., MX","FM-12","99999","V020","300,1,N,0010,1","22000,1,9,N","070000,1,N,1","+0008,1","-0011,1","10276,1",,,,,,"00,1,+99999,9,99,9",,,"00,99,1,00,1,00,1,99999,9,00,1,00,1",,"09,9",,,,"99999,9,08251,1","9,9,999,9,+011,1",,"SYN082AAXX  10151 76373 32988 03001 10008 21011 38251 40276 5//// 91445 333 31/// 58011;",
"76373099999","2006-12-10T18:00:00","4","25.35","-105.75","1967.0","TEPEHUANES DGO., MX","FM-12","99999","V020","090,1,N,0010,1","22000,1,9,N","070000,1,N,1","+9999,9","+0045,1","10254,1",,,,,,"00,1,+99999,9,99,9",,,"00,99,1,00,1,00,1,99999,9,00,1,00,1",,"01,9",,"120,M,+0150,1","240,N,-0030,1","99999,9,08241,1","7,1,010,1,+004,1",,"SYN094AAXX  10181 76373 32988 00901 10140 20045 38241 40254 57010 91745 333 10150 21030 30/// 58004;","Q01+001403ATOT  "
"76373099999","2006-12-11T15:00:00","4","25.35","-105.75","1967.0","TEPEHUANES DGO., MX","FM-12","99999","V020","999,9,C,0000,1","22000,1,9,N","070000,1,N,1","+0000,1","-0010,1","10285,1",,,,,,"00,1,+99999,9,99,9",,,"00,99,1,00,1,00,1,99999,9,00,1,00,1",,"01,9",,,,"99999,9,08271,1","9,9,999,9,+010,1",,"SYN082AAXX  11151 76373 32988 00000 10000 21010 38271 40285 5//// 91448 333 30/// 58010;",
"76373099999","2006-12-11T18:00:00","4","25.35","-105.75","1967.0","TEPEHUANES DGO., MX","FM-12","99999","V020","060,1,N,0010,1","22000,1,9,N","070000,1,N,1","+0126,1","+0112,2","10275,1",,,,,,"00,1,+99999,9,99,9",,,"00,99,1,00,1,00,1,99999,9,00,1,00,1",,"01,9",,"120,M,+0138,1","240,N,-0038,1","99999,9,08255,1","7,1,006,1,+014,1",,"SYN094AAXX  11181 76373 32988 00601 10126 20112 38255 40275 57006 91745 333 10138 21038 30/// 58014;",
"76373099999","2006-12-11T21:00:00","4","25.35","-105.75","1967.0","TEPEHUANES DGO., MX","FM-12","99999","V020","060,1,N,0010,1","22000,1,9,N","070000,1,N,1","+0212,2","+0104,1","99999,9",,,,,,"00,1,+99999,9,99,9",,,"00,99,1,00,1,00,1,99999,9,00,1,00,1",,"01,9",,,,"99999,9,08226,1","6,1,029,1,+999,9",,"SYN082AAXX  11211 76373 32988 00601 10212 20104 38226 40205 56029 92045 333 30/// 58///;","Q01+102053APOSLP"
"76373099999","2006-12-12T15:00:00","4","25.35","-105.75","1967.0","TEPEHUANES DGO., MX","FM-12","99999","V020","999,9,C,0000,1","22000,1,9,N","070000,1,N,1","-0028,1","-0033,1","10316,1",,,,,,"01,1,+06000,1,00,1",,,"01,99,1,00,1,00,1,99999,9,00,1,05,1",,"01,9",,,,"99999,9,08279,1","9,9,999,9,+028,1",,"SYN100AAXX  12151 76373 32988 10000 11028 21033 38279 40316 5//// 80005 91445 333 30/// 56006 58028 81070;",
"76373099999","2006-12-12T18:00:00","4","25.35","-105.75","1967.0","TEPEHUANES DGO., MX","FM-12","99999","V020","120,1,N,0010,1","22000,1,9,N","070000,1,N,1","+0126,1","+0045,1","10304,1",,,,,,"00,1,+99999,9,99,9",,,"00,99,1,00,1,00,1,99999,9,00,1,00,1",,"01,9",,"120,M,+0138,1","240,N,-0052,1","99999,9,08272,1","7,1,007,1,+017,1",,"SYN094AAXX  12181 76373 32988 01201 10126 20045 38272 40304 57007 91748 333 10138 21052 30/// 58017;",
"76373099999","2006-12-12T21:00:00","4","25.35","-105.75","1967.0","TEPEHUANES DGO., MX","FM-12","99999","V020","120,1,N,0040,1","22000,1,9,N","070000,1,N,1","+0196,1","+0116,1","99999,9",,,,,,"00,1,+99999,9,99,9",,,"00,99,1,00,1,00,1,99999,9,00,1,00,1",,"01,9",,,,"99999,9,08230,1","7,1,042,1,+004,1",,"SYN082AAXX  12211 76373 32988 01204 10196 20116 38230 40216 57042 92048 333 30/// 58004;","Q01+102163APOSLP"
"76373099999","2006-12-13T15:00:00","4","25.35","-105.75","1967.0","TEPEHUANES DGO., MX","FM-12","99999","V020","999,9,C,0000,1","22000,1,9,N","070000,1,N,1","-0002,1","-0017,1","10275,1",,,,,,"00,1,+99999,9,99,9",,,"00,99,1,00,1,00,1,99999,9,00,1,00,1",,"01,9",,,,"99999,9,08254,1","9,9,999,9,-025,1",,"SYN082AAXX  13151 76373 32988 00000 11002 21017 38254 40275 5//// 91445 333 30/// 59025;",
"76373099999","2006-12-13T21:00:00","4","25.35","-105.75","1967.0","TEPEHUANES DGO., MX","FM-12","99999","V020","060,1,N,0010,1","09000,1,C,N","070000,1,N,1","+0216,2","+0134,1","10172,1",,,,,,"02,1,+00360,1,08,1",,,"05,99,1,03,1,01,1,00450,1,00,1,02,1",,"01,9",,,,"99999,9,08200,1","8,1,040,1,-030,1",,"SYN106AAXX  13211 76373 32488 50601 10216 20134 38200 40172 58040 83102 92050 333 30/// 56606 59030 82812 83070;",
"76373099999","2006-12-14T00:00:00","4","25.35","-105.75","1967.0","TEPEHUANES DGO., MX","FM-12","99999","V020","290,1,N,0030,1","03600,1,9,N","070000,1,N,1","+0184,1","+0118,1","10134,1","24,0000,9,1",,,,,"02,1,+00300,1,08,1","01,1,+02400,1,04,1",,"08,99,1,03,1,01,1,00450,1,04,1,02,1",,"01,9",,"120,M,+0236,1","180,N,-0032,1","99999,9,08200,1","5,1,000,1,-022,1",,"SYN136AAXX  14001 76373 32488 82903 10184 20118 38200 40134 55000 83142 92350 333 10236 21032 30/// 50331 56666 59022 70000 82810 81458 85270;",
"76373099999","2006-12-14T12:00:00","4","25.35","-105.75","1967.0","TEPEHUANES DGO., MX","FM-12","99999","V020","999,9,C,0000,1","22000,1,9,N","000100,1,N,1","+0016,1","+0016,1","10193,1","24,0000,9,1",,,,,"02,1,+02400,1,03,1",,,"02,99,1,02,1,00,1,01250,1,03,1,00,1",,"09,9","999,-0020,1","120,N,+0010,1","240,M,+0236,1","99999,9,08220,1",,,"SYN118AAXX  14121 76373 32601 20000 10016 20016 38220 40193 5//// 82030 91150 333 10236 20010 31020 56090 58/// 70000 82358;",
"76373099999","2006-12-14T15:00:00","4","25.35","-105.75","1967.0","TEPEHUANES DGO., MX","FM-12","99999","V020","999,9,C,0000,1","22000,1,9,N","070000,1,N,1","+0036,1","+0023,1","10235,1",,,,,,"00,1,+99999,9,99,9",,,"00,99,1,00,1,00,1,99999,9,00,1,00,1",,"01,9",,,,"99999,9,08236,1","2,1,016,1,-018,1",,"SYN082AAXX  14151 76373 32988 00000 10036 20023 38236 40235 52016 91450 333 30/// 59018;",
"76373099999","2006-12-14T18:00:00","4","25.35","-105.75","1967.0","TEPEHUANES DGO., MX","FM-12","99999","V020","090,1,N,0010,1","22000,1,9,N","070000,1,N,1","+0150,1","+0097,1","10221,1",,,,,,"01,1,+00300,1,08,1",,,"01,99,1,01,1,01,1,00450,1,00,1,00,1",,"01,9",,"120,M,+0166,1","240,N,+0000,1","99999,9,08229,1","8,1,007,1,-011,1",,"SYN112AAXX  14181 76373 32488 10901 10150 20097 38229 40221 58007 81100 91750 333 10166 20000 30/// 56200 59011 81810;",
"76373099999","2006-12-14T21:00:00","4","25.35","-105.75","1967.0","TEPEHUANES DGO., MX","FM-12","99999","V020","180,1,N,0010,1","22000,1,9,N","070000,1,N,1","+0208,2","+0115,1","10153,1",,,,,,"01,1,+00300,1,08,1",,,"01,99,1,01,1,01,1,00450,1,00,1,00,1",,"01,9",,,,"99999,9,08195,1","7,1,034,1,-005,1",,"SYN100AAXX  14211 76373 32488 11801 10208 20115 38195 40153 57034 81100 92050 333 30/// 56200 59005 81810;",
"76373099999","2006-12-15T00:00:00","4","25.35","-105.75","1967.0","TEPEHUANES DGO., MX","FM-12","99999","V020","999,9,C,0000,1","22000,1,9,N","070000,1,N,1","+0186,1","+0095,1","10113,1","24,0000,9,1",,,,,"00,1,+99999,9,99,9",,,"00,99,1,00,1,00,1,99999,9,00,1,00,1",,"01,9",,"120,M,+0226,1","180,N,+0000,1","99999,9,08189,1","5,1,006,1,-011,1",,"SYN106AAXX  15001 76373 32988 00000 10186 20095 38189 40113 55006 92350 333 10226 20000 30/// 50241 59011 70000;","Q01  00002PRCP24"
"76373099999","2006-12-15T12:00:00","4","25.35","-105.75","1967.0","TEPEHUANES DGO., MX","FM-12","99999","V020","999,9,C,0000,1","22000,1,9,N","000100,1,N,1","-0013,1","-0016,1","10216,1","24,0000,9,5",,,,,"00,1,+99999,9,99,9",,,"00,99,1,00,1,00,1,99999,9,00,1,00,1",,,,"120,N,-0020,1","240,M,+0226,1","99999,9,08217,1","9,9,999,9,-003,1",,"SYN100AAXX  15121 76373 32901 00000 11013 21016 38217 40216 5//// 91150 333 10226 21020 21052 59003 70000;",
"76373099999","2006-12-15T15:00:00","4","25.35","-105.75","1967.0","TEPEHUANES DGO., MX","FM-12","99999","V020","999,9,C,0000,1","22000,1,9,N","070000,1,N,1","+0006,1","-0007,1","10254,1",,,,,,"00,1,+99999,9,99,9",,,"00,99,1,00,1,00,1,99999,9,00,1,00,1",,"01,9",,,,"99999,9,08229,1","2,1,012,1,-007,1",,"SYN082AAXX  15151 76373 32988 00000 10006 21007 38229 40254 52012 91450 333 30/// 59007;",
"76373099999","2006-12-15T18:00:00","4","25.35","-105.75","1967.0","TEPEHUANES DGO., MX","FM-12","99999","V020","090,1,N,0010,1","22000,1,9,N","070000,1,N,1","+0134,1","+0064,1","10238,1",,,,,,"00,1,+99999,9,99,9",,,"00,99,1,00,1,00,1,99999,9,00,1,00,1",,"01,9",,"120,M,+0150,1","240,N,-0032,1","99999,9,08222,1","8,1,007,1,-007,1",,"SYN094AAXX  15181 76373 32988 00901 10134 20064 38222 40238 58007 91750 333 10150 21032 30/// 59007;",
"76373099999","2006-12-15T21:00:00","4","25.35","-105.75","1967.0","TEPEHUANES DGO., MX","FM-12","99999","V020","130,1,N,0040,1","22000,1,9,N","070000,1,N,1","+0208,2","+0071,1","10155,1",,,,,,"00,1,+99999,9,99,9",,,"00,99,1,00,1,00,1,99999,9,00,1,00,1",,"01,9",,,,"99999,9,08184,1","7,1,038,1,-011,1",,"SYN082AAXX  15211 76373 32988 01304 10208 20071 38184 40155 57038 92050 333 30/// 59011;",
"76373099999","2006-12-16T00:00:00","4","25.35","-105.75","1967.0","TEPEHUANES DGO., MX","FM-12","99999","V020","160,1,N,0010,1","22000,1,9,N","070000,1,N,1","+0184,1","+0081,1","10109,2","24,0000,9,1",,,,,"00,1,+99999,9,99,9",,,"00,99,1,00,1,00,1,99999,9,00,1,00,1",,"01,9",,"120,M,+0230,1","180,N,-0032,1","99999,9,08177,1","6,1,007,1,-012,1",,"SYN106AAXX  16001 76373 32988 01601 10184 20081 38177 40109 56007 92350 333 10230 21032 30/// 50231 59012 70000;","Q01  00002PRCP24"
"76373099999","2006-12-16T12:00:00","4","25.35","-105.75","1967.0","TEPEHUANES DGO., MX","FM-12","99999","V020","999,9,C,0000,1","22000,1,9,N","000100,1,N,1","-0018,1","-0023,1","10202,1","24,0000,9,1",,,,,"00,1,+99999,9,99,9",,,"00,99,1,00,1,00,1,99999,9,00,1,00,1",,"09,9","999,-0058,1","120,N,-0027,1","240,M,+0230,1","99999,9,08206,1","9,9,999,9,-011,1",,"SYN100AAXX  16121 76373 32901 00000 11018 21023 38206 40202 5//// 91150 333 10230 21027 31058 59011 70000;","Q01  00002PRCP24"
"76373099999","2006-12-16T15:00:00","4","25.35","-105.75","1967.0","TEPEHUANES DGO., MX","FM-12","99999","V020","999,9,C,0000,1","22000,1,9,N","070000,1,N,1","+0002,1","+9999,9","10240,1",,,,,,"00,1,+99999,9,99,9",,,"00,99,1,00,1,00,1,99999,9,00,1,00,1",,"01,9",,,,"99999,9,08216,1","2,1,010,1,-013,1",,"SYN082AAXX  16151 76373 32988 00000 10002 20013 38216 40240 52010 91450 333 30/// 59013;",
"76373099999","2006-12-16T18:00:00","4","25.35","-105.75","1967.0","TEPEHUANES DGO., MX","FM-12","99999","V020","120,1,N,0010,1","22000,1,9,N","070000,1,N,1","+9999,9","+0099,1","10221,1",,,,,,"00,1,+99999,9,99,9",,,"00,99,1,00,1,00,1,99999,9,00,1,00,1",,"01,9",,"120,M,+0230,1","240,N,-0038,1","99999,9,08209,1","7,1,007,1,-013,1",,"SYN094AAXX  16181 76373 32988 01201 10150 20099 38209 40221 57007 91750 333 10230 21038 30/// 59013;","Q01+001503ATOT  "
"76373099999","2006-12-19T12:00:00","4","25.35","-105.75","1967.0","TEPEHUANES DGO., MX","FM-12","99999","V020","999,9,C,0000,1","99999,9,9,N","000100,1,N,1","+0106,1","+0101,1","10158,1","01,0000,2,1",,,"2,1,06,1","2,1,06,1",,,,"08,99,1,99,9,99,9,01250,1,99,9,99,9",,,,,,"99999,9,08216,1",,"50,1","SYN072AAXX  19121 76373 01601 80000 10106 20101 38216 40158 5//// 69915 75022;",
"76373099999","2006-12-19T15:00:00","4","25.35","-105.75","1967.0","TEPEHUANES DGO., MX","FM-12","99999","V020","120,1,N,0010,1","03600,1,C,N","070000,1,N,1","+0104,1","+0089,1","10181,1",,,,"5,1,03,1","2,1,03,1","03,1,+00300,1,07,1",,,"08,99,1,03,1,07,1,00450,1,02,1,99,9",,"09,9",,,,"99999,9,08227,1","2,1,011,1,+999,9","50,1","SYN112AAXX  19151 76373 21488 81201 10104 20089 38227 40181 52011 75052 8372/ 91450 333 31/// 5666/ 58/// 83710 85558;",
"76373099999","2006-12-19T18:00:00","4","25.35","-105.75","1967.0","TEPEHUANES DGO., MX","FM-12","99999","V020","280,1,N,0010,1","99999,9,9,N","070000,1,N,1","+0118,1","+0104,1","10174,1","03,0000,2,1",,,"5,1,06,1","2,1,06,1",,,,"08,99,1,99,9,99,9,00450,1,99,9,99,9",,,,,,"99999,9,08227,1","4,1,000,1,+999,9","50,1","SYN072AAXX  19181 76373 11488 82801 10118 20104 38227 40174 54000 69907 75052;",
"76373099999","2006-12-19T21:00:00","4","25.35","-105.75","1967.0","TEPEHUANES DGO., MX","FM-12","99999","V020","210,1,N,0010,1","02400,1,9,N","070000,1,N,1","+0162,1","+0105,1","10139,1","03,0003,9,1",,,,,"03,1,+00360,1,08,1","03,1,+02400,1,03,1",,"08,99,1,03,1,02,1,00450,1,03,1,02,1",,"09,9",,,,"99999,9,08204,1","7,1,023,1,+999,9",,"SYN118AAXX  19211 76373 12488 82101 10162 20105 38204 40139 57023 83232 92050 333 31/// 56666 58/// 69937 83812 83358 82070;",
"76373099999","2006-12-20T00:00:00","4","25.35","-105.75","1967.0","TEPEHUANES DGO., MX","FM-12","99999","V020","280,1,N,0020,1","03600,1,9,N","070000,1,N,1","+0144,1","+0094,1","10139,1","24,0006,9,1",,,,,"04,1,+00360,1,08,1",,,"06,99,1,04,1,02,1,00450,1,03,1,00,1",,"01,9",,"120,M,+0184,1","180,N,+0094,1","99999,9,08209,1","3,1,005,1,+999,9",,"SYN130AAXX  20001 76373 32488 62802 10144 20094 38209 40139 53005 84230 92350 333 10184 20094 30/// 50141 56660 58/// 70006 84812 82358;",
"76373099999","2006-12-20T12:00:00","4","25.35","-105.75","1967.0","TEPEHUANES DGO., MX","FM-12","99999","V020","999,9,C,0000,1","22000,1,9,N","000100,1,N,1","+0022,1","+0015,1","10194,1","24,0005,9,1",,,,,"00,1,+99999,9,99,9",,,"00,99,1,00,1,00,1,99999,9,00,1,00,1",,"09,9","999,-0015,1","120,N,+0020,1","240,M,+0184,1","99999,9,08204,1","9,9,999,9,-012,1",,"SYN100AAXX  20121 76373 32901 00000 10022 20015 38204 40194 5//// 91150 333 10184 20020 31015 59012 70005;",
"76373099999","2006-12-20T15:00:00","4","25.35","-105.75","1967.0","TEPEHUANES DGO., MX","FM-12","99999","V020","999,9,C,0000,1","22000,1,9,N","070000,1,N,1","+0014,1","-0001,1","10198,1",,,,,,"01,1,+06000,1,00,1",,,"01,99,1,00,1,00,1,99999,9,00,1,02,1",,"01,9",,,,"99999,9,08208,1","2,1,004,1,-019,1",,"SYN100AAXX  20151 76373 32988 10000 10014 21001 38208 40198 52004 80002 91450 333 30/// 56006 59019 81070;",
"76373099999","2006-12-20T18:00:00","4","25.35","-105.75","1967.0","TEPEHUANES DGO., MX","FM-12","99999","V020","130,1,N,0010,1","22000,1,9,N","070000,1,N,1","+0160,1","+0054,1","10177,1",,,,,,"02,1,+02400,1,03,1",,,"04,99,1,02,1,00,1,01250,1,03,1,02,1",,"01,9",,"120,M,+0182,1","240,N,-0008,1","99999,9,08195,1","7,1,013,1,-032,1",,"SYN118AAXX  20181 76373 32688 41301 10160 20054 38195 40177 57013 82032 91750 333 10182 21008 30/// 56066 59032 82358 82070;",
"76373099999","2006-12-20T21:00:00","4","25.35","-105.75","1967.0","TEPEHUANES DGO., MX","FM-12","99999","V020","310,1,N,0070,1","06000,1,9,N","070000,1,N,1","+0198,1","+0038,1","10120,1",,,,,,"08,1,+06000,1,02,1",,,"99,99,9,00,1,00,1,99999,9,00,1,07,1",,"01,9",,,,"99999,9,08169,1","8,1,026,1,-035,1",,"SYN106AAXX  20211 76373 32988 73107 10198 20038 38169 40120 58026 80007 92050 333 30/// 56006 59035 88270 99020;","Q01+000072SCOTCV"
"76373099999","2006-12-21T00:00:00","4","25.35","-105.75","1967.0","TEPEHUANES DGO., MX","FM-12","99999","V020","310,1,N,0030,1","99999,9,9,N","070000,1,N,1","+0160,1","+0026,1","10109,1","24,0000,9,1",,,,,,,,"08,99,1,00,1,00,1,99999,9,00,1,08,1",,"01,9",,"120,M,+0222,1",,"99999,9,08180,1","3,1,011,1,-029,1",,"SYN118AAXX  21001 76373 32988 83103 10160 20026 38180 40109 53011 80008 92350 333 10222 30/// 50291 56006 59029 70000 88270;",
"76373099999","2006-12-21T12:00:00","4","25.35","-105.75","1967.0","TEPEHUANES DGO., MX","FM-12","99999","V020","999,9,C,0000,1","22000,1,9,N","000100,1,N,1","+0010,1","-0005,1","10172,1","24,0000,9,1",,,,,"00,1,+99999,9,99,9",,,"00,99,1,00,1,00,1,99999,9,00,1,00,1",,"09,9","999,-0030,1","120,N,+0002,1","240,M,+0222,1","99999,9,08196,1","9,9,999,9,-008,1",,"SYN100AAXX  21121 76373 32901 00000 10010 21005 38196 40172 5//// 91150 333 10222 20002 31030 59008 70000;","Q01  00002PRCP24"
"76373099999","2006-12-21T15:00:00","4","25.35","-105.75","1967.0","TEPEHUANES DGO., MX","FM-12","99999","V020","999,9,C,0000,1","22000,1,9,N","070000,1,N,1","+0008,1","-0016,1","10212,1",,,,,,"01,1,+02400,1,03,1",,,"01,99,1,01,1,00,1,01250,1,04,1,00,1",,"01,9",,,,"99999,9,08208,1","2,1,012,1,+000,1",,"SYN100AAXX  21151 76373 32688 10000 10008 21016 38208 40212 52012 81040 91450 333 30/// 56060 58000 81358;",
"76373099999","2006-12-21T18:00:00","4","25.35","-105.75","1967.0","TEPEHUANES DGO., MX","FM-12","99999","V020","999,9,C,0000,1","22000,1,9,N","070000,1,N,1","+0156,1","+0038,1","10193,1",,,,,,"02,1,+06000,1,00,1",,,"02,99,1,00,1,00,1,99999,9,00,1,02,1",,"01,9",,"120,M,+0166,1","240,N,-0022,1","99999,9,08199,1","8,1,013,1,+004,1",,"SYN112AAXX  21181 76373 32988 20000 10156 20038 38199 40193 58013 80002 91750 333 10166 21022 30/// 56006 58004 82070;",
"76373099999","2006-12-21T21:00:00","4","25.35","-105.75","1967.0","TEPEHUANES DGO., MX","FM-12","99999","V020","300,1,N,0040,1","22000,1,9,N","070000,1,N,1","+0202,2","+0022,1","10123,1",,,,,,"01,1,+06000,1,00,1",,,"01,99,1,00,1,00,1,99999,9,00,1,01,1",,"01,9",,,,"99999,9,08166,1","8,1,033,1,-003,1",,"SYN100AAXX  21211 76373 32988 13004 10202 20022 38166 40123 58033 80001 92050 333 30/// 56006 59003 81070;",
"76373099999","2006-12-22T00:00:00","4","25.35","-105.75","1967.0","TEPEHUANES DGO., MX","FM-12","99999","V020","260,1,N,0020,1","22000,1,9,N","070000,1,N,1","+0170,1","+0021,1","10100,1","24,0000,9,1",,,,,"00,1,+99999,9,99,9",,,"00,99,1,00,1,00,1,99999,9,00,1,00,1",,"01,9",,"120,M,+0218,1","180,N,-0022,1","99999,9,08175,1","3,1,009,1,-005,1",,"SYN106AAXX  22001 76373 32988 02602 10170 20021 38175 40100 53009 92350 333 10218 21022 30/// 50251 59005 70000;","Q01  00002PRCP24"
"76373099999","2006-12-22T12:00:00","4","25.35","-105.75","1967.0","TEPEHUANES DGO., MX","FM-12","99999","V020","999,9,C,0000,1","22000,1,9,N","000100,1,N,1","-0036,1","-0042,1","10216,1","24,0000,9,1",,,,,"00,1,+99999,9,99,9",,,"00,99,1,00,1,00,1,99999,9,00,1,00,1",,"09,9","999,-0080,1","120,N,-0042,1","240,M,+0218,1","99999,9,08207,1","9,9,999,9,+011,1",,"SYN100AAXX  22121 76373 32901 00000 11036 21042 38207 40216 5//// 91150 333 10218 21042 31080 58011 70000;","Q01  00002PRCP24"
"76373099999","2006-12-22T15:00:00","4","25.35","-105.75","1967.0","TEPEHUANES DGO., MX","FM-12","99999","V020","999,9,C,0000,1","22000,1,9,N","070000,1,N,1","-0024,1","-0055,1","10257,1",,,,,,"00,1,+99999,9,99,9",,,"00,99,1,00,1,00,1,99999,9,00,1,00,1",,"01,9",,,,"99999,9,08215,1","3,1,008,1,+007,1",,"SYN082AAXX  22151 76373 32988 00000 11024 21055 38215 40257 53008 91450 333 30/// 58007;",
"76373099999","2006-12-22T18:00:00","4","25.35","-105.75","1967.0","TEPEHUANES DGO., MX","FM-12","99999","V020","120,1,N,0010,1","22000,1,9,N","070000,1,N,1","+0114,1","+0052,1","10224,1",,,,,,"00,1,+99999,9,99,9",,,"00,99,1,00,1,00,1,99999,9,00,1,00,1",,"01,9",,"120,M,+0126,1","240,N,-0055,1","99999,9,08196,1","8,1,009,1,-003,1",,"SYN094AAXX  22181 76373 32988 01201 10114 20052 38196 40224 58009 91750 333 10126 21055 30/// 59003;",
"76373099999","2006-12-23T00:00:00","4","25.35","-105.75","1967.0","TEPEHUANES DGO., MX","FM-12","99999","V020","220,1,N,0030,1","22000,1,9,N","070000,1,N,1","+0160,1","+0032,1","99999,9","24,0000,9,1",,,,,"00,1,+99999,9,99,9",,,"00,99,1,00,1,00,1,99999,9,00,1,00,1",,"01,9",,"120,M,+0226,1","180,N,+0055,1","99999,9,08167,1","5,1,003,1,-008,1",,"SYN106AAXX  23001 76373 32988 02203 10160 20032 38167 40111 55003 92350 333 10226 20055 30/// 50261 59008 70000;","Q01+101113APOSLPQ02  00002PRCP24"
"76373099999","2006-12-23T12:00:00","4","25.35","-105.75","1967.0","TEPEHUANES DGO., MX","FM-12","99999","V020","999,9,C,0000,1","22000,1,9,N","000100,1,N,1","-0022,1","-0031,1","10132,1","24,0000,9,1",,,,,"00,1,+99999,9,99,9",,,"00,99,1,00,1,00,1,99999,9,00,1,00,1",,"09,9","999,-0060,1","120,N,-0032,1","240,M,+0226,1","99999,9,08142,1","9,9,999,9,-065,1",,"SYN100AAXX  23121 76373 32901 00000 11022 21031 38142 40132 5//// 91150 333 10226 21032 31060 59065 70000;","Q01  00002PRCP24"
"76373099999","2006-12-23T15:00:00","4","25.35","-105.75","1967.0","TEPEHUANES DGO., MX","FM-12","99999","V020","320,1,N,0020,1","00300,1,9,N","070000,1,N,1","+0060,1","+0022,1","10153,1",,,,,,"08,1,+00300,1,06,1",,,"08,99,1,08,1,04,1,00450,1,00,1,00,1",,"01,9",,,,"99999,9,08144,1","1,1,002,1,-071,1",,"SYN100AAXX  23151 76373 32488 83202 10060 20022 38144 40153 51002 88400 91450 333 30/// 56600 59071 88610;",
"76373099999","2006-12-27T12:00:00","4","25.35","-105.75","1967.0","TEPEHUANES DGO., MX","FM-12","99999","V020","999,9,C,0000,1","22000,1,9,N","000100,1,N,1","-0042,1","-0050,1","10252,1","24,0000,9,1",,,,,"00,1,+99999,9,99,9",,,"00,99,1,00,1,00,1,99999,9,00,1,00,1",,"09,9","999,-0080,1","120,N,-0050,1","240,M,+0204,1","99999,9,08227,1",,,"SYN100AAXX  27121 76373 32901 00000 11042 21050 38227 40252 5//// 91150 333 10204 21050 31080 58/// 70000;","Q01  00002PRCP24"
"76373099999","2006-12-27T15:00:00","4","25.35","-105.75","1967.0","TEPEHUANES DGO., MX","FM-12","99999","V020","999,9,C,0000,1","22000,1,9,N","070000,1,N,1","+0032,1","-0037,1","10283,1",,,,,,"00,1,+99999,9,99,9",,,"00,99,1,00,1,00,1,99999,9,00,1,00,1",,"14,9",,,,"99999,9,08229,1","1,1,002,1,+999,9",,"SYN082AAXX  27151 76373 32988 00000 10032 21037 38229 40283 51002 91450 333 34/// 58///;",
"76373099999","2006-12-27T18:00:00","4","25.35","-105.75","1967.0","TEPEHUANES DGO., MX","FM-12","99999","V020","110,1,N,0010,1","22000,1,9,N","070000,1,N,1","+0118,1","+0056,1","10254,1",,,,,,"00,1,+99999,9,99,9",,,"00,99,1,00,1,00,1,99999,9,00,1,00,1",,"01,9",,"120,M,+0142,1","240,N,-0060,1","99999,9,08214,1","6,1,015,1,+999,9",,"SYN094AAXX  27181 76373 32988 01101 10118 20056 38214 40254 56015 91750 333 10142 21060 30/// 58///;",
"76373099999","2006-12-28T12:00:00","4","25.35","-105.75","1967.0","TEPEHUANES DGO., MX","FM-12","99999","V020","040,1,N,0010,1","22000,1,9,N","000100,1,N,1","+0028,1","-0003,1","10132,1","24,0000,9,1",,,,,"00,1,+99999,9,99,9",,,"00,99,1,00,1,00,1,99999,9,00,1,00,1",,"09,9","999,-0054,1","120,N,-0022,1","240,M,+0242,1","99999,9,08150,1","9,9,999,9,-077,1",,"SYN100AAXX  28121 76373 32901 00401 10028 21003 38150 40132 5//// 91150 333 10242 21022 31054 59077 70000;","Q01  00002PRCP24"
"76373099999","2006-12-28T15:00:00","4","25.35","-105.75","1967.0","TEPEHUANES DGO., MX","FM-12","99999","V020","120,1,N,0010,1","22000,1,9,N","070000,1,N,1","+0050,1","-0007,1","10162,1",,,,,,"00,1,+99999,9,99,9",,,"00,99,1,00,1,00,1,99999,9,00,1,00,1",,"01,9",,,,"99999,9,08160,1","3,1,010,1,-069,1",,"SYN082AAXX  28151 76373 32988 01201 10050 21007 38160 40162 53010 91450 333 30/// 59069;",
"76373099999","2006-12-28T18:00:00","4","25.35","-105.75","1967.0","TEPEHUANES DGO., MX","FM-12","99999","V020","200,1,N,0090,1","22000,1,9,N","070000,1,N,1","+9999,9","+0062,1","10130,1",,,,,,"01,1,+00300,1,08,1",,,"01,99,1,01,1,01,1,00450,1,00,1,00,1",,"01,9",,"120,M,+0190,1","240,N,-0022,1","99999,9,08160,1","0,1,000,1,-054,1",,"SYN112AAXX  28181 76373 32488 12009 10164 20062 38160 40130 50000 81100 91750 333 10190 21022 30/// 56500 59054 81810;","Q01+001643ATOT  "
"76373099999","2006-12-29T12:00:00","4","25.35","-105.75","1967.0","TEPEHUANES DGO., MX","FM-12","99999","V020","180,1,N,0030,1","99999,9,9,N","000100,1,N,1","+0082,1","+0064,1","10030,1","01,0003,9,1",,,"5,1,06,1","2,1,06,1",,,,"08,99,1,99,9,99,9,00450,1,99,9,99,9",,,,,,"99999,9,08114,1",,"50,1","SYN072AAXX  29121 76373 11401 81803 10082 20064 38114 40030 5//// 69935 75052;",
"76373099999","2006-12-29T15:00:00","4","25.35","-105.75","1967.0","TEPEHUANES DGO., MX","FM-12","99999","V020","160,1,N,0010,1","00300,1,9,N","015000,1,N,1","+0070,1","+0051,1","10095,1","03,0005,9,1",,,"5,1,03,1","2,1,03,1","08,1,+00300,1,07,1",,,"08,99,1,08,1,07,1,00450,1,99,9,99,9",,"11,9",,,,"99999,9,08142,1","2,1,028,1,-018,1","50,1","SYN112AAXX  29151 76373 21465 81601 10070 20051 38142 40095 52028 75052 887// 91450 333 32/// 566// 59018 69957 88710;",
"76373099999","2006-12-29T18:00:00","4","25.35","-105.75","1967.0","TEPEHUANES DGO., MX","FM-12","99999","V020","290,1,N,0010,1","99999,9,9,N","015000,1,N,1","+0064,1","+0062,1","10113,1","03,0041,9,1",,,"5,1,06,1","2,1,06,1",,,,"08,99,1,99,9,99,9,00450,1,99,9,99,9",,,,,,"99999,9,08153,1","1,1,011,1,+999,9","50,1","SYN072AAXX  29181 76373 11465 82901 10064 20062 38153 40113 51011 60047 75052;",
"76373099999","2006-12-30T12:00:00","4","25.35","-105.75","1967.0","TEPEHUANES DGO., MX","FM-12","99999","V020","999,9,C,0000,1","22000,1,9,N","000100,1,N,1","-0032,1","-0032,1","10198,1","24,0180,9,1",,,,,"00,1,+99999,9,99,9",,,"00,99,1,00,1,00,1,99999,9,00,1,00,1",,"09,9","999,-0055,1","120,N,-0040,1","240,M,+0090,1","99999,9,08172,1",,,"SYN100AAXX  30121 76373 32901 00000 11032 21032 38172 40198 5//// 91150 333 10090 21040 31055 56058 70181;",
"76373099999","2006-12-30T15:00:00","4","25.35","-105.75","1967.0","TEPEHUANES DGO., MX","FM-12","99999","V020","999,9,C,0000,1","22000,1,9,N","070000,1,N,1","-0018,1","-0018,1","10231,1",,,,,,"00,1,+99999,9,99,9",,,"00,99,1,00,1,00,1,99999,9,00,1,00,1",,"14,9",,,,"99999,9,08192,1","2,1,020,1,+050,1",,"SYN082AAXX  30151 76373 32988 00000 11018 21018 38192 40231 52020 91450 333 34/// 58050;",
"76373099999","2006-12-31T12:00:00","4","25.35","-105.75","1967.0","TEPEHUANES DGO., MX","FM-12","99999","V020","999,9,C,0000,1","22000,1,9,N","000100,1,N,1","-0042,1","-0048,1","10259,1","24,0000,9,1",,,,,"00,1,+99999,9,99,9",,,"00,99,1,00,1,00,1,99999,9,00,1,00,1",,"09,9","999,-0075,1","120,N,-0050,1","240,M,+0142,1","99999,9,08225,1","9,9,999,9,+053,1",,"SYN100AAXX  31121 76373 32901 00000 11042 21048 38225 40259 5//// 91150 333 10142 21050 31075 58053 70000;","Q01  00002PRCP24"
"76373099999","2006-12-31T15:00:00","4","25.35","-105.75","1967.0","TEPEHUANES DGO., MX","FM-12","99999","V020","999,9,C,0000,1","22000,1,9,N","070000,1,N,1","-0032,1","-0032,1","10309,1",,,,,,"00,1,+99999,9,99,9",,,"00,99,1,00,1,00,1,99999,9,00,1,00,1",,"14,9",,,,"99999,9,08243,1","2,1,018,1,+051,1",,"SYN082AAXX  31151 76373 32988 00000 11032 21032 38243 40309 52018 91450 333 34/// 58051;",
"76373099999","2006-12-31T18:00:00","4","25.35","-105.75","1967.0","TEPEHUANES DGO., MX","FM-12","99999","V020","100,1,N,0010,1","22000,1,9,N","070000,1,N,1","+0068,1","+0024,1","10297,1",,,,,,"00,1,+99999,9,99,9",,,"00,99,1,00,1,00,1,99999,9,00,1,00,1",,"09,9",,"120,M,+0084,1","240,N,-0060,1","99999,9,08241,1","8,1,006,1,+999,9",,"SYN094AAXX  31181 76373 32988 01001 10068 20024 38241 40297 58006 91738 333 10084 21060 31/// 56037;",
