"STATION","DATE","SOURCE","LATITUDE","LONGITUDE","ELEVATION","NAME","REPORT_TYPE","CALL_SIGN","QUALITY_CONTROL","WND","CIG","VIS","TMP","DEW","SLP","AA1","AA2","AA3","AY1","AY2","GA1","GA2","GF1","GJ1","IA1","IA2","KA1","KA2","MA1","MD1","ME1","MW1","REM","EQD"
"76373099999","2012-01-01T00:00:00","4","25.35","-105.75","1967.0","TEPEHUANES DGO., MX","FM-12","99999","V020","999,9,C,0000,1","22000,1,9,N","020000,1,N,1","+0220,1","-0026,1","10157,1","24,0000,9,1",,,,,"00,1,+99999,9,99,9",,"00,99,1,00,1,00,1,99999,9,00,1,00,1",,"01,9",,"120,M,+0270,1","180,N,-0040,1","99999,9,08210,1","2,1,001,1,-026,1",,,"SYN106AAXX  01001 76373 32970 00000 10220 21026 38210 40157 52001 90055 333 10270 21040 30/// 50301 59026 70000;","Q01  00002PRCP24"
"76373099999","2012-01-01T06:00:00","4","25.35","-105.75","1967.0","TEPEHUANES DGO., MX","FM-12","99999","V020","999,9,C,0000,1","22000,1,9,N","001000,1,N,1","+0086,1","-0030,1","10196,1",,,,,,"00,1,+99999,9,99,9",,"00,99,1,00,1,00,1,99999,9,00,1,00,1","0516,9","01,9",,"240,M,+0270,1","240,N,-0040,1","99999,9,08242,1","2,1,024,1,+999,9",,,"SYN106AAXX  01061 76373 32910 00000 10086 21030 38242 40196 52024 90555 333 10270 21040 30/// 55086 21385 58018;",
"76373099999","2012-01-01T12:00:00","4","25.35","-105.75","1967.0","TEPEHUANES DGO., MX","FM-12","99999","V020","999,9,C,0000,1","22000,1,9,N","001000,1,N,1","-0006,1","-0041,1","10226,1","24,0000,9,1",,,,,"00,1,+99999,9,99,9",,"00,99,1,00,1,00,1,99999,9,00,1,00,1",,"09,9","999,-0045,9","120,N,-0032,1","240,M,+0270,1","99999,9,08266,1","9,9,999,9,+033,1",,,"SYN100AAXX  01121 76373 32910 00000 11006 21041 38266 40226 5//// 91155 333 10270 21032 31045 58033 70000;","Q01  00002PRCP24"
"76373099999","2012-01-01T15:00:00","4","25.35","-105.75","1967.0","TEPEHUANES DGO., MX","FM-12","99999","V020","999,9,C,0000,1","22000,1,9,N","020000,1,N,1","+0017,1","-0053,1","10178,1",,,,,,"00,1,+99999,9,99,9",,"00,99,1,00,1,00,1,99999,9,00,1,00,1",,"01,9",,,,"99999,9,08228,1","7,1,002,1,-024,1",,,"SYN082AAXX  01151 76373 32970 00000 10017 21053 38228 40178 57002 91455 333 30/// 59024;",
"76373099999","2012-01-01T18:00:00","4","25.35","-105.75","1967.0","TEPEHUANES DGO., MX","FM-12","99999","V020","999,9,C,0000,1","22000,1,9,N","030000,1,N,1","+0167,1","-0035,1","99999,9",,,,,,"00,1,+99999,9,99,9",,"00,99,1,00,1,00,1,99999,9,00,1,00,1",,"01,9",,"120,M,+0180,1","240,N,-0032,1",,"2,1,076,1,-054,1",,,"SYN094AAXX  01181 76373 32980 00000 10167 21035 38292 40257 52076 91750 333 10180 21032 30/// 59054;","Q01+082923APOSP "
"76373099999","2012-01-01T21:00:00","4","25.35","-105.75","1967.0","TEPEHUANES DGO., MX","FM-12","99999","V020","160,1,N,0020,1","22000,1,9,N","030000,1,N,1","+0228,2","-0077,1","10223,1",,,,,,"00,1,+99999,9,99,9",,"00,99,1,00,1,00,1,99999,9,00,1,00,1",,"01,9",,,,"99999,9,08264,1","7,1,032,1,+064,1",,,"SYN082AAXX  01211 76373 32980 01602 10228 21077 38264 40223 57032 92050 333 30/// 58064;",
"76373099999","2012-01-02T00:00:00","4","25.35","-105.75","1967.0","TEPEHUANES DGO., MX","FM-12","99999","V020","160,1,N,0020,1","22000,1,9,N","030000,1,N,1","+0213,1","-0080,1","10226,1","24,0000,9,1",,,,,"00,1,+99999,9,99,9",,"00,99,1,00,1,00,1,99999,9,00,1,00,1",,"01,9",,"120,M,+0245,1","180,N,-0032,1","99999,9,08266,1","2,1,002,1,+055,1",,,"SYN106AAXX  02001 76373 32980 01602 10213 21080 38266 40226 52002 92355 333 10245 21032 30/// 50401 58055 70000;","Q01  00002PRCP24"
"76373099999","2012-01-02T03:00:00","4","25.35","-105.75","1967.0","TEPEHUANES DGO., MX","FM-12","99999","V020","999,9,C,0000,1","22000,1,9,N","001000,1,N,1","+0126,1","-0083,1","10172,1",,,,,,"00,1,+99999,9,99,9",,"00,99,1,00,1,00,1,99999,9,00,1,00,1",,"01,9",,,,"99999,9,08222,1","7,1,044,1,+029,1",,,"SYN082AAXX  02031 76373 32910 00000 10126 21083 38222 40172 57044 90250 333 30/// 58029;",
"76373099999","2012-01-02T12:00:00","4","25.35","-105.75","1967.0","TEPEHUANES DGO., MX","FM-12","99999","V020","999,9,C,0000,1","22000,1,9,N","001000,1,N,1","+0001,1","-0078,1","10190,1","24,0000,9,1",,,,,"00,1,+99999,9,99,9",,"00,99,1,00,1,00,1,99999,9,00,1,00,1",,"09,9","999,-0038,9","120,N,-0021,1","240,M,+0245,1","99999,9,08237,1","9,9,999,9,+026,1",,,"SYN100AAXX  02121 76373 32910 00000 10001 21078 38237 40190 5//// 91155 333 10245 21021 31038 58026 70000;","Q01  00002PRCP24"
"76373099999","2012-01-02T15:00:00","4","25.35","-105.75","1967.0","TEPEHUANES DGO., MX","FM-12","99999","V020","999,9,C,0000,1","22000,1,9,N","020000,1,N,1","+0015,1","-0077,1","10219,1",,,,,,"00,1,+99999,9,99,9",,"00,99,1,00,1,00,1,99999,9,00,1,00,1",,"01,9",,,,"99999,9,08261,1","7,1,036,1,+046,1",,,"SYN082AAXX  02151 76373 32970 00000 10015 21077 38261 40219 57036 91455 333 30/// 58046;",
"76373099999","2012-01-02T18:00:00","4","25.35","-105.75","1967.0","TEPEHUANES DGO., MX","FM-12","99999","V020","160,1,N,0010,1","22000,1,9,N","030000,1,N,1","+0150,1","-0043,1","10198,1",,,,,,"00,1,+99999,9,99,9",,"00,99,1,00,1,00,1,99999,9,00,1,00,1",,"01,9",,"120,M,+0151,1","240,N,-0021,1","99999,9,08244,1","2,1,023,1,-051,1",,,"SYN094AAXX  02181 76373 32980 01601 10150 21043 38244 40198 52023 91755 333 10151 21021 30/// 59051;",
"76373099999","2012-01-02T21:00:00","4","25.35","-105.75","1967.0","TEPEHUANES DGO., MX","FM-12","99999","V020","140,1,N,0020,1","22000,1,9,N","030000,1,N,1","+0201,1","+0017,1","10155,1",,,,,,"00,1,+99999,9,99,9",,"00,99,1,00,1,00,1,99999,9,00,1,00,1",,"01,9",,,,"99999,9,08209,1","7,1,042,1,-065,1",,,"SYN082AAXX  02211 76373 32980 01402 10201 20017 38209 40155 57042 92055 333 30/// 59065;",
"76373099999","2012-01-03T00:00:00","4","25.35","-105.75","1967.0","TEPEHUANES DGO., MX","FM-12","99999","V020","160,1,N,0020,1","22000,1,9,N","030000,1,N,1","+0187,1","+0015,1","10165,1","24,0000,9,1",,,,,"00,1,+99999,9,99,9",,"00,99,1,00,1,00,1,99999,9,00,1,00,1",,"01,9",,"120,M,+0215,1","180,N,-0021,1","99999,9,08217,1","2,1,012,1,-051,1",,,"SYN106AAXX  03001 76373 32980 01602 10187 20015 38217 40165 52012 92355 333 10215 21021 30/// 50301 59051 70000;","Q01  00002PRCP24"
"76373099999","2012-01-03T03:00:00","4","25.35","-105.75","1967.0","TEPEHUANES DGO., MX","FM-12","99999","V020","999,9,C,0000,1","22000,1,9,N","001000,1,N,1","+0133,1","+0009,1","99999,9",,,,,,"00,1,+99999,9,99,9",,"00,99,1,00,1,00,1,99999,9,00,1,00,1",,,,,,,,,,"SYN082AAXX  03031 76373 32910 00000 10133 20009 25032 38235 40187 90250 333 30/// 58035;",
"76373099999","2012-01-03T06:00:00","4","25.35","-105.75","1967.0","TEPEHUANES DGO., MX","FM-12","99999","V020","999,9,C,0000,1","22000,1,9,N","001000,1,N,1","+0074,1","-0006,1","10201,1",,,,,,"00,1,+99999,9,99,9",,"00,99,1,00,1,00,1,99999,9,00,1,00,1","0552,9","01,9",,"240,M,+0215,1","240,N,-0021,1","99999,9,08246,1","2,1,011,1,+999,9",,,"SYN106AAXX  03061 76373 32910 00000 10074 21006 38246 40201 52011 90550 333 10215 21021 30/// 55092 21506 58026;",
"76373099999","2012-01-03T15:00:00","4","25.35","-105.75","1967.0","TEPEHUANES DGO., MX","FM-12","99999","V020","999,9,C,0000,1","22000,1,9,N","020000,1,N,1","-0001,1","-0024,1","10210,1",,,,,,"00,1,+99999,9,99,9",,"00,99,1,00,1,00,1,99999,9,00,1,00,1",,"01,9",,,,"99999,9,08253,1","2,1,011,1,-012,1",,,"SYN082AAXX  03151 76373 32970 00000 11001 21024 38253 40210 52011 91455 333 30/// 59012;",
"76373099999","2012-01-03T18:00:00","4","25.35","-105.75","1967.0","TEPEHUANES DGO., MX","FM-12","99999","V020","999,9,C,0000,1","22000,1,9,N","030000,1,N,1","+0137,1","+0013,1","10196,1",,,,,,"00,1,+99999,9,99,9",,"00,99,1,00,1,00,1,99999,9,00,1,00,1",,"01,9",,"120,M,+0150,1","240,N,-0014,1","99999,9,08242,1","7,1,012,1,-003,1",,,"SYN094AAXX  03181 76373 32980 00000 10137 20013 38242 40196 57012 91750 333 10150 21014 30/// 59003;",
"76373099999","2012-01-03T21:00:00","4","25.35","-105.75","1967.0","TEPEHUANES DGO., MX","FM-12","99999","V020","160,1,N,0010,1","22000,1,9,N","030000,1,N,1","+0216,2","-0015,1","10191,1",,,,,,"00,1,+99999,9,99,9",,"00,99,1,00,1,00,1,99999,9,00,1,00,1",,"01,9",,,,"99999,9,08238,1","7,1,003,1,+038,1",,,"SYN082AAXX  03211 76373 32980 01601 10216 21015 38238 40191 57003 92050 333 30/// 58038;",
"76373099999","2012-01-04T00:00:00","4","25.35","-105.75","1967.0","TEPEHUANES DGO., MX","FM-12","99999","V020","140,1,N,0020,1","22000,1,9,N","020000,1,N,1","+0197,1","-0023,1","10206,1","24,0000,9,1",,,,,,,"02,99,1,01,1,02,1,01250,1,00,1,02,1",,"01,9",,"120,M,+0240,1","180,N,-0014,1","99999,9,08250,1","2,1,012,1,+013,1",,,"SYN124AAXX  04001 76373 32670 21402 10197 21023 38250 40206 52012 81202 92350 333 10240 21014 30/// 50351 56909 58013 70000 81827;",
"76373099999","2012-01-04T03:00:00","4","25.35","-105.75","1967.0","TEPEHUANES DGO., MX","FM-12","99999","V020","999,9,C,0000,1","22000,1,9,N","000600,1,N,1","+0124,1","-0034,1","10219,1",,,,,,"01,1,+00810,1,08,1",,"01,99,1,01,1,02,1,01250,1,00,1,00,1",,"01,9",,,,"99999,9,08261,1","2,1,011,1,+026,1",,,"SYN100AAXX  04031 76373 32606 10000 10124 21034 38261 40219 52011 81200 90250 333 30/// 56900 58026 81827;",
"76373099999","2012-01-04T06:00:00","4","25.35","-105.75","1967.0","TEPEHUANES DGO., MX","FM-12","99999","V020","999,9,C,0000,1","22000,1,9,N","000600,1,N,1","+0057,1","-0038,1","10238,1",,,,,,"00,1,+99999,9,99,9",,"00,99,1,00,1,00,1,99999,9,00,1,00,1","0558,9","01,9",,"240,M,+0240,1","240,N,-0014,1","99999,9,08276,1","0,1,015,1,+999,9",,,"SYN106AAXX  04061 76373 32906 00000 10057 21038 38276 40238 50015 90550 333 10240 21014 30/// 55093 21772 58031;",
"76373099999","2012-01-04T12:00:00","4","25.35","-105.75","1967.0","TEPEHUANES DGO., MX","FM-12","99999","V020","999,9,C,0000,1","22000,1,9,N","000600,1,N,1","-0013,1","-0053,1","10227,1","24,0000,9,1",,,,,"00,1,+99999,9,99,9",,"00,99,1,00,1,00,1,99999,9,00,1,00,1",,"09,9","999,-0039,9","120,N,-0023,1","240,M,+0240,1","99999,9,08267,1","9,9,999,9,+023,1",,,"SYN100AAXX  04121 76373 32906 00000 11013 21053 38267 40227 5//// 91150 333 10240 21023 31039 58023 70000;","Q01  00002PRCP24"
"76373099999","2012-01-04T15:00:00","4","25.35","-105.75","1967.0","TEPEHUANES DGO., MX","FM-12","99999","V020","999,9,C,0000,1","05400,1,9,N","010000,1,N,1","+0015,1","-0042,1","10245,1",,,,,,"05,1,+05400,1,02,1",,"05,99,1,00,1,00,1,99999,9,00,1,07,1",,"01,9",,,,"99999,9,08282,1","2,1,015,1,+029,1",,,"SYN100AAXX  04151 76373 32960 50000 10015 21042 38282 40245 52015 80007 91450 333 30/// 56009 58029 85268;",
"76373099999","2012-01-04T18:00:00","4","25.35","-105.75","1967.0","TEPEHUANES DGO., MX","FM-12","99999","V020","999,9,C,0000,1","22000,1,9,N","020000,1,N,1","+0155,1","-0024,1","10233,1",,,,,,"01,1,+00810,1,06,1",,"03,99,1,01,1,04,1,01250,1,07,1,00,1",,"01,9",,"120,M,+0163,1","240,N,-0023,1","99999,9,08272,1","7,1,010,1,+031,1",,,"SYN118AAXX  04181 76373 32670 30000 10155 21024 38272 40233 57010 81470 91750 333 10163 21023 30/// 56909 58031 81627 82357;",
"76373099999","2012-01-04T21:00:00","4","25.35","-105.75","1967.0","TEPEHUANES DGO., MX","FM-12","99999","V020","140,1,N,0010,1","22000,1,9,N","020000,1,N,1","+0213,2","-0040,1","10178,1",,,,,,"01,1,+00810,1,08,1",,"04,99,1,01,1,02,1,01250,1,07,1,00,1",,"01,9",,,,"99999,9,08228,1","7,1,044,1,-010,1",,,"SYN106AAXX  04211 76373 32670 41401 10213 21040 38228 40178 57044 81270 92050 333 30/// 56990 59010 81827 83357;",
"76373099999","2012-01-05T00:00:00","4","25.35","-105.75","1967.0","TEPEHUANES DGO., MX","FM-12","99999","V020","140,1,N,0020,1","22000,1,9,N","020000,1,N,1","+0188,1","-0055,1","10172,1","24,0000,9,1",,,,,,,"01,99,1,01,1,02,1,01250,1,00,1,00,1",,"01,9",,"120,M,+0240,1","180,N,-0023,1","99999,9,08222,1","2,1,006,1,-028,1",,,"SYN124AAXX  05001 76373 32670 11402 10188 21055 38222 40172 52006 81200 92350 333 10240 21023 30/// 50251 56900 59028 70000 81827;",
"76373099999","2012-01-05T03:00:00","4","25.35","-105.75","1967.0","TEPEHUANES DGO., MX","FM-12","99999","V020","310,1,N,0010,1","00750,1,9,N","000600,1,N,1","+0139,1","-0064,1","10211,1",,,,,,"07,1,+00750,1,06,1",,"07,99,1,07,1,05,1,00800,1,00,1,00,1",,"01,9",,,,"99999,9,08254,1","2,1,031,1,-007,1",,,"SYN100AAXX  05031 76373 32506 73101 10139 21064 38254 40211 52031 87500 90250 333 30/// 56900 59007 87625;",
"76373099999","2012-01-05T15:00:00","4","25.35","-105.75","1967.0","TEPEHUANES DGO., MX","FM-12","99999","V020","999,9,C,0000,1","22000,1,9,N","015000,1,N,1","+0037,1","-0039,1","10224,1",,,,,,"02,1,+00780,1,06,1",,"03,99,1,02,1,04,1,01250,1,00,1,00,1",,"01,9",,,,"99999,9,08264,1","2,1,022,1,-018,1",,,"SYN100AAXX  05151 76373 32665 30000 10037 21039 38264 40224 52022 82400 91450 333 30/// 56900 59018 82626;",
"76373099999","2012-01-05T18:00:00","4","25.35","-105.75","1967.0","TEPEHUANES DGO., MX","FM-12","99999","V020","999,9,C,0000,1","22000,1,9,N","030000,1,N,1","+0134,1","-0035,1","99999,9",,,,,,"00,1,+99999,9,99,9",,"00,99,1,00,1,00,1,99999,9,00,1,00,1",,"01,9",,"120,M,+0150,1","240,N,+0016,1",,"2,1,071,1,-025,1",,,"SYN094AAXX  05181 76373 32980 00000 10134 21035 38197 40140 52071 91755 333 10150 20016 30/// 59025;","Q01+081973APOSP "
"76373099999","2012-01-05T21:00:00","4","25.35","-105.75","1967.0","TEPEHUANES DGO., MX","FM-12","99999","V020","110,1,N,0020,1","22000,1,9,N","030000,1,N,1","+0177,1","-0031,1","10176,1",,,,,,"00,1,+99999,9,99,9",,"00,99,1,00,1,00,1,99999,9,00,1,00,1",,"01,9",,,,"99999,9,08226,1","7,1,042,1,-002,1",,,"SYN082AAXX  05211 76373 32980 01102 10177 21031 38226 40176 57042 92050 333 30/// 59002;",
"76373099999","2012-01-06T12:00:00","4","25.35","-105.75","1967.0","TEPEHUANES DGO., MX","FM-12","99999","V020","999,9,C,0000,1","22000,1,9,N","001000,1,N,1","-0030,1","-0062,1","10170,1","24,0000,9,1",,,,,"00,1,+99999,9,99,9",,"00,99,1,00,1,00,1,99999,9,00,1,00,1",,"09,9",,"120,N,-0054,1","240,M,+0200,1","99999,9,08221,1","9,9,999,9,-021,1",,,"SYN100AAXX  06121 76373 32910 00000 11030 21062 38221 40170 5//// 91155 333 10200 21054 31068 59021 70000;","Q01  00002PRCP24"
"76373099999","2012-01-06T15:00:00","4","25.35","-105.75","1967.0","TEPEHUANES DGO., MX","FM-12","99999","V020","999,9,C,0000,1","22000,1,9,N","020000,1,N,1","-0014,1","-0056,1","10183,1",,,,,,"00,1,+99999,9,99,9",,"00,99,1,00,1,00,1,99999,9,00,1,00,1",,"01,9",,,,"99999,9,08232,1","2,1,011,1,-032,1",,,"SYN082AAXX  06151 76373 32970 00000 11014 21056 38232 40183 52011 91455 333 30/// 59032;",
"76373099999","2012-01-06T18:00:00","4","25.35","-105.75","1967.0","TEPEHUANES DGO., MX","FM-12","99999","V020","999,9,C,0000,1","22000,1,9,N","030000,1,N,1","+0140,1","-0029,1","10171,1",,,,,,"00,1,+99999,9,99,9",,"00,99,1,00,1,00,1,99999,9,00,1,00,1",,"01,9",,"120,M,+0150,1","240,N,-0054,1","99999,9,08222,1","7,1,010,1,+025,1",,,"SYN094AAXX  06181 76373 32980 00000 10140 21029 38222 40171 57010 91755 333 10150 21054 30/// 58025;",
"76373099999","2012-01-06T21:00:00","4","25.35","-105.75","1967.0","TEPEHUANES DGO., MX","FM-12","99999","V020","140,1,N,0010,1","22000,1,9,N","030000,1,N,1","+0230,1","-0062,1","10125,1",,,,,,"01,1,+05100,1,00,1",,"01,99,1,00,1,00,1,99999,9,00,1,01,1",,"01,9",,,,"99999,9,08185,1","7,1,037,1,-041,1",,,"SYN100AAXX  06211 76373 32980 11401 10230 21062 38185 40125 57037 80001 92050 333 30/// 56009 59041 81067;",
"76373099999","2012-01-07T00:00:00","4","25.35","-105.75","1967.0","TEPEHUANES DGO., MX","FM-12","99999","V020","320,1,N,0020,1","22000,1,9,N","030000,1,N,1","+0202,1","-0068,1","10120,1","24,0000,9,1",,,,,,,"02,99,1,00,1,00,1,99999,9,00,1,02,1",,"01,9",,"120,M,+0254,1","180,N,-0054,1","99999,9,08181,1","7,1,004,1,-032,1",,,"SYN124AAXX  07001 76373 32980 23202 10202 21068 38181 40120 57004 80002 92355 333 10254 21054 30/// 50411 56009 59032 70000 82067;",
"76373099999","2012-01-07T03:00:00","4","25.35","-105.75","1967.0","TEPEHUANES DGO., MX","FM-12","99999","V020","999,9,C,0000,1","22000,1,9,N","001000,1,N,1","+0116,1","-0030,1","10150,1",,,,,,"01,1,+05100,1,00,1",,"01,99,1,00,1,00,1,99999,9,00,1,01,1",,"01,9",,,,"99999,9,08205,1","2,1,024,1,-016,1",,,"SYN100AAXX  07031 76373 32910 10000 10116 21030 38205 40150 52024 80001 90255 333 30/// 56009 59016 81067;",
"76373099999","2012-01-07T18:00:00","4","25.35","-105.75","1967.0","TEPEHUANES DGO., MX","FM-12","99999","V020","999,9,C,0000,1","22000,1,9,N","030000,1,N,1","+0166,1","-0001,1","10172,1",,,,,,"01,1,+00750,1,08,1","01,1,+01110,1,03,1","03,99,1,02,1,01,1,00800,1,01,1,01,1",,"01,9",,"120,M,+0170,1","240,N,-0042,1","99999,9,08222,1","1,1,001,1,+000,1",,,"SYN124AAXX  07181 76373 32580 30000 10166 21001 38222 40172 51001 82111 91755 333 10170 21042 30/// 56999 58000 81825 81337 81067;",
"76373099999","2012-01-07T21:00:00","4","25.35","-105.75","1967.0","TEPEHUANES DGO., MX","FM-12","99999","V020","290,1,N,0010,1","22000,1,9,N","030000,1,N,1","+0234,1","-0084,1","10130,1",,,,,,"01,1,+00750,1,08,1","01,1,+01110,1,03,1","03,99,1,02,1,01,1,00800,1,01,1,01,1",,"01,9",,,,"99999,9,08188,1","7,1,036,1,+003,1",,,"SYN112AAXX  07211 76373 32580 32901 10234 21084 38188 40130 57036 82111 92050 333 30/// 56999 58003 81825 81337 81063;",
"76373099999","2012-01-08T03:00:00","4","25.35","-105.75","1967.0","TEPEHUANES DGO., MX","FM-12","99999","V020","999,9,C,0000,1","22000,1,9,N","001000,1,N,1","+0131,1","-0020,1","10171,1",,,,,,"00,1,+99999,9,99,9",,"00,99,1,00,1,00,1,99999,9,00,1,00,1",,"01,9",,,,"99999,9,08222,1","2,1,046,1,+011,1",,,"SYN082AAXX  08031 76373 32910 00000 10131 21020 38222 40171 52046 90255 333 30/// 58011;",
"76373099999","2012-01-08T06:00:00","4","25.35","-105.75","1967.0","TEPEHUANES DGO., MX","FM-12","99999","V020","999,9,C,0000,1","22000,1,9,N","005000,1,N,1","+0046,1","-0056,1","10153,1",,,,,,"00,1,+99999,9,99,9",,"00,99,1,00,1,00,1,99999,9,00,1,00,1","0480,9","01,9",,"240,M,+0250,1","240,N,-0042,1","99999,9,08207,1","7,1,015,1,+999,9",,,"SYN106AAXX  08061 76373 32950 00000 10046 21056 38207 40153 57015 90550 333 10250 21042 30/// 55080 21208 59005;",
"76373099999","2012-01-08T12:00:00","4","25.35","-105.75","1967.0","TEPEHUANES DGO., MX","FM-12","99999","V020","999,9,C,0000,1","22000,1,9,N","005000,1,N,1","-0007,1","-0057,1","10144,1",,,,,,"00,1,+99999,9,99,9",,"00,99,1,00,1,00,1,99999,9,00,1,00,1","0480,9","09,9","999,-0025,9","120,N,-0016,1","240,M,+0250,1","99999,9,08200,1","9,9,999,9,-010,1",,,"SYN112AAXX  08121 76373 32950 00000 11007 21057 38200 40144 5//// 91155 333 10250 21016 31025 55080 21208 59010 70000;",
"76373099999","2012-01-08T15:00:00","4","25.35","-105.75","1967.0","TEPEHUANES DGO., MX","FM-12","99999","V020","999,9,9,9999,9","22000,1,9,N","020000,1,N,1","+0000,1","-0040,1","10145,1",,,,,,"01,1,+01050,1,06,1",,"01,99,1,01,1,99,9,00800,1,04,1,00,1",,"01,9",,,,"99999,9,08200,1","5,1,000,1,-021,1",,,"SYN094AAXX  08151 76373 32570 10000 21040 38200 40145 55000 81040 91450 333 30/// 56090 59021 81635;","Q01+000002SCOLCG"
"76373099999","2012-01-08T18:00:00","4","25.35","-105.75","1967.0","TEPEHUANES DGO., MX","FM-12","99999","V020","300,1,N,0010,1","22000,1,9,N","020000,1,N,1","+0178,2","-0033,1","10123,1",,,,,,"02,1,+01050,1,06,1",,"02,99,1,02,1,99,9,00800,1,03,1,00,1",,"01,9",,"120,M,+0180,1","240,N,-0016,1","99999,9,08183,1","7,1,017,1,-041,1",,,"SYN112AAXX  08181 76373 32570 23001 10178 21033 38183 40123 57017 82030 91750 333 10180 21016 30/// 56090 59041 82635;","Q01+000002SCOLCG"
"76373099999","2012-01-09T00:00:00","4","25.35","-105.75","1967.0","TEPEHUANES DGO., MX","FM-12","99999","V020","210,1,N,0010,1","22000,1,9,N","020000,1,N,1","+0160,1","-0030,1","10115,1","24,0000,9,1",,,,,,,"01,99,1,01,1,00,1,00800,1,04,1,00,1",,"01,9",,"120,M,+0230,1","180,N,-0016,1","99999,9,08176,1","9,9,999,9,-012,1",,,"SYN124AAXX  09001 76373 32570 12101 10160 21030 38176 40115 5//// 81040 92355 333 10230 21016 30/// 50391 56090 59012 70000 81635;",
"76373099999","2012-01-09T03:00:00","4","25.35","-105.75","1967.0","TEPEHUANES DGO., MX","FM-12","99999","V020","999,9,C,0000,1","22000,1,9,N","005000,1,N,1","+0108,1","-0012,1","10129,1",,,,,,"02,1,+01050,1,06,1",,"02,99,1,02,1,99,9,00800,1,03,1,00,1",,"01,9",,,,"99999,9,08188,1","2,1,012,1,-034,1",,,"SYN100AAXX  09031 76373 32550 20000 10108 21012 38188 40129 52012 82030 90250 333 30/// 56090 59034 82635;","Q01+000002SCOLCG"
"76373099999","2012-01-09T06:00:00","4","25.35","-105.75","1967.0","TEPEHUANES DGO., MX","FM-12","99999","V020","999,9,C,0000,1","22000,1,9,N","005000,1,N,1","+0054,1","-0019,1","10135,1",,,,,,,,"02,99,1,02,1,00,1,00800,1,03,1,00,1","0552,9","01,9",,"240,M,+0230,1","240,N,-0016,1","99999,9,08193,1","2,1,005,1,-014,1",,,"SYN124AAXX  09061 76373 32550 20000 10054 21019 38193 40135 52005 82030 90550 333 10230 21016 30/// 55092 21691 56090 59014 82635;",
"76373099999","2012-01-09T12:00:00","4","25.35","-105.75","1967.0","TEPEHUANES DGO., MX","FM-12","99999","V020","999,9,C,0000,1","22000,1,9,N","005000,1,N,1","-0026,1","-0087,1","10133,1","24,0000,9,1",,,,,,,"02,99,1,02,1,00,1,01750,1,03,1,00,1","0552,9","09,9","999,-0043,9","120,N,-0035,1","240,M,+0230,1","99999,9,08191,1","9,9,999,9,-009,1",,,"SYN130AAXX  09121 76373 32750 20000 11026 21087 38191 40133 5//// 82030 91150 333 10230 21035 31043 55092 21691 56090 59009 70000 82356;",
"76373099999","2012-01-09T15:00:00","4","25.35","-105.75","1967.0","TEPEHUANES DGO., MX","FM-12","99999","V020","999,9,C,0000,1","22000,1,9,N","020000,1,N,1","-0002,1","-0045,1","10137,1",,,,,,"01,1,+01800,1,03,1",,"01,99,1,01,1,00,1,01750,1,03,1,00,1",,"01,9",,,,"99999,9,08194,1","2,1,003,1,-006,1",,,"SYN100AAXX  09151 76373 32770 10000 11002 21045 38194 40137 52003 81030 91450 333 30/// 56090 59006 81356;",
"76373099999","2012-01-09T18:00:00","4","25.35","-105.75","1967.0","TEPEHUANES DGO., MX","FM-12","99999","V020","999,9,C,0000,1","22000,1,9,N","020000,1,N,1","+9999,9","-0090,1","10122,1",,,,,,"01,1,+01800,1,03,1",,"01,99,1,01,1,00,1,01750,1,03,1,00,1",,"01,9",,"120,M,+0180,1","240,N,-0035,1","99999,9,08182,1","7,1,012,1,+001,1",,,"SYN112AAXX  09181 76373 32770 10000 10173 21090 38182 40122 57012 81030 91750 333 10180 21035 30/// 56090 58001 81356;","Q01+001733ATOT  "
"76373099999","2012-01-09T21:00:00","4","25.35","-105.75","1967.0","TEPEHUANES DGO., MX","FM-12","99999","V020","320,1,N,0020,1","22000,1,9,N","030000,1,N,1","+0194,2","-0143,1","10188,1",,,,,,"01,1,+01800,1,03,1",,"01,99,1,01,1,00,1,01750,1,03,1,00,1",,"01,9",,,,"99999,9,08236,1","2,1,054,1,+070,1",,,"SYN100AAXX  09211 76373 32780 13202 10194 21143 38236 40188 52054 81030 92050 333 30/// 56090 58070 81356;",
"76373099999","2012-01-10T00:00:00","4","25.35","-105.75","1967.0","TEPEHUANES DGO., MX","FM-12","99999","V020","320,1,N,0020,1","22000,1,9,N","030000,1,N,1","+0168,1","-0109,1","10201,1","24,0000,9,1",,,,,"00,1,+99999,9,99,9",,"00,99,1,00,1,00,1,99999,9,00,1,00,1",,"01,9",,"120,M,+0200,1","180,N,-0035,1","99999,9,08246,1","7,1,001,1,+070,1",,,"SYN106AAXX  10001 76373 32980 03202 10168 21109 38246 40201 57001 92350 333 10200 21035 30/// 50431 58070 70000;","Q01  00002PRCP24"
"76373099999","2012-01-10T03:00:00","4","25.35","-105.75","1967.0","TEPEHUANES DGO., MX","FM-12","99999","V020","999,9,C,0000,1","22000,1,9,N","001000,1,N,1","+0086,1","-0088,1","10153,1",,,,,,"00,1,+99999,9,99,9",,"00,99,1,00,1,00,1,99999,9,00,1,00,1",,"01,9",,,,"99999,9,08207,1","7,1,039,1,+029,1",,,"SYN082AAXX  10031 76373 32910 00000 10086 21088 38207 40153 57039 90250 333 30/// 58029;",
"76373099999","2012-01-10T06:00:00","4","25.35","-105.75","1967.0","TEPEHUANES DGO., MX","FM-12","99999","V020","999,9,C,0000,1","22000,1,9,N","001000,1,N,1","+0039,1","-0078,1","10157,1",,,,,,"00,1,+99999,9,99,9",,"00,99,1,00,1,00,1,99999,9,00,1,00,1","0576,9","01,9",,"240,M,+0210,1","240,N,-0035,1","99999,9,08210,1","2,1,017,1,+999,9",,,"SYN106AAXX  10061 76373 32910 00000 10039 21078 38210 40157 52017 90550 333 10210 21035 30/// 55096 21917 58013;",
"76373099999","2012-01-10T12:00:00","4","25.35","-105.75","1967.0","TEPEHUANES DGO., MX","FM-12","99999","V020","999,9,C,0000,1","22000,1,9,N","001000,1,N,1","-0043,1","-0085,1","10178,1","24,0000,9,1",,,,,"00,1,+99999,9,99,9",,"00,99,1,00,1,00,1,99999,9,00,1,00,1",,"09,9",,"120,N,-0058,1","240,M,+0210,1","99999,9,08228,1","9,9,999,9,+037,1",,,"SYN100AAXX  10121 76373 32910 00000 11043 21085 38228 40178 5//// 91150 333 10210 21058 31061 58037 70000;","Q01  00002PRCP24"
"76373099999","2012-01-10T15:00:00","4","25.35","-105.75","1967.0","TEPEHUANES DGO., MX","FM-12","99999","V020","999,9,C,0000,1","22000,1,9,N","020000,1,N,1","-0043,1","-0085,1","10196,1",,,,,,"00,1,+99999,9,99,9",,"00,99,1,00,1,00,1,99999,9,00,1,00,1",,"01,9",,,,"99999,9,08242,1","2,1,026,1,+052,1",,,"SYN082AAXX  10151 76373 32970 00000 11043 21085 38242 40196 52026 91455 333 30/// 58052;",
"76373099999","2012-01-10T18:00:00","4","25.35","-105.75","1967.0","TEPEHUANES DGO., MX","FM-12","99999","V020","999,9,C,0000,1","22000,1,9,N","030000,1,N,1","+0093,1","-0029,1","10160,1",,,,,,"01,1,+05100,1,00,1",,"01,99,1,00,1,00,1,99999,9,00,1,01,1",,"01,9",,"120,M,+0100,1","240,N,-0058,1","99999,9,08213,1","7,1,031,1,+031,1",,,"SYN112AAXX  10181 76373 32980 10000 10093 21029 38213 40160 57031 80001 91755 333 10100 21058 30/// 56009 58031 81067;",
"76373099999","2012-01-10T21:00:00","4","25.35","-105.75","1967.0","TEPEHUANES DGO., MX","FM-12","99999","V020","150,1,N,0010,1","05100,1,9,N","020000,1,N,1","+0166,2","-0068,1","10131,1",,,,,,"05,1,+05100,1,00,1",,"05,99,1,00,1,00,1,99999,9,00,1,04,1",,"01,9",,,,"99999,9,08189,1","7,1,024,1,-027,1",,,"SYN100AAXX  10211 76373 32970 51501 10166 21068 38189 40131 57024 80004 92050 333 30/// 56009 59027 85067;",
"76373099999","2012-01-11T00:00:00","4","25.35","-105.75","1967.0","TEPEHUANES DGO., MX","FM-12","99999","V020","150,1,N,0010,1","22000,1,9,N","020000,1,N,1","+0149,1","-0078,1","10130,1","24,0000,9,1",,,,,,,"04,99,1,00,1,00,1,99999,9,00,1,04,1",,"01,9",,"120,M,+0190,1","180,N,-0058,1","99999,9,08189,1","5,1,000,1,-065,1",,,"SYN124AAXX  11001 76373 32970 41501 10149 21078 38189 40130 55000 80004 92350 333 10190 21058 30/// 50251 56009 59065 70000 84067;",
"76373099999","2012-01-11T03:00:00","4","25.35","-105.75","1967.0","TEPEHUANES DGO., MX","FM-12","99999","V020","999,9,C,0000,1","22000,1,9,N","000600,1,N,1","+0066,1","-0065,1","10152,1",,,,,,"04,1,+05100,1,00,1",,"04,99,1,00,1,00,1,99999,9,00,1,04,1",,"01,9",,,,"99999,9,08206,1","2,1,014,1,-007,1",,,"SYN100AAXX  11031 76373 32906 40000 10066 21065 38206 40152 52014 80004 90250 333 30/// 56009 59007 84067;",
"76373099999","2012-01-11T18:00:00","4","25.35","-105.75","1967.0","TEPEHUANES DGO., MX","FM-12","99999","V020","999,9,C,0000,1","22000,1,9,N","020000,1,N,1","+0113,1","-0116,1","10154,1",,,,,,"03,1,+05100,1,00,1",,"03,99,1,00,1,00,1,99999,9,00,1,04,1",,"01,9",,"120,M,+0121,1","240,N,-0073,1","99999,9,08208,1","7,1,011,1,-005,1",,,"SYN112AAXX  11181 76373 32970 30000 10113 21116 38208 40154 57011 80004 91750 333 10121 21073 30/// 56009 59005 83067;",
"76373099999","2012-01-11T21:00:00","4","25.35","-105.75","1967.0","TEPEHUANES DGO., MX","FM-12","99999","V020","999,9,C,0010,1","22000,1,9,N","020000,1,N,1","+9999,9","+9999,9","10104,1",,,,,,,,"03,99,1,00,1,00,1,99999,9,00,1,04,1",,,,,,"99999,9,08168,1","7,1,040,1,-021,1",,,"SYN099AAXX  11211 76373 32970 30001 10215 21530 38168 40104 57040 80004 92045 333 0/// 56009 59021 83067;",
"76373099999","2012-01-12T00:00:00","4","25.35","-105.75","1967.0","TEPEHUANES DGO., MX","FM-12","99999","V020","310,1,N,0010,1","99999,9,9,N","020000,1,N,1","+0214,1","-0196,1","10096,1","24,0000,9,1",,,,,,,"07,99,1,00,1,00,1,99999,9,00,1,04,1",,"01,9",,"120,M,+0247,1","180,N,-0073,1","99999,9,08161,1","7,1,007,1,-028,1",,,"SYN124AAXX  12001 76373 32970 73101 10214 21196 38161 40096 57007 80004 92350 333 10247 21073 30/// 50331 56009 59028 70000 87067;",
"76373099999","2012-01-12T18:00:00","4","25.35","-105.75","1967.0","TEPEHUANES DGO., MX","FM-12","99999","V020","999,9,C,0000,1","00750,1,9,N","030000,1,N,1","+0120,1","-0121,1","10137,1",,,,,,"05,1,+00750,1,08,1",,"05,99,1,05,1,05,1,00800,1,00,1,00,1",,"01,9",,"120,M,+0130,1","240,N,-0025,1","99999,9,08194,1","7,1,007,1,-014,1",,,"SYN112AAXX  12181 76373 32580 50000 10120 21121 38194 40137 57007 85500 91750 333 10130 21025 30/// 56900 59014 85825;",
"76373099999","2012-01-12T21:00:00","4","25.35","-105.75","1967.0","TEPEHUANES DGO., MX","FM-12","99999","V020","999,9,C,0000,1","22000,1,9,N","030000,1,N,1","+0222,1","-0150,1","10093,1",,,,,,"02,1,+00750,1,08,1","01,1,+01110,1,03,1","04,99,1,02,1,02,1,00800,1,01,1,01,1",,"01,9",,,,"99999,9,08159,1","7,1,035,1,-009,1",,,"SYN112AAXX  12211 76373 32580 40000 10222 21150 38159 40093 57035 82211 92055 333 30/// 56999 59009 82825 81337 81067;",
"76373099999","2012-01-13T12:00:00","4","25.35","-105.75","1967.0","TEPEHUANES DGO., MX","FM-12","99999","V020","999,9,C,0000,1","22000,1,9,N","001000,1,N,1","-0004,1","-0107,1","10144,1","24,0000,9,1",,,,,,,"03,99,1,00,1,00,1,99999,9,00,1,03,1","0330,9","09,9","999,-0032,9","120,N,-0020,1","240,M,+0240,1","99999,9,08200,1","9,9,999,9,+005,1",,,"SYN130AAXX  13121 76373 32910 30000 11004 21107 38200 40144 5//// 80003 91155 333 10240 21020 31032 55055 21127 56009 58005 70000 83067;",
"76373099999","2012-01-13T15:00:00","4","25.35","-105.75","1967.0","TEPEHUANES DGO., MX","FM-12","99999","V020","999,9,C,0000,1","22000,1,9,N","020000,1,N,1","-0005,1","-0100,1","10168,1",,,,,,"03,1,+05100,1,00,1",,"03,99,1,00,1,00,1,99999,9,00,1,03,1",,"01,9",,,,"99999,9,08219,1","2,1,019,1,+018,1",,,"SYN100AAXX  13151 76373 32970 30000 11005 21100 38219 40168 52019 80003 91455 333 30/// 56009 58018 83067;",
"76373099999","2012-01-13T21:00:00","4","25.35","-105.75","1967.0","TEPEHUANES DGO., MX","FM-12","99999","V020","290,1,N,0010,1","22000,1,9,N","030000,1,N,1","+0226,2","-0067,1","10126,1",,,,,,"04,1,+05100,1,00,1",,"04,99,1,00,1,00,1,99999,9,00,1,04,1",,"01,9",,,,"99999,9,08185,1","7,1,032,1,+026,1",,,"SYN100AAXX  13211 76373 32980 42901 10226 21067 38185 40126 57032 80004 92050 333 30/// 56009 58026 84067;",
"76373099999","2012-01-14T00:00:00","4","25.35","-105.75","1967.0","TEPEHUANES DGO., MX","FM-12","99999","V020","290,1,N,0020,1","22000,1,9,N","030000,1,N,1","+0200,1","-0064,1","10132,1","24,0000,9,1",,,,,"01,1,+00750,1,08,1",,"04,99,1,02,1,01,1,00800,1,01,1,02,1",,"01,9",,"120,M,+0248,1","180,N,-0020,1","99999,9,08190,1","1,1,005,1,+028,1",,,"SYN130AAXX  14001 76373 32580 42902 10200 21064 38190 40132 51005 82112 92355 333 10248 21020 30/// 50391 56999 58028 70000 81825 81337;",
"76373099999","2012-01-14T03:00:00","4","25.35","-105.75","1967.0","TEPEHUANES DGO., MX","FM-12","99999","V020","999,9,C,0000,1","22000,1,9,N","001000,1,N,1","+0130,1","-0056,1","10163,1",,,,,,"01,1,+05100,1,00,1",,"01,99,1,00,1,00,1,99999,9,00,1,01,1",,"01,9",,,,"99999,9,08215,1","2,1,025,1,+037,1",,,"SYN100AAXX  14031 76373 32910 10000 10130 21056 38215 40163 52025 80001 90255 333 30/// 56009 58037 81067;",
"76373099999","2012-01-14T12:00:00","4","25.35","-105.75","1967.0","TEPEHUANES DGO., MX","FM-12","99999","V020","999,9,C,0000,1","22000,1,9,N","001000,1,N,1","+0020,1","-0065,1","10201,1","24,0000,9,1",,,,,,,"01,99,1,01,1,01,1,00800,1,00,1,00,1","0480,9","09,9","999,-0022,9","120,N,-0010,1","240,M,+0248,1","99999,9,08246,1","9,9,999,9,+046,1",,,"SYN130AAXX  14121 76373 32510 10000 10020 21065 38246 40201 5//// 81100 91155 333 10248 21010 31022 55080 21207 56900 58046 70000 81825;",
"76373099999","2012-01-14T15:00:00","4","25.35","-105.75","1967.0","TEPEHUANES DGO., MX","FM-12","99999","V020","999,9,C,0000,1","22000,1,9,N","030000,1,N,1","+0012,1","-0060,1","10223,1",,,,,,"02,1,+00750,1,08,1","01,1,+01110,1,03,1","04,99,1,04,1,02,1,00800,1,01,1,01,1",,"01,9",,,,"99999,9,08264,1","2,1,018,1,+045,1",,,"SYN112AAXX  14151 76373 32580 40000 10012 21060 38264 40223 52018 84211 91445 333 30/// 56999 58045 82825 81337 81067;",
"76373099999","2012-01-14T18:00:00","4","25.35","-105.75","1967.0","TEPEHUANES DGO., MX","FM-12","99999","V020","999,9,C,0000,1","22000,1,9,N","030000,1,N,1","+0150,1","-0047,1","99999,9",,,,,,"01,1,+00510,1,03,1","02,1,+00750,1,08,1","04,99,1,04,1,02,1,00800,1,01,1,01,1",,"01,9",,"120,M,+0150,1","240,N,-0010,1","99999,9,08213,1","7,1,051,1,-004,1",,,"SYN124AAXX  14181 76373 32580 40000 10150 21047 38213 40160 57051 84211 91750 333 10150 21010 30/// 56999 59004 82825 81317 81067;","Q01+101603APOSLP"
"76373099999","2012-01-14T21:00:00","4","25.35","-105.75","1967.0","TEPEHUANES DGO., MX","FM-12","99999","V020","999,9,C,0000,1","01110,1,9,N","030000,1,N,1","+0167,1","-0052,1","10196,1",,,,,,"03,1,+00750,1,08,1","03,1,+01110,1,03,1","08,99,1,99,9,03,1,00800,1,03,1,02,1",,"01,9",,,,"99999,9,08242,1","2,1,031,1,+063,1",,,"SYN112AAXX  14211 76373 32580 80000 10167 21052 38242 40196 52031 88332 92050 333 30/// 56999 58063 83825 83337 82067;","Q01+000082SCOTLC"
"76373099999","2012-01-15T00:00:00","4","25.35","-105.75","1967.0","TEPEHUANES DGO., MX","FM-12","99999","V020","999,9,C,0000,1","01200,1,9,N","020000,1,N,1","+0167,1","-0035,1","10183,1",,,,,,,,"08,99,1,99,9,00,1,01250,1,05,1,00,1",,"01,9",,"120,M,+0193,1","180,N,-0010,1","99999,9,08232,1","7,1,010,1,+042,1",,,"SYN118AAXX  15001 76373 32670 81600 10167 21035 38232 40183 57010 87050 92350 333 10193 21010 30/// 50261 56090 58042 87350;","Q01+000072SCOTLC"
"76373099999","2012-01-15T03:00:00","4","25.35","-105.75","1967.0","TEPEHUANES DGO., MX","FM-12","99999","V020","999,9,C,0000,1","01500,1,9,N","005000,1,N,1","+0128,1","+0027,1","10208,1",,,,,,"07,1,+01500,1,03,1",,"08,99,1,08,1,00,1,01250,1,05,1,00,1",,"01,9",,,,"99999,9,08252,1","2,1,020,1,+037,1",,,"SYN100AAXX  15031 76373 32650 80000 10128 20027 38252 40208 52020 88050 90250 333 30/// 56090 58037 87350;",
"76373099999","2012-01-15T06:00:00","4","25.35","-105.75","1967.0","TEPEHUANES DGO., MX","FM-12","99999","V020","250,1,N,0010,1","22000,1,9,N","005000,1,N,1","+0077,1","+0009,1","10220,1",,,,,,"00,1,+99999,9,99,9",,"00,99,1,00,1,00,1,99999,9,00,1,00,1","0288,9","01,9",,"240,M,+0193,1","240,N,-0010,1","99999,9,08262,1","2,1,010,1,+999,9",,,"SYN106AAXX  15061 76373 32950 02501 10077 20009 38262 40220 52010 90550 333 10193 21010 30/// 55048 21031 58026;",
"76373099999","2012-01-15T12:00:00","4","25.35","-105.75","1967.0","TEPEHUANES DGO., MX","FM-12","99999","V020","999,9,C,0000,1","22000,1,9,N","005000,1,N,1","+0002,1","-0013,1","10218,1",,,,,,"00,1,+99999,9,99,9",,"00,99,1,00,1,00,1,99999,9,00,1,00,1","0288,9","09,9","999,-0018,9","120,N,-0007,1","240,M,+0193,1","99999,9,08260,1","9,9,999,9,+014,1",,,"SYN112AAXX  15121 76373 32950 00000 10002 21013 38260 40218 5//// 91150 333 10193 21007 31018 55048 21031 58014 70000;",
"76373099999","2012-01-15T18:00:00","4","25.35","-105.75","1967.0","TEPEHUANES DGO., MX","FM-12","99999","V020","999,9,C,0000,1","22000,1,9,N","020000,1,N,1","+0157,1","+0028,1","10221,1",,,,,,"00,1,+99999,9,99,9",,"00,99,1,00,1,00,1,99999,9,00,1,00,1",,"01,9",,"120,M,+0165,1","240,N,-0007,1","99999,9,08262,1","7,1,008,1,+049,1",,,"SYN094AAXX  15181 76373 32970 00000 10157 20028 38262 40221 57008 91750 333 10165 21007 30/// 58049;",
"76373099999","2012-01-15T21:00:00","4","25.35","-105.75","1967.0","TEPEHUANES DGO., MX","FM-12","99999","V020","310,1,N,0020,1","22000,1,9,N","020000,1,N,1","+0230,1","-0014,1","10167,1",,,,,,"03,1,+00750,1,08,1",,"03,99,1,03,1,02,1,00800,1,00,1,00,1",,"01,9",,,,"99999,9,08218,1","7,1,044,1,+005,1",,,"SYN100AAXX  15211 76373 32570 33102 10230 21014 38218 40167 57044 83200 92050 333 30/// 56900 58005 83825;",
"76373099999","2012-01-16T03:00:00","4","25.35","-105.75","1967.0","TEPEHUANES DGO., MX","FM-12","99999","V020","999,9,C,0000,1","22000,1,9,N","005000,1,N,1","+0124,1","-0025,1","10198,1",,,,,,"00,1,+99999,9,99,9",,"00,99,1,00,1,00,1,99999,9,00,1,00,1",,"01,9",,,,"99999,9,08243,1","2,1,013,1,-009,1",,,"SYN082AAXX  16031 76373 32950 00000 10124 21025 38243 40198 52013 90250 333 30/// 59009;",
"76373099999","2012-01-16T06:00:00","4","25.35","-105.75","1967.0","TEPEHUANES DGO., MX","FM-12","99999","V020","999,9,C,0000,1","22000,1,9,N","005000,1,N,1","+0073,1","-0023,1","10214,1",,,,,,"00,1,+99999,9,99,9",,"00,99,1,00,1,00,1,99999,9,00,1,00,1","0582,9","01,9",,"240,M,+0250,1","240,N,-0007,1","99999,9,08257,1","2,1,014,1,+999,9",,,"SYN106AAXX  16061 76373 32950 00000 10073 21023 38257 40214 52014 90550 333 10250 21007 30/// 55097 22190 59005;",
"76373099999","2012-01-16T15:00:00","4","25.35","-105.75","1967.0","TEPEHUANES DGO., MX","FM-12","99999","V020","999,9,C,0000,1","01110,1,9,N","020000,1,N,1","+0019,1","-0024,1","10224,1",,,,,,"02,1,+00750,1,08,1","03,1,+01110,1,03,1","06,99,1,06,1,02,1,00800,1,03,1,01,1",,"01,9",,,,"99999,9,08265,1","9,9,999,9,-005,1",,,"SYN112AAXX  16151 76373 32570 60000 10019 21024 38265 40224 5//// 86231 91750 333 30/// 56999 59005 82825 83337 81067;",
"76373099999","2012-01-16T18:00:00","4","25.35","-105.75","1967.0","TEPEHUANES DGO., MX","FM-12","99999","V020","999,9,C,0000,1","22000,1,9,N","030000,1,N,1","+0148,1","+0010,1","10218,1",,,,,,"02,1,+00750,1,08,1","01,1,+01110,1,03,1","04,99,1,04,1,02,1,00800,1,01,1,01,1",,"01,9",,"120,M,+0240,1","240,N,-0016,1","99999,9,08260,1","7,1,005,1,-002,1",,,"SYN124AAXX  16181 76373 32580 40000 10148 20010 38260 40218 57005 84211 91750 333 10240 21016 30/// 56999 59002 82825 81337 81067;",
"76373099999","2012-01-16T21:00:00","4","25.35","-105.75","1967.0","TEPEHUANES DGO., MX","FM-12","99999","V020","290,1,N,0020,1","22000,1,9,N","030000,1,N,1","+0240,2","-0009,1","10177,1",,,,,,"01,1,+00750,1,08,1","01,1,+01110,1,03,1","03,99,1,03,1,01,1,00800,1,01,1,01,1",,"01,9",,,,"99999,9,08226,1","7,1,042,1,+012,1",,,"SYN112AAXX  16211 76373 32580 32902 10240 21009 38226 40177 57042 83111 92055 333 30/// 56999 58012 81825 81337 81067;",
"76373099999","2012-01-17T00:00:00","4","25.35","-105.75","1967.0","TEPEHUANES DGO., MX","FM-12","99999","V020","250,1,N,0020,1","22000,1,9,N","030000,1,N,1","+0211,1","+0001,1","10178,1","24,0000,9,1",,,,,"01,1,+00750,1,08,1","01,1,+01110,1,03,1","03,99,1,03,1,01,1,00800,1,01,1,01,1",,"01,9",,"120,M,+0250,1","180,N,-0016,1","99999,9,08228,1","2,1,002,1,-014,1",,,"SYN136AAXX  17001 76373 32580 32502 10211 20001 38228 40178 52002 83111 90055 333 10250 21016 30/// 50291 56999 59014 70000 81825 81337 81067;",
"76373099999","2012-01-17T03:00:00","4","25.35","-105.75","1967.0","TEPEHUANES DGO., MX","FM-12","99999","V020","320,1,N,0010,1","22000,1,9,N","001000,1,N,1","+0133,1","+0017,1","10208,1",,,,,,"00,1,+99999,9,99,9",,"00,99,1,00,1,00,1,99999,9,00,1,00,1",,"01,9",,,,"99999,9,08252,1","2,1,036,1,+009,1",,,"SYN082AAXX  17031 76373 32910 03201 10133 20017 38252 40208 52036 90255 333 30/// 58009;",
"76373099999","2012-01-17T06:00:00","4","25.35","-105.75","1967.0","TEPEHUANES DGO., MX","FM-12","99999","V020","999,9,C,0000,1","22000,1,9,N","000600,1,N,1","+0079,1","+0000,1","10213,1",,,,,,"00,1,+99999,9,99,9",,"00,99,1,00,1,00,1,99999,9,00,1,00,1","0546,9","01,9",,"240,M,+0250,1","240,N,-0016,1","99999,9,08256,1","0,1,004,1,+999,9",,,"SYN106AAXX  17061 76373 32906 00000 10079 20000 38256 40213 50004 90545 333 10250 21016 30/// 55091 21119 59001;",
"76373099999","2012-01-17T12:00:00","4","25.35","-105.75","1967.0","TEPEHUANES DGO., MX","FM-12","99999","V020","999,9,C,0000,1","22000,1,9,N","000600,1,N,1","+0015,1","-0017,1","10203,1","24,0000,9,1",,,,,"01,1,+05100,1,00,1",,"01,99,1,00,1,00,1,99999,9,00,1,04,1",,"09,9","999,-0011,9","120,N,+0002,1","240,M,+0250,1","99999,9,08248,1",,,,"SYN118AAXX  17121 76373 32906 10000 10015 21017 38248 40203 5//// 80004 91150 333 10250 20002 31011 56009 58/// 70000 81067;",
"76373099999","2012-01-17T18:00:00","4","25.35","-105.75","1967.0","TEPEHUANES DGO., MX","FM-12","99999","V020","140,1,N,0010,1","22000,1,9,N","020000,1,N,1","+0162,1","+0017,1","10220,1",,,,,,"02,1,+05100,1,00,1",,"02,99,1,00,1,00,1,99999,9,00,1,04,1",,"01,9",,"120,M,+0171,1","240,N,+0002,1","99999,9,08262,1","8,1,007,1,+002,1",,,"SYN112AAXX  17181 76373 32970 21401 10162 20017 38262 40220 58007 80004 91750 333 10171 20002 30/// 56009 58002 82067;",
"76373099999","2012-01-17T21:00:00","4","25.35","-105.75","1967.0","TEPEHUANES DGO., MX","FM-12","99999","V020","310,1,N,0030,1","22000,1,9,N","020000,1,N,1","+0235,1","-0041,1","10172,1",,,,,,"02,1,+00810,1,06,1",,"03,99,1,02,1,04,1,01250,1,07,1,00,1",,"01,9",,,,"99999,9,08223,1","7,1,039,1,-003,1",,,"SYN100AAXX  17211 76373 32670 33103 10235 21041 38223 40172 57039 82470 92045 333 30/// 56990 59003 82627;",
"76373099999","2012-01-18T00:00:00","4","25.35","-105.75","1967.0","TEPEHUANES DGO., MX","FM-12","99999","V020","310,1,N,0020,1","22000,1,9,N","020000,1,N,1","+0212,1","-0033,1","10174,1","24,0000,9,1",,,,,"01,1,+00810,1,08,1",,"06,99,1,01,1,02,1,01250,1,00,1,04,1",,"01,9",,"120,M,+0248,1","180,N,+0002,1","99999,9,08224,1","3,1,001,1,-004,1",,,"SYN130AAXX  18001 76373 32670 63102 10212 21033 38224 40174 53001 81204 92350 333 10248 20002 30/// 50401 56909 59004 70000 81827 85067;",
"76373099999","2012-01-18T03:00:00","4","25.35","-105.75","1967.0","TEPEHUANES DGO., MX","FM-12","99999","V020","999,9,C,0000,1","22000,1,9,N","000600,1,N,1","+0142,1","-0031,1","10198,1",,,,,,"00,1,+99999,9,99,9",,"00,99,1,00,1,00,1,99999,9,00,1,00,1",,"01,9",,,,"99999,9,08244,1","2,1,020,1,-008,1",,,"SYN082AAXX  18031 76373 32906 00000 10142 21031 38244 40198 52020 90250 333 30/// 59008;",
"76373099999","2012-01-18T06:00:00","4","25.35","-105.75","1967.0","TEPEHUANES DGO., MX","FM-12","99999","V020","999,9,C,0000,1","22000,1,9,N","000600,1,N,1","+0069,1","-0038,1","10206,1",,,,,,"00,1,+99999,9,99,9",,"00,99,1,00,1,00,1,99999,9,00,1,00,1","0540,9","01,9",,"240,M,+0248,1","240,N,+0002,1","99999,9,08250,1","0,1,006,1,+999,9",,,"SYN106AAXX  18061 76373 32906 00000 10069 21038 38250 40206 50006 90550 333 10248 20002 30/// 55090 21619 59006;",
"76373099999","2012-01-18T12:00:00","4","25.35","-105.75","1967.0","TEPEHUANES DGO., MX","FM-12","99999","V020","999,9,C,0000,1","22000,1,9,N","000600,1,N,1","+0006,1","-0036,1","10206,1","24,0000,9,1",,,,,"00,1,+99999,9,99,9",,"00,99,1,00,1,00,1,99999,9,00,1,00,1",,"09,9","999,-0022,9","120,N,-0013,1","240,M,+0248,1","99999,9,08250,1","9,9,999,9,+002,1",,,"SYN100AAXX  18121 76373 32906 00000 10006 21036 38250 40206 5//// 91150 333 10248 21013 31022 58002 70000;","Q01  00002PRCP24"
"76373099999","2012-01-18T18:00:00","4","25.35","-105.75","1967.0","TEPEHUANES DGO., MX","FM-12","99999","V020","140,1,N,0010,1","22000,1,9,N","020000,1,N,1","+0159,1","-0008,1","10216,1",,,,,,"01,1,+00810,1,08,1",,"04,99,1,01,1,02,1,01250,1,07,1,00,1",,"01,9",,"120,M,+0184,1","240,N,-0013,1","99999,9,08258,1","8,1,007,1,-004,1",,,"SYN118AAXX  18181 76373 32670 41401 10159 21008 38258 40216 58007 81270 91750 333 10184 21013 30/// 56990 59004 81827 83657;",
"76373099999","2012-01-18T21:00:00","4","25.35","-105.75","1967.0","TEPEHUANES DGO., MX","FM-12","99999","V020","140,1,N,0010,1","22000,1,9,N","030000,1,N,1","+0237,1","-0068,1","10170,1",,,,,,"01,1,+00810,1,08,1",,"02,99,1,02,1,01,1,01250,1,01,1,00,1",,"01,9",,,,"99999,9,08221,1","7,1,057,1,-003,1",,,"SYN106AAXX  18211 76373 32680 21401 10237 21068 38221 40170 57057 82110 92055 333 30/// 56990 59003 81827 81357;",
"76373099999","2012-01-19T00:00:00","4","25.35","-105.75","1967.0","TEPEHUANES DGO., MX","FM-12","99999","V020","140,1,N,0010,1","22000,1,9,N","030000,1,N,1","+0235,1","-0054,1","10158,1",,,,,,"00,1,+99999,9,99,9",,"00,99,1,00,1,00,1,99999,9,00,1,00,1",,"01,9",,"120,M,+0262,1","180,N,-0013,1","99999,9,08211,1","2,1,001,1,-023,1",,,"SYN100AAXX  19001 76373 32980 01401 10235 21054 38211 40158 52001 90050 333 10262 21013 30/// 50341 59023;",
"76373099999","2012-01-19T06:00:00","4","25.35","-105.75","1967.0","TEPEHUANES DGO., MX","FM-12","99999","V020","999,9,C,0000,1","22000,1,9,N","001000,1,N,1","+0086,1","-0067,1","10182,1",,,,,,"00,1,+99999,9,99,9",,"00,99,1,00,1,00,1,99999,9,00,1,00,1","0528,9","01,9",,"240,M,+0262,1","240,N,-0013,1","99999,9,08230,1","7,1,004,1,+999,9",,,"SYN106AAXX  19061 76373 32910 00000 10086 21067 38230 40182 57004 90550 333 10262 21013 30/// 55088 21619 59002;",
"76373099999","2012-01-19T12:00:00","4","25.35","-105.75","1967.0","TEPEHUANES DGO., MX","FM-12","99999","V020","999,9,C,0000,1","22000,1,9,N","001000,1,N,1","+0003,1","-0066,1","10178,1","24,0000,9,1",,,,,"00,1,+99999,9,99,9",,"00,99,1,00,1,00,1,99999,9,00,1,00,1",,"09,9","999,-0023,9","120,N,-0012,1","240,M,+0262,1","99999,9,08228,1","9,9,999,9,-032,1",,,"SYN100AAXX  19121 76373 32910 00000 10003 21066 38228 40178 5//// 91155 333 10262 21012 31023 59032 70000;","Q01  00002PRCP24"
"76373099999","2012-01-19T15:00:00","4","25.35","-105.75","1967.0","TEPEHUANES DGO., MX","FM-12","99999","V020","999,9,C,0000,1","22000,1,9,N","020000,1,N,1","+0011,1","-0064,1","10195,1",,,,,,"01,1,+00810,1,08,1","01,1,+01110,1,03,1","04,99,1,02,1,01,1,00800,1,01,1,02,1",,"01,9",,,,"99999,9,08241,1","2,1,027,1,-026,1",,,"SYN112AAXX  19151 76373 32570 40000 10011 21064 38241 40195 52027 82112 91455 333 30/// 56999 59026 81827 81337 82067;",
"76373099999","2012-01-19T18:00:00","4","25.35","-105.75","1967.0","TEPEHUANES DGO., MX","FM-12","99999","V020","999,9,C,0000,1","00750,1,C,N","030000,1,N,1","+0152,1","-0045,1","10175,1",,,,,,"02,1,+00750,1,08,1","02,1,+01110,1,03,1","06,99,1,06,1,02,1,00800,1,02,1,02,1",,"01,9",,"120,M,+0160,1","240,N,-0012,1","99999,9,08225,1","7,1,016,1,-033,1",,,"SYN124AAXX  19181 76373 32580 60000 10152 21045 38225 40175 57016 86222 91755 333 10160 21012 30/// 56999 59033 82825 82337 82067;",
"76373099999","2012-01-19T21:00:00","4","25.35","-105.75","1967.0","TEPEHUANES DGO., MX","FM-12","99999","V020","140,1,N,0010,1","22000,1,9,N","030000,1,N,1","+0256,2","-0062,1","10129,1",,,,,,"01,1,+00750,1,08,1","01,1,+01110,1,03,1","04,99,1,02,1,01,1,00800,1,01,1,02,1",,"01,9",,,,"99999,9,08188,1","7,1,037,1,-033,1",,,"SYN112AAXX  19211 76373 32580 41401 10256 21062 38188 40129 57037 82112 92055 333 30/// 56999 59033 81825 81337 82067;",
"76373099999","2012-01-20T00:00:00","4","25.35","-105.75","1967.0","TEPEHUANES DGO., MX","FM-12","99999","V020","250,1,N,0010,1","00750,1,9,N","030000,1,N,1","+0218,1","-0046,1","10135,1","24,0000,9,1",,,,,"03,1,+00600,1,08,1",,"07,99,1,07,1,07,1,00800,1,00,1,00,1",,"01,9",,"120,M,+0270,1","180,N,-0012,1","99999,9,08193,1","1,1,005,1,-018,1",,,"SYN130AAXX  20001 76373 32580 72501 10218 21046 38193 40135 51005 87700 92350 333 10270 21012 30/// 50401 56900 59018 70000 83820 84625;",
"76373099999","2012-01-20T03:00:00","4","25.35","-105.75","1967.0","TEPEHUANES DGO., MX","FM-12","99999","V020","320,1,N,0010,1","22000,1,9,N","001000,1,N,1","+0168,1","-0044,1","10149,1",,,,,,"01,1,+00600,1,08,1",,"03,99,1,03,1,03,1,00800,1,00,1,00,1",,"01,9",,,,"99999,9,08204,1","2,1,011,1,-030,1",,,"SYN106AAXX  20031 76373 32510 33201 10168 21044 38204 40149 52011 83300 90250 333 30/// 56900 59030 81820 82625;",
"76373099999","2012-01-20T06:00:00","4","25.35","-105.75","1967.0","TEPEHUANES DGO., MX","FM-12","99999","V020","320,1,N,0010,1","22000,1,9,N","001000,1,N,1","+0110,1","-0065,1","10158,1",,,,,,"01,1,+00600,1,08,1",,"02,99,1,02,1,02,1,00800,1,00,1,00,1","0462,9","01,9",,"240,M,+0270,1","240,N,-0012,1","99999,9,08211,1","1,1,007,1,-019,1",,,"SYN130AAXX  20061 76373 32510 23201 10110 21065 38211 40158 51007 82200 90540 333 10270 21012 30/// 55077 21208 56900 59019 81820 81625;",
"76373099999","2012-01-20T12:00:00","4","25.35","-105.75","1967.0","TEPEHUANES DGO., MX","FM-12","99999","V020","999,9,C,0000,1","22000,1,9,N","001000,1,N,1","+0046,1","-0067,1","10145,1","24,0000,9,1",,,,,"00,1,+99999,9,99,9",,"00,99,1,00,1,00,1,99999,9,00,1,00,1",,"01,9","999,+0008,9","120,N,+0020,1","240,M,+0270,1","99999,9,08201,1","9,9,999,9,-027,1",,,"SYN100AAXX  20121 76373 32910 00000 10046 21067 38201 40145 5//// 91155 333 10270 20020 30008 59027 70000;","Q01  00002PRCP24"
"76373099999","2012-01-20T18:00:00","4","25.35","-105.75","1967.0","TEPEHUANES DGO., MX","FM-12","99999","V020","140,1,N,0010,1","22000,1,9,N","030000,1,N,1","+0208,1","-0088,1","10154,1",,,,,,"01,1,+00750,1,08,1","01,1,+01110,1,03,1","03,99,1,02,1,01,1,00800,1,01,1,01,1",,"01,9",,"120,M,+0220,1","240,N,+0020,1","99999,9,08208,1","7,1,007,1,-017,1",,,"SYN124AAXX  20181 76373 32580 31401 10208 21088 38208 40154 57007 82111 91755 333 10220 20020 30/// 56999 59017 81825 81337 81067;",
"76373099999","2012-01-20T21:00:00","4","25.35","-105.75","1967.0","TEPEHUANES DGO., MX","FM-12","99999","V020","320,1,N,0020,1","00750,1,9,N","030000,1,N,1","+0242,1","-0045,1","10127,1",,,,,,"03,1,+00600,1,06,1","02,1,+00750,1,08,1","07,99,1,07,1,05,1,00800,1,02,1,00,1",,"01,9",,,,"99999,9,08186,1","7,1,022,1,-002,1",,,"SYN106AAXX  20211 76373 32580 73202 10242 21045 38186 40127 57022 87520 92055 333 30/// 59002 83620 82825 82330;",
"76373099999","2012-01-21T18:00:00","4","25.35","-105.75","1967.0","TEPEHUANES DGO., MX","FM-12","99999","V020","999,9,C,0000,1","22000,1,9,N","030000,1,N,1","+0192,1","-0051,1","10159,1",,,,,,"01,1,+00750,1,08,1","02,1,+01110,1,03,1","04,99,1,03,1,01,1,00800,1,02,1,01,1",,"01,9",,"120,M,+0200,1","240,N,+0018,1","99999,9,08212,1","7,1,009,1,+004,1",,,"SYN124AAXX  21181 76373 32580 40000 10192 21051 38212 40159 57009 83121 91750 333 10200 20018 30/// 56999 58004 81825 82337 81067;",
"76373099999","2012-01-22T03:00:00","4","25.35","-105.75","1967.0","TEPEHUANES DGO., MX","FM-12","99999","V020","999,9,C,0000,1","00900,1,9,N","005000,1,N,1","+0163,1","-0054,1","10137,1",,,,,,"07,1,+00900,1,06,1",,"07,99,1,07,1,06,1,00800,1,00,1,00,1",,"01,9",,,,"99999,9,08194,1","2,1,004,1,-008,1",,,"SYN100AAXX  22031 76373 32550 70000 10163 21054 38194 40137 52004 87600 90250 333 30/// 56900 59008 87630;",
"76373099999","2012-01-22T12:00:00","4","25.35","-105.75","1967.0","TEPEHUANES DGO., MX","FM-12","99999","V020","999,9,C,0000,1","22000,1,9,N","005000,1,N,1","+0046,1","-0043,1","10137,1",,,,,,"00,1,+99999,9,99,9",,"00,99,1,00,1,00,1,99999,9,00,1,00,1","0432,9","01,9","999,+0024,9","120,N,+0035,1","240,M,+0278,1","99999,9,08194,1","9,9,999,9,-014,1",,,"SYN112AAXX  22121 76373 32950 00000 10046 21043 38194 40137 5//// 91150 333 10278 20035 30024 55072 21214 59014 70000;",
"76373099999","2012-01-22T18:00:00","4","25.35","-105.75","1967.0","TEPEHUANES DGO., MX","FM-12","99999","V020","310,1,N,0020,1","01500,1,9,N","020000,1,N,1","+0212,1","-0112,1","10156,1",,,,,,"05,1,+01500,1,03,1",,"07,99,1,99,9,00,1,01250,1,07,1,00,1",,"01,9",,"120,M,+0220,1","240,N,+0035,1","99999,9,08210,1","2,1,012,1,-002,1",,,"SYN112AAXX  22181 76373 32670 73102 10212 21112 38210 40156 52012 85070 91750 333 10220 20035 30/// 56090 59002 85350;","Q01+000052SCOTLC"
"76373099999","2012-01-22T21:00:00","4","25.35","-105.75","1967.0","TEPEHUANES DGO., MX","FM-12","99999","V020","290,1,N,0010,1","01500,1,9,N","020000,1,N,1","+0231,1","-0050,1","10119,1",,,,,,"07,1,+01500,1,03,1",,"07,99,1,07,1,00,1,01250,1,07,1,00,1",,"01,9",,,,"99999,9,08180,1","7,1,030,1,+999,9",,,"SYN100AAXX  22211 76373 32670 72901 10231 21050 38180 40119 57030 87070 92050 333 30/// 56090 58/// 87350;",
"76373099999","2012-01-23T00:00:00","4","25.35","-105.75","1967.0","TEPEHUANES DGO., MX","FM-12","99999","V020","310,1,N,0020,1","00750,1,9,N","020000,1,N,1","+0206,1","-0047,1","10124,1","24,0000,9,1",,,,,,,"07,99,1,07,1,02,1,00800,1,07,1,00,1",,"01,9",,"120,M,+0248,1","180,N,+0035,1","99999,9,08184,1","2,1,004,1,-020,1",,,"SYN124AAXX  23001 76373 32570 73102 10206 21047 38184 40124 52004 87270 92350 333 10248 20035 30/// 50441 56990 59020 70000 85350;",
"76373099999","2012-01-23T03:00:00","4","25.35","-105.75","1967.0","TEPEHUANES DGO., MX","FM-12","99999","V020","999,9,C,0000,1","22000,1,9,N","005000,1,N,1","+0143,1","-0041,1","10149,1",,,,,,"02,1,+01500,1,03,1",,"02,99,1,02,1,00,1,01250,1,07,1,00,1",,"01,9",,,,"99999,9,08204,1","2,1,020,1,+010,1",,,"SYN100AAXX  23031 76373 32650 20000 10143 21041 38204 40149 52020 82070 90250 333 30/// 56090 58010 82350;",
"76373099999","2012-01-23T06:00:00","4","25.35","-105.75","1967.0","TEPEHUANES DGO., MX","FM-12","99999","V020","999,9,C,0000,1","22000,1,9,N","005000,1,N,1","+0086,1","-0067,1","10155,1",,,,,,"00,1,+99999,9,99,9",,"00,99,1,00,1,00,1,99999,9,00,1,00,1","0264,9","01,9",,"240,M,+0248,1","240,N,+0035,1","99999,9,08208,1","2,1,004,1,+999,9",,,"SYN106AAXX  23061 76373 32950 00000 10086 21067 38208 40155 52004 90550 333 10248 20035 30/// 55044 21192 58011;",
"76373099999","2012-01-23T12:00:00","4","25.35","-105.75","1967.0","TEPEHUANES DGO., MX","FM-12","99999","V020","999,9,C,0000,1","22000,1,9,N","005000,1,N,1","+0055,1","-0067,1","10149,1",,,,,,"00,1,+99999,9,99,9",,"00,99,1,00,1,00,1,99999,9,00,1,00,1","0264,9","01,9","999,+0020,9","120,N,+0040,1","240,M,+0248,1","99999,9,08204,1","9,9,999,9,+010,1",,,"SYN112AAXX  23121 76373 32950 00000 10055 21067 38204 40149 5//// 91150 333 10248 20040 30020 55044 21192 58010 70000;",
"76373099999","2012-01-23T15:00:00","4","25.35","-105.75","1967.0","TEPEHUANES DGO., MX","FM-12","99999","V020","999,9,C,0000,1","01500,1,9,N","020000,1,N,1","+0059,1","-0065,1","10156,1",,,,,,"05,1,+01500,1,03,1",,"07,99,1,07,1,04,1,00800,1,07,1,00,1",,"01,9",,,,"99999,9,08210,1","2,1,006,1,+012,1",,,"SYN100AAXX  23151 76373 32570 70000 10059 21065 38210 40156 52006 87470 91450 333 30/// 56990 58012 85350;",
"76373099999","2012-01-23T18:00:00","4","25.35","-105.75","1967.0","TEPEHUANES DGO., MX","FM-12","99999","V020","999,9,C,0000,1","22000,1,9,N","020000,1,N,1","+0188,1","-0074,1","10152,1",,,,,,"01,1,+01500,1,03,1",,"01,99,1,01,1,00,1,01250,1,03,1,00,1",,"01,9",,"120,M,+0190,1","240,N,+0040,1","99999,9,08206,1","7,1,004,1,-040,1",,,"SYN112AAXX  23181 76373 32670 10000 10188 21074 38206 40152 57004 81030 91750 333 10190 20040 30/// 56090 59040 81350;",
"76373099999","2012-01-23T21:00:00","4","25.35","-105.75","1967.0","TEPEHUANES DGO., MX","FM-12","99999","V020","160,1,N,0010,1","22000,1,9,N","030000,1,N,1","+0261,2","-0097,1","10135,1",,,,,,"01,1,+01500,1,03,1",,"01,99,1,01,1,00,1,01250,1,03,1,00,1",,"01,9",,,,"99999,9,08193,1","7,1,017,1,+013,1",,,"SYN100AAXX  23211 76373 32680 11601 10261 21097 38193 40135 57017 81030 92050 333 30/// 56090 58013 81350;",
"76373099999","2012-01-24T00:00:00","4","25.35","-105.75","1967.0","TEPEHUANES DGO., MX","FM-12","99999","V020","250,1,N,0020,1","22000,1,9,N","030000,1,N,1","+0229,1","-0061,1","10104,1","24,0000,9,1",,,,,"00,1,+99999,9,99,9",,"00,99,1,00,1,00,1,99999,9,00,1,00,1",,"01,9",,"120,M,+0278,1","180,N,+0040,1","99999,9,08168,1","7,1,035,1,-024,1",,,"SYN106AAXX  24001 76373 32980 02502 10229 21061 38168 40104 57035 92350 333 10278 20040 30/// 50381 59024 70000;","Q01  00002PRCP24"
"76373099999","2012-01-24T03:00:00","4","25.35","-105.75","1967.0","TEPEHUANES DGO., MX","FM-12","99999","V020","160,1,N,0010,1","22000,1,9,N","001000,1,N,1","+0164,1","-0028,1","10127,1",,,,,,"00,1,+99999,9,99,9",,"00,99,1,00,1,00,1,99999,9,00,1,00,1",,"01,9",,,,"99999,9,08186,1","2,1,022,1,-022,1",,,"SYN082AAXX  24031 76373 32910 01601 10164 21028 38186 40127 52022 90255 333 30/// 59022;",
"76373099999","2012-01-24T06:00:00","4","25.35","-105.75","1967.0","TEPEHUANES DGO., MX","FM-12","99999","V020","999,9,9,9999,9","22000,1,9,N","001000,1,N,1","+0100,1","-0026,1","10134,1",,,,,,,,"01,99,1,99,9,99,9,99999,9,99,9,99,9","0522,9","01,9",,"240,M,+0278,1","240,N,+0040,1","99999,9,08192,1","7,1,021,1,+999,9",,,"SYN100AAXX  24061 76373 32910 10100 21026 38192 40134 57021 90550 333 10278 20040 30/// 55087 21586 59016;",
"76373099999","2012-01-24T12:00:00","4","25.35","-105.75","1967.0","TEPEHUANES DGO., MX","FM-12","99999","V020","999,9,C,0000,1","22000,1,9,N","001000,1,N,1","+0008,1","-0039,1","10129,1","24,0000,9,1",,,,,"00,1,+99999,9,99,9",,"00,99,1,00,1,00,1,99999,9,00,1,00,1",,"09,9","999,-0023,9","120,N,-0011,1","240,M,+0278,1","99999,9,08188,1","9,9,999,9,-024,1",,,"SYN100AAXX  24121 76373 32910 00000 10008 21039 38188 40129 5//// 91155 333 10278 21011 31023 59024 70000;","Q01  00002PRCP24"
"76373099999","2012-01-24T15:00:00","4","25.35","-105.75","1967.0","TEPEHUANES DGO., MX","FM-12","99999","V020","999,9,C,0000,1","22000,1,9,N","020000,1,N,1","+0021,1","-0038,1","10128,1",,,,,,"00,1,+99999,9,99,9",,"00,99,1,00,1,00,1,99999,9,00,1,00,1",,"01,9",,,,"99999,9,08187,1","7,1,001,1,-022,1",,,"SYN082AAXX  24151 76373 32970 00000 10021 21038 38187 40128 57001 91455 333 30/// 59022;",
"76373099999","2012-01-24T18:00:00","4","25.35","-105.75","1967.0","TEPEHUANES DGO., MX","FM-12","99999","V020","250,1,N,0010,1","22000,1,9,N","030000,1,N,1","+9999,9","-0062,1","10105,1",,,,,,"00,1,+99999,9,99,9",,"00,99,1,00,1,00,1,99999,9,00,1,00,1",,"01,9",,"120,M,+0210,1","240,N,-0011,1","99999,9,08169,1","7,1,018,1,-007,1",,,"SYN094AAXX  24181 76373 32980 02501 10204 21062 38169 40105 57018 91755 333 10210 21011 30/// 59007;","Q01+002043ATOT  "
"76373099999","2012-01-24T21:00:00","4","25.35","-105.75","1967.0","TEPEHUANES DGO., MX","FM-12","99999","V020","240,1,N,0030,1","22000,1,9,N","020000,1,N,1","+0214,2","-0063,1","10083,1",,,,,,"00,1,+99999,9,99,9",,"00,99,1,00,1,00,1,99999,9,00,1,00,1",,"01,9",,,,"99999,9,08151,1","7,1,046,1,-042,1",,,"SYN082AAXX  24211 76373 32970 02403 10214 21063 38151 40083 57046 92050 333 30/// 59042;",
"76373099999","2012-01-25T00:00:00","4","25.35","-105.75","1967.0","TEPEHUANES DGO., MX","FM-12","99999","V020","250,1,N,0020,1","22000,1,9,N","020000,1,N,1","+0165,1","-0058,1","10088,1","24,0000,9,1",,,,,"00,1,+99999,9,99,9",,"00,99,1,00,1,00,1,99999,9,00,1,00,1",,"01,9",,"120,M,+0227,1","180,N,-0011,1","99999,9,08154,1","3,1,003,1,-014,1",,,"SYN106AAXX  25001 76373 32970 02502 10165 21058 38154 40088 53003 92350 333 10227 21011 30/// 50441 59014 70000;","Q01  00002PRCP24"
"76373099999","2012-01-25T03:00:00","4","25.35","-105.75","1967.0","TEPEHUANES DGO., MX","FM-12","99999","V020","290,1,N,0010,1","22000,1,9,N","000600,1,N,1","+0117,1","-0004,1","10100,1",,,,,,"00,1,+99999,9,99,9",,"00,99,1,00,1,00,1,99999,9,00,1,00,1",,"01,9",,,,"99999,9,08164,1","2,1,010,1,-038,1",,,"SYN082AAXX  25031 76373 32906 02901 10117 21004 38164 40100 52010 90250 333 30/// 59038;",
"76373099999","2012-01-25T06:00:00","4","25.35","-105.75","1967.0","TEPEHUANES DGO., MX","FM-12","99999","V020","999,9,C,0000,1","22000,1,9,N","000400,1,N,1","+0074,1","-0008,1","10111,1",,,,,,"00,1,+99999,9,99,9",,"00,99,1,00,1,00,1,99999,9,00,1,00,1","0600,9","01,9",,"240,M,+0227,1","240,N,-0011,1","99999,9,08173,1","2,1,009,1,+999,9",,,"SYN106AAXX  25061 76373 32904 00000 10074 21008 38173 40111 52009 90550 333 10227 21011 30/// 55100 21965 59019;",
"76373099999","2012-01-25T12:00:00","4","25.35","-105.75","1967.0","TEPEHUANES DGO., MX","FM-12","99999","V020","999,9,C,0000,1","22000,1,9,N","000600,1,N,1","-0011,1","-0046,1","10114,1","24,0000,9,1",,,,,"00,1,+99999,9,99,9",,"00,99,1,00,1,00,1,99999,9,00,1,00,1",,"09,9","999,-0027,9","120,N,-0019,1","240,M,+0227,1","99999,9,08176,1",,,,"SYN100AAXX  25121 76373 32906 00000 11011 21046 38176 40114 5//// 91150 333 10227 21019 31027 70000 59012;",
"76373099999","2012-01-25T15:00:00","4","25.35","-105.75","1967.0","TEPEHUANES DGO., MX","FM-12","99999","V020","999,9,C,0000,1","22000,1,9,N","015000,1,N,1","+0019,1","-0054,1","10136,1",,,,,,"00,1,+99999,9,99,9",,"00,99,1,00,1,00,1,99999,9,00,1,00,1",,"01,9",,,,"99999,9,08194,1","2,1,018,1,+007,1",,,"SYN082AAXX  25151 76373 32965 00000 10019 21054 38194 40136 52018 91450 333 30/// 58007;",
"76373099999","2012-01-25T18:00:00","4","25.35","-105.75","1967.0","TEPEHUANES DGO., MX","FM-12","99999","V020","999,9,C,0000,1","22000,1,9,N","020000,1,N,1","+0149,1","-0078,1","10124,1",,,,,,"00,1,+99999,9,99,9",,"00,99,1,00,1,00,1,99999,9,00,1,00,1",,"01,9",,"120,M,+0163,1","240,N,-0019,1","99999,9,08184,1","7,1,010,1,-013,1",,,"SYN094AAXX  25181 76373 32970 00000 10149 21078 38184 40124 57010 91750 333 10163 21019 30/// 59013;",
"76373099999","2012-01-25T21:00:00","4","25.35","-105.75","1967.0","TEPEHUANES DGO., MX","FM-12","99999","V020","250,1,N,0020,1","22000,1,9,N","020000,1,N,1","+0190,2","-0165,1","10093,1",,,,,,"00,1,+99999,9,99,9",,"00,99,1,00,1,00,1,99999,9,00,1,00,1",,"01,9",,,,"99999,9,08159,1","7,1,035,1,+008,1",,,"SYN082AAXX  25211 76373 32970 02502 10190 21165 38159 40093 57035 92050 333 30/// 58008;",
"76373099999","2012-01-26T00:00:00","4","25.35","-105.75","1967.0","TEPEHUANES DGO., MX","FM-12","99999","V020","250,1,N,0010,1","22000,1,9,N","020000,1,N,1","+0178,1","-0137,1","10092,1","24,0000,9,1",,,,,"00,1,+99999,9,99,9",,"00,99,1,00,1,00,1,99999,9,00,1,00,1",,"01,9",,"120,M,+0208,1","180,N,-0019,1","99999,9,08158,1","5,1,001,1,+004,1",,,"SYN106AAXX  26001 76373 32970 02501 10178 21137 38158 40092 55001 92350 333 10208 21019 30/// 50521 58004 70000;","Q01  00002PRCP24"
"76373099999","2012-01-26T03:00:00","4","25.35","-105.75","1967.0","TEPEHUANES DGO., MX","FM-12","99999","V020","140,1,N,0010,1","22000,1,9,N","000600,1,N,1","+0099,1","-0081,1","10128,1",,,,,,"00,1,+99999,9,99,9",,"00,99,1,00,1,00,1,99999,9,00,1,00,1",,"01,9",,,,"99999,9,08187,1","2,1,029,1,+023,1",,,"SYN082AAXX  26031 76373 32906 01401 10099 21081 38187 40128 52029 90250 333 30/// 58023;",
"76373099999","2012-01-26T06:00:00","4","25.35","-105.75","1967.0","TEPEHUANES DGO., MX","FM-12","99999","V020","999,9,C,0000,1","22000,1,9,N","000600,1,N,1","+0045,1","-0084,1","10159,1",,,,,,"00,1,+99999,9,99,9",,"00,99,1,00,1,00,1,99999,9,00,1,00,1","0600,9","01,9",,"240,M,+0208,1","240,N,-0019,1","99999,9,08212,1","2,1,025,1,+999,9",,,"SYN106AAXX  26061 76373 32906 00000 10045 21084 38212 40159 52025 90545 333 10208 21019 30/// 55100 21989 58039;",
"76373099999","2012-01-26T12:00:00","4","25.35","-105.75","1967.0","TEPEHUANES DGO., MX","FM-12","99999","V020","999,9,C,0000,1","22000,1,9,N","000400,1,N,1","-0040,1","-0101,1","10170,1","24,0000,9,1",,,,,"00,1,+99999,9,99,9",,"00,99,1,00,1,00,1,99999,9,00,1,00,1",,"09,9",,"120,N,-0051,1","240,M,+0208,1","99999,9,08221,1","9,9,999,9,+045,1",,,"SYN100AAXX  26121 76373 32904 00000 11040 21101 38221 40170 5//// 91150 333 10208 21051 31063 58045 70000;","Q01  00002PRCP24"
"76373099999","2012-01-26T15:00:00","4","25.35","-105.75","1967.0","TEPEHUANES DGO., MX","FM-12","99999","V020","999,9,C,0000,1","22000,1,9,N","015000,1,N,1","-0029,1","-0091,1","10192,1",,,,,,"00,1,+99999,9,99,9",,"00,99,1,00,1,00,1,99999,9,00,1,00,1",,"01,9",,,,"99999,9,08239,1","2,1,018,1,+045,1",,,"SYN082AAXX  26151 76373 32965 00000 11029 21091 38239 40192 52018 91450 333 30/// 58045;",
"76373099999","2012-01-26T18:00:00","4","25.35","-105.75","1967.0","TEPEHUANES DGO., MX","FM-12","99999","V020","140,1,N,0010,1","22000,1,9,N","030000,1,N,1","+0112,1","-0061,1","10197,1",,,,,,"00,1,+99999,9,99,9",,"00,99,1,00,1,00,1,99999,9,00,1,00,1",,"01,9",,"120,M,+0120,1","240,N,-0051,1","99999,9,08243,1","1,1,004,1,+059,1",,,"SYN094AAXX  26181 76373 32980 01401 10112 21061 38243 40197 51004 91750 333 10120 21051 30/// 58059;",
"76373099999","2012-01-26T21:00:00","4","25.35","-105.75","1967.0","TEPEHUANES DGO., MX","FM-12","99999","V020","160,1,N,0010,1","22000,1,9,N","030000,1,N,1","+0176,1","-0098,1","10166,1",,,,,,"00,1,+99999,9,99,9",,"00,99,1,00,1,00,1,99999,9,00,1,00,1",,"01,9",,,,"99999,9,08218,1","7,1,025,1,+059,1",,,"SYN082AAXX  26211 76373 32980 01601 10176 21098 38218 40166 57025 92055 333 30/// 58059;",
"76373099999","2012-01-27T00:00:00","4","25.35","-105.75","1967.0","TEPEHUANES DGO., MX","FM-12","99999","V020","160,1,N,0010,1","22000,1,9,N","030000,1,N,1","+0176,1","-0117,1","10155,1","24,0000,9,1",,,,,"00,1,+99999,9,99,9",,"00,99,1,00,1,00,1,99999,9,00,1,00,1",,"01,9",,"120,M,+0200,1","180,N,-0051,1","99999,9,08209,1","7,1,010,1,+051,1",,,"SYN106AAXX  27001 76373 32980 01601 10176 21117 38209 40155 57010 92355 333 10200 21051 30/// 50301 58051 70000;","Q01  00002PRCP24"
"76373099999","2012-01-27T03:00:00","4","25.35","-105.75","1967.0","TEPEHUANES DGO., MX","FM-12","99999","V020","250,1,N,0010,1","22000,1,9,N","001000,1,N,1","+0080,1","-0116,1","10172,1",,,,,,"00,1,+99999,9,99,9",,"00,99,1,00,1,00,1,99999,9,00,1,00,1",,"01,9",,,,"99999,9,08223,1","2,1,014,1,+036,1",,,"SYN082AAXX  27031 76373 32910 02501 10080 21116 38223 40172 52014 90255 333 30/// 58036;",
"76373099999","2012-01-27T06:00:00","4","25.35","-105.75","1967.0","TEPEHUANES DGO., MX","FM-12","99999","V020","999,9,C,0000,1","22000,1,9,N","001000,1,N,1","+0020,1","-0128,1","10183,1",,,,,,"00,1,+99999,9,99,9",,"00,99,1,00,1,00,1,99999,9,00,1,00,1","0600,9","01,9",,"240,M,+0200,1","240,N,-0015,1","99999,9,08232,1","2,1,010,1,+999,9",,,"SYN106AAXX  27061 76373 32910 00000 10020 21128 38232 40183 52010 90555 333 10200 21015 30/// 55100 21892 58020;",
"76373099999","2012-01-27T12:00:00","4","25.35","-105.75","1967.0","TEPEHUANES DGO., MX","FM-12","99999","V020","290,1,N,0010,1","22000,1,9,N","000600,1,N,1","-0052,1","-0127,1","10166,1","24,0000,9,1",,,,,"00,1,+99999,9,99,9",,"00,99,1,00,1,00,1,99999,9,00,1,00,1",,"09,9",,"120,N,-0066,1","240,M,+0200,1","99999,9,08218,1","9,9,999,9,-003,1",,,"SYN100AAXX  27121 76373 32906 02901 11052 21127 38218 40166 5//// 91155 333 10200 21066 31078 59003 70000;","Q01  00002PRCP24"
"76373099999","2012-01-27T15:00:00","4","25.35","-105.75","1967.0","TEPEHUANES DGO., MX","FM-12","99999","V020","999,9,C,0000,1","22000,1,9,N","020000,1,N,1","-0034,1","-0121,1","10184,1",,,,,,"00,1,+99999,9,99,9",,"00,99,1,00,1,00,1,99999,9,00,1,00,1",,"01,9",,,,"99999,9,08232,1","2,1,014,1,-007,1",,,"SYN082AAXX  27151 76373 32970 00000 11034 21121 38232 40184 52014 91450 333 30/// 59007;",
"76373099999","2012-01-27T18:00:00","4","25.35","-105.75","1967.0","TEPEHUANES DGO., MX","FM-12","99999","V020","140,1,N,0010,1","22000,1,9,N","030000,1,N,1","+9999,9","-0103,1","10172,1",,,,,,"00,1,+99999,9,99,9",,"00,99,1,00,1,00,1,99999,9,00,1,00,1",,"01,9",,"120,M,+0142,1","240,N,-0066,1","99999,9,08222,1","7,1,010,1,-021,1",,,"SYN094AAXX  27181 76373 32980 01401 10136 21103 38222 40172 57010 91755 333 10142 21066 30/// 59021;","Q01+001363ATOT  "
"76373099999","2012-01-27T21:00:00","4","25.35","-105.75","1967.0","TEPEHUANES DGO., MX","FM-12","99999","V020","140,1,N,0010,1","22000,1,9,N","030000,1,N,1","+0240,2","-0124,1","10119,1",,,,,,"00,1,+99999,9,99,9",,"00,99,1,00,1,00,1,99999,9,00,1,00,1",,"01,9",,,,"99999,9,08180,1","7,1,042,1,-038,1",,,"SYN082AAXX  27211 76373 32980 01401 10240 21124 38180 40119 57042 92055 333 30/// 59038;",
"76373099999","2012-01-28T00:00:00","4","25.35","-105.75","1967.0","TEPEHUANES DGO., MX","FM-12","99999","V020","250,1,N,0020,1","22000,1,9,N","030000,1,N,1","+0200,1","-0083,1","10127,1","24,0000,9,1",,,,,"00,1,+99999,9,99,9",,"00,99,1,00,1,00,1,99999,9,00,1,00,1",,"01,9",,"120,M,+0260,1","180,N,-0066,1","99999,9,08186,1","1,1,006,1,-023,1",,,"SYN106AAXX  28001 76373 32980 02502 10200 21083 38186 40127 51006 92355 333 10260 21066 30/// 50401 59023 70000;","Q01  00002PRCP24"
"76373099999","2012-01-28T03:00:00","4","25.35","-105.75","1967.0","TEPEHUANES DGO., MX","FM-12","99999","V020","250,1,N,0010,1","22000,1,9,N","001000,1,N,1","+0128,1","-0064,1","10150,1",,,,,,"00,1,+99999,9,99,9",,"00,99,1,00,1,00,1,99999,9,00,1,00,1",,"01,9",,,,"99999,9,08205,1","2,1,019,1,-018,1",,,"SYN082AAXX  28031 76373 32910 02501 10128 21064 38205 40150 52019 90255 333 30/// 59018;",
"76373099999","2012-01-28T12:00:00","4","25.35","-105.75","1967.0","TEPEHUANES DGO., MX","FM-12","99999","V020","999,9,C,0000,1","22000,1,9,N","000600,1,N,1","-0018,1","-0079,1","10169,1","24,0000,9,1",,,,,"00,1,+99999,9,99,9",,"00,99,1,00,1,00,1,99999,9,00,1,00,1",,"09,9","999,-0048,9","120,N,-0030,1","240,M,+0260,1","99999,9,08220,1","9,9,999,9,+002,1",,,"SYN100AAXX  28121 76373 32906 00000 11018 21079 38220 40169 5//// 91155 333 10260 21030 31048 58002 70000;","Q01  00002PRCP24"
"76373099999","2012-01-28T15:00:00","4","25.35","-105.75","1967.0","TEPEHUANES DGO., MX","FM-12","99999","V020","999,9,C,0000,1","22000,1,9,N","030000,1,N,1","+0004,1","-0057,1","10187,1",,,,,,"00,1,+99999,9,99,9",,"00,99,1,00,1,00,1,99999,9,00,1,00,1",,"01,9",,,,"99999,9,08234,1","2,1,014,1,+004,1",,,"SYN082AAXX  28151 76373 32980 00000 10004 21057 38234 40187 52014 91455 333 30/// 58004;",
"76373099999","2012-01-28T18:00:00","4","25.35","-105.75","1967.0","TEPEHUANES DGO., MX","FM-12","99999","V020","999,9,C,0000,1","22000,1,9,N","030000,1,N,1","+9999,9","-0031,1","10183,1",,,,,,"00,1,+99999,9,99,9",,"00,99,1,00,1,00,1,99999,9,00,1,00,1",,"01,9",,"120,M,+0168,1","240,N,-0030,1","99999,9,08232,1","7,1,002,1,+010,1",,,"SYN094AAXX  28181 76373 32980 00000 10167 21031 38232 40183 57002 91755 333 10168 21030 30/// 58010;","Q01+001673ATOT  "
"76373099999","2012-01-28T21:00:00","4","25.35","-105.75","1967.0","TEPEHUANES DGO., MX","FM-12","99999","V020","999,9,C,0000,1","22000,1,9,N","030000,1,N,1","+0222,2","-0088,1","10156,1",,,,,,"00,1,+99999,9,99,9",,"00,99,1,00,1,00,1,99999,9,00,1,00,1",,"01,9",,,,"99999,9,08210,1","7,1,022,1,+030,1",,,"SYN082AAXX  28211 76373 32980 00000 10222 21088 38210 40156 57022 92050 333 30/// 58030;",
"76373099999","2012-01-29T00:00:00","4","25.35","-105.75","1967.0","TEPEHUANES DGO., MX","FM-12","99999","V020","130,1,N,0010,1","22000,1,9,N","020000,1,N,1","+0211,1","-0090,1","10124,1","24,0000,9,1",,,,,"00,1,+99999,9,99,9",,"00,99,1,00,1,00,1,99999,9,00,1,00,1",,"01,9",,"120,M,+0240,1","180,N,-0030,1","99999,9,08184,1","7,1,036,1,-002,1",,,"SYN106AAXX  29001 76373 32970 01301 10211 21090 38184 40124 57036 92350 333 10240 21030 30/// 50371 59002 70000;","Q01  00002PRCP24"
"76373099999","2012-01-29T03:00:00","4","25.35","-105.75","1967.0","TEPEHUANES DGO., MX","FM-12","99999","V020","999,9,C,0000,1","22000,1,9,N","005000,1,N,1","+0126,1","-0081,1","10154,1",,,,,,"00,1,+99999,9,99,9",,"00,99,1,00,1,00,1,99999,9,00,1,00,1",,"01,9",,,,"99999,9,08208,1","2,1,024,1,-003,1",,,"SYN082AAXX  29031 76373 32950 00000 10126 21081 38208 40154 52024 90250 333 30/// 59003;",
"76373099999","2012-01-29T06:00:00","4","25.35","-105.75","1967.0","TEPEHUANES DGO., MX","FM-12","99999","V020","999,9,C,0000,1","22000,1,9,N","005000,1,N,1","+0073,1","-0075,1","10176,1",,,,,,"00,1,+99999,9,99,9",,"00,99,1,00,1,00,1,99999,9,00,1,00,1","0600,9","01,9",,"240,M,+0240,1","240,N,-0030,1","99999,9,08226,1","2,1,018,1,+999,9",,,"SYN106AAXX  29061 76373 32950 00000 10073 21075 38226 40176 52018 90550 333 10240 21030 30/// 55100 21884 58007;",
"76373099999","2012-01-29T12:00:00","4","25.35","-105.75","1967.0","TEPEHUANES DGO., MX","FM-12","99999","V020","999,9,C,0000,1","22000,1,9,N","005000,1,N,1","+0013,1","-0058,1","10196,1",,,,,,"00,1,+99999,9,99,9",,"00,99,1,00,1,00,1,99999,9,00,1,00,1","0600,9","09,9","999,-0017,9","120,N,-0002,1","240,M,+0240,1","99999,9,08242,1","9,9,999,9,+022,1",,,"SYN112AAXX  29121 76373 32950 00000 10013 21058 38242 40196 5//// 91150 333 10240 21002 31017 55100 21884 58022 70000;",
"76373099999","2012-01-29T18:00:00","4","25.35","-105.75","1967.0","TEPEHUANES DGO., MX","FM-12","99999","V020","999,9,C,0000,1","22000,1,9,N","020000,1,N,1","+0133,1","+0003,1","10203,1",,,,,,"01,1,+01500,1,04,1",,"01,99,1,01,1,00,1,01250,1,02,1,00,1",,"01,9",,"120,M,+0140,1","240,N,-0002,1","99999,9,08248,1","9,9,999,9,+016,1",,,"SYN112AAXX  29181 76373 32670 10000 10133 20003 38248 40203 5//// 81020 91750 333 10140 21002 30/// 56090 58016 81450;",
"76373099999","2012-01-29T21:00:00","4","25.35","-105.75","1967.0","TEPEHUANES DGO., MX","FM-12","99999","V020","150,1,N,0020,1","22000,1,9,N","020000,1,N,1","+0185,1","+0005,1","10158,1",,,,,,"01,1,+00750,1,08,1",,"02,99,1,01,1,02,1,00800,1,00,1,00,1",,"01,9",,,,"99999,9,08211,1","7,1,037,1,+001,1",,,"SYN100AAXX  29211 76373 32570 21502 10185 20005 38211 40158 57037 81200 92050 333 30/// 56990 58001 81825;",
"76373099999","2012-01-30T00:00:00","4","25.35","-105.75","1967.0","TEPEHUANES DGO., MX","FM-12","99999","V020","160,1,N,0010,1","00750,1,9,N","020000,1,N,1","+0152,1","+0015,1","10145,1","24,0000,9,1",,,,,,,"06,99,1,06,1,06,1,00800,1,00,1,00,1",,"01,9",,"120,M,+0200,1","180,N,-0002,1","99999,9,08201,1","7,1,010,1,+017,1",,,"SYN124AAXX  30001 76373 32570 61601 10152 20015 38201 40145 57010 86600 92350 333 10200 21002 30/// 50401 56900 58017 70000 86625;",
"76373099999","2012-01-30T15:00:00","4","25.35","-105.75","1967.0","TEPEHUANES DGO., MX","FM-12","99999","V020","999,9,C,0000,1","22000,1,9,N","020000,1,N,1","+0023,1","+0010,1","10186,1",,,,,,"00,1,+99999,9,99,9",,"00,99,1,00,1,00,1,99999,9,00,1,00,1",,"01,9",,,,"99999,9,08234,1","2,1,010,1,-012,1",,,"SYN082AAXX  30151 76373 32970 00000 10023 20010 38234 40186 52010 91450 333 30/// 59012;",
"76373099999","2012-01-30T21:00:00","4","25.35","-105.75","1967.0","TEPEHUANES DGO., MX","FM-12","99999","V020","999,9,C,0000,1","22000,1,9,N","030000,1,N,1","+0208,2","-0013,1","10137,1",,,,,,"00,1,+99999,9,99,9",,"00,99,1,00,1,00,1,99999,9,00,1,00,1",,"01,9",,,,"99999,9,08194,1","7,1,042,1,-013,1",,,"SYN082AAXX  30211 76373 32980 00000 10208 21013 38194 40137 57042 92055 333 30/// 59013;",
"76373099999","2012-01-31T00:00:00","4","25.35","-105.75","1967.0","TEPEHUANES DGO., MX","FM-12","99999","V020","250,1,N,0020,1","22000,1,9,N","030000,1,N,1","+0195,1","-0109,1","10142,1","24,0000,9,1",,,,,"00,1,+99999,9,99,9",,"00,99,1,00,1,00,1,99999,9,00,1,00,1",,"01,9",,"120,M,+0230,1","180,N,+0000,1","99999,9,08198,1","2,1,002,1,-006,1",,,"SYN106AAXX  31001 76373 32980 02502 10195 21109 38198 40142 52002 90058 333 10230 20000 30/// 50271 59006 70000;","Q01  00002PRCP24"
"76373099999","2012-01-31T03:00:00","4","25.35","-105.75","1967.0","TEPEHUANES DGO., MX","FM-12","99999","V020","999,9,C,0000,1","22000,1,9,N","001000,1,N,1","+0118,1","-0109,1","10179,1",,,,,,"00,1,+99999,9,99,9",,"00,99,1,00,1,00,1,99999,9,00,1,00,1",,"01,9",,,,"99999,9,08228,1","2,1,030,1,+004,1",,,"SYN082AAXX  31031 76373 32910 00000 10118 21109 38228 40179 52030 90250 333 30/// 58004;",
"76373099999","2012-01-31T15:00:00","4","25.35","-105.75","1967.0","TEPEHUANES DGO., MX","FM-12","99999","V020","999,9,C,0000,1","22000,1,9,N","020000,1,N,1","-0016,1","-0085,1","10200,1",,,,,,"00,1,+99999,9,99,9",,"00,99,1,00,1,00,1,99999,9,00,1,00,1",,"01,9",,,,"99999,9,08245,1","2,1,012,1,+011,1",,,"SYN082AAXX  31151 76373 32970 00000 11016 21085 38245 40200 52012 91455 333 30/// 58011;",
"76373099999","2012-01-31T18:00:00","4","25.35","-105.75","1967.0","TEPEHUANES DGO., MX","FM-12","99999","V020","999,9,C,0000,1","22000,1,9,N","030000,1,N,1","+0140,1","-0042,1","10195,1",,,,,,"00,1,+99999,9,99,9",,"00,99,1,00,1,00,1,99999,9,00,1,00,1",,"01,9",,"120,M,+0150,1","240,N,-0039,1","99999,9,08241,1","2,1,004,1,+003,1",,,"SYN094AAXX  31181 76373 32980 00000 10140 21042 38241 40195 52004 91755 333 10150 21039 30/// 58003;",
"76373099999","2012-02-01T00:00:00","4","25.35","-105.75","1967.0","TEPEHUANES DGO., MX","FM-12","99999","V020","280,1,N,0010,1","22000,1,9,N","020000,1,N,1","+0195,1","-0058,1","10142,1","24,0000,9,1",,,,,,,"04,99,1,00,1,00,1,99999,9,00,1,04,1",,"01,9",,"120,M,+0230,1","180,N,-0039,1","99999,9,08198,1","5,1,002,1,+004,1",,,"SYN124AAXX  01001 76373 32970 42801 10195 21058 38198 40142 55002 80004 92350 333 10230 21039 30/// 50391 56009 58004 70000 84067;",
"76373099999","2012-02-01T03:00:00","4","25.35","-105.75","1967.0","TEPEHUANES DGO., MX","FM-12","99999","V020","999,9,C,0000,1","22000,1,9,N","000600,1,N,1","+0125,1","-0040,1","10168,1",,,,,,"01,1,+05100,1,00,1",,"01,99,1,00,1,00,1,99999,9,00,1,04,1",,"01,9",,,,"99999,9,08219,1","2,1,021,1,-009,1",,,"SYN100AAXX  01031 76373 32906 10000 10125 21040 38219 40168 52021 80004 90250 333 30/// 56009 59009 81067;",
"76373099999","2012-02-01T06:00:00","4","25.35","-105.75","1967.0","TEPEHUANES DGO., MX","FM-12","99999","V020","999,9,C,0000,1","22000,1,9,N","000600,1,N,1","+0057,1","-0051,1","10185,1",,,,,,"00,1,+99999,9,99,9",,"00,99,1,00,1,00,1,99999,9,00,1,00,1","0006,9","01,9",,"240,M,+0230,1","240,N,-0039,1","99999,9,08233,1","2,1,014,1,+999,9",,,"SYN106AAXX  01061 76373 32906 00000 10057 21051 38233 40185 52014 90550 333 10230 21039 30/// 55001 21788 58001;",
"76373099999","2012-02-01T12:00:00","4","25.35","-105.75","1967.0","TEPEHUANES DGO., MX","FM-12","99999","V020","999,9,C,0000,1","22000,1,9,N","000600,1,N,1","-0013,1","-0066,1","10188,1","24,0000,9,1",,,,,"00,1,+99999,9,99,9",,"00,99,1,00,1,00,1,99999,9,00,1,00,1",,"09,9","999,-0030,9","120,N,-0021,1","240,M,+0230,1","99999,9,08236,1","9,9,999,9,+003,1",,,"SYN100AAXX  01121 76373 32906 00000 11013 21066 38236 40188 5//// 91150 333 10230 21021 31030 58003 70000;","Q01  00002PRCP24"
"76373099999","2012-02-01T15:00:00","4","25.35","-105.75","1967.0","TEPEHUANES DGO., MX","FM-12","99999","V020","999,9,C,0000,1","22000,1,9,N","015000,1,N,1","-0005,1","-0061,1","10198,1",,,,,,"02,1,+05100,1,00,1",,"02,99,1,00,1,00,1,99999,9,00,1,04,1",,"01,9",,,,"99999,9,08244,1","0,1,008,1,-001,1",,,"SYN100AAXX  01151 76373 32965 20000 11005 21061 38244 40198 50008 80004 91450 333 30/// 56009 59001 82067;",
"76373099999","2012-02-01T18:00:00","4","25.35","-105.75","1967.0","TEPEHUANES DGO., MX","FM-12","99999","V020","999,9,C,0000,1","22000,1,9,N","020000,1,N,1","+0149,1","-0034,1","10198,1",,,,,,"02,1,+05100,1,00,1",,"02,99,1,00,1,00,1,99999,9,00,1,04,1",,"01,9",,"120,M,+0161,1","240,N,-0021,1","99999,9,08244,1","0,1,000,1,+003,1",,,"SYN112AAXX  01181 76373 32970 20000 10149 21034 38244 40198 50000 80004 91750 333 10161 21021 30/// 56009 58003 82067;",
"76373099999","2012-02-01T21:00:00","4","25.35","-105.75","1967.0","TEPEHUANES DGO., MX","FM-12","99999","V020","140,1,N,0020,1","22000,1,9,N","020000,1,N,1","+0216,1","-0038,1","10156,1",,,,,,"04,1,+05100,1,00,1",,"04,99,1,00,1,00,1,99999,9,00,1,04,1",,"01,9",,,,"99999,9,08209,1","7,1,035,1,+009,1",,,"SYN100AAXX  01211 76373 32970 41402 10216 21038 38209 40156 57035 80004 92050 333 30/// 56009 58009 84067;",
"76373099999","2012-02-02T00:00:00","4","25.35","-105.75","1967.0","TEPEHUANES DGO., MX","FM-12","99999","V020","140,1,N,0010,1","22000,1,9,N","020000,1,N,1","+0203,1","-0049,1","10139,1","24,0000,9,1",,,,,,,"03,99,1,00,1,00,1,99999,9,00,1,04,1",,"01,9",,"120,M,+0230,1","180,N,-0021,1","99999,9,08196,1","7,1,013,1,-012,1",,,"SYN124AAXX  02001 76373 32970 31401 10203 21049 38196 40139 57013 80004 92350 333 10230 21021 30/// 50311 56909 59012 70000 83067;",
"76373099999","2012-02-02T03:00:00","4","25.35","-105.75","1967.0","TEPEHUANES DGO., MX","FM-12","99999","V020","999,9,C,0000,1","22000,1,9,N","000600,1,N,1","+0113,1","-0052,1","10151,1",,,,,,"00,1,+99999,9,99,9",,"00,99,1,00,1,00,1,99999,9,00,1,00,1",,"01,9",,,,"99999,9,08205,1","2,1,009,1,-014,1",,,"SYN082AAXX  02031 76373 32906 00000 10113 21052 38205 40151 52009 90250 333 30/// 59014;",
"76373099999","2012-02-02T06:00:00","4","25.35","-105.75","1967.0","TEPEHUANES DGO., MX","FM-12","99999","V020","999,9,C,0000,1","22000,1,9,N","000400,1,N,1","+0058,1","-0060,1","10165,1",,,,,,"00,1,+99999,9,99,9",,"00,99,1,00,1,00,1,99999,9,00,1,00,1","0588,9","01,9",,"240,M,+0230,1","240,N,-0021,1","99999,9,08217,1","2,1,012,1,+999,9",,,"SYN106AAXX  02061 76373 32904 00000 10058 21060 38217 40165 52012 90550 333 10230 21021 30/// 55098 21957 59016;",
"76373099999","2012-02-02T12:00:00","4","25.35","-105.75","1967.0","TEPEHUANES DGO., MX","FM-12","99999","V020","999,9,C,0000,1","22000,1,9,N","000600,1,N,1","-0017,1","-0072,1","10155,1","24,0000,9,1",,,,,"00,1,+99999,9,99,9",,"00,99,1,00,1,00,1,99999,9,00,1,00,1",,"09,9","999,-0034,9","120,N,-0022,1","240,M,+0230,1","99999,9,08209,1","9,9,999,9,-037,1",,,"SYN100AAXX  02121 76373 32906 00000 11017 21072 38209 40155 5//// 91150 333 10230 21022 31034 59037 70000;","Q01  00002PRCP24"
"76373099999","2012-02-02T15:00:00","4","25.35","-105.75","1967.0","TEPEHUANES DGO., MX","FM-12","99999","V020","999,9,C,0000,1","22000,1,9,N","015000,1,N,1","+0009,1","-0064,1","10158,1",,,,,,"01,1,+00840,1,06,1",,"03,99,1,01,1,04,1,01250,1,00,1,04,1",,"01,9",,,,"99999,9,08212,1","2,1,003,1,-032,1",,,"SYN106AAXX  02151 76373 32665 30000 10009 21064 38212 40158 52003 81404 91450 333 30/// 56309 59032 81628 82067;",
"76373099999","2012-02-02T18:00:00","4","25.35","-105.75","1967.0","TEPEHUANES DGO., MX","FM-12","99999","V020","999,9,C,0000,1","22000,1,9,N","030000,1,N,1","+0160,1","-0044,1","10135,1",,,,,,"01,1,+05100,1,00,1",,"01,99,1,00,1,00,1,99999,9,00,1,01,1",,"01,9",,"120,M,+0162,1","240,N,-0022,1","99999,9,08193,1","7,1,019,1,-051,1",,,"SYN112AAXX  02181 76373 32980 10000 10160 21044 38193 40135 57019 80001 91755 333 10162 21022 30/// 56009 59051 81067;",
"76373099999","2012-02-02T21:00:00","4","25.35","-105.75","1967.0","TEPEHUANES DGO., MX","FM-12","99999","V020","230,1,N,0010,1","22000,1,9,N","030000,1,N,1","+0254,2","-0133,1","10084,1",,,,,,"01,1,+05100,1,00,1",,"01,99,1,00,1,00,1,99999,9,00,1,01,1",,"01,9",,,,"99999,9,08152,1","7,1,041,1,-057,1",,,"SYN100AAXX  02211 76373 32980 12301 10254 21133 38152 40084 57041 80001 92055 333 30/// 56009 59057 81067;",
"76373099999","2012-02-03T15:00:00","4","25.35","-105.75","1967.0","TEPEHUANES DGO., MX","FM-12","99999","V020","999,9,C,0000,1","00600,1,9,N","020000,1,N,1","+0004,1","-0064,1","10151,1",,,,,,"05,1,+00600,1,06,1",,"08,99,1,08,1,08,1,00800,1,00,1,00,1",,"01,9",,,,"99999,9,08206,1","2,1,017,1,-006,1",,,"SYN106AAXX  03151 76373 32570 80000 10004 21064 38206 40151 52017 88800 91455 333 30/// 56900 59006 85620 83825;",
"76373099999","2012-02-03T18:00:00","4","25.35","-105.75","1967.0","TEPEHUANES DGO., MX","FM-12","99999","V020","160,1,N,0010,1","00600,1,9,N","030000,1,N,1","+0126,1","-0056,1","10148,1",,,,,,"05,1,+00600,1,06,1",,"08,99,1,08,1,08,1,00800,1,00,1,00,1",,"01,9",,"120,M,+0130,1","240,N,-0028,1","99999,9,08203,1","7,1,003,1,+010,1",,,"SYN118AAXX  03181 76373 32580 81601 10126 21056 38203 40148 57003 88800 91750 333 10130 21028 30/// 56900 58010 85620 83825;",
"76373099999","2012-02-03T21:00:00","4","25.35","-105.75","1967.0","TEPEHUANES DGO., MX","FM-12","99999","V020","140,1,N,0010,1","00600,1,9,N","030000,1,N,1","+0200,2","-0100,1","10112,1",,,,,,"06,1,+00600,1,06,1",,"08,99,1,99,9,06,1,00800,1,02,1,00,1",,"01,9",,,,"99999,9,08174,1","7,1,029,1,+022,1",,,"SYN106AAXX  03211 76373 32580 81401 10200 21100 38174 40112 57029 88620 92055 333 30/// 56990 58022 86620 82337;","Q01+000082SCOTLC"
"76373099999","2012-02-04T00:00:00","4","25.35","-105.75","1967.0","TEPEHUANES DGO., MX","FM-12","99999","V020","160,1,N,0010,1","01200,1,9,N","030000,1,N,1","+0196,1","-0106,1","10109,1","24,0000,9,1",,,,,,,"08,99,1,08,1,08,1,00800,1,00,1,00,1",,"01,9",,"120,M,+0220,1","180,N,-0028,1","99999,9,08172,1","7,1,015,1,+015,1",,,"SYN124AAXX  04001 76373 32580 81601 10196 21106 38172 40109 57015 88800 92355 333 10220 21028 30/// 50331 56900 58015 70000 88620;",
"76373099999","2012-02-04T06:00:00","4","25.35","-105.75","1967.0","TEPEHUANES DGO., MX","FM-12","99999","V020","999,9,C,0000,1","01200,1,9,N","000500,1,N,1","+0088,1","-0131,1","10134,1",,,,,,,,"08,99,1,08,1,08,1,00800,1,00,1,00,1","0060,9","01,9",,"240,M,+0220,1","240,N,-0028,1","99999,9,08192,1","1,1,008,1,+001,1",,,"SYN124AAXX  04061 76373 32505 80000 10088 21131 38192 40134 51008 88800 90550 333 10220 21028 30/// 55010 20765 56900 58001 88625;",
"76373099999","2012-02-04T12:00:00","4","25.35","-105.75","1967.0","TEPEHUANES DGO., MX","FM-12","99999","V020","999,9,C,0000,1","22000,1,9,N","000500,1,N,1","+0034,1","+9999,9","10130,1","24,0000,9,1",,,,,"02,1,+00750,1,08,1",,"02,99,1,02,1,02,1,00800,1,00,1,00,1",,"09,9","999,-0010,9","120,N,+0010,1","240,M,+0220,1","99999,9,08189,1","9,9,999,9,+000,1",,,"SYN112AAXX  04121 76373 32505 20000 10034 38189 40130 5//// 82200 91155 333 10220 20010 31010 56900 58000 70000 82825;",
"76373099999","2012-02-04T15:00:00","4","25.35","-105.75","1967.0","TEPEHUANES DGO., MX","FM-12","99999","V020","999,9,C,0000,1","00600,1,9,N","030000,1,N,1","+0038,1","-0099,1","10149,1",,,,,,"05,1,+00600,1,06,1",,"07,99,1,07,1,07,1,00800,1,00,1,00,1",,"01,9",,,,"99999,9,08204,1","2,1,015,1,-002,1",,,"SYN106AAXX  04151 76373 32580 70000 10038 21099 38204 40149 52015 87700 91450 333 30/// 56900 59002 85620 82825;",
"76373099999","2012-02-04T18:00:00","4","25.35","-105.75","1967.0","TEPEHUANES DGO., MX","FM-12","99999","V020","999,9,C,0000,1","00600,1,9,N","030000,1,N,1","+0149,1","-0103,1","10158,1",,,,,,"05,1,+00600,1,06,1",,"07,99,1,07,1,07,1,00800,1,00,1,00,1",,"01,9",,"120,M,+0160,1","240,N,+0010,1","99999,9,08212,1","2,1,012,1,+011,1",,,"SYN118AAXX  04181 76373 32580 70000 10149 21103 38212 40158 52012 87700 91750 333 10160 20010 30/// 56900 58011 85620 82825;",
"76373099999","2012-02-04T21:00:00","4","25.35","-105.75","1967.0","TEPEHUANES DGO., MX","FM-12","99999","V020","160,1,N,0010,1","00600,1,9,N","030000,1,N,1","+0200,1","-0125,1","10120,1",,,,,,"05,1,+00600,1,06,1",,"08,99,1,08,1,08,1,00800,1,00,1,00,1",,"01,9",,,,"99999,9,08180,1","7,1,032,1,+006,1",,,"SYN106AAXX  04211 76373 32580 81601 10200 21125 38180 40120 57032 88800 92050 333 30/// 56900 58006 85620 83825;",
"76373099999","2012-02-05T03:00:00","4","25.35","-105.75","1967.0","TEPEHUANES DGO., MX","FM-12","99999","V020","310,1,N,0010,1","00810,1,9,N","005000,1,N,1","+0146,1","-0123,1","10149,1",,,,,,"08,1,+00810,1,06,1",,"08,99,1,08,1,07,1,00800,1,00,1,00,1",,"01,9",,,,"99999,9,08204,1","2,1,014,1,+020,1",,,"SYN094AAXX  05031 76373 32550 83101 10146 21123 38204 40149 52014 88700 90250 333 30/// 58020 88627;",
"76373099999","2012-02-05T06:00:00","4","25.35","-105.75","1967.0","TEPEHUANES DGO., MX","FM-12","99999","V020","140,1,N,0010,1","00750,1,9,N","005000,1,N,1","+0127,1","-0022,1","10151,1",,,,,,,,"08,99,1,08,1,07,1,00800,1,00,1,00,1","0186,9","01,9",,"240,M,+0240,1","240,N,+0010,1","99999,9,08206,1","2,1,002,1,+014,1",,,"SYN124AAXX  05061 76373 32550 81401 10127 21022 38206 40151 52002 88700 90550 333 10240 20010 30/// 55031 20870 56900 58014 88627;",
"76373099999","2012-02-05T12:00:00","4","25.35","-105.75","1967.0","TEPEHUANES DGO., MX","FM-12","99999","V020","999,9,C,0000,1","22000,1,9,N","005000,1,N,1","+0043,1","-0025,1","10135,1","24,0000,9,1",,,,,,,"04,99,1,04,1,07,1,00800,1,00,1,00,1","0186,9","01,9","999,+0015,9","120,N,+0030,1","240,M,+0240,1","99999,9,08192,1","9,9,999,9,+003,1",,,"SYN130AAXX  05121 76373 32550 40000 10043 21025 38192 40135 5//// 84700 91150 333 10240 20030 30015 55031 20870 56900 58003 70000 84627;",
"76373099999","2012-02-05T15:00:00","4","25.35","-105.75","1967.0","TEPEHUANES DGO., MX","FM-12","99999","V020","999,9,C,0000,1","22000,1,9,N","020000,1,N,1","+0047,1","-0026,1","10158,1",,,,,,"01,1,+00810,1,06,1",,"01,99,1,01,1,05,1,00800,1,00,1,00,1",,"01,9",,,,"99999,9,08211,1","2,1,019,1,+007,1",,,"SYN100AAXX  05151 76373 32570 10000 10047 21026 38211 40158 52019 81500 91450 333 30/// 56900 58007 81627;",
"76373099999","2012-02-05T18:00:00","4","25.35","-105.75","1967.0","TEPEHUANES DGO., MX","FM-12","99999","V020","999,9,C,0000,1","22000,1,9,N","020000,1,N,1","+0180,1","-0016,1","10139,1",,,,,,"01,1,+00810,1,08,1",,"01,99,1,01,1,03,1,00800,1,00,1,00,1",,"01,9",,"120,M,+0190,1","240,N,+0030,1","99999,9,08196,1","7,1,015,1,-016,1",,,"SYN112AAXX  05181 76373 32570 10000 10180 21016 38196 40139 57015 81300 91750 333 10190 20030 30/// 56900 59016 81827;",
"76373099999","2012-02-05T21:00:00","4","25.35","-105.75","1967.0","TEPEHUANES DGO., MX","FM-12","99999","V020","240,1,N,0030,1","22000,1,9,N","020000,1,N,1","+0253,2","-0087,1","10104,1",,,,,,"04,1,+00810,1,08,1",,"04,99,1,04,1,02,1,00800,1,00,1,00,1",,"01,9",,,,"99999,9,08167,1","7,1,029,1,-013,1",,,"SYN100AAXX  05211 76373 32570 42403 10253 21087 38167 40104 57029 84200 92050 333 30/// 56900 59013 84827;",
"76373099999","2012-02-06T03:00:00","4","25.35","-105.75","1967.0","TEPEHUANES DGO., MX","FM-12","99999","V020","290,1,N,0010,1","22000,1,9,N","005000,1,N,1","+0142,1","-0075,1","10145,1",,,,,,"01,1,+00810,1,06,1",,"01,99,1,01,1,05,1,00800,1,00,1,00,1",,"01,9",,,,"99999,9,08201,1","2,1,028,1,-003,1",,,"SYN100AAXX  06031 76373 32550 12901 10142 21075 38201 40145 52028 81500 90250 333 30/// 56900 59003 81627;",
"76373099999","2012-02-06T06:00:00","4","25.35","-105.75","1967.0","TEPEHUANES DGO., MX","FM-12","99999","V020","999,9,C,0000,1","22000,1,9,N","005000,1,N,1","+0075,1","-0078,1","10147,1",,,,,,"00,1,+99999,9,99,9",,"00,99,1,00,1,00,1,99999,9,00,1,00,1","0594,9","01,9",,"240,M,+0268,1","240,N,+0030,1","99999,9,08202,1","2,1,001,1,+999,9",,,"SYN106AAXX  06061 76373 32950 00000 10075 21078 38202 40147 52001 90550 333 10268 20030 30/// 55099 22013 59004;",
"76373099999","2012-02-06T15:00:00","4","25.35","-105.75","1967.0","TEPEHUANES DGO., MX","FM-12","99999","V020","999,9,C,0000,1","22000,1,9,N","020000,1,N,1","+0020,1","-0055,1","10172,1",,,,,,"00,1,+99999,9,99,9",,"00,99,1,00,1,00,1,99999,9,00,1,00,1",,"01,9",,,,"99999,9,08222,1","2,1,003,1,+011,1",,,"SYN082AAXX  06151 76373 32970 00000 10020 21055 38222 40172 52003 91450 333 30/// 58011;",
"76373099999","2012-02-06T18:00:00","4","25.35","-105.75","1967.0","TEPEHUANES DGO., MX","FM-12","99999","V020","999,9,C,0000,1","22000,1,9,N","020000,1,N,1","+0151,1","-0012,1","10156,1",,,,,,"00,1,+99999,9,99,9",,"00,99,1,00,1,00,1,99999,9,00,1,00,1",,"01,9",,"120,M,+0160,1","240,N,-0020,1","99999,9,08210,1","7,1,012,1,+014,1",,,"SYN094AAXX  06181 76373 32970 00000 10151 21012 38210 40156 57012 91750 333 10160 21020 30/// 58014;",
"76373099999","2012-02-06T21:00:00","4","25.35","-105.75","1967.0","TEPEHUANES DGO., MX","FM-12","99999","V020","290,1,N,0010,1","22000,1,9,N","030000,1,N,1","+0227,2","-0128,1","10129,1",,,,,,"00,1,+99999,9,99,9",,"00,99,1,00,1,00,1,99999,9,00,1,00,1",,"01,9",,,,"99999,9,08188,1","7,1,012,1,+008,1",,,"SYN082AAXX  06211 76373 32980 02901 10227 21128 38188 40129 57012 92050 333 30/// 58008;",
"76373099999","2012-02-07T00:00:00","4","25.35","-105.75","1967.0","TEPEHUANES DGO., MX","FM-12","99999","V020","320,1,N,0020,1","22000,1,9,N","030000,1,N,1","+0209,1","-0134,1","10121,1","24,0000,9,1",,,,,"00,1,+99999,9,99,9",,"00,99,1,00,1,00,1,99999,9,00,1,00,1",,"01,9",,"120,M,+0240,1","180,N,-0020,1","99999,9,08181,1","7,1,007,1,+012,1",,,"SYN106AAXX  07001 76373 32980 03202 10209 21134 38181 40121 57007 90050 333 10240 21020 30/// 50741 58012 70000;","Q01  00002PRCP24"
"76373099999","2012-02-07T03:00:00","4","25.35","-105.75","1967.0","TEPEHUANES DGO., MX","FM-12","99999","V020","999,9,C,0000,1","22000,1,9,N","001000,1,N,1","+0131,1","-0076,1","10147,1",,,,,,"00,1,+99999,9,99,9",,"00,99,1,00,1,00,1,99999,9,00,1,00,1",,"01,9",,,,"99999,9,08202,1","2,1,021,1,+001,1",,,"SYN082AAXX  07031 76373 32910 00000 10131 21076 38202 40147 52021 90255 333 30/// 58001;",
"76373099999","2012-02-07T06:00:00","4","25.35","-105.75","1967.0","TEPEHUANES DGO., MX","FM-12","99999","V020","999,9,C,0000,1","22000,1,9,N","001000,1,N,1","+0061,1","-0104,1","10170,1",,,,,,"00,1,+99999,9,99,9",,"00,99,1,00,1,00,1,99999,9,00,1,00,1","0060,9","01,9",,"240,M,+0240,1","240,N,-0020,1","99999,9,08221,1","2,1,021,1,+999,9",,,"SYN106AAXX  07061 76373 32910 00000 10061 21104 38221 40170 52021 90550 333 10240 21020 30/// 55010 22021 58021;",
"76373099999","2012-02-07T15:00:00","4","25.35","-105.75","1967.0","TEPEHUANES DGO., MX","FM-12","99999","V020","999,9,C,0000,1","22000,1,9,N","020000,1,N,1","+0010,1","-0071,1","10186,1",,,,,,"00,1,+99999,9,99,9",,"00,99,1,00,1,00,1,99999,9,00,1,00,1",,"01,9",,,,"99999,9,08234,1","2,1,001,1,+012,1",,,"SYN082AAXX  07151 76373 32970 00000 10010 21071 38234 40186 52001 91450 333 30/// 58012;",
"76373099999","2012-02-07T18:00:00","4","25.35","-105.75","1967.0","TEPEHUANES DGO., MX","FM-12","99999","V020","999,9,C,0000,1","22000,1,9,N","030000,1,N,1","+0156,1","-0047,1","10178,1",,,,,,"00,1,+99999,9,99,9",,"00,99,1,00,1,00,1,99999,9,00,1,00,1",,"01,9",,"120,M,+0170,1","240,N,-0028,1","99999,9,08228,1","7,1,006,1,+018,1",,,"SYN094AAXX  07181 76373 32980 00000 10156 21047 38228 40178 57006 91750 333 10170 21028 30/// 58018;",
"76373099999","2012-02-07T21:00:00","4","25.35","-105.75","1967.0","TEPEHUANES DGO., MX","FM-12","99999","V020","310,1,N,0010,1","22000,1,9,N","020000,1,N,1","+0121,1","-0064,1","10124,1",,,,,,"01,1,+00750,1,06,1",,"03,99,1,03,1,02,1,01250,1,00,1,00,1",,"01,9",,,,"99999,9,08184,1","7,1,044,1,-004,1",,,"SYN106AAXX  07211 76373 32670 33101 10121 21064 38184 40124 57044 83200 92050 333 30/// 56900 59004 81625 82827;",
"76373099999","2012-02-08T00:00:00","4","25.35","-105.75","1967.0","TEPEHUANES DGO., MX","FM-12","99999","V020","280,1,N,0020,1","22000,1,9,N","020000,1,N,1","+0199,1","-0050,1","10124,1","24,0000,9,1",,,,,,,"02,99,1,02,1,04,1,01250,1,00,1,00,1",,"01,9",,"120,M,+0241,1","180,N,-0028,1","99999,9,08184,1","5,1,000,1,+003,1",,,"SYN124AAXX  08001 76373 32670 22802 10199 21050 38184 40124 55000 82400 92350 333 10241 21028 30/// 50491 56900 58003 70000 82625;",
"76373099999","2012-02-08T03:00:00","4","25.35","-105.75","1967.0","TEPEHUANES DGO., MX","FM-12","99999","V020","999,9,C,0000,1","22000,1,9,N","000600,1,N,1","+0136,1","-0035,1","10152,1",,,,,,"02,1,+00810,1,08,1",,"02,99,1,02,1,02,1,01250,1,00,1,00,1",,"01,9",,,,"99999,9,08207,1","2,1,023,1,+003,1",,,"SYN100AAXX  08031 76373 32606 20000 10136 21035 38207 40152 52023 82200 90250 333 30/// 56200 58003 82827;",
"76373099999","2012-02-08T06:00:00","4","25.35","-105.75","1967.0","TEPEHUANES DGO., MX","FM-12","99999","V020","999,9,C,0000,1","22000,1,9,N","000400,1,N,1","+0076,1","-0038,1","10169,1",,,,,,,,"02,99,1,00,1,00,1,99999,9,00,1,08,1","0570,9","01,9",,"240,M,+0241,1","240,N,-0028,1","99999,9,08220,1","2,1,013,1,+001,1",,,"SYN124AAXX  08061 76373 32904 20000 10076 21038 38220 40169 52013 80008 90550 333 10241 21028 30/// 55095 21844 56009 58001 82268;",
"76373099999","2012-02-08T12:00:00","4","25.35","-105.75","1967.0","TEPEHUANES DGO., MX","FM-12","99999","V020","999,9,C,0000,1","22000,1,9,N","000600,1,N,1","+0005,1","-0052,1","10163,1","24,0000,9,1",,,,,"02,1,+05400,1,00,1",,"02,99,1,00,1,00,1,99999,9,00,1,04,1",,"09,9","999,-0021,9","120,N,-0010,1","240,M,+0241,1","99999,9,08216,1","9,9,999,9,-018,1",,,"SYN118AAXX  08121 76373 32906 20000 10005 21052 38216 40163 5//// 80004 91150 333 10241 21010 31021 56009 59018 70000 82068;",
"76373099999","2012-02-08T18:00:00","4","25.35","-105.75","1967.0","TEPEHUANES DGO., MX","FM-12","99999","V020","999,9,C,0000,1","00750,1,9,N","015000,1,N,1","+0130,1","-0025,1","10167,1",,,,,,"08,1,+00750,1,06,1",,"08,99,1,08,1,05,1,01250,1,00,1,00,1",,"01,9",,"120,M,+0136,1","240,N,-0010,1","99999,9,08219,1","7,1,006,1,-009,1",,,"SYN112AAXX  08181 76373 32665 80000 10130 21025 38219 40167 57006 88500 91750 333 10136 21010 30/// 56900 59009 88625;",
"76373099999","2012-02-08T21:00:00","4","25.35","-105.75","1967.0","TEPEHUANES DGO., MX","FM-12","99999","V020","140,1,N,0020,1","00690,1,9,N","015000,1,N,1","+0188,1","-0029,1","10116,1",,,,,,"08,1,+00690,1,07,1",,"08,99,1,08,1,07,1,00800,1,00,1,00,1",,"01,9",,,,"99999,9,08177,1","7,1,042,1,-007,1",,,"SYN100AAXX  08211 76373 32565 81402 10188 21029 38177 40116 57042 88700 92050 333 30/// 56900 59007 88723;",
"76373099999","2012-02-09T00:00:00","4","25.35","-105.75","1967.0","TEPEHUANES DGO., MX","FM-12","99999","V020","210,1,N,0020,1","99999,9,9,N","015000,1,N,1","+0108,1","+0049,1","10134,1","06,0000,2,1",,,"2,1,06,1","5,1,06,1",,,"08,99,1,99,9,99,9,00800,1,99,9,99,9",,,,,,"99999,9,08192,1","2,1,015,1,+999,9",,"50,1","SYN072AAXX  09001 76373 01565 82102 10108 20049 38192 40134 52015 69901 75025;",
"76373099999","2012-02-09T03:00:00","4","25.35","-105.75","1967.0","TEPEHUANES DGO., MX","FM-12","99999","V020","210,1,N,0010,1","00690,1,9,N","000600,1,N,1","+0085,1","+0055,1","10142,1","03,0020,9,1",,,"2,1,03,1","5,1,03,1","08,1,+00690,1,09,1",,"08,99,1,08,1,09,1,00800,1,00,1,00,1",,"09,9",,,,"99999,9,08198,1","3,1,006,1,-009,1",,"50,1","SYN112AAXX  09031 76373 21506 82101 10085 20055 38198 40142 53006 75025 88900 90250 333 31/// 56900 59009 60027 88923;",
"76373099999","2012-02-09T06:00:00","4","25.35","-105.75","1967.0","TEPEHUANES DGO., MX","FM-12","99999","V020","999,9,C,0000,1","22000,1,9,N","000400,1,N,1","+0056,1","+0042,1","10150,1",,,,,,,,"02,99,1,02,1,04,1,01250,1,00,1,00,1","0060,9","01,9",,"240,M,+0201,1","240,N,-0010,1","99999,9,08205,1","2,1,007,1,-015,1",,,"SYN124AAXX  09061 76373 32604 20000 10056 20042 38205 40150 52007 82400 90550 333 10201 21010 30/// 55010 20942 56900 59015 82625;",
"76373099999","2012-02-09T12:00:00","4","25.35","-105.75","1967.0","TEPEHUANES DGO., MX","FM-12","99999","V020","999,9,C,0000,1","99999,9,9,N","000600,1,N,1","+0041,1","+0033,1","10143,1","06,0000,2,1",,,"2,1,06,1","5,1,06,1",,,"08,99,1,99,9,99,9,00800,1,99,9,99,9",,,,,,"99999,9,08199,1",,,"50,1","SYN072AAXX  09121 76373 01506 80000 10041 20033 38199 40143 5//// 69901 75025;",
"76373099999","2012-02-09T15:00:00","4","25.35","-105.75","1967.0","TEPEHUANES DGO., MX","FM-12","99999","V020","999,9,C,0000,1","00690,1,9,N","015000,1,N,1","+0043,1","+0042,1","10167,1","03,0020,9,1",,,"2,1,03,1","5,1,03,1","08,1,+00690,1,09,1",,"08,99,1,08,1,09,1,00800,1,00,1,00,1",,"09,9",,,,"99999,9,08219,1","2,1,020,1,-006,1",,"51,1","SYN112AAXX  09151 76373 21565 80000 10043 20042 38219 40167 52020 75125 88900 91450 333 31/// 56900 59006 60027 88923;",
"76373099999","2012-02-09T18:00:00","4","25.35","-105.75","1967.0","TEPEHUANES DGO., MX","FM-12","99999","V020","290,1,N,0010,1","22000,1,9,N","030000,1,N,1","+0118,1","+0047,1","10160,1",,,,,,"03,1,+00600,1,06,1",,"03,99,1,03,1,03,1,00800,1,00,1,00,1",,"01,9",,"120,M,+0120,1","240,N,+0032,1",,"7,1,006,1,-006,1",,,"SYN112AAXX  09181 76373 32580 32901 10118 20047 38113 40160 57006 83300 91755 333 10120 20032 30/// 56900 59006 83620;","Q01+081133APOSP "
"76373099999","2012-02-09T21:00:00","4","25.35","-105.75","1967.0","TEPEHUANES DGO., MX","FM-12","99999","V020","110,1,N,0010,1","22000,1,9,N","020000,1,N,1","+0170,1","+0028,1","10123,1",,,,,,"02,1,+00600,1,06,1","01,1,+00750,1,08,1","04,99,1,04,1,03,1,00800,1,01,1,00,1",,"01,9",,,,"99999,9,08183,1","7,1,030,1,+006,1",,,"SYN112AAXX  09211 76373 32570 41101 10170 20028 38183 40123 57030 84310 92055 333 30/// 56990 58006 82620 81825 81337;",
"76373099999","2012-02-10T03:00:00","4","25.35","-105.75","1967.0","TEPEHUANES DGO., MX","FM-12","99999","V020","290,1,N,0010,1","22000,1,9,N","001000,1,N,1","+0110,1","-0012,1","10140,1",,,,,,"02,1,+00600,1,06,1",,"02,99,1,02,1,02,1,00800,1,00,1,00,1",,"01,9",,,,"99999,9,08197,1","2,1,018,1,-001,1",,,"SYN100AAXX  10031 76373 32510 22901 10110 21012 38197 40140 52018 82200 90255 333 30/// 56900 59001 82620;",
"76373099999","2012-02-10T06:00:00","4","25.35","-105.75","1967.0","TEPEHUANES DGO., MX","FM-12","99999","V020","999,9,C,0000,1","22000,1,9,N","001000,1,N,1","+0048,1","+0002,1","10163,1",,,,,,"00,1,+99999,9,99,9",,"00,99,1,00,1,00,1,99999,9,00,1,00,1","0468,9","01,9",,"240,M,+0194,1","240,N,+0032,1","99999,9,08216,1","2,1,019,1,+999,9",,,"SYN106AAXX  10061 76373 32910 00000 10048 20002 38216 40163 52019 90555 333 10194 20032 30/// 55078 21409 58011;",
"76373099999","2012-02-10T12:00:00","4","25.35","-105.75","1967.0","TEPEHUANES DGO., MX","FM-12","99999","V020","999,9,C,0000,1","22000,1,9,N","000500,1,N,1","-0008,1","-0017,1","10173,1","24,0038,9,1",,,,,"00,1,+99999,9,99,9",,"00,99,1,00,1,00,1,99999,9,00,1,00,1",,"09,9","999,-0042,9","120,N,-0030,1","240,M,+0194,1","99999,9,08224,1","9,9,999,9,+025,1",,,"SYN100AAXX  10121 76373 32905 00000 11008 21017 38224 40173 5//// 91150 333 10194 21030 31042 58025 70039;",
"76373099999","2012-02-10T18:00:00","4","25.35","-105.75","1967.0","TEPEHUANES DGO., MX","FM-12","99999","V020","110,1,N,0010,1","22000,1,9,N","030000,1,N,1","+0138,1","+0008,1","10189,1",,,,,,"00,1,+99999,9,99,9",,"00,99,1,00,1,00,1,99999,9,00,1,00,1",,"01,9",,"120,M,+0150,1","240,N,-0030,1","99999,9,08237,1","1,1,003,1,+024,1",,,"SYN094AAXX  10181 76373 32980 01101 10138 20008 38237 40189 51003 91755 333 10150 21030 30/// 58024;",
"76373099999","2012-02-10T21:00:00","4","25.35","-105.75","1967.0","TEPEHUANES DGO., MX","FM-12","99999","V020","110,1,N,0010,1","22000,1,9,N","030000,1,N,1","+0198,1","-0024,1","10150,1",,,,,,"00,1,+99999,9,99,9",,"00,99,1,00,1,00,1,99999,9,00,1,00,1",,"01,9",,,,"99999,9,08209,1","7,1,028,1,+026,1",,,"SYN082AAXX  10211 76373 32980 01101 10198 21024 38209 40150 57028 92050 333 30/// 58026;",
"76373099999","2012-02-11T00:00:00","4","25.35","-105.75","1967.0","TEPEHUANES DGO., MX","FM-12","99999","V020","140,1,N,0010,1","22000,1,9,N","030000,1,N,1","+0198,1","-0050,1","10149,1","24,0000,9,1",,,,,,,"02,99,1,02,1,02,1,00800,1,00,1,00,1",,"01,9",,"120,M,+0220,1","180,N,-0030,1","99999,9,08204,1","7,1,005,1,+025,1",,,"SYN124AAXX  11001 76373 32580 21401 10198 21050 38204 40149 57005 82200 92350 333 10220 21030 30/// 50371 56900 58025 70000 82825;",
"76373099999","2012-02-11T06:00:00","4","25.35","-105.75","1967.0","TEPEHUANES DGO., MX","FM-12","99999","V020","320,1,N,0010,1","22000,1,9,N","000500,1,N,1","+0078,1","-0029,1","10176,1",,,,,,,,"03,99,1,03,1,03,1,00800,1,00,1,00,1","0618,9","01,9",,"240,M,+0220,1","240,N,-0030,1","99999,9,08226,1","2,1,011,1,+010,1",,,"SYN124AAXX  11061 76373 32505 33201 10078 21029 38226 40176 52011 83300 90545 333 10220 21030 30/// 55103 21965 56900 58010 83820;",
"76373099999","2012-02-11T15:00:00","4","25.35","-105.75","1967.0","TEPEHUANES DGO., MX","FM-12","99999","V020","999,9,C,0000,1","00750,1,9,N","030000,1,N,1","+0028,1","-0016,1","10182,1",,,,,,"03,1,+00600,1,09,1",,"07,99,1,07,1,07,1,00800,1,00,1,00,1",,"01,9",,,,"99999,9,08230,1","1,1,008,1,-010,1",,,"SYN106AAXX  11151 76373 32580 70000 10028 21016 38230 40182 51008 87700 91455 333 30/// 56900 59010 83920 84625;",
"76373099999","2012-02-11T18:00:00","4","25.35","-105.75","1967.0","TEPEHUANES DGO., MX","FM-12","99999","V020","999,9,C,0000,1","00750,1,9,N","030000,1,N,1","+0113,1","-0005,1","10182,1",,,,,,"03,1,+00600,1,09,1",,"07,99,1,07,1,07,1,00800,1,00,1,00,1",,"01,9",,"120,M,+0130,1","240,N,-0010,1","99999,9,08230,1","0,1,001,1,-007,1",,,"SYN119AAXX  11181 76373 32580 70000 10113 21005 38230 40182 50001 87700 91755 333 10130 21010 30//// 56900 59007 83920 84625;",
"76373099999","2012-02-11T21:00:00","4","25.35","-105.75","1967.0","TEPEHUANES DGO., MX","FM-12","99999","V020","140,1,N,0020,1","00750,1,9,N","030000,1,N,1","+0189,1","+0025,1","10142,1",,,,,,"02,1,+00600,1,09,1",,"05,99,1,05,1,05,1,00800,1,00,1,00,1",,"01,9",,,,"99999,9,08198,1","7,1,033,1,-009,1",,,"SYN106AAXX  11211 76373 32580 51402 10189 20025 38198 40142 57033 85500 92050 333 30/// 56900 59009 82920 83625;",
"76373099999","2012-02-12T00:00:00","4","25.35","-105.75","1967.0","TEPEHUANES DGO., MX","FM-12","99999","V020","140,1,N,0010,1","00750,1,9,N","030000,1,N,1","+0136,1","+0082,1","10135,1","24,0000,9,1",,,,,"04,1,+00600,1,09,1",,"06,99,1,06,1,06,1,00800,1,00,1,00,1",,"01,9",,"120,M,+0208,1","180,N,-0010,1","99999,9,08192,1","7,1,006,1,-012,1",,,"SYN130AAXX  12001 76373 32580 61401 10136 20082 38192 40135 57006 86600 92350 333 10208 21010 30/// 50261 56900 59012 70000 84920 82625;",
"76373099999","2012-02-12T03:00:00","4","25.35","-105.75","1967.0","TEPEHUANES DGO., MX","FM-12","99999","V020","999,9,C,0000,1","00810,1,9,N","005000,1,N,1","+0114,1","+0065,1","10142,1",,,,,,"06,1,+00810,1,06,1",,"06,99,1,06,1,08,1,00800,1,00,1,00,1",,"01,9",,,,"99999,9,08198,1","2,1,006,1,-007,1",,,"SYN100AAXX  12031 76373 32550 60000 10114 20065 38198 40142 52006 86800 90250 333 30/// 56900 59007 86627;",
"76373099999","2012-02-12T15:00:00","4","25.35","-105.75","1967.0","TEPEHUANES DGO., MX","FM-12","99999","V020","090,1,N,0010,1","22000,1,9,N","020000,1,N,1","+0095,1","+0062,1","10140,1",,,,,,"04,1,+00810,1,06,1",,"04,99,1,04,1,07,1,00800,1,00,1,00,1",,"01,9",,,,"99999,9,08197,1","2,1,003,1,-033,1",,,"SYN100AAXX  12151 76373 32570 40901 10095 20062 38197 40140 52003 84700 91450 333 30/// 56900 59033 84627;",
"76373099999","2012-02-12T18:00:00","4","25.35","-105.75","1967.0","TEPEHUANES DGO., MX","FM-12","99999","V020","200,1,N,0010,1","00810,1,9,N","020000,1,N,1","+0151,1","+0029,1","10144,1",,,,,,"07,1,+00810,1,06,1",,"07,99,1,07,1,07,1,00800,1,00,1,00,1",,"01,9",,"120,M,+0160,1","240,N,+0080,1","99999,9,08200,1","2,1,003,1,-031,1",,,"SYN112AAXX  12181 76373 32570 72001 10151 20029 38200 40144 52003 87700 91750 333 10160 20080 30/// 56900 59031 87627;",
"76373099999","2012-02-13T00:00:00","4","25.35","-105.75","1967.0","TEPEHUANES DGO., MX","FM-12","99999","V020","290,1,N,0010,1","00750,1,9,N","020000,1,N,1","+0143,1","+0047,1","10126,1","24,0020,9,1",,,,,,,"07,99,1,07,1,07,1,00800,1,00,1,00,1",,"01,9",,"120,M,+0190,1","180,N,+0080,1","99999,9,08185,1","9,9,999,9,-007,1",,,"SYN124AAXX  13001 76373 32570 72901 10143 20047 38185 40126 5//// 87700 92350 333 10190 20080 30/// 50401 56900 59007 70020 87627;",
"76373099999","2012-02-13T03:00:00","4","25.35","-105.75","1967.0","TEPEHUANES DGO., MX","FM-12","99999","V020","999,9,C,0000,1","22000,1,9,N","005000,1,N,1","+0096,1","+0040,1","10136,1",,,,,,"00,1,+99999,9,99,9",,"00,99,1,00,1,00,1,99999,9,00,1,00,1",,"01,9",,,,"99999,9,08193,1","2,1,008,1,-005,1",,,"SYN082AAXX  13031 76373 32950 00000 10096 20040 38193 40136 52008 90250 333 30/// 59005;",
"76373099999","2012-02-13T06:00:00","4","25.35","-105.75","1967.0","TEPEHUANES DGO., MX","FM-12","99999","V020","999,9,C,0000,1","22000,1,9,N","005000,1,N,1","+0073,1","+0035,1","10145,1",,,,,,"00,1,+99999,9,99,9",,"00,99,1,00,1,00,1,99999,9,00,1,00,1","0420,9","01,9",,"240,M,+0190,1","240,N,+9999,9","99999,9,08201,1","2,1,008,1,+999,9",,,"SYN106AAXX  13061 76373 32950 00000 10073 20035 38201 40145 52008 90550 333 10190 20080 30/// 55070 21210 58001;","Q01 +00802ATMN  "
"76373099999","2012-02-13T12:00:00","4","25.35","-105.75","1967.0","TEPEHUANES DGO., MX","FM-12","99999","V020","999,9,C,0000,1","22000,1,9,N","005000,1,N,1","+0010,1","+0002,1","10134,1",,,,,,"00,1,+99999,9,99,9",,"00,99,1,00,1,00,1,99999,9,00,1,00,1","0420,9","09,9","999,-0003,9","120,N,+0007,1","240,M,+0190,1","99999,9,08192,1","9,9,999,9,-002,1",,,"SYN112AAXX  13121 76373 32950 00000 10010 20002 38192 40134 5//// 91150 333 10190 20007 31003 55070 21216 59002 70000;",
"76373099999","2012-02-13T18:00:00","4","25.35","-105.75","1967.0","TEPEHUANES DGO., MX","FM-12","99999","V020","240,1,N,0020,1","22000,1,9,N","020000,1,N,1","+0178,1","+0006,1","10130,1",,,,,,"00,1,+99999,9,99,9",,"00,99,1,00,1,00,1,99999,9,00,1,00,1",,"01,9",,"120,M,+0183,1","240,N,+0010,1","99999,9,08189,1","7,1,006,1,-011,1",,,"SYN094AAXX  13181 76373 32970 02402 10178 20006 38189 40130 57006 91750 333 10183 20010 30/// 59011;",
"76373099999","2012-02-13T21:00:00","4","25.35","-105.75","1967.0","TEPEHUANES DGO., MX","FM-12","99999","V020","290,1,N,0030,1","22000,1,9,N","020000,1,N,1","+0204,1","+0004,1","10109,1",,,,,,"00,1,+99999,9,99,9",,"00,99,1,00,1,00,1,99999,9,00,1,00,1",,"01,9",,,,"99999,9,08172,1","7,1,017,1,-006,1",,,"SYN082AAXX  13211 76373 32970 02903 10204 20004 38172 40109 57017 92050 333 30/// 59006;",
"76373099999","2012-02-14T00:00:00","4","25.35","-105.75","1967.0","TEPEHUANES DGO., MX","FM-12","99999","V020","240,1,N,0020,1","22000,1,9,N","020000,1,N,1","+0169,1","+0008,1","10110,1","24,0000,9,1",,,,,"00,1,+99999,9,99,9",,"00,99,1,00,1,00,1,99999,9,00,1,00,1",,"01,9",,"120,M,+0210,1","180,N,-0010,1","99999,9,08172,1","5,1,000,1,-013,1",,,"SYN106AAXX  14001 76373 32970 02402 10169 20008 38172 40110 55000 92350 333 10210 21010 30/// 50421 59013 70000;","Q01  00002PRCP24"
"76373099999","2012-02-14T03:00:00","4","25.35","-105.75","1967.0","TEPEHUANES DGO., MX","FM-12","99999","V020","999,9,C,0000,1","22000,1,9,N","001000,1,N,1","+0108,1","+0019,1","10134,1",,,,,,"00,1,+99999,9,99,9",,"00,99,1,00,1,00,1,99999,9,00,1,00,1",,"01,9",,,,"99999,9,08192,1","2,1,020,1,-001,1",,,"SYN082AAXX  14031 76373 32910 00000 10108 20019 38192 40134 52020 90255 333 30/// 59001;",
"76373099999","2012-02-14T06:00:00","4","25.35","-105.75","1967.0","TEPEHUANES DGO., MX","FM-12","99999","V020","999,9,C,0000,1","22000,1,9,N","001000,1,N,1","+0063,1","+0006,1","10150,1",,,,,,"00,1,+99999,9,99,9",,"00,99,1,00,1,00,1,99999,9,00,1,00,1","0060,9","01,9",,"240,M,+0210,1","240,N,-0010,1","99999,9,08205,1","2,1,013,1,+999,9",,,"SYN106AAXX  14061 76373 32910 00000 10063 20006 38205 40150 52013 90550 333 10210 21010 30/// 55010 21739 58004;",
"76373099999","2012-02-14T12:00:00","4","25.35","-105.75","1967.0","TEPEHUANES DGO., MX","FM-12","99999","V020","999,9,C,0000,1","22000,1,9,N","001000,1,N,1","+0001,1","-0012,1","10142,1","24,0000,9,1",,,,,"00,1,+99999,9,99,9",,"00,99,1,00,1,00,1,99999,9,00,1,00,1",,"09,9","999,-0023,9","120,N,-0011,1","240,M,+0210,1","99999,9,08198,1","9,9,999,9,+006,1",,,"SYN100AAXX  14121 76373 32910 00000 10001 21012 38198 40142 5//// 91155 333 10210 21011 31023 58006 70000;","Q01  00002PRCP24"
"76373099999","2012-02-14T15:00:00","4","25.35","-105.75","1967.0","TEPEHUANES DGO., MX","FM-12","99999","V020","999,9,C,0000,1","22000,1,9,N","030000,1,N,1","+0016,1","-0001,1","10154,1",,,,,,"00,1,+99999,9,99,9",,"00,99,1,00,1,00,1,99999,9,00,1,00,1",,"01,9",,,,"99999,9,08208,1","2,1,010,1,+013,1",,,"SYN082AAXX  14151 76373 32980 00000 10016 21001 38208 40154 52010 91455 333 30/// 58013;",
"76373099999","2012-02-14T18:00:00","4","25.35","-105.75","1967.0","TEPEHUANES DGO., MX","FM-12","99999","V020","999,9,C,0000,1","22000,1,9,N","030000,1,N,1","+0163,1","+9999,9","10132,1",,,,,,"00,1,+99999,9,99,9",,"00,99,1,00,1,00,1,99999,9,00,1,00,1",,"01,9",,"120,M,+0170,1","240,N,-0011,1","99999,9,08190,1","7,1,018,1,+001,1",,,"SYN088AAXX  14181 76373 32980 00000 10163 38190 40132 57018 91750 333 10170 21011 30/// 58001;",
"76373099999","2012-02-14T21:00:00","4","25.35","-105.75","1967.0","TEPEHUANES DGO., MX","FM-12","99999","V020","220,1,N,0020,1","22000,1,9,N","020000,1,N,1","+0212,1","-0031,1","10106,1",,,,,,"01,1,+00810,1,08,1",,"03,99,1,01,1,02,1,01250,1,07,1,00,1",,"01,9",,,,"99999,9,08169,1","7,1,021,1,-003,1",,,"SYN106AAXX  14211 76373 32670 32202 10212 21031 38169 40106 57021 81270 92050 333 30/// 56990 59003 81827 82360;",
"76373099999","2012-02-15T00:00:00","4","25.35","-105.75","1967.0","TEPEHUANES DGO., MX","FM-12","99999","V020","230,1,N,0020,1","22000,1,9,N","020000,1,N,1","+0174,1","-0031,1","10112,1","24,0000,9,1",,,,,"01,1,+00810,1,08,1",,"03,99,1,01,1,02,1,01250,1,07,1,00,1",,"01,9",,"120,M,+0221,1","180,N,-0011,1","99999,9,08174,1","3,1,005,1,+002,1",,,"SYN130AAXX  15001 76373 32670 32302 10174 21031 38174 40112 53005 81270 92350 333 10221 21011 30/// 50481 56990 58002 70000 81827 82660;",
"76373099999","2012-02-15T03:00:00","4","25.35","-105.75","1967.0","TEPEHUANES DGO., MX","FM-12","99999","V020","999,9,C,0000,1","22000,1,9,N","000600,1,N,1","+0113,1","+0001,1","10132,1",,,,,,"00,1,+99999,9,99,9",,"00,99,1,00,1,00,1,99999,9,00,1,00,1",,"01,9",,,,"99999,9,08190,1","2,1,016,1,-002,1",,,"SYN082AAXX  15031 76373 32906 00000 10113 20001 38190 40132 52016 90250 333 30/// 59002;",
"76373099999","2012-02-15T06:00:00","4","25.35","-105.75","1967.0","TEPEHUANES DGO., MX","FM-12","99999","V020","999,9,C,0000,1","22000,1,9,N","000600,1,N,1","+0063,1","-0001,1","10138,1",,,,,,"00,1,+99999,9,99,9",,"00,99,1,00,1,00,1,99999,9,00,1,00,1","0600,9","01,9",,"240,M,+0221,1","240,N,-0011,1","99999,9,08195,1","2,1,005,1,+999,9",,,"SYN106AAXX  15061 76373 32906 00000 10063 21001 38195 40138 52005 90550 333 10221 21011 30/// 55100 22150 59010;",
"76373099999","2012-02-15T12:00:00","4","25.35","-105.75","1967.0","TEPEHUANES DGO., MX","FM-12","99999","V020","999,9,C,0000,1","22000,1,9,N","000600,1,N,1","+0004,1","-0013,1","10141,1","24,0000,9,1",,,,,"01,1,+05400,1,02,1",,"01,99,1,00,1,00,1,99999,9,00,1,07,1",,"09,9","999,-0022,9","120,N,-0011,1","240,M,+0221,1","99999,9,08197,1","9,9,999,9,-001,1",,,"SYN118AAXX  15121 76373 32906 10000 10004 21013 38197 40141 5//// 80007 91150 333 10221 21011 31022 56009 59001 70000 81268;",
"76373099999","2012-02-15T15:00:00","4","25.35","-105.75","1967.0","TEPEHUANES DGO., MX","FM-12","99999","V020","999,9,C,0000,1","22000,1,C,N","015000,1,N,1","+0012,1","-0009,1","10159,1",,,,,,"02,1,+00810,1,06,1",,"06,99,1,02,1,04,1,01250,1,00,1,04,1",,"01,9",,,,"99999,9,08212,1","2,1,015,1,+004,1",,,"SYN106AAXX  15151 76373 32665 60000 10012 21009 38212 40159 52015 82404 91450 333 30/// 56909 58004 82627 84069;",
"76373099999","2012-02-15T18:00:00","4","25.35","-105.75","1967.0","TEPEHUANES DGO., MX","FM-12","99999","V020","999,9,C,0000,1","05700,1,9,N","015000,1,N,1","+0164,1","-0031,1","10145,1",,,,,,"05,1,+05700,1,00,1",,"05,99,1,00,1,00,1,99999,9,00,1,04,1",,"01,9",,"120,M,+0176,1","240,N,-0011,1","99999,9,08201,1","7,1,011,1,+011,1",,,"SYN112AAXX  15181 76373 32965 50000 10164 21031 38201 40145 57011 80004 91750 333 10176 21011 30/// 56009 58011 85069;",
"76373099999","2012-02-15T21:00:00","4","25.35","-105.75","1967.0","TEPEHUANES DGO., MX","FM-12","99999","V020","290,1,N,0030,1","99999,9,9,N","020000,1,N,1","+0220,2","-0100,1","10117,1",,,,,,"03,1,+05700,1,00,1",,"05,99,1,00,1,00,1,99999,9,00,1,02,1",,"01,9",,,,"99999,9,08178,1","2,1,023,1,+009,1",,,"SYN106AAXX  15211 76373 32970 52903 10220 21100 38178 40117 52023 80002 92050 333 30/// 56009 58009 83069 82269;",
"76373099999","2012-02-16T00:00:00","4","25.35","-105.75","1967.0","TEPEHUANES DGO., MX","FM-12","99999","V020","250,1,N,0020,1","22000,1,9,N","020000,1,N,1","+0190,1","-0089,1","10127,1","24,0000,9,1",,,,,"01,1,+00810,1,08,1",,"03,99,1,01,1,02,1,01250,1,00,1,04,1",,"01,9",,"120,M,+0230,1","180,N,-0011,1","99999,9,08187,1","3,1,009,1,+003,1",,,"SYN130AAXX  16001 76373 32670 32502 10190 21089 38187 40127 53009 81204 92350 333 10230 21011 30/// 50461 56909 58003 70000 81827 82069;",
"76373099999","2012-02-16T03:00:00","4","25.35","-105.75","1967.0","TEPEHUANES DGO., MX","FM-12","99999","V020","999,9,C,0000,1","22000,1,9,N","000600,1,N,1","+0129,1","+0000,1","10140,1",,,,,,"00,1,+99999,9,99,9",,"00,99,1,00,1,00,1,99999,9,00,1,00,1",,"01,9",,,,"99999,9,08197,1","2,1,010,1,+007,1",,,"SYN082AAXX  16031 76373 32906 00000 10129 20000 38197 40140 52010 90250 333 30/// 58007;",
"76373099999","2012-02-16T06:00:00","4","25.35","-105.75","1967.0","TEPEHUANES DGO., MX","FM-12","99999","V020","999,9,C,0000,1","22000,1,9,N","000400,1,N,1","+0081,1","-0005,1","10151,1",,,,,,"00,1,+99999,9,99,9",,"00,99,1,00,1,00,1,99999,9,00,1,00,1","0552,9","01,9",,"240,M,+0230,1","240,N,-0011,1","99999,9,08205,1","2,1,008,1,+999,9",,,"SYN106AAXX  16061 76373 32904 00000 10081 21005 38205 40151 52008 90545 333 10230 21011 30/// 55092 21949 58010;",
"76373099999","2012-02-16T12:00:00","4","25.35","-105.75","1967.0","TEPEHUANES DGO., MX","FM-12","99999","V020","999,9,C,0000,1","22000,1,9,N","000600,1,N,1","+0029,1","-0006,1","10143,1","24,0000,9,1",,,,,"01,1,+05700,1,00,1",,"01,99,1,00,1,00,1,99999,9,00,1,04,1",,"01,9","999,+0004,9","120,N,+0020,1","240,M,+0230,1","99999,9,08199,1","9,9,999,9,+002,1",,,"SYN118AAXX  16121 76373 32906 10000 10029 21006 38199 40143 5//// 80004 91150 333 10230 20020 30004 56009 58002 70000 81069;",
"76373099999","2012-02-16T15:00:00","4","25.35","-105.75","1967.0","TEPEHUANES DGO., MX","FM-12","99999","V020","999,9,C,0000,1","22000,1,9,N","015000,1,N,1","+0048,1","+0002,1","10157,1",,,,,,"01,1,+00810,1,08,1",,"04,99,1,04,1,04,1,01250,1,00,1,00,1",,"01,9",,,,"99999,9,08211,1","2,1,012,1,-001,1",,,"SYN106AAXX  16151 76373 32665 40000 10048 20002 38211 40157 52012 84400 91450 333 30/// 56900 59001 81827 83625;",
"76373099999","2012-02-16T18:00:00","4","25.35","-105.75","1967.0","TEPEHUANES DGO., MX","FM-12","99999","V020","250,1,N,0030,1","00600,1,9,N","030000,1,N,1","+0194,2","-0004,1","10142,1",,,,,,"05,1,+00600,1,06,1",,"06,99,1,05,1,05,1,00800,1,00,1,01,1",,"01,9",,"120,M,+0200,1","240,N,+0020,1","99999,9,08198,1","7,1,013,1,-003,1",,,"SYN118AAXX  16181 76373 32580 62503 10194 21004 38198 40142 57013 85501 91755 333 10200 20020 30/// 56909 59003 85620 81067;",
"76373099999","2012-02-17T00:00:00","4","25.35","-105.75","1967.0","TEPEHUANES DGO., MX","FM-12","99999","V020","230,1,N,0010,1","00750,1,9,N","030000,1,N,1","+0132,1","+0043,1","10127,1","24,0000,9,1",,,,,"04,1,+00600,1,07,1",,"07,99,1,07,1,07,1,00800,1,00,1,00,1",,"01,9",,"120,M,+0220,1","180,N,+0020,1","99999,9,08186,1","2,1,009,1,-001,1",,,"SYN130AAXX  17001 76373 32580 72301 10132 20043 38186 40127 52009 87700 92350 333 10220 20020 30/// 50561 56900 59001 70000 84720 83625;",
"76373099999","2012-02-17T03:00:00","4","25.35","-105.75","1967.0","TEPEHUANES DGO., MX","FM-12","99999","V020","110,1,N,0010,1","00750,1,9,N","001000,1,N,1","+0112,1","+0045,1","10128,1",,,,,,"03,1,+00600,1,07,1",,"06,99,1,06,1,06,1,00800,1,00,1,00,1",,"01,9",,,,"99999,9,08187,1","1,1,001,1,-010,1",,,"SYN106AAXX  17031 76373 32510 61101 10112 20045 38187 40128 51001 86600 90250 333 30/// 56900 59010 83720 83625;",
"76373099999","2012-02-17T06:00:00","4","25.35","-105.75","1967.0","TEPEHUANES DGO., MX","FM-12","99999","V020","999,9,C,0000,1","22000,1,9,N","000500,1,N,1","+0104,1","+0032,1","10129,1",,,,,,"02,1,+00600,1,07,1",,"04,99,1,04,1,04,1,00800,1,00,1,00,1","0582,9","01,9",,"240,M,+0220,1","240,N,+0020,1","99999,9,08188,1","1,1,001,1,-017,1",,,"SYN130AAXX  17061 76373 32505 40000 10104 20032 38188 40129 51001 84400 90550 333 10220 20020 30/// 55097 21892 56900 59017 82720 82625;",
"76373099999","2012-02-17T15:00:00","4","25.35","-105.75","1967.0","TEPEHUANES DGO., MX","FM-12","99999","V020","999,9,C,0000,1","22000,1,9,N","030000,1,N,1","+0122,1","+0006,1","10125,1",,,,,,"02,1,+00600,1,06,1",,"02,99,1,02,1,02,1,00800,1,00,1,00,1",,"01,9",,,,"99999,9,08185,1","1,1,006,1,-026,1",,,"SYN100AAXX  17151 76373 32580 20000 10122 20006 38185 40125 51006 82200 91455 333 30/// 56900 59026 82620;",
"76373099999","2012-02-17T18:00:00","4","25.35","-105.75","1967.0","TEPEHUANES DGO., MX","FM-12","99999","V020","250,1,N,0030,1","22000,1,9,N","030000,1,N,1","+0184,1","+0026,1","10119,1",,,,,,"02,1,+00600,1,07,1",,"04,99,1,04,1,04,1,00800,1,00,1,00,1",,"01,9",,"120,M,+0194,1","240,N,+0060,1","99999,9,08179,1","7,1,006,1,-019,1",,,"SYN118AAXX  17181 76373 32580 42503 10184 20026 38179 40119 57006 84400 91755 333 10194 20060 30/// 56900 59019 82720 82625;",
"76373099999","2012-02-17T21:00:00","4","25.35","-105.75","1967.0","TEPEHUANES DGO., MX","FM-12","99999","V020","230,1,N,0030,1","22000,1,9,N","030000,1,N,1","+0188,1","-0025,1","10101,1",,,,,,"02,1,+00600,1,06,1",,"04,99,1,04,1,04,1,00800,1,00,1,00,1",,"01,9",,,,"99999,9,08165,1","7,1,014,1,-012,1",,,"SYN106AAXX  17211 76373 32580 42303 10188 21025 38165 40101 57014 84400 92050 333 30/// 56900 59012 82620 82725;",
"76373099999","2012-02-18T00:00:00","4","25.35","-105.75","1967.0","TEPEHUANES DGO., MX","FM-12","99999","V020","250,1,N,0020,1","22000,1,9,N","030000,1,N,1","+0152,1","-0043,1","10087,1","24,0000,9,1",,,,,,,"02,99,1,02,1,02,1,00800,1,00,1,00,1",,"01,9",,"120,M,+0200,1","180,N,+0060,1","99999,9,08154,1","7,1,011,1,-032,1",,,"SYN124AAXX  18001 76373 32580 22502 10152 21043 38154 40087 57011 82200 92355 333 10200 20060 30/// 50521 56900 59032 70000 82825;",
"76373099999","2012-02-18T03:00:00","4","25.35","-105.75","1967.0","TEPEHUANES DGO., MX","FM-12","99999","V020","290,1,N,0010,1","22000,1,9,N","001000,1,N,1","+0094,1","-0016,1","10099,1",,,,,,"02,1,+00750,1,08,1",,"02,99,1,02,1,02,1,00800,1,00,1,00,1",,"01,9",,,,"99999,9,08163,1","2,1,009,1,-024,1",,,"SYN100AAXX  18031 76373 32510 22901 10094 21016 38163 40099 52009 82200 90255 333 30/// 56900 59024 82825;",
"76373099999","2012-02-18T06:00:00","4","25.35","-105.75","1967.0","TEPEHUANES DGO., MX","FM-12","99999","V020","999,9,C,0000,1","22000,1,9,N","000500,1,N,1","+0074,1","-0019,1","10117,1",,,,,,"00,1,+99999,9,99,9",,"00,99,1,00,1,00,1,99999,9,00,1,00,1","0606,9","01,9",,"240,M,+0200,1","240,N,+0060,1","99999,9,08178,1","2,1,015,1,+999,9",,,"SYN106AAXX  18061 76373 32905 00000 10074 21019 38178 40117 52015 90550 333 10200 20060 30/// 55101 21933 59010;",
"76373099999","2012-02-18T15:00:00","4","25.35","-105.75","1967.0","TEPEHUANES DGO., MX","FM-12","99999","V020","999,9,C,0000,1","22000,1,9,N","030000,1,N,1","+0010,1","-0042,1","10147,1",,,,,,"00,1,+99999,9,99,9",,"00,99,1,00,1,00,1,99999,9,00,1,00,1",,"01,9",,,,"99999,9,08202,1","2,1,014,1,+017,1",,,"SYN082AAXX  18151 76373 32980 00000 10010 21042 38202 40147 52014 91440 333 30/// 58017;",
"76373099999","2012-02-18T18:00:00","4","25.35","-105.75","1967.0","TEPEHUANES DGO., MX","FM-12","99999","V020","999,9,C,0000,1","22000,1,9,N","030000,1,N,1","+0131,1","-0099,1","10160,1",,,,,,"00,1,+99999,9,99,9",,"00,99,1,00,1,00,1,99999,9,00,1,00,1",,"01,9",,"120,M,+0140,1","240,N,-0020,1","99999,9,08213,1","2,1,011,1,+036,1",,,"SYN094AAXX  18181 76373 32980 00000 10131 21099 38213 40160 52011 91755 333 10140 21020 30/// 58036;",
"76373099999","2012-02-18T21:00:00","4","25.35","-105.75","1967.0","TEPEHUANES DGO., MX","FM-12","99999","V020","999,9,C,0000,1","22000,1,9,N","030000,1,N,1","+0195,2","-0128,1","10121,1",,,,,,"00,1,+99999,9,99,9",,"00,99,1,00,1,00,1,99999,9,00,1,00,1",,"01,9",,,,"99999,9,08182,1","7,1,031,1,+003,1",,,"SYN082AAXX  18211 76373 32980 00000 10195 21128 38182 40121 57031 92050 333 30/// 58003;",
"76373099999","2012-02-19T03:00:00","4","25.35","-105.75","1967.0","TEPEHUANES DGO., MX","FM-12","99999","V020","999,9,C,0000,1","22000,1,9,N","005000,1,N,1","+0102,1","-0111,1","10132,1",,,,,,"00,1,+99999,9,99,9",,"00,99,1,00,1,00,1,99999,9,00,1,00,1",,"01,9",,,,"99999,9,08190,1","2,1,029,1,+027,1",,,"SYN082AAXX  19031 76373 32950 00000 10102 21111 38190 40132 52029 90250 333 30/// 58027;",
"76373099999","2012-02-19T06:00:00","4","25.35","-105.75","1967.0","TEPEHUANES DGO., MX","FM-12","99999","V020","999,9,C,0000,1","22000,1,9,N","005000,1,N,1","+0035,1","-0089,1","10142,1",,,,,,"00,1,+99999,9,99,9",,"00,99,1,00,1,00,1,99999,9,00,1,00,1","0630,9","01,9",,"240,M,+0210,1","240,N,-0020,1","99999,9,08198,1","2,1,008,1,+999,9",,,"SYN106AAXX  19061 76373 32950 00000 10035 21089 38198 40142 52008 90550 333 10210 21020 30/// 55105 22126 58020;",
"76373099999","2012-02-19T12:00:00","4","25.35","-105.75","1967.0","TEPEHUANES DGO., MX","FM-12","99999","V020","999,9,C,0000,1","22000,1,9,N","005000,1,N,1","-0037,1","-0109,1","10133,1",,,,,,"00,1,+99999,9,99,9",,"00,99,1,00,1,00,1,99999,9,00,1,00,1","0630,9","09,9","999,-0050,9","120,N,-0043,1","240,M,+0212,1","99999,9,08191,1","9,9,999,9,+003,1",,,"SYN112AAXX  19121 76373 32950 00000 11037 21109 38191 40133 5//// 91150 333 10212 21043 31050 55105 22126 58003 70000;",
"76373099999","2012-02-19T15:00:00","4","25.35","-105.75","1967.0","TEPEHUANES DGO., MX","FM-12","99999","V020","999,9,C,0000,1","22000,1,9,N","020000,1,N,1","-0002,1","-0106,1","10145,1",,,,,,"03,1,+00810,1,06,1",,"03,99,1,03,1,04,1,00800,1,00,1,00,1",,"01,9",,,,"99999,9,08201,1","2,1,010,1,-001,1",,,"SYN100AAXX  19151 76373 32570 30000 11002 21106 38201 40145 52010 83400 91450 333 30/// 56900 59001 83627;",
"76373099999","2012-02-20T00:00:00","4","25.35","-105.75","1967.0","TEPEHUANES DGO., MX","FM-12","99999","V020","310,1,N,0020,1","22000,1,9,N","020000,1,N,1","+0199,1","-0156,1","10094,1","24,0000,9,1",,,,,,,"02,99,1,02,1,04,1,00800,1,00,1,00,1",,"01,9",,"120,M,+0250,1","180,N,-0043,1","99999,9,08160,1","9,9,999,9,-001,1",,,"SYN124AAXX  20001 76373 32570 23102 10199 21156 38160 40094 5//// 82400 92350 333 10250 21043 30/// 50471 56900 59001 70000 82627;",
"76373099999","2012-02-20T03:00:00","4","25.35","-105.75","1967.0","TEPEHUANES DGO., MX","FM-12","99999","V020","999,9,C,0000,1","22000,1,9,N","005000,1,N,1","+0125,1","-0093,1","10119,1",,,,,,"00,1,+99999,9,99,9",,"00,99,1,00,1,00,1,99999,9,00,1,00,1",,"01,9",,,,"99999,9,08180,1","2,1,020,1,-010,1",,,"SYN082AAXX  20031 76373 32950 00000 10125 21093 38180 40119 52020 90250 333 30/// 59010;",
"76373099999","2012-02-20T06:00:00","4","25.35","-105.75","1967.0","TEPEHUANES DGO., MX","FM-12","99999","V020","999,9,C,0000,1","22000,1,9,N","005000,1,N,1","+0064,1","-0093,1","10131,1",,,,,,"00,1,+99999,9,99,9",,"00,99,1,00,1,00,1,99999,9,00,1,00,1","0606,9","01,9",,"240,M,+0250,1","240,N,-0043,1","99999,9,08189,1","2,1,009,1,+999,9",,,"SYN106AAXX  20061 76373 32950 00000 10064 21093 38189 40131 52009 90550 333 10250 21043 30/// 55101 22037 59007;",
"76373099999","2012-02-20T12:00:00","4","25.35","-105.75","1967.0","TEPEHUANES DGO., MX","FM-12","99999","V020","999,9,C,0000,1","22000,1,9,N","005000,1,N,1","-0014,1","-0089,1","10139,1",,,,,,"00,1,+99999,9,99,9",,"00,99,1,00,1,00,1,99999,9,00,1,00,1","0606,9","09,9","999,-0031,9","120,N,-0024,1","240,M,+0250,1","99999,9,08196,1","9,9,999,9,-005,1",,,"SYN112AAXX  20121 76373 32950 00000 11014 21089 38196 40139 5//// 91150 333 10250 21024 31031 55101 22037 59005 70000;",
"76373099999","2012-02-20T18:00:00","4","25.35","-105.75","1967.0","TEPEHUANES DGO., MX","FM-12","99999","V020","999,9,C,0000,1","22000,1,9,N","030000,1,N,1","+0195,1","-0128,1","10163,1",,,,,,"00,1,+99999,9,99,9",,"00,99,1,00,1,00,1,99999,9,00,1,00,1",,"01,9",,"120,M,+0210,1","240,N,-0024,1","99999,9,08215,1","2,1,005,1,+023,1",,,"SYN094AAXX  20181 76373 32980 00000 10195 21128 38215 40163 52005 91755 333 10210 21024 30/// 58023;",
"76373099999","2012-02-20T21:00:00","4","25.35","-105.75","1967.0","TEPEHUANES DGO., MX","FM-12","99999","V020","290,1,N,0020,1","22000,1,9,N","030000,1,N,1","+0233,1","-0198,1","10126,1",,,,,,"02,1,+00810,1,06,1",,"02,99,1,02,1,04,1,00800,1,00,1,00,1",,"01,9",,,,"99999,9,08186,1","7,1,029,1,+028,1",,,"SYN100AAXX  20211 76373 32580 22902 10233 21198 38186 40126 57029 82400 92055 333 30/// 56900 58028 82627;",
"76373099999","2012-02-21T00:00:00","4","25.35","-105.75","1967.0","TEPEHUANES DGO., MX","FM-12","99999","V020","290,1,N,0010,1","22000,1,9,N","030000,1,N,1","+0208,1","-0169,1","10130,1","24,0000,9,1",,,,,,,"03,99,1,03,1,04,1,00800,1,00,1,00,1",,"01,9",,"120,M,+0248,1","180,N,-0024,1","99999,9,08188,1","2,1,002,1,+028,1",,,"SYN124AAXX  21001 76373 32580 32901 10208 21169 38188 40130 52002 83400 92355 333 10248 21024 30/// 50581 56900 58028 70000 83627;",
"76373099999","2012-02-21T03:00:00","4","25.35","-105.75","1967.0","TEPEHUANES DGO., MX","FM-12","99999","V020","999,9,C,0000,1","22000,1,9,N","001000,1,N,1","+0131,1","-0105,1","10160,1",,,,,,"00,1,+99999,9,99,9",,"00,99,1,00,1,00,1,99999,9,00,1,00,1",,"01,9",,,,"99999,9,08213,1","2,1,025,1,+033,1",,,"SYN082AAXX  21031 76373 32910 00000 10131 21105 38213 40160 52025 90250 333 30/// 58033;",
"76373099999","2012-02-21T06:00:00","4","25.35","-105.75","1967.0","TEPEHUANES DGO., MX","FM-12","99999","V020","999,9,C,0000,1","22000,1,9,N","001000,1,N,1","+0065,1","-0122,1","10163,1",,,,,,"00,1,+99999,9,99,9",,"00,99,1,00,1,00,1,99999,9,00,1,00,1","0600,9","01,9",,"240,M,+0248,1","240,N,-0024,1","99999,9,08216,1","7,1,012,1,+999,9",,,"SYN106AAXX  21061 76373 32910 00000 10065 21122 38216 40163 57012 90550 333 10248 21024 30/// 55100 21780 58035;",
"76373099999","2012-02-21T12:00:00","4","25.35","-105.75","1967.0","TEPEHUANES DGO., MX","FM-12","99999","V020","999,9,C,0000,1","22000,1,9,N","001000,1,N,1","-0024,1","-0117,1","10186,1","24,0000,9,1",,,,,"00,1,+99999,9,99,9",,"00,99,1,00,1,00,1,99999,9,00,1,00,1",,"09,9","999,-0045,9","120,N,-0037,1","240,M,+0248,1","99999,9,08234,1","9,9,999,9,+030,1",,,"SYN100AAXX  21121 76373 32910 00000 11024 21117 38234 40186 5//// 91155 333 10248 21037 31045 58030 70000;","Q01  00002PRCP24"
"76373099999","2012-02-21T15:00:00","4","25.35","-105.75","1967.0","TEPEHUANES DGO., MX","FM-12","99999","V020","999,9,C,0000,1","22000,1,9,N","020000,1,N,1","+0010,1","-0102,1","10198,1",,,,,,"00,1,+99999,9,99,9",,"00,99,1,00,1,00,1,99999,9,00,1,00,1",,"01,9",,,,"99999,9,08244,1","2,1,010,1,+044,1",,,"SYN082AAXX  21151 76373 32970 00000 10010 21102 38244 40198 52010 91455 333 30/// 58044;",
"76373099999","2012-02-21T18:00:00","4","25.35","-105.75","1967.0","TEPEHUANES DGO., MX","FM-12","99999","V020","999,9,C,0000,1","22000,1,9,N","030000,1,N,1","+9999,9","-0092,1","10176,1",,,,,,"00,1,+99999,9,99,9",,"00,99,1,00,1,00,1,99999,9,00,1,00,1",,"01,9",,"120,M,+0180,1","240,N,-0037,1","99999,9,08226,1","2,1,013,1,+011,1",,,"SYN094AAXX  21181 76373 32980 00000 10170 21092 38226 40176 52013 91755 333 10180 21037 30/// 58011;","Q01+001703ATOT  "
"76373099999","2012-02-21T21:00:00","4","25.35","-105.75","1967.0","TEPEHUANES DGO., MX","FM-12","99999","V020","220,1,N,0010,1","22000,1,9,N","020000,1,N,1","+0251,1","-0099,1","10131,1",,,,,,"01,1,+00810,1,08,1",,"02,99,1,01,1,02,1,01250,1,07,1,00,1",,"01,9",,,,"99999,9,08191,1","7,1,035,1,+005,1",,,"SYN100AAXX  21211 76373 32670 22201 10251 21099 38191 40131 57035 81270 92050 333 30/// 56990 58005 81827;",
"76373099999","2012-02-22T00:00:00","4","25.35","-105.75","1967.0","TEPEHUANES DGO., MX","FM-12","99999","V020","230,1,N,0010,1","22000,1,9,N","020000,1,N,1","+0208,1","-0010,1","10147,1","24,0000,9,1",,,,,,,"02,99,1,02,1,01,1,01250,1,00,1,00,1",,"01,9",,"120,M,+0262,1","180,N,-0037,1","99999,9,08202,1","2,1,011,1,+014,1",,,"SYN124AAXX  22001 76373 32670 22301 10208 21010 38202 40147 52011 82100 92350 333 10262 21037 30/// 50411 56900 58014 70000 82827;",
"76373099999","2012-02-22T03:00:00","4","25.35","-105.75","1967.0","TEPEHUANES DGO., MX","FM-12","99999","V020","999,9,C,0000,1","22000,1,9,N","020000,1,N,1","+0153,1","+0029,1","10172,1",,,,,,"00,1,+99999,9,99,9",,"00,99,1,00,1,00,1,99999,9,00,1,00,1",,"01,9",,,,"99999,9,08222,1","2,1,020,1,+009,1",,,"SYN082AAXX  22031 76373 32970 00000 10153 20029 38222 40172 52020 90250 333 30/// 58009;",
"76373099999","2012-02-22T06:00:00","4","25.35","-105.75","1967.0","TEPEHUANES DGO., MX","FM-12","99999","V020","999,9,C,0000,1","22000,1,9,N","000600,1,N,1","+0098,1","+0014,1","10175,1",,,,,,"00,1,+99999,9,99,9",,"00,99,1,00,1,00,1,99999,9,00,1,00,1","0612,9","01,9",,"240,M,+0262,1","240,N,-0037,1","99999,9,08225,1","3,1,003,1,+999,9",,,"SYN106AAXX  22061 76373 32906 00000 10098 20014 38225 40175 53003 90550 333 10262 21037 30/// 55102 21828 58009;",
"76373099999","2012-02-22T12:00:00","4","25.35","-105.75","1967.0","TEPEHUANES DGO., MX","FM-12","99999","V020","999,9,C,0000,1","22000,1,9,N","000600,1,N,1","-0025,1","+9999,9","10175,1","24,0000,9,1",,,,,"00,1,+99999,9,99,9",,"00,99,1,00,1,00,1,99999,9,00,1,00,1",,"01,9","999,+0006,9","120,N,+9999,9","240,M,+0262,1","99999,9,08225,1","9,9,999,9,-009,1",,,"SYN100AAXX  22121 76373 32906 00000 11025 21006 38225 40175 5//// 91150 333 10262 20017 30006 59009 70000;","Q01  00002PRCP24Q02 +00172ATMN  "
"76373099999","2012-02-22T15:00:00","4","25.35","-105.75","1967.0","TEPEHUANES DGO., MX","FM-12","99999","V020","999,9,C,0000,1","22000,1,9,N","015000,1,N,1","+0038,1","-0009,1","10190,1",,,,,,"02,1,+00750,1,06,1",,"04,99,1,02,1,04,1,01250,1,00,1,04,1",,"01,9",,,,"99999,9,08237,1","2,1,012,1,-007,1",,,"SYN106AAXX  22151 76373 32665 40000 10038 21009 38237 40190 52012 82404 91450 333 30/// 56909 59007 82625 82067;",
"76373099999","2012-02-22T18:00:00","4","25.35","-105.75","1967.0","TEPEHUANES DGO., MX","FM-12","99999","V020","999,9,C,0000,1","22000,1,9,N","020000,1,N,1","+9999,9","+0033,1","10172,1",,,,,,"01,1,+00810,1,08,1",,"03,99,1,01,1,02,1,01250,1,00,1,04,1",,"01,9",,"120,M,+0217,1","240,N,+0017,1","99999,9,08222,1","7,1,015,1,-004,1",,,"SYN118AAXX  22181 76373 32670 30000 10211 20033 38222 40172 57015 81204 91750 333 10217 20017 30/// 56909 59004 81827 82067;","Q01+002113ATOT  "
"76373099999","2012-02-22T21:00:00","4","25.35","-105.75","1967.0","TEPEHUANES DGO., MX","FM-12","99999","V020","230,1,N,0010,1","22000,1,9,N","020000,1,N,1","+0259,2","-0063,1","10129,1",,,,,,"01,1,+00750,1,06,1","03,1,+00810,1,08,1","07,99,1,04,1,02,1,01250,1,00,1,04,1",,"01,9",,,,"99999,9,08188,1","7,1,034,1,-003,1",,,"SYN112AAXX  22211 76373 32670 72301 10259 21063 38188 40129 57034 84204 92050 333 30/// 56909 59003 83827 81625 83067;",
"76373099999","2012-02-23T00:00:00","4","25.35","-105.75","1967.0","TEPEHUANES DGO., MX","FM-12","99999","V020","250,1,N,0010,1","01200,1,9,N","020000,1,N,1","+0219,1","+0001,1","10122,1","24,0000,9,1",,,,,"04,1,+00750,1,06,1",,"07,99,1,07,1,05,1,01250,1,00,1,00,1",,"01,9",,"120,M,+0270,1","180,N,+0017,1","99999,9,08182,1","2,1,005,1,-020,1",,,"SYN130AAXX  23001 76373 32670 72501 10219 20001 38182 40122 52005 87500 92345 333 10270 20017 30/// 50421 56900 59020 70000 84625 83827;",
"76373099999","2012-02-23T03:00:00","4","25.35","-105.75","1967.0","TEPEHUANES DGO., MX","FM-12","99999","V020","999,9,C,0000,1","22000,1,9,N","000400,1,N,1","+0166,1","+0005,1","10130,1",,,,,,"02,1,+00810,1,08,1",,"02,99,1,02,1,02,1,01250,1,00,1,00,1",,"01,9",,,,"99999,9,08189,1","3,1,007,1,-033,1",,,"SYN100AAXX  23031 76373 32604 20000 10166 20005 38189 40130 53007 82200 90250 333 30/// 56900 59033 82827;",
"76373099999","2012-02-23T06:00:00","4","25.35","-105.75","1967.0","TEPEHUANES DGO., MX","FM-12","99999","V020","999,9,C,0000,1","22000,1,9,N","000400,1,N,1","+0126,1","+0010,1","10138,1",,,,,,"00,1,+99999,9,99,9",,"00,99,1,00,1,00,1,99999,9,00,1,00,1","0504,9","01,9",,"240,M,+0270,1","240,N,+0017,1","99999,9,08195,1","2,1,006,1,+999,9",,,"SYN106AAXX  23061 76373 32904 00000 10126 20010 38195 40138 52006 90545 333 10270 20017 30/// 55084 21611 59030;",
"76373099999","2012-02-23T18:00:00","4","25.35","-105.75","1967.0","TEPEHUANES DGO., MX","FM-12","99999","V020","999,9,C,0000,1","00750,1,9,N","030000,1,N,1","+0204,1","+0045,1","10107,1",,,,,,"02,1,+00600,1,06,1",,"05,99,1,05,1,05,1,00800,1,00,1,00,1",,"01,9",,"120,M,+0220,1","240,N,+0008,1","99999,9,08170,1","7,1,012,1,-052,1",,,"SYN118AAXX  23181 76373 32580 50000 10204 20045 38170 40107 57012 85500 91755 333 10220 20008 30/// 56900 59052 82620 83825;",
"76373099999","2012-02-23T21:00:00","4","25.35","-105.75","1967.0","TEPEHUANES DGO., MX","FM-12","99999","V020","290,1,N,0020,1","00750,1,9,N","030000,1,N,1","+0204,1","+0052,1","10083,1",,,,,,"02,1,+00600,1,07,1",,"05,99,1,05,1,05,1,00800,1,00,1,00,1",,"01,9",,,,"99999,9,08150,1","2,1,020,1,-038,1",,,"SYN106AAXX  23211 76373 32580 52902 10204 20052 38150 40083 52020 85500 92055 333 30/// 56900 59038 82720 83625;",
"76373099999","2012-02-24T00:00:00","4","25.35","-105.75","1967.0","TEPEHUANES DGO., MX","FM-12","99999","V020","230,1,N,0020,1","00750,1,9,N","030000,1,N,1","+0192,1","+0037,1","10073,1","24,0000,9,1",,,,,"02,1,+00600,1,07,1",,"06,99,1,06,1,06,1,00800,1,00,1,00,1",,"01,9",,"120,M,+0244,1","180,N,+0008,1",,"7,1,012,1,-040,1",,,"SYN130AAXX  24001 76373 32580 62302 10192 20037 38242 40073 57012 86600 92355 333 10244 20008 30/// 50581 56900 59040 70000 82720 84625;","Q01+082423APOSP "
"76373099999","2012-02-24T03:00:00","4","25.35","-105.75","1967.0","TEPEHUANES DGO., MX","FM-12","99999","V020","200,1,N,0010,1","22000,1,9,N","001000,1,N,1","+0142,1","+0009,1","10088,1",,,,,,"01,1,+00600,1,07,1",,"03,99,1,03,1,03,1,00800,1,00,1,00,1",,"01,9",,,,"99999,9,08154,1","2,1,012,1,-035,1",,,"SYN106AAXX  24031 76373 32510 32001 10142 20009 38154 40088 52012 83300 90255 333 30/// 56900 59035 81720 82625;",
"76373099999","2012-02-24T18:00:00","4","25.35","-105.75","1967.0","TEPEHUANES DGO., MX","FM-12","99999","V020","999,9,C,0000,1","22000,1,9,N","030000,1,N,1","+0160,1","-0072,1","10120,1",,,,,,"01,1,+00600,1,06,1",,"03,99,1,03,1,03,1,00800,1,00,1,00,1",,"01,9",,"120,M,+0162,1","240,N,-0018,1","99999,9,08181,1","7,1,005,1,+011,1",,,"SYN118AAXX  24181 76373 32580 30000 10160 21072 38181 40120 57005 83300 91750 333 10162 21018 30/// 56900 58011 81620 82825;",
"76373099999","2012-02-25T00:00:00","4","25.35","-105.75","1967.0","TEPEHUANES DGO., MX","FM-12","99999","V020","140,1,N,0010,1","22000,1,9,N","030000,1,N,1","+0170,1","-0122,1","10114,1","24,0000,9,1",,,,,"01,1,+00600,1,07,1",,"03,99,1,03,1,03,1,00800,1,00,1,00,1",,"01,9",,"120,M,+0198,1","180,N,-0018,1","99999,9,08176,1","2,1,008,1,+034,1",,,"SYN130AAXX  25001 76373 32580 31401 10170 21122 38176 40114 52008 83300 92355 333 10198 21018 30/// 50411 56900 58034 70000 81720 82825;",
"76373099999","2012-02-25T03:00:00","4","25.35","-105.75","1967.0","TEPEHUANES DGO., MX","FM-12","99999","V020","999,9,C,0000,1","22000,1,9,N","001000,1,N,1","+0114,1","-0030,1","10152,1",,,,,,"02,1,+00600,1,07,1",,"02,99,1,02,1,02,1,00800,1,00,1,00,1",,"01,9",,,,"99999,9,08206,1","2,1,033,1,+052,1",,,"SYN100AAXX  25031 76373 32510 20000 10114 21030 38206 40152 52033 82200 90255 333 30/// 56900 58052 82720;",
"76373099999","2012-02-25T06:00:00","4","25.35","-105.75","1967.0","TEPEHUANES DGO., MX","FM-12","99999","V020","999,9,C,0000,1","22000,1,9,N","000500,1,N,1","+0060,1","-0013,1","10172,1",,,,,,,,"01,99,1,01,1,01,1,00800,1,00,1,00,1","0552,9","01,9",,"240,M,+0198,1","240,N,-0018,1","99999,9,08222,1","2,1,024,1,+059,1",,,"SYN124AAXX  25061 76373 32505 10000 10060 21013 38222 40172 52024 81100 90555 333 10198 21018 30/// 55092 21087 56900 58059 81820;",
"76373099999","2012-02-25T12:00:00","4","25.35","-105.75","1967.0","TEPEHUANES DGO., MX","FM-12","99999","V020","999,9,C,0000,1","22000,1,9,N","000500,1,N,1","-0006,1","-0047,1","10179,1","24,0000,9,1",,,,,"01,1,+00750,1,08,1",,"01,99,1,01,1,01,1,00800,1,00,1,00,1",,"09,9","999,-0030,9","120,N,-0020,1","240,M,+0198,1",,"9,9,999,9,+059,1",,,"SYN118AAXX  25121 76373 32505 10000 11006 21047 38128 40179 5//// 81100 91145 333 10198 21020 31030 56900 58059 70000 81825;","Q01+081283APOSP "
"76373099999","2012-02-25T18:00:00","4","25.35","-105.75","1967.0","TEPEHUANES DGO., MX","FM-12","99999","V020","999,9,C,0000,1","22000,1,9,N","030000,1,N,1","+0156,1","+0011,1","10196,1",,,,,,"00,1,+99999,9,99,9",,"00,99,1,00,1,00,1,99999,9,00,1,00,1",,"01,9",,"120,M,+0160,1","240,N,-0020,1","99999,9,08242,1","7,1,007,1,+061,1",,,"SYN094AAXX  25181 76373 32980 00000 10156 20011 38242 40196 57007 91750 333 10160 21020 30/// 58061;",
"76373099999","2012-02-25T21:00:00","4","25.35","-105.75","1967.0","TEPEHUANES DGO., MX","FM-12","99999","V020","140,1,N,0010,1","22000,1,9,N","030000,1,N,1","+0210,1","-0026,1","10153,1",,,,,,"00,1,+99999,9,99,9",,"00,99,1,00,1,00,1,99999,9,00,1,00,1",,"01,9",,,,"99999,9,08208,1","2,1,036,1,+040,1",,,"SYN082AAXX  25211 76373 32980 01401 10210 21026 38208 40153 52036 92050 333 30/// 58040;",
"76373099999","2012-02-26T00:00:00","4","25.35","-105.75","1967.0","TEPEHUANES DGO., MX","FM-12","99999","V020","160,1,N,0010,1","22000,1,9,N","030000,1,N,1","+0219,1","-0054,1","10122,1","24,0000,9,1",,,,,"00,1,+99999,9,99,9",,"00,99,1,00,1,00,1,99999,9,00,1,00,1",,"01,9",,"120,M,+0240,1","180,N,-0020,1","99999,9,08182,1","7,1,026,1,+006,1",,,"SYN106AAXX  26001 76373 32980 01601 10219 21054 38182 40122 57026 92350 333 10240 21020 30/// 50421 58006 70000;","Q01  00002PRCP24"
"76373099999","2012-02-26T03:00:00","4","25.35","-105.75","1967.0","TEPEHUANES DGO., MX","FM-12","99999","V020","999,9,C,0000,1","22000,1,9,N","001000,1,N,1","+0146,1","-0023,1","10144,1",,,,,,"00,1,+99999,9,99,9",,"00,99,1,00,1,00,1,99999,9,00,1,00,1",,"01,9",,,,"99999,9,08200,1","2,1,018,1,-006,1",,,"SYN082AAXX  26031 76373 32910 00000 10146 21023 38200 40144 52018 90250 333 30/// 59006;",
"76373099999","2012-02-26T06:00:00","4","25.35","-105.75","1967.0","TEPEHUANES DGO., MX","FM-12","99999","V020","999,9,C,0000,1","22000,1,9,N","001000,1,N,1","+0092,1","-0052,1","10160,1",,,,,,"00,1,+99999,9,99,9",,"00,99,1,00,1,00,1,99999,9,00,1,00,1","0642,9","01,9",,"240,M,+0240,1","240,N,-0020,1","99999,9,08213,1","2,1,013,1,+999,9",,,"SYN106AAXX  26061 76373 32910 00000 10092 21052 38213 40160 52013 90550 333 10240 21020 30/// 55107 22182 59072;",
"76373099999","2012-02-26T12:00:00","4","25.35","-105.75","1967.0","TEPEHUANES DGO., MX","FM-12","99999","V020","999,9,C,0000,1","22000,1,9,N","001000,1,N,1","+0013,1","-0052,1","10158,1","24,0000,9,1",,,,,"00,1,+99999,9,99,9",,"00,99,1,00,1,00,1,99999,9,00,1,00,1",,"09,9","999,-0030,9","120,N,-0021,1","240,M,+0240,1","99999,9,08212,1","9,9,999,9,-016,1",,,"SYN100AAXX  26121 76373 32910 00000 10013 21052 38212 40158 5//// 91155 333 10240 21021 31030 59016 70000;","Q01  00002PRCP24"
"76373099999","2012-02-26T15:00:00","4","25.35","-105.75","1967.0","TEPEHUANES DGO., MX","FM-12","99999","V020","999,9,C,0000,1","22000,1,9,N","020000,1,N,1","+0037,1","-0045,1","10168,1",,,,,,"00,1,+99999,9,99,9",,"00,99,1,00,1,00,1,99999,9,00,1,00,1",,"01,9",,,,"99999,9,08220,1","2,1,008,1,-018,1",,,"SYN082AAXX  26151 76373 32970 00000 10037 21045 38220 40168 52008 91455 333 30/// 59018;",
"76373099999","2012-02-26T18:00:00","4","25.35","-105.75","1967.0","TEPEHUANES DGO., MX","FM-12","99999","V020","999,9,C,0000,1","22000,1,9,N","030000,1,N,1","+0192,1","-0057,1","10150,1",,,,,,"00,1,+99999,9,99,9",,"00,99,1,00,1,00,1,99999,9,00,1,00,1",,"01,9",,"120,M,+0200,1","240,N,-0021,1","99999,9,08205,1","7,1,013,1,-043,1",,,"SYN094AAXX  26181 76373 32980 00000 10192 21057 38205 40150 57013 91750 333 10200 21021 30/// 59043;",
"76373099999","2012-02-26T21:00:00","4","25.35","-105.75","1967.0","TEPEHUANES DGO., MX","FM-12","99999","V020","230,1,N,0010,1","22000,1,9,N","030000,1,N,1","+0255,1","-0152,1","10111,1",,,,,,"00,1,+99999,9,99,9",,"00,99,1,00,1,00,1,99999,9,00,1,00,1",,"01,9",,,,"99999,9,08173,1","7,1,032,1,-035,1",,,"SYN082AAXX  26211 76373 32980 02301 10255 21152 38173 40111 57032 92055 333 30/// 59035;",
"76373099999","2012-02-27T00:00:00","4","25.35","-105.75","1967.0","TEPEHUANES DGO., MX","FM-12","99999","V020","290,1,N,0020,1","22000,1,9,N","030000,1,N,1","+0220,1","-0126,1","10135,1","24,0000,9,1",,,,,"00,1,+99999,9,99,9",,"00,99,1,00,1,00,1,99999,9,00,1,00,1",,"01,9",,"120,M,+0270,1","180,N,-0021,1","99999,9,08192,1","2,1,021,1,+010,1",,,"SYN106AAXX  27001 76373 32980 02902 10220 21126 38192 40135 52021 92350 333 10270 21021 30/// 50691 58010 70000;","Q01  00002PRCP24"
"76373099999","2012-02-27T03:00:00","4","25.35","-105.75","1967.0","TEPEHUANES DGO., MX","FM-12","99999","V020","999,9,C,0000,1","22000,1,9,N","001000,1,N,1","+0147,1","-0083,1","10158,1",,,,,,"00,1,+99999,9,99,9",,"00,99,1,00,1,00,1,99999,9,00,1,00,1",,"01,9",,,,"99999,9,08212,1","2,1,020,1,+012,1",,,"SYN082AAXX  27031 76373 32910 00000 10147 21083 38212 40158 52020 90250 333 30/// 58012;",
"76373099999","2012-02-27T06:00:00","4","25.35","-105.75","1967.0","TEPEHUANES DGO., MX","FM-12","99999","V020","999,9,C,0000,1","22000,1,9,N","001000,1,N,1","+0079,1","-0084,1","10180,1",,,,,,"00,1,+99999,9,99,9",,"00,99,1,00,1,00,1,99999,9,00,1,00,1","0648,9","01,9",,"240,M,+0270,1","240,N,-0021,1","99999,9,08229,1","2,1,017,1,+999,9",,,"SYN106AAXX  27061 76373 32910 00000 10079 21084 38229 40180 52017 90555 333 10270 21021 30/// 55108 22062 58016;",
"76373099999","2012-02-27T12:00:00","4","25.35","-105.75","1967.0","TEPEHUANES DGO., MX","FM-12","99999","V020","999,9,C,0000,1","22000,1,9,N","001000,1,N,1","+0007,1","-0075,1","10185,1","24,0000,9,1",,,,,"00,1,+99999,9,99,9",,"00,99,1,00,1,00,1,99999,9,00,1,00,1",,"09,9","999,-0024,9","120,N,-0017,1","240,M,+0270,1","99999,9,08233,1","9,9,999,9,+021,1",,,"SYN100AAXX  27121 76373 32910 00000 10007 21075 38233 40185 5//// 91155 333 10270 21017 31024 58021 70000;","Q01  00002PRCP24"
"76373099999","2012-02-27T15:00:00","4","25.35","-105.75","1967.0","TEPEHUANES DGO., MX","FM-12","99999","V020","999,9,C,0000,1","22000,1,9,N","020000,1,N,1","+0030,1","-0073,1","10195,1",,,,,,"00,1,+99999,9,99,9",,"00,99,1,00,1,00,1,99999,9,00,1,00,1",,"01,9",,,,"99999,9,08241,1","4,1,000,1,+021,1",,,"SYN082AAXX  27151 76373 32970 00000 10030 21073 38241 40195 54000 91450 333 30/// 58021;",
"76373099999","2012-02-27T18:00:00","4","25.35","-105.75","1967.0","TEPEHUANES DGO., MX","FM-12","99999","V020","999,9,C,0000,1","22000,1,9,N","030000,1,N,1","+9999,9","-0106,1","10177,1",,,,,,"02,1,+00750,1,08,1",,"02,99,1,02,1,02,1,00800,1,00,1,00,1",,"01,9",,"120,M,+0230,1","240,N,-0017,1","99999,9,08226,1","7,1,015,1,+021,1",,,"SYN112AAXX  27181 76373 32580 20000 10222 21106 38226 40177 57015 82200 91755 333 10230 21017 30/// 56900 58021 82825;","Q01+002223ATOT  "
"76373099999","2012-02-27T21:00:00","4","25.35","-105.75","1967.0","TEPEHUANES DGO., MX","FM-12","99999","V020","230,1,N,0020,1","22000,1,9,N","030000,1,N,1","+0271,1","-0108,1","10144,1",,,,,,"01,1,+00750,1,08,1",,"01,99,1,01,1,01,1,00800,1,00,1,00,1",,"01,9",,,,"99999,9,08200,1","4,1,000,1,+027,1",,,"SYN100AAXX  27211 76373 32580 12302 10271 21108 38200 40144 54000 81100 92050 333 30/// 56900 58027 81825;",
"76373099999","2012-02-28T00:00:00","4","25.35","-105.75","1967.0","TEPEHUANES DGO., MX","FM-12","99999","V020","230,1,N,0020,1","22000,1,9,N","030000,1,N,1","+0242,1","-0088,1","10157,1","24,0000,9,1",,,,,"00,1,+99999,9,99,9",,"00,99,1,00,1,00,1,99999,9,00,1,00,1",,"01,9",,"120,M,+0280,1","180,N,-0017,1","99999,9,08210,1","2,1,010,1,+018,1",,,"SYN106AAXX  28001 76373 32980 02302 10242 21088 38210 40157 52010 92355 333 10280 21017 30/// 50671 58018 70000;","Q01  00002PRCP24"
"76373099999","2012-02-28T03:00:00","4","25.35","-105.75","1967.0","TEPEHUANES DGO., MX","FM-12","99999","V020","999,9,C,0000,1","22000,1,9,N","001000,1,N,1","+0169,1","-0056,1","10178,1",,,,,,"00,1,+99999,9,99,9",,"00,99,1,00,1,00,1,99999,9,00,1,00,1",,"01,9",,,,"99999,9,08228,1","2,1,018,1,+016,1",,,"SYN082AAXX  28031 76373 32910 00000 10169 21056 38228 40178 52018 90250 333 30/// 58016;",
"76373099999","2012-02-28T06:00:00","4","25.35","-105.75","1967.0","TEPEHUANES DGO., MX","FM-12","99999","V020","999,9,C,0000,1","22000,1,9,N","001000,1,N,1","+0102,1","-0065,1","10190,1",,,,,,"00,1,+99999,9,99,9",,"00,99,1,00,1,00,1,99999,9,00,1,00,1","0624,9","01,9",,"240,M,+0280,1","240,N,-0017,1","99999,9,08237,1","2,1,009,1,+999,9",,,"SYN106AAXX  28061 76373 32910 00000 10102 21065 38237 40190 52009 90550 333 10280 21017 30/// 55104 22057 58006;",
"76373099999","2012-02-28T12:00:00","4","25.35","-105.75","1967.0","TEPEHUANES DGO., MX","FM-12","99999","V020","999,9,C,0000,1","22000,1,9,N","001000,1,N,1","+0035,1","-0051,1","10183,1","24,0000,9,1",,,,,"00,1,+99999,9,99,9",,"00,99,1,00,1,00,1,99999,9,00,1,00,1",,"09,9","999,-0010,9","120,N,+0010,1","240,M,+0280,1","99999,9,08232,1","9,9,999,9,-001,1",,,"SYN100AAXX  28121 76373 32910 00000 10035 21051 38232 40183 5//// 91155 333 10280 20010 31010 59001 70000;","Q01  00002PRCP24"
"76373099999","2012-02-28T15:00:00","4","25.35","-105.75","1967.0","TEPEHUANES DGO., MX","FM-12","99999","V020","999,9,C,0000,1","00750,1,9,N","020000,1,N,1","+0058,1","-0040,1","10198,1",,,,,,"02,1,+00600,1,09,1",,"05,99,1,05,1,05,1,00800,1,00,1,00,1",,"01,9",,,,"99999,9,08244,1","2,1,012,1,+003,1",,,"SYN106AAXX  28151 76373 32570 50000 10058 21040 38244 40198 52012 85500 91450 333 30/// 56900 58003 82920 83625;",
"76373099999","2012-02-28T18:00:00","4","25.35","-105.75","1967.0","TEPEHUANES DGO., MX","FM-12","99999","V020","999,9,C,0000,1","22000,1,9,N","030000,1,N,1","+9999,9","-0084,1","10168,1",,,,,,"02,1,+00600,1,09,1",,"04,99,1,99,9,99,9,00800,1,99,9,99,9",,,,"120,M,+0240,1","240,N,+0010,1","99999,9,08220,1","9,9,999,9,-006,1",,,"SYN118AAXX  28181 76373 32580 40000 10233 21084 38220 40168 42024 84400 91750 333 10240 20010 30/// 56900 59006 82920 92625;","Q01+002333ATOT  "
"76373099999","2012-02-28T21:00:00","4","25.35","-105.75","1967.0","TEPEHUANES DGO., MX","FM-12","99999","V020","250,1,N,0020,1","22000,1,9,N","020000,1,N,1","+0284,1","-0074,1","10147,1",,,,,,"01,1,+00810,1,06,1",,"04,99,1,01,1,04,1,01250,1,00,1,04,1",,"01,9",,,,"99999,9,08202,1","7,1,018,1,+002,1",,,"SYN106AAXX  28211 76373 32670 42502 10284 21074 38202 40147 57018 81404 92050 333 30/// 56909 58002 81627 83067;",
"76373099999","2012-02-29T00:00:00","4","25.35","-105.75","1967.0","TEPEHUANES DGO., MX","FM-12","99999","V020","250,1,N,0010,1","22000,1,9,N","015000,1,N,1","+0261,1","-0085,1","10154,1","24,0000,9,1",,,,,"01,1,+00810,1,08,1",,"03,99,1,01,1,02,1,01250,1,03,1,00,1",,"01,9",,"120,M,+0292,1","180,N,+0010,1","99999,9,08208,1","2,1,006,1,-002,1",,,"SYN130AAXX  29001 76373 32665 32501 10261 21085 38208 40154 52006 81230 92350 333 10292 20010 30/// 50761 56990 59002 70000 81827 82358;",
"76373099999","2012-02-29T03:00:00","4","25.35","-105.75","1967.0","TEPEHUANES DGO., MX","FM-12","99999","V020","999,9,C,0000,1","22000,1,9,N","001000,1,N,1","+0171,1","-0062,1","10173,1",,,,,,"02,1,+00810,1,08,1",,"02,99,1,02,1,02,1,01250,1,00,1,00,1",,"01,9",,,,"99999,9,08223,1","2,1,015,1,-005,1",,,"SYN100AAXX  29031 76373 32610 20000 10171 21062 38223 40173 52015 82200 90250 333 30/// 56900 59005 82827;",
"76373099999","2012-02-29T06:00:00","4","25.35","-105.75","1967.0","TEPEHUANES DGO., MX","FM-12","99999","V020","999,9,C,0000,1","22000,1,9,N","000400,1,N,1","+0117,1","-0074,1","10183,1",,,,,,,,"02,99,1,02,1,04,1,01250,1,00,1,00,1","0582,9","01,9",,"240,M,+0292,1","240,N,+0010,1","99999,9,08232,1","2,1,009,1,-005,1",,,"SYN124AAXX  29061 76373 32604 20000 10117 21074 38232 40183 52009 82400 90545 333 10292 20010 30/// 55097 22070 56900 59005 82627;",
"76373099999","2012-02-29T12:00:00","4","25.35","-105.75","1967.0","TEPEHUANES DGO., MX","FM-12","99999","V020","999,9,C,0000,1","22000,1,9,N","000600,1,N,1","+0056,1","-0082,1","10173,1","24,0000,9,1",,,,,"00,1,+99999,9,99,9",,"00,99,1,00,1,00,1,99999,9,00,1,00,1",,"01,9","999,+0033,9","120,N,+0047,1","240,M,+0292,1","99999,9,08224,1","9,9,999,9,-008,1",,,"SYN100AAXX  29121 76373 32906 00000 10056 21082 38224 40173 5//// 91150 333 10292 20047 30033 59008 70000;","Q01  00002PRCP24"
"76373099999","2012-02-29T15:00:00","4","25.35","-105.75","1967.0","TEPEHUANES DGO., MX","FM-12","99999","V020","999,9,C,0000,1","00810,1,9,N","015000,1,N,1","+0081,1","-0076,1","10189,1",,,,,,"05,1,+00810,1,06,1",,"05,99,1,05,1,05,1,01250,1,00,1,00,1",,"01,9",,,,"99999,9,08236,1","2,1,012,1,-008,1",,,"SYN100AAXX  29151 76373 32665 50000 10081 21076 38236 40189 52012 85500 91450 333 30/// 56900 59008 85627;",
"76373099999","2012-02-29T18:00:00","4","25.35","-105.75","1967.0","TEPEHUANES DGO., MX","FM-12","99999","V020","999,9,C,0000,1","22000,1,9,N","020000,1,N,1","+0215,1","-0070,1","10178,1",,,,,,"01,1,+00810,1,08,1",,"04,99,1,01,1,02,1,01250,1,00,1,04,1",,"01,9",,"120,M,+0223,1","240,N,+0047,1","99999,9,08227,1","8,1,009,1,+007,1",,,"SYN118AAXX  29181 76373 32670 40000 10215 21070 38227 40178 58009 81204 91745 333 10223 20047 30/// 56909 58007 81827 83067;",
"76373099999","2012-02-29T21:00:00","4","25.35","-105.75","1967.0","TEPEHUANES DGO., MX","FM-12","99999","V020","250,1,N,0010,1","22000,1,9,N","020000,1,N,1","+0294,2","-0085,1","10134,1",,,,,,"02,1,+00810,1,08,1",,"03,99,1,03,1,02,1,01250,1,00,1,00,1",,"01,9",,,,"99999,9,08192,1","2,1,035,1,-010,1",,,"SYN106AAXX  29211 76373 32670 32501 10294 21085 38192 40134 52035 83200 92050 333 30/// 56900 59010 82827 81625;",
"76373099999","2012-03-01T00:00:00","4","25.35","-105.75","1967.0","TEPEHUANES DGO., MX","FM-12","99999","V020","310,1,N,0020,1","22000,1,9,N","020000,1,N,1","+0261,1","-0074,1","10133,1","24,0000,9,1",,,,,"01,1,+00810,1,08,1",,"04,99,1,01,1,02,1,01250,1,00,1,04,1",,"01,9",,"120,M,+0308,1","180,N,+0047,1","99999,9,08191,1","5,1,001,1,-017,1",,,"SYN130AAXX  01001 76373 32670 43102 10261 21074 38191 40133 55001 81204 92350 333 10308 20047 30/// 50771 56909 59017 70000 81827 83067;",
"76373099999","2012-03-01T03:00:00","4","25.35","-105.75","1967.0","TEPEHUANES DGO., MX","FM-12","99999","V020","999,9,C,0000,1","22000,1,9,N","000600,1,N,1","+0182,1","-0089,1","10162,1",,,,,,"01,1,+00810,1,08,1",,"02,99,1,01,1,02,1,01250,1,00,1,04,1",,"01,9",,,,"99999,9,08214,1","2,1,023,1,-009,1",,,"SYN100AAXX  01031 76373 32606 20000 10182 21089 38214 40162 52023 81204 90250 333 30/// 56909 59009 81827;",
"76373099999","2012-03-01T06:00:00","4","25.35","-105.75","1967.0","TEPEHUANES DGO., MX","FM-12","99999","V020","999,9,C,0000,1","22000,1,9,N","000400,1,N,1","+0119,1","-0082,1","10172,1",,,,,,"00,1,+99999,9,99,9",,"00,99,1,00,1,00,1,99999,9,00,1,00,1","0558,9","01,9",,"240,M,+0308,1","240,N,+0047,1","99999,9,08222,1","2,1,008,1,+999,9",,,"SYN106AAXX  01061 76373 32904 00000 10119 21082 38222 40172 52008 90505 333 10308 20047 30/// 55093 21739 59010;",
"76373099999","2012-03-01T12:00:00","4","25.35","-105.75","1967.0","TEPEHUANES DGO., MX","FM-12","99999","V020","999,9,C,0000,1","22000,1,9,N","000600,1,N,1","+0041,1","-0071,1","10157,1","24,0000,9,1",,,,,"00,1,+99999,9,99,9",,"00,99,1,00,1,00,1,99999,9,00,1,00,1",,"01,9","999,+0020,9","120,N,+0033,1","240,M,+0308,1","99999,9,08210,1","9,9,999,9,-014,1",,,"SYN100AAXX  01121 76373 32906 00000 10041 21071 38210 40157 5//// 91150 333 10308 20033 30020 59014 70000;","Q01  00002PRCP24"
"76373099999","2012-03-01T15:00:00","4","25.35","-105.75","1967.0","TEPEHUANES DGO., MX","FM-12","99999","V020","999,9,C,0000,1","00750,1,9,N","015000,1,N,1","+0058,1","-0067,1","10167,1",,,,,,"07,1,+00750,1,06,1",,"07,99,1,07,1,04,1,00800,1,00,1,00,1",,"01,9",,,,"99999,9,08218,1","2,1,008,1,-018,1",,,"SYN100AAXX  01151 76373 32565 70000 10058 21067 38218 40167 52008 87400 91450 333 30/// 56900 59018 87625;",
"76373099999","2012-03-01T18:00:00","4","25.35","-105.75","1967.0","TEPEHUANES DGO., MX","FM-12","99999","V020","999,9,C,0000,1","00750,1,C,N","030000,1,N,1","+0208,1","-0078,1","10146,1",,,,,,"01,1,+00600,1,07,1","02,1,+00750,1,08,1","05,99,1,05,1,03,1,00800,1,02,1,00,1",,"01,9",,"120,M,+0210,1","240,N,+0033,1","99999,9,08201,1","7,1,014,1,-026,1",,,"SYN124AAXX  01181 76373 32580 50000 10208 21078 38201 40146 57014 85320 91750 333 10210 20033 30/// 56990 59026 81720 82825 82337;",
"76373099999","2012-03-01T21:00:00","4","25.35","-105.75","1967.0","TEPEHUANES DGO., MX","FM-12","99999","V020","290,1,N,0020,1","22000,1,9,N","030000,1,N,1","+0280,2","-0089,1","10105,1",,,,,,"01,1,+00750,1,08,1","02,1,+01110,1,03,1","04,99,1,03,1,01,1,00800,1,02,1,01,1",,"01,9",,,,"99999,9,08169,1","7,1,032,1,-023,1",,,"SYN112AAXX  01211 76373 32580 42902 10280 21089 38169 40105 57032 83121 92050 333 30/// 56999 59023 81825 82337 81067;",
"76373099999","2012-03-02T00:00:00","4","25.35","-105.75","1967.0","TEPEHUANES DGO., MX","FM-12","99999","V020","250,1,N,0020,1","00750,1,9,N","030000,1,N,1","+0254,1","-0148,1","10104,1","24,0000,9,1",,,,,"02,1,+00600,1,07,1","02,1,+00750,1,08,1","06,99,1,06,1,04,1,00800,1,02,1,00,1",,"01,9",,"120,M,+0290,1","180,N,+0033,1","99999,9,08168,1","5,1,001,1,-023,1",,,"SYN136AAXX  02001 76373 32580 62502 10254 21148 38168 40104 55001 86420 92355 333 10290 20033 30/// 50761 56990 59023 70000 82720 82825 82337;",
"76373099999","2012-03-02T03:00:00","4","25.35","-105.75","1967.0","TEPEHUANES DGO., MX","FM-12","99999","V020","340,1,N,0010,1","22000,1,9,N","001000,1,N,1","+0164,1","-0127,1","10117,1",,,,,,"01,1,+00750,1,08,1","01,1,+00900,1,03,1","03,99,1,02,1,01,1,00800,1,01,1,01,1",,"01,9",,,,"99999,9,08178,1","2,1,010,1,-036,1",,,"SYN112AAXX  02031 76373 32510 33401 10164 21127 38178 40117 52010 82111 90255 333 30/// 56999 59036 81825 81330 81067;",
"76373099999","2012-03-02T12:00:00","4","25.35","-105.75","1967.0","TEPEHUANES DGO., MX","FM-12","99999","V020","999,9,C,0000,1","22000,1,9,N","000500,1,N,1","+0020,1","-0103,1","10128,1","24,0000,9,1",,,,,"00,1,+99999,9,99,9",,"00,99,1,00,1,00,1,99999,9,00,1,00,1",,"09,9","999,-0012,9","120,N,+0008,1","240,M,+0290,1","99999,9,08187,1","9,9,999,9,-023,1",,,"SYN100AAXX  02121 76373 32905 00000 10020 21103 38187 40128 5//// 91155 333 10290 20008 31012 59023 70000;","Q01  00002PRCP24"
"76373099999","2012-03-02T15:00:00","4","25.35","-105.75","1967.0","TEPEHUANES DGO., MX","FM-12","99999","V020","999,9,C,0000,1","22000,1,9,N","010000,1,N,1","+0046,1","-0084,1","10141,1",,,,,,"03,1,+05100,1,00,1",,"03,99,1,00,1,00,1,99999,9,00,1,03,1",,"01,9",,,,"99999,9,08198,1","2,1,011,1,-020,1",,,"SYN100AAXX  02151 76373 32960 30000 10046 21084 38198 40141 52011 80003 91450 333 30/// 56009 59020 83067;",
"76373099999","2012-03-02T18:00:00","4","25.35","-105.75","1967.0","TEPEHUANES DGO., MX","FM-12","99999","V020","999,9,C,0000,1","22000,1,9,N","030000,1,N,1","+9999,9","-0164,1","10123,1",,,,,,"02,1,+03000,1,00,1",,"02,99,1,00,1,00,1,99999,9,00,1,02,1",,"01,9",,"120,M,+0230,1","240,N,+0008,1","99999,9,08183,1","7,1,015,1,-018,1",,,"SYN112AAXX  02181 76373 32980 20000 10224 21164 38183 40123 57015 80002 91750 333 10230 20008 30/// 56009 59018 82060;","Q01+002243ATOT  "
"76373099999","2012-03-02T21:00:00","4","25.35","-105.75","1967.0","TEPEHUANES DGO., MX","FM-12","99999","V020","290,1,N,0020,1","22000,1,9,N","030000,1,N,1","+0272,2","-0274,2","10099,1",,,,,,"03,1,+05100,1,00,1",,"03,99,1,00,1,00,1,99999,9,00,1,03,1",,"01,9",,,,"99999,9,08164,1","7,1,019,1,-005,1",,,"SYN100AAXX  02211 76373 32980 32902 10272 21274 38164 40099 57019 80003 92055 333 30/// 56009 59005 83067;",
"76373099999","2012-03-03T00:00:00","4","25.35","-105.75","1967.0","TEPEHUANES DGO., MX","FM-12","99999","V020","290,1,N,0020,1","22000,1,9,N","030000,1,N,1","+0240,1","-0240,1","10092,1","24,0000,9,1",,,,,,,"04,99,1,00,1,00,1,99999,9,00,1,04,1",,"01,9",,"120,M,+0280,1","180,N,+0008,1","99999,9,08158,1","7,1,006,1,-010,1",,,"SYN124AAXX  03001 76373 32980 42902 10240 21240 38158 40092 57006 80004 92355 333 10280 20008 30/// 50851 56009 59010 70000 84067;",
"76373099999","2012-03-03T03:00:00","4","25.35","-105.75","1967.0","TEPEHUANES DGO., MX","FM-12","99999","V020","320,1,N,0010,1","22000,1,9,N","001000,1,N,1","+0156,1","-0139,1","10121,1",,,,,,"02,1,+05100,1,00,1",,"02,99,1,00,1,00,1,99999,9,00,1,02,1",,"01,9",,,,"99999,9,08181,1","2,1,023,1,+003,1",,,"SYN100AAXX  03031 76373 32910 23201 10156 21139 38181 40121 52023 80002 90255 333 30/// 56009 58003 82067;",
"76373099999","2012-03-03T12:00:00","4","25.35","-105.75","1967.0","TEPEHUANES DGO., MX","FM-12","99999","V020","999,9,C,0000,1","22000,1,9,N","000500,1,N,1","-0006,1","-0126,1","10150,1","24,0000,9,1",,,,,"02,1,+05100,1,00,1",,"02,99,1,00,1,00,1,99999,9,00,1,02,1",,"09,9","999,-0020,9","120,N,-0018,1","240,M,+0280,1","99999,9,08205,1","9,9,999,9,+018,1",,,"SYN118AAXX  03121 76373 32905 20000 11006 21126 38205 40150 5//// 80002 91155 333 10280 21018 31020 56009 58018 70000 82067;",
"76373099999","2012-03-03T15:00:00","4","25.35","-105.75","1967.0","TEPEHUANES DGO., MX","FM-12","99999","V020","999,9,C,0000,1","22000,1,9,N","010000,1,N,1","+0038,1","-0117,1","10165,1",,,,,,"02,1,+05100,1,00,1",,"02,99,1,00,1,00,1,99999,9,00,1,02,1",,"01,9",,,,"99999,9,08217,1","2,1,012,1,+019,1",,,"SYN100AAXX  03151 76373 32960 20000 10038 21117 38217 40165 52012 80002 91445 333 30/// 56009 58019 82067;",
"76373099999","2012-03-03T18:00:00","4","25.35","-105.75","1967.0","TEPEHUANES DGO., MX","FM-12","99999","V020","999,9,C,0000,1","22000,1,9,N","020000,1,N,1","+0194,1","-0128,1","10198,1",,,,,,"00,1,+99999,9,99,9",,"00,99,1,00,1,00,1,99999,9,00,1,00,1",,"01,9",,"120,M,+0210,1","240,N,-0018,1","99999,9,08244,1","2,1,033,1,+061,1",,,"SYN094AAXX  03181 76373 32970 00000 10194 21128 38244 40198 52033 91750 333 10210 21018 30/// 58061;",
"76373099999","2012-03-03T21:00:00","4","25.35","-105.75","1967.0","TEPEHUANES DGO., MX","FM-12","99999","V020","250,1,N,0010,1","22000,1,9,N","030000,1,N,1","+0243,2","-0246,2","10154,1",,,,,,"00,1,+99999,9,99,9",,"00,99,1,00,1,00,1,99999,9,00,1,00,1",,"01,9",,,,"99999,9,08208,1","7,1,036,1,+044,1",,,"SYN082AAXX  03211 76373 32980 02501 10243 21246 38208 40154 57036 92055 333 30/// 58044;",
"76373099999","2012-03-04T00:00:00","4","25.35","-105.75","1967.0","TEPEHUANES DGO., MX","FM-12","99999","V020","350,1,N,0010,1","22000,1,9,N","020000,1,N,1","+0221,1","-0197,1","10152,1","24,0000,9,1",,,,,"00,1,+99999,9,99,9",,"00,99,1,00,1,00,1,99999,9,00,1,00,1",,"01,9",,"120,M,+0260,1","180,N,-0018,1","99999,9,08206,1","7,1,002,1,+048,1",,,"SYN106AAXX  04001 76373 32970 03501 10221 21197 38206 40152 57002 92350 333 10260 21018 30/// 50681 58048 70000;","Q01  00002PRCP24"
"76373099999","2012-03-04T03:00:00","4","25.35","-105.75","1967.0","TEPEHUANES DGO., MX","FM-12","99999","V020","999,9,C,0000,1","22000,1,9,N","005000,1,N,1","+0120,1","-0204,1","10191,1",,,,,,"00,1,+99999,9,99,9",,"00,99,1,00,1,00,1,99999,9,00,1,00,1",,"01,9",,,,"99999,9,08238,1","2,1,032,1,+057,1",,,"SYN082AAXX  04031 76373 32950 00000 10120 21204 38238 40191 52032 90250 333 30/// 58057;",
"76373099999","2012-03-04T06:00:00","4","25.35","-105.75","1967.0","TEPEHUANES DGO., MX","FM-12","99999","V020","999,9,C,0000,1","22000,1,9,N","005000,1,N,1","+0046,2","-0186,1","99999,9",,,,,,"00,1,+99999,9,99,9",,"00,99,1,00,1,00,1,99999,9,00,1,00,1",,,,,,,,,,"SYN102AAXX  04061 76373 32950 00000 10046 21186 10260 21018 30/// 38253 40210 52015 55103 90545 22287 58063;",
"76373099999","2012-03-04T15:00:00","4","25.35","-105.75","1967.0","TEPEHUANES DGO., MX","FM-12","99999","V020","999,9,C,0000,1","22000,1,9,N","020000,1,N,1","+0046,1","-0164,1","10213,1",,,,,,"00,1,+99999,9,99,9",,"00,99,1,00,1,00,1,99999,9,00,1,00,1",,"01,9",,,,"99999,9,08256,1","2,1,017,1,+039,1",,,"SYN082AAXX  04151 76373 32970 00000 10046 21164 38256 40213 52017 91450 333 30/// 58039;",
"76373099999","2012-03-04T18:00:00","4","25.35","-105.75","1967.0","TEPEHUANES DGO., MX","FM-12","99999","V020","999,9,C,0000,1","22000,1,9,N","020000,1,N,1","+0171,1","-0185,1","10198,1",,,,,,"00,1,+99999,9,99,9",,"00,99,1,00,1,00,1,99999,9,00,1,00,1",,"01,9",,"120,M,+0180,1","240,N,-0045,1","99999,9,08244,1","7,1,012,1,+000,1",,,"SYN094AAXX  04181 76373 32970 00000 10171 21185 38244 40198 57012 91750 333 10180 21045 30/// 58000;",
"76373099999","2012-03-05T00:00:00","4","25.35","-105.75","1967.0","TEPEHUANES DGO., MX","FM-12","99999","V020","140,1,N,0010,1","22000,1,9,N","020000,1,N,1","+0239,1","-0210,1","10139,1","24,0000,9,1",,,,,"00,1,+99999,9,99,9",,"00,99,1,00,1,00,1,99999,9,00,1,00,1",,"01,9",,"120,M,+0268,1","180,N,+0145,1","99999,9,08196,1","7,1,029,1,-010,1",,,"SYN106AAXX  05001 76373 32970 01401 10239 21210 38196 40139 57029 92350 333 10268 20145 30/// 50571 59010 70000;","Q01  00002PRCP24"
"76373099999","2012-03-05T15:00:00","4","25.35","-105.75","1967.0","TEPEHUANES DGO., MX","FM-12","99999","V020","999,9,C,0000,1","22000,1,9,N","020000,1,N,1","+0059,1","-0151,1","10206,1",,,,,,"00,1,+99999,9,99,9",,"00,99,1,00,1,00,1,99999,9,00,1,00,1",,"01,9",,,,"99999,9,08250,1","9,9,999,9,-006,1",,,"SYN082AAXX  05151 76373 32970 00000 10059 21151 38250 40206 5//// 91450 333 30/// 59006;",
"76373099999","2012-03-05T18:00:00","4","25.35","-105.75","1967.0","TEPEHUANES DGO., MX","FM-12","99999","V020","999,9,C,0000,1","22000,1,9,N","020000,1,N,1","+0208,1","-0150,1","10193,1",,,,,,"00,1,+99999,9,99,9",,"00,99,1,00,1,00,1,99999,9,00,1,00,1",,"01,9",,"120,M,+0213,1","240,N,-0020,1","99999,9,08240,1","7,1,010,1,-004,1",,,"SYN094AAXX  05181 76373 32970 00000 10208 21150 38240 40193 57010 91750 333 10213 21020 30/// 59004;",
"76373099999","2012-03-05T21:00:00","4","25.35","-105.75","1967.0","TEPEHUANES DGO., MX","FM-12","99999","V020","140,1,N,0010,1","22000,1,9,N","030000,1,N,1","+0275,1","-0137,1","10158,1",,,,,,"00,1,+99999,9,99,9",,"00,99,1,00,1,00,1,99999,9,00,1,00,1",,"01,9",,,,"99999,9,08212,1","7,1,028,1,+010,1",,,"SYN082AAXX  05211 76373 32980 01401 10275 21137 38212 40158 57028 92050 333 30/// 58010;",
"76373099999","2012-03-06T00:00:00","4","25.35","-105.75","1967.0","TEPEHUANES DGO., MX","FM-12","99999","V020","250,1,N,0010,1","22000,1,9,N","030000,1,N,1","+0269,1","-0164,1","10137,1","24,0000,9,1",,,,,"00,1,+99999,9,99,9",,"00,99,1,00,1,00,1,99999,9,00,1,00,1",,"01,9",,"120,M,+0297,1","180,N,-0020,1","99999,9,08194,1","2,1,018,1,-002,1",,,"SYN106AAXX  06001 76373 32980 02501 10269 21164 38194 40137 52018 92350 333 10297 21020 30/// 50551 59002 70000;","Q01  00002PRCP24"
"76373099999","2012-03-06T03:00:00","4","25.35","-105.75","1967.0","TEPEHUANES DGO., MX","FM-12","99999","V020","999,9,C,0000,1","22000,1,9,N","001000,1,N,1","+0145,1","-0087,1","10175,1",,,,,,"00,1,+99999,9,99,9",,"00,99,1,00,1,00,1,99999,9,00,1,00,1",,"01,9",,,,"99999,9,08225,1","2,1,031,1,+031,1",,,"SYN082AAXX  06031 76373 32910 00000 10145 21087 38225 40175 52031 90250 333 30/// 58031;",
"76373099999","2012-03-06T06:00:00","4","25.35","-105.75","1967.0","TEPEHUANES DGO., MX","FM-12","99999","V020","999,9,C,0000,1","22000,1,9,N","001000,1,N,1","+0106,1","-0111,1","10201,1",,,,,,"00,1,+99999,9,99,9",,"00,99,1,00,1,00,1,99999,9,00,1,00,1","0618,9","01,9",,"240,M,+0297,1","240,N,-0020,1","99999,9,08246,1","2,1,019,1,+999,9",,,"SYN106AAXX  06061 76373 32910 00000 10106 21111 38246 40201 52019 90550 333 10297 21020 30/// 55103 21981 58052;",
"76373099999","2012-03-06T12:00:00","4","25.35","-105.75","1967.0","TEPEHUANES DGO., MX","FM-12","99999","V020","999,9,C,0000,1","22000,1,9,N","001000,1,N,1","+0023,1","-0058,1","10175,1","24,0000,9,1",,,,,"00,1,+99999,9,99,9",,"00,99,1,00,1,00,1,99999,9,00,1,00,1",,"09,9","999,-0021,9","120,N,-0009,1","240,M,+0297,1","99999,9,08225,1","9,9,999,9,-019,1",,,"SYN100AAXX  06121 76373 32910 00000 10023 21058 38225 40175 5//// 91155 333 10297 21009 31021 59019 70000;","Q01  00002PRCP24"
"76373099999","2012-03-06T15:00:00","4","25.35","-105.75","1967.0","TEPEHUANES DGO., MX","FM-12","99999","V020","999,9,C,0000,1","22000,1,9,N","020000,1,N,1","+0084,1","-0052,1","10182,1",,,,,,"03,1,+05100,1,00,1",,"03,99,1,00,1,00,1,99999,9,00,1,03,1",,"01,9",,,,"99999,9,08230,1","2,1,005,1,-020,1",,,"SYN100AAXX  06151 76373 32970 30000 10084 21052 38230 40182 52005 80003 91455 333 30/// 56009 59020 83067;",
"76373099999","2012-03-06T18:00:00","4","25.35","-105.75","1967.0","TEPEHUANES DGO., MX","FM-12","99999","V020","999,9,C,0000,1","22000,1,9,N","030000,1,N,1","+0237,1","-0128,1","10155,1",,,,,,"02,1,+05100,1,00,1",,"02,99,1,00,1,00,1,99999,9,00,1,02,1",,"01,9",,"120,M,+0240,1","240,N,-0009,1","99999,9,08209,1","7,1,021,1,-031,1",,,"SYN112AAXX  06181 76373 32980 20000 10237 21128 38209 40155 57021 80002 91750 333 10240 21009 30/// 56009 59031 82067;",
"76373099999","2012-03-06T21:00:00","4","25.35","-105.75","1967.0","TEPEHUANES DGO., MX","FM-12","99999","V020","280,1,N,0010,1","22000,1,9,N","020000,1,N,1","+0287,2","-0133,1","10115,1",,,,,,"01,1,+05100,1,00,1",,"01,99,1,00,1,00,1,99999,9,00,1,05,1",,"01,9",,,,"99999,9,08177,1","7,1,032,1,-025,1",,,"SYN100AAXX  06211 76373 32970 12801 10287 21133 38177 40115 57032 80005 92050 333 30/// 56009 59025 81067;",
"76373099999","2012-03-07T03:00:00","4","25.35","-105.75","1967.0","TEPEHUANES DGO., MX","FM-12","99999","V020","999,9,C,0000,1","22000,1,9,N","000600,1,N,1","+0169,1","-0098,1","10137,1",,,,,,"01,1,+05100,1,00,1",,"01,99,1,00,1,00,1,99999,9,00,1,04,1",,"01,9",,,,"99999,9,08194,1","2,1,012,1,-031,1",,,"SYN100AAXX  07031 76373 32906 10000 10169 21098 38194 40137 52012 80004 90250 333 30/// 56009 59031 81067;",
"76373099999","2012-03-07T06:00:00","4","25.35","-105.75","1967.0","TEPEHUANES DGO., MX","FM-12","99999","V020","999,9,C,0000,1","22000,1,9,N","000600,1,N,1","+0102,1","-0086,1","10141,1",,,,,,"00,1,+99999,9,99,9",,"00,99,1,00,1,00,1,99999,9,00,1,00,1","0606,9","01,9",,"240,M,+0304,1","240,N,-0009,1","99999,9,08197,1","0,1,003,1,+999,9",,,"SYN106AAXX  07061 76373 32906 00000 10102 21086 38197 40141 50003 90550 333 10304 21009 30/// 55101 22319 59049;",
"76373099999","2012-03-07T12:00:00","4","25.35","-105.75","1967.0","TEPEHUANES DGO., MX","FM-12","99999","V020","999,9,C,0000,1","22000,1,9,N","000600,1,N,1","+0026,1","-0084,1","10135,1","24,0000,9,1",,,,,"00,1,+99999,9,99,9",,"00,99,1,00,1,00,1,99999,9,00,1,00,1",,"09,9","999,-0010,9","120,N,-0020,1","240,M,+0304,1","99999,9,08193,1","9,9,999,9,-032,1",,,"SYN100AAXX  07121 76373 32906 00000 10026 21084 38193 40135 5//// 91150 333 10304 21020 31010 59032 70000;","Q01  00002PRCP24"
"76373099999","2012-03-07T15:00:00","4","25.35","-105.75","1967.0","TEPEHUANES DGO., MX","FM-12","99999","V020","999,9,C,0000,1","22000,1,9,N","015000,1,N,1","+0079,1","-0098,1","10153,1",,,,,,"00,1,+99999,9,99,9",,"00,99,1,00,1,00,1,99999,9,00,1,00,1",,"01,9",,,,"99999,9,08207,1","2,1,014,1,-027,1",,,"SYN082AAXX  07151 76373 32965 00000 10079 21098 38207 40153 52014 91450 333 30/// 59027;",
"76373099999","2012-03-07T18:00:00","4","25.35","-105.75","1967.0","TEPEHUANES DGO., MX","FM-12","99999","V020","260,1,N,0010,1","22000,1,9,N","020000,1,N,1","+9999,9","-0070,1","10147,1",,,,,,"00,1,+99999,9,99,9",,"00,99,1,00,1,00,1,99999,9,00,1,00,1",,"01,9",,"120,M,+0260,1","240,N,+0020,1","99999,9,08202,1","7,1,005,1,-007,1",,,"SYN094AAXX  07181 76373 32970 02601 10256 21070 38202 40147 57005 91750 333 10260 20020 30/// 59007;","Q01+002563ATOT  "
"76373099999","2012-03-07T21:00:00","4","25.35","-105.75","1967.0","TEPEHUANES DGO., MX","FM-12","99999","V020","280,1,N,0020,1","22000,1,9,N","020000,1,N,1","+0274,2","-0078,1","10118,1",,,,,,"00,1,+99999,9,99,9",,"00,99,1,00,1,00,1,99999,9,00,1,00,1",,"01,9",,,,"99999,9,08179,1","7,1,023,1,+002,1",,,"SYN082AAXX  07211 76373 32970 02802 10274 21078 38179 40118 57023 92050 333 30/// 58002;",
"76373099999","2012-03-08T00:00:00","4","25.35","-105.75","1967.0","TEPEHUANES DGO., MX","FM-12","99999","V020","220,1,N,0010,1","22000,1,9,N","020000,1,N,1","+0232,1","-0087,1","10121,1","24,0000,9,1",,,,,"00,1,+99999,9,99,9",,"00,99,1,00,1,00,1,99999,9,00,1,00,1",,"01,9",,"120,M,+0281,1","180,N,+0020,1","99999,9,08181,1","3,1,002,1,-001,1",,,"SYN106AAXX  08001 76373 32970 02201 10232 21087 38181 40121 53002 92350 333 10281 20020 30/// 50601 59001 70000;","Q01  00002PRCP24"
"76373099999","2012-03-08T03:00:00","4","25.35","-105.75","1967.0","TEPEHUANES DGO., MX","FM-12","99999","V020","999,9,C,0000,1","22000,1,9,N","000600,1,N,1","+0165,1","-0061,1","10143,1",,,,,,"00,1,+99999,9,99,9",,"00,99,1,00,1,00,1,99999,9,00,1,00,1",,"01,9",,,,"99999,9,08199,1","2,1,018,1,+005,1",,,"SYN082AAXX  08031 76373 32906 00000 10165 21061 38199 40143 52018 90245 333 30/// 58005;",
"76373099999","2012-03-08T06:00:00","4","25.35","-105.75","1967.0","TEPEHUANES DGO., MX","FM-12","99999","V020","999,9,C,0000,1","22000,1,9,N","000600,1,N,1","+0107,1","-0060,1","10151,1",,,,,,"00,1,+99999,9,99,9",,"00,99,1,00,1,00,1,99999,9,00,1,00,1","0630,9","01,9",,"240,M,+0281,1","240,N,+0020,1","99999,9,08205,1","2,1,006,1,+999,9",,,"SYN106AAXX  08061 76373 32906 00000 10107 21060 38205 40151 52006 90550 333 10281 20020 30/// 55105 22134 58008;",
"76373099999","2012-03-08T12:00:00","4","25.35","-105.75","1967.0","TEPEHUANES DGO., MX","FM-12","99999","V020","999,9,C,0000,1","22000,1,9,N","000600,1,N,1","+0020,1","-0069,1","10148,1","24,0000,9,1",,,,,"00,1,+99999,9,99,9",,"00,99,1,00,1,00,1,99999,9,00,1,00,1",,"09,9","999,-0009,9","120,N,+0007,1","240,M,+0281,1","99999,9,08203,1","9,9,999,9,+010,1",,,"SYN100AAXX  08121 76373 32906 00000 10020 21069 38203 40148 5//// 91150 333 10281 20007 31009 58010 70000;","Q01  00002PRCP24"
"76373099999","2012-03-08T15:00:00","4","25.35","-105.75","1967.0","TEPEHUANES DGO., MX","FM-12","99999","V020","999,9,C,0000,1","22000,1,9,N","015000,1,N,1","+0090,1","-0046,1","10155,1",,,,,,"00,1,+99999,9,99,9",,"00,99,1,00,1,00,1,99999,9,00,1,00,1",,"01,9",,,,"99999,9,08209,1","0,1,006,1,+002,1",,,"SYN082AAXX  08151 76373 32965 00000 10090 21046 38209 40155 50006 91450 333 30/// 58002;",
"76373099999","2012-03-08T21:00:00","4","25.35","-105.75","1967.0","TEPEHUANES DGO., MX","FM-12","99999","V020","320,1,N,0030,1","22000,1,9,N","030000,1,N,1","+0270,2","-0092,1","10109,1",,,,,,"00,1,+99999,9,99,9",,"00,99,1,00,1,00,1,99999,9,00,1,00,1",,"01,9",,,,"99999,9,08172,1","7,1,025,1,-007,1",,,"SYN082AAXX  08211 76373 32980 03203 10270 21092 38172 40109 57025 92055 333 30/// 59007;",
"76373099999","2012-03-09T00:00:00","4","25.35","-105.75","1967.0","TEPEHUANES DGO., MX","FM-12","99999","V020","250,1,N,0020,1","22000,1,9,N","030000,1,N,1","+0248,1","-0073,1","10118,1","24,0000,9,1",,,,,"00,1,+99999,9,99,9",,"00,99,1,00,1,00,1,99999,9,00,1,00,1",,"01,9",,"120,M,+0280,1","180,N,+0007,1","99999,9,08179,1","2,1,009,1,-002,1",,,"SYN106AAXX  09001 76373 32980 02502 10248 21073 38179 40118 52009 92355 333 10280 20007 30/// 50861 59002 70000;","Q01  00002PRCP24"
"76373099999","2012-03-09T03:00:00","4","25.35","-105.75","1967.0","TEPEHUANES DGO., MX","FM-12","99999","V020","250,1,N,0010,1","22000,1,9,N","001000,1,N,1","+0178,1","-0033,1","10142,1",,,,,,"00,1,+99999,9,99,9",,"00,99,1,00,1,00,1,99999,9,00,1,00,1",,"01,9",,,,"99999,9,08199,1","2,1,020,1,+000,1",,,"SYN082AAXX  09031 76373 32910 02501 10178 21033 38199 40142 52020 90250 333 30/// 58000;",
"76373099999","2012-03-09T15:00:00","4","25.35","-105.75","1967.0","TEPEHUANES DGO., MX","FM-12","99999","V020","999,9,C,0000,1","22000,1,9,N","020000,1,N,1","+0078,1","-0051,1","10185,1",,,,,,"00,1,+99999,9,99,9",,"00,99,1,00,1,00,1,99999,9,00,1,00,1",,"01,9",,,,"99999,9,08233,1","2,1,019,1,+024,1",,,"SYN082AAXX  09151 76373 32970 00000 10078 21051 38233 40185 52019 91450 333 30/// 58024;",
"76373099999","2012-03-09T18:00:00","4","25.35","-105.75","1967.0","TEPEHUANES DGO., MX","FM-12","99999","V020","110,1,N,0010,1","22000,1,9,N","030000,1,N,1","+0164,1","-0049,1","10171,1",,,,,,"02,1,+00750,1,08,1",,"02,99,1,02,1,02,1,00800,1,00,1,00,1",,"01,9",,"120,M,+0180,1","240,N,-0008,1","99999,9,08222,1","7,1,011,1,+025,1",,,"SYN112AAXX  09181 76373 32580 21101 10164 21049 38222 40171 57011 82200 91755 333 10180 21008 30/// 56900 58025 82825;",
"76373099999","2012-03-09T21:00:00","4","25.35","-105.75","1967.0","TEPEHUANES DGO., MX","FM-12","99999","V020","140,1,N,0020,1","22000,1,9,N","005000,1,N,1","+0202,1","-0051,1","10132,1",,,,,,"01,1,+00600,1,06,1",,"03,99,1,03,1,03,1,00800,1,00,1,00,1",,"01,9",,,,"99999,9,08191,1","7,1,031,1,+019,1",,,"SYN106AAXX  09211 76373 32550 31402 10202 21051 38191 40132 57031 83300 92050 333 30/// 56900 58019 81620 82825;",
"76373099999","2012-03-10T00:00:00","4","25.35","-105.75","1967.0","TEPEHUANES DGO., MX","FM-12","99999","V020","140,1,N,0020,1","22000,1,9,N","005000,1,N,1","+0212,1","-0056,1","10119,1","24,0000,9,1",,,,,"02,1,+00600,1,06,1",,"04,99,1,04,1,04,1,00800,1,00,1,00,1",,"01,9",,"120,M,+0230,1","180,N,-0008,1","99999,9,08179,1","7,1,012,1,+000,1",,,"SYN130AAXX  10001 76373 32550 41402 10212 21056 38179 40119 57012 84400 92355 333 10230 21008 30/// 50561 56900 58000 70000 82620 82825;",
"76373099999","2012-03-10T03:00:00","4","25.35","-105.75","1967.0","TEPEHUANES DGO., MX","FM-12","99999","V020","200,1,N,0010,1","22000,1,9,N","001000,1,N,1","+0166,1","-0056,1","10133,1",,,,,,"02,1,+00600,1,06,1",,"04,99,1,04,1,04,1,00800,1,00,1,00,1",,"01,9",,,,"99999,9,08191,1","2,1,011,1,-008,1",,,"SYN106AAXX  10031 76373 32510 42001 10166 21056 38191 40133 52011 84400 90250 333 30/// 56900 59008 82620 82825;",
"76373099999","2012-03-10T15:00:00","4","25.35","-105.75","1967.0","TEPEHUANES DGO., MX","FM-12","99999","V020","320,1,N,0010,1","22000,1,9,N","010000,1,N,1","+0084,1","-0024,1","10137,1",,,,,,"01,1,+00750,1,08,1",,"01,99,1,01,1,01,1,00800,1,00,1,00,1",,"01,9",,,,"99999,9,99999,9","2,1,009,1,-039,1",,,"SYN094AAXX  10151 76373 32560 13201 10084 21024 36194 40137 52009 81100 91450 333 30/// 59039 81825;","Q01 061943APOSP "
"76373099999","2012-03-10T18:00:00","4","25.35","-105.75","1967.0","TEPEHUANES DGO., MX","FM-12","99999","V020","999,9,C,0000,1","22000,1,9,N","030000,1,N,1","+0240,1","-0070,1","10128,1",,,,,,"00,1,+99999,9,99,9",,"00,99,1,00,1,00,1,99999,9,00,1,00,1",,"01,9",,"120,M,+0250,1","240,N,+0022,1",,"7,1,004,1,-030,1",,,"SYN094AAXX  10181 76373 32980 00000 10240 21070 38187 40128 57004 91750 333 10250 20022 30/// 59030;","Q01+081873APOSP "
"76373099999","2012-03-10T21:00:00","4","25.35","-105.75","1967.0","TEPEHUANES DGO., MX","FM-12","99999","V020","250,1,N,0030,1","22000,1,9,N","030000,1,N,1","+0243,1","-0088,1","10105,1",,,,,,"00,1,+99999,9,99,9",,"00,99,1,00,1,00,1,99999,9,00,1,00,1",,"01,9",,,,"99999,9,08168,1","7,1,024,1,-034,1",,,"SYN082AAXX  10211 76373 32980 02503 10243 21088 38168 40105 57024 92050 333 30/// 59034;",
"76373099999","2012-03-11T00:00:00","4","25.35","-105.75","1967.0","TEPEHUANES DGO., MX","FM-12","99999","V020","290,1,N,0020,1","22000,1,9,N","020000,1,N,1","+0219,1","-0082,1","10106,1","24,0000,9,1",,,,,"00,1,+99999,9,99,9",,"00,99,1,00,1,00,1,99999,9,00,1,00,1",,"01,9",,"120,M,+0261,1","180,N,+0022,1","99999,9,08169,1","2,1,006,1,-010,1",,,"SYN106AAXX  11001 76373 32970 02902 10219 21082 38169 40106 52006 92350 333 10261 20022 30/// 50801 59010 70000;","Q01  00002PRCP24"
"76373099999","2012-03-11T03:00:00","4","25.35","-105.75","1967.0","TEPEHUANES DGO., MX","FM-12","99999","V020","999,9,C,0000,1","22000,1,9,N","005000,1,N,1","+0153,1","-0035,1","10124,1",,,,,,"00,1,+99999,9,99,9",,"00,99,1,00,1,00,1,99999,9,00,1,00,1",,"01,9",,,,"99999,9,08184,1","2,1,015,1,-007,1",,,"SYN082AAXX  11031 76373 32950 00000 10153 21035 38184 40124 52015 90250 333 30/// 59007;",
"76373099999","2012-03-11T06:00:00","4","25.35","-105.75","1967.0","TEPEHUANES DGO., MX","FM-12","99999","V020","999,9,C,0000,1","22000,1,9,N","005000,1,N,1","+0101,1","-0043,1","10140,1",,,,,,"00,1,+99999,9,99,9",,"00,99,1,00,1,00,1,99999,9,00,1,00,1","0642,9","01,9",,"240,M,+0261,1","240,N,+0022,1","99999,9,08197,1","2,1,013,1,+999,9",,,"SYN106AAXX  11061 76373 32950 00000 10101 21043 38197 40140 52013 90550 333 10261 20022 30/// 55107 22440 59005;",
"76373099999","2012-03-11T15:00:00","4","25.35","-105.75","1967.0","TEPEHUANES DGO., MX","FM-12","99999","V020","999,9,C,0000,1","22000,1,9,N","020000,1,N,1","+0073,1","-0055,1","10167,1",,,,,,"00,1,+99999,9,99,9",,"00,99,1,00,1,00,1,99999,9,00,1,00,1",,"01,9",,,,"99999,9,08218,1","7,1,008,1,+033,1",,,"SYN082AAXX  11151 76373 32970 00000 10073 21055 38218 40167 57008 91450 333 30/// 58033;",
"76373099999","2012-03-11T18:00:00","4","25.35","-105.75","1967.0","TEPEHUANES DGO., MX","FM-12","99999","V020","999,9,C,0000,1","22000,1,9,N","020000,1,N,1","+0205,1","-0071,1","10154,1",,,,,,"00,1,+99999,9,99,9",,"00,99,1,00,1,00,1,99999,9,00,1,00,1",,"01,9",,"120,M,+0210,1","240,N,-0010,1","99999,9,08208,1","7,1,010,1,+021,1",,,"SYN094AAXX  11181 76373 32970 00000 10205 21071 38208 40154 57010 91750 333 10210 21010 30/// 58021;",
"76373099999","2012-03-11T21:00:00","4","25.35","-105.75","1967.0","TEPEHUANES DGO., MX","FM-12","99999","V020","999,9,C,0000,1","22000,1,9,N","020000,1,N,1","+0274,1","-0152,1","10121,1",,,,,,"00,1,+99999,9,99,9",,"00,99,1,00,1,00,1,99999,9,00,1,00,1",,"01,9",,,,"99999,9,08181,1","7,1,027,1,+018,1",,,"SYN082AAXX  11211 76373 32970 00000 10274 21152 38181 40121 57027 92050 333 30/// 58018;",
"76373099999","2012-03-12T06:00:00","4","25.35","-105.75","1967.0","TEPEHUANES DGO., MX","FM-12","99999","V020","999,9,C,0000,1","22000,1,9,N","005000,1,N,1","+0087,1","-0103,1","10158,1",,,,,,"00,1,+99999,9,99,9",,"00,99,1,00,1,00,1,99999,9,00,1,00,1","0648,9","01,9",,"240,M,+0290,1","240,N,-0010,1","99999,9,08211,1",,,,"SYN106AAXX  12061 76373 32950 00000 10087 21103 38211 40158 5//// 90550 333 10290 21010 30/// 55108 22376 58014;",
"76373099999","2012-03-12T12:00:00","4","25.35","-105.75","1967.0","TEPEHUANES DGO., MX","FM-12","99999","V020","999,9,C,0000,1","22000,1,9,N","005000,1,N,1","+0018,1","-0060,1","10170,1",,,,,,"00,1,+99999,9,99,9",,"00,99,1,00,1,00,1,99999,9,00,1,00,1","0648,9","01,9","999,+0000,9","120,N,+0010,1","240,M,+0290,1","99999,9,08221,1",,,,"SYN112AAXX  12121 76373 32950 00000 10018 21060 38221 40170 5//// 91150 333 10290 20010 30000 55108 22376 58/// 70000;",
"76373099999","2012-03-12T15:00:00","4","25.35","-105.75","1967.0","TEPEHUANES DGO., MX","FM-12","99999","V020","999,9,C,0000,1","22000,1,9,N","020000,1,N,1","+0072,1","-0056,1","10182,1",,,,,,"00,1,+99999,9,99,9",,"00,99,1,00,1,00,1,99999,9,00,1,00,1",,"01,9",,,,"99999,9,08230,1","2,1,009,1,+012,1",,,"SYN082AAXX  12151 76373 32970 00000 10072 21056 38230 40182 52009 91450 333 30/// 58012;",
"76373099999","2012-03-12T18:00:00","4","25.35","-105.75","1967.0","TEPEHUANES DGO., MX","FM-12","99999","V020","999,9,C,0000,1","22000,1,9,N","005000,1,N,1","+0210,1","-0113,1","10166,1",,,,,,"00,1,+99999,9,99,9",,"00,99,1,00,1,00,1,99999,9,00,1,00,1",,"01,9",,"120,M,+0215,1","240,N,+0010,1","99999,9,08218,1","7,1,012,1,+010,1",,,"SYN094AAXX  12181 76373 32950 00000 10210 21113 38218 40166 57012 91750 333 10215 20010 30/// 58010;",
"76373099999","2012-03-12T21:00:00","4","25.35","-105.75","1967.0","TEPEHUANES DGO., MX","FM-12","99999","V020","230,1,N,0010,1","22000,1,9,N","030000,1,N,1","+0275,2","-0156,1","10145,1",,,,,,"00,1,+99999,9,99,9",,"00,99,1,00,1,00,1,99999,9,00,1,00,1",,"01,9",,,,"99999,9,08200,1","7,1,018,1,+019,1",,,"SYN082AAXX  12211 76373 32980 02301 10275 21156 38200 40145 57018 92050 333 30/// 58019;",
"76373099999","2012-03-13T00:00:00","4","25.35","-105.75","1967.0","TEPEHUANES DGO., MX","FM-12","99999","V020","230,1,N,0010,1","22000,1,9,N","030000,1,N,1","+0244,1","-0163,1","10150,1","24,0000,9,1",,,,,"00,1,+99999,9,99,9",,"00,99,1,00,1,00,1,99999,9,00,1,00,1",,"01,9",,"120,M,+0290,1","180,N,+0010,1","99999,9,08205,1","2,1,005,1,+029,1",,,"SYN106AAXX  13001 76373 32980 02301 10244 21163 38205 40150 52005 92350 333 10290 20010 30/// 50101 58029 70000;","Q01  00002PRCP24"
"76373099999","2012-03-13T03:00:00","4","25.35","-105.75","1967.0","TEPEHUANES DGO., MX","FM-12","99999","V020","999,9,C,0000,1","22000,1,9,N","001000,1,N,1","+0155,1","-0135,1","10150,1",,,,,,"00,1,+99999,9,99,9",,"00,99,1,00,1,00,1,99999,9,00,1,00,1",,"01,9",,,,"99999,9,08204,1","7,1,001,1,+008,1",,,"SYN082AAXX  13031 76373 32910 00000 10155 21135 38204 40150 57001 90255 333 30/// 58008;",
"76373099999","2012-03-13T06:00:00","4","25.35","-105.75","1967.0","TEPEHUANES DGO., MX","FM-12","99999","V020","999,9,C,0000,1","22000,1,9,N","001000,1,N,1","+0108,1","-0122,1","10185,1",,,,,,"00,1,+99999,9,99,9",,"00,99,1,00,1,00,1,99999,9,00,1,00,1","0660,9","01,9",,"240,M,+0290,1","240,N,+0010,1","99999,9,08233,1","2,1,029,1,+999,9",,,"SYN106AAXX  13061 76373 32910 00000 10108 21122 38233 40185 52029 90550 333 10290 20010 30/// 55110 22110 59021;",
"76373099999","2012-03-13T12:00:00","4","25.35","-105.75","1967.0","TEPEHUANES DGO., MX","FM-12","99999","V020","999,9,C,0000,1","22000,1,9,N","001000,1,N,1","+0031,1","-0121,1","10170,1","24,0000,9,1",,,,,"00,1,+99999,9,99,9",,"00,99,1,00,1,00,1,99999,9,00,1,00,1",,"01,9","999,+0010,9","120,N,+0015,1","240,M,+0290,1","99999,9,08221,1","9,9,999,9,+001,1",,,"SYN100AAXX  13121 76373 32910 00000 10031 21121 38221 40170 5//// 91150 333 10290 20015 30010 58001 70000;","Q01  00002PRCP24"
"76373099999","2012-03-13T15:00:00","4","25.35","-105.75","1967.0","TEPEHUANES DGO., MX","FM-12","99999","V020","999,9,C,0000,1","22000,1,9,N","020000,1,N,1","+0091,1","-0102,1","10186,1",,,,,,"00,1,+99999,9,99,9",,"00,99,1,00,1,00,1,99999,9,00,1,00,1",,"01,9",,,,"99999,9,08234,1","2,1,013,1,+004,1",,,"SYN082AAXX  13151 76373 32970 00000 10091 21102 38234 40186 52013 91750 333 30/// 58004;",
"76373099999","2012-03-13T18:00:00","4","25.35","-105.75","1967.0","TEPEHUANES DGO., MX","FM-12","99999","V020","999,9,C,0000,1","22000,1,9,N","030000,1,N,1","+0100,1","-0096,1","10176,1",,,,,,"00,1,+99999,9,99,9",,"00,99,1,00,1,00,1,99999,9,00,1,00,1",,"01,9","999,+0010,9","120,M,+0240,1","240,N,+0015,1","99999,9,08226,1","7,1,008,1,+008,1",,,"SYN094AAXX  13181 76373 32980 00000 10100 21096 38226 40176 57008 91755 333 10240 20015 30010 58008;",
"76373099999","2012-03-13T21:00:00","4","25.35","-105.75","1967.0","TEPEHUANES DGO., MX","FM-12","99999","V020","250,1,N,0010,1","22000,1,9,N","020000,1,N,1","+9999,9","-0150,1","10129,1",,,,,,"01,1,+00810,1,08,1",,"04,99,1,01,1,02,1,01750,1,00,1,04,1",,"01,9",,,,"99999,9,08188,1","7,1,048,1,-012,1",,,"SYN106AAXX  13211 76373 32770 42501 10293 21150 38188 40129 57048 81204 92050 333 30/// 56909 59012 81827 83067;","Q01+002933ATOT  "
"76373099999","2012-03-14T00:00:00","4","25.35","-105.75","1967.0","TEPEHUANES DGO., MX","FM-12","99999","V020","300,1,N,0010,1","22000,1,9,N","020000,1,N,1","+0271,1","-0137,1","10127,1","24,0000,9,1",,,,,"01,1,+00840,1,08,1",,"07,99,1,01,1,02,1,01250,1,00,1,04,1",,"01,9",,"120,M,+0308,1","180,N,+0015,1","99999,9,08187,1","5,1,001,1,-018,1",,,"SYN130AAXX  14001 76373 32670 73001 10271 21137 38187 40127 55001 81204 92345 333 10308 20015 30/// 50761 56909 59018 70000 81828 86067;",
"76373099999","2012-03-14T03:00:00","4","25.35","-105.75","1967.0","TEPEHUANES DGO., MX","FM-12","99999","V020","999,9,C,0000,1","22000,1,9,N","000600,1,N,1","+0188,1","-0125,1","10146,1",,,,,,"01,1,+00810,1,08,1",,"04,99,1,01,1,02,1,01250,1,00,1,04,1",,"01,9",,,,"99999,9,08201,1","2,1,014,1,-004,1",,,"SYN106AAXX  14031 76373 32606 40000 10188 21125 38201 40146 52014 81204 90250 333 30/// 56909 59004 81827 83067;",
"76373099999","2012-03-14T06:00:00","4","25.35","-105.75","1967.0","TEPEHUANES DGO., MX","FM-12","99999","V020","999,9,C,0000,1","22000,1,9,N","000400,1,N,1","+0129,1","-0104,1","10167,1",,,,,,"00,1,+99999,9,99,9",,"00,99,1,00,1,00,1,99999,9,00,1,00,1","0558,9","01,9",,"240,M,+0308,1","240,N,-0015,1","99999,9,08218,1","2,1,017,1,+999,9",,,"SYN106AAXX  14061 76373 32904 00000 10129 21104 38218 40167 52017 90550 333 10308 21015 30/// 55093 22037 59015;",
"76373099999","2012-03-14T12:00:00","4","25.35","-105.75","1967.0","TEPEHUANES DGO., MX","FM-12","99999","V020","999,9,C,0000,1","22000,1,9,N","000600,1,N,1","+0037,1","-0103,1","10156,1","24,0000,9,1",,,,,"01,1,+05100,1,00,1",,"01,99,1,00,1,00,1,99999,9,00,1,02,1",,"01,9","999,+0017,9","120,N,+0026,1","240,M,+0308,1","99999,9,08210,1","9,9,999,9,-011,1",,,"SYN118AAXX  14121 76373 32906 10000 10037 21103 38210 40156 5//// 80002 91150 333 10308 20026 30017 56003 59011 70000 81067;",
"76373099999","2012-03-14T15:00:00","4","25.35","-105.75","1967.0","TEPEHUANES DGO., MX","FM-12","99999","V020","999,9,C,0000,1","22000,1,9,N","015000,1,N,1","+0091,1","-0090,1","10180,1",,,,,,"02,1,+05700,1,00,1",,"02,99,1,00,1,00,1,99999,9,00,1,04,1",,"01,9",,,,"99999,9,08229,1","2,1,019,1,-005,1",,,"SYN100AAXX  14151 76373 32965 20000 10091 21090 38229 40180 52019 80004 91450 333 30/// 56009 59005 82069;",
"76373099999","2012-03-14T18:00:00","4","25.35","-105.75","1967.0","TEPEHUANES DGO., MX","FM-12","99999","V020","999,9,C,0000,1","22000,1,9,N","020000,1,N,1","+9999,9","-0114,1","10169,1",,,,,,"01,1,+00840,1,08,1",,"03,99,1,01,1,02,1,01250,1,02,1,00,1",,"01,9",,"120,M,+0267,1","240,N,+0026,1","99999,9,08220,1","8,1,009,1,-006,1",,,"SYN118AAXX  14181 76373 32670 30000 10259 21114 38220 40169 58009 81220 91750 333 10267 20026 30/// 56309 59006 81828 82457;","Q01+002593ATOT  "
"76373099999","2012-03-14T21:00:00","4","25.35","-105.75","1967.0","TEPEHUANES DGO., MX","FM-12","99999","V020","300,1,N,0010,1","00750,1,9,N","020000,1,N,1","+0277,1","-0141,1","10137,1",,,,,,"08,1,+00750,1,06,1",,"08,99,1,08,1,05,1,01250,1,00,1,00,1",,"01,9",,,,"99999,9,08195,1","7,1,025,1,+007,1",,,"SYN100AAXX  14211 76373 32670 83001 10277 21141 38195 40137 57025 88500 92050 333 30/// 56900 58007 88625;",
"76373099999","2012-03-15T00:00:00","4","25.35","-105.75","1967.0","TEPEHUANES DGO., MX","FM-12","99999","V020","220,1,N,0010,1","00750,1,9,N","020000,1,N,1","+0250,1","-0146,1","10140,1","24,0000,9,1",,,,,,,"08,99,1,08,1,06,1,00800,1,00,1,00,1",,"01,9",,"120,M,+0300,1","180,N,+0026,1","99999,9,08197,1","3,1,002,1,+010,1",,,"SYN124AAXX  15001 76373 32570 82201 10250 21146 38197 40140 53002 88600 92350 333 10300 20026 30/// 50801 56900 58010 70000 88725;",
"76373099999","2012-03-15T03:00:00","4","25.35","-105.75","1967.0","TEPEHUANES DGO., MX","FM-12","99999","V020","999,9,C,0000,1","00750,1,9,N","000600,1,N,1","+0196,1","-0125,1","10161,1",,,,,,"07,1,+00750,1,07,1",,"07,99,1,07,1,06,1,00800,1,00,1,00,1",,"01,9",,,,"99999,9,08214,1","2,1,017,1,+013,1",,,"SYN100AAXX  15031 76373 32506 70000 10196 21125 38214 40161 52017 87600 90250 333 30/// 56900 58013 87725;",
"76373099999","2012-03-15T06:00:00","4","25.35","-105.75","1967.0","TEPEHUANES DGO., MX","FM-12","99999","V020","999,9,C,0000,1","22000,1,9,N","000400,1,N,1","+0132,1","-0102,1","10181,1",,,,,,"00,1,+99999,9,99,9",,"00,99,1,00,1,00,1,99999,9,00,1,00,1","0300,9","01,9",,"240,M,+0300,1","240,N,+0026,1","99999,9,08229,1","2,1,015,1,+999,9",,,"SYN106AAXX  15061 76373 32904 00000 10132 21102 38229 40181 52015 90550 333 10300 20026 30/// 55050 21565 58011;",
"76373099999","2012-03-15T12:00:00","4","25.35","-105.75","1967.0","TEPEHUANES DGO., MX","FM-12","99999","V020","999,9,C,0000,1","22000,1,9,N","000600,1,N,1","+0071,1","-0078,1","10172,1","24,0000,9,1",,,,,"03,1,+05700,1,00,1",,"03,99,1,00,1,00,1,99999,9,00,1,04,1",,"01,9",,"120,N,+0060,1","240,M,+0300,1","99999,9,08222,1","9,9,999,9,+012,1",,,"SYN118AAXX  15121 76373 32906 30000 10071 21078 38222 40172 5//// 80004 91150 333 10300 20060 30051 56009 58012 70000 83069;",
"76373099999","2012-03-15T15:00:00","4","25.35","-105.75","1967.0","TEPEHUANES DGO., MX","FM-12","99999","V020","999,9,C,0000,1","22000,1,9,N","015000,1,N,1","+0131,1","-0084,1","10187,1",,,,,,"04,1,+05700,1,00,1",,"04,99,1,00,1,00,1,99999,9,00,1,04,1",,"01,9",,,,"99999,9,08235,1","2,1,013,1,+006,1",,,"SYN100AAXX  15151 76373 32965 40000 10131 21084 38235 40187 52013 80004 91445 333 30/// 56009 58006 84069;",
"76373099999","2012-03-15T18:00:00","4","25.35","-105.75","1967.0","TEPEHUANES DGO., MX","FM-12","99999","V020","140,1,N,0010,1","22000,1,9,N","030000,1,N,1","+0260,1","-0113,1","10167,1",,,,,,"02,1,+00750,1,08,1",,"02,99,1,02,1,02,1,00800,1,00,1,00,1",,"01,9",,"120,M,+0270,1","240,N,+0060,1","99999,9,08219,1","7,1,016,1,-001,1",,,"SYN112AAXX  15181 76373 32580 21401 10260 21113 38219 40167 57016 82200 91755 333 10270 20060 30/// 56900 59001 82825;",
"76373099999","2012-03-15T21:00:00","4","25.35","-105.75","1967.0","TEPEHUANES DGO., MX","FM-12","99999","V020","140,1,N,0010,1","22000,1,9,N","030000,1,N,1","+0316,2","-0134,1","10125,1",,,,,,"02,1,+00750,1,08,1",,"03,99,1,02,1,02,1,00800,1,00,1,01,1",,"01,9",,,,"99999,9,08185,1","7,1,034,1,+010,1",,,"SYN106AAXX  15211 76373 32580 31401 10316 21134 38185 40125 57034 82201 92050 333 30/// 56909 58010 82825 81067;",
"76373099999","2012-03-16T00:00:00","4","25.35","-105.75","1967.0","TEPEHUANES DGO., MX","FM-12","99999","V020","340,1,N,0020,1","00750,1,9,N","030000,1,N,1","+0272,1","-0118,1","10117,1","24,0000,9,1",,,,,,,"06,99,1,06,1,06,1,00800,1,00,1,00,1",,"01,9",,"120,M,+0340,1","180,N,+0060,1","99999,9,08178,1","7,1,007,1,-019,1",,,"SYN124AAXX  16001 76373 32580 63402 10272 21118 38178 40117 57007 86600 92350 333 10340 20060 30/// 50751 56900 59019 70000 86625;",
"76373099999","2012-03-16T03:00:00","4","25.35","-105.75","1967.0","TEPEHUANES DGO., MX","FM-12","99999","V020","999,9,C,0000,1","00750,1,9,N","001000,1,N,1","+0218,1","-0100,1","10145,1",,,,,,"06,1,+00750,1,06,1",,"06,99,1,06,1,06,1,00800,1,00,1,00,1",,"01,9",,,,"99999,9,08201,1","2,1,023,1,-013,1",,,"SYN100AAXX  16031 76373 32510 60000 10218 21100 38201 40145 52023 86600 90255 333 30/// 56900 59013 86625;",
"76373099999","2012-03-16T06:00:00","4","25.35","-105.75","1967.0","TEPEHUANES DGO., MX","FM-12","99999","V020","999,9,C,0000,1","00750,1,9,N","000500,1,N,1","+0192,1","-0081,1","10157,1",,,,,,,,"05,99,1,05,1,05,1,00800,1,00,1,00,1","0510,9","01,9",,"240,M,+0340,1","240,N,+0060,1","99999,9,08210,1","2,1,009,1,-019,1",,,"SYN124AAXX  16061 76373 32505 50000 10192 21081 38210 40157 52009 85500 90550 333 10340 20060 30/// 55085 22013 56900 59019 85625;",
"76373099999","2012-03-16T12:00:00","4","25.35","-105.75","1967.0","TEPEHUANES DGO., MX","FM-12","99999","V020","999,9,C,0000,1","00750,1,9,N","000500,1,N,1","+0108,1","-0068,1","10149,1","24,0000,9,1",,,,,"05,1,+00750,1,06,1",,"05,99,1,05,1,05,1,00800,1,00,1,00,1",,"01,9",,"120,N,+0082,1","240,M,+0340,1","99999,9,08204,1","9,9,999,9,-018,1",,,"SYN118AAXX  16121 76373 32505 50000 10108 21068 38204 40149 5//// 85500 91150 333 10340 20082 30062 56900 59018 70000 85625;",
"76373099999","2012-03-16T15:00:00","4","25.35","-105.75","1967.0","TEPEHUANES DGO., MX","FM-12","99999","V020","999,9,C,0000,1","01110,1,9,N","030000,1,N,1","+0136,1","-0074,1","10168,1",,,,,,"02,1,+00750,1,08,1","03,1,+01110,1,05,1","08,99,1,05,1,02,1,00800,1,03,1,03,1",,"01,9",,,,"99999,9,08219,1","2,1,015,1,-016,1",,,"SYN112AAXX  16151 76373 32580 80000 10136 21074 38219 40168 52015 85233 91455 333 30/// 56999 59016 82825 83537 83260;",
"76373099999","2012-03-16T21:00:00","4","25.35","-105.75","1967.0","TEPEHUANES DGO., MX","FM-12","99999","V020","250,1,N,0020,1","09000,1,C,N","030000,1,N,1","+0296,1","-0144,1","10119,1",,,,,,"02,1,+00750,1,08,1","02,1,+01110,1,03,1","05,99,1,02,1,02,1,00800,1,02,1,01,1",,"01,9",,,,"99999,9,08180,1","7,1,023,1,-005,1",,,"SYN112AAXX  16211 76373 32580 52502 10296 21144 38180 40119 57023 82221 92055 333 30/// 56999 59005 82825 82337 81067;",
"76373099999","2012-03-17T00:00:00","4","25.35","-105.75","1967.0","TEPEHUANES DGO., MX","FM-12","99999","V020","250,1,N,0020,1","01200,1,9,N","030000,1,N,1","+0252,1","-0078,1","10120,1","24,0000,9,1",,,,,,,"08,99,1,08,1,08,1,00800,1,00,1,00,1",,"01,9",,"120,M,+0310,1","180,N,+0082,1","99999,9,08181,1","1,1,001,1,-003,1",,,"SYN124AAXX  17001 76373 32580 82502 10252 21078 38181 40120 51001 88800 92355 333 10310 20082 30/// 50891 56900 59003 70000 88625;",
"76373099999","2012-03-17T03:00:00","4","25.35","-105.75","1967.0","TEPEHUANES DGO., MX","FM-12","99999","V020","250,1,N,0010,1","00750,1,9,N","001000,1,N,1","+0210,1","-0054,1","10152,1",,,,,,"08,1,+00750,1,06,1",,"08,99,1,08,1,08,1,00800,1,00,1,00,1",,"01,9",,,,"99999,9,08206,1","2,1,025,1,+005,1",,,"SYN100AAXX  17031 76373 32510 82501 10210 21054 38206 40152 52025 88800 90250 333 30/// 56900 58005 88625;",
"76373099999","2012-03-17T06:00:00","4","25.35","-105.75","1967.0","TEPEHUANES DGO., MX","FM-12","99999","V020","999,9,C,0000,1","01200,1,9,N","000500,1,N,1","+0174,1","-0050,1","10153,1",,,,,,,,"08,99,1,08,1,08,1,00800,1,00,1,00,1","0390,9","01,9",,"240,M,+0310,1","240,N,+0082,1","99999,9,08207,1","1,1,001,1,-003,1",,,"SYN124AAXX  17061 76373 32505 80000 10174 21050 38207 40153 51001 88800 90555 333 10310 20082 30/// 55065 21731 56900 59003 88625;",
"76373099999","2012-03-17T15:00:00","4","25.35","-105.75","1967.0","TEPEHUANES DGO., MX","FM-12","99999","V020","999,9,C,0000,1","00750,1,9,N","030000,1,N,1","+0120,1","-0021,1","10162,1",,,,,,"08,1,+00750,1,06,1",,"99,99,9,07,1,07,1,00800,1,00,1,00,1",,"01,9",,,,"99999,9,08215,1","2,1,018,1,-004,1",,,"SYN100AAXX  17151 76373 32580 70000 10120 21021 38215 40162 52018 87700 91450 333 30/// 56900 59004 88625;","Q01+000072SCOTCV"
"76373099999","2012-03-17T18:00:00","4","25.35","-105.75","1967.0","TEPEHUANES DGO., MX","FM-12","99999","V020","999,9,C,0000,1","00750,1,9,N","020000,1,N,1","+0203,1","-0045,1","10162,1",,,,,,"07,1,+00750,1,06,1",,"07,99,1,07,1,07,1,00800,1,00,1,00,1",,"01,9",,"120,M,+0210,1","240,N,+0100,1","99999,9,08214,1","7,1,001,1,+011,1",,,"SYN112AAXX  17181 76373 32570 70000 10203 21045 38214 40162 57001 87700 91755 333 10210 20100 30/// 56900 58011 87625;",
"76373099999","2012-03-17T21:00:00","4","25.35","-105.75","1967.0","TEPEHUANES DGO., MX","FM-12","99999","V020","320,1,N,0010,1","00750,1,9,N","030000,1,N,1","+0220,1","-0037,1","10145,1",,,,,,"07,1,+00750,1,06,1",,"07,99,1,07,1,07,1,00800,1,00,1,00,1",,"01,9",,,,"99999,9,08201,1","2,1,013,1,+021,1",,,"SYN100AAXX  17211 76373 32580 73201 10220 21037 38201 40145 52013 87700 92050 333 30/// 56900 58021 87625;",
"76373099999","2012-03-18T06:00:00","4","25.35","-105.75","1967.0","TEPEHUANES DGO., MX","FM-12","99999","V020","999,9,C,0000,1","99999,9,9,N","005000,1,N,1","+0103,1","-0034,1","10151,1",,,,,,,,"08,99,1,08,1,04,1,99999,9,00,1,00,1","0018,9","01,9",,"240,M,+0248,1","240,N,+0100,1","99999,9,08206,1","9,9,999,9,-001,1",,,"SYN124AAXX  18061 76373 32950 80000 10103 21034 38206 40151 5//// 88400 90550 333 10248 20100 30/// 55003 20725 56900 59001 88627;",
"76373099999","2012-03-18T12:00:00","4","25.35","-105.75","1967.0","TEPEHUANES DGO., MX","FM-12","99999","V020","999,9,C,0000,1","22000,1,9,N","005000,1,N,1","+0056,1","-0034,1","10134,1",,,,,,"00,1,+99999,9,99,9",,"00,99,1,00,1,00,1,99999,9,00,1,00,1","0018,9","01,9","999,+0039,9","120,N,+0047,1","240,M,+0248,1","99999,9,08192,1","9,9,999,9,-005,1",,,"SYN112AAXX  18121 76373 32950 00000 10056 21034 38192 40134 5//// 91150 333 10248 20047 30039 55003 20725 59005 70000;",
"76373099999","2012-03-18T18:00:00","4","25.35","-105.75","1967.0","TEPEHUANES DGO., MX","FM-12","99999","V020","290,1,N,0030,1","22000,1,9,N","002000,1,N,1","+9999,9","-0015,1","10131,1",,,,,,"03,1,+00750,1,08,1",,"03,99,1,03,1,02,1,01750,1,00,1,00,1",,"01,9",,"120,M,+0240,1","240,N,+0047,1","99999,9,08189,1","9,9,999,9,-025,1",,,"SYN112AAXX  18181 76373 32720 32903 10233 21015 38189 40131 5//// 83200 91750 333 10240 20047 30/// 56900 59025 83825;","Q01+002333ATOT  "
"76373099999","2012-03-19T03:00:00","4","25.35","-105.75","1967.0","TEPEHUANES DGO., MX","FM-12","99999","V020","999,9,C,0000,1","22000,1,9,N","005000,1,N,1","+0135,1","+0009,1","10124,1",,,,,,"02,1,+00810,1,06,1",,"02,99,1,02,1,04,1,01750,1,00,1,00,1",,"01,9",,,,"99999,9,08184,1","2,1,002,1,-020,1",,,"SYN100AAXX  19031 76373 32750 20000 10135 20009 38184 40124 52002 82400 90250 333 30/// 56900 59020 82627;",
"76373099999","2012-03-19T18:00:00","4","25.35","-105.75","1967.0","TEPEHUANES DGO., MX","FM-12","99999","V020","220,1,N,0020,1","22000,1,9,N","020000,1,N,1","+0210,1","-0050,1","10097,1",,,,,,"01,1,+00810,1,08,1",,"01,99,1,01,1,02,1,01750,1,00,1,00,1",,"01,9",,"120,M,+0215,1","240,N,+0105,1","99999,9,08162,1","4,1,000,1,-026,1",,,"SYN112AAXX  19181 76373 32770 12202 10210 21050 38162 40097 54000 81200 91750 333 10215 20105 30/// 56900 59026 81827;",
"76373099999","2012-03-19T21:00:00","4","25.35","-105.75","1967.0","TEPEHUANES DGO., MX","FM-12","99999","V020","290,1,N,0020,1","22000,1,9,N","030000,1,N,1","+0228,1","-0105,1","99999,9",,,,,,"01,1,+00810,1,08,1",,"01,99,1,01,1,02,1,01750,1,00,1,00,1",,"01,9",,,,"99999,9,08216,1","2,1,054,1,+028,1",,,"SYN100AAXX  19211 76373 32780 12902 10228 21105 38216 40163 52054 81200 92050 333 30/// 56900 58028 81827;","Q01+101633APOSLP"
"76373099999","2012-03-20T00:00:00","4","25.35","-105.75","1967.0","TEPEHUANES DGO., MX","FM-12","99999","V020","250,1,N,0020,1","22000,1,9,N","030000,1,N,1","+0186,1","-0068,1","10145,1","24,0000,9,1",,,,,"00,1,+99999,9,99,9",,"00,99,1,00,1,00,1,99999,9,00,1,00,1",,"01,9",,"120,M,+0232,1","180,N,+0105,1","99999,9,08201,1","2,1,015,1,+019,1",,,"SYN106AAXX  20001 76373 32580 02502 10186 21068 38201 40145 52015 92350 333 10232 20105 30/// 50861 58019 70000;","Q01  00002PRCP24"
"76373099999","2012-03-20T03:00:00","4","25.35","-105.75","1967.0","TEPEHUANES DGO., MX","FM-12","99999","V020","250,1,N,0010,1","22000,1,9,N","001000,1,N,1","+0132,1","-0001,1","10140,1",,,,,,"00,1,+99999,9,99,9",,"00,99,1,00,1,00,1,99999,9,00,1,00,1",,"01,9",,,,"99999,9,08196,1","7,1,005,1,+012,1",,,"SYN082AAXX  20031 76373 32910 02501 10132 21001 38196 40140 57005 90255 333 30/// 58012;",
"76373099999","2012-03-20T06:00:00","4","25.35","-105.75","1967.0","TEPEHUANES DGO., MX","FM-12","99999","V020","999,9,C,0000,1","22000,1,9,N","001000,1,N,1","+0119,1","-0023,1","10140,1",,,,,,"00,1,+99999,9,99,9",,"00,99,1,00,1,00,1,99999,9,00,1,00,1","0618,9","01,9",,"240,M,+0232,1","240,N,+0105,1","99999,9,08197,1","1,1,001,1,+999,9",,,"SYN106AAXX  20061 76373 32910 00000 10119 21023 38197 40140 51001 90550 333 10232 20105 30/// 55103 22102 58026;",
"76373099999","2012-03-20T12:00:00","4","25.35","-105.75","1967.0","TEPEHUANES DGO., MX","FM-12","99999","V020","999,9,C,0000,1","22000,1,9,N","001000,1,N,1","+0090,1","-0043,1","10152,1","24,0000,9,1",,,,,"00,1,+99999,9,99,9",,"00,99,1,00,1,00,1,99999,9,00,1,00,1",,"01,9",,"120,N,+0071,1","240,M,+0232,1","99999,9,08206,1","9,9,999,9,+054,1",,,"SYN100AAXX  20121 76373 32910 00000 10090 21043 38206 40152 5//// 91158 333 10232 20071 30065 58054 70000;","Q01  00002PRCP24"
"76373099999","2012-03-20T15:00:00","4","25.35","-105.75","1967.0","TEPEHUANES DGO., MX","FM-12","99999","V020","999,9,C,0000,1","22000,1,9,N","020000,1,N,1","+0106,1","-0047,1","10171,1",,,,,,"00,1,+99999,9,99,9",,"00,99,1,00,1,00,1,99999,9,00,1,00,1",,"01,9",,,,"99999,9,08222,1","2,1,016,1,+060,1",,,"SYN082AAXX  20151 76373 32970 00000 10106 21047 38222 40171 52016 91450 333 30/// 58060;",
"76373099999","2012-03-20T18:00:00","4","25.35","-105.75","1967.0","TEPEHUANES DGO., MX","FM-12","99999","V020","250,1,N,0010,1","22000,1,9,N","030000,1,N,1","+0185,1","-0053,1","10145,1",,,,,,"00,1,+99999,9,99,9",,"00,99,1,00,1,00,1,99999,9,00,1,00,1",,"01,9",,"120,M,+0200,1","240,N,+0071,1","99999,9,08201,1","7,1,021,1,+041,1",,,"SYN094AAXX  20181 76373 32980 02501 10185 21053 38201 40145 57021 91750 333 10200 20071 30/// 58041;",
"76373099999","2012-03-20T21:00:00","4","25.35","-105.75","1967.0","TEPEHUANES DGO., MX","FM-12","99999","V020","250,1,N,0020,1","22000,1,9,N","030000,1,N,1","+0230,1","-0111,1","10122,1",,,,,,"00,1,+99999,9,99,9",,"00,99,1,00,1,00,1,99999,9,00,1,00,1",,"01,9",,,,"99999,9,08182,1","7,1,019,1,-035,1",,,"SYN082AAXX  20211 76373 32980 02502 10230 21111 38182 40122 57019 92050 333 30/// 59035;",
"76373099999","2012-03-21T00:00:00","4","25.35","-105.75","1967.0","TEPEHUANES DGO., MX","FM-12","99999","V020","250,1,N,0010,1","22000,1,9,N","020000,1,N,1","+0193,1","-0023,1","99999,9","24,0000,9,1",,,,,,,"01,99,1,01,1,01,1,01250,1,00,1,00,1",,"01,9",,"120,M,+0236,1","180,N,+0071,1",,"7,1,065,1,-084,1",,,"SYN124AAXX  21001 76373 32670 12501 10193 21023 38117 40042 57065 81100 92350 333 10236 20071 30/// 50851 56300 59084 70000 81829;","Q01+081173APOSP "
"76373099999","2012-03-21T03:00:00","4","25.35","-105.75","1967.0","TEPEHUANES DGO., MX","FM-12","99999","V020","999,9,C,0000,1","22000,1,9,N","000600,1,N,1","+0120,1","-0001,1","10081,1",,,,,,"00,1,+99999,9,99,9",,"00,99,1,00,1,00,1,99999,9,00,1,00,1",,"01,9",,,,"99999,9,08149,1","2,1,032,1,-047,1",,,"SYN082AAXX  21031 76373 32906 00000 10120 21001 38149 40081 52032 90250 333 30/// 59047;",
"76373099999","2012-03-21T06:00:00","4","25.35","-105.75","1967.0","TEPEHUANES DGO., MX","FM-12","99999","V020","999,9,C,0000,1","22000,1,9,N","000400,1,N,1","+0079,1","-0008,1","10108,1",,,,,,"00,1,+99999,9,99,9",,"00,99,1,00,1,00,1,99999,9,00,1,00,1","0636,9","01,9",,"240,M,+0236,1","240,N,+0071,1","99999,9,08171,1","2,1,022,1,+999,9",,,"SYN106AAXX  21061 76373 32904 00000 10079 21008 38171 40108 52022 90550 333 10236 20071 30/// 55106 22440 59026;",
"76373099999","2012-03-21T12:00:00","4","25.35","-105.75","1967.0","TEPEHUANES DGO., MX","FM-12","99999","V020","999,9,C,0000,1","22000,1,9,N","000600,1,N,1","+0006,1","-0074,1","10114,1","24,0000,9,1",,,,,"00,1,+99999,9,99,9",,"00,99,1,00,1,00,1,99999,9,00,1,00,1",,"09,9","999,-0006,9","120,N,+0000,1","240,M,+0236,1","99999,9,08176,1","9,9,999,9,-030,1",,,"SYN100AAXX  21121 76373 32906 00000 10006 21074 38176 40114 5//// 91150 333 10236 20000 31006 59030 70000;","Q01  00002PRCP24"
"76373099999","2012-03-21T15:00:00","4","25.35","-105.75","1967.0","TEPEHUANES DGO., MX","FM-12","99999","V020","999,9,C,0000,1","22000,1,9,N","015000,1,N,1","+0073,1","-0082,1","10135,1",,,,,,"00,1,+99999,9,99,9",,"00,99,1,00,1,00,1,99999,9,00,1,00,1",,"01,9",,,,"99999,9,08192,1","2,1,016,1,-030,1",,,"SYN082AAXX  21151 76373 32965 00000 10073 21082 38192 40135 52016 91450 333 30/// 59030;",
"76373099999","2012-03-21T18:00:00","4","25.35","-105.75","1967.0","TEPEHUANES DGO., MX","FM-12","99999","V020","999,9,C,0000,1","22000,1,9,N","020000,1,N,1","+0156,1","-0119,1","10116,1",,,,,,"00,1,+99999,9,99,9",,"00,99,1,00,1,00,1,99999,9,00,1,00,1",,"01,9",,"120,M,+0174,1","240,N,+0000,1","99999,9,08177,1","7,1,015,1,-024,1",,,"SYN094AAXX  21181 76373 32970 00000 10156 21119 38177 40116 57015 91750 333 10174 20000 30/// 59024;",
"76373099999","2012-03-21T21:00:00","4","25.35","-105.75","1967.0","TEPEHUANES DGO., MX","FM-12","99999","V020","130,1,N,0010,1","22000,1,9,N","020000,1,N,1","+0234,1","-0105,1","10069,1",,,,,,"00,1,+99999,9,99,9",,"00,99,1,00,1,00,1,99999,9,00,1,00,1",,"01,9",,,,"99999,9,08140,1","7,1,037,1,-042,1",,,"SYN082AAXX  21211 76373 32970 01301 10234 21105 38140 40069 57037 92050 333 30/// 59042;",
"76373099999","2012-03-22T00:00:00","4","25.35","-105.75","1967.0","TEPEHUANES DGO., MX","FM-12","99999","V020","130,1,N,0010,1","22000,1,9,N","020000,1,N,1","+0231,1","-0122,1","10061,1","24,0000,9,1",,,,,"00,1,+99999,9,99,9",,"00,99,1,00,1,00,1,99999,9,00,1,00,1",,"01,9",,"120,M,+0261,1","180,N,+0000,1","99999,9,08133,1","5,1,007,1,+016,1",,,"SYN106AAXX  22001 76373 32970 01301 10231 21122 38133 40061 55007 92350 333 10261 20000 30/// 50631 58016 70000;","Q01  00002PRCP24"
"76373099999","2012-03-22T03:00:00","4","25.35","-105.75","1967.0","TEPEHUANES DGO., MX","FM-12","99999","V020","999,9,C,0000,1","22000,1,9,N","000400,1,N,1","+0150,1","-0070,1","10096,1",,,,,,"00,1,+99999,9,99,9",,"00,99,1,00,1,00,1,99999,9,00,1,00,1",,"01,9",,,,"99999,9,08161,1","2,1,028,1,+012,1",,,"SYN082AAXX  22031 76373 32904 00000 10150 21070 38161 40096 52028 90250 333 30/// 58012;",
"76373099999","2012-03-22T06:00:00","4","25.35","-105.75","1967.0","TEPEHUANES DGO., MX","FM-12","99999","V020","999,9,C,0000,1","22000,1,9,N","000400,1,N,1","+0095,1","-0060,1","10117,1",,,,,,"00,1,+99999,9,99,9",,"00,99,1,00,1,00,1,99999,9,00,1,00,1","0666,9","01,9",,"240,M,+0261,1","240,N,+0000,1","99999,9,08178,1","2,1,017,1,+999,9",,,"SYN106AAXX  22061 76373 32904 00000 10095 21060 38178 40117 52017 90550 333 10261 20000 30/// 55111 22553 58007;",
"76373099999","2012-03-22T12:00:00","4","25.35","-105.75","1967.0","TEPEHUANES DGO., MX","FM-12","99999","V020","999,9,C,0000,1","22000,1,9,N","000400,1,N,1","+0018,1","-0064,1","10119,1","24,0000,9,1",,,,,"00,1,+99999,9,99,9",,"00,99,1,00,1,00,1,99999,9,00,1,00,1",,"01,9","999,+0003,9","120,N,+0011,1","240,M,+0261,1","99999,9,08180,1","9,9,999,9,+003,1",,,"SYN100AAXX  22121 76373 32904 00000 10018 21064 38180 40119 5//// 91150 333 10261 20011 30003 58003 70000;","Q01  00002PRCP24"
"76373099999","2012-03-22T15:00:00","4","25.35","-105.75","1967.0","TEPEHUANES DGO., MX","FM-12","99999","V020","999,9,C,0000,1","22000,1,9,N","015000,1,N,1","+0099,1","-0046,1","10137,1",,,,,,"00,1,+99999,9,99,9",,"00,99,1,00,1,00,1,99999,9,00,1,00,1",,"01,9",,,,"99999,9,08194,1","2,1,014,1,+002,1",,,"SYN082AAXX  22151 76373 32965 00000 10099 21046 38194 40137 52014 91450 333 30/// 58002;",
"76373099999","2012-03-22T18:00:00","4","25.35","-105.75","1967.0","TEPEHUANES DGO., MX","FM-12","99999","V020","140,1,N,0010,1","22000,1,9,N","030000,1,N,1","+0218,1","-0054,1","10122,1",,,,,,"00,1,+99999,9,99,9",,"00,99,1,00,1,00,1,99999,9,00,1,00,1",,"01,9",,"120,M,+0230,1","240,N,+0011,1","99999,9,08182,1","7,1,012,1,+005,1",,,"SYN094AAXX  22181 76373 32980 01401 10218 21054 38182 40122 57012 91750 333 10230 20011 30/// 58005;",
"76373099999","2012-03-22T21:00:00","4","25.35","-105.75","1967.0","TEPEHUANES DGO., MX","FM-12","99999","V020","250,1,N,0010,1","22000,1,9,N","030000,1,N,1","+0278,2","-0096,1","10101,1",,,,,,"00,1,+99999,9,99,9",,"00,99,1,00,1,00,1,99999,9,00,1,00,1",,"01,9",,,,"99999,9,08165,1","7,1,020,1,+025,1",,,"SYN082AAXX  22211 76373 32980 02501 10278 21096 38165 40101 57020 92055 333 30/// 58025;",
"76373099999","2012-03-23T00:00:00","4","25.35","-105.75","1967.0","TEPEHUANES DGO., MX","FM-12","99999","V020","250,1,N,0010,1","22000,1,9,N","030000,1,N,1","+0255,1","-0038,1","10105,1","24,0000,9,1",,,,,"00,1,+99999,9,99,9",,"00,99,1,00,1,00,1,99999,9,00,1,00,1",,"01,9",,"120,M,+0302,1","180,N,+0011,1","99999,9,08168,1","2,1,006,1,+065,1",,,"SYN106AAXX  23001 76373 32980 02501 10255 21038 38168 40105 52006 92358 333 10302 20011 30/// 50651 58065 70000;","Q01  00002PRCP24"
"76373099999","2012-03-23T03:00:00","4","25.35","-105.75","1967.0","TEPEHUANES DGO., MX","FM-12","99999","V020","250,1,N,0010,1","22000,1,9,N","001000,1,N,1","+0162,1","-0018,1","10136,1",,,,,,"00,1,+99999,9,99,9",,"00,99,1,00,1,00,1,99999,9,00,1,00,1",,"01,9",,,,"99999,9,08193,1","2,1,036,1,+032,1",,,"SYN082AAXX  23031 76373 32910 02501 10162 21018 38193 40136 52036 90250 333 30/// 58032;",
"76373099999","2012-03-23T15:00:00","4","25.35","-105.75","1967.0","TEPEHUANES DGO., MX","FM-12","99999","V020","999,9,C,0000,1","22000,1,9,N","030000,1,N,1","+0106,1","-0011,1","10175,1",,,,,,"00,1,+99999,9,99,9",,"00,99,1,00,1,00,1,99999,9,00,1,00,1",,"01,9",,,,"99999,9,08225,1","2,1,015,1,+031,1",,,"SYN082AAXX  23151 76373 32980 00000 10106 21011 38225 40175 52015 91455 333 30/// 58031;",
"76373099999","2012-03-24T12:00:00","4","25.35","-105.75","1967.0","TEPEHUANES DGO., MX","FM-12","99999","V020","999,9,C,0000,1","22000,1,9,N","001000,1,N,1","+0047,1","-0048,1","10162,1","24,0000,9,1",,,,,"00,1,+99999,9,99,9",,"00,99,1,00,1,00,1,99999,9,00,1,00,1",,"01,9","999,+0017,9","120,N,+0026,1","240,M,+0320,1","99999,9,08214,1","9,9,999,9,+004,1",,,"SYN100AAXX  24121 76373 32910 00000 10047 21048 38214 40162 5//// 91150 333 10320 20026 30017 58004 70000;","Q01  00002PRCP24"
"76373099999","2012-03-24T15:00:00","4","25.35","-105.75","1967.0","TEPEHUANES DGO., MX","FM-12","99999","V020","999,9,C,0000,1","22000,1,9,N","020000,1,N,1","+0124,1","-0041,1","10183,1",,,,,,"00,1,+99999,9,99,9",,"00,99,1,00,1,00,1,99999,9,00,1,00,1",,"01,9",,,,"99999,9,08231,1","2,1,017,1,+006,1",,,"SYN082AAXX  24151 76373 32970 00000 10124 21041 38231 40183 52017 91455 333 30/// 58006;",
"76373099999","2012-03-24T18:00:00","4","25.35","-105.75","1967.0","TEPEHUANES DGO., MX","FM-12","99999","V020","999,9,C,0000,1","22000,1,9,N","030000,1,N,1","+0259,1","-0091,1","10164,1",,,,,,"00,1,+99999,9,99,9",,"00,99,1,00,1,00,1,99999,9,00,1,00,1",,"01,9",,"120,M,+0265,1","240,N,+0026,1","99999,9,08216,1","7,1,017,1,+014,1",,,"SYN094AAXX  24181 76373 32980 00000 10259 21091 38216 40164 57017 91755 333 10265 20026 30/// 58014;",
"76373099999","2012-03-24T21:00:00","4","25.35","-105.75","1967.0","TEPEHUANES DGO., MX","FM-12","99999","V020","140,1,N,0010,1","22000,1,9,N","030000,1,N,1","+0281,1","-0092,1","10128,1",,,,,,"01,1,+00810,1,08,1",,"03,99,1,01,1,02,1,01250,1,00,1,04,1",,"01,9",,,,"99999,9,08187,1","7,1,039,1,+009,1",,,"SYN100AAXX  24211 76373 32680 31401 10281 21092 38187 40128 57039 81204 92050 333 30/// 56909 58009 81827;",
"76373099999","2012-03-25T00:00:00","4","25.35","-105.75","1967.0","TEPEHUANES DGO., MX","FM-12","99999","V020","999,9,C,0000,1","01500,1,9,N","020000,1,N,1","+0271,1","-0082,1","10108,1","24,0000,9,1",,,,,,,"05,99,1,05,1,06,1,01750,1,00,1,00,1",,"01,9",,"120,M,+0310,1","180,N,+0026,1","99999,9,08171,1","7,1,016,1,+999,9",,,"SYN124AAXX  25001 76373 32770 50000 10271 21082 38171 40108 57016 85600 92350 333 10310 20026 30/// 50571 56900 58/// 70000 85627;",
"76373099999","2012-03-25T03:00:00","4","25.35","-105.75","1967.0","TEPEHUANES DGO., MX","FM-12","99999","V020","999,9,C,0000,1","22000,1,9,N","005000,1,N,1","+0203,1","-0057,1","10143,1",,,,,,"00,1,+99999,9,99,9",,"00,99,1,00,1,00,1,99999,9,00,1,00,1",,"01,9",,,,"99999,9,08199,1","2,1,028,1,+999,9",,,"SYN082AAXX  25031 76373 32950 00000 10203 21057 38199 40143 52028 90250 333 30/// 58///;",
"76373099999","2012-03-25T06:00:00","4","25.35","-105.75","1967.0","TEPEHUANES DGO., MX","FM-12","99999","V020","999,9,C,0000,1","22000,1,9,N","005000,1,N,1","+0138,1","-0039,1","10162,1",,,,,,"00,1,+99999,9,99,9",,"00,99,1,00,1,00,1,99999,9,00,1,00,1","0486,9","01,9",,"240,M,+0310,1","240,N,+0026,1","99999,9,08214,1","2,1,005,1,+999,9",,,"SYN106AAXX  25061 76373 32950 00000 10138 21039 38214 40162 52005 90550 333 10310 20026 30/// 55081 21933 59006;",
"76373099999","2012-03-25T15:00:00","4","25.35","-105.75","1967.0","TEPEHUANES DGO., MX","FM-12","99999","V020","999,9,C,0000,1","22000,1,9,N","020000,1,N,1","+0131,1","-0036,1","10170,1",,,,,,"00,1,+99999,9,99,9",,"00,99,1,00,1,00,1,99999,9,00,1,00,1",,"01,9",,,,"99999,9,08221,1","9,9,999,9,-010,1",,,"SYN082AAXX  25151 76373 32970 00000 10131 21036 38221 40170 5//// 91450 333 30/// 59010;",
"76373099999","2012-03-25T18:00:00","4","25.35","-105.75","1967.0","TEPEHUANES DGO., MX","FM-12","99999","V020","999,9,C,0000,1","22000,1,9,N","020000,1,N,1","+0263,2","-0028,1","10147,1",,,,,,"00,1,+99999,9,99,9",,"00,99,1,00,1,00,1,99999,9,00,1,00,1",,"01,9",,"120,M,+0270,1","240,N,+0059,1","99999,9,08202,1","2,1,011,1,-014,1",,,"SYN094AAXX  25181 76373 32970 00000 10263 21028 38202 40147 52011 91750 333 10270 20059 30/// 59014;",
"76373099999","2012-03-25T21:00:00","4","25.35","-105.75","1967.0","TEPEHUANES DGO., MX","FM-12","99999","V020","999,9,C,0000,1","00810,1,9,N","020000,1,N,1","+0263,1","-0059,1","10112,1",,,,,,"05,1,+00810,1,06,1",,"05,99,1,05,1,06,1,01750,1,00,1,00,1",,"01,9",,,,"99999,9,08174,1","7,1,028,1,-013,1",,,"SYN100AAXX  25211 76373 32770 50000 10263 21059 38174 40112 57028 85600 92050 333 30/// 56900 59013 85627;",
"76373099999","2012-03-26T00:00:00","4","25.35","-105.75","1967.0","TEPEHUANES DGO., MX","FM-12","99999","V020","290,1,N,0010,1","01500,1,9,N","020000,1,N,1","+0262,1","-0042,1","10112,1","24,0000,9,1",,,,,,,"05,99,1,05,1,06,1,01750,1,00,1,00,1",,"01,9",,"120,M,+0310,1","180,N,+0059,1","99999,9,08174,1","4,1,000,1,-025,1",,,"SYN124AAXX  26001 76373 32770 52901 10262 21042 38174 40112 54000 85600 92350 333 10310 20059 30/// 50581 56900 59025 70000 85627;",
"76373099999","2012-03-26T03:00:00","4","25.35","-105.75","1967.0","TEPEHUANES DGO., MX","FM-12","99999","V020","999,9,C,0000,1","22000,1,9,N","005000,1,N,1","+0191,1","-0026,1","10139,1",,,,,,"00,1,+99999,9,99,9",,"00,99,1,00,1,00,1,99999,9,00,1,00,1",,"01,9",,,,"99999,9,08196,1","2,1,022,1,-003,1",,,"SYN082AAXX  26031 76373 32950 00000 10191 21026 38196 40139 52022 90250 333 30/// 59003;",
"76373099999","2012-03-26T12:00:00","4","25.35","-105.75","1967.0","TEPEHUANES DGO., MX","FM-12","99999","V020","999,9,C,0000,1","22000,1,9,N","005000,1,N,1","+0073,1","-0012,1","10154,1",,,,,,"00,1,+99999,9,99,9",,"00,99,1,00,1,00,1,99999,9,00,1,00,1","0480,9","01,9",,"120,N,+0063,1","240,M,+0310,1","99999,9,08208,1",,,,"SYN112AAXX  26121 76373 32950 00000 10073 21012 38208 40154 5//// 91150 333 10310 20063 30055 55080 21651 58/// 70000;",
"76373099999","2012-03-26T15:00:00","4","25.35","-105.75","1967.0","TEPEHUANES DGO., MX","FM-12","99999","V020","999,9,C,0000,1","22000,1,9,N","020000,1,N,1","+0154,1","+0014,1","10158,1",,,,,,"03,1,+00810,1,06,1",,"03,99,1,03,1,06,1,01750,1,00,1,00,1",,"01,9",,,,"99999,9,08212,1","2,1,004,1,+007,1",,,"SYN100AAXX  26151 76373 32770 30000 10154 20014 38212 40158 52004 83600 91450 333 30/// 56900 58007 83627;",
"76373099999","2012-03-26T18:00:00","4","25.35","-105.75","1967.0","TEPEHUANES DGO., MX","FM-12","99999","V020","999,9,C,0000,1","22000,1,9,N","020000,1,N,1","+0233,1","-0026,1","10146,1",,,,,,"04,1,+00810,1,06,1",,"04,99,1,04,1,06,1,01750,1,00,1,00,1",,"01,9",,"120,M,+0240,1","240,N,+0063,1","99999,9,08202,1","7,1,010,1,+000,1",,,"SYN112AAXX  26181 76373 32770 40000 10233 21026 38202 40146 57010 84600 91750 333 10240 20063 30/// 56900 58000 84627;",
"76373099999","2012-03-26T21:00:00","4","25.35","-105.75","1967.0","TEPEHUANES DGO., MX","FM-12","99999","V020","250,1,N,0010,1","22000,1,9,N","030000,1,N,1","+0263,1","-0124,1","10119,1",,,,,,"04,1,+00690,1,06,1",,"04,99,1,04,1,06,1,01750,1,00,1,00,1",,"01,9",,,,"99999,9,08180,1","2,1,022,1,+006,1",,,"SYN100AAXX  26211 76373 32780 42501 10263 21124 38180 40119 52022 84600 92055 333 30/// 56900 58006 84623;",
"76373099999","2012-03-27T00:00:00","4","25.35","-105.75","1967.0","TEPEHUANES DGO., MX","FM-12","99999","V020","250,1,N,0010,1","22000,1,9,N","030000,1,N,1","+0245,1","-0088,1","10117,1","24,0000,9,1",,,,,,,"03,99,1,03,1,06,1,01750,1,00,1,00,1",,"01,9",,"120,M,+0290,1","180,N,+0063,1","99999,9,08178,1","6,1,002,1,+004,1",,,"SYN124AAXX  27001 76373 32780 32501 10245 21088 38178 40117 56002 83600 92350 333 10290 20063 30/// 50681 56900 58004 70000 83627;",
"76373099999","2012-03-27T03:00:00","4","25.35","-105.75","1967.0","TEPEHUANES DGO., MX","FM-12","99999","V020","999,9,C,0000,1","22000,1,9,N","001000,1,N,1","+0174,1","-0050,1","10135,1",,,,,,"00,1,+99999,9,99,9",,"00,99,1,00,1,00,1,99999,9,00,1,00,1",,"01,9",,,,"99999,9,08192,1","2,1,014,1,-004,1",,,"SYN082AAXX  27031 76373 32910 00000 10174 21050 38192 40135 52014 90250 333 30/// 59004;",
"76373099999","2012-03-27T06:00:00","4","25.35","-105.75","1967.0","TEPEHUANES DGO., MX","FM-12","99999","V020","999,9,C,0000,1","22000,1,9,N","001000,1,N,1","+0136,1","-0032,1","10137,1",,,,,,"00,1,+99999,9,99,9",,"00,99,1,00,1,00,1,99999,9,00,1,00,1","0408,9","01,9",,"240,M,+0290,1","240,N,+0065,1","99999,9,08194,1","2,1,002,1,+999,9",,,"SYN106AAXX  27061 76373 32910 00000 10136 21032 38194 40137 52002 90550 333 10290 20065 30/// 55068 21377 59014;",
"76373099999","2012-03-27T12:00:00","4","25.35","-105.75","1967.0","TEPEHUANES DGO., MX","FM-12","99999","V020","999,9,C,0000,1","22000,1,9,N","001000,1,N,1","+0096,1","-0022,1","10150,1","24,0000,9,1",,,,,"00,1,+99999,9,99,9",,"00,99,1,00,1,00,1,99999,9,00,1,00,1",,"01,9",,"120,N,+0081,1","240,M,+0290,1","99999,9,08205,1","9,9,999,9,-003,1",,,"SYN100AAXX  27121 76373 32910 00000 10096 21022 38205 40150 5//// 91150 333 10290 20081 30078 59003 70000;","Q01  00002PRCP24"
"76373099999","2012-03-27T15:00:00","4","25.35","-105.75","1967.0","TEPEHUANES DGO., MX","FM-12","99999","V020","999,9,C,0000,1","22000,1,9,N","020000,1,N,1","+0147,1","-0010,1","10157,1",,,,,,"00,1,+99999,9,99,9",,"00,99,1,00,1,00,1,99999,9,00,1,00,1",,"01,9",,,,"99999,9,08210,1","2,1,005,1,-002,1",,,"SYN082AAXX  27151 76373 32970 00000 10147 21010 38210 40157 52005 91455 333 30/// 59002;",
"76373099999","2012-03-27T21:00:00","4","25.35","-105.75","1967.0","TEPEHUANES DGO., MX","FM-12","99999","V020","999,9,C,0000,1","00810,1,9,N","020000,1,N,1","+0274,1","-0074,1","10106,1",,,,,,"05,1,+00810,1,06,1",,"05,99,1,05,1,04,1,01250,1,00,1,00,1",,"01,9",,,,"99999,9,08169,1","7,1,023,1,-011,1",,,"SYN100AAXX  27211 76373 32670 50000 10274 21074 38169 40106 57023 85400 92050 333 30/// 56900 59011 85627;",
"76373099999","2012-03-28T00:00:00","4","25.35","-105.75","1967.0","TEPEHUANES DGO., MX","FM-12","99999","V020","210,1,N,0010,1","01200,1,9,N","020000,1,N,1","+0250,1","-0058,1","10101,1","24,0000,9,1",,,,,,,"07,99,1,07,1,05,1,01250,1,00,1,00,1",,"01,9",,"120,M,+0310,1","180,N,+0081,1","99999,9,08166,1","5,1,003,1,-012,1",,,"SYN124AAXX  28001 76373 32670 72101 10250 21058 38166 40101 55003 87500 92350 333 10310 20081 30/// 50781 56900 59012 70000 87627;",
"76373099999","2012-03-28T03:00:00","4","25.35","-105.75","1967.0","TEPEHUANES DGO., MX","FM-12","99999","V020","999,9,C,0000,1","22000,1,9,N","000600,1,N,1","+0186,1","-0073,1","10131,1",,,,,,"03,1,+02100,1,03,1",,"03,99,1,03,1,00,1,01750,1,07,1,00,1",,"01,9",,,,"99999,9,08191,1","2,1,025,1,-001,1",,,"SYN100AAXX  28031 76373 32706 30000 10186 21073 38191 40131 52025 83070 90250 333 30/// 56090 59001 83357;",
"76373099999","2012-03-28T06:00:00","4","25.35","-105.75","1967.0","TEPEHUANES DGO., MX","FM-12","99999","V020","999,9,C,0000,1","22000,1,9,N","000400,1,N,1","+0120,1","-0071,1","10144,1",,,,,,"00,1,+99999,9,99,9",,"00,99,1,00,1,00,1,99999,9,00,1,00,1","0504,9","01,9",,"240,M,+0310,1","240,N,+0081,1","99999,9,08200,1","2,1,009,1,+999,9",,,"SYN106AAXX  28061 76373 32904 00000 10120 21071 38200 40144 52009 90550 333 10310 20081 30/// 55084 22142 58006;",
"76373099999","2012-03-28T12:00:00","4","25.35","-105.75","1967.0","TEPEHUANES DGO., MX","FM-12","99999","V020","999,9,C,0000,1","22000,1,9,N","000600,1,N,1","+0050,1","-0064,1","10140,1","24,0000,9,1",,,,,"01,1,+00900,1,08,1",,"01,99,1,01,1,02,1,01250,1,00,1,00,1",,"01,9","999,+0030,9","120,N,+0038,1","240,M,+0310,1","99999,9,08197,1","9,9,999,9,-008,1",,,"SYN118AAXX  28121 76373 32606 10000 10050 21064 38197 40140 5//// 81200 91150 333 10310 20038 30030 56300 59008 70000 81830;",
"76373099999","2012-03-28T15:00:00","4","25.35","-105.75","1967.0","TEPEHUANES DGO., MX","FM-12","99999","V020","999,9,C,0000,1","00750,1,9,N","015000,1,N,1","+0110,1","-0033,1","10157,1",,,,,,"07,1,+00750,1,06,1",,"07,99,1,07,1,05,1,01250,1,00,1,00,1",,"01,9",,,,"99999,9,08211,1","2,1,014,1,+001,1",,,"SYN100AAXX  28151 76373 32665 70000 10110 21033 38211 40157 52014 87500 91450 333 30/// 56900 58001 87625;",
"76373099999","2012-03-28T18:00:00","4","25.35","-105.75","1967.0","TEPEHUANES DGO., MX","FM-12","99999","V020","999,9,C,0000,1","00750,1,9,N","020000,1,N,1","+0196,1","-0028,1","10150,1",,,,,,"07,1,+00750,1,06,1",,"07,99,1,07,1,05,1,01250,1,00,1,00,1",,"01,9",,"120,M,+0214,1","240,N,+0038,1","99999,9,08205,1","7,1,006,1,+013,1",,,"SYN112AAXX  28181 76373 32670 70000 10196 21028 38205 40150 57006 87500 91750 333 10214 20038 30/// 56900 58013 87625;",
"76373099999","2012-03-28T21:00:00","4","25.35","-105.75","1967.0","TEPEHUANES DGO., MX","FM-12","99999","V020","310,1,N,0010,1","00750,1,9,N","020000,1,N,1","+0252,1","-0054,1","10118,1",,,,,,"06,1,+00750,1,06,1",,"06,99,1,06,1,05,1,01250,1,00,1,00,1",,"01,9",,,,"99999,9,08179,1","7,1,026,1,+010,1",,,"SYN100AAXX  28211 76373 32670 63101 10252 21054 38179 40118 57026 86500 92050 333 30/// 56900 58010 86625;",
"76373099999","2012-03-29T00:00:00","4","25.35","-105.75","1967.0","TEPEHUANES DGO., MX","FM-12","99999","V020","260,1,N,0010,1","22000,1,9,N","020000,1,N,1","+0225,1","-0047,1","10112,1","24,0000,9,1",,,,,"03,1,+00750,1,06,1",,"04,99,1,04,1,04,1,01250,1,00,1,00,1",,"01,9",,"120,M,+0263,1","180,N,+0038,1","99999,9,08174,1","7,1,005,1,+008,1",,,"SYN130AAXX  29001 76373 32670 42601 10225 21047 38174 40112 57005 84400 92350 333 10263 20038 30/// 50521 56900 58008 70000 83625 81827;",
"76373099999","2012-03-29T03:00:00","4","25.35","-105.75","1967.0","TEPEHUANES DGO., MX","FM-12","99999","V020","999,9,C,0000,1","22000,1,9,N","000600,1,N,1","+0168,1","-0056,1","10126,1",,,,,,"01,1,+00810,1,08,1",,"01,99,1,01,1,02,1,01250,1,00,1,00,1",,"01,9",,,,"99999,9,08185,1","2,1,010,1,-006,1",,,"SYN100AAXX  29031 76373 32606 10000 10168 21056 38185 40126 52010 81200 90250 333 30/// 56900 59006 81827;",
"76373099999","2012-03-29T06:00:00","4","25.35","-105.75","1967.0","TEPEHUANES DGO., MX","FM-12","99999","V020","999,9,C,0000,1","22000,1,9,N","000400,1,N,1","+0099,1","-0046,1","10147,1",,,,,,"00,1,+99999,9,99,9",,"00,99,1,00,1,00,1,99999,9,00,1,00,1","0348,9","01,9",,"240,M,+0263,1","240,N,+0038,1","99999,9,08202,1","2,1,017,1,+999,9",,,"SYN106AAXX  29061 76373 32904 00000 10099 21046 38202 40147 52017 90550 333 10263 20038 30/// 55058 21458 58002;",
"76373099999","2012-03-29T12:00:00","4","25.35","-105.75","1967.0","TEPEHUANES DGO., MX","FM-12","99999","V020","999,9,C,0000,1","22000,1,9,N","000600,1,N,1","+0027,1","-0042,1","10144,1","24,0000,9,1",,,,,"00,1,+99999,9,99,9",,"00,99,1,00,1,00,1,99999,9,00,1,00,1",,"01,9","999,+0008,9","120,N,+0020,1","240,M,+0263,1","99999,9,08200,1","9,9,999,9,+003,1",,,"SYN100AAXX  29121 76373 32906 00000 10027 21042 38200 40144 5//// 91150 333 10263 20020 30008 58003 70000;","Q01  00002PRCP24"
"76373099999","2012-03-29T15:00:00","4","25.35","-105.75","1967.0","TEPEHUANES DGO., MX","FM-12","99999","V020","999,9,C,0000,1","22000,1,9,N","015000,1,N,1","+0103,1","-0021,1","10162,1",,,,,,"01,1,+00810,1,08,1",,"04,99,1,01,1,02,1,01250,1,00,1,04,1",,"01,9",,,,"99999,9,08214,1","2,1,014,1,+003,1",,,"SYN106AAXX  29151 76373 32665 40000 10103 21021 38214 40162 52014 81204 91450 333 30/// 56909 58003 81827 83067;",
"76373099999","2012-03-29T18:00:00","4","25.35","-105.75","1967.0","TEPEHUANES DGO., MX","FM-12","99999","V020","999,9,C,0000,1","22000,1,9,N","030000,1,N,1","+0216,1","-0023,1","10139,1",,,,,,"04,1,+05100,1,00,1",,"04,99,1,00,1,00,1,99999,9,00,1,04,1",,"01,9",,"120,M,+0220,1","240,N,+0020,1","99999,9,08196,1","7,1,018,1,-009,1",,,"SYN112AAXX  29181 76373 32980 40000 10216 21023 38196 40139 57018 80004 91755 333 10220 20020 30/// 56009 59009 84067;",
"76373099999","2012-03-29T21:00:00","4","25.35","-105.75","1967.0","TEPEHUANES DGO., MX","FM-12","99999","V020","190,1,N,0020,1","03600,1,C,N","030000,1,N,1","+0276,1","-0103,1","10096,1",,,,,,"02,1,+00750,1,08,1","02,1,+01110,1,03,1","05,99,1,04,1,02,1,00800,1,02,1,01,1",,"01,9",,,,"99999,9,08161,1","7,1,035,1,-018,1",,,"SYN112AAXX  29211 76373 32580 51902 10276 21103 38161 40096 57035 84221 92050 333 30/// 56999 59018 82825 82337 81067;",
"76373099999","2012-03-30T00:00:00","4","25.35","-105.75","1967.0","TEPEHUANES DGO., MX","FM-12","99999","V020","250,1,N,0020,1","22000,1,9,N","030000,1,N,1","+0250,1","-0097,1","10088,1","24,0000,9,1",,,,,,,"03,99,1,03,1,02,1,00800,1,01,1,00,1",,"01,9",,"120,M,+0290,1","180,N,+0020,1","99999,9,08155,1","7,1,006,1,-019,1",,,"SYN124AAXX  30001 76373 32580 32502 10250 21097 38155 40088 57006 83210 92355 333 10290 20020 30/// 50751 56990 59019 70000 82825;",
"76373099999","2012-03-30T03:00:00","4","25.35","-105.75","1967.0","TEPEHUANES DGO., MX","FM-12","99999","V020","250,1,N,0010,1","22000,1,9,N","001000,1,N,1","+0180,1","-0026,1","10109,1",,,,,,"00,1,+99999,9,99,9",,"00,99,1,00,1,00,1,99999,9,00,1,00,1",,"01,9",,,,"99999,9,08172,1","2,1,017,1,-013,1",,,"SYN082AAXX  30031 76373 32910 02501 10180 21026 38172 40109 52017 90250 333 30/// 59013;",
"76373099999","2012-03-30T06:00:00","4","25.35","-105.75","1967.0","TEPEHUANES DGO., MX","FM-12","99999","V020","999,9,C,0000,1","22000,1,9,N","000500,1,N,1","+0128,1","-0013,1","10134,1",,,,,,"00,1,+99999,9,99,9",,"00,99,1,00,1,00,1,99999,9,00,1,00,1","0600,9","01,9",,"240,M,+0290,1","240,N,+0020,1","99999,9,08192,1","2,1,020,1,+999,9",,,"SYN106AAXX  30061 76373 32905 00000 10128 21013 38192 40134 52020 90540 333 10290 20020 30/// 55100 22053 59010;",
"76373099999","2012-03-30T12:00:00","4","25.35","-105.75","1967.0","TEPEHUANES DGO., MX","FM-12","99999","V020","999,9,C,0000,1","22000,1,9,N","000500,1,N,1","+0044,1","-0012,1","10142,1","24,0000,9,1",,,,,"00,1,+99999,9,99,9",,"00,99,1,00,1,00,1,99999,9,00,1,00,1",,"01,9","999,+0019,9","120,N,+0026,1","240,M,+0290,1","99999,9,08198,1","9,9,999,9,-002,1",,,"SYN100AAXX  30121 76373 32905 00000 10044 21012 38198 40142 5//// 91155 333 10290 20026 30019 59002 70000;","Q01  00002PRCP24"
"76373099999","2012-03-30T15:00:00","4","25.35","-105.75","1967.0","TEPEHUANES DGO., MX","FM-12","99999","V020","999,9,C,0000,1","22000,1,9,N","020000,1,N,1","+0142,1","+0003,1","10157,1",,,,,,"00,1,+99999,9,99,9",,"00,99,1,00,1,00,1,99999,9,00,1,00,1",,"01,9",,,,"99999,9,08210,1","2,1,012,1,-004,1",,,"SYN082AAXX  30151 76373 32970 00000 10142 20003 38210 40157 52012 91455 333 30/// 59004;",
"76373099999","2012-03-30T18:00:00","4","25.35","-105.75","1967.0","TEPEHUANES DGO., MX","FM-12","99999","V020","140,1,N,0010,1","22000,1,9,N","030000,1,N,1","+0238,1","-0020,1","10137,1",,,,,,"03,1,+00750,1,08,1",,"03,99,1,03,1,03,1,00800,1,00,1,00,1",,"01,9",,"120,M,+0250,1","240,N,+0026,1","99999,9,08194,1","7,1,016,1,-002,1",,,"SYN112AAXX  30181 76373 32580 31401 10238 21020 38194 40137 57016 83300 91755 333 10250 20026 30/// 56900 59002 83825;",
"76373099999","2012-03-30T21:00:00","4","25.35","-105.75","1967.0","TEPEHUANES DGO., MX","FM-12","99999","V020","110,1,N,0010,1","22000,1,9,N","030000,1,N,1","+0278,1","-0048,1","10101,1",,,,,,"03,1,+00750,1,08,1",,"03,99,1,03,1,03,1,00800,1,00,1,00,1",,"01,9",,,,"99999,9,08165,1","7,1,029,1,+004,1",,,"SYN100AAXX  30211 76373 32580 31101 10278 21048 38165 40101 57029 83300 92055 333 30/// 56900 58004 83825;",
"76373099999","2012-03-31T00:00:00","4","25.35","-105.75","1967.0","TEPEHUANES DGO., MX","FM-12","99999","V020","070,1,N,0010,1","00600,1,C,N","030000,1,N,1","+0204,1","-0019,1","10112,1","24,0000,9,1",,,,,"05,1,+00600,1,07,1",,"08,99,1,08,1,08,1,00800,1,00,1,00,1",,"01,9",,"120,M,+0294,1","180,N,+0026,1","99999,9,08174,1","2,1,009,1,+019,1",,,"SYN130AAXX  31001 76373 32580 80701 10204 21019 38174 40112 52009 88800 92355 333 10294 20026 30/// 50531 56900 58019 70000 85720 83625;",
"76373099999","2012-03-31T03:00:00","4","25.35","-105.75","1967.0","TEPEHUANES DGO., MX","FM-12","99999","V020","999,9,C,0000,1","00600,1,9,N","001000,1,N,1","+0138,1","+0071,1","10162,1",,,,,,"05,1,+00600,1,07,1",,"08,99,1,08,1,08,1,00800,1,00,1,00,1",,"01,9",,,,"99999,9,08214,1","2,1,040,1,+042,1",,,"SYN106AAXX  31031 76373 32510 80000 10138 20071 38214 40162 52040 88800 90250 333 30/// 56900 58042 85720 83625;",
"76373099999","2012-03-31T12:00:00","4","25.35","-105.75","1967.0","TEPEHUANES DGO., MX","FM-12","99999","V020","999,9,C,0000,1","22000,1,9,N","000500,1,N,1","+0050,1","+0033,1","10154,1","24,0000,9,1",,,,,"02,1,+00750,1,08,1",,"02,99,1,02,1,02,1,00800,1,00,1,00,1",,"01,9","999,+0022,9","120,N,+0030,1","240,M,+0294,1","99999,9,08208,1","9,9,999,9,+010,1",,,"SYN118AAXX  31121 76373 32505 20000 10050 20033 38208 40154 5//// 82200 91155 333 10294 20030 30022 56900 58010 70000 82825;",
"76373099999","2012-03-31T15:00:00","4","25.35","-105.75","1967.0","TEPEHUANES DGO., MX","FM-12","99999","V020","999,9,C,0000,1","22000,1,9,N","030000,1,N,1","+0128,1","+0034,1","10165,1",,,,,,"00,1,+99999,9,99,9",,"00,99,1,00,1,00,1,99999,9,00,1,00,1",,"01,9",,,,"99999,9,08217,1","2,1,011,1,+007,1",,,"SYN082AAXX  31151 76373 32980 00000 10128 20034 38217 40165 52011 91455 333 30/// 58007;",
"76373099999","2012-03-31T18:00:00","4","25.35","-105.75","1967.0","TEPEHUANES DGO., MX","FM-12","99999","V020","999,9,C,0000,1","22000,1,9,N","030000,1,N,1","+0234,1","+0015,1","10157,1",,,,,,"00,1,+99999,9,99,9",,"00,99,1,00,1,00,1,99999,9,00,1,00,1",,"01,9",,"120,M,+0240,1","240,N,+0030,1","99999,9,08210,1","2,1,007,1,+006,1",,,"SYN094AAXX  31181 76373 32980 00000 10234 20015 38210 40157 52007 91750 333 10240 20030 30/// 58006;",
"76373099999","2012-03-31T21:00:00","4","25.35","-105.75","1967.0","TEPEHUANES DGO., MX","FM-12","99999","V020","110,1,N,0010,1","22000,1,9,N","030000,1,N,1","+0261,1","-0007,1","10125,1",,,,,,"03,1,+00750,1,08,1",,"03,99,1,03,1,03,1,00800,1,00,1,00,1",,"01,9",,,,"99999,9,08184,1","7,1,016,1,+019,1",,,"SYN100AAXX  31211 76373 32580 31101 10261 21007 38184 40125 57016 83300 92055 333 30/// 56900 58019 83825;",
"76373099999","2012-04-01T00:00:00","4","25.35","-105.75","1967.0","TEPEHUANES DGO., MX","FM-12","99999","V020","140,1,N,0010,1","22000,1,9,N","020000,1,N,1","+0240,1","-0023,1","10103,1","24,0000,9,1",,,,,,,"04,99,1,04,1,02,1,01750,1,00,1,00,1",,"01,9",,"120,M,+0290,1","180,N,+0030,1","99999,9,08167,1","7,1,017,1,-007,1",,,"SYN124AAXX  01001 76373 32770 41401 10240 21023 38167 40103 57017 84200 92350 333 10290 20030 30/// 50511 56900 59007 70000 84827;",
"76373099999","2012-04-01T03:00:00","4","25.35","-105.75","1967.0","TEPEHUANES DGO., MX","FM-12","99999","V020","999,9,C,0000,1","22000,1,9,N","005000,1,N,1","+0181,1","+0037,1","10130,1",,,,,,"02,1,+00810,1,08,1",,"02,99,1,02,1,02,1,01750,1,00,1,00,1",,"01,9",,,,"99999,9,08189,1","2,1,022,1,-025,1",,,"SYN100AAXX  01031 76373 32750 20000 10181 20037 38189 40130 52022 82200 90250 333 30/// 56900 59025 82827;",
"76373099999","2012-04-01T06:00:00","4","25.35","-105.75","1967.0","TEPEHUANES DGO., MX","FM-12","99999","V020","999,9,C,0000,1","22000,1,9,N","005000,1,N,1","+0133,1","+0028,1","10142,1",,,,,,"00,1,+99999,9,99,9",,"00,99,1,00,1,00,1,99999,9,00,1,00,1","0564,9",,,"240,M,+0290,1","240,N,+0030,1","99999,9,08198,1","2,1,009,1,+999,9",,,"SYN100AAXX  01061 76373 32950 00000 10133 20028 38198 40142 52009 90550 333 10290 20030 55094 22005 59008;",
"76373099999","2012-04-01T15:00:00","4","25.35","-105.75","1967.0","TEPEHUANES DGO., MX","FM-12","99999","V020","999,9,C,0000,1","22000,1,9,N","020000,1,N,1","+0138,1","+0024,1","10127,1",,,,,,"00,1,+99999,9,99,9",,"00,99,1,00,1,00,1,99999,9,00,1,00,1",,"01,9",,,,"99999,9,08186,1","9,9,999,9,-031,1",,,"SYN082AAXX  01151 76373 32970 00000 10138 20024 38186 40127 5//// 91450 333 30/// 59031;",
"76373099999","2012-04-01T18:00:00","4","25.35","-105.75","1967.0","TEPEHUANES DGO., MX","FM-12","99999","V020","999,9,C,0000,1","22000,1,9,N","020000,1,N,1","+0261,1","+0007,1","10109,1",,,,,,"03,1,+00810,1,08,1",,"03,99,1,03,1,02,1,01750,1,00,1,00,1",,"01,9",,"120,M,+0270,1","240,N,+0040,1","99999,9,08172,1","7,1,014,1,-038,1",,,"SYN112AAXX  01181 76373 32770 30000 10261 20007 38172 40109 57014 83200 91750 333 10270 20040 30/// 56900 59038 83827;",
"76373099999","2012-04-01T21:00:00","4","25.35","-105.75","1967.0","TEPEHUANES DGO., MX","FM-12","99999","V020","310,1,N,0010,1","00810,1,9,N","020000,1,N,1","+0276,1","-0057,1","10068,1",,,,,,"05,1,+00810,1,06,1",,"07,99,1,05,1,06,1,01750,1,00,1,00,1",,"01,9",,,,"99999,9,08138,1","7,1,034,1,-046,1",,,"SYN100AAXX  01211 76373 32770 73101 10276 21057 38138 40068 57034 85600 92050 333 30/// 56900 59046 85627;",
"76373099999","2012-04-02T00:00:00","4","25.35","-105.75","1967.0","TEPEHUANES DGO., MX","FM-12","99999","V020","999,9,C,0000,1","01500,1,9,N","020000,1,N,1","+0225,1","-0023,1","10079,1","24,0000,9,1",,,,,,,"08,99,1,99,9,06,1,01750,1,00,1,00,1",,"01,9",,"120,M,+0305,1","180,N,+0040,1","99999,9,08148,1","2,1,010,1,-019,1",,,"SYN124AAXX  02001 76373 32770 80000 10225 21023 38148 40079 52010 86600 92350 333 10305 20040 30/// 50670 56900 59019 70000 86627;","Q01+000062SCOTLC"
"76373099999","2012-04-02T12:00:00","4","25.35","-105.75","1967.0","TEPEHUANES DGO., MX","FM-12","99999","V020","999,9,C,0000,1","22000,1,9,N","005000,1,N,1","+0040,1","-0003,1","10092,1",,,,,,"00,1,+99999,9,99,9",,"00,99,1,00,1,00,1,99999,9,00,1,00,1","0396,9","01,9","999,+0010,9","120,N,+0022,1","240,M,+0305,1","99999,9,08158,1","9,9,999,9,-030,1",,,"SYN112AAXX  02121 76373 32950 00000 10040 21003 38158 40092 5//// 91150 333 10305 20022 30010 55066 21409 59030 70000;",
"76373099999","2012-04-02T15:00:00","4","25.35","-105.75","1967.0","TEPEHUANES DGO., MX","FM-12","99999","V020","999,9,C,0000,1","22000,1,9,N","020000,1,N,1","+0138,1","+0024,1","10099,1",,,,,,"00,1,+99999,9,99,9",,"00,99,1,00,1,00,1,99999,9,00,1,00,1",,"01,9",,,,"99999,9,08163,1","2,1,005,1,-023,1",,,"SYN082AAXX  02151 76373 32970 00000 10138 20024 38163 40099 52005 91450 333 30/// 59023;",
"76373099999","2012-04-02T18:00:00","4","25.35","-105.75","1967.0","TEPEHUANES DGO., MX","FM-12","99999","V020","290,1,N,0010,1","22000,1,9,N","030000,1,N,1","+0244,1","-0112,1","10096,1",,,,,,"00,1,+99999,9,99,9",,"00,99,1,00,1,00,1,99999,9,00,1,00,1",,"01,9",,"120,M,+0250,1","240,N,+0022,1","99999,9,08161,1","2,1,005,1,-011,1",,,"SYN094AAXX  02181 76373 32980 02901 10244 21112 38161 40096 52005 91750 333 10250 20022 30/// 59011;",
"76373099999","2012-04-02T21:00:00","4","25.35","-105.75","1967.0","TEPEHUANES DGO., MX","FM-12","99999","V020","290,1,N,0020,1","22000,1,9,N","030000,1,N,1","+0262,1","-0132,1","10069,1",,,,,,"00,1,+99999,9,99,9",,"00,99,1,00,1,00,1,99999,9,00,1,00,1",,"01,9",,,,"99999,9,08140,1","7,1,021,1,-007,1",,,"SYN082AAXX  02211 76373 32980 02902 10262 21132 38140 40069 57021 92055 333 30/// 59007;",
"76373099999","2012-04-03T00:00:00","4","25.35","-105.75","1967.0","TEPEHUANES DGO., MX","FM-12","99999","V020","250,1,N,0020,1","22000,1,9,N","030000,1,N,1","+0245,1","-0120,1","10066,1","24,0000,9,1",,,,,"00,1,+99999,9,99,9",,"00,99,1,00,1,00,1,99999,9,00,1,00,1",,"01,9",,"120,M,+0280,1","180,N,+0022,1","99999,9,08137,1","7,1,003,1,-011,1",,,"SYN106AAXX  03001 76373 32980 02502 10245 21120 38137 40066 57003 92350 333 10280 20022 30/// 50861 59011 70000;","Q01  00002PRCP24"
"76373099999","2012-04-03T03:00:00","4","25.35","-105.75","1967.0","TEPEHUANES DGO., MX","FM-12","99999","V020","250,1,N,0010,1","22000,1,9,N","001000,1,N,1","+0173,1","+9999,9","10101,1",,,,,,"00,1,+99999,9,99,9",,"00,99,1,00,1,00,1,99999,9,00,1,00,1",,"01,9",,,,"99999,9,08165,1","2,1,027,1,+009,1",,,"SYN082AAXX  03031 76373 32910 02501 10173 20315 38165 40101 52027 90250 333 30/// 58009;",
"76373099999","2012-04-03T15:00:00","4","25.35","-105.75","1967.0","TEPEHUANES DGO., MX","FM-12","99999","V020","999,9,C,0000,1","22000,1,9,N","020000,1,N,1","+0143,1","-0009,1","10150,1",,,,,,"00,1,+99999,9,99,9",,"00,99,1,00,1,00,1,99999,9,00,1,00,1",,"01,9",,,,"99999,9,08205,1","2,1,013,1,+042,1",,,"SYN082AAXX  03151 76373 32970 00000 10143 21009 38205 40150 52013 91450 333 30/// 58042;",
"76373099999","2012-04-03T18:00:00","4","25.35","-105.75","1967.0","TEPEHUANES DGO., MX","FM-12","99999","V020","999,9,C,0000,1","22000,1,9,N","030000,1,N,1","+0234,1","-0057,1","10129,1",,,,,,"00,1,+99999,9,99,9",,"00,99,1,00,1,00,1,99999,9,00,1,00,1",,"01,9",,"120,M,+0240,1","240,N,+0043,1","99999,9,08188,1","7,1,017,1,+027,1",,,"SYN094AAXX  03181 76373 32980 00000 10234 21057 38188 40129 57017 91750 333 10240 20043 30/// 58027;",
"76373099999","2012-04-03T21:00:00","4","25.35","-105.75","1967.0","TEPEHUANES DGO., MX","FM-12","99999","V020","280,1,N,0010,1","22000,1,9,N","020000,1,N,1","+0269,1","-0093,1","10089,1",,,,,,"01,1,+05400,1,00,1",,"01,99,1,00,1,00,1,99999,9,00,1,02,1",,"01,9",,,,"99999,9,08155,1","7,1,033,1,+015,1",,,"SYN100AAXX  03211 76373 32970 12801 10269 21093 38155 40089 57033 80002 92050 333 30/// 56009 58015 81068;",
"76373099999","2012-04-04T00:00:00","4","25.35","-105.75","1967.0","TEPEHUANES DGO., MX","FM-12","99999","V020","250,1,N,0020,1","22000,1,9,N","020000,1,N,1","+0244,1","-0057,1","10089,1","24,0000,9,1",,,,,,,"01,99,1,01,1,01,1,99999,9,00,1,00,1",,"01,9",,"120,M,+0282,1","180,N,+0043,1","99999,9,08156,1","3,1,001,1,+019,1",,,"SYN124AAXX  04001 76373 32970 12502 10244 21057 38156 40089 53001 81100 92350 333 10282 20043 30/// 50901 56900 58019 70000 81830;",
"76373099999","2012-04-04T03:00:00","4","25.35","-105.75","1967.0","TEPEHUANES DGO., MX","FM-12","99999","V020","999,9,C,0000,1","22000,1,9,N","000400,1,N,1","+0175,1","-0035,1","10115,1",,,,,,"01,1,+00900,1,08,1",,"01,99,1,01,1,01,1,01250,1,00,1,00,1",,"01,9",,,,"99999,9,08176,1","2,1,020,1,+009,1",,,"SYN100AAXX  04031 76373 32604 10000 10175 21035 38176 40115 52020 81100 90250 333 30/// 56900 58009 81830;",
"76373099999","2012-04-04T06:00:00","4","25.35","-105.75","1967.0","TEPEHUANES DGO., MX","FM-12","99999","V020","999,9,C,0000,1","22000,1,9,N","000400,1,N,1","+0119,1","-0014,1","10129,1",,,,,,"00,1,+99999,9,99,9",,"00,99,1,00,1,00,1,99999,9,00,1,00,1","0660,9","01,9",,"240,M,+0282,1","240,N,+0043,1","99999,9,08188,1","2,1,012,1,+999,9",,,"SYN106AAXX  04061 76373 32904 00000 10119 21014 38188 40129 52012 90550 333 10282 20043 30/// 55110 22327 58010;",
"76373099999","2012-04-04T12:00:00","4","25.35","-105.75","1967.0","TEPEHUANES DGO., MX","FM-12","99999","V020","999,9,C,0000,1","22000,1,9,N","000600,1,N,1","+0034,1","-0031,1","10129,1","24,0000,9,1",,,,,"00,1,+99999,9,99,9",,"00,99,1,00,1,00,1,99999,9,00,1,00,1",,"01,9","999,+0020,9","120,N,+0028,1","240,M,+0282,1","99999,9,08188,1","9,9,999,9,-010,1",,,"SYN100AAXX  04121 76373 32906 00000 10034 21031 38188 40129 5//// 91150 333 10282 20028 30020 59010 70000;","Q01  00002PRCP24"
"76373099999","2012-04-04T18:00:00","4","25.35","-105.75","1967.0","TEPEHUANES DGO., MX","FM-12","99999","V020","999,9,C,0000,1","22000,1,9,N","020000,1,N,1","+0233,1","-0095,1","10127,1",,,,,,"01,1,+05400,1,00,1",,"01,99,1,00,1,00,1,99999,9,00,1,04,1",,"01,9",,"120,M,+0245,1","240,N,+0028,1","99999,9,08186,1","7,1,014,1,-002,1",,,"SYN112AAXX  04181 76373 32970 10000 10233 21095 38186 40127 57014 80004 92050 333 10245 20028 30/// 56009 59002 81068;",
"76373099999","2012-04-04T21:00:00","4","25.35","-105.75","1967.0","TEPEHUANES DGO., MX","FM-12","99999","V020","310,1,N,0020,1","22000,1,9,N","020000,1,N,1","+0284,1","-0147,1","10086,1",,,,,,"01,1,+05400,1,00,1",,"01,99,1,00,1,00,1,99999,9,00,1,04,1",,"01,9",,,,"99999,9,08153,1","7,1,033,1,-003,1",,,"SYN100AAXX  04211 76373 32970 13102 10284 21147 38153 40086 57033 80004 92050 333 30/// 56009 59003 81068;",
"76373099999","2012-04-05T00:00:00","4","25.35","-105.75","1967.0","TEPEHUANES DGO., MX","FM-12","99999","V020","310,1,N,0020,1","22000,1,9,N","020000,1,N,1","+0259,1","-0124,1","10081,1","24,0000,9,1",,,,,,,"01,99,1,00,1,00,1,99999,9,00,1,04,1",,"01,9",,"120,M,+0304,1","180,N,+0028,1","99999,9,08149,1","5,1,004,1,-007,1",,,"SYN124AAXX  05001 76373 32970 13102 10259 21124 38149 40081 55004 80004 92350 333 10304 20028 30/// 50831 56009 59007 70000 81068;",
"76373099999","2012-04-05T03:00:00","4","25.35","-105.75","1967.0","TEPEHUANES DGO., MX","FM-12","99999","V020","999,9,C,0000,1","22000,1,9,N","000800,1,N,1","+0189,1","-0057,1","10117,1",,,,,,"00,1,+99999,9,99,9",,"00,99,1,00,1,00,1,99999,9,00,1,00,1",,"01,9",,,,"99999,9,08178,1","2,1,029,1,+002,1",,,"SYN082AAXX  05031 76373 32908 00000 10189 21057 38178 40117 52029 90250 333 30/// 58002;",
"76373099999","2012-04-05T15:00:00","4","25.35","-105.75","1967.0","TEPEHUANES DGO., MX","FM-12","99999","V020","999,9,C,0000,1","22000,1,9,N","015000,1,N,1","+0113,1","-0029,1","10150,1",,,,,,"01,1,+00810,1,06,1",,"03,99,1,01,1,04,1,01250,1,00,1,04,1",,"01,9",,,,"99999,9,08205,1","2,1,012,1,+005,1",,,"SYN106AAXX  05151 76373 32665 30000 10113 21029 38205 40150 52012 81404 91450 333 30/// 56309 58005 81627 82068;",
"76373099999","2012-04-05T18:00:00","4","25.35","-105.75","1967.0","TEPEHUANES DGO., MX","FM-12","99999","V020","070,1,N,0010,1","22000,1,9,N","030000,1,N,1","+0256,1","-0156,1","10122,1",,,,,,"03,1,+05100,1,00,1",,"03,99,1,00,1,00,1,99999,9,00,1,03,1",,"01,9",,"120,M,+0260,1","240,N,+0030,1","99999,9,08182,1","7,1,023,1,-004,1",,,"SYN112AAXX  05181 76373 32980 30701 10256 21156 38182 40122 57023 80003 91755 333 10260 20030 30/// 56009 59004 83067;",
"76373099999","2012-04-05T21:00:00","4","25.35","-105.75","1967.0","TEPEHUANES DGO., MX","FM-12","99999","V020","230,1,N,0010,1","22000,1,9,N","030000,1,N,1","+0312,2","-0179,1","10086,1",,,,,,"02,1,+01110,1,03,1",,"03,99,1,02,1,00,1,00800,1,02,1,01,1",,"01,9",,,,"99999,9,08153,1","7,1,029,1,+000,1",,,"SYN106AAXX  05211 76373 32580 32301 10312 21179 38153 40086 57029 82021 92050 333 30/// 56099 58000 82337 81067;",
"76373099999","2012-04-06T00:00:00","4","25.35","-105.75","1967.0","TEPEHUANES DGO., MX","FM-12","99999","V020","250,1,N,0020,1","22000,1,9,N","030000,1,N,1","+0272,1","-0129,1","10084,1","24,0000,9,1",,,,,"02,1,+01110,1,03,1",,"03,99,1,02,1,00,1,00800,1,02,1,01,1",,"01,9",,"120,M,+0310,1","180,N,+0030,1","99999,9,08152,1","7,1,001,1,+003,1",,,"SYN130AAXX  06001 76373 32580 32502 10272 21129 38152 40084 57001 82021 92355 333 10310 20030 30/// 50821 56099 58003 70000 82337 81067;",
"76373099999","2012-04-06T12:00:00","4","25.35","-105.75","1967.0","TEPEHUANES DGO., MX","FM-12","99999","V020","999,9,C,0000,1","22000,1,9,N","001000,1,N,1","+0062,1","-0032,1","10137,1","24,0000,9,1",,,,,"01,1,+05100,1,00,1",,"01,99,1,00,1,00,1,99999,9,00,1,01,1",,"01,9","999,+0026,9","120,N,+0030,1","240,M,+0310,1","99999,9,08195,1","9,9,999,9,+002,1",,,"SYN118AAXX  06121 76373 32910 10000 10062 21032 38195 40137 5//// 80001 91155 333 10310 20030 30026 56009 58002 70000 81067;",
"76373099999","2012-04-06T15:00:00","4","25.35","-105.75","1967.0","TEPEHUANES DGO., MX","FM-12","99999","V020","999,9,C,0000,1","22000,1,9,N","030000,1,N,1","+0134,1","-0022,1","10147,1",,,,,,"01,1,+05100,1,00,1",,"01,99,1,00,1,00,1,99999,9,00,1,01,1",,"01,9",,,,"99999,9,08202,1","2,1,007,1,+003,1",,,"SYN094AAXX  06151 76373 32980 10000 10134 21022 38202 40147 52007 80001 91455 333 30/// 58003 81067;",
"76373099999","2012-04-06T18:00:00","4","25.35","-105.75","1967.0","TEPEHUANES DGO., MX","FM-12","99999","V020","999,9,C,0000,1","22000,1,9,N","030000,1,N,1","+9999,9","+0054,1","10132,1",,,,,,"01,1,+05100,1,00,1",,"01,99,1,00,1,00,1,99999,9,00,1,01,1",,"01,9",,"120,M,+0260,1","240,N,+0030,1","99999,9,08190,1","7,1,012,1,+010,1",,,"SYN112AAXX  06181 76373 32980 10000 10256 20054 38190 40132 57012 80001 91755 333 10260 20030 30/// 56609 58010 81067;","Q01+002563ATOT  "
"76373099999","2012-04-07T03:00:00","4","25.35","-105.75","1967.0","TEPEHUANES DGO., MX","FM-12","99999","V020","999,9,C,0000,1","22000,1,9,N","000500,1,N,1","+0200,1","-0028,1","10127,1",,,,,,"00,1,+99999,9,99,9",,"00,99,1,00,1,00,1,99999,9,00,1,00,1",,"01,9",,,,"99999,9,08186,1","2,1,035,1,+002,1",,,"SYN082AAXX  07031 76373 32905 00000 10200 21028 38186 40127 52035 90255 333 30/// 58002;",
"76373099999","2012-04-07T12:00:00","4","25.35","-105.75","1967.0","TEPEHUANES DGO., MX","FM-12","99999","V020","999,9,C,0000,1","22000,1,9,N","001000,1,N,1","+0062,1","-0038,1","10157,1",,,,,,"00,1,+99999,9,99,9",,"00,99,1,00,1,00,1,99999,9,00,1,00,1","0660,9","01,9","999,+0030,9","120,N,+0040,1","240,M,+0300,1","99999,9,08210,1","9,9,999,9,+015,1",,,"SYN112AAXX  07121 76373 32910 00000 10062 21038 38210 40157 5//// 91155 333 10300 20040 30030 55110 21819 58015 70000;",
"76373099999","2012-04-07T15:00:00","4","25.35","-105.75","1967.0","TEPEHUANES DGO., MX","FM-12","99999","V020","999,9,C,0000,1","22000,1,9,N","030000,1,N,1","+0148,1","-0020,1","10165,1",,,,,,"00,1,+99999,9,99,9",,"00,99,1,00,1,00,1,99999,9,00,1,00,1",,,,,,"99999,9,08217,1","7,1,007,1,+999,9",,,"SYN083AAXX  07151 76373 32980 00000 10148 21020 38217 40165 57007 91435 333 30/ // 58015;",
"76373099999","2012-04-07T18:00:00","4","25.35","-105.75","1967.0","TEPEHUANES DGO., MX","FM-12","99999","V020","999,9,C,0000,1","22000,1,9,N","020000,1,N,1","+0266,1","-0037,1","10157,1",,,,,,"02,1,+00840,1,08,1",,"02,99,1,02,1,02,1,01250,1,00,1,00,1",,"01,9",,"120,M,+0280,1","240,N,+0040,1","99999,9,08210,1","7,1,007,1,+030,1",,,"SYN112AAXX  07181 76373 32670 20000 10266 21037 38210 40157 57007 82200 91750 333 10280 20040 30/// 56900 58030 82828;",
"76373099999","2012-04-07T21:00:00","4","25.35","-105.75","1967.0","TEPEHUANES DGO., MX","FM-12","99999","V020","110,1,N,0010,1","22000,1,9,N","020000,1,N,1","+0312,1","-0026,1","10122,1",,,,,,"03,1,+00900,1,08,1",,"04,99,1,04,1,02,1,01250,1,00,1,00,1",,"01,9",,,,"99999,9,08182,1","2,1,028,1,+018,1",,,"SYN106AAXX  07211 76373 32670 41101 10312 21026 38182 40122 52028 84200 92050 333 30/// 56900 58018 83830 81627;",
"76373099999","2012-04-08T00:00:00","4","25.35","-105.75","1967.0","TEPEHUANES DGO., MX","FM-12","99999","V020","260,1,N,0010,1","22000,1,9,N","020000,1,N,1","+0284,1","-0050,1","10119,1","24,0000,9,1",,,,,,,"02,99,1,02,1,02,1,01250,1,00,1,00,1",,"01,9",,"120,M,+0334,1","180,N,+0040,1","99999,9,08180,1","5,1,002,1,+026,1",,,"SYN124AAXX  08001 76373 32670 22601 10284 21050 38180 40119 55002 82200 92350 333 10334 20040 30/// 50781 56900 58026 70000 82828;",
"76373099999","2012-04-08T03:00:00","4","25.35","-105.75","1967.0","TEPEHUANES DGO., MX","FM-12","99999","V020","999,9,C,0000,1","22000,1,9,N","000800,1,N,1","+0199,1","-0024,1","10160,1",,,,,,"01,1,+00900,1,08,1",,"01,99,1,01,1,02,1,01250,1,00,1,00,1",,"01,9",,,,"99999,9,08213,1","2,1,033,1,+027,1",,,"SYN100AAXX  08031 76373 32608 10000 10199 21024 38213 40160 52033 81200 90250 333 30/// 56900 58027 81830;",
"76373099999","2012-04-08T06:00:00","4","25.35","-105.75","1967.0","TEPEHUANES DGO., MX","FM-12","99999","V020","999,9,C,0000,1","22000,1,9,N","000600,1,N,1","+0149,1","-0018,1","10184,1",,,,,,,,"01,99,1,01,1,02,1,01250,1,00,1,00,1","0642,9","01,9",,"240,M,+0334,1","240,N,+0040,1","99999,9,08233,1","2,1,019,1,+030,1",,,"SYN124AAXX  08061 76373 32606 10000 10149 21018 38233 40184 52019 81200 90550 333 10334 20040 30/// 55107 22311 56300 58030 81830;",
"76373099999","2012-04-08T12:00:00","4","25.35","-105.75","1967.0","TEPEHUANES DGO., MX","FM-12","99999","V020","999,9,C,0000,1","22000,1,9,N","000800,1,N,1","+0080,1","-0012,1","10185,1","24,0000,9,1",,,,,"00,1,+99999,9,99,9",,"00,99,1,00,1,00,1,99999,9,00,1,00,1",,"01,9",,"120,N,+0065,1","240,M,+0334,1","99999,9,08233,1","9,9,999,9,+023,1",,,"SYN100AAXX  08121 76373 32908 00000 10080 21012 38233 40185 5//// 91150 333 10334 20065 30054 58023 70000;","Q01  00002PRCP24"
"76373099999","2012-04-08T15:00:00","4","25.35","-105.75","1967.0","TEPEHUANES DGO., MX","FM-12","99999","V020","999,9,C,0000,1","22000,1,9,N","015000,1,N,1","+0176,1","-0013,1","10200,1",,,,,,"01,1,+05400,1,00,1",,"01,99,1,00,1,00,1,99999,9,00,1,04,1",,"01,9",,,,"99999,9,08245,1","2,1,012,1,+028,1",,,"SYN100AAXX  08151 76373 32965 10000 10176 21013 38245 40200 52012 80004 91450 333 30/// 56009 58028 81068;",
"76373099999","2012-04-08T18:00:00","4","25.35","-105.75","1967.0","TEPEHUANES DGO., MX","FM-12","99999","V020","150,1,N,0010,1","22000,1,9,N","020000,1,N,1","+0257,1","+0048,1","10188,1",,,,,,"01,1,+00900,1,08,1",,"01,99,1,01,1,02,1,01250,1,00,1,00,1",,"01,9",,"120,M,+0271,1","240,N,+0065,1","99999,9,08236,1","7,1,009,1,+026,1",,,"SYN112AAXX  08181 76373 32670 11501 10257 20048 38236 40188 57009 81200 91750 333 10271 20065 30/// 56900 58026 81830;",
"76373099999","2012-04-08T21:00:00","4","25.35","-105.75","1967.0","TEPEHUANES DGO., MX","FM-12","99999","V020","090,1,N,0010,1","22000,1,9,N","020000,1,N,1","+0300,1","+0027,1","10152,1",,,,,,"03,1,+00900,1,08,1",,"03,99,1,03,1,02,1,01250,1,00,1,00,1",,"01,9",,,,"99999,9,08206,1","7,1,030,1,+024,1",,,"SYN100AAXX  08211 76373 32670 30901 10300 20027 38206 40152 57030 83200 92050 333 30/// 56900 58024 83830;",
"76373099999","2012-04-09T00:00:00","4","25.35","-105.75","1967.0","TEPEHUANES DGO., MX","FM-12","99999","V020","140,1,N,0010,1","00750,1,9,N","020000,1,N,1","+0277,1","+0021,1","10131,1","24,0000,9,1",,,,,,,"07,99,1,07,1,06,1,00800,1,00,1,00,1",,"01,9",,"120,M,+0330,1","180,N,+0065,1","99999,9,08190,1","7,1,016,1,+010,1",,,"SYN124AAXX  09001 76373 32570 71401 10277 20021 38190 40131 57016 87600 92350 333 10330 20065 30/// 50791 56900 58010 70000 87625;",
"76373099999","2012-04-09T03:00:00","4","25.35","-105.75","1967.0","TEPEHUANES DGO., MX","FM-12","99999","V020","999,9,C,0000,1","09000,1,9,N","000600,1,N,1","+0221,1","+0077,1","10166,1",,,,,,,,"08,99,1,02,1,00,1,00800,1,02,1,08,1",,,,,,"99999,9,08218,1","9,9,999,9,+005,1",,,"SYN100AAXX  09031 76373 32506 80000 10221 20077 38218 40166 82028 88700 90250 333 30/// 56900 58005 88723;",
"76373099999","2012-04-09T12:00:00","4","25.35","-105.75","1967.0","TEPEHUANES DGO., MX","FM-12","99999","V020","999,9,C,0000,1","22000,1,9,N","000600,1,N,1","+0102,1","+0052,1","10130,1","24,0000,9,1",,,,,"00,1,+99999,9,99,9",,"00,99,1,00,1,00,1,99999,9,00,1,00,1",,"01,9",,"120,N,+0090,1","240,M,+0330,1","99999,9,08189,1","9,9,999,9,-044,1",,,"SYN100AAXX  09121 76373 32906 00000 10102 20052 38189 40130 5//// 91150 333 10330 20090 30081 59044 70000;","Q01  00002PRCP24"
"76373099999","2012-04-09T15:00:00","4","25.35","-105.75","1967.0","TEPEHUANES DGO., MX","FM-12","99999","V020","999,9,C,0000,1","22000,1,9,N","020000,1,N,1","+0170,1","+0070,1","99999,9",,,,,,"00,1,+99999,9,99,9",,"00,99,1,00,1,00,1,99999,9,00,1,00,1",,"01,9",,,,"99999,9,08248,1","0,1,009,1,+003,1",,,"SYN082AAXX  09151 76373 32970 00000 10170 20070 38248 40203 50009 91450 333 30/// 58003;","Q01+102033APOSLP"
"76373099999","2012-04-09T18:00:00","4","25.35","-105.75","1967.0","TEPEHUANES DGO., MX","FM-12","99999","V020","150,1,N,0010,1","22000,1,9,N","020000,1,N,1","+0247,1","+0086,1","10178,1",,,,,,"01,1,+00900,1,08,1",,"01,99,1,01,1,02,1,01250,1,00,1,00,1",,"01,9",,"120,M,+0258,1","240,N,+0090,1","99999,9,08227,1","7,1,021,1,-009,1",,,"SYN112AAXX  09181 76373 32670 11501 10247 20086 38227 40178 57021 81200 91750 333 10258 20090 30/// 56900 59009 81830;",
"76373099999","2012-04-09T21:00:00","4","25.35","-105.75","1967.0","TEPEHUANES DGO., MX","FM-12","99999","V020","140,1,N,0010,1","00750,1,9,N","020000,1,N,1","+0265,1","+0063,1","10140,1",,,,,,"06,1,+00750,1,07,1",,"06,99,1,06,1,06,1,00800,1,00,1,00,1",,"01,9",,,,"99999,9,08197,1","7,1,030,1,-009,1",,,"SYN100AAXX  09211 76373 32570 61401 10265 20063 38197 40140 57030 86600 92050 333 30/// 56900 59009 86725;",
"76373099999","2012-04-10T00:00:00","4","25.35","-105.75","1967.0","TEPEHUANES DGO., MX","FM-12","99999","V020","140,1,N,0010,1","00750,1,9,N","020000,1,N,1","+0269,1","+0043,1","10121,1","24,0000,9,1",,,,,,,"06,99,1,06,1,06,1,00800,1,00,1,00,1",,"01,9",,"120,M,+0311,1","180,N,+0090,1","99999,9,08182,1","5,1,015,1,-008,1",,,"SYN124AAXX  10001 76373 32570 61401 10269 20043 38182 40121 55015 86600 92350 333 10311 20090 30/// 50801 56900 59008 70000 86623;",
"76373099999","2012-04-10T03:00:00","4","25.35","-105.75","1967.0","TEPEHUANES DGO., MX","FM-12","99999","V020","999,9,C,0000,1","22000,1,9,N","000600,1,N,1","+0209,1","+0035,1","10147,1",,,,,,"01,1,+00900,1,08,1",,"01,99,1,01,1,02,1,01250,1,00,1,00,1",,"01,9",,,,"99999,9,08202,1","2,1,020,1,-016,1",,,"SYN100AAXX  10031 76373 32606 10000 10209 20035 38202 40147 52020 81200 90250 333 30/// 56900 59016 81830;",
"76373099999","2012-04-10T06:00:00","4","25.35","-105.75","1967.0","TEPEHUANES DGO., MX","FM-12","99999","V020","999,9,C,0000,1","22000,1,9,N","000600,1,N,1","+0154,1","+0014,1","10167,1",,,,,,"00,1,+99999,9,99,9",,"00,99,1,00,1,00,1,99999,9,00,1,00,1","0540,9","01,9",,"240,M,+0311,1","240,N,+0090,1","99999,9,08218,1","2,1,016,1,+999,9",,,"SYN106AAXX  10061 76373 32906 00000 10154 20014 38218 40167 52016 90550 333 10311 20090 30/// 55090 2//// 59014;",
"76373099999","2012-04-10T12:00:00","4","25.35","-105.75","1967.0","TEPEHUANES DGO., MX","FM-12","99999","V020","999,9,C,0000,1","22000,1,9,N","000600,1,N,1","+0070,1","-0003,1","10168,1","24,0000,9,1",,,,,"01,1,+05400,1,00,1",,"01,99,1,00,1,00,1,99999,9,00,1,04,1",,"01,9","999,+0050,9","120,N,+0059,1","240,M,+0311,1","99999,9,08219,1","9,9,999,9,+010,1",,,"SYN118AAXX  10121 76373 32906 10000 10070 21003 38219 40168 5//// 80004 91150 333 10311 20059 30050 56009 58010 70000 81068;",
"76373099999","2012-04-10T15:00:00","4","25.35","-105.75","1967.0","TEPEHUANES DGO., MX","FM-12","99999","V020","999,9,C,0000,1","22000,1,9,N","020000,1,N,1","+9999,9","+9999,9","10176,1",,,,,,"00,1,+99999,9,99,9",,"00,99,1,00,1,00,1,99999,9,00,1,00,1",,"01,9",,,,"99999,9,08225,1","2,1,006,1,-023,1",,,"SYN076AAXX  10151 76373 32970 00000 20002 38225 40176 52006 91450 333 30/// 59023;",
"76373099999","2012-04-10T21:00:00","4","25.35","-105.75","1967.0","TEPEHUANES DGO., MX","FM-12","99999","V020","120,1,N,0010,1","22000,1,9,N","020000,1,N,1","+0313,1","-0023,1","10121,1",,,,,,"01,1,+00750,1,06,1",,"03,99,1,03,1,02,1,01250,1,00,1,00,1",,"01,9",,,,"99999,9,08181,1","7,1,033,1,-016,1",,,"SYN106AAXX  10211 76373 32670 31201 10313 21023 38181 40121 57033 83200 92050 333 30/// 56900 59016 81625 82830;",
"76373099999","2012-04-11T00:00:00","4","25.35","-105.75","1967.0","TEPEHUANES DGO., MX","FM-12","99999","V020","270,1,N,0010,1","22000,1,9,N","020000,1,N,1","+0283,1","-0020,1","10111,1","24,0000,9,1",,,,,"02,1,+00750,1,06,1",,"04,99,1,04,1,04,1,01250,1,00,1,00,1",,"01,9",,"120,M,+0333,1","180,N,+0059,1","99999,9,08173,1","6,1,008,1,-009,1",,,"SYN130AAXX  11001 76373 32670 42701 10283 21020 38173 40111 56008 84400 92350 333 10333 20059 30/// 50921 56900 59009 70000 82625 82830;",
"76373099999","2012-04-11T03:00:00","4","25.35","-105.75","1967.0","TEPEHUANES DGO., MX","FM-12","99999","V020","999,9,C,0000,1","22000,1,9,N","000600,1,N,1","+0212,1","-0013,1","10145,1",,,,,,"01,1,+00900,1,08,1",,"01,99,1,01,1,02,1,01250,1,00,1,00,1",,"01,9",,,,"99999,9,08201,1","2,1,028,1,-001,1",,,"SYN100AAXX  11031 76373 32606 10000 10212 21013 38201 40145 52028 81200 90250 333 30/// 56900 59001 81830;",
"76373099999","2012-04-11T12:00:00","4","25.35","-105.75","1967.0","TEPEHUANES DGO., MX","FM-12","99999","V020","999,9,C,0000,1","22000,1,9,N","000600,1,N,1","+0068,1","-0015,1","10167,1","24,0000,9,1",,,,,"00,1,+99999,9,99,9",,"00,99,1,00,1,00,1,99999,9,00,1,00,1",,"01,9",,"120,N,+0060,1","240,M,+0333,1","99999,9,08219,1","9,9,999,9,+000,1",,,"SYN100AAXX  11121 76373 32906 00000 10068 21015 38219 40167 5//// 91150 333 10333 20060 30051 58000 70000;","Q01  00002PRCP24"
"76373099999","2012-04-11T15:00:00","4","25.35","-105.75","1967.0","TEPEHUANES DGO., MX","FM-12","99999","V020","999,9,C,0000,1","22000,1,9,N","015000,1,N,1","+0164,1","-0010,1","10170,1",,,,,,"00,1,+99999,9,99,9",,"00,99,1,00,1,00,1,99999,9,00,1,00,1",,"01,9",,,,"99999,9,08221,1","3,1,002,1,-004,1",,,"SYN082AAXX  11151 76373 32965 00000 10164 21010 38221 40170 53002 91450 333 30/// 59004;",
"76373099999","2012-04-11T18:00:00","4","25.35","-105.75","1967.0","TEPEHUANES DGO., MX","FM-12","99999","V020","999,9,C,0000,1","22000,1,9,N","030000,1,N,1","+0280,1","+9999,9","10155,1",,,,,,"00,1,+99999,9,99,9",,"00,99,1,00,1,00,1,99999,9,00,1,00,1",,"01,9",,"120,M,+0290,1","240,N,+0060,1","99999,9,08208,1","2,1,004,1,-006,1",,,"SYN094AAXX  11181 76373 32980 00000 10280 20127 38208 40155 52004 91755 333 10290 20060 30/// 59006;","Q01+001273ATOD  Q02 +01273ATOD  "
"76373099999","2012-04-11T21:00:00","4","25.35","-105.75","1967.0","TEPEHUANES DGO., MX","FM-12","99999","V020","290,1,N,0020,1","22000,1,9,N","030000,1,N,1","+0311,1","-0095,1","10127,1",,,,,,"00,1,+99999,9,99,9",,"00,99,1,00,1,00,1,99999,9,00,1,00,1",,"01,9",,,,"99999,9,08186,1","7,1,042,1,+005,1",,,"SYN082AAXX  11211 76373 32980 02902 10311 21095 38186 40127 57042 92050 333 30/// 58005;",
"76373099999","2012-04-12T00:00:00","4","25.35","-105.75","1967.0","TEPEHUANES DGO., MX","FM-12","99999","V020","320,1,N,0020,1","22000,1,9,N","030000,1,N,1","+0274,1","-0053,1","10134,1","24,0000,9,1",,,,,"00,1,+99999,9,99,9",,"00,99,1,00,1,00,1,99999,9,00,1,00,1",,"01,9",,"120,M,+0328,1","180,N,+0060,1","99999,9,08192,1","2,1,006,1,-007,1",,,"SYN106AAXX  12001 76373 32980 03202 10274 21053 38192 40134 52006 92355 333 10328 20060 30/// 50105 59007 70000;","Q01  00002PRCP24"
"76373099999","2012-04-12T03:00:00","4","25.35","-105.75","1967.0","TEPEHUANES DGO., MX","FM-12","99999","V020","320,1,N,0010,1","22000,1,9,N","001000,1,N,1","+0212,1","+0001,1","10150,1",,,,,,"00,1,+99999,9,99,9",,"00,99,1,00,1,00,1,99999,9,00,1,00,1",,"01,9",,,,"99999,9,08205,1","2,1,013,1,+004,1",,,"SYN082AAXX  12031 76373 32910 03201 10212 20001 38205 40150 52013 90250 333 30/// 58004;",
"76373099999","2012-04-12T12:00:00","4","25.35","-105.75","1967.0","TEPEHUANES DGO., MX","FM-12","99999","V020","999,9,C,0000,1","22000,1,9,N","001000,1,N,1","+0098,1","-0011,1","10155,1","24,0000,9,1",,,,,"01,1,+05400,1,00,1",,"01,99,1,00,1,00,1,99999,9,00,1,04,1",,"01,9",,"120,N,+0085,1",,"99999,9,08209,1","9,9,999,9,-010,1",,,"SYN112AAXX  12121 76373 32910 10000 10098 21011 38209 40155 5//// 80004 91155 333 20085 30078 56009 59010 70000 81068;",
"76373099999","2012-04-12T15:00:00","4","25.35","-105.75","1967.0","TEPEHUANES DGO., MX","FM-12","99999","V020","999,9,C,0000,1","22000,1,9,N","020000,1,N,1","+0172,1","+0003,1","10183,1",,,,,,"00,1,+99999,9,99,9",,"00,99,1,00,1,00,1,99999,9,00,1,00,1",,"01,9",,,,"99999,9,08231,1","2,1,022,1,+013,1",,,"SYN082AAXX  12151 76373 32970 00000 10172 20003 38231 40183 52022 91450 333 30/// 58013;",
"76373099999","2012-04-12T18:00:00","4","25.35","-105.75","1967.0","TEPEHUANES DGO., MX","FM-12","99999","V020","999,9,C,0000,1","22000,1,9,N","030000,1,N,1","+0280,1","-0043,1","10151,1",,,,,,"00,1,+99999,9,99,9",,"00,99,1,00,1,00,1,99999,9,00,1,00,1",,"01,9",,"120,M,+0290,1","240,N,+0085,1","99999,9,08206,1","7,1,025,1,-002,1",,,"SYN094AAXX  12181 76373 32980 00000 10280 21043 38206 40151 57025 91750 333 10290 20085 30/// 59002;",
"76373099999","2012-04-12T21:00:00","4","25.35","-105.75","1967.0","TEPEHUANES DGO., MX","FM-12","99999","V020","290,1,N,0010,1","22000,1,9,N","030000,1,N,1","+0317,1","-0124,1","10155,1",,,,,,"00,1,+99999,9,99,9",,"00,99,1,00,1,00,1,99999,9,00,1,00,1",,"01,9",,,,"99999,9,08177,1","7,1,029,1,-009,1",,,"SYN082AAXX  12211 76373 32980 02901 10317 21124 38177 40155 57029 92050 333 30/// 59009;",
"76373099999","2012-04-13T00:00:00","4","25.35","-105.75","1967.0","TEPEHUANES DGO., MX","FM-12","99999","V020","250,1,N,0020,1","22000,1,9,N","030000,1,N,1","+0280,1","-0034,1","10147,1","24,0000,9,1",,,,,"00,1,+99999,9,99,9",,"00,99,1,00,1,00,1,99999,9,00,1,00,1",,"01,9",,"120,M,+0332,1","180,N,+0085,1","99999,9,08202,1","2,1,025,1,+010,1",,,"SYN106AAXX  13001 76373 32980 02502 10280 21034 38202 40147 52025 92350 333 10332 20085 30/// 50101 58010 70000;","Q01  00002PRCP24"
"76373099999","2012-04-13T03:00:00","4","25.35","-105.75","1967.0","TEPEHUANES DGO., MX","FM-12","99999","V020","999,9,C,0000,1","22000,1,9,N","001000,1,N,1","+0197,1","-0045,1","10143,1",,,,,,"00,1,+99999,9,99,9",,"00,99,1,00,1,00,1,99999,9,00,1,00,1",,"01,9",,,,"99999,9,08199,1","2,1,009,1,-006,1",,,"SYN082AAXX  13031 76373 32910 00000 10197 21045 38199 40143 52009 90250 333 30/// 59006;",
"76373099999","2012-04-13T15:00:00","4","25.35","-105.75","1967.0","TEPEHUANES DGO., MX","FM-12","99999","V020","999,9,C,0000,1","22000,1,9,N","020000,1,N,1","+0125,1","-0026,1","10155,1",,,,,,"00,1,+99999,9,99,9",,"00,99,1,00,1,00,1,99999,9,00,1,00,1",,"01,9",,,,"99999,9,08209,1","2,1,008,1,-022,1",,,"SYN082AAXX  13151 76373 32970 00000 10125 21026 38209 40155 52008 91455 333 30/// 59022;",
"76373099999","2012-04-13T18:00:00","4","25.35","-105.75","1967.0","TEPEHUANES DGO., MX","FM-12","99999","V020","999,9,C,0000,1","22000,1,9,N","030000,1,N,1","+0278,1","-0090,1","10124,1",,,,,,"00,1,+99999,9,99,9",,"00,99,1,00,1,00,1,99999,9,00,1,00,1",,"01,9",,"120,M,+0295,1","240,N,+0039,1","99999,9,08184,1","7,1,024,1,-022,1",,,"SYN094AAXX  13181 76373 32980 00000 10278 21090 38184 40124 57024 91750 333 10295 20039 30/// 59022;",
"76373099999","2012-04-13T21:00:00","4","25.35","-105.75","1967.0","TEPEHUANES DGO., MX","FM-12","99999","V020","250,1,N,0010,1","22000,1,9,N","030000,1,N,1","+0314,2","-0167,1","10107,1",,,,,,"00,1,+99999,9,99,9",,"00,99,1,00,1,00,1,99999,9,00,1,00,1",,"01,9",,,,"99999,9,08170,1","7,1,014,1,-004,1",,,"SYN082AAXX  13211 76373 32980 02501 10314 21167 38170 40107 57014 92050 333 30/// 59004;",
"76373099999","2012-04-14T00:00:00","4","25.35","-105.75","1967.0","TEPEHUANES DGO., MX","FM-12","99999","V020","230,1,N,0010,1","22000,1,9,N","030000,1,N,1","+0272,1","-0153,1","10109,1","24,0000,9,1",,,,,"00,1,+99999,9,99,9",,"00,99,1,00,1,00,1,99999,9,00,1,00,1",,"01,9",,"120,M,+0330,1","180,N,+0039,1","99999,9,08172,1","2,1,002,1,-036,1",,,"SYN106AAXX  14001 76373 32980 02301 10272 21153 38172 40109 52002 92350 333 10330 20039 30/// 50971 59036 70000;","Q01  00002PRCP24"
"76373099999","2012-04-14T03:00:00","4","25.35","-105.75","1967.0","TEPEHUANES DGO., MX","FM-12","99999","V020","999,9,C,0000,1","22000,1,9,N","001000,1,N,1","+0185,1","-0053,1","10139,1",,,,,,"00,1,+99999,9,99,9",,"00,99,1,00,1,00,1,99999,9,00,1,00,1",,"01,9",,,,"99999,9,08196,1","2,1,024,1,+009,1",,,"SYN082AAXX  14031 76373 32910 00000 10185 21053 38196 40139 52024 90255 333 30/// 58009;",
"76373099999","2012-04-14T06:00:00","4","25.35","-105.75","1967.0","TEPEHUANES DGO., MX","FM-12","99999","V020","999,9,C,0000,1","22000,1,9,N","001000,1,N,1","+0154,1","+0008,1","10155,1",,,,,,"00,1,+99999,9,99,9",,"00,99,1,00,1,00,1,99999,9,00,1,00,1","0642,9","01,9",,"240,M,+0330,1","240,N,+0039,1","99999,9,08209,1","2,1,013,1,+999,9",,,"SYN106AAXX  14061 76373 32910 00000 10154 20008 38209 40155 52013 90550 333 10330 20039 30/// 55107 22351 58001;",
"76373099999","2012-04-14T12:00:00","4","25.35","-105.75","1967.0","TEPEHUANES DGO., MX","FM-12","99999","V020","999,9,C,0000,1","22000,1,9,N","001000,1,N,1","+0036,1","-0043,1","10134,1","24,0000,9,1",,,,,"00,1,+99999,9,99,9",,"00,99,1,00,1,00,1,99999,9,00,1,00,1",,"01,9","999,+0010,9","120,N,+0020,1","240,M,+0330,1","99999,9,08196,1","9,9,999,9,-005,1",,,"SYN100AAXX  14121 76373 32910 00000 10036 21043 38196 40134 5//// 91150 333 10330 20020 30010 59005 70000;","Q01  00002PRCP24"
"76373099999","2012-04-14T15:00:00","4","25.35","-105.75","1967.0","TEPEHUANES DGO., MX","FM-12","99999","V020","999,9,C,0000,1","22000,1,9,N","020000,1,N,1","+0120,1","-0044,1","10147,1",,,,,,"00,1,+99999,9,99,9",,"00,99,1,00,1,00,1,99999,9,00,1,00,1",,"01,9",,,,"99999,9,08202,1","2,1,006,1,-007,1",,,"SYN082AAXX  14151 76373 32970 00000 10120 21044 38202 40147 52006 91450 333 30/// 59007;",
"76373099999","2012-04-14T18:00:00","4","25.35","-105.75","1967.0","TEPEHUANES DGO., MX","FM-12","99999","V020","230,1,N,0010,1","22000,1,9,N","030000,1,N,1","+0272,2","-0125,1","10132,1",,,,,,"00,1,+99999,9,99,9",,"00,99,1,00,1,00,1,99999,9,00,1,00,1",,"01,9",,"120,M,+0280,1","240,N,+0039,1","99999,9,08190,1","2,1,012,1,+006,1",,,"SYN094AAXX  14181 76373 32980 02301 10272 21125 38190 40132 52012 91755 333 10280 20039 30/// 58006;",
"76373099999","2012-04-14T21:00:00","4","25.35","-105.75","1967.0","TEPEHUANES DGO., MX","FM-12","99999","V020","230,1,N,0020,1","22000,1,9,N","030000,1,N,1","+0230,1","-0184,1","10107,1",,,,,,"00,1,+99999,9,99,9",,"00,99,1,00,1,00,1,99999,9,00,1,00,1",,"01,9",,,,"99999,9,08171,1","7,1,020,1,+001,1",,,"SYN082AAXX  14211 76373 32980 02302 10230 21184 38171 40107 57020 92055 333 30/// 58001;",
"76373099999","2012-04-15T00:00:00","4","25.35","-105.75","1967.0","TEPEHUANES DGO., MX","FM-12","99999","V020","220,1,N,0010,1","22000,1,9,N","020000,1,N,1","+0243,1","-0144,1","10097,1","24,0000,9,1",,,,,"00,1,+99999,9,99,9",,"00,99,1,00,1,00,1,99999,9,00,1,00,1",,"01,9",,"120,M,+0297,1","180,N,+0022,1","99999,9,08162,1","7,1,008,1,-010,1",,,"SYN106AAXX  15001 76373 32970 02201 10243 21144 38162 40097 57008 92350 333 10297 20022 30/// 51531 59010 70000;","Q01  00002PRCP24"
"76373099999","2012-04-15T03:00:00","4","25.35","-105.75","1967.0","TEPEHUANES DGO., MX","FM-12","99999","V020","999,9,C,0000,1","22000,1,9,N","005000,1,N,1","+0171,1","-0075,1","10119,1",,,,,,"00,1,+99999,9,99,9",,"00,99,1,00,1,00,1,99999,9,00,1,00,1",,"01,9",,,,"99999,9,08180,1","2,1,018,1,-016,1",,,"SYN082AAXX  15031 76373 32950 00000 10171 21075 38180 40119 52018 90250 333 30/// 59016;",
"76373099999","2012-04-15T06:00:00","4","25.35","-105.75","1967.0","TEPEHUANES DGO., MX","FM-12","99999","V020","999,9,C,0000,1","22000,1,9,N","005000,1,N,1","+0124,1","-0031,1","10130,1",,,,,,"00,1,+99999,9,99,9",,"00,99,1,00,1,00,1,99999,9,00,1,00,1","0654,9","01,9",,"240,M,+0297,1","240,N,+0022,1","99999,9,08189,1","2,1,009,1,+999,9",,,"SYN106AAXX  15061 76373 32950 00000 10124 21031 38189 40130 52009 90550 333 10297 20022 30/// 55109 22496 59020;",
"76373099999","2012-04-15T12:00:00","4","25.35","-105.75","1967.0","TEPEHUANES DGO., MX","FM-12","99999","V020","999,9,C,0000,1","22000,1,9,N","005000,1,N,1","+0021,1","-0064,1","10128,1",,,,,,"00,1,+99999,9,99,9",,"00,99,1,00,1,00,1,99999,9,00,1,00,1","0654,9","01,9","999,+0005,9","120,N,+0013,1","240,M,+0297,1","99999,9,08187,1","9,9,999,9,-007,1",,,"SYN112AAXX  15121 76373 32950 00000 10021 21064 38187 40128 5//// 91150 333 10297 20013 30005 55109 22496 59007 70000;",
"76373099999","2012-04-15T18:00:00","4","25.35","-105.75","1967.0","TEPEHUANES DGO., MX","FM-12","99999","V020","290,1,N,0010,1","22000,1,9,N","020000,1,N,1","+0259,1","-0001,1","10114,1",,,,,,"00,1,+99999,9,99,9",,"00,99,1,00,1,00,1,99999,9,00,1,00,1",,"01,9",,"120,M,+0265,1","240,N,+0013,1","99999,9,08175,1","7,1,003,1,-015,1",,,"SYN094AAXX  15181 76373 32970 02901 10259 21001 38175 40114 57003 91750 333 10265 20013 30/// 59015;",
"76373099999","2012-04-15T21:00:00","4","25.35","-105.75","1967.0","TEPEHUANES DGO., MX","FM-12","99999","V020","250,1,N,0020,1","22000,1,9,N","020000,1,N,1","+0278,1","+9999,9","10099,1",,,,,,"00,1,+99999,9,99,9",,"00,99,1,00,1,00,1,99999,9,00,1,00,1",,"01,9",,,,"99999,9,08164,1","7,1,011,1,-006,1",,,"SYN082AAXX  15211 76373 32970 02502 10278 21160 38164 40099 57011 92050 333 30/// 59006;","Q01-001603ATOD  "
"76373099999","2012-04-16T03:00:00","4","25.35","-105.75","1967.0","TEPEHUANES DGO., MX","FM-12","99999","V020","999,9,C,0000,1","22000,1,9,N","005000,1,N,1","+0166,1","-0103,1","10129,1",,,,,,"00,1,+99999,9,99,9",,"00,99,1,00,1,00,1,99999,9,00,1,00,1",,"01,9",,,,"99999,9,08188,1","9,9,999,9,+008,1",,,"SYN082AAXX  16031 76373 32950 00000 10166 21103 38188 40129 5//// 90250 333 30/// 58008;",
"76373099999","2012-04-16T06:00:00","4","25.35","-105.75","1967.0","TEPEHUANES DGO., MX","FM-12","99999","V020","999,9,C,0000,1","22000,1,9,N","005000,1,N,1","+0103,1","-0087,1","10144,1",,,,,,"00,1,+99999,9,99,9",,"00,99,1,00,1,00,1,99999,9,00,1,00,1","0660,9","01,9",,"240,M,+0290,1","240,N,+0013,1","99999,9,08200,1","2,1,012,1,+999,9",,,"SYN106AAXX  16061 76373 32950 00000 10103 21087 38200 40144 52012 90545 333 10290 20013 30/// 55110 22625 58011;",
"76373099999","2012-04-16T15:00:00","4","25.35","-105.75","1967.0","TEPEHUANES DGO., MX","FM-12","99999","V020","999,9,C,0000,1","22000,1,9,N","020000,1,N,1","+0120,1","-0073,1","10165,1",,,,,,"00,1,+99999,9,99,9",,"00,99,1,00,1,00,1,99999,9,00,1,00,1",,"01,9",,,,"99999,9,08217,1","9,9,999,9,+036,1",,,"SYN082AAXX  16151 76373 32970 00000 10120 21073 38217 40165 5//// 91450 333 30/// 58036;",
"76373099999","2012-04-16T21:00:00","4","25.35","-105.75","1967.0","TEPEHUANES DGO., MX","FM-12","99999","V020","999,9,C,0000,1","22000,1,9,N","030000,1,N,1","+0285,1","-0118,1","10117,1",,,,,,"00,1,+99999,9,99,9",,"00,99,1,00,1,00,1,99999,9,00,1,00,1",,"01,9",,,,"99999,9,08178,1","7,1,011,1,-014,1",,,"SYN082AAXX  16211 76373 32980 00000 10285 21118 38178 40117 57011 92050 333 30/// 59014;",
"76373099999","2012-04-17T00:00:00","4","25.35","-105.75","1967.0","TEPEHUANES DGO., MX","FM-12","99999","V020","290,1,N,0010,1","22000,1,9,N","030000,1,N,1","+0285,1","-0162,1","10103,1","24,0000,9,1",,,,,"00,1,+99999,9,99,9",,"00,99,1,00,1,00,1,99999,9,00,1,00,1",,"01,9",,"120,M,+0321,1","180,N,+0001,1","99999,9,08167,1","7,1,011,1,+009,1",,,"SYN106AAXX  17001 76373 32980 02901 10285 21162 38167 40103 57011 92350 333 10321 20001 30/// 50581 58009 70000;","Q01  00002PRCP24"
"76373099999","2012-04-17T03:00:00","4","25.35","-105.75","1967.0","TEPEHUANES DGO., MX","FM-12","99999","V020","999,9,C,0000,1","22000,1,9,N","001000,1,N,1","+0192,1","-0112,1","10134,1",,,,,,"00,1,+99999,9,99,9",,"00,99,1,00,1,00,1,99999,9,00,1,00,1",,"01,9",,,,"99999,9,08192,1","2,1,025,1,+004,1",,,"SYN082AAXX  17031 76373 32910 00000 10192 21112 38192 40134 52025 90255 333 30/// 58004;",
"76373099999","2012-04-17T06:00:00","4","25.35","-105.75","1967.0","TEPEHUANES DGO., MX","FM-12","99999","V020","999,9,C,0000,1","22000,1,9,N","001000,1,N,1","+0126,1","-0100,1","10172,1",,,,,,"00,1,+99999,9,99,9",,"00,99,1,00,1,00,1,99999,9,00,1,00,1","0600,9","01,9",,"240,M,+0321,1","240,N,+0001,1","99999,9,08222,1","2,1,030,1,+999,9",,,"SYN106AAXX  17061 76373 32910 00000 10126 21100 38222 40172 52030 90550 333 10321 20001 30/// 55100 22174 58022;",
"76373099999","2012-04-17T12:00:00","4","25.35","-105.75","1967.0","TEPEHUANES DGO., MX","FM-12","99999","V020","999,9,C,0000,1","22000,1,9,N","001000,1,N,1","+0046,1","-0068,1","10173,1","24,0000,9,1",,,,,"00,1,+99999,9,99,9",,"00,99,1,00,1,00,1,99999,9,00,1,00,1",,"01,9","999,+0020,9","120,N,+0029,1","240,M,+0321,1","99999,9,08223,1","9,9,999,9,+015,1",,,"SYN100AAXX  17121 76373 32910 00000 10046 21068 38223 40173 5//// 91155 333 10321 20029 30020 58015 70000;","Q01  00002PRCP24"
"76373099999","2012-04-17T15:00:00","4","25.35","-105.75","1967.0","TEPEHUANES DGO., MX","FM-12","99999","V020","999,9,C,0000,1","22000,1,9,N","020000,1,N,1","+0155,1","-0061,1","10193,1",,,,,,"00,1,+99999,9,99,9",,"00,99,1,00,1,00,1,99999,9,00,1,00,1",,"01,9",,,,"99999,9,08240,1","2,1,017,1,+023,1",,,"SYN082AAXX  17151 76373 32970 00000 10155 21061 38240 40193 52017 91455 333 30/// 58023;",
"76373099999","2012-04-17T18:00:00","4","25.35","-105.75","1967.0","TEPEHUANES DGO., MX","FM-12","99999","V020","999,9,C,0000,1","22000,1,9,N","030000,1,N,1","+0252,1","-0049,1","10188,1",,,,,,"00,1,+99999,9,99,9",,"00,99,1,00,1,00,1,99999,9,00,1,00,1",,"01,9",,"120,M,+0270,1","240,N,+0029,1",,"7,1,004,1,-047,1",,,"SYN094AAXX  17181 76373 32980 00000 10252 21049 38336 40188 57004 91750 333 10270 20029 30/// 59047;","Q01+083363APOSP "
"76373099999","2012-04-17T21:00:00","4","25.35","-105.75","1967.0","TEPEHUANES DGO., MX","FM-12","99999","V020","130,1,N,0010,1","22000,1,9,N","020000,1,N,1","+0290,1","-0059,1","10144,1",,,,,,"01,1,+00900,1,08,1",,"01,99,1,01,1,01,1,01250,1,00,1,00,1",,"01,9",,,,"99999,9,08200,1","7,1,036,1,+022,1",,,"SYN100AAXX  17211 76373 32670 11301 10290 21059 38200 40144 57036 81100 92050 333 30/// 56900 58022 81830;",
"76373099999","2012-04-18T00:00:00","4","25.35","-105.75","1967.0","TEPEHUANES DGO., MX","FM-12","99999","V020","120,1,N,0010,1","22000,1,9,N","010000,1,N,1","+0277,1","-0046,1","10123,1","24,0000,9,1",,,,,,,"01,99,1,01,1,01,1,01250,1,00,1,00,1",,"01,9",,"120,M,+0308,1","180,N,+0001,1","99999,9,08183,1","7,1,017,1,+016,1",,,"SYN124AAXX  18001 76373 32660 11201 10277 21046 38183 40123 57017 81100 92350 333 10308 20001 30/// 50851 56900 58016 70000 81830;",
"76373099999","2012-04-18T03:00:00","4","25.35","-105.75","1967.0","TEPEHUANES DGO., MX","FM-12","99999","V020","999,9,C,0000,1","22000,1,9,N","000400,1,N,1","+0224,1","-0026,1","10138,1",,,,,,"01,1,+00900,1,08,1",,"01,99,1,01,1,02,1,01250,1,00,1,00,1",,"01,9",,,,"99999,9,08195,1","2,1,012,1,+003,1",,,"SYN100AAXX  18031 76373 32604 10000 10224 21026 38195 40138 52012 81200 90250 333 30/// 56900 58003 81830;",
"76373099999","2012-04-18T12:00:00","4","25.35","-105.75","1967.0","TEPEHUANES DGO., MX","FM-12","99999","V020","999,9,C,0000,1","22000,1,9,N","000600,1,N,1","+0089,1","-0020,1","10168,1","24,0000,9,1",,,,,"00,1,+99999,9,99,9",,"00,99,1,00,1,00,1,99999,9,00,1,00,1",,"01,9",,"120,N,+0078,1","240,M,+0308,1","99999,9,08220,1","9,9,999,9,-003,1",,,"SYN100AAXX  18121 76373 32906 00000 10089 21020 38220 40168 5//// 91150 333 10308 20078 30066 59003 70000;","Q01  00002PRCP24"
"76373099999","2012-04-18T15:00:00","4","25.35","-105.75","1967.0","TEPEHUANES DGO., MX","FM-12","99999","V020","999,9,C,0000,1","22000,1,9,N","019000,1,N,1","+0171,1","-0011,1","10183,1",,,,,,"00,1,+99999,9,99,9",,"00,99,1,00,1,00,1,99999,9,00,1,00,1",,"01,9",,,,"99999,9,08232,1","2,1,012,1,-008,1",,,"SYN082AAXX  18151 76373 32969 00000 10171 21011 38232 40183 52012 91450 333 30/// 59008;",
"76373099999","2012-04-18T21:00:00","4","25.35","-105.75","1967.0","TEPEHUANES DGO., MX","FM-12","99999","V020","310,1,N,0010,1","22000,1,9,N","020000,1,N,1","+0307,1","-0078,1","10129,1",,,,,,"03,1,+00690,1,06,1",,"03,99,1,03,1,04,1,01250,1,00,1,00,1",,"01,9",,,,"99999,9,08188,1","7,1,028,1,-012,1",,,"SYN100AAXX  18211 76373 32670 33101 10307 21078 38188 40129 57028 83400 92050 333 30/// 56900 59012 83623;",
"76373099999","2012-04-19T00:00:00","4","25.35","-105.75","1967.0","TEPEHUANES DGO., MX","FM-12","99999","V020","280,1,N,0010,1","22000,1,9,N","020000,1,N,1","+0276,1","-0124,1","10122,1","24,0000,9,1",,,,,,,"01,99,1,01,1,02,1,01250,1,00,1,00,1",,"01,9",,"120,M,+0328,1","180,N,+0078,1","99999,9,08182,1","7,1,006,1,-001,1",,,"SYN124AAXX  19001 76373 32670 12801 10276 21124 38182 40122 57006 81200 92350 333 10328 20078 30/// 50821 56900 59001 70000 81830;",
"76373099999","2012-04-19T03:00:00","4","25.35","-105.75","1967.0","TEPEHUANES DGO., MX","FM-12","99999","V020","999,9,C,0000,1","22000,1,9,N","000400,1,N,1","+0211,1","-0056,1","10143,1",,,,,,"00,1,+99999,9,99,9",,"00,99,1,00,1,00,1,99999,9,00,1,00,1",,"01,9",,,,"99999,9,08199,1","2,1,017,1,+004,1",,,"SYN082AAXX  19031 76373 32904 00000 10211 21056 38199 40143 52017 90250 333 30/// 58004;",
"76373099999","2012-04-19T06:00:00","4","25.35","-105.75","1967.0","TEPEHUANES DGO., MX","FM-12","99999","V020","999,9,C,0000,1","22000,1,9,N","000400,1,N,1","+0140,1","-0050,1","10165,1",,,,,,"00,1,+99999,9,99,9",,"00,99,1,00,1,00,1,99999,9,00,1,00,1","0690,9","01,9",,"240,M,+0328,1","240,N,+0078,1","99999,9,08217,1","2,1,018,1,+999,9",,,"SYN106AAXX  19061 76373 32904 00000 10140 21050 38217 40165 52018 90550 333 10328 20078 30/// 55115 21868 59005;",
"76373099999","2012-04-19T12:00:00","4","25.35","-105.75","1967.0","TEPEHUANES DGO., MX","FM-12","99999","V020","999,9,C,0000,1","22000,1,9,N","000600,1,N,1","+0063,1","-0049,1","10155,1","24,0000,9,1",,,,,"01,1,+00690,1,06,1",,"01,99,1,01,1,04,1,01250,1,00,1,00,1",,"01,9","999,+0047,9","120,N,+0055,1","240,M,+0328,1","99999,9,08209,1","9,9,999,9,-011,1",,,"SYN118AAXX  19121 76373 32606 10000 10063 21049 38209 40155 5//// 81400 91150 333 10328 20055 30047 56300 59011 70000 81623;",
"76373099999","2012-04-19T15:00:00","4","25.35","-105.75","1967.0","TEPEHUANES DGO., MX","FM-12","99999","V020","999,9,C,0000,1","22000,1,9,N","015000,1,N,1","+0164,1","-0024,1","10160,1",,,,,,"00,1,+99999,9,99,9",,"00,99,1,00,1,00,1,99999,9,00,1,00,1",,"01,9",,,,"99999,9,08221,1","2,1,012,1,-011,1",,,"SYN082AAXX  19151 76373 32965 00000 10164 21024 38221 40160 52012 91450 333 30/// 59011;",
"76373099999","2012-04-20T00:00:00","4","25.35","-105.75","1967.0","TEPEHUANES DGO., MX","FM-12","99999","V020","250,1,N,0010,1","22000,1,9,N","030000,1,N,1","+0279,1","-0128,1","10109,1",,,,,,"00,1,+99999,9,99,9",,"00,99,1,00,1,00,1,99999,9,00,1,00,1",,,,"180,N,+0055,1",,"99999,9,08172,1","9,9,999,9,+010,1",,,"SYN106AAXX  20001 76373 32980 02501 10279 21128 38172 40109 5/// 92350 333 1 0320 20055 30/// 50102 58010 70000;",
"76373099999","2012-04-20T03:00:00","4","25.35","-105.75","1967.0","TEPEHUANES DGO., MX","FM-12","99999","V020","999,9,C,0000,1","22000,1,9,N","001000,1,N,1","+0215,1","+0107,2","10119,1",,,,,,"00,1,+99999,9,99,9",,"00,99,1,00,1,00,1,99999,9,00,1,00,1",,"01,9",,,,"99999,9,08180,1","2,1,005,1,-019,1",,,"SYN082AAXX  20031 76373 32910 00000 10215 20107 38180 40119 52005 90255 333 30/// 59019;",
"76373099999","2012-04-20T12:00:00","4","25.35","-105.75","1967.0","TEPEHUANES DGO., MX","FM-12","99999","V020","999,9,C,0000,1","22000,1,9,N","001000,1,N,1","+0061,1","-0042,1","10150,1","24,0000,9,1",,,,,"00,1,+99999,9,99,9",,"00,99,1,00,1,00,1,99999,9,00,1,00,1",,"01,9","999,+0045,9","120,N,+0053,1","240,M,+0320,1","99999,9,08205,1","9,9,999,9,-004,1",,,"SYN100AAXX  20121 76373 32910 00000 10061 21042 38205 40150 5//// 91150 333 10320 20053 30045 59004 70000;","Q01  00002PRCP24"
"76373099999","2012-04-20T15:00:00","4","25.35","-105.75","1967.0","TEPEHUANES DGO., MX","FM-12","99999","V020","999,9,C,0000,1","22000,1,9,N","020000,1,N,1","+0165,1","-0021,1","10163,1",,,,,,"00,1,+99999,9,99,9",,"00,99,1,00,1,00,1,99999,9,00,1,00,1",,"01,9",,,,"99999,9,08213,1","2,1,008,1,-008,1",,,"SYN082AAXX  20151 76373 32970 00000 10165 21021 38213 40163 52008 91455 333 30/// 59008;",
"76373099999","2012-04-20T18:00:00","4","25.35","-105.75","1967.0","TEPEHUANES DGO., MX","FM-12","99999","V020","999,9,C,0000,1","22000,1,9,N","030000,1,N,1","+0271,1","-0061,1","10157,1",,,,,,"00,1,+99999,9,99,9",,"00,99,1,00,1,00,1,99999,9,00,1,00,1",,"01,9",,"120,M,+0280,1","240,N,+0053,1","99999,9,08210,1","7,1,003,1,+004,1",,,"SYN094AAXX  20181 76373 32980 00000 10271 21061 38210 40157 57003 91750 333 10280 20053 30/// 58004;",
"76373099999","2012-04-21T00:00:00","4","25.35","-105.75","1967.0","TEPEHUANES DGO., MX","FM-12","99999","V020","050,1,N,0010,1","22000,1,9,N","030000,1,N,1","+0297,1","-0108,1","10129,1","24,0000,9,1",,,,,"00,1,+99999,9,99,9",,"00,99,1,00,1,00,1,99999,9,00,1,00,1",,"01,9",,"120,M,+0330,1","180,N,+0053,1","99999,9,08180,1","2,1,011,1,+013,1",,,"SYN106AAXX  21001 76373 32980 00501 10297 21108 38180 40129 52011 92355 333 10330 20053 30/// 50871 58013 70000;","Q01  00002PRCP24"
"76373099999","2012-04-21T03:00:00","4","25.35","-105.75","1967.0","TEPEHUANES DGO., MX","FM-12","99999","V020","999,9,C,0000,1","22000,1,9,N","001000,1,N,1","+0208,1","-0105,1","10145,1",,,,,,"00,1,+99999,9,99,9",,"00,99,1,00,1,00,1,99999,9,00,1,00,1",,"01,9",,,,"99999,9,08201,1","2,1,013,1,+021,1",,,"SYN082AAXX  21031 76373 32910 00000 10208 21105 38201 40145 52013 90255 333 30/// 58021;",
"76373099999","2012-04-21T12:00:00","4","25.35","-105.75","1967.0","TEPEHUANES DGO., MX","FM-12","99999","V020","999,9,C,0000,1","22000,1,9,N","001000,1,N,1","+0069,1","-0072,1","10163,1","24,0000,9,1",,,,,"00,1,+99999,9,99,9",,"00,99,1,00,1,00,1,99999,9,00,1,00,1",,"01,9","999,+0050,9","120,N,+0058,1","240,M,+0330,1","99999,9,08216,1","9,9,999,9,+011,1",,,"SYN100AAXX  21121 76373 32910 00000 10069 21072 38216 40163 5//// 91150 333 10330 20058 30050 58011 70000;","Q01  00002PRCP24"
"76373099999","2012-04-21T15:00:00","4","25.35","-105.75","1967.0","TEPEHUANES DGO., MX","FM-12","99999","V020","999,9,C,0000,1","22000,1,9,N","020000,1,N,1","+0184,1","-0051,1","10187,1",,,,,,"00,1,+99999,9,99,9",,"00,99,1,00,1,00,1,99999,9,00,1,00,1",,"01,9",,,,"99999,9,08234,1","2,1,018,1,+021,1",,,"SYN082AAXX  21151 76373 32970 00000 10184 21051 38234 40187 52018 91455 333 30/// 58021;",
"76373099999","2012-04-21T18:00:00","4","25.35","-105.75","1967.0","TEPEHUANES DGO., MX","FM-12","99999","V020","140,1,N,0010,1","22000,1,9,N","030000,1,N,1","+0266,1","-0007,1","10163,1",,,,,,"00,1,+99999,9,99,9",,"00,99,1,00,1,00,1,99999,9,00,1,00,1",,"01,9",,"120,M,+0280,1","240,N,+0058,1","99999,9,08224,1","7,1,020,1,+012,1",,,"SYN094AAXX  21181 76373 32980 01401 10266 21007 38224 40163 57020 91750 333 10280 20058 30/// 58012;",
"76373099999","2012-04-21T21:00:00","4","25.35","-105.75","1967.0","TEPEHUANES DGO., MX","FM-12","99999","V020","140,1,N,0020,1","22000,1,9,N","030000,1,N,1","+0294,1","-0033,1","10143,1",,,,,,"00,1,+99999,9,99,9",,"00,99,1,00,1,00,1,99999,9,00,1,00,1",,"01,9",,,,,"2,1,025,1,+011,1",,,"SYN082AAXX  21211 76373 32980 01402 10294 21033 38119 40143 52025 92050 333 30/// 58011;","Q01+081193APOSP "
"76373099999","2012-04-22T00:00:00","4","25.35","-105.75","1967.0","TEPEHUANES DGO., MX","FM-12","99999","V020","130,1,N,0010,1","22000,1,9,N","020000,1,N,1","+0285,1","-0079,1","10126,1","24,0000,9,1",,,,,"00,1,+99999,9,99,9",,"00,99,1,00,1,00,1,99999,9,00,1,00,1",,"01,9",,"120,M,+0314,1","180,N,+0058,1","99999,9,08185,1","7,1,014,1,-003,1",,,"SYN106AAXX  22001 76373 32970 01301 10285 21079 38185 40126 57014 92350 333 10314 20058 30/// 50941 59003 70000;","Q01  00002PRCP24"
"76373099999","2012-04-22T03:00:00","4","25.35","-105.75","1967.0","TEPEHUANES DGO., MX","FM-12","99999","V020","999,9,C,0000,1","22000,1,9,N","005000,1,N,1","+0211,1","-0080,1","10162,1",,,,,,"00,1,+99999,9,99,9",,"00,99,1,00,1,00,1,99999,9,00,1,00,1",,"01,9",,,,"99999,9,08214,1","2,1,029,1,+013,1",,,"SYN082AAXX  22031 76373 32950 00000 10211 21080 38214 40162 52029 90250 333 30/// 58013;",
"76373099999","2012-04-22T18:00:00","4","25.35","-105.75","1967.0","TEPEHUANES DGO., MX","FM-12","99999","V020","150,1,N,0010,1","22000,1,9,N","020000,1,N,1","+0288,1","-0050,1","10175,1",,,,,,"00,1,+99999,9,99,9",,"00,99,1,00,1,00,1,99999,9,00,1,00,1",,"01,9",,"120,M,+0295,1","240,N,+0050,1","99999,9,08225,1","7,1,014,1,+001,1",,,"SYN094AAXX  22181 76373 32970 01501 10288 21050 38225 40175 57014 91750 333 10295 20050 30/// 58001;",
"76373099999","2012-04-22T21:00:00","4","25.35","-105.75","1967.0","TEPEHUANES DGO., MX","FM-12","99999","V020","130,1,N,0010,1","22000,1,9,N","020000,1,N,1","+0313,1","-0094,1","10143,1",,,,,,"01,1,+00750,1,08,1",,"01,99,1,01,1,02,1,00800,1,00,1,00,1",,"01,9",,,,"99999,9,08199,1","7,1,026,1,+000,1",,,"SYN100AAXX  22211 76373 32570 11301 10313 21094 38199 40143 57026 81200 92050 333 30/// 56900 58000 81825;",
"76373099999","2012-04-23T06:00:00","4","25.35","-105.75","1967.0","TEPEHUANES DGO., MX","FM-12","99999","V020","999,9,C,0000,1","22000,1,9,N","005000,1,N,1","+0189,1","-0047,1","10177,1",,,,,,"00,1,+99999,9,99,9",,"00,99,1,00,1,00,1,99999,9,00,1,00,1","0630,9","01,9",,"240,M,+0330,1","240,N,+0050,1","99999,9,08226,1","2,1,011,1,+999,9",,,"SYN106AAXX  23061 76373 32950 00000 10189 21047 38226 40177 52011 90550 333 10330 20050 30/// 55105 22416 58010;",
"76373099999","2012-04-23T15:00:00","4","25.35","-105.75","1967.0","TEPEHUANES DGO., MX","FM-12","99999","V020","999,9,C,0000,1","22000,1,9,N","020000,1,N,1","+0185,1","-0045,1","10194,1",,,,,,"00,1,+99999,9,99,9",,"00,99,1,00,1,00,1,99999,9,00,1,00,1",,"01,9",,,,"99999,9,08240,1","2,1,003,1,+001,1",,,"SYN082AAXX  23151 76373 32970 00000 10185 21045 38240 40194 52003 91450 333 30/// 58001;",
"76373099999","2012-04-23T18:00:00","4","25.35","-105.75","1967.0","TEPEHUANES DGO., MX","FM-12","99999","V020","130,1,N,0010,1","22000,1,9,N","020000,1,N,1","+0286,1","-0046,1","10172,1",,,,,,"00,1,+99999,9,99,9",,"00,99,1,00,1,00,1,99999,9,00,1,00,1",,"01,9",,"120,M,+0298,1","240,N,+0073,1","99999,9,08223,1","7,1,017,1,-002,1",,,"SYN094AAXX  23181 76373 32970 01301 10286 21046 38223 40172 57017 91750 333 10298 20073 30/// 59002;",
"76373099999","2012-04-23T21:00:00","4","25.35","-105.75","1967.0","TEPEHUANES DGO., MX","FM-12","99999","V020","999,9,C,0000,1","22000,1,9,N","020000,1,N,1","+0304,1","-0081,1","10144,1",,,,,,"04,1,+00750,1,06,1",,"04,99,1,04,1,06,1,00800,1,00,1,00,1",,"01,9",,,,"99999,9,08200,1","7,1,023,1,+001,1",,,"SYN100AAXX  23211 76373 32570 41300 10304 21081 38200 40144 57023 84600 92050 333 30/// 56900 58001 84625;",
"76373099999","2012-04-24T00:00:00","4","25.35","-105.75","1967.0","TEPEHUANES DGO., MX","FM-12","99999","V020","240,1,N,0010,1","00750,1,9,N","020000,1,N,1","+0239,1","-0020,1","10154,1","24,0000,9,1",,,,,,,"08,99,1,08,1,06,1,00800,1,00,1,00,1",,"01,9",,"120,M,+0340,1","180,N,+0073,1","99999,9,08208,1","2,1,008,1,+020,1",,,"SYN124AAXX  24001 76373 32570 82401 10239 21020 38208 40154 52008 88600 92345 333 10340 20073 30/// 50861 56900 58020 70000 88625;",
"76373099999","2012-04-24T03:00:00","4","25.35","-105.75","1967.0","TEPEHUANES DGO., MX","FM-12","99999","V020","999,9,C,0000,1","22000,1,9,N","005000,1,N,1","+0206,1","-0004,1","10170,1",,,,,,"00,1,+99999,9,99,9",,"00,99,1,00,1,00,1,99999,9,00,1,00,1",,"01,9",,,,"99999,9,08221,1","2,1,013,1,+006,1",,,"SYN082AAXX  24031 76373 32950 00000 10206 21004 38221 40170 52013 90250 333 30/// 58006;",
"76373099999","2012-04-24T15:00:00","4","25.35","-105.75","1967.0","TEPEHUANES DGO., MX","FM-12","99999","V020","999,9,C,0000,1","22000,1,9,N","020000,1,N,1","+0174,1","-0067,1","10180,1",,,,,,"00,1,+99999,9,99,9",,"00,99,1,00,1,00,1,99999,9,00,1,00,1",,"01,9",,,,"99999,9,08229,1","2,1,003,1,-011,1",,,"SYN082AAXX  24151 76373 32970 00000 10174 21067 38229 40180 52003 91450 333 30/// 59011;",
"76373099999","2012-04-24T18:00:00","4","25.35","-105.75","1967.0","TEPEHUANES DGO., MX","FM-12","99999","V020","999,9,C,0000,1","22000,1,9,N","020000,1,N,1","+0312,1","-0047,1","10159,1",,,,,,"00,1,+99999,9,99,9",,"00,99,1,00,1,00,1,99999,9,00,1,00,1",,"01,9",,"120,M,+0320,1","240,N,+0065,1","99999,9,08212,1","7,1,017,1,-011,1",,,"SYN094AAXX  24181 76373 32970 00000 10312 21047 38212 40159 57017 91750 333 10320 20065 30/// 59011;",
"76373099999","2012-04-24T21:00:00","4","25.35","-105.75","1967.0","TEPEHUANES DGO., MX","FM-12","99999","V020","999,9,C,0000,1","22000,1,9,N","020000,1,N,1","+0321,1","-0108,1","10123,1",,,,,,"02,1,+00750,1,08,1",,"02,99,1,02,1,02,1,00800,1,00,1,00,1",,"01,9",,,,"99999,9,08183,1","7,1,029,1,-017,1",,,"SYN100AAXX  24211 76373 32570 23300 10321 21108 38183 40123 57029 82200 92050 333 30/// 56900 59017 82825;",
"76373099999","2012-04-25T12:00:00","4","25.35","-105.75","1967.0","TEPEHUANES DGO., MX","FM-12","99999","V020","999,9,C,0000,1","22000,1,9,N","005000,1,N,1","+0123,1","+0067,1","10163,1",,,,,,"00,1,+99999,9,99,9",,"00,99,1,00,1,00,1,99999,9,00,1,00,1","0612,9","01,9",,"120,N,+0115,1","240,M,+0350,1","99999,9,08216,1","9,9,999,9,-002,1",,,"SYN112AAXX  25121 76373 32950 00000 10123 20067 38216 40163 5//// 91150 333 10350 20115 30103 55102 21949 59002 70000;",
"76373099999","2012-04-25T15:00:00","4","25.35","-105.75","1967.0","TEPEHUANES DGO., MX","FM-12","99999","V020","999,9,C,0000,1","22000,1,9,N","020000,1,N,1","+0195,1","+0088,1","10188,1",,,,,,"00,1,+99999,9,99,9",,"00,99,1,00,1,00,1,99999,9,00,1,00,1",,"01,9",,,,"99999,9,08236,1","2,1,020,1,+007,1",,,"SYN082AAXX  25151 76373 32970 00000 10195 20088 38236 40188 52020 91455 333 30/// 58007;",
"76373099999","2012-04-25T18:00:00","4","25.35","-105.75","1967.0","TEPEHUANES DGO., MX","FM-12","99999","V020","999,9,C,0000,1","22000,1,9,N","030000,1,N,1","+0311,1","+9999,9","10163,1",,,,,,"00,1,+99999,9,99,9",,"00,99,1,00,1,00,1,99999,9,00,1,00,1",,"01,9",,"120,M,+0320,1","240,N,+0115,1","99999,9,08216,1","2,1,020,1,+004,1",,,"SYN094AAXX  25181 76373 32980 00000 10311 21152 38216 40163 52020 91755 333 10320 20115 30/// 58004;","Q01-001523ATOD  "
"76373099999","2012-04-25T21:00:00","4","25.35","-105.75","1967.0","TEPEHUANES DGO., MX","FM-12","99999","V020","110,1,N,0010,1","22000,1,9,N","030000,1,N,1","+0346,1","-0050,1","10145,1",,,,,,"00,1,+99999,9,99,9",,"00,99,1,00,1,00,1,99999,9,00,1,00,1",,"01,9",,,,"99999,9,08200,1","2,1,016,1,+013,1",,,"SYN082AAXX  25211 76373 32980 01101 10346 21050 38200 40145 52016 92050 333 30/// 58013;",
"76373099999","2012-04-26T00:00:00","4","25.35","-105.75","1967.0","TEPEHUANES DGO., MX","FM-12","99999","V020","140,1,N,0010,1","22000,1,9,N","030000,1,N,1","+0327,1","-0074,1","10116,1","24,0000,9,1",,,,,"00,1,+99999,9,99,9",,"00,99,1,00,1,00,1,99999,9,00,1,00,1",,"01,9",,"120,M,+0370,1","180,N,+0115,1","99999,9,08177,1","7,1,022,1,+010,1",,,"SYN106AAXX  26001 76373 32980 01401 10327 21074 38177 40116 57022 92350 333 10370 20115 30/// 50851 58010 70000;","Q01  00002PRCP24"
"76373099999","2012-04-26T12:00:00","4","25.35","-105.75","1967.0","TEPEHUANES DGO., MX","FM-12","99999","V020","999,9,C,0000,1","22000,1,9,N","001000,1,N,1","+0129,1","+9999,9","10168,1","24,0000,9,1",,,,,"00,1,+99999,9,99,9",,"00,99,1,00,1,00,1,99999,9,00,1,00,1",,"01,9",,"120,N,+0120,1","240,M,+0370,1","99999,9,08220,1","9,9,999,9,+004,1",,,"SYN100AAXX  26121 76373 32910 00000 10129 20497 38220 40168 5//// 91155 333 10370 20120 30116 58004 70000;","Q01  00002PRCP24"
"76373099999","2012-04-26T15:00:00","4","25.35","-105.75","1967.0","TEPEHUANES DGO., MX","FM-12","99999","V020","999,9,C,0000,1","22000,1,9,N","020000,1,N,1","+0203,1","+0042,1","10177,1",,,,,,"00,1,+99999,9,99,9",,"00,99,1,00,1,00,1,99999,9,00,1,00,1",,"01,9",,,,"99999,9,08227,1","2,1,007,1,-009,1",,,"SYN082AAXX  26151 76373 32970 00000 10203 20042 38227 40177 52007 91455 333 30/// 59009;",
"76373099999","2012-04-26T18:00:00","4","25.35","-105.75","1967.0","TEPEHUANES DGO., MX","FM-12","99999","V020","999,9,C,0000,1","22000,1,9,N","030000,1,N,1","+0318,1","+0138,1","10153,1",,,,,,"00,1,+99999,9,99,9",,"00,99,1,00,1,00,1,99999,9,00,1,00,1",,"01,9",,"120,M,+0320,1","240,N,+0120,1","99999,9,08210,1","7,1,017,1,-006,1",,,"SYN094AAXX  26181 76373 32980 00000 10318 20138 38210 40153 57017 91755 333 10320 20120 30/// 59006;",
"76373099999","2012-04-26T21:00:00","4","25.35","-105.75","1967.0","TEPEHUANES DGO., MX","FM-12","99999","V020","290,1,N,0010,1","22000,1,9,N","005000,1,N,1","+0352,1","+9999,9","10114,1",,,,,,"03,1,+00750,1,08,1",,"03,99,1,03,1,03,1,00800,1,00,1,00,1",,"01,9",,,,"99999,9,08175,1","7,1,035,1,+025,1",,,"SYN100AAXX  26211 76373 32550 32901 10352 21039 38175 40114 57035 83300 92050 333 30/// 56900 58025 83825;","Q01-000393ATOD  "
"76373099999","2012-04-27T00:00:00","4","25.35","-105.75","1967.0","TEPEHUANES DGO., MX","FM-12","99999","V020","290,1,N,0020,1","22000,1,9,N","005000,1,N,1","+0324,1","-0037,1","10105,1","24,0000,9,1",,,,,,,"03,99,1,03,1,03,1,00800,1,00,1,00,1",,"01,9",,"120,M,+0364,1","180,N,+0120,1","99999,9,08169,1","7,1,006,1,+008,1",,,"SYN124AAXX  27001 76373 32550 32902 10324 21037 38169 40105 57006 83300 92355 333 10364 20120 30/// 50641 56900 58008 70000 83825;",
"76373099999","2012-04-27T12:00:00","4","25.35","-105.75","1967.0","TEPEHUANES DGO., MX","FM-12","99999","V020","320,1,N,0010,1","22000,1,9,N","001000,1,N,1","+0110,1","-0033,1","10140,1","24,0000,9,1",,,,,"01,1,+00750,1,08,1",,"02,99,1,02,1,01,1,00800,1,00,1,01,1",,"01,9",,"120,N,+0092,1","240,M,+0364,1","99999,9,08197,1","9,9,999,9,+023,1",,,"SYN124AAXX  27121 76373 32510 23201 10110 21033 38197 40140 5//// 82101 91150 333 10364 20092 30080 56909 58023 70000 81825 81067;",
"76373099999","2012-04-27T15:00:00","4","25.35","-105.75","1967.0","TEPEHUANES DGO., MX","FM-12","99999","V020","320,1,N,0010,1","22000,1,9,N","005000,1,N,1","+0210,1","-0028,1","10148,1",,,,,,"03,1,+05100,1,00,1",,"03,99,1,00,1,00,1,99999,9,00,1,03,1",,"01,9",,,,"99999,9,08203,1","2,1,006,1,+024,1",,,"SYN100AAXX  27151 76373 32950 33201 10210 21028 38203 40148 52006 80003 91455 333 30/// 56009 58024 83067;",
"76373099999","2012-04-27T18:00:00","4","25.35","-105.75","1967.0","TEPEHUANES DGO., MX","FM-12","99999","V020","290,1,N,0010,1","22000,1,9,N","005000,1,N,1","+0320,1","-0019,1","10120,1",,,,,,"02,1,+00900,1,03,1",,"03,99,1,01,1,00,1,00800,1,01,1,02,1",,"01,9",,"120,M,+0324,1","240,N,+0092,1","99999,9,08180,1","7,1,023,1,+030,1",,,"SYN118AAXX  27181 76373 32550 32901 10320 21019 38180 40120 57023 81012 91755 333 10324 20092 30/// 56099 58030 82330 81067;",
"76373099999","2012-04-27T21:00:00","4","25.35","-105.75","1967.0","TEPEHUANES DGO., MX","FM-12","99999","V020","290,1,N,0010,1","22000,1,9,N","005000,1,N,1","+0342,1","-0047,1","10102,1",,,,,,"02,1,+00750,1,08,1",,"03,99,1,03,1,02,1,00800,1,01,1,00,1",,"01,9",,,,"99999,9,08166,1","7,1,014,1,+009,1",,,"SYN106AAXX  27211 76373 32550 32901 10342 21047 38166 40102 57014 83210 92055 333 30/// 56990 58009 82825 81330;",
"76373099999","2012-04-28T00:00:00","4","25.35","-105.75","1967.0","TEPEHUANES DGO., MX","FM-12","99999","V020","290,1,N,0010,1","22000,1,9,N","005000,1,N,1","+0312,1","-0042,1","10096,1","24,0000,9,1",,,,,"02,1,+00750,1,08,1",,"03,99,1,03,1,02,1,00800,1,01,1,00,1",,"01,9",,"120,M,+0350,1","180,N,+0092,1","99999,9,08161,1","7,1,005,1,+008,1",,,"SYN130AAXX  28001 76373 32550 32901 10312 21042 38161 40096 57005 83210 92350 333 10350 20092 30/// 51161 56990 58008 70000 82825 81330;",
"76373099999","2012-04-28T03:00:00","4","25.35","-105.75","1967.0","TEPEHUANES DGO., MX","FM-12","99999","V020","250,1,N,0010,1","22000,1,9,N","001000,1,N,1","+0238,1","+0023,1","10112,1",,,,,,"02,1,+00750,1,08,1",,"02,99,1,02,1,02,1,00800,1,00,1,00,1",,"01,9",,,,"99999,9,08174,1","2,1,013,1,+014,1",,,"SYN100AAXX  28031 76373 32510 22501 10238 20023 38174 40112 52013 82200 90250 333 30/// 56900 58014 82825;",
"76373099999","2012-04-28T12:00:00","4","25.35","-105.75","1967.0","TEPEHUANES DGO., MX","FM-12","99999","V020","290,1,N,0010,1","22000,1,9,N","001000,1,N,1","+0102,1","+0018,1","10111,1","24,0000,9,1",,,,,"03,1,+00750,1,08,1",,"03,99,1,03,1,03,1,00800,1,00,1,00,1",,"01,9",,"120,N,+0088,1","240,M,+0350,1","99999,9,08173,1","9,9,999,9,+024,1",,,"SYN118AAXX  28121 76373 32510 32901 10102 20018 38173 40111 5//// 83300 91155 333 10350 20088 30076 56900 58024 70000 83825;",
"76373099999","2012-04-28T15:00:00","4","25.35","-105.75","1967.0","TEPEHUANES DGO., MX","FM-12","99999","V020","320,1,N,0010,1","22000,1,9,N","005000,1,N,1","+0166,1","+0026,1","10119,1",,,,,,"01,1,+00900,1,03,1",,"03,99,1,01,1,00,1,99999,9,01,1,02,1",,"01,9",,,,"99999,9,08180,1","2,1,007,1,+023,1",,,"SYN106AAXX  28151 76373 32950 33201 10166 20026 38180 40119 52007 81012 91440 333 30/// 56099 58023 81330 82067;",
"76373099999","2012-04-28T18:00:00","4","25.35","-105.75","1967.0","TEPEHUANES DGO., MX","FM-12","99999","V020","999,9,C,0000,1","22000,1,9,N","030000,1,N,1","+0294,1","-0053,1","10111,1",,,,,,"01,1,+00900,1,03,1",,"03,99,1,99,9,99,9,99999,9,99,9,99,9",,"01,9",,"120,M,+0310,1","240,N,+0088,1","99999,9,08173,1","7,1,007,1,-007,1",,,"SYN112AAXX  28181 76373 32980 30000 10294 21053 38173 40111 57007 91750 333 10310 20088 30/// 56009 59007 81330 82067;",
"76373099999","2012-04-28T21:00:00","4","25.35","-105.75","1967.0","TEPEHUANES DGO., MX","FM-12","99999","V020","290,1,N,0020,1","22000,1,9,N","030000,1,N,1","+0321,1","-0072,1","10092,1",,,,,,"02,1,+00900,1,03,1",,"04,99,1,99,9,99,9,99999,9,99,9,99,9",,"01,9",,,,"99999,9,08158,1","7,1,015,1,-022,1",,,"SYN100AAXX  28211 76373 32980 42902 10321 21072 38158 40092 57015 92050 333 30/// 56099 59022 82330 82067;",
"76373099999","2012-04-29T00:00:00","4","25.35","-105.75","1967.0","TEPEHUANES DGO., MX","FM-12","99999","V020","250,1,N,0010,1","00750,1,9,N","030000,1,N,1","+0281,1","-0028,1","10076,1","24,0000,9,1",,,,,,,"08,99,1,08,1,06,1,00800,1,00,1,00,1",,"01,9",,"120,M,+0335,1","180,N,+0088,1","99999,9,08145,1","7,1,013,1,-016,1",,,"SYN124AAXX  29001 76373 32580 82501 10281 21028 38145 40076 57013 88600 92350 333 10335 20088 30/// 51051 56900 59016 70000 88625;",
"76373099999","2012-04-29T03:00:00","4","25.35","-105.75","1967.0","TEPEHUANES DGO., MX","FM-12","99999","V020","999,9,C,0000,1","00750,1,9,N","005000,1,N,1","+0222,1","+0026,1","10102,1",,,,,,"06,1,+00750,1,06,1",,"06,99,1,06,1,06,1,00800,1,00,1,00,1",,"01,9",,,,"99999,9,08166,1","2,1,019,1,-008,1",,,"SYN100AAXX  29031 76373 32550 60000 10222 20026 38166 40102 52019 86600 90250 333 30/// 56900 59008 86625;",
"76373099999","2012-04-29T15:00:00","4","25.35","-105.75","1967.0","TEPEHUANES DGO., MX","FM-12","99999","V020","999,9,C,0000,1","00750,1,9,N","020000,1,N,1","+0188,1","-0025,1","10126,1",,,,,,"07,1,+00750,1,06,1",,"07,99,1,07,1,06,1,00800,1,00,1,00,1",,"01,9",,,,"99999,9,08186,1","2,1,002,1,+006,1",,,"SYN100AAXX  29151 76373 32570 70000 10188 21025 38186 40126 52002 87600 91450 333 30/// 56900 58006 87625;",
"76373099999","2012-04-29T21:00:00","4","25.35","-105.75","1967.0","TEPEHUANES DGO., MX","FM-12","99999","V020","270,1,N,0010,1","22000,1,9,N","020000,1,N,1","+0330,1","-0053,1","10082,1",,,,,,"03,1,+00750,1,06,1",,"03,99,1,03,1,06,1,00800,1,00,1,00,1",,"01,9",,,,"99999,9,08150,1","7,1,015,1,-008,1",,,"SYN100AAXX  29211 76373 32570 32701 10330 21053 38150 40082 57015 83600 92050 333 30/// 56900 59008 83625;",
"76373099999","2012-04-30T03:00:00","4","25.35","-105.75","1967.0","TEPEHUANES DGO., MX","FM-12","99999","V020","999,9,C,0000,1","22000,1,9,N","005000,1,N,1","+0222,1","+0058,1","10121,1",,,,,,"02,1,+00750,1,06,1",,"02,99,1,02,1,06,1,00800,1,00,1,00,1",,"01,9",,,,"99999,9,08182,1","2,1,028,1,+016,1",,,"SYN100AAXX  30031 76373 32550 20000 10222 20058 38182 40121 52028 82600 90250 333 30/// 56900 58016 82625;",
"76373099999","2012-04-30T12:00:00","4","25.35","-105.75","1967.0","TEPEHUANES DGO., MX","FM-12","99999","V020","999,9,C,0000,1","22000,1,9,N","005000,1,N,1","+0101,1","+0037,1","10142,1",,,,,,"00,1,+99999,9,99,9",,"00,99,1,00,1,00,1,99999,9,00,1,00,1","0492,9","01,9",,"120,N,+0093,1","240,M,+0338,1","99999,9,08194,1","9,9,999,9,+010,1",,,"SYN112AAXX  30121 76373 32950 00000 10101 20037 38194 40142 5//// 91150 333 10338 20093 30085 55082 21796 58010 70000;",
"76373099999","2012-04-30T15:00:00","4","25.35","-105.75","1967.0","TEPEHUANES DGO., MX","FM-12","99999","V020","999,9,C,0000,1","22000,1,9,N","020000,1,N,1","+0187,1","+0040,1","10147,1",,,,,,"00,1,+99999,9,99,9",,"00,99,1,00,1,00,1,99999,9,00,1,00,1",,"01,9",,,,"99999,9,08202,1","2,1,004,1,+036,1",,,"SYN082AAXX  30151 76373 32970 00000 10187 20040 38202 40147 52004 91450 333 30/// 58036;",
"76373099999","2012-04-30T18:00:00","4","25.35","-105.75","1967.0","TEPEHUANES DGO., MX","FM-12","99999","V020","999,9,C,0000,1","22000,1,9,N","030000,1,N,1","+0306,1","+0095,1","10142,1",,,,,,"00,1,+99999,9,99,9",,"00,99,1,00,1,00,1,99999,9,00,1,00,1",,"01,9",,"120,M,+0310,1","240,N,+0093,1","99999,9,08198,1","7,1,004,1,+028,1",,,"SYN094AAXX  30181 76373 32980 00000 10306 20095 38198 40142 57004 91755 333 10310 20093 30/// 58028;",
"76373099999","2012-04-30T21:00:00","4","25.35","-105.75","1967.0","TEPEHUANES DGO., MX","FM-12","99999","V020","999,9,C,0000,1","22000,1,9,N","030000,1,N,1","+0345,1","+9999,9","10109,1",,,,,,"00,1,+99999,9,99,9",,"00,99,1,00,1,00,1,99999,9,00,1,00,1",,"01,9",,,,"99999,9,08172,1","7,1,026,1,+022,1",,,"SYN082AAXX  30211 76373 32980 00000 10345 21074 38172 40109 57026 92055 333 30/// 58022;","Q01-000743ATOD  "
"76373099999","2012-05-01T00:00:00","4","25.35","-105.75","1967.0","TEPEHUANES DGO., MX","FM-12","99999","V020","250,1,N,0020,1","22000,1,9,N","030000,1,N,1","+0300,1","-0033,1","10104,1","24,0000,9,1",,,,,"00,1,+99999,9,99,9",,"00,99,1,00,1,00,1,99999,9,00,1,00,1",,"01,9",,"120,M,+0356,1","180,N,+0095,1","99999,9,08168,1","7,1,004,1,+013,1",,,"SYN106AAXX  01001 76373 32980 02502 10300 21033 38168 40104 57004 92355 333 10356 20095 30/// 50104 58013 70000;","Q01  00002PRCP24"
"76373099999","2012-05-01T06:00:00","4","25.35","-105.75","1967.0","TEPEHUANES DGO., MX","FM-12","99999","V020","999,9,C,0000,1","22000,1,9,N","001000,1,N,1","+0184,1","+0037,1","10144,1",,,,,,"00,1,+99999,9,99,9",,"00,99,1,00,1,00,1,99999,9,00,1,00,1","0660,9","01,9",,"240,M,+0356,1","240,N,+0093,1","99999,9,08200,1",,,,"SYN106AAXX  01061 76373 32910 00000 10184 20037 38200 40144 5//// 90550 333 10356 20093 30/// 55110 22029 58008;",
"76373099999","2012-05-01T12:00:00","4","25.35","-105.75","1967.0","TEPEHUANES DGO., MX","FM-12","99999","V020","999,9,C,0000,1","22000,1,9,N","001000,1,N,1","+0121,1","+0025,1","10132,1","24,0000,9,1",,,,,"03,1,+00750,1,06,1",,"03,99,1,03,1,06,1,00800,1,00,1,00,1",,"01,9",,"120,N,+0105,1","240,M,+0356,1","99999,9,08198,1","9,9,999,9,-008,1",,,"SYN118AAXX  01121 76373 32510 30000 10121 20025 38198 40132 5//// 83600 91155 333 10356 20105 30102 56900 59008 70000 83625;",
"76373099999","2012-05-01T15:00:00","4","25.35","-105.75","1967.0","TEPEHUANES DGO., MX","FM-12","99999","V020","999,9,C,0000,1","22000,1,9,N","020000,1,N,1","+0174,1","+0031,1","10153,1",,,,,,"03,1,+00750,1,06,1",,"03,99,1,03,1,06,1,00800,1,00,1,00,1",,"01,9",,,,"99999,9,08208,1","2,1,018,1,+006,1",,,"SYN100AAXX  01151 76373 32570 30000 10174 20031 38208 40153 52018 83600 91455 333 30/// 56900 58006 83625;",
"76373099999","2012-05-01T18:00:00","4","25.35","-105.75","1967.0","TEPEHUANES DGO., MX","FM-12","99999","V020","999,9,C,0000,1","22000,1,9,N","030000,1,N,1","+0310,1","-0086,1","10135,1",,,,,,"02,1,+00690,1,06,1",,"02,99,1,02,1,06,1,00800,1,00,1,00,1",,"01,9",,"120,M,+0314,1","240,N,+0105,1","99999,9,08192,1","7,1,016,1,-006,1",,,"SYN112AAXX  01181 76373 32580 20000 10310 21086 38192 40135 57016 82600 91750 333 10314 20105 30/// 56900 59006 82623;",
"76373099999","2012-05-01T21:00:00","4","25.35","-105.75","1967.0","TEPEHUANES DGO., MX","FM-12","99999","V020","230,1,N,0020,1","22000,1,9,N","020000,1,N,1","+0344,2","-0116,1","10090,1",,,,,,"03,1,+01800,1,06,1",,"03,99,1,03,1,99,9,01750,1,04,1,00,1",,"01,9",,,,"99999,9,08156,1","7,1,033,1,-013,1",,,"SYN100AAXX  01211 76373 32770 32302 10344 21116 38156 40090 57033 83040 92050 333 30/// 56090 59013 83656;","Q01+000002SCOLCG"
"76373099999","2012-05-02T00:00:00","4","25.35","-105.75","1967.0","TEPEHUANES DGO., MX","FM-12","99999","V020","280,1,N,0020,1","01200,1,9,N","020000,1,N,1","+0292,1","-0098,1","10093,1","24,0000,9,1",,,,,,,"06,99,1,06,1,04,1,01250,1,00,1,00,1",,"01,9",,"120,M,+0353,1","180,N,+0105,1","99999,9,08159,1","3,1,003,1,+009,1",,,"SYN124AAXX  02001 76373 32670 62802 10292 21098 38159 40093 53003 86400 92350 333 10353 20105 30/// 50951 56900 58009 70000 86623;",
"76373099999","2012-05-02T03:00:00","4","25.35","-105.75","1967.0","TEPEHUANES DGO., MX","FM-12","99999","V020","280,1,N,0010,1","22000,1,9,N","000600,1,N,1","+0235,1","+0018,1","10119,1",,,,,,"03,1,+00690,1,06,1",,"03,99,1,03,1,04,1,01250,1,00,1,00,1",,"01,9",,,,"99999,9,08180,1","2,1,021,1,-002,1",,,"SYN100AAXX  02031 76373 32606 32801 10235 20018 38180 40119 52021 83400 90250 333 30/// 56900 59002 83623;",
"76373099999","2012-05-02T06:00:00","4","25.35","-105.75","1967.0","TEPEHUANES DGO., MX","FM-12","99999","V020","999,9,C,0000,1","22000,1,9,N","000400,1,N,1","+0190,1","+0022,1","10134,1",,,,,,,,"02,99,1,02,1,05,1,01250,1,00,1,00,1","0630,9","01,9",,"240,M,+0353,1","240,N,+0105,1","99999,9,08192,1","2,1,012,1,-008,1",,,"SYN124AAXX  02061 76373 32604 20000 10190 20022 38192 40134 52012 82500 90545 333 10353 20105 30/// 55105 21772 56900 59008 82623;",
"76373099999","2012-05-02T12:00:00","4","25.35","-105.75","1967.0","TEPEHUANES DGO., MX","FM-12","99999","V020","999,9,C,0000,1","22000,1,9,N","000600,1,N,1","+0116,1","-0009,1","10129,1","24,0000,9,1",,,,,"01,1,+00690,1,06,1",,"03,99,1,01,1,04,1,01250,1,00,1,04,1",,"01,9",,"120,N,+0103,1","240,M,+0353,1","99999,9,08188,1","9,9,999,9,-002,1",,,"SYN124AAXX  02121 76373 32606 30000 10116 21009 38188 40129 5//// 81404 91150 333 10353 20103 30090 56909 59002 70000 81623 82067;",
"76373099999","2012-05-02T15:00:00","4","25.35","-105.75","1967.0","TEPEHUANES DGO., MX","FM-12","99999","V020","999,9,C,0000,1","22000,1,9,N","015000,1,N,1","+0222,1","+0001,1","10146,1",,,,,,"01,1,+00900,1,08,1",,"04,99,1,01,1,02,1,01250,1,00,1,04,1",,"01,9",,,,"99999,9,08200,1","2,1,014,1,-008,1",,,"SYN106AAXX  02151 76373 32665 40000 10222 20001 38200 40146 52014 81204 91450 333 30/// 56809 59008 81830 83067;",
"76373099999","2012-05-02T18:00:00","4","25.35","-105.75","1967.0","TEPEHUANES DGO., MX","FM-12","99999","V020","999,9,C,0000,1","22000,1,9,N","020000,1,N,1","+0302,1","-0090,1","10139,1",,,,,,"01,1,+00900,1,08,1",,"04,99,1,01,1,02,1,01250,1,00,1,04,1",,"01,9",,"120,M,+0311,1","240,N,+0103,1","99999,9,08196,1","7,1,006,1,-004,1",,,"SYN118AAXX  02181 76373 32670 40000 10302 21090 38196 40139 57006 81204 91750 333 10311 20103 30/// 56909 59004 81830 83067;",
"76373099999","2012-05-02T21:00:00","4","25.35","-105.75","1967.0","TEPEHUANES DGO., MX","FM-12","99999","V020","140,1,N,0010,1","22000,1,9,N","020000,1,N,1","+0333,1","-0092,1","10107,1",,,,,,"03,1,+00690,1,06,1",,"05,99,1,03,1,04,1,01250,1,00,1,04,1",,"01,9",,,,"99999,9,08170,1","7,1,026,1,-014,1",,,"SYN100AAXX  02211 76373 32670 51401 10333 21092 38170 40107 57026 83404 92050 333 30/// 56909 59014 83623;",
"76373099999","2012-05-03T00:00:00","4","25.35","-105.75","1967.0","TEPEHUANES DGO., MX","FM-12","99999","V020","310,1,N,0020,1","00750,1,9,N","000600,1,N,1","+0302,1","-0020,1","10096,1","24,0000,9,1",,,,,,,"07,99,1,07,1,06,1,00800,1,00,1,00,1",,"01,9",,"120,M,+0350,1","180,N,+0103,1","99999,9,08161,1","6,1,009,1,-002,1",,,"SYN124AAXX  03001 76373 32506 73102 10302 21020 38161 40096 56009 87600 92350 333 10350 20103 30/// 51051 56900 59002 70000 87620;",
"76373099999","2012-05-03T03:00:00","4","25.35","-105.75","1967.0","TEPEHUANES DGO., MX","FM-12","99999","V020","300,1,N,0010,1","03600,1,C,N","000600,1,N,1","+0242,1","+0024,1","10128,1",,,,,,"04,1,+00720,1,06,1",,"06,99,1,04,1,05,1,01250,1,07,1,00,1",,"01,9",,,,"99999,9,08187,1","2,1,026,1,+007,1",,,"SYN106AAXX  03031 76373 32606 63001 10242 20024 38187 40128 52026 84570 90250 333 30/// 56990 58007 84624 82358;",
"76373099999","2012-05-03T12:00:00","4","25.35","-105.75","1967.0","TEPEHUANES DGO., MX","FM-12","99999","V020","999,9,C,0000,1","00690,1,9,N","001000,1,N,1","+0144,1","+0008,1","10145,1","24,0000,9,1",,,,,"08,1,+00690,1,06,1",,"08,99,1,08,1,06,1,00800,1,00,1,00,1",,"01,9",,"120,N,+0132,1","240,M,+0350,1","99999,9,08200,1","9,9,999,9,-012,1",,,"SYN118AAXX  03121 76373 32510 80000 10144 20008 38200 40145 5//// 88600 91150 333 10350 20132 30125 56900 59012 70000 88623;",
"76373099999","2012-05-03T18:00:00","4","25.35","-105.75","1967.0","TEPEHUANES DGO., MX","FM-12","99999","V020","110,1,N,0010,1","22000,1,9,N","030000,1,N,1","+0310,1","-0039,1","10135,1",,,,,,"02,1,+00750,1,08,1",,"02,99,1,02,1,02,1,00800,1,00,1,00,1",,"01,9",,"120,M,+0320,1","240,N,+0132,1","99999,9,08193,1","7,1,019,1,-003,1",,,"SYN112AAXX  03181 76373 32580 21101 10310 21039 38193 40135 57019 82200 91755 333 10320 20132 30/// 56900 59003 82825;",
"76373099999","2012-05-03T21:00:00","4","25.35","-105.75","1967.0","TEPEHUANES DGO., MX","FM-12","99999","V020","290,1,N,0030,1","22000,1,9,N","020000,1,N,1","+0326,1","-0138,1","10123,1",,,,,,"03,1,+00750,1,08,1",,"03,99,1,03,1,03,1,00800,1,00,1,00,1",,"01,9",,,,"99999,9,08183,1","7,1,010,1,+013,1",,,"SYN100AAXX  03211 76373 32570 32903 10326 21138 38183 40123 57010 83300 92055 333 30/// 56900 58013 83825;",
"76373099999","2012-05-04T00:00:00","4","25.35","-105.75","1967.0","TEPEHUANES DGO., MX","FM-12","99999","V020","250,1,N,0030,1","22000,1,9,N","010000,1,N,1","+0300,1","-0097,1","10124,1","24,0000,9,1",,,,,,,"03,99,1,03,1,03,1,00800,1,00,1,00,1",,"01,9",,"120,M,+0344,1","180,N,+0132,1","99999,9,08183,1","4,1,000,1,+022,1",,,"SYN124AAXX  04001 76373 32560 32503 10300 21097 38183 40124 54000 83300 92355 333 10344 20132 30/// 51081 56900 58022 70000 83825;",
"76373099999","2012-05-04T03:00:00","4","25.35","-105.75","1967.0","TEPEHUANES DGO., MX","FM-12","99999","V020","070,1,N,0010,1","22000,1,9,N","001000,1,N,1","+0230,1","-0087,1","10142,1",,,,,,"01,1,+00750,1,08,1",,"01,99,1,01,1,01,1,00800,1,00,1,00,1",,"01,9",,,,"99999,9,08198,1","2,1,015,1,+011,1",,,"SYN100AAXX  04031 76373 32510 10701 10230 21087 38198 40142 52015 81100 90255 333 30/// 56900 58011 81825;",
"76373099999","2012-05-04T12:00:00","4","25.35","-105.75","1967.0","TEPEHUANES DGO., MX","FM-12","99999","V020","999,9,C,0000,1","22000,1,9,N","001000,1,N,1","+0132,1","-0011,1","10163,1","24,0000,9,1",,,,,"01,1,+00750,1,08,1",,"02,99,1,02,1,02,1,00800,1,00,1,00,1",,"01,9",,"120,N,+0122,1","240,M,+0344,1","99999,9,08216,1","9,9,999,9,+016,1",,,"SYN118AAXX  04121 76373 32510 20000 10132 21011 38216 40163 5//// 82200 91155 333 10344 20122 30114 56900 58016 70000 81825;",
"76373099999","2012-05-04T15:00:00","4","25.35","-105.75","1967.0","TEPEHUANES DGO., MX","FM-12","99999","V020","999,9,C,0000,1","22000,1,9,N","003000,1,N,1","+0208,1","-0001,1","10177,1",,,,,,"01,1,+00750,1,08,1","01,1,+00900,1,03,1","03,99,1,02,1,01,1,00800,1,01,1,01,1",,"01,9",,,,"99999,9,08226,1","2,1,010,1,+014,1",,,"SYN112AAXX  04151 76373 32530 30000 10208 21001 38226 40177 52010 82111 91450 333 30/// 56999 58014 81825 81330 81067;",
"76373099999","2012-05-04T18:00:00","4","25.35","-105.75","1967.0","TEPEHUANES DGO., MX","FM-12","99999","V020","140,1,N,0020,1","22000,1,9,N","010000,1,N,1","+0302,2","-0020,1","10169,1",,,,,,"02,1,+00600,1,06,1",,"04,99,1,04,1,04,1,00800,1,00,1,00,1",,"01,9",,"120,M,+0310,1","240,N,+0122,1","99999,9,08220,1","7,1,006,1,+027,1",,,"SYN118AAXX  04181 76373 32560 41402 10302 21020 38220 40169 57006 84400 91755 333 10310 20122 30/// 56900 58027 82620 82825;",
"76373099999","2012-05-04T21:00:00","4","25.35","-105.75","1967.0","TEPEHUANES DGO., MX","FM-12","99999","V020","290,1,N,0020,1","00600,1,9,N","030000,1,N,1","+0260,1","+0022,1","10163,1",,,,,,"05,1,+00600,1,07,1",,"08,99,1,08,1,08,1,00800,1,00,1,00,1",,"01,9",,,,"99999,9,08216,1","7,1,004,1,+033,1",,,"SYN106AAXX  04211 76373 32580 82902 10260 20022 38216 40163 57004 88800 92050 333 30/// 56900 58033 85720 83625;",
"76373099999","2012-05-05T00:00:00","4","25.35","-105.75","1967.0","TEPEHUANES DGO., MX","FM-12","99999","V020","160,1,N,0010,1","01200,1,9,N","010000,1,N,1","+0262,1","+0023,1","10147,1","24,0010,9,1",,,,,"04,1,+00600,1,07,1",,"08,99,1,08,1,08,1,00800,1,00,1,00,1",,"01,9",,"120,M,+0320,1","180,N,+0122,1","99999,9,08202,1","7,1,014,1,+019,1",,,"SYN130AAXX  05001 76373 32560 81601 10262 20023 38202 40147 57014 88800 92355 333 10320 20122 30/// 50531 56900 58019 70010 84720 84625;",
"76373099999","2012-05-05T03:00:00","4","25.35","-105.75","1967.0","TEPEHUANES DGO., MX","FM-12","99999","V020","110,1,N,0020,1","00600,1,9,N","001000,1,N,1","+0150,1","+0060,1","10190,1",,,,,,"05,1,+00600,1,07,1",,"08,99,1,08,1,08,1,00800,1,00,1,00,1",,"01,9",,,,"99999,9,08237,1","2,1,035,1,+039,1",,,"SYN106AAXX  05031 76373 32510 81102 10150 20060 38237 40190 52035 88800 90255 333 30/// 56900 58039 85720 83625;",
"76373099999","2012-05-05T06:00:00","4","25.35","-105.75","1967.0","TEPEHUANES DGO., MX","FM-12","99999","V020","999,9,C,0000,1","00600,1,C,N","000500,1,N,1","+0158,1","+0088,1","10200,1",,,,,,"05,1,+00600,1,07,1",,"08,99,1,08,1,08,1,00800,1,00,1,00,1","0396,9","01,9",,"240,M,+0320,1","240,N,+0122,1","99999,9,08245,1","2,1,008,1,+033,1",,,"SYN130AAXX  05061 76373 32505 80000 10158 20088 38245 40200 52008 88800 90550 333 10320 20122 30/// 55066 20805 56900 58033 85720 83625;",
"76373099999","2012-05-05T12:00:00","4","25.35","-105.75","1967.0","TEPEHUANES DGO., MX","FM-12","99999","V020","290,1,N,0020,1","00600,1,9,N","000500,1,N,1","+0130,1","+0091,1","10177,1","24,0005,9,1",,,,,"06,1,+00600,1,07,1",,"08,99,1,08,1,08,1,00800,1,00,1,00,1",,"01,9",,"120,N,+0118,1","240,M,+0320,1","99999,9,08226,1","9,9,999,9,+010,1",,,"SYN124AAXX  05121 76373 32505 82902 10130 20091 38226 40177 5//// 88800 91155 333 10320 20118 30106 56900 58010 70005 86720 82625;",
"76373099999","2012-05-05T15:00:00","4","25.35","-105.75","1967.0","TEPEHUANES DGO., MX","FM-12","99999","V020","999,9,C,0000,1","00600,1,9,N","010000,1,N,1","+0178,1","+0080,1","10182,1",,,,,,"06,1,+00600,1,06,1",,"06,99,1,06,1,06,1,00800,1,00,1,00,1",,"01,9",,,,"99999,9,08230,1","2,1,004,1,+003,1",,,"SYN100AAXX  05151 76373 32560 60000 10178 20080 38230 40182 52004 86600 91455 333 30/// 56900 58003 86620;",
"76373099999","2012-05-05T18:00:00","4","25.35","-105.75","1967.0","TEPEHUANES DGO., MX","FM-12","99999","V020","250,1,N,0010,1","00600,1,9,N","030000,1,N,1","+0256,1","+0008,1","10188,1",,,,,,"06,1,+00600,1,06,1",,"06,99,1,06,1,06,1,00800,1,00,1,00,1",,"01,9",,"120,M,+0260,1","240,N,+0118,1","99999,9,08236,1","2,1,006,1,+016,1",,,"SYN112AAXX  05181 76373 32580 62501 10256 20008 38236 40188 52006 86600 91750 333 10260 20118 30/// 56900 58016 86620;",
"76373099999","2012-05-06T00:00:00","4","25.35","-105.75","1967.0","TEPEHUANES DGO., MX","FM-12","99999","V020","270,1,N,0010,1","22000,1,9,N","020000,1,N,1","+0268,1","+0004,1","10131,1","24,0015,9,1",,,,,,,"04,99,1,04,1,04,1,00800,1,00,1,00,1",,"01,9",,"120,M,+0310,1","180,N,+0118,1","99999,9,08189,1","7,1,014,1,-003,1",,,"SYN124AAXX  06001 76373 32570 42701 10268 20004 38189 40131 57014 84400 92350 333 10310 20118 30/// 50531 56900 59003 70015 84825;",
"76373099999","2012-05-06T15:00:00","4","25.35","-105.75","1967.0","TEPEHUANES DGO., MX","FM-12","99999","V020","999,9,C,0000,1","22000,1,9,N","020000,1,N,1","+0187,1","+0032,1","10180,1",,,,,,"00,1,+99999,9,99,9",,"00,99,1,00,1,00,1,99999,9,00,1,00,1",,"01,9",,,,"99999,9,08229,1","2,1,004,1,-001,1",,,"SYN082AAXX  06151 76373 32970 00000 10187 20032 38229 40180 52004 91450 333 30/// 59001;",
"76373099999","2012-05-06T21:00:00","4","25.35","-105.75","1967.0","TEPEHUANES DGO., MX","FM-12","99999","V020","999,9,C,0000,1","22000,1,9,N","020000,1,N,1","+0289,1","-0014,1","10139,1",,,,,,"04,1,+00750,1,08,1",,"04,99,1,04,1,02,1,00800,1,00,1,00,1",,"01,9",,,,"99999,9,08196,1","7,1,015,1,-007,1",,,"SYN100AAXX  06211 76373 32570 42000 10289 21014 38196 40139 57015 84200 92050 333 30/// 56900 59007 84825;",
"76373099999","2012-05-07T00:00:00","4","25.35","-105.75","1967.0","TEPEHUANES DGO., MX","FM-12","99999","V020","250,1,N,0010,1","22000,1,9,N","020000,1,N,1","+0288,1","-0002,1","10126,1","24,0000,9,1",,,,,,,"01,99,1,01,1,02,1,00800,1,00,1,00,1",,"01,9",,"120,M,+0320,1","180,N,+0055,1","99999,9,08185,1","7,1,011,1,-004,1",,,"SYN124AAXX  07001 76373 32570 12501 10288 21002 38185 40126 57011 81200 92350 333 10320 20055 30/// 50791 56900 59004 70000 81825;",
"76373099999","2012-05-07T03:00:00","4","25.35","-105.75","1967.0","TEPEHUANES DGO., MX","FM-12","99999","V020","999,9,C,0000,1","22000,1,9,N","005000,1,N,1","+0224,1","+0032,1","10147,1",,,,,,"00,1,+99999,9,99,9",,"00,99,1,00,1,00,1,99999,9,00,1,00,1",,"01,9",,,,"99999,9,08202,1","2,1,017,1,-020,1",,,"SYN082AAXX  07031 76373 32950 00000 10224 20032 38202 40147 52017 90250 333 30/// 59020;",
"76373099999","2012-05-07T12:00:00","4","25.35","-105.75","1967.0","TEPEHUANES DGO., MX","FM-12","99999","V020","999,9,C,0000,1","22000,1,9,N","005000,1,N,1","+0101,1","+0044,1","10153,1",,,,,,"00,1,+99999,9,99,9",,"00,99,1,00,1,00,1,99999,9,00,1,00,1","0534,9","01,9",,"120,N,+0093,1","240,M,+0320,1","99999,9,08207,1","9,9,999,9,-018,1",,,"SYN112AAXX  07121 76373 32950 00000 10101 20044 38207 40153 5//// 91150 333 10320 20093 30085 55089 21611 59018 70000;",
"76373099999","2012-05-07T15:00:00","4","25.35","-105.75","1967.0","TEPEHUANES DGO., MX","FM-12","99999","V020","999,9,C,0000,1","22000,1,9,N","020000,1,N,1","+0195,1","+0049,1","10155,1",,,,,,"00,1,+99999,9,99,9",,"00,99,1,00,1,00,1,99999,9,00,1,00,1",,"01,9",,,,"99999,9,08209,1","2,1,002,1,-020,1",,,"SYN082AAXX  07151 76373 32970 00000 10195 20049 38209 40155 52002 91450 333 30/// 59020;",
"76373099999","2012-05-07T21:00:00","4","25.35","-105.75","1967.0","TEPEHUANES DGO., MX","FM-12","99999","V020","250,1,N,0010,1","22000,1,9,N","030000,1,N,1","+0299,1","-0062,1","10112,1",,,,,,"00,1,+99999,9,99,9",,"00,99,1,00,1,00,1,99999,9,00,1,00,1",,"01,9",,,,"99999,9,08174,1","7,1,020,1,-042,1",,,"SYN082AAXX  07211 76373 32980 02501 10299 21062 38174 40112 57020 92050 333 30/// 59042;",
"76373099999","2012-05-08T00:00:00","4","25.35","-105.75","1967.0","TEPEHUANES DGO., MX","FM-12","99999","V020","250,1,N,0010,1","22000,1,9,N","030000,1,N,1","+0278,1","-0004,1","10111,1","24,0000,9,1",,,,,"00,1,+99999,9,99,9",,"00,99,1,00,1,00,1,99999,9,00,1,00,1",,"01,9",,"120,M,+0328,1","180,N,+0093,1","99999,9,08173,1","6,1,001,1,-029,1",,,"SYN106AAXX  08001 76373 32980 02501 10278 21004 38173 40111 56001 92350 333 10328 20093 30/// 50541 59029 70000;","Q01  00002PRCP24"
"76373099999","2012-05-08T03:00:00","4","25.35","-105.75","1967.0","TEPEHUANES DGO., MX","FM-12","99999","V020","999,9,C,0000,1","22000,1,9,N","001000,1,N,1","+0213,1","+0036,1","10129,1",,,,,,"00,1,+99999,9,99,9",,"00,99,1,00,1,00,1,99999,9,00,1,00,1",,"01,9",,,,"99999,9,08188,1","2,1,015,1,-049,1",,,"SYN082AAXX  08031 76373 32910 00000 10213 20036 38188 40129 52015 90258 333 30/// 59049;",
"76373099999","2012-05-08T12:00:00","4","25.35","-105.75","1967.0","TEPEHUANES DGO., MX","FM-12","99999","V020","999,9,C,0000,1","22000,1,9,N","001000,1,N,1","+0091,1","+0036,1","10137,1","24,0000,9,1",,,,,"00,1,+99999,9,99,9",,"00,99,1,00,1,00,1,99999,9,00,1,00,1",,"01,9",,"120,N,+0080,1","240,M,+0328,1","99999,9,08194,1","9,9,999,9,-013,1",,,"SYN100AAXX  08121 76373 32910 00000 10091 20036 38194 40137 5//// 91155 333 10328 20080 30075 59013 70000;","Q01  00002PRCP24"
"76373099999","2012-05-08T15:00:00","4","25.35","-105.75","1967.0","TEPEHUANES DGO., MX","FM-12","99999","V020","999,9,C,0000,1","22000,1,9,N","020000,1,N,1","+0188,1","+0053,1","10144,1",,,,,,"00,1,+99999,9,99,9",,"00,99,1,00,1,00,1,99999,9,00,1,00,1",,"01,9",,,,"99999,9,08200,1","2,1,006,1,-009,1",,,"SYN082AAXX  08151 76373 32970 00000 10188 20053 38200 40144 52006 91455 333 30/// 59009;",
"76373099999","2012-05-08T18:00:00","4","25.35","-105.75","1967.0","TEPEHUANES DGO., MX","FM-12","99999","V020","999,9,C,0000,1","22000,1,9,N","030000,1,N,1","+0274,1","-0030,1","10121,1",,,,,,"00,1,+99999,9,99,9",,"00,99,1,00,1,00,1,99999,9,00,1,00,1",,"01,9",,"120,M,+0280,1","240,N,+0080,1","99999,9,08181,1","7,1,019,1,-013,1",,,"SYN094AAXX  08181 76373 32980 00000 10274 21030 38181 40121 57019 91750 333 10280 20080 30/// 59013;",
"76373099999","2012-05-08T21:00:00","4","25.35","-105.75","1967.0","TEPEHUANES DGO., MX","FM-12","99999","V020","250,1,N,0010,1","22000,1,9,N","030000,1,N,1","+0295,1","-0045,1","10100,1",,,,,,"00,1,+99999,9,99,9",,"00,99,1,00,1,00,1,99999,9,00,1,00,1",,"01,9",,,,"99999,9,08165,1","7,1,016,1,-009,1",,,"SYN082AAXX  08211 76373 32980 02501 10295 21045 38165 40100 57016 92050 333 30/// 59009;",
"76373099999","2012-05-09T00:00:00","4","25.35","-105.75","1967.0","TEPEHUANES DGO., MX","FM-12","99999","V020","230,1,N,0010,1","22000,1,9,N","020000,1,N,1","+0256,1","-0044,1","10095,1","24,0000,9,1",,,,,,,"01,99,1,01,1,02,1,01250,1,00,1,00,1",,"01,9",,"120,M,+0311,1","180,N,+0080,1","99999,9,08160,1","7,1,005,1,-013,1",,,"SYN124AAXX  09001 76373 32670 12301 10256 21044 38160 40095 57005 81200 92350 333 10311 20080 30075 50871 56900 59013 70000 81827;",
"76373099999","2012-05-09T03:00:00","4","25.35","-105.75","1967.0","TEPEHUANES DGO., MX","FM-12","99999","V020","999,9,C,0000,1","22000,1,9,N","000600,1,N,1","+0202,1","-0006,1","10120,1",,,,,,"01,1,+00810,1,08,1",,"01,99,1,01,1,02,1,01250,1,00,1,00,1",,"01,9",,,,"99999,9,08181,1","2,1,021,1,-007,1",,,"SYN100AAXX  09031 76373 32606 10000 10202 21006 38181 40120 52021 81200 90250 333 30/// 56900 59007 81827;",
"76373099999","2012-05-09T12:00:00","4","25.35","-105.75","1967.0","TEPEHUANES DGO., MX","FM-12","99999","V020","999,9,C,0000,1","22000,1,9,N","000600,1,N,1","+0057,1","-0029,1","10132,1","24,0000,9,1",,,,,"00,1,+99999,9,99,9",,"00,99,1,00,1,00,1,99999,9,00,1,00,1",,"01,9","999,+0040,9","120,N,+0050,1","240,M,+0311,1","99999,9,08190,1","9,9,999,9,-004,1",,,"SYN100AAXX  09121 76373 32906 00000 10057 21029 38190 40132 5//// 91150 333 10311 20050 30040 59004 70000;","Q01  00002PRCP24"
"76373099999","2012-05-09T15:00:00","4","25.35","-105.75","1967.0","TEPEHUANES DGO., MX","FM-12","99999","V020","999,9,C,0000,1","22000,1,9,N","020000,1,N,1","+0186,1","+0013,1","10135,1",,,,,,"00,1,+99999,9,99,9",,"00,99,1,00,1,00,1,99999,9,00,1,00,1",,"01,9",,,,"99999,9,08193,1","8,1,003,1,+999,9",,,"SYN081AAXX  09151 76373 32970 00000 10186 20013 38193 40135 58003 91450 333 30/// 5907;",
"76373099999","2012-05-09T18:00:00","4","25.35","-105.75","1967.0","TEPEHUANES DGO., MX","FM-12","99999","V020","220,1,N,0010,1","22000,1,9,N","020000,1,N,1","+0278,1","-0078,1","10122,1",,,,,,"01,1,+00900,1,08,1",,"01,99,1,01,1,01,1,01250,1,00,1,00,1",,"01,9",,"120,M,+0288,1","240,N,+0050,1","99999,9,08182,1","7,1,009,1,+005,1",,,"SYN112AAXX  09181 76373 32670 12201 10278 21078 38182 40122 57009 81100 91745 333 10288 20050 30/// 56900 58005 81830;",
"76373099999","2012-05-09T21:00:00","4","25.35","-105.75","1967.0","TEPEHUANES DGO., MX","FM-12","99999","V020","230,1,N,0010,1","22000,1,9,N","020000,1,N,1","+0283,1","-0074,1","10099,1",,,,,,"01,1,+00900,1,08,1",,"01,99,1,01,1,02,1,01250,1,00,1,00,1",,"01,9",,,,"99999,9,08164,1","7,1,018,1,-005,1",,,"SYN100AAXX  09211 76373 32670 12301 10283 21074 38164 40099 57018 81200 92050 333 30/// 56900 59005 81830;",
"76373099999","2012-05-10T00:00:00","4","25.35","-105.75","1967.0","TEPEHUANES DGO., MX","FM-12","99999","V020","230,1,N,0010,1","22000,1,9,N","020000,1,N,1","+0248,1","-0045,1","10090,1","24,0000,9,1",,,,,,,"01,99,1,01,1,02,1,01250,1,00,1,00,1",,"01,9",,"120,M,+0298,1","180,N,+0050,1",,"7,1,008,1,-004,1",,,"SYN124AAXX  10001 76373 32670 12301 10248 21045 38256 40090 57008 81200 92350 333 10298 20050 30/// 51071 56900 59004 70000 81830;","Q01+082563APOSP "
"76373099999","2012-05-10T03:00:00","4","25.35","-105.75","1967.0","TEPEHUANES DGO., MX","FM-12","99999","V020","999,9,C,0000,1","22000,1,9,N","000400,1,N,1","+0187,1","-0031,1","10105,1",,,,,,"01,1,+00900,1,08,1",,"01,99,1,01,1,01,1,01250,1,00,1,00,1",,"01,9",,,,"99999,9,08169,1","2,1,013,1,-012,1",,,"SYN100AAXX  10031 76373 32604 10000 10187 21031 38169 40105 52013 81100 90250 333 30/// 56900 59012 81830;",
"76373099999","2012-05-10T12:00:00","4","25.35","-105.75","1967.0","TEPEHUANES DGO., MX","FM-12","99999","V020","999,9,C,0000,1","22000,1,9,N","001000,1,N,1","+0061,1","-0017,1","10104,1","24,0000,9,1",,,,,"01,1,+00810,1,06,1",,"01,99,1,01,1,04,1,01250,1,00,1,00,1",,"01,9","999,+0040,9","120,N,+0052,1","240,M,+0298,1","99999,9,08168,1","9,9,999,9,-022,1",,,"SYN118AAXX  10121 76373 32610 10000 10061 21017 38168 40104 5//// 81400 91150 333 10298 20052 30040 56300 59022 70000 81627;",
"76373099999","2012-05-10T15:00:00","4","25.35","-105.75","1967.0","TEPEHUANES DGO., MX","FM-12","99999","V020","999,9,C,0000,1","22000,1,9,N","015000,1,N,1","+0184,1","-0058,1","10109,1",,,,,,"00,1,+99999,9,99,9",,"00,99,1,00,1,00,1,99999,9,00,1,00,1",,"01,9",,,,"99999,9,08172,1","2,1,004,1,-021,1",,,"SYN082AAXX  10151 76373 32965 00000 10184 21058 38172 40109 52004 91450 333 30/// 59021;",
"76373099999","2012-05-10T21:00:00","4","25.35","-105.75","1967.0","TEPEHUANES DGO., MX","FM-12","99999","V020","250,1,N,0030,1","22000,1,9,N","030000,1,N,1","+0266,1","-0127,1","10074,1",,,,,,,,"01,99,1,00,1,00,1,99999,9,00,1,01,1",,,,,,"99999,9,08144,1","7,1,012,1,-020,1",,,"SYN100AAXX  10211 76373 32980 12503 10266 21127 38144 40074 57012 80001 82055 333 30/// 56009 59020 81067;",
"76373099999","2012-05-11T00:00:00","4","25.35","-105.75","1967.0","TEPEHUANES DGO., MX","FM-12","99999","V020","250,1,N,0020,1","22000,1,9,N","030000,1,N,1","+0254,1","-0086,1","10072,1","24,0000,9,1",,,,,"00,1,+99999,9,99,9",,"00,99,1,00,1,00,1,99999,9,00,1,00,1",,"01,9",,"120,M,+0290,1","180,N,+0052,1","99999,9,08141,1","7,1,003,1,-015,1",,,"SYN106AAXX  11001 76373 32980 02502 10254 21086 38141 40072 57003 92355 333 10290 20052 30/// 50901 59015 70000;","Q01  00002PRCP24"
"76373099999","2012-05-11T03:00:00","4","25.35","-105.75","1967.0","TEPEHUANES DGO., MX","FM-12","99999","V020","320,1,N,0020,1","22000,1,9,N","001000,1,N,1","+0182,1","-0073,1","10104,1",,,,,,"00,1,+99999,9,99,9",,"00,99,1,00,1,00,1,99999,9,00,1,00,1",,"01,9",,,,"99999,9,08167,1","2,1,026,1,-002,1",,,"SYN082AAXX  11031 76373 32910 03202 10182 21073 38167 40104 52026 90255 333 30/// 59002;",
"76373099999","2012-05-11T12:00:00","4","25.35","-105.75","1967.0","TEPEHUANES DGO., MX","FM-12","99999","V020","999,9,C,0000,1","22000,1,9,N","001000,1,N,1","+0046,1","-0057,1","10135,1","24,0000,9,1",,,,,"00,1,+99999,9,99,9",,"00,99,1,00,1,00,1,99999,9,00,1,00,1",,"01,9","999,+0016,9","120,N,+0022,1","240,M,+0290,1","99999,9,08193,1","9,9,999,9,+025,1",,,"SYN100AAXX  11121 76373 32910 00000 10046 21057 38193 40135 5//// 91155 333 10290 20022 30016 58025 70000;","Q01  00002PRCP24"
"76373099999","2012-05-11T15:00:00","4","25.35","-105.75","1967.0","TEPEHUANES DGO., MX","FM-12","99999","V020","340,1,N,0010,1","22000,1,9,N","010000,1,N,1","+0144,1","-0043,1","10143,1",,,,,,"00,1,+99999,9,99,9",,"00,99,1,00,1,00,1,99999,9,00,1,00,1",,"01,9",,,,"99999,9,08199,1","2,1,006,1,+027,1",,,"SYN082AAXX  11151 76373 32960 03401 10144 21043 38199 40143 52006 91450 333 30/// 58027;",
"76373099999","2012-05-11T18:00:00","4","25.35","-105.75","1967.0","TEPEHUANES DGO., MX","FM-12","99999","V020","160,1,N,0010,1","22000,1,9,N","010000,1,N,1","+0212,1","-0097,1","10132,1",,,,,,"00,1,+99999,9,99,9",,"00,99,1,00,1,00,1,99999,9,00,1,00,1",,"01,9",,"120,M,+0270,1","240,N,+0022,1","99999,9,08190,1","7,1,009,1,+028,1",,,"SYN094AAXX  11181 76373 32960 01601 10212 21097 38190 40132 57009 91755 333 10270 20022 30/// 58028;",
"76373099999","2012-05-11T21:00:00","4","25.35","-105.75","1967.0","TEPEHUANES DGO., MX","FM-12","99999","V020","110,1,N,0010,1","22000,1,9,N","020000,1,N,1","+0288,1","-0106,1","10104,1",,,,,,"01,1,+00750,1,08,1",,"01,99,1,01,1,01,1,00800,1,00,1,00,1",,"01,9",,,,"99999,9,08168,1","7,1,022,1,+024,1",,,"SYN100AAXX  11211 76373 32570 11101 10288 21106 38168 40104 57022 81100 92055 333 30/// 56900 58024 81825;",
"76373099999","2012-05-12T00:00:00","4","25.35","-105.75","1967.0","TEPEHUANES DGO., MX","FM-12","99999","V020","140,1,N,0010,1","00750,1,9,N","020000,1,N,1","+0270,1","-0080,1","10099,1","24,0000,9,1",,,,,"02,1,+00600,1,06,1",,"05,99,1,05,1,05,1,00800,1,00,1,00,1",,"01,9",,"120,M,+0320,1","180,N,+0022,1","99999,9,08164,1","7,1,004,1,+023,1",,,"SYN130AAXX  12001 76373 32570 51401 10270 21080 38164 40099 57004 85500 92355 333 10320 20022 30/// 50771 56900 58023 70000 82620 83825;",
"76373099999","2012-05-12T03:00:00","4","25.35","-105.75","1967.0","TEPEHUANES DGO., MX","FM-12","99999","V020","290,1,N,0010,1","22000,1,9,N","001000,1,N,1","+0224,1","-0013,1","10122,1",,,,,,"02,1,+00600,1,06,1",,"02,99,1,02,1,02,1,00800,1,00,1,00,1",,"01,9",,,,"99999,9,08182,1","2,1,018,1,+015,1",,,"SYN100AAXX  12031 76373 32510 22901 10224 21013 38182 40122 52018 82200 90250 333 30/// 56900 58015 82620;",
"76373099999","2012-05-12T06:00:00","4","25.35","-105.75","1967.0","TEPEHUANES DGO., MX","FM-12","99999","V020","999,9,C,0000,1","22000,1,9,N","000500,1,N,1","+0156,1","-0020,1","10155,1",,,,,,,,"02,99,1,99,9,99,9,00800,1,99,9,99,9","0570,9","01,9",,"240,M,+0320,1","240,N,+0022,1","99999,9,08209,1","2,1,027,1,+025,1",,,"SYN118AAXX  12061 76373 32505 20000 10156 21020 38209 40155 52027 90545 333 10320 20022 30/// 55095 22013 56900 58025 82620;",
"76373099999","2012-05-12T12:00:00","4","25.35","-105.75","1967.0","TEPEHUANES DGO., MX","FM-12","99999","V020","999,9,C,0000,1","22000,1,9,N","001000,1,N,1","+0076,1","-0025,1","10173,1","24,0000,9,1",,,,,"00,1,+99999,9,99,9",,"00,99,1,00,1,00,1,99999,9,00,1,00,1",,"01,9","999,+0042,9","120,N,+0054,1","240,M,+0320,1","99999,9,08224,1","9,9,999,9,+031,1",,,"SYN100AAXX  12121 76373 32910 00000 10076 21025 38224 40173 5//// 91155 333 10320 20054 30042 58031 70000;","Q01  00002PRCP24"
"76373099999","2012-05-12T15:00:00","4","25.35","-105.75","1967.0","TEPEHUANES DGO., MX","FM-12","99999","V020","999,9,C,0000,1","22000,1,9,N","003000,1,N,1","+0162,1","-0007,1","10188,1",,,,,,"00,1,+99999,9,99,9",,"00,99,1,00,1,00,1,99999,9,00,1,00,1",,"01,9",,,,"99999,9,08235,1","2,1,011,1,+036,1",,,"SYN082AAXX  12151 76373 32930 00000 10162 21007 38235 40188 52011 91435 333 30/// 58036;",
"76373099999","2012-05-12T18:00:00","4","25.35","-105.75","1967.0","TEPEHUANES DGO., MX","FM-12","99999","V020","140,1,N,0010,1","22000,1,9,N","030000,1,N,1","+0286,1","-0041,1","10185,1",,,,,,"00,1,+99999,9,99,9",,"00,99,1,00,1,00,1,99999,9,00,1,00,1",,"01,9",,"120,M,+0290,1","240,N,+0054,1","99999,9,08233,1","7,1,002,1,+043,1",,,"SYN094AAXX  12181 76373 32980 01401 10286 21041 38233 40185 57002 91755 333 10290 20054 30/// 58043;",
"76373099999","2012-05-12T21:00:00","4","25.35","-105.75","1967.0","TEPEHUANES DGO., MX","FM-12","99999","V020","160,1,N,0010,1","22000,1,9,N","030000,1,N,1","+0312,1","-0098,1","10157,1",,,,,,"00,1,+99999,9,99,9",,"00,99,1,00,1,00,1,99999,9,00,1,00,1",,"01,9",,,,"99999,9,08211,1","7,1,022,1,-021,1",,,"SYN082AAXX  12211 76373 32980 01601 10312 21098 38211 40157 57022 92050 333 30/// 59021;",
"76373099999","2012-05-13T00:00:00","4","25.35","-105.75","1967.0","TEPEHUANES DGO., MX","FM-12","99999","V020","999,9,C,0000,1","22000,1,9,N","020000,1,N,1","+0298,1","-0078,1","10131,1","24,0000,9,1",,,,,,,"01,99,1,01,1,02,1,00800,1,00,1,00,1",,"01,9",,"120,M,+0338,1","180,N,+0054,1","99999,9,08189,1","7,1,022,1,+025,1",,,"SYN124AAXX  13001 76373 32570 10500 10298 21078 38189 40131 57022 81200 92350 333 10338 20054 30/// 50891 56900 58025 70000 81825;",
"76373099999","2012-05-13T03:00:00","4","25.35","-105.75","1967.0","TEPEHUANES DGO., MX","FM-12","99999","V020","999,9,C,0000,1","22000,1,9,N","005000,1,N,1","+0237,1","-0015,1","10152,1",,,,,,"00,1,+99999,9,99,9",,"00,99,1,00,1,00,1,99999,9,00,1,00,1",,"01,9",,,,"99999,9,08206,1","2,1,017,1,+024,1",,,"SYN082AAXX  13031 76373 32950 00000 10237 21015 38206 40152 52017 90250 333 30/// 58024;",
"76373099999","2012-05-13T12:00:00","4","25.35","-105.75","1967.0","TEPEHUANES DGO., MX","FM-12","99999","V020","999,9,C,0000,1","22000,1,9,N","010000,1,N,1","+0105,1","+0006,1","10192,1",,,,,,"00,1,+99999,9,99,9",,"00,99,1,00,1,00,1,99999,9,00,1,00,1","0660,9","01,9",,"120,N,+0096,1","240,M,+0338,1","99999,9,08239,1","9,9,999,9,+015,1",,,"SYN112AAXX  13121 76373 32960 00000 10105 20006 38239 40192 5//// 91150 333 10338 20096 30089 55110 22472 58015 70000;",
"76373099999","2012-05-13T18:00:00","4","25.35","-105.75","1967.0","TEPEHUANES DGO., MX","FM-12","99999","V020","130,1,N,0010,1","22000,1,9,N","020000,1,N,1","+0288,1","+0039,1","10178,1",,,,,,"01,1,+00750,1,08,1",,"01,99,1,01,1,02,1,00800,1,00,1,00,1",,"01,9",,"120,M,+0295,1","240,N,+0096,1","99999,9,08228,1","7,1,017,1,-005,1",,,"SYN112AAXX  13181 76373 32570 11301 10288 20039 38228 40178 57017 81200 91750 333 10295 20096 30/// 56900 59005 81825;",
"76373099999","2012-05-13T21:00:00","4","25.35","-105.75","1967.0","TEPEHUANES DGO., MX","FM-12","99999","V020","360,1,N,0020,1","22000,1,9,N","020000,1,N,1","+0301,1","-0019,1","10145,1",,,,,,"03,1,+00750,1,06,1",,"04,99,1,03,1,06,1,00800,1,00,1,00,1",,"01,9",,,,"99999,9,08200,1","7,1,028,1,-011,1",,,"SYN100AAXX  13211 76373 32570 43602 10301 21019 38200 40145 57028 83600 92050 333 30/// 56900 59011 83625;",
"76373099999","2012-05-14T00:00:00","4","25.35","-105.75","1967.0","TEPEHUANES DGO., MX","FM-12","99999","V020","999,9,C,0000,1","00750,1,9,N","020000,1,N,1","+0266,1","-0001,1","10147,1","24,0000,9,1",,,,,,,"05,99,1,05,1,06,1,00800,1,00,1,00,1",,"01,9",,"120,M,+0340,1","180,N,+0096,1","99999,9,08202,1","2,1,002,1,+013,1",,,"SYN124AAXX  14001 76373 32570 50000 10266 21001 38202 40147 52002 85600 92350 333 10340 20096 30/// 50961 56900 58013 70000 85625;",
"76373099999","2012-05-14T03:00:00","4","25.35","-105.75","1967.0","TEPEHUANES DGO., MX","FM-12","99999","V020","999,9,C,0000,1","22000,1,9,N","020000,1,N,1","+0230,1","+0013,1","10168,1",,,,,,"01,1,+00750,1,06,1",,"01,99,1,01,1,06,1,00800,1,00,1,00,1",,"01,9",,,,"99999,9,08220,1","2,1,018,1,+014,1",,,"SYN100AAXX  14031 76373 32570 10000 10230 20013 38220 40168 52018 81600 90250 333 30/// 56900 58014 81625;",
"76373099999","2012-05-14T12:00:00","4","25.35","-105.75","1967.0","TEPEHUANES DGO., MX","FM-12","99999","V020","999,9,C,0000,1","22000,1,9,N","005000,1,N,1","+0136,1","+0013,1","10165,1",,,,,,"00,1,+99999,9,99,9",,"00,99,1,00,1,00,1,99999,9,00,1,00,1","0450,9","01,9",,"120,N,+0128,1","240,M,+0340,1","99999,9,08217,1","9,9,999,9,-022,1",,,"SYN112AAXX  14121 76373 32950 00000 10136 20013 38217 40165 5//// 91150 333 10340 20128 30119 55075 21514 59022 70000;",
"76373099999","2012-05-14T15:00:00","4","25.35","-105.75","1967.0","TEPEHUANES DGO., MX","FM-12","99999","V020","999,9,C,0000,1","22000,1,9,N","020000,1,N,1","+0217,1","+0036,1","10167,1",,,,,,"00,1,+99999,9,99,9",,"00,99,1,00,1,00,1,99999,9,00,1,00,1",,"01,9",,,,"99999,9,08218,1","2,1,001,1,-033,1",,,"SYN082AAXX  14151 76373 32970 00000 10217 20036 38218 40167 52001 91450 333 30/// 59033;",
"76373099999","2012-05-14T18:00:00","4","25.35","-105.75","1967.0","TEPEHUANES DGO., MX","FM-12","99999","V020","999,9,C,0000,1","22000,1,9,N","030000,1,N,1","+0327,2","-0068,1","10154,1",,,,,,"00,1,+99999,9,99,9",,"00,99,1,00,1,00,1,99999,9,00,1,00,1",,"01,9",,"120,M,+0330,1","240,N,+0128,1","99999,9,08208,1","2,1,010,1,+020,1",,,"SYN094AAXX  14181 76373 32980 00000 10327 21068 38208 40154 52010 91750 333 10330 20128 30/// 58020;",
"76373099999","2012-05-15T00:00:00","4","25.35","-105.75","1967.0","TEPEHUANES DGO., MX","FM-12","99999","V020","999,9,C,0000,1","22000,1,9,N","030000,1,N,1","+0296,1","-0090,1","10111,1","24,0000,9,1",,,,,,,"03,99,1,03,1,03,1,00800,1,00,1,00,1",,"01,9",,"120,M,+0360,1","180,N,+0128,1","99999,9,08173,1","2,1,011,1,-029,1",,,"SYN124AAXX  15001 76373 32580 30000 10296 21090 38173 40111 52011 83300 92350 333 10360 20128 30/// 50851 56900 59029 70000 83825;",
"76373099999","2012-05-15T12:00:00","4","25.35","-105.75","1967.0","TEPEHUANES DGO., MX","FM-12","99999","V020","999,9,C,0000,1","22000,1,9,N","001000,1,N,1","+0156,1","+0001,1","10147,1","24,0000,9,1",,,,,"00,1,+99999,9,99,9",,"00,99,1,00,1,00,1,99999,9,00,1,00,1",,"01,9",,"120,N,+0143,1","240,M,+0360,1","99999,9,08202,1","9,9,999,9,-015,1",,,"SYN100AAXX  15121 76373 32910 00000 10156 20001 38202 40147 5//// 91155 333 10360 20143 30135 59015 70000;","Q01  00002PRCP24"
"76373099999","2012-05-15T15:00:00","4","25.35","-105.75","1967.0","TEPEHUANES DGO., MX","FM-12","99999","V020","999,9,C,0000,1","22000,1,9,N","020000,1,N,1","+0214,1","+0047,1","10187,1",,,,,,"00,1,+99999,9,99,9",,"00,99,1,00,1,00,1,99999,9,00,1,00,1",,"01,9",,,,"99999,9,08234,1","2,1,032,1,+016,1",,,"SYN082AAXX  15151 76373 32970 00000 10214 20047 38234 40187 52032 91455 333 30/// 58016;",
"76373099999","2012-05-15T18:00:00","4","25.35","-105.75","1967.0","TEPEHUANES DGO., MX","FM-12","99999","V020","999,9,C,0000,1","22000,1,9,N","030000,1,N,1","+0261,1","+0011,1","10173,1",,,,,,"00,1,+99999,9,99,9",,"00,99,1,00,1,00,1,99999,9,00,1,00,1",,"01,9",,"120,M,+0272,1","240,N,+0143,1","99999,9,08222,1","7,1,012,1,+014,1",,,"SYN094AAXX  15181 76373 32980 00000 10261 20011 38222 40173 57012 91750 333 10272 20143 30/// 58014;",
"76373099999","2012-05-15T21:00:00","4","25.35","-105.75","1967.0","TEPEHUANES DGO., MX","FM-12","99999","V020","090,1,N,0010,1","22000,1,9,N","020000,1,N,1","+0299,1","-0013,1","10139,1",,,,,,"01,1,+00900,1,08,1",,"01,99,1,01,1,02,1,01250,1,00,1,00,1",,"01,9",,,,"99999,9,08196,1","7,1,026,1,+007,1",,,"SYN100AAXX  15211 76373 32670 10901 10299 21013 38196 40139 57026 81200 92050 333 30/// 56900 58007 81830;",
"76373099999","2012-05-16T00:00:00","4","25.35","-105.75","1967.0","TEPEHUANES DGO., MX","FM-12","99999","V020","120,1,N,0010,1","22000,1,9,N","020000,1,N,1","+0291,1","-0021,1","10118,1","24,0000,9,1",,,,,"01,1,+00810,1,06,1",,"02,99,1,02,1,04,1,01250,1,00,1,00,1",,"01,9",,"120,M,+0322,1","180,N,+0143,1","99999,9,08179,1","7,1,017,1,+006,1",,,"SYN130AAXX  16001 76373 32670 21201 10291 21021 38179 40118 57017 82400 92350 333 10322 20143 30/// 50831 56900 58006 70000 81627 81830;",
"76373099999","2012-05-16T12:00:00","4","25.35","-105.75","1967.0","TEPEHUANES DGO., MX","FM-12","99999","V020","999,9,C,0000,1","22000,1,9,N","000600,1,N,1","+0092,1","-0020,1","10174,1","24,0000,9,1",,,,,"00,1,+99999,9,99,9",,"00,99,1,00,1,00,1,99999,9,00,1,00,1",,"01,9",,"120,N,+0085,1","240,M,+0322,1","99999,9,08224,1","9,9,999,9,+022,1",,,"SYN100AAXX  16121 76373 32906 00000 10092 21020 38224 40174 5//// 91150 333 10322 20085 30077 58022 70000;","Q01  00002PRCP24"
"76373099999","2012-05-16T18:00:00","4","25.35","-105.75","1967.0","TEPEHUANES DGO., MX","FM-12","99999","V020","130,1,N,0010,1","22000,1,9,N","020000,1,N,1","+0261,1","+0027,1","10172,1",,,,,,"01,1,+00900,1,08,1",,"01,99,1,01,1,01,1,01250,1,00,1,00,1",,"01,9",,,,"99999,9,08223,1","7,1,014,1,+001,1",,,"SYN112AAXX  16181 76373 32670 11301 10261 20027 38223 40172 57014 81100 91750 333 1//// 2//// 30/// 56900 58001 81830;",
"76373099999","2012-05-16T21:00:00","4","25.35","-105.75","1967.0","TEPEHUANES DGO., MX","FM-12","99999","V020","140,1,N,0010,1","22000,1,9,N","020000,1,N,1","+0301,1","-0003,1","10136,1",,,,,,"02,1,+00900,1,08,1",,"02,99,1,02,1,02,1,01250,1,00,1,00,1",,"01,9",,,,"99999,9,08193,1","7,1,031,1,-003,1",,,"SYN100AAXX  16211 76373 32670 21401 10301 21003 38193 40136 57031 82200 92040 333 30/// 56900 59003 82830;",
"76373099999","2012-05-17T00:00:00","4","25.35","-105.75","1967.0","TEPEHUANES DGO., MX","FM-12","99999","V020","330,1,N,0030,1","00750,1,9,N","020000,1,N,1","+0216,1","+0059,1","10137,1","24,0000,9,1",,,,,,,"08,99,1,08,1,07,1,00800,1,00,1,00,1",,"01,9",,"120,M,+0321,1","180,N,+0085,1","99999,9,08195,1","3,1,002,1,+016,1",,,"SYN124AAXX  17001 76373 32570 83303 10216 20059 38195 40137 53002 88700 92350 333 10321 20085 30/// 51021 56900 58016 70000 87725;",
"76373099999","2012-05-17T03:00:00","4","25.35","-105.75","1967.0","TEPEHUANES DGO., MX","FM-12","99999","V020","320,1,N,0010,1","00690,1,9,N","000400,1,N,1","+0206,1","+0068,1","10162,1",,,,,,"08,1,+00690,1,07,1",,"08,99,1,08,1,07,1,00800,1,00,1,00,1",,"01,9",,,,"99999,9,08214,1","2,1,019,1,+009,1",,,"SYN100AAXX  17031 76373 32504 83201 10206 20068 38214 40162 52019 88700 90250 333 30/// 56900 58009 88723;",
"76373099999","2012-05-17T12:00:00","4","25.35","-105.75","1967.0","TEPEHUANES DGO., MX","FM-12","99999","V020","999,9,C,0000,1","22000,1,9,N","001000,1,N,1","+0102,1","+0050,1","10165,1","24,0000,9,1",,,,,"01,1,+00810,1,06,1",,"01,99,1,01,1,04,1,00800,1,00,1,00,1",,"01,9",,"120,N,+0093,1","240,M,+0322,1","99999,9,08217,1","9,9,999,9,-007,1",,,"SYN118AAXX  17121 76373 32510 10000 10102 20050 38217 40165 5//// 81400 91150 333 10322 20093 30081 56200 59007 70000 81627;",
"76373099999","2012-05-17T15:00:00","4","25.35","-105.75","1967.0","TEPEHUANES DGO., MX","FM-12","99999","V020","999,9,C,0000,1","22000,1,9,N","015000,1,N,1","+0191,1","+0059,1","10172,1",,,,,,"00,1,+99999,9,99,9",,"00,99,1,00,1,00,1,99999,9,00,1,00,1",,"01,9",,,,"99999,9,08222,1","2,1,005,1,-015,1",,,"SYN082AAXX  17151 76373 32965 00000 10191 20059 38222 40172 52005 91450 333 30/// 59015;",
"76373099999","2012-05-17T18:00:00","4","25.35","-105.75","1967.0","TEPEHUANES DGO., MX","FM-12","99999","V020","999,9,C,0000,1","22000,1,9,N","030000,1,N,1","+0301,1","+0011,1","10152,1",,,,,,"00,1,+99999,9,99,9",,"00,99,1,00,1,00,1,99999,9,00,1,00,1",,"01,9",,"120,M,+0309,1","240,N,+0093,1","99999,9,08206,1","2,1,016,1,-016,1",,,"SYN094AAXX  17181 76373 32980 00000 10301 20011 38206 40152 52016 91750 333 10309 20093 30/// 59016;",
"76373099999","2012-05-17T21:00:00","4","25.35","-105.75","1967.0","TEPEHUANES DGO., MX","FM-12","99999","V020","290,1,N,0010,1","22000,1,9,N","010000,1,N,1","+0328,1","-0018,1","10109,1",,,,,,"02,1,+00600,1,06,1",,"04,99,1,04,1,04,1,00800,1,00,1,00,1",,"01,9",,,,"99999,9,08172,1","7,1,034,1,-021,1",,,"SYN106AAXX  17211 76373 32560 42901 10328 21018 38172 40109 57034 84400 92055 333 30/// 56900 59021 82620 82825;",
"76373099999","2012-05-18T18:00:00","4","25.35","-105.75","1967.0","TEPEHUANES DGO., MX","FM-12","99999","V020","110,1,N,0010,1","22000,1,9,N","005000,1,N,1","+0302,1","-0013,1","10135,1",,,,,,"01,1,+00750,1,08,1",,"02,99,1,02,1,02,1,00800,1,00,1,00,1",,"01,9",,"120,M,+0310,1","240,N,+0090,1","99999,9,08193,1","7,1,013,1,-013,1",,,"SYN112AAXX  18181 76373 32550 21101 10302 21013 38193 40135 57013 82200 91750 333 10310 20090 30/// 56900 59013 81825;",
"76373099999","2012-05-18T21:00:00","4","25.35","-105.75","1967.0","TEPEHUANES DGO., MX","FM-12","99999","V020","110,1,N,0010,1","22000,1,9,N","010000,1,N,1","+0336,1","-0030,1","10099,1",,,,,,"04,1,+00750,1,06,1",,"04,99,1,04,1,04,1,00800,1,00,1,00,1",,"01,9",,,,"99999,9,08163,1","7,1,030,1,-009,1",,,"SYN100AAXX  18211 76373 32560 41101 10336 21030 38163 40099 57030 84400 92050 333 30/// 56900 59009 84625;",
"76373099999","2012-05-19T03:00:00","4","25.35","-105.75","1967.0","TEPEHUANES DGO., MX","FM-12","99999","V020","290,1,N,0020,1","01200,1,C,N","001000,1,N,1","+0226,1","+0030,1","10129,1",,,,,,"04,1,+00600,1,07,1",,"08,99,1,08,1,08,1,00800,1,00,1,00,1",,"01,9",,,,"99999,9,08188,1","2,1,031,1,-008,1",,,"SYN106AAXX  19031 76373 32510 82902 10226 20030 38188 40129 52031 88800 90255 333 30/// 56900 59008 84720 84625;",
"76373099999","2012-05-19T06:00:00","4","25.35","-105.75","1967.0","TEPEHUANES DGO., MX","FM-12","99999","V020","999,9,C,0000,1","00750,1,9,N","001000,1,N,1","+0190,1","+0039,1","10140,1",,,,,,,,"05,99,1,05,1,05,1,00800,1,00,1,00,1","0486,9","01,9",,"240,M,+0352,1","240,N,+0090,1","99999,9,08197,1","2,1,009,1,-011,1",,,"SYN124AAXX  19061 76373 32510 50000 10190 20039 38197 40140 52009 85500 90545 333 10352 20090 30/// 55081 21566 56900 59011 85625;",
"76373099999","2012-05-19T12:00:00","4","25.35","-105.75","1967.0","TEPEHUANES DGO., MX","FM-12","99999","V020","999,9,C,0000,1","22000,1,9,N","001000,1,N,1","+0112,1","+0043,1","10135,1","24,0000,9,1",,,,,"01,1,+00750,1,08,1",,"01,99,1,01,1,01,1,00800,1,00,1,00,1",,"01,9",,"120,N,+0098,1","240,M,+0352,1","99999,9,08193,1","9,9,999,9,-008,1",,,"SYN118AAXX  19121 76373 32510 10000 10112 20043 38193 40135 5//// 81100 91155 333 10352 20098 30088 56900 59008 70000 81825;",
"76373099999","2012-05-19T15:00:00","4","25.35","-105.75","1967.0","TEPEHUANES DGO., MX","FM-12","99999","V020","320,1,N,0010,1","22000,1,9,N","005000,1,N,1","+0180,1","+0046,1","10149,1",,,,,,"01,1,+00750,1,08,1",,"01,99,1,01,1,01,1,00800,1,00,1,00,1",,"01,9",,,,"99999,9,08204,1","2,1,011,1,-002,1",,,"SYN100AAXX  19151 76373 32550 13201 10180 20046 38204 40149 52011 81100 91435 333 30/// 56900 59002 81825;",
"76373099999","2012-05-19T18:00:00","4","25.35","-105.75","1967.0","TEPEHUANES DGO., MX","FM-12","99999","V020","999,9,C,0000,1","22000,1,9,N","030000,1,N,1","+0305,1","+0016,1","10134,1",,,,,,"01,1,+00750,1,08,1",,"01,99,1,01,1,01,1,00800,1,00,1,00,1",,"01,9",,"120,M,+0308,1","240,N,+0098,1","99999,9,08192,1","2,1,012,1,+014,1",,,"SYN112AAXX  19181 76373 32580 10000 10305 20016 38192 40134 52012 81100 91750 333 10308 20098 30/// 56900 58014 81825;",
"76373099999","2012-05-19T21:00:00","4","25.35","-105.75","1967.0","TEPEHUANES DGO., MX","FM-12","99999","V020","160,1,N,0010,1","22000,1,9,N","030000,1,N,1","+0382,2","+0043,1","10107,1",,,,,,"02,1,+00750,1,08,1",,"02,99,1,02,1,02,1,00800,1,00,1,00,1",,"01,9",,,,"99999,9,08170,1","2,1,023,1,+002,1",,,"SYN100AAXX  19211 76373 32580 21601 10382 20043 38170 40107 52023 82200 92055 333 30/// 56900 58002 82825;",
"76373099999","2012-05-20T00:00:00","4","25.35","-105.75","1967.0","TEPEHUANES DGO., MX","FM-12","99999","V020","999,9,C,0000,1","00750,1,9,N","020000,1,N,1","+0290,1","-0012,1","10091,1","24,0000,9,1",,,,,,,"07,99,1,07,1,04,1,00800,1,00,1,00,1",,"01,9",,"120,M,+0352,1","180,N,+0098,1","99999,9,08157,1","7,1,013,1,+000,1",,,"SYN124AAXX  20001 76373 32570 70000 10290 21012 38157 40091 57013 87400 92350 333 10352 20098 30/// 50771 56900 58000 70000 87825;",
"76373099999","2012-05-20T12:00:00","4","25.35","-105.75","1967.0","TEPEHUANES DGO., MX","FM-12","99999","V020","999,9,C,0000,1","22000,1,9,N","005000,1,N,1","+0144,1","+0055,1","10142,1","24,0000,9,1",,,,,,,"03,99,1,03,1,04,1,00800,1,00,1,00,1","0480,9","01,9",,"120,N,+0135,1","240,M,+0352,1","99999,9,08198,1","9,9,999,9,+005,1",,,"SYN130AAXX  20121 76373 32550 30000 10144 20055 38198 40142 5//// 83400 91150 333 10352 20135 30128 55080 21772 56900 58005 70000 83825;",
"76373099999","2012-05-20T15:00:00","4","25.35","-105.75","1967.0","TEPEHUANES DGO., MX","FM-12","99999","V020","999,9,C,0000,1","22000,1,9,N","020000,1,N,1","+0221,1","+0062,1","10147,1",,,,,,"00,1,+99999,9,99,9",,"00,99,1,00,1,00,1,99999,9,00,1,00,1",,"01,9",,,,"99999,9,08202,1","2,1,004,1,-002,1",,,"SYN082AAXX  20151 76373 32970 00000 10221 20062 38202 40147 52004 91450 333 30/// 59002;",
"76373099999","2012-05-20T18:00:00","4","25.35","-105.75","1967.0","TEPEHUANES DGO., MX","FM-12","99999","V020","130,1,N,0010,1","22000,1,9,N","020000,1,N,1","+0311,1","-0004,1","10139,1",,,,,,"02,1,+00750,1,08,1",,"02,99,1,02,1,02,1,00800,1,00,1,00,1",,"01,9",,"120,M,+0320,1","240,N,+0135,1","99999,9,08196,1","7,1,006,1,+004,1",,,"SYN112AAXX  20181 76373 32570 21301 10311 21004 38196 40139 57006 82200 91750 333 10320 20135 30/// 56900 58004 82825;",
"76373099999","2012-05-20T21:00:00","4","25.35","-105.75","1967.0","TEPEHUANES DGO., MX","FM-12","99999","V020","999,9,C,0000,1","00750,1,9,N","020000,1,N,1","+0296,1","-0007,1","10120,1",,,,,,"05,1,+00750,1,08,1",,"05,99,1,05,1,04,1,00800,1,00,1,00,1",,"01,9",,,,"99999,9,08180,1","7,1,016,1,+010,1",,,"SYN100AAXX  20211 76373 32570 50000 10296 21007 38180 40120 57016 85400 92050 333 30/// 56900 58010 85825;",
"76373099999","2012-05-21T00:00:00","4","25.35","-105.75","1967.0","TEPEHUANES DGO., MX","FM-12","99999","V020","180,1,N,0010,1","00750,1,9,N","020000,1,N,1","+0277,1","+0026,1","10122,1","24,0000,9,1",,,,,,,"07,99,1,07,1,06,1,00800,1,00,1,00,1",,"01,9",,"120,M,+0350,1","180,N,+0135,1","99999,9,08182,1","2,1,002,1,+025,1",,,"SYN124AAXX  21001 76373 32570 71801 10277 20026 38182 40122 52002 87600 92350 333 10350 20135 30/// 50841 56900 58025 70000 87625;",
"76373099999","2012-05-21T03:00:00","4","25.35","-105.75","1967.0","TEPEHUANES DGO., MX","FM-12","99999","V020","999,9,C,0000,1","22000,1,9,N","005000,1,N,1","+0221,1","+0040,1","10137,1",,,,,,"00,1,+99999,9,99,9",,"00,99,1,00,1,00,1,99999,9,00,1,00,1",,"01,9",,,,"99999,9,08194,1","2,1,012,1,+017,1",,,"SYN082AAXX  21031 76373 32950 00000 10221 20040 38194 40137 52012 90250 333 30/// 58017;",
"76373099999","2012-05-21T15:00:00","4","25.35","-105.75","1967.0","TEPEHUANES DGO., MX","FM-12","99999","V020","999,9,C,0000,1","22000,1,9,N","020000,1,N,1","+0212,1","+0019,1","10186,1",,,,,,"00,1,+99999,9,99,9",,"00,99,1,00,1,00,1,99999,9,00,1,00,1",,"01,9",,,,"99999,9,08234,1","2,1,005,1,+032,1",,,"SYN082AAXX  21151 76373 32970 00000 10212 20019 38234 40186 52005 91455 333 30/// 58032;",
"76373099999","2012-05-21T18:00:00","4","25.35","-105.75","1967.0","TEPEHUANES DGO., MX","FM-12","99999","V020","999,9,C,0000,1","22000,1,9,N","030000,1,N,1","+0305,1","-0025,1","10187,1",,,,,,"00,1,+99999,9,99,9",,"00,99,1,00,1,00,1,99999,9,00,1,00,1",,"01,9",,"120,M,+0350,1","240,N,+0092,1","99999,9,08235,1","7,1,001,1,+039,1",,,"SYN094AAXX  21181 76373 32980 00000 10305 21025 38235 40187 57001 91750 333 10350 20092 30/// 58039;",
"76373099999","2012-05-21T21:00:00","4","25.35","-105.75","1967.0","TEPEHUANES DGO., MX","FM-12","99999","V020","140,1,N,0010,1","22000,1,9,N","030000,1,N,1","+0312,1","-0071,1","10181,1",,,,,,"00,1,+99999,9,99,9",,"00,99,1,00,1,00,1,99999,9,00,1,00,1",,"01,9",,,,"99999,9,08230,1","2,1,005,1,+055,1",,,"SYN082AAXX  21211 76373 32980 01401 10312 21071 38230 40181 52005 92050 333 30/// 58055;",
"76373099999","2012-05-22T00:00:00","4","25.35","-105.75","1967.0","TEPEHUANES DGO., MX","FM-12","99999","V020","160,1,N,0010,1","22000,1,9,N","030000,1,N,1","+0322,1","-0049,1","10146,1","24,0000,9,1",,,,,"00,1,+99999,9,99,9",,"00,99,1,00,1,00,1,99999,9,00,1,00,1",,"01,9",,"120,M,+0352,1","180,N,+0092,1","99999,9,08202,1","7,1,028,1,+020,1",,,"SYN106AAXX  22001 76373 32980 01601 10322 21049 38202 40146 57028 92350 333 10352 20092 30/// 50841 58020 70000;","Q01  00002PRCP24"
"76373099999","2012-05-22T03:00:00","4","25.35","-105.75","1967.0","TEPEHUANES DGO., MX","FM-12","99999","V020","999,9,C,0000,1","22000,1,9,N","001000,1,N,1","+0253,1","-0043,1","10155,1",,,,,,"00,1,+99999,9,99,9",,"00,99,1,00,1,00,1,99999,9,00,1,00,1",,"01,9",,,,"99999,9,08209,1","2,1,007,1,+015,1",,,"SYN082AAXX  22031 76373 32910 00000 10253 21043 38209 40155 52007 90250 333 30/// 58015;",
"76373099999","2012-05-22T12:00:00","4","25.35","-105.75","1967.0","TEPEHUANES DGO., MX","FM-12","99999","V020","999,9,C,0000,1","22000,1,9,N","001000,1,N,1","+0091,1","-0059,1","10186,1","24,0000,9,1",,,,,"00,1,+99999,9,99,9",,"00,99,1,00,1,00,1,99999,9,00,1,00,1",,"01,9",,"120,N,+0079,1","240,M,+0352,1","99999,9,08234,1","9,9,999,9,+005,1",,,"SYN100AAXX  22121 76373 32910 00000 10091 21059 38234 40186 5//// 91150 333 10352 20079 30070 58005 70000;","Q01  00002PRCP24"
"76373099999","2012-05-22T18:00:00","4","25.35","-105.75","1967.0","TEPEHUANES DGO., MX","FM-12","99999","V020","999,9,C,0000,1","22000,1,9,N","030000,1,N,1","+9999,9","-0064,1","10175,1",,,,,,"00,1,+99999,9,99,9",,"00,99,1,00,1,00,1,99999,9,00,1,00,1",,"01,9",,"120,M,+0330,1","240,N,+0079,1","99999,9,08225,1","7,1,009,1,-010,1",,,"SYN094AAXX  22181 76373 32980 00000 10322 21064 38225 40175 57009 91755 333 10330 20079 30/// 59010;","Q01+003223ATOT  "
"76373099999","2012-05-24T18:00:00","4","25.35","-105.75","1967.0","TEPEHUANES DGO., MX","FM-12","99999","V020","110,1,N,0010,1","22000,1,9,N","005000,1,N,1","+0300,1","+0060,1","10106,1",,,,,,"01,1,+00750,1,08,1",,"01,99,1,01,1,01,1,00800,1,00,1,00,1",,"01,9",,"120,M,+0310,1","240,N,+0131,1","99999,9,08169,1","7,1,017,1,-013,1",,,"SYN112AAXX  24181 76373 32550 11101 10300 20060 38169 40106 57017 81100 91755 333 10310 20131 30/// 56900 59013 81825;",
"76373099999","2012-05-24T21:00:00","4","25.35","-105.75","1967.0","TEPEHUANES DGO., MX","FM-12","99999","V020","290,1,N,0030,1","22000,1,9,N","015000,1,N,1","+0352,1","-0047,1","10083,1",,,,,,"03,1,+00600,1,08,1",,"03,99,1,03,1,03,1,00800,1,00,1,00,1",,"01,9",,,,"99999,9,08150,1","7,1,019,1,-008,1",,,"SYN100AAXX  24211 76373 32565 32903 10352 21047 38150 40083 57019 83300 92050 333 30/// 56900 59008 83820;",
"76373099999","2012-05-25T00:00:00","4","25.35","-105.75","1967.0","TEPEHUANES DGO., MX","FM-12","99999","V020","320,1,N,0030,1","22000,1,9,N","015000,1,N,1","+0292,1","-0044,1","10076,1","24,0000,9,1",,,,,"02,1,+00600,1,06,1",,"03,99,1,03,1,03,1,00800,1,00,1,00,1",,"01,9",,"120,M,+0350,1","180,N,+0131,1","99999,9,08145,1","7,1,005,1,-021,1",,,"SYN130AAXX  25001 76373 32565 33203 10292 21044 38145 40076 57005 83300 92350 333 10350 20131 30/// 51031 56900 59021 70000 82620 81825;",
"76373099999","2012-05-25T12:00:00","4","25.35","-105.75","1967.0","TEPEHUANES DGO., MX","FM-12","99999","V020","320,1,N,0010,1","22000,1,9,N","001000,1,N,1","+0136,1","+0070,1","10135,1","24,0000,9,1",,,,,"03,1,+00600,1,06,1",,"03,99,1,03,1,03,1,00800,1,00,1,00,1",,"01,9",,"120,N,+0120,1","240,M,+0350,1","99999,9,08193,1","9,9,999,9,+010,1",,,"SYN118AAXX  25121 76373 32510 33201 10136 20070 38193 40135 5//// 83300 91155 333 10350 20120 30102 56900 58010 70000 83620;",
"76373099999","2012-05-25T15:00:00","4","25.35","-105.75","1967.0","TEPEHUANES DGO., MX","FM-12","99999","V020","320,1,N,0010,1","00600,1,9,N","010000,1,N,1","+0178,1","+0099,1","10145,1",,,,,,"05,1,+00600,1,07,1",,"08,99,1,08,1,08,1,00800,1,00,1,00,1",,"01,9",,,,"99999,9,08201,1","2,1,008,1,+015,1",,,"SYN106AAXX  25151 76373 32560 83201 10178 20099 38201 40145 52008 88800 91455 333 30/// 56900 58015 85720 83625;",
"76373099999","2012-05-25T21:00:00","4","25.35","-105.75","1967.0","TEPEHUANES DGO., MX","FM-12","99999","V020","110,1,N,0010,1","01200,1,C,N","020000,1,N,1","+0194,1","+0117,1","10139,1",,,,,,"04,1,+00600,1,07,1",,"08,99,1,08,1,08,1,00800,1,00,1,00,1",,"01,9",,,,"99999,9,08196,1","7,1,009,1,+046,1",,,"SYN106AAXX  25211 76373 32570 81101 10194 20117 38196 40139 57009 88800 92050 333 30/// 56900 58046 84720 84625;",
"76373099999","2012-05-26T03:00:00","4","25.35","-105.75","1967.0","TEPEHUANES DGO., MX","FM-12","99999","V020","160,1,N,0010,1","01200,1,C,N","001000,1,N,1","+0176,1","+0137,1","10144,1",,,,,,"04,1,+00600,1,07,1",,"08,99,1,08,1,08,1,00800,1,00,1,00,1",,"01,9",,,,"99999,9,08200,1","2,1,010,1,+034,1",,,"SYN106AAXX  26031 76373 32510 81601 10176 20137 38200 40144 52010 88800 90250 333 30/// 56900 58034 84720 84625;",
"76373099999","2012-05-26T12:00:00","4","25.35","-105.75","1967.0","TEPEHUANES DGO., MX","FM-12","99999","V020","999,9,C,0000,1","00600,1,9,N","001000,1,N,1","+0152,1","+0146,1","10145,1","24,0030,9,1",,,,,"05,1,+00600,1,07,1",,"07,99,1,07,1,07,1,00800,1,00,1,00,1",,"01,9",,"120,N,+0136,1","240,M,+0220,1","99999,9,08201,1","9,9,999,9,+008,1",,,"SYN124AAXX  26121 76373 32510 70000 10152 20146 38201 40145 5//// 87700 91155 333 10220 20136 30122 56900 58008 70030 85720 82625;",
"76373099999","2012-05-26T15:00:00","4","25.35","-105.75","1967.0","TEPEHUANES DGO., MX","FM-12","99999","V020","999,9,C,0000,1","22000,1,9,N","010000,1,N,1","+0190,1","+0142,1","10157,1",,,,,,"02,1,+00600,1,06,1",,"04,99,1,04,1,04,1,00800,1,00,1,00,1",,"01,9",,,,"99999,9,08210,1","2,1,009,1,+009,1",,,"SYN106AAXX  26151 76373 32560 40000 10190 20142 38210 40157 52009 84400 91430 333 30/// 56900 58009 82620 82825;",
"76373099999","2012-05-26T18:00:00","4","25.35","-105.75","1967.0","TEPEHUANES DGO., MX","FM-12","99999","V020","999,9,C,0000,1","00750,1,9,N","030000,1,N,1","+0243,1","+0133,1","10158,1",,,,,,"02,1,+00600,1,06,1",,"05,99,1,05,1,05,1,00800,1,00,1,00,1",,"01,9",,"120,M,+0250,1","240,N,+0136,1","99999,9,08212,1","2,1,002,1,-003,1",,,"SYN112AAXX  26181 76373 32580 50000 10243 20133 38212 40158 52002 85500 91750 333 10250 20136 30/// 59003 82620 83825;",
"76373099999","2012-05-26T21:00:00","4","25.35","-105.75","1967.0","TEPEHUANES DGO., MX","FM-12","99999","V020","999,9,C,0000,1","22000,1,9,N","030000,1,N,1","+0284,1","+0113,1","10155,1",,,,,,"02,1,+00600,1,06,1",,"04,99,1,04,1,04,1,00800,1,00,1,00,1",,"01,9",,,,"99999,9,08209,1","2,1,003,1,+013,1",,,"SYN106AAXX  26211 76373 32580 40000 10284 20113 38209 40155 52003 84400 92050 333 30/// 56900 58013 82620 82825;",
"76373099999","2012-05-27T00:00:00","4","25.35","-105.75","1967.0","TEPEHUANES DGO., MX","FM-12","99999","V020","999,9,C,0000,1","22000,1,9,N","030000,1,N,1","+0285,1","+0096,1","10119,1","24,0030,9,1",,,,,"02,1,+00600,1,06,1",,"03,99,1,03,1,03,1,00800,1,00,1,00,1",,"01,9",,"120,M,+0315,1","180,N,+0136,1","99999,9,08179,1","2,1,030,1,-018,1",,,"SYN130AAXX  27001 76373 32580 30000 10285 20096 38179 40119 52030 83300 92355 333 10315 20136 30/// 50251 56900 59018 70030 82620 81825;",
"76373099999","2012-05-27T12:00:00","4","25.35","-105.75","1967.0","TEPEHUANES DGO., MX","FM-12","99999","V020","999,9,C,0000,1","22000,1,9,N","001000,1,N,1","+0125,1","+0103,1","10157,1","24,0000,9,1",,,,,"00,1,+99999,9,99,9",,"00,99,1,00,1,00,1,99999,9,00,1,00,1",,"01,9",,"120,N,+0113,1","240,M,+0315,1","99999,9,08210,1","9,9,999,9,+009,1",,,"SYN100AAXX  27121 76373 32910 00000 10125 20103 38210 40157 5//// 91150 333 10315 20113 30105 58009 70000;","Q01  00002PRCP24"
"76373099999","2012-05-27T15:00:00","4","25.35","-105.75","1967.0","TEPEHUANES DGO., MX","FM-12","99999","V020","999,9,C,0000,1","22000,1,9,N","020000,1,N,1","+0216,1","+0124,1","10155,1",,,,,,"00,1,+99999,9,99,9",,"00,99,1,00,1,00,1,99999,9,00,1,00,1",,"01,9",,,,"99999,9,08208,1","2,1,002,1,+007,1",,,"SYN082AAXX  27151 76373 32970 00000 10216 20124 38208 40155 52002 91455 333 30/// 58007;",
"76373099999","2012-05-27T18:00:00","4","25.35","-105.75","1967.0","TEPEHUANES DGO., MX","FM-12","99999","V020","999,9,C,0000,1","22000,1,9,N","030000,1,N,1","+0321,1","+0099,1","10134,1",,,,,,"00,1,+99999,9,99,9",,"00,99,1,00,1,00,1,99999,9,00,1,00,1",,"01,9",,"120,M,+0330,1","240,N,+0113,1","99999,9,08192,1","2,1,016,1,-020,1",,,"SYN094AAXX  27181 76373 32980 00000 10321 20099 38192 40134 52016 91755 333 10330 20113 30/// 59020;",
"76373099999","2012-05-27T21:00:00","4","25.35","-105.75","1967.0","TEPEHUANES DGO., MX","FM-12","99999","V020","999,9,C,0000,1","22000,1,9,N","030000,1,N,1","+0340,1","+0076,1","10101,1",,,,,,"02,1,+00750,1,08,1",,"02,99,1,02,1,02,1,00800,1,00,1,00,1",,"01,9",,,,"99999,9,08165,1","2,1,027,1,-043,1",,,"SYN100AAXX  27211 76373 32580 20000 10340 20076 38165 40101 52027 82200 92050 333 30/// 56900 59043 82825;",
"76373099999","2012-05-28T00:00:00","4","25.35","-105.75","1967.0","TEPEHUANES DGO., MX","FM-12","99999","V020","290,1,N,0010,1","22000,1,9,N","030000,1,N,1","+0334,1","+9999,9","10134,1","24,0000,9,1",,,,,,,"02,99,1,02,1,02,1,00800,1,00,1,00,1",,"01,9",,"120,M,+0372,1","180,N,+0113,1","99999,9,08192,1","2,1,027,1,+013,1",,,"SYN124AAXX  28001 76373 32580 22901 10334 20219 38192 40134 52027 82200 92355 333 10372 20113 30/// 50811 56900 58013 70000 82825;","Q01+002193ATOD  "
"76373099999","2012-05-28T03:00:00","4","25.35","-105.75","1967.0","TEPEHUANES DGO., MX","FM-12","99999","V020","250,1,N,0010,1","22000,1,9,N","001000,1,N,1","+0226,1","+0089,1","10121,1",,,,,,"00,1,+99999,9,99,9",,"00,99,1,00,1,00,1,99999,9,00,1,00,1",,"01,9",,,,"99999,9,08181,1","7,1,011,1,-001,1",,,"SYN082AAXX  28031 76373 32910 02501 10226 20089 38181 40121 57011 90255 333 30/// 59001;",
"76373099999","2012-05-28T12:00:00","4","25.35","-105.75","1967.0","TEPEHUANES DGO., MX","FM-12","99999","V020","999,9,C,0000,1","22000,1,9,N","001000,1,N,1","+0132,1","+0070,1","10160,1","24,0000,9,1",,,,,"00,1,+99999,9,99,9",,"00,99,1,00,1,00,1,99999,9,00,1,00,1",,"01,9",,"120,N,+0119,1","240,M,+0372,1","99999,9,08213,1","9,9,999,9,+003,1",,,"SYN100AAXX  28121 76373 32910 00000 10132 20070 38213 40160 5//// 91150 333 10372 20119 30110 58003 70000;","Q01  00002PRCP24"
"76373099999","2012-05-28T15:00:00","4","25.35","-105.75","1967.0","TEPEHUANES DGO., MX","FM-12","99999","V020","999,9,C,0000,1","22000,1,9,N","020000,1,N,1","+0231,1","+0086,1","10152,1",,,,,,"00,1,+99999,9,99,9",,"00,99,1,00,1,00,1,99999,9,00,1,00,1",,"01,9",,,,"99999,9,08206,1","7,1,007,1,-002,1",,,"SYN082AAXX  28151 76373 32970 00000 10231 20086 38206 40152 57007 91455 333 30/// 59002;",
"76373099999","2012-05-28T21:00:00","4","25.35","-105.75","1967.0","TEPEHUANES DGO., MX","FM-12","99999","V020","999,9,C,0000,1","22000,1,9,N","030000,1,N,1","+0370,1","+0012,1","10107,1",,,,,,"01,1,+00750,1,08,1",,"01,99,1,01,1,01,1,00800,1,00,1,00,1",,"01,9",,,,"99999,9,08170,1","2,1,004,1,+005,1",,,"SYN100AAXX  28211 76373 32580 10000 10370 20012 38170 40107 52004 81100 92050 333 30/// 56900 58005 81825;",
"76373099999","2012-05-29T00:00:00","4","25.35","-105.75","1967.0","TEPEHUANES DGO., MX","FM-12","99999","V020","160,1,N,0010,1","00750,1,9,N","030000,1,N,1","+0276,1","+0062,1","10116,1","24,0000,9,1",,,,,,,"06,99,1,06,1,06,1,00800,1,00,1,00,1",,"01,9",,"120,M,+0400,1","180,N,+0119,1","99999,9,08177,1","2,1,007,1,+015,1",,,"SYN124AAXX  29001 76373 32580 61601 10276 20062 38177 40116 52007 86600 92350 333 10400 20119 30/// 50981 56900 58015 70000 86825;",
"76373099999","2012-05-29T12:00:00","4","25.35","-105.75","1967.0","TEPEHUANES DGO., MX","FM-12","99999","V020","999,9,C,0000,1","22000,1,9,N","001000,1,N,1","+0135,1","+0074,1","10177,1",,,,,,"00,1,+99999,9,99,9",,"00,99,1,00,1,00,1,99999,9,00,1,00,1",,,,"120,N,+0125,1","240,M,+0400,1","99999,9,08226,1","9,9,999,9,+013,1",,,"SYN100AAXX  29121 76373 32910 00000 10135 20074 38226 40177 5//// 91150 333 10400 20125 20115 58013 70017;",
"76373099999","2012-05-29T15:00:00","4","25.35","-105.75","1967.0","TEPEHUANES DGO., MX","FM-12","99999","V020","999,9,C,0000,1","22000,1,9,N","020000,1,N,1","+0221,1","+0090,1","10168,1",,,,,,"00,1,+99999,9,99,9",,"00,99,1,00,1,00,1,99999,9,00,1,00,1",,"01,9",,,,"99999,9,08220,1","7,1,006,1,+014,1",,,"SYN082AAXX  29151 76373 32970 00000 10221 20090 38220 40168 57006 91455 333 30/// 58014;",
"76373099999","2012-05-29T18:00:00","4","25.35","-105.75","1967.0","TEPEHUANES DGO., MX","FM-12","99999","V020","999,9,C,0000,1","22000,1,9,N","030000,1,N,1","+0338,1","+0036,1","10156,1",,,,,,"00,1,+99999,9,99,9",,"00,99,1,00,1,00,1,99999,9,00,1,00,1",,"01,9",,"120,M,+0350,1","240,N,+0125,1","99999,9,08209,1","7,1,011,1,+043,1",,,"SYN094AAXX  29181 76373 32980 00000 10338 20036 38209 40156 57011 91750 333 10350 20125 30/// 58043;",
"76373099999","2012-05-29T21:00:00","4","25.35","-105.75","1967.0","TEPEHUANES DGO., MX","FM-12","99999","V020","140,1,N,0010,1","22000,1,9,N","020000,1,N,1","+0377,1","+0014,1","10124,1",,,,,,"01,1,+00900,1,08,1",,"02,99,1,02,1,02,1,01250,1,00,1,00,1",,"01,9",,,,"99999,9,08184,1","7,1,025,1,+014,1",,,"SYN100AAXX  29211 76373 32670 21401 10377 20014 38184 40124 57025 82200 92050 333 30/// 56900 58014 81830;",
"76373099999","2012-05-30T00:00:00","4","25.35","-105.75","1967.0","TEPEHUANES DGO., MX","FM-12","99999","V020","130,1,N,0020,1","00750,1,9,N","020000,1,N,1","+0318,1","+0011,1","10122,1","24,0017,9,1",,,,,,,"07,99,1,07,1,07,1,00800,1,00,1,00,1",,"01,9",,"120,M,+0394,1","180,N,+0125,1","99999,9,08182,1","8,1,002,1,+005,1",,,"SYN124AAXX  30001 76373 32570 71302 10318 20011 38182 40122 58002 87700 92350 333 10394 20125 30/// 50751 56900 58005 70017 87723;",
"76373099999","2012-05-30T12:00:00","4","25.35","-105.75","1967.0","TEPEHUANES DGO., MX","FM-12","99999","V020","999,9,C,0000,1","22000,1,9,N","001000,1,N,1","+0134,1","+0027,1","10157,1","24,0000,9,1",,,,,"00,1,+99999,9,99,9",,"00,99,1,00,1,00,1,99999,9,00,1,00,1",,"01,9",,"120,N,+0127,1","240,M,+0394,1","99999,9,08210,1","9,9,999,9,-016,1",,,"SYN100AAXX  30121 76373 32910 00000 10134 20027 38210 40157 5//// 91150 333 10394 20127 30117 59016 79999;","Q01  00002PRCP24"
"76373099999","2012-05-30T15:00:00","4","25.35","-105.75","1967.0","TEPEHUANES DGO., MX","FM-12","99999","V020","999,9,C,0000,1","22000,1,9,N","015000,1,N,1","+0224,1","+0046,1","10164,1",,,,,,"00,1,+99999,9,99,9",,"00,99,1,00,1,00,1,99999,9,00,1,00,1",,"01,9",,,,"99999,9,08216,1","2,1,006,1,-004,1",,,"SYN082AAXX  30151 76373 32965 00000 10224 20046 38216 40164 52006 91450 333 30/// 59004;",
"76373099999","2012-05-30T18:00:00","4","25.35","-105.75","1967.0","TEPEHUANES DGO., MX","FM-12","99999","V020","999,9,C,0000,1","22000,1,9,N","020000,1,N,1","+0361,1","-0031,1","10142,1",,,,,,"01,1,+00900,1,08,1",,"01,99,1,01,1,01,1,01250,1,00,1,00,1",,"01,9",,"120,M,+0377,1","240,N,+0125,1","99999,9,08198,1","7,1,018,1,-011,1",,,"SYN112AAXX  30181 76373 32670 10000 10361 21031 38198 40142 57018 81100 91750 333 10377 20125 30/// 56900 59011 81830;",
"76373099999","2012-05-30T21:00:00","4","25.35","-105.75","1967.0","TEPEHUANES DGO., MX","FM-12","99999","V020","210,1,N,0010,1","00750,1,C,N","020000,1,N,1","+0377,1","-0042,1","10106,1",,,,,,"03,1,+00750,1,06,1",,"05,99,1,05,1,05,1,00800,1,00,1,00,1",,"01,9",,,,,"7,1,029,1,-015,1",,,"SYN106AAXX  30211 76373 32570 52101 10377 21042 38269 40106 57029 85500 92050 333 30/// 56900 59015 83625 82830;","Q01+082693APOSP "
"76373099999","2012-05-31T00:00:00","4","25.35","-105.75","1967.0","TEPEHUANES DGO., MX","FM-12","99999","V020","310,1,N,0020,1","00750,1,9,N","020000,1,N,1","+0346,1","-0016,1","10098,1","24,0000,9,1",,,,,,,"05,99,1,05,1,05,1,00800,1,00,1,00,1",,"01,9",,"120,M,+0398,1","180,N,+0125,1","99999,9,08162,1","7,1,007,1,-020,1",,,"SYN124AAXX  31001 76373 32570 53102 10346 21016 38162 40098 57007 85500 92350 333 10398 20125 30/// 51041 56900 59020 70000 85625;",
"76373099999","2012-05-31T03:00:00","4","25.35","-105.75","1967.0","TEPEHUANES DGO., MX","FM-12","99999","V020","999,9,C,0000,1","22000,1,9,N","000600,1,N,1","+0276,1","+0039,1","10124,1",,,,,,"01,1,+00900,1,08,1",,"02,99,1,01,1,02,1,00800,1,00,1,04,1",,"01,9",,,,"99999,9,08184,1","2,1,022,1,-011,1",,,"SYN100AAXX  31031 76373 32506 20000 10276 20039 38184 40124 52022 81204 90250 333 30/// 56909 59011 81830;",
"76373099999","2012-05-31T12:00:00","4","25.35","-105.75","1967.0","TEPEHUANES DGO., MX","FM-12","99999","V020","999,9,C,0000,1","22000,1,9,N","001000,1,N,1","+0141,1","+0019,1","10121,1","24,0000,9,1",,,,,"01,1,+00750,1,06,1",,"01,99,1,01,1,04,1,00800,1,00,1,00,1",,"01,9",,"120,N,+0133,1","240,M,+0398,1","99999,9,08181,1","9,9,999,9,-029,1",,,"SYN118AAXX  31121 76373 32510 10000 10141 20019 38181 40121 5//// 81400 91150 333 10398 20133 30120 56900 59029 70000 81625;",
"76373099999","2012-05-31T15:00:00","4","25.35","-105.75","1967.0","TEPEHUANES DGO., MX","FM-12","99999","V020","999,9,C,0000,1","22000,1,9,N","015000,1,N,1","+0235,1","+0034,1","10124,1",,,,,,"00,1,+99999,9,99,9",,"00,99,1,00,1,00,1,99999,9,00,1,00,1",,"01,9",,,,"99999,9,08184,1","2,1,003,1,-032,1",,,"SYN082AAXX  31151 76373 32965 00000 10235 20034 38184 40124 52003 91450 333 30/// 59032;",
"76373099999","2012-05-31T18:00:00","4","25.35","-105.75","1967.0","TEPEHUANES DGO., MX","FM-12","99999","V020","320,1,N,0010,1","22000,1,9,N","015000,1,N,1","+0342,1","-0065,1","10097,1",,,,,,"02,1,+05100,1,00,1",,"02,99,1,00,1,00,1,99999,9,00,1,02,1",,"01,9",,"120,M,+0350,1","240,N,+0133,1","99999,9,08162,1","7,1,022,1,-036,1",,,"SYN112AAXX  31181 76373 32965 23201 10342 21065 38162 40097 57022 80002 91755 333 10350 20133 30/// 56009 59036 82067;",
"76373099999","2012-05-31T21:00:00","4","25.35","-105.75","1967.0","TEPEHUANES DGO., MX","FM-12","99999","V020","320,1,N,0030,1","22000,1,9,N","010000,1,N,1","+0352,1","-0099,1","10070,1",,,,,,"01,1,+00750,1,08,1","02,1,+00900,1,03,1","04,99,1,03,1,01,1,00800,1,02,1,01,1",,"01,9",,,,"99999,9,08141,1","7,1,021,1,-028,1",,,"SYN112AAXX  31211 76373 32560 43203 10352 21099 38141 40070 57021 83121 92055 333 30/// 56999 59028 81825 82330 81067;",
"76373099999","2012-06-01T00:00:00","4","25.35","-105.75","1967.0","TEPEHUANES DGO., MX","FM-12","99999","V020","320,1,N,0020,1","22000,1,9,N","015000,1,N,1","+0320,1","-0054,1","10063,1","24,0000,9,1",,,,,"02,1,+00900,1,03,1",,"03,99,1,02,1,00,1,00800,1,02,1,01,1",,"01,9",,"120,M,+0370,1","180,N,+0133,1","99999,9,08134,1","7,1,005,1,-028,1",,,"SYN130AAXX  01001 76373 32565 33202 10320 21054 38134 40063 57005 82021 92355 333 10370 20133 30/// 51181 56099 59028 70000 82330 81060;",
"76373099999","2012-06-01T12:00:00","4","25.35","-105.75","1967.0","TEPEHUANES DGO., MX","FM-12","99999","V020","999,9,C,0000,1","22000,1,9,N","001000,1,N,1","+0134,1","+0077,1","10127,1","24,0000,9,1",,,,,"02,1,+00750,1,08,1",,"02,99,1,02,1,02,1,00800,1,00,1,00,1",,"01,9",,"120,N,+0118,1","240,M,+0370,1","99999,9,08186,1","9,9,999,9,+005,1",,,"SYN118AAXX  01121 76373 32510 20000 10134 20077 38186 40127 5//// 82200 91155 333 10370 20118 30102 56900 58005 70000 82825;",
"76373099999","2012-06-01T15:00:00","4","25.35","-105.75","1967.0","TEPEHUANES DGO., MX","FM-12","99999","V020","250,1,N,0020,1","22000,1,9,N","015000,1,N,1","+0210,1","+0066,1","10145,1",,,,,,"00,1,+99999,9,99,9",,"00,99,1,00,1,00,1,99999,9,00,1,00,1",,"01,9",,,,"99999,9,08201,1","7,1,041,1,+014,1",,,"SYN082AAXX  01151 76373 32965 02502 10210 20066 38201 40145 57041 91455 333 30/// 58014;",
"76373099999","2012-06-01T18:00:00","4","25.35","-105.75","1967.0","TEPEHUANES DGO., MX","FM-12","99999","V020","200,1,N,0020,1","22000,1,9,N","030000,1,N,1","+0282,1","+0046,1","10130,1",,,,,,"03,1,+00600,1,08,1",,"03,99,1,03,1,03,1,00800,1,00,1,00,1",,"01,9",,"120,M,+0290,1","240,N,+0118,1","99999,9,08189,1","2,1,044,1,+027,1",,,"SYN112AAXX  01181 76373 32580 32002 10282 20046 38189 40130 52044 83300 91755 333 10290 20118 30/// 56900 58027 83820;",
"76373099999","2012-06-01T21:00:00","4","25.35","-105.75","1967.0","TEPEHUANES DGO., MX","FM-12","99999","V020","140,1,N,0020,1","00750,1,9,N","030000,1,N,1","+0296,1","-0043,1","10109,1",,,,,,"02,1,+00600,1,07,1",,"05,99,1,05,1,05,1,00800,1,00,1,00,1",,"01,9",,,,"99999,9,08172,1","7,1,017,1,+031,1",,,"SYN106AAXX  01211 76373 32580 51402 10296 21043 38172 40109 57017 85500 92050 333 30/// 56900 58031 82720 83625;",
"76373099999","2012-06-02T00:00:00","4","25.35","-105.75","1967.0","TEPEHUANES DGO., MX","FM-12","99999","V020","320,1,N,0020,1","01200,1,9,N","030000,1,N,1","+0192,1","+0066,1","10126,1","24,0000,9,1",,,,,"04,1,+00600,1,07,1",,"08,99,1,08,1,08,1,00800,1,00,1,00,1",,"01,9",,"120,M,+0310,1","180,N,+0118,1","99999,9,08185,1","2,1,013,1,+051,1",,,"SYN130AAXX  02001 76373 32580 83202 10192 20066 38185 40126 52013 88800 92355 333 10310 20118 30/// 50831 56900 58051 70000 84720 84625;",
"76373099999","2012-06-02T12:00:00","4","25.35","-105.75","1967.0","TEPEHUANES DGO., MX","FM-12","99999","V020","999,9,C,0000,1","22000,1,9,N","001000,1,N,1","+0112,1","+0063,1","10142,1","24,0000,9,1",,,,,"02,1,+03000,1,00,1",,"02,99,1,00,1,00,1,99999,9,00,1,02,1",,"01,9",,"120,N,+0102,1","240,M,+0310,1","99999,9,08199,1","9,9,999,9,+013,1",,,"SYN118AAXX  02121 76373 32910 20000 10112 20063 38199 40142 5//// 80002 91155 333 10310 20102 30090 56009 58013 70000 82060;",
"76373099999","2012-06-02T15:00:00","4","25.35","-105.75","1967.0","TEPEHUANES DGO., MX","FM-12","99999","V020","999,9,C,0000,1","22000,1,9,N","015000,1,N,1","+0178,1","+0073,1","10153,1",,,,,,"02,1,+03000,1,00,1",,"02,99,1,00,1,00,1,99999,9,00,1,02,1",,"01,9",,,,"99999,9,08208,1","2,1,009,1,+063,1",,,"SYN100AAXX  02151 76373 32965 20000 10178 20073 38208 40153 52009 80002 91440 333 30/// 56009 58063 82060;",
"76373099999","2012-06-02T18:00:00","4","25.35","-105.75","1967.0","TEPEHUANES DGO., MX","FM-12","99999","V020","999,9,C,0000,1","22000,1,9,N","030000,1,N,1","+0232,1","+0052,1","10149,1",,,,,,"03,1,+00600,1,08,1",,"03,99,1,03,1,03,1,00800,1,00,1,00,1",,"01,9",,"120,M,+0245,1","240,N,+0102,1","99999,9,08204,1","7,1,004,1,+015,1",,,"SYN112AAXX  02181 76373 32580 30000 10232 20052 38204 40149 57004 83300 91755 333 10245 20102 30/// 56900 58015 83820;",
"76373099999","2012-06-02T21:00:00","4","25.35","-105.75","1967.0","TEPEHUANES DGO., MX","FM-12","99999","V020","999,9,C,0000,1","22000,1,9,N","030000,1,N,1","+0291,1","+0042,1","10123,1",,,,,,"02,1,+00750,1,08,1",,"02,99,1,02,1,02,1,00800,1,00,1,00,1",,"01,9",,,,,"7,1,021,1,+011,1",,,"SYN100AAXX  02211 76373 32580 20000 10291 20042 38133 40123 57021 82200 92050 333 30/// 56900 58011 82825;","Q01+081333APOSP "
"76373099999","2012-06-03T00:00:00","4","25.35","-105.75","1967.0","TEPEHUANES DGO., MX","FM-12","99999","V020","999,9,C,0000,1","22000,1,9,N","030000,1,N,1","+0275,1","+0046,1","10101,1","24,0000,9,1",,,,,,,"02,99,1,02,1,02,1,00800,1,00,1,00,1",,"01,9",,"120,M,+0319,1","180,N,+0102,1","99999,9,08165,1","7,1,018,1,+020,1",,,"SYN124AAXX  03001 76373 32580 20000 10275 20046 38165 40101 57018 82200 92355 333 10319 20102 30/// 50471 56900 58020 70000 82825;",
"76373099999","2012-06-03T03:00:00","4","25.35","-105.75","1967.0","TEPEHUANES DGO., MX","FM-12","99999","V020","999,9,C,0000,1","22000,1,9,N","001000,1,N,1","+0220,1","+0107,1","10132,1",,,,,,"04,1,+00750,1,08,1",,"04,99,1,04,1,04,1,00800,1,00,1,00,1",,"01,9",,,,"99999,9,08190,1","2,1,025,1,-004,1",,,"SYN100AAXX  03031 76373 32510 40000 10220 20107 38190 40132 52025 84400 90250 333 30/// 56900 59004 84825;",
"76373099999","2012-06-03T12:00:00","4","25.35","-105.75","1967.0","TEPEHUANES DGO., MX","FM-12","99999","V020","999,9,C,0000,1","22000,1,9,N","001000,1,N,1","+0122,1","+0096,1","10152,1","24,0000,9,1",,,,,"00,1,+99999,9,99,9",,"00,99,1,00,1,00,1,99999,9,00,1,00,1",,"01,9",,"120,N,+0117,1","240,M,+0319,1","99999,9,08206,1","9,9,999,9,+007,1",,,"SYN100AAXX  03121 76373 32910 00000 10122 20096 38206 40152 5//// 91150 333 10319 20117 30109 58007 70000;","Q01  00002PRCP24"
"76373099999","2012-06-03T15:00:00","4","25.35","-105.75","1967.0","TEPEHUANES DGO., MX","FM-12","99999","V020","999,9,C,0000,1","22000,1,9,N","020000,1,N,1","+0209,1","+0115,1","10152,1",,,,,,"00,1,+99999,9,99,9",,"00,99,1,00,1,00,1,99999,9,00,1,00,1",,"01,9",,,,"99999,9,08207,1","2,1,001,1,-001,1",,,"SYN082AAXX  03151 76373 32970 00000 10209 20115 38207 40152 52001 91450 333 30/// 59001;",
"76373099999","2012-06-03T21:00:00","4","25.35","-105.75","1967.0","TEPEHUANES DGO., MX","FM-12","99999","V020","999,9,C,0000,1","22000,1,9,N","030000,1,N,1","+0290,1","+0033,1","10139,1",,,,,,"04,1,+00750,1,08,1",,"04,99,1,04,1,04,1,00800,1,00,1,00,1",,"01,9",,,,"99999,9,08196,1","2,1,003,1,+013,1",,,"SYN100AAXX  03211 76373 32580 40000 10290 20033 38196 40139 52003 84400 92055 333 30/// 56900 58013 84825;",
"76373099999","2012-06-04T00:00:00","4","25.35","-105.75","1967.0","TEPEHUANES DGO., MX","FM-12","99999","V020","290,1,N,0010,1","00750,1,9,N","030000,1,N,1","+0212,1","+0090,1","10134,1","24,0021,9,1",,,,,,,"06,99,1,06,1,06,1,00800,1,00,1,00,1",,"01,9",,"120,M,+0340,1","180,N,+0113,1","99999,9,08192,1","7,1,004,1,+027,1",,,"SYN124AAXX  04001 76373 32580 62901 10212 20090 38192 40134 57004 86600 92350 333 10340 20113 30/// 50451 56900 58027 70021 86825;",
"76373099999","2012-06-04T12:00:00","4","25.35","-105.75","1967.0","TEPEHUANES DGO., MX","FM-12","99999","V020","999,9,C,0000,1","22000,1,9,N","001000,1,N,1","+0111,1","+0103,1","10160,1","24,0081,9,1",,,,,"00,1,+99999,9,99,9",,"00,99,1,00,1,00,1,99999,9,00,1,00,1",,"01,9",,"120,N,+0100,1","240,M,+0340,1","99999,9,08213,1","9,9,999,9,+007,1",,,"SYN100AAXX  04121 76373 32910 00000 10111 20103 38213 40160 5//// 91150 333 10340 20100 30095 58007 70081;",
"76373099999","2012-06-04T15:00:00","4","25.35","-105.75","1967.0","TEPEHUANES DGO., MX","FM-12","99999","V020","999,9,C,0000,1","22000,1,9,N","020000,1,N,1","+0174,1","+0095,1","10165,1",,,,,,"00,1,+99999,9,99,9",,"00,99,1,00,1,00,1,99999,9,00,1,00,1",,"01,9",,,,"99999,9,08217,1","2,1,004,1,+010,1",,,"SYN082AAXX  04151 76373 32970 00000 10174 20095 38217 40165 52004 91455 333 30/// 58010;",
"76373099999","2012-06-04T18:00:00","4","25.35","-105.75","1967.0","TEPEHUANES DGO., MX","FM-12","99999","V020","999,9,C,0000,1","22000,1,9,N","030000,1,N,1","+0281,1","+0078,1","10145,1",,,,,,"00,1,+99999,9,99,9",,"00,99,1,00,1,00,1,99999,9,00,1,00,1",,"01,9",,"120,M,+0295,1","240,N,+0100,1","99999,9,08201,1","7,1,016,1,+012,1",,,"SYN094AAXX  04181 76373 32980 00000 10281 20078 38201 40145 57016 91750 333 10295 20100 30/// 58012;",
"76373099999","2012-06-04T21:00:00","4","25.35","-105.75","1967.0","TEPEHUANES DGO., MX","FM-12","99999","V020","200,1,N,0010,1","22000,1,9,N","030000,1,N,1","+0334,1","+0021,1","10150,1",,,,,,"00,1,+99999,9,99,9",,"00,99,1,00,1,00,1,99999,9,00,1,00,1",,"01,9",,,,"99999,9,08205,1","2,1,004,1,+009,1",,,"SYN082AAXX  04211 76373 32980 02001 10334 20021 38205 40150 52004 92050 333 30/// 58009;",
"76373099999","2012-06-05T00:00:00","4","25.35","-105.75","1967.0","TEPEHUANES DGO., MX","FM-12","99999","V020","250,1,N,0020,1","22000,1,9,N","030000,1,N,1","+0227,1","+0068,1","10123,1","24,0145,9,1",,,,,,,"02,99,1,02,1,02,1,00800,1,00,1,00,1",,"01,9",,"120,M,+0352,1","180,N,+0100,1","99999,9,08183,1","7,1,023,1,-009,1",,,"SYN124AAXX  05001 76373 32580 22502 10227 20068 38183 40123 57023 82200 92355 333 10352 20100 30/// 50101 56900 59009 70145 82825;",
"76373099999","2012-06-05T12:00:00","4","25.35","-105.75","1967.0","TEPEHUANES DGO., MX","FM-12","99999","V020","999,9,C,0000,1","22000,1,9,N","001500,1,N,1","+0120,1","+0076,1","10139,1","24,0000,9,1",,,,,"00,1,+99999,9,99,9",,"00,99,1,00,1,00,1,99999,9,00,1,00,1",,"01,9",,"120,N,+0109,1","240,M,+0352,1","99999,9,08196,1","9,9,999,9,-017,1",,,"SYN100AAXX  05121 76373 32915 00000 10120 20076 38196 40139 5//// 91150 333 10352 20109 30105 59017 70000;","Q01  00002PRCP24"
"76373099999","2012-06-05T15:00:00","4","25.35","-105.75","1967.0","TEPEHUANES DGO., MX","FM-12","99999","V020","999,9,C,0000,1","22000,1,9,N","020000,1,N,1","+0213,1","+0091,1","10150,1",,,,,,"00,1,+99999,9,99,9",,"00,99,1,00,1,00,1,99999,9,00,1,00,1",,"01,9",,,,"99999,9,08205,1","2,1,009,1,-012,1",,,"SYN082AAXX  05151 76373 32970 00000 10213 20091 38205 40150 52009 91450 333 30/// 59012;",
"76373099999","2012-06-05T18:00:00","4","25.35","-105.75","1967.0","TEPEHUANES DGO., MX","FM-12","99999","V020","999,9,C,0000,1","22000,1,9,N","030000,1,N,1","+0296,1","+0062,1","10124,1",,,,,,"00,1,+99999,9,99,9",,"00,99,1,00,1,00,1,99999,9,00,1,00,1",,"01,9",,"120,M,+0312,1","240,N,+0109,1",,"7,1,021,1,-017,1",,,"SYN094AAXX  05181 76373 32980 00000 10296 20062 38144 40124 57021 91755 333 10312 20109 30/// 59017;","Q01+081443APOSP "
"76373099999","2012-06-05T21:00:00","4","25.35","-105.75","1967.0","TEPEHUANES DGO., MX","FM-12","99999","V020","120,1,N,0010,1","00690,1,9,N","020000,1,N,1","+0311,1","-0001,1","10094,1",,,,,,"07,1,+00690,1,06,1",,"07,99,1,07,1,06,1,00800,1,00,1,00,1",,"01,9",,,,"99999,9,08160,1","7,1,024,1,-025,1",,,"SYN100AAXX  05211 76373 32570 71201 10311 21001 38160 40094 57024 87600 92050 333 30/// 56900 59025 87623;",
"76373099999","2012-06-06T00:00:00","4","25.35","-105.75","1967.0","TEPEHUANES DGO., MX","FM-12","99999","V020","270,1,N,0020,1","00750,1,9,N","020000,1,N,1","+0267,1","+0047,1","10102,1","24,0000,9,1",,,,,,,"07,99,1,07,1,06,1,00800,1,00,1,00,1",,"01,9",,"120,M,+0355,1","180,N,+0109,1","99999,9,08166,1","3,1,006,1,-017,1",,,"SYN124AAXX  06001 76373 32570 72702 10267 20047 38166 40102 53006 87600 92350 333 10355 20109 30/// 50801 56900 59017 70000 87723;",
"76373099999","2012-06-06T03:00:00","4","25.35","-105.75","1967.0","TEPEHUANES DGO., MX","FM-12","99999","V020","999,9,C,0000,1","22000,1,9,N","001000,1,N,1","+0223,1","+0051,1","10114,1",,,,,,"03,1,+00690,1,07,1",,"03,99,1,03,1,06,1,00800,1,00,1,00,1",,"01,9",,,,"99999,9,08176,1","2,1,010,1,-024,1",,,"SYN100AAXX  06031 76373 32510 30000 10223 20051 38176 40114 52010 83600 90250 333 30/// 56900 59024 83723;",
"76373099999","2012-06-06T06:00:00","4","25.35","-105.75","1967.0","TEPEHUANES DGO., MX","FM-12","99999","V020","999,9,C,0000,1","22000,1,9,N","000600,1,N,1","+0180,1","+0033,1","10130,1",,,,,,"00,1,+99999,9,99,9",,"00,99,1,00,1,00,1,99999,9,00,1,00,1","0444,9","01,9",,"240,M,+0350,1","240,N,+0109,1","99999,9,08189,1","2,1,013,1,+999,9",,,"SYN106AAXX  06061 76373 32906 00000 10180 20033 38189 40130 52013 90550 333 10350 20109 30/// 55074 21707 59024;",
"76373099999","2012-06-06T12:00:00","4","25.35","-105.75","1967.0","TEPEHUANES DGO., MX","FM-12","99999","V020","999,9,C,0000,1","22000,1,9,N","001000,1,N,1","+0104,1","+0039,1","10132,1","24,0000,9,1",,,,,"00,1,+99999,9,99,9",,"00,99,1,00,1,00,1,99999,9,00,1,00,1",,"01,9",,"120,N,+0092,1","240,M,+0350,1","99999,9,08190,1","9,9,999,9,-006,1",,,"SYN100AAXX  06121 76373 32910 00000 10104 20039 38190 40132 5//// 91150 333 10350 20092 30077 59006 70000;","Q01  00002PRCP24"
"76373099999","2012-06-06T15:00:00","4","25.35","-105.75","1967.0","TEPEHUANES DGO., MX","FM-12","99999","V020","999,9,C,0000,1","22000,1,9,N","020000,1,N,1","+0209,1","+0052,1","10129,1",,,,,,"00,1,+99999,9,99,9",,"00,99,1,00,1,00,1,99999,9,00,1,00,1",,"01,9",,,,"99999,9,08188,1","7,1,002,1,-017,1",,,"SYN082AAXX  06151 76373 32970 00000 10209 20052 38188 40129 57002 91450 333 30/// 59017;",
"76373099999","2012-06-06T18:00:00","4","25.35","-105.75","1967.0","TEPEHUANES DGO., MX","FM-12","99999","V020","130,1,N,0010,1","22000,1,9,N","020000,1,N,1","+0307,1","+0013,1","10113,1",,,,,,"02,1,+00750,1,06,1",,"02,99,1,02,1,04,1,00800,1,00,1,00,1",,"01,9",,"120,M,+0321,1","240,N,+0092,1","99999,9,08175,1","7,1,013,1,-009,1",,,"SYN112AAXX  06181 76373 32570 21301 10307 20013 38175 40113 57013 82400 91750 333 10321 20092 30/// 56900 59009 82625;",
"76373099999","2012-06-06T21:00:00","4","25.35","-105.75","1967.0","TEPEHUANES DGO., MX","FM-12","99999","V020","180,1,N,0010,1","22000,1,9,N","020000,1,N,1","+0343,1","-0026,1","10088,1",,,,,,"01,1,+00900,1,08,1",,"03,99,1,03,1,04,1,00800,1,00,1,00,1",,"01,9",,,,"99999,9,08154,1","7,1,021,1,-006,1",,,"SYN106AAXX  06211 76373 32570 31801 10343 21026 38154 40088 57021 83400 92050 333 30/// 56900 59006 81830 82625;",
"76373099999","2012-06-07T00:00:00","4","25.35","-105.75","1967.0","TEPEHUANES DGO., MX","FM-12","99999","V020","260,1,N,0020,1","00750,1,9,N","020000,1,N,1","+0280,1","+0013,1","10091,1","24,9999,9,9",,,,,,,"07,99,1,07,1,07,1,00800,1,00,1,00,1",,"01,9",,"120,M,+0365,1","180,N,+0092,1","99999,9,08157,1","2,1,003,1,-009,1",,,"SYN124AAXX  07001 76373 32570 72602 10280 20013 38157 40091 52003 87700 92350 333 10365 20092 30/// 50691 56900 59009 79999 87723;","Q01  99992PRCP24"
"76373099999","2012-06-07T03:00:00","4","25.35","-105.75","1967.0","TEPEHUANES DGO., MX","FM-12","99999","V020","240,1,N,0010,1","22000,1,9,N","000400,1,N,1","+0237,1","+0074,1","10116,1",,,,,,"03,1,+00690,1,06,1",,"03,99,1,03,1,04,1,00800,1,00,1,00,1",,"01,9",,,,"99999,9,08177,1","2,1,021,1,+001,1",,,"SYN100AAXX  07031 76373 32504 32401 10237 20074 38177 40116 52021 83400 90250 333 30/// 56900 58001 83623;",
"76373099999","2012-06-07T12:00:00","4","25.35","-105.75","1967.0","TEPEHUANES DGO., MX","FM-12","99999","V020","999,9,C,0000,1","22000,1,9,N","001000,1,N,1","+0121,1","+0056,1","10133,1","24,0000,9,1",,,,,"00,1,+99999,9,99,9",,"00,99,1,00,1,00,1,99999,9,00,1,00,1",,"01,9",,"120,N,+0113,1","240,M,+0365,1","99999,9,08191,1","9,9,999,9,+001,1",,,"SYN100AAXX  07121 76373 32910 00000 10121 20056 38191 40133 5//// 91150 333 10365 20113 30100 58001 79999;","Q01  00002PRCP24"
"76373099999","2012-06-07T15:00:00","4","25.35","-105.75","1967.0","TEPEHUANES DGO., MX","FM-12","99999","V020","999,9,C,0000,1","22000,1,9,N","020000,1,N,1","+0213,1","+0068,1","10142,1",,,,,,"00,1,+99999,9,99,9",,"00,99,1,00,1,00,1,99999,9,00,1,00,1",,"01,9",,,,"99999,9,08199,1","2,1,008,1,+011,1",,,"SYN082AAXX  07151 76373 32970 00000 10213 20068 38199 40142 52008 91450 333 30/// 58011;",
"76373099999","2012-06-07T18:00:00","4","25.35","-105.75","1967.0","TEPEHUANES DGO., MX","FM-12","99999","V020","999,9,C,0000,1","22000,1,9,N","030000,1,N,1","+0321,1","+0028,1","10142,1",,,,,,"01,1,+00750,1,08,1",,"01,99,1,01,1,01,1,00800,1,00,1,00,1",,"01,9",,"120,M,+0330,1","240,N,+0113,1","99999,9,08199,1","4,1,000,1,+024,1",,,"SYN112AAXX  07181 76373 32580 10000 10321 20028 38199 40142 54000 81100 91750 333 10330 20113 30/// 56900 58024 81825;",
"76373099999","2012-06-07T21:00:00","4","25.35","-105.75","1967.0","TEPEHUANES DGO., MX","FM-12","99999","V020","320,1,N,0010,1","22000,1,9,N","030000,1,N,1","+0328,1","-0033,1","10107,1",,,,,,"04,1,+00600,1,08,1",,"04,99,1,04,1,04,1,00800,1,00,1,00,1",,"01,9",,,,"99999,9,08170,1","7,1,029,1,+016,1",,,"SYN100AAXX  07211 76373 32580 43201 10328 21033 38170 40107 57029 84400 92050 333 30/// 56900 58016 84820;",
"76373099999","2012-06-08T00:00:00","4","25.35","-105.75","1967.0","TEPEHUANES DGO., MX","FM-12","99999","V020","110,1,N,0010,1","00750,1,9,N","030000,1,N,1","+0310,1","-0014,1","10100,1","24,0000,9,1",,,,,"03,1,+00600,1,06,1",,"06,99,1,06,1,06,1,00800,1,00,1,00,1",,"01,9",,"120,M,+0360,1","180,N,+0113,1","99999,9,08164,1","7,1,006,1,+007,1",,,"SYN130AAXX  08001 76373 32580 61101 10310 21014 38164 40100 57006 86600 92350 333 10360 20113 30/// 50961 56900 58007 70000 83620 83825;",
"76373099999","2012-06-08T12:00:00","4","25.35","-105.75","1967.0","TEPEHUANES DGO., MX","FM-12","99999","V020","290,1,N,0010,1","22000,1,9,N","001000,1,N,1","+0118,1","+0027,1","10147,1","24,0000,9,1",,,,,"00,1,+99999,9,99,9",,"00,99,1,00,1,00,1,99999,9,00,1,00,1",,"01,9",,"120,N,+0100,1","240,M,+0360,1","99999,9,08202,1","9,9,999,9,+011,1",,,"SYN100AAXX  08121 76373 32910 02901 10118 20027 38202 40147 5//// 91150 333 10360 20100 30092 58011 70000;","Q01  00002PRCP24"
"76373099999","2012-06-08T15:00:00","4","25.35","-105.75","1967.0","TEPEHUANES DGO., MX","FM-12","99999","V020","999,9,C,0000,1","22000,1,9,N","020000,1,N,1","+0220,1","+0047,1","10160,1",,,,,,"00,1,+99999,9,99,9",,"00,99,1,00,1,00,1,99999,9,00,1,00,1",,"01,9",,,,"99999,9,08213,1","2,1,011,1,+014,1",,,"SYN082AAXX  08151 76373 32970 00000 10220 20047 38213 40160 52011 91455 333 30/// 58014;",
"76373099999","2012-06-08T18:00:00","4","25.35","-105.75","1967.0","TEPEHUANES DGO., MX","FM-12","99999","V020","140,1,N,0010,1","22000,1,9,N","030000,1,N,1","+0324,1","-0026,1","10135,1",,,,,,"02,1,+00750,1,08,1",,"02,99,1,02,1,02,1,00800,1,00,1,00,1",,"01,9",,"120,M,+0330,1","240,N,+0100,1","99999,9,08193,1","7,1,020,1,-006,1",,,"SYN112AAXX  08181 76373 32580 21401 10324 21026 38193 40135 57020 82200 91755 333 10330 20100 30/// 56900 59006 82825;",
"76373099999","2012-06-08T21:00:00","4","25.35","-105.75","1967.0","TEPEHUANES DGO., MX","FM-12","99999","V020","140,1,N,0020,1","22000,1,9,N","030000,1,N,1","+0344,1","-0059,1","10108,1",,,,,,"03,1,+00750,1,08,1",,"03,99,1,03,1,03,1,00800,1,00,1,00,1",,"01,9",,,,"99999,9,08171,1","7,1,022,1,+001,1",,,"SYN100AAXX  08211 76373 32580 31402 10344 21059 38171 40108 57022 83300 92055 333 30/// 56900 58001 83825;",
"76373099999","2012-06-09T00:00:00","4","25.35","-105.75","1967.0","TEPEHUANES DGO., MX","FM-12","99999","V020","140,1,N,0010,1","00750,1,9,N","030000,1,N,1","+0320,1","-0064,1","10098,1","24,0000,9,1",,,,,"03,1,+00600,1,06,1",,"06,99,1,06,1,06,1,00800,1,00,1,00,1",,"01,9",,"120,M,+0370,1","180,N,+0100,1","99999,9,08163,1","7,1,003,1,-001,1",,,"SYN130AAXX  09001 76373 32580 61401 10320 21064 38163 40098 57003 86600 92355 333 10370 20100 30/// 50781 56900 59001 70000 83620 83825;",
"76373099999","2012-06-09T03:00:00","4","25.35","-105.75","1967.0","TEPEHUANES DGO., MX","FM-12","99999","V020","320,1,N,0010,1","00750,1,9,N","001000,1,N,1","+0250,1","+0072,1","10125,1",,,,,,"04,1,+00600,1,06,1",,"06,99,1,06,1,06,1,00800,1,00,1,00,1",,"01,9",,,,"99999,9,08185,1","2,1,022,1,-003,1",,,"SYN106AAXX  09031 76373 32510 63201 10250 20072 38185 40125 52022 86600 90255 333 30/// 56900 59003 84620 82825;",
"76373099999","2012-06-09T06:00:00","4","25.35","-105.75","1967.0","TEPEHUANES DGO., MX","FM-12","99999","V020","320,1,N,0010,1","22000,1,9,N","000500,1,N,1","+0216,1","+0046,1","10135,1",,,,,,,,"02,99,1,02,1,02,1,00800,1,00,1,00,1","0558,9","01,9",,"240,M,+0370,1","240,N,+0100,1","99999,9,08193,1","2,1,008,1,-011,1",,,"SYN124AAXX  09061 76373 32505 23201 10216 20046 38193 40135 52008 82200 90555 333 10370 20100 30/// 55093 21892 56900 59011 82825;",
"76373099999","2012-06-09T12:00:00","4","25.35","-105.75","1967.0","TEPEHUANES DGO., MX","FM-12","99999","V020","999,9,C,0000,1","22000,1,9,N","001000,1,N,1","+0150,1","+0025,1","10145,1","24,0000,9,1",,,,,"01,1,+00750,1,08,1",,"01,99,1,01,1,01,1,00800,1,00,1,00,1",,"01,9",,"120,N,+0138,1","240,M,+0370,1","99999,9,08201,1","9,9,999,9,-001,1",,,"SYN118AAXX  09121 76373 32510 10000 10150 20025 38201 40145 5//// 81100 91155 333 10370 20138 30114 56900 59001 70000 81825;",
"76373099999","2012-06-09T15:00:00","4","25.35","-105.75","1967.0","TEPEHUANES DGO., MX","FM-12","99999","V020","999,9,C,0000,1","22000,1,9,N","015000,1,N,1","+0210,1","+0050,1","10152,1",,,,,,"01,1,+00600,1,08,1",,"01,99,1,01,1,01,1,00800,1,00,1,00,1",,"01,9",,,,"99999,9,08206,1","1,1,005,1,-007,1",,,"SYN100AAXX  09151 76373 32565 10000 10210 20050 38206 40152 51005 81100 91440 333 30/// 56900 59007 81820;",
"76373099999","2012-06-09T21:00:00","4","25.35","-105.75","1967.0","TEPEHUANES DGO., MX","FM-12","99999","V020","280,1,N,0010,1","22000,1,9,N","030000,1,N,1","+0296,1","+0161,1","10123,1",,,,,,"03,1,+00750,1,08,1",,"03,99,1,03,1,03,1,00800,1,00,1,00,1",,"01,9",,,,"99999,9,08183,1","7,1,006,1,+012,1",,,"SYN100AAXX  09211 76373 32580 32801 10296 20161 38183 40123 57006 83300 92055 333 30/// 56900 58012 83825;",
"76373099999","2012-06-10T00:00:00","4","25.35","-105.75","1967.0","TEPEHUANES DGO., MX","FM-12","99999","V020","290,1,N,0010,1","00750,1,9,N","020000,1,N,1","+0274,1","+0020,1","10107,1","24,0000,9,1",,,,,,,"08,99,1,08,1,07,1,00800,1,00,1,00,1",,"01,9",,"120,M,+0350,1","180,N,+0138,1","99999,9,08170,1","7,1,013,1,+007,1",,,"SYN124AAXX  10001 76373 32570 82901 10274 20020 38170 40107 57013 88700 92350 333 10350 20138 30/// 51171 56900 58007 70000 88627;",
"76373099999","2012-06-10T03:00:00","4","25.35","-105.75","1967.0","TEPEHUANES DGO., MX","FM-12","99999","V020","999,9,C,0000,1","00810,1,9,N","005000,1,N,1","+0235,1","+0034,1","10139,1",,,,,,"07,1,+00810,1,06,1",,"07,99,1,07,1,07,1,00800,1,00,1,00,1",,"01,9",,,,"99999,9,08196,1","2,1,026,1,-011,1",,,"SYN100AAXX  10031 76373 32550 70000 10235 20034 38196 40139 52026 87700 90250 333 30/// 56900 59011 87627;",
"76373099999","2012-06-10T06:00:00","4","25.35","-105.75","1967.0","TEPEHUANES DGO., MX","FM-12","99999","V020","999,9,C,0000,1","00750,1,9,N","005000,1,N,1","+0208,1","+0047,1","10141,1",,,,,,,,"07,99,1,07,1,07,1,00800,1,00,1,00,1","0522,9","01,9",,"240,M,+0350,1","240,N,+0138,1","99999,9,08198,1","2,1,002,1,+999,9",,,"SYN118AAXX  10061 76373 32550 70000 10208 20047 38198 40141 52002 87700 90550 333 10350 20138 30/// 55087 22110 56900 87627;",
"76373099999","2012-06-10T12:00:00","4","25.35","-105.75","1967.0","TEPEHUANES DGO., MX","FM-12","99999","V020","999,9,C,0000,1","99999,9,9,N","005000,1,N,1","+0169,1","+0043,1","10136,1","24,0000,9,1",,,,,,,"06,99,1,99,9,07,1,00800,1,00,1,00,1","0522,9","01,9",,"120,N,+0160,1","240,M,+0350,1","99999,9,08194,1","9,9,999,9,-007,1",,,"SYN130AAXX  10121 76373 32550 60000 10169 20043 38194 40136 5//// 87700 91150 333 10350 20160 30155 55087 22110 56900 59007 70000 87627;",
"76373099999","2012-06-10T18:00:00","4","25.35","-105.75","1967.0","TEPEHUANES DGO., MX","FM-12","99999","V020","999,9,C,0000,1","22000,1,9,N","020000,1,N,1","+0330,1","+0011,1","10127,1",,,,,,"03,1,+00810,1,08,1",,"03,99,1,03,1,02,1,00800,1,00,1,00,1",,"01,9",,"120,M,+0350,1","240,N,+0166,1","99999,9,08186,1","2,1,004,1,-003,1",,,"SYN112AAXX  10181 76373 32570 31300 10330 20011 38186 40127 52004 83200 91750 333 10350 20166 30/// 56900 59003 83827;",
"76373099999","2012-06-10T21:00:00","4","25.35","-105.75","1967.0","TEPEHUANES DGO., MX","FM-12","99999","V020","220,1,N,0010,1","00810,1,9,N","020000,1,N,1","+0364,1","-0002,1","10112,1",,,,,,"05,1,+00810,1,08,1",,"05,99,1,05,1,02,1,00800,1,00,1,00,1",,"01,9",,,,"99999,9,08174,1","7,1,012,1,-009,1",,,"SYN100AAXX  10211 76373 32570 52201 10364 21002 38174 40112 57012 85200 92050 333 30/// 56900 59009 85827;",
"76373099999","2012-06-11T00:00:00","4","25.35","-105.75","1967.0","TEPEHUANES DGO., MX","FM-12","99999","V020","999,9,C,0000,1","00750,1,9,N","020000,1,N,1","+0298,1","+0042,1","10111,1","24,0000,9,1",,,,,,,"07,99,1,07,1,05,1,00800,1,00,1,00,1",,"01,9",,"120,M,+0380,1","180,N,+0160,1","99999,9,08173,1","2,1,001,1,+003,1",,,"SYN124AAXX  11001 76373 32570 70000 10298 20042 38173 40111 52001 87500 92350 333 10380 20160 30/// 50991 56900 58003 70000 87627;",
"76373099999","2012-06-11T03:00:00","4","25.35","-105.75","1967.0","TEPEHUANES DGO., MX","FM-12","99999","V020","999,9,C,0000,1","00810,1,9,N","005000,1,N,1","+0258,1","+0046,1","10136,1",,,,,,"05,1,+00810,1,06,1",,"05,99,1,05,1,05,1,00800,1,00,1,00,1",,"01,9",,,,"99999,9,08193,1","2,1,020,1,-003,1",,,"SYN100AAXX  11031 76373 32550 50000 10258 20046 38193 40136 52020 85500 90250 333 30/// 56900 59003 85627;",
"76373099999","2012-06-11T12:00:00","4","25.35","-105.75","1967.0","TEPEHUANES DGO., MX","FM-12","99999","V020","999,9,C,0000,1","00750,1,9,N","010000,1,N,1","+0188,1","+0079,1","10154,1","24,0000,9,1",,,,,,,"08,99,1,08,1,05,1,00800,1,00,1,00,1","0522,9","01,9",,"120,N,+0181,1","240,M,+0380,1","99999,9,08208,1","9,9,999,9,+014,1",,,"SYN130AAXX  11121 76373 32560 80000 10188 20079 38208 40154 5//// 88500 91150 333 10380 20181 30175 55087 21772 56900 58014 70000 88627;",
"76373099999","2012-06-11T18:00:00","4","25.35","-105.75","1967.0","TEPEHUANES DGO., MX","FM-12","99999","V020","999,9,C,0000,1","22000,1,9,N","030000,1,N,1","+0336,1","+0031,1","10155,1",,,,,,"00,1,+99999,9,99,9",,"00,99,1,00,1,00,1,99999,9,00,1,00,1",,"01,9",,"120,M,+0350,1","240,N,+0181,1","99999,9,08209,1","7,1,004,1,+023,1",,,"SYN094AAXX  11181 76373 32980 00000 10336 20031 38209 40155 57004 91750 333 10350 20181 30/// 58023;",
"76373099999","2012-06-11T21:00:00","4","25.35","-105.75","1967.0","TEPEHUANES DGO., MX","FM-12","99999","V020","160,1,N,0010,1","22000,1,9,N","030000,1,N,1","+0365,1","+0004,1","10140,1",,,,,,"03,1,+00750,1,08,1",,"03,99,1,03,1,03,1,00800,1,00,1,00,1",,"01,9",,,,"99999,9,08197,1","7,1,032,1,+023,1",,,"SYN100AAXX  11211 76373 32580 31601 10365 20004 38197 40140 57032 83300 92050 333 30/// 56900 58023 83825;",
"76373099999","2012-06-12T00:00:00","4","25.35","-105.75","1967.0","TEPEHUANES DGO., MX","FM-12","99999","V020","999,9,C,0000,1","00750,1,9,N","030000,1,N,1","+0324,1","+0001,1","10135,1","24,0000,9,1",,,,,,,"06,99,1,06,1,06,1,00800,1,00,1,00,1",,"01,9",,"120,M,+0390,1","180,N,+0181,1","99999,9,08193,1","7,1,006,1,+020,1",,,"SYN124AAXX  12001 76373 32580 60000 10324 20001 38193 40135 57006 86600 92350 333 10390 20181 30/// 50106 56900 58020 70000 86825;",
"76373099999","2012-06-12T03:00:00","4","25.35","-105.75","1967.0","TEPEHUANES DGO., MX","FM-12","99999","V020","999,9,C,0000,1","22000,1,9,N","001000,1,N,1","+0280,1","+0052,1","10153,1",,,,,,"04,1,+00750,1,08,1",,"04,99,1,04,1,04,1,00800,1,00,1,00,1",,"01,9",,,,"99999,9,08207,1","2,1,014,1,+014,1",,,"SYN100AAXX  12031 76373 32510 40000 10280 20052 38207 40153 52014 84400 90250 333 30/// 56900 58014 84825;",
"76373099999","2012-06-12T06:00:00","4","25.35","-105.75","1967.0","TEPEHUANES DGO., MX","FM-12","99999","V020","999,9,C,0000,1","22000,1,9,N","030000,1,N,1","+0225,1","+0105,1","10163,1",,,,,,,,"01,99,1,01,1,01,1,00800,1,00,1,00,1","0450,9","01,9",,"240,M,+0390,1","240,N,+0181,1","99999,9,08216,1","2,1,009,1,+010,1",,,"SYN124AAXX  12061 76373 32580 10000 10225 20105 38216 40163 52009 81100 90550 333 10390 20181 30/// 55075 21385 56900 58010 81825;",
"76373099999","2012-06-12T12:00:00","4","25.35","-105.75","1967.0","TEPEHUANES DGO., MX","FM-12","99999","V020","999,9,C,0000,1","22000,1,9,N","001000,1,N,1","+0150,1","+0074,1","10177,1","24,0000,9,1",,,,,"00,1,+99999,9,99,9",,"00,99,1,00,1,00,1,99999,9,00,1,00,1",,"01,9",,"120,N,+0137,1","240,M,+0390,1","99999,9,08226,1","9,9,999,9,+018,1",,,"SYN100AAXX  12121 76373 32910 00000 10150 20074 38226 40177 5//// 91150 333 10390 20137 30130 58018 70000;","Q01  00002PRCP24"
"76373099999","2012-06-12T15:00:00","4","25.35","-105.75","1967.0","TEPEHUANES DGO., MX","FM-12","99999","V020","999,9,C,0000,1","22000,1,9,N","030000,1,N,1","+0251,1","+0087,1","10173,1",,,,,,"00,1,+99999,9,99,9",,"00,99,1,00,1,00,1,99999,9,00,1,00,1",,"01,9",,,,"99999,9,08224,1","7,1,002,1,+011,1",,,"SYN082AAXX  12151 76373 32980 00000 10251 20087 38224 40173 57002 91450 333 30/// 58011;",
"76373099999","2012-06-12T18:00:00","4","25.35","-105.75","1967.0","TEPEHUANES DGO., MX","FM-12","99999","V020","140,1,N,0010,1","22000,1,9,N","030000,1,N,1","+0338,1","-0019,1","10160,1",,,,,,"00,1,+99999,9,99,9",,"00,99,1,00,1,00,1,99999,9,00,1,00,1",,"01,9",,"120,M,+0350,1","240,N,+0137,1","99999,9,08213,1","7,1,011,1,+004,1",,,"SYN094AAXX  12181 76373 32980 01401 10338 21019 38213 40160 57011 91750 333 10350 20137 30/// 58004;",
"76373099999","2012-06-12T21:00:00","4","25.35","-105.75","1967.0","TEPEHUANES DGO., MX","FM-12","99999","V020","130,1,N,0010,1","22000,1,9,N","020000,1,N,1","+0375,1","-0014,1","10123,1",,,,,,"02,1,+00810,1,08,1",,"03,99,1,03,1,02,1,00800,1,00,1,00,1",,"01,9",,,,"99999,9,08183,1","7,1,030,1,-014,1",,,"SYN100AAXX  12211 76373 32570 31301 10375 21014 38183 40123 57030 83200 92050 333 30/// 56900 59014 82827;",
"76373099999","2012-06-13T00:00:00","4","25.35","-105.75","1967.0","TEPEHUANES DGO., MX","FM-12","99999","V020","120,1,N,0010,1","00750,1,9,N","020000,1,N,1","+0335,1","-0024,1","10114,1","24,0000,9,1",,,,,,,"07,99,1,07,1,05,1,00800,1,00,1,00,1",,"01,9",,"120,M,+0397,1","180,N,+0137,1","99999,9,08176,1","7,1,007,1,-017,1",,,"SYN124AAXX  13001 76373 32570 71201 10335 21024 38176 40114 57007 87500 92350 333 10397 20137 30/// 51071 56900 59017 70000 87625;",
"76373099999","2012-06-13T03:00:00","4","25.35","-105.75","1967.0","TEPEHUANES DGO., MX","FM-12","99999","V020","110,1,N,0010,1","22000,1,9,N","000400,1,N,1","+0298,1","-0013,1","10126,1",,,,,,"01,1,+00750,1,06,1",,"01,99,1,01,1,04,1,00800,1,00,1,00,1",,"01,9",,,,"99999,9,08185,1","2,1,009,1,-022,1",,,"SYN100AAXX  13031 76373 32504 11101 10298 21013 38185 40126 52009 81400 90250 333 30/// 56900 59022 81625;",
"76373099999","2012-06-13T12:00:00","4","25.35","-105.75","1967.0","TEPEHUANES DGO., MX","FM-12","99999","V020","999,9,C,0000,1","22000,1,9,N","001000,1,N,1","+0133,1","+0003,1","10145,1","24,0000,9,1",,,,,,,"01,99,1,01,1,04,1,00800,1,00,1,00,1","0564,9","01,9",,"120,N,+0122,1","240,M,+0397,1","99999,9,08201,1","9,9,999,9,-025,1",,,"SYN130AAXX  13121 76373 32510 10000 10133 20003 38201 40145 5//// 81400 91150 333 10397 20122 30110 55094 21876 56300 59025 70000 81625;",
"76373099999","2012-06-13T15:00:00","4","25.35","-105.75","1967.0","TEPEHUANES DGO., MX","FM-12","99999","V020","999,9,C,0000,1","22000,1,9,N","020000,1,N,1","+0225,1","+0046,1","10152,1",,,,,,"01,1,+05100,1,00,1",,"01,99,1,00,1,00,1,99999,9,00,1,04,1",,"01,9",,,,"99999,9,08206,1","2,1,005,1,-018,1",,,"SYN100AAXX  13151 76373 32970 10000 10225 20046 38206 40152 52005 80004 91450 333 30/// 56900 59018 81067;",
"76373099999","2012-06-13T18:00:00","4","25.35","-105.75","1967.0","TEPEHUANES DGO., MX","FM-12","99999","V020","999,9,C,0000,1","22000,1,9,N","020000,1,N,1","+0346,1","+0006,1","10132,1",,,,,,"01,1,+00900,1,08,1",,"01,99,1,01,1,01,1,00800,1,00,1,00,1",,"01,9",,"120,M,+0357,1","240,N,+0122,1","99999,9,08190,1","7,1,016,1,-023,1",,,"SYN112AAXX  13181 76373 32570 10000 10346 20006 38190 40132 57016 81100 91750 333 10357 20122 30/// 56900 59023 81830;",
"76373099999","2012-06-13T21:00:00","4","25.35","-105.75","1967.0","TEPEHUANES DGO., MX","FM-12","99999","V020","140,1,N,0020,1","22000,1,9,N","020000,1,N,1","+0337,1","-0026,1","10104,1",,,,,,"04,1,+00750,1,06,1",,"04,99,1,04,1,04,1,00800,1,00,1,00,1",,"01,9",,,,"99999,9,08168,1","7,1,022,1,-015,1",,,"SYN100AAXX  13211 76373 32570 41402 10337 21026 38168 40104 57022 84400 92050 333 30/// 56900 59015 84625;",
"76373099999","2012-06-14T00:00:00","4","25.35","-105.75","1967.0","TEPEHUANES DGO., MX","FM-12","99999","V020","310,1,N,0020,1","00750,1,9,N","020000,1,N,1","+0284,1","+9999,9","10104,1","24,0000,9,1",,,,,,,"08,99,1,08,1,07,1,00800,1,00,1,00,1",,"01,9",,"120,M,+0380,1","180,N,+0122,1","99999,9,08167,1","5,1,001,1,-009,1",,,"SYN124AAXX  14001 76373 32570 83102 10284 20129 38167 40104 55001 88700 92350 333 10380 20122 30/// 51031 56900 59009 70000 87723;","Q01+001293ATOD  "
"76373099999","2012-06-14T03:00:00","4","25.35","-105.75","1967.0","TEPEHUANES DGO., MX","FM-12","99999","V020","310,1,N,0010,1","00690,1,9,N","000400,1,N,1","+0245,1","+0076,1","10125,1",,,,,,"07,1,+00690,1,07,1",,"08,99,1,08,1,07,1,00800,1,00,1,00,1",,"01,9",,,,"99999,9,08185,1","2,1,018,1,+000,1",,,"SYN100AAXX  14031 76373 32504 83101 10245 20076 38185 40125 52018 88700 90250 333 30/// 56900 58000 87723;",
"76373099999","2012-06-14T06:00:00","4","25.35","-105.75","1967.0","TEPEHUANES DGO., MX","FM-12","99999","V020","999,9,C,0000,1","22000,1,9,N","000400,1,N,1","+0214,1","+0078,1","10132,1",,,,,,,,"02,99,1,02,1,07,1,00800,1,00,1,00,1","0474,9","01,9",,"240,M,+0380,1","240,N,+0122,1","99999,9,08191,1","2,1,006,1,-008,1",,,"SYN124AAXX  14061 76373 32504 20000 10214 20078 38191 40132 52006 82700 90540 333 10380 20122 30/// 55079 21578 56900 59008 82723;",
"76373099999","2012-06-14T12:00:00","4","25.35","-105.75","1967.0","TEPEHUANES DGO., MX","FM-12","99999","V020","999,9,C,0000,1","00750,1,9,N","001000,1,N,1","+0181,1","+0068,1","10135,1","24,0000,9,1",,,,,"04,1,+00750,1,06,1",,"05,99,1,05,1,05,1,00800,1,00,1,00,1",,"01,9",,"120,N,+0112,1","240,M,+0380,1","99999,9,08193,1","9,9,999,9,-008,1",,,"SYN124AAXX  14121 76373 32510 50000 10181 20068 38193 40135 5//// 85500 91150 333 10380 20112 30160 56900 59008 79999 84625 81723;","Q01  00002PRCP24"
"76373099999","2012-06-14T15:00:00","4","25.35","-105.75","1967.0","TEPEHUANES DGO., MX","FM-12","99999","V020","999,9,C,0000,1","00690,1,9,N","015000,1,N,1","+0234,1","+0091,1","10154,1",,,,,,"06,1,+00690,1,06,1",,"06,99,1,06,1,05,1,00800,1,00,1,00,1",,"01,9",,,,"99999,9,08208,1","2,1,015,1,+002,1",,,"SYN100AAXX  14151 76373 32565 60000 10234 20091 38208 40154 52015 86500 91450 333 30/// 56900 58002 86623;",
"76373099999","2012-06-14T18:00:00","4","25.35","-105.75","1967.0","TEPEHUANES DGO., MX","FM-12","99999","V020","999,9,C,0000,1","22000,1,9,N","030000,1,N,1","+0367,2","+0105,1","10129,1",,,,,,"01,1,+00750,1,08,1",,"01,99,1,01,1,01,1,00800,1,00,1,00,1",,"01,9",,"120,M,+0380,1","240,N,+0172,1","99999,9,08188,1","7,1,020,1,-002,1",,,"SYN112AAXX  14181 76373 32580 10000 10367 20105 38188 40129 57020 81100 91750 333 10380 20172 30/// 56900 59002 81825;",
"76373099999","2012-06-14T21:00:00","4","25.35","-105.75","1967.0","TEPEHUANES DGO., MX","FM-12","99999","V020","140,1,N,0020,1","01200,1,C,N","030000,1,N,1","+0290,1","+0063,1","10102,1",,,,,,"02,1,+00600,1,09,1",,"08,99,1,08,1,08,1,00800,1,00,1,00,1",,"01,9",,,,"99999,9,08166,1","7,1,022,1,-002,1",,,"SYN106AAXX  14211 76373 32580 81402 10290 20063 38166 40102 57022 88800 92055 333 30/// 56900 59002 82920 86725;",
"76373099999","2012-06-15T12:00:00","4","25.35","-105.75","1967.0","TEPEHUANES DGO., MX","FM-12","99999","V020","290,1,N,0010,1","22000,1,9,N","001500,1,N,1","+0130,1","+0093,1","10149,1","24,0010,9,1",,,,,"03,1,+00750,1,08,1",,"03,99,1,03,1,03,1,00800,1,00,1,00,1",,"01,9",,"120,N,+0114,1","240,M,+0370,1","99999,9,08204,1","9,9,999,9,+011,1",,,"SYN118AAXX  15121 76373 32515 32901 10130 20093 38204 40149 5//// 83300 91155 333 10370 20114 30102 56900 58011 70010 83825;",
"76373099999","2012-06-15T15:00:00","4","25.35","-105.75","1967.0","TEPEHUANES DGO., MX","FM-12","99999","V020","070,1,N,0010,1","22000,1,9,N","020000,1,N,1","+0192,1","+0106,1","10155,1",,,,,,"02,1,+00600,1,08,1",,"02,99,1,02,1,02,1,00800,1,00,1,00,1",,"01,9",,,,"99999,9,08209,1","1,1,005,1,+001,1",,,"SYN100AAXX  15151 76373 32570 20701 10192 20106 38209 40155 51005 82200 91450 333 30/// 56900 58001 82820;",
"76373099999","2012-06-15T18:00:00","4","25.35","-105.75","1967.0","TEPEHUANES DGO., MX","FM-12","99999","V020","140,1,N,0010,1","22000,1,9,N","030000,1,N,1","+0314,2","+0066,1","10134,1",,,,,,"03,1,+00750,1,08,1",,"03,99,1,03,1,03,1,00800,1,00,1,00,1",,"01,9",,"120,M,+0320,1","240,N,+0114,1","99999,9,08192,1","7,1,017,1,+004,1",,,"SYN112AAXX  15181 76373 32580 31401 10314 20066 38192 40134 57017 83300 91755 333 10320 20114 30/// 56900 58004 83825;",
"76373099999","2012-06-16T00:00:00","4","25.35","-105.75","1967.0","TEPEHUANES DGO., MX","FM-12","99999","V020","140,1,N,0020,1","01200,1,9,N","030000,1,N,1","+0240,1","+0089,1","10116,1","24,0000,9,1",,,,,"02,1,+00600,1,09,1",,"08,99,1,08,1,08,1,00800,1,00,1,00,1",,"01,9",,"120,M,+0360,1","180,N,+0114,1","99999,9,08177,1","2,1,013,1,-039,1",,,"SYN130AAXX  16001 76373 32580 81402 10240 20089 38177 40116 52013 88800 92355 333 10360 20114 30/// 50601 56900 59039 70000 82920 86625;",
"76373099999","2012-06-16T03:00:00","4","25.35","-105.75","1967.0","TEPEHUANES DGO., MX","FM-12","99999","V020","140,1,N,0010,1","00750,1,9,N","001000,1,N,1","+0224,1","+0092,1","10130,1",,,,,,"06,1,+00750,1,06,1",,"06,99,1,06,1,06,1,00800,1,00,1,00,1",,"01,9",,,,"99999,9,08189,1","2,1,012,1,-022,1",,,"SYN100AAXX  16031 76373 32510 61401 10224 20092 38189 40130 52012 86600 90250 333 30/// 56900 59022 86625;",
"76373099999","2012-06-16T06:00:00","4","25.35","-105.75","1967.0","TEPEHUANES DGO., MX","FM-12","99999","V020","320,1,N,0010,1","00750,1,9,N","000500,1,N,1","+0192,1","+0103,1","10142,1",,,,,,"02,1,+00600,1,07,1",,"07,99,1,07,1,07,1,00800,1,00,1,00,1","0486,9","01,9",,"240,M,+0360,1","240,N,+0114,1","99999,9,08199,1","2,1,010,1,-006,1",,,"SYN130AAXX  16061 76373 32505 73201 10192 20103 38199 40142 52010 87700 90555 333 10360 20114 30/// 55081 21611 56900 59006 82720 85625;",
"76373099999","2012-06-16T12:00:00","4","25.35","-105.75","1967.0","TEPEHUANES DGO., MX","FM-12","99999","V020","999,9,C,0000,1","00750,1,9,N","001000,1,N,1","+0160,1","+0094,1","10140,1","24,0000,9,1",,,,,"04,1,+00600,1,07,1",,"06,99,1,06,1,06,1,00800,1,00,1,00,1",,"01,9",,"120,N,+0142,1","240,M,+0360,1","99999,9,08197,1","9,9,999,9,-007,1",,,"SYN124AAXX  16121 76373 32510 60000 10160 20094 38197 40140 5//// 86600 91150 333 10360 20142 30128 56900 59007 70000 84720 82625;",
"76373099999","2012-06-16T15:00:00","4","25.35","-105.75","1967.0","TEPEHUANES DGO., MX","FM-12","99999","V020","999,9,C,0000,1","22000,1,9,N","030000,1,N,1","+0198,1","+0111,1","10158,1",,,,,,"04,1,+00750,1,06,1",,"04,99,1,04,1,04,1,00800,1,00,1,00,1",,"01,9",,,,"99999,9,08211,1","2,1,017,1,+002,1",,,"SYN100AAXX  16151 76373 32580 40000 10198 20111 38211 40158 52017 84400 91440 333 30/// 56900 58002 84625;",
"76373099999","2012-06-16T18:00:00","4","25.35","-105.75","1967.0","TEPEHUANES DGO., MX","FM-12","99999","V020","160,1,N,0010,1","00600,1,9,N","030000,1,N,1","+0304,1","+0096,1","10159,1",,,,,,"05,1,+00600,1,06,1",,"05,99,1,05,1,05,1,00800,1,00,1,00,1",,"01,9",,"120,M,+0310,1","240,N,+0142,1","99999,9,08212,1","2,1,001,1,+020,1",,,"SYN112AAXX  16181 76373 32580 51601 10304 20096 38212 40159 52001 85500 91750 333 10310 20142 30/// 56900 58020 85620;",
"76373099999","2012-06-16T21:00:00","4","25.35","-105.75","1967.0","TEPEHUANES DGO., MX","FM-12","99999","V020","360,1,N,0010,1","00810,1,9,N","020000,1,N,1","+0296,1","+0083,1","10112,1",,,,,,"05,1,+00810,1,06,1",,"05,99,1,05,1,04,1,00800,1,00,1,00,1",,"01,9",,,,"99999,9,08174,1","7,1,038,1,+010,1",,,"SYN100AAXX  16211 76373 32570 53601 10296 20083 38174 40112 57038 85400 92050 333 30/// 56900 58010 85627;",
"76373099999","2012-06-17T00:00:00","4","25.35","-105.75","1967.0","TEPEHUANES DGO., MX","FM-12","99999","V020","010,1,N,0010,1","00750,1,9,N","020000,1,N,1","+0265,1","+0100,1","10109,1","24,0000,9,1",,,,,,,"07,99,1,07,1,07,1,00800,1,00,1,00,1",,"01,9",,"120,M,+0340,1","180,N,+0142,1","99999,9,08172,1","2,1,002,1,-005,1",,,"SYN124AAXX  17001 76373 32570 70101 10265 20100 38172 40109 52002 87700 92350 333 10340 20142 30/// 50751 56900 59005 70000 87627;",
"76373099999","2012-06-17T03:00:00","4","25.35","-105.75","1967.0","TEPEHUANES DGO., MX","FM-12","99999","V020","270,1,N,0010,1","00810,1,9,N","020000,1,N,1","+0203,1","+0124,1","10142,1",,,,,,"08,1,+00810,1,06,1",,"08,99,1,08,1,07,1,00800,1,00,1,00,1",,"01,9",,,,"99999,9,08198,1","2,1,026,1,+014,1",,,"SYN100AAXX  17031 76373 32570 82701 10203 20124 38198 40142 52026 88700 90250 333 30/// 56900 58014 88627;",
"76373099999","2012-06-17T12:00:00","4","25.35","-105.75","1967.0","TEPEHUANES DGO., MX","FM-12","99999","V020","999,9,C,0000,1","22000,1,9,N","020000,1,N,1","+0171,1","+0113,1","10159,1","24,0000,9,1",,,,,,,"03,99,1,03,1,03,1,00800,1,00,1,00,1","0510,9","01,9",,"120,N,+0163,1","240,M,+0340,1","99999,9,08212,1","9,9,999,9,+015,1",,,"SYN130AAXX  17121 76373 32570 30000 10171 20113 38212 40159 5//// 83300 91150 333 10340 20163 30155 55085 21812 56900 58015 70000 83827;",
"76373099999","2012-06-17T15:00:00","4","25.35","-105.75","1967.0","TEPEHUANES DGO., MX","FM-12","99999","V020","999,9,C,0000,1","22000,1,9,N","020000,1,N,1","+0243,1","+0119,1","10163,1",,,,,,"00,1,+99999,9,99,9",,"00,99,1,00,1,00,1,99999,9,00,1,00,1",,"01,9",,,,"99999,9,08216,1","2,1,004,1,+005,1",,,"SYN082AAXX  17151 76373 32970 00000 10243 20119 38216 40163 52004 91450 333 30/// 58005;",
"76373099999","2012-06-17T18:00:00","4","25.35","-105.75","1967.0","TEPEHUANES DGO., MX","FM-12","99999","V020","999,9,C,0000,1","22000,1,9,N","020000,1,N,1","+0309,1","+0096,1","10142,1",,,,,,"04,1,+00810,1,08,1",,"04,99,1,04,1,03,1,00800,1,00,1,00,1",,"01,9",,"120,M,+0320,1","240,N,+0163,1","99999,9,08196,1","7,1,018,1,-014,1",,,"SYN112AAXX  17181 76373 32570 41400 10309 20096 38196 40142 57018 84300 91750 333 10320 20163 30/// 56900 59014 84827;",
"76373099999","2012-06-17T21:00:00","4","25.35","-105.75","1967.0","TEPEHUANES DGO., MX","FM-12","99999","V020","999,9,C,0000,1","00810,1,9,N","020000,1,N,1","+0310,1","+0080,1","10121,1",,,,,,"06,1,+00810,1,08,1",,"06,99,1,06,1,03,1,00800,1,00,1,00,1",,"01,9",,,,"99999,9,08181,1","7,1,017,1,+007,1",,,"SYN100AAXX  17211 76373 32570 60000 10310 20080 38181 40121 57017 86300 92050 333 30/// 56900 58007 86827;",
"76373099999","2012-06-18T00:00:00","4","25.35","-105.75","1967.0","TEPEHUANES DGO., MX","FM-12","99999","V020","999,9,C,0000,1","00750,1,9,N","020000,1,N,1","+0309,1","+0071,1","10099,1","24,0000,9,1",,,,,,,"06,99,1,06,1,03,1,00800,1,00,1,00,1",,"01,9",,"120,M,+0343,1","180,N,+0163,1","99999,9,08164,1","7,1,017,1,-008,1",,,"SYN124AAXX  18001 76373 32570 60600 10309 20071 38164 40099 57017 86300 92350 333 10343 20163 30/// 50801 56900 59008 70000 86827;",
"76373099999","2012-06-18T03:00:00","4","25.35","-105.75","1967.0","TEPEHUANES DGO., MX","FM-12","99999","V020","999,9,C,0000,1","22000,1,9,N","005000,1,N,1","+9999,9","+9999,9","99999,9",,,,,,"00,1,+99999,9,99,9",,"00,99,1,00,1,00,1,99999,9,00,1,00,1",,,,,,,,,,"SYN082AAXX  18031 76373 32950 00000 1021 20088 38177 40116 52012 90250 333 3 0/// 59019;",
"76373099999","2012-06-18T12:00:00","4","25.35","-105.75","1967.0","TEPEHUANES DGO., MX","FM-12","99999","V020","999,9,C,0000,1","22000,1,9,N","005000,1,N,1","+0149,1","+0084,1","10129,1",,,,,,"00,1,+99999,9,99,9",,"00,99,1,00,1,00,1,99999,9,00,1,00,1","0552,9","01,9",,"120,N,+0140,1","240,M,+0343,1","99999,9,08188,1","9,9,999,9,-024,1",,,"SYN112AAXX  18121 76373 32950 00000 10149 20084 38188 40129 5//// 91150 333 10343 20140 30121 55092 21667 59024 70000;",
"76373099999","2012-06-18T18:00:00","4","25.35","-105.75","1967.0","TEPEHUANES DGO., MX","FM-12","99999","V020","160,1,N,0010,1","22000,1,9,N","030000,1,N,1","+0318,1","+0063,1","10119,1",,,,,,"03,1,+00750,1,08,1",,"03,99,1,03,1,03,1,00800,1,00,1,00,1",,"01,9",,"120,M,+0340,1","240,N,+0140,1","99999,9,08179,1","7,1,010,1,-019,1",,,"SYN112AAXX  18181 76373 32580 31601 10318 20063 38179 40119 57010 83300 91750 333 10340 20140 30/// 56900 59019 83825;",
"76373099999","2012-06-18T21:00:00","4","25.35","-105.75","1967.0","TEPEHUANES DGO., MX","FM-12","99999","V020","140,1,N,0010,1","00750,1,9,N","030000,1,N,1","+0329,1","+0010,1","10092,1",,,,,,"05,1,+00750,1,08,1",,"05,99,1,05,1,05,1,00800,1,00,1,00,1",,"01,9",,,,"99999,9,08158,1","7,1,021,1,-023,1",,,"SYN100AAXX  18211 76373 32580 51401 10329 20010 38158 40092 57021 85500 92050 333 30/// 56900 59023 85825;",
"76373099999","2012-06-19T00:00:00","4","25.35","-105.75","1967.0","TEPEHUANES DGO., MX","FM-12","99999","V020","110,1,N,0020,1","22000,1,9,N","030000,1,N,1","+0321,1","+0024,1","10071,1","24,0000,9,1",,,,,,,"02,99,1,02,1,02,1,00800,1,00,1,00,1",,"01,9",,"120,M,+0365,1","180,N,+0140,1","99999,9,08141,1","7,1,017,1,-023,1",,,"SYN124AAXX  19001 76373 32580 21102 10321 20024 38141 40071 57017 82200 92350 333 10365 20140 30/// 50851 56900 59023 70000 82825;",
"76373099999","2012-06-19T03:00:00","4","25.35","-105.75","1967.0","TEPEHUANES DGO., MX","FM-12","99999","V020","999,9,C,0000,1","22000,1,9,N","001000,1,N,1","+0265,1","+0124,1","10093,1",,,,,,"00,1,+99999,9,99,9",,"00,99,1,00,1,00,1,99999,9,00,1,00,1",,"01,9",,,,"99999,9,08159,1","2,1,018,1,-018,1",,,"SYN082AAXX  19031 76373 32910 00000 10265 20124 38159 40093 52018 90255 333 30/// 59018;",
"76373099999","2012-06-19T06:00:00","4","25.35","-105.75","1967.0","TEPEHUANES DGO., MX","FM-12","99999","V020","999,9,C,0000,1","22000,1,9,N","001000,1,N,1","+0220,1","+0050,1","10122,1",,,,,,"00,1,+99999,9,99,9",,"00,99,1,00,1,00,1,99999,9,00,1,00,1","0510,9","01,9",,"240,M,+0365,1","240,N,+0140,1","99999,9,08182,1","2,1,023,1,+999,9",,,"SYN106AAXX  19061 76373 32910 00000 10220 20050 38182 40122 52023 90550 333 10365 20140 30/// 55085 20894 59003;",
"76373099999","2012-06-19T12:00:00","4","25.35","-105.75","1967.0","TEPEHUANES DGO., MX","FM-12","99999","V020","999,9,C,0000,1","22000,1,9,N","001000,1,N,1","+0143,1","+0079,1","10126,1","24,0000,9,1",,,,,"00,1,+99999,9,99,9",,"00,99,1,00,1,00,1,99999,9,00,1,00,1",,"01,9",,"120,N,+0129,1","240,M,+0365,1","99999,9,08185,1","9,9,999,9,-003,1",,,"SYN100AAXX  19121 76373 32910 00000 10143 20079 38185 40126 5//// 91155 333 10365 20129 30120 59003 70000;","Q01  00002PRCP24"
"76373099999","2012-06-19T15:00:00","4","25.35","-105.75","1967.0","TEPEHUANES DGO., MX","FM-12","99999","V020","999,9,C,0000,1","22000,1,9,N","020000,1,N,1","+0215,1","+0104,1","10116,1",,,,,,"02,1,+00750,1,08,1",,"02,99,1,02,1,02,1,00800,1,00,1,00,1",,"01,9",,,,"99999,9,08177,1","7,1,008,1,-012,1",,,"SYN100AAXX  19151 76373 32570 20000 10215 20104 38177 40116 57008 82200 91455 333 30/// 56900 59012 82825;",
"76373099999","2012-06-19T18:00:00","4","25.35","-105.75","1967.0","TEPEHUANES DGO., MX","FM-12","99999","V020","999,9,C,0000,1","22000,1,9,N","030000,1,N,1","+0335,1","+0055,1","10104,1",,,,,,"01,1,+00750,1,08,1",,"01,99,1,01,1,01,1,00800,1,00,1,00,1",,"01,9",,"120,M,+0365,1","240,N,+0129,1","99999,9,08168,1","2,1,009,1,-011,1",,,"SYN112AAXX  19181 76373 32580 10000 10335 20055 38168 40104 52009 81100 91750 333 10365 20129 30/// 56900 59011 81825;",
"76373099999","2012-06-19T21:00:00","4","25.35","-105.75","1967.0","TEPEHUANES DGO., MX","FM-12","99999","V020","999,9,C,0000,1","00690,1,9,N","020000,1,N,1","+0345,1","+0026,1","10084,1",,,,,,"06,1,+00690,1,06,1",,"06,99,1,06,1,04,1,00800,1,00,1,00,1",,"01,9",,,,"99999,9,08151,1","7,1,017,1,-023,1",,,"SYN100AAXX  19211 76373 32570 60000 10345 20026 38151 40084 57017 86400 92045 333 30/// 56900 59023 86623;",
"76373099999","2012-06-20T03:00:00","4","25.35","-105.75","1967.0","TEPEHUANES DGO., MX","FM-12","99999","V020","999,9,C,0000,1","00690,1,9,N","000400,1,N,1","+0271,1","+0139,1","10089,1",,,,,,"05,1,+00690,1,06,1",,"05,99,1,05,1,04,1,00800,1,00,1,00,1",,"01,9",,,,"99999,9,08155,1","2,1,018,1,-004,1",,,"SYN100AAXX  20031 76373 32504 50000 10271 20139 38155 40089 52018 85400 90250 333 30/// 56900 59004 85623;",
"76373099999","2012-06-20T06:00:00","4","25.35","-105.75","1967.0","TEPEHUANES DGO., MX","FM-12","99999","V020","999,9,C,0000,1","22000,1,9,N","000400,1,N,1","+0229,1","+0141,1","10107,1",,,,,,"00,1,+99999,9,99,9",,"00,99,1,00,1,00,1,99999,9,00,1,00,1","0660,9","01,9",,"240,M,+0370,1","240,N,+0129,1","99999,9,08170,1","2,1,015,1,+999,9",,,"SYN106AAXX  20061 76373 32904 00000 10229 20141 38170 40107 52015 90550 333 10370 20129 30/// 55110 21288 59012;",
"76373099999","2012-06-20T12:00:00","4","25.35","-105.75","1967.0","TEPEHUANES DGO., MX","FM-12","99999","V020","999,9,C,0000,1","22000,1,9,N","001000,1,N,1","+0171,1","+9999,9","10112,1","24,0000,9,1",,,,,"00,1,+99999,9,99,9",,"00,99,1,00,1,00,1,99999,9,00,1,00,1",,"01,9",,"120,N,+0161,1","240,M,+0370,1","99999,9,08174,1","9,9,999,9,-011,1",,,"SYN094AAXX  20121 76373 32910 00000 10171 38174 40112 5//// 91150 333 10370 20161 30150 59011 70000;","Q01  00002PRCP24"
"76373099999","2012-06-20T15:00:00","4","25.35","-105.75","1967.0","TEPEHUANES DGO., MX","FM-12","99999","V020","999,9,C,0000,1","22000,1,9,N","020000,1,N,1","+0242,1","+0145,1","10126,1",,,,,,"01,1,+00900,1,08,1",,"01,99,1,01,1,01,1,00800,1,00,1,00,1",,"01,9",,,,"99999,9,08185,1","2,1,011,1,+000,1",,,"SYN100AAXX  20151 76373 32570 10000 10242 20145 38185 40126 52011 81100 91450 333 30/// 56300 58000 81830;",
"76373099999","2012-06-20T18:00:00","4","25.35","-105.75","1967.0","TEPEHUANES DGO., MX","FM-12","99999","V020","999,9,C,0000,1","22000,1,9,N","020000,1,N,1","+0328,1","+0102,1","10106,1",,,,,,"03,1,+00750,1,06,1",,"04,99,1,04,1,04,1,00800,1,00,1,00,1",,"01,9",,"120,M,+0335,1","240,N,+0161,1","99999,9,08169,1","7,1,016,1,+001,1",,,"SYN118AAXX  20181 76373 32570 40000 10328 20102 38169 40106 57016 84400 91750 333 10335 20161 30/// 56900 58001 83625 81828;",
"76373099999","2012-06-20T21:00:00","4","25.35","-105.75","1967.0","TEPEHUANES DGO., MX","FM-12","99999","V020","999,9,C,0000,1","00690,1,9,N","020000,1,N,1","+0351,1","+0021,1","10080,1",,,,,,"07,1,+00690,1,07,1",,"07,99,1,07,1,07,1,00800,1,00,1,00,1",,"01,9",,,,"99999,9,08149,1","7,1,020,1,-002,1",,,"SYN100AAXX  20211 76373 32570 70000 10351 20021 38149 40080 57020 87700 92050 333 30/// 56900 59002 87723;",
"76373099999","2012-06-21T00:00:00","4","25.35","-105.75","1967.0","TEPEHUANES DGO., MX","FM-12","99999","V020","320,1,N,0010,1","00750,1,9,N","020000,1,N,1","+0243,1","+0110,1","10101,1","24,0010,9,1",,,,,,,"07,99,1,07,1,07,1,00800,1,00,1,00,1",,"01,9",,"120,M,+0374,1","180,N,+0161,1","99999,9,08165,1","2,1,016,1,+038,1",,,"SYN124AAXX  21001 76373 32570 73201 10243 20110 38165 40101 52016 87700 92350 333 10374 20161 30/// 50601 56900 58038 70010 87723;",
"76373099999","2012-06-21T03:00:00","4","25.35","-105.75","1967.0","TEPEHUANES DGO., MX","FM-12","99999","V020","999,9,C,0000,1","00690,1,9,N","000400,1,N,1","+0208,1","+0091,1","10125,1",,,,,,"05,1,+00690,1,07,1",,"05,99,1,05,1,07,1,00800,1,00,1,00,1",,"01,9",,,,"99999,9,08185,1","2,1,020,1,+030,1",,,"SYN100AAXX  21031 76373 32504 50000 10208 20091 38185 40125 52020 85700 90250 333 30/// 56900 58030 85723;",
"76373099999","2012-06-21T06:00:00","4","25.35","-105.75","1967.0","TEPEHUANES DGO., MX","FM-12","99999","V020","999,9,C,0000,1","22000,1,9,N","000400,1,N,1","+0172,1","+0119,1","10148,1",,,,,,"00,1,+99999,9,99,9",,"00,99,1,00,1,00,1,99999,9,00,1,00,1","0426,9","01,9",,"240,M,+0374,1","240,N,+0161,1","99999,9,08203,1","2,1,018,1,+999,9",,,"SYN106AAXX  21061 76373 32904 00000 10172 20119 38203 40148 52018 90550 333 10374 20161 30/// 55071 21184 58033;",
"76373099999","2012-06-21T12:00:00","4","25.35","-105.75","1967.0","TEPEHUANES DGO., MX","FM-12","99999","V020","999,9,C,0000,1","22000,1,9,N","001000,1,N,1","+0131,1","+0101,1","10135,1","24,0010,9,1",,,,,"01,1,+05100,1,00,1",,"01,99,1,00,1,00,1,99999,9,00,1,01,1",,"01,9",,"120,N,+0124,1","240,M,+0374,1","99999,9,08193,1","9,9,999,9,+019,1",,,"SYN118AAXX  21121 76373 32910 10000 10131 20101 38193 40135 5//// 80001 91150 333 10374 20124 30108 56009 58019 70010 81067;",
"76373099999","2012-06-21T15:00:00","4","25.35","-105.75","1967.0","TEPEHUANES DGO., MX","FM-12","99999","V020","999,9,C,0000,1","22000,1,9,N","020000,1,N,1","+0216,1","+0088,1","10145,1",,,,,,"01,1,+05100,1,00,1",,"01,99,1,00,1,00,1,99999,9,00,1,04,1",,"01,9",,,,"99999,9,08200,1","2,1,007,1,+015,1",,,"SYN100AAXX  21151 76373 32970 10000 10216 20088 38200 40145 52007 80004 91450 333 30/// 56009 58015 81067;",
"76373099999","2012-06-21T18:00:00","4","25.35","-105.75","1967.0","TEPEHUANES DGO., MX","FM-12","99999","V020","999,9,C,0000,1","22000,1,9,N","030000,1,N,1","+0329,2","+0062,1","10139,1",,,,,,"00,1,+99999,9,99,9",,"00,99,1,00,1,00,1,99999,9,00,1,00,1",,"01,9",,"120,M,+0330,1","240,N,+0124,1","99999,9,08196,1","2,1,004,1,+027,1",,,"SYN094AAXX  21181 76373 32980 00000 10329 20062 38196 40139 52004 91755 333 10330 20124 30/// 58027;",
"76373099999","2012-06-21T21:00:00","4","25.35","-105.75","1967.0","TEPEHUANES DGO., MX","FM-12","99999","V020","110,1,N,0020,1","22000,1,9,N","030000,1,N,1","+0326,1","+0013,1","10109,1",,,,,,"04,1,+00600,1,06,1",,"04,99,1,04,1,04,1,00800,1,00,1,00,1",,"01,9",,,,"99999,9,08172,1","7,1,019,1,+023,1",,,"SYN100AAXX  21211 76373 32580 41102 10326 20013 38172 40109 57019 84400 92050 333 30/// 56900 58023 84620;",
"76373099999","2012-06-22T00:00:00","4","25.35","-105.75","1967.0","TEPEHUANES DGO., MX","FM-12","99999","V020","110,1,N,0020,1","00750,1,9,N","030000,1,N,1","+0316,1","-0004,1","10092,1","24,0000,9,1",,,,,,,"05,99,1,05,1,05,1,00800,1,00,1,00,1",,"01,9",,"120,M,+0350,1","180,N,+0124,1","99999,9,08158,1","7,1,014,1,-007,1",,,"SYN124AAXX  22001 76373 32580 51102 10316 21004 38158 40092 57014 85500 92355 333 10350 20124 30/// 50791 56900 59007 70000 85610;",
"76373099999","2012-06-22T12:00:00","4","25.35","-105.75","1967.0","TEPEHUANES DGO., MX","FM-12","99999","V020","999,9,C,0000,1","22000,1,9,N","001000,1,N,1","+0148,1","+0127,1","10131,1","24,0025,9,1",,,,,"03,1,+00750,1,06,1",,"03,99,1,03,1,03,1,00800,1,00,1,00,1",,"01,9",,"120,N,+0120,1","240,M,+0350,1","99999,9,08189,1","9,9,999,9,-007,1",,,"SYN118AAXX  22121 76373 32510 30000 10148 20127 38189 40131 5//// 83300 91150 333 10350 20120 30104 56900 59007 70025 83625;",
"76373099999","2012-06-22T15:00:00","4","25.35","-105.75","1967.0","TEPEHUANES DGO., MX","FM-12","99999","V020","999,9,C,0000,1","00600,1,9,N","030000,1,N,1","+0198,1","+0128,1","10138,1",,,,,,"06,1,+00600,1,06,1",,"06,99,1,06,1,06,1,00800,1,00,1,00,1",,"01,9",,,,"99999,9,08195,1","2,1,006,1,-003,1",,,"SYN100AAXX  22151 76373 32580 60000 10198 20128 38195 40138 52006 86600 91450 333 30/// 56900 59003 86620;",
"76373099999","2012-06-22T18:00:00","4","25.35","-105.75","1967.0","TEPEHUANES DGO., MX","FM-12","99999","V020","320,1,N,0010,1","01200,1,C,N","030000,1,N,1","+0230,1","+0111,1","10137,1",,,,,,"04,1,+00600,1,07,1",,"08,99,1,08,1,08,1,00800,1,00,1,00,1",,"01,9",,"120,M,+0250,1","240,N,+0120,1","99999,9,08194,1","7,1,001,1,+003,1",,,"SYN118AAXX  22181 76373 32580 83201 10230 20111 38194 40137 57001 88800 91750 333 10250 20120 30/// 56900 58003 84720 84625;",
"76373099999","2012-06-22T21:00:00","4","25.35","-105.75","1967.0","TEPEHUANES DGO., MX","FM-12","99999","V020","340,1,N,0010,1","00600,1,9,N","030000,1,N,1","+0248,1","+0115,1","10119,1",,,,,,"05,1,+00600,1,07,1",,"08,99,1,08,1,08,1,00800,1,00,1,00,1",,"01,9",,,,"99999,9,08179,1","7,1,015,1,+007,1",,,"SYN106AAXX  22211 76373 32580 83401 10248 20115 38179 40119 57015 88800 92055 333 30/// 56900 58007 85720 83625;",
"76373099999","2012-06-23T00:00:00","4","25.35","-105.75","1967.0","TEPEHUANES DGO., MX","FM-12","99999","V020","140,1,N,0010,1","00600,1,C,N","030000,1,N,1","+0228,1","+0118,1","10106,1","24,0025,9,1",,,,,"05,1,+00600,1,07,1",,"08,99,1,08,1,08,1,00800,1,00,1,00,1",,"01,9",,"120,M,+0260,1","180,N,+0120,1","99999,9,08170,1","7,1,009,1,+012,1",,,"SYN130AAXX  23001 76373 32580 81401 10228 20118 38170 40106 57009 88800 92355 333 10260 20120 30/// 50361 56900 58012 70025 85720 83625;",
"76373099999","2012-06-23T03:00:00","4","25.35","-105.75","1967.0","TEPEHUANES DGO., MX","FM-12","99999","V020","140,1,N,0010,1","00600,1,9,N","001000,1,N,1","+0182,1","+0139,1","10138,1",,,,,,"05,1,+00600,1,07,1",,"08,99,1,08,1,08,1,00800,1,00,1,00,1",,"01,9",,,,"99999,9,08195,1","2,1,020,1,+003,1",,,"SYN106AAXX  23031 76373 32510 81401 10182 20139 38195 40138 52020 88800 90255 333 30/// 56900 58003 85720 83625;",
"76373099999","2012-06-23T06:00:00","4","25.35","-105.75","1967.0","TEPEHUANES DGO., MX","FM-12","99999","V020","290,1,N,0010,1","00600,1,9,N","001000,1,N,1","+0162,1","+0149,1","10137,1",,,,,,"08,1,+00600,1,07,1",,"08,99,1,08,1,08,1,00800,1,00,1,00,1",,"01,9",,"240,M,+0260,1","240,N,+0120,1",,"7,1,001,1,-012,1",,,"SYN112AAXX  23061 76373 32510 82901 10162 20149 38129 40137 57001 88800 90555 333 10260 20120 30/// 56900 59012 88720;","Q01+081293APOSP "
"76373099999","2012-06-23T12:00:00","4","25.35","-105.75","1967.0","TEPEHUANES DGO., MX","FM-12","99999","V020","999,9,C,0000,1","00750,1,9,N","001000,1,N,1","+0146,1","+0141,1","10122,1","24,0015,9,1",,,,,,,"06,99,1,06,1,06,1,00800,1,00,1,00,1","0096,9","01,9",,"120,N,+0128,1","240,M,+0260,1","99999,9,08182,1","9,9,999,9,-007,1",,,"SYN130AAXX  23121 76373 32510 60000 10146 20141 38182 40122 5//// 86600 91155 333 10260 20128 30114 55016 20532 56900 59007 70015 86720;",
"76373099999","2012-06-23T15:00:00","4","25.35","-105.75","1967.0","TEPEHUANES DGO., MX","FM-12","99999","V020","999,9,C,0000,1","22000,1,9,N","030000,1,N,1","+0182,1","+0141,1","10132,1",,,,,,"02,1,+00750,1,08,1",,"02,99,1,02,1,02,1,00800,1,00,1,00,1",,"01,9",,,,"99999,9,08190,1","2,1,008,1,+008,1",,,"SYN100AAXX  23151 76373 32580 20000 10182 20141 38190 40132 52008 82200 91450 333 30/// 56900 58008 82825;",
"76373099999","2012-06-23T18:00:00","4","25.35","-105.75","1967.0","TEPEHUANES DGO., MX","FM-12","99999","V020","140,1,N,0010,1","22000,1,9,N","030000,1,N,1","+0286,1","+0103,1","10127,1",,,,,,"03,1,+00600,1,08,1",,"03,99,1,03,1,03,1,00800,1,00,1,00,1",,"01,9",,"120,M,+0290,1","240,N,+0128,1","99999,9,08166,1","7,1,004,1,-008,1",,,"SYN112AAXX  23181 76373 32580 31401 10286 20103 38166 40127 57004 83300 91750 333 10290 20128 30/// 56900 59008 83820;",
"76373099999","2012-06-23T21:00:00","4","25.35","-105.75","1967.0","TEPEHUANES DGO., MX","FM-12","99999","V020","140,1,N,0010,1","22000,1,9,N","030000,1,N,1","+0301,1","+0106,1","10112,1",,,,,,"02,1,+00750,1,08,1",,"02,99,1,02,1,02,1,00800,1,00,1,00,1",,"01,9",,,,"99999,9,08174,1","7,1,012,1,+005,1",,,"SYN100AAXX  23211 76373 32580 21401 10301 20106 38174 40112 57012 82200 92050 333 30/// 56900 58005 82825;",
"76373099999","2012-06-24T00:00:00","4","25.35","-105.75","1967.0","TEPEHUANES DGO., MX","FM-12","99999","V020","999,9,C,0000,1","00750,1,9,N","020000,1,N,1","+0272,1","+0106,1","10097,1","24,0015,9,1",,,,,,,"08,99,1,08,1,07,1,00800,1,00,1,00,1",,"01,9",,"120,M,+0330,1","180,N,+0128,1","99999,9,08162,1","7,1,012,1,-008,1",,,"SYN124AAXX  24001 76373 32570 80000 10272 20106 38162 40097 57012 88700 92350 333 10330 20128 30/// 50721 56900 59008 70015 88627;",
"76373099999","2012-06-24T03:00:00","4","25.35","-105.75","1967.0","TEPEHUANES DGO., MX","FM-12","99999","V020","999,9,C,0000,1","00810,1,9,N","005000,1,N,1","+0187,1","+0166,1","10137,1","03,0020,9,1",,,,,"08,1,+00810,1,06,1",,"08,99,1,08,1,07,1,00800,1,00,1,00,1",,"01,9",,,,"99999,9,08194,1","2,1,022,1,-001,1",,,"SYN106AAXX  24031 76373 22550 80000 10187 20166 38194 40137 52022 88700 90250 333 30/// 56900 59001 60027 88627;",
"76373099999","2012-06-24T12:00:00","4","25.35","-105.75","1967.0","TEPEHUANES DGO., MX","FM-12","99999","V020","999,9,C,0000,1","00750,1,9,N","005000,1,N,1","+0179,1","+0170,1","10149,1","06,0060,9,2","24,0055,9,2",,,,,,"08,99,1,08,1,07,1,00800,1,00,1,00,1","0510,9","01,9",,"120,N,+0170,1","240,M,+0330,1","99999,9,08204,1","9,9,999,9,-022,1",,,"SYN142AAXX  24121 76373 02550 80000 10179 20170 38204 40149 5//// 60061 88700 91150 333 10330 20170 30161 55085 21756 56900 59022 60061 70055 88627;",
"76373099999","2012-06-24T15:00:00","4","25.35","-105.75","1967.0","TEPEHUANES DGO., MX","FM-12","99999","V020","999,9,C,0000,1","00810,1,9,N","020000,1,N,1","+0186,1","+0165,1","10165,1","03,0030,9,1",,,,,"08,1,+00810,1,06,1",,"08,99,1,08,1,07,1,00800,1,00,1,00,1",,"09,9",,,,"99999,9,08217,1","2,1,003,1,+027,1",,,"SYN106AAXX  24151 76373 22570 80000 10186 20165 38217 40165 52003 88700 91450 333 31/// 56900 58027 60037 88627;",
"76373099999","2012-06-24T18:00:00","4","25.35","-105.75","1967.0","TEPEHUANES DGO., MX","FM-12","99999","V020","999,9,C,0000,1","00810,1,9,N","020000,1,N,1","+0235,1","+0149,1","10157,1",,,,,,"07,1,+00810,1,06,1",,"07,99,1,07,1,07,1,00800,1,00,1,00,1",,"01,9",,"120,M,+0240,1","240,N,+0170,1","99999,9,08210,1","2,1,007,1,-024,1",,,"SYN112AAXX  24181 76373 32570 70000 10235 20149 38210 40157 52007 87700 91750 333 10240 20170 30/// 56900 59024 87627;",
"76373099999","2012-06-25T00:00:00","4","25.35","-105.75","1967.0","TEPEHUANES DGO., MX","FM-12","99999","V020","999,9,C,0000,1","00750,1,9,N","020000,1,N,1","+0226,1","+0155,1","10145,1","24,0066,9,1",,,,,,,"08,99,1,08,1,07,1,00800,1,00,1,00,1",,"01,9",,"120,M,+0320,1","180,N,+0170,1","99999,9,08201,1","2,1,019,1,+039,1",,,"SYN124AAXX  25001 76373 32570 83100 10226 20155 38201 40145 52019 88700 92350 333 10320 20170 30/// 50731 56900 58039 70066 88627;",
"76373099999","2012-06-25T03:00:00","4","25.35","-105.75","1967.0","TEPEHUANES DGO., MX","FM-12","99999","V020","999,9,C,0000,1","00810,1,9,N","005000,1,N,1","+0200,1","+0166,1","10160,1",,,,,,"08,1,+00810,1,06,1",,"08,99,1,08,1,07,1,00800,1,00,1,00,1",,"01,9",,,,"99999,9,08213,1","2,1,012,1,+019,1",,,"SYN100AAXX  25031 76373 32550 80000 10200 20166 38213 40160 52012 88700 90250 333 30/// 56900 58019 88627;",
"76373099999","2012-06-25T12:00:00","4","25.35","-105.75","1967.0","TEPEHUANES DGO., MX","FM-12","99999","V020","999,9,C,0000,1","22000,1,9,N","005000,1,N,1","+0147,1","+0142,1","10167,1","06,0020,9,1","24,0032,9,1",,,,,,"02,99,1,02,1,04,1,00800,1,00,1,00,1","0186,9","01,9",,"120,N,+0140,1","240,M,+0320,1","99999,9,08218,1","9,9,999,9,+014,1",,,"SYN142AAXX  25121 76373 02550 20000 10147 20142 38218 40167 5//// 60021 82400 91150 333 10320 20140 30131 55031 21168 56900 58014 60021 70032 82627;",
"76373099999","2012-06-25T15:00:00","4","25.35","-105.75","1967.0","TEPEHUANES DGO., MX","FM-12","99999","V020","999,9,C,0000,1","22000,1,9,N","020000,1,N,1","+0205,1","+0147,1","10160,1",,,,,,"00,1,+99999,9,99,9",,"00,99,1,00,1,00,1,99999,9,00,1,00,1",,"01,9",,,,"99999,9,08213,1","7,1,005,1,-004,1",,,"SYN082AAXX  25151 76373 32970 00000 10205 20147 38213 40160 57005 91450 333 30/// 59004;",
"76373099999","2012-06-25T18:00:00","4","25.35","-105.75","1967.0","TEPEHUANES DGO., MX","FM-12","99999","V020","999,9,C,0000,1","22000,1,9,N","020000,1,N,1","+0298,1","+0106,1","10144,1",,,,,,"03,1,+00810,1,08,1",,"03,99,1,03,1,02,1,00800,1,00,1,00,1",,"01,9",,"120,M,+0305,1","240,N,+0140,1","99999,9,08200,1","7,1,013,1,-010,1",,,"SYN112AAXX  25181 76373 32570 30000 10298 20106 38200 40144 57013 83200 91750 333 10305 20140 30/// 56900 59010 83827;",
"76373099999","2012-06-26T00:00:00","4","25.35","-105.75","1967.0","TEPEHUANES DGO., MX","FM-12","99999","V020","070,1,N,0010,1","22000,1,9,N","030000,1,N,1","+0334,1","+0140,1","10113,1","24,0016,9,1",,,,,,,"01,99,1,01,1,01,1,00800,1,00,1,00,1",,"01,9",,"120,M,+0350,1","180,N,+0140,1","99999,9,08175,1","7,1,003,1,-026,1",,,"SYN124AAXX  26001 76373 32580 10701 10334 20140 38175 40113 57003 81100 92350 333 10350 20140 30/// 50541 56900 59026 70016 81825;",
"76373099999","2012-06-26T03:00:00","4","25.35","-105.75","1967.0","TEPEHUANES DGO., MX","FM-12","99999","V020","999,9,C,0000,1","22000,1,9,N","001000,1,N,1","+0263,1","+0025,1","10131,1",,,,,,"00,1,+99999,9,99,9",,"00,99,1,00,1,00,1,99999,9,00,1,00,1",,"01,9",,,,"99999,9,08190,1","2,1,015,1,-023,1",,,"SYN082AAXX  26031 76373 32910 00000 10263 20025 38190 40131 52015 90250 333 30/// 59023;",
"76373099999","2012-06-26T06:00:00","4","25.35","-105.75","1967.0","TEPEHUANES DGO., MX","FM-12","99999","V020","999,9,C,0000,1","22000,1,9,N","001000,1,N,1","+0213,1","+0044,1","10148,1",,,,,,"00,1,+99999,9,99,9",,"00,99,1,00,1,00,1,99999,9,00,1,00,1","0702,9","01,9",,"240,M,+0350,1","240,N,+0140,1","99999,9,08203,1","2,1,013,1,+999,9",,,"SYN106AAXX  26061 76373 32910 00000 10213 20044 38203 40148 52013 90550 333 10350 20140 30/// 55117 21216 59001;",
"76373099999","2012-06-26T12:00:00","4","25.35","-105.75","1967.0","TEPEHUANES DGO., MX","FM-12","99999","V020","999,9,C,0000,1","22000,1,9,N","001000,1,N,1","+0130,1","+0072,1","10153,1","24,0000,9,1",,,,,"00,1,+99999,9,99,9",,"00,99,1,00,1,00,1,99999,9,00,1,00,1",,"01,9",,"120,N,+0118,1","240,M,+0350,1","99999,9,08208,1","9,9,999,9,-010,1",,,"SYN100AAXX  26121 76373 32910 00000 10130 20072 38208 40153 5//// 91150 333 10350 20118 30110 59010 70000;","Q01  00002PRCP24"
"76373099999","2012-06-26T15:00:00","4","25.35","-105.75","1967.0","TEPEHUANES DGO., MX","FM-12","99999","V020","999,9,C,0000,1","22000,1,9,N","020000,1,N,1","+0159,1","+0078,1","10155,1",,,,,,"00,1,+99999,9,99,9",,"00,99,1,00,1,00,1,99999,9,00,1,00,1",,"01,9",,,,"99999,9,08209,1","2,1,001,1,-004,1",,,"SYN082AAXX  26151 76373 32970 00000 10159 20078 38209 40155 52001 91450 333 30/// 59004;",
"76373099999","2012-06-26T18:00:00","4","25.35","-105.75","1967.0","TEPEHUANES DGO., MX","FM-12","99999","V020","140,1,N,0010,1","22000,1,9,N","030000,1,N,1","+0315,1","+0138,1","10135,1",,,,,,"00,1,+99999,9,99,9",,"00,99,1,00,1,00,1,99999,9,00,1,00,1",,"01,9",,"120,M,+0320,1","240,N,+0118,1","99999,9,08193,1","7,1,016,1,+007,1",,,"SYN094AAXX  26181 76373 32980 01401 10315 20138 38193 40135 57016 91750 333 10320 20118 30/// 58007;",
"76373099999","2012-06-26T21:00:00","4","25.35","-105.75","1967.0","TEPEHUANES DGO., MX","FM-12","99999","V020","130,1,N,0010,1","22000,1,9,N","020000,1,N,1","+0335,1","+0004,1","10112,1",,,,,,"02,1,+00900,1,08,1",,"02,99,1,02,1,02,1,00800,1,00,1,00,1",,"01,9",,,,"99999,9,08174,1","7,1,019,1,-006,1",,,"SYN100AAXX  26211 76373 32570 21301 10335 20004 38174 40112 57019 82200 92150 333 30/// 56900 59006 82830;",
"76373099999","2012-06-27T00:00:00","4","25.35","-105.75","1967.0","TEPEHUANES DGO., MX","FM-12","99999","V020","120,1,N,0010,1","22000,1,9,N","020000,1,N,1","+0330,1","+0000,1","10098,1","24,0000,9,1",,,,,,,"02,99,1,02,1,02,1,00800,1,00,1,00,1",,"01,9",,"120,M,+0354,1","180,N,+0118,1","99999,9,08163,1","7,1,011,1,-012,1",,,"SYN124AAXX  27001 76373 32570 21201 10330 20000 38163 40098 57011 82200 92350 333 10354 20118 30/// 50941 56900 59012 70000 82830;",
"76373099999","2012-06-27T03:00:00","4","25.35","-105.75","1967.0","TEPEHUANES DGO., MX","FM-12","99999","V020","120,1,N,0010,1","22000,1,9,N","000400,1,N,1","+0273,1","-0015,1","10113,1",,,,,,,,"01,99,1,99,9,02,1,00800,1,05,1,00,1",,,,,,"99999,9,08175,1","2,1,012,1,-015,1",,,"SYN100AAXX  27031 76373 32504 11201 10273 21015 38175 40113 52012 80250 81500 333 30/// 56900 59015 81625;","Q01+000002SCOTLC"
"76373099999","2012-06-27T06:00:00","4","25.35","-105.75","1967.0","TEPEHUANES DGO., MX","FM-12","99999","V020","999,9,C,0000,1","22000,1,9,N","000400,1,N,1","+0221,1","+0023,1","10129,1",,,,,,"00,1,+99999,9,99,9",,"00,99,1,00,1,00,1,99999,9,00,1,00,1","0762,9","01,9",,"240,M,+0354,1","240,N,+0118,1","99999,9,08188,1","2,1,013,1,+999,9",,,"SYN106AAXX  27061 76373 32904 00000 10221 20023 38188 40129 52013 90540 333 10354 20118 30/// 55127 22070 59015;",
"76373099999","2012-06-27T12:00:00","4","25.35","-105.75","1967.0","TEPEHUANES DGO., MX","FM-12","99999","V020","999,9,C,0000,1","22000,1,9,N","001000,1,N,1","+0145,1","+0042,1","10140,1","24,0000,9,1",,,,,"01,1,+00900,1,08,1",,"01,99,1,01,1,02,1,00800,1,00,1,00,1",,"01,9",,"120,N,+0138,1","240,M,+0354,1","99999,9,08197,1","9,9,999,9,-011,1",,,"SYN118AAXX  27121 76373 32510 10000 10145 20042 38197 40140 5//// 81200 91150 333 10354 20138 30130 56300 59011 70000 81830;",
"76373099999","2012-06-27T15:00:00","4","25.35","-105.75","1967.0","TEPEHUANES DGO., MX","FM-12","99999","V020","999,9,C,0000,1","22000,1,9,N","020000,1,N,1","+0226,1","+0064,1","10150,1",,,,,,"00,1,+99999,9,99,9",,"00,99,1,00,1,00,1,99999,9,00,1,00,1",,"01,9",,,,"99999,9,08205,1","2,1,008,1,-004,1",,,"SYN082AAXX  27151 76373 32970 00000 10226 20064 38205 40150 52008 91450 333 30/// 59004;",
"76373099999","2012-06-27T18:00:00","4","25.35","-105.75","1967.0","TEPEHUANES DGO., MX","FM-12","99999","V020","140,1,N,0010,1","22000,1,9,N","020000,1,N,1","+0309,1","+0017,1","10144,1",,,,,,"02,1,+01050,1,06,1",,"02,99,1,02,1,04,1,00800,1,00,1,00,1",,"01,9",,"120,M,+0320,1","240,N,+0138,1","99999,9,08200,1","7,1,005,1,+007,1",,,"SYN112AAXX  27181 76373 32570 21401 10309 20017 38200 40144 57005 82400 91750 333 10320 20138 30/// 56900 58007 82635;",
"76373099999","2012-06-27T21:00:00","4","25.35","-105.75","1967.0","TEPEHUANES DGO., MX","FM-12","99999","V020","140,1,N,0010,1","22000,1,9,N","020000,1,N,1","+0339,1","-0026,1","10132,1",,,,,,"02,1,+00750,1,06,1",,"03,99,1,03,1,04,1,00800,1,00,1,00,1",,"01,9",,,,"99999,9,08190,1","7,1,010,1,+016,1",,,"SYN106AAXX  27211 76373 32570 31401 10339 21026 38190 40132 57010 83400 92050 333 30/// 56900 58016 82625 81830;",
"76373099999","2012-06-28T00:00:00","4","25.35","-105.75","1967.0","TEPEHUANES DGO., MX","FM-12","99999","V020","120,1,N,0010,1","22000,1,9,N","020000,1,N,1","+0325,1","-0028,1","10114,1","24,0000,9,1",,,,,"02,1,+00750,1,06,1",,"03,99,1,03,1,04,1,00800,1,00,1,00,1",,"01,9",,"120,M,+0356,1","180,N,+0138,1","99999,9,08176,1","7,1,014,1,+013,1",,,"SYN130AAXX  28001 76373 32570 31201 10325 21028 38176 40114 57014 83400 92350 333 10356 20138 30/// 50821 56900 58013 70000 82625 81830;",
"76373099999","2012-06-28T03:00:00","4","25.35","-105.75","1967.0","TEPEHUANES DGO., MX","FM-12","99999","V020","999,9,C,0000,1","22000,1,9,N","000600,1,N,1","+0271,1","+0010,1","10132,1",,,,,,"02,1,+00750,1,06,1",,"02,99,1,02,1,04,1,00800,1,00,1,00,1",,"01,9",,,,"99999,9,08190,1","2,1,014,1,+015,1",,,"SYN100AAXX  28031 76373 32506 20000 10271 20010 38190 40132 52014 82400 90250 333 30/// 56900 58015 82625;",
"76373099999","2012-06-28T06:00:00","4","25.35","-105.75","1967.0","TEPEHUANES DGO., MX","FM-12","99999","V020","999,9,C,0000,1","22000,1,9,N","000400,1,N,1","+0222,1","+0120,1","10160,1",,,,,,"00,1,+99999,9,99,9",,"00,99,1,00,1,00,1,99999,9,00,1,00,1","0738,9","01,9",,"240,M,+0356,1","240,N,+0138,1","99999,9,08213,1","2,1,023,1,+999,9",,,"SYN106AAXX  28061 76373 32904 00000 10222 20120 38213 40160 52023 90545 333 10356 20138 30/// 55123 21627 58025;",
"76373099999","2012-06-28T12:00:00","4","25.35","-105.75","1967.0","TEPEHUANES DGO., MX","FM-12","99999","V020","999,9,C,0000,1","22000,1,9,N","001000,1,N,1","+0152,1","+0090,1","10162,1","24,0000,9,1",,,,,"01,1,+00900,1,08,1",,"01,99,1,01,1,01,1,00800,1,00,1,00,1",,"01,9",,"120,N,+0140,1","240,M,+0356,1","99999,9,08215,1","9,9,999,9,+018,1",,,"SYN118AAXX  28121 76373 32510 10000 10152 20090 38215 40162 5//// 81100 91150 333 10356 20140 30131 56200 58018 70000 81830;",
"76373099999","2012-06-28T15:00:00","4","25.35","-105.75","1967.0","TEPEHUANES DGO., MX","FM-12","99999","V020","999,9,C,0000,1","22000,1,9,N","020000,1,N,1","+0230,1","+0110,1","10187,1",,,,,,"01,1,+05100,1,00,1",,"01,99,1,00,1,00,1,99999,9,00,1,04,1",,"01,9",,,,"99999,9,08234,1","2,1,019,1,+029,1",,,"SYN100AAXX  28151 76373 32970 10000 10230 20110 38234 40187 52019 80004 91450 333 30/// 56004 58029 81067;",
"76373099999","2012-06-28T18:00:00","4","25.35","-105.75","1967.0","TEPEHUANES DGO., MX","FM-12","99999","V020","999,9,C,0000,1","22000,1,9,N","030000,1,N,1","+0306,1","+9999,9","10191,1",,,,,,"01,1,+00750,1,08,1",,"01,99,1,01,1,01,1,00800,1,00,1,00,1",,"01,9",,"120,M,+0320,1","240,N,+0140,1","99999,9,08238,1","2,1,004,1,+038,1",,,"SYN106AAXX  28181 76373 32580 10000 10306 38238 40191 52004 81100 91745 333 10320 20140 30/// 56900 58038 81825;",
"76373099999","2012-06-28T21:00:00","4","25.35","-105.75","1967.0","TEPEHUANES DGO., MX","FM-12","99999","V020","160,1,N,0010,1","22000,1,9,N","030000,1,N,1","+0328,1","+0023,1","10156,1",,,,,,"02,1,+00750,1,08,1",,"02,99,1,02,1,02,1,00800,1,00,1,00,1",,"01,9",,,,"99999,9,08210,1","7,1,028,1,+020,1",,,"SYN100AAXX  28211 76373 32580 21601 10328 20023 38210 40156 57028 82200 92050 333 30/// 56900 58020 82825;",
"76373099999","2012-06-29T00:00:00","4","25.35","-105.75","1967.0","TEPEHUANES DGO., MX","FM-12","99999","V020","110,1,N,0010,1","22000,1,9,N","030000,1,N,1","+0342,1","+0023,1","10153,1","24,0000,9,1",,,,,,,"03,99,1,03,1,03,1,00800,1,00,1,00,1",,"01,9",,"120,M,+0365,1","180,N,+0140,1","99999,9,08207,1","7,1,003,1,+031,1",,,"SYN124AAXX  29001 76373 32580 31101 10342 20023 38207 40153 57003 83300 92350 333 10365 20140 30/// 50106 56900 58031 70000 83825;",
"76373099999","2012-06-29T06:00:00","4","25.35","-105.75","1967.0","TEPEHUANES DGO., MX","FM-12","99999","V020","999,9,C,0000,1","22000,1,9,N","001000,1,N,1","+0218,1","+0136,1","10195,1",,,,,,"00,1,+99999,9,99,9",,"00,99,1,00,1,00,1,99999,9,00,1,00,1","0630,9","01,9",,"240,M,+0365,1","240,N,+0140,1","99999,9,08241,1",,,,"SYN106AAXX  29061 76373 32910 00000 10218 20136 38241 40195 5//// 90550 333 10365 20140 30/// 55105 21524 58028;",
"76373099999","2012-06-29T12:00:00","4","25.35","-105.75","1967.0","TEPEHUANES DGO., MX","FM-12","99999","V020","999,9,C,0000,1","22000,1,9,N","001000,1,N,1","+0151,1","+0109,1","10188,1","24,0000,9,1",,,,,"00,1,+99999,9,99,9",,"00,99,1,00,1,00,1,99999,9,00,1,00,1",,"01,9",,"120,N,+0141,1","240,M,+0365,1","99999,9,08236,1","9,9,999,9,+021,1",,,"SYN100AAXX  29121 76373 32910 00000 10151 20109 38236 40188 5//// 91150 333 10365 20141 30130 58021 70000;","Q01  00002PRCP24"
"76373099999","2012-06-29T15:00:00","4","25.35","-105.75","1967.0","TEPEHUANES DGO., MX","FM-12","99999","V020","999,9,C,0000,1","22000,1,9,N","020000,1,N,1","+0219,1","+0126,1","10192,1",,,,,,"00,1,+99999,9,99,9",,"00,99,1,00,1,00,1,99999,9,00,1,00,1",,"01,9",,,,"99999,9,08238,1","2,1,002,1,+004,1",,,"SYN082AAXX  29151 76373 32970 00000 10219 20126 38238 40192 52002 91450 333 30/// 58004;",
"76373099999","2012-06-29T21:00:00","4","25.35","-105.75","1967.0","TEPEHUANES DGO., MX","FM-12","99999","V020","160,1,N,0010,1","22000,1,9,N","030000,1,N,1","+0359,1","+0021,1","10163,1",,,,,,"02,1,+00750,1,08,1",,"02,99,1,02,1,02,1,00800,1,00,1,00,1",,"01,9",,,,"99999,9,08214,1","2,1,004,1,+004,1",,,"SYN100AAXX  29211 76373 32580 21601 10359 20021 38214 40163 52004 82200 92050 333 30/// 56900 58004 82825;",
"76373099999","2012-06-30T00:00:00","4","25.35","-105.75","1967.0","TEPEHUANES DGO., MX","FM-12","99999","V020","999,9,9,9999,9","22000,1,9,N","030000,1,N,1","+0348,1","-0004,1","10119,1","24,0000,9,1",,,,,,,"01,99,1,99,9,03,1,00800,1,00,1,00,1",,"01,9",,"120,M,+0372,1","180,N,+0141,1","99999,9,08180,1","7,1,034,1,-027,1",,,"SYN118AAXX  30001 76373 32580 10348 21004 38180 40119 57034 83300 92350 333 10372 20141 30/// 50981 56900 59027 70000 83825;","Q01+004803WOSPD "
"76373099999","2012-06-30T06:00:00","4","25.35","-105.75","1967.0","TEPEHUANES DGO., MX","FM-12","99999","V020","999,9,C,0000,1","22000,1,9,N","001000,1,N,1","+0217,1","+0125,1","10152,1",,,,,,,,"01,99,1,01,1,01,1,00800,1,00,1,00,1","0636,9","01,9",,"240,M,+0372,1","240,N,+0141,1","99999,9,08206,1","2,1,007,1,-035,1",,,"SYN124AAXX  30061 76373 32510 10000 10217 20125 38206 40152 52007 81100 90550 333 10372 20141 30/// 55106 21425 56900 59035 81825;",
"76373099999","2012-06-30T12:00:00","4","25.35","-105.75","1967.0","TEPEHUANES DGO., MX","FM-12","99999","V020","999,9,C,0000,1","22000,1,9,N","001000,1,N,1","+0156,1","+0110,1","10145,1","24,0000,9,1",,,,,"00,1,+99999,9,99,9",,"00,99,1,00,1,00,1,99999,9,00,1,00,1",,"01,9",,"120,N,+0145,1","240,M,+0372,1","99999,9,08201,1","9,9,999,9,-025,1",,,"SYN100AAXX  30121 76373 32910 00000 10156 20110 38201 40145 5//// 91150 333 10372 20145 30140 59025 70000;","Q01  00002PRCP24"
"76373099999","2012-06-30T15:00:00","4","25.35","-105.75","1967.0","TEPEHUANES DGO., MX","FM-12","99999","V020","999,9,C,0000,1","22000,1,9,N","020000,1,N,1","+0213,1","+0116,1","10147,1",,,,,,"00,1,+99999,9,99,9",,"00,99,1,00,1,00,1,99999,9,00,1,00,1",,"01,9",,,,"99999,9,08202,1","2,1,007,1,-030,1",,,"SYN082AAXX  30151 76373 32970 00000 10213 20116 38202 40147 52007 91450 333 30/// 59030;",
"76373099999","2012-06-30T18:00:00","4","25.35","-105.75","1967.0","TEPEHUANES DGO., MX","FM-12","99999","V020","999,9,C,0000,1","22000,1,9,N","030000,1,N,1","+0293,1","+0062,1","10130,1",,,,,,"03,1,+00750,1,08,1",,"03,99,1,03,1,03,1,00800,1,00,1,00,1",,"01,9",,"120,M,+0330,1","240,N,+0145,1","99999,9,08199,1","7,1,019,1,-021,1",,,"SYN112AAXX  30181 76373 32580 30000 10293 20062 38199 40130 57019 83300 91750 333 10330 20145 30/// 56900 59021 83825;",
"76373099999","2012-06-30T21:00:00","4","25.35","-105.75","1967.0","TEPEHUANES DGO., MX","FM-12","99999","V020","140,1,N,0010,1","22000,1,9,N","030000,1,N,1","+0334,1","+0017,1","10117,1",,,,,,"02,1,+00750,1,08,1",,"02,99,1,02,1,02,1,00800,1,00,1,00,1",,"01,9",,,,"99999,9,08178,1","7,1,011,1,-036,1",,,"SYN100AAXX  30211 76373 32580 21401 10334 20017 38178 40117 57011 82200 92050 333 30/// 56900 59036 82825;",
"76373099999","2012-07-01T00:00:00","4","25.35","-105.75","1967.0","TEPEHUANES DGO., MX","FM-12","99999","V020","290,1,N,0010,1","00750,1,9,N","020000,1,N,1","+0234,1","+9999,9","10091,1","03,0030,9,2","24,0028,9,2",,,,,,"07,99,1,07,1,07,1,00800,1,00,1,00,1",,"09,9",,"120,M,+0370,1","180,N,+0145,1","99999,9,08157,1","7,1,021,1,-023,1",,,"SYN130AAXX  01001 76373 12570 72901 10234 20136 38157 40091 57021 60037 87700 92350 333 10370 20145 31/// 50581 56900 59023 70028 87627;","Q01+001363ATOD  "
"76373099999","2012-07-01T12:00:00","4","25.35","-105.75","1967.0","TEPEHUANES DGO., MX","FM-12","99999","V020","999,9,C,0000,1","22000,1,9,N","005000,1,N,1","+0129,1","+0119,1","10120,1","24,0058,9,1",,,,,,,"03,99,1,03,1,03,1,00800,1,00,1,00,1","0510,9","01,9",,"120,N,+0120,1","240,M,+0370,1","99999,9,08180,1","9,9,999,9,-021,1",,,"SYN130AAXX  01121 76373 32550 30000 10129 20119 38180 40120 5//// 83300 91150 333 10370 20120 30/// 55085 21433 56900 59021 70058 83827;",
"76373099999","2012-07-01T15:00:00","4","25.35","-105.75","1967.0","TEPEHUANES DGO., MX","FM-12","99999","V020","999,9,C,0000,1","22000,1,9,N","020000,1,N,1","+0199,1","+0128,1","10135,1",,,,,,,,"02,99,1,02,1,02,1,00800,1,00,1,00,1",,"01,9",,,,"99999,9,08193,1","2,1,013,1,-015,1",,,"SYN088AAXX  01151 76373 32570 20000 10199 20128 38193 40135 52013 82200 91450 333 30/// 59015;",
"76373099999","2012-07-01T18:00:00","4","25.35","-105.75","1967.0","TEPEHUANES DGO., MX","FM-12","99999","V020","999,9,C,0000,1","22000,1,9,N","020000,1,N,1","+0255,1","+0107,1","10119,1",,,,,,"03,1,+00810,1,08,1",,"03,99,1,03,1,03,1,00800,1,00,1,00,1",,"01,9",,"120,M,+0260,1","240,N,+0120,1","99999,9,08180,1","2,1,013,1,-009,1",,,"SYN112AAXX  01181 76373 32570 30000 10255 20107 38180 40119 52013 83300 91750 333 10260 20120 30/// 56900 59009 83827;",
"76373099999","2012-07-01T21:00:00","4","25.35","-105.75","1967.0","TEPEHUANES DGO., MX","FM-12","99999","V020","290,1,N,0010,1","00810,1,9,N","020000,1,N,1","+0231,1","+0125,1","10112,1","03,0060,9,1",,,,,"07,1,+00810,1,06,1",,"07,99,1,07,1,07,1,00800,1,00,1,00,1",,"01,9",,,,"99999,9,08174,1","7,1,006,1,-004,1",,,"SYN106AAXX  01211 76373 22570 72901 10231 20125 38174 40112 57006 87700 92050 333 30/// 56900 59004 60067 87627;",
"76373099999","2012-07-02T00:00:00","4","25.35","-105.75","1967.0","TEPEHUANES DGO., MX","FM-12","99999","V020","999,9,C,0000,1","00750,1,9,N","020000,1,N,1","+0224,1","+0136,1","10142,1","03,0010,9,1","24,0058,9,1",,,,,,"07,99,1,07,1,07,1,00800,1,00,1,00,1",,"01,9",,"120,M,+0280,1","180,N,+0120,1","99999,9,08198,1","2,1,024,1,+031,1",,,"SYN130AAXX  02001 76373 12570 70000 10224 20136 38198 40142 52024 60017 87700 92350 333 10280 20120 30/// 50641 56900 58031 70058 87627;",
"76373099999","2012-07-02T03:00:00","4","25.35","-105.75","1967.0","TEPEHUANES DGO., MX","FM-12","99999","V020","999,9,C,0000,1","22000,1,9,N","005000,1,N,1","+0175,1","+0135,1","10137,1",,,,,,"03,1,+00810,1,08,1",,"03,99,1,03,1,03,1,00800,1,00,1,00,1",,"01,9",,,,"99999,9,08194,1","7,1,004,1,-002,1",,,"SYN100AAXX  02031 76373 32550 30000 10175 20135 38194 40137 57004 83300 90250 333 30/// 56900 59002 83827;",
"76373099999","2012-07-02T12:00:00","4","25.35","-105.75","1967.0","TEPEHUANES DGO., MX","FM-12","99999","V020","999,9,C,0000,1","22000,1,9,N","005000,1,N,1","+0132,1","+0125,1","10142,1","24,0058,9,1",,,,,,,"01,99,1,01,1,03,1,00800,1,00,1,00,1","0294,9","01,9",,"120,N,+0121,1","240,M,+0280,1","99999,9,08198,1","9,9,999,9,+015,1",,,"SYN130AAXX  02121 76373 32550 10000 10132 20125 38198 40142 5//// 81300 91150 333 10280 20121 30111 55049 20886 56900 58015 70058 81827;",
"76373099999","2012-07-02T15:00:00","4","25.35","-105.75","1967.0","TEPEHUANES DGO., MX","FM-12","99999","V020","999,9,C,0000,1","22000,1,9,N","020000,1,N,1","+0185,1","+0129,1","10152,1",,,,,,"02,1,+00810,1,08,1",,"02,99,1,02,1,03,1,00800,1,00,1,00,1",,"01,9",,,,"99999,9,08206,1","2,1,011,1,+013,1",,,"SYN100AAXX  02151 76373 32570 20000 10185 20129 38206 40152 52011 82300 91450 333 30/// 56900 58013 82827;",
"76373099999","2012-07-02T18:00:00","4","25.35","-105.75","1967.0","TEPEHUANES DGO., MX","FM-12","99999","V020","999,9,C,0000,1","00750,1,9,N","020000,1,N,1","+0255,1","+0130,1","10145,1",,,,,,"05,1,+00750,1,06,1",,"05,99,1,05,1,05,1,00800,1,00,1,00,1",,"01,9",,"120,M,+0262,1","240,N,+0121,1","99999,9,08201,1","7,1,005,1,+021,1",,,"SYN112AAXX  02181 76373 32570 50000 10255 20130 38201 40145 57005 85500 91750 333 10262 20121 30/// 56900 58021 85625;",
"76373099999","2012-07-02T21:00:00","4","25.35","-105.75","1967.0","TEPEHUANES DGO., MX","FM-12","99999","V020","290,1,N,0010,1","00690,1,9,N","020000,1,N,1","+0273,1","+0088,1","10129,1",,,,,,"06,1,+00690,1,07,1",,"06,99,1,06,1,07,1,00800,1,00,1,00,1",,"01,9",,,,"99999,9,08188,1","7,1,013,1,+014,1",,,"SYN100AAXX  02211 76373 32570 62901 10273 20088 38188 40129 57013 86700 92050 333 30/// 56900 58014 86723;",
"76373099999","2012-07-03T00:00:00","4","25.35","-105.75","1967.0","TEPEHUANES DGO., MX","FM-12","99999","V020","250,1,N,0010,1","00750,1,9,N","020000,1,N,1","+0245,1","+0121,1","10119,1","24,0000,9,1",,,,,,,"08,99,1,08,1,07,1,00800,1,00,1,00,1",,"01,9",,"120,M,+0304,1","180,N,+0121,1","99999,9,08180,1","5,1,008,1,-018,1",,,"SYN124AAXX  03001 76373 32570 82501 10245 20121 38180 40119 55008 88700 92350 333 10304 20121 30/// 50501 56900 59018 70000 88723;",
"76373099999","2012-07-03T03:00:00","4","25.35","-105.75","1967.0","TEPEHUANES DGO., MX","FM-12","99999","V020","999,9,C,0000,1","00690,1,9,N","000400,1,N,1","+0180,1","+0145,1","10149,1","03,0008,9,1",,,"5,1,03,1","2,1,03,1","07,1,+00690,1,07,1",,"07,99,1,07,1,07,1,00800,1,00,1,00,1",,"09,9",,,,"99999,9,08204,1","2,1,024,1,+010,1",,"01,1","SYN112AAXX  03031 76373 21504 70000 10180 20145 38204 40149 52024 70152 87700 90250 333 31/// 56900 58010 69987 87723;",
"76373099999","2012-07-03T06:00:00","4","25.35","-105.75","1967.0","TEPEHUANES DGO., MX","FM-12","99999","V020","999,9,C,0000,1","00750,1,9,N","000400,1,N,1","+0170,1","+0136,1","10163,1",,,,,,,,"08,99,1,08,1,07,1,00800,1,00,1,00,1","0342,9","01,9",,"240,M,+0304,1","240,N,+0121,1","99999,9,08216,1","2,1,012,1,+015,1",,,"SYN124AAXX  03061 76373 32504 80000 10170 20136 38216 40163 52012 88700 90545 333 10304 20121 30/// 55057 21256 56900 58015 88723;",
"76373099999","2012-07-03T12:00:00","4","25.35","-105.75","1967.0","TEPEHUANES DGO., MX","FM-12","99999","V020","999,9,C,0000,1","22000,1,9,N","001000,1,N,1","+0153,1","+0139,1","10156,1","24,0008,9,1",,,,,"01,1,+00750,1,06,1",,"01,99,1,01,1,04,1,00800,1,00,1,00,1",,"01,9",,"120,N,+0142,1","240,M,+0304,1","99999,9,08209,1","9,9,999,9,+014,1",,,"SYN118AAXX  03121 76373 32510 10000 10153 20139 38209 40156 5//// 81400 91150 333 10304 20142 30130 56900 58014 70008 81625;",
"76373099999","2012-07-03T15:00:00","4","25.35","-105.75","1967.0","TEPEHUANES DGO., MX","FM-12","99999","V020","999,9,C,0000,1","22000,1,9,N","020000,1,N,1","+0200,1","+0142,1","10164,1",,,,,,"01,1,+00750,1,08,1",,"01,99,1,01,1,02,1,00800,1,00,1,00,1",,"01,9",,,,"99999,9,08216,1","2,1,007,1,+010,1",,,"SYN100AAXX  03151 76373 32570 10000 10200 20142 38216 40164 52007 81200 91450 333 30/// 56900 58010 81825;",
"76373099999","2012-07-03T18:00:00","4","25.35","-105.75","1967.0","TEPEHUANES DGO., MX","FM-12","99999","V020","999,9,C,0000,1","22000,1,9,N","020000,1,N,1","+0273,1","+0120,1","10149,1",,,,,,"02,1,+00690,1,06,1",,"03,99,1,03,1,04,1,00800,1,00,1,00,1",,"01,9",,"120,M,+0280,1","240,N,+0142,1","99999,9,08204,1","7,1,012,1,+003,1",,,"SYN118AAXX  03181 76373 32570 30000 10273 20120 38204 40149 57012 83400 91750 333 10280 20142 30/// 56900 58003 82623 81825;",
"76373099999","2012-07-03T21:00:00","4","25.35","-105.75","1967.0","TEPEHUANES DGO., MX","FM-12","99999","V020","320,1,N,0020,1","00750,1,C,N","020000,1,N,1","+0277,1","+0117,1","10119,1",,,,,,"02,1,+00690,1,07,1",,"07,99,1,07,1,04,1,00800,1,00,1,00,1",,"01,9",,,,"99999,9,08180,1","7,1,024,1,-008,1",,,"SYN106AAXX  03211 76373 32570 73202 10277 20117 38180 40119 57024 87400 92050 333 30/// 56900 59008 82723 85624;",
"76373099999","2012-07-04T00:00:00","4","25.35","-105.75","1967.0","TEPEHUANES DGO., MX","FM-12","99999","V020","999,9,C,0000,1","99999,9,9,N","024000,1,N,1","+0182,1","+0127,1","10141,1","06,0000,9,1",,,"5,1,06,1","2,1,06,1",,,"08,99,1,99,9,99,9,00800,1,99,9,99,9",,,,,,"99999,9,08197,1","2,1,017,1,+999,9",,"15,1","SYN072AAXX  04001 76373 01574 80000 10182 20127 38197 40141 52017 60001 71552;","Q01  00002PRCP06"
"76373099999","2012-07-04T03:00:00","4","25.35","-105.75","1967.0","TEPEHUANES DGO., MX","FM-12","99999","V020","999,9,C,0000,1","00690,1,9,N","000600,1,N,1","+0167,1","+0149,1","10159,1",,,,,,"08,1,+00690,1,07,1",,"08,99,1,08,1,07,1,00800,1,00,1,00,1",,"01,9",,,,"99999,9,08212,1","2,1,015,1,+008,1",,,"SYN100AAXX  04031 76373 32506 80000 10167 20149 38212 40159 52015 88700 90250 333 30/// 56900 58008 88723;",
"76373099999","2012-07-04T06:00:00","4","25.35","-105.75","1967.0","TEPEHUANES DGO., MX","FM-12","99999","V020","999,9,C,0000,1","00750,1,9,N","000400,1,N,1","+0164,1","+0144,1","10165,1",,,,,,,,"08,99,1,08,1,07,1,00800,1,00,1,00,1","0342,9","01,9",,"240,M,+0304,1","240,N,+0121,1","99999,9,08217,1","2,1,005,1,+001,1",,,"SYN124AAXX  04061 76373 32504 80000 10164 20144 38217 40165 52005 88700 90550 333 10304 20121 30/// 55057 2//// 56900 58001 88723;",
"76373099999","2012-07-04T12:00:00","4","25.35","-105.75","1967.0","TEPEHUANES DGO., MX","FM-12","99999","V020","999,9,C,0000,1","00690,1,9,N","001000,1,N,1","+0149,1","+0137,1","10156,1","24,0030,9,1",,,,,"07,1,+00690,1,07,1",,"07,99,1,07,1,07,1,00800,1,00,1,00,1",,"01,9",,"120,N,+0134,1","240,M,+0304,1","99999,9,08209,1","9,9,999,9,+000,1",,,"SYN118AAXX  04121 76373 32510 70000 10149 20137 38209 40156 5//// 87700 91150 333 10304 20134 30127 56900 58000 70030 87723;",
"76373099999","2012-07-04T15:00:00","4","25.35","-105.75","1967.0","TEPEHUANES DGO., MX","FM-12","99999","V020","999,9,C,0000,1","00690,1,9,N","020000,1,N,1","+0179,1","+0129,1","10180,1",,,,,,"06,1,+00690,1,07,1",,"07,99,1,07,1,07,1,00800,1,00,1,00,1",,"01,9",,,,"99999,9,08229,1","2,1,020,1,+013,1",,,"SYN106AAXX  04151 76373 32570 70000 10179 20129 38229 40180 52020 87700 91450 333 30/// 56900 58013 86723 81624;",
"76373099999","2012-07-04T18:00:00","4","25.35","-105.75","1967.0","TEPEHUANES DGO., MX","FM-12","99999","V020","999,9,C,0000,1","00690,1,9,N","030000,1,N,1","+0234,1","+0117,1","10175,1",,,,,,"06,1,+00690,1,07,1",,"07,99,1,07,1,07,1,00800,1,00,1,00,1",,"01,9",,"120,M,+0242,1","240,N,+0138,1","99999,9,08225,1","7,1,004,1,+021,1",,,"SYN118AAXX  04181 76373 32580 70000 10234 20117 38225 40175 57004 87700 91750 333 10242 20138 30/// 56900 58021 86723 81624;",
"76373099999","2012-07-04T21:00:00","4","25.35","-105.75","1967.0","TEPEHUANES DGO., MX","FM-12","99999","V020","160,1,N,0010,1","00690,1,9,N","030000,1,N,1","+0262,1","+0100,1","10143,1",,,,,,"05,1,+00690,1,07,1",,"06,99,1,06,1,06,1,00800,1,00,1,00,1",,"01,9",,,,"99999,9,08199,1","7,1,026,1,+019,1",,,"SYN106AAXX  04211 76373 32580 61601 10262 20100 38199 40143 57026 86600 92050 333 30/// 56900 58019 85723 81624;",
"76373099999","2012-07-05T00:00:00","4","25.35","-105.75","1967.0","TEPEHUANES DGO., MX","FM-12","99999","V020","999,9,C,0000,1","00750,1,9,N","030000,1,N,1","+0215,1","+0123,1","10150,1","24,0015,9,1",,,,,,,"06,99,1,06,1,06,1,00800,1,00,1,00,1",,"01,9",,"120,M,+0298,1","180,N,+0138,1","99999,9,08205,1","7,1,026,1,-002,1",,,"SYN124AAXX  05001 76373 32580 60000 10215 20123 38205 40150 57026 86600 92350 333 10298 20138 30/// 50491 56900 59002 70015 86825;",
"76373099999","2012-07-05T03:00:00","4","25.35","-105.75","1967.0","TEPEHUANES DGO., MX","FM-12","99999","V020","999,9,C,0000,1","22000,1,9,N","001000,1,N,1","+0190,1","+0128,1","10172,1",,,,,,"04,1,+00750,1,08,1",,"04,99,1,04,1,04,1,00800,1,00,1,00,1",,"01,9",,,,"99999,9,08222,1","2,1,017,1,+010,1",,,"SYN100AAXX  05031 76373 32510 40000 10190 20128 38222 40172 52017 84400 90255 333 30/// 56900 58010 84825;",
"76373099999","2012-07-05T06:00:00","4","25.35","-105.75","1967.0","TEPEHUANES DGO., MX","FM-12","99999","V020","999,9,C,0000,1","22000,1,9,N","030000,1,N,1","+0172,1","+0135,1","10183,1",,,,,,,,"04,99,1,04,1,04,1,00800,1,00,1,00,1","0192,9","01,9",,"240,M,+0298,1","240,N,+0138,1","99999,9,08231,1","2,1,009,1,+014,1",,,"SYN124AAXX  05061 76373 32580 40000 10172 20135 38231 40183 52009 84400 90550 333 10298 20138 30/// 55032 20875 56900 58014 84826;",
"76373099999","2012-07-05T12:00:00","4","25.35","-105.75","1967.0","TEPEHUANES DGO., MX","FM-12","99999","V020","999,9,C,0000,1","22000,1,9,N","001000,1,N,1","+0154,1","+0133,1","10167,1","24,0006,9,1",,,,,"04,1,+00750,1,08,1",,"04,99,1,04,1,04,1,00800,1,00,1,00,1",,"01,9",,"120,N,+0143,1","240,M,+0298,1","99999,9,08218,1","9,9,999,9,+009,1",,,"SYN118AAXX  05121 76373 32510 40000 10154 20133 38218 40167 5//// 84400 91150 333 10298 20143 30135 56900 58009 70006 84825;",
"76373099999","2012-07-05T15:00:00","4","25.35","-105.75","1967.0","TEPEHUANES DGO., MX","FM-12","99999","V020","999,9,C,0000,1","00750,1,9,N","020000,1,N,1","+0174,1","+0137,1","10181,1",,,,,,"05,1,+00750,1,08,1",,"05,99,1,05,1,05,1,00800,1,00,1,00,1",,"01,9",,,,"99999,9,08230,1","2,1,023,1,+001,1",,,"SYN100AAXX  05151 76373 32570 50000 10174 20137 38230 40181 52023 85500 91455 333 30/// 56900 58001 85825;",
"76373099999","2012-07-05T18:00:00","4","25.35","-105.75","1967.0","TEPEHUANES DGO., MX","FM-12","99999","V020","999,9,C,0000,1","22000,1,9,N","030000,1,N,1","+0271,1","+0117,1","10170,1",,,,,,"03,1,+00750,1,08,1",,"03,99,1,03,1,03,1,00800,1,00,1,00,1",,"01,9",,"120,M,+0280,1","240,N,+0143,1","99999,9,08221,1","2,1,009,1,-004,1",,,"SYN112AAXX  05181 76373 32580 30000 10271 20117 38221 40170 52009 83300 91750 333 10280 20143 30/// 56900 59004 83825;",
"76373099999","2012-07-05T21:00:00","4","25.35","-105.75","1967.0","TEPEHUANES DGO., MX","FM-12","99999","V020","290,1,N,0020,1","00600,1,9,N","030000,1,N,1","+0246,1","+0127,1","10139,1",,,,,,"08,1,+00600,1,07,1",,"08,99,1,08,1,08,1,00800,1,00,1,00,1",,"01,9",,,,"99999,9,08196,1","7,1,025,1,-009,1",,,"SYN100AAXX  05211 76373 32580 82902 10246 20127 38196 40139 57025 88800 92050 333 30/// 56900 59009 88720;",
"76373099999","2012-07-08T00:00:00","4","25.35","-105.75","1967.0","TEPEHUANES DGO., MX","FM-12","99999","V020","130,1,N,0020,1","00750,1,9,N","020000,1,N,1","+0265,1","+0178,1","10139,1","24,0045,9,1",,,,,,,"07,99,1,07,1,07,1,00800,1,00,1,00,1",,"01,9",,"120,M,+0308,1","180,N,+0128,1","99999,9,08196,1","7,1,020,1,-004,1",,,"SYN124AAXX  08001 76373 32570 71302 10265 20178 38196 40139 57020 87700 92350 333 10308 20128 30/// 50251 56900 59004 70045 87627;",
"76373099999","2012-07-08T03:00:00","4","25.35","-105.75","1967.0","TEPEHUANES DGO., MX","FM-12","99999","V020","330,1,N,0010,1","00810,1,9,N","005000,1,N,1","+0161,1","+0139,1","10178,1","03,0090,9,1",,,,,"08,1,+00810,1,07,1",,"08,99,1,08,1,07,1,00800,1,00,1,00,1",,"09,9",,,,"99999,9,08228,1","2,1,032,1,+017,1",,,"SYN106AAXX  08031 76373 22550 83301 10161 20139 38228 40178 52032 88700 90250 333 31/// 56900 58017 60097 88727;",
"76373099999","2012-07-08T12:00:00","4","25.35","-105.75","1967.0","TEPEHUANES DGO., MX","FM-12","99999","V020","999,9,C,0000,1","22000,1,9,N","005000,1,N,1","+0121,1","+0114,1","10178,1","24,0092,9,1",,,,,,,"01,99,1,01,1,03,1,00800,1,00,1,00,1","0474,9","01,9",,"120,N,+0110,1","240,M,+0308,1","99999,9,08228,1","9,9,999,9,+005,1",,,"SYN130AAXX  08121 76373 32550 10000 10121 20114 38228 40178 5//// 81300 91150 333 10308 20110 30100 55079 21804 56900 58005 70092 81827;",
"76373099999","2012-07-08T15:00:00","4","25.35","-105.75","1967.0","TEPEHUANES DGO., MX","FM-12","99999","V020","999,9,C,0000,1","22000,1,9,N","020000,1,N,1","+0174,1","+0121,1","10187,1",,,,,,"00,1,+99999,9,99,9",,"00,99,1,00,1,00,1,99999,9,00,1,00,1",,"01,9",,,,"99999,9,08234,1","2,1,006,1,+009,1",,,"SYN082AAXX  08151 76373 32970 00000 10174 20121 38234 40187 52006 91450 333 30/// 58009;",
"76373099999","2012-07-08T18:00:00","4","25.35","-105.75","1967.0","TEPEHUANES DGO., MX","FM-12","99999","V020","999,9,C,0000,1","22000,1,9,N","020000,1,N,1","+0263,1","+0134,1","10171,1",,,,,,"02,1,+00810,1,08,1",,"02,99,1,02,1,02,1,00800,1,00,1,00,1",,"01,9",,"120,M,+0270,1","240,N,+0110,1","99999,9,08221,1","7,1,013,1,-006,1",,,"SYN112AAXX  08181 76373 32570 20000 10263 20134 38221 40171 57013 82200 91750 333 10270 20110 30/// 56900 59006 82827;",
"76373099999","2012-07-09T00:00:00","4","25.35","-105.75","1967.0","TEPEHUANES DGO., MX","FM-12","99999","V020","330,1,N,0010,1","00750,1,9,N","020000,1,N,1","+0241,1","+0115,1","10136,1","24,0092,9,1",,,,,,,"07,99,1,07,1,07,1,00800,1,00,1,00,1",,"01,9",,"120,M,+0310,1","180,N,+0110,1","99999,9,08194,1","7,1,016,1,-002,1",,,"SYN124AAXX  09001 76373 32570 73301 10241 20115 38194 40136 57016 87700 92350 333 10310 20110 30/// 50731 56900 59002 70092 87627;",
"76373099999","2012-07-09T03:00:00","4","25.35","-105.75","1967.0","TEPEHUANES DGO., MX","FM-12","99999","V020","999,9,C,0000,1","22000,1,9,N","005000,1,N,1","+0219,1","+0098,1","10146,1",,,,,,"00,1,+99999,9,99,9",,"00,99,1,00,1,00,1,99999,9,00,1,00,1",,"01,9",,,,"99999,9,08202,1","2,1,008,1,-026,1",,,"SYN082AAXX  09031 76373 32950 00000 10219 20098 38202 40146 52008 90250 333 30/// 59026;",
"76373099999","2012-07-09T12:00:00","4","25.35","-105.75","1967.0","TEPEHUANES DGO., MX","FM-12","99999","V020","999,9,C,0000,1","22000,1,9,N","005000,1,N,1","+0151,1","+0118,1","10162,1",,,,,,"00,1,+99999,9,99,9",,"00,99,1,00,1,00,1,99999,9,00,1,00,1","0516,9","01,9",,"120,N,+0140,1","240,M,+0310,1","99999,9,08214,1","9,9,999,9,-014,1",,,"SYN112AAXX  09121 76373 32950 00000 10151 20118 38214 40162 5//// 91150 333 10310 20140 30130 55086 21433 59014 70000;",
"76373099999","2012-07-09T15:00:00","4","25.35","-105.75","1967.0","TEPEHUANES DGO., MX","FM-12","99999","V020","999,9,C,0000,1","22000,1,9,N","020000,1,N,1","+0211,1","+0112,1","10177,1",,,,,,"00,1,+99999,9,99,9",,"00,99,1,00,1,00,1,99999,9,00,1,00,1",,"01,9",,,,"99999,9,08226,1","2,1,012,1,-008,1",,,"SYN082AAXX  09151 76373 32970 00000 10211 20112 38226 40177 52012 91450 333 30/// 59008;",
"76373099999","2012-07-09T21:00:00","4","25.35","-105.75","1967.0","TEPEHUANES DGO., MX","FM-12","99999","V020","110,1,N,0010,1","22000,1,9,N","030000,1,N,1","+0319,1","+0130,1","10142,1",,,,,,"03,1,+00750,1,08,1",,"03,99,1,03,1,03,1,00800,1,00,1,00,1",,"01,9",,,,"99999,9,08198,1","2,1,011,1,-010,1",,,"SYN100AAXX  09211 76373 32580 31101 10319 20130 38198 40142 52011 83300 92050 333 30/// 56900 59010 83825;",
"76373099999","2012-07-10T00:00:00","4","25.35","-105.75","1967.0","TEPEHUANES DGO., MX","FM-12","99999","V020","320,1,N,0010,1","22000,1,9,N","030000,1,N,1","+0285,1","+0076,1","10128,1","24,0000,9,1",,,,,,,"04,99,1,04,1,04,1,00800,1,00,1,00,1",,"01,9",,"120,M,+0342,1","180,N,+0140,1","99999,9,08187,1","7,1,011,1,-010,1",,,"SYN124AAXX  10001 76373 32580 43201 10285 20076 38187 40128 57011 84400 92350 333 10342 20140 30/// 50711 56900 59010 70000 84825;",
"76373099999","2012-07-10T03:00:00","4","25.35","-105.75","1967.0","TEPEHUANES DGO., MX","FM-12","99999","V020","999,9,C,0000,1","22000,1,9,N","001000,1,N,1","+0243,1","+0088,1","10136,1",,,,,,"02,1,+00750,1,08,1",,"02,99,1,02,1,02,1,00800,1,00,1,00,1",,"01,9",,,,"99999,9,08194,1","2,1,006,1,-008,1",,,"SYN100AAXX  10031 76373 32510 20000 10243 20088 38194 40136 52006 82200 90250 333 30/// 56900 59008 82825;",
"76373099999","2012-07-10T06:00:00","4","25.35","-105.75","1967.0","TEPEHUANES DGO., MX","FM-12","99999","V020","999,9,C,0000,1","22000,1,9,N","001000,1,N,1","+0223,1","+0101,1","10154,1",,,,,,,,"02,99,1,02,1,02,1,00800,1,00,1,00,1","0540,9","01,9",,"240,M,+0340,1","240,N,+0140,1","99999,9,08208,1","2,1,014,1,-016,1",,,"SYN124AAXX  10061 76373 32510 20000 10223 20101 38208 40154 52014 82200 90550 333 10340 20140 30/// 55090 21345 56900 59016 82825;",
"76373099999","2012-07-10T12:00:00","4","25.35","-105.75","1967.0","TEPEHUANES DGO., MX","FM-12","99999","V020","999,9,C,0000,1","22000,1,9,N","001000,1,N,1","+0162,1","+0115,1","10170,1","24,0000,9,1",,,,,"00,1,+99999,9,99,9",,"00,99,1,00,1,00,1,99999,9,00,1,00,1",,"01,9",,"120,N,+0155,1","240,M,+0342,1","99999,9,08221,1","9,9,999,9,+007,1",,,"SYN100AAXX  10121 76373 32910 00000 10162 20115 38221 40170 5//// 91150 333 10342 20155 30145 58007 70000;","Q01  00002PRCP24"
"76373099999","2012-07-10T15:00:00","4","25.35","-105.75","1967.0","TEPEHUANES DGO., MX","FM-12","99999","V020","999,9,C,0000,1","22000,1,9,N","020000,1,N,1","+0217,1","+0123,1","10163,1",,,,,,"00,1,+99999,9,99,9",,"00,99,1,00,1,00,1,99999,9,00,1,00,1",,"01,9",,,,"99999,9,08215,1","7,1,006,1,-011,1",,,"SYN082AAXX  10151 76373 32970 00000 10217 20123 38215 40163 57006 91450 333 30/// 59011;",
"76373099999","2012-07-10T18:00:00","4","25.35","-105.75","1967.0","TEPEHUANES DGO., MX","FM-12","99999","V020","999,9,C,0000,1","22000,1,9,N","030000,1,N,1","+0301,1","+0106,1","10155,1",,,,,,"02,1,+00600,1,07,1",,"02,99,1,02,1,02,1,00800,1,00,1,00,1",,"01,9",,"120,M,+0310,1","240,N,+0155,1","99999,9,08209,1","7,1,006,1,+012,1",,,"SYN112AAXX  10181 76373 32580 20000 10301 20106 38209 40155 57006 82200 91750 333 10310 20155 30/// 56900 58012 82720;",
"76373099999","2012-07-11T00:00:00","4","25.35","-105.75","1967.0","TEPEHUANES DGO., MX","FM-12","99999","V020","290,1,N,0030,1","00750,1,9,N","030000,1,N,1","+0203,1","+0138,1","10140,1","24,0000,9,1",,,,,,,"05,99,1,05,1,05,1,00800,1,00,1,00,1",,"01,9",,"120,M,+0330,1","180,N,+0155,1","99999,9,08197,1","2,1,006,1,+009,1",,,"SYN124AAXX  11001 76373 32580 52903 10203 20138 38197 40140 52006 85500 92350 333 10330 20155 30/// 50811 56900 58009 70000 85825;",
"76373099999","2012-07-11T03:00:00","4","25.35","-105.75","1967.0","TEPEHUANES DGO., MX","FM-12","99999","V020","999,9,C,0000,1","22000,1,9,N","001000,1,N,1","+0191,1","+0132,1","10152,1",,,,,,"02,1,+00750,1,08,1",,"02,99,1,02,1,02,1,00800,1,00,1,00,1",,"01,9",,,,"99999,9,08206,1","2,1,008,1,+012,1",,,"SYN100AAXX  11031 76373 32510 20000 10191 20132 38206 40152 52008 82200 90250 333 30/// 56900 58012 82825;",
"76373099999","2012-07-11T15:00:00","4","25.35","-105.75","1967.0","TEPEHUANES DGO., MX","FM-12","99999","V020","999,9,C,0000,1","22000,1,9,N","020000,1,N,1","+0193,1","+0132,1","10167,1",,,,,,"04,1,+00750,1,08,1",,"04,99,1,04,1,04,1,00800,1,00,1,00,1",,"01,9",,,,"99999,9,08218,1","9,9,999,9,+003,1",,,"SYN100AAXX  11151 76373 32570 40000 10193 20132 38218 40167 5//// 84400 91450 333 30/// 56900 58003 84825;",
"76373099999","2012-07-11T18:00:00","4","25.35","-105.75","1967.0","TEPEHUANES DGO., MX","FM-12","99999","V020","999,9,C,0000,1","00750,1,9,N","020000,1,N,1","+0239,1","+0135,1","10157,1",,,,,,"05,1,+00750,1,08,1",,"05,99,1,05,1,05,1,00800,1,00,1,00,1",,"01,9",,"120,M,+0270,1","240,N,+0145,1","99999,9,08210,1","7,1,008,1,-001,1",,,"SYN112AAXX  11181 76373 32570 50000 10239 20135 38210 40157 57008 85500 91745 333 10270 20145 30/// 56900 59001 85825;",
"76373099999","2012-07-11T21:00:00","4","25.35","-105.75","1967.0","TEPEHUANES DGO., MX","FM-12","99999","V020","250,1,N,0010,1","00750,1,9,N","030000,1,N,1","+0202,1","+0157,1","10134,1",,,,,,"07,1,+00750,1,08,1",,"07,99,1,07,1,07,1,00800,1,00,1,00,1",,"01,9",,,,"99999,9,08192,1","7,1,008,1,+011,1",,,"SYN100AAXX  11211 76373 32580 72501 10202 20157 38192 40134 57008 87700 92050 333 30/// 56900 58011 87825;",
"76373099999","2012-07-12T00:00:00","4","25.35","-105.75","1967.0","TEPEHUANES DGO., MX","FM-12","99999","V020","999,9,C,0000,1","00750,1,9,N","030000,1,N,1","+0243,1","+0147,1","10132,1","24,0105,9,1",,,,,,,"06,99,1,06,1,06,1,00800,1,00,1,00,1",,"01,9",,"120,M,+0290,1","180,N,+0145,1","99999,9,08190,1","7,1,002,1,-007,1",,,"SYN124AAXX  12001 76373 32580 60000 10243 20147 38190 40132 57002 86600 92350 333 10290 20145 30/// 50461 56900 59007 70105 86825;",
"76373099999","2012-07-12T03:00:00","4","25.35","-105.75","1967.0","TEPEHUANES DGO., MX","FM-12","99999","V020","999,9,C,0000,1","00750,1,9,N","001000,1,N,1","+0193,1","+0159,1","10157,1",,,,,,"05,1,+00750,1,08,1",,"05,99,1,05,1,05,1,00800,1,00,1,00,1",,"01,9",,,,"99999,9,08210,1","2,1,020,1,-004,1",,,"SYN100AAXX  12031 76373 32510 50000 10193 20159 38210 40157 52020 85500 90255 333 30/// 56900 59004 85825;",
"76373099999","2012-07-12T06:00:00","4","25.35","-105.75","1967.0","TEPEHUANES DGO., MX","FM-12","99999","V020","999,9,C,0000,1","22000,1,9,N","001000,1,N,1","+0169,1","+0144,1","10165,1",,,,,,,,"04,99,1,04,1,04,1,00800,1,00,1,00,1","0222,9","01,9",,"240,M,+0290,1","240,N,+0145,1","99999,9,08217,1","2,1,007,1,-005,1",,,"SYN124AAXX  12061 76373 32510 40000 10169 20144 38217 40165 52007 84400 90550 333 10290 20145 30/// 55037 20934 56900 59005 84825;",
"76373099999","2012-07-12T12:00:00","4","25.35","-105.75","1967.0","TEPEHUANES DGO., MX","FM-12","99999","V020","999,9,C,0000,1","00750,1,9,N","001000,1,N,1","+0151,1","+0146,1","10160,1","24,0121,9,1",,,,,"06,1,+00750,1,08,1",,"06,99,1,06,1,06,1,00800,1,00,1,00,1",,"01,9",,"120,N,+0143,1","240,M,+0290,1","99999,9,08213,1","9,9,999,9,+001,1",,,"SYN118AAXX  12121 76373 32510 60000 10151 20146 38213 40160 5//// 86600 91150 333 10290 20143 30139 56900 58001 70121 86825;",
"76373099999","2012-07-12T21:00:00","4","25.35","-105.75","1967.0","TEPEHUANES DGO., MX","FM-12","99999","V020","140,1,N,0010,1","01200,1,C,N","030000,1,N,1","+0216,1","+0163,1","10139,1",,,,,,"04,1,+00600,1,07,1",,"08,99,1,08,1,08,1,00800,1,00,1,00,1",,"01,9",,,,"99999,9,08196,1","7,1,012,1,+004,1",,,"SYN106AAXX  12211 76373 32580 81401 10216 20163 38196 40139 57012 88800 92050 333 30/// 56900 58004 84720 84625;",
"76373099999","2012-07-13T00:00:00","4","25.35","-105.75","1967.0","TEPEHUANES DGO., MX","FM-12","99999","V020","320,1,N,0010,1","01200,1,9,N","030000,1,N,1","+0212,1","+0160,1","10131,1","24,0015,9,1",,,,,"03,1,+00600,1,07,1",,"08,99,1,08,1,08,1,00800,1,00,1,00,1",,"01,9",,"120,M,+0274,1","180,N,+0143,1","99999,9,08189,1","7,1,007,1,-001,1",,,"SYN130AAXX  13001 76373 32580 83201 10212 20160 38189 40131 57007 88800 92350 333 10274 20143 30/// 50681 56900 59001 70015 83720 85625;",
"76373099999","2012-07-13T03:00:00","4","25.35","-105.75","1967.0","TEPEHUANES DGO., MX","FM-12","99999","V020","250,1,N,0010,1","01200,1,C,N","001000,1,N,1","+0178,1","+0158,1","10163,1",,,,,,"03,1,+00600,1,07,1",,"08,99,1,08,1,08,1,00800,1,00,1,00,1",,"01,9",,,,"99999,9,08216,1","2,1,027,1,+016,1",,,"SYN106AAXX  13031 76373 32510 82501 10178 20158 38216 40163 52027 88800 90250 333 30/// 56900 58016 83720 85625;",
"76373099999","2012-07-13T06:00:00","4","25.35","-105.75","1967.0","TEPEHUANES DGO., MX","FM-12","99999","V020","320,1,N,0010,1","00600,1,C,N","000500,1,N,1","+0160,1","+0145,1","10168,1",,,,,,"05,1,+00600,1,07,1",,"08,99,1,08,1,08,1,00800,1,00,1,00,1","0168,9","01,9",,"240,M,+0274,1","240,N,+0143,1","99999,9,08219,1","1,1,003,1,+002,1",,,"SYN130AAXX  13061 76373 32505 83201 10160 20145 38219 40168 51003 88800 90550 333 10274 20143 30/// 55028 20805 56900 58002 85720 83625;",
"76373099999","2012-07-13T12:00:00","4","25.35","-105.75","1967.0","TEPEHUANES DGO., MX","FM-12","99999","V020","320,1,N,0010,1","00600,1,9,N","001000,1,N,1","+0156,1","+0153,1","10161,1","24,0040,9,1",,,,,"08,1,+00600,1,07,1",,"08,99,1,08,1,08,1,00800,1,00,1,00,1",,"01,9",,"120,N,+0138,1","240,M,+0274,1","99999,9,08214,1","9,9,999,9,+001,1",,,"SYN118AAXX  13121 76373 32510 83201 10156 20153 38214 40161 5//// 88800 91155 333 10274 20138 30126 56900 58001 70040 88720;",
"76373099999","2012-07-13T15:00:00","4","25.35","-105.75","1967.0","TEPEHUANES DGO., MX","FM-12","99999","V020","320,1,N,0010,1","01200,1,C,N","030000,1,N,1","+0174,1","+0143,1","10178,1",,,,,,"03,1,+00600,1,07,1",,"08,99,1,08,1,08,1,00800,1,00,1,00,1",,"01,9",,,,"99999,9,08228,1","2,1,014,1,+000,1",,,"SYN106AAXX  13151 76373 32580 83201 10174 20143 38228 40178 52014 88800 91455 333 30/// 56900 58000 83720 85625;",
"76373099999","2012-07-13T18:00:00","4","25.35","-105.75","1967.0","TEPEHUANES DGO., MX","FM-12","99999","V020","140,1,N,0010,1","00600,1,9,N","020000,1,N,1","+0210,1","+0171,1","10175,1",,,,,,"05,1,+00600,1,07,1",,"08,99,1,08,1,08,1,00800,1,00,1,00,1",,"01,9",,"120,M,+0230,1","240,N,+0138,1","99999,9,08225,1","7,1,003,1,+017,1",,,"SYN118AAXX  13181 76373 32570 81401 10210 20171 38225 40175 57003 88800 91750 333 10230 20138 30/// 56900 58017 85720 83625;",
"76373099999","2012-07-13T21:00:00","4","25.35","-105.75","1967.0","TEPEHUANES DGO., MX","FM-12","99999","V020","140,1,N,0010,1","00750,1,9,N","030000,1,N,1","+0254,1","+0160,1","10152,1",,,,,,"04,1,+00600,1,07,1",,"07,99,1,07,1,07,1,00800,1,00,1,00,1",,"01,9",,,,"99999,9,08206,1","7,1,019,1,+010,1",,,"SYN106AAXX  13211 76373 32580 71401 10254 20160 38206 40152 57019 87700 92055 333 30/// 56900 58010 84720 83725;",
"76373099999","2012-07-14T00:00:00","4","25.35","-105.75","1967.0","TEPEHUANES DGO., MX","FM-12","99999","V020","160,1,N,0010,1","01200,1,9,N","030000,1,N,1","+0234,1","+0145,1","10149,1","24,0040,9,1",,,,,"03,1,+00600,1,07,1",,"08,99,1,08,1,08,1,00800,1,00,1,00,1",,"01,9",,"120,M,+0270,1","180,N,+0138,1","99999,9,08204,1","7,1,002,1,+015,1",,,"SYN130AAXX  14001 76373 32580 81601 10234 20145 38204 40149 57002 88800 92350 333 10270 20138 30/// 50361 56900 58015 70040 83720 85625;",
"76373099999","2012-07-14T03:00:00","4","25.35","-105.75","1967.0","TEPEHUANES DGO., MX","FM-12","99999","V020","320,1,N,0010,1","01200,1,C,N","001000,1,N,1","+0176,1","+0158,1","10167,1",,,,,,"04,1,+00600,1,07,1",,"08,99,1,08,1,08,1,00800,1,00,1,00,1",,"01,9",,,,"99999,9,08218,1","2,1,014,1,+002,1",,,"SYN106AAXX  14031 76373 32510 83201 10176 20158 38218 40167 52014 88800 90255 333 30/// 56900 58002 84720 84625;",
"76373099999","2012-07-14T06:00:00","4","25.35","-105.75","1967.0","TEPEHUANES DGO., MX","FM-12","99999","V020","290,1,N,0010,1","01200,1,9,N","001000,1,N,1","+0170,1","+0155,1","10178,1",,,,,,"03,1,+00600,1,07,1",,"08,99,1,08,1,08,1,00800,1,00,1,00,1","0120,9","01,9",,"240,M,+0270,1","240,N,+0138,1","99999,9,08227,1","2,1,009,1,+008,1",,,"SYN130AAXX  14061 76373 32510 82901 10170 20155 38227 40178 52009 88800 90555 333 10270 20138 30/// 55020 20725 56900 58008 83720 85625;",
"76373099999","2012-07-14T12:00:00","4","25.35","-105.75","1967.0","TEPEHUANES DGO., MX","FM-12","99999","V020","320,1,N,0010,1","00600,1,9,N","001000,1,N,1","+0140,1","+0135,1","10165,1","24,0015,9,1",,,,,"06,1,+00600,1,07,1",,"06,99,1,06,1,06,1,00800,1,00,1,00,1",,"01,9",,"120,N,+0128,1","240,M,+0270,1","99999,9,08217,1","9,9,999,9,+003,1",,,"SYN118AAXX  14121 76373 32510 63201 10140 20135 38217 40165 5//// 86600 91155 333 10270 20128 30116 56900 58003 70015 86720;",
"76373099999","2012-07-14T15:00:00","4","25.35","-105.75","1967.0","TEPEHUANES DGO., MX","FM-12","99999","V020","110,1,N,0010,1","22000,1,9,N","030000,1,N,1","+0182,1","+0146,1","10178,1",,,,,,"03,1,+00600,1,06,1",,"03,99,1,03,1,03,1,00800,1,00,1,00,1",,"01,9",,,,"99999,9,08228,1","2,1,011,1,+000,1",,,"SYN100AAXX  14151 76373 32580 31101 10182 20146 38228 40178 52011 83300 91440 333 30/// 56900 58000 83620;",
"76373099999","2012-07-14T18:00:00","4","25.35","-105.75","1967.0","TEPEHUANES DGO., MX","FM-12","99999","V020","999,9,C,0000,1","22000,1,9,N","030000,1,N,1","+0264,1","+0154,1","10171,1",,,,,,"04,1,+00600,1,06,1",,"04,99,1,04,1,04,1,00800,1,00,1,00,1",,"01,9",,"120,M,+0270,1","240,N,+0128,1","99999,9,08222,1","7,1,006,1,-003,1",,,"SYN112AAXX  14181 76373 32580 40000 10264 20154 38222 40171 57006 84400 91750 333 10270 20128 30/// 56900 59003 84620;",
"76373099999","2012-07-14T21:00:00","4","25.35","-105.75","1967.0","TEPEHUANES DGO., MX","FM-12","99999","V020","140,1,N,0010,1","00600,1,9,N","030000,1,N,1","+0288,1","+0142,1","10141,1",,,,,,"06,1,+00600,1,06,1",,"06,99,1,06,1,06,1,00800,1,00,1,00,1",,"01,9",,,,"99999,9,08198,1","2,1,024,1,-008,1",,,"SYN100AAXX  14211 76373 32580 61401 10288 20142 38198 40141 52024 86600 92050 333 30/// 56900 59008 86620;",
"76373099999","2012-07-15T00:00:00","4","25.35","-105.75","1967.0","TEPEHUANES DGO., MX","FM-12","99999","V020","999,9,C,0000,1","00750,1,9,N","020000,1,N,1","+0262,1","+0116,1","10132,1","24,0015,9,1",,,,,,,"06,99,1,06,1,04,1,00800,1,00,1,00,1",,"01,9",,"120,M,+0301,1","180,N,+0128,1","99999,9,08190,1","7,1,008,1,-014,1",,,"SYN124AAXX  15001 76373 32570 61300 10262 20116 38190 40132 57008 86400 92350 333 10301 20128 30/// 50171 56900 59014 70015 86627;",
"76373099999","2012-07-15T15:00:00","4","25.35","-105.75","1967.0","TEPEHUANES DGO., MX","FM-12","99999","V020","999,9,C,0000,1","22000,1,9,N","020000,1,N,1","+0207,1","+0142,1","10170,1",,,,,,"01,1,+00810,1,08,1",,"01,99,1,01,1,03,1,00800,1,00,1,00,1",,"01,9",,,,"99999,9,08221,1","9,9,999,9,-007,1",,,"SYN100AAXX  15151 76373 32570 10000 10207 20142 38221 40170 5//// 81300 91450 333 30/// 56900 59007 81827;",
"76373099999","2012-07-15T18:00:00","4","25.35","-105.75","1967.0","TEPEHUANES DGO., MX","FM-12","99999","V020","999,9,C,0000,1","00810,1,9,N","020000,1,N,1","+0254,1","+0112,1","10160,1",,,,,,"05,1,+00810,1,08,1",,"05,99,1,05,1,03,1,00800,1,00,1,00,1",,"01,9",,"120,M,+0278,1","240,N,+0135,1","99999,9,08213,1","7,1,008,1,-011,1",,,"SYN112AAXX  15181 76373 32570 50000 10254 20112 38213 40160 57008 85300 91750 333 10278 20135 30/// 56900 59011 85827;",
"76373099999","2012-07-15T21:00:00","4","25.35","-105.75","1967.0","TEPEHUANES DGO., MX","FM-12","99999","V020","130,1,N,0010,1","22000,1,9,N","020000,1,N,1","+0288,1","+0106,1","10135,1",,,,,,"04,1,+00810,1,08,1",,"04,99,1,04,1,03,1,00800,1,00,1,00,1",,"01,9",,,,"99999,9,08193,1","7,1,020,1,-005,1",,,"SYN100AAXX  15211 76373 32570 41301 10288 20106 38193 40135 57020 84300 92050 333 30/// 56900 59005 84827;",
"76373099999","2012-07-16T00:00:00","4","25.35","-105.75","1967.0","TEPEHUANES DGO., MX","FM-12","99999","V020","110,1,N,0010,1","00750,1,9,N","020000,1,N,1","+0276,1","+0086,1","10121,1","24,0000,9,1",,,,,,,"05,99,1,05,1,03,1,00800,1,00,1,00,1",,"01,9",,"120,M,+0305,1","180,N,+0135,1","99999,9,08181,1","7,1,012,1,-009,1",,,"SYN124AAXX  16001 76373 32570 51101 10276 20086 38181 40121 57012 85300 92350 333 10305 20135 30/// 50671 56900 59009 70000 85827;",
"76373099999","2012-07-16T03:00:00","4","25.35","-105.75","1967.0","TEPEHUANES DGO., MX","FM-12","99999","V020","999,9,C,0000,1","22000,1,9,N","005000,1,N,1","+0229,1","+0123,1","10138,1",,,,,,"04,1,+00810,1,08,1",,"04,99,1,04,1,03,1,00800,1,00,1,00,1",,"01,9",,,,"99999,9,08195,1","2,1,014,1,-006,1",,,"SYN100AAXX  16031 76373 32550 40000 10229 20123 38195 40138 52014 84300 90250 333 30/// 56900 59006 84827;",
"76373099999","2012-07-16T12:00:00","4","25.35","-105.75","1967.0","TEPEHUANES DGO., MX","FM-12","99999","V020","999,9,C,0000,1","22000,1,9,N","005000,1,N,1","+0138,1","+0127,1","10151,1",,,,,,"00,1,+99999,9,99,9",,"00,99,1,00,1,00,1,99999,9,00,1,00,1","0558,9","01,9",,"120,N,+0130,1","240,M,+0305,1","99999,9,08206,1","9,9,999,9,-006,1",,,"SYN112AAXX  16121 76373 32950 00000 10138 20127 38206 40151 5//// 91150 333 10305 20130 30122 55093 21047 59006 70000;",
"76373099999","2012-07-16T15:00:00","4","25.35","-105.75","1967.0","TEPEHUANES DGO., MX","FM-12","99999","V020","999,9,C,0000,1","22000,1,9,N","020000,1,N,1","+0187,1","+0133,1","10168,1",,,,,,"00,1,+99999,9,99,9",,"00,99,1,00,1,00,1,99999,9,00,1,00,1",,"01,9",,,,"99999,9,08220,1","2,1,014,1,-001,1",,,"SYN082AAXX  16151 76373 32970 00000 10187 20133 38220 40168 52014 91450 333 30/// 59001;",
"76373099999","2012-07-16T18:00:00","4","25.35","-105.75","1967.0","TEPEHUANES DGO., MX","FM-12","99999","V020","999,9,C,0000,1","22000,1,9,N","030000,1,N,1","+0285,1","+0106,1","10162,1",,,,,,"03,1,+00750,1,08,1",,"03,99,1,03,1,03,1,00800,1,00,1,00,1",,"01,9",,"120,M,+0292,1","240,N,+0130,1","99999,9,08214,1","7,1,006,1,+001,1",,,"SYN112AAXX  16181 76373 32580 30000 10285 20106 38214 40162 57006 83300 91750 333 10292 20130 30/// 56900 58001 83825;",
"76373099999","2012-07-16T21:00:00","4","25.35","-105.75","1967.0","TEPEHUANES DGO., MX","FM-12","99999","V020","160,1,N,0010,1","00750,1,9,N","030000,1,N,1","+0302,1","+0066,1","10126,1",,,,,,"05,1,+00750,1,08,1",,"05,99,1,05,1,05,1,00800,1,00,1,00,1",,"01,9",,,,"99999,9,08185,1","7,1,029,1,-012,1",,,"SYN100AAXX  16211 76373 32580 51601 10302 20066 38185 40126 57029 85500 92050 333 30/// 56900 59012 85825;",
"76373099999","2012-07-17T03:00:00","4","25.35","-105.75","1967.0","TEPEHUANES DGO., MX","FM-12","99999","V020","999,9,C,0000,1","00750,1,9,N","001000,1,N,1","+0188,1","+0152,1","10155,1",,,,,,"06,1,+00750,1,08,1",,"06,99,1,06,1,06,1,00800,1,00,1,00,1",,"01,9",,,,"99999,9,08209,1","2,1,006,1,+014,1",,,"SYN100AAXX  17031 76373 32510 60000 10188 20152 38209 40155 52006 86600 90250 333 30/// 56900 58014 86825;",
"76373099999","2012-07-17T06:00:00","4","25.35","-105.75","1967.0","TEPEHUANES DGO., MX","FM-12","99999","V020","999,9,C,0000,1","22000,1,9,N","001000,1,N,1","+0186,1","+0151,1","10167,1",,,,,,,,"03,99,1,03,1,03,1,00800,1,00,1,00,1","0582,9","01,9",,"240,M,+0330,1","240,N,+0130,1","99999,9,08218,1","2,1,009,1,+003,1",,,"SYN124AAXX  17061 76373 32510 30000 10186 20151 38218 40167 52009 83300 90550 333 10330 20130 30/// 55097 21321 56900 58003 83825;",
"76373099999","2012-07-17T12:00:00","4","25.35","-105.75","1967.0","TEPEHUANES DGO., MX","FM-12","99999","V020","999,9,C,0000,1","22000,1,9,N","001000,1,N,1","+0157,1","+0149,1","10153,1","24,0005,9,1",,,,,"00,1,+99999,9,99,9",,"00,99,1,00,1,00,1,99999,9,00,1,00,1",,"01,9",,"120,N,+0150,1","240,M,+0330,1","99999,9,08208,1","9,9,999,9,+002,1",,,"SYN100AAXX  17121 76373 32910 00000 10157 20149 38208 40153 5//// 91150 333 10330 20150 30143 58002 70006;",
"76373099999","2012-07-17T15:00:00","4","25.35","-105.75","1967.0","TEPEHUANES DGO., MX","FM-12","99999","V020","999,9,C,0000,1","22000,1,9,N","020000,1,N,1","+0201,1","+0148,1","10155,1",,,,,,"02,1,+00750,1,08,1",,"02,99,1,02,1,02,1,00800,1,00,1,00,1",,"01,9",,,,"99999,9,08209,1","7,1,001,1,-005,1",,,"SYN100AAXX  17151 76373 32570 20000 10201 20148 38209 40155 57001 82200 91450 333 30/// 56900 59005 82825;",
"76373099999","2012-07-17T18:00:00","4","25.35","-105.75","1967.0","TEPEHUANES DGO., MX","FM-12","99999","V020","999,9,C,0000,1","22000,1,9,N","030000,1,N,1","+0278,1","+0135,1","10154,1",,,,,,"03,1,+00750,1,08,1",,"03,99,1,03,1,03,1,00800,1,00,1,00,1",,"01,9",,"120,M,+0285,1","240,N,+0150,1","99999,9,08208,1","7,1,001,1,-006,1",,,"SYN112AAXX  17181 76373 32580 30000 10278 20135 38208 40154 57001 83300 91750 333 10285 20150 30/// 56900 59006 83825;",
"76373099999","2012-07-17T21:00:00","4","25.35","-105.75","1967.0","TEPEHUANES DGO., MX","FM-12","99999","V020","130,1,N,0020,1","22000,1,9,N","030000,1,N,1","+0302,1","+0059,1","10124,1",,,,,,"02,1,+00690,1,07,1",,"03,99,1,03,1,03,1,00800,1,00,1,00,1",,"01,9",,,,"99999,9,08184,1","7,1,024,1,-001,1",,,"SYN106AAXX  17211 76373 32580 31302 10302 20059 38184 40124 57024 83300 92050 333 30/// 56900 59001 82723 81621;",
"76373099999","2012-07-18T00:00:00","4","25.35","-105.75","1967.0","TEPEHUANES DGO., MX","FM-12","99999","V020","160,1,N,0010,1","22000,1,9,N","030000,1,N,1","+0303,1","+0099,1","10107,1","24,0006,9,1",,,,,,,"04,99,1,04,1,04,1,00800,1,00,1,00,1",,"01,9",,"120,M,+0332,1","180,N,+0150,1","99999,9,08170,1","2,1,016,1,-027,1",,,"SYN124AAXX  18001 76373 32580 41601 10303 20099 38170 40107 52016 84400 92350 333 10332 20150 30/// 50641 56900 59027 70006 84825;",
"76373099999","2012-07-18T06:00:00","4","25.35","-105.75","1967.0","TEPEHUANES DGO., MX","FM-12","99999","V020","999,9,C,0000,1","00750,1,9,N","001000,1,N,1","+0190,1","+0154,1","10169,1",,,,,,,,"07,99,1,07,1,07,1,00800,1,00,1,00,1","0576,9","01,9",,"240,M,+0332,1","240,N,+0150,1","99999,9,08221,1","9,9,999,9,+003,1",,,"SYN124AAXX  18061 76373 32510 70000 10190 20154 38221 40169 5//// 87700 90550 333 10332 20150 30/// 55096 20854 56900 58003 87825;",
"76373099999","2012-07-18T12:00:00","4","25.35","-105.75","1967.0","TEPEHUANES DGO., MX","FM-12","99999","V020","999,9,C,0000,1","22000,1,9,N","001000,1,N,1","+0178,1","+0134,1","10162,1","24,0053,9,1",,,,,"02,1,+00750,1,08,1",,"02,99,1,02,1,02,1,00800,1,00,1,00,1",,"01,9",,"120,N,+0165,1","240,M,+0332,1","99999,9,08214,1","9,9,999,9,+006,1",,,"SYN118AAXX  18121 76373 32510 20000 10178 20134 38214 40162 5//// 82200 91150 333 10332 20165 30160 56900 58006 70053 82825;",
"76373099999","2012-07-18T15:00:00","4","25.35","-105.75","1967.0","TEPEHUANES DGO., MX","FM-12","99999","V020","999,9,C,0000,1","22000,1,9,N","020000,1,N,1","+0224,1","+0149,1","10147,1",,,,,,"03,1,+00600,1,06,1",,"03,99,1,03,1,03,1,00800,1,00,1,00,1",,"01,9",,,,"99999,9,08202,1","7,1,012,1,-007,1",,,"SYN100AAXX  18151 76373 32570 30000 10224 20149 38202 40147 57012 83300 91455 333 30/// 56900 59007 83620;",
"76373099999","2012-07-18T18:00:00","4","25.35","-105.75","1967.0","TEPEHUANES DGO., MX","FM-12","99999","V020","999,9,C,0000,1","00690,1,9,N","030000,1,N,1","+0215,1","+0153,1","10177,1",,,,,,"05,1,+00690,1,07,1",,"06,99,1,06,1,06,1,00800,1,00,1,00,1",,"01,9",,"120,M,+0250,1","240,N,+0165,1","99999,9,08226,1","2,1,024,1,+018,1",,,"SYN118AAXX  18181 76373 32580 60000 10215 20153 38226 40177 52024 86600 91750 333 10250 20165 30/// 56900 58018 85723 81621;",
"76373099999","2012-07-18T21:00:00","4","25.35","-105.75","1967.0","TEPEHUANES DGO., MX","FM-12","99999","V020","160,1,N,0010,1","00690,1,9,N","030000,1,N,1","+0208,1","+0137,1","10165,1",,,,,,"06,1,+00690,1,07,1",,"08,99,1,08,1,08,1,00800,1,00,1,00,1",,"01,9",,,,"99999,9,08217,1","7,1,009,1,+009,1",,,"SYN106AAXX  18211 76373 32580 81601 10208 20137 38217 40165 57009 88800 92050 333 30/// 56900 58009 86723 82621;",
"76373099999","2012-07-19T00:00:00","4","25.35","-105.75","1967.0","TEPEHUANES DGO., MX","FM-12","99999","V020","999,9,C,0000,1","00690,1,C,N","030000,1,N,1","+0240,1","+0122,1","10142,1","24,0053,9,1",,,,,"05,1,+00690,1,07,1",,"06,99,1,06,1,06,1,00800,1,00,1,00,1",,"01,9",,"120,M,+0272,1","180,N,+0165,1","99999,9,08198,1","7,1,019,1,+015,1",,,"SYN130AAXX  19001 76373 32580 60000 10240 20122 38198 40142 57019 86600 92355 333 10272 20165 30/// 50471 56900 58015 70053 85723 81621;",
"76373099999","2012-07-19T03:00:00","4","25.35","-105.75","1967.0","TEPEHUANES DGO., MX","FM-12","99999","V020","999,9,C,0000,1","00750,1,C,N","001000,1,N,1","+0202,1","+0141,1","10159,1",,,,,,"04,1,+00690,1,07,1",,"05,99,1,05,1,05,1,00800,1,00,1,00,1",,"01,9",,,,"99999,9,08212,1","2,1,014,1,+008,1",,,"SYN106AAXX  19031 76373 32510 50000 10202 20141 38212 40159 52014 85500 90250 333 30/// 56900 58008 84723 81621;",
"76373099999","2012-07-19T06:00:00","4","25.35","-105.75","1967.0","TEPEHUANES DGO., MX","FM-12","99999","V020","999,9,C,0000,1","22000,1,9,N","001000,1,N,1","+0190,1","+0145,1","10165,1",,,,,,"03,1,+00690,1,07,1",,"04,99,1,04,1,04,1,00800,1,00,1,00,1","0240,9","01,9",,"240,M,+0270,1","240,N,+0165,1","99999,9,08217,1","2,1,005,1,-004,1",,,"SYN130AAXX  19061 76373 32510 40000 10190 20145 38217 40165 52005 84400 90550 333 10270 20165 30/// 55040 20854 56900 59004 83723 81621;",
"76373099999","2012-07-19T15:00:00","4","25.35","-105.75","1967.0","TEPEHUANES DGO., MX","FM-12","99999","V020","999,9,C,0000,1","00690,1,9,N","020000,1,N,1","+0186,1","+0170,1","10196,1",,,,,,"07,1,+00690,1,07,1",,"08,99,1,08,1,08,1,00800,1,00,1,00,1",,"01,9",,,,"99999,9,08242,1","9,9,999,9,+039,1",,,"SYN106AAXX  19151 76373 32570 80000 10186 20170 38242 40196 5//// 88800 91450 333 30/// 56900 58039 87723 81625;",
"76373099999","2012-07-20T12:00:00","4","25.35","-105.75","1967.0","TEPEHUANES DGO., MX","FM-12","99999","V020","290,1,N,0010,1","00600,1,9,N","001000,1,N,1","+0160,1","+0143,1","10183,1","24,0070,9,1",,,,,"08,1,+00600,1,07,1",,"08,99,1,08,1,08,1,00800,1,00,1,00,1",,"01,9",,"120,N,+0144,1","240,M,+0300,1","99999,9,08231,1","9,9,999,9,+006,1",,,"SYN118AAXX  20121 76373 32510 82901 10160 20143 38231 40183 5//// 88800 91155 333 10300 20144 30128 56900 58006 70070 88720;",
"76373099999","2012-07-20T15:00:00","4","25.35","-105.75","1967.0","TEPEHUANES DGO., MX","FM-12","99999","V020","320,1,N,0010,1","00600,1,9,N","030000,1,N,1","+0172,1","+0144,1","10193,1",,,,,,"07,1,+00600,1,07,1",,"07,99,1,07,1,07,1,00800,1,00,1,00,1",,"01,9",,,,"99999,9,08240,1","2,1,009,1,-002,1",,,"SYN100AAXX  20151 76373 32580 73201 10172 20144 38240 40193 52009 87700 91450 333 30/// 56900 59002 87720;",
"76373099999","2012-07-20T18:00:00","4","25.35","-105.75","1967.0","TEPEHUANES DGO., MX","FM-12","99999","V020","140,1,N,0020,1","00750,1,9,N","030000,1,N,1","+0248,1","+0147,1","10187,1",,,,,,"01,1,+00600,1,07,1",,"07,99,1,07,1,07,1,00800,1,00,1,00,1",,"01,9",,"120,M,+0250,1","240,N,+0144,1","99999,9,08234,1","7,1,006,1,+010,1",,,"SYN118AAXX  20181 76373 32580 71402 10248 20147 38234 40187 57006 87700 91755 333 10250 20144 30/// 56900 58010 81720 86625;",
"76373099999","2012-07-21T00:00:00","4","25.35","-105.75","1967.0","TEPEHUANES DGO., MX","FM-12","99999","V020","250,1,N,0010,1","99999,9,9,N","020000,1,N,1","+0170,1","+0147,1","10172,1","06,0000,9,1",,,"5,1,06,1","2,1,06,1",,,"08,99,1,99,9,99,9,00800,1,99,9,99,9",,,,,,"99999,9,08223,1","1,1,008,1,+999,9",,"15,1","SYN072AAXX  21001 76373 01570 82501 10170 20147 38223 40172 51008 60001 71552;","Q01  00002PRCP06"
"76373099999","2012-07-21T03:00:00","4","25.35","-105.75","1967.0","TEPEHUANES DGO., MX","FM-12","99999","V020","999,9,C,0000,1","01200,1,C,N","001000,1,N,1","+0168,1","+0155,1","10190,1",,,,,,"02,1,+00600,1,09,1",,"08,99,1,08,1,08,1,00800,1,00,1,00,1",,"01,9",,,,"99999,9,08237,1","2,1,014,1,+006,1",,,"SYN106AAXX  21031 76373 32510 80000 10168 20155 38237 40190 52014 88800 90255 333 30/// 56900 58006 82920 86625;",
"76373099999","2012-07-21T06:00:00","4","25.35","-105.75","1967.0","TEPEHUANES DGO., MX","FM-12","99999","V020","200,1,N,0010,1","01200,1,9,N","000500,1,N,1","+0160,1","+0147,1","10202,1",,,,,,"04,1,+00600,1,09,1",,"08,99,1,08,1,08,1,00800,1,00,1,00,1","0234,9","01,9",,"240,M,+0270,1","240,N,+0144,1","99999,9,08247,1","2,1,010,1,+008,1",,,"SYN130AAXX  21061 76373 32505 82001 10160 20147 38247 40202 52010 88800 90550 333 10270 20144 30/// 55039 20947 56900 58008 84920 84725;",
"76373099999","2012-07-21T12:00:00","4","25.35","-105.75","1967.0","TEPEHUANES DGO., MX","FM-12","99999","V020","290,1,N,0010,1","99999,9,9,N","001000,1,N,1","+0154,1","+0147,1","10185,1","06,0000,9,1",,,"5,1,06,1","2,1,06,1",,,"08,99,1,99,9,99,9,00800,1,99,9,99,9",,,,,,"99999,9,08233,1",,,"15,1","SYN072AAXX  21121 76373 01510 82901 10154 20147 38233 40185 5//// 60001 71552;","Q01  00002PRCP06"
"76373099999","2012-07-22T15:00:00","4","25.35","-105.75","1967.0","TEPEHUANES DGO., MX","FM-12","99999","V020","999,9,C,0000,1","22000,1,9,N","020000,1,N,1","+0203,1","+0138,1","10186,1",,,,,,"00,1,+99999,9,99,9",,"00,99,1,00,1,00,1,99999,9,00,1,00,1",,"01,9",,,,"99999,9,08234,1","4,1,000,1,-011,1",,,"SYN082AAXX  22151 76373 32970 00000 10203 20138 38234 40186 54000 91450 333 30/// 59011;",
"76373099999","2012-07-22T18:00:00","4","25.35","-105.75","1967.0","TEPEHUANES DGO., MX","FM-12","99999","V020","999,9,C,0000,1","22000,1,9,N","020000,1,N,1","+0284,1","+0132,1","10175,1",,,,,,"01,1,+00810,1,08,1",,"01,99,1,01,1,02,1,00800,1,00,1,00,1",,"01,9",,"120,M,+0290,1","240,N,+0124,1","99999,9,08225,1","7,1,009,1,-025,1",,,"SYN112AAXX  22181 76373 32570 10000 10284 20132 38225 40175 57009 81200 91750 333 10290 20124 30/// 56900 59025 81827;",
"76373099999","2012-07-23T00:00:00","4","25.35","-105.75","1967.0","TEPEHUANES DGO., MX","FM-12","99999","V020","999,9,C,0000,1","22000,1,9,N","020000,1,N,1","+0295,1","+0069,1","10140,1","24,0000,9,1",,,,,"02,1,+00810,1,08,1",,"02,99,1,02,1,02,1,00800,1,00,1,00,1",,"01,9",,"120,M,+0314,1","180,N,+0124,1","99999,9,08197,1","7,1,008,1,+999,9",,,"SYN118AAXX  23001 76373 32570 20000 10295 20069 38197 40140 57008 82200 92350 333 10314 20124 30/// 50571 56900 70000 82827;",
"76373099999","2012-07-23T15:00:00","4","25.35","-105.75","1967.0","TEPEHUANES DGO., MX","FM-12","99999","V020","999,9,C,0000,1","22000,1,9,N","020000,1,N,1","+0203,1","+0120,1","10184,1",,,,,,"00,1,+99999,9,99,9",,"00,99,1,00,1,00,1,99999,9,00,1,00,1",,"01,9",,,,"99999,9,08232,1","2,1,004,1,-002,1",,,"SYN082AAXX  23151 76373 32970 00000 10203 20120 38232 40184 52004 91450 333 30/// 59002;",
"76373099999","2012-07-23T18:00:00","4","25.35","-105.75","1967.0","TEPEHUANES DGO., MX","FM-12","99999","V020","999,9,C,0000,1","22000,1,9,N","020000,1,N,1","+0285,1","+0114,1","10170,1",,,,,,"01,1,+00810,1,08,1",,"01,99,1,01,1,02,1,00800,1,00,1,00,1",,"01,9",,"120,M,+0290,1","240,N,+0114,1","99999,9,08221,1","7,1,011,1,-004,1",,,"SYN112AAXX  23181 76373 32570 10000 10285 20114 38221 40170 57011 81200 91750 333 10290 20114 30/// 56900 59004 81827;",
"76373099999","2012-07-24T00:00:00","4","25.35","-105.75","1967.0","TEPEHUANES DGO., MX","FM-12","99999","V020","070,1,N,0010,1","22000,1,9,N","030000,1,N,1","+0307,1","+0065,1","10150,1","24,0000,9,1",,,,,,,"03,99,1,03,1,03,1,00800,1,00,1,00,1",,"01,9",,"120,M,+0325,1","180,N,+0114,1","99999,9,08205,1","2,1,011,1,+008,1",,,"SYN124AAXX  24001 76373 32580 30701 10307 20065 38205 40150 52011 83300 92355 333 10325 20114 30/// 50781 56900 58008 70000 83825;",
"76373099999","2012-07-24T06:00:00","4","25.35","-105.75","1967.0","TEPEHUANES DGO., MX","FM-12","99999","V020","999,9,C,0000,1","22000,1,9,N","001000,1,N,1","+0221,1","+0110,1","10192,1",,,,,,"00,1,+99999,9,99,9",,"00,99,1,00,1,00,1,99999,9,00,1,00,1","0672,9","01,9",,"240,M,+0325,1","240,N,+0114,1","99999,9,08238,1",,,,"SYN106AAXX  24061 76373 32910 00000 10221 20110 38238 40192 5//// 90550 333 10325 20114 30/// 55112 21594 58014;",
"76373099999","2012-07-24T12:00:00","4","25.35","-105.75","1967.0","TEPEHUANES DGO., MX","FM-12","99999","V020","999,9,C,0000,1","22000,1,9,N","001000,1,N,1","+0154,1","+0119,1","10195,1","24,0000,9,1",,,,,"03,1,+00750,1,08,1",,"03,99,1,03,1,03,1,00800,1,00,1,00,1",,"01,9",,"120,N,+0145,1","240,M,+0325,1","99999,9,08241,1","9,9,999,9,+014,1",,,"SYN118AAXX  24121 76373 32510 30000 10154 20119 38241 40195 5//// 83300 91155 333 10325 20145 30137 56900 58014 70000 83825;",
"76373099999","2012-07-24T15:00:00","4","25.35","-105.75","1967.0","TEPEHUANES DGO., MX","FM-12","99999","V020","999,9,C,0000,1","00750,1,9,N","020000,1,N,1","+0140,1","+0117,1","10191,1",,,,,,"05,1,+00750,1,08,1",,"05,99,1,05,1,05,1,00800,1,00,1,00,1",,"01,9",,,,"99999,9,08238,1","7,1,003,1,+007,1",,,"SYN100AAXX  24151 76373 32570 50000 10140 20117 38238 40191 57003 85500 91455 333 30/// 56900 58007 85825;",
"76373099999","2012-07-24T18:00:00","4","25.35","-105.75","1967.0","TEPEHUANES DGO., MX","FM-12","99999","V020","999,9,C,0000,1","00750,1,9,N","030000,1,N,1","+0281,1","+0143,1","10180,1",,,,,,"04,1,+00600,1,07,1",,"06,99,1,06,1,06,1,00800,1,00,1,00,1",,"01,9",,"120,M,+0285,1","240,N,+0145,1","99999,9,08229,1","7,1,009,1,+008,1",,,"SYN118AAXX  24181 76373 32580 60000 10281 20143 38229 40180 57009 86600 91750 333 10285 20145 30/// 56900 58008 84720 82625;",
"76373099999","2012-07-24T21:00:00","4","25.35","-105.75","1967.0","TEPEHUANES DGO., MX","FM-12","99999","V020","070,1,N,0010,1","00690,1,9,N","020000,1,N,1","+0282,1","+0110,1","10155,1",,,,,,"07,1,+00690,1,07,1",,"07,99,1,07,1,07,1,00800,1,00,1,00,1",,"01,9",,,,"99999,9,08209,1","7,1,020,1,-007,1",,,"SYN100AAXX  24211 76373 32570 70701 10282 20110 38209 40155 57020 87700 92050 333 30/// 56900 59007 87723;",
"76373099999","2012-07-25T00:00:00","4","25.35","-105.75","1967.0","TEPEHUANES DGO., MX","FM-12","99999","V020","999,9,C,0000,1","99999,9,9,N","020000,1,N,1","+0215,1","+0147,1","10160,1","06,0010,9,1",,,"5,1,06,1","0,1,06,1",,,"08,99,1,99,9,99,9,00800,1,99,9,99,9",,,,,,"99999,9,08213,1","3,1,004,1,+999,9",,"01,1","SYN072AAXX  25001 76373 01570 80000 10215 20147 38213 40160 53004 60011 70150;",
"76373099999","2012-07-25T03:00:00","4","25.35","-105.75","1967.0","TEPEHUANES DGO., MX","FM-12","99999","V020","999,9,C,0000,1","00690,1,9,N","000600,1,N,1","+0198,1","+0126,1","10168,1",,,,,,"05,1,+00690,1,07,1",,"05,99,1,05,1,07,1,00800,1,00,1,00,1",,"01,9",,,,"99999,9,08219,1","2,1,006,1,+003,1",,,"SYN100AAXX  25031 76373 32506 50000 10198 20126 38219 40168 52006 85700 90250 333 30/// 56900 58003 85723;",
"76373099999","2012-07-25T06:00:00","4","25.35","-105.75","1967.0","TEPEHUANES DGO., MX","FM-12","99999","V020","999,9,C,0000,1","00750,1,9,N","000400,1,N,1","+0181,1","+0139,1","10182,1",,,,,,,,"05,99,1,05,1,07,1,00800,1,00,1,00,1","0462,9","01,9",,"240,M,+0317,1","240,N,+0145,1","99999,9,08231,1","2,1,012,1,-007,1",,,"SYN124AAXX  25061 76373 32504 50000 10181 20139 38231 40182 52012 85700 90540 333 10317 20145 30/// 55077 21482 56900 59007 85723;",
"76373099999","2012-07-25T12:00:00","4","25.35","-105.75","1967.0","TEPEHUANES DGO., MX","FM-12","99999","V020","999,9,C,0000,1","00690,1,9,N","001000,1,N,1","+0169,1","+0148,1","10189,1","24,0013,9,1",,,,,"08,1,+00690,1,09,1",,"08,99,1,08,1,09,1,00800,1,00,1,00,1",,"01,9",,"120,N,+0155,1","240,M,+0317,1","99999,9,08237,1","9,9,999,9,-004,1",,,"SYN118AAXX  25121 76373 32510 80000 10169 20148 38237 40189 5//// 88900 91150 333 10317 20155 30140 56900 59004 70013 88923;",
"76373099999","2012-07-25T15:00:00","4","25.35","-105.75","1967.0","TEPEHUANES DGO., MX","FM-12","99999","V020","999,9,C,0000,1","00750,1,C,N","020000,1,N,1","+0198,1","+0153,1","10196,1",,,,,,"04,1,+00690,1,06,1",,"06,99,1,06,1,05,1,00800,1,00,1,00,1",,"01,9",,,,"99999,9,08242,1","2,1,005,1,+004,1",,,"SYN100AAXX  25151 76373 32570 60000 10198 20153 38242 40196 52005 86500 91450 333 30/// 56900 58004 84623;",
"76373099999","2012-07-25T18:00:00","4","25.35","-105.75","1967.0","TEPEHUANES DGO., MX","FM-12","99999","V020","999,9,C,0000,1","22000,1,9,N","020000,1,N,1","+0266,1","+0155,1","10178,1",,,,,,"01,1,+00900,1,08,1",,"02,99,1,01,1,02,1,00800,1,00,1,02,1",,"01,9",,"120,M,+0273,1","240,N,+0155,1","99999,9,08228,1","7,1,014,1,-001,1",,,"SYN112AAXX  25181 76373 32570 20000 10266 20155 38228 40178 57014 81202 91750 333 10273 20155 30/// 56909 59001 81830;",
"76373099999","2012-07-25T21:00:00","4","25.35","-105.75","1967.0","TEPEHUANES DGO., MX","FM-12","99999","V020","140,1,N,0010,1","00750,1,C,N","020000,1,N,1","+0303,1","+0129,1","10145,1",,,,,,"03,1,+00690,1,07,1",,"05,99,1,05,1,07,1,00800,1,00,1,00,1",,"01,9",,,,"99999,9,08201,1","7,1,019,1,-008,1",,,"SYN100AAXX  25211 76373 32570 51401 10303 20129 38201 40145 57019 85700 92050 333 30/// 56900 59008 83723;",
"76373099999","2012-07-26T03:00:00","4","25.35","-105.75","1967.0","TEPEHUANES DGO., MX","FM-12","99999","V020","999,9,C,0000,1","00690,1,9,N","000600,1,N,1","+0204,1","+0130,1","10164,1",,,,,,"08,1,+00690,1,07,1",,"08,99,1,08,1,07,1,00800,1,00,1,00,1",,"01,9",,,,"99999,9,08216,1","2,1,020,1,-003,1",,,"SYN100AAXX  26031 76373 32506 80000 10204 20130 38216 40164 52020 88700 90250 333 30/// 56900 59003 88723;",
"76373099999","2012-07-26T06:00:00","4","25.35","-105.75","1967.0","TEPEHUANES DGO., MX","FM-12","99999","V020","999,9,C,0000,1","00750,1,9,N","000400,1,N,1","+0193,1","+0138,1","10183,1",,,,,,,,"08,99,1,08,1,07,1,00800,1,00,1,00,1","0408,9","01,9",,"240,M,+0321,1","240,N,+0152,1","99999,9,08232,1","2,1,016,1,+001,1",,,"SYN124AAXX  26061 76373 32504 80000 10193 20138 38232 40183 52016 88700 90550 333 10321 20152 30/// 55068 21788 56900 58001 88723;",
"76373099999","2012-07-26T15:00:00","4","25.35","-105.75","1967.0","TEPEHUANES DGO., MX","FM-12","99999","V020","999,9,C,0000,1","00720,1,9,N","020000,1,N,1","+0190,1","+0133,1","10174,1",,,,,,"06,1,+00720,1,06,1",,"06,99,1,06,1,05,1,00800,1,00,1,00,1",,"01,9",,,,"99999,9,08224,1","2,1,006,1,-018,1",,,"SYN100AAXX  26151 76373 32570 60000 10190 20133 38224 40174 52006 86500 91450 333 30/// 56900 59018 86624;",
"76373099999","2012-07-26T18:00:00","4","25.35","-105.75","1967.0","TEPEHUANES DGO., MX","FM-12","99999","V020","070,1,N,0010,1","22000,1,9,N","030000,1,N,1","+0276,1","+0134,1","10151,1",,,,,,"02,1,+00600,1,06,1",,"03,99,1,03,1,02,1,00800,1,01,1,00,1",,"01,9",,"120,M,+0280,1","240,N,+0160,1","99999,9,08206,1","7,1,018,1,-022,1",,,"SYN118AAXX  26181 76373 32580 30701 10276 20134 38206 40151 57018 83210 91755 333 10280 20160 30/// 56990 59022 82620 81330;",
"76373099999","2012-07-26T21:00:00","4","25.35","-105.75","1967.0","TEPEHUANES DGO., MX","FM-12","99999","V020","320,1,N,0030,1","00750,1,9,N","030000,1,N,1","+0240,1","+0123,1","10140,1",,,,,,"03,1,+00600,1,07,1",,"07,99,1,07,1,07,1,00800,1,00,1,00,1",,"01,9",,,,"99999,9,08197,1","7,1,009,1,-004,1",,,"SYN106AAXX  26211 76373 32580 73203 10240 20123 38197 40140 57009 87700 92055 333 30/// 56900 59004 83720 84625;",
"76373099999","2012-07-27T00:00:00","4","25.35","-105.75","1967.0","TEPEHUANES DGO., MX","FM-12","99999","V020","320,1,N,0020,1","00750,1,9,N","030000,1,N,1","+0236,1","+0146,1","10127,1","24,0000,9,1",,,,,"04,1,+00600,1,06,1",,"06,99,1,06,1,04,1,00800,1,02,1,00,1",,"01,9",,"120,M,+0300,1","180,N,+0160,1","99999,9,08186,1","7,1,011,1,-010,1",,,"SYN130AAXX  27001 76373 32580 63202 10236 20146 38186 40127 57011 86420 92355 333 10300 20160 30/// 50651 56990 59010 70000 84620 82330;",
"76373099999","2012-07-27T03:00:00","4","25.35","-105.75","1967.0","TEPEHUANES DGO., MX","FM-12","99999","V020","320,1,N,0010,1","01200,1,C,N","001000,1,N,1","+0220,1","+0131,1","10149,1",,,,,,"04,1,+00600,1,07,1",,"08,99,1,08,1,08,1,00800,1,00,1,00,1",,"01,9",,,,"99999,9,08204,1","2,1,018,1,-012,1",,,"SYN106AAXX  27031 76373 32510 83201 10220 20131 38204 40149 52018 88800 90255 333 30/// 56900 59012 84720 84625;",
"76373099999","2012-07-27T12:00:00","4","25.35","-105.75","1967.0","TEPEHUANES DGO., MX","FM-12","99999","V020","290,1,N,0010,1","00600,1,9,N","001000,1,N,1","+0168,1","+0161,1","10154,1","24,0025,9,1",,,,,"07,1,+00600,1,07,1",,"07,99,1,07,1,07,1,00800,1,00,1,00,1",,"01,9",,"120,N,+0154,1","240,M,+0300,1","99999,9,08208,1","9,9,999,9,-010,1",,,"SYN118AAXX  27121 76373 32510 72901 10168 20161 38208 40154 5//// 87700 91155 333 10300 20154 30138 56900 59010 70025 87720;",
"76373099999","2012-07-27T15:00:00","4","25.35","-105.75","1967.0","TEPEHUANES DGO., MX","FM-12","99999","V020","320,1,N,0010,1","00750,1,C,N","020000,1,N,1","+0206,1","+0159,1","10162,1",,,,,,"04,1,+00750,1,06,1",,"06,99,1,06,1,04,1,00800,1,02,1,00,1",,"01,9",,,,"99999,9,08214,1","2,1,014,1,-010,1",,,"SYN106AAXX  27151 76373 32570 63201 10206 20159 38214 40162 52014 86420 91455 333 30/// 56990 59010 84625 82330;",
"76373099999","2012-07-27T18:00:00","4","25.35","-105.75","1967.0","TEPEHUANES DGO., MX","FM-12","99999","V020","140,1,N,0010,1","00750,1,9,N","030000,1,N,1","+0270,1","+0157,1","10155,1",,,,,,"02,1,+00600,1,07,1",,"06,99,1,06,1,06,1,00800,1,00,1,00,1",,"01,9",,"120,M,+0280,1","240,N,+0154,1","99999,9,08209,1","6,1,005,1,+003,1",,,"SYN118AAXX  27181 76373 32580 61401 10270 20157 38209 40155 56005 86600 91755 333 10280 20154 30/// 56900 58003 82720 84625;",
"76373099999","2012-07-27T21:00:00","4","25.35","-105.75","1967.0","TEPEHUANES DGO., MX","FM-12","99999","V020","320,1,N,0010,1","01200,1,C,N","030000,1,N,1","+0248,1","+0142,1","10140,1",,,,,,"04,1,+00600,1,07,1",,"08,99,1,08,1,08,1,00800,1,00,1,00,1",,"01,9",,,,"99999,9,08197,1","7,1,012,1,+000,1",,,"SYN106AAXX  27211 76373 32580 83201 10248 20142 38197 40140 57012 88800 92050 333 30/// 56900 58000 84720 84625;",
"76373099999","2012-07-28T00:00:00","4","25.35","-105.75","1967.0","TEPEHUANES DGO., MX","FM-12","99999","V020","320,1,N,0010,1","01200,1,9,N","030000,1,N,1","+0188,1","+0167,1","10157,1","24,0075,9,1",,,,,"03,1,+00600,1,09,1",,"08,99,1,08,1,08,1,00800,1,00,1,00,1",,"01,9",,"120,M,+0290,1","180,N,+0154,1","99999,9,08210,1","2,1,013,1,+024,1",,,"SYN130AAXX  28001 76373 32580 83201 10188 20167 38210 40157 52013 88800 92355 333 10290 20154 30/// 50291 56900 58024 70075 83920 85725;",
"76373099999","2012-07-28T03:00:00","4","25.35","-105.75","1967.0","TEPEHUANES DGO., MX","FM-12","99999","V020","290,1,N,0010,1","01200,1,C,N","001000,1,N,1","+0176,1","+0166,1","10168,1",,,,,,"04,1,+00600,1,09,1",,"08,99,1,08,1,08,1,00800,1,00,1,00,1",,"01,9",,,,"99999,9,08220,1","2,1,010,1,-004,1",,,"SYN106AAXX  28031 76373 32510 82901 10176 20166 38220 40168 52010 88800 90255 333 30/// 56900 59004 84920 84725;",
"76373099999","2012-07-28T06:00:00","4","25.35","-105.75","1967.0","TEPEHUANES DGO., MX","FM-12","99999","V020","320,1,N,0010,1","01200,1,9,N","000500,1,N,1","+0170,1","+0162,1","10183,1",,,,,,"04,1,+00600,1,09,1",,"08,99,1,08,1,08,1,00800,1,00,1,00,1","0306,9","01,9",,"240,M,+0290,1","240,N,+0154,1","99999,9,08232,1","2,1,012,1,+017,1",,,"SYN130AAXX  28061 76373 32505 83201 10170 20162 38232 40183 52012 88800 90540 333 10290 20154 30/// 55051 20886 56900 58017 84920 84725;",
"76373099999","2012-07-28T12:00:00","4","25.35","-105.75","1967.0","TEPEHUANES DGO., MX","FM-12","99999","V020","999,9,C,0000,1","00600,1,9,N","000500,1,N,1","+0166,1","+0158,1","10173,1","24,0080,9,1",,,,,"07,1,+00600,1,07,1",,"07,99,1,07,1,07,1,00800,1,00,1,00,1",,"01,9",,"120,N,+0158,1","240,M,+0290,1","99999,9,08223,1","9,9,999,9,+015,1",,,"SYN118AAXX  28121 76373 32505 70000 10166 20158 38223 40173 5//// 87700 91150 333 10290 20158 30146 56900 58015 70080 87720;",
"76373099999","2012-07-28T15:00:00","4","25.35","-105.75","1967.0","TEPEHUANES DGO., MX","FM-12","99999","V020","999,9,C,0000,1","00600,1,9,N","030000,1,N,1","+0172,1","+0158,1","10188,1",,,,,,"08,1,+00600,1,07,1",,"08,99,1,08,1,08,1,00800,1,00,1,00,1",,"01,9",,,,"99999,9,08235,1","2,1,012,1,+021,1",,,"SYN100AAXX  28151 76373 32580 80000 10172 20158 38235 40188 52012 88800 91440 333 30/// 56900 58021 88720;",
"76373099999","2012-07-28T18:00:00","4","25.35","-105.75","1967.0","TEPEHUANES DGO., MX","FM-12","99999","V020","999,9,C,0000,1","00720,1,9,N","030000,1,N,1","+0205,1","+0158,1","10200,1",,,,,,"08,1,+00720,1,07,1",,"08,99,1,08,1,08,1,00800,1,00,1,00,1",,"01,9",,"120,M,+0210,1","240,N,+0158,1",,"2,1,010,1,+036,1",,,"SYN112AAXX  28181 76373 32580 80000 10205 20158 36245 40200 52010 88800 91745 333 10210 20158 30/// 56900 58036 88724;","Q01+062453APOSP "
"76373099999","2012-07-28T21:00:00","4","25.35","-105.75","1967.0","TEPEHUANES DGO., MX","FM-12","99999","V020","140,1,N,0020,1","00720,1,9,N","030000,1,N,1","+0211,1","+0152,1","10183,1",,,,,,"08,1,+00720,1,07,1",,"08,99,1,08,1,08,1,00800,1,00,1,00,1",,"01,9",,,,"99999,9,08232,1","7,1,013,1,+040,1",,,"SYN100AAXX  28211 76373 32580 81402 10211 20152 38232 40183 57013 88800 92050 333 30/// 56900 58040 88724;",
"76373099999","2012-07-29T00:00:00","4","25.35","-105.75","1967.0","TEPEHUANES DGO., MX","FM-12","99999","V020","999,9,C,0000,1","00750,1,9,N","020000,1,N,1","+0186,1","+0158,1","10163,1","24,0104,9,1",,,,,,,"08,99,1,08,1,07,1,00800,1,00,1,00,1",,"09,9",,"120,M,+0267,1","180,N,+0158,1","99999,9,08216,1","7,1,021,1,-006,1",,,"SYN124AAXX  29001 76373 32570 80000 10186 20158 38216 40163 57021 88700 92350 333 10267 20158 31/// 50850 56900 59006 70104 88627;",
"76373099999","2012-07-29T03:00:00","4","25.35","-105.75","1967.0","TEPEHUANES DGO., MX","FM-12","99999","V020","999,9,C,0000,1","00810,1,9,N","005000,1,N,1","+0181,1","+0166,1","10184,1",,,,,,"08,1,+00810,1,06,1",,"08,99,1,08,1,07,1,00800,1,00,1,00,1",,"01,9",,,,"99999,9,08232,1","2,1,016,1,+012,1",,,"SYN100AAXX  29031 76373 32550 80000 10181 20166 38232 40184 52016 88700 90250 333 30/// 56900 58012 88627;",
"76373099999","2012-07-29T12:00:00","4","25.35","-105.75","1967.0","TEPEHUANES DGO., MX","FM-12","99999","V020","999,9,C,0000,1","00750,1,9,N","005000,1,N,1","+0157,1","+0151,1","10195,1","24,0104,9,1",,,,,,,"08,99,1,08,1,07,1,00800,1,00,1,00,1","0084,9","01,9",,"120,N,+0148,1","240,M,+0267,1","99999,9,08241,1","9,9,999,9,+033,1",,,"SYN130AAXX  29121 76373 32550 80000 10157 20151 38241 40195 5//// 88700 91150 333 10267 20148 30135 55014 21530 56900 58033 70104 88627;",
"76373099999","2012-07-29T15:00:00","4","25.35","-105.75","1967.0","TEPEHUANES DGO., MX","FM-12","99999","V020","999,9,C,0000,1","22000,1,9,N","020000,1,N,1","+0193,1","+0148,1","10196,1",,,,,,"04,1,+00810,1,08,1",,"04,99,1,04,1,04,1,00800,1,00,1,00,1",,"01,9",,,,"99999,9,08242,1","2,1,001,1,+007,1",,,"SYN100AAXX  29151 76373 32570 40000 10193 20148 38242 40196 52001 84400 91450 333 30/// 56900 58007 84827;",
"76373099999","2012-07-29T18:00:00","4","25.35","-105.75","1967.0","TEPEHUANES DGO., MX","FM-12","99999","V020","999,9,C,0000,1","22000,1,9,N","020000,1,N,1","+0255,1","+0132,1","10190,1",,,,,,"03,1,+00810,1,08,1",,"03,99,1,03,1,02,1,00800,1,00,1,00,1",,"01,9",,"120,M,+0260,1","240,N,+0148,1","99999,9,08237,1","7,1,005,1,-008,1",,,"SYN112AAXX  29181 76373 32570 30000 10255 20132 38237 40190 57005 83200 91750 333 10260 20148 30/// 56900 59008 83827;",
"76373099999","2012-07-29T21:00:00","4","25.35","-105.75","1967.0","TEPEHUANES DGO., MX","FM-12","99999","V020","140,1,N,0010,1","22000,1,9,N","020000,1,N,1","+0288,1","+0130,1","10156,1",,,,,,"03,1,+00810,1,08,1",,"03,99,1,03,1,02,1,00800,1,00,1,00,1",,"01,9",,,,"99999,9,08210,1","7,1,027,1,-027,1",,,"SYN100AAXX  29211 76373 32570 31401 10288 20130 38210 40156 57027 83200 92050 333 30/// 56900 59027 83827;",
"76373099999","2012-07-30T03:00:00","4","25.35","-105.75","1967.0","TEPEHUANES DGO., MX","FM-12","99999","V020","999,9,C,0000,1","00810,1,9,N","005000,1,N,1","+0163,1","+0144,1","10186,1","03,0160,9,1",,,,,"08,1,+00810,1,06,1",,"08,99,1,08,1,07,1,00800,1,00,1,00,1",,"09,9",,,,"99999,9,08234,1","2,1,013,1,+002,1",,,"SYN106AAXX  30031 76373 22550 80000 10163 20144 38234 40186 52013 88700 90250 333 31/// 56900 58002 60167 88627;",
"76373099999","2012-07-30T12:00:00","4","25.35","-105.75","1967.0","TEPEHUANES DGO., MX","FM-12","99999","V020","999,9,C,0000,1","22000,1,9,N","005000,1,N,1","+0126,1","+0117,1","10182,1",,,,,,"00,1,+99999,9,99,9",,"00,99,1,00,1,00,1,99999,9,00,1,00,1","0564,9","01,9",,"120,N,+0115,1","240,M,+0300,1","99999,9,08231,1","9,9,999,9,-010,1",,,"SYN112AAXX  30121 76373 32950 00000 10126 20117 38231 40182 5//// 91150 333 10300 20115 30106 55094 21868 59010 70155;",
"76373099999","2012-07-30T15:00:00","4","25.35","-105.75","1967.0","TEPEHUANES DGO., MX","FM-12","99999","V020","999,9,C,0000,1","22000,1,9,N","020000,1,N,1","+0164,1","+0130,1","10195,1",,,,,,"00,1,+99999,9,99,9",,"00,99,1,00,1,00,1,99999,9,00,1,00,1",,"01,9",,,,"99999,9,08241,1","2,1,010,1,-001,1",,,"SYN082AAXX  30151 76373 32970 00000 10164 20130 38241 40195 52010 91440 333 30/// 59001;",
"76373099999","2012-07-30T18:00:00","4","25.35","-105.75","1967.0","TEPEHUANES DGO., MX","FM-12","99999","V020","999,9,C,0000,1","22000,1,9,N","030000,1,N,1","+0262,1","+0147,1","10192,1",,,,,,"02,1,+00750,1,08,1",,"02,99,1,02,1,02,1,00800,1,00,1,00,1",,"01,9",,"120,M,+0270,1","240,N,+0115,1","99999,9,08238,1","2,1,027,1,+001,1",,,"SYN112AAXX  30181 76373 32580 20000 10262 20147 38238 40192 52027 82200 91750 333 10270 20115 30/// 56900 58001 82825;",
"76373099999","2012-07-30T21:00:00","4","25.35","-105.75","1967.0","TEPEHUANES DGO., MX","FM-12","99999","V020","140,1,N,0020,1","00750,1,9,N","030000,1,N,1","+0295,1","+0141,1","10160,1",,,,,,"05,1,+00750,1,08,1",,"05,99,1,05,1,05,1,00800,1,00,1,00,1",,"01,9",,,,"99999,9,08213,1","7,1,025,1,+003,1",,,"SYN100AAXX  30211 76373 32580 51402 10295 20141 38213 40160 57025 85500 92050 333 30/// 56900 58003 85825;",
"76373099999","2012-07-31T00:00:00","4","25.35","-105.75","1967.0","TEPEHUANES DGO., MX","FM-12","99999","V020","340,1,N,0010,1","00750,1,9,N","030000,1,N,1","+0257,1","+0125,1","10158,1","24,0167,9,1",,,,,,,"05,99,1,05,1,05,1,00800,1,00,1,00,1",,"01,9",,"120,M,+0302,1","180,N,+0115,1","99999,9,08211,1","7,1,002,1,+001,1",,,"SYN124AAXX  31001 76373 32580 53401 10257 20125 38211 40158 57002 85500 92350 333 10302 20115 30/// 50771 56900 58001 70167 85825;",
"76373099999","2012-07-31T06:00:00","4","25.35","-105.75","1967.0","TEPEHUANES DGO., MX","FM-12","99999","V020","999,9,C,0000,1","22000,1,9,N","001000,1,N,1","+0153,1","+0149,1","10229,1",,,,,,,,"04,99,1,04,1,04,1,00800,1,00,1,00,1","0600,9","01,9",,"240,M,+0302,1","240,N,+0115,1","99999,9,08265,1","2,1,002,1,+036,1",,,"SYN124AAXX  31061 76373 32510 40000 10153 20149 38265 40229 52002 84400 90550 333 10302 20115 30/// 55100 21748 56900 58036 84825;",
"76373099999","2012-07-31T12:00:00","4","25.35","-105.75","1967.0","TEPEHUANES DGO., MX","FM-12","99999","V020","999,9,C,0000,1","22000,1,9,N","001000,1,N,1","+0131,1","+0126,1","10210,1","24,0044,9,1",,,,,"02,1,+00750,1,08,1",,"02,99,1,02,1,02,1,00800,1,00,1,00,1",,"01,9",,"120,N,+0120,1","240,M,+0302,1","99999,9,08253,1","9,9,999,9,+022,1",,,"SYN118AAXX  31121 76373 32510 20000 10131 20126 38253 40210 5//// 82200 91150 333 10302 20120 30113 56900 58022 70044 82825;",
"76373099999","2012-07-31T15:00:00","4","25.35","-105.75","1967.0","TEPEHUANES DGO., MX","FM-12","99999","V020","999,9,C,0000,1","22000,1,9,N","020000,1,N,1","+0182,1","+0141,1","99999,9",,,,,,"04,1,+00750,1,08,1",,"04,99,1,04,1,04,1,00800,1,00,1,00,1",,"01,9",,,,"99999,9,08256,1","2,1,003,1,+045,1",,,"SYN100AAXX  31151 76373 32570 40000 10182 20141 38256 40123 52003 84400 91450 333 30/// 56900 58045 84825;","Q01+101233APOSLP"
"76373099999","2012-07-31T18:00:00","4","25.35","-105.75","1967.0","TEPEHUANES DGO., MX","FM-12","99999","V020","999,9,C,0000,1","22000,1,9,N","030000,1,N,1","+0253,1","+0133,1","10211,1",,,,,,"02,1,+00750,1,08,1",,"02,99,1,02,1,02,1,00800,1,00,1,00,1",,"01,9",,"120,M,+0260,1","240,N,+0120,1","99999,9,08296,1","7,1,020,1,+008,1",,,"SYN112AAXX  31181 76373 32580 20000 10253 20133 38296 40211 57020 82200 91755 333 10260 20120 30/// 56900 58008 82825;",
"76373099999","2012-07-31T21:00:00","4","25.35","-105.75","1967.0","TEPEHUANES DGO., MX","FM-12","99999","V020","140,1,N,0020,1","22000,1,9,N","030000,1,N,1","+0295,1","+0125,1","10163,1",,,,,,"04,1,+00600,1,07,1",,"04,99,1,04,1,04,1,00800,1,00,1,00,1",,"01,9",,,,"99999,9,08216,2","7,1,030,1,+003,1",,,"SYN100AAXX  31211 76373 32580 41402 10295 20125 38216 40163 57030 84400 92050 333 30/// 56900 58003 84720;",
"76373099999","2012-08-01T00:00:00","4","25.35","-105.75","1967.0","TEPEHUANES DGO., MX","FM-12","99999","V020","160,1,N,0010,1","22000,1,9,N","030000,1,N,1","+0282,1","+0110,1","10163,1","24,0044,9,1",,,,,,,"02,99,1,02,1,02,1,00800,1,00,1,00,1",,"01,9",,"120,M,+0300,1","180,N,+0120,1","99999,9,08216,1","4,1,000,1,+005,1",,,"SYN124AAXX  01001 76373 32580 21601 10282 20110 38216 40163 54000 82200 92350 333 10300 20120 30/// 50480 56900 58005 70044 82720;",
"76373099999","2012-08-01T03:00:00","4","25.35","-105.75","1967.0","TEPEHUANES DGO., MX","FM-12","99999","V020","999,9,C,0000,1","00600,1,9,N","001000,1,N,1","+0229,1","+0123,1","10182,1",,,,,,"06,1,+00600,1,07,1",,"06,99,1,06,1,06,1,00800,1,00,1,00,1",,"01,9",,,,"99999,9,08230,1","2,1,026,1,+006,1",,,"SYN100AAXX  01031 76373 32510 60000 10229 20123 38230 40182 52026 86600 90250 333 30/// 56900 58006 86720;",
"76373099999","2012-08-01T06:00:00","4","25.35","-105.75","1967.0","TEPEHUANES DGO., MX","FM-12","99999","V020","999,9,C,0000,1","00750,1,9,N","001000,1,N,1","+0229,1","+0123,1","10167,1",,,,,,,,"07,99,1,07,1,07,1,00800,1,00,1,00,1","0552,9","01,9",,"240,M,+0300,1","240,N,+0120,1","99999,9,08218,1","7,1,012,1,-051,1",,,"SYN124AAXX  01061 76373 32510 70000 10229 20123 38218 40167 57012 87700 90550 333 10300 20120 30/// 55092 21909 56900 59051 87725;",
"76373099999","2012-08-01T18:00:00","4","25.35","-105.75","1967.0","TEPEHUANES DGO., MX","FM-12","99999","V020","999,9,C,0000,1","22000,1,9,N","030000,1,N,1","+0268,1","+0126,1","10203,1",,,,,,"00,1,+99999,9,99,9",,"00,99,1,00,1,00,1,99999,9,00,1,00,1",,"01,9",,"120,M,+0272,1","240,N,+0115,1","99999,9,08248,1","2,1,006,1,+002,1",,,"SYN094AAXX  01181 76373 32980 00000 10268 20126 38248 40203 52006 91750 333 10272 20115 30/// 58002;",
"76373099999","2012-08-01T21:00:00","4","25.35","-105.75","1967.0","TEPEHUANES DGO., MX","FM-12","99999","V020","160,1,N,0020,1","22000,1,9,N","030000,1,N,1","+0308,1","+0108,1","10159,1",,,,,,"02,1,+00750,1,08,1",,"02,99,1,02,1,02,1,00800,1,00,1,00,1",,"01,9",,,,"99999,9,08212,1","7,1,036,1,-004,1",,,"SYN100AAXX  01211 76373 32580 21602 10308 20108 38212 40159 57036 82200 92050 333 30/// 56900 59004 82825;",
"76373099999","2012-08-02T12:00:00","4","25.35","-105.75","1967.0","TEPEHUANES DGO., MX","FM-12","99999","V020","999,9,C,0000,1","22000,1,9,N","001000,1,N,1","+0135,1","+0118,1","10190,1","24,0000,9,1",,,,,"00,1,+99999,9,99,9",,"00,99,1,00,1,00,1,99999,9,00,1,00,1",,"01,9",,"120,N,+0125,1","240,M,+0340,1","99999,9,08237,1","9,9,999,9,+016,1",,,"SYN100AAXX  02121 76373 32910 00000 10135 20118 38237 40190 5//// 91155 333 10340 20125 30113 58016 70000;","Q01  00002PRCP24"
"76373099999","2012-08-02T15:00:00","4","25.35","-105.75","1967.0","TEPEHUANES DGO., MX","FM-12","99999","V020","999,9,C,0000,1","22000,1,9,N","020000,1,N,1","+0225,1","+0125,1","10185,1",,,,,,"00,1,+99999,9,99,9",,"00,99,1,00,1,00,1,99999,9,00,1,00,1",,"01,9",,,,"99999,9,08233,1","7,1,011,1,+011,1",,,"SYN082AAXX  02151 76373 32970 00000 10225 20125 38233 40185 57011 91455 333 30/// 58011;",
"76373099999","2012-08-02T18:00:00","4","25.35","-105.75","1967.0","TEPEHUANES DGO., MX","FM-12","99999","V020","999,9,C,0000,1","22000,1,9,N","030000,1,N,1","+0280,1","+0117,1","10178,1",,,,,,"00,1,+99999,9,99,9",,"00,99,1,00,1,00,1,99999,9,00,1,00,1",,"01,9",,"120,M,+0290,1","240,N,+0125,1","99999,9,08228,1","7,1,010,1,-020,1",,,"SYN094AAXX  02181 76373 32980 00000 10280 20117 38228 40178 57010 91750 333 10290 20125 30/// 59020;",
"76373099999","2012-08-02T21:00:00","4","25.35","-105.75","1967.0","TEPEHUANES DGO., MX","FM-12","99999","V020","160,1,N,0010,1","22000,1,9,N","030000,1,N,1","+0323,1","+0106,1","10144,1",,,,,,"02,1,+00600,1,07,1",,"02,99,1,02,1,02,1,00800,1,00,1,00,1",,"01,9",,,,"99999,9,08200,1","2,1,028,1,-012,1",,,"SYN100AAXX  02211 76373 32580 21601 10323 20106 38200 40144 52028 82200 92050 333 30/// 56900 59012 82720;",
"76373099999","2012-08-03T00:00:00","4","25.35","-105.75","1967.0","TEPEHUANES DGO., MX","FM-12","99999","V020","110,1,N,0010,1","22000,1,9,N","030000,1,N,1","+0285,1","+0119,1","10127,1","24,0000,9,1",,,,,,,"03,99,1,03,1,03,1,00800,1,00,1,00,1",,"01,9",,"120,M,+0342,1","180,N,+0125,1","99999,9,08186,1","7,1,014,1,-016,1",,,"SYN124AAXX  03001 76373 32580 31101 10285 20119 38186 40127 57014 83300 92350 333 10342 20125 30/// 50102 56900 59016 70000 83720;",
"76373099999","2012-08-03T12:00:00","4","25.35","-105.75","1967.0","TEPEHUANES DGO., MX","FM-12","99999","V020","999,9,C,0000,1","22000,1,9,N","001000,1,N,1","+0134,1","+0122,1","10165,1","24,0000,9,1",,,,,"00,1,+99999,9,99,9",,"00,99,1,00,1,00,1,99999,9,00,1,00,1",,"01,9",,"120,N,+0125,1","240,M,+0342,1","99999,9,08217,1","9,9,999,9,-027,1",,,"SYN100AAXX  03121 76373 32910 00000 10134 20122 38217 40165 5//// 91150 333 10342 20125 30116 59027 70000;","Q01  00002PRCP24"
"76373099999","2012-08-03T15:00:00","4","25.35","-105.75","1967.0","TEPEHUANES DGO., MX","FM-12","99999","V020","999,9,C,0000,1","22000,1,9,N","020000,1,N,1","+0219,1","+0142,1","10163,1",,,,,,"00,1,+99999,9,99,9",,"00,99,1,00,1,00,1,99999,9,00,1,00,1",,"01,9",,,,"99999,9,08216,1","7,1,001,1,-022,1",,,"SYN082AAXX  03151 76373 32970 00000 10219 20142 38216 40163 57001 91455 333 30/// 59022;",
"76373099999","2012-08-04T00:00:00","4","25.35","-105.75","1967.0","TEPEHUANES DGO., MX","FM-12","99999","V020","999,9,C,0000,1","22000,1,9,N","030000,1,N,1","+0340,1","+0132,1","10155,1","24,0012,9,1",,,,,,,"04,99,1,04,1,04,1,00800,1,00,1,00,1",,"01,9",,"120,M,+0365,1","180,N,+0125,1","99999,9,08177,1","9,9,999,9,-009,1",,,"SYN124AAXX  04001 76373 32580 40000 10340 20132 38177 40155 5//// 84400 92355 333 10365 20125 30/// 50601 56900 59009 70012 84825;",
"76373099999","2012-08-04T12:00:00","4","25.35","-105.75","1967.0","TEPEHUANES DGO., MX","FM-12","99999","V020","999,9,C,0000,1","22000,1,9,N","001000,1,N,1","+0146,1","+0135,1","10155,1","24,0020,9,1",,,,,"00,1,+99999,9,99,9",,"00,99,1,00,1,00,1,99999,9,00,1,00,1",,"01,9",,"120,N,+0133,1","240,M,+0365,1","99999,9,08209,1","9,9,999,9,-008,1",,,"SYN100AAXX  04121 76373 32910 00000 10146 20135 38209 40155 5//// 91155 333 10365 20133 30126 59008 70021;",
"76373099999","2012-08-06T15:00:00","4","25.35","-105.75","1967.0","TEPEHUANES DGO., MX","FM-12","99999","V020","999,9,C,0000,1","22000,1,9,N","020000,1,N,1","+0184,1","+0155,1","10203,1",,,,,,"03,1,+00600,1,07,1",,"03,99,1,03,1,03,1,00800,1,00,1,00,1",,"01,9",,,,"99999,9,08248,1","2,1,021,1,+006,1",,,"SYN100AAXX  06151 76373 32570 30000 10184 20155 38248 40203 52021 83300 91450 333 30/// 56900 58006 83720;",
"76373099999","2012-08-06T18:00:00","4","25.35","-105.75","1967.0","TEPEHUANES DGO., MX","FM-12","99999","V020","999,9,C,0000,1","22000,1,9,N","030000,1,N,1","+0259,1","+0131,1","10201,1",,,,,,"04,1,+00600,1,07,1",,"04,99,1,04,1,04,1,00800,1,00,1,00,1",,"01,9",,"120,M,+0270,1","240,N,+0152,1","99999,9,08246,1","2,1,002,1,+007,1",,,"SYN112AAXX  06181 76373 32580 40000 10259 20131 38246 40201 52002 84400 91745 333 10270 20152 30/// 56900 58007 84720;",
"76373099999","2012-08-06T21:00:00","4","25.35","-105.75","1967.0","TEPEHUANES DGO., MX","FM-12","99999","V020","290,1,N,0010,1","00750,1,9,N","030000,1,N,1","+0218,1","+0154,1","10176,1",,,,,,"05,1,+00750,1,07,1",,"05,99,1,05,1,05,1,00800,1,00,1,00,1",,"01,9",,,,"99999,9,08226,1","7,1,020,1,-006,1",,,"SYN100AAXX  06211 76373 32580 52901 10218 20154 38226 40176 57020 85500 92050 333 30/// 56900 59006 85725;",
"76373099999","2012-08-07T00:00:00","4","25.35","-105.75","1967.0","TEPEHUANES DGO., MX","FM-12","99999","V020","160,1,N,0020,1","22000,1,9,N","030000,1,N,1","+0272,1","+0116,1","10160,1","24,0051,9,1",,,,,,,"04,99,1,04,1,04,1,00800,1,00,1,00,1",,"01,9",,"120,M,+0305,1","180,N,+0152,1","99999,9,08213,1","7,1,013,1,+007,1",,,"SYN124AAXX  07001 76373 32580 41602 10272 20116 38213 40160 57013 84400 92350 333 10305 20152 30/// 50691 56900 58007 70051 84825;",
"76373099999","2012-08-07T12:00:00","4","25.35","-105.75","1967.0","TEPEHUANES DGO., MX","FM-12","99999","V020","999,9,C,0000,1","22000,1,9,N","001000,1,N,1","+0144,1","+0143,1","10143,1","24,0061,9,1",,,,,"00,1,+99999,9,99,9",,"00,99,1,00,1,00,1,99999,9,00,1,00,1",,"01,9",,"120,N,+0135,1","240,M,+0305,1","99999,9,08240,1","9,9,999,9,+019,1",,,"SYN100AAXX  07121 76373 32910 00000 10144 20143 38240 40143 5//// 91150 333 10305 20135 30127 58019 70060;",
"76373099999","2012-08-07T21:00:00","4","25.35","-105.75","1967.0","TEPEHUANES DGO., MX","FM-12","99999","V020","140,1,N,0020,1","00750,1,9,N","020000,1,N,1","+0282,1","+0135,1","10170,1",,,,,,"05,1,+00750,1,06,1",,"05,99,1,05,1,05,1,00800,1,00,1,00,1",,"01,9",,,,"99999,9,08221,1","0,1,005,1,-005,1",,,"SYN100AAXX  07211 76373 32570 51402 10282 20135 38221 40170 50005 85500 92050 333 30/// 56900 59005 85625;",
"76373099999","2012-08-08T00:00:00","4","25.35","-105.75","1967.0","TEPEHUANES DGO., MX","FM-12","99999","V020","070,1,N,0010,1","00750,1,9,N","020000,1,N,1","+0260,1","+0114,1","10143,1","24,0006,9,1",,,,,,,"06,99,1,06,1,05,1,00800,1,00,1,00,1",,"01,9",,"120,M,+0304,1","180,N,+0135,1","99999,9,08199,1","7,1,022,1,-014,1",,,"SYN124AAXX  08001 76373 32570 60701 10260 20114 38199 40143 57022 86500 92350 333 10304 20135 30/// 50601 56900 59014 70006 86623;",
"76373099999","2012-08-08T12:00:00","4","25.35","-105.75","1967.0","TEPEHUANES DGO., MX","FM-12","99999","V020","999,9,C,0000,1","22000,1,9,N","001000,1,N,1","+0130,1","+0124,1","10147,1","24,0000,9,1",,,,,"03,1,+05100,1,00,1",,"03,99,1,00,1,00,1,99999,9,00,1,04,1",,"01,9",,"120,N,+0121,1","240,M,+0304,1","99999,9,08227,1","9,9,999,9,-013,1",,,"SYN118AAXX  08121 76373 32910 30000 10130 20124 38227 40147 5//// 80004 91150 333 10304 20121 30107 56009 59013 70000 83067;",
"76373099999","2012-08-08T18:00:00","4","25.35","-105.75","1967.0","TEPEHUANES DGO., MX","FM-12","99999","V020","999,9,C,0000,1","22000,1,9,N","020000,1,N,1","+0273,1","+0143,1","10172,1",,,,,,"02,1,+00900,1,08,1",,"03,99,1,02,1,02,1,00800,1,00,1,04,1",,"01,9",,"120,M,+0280,1","240,N,+0121,1","99999,9,08222,1","7,1,012,1,+006,1",,,"SYN112AAXX  08181 76373 32570 30000 10273 20143 38222 40172 57012 82204 91750 333 10280 20121 30/// 56909 58006 82830;",
"76373099999","2012-08-08T21:00:00","4","25.35","-105.75","1967.0","TEPEHUANES DGO., MX","FM-12","99999","V020","140,1,N,0010,1","22000,1,9,N","020000,1,N,1","+0300,1","+0099,1","10149,1",,,,,,"04,1,+00750,1,06,1",,"04,99,1,04,1,04,1,00800,1,00,1,00,1",,"01,9",,,,"99999,9,08204,1","7,1,018,1,-017,1",,,"SYN100AAXX  08211 76373 32570 41401 10300 20099 38204 40149 57018 84400 92050 333 30/// 56900 59017 84625;",
"76373099999","2012-08-09T00:00:00","4","25.35","-105.75","1967.0","TEPEHUANES DGO., MX","FM-12","99999","V020","999,9,C,0000,1","00750,1,9,N","020000,1,N,1","+0214,1","+0142,1","10144,1","24,9999,9,9",,,,,,,"08,99,1,99,9,09,1,00800,1,00,1,00,1",,"01,9",,"120,M,+0319,1","180,N,+0121,1","99999,9,08200,1","5,1,004,1,+001,1",,,"SYN124AAXX  09001 76373 32570 80000 10214 20142 38200 40144 55004 87900 92350 333 10319 20121 30/// 50661 56900 58001 79999 87923;","Q01+000072SCOTLCQ02  99992PRCP24"
"76373099999","2012-08-09T03:00:00","4","25.35","-105.75","1967.0","TEPEHUANES DGO., MX","FM-12","99999","V020","999,9,C,0000,1","99999,9,9,N","000400,1,N,1","+0184,1","+0144,1","99999,9",,,,,,,,"07,99,1,99,9,99,9,00800,1,99,9,99,9",,,,,,,,,,"SYN102AAXX  09031 76373 32504 70000 10184 20144 30/// 38215 40162 52015 56900 59000 59006 87700 87723 90250;",
"76373099999","2012-08-09T12:00:00","4","25.35","-105.75","1967.0","TEPEHUANES DGO., MX","FM-12","99999","V020","999,9,C,0000,1","22000,1,9,N","001000,1,N,1","+0152,1","+0146,1","10169,1","24,0018,9,1",,,,,,,"04,99,1,99,9,05,1,00800,1,00,1,00,1","0492,9","01,9",,"120,N,+0141,1","240,M,+0319,1","99999,9,08220,1","9,9,999,9,-007,1",,,"SYN130AAXX  09121 76373 32510 40000 10152 20146 38220 40169 5//// 83500 91150 333 10319 20141 30133 55082 21578 56900 59007 70018 83525;","Q01+000032SCOTLC"
"76373099999","2012-08-09T15:00:00","4","25.35","-105.75","1967.0","TEPEHUANES DGO., MX","FM-12","99999","V020","999,9,C,0000,1","00690,1,9,N","020000,1,N,1","+0170,1","+0146,1","10181,1",,,,,,"07,1,+00690,1,07,1",,"07,99,1,07,1,07,1,00800,1,00,1,00,1",,"01,9",,,,"99999,9,08230,1","2,1,010,1,-004,1",,,"SYN100AAXX  09151 76373 32570 70000 10170 20146 38230 40181 52010 87700 91450 333 30/// 56900 59004 87723;",
"76373099999","2012-08-09T21:00:00","4","25.35","-105.75","1967.0","TEPEHUANES DGO., MX","FM-12","99999","V020","140,1,N,0020,1","22000,1,9,N","030000,1,N,1","+0282,1","+0117,1","10144,1",,,,,,"03,1,+00750,1,08,1",,"03,99,1,03,1,03,1,00800,1,00,1,00,1",,"01,9",,,,"99999,9,08200,1","7,1,010,1,-004,1",,,"SYN100AAXX  09211 76373 32580 31402 10282 20117 38200 40144 57010 83300 92050 333 30/// 56900 59004 83825;",
"76373099999","2012-08-10T00:00:00","4","25.35","-105.75","1967.0","TEPEHUANES DGO., MX","FM-12","99999","V020","110,1,N,0020,1","22000,1,9,N","030000,1,N,1","+0274,1","+0119,1","10127,1","24,0000,9,1",,,,,,,"04,99,1,04,1,04,1,00800,1,00,1,00,1",,"01,9",,"120,M,+0300,1","180,N,+0141,1","99999,9,08186,1","7,1,014,1,-014,1",,,"SYN124AAXX  10001 76373 32580 41102 10274 20119 38186 40127 57014 84400 92350 333 10300 20141 30/// 50511 56900 59014 70000 84820;",
"76373099999","2012-08-10T03:00:00","4","25.35","-105.75","1967.0","TEPEHUANES DGO., MX","FM-12","99999","V020","160,1,N,0010,1","00750,1,9,N","001000,1,N,1","+0192,1","+0128,1","10154,1",,,,,,"02,1,+00600,1,07,1",,"05,99,1,05,1,05,1,00800,1,00,1,00,1",,"01,9",,,,"99999,9,08208,1","2,1,022,1,-007,1",,,"SYN106AAXX  10031 76373 32510 51601 10192 20128 38208 40154 52022 85500 90250 333 30/// 56900 59007 82720 83825;",
"76373099999","2012-08-10T06:00:00","4","25.35","-105.75","1967.0","TEPEHUANES DGO., MX","FM-12","99999","V020","200,1,N,0010,1","22000,1,9,N","000500,1,N,1","+0166,1","+0128,1","10160,1",,,,,,"02,1,+00600,1,07,1",,"04,99,1,04,1,04,1,00800,1,00,1,00,1","0468,9","01,9",,"240,M,+0300,1","240,N,+0141,1","99999,9,08213,1","1,1,005,1,-015,1",,,"SYN130AAXX  10061 76373 32505 42001 10166 20128 38213 40160 51005 84400 90550 333 10300 20141 30/// 55078 21819 56900 59015 82720 82825;",
"76373099999","2012-08-10T12:00:00","4","25.35","-105.75","1967.0","TEPEHUANES DGO., MX","FM-12","99999","V020","999,9,C,0000,1","22000,1,9,N","001000,1,N,1","+0132,1","+0122,1","10155,1","24,0000,9,1",,,,,"01,1,+00600,1,08,1",,"02,99,1,02,1,01,1,00800,1,01,1,00,1",,"01,9",,"120,N,+0124,1","240,M,+0300,1","99999,9,08209,1","9,9,999,9,-011,1",,,"SYN124AAXX  10121 76373 32510 20000 10132 20122 38209 40155 5//// 82110 91150 333 10300 20124 30118 56990 59011 70000 81820 81337;",
"76373099999","2012-08-10T15:00:00","4","25.35","-105.75","1967.0","TEPEHUANES DGO., MX","FM-12","99999","V020","110,1,N,0010,1","22000,1,9,N","030000,1,N,1","+0230,1","+0137,1","10165,1",,,,,,"01,1,+00750,1,08,1",,"02,99,1,01,1,01,1,00800,1,00,1,01,1",,"01,9",,,,"99999,9,08217,1","7,1,008,1,-013,1",,,"SYN106AAXX  10151 76373 32580 21101 10230 20137 38217 40165 57008 81101 91455 333 30/// 56909 59013 81825 81060;",
"76373099999","2012-08-10T18:00:00","4","25.35","-105.75","1967.0","TEPEHUANES DGO., MX","FM-12","99999","V020","140,1,N,0020,1","22000,1,9,N","030000,1,N,1","+0258,1","+0128,1","10155,1",,,,,,"04,1,+00750,1,06,1",,"04,99,1,04,1,04,1,00800,1,00,1,00,1",,"01,9",,"120,M,+0270,1","240,N,+0124,1","99999,9,08209,1","7,1,008,1,+000,1",,,"SYN112AAXX  10181 76373 32580 41402 10258 20128 38209 40155 57008 84400 91755 333 10270 20124 30/// 56900 58000 84625;",
"76373099999","2012-08-10T21:00:00","4","25.35","-105.75","1967.0","TEPEHUANES DGO., MX","FM-12","99999","V020","140,1,N,0020,1","00750,1,C,N","030000,1,N,1","+0290,1","+0105,1","10136,1",,,,,,"04,1,+00600,1,07,1",,"05,99,1,05,1,05,1,00800,1,00,1,00,1",,"01,9",,,,"99999,9,08194,1","7,1,015,1,-006,1",,,"SYN100AAXX  10211 76373 32580 51402 10290 20105 38194 40136 57015 85500 92055 333 30/// 56900 59006 84720;",
"76373099999","2012-08-11T00:00:00","4","25.35","-105.75","1967.0","TEPEHUANES DGO., MX","FM-12","99999","V020","070,1,N,0010,1","22000,1,9,N","030000,1,N,1","+0238,1","+0152,1","10127,1","24,0010,9,1",,,,,,,"04,99,1,04,1,04,1,00800,1,00,1,00,1",,"01,9",,"120,M,+0318,1","180,N,+0124,1","99999,9,08187,1","5,1,007,1,+001,1",,,"SYN124AAXX  11001 76373 32580 40701 10238 20152 38187 40127 55007 84400 92355 333 10318 20124 30/// 50871 56900 58001 70010 84720;",
"76373099999","2012-08-11T03:00:00","4","25.35","-105.75","1967.0","TEPEHUANES DGO., MX","FM-12","99999","V020","110,1,N,0010,1","22000,1,9,N","001000,1,N,1","+0192,1","+0144,1","10131,1",,,,,,"01,1,+00750,1,08,1",,"01,99,1,01,1,01,1,00800,1,00,1,00,1",,"01,9",,,,"99999,9,08190,1","5,1,003,1,-018,1",,,"SYN100AAXX  11031 76373 32510 11101 10192 20144 38190 40131 55003 81100 90255 333 30/// 56900 59018 81825;",
"76373099999","2012-08-11T06:00:00","4","25.35","-105.75","1967.0","TEPEHUANES DGO., MX","FM-12","99999","V020","200,1,N,0010,1","22000,1,9,N","000500,1,N,1","+0158,1","+0139,1","10147,1",,,,,,,,"01,99,1,01,1,01,1,00800,1,00,1,00,1","0540,9","01,9",,"240,M,+0318,1","240,N,+0124,1","99999,9,08202,1","2,1,012,1,-011,1",,,"SYN124AAXX  11061 76373 32505 12001 10158 20139 38202 40147 52012 81100 90550 333 10318 20124 30/// 55090 21087 56900 59011 81825;",
"76373099999","2012-08-11T15:00:00","4","25.35","-105.75","1967.0","TEPEHUANES DGO., MX","FM-12","99999","V020","999,9,C,0000,1","22000,1,9,N","030000,1,N,1","+0174,1","+0129,1","10160,1",,,,,,"01,1,+05100,1,00,1",,"01,99,1,00,1,00,1,99999,9,00,1,01,1",,"01,9",,,,"99999,9,08213,1","2,1,011,1,-004,1",,,"SYN100AAXX  11151 76373 32980 10000 10174 20129 38213 40160 52011 80001 91440 333 30/// 56009 59004 81067;",
"76373099999","2012-08-11T18:00:00","4","25.35","-105.75","1967.0","TEPEHUANES DGO., MX","FM-12","99999","V020","150,1,N,0020,1","22000,1,9,N","020000,1,N,1","+0278,1","+0098,1","10159,1",,,,,,"00,1,+99999,9,99,9",,"00,99,1,00,1,00,1,99999,9,00,1,00,1",,"01,9",,"120,M,+0285,1","240,N,+0110,1","99999,9,08212,1","7,1,001,1,+003,1",,,"SYN094AAXX  11181 76373 32970 01502 10278 20098 38212 40159 57001 91750 333 10285 20110 30/// 58003;",
"76373099999","2012-08-11T21:00:00","4","25.35","-105.75","1967.0","TEPEHUANES DGO., MX","FM-12","99999","V020","130,1,N,0010,1","22000,1,9,N","020000,1,N,1","+0313,1","+0096,1","10135,1",,,,,,"03,1,+00810,1,08,1",,"03,99,1,03,1,02,1,00800,1,00,1,00,1",,"01,9",,,,"99999,9,08193,1","7,1,019,1,-001,1",,,"SYN100AAXX  11211 76373 32570 31301 10313 20096 38193 40135 57019 83200 92050 333 30/// 56900 59001 83827;",
"76373099999","2012-08-12T00:00:00","4","25.35","-105.75","1967.0","TEPEHUANES DGO., MX","FM-12","99999","V020","060,1,N,0010,1","22000,1,9,N","020000,1,N,1","+0300,1","+0063,1","10127,1","24,0010,9,1",,,,,,,"02,99,1,02,1,02,1,00800,1,00,1,00,1",,"01,9",,"120,M,+0325,1","180,N,+0110,1","99999,9,08186,1","7,1,007,1,-001,1",,,"SYN124AAXX  12001 76373 32570 20601 10300 20063 38186 40127 57007 82200 92350 333 10325 20110 30/// 50561 56900 59001 70010 82827;",
"76373099999","2012-08-12T03:00:00","4","25.35","-105.75","1967.0","TEPEHUANES DGO., MX","FM-12","99999","V020","999,9,C,0000,1","22000,1,9,N","005000,1,N,1","+0223,1","+0072,1","10138,1",,,,,,"00,1,+99999,9,99,9",,"00,99,1,00,1,00,1,99999,9,00,1,00,1",,"01,9",,,,"99999,9,08195,1","2,1,009,1,+005,1",,,"SYN082AAXX  12031 76373 32950 00000 10223 20072 38195 40138 52009 90250 333 30/// 58005;",
"76373099999","2012-08-12T15:00:00","4","25.35","-105.75","1967.0","TEPEHUANES DGO., MX","FM-12","99999","V020","999,9,C,0000,1","22000,1,9,N","020000,1,N,1","+0192,1","+0110,1","10155,1",,,,,,"00,1,+99999,9,99,9",,"00,99,1,00,1,00,1,99999,9,00,1,00,1",,"01,9",,,,"99999,9,08209,1","4,1,000,1,+004,1",,,"SYN082AAXX  12151 76373 32970 00000 10192 20110 38209 40155 54000 91450 333 30/// 58004;",
"76373099999","2012-08-12T18:00:00","4","25.35","-105.75","1967.0","TEPEHUANES DGO., MX","FM-12","99999","V020","130,1,N,0010,1","22000,1,9,N","020000,1,N,1","+0295,1","+0075,1","10145,1",,,,,,"00,1,+99999,9,99,9",,"00,99,1,00,1,00,1,99999,9,00,1,00,1",,"01,9",,"120,M,+0300,1","240,N,+0110,1","99999,9,08201,1","2,1,002,1,-011,1",,,"SYN094AAXX  12181 76373 32970 01301 10295 20075 38201 40145 52002 91750 333 10300 20110 30/// 59011;",
"76373099999","2012-08-12T21:00:00","4","25.35","-105.75","1967.0","TEPEHUANES DGO., MX","FM-12","99999","V020","110,1,N,0010,1","22000,1,9,N","020000,1,N,1","+0310,1","+0068,1","10133,1",,,,,,"03,1,+00810,1,08,1",,"03,99,1,99,9,99,9,00800,1,99,9,99,9",,"01,9",,,,"99999,9,08191,1","7,1,010,1,-002,1",,,"SYN094AAXX  12211 76373 32570 31101 10310 20068 38191 40133 57010 92050 333 30/// 56900 59002 83827;",
"76373099999","2012-08-13T00:00:00","4","25.35","-105.75","1967.0","TEPEHUANES DGO., MX","FM-12","99999","V020","120,1,N,0010,1","22000,1,9,N","020000,1,N,1","+0301,1","+0059,1","10122,1","24,0000,9,1",,,,,,,"02,99,1,02,1,02,1,00800,1,00,1,00,1",,"01,9",,"120,M,+0334,1","180,N,+0110,1","99999,9,08182,1","7,1,009,1,-004,1",,,"SYN124AAXX  13001 76373 32570 21201 10301 20059 38182 40122 57009 82200 92350 333 10334 20110 30/// 50771 56900 59004 70000 82827;",
"76373099999","2012-08-13T03:00:00","4","25.35","-105.75","1967.0","TEPEHUANES DGO., MX","FM-12","99999","V020","999,9,C,0000,1","22000,1,9,N","005000,1,N,1","+0251,1","+0028,1","10136,1",,,,,,"00,1,+99999,9,99,9",,"00,99,1,00,1,00,1,99999,9,00,1,00,1",,"01,9",,,,"99999,9,08194,1","2,1,012,1,-001,1",,,"SYN082AAXX  13031 76373 32950 00000 10251 20028 38194 40136 52012 90250 333 30/// 59001;",
"76373099999","2012-08-13T06:00:00","4","25.35","-105.75","1967.0","TEPEHUANES DGO., MX","FM-12","99999","V020","999,9,C,0000,1","22000,1,9,N","005000,1,N,1","+0193,1","+0062,1","10147,1",,,,,,"00,1,+99999,9,99,9",,"00,99,1,00,1,00,1,99999,9,00,1,00,1","0672,9","01,9",,"240,M,+0334,1","240,N,+0110,1","99999,9,08202,1","2,1,008,1,+999,9",,,"SYN106AAXX  13061 76373 32950 00000 10193 20062 38202 40147 52008 90550 333 10334 20110 30/// 55112 21973 59005;",
"76373099999","2012-08-13T12:00:00","4","25.35","-105.75","1967.0","TEPEHUANES DGO., MX","FM-12","99999","V020","999,9,C,0000,1","22000,1,9,N","001000,1,N,1","+0117,1","+0089,1","10162,1","24,0000,9,1",,,,,"00,1,+99999,9,99,9",,"00,99,1,00,1,00,1,99999,9,00,1,00,1",,"01,9",,"120,N,+0105,1","240,M,+0334,1","99999,9,08214,1","9,9,999,9,+005,1",,,"SYN100AAXX  13121 76373 32910 00000 10117 20089 38214 40162 5//// 91150 333 10334 20105 30097 58005 70000;","Q01  00002PRCP24"
"76373099999","2012-08-13T15:00:00","4","25.35","-105.75","1967.0","TEPEHUANES DGO., MX","FM-12","99999","V020","999,9,C,0000,1","22000,1,9,N","020000,1,N,1","+0200,1","+0096,1","10176,1",,,,,,"00,1,+99999,9,99,9",,"00,99,1,00,1,00,1,99999,9,00,1,00,1",,"01,9",,,,"99999,9,08226,1","2,1,012,1,+017,1",,,"SYN082AAXX  13151 76373 32970 00000 10200 20096 38226 40176 52012 91450 333 30/// 58017;",
"76373099999","2012-08-13T18:00:00","4","25.35","-105.75","1967.0","TEPEHUANES DGO., MX","FM-12","99999","V020","160,1,N,0010,1","22000,1,9,N","030000,1,N,1","+0275,1","+0089,1","10170,1",,,,,,"02,1,+00750,1,08,1",,"02,99,1,02,1,02,1,00800,1,00,1,00,1",,"01,9",,"120,M,+0290,1","240,N,+0105,1","99999,9,08221,1","2,1,005,1,+020,1",,,"SYN112AAXX  13181 76373 32580 21601 10275 20089 38221 40170 52005 82200 91750 333 10290 20105 30/// 56900 58020 82825;",
"76373099999","2012-08-13T21:00:00","4","25.35","-105.75","1967.0","TEPEHUANES DGO., MX","FM-12","99999","V020","110,1,N,0020,1","22000,1,9,N","030000,1,N,1","+0300,1","+0065,1","10142,1",,,,,,"03,1,+00750,1,08,1",,"03,99,1,03,1,03,1,00800,1,00,1,00,1",,"01,9",,,,"99999,9,08198,1","7,1,023,1,+007,1",,,"SYN100AAXX  13211 76373 32580 31102 10300 20065 38198 40142 57023 83300 92050 333 30/// 56900 58007 83825;",
"76373099999","2012-08-14T00:00:00","4","25.35","-105.75","1967.0","TEPEHUANES DGO., MX","FM-12","99999","V020","110,1,N,0020,1","00750,1,9,N","030000,1,N,1","+0287,1","+0049,1","10128,1","24,0000,9,1",,,,,,,"05,99,1,05,1,05,1,00800,1,00,1,00,1",,"01,9",,"120,M,+0322,1","180,N,+0105,1","99999,9,08187,1","7,1,012,1,+005,1",,,"SYN124AAXX  14001 76373 32580 51102 10287 20049 38187 40128 57012 85500 92345 333 10322 20105 30/// 50650 56900 58005 70000 85720;",
"76373099999","2012-08-14T03:00:00","4","25.35","-105.75","1967.0","TEPEHUANES DGO., MX","FM-12","99999","V020","999,9,C,0000,1","22000,1,9,N","001000,1,N,1","+0209,1","+0098,1","10150,1",,,,,,"00,1,+99999,9,99,9",,"00,99,1,00,1,00,1,99999,9,00,1,00,1",,"01,9",,,,"99999,9,08205,1","2,1,018,1,+011,1",,,"SYN082AAXX  14031 76373 32910 00000 10209 20098 38205 40150 52018 90250 333 30/// 58011;",
"76373099999","2012-08-14T06:00:00","4","25.35","-105.75","1967.0","TEPEHUANES DGO., MX","FM-12","99999","V020","999,9,C,0000,1","22000,1,9,N","001000,1,N,1","+0177,1","+0122,1","10165,1",,,,,,"00,1,+99999,9,99,9",,"00,99,1,00,1,00,1,99999,9,00,1,00,1","0606,9","01,9",,"240,M,+0322,1","240,N,+0105,1","99999,9,08217,1","2,1,012,1,+999,9",,,"SYN106AAXX  14061 76373 32910 00000 10177 20122 38217 40165 52012 90545 333 10322 20105 30/// 55101 21119 58015;",
"76373099999","2012-08-14T12:00:00","4","25.35","-105.75","1967.0","TEPEHUANES DGO., MX","FM-12","99999","V020","999,9,C,0000,1","22000,1,9,N","001000,1,N,1","+0153,1","+9999,9","10169,1","24,0000,9,1",,,,,"03,1,+00600,1,07,1",,"03,99,1,03,1,03,1,00800,1,00,1,00,1",,"01,9",,"120,N,+0142,1","240,M,+0322,1","99999,9,08220,1","9,9,999,9,-006,1",,,"SYN118AAXX  14121 76373 32510 30000 10153 20167 38220 40169 5//// 83300 91155 333 10322 20142 30133 56900 59006 70000 83720;",
"76373099999","2012-08-14T18:00:00","4","25.35","-105.75","1967.0","TEPEHUANES DGO., MX","FM-12","99999","V020","160,1,N,0020,1","00600,1,9,N","030000,1,N,1","+0275,1","+0120,1","10165,1",,,,,,"05,1,+00600,1,07,1",,"07,99,1,07,1,07,1,00800,1,00,1,00,1",,"01,9",,"120,M,+0282,1","240,N,+0142,1","99999,9,08217,1","7,1,004,1,-004,1",,,"SYN118AAXX  14181 76373 32580 71602 10275 20120 38217 40165 57004 87700 91750 333 10282 20142 30/// 56900 59004 85720 82825;",
"76373099999","2012-08-14T21:00:00","4","25.35","-105.75","1967.0","TEPEHUANES DGO., MX","FM-12","99999","V020","150,1,N,0010,1","00690,1,9,N","020000,1,N,1","+0270,1","+0116,1","10137,1",,,,,,"08,1,+00690,1,07,1",,"08,99,1,08,1,07,1,00800,1,00,1,00,1",,"01,9",,,,"99999,9,08195,1","7,1,022,1,-003,1",,,"SYN100AAXX  14211 76373 32570 81501 10270 20116 38195 40137 57022 88700 92045 333 30/// 56900 59003 88723;",
"76373099999","2012-08-15T00:00:00","4","25.35","-105.75","1967.0","TEPEHUANES DGO., MX","FM-12","99999","V020","999,9,C,0000,1","00750,1,9,N","020000,1,N,1","+0266,1","+0106,1","10121,1","24,0000,9,1",,,,,,,"08,99,1,08,1,07,1,00800,1,00,1,00,1",,"01,9",,"120,M,+0294,1","180,N,+0142,1","99999,9,08181,1","7,1,014,1,-006,1",,,"SYN124AAXX  15001 76373 32570 80000 10266 20106 38181 40121 57014 88700 92350 333 10294 20142 30/// 50581 56900 59006 70000 88723;",
"76373099999","2012-08-15T03:00:00","4","25.35","-105.75","1967.0","TEPEHUANES DGO., MX","FM-12","99999","V020","130,1,N,0010,1","00690,1,9,N","000400,1,N,1","+0190,1","+0158,1","10146,1","03,0000,2,1",,,"5,1,03,1","1,1,03,1","08,1,+00690,1,07,1",,"08,99,1,08,1,07,1,00800,1,00,1,00,1",,"01,9",,,,"99999,9,08201,1","2,1,020,1,-004,1",,"20,1","SYN112AAXX  15031 76373 21504 81301 10190 20158 38201 40146 52020 72051 88700 90250 333 30/// 56900 59004 69907 88723;",
"76373099999","2012-08-15T06:00:00","4","25.35","-105.75","1967.0","TEPEHUANES DGO., MX","FM-12","99999","V020","999,9,C,0000,1","00750,1,9,N","000400,1,N,1","+0180,1","+0159,1","10155,1",,,,,,,,"08,99,1,08,1,07,1,00800,1,00,1,00,1","0228,9","01,9",,"240,M,+0294,1","240,N,+0142,1","99999,9,08209,1","2,1,008,1,-008,1",,,"SYN124AAXX  15061 76373 32504 80000 10180 20159 38209 40155 52008 88700 90550 333 10294 20142 30/// 55038 21192 56900 59008 88723;",
"76373099999","2012-08-15T15:00:00","4","25.35","-105.75","1967.0","TEPEHUANES DGO., MX","FM-12","99999","V020","999,9,C,0000,1","00690,1,9,N","020000,1,N,1","+0192,1","+0154,1","10156,1",,,,,,"05,1,+00690,1,06,1",,"08,99,1,08,1,06,1,00800,1,00,1,00,1",,"01,9",,,,"99999,9,08209,1","2,1,012,1,-012,1",,,"SYN106AAXX  15151 76373 32570 80000 10192 20154 38209 40156 52012 88600 91450 333 30/// 56900 59012 85623 83723;",
"76373099999","2012-08-15T18:00:00","4","25.35","-105.75","1967.0","TEPEHUANES DGO., MX","FM-12","99999","V020","999,9,C,0000,1","00690,1,9,N","020000,1,N,1","+0247,1","+0145,1","10151,1",,,,,,"08,1,+00690,1,07,1",,"08,99,1,08,1,07,1,00800,1,00,1,00,1",,"01,9",,"120,M,+0257,1","240,N,+0154,1","99999,9,08205,1","8,1,004,1,-012,1",,,"SYN112AAXX  15181 76373 32570 80000 10247 20145 38205 40151 58004 88700 91750 333 10257 20154 30/// 56900 59012 88723;",
"76373099999","2012-08-15T21:00:00","4","25.35","-105.75","1967.0","TEPEHUANES DGO., MX","FM-12","99999","V020","280,1,N,0020,1","00690,1,9,N","020000,1,N,1","+0232,1","+0148,1","10136,1",,,,,,"05,1,+00690,1,07,1",,"07,99,1,07,1,07,1,00800,1,00,1,00,1",,"01,9",,,,"99999,9,08194,1","7,1,011,1,-001,1",,,"SYN100AAXX  15211 76373 32570 72802 10232 20148 38194 40136 57011 87700 92050 333 30/// 56900 59001 85723;",
"76373099999","2012-08-16T00:00:00","4","25.35","-105.75","1967.0","TEPEHUANES DGO., MX","FM-12","99999","V020","999,9,C,0000,1","99999,9,9,N","020000,1,N,1","+0198,1","+0168,1","10132,1","06,0000,9,1",,,"5,1,06,1","2,1,06,1",,,"08,99,1,99,9,99,9,00800,1,99,9,99,9",,,,,,"99999,9,08190,1","5,1,004,1,+999,9",,"01,1","SYN072AAXX  16001 76373 01570 80000 10198 20168 38190 40132 55004 69901 70152;","Q01  00002PRCP06"
"76373099999","2012-08-16T03:00:00","4","25.35","-105.75","1967.0","TEPEHUANES DGO., MX","FM-12","99999","V020","999,9,C,0000,1","00690,1,9,N","000400,1,N,1","+0184,1","+0172,1","10149,1",,,,,,"08,1,+00690,1,07,1",,"08,99,1,08,1,07,1,00800,1,00,1,00,1",,"01,9",,,,"99999,9,08204,1","2,1,014,1,+003,1",,,"SYN100AAXX  16031 76373 32504 80000 10184 20172 38204 40149 52014 88700 90250 333 30/// 56900 58003 88723;",
"76373099999","2012-08-16T06:00:00","4","25.35","-105.75","1967.0","TEPEHUANES DGO., MX","FM-12","99999","V020","999,9,C,0000,1","00750,1,9,N","000400,1,N,1","+0176,1","+0165,1","10167,1",,,,,,,,"08,99,1,08,1,07,1,00800,1,00,1,00,1","0084,9","01,9",,"240,M,+0285,1","240,N,+0154,1","99999,9,08218,1","2,1,014,1,+009,1",,,"SYN124AAXX  16061 76373 32504 80000 10176 20165 38218 40167 52014 88700 90550 333 10285 20154 30/// 55014 20757 56900 58009 88723;",
"76373099999","2012-08-16T12:00:00","4","25.35","-105.75","1967.0","TEPEHUANES DGO., MX","FM-12","99999","V020","999,9,C,0000,1","00750,1,C,N","001000,1,N,1","+0153,1","+0149,1","10157,1","24,0047,9,1",,,,,"03,1,+00690,1,07,1",,"06,99,1,06,1,07,1,00800,1,00,1,00,1",,"01,9",,"120,N,+0144,1","240,M,+0285,1","99999,9,08210,1","9,9,999,9,+013,1",,,"SYN124AAXX  16121 76373 32510 60000 10153 20149 38210 40157 5//// 86700 91150 333 10285 20144 30137 56900 58013 70047 83723 83623;",
"76373099999","2012-08-16T15:00:00","4","25.35","-105.75","1967.0","TEPEHUANES DGO., MX","FM-12","99999","V020","999,9,C,0000,1","22000,1,9,N","020000,1,N,1","+0179,1","+0156,1","10170,1",,,,,,"02,1,+00750,1,06,1",,"04,99,1,02,1,04,1,00800,1,03,1,00,1",,"01,9",,,,"99999,9,08221,1","2,1,011,1,+012,1",,,"SYN106AAXX  16151 76373 32570 40000 10179 20156 38221 40170 52011 82430 91450 333 30/// 56990 58012 82625 82357;",
"76373099999","2012-08-17T12:00:00","4","25.35","-105.75","1967.0","TEPEHUANES DGO., MX","FM-12","99999","V020","230,1,N,0010,1","22000,1,9,N","001000,1,N,1","+0140,1","+0135,1","10178,1","24,0135,9,1",,,,,,,"02,99,1,02,1,02,1,00800,1,00,1,00,1","0384,9","01,9",,"120,N,+0128,1","240,M,+0320,1","99999,9,08228,1","9,9,999,9,+018,1",,,"SYN130AAXX  17121 76373 32510 22301 10140 20135 38228 40178 5//// 82200 91155 333 10320 20128 30116 55064 21087 56900 58018 70135 82720;",
"76373099999","2012-08-17T15:00:00","4","25.35","-105.75","1967.0","TEPEHUANES DGO., MX","FM-12","99999","V020","160,1,N,0010,1","22000,1,9,N","030000,1,N,1","+0190,1","+0140,1","10190,1",,,,,,"01,1,+00750,1,08,1",,"01,99,1,01,1,01,1,00800,1,00,1,00,1",,"01,9",,,,"99999,9,08237,1","2,1,009,1,+016,1",,,"SYN100AAXX  17151 76373 32580 11601 10190 20140 38237 40190 52009 81100 91455 333 30/// 56900 58016 81825;",
"76373099999","2012-08-17T18:00:00","4","25.35","-105.75","1967.0","TEPEHUANES DGO., MX","FM-12","99999","V020","140,1,N,0010,1","22000,1,9,N","030000,1,N,1","+0266,1","+0145,1","10180,1",,,,,,"03,1,+00750,1,08,1",,"03,99,1,03,1,03,1,00800,1,00,1,00,1",,"01,9",,"120,M,+0270,1","240,N,+0128,1","99999,9,08229,1","7,1,008,1,+011,1",,,"SYN112AAXX  17181 76373 32580 31401 10266 20145 38229 40180 57008 83300 91750 333 10270 20128 30/// 56900 58011 83825;",
"76373099999","2012-08-17T21:00:00","4","25.35","-105.75","1967.0","TEPEHUANES DGO., MX","FM-12","99999","V020","140,1,N,0020,1","22000,1,9,N","030000,1,N,1","+0306,1","+0111,1","10147,1",,,,,,"03,1,+00600,1,06,1",,"03,99,1,03,1,03,1,00800,1,00,1,00,1",,"01,9",,,,"99999,9,08202,1","7,1,027,1,+001,1",,,"SYN100AAXX  17211 76373 32580 31402 10306 20111 38202 40147 57027 83300 92050 333 30/// 56900 58001 83620;",
"76373099999","2012-08-18T00:00:00","4","25.35","-105.75","1967.0","TEPEHUANES DGO., MX","FM-12","99999","V020","290,1,N,0020,1","22000,1,9,N","030000,1,N,1","+0250,1","+0107,1","10137,1","24,0000,9,1",,,,,"01,1,+00600,1,07,1",,"04,99,1,04,1,04,1,00800,1,00,1,00,1",,"01,9",,"120,M,+0322,1","180,N,+0128,1","99999,9,08194,1","7,1,008,1,-012,1",,,"SYN130AAXX  18001 76373 32580 42902 10250 20107 38194 40137 57008 84400 92350 333 10322 20128 30/// 50551 56900 59012 70000 81720 83625;",
"76373099999","2012-08-18T03:00:00","4","25.35","-105.75","1967.0","TEPEHUANES DGO., MX","FM-12","99999","V020","230,1,N,0010,1","00750,1,9,N","001000,1,N,1","+0206,1","+0133,1","10162,1",,,,,,"02,1,+00600,1,07,1",,"06,99,1,06,1,06,1,00800,1,00,1,00,1",,"01,9",,,,"99999,9,08215,1","2,1,021,1,-015,1",,,"SYN106AAXX  18031 76373 32510 62301 10206 20133 38215 40162 52021 86600 90245 333 30/// 56900 59015 82720 84625;",
"76373099999","2012-08-18T06:00:00","4","25.35","-105.75","1967.0","TEPEHUANES DGO., MX","FM-12","99999","V020","290,1,N,0010,1","00750,1,9,N","000500,1,N,1","+0170,1","+0153,1","10181,1",,,,,,"02,1,+00600,1,07,1",,"07,99,1,07,1,07,1,00800,1,00,1,00,1","0600,9","01,9",,"240,M,+0322,1","240,N,+0128,1","99999,9,08230,1","2,1,015,1,-012,1",,,"SYN130AAXX  18061 76373 32505 72901 10170 20153 38230 40181 52015 87700 90545 333 10322 20128 30/// 55100 21691 56900 59012 82720 85625;",
"76373099999","2012-08-18T12:00:00","4","25.35","-105.75","1967.0","TEPEHUANES DGO., MX","FM-12","99999","V020","999,9,C,0000,1","22000,1,9,N","001000,1,N,1","+0138,1","+0134,1","10162,1","24,0040,9,1",,,,,"01,1,+00600,1,08,1",,"01,99,1,01,1,01,1,00800,1,00,1,00,1",,"01,9",,"120,N,+0120,1","240,M,+0322,1","99999,9,08214,1","9,9,999,9,-014,1",,,"SYN118AAXX  18121 76373 32510 10000 10138 20134 38214 40162 5//// 81100 91155 333 10322 20120 30114 56900 59014 70040 81820;",
"76373099999","2012-08-18T15:00:00","4","25.35","-105.75","1967.0","TEPEHUANES DGO., MX","FM-12","99999","V020","290,1,N,0010,1","22000,1,9,N","010000,1,N,1","+0166,1","+0144,1","10173,1",,,,,,"01,1,+00600,1,08,1",,"01,99,1,01,1,01,1,00800,1,00,1,00,1",,"01,9",,,,"99999,9,08223,1","1,1,009,1,-014,1",,,"SYN100AAXX  18151 76373 32560 12901 10166 20144 38223 40173 51009 81100 91435 333 30/// 56900 59014 81820;",
"76373099999","2012-08-18T21:00:00","4","25.35","-105.75","1967.0","TEPEHUANES DGO., MX","FM-12","99999","V020","140,1,N,0010,1","00810,1,9,N","020000,1,N,1","+0314,1","+0111,1","10119,1",,,,,,"05,1,+00810,1,06,1",,"05,99,1,05,1,07,1,00800,1,00,1,00,1",,"01,9",,,,"99999,9,08180,1","7,1,026,1,-022,1",,,"SYN100AAXX  18211 76373 32570 51401 10314 20111 38180 40119 57026 85700 92050 333 30/// 56900 59022 85627;",
"76373099999","2012-08-19T00:00:00","4","25.35","-105.75","1967.0","TEPEHUANES DGO., MX","FM-12","99999","V020","290,1,N,0020,1","00750,1,9,N","020000,1,N,1","+0205,1","+0147,1","10124,1","24,0040,9,1",,,,,,,"07,99,1,07,1,07,1,00800,1,00,1,00,1",,"01,9",,"120,M,+0330,1","180,N,+0120,1","99999,9,08183,1","2,1,003,1,-011,1",,,"SYN124AAXX  19001 76373 32570 72902 10205 20147 38183 40124 52003 87700 92350 333 10330 20120 30/// 50751 56900 59011 70040 87627;",
"76373099999","2012-08-19T03:00:00","4","25.35","-105.75","1967.0","TEPEHUANES DGO., MX","FM-12","99999","V020","999,9,C,0000,1","22000,1,9,N","005000,1,N,1","+0181,1","+0160,1","10138,1",,,,,,"00,1,+99999,9,99,9",,"00,99,1,00,1,00,1,99999,9,00,1,00,1",,"01,9",,,,"99999,9,08195,1","2,1,012,1,-020,1",,,"SYN082AAXX  19031 76373 32950 00000 10181 20160 38195 40138 52012 90250 333 30/// 59020;",
"76373099999","2012-08-19T12:00:00","4","25.35","-105.75","1967.0","TEPEHUANES DGO., MX","FM-12","99999","V020","999,9,C,0000,1","22000,1,9,N","005000,1,N,1","+0164,1","+0155,1","10134,1","24,0000,9,1",,,,,,,"02,99,1,02,1,07,1,00800,1,00,1,00,1","0480,9","01,9",,"120,N,+0155,1","240,M,+0330,1","99999,9,08192,1","9,9,999,9,-022,1",,,"SYN130AAXX  19121 76373 32550 20000 10164 20155 38192 40134 5//// 82700 91150 333 10330 20155 30146 55080 21329 56900 59022 70000 82627;",
"76373099999","2012-08-19T18:00:00","4","25.35","-105.75","1967.0","TEPEHUANES DGO., MX","FM-12","99999","V020","999,9,C,0000,1","00810,1,9,N","020000,1,N,1","+0235,1","+0143,1","10152,1",,,,,,"08,1,+00810,1,06,1",,"08,99,1,08,1,05,1,00800,1,00,1,00,1",,"01,9",,"120,M,+0245,1","240,N,+0155,1","99999,9,08206,1","2,1,002,1,+000,1",,,"SYN112AAXX  19181 76373 32570 80000 10235 20143 38206 40152 52002 88500 91750 333 10245 20155 30/// 56900 58000 88627;",
"76373099999","2012-08-20T00:00:00","4","25.35","-105.75","1967.0","TEPEHUANES DGO., MX","FM-12","99999","V020","300,1,N,0010,1","00750,1,9,N","020000,1,N,1","+0240,1","+0140,1","10119,1","24,0000,9,1",,,,,,,"08,99,1,08,1,07,1,00800,1,00,1,00,1",,"01,9",,"120,M,+0330,1","180,N,+0155,1","99999,9,08180,1","7,1,005,1,-003,1",,,"SYN124AAXX  20001 76373 32570 83001 10240 20140 38180 40119 57005 88700 92350 333 10330 20155 30/// 50381 56900 59003 70000 88627;",
"76373099999","2012-08-20T03:00:00","4","25.35","-105.75","1967.0","TEPEHUANES DGO., MX","FM-12","99999","V020","999,9,C,0000,1","00810,1,9,N","005000,1,N,1","+0188,1","+0172,1","10151,1","03,0020,9,1",,,,,"08,1,+00810,1,06,1",,"08,99,1,08,1,07,1,00800,1,00,1,00,1",,"09,9",,,,"99999,9,08206,1","2,1,026,1,+011,1",,,"SYN106AAXX  20031 76373 22550 80000 10188 20172 38206 40151 52026 88700 90250 333 31/// 56900 58011 60027 88627;",
"76373099999","2012-08-20T06:00:00","4","25.35","-105.75","1967.0","TEPEHUANES DGO., MX","FM-12","99999","V020","999,9,C,0000,1","00750,1,9,N","005000,1,N,1","+0176,1","+0166,1","10169,1","03,0051,9,1",,,,,,,"08,99,1,08,1,07,1,00800,1,00,1,00,1","0264,9","09,9",,"240,M,+0300,1","240,N,+0155,1","99999,9,08220,1","2,1,014,1,+014,1",,,"SYN130AAXX  20061 76373 12550 80000 10176 20166 38220 40169 52014 60057 88700 90550 333 10300 20155 31/// 55044 20709 56900 58014 88627;",
"76373099999","2012-08-20T12:00:00","4","25.35","-105.75","1967.0","TEPEHUANES DGO., MX","FM-12","99999","V020","999,9,C,0000,1","00750,1,9,N","005000,1,N,1","+0166,1","+9999,9","10150,1","06,0010,9,1","24,0072,9,1",,,,,,"05,99,1,05,1,07,1,00800,1,00,1,00,1","0264,9","01,9",,"120,N,+0158,1","240,M,+0300,1","99999,9,08205,1","9,9,999,9,+013,1",,,"SYN130AAXX  20121 76373 12550 50000 10166 38205 40150 5//// 60011 85700 91150 333 10300 20158 30150 55044 20709 56900 58013 70072 85627;",
"76373099999","2012-08-20T18:00:00","4","25.35","-105.75","1967.0","TEPEHUANES DGO., MX","FM-12","99999","V020","999,9,C,0000,1","00750,1,9,N","030000,1,N,1","+0242,1","+0151,1","10167,1",,,,,,"06,1,+00750,1,07,1",,"06,99,1,06,1,06,1,00800,1,00,1,00,1",,"01,9",,"120,M,+0253,1","240,N,+0158,1","99999,9,08218,1","7,1,001,1,+012,1",,,"SYN112AAXX  20181 76373 32580 60000 10242 20151 38218 40167 57001 86600 91750 333 10253 20158 30/// 56900 58012 86725;",
"76373099999","2012-08-20T21:00:00","4","25.35","-105.75","1967.0","TEPEHUANES DGO., MX","FM-12","99999","V020","160,1,N,0010,1","22000,1,9,N","030000,1,N,1","+0279,1","+0141,1","10142,1",,,,,,"04,1,+00750,1,08,1",,"04,99,1,04,1,04,1,00800,1,00,1,00,1",,"01,9",,,,"99999,9,08198,1","7,1,020,1,+013,1",,,"SYN100AAXX  20211 76373 32580 41601 10279 20141 38198 40142 57020 84400 92050 333 30/// 56900 58013 84825;",
"76373099999","2012-08-21T00:00:00","4","25.35","-105.75","1967.0","TEPEHUANES DGO., MX","FM-12","99999","V020","160,1,N,0010,1","00750,1,9,N","030000,1,N,1","+0193,1","+0163,1","10146,1","24,0072,9,1",,,,,,,"07,99,1,07,1,07,1,00800,1,00,1,00,1",,"01,9",,"120,M,+0302,1","180,N,+9999,9","99999,9,08201,1","2,1,003,1,+021,1",,,"SYN124AAXX  21001 76373 32580 71601 10193 20163 38201 40146 52003 87700 92350 333 10302 20258 30/// 50681 56900 58021 70072 87720;","Q01 +02582ATMN  "
"76373099999","2012-08-21T03:00:00","4","25.35","-105.75","1967.0","TEPEHUANES DGO., MX","FM-12","99999","V020","999,9,C,0000,1","00750,1,9,N","001000,1,N,1","+0192,1","+0160,1","10160,1",,,,,,"05,1,+00750,1,08,1",,"05,99,1,05,1,05,1,00800,1,00,1,00,1",,"01,9",,,,"99999,9,08213,1","2,1,012,1,+032,1",,,"SYN100AAXX  21031 76373 32510 50000 10192 20160 38213 40160 52012 85500 90250 333 30/// 56900 58032 85825;",
"76373099999","2012-08-21T06:00:00","4","25.35","-105.75","1967.0","TEPEHUANES DGO., MX","FM-12","99999","V020","999,9,C,0000,1","00750,1,9,N","001000,1,N,1","+0182,1","+0161,1","10172,1",,,,,,,,"07,99,1,07,1,07,1,00800,1,00,1,00,1","0348,9","01,9",,"240,M,+0302,1","240,N,+0158,1","99999,9,08222,1","2,1,009,1,+002,1",,,"SYN118AAXX  21061 76373 32510 70000 10182 20161 38222 40172 52009 87700 90450 333 10302 20158 30/// 55058 56900 58002 87825;",
"76373099999","2012-08-21T12:00:00","4","25.35","-105.75","1967.0","TEPEHUANES DGO., MX","FM-12","99999","V020","999,9,C,0000,1","22000,1,9,N","001000,1,N,1","+0164,1","+0158,1","10165,1","24,0000,9,1",,,,,"00,1,+99999,9,99,9",,"00,99,1,00,1,00,1,99999,9,00,1,00,1",,"01,9",,"120,N,+0155,1","240,M,+0302,1","99999,9,08217,1","9,9,999,9,+012,1",,,"SYN100AAXX  21121 76373 32910 00000 10164 20158 38217 40165 5//// 91150 333 10302 20155 30147 58012 70000;","Q01  00002PRCP24"
"76373099999","2012-08-21T15:00:00","4","25.35","-105.75","1967.0","TEPEHUANES DGO., MX","FM-12","99999","V020","999,9,C,0000,1","22000,1,9,N","020000,1,N,1","+0190,1","+0165,1","10175,1",,,,,,"04,1,+00750,1,08,1",,"04,99,1,04,1,04,1,00800,1,00,1,00,1",,"01,9",,,,"99999,9,08225,1","2,1,008,1,+008,1",,,"SYN100AAXX  21151 76373 32570 40000 10190 20165 38225 40175 52008 84400 91455 333 30/// 56900 58008 84825;",
"76373099999","2012-08-21T18:00:00","4","25.35","-105.75","1967.0","TEPEHUANES DGO., MX","FM-12","99999","V020","999,9,C,0000,1","00750,1,9,N","030000,1,N,1","+0257,1","+0155,1","10168,1",,,,,,"05,1,+00750,1,08,1",,"05,99,1,05,1,05,1,00800,1,00,1,00,1",,"01,9",,"120,M,+0262,1","240,N,+0155,1","99999,9,08219,1","7,1,006,1,+001,1",,,"SYN112AAXX  21181 76373 32580 50000 10257 20155 38219 40168 57006 85500 91750 333 10262 20155 30/// 56900 58001 85825;",
"76373099999","2012-08-21T21:00:00","4","25.35","-105.75","1967.0","TEPEHUANES DGO., MX","FM-12","99999","V020","140,1,N,0010,1","22000,1,9,N","030000,1,N,1","+0279,1","+0131,1","10144,1",,,,,,"03,1,+00750,1,08,1",,"03,99,1,03,1,03,1,00800,1,00,1,00,1",,"01,9",,,,"99999,9,08200,1","7,1,019,1,+002,1",,,"SYN100AAXX  21211 76373 32580 31401 10279 20131 38200 40144 57019 83300 92050 333 30/// 56900 58002 83825;",
"76373099999","2012-08-22T00:00:00","4","25.35","-105.75","1967.0","TEPEHUANES DGO., MX","FM-12","99999","V020","140,1,N,0020,1","22000,1,9,N","020000,1,N,1","+0283,1","+0140,1","10126,1","24,9999,9,9",,,,,"02,1,+00750,1,06,1",,"03,99,1,03,1,04,1,00800,1,00,1,00,1",,"01,9",,"120,M,+0310,1","180,N,+0155,1","99999,9,08186,1","7,1,014,1,-025,1",,,"SYN130AAXX  22001 76373 32570 31402 10283 20140 38186 40126 57014 83400 92350 333 10310 20155 30/// 50371 56900 59025 79999 82625 81830;","Q01  99992PRCP24"
"76373099999","2012-08-22T03:00:00","4","25.35","-105.75","1967.0","TEPEHUANES DGO., MX","FM-12","99999","V020","999,9,C,0000,1","22000,1,9,N","000400,1,N,1","+0225,1","+0142,1","10145,1",,,,,,"01,1,+00750,1,06,1",,"02,99,1,01,1,04,1,00800,1,07,1,00,1",,"01,9",,,,"99999,9,08200,1","2,1,014,1,-013,1",,,"SYN100AAXX  22031 76373 32504 20000 10225 20142 38200 40145 52014 81470 90250 333 30/// 56900 59013 81625;",
"76373099999","2012-08-22T06:00:00","4","25.35","-105.75","1967.0","TEPEHUANES DGO., MX","FM-12","99999","V020","999,9,C,0000,1","22000,1,9,N","000400,1,N,1","+0195,1","+0127,1","10165,1",,,,,,"00,1,+99999,9,99,9",,"00,99,1,00,1,00,1,99999,9,00,1,00,1","0552,9","01,9",,"240,M,+0310,1","240,N,+0155,1","99999,9,08217,1","2,1,017,1,+999,9",,,"SYN106AAXX  22061 76373 32904 00000 10195 20127 38217 40165 52017 90550 333 10310 20155 30/// 55092 2//// 59005;",
"76373099999","2012-08-22T12:00:00","4","25.35","-105.75","1967.0","TEPEHUANES DGO., MX","FM-12","99999","V020","999,9,C,0000,1","22000,1,9,N","001000,1,N,1","+0125,1","+0115,1","10167,1","24,0000,9,1",,,,,"00,1,+99999,9,99,9",,"00,99,1,00,1,00,1,99999,9,00,1,00,1",,"01,9",,"120,N,+0120,1","240,M,+0310,1","99999,9,08218,1","9,9,999,9,+001,1",,,"SYN100AAXX  22121 76373 32910 00000 10125 20115 38218 40167 5//// 91150 333 10310 20120 30108 58001 70000;","Q01  00002PRCP24"
"76373099999","2012-08-22T15:00:00","4","25.35","-105.75","1967.0","TEPEHUANES DGO., MX","FM-12","99999","V020","999,9,C,0000,1","22000,1,9,N","020000,1,N,1","+0173,1","+0123,1","10178,1",,,,,,"04,1,+05400,1,00,1",,"04,99,1,00,1,00,1,99999,9,00,1,04,1",,"01,9",,,,"99999,9,08227,1","2,1,009,1,+002,1",,,"SYN100AAXX  22151 76373 32970 40000 10173 20123 38227 40178 52009 80004 91450 333 30/// 56009 58002 84068;",
"76373099999","2012-08-22T18:00:00","4","25.35","-105.75","1967.0","TEPEHUANES DGO., MX","FM-12","99999","V020","999,9,C,0000,1","22000,1,9,N","020000,1,N,1","+0272,1","+0116,1","10172,1",,,,,,"01,1,+00780,1,08,1",,"03,99,1,01,1,01,1,00800,1,00,1,04,1",,"01,9",,"120,M,+0280,1","240,N,+0120,1","99999,9,08222,1","7,1,005,1,+003,1",,,"SYN118AAXX  22181 76373 32570 30000 10272 20116 38222 40172 57005 81104 91745 333 10280 20120 30/// 56909 58003 81826 82068;",
"76373099999","2012-08-22T21:00:00","4","25.35","-105.75","1967.0","TEPEHUANES DGO., MX","FM-12","99999","V020","150,1,N,0020,1","22000,1,9,N","020000,1,N,1","+0297,1","+0062,1","10146,1",,,,,,"01,1,+00780,1,08,1",,"03,99,1,01,1,01,1,00800,1,00,1,04,1",,"01,9",,,,"99999,9,08201,1","7,1,021,1,+001,1",,,"SYN106AAXX  22211 76373 32570 31502 10297 20062 38201 40146 57021 81104 92050 333 30/// 56909 58001 81826 82068;",
"76373099999","2012-08-23T00:00:00","4","25.35","-105.75","1967.0","TEPEHUANES DGO., MX","FM-12","99999","V020","150,1,N,0010,1","22000,1,9,N","020000,1,N,1","+0285,1","+0068,1","10135,1","24,0000,9,1",,,,,"01,1,+00780,1,08,1",,"03,99,1,01,1,08,1,00800,1,00,1,04,1",,"01,9",,"120,M,+0310,1","180,N,+0120,1","99999,9,08193,1","7,1,008,1,+007,1",,,"SYN130AAXX  23001 76373 32570 31501 10285 20068 38193 40135 57008 81804 92350 333 10310 20120 30/// 50901 56909 58007 70000 81826 82068;",
"76373099999","2012-08-23T03:00:00","4","25.35","-105.75","1967.0","TEPEHUANES DGO., MX","FM-12","99999","V020","999,9,C,0000,1","22000,1,9,N","000400,1,N,1","+0216,1","+0081,1","10147,1",,,,,,"02,1,+05400,1,00,1",,"02,99,1,00,1,00,1,99999,9,00,1,04,1",,"01,9",,,,"99999,9,08202,1","2,1,009,1,+002,1",,,"SYN100AAXX  23031 76373 32904 20000 10216 20081 38202 40147 52009 80004 90250 333 30/// 56009 58002 82068;",
"76373099999","2012-08-23T06:00:00","4","25.35","-105.75","1967.0","TEPEHUANES DGO., MX","FM-12","99999","V020","999,9,C,0000,1","22000,1,9,N","000400,1,N,1","+0168,1","+0097,1","10169,1",,,,,,,,"02,99,1,00,1,00,1,99999,9,00,1,04,1","0660,9","01,9",,"240,M,+0310,1","240,N,+0120,1","99999,9,08220,1","2,1,018,1,+003,1",,,"SYN124AAXX  23061 76373 32904 20000 10168 20097 38220 40169 52018 80004 90550 333 10310 20120 30/// 55110 2//// 56009 58003 82068;",
"76373099999","2012-08-23T12:00:00","4","25.35","-105.75","1967.0","TEPEHUANES DGO., MX","FM-12","99999","V020","999,9,C,0000,1","22000,1,9,N","001000,1,N,1","+0110,1","+0093,1","10167,1","24,0000,9,1",,,,,"00,1,+99999,9,99,9",,"00,99,1,00,1,00,1,99999,9,00,1,00,1",,"01,9",,"120,N,+0102,1","240,M,+0310,1","99999,9,08218,1","9,9,999,9,+000,1",,,"SYN100AAXX  23121 76373 32910 00000 10110 20093 38218 40167 5//// 91150 333 10310 20102 30090 58000 70000;","Q01  00002PRCP24"
"76373099999","2012-08-23T15:00:00","4","25.35","-105.75","1967.0","TEPEHUANES DGO., MX","FM-12","99999","V020","999,9,C,0000,1","22000,1,9,N","020000,1,N,1","+0175,1","+0103,1","10176,1",,,,,,"00,1,+99999,9,99,9",,"00,99,1,00,1,00,1,99999,9,00,1,00,1",,"01,9",,,,"99999,9,08226,1","2,1,008,1,-001,1",,,"SYN082AAXX  23151 76373 32970 00000 10175 20103 38226 40176 52008 91450 333 30/// 59001;",
"76373099999","2012-08-23T18:00:00","4","25.35","-105.75","1967.0","TEPEHUANES DGO., MX","FM-12","99999","V020","140,1,N,0010,1","22000,1,9,N","030000,1,N,1","+0286,1","+0103,1","10165,1",,,,,,"02,1,+00750,1,08,1",,"02,99,1,02,1,02,1,00800,1,00,1,00,1",,"01,9",,"120,M,+0290,1","240,N,+0102,1","99999,9,08217,1","7,1,009,1,-005,1",,,"SYN112AAXX  23181 76373 32580 21401 10286 20103 38217 40165 57009 82200 91755 333 10290 20102 30/// 56900 59005 82825;",
"76373099999","2012-08-23T21:00:00","4","25.35","-105.75","1967.0","TEPEHUANES DGO., MX","FM-12","99999","V020","110,1,N,0010,1","22000,1,9,N","030000,1,N,1","+0312,1","+0048,1","10141,1",,,,,,"02,1,+00750,1,08,1",,"02,99,1,02,1,02,1,00800,1,00,1,00,1",,"01,9",,,,"99999,9,08198,1","7,1,019,1,-003,1",,,"SYN100AAXX  23211 76373 32580 21101 10312 20048 38198 40141 57019 82200 92050 333 30/// 56900 59003 82825;",
"76373099999","2012-08-24T00:00:00","4","25.35","-105.75","1967.0","TEPEHUANES DGO., MX","FM-12","99999","V020","110,1,N,0010,1","22000,1,9,N","030000,1,N,1","+0304,1","+0048,1","10121,1","24,0000,9,1",,,,,,,"03,99,1,03,1,03,1,00800,1,00,1,00,1",,"01,9",,"120,M,+0330,1","180,N,+0102,1","99999,9,08181,1","7,1,017,1,-012,1",,,"SYN124AAXX  24001 76373 32580 31101 10304 20048 38181 40121 57017 83300 92350 333 10330 20102 30/// 50661 56900 59012 70000 83825;",
"76373099999","2012-08-24T03:00:00","4","25.35","-105.75","1967.0","TEPEHUANES DGO., MX","FM-12","99999","V020","110,1,N,0010,1","22000,1,9,N","001000,1,N,1","+0228,1","+0076,1","10137,1",,,,,,"02,1,+00750,1,08,1",,"02,99,1,02,1,02,1,00800,1,00,1,00,1",,"01,9",,,,"99999,9,08194,1","7,1,009,1,-008,1",,,"SYN100AAXX  24031 76373 32510 21101 10228 20076 38194 40137 57009 82200 92055 333 30/// 56900 59008 82825;",
"76373099999","2012-08-24T12:00:00","4","25.35","-105.75","1967.0","TEPEHUANES DGO., MX","FM-12","99999","V020","290,1,N,0010,1","22000,1,9,N","001000,1,N,1","+0116,1","+0092,1","10153,1","24,0000,9,1",,,,,,,"01,99,1,01,1,01,1,00800,1,00,1,00,1","0702,9","01,9",,"120,N,+0100,1","240,M,+0330,1","99999,9,08207,1","9,9,999,9,+011,1",,,"SYN130AAXX  24121 76373 32510 12901 10116 20092 38207 40153 5//// 81100 91150 333 10330 20100 30094 55117 20000 56900 58011 70000 81825;",
"76373099999","2012-08-24T15:00:00","4","25.35","-105.75","1967.0","TEPEHUANES DGO., MX","FM-12","99999","V020","290,1,N,0010,1","22000,1,9,N","030000,1,N,1","+0178,1","+0107,1","10165,1",,,,,,"02,1,+00750,1,08,1",,"02,99,1,02,1,02,1,00800,1,00,1,00,1",,"01,9",,,,"99999,9,08217,1","2,1,011,1,-009,1",,,"SYN100AAXX  24151 76373 32580 22901 10178 20107 38217 40165 52011 82200 91455 333 30/// 56900 59009 82825;",
"76373099999","2012-08-24T18:00:00","4","25.35","-105.75","1967.0","TEPEHUANES DGO., MX","FM-12","99999","V020","110,1,N,0010,1","22000,1,9,N","030000,1,N,1","+0288,1","+0098,1","10152,1",,,,,,"02,1,+00750,1,08,1",,"02,99,1,02,1,02,1,00800,1,00,1,00,1",,"01,9",,"120,M,+0290,1","240,N,+0100,1","99999,9,08206,1","7,1,011,1,-001,1",,,"SYN112AAXX  24181 76373 32580 21101 10288 20098 38206 40152 57011 82200 91750 333 10290 20100 30/// 56900 59001 82825;",
"76373099999","2012-08-24T21:00:00","4","25.35","-105.75","1967.0","TEPEHUANES DGO., MX","FM-12","99999","V020","110,1,N,0010,1","22000,1,9,N","030000,1,N,1","+0324,1","+0082,1","10116,1",,,,,,"03,1,+00750,1,08,1",,"03,99,1,03,1,03,1,00800,1,00,1,00,1",,"01,9",,,,"99999,9,08177,1","7,1,029,1,-021,1",,,"SYN100AAXX  24211 76373 32580 31101 10324 20082 38177 40116 57029 83300 92050 333 30/// 56900 59021 83825;",
"76373099999","2012-08-25T00:00:00","4","25.35","-105.75","1967.0","TEPEHUANES DGO., MX","FM-12","99999","V020","110,1,N,0020,1","22000,1,9,N","030000,1,N,1","+0318,1","+0087,1","10104,1","24,0000,9,1",,,,,,,"03,99,1,03,1,03,1,00800,1,00,1,00,1",,"01,9",,"120,M,+0350,1","180,N,+0100,1","99999,9,08168,1","7,1,009,1,+017,1",,,"SYN124AAXX  25001 76373 32580 31102 10318 20087 38168 40104 57009 83300 92350 333 10350 20100 30/// 50721 56900 58017 70000 83825;",
"76373099999","2012-08-25T03:00:00","4","25.35","-105.75","1967.0","TEPEHUANES DGO., MX","FM-12","99999","V020","110,1,N,0010,1","22000,1,9,N","001000,1,N,1","+0226,1","+0136,1","10127,1",,,,,,"02,1,+00600,1,08,1",,"02,99,1,02,1,02,1,00800,1,00,1,00,1",,"01,9",,,,"99999,9,08186,1","2,1,016,1,-009,1",,,"SYN100AAXX  25031 76373 32510 21101 10226 20136 38186 40127 52016 82200 90250 333 30/// 56900 59009 82820;",
"76373099999","2012-08-25T12:00:00","4","25.35","-105.75","1967.0","TEPEHUANES DGO., MX","FM-12","99999","V020","290,1,N,0010,1","22000,1,9,N","001000,1,N,1","+0140,1","+0124,1","10130,1","24,0000,9,1",,,,,"02,1,+00750,1,08,1",,"02,99,1,02,1,02,1,00800,1,00,1,00,1",,"01,9",,"120,N,+0128,1","240,M,+0350,1","99999,9,08189,1","9,9,999,9,-018,1",,,"SYN118AAXX  25121 76373 32510 22901 10140 20124 38189 40130 5//// 82200 91150 333 10350 20128 30114 56900 59018 70000 82825;",
"76373099999","2012-08-25T15:00:00","4","25.35","-105.75","1967.0","TEPEHUANES DGO., MX","FM-12","99999","V020","999,9,C,0000,1","22000,1,9,N","030000,1,N,1","+0190,1","+0135,1","10149,1",,,,,,"02,1,+05100,1,00,1",,"02,99,1,00,1,00,1,99999,9,00,1,02,1",,"01,9",,,,"99999,9,08204,1","2,1,015,1,+013,1",,,"SYN100AAXX  25151 76373 32980 20000 10190 20135 38204 40149 52015 80002 91435 333 30/// 56009 58013 82067;",
"76373099999","2012-08-25T21:00:00","4","25.35","-105.75","1967.0","TEPEHUANES DGO., MX","FM-12","99999","V020","310,1,N,0010,1","22000,1,9,N","020000,1,N,1","+0302,1","+0090,1","10101,1",,,,,,"04,1,+00810,1,08,1",,"04,99,1,04,1,03,1,00800,1,00,1,00,1",,"01,9",,,,"99999,9,08165,1","7,1,023,1,-012,1",,,"SYN100AAXX  25211 76373 32570 43101 10302 20090 38165 40101 57023 84300 92050 333 30/// 56900 59012 84827;",
"76373099999","2012-08-26T00:00:00","4","25.35","-105.75","1967.0","TEPEHUANES DGO., MX","FM-12","99999","V020","290,1,N,0010,1","00750,1,9,N","020000,1,N,1","+0247,1","+0128,1","10111,1","24,0000,9,1",,,,,,,"08,99,1,08,1,07,1,00800,1,00,1,00,1",,"01,9",,"120,M,+0330,1","180,N,+0128,1","99999,9,08173,1","2,1,008,1,+005,1",,,"SYN124AAXX  26001 76373 32570 82901 10247 20128 38173 40111 52008 88700 92350 333 10330 20128 30/// 50771 56900 58005 70000 88627;",
"76373099999","2012-08-26T03:00:00","4","25.35","-105.75","1967.0","TEPEHUANES DGO., MX","FM-12","99999","V020","999,9,C,0000,1","00810,1,9,N","005000,1,N,1","+0190,1","+0145,1","10141,1",,,,,,"06,1,+00810,1,06,1",,"06,99,1,06,1,07,1,00800,1,00,1,00,1",,"01,9",,,,"99999,9,08198,1","2,1,025,1,+012,1",,,"SYN100AAXX  26031 76373 32550 60000 10190 20145 38198 40141 52025 86700 90250 333 30/// 56900 58012 86627;",
"76373099999","2012-08-26T06:00:00","4","25.35","-105.75","1967.0","TEPEHUANES DGO., MX","FM-12","99999","V020","999,9,C,0000,1","22000,1,9,N","005000,1,N,1","+0188,1","+0130,1","10147,1",,,,,,,,"04,99,1,04,1,07,1,00800,1,00,1,00,1","0486,9","01,9",,"240,M,+0330,1","240,N,+0128,1","99999,9,08202,1","2,1,004,1,+002,1",,,"SYN124AAXX  26061 76373 32550 40000 10188 20130 38202 40147 52004 84700 90550 333 10330 20128 30/// 55081 2//// 56900 58002 84627;",
"76373099999","2012-08-26T12:00:00","4","25.35","-105.75","1967.0","TEPEHUANES DGO., MX","FM-12","99999","V020","999,9,C,0000,1","22000,1,9,N","005000,1,N,1","+0148,1","+0136,1","10154,1",,,,,,"00,1,+99999,9,99,9",,"00,99,1,00,1,00,1,99999,9,00,1,00,1",,,,"120,N,+0139,1","240,M,+0330,1","99999,9,08208,1","9,9,999,9,+019,1",,,"SYN100AAXX  26121 76373 32950 00000 10148 20136 38208 40154 5//// 91150 333 10330 20139 20130 58019 70000;",
"76373099999","2012-08-26T21:00:00","4","25.35","-105.75","1967.0","TEPEHUANES DGO., MX","FM-12","99999","V020","140,1,N,0010,1","00810,1,9,N","020000,1,N,1","+0279,1","+0133,1","10127,1",,,,,,"05,1,+00810,1,06,1",,"07,99,1,05,1,06,1,00800,1,00,1,00,1",,"01,9",,,,"99999,9,08186,1","7,1,026,1,+021,1",,,"SYN100AAXX  26211 76373 32570 71401 10279 20133 38186 40127 57026 85600 92050 333 30/// 56900 58021 85627;",
"76373099999","2012-08-27T00:00:00","4","25.35","-105.75","1967.0","TEPEHUANES DGO., MX","FM-12","99999","V020","320,1,N,0010,1","00750,1,9,N","020000,1,N,1","+0225,1","+0137,1","10118,1","24,0000,9,1",,,,,,,"07,99,1,07,1,07,1,00800,1,00,1,00,1",,"01,9",,"120,M,+0310,1","180,N,+0139,1","99999,9,08179,1","7,1,007,1,+006,1",,,"SYN124AAXX  27001 76373 32570 73201 10225 20137 38179 40118 57007 87700 92350 333 10310 20139 30/// 50551 56900 58006 70000 87627;",
"76373099999","2012-08-27T12:00:00","4","25.35","-105.75","1967.0","TEPEHUANES DGO., MX","FM-12","99999","V020","999,9,C,0000,1","00750,1,9,N","001000,1,N,1","+0153,1","+0146,1","10180,1","24,0165,9,1",,,,,"06,1,+00750,1,07,1",,"06,99,1,06,1,06,1,00800,1,00,1,00,1",,"01,9",,"120,N,+0142,1","240,M,+0310,1","99999,9,08229,1","9,9,999,9,+021,1",,,"SYN118AAXX  27121 76373 32510 60000 10153 20146 38229 40180 5//// 86600 91150 333 10310 20142 30135 56900 58021 70165 86725;",
"76373099999","2012-08-27T15:00:00","4","25.35","-105.75","1967.0","TEPEHUANES DGO., MX","FM-12","99999","V020","999,9,C,0000,1","22000,1,9,N","020000,1,N,1","+0165,1","+0162,1","10192,1",,,,,,,,"04,99,1,04,1,04,1,00800,1,00,1,00,1",,"01,9",,,,"99999,9,08239,1","2,1,010,1,+999,9",,,"SYN100AAXX  27151 76373 32570 40000 10165 20162 38239 40192 52010 84400 91450 333 30/// 58900 58026 84825;",
"76373099999","2012-08-27T18:00:00","4","25.35","-105.75","1967.0","TEPEHUANES DGO., MX","FM-12","99999","V020","999,9,C,0000,1","00750,1,9,N","030000,1,N,1","+0232,1","+0159,1","10186,1",,,,,,"05,1,+00750,1,08,1",,"05,99,1,05,1,05,1,00800,1,00,1,00,1",,"01,9",,"120,M,+0240,1","240,N,+0142,1","99999,9,08234,1","7,1,005,1,+022,1",,,"SYN112AAXX  27181 76373 32580 50000 10232 20159 38234 40186 57005 85500 91750 333 10240 20142 30/// 56900 58022 85825;",
"76373099999","2012-08-27T21:00:00","4","25.35","-105.75","1967.0","TEPEHUANES DGO., MX","FM-12","99999","V020","999,9,C,0000,1","00600,1,9,N","030000,1,N,1","+0214,1","+0154,1","10162,1",,,,,,"07,1,+00600,1,07,1",,"07,99,1,07,1,07,1,00800,1,00,1,00,1",,"01,9",,,,"99999,9,08214,1","7,1,020,1,+028,1",,,"SYN100AAXX  27211 76373 32580 70000 10214 20154 38214 40162 57020 87700 92050 333 30/// 56900 58028 87720;",
"76373099999","2012-08-28T00:00:00","4","25.35","-105.75","1967.0","TEPEHUANES DGO., MX","FM-12","99999","V020","999,9,C,0000,1","01200,1,9,N","030000,1,N,1","+0224,1","+0160,1","10151,1","24,0165,9,1",,,,,,,"08,99,1,08,1,08,1,00800,1,00,1,00,1",,"01,9",,"120,M,+0262,1","180,N,+0142,1","99999,9,08206,1","7,1,008,1,+027,1",,,"SYN124AAXX  28001 76373 32580 80000 10224 20160 38206 40151 57008 88800 92350 333 10262 20142 30/// 50381 56900 58027 70165 88825;",
"76373099999","2012-08-28T06:00:00","4","25.35","-105.75","1967.0","TEPEHUANES DGO., MX","FM-12","99999","V020","999,9,C,0000,1","01200,1,9,N","001000,1,N,1","+0182,1","+0149,1","10183,1",,,,,,,,"08,99,1,08,1,08,1,00800,1,00,1,00,1","0204,9","01,9",,"240,M,+0262,1","240,N,+0142,1","99999,9,08232,1","9,9,999,9,+003,1",,,"SYN124AAXX  28061 76373 32510 80000 10182 20149 38232 40183 5//// 88800 90550 333 10262 20142 30/// 55034 20773 56900 58003 88825;",
"76373099999","2012-08-28T12:00:00","4","25.35","-105.75","1967.0","TEPEHUANES DGO., MX","FM-12","99999","V020","999,9,C,0000,1","00600,1,9,N","001000,1,N,1","+0158,1","+0149,1","10193,1","24,0027,9,1",,,,,"08,1,+00600,1,07,1",,"08,99,1,08,1,08,1,00800,1,00,1,00,1",,"01,9",,"120,N,+0150,1","240,M,+0262,1","99999,9,08290,1","9,9,999,9,+011,1",,,"SYN118AAXX  28121 76373 32510 80000 10158 20149 38290 40193 5//// 88800 91155 333 10262 20150 30145 56900 58011 70027 88720;",
"76373099999","2012-08-28T15:00:00","4","25.35","-105.75","1967.0","TEPEHUANES DGO., MX","FM-12","99999","V020","999,9,C,0000,1","00750,1,9,N","020000,1,N,1","+0183,1","+0153,1","10186,1",,,,,,"08,1,+00750,1,08,1",,"99,99,9,06,1,06,1,00800,1,00,1,00,1",,"01,9",,,,"99999,9,08234,1","7,1,006,1,-005,1",,,"SYN100AAXX  28151 76373 32570 60000 10183 20153 38234 40186 57006 86600 91450 333 30/// 56900 59005 88825;","Q01+000062SCOTCV"
"76373099999","2012-08-28T18:00:00","4","25.35","-105.75","1967.0","TEPEHUANES DGO., MX","FM-12","99999","V020","999,9,C,0000,1","22000,1,9,N","030000,1,N,1","+0252,1","+0152,1","10178,1",,,,,,"04,1,+00750,1,08,1",,"04,99,1,04,1,04,1,00800,1,00,1,00,1",,"01,9",,"120,M,+0262,1","240,N,+0150,1","99999,9,08227,1","7,1,007,1,-007,1",,,"SYN112AAXX  28181 76373 32580 40000 10252 20152 38227 40178 57007 84400 91750 333 10262 20150 30/// 56900 59007 84825;",
"76373099999","2012-08-28T21:00:00","4","25.35","-105.75","1967.0","TEPEHUANES DGO., MX","FM-12","99999","V020","290,1,N,0010,1","00690,1,9,N","020000,1,N,1","+0230,1","+0139,1","10150,1",,,,,,"06,1,+00690,1,07,1",,"07,99,1,07,1,07,1,00800,1,00,1,00,1",,"01,9",,,,"99999,9,08205,1","7,1,022,1,-009,1",,,"SYN100AAXX  28211 76373 32570 72901 10230 20139 38205 40150 57022 87700 92050 333 30/// 56900 59009 86723;",
"76373099999","2012-08-29T00:00:00","4","25.35","-105.75","1967.0","TEPEHUANES DGO., MX","FM-12","99999","V020","999,9,C,0000,1","00750,1,9,N","020000,1,N,1","+0237,1","+0159,1","10135,1","24,0027,9,1",,,,,,,"07,99,1,07,1,07,1,00800,1,00,1,00,1",,"01,9",,"120,M,+0288,1","180,N,+0150,1","99999,9,08193,1","7,1,012,1,-013,1",,,"SYN124AAXX  29001 76373 32570 70000 10237 20159 38193 40135 57012 87700 92350 333 10288 20150 30/// 50281 56900 59013 70027 86723;",
"76373099999","2012-08-29T03:00:00","4","25.35","-105.75","1967.0","TEPEHUANES DGO., MX","FM-12","99999","V020","999,9,C,0000,1","00750,1,C,N","000400,1,N,1","+0206,1","+0149,1","10154,1",,,,,,"04,1,+00690,1,06,1",,"07,99,1,07,1,06,1,00800,1,00,1,00,1",,"01,9",,,,"99999,9,08208,1","2,1,015,1,-018,1",,,"SYN106AAXX  29031 76373 32504 70000 10206 20149 38208 40154 52015 87600 90240 333 30/// 56900 59018 84623 83723;",
"76373099999","2012-08-29T12:00:00","4","25.35","-105.75","1967.0","TEPEHUANES DGO., MX","FM-12","99999","V020","999,9,C,0000,1","00690,1,9,N","001000,1,N,1","+0156,1","+0141,1","10165,1","24,0000,9,1",,,,,"07,1,+00690,1,07,1",,"07,99,1,07,1,07,1,00800,1,00,1,00,1",,"01,9",,"120,N,+0148,1","240,M,+0288,1","99999,9,08217,1","9,9,999,9,-023,1",,,"SYN118AAXX  29121 76373 32510 70000 10156 20141 38217 40165 5//// 87700 91150 333 10288 20148 30137 56900 59023 70000 87723;",
"76373099999","2012-08-29T15:00:00","4","25.35","-105.75","1967.0","TEPEHUANES DGO., MX","FM-12","99999","V020","999,9,C,0000,1","22000,1,9,N","020000,1,N,1","+0190,1","+0143,1","10171,1",,,,,,"01,1,+00900,1,08,1",,"02,99,1,01,1,02,1,00800,1,07,1,00,1",,"01,9",,,,"99999,9,08222,1","2,1,005,1,-012,1",,,"SYN100AAXX  29151 76373 32570 20000 10190 20143 38222 40171 52005 81270 91450 333 30/// 56990 59012 81830;",
"76373099999","2012-08-29T18:00:00","4","25.35","-105.75","1967.0","TEPEHUANES DGO., MX","FM-12","99999","V020","999,9,C,0000,1","22000,1,9,N","020000,1,N,1","+0261,1","+0147,1","10159,1",,,,,,"02,1,+00750,1,06,1",,"03,99,1,02,1,04,1,00800,1,07,1,00,1",,"01,9",,"120,M,+0270,1","240,N,+0148,1","99999,9,08212,1","8,1,010,1,-015,1",,,"SYN112AAXX  29181 76373 32570 30000 10261 20147 38212 40159 58010 82470 91750 333 10270 20148 30/// 56990 59015 82625;",
"76373099999","2012-08-29T21:00:00","4","25.35","-105.75","1967.0","TEPEHUANES DGO., MX","FM-12","99999","V020","290,1,N,0010,1","00690,1,9,N","020000,1,N,1","+0268,1","+0126,1","10127,1",,,,,,"07,1,+00690,1,07,1",,"07,99,1,07,1,07,1,00800,1,00,1,00,1",,"01,9",,,,"99999,9,08186,1","7,1,026,1,-019,1",,,"SYN100AAXX  29211 76373 32570 72901 10268 20126 38186 40127 57026 87700 92050 333 30/// 56900 59019 87723;",
"76373099999","2012-08-30T00:00:00","4","25.35","-105.75","1967.0","TEPEHUANES DGO., MX","FM-12","99999","V020","999,9,C,0000,1","00750,1,9,N","020000,1,N,1","+0209,1","+0143,1","10133,1","24,0000,9,1",,,,,,,"08,99,1,08,1,07,1,00800,1,00,1,00,1",,"01,9",,"120,M,+0269,1","180,N,+0148,1","99999,9,08191,1","2,1,005,1,-003,1",,,"SYN124AAXX  30001 76373 32570 80000 10209 20143 38191 40133 52005 88700 92340 333 10269 20148 30/// 50561 56900 59003 70000 88723;",
"76373099999","2012-08-30T03:00:00","4","25.35","-105.75","1967.0","TEPEHUANES DGO., MX","FM-12","99999","V020","999,9,C,0000,1","00690,1,9,N","000400,1,N,1","+0192,1","+0149,1","10167,1",,,,,,"07,1,+00690,1,07,1",,"07,99,1,07,1,07,1,00800,1,00,1,00,1",,"01,9",,,,"99999,9,08218,1","2,1,027,1,+010,1",,,"SYN100AAXX  30031 76373 32504 70000 10192 20149 38218 40167 52027 87700 90245 333 30/// 56900 58010 87723;",
"76373099999","2012-08-30T06:00:00","4","25.35","-105.75","1967.0","TEPEHUANES DGO., MX","FM-12","99999","V020","999,9,C,0000,1","00750,1,9,N","000400,1,N,1","+0178,1","+0146,1","10163,1",,,,,,,,"08,99,1,08,1,07,1,00800,1,00,1,00,1","0444,9","01,9",,"240,M,+0246,1","240,N,+0148,1","99999,9,08216,1","5,1,002,1,-006,1",,,"SYN124AAXX  30061 76373 32504 80000 10178 20146 38216 40163 55002 88700 90545 333 10246 20148 30/// 55074 2//// 56900 59006 88723;",
"76373099999","2012-08-30T12:00:00","4","25.35","-105.75","1967.0","TEPEHUANES DGO., MX","FM-12","99999","V020","999,9,C,0000,1","22000,1,C,N","000600,1,N,1","+0156,1","+0145,1","10137,1","24,0000,9,1",,,,,"03,1,+00750,1,06,1",,"05,99,1,03,1,04,1,00800,1,00,1,04,1",,"01,9",,"120,N,+0145,1","240,M,+0269,1","99999,9,08195,1","9,9,999,9,-022,1",,,"SYN124AAXX  30121 76373 32506 50000 10156 20145 38195 40137 5//// 83404 91150 333 10269 20145 30130 56909 59022 70000 83625 82067;",
"76373099999","2012-08-30T15:00:00","4","25.35","-105.75","1967.0","TEPEHUANES DGO., MX","FM-12","99999","V020","999,9,C,0000,1","22000,1,C,N","020000,1,N,1","+0206,1","+0154,1","10152,1",,,,,,"03,1,+00750,1,06,1",,"06,99,1,03,1,04,1,00800,1,00,1,04,1",,"01,9",,,,"99999,9,08206,1","2,1,011,1,-016,1",,,"SYN106AAXX  30151 76373 32570 60000 10206 20154 38206 40152 52011 83404 91450 333 30/// 56909 59016 83625 83067;",
"76373099999","2012-08-30T21:00:00","4","25.35","-105.75","1967.0","TEPEHUANES DGO., MX","FM-12","99999","V020","110,1,N,0020,1","00015,1,9,N","030000,1,N,1","+0249,1","+0154,1","10129,1",,,,,,"06,1,+00015,1,06,1",,"06,99,1,06,1,06,1,00800,1,00,1,00,1",,"01,9",,,,"99999,9,08188,1","7,1,016,1,+002,1",,,"SYN100AAXX  30211 76373 32580 61102 10249 20154 38188 40129 57016 86600 92050 333 30/// 56900 58002 86600;",
"76373099999","2012-08-31T03:00:00","4","25.35","-105.75","1967.0","TEPEHUANES DGO., MX","FM-12","99999","V020","290,1,N,0010,1","01200,1,C,N","001000,1,N,1","+0200,1","+0142,1","10144,1",,,,,,"04,1,+00600,1,07,1",,"08,99,1,08,1,08,1,00800,1,00,1,00,1",,"01,9",,,,"99999,9,08200,1","2,1,021,1,-018,1",,,"SYN106AAXX  31031 76373 32510 82901 10200 20142 38200 40144 52021 88800 90250 333 30/// 56900 59018 84720 84625;",
"76373099999","2012-08-31T06:00:00","4","25.35","-105.75","1967.0","TEPEHUANES DGO., MX","FM-12","99999","V020","230,1,N,0010,1","01200,1,9,N","000500,1,N,1","+0170,1","+0139,1","10152,1",,,,,,"04,1,+00600,1,06,1",,"08,99,1,08,1,08,1,00800,1,00,1,00,1","0300,9","01,9",,"240,M,+0290,1","240,N,+0145,1","99999,9,08206,1","2,1,006,1,-010,1",,,"SYN130AAXX  31061 76373 32505 82301 10170 20139 38206 40152 52006 88800 90545 333 10290 20145 30/// 55050 21168 56900 59010 84620 84825;",
"76373099999","2012-08-31T12:00:00","4","25.35","-105.75","1967.0","TEPEHUANES DGO., MX","FM-12","99999","V020","999,9,C,0000,1","22000,1,9,N","001000,1,N,1","+0152,1","+0146,1","10148,1","24,0025,9,1",,,,,"02,1,+00600,1,08,1",,"02,99,1,02,1,02,1,00800,1,00,1,00,1",,"01,9",,"120,N,+0138,1","240,M,+0290,1","99999,9,08203,1","9,9,999,9,+008,1",,,"SYN118AAXX  31121 76373 32510 20000 10152 20146 38203 40148 5//// 82200 91150 333 10290 20138 30126 56900 58008 70025 82820;",
"76373099999","2012-08-31T18:00:00","4","25.35","-105.75","1967.0","TEPEHUANES DGO., MX","FM-12","99999","V020","110,1,N,0010,1","22000,1,9,N","030000,1,N,1","+0274,1","+0149,1","10154,1",,,,,,"03,1,+00600,1,06,1",,"03,99,1,03,1,03,1,00800,1,00,1,00,1",,"01,9",,"120,M,+0280,1","240,N,+0138,1","99999,9,08208,1","7,1,008,1,+004,1",,,"SYN112AAXX  31181 76373 32580 31101 10274 20149 38208 40154 57008 83300 91750 333 10280 20138 30/// 56900 58004 83620;",
"76373099999","2012-08-31T21:00:00","4","25.35","-105.75","1967.0","TEPEHUANES DGO., MX","FM-12","99999","V020","140,1,N,0030,1","22000,1,9,N","030000,1,N,1","+0290,1","+0132,1","10142,1",,,,,,"04,1,+00600,1,06,1",,"04,99,1,04,1,04,1,00800,1,00,1,00,1",,"01,9",,,,"99999,9,08198,1","7,1,010,1,+010,1",,,"SYN100AAXX  31211 76373 32580 41403 10290 20132 38198 40142 57010 84400 92050 333 30/// 56900 58010 84620;",
"76373099999","2012-09-01T00:00:00","4","25.35","-105.75","1967.0","TEPEHUANES DGO., MX","FM-12","99999","V020","999,9,C,0000,1","22000,1,9,N","030000,1,N,1","+0233,1","+0146,1","10140,1","24,0000,9,1",,,,,,,"04,99,1,04,1,04,1,00800,1,00,1,00,1",,"01,9",,"120,M,+0310,1","180,N,+0138,1","99999,9,08197,1","2,1,001,1,+018,1",,,"SYN124AAXX  01001 76373 32580 40000 10233 20146 38197 40140 52001 84400 92350 333 10310 20138 30/// 50601 56900 58018 70000 84720;",
"76373099999","2012-09-01T03:00:00","4","25.35","-105.75","1967.0","TEPEHUANES DGO., MX","FM-12","99999","V020","999,9,C,0000,1","22000,1,9,N","005000,1,N,1","+0200,1","+0137,1","10145,1",,,,,,"00,1,+99999,9,99,9",,"00,99,1,00,1,00,1,99999,9,00,1,00,1",,"01,9",,,,"99999,9,08201,1","2,1,004,1,+001,1",,,"SYN082AAXX  01031 76373 32950 00000 10200 20137 38201 40145 52004 90250 333 30/// 58001;",
"76373099999","2012-09-01T15:00:00","4","25.35","-105.75","1967.0","TEPEHUANES DGO., MX","FM-12","99999","V020","999,9,C,0000,1","22000,1,9,N","020000,1,N,1","+0194,1","+0143,1","10177,1",,,,,,"01,1,+00810,1,08,1",,"01,99,1,01,1,03,1,00800,1,00,1,00,1",,"01,9",,,,"99999,9,08226,1","2,1,004,1,+010,1",,,"SYN100AAXX  01151 76373 32570 10000 10194 20143 38226 40177 52004 81300 91450 333 30/// 56900 58010 81827;",
"76373099999","2012-09-01T18:00:00","4","25.35","-105.75","1967.0","TEPEHUANES DGO., MX","FM-12","99999","V020","150,1,N,0010,1","22000,1,9,N","020000,1,N,1","+0271,1","+0153,1","99999,9",,,,,,,,"04,99,1,99,9,99,9,00800,1,99,9,99,9",,,,,,,,,,"SYN114AAXX  01181 76373 32570 41501 10271 20153 3 38219 40168 57007 84300 91750 333 10280 20135 30/// 56900 58011 84827;",
"76373099999","2012-09-01T21:00:00","4","25.35","-105.75","1967.0","TEPEHUANES DGO., MX","FM-12","99999","V020","140,1,N,0020,1","00810,1,9,N","020000,1,N,1","+0277,1","+0121,1","10150,1",,,,,,"07,1,+00810,1,08,1",,"07,99,1,07,1,03,1,00800,1,00,1,00,1",,"01,9",,,,"99999,9,08205,1","7,1,004,1,+007,1",,,"SYN100AAXX  01211 76373 32570 71402 10277 20121 38205 40150 57004 87300 92050 333 30/// 56900 58007 87827;",
"76373099999","2012-09-02T00:00:00","4","25.35","-105.75","1967.0","TEPEHUANES DGO., MX","FM-12","99999","V020","140,1,N,0010,1","00750,1,9,N","020000,1,N,1","+0252,1","+0128,1","10140,1","24,0000,9,1",,,,,,,"06,99,1,06,1,07,1,00800,1,00,1,00,1",,"01,9",,"120,M,+0310,1","180,N,+0135,1","99999,9,08197,1","7,1,008,1,+000,1",,,"SYN124AAXX  02001 76373 32570 61401 10252 20128 38197 40140 57008 86700 92350 333 10310 20135 30/// 50681 56900 58000 70000 86627;",
"76373099999","2012-09-02T03:00:00","4","25.35","-105.75","1967.0","TEPEHUANES DGO., MX","FM-12","99999","V020","999,9,C,0000,1","22000,1,9,N","005000,1,N,1","+0208,1","+0128,1","10158,1",,,,,,"02,1,+00810,1,06,1",,"02,99,1,02,1,05,1,00800,1,00,1,00,1",,"01,9",,,,"99999,9,08211,1","2,1,014,1,+010,1",,,"SYN100AAXX  02031 76373 32550 20000 10208 20128 38211 40158 52014 82500 90250 333 30/// 56900 58010 82627;",
"76373099999","2012-09-02T12:00:00","4","25.35","-105.75","1967.0","TEPEHUANES DGO., MX","FM-12","99999","V020","999,9,C,0000,1","22000,1,9,N","005000,1,N,1","+0129,1","+0120,1","10168,1",,,,,,"00,1,+99999,9,99,9",,"00,99,1,00,1,00,1,99999,9,00,1,00,1","0504,9","01,9",,"120,N,+0120,1","240,M,+0310,1","99999,9,08220,1","9,9,999,9,-022,1",,,"SYN112AAXX  02121 76373 32950 00000 10129 20120 38220 40168 5//// 91150 333 10310 20120 30/// 55084 21562 59022 70000;",
"76373099999","2012-09-02T15:00:00","4","25.35","-105.75","1967.0","TEPEHUANES DGO., MX","FM-12","99999","V020","999,9,C,0000,1","22000,1,9,N","020000,1,N,1","+0189,1","+0130,1","10178,1",,,,,,"00,1,+99999,9,99,9",,"00,99,1,00,1,00,1,99999,9,00,1,00,1",,"01,9",,,,"99999,9,08228,1","2,1,008,1,+002,1",,,"SYN082AAXX  02151 76373 32970 00000 10189 20130 38228 40178 52008 91450 333 30/// 58002;",
"76373099999","2012-09-02T18:00:00","4","25.35","-105.75","1967.0","TEPEHUANES DGO., MX","FM-12","99999","V020","999,9,C,0000,1","22000,1,9,N","020000,1,N,1","+0280,1","+0127,1","10175,1",,,,,,"04,1,+00810,1,08,1",,"04,99,1,04,1,03,1,00800,1,00,1,00,1",,"01,9",,"120,M,+0290,1","240,N,+0120,1","99999,9,08225,1","7,1,005,1,+006,1",,,"SYN112AAXX  02181 76373 32570 40000 10280 20127 38225 40175 57005 84300 91750 333 10290 20120 30/// 56900 58006 84827;",
"76373099999","2012-09-02T21:00:00","4","25.35","-105.75","1967.0","TEPEHUANES DGO., MX","FM-12","99999","V020","140,1,N,0010,1","00810,1,9,N","020000,1,N,1","+0315,1","+0114,1","10138,1",,,,,,"05,1,+00810,1,08,1",,"05,99,1,05,1,03,1,00800,1,00,1,00,1",,"01,9",,,,"99999,9,08195,1","7,1,030,1,-010,1",,,"SYN100AAXX  02211 76373 32570 51401 10315 20114 38195 40138 57030 85300 92050 333 30/// 56900 59010 85827;",
"76373099999","2012-09-03T00:00:00","4","25.35","-105.75","1967.0","TEPEHUANES DGO., MX","FM-12","99999","V020","160,1,N,0020,1","00750,1,9,N","020000,1,N,1","+0282,1","+0117,1","10134,1","24,0000,9,1",,,,,,,"06,99,1,06,1,07,1,00800,1,00,1,00,1",,"01,9",,"120,M,+0326,1","180,N,+0120,1","99999,9,08192,1","7,1,003,1,-005,1",,,"SYN124AAXX  03001 76373 32570 61602 10282 20117 38192 40134 57003 86700 92350 333 10326 20120 30/// 50731 56900 59005 70000 86627;",
"76373099999","2012-09-03T03:00:00","4","25.35","-105.75","1967.0","TEPEHUANES DGO., MX","FM-12","99999","V020","999,9,C,0000,1","22000,1,9,N","005000,1,N,1","+0204,1","+0135,1","10173,1",,,,,,"03,1,+00810,1,06,1",,"03,99,1,99,9,99,9,00800,1,99,9,99,9",,"01,9",,,,"99999,9,08224,1","2,1,032,1,+013,1",,,"SYN094AAXX  03031 76373 32550 30000 10204 20135 38224 40173 52032 90250 333 30/// 56900 58013 83627;",
"76373099999","2012-09-03T06:00:00","4","25.35","-105.75","1967.0","TEPEHUANES DGO., MX","FM-12","99999","V020","999,9,C,0000,1","22000,1,9,N","005000,1,N,1","+0174,1","+0155,1","10195,1","03,0061,9,1",,,,,,,"04,99,1,04,1,07,1,00800,1,00,1,00,1","0060,9","09,9",,"240,M,+0326,1","240,N,+0120,1","99999,9,08241,1","2,1,017,1,+023,1",,,"SYN130AAXX  03061 76373 12550 40000 10174 20155 38241 40195 52017 60067 84700 90550 333 10326 20120 31/// 55010 22086 56900 58023 84627;",
"76373099999","2012-09-03T12:00:00","4","25.35","-105.75","1967.0","TEPEHUANES DGO., MX","FM-12","99999","V020","999,9,C,0000,1","00750,1,9,N","001000,1,N,1","+0158,1","+0151,1","10190,1","24,0064,9,1",,,,,"06,1,+00750,1,08,1",,"06,99,1,06,1,06,1,00800,1,00,1,00,1",,"01,9",,"120,N,+0149,1","240,M,+0362,1","99999,9,08237,1","9,9,999,9,+017,1",,,"SYN118AAXX  03121 76373 32510 60000 10158 20151 38237 40190 5//// 86600 91150 333 10362 20149 30140 56900 58017 70064 86825;",
"76373099999","2012-09-03T15:00:00","4","25.35","-105.75","1967.0","TEPEHUANES DGO., MX","FM-12","99999","V020","999,9,C,0000,1","00600,1,9,N","020000,1,N,1","+0184,1","+0153,1","10191,1",,,,,,"06,1,+00600,1,07,1",,"06,99,1,06,1,06,1,00800,1,00,1,00,1",,"01,9",,,,"99999,9,08244,1","2,1,007,1,+009,1",,,"SYN100AAXX  03151 76373 32570 60000 10184 20153 38244 40191 52007 86600 91455 333 30/// 56900 58009 86720;",
"76373099999","2012-09-03T18:00:00","4","25.35","-105.75","1967.0","TEPEHUANES DGO., MX","FM-12","99999","V020","999,9,C,0000,1","22000,1,9,N","030000,1,N,1","+0245,1","+0146,1","10192,1",,,,,,"03,1,+00750,1,08,1",,"03,99,1,03,1,03,1,00800,1,00,1,00,1",,"01,9",,"120,M,+0250,1","240,N,+0149,1","99999,9,08239,1","7,1,005,1,+014,1",,,"SYN112AAXX  03181 76373 32580 30000 10245 20146 38239 40192 57005 83300 91750 333 10250 20149 30/// 56900 58014 83825;",
"76373099999","2012-09-03T21:00:00","4","25.35","-105.75","1967.0","TEPEHUANES DGO., MX","FM-12","99999","V020","290,1,N,0010,1","00600,1,9,N","030000,1,N,1","+0213,1","+0154,1","10182,1",,,,,,"08,1,+00600,1,07,1",,"08,99,1,08,1,08,1,00800,1,00,1,00,1",,"01,9",,,,"99999,9,08230,1","7,1,009,1,+035,1",,,"SYN100AAXX  03211 76373 32580 82901 10213 20154 38230 40182 57009 88800 92050 333 30/// 56900 58035 88720;",
"76373099999","2012-09-04T00:00:00","4","25.35","-105.75","1967.0","TEPEHUANES DGO., MX","FM-12","99999","V020","999,9,C,0000,1","01200,1,9,N","030000,1,N,1","+0174,1","+0162,1","10195,1","24,0090,9,1",,,,,,,"08,99,1,08,1,08,1,00800,1,00,1,00,1",,"01,9",,"120,M,+0300,1","180,N,+0149,1","99999,9,08241,1","7,1,035,1,+049,1",,,"SYN124AAXX  04001 76373 32580 80000 10174 20162 38241 40195 57035 88800 92350 333 10300 20149 30/// 50491 56900 58049 70090 88720;",
"76373099999","2012-09-04T06:00:00","4","25.35","-105.75","1967.0","TEPEHUANES DGO., MX","FM-12","99999","V020","999,9,C,0000,1","22000,1,9,N","001000,1,N,1","+0171,1","+0163,1","10206,1",,,,,,,,"04,99,1,04,1,04,1,00800,1,00,1,00,1","0186,9","01,9",,"240,M,+0300,1","240,N,+0149,1","99999,9,08250,1","9,9,999,9,+009,1",,,"SYN124AAXX  04061 76373 32510 40000 10171 20163 38250 40206 5//// 84400 90545 333 10300 20149 30/// 55031 20950 56900 58009 84825;",
"76373099999","2012-09-04T12:00:00","4","25.35","-105.75","1967.0","TEPEHUANES DGO., MX","FM-12","99999","V020","999,9,C,0000,1","00750,1,9,N","001000,1,N,1","+0153,1","+0148,1","10193,1","24,0026,9,1",,,,,"07,1,+00750,1,08,1",,"07,99,1,07,1,07,1,00800,1,00,1,00,1",,"01,9",,"120,N,+0142,1","240,M,+0300,1","99999,9,08240,1","9,9,999,9,+003,1",,,"SYN118AAXX  04121 76373 32510 70000 10153 20148 38240 40193 5//// 87700 91150 333 10300 20142 30135 56900 58003 70026 87825;",
"76373099999","2012-09-04T15:00:00","4","25.35","-105.75","1967.0","TEPEHUANES DGO., MX","FM-12","99999","V020","999,9,C,0000,1","00600,1,9,N","020000,1,N,1","+0164,1","+0155,1","10212,1",,,,,,"07,1,+00600,1,07,1",,"07,99,1,07,1,07,1,00800,1,00,1,00,1",,"01,9",,,,"99999,9,08250,1","2,1,015,1,+015,1",,,"SYN100AAXX  04151 76373 32570 70000 10164 20155 38250 40212 52015 87700 91450 333 30/// 56900 58015 87720;",
"76373099999","2012-09-04T21:00:00","4","25.35","-105.75","1967.0","TEPEHUANES DGO., MX","FM-12","99999","V020","999,9,C,0000,1","00750,1,9,N","020000,1,N,1","+0279,1","+0137,1","10159,1",,,,,,"05,1,+00750,1,06,1",,"06,99,1,06,1,05,1,00800,1,00,1,00,1",,"01,9",,,,"99999,9,08212,1","7,1,029,1,-018,1",,,"SYN100AAXX  04211 76373 32570 60000 10279 20137 38212 40159 57029 86500 92050 333 30/// 56900 59018 85625;",
"76373099999","2012-09-05T00:00:00","4","25.35","-105.75","1967.0","TEPEHUANES DGO., MX","FM-12","99999","V020","140,1,N,0010,1","00750,1,9,N","020000,1,N,1","+0249,1","+0117,1","10152,1","24,0000,9,1",,,,,,,"08,99,1,08,1,07,1,00800,1,00,1,00,1",,"01,9",,"120,M,+0290,1","180,N,+0142,1","99999,9,08207,1","5,1,005,1,-034,1",,,"SYN124AAXX  05001 76373 32570 81401 10249 20117 38207 40152 55005 88700 92350 333 10290 20142 30/// 50471 56900 59034 70000 88723;",
"76373099999","2012-09-05T03:00:00","4","25.35","-105.75","1967.0","TEPEHUANES DGO., MX","FM-12","99999","V020","999,9,C,0000,1","00690,1,9,N","000600,1,N,1","+0207,1","+0131,1","10163,1",,,,,,"07,1,+00690,1,07,1",,"07,99,1,07,1,07,1,00800,1,00,1,00,1",,"01,9",,,,"99999,9,08216,1","2,1,009,1,+999,9",,,"SYN100AAXX  05031 76373 32506 70000 10207 20131 38216 40163 52009 87700 90250 333 30/// 56900 58/// 87723;",
"76373099999","2012-09-05T06:00:00","4","25.35","-105.75","1967.0","TEPEHUANES DGO., MX","FM-12","99999","V020","999,9,C,0000,1","00750,1,9,N","000400,1,N,1","+0188,1","+0152,1","10181,1",,,,,,,,"07,99,1,07,1,07,1,00800,1,00,1,00,1","0330,9","01,9",,"240,M,+0290,1","240,N,+0142,1","99999,9,08230,1","2,1,014,1,-020,1",,,"SYN124AAXX  05061 76373 32504 70000 10188 20152 38230 40181 52014 87700 90550 333 10290 20142 30/// 55055 21385 56900 59020 87723;",
"76373099999","2012-09-05T12:00:00","4","25.35","-105.75","1967.0","TEPEHUANES DGO., MX","FM-12","99999","V020","999,9,C,0000,1","22000,1,9,N","001000,1,N,1","+0153,1","+0141,1","10168,1","24,0000,9,1",,,,,"01,1,+00750,1,06,1",,"01,99,1,01,1,04,1,00800,1,00,1,00,1",,"01,9",,"120,N,+0145,1","240,M,+0290,1","99999,9,08219,1","9,9,999,9,-021,1",,,"SYN118AAXX  05121 76373 32510 10000 10153 20141 38219 40168 5//// 81400 91150 333 10290 20145 30130 56900 59021 70000 81625;",
"76373099999","2012-09-05T15:00:00","4","25.35","-105.75","1967.0","TEPEHUANES DGO., MX","FM-12","99999","V020","999,9,C,0000,1","00690,1,9,N","020000,1,N,1","+0187,1","+0143,1","10178,1",,,,,,"05,1,+00690,1,06,1",,"05,99,1,05,1,05,1,00800,1,00,1,00,1",,"01,9",,,,"99999,9,08228,1","2,1,009,1,-027,1",,,"SYN100AAXX  05151 76373 32570 50000 10187 20143 38228 40178 52009 85500 91445 333 30/// 56900 59027 85623;",
"76373099999","2012-09-05T18:00:00","4","25.35","-105.75","1967.0","TEPEHUANES DGO., MX","FM-12","99999","V020","999,9,C,0000,1","22000,1,9,N","020000,1,N,1","+0277,1","+0132,1","10168,1",,,,,,"02,1,+00750,1,06,1",,"02,99,1,02,1,04,1,00800,1,00,1,00,1",,"01,9",,"120,M,+0282,1","240,N,+0145,1","99999,9,08219,1","7,1,009,1,-022,1",,,"SYN112AAXX  05181 76373 32570 20000 10277 20132 38219 40168 57009 82400 91750 333 10282 20145 30/// 56900 59022 82625;",
"76373099999","2012-09-05T21:00:00","4","25.35","-105.75","1967.0","TEPEHUANES DGO., MX","FM-12","99999","V020","150,1,N,0020,1","00690,1,9,N","020000,1,N,1","+0270,1","+0127,1","10140,1",,,,,,"07,1,+00690,1,07,1",,"07,99,1,07,1,07,1,00800,1,00,1,00,1",,"01,9",,,,"99999,9,08197,1","7,1,022,1,-015,1",,,"SYN100AAXX  05211 76373 32570 71502 10270 20127 38197 40140 57022 87700 92050 333 30/// 56900 59015 87723;",
"76373099999","2012-09-06T00:00:00","4","25.35","-105.75","1967.0","TEPEHUANES DGO., MX","FM-12","99999","V020","999,9,C,0000,1","00750,1,9,N","020000,1,N,1","+0189,1","+0153,1","10155,1","24,0023,9,1",,,,,,,"07,99,1,07,1,07,1,00800,1,00,1,00,1",,"01,9",,"120,M,+0311,1","180,N,+0145,1","99999,9,08205,1","2,1,008,1,-002,1",,,"SYN124AAXX  06001 76373 32570 70000 10189 20153 38205 40155 52008 87700 92350 333 10311 20145 30/// 50631 56900 59002 70023 87723;",
"76373099999","2012-09-06T03:00:00","4","25.35","-105.75","1967.0","TEPEHUANES DGO., MX","FM-12","99999","V020","999,9,C,0000,1","22000,1,9,N","000400,1,N,1","+0175,1","+0149,1","10170,1",,,,,,"04,1,+00750,1,06,1",,"04,99,1,04,1,04,1,00800,1,00,1,00,1",,"01,9",,,,"99999,9,08221,1","2,1,016,1,+005,1",,,"SYN100AAXX  06031 76373 32504 40000 10175 20149 38221 40170 52016 84400 90250 333 30/// 56900 58005 84625;",
"76373099999","2012-09-06T06:00:00","4","25.35","-105.75","1967.0","TEPEHUANES DGO., MX","FM-12","99999","V020","999,9,C,0000,1","22000,1,9,N","000400,1,N,1","+0151,1","+0144,1","10169,1",,,,,,"00,1,+99999,9,99,9",,"00,99,1,00,1,00,1,99999,9,00,1,00,1","0354,9","01,9",,"240,M,+0311,1","240,N,+0145,1","99999,9,08220,1","8,1,001,1,+999,9",,,"SYN106AAXX  06061 76373 32504 00000 10151 20144 38220 40169 58001 90540 333 10311 20145 30/// 55059 21208 59010;",
"76373099999","2012-09-06T12:00:00","4","25.35","-105.75","1967.0","TEPEHUANES DGO., MX","FM-12","99999","V020","999,9,C,0000,1","22000,1,9,N","001000,1,N,1","+0129,1","+0125,1","10173,1","24,0023,9,1",,,,,"01,1,+00750,1,06,1",,"01,99,1,01,1,04,1,00800,1,00,1,00,1",,"01,9",,"120,N,+0120,1","240,M,+0311,1","99999,9,08223,1","9,9,999,9,+004,1",,,"SYN118AAXX  06121 76373 32510 10000 10129 20125 38223 40173 5//// 81400 91150 333 10311 20120 30108 56900 58004 70023 81625;",
"76373099999","2012-09-06T15:00:00","4","25.35","-105.75","1967.0","TEPEHUANES DGO., MX","FM-12","99999","V020","999,9,C,0000,1","00750,1,9,N","020000,1,N,1","+0168,1","+0141,1","10183,1",,,,,,"07,1,+00750,1,06,1",,"07,99,1,07,1,05,1,00800,1,00,1,00,1",,"01,9",,,,"99999,9,08232,1","5,1,001,1,+004,1",,,"SYN100AAXX  06151 76373 32570 70000 10168 20141 38232 40183 55001 87500 91450 333 30/// 56900 58004 87625;",
"76373099999","2012-09-06T18:00:00","4","25.35","-105.75","1967.0","TEPEHUANES DGO., MX","FM-12","99999","V020","999,9,C,0000,1","22000,1,9,N","030000,1,N,1","+0265,1","+0141,1","10171,1",,,,,,"03,1,+00750,1,08,1",,"03,99,1,03,1,03,1,00800,1,00,1,00,1",,"01,9",,"120,M,+0272,1","240,N,+0120,1","99999,9,08222,1","2,1,010,1,+003,1",,,"SYN112AAXX  06181 76373 32580 30000 10265 20141 38222 40171 52010 83300 91750 333 10272 20120 30/// 56900 58003 83825;",
"76373099999","2012-09-06T21:00:00","4","25.35","-105.75","1967.0","TEPEHUANES DGO., MX","FM-12","99999","V020","999,9,C,0000,1","00750,1,9,N","030000,1,N,1","+0282,1","+0130,1","10148,1",,,,,,"05,1,+00750,1,08,1",,"05,99,1,05,1,05,1,00800,1,00,1,00,1",,"01,9",,,,"99999,9,08203,1","7,1,019,1,+006,1",,,"SYN100AAXX  06211 76373 32580 50000 10282 20130 38203 40148 57019 85500 92050 333 30/// 56900 58006 85825;",
"76373099999","2012-09-07T00:00:00","4","25.35","-105.75","1967.0","TEPEHUANES DGO., MX","FM-12","99999","V020","160,1,N,0010,1","00750,1,9,N","030000,1,N,1","+0183,1","+0154,1","10155,1","24,0072,9,1",,,,,,,"07,99,1,07,1,07,1,00800,1,00,1,00,1",,"01,9",,"120,M,+0312,1","180,N,+0120,1","99999,9,08209,1","2,1,006,1,+004,1",,,"SYN124AAXX  07001 76373 32580 71601 10183 20154 38209 40155 52006 87700 92350 333 10312 20120 30/// 50491 56900 58004 70072 87720;",
"76373099999","2012-09-07T06:00:00","4","25.35","-105.75","1967.0","TEPEHUANES DGO., MX","FM-12","99999","V020","999,9,C,0000,1","22000,1,9,N","001000,1,N,1","+0161,1","+0151,1","10173,1",,,,,,,,"04,99,1,04,1,04,1,00800,1,00,1,00,1","0336,9","01,9",,"240,M,+0312,1","240,N,+0120,1","99999,9,08224,1","9,9,999,9,+004,1",,,"SYN124AAXX  07061 76373 32510 40000 10161 20151 38224 40173 5//// 84400 90540 333 10312 20120 30/// 55056 20999 56900 58004 84720;",
"76373099999","2012-09-07T12:00:00","4","25.35","-105.75","1967.0","TEPEHUANES DGO., MX","FM-12","99999","V020","999,9,C,0000,1","22000,1,9,N","001000,1,N,1","+0149,1","+0142,1","10180,1","24,0072,9,1",,,,,"02,1,+00750,1,08,1",,"02,99,1,02,1,02,1,00800,1,00,1,00,1",,"01,9",,"120,N,+0140,1","240,M,+0312,1","99999,9,08229,1","9,9,999,9,+006,1",,,"SYN118AAXX  07121 76373 32510 20000 10149 20142 38229 40180 5//// 82200 91150 333 10312 20140 30129 56900 58006 70072 82825;",
"76373099999","2012-09-07T15:00:00","4","25.35","-105.75","1967.0","TEPEHUANES DGO., MX","FM-12","99999","V020","999,9,C,0000,1","22000,1,9,N","020000,1,N,1","+0185,1","+0152,1","10183,1",,,,,,"01,1,+00750,1,08,1",,"01,99,1,01,1,01,1,00800,1,00,1,00,1",,"01,9",,,,"99999,9,08232,1","2,1,003,1,+001,1",,,"SYN100AAXX  07151 76373 32570 10000 10185 20152 38232 40183 52003 81100 91455 333 30/// 56900 58001 81825;",
"76373099999","2012-09-07T18:00:00","4","25.35","-105.75","1967.0","TEPEHUANES DGO., MX","FM-12","99999","V020","999,9,C,0000,1","22000,1,9,N","030000,1,N,1","+0265,1","+0149,1","10165,1",,,,,,"00,1,+99999,9,99,9",,"00,99,1,00,1,00,1,99999,9,00,1,00,1",,"01,9",,"120,M,+0272,1","240,N,+0140,1","99999,9,08217,1","7,1,015,1,-005,1",,,"SYN094AAXX  07181 76373 32980 00000 10265 20149 38217 40165 57015 91750 333 10272 20140 30/// 59005;",
"76373099999","2012-09-07T21:00:00","4","25.35","-105.75","1967.0","TEPEHUANES DGO., MX","FM-12","99999","V020","999,9,C,0000,1","22000,1,9,N","030000,1,N,1","+0278,1","+0145,1","10142,1",,,,,,"04,1,+00750,1,08,1",,"04,99,1,04,1,04,1,00800,1,00,1,00,1",,"01,9",,,,"99999,9,08198,1","7,1,019,1,-005,1",,,"SYN100AAXX  07211 76373 32580 40000 10278 20145 38198 40142 57019 84400 92050 333 30/// 56900 59005 84825;",
"76373099999","2012-09-08T00:00:00","4","25.35","-105.75","1967.0","TEPEHUANES DGO., MX","FM-12","99999","V020","999,9,C,0000,1","00750,1,9,N","030000,1,N,1","+0228,1","+0141,1","10140,1","24,0000,9,1",,,,,,,"06,99,1,06,1,06,1,00800,1,00,1,00,1",,"01,9",,"120,M,+0300,1","180,N,+0140,1","99999,9,08197,1","7,1,001,1,-012,1",,,"SYN124AAXX  08001 76373 32580 60000 10228 20141 38197 40140 57001 86600 92350 333 10300 20140 30/// 50861 56900 59012 70000 86720;",
"76373099999","2012-09-08T06:00:00","4","25.35","-105.75","1967.0","TEPEHUANES DGO., MX","FM-12","99999","V020","999,9,C,0000,1","22000,1,9,N","001000,1,N,1","+0159,1","+0136,1","99999,9",,,,,,"00,1,+99999,9,99,9",,"00,99,1,00,1,00,1,99999,9,00,1,00,1","0348,9",,,"240,M,+0300,1","240,N,+0140,1","99999,9,99999,9",,,,"SYN106AAXX  08061 76373 32910 00000 10159 20136 30550 38220 40168 5//// 333 10300 20140 30/// 55058 21103 59004;","Q01 095503APOSP "
"76373099999","2012-09-08T12:00:00","4","25.35","-105.75","1967.0","TEPEHUANES DGO., MX","FM-12","99999","V020","999,9,C,0000,1","22000,1,9,N","001000,1,N,1","+0118,1","+0116,1","10170,1","24,0000,9,1",,,,,"00,1,+99999,9,99,9",,"00,99,1,00,1,00,1,99999,9,00,1,00,1",,"01,9",,"120,N,+0109,1","240,M,+0300,1",,"9,9,999,9,-008,1",,,"SYN100AAXX  08121 76373 32910 00000 10118 20116 38221 40170 5//// 91150 333 10300 20109 30100 59008 70000;","Q01+082213APOSP Q02  00002PRCP24"
"76373099999","2012-09-08T18:00:00","4","25.35","-105.75","1967.0","TEPEHUANES DGO., MX","FM-12","99999","V020","999,9,C,0000,1","22000,1,9,N","030000,1,N,1","+0264,1","+0148,1","10170,1",,,,,,"00,1,+99999,9,99,9",,"00,99,1,00,1,00,1,99999,9,00,1,00,1",,"01,9",,"120,M,+0302,1","240,N,+0109,1","99999,9,08221,1","7,1,003,1,+004,1",,,"SYN094AAXX  08181 76373 32980 00000 10264 20148 38221 40170 57003 91750 333 10302 20109 30/// 58004;",
"76373099999","2012-09-08T21:00:00","4","25.35","-105.75","1967.0","TEPEHUANES DGO., MX","FM-12","99999","V020","290,1,N,0010,1","22000,1,9,N","030000,1,N,1","+0273,1","+0095,1","10154,1",,,,,,"03,1,+00750,1,08,1",,"03,99,1,03,1,03,1,00800,1,00,1,00,1",,"01,9",,,,"99999,9,08208,1","7,1,013,1,+010,1",,,"SYN100AAXX  08211 76373 32580 32901 10273 20095 38208 40154 57013 83300 92050 333 30/// 56900 58010 83825;",
"76373099999","2012-09-09T18:00:00","4","25.35","-105.75","1967.0","TEPEHUANES DGO., MX","FM-12","99999","V020","110,1,N,0010,1","22000,1,9,N","030000,1,N,1","+0263,1","+0113,1","10198,1",,,,,,"04,1,+00750,1,08,1",,"04,99,1,04,1,04,1,00800,1,00,1,00,1",,"01,9",,"120,M,+0301,1","240,N,+0112,1","99999,9,08244,1","9,9,999,9,+023,1",,,"SYN112AAXX  09181 76373 32580 41101 10263 20113 38244 40198 5//// 84400 91750 333 10301 20112 30/// 56900 58023 84825;",
"76373099999","2012-09-10T00:00:00","4","25.35","-105.75","1967.0","TEPEHUANES DGO., MX","FM-12","99999","V020","110,1,N,0010,1","22000,1,9,N","030000,1,N,1","+0271,1","+0097,1","10154,1","24,0000,9,1",,,,,,,"03,99,1,03,1,03,1,00800,1,00,1,00,1",,"01,9",,"120,M,+0303,1","180,N,+0112,1","99999,9,08208,1","9,9,999,9,+003,1",,,"SYN124AAXX  10001 76373 32580 31101 10271 20097 38208 40154 5//// 83300 92350 333 10303 20112 30/// 50601 56900 58003 70000 83825;",
"76373099999","2012-09-10T03:00:00","4","25.35","-105.75","1967.0","TEPEHUANES DGO., MX","FM-12","99999","V020","999,9,C,0000,1","22000,1,9,N","001000,1,N,1","+0198,1","+0109,1","10182,1",,,,,,"00,1,+99999,9,99,9",,"00,99,1,00,1,00,1,99999,9,00,1,00,1",,"01,9",,,,"99999,9,08230,1","2,1,022,1,+006,1",,,"SYN082AAXX  10031 76373 32910 00000 10198 20109 38230 40182 52022 90250 333 30/// 58006;",
"76373099999","2012-09-10T06:00:00","4","25.35","-105.75","1967.0","TEPEHUANES DGO., MX","FM-12","99999","V020","999,9,C,0000,1","22000,1,9,N","001000,1,N,1","+0159,1","+0118,1","10196,1",,,,,,"00,1,+99999,9,99,9",,"00,99,1,00,1,00,1,99999,9,00,1,00,1","0480,9","01,9",,"240,M,+0303,1","240,N,+0142,1","99999,9,08242,1","2,1,012,1,+999,9",,,"SYN106AAXX  10061 76373 32910 00000 10159 20118 38242 40196 52012 90550 333 10303 20142 30/// 55080 21441 58006;",
"76373099999","2012-09-10T15:00:00","4","25.35","-105.75","1967.0","TEPEHUANES DGO., MX","FM-12","99999","V020","999,9,C,0000,1","22000,1,9,N","020000,1,N,1","+0170,1","+0113,1","10202,1",,,,,,"00,1,+99999,9,99,9",,"00,99,1,00,1,00,1,99999,9,00,1,00,1",,"01,9",,,,"99999,9,08247,1","2,1,010,1,+021,1",,,"SYN082AAXX  10151 76373 32970 00000 10170 20113 38247 40202 52010 91450 333 30/// 58021;",
"76373099999","2012-09-10T18:00:00","4","25.35","-105.75","1967.0","TEPEHUANES DGO., MX","FM-12","99999","V020","999,9,C,0000,1","22000,1,9,N","001000,1,N,1","+0253,1","+0119,1","10190,1",,,,,,"00,1,+99999,9,99,9",,"00,99,1,00,1,00,1,99999,9,00,1,00,1",,"01,9",,"120,M,+0258,1","240,N,+0102,1","99999,9,08237,1","7,1,010,1,-007,1",,,"SYN094AAXX  10181 76373 32910 00000 10253 20119 38237 40190 57010 91750 333 10258 20102 30/// 59007;",
"76373099999","2012-09-10T21:00:00","4","25.35","-105.75","1967.0","TEPEHUANES DGO., MX","FM-12","99999","V020","140,1,N,0010,1","22000,1,9,N","030000,1,N,1","+0296,1","+0094,1","10157,1",,,,,,"03,1,+00750,1,08,1",,"03,99,1,03,1,03,1,00800,1,00,1,00,1",,"01,9",,,,"99999,9,08210,1","7,1,027,1,-013,1",,,"SYN100AAXX  10211 76373 32580 31401 10296 20094 38210 40157 57027 83300 92050 333 30/// 56900 59013 83825;",
"76373099999","2012-09-11T00:00:00","4","25.35","-105.75","1967.0","TEPEHUANES DGO., MX","FM-12","99999","V020","290,1,N,0010,1","22000,1,9,N","030000,1,N,1","+0244,1","+0115,1","10151,1","24,0000,9,1",,,,,,,"04,99,1,04,1,04,1,00800,1,00,1,00,1",,"01,9",,"120,M,+0310,1","180,N,+0102,1","99999,9,08206,1","7,1,004,1,-002,1",,,"SYN124AAXX  11001 76373 32580 42901 10244 20115 38206 40151 57004 84400 92350 333 10310 20102 30/// 50551 56900 59002 70000 84825;",
"76373099999","2012-09-11T03:00:00","4","25.35","-105.75","1967.0","TEPEHUANES DGO., MX","FM-12","99999","V020","999,9,C,0000,1","00600,1,9,N","005000,1,N,1","+0167,1","+0151,1","10150,1","12,0040,9,1",,,,,"08,1,+00600,1,07,1",,"08,99,1,08,1,08,1,00800,1,00,1,00,1",,"01,9",,,,"99999,9,08205,1","7,1,001,1,-025,1",,,"SYN106AAXX  11031 76373 22550 80000 10167 20151 38205 40150 57001 88800 92240 333 30/// 56900 59025 60042 88720;",
"76373099999","2012-09-11T06:00:00","4","25.35","-105.75","1967.0","TEPEHUANES DGO., MX","FM-12","99999","V020","999,9,C,0000,1","00750,1,9,N","001000,1,N,1","+0160,1","+0147,1","10182,1",,,,,,,,"06,99,1,06,1,06,1,00800,1,00,1,00,1","0600,9","01,9",,"240,M,+0310,1","240,N,+0102,1","99999,9,08232,1","2,1,027,1,-010,1",,,"SYN124AAXX  11061 76373 32510 60000 10160 20147 38232 40182 52027 86600 90550 333 10310 20102 30/// 55100 21659 56900 59010 86720;",
"76373099999","2012-09-11T12:00:00","4","25.35","-105.75","1967.0","TEPEHUANES DGO., MX","FM-12","99999","V020","999,9,C,0000,1","22000,1,9,N","001000,1,N,1","+0137,1","+0134,1","10173,1","24,0043,9,1",,,,,"00,1,+99999,9,99,9",,"00,99,1,00,1,00,1,99999,9,00,1,00,1",,"01,9",,"120,N,+0126,1","240,M,+0310,1","99999,9,08224,1","9,9,999,9,-009,1",,,"SYN100AAXX  11121 76373 32910 00000 10137 20134 38224 40173 5//// 91150 333 10310 20126 30115 59009 70042;",
"76373099999","2012-09-11T15:00:00","4","25.35","-105.75","1967.0","TEPEHUANES DGO., MX","FM-12","99999","V020","999,9,C,0000,1","22000,1,9,N","020000,1,N,1","+0189,1","+0142,1","10170,1",,,,,,"00,1,+99999,9,99,9",,"00,99,1,00,1,00,1,99999,9,00,1,00,1",,"01,9",,,,"99999,9,08221,1","7,1,003,1,-026,1",,,"SYN082AAXX  11151 76373 32970 00000 10189 20142 38221 40170 57003 91150 333 30/// 59026;",
"76373099999","2012-09-11T18:00:00","4","25.35","-105.75","1967.0","TEPEHUANES DGO., MX","FM-12","99999","V020","999,9,C,0000,1","22000,1,9,N","030000,1,N,1","+0261,1","+0111,1","10179,1",,,,,,"01,1,+00750,1,08,1",,"01,99,1,01,1,01,1,00800,1,00,1,00,1",,"01,9",,"120,M,+0270,1","240,N,+0126,1","99999,9,08229,1","2,1,008,1,-008,1",,,"SYN112AAXX  11181 76373 32580 10000 10261 20111 38229 40179 52008 81100 91745 333 10270 20126 30/// 56900 59008 81825;",
"76373099999","2012-09-11T21:00:00","4","25.35","-105.75","1967.0","TEPEHUANES DGO., MX","FM-12","99999","V020","999,9,C,0000,1","00750,1,9,N","020000,1,N,1","+0305,1","+0116,1","10130,1",,,,,,"06,1,+00750,1,06,1",,"06,99,1,06,1,04,1,00800,1,00,1,00,1",,"01,9",,,,"99999,9,08188,1","7,1,041,1,-022,1",,,"SYN100AAXX  11211 76373 32570 60000 10305 20116 38188 40130 57041 86400 92050 333 30/// 56900 59022 86625;",
"76373099999","2012-09-12T00:00:00","4","25.35","-105.75","1967.0","TEPEHUANES DGO., MX","FM-12","99999","V020","290,1,N,0020,1","00750,1,9,N","020000,1,N,1","+0245,1","+0116,1","10141,1","24,0042,9,1",,,,,,,"08,99,1,08,1,07,1,00800,1,00,1,00,1",,"01,9",,"120,M,+0314,1","180,N,+0126,1","99999,9,08197,1","2,1,009,1,-009,1",,,"SYN124AAXX  12001 76373 32570 82902 10245 20116 38197 40141 52009 88700 92350 333 10314 20126 30/// 50371 56900 59009 70042 88723;",
"76373099999","2012-09-12T03:00:00","4","25.35","-105.75","1967.0","TEPEHUANES DGO., MX","FM-12","99999","V020","999,9,C,0000,1","00690,1,9,N","000400,1,N,1","+0194,1","+0136,1","10179,1",,,,,,"08,1,+00690,1,07,1",,"08,99,1,08,1,07,1,00800,1,00,1,00,1",,"01,9",,,,"99999,9,08229,1","2,1,032,1,+024,1",,,"SYN100AAXX  12031 76373 32504 80000 10194 20136 38229 40179 52032 88700 90250 333 30/// 56900 58024 88723;",
"76373099999","2012-09-12T06:00:00","4","25.35","-105.75","1967.0","TEPEHUANES DGO., MX","FM-12","99999","V020","999,9,C,0000,1","00750,1,9,N","000400,1,N,1","+0169,1","+0148,1","10187,1",,,,,,,,"08,99,1,08,1,07,1,00800,1,00,1,00,1","0414,9","01,9",,"240,M,+0314,1","240,N,+0126,1","99999,9,08235,1","2,1,006,1,+003,1",,,"SYN124AAXX  12061 76373 32504 80000 10169 20148 38235 40187 52006 88700 90545 333 10314 20126 30/// 55069 21538 56900 58003 88723;",
"76373099999","2012-09-12T12:00:00","4","25.35","-105.75","1967.0","TEPEHUANES DGO., MX","FM-12","99999","V020","999,9,C,0000,1","00690,1,9,N","001000,1,N,1","+0151,1","+0146,1","10167,1","24,0013,9,1",,,,,"05,1,+00690,1,07,1",,"06,99,1,06,1,07,1,00800,1,00,1,00,1",,"01,9",,"120,N,+0142,1","240,M,+0314,1","99999,9,08219,1","9,9,999,9,-005,1",,,"SYN118AAXX  12121 76373 32510 60000 10151 20146 38219 40167 5//// 86700 91150 333 10314 20142 30130 56900 59005 70013 85723;",
"76373099999","2012-09-12T15:00:00","4","25.35","-105.75","1967.0","TEPEHUANES DGO., MX","FM-12","99999","V020","999,9,C,0000,1","00690,1,9,N","020000,1,N,1","+0176,1","+0142,1","10179,1",,,,,,"06,1,+00690,1,07,1",,"07,99,1,07,1,07,1,00800,1,00,1,00,1",,"01,9",,,,"99999,9,08228,1","2,1,009,1,+007,1",,,"SYN100AAXX  12151 76373 32570 70000 10176 20142 38228 40179 52009 87700 91450 333 30/// 56900 58007 86723;",
"76373099999","2012-09-12T18:00:00","4","25.35","-105.75","1967.0","TEPEHUANES DGO., MX","FM-12","99999","V020","999,9,C,0000,1","00690,1,9,N","020000,1,N,1","+0213,1","+0140,1","10182,1",,,,,,"08,1,+00690,1,07,1",,"08,99,1,08,1,07,1,00800,1,00,1,00,1",,"01,9",,"120,M,+0222,1","240,N,+0142,1","99999,9,08230,1","0,1,002,1,+001,1",,,"SYN112AAXX  12181 76373 32570 80000 10213 20140 38230 40182 50002 88700 91450 333 10222 20142 30/// 56900 58001 88723;",
"76373099999","2012-09-12T21:00:00","4","25.35","-105.75","1967.0","TEPEHUANES DGO., MX","FM-12","99999","V020","999,9,C,0000,1","22000,1,9,N","020000,1,N,1","+0269,1","+0140,1","10146,1",,,,,,"03,1,+00750,1,06,1",,"04,99,1,03,1,04,1,00800,1,07,1,00,1",,"01,9",,,,"99999,9,08201,1","7,1,029,1,+013,1",,,"SYN100AAXX  12211 76373 32570 40000 10269 20140 38201 40146 57029 83470 91450 333 30/// 56990 58013 83625;",
"76373099999","2012-09-13T00:00:00","4","25.35","-105.75","1967.0","TEPEHUANES DGO., MX","FM-12","99999","V020","240,1,N,0010,1","99999,9,9,N","017000,1,N,1","+0172,1","+0149,1","10155,1","06,0000,2,1",,,"5,1,06,1","2,1,06,1",,,"08,99,1,99,9,99,9,00800,1,99,9,99,9",,,,,,"99999,9,08209,1","3,1,008,1,+999,9",,"50,1","SYN072AAXX  13001 76373 01567 82401 10172 20149 38209 40155 53008 69901 75052;",
"76373099999","2012-09-13T03:00:00","4","25.35","-105.75","1967.0","TEPEHUANES DGO., MX","FM-12","99999","V020","999,9,C,0000,1","00690,1,9,N","000400,1,N,1","+0165,1","+0147,1","10183,1",,,,,,"08,1,+00690,1,07,1",,"08,99,1,08,1,07,1,00800,1,00,1,00,1",,"01,9",,,,"99999,9,08231,1","2,1,022,1,+002,1",,,"SYN100AAXX  13031 76373 32504 80000 10165 20147 38231 40183 52022 88700 90250 333 30/// 56900 58002 88723;",
"76373099999","2012-09-13T06:00:00","4","25.35","-105.75","1967.0","TEPEHUANES DGO., MX","FM-12","99999","V020","999,9,C,0000,1","00750,1,9,N","000400,1,N,1","+0159,1","+0147,1","10190,1",,,,,,,,"08,99,1,08,1,07,1,00800,1,00,1,00,1","0126,9","01,9",,"240,M,+0286,1","240,N,+0142,1","99999,9,08237,1","2,1,006,1,+002,1",,,"SYN124AAXX  13061 76373 32504 80000 10159 20147 38237 40190 52006 88700 90540 333 10286 20142 30/// 55021 20902 56900 58002 88723;",
"76373099999","2012-09-13T12:00:00","4","25.35","-105.75","1967.0","TEPEHUANES DGO., MX","FM-12","99999","V020","999,9,C,0000,1","00690,1,9,N","000600,1,N,1","+0156,1","+0151,1","10170,1","24,0023,9,1",,,,,"08,1,+00690,1,07,1",,"08,99,1,08,1,07,1,00800,1,00,1,00,1",,"01,9",,"120,N,+0149,1","240,M,+0286,1","99999,9,08221,1","9,9,999,9,-008,1",,,"SYN118AAXX  13121 76373 32506 80000 10156 20151 38221 40170 5//// 88700 91150 333 10286 20149 30138 56900 59008 70023 88723;",
"76373099999","2012-09-13T15:00:00","4","25.35","-105.75","1967.0","TEPEHUANES DGO., MX","FM-12","99999","V020","999,9,C,0000,1","00690,1,9,N","017000,1,N,1","+0160,1","+0155,1","10191,1","03,0007,9,1",,,"5,1,03,1","2,1,03,1","08,1,+00690,1,07,1",,"08,99,1,08,1,07,1,00800,1,00,1,00,1",,"09,9",,,,"99999,9,08238,1","2,1,017,1,+010,1",,"16,1","SYN112AAXX  13151 76373 21567 80000 10160 20155 38238 40191 52017 71652 88700 91450 333 31/// 56900 58010 69977 88723;",
"76373099999","2012-09-13T18:00:00","4","25.35","-105.75","1967.0","TEPEHUANES DGO., MX","FM-12","99999","V020","999,9,C,0000,1","00690,1,9,N","030000,1,N,1","+0221,1","+0122,1","10182,1",,,,,,"06,1,+00690,1,07,1",,"06,99,1,06,1,06,1,00800,1,00,1,00,1",,"01,9",,"120,M,+0285,1","240,N,+0149,1","99999,9,08230,1","2,1,008,1,+001,1",,,"SYN112AAXX  13181 76373 32580 60000 10221 20122 38230 40182 52008 86600 91750 333 10285 20149 30/// 56900 58001 86723;",
"76373099999","2012-09-13T21:00:00","4","25.35","-105.75","1967.0","TEPEHUANES DGO., MX","FM-12","99999","V020","140,1,N,0020,1","00750,1,9,N","030000,1,N,1","+0286,1","+0142,1","10147,1",,,,,,"06,1,+00750,1,06,1",,"06,99,1,06,1,06,1,00800,1,00,1,00,1",,"01,9",,,,"99999,9,08202,1","7,1,028,1,+001,1",,,"SYN100AAXX  13211 76373 32580 61402 10286 20142 38202 40147 57028 86600 92055 333 30/// 56900 58001 86625;",
"76373099999","2012-09-14T00:00:00","4","25.35","-105.75","1967.0","TEPEHUANES DGO., MX","FM-12","99999","V020","290,1,N,0010,1","01200,1,9,N","030000,1,N,1","+0202,1","+0142,1","10152,1","24,0020,9,1",,,,,"04,1,+00600,1,07,1",,"08,99,1,08,1,08,1,00800,1,00,1,00,1",,"01,9",,"120,M,+0290,1","180,N,+0149,1","99999,9,08206,1","1,1,004,1,-003,1",,,"SYN130AAXX  14001 76373 32580 82901 10202 20142 38206 40152 51004 88800 92350 333 10290 20149 30/// 50761 56900 59003 70020 84720 84625;",
"76373099999","2012-09-14T03:00:00","4","25.35","-105.75","1967.0","TEPEHUANES DGO., MX","FM-12","99999","V020","290,1,N,0010,1","00600,1,9,N","001000,1,N,1","+0152,1","+0143,1","10190,1","03,9999,9,9",,,"5,1,03,1","2,1,03,1","08,1,+00600,1,09,1",,"08,99,1,08,1,08,1,00800,1,00,1,00,1",,"09,9",,,,"99999,9,08238,1","2,1,032,1,+007,1",,"51,1","SYN112AAXX  14031 76373 21510 82901 10152 20143 38238 40190 52032 75152 88800 90255 333 31/// 56900 58007 69107 88920;","Q01  91002PRCP03"
"76373099999","2012-09-14T06:00:00","4","25.35","-105.75","1967.0","TEPEHUANES DGO., MX","FM-12","99999","V020","290,1,N,0010,1","00600,1,C,N","001000,1,N,1","+0148,1","+0139,1","10191,1",,,,,,"05,1,+00600,1,07,1",,"08,99,1,08,1,08,1,00800,1,00,1,00,1","1170,9","01,9",,"240,M,+0290,1","240,N,+0149,1","99999,9,08238,1","4,1,000,1,+001,1",,,"SYN130AAXX  14061 76373 32510 82901 10148 20139 38238 40191 54000 88800 90545 333 10290 20149 30/// 55195 20563 56900 58001 85720 83625;",
"76373099999","2012-09-14T12:00:00","4","25.35","-105.75","1967.0","TEPEHUANES DGO., MX","FM-12","99999","V020","160,1,N,0010,1","00750,1,9,N","001000,1,N,1","+0150,1","+0147,1","10185,1","24,0180,9,1",,,,,"03,1,+00600,1,07,1",,"07,99,1,07,1,07,1,00800,1,00,1,00,1",,"01,9",,"120,N,+0136,1","240,M,+0290,1","99999,9,08232,1","9,9,999,9,+012,1",,,"SYN124AAXX  14121 76373 32510 71601 10150 20147 38232 40185 5//// 87700 91155 333 10290 20136 30122 56900 58012 70180 83720 84625;",
"76373099999","2012-09-14T15:00:00","4","25.35","-105.75","1967.0","TEPEHUANES DGO., MX","FM-12","99999","V020","290,1,N,0010,1","00600,1,9,N","015000,1,N,1","+0158,1","+0148,1","10196,1",,,,,,"08,1,+00600,1,07,1",,"08,99,1,08,1,08,1,00800,1,00,1,00,1",,"01,9",,,,"99999,9,08242,1","2,1,009,1,+004,1",,,"SYN100AAXX  14151 76373 32565 82901 10158 20148 38242 40196 52009 88800 91455 333 30/// 56900 58004 88720;",
"76373099999","2012-09-14T18:00:00","4","25.35","-105.75","1967.0","TEPEHUANES DGO., MX","FM-12","99999","V020","140,1,N,0010,1","99999,9,9,N","030000,1,N,1","+0200,1","+0149,1","99999,9",,,,,,,,"08,99,1,99,9,02,1,00800,1,00,1,00,1",,,,"120,M,+0220,1","240,N,+0136,1","99999,9,08245,1","1,1,003,1,+015,1",,,"SYN112AAXX  14181 76373 32580 81401 10200 20149 38245 51003 80200 88800 91755 333 10220 20136 30/// 56900 58015 88725;","Q01+000002SCOTLC"
"76373099999","2012-09-14T21:00:00","4","25.35","-105.75","1967.0","TEPEHUANES DGO., MX","FM-12","99999","V020","290,1,N,0020,1","01200,1,C,N","030000,1,N,1","+0196,1","+0144,1","10182,1",,,,,,"02,1,+00600,1,09,1",,"08,99,1,08,1,08,1,00800,1,00,1,00,1",,"01,9",,,,"99999,9,08230,1","7,1,015,1,+028,1",,,"SYN106AAXX  14211 76373 32580 82902 10196 20144 38230 40182 57015 88800 92055 333 30/// 56900 58028 82920 86725;",
"76373099999","2012-09-15T00:00:00","4","25.35","-105.75","1967.0","TEPEHUANES DGO., MX","FM-12","99999","V020","290,1,N,0010,1","01200,1,9,N","030000,1,N,1","+0200,1","+0145,1","10175,1","24,0160,9,1",,,,,,,"08,99,1,08,1,08,1,00800,1,00,1,00,1",,"01,9",,"120,M,+0230,1","180,N,+0136,1","99999,9,08225,1","7,1,005,1,+019,1",,,"SYN124AAXX  15001 76373 32580 82901 10200 20145 38225 40175 57005 88800 92355 333 10230 20136 30/// 50541 56900 58019 70160 88725;",
"76373099999","2012-09-15T03:00:00","4","25.35","-105.75","1967.0","TEPEHUANES DGO., MX","FM-12","99999","V020","140,1,N,0010,1","00750,1,9,N","001000,1,N,1","+0160,1","+0129,1","10201,1",,,,,,"08,1,+00750,1,07,1",,"08,99,1,08,1,08,1,00800,1,00,1,00,1",,"01,9",,,,"99999,9,08246,1","2,1,021,1,+006,1",,,"SYN100AAXX  15031 76373 32510 81401 10160 20129 38246 40201 52021 88800 90250 333 30/// 56900 58006 88725;",
"76373099999","2012-09-15T06:00:00","4","25.35","-105.75","1967.0","TEPEHUANES DGO., MX","FM-12","99999","V020","250,1,N,0010,1","01200,1,9,N","001000,1,N,1","+0158,1","+0141,1","10203,1",,,,,,,,"08,99,1,08,1,08,1,00800,1,00,1,00,1","0018,9","01,9",,"240,M,+0230,1","240,N,+0135,1","99999,9,08248,1","1,1,002,1,+010,1",,,"SYN124AAXX  15061 76373 32510 82501 10158 20141 38248 40203 51002 88800 90550 333 10230 20135 30/// 55003 20363 56900 58010 88725;",
"76373099999","2012-09-15T12:00:00","4","25.35","-105.75","1967.0","TEPEHUANES DGO., MX","FM-12","99999","V020","140,1,N,0010,1","00600,1,9,N","001000,1,N,1","+0152,1","+0149,1","10193,1","24,0010,9,1",,,,,"08,1,+00600,1,07,1",,"08,99,1,08,1,08,1,00800,1,00,1,00,1",,"01,9",,"120,N,+0132,1","240,M,+0230,1","99999,9,08240,1","9,9,999,9,+007,1",,,"SYN118AAXX  15121 76373 32510 81401 10152 20149 38240 40193 5//// 88800 91155 333 10230 20132 30120 56900 58007 70010 88720;",
"76373099999","2012-09-15T15:00:00","4","25.35","-105.75","1967.0","TEPEHUANES DGO., MX","FM-12","99999","V020","140,1,N,0010,1","00600,1,9,N","015000,1,N,1","+0160,1","+0151,1","10208,1",,,,,,"08,1,+00600,1,07,1",,"08,99,1,08,1,08,1,00800,1,00,1,00,1",,"01,9",,,,"99999,9,08252,1","2,1,012,1,+010,1",,,"SYN100AAXX  15151 76373 32565 81401 10160 20151 38252 40208 52012 88800 91435 333 30/// 56900 58010 88720;",
"76373099999","2012-09-15T18:00:00","4","25.35","-105.75","1967.0","TEPEHUANES DGO., MX","FM-12","99999","V020","130,1,N,0010,1","00810,1,9,N","020000,1,N,1","+0227,1","+0148,1","10196,1",,,,,,"06,1,+00810,1,06,1",,"06,99,1,06,1,06,1,00800,1,00,1,00,1",,"01,9",,"120,M,+0239,1","240,N,+0132,1","99999,9,08242,1","7,1,010,1,-003,1",,,"SYN112AAXX  15181 76373 32570 61301 10227 20148 38242 40196 57010 86600 91750 333 10239 20132 30/// 56900 59003 86627;",
"76373099999","2012-09-15T21:00:00","4","25.35","-105.75","1967.0","TEPEHUANES DGO., MX","FM-12","99999","V020","140,1,N,0010,1","00810,1,9,N","020000,1,N,1","+0232,1","+0145,1","10172,1",,,,,,"05,1,+00810,1,06,1",,"05,99,1,05,1,06,1,00800,1,00,1,00,1",,"01,9",,,,"99999,9,08222,1","7,1,020,1,-008,1",,,"SYN100AAXX  15211 76373 32570 51401 10232 20145 38222 40172 57020 85600 92050 333 30/// 56900 59008 85627;",
"76373099999","2012-09-16T00:00:00","4","25.35","-105.75","1967.0","TEPEHUANES DGO., MX","FM-12","99999","V020","999,9,C,0000,1","00750,1,9,N","020000,1,N,1","+0167,1","+0149,1","10182,1","03,0010,9,1","24,0020,9,1",,,,,,"08,99,1,08,1,07,1,00800,1,00,1,00,1",,"09,9",,"120,M,+0250,1","180,N,+0132,1","99999,9,08230,1","2,1,008,1,+005,1",,,"SYN130AAXX  16001 76373 12570 80000 10167 20149 38230 40182 52008 60017 88700 92350 333 10250 20132 31/// 50451 56900 58005 70020 88627;",
"76373099999","2012-09-16T03:00:00","4","25.35","-105.75","1967.0","TEPEHUANES DGO., MX","FM-12","99999","V020","999,9,C,0000,1","22000,1,9,N","005000,1,N,1","+0162,1","+0148,1","10194,1",,,,,,"04,1,+00810,1,06,1",,"04,99,1,04,1,07,1,00800,1,00,1,00,1",,"01,9",,,,"99999,9,08240,1","2,1,010,1,-006,1",,,"SYN100AAXX  16031 76373 32550 40000 10162 20148 38240 40194 52010 84700 90250 333 30/// 56900 59006 84627;",
"76373099999","2012-09-16T06:00:00","4","25.35","-105.75","1967.0","TEPEHUANES DGO., MX","FM-12","99999","V020","999,9,C,0000,1","22000,1,9,N","005000,1,N,1","+0152,1","+0147,1","10203,1",,,,,,,,"04,99,1,04,1,04,1,00800,1,00,1,00,1","0282,9","01,9",,"240,M,+0250,1","240,N,+0132,1","99999,9,08248,1","2,1,008,1,+000,1",,,"SYN124AAXX  16061 76373 32550 40000 10152 20147 38248 40203 52008 84400 90550 333 10250 20132 30/// 55047 2//// 56900 58000 84627;",
"76373099999","2012-09-16T15:00:00","4","25.35","-105.75","1967.0","TEPEHUANES DGO., MX","FM-12","99999","V020","999,9,C,0000,1","00810,1,9,N","020000,1,N,1","+0148,1","+0136,1","10206,1",,,,,,"06,1,+00810,1,06,1",,"06,99,1,06,1,06,1,00800,1,00,1,00,1",,"01,9",,,,"99999,9,08250,1","2,1,013,1,-002,1",,,"SYN100AAXX  16151 76373 32570 60000 10148 20136 38250 40206 52013 86600 91450 333 30/// 56900 59002 86627;",
"76373099999","2012-09-16T21:00:00","4","25.35","-105.75","1967.0","TEPEHUANES DGO., MX","FM-12","99999","V020","999,9,C,0000,1","22000,1,9,N","020000,1,N,1","+0282,1","+0114,1","10147,1",,,,,,"04,1,+00810,1,08,1",,"04,99,1,04,1,03,1,00800,1,00,1,00,1",,"01,9",,,,"99999,9,08202,1","7,1,030,1,-020,1",,,"SYN100AAXX  16211 76373 32570 40000 10282 20114 38202 40147 57030 84300 92050 333 30/// 56900 59020 84827;",
"76373099999","2012-09-17T00:00:00","4","25.35","-105.75","1967.0","TEPEHUANES DGO., MX","FM-12","99999","V020","140,1,N,0010,1","22000,1,9,N","020000,1,N,1","+0242,1","+0128,1","10142,1","24,0010,9,1",,,,,,,"04,99,1,04,1,03,1,00800,1,00,1,00,1",,"01,9",,"120,M,+0300,1","180,N,+0121,1","99999,9,08198,1","7,1,004,1,-032,1",,,"SYN124AAXX  17001 76373 32570 41401 10242 20128 38198 40142 57004 84300 92350 333 10300 20121 30/// 50541 56900 59032 70010 84827;",
"76373099999","2012-09-17T03:00:00","4","25.35","-105.75","1967.0","TEPEHUANES DGO., MX","FM-12","99999","V020","999,9,C,0000,1","22000,1,9,N","020000,1,N,1","+0196,1","+0133,1","10168,1",,,,,,"00,1,+99999,9,99,9",,"00,99,1,00,1,00,1,99999,9,00,1,00,1",,"01,9",,,,"99999,9,08220,1","2,1,022,1,-020,1",,,"SYN082AAXX  17031 76373 32970 00000 10196 20133 38220 40168 52022 90250 333 30/// 59020;",
"76373099999","2012-09-17T12:00:00","4","25.35","-105.75","1967.0","TEPEHUANES DGO., MX","FM-12","99999","V020","999,9,C,0000,1","22000,1,9,N","005000,1,N,1","+0104,1","+0094,1","10181,1",,,,,,"00,1,+99999,9,99,9",,"00,99,1,00,1,00,1,99999,9,00,1,00,1","0504,9","01,9",,"120,N,+0095,1","240,M,+0300,1","99999,9,08230,1","9,9,999,9,-007,1",,,"SYN112AAXX  17121 76373 32950 00000 10104 20094 38230 40181 5//// 91150 333 10300 20095 30084 55084 2//// 59007 70000;",
"76373099999","2012-09-17T15:00:00","4","25.35","-105.75","1967.0","TEPEHUANES DGO., MX","FM-12","99999","V020","999,9,C,0000,1","22000,1,9,N","020000,1,N,1","+0155,1","+0103,1","10182,1",,,,,,"00,1,+99999,9,99,9",,"00,99,1,00,1,00,1,99999,9,00,1,00,1",,"01,9",,,,"99999,9,08231,1","2,1,001,1,-019,1",,,"SYN082AAXX  17151 76373 32970 00000 10155 20103 38231 40182 52001 91450 333 30/// 59019;",
"76373099999","2012-09-17T18:00:00","4","25.35","-105.75","1967.0","TEPEHUANES DGO., MX","FM-12","99999","V020","999,9,C,0000,1","22000,1,9,N","020000,1,N,1","+0249,1","+0078,1","10170,1",,,,,,"00,1,+99999,9,99,9",,"00,99,1,00,1,00,1,99999,9,00,1,00,1",,"01,9",,"120,M,+0260,1","240,N,+0095,1","99999,9,08221,1","7,1,010,1,-011,1",,,"SYN094AAXX  17181 76373 32970 00000 10249 20078 38221 40170 57010 91750 333 10260 20095 30/// 59011;",
"76373099999","2012-09-17T21:00:00","4","25.35","-105.75","1967.0","TEPEHUANES DGO., MX","FM-12","99999","V020","160,1,N,0010,1","22000,1,9,N","020000,1,N,1","+0279,1","+0002,1","10140,1",,,,,,"00,1,+99999,9,99,9",,"00,99,1,00,1,00,1,99999,9,00,1,00,1",,"01,9",,,,"99999,9,08197,1","7,1,024,1,-005,1",,,"SYN082AAXX  17211 76373 32970 01601 10279 20002 38197 40140 57024 92050 333 30/// 59005;",
"76373099999","2012-09-18T00:00:00","4","25.35","-105.75","1967.0","TEPEHUANES DGO., MX","FM-12","99999","V020","160,1,N,0020,1","22000,1,9,N","030000,1,N,1","+0260,1","+0035,1","10143,1","24,0000,9,1",,,,,"00,1,+99999,9,99,9",,"00,99,1,00,1,00,1,99999,9,00,1,00,1",,"01,9",,"120,M,+0288,1","180,N,+0095,1","99999,9,08199,1","2,1,002,1,+001,1",,,"SYN106AAXX  18001 76373 32980 01602 10260 20035 38199 40143 52002 92350 333 10288 20095 30/// 50661 58001 70000;","Q01  00002PRCP24"
"76373099999","2012-09-18T06:00:00","4","25.35","-105.75","1967.0","TEPEHUANES DGO., MX","FM-12","99999","V020","999,9,C,0000,1","22000,1,9,N","001000,1,N,1","+0125,1","+0075,1","10176,1",,,,,,"00,1,+99999,9,99,9",,"00,99,1,00,1,00,1,99999,9,00,1,00,1","0648,9","01,9",,"240,M,+0288,1","240,N,+0095,1","99999,9,08226,1",,,,"SYN106AAXX  18061 76373 32910 00000 10125 20075 38226 40176 5//// 90550 333 10288 20095 30/// 55108 2//// 59003;",
"76373099999","2012-09-18T12:00:00","4","25.35","-105.75","1967.0","TEPEHUANES DGO., MX","FM-12","99999","V020","999,9,C,0000,1","22000,1,9,N","001000,1,N,1","+0071,1","+0066,1","10183,1","24,0000,9,1",,,,,"00,1,+99999,9,99,9",,"00,99,1,00,1,00,1,99999,9,00,1,00,1",,"01,9",,"120,N,+0060,1","240,M,+0288,1","99999,9,08232,1","9,9,999,9,+002,1",,,"SYN100AAXX  18121 76373 32910 00000 10071 20066 38232 40183 5//// 91150 333 10288 20060 30052 58002 70000;","Q01  00002PRCP24"
"76373099999","2012-09-18T15:00:00","4","25.35","-105.75","1967.0","TEPEHUANES DGO., MX","FM-12","99999","V020","999,9,C,0000,1","22000,1,9,N","020000,1,N,1","+0146,1","+0085,1","10194,1",,,,,,"00,1,+99999,9,99,9",,"00,99,1,00,1,00,1,99999,9,00,1,00,1",,"01,9",,,,"99999,9,08240,1","2,1,008,1,+009,1",,,"SYN082AAXX  18151 76373 32970 00000 10146 20085 38240 40194 52008 91450 333 30/// 58009;",
"76373099999","2012-09-18T18:00:00","4","25.35","-105.75","1967.0","TEPEHUANES DGO., MX","FM-12","99999","V020","999,9,C,0000,1","22000,1,9,N","030000,1,N,1","+0253,1","+0081,1","10190,1",,,,,,"00,1,+99999,9,99,9",,"00,99,1,00,1,00,1,99999,9,00,1,00,1",,"01,9",,"120,M,+0260,1","240,N,+0060,1","99999,9,08237,1","7,1,003,1,+026,1",,,"SYN094AAXX  18181 76373 32980 00000 10253 20081 38237 40190 57003 91750 333 10260 20060 30/// 58026;",
"76373099999","2012-09-18T21:00:00","4","25.35","-105.75","1967.0","TEPEHUANES DGO., MX","FM-12","99999","V020","120,1,N,0020,1","22000,1,9,N","020000,1,N,1","+0286,1","+0029,1","10169,1",,,,,,"02,1,+00900,1,08,1",,"02,99,1,02,1,02,1,00800,1,00,1,00,1",,"01,9",,,,"99999,9,08220,1","7,1,017,1,+023,1",,,"SYN100AAXX  18211 76373 32570 21202 10286 20029 38220 40169 57017 82200 92050 333 30/// 56900 58023 82830;",
"76373099999","2012-09-19T00:00:00","4","25.35","-105.75","1967.0","TEPEHUANES DGO., MX","FM-12","99999","V020","140,1,N,0010,1","22000,1,9,N","020000,1,N,1","+0267,1","+9999,9","10155,1","24,0000,9,1",,,,,,,"02,99,1,02,1,04,1,00800,1,00,1,00,1",,"01,9",,"120,M,+0295,1","180,N,+0060,1","99999,9,08209,1","7,1,011,1,+010,1",,,"SYN124AAXX  19001 76373 32570 21401 10267 20236 38209 40155 57011 82400 92350 333 10295 20060 30/// 50601 56900 58010 70000 81623;","Q01+002363ATOD  "
"76373099999","2012-09-19T03:00:00","4","25.35","-105.75","1967.0","TEPEHUANES DGO., MX","FM-12","99999","V020","999,9,C,0000,1","22000,1,9,N","000600,1,N,1","+0187,1","+0060,1","10172,1",,,,,,"01,1,+00900,1,08,1",,"01,99,1,01,1,02,1,00800,1,00,1,00,1",,"01,9",,,,"99999,9,08222,1","2,1,013,1,+009,1",,,"SYN100AAXX  19031 76373 32506 10000 10187 20060 38222 40172 52013 81200 90250 333 30/// 56900 58009 81830;",
"76373099999","2012-09-19T06:00:00","4","25.35","-105.75","1967.0","TEPEHUANES DGO., MX","FM-12","99999","V020","999,9,C,0000,1","22000,1,9,N","000400,1,N,1","+0129,1","+0076,1","10183,1",,,,,,"00,1,+99999,9,99,9",,"00,99,1,00,1,00,1,99999,9,00,1,00,1","0636,9","01,9",,"240,M,+0295,1","240,N,+0060,1","99999,9,08231,1","2,1,009,1,+999,9",,,"SYN106AAXX  19061 76373 32904 00000 10129 20076 38231 40183 52009 90550 333 10295 20060 30/// 55106 2//// 58005;",
"76373099999","2012-09-19T12:00:00","4","25.35","-105.75","1967.0","TEPEHUANES DGO., MX","FM-12","99999","V020","999,9,C,0000,1","22000,1,9,N","001000,1,N,1","+0069,1","+0060,1","99999,9","24,0000,9,1",,,,,"00,1,+99999,9,99,9",,"00,99,1,00,1,00,1,99999,9,00,1,00,1",,"01,9",,"120,N,+0060,1","240,M,+0295,1","99999,9,08238,1","9,9,999,9,+006,1","1,0091,9",,"SYN100AAXX  19121 76373 32910 00000 10069 20060 38238 41091 5//// 91150 333 10295 20060 30057 58006 70000;","Q01  00002PRCP24"
"76373099999","2012-09-19T15:00:00","4","25.35","-105.75","1967.0","TEPEHUANES DGO., MX","FM-12","99999","V020","999,9,C,0000,1","22000,1,9,N","020000,1,N,1","+0143,1","+0079,1","10210,1",,,,,,"01,1,+02100,1,03,1",,"01,99,1,01,1,00,1,01750,1,07,1,00,1",,"01,9",,,,"99999,9,08253,1","2,1,015,1,+013,1",,,"SYN100AAXX  19151 76373 32770 10000 10143 20079 38253 40210 52015 81070 91450 333 30/// 56090 58013 81357;",
"76373099999","2012-09-19T18:00:00","4","25.35","-105.75","1967.0","TEPEHUANES DGO., MX","FM-12","99999","V020","999,9,C,0000,1","22000,1,9,N","025000,1,N,1","+0258,1","+0073,1","10201,1",,,,,,"01,1,+00900,1,08,1",,"02,99,1,01,1,02,1,00800,1,07,1,00,1",,"01,9",,"120,M,+0267,1","240,N,+0060,1","99999,9,08246,1","7,1,007,1,+009,1",,,"SYN112AAXX  19181 76373 32575 20000 10258 20073 38246 40201 57007 81270 91750 333 10267 20060 30/// 56990 58009 81830;",
"76373099999","2012-09-19T21:00:00","4","25.35","-105.75","1967.0","TEPEHUANES DGO., MX","FM-12","99999","V020","140,1,N,0010,1","22000,1,9,N","025000,1,N,1","+0287,1","+0032,1","10175,1",,,,,,"01,1,+00750,1,06,1",,"02,99,1,02,1,04,1,00800,1,00,1,00,1",,"01,9",,,,"99999,9,08225,1","7,1,021,1,+005,1",,,"SYN100AAXX  19211 76373 32575 21401 10287 20032 38225 40175 57021 82400 92050 333 30/// 56900 58005 81625;",
"76373099999","2012-09-20T00:00:00","4","25.35","-105.75","1967.0","TEPEHUANES DGO., MX","FM-12","99999","V020","140,1,N,0010,1","22000,1,9,N","025000,1,N,1","+0262,1","+0044,1","10165,1","24,0000,9,1",,,,,,,"01,99,1,01,1,02,1,00800,1,00,1,00,1",,"01,9",,"120,M,+0300,1","180,N,+0060,1","99999,9,08217,1","7,1,008,1,+008,1",,,"SYN124AAXX  20001 76373 32575 11401 10262 20044 38217 40165 57008 81200 92350 333 10300 20060 30/// 50621 56900 58008 70000 81830;",
"76373099999","2012-09-20T03:00:00","4","25.35","-105.75","1967.0","TEPEHUANES DGO., MX","FM-12","99999","V020","999,9,C,0000,1","22000,1,9,N","000400,1,N,1","+0179,1","+0059,1","10185,1",,,,,,"01,1,+00900,1,08,1",,"01,99,1,01,1,02,1,00800,1,00,1,00,1",,"01,9",,,,"99999,9,08233,1","2,1,013,1,+011,1",,,"SYN100AAXX  20031 76373 32504 10000 10179 20059 38233 40185 52013 81200 90250 333 30/// 56900 58011 81830;",
"76373099999","2012-09-20T06:00:00","4","25.35","-105.75","1967.0","TEPEHUANES DGO., MX","FM-12","99999","V020","999,9,C,0000,1","22000,1,9,N","000400,1,N,1","+0136,1","+0070,1","10190,1",,,,,,"00,1,+99999,9,99,9",,"00,99,1,00,1,00,1,99999,9,00,1,00,1","0636,9","01,9",,"240,M,+0300,1","240,N,+0030,1","99999,9,08237,1","0,1,004,1,+999,9",,,"SYN106AAXX  20061 76373 32904 00000 10136 20070 38237 40190 50004 90550 333 10300 20030 30/// 55106 2//// 58006;",
"76373099999","2012-09-20T12:00:00","4","25.35","-105.75","1967.0","TEPEHUANES DGO., MX","FM-12","99999","V020","999,9,C,0000,1","22000,1,9,N","001000,1,N,1","+0081,1","+0071,1","10195,1","24,0000,9,1",,,,,"00,1,+99999,9,99,9",,"00,99,1,00,1,00,1,99999,9,00,1,00,1",,"01,9",,"120,N,+0074,1","240,M,+0300,1","99999,9,08241,1","9,9,999,9,+003,1",,,"SYN100AAXX  20121 76373 32910 00000 10081 20071 38241 40195 5//// 91150 333 10300 20074 30062 58003 70000;","Q01  00002PRCP24"
"76373099999","2012-09-20T15:00:00","4","25.35","-105.75","1967.0","TEPEHUANES DGO., MX","FM-12","99999","V020","999,9,C,0000,1","22000,1,9,N","020000,1,N,1","+0145,1","+0087,1","10201,1",,,,,,"00,1,+99999,9,99,9",,"00,99,1,00,1,00,1,99999,9,00,1,00,1",,"01,9",,,,"99999,9,08246,1","2,1,005,1,-007,1",,,"SYN082AAXX  20151 76373 32970 00000 10145 20087 38246 40201 52005 91450 333 30/// 59007;",
"76373099999","2012-09-20T18:00:00","4","25.35","-105.75","1967.0","TEPEHUANES DGO., MX","FM-12","99999","V020","140,1,N,0010,1","22000,1,9,N","030000,1,N,1","+0259,1","+0081,1","10188,1",,,,,,"02,1,+00750,1,08,1",,"02,99,1,02,1,02,1,00800,1,00,1,00,1",,"01,9",,"120,M,+0268,1","240,N,+0074,1","99999,9,08236,1","7,1,010,1,-010,1",,,"SYN112AAXX  20181 76373 32580 21401 10259 20081 38236 40188 57010 82200 91755 333 10268 20074 30/// 56900 59010 82825;",
"76373099999","2012-09-20T21:00:00","4","25.35","-105.75","1967.0","TEPEHUANES DGO., MX","FM-12","99999","V020","140,1,N,0030,1","22000,1,9,N","030000,1,N,1","+0268,1","+0043,1","10156,1",,,,,,"03,1,+00750,1,08,1",,"03,99,1,03,1,03,1,00800,1,00,1,00,1",,"01,9",,,,"99999,9,08210,1","7,1,026,1,-015,1",,,"SYN100AAXX  20211 76373 32580 31403 10268 20043 38210 40156 57026 83300 92055 333 30/// 56900 59015 83825;",
"76373099999","2012-09-21T00:00:00","4","25.35","-105.75","1967.0","TEPEHUANES DGO., MX","FM-12","99999","V020","140,1,N,0010,1","22000,1,9,N","030000,1,N,1","+0242,1","+0030,1","10154,1","24,0000,9,1",,,,,,,"04,99,1,04,1,04,1,00800,1,00,1,00,1",,"01,9",,"120,M,+0280,1","180,N,+0074,1","99999,9,08208,1","2,1,002,1,-009,1",,,"SYN124AAXX  21001 76373 32580 41401 10242 20030 38208 40154 52002 84400 92355 333 10280 20074 30/// 50731 56900 59009 70000 84825;",
"76373099999","2012-09-21T03:00:00","4","25.35","-105.75","1967.0","TEPEHUANES DGO., MX","FM-12","99999","V020","290,1,N,0010,1","22000,1,9,N","001000,1,N,1","+0172,1","+0061,1","10166,1",,,,,,"02,1,+00750,1,08,1",,"02,99,1,02,1,02,1,00800,1,00,1,00,1",,"01,9",,,,"99999,9,08218,1","7,1,010,1,-015,1",,,"SYN100AAXX  21031 76373 32510 22901 10172 20061 38218 40166 57010 82200 90255 333 30/// 56900 59015 82825;",
"76373099999","2012-09-21T06:00:00","4","25.35","-105.75","1967.0","TEPEHUANES DGO., MX","FM-12","99999","V020","290,1,N,0010,1","22000,1,9,N","000500,1,N,1","+0132,1","+0065,1","10180,1",,,,,,,,"02,99,1,02,1,02,1,00800,1,00,1,00,1","0570,9","01,9",,"240,M,+0280,1","240,N,+0074,1","99999,9,08229,1","2,1,011,1,-008,1",,,"SYN118AAXX  21061 76373 32505 22901 10132 20065 38229 40180 52011 82200 90540 333 10280 20074 30/// 55095 56900 59008 82825;",
"76373099999","2012-09-21T12:00:00","4","25.35","-105.75","1967.0","TEPEHUANES DGO., MX","FM-12","99999","V020","110,1,N,0010,1","22000,1,9,N","001000,1,N,1","+0064,1","+0031,1","10182,1","24,0000,9,1",,,,,"01,1,+00750,1,08,1",,"01,99,1,01,1,01,1,00800,1,00,1,00,1",,"01,9","999,+0041,9","120,N,+0052,1","240,M,+0280,1","99999,9,08230,1","9,9,999,9,-010,1",,,"SYN118AAXX  21121 76373 32510 11101 10064 20031 38230 40182 5//// 81100 91150 333 10280 20052 30041 56900 59010 70000 81825;",
"76373099999","2012-09-21T15:00:00","4","25.35","-105.75","1967.0","TEPEHUANES DGO., MX","FM-12","99999","V020","140,1,N,0010,1","22000,1,9,N","020000,1,N,1","+0139,1","+0070,1","10181,1",,,,,,"00,1,+99999,9,99,9",,"00,99,1,00,1,00,1,99999,9,00,1,00,1",,"01,9",,,,"99999,9,08230,1","4,1,000,1,-016,1",,,"SYN082AAXX  21151 76373 32970 01401 10139 20070 38230 40181 54000 91455 333 30/// 59016;",
"76373099999","2012-09-21T18:00:00","4","25.35","-105.75","1967.0","TEPEHUANES DGO., MX","FM-12","99999","V020","140,1,N,0020,1","22000,1,9,N","030000,1,N,1","+0254,1","+0041,1","10165,1",,,,,,"01,1,+00750,1,08,1",,"01,99,1,01,1,01,1,00800,1,00,1,00,1",,"01,9",,"120,M,+0260,1","240,N,+0052,1","99999,9,08217,1","7,1,013,1,-019,1",,,"SYN112AAXX  21181 76373 32580 11402 10254 20041 38217 40165 57013 81100 91750 333 10260 20052 30/// 56900 59019 81825;",
"76373099999","2012-09-21T21:00:00","4","25.35","-105.75","1967.0","TEPEHUANES DGO., MX","FM-12","99999","V020","110,1,N,0020,1","22000,1,9,N","030000,1,N,1","+0284,1","-0005,1","10140,1",,,,,,"01,1,+00750,1,08,1",,"01,99,1,01,1,01,1,00800,1,00,1,00,1",,"01,9",,,,"99999,9,08197,1","7,1,020,1,-013,1",,,"SYN100AAXX  21211 76373 32580 11102 10284 21005 38197 40140 57020 81100 92055 333 30/// 56900 59013 81825;",
"76373099999","2012-09-22T12:00:00","4","25.35","-105.75","1967.0","TEPEHUANES DGO., MX","FM-12","99999","V020","290,1,N,0010,1","22000,1,9,N","001000,1,N,1","+0052,1","+0030,1","10178,1","24,0000,9,1",,,,,"00,1,+99999,9,99,9",,"00,99,1,00,1,00,1,99999,9,00,1,00,1",,"01,9","999,+0026,9","120,N,+0038,1","240,M,+0290,1","99999,9,08228,1","9,9,999,9,-002,1",,,"SYN100AAXX  22121 76373 32910 02901 10052 20030 38228 40178 5//// 91150 333 10290 20038 30026 59002 70000;","Q01  00002PRCP24"
"76373099999","2012-09-22T15:00:00","4","25.35","-105.75","1967.0","TEPEHUANES DGO., MX","FM-12","99999","V020","110,1,N,0010,1","22000,1,9,N","020000,1,N,1","+0112,1","+0048,1","10190,1",,,,,,"00,1,+99999,9,99,9",,"00,99,1,00,1,00,1,99999,9,00,1,00,1",,"01,9",,,,"99999,9,08237,1","2,1,009,1,+007,1",,,"SYN082AAXX  22151 76373 32970 01101 10112 20048 38237 40190 52009 91435 333 30/// 58007;",
"76373099999","2012-09-22T21:00:00","4","25.35","-105.75","1967.0","TEPEHUANES DGO., MX","FM-12","99999","V020","160,1,N,0010,1","22000,1,9,N","020000,1,N,1","+0280,1","-0011,1","10155,1",,,,,,"00,1,+99999,9,99,9",,"00,99,1,00,1,00,1,99999,9,00,1,00,1",,"01,9",,,,"99999,9,08209,1","7,1,011,1,+012,1",,,"SYN082AAXX  22211 76373 32970 01601 10280 21011 38209 40155 57011 92050 333 30/// 58012;",
"76373099999","2012-09-23T03:00:00","4","25.35","-105.75","1967.0","TEPEHUANES DGO., MX","FM-12","99999","V020","999,9,C,0000,1","22000,1,9,N","005000,1,N,1","+0178,1","+0024,1","10175,1",,,,,,"00,1,+99999,9,99,9",,"00,99,1,00,1,00,1,99999,9,00,1,00,1",,"01,9",,,,"99999,9,08225,1","2,1,017,1,+015,1",,,"SYN082AAXX  23031 76373 32950 00000 10178 20024 38225 40175 52017 90250 333 30/// 58015;",
"76373099999","2012-09-23T12:00:00","4","25.35","-105.75","1967.0","TEPEHUANES DGO., MX","FM-12","99999","V020","999,9,C,0000,1","22000,1,9,N","005000,1,N,1","+0033,1","+9999,9","10199,1",,,,,,"00,1,+99999,9,99,9",,"00,99,1,00,1,00,1,99999,9,00,1,00,1","0654,9","01,9","999,+0036,9","120,N,+9999,9","240,M,+0294,1","99999,9,08244,1","9,9,999,9,+016,1",,,"SYN112AAXX  23121 76373 32950 00000 10033 20034 38244 40199 5//// 91150 333 10294 20045 30036 55109 2//// 58016 70000;","Q01 +00452ATMN  "
"76373099999","2012-09-23T15:00:00","4","25.35","-105.75","1967.0","TEPEHUANES DGO., MX","FM-12","99999","V020","999,9,C,0000,1","22000,1,9,N","020000,1,N,1","+0144,1","+0053,1","10214,1",,,,,,"00,1,+99999,9,99,9",,"00,99,1,00,1,00,1,99999,9,00,1,00,1",,"01,9",,,,"99999,9,08256,1","2,1,016,1,+019,1",,,"SYN082AAXX  23151 76373 32970 00000 10144 20053 38256 40214 52016 91450 333 30/// 58019;",
"76373099999","2012-09-23T18:00:00","4","25.35","-105.75","1967.0","TEPEHUANES DGO., MX","FM-12","99999","V020","140,1,N,0010,1","22000,1,9,N","020000,1,N,1","+0250,1","+0056,1","10203,1",,,,,,"00,1,+99999,9,99,9",,"00,99,1,00,1,00,1,99999,9,00,1,00,1",,"01,9",,"120,M,+0260,1","240,N,+0045,1","99999,9,08248,1","7,1,008,1,+028,1",,,"SYN094AAXX  23181 76373 32970 01401 10250 20056 38248 40203 57008 91750 333 10260 20045 30/// 58028;",
"76373099999","2012-09-23T21:00:00","4","25.35","-105.75","1967.0","TEPEHUANES DGO., MX","FM-12","99999","V020","140,1,N,0010,1","22000,1,9,N","020000,1,N,1","+0275,1","+0043,1","10181,1",,,,,,"02,1,+00810,1,08,1",,"02,99,1,02,1,03,1,00800,1,00,1,00,1",,"01,9",,,,"99999,9,08230,1","7,1,018,1,+021,1",,,"SYN100AAXX  23211 76373 32570 21401 10275 20043 38230 40181 57018 82300 92050 333 30/// 56900 58021 82827;",
"76373099999","2012-09-24T00:00:00","4","25.35","-105.75","1967.0","TEPEHUANES DGO., MX","FM-12","99999","V020","140,1,N,0010,1","22000,1,9,N","020000,1,N,1","+0259,1","+0061,1","10176,1","24,0000,9,1",,,,,,,"01,99,1,01,1,03,1,00800,1,00,1,00,1",,"01,9",,"120,M,+0290,1","180,N,+0045,1","99999,9,08226,1","7,1,004,1,+018,1",,,"SYN124AAXX  24001 76373 32570 11401 10259 20061 38226 40176 57004 81300 92350 333 10290 20045 30/// 50581 56900 58018 70000 81827;",
"76373099999","2012-09-24T03:00:00","4","25.35","-105.75","1967.0","TEPEHUANES DGO., MX","FM-12","99999","V020","999,9,C,0000,1","22000,1,9,N","005000,1,N,1","+0183,1","+0066,1","10191,1",,,,,,"00,1,+99999,9,99,9",,"00,99,1,00,1,00,1,99999,9,00,1,00,1",,"01,9",,,,"99999,9,08238,1","2,1,012,1,+013,1",,,"SYN082AAXX  24031 76373 32950 00000 10183 20066 38238 40191 52012 90250 333 30/// 58013;",
"76373099999","2012-09-24T06:00:00","4","25.35","-105.75","1967.0","TEPEHUANES DGO., MX","FM-12","99999","V020","999,9,C,0000,1","22000,1,9,N","005000,1,N,1","+0129,1","+0067,1","10203,1",,,,,,"00,1,+99999,9,99,9",,"00,99,1,00,1,00,1,99999,9,00,1,00,1","0642,9","01,9",,"240,M,+0290,1","240,N,+0045,1","99999,9,08248,1","2,1,010,1,+999,9",,,"SYN106AAXX  24061 76373 32950 00000 10129 20067 38248 40203 52010 90550 333 10290 20045 30/// 55107 2//// 58013;",
"76373099999","2012-09-24T12:00:00","4","25.35","-105.75","1967.0","TEPEHUANES DGO., MX","FM-12","99999","V020","999,9,C,0000,1","22000,1,9,N","001000,1,N,1","+0071,1","+0055,1","10208,1","24,0000,9,1",,,,,"00,1,+99999,9,99,9",,"00,99,1,00,1,00,1,99999,9,00,1,00,1",,"01,9",,"120,N,+0060,1","240,M,+0290,1","99999,9,08251,1","9,9,999,9,+007,1",,,"SYN100AAXX  24121 76373 32910 00000 10071 20055 38251 40208 5//// 91150 333 10290 20060 30053 58007 70000;","Q01  00002PRCP24"
"76373099999","2012-09-24T15:00:00","4","25.35","-105.75","1967.0","TEPEHUANES DGO., MX","FM-12","99999","V020","999,9,C,0000,1","22000,1,9,N","020000,1,N,1","+0140,1","+0073,1","10211,1",,,,,,"00,1,+99999,9,99,9",,"00,99,1,00,1,00,1,99999,9,00,1,00,1",,"01,9",,,,"99999,9,08254,1","2,1,003,1,-002,1",,,"SYN082AAXX  24151 76373 32970 00000 10140 20073 38254 40211 52003 91450 333 30/// 59002;",
"76373099999","2012-09-24T18:00:00","4","25.35","-105.75","1967.0","TEPEHUANES DGO., MX","FM-12","99999","V020","999,9,C,0000,1","22000,1,9,N","030000,1,N,1","+0256,1","+0105,1","10196,1",,,,,,"00,1,+99999,9,99,9",,"00,99,1,00,1,00,1,99999,9,00,1,00,1",,"01,9",,"120,M,+0266,1","240,N,+0060,1","99999,9,08242,1","7,1,012,1,-006,1",,,"SYN094AAXX  24181 76373 32980 00000 10256 20105 38242 40196 57012 91750 333 10266 20060 30/// 59006;",
"76373099999","2012-09-24T21:00:00","4","25.35","-105.75","1967.0","TEPEHUANES DGO., MX","FM-12","99999","V020","999,9,C,0000,1","22000,1,9,N","030000,1,N,1","+0293,1","+0054,1","10167,1",,,,,,"02,1,+00750,1,08,1",,"02,99,1,02,1,02,1,00800,1,00,1,00,1",,"01,9",,,,"99999,9,08219,1","7,1,023,1,-007,1",,,"SYN100AAXX  24211 76373 32580 20000 10293 20054 38219 40167 57023 82200 92050 333 30/// 56900 59007 82825;",
"76373099999","2012-09-25T00:00:00","4","25.35","-105.75","1967.0","TEPEHUANES DGO., MX","FM-12","99999","V020","999,9,C,0000,1","22000,1,9,N","030000,1,N,1","+0270,1","+0058,1","10150,1","24,0000,9,1",,,,,,,"03,99,1,03,1,03,1,00800,1,00,1,00,1",,"01,9",,"120,M,+0308,1","180,N,+0060,1","99999,9,08205,1","7,1,014,1,-021,1",,,"SYN124AAXX  25001 76373 32580 30000 10270 20058 38205 40150 57014 83300 92350 333 10308 20060 30/// 50571 56900 59021 70000 83825;",
"76373099999","2012-09-25T03:00:00","4","25.35","-105.75","1967.0","TEPEHUANES DGO., MX","FM-12","99999","V020","999,9,C,0000,1","22000,1,9,N","001000,1,N,1","+0189,1","+0083,1","10168,1",,,,,,"01,1,+00750,1,08,1",,"01,99,1,01,1,01,1,00800,1,00,1,00,1",,"01,9",,,,"99999,9,08220,1","2,1,015,1,-018,1",,,"SYN100AAXX  25031 76373 32510 10000 10189 20083 38220 40168 52015 81100 90250 333 30/// 56900 59018 81825;",
"76373099999","2012-09-25T06:00:00","4","25.35","-105.75","1967.0","TEPEHUANES DGO., MX","FM-12","99999","V020","999,9,C,0000,1","22000,1,9,N","001000,1,N,1","+0141,1","+0078,1","10181,1",,,,,,"00,1,+99999,9,99,9",,"00,99,1,00,1,00,1,99999,9,00,1,00,1","0612,9","01,9",,"240,M,+0308,1","240,N,+0060,1","99999,9,08230,1","2,1,010,1,+999,9",,,"SYN106AAXX  25061 76373 32910 00000 10141 20078 38230 40181 52010 90550 333 10308 20060 30/// 55102 21965 59018;",
"76373099999","2012-09-25T12:00:00","4","25.35","-105.75","1967.0","TEPEHUANES DGO., MX","FM-12","99999","V020","999,9,C,0000,1","22000,1,9,N","001000,1,N,1","+0094,1","+0075,1","10170,1","24,0000,9,1",,,,,"00,1,+99999,9,99,9",,"00,99,1,00,1,00,1,99999,9,00,1,00,1",,"01,9",,"120,N,+0083,1","240,M,+0308,1","99999,9,08221,1","9,9,999,9,-030,1",,,"SYN100AAXX  25121 76373 32910 00000 10094 20075 38221 40170 5//// 91150 333 10308 20083 30072 59030 70000;","Q01  00002PRCP24"
"76373099999","2012-09-25T15:00:00","4","25.35","-105.75","1967.0","TEPEHUANES DGO., MX","FM-12","99999","V020","999,9,C,0000,1","00600,1,9,N","020000,1,N,1","+0142,1","+0093,1","10198,1",,,,,,"06,1,+00600,1,07,1",,"06,99,1,06,1,06,1,00800,1,00,1,00,1",,"01,9",,,,"99999,9,08243,1","2,1,022,1,-011,1",,,"SYN100AAXX  25151 76373 32570 60000 10142 20093 38243 40198 52022 86600 91450 333 30/// 56900 59011 86720;",
"76373099999","2012-09-25T18:00:00","4","25.35","-105.75","1967.0","TEPEHUANES DGO., MX","FM-12","99999","V020","999,9,C,0000,1","22000,1,9,N","030000,1,N,1","+0245,1","+0093,1","10167,1",,,,,,"04,1,+00750,1,07,1",,"04,99,1,04,1,04,1,00800,1,00,1,00,1",,"01,9",,"120,M,+0250,1","240,N,+0083,1","99999,9,08219,1","7,1,024,1,-023,1",,,"SYN112AAXX  25181 76373 32580 40000 10245 20093 38219 40167 57024 84400 91750 333 10250 20083 30/// 56900 59023 84725;",
"76373099999","2012-09-25T21:00:00","4","25.35","-105.75","1967.0","TEPEHUANES DGO., MX","FM-12","99999","V020","140,1,N,0020,1","00750,1,9,N","030000,1,N,1","+0279,1","+0076,1","10140,1",,,,,,"06,1,+00750,1,07,1",,"06,99,1,06,1,06,1,00800,1,00,1,00,1",,"01,9",,,,"99999,9,08197,1","7,1,022,1,-022,1",,,"SYN100AAXX  25211 76373 32580 61402 10279 20076 38197 40140 57022 86600 92050 333 30/// 56900 59022 86725;",
"76373099999","2012-09-26T00:00:00","4","25.35","-105.75","1967.0","TEPEHUANES DGO., MX","FM-12","99999","V020","999,9,C,0000,1","22000,1,9,N","030000,1,N,1","+0267,1","+0066,1","10127,1","24,0000,9,1",,,,,,,"04,99,1,04,1,04,1,00800,1,00,1,00,1",,"01,9",,"120,M,+0306,1","180,N,+0083,1","99999,9,08186,1","7,1,022,1,-019,1",,,"SYN124AAXX  26001 76373 32580 40000 10267 20066 38186 40127 57022 84400 92350 333 10306 20083 30/// 50491 56900 59019 70000 84825;",
"76373099999","2012-09-26T03:00:00","4","25.35","-105.75","1967.0","TEPEHUANES DGO., MX","FM-12","99999","V020","999,9,C,0000,1","00750,1,9,N","001000,1,N,1","+0218,1","+0057,1","10130,1",,,,,,"06,1,+00750,1,08,1",,"06,99,1,06,1,06,1,00800,1,00,1,00,1",,"01,9",,,,"99999,9,08198,1","2,1,003,1,-031,1",,,"SYN100AAXX  26031 76373 32510 60000 10218 20057 38198 40130 52003 86600 90250 333 30/// 56900 59031 86825;",
"76373099999","2012-09-26T06:00:00","4","25.35","-105.75","1967.0","TEPEHUANES DGO., MX","FM-12","99999","V020","999,9,C,0000,1","22000,1,9,N","001000,1,N,1","+0193,1","+0087,1","10152,1",,,,,,,,"04,99,1,04,1,04,1,00800,1,00,1,00,1","0372,9","01,9",,"240,M,+0306,1","240,N,+0083,1","99999,9,08206,1","2,1,007,1,-024,1",,,"SYN124AAXX  26061 76373 32510 40000 10193 20087 38206 40152 52007 84400 90550 333 10306 20083 30/// 55062 21119 56900 59024 84825;",
"76373099999","2012-09-26T12:00:00","4","25.35","-105.75","1967.0","TEPEHUANES DGO., MX","FM-12","99999","V020","999,9,C,0000,1","22000,1,9,N","001000,1,N,1","+0166,1","+0107,1","10139,1","24,0000,9,1",,,,,"04,1,+00750,1,08,1",,"04,99,1,04,1,04,1,00800,1,00,1,00,1",,"01,9",,"120,N,+0155,1","240,M,+0306,1","99999,9,08196,1","9,9,999,9,-025,1",,,"SYN118AAXX  26121 76373 32510 40000 10166 20107 38196 40139 5//// 84400 91150 333 10306 20155 30143 56900 59025 70000 84825;",
"76373099999","2012-09-26T15:00:00","4","25.35","-105.75","1967.0","TEPEHUANES DGO., MX","FM-12","99999","V020","999,9,C,0000,1","00750,1,9,N","020000,1,N,1","+0177,1","+0122,1","10152,1",,,,,,"07,1,+00750,1,08,1",,"07,99,1,07,1,07,1,00800,1,00,1,00,1",,"01,9",,,,"99999,9,08206,1","2,1,010,1,-027,1",,,"SYN100AAXX  26151 76373 32570 70000 10177 20122 38206 40152 52010 87700 91450 333 30/// 56900 59027 87825;",
"76373099999","2012-09-26T18:00:00","4","25.35","-105.75","1967.0","TEPEHUANES DGO., MX","FM-12","99999","V020","999,9,C,0000,1","00750,1,9,N","030000,1,N,1","+0263,1","+0108,1","10150,1",,,,,,"06,1,+00750,1,07,1",,"06,99,1,06,1,06,1,00800,1,00,1,00,1",,"01,9",,"120,M,+0270,1","240,N,+0155,1","99999,9,08205,1","7,1,001,1,-014,1",,,"SYN112AAXX  26181 76373 32580 60000 10263 20108 38205 40150 57001 86600 91750 333 10270 20155 30/// 56900 59014 86725;",
"76373099999","2012-09-26T21:00:00","4","25.35","-105.75","1967.0","TEPEHUANES DGO., MX","FM-12","99999","V020","140,1,N,0010,1","00690,1,9,N","027000,1,N,1","+0273,1","+0088,1","10119,1",,,,,,"06,1,+00690,1,06,1",,"08,99,1,08,1,05,1,00800,1,00,1,00,1",,"01,9",,,,"99999,9,08179,1","7,1,026,1,-018,1",,,"SYN106AAXX  26211 76373 32577 81401 10273 20088 38179 40119 57026 88500 92050 333 30/// 56900 59018 86623 82723;",
"76373099999","2012-09-27T00:00:00","4","25.35","-105.75","1967.0","TEPEHUANES DGO., MX","FM-12","99999","V020","270,1,N,0010,1","00750,1,9,N","027000,1,N,1","+0176,1","+0140,1","10140,1","24,0000,9,1",,,,,,,"08,99,1,08,1,07,1,00800,1,00,1,00,1",,"01,9",,"120,M,+0294,1","180,N,+0155,1","99999,9,08196,1","2,1,017,1,+010,1",,,"SYN124AAXX  27001 76373 32577 82701 10176 20140 38196 40140 52017 88700 92345 333 10294 20155 30/// 50541 56900 58010 70000 88723;",
"76373099999","2012-09-27T03:00:00","4","25.35","-105.75","1967.0","TEPEHUANES DGO., MX","FM-12","99999","V020","999,9,C,0000,1","00660,1,9,N","000400,1,N,1","+0162,1","+0148,1","10157,1","03,0030,9,1",,,"5,1,03,1","2,1,03,1","08,1,+00660,1,07,1",,"08,99,1,08,1,07,1,00800,1,00,1,00,1",,"09,9",,,,"99999,9,08210,1","2,1,014,1,+021,1",,"50,1","SYN112AAXX  27031 76373 21504 80000 10162 20148 38210 40157 52014 75052 88700 90250 333 31/// 56900 58021 60037 88722;",
"76373099999","2012-09-27T06:00:00","4","25.35","-105.75","1967.0","TEPEHUANES DGO., MX","FM-12","99999","V020","999,9,C,0000,1","00750,1,9,N","000400,1,N,1","+0163,1","+0155,1","10172,1",,,,,,,,"08,99,1,08,1,07,1,00800,1,00,1,00,1","0198,9","01,9",,"240,M,+0294,1","240,N,+0155,1","99999,9,08223,1","2,1,013,1,+017,1",,,"SYN124AAXX  27061 76373 32504 80000 10163 20155 38223 40172 52013 88700 90550 333 10294 20155 30/// 55033 21192 56900 58017 88722;",
"76373099999","2012-09-27T12:00:00","4","25.35","-105.75","1967.0","TEPEHUANES DGO., MX","FM-12","99999","V020","999,9,C,0000,1","00690,1,9,N","000300,1,N,1","+0151,1","+0148,1","10157,1","24,0034,9,1",,,,,"06,1,+00690,1,06,1",,"08,99,1,08,1,04,1,00800,1,00,1,00,1",,"01,9",,"120,N,+0142,1","240,M,+0294,1","99999,9,08210,1","9,9,999,9,+014,1",,,"SYN124AAXX  27121 76373 32503 80000 10151 20148 38210 40157 5//// 88400 91150 333 10294 20142 30130 56900 58014 70034 86623 82722;",
"76373099999","2012-09-27T15:00:00","4","25.35","-105.75","1967.0","TEPEHUANES DGO., MX","FM-12","99999","V020","999,9,C,0000,1","00690,1,9,N","020000,1,N,1","+0167,1","+0149,1","10168,1",,,,,,"08,1,+00690,1,06,1",,"08,99,1,08,1,05,1,00800,1,00,1,00,1",,"01,9",,,,"99999,9,08220,1","2,1,010,1,+014,1",,,"SYN100AAXX  27151 76373 32570 80000 10167 20149 38220 40168 52010 88500 91450 333 30/// 56900 58014 88623;",
"76373099999","2012-09-27T18:00:00","4","25.35","-105.75","1967.0","TEPEHUANES DGO., MX","FM-12","99999","V020","999,9,C,0000,1","00690,1,9,N","030000,1,N,1","+0216,1","+0141,1","10178,1",,,,,,"08,1,+00690,1,06,1",,"08,99,1,08,1,08,1,00800,1,00,1,00,1",,"01,9",,"120,M,+0224,1","240,N,+0142,1","99999,9,08227,1","2,1,007,1,+022,1",,,"SYN112AAXX  27181 76373 32580 80000 10216 20141 38227 40178 52007 88800 91750 333 10224 20142 30/// 56900 58022 88623;",
"76373099999","2012-09-27T21:00:00","4","25.35","-105.75","1967.0","TEPEHUANES DGO., MX","FM-12","99999","V020","290,1,N,0010,1","00750,1,9,N","030000,1,N,1","+0248,1","+0123,1","10139,1",,,,,,"08,1,+00750,1,06,1",,"08,99,1,08,1,08,1,00800,1,00,1,00,1",,"01,9",,,,"99999,9,08196,1","7,1,031,1,+017,1",,,"SYN100AAXX  27211 76373 32580 82901 10248 20123 38196 40139 57031 88800 92055 333 30/// 56900 58017 88625;",
"76373099999","2012-09-28T00:00:00","4","25.35","-105.75","1967.0","TEPEHUANES DGO., MX","FM-12","99999","V020","160,1,N,0020,1","01200,1,9,N","030000,1,N,1","+0192,1","+0147,1","10139,1","24,0040,9,1",,,,,,,"08,99,1,08,1,08,1,00800,1,00,1,00,1",,"01,9",,"120,M,+0270,1","180,N,+0142,1","99999,9,08196,1","4,1,000,1,+000,1",,,"SYN124AAXX  28001 76373 32580 81602 10192 20147 38196 40139 54000 88800 92355 333 10270 20142 30/// 50261 56900 58000 70040 88625;",
"76373099999","2012-09-28T03:00:00","4","25.35","-105.75","1967.0","TEPEHUANES DGO., MX","FM-12","99999","V020","230,1,N,0010,1","00750,1,9,N","001000,1,N,1","+0172,1","+0148,1","10159,1",,,,,,"08,1,+00750,1,06,1",,"08,99,1,08,1,08,1,00800,1,00,1,00,1",,"01,9",,,,"99999,9,08212,1","2,1,016,1,+002,1",,,"SYN100AAXX  28031 76373 32510 82301 10172 20148 38212 40159 52016 88800 90255 333 30/// 56900 58002 88625;",
"76373099999","2012-09-28T06:00:00","4","25.35","-105.75","1967.0","TEPEHUANES DGO., MX","FM-12","99999","V020","290,1,N,0010,1","01200,1,9,N","000500,1,N,1","+0164,1","+0155,1","10162,1",,,,,,,,"08,99,1,08,1,08,1,00800,1,00,1,00,1","0048,9","01,9",,"240,M,+0270,1","240,N,+0142,1","99999,9,08214,1","1,1,002,1,-009,1",,,"SYN124AAXX  28061 76373 32505 82901 10164 20155 38214 40162 51002 88800 90540 333 10270 20142 30/// 55008 20325 56900 59009 88725;",
"76373099999","2012-09-28T12:00:00","4","25.35","-105.75","1967.0","TEPEHUANES DGO., MX","FM-12","99999","V020","290,1,N,0010,1","99999,9,9,N","001000,1,N,1","+0158,1","+0154,1","10137,1","06,0000,2,1",,,"5,1,06,1","2,1,06,1",,,"08,99,1,99,9,99,9,00800,1,99,9,99,9",,,,,,"99999,9,08194,1",,,"50,1","SYN072AAXX  28121 76373 01510 82901 10158 20154 38194 40137 5//// 69901 75052;",
"76373099999","2012-09-28T15:00:00","4","25.35","-105.75","1967.0","TEPEHUANES DGO., MX","FM-12","99999","V020","140,1,N,0010,1","00600,1,9,N","010000,1,N,1","+0158,1","+0153,1","10149,1","03,0100,9,1",,,"5,1,03,1","2,1,03,1","08,1,+00600,1,09,1",,"08,99,1,08,1,08,1,00800,1,00,1,00,1",,"09,9",,,,"99999,9,08204,1","2,1,010,1,-016,1",,"15,1","SYN112AAXX  28151 76373 21560 81401 10158 20153 38204 40149 52010 71552 88800 91455 333 31/// 56900 59016 60107 88920;",
"76373099999","2012-09-28T18:00:00","4","25.35","-105.75","1967.0","TEPEHUANES DGO., MX","FM-12","99999","V020","140,1,N,0010,1","00750,1,9,N","030000,1,N,1","+0174,1","+0158,1","10149,1",,,,,,"08,1,+00750,1,07,1",,"08,99,1,08,1,08,1,00800,1,00,1,00,1",,"01,9",,"120,M,+0180,1","240,N,+0138,1","99999,9,08204,1","4,1,000,1,-023,1",,,"SYN112AAXX  28181 76373 32580 81401 10174 20158 38204 40149 54000 88800 91750 333 10180 20138 30/// 56900 59023 88725;",
"76373099999","2012-09-28T21:00:00","4","25.35","-105.75","1967.0","TEPEHUANES DGO., MX","FM-12","99999","V020","140,1,N,0010,1","00600,1,9,N","020000,1,N,1","+0174,1","+0156,1","10139,1",,,,,,"08,1,+00600,1,07,1",,"08,99,1,08,1,08,1,00800,1,00,1,00,1",,"01,9",,,,"99999,9,08196,1","7,1,008,1,+000,1",,,"SYN100AAXX  28211 76373 32570 81401 10174 20156 38196 40139 57008 88800 92055 333 30/// 56900 58000 88720;",
"76373099999","2012-09-29T00:00:00","4","25.35","-105.75","1967.0","TEPEHUANES DGO., MX","FM-12","99999","V020","200,1,N,0010,1","01200,1,9,N","030000,1,N,1","+0190,1","+0154,1","10121,1","24,0240,9,1",,,,,,,"08,99,1,08,1,08,1,00800,1,00,1,00,1",,"01,9",,"120,M,+0220,1","180,N,+0138,1","99999,9,08181,1","7,1,015,1,-015,1",,,"SYN124AAXX  29001 76373 32580 82001 10190 20154 38181 40121 57015 88800 92355 333 10220 20138 30/// 50171 56900 59015 70240 88720;",
"76373099999","2012-09-29T03:00:00","4","25.35","-105.75","1967.0","TEPEHUANES DGO., MX","FM-12","99999","V020","140,1,N,0010,1","00750,1,9,N","001000,1,N,1","+0166,1","+0124,1","10129,1",,,,,,"08,1,+00750,1,07,1",,"99,99,9,07,1,07,1,00800,1,00,1,00,1",,"01,9",,,,"99999,9,08188,1","2,1,007,1,-024,1",,,"SYN100AAXX  29031 76373 32510 71401 10166 20124 38188 40129 52007 87700 90255 333 30/// 56900 59024 88725;","Q01+000072SCOTCV"
"76373099999","2012-09-29T15:00:00","4","25.35","-105.75","1967.0","TEPEHUANES DGO., MX","FM-12","99999","V020","290,1,N,0010,1","22000,1,9,N","030000,1,N,1","+0160,1","+0112,1","10167,1",,,,,,"02,1,+00750,1,06,1",,"02,99,1,02,1,02,1,00800,1,00,1,00,1",,"01,9",,,,"99999,9,08216,1","2,1,011,1,+019,1",,,"SYN100AAXX  29151 76373 32580 22901 10160 20112 38216 40167 52011 82200 91435 333 30/// 56900 58019 82625;",
"76373099999","2012-09-29T18:00:00","4","25.35","-105.75","1967.0","TEPEHUANES DGO., MX","FM-12","99999","V020","999,9,C,0000,1","22000,1,9,N","020000,1,N,1","+0242,1","+0118,1","10156,1",,,,,,"02,1,+00810,1,08,1",,"02,99,1,02,1,03,1,00800,1,00,1,00,1",,"01,9",,"120,M,+0255,1","240,N,+0110,1","99999,9,08210,1","2,1,009,1,+006,1",,,"SYN112AAXX  29181 76373 32570 20000 10242 20118 38210 40156 52009 82300 91750 333 10255 20110 30/// 56900 58006 82827;",
"76373099999","2012-09-29T21:00:00","4","25.35","-105.75","1967.0","TEPEHUANES DGO., MX","FM-12","99999","V020","999,9,C,0000,1","22000,1,9,N","020000,1,N,1","+0265,1","+0118,1","10129,1",,,,,,"03,1,+00810,1,08,1",,"03,99,1,03,1,03,1,00800,1,00,1,00,1",,"01,9",,,,"99999,9,08188,1","7,1,022,1,-008,1",,,"SYN100AAXX  29211 76373 32570 30000 10265 20118 38188 40129 57022 83300 92050 333 30/// 56900 59008 83827;",
"76373099999","2012-09-30T00:00:00","4","25.35","-105.75","1967.0","TEPEHUANES DGO., MX","FM-12","99999","V020","140,1,N,0010,1","22000,1,9,N","020000,1,N,1","+0237,1","+0130,1","10122,1","24,0140,9,1",,,,,,,"04,99,1,04,1,07,1,00800,1,00,1,00,1",,"01,9",,"120,M,+0284,1","180,N,+0110,1","99999,9,08182,1","7,1,006,1,+002,1",,,"SYN124AAXX  30001 76373 32570 41401 10237 20130 38182 40122 57006 84700 92350 333 10284 20110 30/// 50391 56900 58002 70140 84627;",
"76373099999","2012-09-30T12:00:00","4","25.35","-105.75","1967.0","TEPEHUANES DGO., MX","FM-12","99999","V020","999,9,C,0000,1","00750,1,9,N","005000,1,N,1","+0162,1","+0138,1","10157,1","24,0020,9,1",,,,,,,"08,99,1,08,1,07,1,00800,1,00,1,00,1","0546,9","01,9",,"120,N,+0153,1","240,M,+0284,1","99999,9,08210,1","9,9,999,9,+002,1",,,"SYN130AAXX  30121 76373 32550 80000 10162 20138 38210 40157 5//// 88700 91150 333 10284 20153 30141 55091 21973 56900 58002 70020 88627;",
"76373099999","2012-09-30T15:00:00","4","25.35","-105.75","1967.0","TEPEHUANES DGO., MX","FM-12","99999","V020","999,9,C,0000,1","00810,1,9,N","020000,1,N,1","+0183,1","+0144,1","10172,1",,,,,,"07,1,+00810,1,06,1",,"07,99,1,07,1,07,1,00800,1,00,1,00,1",,"01,9",,,,"99999,9,08222,1","2,1,012,1,+003,1",,,"SYN100AAXX  30151 76373 32570 70000 10183 20144 38222 40172 52012 87700 91450 333 30/// 56900 58003 87627;",
"76373099999","2012-09-30T18:00:00","4","25.35","-105.75","1967.0","TEPEHUANES DGO., MX","FM-12","99999","V020","999,9,C,0000,1","00810,1,9,N","020000,1,N,1","+0237,1","+0142,1","10161,1",,,,,,"05,1,+00810,1,08,1",,"05,99,1,05,1,03,1,00800,1,00,1,00,1",,"01,9",,"120,M,+0250,1","240,N,+0153,1","99999,9,08214,1","7,1,008,1,+004,1",,,"SYN112AAXX  30181 76373 32570 50000 10237 20142 38214 40161 57008 85300 91750 333 10250 20153 30/// 56900 58004 85827;",
"76373099999","2012-09-30T21:00:00","4","25.35","-105.75","1967.0","TEPEHUANES DGO., MX","FM-12","99999","V020","999,9,C,0000,1","22000,1,9,N","020000,1,N,1","+0270,1","+0129,1","10127,1",,,,,,"03,1,+00810,1,08,1",,"03,99,1,03,1,03,1,00800,1,00,1,00,1",,"01,9",,,,"99999,9,08186,1","7,1,028,1,-002,1",,,"SYN100AAXX  30211 76373 32570 30000 10270 20129 38186 40127 57028 83300 92050 333 30/// 56900 59002 83827;",
"76373099999","2012-10-01T00:00:00","4","25.35","-105.75","1967.0","TEPEHUANES DGO., MX","FM-12","99999","V020","140,1,N,0010,1","22000,1,9,N","020000,1,N,1","+0245,1","+0119,1","10123,1","24,0020,9,1",,,,,,,"03,99,1,03,1,03,1,00800,1,00,1,00,1",,"01,9",,"120,M,+0280,1","180,N,+0153,1","99999,9,08183,1","7,1,003,1,+001,1",,,"SYN124AAXX  01001 76373 32570 31401 10245 20119 38183 40123 57003 83300 92350 333 10280 20153 30/// 50601 56900 58001 70020 83827;",
"76373099999","2012-10-01T03:00:00","4","25.35","-105.75","1967.0","TEPEHUANES DGO., MX","FM-12","99999","V020","999,9,C,0000,1","00810,1,9,N","005000,1,N,1","+0201,1","+0120,1","10145,1",,,,,,"08,1,+00810,1,06,1",,"08,99,1,08,1,07,1,00800,1,00,1,00,1",,"01,9",,,,"99999,9,08201,1","2,1,018,1,-004,1",,,"SYN100AAXX  01031 76373 32550 80000 10201 20120 38201 40145 52018 88700 90250 333 30/// 56900 59004 88627;",
"76373099999","2012-10-01T06:00:00","4","25.35","-105.75","1967.0","TEPEHUANES DGO., MX","FM-12","99999","V020","999,9,C,0000,1","00750,1,9,N","005000,1,N,1","+0185,1","+0102,1","10155,1",,,,,,,,"08,99,1,08,1,07,1,00800,1,00,1,00,1","0450,9","01,9",,"240,M,+0280,1","240,N,+0153,1","99999,9,08209,1","2,1,008,1,-008,1",,,"SYN124AAXX  01061 76373 32550 80000 10185 20102 38209 40155 52008 88700 90550 333 10280 20153 30/// 55075 20805 56900 59008 88627;",
"76373099999","2012-10-01T12:00:00","4","25.35","-105.75","1967.0","TEPEHUANES DGO., MX","FM-12","99999","V020","999,9,C,0000,1","22000,1,9,N","001000,1,N,1","+0104,1","+0085,1","10162,1","24,0000,9,1",,,,,"00,1,+99999,9,99,9",,"00,99,1,00,1,00,1,99999,9,00,1,00,1",,"01,9",,"120,N,+0095,1","240,M,+0280,1","99999,9,08214,1","9,9,999,9,+004,1",,,"SYN100AAXX  01121 76373 32910 00000 10104 20085 38214 40162 5//// 91150 333 10280 20095 30087 58004 70000;","Q01  00002PRCP24"
"76373099999","2012-10-01T18:00:00","4","25.35","-105.75","1967.0","TEPEHUANES DGO., MX","FM-12","99999","V020","999,9,C,0000,1","22000,1,9,N","030000,1,N,1","+0253,1","+0066,1","10152,1",,,,,,"00,1,+99999,9,99,9",,"00,99,1,00,1,00,1,99999,9,00,1,00,1",,"01,9",,"120,M,+0260,1","240,N,+0095,1","99999,9,08206,1","2,1,016,1,-008,1",,,"SYN094AAXX  01181 76373 32980 00000 10253 20066 38206 40152 52016 91750 333 10260 20095 30/// 59008;",
"76373099999","2012-10-02T00:00:00","4","25.35","-105.75","1967.0","TEPEHUANES DGO., MX","FM-12","99999","V020","120,1,N,0010,1","22000,1,9,N","027000,1,N,1","+0247,1","+0051,1","10136,1","24,0000,9,1",,,,,"02,1,+00690,1,06,1",,"03,99,1,03,1,04,1,00800,1,00,1,00,1",,"01,9",,"120,M,+0289,1","180,N,+0095,1","99999,9,08194,1","2,1,002,1,+011,1",,,"SYN130AAXX  02001 76373 32577 31201 10247 20051 38194 40136 52002 83400 92350 333 10289 20095 30/// 50551 56900 58011 70000 82623 81825;",
"76373099999","2012-10-02T03:00:00","4","25.35","-105.75","1967.0","TEPEHUANES DGO., MX","FM-12","99999","V020","999,9,C,0000,1","22000,1,9,N","000400,1,N,1","+0173,1","+0050,1","10163,1",,,,,,"01,1,+00750,1,08,1",,"01,99,1,01,1,02,1,00800,1,00,1,00,1",,"01,9",,,,"99999,9,08215,1","2,1,021,1,+014,1",,,"SYN100AAXX  02031 76373 32504 10000 10173 20050 38215 40163 52021 81200 90250 333 30/// 56900 58014 81825;",
"76373099999","2012-10-02T06:00:00","4","25.35","-105.75","1967.0","TEPEHUANES DGO., MX","FM-12","99999","V020","999,9,C,0000,1","22000,1,9,N","000400,1,N,1","+0121,1","+0079,1","10173,1",,,,,,,,"01,99,1,01,1,02,1,00800,1,00,1,00,1","0630,9","01,9",,"240,M,+0289,1","240,N,+0095,1","99999,9,08224,1","2,1,009,1,+025,1",,,"SYN124AAXX  02061 76373 32504 10000 10121 20079 38224 40173 52009 81200 90550 333 10289 20095 30/// 55105 21683 56900 58025 81830;",
"76373099999","2012-10-02T12:00:00","4","25.35","-105.75","1967.0","TEPEHUANES DGO., MX","FM-12","99999","V020","999,9,C,0000,1","22000,1,9,N","001000,1,N,1","+0073,1","+0037,1","10183,1","24,0000,9,1",,,,,"00,1,+99999,9,99,9",,"00,99,1,00,1,00,1,99999,9,00,1,00,1",,"01,9",,"120,N,+0065,1","240,M,+0289,1","99999,9,08232,1","9,9,999,9,+018,1",,,"SYN100AAXX  02121 76373 32910 00000 10073 20037 38232 40183 5//// 91150 333 10289 20065 30058 58018 70000;","Q01  00002PRCP24"
"76373099999","2012-10-02T15:00:00","4","25.35","-105.75","1967.0","TEPEHUANES DGO., MX","FM-12","99999","V020","999,9,C,0000,1","22000,1,9,N","027000,1,N,1","+0224,1","+0074,1","10196,1",,,,,,"00,1,+99999,9,99,9",,"00,99,1,00,1,00,1,99999,9,00,1,00,1",,"01,9",,,,"99999,9,08242,1","2,1,020,1,+020,1",,,"SYN082AAXX  02151 76373 32977 00000 10224 20074 38242 40196 52020 91450 333 30/// 58020;",
"76373099999","2012-10-02T18:00:00","4","25.35","-105.75","1967.0","TEPEHUANES DGO., MX","FM-12","99999","V020","140,1,N,0020,1","22000,1,9,N","027000,1,N,1","+0240,1","+0037,1","10186,1",,,,,,"00,1,+99999,9,99,9",,"00,99,1,00,1,00,1,99999,9,00,1,00,1",,"01,9",,"120,M,+0248,1","240,N,+0065,1","99999,9,08234,1","7,1,008,1,+028,1",,,"SYN094AAXX  02181 76373 32977 01402 10240 20037 38234 40186 57008 91750 333 10248 20065 30/// 58028;",
"76373099999","2012-10-02T21:00:00","4","25.35","-105.75","1967.0","TEPEHUANES DGO., MX","FM-12","99999","V020","130,1,N,0010,1","22000,1,9,N","027000,1,N,1","+0257,1","+0023,1","10152,1",,,,,,"00,1,+99999,9,99,9",,"00,99,1,00,1,00,1,99999,9,00,1,00,1",,"01,9",,,,"99999,9,08206,1","7,1,028,1,+999,9",,,"SYN082AAXX  02211 76373 32977 01301 10257 20023 38206 40152 57028 92050 333 30/// 58///;",
"76373099999","2012-10-03T00:00:00","4","25.35","-105.75","1967.0","TEPEHUANES DGO., MX","FM-12","99999","V020","999,9,C,0000,1","22000,1,9,N","027000,1,N,1","+0244,1","+0007,1","10151,1","24,0000,9,1",,,,,"00,1,+99999,9,99,9",,"00,99,1,00,1,00,1,99999,9,00,1,00,1",,"01,9",,"120,M,+0277,1","180,N,+0065,1","99999,9,08206,1","5,1,000,1,+012,1",,,"SYN106AAXX  03001 76373 32977 00000 10244 20007 38206 40151 55000 92350 333 10277 20065 30/// 50721 58012 70000;","Q01  00002PRCP24"
"76373099999","2012-10-03T03:00:00","4","25.35","-105.75","1967.0","TEPEHUANES DGO., MX","FM-12","99999","V020","999,9,C,0000,1","22000,1,9,N","000400,1,N,1","+0154,1","+0051,1","10168,1",,,,,,"00,1,+99999,9,99,9",,"00,99,1,00,1,00,1,99999,9,00,1,00,1",,"01,9",,,,"99999,9,08219,1","2,1,013,1,+004,1",,,"SYN082AAXX  03031 76373 32904 00000 10154 20051 38219 40168 52013 90245 333 30/// 58004;",
"76373099999","2012-10-03T06:00:00","4","25.35","-105.75","1967.0","TEPEHUANES DGO., MX","FM-12","99999","V020","999,9,C,0000,1","22000,1,9,N","000400,1,N,1","+0101,1","+0051,1","10182,1",,,,,,"00,1,+99999,9,99,9",,"00,99,1,00,1,00,1,99999,9,00,1,00,1","0630,9","01,9",,"240,M,+0277,1","240,N,+0065,1","99999,9,08230,1","2,1,011,1,+999,9",,,"SYN106AAXX  03061 76373 32904 00000 10101 20051 38230 40182 52011 90545 333 10277 20065 30/// 55105 22062 58006;",
"76373099999","2012-10-03T12:00:00","4","25.35","-105.75","1967.0","TEPEHUANES DGO., MX","FM-12","99999","V020","999,9,C,0000,1","22000,1,9,N","001000,1,N,1","+0051,1","+0043,1","10191,1","24,0000,9,1",,,,,"00,1,+99999,9,99,9",,"00,99,1,00,1,00,1,99999,9,00,1,00,1",,"01,9","999,+0035,9","120,N,+0044,1","240,M,+0277,1","99999,9,08238,1","9,9,999,9,+006,1",,,"SYN100AAXX  03121 76373 32910 00000 10051 20043 38238 40191 5//// 91150 333 10277 20044 30035 58006 70000;","Q01  00002PRCP24"
"76373099999","2012-10-03T15:00:00","4","25.35","-105.75","1967.0","TEPEHUANES DGO., MX","FM-12","99999","V020","999,9,C,0000,1","22000,1,9,N","027000,1,N,1","+0125,1","+0062,1","99999,9",,,,,,"00,1,+99999,9,99,9",,"00,99,1,00,1,00,1,99999,9,00,1,00,1",,,,,,,,,,"SYN082AAXX  03151 76373 32977 00000 10125 20062 25014 38252 40209 91450 333 30/// 58010;",
"76373099999","2012-10-03T18:00:00","4","25.35","-105.75","1967.0","TEPEHUANES DGO., MX","FM-12","99999","V020","999,9,C,0000,1","22000,1,9,N","027000,1,N,1","+0246,1","+0031,1","10191,1",,,,,,"00,1,+99999,9,99,9",,"00,99,1,00,1,00,1,99999,9,00,1,00,1",,"01,9",,"120,M,+9999,9","240,N,+0044,1","99999,9,08238,1","7,1,014,1,+004,1",,,"SYN094AAXX  03181 76373 32977 00000 10246 20031 38238 40191 57014 91750 333 10225 20044 30/// 58004;","Q01 +02252ATMX  "
"76373099999","2012-10-03T21:00:00","4","25.35","-105.75","1967.0","TEPEHUANES DGO., MX","FM-12","99999","V020","140,1,N,0010,1","22000,1,9,N","027000,1,N,1","+0286,1","+0029,1","10164,1",,,,,,"01,1,+00900,1,08,1",,"01,99,1,01,1,01,1,00800,1,00,1,00,1",,"01,9",,,,"99999,9,08216,1","7,1,022,1,+010,1",,,"SYN100AAXX  03211 76373 32577 11401 10286 20029 38216 40164 57022 81100 92050 333 30/// 56900 58010 81830;",
"76373099999","2012-10-04T00:00:00","4","25.35","-105.75","1967.0","TEPEHUANES DGO., MX","FM-12","99999","V020","140,1,N,0010,1","22000,1,9,N","027000,1,N,1","+0255,1","+0013,1","10163,1","24,0000,9,1",,,,,,,"01,99,1,01,1,02,1,00800,1,00,1,00,1",,"01,9",,"120,M,+0299,1","180,N,+0044,1","99999,9,08216,1","0,1,000,1,+010,1",,,"SYN124AAXX  04001 76373 32577 11401 10255 20013 38216 40163 50000 81200 92350 333 10299 20044 30/// 50521 56800 58010 70000 81830;",
"76373099999","2012-10-04T03:00:00","4","25.35","-105.75","1967.0","TEPEHUANES DGO., MX","FM-12","99999","V020","999,9,C,0000,1","22000,1,9,N","000400,1,N,1","+0170,1","+0045,1","10190,1",,,,,,"00,1,+99999,9,99,9",,"00,99,1,00,1,00,1,99999,9,00,1,00,1",,"01,9",,,,"99999,9,08237,1","2,1,021,1,+018,1",,,"SYN082AAXX  04031 76373 32904 00000 10170 20045 38237 40190 52021 90245 333 30/// 58018;",
"76373099999","2012-10-04T06:00:00","4","25.35","-105.75","1967.0","TEPEHUANES DGO., MX","FM-12","99999","V020","999,9,C,0000,1","22000,1,9,N","000400,1,N,1","+0119,1","+0050,1","10208,1",,,,,,"00,1,+99999,9,99,9",,"00,99,1,00,1,00,1,99999,9,00,1,00,1","0630,9","01,9",,"240,M,+0299,1","240,N,+0044,1","99999,9,08251,1","2,1,014,1,+999,9",,,"SYN106AAXX  04061 76373 32904 00000 10119 20050 38251 40208 52014 90235 333 10299 20044 30/// 55105 22086 58021;",
"76373099999","2012-10-04T12:00:00","4","25.35","-105.75","1967.0","TEPEHUANES DGO., MX","FM-12","99999","V020","999,9,C,0000,1","22000,1,9,N","000600,1,N,1","+0057,1","+0046,1","10218,1","24,0000,9,1",,,,,"00,1,+99999,9,99,9",,"00,99,1,00,1,00,1,99999,9,00,1,00,1",,"01,9","999,+0040,9","120,N,+0050,1","240,M,+0299,1","99999,9,08260,1","9,9,999,9,+022,1",,,"SYN100AAXX  04121 76373 32906 00000 10057 20046 38260 40218 5//// 91150 333 10299 20050 30040 58022 70000;","Q01  00002PRCP24"
"76373099999","2012-10-04T15:00:00","4","25.35","-105.75","1967.0","TEPEHUANES DGO., MX","FM-12","99999","V020","999,9,C,0000,1","22000,1,9,N","027000,1,N,1","+0132,1","+0061,1","10231,1",,,,,,"00,1,+99999,9,99,9",,"00,99,1,00,1,00,1,99999,9,00,1,00,1",,"01,9",,,,"99999,9,08270,1","2,1,010,1,+018,1",,,"SYN082AAXX  04151 76373 32977 00000 10132 20061 38270 40231 52010 91450 333 30/// 58018;",
"76373099999","2012-10-04T18:00:00","4","25.35","-105.75","1967.0","TEPEHUANES DGO., MX","FM-12","99999","V020","999,9,C,0000,1","22000,1,9,N","030000,1,N,1","+0250,1","+0048,1","10219,1",,,,,,"00,1,+99999,9,99,9",,"00,99,1,00,1,00,1,99999,9,00,1,00,1",,"01,9",,"120,M,+0255,1","240,N,+0050,1","99999,9,08261,1","7,1,009,1,+023,1",,,"SYN094AAXX  04181 76373 32980 00000 10250 20048 38261 40219 57009 91750 333 10255 20050 30/// 58023;",
"76373099999","2012-10-04T21:00:00","4","25.35","-105.75","1967.0","TEPEHUANES DGO., MX","FM-12","99999","V020","140,1,N,0020,1","22000,1,9,N","030000,1,N,1","+0287,1","+0021,1","10193,1",,,,,,"00,1,+99999,9,99,9",,"00,99,1,00,1,00,1,99999,9,00,1,00,1",,"01,9",,,,"99999,9,08293,1","7,1,022,1,+023,1",,,"SYN082AAXX  04211 76373 32980 01402 10287 20021 38293 40193 57022 92050 333 30/// 58023;",
"76373099999","2012-10-05T00:00:00","4","25.35","-105.75","1967.0","TEPEHUANES DGO., MX","FM-12","99999","V020","160,1,N,0010,1","22000,1,9,N","030000,1,N,1","+0268,1","+0017,1","10189,1","24,0000,9,1",,,,,"00,1,+99999,9,99,9",,"00,99,1,00,1,00,1,99999,9,00,1,00,1",,"01,9",,"120,M,+0300,1","180,N,+0050,1","99999,9,08237,1","7,1,002,1,-021,1",,,"SYN106AAXX  05001 76373 32980 01601 10268 20017 38237 40189 57002 92350 333 10300 20050 30/// 50571 59021 70000;","Q01  00002PRCP24"
"76373099999","2012-10-05T03:00:00","4","25.35","-105.75","1967.0","TEPEHUANES DGO., MX","FM-12","99999","V020","999,9,C,0000,1","22000,1,9,N","001000,1,N,1","+0173,1","+0044,1","10206,1",,,,,,"00,1,+99999,9,99,9",,"00,99,1,00,1,00,1,99999,9,00,1,00,1",,"01,9",,,,"99999,9,08250,1","2,1,023,1,+014,1",,,"SYN082AAXX  05031 76373 32910 00000 10173 20044 38250 40206 52023 90250 333 30/// 58014;",
"76373099999","2012-10-05T06:00:00","4","25.35","-105.75","1967.0","TEPEHUANES DGO., MX","FM-12","99999","V020","999,9,C,0000,1","22000,1,9,N","001000,1,N,1","+0131,1","+0046,1","10216,1",,,,,,"00,1,+99999,9,99,9",,"00,99,1,00,1,00,1,99999,9,00,1,00,1","0630,9","01,9",,"240,M,+0300,1","240,N,+0050,1","99999,9,08258,1","2,1,008,1,+999,9",,,"SYN106AAXX  05061 76373 32910 00000 10131 20046 38258 40216 52008 90550 333 10300 20050 30/// 55105 21965 58007;",
"76373099999","2012-10-05T12:00:00","4","25.35","-105.75","1967.0","TEPEHUANES DGO., MX","FM-12","99999","V020","999,9,C,0000,1","22000,1,9,N","001000,1,N,1","+0060,1","+0040,1","10205,1","24,0000,9,1",,,,,"00,1,+99999,9,99,9",,"00,99,1,00,1,00,1,99999,9,00,1,00,1",,"01,9","999,+0042,9","120,N,+0052,1","240,M,+0300,1","99999,9,08249,1","9,9,999,9,-011,1",,,"SYN100AAXX  05121 76373 32910 00000 10060 20040 38249 40205 5//// 91150 333 10300 20052 30042 59011 70000;","Q01  00002PRCP24"
"76373099999","2012-10-05T15:00:00","4","25.35","-105.75","1967.0","TEPEHUANES DGO., MX","FM-12","99999","V020","999,9,C,0000,1","22000,1,9,N","020000,1,N,1","+0133,1","+0055,1","10219,1",,,,,,"00,1,+99999,9,99,9",,"00,99,1,00,1,00,1,99999,9,00,1,00,1",,"01,9",,,,"99999,9,08261,1","2,1,012,1,-009,1",,,"SYN082AAXX  05151 76373 32970 00000 10133 20055 38261 40219 52012 91450 333 30/// 59009;",
"76373099999","2012-10-05T18:00:00","4","25.35","-105.75","1967.0","TEPEHUANES DGO., MX","FM-12","99999","V020","999,9,C,0000,1","22000,1,9,N","030000,1,N,1","+0256,1","+0043,1","10204,1",,,,,,"00,1,+99999,9,99,9",,"00,99,1,00,1,00,1,99999,9,00,1,00,1",,"01,9",,"120,M,+0260,1","240,N,+0052,1","99999,9,08248,1","7,1,013,1,-013,1",,,"SYN094AAXX  05181 76373 32980 00000 10256 20043 38248 40204 57013 91750 333 10260 20052 30/// 59013;",
"76373099999","2012-10-05T21:00:00","4","25.35","-105.75","1967.0","TEPEHUANES DGO., MX","FM-12","99999","V020","999,9,C,0000,1","22000,1,9,N","030000,1,N,1","+0298,1","-0003,1","10167,1",,,,,,"00,1,+99999,9,99,9",,"00,99,1,00,1,00,1,99999,9,00,1,00,1",,"01,9",,,,"99999,9,08218,1","7,1,030,1,-021,1",,,"SYN082AAXX  05211 76373 32980 00000 10298 21003 38218 40167 57030 92050 333 30/// 59021;",
"76373099999","2012-10-06T00:00:00","4","25.35","-105.75","1967.0","TEPEHUANES DGO., MX","FM-12","99999","V020","999,9,C,0000,1","22000,1,9,N","030000,1,N,1","+0280,1","+0013,1","10154,1","24,0000,9,1",,,,,"00,1,+99999,9,99,9",,"00,99,1,00,1,00,1,99999,9,00,1,00,1",,"01,9",,"120,M,+0310,1","180,N,+0052,1","99999,9,08208,1","7,1,010,1,-029,1",,,"SYN106AAXX  06001 76373 32980 00000 10280 20013 38208 40154 57010 92350 333 10310 20052 30/// 50541 59029 70000;","Q01  00002PRCP24"
"76373099999","2012-10-06T03:00:00","4","25.35","-105.75","1967.0","TEPEHUANES DGO., MX","FM-12","99999","V020","999,9,C,0000,1","22000,1,9,N","001000,1,N,1","+0175,1","+0031,1","10167,1",,,,,,"00,1,+99999,9,99,9",,"00,99,1,00,1,00,1,99999,9,00,1,00,1",,"01,9",,,,"99999,9,08218,1","2,1,010,1,-032,1",,,"SYN082AAXX  06031 76373 32910 00000 10175 20031 38218 40167 52010 90240 333 30/// 59032;",
"76373099999","2012-10-06T06:00:00","4","25.35","-105.75","1967.0","TEPEHUANES DGO., MX","FM-12","99999","V020","999,9,C,0000,1","22000,1,9,N","005000,1,N,1","+0127,1","+0057,1","10177,1",,,,,,"00,1,+99999,9,99,9",,"00,99,1,00,1,00,1,99999,9,00,1,00,1","0618,9","01,9",,"240,M,+0310,1","240,N,+0052,1","99999,9,08226,1","2,1,008,1,+999,9",,,"SYN106AAXX  06061 76373 32950 00000 10127 20057 38226 40177 52008 90550 333 10310 20052 30/// 55103 22005 59028;",
"76373099999","2012-10-06T15:00:00","4","25.35","-105.75","1967.0","TEPEHUANES DGO., MX","FM-12","99999","V020","999,9,C,0000,1","22000,1,9,N","020000,1,N,1","+0123,1","+0055,1","10178,1",,,,,,"00,1,+99999,9,99,9",,"00,99,1,00,1,00,1,99999,9,00,1,00,1",,"01,9",,,,"99999,9,08228,1","4,1,000,1,-033,1",,,"SYN082AAXX  06151 76373 32970 00000 10123 20055 38228 40178 54000 91450 333 30/// 59033;",
"76373099999","2012-10-06T18:00:00","4","25.35","-105.75","1967.0","TEPEHUANES DGO., MX","FM-12","99999","V020","999,9,C,0000,1","22000,1,9,N","020000,1,N,1","+0265,1","+0040,1","10157,1",,,,,,"00,1,+99999,9,99,9",,"00,99,1,00,1,00,1,99999,9,00,1,00,1",,"01,9",,"120,M,+0275,1","240,N,+0050,1","99999,9,08210,1","7,1,018,1,-038,1",,,"SYN094AAXX  06181 76373 32970 00000 10265 20040 38210 40157 57018 91750 333 10275 20050 30/// 59038;",
"76373099999","2012-10-06T21:00:00","4","25.35","-105.75","1967.0","TEPEHUANES DGO., MX","FM-12","99999","V020","999,9,C,0000,1","22000,1,9,N","020000,1,N,1","+0297,2","+0024,1","10124,1",,,,,,"00,1,+99999,9,99,9",,"00,99,1,00,1,00,1,99999,9,00,1,00,1",,"01,9",,,,"99999,9,08184,1","7,1,026,1,-034,1",,,"SYN082AAXX  06211 76373 32970 00000 10297 20024 38184 40124 57026 92050 333 30/// 59034;",
"76373099999","2012-10-07T00:00:00","4","25.35","-105.75","1967.0","TEPEHUANES DGO., MX","FM-12","99999","V020","140,1,N,0010,1","22000,1,9,N","020000,1,N,1","+0259,1","+0031,1","10114,1","24,0000,9,1",,,,,"00,1,+99999,9,99,9",,"00,99,1,00,1,00,1,99999,9,00,1,00,1",,"01,9",,"120,M,+0310,1","180,N,+0050,1","99999,9,08176,1","7,1,008,1,-028,1",,,"SYN106AAXX  07001 76373 32970 01401 10259 20031 38176 40114 57008 92350 333 10310 20050 30/// 50631 59028 70000;","Q01  00002PRCP24"
"76373099999","2012-10-07T03:00:00","4","25.35","-105.75","1967.0","TEPEHUANES DGO., MX","FM-12","99999","V020","999,9,C,0000,1","22000,1,9,N","005000,1,N,1","+0183,1","+0058,1","10141,1",,,,,,"00,1,+99999,9,99,9",,"00,99,1,00,1,00,1,99999,9,00,1,00,1",,"01,9",,,,"99999,9,08197,1","2,1,021,1,-021,1",,,"SYN082AAXX  07031 76373 32950 00000 10183 20058 38197 40141 52021 90250 333 30/// 59021;",
"76373099999","2012-10-07T06:00:00","4","25.35","-105.75","1967.0","TEPEHUANES DGO., MX","FM-12","99999","V020","999,9,C,0000,1","22000,1,9,N","005000,1,N,1","+0134,1","+0071,1","10147,1",,,,,,"00,1,+99999,9,99,9",,"00,99,1,00,1,00,1,99999,9,00,1,00,1","0630,9","01,9",,"240,M,+0310,1","240,N,+0050,1","99999,9,08202,1","2,1,005,1,+999,9",,,"SYN106AAXX  07061 76373 32950 00000 10134 20071 38202 40147 52005 90550 333 10310 20050 30/// 55105 21813 59024;",
"76373099999","2012-10-07T12:00:00","4","25.35","-105.75","1967.0","TEPEHUANES DGO., MX","FM-12","99999","V020","999,9,C,0000,1","22000,1,9,N","005000,1,N,1","+0087,1","+0072,1","10147,1",,,,,,"00,1,+99999,9,99,9",,"00,99,1,00,1,00,1,99999,9,00,1,00,1","0630,9","01,9",,"120,N,+0078,1","240,M,+0310,1","99999,9,08202,1","9,9,999,9,-025,1",,,"SYN112AAXX  07121 76373 32950 00000 10087 20072 38202 40147 5//// 91150 333 10310 20078 30069 55105 21813 59025 70000;",
"76373099999","2012-10-07T18:00:00","4","25.35","-105.75","1967.0","TEPEHUANES DGO., MX","FM-12","99999","V020","999,9,C,0000,1","22000,1,9,N","020000,1,N,1","+0267,1","+0093,1","10146,1",,,,,,"01,1,+00810,1,08,1",,"01,99,1,01,1,02,1,00800,1,00,1,00,1",,"01,9",,"120,M,+0275,1","240,N,+0078,1","99999,9,08201,1","7,1,016,1,-009,1",,,"SYN112AAXX  07181 76373 32570 10000 10267 20093 38201 40146 57016 81200 91750 333 10275 20078 30/// 56900 59009 81827;",
"76373099999","2012-10-07T21:00:00","4","25.35","-105.75","1967.0","TEPEHUANES DGO., MX","FM-12","99999","V020","999,9,C,0000,1","22000,1,9,N","020000,1,N,1","+0297,1","+0051,1","10123,1",,,,,,"01,1,+00810,1,08,1",,"01,99,1,01,1,02,1,00800,1,00,1,00,1",,"01,9",,,,"99999,9,08183,1","7,1,018,1,-001,1",,,"SYN100AAXX  07211 76373 32570 10000 10297 20051 38183 40123 57018 81200 92050 333 30/// 56900 59001 81827;",
"76373099999","2012-10-08T00:00:00","4","25.35","-105.75","1967.0","TEPEHUANES DGO., MX","FM-12","99999","V020","999,9,C,0000,1","22000,1,9,N","020000,1,N,1","+0275,1","+0046,1","10109,1","24,0000,9,1",,,,,,,"02,99,1,02,1,03,1,00800,1,00,1,00,1",,"01,9",,"120,M,+0316,1","180,N,+0078,1","99999,9,08172,1","7,1,011,1,-004,1",,,"SYN124AAXX  08001 76373 32570 20000 10275 20046 38172 40109 57011 82300 92350 333 10316 20078 30/// 50521 56900 59004 70000 82827;",
"76373099999","2012-10-08T03:00:00","4","25.35","-105.75","1967.0","TEPEHUANES DGO., MX","FM-12","99999","V020","999,9,C,0000,1","22000,1,9,N","005000,1,N,1","+0201,1","+0091,1","10146,1",,,,,,"00,1,+99999,9,99,9",,"00,99,1,00,1,00,1,99999,9,00,1,00,1",,"01,9",,,,"99999,9,08202,1","2,1,030,1,+005,1",,,"SYN082AAXX  08031 76373 32950 00000 10201 20091 38202 40146 52030 90250 333 30/// 58005;",
"76373099999","2012-10-08T06:00:00","4","25.35","-105.75","1967.0","TEPEHUANES DGO., MX","FM-12","99999","V020","999,9,C,0000,1","22000,1,9,N","005000,1,N,1","+0158,1","+0094,1","10156,1",,,,,,"00,1,+99999,9,99,9",,"00,99,1,00,1,00,1,99999,9,00,1,00,1","0594,9","01,9",,"240,M,+0316,1","240,N,+0078,1","99999,9,08210,1","2,1,008,1,+999,9",,,"SYN106AAXX  08061 76373 32950 00000 10158 20094 38210 40156 52008 90550 333 10316 20078 30/// 55099 21780 58008;",
"76373099999","2012-10-08T15:00:00","4","25.35","-105.75","1967.0","TEPEHUANES DGO., MX","FM-12","99999","V020","999,9,C,0000,1","22000,1,9,N","020000,1,N,1","+0155,1","+0099,1","10186,1",,,,,,"00,1,+99999,9,99,9",,"00,99,1,00,1,00,1,99999,9,00,1,00,1",,"01,9",,,,"99999,9,08234,1","2,1,016,1,+017,1",,,"SYN082AAXX  08151 76373 32970 00000 10155 20099 38234 40186 52016 91450 333 30/// 58017;",
"76373099999","2012-10-08T18:00:00","4","25.35","-105.75","1967.0","TEPEHUANES DGO., MX","FM-12","99999","V020","999,9,C,0000,1","22000,1,9,N","030000,1,N,1","+0265,1","+0049,1","10168,1",,,,,,"00,1,+99999,9,99,9",,"00,99,1,00,1,00,1,99999,9,00,1,00,1",,"01,9",,"120,M,+0270,1","240,N,+0085,1","99999,9,08219,1","7,1,015,1,+018,1",,,"SYN094AAXX  08181 76373 32980 00000 10265 20049 38219 40168 57015 91750 333 10270 20085 30/// 58018;",
"76373099999","2012-10-08T21:00:00","4","25.35","-105.75","1967.0","TEPEHUANES DGO., MX","FM-12","99999","V020","999,9,C,0000,1","22000,1,9,N","030000,1,N,1","+0299,1","+0032,1","10142,1",,,,,,"01,1,+00750,1,08,1",,"01,99,1,01,1,01,1,00800,1,00,1,00,1",,"01,9",,,,"99999,9,08198,1","7,1,021,1,+015,1",,,"SYN100AAXX  08211 76373 32580 10000 10299 20032 38198 40142 57021 81100 92050 333 30/// 56900 58015 81825;",
"76373099999","2012-10-09T00:00:00","4","25.35","-105.75","1967.0","TEPEHUANES DGO., MX","FM-12","99999","V020","250,1,N,0010,1","22000,1,9,N","030000,1,N,1","+0274,1","+0057,1","10135,1","24,0000,9,1",,,,,,,"02,99,1,02,1,02,1,00800,1,00,1,00,1",,"01,9",,"120,M,+0318,1","180,N,+0085,1","99999,9,08193,1","7,1,005,1,+021,1",,,"SYN124AAXX  09001 76373 32580 22501 10274 20057 38193 40135 57005 82200 92350 333 10318 20085 30/// 50511 56900 58021 70000 82825;",
"76373099999","2012-10-09T03:00:00","4","25.35","-105.75","1967.0","TEPEHUANES DGO., MX","FM-12","99999","V020","999,9,C,0000,1","22000,1,9,N","001000,1,N,1","+0193,1","+0074,1","10168,1",,,,,,"00,1,+99999,9,99,9",,"00,99,1,00,1,00,1,99999,9,00,1,00,1",,"01,9",,,,"99999,9,08220,1","7,1,025,1,+018,1",,,"SYN082AAXX  09031 76373 32910 00000 10193 20074 38220 40168 57025 90250 333 30/// 58018;",
"76373099999","2012-10-09T06:00:00","4","25.35","-105.75","1967.0","TEPEHUANES DGO., MX","FM-12","99999","V020","999,9,C,0000,1","22000,1,9,N","001000,1,N,1","+0145,1","+0063,1","10178,1",,,,,,"00,1,+99999,9,99,9",,"00,99,1,00,1,00,1,99999,9,00,1,00,1","0660,9","01,9",,"240,M,+0318,1","240,N,+0085,1","99999,9,08228,1","2,1,008,1,+999,9",,,"SYN106AAXX  09061 76373 32910 00000 10145 20063 38228 40178 52008 90550 333 10318 20085 30/// 55110 21804 58018;",
"76373099999","2012-10-09T12:00:00","4","25.35","-105.75","1967.0","TEPEHUANES DGO., MX","FM-12","99999","V020","999,9,C,0000,1","22000,1,9,N","001000,1,N,1","+0077,1","+0062,1","10172,1","24,0000,9,1",,,,,"00,1,+99999,9,99,9",,"00,99,1,00,1,00,1,99999,9,00,1,00,1",,"01,9",,"120,N,+0065,1","240,M,+0318,1","99999,9,08222,1","9,9,999,9,+004,1",,,"SYN100AAXX  09121 76373 32910 00000 10077 20062 38222 40172 5//// 91150 333 10318 20065 30056 58004 70000;","Q01  00002PRCP24"
"76373099999","2012-10-09T15:00:00","4","25.35","-105.75","1967.0","TEPEHUANES DGO., MX","FM-12","99999","V020","999,9,C,0000,1","22000,1,9,N","020000,1,N,1","+0136,1","+0076,1","10175,1",,,,,,"00,1,+99999,9,99,9",,"00,99,1,00,1,00,1,99999,9,00,1,00,1",,"01,9",,,,"99999,9,08225,1","2,1,003,1,-009,1",,,"SYN082AAXX  09151 76373 32970 00000 10136 20076 38225 40175 52003 91450 333 30/// 59009;",
"76373099999","2012-10-09T18:00:00","4","25.35","-105.75","1967.0","TEPEHUANES DGO., MX","FM-12","99999","V020","999,9,C,0000,1","22000,1,9,N","030000,1,N,1","+0264,1","+0012,1","10188,1",,,,,,"00,1,+99999,9,99,9",,"00,99,1,00,1,00,1,99999,9,00,1,00,1",,"01,9",,"120,M,+0270,1","240,N,+0065,1","99999,9,08236,1","2,1,011,1,+017,1",,,"SYN094AAXX  09181 76373 32980 00000 10264 20012 38236 40188 52011 91750 333 10270 20065 30/// 58017;",
"76373099999","2012-10-09T21:00:00","4","25.35","-105.75","1967.0","TEPEHUANES DGO., MX","FM-12","99999","V020","160,1,N,0010,1","22000,1,9,N","030000,1,N,1","+0308,2","+0007,1","10142,1",,,,,,"00,1,+99999,9,99,9",,"00,99,1,00,1,00,1,99999,9,00,1,00,1",,"01,9",,,,"99999,9,08199,1","7,1,037,1,+001,1",,,"SYN082AAXX  09211 76373 32980 01601 10308 20007 38199 40142 57037 92050 333 30/// 58001;",
"76373099999","2012-10-10T00:00:00","4","25.35","-105.75","1967.0","TEPEHUANES DGO., MX","FM-12","99999","V020","280,1,N,0010,1","22000,1,9,N","020000,1,N,1","+0256,1","-0003,1","10142,1","24,0000,9,1",,,,,,,"01,99,1,01,1,01,1,00800,1,00,1,00,1",,"01,9",,"120,M,+0317,1","180,N,+0065,1","99999,9,08198,1","5,1,000,1,+005,1",,,"SYN124AAXX  10001 76373 32570 12801 10256 21003 38198 40142 55000 81100 92350 333 10317 20065 30/// 50561 56300 58005 70000 81830;",
"76373099999","2012-10-10T03:00:00","4","25.35","-105.75","1967.0","TEPEHUANES DGO., MX","FM-12","99999","V020","999,9,C,0000,1","22000,1,9,N","000400,1,N,1","+0180,1","+0022,1","10165,1",,,,,,"00,1,+99999,9,99,9",,"00,99,1,00,1,00,1,99999,9,00,1,00,1",,"01,9",,,,"99999,9,08217,1","2,1,019,1,+003,1",,,"SYN082AAXX  10031 76373 32904 00000 10180 20022 38217 40165 52019 90245 333 30/// 58003;",
"76373099999","2012-10-10T15:00:00","4","25.35","-105.75","1967.0","TEPEHUANES DGO., MX","FM-12","99999","V020","999,9,C,0000,1","22000,1,9,N","020000,1,N,1","+0124,1","+0042,1","10194,1",,,,,,"01,1,+00900,1,08,1",,"01,99,1,01,1,02,1,00800,1,00,1,00,1",,"01,9",,,,"99999,9,08240,1","2,1,013,1,+015,1",,,"SYN100AAXX  10151 76373 32570 10000 10124 20042 38240 40194 52013 81200 91450 333 30/// 56900 58015 81830;",
"76373099999","2012-10-11T00:00:00","4","25.35","-105.75","1967.0","TEPEHUANES DGO., MX","FM-12","99999","V020","280,1,N,0010,1","22000,1,9,N","027000,1,N,1","+0274,1","-0034,1","10129,1","24,0000,9,1",,,,,,,"01,99,1,01,1,02,1,00800,1,00,1,00,1",,"01,9",,"120,M,+0327,1","180,N,+0050,1","99999,9,08188,1","2,1,002,1,-010,1",,,"SYN124AAXX  11001 76373 32577 12801 10274 21034 38188 40129 52002 81200 92350 333 10327 20050 30/// 50721 56900 59010 70000 81830;",
"76373099999","2012-10-11T03:00:00","4","25.35","-105.75","1967.0","TEPEHUANES DGO., MX","FM-12","99999","V020","999,9,C,0000,1","22000,1,9,N","000400,1,N,1","+0161,2","-0005,1","10152,1",,,,,,"00,1,+99999,9,99,9",,"00,99,1,00,1,00,1,99999,9,00,1,00,1",,"01,9",,,,"99999,9,08207,1","2,1,019,1,-010,1",,,"SYN082AAXX  11031 76373 32904 00000 10161 21005 38207 40152 52019 90250 333 30/// 59010;",
"76373099999","2012-10-11T18:00:00","4","25.35","-105.75","1967.0","TEPEHUANES DGO., MX","FM-12","99999","V020","160,1,N,0010,1","22000,1,9,N","030000,1,N,1","+0269,1","+0034,1","10178,1",,,,,,"01,1,+00900,1,08,1",,"01,99,1,01,1,01,1,00800,1,00,1,00,1",,"01,9",,"120,M,+0275,1","240,N,+0060,1","99999,9,08228,1","7,1,009,1,+005,1",,,"SYN112AAXX  11181 76373 32580 11601 10269 20034 38228 40178 57009 81100 91750 333 10275 20060 30/// 56900 58005 81830;",
"76373099999","2012-10-12T00:00:00","4","25.35","-105.75","1967.0","TEPEHUANES DGO., MX","FM-12","99999","V020","070,1,N,0020,1","00600,1,C,N","030000,1,N,1","+0246,1","+0088,1","10150,1","24,0000,9,1",,,,,"05,1,+00600,1,06,1",,"08,99,1,08,1,08,1,00800,1,00,1,00,1",,"01,9",,"120,M,+0320,1","180,N,+0060,1","99999,9,08205,1","2,1,013,1,+017,1",,,"SYN130AAXX  12001 76373 32580 80702 10246 20088 38205 40150 52013 88800 92355 333 10320 20060 30/// 50521 56900 58017 70000 85620 83725;",
"76373099999","2012-10-12T12:00:00","4","25.35","-105.75","1967.0","TEPEHUANES DGO., MX","FM-12","99999","V020","140,1,N,0010,1","22000,1,9,N","001000,1,N,1","+0100,1","+0087,1","10182,1","24,0000,9,1",,,,,"01,1,+00600,1,08,1",,"01,99,1,01,1,01,1,00800,1,00,1,00,1",,"01,9",,"120,N,+0088,1","240,M,+0320,1","99999,9,08230,1","9,9,999,9,+009,1",,,"SYN118AAXX  12121 76373 32510 11401 10100 20087 38230 40182 5//// 81100 91155 333 10320 20088 30072 56900 58009 70000 81820;",
"76373099999","2012-10-12T15:00:00","4","25.35","-105.75","1967.0","TEPEHUANES DGO., MX","FM-12","99999","V020","140,1,N,0010,1","22000,1,9,N","020000,1,N,1","+0154,1","+0100,1","10198,1",,,,,,"00,1,+99999,9,99,9",,"00,99,1,00,1,00,1,99999,9,00,1,00,1",,"01,9",,,,"99999,9,08244,1","2,1,014,1,+017,1",,,"SYN082AAXX  12151 76373 32970 01401 10154 20100 38244 40198 52014 91455 333 30/// 58017;",
"76373099999","2012-10-12T18:00:00","4","25.35","-105.75","1967.0","TEPEHUANES DGO., MX","FM-12","99999","V020","140,1,N,0010,1","22000,1,9,N","030000,1,N,1","+0270,1","+0098,1","10180,1",,,,,,"01,1,+00750,1,08,1",,"01,99,1,01,1,01,1,00800,1,00,1,00,1",,"01,9",,"120,M,+0278,1","240,N,+0088,1","99999,9,08229,1","7,1,015,1,+001,1",,,"SYN112AAXX  12181 76373 32580 11401 10270 20098 38229 40180 57015 81100 91755 333 10278 20088 30/// 56900 58001 81825;",
"76373099999","2012-10-12T21:00:00","4","25.35","-105.75","1967.0","TEPEHUANES DGO., MX","FM-12","99999","V020","140,1,N,0020,1","00750,1,9,N","030000,1,N,1","+0308,1","+0090,1","10150,1",,,,,,"06,1,+00750,1,06,1",,"06,99,1,06,1,06,1,00800,1,00,1,00,1",,"01,9",,,,"99999,9,08205,1","7,1,024,1,+013,1",,,"SYN100AAXX  12211 76373 32580 61402 10308 20090 38205 40150 57024 86600 92055 333 30/// 56900 58013 86625;",
"76373099999","2012-10-13T06:00:00","4","25.35","-105.75","1967.0","TEPEHUANES DGO., MX","FM-12","99999","V020","290,1,N,0010,1","00750,1,9,N","001000,1,N,1","+0152,1","+0143,1","10186,1",,,,,,,,"05,99,1,05,1,05,1,00800,1,00,1,00,1","0498,9","01,9",,"240,M,+0318,1","240,N,+0088,1","99999,9,08234,1","7,1,001,1,+016,1",,,"SYN124AAXX  13061 76373 32510 52901 10152 20143 38234 40186 57001 85500 90540 333 10318 20088 30/// 55083 21288 56900 58016 85620;",
"76373099999","2012-10-13T12:00:00","4","25.35","-105.75","1967.0","TEPEHUANES DGO., MX","FM-12","99999","V020","290,1,N,0010,1","22000,1,9,N","001000,1,N,1","+0110,1","+0107,1","10185,1","24,0170,9,1",,,,,"01,1,+00750,1,08,1",,"01,99,1,01,1,01,1,00800,1,00,1,00,1",,"01,9",,"120,N,+0098,1","240,M,+0318,1","99999,9,08233,1","9,9,999,9,+003,1",,,"SYN118AAXX  13121 76373 32510 12901 10110 20107 38233 40185 5//// 81100 91155 333 10318 20098 30082 56900 58003 70170 81825;",
"76373099999","2012-10-13T15:00:00","4","25.35","-105.75","1967.0","TEPEHUANES DGO., MX","FM-12","99999","V020","999,9,C,0000,1","22000,1,9,N","030000,1,N,1","+0140,1","+0117,1","10196,1",,,,,,"00,1,+99999,9,99,9",,"00,99,1,00,1,00,1,99999,9,00,1,00,1",,"01,9",,,,"99999,9,08242,1","2,1,009,1,-002,1",,,"SYN082AAXX  13151 76373 32980 00000 10140 20117 38242 40196 52009 91455 333 30/// 59002;",
"76373099999","2012-10-13T18:00:00","4","25.35","-105.75","1967.0","TEPEHUANES DGO., MX","FM-12","99999","V020","999,9,C,0000,1","22000,1,9,N","020000,1,N,1","+0248,1","+0130,1","10175,1",,,,,,"00,1,+99999,9,99,9",,"00,99,1,00,1,00,1,99999,9,00,1,00,1",,"01,9",,"120,M,+0255,1","240,N,+0098,1","99999,9,08225,1","7,1,017,1,-004,1",,,"SYN094AAXX  13181 76373 32970 00000 10248 20130 38225 40175 57017 91750 333 10255 20098 30/// 59004;",
"76373099999","2012-10-13T21:00:00","4","25.35","-105.75","1967.0","TEPEHUANES DGO., MX","FM-12","99999","V020","999,9,C,0000,1","03600,1,9,N","020000,1,N,1","+0287,1","+0104,1","10143,1",,,,,,"03,1,+00810,1,08,1",,"05,99,1,03,1,03,1,00800,1,02,1,00,1",,"01,9",,,,"99999,9,08199,1","7,1,026,1,-006,1",,,"SYN100AAXX  13211 76373 32570 50000 10287 20104 38199 40143 57026 83320 92050 333 30/// 56900 59006 83827;",
"76373099999","2012-10-14T00:00:00","4","25.35","-105.75","1967.0","TEPEHUANES DGO., MX","FM-12","99999","V020","999,9,C,0000,1","03600,1,9,N","020000,1,N,1","+0252,1","+0116,1","10140,1","24,0170,9,1",,,,,"03,1,+00810,1,08,1",,"07,99,1,03,1,03,1,00800,1,02,1,00,1",,"01,9",,"120,M,+0305,1","180,N,+0098,1","99999,9,08197,1","7,1,002,1,-021,1",,,"SYN130AAXX  14001 76373 32570 70000 10252 20116 38197 40140 57002 83320 92350 333 10305 20098 30/// 50891 56990 59021 70170 83827 84356;",
"76373099999","2012-10-14T12:00:00","4","25.35","-105.75","1967.0","TEPEHUANES DGO., MX","FM-12","99999","V020","999,9,C,0000,1","22000,1,9,N","005000,1,N,1","+0118,1","+0110,1","10170,1",,,,,,"00,1,+99999,9,99,9",,"00,99,1,00,1,00,1,99999,9,00,1,00,1","0396,9","01,9",,"120,N,+0110,1","240,M,+0305,1","99999,9,08221,1","9,9,999,9,-012,1",,,"SYN112AAXX  14121 76373 32950 00000 10118 20110 38221 40170 5//// 91150 333 10305 20110 30101 55066 21433 59012 70000;",
"76373099999","2012-10-14T15:00:00","4","25.35","-105.75","1967.0","TEPEHUANES DGO., MX","FM-12","99999","V020","999,9,C,0000,1","01800,1,9,N","020000,1,N,1","+0144,1","+0127,1","10191,1",,,,,,"05,1,+01800,1,03,1",,"05,99,1,05,1,00,1,00800,1,03,1,00,1",,"01,9",,,,"99999,9,08238,1","2,1,017,1,-004,1",,,"SYN100AAXX  14151 76373 32570 50000 10144 20127 38238 40191 52017 85030 91450 333 30/// 56090 59004 85356;",
"76373099999","2012-10-14T18:00:00","4","25.35","-105.75","1967.0","TEPEHUANES DGO., MX","FM-12","99999","V020","999,9,C,0000,1","01800,1,9,N","020000,1,N,1","+0211,1","+0126,1","10186,1",,,,,,"08,1,+01800,1,03,1",,"08,99,1,08,1,00,1,00800,1,05,1,00,1",,"01,9",,"120,M,+0220,1","240,N,+0110,1","99999,9,08234,1","7,1,004,1,+009,1",,,"SYN112AAXX  14181 76373 32570 80000 10211 20126 38234 40186 57004 88050 91750 333 10220 20110 30/// 56090 58009 88356;",
"76373099999","2012-10-14T21:00:00","4","25.35","-105.75","1967.0","TEPEHUANES DGO., MX","FM-12","99999","V020","999,9,C,0000,1","00750,1,C,N","020000,1,N,1","+0257,1","+0108,1","10150,1",,,,,,"02,1,+00810,1,08,1",,"06,99,1,06,1,03,1,00800,1,05,1,00,1",,"01,9",,,,"99999,9,08205,1","7,1,029,1,+006,1",,,"SYN106AAXX  14211 76373 32570 60000 10257 20108 38205 40150 57029 86350 92050 333 30/// 56990 58006 82827 84356;",
"76373099999","2012-10-15T00:00:00","4","25.35","-105.75","1967.0","TEPEHUANES DGO., MX","FM-12","99999","V020","999,9,C,0000,1","00750,1,9,N","020000,1,N,1","+0181,1","+0153,1","10158,1","03,0010,9,1","06,0010,9,1","24,0010,9,1",,,"02,1,+00810,1,08,1",,"08,99,1,99,9,03,1,00800,1,05,1,00,1",,"09,9",,"120,M,+0275,1","180,N,+0110,1","99999,9,08211,1","2,1,006,1,+014,1",,,"SYN142AAXX  15001 76373 02570 80000 10181 20153 38211 40158 52006 60011 88350 92350 333 10275 20110 31/// 50291 56990 58014 60017 70010 82827 86356;","Q01+000082SCOTLC"
"76373099999","2012-10-15T03:00:00","4","25.35","-105.75","1967.0","TEPEHUANES DGO., MX","FM-12","99999","V020","999,9,C,0000,1","01800,1,9,N","001000,1,N,1","+0155,1","+0146,1","10191,1","03,0070,9,1",,,,,"08,1,+01800,1,03,1",,"08,99,1,08,1,00,1,00800,1,05,1,00,1",,"09,9",,,,"99999,9,08238,1","2,1,027,1,+028,1",,,"SYN106AAXX  15031 76373 22510 80000 10155 20146 38238 40191 52027 88050 90250 333 31/// 56090 58028 60077 88356;",
"76373099999","2012-10-15T06:00:00","4","25.35","-105.75","1967.0","TEPEHUANES DGO., MX","FM-12","99999","V020","999,9,C,0000,1","00750,1,9,N","001000,1,N,1","+0149,1","+0144,1","10187,1","03,0020,9,1","06,0089,9,1",,,,,,"08,99,1,08,1,00,1,00800,1,05,1,00,1","0060,9","09,9",,"240,M,+0275,1","240,N,+0110,1","99999,9,08234,1","7,1,004,1,+011,1",,,"SYN136AAXX  15061 76373 02510 80000 10149 20144 38234 40187 57004 60091 88050 90550 333 10275 20110 31/// 55010 20846 56090 58011 60027 88356;",
"76373099999","2012-10-15T12:00:00","4","25.35","-105.75","1967.0","TEPEHUANES DGO., MX","FM-12","99999","V020","999,9,C,0000,1","00750,1,9,N","001000,1,N,1","+0139,1","+0129,1","10175,1","24,0142,9,1",,,,,"06,1,+00750,1,08,1",,"06,99,1,06,1,06,1,00800,1,00,1,00,1",,"01,9",,"120,N,+0128,1","240,M,+0275,1","99999,9,08225,1","9,9,999,9,+004,1",,,"SYN118AAXX  15121 76373 32510 60000 10139 20129 38225 40175 5//// 86600 91150 333 10275 20128 30121 56900 58004 70142 86825;",
"76373099999","2012-10-15T15:00:00","4","25.35","-105.75","1967.0","TEPEHUANES DGO., MX","FM-12","99999","V020","999,9,C,0000,1","00600,1,9,N","020000,1,N,1","+0144,1","+0137,1","10186,1",,,,,,"08,1,+00600,1,08,1",,"08,99,1,08,1,08,1,00800,1,00,1,00,1",,"01,9",,,,"99999,9,08234,1","2,1,009,1,-004,1",,,"SYN100AAXX  15151 76373 32570 80000 10144 20137 38234 40186 52009 88800 91455 333 30/// 56900 59004 88820;",
"76373099999","2012-10-15T18:00:00","4","25.35","-105.75","1967.0","TEPEHUANES DGO., MX","FM-12","99999","V020","999,9,C,0000,1","00600,1,9,N","020000,1,N,1","+0163,1","+0128,1","10182,1",,,,,,"08,1,+00600,1,07,1",,"08,99,1,08,1,08,1,00800,1,00,1,00,1",,"01,9",,"120,M,+0172,1","240,N,+0128,1","99999,9,08230,1","7,1,004,1,-004,1",,,"SYN112AAXX  15181 76373 32570 80000 10163 20128 38230 40182 57004 88800 91755 333 10172 20128 30/// 56900 59004 88720;",
"76373099999","2012-10-15T21:00:00","4","25.35","-105.75","1967.0","TEPEHUANES DGO., MX","FM-12","99999","V020","999,9,C,0000,1","00750,1,9,N","030000,1,N,1","+0177,1","+0131,1","10155,1",,,,,,"08,1,+00750,1,08,1",,"08,99,1,08,1,08,1,00800,1,00,1,00,1",,"01,9",,,,"99999,9,08209,1","7,1,021,1,+004,1",,,"SYN100AAXX  15211 76373 32580 80000 10177 20131 38209 40155 57021 88800 92050 333 30/// 56900 58004 88825;",
"76373099999","2012-10-16T00:00:00","4","25.35","-105.75","1967.0","TEPEHUANES DGO., MX","FM-12","99999","V020","999,9,C,0000,1","01200,1,9,N","030000,1,N,1","+0159,1","+0137,1","10152,1","24,0054,9,1",,,,,,,"08,99,1,08,1,08,1,00800,1,00,1,00,1",,"01,9",,"120,M,+0182,1","180,N,+0128,1","99999,9,08207,1","2,1,002,1,-004,1",,,"SYN124AAXX  16001 76373 32580 80000 10159 20137 38207 40152 52002 88800 92350 333 10182 20128 30/// 50501 56900 59004 70054 88720;",
"76373099999","2012-10-16T03:00:00","4","25.35","-105.75","1967.0","TEPEHUANES DGO., MX","FM-12","99999","V020","999,9,C,0000,1","00750,1,9,N","001000,1,N,1","+0145,1","+0140,1","10166,1","03,0020,9,1",,,,,"08,1,+00750,1,08,1",,"08,99,1,08,1,08,1,00800,1,00,1,00,1",,"01,9",,,,"99999,9,08218,1","2,1,009,1,+020,1",,,"SYN106AAXX  16031 76373 22510 80000 10145 20140 38218 40166 52009 88800 90250 333 30/// 56900 58020 60027 88825;",
"76373099999","2012-10-16T06:00:00","4","25.35","-105.75","1967.0","TEPEHUANES DGO., MX","FM-12","99999","V020","999,9,C,0000,1","01200,1,9,N","001000,1,N,1","+0146,1","+0141,1","10163,1",,,,,,,,"08,99,1,08,1,08,1,00800,1,00,1,00,1","0018,9","01,9",,"240,M,+0182,1","240,N,+0128,1","99999,9,08216,1","7,1,002,1,-018,1",,,"SYN124AAXX  16061 76373 32510 80000 10146 20141 38216 40163 57002 88800 90550 333 10182 20128 30/// 55003 20225 56900 59018 88720;",
"76373099999","2012-10-16T12:00:00","4","25.35","-105.75","1967.0","TEPEHUANES DGO., MX","FM-12","99999","V020","999,9,C,0000,1","00750,1,9,N","001000,1,N,1","+0145,1","+0142,1","10142,1","24,0062,9,1",,,,,"06,1,+00750,1,08,1",,"06,99,1,06,1,06,1,00800,1,00,1,00,1",,"01,9",,"120,N,+0134,1","240,M,+0182,1","99999,9,08198,1","9,9,999,9,-027,1",,,"SYN118AAXX  16121 76373 32510 60000 10145 20142 38198 40142 5//// 86600 91150 333 10182 20134 30125 56900 59027 70062 86825;",
"76373099999","2012-10-16T15:00:00","4","25.35","-105.75","1967.0","TEPEHUANES DGO., MX","FM-12","99999","V020","999,9,C,0000,1","00750,1,9,N","020000,1,N,1","+0165,1","+0145,1","10151,1",,,,,,"06,1,+00750,1,08,1",,"06,99,1,06,1,06,1,00800,1,00,1,00,1",,"01,9",,,,"99999,9,08206,1","2,1,008,1,-028,1",,,"SYN100AAXX  16151 76373 32570 60000 10165 20145 38206 40151 52008 86600 91450 333 30/// 56900 59028 86825;",
"76373099999","2012-10-16T18:00:00","4","25.35","-105.75","1967.0","TEPEHUANES DGO., MX","FM-12","99999","V020","999,9,C,0000,1","22000,1,9,N","030000,1,N,1","+0222,1","+0121,1","10135,1",,,,,,"02,1,+00750,1,08,1",,"02,99,1,02,1,02,1,00800,1,00,1,00,1",,"01,9",,"120,M,+0230,1","240,N,+0134,1","99999,9,08193,1","7,1,013,1,-033,1",,,"SYN112AAXX  16181 76373 32580 20000 10222 20121 38193 40135 57013 82200 91750 333 10230 20134 30/// 56900 59033 82825;",
"76373099999","2012-10-16T21:00:00","4","25.35","-105.75","1967.0","TEPEHUANES DGO., MX","FM-12","99999","V020","280,1,N,0010,1","00690,1,9,N","027000,1,N,1","+0296,1","+0148,1","10118,1",,,,,,"07,1,+00690,1,07,1",,"07,99,1,07,1,07,1,00800,1,00,1,00,1",,"01,9",,,,"99999,9,08179,1","7,1,023,1,-030,1",,,"SYN100AAXX  16211 76373 32577 72801 10296 20148 38179 40118 57023 87700 92050 333 30/// 56900 59030 87723;",
"76373099999","2012-10-17T00:00:00","4","25.35","-105.75","1967.0","TEPEHUANES DGO., MX","FM-12","99999","V020","999,9,C,0000,1","99999,9,9,N","027000,1,N,1","+9999,9","+0146,1","10122,1","06,0010,9,1",,,"5,1,06,1","1,1,06,1",,,"08,99,1,99,9,99,9,00800,1,99,9,99,9",,,,,,"99999,9,08182,1","3,1,012,1,+999,9",,"51,1","SYN072AAXX  17001 76373 11577 80000 10182 20146 38182 40122 53012 60011 75151;","Q01+001823ATOT  "
"76373099999","2012-10-17T12:00:00","4","25.35","-105.75","1967.0","TEPEHUANES DGO., MX","FM-12","99999","V020","999,9,C,0000,1","22000,1,9,N","000400,1,N,1","+0138,1","+0130,1","10137,1","24,0007,9,1",,,,,"04,1,+00690,1,06,1",,"04,99,1,04,1,05,1,00800,1,00,1,00,1",,"01,9",,"120,N,+0130,1","240,M,+0263,1","99999,9,08194,1","9,9,999,9,-004,1",,,"SYN118AAXX  17121 76373 32504 40000 10138 20130 38194 40137 5//// 84500 91150 333 10263 20130 30118 56900 59004 70007 84623;",
"76373099999","2012-10-17T15:00:00","4","25.35","-105.75","1967.0","TEPEHUANES DGO., MX","FM-12","99999","V020","999,9,C,0000,1","22000,1,9,N","020000,1,N,1","+0162,1","+0131,1","10146,1",,,,,,"03,1,+00690,1,06,1",,"03,99,1,03,1,04,1,00800,1,00,1,00,1",,"01,9",,,,"99999,9,08202,1","2,1,008,1,-004,1",,,"SYN100AAXX  17151 76373 32570 30000 10162 20131 38202 40146 52008 83400 91450 333 30/// 56900 59004 83623;",
"76373099999","2012-10-17T18:00:00","4","25.35","-105.75","1967.0","TEPEHUANES DGO., MX","FM-12","99999","V020","999,9,C,0000,1","22000,1,9,N","027000,1,N,1","+0227,1","+0128,1","10147,1",,,,,,"04,1,+00660,1,07,1",,"04,99,1,04,1,07,1,00800,1,00,1,00,1",,"01,9",,"120,M,+0232,1","240,N,+0130,1","99999,9,08203,1","8,1,001,1,+010,1",,,"SYN112AAXX  17181 76373 32577 40000 10227 20128 38203 40147 58001 84700 91740 333 10232 20130 30/// 56900 58010 84722;",
"76373099999","2012-10-18T00:00:00","4","25.35","-105.75","1967.0","TEPEHUANES DGO., MX","FM-12","99999","V020","999,9,C,0000,1","00750,1,9,N","020000,1,N,1","+0215,1","+0063,1","10129,1","24,0000,9,1",,,,,,,"08,99,1,08,1,07,1,00800,1,00,1,00,1",,"01,9",,"120,M,+0275,1","180,N,+0130,1","99999,9,08188,1","2,1,006,1,+006,1",,,"SYN124AAXX  18001 76373 32570 80000 10215 20063 38188 40129 52006 88700 92350 333 10275 20130 30/// 50411 56900 58006 70000 88722;",
"76373099999","2012-10-18T03:00:00","4","25.35","-105.75","1967.0","TEPEHUANES DGO., MX","FM-12","99999","V020","999,9,C,0000,1","22000,1,9,N","000400,1,N,1","+0163,1","+0095,1","10151,1",,,,,,"03,1,+00690,1,06,1",,"03,99,1,03,1,06,1,00800,1,00,1,00,1",,"01,9",,,,"99999,9,08205,1","2,1,017,1,+010,1",,,"SYN100AAXX  18031 76373 32504 30000 10163 20095 38205 40151 52017 83600 90250 333 30/// 56900 58010 83623;",
"76373099999","2012-10-18T06:00:00","4","25.35","-105.75","1967.0","TEPEHUANES DGO., MX","FM-12","99999","V020","999,9,C,0000,1","22000,1,9,N","000400,1,N,1","+0121,1","+0071,1","10159,1",,,,,,"00,1,+99999,9,99,9",,"00,99,1,00,1,00,1,99999,9,00,1,00,1","0414,9","01,9",,"240,M,+0275,1","240,N,+9999,9","99999,9,08212,1","2,1,007,1,+999,9",,,"SYN106AAXX  18061 76373 32904 00000 10121 20071 38212 40159 52007 90535 333 10275 20130 30/// 55069 21200 58014;","Q01 +01302ATMN  "
"76373099999","2012-10-18T12:00:00","4","25.35","-105.75","1967.0","TEPEHUANES DGO., MX","FM-12","99999","V020","999,9,C,0000,1","22000,1,9,N","000600,1,N,1","+0066,1","+0052,1","10175,1","24,0000,9,1",,,,,"00,1,+99999,9,99,9",,"00,99,1,00,1,00,1,99999,9,00,1,00,1",,"01,9","999,+0049,9","120,N,+0060,1","240,M,+0275,1","99999,9,08225,1","9,9,999,9,+031,1",,,"SYN100AAXX  18121 76373 32906 00000 10066 20052 38225 40175 5//// 91150 333 10275 20060 30049 58031 70000;","Q01  00002PRCP24"
"76373099999","2012-10-18T15:00:00","4","25.35","-105.75","1967.0","TEPEHUANES DGO., MX","FM-12","99999","V020","999,9,C,0000,1","22000,1,9,N","027000,1,N,1","+0113,1","+0064,1","10182,1",,,,,,"01,1,+05100,1,00,1",,"01,99,1,00,1,00,1,99999,9,00,1,04,1",,"01,9",,,,"99999,9,08230,1","2,1,005,1,+028,1",,,"SYN100AAXX  18151 76373 32977 10000 10113 20064 38230 40182 52005 80004 91450 333 30/// 56003 58028 81067;",
"76373099999","2012-10-18T18:00:00","4","25.35","-105.75","1967.0","TEPEHUANES DGO., MX","FM-12","99999","V020","160,1,N,0010,1","22000,1,9,N","030000,1,N,1","+0223,1","+0051,1","10168,1",,,,,,"00,1,+99999,9,99,9",,"00,99,1,00,1,00,1,99999,9,00,1,00,1",,"01,9",,"120,M,+0228,1","240,N,+0060,1","99999,9,08220,1","7,1,010,1,+017,1",,,"SYN094AAXX  18181 76373 32980 01601 10223 20051 38220 40168 57010 91755 333 10228 20060 30/// 58017;",
"76373099999","2012-10-18T21:00:00","4","25.35","-105.75","1967.0","TEPEHUANES DGO., MX","FM-12","99999","V020","160,1,N,0010,1","22000,1,9,N","030000,1,N,1","+0270,1","+0052,1","10137,1",,,,,,"01,1,+05100,1,00,1",,"01,99,1,00,1,00,1,99999,9,00,1,01,1",,"01,9",,,,"99999,9,08194,1","7,1,006,1,-005,1",,,"SYN100AAXX  18211 76373 32980 11601 10270 20052 38194 40137 57006 80001 92055 333 30/// 56009 59005 81067;",
"76373099999","2012-10-19T00:00:00","4","25.35","-105.75","1967.0","TEPEHUANES DGO., MX","FM-12","99999","V020","160,1,N,0020,1","22000,1,9,N","030000,1,N,1","+0242,1","+0012,1","10125,1","24,0000,9,1",,,,,,,"02,99,1,00,1,00,1,99999,9,00,1,02,1",,"01,9",,"120,M,+0280,1","180,N,+0060,1","99999,9,08185,1","7,1,009,1,-003,1",,,"SYN124AAXX  19001 76373 32980 21602 10242 20012 38185 40125 57009 80002 92355 333 10280 20060 30/// 50561 56009 59003 70000 82067;",
"76373099999","2012-10-19T03:00:00","4","25.35","-105.75","1967.0","TEPEHUANES DGO., MX","FM-12","99999","V020","290,1,N,0010,1","22000,1,9,N","001000,1,N,1","+0152,1","+0062,1","10143,1",,,,,,"01,1,+03000,1,00,1",,"01,99,1,00,1,00,1,99999,9,00,1,01,1",,"01,9",,,,"99999,9,08199,1","2,1,014,1,-006,1",,,"SYN100AAXX  19031 76373 32910 12901 10152 20062 38199 40143 52014 80001 90255 333 30/// 56009 59006 81060;",
"76373099999","2012-10-19T06:00:00","4","25.35","-105.75","1967.0","TEPEHUANES DGO., MX","FM-12","99999","V020","290,1,N,0010,1","22000,1,9,N","000500,1,N,1","+0104,1","+0068,1","10152,1",,,,,,"00,1,+99999,9,99,9",,"00,99,1,00,1,00,1,99999,9,00,1,00,1","0630,9","01,9",,"240,M,+0280,1","240,N,+0060,1","99999,9,08207,1","2,1,008,1,+999,9",,,"SYN106AAXX  19061 76373 32905 02901 10104 20068 38207 40152 52008 90540 333 10280 20060 30/// 55105 21892 59005;",
"76373099999","2012-10-19T12:00:00","4","25.35","-105.75","1967.0","TEPEHUANES DGO., MX","FM-12","99999","V020","999,9,C,0000,1","22000,1,9,N","001000,1,N,1","+0064,1","+0055,1","10155,1","24,0000,9,1",,,,,"00,1,+99999,9,99,9",,"00,99,1,00,1,00,1,99999,9,00,1,00,1",,"01,9","999,+0046,9","120,N,+0058,1","240,M,+0280,1","99999,9,08209,1","9,9,999,9,-016,1",,,"SYN100AAXX  19121 76373 32910 00000 10064 20055 38209 40155 5//// 91155 333 10280 20058 30046 59016 70000;","Q01  00002PRCP24"
"76373099999","2012-10-19T15:00:00","4","25.35","-105.75","1967.0","TEPEHUANES DGO., MX","FM-12","99999","V020","140,1,N,0010,1","22000,1,9,N","030000,1,N,1","+0122,1","+0081,1","10168,1",,,,,,"00,1,+99999,9,99,9",,"00,99,1,00,1,00,1,99999,9,00,1,00,1",,"01,9",,,,"99999,9,08220,1","2,1,011,1,-010,1",,,"SYN082AAXX  19151 76373 32980 01401 10122 20081 38220 40168 52011 91455 333 30/// 59010;",
"76373099999","2012-10-19T18:00:00","4","25.35","-105.75","1967.0","TEPEHUANES DGO., MX","FM-12","99999","V020","110,1,N,0010,1","22000,1,9,N","030000,1,N,1","+0232,1","+0078,1","10155,1",,,,,,"00,1,+99999,9,99,9",,"00,99,1,00,1,00,1,99999,9,00,1,00,1",,"01,9",,"120,M,+0240,1","240,N,+0058,1","99999,9,08209,1","7,1,011,1,-011,1",,,"SYN094AAXX  19181 76373 32980 01101 10232 20078 38209 40155 57011 91750 333 10240 20058 30/// 59011;",
"76373099999","2012-10-19T21:00:00","4","25.35","-105.75","1967.0","TEPEHUANES DGO., MX","FM-12","99999","V020","110,1,N,0010,1","22000,1,9,N","030000,1,N,1","+0280,1","+0063,1","10122,1",,,,,,"00,1,+99999,9,99,9",,"00,99,1,00,1,00,1,99999,9,00,1,00,1",,"01,9",,,,"99999,9,08182,1","7,1,027,1,-012,1",,,"SYN082AAXX  19211 76373 32980 01101 10280 20063 38182 40122 57027 92055 333 30/// 59012;",
"76373099999","2012-10-20T00:00:00","4","25.35","-105.75","1967.0","TEPEHUANES DGO., MX","FM-12","99999","V020","160,1,N,0010,1","22000,1,9,N","030000,1,N,1","+0266,1","+0065,1","10111,1","24,0000,9,1",,,,,"00,1,+99999,9,99,9",,"00,99,1,00,1,00,1,99999,9,00,1,00,1",,"01,9",,"120,M,+0300,1","180,N,+0058,1","99999,9,08173,1","7,1,009,1,-012,1",,,"SYN106AAXX  20001 76373 32980 01601 10266 20065 38173 40111 57009 92350 333 10300 20058 30/// 50401 59012 70000;","Q01  00002PRCP24"
"76373099999","2012-10-20T03:00:00","4","25.35","-105.75","1967.0","TEPEHUANES DGO., MX","FM-12","99999","V020","290,1,N,0010,1","22000,1,9,N","001000,1,N,1","+0172,1","+0093,1","10135,1",,,,,,"00,1,+99999,9,99,9",,"00,99,1,00,1,00,1,99999,9,00,1,00,1",,"01,9",,,,"99999,9,08193,1","2,1,022,1,-006,1",,,"SYN082AAXX  20031 76373 32910 02901 10172 20093 38193 40135 52022 90255 333 30/// 59006;",
"76373099999","2012-10-20T06:00:00","4","25.35","-105.75","1967.0","TEPEHUANES DGO., MX","FM-12","99999","V020","290,1,N,0010,1","22000,1,9,N","001000,1,N,1","+0126,1","+0089,1","10145,1",,,,,,"00,1,+99999,9,99,9",,"00,99,1,00,1,00,1,99999,9,00,1,00,1","0636,9","01,9",,"240,M,+0300,1","240,N,+0058,1","99999,9,08201,1","2,1,008,1,+999,9",,,"SYN106AAXX  20061 76373 32910 02901 10126 20089 38201 40145 52008 90555 333 10300 20058 30/// 55106 21933 59006;",
"76373099999","2012-10-20T12:00:00","4","25.35","-105.75","1967.0","TEPEHUANES DGO., MX","FM-12","99999","V020","140,1,N,0010,1","22000,1,9,N","001000,1,N,1","+0082,1","+0073,1","10142,1","24,0000,9,1",,,,,"00,1,+99999,9,99,9",,"00,99,1,00,1,00,1,99999,9,00,1,00,1",,"01,9",,"120,N,+0070,1","240,M,+0300,1","99999,9,08198,1","9,9,999,9,-011,1",,,"SYN100AAXX  20121 76373 32910 01401 10082 20073 38198 40142 5//// 91150 333 10300 20070 30061 59011 70000;","Q01  00002PRCP24"
"76373099999","2012-10-20T15:00:00","4","25.35","-105.75","1967.0","TEPEHUANES DGO., MX","FM-12","99999","V020","070,1,N,0010,1","22000,1,9,N","030000,1,N,1","+0130,1","+0096,1","10160,1",,,,,,"00,1,+99999,9,99,9",,"00,99,1,00,1,00,1,99999,9,00,1,00,1",,"01,9",,,,"99999,9,08213,1","2,1,015,1,-007,1",,,"SYN082AAXX  20151 76373 32980 00701 10130 20096 38213 40160 52015 91440 333 30/// 59007;",
"76373099999","2012-10-20T18:00:00","4","25.35","-105.75","1967.0","TEPEHUANES DGO., MX","FM-12","99999","V020","999,9,C,0000,1","22000,1,9,N","030000,1,N,1","+0251,1","+0078,1","10157,1",,,,,,"00,1,+99999,9,99,9",,"00,99,1,00,1,00,1,99999,9,00,1,00,1",,"01,9",,"120,M,+0255,1","240,N,+0070,1","99999,9,08210,1","7,1,003,1,+001,1",,,"SYN094AAXX  20181 76373 32980 00000 10251 20078 38210 40157 57003 91750 333 10255 20070 30/// 58001;",
"76373099999","2012-10-21T00:00:00","4","25.35","-105.75","1967.0","TEPEHUANES DGO., MX","FM-12","99999","V020","290,1,N,0020,1","22000,1,9,N","030000,1,N,1","+0271,1","+0003,1","10155,1","24,0000,9,1",,,,,"00,1,+99999,9,99,9",,"00,99,1,00,1,00,1,99999,9,00,1,00,1",,"01,9",,"120,M,+0310,1","180,N,+0070,1","99999,9,08177,1","2,1,003,1,+004,1",,,"SYN106AAXX  21001 76373 32980 02902 10271 20003 38177 40155 52003 92350 333 10310 20070 30/// 50641 58004 70000;","Q01  00002PRCP24"
"76373099999","2012-10-21T03:00:00","4","25.35","-105.75","1967.0","TEPEHUANES DGO., MX","FM-12","99999","V020","999,9,C,0000,1","22000,1,9,N","001000,1,N,1","+0169,1","+0065,1","10134,1",,,,,,"00,1,+99999,9,99,9",,"00,99,1,00,1,00,1,99999,9,00,1,00,1",,"01,9",,,,"99999,9,08192,1","2,1,015,1,-001,1",,,"SYN082AAXX  21031 76373 32910 00000 10169 20065 38192 40134 52015 90250 333 30/// 59001;",
"76373099999","2012-10-21T12:00:00","4","25.35","-105.75","1967.0","TEPEHUANES DGO., MX","FM-12","99999","V020","999,9,C,0000,1","22000,1,9,N","001000,1,N,1","+0061,1","+0047,1","10162,1","24,0000,9,1",,,,,"00,1,+99999,9,99,9",,"00,99,1,00,1,00,1,99999,9,00,1,00,1",,"01,9","999,+0041,9","120,N,+0050,1","240,M,+0310,1","99999,9,08214,1","9,9,999,9,+016,1",,,"SYN100AAXX  21121 76373 32910 00000 10061 20047 38214 40162 5//// 91150 333 10310 20050 30041 58016 70000;","Q01  00002PRCP24"
"76373099999","2012-10-21T18:00:00","4","25.35","-105.75","1967.0","TEPEHUANES DGO., MX","FM-12","99999","V020","999,9,C,0000,1","22000,1,9,N","030000,1,N,1","+0235,1","+0045,1","10163,1",,,,,,"00,1,+99999,9,99,9",,"00,99,1,00,1,00,1,99999,9,00,1,00,1",,"01,9",,"120,M,+0240,1","240,N,+0050,1","99999,9,08216,1","2,1,002,1,+006,1",,,"SYN094AAXX  21181 76373 32980 00000 10235 20045 38216 40163 52002 91750 333 10240 20050 30/// 58006;",
"76373099999","2012-10-21T21:00:00","4","25.35","-105.75","1967.0","TEPEHUANES DGO., MX","FM-12","99999","V020","290,1,N,0010,1","22000,1,9,N","030000,1,N,1","+0299,1","+0028,1","10121,1",,,,,,"00,1,+99999,9,99,9",,"00,99,1,00,1,00,1,99999,9,00,1,00,1",,"01,9",,,,"99999,9,08181,1","7,1,032,1,+007,1",,,"SYN082AAXX  21211 76373 32980 02901 10299 20028 38181 40121 57032 92045 333 30/// 58007;",
"76373099999","2012-10-22T00:00:00","4","25.35","-105.75","1967.0","TEPEHUANES DGO., MX","FM-12","99999","V020","290,1,N,0020,1","22000,1,9,N","030000,1,N,1","+0271,1","+0036,1","10116,1","24,0000,9,1",,,,,,,"02,99,1,02,1,02,1,00800,1,00,1,00,1",,"01,9",,"120,M,+0311,1","180,N,+0050,1","99999,9,08177,1","7,1,004,1,+000,1",,,"SYN124AAXX  22001 76373 32580 22902 10271 20036 38177 40116 57004 82200 92350 333 10311 20050 30/// 50531 56900 58000 70000 82825;",
"76373099999","2012-10-22T06:00:00","4","25.35","-105.75","1967.0","TEPEHUANES DGO., MX","FM-12","99999","V020","999,9,C,0000,1","22000,1,9,N","001000,1,N,1","+0126,1","+0065,1","10157,1",,,,,,,,"01,99,1,01,1,01,1,00800,1,00,1,00,1","0636,9","01,9",,"240,M,+0311,1","240,N,+0050,1","99999,9,08210,1","9,9,999,9,+008,1",,,"SYN124AAXX  22061 76373 32510 10000 10126 20065 38210 40157 5//// 81100 90550 333 10311 20050 30/// 55106 21973 56900 58008 81825;",
"76373099999","2012-10-22T12:00:00","4","25.35","-105.75","1967.0","TEPEHUANES DGO., MX","FM-12","99999","V020","999,9,C,0000,1","22000,1,9,N","001000,1,N,1","+0069,1","+0060,1","10160,1","24,0000,9,1",,,,,"00,1,+99999,9,99,9",,"00,99,1,00,1,00,1,99999,9,00,1,00,1",,"01,9","999,+0050,9","120,N,+0058,1","240,M,+0311,1","99999,9,08213,1","9,9,999,9,-001,1",,,"SYN100AAXX  22121 76373 32910 00000 10069 20060 38213 40160 5//// 91150 333 10311 20058 30050 59001 70000;","Q01  00002PRCP24"
"76373099999","2012-10-22T15:00:00","4","25.35","-105.75","1967.0","TEPEHUANES DGO., MX","FM-12","99999","V020","999,9,C,0000,1","22000,1,9,N","020000,1,N,1","+0116,1","+0068,1","10170,1",,,,,,"00,1,+99999,9,99,9",,"00,99,1,00,1,00,1,99999,9,00,1,00,1",,"01,9",,,,"99999,9,08221,1","2,1,004,1,+003,1",,,"SYN082AAXX  22151 76373 32970 00000 10116 20068 38221 40170 52004 91450 333 30/// 58003;",
"76373099999","2012-10-22T18:00:00","4","25.35","-105.75","1967.0","TEPEHUANES DGO., MX","FM-12","99999","V020","999,9,C,0000,1","22000,1,9,N","030000,1,N,1","+0271,2","+0065,1","10161,1",,,,,,"00,1,+99999,9,99,9",,"00,99,1,00,1,00,1,99999,9,00,1,00,1",,"01,9",,"120,M,+0275,1","240,N,+0058,1","99999,9,08214,1","7,1,007,1,+001,1",,,"SYN094AAXX  22181 76373 32980 00000 10271 20065 38214 40161 57007 91750 333 10275 20058 30/// 58001;",
"76373099999","2012-10-23T00:00:00","4","25.35","-105.75","1967.0","TEPEHUANES DGO., MX","FM-12","99999","V020","290,1,N,0010,1","22000,1,9,N","030000,1,N,1","+0262,1","+0017,1","10129,1","24,0000,9,1",,,,,,,"01,99,1,01,1,01,1,00800,1,00,1,00,1",,"01,9",,"120,M,+0305,1","180,N,+0058,1","99999,9,08188,1","2,1,004,1,+011,1",,,"SYN124AAXX  23001 76373 32580 12901 10262 20017 38188 40129 52004 81100 92350 333 10305 20058 30/// 50591 56900 58011 70000 81825;",
"76373099999","2012-10-23T03:00:00","4","25.35","-105.75","1967.0","TEPEHUANES DGO., MX","FM-12","99999","V020","999,9,C,0000,1","22000,1,9,N","001000,1,N,1","+0172,1","+0058,1","10147,1",,,,,,"00,1,+99999,9,99,9",,"00,99,1,00,1,00,1,99999,9,00,1,00,1",,"01,9",,,,"99999,9,08202,1","2,1,020,1,+009,1",,,"SYN082AAXX  23031 76373 32910 00000 10172 20058 38202 40147 52020 90250 333 30/// 58009;",
"76373099999","2012-10-23T06:00:00","4","25.35","-105.75","1967.0","TEPEHUANES DGO., MX","FM-12","99999","V020","999,9,C,0000,1","22000,1,9,N","001000,1,N,1","+0124,1","+0054,1","10154,1",,,,,,"00,1,+99999,9,99,9",,"00,99,1,00,1,00,1,99999,9,00,1,00,1","0624,9","01,9",,"240,M,+0305,1","240,N,+0058,1","99999,9,08208,1","0,1,000,1,+999,9",,,"SYN106AAXX  23061 76373 32910 00000 10124 20054 38208 40154 50000 90550 333 10305 20058 30/// 55104 2//// 59002;",
"76373099999","2012-10-23T12:00:00","4","25.35","-105.75","1967.0","TEPEHUANES DGO., MX","FM-12","99999","V020","999,9,C,0000,1","22000,1,9,N","001000,1,N,1","+0070,1","+0054,1","10158,1","24,0000,9,1",,,,,"00,1,+99999,9,99,9",,"00,99,1,00,1,00,1,99999,9,00,1,00,1",,"01,9",,"120,N,+0061,1","240,M,+0305,1","99999,9,08211,1","9,9,999,9,-003,1",,,"SYN100AAXX  23121 76373 32910 00000 10070 20054 38211 40158 5//// 91150 333 10305 20061 30052 59003 70000;","Q01  00002PRCP24"
"76373099999","2012-10-23T15:00:00","4","25.35","-105.75","1967.0","TEPEHUANES DGO., MX","FM-12","99999","V020","999,9,C,0000,1","22000,1,9,N","020000,1,N,1","+0125,1","+0059,1","10168,1",,,,,,"00,1,+99999,9,99,9",,"00,99,1,00,1,00,1,99999,9,00,1,00,1",,"01,9",,,,"99999,9,08220,1","7,1,009,1,-001,1",,,"SYN082AAXX  23151 76373 32970 00000 10125 20059 38220 40168 57009 91450 333 30/// 59001;",
"76373099999","2012-10-23T18:00:00","4","25.35","-105.75","1967.0","TEPEHUANES DGO., MX","FM-12","99999","V020","999,9,C,0000,1","22000,1,9,N","030000,1,N,1","+0250,1","+0058,1","10150,1",,,,,,"00,1,+99999,9,99,9",,"00,99,1,00,1,00,1,99999,9,00,1,00,1",,"01,9",,"120,M,+0253,1","240,N,+0061,1","99999,9,08205,1","2,1,015,1,-009,1",,,"SYN094AAXX  23181 76373 32980 00000 10250 20058 38205 40150 52015 91750 333 10253 20061 30/// 59009;",
"76373099999","2012-10-23T21:00:00","4","25.35","-105.75","1967.0","TEPEHUANES DGO., MX","FM-12","99999","V020","100,1,N,0010,1","22000,1,9,N","027000,1,N,1","+0302,2","+0064,1","10108,1",,,,,,"01,1,+00900,1,08,1",,"01,99,1,01,1,02,1,00800,1,00,1,00,1",,"01,9",,,,"99999,9,08171,1","7,1,034,1,-013,1",,,"SYN100AAXX  23211 76373 32577 11001 10302 20064 38171 40108 57034 81200 92050 333 30/// 56900 59013 81830;",
"76373099999","2012-10-24T00:00:00","4","25.35","-105.75","1967.0","TEPEHUANES DGO., MX","FM-12","99999","V020","999,9,C,0000,1","22000,1,9,N","027000,1,N,1","+0279,1","+0057,1","10105,1","24,0000,9,1",,,,,,,"01,99,1,01,1,02,1,00800,1,00,1,00,1",,"01,9",,"120,M,+0316,1","180,N,+0061,1","99999,9,08169,1","7,1,002,1,-019,1",,,"SYN124AAXX  24001 76373 32577 10000 10279 20057 38169 40105 57002 81200 92350 333 10316 20061 30/// 50421 56900 59019 70000 81830;",
"76373099999","2012-10-24T03:00:00","4","25.35","-105.75","1967.0","TEPEHUANES DGO., MX","FM-12","99999","V020","999,9,C,0000,1","22000,1,9,N","000400,1,N,1","+0210,1","+0073,1","10130,1",,,,,,"02,1,+00750,1,06,1",,"02,99,1,02,1,05,1,00800,1,00,1,00,1",,"01,9",,,,"99999,9,08189,1","2,1,020,1,-019,1",,,"SYN100AAXX  24031 76373 32504 20000 10210 20073 38189 40130 52020 82500 90250 333 30/// 56900 59019 82625;",
"76373099999","2012-10-24T06:00:00","4","25.35","-105.75","1967.0","TEPEHUANES DGO., MX","FM-12","99999","V020","999,9,C,0000,1","22000,1,9,N","000400,1,N,1","+0147,1","+0065,1","10140,1",,,,,,"00,1,+99999,9,99,9",,"00,99,1,00,1,00,1,99999,9,00,1,00,1","0624,9","01,9",,"240,M,+0316,1","240,N,+0061,1","99999,9,08197,1","2,1,008,1,+999,9",,,"SYN106AAXX  24061 76373 32904 00000 10147 20065 38197 40140 52008 90545 333 10316 20061 30/// 55104 2//// 59011;",
"76373099999","2012-10-24T12:00:00","4","25.35","-105.75","1967.0","TEPEHUANES DGO., MX","FM-12","99999","V020","999,9,C,0000,1","22000,1,9,N","000600,1,N,1","+0089,1","+0061,1","10147,1","24,0000,9,1",,,,,"00,1,+99999,9,99,9",,"00,99,1,00,1,00,1,99999,9,00,1,00,1",,"01,9",,"120,N,+0080,1","240,M,+0316,1","99999,9,08203,1","9,9,999,9,-008,1",,,"SYN100AAXX  24121 76373 32906 00000 10089 20061 38203 40147 5//// 91150 333 10316 20080 30071 59008 70000;","Q01  00002PRCP24"
"76373099999","2012-10-24T15:00:00","4","25.35","-105.75","1967.0","TEPEHUANES DGO., MX","FM-12","99999","V020","999,9,C,0000,1","22000,1,9,N","027000,1,N,1","+0142,1","+0071,1","10159,1",,,,,,"00,1,+99999,9,99,9",,"00,99,1,00,1,00,1,99999,9,00,1,00,1",,"01,9",,,,"99999,9,08212,1","2,1,009,1,-008,1",,,"SYN082AAXX  24151 76373 32977 00000 10142 20071 38212 40159 52009 91450 333 30/// 59008;",
"76373099999","2012-10-24T18:00:00","4","25.35","-105.75","1967.0","TEPEHUANES DGO., MX","FM-12","99999","V020","999,9,C,0000,1","22000,1,9,N","027000,1,N,1","+0275,1","+0055,1","10144,1",,,,,,"00,1,+99999,9,99,9",,"00,99,1,00,1,00,1,99999,9,00,1,00,1",,"01,9",,"120,M,+0285,1","240,N,+0080,1","99999,9,08200,1","7,1,012,1,-005,1",,,"SYN094AAXX  24181 76373 32977 00000 10275 20055 38200 40144 57012 91750 333 10285 20080 30/// 59005;",
"76373099999","2012-10-24T21:00:00","4","25.35","-105.75","1967.0","TEPEHUANES DGO., MX","FM-12","99999","V020","310,1,N,0020,1","22000,1,9,N","027000,1,N,1","+0301,1","+0000,1","10104,1",,,,,,"00,1,+99999,9,99,9",,"00,99,1,00,1,00,1,99999,9,00,1,00,1",,"01,9",,,,"99999,9,08168,1","7,1,032,1,-003,1",,,"SYN082AAXX  24211 76373 32977 03102 10301 20000 38168 40104 57032 92045 333 30/// 59003;",
"76373099999","2012-10-25T00:00:00","4","25.35","-105.75","1967.0","TEPEHUANES DGO., MX","FM-12","99999","V020","310,1,N,0010,1","22000,1,9,N","027000,1,N,1","+0263,1","+0028,1","10108,1","24,0000,9,1",,,,,"00,1,+99999,9,99,9",,"00,99,1,00,1,00,1,99999,9,00,1,00,1",,"01,9",,"120,M,+0310,1","180,N,+0080,1","99999,9,08171,1","3,1,030,1,+002,1",,,"SYN106AAXX  25001 76373 32977 03101 10263 20028 38171 40108 53030 92350 333 10310 20080 30/// 50721 58002 70000;","Q01  00002PRCP24"
"76373099999","2012-10-25T03:00:00","4","25.35","-105.75","1967.0","TEPEHUANES DGO., MX","FM-12","99999","V020","999,9,C,0000,1","22000,1,9,N","000400,1,N,1","+0179,1","+0041,1","10127,1",,,,,,"00,1,+99999,9,99,9",,"00,99,1,00,1,00,1,99999,9,00,1,00,1",,"01,9",,,,"99999,9,08187,1","2,1,016,1,-002,1",,,"SYN082AAXX  25031 76373 32904 00000 10179 20041 38187 40127 52016 90250 333 30/// 59002;",
"76373099999","2012-10-25T12:00:00","4","25.35","-105.75","1967.0","TEPEHUANES DGO., MX","FM-12","99999","V020","999,9,C,0000,1","22000,1,9,N","000600,1,N,1","+0070,1","+0047,1","10142,1","24,0000,9,1",,,,,"00,1,+99999,9,99,9",,"00,99,1,00,1,00,1,99999,9,00,1,00,1",,"01,9",,"120,N,+0060,1","240,M,+0310,1","99999,9,08198,1","9,9,999,9,-005,1",,,"SYN100AAXX  25121 76373 32906 00000 10070 20047 38198 40142 5//// 91150 333 10310 20060 30051 59005 70000;","Q01  00002PRCP24"
"76373099999","2012-10-25T15:00:00","4","25.35","-105.75","1967.0","TEPEHUANES DGO., MX","FM-12","99999","V020","999,9,C,0000,1","22000,1,9,N","027000,1,N,1","+0120,1","+0047,1","10154,1",,,,,,"00,1,+99999,9,99,9",,"00,99,1,00,1,00,1,99999,9,00,1,00,1",,"01,9",,,,"99999,9,08208,1","2,1,010,1,-004,1",,,"SYN082AAXX  25151 76373 32977 00000 10120 20047 38208 40154 52010 91450 333 30/// 59004;",
"76373099999","2012-10-25T18:00:00","4","25.35","-105.75","1967.0","TEPEHUANES DGO., MX","FM-12","99999","V020","999,9,C,0000,1","22000,1,9,N","030000,1,N,1","+0256,1","+0043,1","10132,1",,,,,,"00,1,+99999,9,99,9",,"00,99,1,00,1,00,1,99999,9,00,1,00,1",,"01,9",,"120,M,+0260,1","240,N,+0060,1","99999,9,08190,1","7,1,018,1,-010,1",,,"SYN094AAXX  25181 76373 32980 00000 10256 20043 38190 40132 57018 91750 333 10260 20060 30/// 59010;",
"76373099999","2012-10-25T21:00:00","4","25.35","-105.75","1967.0","TEPEHUANES DGO., MX","FM-12","99999","V020","290,1,N,0010,1","22000,1,9,N","030000,1,N,1","+0312,2","+0027,1","10095,1",,,,,,"00,1,+99999,9,99,9",,"00,99,1,00,1,00,1,99999,9,00,1,00,1",,"01,9",,,,"99999,9,08160,1","7,1,030,1,-008,1",,,"SYN082AAXX  25211 76373 32980 02901 10312 20027 38160 40095 57030 92050 333 30/// 59008;",
"76373099999","2012-10-26T00:00:00","4","25.35","-105.75","1967.0","TEPEHUANES DGO., MX","FM-12","99999","V020","290,1,N,0010,1","22000,1,9,N","030000,1,N,1","+0278,1","+0054,1","10092,1","24,0000,9,1",,,,,,,"01,99,1,01,1,01,1,00800,1,00,1,00,1",,"01,9",,"120,M,+0320,1","180,N,+0060,1","99999,9,08158,1","7,1,002,1,-013,1",,,"SYN124AAXX  26001 76373 32580 12901 10278 20054 38158 40092 57002 81100 92350 333 10320 20060 30/// 50571 56900 59013 70000 81825;",
"76373099999","2012-10-26T03:00:00","4","25.35","-105.75","1967.0","TEPEHUANES DGO., MX","FM-12","99999","V020","250,1,N,0010,1","22000,1,9,N","001000,1,N,1","+0186,1","+0067,1","10129,1",,,,,,"01,1,+00750,1,08,1",,"01,99,1,01,1,01,1,00800,1,00,1,00,1",,"01,9",,,,"99999,9,08188,1","2,1,030,1,+001,1",,,"SYN100AAXX  26031 76373 32510 12501 10186 20067 38188 40129 52030 81100 90255 333 30/// 56900 58001 81825;",
"76373099999","2012-10-26T06:00:00","4","25.35","-105.75","1967.0","TEPEHUANES DGO., MX","FM-12","99999","V020","290,1,N,0010,1","22000,1,9,N","001000,1,N,1","+0138,1","+0057,1","10135,1",,,,,,"00,1,+99999,9,99,9",,"00,99,1,00,1,00,1,99999,9,00,1,00,1","0624,9","01,9",,"240,M,+0320,1","240,N,+0060,1","99999,9,08193,1","2,1,005,1,+003,1",,,"SYN100AAXX  26061 76373 32910 02901 10138 20057 38193 40135 52005 90540 333 10320 20060 30/// 55104 58003;",
"76373099999","2012-10-26T12:00:00","4","25.35","-105.75","1967.0","TEPEHUANES DGO., MX","FM-12","99999","V020","999,9,C,0000,1","22000,1,9,N","001000,1,N,1","+0068,1","+0038,1","10137,1","24,0000,9,1",,,,,"00,1,+99999,9,99,9",,"00,99,1,00,1,00,1,99999,9,00,1,00,1",,"01,9","999,+0042,9","120,N,+0056,1","240,M,+0320,1","99999,9,08194,1","9,9,999,9,-004,1",,,"SYN100AAXX  26121 76373 32910 00000 10068 20038 38194 40137 5//// 91150 333 10320 20056 30042 59004 70000;","Q01  00002PRCP24"
"76373099999","2012-10-26T18:00:00","4","25.35","-105.75","1967.0","TEPEHUANES DGO., MX","FM-12","99999","V020","160,1,N,0010,1","22000,1,9,N","030000,1,N,1","+0254,1","+0029,1","10139,1",,,,,,"00,1,+99999,9,99,9",,"00,99,1,00,1,00,1,99999,9,00,1,00,1",,"01,9",,"120,M,+0260,1","240,N,+0056,1","99999,9,08196,1","7,1,013,1,+006,1",,,"SYN094AAXX  26181 76373 32980 01601 10254 20029 38196 40139 57013 91755 333 10260 20056 30/// 58006;",
"76373099999","2012-10-26T21:00:00","4","25.35","-105.75","1967.0","TEPEHUANES DGO., MX","FM-12","99999","V020","140,1,N,0020,1","22000,1,9,N","030000,1,N,1","+0300,1","+0051,1","10102,1",,,,,,"02,1,+00750,1,08,1",,"02,99,1,02,1,02,1,00800,1,00,1,00,1",,"01,9",,,,"99999,9,08166,1","7,1,030,1,+006,1",,,"SYN100AAXX  26211 76373 32580 21402 10300 20051 38166 40102 57030 82200 92050 333 30/// 56900 58006 82825;",
"76373099999","2012-10-27T00:00:00","4","25.35","-105.75","1967.0","TEPEHUANES DGO., MX","FM-12","99999","V020","290,1,N,0020,1","00750,1,9,N","030000,1,N,1","+0252,1","+0049,1","10096,1","24,0000,9,1",,,,,"03,1,+00600,1,07,1",,"06,99,1,06,1,06,1,00800,1,00,1,00,1",,"01,9",,"120,M,+0316,1","180,N,+0056,1","99999,9,08161,1","7,1,005,1,+003,1",,,"SYN130AAXX  27001 76373 32580 62902 10252 20049 38161 40096 57005 86600 92350 333 10316 20056 30/// 50411 56900 58003 70000 83720 83625;",
"76373099999","2012-10-27T03:00:00","4","25.35","-105.75","1967.0","TEPEHUANES DGO., MX","FM-12","99999","V020","320,1,N,0010,1","22000,1,9,N","001000,1,N,1","+0182,1","+0101,1","10123,1",,,,,,"01,1,+00600,1,07,1",,"03,99,1,03,1,03,1,00800,1,00,1,00,1",,"01,9",,,,"99999,9,08183,1","2,1,022,1,-005,1",,,"SYN106AAXX  27031 76373 32510 33201 10182 20101 38183 40123 52022 83300 90250 333 30/// 56900 59005 81720 82625;",
"76373099999","2012-10-27T06:00:00","4","25.35","-105.75","1967.0","TEPEHUANES DGO., MX","FM-12","99999","V020","290,1,N,0010,1","00750,1,9,N","001000,1,N,1","+0170,1","+0100,1","10135,1",,,,,,"03,1,+00600,1,07,1",,"06,99,1,06,1,06,1,00800,1,00,1,00,1","0588,9","01,9",,"240,M,+0316,1","240,N,+0056,1","99999,9,08193,1","2,1,010,1,+000,1",,,"SYN124AAXX  27061 76373 32510 62901 10170 20100 38193 40135 52010 86600 90555 333 10316 20056 30/// 55098 56900 58000 83720 83625;",
"76373099999","2012-10-27T15:00:00","4","25.35","-105.75","1967.0","TEPEHUANES DGO., MX","FM-12","99999","V020","200,1,N,0010,1","01200,1,C,N","030000,1,N,1","+0148,1","+0110,1","10165,1",,,,,,"04,1,+00600,1,07,1",,"08,99,1,08,1,08,1,00800,1,00,1,00,1",,"01,9",,,,"99999,9,08217,1","2,1,019,1,+008,1",,,"SYN106AAXX  27151 76373 32580 82001 10148 20110 38217 40165 52019 88800 91440 333 30/// 56900 58008 84720 84625;",
"76373099999","2012-10-27T21:00:00","4","25.35","-105.75","1967.0","TEPEHUANES DGO., MX","FM-12","99999","V020","110,1,N,0010,1","22000,1,9,N","020000,1,N,1","+0260,1","+0101,1","10112,1",,,,,,"03,1,+00810,1,08,1",,"03,99,1,03,1,03,1,00800,1,00,1,00,1",,"01,9",,,,"99999,9,08174,1","7,1,024,1,+008,1",,,"SYN100AAXX  27211 76373 32570 31101 10260 20101 38174 40112 57024 83300 92050 333 30/// 56900 58008 83827;",
"76373099999","2012-10-28T00:00:00","4","25.35","-105.75","1967.0","TEPEHUANES DGO., MX","FM-12","99999","V020","250,1,N,0010,1","22000,1,9,N","020000,1,N,1","+0236,1","+0042,1","10114,1","24,0000,9,1",,,,,,,"02,99,1,02,1,03,1,00800,1,00,1,00,1",,"01,9",,"120,M,+0273,1","180,N,+0112,1","99999,9,08176,1","2,1,006,1,+015,1",,,"SYN124AAXX  28001 76373 32570 22501 10236 20042 38176 40114 52006 82300 92350 333 10273 20112 30/// 50581 56900 58015 70000 82827;",
"76373099999","2012-10-28T03:00:00","4","25.35","-105.75","1967.0","TEPEHUANES DGO., MX","FM-12","99999","V020","999,9,C,0000,1","22000,1,9,N","005000,1,N,1","+0165,1","+0049,1","10143,1",,,,,,"02,1,+00810,1,06,1",,"02,99,1,02,1,06,1,00800,1,00,1,00,1",,"01,9",,,,"99999,9,08199,1","2,1,023,1,+016,1",,,"SYN100AAXX  28031 76373 32550 20000 10165 20049 38199 40143 52023 82600 90250 333 30/// 56900 58016 82627;",
"76373099999","2012-10-28T15:00:00","4","25.35","-105.75","1967.0","TEPEHUANES DGO., MX","FM-12","99999","V020","999,9,C,0000,1","22000,1,9,N","020000,1,N,1","+0119,1","+0062,1","10179,1",,,,,,"01,1,+00810,1,08,1",,"01,99,1,01,1,03,1,00800,1,00,1,00,1",,"01,9",,,,"99999,9,08228,1","2,1,016,1,+011,1",,,"SYN100AAXX  28151 76373 32570 10000 10119 20062 38228 40179 52016 81300 91450 333 30/// 56900 58011 81827;",
"76373099999","2012-10-28T18:00:00","4","25.35","-105.75","1967.0","TEPEHUANES DGO., MX","FM-12","99999","V020","999,9,C,0000,1","22000,1,9,N","020000,1,N,1","+0238,1","+0061,1","10163,1",,,,,,"01,1,+00810,1,08,1",,"01,99,1,01,1,03,1,00800,1,00,1,00,1",,"01,9",,"120,M,+0245,1","240,N,+0064,1","99999,9,08216,1","7,1,012,1,+018,1",,,"SYN112AAXX  28181 76373 32570 10000 10238 20061 38216 40163 57012 81300 91750 333 10245 20064 30/// 56900 58018 81827;",
"76373099999","2012-10-28T21:00:00","4","25.35","-105.75","1967.0","TEPEHUANES DGO., MX","FM-12","99999","V020","200,1,N,0010,1","22000,1,9,N","020000,1,N,1","+0280,1","+0003,1","10131,1",,,,,,"04,1,+00810,1,08,1",,"04,99,1,04,1,03,1,00800,1,00,1,00,1",,"01,9",,,,"99999,9,08190,1","7,1,026,1,+016,1",,,"SYN100AAXX  28211 76373 32570 42001 10280 20003 38190 40131 57026 84300 92050 333 30/// 56900 58016 84827;",
"76373099999","2012-10-29T03:00:00","4","25.35","-105.75","1967.0","TEPEHUANES DGO., MX","FM-12","99999","V020","999,9,C,0000,1","22000,1,9,N","005000,1,N,1","+0153,1","+0045,1","10165,1",,,,,,"02,1,+00810,1,06,1",,"02,99,1,02,1,06,1,00800,1,00,1,00,1",,"01,9",,,,"99999,9,08217,1","2,1,010,1,+018,1",,,"SYN100AAXX  29031 76373 32550 20000 10153 20045 38217 40165 52010 82600 90250 333 30/// 56900 58018 82627;",
"76373099999","2012-10-29T06:00:00","4","25.35","-105.75","1967.0","TEPEHUANES DGO., MX","FM-12","99999","V020","999,9,C,0000,1","22000,1,9,N","005000,1,N,1","+0108,1","+0047,1","10184,1",,,,,,"00,1,+99999,9,99,9",,"00,99,1,00,1,00,1,99999,9,00,1,00,1","0060,9","01,9",,"240,M,+0285,1","240,N,+0064,1","99999,9,08232,1","2,1,015,1,+999,9",,,"SYN106AAXX  29061 76373 32950 00000 10108 20047 38232 40184 52015 90550 333 10285 20064 30/// 55010 2//// 58022;",
"76373099999","2012-10-29T15:00:00","4","25.35","-105.75","1967.0","TEPEHUANES DGO., MX","FM-12","99999","V020","999,9,C,0000,1","22000,1,9,N","020000,1,N,1","+0102,1","+0050,1","10213,1",,,,,,"00,1,+99999,9,99,9",,"00,99,1,00,1,00,1,99999,9,00,1,00,1",,"01,9",,,,"99999,9,08256,1","2,1,012,1,+028,1",,,"SYN082AAXX  29151 76373 32970 00000 10102 20050 38256 40213 52012 91450 333 30/// 58028;",
"76373099999","2012-10-29T18:00:00","4","25.35","-105.75","1967.0","TEPEHUANES DGO., MX","FM-12","99999","V020","999,9,C,0000,1","22000,1,9,N","030000,1,N,1","+0230,1","+0059,1","10200,1",,,,,,"00,1,+99999,9,99,9",,"00,99,1,00,1,00,1,99999,9,00,1,00,1",,"01,9",,"120,M,+0235,1","240,N,+0032,1","99999,9,08245,1","7,1,011,1,+029,1",,,"SYN094AAXX  29181 76373 32980 00000 10230 20059 38245 40200 57011 91750 333 10235 20032 30/// 58029;",
"76373099999","2012-10-29T21:00:00","4","25.35","-105.75","1967.0","TEPEHUANES DGO., MX","FM-12","99999","V020","160,1,N,0010,1","22000,1,9,N","030000,1,N,1","+0267,1","-0022,1","10163,1",,,,,,"01,1,+00750,1,08,1",,"01,99,1,01,1,01,1,00800,1,00,1,00,1",,"01,9",,,,"99999,9,08216,1","7,1,029,1,+026,1",,,"SYN100AAXX  29211 76373 32580 11601 10267 21022 38216 40163 57029 81100 92050 333 30/// 56900 58026 81825;",
"76373099999","2012-10-30T00:00:00","4","25.35","-105.75","1967.0","TEPEHUANES DGO., MX","FM-12","99999","V020","999,9,C,0000,1","22000,1,9,N","030000,1,N,1","+0235,1","+0002,1","10147,1","24,0000,9,1",,,,,,,"01,99,1,01,1,01,1,00800,1,00,1,00,1",,"01,9",,"120,M,+0282,1","180,N,+0032,1","99999,9,08202,1","7,1,014,1,+003,1",,,"SYN124AAXX  30001 76373 32580 10000 10235 20002 38202 40147 57014 81100 92350 333 10282 20032 30/// 50421 56900 58003 70000 81825;",
"76373099999","2012-10-30T03:00:00","4","25.35","-105.75","1967.0","TEPEHUANES DGO., MX","FM-12","99999","V020","999,9,C,0000,1","22000,1,9,N","001000,1,N,1","+0158,1","+0017,1","10178,1",,,,,,"00,1,+99999,9,99,9",,"00,99,1,00,1,00,1,99999,9,00,1,00,1",,"01,9",,,,"99999,9,08228,1","2,1,026,1,+011,1",,,"SYN082AAXX  30031 76373 32910 00000 10158 20017 38228 40178 52026 90250 333 30/// 58011;",
"76373099999","2012-10-30T06:00:00","4","25.35","-105.75","1967.0","TEPEHUANES DGO., MX","FM-12","99999","V020","999,9,C,0000,1","22000,1,9,N","001000,1,N,1","+0124,1","+0044,1","10191,1",,,,,,"00,1,+99999,9,99,9",,"00,99,1,00,1,00,1,99999,9,00,1,00,1","0060,9","01,9",,"240,M,+0282,1","240,N,+0032,1","99999,9,08238,1","2,1,010,1,+999,9",,,"SYN106AAXX  30061 76373 32910 00000 10124 20044 38238 40191 52010 90550 333 10282 20032 30/// 55010 2//// 58006;",
"76373099999","2012-10-30T12:00:00","4","25.35","-105.75","1967.0","TEPEHUANES DGO., MX","FM-12","99999","V020","999,9,C,0000,1","22000,1,9,N","001000,1,N,1","+0052,1","+0032,1","10194,1","24,0000,9,1",,,,,"00,1,+99999,9,99,9",,"00,99,1,00,1,00,1,99999,9,00,1,00,1",,"01,9","999,+0032,9","120,N,+0041,1","240,M,+0282,1","99999,9,08240,1","9,9,999,9,-004,1",,,"SYN100AAXX  30121 76373 32910 00000 10052 20032 38240 40194 5//// 91150 333 10282 20041 30032 59004 70000;","Q01  00002PRCP24"
"76373099999","2012-10-30T15:00:00","4","25.35","-105.75","1967.0","TEPEHUANES DGO., MX","FM-12","99999","V020","999,9,C,0000,1","22000,1,9,N","020000,1,N,1","+0097,1","+0046,1","10200,1",,,,,,"00,1,+99999,9,99,9",,"00,99,1,00,1,00,1,99999,9,00,1,00,1",,"01,9",,,,"99999,9,08245,1","2,1,005,1,+005,1",,,"SYN082AAXX  30151 76373 32970 00000 10097 20046 38245 40200 52005 91450 333 30/// 58005;",
"76373099999","2012-10-30T18:00:00","4","25.35","-105.75","1967.0","TEPEHUANES DGO., MX","FM-12","99999","V020","999,9,C,0000,1","22000,1,9,N","030000,1,N,1","+0226,1","+0051,1","10183,1",,,,,,"01,1,+00600,1,07,1",,"01,99,1,01,1,01,1,00800,1,00,1,00,1",,"01,9",,"120,M,+0230,1","240,N,+0041,1","99999,9,08232,1","7,1,013,1,-013,1",,,"SYN112AAXX  30181 76373 32580 10000 10226 20051 38232 40183 57013 81100 91750 333 10230 20041 30/// 56900 59013 81720;",
"76373099999","2012-10-30T21:00:00","4","25.35","-105.75","1967.0","TEPEHUANES DGO., MX","FM-12","99999","V020","140,1,N,0010,1","22000,1,9,N","027000,1,N,1","+0269,1","+0025,1","10146,1",,,,,,"02,1,+00900,1,08,1",,"02,99,1,02,1,02,1,00800,1,00,1,00,1",,"01,9",,,,"99999,9,08201,1","7,1,035,1,-015,1",,,"SYN100AAXX  30211 76373 32577 21401 10269 20025 38201 40146 57035 82200 92050 333 30/// 56900 59015 82830;",
"76373099999","2012-10-31T00:00:00","4","25.35","-105.75","1967.0","TEPEHUANES DGO., MX","FM-12","99999","V020","090,1,N,0010,1","22000,1,9,N","027000,1,N,1","+0247,1","+0028,1","10139,1","24,0000,9,1",,,,,,,"02,99,1,02,1,02,1,00800,1,00,1,00,1",,"01,9",,"120,M,+0284,1","180,N,+0041,1","99999,9,08196,1","2,1,005,1,-006,1",,,"SYN124AAXX  31001 76373 32577 20901 10247 20028 38196 40139 52005 82200 92340 333 10284 20041 30/// 50431 56900 59006 70000 82830;",
"76373099999","2012-10-31T12:00:00","4","25.35","-105.75","1967.0","TEPEHUANES DGO., MX","FM-12","99999","V020","999,9,C,0000,1","22000,1,9,N","001000,1,N,1","+0054,1","+0027,1","10168,1","24,0000,9,1",,,,,"01,1,+00900,1,08,1",,"01,99,1,01,1,01,1,00800,1,00,1,00,1",,"01,9","999,+0037,9","120,N,+0045,1","240,M,+0284,1","99999,9,08220,1","9,9,999,9,-020,1",,,"SYN118AAXX  31121 76373 32510 10000 10054 20027 38220 40168 5//// 81100 91150 333 10284 20045 30037 56900 59020 70000 81830;",
"76373099999","2012-10-31T18:00:00","4","25.35","-105.75","1967.0","TEPEHUANES DGO., MX","FM-12","99999","V020","140,1,N,0010,1","22000,1,9,N","020000,1,N,1","+0223,1","+0029,1","10172,1",,,,,,"01,1,+00900,1,08,1",,"02,99,1,01,1,02,1,00800,1,03,1,00,1",,"01,9",,"120,M,+0236,1","240,N,+0045,1","99999,9,08223,1","7,1,009,1,-009,1",,,"SYN112AAXX  31181 76373 32570 21401 10223 20029 38223 40172 57009 81230 91750 333 10236 20045 30/// 56990 59009 81830;",
"76373099999","2012-10-31T21:00:00","4","25.35","-105.75","1967.0","TEPEHUANES DGO., MX","FM-12","99999","V020","170,1,N,0010,1","22000,1,9,N","027000,1,N,1","+0278,1","-0004,1","10139,1",,,,,,"01,1,+00750,1,06,1",,"03,99,1,03,1,02,1,00800,1,00,1,00,1",,"01,9",,,,"99999,9,08196,1","7,1,027,1,-005,1",,,"SYN106AAXX  31211 76373 32577 31701 10278 21004 38196 40139 57027 83200 92050 333 30/// 56900 59005 81625 82830;",
"76373099999","2012-11-01T00:00:00","4","25.35","-105.75","1967.0","TEPEHUANES DGO., MX","FM-12","99999","V020","280,1,N,0010,1","00750,1,9,N","027000,1,N,1","+0215,1","+0030,1","10137,1","24,0000,9,1",,,,,,,"07,99,1,07,1,07,1,00800,1,00,1,00,1",,"01,9",,"120,M,+0286,1","180,N,+0045,1","99999,9,08194,1","5,1,002,1,-002,1",,,"SYN124AAXX  01001 76373 32577 72801 10215 20030 38194 40137 55002 87700 92350 333 10286 20045 30/// 50601 56900 59002 70000 87723;",
"76373099999","2012-11-01T03:00:00","4","25.35","-105.75","1967.0","TEPEHUANES DGO., MX","FM-12","99999","V020","999,9,C,0000,1","00690,1,9,N","000400,1,N,1","+0175,1","+0039,1","10158,1",,,,,,"05,1,+00690,1,07,1",,"05,99,1,05,1,07,1,00800,1,00,1,00,1",,"01,9",,,,"99999,9,08211,1","2,1,017,1,+001,1",,,"SYN100AAXX  01031 76373 32504 50000 10175 20039 38211 40158 52017 85700 90250 333 30/// 56900 58001 85723;",
"76373099999","2012-11-01T06:00:00","4","25.35","-105.75","1967.0","TEPEHUANES DGO., MX","FM-12","99999","V020","999,9,C,0000,1","00750,1,9,N","000400,1,N,1","+0150,1","+0056,1","10170,1",,,,,,,,"05,99,1,05,1,05,1,00800,1,00,1,00,1","0504,9","01,9",,"240,M,+0286,1","240,N,+0045,1","99999,9,08221,1","2,1,012,1,+001,1",,,"SYN124AAXX  01061 76373 32504 50000 10150 20056 38221 40170 52012 85500 90540 333 10286 20045 30/// 55084 2//// 56900 58001 85623;",
"76373099999","2012-11-01T12:00:00","4","25.35","-105.75","1967.0","TEPEHUANES DGO., MX","FM-12","99999","V020","999,9,C,0000,1","22000,1,9,N","000600,1,N,1","+0068,1","+0038,1","10164,1","24,0000,9,1",,,,,"03,1,+05100,1,00,1",,"03,99,1,00,1,00,1,99999,9,00,1,04,1",,"01,9","999,+0050,9","120,N,+0060,1","240,M,+0286,1","99999,9,08216,1","9,9,999,9,-004,1",,,"SYN118AAXX  01121 76373 32906 30000 10068 20038 38216 40164 5//// 80004 91150 333 10286 20060 30050 56009 59004 70000 83067;",
"76373099999","2012-11-01T15:00:00","4","25.35","-105.75","1967.0","TEPEHUANES DGO., MX","FM-12","99999","V020","999,9,C,0000,1","22000,1,9,N","010000,1,N,1","+0083,1","+0045,1","10178,1",,,,,,"01,1,+00750,1,06,1",,"01,99,1,01,1,04,1,00800,1,00,1,00,1",,"01,9",,,,"99999,9,08228,1","2,1,012,1,-004,1",,,"SYN100AAXX  01151 76373 32560 10000 10083 20045 38228 40178 52012 81400 91450 333 30/// 56900 59004 81625;",
"76373099999","2012-11-01T18:00:00","4","25.35","-105.75","1967.0","TEPEHUANES DGO., MX","FM-12","99999","V020","140,1,N,0010,1","22000,1,9,N","030000,1,N,1","+0226,1","+0045,1","10165,1",,,,,,"01,1,+00600,1,06,1",,"03,99,1,03,1,03,1,00800,1,00,1,00,1",,"01,9",,"120,M,+0230,1","240,N,+0060,1","99999,9,08217,1","7,1,009,1,-006,1",,,"SYN118AAXX  01181 76373 32580 31401 10226 20045 38217 40165 57009 83300 91750 333 10230 20060 30/// 56900 59006 81620 82825;",
"76373099999","2012-11-01T21:00:00","4","25.35","-105.75","1967.0","TEPEHUANES DGO., MX","FM-12","99999","V020","160,1,N,0020,1","22000,1,9,N","030000,1,N,1","+0256,2","-0003,1","10129,1",,,,,,"02,1,+00600,1,06,1",,"04,99,1,04,1,04,1,00800,1,00,1,00,1",,"01,9",,,,"99999,9,08188,1","7,1,029,1,-008,1",,,"SYN106AAXX  01211 76373 32580 41602 10256 21003 38188 40129 57029 84400 92050 333 30/// 56900 59008 82620 82825;",
"76373099999","2012-11-02T00:00:00","4","25.35","-105.75","1967.0","TEPEHUANES DGO., MX","FM-12","99999","V020","290,1,N,0020,1","00600,1,C,N","030000,1,N,1","+0206,1","+0075,1","10136,1","24,0000,9,1",,,,,"05,1,+00600,1,07,1",,"08,99,1,08,1,08,1,00800,1,00,1,00,1",,"01,9",,"120,M,+0270,1","180,N,+0060,1","99999,9,08194,1","2,1,006,1,+000,1",,,"SYN130AAXX  02001 76373 32580 82902 10206 20075 38194 40136 52006 88800 92355 333 10270 20060 30/// 50481 56900 58000 70000 85720 83625;",
"76373099999","2012-11-02T03:00:00","4","25.35","-105.75","1967.0","TEPEHUANES DGO., MX","FM-12","99999","V020","290,1,N,0010,1","00750,1,9,N","001000,1,N,1","+0146,1","+0039,1","10157,1",,,,,,"05,1,+00750,1,06,1",,"05,99,1,05,1,05,1,00800,1,00,1,00,1",,"01,9",,,,"99999,9,08210,1","2,1,016,1,-001,1",,,"SYN100AAXX  02031 76373 32510 52901 10146 20039 38210 40157 52016 85500 90255 333 30/// 56900 59001 85625;",
"76373099999","2012-11-02T15:00:00","4","25.35","-105.75","1967.0","TEPEHUANES DGO., MX","FM-12","99999","V020","320,1,N,0010,1","22000,1,9,N","020000,1,N,1","+0076,1","+0030,1","10172,1",,,,,,"00,1,+99999,9,99,9",,"00,99,1,00,1,00,1,99999,9,00,1,00,1",,"01,9",,,,"99999,9,08222,1","2,1,010,1,-006,1",,,"SYN082AAXX  02151 76373 32970 03201 10076 20030 38222 40172 52010 91450 333 30/// 59006;",
"76373099999","2012-11-02T18:00:00","4","25.35","-105.75","1967.0","TEPEHUANES DGO., MX","FM-12","99999","V020","110,1,N,0010,1","22000,1,9,N","030000,1,N,1","+0218,1","-0019,1","10158,1",,,,,,"00,1,+99999,9,99,9",,"00,99,1,00,1,00,1,99999,9,00,1,00,1",,"01,9",,"120,M,+0220,1","240,N,+0028,1","99999,9,08211,1","7,1,011,1,-006,1",,,"SYN094AAXX  02181 76373 32980 01101 10218 21019 38211 40158 57011 91750 333 10220 20028 30/// 59006;",
"76373099999","2012-11-02T21:00:00","4","25.35","-105.75","1967.0","TEPEHUANES DGO., MX","FM-12","99999","V020","290,1,N,0020,1","22000,1,9,N","030000,1,N,1","+0252,1","-0061,1","10119,1",,,,,,"00,1,+99999,9,99,9",,"00,99,1,00,1,00,1,99999,9,00,1,00,1",,"01,9",,,,"99999,9,08180,1","7,1,031,1,-008,1",,,"SYN082AAXX  02211 76373 32980 02902 10252 21061 38180 40119 57031 92055 333 30/// 59008;",
"76373099999","2012-11-03T03:00:00","4","25.35","-105.75","1967.0","TEPEHUANES DGO., MX","FM-12","99999","V020","290,1,N,0010,1","22000,1,9,N","001000,1,N,1","+0126,1","+9999,9","99999,9",,,,,,"00,1,+99999,9,99,9",,"00,99,1,00,1,00,1,99999,9,00,1,00,1",,,,,,,,,,"SYN082AAXX  03031 76373 32910 02901 10126 31016 38204 40149 52019 90255 333 30/// 59006;","Q01+010161APOSP "
"76373099999","2012-11-03T15:00:00","4","25.35","-105.75","1967.0","TEPEHUANES DGO., MX","FM-12","99999","V020","290,1,N,0010,1","22000,1,9,N","020000,1,N,1","+0064,1","+0014,1","10183,1",,,,,,"00,1,+99999,9,99,9",,"00,99,1,00,1,00,1,99999,9,00,1,00,1",,"01,9",,,,"99999,9,08231,1","2,1,010,1,+009,1",,,"SYN082AAXX  03151 76373 32970 02901 10064 20014 38231 40183 52010 91450 333 30/// 58009;",
"76373099999","2012-11-03T21:00:00","4","25.35","-105.75","1967.0","TEPEHUANES DGO., MX","FM-12","99999","V020","160,1,N,0010,1","22000,1,9,N","010000,1,N,1","+0260,2","-0067,1","10126,1",,,,,,"00,1,+99999,9,99,9",,"00,99,1,00,1,00,1,99999,9,00,1,00,1",,"01,9",,,,"99999,9,08185,1","7,1,029,1,+005,1",,,"SYN082AAXX  03211 76373 32960 01601 10260 21067 38185 40126 57029 92050 333 30/// 58005;",
"76373099999","2012-11-04T00:00:00","4","25.35","-105.75","1967.0","TEPEHUANES DGO., MX","FM-12","99999","V020","150,1,N,0010,1","22000,1,9,N","020000,1,N,1","+0223,1","-0039,1","10124,1","24,0000,9,1",,,,,"00,1,+99999,9,99,9",,"00,99,1,00,1,00,1,99999,9,00,1,00,1",,"01,9",,"120,M,+0270,1","180,N,+0012,1","99999,9,08184,1","7,1,001,1,-001,1",,,"SYN106AAXX  04001 76373 32970 01501 10223 21039 38184 40124 57001 92350 333 10270 20012 30/// 50341 59001 70000;","Q01  00002PRCP24"
"76373099999","2012-11-04T03:00:00","4","25.35","-105.75","1967.0","TEPEHUANES DGO., MX","FM-12","99999","V020","310,1,N,0010,1","22000,1,9,N","005000,1,N,1","+0153,1","+0014,1","10150,1",,,,,,"00,1,+99999,9,99,9",,"00,99,1,00,1,00,1,99999,9,00,1,00,1",,"01,9",,,,"99999,9,08204,1","2,1,020,1,+000,1",,,"SYN082AAXX  04031 76373 32950 03101 10153 20014 38204 40150 52020 90250 333 30/// 58000;",
"76373099999","2012-11-04T15:00:00","4","25.35","-105.75","1967.0","TEPEHUANES DGO., MX","FM-12","99999","V020","999,9,C,0000,1","22000,1,9,N","020000,1,N,1","+0090,1","+0025,1","10179,1",,,,,,"02,1,+00810,1,06,1",,"02,99,1,02,1,05,1,00800,1,00,1,00,1",,"01,9",,,,"99999,9,08228,1","4,1,000,1,-003,1",,,"SYN100AAXX  04151 76373 32570 20000 10090 20025 38228 40179 54000 82500 91450 333 30/// 56900 59003 82627;",
"76373099999","2012-11-04T18:00:00","4","25.35","-105.75","1967.0","TEPEHUANES DGO., MX","FM-12","99999","V020","140,1,N,0010,1","22000,1,9,N","020000,1,N,1","+0220,1","+0021,1","10170,1",,,,,,"02,1,+00810,1,06,1",,"02,99,1,02,1,05,1,00800,1,00,1,00,1",,"01,9",,"120,M,+0230,1","240,N,+0035,1","99999,9,08221,1","7,1,007,1,-007,1",,,"SYN112AAXX  04181 76373 32570 21401 10220 20021 38221 40170 57007 82500 91750 333 10230 20035 30/// 56900 59007 82627;",
"76373099999","2012-11-04T21:00:00","4","25.35","-105.75","1967.0","TEPEHUANES DGO., MX","FM-12","99999","V020","140,1,N,0050,1","22000,1,9,N","020000,1,N,1","+0256,1","+0024,1","10140,1",,,,,,"04,1,+00810,1,08,1",,"04,99,1,04,1,03,1,00800,1,00,1,00,1",,"01,9",,,,"99999,9,08197,1","7,1,024,1,+042,1",,,"SYN100AAXX  04211 76373 32570 41405 10256 20024 38197 40140 57024 84300 92050 333 30/// 56900 58042 84827;",
"76373099999","2012-11-05T00:00:00","4","25.35","-105.75","1967.0","TEPEHUANES DGO., MX","FM-12","99999","V020","140,1,N,0020,1","22000,1,9,N","020000,1,N,1","+0229,1","+0028,1","10148,1","24,0000,9,1",,,,,,,"04,99,1,04,1,03,1,00800,1,00,1,00,1",,"01,9",,"120,M,+0270,1","180,N,+0035,1","99999,9,08203,1","2,1,006,1,+019,1",,,"SYN124AAXX  05001 76373 32570 41402 10229 20028 38203 40148 52006 84300 92350 333 10270 20035 30/// 50491 56900 58019 70000 84827;",
"76373099999","2012-11-05T03:00:00","4","25.35","-105.75","1967.0","TEPEHUANES DGO., MX","FM-12","99999","V020","290,1,N,0020,1","22000,1,9,N","005000,1,N,1","+0176,1","+0033,1","10167,1",,,,,,"00,1,+99999,9,99,9",,"00,99,1,00,1,00,1,99999,9,00,1,00,1",,"01,9",,,,"99999,9,08218,1","2,1,015,1,+014,1",,,"SYN082AAXX  05031 76373 32950 02902 10176 20033 38218 40167 52015 90250 333 30/// 58014;",
"76373099999","2012-11-05T15:00:00","4","25.35","-105.75","1967.0","TEPEHUANES DGO., MX","FM-12","99999","V020","999,9,C,0000,1","22000,1,9,N","020000,1,N,1","+0106,1","+0053,1","10209,1",,,,,,"00,1,+99999,9,99,9",,"00,99,1,00,1,00,1,99999,9,00,1,00,1",,"01,9",,,,"99999,9,08253,1","2,1,013,1,+025,1",,,"SYN082AAXX  05151 76373 32970 00000 10106 20053 38253 40209 52013 91450 333 30/// 58025;",
"76373099999","2012-11-05T18:00:00","4","25.35","-105.75","1967.0","TEPEHUANES DGO., MX","FM-12","99999","V020","160,1,N,0010,1","22000,1,9,N","030000,1,N,1","+0235,1","+0064,1","10200,1",,,,,,"02,1,+00810,1,06,1",,"02,99,1,02,1,05,1,00800,1,00,1,00,1",,"01,9",,"120,M,+0240,1","240,N,+0047,1","99999,9,08245,1","2,1,008,1,+024,1",,,"SYN112AAXX  05181 76373 32580 21601 10235 20064 38245 40200 52008 82500 91750 333 10240 20047 30/// 56900 58024 82627;",
"76373099999","2012-11-05T21:00:00","4","25.35","-105.75","1967.0","TEPEHUANES DGO., MX","FM-12","99999","V020","290,1,N,0010,1","22000,1,9,N","030000,1,N,1","+0247,1","+0036,1","10165,1",,,,,,"04,1,+00750,1,08,1",,"04,99,1,04,1,04,1,00800,1,00,1,00,1",,"01,9",,,,"99999,9,08217,1","7,1,028,1,+020,1",,,"SYN100AAXX  05211 76373 32580 42901 10247 20036 38217 40165 57028 84400 92050 333 30/// 56900 58020 84825;",
"76373099999","2012-11-06T00:00:00","4","25.35","-105.75","1967.0","TEPEHUANES DGO., MX","FM-12","99999","V020","110,1,N,0010,1","22000,1,9,N","030000,1,N,1","+0220,1","+0024,1","10168,1","24,0000,9,1",,,,,,,"02,99,1,99,9,03,1,00800,1,00,1,00,1",,"01,9",,"120,M,+0268,1","180,N,+0047,1","99999,9,08220,1","2,1,003,1,+017,1",,,"SYN124AAXX  06001 76373 32580 21101 10220 20024 38220 40168 52003 83300 92350 333 10268 20047 30/// 50391 56900 58017 70000 83720;","Q01+000032SCOTLC"
"76373099999","2012-11-06T03:00:00","4","25.35","-105.75","1967.0","TEPEHUANES DGO., MX","FM-12","99999","V020","230,1,N,0010,1","22000,1,9,N","001000,1,N,1","+0151,1","+0029,1","10188,1",,,,,,"01,1,+00750,1,08,1",,"01,99,1,01,1,01,1,00800,1,00,1,00,1",,"01,9",,,,"99999,9,08236,1","2,1,016,1,+018,1",,,"SYN100AAXX  06031 76373 32510 12301 10151 20029 38236 40188 52016 81100 90250 333 30/// 56900 58018 81825;",
"76373099999","2012-11-06T06:00:00","4","25.35","-105.75","1967.0","TEPEHUANES DGO., MX","FM-12","99999","V020","999,9,C,0000,1","22000,1,9,N","001000,1,N,1","+0106,1","+0029,1","10198,1",,,,,,"00,1,+99999,9,99,9",,"00,99,1,00,1,00,1,99999,9,00,1,00,1","0534,9","01,9",,"240,M,+0268,1","240,N,+0047,1","99999,9,08244,1","2,1,008,1,+999,9",,,"SYN106AAXX  06061 76373 32910 00000 10106 20029 38244 40198 52008 90550 333 10268 20047 30/// 55089 21385 58026;",
"76373099999","2012-11-06T12:00:00","4","25.35","-105.75","1967.0","TEPEHUANES DGO., MX","FM-12","99999","V020","999,9,C,0000,1","22000,1,9,N","001000,1,N,1","+0039,1","+0012,1","10209,1","24,0000,9,1",,,,,"00,1,+99999,9,99,9",,"00,99,1,00,1,00,1,99999,9,00,1,00,1",,"01,9","999,+0010,9","120,N,+0021,1","240,M,+0268,1","99999,9,08253,1","9,9,999,9,+013,1",,,"SYN100AAXX  06121 76373 32910 00000 10039 20012 38253 40209 5//// 91150 333 10268 20021 30010 58013 70000;","Q01  00002PRCP24"
"76373099999","2012-11-06T15:00:00","4","25.35","-105.75","1967.0","TEPEHUANES DGO., MX","FM-12","99999","V020","999,9,C,0000,1","22000,1,9,N","020000,1,N,1","+0086,1","+0027,1","10221,1",,,,,,"00,1,+99999,9,99,9",,"00,99,1,00,1,00,1,99999,9,00,1,00,1",,"01,9",,,,"99999,9,08263,1","2,1,010,1,+010,1",,,"SYN082AAXX  06151 76373 32970 00000 10086 20027 38263 40221 52010 91450 333 30/// 58010;",
"76373099999","2012-11-06T18:00:00","4","25.35","-105.75","1967.0","TEPEHUANES DGO., MX","FM-12","99999","V020","160,1,N,0010,1","22000,1,9,N","030000,1,N,1","+0224,2","+0017,1","10211,1",,,,,,"00,1,+99999,9,99,9",,"00,99,1,00,1,00,1,99999,9,00,1,00,1",,"01,9",,"120,M,+0228,1","240,N,+0021,1","99999,9,08254,1","7,1,009,1,-001,1",,,"SYN094AAXX  06181 76373 32980 01601 10224 20017 38254 40211 57009 91750 333 10228 20021 30/// 59001;",
"76373099999","2012-11-07T00:00:00","4","25.35","-105.75","1967.0","TEPEHUANES DGO., MX","FM-12","99999","V020","150,1,N,0010,1","22000,1,9,N","027000,1,N,1","+0221,1","-0017,1","10172,1","24,0000,9,1",,,,,,,"01,99,1,00,1,00,1,99999,9,00,1,04,1",,"01,9",,"120,M,+0260,1","180,N,+0021,1","99999,9,08222,1","5,1,000,1,+002,1",,,"SYN124AAXX  07001 76373 32977 11501 10221 21017 38222 40172 55000 80004 92350 333 10260 20021 30/// 50451 56009 58002 70000 81067;",
"76373099999","2012-11-07T03:00:00","4","25.35","-105.75","1967.0","TEPEHUANES DGO., MX","FM-12","99999","V020","999,9,C,0000,1","22000,1,9,N","000400,1,N,1","+0135,1","-0009,1","10191,1",,,,,,"00,1,+99999,9,99,9",,"00,99,1,00,1,00,1,99999,9,00,1,00,1",,"01,9",,,,"99999,9,08238,1","2,1,016,1,+002,1",,,"SYN082AAXX  07031 76373 32904 00000 10135 21009 38238 40191 52016 90250 333 30/// 58002;",
"76373099999","2012-11-07T06:00:00","4","25.35","-105.75","1967.0","TEPEHUANES DGO., MX","FM-12","99999","V020","999,9,C,0000,1","22000,1,9,N","000400,1,N,1","+0085,1","+0002,1","10207,1",,,,,,"00,1,+99999,9,99,9",,"00,99,1,00,1,00,1,99999,9,00,1,00,1","0600,9","01,9",,"240,M,+0260,1","240,N,+0021,1","99999,9,08251,1","2,1,013,1,+999,9",,,"SYN106AAXX  07061 76373 32904 00000 10085 20002 38251 40207 52013 90540 333 10260 20021 30/// 55100 21973 58007;",
"76373099999","2012-11-07T21:00:00","4","25.35","-105.75","1967.0","TEPEHUANES DGO., MX","FM-12","99999","V020","150,1,N,0010,1","22000,1,9,N","027000,1,N,1","+0260,1","-0006,1","10159,1",,,,,,"01,1,+05100,1,00,1",,"01,99,1,00,1,00,1,99999,9,00,1,04,1",,"01,9",,,,"99999,9,08212,1","7,1,028,1,-010,1",,,"SYN100AAXX  07211 76373 32977 11501 10260 21006 38212 40159 57028 80004 92050 333 30/// 56009 59010 81067;",
"76373099999","2012-11-08T00:00:00","4","25.35","-105.75","1967.0","TEPEHUANES DGO., MX","FM-12","99999","V020","150,1,N,0010,1","22000,1,9,N","027000,1,N,1","+0220,1","+9999,9","10155,1","24,0000,9,1",,,,,,,"02,99,1,00,1,00,1,99999,9,00,1,04,1",,"01,9",,"120,M,+0273,1","180,N,+0020,1","99999,9,08209,1","5,1,003,1,-023,1",,,"SYN124AAXX  08001 76373 32977 21501 10220 20233 38209 40155 55003 80004 92350 333 10273 20020 30/// 50261 56009 59023 70000 82067;",
"76373099999","2012-11-08T03:00:00","4","25.35","-105.75","1967.0","TEPEHUANES DGO., MX","FM-12","99999","V020","999,9,C,0000,1","22000,1,9,N","000400,1,N,1","+0152,1","-0010,1","10176,1",,,,,,"00,1,+99999,9,99,9",,"00,99,1,00,1,00,1,99999,9,00,1,00,1",,"01,9",,,,"99999,9,08226,1","2,1,027,1,-012,1",,,"SYN082AAXX  08031 76373 32904 00000 10152 21010 38226 40176 52027 90250 333 30/// 59012;",
"76373099999","2012-11-08T15:00:00","4","25.35","-105.75","1967.0","TEPEHUANES DGO., MX","FM-12","99999","V020","999,9,C,0000,1","22000,1,9,N","020000,1,N,1","+0083,1","+0016,1","10198,1",,,,,,"01,1,+05100,1,00,1",,"01,99,1,00,1,00,1,99999,9,00,1,04,1",,"01,9",,,,"99999,9,08244,1","2,1,011,1,-022,1",,,"SYN100AAXX  08151 76373 32970 10000 10083 20016 38244 40198 52011 80004 91450 333 30/// 56009 59022 81067;",
"76373099999","2012-11-08T18:00:00","4","25.35","-105.75","1967.0","TEPEHUANES DGO., MX","FM-12","99999","V020","160,1,N,0010,1","22000,1,9,N","030000,1,N,1","+0222,1","+0024,1","10174,1",,,,,,"00,1,+99999,9,99,9",,"00,99,1,00,1,00,1,99999,9,00,1,00,1",,"01,9",,"120,M,+0270,1","240,N,+0030,1","99999,9,08224,1","7,1,020,1,-022,1",,,"SYN094AAXX  08181 76373 32980 01601 10222 20024 38224 40174 57020 91750 333 10270 20030 30/// 59022;",
"76373099999","2012-11-08T21:00:00","4","25.35","-105.75","1967.0","TEPEHUANES DGO., MX","FM-12","99999","V020","290,1,N,0010,1","22000,1,9,N","030000,1,N,1","+0276,2","+0005,1","10131,1",,,,,,"00,1,+99999,9,99,9",,"00,99,1,00,1,00,1,99999,9,00,1,00,1",,"01,9",,,,"99999,9,08190,1","7,1,034,1,-022,1",,,"SYN082AAXX  08211 76373 32980 02901 10276 20005 38190 40131 57034 92055 333 30/// 59022;",
"76373099999","2012-11-09T00:00:00","4","25.35","-105.75","1967.0","TEPEHUANES DGO., MX","FM-12","99999","V020","250,1,N,0020,1","22000,1,9,N","030000,1,N,1","+0230,1","+0013,1","10135,1","24,0000,9,1",,,,,"00,1,+99999,9,99,9",,"00,99,1,00,1,00,1,99999,9,00,1,00,1",,"01,9",,"120,M,+0286,1","180,N,+0030,1","99999,9,08192,1","1,1,002,1,-017,1",,,"SYN106AAXX  09001 76373 32980 02502 10230 20013 38192 40135 51002 92355 333 10286 20030 30/// 50601 59017 70000;","Q01  00002PRCP24"
"76373099999","2012-11-09T03:00:00","4","25.35","-105.75","1967.0","TEPEHUANES DGO., MX","FM-12","99999","V020","290,1,N,0010,1","22000,1,9,N","001000,1,N,1","+0165,1","+0030,1","10160,1",,,,,,"00,1,+99999,9,99,9",,"00,99,1,00,1,00,1,99999,9,00,1,00,1",,"01,9",,,,"99999,9,08213,1","2,1,021,1,-013,1",,,"SYN082AAXX  09031 76373 32910 02901 10165 20030 38213 40160 52021 90255 333 30/// 59013;",
"76373099999","2012-11-09T06:00:00","4","25.35","-105.75","1967.0","TEPEHUANES DGO., MX","FM-12","99999","V020","999,9,C,0000,1","22000,1,9,N","001000,1,N,1","+0106,1","+0032,1","10164,1",,,,,,"00,1,+99999,9,99,9",,"00,99,1,00,1,00,1,99999,9,00,1,00,1","0594,9","01,9",,"240,M,+0286,1","240,N,+0030,1","99999,9,08224,1","2,1,011,1,+999,9",,,"SYN106AAXX  09061 76373 32910 00000 10106 20032 38224 40164 52011 90550 333 10286 20030 30/// 55099 21819 59013;",
"76373099999","2012-11-09T12:00:00","4","25.35","-105.75","1967.0","TEPEHUANES DGO., MX","FM-12","99999","V020","999,9,C,0000,1","22000,1,9,N","001000,1,N,1","+0044,1","+0026,1","10168,1","24,0000,9,1",,,,,"00,1,+99999,9,99,9",,"00,99,1,00,1,00,1,99999,9,00,1,00,1",,"01,9","999,+0028,9","120,N,+0032,1","240,M,+0286,1","99999,9,08220,1","9,9,999,9,-013,1",,,"SYN100AAXX  09121 76373 32910 00000 10044 20026 38220 40168 5//// 91155 333 10286 20032 30028 59013 70000;","Q01  00002PRCP24"
"76373099999","2012-11-09T18:00:00","4","25.35","-105.75","1967.0","TEPEHUANES DGO., MX","FM-12","99999","V020","110,1,N,0010,1","22000,1,9,N","030000,1,N,1","+0232,1","+0006,1","10163,1",,,,,,"01,1,+05100,1,00,1",,"01,99,1,00,1,00,1,99999,9,00,1,01,1",,"01,9",,"120,M,+0240,1","240,N,+0032,1","99999,9,08216,1","7,1,013,1,-008,1",,,"SYN112AAXX  09181 76373 32980 11101 10232 20006 38216 40163 57013 80001 91755 333 10240 20032 30/// 56009 59008 81067;",
"76373099999","2012-11-09T21:00:00","4","25.35","-105.75","1967.0","TEPEHUANES DGO., MX","FM-12","99999","V020","290,1,N,0020,1","22000,1,9,N","030000,1,N,1","+0272,1","+0028,1","10117,1",,,,,,"02,1,+00600,1,08,1",,"03,99,1,02,1,02,1,00800,1,00,1,01,1",,"01,9",,,,"99999,9,08178,1","7,1,038,1,-012,1",,,"SYN106AAXX  09211 76373 32580 32902 10272 20028 38178 40117 57038 82201 92055 333 30/// 56909 59012 82820 81067;",
"76373099999","2012-11-10T00:00:00","4","25.35","-105.75","1967.0","TEPEHUANES DGO., MX","FM-12","99999","V020","290,1,N,0020,1","22000,1,9,N","030000,1,N,1","+0224,1","+0038,1","10131,1","24,0000,9,1",,,,,"01,1,+00750,1,08,1","01,1,+01110,1,03,1","04,99,1,02,1,01,1,00800,1,01,1,02,1",,"01,9",,"120,M,+0290,1","180,N,+0032,1","99999,9,08189,1","2,1,011,1,-003,1",,,"SYN136AAXX  10001 76373 32580 42902 10224 20038 38189 40131 52011 82112 92355 333 10290 20032 30/// 50691 56999 59003 70000 81825 81337 82067;",
"76373099999","2012-11-10T12:00:00","4","25.35","-105.75","1967.0","TEPEHUANES DGO., MX","FM-12","99999","V020","140,1,N,0010,1","22000,1,9,N","001000,1,N,1","+0060,1","+0036,1","10152,1","24,0000,9,1",,,,,"01,1,+01110,1,03,1",,"01,99,1,01,1,00,1,00800,1,01,1,00,1",,"01,9","999,+0032,9","120,N,+0044,1","240,M,+0290,1","99999,9,08206,1","9,9,999,9,-014,1",,,"SYN118AAXX  10121 76373 32510 11401 10060 20036 38206 40152 5//// 81010 91155 333 10290 20044 30032 56090 59014 70000 81337;",
"76373099999","2012-11-10T15:00:00","4","25.35","-105.75","1967.0","TEPEHUANES DGO., MX","FM-12","99999","V020","110,1,N,0010,1","22000,1,9,N","030000,1,N,1","+0112,1","+0057,1","10173,1",,,,,,"01,1,+00600,1,08,1","01,1,+01110,1,03,1","04,99,1,02,1,01,1,00800,1,01,1,02,1",,"01,9",,,,"99999,9,08224,1","2,1,018,1,-005,1",,,"SYN112AAXX  10151 76373 32580 41101 10112 20057 38224 40173 52018 82112 91455 333 30/// 56999 59005 81820 81337 82067;",
"76373099999","2012-11-10T18:00:00","4","25.35","-105.75","1967.0","TEPEHUANES DGO., MX","FM-12","99999","V020","290,1,N,0020,1","22000,1,9,N","025000,1,N,1","+0230,1","+0072,1","10150,1",,,,,,"01,1,+00810,1,06,1",,"01,99,1,01,1,06,1,00800,1,00,1,00,1",,"01,9",,"120,M,+0238,1","240,N,+0044,1","99999,9,08205,1","7,1,019,1,-011,1",,,"SYN112AAXX  10181 76373 32575 12902 10230 20072 38205 40150 57019 81600 91750 333 10238 20044 30/// 56900 59011 81627;",
"76373099999","2012-11-10T21:00:00","4","25.35","-105.75","1967.0","TEPEHUANES DGO., MX","FM-12","99999","V020","290,1,N,0030,1","22000,1,9,N","025000,1,N,1","+0264,1","+0048,1","10117,1",,,,,,"04,1,+00810,1,08,1",,"04,99,1,04,1,03,1,00800,1,00,1,00,1",,"01,9",,,,"99999,9,08178,1","7,1,027,1,+000,1",,,"SYN100AAXX  10211 76373 32575 42903 10264 20048 38178 40117 57027 84300 92050 333 30/// 56900 58000 84827;",
"76373099999","2012-11-11T00:00:00","4","25.35","-105.75","1967.0","TEPEHUANES DGO., MX","FM-12","99999","V020","250,1,N,0020,1","22000,1,9,N","025000,1,N,1","+0211,1","+0065,1","10118,1","24,0000,9,1",,,,,,,"01,99,1,01,1,06,1,00800,1,00,1,00,1",,"01,9",,"120,M,+0280,1","180,N,+0044,1","99999,9,08179,1","2,1,001,1,-010,1",,,"SYN124AAXX  11001 76373 32575 12502 10211 20065 38179 40118 52001 81600 92350 333 10280 20044 30/// 50331 56900 59010 70000 81627;",
"76373099999","2012-11-11T03:00:00","4","25.35","-105.75","1967.0","TEPEHUANES DGO., MX","FM-12","99999","V020","999,9,C,0000,1","22000,1,9,N","005000,1,N,1","+0167,1","+0081,1","10140,1",,,,,,"00,1,+99999,9,99,9",,"00,99,1,00,1,00,1,99999,9,00,1,00,1",,"01,9",,,,"99999,9,08197,1","2,1,018,1,-008,1",,,"SYN082AAXX  11031 76373 32950 00000 10167 20081 38197 40140 52018 90240 333 30/// 59008;",
"76373099999","2012-11-11T15:00:00","4","25.35","-105.75","1967.0","TEPEHUANES DGO., MX","FM-12","99999","V020","320,1,N,0010,1","22000,1,9,N","025000,1,N,1","+0107,1","+0070,1","10162,1",,,,,,"02,1,+00810,1,06,1",,"04,99,1,02,1,05,1,00800,1,05,1,00,1",,"01,9",,,,"99999,9,08215,1","2,1,005,1,-009,1",,,"SYN106AAXX  11151 76373 32575 43201 10107 20070 38215 40162 52005 82550 91450 333 30/// 56990 59009 82627 82337;",
"76373099999","2012-11-11T18:00:00","4","25.35","-105.75","1967.0","TEPEHUANES DGO., MX","FM-12","99999","V020","020,1,N,0010,1","22000,1,9,N","025000,1,N,1","+0228,1","+0006,1","10147,1",,,,,,"01,1,+01110,1,03,1",,"01,99,1,01,1,00,1,00800,1,05,1,00,1",,"01,9",,"120,M,+0235,1","240,N,+0040,1","99999,9,08202,1","7,1,013,1,-003,1",,,"SYN112AAXX  11181 76373 32575 10201 10228 20006 38202 40147 57013 81050 91750 333 10235 20040 30/// 56090 59003 81337;",
"76373099999","2012-11-11T21:00:00","4","25.35","-105.75","1967.0","TEPEHUANES DGO., MX","FM-12","99999","V020","320,1,N,0020,1","22000,1,9,N","020000,1,N,1","+0258,1","-0061,1","10123,1",,,,,,"00,1,+99999,9,99,9",,"00,99,1,00,1,00,1,99999,9,00,1,00,1",,"01,9",,,,"99999,9,08183,1","7,1,019,1,+005,1",,,"SYN082AAXX  11211 76373 32970 03202 10258 21061 38183 40123 57019 92050 333 30/// 58005;",
"76373099999","2012-11-12T00:00:00","4","25.35","-105.75","1967.0","TEPEHUANES DGO., MX","FM-12","99999","V020","290,1,N,0010,1","22000,1,9,N","020000,1,N,1","+0219,1","-0037,1","10135,1","24,0000,9,1",,,,,"00,1,+99999,9,99,9",,"00,99,1,00,1,00,1,99999,9,00,1,00,1",,"01,9",,"120,M,+0268,1","180,N,+0040,1","99999,9,08193,1","2,1,010,1,+014,1",,,"SYN106AAXX  12001 76373 32970 02901 10219 21037 38193 40135 52010 92350 333 10268 20040 30/// 50511 58014 70000;","Q01  00002PRCP24"
"76373099999","2012-11-12T03:00:00","4","25.35","-105.75","1967.0","TEPEHUANES DGO., MX","FM-12","99999","V020","999,9,C,0000,1","22000,1,9,N","005000,1,N,1","+0135,1","-0017,1","10173,1",,,,,,"00,1,+99999,9,99,9",,"00,99,1,00,1,00,1,99999,9,00,1,00,1",,"01,9",,,,"99999,9,08224,1","2,1,031,1,+047,1",,,"SYN082AAXX  12031 76373 32950 00000 10135 21017 38224 40173 52031 90250 333 30/// 58047;",
"76373099999","2012-11-12T18:00:00","4","25.35","-105.75","1967.0","TEPEHUANES DGO., MX","FM-12","99999","V020","160,1,N,0010,1","22000,1,9,N","030000,1,N,1","+0186,1","-0012,1","10221,1",,,,,,"00,1,+99999,9,99,9",,"00,99,1,00,1,00,1,99999,9,00,1,00,1",,"01,9",,"120,M,+0192,1","240,N,+0003,1","99999,9,08262,1","2,1,004,1,+060,1",,,"SYN094AAXX  12181 76373 32980 01601 10186 21012 38262 40221 52004 91750 333 10192 20003 30/// 58060;",
"76373099999","2012-11-12T21:00:00","4","25.35","-105.75","1967.0","TEPEHUANES DGO., MX","FM-12","99999","V020","160,1,N,0020,1","22000,1,9,N","030000,1,N,1","+0238,1","-0009,1","10178,1",,,,,,"02,1,+00750,1,08,1",,"02,99,1,02,1,02,1,00800,1,00,1,00,1",,"01,9",,,,"99999,9,08227,1","7,1,035,1,+041,1",,,"SYN100AAXX  12211 76373 32580 21602 10238 21009 38227 40178 57035 82200 92050 333 30/// 56900 58041 82825;",
"76373099999","2012-11-13T00:00:00","4","25.35","-105.75","1967.0","TEPEHUANES DGO., MX","FM-12","99999","V020","160,1,N,0020,1","01200,1,9,N","030000,1,N,1","+0207,1","-0001,1","10160,1","24,0000,9,1",,,,,,,"08,99,1,08,1,08,1,00800,1,00,1,00,1",,"01,9",,"120,M,+0248,1","180,N,+0003,1","99999,9,08213,1","7,1,014,1,+020,1",,,"SYN124AAXX  13001 76373 32580 81602 10207 21001 38213 40160 57014 88800 92350 333 10248 20003 30/// 50361 56900 58020 70000 88720;",
"76373099999","2012-11-13T03:00:00","4","25.35","-105.75","1967.0","TEPEHUANES DGO., MX","FM-12","99999","V020","999,9,C,0000,1","00750,1,9,N","001000,1,N,1","+0150,1","+0008,1","10186,1",,,,,,"06,1,+00750,1,08,1",,"06,99,1,06,1,06,1,00800,1,00,1,00,1",,"01,9",,,,"99999,9,08234,1","2,1,021,1,+010,1",,,"SYN100AAXX  13031 76373 32510 60000 10150 20008 38234 40186 52021 86600 90250 333 30/// 56900 58010 86825;",
"76373099999","2012-11-13T06:00:00","4","25.35","-105.75","1967.0","TEPEHUANES DGO., MX","FM-12","99999","V020","999,9,C,0000,1","99999,9,9,N","001000,1,N,1","+0119,1","+0020,1","10197,1",,,,,,,,"06,99,1,06,1,06,1,99999,9,00,1,00,1","0510,9","01,9",,"240,M,+0248,1","240,N,+0003,1","99999,9,08243,1","2,1,009,1,+013,1",,,"SYN124AAXX  13061 76373 32910 60000 10119 20020 38243 40197 52009 86600 90550 333 10248 20003 30/// 55085 91667 56900 58013 86825;",
"76373099999","2012-11-13T12:00:00","4","25.35","-105.75","1967.0","TEPEHUANES DGO., MX","FM-12","99999","V020","999,9,C,0000,1","22000,1,9,N","001000,1,N,1","+0050,1","+0012,1","10188,1","24,0000,9,1",,,,,"00,1,+99999,9,99,9",,"00,99,1,00,1,00,1,99999,9,00,1,00,1",,"01,9","999,+0030,9","120,N,+0037,1","240,M,+0248,1","99999,9,08236,1","9,9,999,9,-027,1",,,"SYN100AAXX  13121 76373 32910 00000 10050 20012 38236 40188 5//// 91150 333 10248 20037 30030 59027 70000;","Q01  00002PRCP24"
"76373099999","2012-11-13T15:00:00","4","25.35","-105.75","1967.0","TEPEHUANES DGO., MX","FM-12","99999","V020","999,9,C,0000,1","22000,1,9,N","020000,1,N,1","+0084,1","+0017,1","10202,1",,,,,,"04,1,+00600,1,07,1",,"04,99,1,04,1,04,1,00800,1,00,1,00,1",,"01,9",,,,"99999,9,08247,1","2,1,003,1,+001,1",,,"SYN106AAXX  13151 76373 32570 40000 10084 20017 38247 40202 52003 84400 91450 333 30/// 56900 58001 84720 76581;",
"76373099999","2012-11-13T18:00:00","4","25.35","-105.75","1967.0","TEPEHUANES DGO., MX","FM-12","99999","V020","999,9,C,0000,1","00600,1,9,N","030000,1,N,1","+0179,1","+0027,1","10181,1",,,,,,"06,1,+00600,1,07,1",,"06,99,1,06,1,06,1,00800,1,00,1,00,1",,"01,9",,"120,M,+0183,1","240,N,+0037,1","99999,9,08230,1","2,1,017,1,-032,1",,,"SYN112AAXX  13181 76373 32580 60000 10179 20027 38230 40181 52017 86600 91750 333 10183 20037 30/// 56900 59032 86720;",
"76373099999","2012-11-13T21:00:00","4","25.35","-105.75","1967.0","TEPEHUANES DGO., MX","FM-12","99999","V020","250,1,N,0010,1","03600,1,C,N","027000,1,N,1","+0256,2","-0032,1","10140,1",,,,,,"04,1,+00690,1,06,1",,"06,99,1,04,1,04,1,00800,1,07,1,00,1",,"01,9",,,,"99999,9,08197,1","7,1,033,1,-030,1",,,"SYN106AAXX  13211 76373 32577 62501 10256 21032 38197 40140 57033 84470 92045 333 30/// 56909 59030 84623 82357;",
"76373099999","2012-11-14T03:00:00","4","25.35","-105.75","1967.0","TEPEHUANES DGO., MX","FM-12","99999","V020","999,9,C,0000,1","22000,1,9,N","000600,1,N,1","+0173,1","+0022,1","10174,1",,,,,,"02,1,+00690,1,06,1",,"02,99,1,02,1,04,1,00800,1,00,1,00,1",,"01,9",,,,"99999,9,08224,1","2,1,020,1,-010,1",,,"SYN100AAXX  14031 76373 32506 20000 10173 20022 38224 40174 52020 82400 90250 333 30/// 56900 59010 82623;",
"76373099999","2012-11-14T06:00:00","4","25.35","-105.75","1967.0","TEPEHUANES DGO., MX","FM-12","99999","V020","999,9,C,0000,1","22000,1,9,N","000400,1,N,1","+0120,1","+0016,1","10190,1",,,,,,"00,1,+99999,9,99,9",,"00,99,1,00,1,00,1,99999,9,00,1,00,1","0450,9","01,9",,"240,M,+0284,1","240,N,+0037,1","99999,9,08237,1","2,1,013,1,+999,9",,,"SYN106AAXX  14061 76373 32904 00000 10120 20016 38237 40190 52013 90545 333 10284 20037 30/// 55075 21200 59006;",
"76373099999","2012-11-14T15:00:00","4","25.35","-105.75","1967.0","TEPEHUANES DGO., MX","FM-12","99999","V020","999,9,C,0000,1","02100,1,9,N","027000,1,N,1","+0106,1","+0039,1","10215,1",,,,,,"05,1,+02100,1,03,1",,"05,99,1,05,1,00,1,00800,1,03,1,00,1",,"01,9",,,,"99999,9,08257,1","2,1,018,1,+010,1",,,"SYN100AAXX  14151 76373 32577 50000 10106 20039 38257 40215 52018 85030 91450 333 30/// 56090 58010 85357;",
"76373099999","2012-11-14T18:00:00","4","25.35","-105.75","1967.0","TEPEHUANES DGO., MX","FM-12","99999","V020","120,1,N,0010,1","22000,1,9,N","027000,1,N,1","+0222,1","+0033,1","10203,1",,,,,,"01,1,+00750,1,08,1",,"04,99,1,04,1,02,1,00800,1,03,1,00,1",,"01,9",,"120,M,+0230,1","240,N,+0090,1","99999,9,08247,1","7,1,010,1,+017,1",,,"SYN118AAXX  14181 76373 32577 41201 10222 20033 38247 40203 57010 84230 91750 333 10230 20090 30/// 56990 58017 81825 83357;",
"76373099999","2012-11-14T21:00:00","4","25.35","-105.75","1967.0","TEPEHUANES DGO., MX","FM-12","99999","V020","310,1,N,0010,1","22000,1,9,N","027000,1,N,1","+0255,1","+0029,1","10164,1",,,,,,"01,1,+00690,1,06,1",,"04,99,1,04,1,04,1,00800,1,00,1,00,1",,"01,9",,,,"99999,9,08216,1","7,1,031,1,+019,1",,,"SYN100AAXX  14211 76373 32577 43101 10255 20029 38216 40164 57031 84400 92050 333 30/// 56900 58019 81623;",
"76373099999","2012-11-15T00:00:00","4","25.35","-105.75","1967.0","TEPEHUANES DGO., MX","FM-12","99999","V020","280,1,N,0010,1","22000,1,9,N","027000,1,N,1","+0221,1","+0040,1","10164,1","24,0000,9,1",,,,,,,"02,99,1,01,1,02,1,00800,1,00,1,04,1",,"01,9",,"120,M,+0278,1","180,N,+0090,1","99999,9,08216,1","0,1,000,1,+012,1",,,"SYN124AAXX  15001 76373 32577 22801 10221 20040 38216 40164 50000 81204 92350 333 10278 20090 30/// 50491 56909 58012 70000 81830;",
"76373099999","2012-11-15T03:00:00","4","25.35","-105.75","1967.0","TEPEHUANES DGO., MX","FM-12","99999","V020","999,9,C,0000,1","22000,1,9,N","000400,1,N,1","+0160,1","+0052,1","10188,1",,,,,,"00,1,+99999,9,99,9",,"00,99,1,00,1,00,1,99999,9,00,1,00,1",,"01,9",,,,"99999,9,08236,1","2,1,020,1,+012,1",,,"SYN082AAXX  15031 76373 32904 00000 10160 20052 38236 40188 52020 90250 333 30/// 58012;",
"76373099999","2012-11-15T06:00:00","4","25.35","-105.75","1967.0","TEPEHUANES DGO., MX","FM-12","99999","V020","999,9,C,0000,1","22000,1,9,N","000400,1,N,1","+0122,1","+0047,1","10191,1",,,,,,"00,1,+99999,9,99,9",,"00,99,1,00,1,00,1,99999,9,00,1,00,1","0510,9","01,9",,"240,M,+0278,1","240,N,+0090,1","99999,9,08238,1","0,1,002,1,+999,9",,,"SYN106AAXX  15061 76373 32904 00000 10122 20047 38238 40191 50002 90550 333 10278 20090 30/// 55085 21361 58001;",
"76373099999","2012-11-15T12:00:00","4","25.35","-105.75","1967.0","TEPEHUANES DGO., MX","FM-12","99999","V020","999,9,C,0000,1","22000,1,9,N","000600,1,N,1","+0075,1","+9999,9","10186,1","24,0000,9,1",,,,,"00,1,+99999,9,99,9",,"00,99,1,00,1,00,1,99999,9,00,1,00,1",,"01,9",,"120,N,+0067,1","240,M,+0278,1","99999,9,08234,1","9,9,999,9,-005,1",,,"SYN100AAXX  15121 76373 32906 00000 10075 20081 38234 40186 5//// 91150 333 10278 20067 30053 59005 70000;","Q01  00002PRCP24"
"76373099999","2012-11-15T15:00:00","4","25.35","-105.75","1967.0","TEPEHUANES DGO., MX","FM-12","99999","V020","999,9,C,0000,1","22000,1,9,N","027000,1,N,1","+0100,1","+0055,1","10208,1",,,,,,"02,1,+05100,1,00,1",,"02,99,1,00,1,00,1,99999,9,00,1,04,1",,"01,9",,,,"99999,9,08252,1","2,1,018,1,-005,1",,,"SYN100AAXX  15151 76373 32977 20000 10100 20055 38252 40208 52018 80004 91450 333 30/// 56909 59005 82067;",
"76373099999","2012-11-15T18:00:00","4","25.35","-105.75","1967.0","TEPEHUANES DGO., MX","FM-12","99999","V020","070,1,N,0010,1","22000,1,9,N","030000,1,N,1","+0232,1","+0055,1","10188,1",,,,,,"02,1,+05100,1,00,1",,"02,99,1,00,1,00,1,99999,9,00,1,02,1",,"01,9",,"120,M,+0240,1","240,N,+0067,1","99999,9,08236,1","7,1,020,1,-009,1",,,"SYN112AAXX  15181 76373 32980 20701 10232 20055 38236 40188 57020 80002 91755 333 10240 20067 30/// 56009 59009 82067;",
"76373099999","2012-11-15T21:00:00","4","25.35","-105.75","1967.0","TEPEHUANES DGO., MX","FM-12","99999","V020","320,1,N,0020,1","22000,1,9,N","030000,1,N,1","+0264,1","+0025,1","10152,1",,,,,,"01,1,+00750,1,08,1","01,1,+01050,1,03,1","04,99,1,02,1,01,1,00800,1,01,1,02,1",,"01,9",,,,"99999,9,08207,1","7,1,029,1,-009,1",,,"SYN112AAXX  15211 76373 32580 43202 10264 20025 38207 40152 57029 82112 92050 333 30/// 56999 59009 81825 81335 82060;",
"76373099999","2012-11-16T03:00:00","4","25.35","-105.75","1967.0","TEPEHUANES DGO., MX","FM-12","99999","V020","320,1,N,0010,1","22000,1,9,N","001000,1,N,1","+0172,1","+0032,1","10178,1",,,,,,"01,1,+00750,1,08,1","01,1,+01110,1,03,1","04,99,1,02,1,01,1,00800,1,01,1,02,1",,"01,9",,,,"99999,9,08228,1","2,1,018,1,-008,1",,,"SYN112AAXX  16031 76373 32510 43201 10172 20032 38228 40178 52018 82112 90250 333 30/// 56999 59008 81825 81337 82067;",
"76373099999","2012-11-16T06:00:00","4","25.35","-105.75","1967.0","TEPEHUANES DGO., MX","FM-12","99999","V020","320,1,N,0010,1","22000,1,9,N","001000,1,N,1","+0130,1","+0032,1","10188,1",,,,,,"01,1,+00600,1,08,1","01,1,+01110,1,03,1","04,99,1,02,1,01,1,00800,1,01,1,02,1","0486,9","01,9",,"240,M,+0280,1","240,N,+0067,1","99999,9,08235,1","2,1,007,1,-003,1",,,"SYN136AAXX  16061 76373 32510 43201 10130 20032 38235 40188 52007 82112 90555 333 10280 20067 30/// 55081 21611 56999 59003 81820 81337 82067;",
"76373099999","2012-11-16T12:00:00","4","25.35","-105.75","1967.0","TEPEHUANES DGO., MX","FM-12","99999","V020","320,1,N,0010,1","22000,1,9,N","001000,1,N,1","+0086,1","+0036,1","10189,1","24,0000,9,1",,,,,"01,1,+00750,1,08,1","01,1,+01110,1,03,1","03,99,1,02,1,01,1,00800,1,01,1,01,1",,"01,9",,"120,N,+0060,1","240,M,+0290,1","99999,9,08237,1","9,9,999,9,+003,1",,,"SYN130AAXX  16121 76373 32510 33201 10086 20036 38237 40189 5//// 82111 91155 333 10290 20060 30052 56999 58003 70000 81825 81337 81067;",
"76373099999","2012-11-16T15:00:00","4","25.35","-105.75","1967.0","TEPEHUANES DGO., MX","FM-12","99999","V020","320,1,N,0010,1","00600,1,9,N","030000,1,N,1","+0102,1","+0043,1","10203,1",,,,,,"08,1,+00600,1,07,1",,"08,99,1,08,1,08,1,00800,1,00,1,00,1",,"01,9",,,,"99999,9,08248,1","2,1,011,1,-004,1",,,"SYN100AAXX  16151 76373 32580 83201 10102 20043 38248 40203 52011 88800 91450 333 30/// 56900 59004 88720;",
"76373099999","2012-11-16T18:00:00","4","25.35","-105.75","1967.0","TEPEHUANES DGO., MX","FM-12","99999","V020","140,1,N,0010,1","00750,1,9,N","030000,1,N,1","+0190,1","+0057,1","10199,1",,,,,,"08,1,+00750,1,07,1",,"08,99,1,08,1,08,1,00800,1,00,1,00,1",,"01,9",,"120,M,+0196,1","240,N,+0060,1","99999,9,08244,1","7,1,004,1,+008,1",,,"SYN112AAXX  16181 76373 32580 81401 10190 20057 38244 40199 57004 88800 91755 333 10196 20060 30/// 56900 58008 88725;",
"76373099999","2012-11-16T21:00:00","4","25.35","-105.75","1967.0","TEPEHUANES DGO., MX","FM-12","99999","V020","140,1,N,0010,1","22000,1,9,N","030000,1,N,1","+0252,1","+0056,1","10168,1",,,,,,"01,1,+00750,1,08,1","01,1,+01110,1,03,1","04,99,1,02,1,01,1,00800,1,01,1,02,1",,"01,9",,,,"99999,9,08220,1","7,1,024,1,+013,1",,,"SYN112AAXX  16211 76373 32580 41401 10252 20056 38220 40168 57024 82112 92055 333 30/// 56999 58013 81825 81337 82067;",
"76373099999","2012-11-17T00:00:00","4","25.35","-105.75","1967.0","TEPEHUANES DGO., MX","FM-12","99999","V020","140,1,N,0010,1","22000,1,9,N","030000,1,N,1","+0226,1","+0059,1","10149,1","24,0000,9,1",,,,,"01,1,+01110,1,03,1",,"03,99,1,01,1,00,1,00800,1,01,1,02,1",,"01,9",,"120,M,+0270,1","180,N,+0060,1","99999,9,08204,1","7,1,016,1,-006,1",,,"SYN130AAXX  17001 76373 32580 31401 10226 20059 38204 40149 57016 81012 92355 333 10270 20060 30/// 50281 56099 59006 70000 81337 82067;",
"76373099999","2012-11-17T03:00:00","4","25.35","-105.75","1967.0","TEPEHUANES DGO., MX","FM-12","99999","V020","290,1,N,0010,1","22000,1,9,N","001000,1,N,1","+0158,1","+0054,1","10178,1",,,,,,"01,1,+00750,1,08,1","02,1,+01110,1,03,1","04,99,1,03,1,01,1,00800,1,02,1,01,1",,"01,9",,,,"99999,9,08228,1","2,1,024,1,+000,1",,,"SYN112AAXX  17031 76373 32510 42901 10158 20054 38228 40178 52024 83121 90255 333 30/// 56999 58000 81825 82337 81067;",
"76373099999","2012-11-17T06:00:00","4","25.35","-105.75","1967.0","TEPEHUANES DGO., MX","FM-12","99999","V020","290,1,N,0010,1","22000,1,9,N","001000,1,N,1","+0118,1","+0044,1","10195,1",,,,,,"00,1,+99999,9,99,9",,"00,99,1,00,1,00,1,99999,9,00,1,00,1","0306,9","01,9",,"240,M,+0270,1","240,N,+0060,1","99999,9,08241,1","2,1,013,1,+999,9",,,"SYN106AAXX  17061 76373 32910 02901 10118 20044 38241 40195 52013 90550 333 10270 20060 30/// 55051 21288 58006;",
"76373099999","2012-11-17T12:00:00","4","25.35","-105.75","1967.0","TEPEHUANES DGO., MX","FM-12","99999","V020","999,9,C,0000,1","22000,1,9,N","001000,1,N,1","+0056,1","+0033,1","10191,1","24,0000,9,1",,,,,"00,1,+99999,9,99,9",,"00,99,1,00,1,00,1,99999,9,00,1,00,1",,"01,9","999,+0030,9","120,N,+0042,1","240,M,+0270,1","99999,9,08238,1","9,9,999,9,+001,1",,,"SYN100AAXX  17121 76373 32910 00000 10056 20033 38238 40191 5//// 91155 333 10270 20042 30030 58001 70000;","Q01  00002PRCP24"
"76373099999","2012-11-17T18:00:00","4","25.35","-105.75","1967.0","TEPEHUANES DGO., MX","FM-12","99999","V020","999,9,C,0000,1","22000,1,9,N","020000,1,N,1","+0218,1","+0065,1","10194,1",,,,,,"00,1,+99999,9,99,9",,"00,99,1,00,1,00,1,99999,9,00,1,00,1",,"01,9",,"120,M,+0228,1","240,N,+0042,1","99999,9,08241,1","7,1,011,1,-003,1",,,"SYN094AAXX  17181 76373 32970 00000 10218 20065 38241 40194 57011 91750 333 10228 20042 30/// 59003;",
"76373099999","2012-11-17T21:00:00","4","25.35","-105.75","1967.0","TEPEHUANES DGO., MX","FM-12","99999","V020","160,1,N,0010,1","03600,1,C,N","020000,1,N,1","+0249,1","+0060,1","10159,1",,,,,,"02,1,+00810,1,08,1",,"08,99,1,02,1,03,1,00800,1,02,1,00,1",,"01,9",,,,"99999,9,08212,1","7,1,039,1,-008,1",,,"SYN106AAXX  17211 76373 32570 81601 10249 20060 38212 40159 57039 82320 92050 333 30/// 56990 59008 82827 86456;",
"76373099999","2012-11-18T00:00:00","4","25.35","-105.75","1967.0","TEPEHUANES DGO., MX","FM-12","99999","V020","230,1,N,0010,1","22000,1,9,N","020000,1,N,1","+0229,1","+0040,1","10160,1","24,0000,9,1",,,,,,,"02,99,1,02,1,03,1,00800,1,00,1,00,1",,"01,9",,"120,M,+0275,1","180,N,+0042,1","99999,9,08213,1","2,1,001,1,+009,1",,,"SYN124AAXX  18001 76373 32570 22301 10229 20040 38213 40160 52001 82300 92350 333 10275 20042 30/// 50381 56900 58009 70000 82827;",
"76373099999","2012-11-18T06:00:00","4","25.35","-105.75","1967.0","TEPEHUANES DGO., MX","FM-12","99999","V020","999,9,C,0000,1","22000,1,9,N","005000,1,N,1","+0111,1","+0049,1","10189,1",,,,,,"00,1,+99999,9,99,9",,"00,99,1,00,1,00,1,99999,9,00,1,00,1","0474,9","01,9",,"240,M,+0275,1","240,N,+0042,1","99999,9,08236,1","2,1,023,1,+999,9",,,"SYN106AAXX  18061 76373 32950 00000 10111 20049 38236 40189 52023 90550 333 10275 20042 30/// 55079 21329 58005;",
"76373099999","2012-11-18T15:00:00","4","25.35","-105.75","1967.0","TEPEHUANES DGO., MX","FM-12","99999","V020","999,9,C,0000,1","22000,1,9,N","020000,1,N,1","+0079,1","+0048,1","10193,1",,,,,,"00,1,+99999,9,99,9",,"00,99,1,00,1,00,1,99999,9,00,1,00,1",,"01,9",,,,"99999,9,08240,1","2,1,010,1,-012,1",,,"SYN082AAXX  18151 76373 32970 00000 10079 20048 38240 40193 52010 91450 333 30/// 59012;",
"76373099999","2012-11-18T18:00:00","4","25.35","-105.75","1967.0","TEPEHUANES DGO., MX","FM-12","99999","V020","999,9,C,0000,1","22000,1,9,N","020000,1,N,1","+0232,1","+0045,1","10185,1",,,,,,,,"04,99,1,99,9,05,1,00800,1,00,1,00,1",,"01,9",,"120,M,+0240,1","240,N,+0036,1","99999,9,08233,1","7,1,007,1,-008,1",,,"SYN106AAXX  18181 76373 32570 40000 10232 20045 38233 40185 57007 83500 91750 333 10240 20036 30/// 56900 59008;","Q01+000032SCOTLC"
"76373099999","2012-11-18T21:00:00","4","25.35","-105.75","1967.0","TEPEHUANES DGO., MX","FM-12","99999","V020","250,1,N,0020,1","22000,1,9,N","020000,1,N,1","+0253,2","+0012,1","10165,1",,,,,,"03,1,+00810,1,08,1",,"03,99,1,03,1,05,1,00800,1,00,1,00,1",,"01,9",,,,"99999,9,08217,1","7,1,016,1,+005,1",,,"SYN100AAXX  18211 76373 32570 32502 10253 20012 38217 40165 57016 83500 92050 333 30/// 56900 58005 83827;",
"76373099999","2012-11-19T00:00:00","4","25.35","-105.75","1967.0","TEPEHUANES DGO., MX","FM-12","99999","V020","320,1,N,0010,1","22000,1,9,N","020000,1,N,1","+0213,1","+0024,1","10176,1","24,0000,9,1",,,,,,,"04,99,1,04,1,07,1,00800,1,00,1,00,1",,"01,9",,"120,M,+0268,1","180,N,+0036,1","99999,9,08226,1","2,1,009,1,+013,1",,,"SYN124AAXX  19001 76373 32570 43201 10213 20024 38226 40176 52009 84700 92350 333 10268 20036 30/// 50391 56900 58013 70000 84627;",
"76373099999","2012-11-19T03:00:00","4","25.35","-105.75","1967.0","TEPEHUANES DGO., MX","FM-12","99999","V020","999,9,C,0000,1","22000,1,9,N","005000,1,N,1","+0158,1","+0036,1","10196,1",,,,,,"01,1,+00810,1,06,1",,"01,99,1,01,1,07,1,00800,1,00,1,00,1",,"01,9",,,,"99999,9,08242,1","2,1,016,1,+016,1",,,"SYN100AAXX  19031 76373 32550 10000 10158 20036 38242 40196 52016 81700 90250 333 30/// 56900 58016 81627;",
"76373099999","2012-11-19T06:00:00","4","25.35","-105.75","1967.0","TEPEHUANES DGO., MX","FM-12","99999","V020","999,9,C,0000,1","22000,1,9,N","005000,1,N,1","+0092,1","+0033,1","10203,1",,,,,,"00,1,+99999,9,99,9",,"00,99,1,00,1,00,1,99999,9,00,1,00,1","0486,9","01,9",,"240,M,+0268,1","240,N,+0036,1","99999,9,08249,1","2,1,007,1,+999,9",,,"SYN106AAXX  19061 76373 32950 00000 10092 20033 38249 40203 52007 90550 333 10268 20036 30/// 55081 21313 58013;",
"76373099999","2012-11-20T21:00:00","4","25.35","-105.75","1967.0","TEPEHUANES DGO., MX","FM-12","99999","V020","140,1,N,0010,1","00750,1,9,N","027000,1,N,1","+0239,1","+0061,1","10157,1",,,,,,"07,1,+00750,1,06,1",,"07,99,1,07,1,05,1,00800,1,00,1,00,1",,"01,9",,,,"99999,9,08210,1",,,,"SYN100AAXX  20211 76373 32577 71401 10239 20061 38210 40157 5//// 87500 92050 333 30/// 56900 58/// 87625;",
"76373099999","2012-11-21T00:00:00","4","25.35","-105.75","1967.0","TEPEHUANES DGO., MX","FM-12","99999","V020","150,1,N,0010,1","00690,1,C,N","027000,1,N,1","+0224,1","+0058,1","10154,1","24,0000,9,1",,,,,"05,1,+00690,1,06,1",,"08,99,1,08,1,05,1,00800,1,00,1,00,1",,"01,9",,"120,M,+0280,1","180,N,+0045,1","99999,9,08208,1","5,1,002,1,+999,9",,,"SYN130AAXX  21001 76373 32577 81501 10224 20058 38208 40154 55002 88500 92350 333 10280 20045 30/// 50201 56900 58/// 70000 85623 83723;",
"76373099999","2012-11-21T03:00:00","4","25.35","-105.75","1967.0","TEPEHUANES DGO., MX","FM-12","99999","V020","999,9,C,0000,1","00690,1,9,N","000400,1,N,1","+0179,1","+0064,1","10177,1",,,,,,"07,1,+00690,1,07,1",,"07,99,1,07,1,07,1,00800,1,00,1,00,1",,"01,9",,,,"99999,9,08227,1","2,1,028,1,+999,9",,,"SYN100AAXX  21031 76373 32504 70000 10179 20064 38227 40177 52028 87700 90250 333 30/// 56900 58/// 87723;",
"76373099999","2012-11-21T06:00:00","4","25.35","-105.75","1967.0","TEPEHUANES DGO., MX","FM-12","99999","V020","999,9,C,0000,1","22000,1,9,N","000400,1,N,1","+0148,1","+0065,1","10182,1",,,,,,,,"04,99,1,04,1,04,1,00800,1,00,1,00,1",,"01,9",,"240,M,+0280,1","240,N,+0045,1","99999,9,08231,1","2,1,004,1,+999,9",,,"SYN124AAXX  21061 76373 32504 40000 10148 20065 38231 40182 52004 84400 90545 333 10280 20045 30/// 55/// 21224 56900 58/// 84623;",
"76373099999","2012-11-21T12:00:00","4","25.35","-105.75","1967.0","TEPEHUANES DGO., MX","FM-12","99999","V020","999,9,C,0000,1","22000,1,9,N","000600,1,N,1","+0086,1","+0056,1","10184,1",,,,,,"01,1,+05100,1,00,1",,"01,99,1,00,1,00,1,99999,9,00,1,04,1",,"01,9",,"120,N,+0080,1","240,M,+0280,1","99999,9,08232,1",,,,"SYN112AAXX  21121 76373 32906 10000 10086 20056 38232 40184 5//// 80004 91150 333 10280 20080 30068 56009 58/// 81067;",
"76373099999","2012-11-21T15:00:00","4","25.35","-105.75","1967.0","TEPEHUANES DGO., MX","FM-12","99999","V020","999,9,C,0000,1","00690,1,9,N","027000,1,N,1","+0097,1","+0062,1","10207,1",,,,,,"05,1,+00690,1,06,1",,"05,99,1,05,1,05,1,00800,1,00,1,00,1",,"01,9",,,,"99999,9,08251,1","2,1,019,1,+999,9",,,"SYN100AAXX  21151 76373 32577 50000 10097 20062 38251 40207 52019 85500 91450 333 30/// 56900 58/// 85623;",
"76373099999","2012-11-21T18:00:00","4","25.35","-105.75","1967.0","TEPEHUANES DGO., MX","FM-12","99999","V020","999,9,C,0000,1","00750,1,9,N","027000,1,N,1","+0185,1","+0084,1","10196,1",,,,,,"03,1,+00690,1,06,1",,"05,99,1,05,1,04,1,00800,1,00,1,00,1",,"01,9",,"120,M,+0192,1","240,N,+0080,1","99999,9,08242,1","7,1,009,1,+999,9",,,"SYN118AAXX  21181 76373 32577 50000 10185 20084 38242 40196 57009 85400 91750 333 10192 20080 30/// 56900 58/// 83623 82825;",
"76373099999","2012-11-21T21:00:00","4","25.35","-105.75","1967.0","TEPEHUANES DGO., MX","FM-12","99999","V020","080,1,N,0010,1","22000,1,9,N","027000,1,N,1","+0262,1","+0058,1","10152,1",,,,,,"03,1,+00690,1,06,1",,"04,99,1,04,1,04,1,00800,1,00,1,00,1",,"01,9",,,,"99999,9,08207,1","7,1,035,1,-003,1",,,"SYN106AAXX  21211 76373 32577 40801 10262 20058 38207 40152 57035 84400 92050 333 30/// 56900 59003 83623 81825;",
"76373099999","2012-11-22T00:00:00","4","25.35","-105.75","1967.0","TEPEHUANES DGO., MX","FM-12","99999","V020","230,1,N,0010,1","22000,1,9,N","027000,1,N,1","+0215,1","+0005,1","10153,1","24,0000,9,1",,,,,,,"02,99,1,01,1,02,1,00800,1,00,1,04,1",,"01,9",,"120,M,+0268,1","180,N,+0080,1","99999,9,08207,1","5,1,000,1,-001,1",,,"SYN124AAXX  22001 76373 32577 22301 10215 20005 38207 40153 55000 81204 92350 333 10268 20080 30/// 50311 56909 59001 70000 81830;",
"76373099999","2012-11-22T03:00:00","4","25.35","-105.75","1967.0","TEPEHUANES DGO., MX","FM-12","99999","V020","999,9,C,0000,1","22000,1,9,N","000400,1,N,1","+0142,1","+0023,1","10175,1",,,,,,"00,1,+99999,9,99,9",,"00,99,1,00,1,00,1,99999,9,00,1,00,1",,"01,9",,,,"99999,9,08225,1","2,1,018,1,-002,1",,,"SYN082AAXX  22031 76373 32904 00000 10142 20023 38225 40175 52018 90250 333 30/// 59002;",
"76373099999","2012-11-22T06:00:00","4","25.35","-105.75","1967.0","TEPEHUANES DGO., MX","FM-12","99999","V020","999,9,C,0000,1","22000,1,9,N","000400,1,N,1","+0097,1","+0029,1","10181,1",,,,,,"00,1,+99999,9,99,9",,"00,99,1,00,1,00,1,99999,9,00,1,00,1","0426,9","01,9",,"240,M,+0268,1","240,N,+0080,1","99999,9,08230,1","7,1,025,1,+999,9",,,"SYN106AAXX  22061 76373 32904 00000 10097 20029 38230 40181 57025 90540 333 10268 20080 30/// 55071 21135 59001;",
"76373099999","2012-11-22T12:00:00","4","25.35","-105.75","1967.0","TEPEHUANES DGO., MX","FM-12","99999","V020","999,9,C,0000,1","22000,1,9,N","000400,1,N,1","+0036,1","+0016,1","10180,1","24,0000,9,1",,,,,"00,1,+99999,9,99,9",,"00,99,1,00,1,00,1,99999,9,00,1,00,1",,"01,9","999,+0016,9","120,N,+0030,1","240,M,+0268,1","99999,9,08229,1","9,9,999,9,-003,1",,,"SYN100AAXX  22121 76373 32904 00000 10036 20016 38229 40180 5//// 91150 333 10268 20030 30016 59003 70000;","Q01  00002PRCP24"
"76373099999","2012-11-22T15:00:00","4","25.35","-105.75","1967.0","TEPEHUANES DGO., MX","FM-12","99999","V020","999,9,C,0000,1","05100,1,9,N","027000,1,N,1","+0053,1","+0021,1","10202,1",,,,,,"06,1,+05100,1,00,1",,"06,99,1,00,1,00,1,99999,9,00,1,04,1",,"01,9",,,,"99999,9,08247,1","2,1,018,1,-004,1",,,"SYN100AAXX  22151 76373 32977 60000 10053 20021 38247 40202 52018 80004 91450 333 30/// 56009 59004 86067;",
"76373099999","2012-11-22T18:00:00","4","25.35","-105.75","1967.0","TEPEHUANES DGO., MX","FM-12","99999","V020","110,1,N,0010,1","03600,1,C,N","030000,1,N,1","+0198,1","+0037,1","10190,1",,,,,,"01,1,+00750,1,08,1","02,1,+00900,1,03,1","05,99,1,03,1,01,1,00800,1,02,1,02,1",,"01,9",,"120,M,+0200,1","240,N,+0030,1","99999,9,08237,1","7,1,010,1,-005,1",,,"SYN124AAXX  22181 76373 32580 51101 10198 20037 38237 40190 57010 83122 91755 333 10200 20030 30/// 56999 59005 81825 82330 82060;",
"76373099999","2012-11-22T21:00:00","4","25.35","-105.75","1967.0","TEPEHUANES DGO., MX","FM-12","99999","V020","290,1,N,0010,1","00750,1,9,N","030000,1,N,1","+0232,2","+0015,1","10149,1",,,,,,"02,1,+00600,1,07,1","04,1,+00750,1,06,1","07,99,1,07,1,06,1,00800,1,01,1,00,1",,"01,9",,,,"99999,9,08204,1","7,1,033,1,-007,1",,,"SYN112AAXX  22211 76373 32580 72901 10232 20015 38204 40149 57033 87610 92050 333 30/// 56990 59007 82720 84625 81337;",
"76373099999","2012-11-23T00:00:00","4","25.35","-105.75","1967.0","TEPEHUANES DGO., MX","FM-12","99999","V020","290,1,N,0020,1","00750,1,9,N","030000,1,N,1","+0196,1","+0001,1","10158,1","24,0000,9,1",,,,,"04,1,+00600,1,06,1",,"05,99,1,05,1,04,1,00800,1,01,1,00,1",,"01,9",,"120,M,+0250,1","180,N,+0030,1","99999,9,08212,1","2,1,012,1,+005,1",,,"SYN130AAXX  23001 76373 32580 52902 10196 20001 38212 40158 52012 85410 92355 333 10250 20030 30/// 50461 56990 58005 70000 84620 81337;",
"76373099999","2012-11-23T03:00:00","4","25.35","-105.75","1967.0","TEPEHUANES DGO., MX","FM-12","99999","V020","290,1,N,0010,1","22000,1,9,N","001000,1,N,1","+0124,1","+0027,1","10182,1",,,,,,"02,1,+00600,1,06,1",,"04,99,1,04,1,04,1,00800,1,00,1,00,1",,"01,9",,,,"99999,9,08230,1","2,1,018,1,+005,1",,,"SYN106AAXX  23031 76373 32510 42901 10124 20027 38230 40182 52018 84400 90255 333 30/// 56900 58005 82620 82825;",
"76373099999","2012-11-23T12:00:00","4","25.35","-105.75","1967.0","TEPEHUANES DGO., MX","FM-12","99999","V020","110,1,N,0010,1","22000,1,9,N","001000,1,N,1","+0032,1","+0018,1","10205,1","24,0000,9,1",,,,,"01,1,+00600,1,08,1","01,1,+01110,1,03,1","03,99,1,99,9,99,9,00800,1,99,9,99,9","0324,9","01,9","999,+0018,9","120,N,+0024,1","240,M,+0250,1","99999,9,08249,1","9,9,999,9,+020,1",,,"SYN136AAXX  23121 76373 32510 31101 10032 20018 38249 40205 5//// 91155 333 10250 20024 30018 55054 21006 56999 58020 70000 81820 81337 81060;",
"76373099999","2012-11-23T15:00:00","4","25.35","-105.75","1967.0","TEPEHUANES DGO., MX","FM-12","99999","V020","140,1,N,0010,1","22000,1,9,N","015000,1,N,1","+0076,1","+0037,1","10219,1",,,,,,"01,1,+00750,1,08,1",,"03,99,1,03,1,01,1,00800,1,02,1,00,1",,"01,9",,,,"99999,9,08261,1","2,1,012,1,+014,1",,,"SYN106AAXX  23151 76373 32565 31401 10076 20037 38261 40219 52012 83120 91455 333 30/// 56990 58014 81825 82337;",
"76373099999","2012-11-23T18:00:00","4","25.35","-105.75","1967.0","TEPEHUANES DGO., MX","FM-12","99999","V020","110,1,N,0010,1","22000,1,9,N","030000,1,N,1","+0200,1","+0049,1","10211,1",,,,,,"02,1,+00750,1,06,1",,"03,99,1,03,1,02,1,00800,1,01,1,00,1",,"01,9",,"120,M,+0204,1","240,N,+0024,1","99999,9,08254,1","7,1,007,1,+017,1",,,"SYN118AAXX  23181 76373 32580 31101 10200 20049 38254 40211 57007 83210 91750 333 10204 20024 30/// 56990 58017 82625 81337;",
"76373099999","2012-11-23T21:00:00","4","25.35","-105.75","1967.0","TEPEHUANES DGO., MX","FM-12","99999","V020","140,1,N,0020,1","00750,1,9,N","030000,1,N,1","+0228,1","+0059,1","10178,1",,,,,,"02,1,+00600,1,07,1",,"05,99,1,05,1,05,1,00800,1,00,1,00,1",,"01,9",,,,"99999,9,08228,1","7,1,026,1,+024,1",,,"SYN106AAXX  23211 76373 32580 51402 10228 20059 38228 40178 57026 85500 92050 333 30/// 56900 58024 82720 83625;",
"76373099999","2012-11-24T00:00:00","4","25.35","-105.75","1967.0","TEPEHUANES DGO., MX","FM-12","99999","V020","070,1,N,0010,1","00750,1,9,N","030000,1,N,1","+0188,1","+0037,1","10180,1","24,0000,9,1",,,,,"02,1,+00600,1,07,1",,"07,99,1,07,1,07,1,00800,1,00,1,00,1",,"01,9",,"120,M,+0240,1","180,N,+0024,1","99999,9,08229,1","1,1,001,1,+017,1",,,"SYN130AAXX  24001 76373 32580 70701 10188 20037 38229 40180 51001 87700 92350 333 10240 20024 30/// 50321 56900 58017 70000 82720 85625;",
"76373099999","2012-11-24T03:00:00","4","25.35","-105.75","1967.0","TEPEHUANES DGO., MX","FM-12","99999","V020","200,1,N,0010,1","00750,1,9,N","001000,1,N,1","+0134,1","+0052,1","10215,1",,,,,,"07,1,+00750,1,06,1",,"07,99,1,07,1,07,1,00800,1,00,1,00,1",,"01,9",,,,"99999,9,08257,1","2,1,028,1,+027,1",,,"SYN100AAXX  24031 76373 32510 72001 10134 20052 38257 40215 52028 87700 90255 333 30/// 56900 58027 87625;",
"76373099999","2012-11-24T06:00:00","4","25.35","-105.75","1967.0","TEPEHUANES DGO., MX","FM-12","99999","V020","290,1,N,0010,1","22000,1,9,N","001000,1,N,1","+0104,1","+0051,1","10180,1",,,,,,,,"03,99,1,03,1,03,1,00800,1,00,1,00,1","0432,9","01,9",,"240,M,+0240,1","240,N,+0024,1","99999,9,08229,1","7,1,029,1,-013,1",,,"SYN124AAXX  24061 76373 32510 32901 10104 20051 38229 40180 57029 83300 90555 333 10240 20024 30/// 55072 21087 56900 59013 83725;",
"76373099999","2012-11-24T15:00:00","4","25.35","-105.75","1967.0","TEPEHUANES DGO., MX","FM-12","99999","V020","290,1,N,0010,1","22000,1,9,N","020000,1,N,1","+0068,1","+0045,1","10226,1",,,,,,"03,1,+00600,1,06,1",,"03,99,1,03,1,03,1,00800,1,00,1,00,1",,"01,9",,,,"99999,9,08266,1","2,1,004,1,+005,1",,,"SYN100AAXX  24151 76373 32570 32901 10068 20045 38266 40226 52004 83300 91450 333 30/// 56900 58005 83620;",
"76373099999","2012-11-24T18:00:00","4","25.35","-105.75","1967.0","TEPEHUANES DGO., MX","FM-12","99999","V020","140,1,N,0010,1","22000,1,9,N","020000,1,N,1","+0177,1","+0072,1","99999,9",,,,,,"01,1,+00810,1,08,1",,"01,99,1,01,1,02,1,00800,1,00,1,00,1",,"01,9",,"120,M,+0181,1","240,N,+0032,1",,"7,1,080,2,-058,1",,,"SYN112AAXX  24181 76373 32570 11401 10177 20072 38186 40126 57080 81200 91750 333 10181 20032 30/// 56900 59058 81827;","Q01+081863APOSP "
"76373099999","2012-11-24T21:00:00","4","25.35","-105.75","1967.0","TEPEHUANES DGO., MX","FM-12","99999","V020","140,1,N,0010,1","22000,1,9,N","020000,1,N,1","+0207,1","+0071,1","10165,1",,,,,,"01,1,+00810,1,08,1",,"01,99,1,01,1,03,1,00800,1,00,1,00,1",,"01,9",,,,"99999,9,08217,1","7,1,035,1,-011,1",,,"SYN100AAXX  24211 76373 32570 11401 10207 20071 38217 40165 57035 81300 92050 333 30/// 56900 59011 81827;",
"76373099999","2012-11-25T00:00:00","4","25.35","-105.75","1967.0","TEPEHUANES DGO., MX","FM-12","99999","V020","140,1,N,0010,1","00750,1,9,N","020000,1,N,1","+0173,1","+0071,1","10157,1","24,0000,9,1",,,,,,,"05,99,1,05,1,06,1,00800,1,00,1,00,1",,"01,9",,"120,M,+0220,1","180,N,+0032,1","99999,9,08211,1","7,1,006,1,-018,1",,,"SYN124AAXX  25001 76373 32570 51401 10173 20071 38211 40157 57006 85600 92350 333 10220 20032 30/// 50211 56900 59018 70000 85827;",
"76373099999","2012-11-25T06:00:00","4","25.35","-105.75","1967.0","TEPEHUANES DGO., MX","FM-12","99999","V020","999,9,C,0000,1","22000,1,9,N","005000,1,N,1","+0078,1","+0049,1","10187,1",,,,,,"00,1,+99999,9,99,9",,"00,99,1,00,1,00,1,99999,9,00,1,00,1","0498,9","01,9",,"240,M,+0220,1","240,N,+0032,1","99999,9,08234,1","2,1,020,1,+999,9",,,"SYN106AAXX  25061 76373 32950 00000 10078 20049 38234 40187 52020 90550 333 10220 20032 30/// 55083 21611 58025;",
"76373099999","2012-11-25T15:00:00","4","25.35","-105.75","1967.0","TEPEHUANES DGO., MX","FM-12","99999","V020","999,9,C,0000,1","22000,1,9,N","020000,1,N,1","+0057,1","+0035,1","10184,1",,,,,,"00,1,+99999,9,99,9",,"00,99,1,00,1,00,1,99999,9,00,1,00,1",,"01,9",,,,"99999,9,08232,1","2,1,003,1,-034,1",,,"SYN082AAXX  25151 76373 32970 00000 10057 20035 38232 40184 52003 91450 333 30/// 59034;",
"76373099999","2012-11-25T18:00:00","4","25.35","-105.75","1967.0","TEPEHUANES DGO., MX","FM-12","99999","V020","999,9,C,0000,1","22000,1,9,N","020000,1,N,1","+0190,1","+0060,1","10170,1",,,,,,"01,1,+00810,1,08,1",,"01,99,1,01,1,03,1,00800,1,00,1,00,1",,"01,9",,"120,M,+0195,1","240,N,+0011,1","99999,9,08221,1","7,1,011,1,-031,1",,,"SYN112AAXX  25181 76373 32570 10000 10190 20060 38221 40170 57011 81300 91750 333 10195 20011 30/// 56900 59031 81827;",
"76373099999","2012-11-25T21:00:00","4","25.35","-105.75","1967.0","TEPEHUANES DGO., MX","FM-12","99999","V020","290,1,N,0010,1","00810,1,9,N","020000,1,N,1","+0226,1","+0028,1","10126,1",,,,,,"06,1,+00810,1,08,1",,"06,99,1,06,1,03,1,00800,1,00,1,00,1",,"01,9",,,,"99999,9,08181,1","7,1,036,1,-036,1",,,"SYN100AAXX  25211 76373 32570 62901 10226 20028 38181 40126 57036 86300 92050 333 30/// 56900 59036 86827;",
"76373099999","2012-11-26T00:00:00","4","25.35","-105.75","1967.0","TEPEHUANES DGO., MX","FM-12","99999","V020","290,1,N,0010,1","22000,1,9,N","020000,1,N,1","+0192,1","+0025,1","10129,1","24,0000,9,1",,,,,,,"04,99,1,04,1,03,1,00800,1,00,1,00,1",,"01,9",,"120,M,+0249,1","180,N,+0011,1","99999,9,08188,1","2,1,003,1,-023,1",,,"SYN124AAXX  26001 76373 32570 42901 10192 20025 38188 40129 52003 84300 92350 333 10249 20011 30/// 50301 56900 59023 70000 84827;",
"76373099999","2012-11-26T06:00:00","4","25.35","-105.75","1967.0","TEPEHUANES DGO., MX","FM-12","99999","V020","999,9,C,0000,1","22000,1,9,N","005000,1,N,1","+0083,1","+0033,1","10158,1",,,,,,"00,1,+99999,9,99,9",,"00,99,1,00,1,00,1,99999,9,00,1,00,1","0534,9","01,9",,"240,M,+0249,1","240,N,+0011,1","99999,9,08212,1","2,1,013,1,+999,9",,,"SYN106AAXX  26061 76373 32950 00000 10083 20033 38212 40158 52013 90550 333 10249 20011 30/// 55089 21272 59022;",
"76373099999","2012-11-27T21:00:00","4","25.35","-105.75","1967.0","TEPEHUANES DGO., MX","FM-12","99999","V020","140,1,N,0020,1","00750,1,9,N","027000,1,N,1","+0211,1","+0036,1","10183,1",,,,,,"05,1,+00750,1,06,1",,"05,99,1,05,1,04,1,00800,1,00,1,00,1",,"01,9",,,,"99999,9,08232,1",,,,"SYN100AAXX  27211 76373 32577 51402 10211 20036 38232 40183 5//// 85400 92050 333 30/// 56900 58/// 85625;",
"76373099999","2012-11-28T00:00:00","4","25.35","-105.75","1967.0","TEPEHUANES DGO., MX","FM-12","99999","V020","150,1,N,0010,1","22000,1,9,N","027000,1,N,1","+0179,1","+0049,1","10170,1","24,0000,9,1",,,,,,,"04,99,1,04,1,06,1,00800,1,00,1,00,1",,"01,9",,"120,M,+0230,1","180,N,+0030,1","99999,9,08227,1","5,1,005,1,+999,9",,,"SYN124AAXX  28001 76373 32577 41501 10179 20049 38227 40170 55005 84600 92350 333 10230 20030 30/// 5//// 56900 58/// 70000 84625;",
"76373099999","2012-11-28T03:00:00","4","25.35","-105.75","1967.0","TEPEHUANES DGO., MX","FM-12","99999","V020","999,9,C,0000,1","22000,1,9,N","000400,1,N,1","+0115,1","+0055,1","10200,1",,,,,,"01,1,+00900,1,08,1",,"01,99,1,01,1,02,1,00800,1,00,1,00,1",,"01,9",,,,"99999,9,08245,1","2,1,018,1,+999,9",,,"SYN100AAXX  28031 76373 32504 10000 10115 20055 38245 40200 52018 81200 90250 333 30/// 56900 58/// 81830;",
"76373099999","2012-11-28T06:00:00","4","25.35","-105.75","1967.0","TEPEHUANES DGO., MX","FM-12","99999","V020","999,9,C,0000,1","22000,1,9,N","000400,1,N,1","+0068,1","+0044,1","10213,1",,,,,,"00,1,+99999,9,99,9",,"00,99,1,00,1,00,1,99999,9,00,1,00,1",,"01,9",,"240,M,+0230,1","240,N,+0030,1","99999,9,08256,1","2,1,011,1,+999,9",,,"SYN106AAXX  28061 76373 32904 00000 10068 20044 38256 40213 52011 90550 333 10230 20030 30/// 55/// 2//// 58///;",
"76373099999","2012-11-28T12:00:00","4","25.35","-105.75","1967.0","TEPEHUANES DGO., MX","FM-12","99999","V020","999,9,C,0000,1","05100,1,9,N","001000,1,N,1","+0021,1","+0018,1","10221,1","24,0000,9,1",,,,,"05,1,+05100,1,02,1",,"05,99,1,00,1,00,1,99999,9,00,1,06,1",,"01,9","999,+0004,9","120,N,+0016,1","240,M,+0230,1","99999,9,08262,1",,,,"SYN118AAXX  28121 76373 32910 50000 10021 20018 38262 40221 5//// 80006 91150 333 10230 20016 30004 56009 58/// 70000 85267;",
"76373099999","2012-11-28T15:00:00","4","25.35","-105.75","1967.0","TEPEHUANES DGO., MX","FM-12","99999","V020","999,9,C,0000,1","22000,1,9,N","020000,1,N,1","+0042,1","+0035,1","10236,1",,,,,,"04,1,+05100,1,02,1",,"04,99,1,00,1,00,1,99999,9,00,1,06,1",,"01,9",,,,"99999,9,08274,1","2,1,012,1,+999,9",,,"SYN100AAXX  28151 76373 32970 40000 10042 20035 38274 40236 52012 80006 91450 333 30/// 56009 58/// 84267;",
"76373099999","2012-11-28T18:00:00","4","25.35","-105.75","1967.0","TEPEHUANES DGO., MX","FM-12","99999","V020","999,9,C,0000,1","22000,1,9,N","027000,1,N,1","+0163,1","+0058,1","10233,1",,,,,,"02,1,+05100,1,00,1",,"02,99,1,00,1,00,1,99999,9,00,1,04,1",,"01,9",,"120,M,+0170,1","240,N,+0016,1","99999,9,08272,1","8,1,002,1,+999,9",,,"SYN112AAXX  28181 76373 32977 20000 10163 20058 38272 40233 58002 80004 91750 333 10170 20016 30/// 56900 58/// 82067;",
"76373099999","2012-11-29T00:00:00","4","25.35","-105.75","1967.0","TEPEHUANES DGO., MX","FM-12","99999","V020","240,1,N,0010,1","22000,1,9,N","027000,1,N,1","+0206,1","-0035,1","10173,1","24,0000,9,1",,,,,,,"04,99,1,00,1,00,1,99999,9,00,1,04,1",,"01,9",,"120,M,+0254,1","180,N,+0016,1","99999,9,08223,1","5,1,003,1,-004,1",,,"SYN124AAXX  29001 76373 32977 42401 10206 21035 38223 40173 55003 80004 92350 333 10254 20016 30/// 50231 56009 59004 70000 81067;",
"76373099999","2012-11-29T03:00:00","4","25.35","-105.75","1967.0","TEPEHUANES DGO., MX","FM-12","99999","V020","999,9,C,0000,1","22000,1,9,N","000400,1,N,1","+0129,1","-0008,1","10195,1",,,,,,"01,1,+05100,1,00,1",,"01,99,1,00,1,00,1,99999,9,00,1,04,1",,"01,9",,,,"99999,9,08241,1","2,1,014,1,-004,1",,,"SYN100AAXX  29031 76373 32904 10000 10129 21008 38241 40195 52014 80004 90245 333 30/// 56002 59004 81067;",
"76373099999","2012-11-29T15:00:00","4","25.35","-105.75","1967.0","TEPEHUANES DGO., MX","FM-12","99999","V020","999,9,C,0000,1","22000,1,9,N","020000,1,N,1","+0056,1","+0016,1","10212,1",,,,,,"03,1,+05100,1,02,1",,"03,99,1,00,1,00,1,99999,9,00,1,06,1",,"01,9",,,,"99999,9,08255,1","2,1,011,1,-019,1",,,"SYN100AAXX  29151 76373 32970 30000 10056 20016 38255 40212 52011 80006 91450 333 30/// 56009 59019 83267;",
"76373099999","2012-11-29T21:00:00","4","25.35","-105.75","1967.0","TEPEHUANES DGO., MX","FM-12","99999","V020","200,1,N,0020,1","22000,1,9,N","030000,1,N,1","+0236,1","-0044,1","10162,1",,,,,,"02,1,+00900,1,03,1",,"04,99,1,02,1,00,1,00800,1,02,1,02,1",,"01,9",,,,"99999,9,08214,1","7,1,028,1,-012,1",,,"SYN106AAXX  29211 76373 32580 42002 10236 21044 38214 40162 57028 82022 92050 333 30/// 56099 59012 82330 82060;",
"76373099999","2012-11-30T00:00:00","4","25.35","-105.75","1967.0","TEPEHUANES DGO., MX","FM-12","99999","V020","160,1,N,0010,1","09000,1,9,N","030000,1,N,1","+0204,1","-0014,1","10155,1","24,0000,9,1",,,,,"03,1,+00900,1,03,1",,"05,99,1,03,1,00,1,00800,1,03,1,02,1",,"01,9",,"120,M,+0250,1","180,N,+0030,1","99999,9,08209,1","7,1,005,1,-014,1",,,"SYN130AAXX  30001 76373 32580 51601 10204 21014 38209 40155 57005 83032 92350 333 10250 20030 30/// 50401 56099 59014 70000 83330 82060;",
"76373099999","2012-11-30T03:00:00","4","25.35","-105.75","1967.0","TEPEHUANES DGO., MX","FM-12","99999","V020","200,1,N,0010,1","22000,1,9,N","001000,1,N,1","+0114,1","-0001,1","10182,1",,,,,,"01,1,+00900,1,03,1",,"03,99,1,01,1,00,1,00800,1,01,1,02,1",,"01,9",,,,"99999,9,08230,1","2,1,021,1,-011,1",,,"SYN106AAXX  30031 76373 32510 32001 10114 21001 38230 40182 52021 81012 90255 333 30/// 56099 59011 81330 82067;",
"76373099999","2012-11-30T06:00:00","4","25.35","-105.75","1967.0","TEPEHUANES DGO., MX","FM-12","99999","V020","140,1,N,0010,1","22000,1,9,N","001000,1,N,1","+0064,1","-0002,1","10200,1",,,,,,,,"01,99,1,00,1,00,1,99999,9,00,1,01,1","0546,9","01,9",,"240,M,+0250,1","240,N,+0030,1","99999,9,08245,1","2,1,015,1,-004,1",,,"SYN124AAXX  30061 76373 32910 11401 10064 21002 38245 40200 52015 80001 90550 333 10250 20030 30/// 55091 21450 56009 59004 81067;",
"76373099999","2012-11-30T12:00:00","4","25.35","-105.75","1967.0","TEPEHUANES DGO., MX","FM-12","99999","V020","250,1,N,0010,1","22000,1,9,N","001000,1,N,1","+0004,1","-0019,1","10200,1","24,0000,9,1",,,,,"00,1,+99999,9,99,9",,"00,99,1,00,1,00,1,99999,9,00,1,00,1",,"09,9","999,-0018,9","120,N,-0010,1","240,M,+0250,1","99999,9,08245,1","9,9,999,9,-001,1",,,"SYN100AAXX  30121 76373 32910 02501 10004 21019 38245 40200 5//// 91155 333 10250 21010 31018 59001 70000;","Q01  00002PRCP24"
"76373099999","2012-11-30T15:00:00","4","25.35","-105.75","1967.0","TEPEHUANES DGO., MX","FM-12","99999","V020","140,1,N,0010,1","22000,1,9,N","010000,1,N,1","+0032,1","-0004,1","10213,1",,,,,,"01,1,+05100,1,00,1",,"01,99,1,00,1,00,1,99999,9,00,1,01,1",,"01,9",,,,"99999,9,08256,1","2,1,011,1,+001,1",,,"SYN100AAXX  30151 76373 32960 11401 10032 21004 38256 40213 52011 80001 91450 333 30/// 56009 58001 81067;",
"76373099999","2012-11-30T18:00:00","4","25.35","-105.75","1967.0","TEPEHUANES DGO., MX","FM-12","99999","V020","290,1,N,0010,1","22000,1,9,N","030000,1,N,1","+0178,1","-0013,1","10203,1",,,,,,"02,1,+05100,1,00,1",,"02,99,1,00,1,00,1,99999,9,00,1,02,1",,"01,9",,"120,M,+0180,1","240,N,-0010,1","99999,9,08248,1","7,1,008,1,+006,1",,,"SYN112AAXX  30181 76373 32980 22901 10178 21013 38248 40203 57008 80002 91755 333 10180 21010 30/// 56009 58006 82067;",
"76373099999","2012-11-30T21:00:00","4","25.35","-105.75","1967.0","TEPEHUANES DGO., MX","FM-12","99999","V020","110,1,N,0010,1","22000,1,9,N","030000,1,N,1","+0248,2","-0022,1","10158,1",,,,,,"02,1,+05100,1,00,1",,"02,99,1,00,1,00,1,99999,9,00,1,02,1",,"01,9",,,,"99999,9,08212,1","7,1,036,1,-002,1",,,"SYN100AAXX  30211 76373 32980 21101 10248 21022 38212 40158 57036 80002 92055 333 30/// 56009 59002 82067;",
"76373099999","2012-12-01T00:00:00","4","25.35","-105.75","1967.0","TEPEHUANES DGO., MX","FM-12","99999","V020","160,1,N,0010,1","22000,1,9,N","030000,1,N,1","+0214,1","-0001,1","10149,1","24,0000,9,1",,,,,,,"03,99,1,00,1,00,1,99999,9,00,1,03,1",,"01,9",,"120,M,+0260,1","180,N,-0010,1","99999,9,08204,1","7,1,008,1,-004,1",,,"SYN124AAXX  01001 76373 32980 31601 10214 21001 38204 40149 57008 80003 92350 333 10260 21010 30/// 50311 56009 59004 70000 83060;",
"76373099999","2012-12-01T03:00:00","4","25.35","-105.75","1967.0","TEPEHUANES DGO., MX","FM-12","99999","V020","300,1,N,0010,1","22000,1,9,N","001000,1,N,1","+0130,1","-0001,1","10175,1",,,,,,"01,1,+05100,1,00,1",,"01,99,1,00,1,00,1,99999,9,00,1,01,1",,"01,9",,,,"99999,9,08225,1","2,1,021,1,-005,1",,,"SYN100AAXX  01031 76373 32910 13001 10130 21001 38225 40175 52021 80001 90255 333 30/// 56009 59005 81067;",
"76373099999","2012-12-01T06:00:00","4","25.35","-105.75","1967.0","TEPEHUANES DGO., MX","FM-12","99999","V020","999,9,C,0000,1","22000,1,9,N","001000,1,N,1","+0072,1","+0003,1","10187,1",,,,,,,,"01,99,1,00,1,00,1,99999,9,00,1,01,1","0588,9","01,9",,"240,M,+0260,1","240,N,-0010,1","99999,9,08234,1","2,1,011,1,-011,1",,,"SYN124AAXX  01061 76373 32910 10000 10072 20003 38234 40187 52011 80001 90555 333 10260 21010 30/// 55098 21611 56009 59011 81067;",
"76373099999","2012-12-01T12:00:00","4","25.35","-105.75","1967.0","TEPEHUANES DGO., MX","FM-12","99999","V020","999,9,C,0000,1","22000,1,9,N","001000,1,N,1","+0018,1","-0006,1","10193,1","24,0000,9,1",,,,,"01,1,+03000,1,00,1",,"01,99,1,00,1,00,1,99999,9,00,1,01,1",,"09,9","999,-0010,9","120,N,+0002,1","240,M,+0260,1","99999,9,08240,1","9,9,999,9,-005,1",,,"SYN118AAXX  01121 76373 32910 10000 10018 21006 38240 40193 5//// 80001 91140 333 10260 20002 31010 56009 59005 70000 81060;",
"76373099999","2012-12-01T15:00:00","4","25.35","-105.75","1967.0","TEPEHUANES DGO., MX","FM-12","99999","V020","999,9,C,0000,1","22000,1,9,N","020000,1,N,1","+0046,1","+0002,1","10211,1",,,,,,"00,1,+99999,9,99,9",,"00,99,1,00,1,00,1,99999,9,00,1,00,1",,"01,9",,,,"99999,9,08254,1","2,1,015,1,-002,1",,,"SYN082AAXX  01151 76373 32970 00000 10046 20002 38254 40211 52015 91450 333 30/// 59002;",
"76373099999","2012-12-01T18:00:00","4","25.35","-105.75","1967.0","TEPEHUANES DGO., MX","FM-12","99999","V020","999,9,C,0000,1","22000,1,9,N","030000,1,N,1","+9999,9","+0011,1","10188,1",,,,,,"00,1,+99999,9,99,9",,"00,99,1,00,1,00,1,99999,9,00,1,00,1",,"01,9",,"120,M,+0205,1","240,N,+0002,1","99999,9,08236,1","7,1,018,1,-012,1",,,"SYN094AAXX  01181 76373 32980 00000 10199 20011 38236 40188 57018 91750 333 10205 20002 30/// 59012;","Q01+001993ATOT  "
"76373099999","2012-12-03T12:00:00","4","25.35","-105.75","1967.0","TEPEHUANES DGO., MX","FM-12","99999","V020","999,9,C,0000,1","22000,1,9,N","001000,1,N,1","+0023,1","+0000,1","10184,1","24,0000,9,1",,,,,"00,1,+99999,9,99,9",,"00,99,1,00,1,00,1,99999,9,00,1,00,1",,"09,9","999,-0010,9","120,N,+0009,1","240,M,+0265,1","99999,9,08233,1","9,9,999,9,+003,1",,,"SYN100AAXX  03121 76373 32910 00000 10023 20000 38233 40184 5//// 91150 333 10265 20009 31010 58003 70000;","Q01  00002PRCP24"
"76373099999","2012-12-03T15:00:00","4","25.35","-105.75","1967.0","TEPEHUANES DGO., MX","FM-12","99999","V020","999,9,C,0000,1","22000,1,9,N","020000,1,N,1","+0049,1","+0012,1","10197,1",,,,,,"00,1,+99999,9,99,9",,"00,99,1,00,1,00,1,99999,9,00,1,00,1",,"01,9",,,,"99999,9,08243,1","2,1,010,1,+007,1",,,"SYN082AAXX  03151 76373 32970 00000 10049 20012 38243 40197 52010 91450 333 30/// 58007;",
"76373099999","2012-12-03T18:00:00","4","25.35","-105.75","1967.0","TEPEHUANES DGO., MX","FM-12","99999","V020","999,9,C,0000,1","22000,1,9,N","030000,1,N,1","+0190,1","+0034,1","10193,1",,,,,,"00,1,+99999,9,99,9",,"00,99,1,00,1,00,1,99999,9,00,1,00,1",,"01,9",,"120,M,+0195,1","240,N,+0009,1","99999,9,08239,1","7,1,004,1,-014,1",,,"SYN094AAXX  03181 76373 32980 00000 10190 20034 38239 40193 57004 91750 333 10195 20009 30/// 59014;",
"76373099999","2012-12-03T21:00:00","4","25.35","-105.75","1967.0","TEPEHUANES DGO., MX","FM-12","99999","V020","110,1,N,0010,1","22000,1,9,N","030000,1,N,1","+0258,2","-0023,1","10147,1",,,,,,"02,1,+00750,1,08,1",,"02,99,1,02,1,02,1,00800,1,00,1,00,1",,"01,9",,,,"99999,9,08202,1","7,1,037,1,+017,1",,,"SYN100AAXX  03211 76373 32580 21101 10258 21023 38202 40147 57037 82200 92050 333 30/// 56900 58017 82825;",
"76373099999","2012-12-04T00:00:00","4","25.35","-105.75","1967.0","TEPEHUANES DGO., MX","FM-12","99999","V020","320,1,N,0020,1","22000,1,9,N","030000,1,N,1","+0221,1","+9999,9","10144,1","24,0000,9,1",,,,,,,"03,99,1,03,1,03,1,00800,1,00,1,00,1",,"01,9",,"120,M,+0270,1","180,N,+0009,1","99999,9,08200,1","7,1,002,1,+999,9",,,"SYN124AAXX  04001 76373 32580 33202 10221 21140 38200 40144 57002 83300 92350 333 10270 20009 30/// 50461 56900 58/// 70000 83720;","Q01-001403ATOD  "
"76373099999","2012-12-04T03:00:00","4","25.35","-105.75","1967.0","TEPEHUANES DGO., MX","FM-12","99999","V020","999,9,C,0000,1","22000,1,9,N","001000,1,N,1","+0120,1","-0018,1","10182,1",,,,,,"00,1,+99999,9,99,9",,"00,99,1,00,1,00,1,99999,9,00,1,00,1",,"01,9",,,,"99999,9,08230,1","2,1,030,1,+999,9",,,"SYN082AAXX  04031 76373 32910 00000 10120 21018 38230 40182 52030 90250 333 30/// 58///;",
"76373099999","2012-12-04T06:00:00","4","25.35","-105.75","1967.0","TEPEHUANES DGO., MX","FM-12","99999","V020","999,9,C,0000,1","22000,1,9,N","001000,1,N,1","+0070,1","-0026,1","10195,1",,,,,,"00,1,+99999,9,99,9",,"00,99,1,00,1,00,1,99999,9,00,1,00,1","0594,9","01,9",,"240,M,+0270,1","240,N,+0009,1","99999,9,08241,1","2,1,011,1,+999,9",,,"SYN106AAXX  04061 76373 32910 00000 10070 21026 38241 40195 52011 90550 333 10270 20009 30/// 55099 21466 58///;",
"76373099999","2012-12-04T15:00:00","4","25.35","-105.75","1967.0","TEPEHUANES DGO., MX","FM-12","99999","V020","999,9,C,0000,1","22000,1,9,N","020000,1,N,1","+0038,1","+9999,9","10228,1",,,,,,"00,1,+99999,9,99,9",,"00,99,1,00,1,00,1,99999,9,00,1,00,1",,"01,9",,,,"99999,9,08268,1","9,9,999,9,+025,1",,,"SYN082AAXX  04151 76373 32970 00000 10038 20116 38268 40228 5//// 91450 333 30/// 58025;",
"76373099999","2012-12-04T18:00:00","4","25.35","-105.75","1967.0","TEPEHUANES DGO., MX","FM-12","99999","V020","999,9,C,0000,1","22000,1,9,N","030000,1,N,1","+0191,1","-0004,1","10177,1",,,,,,"00,1,+99999,9,99,9",,"00,99,1,00,1,00,1,99999,9,00,1,00,1",,"01,9",,"120,M,+0198,1","240,N,-0016,1","99999,9,08226,1","7,1,002,1,-013,1",,,"SYN094AAXX  04181 76373 32980 00000 10191 21004 38226 40177 57002 91750 333 10198 21016 30/// 59013;",
"76373099999","2012-12-04T21:00:00","4","25.35","-105.75","1967.0","TEPEHUANES DGO., MX","FM-12","99999","V020","140,1,N,0020,1","22000,1,9,N","027000,1,N,1","+0247,1","-0040,1","10180,1",,,,,,"00,1,+99999,9,99,9",,"00,99,1,00,1,00,1,99999,9,00,1,00,1",,"01,9",,,,"99999,9,08229,1","0,1,003,1,+027,1",,,"SYN082AAXX  04211 76373 32977 01402 10247 21040 38229 40180 50003 92050 333 30/// 58027;",
"76373099999","2012-12-05T00:00:00","4","25.35","-105.75","1967.0","TEPEHUANES DGO., MX","FM-12","99999","V020","150,1,N,0010,1","22000,1,9,N","027000,1,N,1","+0206,1","-0039,1","10180,1","24,0000,9,1",,,,,"00,1,+99999,9,99,9",,"00,99,1,00,1,00,1,99999,9,00,1,00,1",,"01,9",,"120,M,+0213,1","180,N,-0016,1","99999,9,08229,1","5,1,000,1,+029,1",,,"SYN106AAXX  05001 76373 32977 01501 10206 21039 38229 40180 55000 92350 333 10213 21016 30/// 50381 58029 70000;","Q01  00002PRCP24"
"76373099999","2012-12-05T03:00:00","4","25.35","-105.75","1967.0","TEPEHUANES DGO., MX","FM-12","99999","V020","999,9,C,0000,1","22000,1,9,N","000400,1,N,1","+0120,1","-0028,1","10207,1",,,,,,"00,1,+99999,9,99,9",,"00,99,1,00,1,00,1,99999,9,00,1,00,1",,"01,9",,,,"99999,9,08251,1","2,1,022,1,+021,1",,,"SYN082AAXX  05031 76373 32904 00000 10120 21028 38251 40207 52022 90250 333 30/// 58021;",
"76373099999","2012-12-05T06:00:00","4","25.35","-105.75","1967.0","TEPEHUANES DGO., MX","FM-12","99999","V020","999,9,C,0000,1","22000,1,9,N","000400,1,N,1","+0069,1","-0026,1","10228,1",,,,,,"00,1,+99999,9,99,9",,"00,99,1,00,1,00,1,99999,9,00,1,00,1","0582,9","01,9",,"240,M,+0213,1","240,N,-0016,1","99999,9,08268,1","2,1,017,1,+999,9",,,"SYN106AAXX  05061 76373 32904 00000 10069 21026 38268 40228 52017 90545 333 10213 21016 30/// 55097 21715 58027;",
"76373099999","2012-12-05T12:00:00","4","25.35","-105.75","1967.0","TEPEHUANES DGO., MX","FM-12","99999","V020","999,9,C,0000,1","22000,1,9,N","000600,1,N,1","-0002,1","-0033,1","10216,1","24,0000,9,1",,,,,"00,1,+99999,9,99,9",,"00,99,1,00,1,00,1,99999,9,00,1,00,1",,"09,9","999,-0019,9","120,N,-0010,1","240,M,+0213,1","99999,9,08258,1","9,9,999,9,-012,1",,,"SYN100AAXX  05121 76373 32906 00000 11002 21033 38258 40216 5//// 91150 333 10213 21010 31019 59012 70000;","Q01  00002PRCP24"
"76373099999","2012-12-05T15:00:00","4","25.35","-105.75","1967.0","TEPEHUANES DGO., MX","FM-12","99999","V020","999,9,C,0000,1","22000,1,9,N","020000,1,N,1","+0023,1","-0021,1","10230,1",,,,,,"00,1,+99999,9,99,9",,"00,99,1,00,1,00,1,99999,9,00,1,00,1",,"01,9",,,,"99999,9,08275,1","2,1,017,1,-007,1",,,"SYN082AAXX  05151 76373 32970 00000 10023 21021 38275 40230 52017 91450 333 30/// 59007;",
"76373099999","2012-12-05T18:00:00","4","25.35","-105.75","1967.0","TEPEHUANES DGO., MX","FM-12","99999","V020","999,9,C,0000,1","22000,1,9,N","027000,1,N,1","+0181,1","-0021,1","10215,1",,,,,,"00,1,+99999,9,99,9",,"00,99,1,00,1,00,1,99999,9,00,1,00,1",,"01,9",,"120,M,+0186,1","240,N,-0010,1","99999,9,08257,1","7,1,016,1,+013,1",,,"SYN094AAXX  05181 76373 32977 00000 10181 21021 38257 40215 57016 91750 333 10186 21010 30/// 58013;",
"76373099999","2012-12-05T21:00:00","4","25.35","-105.75","1967.0","TEPEHUANES DGO., MX","FM-12","99999","V020","150,1,N,0010,1","22000,1,9,N","027000,1,N,1","+0252,1","-0029,1","10158,1",,,,,,"00,1,+99999,9,99,9",,"00,99,1,00,1,00,1,99999,9,00,1,00,1",,"01,9",,,,"99999,9,08212,1","7,1,045,1,-017,1",,,"SYN082AAXX  05211 76373 32977 01501 10252 21029 38212 40158 57045 92050 333 30/// 59017;",
"76373099999","2012-12-06T03:00:00","4","25.35","-105.75","1967.0","TEPEHUANES DGO., MX","FM-12","99999","V020","999,9,C,0000,1","22000,1,9,N","000400,1,N,1","+0119,1","-0011,1","10172,1",,,,,,"00,1,+99999,9,99,9",,"00,99,1,00,1,00,1,99999,9,00,1,00,1",,"01,9",,,,"99999,9,08223,1","2,1,020,1,-028,1",,,"SYN082AAXX  06031 76373 32904 00000 10119 21011 38223 40172 52020 90250 333 30/// 59028;",
"76373099999","2012-12-06T06:00:00","4","25.35","-105.75","1967.0","TEPEHUANES DGO., MX","FM-12","99999","V020","999,9,C,0000,1","22000,1,9,N","000400,1,N,1","+0066,1","-0008,1","10180,1",,,,,,"00,1,+99999,9,99,9",,"00,99,1,00,1,00,1,99999,9,00,1,00,1","0588,9","01,9",,"240,M,+0272,1","240,N,-0010,1","99999,9,08229,1","2,1,006,1,+999,9",,,"SYN106AAXX  06061 76373 32904 00000 10066 21008 38229 40180 52006 90550 333 10272 21010 30/// 55098 21715 59039;",
"76373099999","2012-12-06T12:00:00","4","25.35","-105.75","1967.0","TEPEHUANES DGO., MX","FM-12","99999","V020","999,9,C,0000,1","22000,1,9,N","000600,1,N,1","+0009,1","-0023,1","10163,1","24,0000,9,1",,,,,"00,1,+99999,9,99,9",,"00,99,1,00,1,00,1,99999,9,00,1,00,1",,"09,9","999,-0013,9","120,N,-0005,1","240,M,+0272,1","99999,9,08216,1","9,9,999,9,-042,1",,,"SYN100AAXX  06121 76373 32906 00000 10009 21023 38216 40163 5//// 91150 333 10272 21005 31013 59042 70000;","Q01  00002PRCP24"
"76373099999","2012-12-06T15:00:00","4","25.35","-105.75","1967.0","TEPEHUANES DGO., MX","FM-12","99999","V020","999,9,C,0000,1","22000,1,9,N","027000,1,N,1","+0040,1","-0011,1","10175,1",,,,,,"02,1,+05100,1,00,1",,"02,99,1,00,1,00,1,99999,9,00,1,04,1",,"01,9",,,,"99999,9,08225,1","2,1,009,1,-050,1",,,"SYN100AAXX  06151 76373 32977 20000 10040 21011 38225 40175 52009 80004 91450 333 30/// 56009 59050 82067;",
"76373099999","2012-12-06T18:00:00","4","25.35","-105.75","1967.0","TEPEHUANES DGO., MX","FM-12","99999","V020","110,1,N,0010,1","22000,1,9,N","030000,1,N,1","+9999,9","-0003,1","10155,1",,,,,,"02,1,+04500,1,00,1",,"02,99,1,00,1,00,1,99999,9,00,1,02,1",,"01,9",,"120,M,+0210,1","240,N,-0005,1","99999,9,08209,1","7,1,016,1,-048,1",,,"SYN112AAXX  06181 76373 32980 21101 10204 21003 38209 40155 57016 80002 91755 333 10210 21005 30/// 56009 59048 82065;","Q01+002043ATOT  "
"76373099999","2012-12-06T21:00:00","4","25.35","-105.75","1967.0","TEPEHUANES DGO., MX","FM-12","99999","V020","320,1,N,0020,1","22000,1,9,N","030000,1,N,1","+0258,2","-0048,1","10109,1",,,,,,"02,1,+05100,1,00,1",,"03,99,1,00,1,00,1,99999,9,00,1,02,1",,"01,9",,,,"99999,9,08171,1","7,1,038,1,-041,1",,,"SYN100AAXX  06211 76373 32980 33202 10258 21048 38171 40109 57038 80002 92055 333 30/// 56009 59041 82067;",
"76373099999","2012-12-07T00:00:00","4","25.35","-105.75","1967.0","TEPEHUANES DGO., MX","FM-12","99999","V020","250,1,N,0020,1","22000,1,9,N","030000,1,N,1","+0218,1","-0023,1","10105,1","24,0000,9,1",,,,,,,"02,99,1,00,1,00,1,99999,9,00,1,02,1",,"01,9",,"120,M,+0266,1","180,N,-0005,1","99999,9,08168,1","5,1,003,1,-035,1",,,"SYN124AAXX  07001 76373 32980 22502 10218 21023 38168 40105 55003 80002 92355 333 10266 21005 30/// 50351 56009 59035 70000 82060;",
"76373099999","2012-12-07T03:00:00","4","25.35","-105.75","1967.0","TEPEHUANES DGO., MX","FM-12","99999","V020","290,1,N,0010,1","22000,1,9,N","001000,1,N,1","+0130,1","-0013,1","10132,1",,,,,,"01,1,+03000,1,00,1",,"01,99,1,00,1,00,1,99999,9,00,1,01,1",,"01,9",,,,"99999,9,08190,1","2,1,022,1,-032,1",,,"SYN100AAXX  07031 76373 32910 12901 10130 21013 38190 40132 52022 80001 90255 333 30/// 56009 59032 81060;",
"76373099999","2012-12-07T06:00:00","4","25.35","-105.75","1967.0","TEPEHUANES DGO., MX","FM-12","99999","V020","140,1,N,0010,1","22000,1,9,N","001000,1,N,1","+0070,1","-0016,1","10136,1",,,,,,"00,1,+99999,9,99,9",,"00,99,1,00,1,00,1,99999,9,00,1,00,1","0588,9","01,9",,"240,M,+0266,1","240,N,-0005,1","99999,9,08194,1","2,1,004,1,+999,9",,,"SYN106AAXX  07061 76373 32910 01401 10070 21016 38194 40136 52004 90550 333 10266 21005 30/// 55098 21611 59035;",
"76373099999","2012-12-07T12:00:00","4","25.35","-105.75","1967.0","TEPEHUANES DGO., MX","FM-12","99999","V020","140,1,N,0010,1","22000,1,9,N","001000,1,N,1","+0025,1","-0014,1","10129,1","24,0000,9,1",,,,,"04,1,+03000,1,00,1",,"04,99,1,00,1,00,1,99999,9,00,1,04,1",,"01,9","999,+0006,9","120,N,+0010,1","240,M,+0266,1","99999,9,08188,1","9,9,999,9,-028,1",,,"SYN118AAXX  07121 76373 32910 41401 10025 21014 38188 40129 5//// 80004 91155 333 10266 20010 30006 56009 59028 70000 84060;",
"76373099999","2012-12-07T15:00:00","4","25.35","-105.75","1967.0","TEPEHUANES DGO., MX","FM-12","99999","V020","999,9,C,0000,1","00750,1,C,N","030000,1,N,1","+0030,1","-0011,1","10145,1",,,,,,"04,1,+00750,1,07,1",,"07,99,1,07,1,04,1,00800,1,03,1,00,1",,"01,9",,,,"99999,9,08201,1","2,1,012,1,-024,1",,,"SYN106AAXX  07151 76373 32580 70000 10030 21011 38201 40145 52012 87430 91450 333 30/// 56990 59024 84725 83330;",
"76373099999","2012-12-07T18:00:00","4","25.35","-105.75","1967.0","TEPEHUANES DGO., MX","FM-12","99999","V020","320,1,N,0010,1","00750,1,9,N","030000,1,N,1","+0158,1","+0001,1","10135,1",,,,,,"08,1,+00750,1,06,1",,"08,99,1,08,1,08,1,00800,1,00,1,00,1",,"01,9",,"120,M,+0160,1","240,N,+0010,1","99999,9,08193,1","7,1,008,1,-016,1",,,"SYN112AAXX  07181 76373 32580 83201 10158 20001 38193 40135 57008 88800 91755 333 10160 20010 30/// 56900 59016 88625;",
"76373099999","2012-12-07T21:00:00","4","25.35","-105.75","1967.0","TEPEHUANES DGO., MX","FM-12","99999","V020","290,1,N,0020,1","00750,1,9,N","030000,1,N,1","+0210,1","-0037,1","10097,1",,,,,,"08,1,+00750,1,06,1",,"08,99,1,08,1,08,1,00800,1,00,1,00,1",,"01,9",,,,"99999,9,08162,1","7,1,031,1,-009,1",,,"SYN100AAXX  07211 76373 32580 82902 10210 21037 38162 40097 57031 88800 92055 333 30/// 56900 59009 88625;",
"76373099999","2012-12-08T00:00:00","4","25.35","-105.75","1967.0","TEPEHUANES DGO., MX","FM-12","99999","V020","320,1,N,0020,1","00750,1,9,N","030000,1,N,1","+0172,1","-0056,1","10107,1","24,0000,9,1",,,,,,,"07,99,1,07,1,07,1,00800,1,00,1,00,1",,"01,9",,"120,M,+0220,1","180,N,+0010,1","99999,9,08170,1","2,1,008,1,+002,1",,,"SYN124AAXX  08001 76373 32580 73202 10172 21056 38170 40107 52008 87700 92355 333 10220 20010 30/// 50341 56900 58002 70000 87625;",
"76373099999","2012-12-08T12:00:00","4","25.35","-105.75","1967.0","TEPEHUANES DGO., MX","FM-12","99999","V020","999,9,C,0000,1","22000,1,9,N","001000,1,N,1","+0002,1","-0023,1","10140,1","24,0000,9,1",,,,,"00,1,+99999,9,99,9",,"00,99,1,00,1,00,1,99999,9,00,1,00,1",,"09,9","999,-0020,9","120,N,-0014,1","240,M,+0220,1","99999,9,08197,1","9,9,999,9,+009,1",,,"SYN100AAXX  08121 76373 32910 00000 10002 21023 38197 40140 5//// 91155 333 10220 21014 31020 58009 70000;","Q01  00002PRCP24"
"76373099999","2012-12-08T15:00:00","4","25.35","-105.75","1967.0","TEPEHUANES DGO., MX","FM-12","99999","V020","290,1,N,0010,1","22000,1,9,N","025000,1,N,1","+0026,1","-0018,1","10153,1",,,,,,"02,1,+03000,1,00,1",,"02,99,1,00,1,00,1,99999,9,00,1,02,1",,"01,9",,,,"99999,9,08208,1","2,1,011,1,+007,1",,,"SYN100AAXX  08151 76373 32975 22901 10026 21018 38208 40153 52011 80002 91455 333 30/// 56009 58007 82060;",
"76373099999","2012-12-08T18:00:00","4","25.35","-105.75","1967.0","TEPEHUANES DGO., MX","FM-12","99999","V020","999,9,C,0000,1","22000,1,9,N","020000,1,N,1","+9999,9","+0019,1","10132,1",,,,,,"02,1,+00810,1,08,1",,"02,99,1,02,1,03,1,00800,1,00,1,00,1",,"01,9",,"120,M,+0195,1","240,N,-0014,1","99999,9,08190,1","7,1,018,1,-003,1",,,"SYN112AAXX  08181 76373 32570 20000 10188 20019 38190 40132 57018 82300 91750 333 10195 21014 30/// 56900 59003 82827;","Q01+001883ATOT  "
"76373099999","2012-12-08T21:00:00","4","25.35","-105.75","1967.0","TEPEHUANES DGO., MX","FM-12","99999","V020","250,1,N,0020,1","22000,1,9,N","020000,1,N,1","+0229,2","-0001,1","10103,1",,,,,,"03,1,+01800,1,03,1",,"03,99,1,03,1,00,1,00800,1,05,1,00,1",,"01,9",,,,"99999,9,08167,1","7,1,023,1,+005,1",,,"SYN100AAXX  08211 76373 32570 32502 10229 21001 38167 40103 57023 83050 92050 333 30/// 56090 58005 83356;",
"76373099999","2012-12-09T00:00:00","4","25.35","-105.75","1967.0","TEPEHUANES DGO., MX","FM-12","99999","V020","290,1,N,0010,1","00750,1,9,N","020000,1,N,1","+0178,1","+0021,1","10116,1","24,0000,9,1",,,,,,,"06,99,1,06,1,03,1,00800,1,00,1,00,1",,"01,9",,"120,M,+0249,1","180,N,-0014,1","99999,9,08177,1","2,1,010,1,+007,1",,,"SYN124AAXX  09001 76373 32570 62901 10178 20021 38177 40116 52010 86300 92350 333 10249 21014 30/// 50271 56900 58007 70000 86827;",
"76373099999","2012-12-09T06:00:00","4","25.35","-105.75","1967.0","TEPEHUANES DGO., MX","FM-12","99999","V020","999,9,C,0000,1","00750,1,9,N","005000,1,N,1","+0114,1","+0016,1","10148,1",,,,,,,,"06,99,1,06,1,05,1,00800,1,00,1,00,1","0522,9","01,9",,"240,M,+0249,1","240,N,-0014,1","99999,9,08203,1","2,1,011,1,+006,1",,,"SYN124AAXX  09061 76373 32550 60000 10114 20016 38203 40148 52011 86500 90550 333 10249 21014 30/// 55087 21385 56900 58006 86627;",
"76373099999","2012-12-09T15:00:00","4","25.35","-105.75","1967.0","TEPEHUANES DGO., MX","FM-12","99999","V020","999,9,C,0000,1","00810,1,9,N","020000,1,N,1","+0103,1","+0018,1","10149,1",,,,,,"08,1,+00810,1,06,1",,"08,99,1,08,1,06,1,00800,1,00,1,00,1",,"01,9",,,,"99999,9,08204,1","2,1,006,1,-004,1",,,"SYN100AAXX  09151 76373 32570 80000 10103 20018 38204 40149 52006 88600 91455 333 30/// 56900 59004 88627;",
"76373099999","2012-12-09T18:00:00","4","25.35","-105.75","1967.0","TEPEHUANES DGO., MX","FM-12","99999","V020","320,1,N,0010,1","22000,1,9,N","020000,1,N,1","+0188,1","+0025,1","10146,1",,,,,,"04,1,+00810,1,06,1",,"04,99,1,04,1,05,1,00800,1,00,1,00,1",,"01,9",,"120,M,+0195,1","240,N,+0075,1","99999,9,08201,1","7,1,003,1,+011,1",,,"SYN112AAXX  09181 76373 32570 43201 10188 20025 38201 40146 57003 84500 91750 333 10195 20075 30/// 56900 58011 84627;",
"76373099999","2012-12-10T00:00:00","4","25.35","-105.75","1967.0","TEPEHUANES DGO., MX","FM-12","99999","V020","290,1,N,0010,1","22000,1,9,N","020000,1,N,1","+0170,1","+0024,1","10125,1","24,0000,9,1",,,,,,,"02,99,1,02,1,02,1,00800,1,00,1,00,1",,"01,9",,"120,M,+0210,1","180,N,+0075,1","99999,9,08185,1","2,1,005,1,+008,1",,,"SYN124AAXX  10001 76373 32570 22901 10170 20024 38185 40125 52005 82200 92350 333 10210 20075 30/// 50381 56900 58008 70000 82827;",
"76373099999","2012-12-10T03:00:00","4","25.35","-105.75","1967.0","TEPEHUANES DGO., MX","FM-12","99999","V020","999,9,C,0000,1","22000,1,9,N","005000,1,N,1","+0115,1","+0038,1","10150,1",,,,,,"00,1,+99999,9,99,9",,"00,99,1,00,1,00,1,99999,9,00,1,00,1",,"01,9",,,,"99999,9,08205,1","2,1,020,1,+013,1",,,"SYN082AAXX  10031 76373 32950 00000 10115 20038 38205 40150 52020 90250 333 30/// 58013;",
"76373099999","2012-12-10T06:00:00","4","25.35","-105.75","1967.0","TEPEHUANES DGO., MX","FM-12","99999","V020","999,9,C,0000,1","22000,1,9,N","005000,1,N,1","+0083,1","+0029,1","10158,1",,,,,,"00,1,+99999,9,99,9",,"00,99,1,00,1,00,1,99999,9,00,1,00,1","0348,9","01,9",,"240,M,+0210,1","240,N,+0075,1","99999,9,08212,1","2,1,007,1,+999,9",,,"SYN106AAXX  10061 76373 32950 00000 10083 20029 38212 40158 52007 90550 333 10210 20075 30/// 55058 20846 58009;",
"76373099999","2012-12-10T12:00:00","4","25.35","-105.75","1967.0","TEPEHUANES DGO., MX","FM-12","99999","V020","999,9,C,0000,1","22000,1,9,N","001000,1,N,1","+0036,1","+0020,1","10154,1","24,0000,9,1",,,,,"00,1,+99999,9,99,9",,"00,99,1,00,1,00,1,99999,9,00,1,00,1",,"01,9","999,+0010,9","120,N,+0022,1","240,M,+0210,1","99999,9,08208,1","9,9,999,9,+022,1",,,"SYN100AAXX  10121 76373 32910 00000 10036 20020 38208 40154 5//// 91150 333 10210 20022 30010 58022 70000;","Q01  00002PRCP24"
"76373099999","2012-12-10T15:00:00","4","25.35","-105.75","1967.0","TEPEHUANES DGO., MX","FM-12","99999","V020","999,9,C,0000,1","22000,1,9,N","020000,1,N,1","+0056,1","+0024,1","10157,1",,,,,,"00,1,+99999,9,99,9",,"00,99,1,00,1,00,1,99999,9,00,1,00,1",,"01,9",,,,"99999,9,08210,1","2,1,002,1,+006,1",,,"SYN082AAXX  10151 76373 32970 00000 10056 20024 38210 40157 52002 91450 333 30/// 58006;",
"76373099999","2012-12-10T18:00:00","4","25.35","-105.75","1967.0","TEPEHUANES DGO., MX","FM-12","99999","V020","999,9,C,0000,1","22000,1,9,N","030000,1,N,1","+0196,1","+0001,1","10136,1",,,,,,"02,1,+00750,1,08,1",,"02,99,1,02,1,02,1,00800,1,00,1,00,1",,"01,9",,"120,M,+0210,1","240,N,+0022,1","99999,9,08194,1","7,1,016,1,-007,1",,,"SYN112AAXX  10181 76373 32580 20000 10196 20001 38194 40136 57016 82200 91750 333 10210 20022 30/// 56900 59007 82825;",
"76373099999","2012-12-10T21:00:00","4","25.35","-105.75","1967.0","TEPEHUANES DGO., MX","FM-12","99999","V020","320,1,N,0030,1","22000,1,9,N","030000,1,N,1","+0198,1","+0001,1","10098,1",,,,,,"03,1,+00750,1,08,1",,"03,99,1,03,1,03,1,00800,1,00,1,00,1",,"01,9",,,,"99999,9,08163,1","7,1,031,1,-017,1",,,"SYN100AAXX  10211 76373 32580 33203 10198 20001 38163 40098 57031 83300 92050 333 30/// 56900 59017 83825;",
"76373099999","2012-12-11T00:00:00","4","25.35","-105.75","1967.0","TEPEHUANES DGO., MX","FM-12","99999","V020","320,1,N,0020,1","22000,1,9,N","030000,1,N,1","+0169,1","-0015,1","10112,1","24,0000,9,1",,,,,,,"04,99,1,04,1,04,1,00800,1,00,1,00,1",,"01,9",,"120,M,+0218,1","180,N,+0022,1","99999,9,08174,1","2,1,011,1,-011,1",,,"SYN124AAXX  11001 76373 32580 43202 10169 21015 38174 40112 52011 84400 92345 333 10218 20022 30/// 50311 56900 59011 70000 84720;",
"76373099999","2012-12-11T15:00:00","4","25.35","-105.75","1967.0","TEPEHUANES DGO., MX","FM-12","99999","V020","999,9,C,0000,1","22000,1,9,N","020000,1,N,1","+0023,1","-0005,1","10129,1",,,,,,"00,1,+99999,9,99,9",,"00,99,1,00,1,00,1,99999,9,00,1,00,1",,"01,9",,,,"99999,9,08188,1","9,9,999,9,-022,1",,,"SYN082AAXX  11151 76373 32970 00000 10023 21005 38188 40129 5//// 91450 333 30/// 59022;",
"76373099999","2012-12-11T18:00:00","4","25.35","-105.75","1967.0","TEPEHUANES DGO., MX","FM-12","99999","V020","290,1,N,0020,1","22000,1,9,N","030000,1,N,1","+0180,1","+0006,1","10124,1",,,,,,"04,1,+00750,1,08,1",,"04,99,1,04,1,04,1,00800,1,00,1,00,1",,"01,9",,"120,M,+0190,1","240,N,-0023,1","99999,9,08184,1","7,1,004,1,-010,1",,,"SYN112AAXX  11181 76373 32580 42902 10180 20006 38184 40124 57004 84400 91750 333 10190 21023 30/// 56900 59010 84825;",
"76373099999","2012-12-11T21:00:00","4","25.35","-105.75","1967.0","TEPEHUANES DGO., MX","FM-12","99999","V020","290,1,N,0030,1","00600,1,9,N","030000,1,N,1","+0198,1","-0005,1","10123,1",,,,,,"05,1,+00600,1,07,1",,"05,99,1,05,1,05,1,00800,1,00,1,00,1",,"01,9",,,,"99999,9,08185,1","2,1,010,1,+022,1",,,"SYN100AAXX  11211 76373 32580 52903 10198 21005 38185 40123 52010 85500 92040 333 30/// 56900 58022 85720;",
"76373099999","2012-12-12T00:00:00","4","25.35","-105.75","1967.0","TEPEHUANES DGO., MX","FM-12","99999","V020","290,1,N,0020,1","22000,1,9,N","020000,1,N,1","+0155,1","-0009,1","10117,1","24,0000,9,1",,,,,,,"03,99,1,99,9,04,1,00800,1,00,1,00,1",,"01,9",,"120,M,+0203,1","180,N,-0023,1","99999,9,08178,1","7,1,008,1,+004,1",,,"SYN124AAXX  12001 76373 32570 32902 10155 21009 38178 40117 57008 84400 92350 333 10203 21023 30/// 50411 56900 58004 70000 84825;","Q01+000042SCOTLC"
"76373099999","2012-12-12T03:00:00","4","25.35","-105.75","1967.0","TEPEHUANES DGO., MX","FM-12","99999","V020","999,9,C,0000,1","22000,1,9,N","001000,1,N,1","+0091,1","+0010,1","10150,1",,,,,,"00,1,+99999,9,99,9",,"00,99,1,00,1,00,1,99999,9,00,1,00,1",,"01,9",,,,"99999,9,08205,1","2,1,027,1,+016,1",,,"SYN082AAXX  12031 76373 32910 00000 10091 20010 38205 40150 52027 90250 333 30/// 58016;",
"76373099999","2012-12-12T15:00:00","4","25.35","-105.75","1967.0","TEPEHUANES DGO., MX","FM-12","99999","V020","999,9,C,0000,1","22000,1,9,N","020000,1,N,1","-0004,1","-0022,1","10183,1",,,,,,"00,1,+99999,9,99,9",,"00,99,1,00,1,00,1,99999,9,00,1,00,1",,"01,9",,,,"99999,9,08233,1","2,1,001,1,+045,1",,,"SYN082AAXX  12151 76373 32970 00000 11004 21022 38233 40183 52001 91450 333 30/// 58045;",
"76373099999","2012-12-12T18:00:00","4","25.35","-105.75","1967.0","TEPEHUANES DGO., MX","FM-12","99999","V020","999,9,C,0000,1","22000,1,9,N","027000,1,N,1","+0136,1","+0019,1","10174,1",,,,,,"00,1,+99999,9,99,9",,"00,99,1,00,1,00,1,99999,9,00,1,00,1",,"01,9",,"120,M,+0142,1","240,N,-0043,1","99999,9,08224,1","7,1,008,1,+040,1",,,"SYN094AAXX  12181 76373 32977 00000 10136 20019 38224 40174 57008 91750 333 10142 21043 30/// 58040;",
"76373099999","2012-12-12T21:00:00","4","25.35","-105.75","1967.0","TEPEHUANES DGO., MX","FM-12","99999","V020","170,1,N,0010,1","22000,1,9,N","027000,1,N,1","+0204,1","-0016,1","10127,1",,,,,,"00,1,+99999,9,99,9",,"00,99,1,00,1,00,1,99999,9,00,1,00,1",,"01,9",,,,"99999,9,08186,1","7,1,038,1,+001,1",,,"SYN082AAXX  12211 76373 32977 01701 10204 21016 38186 40127 57038 92050 333 30/// 58001;",
"76373099999","2012-12-13T00:00:00","4","25.35","-105.75","1967.0","TEPEHUANES DGO., MX","FM-12","99999","V020","240,1,N,0010,1","22000,1,9,N","027000,1,N,1","+0186,1","-0111,1","10126,1","24,0000,9,1",,,,,"00,1,+99999,9,99,9",,"00,99,1,00,1,00,1,99999,9,00,1,00,1",,"01,9",,"120,M,+0226,1","180,N,-0043,1","99999,9,08185,1","5,1,001,1,+007,1",,,"SYN106AAXX  13001 76373 32977 02401 10186 21111 38185 40126 55001 92340 333 10226 21043 30/// 50281 58007 70000;","Q01  00002PRCP24"
"76373099999","2012-12-13T06:00:00","4","25.35","-105.75","1967.0","TEPEHUANES DGO., MX","FM-12","99999","V020","999,9,C,0000,1","22000,1,9,N","000400,1,N,1","+0037,1","-0042,1","10167,1",,,,,,"00,1,+99999,9,99,9",,"00,99,1,00,1,00,1,99999,9,00,1,00,1","0582,9","01,9",,"240,M,+0226,1","240,N,-0043,1","99999,9,08218,1","2,1,009,1,+999,9",,,"SYN106AAXX  13061 76373 32904 00000 10037 21042 38218 40167 52009 90540 333 10226 21043 30/// 55097 21707 58///;",
"76373099999","2012-12-13T12:00:00","4","25.35","-105.75","1967.0","TEPEHUANES DGO., MX","FM-12","99999","V020","999,9,C,0000,1","22000,1,9,N","000600,1,N,1","-0013,1","-0038,1","10163,1","24,0000,9,1",,,,,"00,1,+99999,9,99,9",,"00,99,1,00,1,00,1,99999,9,00,1,00,1",,"09,9","999,-0031,9","120,N,-0020,1","240,M,+0226,1","99999,9,08216,1","9,9,999,9,-016,1",,,"SYN100AAXX  13121 76373 32906 00000 11013 21038 38216 40163 5//// 91150 333 10226 21020 31031 59016 70000;","Q01  00002PRCP24"
"76373099999","2012-12-13T15:00:00","4","25.35","-105.75","1967.0","TEPEHUANES DGO., MX","FM-12","99999","V020","999,9,C,0000,1","22000,1,9,N","020000,1,N,1","+0012,1","-0020,1","10176,1",,,,,,"01,1,+00900,1,08,1",,"04,99,1,01,1,02,1,00800,1,00,1,08,1",,"01,9",,,,"99999,9,08226,1","2,1,010,1,-006,1",,,"SYN106AAXX  13151 76373 32570 40000 10012 21020 38226 40176 52010 81208 91450 333 30/// 56990 59006 81830 81267;",
"76373099999","2012-12-13T18:00:00","4","25.35","-105.75","1967.0","TEPEHUANES DGO., MX","FM-12","99999","V020","160,1,N,0010,1","22000,1,9,N","030000,1,N,1","+0162,1","-0020,1","10163,1",,,,,,"02,1,+00600,1,06,1","01,1,+00900,1,03,1","04,99,1,03,1,02,1,00800,1,01,1,01,1",,"01,9",,"120,M,+0170,1","240,N,-0020,1","99999,9,08216,1","7,1,010,1,-008,1",,,"SYN124AAXX  13181 76373 32580 41601 10162 21020 38216 40163 57010 83211 91755 333 10170 21020 30/// 56999 59008 82620 81330 81060;",
"76373099999","2012-12-13T21:00:00","4","25.35","-105.75","1967.0","TEPEHUANES DGO., MX","FM-12","99999","V020","230,1,N,0040,1","00750,1,9,N","030000,1,N,1","+0206,2","-0051,1","10138,1",,,,,,"08,1,+00750,1,06,1",,"08,99,1,08,1,08,1,00800,1,00,1,00,1",,"01,9",,,,"99999,9,08195,1","7,1,021,1,+009,1",,,"SYN100AAXX  13211 76373 32580 82304 10206 21051 38195 40138 57021 88800 92055 333 30/// 56900 58009 88625;",
"76373099999","2012-12-14T03:00:00","4","25.35","-105.75","1967.0","TEPEHUANES DGO., MX","FM-12","99999","V020","320,1,N,0020,1","00600,1,9,N","001000,1,N,1","+0130,1","+0044,1","10169,1",,,,,,"08,1,+00600,1,06,1",,"08,99,1,08,1,08,1,00800,1,00,1,00,1",,"01,9",,,,"99999,9,08220,1","2,1,019,1,+011,1",,,"SYN100AAXX  14031 76373 32510 83202 10130 20044 38220 40169 52019 88800 90255 333 30/// 56900 58011 88620;",
"76373099999","2012-12-14T06:00:00","4","25.35","-105.75","1967.0","TEPEHUANES DGO., MX","FM-12","99999","V020","999,9,C,0000,1","01200,1,9,N","001000,1,N,1","+0106,1","+0070,1","10170,1",,,,,,"04,1,+00600,1,07,1",,"08,99,1,08,1,08,1,00800,1,00,1,00,1","0270,9","01,9",,"240,M,+0230,1","240,N,-0020,1","99999,9,08221,1","1,1,001,1,+003,1",,,"SYN130AAXX  14061 76373 32510 80000 10106 20070 38221 40170 51001 88800 90550 333 10230 21020 30/// 55045 20805 56900 58003 84720 84625;",
"76373099999","2012-12-14T12:00:00","4","25.35","-105.75","1967.0","TEPEHUANES DGO., MX","FM-12","99999","V020","290,1,N,0010,1","99999,9,9,N","001000,1,N,1","+0094,1","+0078,1","10160,1","06,0000,9,1",,,"5,1,06,1","0,1,06,1",,,"08,99,1,99,9,99,9,00800,1,99,9,99,9",,,,,,"99999,9,08213,1",,,"15,1","SYN072AAXX  14121 76373 01510 82901 10094 20078 38213 40160 5//// 60001 71550;","Q01  00002PRCP06"
"76373099999","2012-12-14T15:00:00","4","25.35","-105.75","1967.0","TEPEHUANES DGO., MX","FM-12","99999","V020","999,9,C,0000,1","00600,1,9,N","015000,1,N,1","+0092,1","+0087,1","10172,1","03,0040,9,1",,,"2,1,03,1","5,1,03,1","08,1,+00600,1,09,1",,"08,99,1,08,1,08,1,00800,1,00,1,00,1",,"09,9",,,,"99999,9,08222,1","2,1,007,1,-004,1",,"51,1","SYN112AAXX  14151 76373 21565 80000 10092 20087 38222 40172 52007 75125 88800 91455 333 31/// 56900 59004 60047 88920;",
"76373099999","2012-12-14T18:00:00","4","25.35","-105.75","1967.0","TEPEHUANES DGO., MX","FM-12","99999","V020","290,1,N,0030,1","99999,9,9,N","020000,1,N,1","+0148,1","+0080,1","10165,1","06,0051,9,1",,,"5,1,06,1","0,1,06,1",,,"07,99,1,99,9,99,9,00800,1,99,9,99,9",,,,,,"99999,9,08217,1","7,1,005,1,+999,9",,"25,1","SYN072AAXX  14181 76373 01570 72903 10148 20080 38217 40165 57005 60051 72550;",
"76373099999","2012-12-14T21:00:00","4","25.35","-105.75","1967.0","TEPEHUANES DGO., MX","FM-12","99999","V020","290,1,N,0030,1","00750,1,9,N","030000,1,N,1","+0168,1","+0078,1","10151,1",,,,,,"03,1,+00600,1,07,1",,"06,99,1,06,1,06,1,00800,1,00,1,00,1",,"01,9",,,,"99999,9,08206,1","7,1,011,1,+011,1",,,"SYN106AAXX  14211 76373 32580 62903 10168 20078 38206 40151 57011 86600 92050 333 30/// 56900 58011 83720 83625;",
"76373099999","2012-12-15T00:00:00","4","25.35","-105.75","1967.0","TEPEHUANES DGO., MX","FM-12","99999","V020","230,1,N,0020,1","00750,1,9,N","030000,1,N,1","+0144,1","+0016,1","10155,1","24,0075,9,1",,,,,"03,1,+00600,1,07,1",,"07,99,1,07,1,07,1,00800,1,00,1,00,1",,"01,9",,"120,M,+0180,1","180,N,+0072,1","99999,9,08209,1","1,1,003,1,+008,1",,,"SYN130AAXX  15001 76373 32580 72302 10144 20016 38209 40155 51003 87700 92350 333 10180 20072 30/// 50251 56900 58008 70075 83720 84625;",
"76373099999","2012-12-15T03:00:00","4","25.35","-105.75","1967.0","TEPEHUANES DGO., MX","FM-12","99999","V020","200,1,N,0010,1","00750,1,9,N","001000,1,N,1","+0092,1","+0029,1","10159,1",,,,,,"02,1,+00600,1,07,1",,"05,99,1,05,1,05,1,00800,1,00,1,00,1",,"01,9",,,,"99999,9,08212,1","2,1,003,1,-008,1",,,"SYN106AAXX  15031 76373 32510 52001 10092 20029 38212 40159 52003 85500 90255 333 30/// 56900 59008 82720 83625;",
"76373099999","2012-12-15T15:00:00","4","25.35","-105.75","1967.0","TEPEHUANES DGO., MX","FM-12","99999","V020","200,1,N,0010,1","22000,1,9,N","020000,1,N,1","+0028,1","-0004,1","10160,1",,,,,,"04,1,+00750,1,06,1",,"04,99,1,04,1,04,1,00800,1,00,1,00,1",,"01,9",,,,"99999,9,08213,1","2,1,013,1,-009,1",,,"SYN100AAXX  15151 76373 32570 42001 10028 21004 38213 40160 52013 84400 91455 333 30/// 56900 59009 84625;",
"76373099999","2012-12-15T18:00:00","4","25.35","-105.75","1967.0","TEPEHUANES DGO., MX","FM-12","99999","V020","999,9,C,0000,1","22000,1,9,N","020000,1,N,1","+0161,1","+0003,1","10148,1",,,,,,"04,1,+01800,1,03,1",,"04,99,1,04,1,00,1,00800,1,07,1,00,1",,"01,9",,"120,M,+0170,1","240,N,-0018,1","99999,9,08203,1","7,1,010,1,-014,1",,,"SYN112AAXX  15181 76373 32570 40000 10161 20003 38203 40148 57010 84070 91750 333 10170 21018 30/// 56090 59014 84356;",
"76373099999","2012-12-15T21:00:00","4","25.35","-105.75","1967.0","TEPEHUANES DGO., MX","FM-12","99999","V020","290,1,N,0020,1","01800,1,9,N","020000,1,N,1","+0197,1","-0006,1","10122,1",,,,,,"06,1,+01800,1,03,1",,"06,99,1,06,1,00,1,00800,1,07,1,00,1",,"01,9",,,,"99999,9,08182,1","7,1,021,1,-024,1",,,"SYN100AAXX  15211 76373 32570 62902 10197 21006 38182 40122 57021 86070 92050 333 30/// 56090 59024 86356;",
"76373099999","2012-12-16T00:00:00","4","25.35","-105.75","1967.0","TEPEHUANES DGO., MX","FM-12","99999","V020","250,1,N,0010,1","00750,1,9,N","020000,1,N,1","+0161,1","+0000,1","10126,1","24,0025,9,1",,,,,,,"08,99,1,08,1,00,1,00800,1,07,1,00,1",,"01,9",,"120,M,+0215,1","180,N,-0018,1","99999,9,08186,1","2,1,004,1,-023,1",,,"SYN124AAXX  16001 76373 32570 82501 10161 20000 38186 40126 52004 88070 92350 333 10215 21018 30/// 50291 56090 59023 70025 88356;",
"76373099999","2012-12-16T06:00:00","4","25.35","-105.75","1967.0","TEPEHUANES DGO., MX","FM-12","99999","V020","999,9,C,0000,1","22000,1,9,N","005000,1,N,1","+0078,1","-0001,1","10144,1",,,,,,"00,1,+99999,9,99,9",,"00,99,1,00,1,00,1,99999,9,00,1,00,1","0408,9","01,9",,"240,M,+0215,1","240,N,-0018,1","99999,9,08200,1","2,1,004,1,+999,9",,,"SYN106AAXX  16061 76373 32950 00000 10078 21001 38200 40144 52004 90550 333 10215 21018 30/// 55068 21111 59012;",
"76373099999","2012-12-16T15:00:00","4","25.35","-105.75","1967.0","TEPEHUANES DGO., MX","FM-12","99999","V020","999,9,C,0000,1","22000,1,9,N","020000,1,N,1","+0115,1","-0002,1","10130,1",,,,,,"04,1,+00810,1,06,1",,"04,99,1,04,1,07,1,00800,1,00,1,00,1",,"01,9",,,,"99999,9,08189,1","4,1,000,1,-024,1",,,"SYN100AAXX  16151 76373 32570 40000 10115 21002 38189 40130 54000 84700 91450 333 30/// 56900 59024 84627;",
"76373099999","2012-12-16T18:00:00","4","25.35","-105.75","1967.0","TEPEHUANES DGO., MX","FM-12","99999","V020","250,1,N,0020,1","00810,1,9,N","020000,1,N,1","+0184,1","-0053,1","10127,1",,,,,,"06,1,+00810,1,06,1",,"06,99,1,06,1,07,1,00800,1,00,1,00,1",,"01,9",,"120,M,+0192,1","240,N,+0095,1","99999,9,08186,1","7,1,003,1,-016,1",,,"SYN112AAXX  16181 76373 32570 62502 10184 21053 38186 40127 57003 86700 91750 333 10192 20095 30/// 56900 59016 86627;",
"76373099999","2012-12-17T00:00:00","4","25.35","-105.75","1967.0","TEPEHUANES DGO., MX","FM-12","99999","V020","290,1,N,0010,1","03600,1,9,N","020000,1,N,1","+0151,1","-0098,1","10119,1","24,0000,9,1",,,,,,,"06,99,1,04,1,07,1,00800,1,07,1,00,1",,"01,9",,"120,M,+0200,1","180,N,+0095,1","99999,9,08180,1","7,1,006,1,-006,1",,,"SYN124AAXX  17001 76373 32570 62901 10151 21098 38180 40119 57006 84770 92350 333 10200 20095 30/// 50411 56990 59006 70000 84627;",
"76373099999","2012-12-17T03:00:00","4","25.35","-105.75","1967.0","TEPEHUANES DGO., MX","FM-12","99999","V020","999,9,C,0000,1","22000,1,9,N","005000,1,N,1","+0082,1","-0064,1","10144,1",,,,,,"00,1,+99999,9,99,9",,"00,99,1,00,1,00,1,99999,9,00,1,00,1",,"01,9",,,,"99999,9,08200,1","2,1,020,1,+004,1",,,"SYN082AAXX  17031 76373 32950 00000 10082 21064 38200 40144 52020 90250 333 30/// 58004;",
"76373099999","2012-12-17T06:00:00","4","25.35","-105.75","1967.0","TEPEHUANES DGO., MX","FM-12","99999","V020","999,9,C,0000,1","22000,1,9,N","005000,1,N,1","+0017,1","-0046,1","10163,1",,,,,,"00,1,+99999,9,99,9",,"00,99,1,00,1,00,1,99999,9,00,1,00,1","0342,9","01,9",,"240,M,+0200,1","240,N,+9999,9","99999,9,08216,1","2,1,016,1,+999,9",,,"SYN106AAXX  17061 76373 32950 00000 10017 21046 38216 40163 52016 90550 333 10200 20095 30/// 55057 20926 58016;","Q01 +00952ATMN  "
"76373099999","2012-12-18T21:00:00","4","25.35","-105.75","1967.0","TEPEHUANES DGO., MX","FM-12","99999","V020","999,9,C,0000,1","22000,1,9,N","027000,1,N,1","+0249,1","-0087,1","10099,1",,,,,,"01,1,+00900,1,08,1",,"01,99,1,01,1,01,1,00800,1,00,1,00,1",,"01,9",,,,"99999,9,08164,1",,,,"SYN100AAXX  18211 76373 32577 10000 10249 21087 38164 40099 5//// 81100 92050 333 30/// 56900 58/// 81830;",
"76373099999","2012-12-19T00:00:00","4","25.35","-105.75","1967.0","TEPEHUANES DGO., MX","FM-12","99999","V020","260,1,N,0020,1","22000,1,9,N","027000,1,N,1","+0202,1","-0058,1","10106,1","24,0000,9,1",,,,,"00,1,+99999,9,99,9",,"00,99,1,00,1,00,1,99999,9,00,1,00,1",,"01,9",,"120,M,+0275,1",,"99999,9,08169,1","2,1,005,1,+999,9",,,"SYN106AAXX  19001 76373 32977 02602 10202 21058 38169 40106 52005 92345 333 10275 2//// 30/// 5//// 58/// 70000;","Q01  00002PRCP24"
"76373099999","2012-12-19T03:00:00","4","25.35","-105.75","1967.0","TEPEHUANES DGO., MX","FM-12","99999","V020","999,9,C,0000,1","22000,1,9,N","000400,1,N,1","+0105,1","-0047,1","10130,1",,,,,,"00,1,+99999,9,99,9",,"00,99,1,00,1,00,1,99999,9,00,1,00,1",,"01,9",,,,"99999,9,08188,1","2,1,019,1,+999,9",,,"SYN082AAXX  19031 76373 32904 00000 10105 21047 38188 40130 52019 90250 333 30/// 58///;",
"76373099999","2012-12-19T12:00:00","4","25.35","-105.75","1967.0","TEPEHUANES DGO., MX","FM-12","99999","V020","999,9,C,0000,1","22000,1,9,N","000600,1,N,1","-0002,1","-0036,1","10125,1","24,0000,9,1",,,,,"00,1,+99999,9,99,9",,"00,99,1,00,1,00,1,99999,9,00,1,00,1",,"09,9","999,-0016,9","120,N,-0009,1","240,M,+0257,1","99999,9,08185,1",,,,"SYN100AAXX  19121 76373 32906 00000 11002 21036 38185 40125 5//// 91150 333 10257 21009 31016 58/// 70000;","Q01  00002PRCP24"
"76373099999","2012-12-19T15:00:00","4","25.35","-105.75","1967.0","TEPEHUANES DGO., MX","FM-12","99999","V020","999,9,C,0000,1","05100,1,9,N","020000,1,N,1","+0017,1","-0025,1","10135,1",,,,,,"05,1,+05100,1,00,1",,"05,99,1,00,1,00,1,99999,9,00,1,04,1",,"01,9",,,,"99999,9,08193,1","2,1,008,1,+999,9",,,"SYN100AAXX  19151 76373 32970 50000 10017 21025 38193 40135 52008 80004 91450 333 30/// 56009 58/// 85067;",
"76373099999","2012-12-19T18:00:00","4","25.35","-105.75","1967.0","TEPEHUANES DGO., MX","FM-12","99999","V020","070,1,N,0010,1","22000,1,9,N","027000,1,N,1","+9999,9","-0032,1","10121,1",,,,,,"03,1,+05100,1,00,1",,"03,99,1,00,1,00,1,99999,9,00,1,04,1",,"01,9",,"120,M,+0194,1","240,N,-0009,1","99999,9,08181,1","8,1,012,1,+999,9",,,"SYN112AAXX  19181 76373 32977 30701 10188 21032 38181 40121 58012 80004 91750 333 10194 21009 30/// 56009 58/// 83067;","Q01+001883ATOT  "
"76373099999","2012-12-19T21:00:00","4","25.35","-105.75","1967.0","TEPEHUANES DGO., MX","FM-12","99999","V020","280,1,N,0030,1","22000,1,9,N","027000,1,N,1","+0223,2","-0075,1","10106,1",,,,,,"04,1,+05100,1,00,1",,"04,99,1,00,1,00,1,99999,9,00,1,04,1",,"01,9",,,,"99999,9,08169,1","7,1,012,1,+005,1",,,"SYN100AAXX  19211 76373 32977 42803 10223 21075 38169 40106 57012 80004 92050 333 30/// 56009 58005 84067;",
"76373099999","2012-12-20T00:00:00","4","25.35","-105.75","1967.0","TEPEHUANES DGO., MX","FM-12","99999","V020","230,1,N,0020,1","22000,1,9,N","027000,1,N,1","+0173,1","-0058,1","10123,1","24,0000,9,1",,,,,,,"03,99,1,00,1,00,1,99999,9,00,1,04,1",,"01,9",,"120,M,+0235,1","180,N,-0009,1","99999,9,08183,1","2,1,014,1,+014,1",,,"SYN124AAXX  20001 76373 32977 32302 10173 21058 38183 40123 52014 80004 92350 333 10235 21009 30/// 50331 56009 58014 70000 83067;",
"76373099999","2012-12-20T03:00:00","4","25.35","-105.75","1967.0","TEPEHUANES DGO., MX","FM-12","99999","V020","999,9,C,0000,1","22000,1,9,N","000400,1,N,1","+0098,1","-0035,1","10152,1",,,,,,"02,1,+05100,1,00,1",,"02,99,1,00,1,00,1,99999,9,00,1,04,1",,"01,9",,,,"99999,9,08207,1","2,1,024,1,-019,1",,,"SYN100AAXX  20031 76373 32904 20000 10098 21035 38207 40152 52024 80004 90250 333 30/// 56009 59019 82067;",
"76373099999","2012-12-20T06:00:00","4","25.35","-105.75","1967.0","TEPEHUANES DGO., MX","FM-12","99999","V020","999,9,C,0000,1","22000,1,9,N","000400,1,N,1","+0047,1","-0019,1","10173,1",,,,,,,,"02,99,1,00,1,00,1,99999,9,00,1,04,1","0588,9","01,9",,"240,M,+0235,1","240,N,-0009,1","99999,9,08224,1","2,1,017,1,+028,1",,,"SYN124AAXX  20061 76373 32904 20000 10047 21019 38224 40173 52017 80004 90550 333 10235 21009 30/// 55098 2//// 56009 58028 82067;",
"76373099999","2012-12-20T12:00:00","4","25.35","-105.75","1967.0","TEPEHUANES DGO., MX","FM-12","99999","V020","999,9,C,0000,1","22000,1,9,N","000600,1,N,1","-0001,1","-0019,1","10190,1","24,0000,9,1",,,,,"00,1,+99999,9,99,9",,"00,99,1,00,1,00,1,99999,9,00,1,00,1",,"09,9","999,-0019,9","120,N,-0010,1","240,M,+0235,1","99999,9,08237,1","9,9,999,9,+052,1",,,"SYN100AAXX  20121 76373 32906 00000 11001 21019 38237 40190 5//// 91150 333 10235 21010 31019 58052 70000;","Q01  00002PRCP24"
"76373099999","2012-12-20T15:00:00","4","25.35","-105.75","1967.0","TEPEHUANES DGO., MX","FM-12","99999","V020","999,9,C,0000,1","05100,1,9,N","020000,1,N,1","+0016,1","-0016,1","10224,1",,,,,,"05,1,+05100,1,00,1",,"05,99,1,00,1,00,1,99999,9,00,1,04,1",,"01,9",,,,"99999,9,08265,1","2,1,028,1,+072,1",,,"SYN100AAXX  20151 76373 32970 50000 10016 21016 38265 40224 52028 80004 91450 333 30/// 56009 58072 85067;",
"76373099999","2012-12-20T18:00:00","4","25.35","-105.75","1967.0","TEPEHUANES DGO., MX","FM-12","99999","V020","999,9,C,0000,1","22000,1,9,N","027000,1,N,1","+9999,9","-0061,1","10216,1",,,,,,"04,1,+05100,1,00,1",,"04,99,1,00,1,00,1,99999,9,00,1,04,1",,"01,9",,"120,M,+0160,1","240,N,-0010,1","99999,9,08258,1","8,1,007,1,+077,1",,,"SYN112AAXX  20181 76373 32977 40000 10151 21061 38258 40216 58007 80004 91750 333 10160 21010 30/// 56009 58077 84067;","Q01+001513ATOT  "
"76373099999","2012-12-26T03:00:00","4","25.35","-105.75","1967.0","TEPEHUANES DGO., MX","FM-12","99999","V020","310,1,N,0010,1","22000,1,9,N","000600,1,N,1","+0102,1","-0120,1","10123,1",,,,,,"01,1,+05100,1,00,1",,"01,99,1,00,1,00,1,99999,9,00,1,04,1",,"01,9",,,,"99999,9,08183,1","2,1,021,1,+999,9",,,"SYN100AAXX  26031 76373 32906 13101 10102 21120 38183 40123 52021 80004 90250 333 30/// 56009 58/// 81067;",
"76373099999","2012-12-26T12:00:00","4","25.35","-105.75","1967.0","TEPEHUANES DGO., MX","FM-12","99999","V020","999,9,C,0000,1","22000,1,9,N","000600,1,N,1","-0054,1","-0108,1","10130,1","24,0000,9,1",,,,,"00,1,+99999,9,99,9",,"00,99,1,00,1,00,1,99999,9,00,1,00,1",,"09,9",,"120,N,-0060,1","240,M,+0218,1","99999,9,08189,1",,,,"SYN100AAXX  26121 76373 32906 00000 11054 21108 38189 40130 5//// 91150 333 10218 21060 31071 58/// 70000;","Q01  00002PRCP24"
"76373099999","2012-12-26T15:00:00","4","25.35","-105.75","1967.0","TEPEHUANES DGO., MX","FM-12","99999","V020","999,9,C,0000,1","22000,1,9,N","027000,1,N,1","-0041,1","-0102,1","10135,1",,,,,,"00,1,+99999,9,99,9",,"00,99,1,00,1,00,1,99999,9,00,1,00,1",,"01,9",,,,"99999,9,08193,1","0,1,004,1,+999,9",,,"SYN082AAXX  26151 76373 32977 00000 11041 21102 38193 40135 50004 91450 333 30/// 58///;",
"76373099999","2012-12-26T18:00:00","4","25.35","-105.75","1967.0","TEPEHUANES DGO., MX","FM-12","99999","V020","999,9,C,0000,1","22000,1,9,N","027000,1,N,1","+9999,9","-0124,1","10118,1",,,,,,"00,1,+99999,9,99,9",,"00,99,1,00,1,00,1,99999,9,00,1,00,1",,"01,9",,"120,M,+0143,1","240,N,-0060,1","99999,9,08179,1","7,1,014,1,+999,9",,,"SYN094AAXX  26181 76373 32977 00000 10130 21124 38179 40118 57014 91750 333 10143 21060 30/// 58///;","Q01+001303ATOT  "
"76373099999","2012-12-26T21:00:00","4","25.35","-105.75","1967.0","TEPEHUANES DGO., MX","FM-12","99999","V020","230,1,N,0030,1","22000,1,9,N","027000,1,N,1","+0234,2","-0114,1","10083,1",,,,,,"00,1,+99999,9,99,9",,"00,99,1,00,1,00,1,99999,9,00,1,00,1",,"01,9",,,,"99999,9,08151,1","7,1,028,1,+999,9",,,"SYN082AAXX  26211 76373 32977 02303 10234 21114 38151 40083 57028 92145 333 30/// 58///;",
"76373099999","2012-12-27T00:00:00","4","25.35","-105.75","1967.0","TEPEHUANES DGO., MX","FM-12","99999","V020","280,1,N,0020,1","22000,1,9,N","027000,1,N,1","+0169,1","-0128,1","10096,1","24,0000,9,1",,,,,"00,1,+99999,9,99,9",,"00,99,1,00,1,00,1,99999,9,00,1,00,1",,"01,9",,"120,M,+0243,1","180,N,-0060,1","99999,9,08161,1","2,1,010,1,-001,1",,,"SYN106AAXX  27001 76373 32977 02802 10169 21128 38161 40096 52010 92350 333 10243 21060 30/// 50361 59001 70000;","Q01  00002PRCP24"
"76373099999","2012-12-27T03:00:00","4","25.35","-105.75","1967.0","TEPEHUANES DGO., MX","FM-12","99999","V020","999,9,C,0000,1","22000,1,9,N","000600,1,N,1","+0094,1","-0073,1","10114,1",,,,,,"04,1,+05100,1,02,1",,"99,99,9,00,1,00,1,99999,9,00,1,07,1",,"01,9",,,,"99999,9,08176,1","2,1,015,1,-007,1",,,"SYN100AAXX  27031 76373 32906 20000 10094 21073 38176 40114 52015 80007 90250 333 30/// 56009 59007 84267;","Q01+000022SCOTCV"
"76373099999","2012-12-27T06:00:00","4","25.35","-105.75","1967.0","TEPEHUANES DGO., MX","FM-12","99999","V020","999,9,C,0000,1","22000,1,9,N","000600,1,N,1","+0047,1","-0051,1","10120,1",,,,,,,,"02,99,1,00,1,00,1,99999,9,00,1,07,1","0588,9","01,9",,"240,M,+0243,1","240,N,-0060,1","99999,9,08181,1","2,1,009,1,-011,1",,,"SYN124AAXX  27061 76373 32906 20000 10047 21051 38181 40120 52009 80007 90540 333 10243 21060 30/// 55098 2//// 56009 59011 82267;",
"76373099999","2012-12-27T12:00:00","4","25.35","-105.75","1967.0","TEPEHUANES DGO., MX","FM-12","99999","V020","999,9,C,0000,1","22000,1,9,N","000600,1,N,1","-0024,1","-0055,1","10112,1","24,0000,9,1",,,,,"02,1,+05100,1,00,1",,"02,99,1,00,1,00,1,99999,9,00,1,04,1",,"09,9","999,-0042,9","120,N,-0030,1","240,M,+0243,1","99999,9,08174,1","9,9,999,9,-015,1",,,"SYN118AAXX  27121 76373 32906 20000 11024 21055 38174 40112 5//// 80004 91150 333 10243 21030 31042 56009 59015 70000 82067;",
"76373099999","2012-12-27T15:00:00","4","25.35","-105.75","1967.0","TEPEHUANES DGO., MX","FM-12","99999","V020","999,9,C,0000,1","22000,1,9,N","020000,1,N,1","-0030,1","-0052,1","10117,1",,,,,,"02,1,+00750,1,06,1",,"02,99,1,02,1,04,1,00800,1,00,1,00,1",,"01,9",,,,"99999,9,08178,1","2,1,004,1,-015,1",,,"SYN100AAXX  27151 76373 32570 20000 11030 21052 38178 40117 52004 82400 91440 333 30/// 56900 59015 82625;",
