"STATION","DATE","SOURCE","LATITUDE","LONGITUDE","ELEVATION","NAME","REPORT_TYPE","CALL_SIGN","QUALITY_CONTROL","WND","CIG","VIS","TMP","DEW","SLP","AA1","AA2","AA3","AY1","AY2","GA1","GA2","GA3","GF1","GJ1","IA1","IA2","KA1","KA2","MA1","MD1","ME1","MW1","REM","EQD"
"76458099999","2001-01-01T00:00:00","4","23.2","-106.4166666","4.0","COLONIA JUAN CARRASCO MAZATLAN SIN., MX","FM-12","99999","V020","130,1,N,0030,1","22000,1,C,N","020000,1,N,1","+0240,1","+0171,1","10135,1","24,0000,9,1",,,,,"01,1,+01800,9,03,9",,,"06,99,1,01,1,00,1,02250,1,03,1,06,1",,"01,9",,"120,M,+0272,1","180,N,+0160,1","99999,9,10125,1","5,1,001,1,+020,1",,,"SYN124AAXX  01001 76458 32870 61303 10240 20171 30125 40135 55001 81036 92345 333 10272 20160 30/// 56099 58020 70000 81356 85070;",
"76458099999","2001-01-01T03:00:00","4","23.2","-106.4166666","4.0","COLONIA JUAN CARRASCO MAZATLAN SIN., MX","FM-12","99999","V020","360,1,N,0030,1","22000,1,9,N","016000,1,N,1","+0212,1","+0158,1","10139,1","99,0000,9,1",,,,,"02,1,+03300,9,07,9",,,"02,99,1,02,1,03,1,99999,9,00,1,00,1",,"01,9",,,,"99999,9,10128,1","4,1,000,1,+008,1",,,"SYN100AAXX  01031 76458 32966 23603 10212 20158 30128 40139 54003 82300 90245 333 30/// 56600 58008 82361;","Q01  00002PRCP99"
"76458099999","2001-01-02T00:00:00","4","23.2","-106.4166666","4.0","COLONIA JUAN CARRASCO MAZATLAN SIN., MX","FM-12","99999","V020","290,1,N,0030,1","99999,9,9,N","020000,1,N,1","+0238,1","+0162,1","10122,1","99,0000,9,1",,,,,"04,1,+02400,9,03,9",,,"05,99,1,99,9,00,1,99999,9,03,1,06,1",,"01,9",,"120,M,+0270,1","180,N,+0166,1","99999,9,10112,1","7,1,008,1,-013,1",,,"SYN112AAXX  02001 76458 32970 52903 10238 20162 30112 40122 57008 80036 92355 333 10270 20166 30/// 59013 84358 81072;","Q01+000002SCOTLCQ02  00002PRCP99"
"76458099999","2001-01-02T06:00:00","4","23.2","-106.4166666","4.0","COLONIA JUAN CARRASCO MAZATLAN SIN., MX","FM-12","99999","V020","360,1,N,0020,1","22000,1,9,N","016000,1,N,1","+0204,1","+0157,1","10154,1","99,0000,9,1",,,,,"00,1,+99999,9,99,9",,,"00,99,1,00,1,00,1,99999,9,00,1,00,1","0510,9","01,9",,"240,M,+0270,1","240,N,+0166,1","99999,9,10144,1","2,1,007,1,+001,1",,,"SYN100AAXX  02061 76458 32966 03602 10204 20157 30144 40154 52007 90545 333 10270 20166 30/// 55085 58001;","Q01  00002PRCP99"
"76458099999","2001-01-02T12:00:00","4","23.2","-106.4166666","4.0","COLONIA JUAN CARRASCO MAZATLAN SIN., MX","FM-12","99999","V020","999,9,C,0000,1","22000,1,9,N","008000,1,N,1","+0168,1","+0121,1","10146,1","24,0000,9,1",,,,,"00,1,+99999,9,99,9",,,"00,99,1,00,1,00,1,99999,9,00,1,00,1",,"01,9","999,+0140,9","999,M,+0270,1","120,N,+0160,1","99999,9,10136,1","5,1,001,1,+999,9",,,"SYN100AAXX  02121 76458 32958 00000 10168 20121 30136 40146 55001 91135 333 10270 20160 30014 58/// 70000;","Q01  00002PRCP24"
"76458099999","2001-01-02T18:00:00","4","23.2","-106.4166666","4.0","COLONIA JUAN CARRASCO MAZATLAN SIN., MX","FM-12","99999","V020","310,1,N,0010,1","99999,9,9,N","015000,1,N,1","+0262,1","+0147,1","10158,1","99,0000,9,1",,,,,"03,1,+02400,9,03,9",,,"06,99,1,03,1,00,1,99999,9,03,1,06,1",,"01,9",,"120,M,+0272,1","240,N,+0156,1","99999,9,10148,1","0,1,001,1,+999,9",,,"SYN118AAXX  02181 76458 32965 63101 10262 20147 30148 40158 50001 83036 91755 333 10272 20156 30/// 56099 58/// 83358 83270;","Q01  00002PRCP99"
"76458099999","2001-01-02T21:00:00","4","23.2","-106.4166666","4.0","COLONIA JUAN CARRASCO MAZATLAN SIN., MX","FM-12","99999","V020","290,1,N,0040,1","99999,9,9,N","018000,1,N,1","+0258,1","+0161,1","10142,1","99,0000,9,1",,,,,"03,1,+02400,9,03,9",,,"06,99,1,99,9,00,1,99999,9,03,1,07,1",,"01,9",,,,"99999,9,10130,1","7,1,018,1,+010,1",,,"SYN106AAXX  02211 76458 32968 62904 10258 20161 30130 40142 57018 80037 92052 333 30/// 56099 58010 83358 83272;","Q01+000002SCOTLCQ02  00002PRCP99"
"76458099999","2001-01-03T00:00:00","4","23.2","-106.4166666","4.0","COLONIA JUAN CARRASCO MAZATLAN SIN., MX","FM-12","99999","V020","290,1,N,0030,1","99999,9,9,N","018000,1,N,1","+0240,1","+0170,1","10131,1","24,0000,9,1",,,,,"03,1,+02400,9,03,9",,,"06,99,1,99,9,00,1,99999,9,03,1,07,1",,"01,9",,"120,M,+0280,1","180,N,+0156,1","99999,9,10121,1","7,1,009,1,+009,1",,,"SYN124AAXX  03001 76458 32968 62903 10240 20170 30121 40131 57009 80037 92340 333 10280 20156 30/// 56099 58009 70000 83358 83272;","Q01+000002SCOTLC"
"76458099999","2001-01-03T15:00:00","4","23.2","-106.4166666","4.0","COLONIA JUAN CARRASCO MAZATLAN SIN., MX","FM-12","99999","V020","040,1,N,0030,1","03600,1,C,N","012000,1,N,1","+0207,1","+0169,1","10189,1","99,0000,9,1",,,"5,1,03,1","0,1,03,1","01,1,+00480,9,06,9",,,"08,99,1,01,1,05,1,00450,1,02,1,99,9",,"01,9",,,,"99999,9,10179,1","2,1,003,1,+030,1",,"02,1","SYN112AAXX  03151 76458 31462 80403 10207 20169 30179 40189 52003 70250 8152/ 91450 333 30/// 5699/ 58030 81616 87468;","Q01  00002PRCP99"
"76458099999","2001-01-03T18:00:00","4","23.2","-106.4166666","4.0","COLONIA JUAN CARRASCO MAZATLAN SIN., MX","FM-12","99999","V020","350,1,N,0030,1","03600,1,9,N","015000,1,N,1","+0260,1","+0170,1","10182,1","03,9999,9,9",,,"2,1,06,1","5,1,06,1","07,1,+03600,9,07,9",,,"07,99,1,07,1,00,1,02250,1,05,1,00,1",,"01,9",,"120,M,+0265,1","240,N,+0180,1","99999,9,10172,1","8,1,007,1,+024,1",,"02,1","SYN130AAXX  03181 76458 31865 73503 10260 20170 30172 40182 58007 69901 70225 87050 91750 333 10265 20180 30/// 56090 58024 69907 87362;","Q01  99992PRCP03"
"76458099999","2001-01-03T21:00:00","4","23.2","-106.4166666","4.0","COLONIA JUAN CARRASCO MAZATLAN SIN., MX","FM-12","99999","V020","320,1,N,0030,1","02700,1,9,N","015000,1,N,1","+0264,1","+0171,1","10156,1","99,0000,9,1",,,"4,1,03,1","4,1,03,1","07,1,+02700,9,07,9",,,"07,99,1,99,9,00,1,99999,9,05,1,00,1",,"01,9",,,,"99999,9,10146,1","7,1,026,1,+016,1",,"04,1","SYN106AAXX  03211 76458 31965 73203 10264 20171 30146 40156 57026 70444 80050 92050 333 30/// 56090 58016 87359;","Q01+000002SCOTLCQ02  00002PRCP99"
"76458099999","2001-01-04T00:00:00","4","23.2","-106.4166666","4.0","COLONIA JUAN CARRASCO MAZATLAN SIN., MX","FM-12","99999","V020","170,1,N,0020,1","99999,9,9,N","012000,1,N,1","+0270,1","+0182,1","10143,1","24,0000,9,1",,,,,,,,"07,99,1,99,9,00,1,99999,9,05,1,00,1",,"01,9",,"120,M,+0290,1","180,N,+0180,1","99999,9,10133,1","5,1,013,1,+011,1",,,"SYN124AAXX  04001 76458 32962 71702 10270 20182 30133 40143 55013 80050 92350 333 10290 20180 30/// 50165 56090 58011 79999 87359;","Q01+000002SCOTLCQ02  00002PRCP24"
"76458099999","2001-01-04T03:00:00","4","23.2","-106.4166666","4.0","COLONIA JUAN CARRASCO MAZATLAN SIN., MX","FM-12","99999","V020","999,9,C,0000,1","02700,1,9,N","012000,1,N,1","+0225,1","+0195,1","10158,1","99,0000,9,1",,,,,"05,1,+02700,9,07,9",,,"06,99,1,06,1,00,1,99999,9,03,1,00,1",,"01,9",,,,"99999,9,10148,1","2,1,015,1,+006,1",,,"SYN100AAXX  04031 76458 32962 60000 10225 20195 30148 40158 52015 86030 90245 333 30/// 56090 58006 85359;","Q01  00002PRCP99"
"76458099999","2001-01-04T12:00:00","4","23.2","-106.4166666","4.0","COLONIA JUAN CARRASCO MAZATLAN SIN., MX","FM-12","99999","V020","320,1,N,0020,1","22000,1,9,N","008000,1,N,1","+0188,1","+0157,1","10140,1","99,0000,9,1",,,,,"00,1,+99999,9,99,9",,,"00,99,1,00,1,00,1,99999,9,00,1,00,1",,"01,9","999,+0160,9","999,M,+0290,1","120,N,+0172,1","99999,9,10130,1","7,1,008,1,+009,1",,,"SYN094AAXX  04121 76458 32958 03202 10188 20157 30130 40140 57008 91145 333 10290 20172 30016 58009;","Q01  00002PRCP99"
"76458099999","2001-01-04T18:00:00","4","23.2","-106.4166666","4.0","COLONIA JUAN CARRASCO MAZATLAN SIN., MX","FM-12","99999","V020","090,1,N,0010,1","22000,1,9,N","012000,1,N,1","+0294,1","+0152,1","10159,1","99,0000,9,1",,,,,"01,1,+00900,9,06,9","01,1,+02400,9,03,9",,"04,99,1,01,1,04,1,99999,9,03,1,05,1",,"01,9",,"120,M,+0310,1","240,N,+0173,1","99999,9,10149,1","4,1,000,1,-023,1",,,"SYN124AAXX  04181 76458 32962 40901 10294 20152 30149 40159 54000 81435 91755 333 10310 20173 30/// 56199 59023 81630 81358 82270;","Q01  00002PRCP99"
"76458099999","2001-01-04T21:00:00","4","23.2","-106.4166666","4.0","COLONIA JUAN CARRASCO MAZATLAN SIN., MX","FM-12","99999","V020","300,1,N,0050,1","03600,1,9,N","018000,1,N,1","+0271,1","+0186,1","10132,1","99,0000,9,1",,,,,"07,1,+03600,9,07,9",,,"07,99,1,07,1,00,1,02250,1,05,1,00,1",,"01,9",,,,"99999,9,10122,1","7,1,007,1,-024,1",,,"SYN100AAXX  04211 76458 32868 73005 10271 20186 30122 40132 57007 87050 92050 333 30/// 56090 59024 87362;","Q01  00002PRCP99"
"76458099999","2001-01-05T00:00:00","4","23.2","-106.4166666","4.0","COLONIA JUAN CARRASCO MAZATLAN SIN., MX","FM-12","99999","V020","310,1,N,0040,1","22000,1,9,N","020000,1,N,1","+0271,1","+0185,1","10127,1","24,0000,9,1",,,,,"02,1,+03600,9,03,9",,,"03,99,1,02,1,00,1,02250,1,05,1,06,1",,"01,9",,"120,M,+0325,1","180,N,+0173,1","99999,9,10117,1","7,1,005,1,-016,1",,,"SYN130AAXX  05001 76458 32870 33104 10271 20185 30117 40127 57005 82056 92345 333 10325 20173 30/// 50250 56099 59016 70000 82362 81070;","Q01  00002PRCP99Q02  00003PRCP99"
"76458099999","2001-01-05T03:00:00","4","23.2","-106.4166666","4.0","COLONIA JUAN CARRASCO MAZATLAN SIN., MX","FM-12","99999","V020","320,1,N,0040,1","22000,1,9,N","016000,1,N,1","+0245,1","+0191,1","10142,1","99,0000,9,1",,,,,"02,1,+02700,9,07,9",,,"02,99,1,02,1,00,1,02250,1,05,1,00,1",,"01,9",,,,"99999,9,10132,1","2,1,014,1,-016,1",,,"SYN100AAXX  05031 76458 32866 23204 10245 20191 30132 40142 52014 82050 90245 333 30/// 56050 59016 82359;","Q01  00002PRCP99"
"76458099999","2001-01-05T06:00:00","4","23.2","-106.4166666","4.0","COLONIA JUAN CARRASCO MAZATLAN SIN., MX","FM-12","99999","V020","290,1,N,0030,1","22000,1,9,N","016000,1,N,1","+0218,1","+0198,1","10149,1","99,0000,9,1",,,,,"00,1,+99999,9,99,9",,,"00,99,1,00,1,00,1,99999,9,00,1,00,1","0336,9","01,9",,"240,M,+0325,1","240,N,+0173,1","99999,9,10139,1","2,1,007,1,-014,1",,,"SYN100AAXX  05061 76458 32966 02903 10218 20198 30139 40149 52007 90235 333 10325 20173 30/// 55056 59014;","Q01  00002PRCP99"
"76458099999","2001-01-05T12:00:00","4","23.2","-106.4166666","4.0","COLONIA JUAN CARRASCO MAZATLAN SIN., MX","FM-12","99999","V020","320,1,N,0010,1","22000,1,9,N","008000,1,N,1","+0193,1","+0173,1","10132,1","24,0000,9,1",,,,,"00,1,+99999,9,99,9",,,"00,99,1,00,1,00,1,99999,9,00,1,00,1",,"01,9","999,+0170,9","999,M,+0325,1","120,N,+0181,1","99999,9,10122,1","7,1,007,1,-008,1",,,"SYN100AAXX  05121 76458 32958 03201 10193 20173 30122 40132 57007 91142 333 10325 20181 30017 59008 70000;","Q01  00002PRCP24"
"76458099999","2001-01-05T15:00:00","4","23.2","-106.4166666","4.0","COLONIA JUAN CARRASCO MAZATLAN SIN., MX","FM-12","99999","V020","360,1,N,0010,1","99999,9,9,N","012000,1,N,1","+0202,1","+0158,1","10153,1","99,0000,9,1",,,,,"04,1,+02400,9,03,9",,,"06,99,1,04,1,00,1,99999,9,03,1,02,1",,"01,9",,,,"99999,9,10143,1","1,1,021,1,-006,1",,,"SYN106AAXX  05151 76458 32962 63601 10202 20158 30143 40153 51021 84032 91455 333 30/// 56/// 59006 84358 82270;","Q01  00002PRCP99"
"76458099999","2001-01-05T21:00:00","4","23.2","-106.4166666","4.0","COLONIA JUAN CARRASCO MAZATLAN SIN., MX","FM-12","99999","V020","180,1,N,0030,1","99999,9,9,N","013000,1,N,1","+0274,1","+0196,1","10128,1","99,0000,9,1",,,,,"01,1,+02700,9,03,9",,,"05,99,1,99,9,00,1,99999,9,03,1,02,1",,"01,9",,,,"99999,9,10118,1","7,1,031,1,-005,1",,,"SYN106AAXX  05211 76458 32963 51803 10274 20196 30118 40128 57031 80032 92050 333 30/// 56099 59005 81359 84075;","Q01+000002SCOTLCQ02  00002PRCP99"
"76458099999","2001-01-06T00:00:00","4","23.2","-106.4166666","4.0","COLONIA JUAN CARRASCO MAZATLAN SIN., MX","FM-12","99999","V020","270,1,N,0030,1","22000,1,9,N","015000,1,N,1","+0260,1","+0206,1","10116,1","24,0000,9,1",,,,,,,,"03,99,1,00,1,00,1,99999,9,00,1,01,1",,"01,9",,"120,M,+0292,1","180,N,+0181,1","99999,9,10106,1","7,1,012,1,-012,1",,,"SYN124AAXX  06001 76458 32965 32703 10260 20206 30106 40116 57012 80001 92350 333 10292 20181 30/// 50254 56009 59012 70000 83077;","Q01  00002PRCP99Q02  00003PRCP99"
"76458099999","2001-01-06T03:00:00","4","23.2","-106.4166666","4.0","COLONIA JUAN CARRASCO MAZATLAN SIN., MX","FM-12","99999","V020","350,1,N,0030,1","22000,1,9,N","010000,1,N,1","+0234,1","+0189,1","10126,1","99,0000,9,1",,,,,"00,1,+99999,9,99,9",,,"00,99,1,00,1,00,1,99999,9,00,1,00,1",,"01,9",,,,"99999,9,10116,1","2,1,010,1,-016,1",,,"SYN082AAXX  06031 76458 32960 03503 10234 20189 30116 40126 52010 90250 333 30/// 59016;","Q01  00002PRCP99"
"76458099999","2001-01-06T06:00:00","4","23.2","-106.4166666","4.0","COLONIA JUAN CARRASCO MAZATLAN SIN., MX","FM-12","99999","V020","360,1,N,0020,1","22000,1,9,N","010000,1,N,1","+0217,1","+0198,1","10132,1","99,0000,9,1",,,,,"00,1,+99999,9,99,9",,,"00,99,1,00,1,00,1,99999,9,00,1,00,1","0480,9","01,9",,"240,M,+0292,1","240,N,+0181,1","99999,9,10122,1","0,1,006,1,-017,1",,,"SYN100AAXX  06061 76458 32960 03602 10217 20198 30122 40132 50006 90540 333 10292 20181 30/// 55080 59017;","Q01  00002PRCP99"
"76458099999","2001-01-06T18:00:00","4","23.2","-106.4166666","4.0","COLONIA JUAN CARRASCO MAZATLAN SIN., MX","FM-12","99999","V020","210,1,N,0030,1","22000,1,9,N","003000,1,N,1","+0255,1","+0211,1","10142,1","99,0000,9,1",,,"4,1,06,1","1,1,06,1","02,1,+00570,9,02,9",,,"02,99,1,02,1,01,1,00450,1,00,1,00,1",,"01,9",,"120,M,+0272,1","240,N,+0182,1","99999,9,10132,1","1,1,008,1,-017,1",,"10,1","SYN118AAXX  06181 76458 31430 22103 10255 20211 30132 40142 51008 71041 82100 91755 333 10272 20182 30/// 561// 59017 82819;","Q01  00002PRCP99"
"76458099999","2001-01-06T21:00:00","4","23.2","-106.4166666","4.0","COLONIA JUAN CARRASCO MAZATLAN SIN., MX","FM-12","99999","V020","280,1,N,0030,1","22000,1,9,N","999999,9,N,1","+0250,1","+0204,1","10114,1","99,0000,9,1",,,"4,1,03,1","4,1,03,1","00,1,+99999,9,99,9",,,"00,99,1,00,1,00,1,99999,9,00,1,00,1",,"01,9",,,,"99999,9,10104,1","7,1,028,1,-013,1",,"05,1","SYN088AAXX  06211 76458 31955 02803 10250 20204 30104 40114 57028 70544 92050 333 30/// 59013;","Q01  00002PRCP99"
"76458099999","2001-01-07T00:00:00","4","23.2","-106.4166666","4.0","COLONIA JUAN CARRASCO MAZATLAN SIN., MX","FM-12","99999","V020","290,1,N,0040,1","22000,1,9,N","015000,1,N,1","+0251,1","+0198,1","10104,1","24,0000,9,1",,,,,,,,"01,99,1,01,1,00,1,99999,9,03,1,00,1",,"01,9",,"120,M,+0273,1","180,N,+0182,1","99999,9,10094,1","6,1,010,1,-012,1",,,"SYN124AAXX  07001 76458 32965 12904 10251 20198 30094 40104 56010 81030 92345 333 10273 20182 30/// 50210 56090 59012 70000 81362;","Q01  00002PRCP99Q02  00003PRCP99"
"76458099999","2001-01-07T03:00:00","4","23.2","-106.4166666","4.0","COLONIA JUAN CARRASCO MAZATLAN SIN., MX","FM-12","99999","V020","320,1,N,0030,1","22000,1,9,N","015000,1,N,1","+0235,1","+0194,1","10112,1","99,0000,9,1",,,,,"00,1,+99999,9,99,9",,,"00,99,1,00,1,00,1,99999,9,00,1,00,1",,"01,9",,,,"99999,9,10101,1","2,1,007,1,-015,1",,,"SYN082AAXX  07031 76458 32965 03203 10235 20194 30101 40112 52007 90245 333 30/// 59015;","Q01  00002PRCP99"
"76458099999","2001-01-07T06:00:00","4","23.2","-106.4166666","4.0","COLONIA JUAN CARRASCO MAZATLAN SIN., MX","FM-12","99999","V020","340,1,N,0020,1","22000,1,9,N","015000,1,N,1","+0214,1","+0190,1","10117,1","99,0000,9,1",,,,,"00,1,+99999,9,99,9",,,"00,99,1,00,1,00,1,99999,9,00,1,00,1","0492,9","01,9",,"240,M,+0273,1","240,N,+0182,1","99999,9,10107,1","0,1,005,1,-015,1",,,"SYN100AAXX  07061 76458 32965 03402 10214 20190 30107 40117 50005 90540 333 10273 20182 30/// 55082 59015;","Q01  00002PRCP99"
"76458099999","2001-01-07T09:00:00","4","23.2","-106.4166666","4.0","COLONIA JUAN CARRASCO MAZATLAN SIN., MX","FM-12","99999","V020","999,9,C,0000,1","22000,1,9,N","008000,1,N,1","+0200,1","+0185,1","10110,1","99,0000,9,1",,,,,"00,1,+99999,9,99,9",,,"00,99,1,00,1,00,1,99999,9,00,1,00,1",,"01,9",,,,"99999,9,10100,1","7,1,007,1,+999,9",,,"SYN082AAXX  07091 76458 32958 00000 10200 20185 30100 40110 57007 90850 333 30/// 58///;","Q01  00002PRCP99"
"76458099999","2001-01-07T12:00:00","4","23.2","-106.4166666","4.0","COLONIA JUAN CARRASCO MAZATLAN SIN., MX","FM-12","99999","V020","999,9,C,0000,1","22000,1,9,N","008000,1,N,1","+0196,1","+0181,1","10111,1","24,0000,9,1",,,,,"00,1,+99999,9,99,9",,,"00,99,1,00,1,00,1,99999,9,00,1,00,1",,"01,9","999,+0160,9","999,M,+0273,1","120,N,+0183,1","99999,9,10101,1","2,1,001,1,+999,9",,,"SYN100AAXX  07121 76458 32958 00000 10196 20181 30101 40111 52001 91140 333 10273 20183 30016 58/// 70000;","Q01  00002PRCP24"
"76458099999","2001-01-07T15:00:00","4","23.2","-106.4166666","4.0","COLONIA JUAN CARRASCO MAZATLAN SIN., MX","FM-12","99999","V020","020,1,N,0010,1","06000,1,9,N","008000,1,N,1","+0196,1","+0181,1","10126,1","99,0000,9,1",,,"0,1,03,1","0,1,03,1","05,1,+06000,9,08,9",,,"05,99,1,99,9,00,1,99999,9,00,1,08,1",,"01,9",,,,"99999,9,10116,1","2,1,015,1,-008,1",,"46,1","SYN106AAXX  07151 76458 31958 50201 10196 20181 30116 40126 52015 74600 80008 91450 333 30/// 56009 59008 85270;","Q01+000002SCOTLCQ02  00002PRCP99"
"76458099999","2001-01-07T18:00:00","4","23.2","-106.4166666","4.0","COLONIA JUAN CARRASCO MAZATLAN SIN., MX","FM-12","99999","V020","160,1,N,0020,1","22000,1,9,N","010000,1,N,1","+0253,1","+0201,1","10133,1","99,0000,9,1",,,"4,1,06,1","4,1,06,1","02,1,+00660,9,08,9",,,"04,99,1,02,1,01,1,00800,1,00,1,06,1",,"01,9",,"120,M,+0265,1","240,N,+0181,1","99999,9,10123,1","2,1,007,1,-009,1",,"05,1","SYN124AAXX  07181 76458 31560 41602 10253 20201 30123 40133 52007 70544 82106 91745 333 10265 20181 30/// 56309 59009 82822 82070;","Q01  00002PRCP99"
"76458099999","2001-01-07T21:00:00","4","23.2","-106.4166666","4.0","COLONIA JUAN CARRASCO MAZATLAN SIN., MX","FM-12","99999","V020","120,1,N,0040,1","08400,1,9,N","010000,1,N,1","+0264,1","+0210,1","10113,1","99,0000,9,1",,,"4,1,03,1","4,1,03,1","05,1,+08400,9,01,9",,,"05,99,1,00,1,00,1,99999,9,00,1,01,1",,"01,9",,,,"99999,9,10103,1","7,1,020,1,-001,1",,"05,1","SYN106AAXX  07211 76458 31960 51204 10264 20210 30103 40113 57020 70544 80001 92050 333 30/// 56009 59001 85078;","Q01  00002PRCP99"
"76458099999","2001-01-08T00:00:00","4","23.2","-106.4166666","4.0","COLONIA JUAN CARRASCO MAZATLAN SIN., MX","FM-12","99999","V020","300,1,N,0030,1","22000,1,9,N","015000,1,N,1","+0252,1","+0194,1","10111,1","24,0000,9,1",,,,,,,,"04,99,1,00,1,00,1,99999,9,00,1,04,1",,"01,9",,"120,M,+0278,1","180,N,+0181,1","99999,9,10101,1","0,1,002,1,+006,1",,,"SYN124AAXX  08001 76458 32965 43003 10252 20194 30101 40111 50002 80004 92345 333 10278 20181 30/// 50223 56009 58006 70000 84077;","Q01  00002PRCP99Q02  00003PRCP99"
"76458099999","2001-01-08T03:00:00","4","23.2","-106.4166666","4.0","COLONIA JUAN CARRASCO MAZATLAN SIN., MX","FM-12","99999","V020","310,1,N,0050,1","07800,1,9,N","015000,1,N,1","+0234,1","+0187,1","10121,1","99,0000,9,1",,,,,"07,1,+07800,9,08,9",,,"07,99,1,99,9,00,1,99999,9,00,1,07,1",,"01,9",,,,"99999,9,10111,1","2,1,010,1,+010,1",,,"SYN100AAXX  08031 76458 32965 73105 10234 20187 30111 40121 52010 80007 90245 333 30/// 56009 58010 87276;","Q01+000002SCOTLCQ02  00002PRCP99"
"76458099999","2001-01-08T06:00:00","4","23.2","-106.4166666","4.0","COLONIA JUAN CARRASCO MAZATLAN SIN., MX","FM-12","99999","V020","330,1,N,0020,1","22000,1,9,N","015000,1,N,1","+0208,1","+0184,1","10126,1","99,0000,9,1",,,,,,,,"04,99,1,00,1,00,1,99999,9,00,1,05,1","0444,9","01,9",,"240,M,+0278,1","240,N,+0181,1","99999,9,10116,1","2,1,004,1,+009,1",,,"SYN118AAXX  08061 76458 32965 43302 10208 20184 30116 40126 52004 80005 90545 333 10278 20181 30/// 55074 56009 58009 84079;","Q01  00002PRCP99"
"76458099999","2001-01-08T09:00:00","4","23.2","-106.4166666","4.0","COLONIA JUAN CARRASCO MAZATLAN SIN., MX","FM-12","99999","V020","340,1,N,0020,1","22000,1,9,N","008000,1,N,1","+0192,1","+0148,1","10120,1","99,0000,9,1",,,,,"00,1,+99999,9,99,9",,,"00,99,1,00,1,00,1,99999,9,00,1,00,1",,"01,9",,,,"99999,9,10110,1","7,1,005,1,+010,1",,,"SYN082AAXX  08091 76458 32958 03402 10192 20148 30110 40120 57005 90900 333 30/// 58010;","Q01  00002PRCP99"
"76458099999","2001-01-08T12:00:00","4","23.2","-106.4166666","4.0","COLONIA JUAN CARRASCO MAZATLAN SIN., MX","FM-12","99999","V020","330,1,N,0010,1","22000,1,9,N","008000,1,N,1","+0186,1","+0144,1","10111,1","99,0000,9,1",,,,,"00,1,+99999,9,99,9",,,"00,99,1,00,1,00,1,99999,9,00,1,00,1",,"01,9","999,+0150,9","999,M,+0278,1","120,N,+0172,1","99999,9,10101,1","7,1,009,1,+001,1",,,"SYN094AAXX  08121 76458 32958 03301 10186 20144 30101 40111 57009 91135 333 10278 20172 30015 58001;","Q01  00002PRCP99"
"76458099999","2001-01-08T15:00:00","4","23.2","-106.4166666","4.0","COLONIA JUAN CARRASCO MAZATLAN SIN., MX","FM-12","99999","V020","040,1,N,0030,1","06000,1,9,N","012000,1,N,1","+0196,1","+0175,1","10127,1","99,0000,9,1",,,,,"07,1,+06000,9,01,9",,,"07,99,1,00,1,00,1,99999,9,00,1,02,1",,"01,9",,,,"99999,9,10117,1","2,1,006,1,+001,1",,,"SYN100AAXX  08151 76458 32962 70403 10196 20175 30117 40127 52006 80002 91455 333 30/// 56/// 58001 87070;","Q01  00002PRCP99"
"76458099999","2001-01-08T18:00:00","4","23.2","-106.4166666","4.0","COLONIA JUAN CARRASCO MAZATLAN SIN., MX","FM-12","99999","V020","280,1,N,0030,1","22000,1,9,N","012000,1,N,1","+0256,1","+0175,1","10129,1","99,0000,9,1",,,,,"04,1,+06000,9,01,9",,,"04,99,1,00,1,00,1,99999,9,00,1,02,1",,"01,9",,"120,M,+0270,1","240,N,+0171,1","99999,9,10119,1","0,1,002,1,-004,1",,,"SYN112AAXX  08181 76458 32962 42803 10256 20175 30119 40129 50002 80002 91755 333 10270 20171 30/// 56/// 59004 84070;","Q01  00002PRCP99"
"76458099999","2001-01-08T21:00:00","4","23.2","-106.4166666","4.0","COLONIA JUAN CARRASCO MAZATLAN SIN., MX","FM-12","99999","V020","300,1,N,0050,1","99999,9,9,N","019000,1,N,1","+0250,1","+0169,1","10101,1","99,0000,9,1",,,,,"02,1,+02400,9,03,9",,,"05,99,1,99,9,99,9,99999,9,99,9,99,9",,"01,9",,,,"99999,9,10091,1","7,1,018,1,+012,1",,,"SYN100AAXX  08211 76458 32969 53005 10250 20169 30091 40101 57018 92040 333 30/// 56099 58012 82358 83079;","Q01  00002PRCP99"
"76458099999","2001-01-09T00:00:00","4","23.2","-106.4166666","4.0","COLONIA JUAN CARRASCO MAZATLAN SIN., MX","FM-12","99999","V020","310,1,N,0050,1","99999,9,9,N","020000,1,N,1","+0240,1","+0171,1","10097,1","24,0000,9,1",,,,,,,,"07,99,1,99,9,00,1,99999,9,05,1,00,1",,"01,9",,"120,M,+0270,1","180,N,+0171,1","99999,9,10087,1","5,1,004,1,-014,1",,,"SYN124AAXX  09001 76458 32970 73105 10240 20171 30087 40097 55004 80050 92345 333 10270 20171 30/// 50275 56090 59014 70000 87362;","Q01+000002SCOTLCQ02  00002PRCP99Q03  00003PRCP99"
"76458099999","2001-01-09T03:00:00","4","23.2","-106.4166666","4.0","COLONIA JUAN CARRASCO MAZATLAN SIN., MX","FM-12","99999","V020","330,1,N,0040,1","07800,1,9,N","016000,1,N,1","+0215,1","+0158,1","10113,1","99,0000,9,1",,,,,"05,1,+07800,9,08,9",,,"05,99,1,99,9,00,1,99999,9,00,1,07,1",,"01,9",,,,"99999,9,10103,1","2,1,016,1,-008,1",,,"SYN100AAXX  09031 76458 32966 53304 10215 20158 30103 40113 52016 80007 90245 333 30/// 56009 59008 85276;","Q01+000002SCOTLCQ02  00002PRCP99"
"76458099999","2001-01-09T06:00:00","4","23.2","-106.4166666","4.0","COLONIA JUAN CARRASCO MAZATLAN SIN., MX","FM-12","99999","V020","360,1,N,0020,1","99999,9,9,N","016000,1,N,1","+0202,1","+0167,1","10121,1","99,0000,9,1",,,,,,,,"06,99,1,00,1,00,1,99999,9,00,1,05,1","0330,9","01,9",,"240,M,+0270,1","240,N,+0170,1","99999,9,10111,1","2,1,008,1,-004,1",,,"SYN118AAXX  09061 76458 32966 63602 10202 20167 30111 40121 52008 80005 90540 333 10270 20170 30/// 55055 56009 59004 86079;","Q01  00002PRCP99"
"76458099999","2001-01-09T12:00:00","4","23.2","-106.4166666","4.0","COLONIA JUAN CARRASCO MAZATLAN SIN., MX","FM-12","99999","V020","999,9,C,0000,1","06600,1,9,N","008000,1,N,1","+0186,1","+0161,1","10113,1","99,0000,9,1",,,,,"06,1,+06600,9,08,9",,,"06,99,1,99,9,00,1,99999,9,00,1,07,1",,"01,9","999,+0160,9","999,M,+0270,1","120,N,+0171,1","99999,9,10103,1","7,1,007,1,+002,1",,,"SYN112AAXX  09121 76458 32958 60000 10186 20161 30103 40113 57007 80007 91135 333 10270 20171 30016 56009 58002 86272;","Q01+000002SCOTLCQ02  00002PRCP99"
"76458099999","2001-01-09T15:00:00","4","23.2","-106.4166666","4.0","COLONIA JUAN CARRASCO MAZATLAN SIN., MX","FM-12","99999","V020","010,1,N,0010,1","03600,1,9,N","012000,1,N,1","+0192,1","+0164,1","10125,1","99,0000,9,1",,,,,"07,1,+03600,9,07,9",,,"07,99,1,07,1,00,1,02250,1,05,1,00,1",,"01,9",,,,"99999,9,10115,1","2,1,011,1,-002,1",,,"SYN100AAXX  09151 76458 32862 70101 10192 20164 30115 40125 52011 87050 91450 333 30/// 56050 59002 87362;","Q01  00002PRCP99"
"76458099999","2001-01-09T18:00:00","4","23.2","-106.4166666","4.0","COLONIA JUAN CARRASCO MAZATLAN SIN., MX","FM-12","99999","V020","160,1,N,0030,1","03600,1,9,N","018000,1,N,1","+0243,1","+0181,1","10136,1","99,0000,9,1",,,,,"01,1,+00780,9,08,9",,,"05,99,1,01,1,01,1,00800,1,03,1,00,1",,"01,9",,"120,M,+0260,1","240,N,+0180,1","99999,9,10126,1","0,1,011,1,+007,1",,,"SYN118AAXX  09181 76458 32568 51603 10243 20181 30126 40136 50011 81130 91750 333 10260 20180 30/// 56850 58007 81826 84362;","Q01  00002PRCP99"
"76458099999","2001-01-09T21:00:00","4","23.2","-106.4166666","4.0","COLONIA JUAN CARRASCO MAZATLAN SIN., MX","FM-12","99999","V020","260,1,N,0020,1","03600,1,C,N","020000,1,N,1","+0248,1","+0191,1","10120,1","99,0000,9,1",,,,,"04,1,+00720,9,08,9",,,"07,99,1,04,1,02,1,00800,1,03,1,00,1",,"01,9",,,,"99999,9,10110,1","7,1,017,1,+019,1",,,"SYN106AAXX  09211 76458 32570 72602 10248 20191 30110 40120 57017 84230 92045 333 30/// 56350 58019 84824 83359;","Q01  00002PRCP99"
"76458099999","2001-01-10T00:00:00","4","23.2","-106.4166666","4.0","COLONIA JUAN CARRASCO MAZATLAN SIN., MX","FM-12","99999","V020","210,1,N,0030,1","22000,1,9,N","020000,1,N,1","+0235,1","+0178,1","10117,1","24,0000,9,1",,,,,,,,"03,99,1,03,1,02,1,00800,1,00,1,00,1",,"01,9",,"120,M,+0270,1","180,N,+0180,1","99999,9,10107,1","0,1,002,1,+020,1",,,"SYN124AAXX  10001 76458 32570 32103 10235 20178 30107 40117 50002 83200 92350 333 10270 20180 30/// 50280 56300 58020 70000 83824;","Q01  00002PRCP99Q02  00003PRCP99"
"76458099999","2001-01-10T03:00:00","4","23.2","-106.4166666","4.0","COLONIA JUAN CARRASCO MAZATLAN SIN., MX","FM-12","99999","V020","140,1,N,0020,1","22000,1,9,N","008000,1,N,1","+0220,1","+0168,1","10125,1","99,0000,9,1",,,,,"00,1,+99999,9,99,9",,,"00,99,1,00,1,00,1,99999,9,00,1,00,1",,"01,9",,,,"99999,9,10115,1","2,1,008,1,+012,1",,,"SYN082AAXX  10031 76458 32958 01402 10220 20168 30115 40125 52008 90245 333 30/// 58012;","Q01  00002PRCP99"
"76458099999","2001-01-10T06:00:00","4","23.2","-106.4166666","4.0","COLONIA JUAN CARRASCO MAZATLAN SIN., MX","FM-12","99999","V020","140,1,N,0020,1","00420,1,9,N","008000,1,N,1","+0220,1","+0174,1","10147,1","99,0000,9,1",,,,,,,,"06,99,1,06,1,04,1,00450,1,00,1,00,1","0300,9","01,9",,"240,M,+0270,1","240,N,+0180,1","99999,9,10137,1","2,1,022,1,+026,1",,,"SYN118AAXX  10061 76458 32458 61402 10220 20174 30137 40147 52022 86400 90545 333 10270 20180 30/// 55050 56300 58026 86619;","Q01  00002PRCP99"
"76458099999","2001-01-10T12:00:00","4","23.2","-106.4166666","4.0","COLONIA JUAN CARRASCO MAZATLAN SIN., MX","FM-12","99999","V020","240,1,N,0020,1","22000,1,9,N","008000,1,N,1","+0214,1","+0145,1","10141,1","99,0000,9,1",,,,,"04,1,+00870,9,05,9",,,"04,99,1,04,1,04,1,00800,1,00,1,00,1",,"01,9","999,+0160,9","999,M,+0270,1","120,N,+0189,1","99999,9,10131,1","7,1,007,1,+017,1",,,"SYN112AAXX  10121 76458 32558 42402 10214 20145 30131 40141 57007 84400 91135 333 10270 20189 30016 56700 58017 84629;","Q01  00002PRCP99"
"76458099999","2001-01-10T18:00:00","4","23.2","-106.4166666","4.0","COLONIA JUAN CARRASCO MAZATLAN SIN., MX","FM-12","99999","V020","999,9,C,0000,1","22000,1,9,N","015000,1,N,1","+0234,1","+0149,1","10171,1","99,0000,9,1",,,,,"03,1,+01050,9,05,9",,,"03,99,1,03,1,04,1,01250,1,00,1,00,1",,"01,9",,"120,M,+0253,1","240,N,+0179,1","99999,9,10161,1","1,1,008,1,+035,1",,,"SYN112AAXX  10181 76458 32665 32800 10234 20149 30161 40171 51008 83400 91755 333 10253 20179 30/// 563// 58035 83635;","Q01  00002PRCP99"
"76458099999","2001-01-10T21:00:00","4","23.2","-106.4166666","4.0","COLONIA JUAN CARRASCO MAZATLAN SIN., MX","FM-12","99999","V020","300,1,N,0040,1","22000,1,9,N","022000,1,N,1","+0246,1","+0150,1","10147,1","99,0000,9,1",,,,,"02,1,+01200,9,02,9",,,"02,99,1,02,1,01,1,01250,1,00,1,00,1",,"01,9",,,,"99999,9,10137,1","7,1,024,1,+027,1",,,"SYN100AAXX  10211 76458 32672 23004 10246 20150 30137 40147 57024 82100 92048 333 30/// 56300 58027 82840;","Q01  00002PRCP99"
"76458099999","2001-01-11T03:00:00","4","23.2","-106.4166666","4.0","COLONIA JUAN CARRASCO MAZATLAN SIN., MX","FM-12","99999","V020","330,1,N,0030,1","22000,1,9,N","010000,1,N,1","+0208,1","+0152,1","10150,1","99,0000,9,1",,,,,"00,1,+99999,9,99,9",,,"00,99,1,00,1,00,1,99999,9,00,1,00,1",,"01,9",,,,"99999,9,10140,1","2,1,013,1,+025,1",,,"SYN082AAXX  11031 76458 32960 03303 10208 20152 30140 40150 52013 90250 333 30/// 58025;","Q01  00002PRCP99"
"76458099999","2001-01-11T06:00:00","4","23.2","-106.4166666","4.0","COLONIA JUAN CARRASCO MAZATLAN SIN., MX","FM-12","99999","V020","360,1,N,0010,1","22000,1,9,N","010000,1,N,1","+0192,1","+0146,1","10163,1","99,0000,9,1",,,,,"00,1,+99999,9,99,9",,,"00,99,1,00,1,00,1,99999,9,00,1,00,1","0558,9","01,9",,"240,M,+0262,1","240,N,+0179,1","99999,9,10152,1","2,1,013,1,+016,1",,,"SYN100AAXX  11061 76458 32960 03601 10192 20146 30152 40163 52013 90540 333 10262 20179 30/// 55093 58016;","Q01  00002PRCP99"
"76458099999","2001-01-11T12:00:00","4","23.2","-106.4166666","4.0","COLONIA JUAN CARRASCO MAZATLAN SIN., MX","FM-12","99999","V020","340,1,N,0020,1","22000,1,9,N","008000,1,N,1","+0170,1","+0141,1","10149,1","99,0000,9,1",,,,,"00,1,+99999,9,99,9",,,"00,99,1,00,1,00,1,99999,9,00,1,00,1",,"01,9","999,+0140,9","999,M,+0262,1","120,N,+0165,1","99999,9,10139,1","7,1,007,1,+008,1",,,"SYN094AAXX  11121 76458 32958 03402 10170 20141 30139 40149 57007 91138 333 10262 20165 30014 58008;","Q01  00002PRCP99"
"76458099999","2001-01-11T18:00:00","4","23.2","-106.4166666","4.0","COLONIA JUAN CARRASCO MAZATLAN SIN., MX","FM-12","99999","V020","280,1,N,0030,1","22000,1,9,N","015000,1,N,1","+0240,1","+0153,1","10169,1","99,0000,9,1",,,,,"02,1,+06000,9,01,9",,,"02,99,1,00,1,00,1,99999,9,00,1,02,1",,"01,9",,"120,M,+0261,1","240,N,+0151,1","99999,9,10159,1","1,1,008,1,-002,1",,,"SYN112AAXX  11181 76458 32965 22803 10240 20153 30159 40169 51008 80002 91755 333 10261 20151 30/// 56/// 59002 82070;","Q01  00002PRCP99"
"76458099999","2001-01-11T21:00:00","4","23.2","-106.4166666","4.0","COLONIA JUAN CARRASCO MAZATLAN SIN., MX","FM-12","99999","V020","270,1,N,0040,1","22000,1,9,N","018000,1,N,1","+0240,1","+0176,1","10148,1","99,0000,9,1",,,,,"03,1,+06000,9,01,9",,,"03,99,1,00,1,00,1,99999,9,00,1,06,1",,"01,9",,,,"99999,9,10138,1","7,1,020,1,+001,1",,,"SYN100AAXX  11211 76458 32968 32704 10240 20176 30138 40148 57020 80006 92050 333 30/// 56009 58001 83070;","Q01  00002PRCP99"
"76458099999","2001-01-12T00:00:00","4","23.2","-106.4166666","4.0","COLONIA JUAN CARRASCO MAZATLAN SIN., MX","FM-12","99999","V020","300,1,N,0040,1","99999,9,9,N","018000,1,N,1","+0233,1","+0173,1","10137,1","24,0000,9,1",,,,,,,,"06,99,1,00,1,00,1,99999,9,00,1,08,1",,"01,9",,"120,M,+0260,1","180,N,+0151,1","99999,9,10127,1","7,1,011,1,+000,1",,,"SYN124AAXX  12001 76458 32968 63004 10233 20173 30127 40137 57011 80008 92345 333 10260 20151 30/// 50320 56009 58000 70000 82668;","Q01  00002PRCP99Q02  00003PRCP99"
"76458099999","2001-01-12T03:00:00","4","23.2","-106.4166666","4.0","COLONIA JUAN CARRASCO MAZATLAN SIN., MX","FM-12","99999","V020","290,1,N,0040,1","22000,1,9,N","008000,1,N,1","+0224,1","+0173,1","10140,1","99,0000,9,1",,,,,"04,1,+08400,9,08,9",,,"04,99,1,00,1,00,1,99999,9,00,1,08,1",,"01,9",,,,"99999,9,10130,1","2,1,003,1,-010,1",,,"SYN100AAXX  12031 76458 32958 42904 10224 20173 30130 40140 52003 80008 90250 333 30/// 56009 59010 84278;","Q01  00002PRCP99"
"76458099999","2001-01-12T06:00:00","4","23.2","-106.4166666","4.0","COLONIA JUAN CARRASCO MAZATLAN SIN., MX","FM-12","99999","V020","340,1,N,0030,1","22000,1,9,N","008000,1,N,1","+0204,1","+0170,1","10150,1","99,0000,9,1",,,,,,,,"03,99,1,00,1,00,1,99999,9,00,1,08,1","0486,9","01,9",,"240,M,+0280,1","240,N,+0151,1","99999,9,10140,1","2,1,010,1,-013,1",,,"SYN118AAXX  12061 76458 32958 33403 10204 20170 30140 40150 52010 80008 90545 333 10280 20151 30/// 55081 56009 59013 83276;","Q01  00002PRCP99"
"76458099999","2001-01-12T12:00:00","4","23.2","-106.4166666","4.0","COLONIA JUAN CARRASCO MAZATLAN SIN., MX","FM-12","99999","V020","999,9,C,0000,1","22000,1,9,N","008000,1,N,1","+0187,1","+0164,1","10134,1","99,0000,9,1",,,,,"02,1,+02400,9,07,9",,,"02,99,1,99,9,99,9,99999,9,03,1,00,1",,"01,9",,,,"99999,9,10124,1","7,1,016,1,-022,1",,,"SYN100AAXX  12121 76458 32958 20000 10187 20164 30124 40134 57016 80030 90900 333 30/// 56090 59022 82358;","Q01+000002SCOTLCQ02  00002PRCP99Q03    003SCOLCG"
"76458099999","2001-01-12T18:00:00","4","23.2","-106.4166666","4.0","COLONIA JUAN CARRASCO MAZATLAN SIN., MX","FM-12","99999","V020","310,1,N,0030,1","02400,1,9,N","012000,1,N,1","+0220,1","+0174,1","10162,1","99,0000,2,1",,,"5,1,06,1","2,1,06,1","08,1,+02400,9,07,9",,,"08,99,1,08,1,99,9,99999,9,07,1,99,9",,"01,9",,"120,M,+0227,1","240,N,+0171,1","99999,9,10152,1","1,1,004,1,-007,1",,"50,1","SYN118AAXX  12181 76458 31962 83103 10220 20174 30152 40162 51004 75052 8807/ 91750 333 10227 20171 30/// 56/// 59007 88358;","Q01    003SCOLCG"
"76458099999","2001-01-12T21:00:00","4","23.2","-106.4166666","4.0","COLONIA JUAN CARRASCO MAZATLAN SIN., MX","FM-12","99999","V020","340,1,N,0030,1","08400,1,9,N","015000,1,N,1","+0216,1","+0167,1","10155,1","99,0000,2,1",,,"4,1,03,1","4,1,03,1","08,1,+08400,9,08,9",,,"08,99,1,00,1,00,1,99999,9,00,1,08,1",,"01,9",,,,"99999,9,10145,1","7,1,007,1,-013,1",,"05,1","SYN106AAXX  12211 76458 31965 83403 10216 20167 30145 40155 57007 70544 80008 92050 333 30/// 56009 59013 88278;",
"76458099999","2001-01-13T00:00:00","4","23.2","-106.4166666","4.0","COLONIA JUAN CARRASCO MAZATLAN SIN., MX","FM-12","99999","V020","340,1,N,0030,1","99999,9,9,N","018000,1,N,1","+0210,1","+0177,1","10153,1","24,0000,2,1",,,"4,1,06,1","4,1,06,1",,,,"08,99,1,00,1,00,1,99999,9,00,1,07,1",,"01,9",,"120,M,+0227,1","180,N,+0171,1","99999,9,10143,1","0,1,002,1,+016,1",,"05,1","SYN130AAXX  13001 76458 31968 83403 10210 20177 30143 40153 50002 70544 80007 92340 333 10227 20171 30/// 50011 56009 58016 79999 88354;",
"76458099999","2001-01-13T03:00:00","4","23.2","-106.4166666","4.0","COLONIA JUAN CARRASCO MAZATLAN SIN., MX","FM-12","99999","V020","360,1,N,0030,1","00720,1,9,N","010000,1,N,1","+0206,1","+0148,1","10154,1","06,9999,2,9",,,"2,1,03,1","5,1,03,1","08,1,+00720,9,05,9",,,"08,99,1,08,1,05,1,00800,1,99,9,99,9",,"09,9",,,,"99999,9,10144,1","2,1,001,1,+014,1",,"50,1","SYN112AAXX  13031 76458 21560 83603 10206 20148 30144 40154 52001 75025 885// 90250 333 31/// 565// 58014 69901 88624;",
"76458099999","2001-01-13T06:00:00","4","23.2","-106.4166666","4.0","COLONIA JUAN CARRASCO MAZATLAN SIN., MX","FM-12","99999","V020","020,1,N,0040,1","00750,1,9,N","010000,1,N,1","+0221,1","+0145,1","10144,1","03,9999,2,9","06,0007,9,1",,"5,1,06,1","5,1,06,1",,,,"08,99,1,08,1,04,1,00800,1,00,1,00,1","0024,9","09,9",,"240,M,+0227,1","240,N,+0171,1","99999,9,10134,1","8,1,010,1,-006,1",,"02,1","SYN136AAXX  13061 76458 /1560 80204 10221 20145 30134 40144 58010 69901 70255 88400 90545 333 10227 20171 31/// 55004 56500 59006 69907 83632;",
"76458099999","2001-01-13T09:00:00","4","23.2","-106.4166666","4.0","COLONIA JUAN CARRASCO MAZATLAN SIN., MX","FM-12","99999","V020","340,1,N,0020,1","00840,1,9,N","008000,1,N,1","+0216,1","+0147,1","10131,1","99,0000,2,1",,,,,"06,1,+00840,9,05,9",,,"06,99,1,06,1,04,1,00800,1,00,1,00,1",,"01,9",,,,"99999,9,10121,1","7,1,012,1,-003,1",,,"SYN100AAXX  13091 76458 32558 63402 10216 20147 30121 40131 57012 86400 90858 333 30/// 56900 59003 86628;",
"76458099999","2001-01-13T12:00:00","4","23.2","-106.4166666","4.0","COLONIA JUAN CARRASCO MAZATLAN SIN., MX","FM-12","99999","V020","340,1,N,0020,1","22000,1,9,N","008000,1,N,1","+0210,1","+0150,1","10128,1","99,0000,2,1",,,,,"04,1,+00750,9,05,9",,,"04,99,1,04,1,04,1,00800,1,00,1,00,1",,"01,9","999,+0180,9","999,M,+0227,1","120,N,+0198,1","99999,9,10118,1","7,1,003,1,-003,1",,,"SYN112AAXX  13121 76458 32558 43402 10210 20150 30118 40128 57003 84400 91138 333 10227 20198 30018 56900 59003 84625;",
"76458099999","2001-01-13T18:00:00","4","23.2","-106.4166666","4.0","COLONIA JUAN CARRASCO MAZATLAN SIN., MX","FM-12","99999","V020","290,1,N,0050,1","22000,1,9,N","020000,1,N,1","+0250,1","+0172,1","10149,1","99,0000,9,1",,,,,"01,1,+00900,9,08,9",,,"03,99,1,01,1,02,1,00800,1,00,1,02,1",,"01,9",,"120,M,+0260,1","240,N,+0180,1","99999,9,10139,1","1,1,004,1,-013,1",,,"SYN118AAXX  13181 76458 32570 32905 10250 20172 30139 40149 51004 81202 91755 333 10260 20180 30/// 568// 59013 81830 82070;","Q01  00002PRCP99"
"76458099999","2001-01-13T21:00:00","4","23.2","-106.4166666","4.0","COLONIA JUAN CARRASCO MAZATLAN SIN., MX","FM-12","99999","V020","320,1,N,0030,1","09000,1,C,N","025000,1,N,1","+0250,1","+0179,1","10129,1","99,0000,9,1",,,,,"01,1,+00900,9,08,9",,,"05,99,1,01,1,01,1,00800,1,00,1,07,1",,"01,9",,,,"99999,9,10119,1","7,1,020,1,-026,1",,,"SYN106AAXX  13211 76458 32575 53203 10250 20179 30119 40129 57020 81107 92050 333 30/// 56809 59026 81830 84078;","Q01  00002PRCP99"
"76458099999","2001-01-14T00:00:00","4","23.2","-106.4166666","4.0","COLONIA JUAN CARRASCO MAZATLAN SIN., MX","FM-12","99999","V020","220,1,N,0050,1","22000,1,9,N","028000,1,N,1","+0242,1","+0180,1","10123,1","24,0000,9,1",,,,,"01,1,+00780,9,08,9",,,"05,99,1,01,1,01,1,00800,1,00,1,08,1",,"01,9",,"120,M,+0270,1","180,N,+0180,1","99999,9,10113,1","7,1,006,1,-030,1",,,"SYN130AAXX  14001 76458 32578 52205 10242 20180 30113 40123 57006 81108 92345 333 10270 20180 30/// 50264 56109 59030 70000 81826 84078;","Q01  00002PRCP99Q02  00003PRCP99"
"76458099999","2001-01-14T06:00:00","4","23.2","-106.4166666","4.0","COLONIA JUAN CARRASCO MAZATLAN SIN., MX","FM-12","99999","V020","999,9,C,0000,1","22000,1,9,N","016000,1,N,1","+0198,1","+0147,1","10147,1","99,0000,9,1",,,,,"00,1,+99999,9,99,9",,,"00,99,1,00,1,00,1,99999,9,00,1,00,1","0438,9","01,9",,"240,M,+0270,1","240,N,+0180,1","99999,9,10137,1","1,1,007,1,+003,1",,,"SYN100AAXX  14061 76458 32966 00000 10198 20147 30137 40147 51007 90530 333 10270 20180 30/// 55073 58003;","Q01  00002PRCP99"
"76458099999","2001-01-14T09:00:00","4","23.2","-106.4166666","4.0","COLONIA JUAN CARRASCO MAZATLAN SIN., MX","FM-12","99999","V020","340,1,N,0030,1","22000,1,9,N","010000,1,N,1","+0178,1","+0141,1","10135,1","99,0000,9,1",,,,,"00,1,+99999,9,99,9",,,"00,99,1,00,1,00,1,99999,9,00,1,00,1",,"01,9",,,,"99999,9,10125,1","7,1,012,1,+004,1",,,"SYN082AAXX  14091 76458 32960 03403 10178 20141 30125 40135 57012 90850 333 30/// 58004;","Q01  00002PRCP99"
"76458099999","2001-01-14T12:00:00","4","23.2","-106.4166666","4.0","COLONIA JUAN CARRASCO MAZATLAN SIN., MX","FM-12","99999","V020","350,1,N,0020,1","22000,1,9,N","010000,1,N,1","+0171,1","+0142,1","10128,1","24,0000,9,1",,,,,"02,1,+03600,9,07,9",,,"02,99,1,02,1,00,1,02250,1,03,1,00,1",,"01,9","999,+0150,9","999,M,+0270,1","120,N,+0161,1","99999,9,10118,1","7,1,007,1,-001,1",,,"SYN118AAXX  14121 76458 32860 23502 10171 20142 30118 40128 57007 82030 91145 333 10270 20161 30015 56050 59001 70000 82362;",
"76458099999","2001-01-14T18:00:00","4","23.2","-106.4166666","4.0","COLONIA JUAN CARRASCO MAZATLAN SIN., MX","FM-12","99999","V020","220,1,N,0030,1","22000,1,9,N","015000,1,N,1","+0232,1","+0178,1","10152,1","99,0000,9,1",,,"4,1,06,1","4,1,06,1","04,1,+07500,9,01,9",,,"04,99,1,00,1,00,1,99999,9,00,1,04,1",,"01,9",,"120,M,+0245,1","240,N,+0160,1","99999,9,10142,1","2,1,008,1,+003,1",,"05,1","SYN112AAXX  14181 76458 31965 42203 10232 20178 30142 40152 52008 70544 80004 91755 333 10245 20160 30/// 58003 84075;","Q01  00002PRCP99"
"76458099999","2001-01-15T00:00:00","4","23.2","-106.4166666","4.0","COLONIA JUAN CARRASCO MAZATLAN SIN., MX","FM-12","99999","V020","310,1,N,0040,1","02100,1,9,N","018000,1,N,1","+0232,1","+0163,1","10119,1","24,0000,9,1",,,,,,,,"07,99,1,07,1,00,1,02250,1,03,1,00,1",,"01,9",,"120,M,+0260,1","180,N,+0160,1","99999,9,10109,1","5,1,004,1,-003,1",,,"SYN124AAXX  15001 76458 32868 73104 10232 20163 30109 40119 55004 87030 92345 333 10260 20160 30/// 50340 56090 59003 70000 87362;","Q01  00002PRCP99Q02  00003PRCP99"
"76458099999","2001-01-15T03:00:00","4","23.2","-106.4166666","4.0","COLONIA JUAN CARRASCO MAZATLAN SIN., MX","FM-12","99999","V020","330,1,N,0040,1","22000,1,9,N","016000,1,N,1","+0222,1","+0140,1","10124,1","99,0000,9,1",,,,,"03,1,+02700,9,07,9",,,"03,99,1,03,1,00,1,02250,1,05,1,00,1",,"01,9",,,,"99999,9,10114,1","7,1,005,1,-015,1",,,"SYN100AAXX  15031 76458 32866 33304 10222 20140 30114 40124 57005 83050 90245 333 30/// 56090 59015 83359;","Q01  00002PRCP99"
"76458099999","2001-01-15T06:00:00","4","23.2","-106.4166666","4.0","COLONIA JUAN CARRASCO MAZATLAN SIN., MX","FM-12","99999","V020","340,1,N,0030,1","99999,9,9,N","016000,1,N,1","+0205,1","+0145,1","10130,1","99,0000,9,1",,,,,,,,"06,99,1,06,1,00,1,99999,9,03,1,00,1","0402,9","01,9",,"240,M,+0260,1","240,N,+0160,1","99999,9,10120,1","2,1,005,1,-017,1",,,"SYN118AAXX  15061 76458 32966 63403 10205 20145 30120 40130 52005 86030 90545 333 10260 20160 30/// 55067 56090 59017 86359;","Q01  00002PRCP99"
"76458099999","2001-01-15T12:00:00","4","23.2","-106.4166666","4.0","COLONIA JUAN CARRASCO MAZATLAN SIN., MX","FM-12","99999","V020","999,9,C,0000,1","22000,1,9,N","008000,1,N,1","+0196,1","+0140,1","10126,1","99,0000,9,1",,,,,"04,1,+02400,9,07,9",,,"04,99,1,99,9,99,9,99999,9,03,1,00,1",,"01,9",,,,"99999,9,10116,1","7,1,004,1,-008,1",,,"SYN094AAXX  15121 76458 32958 40000 10196 20140 30116 40126 57004 80030 90900 333 30/// 59008 84358;","Q01+000002SCOTLCQ02  00002PRCP99Q03    003SCOLCG"
"76458099999","2001-01-15T15:00:00","4","23.2","-106.4166666","4.0","COLONIA JUAN CARRASCO MAZATLAN SIN., MX","FM-12","99999","V020","999,9,C,0000,1","02400,1,9,N","010000,1,N,1","+0192,1","+0147,1","10131,1","99,0000,9,1",,,,,"05,1,+02400,9,07,9",,,"05,99,1,05,1,99,9,99999,9,03,1,00,1",,"01,9",,,,"99999,9,10121,1","2,1,010,1,-007,1",,,"SYN100AAXX  15151 76458 32960 50000 10192 20147 30121 40131 52010 85030 91455 333 30/// 56/// 59007 85358;","Q01  00002PRCP99Q02    003SCOLCG"
"76458099999","2001-01-15T18:00:00","4","23.2","-106.4166666","4.0","COLONIA JUAN CARRASCO MAZATLAN SIN., MX","FM-12","99999","V020","280,1,N,0030,1","22000,1,9,N","015000,1,N,1","+0232,1","+0166,1","10144,1","99,0000,9,1",,,,,"01,1,+00810,9,08,9","02,1,+02400,9,03,9",,"04,99,1,01,1,02,1,00800,1,03,1,09,1",,"01,9",,"120,M,+0249,1","240,N,+0180,1","99999,9,10134,1","1,1,013,1,-008,1",,,"SYN124AAXX  15181 76458 32565 42803 10232 20166 30134 40144 51013 81239 91755 333 10249 20180 30/// 561// 59008 81827 82358 81170;","Q01  00002PRCP99"
"76458099999","2001-01-15T21:00:00","4","23.2","-106.4166666","4.0","COLONIA JUAN CARRASCO MAZATLAN SIN., MX","FM-12","99999","V020","280,1,N,0040,1","22000,1,9,N","020000,1,N,1","+0244,1","+0167,1","10120,1","99,0000,9,1",,,,,"01,1,+00960,9,09,9",,,"03,99,1,01,1,03,1,00800,1,03,1,00,1",,"01,9",,,,"99999,9,10110,1","7,1,024,1,-004,1",,,"SYN106AAXX  15211 76458 32570 32804 10244 20167 30110 40120 57024 81330 92050 333 30/// 56190 59004 81932 82359;","Q01  00002PRCP99"
"76458099999","2001-01-16T00:00:00","4","23.2","-106.4166666","4.0","COLONIA JUAN CARRASCO MAZATLAN SIN., MX","FM-12","99999","V020","330,1,N,0070,1","03600,1,9,N","020000,1,N,1","+0224,1","+0168,1","10120,1","24,0000,9,1",,,,,"01,1,+00720,9,08,9",,,"05,99,1,01,1,02,1,00800,1,05,1,00,1",,"01,9",,"120,M,+0265,1","180,N,+0180,1","99999,9,10110,1","4,1,000,1,+000,1",,,"SYN130AAXX  16001 76458 32570 53307 10224 20168 30110 40120 54000 81250 92350 333 10265 20180 30/// 50400 56150 58000 70000 81824 84358;","Q01  00002PRCP99Q02  00003PRCP99"
"76458099999","2001-01-16T03:00:00","4","23.2","-106.4166666","4.0","COLONIA JUAN CARRASCO MAZATLAN SIN., MX","FM-12","99999","V020","340,1,N,0050,1","22000,1,9,N","008000,1,N,1","+0220,1","+0151,1","10130,1","99,0000,9,1",,,,,"04,1,+02700,9,07,9",,,"04,99,1,99,9,00,1,99999,9,05,1,00,1",,"01,9",,,,"99999,9,10120,1","2,1,010,1,+006,1",,,"SYN100AAXX  16031 76458 32958 43405 10220 20151 30120 40130 52010 80050 90248 333 30/// 56090 58006 84359;","Q01+000002SCOTLCQ02  00002PRCP99"
"76458099999","2001-01-16T06:00:00","4","23.2","-106.4166666","4.0","COLONIA JUAN CARRASCO MAZATLAN SIN., MX","FM-12","99999","V020","340,1,N,0030,1","99999,9,9,N","008000,1,N,1","+0214,1","+0171,1","10133,1","99,0000,9,1",,,,,,,,"07,99,1,99,9,00,1,99999,9,05,1,00,1","0444,9","01,9",,"240,M,+0265,1","240,N,+0180,1","99999,9,10123,1","2,1,003,1,+003,1",,,"SYN118AAXX  16061 76458 32958 73403 10214 20171 30123 40133 52003 80050 90540 333 10265 20180 30/// 55074 56090 58003 87370;","Q01+000002SCOTLCQ02  00002PRCP99"
"76458099999","2001-01-16T09:00:00","4","23.2","-106.4166666","4.0","COLONIA JUAN CARRASCO MAZATLAN SIN., MX","FM-12","99999","V020","340,1,N,0010,1","22000,1,9,N","008000,1,N,1","+0200,1","+0156,1","10129,1","99,0000,9,1",,,,,"03,1,+02400,9,07,9",,,"03,99,1,99,9,99,9,99999,9,03,1,00,1",,"01,9",,,,"99999,9,10119,1","7,1,004,1,+003,1",,,"SYN100AAXX  16091 76458 32958 33401 10200 20156 30119 40129 57004 80030 90858 333 30/// 56090 58003 83358;","Q01+000002SCOTLCQ02  00002PRCP99Q03    003SCOLCG"
"76458099999","2001-01-16T12:00:00","4","23.2","-106.4166666","4.0","COLONIA JUAN CARRASCO MAZATLAN SIN., MX","FM-12","99999","V020","340,1,N,0020,1","02400,1,9,N","008000,1,N,1","+0194,1","+0141,1","10121,1","99,0000,9,1",,,,,"05,1,+02400,9,07,9",,,"05,99,1,99,9,99,9,99999,9,05,1,00,1",,"01,9","999,+0160,9","999,M,+0265,1","120,N,+0178,1","99999,9,10111,1","7,1,008,1,+001,1",,,"SYN112AAXX  16121 76458 32958 53402 10194 20141 30111 40121 57008 80050 91135 333 10265 20178 30016 56090 58001 85358;","Q01+000002SCOTLCQ02  00002PRCP99Q03    003SCOLCG"
"76458099999","2001-01-16T15:00:00","4","23.2","-106.4166666","4.0","COLONIA JUAN CARRASCO MAZATLAN SIN., MX","FM-12","99999","V020","999,9,C,0000,1","03600,1,9,N","012000,1,N,1","+0193,1","+0154,1","10132,1","99,0000,9,1",,,,,"07,1,+03600,9,07,9",,,"07,99,1,07,1,00,1,02250,1,05,1,00,1",,"01,9",,,,"99999,9,10122,1","2,1,010,1,+010,1",,,"SYN100AAXX  16151 76458 32862 70000 10193 20154 30122 40132 52010 87050 91450 333 30/// 56090 58010 87362;","Q01  00002PRCP99"
"76458099999","2001-01-16T18:00:00","4","23.2","-106.4166666","4.0","COLONIA JUAN CARRASCO MAZATLAN SIN., MX","FM-12","99999","V020","290,1,N,0050,1","22000,1,9,N","018000,1,N,1","+0221,1","+0158,1","10151,1","99,0000,9,1",,,,,"03,1,+03600,9,07,9",,,"03,99,1,03,1,00,1,02250,1,03,1,00,1",,"01,9",,"120,M,+0241,1","240,N,+0180,1","99999,9,10141,1","0,1,019,1,+007,1",,,"SYN112AAXX  16181 76458 32868 32905 10221 20158 30141 40151 50019 83030 91750 333 10241 20180 30/// 56090 58007 83362;","Q01  00002PRCP99"
"76458099999","2001-01-16T21:00:00","4","23.2","-106.4166666","4.0","COLONIA JUAN CARRASCO MAZATLAN SIN., MX","FM-12","99999","V020","300,1,N,0070,1","22000,1,9,N","020000,1,N,1","+0229,1","+0105,1","10127,1","99,0000,9,1",,,,,"01,1,+01500,9,08,9","02,1,+02700,9,03,9",,"04,99,1,01,1,02,1,01750,1,03,1,05,1",,"01,9",,,,"99999,9,10117,1","7,1,023,1,+007,1",,,"SYN112AAXX  16211 76458 32770 43007 10229 20105 30117 40127 57023 81235 92055 333 30/// 56169 58007 81850 82359 81079;","Q01  00002PRCP99"
"76458099999","2001-01-17T00:00:00","4","23.2","-106.4166666","4.0","COLONIA JUAN CARRASCO MAZATLAN SIN., MX","FM-12","99999","V020","290,1,N,0030,1","09000,1,9,N","020000,1,N,1","+0234,1","+0139,1","10118,1","24,0000,9,1",,,,,"01,1,+01290,9,08,9","02,1,+02700,9,03,9",,"05,99,1,01,1,02,1,01250,1,03,1,06,1",,"01,9",,"120,M,+0250,1","180,N,+0180,1","99999,9,10108,1","6,1,009,1,-002,1",,,"SYN136AAXX  17001 76458 32670 52903 10234 20139 30108 40118 56009 81236 92355 333 10250 20180 30/// 50390 56199 59002 70000 81843 82359 82079;","Q01  00002PRCP99Q02  00003PRCP99"
"76458099999","2001-01-17T03:00:00","4","23.2","-106.4166666","4.0","COLONIA JUAN CARRASCO MAZATLAN SIN., MX","FM-12","99999","V020","340,1,N,0030,1","22000,1,9,N","008000,1,N,1","+0210,1","+0147,1","10125,1","99,0000,9,1",,,,,"04,1,+02700,9,07,9",,,"04,99,1,99,9,00,1,99999,9,03,1,00,1",,"01,9",,,,"99999,9,10115,1","0,1,007,1,-008,1",,,"SYN100AAXX  17031 76458 32958 43403 10210 20147 30115 40125 50007 80030 90250 333 30/// 56090 59008 84359;","Q01+000002SCOTLCQ02  00002PRCP99"
"76458099999","2001-01-17T06:00:00","4","23.2","-106.4166666","4.0","COLONIA JUAN CARRASCO MAZATLAN SIN., MX","FM-12","99999","V020","340,1,N,0020,1","22000,1,9,N","008000,1,N,1","+0198,1","+0147,1","10139,1","99,0000,9,1",,,,,"00,1,+99999,9,99,9",,,"00,99,1,00,1,00,1,99999,9,00,1,00,1","0438,9","01,9",,"240,M,+0250,1","240,N,+0180,1","99999,9,10129,1","2,1,014,1,+006,1",,,"SYN100AAXX  17061 76458 32958 03402 10198 20147 30129 40139 52014 90540 333 10250 20180 30/// 55073 58006;","Q01  00002PRCP99"
"76458099999","2001-01-17T12:00:00","4","23.2","-106.4166666","4.0","COLONIA JUAN CARRASCO MAZATLAN SIN., MX","FM-12","99999","V020","330,1,N,0020,1","22000,1,9,N","008000,1,N,1","+0160,1","+0109,1","10127,1","99,0000,9,1",,,,,"00,1,+99999,9,99,9",,,"00,99,1,00,1,00,1,99999,9,00,1,00,1",,"01,9","999,+0130,9","999,M,+0250,1","120,N,+0146,1","99999,9,10117,1","7,1,004,1,+006,1",,,"SYN094AAXX  17121 76458 32958 03302 10160 20109 30117 40127 57004 91135 333 10250 20146 30013 58006;","Q01  00002PRCP99"
"76458099999","2001-01-17T15:00:00","4","23.2","-106.4166666","4.0","COLONIA JUAN CARRASCO MAZATLAN SIN., MX","FM-12","99999","V020","360,1,N,0030,1","22000,1,9,N","015000,1,N,1","+0174,1","+0143,1","10155,1","99,0000,9,1",,,,,"01,1,+03600,9,03,9",,,"04,99,1,01,1,00,1,02250,1,03,1,08,1",,"01,9",,,,"99999,9,10145,1","2,1,027,1,+023,1",,,"SYN106AAXX  17151 76458 32865 43603 10174 20143 30145 40155 52027 81038 91450 333 30/// 56099 58023 81362 83270;","Q01  00002PRCP99"
"76458099999","2001-01-17T18:00:00","4","23.2","-106.4166666","4.0","COLONIA JUAN CARRASCO MAZATLAN SIN., MX","FM-12","99999","V020","290,1,N,0050,1","22000,1,9,N","025000,1,N,1","+0220,1","+0162,1","10158,1","99,0000,9,1",,,,,"02,1,+03000,9,03,9",,,"04,99,1,99,9,00,1,99999,9,05,1,08,1",,"01,9",,"120,M,+0233,1","240,N,+0150,1","99999,9,10148,1","0,1,003,1,+007,1",,,"SYN118AAXX  17181 76458 32975 42905 10220 20162 30148 40158 50003 80058 91740 333 10233 20150 30/// 56099 58007 82360 82274;","Q01+000002SCOTLCQ02  00002PRCP99"
"76458099999","2001-01-17T21:00:00","4","23.2","-106.4166666","4.0","COLONIA JUAN CARRASCO MAZATLAN SIN., MX","FM-12","99999","V020","300,1,N,0060,1","02700,1,9,N","025000,1,N,1","+0216,1","+0132,1","10129,1","99,0000,9,1",,,,,"01,1,+01050,9,08,9","05,1,+02700,9,03,9",,"07,99,1,01,1,02,1,01250,1,03,1,05,1",,"01,9",,,,"99999,9,10119,1","7,1,028,1,+002,1",,,"SYN112AAXX  17211 76458 32675 73006 10216 20132 30119 40129 57028 81235 92055 333 30/// 56159 58002 81835 85359 81079;","Q01  00002PRCP99"
"76458099999","2001-01-18T00:00:00","4","23.2","-106.4166666","4.0","COLONIA JUAN CARRASCO MAZATLAN SIN., MX","FM-12","99999","V020","320,1,N,0050,1","02100,1,9,N","020000,1,N,1","+0201,1","+0126,1","10123,1","24,0000,9,1",,,,,,,,"07,99,1,07,1,00,1,02250,1,05,1,00,1",,"01,9",,"120,M,+0235,1","180,N,+0150,1","99999,9,10113,1","5,1,006,1,+005,1",,,"SYN124AAXX  18001 76458 32870 73205 10201 20126 30113 40123 55006 87050 92345 333 10235 20150 30/// 50340 56050 58005 70000 87356;","Q01  00002PRCP99Q02  00003PRCP99"
"76458099999","2001-01-18T03:00:00","4","23.2","-106.4166666","4.0","COLONIA JUAN CARRASCO MAZATLAN SIN., MX","FM-12","99999","V020","290,1,N,0040,1","02400,1,9,N","008000,1,N,1","+0192,1","+0103,1","10130,1","99,0000,9,1",,,,,"08,1,+02400,9,01,9",,,"08,99,1,08,1,00,1,02250,1,02,1,00,1",,"01,9",,,,"99999,9,10120,1","2,1,007,1,+005,1",,,"SYN100AAXX  18031 76458 32858 82904 10192 20103 30120 40130 52007 88020 90245 333 30/// 56090 58005 88458;","Q01  00002PRCP99"
"76458099999","2001-01-18T12:00:00","4","23.2","-106.4166666","4.0","COLONIA JUAN CARRASCO MAZATLAN SIN., MX","FM-12","99999","V020","330,1,N,0040,1","02400,1,9,N","008000,1,N,1","+0182,1","+0095,1","10128,1","99,0000,9,1",,,,,"08,1,+02400,9,07,9",,,"08,99,1,08,1,99,9,99999,9,02,1,00,1",,"01,9",,,,"99999,9,10118,1","7,1,004,1,-003,1",,,"SYN100AAXX  18121 76458 32958 83304 10182 20095 30118 40128 57004 88020 90940 333 30/// 56090 59003 88358;","Q01  00002PRCP99Q02    003SCOLCG"
"76458099999","2001-01-18T15:00:00","4","23.2","-106.4166666","4.0","COLONIA JUAN CARRASCO MAZATLAN SIN., MX","FM-12","99999","V020","310,1,N,0030,1","09000,1,C,N","015000,1,N,1","+0180,1","+0103,1","10134,1","99,0000,9,1",,,,,"03,1,+03600,9,03,9",,,"06,99,1,03,1,00,1,02250,1,03,1,03,1",,"01,9",,,,"99999,9,10124,1","2,1,032,1,-021,1",,,"SYN106AAXX  18151 76458 32865 63103 10180 20103 30124 40134 52032 83033 91450 333 30/// 56099 59021 83362 83070;","Q01  00002PRCP99"
"76458099999","2001-01-18T18:00:00","4","23.2","-106.4166666","4.0","COLONIA JUAN CARRASCO MAZATLAN SIN., MX","FM-12","99999","V020","330,1,N,0060,1","01500,1,9,N","018000,1,N,1","+0186,1","+0053,1","10158,1","99,0000,9,1",,,,,"05,1,+01500,9,06,9",,,"07,99,1,05,1,04,1,01750,1,06,1,00,1",,"01,9",,"120,M,+0195,1","240,N,+0161,1","99999,9,10148,1","2,1,024,1,+000,1",,,"SYN118AAXX  18181 76458 32768 73306 10186 20053 30148 40158 52024 85460 91745 333 10195 20161 30/// 56590 58000 85650 82362;","Q01  00002PRCP99"
"76458099999","2001-01-18T21:00:00","4","23.2","-106.4166666","4.0","COLONIA JUAN CARRASCO MAZATLAN SIN., MX","FM-12","99999","V020","300,1,N,0080,1","01440,1,9,N","020000,1,N,1","+0202,1","+0086,1","10134,1","99,0000,9,1",,,,,"05,1,+01440,9,05,9",,,"05,99,1,05,1,04,1,01250,1,00,1,00,1",,"01,9",,,,"99999,9,10124,1","7,1,024,1,+005,1",,,"SYN100AAXX  18211 76458 32670 53008 10202 20086 30124 40134 57024 85400 92055 333 30/// 56600 58005 85648;","Q01  00002PRCP99"
"76458099999","2001-01-19T00:00:00","4","23.2","-106.4166666","4.0","COLONIA JUAN CARRASCO MAZATLAN SIN., MX","FM-12","99999","V020","310,1,N,0080,1","22000,1,9,N","020000,1,N,1","+0196,1","+0055,1","10135,1","24,0000,9,1",,,,,,,,"01,99,1,01,1,02,1,01750,1,00,1,00,1",,"01,9",,"120,M,+0217,1","180,N,+0161,1","99999,9,10124,1","4,1,000,1,+012,1",,,"SYN124AAXX  19001 76458 32770 13108 10196 20055 30124 40135 54000 81200 92345 333 10217 20161 30/// 50410 56100 58012 70000 81850;","Q01  00002PRCP99Q02  00003PRCP99"
"76458099999","2001-01-19T03:00:00","4","23.2","-106.4166666","4.0","COLONIA JUAN CARRASCO MAZATLAN SIN., MX","FM-12","99999","V020","340,1,N,0030,1","22000,1,9,N","008000,1,N,1","+0172,1","+0069,1","10147,1","99,0000,9,1",,,,,"00,1,+99999,9,99,9",,,"00,99,1,00,1,00,1,99999,9,00,1,00,1",,"01,9",,,,"99999,9,10137,1","2,1,013,1,+017,1",,,"SYN082AAXX  19031 76458 32958 03403 10172 20069 30137 40147 52013 90245 333 30/// 58017;","Q01  00002PRCP99"
"76458099999","2001-01-19T12:00:00","4","23.2","-106.4166666","4.0","COLONIA JUAN CARRASCO MAZATLAN SIN., MX","FM-12","99999","V020","330,1,N,0030,1","22000,1,9,N","008000,1,N,1","+0122,1","+0042,1","10144,1","99,0000,9,1",,,,,"00,1,+99999,9,99,9",,,"00,99,1,00,1,00,1,99999,9,00,1,00,1",,"01,9",,,,"99999,9,10134,1","7,1,018,1,+016,1",,,"SYN082AAXX  19121 76458 32958 03303 10122 20042 30134 40144 57018 90900 333 30/// 58016;","Q01  00002PRCP99"
"76458099999","2001-01-19T15:00:00","4","23.2","-106.4166666","4.0","COLONIA JUAN CARRASCO MAZATLAN SIN., MX","FM-12","99999","V020","999,9,C,0000,1","22000,1,9,N","015000,1,N,1","+0112,1","+0053,1","10152,1","99,0000,9,1",,,"4,1,03,1","4,1,03,1","00,1,+99999,9,99,9",,,"00,99,1,00,1,00,1,99999,9,00,1,00,1",,"01,9",,,,"99999,9,10142,1","2,1,020,1,+018,1",,"05,1","SYN088AAXX  19151 76458 31965 00000 10112 20053 30142 40152 52020 70544 91450 333 30/// 58018;","Q01  00002PRCP99"
"76458099999","2001-01-19T18:00:00","4","23.2","-106.4166666","4.0","COLONIA JUAN CARRASCO MAZATLAN SIN., MX","FM-12","99999","V020","180,1,N,0040,1","22000,1,9,N","022000,1,N,1","+0204,1","+0084,1","10161,1","99,0000,9,1",,,"4,1,06,1","4,1,06,1","00,1,+99999,9,99,9",,,"00,99,1,00,1,00,1,99999,9,00,1,00,1",,"01,9",,"120,M,+0212,1","240,N,+0078,1","99999,9,10151,1","2,1,009,1,+003,1",,"05,1","SYN100AAXX  19181 76458 31972 01804 10204 20084 30151 40161 52009 70544 91747 333 10212 20078 30/// 58003;","Q01  00002PRCP99"
"76458099999","2001-01-19T21:00:00","4","23.2","-106.4166666","4.0","COLONIA JUAN CARRASCO MAZATLAN SIN., MX","FM-12","99999","V020","360,1,N,0040,1","22000,1,9,N","018000,1,N,1","+0208,1","+0092,1","10133,1","99,0000,9,1",,,,,"00,1,+99999,9,99,9",,,"00,99,1,00,1,00,1,99999,9,00,1,00,1",,"01,9",,,,"99999,9,10123,1","7,1,028,1,-001,1",,,"SYN082AAXX  19211 76458 32968 03604 10208 20092 30123 40133 57028 92050 333 30/// 59001;","Q01  00002PRCP99"
"76458099999","2001-01-20T00:00:00","4","23.2","-106.4166666","4.0","COLONIA JUAN CARRASCO MAZATLAN SIN., MX","FM-12","99999","V020","999,9,9,9999,9","22000,1,9,N","018000,1,N,1","+0208,1","+0113,1","10132,1","24,0000,9,1",,,,,"00,1,+99999,9,99,9",,,"00,99,1,00,1,00,1,99999,9,00,1,00,1",,"01,9",,"120,M,+0233,1","180,N,+0078,1","99999,9,10122,1","6,1,001,1,-002,1",,,"SYN106AAXX  20001 76458 32968 03904 10208 20113 30122 40132 56001 92350 333 10233 20078 30/// 50260 59002 70000;","Q01  00002PRCP24"
"76458099999","2001-01-20T12:00:00","4","23.2","-106.4166666","4.0","COLONIA JUAN CARRASCO MAZATLAN SIN., MX","FM-12","99999","V020","360,1,N,0010,1","22000,1,9,N","008000,1,N,1","+0132,1","+0111,1","99999,9","99,0000,9,1",,,,,"00,1,+99999,9,99,9",,,"00,99,1,00,1,00,1,99999,9,00,1,00,1",,"01,9","999,+0100,9","999,M,+0233,1","120,N,+0116,1","99999,9,10152,1","7,1,007,1,+030,1",,,"SYN088AAXX  20121 76458 32958 03601 10132 20111 30152 57007 91137 333 10233 20116 30010 58030;","Q01  00002PRCP99"
"76458099999","2001-01-20T15:00:00","4","23.2","-106.4166666","4.0","COLONIA JUAN CARRASCO MAZATLAN SIN., MX","FM-12","99999","V020","999,9,C,0000,1","22000,1,9,N","015000,1,N,1","+0140,1","+0099,1","10183,1","99,0000,9,1",,,,,"01,1,+06000,9,01,9",,,"01,99,1,00,1,00,1,99999,9,00,1,01,1",,"01,9",,,,"99999,9,10173,1","2,1,020,1,+031,1",,,"SYN100AAXX  20151 76458 32965 10000 10140 20099 30173 40183 52020 80001 91450 333 30/// 56009 58031 81070;","Q01  00002PRCP99"
"76458099999","2001-01-20T18:00:00","4","23.2","-106.4166666","4.0","COLONIA JUAN CARRASCO MAZATLAN SIN., MX","FM-12","99999","V020","180,1,N,0030,1","22000,1,9,N","018000,1,N,1","+0220,1","+0151,1","10209,1","99,0000,9,1",,,"4,1,06,1","4,1,06,1","02,1,+06600,9,01,9",,,"02,99,1,00,1,00,1,99999,9,00,1,01,1",,"01,9",,"120,M,+0230,1","240,N,+0110,1","99999,9,10199,1","2,1,026,1,+048,1",,"05,1","SYN118AAXX  20181 76458 31968 21803 10220 20151 30199 40209 52026 70544 80001 91750 333 10230 20110 30/// 56009 58048 82072;","Q01  00002PRCP99"
"76458099999","2001-01-20T21:00:00","4","23.2","-106.4166666","4.0","COLONIA JUAN CARRASCO MAZATLAN SIN., MX","FM-12","99999","V020","180,1,N,0030,1","22000,1,9,N","018000,1,N,1","+0229,1","+0163,1","10185,1","99,0000,9,1",,,,,"04,1,+08700,9,01,9",,,"04,99,1,00,1,00,1,99999,9,00,1,04,1",,"01,9",,,,"99999,9,10175,1","7,1,025,1,+052,1",,,"SYN100AAXX  20211 76458 32968 41803 10229 20163 30175 40185 57025 80004 92055 333 30/// 56009 58052 84079;","Q01  00002PRCP99"
"76458099999","2001-01-21T00:00:00","4","23.2","-106.4166666","4.0","COLONIA JUAN CARRASCO MAZATLAN SIN., MX","FM-12","99999","V020","250,1,N,0020,1","99999,9,9,N","020000,1,N,1","+0222,1","+0143,1","10171,1","24,0000,9,1",,,,,,,,"07,99,1,00,1,00,1,99999,9,00,1,04,1",,"01,9",,"120,M,+0247,1","180,N,+0110,1","99999,9,10161,1","7,1,013,1,+039,1",,,"SYN124AAXX  21001 76458 32970 72502 10222 20143 30161 40171 57013 80004 92355 333 10247 20110 30/// 50360 56009 58039 70000 87079;","Q01  00002PRCP99Q02  00003PRCP99"
"76458099999","2001-01-21T03:00:00","4","23.2","-106.4166666","4.0","COLONIA JUAN CARRASCO MAZATLAN SIN., MX","FM-12","99999","V020","340,1,N,0020,1","22000,1,9,N","008000,1,N,1","+0196,1","+0155,1","10188,1","99,0000,9,1",,,,,"00,1,+99999,9,99,9",,,"00,99,1,00,1,00,1,99999,9,00,1,00,1",,"01,9",,,,"99999,9,10178,1","2,1,017,1,+028,1",,,"SYN082AAXX  21031 76458 32958 03402 10196 20155 30178 40188 52017 90245 333 30/// 58028;","Q01  00002PRCP99"
"76458099999","2001-01-21T06:00:00","4","23.2","-106.4166666","4.0","COLONIA JUAN CARRASCO MAZATLAN SIN., MX","FM-12","99999","V020","340,1,N,0010,1","22000,1,9,N","008000,1,N,1","+0170,1","+0138,1","10200,1","99,0000,9,1",,,,,"00,1,+99999,9,99,9",,,"00,99,1,00,1,00,1,99999,9,00,1,00,1","0522,9","01,9",,"240,M,+0247,1","240,N,+0110,1","99999,9,10190,1","2,1,012,1,+026,1",,,"SYN100AAXX  21061 76458 32958 03401 10170 20138 30190 40200 52012 90530 333 10247 20110 30/// 55087 58026;","Q01  00002PRCP99"
"76458099999","2001-01-21T09:00:00","4","23.2","-106.4166666","4.0","COLONIA JUAN CARRASCO MAZATLAN SIN., MX","FM-12","99999","V020","340,1,N,0020,1","22000,1,9,N","008000,1,N,1","+0150,1","+0112,1","10197,1","99,0000,9,1",,,,,"00,1,+99999,9,99,9",,,"00,99,1,00,1,00,1,99999,9,00,1,00,1",,"01,9",,,,"99999,9,10187,1","5,1,004,1,+027,1",,,"SYN082AAXX  21091 76458 32958 03402 10150 20112 30187 40197 55004 90850 333 30/// 58027;","Q01  00002PRCP99"
"76458099999","2001-01-21T12:00:00","4","23.2","-106.4166666","4.0","COLONIA JUAN CARRASCO MAZATLAN SIN., MX","FM-12","99999","V020","340,1,N,0020,1","22000,1,9,N","008000,1,N,1","+0242,1","+0107,1","10198,1","24,0000,9,1",,,,,"00,1,+99999,9,99,9",,,"00,99,1,00,1,00,1,99999,9,00,1,00,1",,"01,9","999,+0110,9","999,M,+0247,1","120,N,+0133,1","99999,9,10188,1","4,1,000,1,+035,1",,,"SYN100AAXX  21121 76458 32958 03402 10242 20107 30188 40198 54001 91150 333 10247 20133 30011 58035 70000;","Q01  00002PRCP24"
"76458099999","2001-01-21T15:00:00","4","23.2","-106.4166666","4.0","COLONIA JUAN CARRASCO MAZATLAN SIN., MX","FM-12","99999","V020","999,9,C,0000,1","22000,1,9,N","015000,1,N,1","+0144,1","+0113,1","10200,1","99,0000,9,1",,,"4,1,03,1","4,1,03,1","00,1,+99999,9,99,9",,,"00,99,1,00,1,00,1,99999,9,00,1,00,1",,"01,9",,,,"99999,9,10190,1","2,1,002,1,+017,1",,"05,1","SYN088AAXX  21151 76458 31965 00000 10144 20113 30190 40200 52002 70544 91440 333 30/// 58017;","Q01  00002PRCP99"
"76458099999","2001-01-21T21:00:00","4","23.2","-106.4166666","4.0","COLONIA JUAN CARRASCO MAZATLAN SIN., MX","FM-12","99999","V020","290,1,N,0030,1","22000,1,9,N","020000,1,N,1","+0225,1","+0122,1","10185,1","99,0000,9,1",,,,,"04,1,+08700,9,01,9",,,"04,99,1,00,1,00,1,99999,9,00,1,06,1",,"01,9",,,,"99999,9,10175,1","7,1,023,1,+001,1",,,"SYN100AAXX  21211 76458 32970 42903 10225 20122 30175 40185 57023 80006 92050 333 30/// 56009 58001 84079;","Q01  00002PRCP99"
"76458099999","2001-01-22T00:00:00","4","23.2","-106.4166666","4.0","COLONIA JUAN CARRASCO MAZATLAN SIN., MX","FM-12","99999","V020","290,1,N,0050,1","22000,1,9,N","020000,1,N,1","+0228,1","+0136,1","10180,1","24,0000,9,1",,,,,,,,"04,99,1,00,1,00,1,99999,9,00,1,06,1",,"01,9",,"120,M,+0243,1","180,N,+0122,1","99999,9,10170,1","4,1,000,1,+008,1",,,"SYN124AAXX  22001 76458 32970 42905 10228 20136 30170 40180 54006 80006 92350 333 10243 20122 30/// 50330 56009 58008 70000 84079;","Q01  00002PRCP99Q02  00003PRCP99"
"76458099999","2001-01-22T03:00:00","4","23.2","-106.4166666","4.0","COLONIA JUAN CARRASCO MAZATLAN SIN., MX","FM-12","99999","V020","330,1,N,0030,1","22000,1,9,N","008000,1,N,1","+0202,1","+0134,1","10189,1","99,0000,9,1",,,,,"04,1,+06000,9,01,9",,,"04,99,1,00,1,00,1,99999,9,00,1,01,1",,"01,9",,,,"99999,9,10179,1","2,1,009,1,+001,1",,,"SYN094AAXX  22031 76458 32958 43303 10202 20134 30179 40189 52009 80001 90245 333 30/// 58001 84070;","Q01  00002PRCP99"
"76458099999","2001-01-22T15:00:00","4","23.2","-106.4166666","4.0","COLONIA JUAN CARRASCO MAZATLAN SIN., MX","FM-12","99999","V020","999,9,C,0000,1","22000,1,9,N","015000,1,N,1","+0150,1","+0112,1","10188,1","99,0000,9,1",,,"4,1,03,1","4,1,03,1","02,1,+02700,9,03,9",,,"03,99,1,99,9,00,1,99999,9,03,1,01,1",,"01,9",,,,"99999,9,10178,1","2,1,009,1,-012,1",,"05,1","SYN112AAXX  22151 76458 31965 30000 10150 20112 30178 40188 52009 70544 80031 91450 333 30/// 56099 59012 82359 81078;","Q01+000002SCOTLCQ02  00002PRCP99"
"76458099999","2001-01-22T18:00:00","4","23.2","-106.4166666","4.0","COLONIA JUAN CARRASCO MAZATLAN SIN., MX","FM-12","99999","V020","260,1,N,0010,1","22000,1,9,N","010000,1,N,1","+0224,1","+0127,1","10198,1","99,0000,9,1",,,"4,1,06,1","4,1,06,1","03,1,+08400,9,01,9",,,"03,99,1,00,1,00,1,99999,9,00,1,02,1",,"01,9",,"120,M,+0240,1","240,N,+0128,1","99999,9,10188,1","0,1,010,1,-010,1",,"05,1","SYN118AAXX  22181 76458 31960 32601 10224 20127 30188 40198 50010 70544 80002 91750 333 10240 20128 30/// 56009 59010 83078;","Q01  00002PRCP99"
"76458099999","2001-01-22T21:00:00","4","23.2","-106.4166666","4.0","COLONIA JUAN CARRASCO MAZATLAN SIN., MX","FM-12","99999","V020","300,1,N,0030,1","22000,1,9,N","020000,1,N,1","+0223,1","+0160,1","10169,1","99,0000,9,1",,,,,"01,1,+02700,9,03,9",,,"03,99,1,01,1,03,1,99999,9,99,9,06,1",,"01,9",,,,"99999,9,10159,1","7,1,025,1,-016,1",,,"SYN106AAXX  22211 76458 32970 33003 10223 20160 30159 40169 57025 81306 92050 333 30/// 56099 59016 81359 82079;","Q01+000002SCOMCGQ02  00002PRCP99"
"76458099999","2001-01-23T00:00:00","4","23.2","-106.4166666","4.0","COLONIA JUAN CARRASCO MAZATLAN SIN., MX","FM-12","99999","V020","310,1,N,0060,1","99999,9,9,N","020000,1,N,1","+0217,1","+0170,1","10166,1","24,0000,9,1",,,,,"01,1,+02700,9,03,9",,,"07,99,1,01,1,00,1,99999,9,03,1,04,1",,"01,9",,"120,M,+0232,1","180,N,+0128,1","99999,9,10156,1","4,1,000,1,-014,1",,,"SYN130AAXX  23001 76458 32970 73106 10217 20170 30156 40166 54004 81034 92355 333 10232 20128 30/// 50360 56069 59014 70000 81359 86079;","Q01  00002PRCP99Q02  00003PRCP99"
"76458099999","2001-01-23T12:00:00","4","23.2","-106.4166666","4.0","COLONIA JUAN CARRASCO MAZATLAN SIN., MX","FM-12","99999","V020","999,9,C,0000,1","22000,1,9,N","008000,1,N,1","+0153,1","+0138,1","10171,1","99,0000,9,1",,,,,"00,1,+99999,9,99,9",,,"00,99,1,00,1,00,1,99999,9,00,1,00,1",,"01,9","999,+0120,9","999,M,+0232,1","120,N,+0136,1","99999,9,10161,1","7,1,006,1,-008,1",,,"SYN094AAXX  23121 76458 32958 00000 10153 20138 30161 40171 57006 91130 333 10232 20136 30012 59008;","Q01  00002PRCP99"
"76458099999","2001-01-23T15:00:00","4","23.2","-106.4166666","4.0","COLONIA JUAN CARRASCO MAZATLAN SIN., MX","FM-12","99999","V020","999,9,C,0000,1","22000,1,9,N","010000,1,N,1","+0156,1","+0133,1","10188,1","99,0000,9,1",,,"4,1,03,1","4,1,03,1","00,1,+99999,9,99,9",,,"00,99,1,00,1,00,1,99999,9,00,1,00,1",,"01,9",,,,"99999,9,10178,1","2,1,017,1,+000,1",,"05,1","SYN088AAXX  23151 76458 31960 00000 10156 20133 30178 40188 52017 70544 91450 333 30/// 58000;","Q01  00002PRCP99"
"76458099999","2001-01-23T18:00:00","4","23.2","-106.4166666","4.0","COLONIA JUAN CARRASCO MAZATLAN SIN., MX","FM-12","99999","V020","260,1,N,0040,1","22000,1,9,N","015000,1,N,1","+0212,1","+0168,1","10197,1","99,0000,9,1",,,"4,1,06,1","4,1,06,1","01,1,+07800,9,01,9",,,"01,99,1,00,1,00,1,99999,9,00,1,01,1",,"01,9",,"120,M,+0228,1","240,N,+0133,1","99999,9,10187,1","2,1,009,1,+000,1",,"05,1","SYN118AAXX  23181 76458 31965 12604 10212 20168 30187 40197 52009 70544 80001 91750 333 10228 20133 30/// 56009 58000 81076;","Q01  00002PRCP99"
"76458099999","2001-01-23T21:00:00","4","23.2","-106.4166666","4.0","COLONIA JUAN CARRASCO MAZATLAN SIN., MX","FM-12","99999","V020","270,1,N,0050,1","22000,1,9,N","020000,1,N,1","+0218,1","+0154,1","10160,1","99,0000,9,1",,,,,"01,1,+08700,9,01,9",,,"01,99,1,00,1,00,1,99999,9,00,1,01,1",,"01,9",,,,"99999,9,10150,1","7,1,037,1,-009,1",,,"SYN100AAXX  23211 76458 32970 12705 10218 20154 30150 40160 57037 80001 92050 333 30/// 56009 59009 81079;","Q01  00002PRCP99"
"76458099999","2001-01-24T00:00:00","4","23.2","-106.4166666","4.0","COLONIA JUAN CARRASCO MAZATLAN SIN., MX","FM-12","99999","V020","300,1,N,0060,1","22000,1,9,N","020000,1,N,1","+0212,1","+0151,1","10151,1","24,0000,9,1",,,,,,,,"03,99,1,00,1,00,1,99999,9,00,1,02,1",,"01,9",,"120,M,+0237,1","180,N,+0133,1","99999,9,10141,1","6,1,010,1,-015,1",,,"SYN124AAXX  24001 76458 32970 33006 10212 20151 30141 40151 56010 80002 92350 333 10237 20133 30/// 50270 56009 59015 70000 83079;","Q01  00002PRCP99Q02  00003PRCP99"
"76458099999","2001-01-24T03:00:00","4","23.2","-106.4166666","4.0","COLONIA JUAN CARRASCO MAZATLAN SIN., MX","FM-12","99999","V020","320,1,N,0020,1","22000,1,9,N","008000,1,N,1","+0195,1","+9999,9","10149,1","99,0000,9,1",,,,,"00,1,+99999,9,99,9",,,"00,99,1,00,1,00,1,99999,9,00,1,00,1",,"01,9",,,,"99999,9,10139,1","5,1,002,1,-024,1",,,"SYN082AAXX  24031 76458 32958 03202 10195 21034 30139 40149 55002 90250 333 30/// 59024;","Q01-000343ATOD  Q02  00002PRCP99Q03 -00343ATOD  "
"76458099999","2001-01-24T06:00:00","4","23.2","-106.4166666","4.0","COLONIA JUAN CARRASCO MAZATLAN SIN., MX","FM-12","99999","V020","340,1,N,0020,1","22000,1,9,N","010000,1,N,1","+0176,1","+0130,2","10155,1","99,0000,9,1",,,,,"00,1,+99999,9,99,9",,,"00,99,1,00,1,00,1,99999,9,00,1,00,1","0552,9","01,9",,"240,M,+0237,1","240,N,+0133,1","99999,9,10145,1","2,1,006,1,-032,1",,,"SYN100AAXX  24061 76458 32960 03402 10176 20130 30145 40155 52006 90545 333 10237 20133 30/// 55092 59032;","Q01+001303ATOD  Q02  00002PRCP99"
"76458099999","2001-01-24T12:00:00","4","23.2","-106.4166666","4.0","COLONIA JUAN CARRASCO MAZATLAN SIN., MX","FM-12","99999","V020","130,1,N,0010,1","22000,1,9,N","008000,1,N,1","+0152,1","+0125,1","10162,1","99,0000,9,1",,,,,"00,1,+99999,9,99,9",,,"00,99,1,00,1,00,1,99999,9,00,1,00,1",,"01,9","999,+0120,9","999,M,+0237,1","120,N,+0136,1","99999,9,10152,1","2,1,003,1,-009,1",,,"SYN094AAXX  24121 76458 32358 01301 10152 20125 30152 40162 52003 91132 333 10237 20136 30012 59009;","Q01  00002PRCP99"
"76458099999","2001-01-24T15:00:00","4","23.2","-106.4166666","4.0","COLONIA JUAN CARRASCO MAZATLAN SIN., MX","FM-12","99999","V020","999,9,C,0000,1","22000,1,9,N","012000,1,N,1","+0160,1","+0134,1","10177,1","99,0000,9,1",,,"4,1,03,1","4,1,03,1","00,1,+99999,9,99,9",,,"00,99,1,00,1,00,1,99999,9,00,1,00,1",,"01,9",,,,"99999,9,10167,1","2,1,015,1,-011,1",,"05,1","SYN088AAXX  24151 76458 31962 00000 10160 20134 30167 40177 52015 70544 91450 333 30/// 59011;","Q01  00002PRCP99"
"76458099999","2001-01-24T21:00:00","4","23.2","-106.4166666","4.0","COLONIA JUAN CARRASCO MAZATLAN SIN., MX","FM-12","99999","V020","280,1,N,0060,1","08700,1,9,N","020000,1,N,1","+0211,1","+0170,1","10157,1","99,0000,9,1",,,,,"05,1,+08700,9,01,9",,,"05,99,1,00,1,00,1,99999,9,00,1,04,1",,"01,9",,,,"99999,9,10147,1","7,1,030,1,-003,1",,,"SYN100AAXX  24211 76458 32970 52806 10211 20170 30147 40157 57030 80004 90250 333 30/// 56009 59003 85079;","Q01  00002PRCP99"
"76458099999","2001-01-25T00:00:00","4","23.2","-106.4166666","4.0","COLONIA JUAN CARRASCO MAZATLAN SIN., MX","FM-12","99999","V020","290,1,N,0030,1","22000,1,9,N","020000,1,N,1","+0212,1","+0160,1","10152,1","24,0000,9,1",,,,,,,,"04,99,1,00,1,00,1,99999,9,00,1,04,1",,"01,9",,"120,M,+0234,1","180,N,+0132,1","99999,9,10142,1","5,1,005,1,+001,1",,,"SYN124AAXX  25001 76458 32970 42903 10212 20160 30142 40152 55005 80004 92350 333 10234 20132 30/// 50300 56009 58001 70000 84079;","Q01  00002PRCP99Q02  00003PRCP99"
"76458099999","2001-01-25T03:00:00","4","23.2","-106.4166666","4.0","COLONIA JUAN CARRASCO MAZATLAN SIN., MX","FM-12","99999","V020","320,1,N,0050,1","22000,1,9,N","008000,1,N,1","+0197,1","+0163,1","10172,1","99,0000,9,1",,,,,"00,1,+99999,9,99,9",,,"00,99,1,00,1,00,1,99999,9,00,1,00,1",,"01,9",,,,"99999,9,10162,1","2,1,020,1,+023,1",,,"SYN082AAXX  25031 76458 32958 03205 10197 20163 30162 40172 52020 90245 333 30/// 58023;","Q01  00002PRCP99"
"76458099999","2001-01-25T12:00:00","4","23.2","-106.4166666","4.0","COLONIA JUAN CARRASCO MAZATLAN SIN., MX","FM-12","99999","V020","999,9,C,0000,1","22000,1,9,N","008000,1,N,1","+0154,1","+0134,1","10175,1","99,0000,9,1",,,,,"00,1,+99999,9,99,9",,,"00,99,1,00,1,00,1,99999,9,00,1,00,1",,"01,9","999,+0130,9","999,M,+0234,1","120,N,+0142,1","99999,9,10165,1","7,1,006,1,+013,1",,,"SYN094AAXX  25121 76458 32958 00000 10154 20134 30165 40175 57006 91132 333 10234 20142 30013 58013;","Q01  00002PRCP99"
"76458099999","2001-01-25T15:00:00","4","23.2","-106.4166666","4.0","COLONIA JUAN CARRASCO MAZATLAN SIN., MX","FM-12","99999","V020","340,1,N,0010,1","05400,1,9,N","012000,1,N,1","+0164,1","+0134,1","10188,1","99,0000,9,1",,,,,"07,1,+05400,9,08,9",,,"07,99,1,99,9,00,1,99999,9,00,1,08,1",,"01,9",,,,"99999,9,10178,1","2,1,012,1,+011,1",,,"SYN100AAXX  25151 76458 32962 73401 10164 20134 30178 40188 52012 80008 91455 333 30/// 56009 58011 87268;","Q01+000002SCOTLCQ02  00002PRCP99"
"76458099999","2001-01-25T18:00:00","4","23.2","-106.4166666","4.0","COLONIA JUAN CARRASCO MAZATLAN SIN., MX","FM-12","99999","V020","270,1,N,0030,1","05400,1,9,N","018000,1,N,1","+0222,1","+0161,1","10193,1","99,0000,9,1",,,,,"05,1,+05400,9,08,9",,,"05,99,1,99,9,00,1,99999,9,00,1,08,1",,"01,9",,"120,M,+0243,1","240,N,+0141,1","99999,9,10183,1","0,1,005,1,+011,1",,,"SYN112AAXX  25181 76458 32968 52703 10222 20161 30183 40193 50005 80008 91745 333 10243 20141 30/// 56009 58011 85268;","Q01+000002SCOTLCQ02  00002PRCP99"
"76458099999","2001-01-25T21:00:00","4","23.2","-106.4166666","4.0","COLONIA JUAN CARRASCO MAZATLAN SIN., MX","FM-12","99999","V020","280,1,N,0050,1","99999,9,9,N","020000,1,N,1","+0218,1","+0168,1","10155,1","99,0000,9,1",,,,,"03,1,+02700,9,03,9",,,"05,99,1,03,1,00,1,99999,9,03,1,05,1",,"01,9",,,,"99999,9,10145,1","7,1,038,1,-002,1",,,"SYN106AAXX  25211 76458 32970 52805 10218 20168 30145 40155 57038 83035 92050 333 30/// 56059 59002 83359 82079;","Q01  00002PRCP99"
"76458099999","2001-01-26T00:00:00","4","23.2","-106.4166666","4.0","COLONIA JUAN CARRASCO MAZATLAN SIN., MX","FM-12","99999","V020","310,1,N,0060,1","99999,9,9,N","020000,1,N,1","+0216,1","+0171,1","10151,1","24,0000,9,1",,,,,"04,1,+02700,9,03,9",,,"06,99,1,04,1,00,1,99999,9,03,1,05,1",,"01,9",,"120,M,+0244,1","180,N,+0141,1","99999,9,10141,1","5,1,004,1,-001,1",,,"SYN130AAXX  26001 76458 32970 63106 10216 20171 30141 40151 55004 84035 92350 333 10244 20141 30/// 50290 56059 59001 70000 84359 82079;","Q01  00002PRCP99Q02  00003PRCP99"
"76458099999","2001-01-26T03:00:00","4","23.2","-106.4166666","4.0","COLONIA JUAN CARRASCO MAZATLAN SIN., MX","FM-12","99999","V020","310,1,N,0050,1","22000,1,9,N","008000,1,N,1","+0202,1","+0162,1","10171,1","99,0000,9,1",,,,,"00,1,+99999,9,99,9",,,"00,99,1,00,1,00,1,99999,9,00,1,00,1",,"01,9",,,,"99999,9,10161,1","1,1,020,1,-001,1",,,"SYN082AAXX  26031 76458 32958 03105 10202 20162 30161 40171 51020 90245 333 30/// 59001;","Q01  00002PRCP99"
"76458099999","2001-01-26T06:00:00","4","23.2","-106.4166666","4.0","COLONIA JUAN CARRASCO MAZATLAN SIN., MX","FM-12","99999","V020","350,1,N,0020,1","22000,1,9,N","008000,1,N,1","+0188,1","+0170,1","10180,1","99,0000,9,1",,,,,"00,1,+99999,9,99,9",,,"00,99,1,00,1,00,1,99999,9,00,1,00,1","0456,9","01,9",,"240,N,+0141,1",,"99999,9,10170,1","2,1,009,1,-007,1",,,"SYN100AAXX  26061 76458 32958 03502 10188 20170 30170 40180 52009 90535 333 0244/ 20141 30/// 55076 59007;","Q01  00002PRCP99"
"76458099999","2001-01-26T12:00:00","4","23.2","-106.4166666","4.0","COLONIA JUAN CARRASCO MAZATLAN SIN., MX","FM-12","99999","V020","350,1,N,0010,1","22000,1,9,N","008000,1,N,1","+0164,1","+0138,1","10159,1","99,0000,9,1",,,,,"00,1,+99999,9,99,9",,,"00,99,1,00,1,00,1,99999,9,00,1,00,1",,"01,9","999,+0130,9","999,M,+0244,1","120,N,+0148,1","99999,9,10149,1","7,1,007,1,-016,1",,,"SYN094AAXX  26121 76458 32958 03501 10164 20138 30149 40159 57007 91135 333 10244 20148 30013 59016;","Q01  00002PRCP99"
"76458099999","2001-01-26T15:00:00","4","23.2","-106.4166666","4.0","COLONIA JUAN CARRASCO MAZATLAN SIN., MX","FM-12","99999","V020","999,9,C,0000,1","03000,1,9,N","012000,1,N,1","+0162,1","+0142,1","10179,1","99,0000,9,1",,,"4,1,03,1","4,1,03,1","06,1,+03000,9,07,9",,,"06,99,1,99,9,00,1,99999,9,03,1,00,1",,"01,9",,,,"99999,9,10169,1","2,1,020,1,-009,1",,"05,1","SYN106AAXX  26151 76458 31962 60000 10162 20142 30169 40179 52020 70544 80030 91450 333 30/// 56090 59009 86360;","Q01+000002SCOTLCQ02  00002PRCP99"
"76458099999","2001-01-26T18:00:00","4","23.2","-106.4166666","4.0","COLONIA JUAN CARRASCO MAZATLAN SIN., MX","FM-12","99999","V020","270,1,N,0040,1","02400,1,9,N","015000,1,N,1","+0210,1","+0161,1","10182,1","99,0000,9,1",,,"4,1,06,1","4,1,06,1","05,1,+02400,9,07,9",,,"05,99,1,99,9,99,9,99999,9,04,1,00,1",,"01,9",,"120,M,+0245,1","240,N,+0147,1","99999,9,10172,1","2,1,012,1,-011,1",,"05,1","SYN118AAXX  26181 76458 31965 52704 10210 20161 30172 40182 52012 70544 80040 91745 333 10245 20147 30/// 56090 59011 85358;","Q01+000002SCOTLCQ02  00002PRCP99Q03    003SCOLCG"
"76458099999","2001-01-27T00:00:00","4","23.2","-106.4166666","4.0","COLONIA JUAN CARRASCO MAZATLAN SIN., MX","FM-12","99999","V020","300,1,N,0040,1","22000,1,9,N","018000,1,N,1","+0219,1","+0174,1","10137,1","24,0000,9,1",,,,,,,,"01,99,1,01,1,00,1,02250,1,03,1,00,1",,"01,9",,"120,M,+0248,1","180,N,+0147,1","99999,9,10127,1","7,1,003,1,-014,1",,,"SYN124AAXX  27001 76458 32868 13004 10219 20174 30127 40137 57003 81030 92350 333 10248 20147 30/// 50240 56090 59014 70000 81362;","Q01  00002PRCP99Q02  00003PRCP99"
"76458099999","2001-01-27T03:00:00","4","23.2","-106.4166666","4.0","COLONIA JUAN CARRASCO MAZATLAN SIN., MX","FM-12","99999","V020","340,1,N,0030,1","22000,1,9,N","008000,1,N,1","+0200,1","+0173,1","10146,1","99,0000,9,1",,,,,"00,1,+99999,9,99,9",,,"00,99,1,00,1,00,1,99999,9,00,1,00,1",,"01,9",,,,"99999,9,10136,1","1,1,009,1,-025,1",,,"SYN082AAXX  27031 76458 32958 03403 10200 20173 30136 40146 51009 90245 333 30/// 59025;","Q01  00002PRCP99"
"76458099999","2001-01-27T12:00:00","4","23.2","-106.4166666","4.0","COLONIA JUAN CARRASCO MAZATLAN SIN., MX","FM-12","99999","V020","999,9,C,0000,1","22000,1,9,N","008000,1,N,1","+0164,1","+0145,1","10136,1","99,0000,9,1",,,,,"00,1,+99999,9,99,9",,,"00,99,1,00,1,00,1,99999,9,00,1,00,1",,"01,9","999,+0140,9","999,M,+0248,1","120,N,+0152,1","99999,9,10126,1","7,1,007,1,-023,1",,,"SYN094AAXX  27121 76458 32958 00000 10164 20145 30126 40136 57007 91135 333 10248 20152 30014 59023;","Q01  00002PRCP99"
"76458099999","2001-01-27T15:00:00","4","23.2","-106.4166666","4.0","COLONIA JUAN CARRASCO MAZATLAN SIN., MX","FM-12","99999","V020","999,9,C,0000,1","22000,1,9,N","010000,1,N,1","+0180,1","+0168,1","10153,1","99,0000,9,1",,,"4,1,03,1","4,1,03,1","00,1,+99999,9,99,9",,,"00,99,1,00,1,00,1,99999,9,00,1,00,1",,"01,9",,,,"99999,9,10143,1","2,1,016,1,-026,1",,"05,1","SYN088AAXX  27151 76458 31960 00000 10180 20168 30143 40153 52016 70544 91450 333 30/// 59026;","Q01  00002PRCP99"
"76458099999","2001-01-27T18:00:00","4","23.2","-106.4166666","4.0","COLONIA JUAN CARRASCO MAZATLAN SIN., MX","FM-12","99999","V020","110,1,N,0030,1","22000,1,9,N","012000,1,N,1","+0240,1","+0167,1","10167,1","99,0000,9,1",,,"4,1,06,1","4,1,06,1","02,1,+00540,9,05,9",,,"02,99,1,02,1,04,1,00450,1,00,1,00,1",,"01,9",,"120,M,+0250,1","240,N,+0153,1","99999,9,10157,1","2,1,014,1,-020,1",,"05,1","SYN118AAXX  27181 76458 31462 21103 10240 20167 30157 40167 52014 70544 82400 91745 333 10250 20153 30/// 56100 59020 82618;","Q01  00002PRCP99"
"76458099999","2001-01-27T21:00:00","4","23.2","-106.4166666","4.0","COLONIA JUAN CARRASCO MAZATLAN SIN., MX","FM-12","99999","V020","170,1,N,0040,1","22000,1,9,N","018000,1,N,1","+0237,1","+0167,1","10131,1","99,0000,9,1",,,,,"02,1,+00870,9,05,9",,,"02,99,1,02,1,04,1,00800,1,00,1,00,1",,"01,9",,,,"99999,9,10121,1","7,1,036,1,-009,1",,,"SYN100AAXX  27211 76458 32568 21704 10237 20167 30121 40131 57036 82400 92050 333 30/// 56400 59009 82629;","Q01  00002PRCP99"
"76458099999","2001-01-28T00:00:00","4","23.2","-106.4166666","4.0","COLONIA JUAN CARRASCO MAZATLAN SIN., MX","FM-12","99999","V020","240,1,N,0030,1","22000,1,9,N","018000,1,N,1","+0234,1","+0177,1","10122,1","24,0000,9,1",,,,,,,,"01,99,1,01,1,00,1,02250,1,03,1,00,1",,"01,9",,"120,M,+0262,1","180,N,+0153,1","99999,9,10112,1","7,1,009,1,-015,1",,,"SYN124AAXX  28001 76458 32868 12403 10234 20177 30112 40122 57009 81030 92350 333 10262 20153 30/// 50280 56090 59015 70000 81362;","Q01  00002PRCP99Q02  00003PRCP99"
"76458099999","2001-01-28T03:00:00","4","23.2","-106.4166666","4.0","COLONIA JUAN CARRASCO MAZATLAN SIN., MX","FM-12","99999","V020","130,1,N,0020,1","22000,1,9,N","016000,1,N,1","+0208,1","+0181,1","10143,1","99,0000,9,1",,,,,"00,1,+99999,9,99,9",,,"00,99,1,00,1,00,1,99999,9,00,1,00,1",,"01,9",,,,"99999,9,10133,1","2,1,021,1,-003,1",,,"SYN082AAXX  28031 76458 32966 01302 10208 20181 30133 40143 52021 90250 333 30/// 59003;","Q01  00002PRCP99"
"76458099999","2001-01-28T06:00:00","4","23.2","-106.4166666","4.0","COLONIA JUAN CARRASCO MAZATLAN SIN., MX","FM-12","99999","V020","130,1,N,0020,1","22000,1,9,N","016000,1,N,1","+0196,1","+0178,1","10149,1","99,0000,9,1",,,,,"00,1,+99999,9,99,9",,,"00,99,1,00,1,00,1,99999,9,00,1,00,1","0492,9","01,9",,"240,M,+0262,1","240,N,+0153,1","99999,9,10139,1","2,1,006,1,-003,1",,,"SYN100AAXX  28061 76458 32966 01302 10196 20178 30139 40149 52006 90550 333 10262 20153 30/// 55082 59003;","Q01  00002PRCP99"
"76458099999","2001-01-28T12:00:00","4","23.2","-106.4166666","4.0","COLONIA JUAN CARRASCO MAZATLAN SIN., MX","FM-12","99999","V020","130,1,N,0020,1","22000,1,9,N","008000,1,N,1","+0188,1","+0176,1","10160,1","24,0000,9,1",,,,,"01,1,+00150,9,06,9",,,"01,99,1,01,1,06,1,00150,1,00,1,00,1",,"01,9","999,+0160,9","999,M,+0262,1","120,N,+0180,1","99999,9,10150,1","2,1,006,1,+023,1",,,"SYN118AAXX  28121 76458 32258 11302 10188 20176 30150 40160 52006 81600 91140 333 10262 20180 30016 56100 58023 70000 81705;",
"76458099999","2001-01-28T15:00:00","4","23.2","-106.4166666","4.0","COLONIA JUAN CARRASCO MAZATLAN SIN., MX","FM-12","99999","V020","140,1,N,0020,1","22000,1,9,N","016000,1,N,1","+0198,1","+0170,1","10181,1","99,0000,9,1",,,,,,,,"02,99,1,02,1,05,1,00250,1,00,1,00,1",,"01,9",,,,"99999,9,10171,1","2,1,021,1,+028,1",,,"SYN094AAXX  28151 76458 32366 21402 10198 20170 30171 40181 52021 82500 91445 333 30/// 56300 58028;","Q01  00002PRCP99"
"76458099999","2001-01-28T18:00:00","4","23.2","-106.4166666","4.0","COLONIA JUAN CARRASCO MAZATLAN SIN., MX","FM-12","99999","V020","200,1,N,0030,1","22000,1,9,N","018000,1,N,1","+0235,1","+0163,1","10184,1","99,0000,9,1",,,,,"03,1,+00900,9,05,9",,,"03,99,1,03,1,04,1,00800,1,00,1,00,1",,"01,9",,"120,M,+0251,1","240,N,+0180,1","99999,9,10174,1","3,1,003,1,+031,1",,,"SYN112AAXX  28181 76458 32568 32003 10235 20163 30174 40184 53003 83400 91745 333 10251 20180 30/// 56400 58031 83630;","Q01  00002PRCP99"
"76458099999","2001-01-28T21:00:00","4","23.2","-106.4166666","4.0","COLONIA JUAN CARRASCO MAZATLAN SIN., MX","FM-12","99999","V020","250,1,N,0040,1","22000,1,9,N","025000,1,N,1","+0238,1","+0158,1","10170,1","99,0000,9,1",,,,,"02,1,+01020,9,05,9",,,"02,99,1,02,1,04,1,00800,1,00,1,00,1",,"01,9",,,,"99999,9,10160,1","7,1,014,1,-039,1",,,"SYN100AAXX  28211 76458 32575 22504 10238 20158 30160 40170 57014 82400 92050 333 30/// 56100 59039 82634;","Q01  00002PRCP99"
"76458099999","2001-01-29T00:00:00","4","23.2","-106.4166666","4.0","COLONIA JUAN CARRASCO MAZATLAN SIN., MX","FM-12","99999","V020","270,1,N,0030,1","22000,1,9,N","030000,1,N,1","+0230,1","+0163,1","10167,1","24,0000,9,1",,,,,"01,1,+00840,9,08,9",,,"02,99,1,01,1,01,1,00450,1,00,1,01,1",,"01,9",,"120,M,+0257,1","180,N,+0180,1","99999,9,10157,1","0,1,003,1,+044,1",,,"SYN130AAXX  29001 76458 32480 22703 10230 20163 30157 40167 50003 81101 92350 333 10257 20180 30/// 50336 56109 58044 70000 81828 81075;","Q01  00002PRCP99Q02  00003PRCP99"
"76458099999","2001-01-29T09:00:00","4","23.2","-106.4166666","4.0","COLONIA JUAN CARRASCO MAZATLAN SIN., MX","FM-12","99999","V020","350,1,N,0020,1","22000,1,9,N","008000,1,N,1","+0174,1","+0128,1","10186,1","99,0000,9,1",,,,,"00,1,+99999,9,99,9",,,"00,99,1,00,1,00,1,99999,9,00,1,00,1",,"01,9",,,,"99999,9,10176,1","7,1,007,1,+032,1",,,"SYN082AAXX  29091 76458 32958 03502 10174 20128 30176 40186 57007 90900 333 30/// 58032;","Q01  00002PRCP99"
"76458099999","2001-01-29T12:00:00","4","23.2","-106.4166666","4.0","COLONIA JUAN CARRASCO MAZATLAN SIN., MX","FM-12","99999","V020","340,1,N,0020,1","22000,1,9,N","008000,1,N,1","+0166,1","+0115,1","10180,1","99,0000,9,1",,,,,"00,1,+99999,9,99,9",,,"00,99,1,00,1,00,1,99999,9,00,1,00,1",,"01,9","999,+0140,9","999,M,+0257,1","120,N,+0152,1","99999,9,10170,1","7,1,006,1,+019,1",,,"SYN094AAXX  29121 76458 32958 03402 10166 20115 30170 40180 57006 91138 333 10257 20152 30014 58019;","Q01  00002PRCP99"
"76458099999","2001-01-29T15:00:00","4","23.2","-106.4166666","4.0","COLONIA JUAN CARRASCO MAZATLAN SIN., MX","FM-12","99999","V020","310,1,N,0030,1","00660,1,9,N","020000,1,N,1","+0173,1","+0121,1","10179,1","99,0000,9,1",,,,,"05,1,+00660,9,06,9","01,1,+02700,9,03,9",,"07,99,1,05,1,04,1,00800,1,03,1,01,1",,"01,9",,,,"99999,9,10169,1","4,1,000,1,-003,1",,,"SYN112AAXX  29151 76458 32570 73103 10173 20121 30169 40179 54001 85431 91450 333 30/// 56999 59003 85622 81359 81079;","Q01  00002PRCP99"
"76458099999","2001-01-29T18:00:00","4","23.2","-106.4166666","4.0","COLONIA JUAN CARRASCO MAZATLAN SIN., MX","FM-12","99999","V020","310,1,N,0060,1","99999,9,9,N","020000,1,N,1","+0199,1","+0112,1","10176,1","99,0000,9,1",,,,,"01,1,+02700,9,03,9",,,"07,99,1,07,1,00,1,99999,9,03,1,00,1",,"01,9",,"120,M,+0212,1","240,N,+0142,1","99999,9,10166,1","8,1,003,1,-008,1",,,"SYN118AAXX  29181 76458 32970 73106 10199 20112 30166 40176 58003 87030 91750 333 10212 20142 30/// 56090 59008 81359 86464;","Q01  00002PRCP99"
"76458099999","2001-01-29T21:00:00","4","23.2","-106.4166666","4.0","COLONIA JUAN CARRASCO MAZATLAN SIN., MX","FM-12","99999","V020","310,1,N,0050,1","02700,1,9,N","025000,1,N,1","+0204,1","+0133,1","10152,1","99,0000,9,1",,,"4,1,03,1","4,1,03,1","07,1,+02700,9,07,9",,,"07,99,1,99,9,00,1,99999,9,07,1,00,1",,"01,9",,,,"99999,9,10142,1","7,1,024,1,-018,1",,"05,1","SYN106AAXX  29211 76458 31975 73105 10204 20133 30142 40152 57024 70544 80070 92050 333 30/// 56090 59018 87359;","Q01+000002SCOTLCQ02  00002PRCP99"
"76458099999","2001-01-30T00:00:00","4","23.2","-106.4166666","4.0","COLONIA JUAN CARRASCO MAZATLAN SIN., MX","FM-12","99999","V020","320,1,N,0030,1","99999,9,9,N","025000,1,N,1","+0200,1","+0136,1","10137,1","24,0000,9,1",,,,,,,,"07,99,1,99,9,00,1,99999,9,07,1,00,1",,"01,9",,"120,M,+0220,1","180,N,+0142,1","99999,9,10127,1","7,1,015,1,-030,1",,,"SYN124AAXX  30001 76458 32975 73203 10200 20136 30127 40137 57015 80070 92345 333 10220 20142 30/// 50214 56090 59030 70000 87358;","Q01+000002SCOTLCQ02  00002PRCP99Q03  00003PRCP99"
"76458099999","2001-01-30T03:00:00","4","23.2","-106.4166666","4.0","COLONIA JUAN CARRASCO MAZATLAN SIN., MX","FM-12","99999","V020","330,1,N,0040,1","02400,1,9,N","008000,1,N,1","+0192,1","+0130,1","10147,1","99,0000,9,1",,,,,"08,1,+02400,9,01,9",,,"08,99,1,08,1,00,1,02250,1,02,1,00,1",,"01,9",,,,"99999,9,10137,1","2,1,010,1,+999,9",,,"SYN100AAXX  30031 76458 32858 83304 10192 20130 30137 40147 52010 88020 90245 333 30/// 56090 58/// 88458;","Q01  00002PRCP99"
"76458099999","2001-01-30T12:00:00","4","23.2","-106.4166666","4.0","COLONIA JUAN CARRASCO MAZATLAN SIN., MX","FM-12","99999","V020","360,1,N,0010,1","22000,1,9,N","008000,1,N,1","+0168,1","+0118,1","10118,1","99,0000,9,1",,,,,"04,1,+06600,9,01,9",,,"04,99,1,00,1,00,1,99999,9,00,1,08,1",,"01,9","999,+0140,9","999,M,+0220,1","120,N,+0154,1","99999,9,10108,1","7,1,009,1,-061,1",,,"SYN112AAXX  30121 76458 32958 43601 10168 20118 30108 40118 57009 80008 91135 333 10220 20154 30014 56009 59061 84072;","Q01  00002PRCP99"
"76458099999","2001-01-30T15:00:00","4","23.2","-106.4166666","4.0","COLONIA JUAN CARRASCO MAZATLAN SIN., MX","FM-12","99999","V020","340,1,N,0010,1","03600,1,9,N","015000,1,N,1","+0170,1","+0118,1","10164,1","99,0000,9,1",,,,,"07,1,+03600,9,07,9",,,"07,99,1,07,1,00,1,02250,1,03,1,00,1",,"01,9",,,,"99999,9,10124,1","2,1,016,1,-045,1",,,"SYN100AAXX  30151 76458 32865 73401 10170 20118 30124 40164 52016 87030 91450 333 30/// 56090 59045 87362;","Q01  00002PRCP99"
"76458099999","2001-01-30T18:00:00","4","23.2","-106.4166666","4.0","COLONIA JUAN CARRASCO MAZATLAN SIN., MX","FM-12","99999","V020","130,1,N,0010,1","03600,1,9,N","012000,1,N,1","+0209,1","+0126,1","10139,1","99,0000,9,1",,,,,"07,1,+03600,9,07,9",,,"07,99,1,07,1,00,1,02250,1,03,1,00,1",,"01,9",,"120,M,+0225,1","240,N,+0158,1","99999,9,10129,1","0,1,005,1,-037,1",,,"SYN112AAXX  30181 76458 32862 71301 10209 20126 30129 40139 50005 87030 91750 333 10225 20158 30/// 56090 59037 87362;","Q01  00002PRCP99"
"76458099999","2001-01-30T21:00:00","4","23.2","-106.4166666","4.0","COLONIA JUAN CARRASCO MAZATLAN SIN., MX","FM-12","99999","V020","230,1,N,0030,1","22000,1,9,N","016000,1,N,1","+0212,1","+0146,1","10114,1","99,0000,9,1",,,,,"03,1,+02700,9,07,9",,,"03,99,1,03,1,00,1,99999,9,03,1,00,1",,"01,9",,,,"99999,9,10104,1","7,1,026,1,-038,1",,,"SYN100AAXX  30211 76458 32966 32303 10212 20146 30104 40114 57026 83030 92055 333 30/// 56050 59038 83359;","Q01  00002PRCP99"
"76458099999","2001-01-31T00:00:00","4","23.2","-106.4166666","4.0","COLONIA JUAN CARRASCO MAZATLAN SIN., MX","FM-12","99999","V020","310,1,N,0030,1","22000,1,9,N","020000,1,N,1","+0212,1","+0132,1","10109,1","24,0000,9,1",,,,,,,,"02,99,1,02,1,00,1,99999,9,03,1,00,1",,"01,9",,"120,M,+0240,1","180,N,+0158,1","99999,9,10099,1","7,1,005,1,-028,1",,,"SYN124AAXX  31001 76458 32970 23103 10212 20132 30099 40109 57005 82030 92350 333 10240 20158 30/// 50470 56050 59028 70000 82359;","Q01  00002PRCP99Q02  00003PRCP99"
"76458099999","2001-01-31T03:00:00","4","23.2","-106.4166666","4.0","COLONIA JUAN CARRASCO MAZATLAN SIN., MX","FM-12","99999","V020","310,1,N,0040,1","22000,1,9,N","008000,1,N,1","+0192,1","+0151,1","10134,1","99,0000,9,1",,,,,"00,1,+99999,9,99,9",,,"00,99,1,00,1,00,1,99999,9,00,1,00,1",,"01,9",,,,"99999,9,10124,1","0,1,025,1,-013,1",,,"SYN082AAXX  31031 76458 32958 03104 10192 20151 30124 40134 50025 90245 333 30/// 59013;","Q01  00002PRCP99"
"76458099999","2001-01-31T06:00:00","4","23.2","-106.4166666","4.0","COLONIA JUAN CARRASCO MAZATLAN SIN., MX","FM-12","99999","V020","340,1,N,0010,1","22000,1,9,N","008000,1,N,1","+0180,1","+0138,1","10142,1","99,0000,9,1",,,,,"00,1,+99999,9,99,9",,,"00,99,1,00,1,00,1,99999,9,00,1,00,1","0240,9","01,9",,"240,M,+0240,1","240,N,+0158,1","99999,9,10132,1","2,1,008,1,+000,1",,,"SYN100AAXX  31061 76458 32958 03401 10180 20138 30132 40142 52008 90540 333 10240 20158 30/// 55040 58000;","Q01  00002PRCP99"
"76458099999","2001-01-31T15:00:00","4","23.2","-106.4166666","4.0","COLONIA JUAN CARRASCO MAZATLAN SIN., MX","FM-12","99999","V020","999,9,C,0000,1","99999,9,9,N","016000,1,N,1","+0168,1","+0125,1","10145,1","99,0000,9,1",,,,,"03,1,+02700,9,03,9",,,"07,99,1,07,1,00,1,99999,9,03,1,00,1",,"01,9",,,,"99999,9,10135,1","2,1,999,9,+110,1",,,"SYN106AAXX  31151 76458 32966 70000 10168 20125 30135 40145 52/// 87030 91450 333 30/// 56090 58110 83359 84461;","Q01  00002PRCP99"
"76458099999","2001-01-31T18:00:00","4","23.2","-106.4166666","4.0","COLONIA JUAN CARRASCO MAZATLAN SIN., MX","FM-12","99999","V020","290,1,N,0020,1","05400,1,9,N","012000,1,N,1","+0195,1","+0142,1","10156,1","99,0000,9,1",,,,,"08,1,+05400,9,08,9",,,"08,99,1,99,9,00,1,99999,9,00,1,07,1",,"01,9",,"120,M,+0209,1","240,N,+0143,1","99999,9,10146,1","0,1,011,1,+017,1",,,"SYN112AAXX  31181 76458 32962 82902 10195 20142 30146 40156 50011 80007 91750 333 10209 20143 30/// 56009 58017 88268;","Q01+000002SCOTLCQ02  00002PRCP99"
"76458099999","2001-01-31T21:00:00","4","23.2","-106.4166666","4.0","COLONIA JUAN CARRASCO MAZATLAN SIN., MX","FM-12","99999","V020","270,1,N,0030,1","07500,1,9,N","012000,1,N,1","+0210,1","+0140,1","10143,1","99,0000,9,1",,,"4,1,03,1","4,1,03,1","08,1,+07500,9,08,9",,,"08,99,1,99,9,00,1,99999,9,00,1,08,1",,"01,9",,,,"99999,9,10133,1","7,1,013,1,+029,1",,"05,1","SYN106AAXX  31211 76458 31962 82703 10210 20140 30133 40143 57013 70544 80008 92050 333 30/// 56009 58029 88275;","Q01+000002SCOTLCQ02  00002PRCP99"
"76458099999","2001-02-01T00:00:00","4","23.2","-106.4166666","4.0","COLONIA JUAN CARRASCO MAZATLAN SIN., MX","FM-12","99999","V020","340,1,N,0020,1","99999,9,9,N","012000,1,N,1","+0202,1","+0134,1","10130,1","24,0000,9,1",,,"4,1,06,1","4,1,06,1",,,,"07,99,1,00,1,00,1,99999,9,00,1,08,1",,"01,9",,"120,M,+0221,1","180,N,+0143,1","99999,9,10120,1","0,1,013,1,+021,1",,"05,1","SYN130AAXX  01001 76458 31962 73402 10202 20134 30120 40130 50013 70544 80008 92350 333 10221 20143 30/// 50175 56009 58021 70000 87275;","Q01  00002PRCP99Q02  00003PRCP99"
"76458099999","2001-02-01T03:00:00","4","23.2","-106.4166666","4.0","COLONIA JUAN CARRASCO MAZATLAN SIN., MX","FM-12","99999","V020","340,1,N,0030,1","22000,1,9,N","008000,1,N,1","+0188,1","+0157,1","10141,1","99,0000,9,1",,,,,,,,"01,99,1,01,1,00,1,02250,1,05,1,00,1",,"01,9",,,,"99999,9,10131,1","2,1,011,1,+999,9",,,"SYN093AAXX  01031 76458 32858 13403 10188 20157 30131 40141 52011 81050 90245 333 30/// 5090 58007;","Q01  00002PRCP99"
"76458099999","2001-02-01T12:00:00","4","23.2","-106.4166666","4.0","COLONIA JUAN CARRASCO MAZATLAN SIN., MX","FM-12","99999","V020","340,1,N,0010,1","22000,1,9,N","008000,1,N,1","+0170,1","+0116,1","10130,1","99,0000,9,1",,,,,"04,1,+02400,9,07,9",,,"04,99,1,99,9,99,9,99999,9,03,1,00,1",,"01,9","999,+0150,9","999,M,+0221,1","120,N,+0162,1","99999,9,10120,1","7,1,006,1,-004,1",,,"SYN112AAXX  01121 76458 32958 43401 10170 20116 30120 40130 57006 80030 91140 333 10221 20162 30015 56090 59004 84358;","Q01+000002SCOTLCQ02  00002PRCP99Q03    003SCOLCG"
"76458099999","2001-02-01T15:00:00","4","23.2","-106.4166666","4.0","COLONIA JUAN CARRASCO MAZATLAN SIN., MX","FM-12","99999","V020","290,1,N,0030,1","03600,1,9,N","015000,1,N,1","+0175,1","+0124,1","10137,1","99,0000,9,1",,,,,"07,1,+03600,9,07,9",,,"07,99,1,07,1,00,1,02250,1,03,1,00,1",,"01,9",,,,"99999,9,10127,1","2,1,006,1,+008,1",,,"SYN100AAXX  01151 76458 32865 72903 10175 20124 30127 40137 52006 87030 91450 333 30/// 56090 58008 87362;","Q01  00002PRCP99"
"76458099999","2001-02-01T18:00:00","4","23.2","-106.4166666","4.0","COLONIA JUAN CARRASCO MAZATLAN SIN., MX","FM-12","99999","V020","300,1,N,0050,1","03600,1,9,N","018000,1,N,1","+0185,1","+0086,1","10157,1","99,0000,9,1",,,,,"06,1,+03600,9,07,9",,,"06,99,1,99,9,00,1,02250,1,03,1,00,1",,"01,9",,"120,M,+0193,1","240,N,+0154,1","99999,9,10145,1","2,1,018,1,-001,1",,,"SYN112AAXX  01181 76458 32868 63005 10185 20086 30145 40157 52018 80030 91750 333 10193 20154 30/// 56090 59001 86362;","Q01+000002SCOTLCQ02  00002PRCP99"
"76458099999","2001-02-01T21:00:00","4","23.2","-106.4166666","4.0","COLONIA JUAN CARRASCO MAZATLAN SIN., MX","FM-12","99999","V020","290,1,N,0030,1","22000,1,9,N","020000,1,N,1","+0208,1","+0115,1","10147,1","99,0000,9,1",,,,,"04,1,+02400,9,07,9",,,"04,99,1,04,1,99,9,99999,9,08,1,00,1",,"01,9",,,,"99999,9,10135,1","7,1,010,1,+003,1",,,"SYN100AAXX  01211 76458 32970 42903 10208 20115 30135 40147 57010 84080 92059 333 30/// 56090 58003 84358;","Q01  00002PRCP99Q02    003SCOLCG"
"76458099999","2001-02-02T00:00:00","4","23.2","-106.4166666","4.0","COLONIA JUAN CARRASCO MAZATLAN SIN., MX","FM-12","99999","V020","310,1,N,0030,1","22000,1,9,N","020000,1,N,1","+0202,1","+0125,1","10148,1","99,0000,9,1",,,,,"02,1,+00960,9,08,9",,,"04,99,1,02,1,02,1,00800,1,00,1,06,1",,"01,9",,"120,M,+0221,1","180,N,+0154,1","99999,9,10136,1","4,1,000,1,+016,1",,,"SYN118AAXX  02001 76458 32570 43103 10202 20125 30136 40148 54000 82206 92358 333 10221 20154 30/// 56309 58016 82832 82072;","Q01  00002PRCP99"
"76458099999","2001-02-02T03:00:00","4","23.2","-106.4166666","4.0","COLONIA JUAN CARRASCO MAZATLAN SIN., MX","FM-12","99999","V020","330,1,N,0050,1","22000,1,9,N","008000,1,N,1","+0186,1","+0116,1","10160,1","99,0000,9,1",,,,,"02,1,+01800,9,03,9",,,"03,99,1,99,9,99,9,02250,1,99,9,99,9",,"01,9",,,,"99999,9,10150,1","2,1,031,1,+019,1",,,"SYN094AAXX  02031 76458 32858 33305 10186 20116 30150 40160 52031 90245 333 30/// 58019 82356 81070;","Q01  00002PRCP99"
"76458099999","2001-02-02T09:00:00","4","23.2","-106.4166666","4.0","COLONIA JUAN CARRASCO MAZATLAN SIN., MX","FM-12","99999","V020","320,1,N,0020,1","22000,1,9,N","008000,1,N,1","+0144,1","+0098,1","10156,1","99,0000,9,1",,,,,"00,1,+99999,9,99,9",,,"00,99,1,00,1,00,1,99999,9,00,1,00,1",,"01,9",,,,"99999,9,10144,1","7,1,014,1,+018,1",,,"SYN082AAXX  02091 76458 32958 03202 10144 20098 30144 40156 57014 90845 333 30/// 58018;","Q01  00002PRCP99"
"76458099999","2001-02-02T12:00:00","4","23.2","-106.4166666","4.0","COLONIA JUAN CARRASCO MAZATLAN SIN., MX","FM-12","99999","V020","330,1,N,0020,1","22000,1,9,N","008000,1,N,1","+0144,1","+0121,1","10148,1","24,0000,9,1",,,,,"00,1,+99999,9,99,9",,,"00,99,1,00,1,00,1,99999,9,00,1,00,1",,"01,9","999,+0100,9","999,M,+0220,1","120,N,+0117,1","99999,9,10137,1","6,1,008,1,+016,1",,,"SYN100AAXX  02121 76458 32958 03302 10144 20121 30137 40148 56008 91140 333 10220 20117 30010 58016 70000;","Q01  00002PRCP24"
"76458099999","2001-02-02T15:00:00","4","23.2","-106.4166666","4.0","COLONIA JUAN CARRASCO MAZATLAN SIN., MX","FM-12","99999","V020","999,9,C,0000,1","22000,1,9,N","012000,1,N,1","+0133,1","+0088,1","10166,1","99,0000,9,1",,,,,"01,1,+06000,9,01,9",,,"01,99,1,00,1,00,1,99999,9,00,1,01,1",,"01,9",,,,"99999,9,10154,1","0,1,007,1,+027,1",,,"SYN100AAXX  02151 76458 32962 10000 10133 20088 30154 40166 50007 80001 91458 333 30/// 56009 58027 81070;","Q01  00002PRCP99"
"76458099999","2001-02-02T18:00:00","4","23.2","-106.4166666","4.0","COLONIA JUAN CARRASCO MAZATLAN SIN., MX","FM-12","99999","V020","260,1,N,0030,1","22000,1,9,N","018000,1,N,1","+0185,1","+0107,1","10161,1","99,0000,9,1",,,,,"01,1,+03600,9,07,9",,,"01,99,1,99,9,99,9,02250,1,99,9,99,9",,"01,9",,"120,M,+0205,1","240,N,+0110,1","99999,9,10149,1","8,1,005,1,+003,1",,,"SYN106AAXX  02181 76458 32868 12603 10185 20107 30149 40161 58005 91750 333 10205 20110 30/// 56090 58003 81362;","Q01  00002PRCP99"
"76458099999","2001-02-02T21:00:00","4","23.2","-106.4166666","4.0","COLONIA JUAN CARRASCO MAZATLAN SIN., MX","FM-12","99999","V020","280,1,N,0030,1","22000,1,9,N","020000,1,N,1","+0202,1","+0127,1","10134,1","99,0000,9,1",,,,,"04,1,+06600,9,01,9",,,"04,99,1,00,1,00,1,99999,9,00,1,06,1",,"01,9",,,,"99999,9,10123,1","7,1,026,1,-012,1",,,"SYN100AAXX  02211 76458 32970 42803 10202 20127 30123 40134 57026 80006 92058 333 30/// 56009 59012 84072;","Q01  00002PRCP99"
"76458099999","2001-02-03T00:00:00","4","23.2","-106.4166666","4.0","COLONIA JUAN CARRASCO MAZATLAN SIN., MX","FM-12","99999","V020","210,1,N,0030,1","22000,1,9,N","020000,1,N,1","+0210,1","+0113,1","10125,1","99,0000,9,1",,,,,"04,1,+06600,9,01,9",,,"04,99,1,00,1,00,1,99999,9,00,1,08,1",,"01,9",,"120,M,+0220,1","180,N,+0110,1","99999,9,10115,1","7,1,008,1,-021,1",,,"SYN106AAXX  03001 76458 32870 42103 10210 20113 30115 40125 57008 80008 92350 333 10220 20110 30/// 59021 84072;","Q01+022502SCOLCBQ02  00002PRCP99"
"76458099999","2001-02-03T03:00:00","4","23.2","-106.4166666","4.0","COLONIA JUAN CARRASCO MAZATLAN SIN., MX","FM-12","99999","V020","340,1,N,0030,1","22000,1,9,N","008000,1,N,1","+0186,1","+0148,1","10137,1","99,0000,9,1",,,"4,1,03,1","4,1,03,1","00,1,+99999,9,99,9",,,"00,99,1,00,1,00,1,99999,9,00,1,00,1",,"01,9",,,,"99999,9,10126,1","2,1,011,1,-024,1",,"05,1","SYN088AAXX  03031 76458 31958 03403 10186 20148 30126 40137 52011 70544 90235 333 30/// 59024;","Q01  00002PRCP99"
"76458099999","2001-02-03T06:00:00","4","23.2","-106.4166666","4.0","COLONIA JUAN CARRASCO MAZATLAN SIN., MX","FM-12","99999","V020","330,1,N,0020,1","22000,1,9,N","008000,1,N,1","+0176,1","+0151,1","10142,1","99,0000,9,1",,,"4,1,06,1","4,1,06,1","00,1,+99999,9,99,9",,,"00,99,1,00,1,00,1,99999,9,00,1,00,1","0492,9","01,9",,"240,M,+0218,1","240,N,+0110,1","99999,9,10132,1","2,1,006,1,-027,1",,"05,1","SYN106AAXX  03061 76458 31958 03302 10176 20151 30132 40142 52006 70544 90540 333 10218 20110 30/// 55082 59027;","Q01  00002PRCP99"
"76458099999","2001-02-03T09:00:00","4","23.2","-106.4166666","4.0","COLONIA JUAN CARRASCO MAZATLAN SIN., MX","FM-12","99999","V020","160,1,N,0020,1","22000,1,9,N","008000,1,N,1","+0158,1","+0128,1","10125,1","99,0000,9,1",,,,,"00,1,+99999,9,99,9",,,"00,99,1,00,1,00,1,99999,9,00,1,00,1",,"01,9",,,,"99999,9,10113,1","7,1,019,1,-031,1",,,"SYN082AAXX  03091 76458 32958 01602 10158 20128 30113 40125 57019 90855 333 30/// 59031;","Q01  00002PRCP99"
"76458099999","2001-02-03T15:00:00","4","23.2","-106.4166666","4.0","COLONIA JUAN CARRASCO MAZATLAN SIN., MX","FM-12","99999","V020","999,9,C,0000,1","22000,1,9,N","012000,1,N,1","+0159,1","+0131,1","10133,1","99,0000,9,1",,,,,"01,1,+06000,9,01,9",,,"01,99,1,00,1,00,1,99999,9,00,1,01,1",,"01,9",,,,"99999,9,10121,1","2,1,012,1,-033,1",,,"SYN100AAXX  03151 76458 32962 10000 10159 20131 30121 40133 52012 80001 91450 333 30/// 56009 59033 81070;","Q01  00002PRCP99"
"76458099999","2001-02-03T18:00:00","4","23.2","-106.4166666","4.0","COLONIA JUAN CARRASCO MAZATLAN SIN., MX","FM-12","99999","V020","200,1,N,0030,1","22000,1,9,N","015000,1,N,1","+0229,1","+0135,1","10149,1","99,0000,9,1",,,,,"01,1,+06000,9,01,9",,,"01,99,1,00,1,00,1,99999,9,00,1,01,1",,"01,9",,"120,M,+0242,1","240,N,+0134,1","99999,9,10137,1","0,1,016,1,-008,1",,,"SYN112AAXX  03181 76458 32965 12003 10229 20135 30137 40149 50016 80001 91750 333 10242 20134 30/// 56009 59008 81070;","Q01  00002PRCP99"
"76458099999","2001-02-03T21:00:00","4","23.2","-106.4166666","4.0","COLONIA JUAN CARRASCO MAZATLAN SIN., MX","FM-12","99999","V020","280,1,N,0030,1","22000,1,9,N","015000,1,N,1","+0230,1","+0145,1","10135,1","99,0000,9,1",,,,,"01,1,+01050,9,02,9",,,"02,99,1,02,1,02,1,01250,1,01,1,00,1",,"01,9",,,,"99999,9,10124,1","7,1,011,1,+001,1",,,"SYN106AAXX  03211 76458 32665 22803 10230 20145 30124 40135 57011 82210 92045 333 30/// 56109 58001 81235 81070;","Q01  00002PRCP99"
"76458099999","2001-02-04T00:00:00","4","23.2","-106.4166666","4.0","COLONIA JUAN CARRASCO MAZATLAN SIN., MX","FM-12","99999","V020","290,1,N,0020,1","22000,1,9,N","020000,1,N,1","+0238,1","+0162,1","10134,1","99,0000,9,1",,,,,"01,1,+00960,9,08,9",,,"02,99,1,02,1,02,1,00800,1,00,1,06,1",,"01,9",,"120,M,+0266,1","180,N,+0134,1","99999,9,10123,1","5,1,001,1,+008,1",,,"SYN118AAXX  04001 76458 32570 22902 10238 20162 30123 40134 55001 82206 92345 333 10266 20134 30/// 56109 58008 81832 81070;","Q01  00002PRCP99"
"76458099999","2001-02-04T03:00:00","4","23.2","-106.4166666","4.0","COLONIA JUAN CARRASCO MAZATLAN SIN., MX","FM-12","99999","V020","340,1,N,0020,1","22000,1,9,N","008000,1,N,1","+0210,1","+0164,1","10147,1","99,0000,9,1",,,,,"00,1,+99999,9,99,9",,,"00,99,1,00,1,00,1,99999,9,00,1,00,1",,"01,9",,,,"99999,9,10134,1","2,1,014,1,+010,1",,,"SYN082AAXX  04031 76458 32958 03402 10210 20164 30134 40147 52014 90250 333 30/// 58010;","Q01  00002PRCP99"
"76458099999","2001-02-04T06:00:00","4","23.2","-106.4166666","4.0","COLONIA JUAN CARRASCO MAZATLAN SIN., MX","FM-12","99999","V020","320,1,N,0010,1","22000,1,9,N","008000,1,N,1","+0198,1","+0158,1","10155,1","99,0000,9,1",,,"4,1,06,1","4,1,06,1","00,1,+99999,9,99,9",,,"00,99,1,00,1,00,1,99999,9,00,1,00,1","0540,9","01,9",,"240,M,+0266,1","240,N,+0134,1","99999,9,10144,1","2,1,008,1,+012,1",,"05,1","SYN106AAXX  04061 76458 31958 03201 10198 20158 30144 40155 52008 70544 90545 333 10266 20134 30/// 55090 58012;","Q01  00002PRCP99"
"76458099999","2001-02-04T12:00:00","4","23.2","-106.4166666","4.0","COLONIA JUAN CARRASCO MAZATLAN SIN., MX","FM-12","99999","V020","999,9,C,0000,1","22000,1,9,N","008000,1,N,1","+0165,1","+0137,1","10138,1","24,0000,9,1",,,,,"00,1,+99999,9,99,9",,,"00,99,1,00,1,00,1,99999,9,00,1,00,1",,"01,9","999,+0130,9","999,M,+0266,1","120,N,+0155,1","99999,9,10126,1","6,1,002,1,+017,1",,,"SYN100AAXX  04121 76458 32958 00000 10165 20137 30126 40138 56002 91145 333 10266 20155 30013 58017 70000;","Q01  00002PRCP24"
"76458099999","2001-02-04T15:00:00","4","23.2","-106.4166666","4.0","COLONIA JUAN CARRASCO MAZATLAN SIN., MX","FM-12","99999","V020","340,1,N,0020,1","22000,1,9,N","015000,1,N,1","+0172,1","+0129,1","10158,1","99,0000,9,1",,,,,"01,1,+06000,9,01,9",,,"01,99,1,00,1,00,1,99999,9,00,1,01,1",,"01,9",,,,"99999,9,10146,1","2,1,020,1,+025,1",,,"SYN100AAXX  04151 76458 32965 13402 10172 20129 30146 40158 52020 80001 91450 333 30/// 56009 58025 81070;","Q01  00002PRCP99"
"76458099999","2001-02-04T18:00:00","4","23.2","-106.4166666","4.0","COLONIA JUAN CARRASCO MAZATLAN SIN., MX","FM-12","99999","V020","250,1,N,0020,1","22000,1,9,N","015000,1,N,1","+0223,1","+0141,1","10165,1","99,0000,9,1",,,,,"00,1,+99999,9,99,9",,,"00,99,1,00,1,00,1,99999,9,00,1,00,1",,"01,9",,"120,M,+0251,1","240,N,+0147,1","99999,9,10153,1","0,1,007,1,+016,1",,,"SYN094AAXX  04181 76458 32965 02502 10223 20141 30153 40165 50007 91745 333 10251 20147 30/// 58016;","Q01  00002PRCP99"
"76458099999","2001-02-04T21:00:00","4","23.2","-106.4166666","4.0","COLONIA JUAN CARRASCO MAZATLAN SIN., MX","FM-12","99999","V020","260,1,N,0030,1","22000,1,9,N","015000,1,N,1","+0224,1","+0166,1","10144,1","99,0000,9,1",,,,,"00,1,+99999,9,99,9",,,"00,99,1,00,1,00,1,99999,9,00,1,00,1",,"01,9",,,,"99999,9,10132,1","7,1,021,1,+008,1",,,"SYN082AAXX  04211 76458 32965 02603 10224 20166 30132 40144 57021 92045 333 30/// 58008;","Q01  00002PRCP99"
"76458099999","2001-02-05T00:00:00","4","23.2","-106.4166666","4.0","COLONIA JUAN CARRASCO MAZATLAN SIN., MX","FM-12","99999","V020","310,1,N,0040,1","22000,1,9,N","020000,1,N,1","+0244,1","+0163,1","10133,1","24,0000,9,1",,,,,"00,1,+99999,9,99,9",,,"00,99,1,00,1,00,1,99999,9,00,1,00,1",,"01,9",,"120,M,+0258,1","180,N,+0147,1","99999,9,10121,1","5,1,011,1,-002,1",,,"SYN099AAXX  05001 76458 3297003104 10244 20163 30121 40133 55011 92340 333 10258 20147 30/// 59002 70000;","Q01  00002PRCP24"
"76458099999","2001-02-05T03:00:00","4","23.2","-106.4166666","4.0","COLONIA JUAN CARRASCO MAZATLAN SIN., MX","FM-12","99999","V020","340,1,N,0030,1","22000,1,9,N","008000,1,N,1","+0204,1","+0178,1","10142,1","99,0000,9,1",,,,,"00,1,+99999,9,99,9",,,"00,99,1,00,1,00,1,99999,9,00,1,00,1",,"01,9",,,,"99999,9,10130,1","2,1,009,1,-006,1",,,"SYN082AAXX  05031 76458 32958 03403 10204 20178 30130 40142 52009 90250 333 30/// 59006;","Q01  00002PRCP99"
"76458099999","2001-02-05T06:00:00","4","23.2","-106.4166666","4.0","COLONIA JUAN CARRASCO MAZATLAN SIN., MX","FM-12","99999","V020","340,1,N,0020,1","22000,1,9,N","008000,1,N,1","+0192,1","+0140,1","10146,1","99,0000,9,1",,,"4,1,06,1","4,1,06,1","00,1,+99999,9,99,9",,,"00,99,1,00,1,00,1,99999,9,00,1,00,1",,"01,9",,"240,M,+0258,1","240,N,+0147,1","99999,9,10135,1","2,1,005,1,+009,1",,"05,1","SYN100AAXX  05061 76458 31958 03402 10192 20140 30135 40146 52005 70544 90550 333 10258 20147 30/// 58009;","Q01  00002PRCP99"
"76458099999","2001-02-05T09:00:00","4","23.2","-106.4166666","4.0","COLONIA JUAN CARRASCO MAZATLAN SIN., MX","FM-12","99999","V020","360,1,N,0020,1","22000,1,9,N","008000,1,N,1","+0170,1","+0138,1","10125,1","99,0000,9,1",,,,,"00,1,+99999,9,99,9",,,"00,99,1,00,1,00,1,99999,9,00,1,00,1",,"01,9",,,,"99999,9,10114,1","7,1,022,1,-015,1",,,"SYN082AAXX  05091 76458 32958 03602 10170 20138 30114 40125 57022 90845 333 30/// 59015;","Q01  00002PRCP99"
"76458099999","2001-02-05T12:00:00","4","23.2","-106.4166666","4.0","COLONIA JUAN CARRASCO MAZATLAN SIN., MX","FM-12","99999","V020","320,1,N,0020,1","22000,1,9,N","008000,1,N,1","+0156,1","+0115,1","10118,1","24,0000,9,1",,,,,"00,1,+99999,9,99,9",,,"00,99,1,00,1,00,1,99999,9,00,1,00,1",,"01,9","999,+0120,9","999,M,+0258,1","120,N,+0147,1","99999,9,10107,1","7,1,007,1,-019,1",,,"SYN100AAXX  05121 76458 32958 03202 10156 20115 30107 40118 57007 91145 333 10258 20147 30012 59019 70000;","Q01  00002PRCP24"
"76458099999","2001-02-05T15:00:00","4","23.2","-106.4166666","4.0","COLONIA JUAN CARRASCO MAZATLAN SIN., MX","FM-12","99999","V020","999,9,C,0000,1","22000,1,9,N","010000,1,N,1","+0174,1","+0131,1","10138,1","99,0000,9,1",,,,,"01,1,+06000,9,01,9",,,"01,99,1,00,1,00,1,99999,9,00,1,02,1",,"01,9",,,,"99999,9,10127,1","2,1,020,1,-019,1",,,"SYN100AAXX  05151 76458 32960 10000 10174 20131 30127 40138 52020 80002 91455 333 30/// 56/// 59019 81070;","Q01  00002PRCP99"
"76458099999","2001-02-05T18:00:00","4","23.2","-106.4166666","4.0","COLONIA JUAN CARRASCO MAZATLAN SIN., MX","FM-12","99999","V020","270,1,N,0030,1","22000,1,9,N","010000,1,N,1","+0230,1","+0148,1","10142,1","99,0000,9,1",,,,,"01,1,+06000,9,08,9",,,"01,99,1,99,9,00,1,99999,9,00,1,05,1",,"01,9",,"120,M,+0252,1","240,N,+0130,1","99999,9,10130,1","1,1,003,1,-023,1",,,"SYN112AAXX  05181 76458 32960 12703 10230 20148 30130 40142 51003 80005 91759 333 10252 20130 30/// 56/// 59023 81270;","Q01+000002SCOTLCQ02  00002PRCP99"
"76458099999","2001-02-05T21:00:00","4","23.2","-106.4166666","4.0","COLONIA JUAN CARRASCO MAZATLAN SIN., MX","FM-12","99999","V020","260,1,N,0020,1","22000,1,9,N","020000,1,N,1","+0238,1","+0165,1","10123,1","99,0000,9,1",,,,,"02,1,+06000,9,01,9",,,"02,99,1,00,1,00,1,99999,9,00,1,02,1",,"01,9",,,,"99999,9,10112,1","7,1,018,1,-020,1",,,"SYN094AAXX  05211 76458 32970 22602 10238 20165 30112 40123 57018 80002 92045 333 30/// 59020 82070;","Q01  00002PRCP99"
"76458099999","2001-02-06T00:00:00","4","23.2","-106.4166666","4.0","COLONIA JUAN CARRASCO MAZATLAN SIN., MX","FM-12","99999","V020","310,1,N,0050,1","22000,1,9,N","020000,1,N,1","+0248,1","+0127,1","10115,1","24,0000,9,1",,,,,"04,1,+06000,9,01,9",,,"04,99,1,00,1,00,1,99999,9,00,1,06,1",,"01,9",,"120,M,+0280,1","180,N,+0130,1","99999,9,10103,1","6,1,009,1,-018,1",,,"SYN118AAXX  06001 76458 32970 43105 10248 20127 30103 40115 56009 80006 92340 333 10280 20130 30/// 50340 59018 70000 84070;",
"76458099999","2001-02-06T03:00:00","4","23.2","-106.4166666","4.0","COLONIA JUAN CARRASCO MAZATLAN SIN., MX","FM-12","99999","V020","340,1,N,0020,1","22000,1,9,N","008000,1,N,1","+0218,1","+0131,1","10118,1","99,0000,9,1",,,,,"04,1,+08400,9,01,9",,,"04,99,1,00,1,00,1,99999,9,00,1,02,1",,"01,9",,,,"99999,9,10107,1","2,1,004,1,-023,1",,,"SYN100AAXX  06031 76458 32958 43402 10218 20131 30107 40118 52004 80002 90248 333 30/// 56009 59023 84078;","Q01  00002PRCP99"
"76458099999","2001-02-06T06:00:00","4","23.2","-106.4166666","4.0","COLONIA JUAN CARRASCO MAZATLAN SIN., MX","FM-12","99999","V020","999,9,C,0000,1","99999,9,9,N","008000,1,N,1","+0200,1","+0136,1","10124,1","99,0000,9,1",,,,,,,,"05,99,1,00,1,00,1,99999,9,00,1,02,1","0540,9","01,9",,"240,M,+0256,1","240,N,+0130,1","99999,9,10113,1","2,1,006,1,-023,1",,,"SYN118AAXX  06061 76458 32958 50000 10200 20136 30113 40124 52006 80002 90540 333 10256 20130 30/// 55090 56009 59023 85075;","Q01  00002PRCP99"
"76458099999","2001-02-06T09:00:00","4","23.2","-106.4166666","4.0","COLONIA JUAN CARRASCO MAZATLAN SIN., MX","FM-12","99999","V020","330,1,N,0020,1","06300,1,9,N","008000,1,N,1","+0163,1","+0075,1","10111,1","99,0000,9,1",,,,,"05,1,+06300,9,01,9",,,"05,99,1,00,1,00,1,99999,9,00,1,05,1",,"01,9",,,,"99999,9,10100,1","7,1,013,1,-013,1",,,"SYN100AAXX  06091 76458 32958 53302 10163 20075 30100 40111 57013 80005 90845 333 30/// 56009 59013 85071;","Q01  00002PRCP99"
"76458099999","2001-02-06T12:00:00","4","23.2","-106.4166666","4.0","COLONIA JUAN CARRASCO MAZATLAN SIN., MX","FM-12","99999","V020","100,1,N,0020,1","22000,1,9,N","008000,1,N,1","+0150,1","+0113,1","99999,9","24,0000,9,1",,,,,"03,1,+08700,9,01,9",,,"03,99,1,00,1,00,1,99999,9,00,1,05,1",,"01,9","999,+0110,9","999,M,+0280,1","120,N,+0145,1","99999,9,10097,1","5,1,003,1,-010,1",,,"SYN118AAXX  06121 76458 32958 31002 10150 20113 30097 40009 55003 80005 91145 333 10280 20145 30011 56009 59010 70000 83079;","Q01+100093APOSLP"
"76458099999","2001-02-06T18:00:00","4","23.2","-106.4166666","4.0","COLONIA JUAN CARRASCO MAZATLAN SIN., MX","FM-12","99999","V020","210,1,N,0020,1","22000,1,9,N","012000,1,N,1","+0258,1","+0096,1","10127,1","99,0000,9,1",,,,,"01,1,+06000,9,01,9",,,"01,99,1,00,1,00,1,99999,9,00,1,01,1",,"01,9",,"120,M,+0275,1","240,N,+0129,1","99999,9,10116,1","1,1,005,1,-014,1",,,"SYN112AAXX  06181 76458 32962 12102 10258 20096 30116 40127 51005 80001 91755 333 10275 20129 30/// 56/// 59014 81070;","Q01  00002PRCP99"
"76458099999","2001-02-06T21:00:00","4","23.2","-106.4166666","4.0","COLONIA JUAN CARRASCO MAZATLAN SIN., MX","FM-12","99999","V020","270,1,N,0030,1","22000,1,9,N","015000,1,N,1","+0243,1","+0159,1","10107,1","99,0000,9,1",,,,,"00,1,+99999,9,99,9",,,"00,99,1,00,1,00,1,99999,9,00,1,00,1",,"01,9",,,,"99999,9,10096,1","7,1,020,1,-017,1",,,"SYN082AAXX  06211 76458 32965 02703 10243 20159 30096 40107 57020 92050 333 30/// 59017;","Q01  00002PRCP99"
"76458099999","2001-02-07T00:00:00","4","23.2","-106.4166666","4.0","COLONIA JUAN CARRASCO MAZATLAN SIN., MX","FM-12","99999","V020","270,1,N,0030,1","22000,1,9,N","020000,1,N,1","+0243,1","+0148,1","10095,1","24,0000,9,1",,,,,"00,1,+99999,9,99,9",,,"00,99,1,00,1,00,1,99999,9,00,1,00,1",,"01,9",,"120,M,+0290,1","180,N,+0129,1","99999,9,10083,1","7,1,013,1,-020,1",,,"SYN106AAXX  07001 76458 32970 02703 10243 20148 30083 40095 57013 92345 333 10290 20129 30/// 50240 59020 70000;","Q01  00002PRCP24"
"76458099999","2001-02-07T03:00:00","4","23.2","-106.4166666","4.0","COLONIA JUAN CARRASCO MAZATLAN SIN., MX","FM-12","99999","V020","260,1,N,0020,1","22000,1,9,N","008000,1,N,1","+0208,1","+0178,1","10112,1","99,0000,9,1",,,,,"00,1,+99999,9,99,9",,,"00,99,1,00,1,00,1,99999,9,00,1,00,1",,"01,9",,,,"99999,9,10101,1","2,1,018,1,-006,1",,,"SYN082AAXX  07031 76458 32958 02602 10208 20178 30101 40112 52018 90250 333 30/// 59006;","Q01  00002PRCP99"
"76458099999","2001-02-07T06:00:00","4","23.2","-106.4166666","4.0","COLONIA JUAN CARRASCO MAZATLAN SIN., MX","FM-12","99999","V020","999,9,C,0000,1","22000,1,9,N","008000,1,N,1","+0196,1","+0165,1","10121,1","99,0000,9,1",,,"4,1,06,1","4,1,06,1","00,1,+99999,9,99,9",,,"00,99,1,00,1,00,1,99999,9,00,1,00,1","0570,9","01,9",,"240,M,+0290,1","240,N,+0129,1","99999,9,10110,1","2,1,009,1,-003,1",,"05,1","SYN106AAXX  07061 76458 31958 00000 10196 20165 30110 40121 52009 70544 90540 333 10290 20129 30/// 55095 59003;","Q01  00002PRCP99"
"76458099999","2001-02-07T09:00:00","4","23.2","-106.4166666","4.0","COLONIA JUAN CARRASCO MAZATLAN SIN., MX","FM-12","99999","V020","140,1,N,0020,1","22000,1,9,N","008000,1,N,1","+0172,1","+0129,1","10112,1","99,0000,9,1",,,,,"03,1,+08700,9,01,9",,,"03,99,1,00,1,00,1,99999,9,00,1,02,1",,"01,9",,,,"99999,9,10101,1","4,1,000,1,+001,1",,,"SYN100AAXX  07091 76458 32958 31402 10172 20129 30101 40112 54009 83002 90855 333 30/// 56009 58001 83079;","Q01+000032SCOTLCQ02  00002PRCP99"
"76458099999","2001-02-07T12:00:00","4","23.2","-106.4166666","4.0","COLONIA JUAN CARRASCO MAZATLAN SIN., MX","FM-12","99999","V020","050,1,N,0020,1","22000,1,9,N","008000,1,N,1","+0166,1","+0155,1","10106,1","24,0000,9,1",,,,,"03,1,+02700,9,07,9",,,"03,99,1,03,1,00,1,99999,9,03,1,00,1",,"01,9","999,+0130,9","999,M,+0290,1","120,N,+0156,1","99999,9,10094,1","7,1,006,1,-003,1",,,"SYN118AAXX  07121 76458 32958 30502 10166 20155 30094 40106 57006 83030 91155 333 10290 20156 30013 56060 59003 70000 83359;",
"76458099999","2001-02-07T15:00:00","4","23.2","-106.4166666","4.0","COLONIA JUAN CARRASCO MAZATLAN SIN., MX","FM-12","99999","V020","999,9,C,0000,1","02400,1,9,N","015000,1,N,1","+0176,1","+0151,1","10132,1","99,0000,9,1",,,"4,1,03,1","4,1,03,1","05,1,+02400,9,07,9",,,"05,99,1,99,9,99,9,99999,9,03,1,00,1",,"01,9",,,,"99999,9,10120,1","2,1,025,1,+009,1",,"05,1","SYN106AAXX  07151 76458 31965 50000 10176 20151 30120 40132 52025 70544 80030 91450 333 30/// 56090 58009 85358;","Q01+000002SCOTLCQ02  00002PRCP99Q03    003SCOLCG"
"76458099999","2001-02-07T21:00:00","4","23.2","-106.4166666","4.0","COLONIA JUAN CARRASCO MAZATLAN SIN., MX","FM-12","99999","V020","260,1,N,0030,1","22000,1,9,N","012000,1,N,1","+0228,1","+0183,1","10104,1","99,0000,9,1",,,,,"01,1,+00570,9,06,9",,,"02,99,1,01,1,04,1,00450,1,00,1,06,1",,"01,9",,,,"99999,9,10093,1","7,1,027,1,-003,1",,,"SYN106AAXX  07211 76458 32462 22603 10228 20183 30093 40104 57027 81406 92050 333 30/// 56109 59003 81619 81070;","Q01  00002PRCP99"
"76458099999","2001-02-08T00:00:00","4","23.2","-106.4166666","4.0","COLONIA JUAN CARRASCO MAZATLAN SIN., MX","FM-12","99999","V020","280,1,N,0020,1","22000,1,9,N","018000,1,N,1","+0228,1","+0177,1","10092,1","24,0000,9,1",,,,,"01,1,+03600,9,03,9",,,"03,99,1,01,1,00,1,02250,1,03,1,06,1",,"01,9",,"120,M,+0277,1","180,N,+0147,1","99999,9,10080,1","7,1,013,1,-003,1",,,"SYN130AAXX  08001 76458 32868 32802 10228 20177 30080 40092 57013 81036 92350 333 10277 20147 30/// 50270 56099 59003 70000 81362 82070;","Q01  00002PRCP99Q02  00003PRCP99"
"76458099999","2001-02-08T03:00:00","4","23.2","-106.4166666","4.0","COLONIA JUAN CARRASCO MAZATLAN SIN., MX","FM-12","99999","V020","330,1,N,0020,1","99999,9,9,N","008000,1,N,1","+0212,1","+0163,1","10113,1","99,0000,9,1",,,,,"01,1,+01800,9,03,9",,,"06,99,1,01,1,03,1,99999,9,99,9,06,1",,"01,9",,,,"99999,9,10102,1","2,1,022,1,+001,1",,,"SYN106AAXX  08031 76458 32958 63302 10212 20163 30102 40113 52022 81306 90245 333 30/// 56099 58001 81356 85070;","Q01+000002SCOMCGQ02  00002PRCP99"
"76458099999","2001-02-08T06:00:00","4","23.2","-106.4166666","4.0","COLONIA JUAN CARRASCO MAZATLAN SIN., MX","FM-12","99999","V020","340,1,N,0020,1","01800,1,9,N","008000,1,N,1","+0198,1","+0167,1","10120,1","99,0000,9,1",,,,,"05,1,+01800,9,03,9",,,"06,99,1,05,1,00,1,02250,1,03,1,01,1","0552,9","01,9",,"240,M,+0277,1","240,N,+0147,1","99999,9,10109,1","2,1,007,1,-001,1",,,"SYN118AAXX  08061 76458 32858 63402 10198 20167 30109 40120 52007 85031 90535 333 10277 20147 30/// 55092 59001 85356 81070;","Q01  00002PRCP99"
"76458099999","2001-02-08T09:00:00","4","23.2","-106.4166666","4.0","COLONIA JUAN CARRASCO MAZATLAN SIN., MX","FM-12","99999","V020","310,1,N,0020,1","01800,1,9,N","008000,1,N,1","+0196,1","+0155,1","10108,1","99,0000,9,1",,,,,"07,1,+01800,9,05,9",,,"07,99,1,07,1,00,1,02250,1,05,1,00,1",,"01,9",,,,"99999,9,10097,1","6,1,012,1,-004,1",,,"SYN100AAXX  08091 76458 32858 73102 10196 20155 30097 40108 56012 87050 90850 333 30/// 56040 59004 87656;","Q01  00002PRCP99"
"76458099999","2001-02-08T12:00:00","4","23.2","-106.4166666","4.0","COLONIA JUAN CARRASCO MAZATLAN SIN., MX","FM-12","99999","V020","999,9,C,0000,1","99999,9,9,N","008000,1,N,1","+0180,1","+0134,1","10108,1","24,0000,9,1",,,,,"02,1,+01170,9,06,9",,,"05,99,1,02,1,04,1,99999,9,00,1,00,1",,"01,9","999,+0150,9","999,M,+0277,1","120,N,+0174,1","99999,9,10097,1","4,1,000,1,+002,1",,,"SYN124AAXX  08121 76458 32958 50000 10180 20134 30097 40108 54000 82400 91145 333 10277 20174 30015 56409 58002 70000 82639 83079;",
"76458099999","2001-02-08T15:00:00","4","23.2","-106.4166666","4.0","COLONIA JUAN CARRASCO MAZATLAN SIN., MX","FM-12","99999","V020","140,1,N,0020,1","03600,1,C,N","010000,1,N,1","+0193,1","+0125,1","10119,1","99,0000,9,1",,,,,"04,1,+00780,9,06,9",,,"06,99,1,04,1,04,1,00800,1,05,1,00,1",,"01,9",,,,"99999,9,10108,1","2,1,011,1,-012,1",,,"SYN106AAXX  08151 76458 32560 61402 10193 20125 30108 40119 52011 84450 91455 333 30/// 56/// 59012 84626 82358;","Q01  00002PRCP99"
"76458099999","2001-02-08T18:00:00","4","23.2","-106.4166666","4.0","COLONIA JUAN CARRASCO MAZATLAN SIN., MX","FM-12","99999","V020","270,1,N,0030,1","99999,9,9,N","012000,1,N,1","+0238,1","+0156,1","10135,1","99,0000,9,1",,,,,"03,1,+02400,9,03,9",,,"05,99,1,03,1,00,1,99999,9,03,1,05,1",,"01,9",,"120,M,+0252,1","240,N,+0170,1","99999,9,10124,1","1,1,016,1,-006,1",,,"SYN118AAXX  08181 76458 32962 52703 10238 20156 30124 40135 51016 83035 91750 333 10252 20170 30/// 56/// 59006 83358 82270;","Q01  00002PRCP99"
"76458099999","2001-02-08T21:00:00","4","23.2","-106.4166666","4.0","COLONIA JUAN CARRASCO MAZATLAN SIN., MX","FM-12","99999","V020","290,1,N,0040,1","04200,1,9,N","015000,1,N,1","+0223,1","+0158,1","10125,1","99,0000,9,1",,,,,"07,1,+04200,9,01,9",,,"07,99,1,07,1,00,1,02250,1,02,1,99,9",,"01,9",,,,"99999,9,10114,1","7,1,010,1,+011,1",,,"SYN100AAXX  08211 76458 32865 72904 10223 20158 30114 40125 57010 87020 92050 333 30/// 56090 58011 87464;","Q01+000002SCOHCGQ02  00002PRCP99"
"76458099999","2001-02-09T00:00:00","4","23.2","-106.4166666","4.0","COLONIA JUAN CARRASCO MAZATLAN SIN., MX","FM-12","99999","V020","300,1,N,0030,1","02100,1,9,N","015000,1,N,1","+0216,1","+0156,1","10120,1","24,0000,9,1",,,,,,,,"08,99,1,08,1,00,1,02250,1,02,1,99,9",,"01,9",,"120,M,+0260,1","180,N,+0170,1","99999,9,10109,1","5,1,005,1,+029,1",,,"SYN124AAXX  09001 76458 32865 83003 10216 20156 30109 40120 55005 8802/ 92345 333 10260 20170 30/// 50290 5609/ 58029 70000 88464;","Q01  00002PRCP99Q02  00003PRCP99"
"76458099999","2001-02-09T03:00:00","4","23.2","-106.4166666","4.0","COLONIA JUAN CARRASCO MAZATLAN SIN., MX","FM-12","99999","V020","330,1,N,0040,1","02400,1,9,N","008000,1,N,1","+0200,1","+0169,1","10149,1","99,0000,9,1",,,,,"08,1,+02400,9,01,9",,,"08,99,1,08,1,00,1,02250,1,02,1,00,1",,"01,9",,,,"99999,9,10138,1","2,1,029,1,+036,1",,,"SYN100AAXX  09031 76458 32858 83304 10200 20169 30138 40149 52029 88020 90245 333 30/// 56090 58036 88458;","Q01  00002PRCP99"
"76458099999","2001-02-09T06:00:00","4","23.2","-106.4166666","4.0","COLONIA JUAN CARRASCO MAZATLAN SIN., MX","FM-12","99999","V020","320,1,N,0050,1","02400,1,9,N","008000,1,N,1","+0198,1","+0170,1","10155,1","99,0000,9,1",,,,,"08,1,+02400,9,01,9",,,"08,99,1,08,1,00,1,02250,1,02,1,00,1",,"01,9",,"999,M,+0260,1","999,N,+0170,1","99999,9,10144,1","2,1,006,1,+035,1",,,"SYN111AAXX  09061 76458 32858 83205 10198 20170 30144 40155 52006 88020 90530333 10260 20170 30/// 55023 58035 88458;","Q01  00002PRCP99"
"76458099999","2001-02-09T09:00:00","4","23.2","-106.4166666","4.0","COLONIA JUAN CARRASCO MAZATLAN SIN., MX","FM-12","99999","V020","300,1,N,0030,1","03300,1,9,N","008000,1,N,1","+0190,1","+0156,1","10135,1","99,0000,9,1",,,,,"08,1,+03300,9,01,9",,,"08,99,1,08,1,00,1,99999,9,01,1,99,9",,"01,9",,,,"99999,9,10124,1","7,1,020,1,+027,1",,,"SYN100AAXX  09091 76458 32958 83003 10190 20156 30124 40135 57020 88010 90850 333 30/// 56040 58027 88461;","Q01+000002SCOHCGQ02  00002PRCP99"
"76458099999","2001-02-09T12:00:00","4","23.2","-106.4166666","4.0","COLONIA JUAN CARRASCO MAZATLAN SIN., MX","FM-12","99999","V020","330,1,N,0020,1","03300,1,9,N","008000,1,N,1","+0178,1","+0127,1","10128,1","24,9999,9,9",,,,,"08,1,+03300,9,01,9",,,"08,99,1,08,1,00,1,99999,9,01,1,99,9",,"01,9","999,+0170,9","999,M,+0260,1","120,N,+0172,1","99999,9,10117,1","6,1,007,1,+020,1",,,"SYN118AAXX  09121 76458 32958 83302 10178 20127 30117 40128 56007 88010 91150 333 10260 20172 30017 56090 58020 79999 88461;","Q01+000002SCOHCGQ02  99992PRCP24"
"76458099999","2001-02-09T21:00:00","4","23.2","-106.4166666","4.0","COLONIA JUAN CARRASCO MAZATLAN SIN., MX","FM-12","99999","V020","310,1,N,0050,1","22000,1,9,N","018000,1,N,1","+0217,1","+0115,1","10105,1","99,0000,9,1",,,,,"01,1,+00810,9,08,9",,,"04,99,1,01,1,01,1,00800,1,03,1,00,1",,"01,9",,,,"99999,9,10094,1","7,1,029,1,-020,1",,,"SYN106AAXX  09211 76458 32568 43105 10217 20115 30094 40105 57029 81130 92050 333 30/// 56190 59020 81827 83362;","Q01  00002PRCP99"
"76458099999","2001-02-10T00:00:00","4","23.2","-106.4166666","4.0","COLONIA JUAN CARRASCO MAZATLAN SIN., MX","FM-12","99999","V020","310,1,N,0040,1","22000,1,9,N","018000,1,N,1","+0206,1","+0142,1","10095,1","24,0000,9,1",,,,,"02,1,+03600,9,03,9",,,"03,99,1,02,1,00,1,02250,1,03,1,06,1",,"01,9",,"120,M,+0232,1","180,N,+0164,1","99999,9,10083,1","5,1,011,1,-026,1",,,"SYN130AAXX  10001 76458 32868 33104 10206 20142 30083 40095 55011 82036 92345 333 10232 20164 30/// 50300 56099 59026 79999 82362 81068;","Q01  00002PRCP24"
"76458099999","2001-02-10T03:00:00","4","23.2","-106.4166666","4.0","COLONIA JUAN CARRASCO MAZATLAN SIN., MX","FM-12","99999","V020","320,1,N,0030,1","03000,1,9,N","008000,1,N,1","+0194,1","+0146,1","10114,1","99,0000,9,1",,,,,"05,1,+03000,9,07,9",,,"05,99,1,99,9,00,1,99999,9,05,1,00,1",,"01,9",,,,"99999,9,10102,1","2,1,018,1,-036,1",,,"SYN100AAXX  10031 76458 32958 53203 10194 20146 30102 40114 52018 80050 90245 333 30/// 56090 59036 85360;","Q01+000002SCOTLCQ02  00002PRCP99"
"76458099999","2001-02-10T06:00:00","4","23.2","-106.4166666","4.0","COLONIA JUAN CARRASCO MAZATLAN SIN., MX","FM-12","99999","V020","300,1,N,0030,1","22000,1,9,N","008000,1,N,1","+0190,1","+0145,1","10120,1","99,0000,9,1",,,"4,1,06,1","4,1,06,1",,,,"03,99,1,00,1,00,1,99999,9,00,1,08,1","0360,9","01,9",,"240,M,+0232,1","240,N,+0164,1","99999,9,10109,1","0,1,007,1,-035,1",,"05,1","SYN124AAXX  10061 76458 31958 33003 10190 20145 30109 40120 50007 70544 80008 90540 333 10232 20164 30/// 55060 56009 59035 83075;","Q01  00002PRCP99"
"76458099999","2001-02-10T09:00:00","4","23.2","-106.4166666","4.0","COLONIA JUAN CARRASCO MAZATLAN SIN., MX","FM-12","99999","V020","320,1,N,0020,1","02400,1,9,N","008000,1,N,1","+0182,1","+0126,1","10113,1","99,0000,9,1",,,,,"07,1,+02400,9,01,9",,,"07,99,1,07,1,00,1,02250,1,02,1,00,1",,"01,9",,,,"99999,9,10101,1","8,1,008,1,-023,1",,,"SYN094AAXX  10091 76458 32858 73202 10182 20126 30101 40113 58008 87020 90845 333 30/// 59023 87458;","Q01  00002PRCP99"
"76458099999","2001-02-10T12:00:00","4","23.2","-106.4166666","4.0","COLONIA JUAN CARRASCO MAZATLAN SIN., MX","FM-12","99999","V020","999,9,C,0000,1","02400,1,9,N","008000,1,N,1","+0178,1","+0142,1","10114,1","06,0007,9,1","24,9999,2,9",,"0,1,06,1","0,1,06,1","08,1,+02400,9,01,9",,,"08,99,1,08,1,00,1,02250,1,02,1,00,1",,"01,9","999,+0160,9","999,M,+0232,1","120,N,+0170,1","99999,9,10103,1","3,1,002,1,-012,1",,"20,1","SYN124AAXX  10121 76458 21858 80000 10178 20142 30103 40114 53002 69901 72000 88020 91130 333 10232 20170 30016 59012 79999 88458;",
"76458099999","2001-02-10T18:00:00","4","23.2","-106.4166666","4.0","COLONIA JUAN CARRASCO MAZATLAN SIN., MX","FM-12","99999","V020","250,1,N,0020,1","03600,1,9,N","015000,1,N,1","+0193,1","+0149,1","10118,1","06,0007,9,1",,,,,"07,1,+03600,9,01,9",,,"07,99,1,07,1,00,1,02250,1,02,1,99,9",,"01,9",,"120,M,+0210,1","240,N,+0161,1","99999,9,10107,1","2,1,004,1,-016,1",,,"SYN118AAXX  10181 76458 12865 72502 10193 20149 30107 40118 52004 69901 87020 91750 333 10210 20161 30/// 56090 59016 87462;","Q01+000002SCOHCG"
"76458099999","2001-02-11T00:00:00","4","23.2","-106.4166666","4.0","COLONIA JUAN CARRASCO MAZATLAN SIN., MX","FM-12","99999","V020","310,1,N,0050,1","99999,9,9,N","018000,1,N,1","+0216,1","+0147,1","10110,1","24,0000,2,1",,,,,"01,1,+00870,9,08,9",,,"05,99,1,01,1,02,1,99999,9,03,1,00,1",,"01,9",,"120,M,+0235,1","180,N,+0161,1","99999,9,10098,1","5,1,009,1,+015,1",,,"SYN130AAXX  11001 76458 32968 53105 10216 20147 30098 40110 55009 81230 92340 333 10235 20161 30/// 50300 56190 58015 79999 81829 84356;",
"76458099999","2001-02-11T03:00:00","4","23.2","-106.4166666","4.0","COLONIA JUAN CARRASCO MAZATLAN SIN., MX","FM-12","99999","V020","320,1,N,0030,1","22000,1,9,N","008000,1,N,1","+0196,1","+0159,1","10111,1","99,0000,9,1",,,,,"04,1,+02400,9,07,9",,,"04,99,1,99,9,99,9,99999,9,05,1,00,1",,"01,9",,,,"99999,9,10100,1","1,1,002,1,-002,1",,,"SYN100AAXX  11031 76458 32958 43203 10196 20159 30100 40111 51002 80050 90250 333 30/// 56090 59002 84358;","Q01+000002SCOTLCQ02  00002PRCP99Q03    003SCOLCG"
"76458099999","2001-02-11T06:00:00","4","23.2","-106.4166666","4.0","COLONIA JUAN CARRASCO MAZATLAN SIN., MX","FM-12","99999","V020","300,1,N,0020,1","22000,1,9,N","008000,1,N,1","+0192,1","+0161,1","10121,1","99,0000,9,1",,,,,,,,"04,99,1,99,9,00,1,99999,9,05,1,00,1","0204,9","01,9",,"240,M,+0235,1","240,N,+0161,1","99999,9,10110,1","2,1,010,1,+001,1",,,"SYN118AAXX  11061 76458 32958 43002 10192 20161 30110 40121 52010 80050 90545 333 10235 20161 30/// 55034 56090 58001 84360;","Q01+000002SCOTLCQ02  00002PRCP99"
"76458099999","2001-02-11T09:00:00","4","23.2","-106.4166666","4.0","COLONIA JUAN CARRASCO MAZATLAN SIN., MX","FM-12","99999","V020","999,9,C,0000,1","22000,1,9,N","008000,1,N,1","+0177,1","+0153,1","10116,1","99,0000,9,1",,,,,"01,1,+02700,9,07,9",,,"01,99,1,01,1,00,1,99999,9,03,1,00,1",,"01,9",,,,"99999,9,10104,1","7,1,006,1,+003,1",,,"SYN100AAXX  11091 76458 32958 10000 10177 20153 30104 40116 57006 81030 90850 333 30/// 56500 58003 81359;","Q01  00002PRCP99"
"76458099999","2001-02-11T15:00:00","4","23.2","-106.4166666","4.0","COLONIA JUAN CARRASCO MAZATLAN SIN., MX","FM-12","99999","V020","999,9,C,0000,1","01800,1,9,N","018000,1,N,1","+0182,1","+0157,1","10133,1","99,0000,9,1",,,,,"07,1,+01800,9,07,9",,,"07,99,1,07,1,99,9,02250,1,03,1,00,1",,"01,9",,,,"99999,9,10122,1","2,1,021,1,+019,1",,,"SYN100AAXX  11151 76458 32868 70000 10182 20157 30122 40133 52021 87030 91445 333 30/// 56090 58019 87356;","Q01+000002SCOLCGQ02  00002PRCP99"
"76458099999","2001-02-11T21:00:00","4","23.2","-106.4166666","4.0","COLONIA JUAN CARRASCO MAZATLAN SIN., MX","FM-12","99999","V020","260,1,N,0050,1","22000,1,9,N","018000,1,N,1","+9999,9","+9999,9","10101,1","99,0000,9,1",,,,,"03,1,+03600,9,07,9",,,"03,99,1,03,1,00,1,02250,1,03,1,00,1",,"01,9",,,,"99999,9,10090,1","7,1,042,1,-013,1",,,"SYN094AAXX  11211 76458 32868 32605 20166 30090 40101 57042 83030 92050 333 30/// 56090 59013 83362;","Q01  00002PRCP99"
"76458099999","2001-02-12T00:00:00","4","23.2","-106.4166666","4.0","COLONIA JUAN CARRASCO MAZATLAN SIN., MX","FM-12","99999","V020","300,1,N,0040,1","22000,1,9,N","018000,1,N,1","+0233,1","+0132,1","10097,1","24,0000,9,1",,,,,"01,1,+03600,9,03,9",,,"02,99,1,01,1,00,1,02250,1,03,1,03,1",,"01,9",,"120,M,+0265,1","180,N,+0168,1","99999,9,10086,1","7,1,004,1,-012,1",,,"SYN130AAXX  12001 76458 32868 23004 10233 20132 30086 40097 57004 81033 92350 333 10265 20168 30/// 50300 56099 59012 70000 81362 81068;","Q01  00002PRCP99Q02  00003PRCP99"
"76458099999","2001-02-12T06:00:00","4","23.2","-106.4166666","4.0","COLONIA JUAN CARRASCO MAZATLAN SIN., MX","FM-12","99999","V020","300,1,N,0010,1","22000,1,9,N","008000,1,N,1","+0210,1","+0147,1","10112,1","99,0000,9,1",,,"4,1,06,1","4,1,06,1","00,1,+99999,9,99,9",,,"00,99,1,00,1,00,1,99999,9,00,1,00,1","0264,9","01,9",,"240,M,+0265,1","240,N,+0168,1","99999,9,10100,1","4,1,000,1,-010,1",,"05,1","SYN106AAXX  12061 76458 31958 03001 10210 20147 30100 40112 54008 70544 90540 333 10265 20168 30/// 55044 59010;","Q01  00002PRCP99"
"76458099999","2001-02-12T09:00:00","4","23.2","-106.4166666","4.0","COLONIA JUAN CARRASCO MAZATLAN SIN., MX","FM-12","99999","V020","999,9,C,0000,1","22000,1,9,N","008000,1,N,1","+0183,1","+0133,1","10100,1","99,0000,9,1",,,,,"00,1,+99999,9,99,9",,,"00,99,1,00,1,00,1,99999,9,00,1,00,1",,"01,9",,,,"99999,9,10089,1","6,1,012,1,-015,1",,,"SYN082AAXX  12091 76458 32958 00000 10183 20133 30089 40100 56012 90850 333 30/// 59015;","Q01  00002PRCP99"
"76458099999","2001-02-12T15:00:00","4","23.2","-106.4166666","4.0","COLONIA JUAN CARRASCO MAZATLAN SIN., MX","FM-12","99999","V020","999,9,C,0000,1","03000,1,9,N","012000,1,N,1","+0206,1","+0170,1","10130,1","99,0000,9,1",,,"4,1,03,1","4,1,03,1","05,1,+03000,9,07,9",,,"05,99,1,99,9,00,1,99999,9,03,1,00,1",,"01,9",,,,"99999,9,10113,1","2,1,020,1,-009,1",,"05,1","SYN106AAXX  12151 76458 31962 50000 10206 20170 30113 40130 52020 70544 80030 91450 333 30/// 56090 59009 85360;","Q01+000002SCOTLCQ02  00002PRCP99"
"76458099999","2001-02-12T18:00:00","4","23.2","-106.4166666","4.0","COLONIA JUAN CARRASCO MAZATLAN SIN., MX","FM-12","99999","V020","180,1,N,0020,1","22000,1,9,N","010000,1,N,1","+0248,1","+0177,1","10134,1","99,0000,9,1",,,"4,1,06,1","4,1,06,1","02,1,+02400,9,03,9",,,"03,99,1,99,9,00,1,99999,9,06,1,01,1",,"01,9",,"120,M,+0257,1","240,N,+0156,1","99999,9,10122,1","2,1,009,1,-010,1",,"05,1","SYN124AAXX  12181 76458 31960 31802 10248 20177 30122 40134 52009 70544 80061 91740 333 10257 20156 30/// 56099 59010 82358 81075;","Q01+000002SCOTLCQ02  00002PRCP99"
"76458099999","2001-02-12T21:00:00","4","23.2","-106.4166666","4.0","COLONIA JUAN CARRASCO MAZATLAN SIN., MX","FM-12","99999","V020","260,1,N,0030,1","22000,1,9,N","018000,1,N,1","+0256,1","+0169,1","10113,1","99,0000,9,1",,,,,"03,1,+06600,9,01,9",,,"03,99,1,00,1,00,1,99999,9,00,1,06,1",,"01,9",,,,"99999,9,10102,1","7,1,020,1,+012,1",,,"SYN100AAXX  12211 76458 32968 32603 10256 20169 30102 40113 57020 80006 92048 333 30/// 56009 58012 83072;","Q01  00002PRCP99"
"76458099999","2001-02-13T00:00:00","4","23.2","-106.4166666","4.0","COLONIA JUAN CARRASCO MAZATLAN SIN., MX","FM-12","99999","V020","270,1,N,0030,1","22000,1,9,N","008000,1,N,1","+0220,1","+0162,1","10101,1","99,0000,9,1",,,,,"04,1,+06600,9,01,9",,,"04,99,1,00,1,00,1,99999,9,00,1,06,1",,"01,9",,"120,M,+9999,9","180,N,+9999,9","99999,9,10092,1","7,1,011,1,+006,1",,,"SYN112AAXX  13001 76458 32958 42703 10220 20162 30092 40101 57011 80006 92358 333 10156 20281 30/// 56009 58006 84072;","Q01  00002PRCP99Q02 +01563ATMM  Q03 +02813ATMM  "
"76458099999","2001-02-13T03:00:00","4","23.2","-106.4166666","4.0","COLONIA JUAN CARRASCO MAZATLAN SIN., MX","FM-12","99999","V020","360,1,N,0020,1","22000,1,9,N","008000,1,N,1","+0210,1","+0144,1","10114,1","99,0000,9,1",,,,,"04,1,+06000,9,01,9",,,"04,99,1,00,1,00,1,99999,9,00,1,06,1",,"01,9",,,,"99999,9,10103,1","2,1,012,1,+004,1",,,"SYN094AAXX  13031 76458 32958 43602 10210 20144 30103 40114 52012 80006 90245 333 30/// 58004 84070;","Q01  00002PRCP99"
"76458099999","2001-02-13T09:00:00","4","23.2","-106.4166666","4.0","COLONIA JUAN CARRASCO MAZATLAN SIN., MX","FM-12","99999","V020","999,9,C,0000,1","22000,1,9,N","008000,1,N,1","+0188,1","+0148,1","10112,1","99,0000,9,1",,,,,"03,1,+02700,9,07,9",,,"03,99,1,03,1,00,1,99999,9,03,1,00,1",,"01,9",,,,"99999,9,10101,1","7,1,006,1,+012,1",,,"SYN100AAXX  13091 76458 32958 30000 10188 20148 30101 40112 57006 83030 90845 333 30/// 56050 58012 83359;","Q01  00002PRCP99"
"76458099999","2001-02-13T12:00:00","4","23.2","-106.4166666","4.0","COLONIA JUAN CARRASCO MAZATLAN SIN., MX","FM-12","99999","V020","999,9,C,0000,1","22000,1,9,N","008000,1,N,1","+0176,1","+0151,1","10112,1","24,0000,9,1",,,,,"00,1,+99999,9,99,9",,,"00,99,1,00,1,00,1,99999,9,00,1,00,1",,"01,9","999,+0140,9","999,M,+0281,1","120,N,+0168,1","99999,9,10101,1","4,1,000,1,+008,1",,,"SYN100AAXX  13121 76458 32958 00000 10176 20151 30101 40112 54000 91145 333 10281 20168 30014 58008 70000;","Q01  00002PRCP24"
"76458099999","2001-02-13T15:00:00","4","23.2","-106.4166666","4.0","COLONIA JUAN CARRASCO MAZATLAN SIN., MX","FM-12","99999","V020","999,9,C,0000,1","22000,1,9,N","012000,1,N,1","+0194,1","+0150,1","10130,1","99,0000,9,1",,,,,"02,1,+06000,9,01,9",,,"02,99,1,00,1,00,1,99999,9,00,1,06,1",,"01,9",,,,"99999,9,10118,1","2,1,017,1,+005,1",,,"SYN100AAXX  13151 76458 32962 20000 10194 20150 30118 40130 52017 80006 91450 333 30/// 56009 58005 82070;","Q01  00002PRCP99"
"76458099999","2001-02-13T18:00:00","4","23.2","-106.4166666","4.0","COLONIA JUAN CARRASCO MAZATLAN SIN., MX","FM-12","99999","V020","180,1,N,0030,1","22000,1,9,N","015000,1,N,1","+0265,1","+0167,1","10144,1","99,0000,9,1",,,,,"01,1,+06000,9,01,9",,,"01,99,1,00,1,00,1,99999,9,00,1,06,1",,"01,9",,"120,M,+0281,1","240,N,+0170,1","99999,9,10132,1","2,1,015,1,+011,1",,,"SYN112AAXX  13181 76458 32965 11803 10265 20167 30132 40144 52015 80006 91750 333 10281 20170 30/// 56009 58011 81070;","Q01  00002PRCP99"
"76458099999","2001-02-13T21:00:00","4","23.2","-106.4166666","4.0","COLONIA JUAN CARRASCO MAZATLAN SIN., MX","FM-12","99999","V020","240,1,N,0030,1","22000,1,9,N","020000,1,N,1","+0252,1","+0188,1","10126,1","99,0000,9,1",,,,,,,,"02,99,1,00,1,00,1,99999,9,00,1,06,1",,"01,9",,,,"99999,9,10115,1","7,1,017,1,+014,1",,,"SYN094AAXX  13211 76458 32970 22403 10252 20188 30115 40126 57017 80006 92058 333 30/// 56009 58014;","Q01  00002PRCP99"
"76458099999","2001-02-14T00:00:00","4","23.2","-106.4166666","4.0","COLONIA JUAN CARRASCO MAZATLAN SIN., MX","FM-12","99999","V020","290,1,N,0030,1","22000,1,9,N","020000,1,N,1","+0254,1","+0137,1","10123,1","99,0000,9,1",,,,,"04,1,+06600,9,01,9",,,"04,99,1,00,1,00,1,99999,9,00,1,06,1",,"01,9",,"120,M,+0282,1","180,N,+0170,1","99999,9,10112,1","7,1,003,1,+021,1",,,"SYN112AAXX  14001 76458 32970 42903 10254 20137 30112 40123 57003 80006 92358 333 10282 20170 30/// 56009 58021 84072;","Q01  00002PRCP99"
"76458099999","2001-02-14T03:00:00","4","23.2","-106.4166666","4.0","COLONIA JUAN CARRASCO MAZATLAN SIN., MX","FM-12","99999","V020","340,1,N,0020,1","22000,1,9,N","008000,1,N,1","+0216,1","+0154,1","10128,1","99,0000,9,1",,,,,"02,1,+08400,9,01,9",,,"02,99,1,00,1,00,1,99999,9,00,1,01,1",,"01,9",,,,"99999,9,10117,1","2,1,004,1,+014,1",,,"SYN100AAXX  14031 76458 32958 23402 10216 20154 30117 40128 52004 80001 90240 333 30/// 56009 58014 82078;","Q01  00002PRCP99"
"76458099999","2001-02-14T06:00:00","4","23.2","-106.4166666","4.0","COLONIA JUAN CARRASCO MAZATLAN SIN., MX","FM-12","99999","V020","340,1,N,0020,1","22000,1,9,N","008000,1,N,1","+0208,1","+0165,1","10131,1","99,0000,9,1",,,,,"00,1,+99999,9,99,9",,,"00,99,1,00,1,00,1,99999,9,00,1,00,1","0498,9","01,9",,"240,M,+0282,1","240,N,+0170,1","99999,9,10119,1","2,1,002,1,+012,1",,,"SYN100AAXX  14061 76458 32958 03402 10208 20165 30119 40131 52002 90540 333 10282 20170 30/// 55083 58012;","Q01  00002PRCP99"
"76458099999","2001-02-14T09:00:00","4","23.2","-106.4166666","4.0","COLONIA JUAN CARRASCO MAZATLAN SIN., MX","FM-12","99999","V020","999,9,C,0000,1","22000,1,9,N","008000,1,N,1","+0196,1","+0152,1","10129,1","99,0000,9,1",,,,,"00,1,+99999,9,99,9",,,"00,99,1,00,1,00,1,99999,9,00,1,00,1",,"01,9",,,,"99999,9,10108,1","7,1,011,1,+007,1",,,"SYN082AAXX  14091 76458 32958 00000 10196 20152 30108 40129 57011 90855 333 30/// 58007;","Q01  00002PRCP99"
"76458099999","2001-02-14T12:00:00","4","23.2","-106.4166666","4.0","COLONIA JUAN CARRASCO MAZATLAN SIN., MX","FM-12","99999","V020","999,9,C,0000,1","07800,1,9,N","008000,1,N,1","+0177,1","+0146,1","10113,1","24,0000,9,1",,,,,"06,1,+07800,9,08,9",,,"06,99,1,99,9,00,1,99999,9,00,1,07,1",,"01,9","999,+0140,9","999,M,+0282,1","120,N,+0172,1","99999,9,10102,1","7,1,006,1,+001,1",,,"SYN118AAXX  14121 76458 32958 60000 10177 20146 30102 40113 57006 80007 91155 333 10282 20172 30014 56009 58001 70000 86276;","Q01+000002SCOTLC"
"76458099999","2001-02-14T15:00:00","4","23.2","-106.4166666","4.0","COLONIA JUAN CARRASCO MAZATLAN SIN., MX","FM-12","99999","V020","999,9,C,0000,1","22000,1,9,N","012000,1,N,1","+0190,1","+0160,1","10122,1","99,0000,9,1",,,,,"03,1,+06000,9,01,9",,,"03,99,1,00,1,00,1,99999,9,00,1,04,1",,"01,9",,,,"99999,9,10110,1","2,1,008,1,+008,1",,,"SYN100AAXX  14151 76458 32962 30000 10190 20160 30110 40122 52008 80004 91450 333 30/// 56009 58008 83070;","Q01  00002PRCP99"
"76458099999","2001-02-14T18:00:00","4","23.2","-106.4166666","4.0","COLONIA JUAN CARRASCO MAZATLAN SIN., MX","FM-12","99999","V020","250,1,N,0030,1","22000,1,9,N","015000,1,N,1","+0243,1","+0162,1","10130,1","99,0000,9,1",,,,,"04,1,+06000,9,01,9",,,"04,99,1,00,1,00,1,99999,9,00,1,04,1",,"01,9",,"120,M,+0265,1","240,N,+0164,1","99999,9,10119,1","0,1,009,1,-014,1",,,"SYN112AAXX  14181 76458 32965 42503 10243 20162 30119 40130 50009 80004 91750 333 10265 20164 30/// 56009 59014 84070;","Q01  00002PRCP99"
"76458099999","2001-02-14T21:00:00","4","23.2","-106.4166666","4.0","COLONIA JUAN CARRASCO MAZATLAN SIN., MX","FM-12","99999","V020","280,1,N,0020,1","22000,1,9,N","008000,1,N,1","+0242,1","+0149,1","10111,1","99,0000,9,1",,,,,"04,1,+06600,9,01,9",,,"04,99,1,00,1,00,1,99999,9,00,1,06,1",,"01,9",,,,"99999,9,10100,1","7,1,019,1,-015,1",,,"SYN100AAXX  14211 76458 32958 42802 10242 20149 30100 40111 57019 80006 92058 333 30/// 56009 59015 84072;","Q01  00002PRCP99"
"76458099999","2001-02-15T03:00:00","4","23.2","-106.4166666","4.0","COLONIA JUAN CARRASCO MAZATLAN SIN., MX","FM-12","99999","V020","340,1,N,0020,1","22000,1,9,N","008000,1,N,1","+0204,1","+0144,1","10109,1","99,0000,9,1",,,,,"01,1,+07500,9,01,9",,,"01,99,1,00,1,00,1,99999,9,00,1,01,1",,"01,9",,,,"99999,9,10098,1","2,1,010,1,+019,1",,,"SYN100AAXX  15031 76458 32958 13402 10204 20144 30098 40109 52010 80001 90245 333 30/// 56009 58019 81075;","Q01  00002PRCP99"
"76458099999","2001-02-15T06:00:00","4","23.2","-106.4166666","4.0","COLONIA JUAN CARRASCO MAZATLAN SIN., MX","FM-12","99999","V020","300,1,N,0020,1","22000,1,9,N","008000,1,N,1","+0192,1","+0159,1","10117,1","99,0000,9,1",,,"4,1,06,1","4,1,06,1","00,1,+99999,9,99,9",,,"00,99,1,00,1,00,1,99999,9,00,1,00,1","0558,9","01,9",,"240,M,+0268,1","240,N,+0164,1","99999,9,10106,1","2,1,008,1,-013,1",,"05,1","SYN106AAXX  15061 76458 31958 03002 10192 20159 30106 40117 52008 70544 90540 333 10268 20164 30/// 55093 59013;","Q01  00002PRCP99"
"76458099999","2001-02-15T09:00:00","4","23.2","-106.4166666","4.0","COLONIA JUAN CARRASCO MAZATLAN SIN., MX","FM-12","99999","V020","320,1,N,0060,1","22000,1,9,N","008000,1,N,1","+0186,1","+0153,1","10110,1","99,0000,9,1",,,,,"00,1,+99999,9,99,9",,,"00,99,1,00,1,00,1,99999,9,00,1,00,1",,"01,9",,,,"99999,9,10098,1","6,1,007,1,-009,1",,,"SYN082AAXX  15091 76458 32958 03206 10186 20153 30098 40110 56007 90845 333 30/// 59009;","Q01  00002PRCP99"
"76458099999","2001-02-15T12:00:00","4","23.2","-106.4166666","4.0","COLONIA JUAN CARRASCO MAZATLAN SIN., MX","FM-12","99999","V020","350,1,N,0020,1","22000,1,9,N","008000,1,N,1","+0172,1","+0140,1","10111,1","24,0000,9,1",,,,,"00,1,+99999,9,99,9",,,"00,99,1,00,1,00,1,99999,9,00,1,00,1",,"01,9","999,+0150,9","120,N,+0165,1",,"99999,9,10100,1","4,1,000,1,-002,1",,,"SYN100AAXX  15121 76458 32958 03502 10172 20140 30100 40111 54001 91145 333 19267 20165 30015 59002 70000;","Q01  00002PRCP24"
"76458099999","2001-02-15T15:00:00","4","23.2","-106.4166666","4.0","COLONIA JUAN CARRASCO MAZATLAN SIN., MX","FM-12","99999","V020","320,1,N,0030,1","22000,1,9,N","012000,1,N,1","+0176,1","+0121,1","10129,1","99,0000,9,1",,,,,"01,1,+02400,9,07,9",,,"01,99,1,01,1,99,9,99999,9,03,1,00,1",,"01,9",,,,"99999,9,10118,1","2,1,018,1,+008,1",,,"SYN100AAXX  15151 76458 32962 13203 10176 20121 30118 40129 52018 81030 91455 333 30/// 56/// 58008 81358;","Q01  00002PRCP99Q02    003SCOLCG"
"76458099999","2001-02-15T18:00:00","4","23.2","-106.4166666","4.0","COLONIA JUAN CARRASCO MAZATLAN SIN., MX","FM-12","99999","V020","280,1,N,0050,1","22000,1,9,N","015000,1,N,1","+0206,1","+0133,1","10138,1","99,0000,9,1",,,,,"01,1,+02400,9,03,9",,,"02,99,1,01,1,00,1,99999,9,05,1,09,1",,"01,9",,"120,M,+0221,1","240,N,+0150,1","99999,9,10127,1","1,1,007,1,+008,1",,,"SYN118AAXX  15181 76458 32965 22805 10206 20133 30127 40138 51007 81059 91755 333 10221 20150 30/// 56/// 58008 81358 81170;","Q01  00002PRCP99"
"76458099999","2001-02-15T21:00:00","4","23.2","-106.4166666","4.0","COLONIA JUAN CARRASCO MAZATLAN SIN., MX","FM-12","99999","V020","290,1,N,0060,1","22000,1,9,N","018000,1,N,1","+0210,1","+0136,1","10124,1","99,0000,9,1",,,,,"02,1,+06000,9,00,9",,,"03,99,1,00,1,00,1,99999,9,00,1,02,1",,"01,9",,,,"99999,9,10112,1","7,1,015,1,+012,1",,,"SYN099AAXX  15211 76458 32968 32906 10210 20136 30112 40124 57015 80002 2045 333 30/// 58012 82070 81170;","Q01  00002PRCP99"
"76458099999","2001-02-16T00:00:00","4","23.2","-106.4166666","4.0","COLONIA JUAN CARRASCO MAZATLAN SIN., MX","FM-12","99999","V020","310,1,N,0080,1","22000,1,9,N","018000,1,N,1","+0202,1","+0142,1","10119,1","24,0000,9,1",,,,,"01,1,+00750,9,08,9",,,"03,99,1,01,1,08,1,00800,1,00,1,01,1",,"01,9",,"120,M,+0228,1","180,N,+0150,1","99999,9,10107,1","7,1,004,1,+019,1",,,"SYN130AAXX  16001 76458 32568 33108 10202 20142 30107 40119 57004 81801 92340 333 10228 20150 30/// 50380 56109 58019 70000 81825 82070;","Q01  00002PRCP99Q02  00003PRCP99"
"76458099999","2001-02-16T03:00:00","4","23.2","-106.4166666","4.0","COLONIA JUAN CARRASCO MAZATLAN SIN., MX","FM-12","99999","V020","310,1,N,0050,1","22000,1,9,N","010000,1,N,1","+0185,1","+0128,1","10124,1","99,0000,9,1",,,,,"00,1,+99999,9,99,9",,,"00,99,1,00,1,00,1,99999,9,00,1,00,1",,"01,9",,,,"99999,9,10112,1","3,1,005,1,+014,1",,,"SYN082AAXX  16031 76458 32960 03105 10185 20128 30112 40124 53005 90250 333 30/// 58014;","Q01  00002PRCP99"
"76458099999","2001-02-16T06:00:00","4","23.2","-106.4166666","4.0","COLONIA JUAN CARRASCO MAZATLAN SIN., MX","FM-12","99999","V020","310,1,N,0050,1","22000,1,9,N","010000,1,N,1","+0176,1","+0128,1","10126,1","99,0000,9,1",,,,,"00,1,+99999,9,99,9",,,"00,99,1,00,1,00,1,99999,9,00,1,00,1","0594,9","01,9",,"240,M,+0228,1","240,N,+0150,1","99999,9,10115,1","0,1,003,1,+009,1",,,"SYN100AAXX  16061 76458 32960 03105 10176 20128 30115 40126 50003 90545 333 10228 20150 30/// 55099 58009;","Q01  00002PRCP99"
"76458099999","2001-02-16T15:00:00","4","23.2","-106.4166666","4.0","COLONIA JUAN CARRASCO MAZATLAN SIN., MX","FM-12","99999","V020","320,1,N,0020,1","22000,1,9,N","012000,1,N,1","+0152,1","+0089,1","10142,1","99,0000,9,1",,,,,"02,1,+06000,9,01,9",,,"02,99,1,00,1,00,1,99999,9,00,1,02,1",,"01,9",,,,"99999,9,10131,1","2,1,017,1,+011,1",,,"SYN100AAXX  16151 76458 32962 23202 10152 20089 30131 40142 52017 80002 91455 333 30/// 56/// 58011 82070;","Q01  00002PRCP99"
"76458099999","2001-02-16T18:00:00","4","23.2","-106.4166666","4.0","COLONIA JUAN CARRASCO MAZATLAN SIN., MX","FM-12","99999","V020","290,1,N,0030,1","22000,1,9,N","015000,1,N,1","+0196,1","+0123,1","10148,1","99,0000,9,1",,,,,"01,1,+06000,9,01,9",,,"01,99,1,00,1,00,1,99999,9,00,1,02,1",,"01,9",,"120,M,+0215,1","240,N,+0120,1","99999,9,10137,1","0,1,006,1,+010,1",,,"SYN112AAXX  16181 76458 32965 12903 10196 20123 30137 40148 50006 80002 91755 333 10215 20120 30/// 56/// 58010 81070;","Q01  00002PRCP99"
"76458099999","2001-02-16T21:00:00","4","23.2","-106.4166666","4.0","COLONIA JUAN CARRASCO MAZATLAN SIN., MX","FM-12","99999","V020","280,1,N,0040,1","22000,1,9,N","020000,1,N,1","+0210,1","+0123,1","10133,1","99,0000,9,1",,,,,"00,1,+99999,9,99,9",,,"00,99,1,00,1,00,1,99999,9,00,1,00,1",,"01,9",,,,"99999,9,10121,1","7,1,016,1,+009,1",,,"SYN082AAXX  16211 76458 32970 02804 10210 20123 30121 40133 57016 92050 333 30/// 58009;","Q01  00002PRCP99"
"76458099999","2001-02-17T00:00:00","4","23.2","-106.4166666","4.0","COLONIA JUAN CARRASCO MAZATLAN SIN., MX","FM-12","99999","V020","300,1,N,0050,1","22000,1,9,N","020000,1,N,1","+0212,1","+0118,1","10132,1","24,0000,9,1",,,,,"00,1,+99999,9,99,9",,,"00,99,1,00,1,00,1,99999,9,00,1,00,1",,"01,9",,"120,M,+0226,1","180,N,+0120,1","99999,9,10121,1","5,1,000,1,+014,1",,,"SYN106AAXX  17001 76458 32970 03005 10212 20118 30121 40132 55000 92345 333 10226 20120 30/// 50251 58014 70000;","Q01  00002PRCP24"
"76458099999","2001-02-17T03:00:00","4","23.2","-106.4166666","4.0","COLONIA JUAN CARRASCO MAZATLAN SIN., MX","FM-12","99999","V020","300,1,N,0020,1","22000,1,9,N","008000,1,N,1","+0178,1","+0129,1","10152,1","99,0000,9,1",,,,,"00,1,+99999,9,99,9",,,"00,99,1,00,1,00,1,99999,9,00,1,00,1",,"01,9",,,,"99999,9,10141,1","2,1,021,1,+029,1",,,"SYN082AAXX  17031 76458 32958 03002 10178 20129 30141 40152 52021 90245 333 30/// 58029;","Q01  00002PRCP99"
"76458099999","2001-02-17T06:00:00","4","23.2","-106.4166666","4.0","COLONIA JUAN CARRASCO MAZATLAN SIN., MX","FM-12","99999","V020","310,1,N,0020,1","22000,1,9,N","008000,1,N,1","+0170,1","+0131,1","10153,1","99,0000,9,1",,,,,"00,1,+99999,9,99,9",,,"00,99,1,00,1,00,1,99999,9,00,1,00,1","0060,9","01,9",,"240,M,+0226,1","240,N,+0120,1","99999,9,10141,1","0,1,000,1,+026,1",,,"SYN100AAXX  17061 76458 32958 03102 10170 20131 30141 40153 50000 90540 333 10226 20120 30/// 55010 58026;","Q01  00002PRCP99"
"76458099999","2001-02-17T15:00:00","4","23.2","-106.4166666","4.0","COLONIA JUAN CARRASCO MAZATLAN SIN., MX","FM-12","99999","V020","999,9,C,0000,1","22000,1,9,N","012000,1,N,1","+0156,1","+0111,1","10159,1","99,0000,9,1",,,,,"01,1,+02400,9,03,9",,,"02,99,1,01,1,00,1,99999,9,03,1,02,1",,"01,9",,,,"99999,9,10148,1","2,1,018,1,+017,1",,,"SYN106AAXX  17151 76458 32962 20000 10156 20111 30148 40159 52018 81032 91455 333 30/// 56/// 58017 81358 81070;","Q01  00002PRCP99"
"76458099999","2001-02-17T18:00:00","4","23.2","-106.4166666","4.0","COLONIA JUAN CARRASCO MAZATLAN SIN., MX","FM-12","99999","V020","280,1,N,0020,1","22000,1,9,N","015000,1,N,1","+0196,1","+0134,1","10162,1","99,0000,9,1",,,,,"01,1,+06000,9,01,9",,,"01,99,1,00,1,00,1,99999,9,00,1,02,1",,"01,9",,"120,M,+0215,1","240,N,+0115,1","99999,9,10151,1","0,1,003,1,+014,1",,,"SYN112AAXX  17181 76458 32965 12802 10196 20134 30151 40162 50003 80002 91755 333 10215 20115 30/// 56/// 58014 81070;","Q01  00002PRCP99"
"76458099999","2001-02-17T21:00:00","4","23.2","-106.4166666","4.0","COLONIA JUAN CARRASCO MAZATLAN SIN., MX","FM-12","99999","V020","280,1,N,0050,1","22000,1,9,N","018000,1,N,1","+0207,1","+0140,1","10139,1","99,0000,9,1",,,,,"02,1,+03600,9,03,9",,,"04,99,1,02,1,00,1,02250,1,03,1,03,1",,"01,9",,,,"99999,9,10129,1","7,1,022,1,+008,1",,,"SYN106AAXX  17211 76458 32868 42805 10207 20140 30129 40139 57022 82033 92050 333 30/// 56099 58008 82362 82068;","Q01  00002PRCP99"
"76458099999","2001-02-18T00:00:00","4","23.2","-106.4166666","4.0","COLONIA JUAN CARRASCO MAZATLAN SIN., MX","FM-12","99999","V020","300,1,N,0050,1","22000,1,9,N","018000,1,N,1","+0200,1","+0141,1","10137,1","24,0000,9,1",,,,,"02,1,+03600,9,03,9",,,"03,99,1,02,1,00,1,02250,1,03,1,03,1",,"01,9",,"120,M,+0232,1","180,N,+0115,1","99999,9,10126,1","5,1,003,1,+005,1",,,"SYN130AAXX  18001 76458 32868 33005 10200 20141 30126 40137 55003 82033 92345 333 10232 20115 30/// 50321 56099 58005 70000 82362 81070;","Q01  00002PRCP99Q02  00003PRCP99"
"76458099999","2001-02-18T03:00:00","4","23.2","-106.4166666","4.0","COLONIA JUAN CARRASCO MAZATLAN SIN., MX","FM-12","99999","V020","310,1,N,0040,1","22000,1,9,N","008000,1,N,1","+0184,1","+0146,1","10154,1","99,0000,9,1",,,,,"00,1,+99999,9,99,9",,,"00,99,1,00,1,00,1,99999,9,00,1,00,1",,"01,9",,,,"99999,9,10143,1","2,1,017,1,+002,1",,,"SYN082AAXX  18031 76458 32958 03104 10184 20146 30143 40154 52017 90245 333 30/// 58002;","Q01  00002PRCP99"
"76458099999","2001-02-18T09:00:00","4","23.2","-106.4166666","4.0","COLONIA JUAN CARRASCO MAZATLAN SIN., MX","FM-12","99999","V020","330,1,N,0020,1","22000,1,9,N","008000,1,N,1","+0155,1","+0140,1","10161,1","99,0000,9,1",,,,,"00,1,+99999,9,99,9",,,"00,99,1,00,1,00,1,99999,9,00,1,00,1",,"01,9",,,,"99999,9,10149,1","6,1,006,1,+011,1",,,"SYN082AAXX  18091 76458 32958 03302 10155 20140 30149 40161 56006 90850 333 30/// 58011;","Q01  00002PRCP99"
"76458099999","2001-02-18T12:00:00","4","23.2","-106.4166666","4.0","COLONIA JUAN CARRASCO MAZATLAN SIN., MX","FM-12","99999","V020","999,9,C,0000,1","22000,1,9,N","008000,1,N,1","+0146,1","+0133,1","10157,1","24,0000,9,1",,,,,"00,1,+99999,9,99,9",,,"00,99,1,00,1,00,1,99999,9,00,1,00,1",,"01,9","999,+0120,9","999,M,+0232,1","120,N,+0135,1","99999,9,10139,1","7,1,010,1,+009,1",,,"SYN100AAXX  18121 76458 32958 00000 10146 20133 30139 40157 57010 91145 333 10232 20135 30012 58009 70000;","Q01  00002PRCP24"
"76458099999","2001-02-18T15:00:00","4","23.2","-106.4166666","4.0","COLONIA JUAN CARRASCO MAZATLAN SIN., MX","FM-12","99999","V020","999,9,C,0000,1","22000,1,9,N","008000,1,N,1","+0150,1","+0144,1","10164,1","99,0000,9,1",,,"4,1,03,1","4,1,03,1","00,1,+99999,9,99,9",,,"00,99,1,00,1,00,1,99999,9,00,1,00,1",,"01,9",,,,"99999,9,10152,1","2,1,013,1,+004,1",,"10,1","SYN088AAXX  18151 76458 31958 00000 10150 20144 30152 40164 52013 71044 91445 333 30/// 58004;","Q01  00002PRCP99"
"76458099999","2001-02-18T21:00:00","4","23.2","-106.4166666","4.0","COLONIA JUAN CARRASCO MAZATLAN SIN., MX","FM-12","99999","V020","290,1,N,0060,1","22000,1,9,N","018000,1,N,1","+0211,1","+0152,1","10144,1","99,0000,9,1",,,,,"03,1,+04200,9,07,9",,,"03,99,1,03,1,00,1,02250,1,03,1,00,1",,"01,9",,,,"99999,9,10133,1","7,1,024,1,+005,1",,,"SYN100AAXX  18211 76458 32868 32906 10211 20152 30133 40144 57024 83030 92050 333 30/// 56090 58005 83364;","Q01  00002PRCP99"
"76458099999","2001-02-19T00:00:00","4","23.2","-106.4166666","4.0","COLONIA JUAN CARRASCO MAZATLAN SIN., MX","FM-12","99999","V020","310,1,N,0050,1","22000,1,9,N","018000,1,N,1","+0207,1","+0131,1","10132,1","24,0000,9,1",,,,,,,,"03,99,1,03,1,00,1,02250,1,03,1,00,1",,"01,9",,"120,M,+0235,1","180,N,+0130,1","99999,9,10121,1","5,1,012,1,-005,1",,,"SYN124AAXX  19001 76458 32868 33105 10207 20131 30121 40132 55012 83030 92345 333 10235 20130 30/// 50251 56090 59005 70000 83362;","Q01  00002PRCP99Q02  00003PRCP99"
"76458099999","2001-02-19T03:00:00","4","23.2","-106.4166666","4.0","COLONIA JUAN CARRASCO MAZATLAN SIN., MX","FM-12","99999","V020","340,1,N,0020,1","22000,1,9,N","008000,1,N,1","+0168,1","+0144,1","10136,1","99,0000,9,1",,,,,"02,1,+02700,9,07,9",,,"02,99,1,99,9,00,1,99999,9,03,1,00,1",,"01,9",,,,"99999,9,10125,1","2,1,004,1,-018,1",,,"SYN100AAXX  19031 76458 32958 23402 10168 20144 30125 40136 52004 80030 90245 333 30/// 56090 59018 82359;","Q01+000002SCOTLCQ02  00002PRCP99"
"76458099999","2001-02-19T06:00:00","4","23.2","-106.4166666","4.0","COLONIA JUAN CARRASCO MAZATLAN SIN., MX","FM-12","99999","V020","340,1,N,0020,1","22000,1,9,N","008000,1,N,1","+0180,1","+0152,1","10146,1","99,0000,9,1",,,,,"00,1,+99999,9,99,9",,,"00,99,1,00,1,00,1,99999,9,00,1,00,1","0540,9","01,9",,"240,M,+0235,1","240,N,+0130,1","99999,9,10135,1","2,1,010,1,-021,1",,,"SYN100AAXX  19061 76458 32958 03402 10180 20152 30135 40146 52010 90540 333 10235 20130 30/// 55090 59021;","Q01  00002PRCP99"
"76458099999","2001-02-19T09:00:00","4","23.2","-106.4166666","4.0","COLONIA JUAN CARRASCO MAZATLAN SIN., MX","FM-12","99999","V020","999,9,C,0000,1","22000,1,9,N","008000,1,N,1","+0164,1","+0148,1","10136,1","99,0000,9,1",,,,,"00,1,+99999,9,99,9",,,"00,99,1,00,1,00,1,99999,9,00,1,00,1",,"01,9",,,,"99999,9,10124,1","7,1,010,1,-025,1",,,"SYN082AAXX  19091 76458 32958 00000 10164 20148 30124 40136 57010 90850 333 30/// 59025;","Q01  00002PRCP99"
"76458099999","2001-02-19T12:00:00","4","23.2","-106.4166666","4.0","COLONIA JUAN CARRASCO MAZATLAN SIN., MX","FM-12","99999","V020","130,1,N,0020,1","22000,1,9,N","008000,1,N,1","+0152,1","+0136,1","10141,1","24,0000,9,1",,,,,"00,1,+99999,9,99,9",,,"00,99,1,00,1,00,1,99999,9,00,1,00,1",,"01,9","999,+0120,9","999,M,+0235,1","120,N,+0142,1","99999,9,10129,1","2,1,005,1,-010,1",,,"SYN100AAXX  19121 76458 32958 01302 10152 20136 30129 40141 52005 91150 333 10235 20142 30012 59010 70000;","Q01  00002PRCP24"
"76458099999","2001-02-19T15:00:00","4","23.2","-106.4166666","4.0","COLONIA JUAN CARRASCO MAZATLAN SIN., MX","FM-12","99999","V020","150,1,N,0030,1","06000,1,9,N","002000,1,N,1","+0166,1","+0153,1","10158,1","99,0000,9,1",,,"4,1,03,1","0,1,03,1","06,1,+06000,9,08,9",,,"06,99,1,99,9,00,1,99999,9,00,1,06,1",,"01,9",,,,"99999,9,10147,1","1,1,018,1,-005,1",,"10,1","SYN106AAXX  19151 76458 31920 61503 10166 20153 30147 40158 51018 71040 80006 91459 333 30/// 56/// 59005 86270;","Q01+000002SCOTLCQ02  00002PRCP99"
"76458099999","2001-02-19T18:00:00","4","23.2","-106.4166666","4.0","COLONIA JUAN CARRASCO MAZATLAN SIN., MX","FM-12","99999","V020","130,1,N,0030,1","06000,1,9,N","010000,1,N,1","+0210,1","+0167,1","10168,1","99,0000,9,1",,,,,"05,1,+06000,9,08,9",,,"05,99,1,99,9,00,1,99999,9,00,1,06,1",,"01,9",,"120,M,+0226,1","240,N,+0140,1","99999,9,10156,1","0,1,009,1,-001,1",,,"SYN112AAXX  19181 76458 32960 51303 10210 20167 30156 40168 50009 80006 91755 333 10226 20140 30/// 56/// 59001 85270;","Q01+000002SCOTLCQ02  00002PRCP99"
"76458099999","2001-02-20T00:00:00","4","23.2","-106.4166666","4.0","COLONIA JUAN CARRASCO MAZATLAN SIN., MX","FM-12","99999","V020","300,1,N,0050,1","99999,9,9,N","015000,1,N,1","+0206,1","+0166,1","10143,1","24,0000,9,1",,,,,,,,"06,99,1,00,1,00,1,99999,9,00,1,08,1",,"01,9",,"120,M,+0258,1","180,N,+0140,1","99999,9,10132,1","7,1,010,1,+011,1",,,"SYN124AAXX  20001 76458 32965 63005 10206 20166 30132 40143 57010 80008 92350 333 10258 20140 30/// 50221 56009 58011 70000 86278;","Q01  00002PRCP99Q02  00003PRCP99"
"76458099999","2001-02-20T03:00:00","4","23.2","-106.4166666","4.0","COLONIA JUAN CARRASCO MAZATLAN SIN., MX","FM-12","99999","V020","320,1,N,0040,1","22000,1,9,N","008000,1,N,1","+0190,1","+0145,1","10137,1","99,0000,9,1",,,,,"02,1,+06600,9,01,9",,,"02,99,1,00,1,00,1,99999,9,00,1,01,1",,"01,9",,,,"99999,9,10126,1","0,1,006,1,+001,1",,,"SYN100AAXX  20031 76458 32958 23204 10190 20145 30126 40137 50006 80001 90245 333 30/// 56009 58001 82072;","Q01  00002PRCP99"
"76458099999","2001-02-20T06:00:00","4","23.2","-106.4166666","4.0","COLONIA JUAN CARRASCO MAZATLAN SIN., MX","FM-12","99999","V020","999,9,C,0000,1","22000,1,9,N","008000,1,N,1","+0182,1","+0150,1","10148,1","99,0000,9,1",,,"4,1,06,1","4,1,06,1","00,1,+99999,9,99,9",,,"00,99,1,00,1,00,1,99999,9,00,1,00,1","0492,9","01,9",,"240,M,+0258,1","240,N,+0140,1","99999,9,10136,1","2,1,010,1,+001,1",,"05,1","SYN106AAXX  20061 76458 31958 00000 10182 20150 30136 40148 52010 70544 90540 333 10258 20140 30/// 55082 58001;","Q01  00002PRCP99"
"76458099999","2001-02-20T12:00:00","4","23.2","-106.4166666","4.0","COLONIA JUAN CARRASCO MAZATLAN SIN., MX","FM-12","99999","V020","140,1,N,0030,1","22000,1,9,N","008000,1,N,1","+0172,1","+0156,1","10140,1","24,0000,9,1",,,,,"00,1,+99999,9,99,9",,,"00,99,1,00,1,00,1,99999,9,00,1,00,1",,"01,9","999,+0140,9","999,M,+0258,1","120,N,+0155,1","99999,9,10128,1","4,1,000,1,-001,1",,,"SYN100AAXX  20121 76458 32958 01403 10172 20156 30128 40140 54001 91140 333 10258 20155 30014 59001 70000;","Q01  00002PRCP24"
"76458099999","2001-02-20T15:00:00","4","23.2","-106.4166666","4.0","COLONIA JUAN CARRASCO MAZATLAN SIN., MX","FM-12","99999","V020","999,9,C,0000,1","22000,1,9,N","004000,1,N,1","+0187,1","+9999,9","10161,1","99,0000,9,1",,,,,"02,1,+02400,9,03,9",,,"03,99,1,02,1,00,1,99999,9,03,1,01,1",,"01,9",,,,"99999,9,10149,1","2,1,021,1,+002,1",,,"SYN100AAXX  20151 76458 32940 30000 10187 30149 40161 52021 82031 91455 333 30/// 56/// 58002 82358 81070;","Q01  00002PRCP99"
"76458099999","2001-02-20T21:00:00","4","23.2","-106.4166666","4.0","COLONIA JUAN CARRASCO MAZATLAN SIN., MX","FM-12","99999","V020","260,1,N,0040,1","03600,1,9,N","018000,1,N,1","+0225,1","+0183,1","10155,1","99,0000,9,1",,,,,"05,1,+03600,9,07,9",,,"05,99,1,05,1,00,1,02250,1,03,1,00,1",,"01,9",,,,"99999,9,10144,1","7,1,018,1,+002,1",,,"SYN100AAXX  20211 76458 32868 52604 10225 20183 30144 40155 57018 85030 92045 333 30/// 56090 58002 85362;","Q01  00002PRCP99"
"76458099999","2001-02-21T00:00:00","4","23.2","-106.4166666","4.0","COLONIA JUAN CARRASCO MAZATLAN SIN., MX","FM-12","99999","V020","280,1,N,0030,1","99999,9,9,N","018000,1,N,1","+9999,9","+9999,9","99999,9","24,0000,9,1",,,,,,,,"06,99,1,99,9,99,9,02250,1,99,9,99,9",,"01,9",,"120,M,+0248,1","180,N,+0151,1",,"9,9,999,9,+004,1",,,"SYN123AAXX  21001 76458 32868 62803 0220 20186 30136 40148 57008 86030 92345 333 10248 20151 30/// 50241 56090 58004 70000 86362;","Q01  00002PRCP99Q02  00003PRCP99"
"76458099999","2001-02-21T03:00:00","4","23.2","-106.4166666","4.0","COLONIA JUAN CARRASCO MAZATLAN SIN., MX","FM-12","99999","V020","340,1,N,0020,1","22000,1,9,N","008000,1,N,1","+0204,1","+0177,1","10157,1","99,0000,9,1",,,,,"03,1,+02400,9,07,9",,,"03,99,1,99,9,99,9,99999,9,03,1,00,1",,"01,9",,,,"99999,9,10146,1","2,1,010,1,+020,1",,,"SYN100AAXX  21031 76458 32958 33402 10204 20177 30146 40157 52010 80030 90245 333 30/// 56090 58020 83358;","Q01+000002SCOTLCQ02  00002PRCP99Q03    003SCOLCG"
"76458099999","2001-02-21T06:00:00","4","23.2","-106.4166666","4.0","COLONIA JUAN CARRASCO MAZATLAN SIN., MX","FM-12","99999","V020","340,1,N,0020,1","22000,1,9,N","008000,1,N,1","+0196,1","+0145,1","10163,1","99,0000,9,1",,,"4,1,06,1","4,1,06,1",,,,"04,99,1,00,1,00,1,99999,9,00,1,01,1","0324,9","01,9",,"240,M,+0248,1","240,N,+0151,1","99999,9,10151,1","2,1,004,1,+015,1",,"05,1","SYN124AAXX  21061 76458 31958 43402 10196 20145 30151 40163 52004 70544 80001 90540 333 10248 20151 30/// 55054 56009 58015 84074;","Q01  00002PRCP99"
"76458099999","2001-02-21T09:00:00","4","23.2","-106.4166666","4.0","COLONIA JUAN CARRASCO MAZATLAN SIN., MX","FM-12","99999","V020","010,1,N,0020,1","08700,1,9,N","008000,1,N,1","+0190,1","+0165,1","10155,1","99,0000,9,1",,,,,"06,1,+08700,9,01,9",,,"06,99,1,00,1,00,1,99999,9,00,1,04,1",,"01,9",,,,"99999,9,10144,1","7,1,007,1,+015,1",,,"SYN100AAXX  21091 76458 32958 60102 10190 20165 30144 40155 57007 80004 90850 333 30/// 56009 58015 86079;","Q01  00002PRCP99"
"76458099999","2001-02-21T12:00:00","4","23.2","-106.4166666","4.0","COLONIA JUAN CARRASCO MAZATLAN SIN., MX","FM-12","99999","V020","999,9,C,0000,1","08700,1,9,N","008000,1,N,1","+0184,1","+0162,1","10138,1","24,0000,9,1",,,,,"07,1,+08700,9,01,9",,,"07,99,1,00,1,00,1,99999,9,00,1,04,1",,"01,9","999,+0170,9","999,M,+0248,1","120,N,+0178,1","99999,9,10127,1","7,1,017,1,-002,1",,,"SYN118AAXX  21121 76458 32958 70000 10184 20162 30127 40138 57017 80004 91145 333 10248 20178 30017 56009 59002 70000 87079;",
"76458099999","2001-02-21T15:00:00","4","23.2","-106.4166666","4.0","COLONIA JUAN CARRASCO MAZATLAN SIN., MX","FM-12","99999","V020","999,9,C,0000,1","22000,1,9,N","010000,1,N,1","+0194,1","+0163,1","10144,1","99,0000,9,1",,,"4,1,03,1","4,1,03,1","04,1,+07200,9,01,9",,,"04,99,1,00,1,00,1,99999,9,00,1,07,1",,"01,9",,,,"99999,9,10133,1","2,1,006,1,-016,1",,"05,1","SYN106AAXX  21151 76458 31960 40000 10194 20163 30133 40144 52006 70544 80007 91450 333 30/// 56009 59016 84074;","Q01  00002PRCP99"
"76458099999","2001-02-21T18:00:00","4","23.2","-106.4166666","4.0","COLONIA JUAN CARRASCO MAZATLAN SIN., MX","FM-12","99999","V020","340,1,N,0020,1","07800,1,9,N","008000,1,N,1","+0246,1","+0181,1","10150,1","99,0000,9,1",,,"4,1,06,1","4,1,06,1","06,1,+07800,9,08,9",,,"06,99,1,99,9,00,1,99999,9,00,1,02,1",,"01,9",,"120,M,+0257,1","240,N,+0180,1","99999,9,10138,1","0,1,005,1,-028,1",,"05,1","SYN118AAXX  21181 76458 31958 63402 10246 20181 30138 40150 50005 70544 80002 91750 333 10257 20180 30/// 56009 59028 86276;","Q01+000002SCOTLCQ02  00002PRCP99"
"76458099999","2001-02-21T21:00:00","4","23.2","-106.4166666","4.0","COLONIA JUAN CARRASCO MAZATLAN SIN., MX","FM-12","99999","V020","300,1,N,0030,1","09000,1,C,N","018000,1,N,1","+0227,1","+0161,1","10116,1","99,0000,9,1",,,,,"03,1,+03600,9,03,9",,,"06,99,1,03,1,00,1,02250,1,03,1,08,1",,"01,9",,,,"99999,9,10105,1","7,1,033,1,-039,1",,,"SYN106AAXX  21211 76458 32868 63003 10227 20161 30105 40116 57033 83038 92045 333 30/// 56099 59039 83362 83268;","Q01  00002PRCP99"
"76458099999","2001-02-22T00:00:00","4","23.2","-106.4166666","4.0","COLONIA JUAN CARRASCO MAZATLAN SIN., MX","FM-12","99999","V020","290,1,N,0040,1","03600,1,C,N","018000,1,N,1","+0214,1","+0150,1","10112,1","24,0000,9,1",,,,,"05,1,+03600,9,03,9",,,"07,99,1,05,1,00,1,02250,1,03,1,08,1",,"01,9",,"120,M,+0265,1","180,N,+0180,1","99999,9,10101,1","7,1,004,1,-036,1",,,"SYN130AAXX  22001 76458 32868 72904 10214 20150 30101 40112 57004 85038 92345 333 10265 20180 30/// 50271 56099 59036 70000 85362 82268;","Q01  00002PRCP99Q02  00003PRCP99"
"76458099999","2001-02-22T03:00:00","4","23.2","-106.4166666","4.0","COLONIA JUAN CARRASCO MAZATLAN SIN., MX","FM-12","99999","V020","290,1,N,0020,1","06000,1,9,N","008000,1,N,1","+0210,1","+0167,1","10116,1","99,0000,9,1",,,,,"06,1,+06000,9,01,9",,,"06,99,1,00,1,00,1,99999,9,00,1,06,1",,"01,9",,,,"99999,9,10105,1","3,1,004,1,-041,1",,,"SYN094AAXX  22031 76458 32958 62902 10210 20167 30105 40116 53004 80006 90250 333 30/// 59041 86070;","Q01  00002PRCP99"
"76458099999","2001-02-22T18:00:00","4","23.2","-106.4166666","4.0","COLONIA JUAN CARRASCO MAZATLAN SIN., MX","FM-12","99999","V020","170,1,N,0040,1","22000,1,9,N","012000,1,N,1","+0236,1","+0171,1","10125,1","99,0000,9,1",,,,,"00,1,+99999,9,99,9",,,"00,99,1,00,1,00,1,99999,9,00,1,00,1",,"01,9",,"120,M,+0251,1","240,N,+0165,1","99999,9,10113,1","0,1,010,1,-025,1",,,"SYN094AAXX  22181 76458 32962 01704 10236 20171 30113 40125 50010 91755 333 10251 20165 30/// 59025;","Q01  00002PRCP99"
"76458099999","2001-02-22T21:00:00","4","23.2","-106.4166666","4.0","COLONIA JUAN CARRASCO MAZATLAN SIN., MX","FM-12","99999","V020","270,1,N,0040,1","22000,1,9,N","015000,1,N,1","+0219,1","+0177,1","10106,1","99,0000,9,1",,,,,"00,1,+99999,9,99,9",,,"00,99,1,00,1,00,1,99999,9,00,1,00,1",,"01,9",,,,"99999,9,10095,1","7,1,018,1,-010,1",,,"SYN082AAXX  22211 76458 32965 02704 10219 20177 30095 40106 57018 92045 333 30/// 59010;","Q01  00002PRCP99"
"76458099999","2001-02-23T03:00:00","4","23.2","-106.4166666","4.0","COLONIA JUAN CARRASCO MAZATLAN SIN., MX","FM-12","99999","V020","280,1,N,0020,1","22000,1,9,N","008000,1,N,1","+0200,1","+0169,1","10109,1","99,0000,9,1",,,,,"00,1,+99999,9,99,9",,,"00,99,1,00,1,00,1,99999,9,00,1,00,1",,"01,9",,,,"99999,9,10099,1","2,1,012,1,-007,1",,,"SYN082AAXX  23031 76458 32958 02802 10200 20169 30099 40109 52012 90245 333 30/// 59007;","Q01  00002PRCP99"
"76458099999","2001-02-23T15:00:00","4","23.2","-106.4166666","4.0","COLONIA JUAN CARRASCO MAZATLAN SIN., MX","FM-12","99999","V020","120,1,N,0030,1","03600,1,C,N","003000,1,N,1","+0204,1","+0185,1","10134,1","99,0000,9,1",,,"4,1,03,1","1,1,03,1","03,1,+00240,9,07,9",,,"06,99,1,03,1,06,1,00250,1,06,1,00,1",,"01,9",,,,"99999,9,10123,1","9,9,999,9,+020,1",,"10,1","SYN112AAXX  23151 76458 31330 61203 10204 20185 30123 40134 5//// 71041 83660 91458 333 30/// 56/// 58020 83708 83358;","Q01  00002PRCP99"
"76458099999","2001-02-23T18:00:00","4","23.2","-106.4166666","4.0","COLONIA JUAN CARRASCO MAZATLAN SIN., MX","FM-12","99999","V020","160,1,N,0050,1","99999,9,9,N","006000,1,N,1","+0226,1","+0190,1","10143,1","99,0000,9,1",,,,,"03,1,+02400,9,03,9",,,"08,99,1,03,1,00,1,99999,9,06,1,07,1",,"01,9",,"120,M,+0241,1","240,N,+0172,1","99999,9,10132,1","0,1,009,1,+019,1",,,"SYN118AAXX  23181 76458 32956 81605 10226 20190 30132 40143 50009 83067 91755 333 10241 20172 30/// 56/// 58019 83358 85270;","Q01  00002PRCP99"
"76458099999","2001-02-23T21:00:00","4","23.2","-106.4166666","4.0","COLONIA JUAN CARRASCO MAZATLAN SIN., MX","FM-12","99999","V020","180,1,N,0050,1","03600,1,9,N","012000,1,N,1","+0228,1","+0177,1","10128,1","99,0000,9,1",,,,,"07,1,+03600,9,04,9",,,"08,99,1,07,1,00,1,99999,9,02,1,08,1",,"01,9",,,,"99999,9,10117,1","7,1,015,1,+022,1",,,"SYN106AAXX  23211 76458 32962 81805 10228 20177 30117 40128 57015 87028 92045 333 30/// 56099 58022 87462 81268;","Q01  00002PRCP99"
"76458099999","2001-02-24T00:00:00","4","23.2","-106.4166666","4.0","COLONIA JUAN CARRASCO MAZATLAN SIN., MX","FM-12","99999","V020","180,1,N,0030,1","04200,1,C,N","012000,1,N,1","+0230,1","+0187,1","10112,1","24,0000,9,1",,,,,"06,1,+04200,9,03,9",,,"07,99,1,06,1,00,1,02250,1,06,1,08,1",,"01,9",,"120,M,+0242,1","180,N,+0172,1","99999,9,10101,1","7,1,016,1,+016,1",,,"SYN130AAXX  24001 76458 32862 71803 10230 20187 30101 40112 57016 86068 92345 333 10242 20172 30/// 50181 56099 58016 70000 86364 81268;","Q01  00002PRCP99Q02  00003PRCP99"
"76458099999","2001-02-24T03:00:00","4","23.2","-106.4166666","4.0","COLONIA JUAN CARRASCO MAZATLAN SIN., MX","FM-12","99999","V020","999,9,C,0000,1","22000,1,9,N","008000,1,N,1","+0204,1","+0189,1","10122,1","99,0000,9,1",,,"4,1,03,1","4,1,03,1","02,1,+00210,9,05,9",,,"02,99,1,02,1,05,1,00150,1,00,1,00,1",,"01,9",,,,"99999,9,10110,1","2,1,009,1,+012,1",,"05,1","SYN106AAXX  24031 76458 31258 20000 10204 20189 30110 40122 52009 70544 82500 90250 333 30/// 56400 58012 82607;","Q01  00002PRCP99"
"76458099999","2001-02-24T06:00:00","4","23.2","-106.4166666","4.0","COLONIA JUAN CARRASCO MAZATLAN SIN., MX","FM-12","99999","V020","350,1,N,0010,1","22000,1,9,N","008000,1,N,1","+0194,1","+0176,1","10128,1","99,0000,9,1",,,"4,1,06,1","4,1,06,1","00,1,+99999,9,99,9",,,"00,99,1,00,1,00,1,99999,9,00,1,00,1","0060,9","01,9",,"240,M,+0242,1","240,N,+0172,1","99999,9,10117,1","2,1,007,1,+006,1",,"05,1","SYN106AAXX  24061 76458 31958 03501 10194 20176 30117 40128 52007 70544 90540 333 10242 20172 30/// 55010 58006;","Q01  00002PRCP99"
"76458099999","2001-02-24T15:00:00","4","23.2","-106.4166666","4.0","COLONIA JUAN CARRASCO MAZATLAN SIN., MX","FM-12","99999","V020","999,9,C,0000,1","22000,1,9,N","000100,1,N,1","+0173,1","+0168,1","10152,1","99,0000,9,1",,,"4,1,03,1","4,1,03,1","00,1,+99999,9,99,9",,,"00,99,1,00,1,00,1,99999,9,00,1,00,1",,"01,9",,,,"99999,9,10141,1","2,1,014,1,+018,1",,"44,1","SYN082AAXX  24151 76458 31901 00000 10173 20168 30141 40152 52014 74544 333 30/// 58018;","Q01+000452PRSWM1Q02  00002PRCP99"
"76458099999","2001-02-24T18:00:00","4","23.2","-106.4166666","4.0","COLONIA JUAN CARRASCO MAZATLAN SIN., MX","FM-12","99999","V020","260,1,N,0030,1","22000,1,9,N","999999,9,N,1","+0214,1","+0176,1","10156,1","99,0000,9,1",,,"4,1,06,1","4,1,06,1","00,1,+99999,9,99,9",,,"00,99,1,00,1,00,1,99999,9,00,1,00,1",,"01,9",,"120,M,+0232,1","240,N,+0150,1","99999,9,10145,1","0,1,004,1,+013,1",,"10,1","SYN100AAXX  24181 76458 31954 02603 10214 20176 30145 40156 50004 71044 91745 333 10232 20150 30/// 58013;","Q01  00002PRCP99"
"76458099999","2001-02-24T21:00:00","4","23.2","-106.4166666","4.0","COLONIA JUAN CARRASCO MAZATLAN SIN., MX","FM-12","99999","V020","280,1,N,0040,1","22000,1,9,N","016000,1,N,1","+0124,1","+9999,9","10136,1","99,0000,9,1",,,,,"01,1,+00630,9,02,9",,,"01,99,1,01,1,01,1,00800,1,00,1,00,1",,"01,9",,,,"99999,9,10125,1","7,1,020,1,+008,1",,,"SYN100AAXX  24211 76458 32566 12804 10124 20173 30125 40136 57020 81100 92045 333 30/// 56100 58008 81821;","Q01  00002PRCP99"
"76458099999","2001-02-25T00:00:00","4","23.2","-106.4166666","4.0","COLONIA JUAN CARRASCO MAZATLAN SIN., MX","FM-12","99999","V020","310,1,N,0040,1","22000,1,9,N","016000,1,N,1","+0224,1","+0176,1","10133,1","24,0000,9,1",,,,,,,,"01,99,1,01,1,02,1,00800,1,00,1,00,1",,"01,9",,"120,M,+0245,1","180,N,+0150,1","99999,9,10121,1","5,1,004,1,+020,1",,,"SYN124AAXX  25001 76458 32566 13104 10224 20176 30121 40133 55004 81200 92345 333 10245 20150 30/// 50181 56100 58020 70000 81820;","Q01  00002PRCP99Q02  00003PRCP99"
"76458099999","2001-02-25T03:00:00","4","23.2","-106.4166666","4.0","COLONIA JUAN CARRASCO MAZATLAN SIN., MX","FM-12","99999","V020","350,1,N,0050,1","22000,1,9,N","008000,1,N,1","+0198,1","+0174,1","10132,1","99,0000,9,1",,,,,"00,1,+99999,9,99,9",,,"00,99,1,00,1,00,1,99999,9,00,1,00,1",,"01,9",,,,"99999,9,10121,1","4,1,000,1,-011,1",,,"SYN082AAXX  25031 76458 32958 03505 10198 20174 30121 40132 54001 90245 333 30/// 59011;","Q01  00002PRCP99"
"76458099999","2001-02-25T09:00:00","4","23.2","-106.4166666","4.0","COLONIA JUAN CARRASCO MAZATLAN SIN., MX","FM-12","99999","V020","330,1,N,0030,1","22000,1,9,N","008000,1,N,1","+0166,1","+0142,1","10139,1","99,0000,9,1",,,,,"00,1,+99999,9,99,9",,,"00,99,1,00,1,00,1,99999,9,00,1,00,1",,"01,9",,,,"99999,9,10128,1","7,1,007,1,+004,1",,,"SYN082AAXX  25091 76458 32958 03303 10166 20142 30128 40139 57007 90850 333 30/// 58004;","Q01  00002PRCP99"
"76458099999","2001-02-25T12:00:00","4","23.2","-106.4166666","4.0","COLONIA JUAN CARRASCO MAZATLAN SIN., MX","FM-12","99999","V020","999,9,C,0000,1","22000,1,9,N","008000,1,N,1","+0158,1","+0138,1","10136,1","24,0000,9,1",,,,,"00,1,+99999,9,99,9",,,"00,99,1,00,1,00,1,99999,9,00,1,00,1",,"01,9","999,+0130,9","999,M,+0245,1","120,N,+0150,1","99999,9,10125,1","5,1,003,1,-002,1",,,"SYN100AAXX  25121 76458 32958 00000 10158 20138 30125 40136 55003 91135 333 10245 20150 30013 59002 70000;","Q01  00002PRCP24"
"76458099999","2001-02-25T15:00:00","4","23.2","-106.4166666","4.0","COLONIA JUAN CARRASCO MAZATLAN SIN., MX","FM-12","99999","V020","110,1,N,0030,1","22000,1,9,N","020000,1,N,1","+0170,1","+0151,1","10151,1","99,0000,9,1",,,,,"03,1,+06000,9,01,9",,,"03,99,1,00,1,00,1,99999,9,00,1,01,1",,"01,9",,,,"99999,9,10140,1","2,1,015,1,+001,1",,,"SYN094AAXX  25151 76458 32970 31103 10170 20151 30140 40151 52015 80001 91440 333 30/// 58001 83070;","Q01  00002PRCP99"
"76458099999","2001-02-25T18:00:00","4","23.2","-106.4166666","4.0","COLONIA JUAN CARRASCO MAZATLAN SIN., MX","FM-12","99999","V020","180,1,N,0030,1","22000,1,9,N","008000,1,N,1","+0237,1","+0155,1","10158,1","99,0000,9,1",,,"4,1,06,1","4,1,06,1","03,1,+06000,9,01,9",,,"03,99,1,00,1,00,1,99999,9,00,1,07,1",,"01,9",,"120,M,+0242,1","240,N,+0140,1","99999,9,10146,1","1,1,006,1,+001,1",,"05,1","SYN112AAXX  25181 76458 31958 31803 10237 20155 30146 40158 51006 70544 80007 91740 333 10242 20140 30/// 58001 83070;","Q01  00002PRCP99"
"76458099999","2001-02-25T21:00:00","4","23.2","-106.4166666","4.0","COLONIA JUAN CARRASCO MAZATLAN SIN., MX","FM-12","99999","V020","250,1,N,0050,1","22000,1,9,N","018000,1,N,1","+0231,1","+0172,1","10134,1","99,0000,9,1",,,,,"01,1,+06000,9,01,9",,,"01,99,1,00,1,00,1,99999,9,00,1,03,1",,"01,9",,,,"99999,9,10122,1","7,1,024,1,-003,1",,,"SYN100AAXX  25211 76458 32968 12505 10231 20172 30122 40134 57024 80003 92050 333 30/// 56009 59003 81070;","Q01  00002PRCP99"
"76458099999","2001-02-26T00:00:00","4","23.2","-106.4166666","4.0","COLONIA JUAN CARRASCO MAZATLAN SIN., MX","FM-12","99999","V020","300,1,N,0050,1","22000,1,9,N","018000,1,N,1","+0238,1","+0158,1","10125,1","24,0000,9,1",,,,,"00,1,+99999,9,99,9",,,"00,99,1,00,1,00,1,99999,9,00,1,00,1",,"01,9",,"120,M,+0269,1","180,N,+0140,1","99999,9,10114,1","5,1,008,1,-007,1",,,"SYN106AAXX  26001 76458 32968 03005 10238 20158 30114 40125 55008 92345 333 10269 20140 30/// 50351 59007 70000;","Q01  00002PRCP24"
"76458099999","2001-02-26T03:00:00","4","23.2","-106.4166666","4.0","COLONIA JUAN CARRASCO MAZATLAN SIN., MX","FM-12","99999","V020","320,1,N,0030,1","22000,1,9,N","008000,1,N,1","+0204,1","+0125,1","10137,1","99,0000,9,1",,,,,"00,1,+99999,9,99,9",,,"00,99,1,00,1,00,1,99999,9,00,1,00,1",,"01,9",,,,"99999,9,10121,1","2,1,011,1,+000,1",,,"SYN082AAXX  26031 76458 32958 03203 10204 20125 30121 40137 52011 90252 333 30/// 58000;","Q01  00002PRCP99"
"76458099999","2001-02-26T06:00:00","4","23.2","-106.4166666","4.0","COLONIA JUAN CARRASCO MAZATLAN SIN., MX","FM-12","99999","V020","340,1,N,0020,1","22000,1,9,N","008000,1,N,1","+0192,1","+0104,1","10141,1","99,0000,9,1",,,"4,1,06,1","4,1,06,1","00,1,+99999,9,99,9",,,"00,99,1,00,1,00,1,99999,9,00,1,00,1","0600,9","01,9",,"240,M,+0269,1","240,N,+0140,1","99999,9,10130,1","2,1,009,1,-005,1",,"05,1","SYN106AAXX  26061 76458 31958 03402 10192 20104 30130 40141 52009 70544 90550 333 10269 20140 30/// 55100 59005;","Q01  00002PRCP99"
"76458099999","2001-02-26T09:00:00","4","23.2","-106.4166666","4.0","COLONIA JUAN CARRASCO MAZATLAN SIN., MX","FM-12","99999","V020","100,1,N,0020,1","22000,1,9,N","008000,1,N,1","+0164,1","+0106,1","10130,1","99,0000,9,1",,,,,"00,1,+99999,9,99,9",,,"00,99,1,00,1,00,1,99999,9,00,1,00,1",,"01,9",,,,"99999,9,10119,1","7,1,022,1,-009,1",,,"SYN082AAXX  26091 76458 32958 01002 10164 20106 30119 40130 57022 90845 333 30/// 59009;","Q01  00002PRCP99"
"76458099999","2001-02-26T12:00:00","4","23.2","-106.4166666","4.0","COLONIA JUAN CARRASCO MAZATLAN SIN., MX","FM-12","99999","V020","999,9,C,0000,1","22000,1,9,N","008000,1,N,1","+0154,1","+0109,1","10124,1","24,0000,9,1",,,,,"00,1,+99999,9,99,9",,,"00,99,1,00,1,00,1,99999,9,00,1,00,1",,"01,9","999,+0110,9","999,M,+0269,1","120,N,+0145,1","99999,9,10112,1","7,1,007,1,-013,1",,,"SYN100AAXX  26121 76458 32958 00000 10154 20109 30112 40124 57007 91145 333 10269 20145 30011 59013 70000;","Q01  00002PRCP24"
"76458099999","2001-02-26T15:00:00","4","23.2","-106.4166666","4.0","COLONIA JUAN CARRASCO MAZATLAN SIN., MX","FM-12","99999","V020","080,1,N,0030,1","22000,1,9,N","003000,1,N,1","+0190,1","+0148,1","10142,1","99,0000,9,1",,,"4,1,03,1","0,1,03,1","01,1,+00510,9,06,9",,,"02,99,1,01,1,06,1,00450,1,00,1,01,1",,"01,9",,,,"99999,9,10130,1","1,1,018,1,-010,1",,"10,1","SYN112AAXX  26151 76458 31430 20803 10190 20148 30130 40142 51018 71040 81601 91500 333 30/// 56/// 59010 81617 81070;","Q01  00002PRCP99"
"76458099999","2001-02-26T18:00:00","4","23.2","-106.4166666","4.0","COLONIA JUAN CARRASCO MAZATLAN SIN., MX","FM-12","99999","V020","260,1,N,0040,1","22000,1,9,N","015000,1,N,1","+0230,1","+0182,1","10153,1","99,0000,9,1",,,,,"02,1,+06000,9,01,9",,,"02,99,1,00,1,00,1,99999,9,00,1,02,1",,"01,9",,"120,M,+0274,1","240,N,+0142,1","99999,9,10142,1","2,1,012,1,-004,1",,,"SYN112AAXX  26181 76458 32965 22604 10230 20182 30142 40153 52012 80002 91755 333 10274 20142 30/// 56/// 59004 82070;","Q01  00002PRCP99"
"76458099999","2001-02-26T21:00:00","4","23.2","-106.4166666","4.0","COLONIA JUAN CARRASCO MAZATLAN SIN., MX","FM-12","99999","V020","280,1,N,0040,1","22000,1,9,N","018000,1,N,1","+0234,1","+0174,1","10134,1","99,0000,9,1",,,,,"03,1,+06000,9,01,9",,,"03,99,1,00,1,00,1,99999,9,00,1,01,1",,"01,9",,,,"99999,9,10122,1","7,1,020,1,+000,1",,,"SYN094AAXX  26211 76458 32968 32804 10234 20174 30122 40134 57020 80001 92045 333 30/// 58000 83070;","Q01  00002PRCP99"
"76458099999","2001-02-27T00:00:00","4","23.2","-106.4166666","4.0","COLONIA JUAN CARRASCO MAZATLAN SIN., MX","FM-12","99999","V020","300,1,N,0040,1","22000,1,9,N","020000,1,N,1","+0232,1","+0162,1","10128,1","24,0000,9,1",,,,,"00,1,+99999,9,99,9",,,"00,99,1,00,1,00,1,99999,9,00,1,00,1",,"01,9",,"120,M,+0275,1","180,N,+0142,1","99999,9,10116,1","6,1,006,1,+002,1",,,"SYN106AAXX  27001 76458 32970 03004 10232 20162 30116 40128 56006 92340 333 10275 20142 30/// 50351 58002 70000;","Q01  00002PRCP24"
"76458099999","2001-02-27T03:00:00","4","23.2","-106.4166666","4.0","COLONIA JUAN CARRASCO MAZATLAN SIN., MX","FM-12","99999","V020","310,1,N,0020,1","22000,1,9,N","008000,1,N,1","+0212,1","+0170,1","10128,1","99,0000,9,1",,,,,"00,1,+99999,9,99,9",,,"00,99,1,00,1,00,1,99999,9,00,1,00,1",,"01,9",,,,"99999,9,10115,1","2,1,002,1,-011,1",,,"SYN082AAXX  27031 76458 32958 03102 10212 20170 30115 40128 52002 90250 333 30/// 59011;","Q01  00002PRCP99"
"76458099999","2001-02-27T06:00:00","4","23.2","-106.4166666","4.0","COLONIA JUAN CARRASCO MAZATLAN SIN., MX","FM-12","99999","V020","040,1,N,0020,1","22000,1,9,N","008000,1,N,1","+0194,1","+0163,1","10151,1","99,0000,9,1",,,"4,1,06,1","4,1,06,1","00,1,+99999,9,99,9",,,"00,99,1,00,1,00,1,99999,9,00,1,00,1","0600,9","01,9",,"240,M,+0275,1","240,N,+0142,1","99999,9,10140,1","2,1,025,1,+999,9",,"05,1","SYN106AAXX  27061 76458 31958 00402 10194 20163 30140 40151 52025 70544 90540 333 10275 20142 30/// 55100 5810/;","Q01  00002PRCP99"
"76458099999","2001-02-27T09:00:00","4","23.2","-106.4166666","4.0","COLONIA JUAN CARRASCO MAZATLAN SIN., MX","FM-12","99999","V020","140,1,N,0030,1","22000,1,9,N","008000,1,N,1","+0179,1","+0165,1","10149,1","99,0000,9,1",,,,,"00,1,+99999,9,99,9",,,"00,99,1,00,1,00,1,99999,9,00,1,00,1",,"01,9",,,,"99999,9,10138,1","8,1,002,1,+019,1",,,"SYN082AAXX  27091 76458 32958 01403 10179 20165 30138 40149 58002 90855 333 30/// 58019;","Q01  00002PRCP99"
"76458099999","2001-02-27T12:00:00","4","23.2","-106.4166666","4.0","COLONIA JUAN CARRASCO MAZATLAN SIN., MX","FM-12","99999","V020","110,1,N,0030,1","00090,1,9,N","008000,1,N,1","+0184,1","+0176,1","10152,1","24,0000,9,1",,,,,"06,1,+00090,9,06,9",,,"06,99,1,06,1,07,1,00075,1,00,1,00,1",,"01,9","999,+0140,9","999,M,+0275,1","120,N,+0168,1","99999,9,10141,1","2,1,003,1,+028,1",,,"SYN118AAXX  27121 76458 32158 61103 10184 20176 30141 40152 52003 86700 91155 333 10275 20168 30014 56300 58028 70000 86703;",
"76458099999","2001-02-27T15:00:00","4","23.2","-106.4166666","4.0","COLONIA JUAN CARRASCO MAZATLAN SIN., MX","FM-12","99999","V020","130,1,N,0020,1","00150,1,9,N","003000,1,N,1","+0189,1","+0180,1","10160,1","99,0000,9,1",,,"4,1,03,1","2,1,03,1","06,1,+00150,9,06,9",,,"07,99,1,06,1,06,1,00150,1,99,9,99,9",,"01,9",,,,"99999,9,10149,1","1,1,008,1,+019,1",,"42,1","SYN106AAXX  27151 76458 31230 71302 10189 20180 30149 40160 51008 74242 866// 91458 333 30/// 56/// 58019 86705;","Q01  00002PRCP99"
"76458099999","2001-02-27T18:00:00","4","23.2","-106.4166666","4.0","COLONIA JUAN CARRASCO MAZATLAN SIN., MX","FM-12","99999","V020","230,1,N,0030,1","22000,1,9,N","015000,1,N,1","+0239,1","+0171,1","10167,1","99,0000,9,1",,,,,"01,1,+02400,9,07,9",,,"01,99,1,01,1,99,9,99999,9,08,1,00,1",,"01,9",,"120,M,+0251,1","240,N,+0167,1","99999,9,10155,1","1,1,006,1,+013,1",,,"SYN112AAXX  27181 76458 32965 12303 10239 20171 30155 40167 51006 81080 91755 333 10251 20167 30/// 56/// 58013 81358;","Q01  00002PRCP99Q02    003SCOLCG"
"76458099999","2001-02-27T21:00:00","4","23.2","-106.4166666","4.0","COLONIA JUAN CARRASCO MAZATLAN SIN., MX","FM-12","99999","V020","260,1,N,0040,1","22000,1,9,N","018000,1,N,1","+0232,1","+0180,1","10155,1","99,0000,9,1",,,,,"01,1,+00660,9,08,9",,,"03,99,1,01,1,02,1,00800,1,03,1,00,1",,"01,9",,,,"99999,9,10144,1","7,1,011,1,+022,1",,,"SYN106AAXX  27211 76458 32568 32604 10232 20180 30144 40155 57011 81230 92050 333 30/// 56190 58022 81822 82362;","Q01  00002PRCP99"
"76458099999","2001-02-28T03:00:00","4","23.2","-106.4166666","4.0","COLONIA JUAN CARRASCO MAZATLAN SIN., MX","FM-12","99999","V020","340,1,N,0020,1","22000,1,9,N","008000,1,N,1","+0216,1","+0176,1","10143,1","99,0000,9,1",,,,,"00,1,+99999,9,99,9",,,"00,99,1,00,1,00,1,99999,9,00,1,00,1",,"01,9",,,,"99999,9,10132,1","4,1,000,1,+017,1",,,"SYN082AAXX  28031 76458 32958 03402 10216 20176 30132 40143 54002 90240 333 30/// 58017;","Q01  00002PRCP99"
"76458099999","2001-02-28T09:00:00","4","23.2","-106.4166666","4.0","COLONIA JUAN CARRASCO MAZATLAN SIN., MX","FM-12","99999","V020","310,1,N,0040,1","22000,1,9,N","008000,1,N,1","+0196,1","+0176,1","10147,1","99,0000,9,1",,,,,"01,1,+00240,9,05,9",,,"01,99,1,01,1,04,1,00250,1,00,1,00,1",,"01,9",,,,"99999,9,10135,1","7,1,003,1,-002,1",,,"SYN100AAXX  28090 76458 32358 13104 10196 20176 30135 40147 57003 81400 90850 333 30/// 56700 59002 81608;","Q01  00002PRCP99"
"76458099999","2001-02-28T12:00:00","4","23.2","-106.4166666","4.0","COLONIA JUAN CARRASCO MAZATLAN SIN., MX","FM-12","99999","V020","060,1,N,0020,1","22000,1,9,N","008000,1,N,1","+0184,1","+0162,1","10133,1","24,0000,9,1",,,,,"00,1,+99999,9,99,9",,,"00,99,1,00,1,00,1,99999,9,00,1,00,1",,"01,9","999,+0150,9","999,M,+0253,1","120,N,+0173,1","99999,9,10122,1","7,1,014,1,-019,1",,,"SYN100AAXX  28121 76458 32958 00602 10184 20162 30122 40133 57014 91145 333 10253 20173 30015 59019 70000;","Q01  00002PRCP24"
"76458099999","2001-02-28T15:00:00","4","23.2","-106.4166666","4.0","COLONIA JUAN CARRASCO MAZATLAN SIN., MX","FM-12","99999","V020","340,1,N,0020,1","22000,1,9,N","010000,1,N,1","+0196,1","+0168,1","10152,1","99,0000,9,1",,,"4,1,03,1","4,1,03,1","02,1,+00360,9,05,9",,,"02,99,1,02,1,05,1,00450,1,00,1,00,1",,"01,9",,,,"99999,9,10140,1","2,1,018,1,-009,1",,"05,1","SYN106AAXX  28151 76458 31460 23402 10196 20168 30140 40152 52018 70544 82500 91450 333 30/// 56200 59009 82612;","Q01  00002PRCP99"
"76458099999","2001-02-28T21:00:00","4","23.2","-106.4166666","4.0","COLONIA JUAN CARRASCO MAZATLAN SIN., MX","FM-12","99999","V020","280,1,N,0050,1","09000,1,C,N","018000,1,N,1","+0227,1","+0174,1","10139,1","99,0000,9,1",,,,,"01,1,+00660,9,08,9",,,"07,99,1,01,1,01,1,00800,1,00,1,08,1",,"01,9",,,,"99999,9,10127,1","7,1,020,1,-017,1",,,"SYN106AAXX  28211 76458 32568 72805 10227 20174 30127 40139 57020 81108 92050 333 30/// 56109 59017 81822 86268;","Q01  00002PRCP99"
"76458099999","2001-03-01T00:00:00","4","23.2","-106.4166666","4.0","COLONIA JUAN CARRASCO MAZATLAN SIN., MX","FM-12","99999","V020","310,1,N,0030,1","03600,1,C,N","018000,1,N,1","+0227,1","+0145,1","10119,1","24,0000,9,1",,,,,"06,1,+03600,9,04,9",,,"08,99,1,06,1,00,1,02250,1,02,1,08,1",,"01,9",,"120,M,+0248,1","180,N,+0170,1","99999,9,10107,1","7,1,020,1,-023,1",,,"SYN130AAXX  01001 76458 32868 83103 10227 20145 30107 40119 57020 86028 92345 333 10248 20170 30/// 50391 56099 59023 70000 86462 82268;","Q01  00002PRCP99Q02  00003PRCP99"
"76458099999","2001-03-01T03:00:00","4","23.2","-106.4166666","4.0","COLONIA JUAN CARRASCO MAZATLAN SIN., MX","FM-12","99999","V020","310,1,N,0030,1","02400,1,9,N","008000,1,N,1","+0214,1","+0148,1","10126,1","99,0000,9,1",,,,,"08,1,+02400,9,01,9",,,"08,99,1,08,1,00,1,02250,1,02,1,00,1",,"01,9",,,,"99999,9,10148,1","2,1,008,1,-017,1",,,"SYN100AAXX  01031 76458 32858 83103 10214 20148 30148 40126 52008 88020 90245 333 30/// 56090 59017 88458;","Q01  00002PRCP99"
"76458099999","2001-03-01T06:00:00","4","23.2","-106.4166666","4.0","COLONIA JUAN CARRASCO MAZATLAN SIN., MX","FM-12","99999","V020","230,1,N,0020,1","02100,1,9,N","008000,1,N,1","+0202,1","+0152,1","10128,1","99,0000,9,1",,,,,,,,"08,99,1,08,1,00,1,02250,1,02,1,00,1","0438,9","01,9",,"240,M,+0248,1","240,N,+0170,1","99999,9,10116,1","0,1,001,1,-023,1",,,"SYN118AAXX  01061 76458 32858 82302 10202 20152 30116 40128 50001 88020 90535 333 10248 20170 30/// 55073 56090 59023 88458;","Q01  00002PRCP99"
"76458099999","2001-03-01T09:00:00","4","23.2","-106.4166666","4.0","COLONIA JUAN CARRASCO MAZATLAN SIN., MX","FM-12","99999","V020","330,1,N,0030,1","99999,9,9,N","008000,1,N,1","+0198,1","+0118,1","10103,1","99,0000,9,1",,,,,,,,"08,99,1,08,1,00,1,99999,9,02,1,00,1",,"01,9",,,,"99999,9,10091,1","7,1,020,1,-044,1",,,"SYN094AAXX  01091 76458 32958 83303 10198 20118 30091 40103 57020 88020 90845 333 30/// 56090 59044;","Q01  00002PRCP99"
"76458099999","2001-03-01T12:00:00","4","23.2","-106.4166666","4.0","COLONIA JUAN CARRASCO MAZATLAN SIN., MX","FM-12","99999","V020","310,1,N,0030,1","00690,1,9,N","008000,1,N,1","+0195,1","+0139,1","10089,1","24,0000,9,1",,,,,"08,1,+00690,9,05,9",,,"08,99,1,08,1,04,1,00800,1,00,1,00,1",,"01,9","999,+0180,9","999,M,+0248,1","120,N,+0189,1","99999,9,10078,1","5,1,013,1,-044,1",,,"SYN118AAXX  01121 76458 32558 83103 10195 20139 30078 40089 55013 88400 91145 333 10248 20189 30018 56900 59044 70000 88623;",
"76458099999","2001-03-01T18:00:00","4","23.2","-106.4166666","4.0","COLONIA JUAN CARRASCO MAZATLAN SIN., MX","FM-12","99999","V020","300,1,N,0060,1","03600,1,9,N","012000,1,N,1","+0187,1","+0154,1","10119,1","03,0005,9,1",,,"5,1,06,1","5,1,06,1","08,1,+03600,9,01,9",,,"08,99,1,08,1,00,1,02250,1,02,1,99,9",,"09,9",,"120,M,+0206,1","240,N,+0183,1","99999,9,10108,1","3,1,011,1,-039,1",,"50,1","SYN130AAXX  01181 76458 /1862 83006 10187 20154 30108 40119 53011 69951 75055 8802/ 91750 333 10206 20183 31/// 5609/ 59039 69957 88462;",
"76458099999","2001-03-02T00:00:00","4","23.2","-106.4166666","4.0","COLONIA JUAN CARRASCO MAZATLAN SIN., MX","FM-12","99999","V020","330,1,N,0050,1","02100,1,9,N","999999,9,N,1","+0166,1","+0147,1","10113,1","06,0140,9,1","24,0144,9,1",,"5,1,06,1","5,1,06,1",,,,"08,99,1,08,1,00,1,02250,1,02,1,00,1",,"11,9",,"120,M,+0208,1","180,N,+0152,1","99999,9,10102,1","7,1,016,1,-012,1",,"20,1","SYN136AAXX  02001 76458 /1853 83305 10166 20147 30102 40113 57016 60141 72055 88020 92345 333 10208 20152 32/// 50391 56090 59012 70144 88458;",
"76458099999","2001-03-02T03:00:00","4","23.2","-106.4166666","4.0","COLONIA JUAN CARRASCO MAZATLAN SIN., MX","FM-12","99999","V020","330,1,N,0030,1","02400,1,9,N","999999,9,N,1","+0160,1","+0144,1","10138,1",,,,"5,1,03,1","5,1,03,1","08,1,+02400,9,01,9",,,"08,99,1,08,1,00,1,99999,9,02,1,00,1",,"11,9",,,,"99999,9,10127,1","2,1,025,1,+012,1",,"20,1","SYN100AAXX  02031 76458 /1953 83303 10160 20144 30127 40138 52025 72055 88020 90245 333 32/// 58012 88458;",
"76458099999","2001-03-02T09:00:00","4","23.2","-106.4166666","4.0","COLONIA JUAN CARRASCO MAZATLAN SIN., MX","FM-12","99999","V020","030,1,N,0040,1","02100,1,9,N","008000,1,N,1","+0163,1","+0135,1","10100,1","03,0007,9,1",,,"5,1,03,1","5,1,03,1","08,1,+02100,9,01,9",,,"08,99,1,08,1,00,1,02250,1,02,1,00,1",,"09,9",,,,"99999,9,10089,1","7,1,022,1,-003,1",,"51,1","SYN112AAXX  02091 76458 21858 80304 10163 20135 30089 40100 57022 75155 88020 90850 333 31/// 56090 59003 69977 88457;",
"76458099999","2001-03-02T12:00:00","4","23.2","-106.4166666","4.0","COLONIA JUAN CARRASCO MAZATLAN SIN., MX","FM-12","99999","V020","360,1,N,0020,1","00300,1,9,N","008000,1,N,1","+0160,1","+0137,1","10092,1","02,0010,9,1","24,0199,9,1",,"5,1,06,1","5,1,06,1","07,1,+00300,9,05,9",,,"07,99,1,07,1,04,1,00250,1,00,1,00,1",,"09,9","999,+0140,9","999,M,+0208,1","120,N,+0152,1","99999,9,10081,1","5,1,008,1,+003,1",,"02,1","SYN130AAXX  02121 76458 11358 73602 10160 20137 30081 40092 55008 60016 70255 87400 91140 333 10208 20152 31014 56500 58003 70199 87610;",
"76458099999","2001-03-02T18:00:00","4","23.2","-106.4166666","4.0","COLONIA JUAN CARRASCO MAZATLAN SIN., MX","FM-12","99999","V020","200,1,N,0060,1","00900,1,9,N","000200,1,N,1","+0166,1","+0150,1","10098,1","03,0110,9,1",,,"5,1,06,1","0,1,06,1","08,1,+00900,9,02,9",,,"08,99,1,08,1,00,1,02250,1,02,1,99,9",,"11,9",,"120,M,+0181,1","240,N,+0150,1","99999,9,10087,1","2,1,006,1,-021,1",,"63,1","SYN130AAXX  02181 76458 /1802 82006 10166 20150 30087 40098 52006 60111 76350 8802/ 91750 333 10181 20150 32/// 5604/ 59021 60117 88530;",
"76458099999","2001-03-02T21:00:00","4","23.2","-106.4166666","4.0","COLONIA JUAN CARRASCO MAZATLAN SIN., MX","FM-12","99999","V020","330,1,N,0050,1","02400,1,9,N","008000,1,N,1","+0168,1","+0142,1","10084,1","06,0160,9,1",,,"5,1,03,1","5,1,03,1","08,1,+02400,9,01,9",,,"08,99,1,08,1,00,1,02250,1,02,1,00,1",,"11,9",,,,"99999,9,10073,1","7,1,014,1,-045,1",,"20,1","SYN112AAXX  02211 76458 11858 83305 10168 20142 30073 40084 57014 60161 72055 88020 92055 333 32/// 56090 59045 88458;",
"76458099999","2001-03-03T00:00:00","4","23.2","-106.4166666","4.0","COLONIA JUAN CARRASCO MAZATLAN SIN., MX","FM-12","99999","V020","310,1,N,0030,1","22000,1,9,N","020000,1,N,1","+0184,1","+0109,1","10100,1","24,0228,9,1","99,0000,2,1",,,,,,,"01,99,1,01,1,02,1,00800,1,00,1,00,1",,"09,9",,"120,M,+0198,1","180,N,+0150,1","99999,9,10088,1","1,1,015,1,-014,1",,,"SYN124AAXX  03001 76458 32570 13103 10184 20109 30088 40100 51015 81200 92345 333 10198 20150 31/// 50201 56100 59014 70228 81831;",
"76458099999","2001-03-03T03:00:00","4","23.2","-106.4166666","4.0","COLONIA JUAN CARRASCO MAZATLAN SIN., MX","FM-12","99999","V020","350,1,N,0020,1","22000,1,9,N","008000,1,N,1","+0168,1","+0117,1","10112,1","99,0000,2,1",,,,,"00,1,+99999,9,99,9",,,"00,99,1,00,1,00,1,99999,9,00,1,00,1",,"09,9",,,,"99999,9,10101,1","2,1,013,1,-026,1",,,"SYN082AAXX  03031 76458 32958 03502 10168 20117 30101 40112 52013 90250 333 31/// 59026;",
"76458099999","2001-03-03T06:00:00","4","23.2","-106.4166666","4.0","COLONIA JUAN CARRASCO MAZATLAN SIN., MX","FM-12","99999","V020","999,9,C,0000,1","22000,1,9,N","008000,1,N,1","+0142,1","+0125,1","10128,1","24,0229,9,1",,,,,"00,1,+99999,9,99,9",,,"00,99,1,00,1,00,1,99999,9,00,1,00,1","0210,9","09,9",,"240,M,+0198,1","240,N,+9999,9","99999,9,10117,1","2,1,016,1,+006,1",,,"SYN106AAXX  03061 76458 32958 00000 10142 20125 30117 40128 52016 90545 333 10198 20150 31/// 55035 58006 70228;","Q01 +01502ATMN  "
"76458099999","2001-03-03T09:00:00","4","23.2","-106.4166666","4.0","COLONIA JUAN CARRASCO MAZATLAN SIN., MX","FM-12","99999","V020","999,9,C,0000,1","22000,1,9,N","008000,1,N,1","+0130,1","+0116,1","10131,1","99,0000,2,1",,,"4,1,03,1","4,1,03,1","00,1,+99999,9,99,9",,,"00,99,1,00,1,00,1,99999,9,00,1,00,1",,"01,9",,,,"99999,9,10119,1","2,1,002,1,+030,1",,"05,1","SYN088AAXX  03091 76458 31958 00000 10130 20116 30119 40131 52002 70544 90840 333 30/// 58030;",
"76458099999","2001-03-03T12:00:00","4","23.2","-106.4166666","4.0","COLONIA JUAN CARRASCO MAZATLAN SIN., MX","FM-12","99999","V020","999,9,C,0000,1","22000,1,9,N","008000,1,N,1","+0124,1","+0113,1","10131,1","24,0165,9,1",,,"4,1,06,1","4,1,06,1","00,1,+99999,9,99,9",,,"00,99,1,00,1,00,1,99999,9,00,1,00,1",,"01,9",,"999,M,+0198,1","120,N,+0110,1","99999,9,10119,1","4,1,000,1,+038,1",,"05,1","SYN106AAXX  03121 76458 31958 00000 10124 20113 30119 40131 54000 70544 91145 333 10198 20110 30/// 58038 70165;",
"76458099999","2001-03-03T15:00:00","4","23.2","-106.4166666","4.0","COLONIA JUAN CARRASCO MAZATLAN SIN., MX","FM-12","99999","V020","999,9,C,0000,1","22000,1,9,N","018000,1,N,1","+0148,1","+0121,1","10144,1","99,0000,9,1",,,,,"01,1,+00330,9,02,9",,,"01,99,1,01,1,02,1,00450,1,00,1,00,1",,"01,9",,,,"99999,9,10133,1","2,1,014,1,+052,1",,,"SYN094AAXX  03151 76458 32468 10000 10148 20121 30133 40144 52014 81200 91450 333 30/// 58052 81811;","Q01  00002PRCP99"
"76458099999","2001-03-03T18:00:00","4","23.2","-106.4166666","4.0","COLONIA JUAN CARRASCO MAZATLAN SIN., MX","FM-12","99999","V020","260,1,N,0030,1","22000,1,9,N","020000,1,N,1","+0192,1","+0125,1","10142,1","99,0000,9,1",,,,,"01,1,+00840,9,02,9",,,"01,99,1,01,1,01,1,00800,1,00,1,00,1",,"01,9",,"120,M,+0212,1","240,N,+0104,1","99999,9,10130,1","8,1,003,1,+043,1",,,"SYN112AAXX  03181 76458 32570 12603 10192 20125 30130 40142 58003 81100 91750 333 10212 20104 30/// 56800 58043 81828;","Q01  00002PRCP99"
"76458099999","2001-03-03T21:00:00","4","23.2","-106.4166666","4.0","COLONIA JUAN CARRASCO MAZATLAN SIN., MX","FM-12","99999","V020","300,1,N,0060,1","22000,1,9,N","020000,1,N,1","+0200,1","+0088,1","10124,1","99,0000,9,1",,,,,"01,1,+01410,9,02,9",,,"01,99,1,01,1,01,1,01250,1,00,1,00,1",,"01,9",,,,"99999,9,10113,1","7,1,017,1,+040,1",,,"SYN100AAXX  03211 76458 32670 13006 10200 20088 30113 40124 57017 81100 92045 333 30/// 56100 58040 81847;","Q01  00002PRCP99"
"76458099999","2001-03-04T00:00:00","4","23.2","-106.4166666","4.0","COLONIA JUAN CARRASCO MAZATLAN SIN., MX","FM-12","99999","V020","290,1,N,0070,1","22000,1,9,N","020000,1,N,1","+0196,1","+0104,1","10116,1","24,0000,9,1",,,,,"00,1,+99999,9,99,9",,,"00,99,1,00,1,00,1,99999,9,00,1,00,1",,"01,9",,"120,M,+0216,1","180,N,+0114,1","99999,9,10104,1","7,1,007,1,+016,1",,,"SYN106AAXX  04001 76458 32970 02907 10196 20104 30104 40116 57007 92345 333 10216 20114 30/// 50341 58016 70000;","Q01  00002PRCP24"
"76458099999","2001-03-04T03:00:00","4","23.2","-106.4166666","4.0","COLONIA JUAN CARRASCO MAZATLAN SIN., MX","FM-12","99999","V020","300,1,N,0030,1","22000,1,9,N","016000,1,N,1","+0176,1","+0116,1","10122,1","99,0000,9,1",,,,,"00,1,+99999,9,99,9",,,"00,99,1,00,1,00,1,99999,9,00,1,00,1",,"01,9",,,,"99999,9,10111,1","2,1,006,1,+010,1",,,"SYN082AAXX  04030 76458 32966 03003 10176 20116 30111 40122 52006 90245 333 30/// 58010;","Q01  00002PRCP99"
"76458099999","2001-03-04T09:00:00","4","23.2","-106.4166666","4.0","COLONIA JUAN CARRASCO MAZATLAN SIN., MX","FM-12","99999","V020","999,9,C,0000,1","22000,1,9,N","008000,1,N,1","+0136,1","+0101,1","10132,1","99,0000,9,1",,,"4,1,03,1","4,1,03,1","00,1,+99999,9,99,9",,,"00,99,1,00,1,00,1,99999,9,00,1,00,1",,"01,9",,,,"99999,9,10121,1","7,1,004,1,+002,1",,"05,1","SYN088AAXX  04091 76458 31958 00000 10136 20101 30121 40132 57004 70544 90845 333 30/// 58002;","Q01  00002PRCP99"
"76458099999","2001-03-04T12:00:00","4","23.2","-106.4166666","4.0","COLONIA JUAN CARRASCO MAZATLAN SIN., MX","FM-12","99999","V020","999,9,C,0000,1","22000,1,9,N","008000,1,N,1","+0124,1","+0106,1","10134,1","24,0000,9,1",,,"4,1,06,1","4,1,06,1","00,1,+99999,9,99,9",,,"00,99,1,00,1,00,1,99999,9,00,1,00,1",,"01,9","999,+0090,9","999,M,+0216,1","120,N,+0110,1","99999,9,10122,1","4,1,000,1,+003,1",,"05,1","SYN106AAXX  04121 76458 31958 00000 10124 20106 30122 40134 54001 70544 91140 333 10216 20110 30009 58003 70000;","Q01  00002PRCP24"
"76458099999","2001-03-04T15:00:00","4","23.2","-106.4166666","4.0","COLONIA JUAN CARRASCO MAZATLAN SIN., MX","FM-12","99999","V020","050,1,N,0010,1","22000,1,9,N","018000,1,N,1","+0152,1","+0109,1","10159,1","99,0000,9,1",,,,,"00,1,+99999,9,99,9",,,"00,99,1,00,1,00,1,99999,9,00,1,00,1",,"01,9",,,,"99999,9,10148,1","2,1,026,1,+015,1",,,"SYN082AAXX  04151 76458 32968 00501 10152 20109 30148 40159 52026 91450 333 30/// 58015;","Q01  00002PRCP99"
"76458099999","2001-03-05T00:00:00","4","23.2","-106.4166666","4.0","COLONIA JUAN CARRASCO MAZATLAN SIN., MX","FM-12","99999","V020","300,1,N,0050,1","22000,1,9,N","020000,1,N,1","+0214,1","+0152,1","10143,1","24,0000,9,1",,,,,"00,1,+99999,9,99,9",,,"00,99,1,00,1,00,1,99999,9,00,1,00,1",,"01,9",,"120,M,+0248,1","180,N,+0104,1","99999,9,10131,1","7,1,009,1,+027,1",,,"SYN100AAXX  05001 76458 32970 03005 10214 20152 30131 40143 57009 92340 333 10248 20104 30/// 58027 70000;","Q01  00002PRCP24"
"76458099999","2001-03-05T03:00:00","4","23.2","-106.4166666","4.0","COLONIA JUAN CARRASCO MAZATLAN SIN., MX","FM-12","99999","V020","340,1,N,0030,1","22000,1,9,N","008000,1,N,1","+0182,1","+0144,1","10149,1","99,0000,9,1",,,,,"00,1,+99999,9,99,9",,,"00,99,1,00,1,00,1,99999,9,00,1,00,1",,"01,9",,,,"99999,9,10137,1","2,1,006,1,+026,1",,,"SYN082AAXX  05031 76458 32958 03403 10182 20144 30137 40149 52006 90240 333 30/// 58026;","Q01  00002PRCP99"
"76458099999","2001-03-05T06:00:00","4","23.2","-106.4166666","4.0","COLONIA JUAN CARRASCO MAZATLAN SIN., MX","FM-12","99999","V020","330,1,N,0010,1","22000,1,9,N","008000,1,N,1","+0175,1","+0145,1","10153,1","99,0000,9,1",,,,,"00,1,+99999,9,99,9",,,"00,99,1,00,1,00,1,99999,9,00,1,00,1","0642,9","01,9",,"240,M,+0248,1","240,N,+0104,1","99999,9,10141,1","2,1,004,1,+016,1",,,"SYN100AAXX  05061 76458 32958 03301 10175 20145 30141 40153 52004 90538 333 10248 20104 30/// 55107 58016;","Q01  00002PRCP99"
"76458099999","2001-03-05T09:00:00","4","23.2","-106.4166666","4.0","COLONIA JUAN CARRASCO MAZATLAN SIN., MX","FM-12","99999","V020","999,9,C,0000,1","22000,1,9,N","008000,1,N,1","+0154,1","+0137,1","10147,1","99,0000,9,1",,,"4,1,03,1","4,1,03,1","00,1,+99999,9,99,9",,,"00,99,1,00,1,00,1,99999,9,00,1,00,1",,"01,9",,,,"99999,9,10135,1","7,1,007,1,+014,1",,"05,1","SYN088AAXX  05091 76458 31958 00000 10154 20137 30135 40147 57007 70544 90845 333 30/// 58014;","Q01  00002PRCP99"
"76458099999","2001-03-05T12:00:00","4","23.2","-106.4166666","4.0","COLONIA JUAN CARRASCO MAZATLAN SIN., MX","FM-12","99999","V020","180,1,N,0010,1","22000,1,9,N","008000,1,N,1","+0150,1","+0132,1","10145,1","24,0000,9,1",,,"4,1,06,1","4,1,06,1","00,1,+99999,9,99,9",,,"00,99,1,00,1,00,1,99999,9,00,1,00,1",,"01,9","999,+0130,9","999,M,+0248,1","120,N,+0145,1","99999,9,10133,1","4,1,000,1,+010,1",,"05,1","SYN106AAXX  05121 76458 31958 01801 10150 20132 30133 40145 54002 70544 91140 333 10248 20145 30013 58010 70000;","Q01  00002PRCP24"
"76458099999","2001-03-05T15:00:00","4","23.2","-106.4166666","4.0","COLONIA JUAN CARRASCO MAZATLAN SIN., MX","FM-12","99999","V020","130,1,N,0020,1","22000,1,9,N","020000,1,N,1","+0170,1","+0134,1","10166,1","99,0000,9,1",,,,,"00,1,+99999,9,99,9",,,"00,99,1,00,1,00,1,99999,9,00,1,00,1",,"01,9",,,,"99999,9,10155,1","2,1,023,1,+007,1",,,"SYN082AAXX  05151 76458 32970 01302 10170 20134 30155 40166 52023 91455 333 30/// 58007;","Q01  00002PRCP99"
"76458099999","2001-03-05T18:00:00","4","23.2","-106.4166666","4.0","COLONIA JUAN CARRASCO MAZATLAN SIN., MX","FM-12","99999","V020","250,1,N,0030,1","06000,1,9,N","006000,1,N,1","+0202,1","+0167,1","10185,1","99,0000,9,1",,,,,"05,1,+06000,9,01,9",,,"05,99,1,00,1,00,1,99999,9,00,1,06,1",,"01,9",,"120,M,+0227,1","240,N,+0135,1","99999,9,10173,1","1,1,018,1,+015,1",,,"SYN106AAXX  05181 76458 32956 52503 10202 20167 30173 40185 51018 80006 91750 333 10227 20135 30/// 58015 85070;","Q01  00002PRCP99"
"76458099999","2001-03-05T21:00:00","4","23.2","-106.4166666","4.0","COLONIA JUAN CARRASCO MAZATLAN SIN., MX","FM-12","99999","V020","290,1,N,0030,1","22000,1,9,N","020000,1,N,1","+0214,1","+0162,1","10155,1","99,0000,9,1",,,,,"04,1,+06000,9,01,9",,,"04,99,1,00,1,00,1,99999,9,00,1,06,1",,"01,9",,,,"99999,9,10143,1","7,1,030,1,+003,1",,,"SYN094AAXX  05211 76458 32970 42903 10214 20162 30143 40155 57030 80006 92050 333 30/// 58003 84070;","Q01  00002PRCP99"
"76458099999","2001-03-06T03:00:00","4","23.2","-106.4166666","4.0","COLONIA JUAN CARRASCO MAZATLAN SIN., MX","FM-12","99999","V020","320,1,N,0020,1","22000,1,9,N","008000,1,N,1","+0184,1","+0162,1","10163,1","99,0000,9,1",,,,,,,,"02,99,1,00,1,00,1,99999,9,00,1,06,1",,"01,9",,,,"99999,9,10152,1","2,1,013,1,+009,1",,,"SYN100AAXX  06031 76458 32958 23202 10184 20162 30152 40163 52013 80006 90240 333 30/// 58009 58015 82072;","Q01  00002PRCP99"
"76458099999","2001-03-06T06:00:00","4","23.2","-106.4166666","4.0","COLONIA JUAN CARRASCO MAZATLAN SIN., MX","FM-12","99999","V020","999,9,C,0000,1","22000,1,9,N","008000,1,N,1","+0178,1","+0159,1","10133,1","99,0000,9,1",,,,,,,,"04,99,1,00,1,00,1,99999,9,00,1,08,1","0006,9","01,9",,"240,M,+0234,1","240,N,+0135,1","99999,9,10172,1","2,1,020,1,+031,1",,,"SYN118AAXX  06061 76458 32958 40000 10178 20159 30172 40133 52020 80008 90530 333 10234 20135 30/// 55001 56609 58031 84472;","Q01  00002PRCP99"
"76458099999","2001-03-06T09:00:00","4","23.2","-106.4166666","4.0","COLONIA JUAN CARRASCO MAZATLAN SIN., MX","FM-12","99999","V020","999,9,C,0000,1","01800,1,9,N","008000,1,N,1","+0174,1","+0145,1","10172,1","99,0000,9,1",,,"4,1,03,1","4,1,03,1","06,1,+01800,9,01,9",,,"06,99,1,00,1,00,1,99999,9,02,1,00,1",,"01,9",,,,"99999,9,10160,1","7,1,012,1,+025,1",,"05,1","SYN106AAXX  06091 76458 31958 60000 10174 20145 30160 40172 57012 70544 80020 90850 333 30/// 56090 58025 86456;","Q01  00002PRCP99"
"76458099999","2001-03-06T12:00:00","4","23.2","-106.4166666","4.0","COLONIA JUAN CARRASCO MAZATLAN SIN., MX","FM-12","99999","V020","999,9,C,0000,1","01800,1,9,N","008000,1,N,1","+0172,1","+0125,1","10158,1","24,0000,9,1",,,"4,1,06,1","4,1,06,1","05,1,+01800,9,01,9",,,"05,99,1,00,1,00,1,99999,9,02,1,00,1",,"01,9","999,+0150,9","999,M,+0234,1","120,N,+0162,1","99999,9,10146,1","7,1,008,1,+013,1",,"05,1","SYN124AAXX  06121 76458 31958 50000 10172 20125 30146 40158 57008 70544 80020 91140 333 10234 20162 30015 56090 58013 70000 85456;",
"76458099999","2001-03-07T00:00:00","4","23.2","-106.4166666","4.0","COLONIA JUAN CARRASCO MAZATLAN SIN., MX","FM-12","99999","V020","300,1,N,0040,1","03600,1,C,N","018000,1,N,1","+0218,1","+0153,1","10157,1","24,0000,9,1",,,,,"06,1,+03600,9,03,9",,,"07,99,1,06,1,00,1,02250,1,03,1,08,1",,"01,9",,"120,M,+0245,1","180,N,+0155,1","99999,9,10146,1","6,1,012,1,+006,1",,,"SYN130AAXX  07001 76458 32868 73004 10218 20153 30146 40157 56012 86038 92350 333 10245 20155 30/// 50371 56099 58006 70000 86362 81270;","Q01  00002PRCP99Q02  00003PRCP99"
"76458099999","2001-03-07T09:00:00","4","23.2","-106.4166666","4.0","COLONIA JUAN CARRASCO MAZATLAN SIN., MX","FM-12","99999","V020","270,1,N,0020,1","05700,1,9,N","016000,1,N,1","+0185,1","+0171,1","10171,1","99,0000,9,1",,,,,"01,1,+00015,9,06,9","04,1,+05700,9,01,9",,"07,99,1,01,1,04,1,00150,1,00,1,09,1",,"01,9",,,,"99999,9,10159,1","0,1,001,1,+000,1",,,"SYN112AAXX  07091 76458 32266 72702 10185 20171 30159 40171 50001 81409 90845 333 30/// 56009 59000 81600 84169 82079;","Q01  00002PRCP99"
"76458099999","2001-03-07T12:00:00","4","23.2","-106.4166666","4.0","COLONIA JUAN CARRASCO MAZATLAN SIN., MX","FM-12","99999","V020","360,1,N,0030,1","22000,1,9,N","016000,1,N,1","+0174,1","+0158,1","10173,1","24,0000,9,1",,,,,"02,1,+08700,9,01,9",,,"02,99,1,00,1,00,1,99999,9,00,1,02,1",,"01,9","999,+0150,9","999,M,+0245,1","120,N,+0166,1","99999,9,10161,1","4,1,000,1,+015,1",,,"SYN118AAXX  07121 76458 32966 23603 10174 20158 30161 40173 54002 80002 91150 333 10245 20166 30015 56009 58015 70000 82079;",
"76458099999","2001-03-07T15:00:00","4","23.2","-106.4166666","4.0","COLONIA JUAN CARRASCO MAZATLAN SIN., MX","FM-12","99999","V020","310,1,N,0010,1","22000,1,9,N","015000,1,N,1","+0175,1","+0138,1","10179,1","99,0000,9,1",,,,,"00,1,+99999,9,99,9",,,"00,99,1,00,1,00,1,99999,9,00,1,00,1",,"01,9",,,,"99999,9,10167,1","2,1,006,1,-015,1",,,"SYN082AAXX  07151 76458 32965 03101 10175 20138 30167 40179 52006 91450 333 30/// 59015;","Q01  00002PRCP99"
"76458099999","2001-03-07T18:00:00","4","23.2","-106.4166666","4.0","COLONIA JUAN CARRASCO MAZATLAN SIN., MX","FM-12","99999","V020","310,1,N,0040,1","22000,1,9,N","020000,1,N,1","+0217,1","+0157,1","10179,1","99,0000,9,1",,,,,"01,1,+06000,9,01,9",,,"01,99,1,00,1,00,1,99999,9,00,1,01,1",,"01,9",,"120,M,+0229,1","240,N,+0145,1","99999,9,10168,1","2,1,001,1,-018,1",,,"SYN112AAXX  07181 76458 32970 13104 10217 20157 30168 40179 52001 80001 91745 333 10229 20145 30/// 56009 59018 81070;","Q01  00002PRCP99"
"76458099999","2001-03-07T21:00:00","4","23.2","-106.4166666","4.0","COLONIA JUAN CARRASCO MAZATLAN SIN., MX","FM-12","99999","V020","090,1,N,0070,1","08700,1,9,N","020000,1,N,1","+0225,1","+0202,1","10156,1","99,0000,9,1",,,,,"07,1,+08700,9,01,9",,,"07,99,1,00,1,00,1,99999,9,00,1,06,1",,"01,9",,,,"99999,9,10145,1","7,1,023,1,-014,1",,,"SYN100AAXX  07211 76458 32970 70907 10225 20202 30145 40156 57023 80006 92055 333 30/// 56009 59014 87079;","Q01  00002PRCP99"
"76458099999","2001-03-08T03:00:00","4","23.2","-106.4166666","4.0","COLONIA JUAN CARRASCO MAZATLAN SIN., MX","FM-12","99999","V020","330,1,N,0030,1","22000,1,9,N","008000,1,N,1","+0196,1","+0138,1","10147,1","99,0000,9,1",,,,,"00,1,+99999,9,99,9",,,"00,99,1,00,1,00,1,99999,9,00,1,00,1",,"01,9",,,,"99999,9,10138,1","2,1,011,1,-012,1",,,"SYN082AAXX  08031 76458 32958 03303 10196 20138 30138 40147 52011 90250 333 30/// 59012;","Q01  00002PRCP99"
"76458099999","2001-03-08T15:00:00","4","23.2","-106.4166666","4.0","COLONIA JUAN CARRASCO MAZATLAN SIN., MX","FM-12","99999","V020","020,1,N,0010,1","22000,1,9,N","018000,1,N,1","+0171,1","+0124,1","10161,1","99,0000,9,1",,,,,"01,1,+05400,9,01,9",,,"01,99,1,00,1,00,1,99999,9,00,1,06,1",,"01,9",,,,"99999,9,10150,1","2,1,008,1,-017,1",,,"SYN100AAXX  08151 76458 32968 10201 10171 20124 30150 40161 52008 80006 91450 333 30/// 56009 59017 81068;","Q01  00002PRCP99"
"76458099999","2001-03-08T18:00:00","4","23.2","-106.4166666","4.0","COLONIA JUAN CARRASCO MAZATLAN SIN., MX","FM-12","99999","V020","270,1,N,0030,1","22000,1,9,N","018000,1,N,1","+0211,1","+0141,1","10166,1","99,0000,9,1",,,,,"04,1,+05400,9,01,9",,,"04,99,1,00,1,00,1,99999,9,00,1,06,1",,"01,9",,"120,M,+0226,1","240,N,+0130,1","99999,9,10155,1","0,1,005,1,-013,1",,,"SYN112AAXX  08181 76458 32968 42703 10211 20141 30155 40166 50005 80006 91750 333 10226 20130 30/// 56009 59013 84068;","Q01  00002PRCP99"
"76458099999","2001-03-08T21:00:00","4","23.2","-106.4166666","4.0","COLONIA JUAN CARRASCO MAZATLAN SIN., MX","FM-12","99999","V020","290,1,N,0050,1","06000,1,9,N","018000,1,N,1","+0224,1","+0142,1","10144,1","99,0000,9,1",,,,,"06,1,+06000,9,01,9",,,"06,99,1,00,1,00,1,99999,9,00,1,06,1",,"01,9",,,,"99999,9,10133,1","7,1,021,1,-012,1",,,"SYN094AAXX  08211 76458 32968 62905 10224 20142 30133 40144 57021 80006 92045 333 30/// 59012 86070;","Q01  00002PRCP99"
"76458099999","2001-03-09T00:00:00","4","23.2","-106.4166666","4.0","COLONIA JUAN CARRASCO MAZATLAN SIN., MX","FM-12","99999","V020","300,1,N,0060,1","22000,1,9,N","018000,1,N,1","+0220,1","+0148,1","10137,1","24,0000,9,1",,,,,"02,1,+06000,9,01,9",,,"02,99,1,00,1,00,1,99999,9,00,1,06,1",,"01,9",,"120,M,+0245,1","180,N,+0130,1","99999,9,10126,1","5,1,007,1,-001,1",,,"SYN118AAXX  09001 76458 32968 23006 10220 20148 30126 40137 55007 80006 92345 333 10245 20130 30/// 50311 59001 70000 82070;",
"76458099999","2001-03-09T03:00:00","4","23.2","-106.4166666","4.0","COLONIA JUAN CARRASCO MAZATLAN SIN., MX","FM-12","99999","V020","310,1,N,0030,1","22000,1,9,N","008000,1,N,1","+0192,1","+0141,1","10136,1","99,0000,9,1",,,,,"03,1,+06600,9,01,9",,,"03,99,1,00,1,00,1,99999,9,00,1,06,1",,"01,9",,,,"99999,9,10125,1","4,1,000,1,-013,1",,,"SYN100AAXX  09031 76458 32958 33103 10192 20141 30125 40136 54000 80006 90250 333 30/// 56009 59013 83072;","Q01  00002PRCP99"
"76458099999","2001-03-09T09:00:00","4","23.2","-106.4166666","4.0","COLONIA JUAN CARRASCO MAZATLAN SIN., MX","FM-12","99999","V020","310,1,N,0020,1","22000,1,9,N","016000,1,N,1","+0173,1","+0151,1","10135,1","99,0000,9,1",,,,,"00,1,+99999,9,99,9",,,"00,99,1,00,1,00,1,99999,9,00,1,00,1",,"01,9",,,,"99999,9,10124,1","7,1,004,1,+999,9",,,"SYN082AAXX  09091 76458 32966 03102 10173 20151 30124 40135 57004 90850 333 30/// 58///;","Q01  00002PRCP99"
"76458099999","2001-03-09T12:00:00","4","23.2","-106.4166666","4.0","COLONIA JUAN CARRASCO MAZATLAN SIN., MX","FM-12","99999","V020","999,9,C,0000,1","22000,1,9,N","016000,1,N,1","+0156,1","+0136,1","10130,1","24,0000,9,1",,,,,"03,1,+08700,9,01,9",,,"03,99,1,00,1,00,1,99999,9,00,1,01,1",,"01,9","999,+0120,9","999,M,+0245,1","120,N,+0145,1","99999,9,10119,1","7,1,005,1,+999,9",,,"SYN118AAXX  09121 76458 32966 30000 10156 20136 30119 40130 57005 80001 91145 333 10245 20145 30012 56009 58/// 70000 83079;",
"76458099999","2001-03-09T15:00:00","4","23.2","-106.4166666","4.0","COLONIA JUAN CARRASCO MAZATLAN SIN., MX","FM-12","99999","V020","170,1,N,0010,1","22000,1,9,N","015000,1,N,1","+0166,1","+0133,1","10141,1","99,0000,9,1",,,,,"01,1,+06000,9,01,9",,,"01,99,1,00,1,00,1,99999,9,00,1,01,1",,"01,9",,,,"99999,9,10130,1","2,1,011,1,-020,1",,,"SYN100AAXX  09151 76458 32965 11701 10166 20133 30130 40141 52011 80001 91450 333 30/// 56009 59020 81070;","Q01  00002PRCP99"
"76458099999","2001-03-09T18:00:00","4","23.2","-106.4166666","4.0","COLONIA JUAN CARRASCO MAZATLAN SIN., MX","FM-12","99999","V020","160,1,N,0030,1","22000,1,9,N","010000,1,N,1","+0211,1","+0141,1","10146,1","99,0000,9,1",,,,,"02,1,+06000,9,01,9",,,"02,99,1,00,1,00,1,99999,9,00,1,06,1",,"01,9",,"120,M,+0230,1","240,N,+0135,1","99999,9,10136,1","1,1,006,1,-019,1",,,"SYN112AAXX  09181 76458 32960 21603 10211 20141 30136 40146 51006 80006 91750 333 10230 20135 30/// 56009 59019 82070;","Q01  00002PRCP99"
"76458099999","2001-03-09T21:00:00","4","23.2","-106.4166666","4.0","COLONIA JUAN CARRASCO MAZATLAN SIN., MX","FM-12","99999","V020","280,1,N,0040,1","06000,1,9,N","020000,1,N,1","+0200,1","+0156,1","10127,1","99,0000,9,1",,,,,"05,1,+06000,9,01,9",,,"05,99,1,00,1,00,1,99999,9,00,1,06,1",,"01,9",,,,"99999,9,10116,1","7,1,020,1,-017,1",,,"SYN094AAXX  09211 76458 32970 52804 10200 20156 30116 40127 57020 80006 92050 333 30/// 59017 85070;","Q01  00002PRCP99"
"76458099999","2001-03-10T00:00:00","4","23.2","-106.4166666","4.0","COLONIA JUAN CARRASCO MAZATLAN SIN., MX","FM-12","99999","V020","290,1,N,0040,1","22000,1,9,N","018000,1,N,1","+0206,1","+0163,1","10116,1","24,0000,9,1",,,,,"04,1,+06000,9,01,9",,,"04,99,1,00,1,00,1,99999,9,00,1,06,1",,"01,9",,"120,M,+0234,1","180,N,+0135,1","99999,9,10104,1","6,1,012,1,-013,1",,,"SYN118AAXX  10001 76458 32968 42904 10206 20163 30104 40116 56012 80006 92345 333 10234 20135 30/// 50401 59013 70000 84070;",
"76458099999","2001-03-10T03:00:00","4","23.2","-106.4166666","4.0","COLONIA JUAN CARRASCO MAZATLAN SIN., MX","FM-12","99999","V020","300,1,N,0020,1","22000,1,9,N","008000,1,N,1","+9999,9","+9999,9","99999,9","99,0000,9,1",,,,,"00,1,+99999,9,99,9",,,"00,99,1,00,1,00,1,99999,9,00,1,00,1",,"01,9",,,,,,,,"SYN081AAXX  10031 76458 32958 03002 1016 20158 30109 40120 52003 90250 333 30/// 59016;","Q01  00002PRCP99"
"76458099999","2001-03-10T06:00:00","4","23.2","-106.4166666","4.0","COLONIA JUAN CARRASCO MAZATLAN SIN., MX","FM-12","99999","V020","320,1,N,0020,1","22000,1,9,N","008000,1,N,1","+0178,1","+0153,1","10126,1","99,0000,9,1",,,,,"00,1,+99999,9,99,9",,,"00,99,1,00,1,00,1,99999,9,00,1,00,1","0630,9","01,9",,"240,M,+0234,1","240,N,+0135,1","99999,9,10115,1","2,1,005,1,-013,1",,,"SYN100AAXX  10061 76458 32958 03202 10178 20153 30115 40126 52005 90530 333 10234 20135 30/// 55105 59013;","Q01  00002PRCP99"
"76458099999","2001-03-10T09:00:00","4","23.2","-106.4166666","4.0","COLONIA JUAN CARRASCO MAZATLAN SIN., MX","FM-12","99999","V020","999,9,C,0000,1","22000,1,9,N","008000,1,N,1","+0160,1","+0144,1","10127,1","99,0000,9,1",,,"4,1,03,1","4,1,03,1","00,1,+99999,9,99,9",,,"00,99,1,00,1,00,1,99999,9,00,1,00,1",,"01,9",,,,"99999,9,10115,1","4,1,000,1,-009,1",,"05,1","SYN088AAXX  10091 76458 31958 00000 10160 20144 30115 40127 54000 70544 90845 333 30/// 59009;","Q01  00002PRCP99"
"76458099999","2001-03-10T12:00:00","4","23.2","-106.4166666","4.0","COLONIA JUAN CARRASCO MAZATLAN SIN., MX","FM-12","99999","V020","999,9,C,0000,1","22000,1,9,N","008000,1,N,1","+0172,1","+0156,1","10120,1","24,0000,9,1",,,"4,1,06,1","4,1,06,1","00,1,+99999,9,99,9",,,"00,99,1,00,1,00,1,99999,9,00,1,00,1",,"01,9","999,+0160,9","999,M,+0234,1","120,N,+0170,1","99999,9,10108,1","7,1,007,1,-011,1",,"05,1","SYN106AAXX  10121 76458 31958 00000 10172 20156 30108 40120 57007 70544 91140 333 10234 20170 30016 59011 70000;","Q01  00002PRCP24"
"76458099999","2001-03-10T15:00:00","4","23.2","-106.4166666","4.0","COLONIA JUAN CARRASCO MAZATLAN SIN., MX","FM-12","99999","V020","120,1,N,0020,1","22000,1,9,N","000200,1,N,1","+0146,1","+0139,1","10129,1","99,0000,9,1",,,"4,1,03,1","0,1,03,1","00,1,+99999,9,99,9",,,"00,99,1,00,1,00,1,99999,9,00,1,00,1",,"01,9",,,,"99999,9,10118,1","1,1,010,1,-012,1",,"05,1","SYN088AAXX  10151 76458 31902 01202 10146 20139 30118 40129 51010 70540 91445 333 30/// 59012;","Q01  00002PRCP99"
"76458099999","2001-03-10T18:00:00","4","23.2","-106.4166666","4.0","COLONIA JUAN CARRASCO MAZATLAN SIN., MX","FM-12","99999","V020","210,1,N,0030,1","03600,1,9,N","006000,1,N,1","+0201,1","+0157,1","10134,1","99,0000,9,1",,,"4,1,06,1","4,1,06,1","02,1,+00540,9,07,9",,,"05,99,1,02,1,06,1,00450,1,03,1,00,1",,"01,9",,"120,M,+0214,1","240,N,+0130,1","99999,9,10123,1","0,1,005,1,-013,1",,"05,1","SYN124AAXX  10181 76458 31456 52103 10201 20157 30123 40134 50005 70544 82630 91750 333 10214 20130 30/// 55690 59013 82718 83362;","Q01  00002PRCP99"
"76458099999","2001-03-10T21:00:00","4","23.2","-106.4166666","4.0","COLONIA JUAN CARRASCO MAZATLAN SIN., MX","FM-12","99999","V020","260,1,N,0030,1","09000,1,C,N","012000,1,N,1","+0202,1","+0162,1","10129,1","99,0000,9,1",,,,,"01,1,+01800,9,03,9",,,"07,99,1,01,1,00,1,02250,1,03,1,08,1",,"01,9",,,,"99999,9,10117,1","8,1,006,1,+001,1",,,"SYN106AAXX  10211 76458 32862 72603 10202 20162 30117 40129 58006 81038 92045 333 30/// 56099 58001 81356 86270;","Q01  00002PRCP99"
"76458099999","2001-03-11T00:00:00","4","23.2","-106.4166666","4.0","COLONIA JUAN CARRASCO MAZATLAN SIN., MX","FM-12","99999","V020","280,1,N,0030,1","22000,1,9,N","020000,1,N,1","+0208,1","+0165,1","10114,1","24,0000,9,1",,,,,"02,1,+01800,9,03,9",,,"03,99,1,02,1,00,1,99999,9,03,1,06,1",,"01,9",,"120,M,+0235,1","180,N,+0130,1","99999,9,10102,1","7,1,015,1,-002,1",,,"SYN124AAXX  11001 76458 32970 32803 10208 20165 30102 40114 57015 82036 92345 333 10235 20130 30/// 50381 59002 70000 82356 81070;",
"76458099999","2001-03-11T03:00:00","4","23.2","-106.4166666","4.0","COLONIA JUAN CARRASCO MAZATLAN SIN., MX","FM-12","99999","V020","130,1,N,0020,1","22000,1,9,N","016000,1,N,1","+0190,1","+0162,1","10118,1","99,0000,9,1",,,,,"03,1,+01800,9,07,9",,,"03,99,1,03,1,99,9,02250,1,05,1,00,1",,"01,9",,,,"99999,9,10106,1","2,1,004,1,-003,1",,,"SYN100AAXX  11031 76458 32866 31302 10190 20162 30106 40118 52004 83050 90245 333 30/// 56090 59003 83356;","Q01+000002SCOLCGQ02  00002PRCP99"
"76458099999","2001-03-11T06:00:00","4","23.2","-106.4166666","4.0","COLONIA JUAN CARRASCO MAZATLAN SIN., MX","FM-12","99999","V020","999,9,C,0000,1","00210,1,9,N","016000,1,N,1","+0180,1","+0160,1","10134,1","99,0000,9,1",,,,,,,,"06,99,1,06,1,04,1,00250,1,00,1,00,1","0372,9","01,9",,"240,M,+0235,1","240,N,+0130,1","99999,9,10123,1","2,1,016,1,+008,1",,,"SYN118AAXX  11061 76458 32366 60000 10180 20160 30123 40134 52016 86400 90545 333 10235 20130 30/// 55062 56500 58008 86609;","Q01  00002PRCP99"
"76458099999","2001-03-11T09:00:00","4","23.2","-106.4166666","4.0","COLONIA JUAN CARRASCO MAZATLAN SIN., MX","FM-12","99999","V020","140,1,N,0030,1","22000,1,9,N","008000,1,N,1","+0174,1","+0158,1","10125,1","99,0000,9,1",,,"4,1,03,1","4,1,03,1","00,1,+99999,9,99,9",,,"00,99,1,00,1,00,1,99999,9,00,1,00,1",,"01,9",,,,"99999,9,10113,1","7,1,010,1,-002,1",,"05,1","SYN088AAXX  11091 76458 31958 01403 10174 20158 30113 40125 57010 70544 90850 333 30/// 59002;","Q01  00002PRCP99"
"76458099999","2001-03-11T12:00:00","4","23.2","-106.4166666","4.0","COLONIA JUAN CARRASCO MAZATLAN SIN., MX","FM-12","99999","V020","140,1,N,0020,1","22000,1,9,N","008000,1,N,1","+0172,1","+0156,1","10123,1","24,0000,9,1",,,"4,1,06,1","4,1,06,1","03,1,+02700,9,07,9",,,"99,99,9,99,9,00,1,99999,9,03,1,00,1",,"01,9","999,+0140,9","999,M,+0235,1","120,N,+0152,1","99999,9,10114,1","2,1,001,1,+006,1",,"05,1","SYN124AAXX  11121 76458 31958 21402 10172 20156 30114 40123 52001 70544 80030 91145 333 10235 20152 30014 56090 58006 70000 83359;","Q01+000022SCOTCVQ02+000002SCOTLC"
"76458099999","2001-03-11T15:00:00","4","23.2","-106.4166666","4.0","COLONIA JUAN CARRASCO MAZATLAN SIN., MX","FM-12","99999","V020","110,1,N,0030,1","02400,1,9,N","016000,1,N,1","+0188,1","+0160,1","10148,1","99,0000,9,1",,,,,"06,1,+02400,9,07,9",,,"06,99,1,06,1,99,9,02250,1,05,1,00,1",,"01,9",,,,"99999,9,10136,1","2,1,022,1,+018,1",,,"SYN100AAXX  11151 76458 32866 61103 10188 20160 30136 40148 52022 86050 91450 333 30/// 56060 58018 86358;","Q01  00002PRCP99Q02    003SCOLCG"
"76458099999","2001-03-11T21:00:00","4","23.2","-106.4166666","4.0","COLONIA JUAN CARRASCO MAZATLAN SIN., MX","FM-12","99999","V020","170,1,N,0050,1","02400,1,9,N","020000,1,N,1","+0208,1","+0145,1","10147,1","99,0000,9,1",,,,,"08,1,+02400,9,01,9",,,"08,99,1,08,1,00,1,02250,1,02,1,00,1",,"01,9",,,,"99999,9,10135,1","7,1,009,1,+018,1",,,"SYN100AAXX  11211 76458 32870 81705 10208 20145 30135 40147 57009 88020 92045 333 30/// 56090 58018 88458;","Q01  00002PRCP99"
"76458099999","2001-03-12T00:00:00","4","23.2","-106.4166666","4.0","COLONIA JUAN CARRASCO MAZATLAN SIN., MX","FM-12","99999","V020","220,1,N,0030,1","02100,1,9,N","020000,1,N,1","+0208,1","+0141,1","10134,1","24,0000,9,1",,,,,,,,"08,99,1,08,1,00,1,02250,1,02,1,00,1",,"01,9",,"120,M,+0240,1","180,N,+0158,1","99999,9,10123,1","6,1,002,1,+021,1",,,"SYN124AAXX  12001 76458 32870 82203 10208 20141 30123 40134 56002 88020 92340 333 10240 20158 30/// 50241 56090 58021 70000 88458;","Q01  00002PRCP99Q02  00003PRCP99"
"76458099999","2001-03-12T03:00:00","4","23.2","-106.4166666","4.0","COLONIA JUAN CARRASCO MAZATLAN SIN., MX","FM-12","99999","V020","240,1,N,0020,1","02400,1,9,N","008000,1,N,1","+0198,1","+0172,1","10131,1","99,0000,9,1",,,,,"07,1,+02400,9,07,9",,,"07,99,1,99,9,99,9,99999,9,05,1,00,1",,"01,9",,,,"99999,9,10120,1","1,1,003,1,+013,1",,,"SYN100AAXX  12031 76458 32958 72402 10198 20172 30120 40131 51003 80050 90250 333 30/// 56090 58013 87358;","Q01+000002SCOTLCQ02  00002PRCP99Q03    003SCOLCG"
"76458099999","2001-03-12T12:00:00","4","23.2","-106.4166666","4.0","COLONIA JUAN CARRASCO MAZATLAN SIN., MX","FM-12","99999","V020","999,9,C,0000,1","02400,1,9,N","008000,1,N,1","+0170,1","+0154,1","10120,1","99,0000,9,1",,,,,"06,1,+02400,9,07,9",,,"06,99,1,99,9,99,9,99999,9,05,1,00,1",,"01,9","999,+0140,9","999,M,+0240,1","120,N,+0158,1","99999,9,10109,1","7,1,017,1,-002,1",,,"SYN112AAXX  12121 76458 32958 60000 10170 20154 30109 40120 57017 80050 91150 333 10240 20158 30014 56090 59002 86358;","Q01+000002SCOTLCQ02  00002PRCP99Q03    003SCOLCG"
"76458099999","2001-03-12T15:00:00","4","23.2","-106.4166666","4.0","COLONIA JUAN CARRASCO MAZATLAN SIN., MX","FM-12","99999","V020","350,1,N,0020,1","22000,1,9,N","012000,1,N,1","+0185,1","+0154,1","10140,1","99,0000,9,1",,,,,"02,1,+00390,9,06,9","03,1,+02700,9,03,9",,"04,99,1,02,1,04,1,00450,1,03,1,09,1",,"01,9",,,,"99999,9,10128,1","2,1,019,1,-008,1",,,"SYN112AAXX  12151 76458 32462 43502 10185 20154 30128 40140 52019 82439 91455 333 30/// 56669 59008 82613 83359 82169;","Q01  00002PRCP99"
"76458099999","2001-03-12T21:00:00","4","23.2","-106.4166666","4.0","COLONIA JUAN CARRASCO MAZATLAN SIN., MX","FM-12","99999","V020","290,1,N,0040,1","01800,1,9,N","020000,1,N,1","+0218,1","+0163,1","10139,1","99,0000,9,1",,,,,"07,1,+01800,9,07,9",,,"07,99,1,07,1,99,9,02250,1,03,1,00,1",,"01,9",,,,"99999,9,10128,1","7,1,013,1,+003,1",,,"SYN100AAXX  12211 76458 32870 72904 10218 20163 30128 40139 57013 87030 92050 333 30/// 56090 58003 87356;","Q01+000002SCOLCGQ02  00002PRCP99"
"76458099999","2001-03-13T00:00:00","4","23.2","-106.4166666","4.0","COLONIA JUAN CARRASCO MAZATLAN SIN., MX","FM-12","99999","V020","310,1,N,0040,1","02100,1,9,N","018000,1,N,1","+0204,1","+0158,1","10135,1","24,0000,9,1",,,,,"04,1,+01800,9,03,9",,,"07,99,1,07,1,00,1,02250,1,03,1,00,1",,"01,9",,"120,M,+0240,1","180,N,+0158,1","99999,9,10123,1","5,1,005,1,+000,1",,,"SYN130AAXX  13001 76458 32868 73104 10204 20158 30123 40135 55005 87030 92345 333 10240 20158 30/// 50211 56090 58000 70000 84356 83458;","Q01  00002PRCP99Q02  00003PRCP99"
"76458099999","2001-03-13T03:00:00","4","23.2","-106.4166666","4.0","COLONIA JUAN CARRASCO MAZATLAN SIN., MX","FM-12","99999","V020","340,1,N,0050,1","01800,1,9,N","008000,1,N,1","+0196,1","+0155,1","10133,1","99,0000,9,1",,,,,"07,1,+01800,9,07,9",,,"07,99,1,99,9,99,9,99999,9,05,1,00,1",,"01,9",,,,"99999,9,10121,1","4,1,000,1,+001,1",,,"SYN100AAXX  13031 76458 32958 73405 10196 20155 30121 40133 54002 80050 90245 333 30/// 56090 58001 87356;","Q01+000002SCOTLCQ02+000002SCOLCGQ03  00002PRCP99"
"76458099999","2001-03-13T06:00:00","4","23.2","-106.4166666","4.0","COLONIA JUAN CARRASCO MAZATLAN SIN., MX","FM-12","99999","V020","340,1,N,0030,1","99999,9,9,N","008000,1,N,1","+0188,1","+0163,1","10138,1","99,0000,9,1",,,"4,1,06,1","4,1,06,1",,,,"05,99,1,99,9,00,1,99999,9,03,1,00,1","0306,9","01,9",,"240,M,+0240,1","240,N,+0158,1","99999,9,10126,1","2,1,005,1,+001,1",,"05,1","SYN124AAXX  13061 76458 31958 53403 10188 20163 30126 40138 52005 70544 80030 90540 333 10240 20158 30/// 55051 56090 58001 85358;","Q01+000002SCOTLCQ02  00002PRCP99"
"76458099999","2001-03-13T09:00:00","4","23.2","-106.4166666","4.0","COLONIA JUAN CARRASCO MAZATLAN SIN., MX","FM-12","99999","V020","330,1,N,0020,1","22000,1,9,N","008000,1,N,1","+0180,1","+0151,1","10138,1","99,0000,9,1",,,,,"02,1,+02400,9,07,9",,,"02,99,1,99,9,99,9,99999,9,03,1,00,1",,"01,9",,,,"99999,9,10127,1","2,1,001,1,+011,1",,,"SYN100AAXX  13091 76458 32958 23302 10180 20151 30127 40138 52001 80030 90850 333 30/// 56090 58011 82358;","Q01+000002SCOTLCQ02  00002PRCP99Q03    003SCOLCG"
"76458099999","2001-03-13T12:00:00","4","23.2","-106.4166666","4.0","COLONIA JUAN CARRASCO MAZATLAN SIN., MX","FM-12","99999","V020","340,1,N,0010,1","22000,1,9,N","008000,1,N,1","+0166,1","+0136,1","10127,1","99,0000,9,1",,,,,"00,1,+99999,9,99,9",,,"00,99,1,00,1,00,1,99999,9,00,1,00,1",,"01,9","999,+0140,9","999,M,+0240,1","120,N,+0158,1","99999,9,10116,1","7,1,011,1,+007,1",,,"SYN094AAXX  13121 76458 32958 03401 10166 20136 30116 40127 57011 91140 333 10240 20158 30014 58007;","Q01  00002PRCP99"
"76458099999","2001-03-13T15:00:00","4","23.2","-106.4166666","4.0","COLONIA JUAN CARRASCO MAZATLAN SIN., MX","FM-12","99999","V020","020,1,N,0020,1","04200,1,9,N","015000,1,N,1","+0182,1","+0147,1","10144,1","99,0000,9,1",,,,,"05,1,+04200,9,03,9",,,"07,99,1,05,1,00,1,02250,1,03,1,08,1",,"01,9",,,,"99999,9,10133,1","2,1,017,1,+005,1",,,"SYN106AAXX  13151 76458 32865 70202 10182 20147 30133 40144 52017 85038 91450 333 30/// 56099 58005 85364 82268;","Q01  00002PRCP99"
"76458099999","2001-03-13T18:00:00","4","23.2","-106.4166666","4.0","COLONIA JUAN CARRASCO MAZATLAN SIN., MX","FM-12","99999","V020","270,1,N,0050,1","03600,1,9,N","018000,1,N,1","+0204,1","+0147,1","10157,1","99,0000,9,1",,,,,"05,1,+03600,9,03,9",,,"06,99,1,05,1,00,1,02250,1,03,1,09,1",,"01,9",,"120,M,+0218,1","240,N,+0149,1","99999,9,10145,1","0,1,012,1,+004,1",,,"SYN118AAXX  13181 76458 32868 62705 10204 20147 30145 40157 50012 85039 91750 333 10218 20149 30/// 56099 58004 85362 81170;","Q01  00002PRCP99"
"76458099999","2001-03-13T21:00:00","4","23.2","-106.4166666","4.0","COLONIA JUAN CARRASCO MAZATLAN SIN., MX","FM-12","99999","V020","290,1,N,0060,1","22000,1,9,N","020000,1,N,1","+0214,1","+0144,1","10137,1","99,0000,9,1",,,,,"03,1,+02400,9,03,9",,,"04,99,1,03,1,00,1,02250,1,05,1,01,1",,"01,9",,,,"99999,9,10126,1","7,1,020,1,-002,1",,,"SYN106AAXX  13211 76458 32870 42906 10214 20144 30126 40137 57020 83051 92045 333 30/// 56059 59002 83358 81079;","Q01  00002PRCP99"
"76458099999","2001-03-14T00:00:00","4","23.2","-106.4166666","4.0","COLONIA JUAN CARRASCO MAZATLAN SIN., MX","FM-12","99999","V020","290,1,N,0060,1","02100,1,9,N","020000,1,N,1","+0203,1","+0146,1","10126,1","24,0000,9,1",,,,,,,,"07,99,1,07,1,00,1,02250,1,05,1,00,1",,"01,9",,"120,M,+0233,1","180,N,+0149,1","99999,9,10114,1","7,1,012,1,-009,1",,,"SYN124AAXX  14001 76458 32870 72906 10203 20146 30114 40126 57012 87050 92355 333 10233 20149 30/// 54040 56050 59009 70000 87358;","Q01  00002PRCP99Q02  00003PRCP99"
"76458099999","2001-03-14T03:00:00","4","23.2","-106.4166666","4.0","COLONIA JUAN CARRASCO MAZATLAN SIN., MX","FM-12","99999","V020","310,1,N,0050,1","02400,1,9,N","008000,1,N,1","+0188,1","+0147,1","10127,1","99,0000,9,1",,,,,"07,1,+02400,9,07,9",,,"07,99,1,99,9,99,9,99999,9,05,1,00,1",,"01,9",,,,"99999,9,10115,1","4,1,000,1,-006,1",,,"SYN100AAXX  14031 76458 32958 73105 10188 20147 30115 40127 54001 80050 90248 333 30/// 56090 59006 87358;","Q01+000002SCOTLCQ02  00002PRCP99Q03    003SCOLCG"
"76458099999","2001-03-14T06:00:00","4","23.2","-106.4166666","4.0","COLONIA JUAN CARRASCO MAZATLAN SIN., MX","FM-12","99999","V020","320,1,N,0040,1","99999,9,9,N","008000,1,N,1","+0182,1","+0136,1","10139,1","99,0000,9,1",,,,,,,,"08,99,1,99,9,00,1,99999,9,04,1,00,1","0378,9","01,9",,"240,M,+0233,1","240,N,+0149,1","99999,9,10128,1","2,1,013,1,-001,1",,,"SYN118AAXX  14061 76458 32958 83204 10182 20136 30128 40139 52013 80040 90540 333 10233 20149 30/// 55063 56090 59001 88357;","Q01+000002SCOTLCQ02  00002PRCP99"
"76458099999","2001-03-14T12:00:00","4","23.2","-106.4166666","4.0","COLONIA JUAN CARRASCO MAZATLAN SIN., MX","FM-12","99999","V020","330,1,N,0020,1","22000,1,9,N","008000,1,N,1","+0170,1","+0116,1","10138,1","24,0000,9,1",,,,,"04,1,+02400,9,07,9",,,"04,99,1,99,9,99,9,00450,1,03,1,00,1",,"01,9","999,+0140,9","999,M,+0233,1","120,N,+0159,1","99999,9,10126,1","7,1,004,1,+010,1",,,"SYN118AAXX  14121 76458 32458 43302 10170 20116 30126 40138 57004 80030 91140 333 10233 20159 30014 56040 58010 70000 84358;","Q01+000002SCOTLCQ02    003SCOLCG"
"76458099999","2001-03-14T15:00:00","4","23.2","-106.4166666","4.0","COLONIA JUAN CARRASCO MAZATLAN SIN., MX","FM-12","99999","V020","300,1,N,0030,1","22000,1,9,N","015000,1,N,1","+0168,1","+0096,1","10151,1","99,0000,9,1",,,,,"02,1,+03600,9,03,9",,,"04,99,1,02,1,00,1,02250,1,03,1,06,1",,"01,9",,,,"99999,9,10139,1","2,1,012,1,+006,1",,,"SYN100AAXX  14151 76458 32865 43003 10168 20096 30139 40151 52012 82036 91450 333 30/// 58006 82362 82068;","Q01  00002PRCP99"
"76458099999","2001-03-14T18:00:00","4","23.2","-106.4166666","4.0","COLONIA JUAN CARRASCO MAZATLAN SIN., MX","FM-12","99999","V020","290,1,N,0060,1","05400,1,9,N","018000,1,N,1","+0203,1","+0120,1","10155,1","99,0000,9,1",,,,,"06,1,+05400,9,08,9",,,"06,99,1,99,9,00,1,99999,9,00,1,08,1",,"01,9",,"120,M,+0218,1","240,N,+0145,1","99999,9,10144,1","0,1,005,1,-001,1",,,"SYN112AAXX  14181 76458 32968 62906 10203 20120 30144 40155 50005 80008 91750 333 10218 20145 30/// 56009 59001 86268;","Q01+000002SCOTLCQ02  00002PRCP99"
"76458099999","2001-03-14T21:00:00","4","23.2","-106.4166666","4.0","COLONIA JUAN CARRASCO MAZATLAN SIN., MX","FM-12","99999","V020","300,1,N,0080,1","06000,1,9,N","018000,1,N,1","+0206,1","+0130,1","10130,1","99,0000,9,1",,,,,"06,1,+06000,9,01,9",,,"06,99,1,00,1,00,1,99999,9,00,1,06,1",,"01,9",,,,"99999,9,10118,1","7,1,026,1,-008,1",,,"SYN094AAXX  14211 76458 32968 63008 10206 20130 30118 40130 57026 80006 92045 333 30/// 59008 86070;","Q01  00002PRCP99"
"76458099999","2001-03-15T00:00:00","4","23.2","-106.4166666","4.0","COLONIA JUAN CARRASCO MAZATLAN SIN., MX","FM-12","99999","V020","290,1,N,0070,1","06000,1,9,N","018000,1,N,1","+0194,1","+0125,1","10117,1","24,0000,9,1",,,,,"06,1,+06000,9,01,9",,,"06,99,1,00,1,00,1,99999,9,00,1,06,1",,"01,9",,"120,M,+0222,1","180,N,+0145,1","99999,9,10106,1","7,1,012,1,-008,1",,,"SYN118AAXX  15001 76458 32968 62907 10194 20125 30106 40117 57012 80006 92345 333 10222 20145 30/// 50441 59008 70000 86070;",
"76458099999","2001-03-15T03:00:00","4","23.2","-106.4166666","4.0","COLONIA JUAN CARRASCO MAZATLAN SIN., MX","FM-12","99999","V020","320,1,N,0040,1","22000,1,9,N","008000,1,N,1","+0184,1","+0128,1","10117,1","99,0000,9,1",,,,,"03,1,+08400,9,01,9",,,"03,99,1,00,1,00,1,99999,9,00,1,02,1",,"01,9",,,,"99999,9,10105,1","4,1,000,1,-010,1",,,"SYN094AAXX  15031 76458 32958 33204 10184 20128 30105 40117 54001 80002 90345 333 30/// 59010 83078;","Q01  00002PRCP99"
"76458099999","2001-03-15T06:00:00","4","23.2","-106.4166666","4.0","COLONIA JUAN CARRASCO MAZATLAN SIN., MX","FM-12","99999","V020","330,1,N,0050,1","22000,1,9,N","008000,1,N,1","+0174,1","+0138,1","10116,1","99,0000,9,1",,,"4,1,06,1","4,1,06,1","00,1,+99999,9,99,9",,,"00,99,1,00,1,00,1,99999,9,00,1,00,1","0498,9","01,9",,"240,M,+0222,1","240,N,+0145,1","99999,9,10105,1","4,1,000,1,-023,1",,"05,1","SYN106AAXX  15061 76458 31958 03305 10174 20138 30105 40116 54000 70544 90530 333 10222 20145 30/// 55083 59023;","Q01  00002PRCP99"
"76458099999","2001-03-15T12:00:00","4","23.2","-106.4166666","4.0","COLONIA JUAN CARRASCO MAZATLAN SIN., MX","FM-12","99999","V020","999,9,C,0000,1","22000,1,9,N","008000,1,N,1","+0149,1","+0127,1","10101,1","99,0000,9,1",,,,,"00,1,+99999,9,99,9",,,"00,99,1,00,1,00,1,99999,9,00,1,00,1",,"01,9",,,,"99999,9,10090,1","7,1,014,1,-041,1",,,"SYN082AAXX  15120 76458 32958 00000 10149 20127 30090 40101 57014 90848 333 30/// 59041;","Q01  00002PRCP99"
"76458099999","2001-03-15T15:00:00","4","23.2","-106.4166666","4.0","COLONIA JUAN CARRASCO MAZATLAN SIN., MX","FM-12","99999","V020","120,1,N,0020,1","22000,1,9,N","012000,1,N,1","+0163,1","+0118,1","10111,1","99,0000,9,1",,,,,"03,1,+06000,9,01,9",,,"03,99,1,00,1,00,1,99999,9,00,1,06,1",,"01,9",,,,"99999,9,10099,1","2,1,014,1,-040,1",,,"SYN100AAXX  15151 76458 32962 31202 10163 20118 30099 40111 52014 80006 91450 333 30/// 56009 59040 83070;","Q01  00002PRCP99"
"76458099999","2001-03-15T21:00:00","4","23.2","-106.4166666","4.0","COLONIA JUAN CARRASCO MAZATLAN SIN., MX","FM-12","99999","V020","260,1,N,0030,1","22000,1,9,N","015000,1,N,1","+0204,1","+0144,1","10101,1","99,0000,9,1",,,,,"03,1,+06000,9,01,9",,,"03,99,1,00,1,00,1,99999,9,00,1,06,1",,"01,9",,,,"99999,9,10090,1","7,1,013,1,-028,1",,,"SYN094AAXX  15211 76458 32965 32603 10204 20144 30090 40101 57013 80006 92045 333 30/// 59028 83070;","Q01  00002PRCP99"
"76458099999","2001-03-16T00:00:00","4","23.2","-106.4166666","4.0","COLONIA JUAN CARRASCO MAZATLAN SIN., MX","FM-12","99999","V020","290,1,N,0040,1","06000,1,9,N","020000,1,N,1","+0210,1","+0147,1","10102,1","24,0000,9,1",,,,,"06,1,+06000,9,01,9",,,"06,99,1,00,1,00,1,99999,9,00,1,06,1",,"01,9",,"120,M,+0230,1","180,N,+0121,1","99999,9,10090,1","5,1,000,1,-012,1",,,"SYN118AAXX  16001 76458 32970 62904 10210 20147 30090 40102 55000 80006 92345 333 10230 20121 30/// 50371 59012 70000 86070;",
"76458099999","2001-03-16T03:00:00","4","23.2","-106.4166666","4.0","COLONIA JUAN CARRASCO MAZATLAN SIN., MX","FM-12","99999","V020","310,1,N,0020,1","22000,1,9,N","008000,1,N,1","+0190,1","+0152,1","10103,1","99,0000,9,1",,,,,"00,1,+99999,9,99,9",,,"00,99,1,00,1,00,1,99999,9,00,1,00,1",,"01,9",,,,"99999,9,10092,1","7,1,002,1,-013,1",,,"SYN082AAXX  16031 76458 32958 03102 10190 20152 30092 40103 57002 90250 333 30/// 59013;","Q01  00002PRCP99"
"76458099999","2001-03-16T06:00:00","4","23.2","-106.4166666","4.0","COLONIA JUAN CARRASCO MAZATLAN SIN., MX","FM-12","99999","V020","320,1,N,0020,1","22000,1,9,N","008000,1,N,1","+0179,1","+0162,1","10116,1","99,0000,9,1",,,,,"00,1,+99999,9,99,9",,,"00,99,1,00,1,00,1,99999,9,00,1,00,1","0540,9","01,9",,"240,M,+0230,1","240,N,+0121,1","99999,9,10105,1","2,1,013,1,+002,1",,,"SYN100AAXX  16061 76458 32958 03202 10179 20162 30105 40116 52013 90545 333 10230 20121 30/// 55090 58002;","Q01  00002PRCP99"
"76458099999","2001-03-16T15:00:00","4","23.2","-106.4166666","4.0","COLONIA JUAN CARRASCO MAZATLAN SIN., MX","FM-12","99999","V020","130,1,N,0030,1","22000,1,9,N","006000,1,N,1","+0162,1","+0141,1","10119,1","99,0000,9,1",,,"4,1,03,1","4,1,03,1","02,1,+06000,9,01,9",,,"02,99,1,00,1,00,1,99999,9,00,1,01,1",,"01,9",,,,"99999,9,10107,1","2,1,009,1,+008,1",,"05,1","SYN106AAXX  16151 76458 31956 21303 10162 20141 30107 40119 52009 70544 80001 91450 333 30/// 56009 58008 82070;","Q01  00002PRCP99"
"76458099999","2001-03-16T21:00:00","4","23.2","-106.4166666","4.0","COLONIA JUAN CARRASCO MAZATLAN SIN., MX","FM-12","99999","V020","230,1,N,0040,1","22000,1,9,N","018000,1,N,1","+0214,1","+0152,1","10114,1","99,0000,9,1",,,,,"04,1,+01800,9,07,9",,,"04,99,1,04,1,99,9,02250,1,03,1,00,1",,"01,9",,,,"99999,9,10103,1","7,1,005,1,+012,1",,,"SYN100AAXX  16211 76458 32868 42304 10214 20152 30103 40114 57005 84030 92055 333 30/// 56090 58012 84356;","Q01+000002SCOLCGQ02  00002PRCP99"
"76458099999","2001-03-17T00:00:00","4","23.2","-106.4166666","4.0","COLONIA JUAN CARRASCO MAZATLAN SIN., MX","FM-12","99999","V020","220,1,N,0030,1","02400,1,C,N","018000,1,N,1","+0210,1","+0151,1","10102,1","24,0000,9,1",,,,,"03,1,+01800,9,03,9","03,1,+02400,9,04,9",,"07,99,1,06,1,00,1,02250,1,02,1,01,1",,"01,9",,"120,M,+0235,1","180,N,+0120,1","99999,9,10090,1","7,1,013,1,+000,1",,,"SYN136AAXX  17001 76458 32868 72203 10210 20151 30090 40102 57013 86021 92340 333 10235 20120 30/// 50341 56099 58000 70000 83458 83356 81070;","Q01  00002PRCP99Q02  00003PRCP99"
"76458099999","2001-03-17T03:00:00","4","23.2","-106.4166666","4.0","COLONIA JUAN CARRASCO MAZATLAN SIN., MX","FM-12","99999","V020","120,1,N,0020,1","02700,1,9,N","008000,1,N,1","+0196,1","+0159,1","10106,1","99,0000,9,1",,,,,"06,1,+02700,9,07,9",,,"06,99,1,99,9,00,1,99999,9,03,1,00,1",,"01,9",,,,"99999,9,10095,1","2,1,005,1,+003,1",,,"SYN100AAXX  17031 76458 32958 61202 10196 20159 30095 40106 52005 80030 90245 333 30/// 56009 58003 86359;","Q01+000002SCOTLCQ02  00002PRCP99"
"76458099999","2001-03-17T12:00:00","4","23.2","-106.4166666","4.0","COLONIA JUAN CARRASCO MAZATLAN SIN., MX","FM-12","99999","V020","999,9,C,0000,1","22000,1,9,N","008000,1,N,1","+0156,1","+0140,1","10127,1","99,0000,9,1",,,,,"00,1,+99999,9,99,9",,,"00,99,1,00,1,00,1,99999,9,00,1,00,1",,"01,9","999,+0380,9","999,M,+0235,1","120,N,+0138,1","99999,9,10116,1","2,1,002,1,+999,9",,,"SYN094AAXX  17121 76458 32958 00000 10156 20140 30116 40127 52002 91140 333 10235 20138 30038 58///;","Q01  00002PRCP99"
"76458099999","2001-03-17T15:00:00","4","23.2","-106.4166666","4.0","COLONIA JUAN CARRASCO MAZATLAN SIN., MX","FM-12","99999","V020","999,9,C,0000,1","22000,1,9,N","018000,1,N,1","+0178,1","+0143,1","10138,1","99,0000,9,1",,,,,"00,1,+99999,9,99,9",,,"00,99,1,00,1,00,1,99999,9,00,1,00,1",,"01,9",,,,"99999,9,10127,1","2,1,011,1,+020,1",,,"SYN082AAXX  17151 76458 32968 00000 10178 20143 30127 40138 52011 91450 333 30/// 58020;","Q01  00002PRCP99"
"76458099999","2001-03-17T18:00:00","4","23.2","-106.4166666","4.0","COLONIA JUAN CARRASCO MAZATLAN SIN., MX","FM-12","99999","V020","190,1,N,0030,1","22000,1,9,N","018000,1,N,1","+0224,1","+0147,1","10152,1","99,0000,9,1",,,,,"00,1,+99999,9,99,9",,,"00,99,1,00,1,00,1,99999,9,00,1,00,1",,"01,9",,"120,M,+0240,1","240,N,+0137,1","99999,9,10140,1","1,1,012,1,+032,1",,,"SYN094AAXX  17181 76458 32968 01903 10224 20147 30140 40152 51012 91750 333 10240 20137 30/// 58032;","Q01  00002PRCP99"
"76458099999","2001-03-17T21:00:00","4","23.2","-106.4166666","4.0","COLONIA JUAN CARRASCO MAZATLAN SIN., MX","FM-12","99999","V020","230,1,N,0050,1","22000,1,9,N","025000,1,N,1","+0216,1","+0154,1","10135,1","99,0000,9,1",,,,,"00,1,+99999,9,99,9",,,"00,99,1,00,1,00,1,99999,9,00,1,00,1",,"01,9",,,,"99999,9,10123,1","7,1,012,1,+025,1",,,"SYN082AAXX  17211 76458 32975 02305 10216 20154 30123 40135 57012 92040 333 30/// 58025;","Q01  00002PRCP99"
"76458099999","2001-03-18T00:00:00","4","23.2","-106.4166666","4.0","COLONIA JUAN CARRASCO MAZATLAN SIN., MX","FM-12","99999","V020","300,1,N,0040,1","22000,1,9,N","028000,1,N,1","+0212,1","+0149,1","10125,1","24,0000,9,1",,,,,,,,"02,99,1,02,1,04,1,00450,1,00,1,00,1",,"01,9",,"120,M,+0240,1","180,N,+0137,1","99999,9,10112,1","7,1,009,1,+022,1",,,"SYN124AAXX  18001 76458 32478 23004 10212 20149 30112 40125 57009 82400 92350 333 10240 20137 30/// 50625 56300 58022 70000 82626;","Q01  00002PRCP99Q02  00003PRCP99"
"76458099999","2001-03-18T03:00:00","4","23.2","-106.4166666","4.0","COLONIA JUAN CARRASCO MAZATLAN SIN., MX","FM-12","99999","V020","300,1,N,0030,1","22000,1,9,N","008000,1,N,1","+0198,1","+0154,1","10129,1","99,0000,9,1",,,,,"00,1,+99999,9,99,9",,,"00,99,1,00,1,00,1,99999,9,00,1,00,1",,"01,9",,,,"99999,9,10118,1","2,1,006,1,+023,1",,,"SYN082AAXX  18031 76458 32958 03003 10198 20154 30118 40129 52006 90245 333 30/// 58023;","Q01  00002PRCP99"
"76458099999","2001-03-18T06:00:00","4","23.2","-106.4166666","4.0","COLONIA JUAN CARRASCO MAZATLAN SIN., MX","FM-12","99999","V020","999,9,C,0000,1","22000,1,9,N","008000,1,N,1","+0192,1","+0154,1","10134,1","99,0000,9,1",,,,,"00,1,+99999,9,99,9",,,"00,99,1,00,1,00,1,99999,9,00,1,00,1",,"01,9",,"240,M,+0240,1","240,N,+0137,1","99999,9,10123,1","2,1,005,1,+015,1",,,"SYN094AAXX  18061 76458 32958 00000 10192 20154 30123 40134 52005 90545 333 10240 20137 30/// 58015;","Q01  00002PRCP99"
"76458099999","2001-03-18T09:00:00","4","23.2","-106.4166666","4.0","COLONIA JUAN CARRASCO MAZATLAN SIN., MX","FM-12","99999","V020","330,1,N,0030,1","22000,1,9,N","000800,1,N,1","+0164,1","+0151,1","10128,1","99,0000,9,1",,,"0,1,03,1","0,1,03,1","00,1,+99999,9,99,9",,,"00,99,1,00,1,00,1,99999,9,00,1,00,1",,"01,9",,,,"99999,9,10117,1","7,1,006,1,+003,1",,"40,1","SYN088AAXX  18091 76458 31908 03303 10164 20151 30117 40128 57006 74000 90850 333 30/// 58003;","Q01  00002PRCP99"
"76458099999","2001-03-18T12:00:00","4","23.2","-106.4166666","4.0","COLONIA JUAN CARRASCO MAZATLAN SIN., MX","FM-12","99999","V020","350,1,N,0020,1","22000,1,9,N","008000,1,N,1","+0152,1","+0144,1","10127,1","24,0000,9,1",,,,,"00,1,+99999,9,99,9",,,"00,99,1,00,1,00,1,99999,9,00,1,00,1",,"01,9","999,+0120,9","999,M,+0240,1","120,N,+0148,1","99999,9,10116,1","5,1,001,1,+000,1",,,"SYN100AAXX  18121 76458 32958 03502 10152 20144 30116 40127 55001 91145 333 10240 20148 30012 59000 70000;","Q01  00002PRCP24"
"76458099999","2001-03-18T15:00:00","4","23.2","-106.4166666","4.0","COLONIA JUAN CARRASCO MAZATLAN SIN., MX","FM-12","99999","V020","999,9,C,0000,1","22000,1,9,N","000800,1,N,1","+0172,1","+0158,1","10139,1","99,0000,9,1",,,"4,1,03,1","0,1,03,1","00,1,+99999,9,99,9",,,"00,99,1,00,1,00,1,99999,9,00,1,00,1",,"01,9",,,,"99999,9,10128,1","2,1,012,1,-001,1",,"46,1","SYN088AAXX  18151 76458 31908 00000 10172 20158 30128 40139 52012 74640 91445 333 30/// 59001;","Q01  00002PRCP99"
"76458099999","2001-03-18T18:00:00","4","23.2","-106.4166666","4.0","COLONIA JUAN CARRASCO MAZATLAN SIN., MX","FM-12","99999","V020","270,1,N,0040,1","22000,1,9,N","020000,1,N,1","+0192,1","+0158,1","10151,1","99,0000,9,1",,,,,"00,1,+99999,9,99,9",,,"00,99,1,00,1,00,1,99999,9,00,1,00,1",,"01,9",,"120,M,+0219,1","240,N,+0137,1","99999,9,10140,1","0,1,012,1,+000,1",,,"SYN094AAXX  18181 76458 32970 02704 10192 20158 30140 40151 50012 91740 333 10219 20137 30/// 58000;","Q01  00002PRCP99"
"76458099999","2001-03-18T21:00:00","4","23.2","-106.4166666","4.0","COLONIA JUAN CARRASCO MAZATLAN SIN., MX","FM-12","99999","V020","280,1,N,0050,1","22000,1,9,N","025000,1,N,1","+0210,1","+0164,1","10139,1","99,0000,9,1",,,,,"00,1,+99999,9,99,9",,,"00,99,1,00,1,00,1,99999,9,00,1,00,1",,"01,9",,,,"99999,9,10128,1","7,1,012,1,+005,1",,,"SYN082AAXX  18211 76458 32975 02805 10210 20164 30128 40139 57012 92040 333 30/// 58005;","Q01  00002PRCP99"
"76458099999","2001-03-19T00:00:00","4","23.2","-106.4166666","4.0","COLONIA JUAN CARRASCO MAZATLAN SIN., MX","FM-12","99999","V020","300,1,N,0050,1","22000,1,9,N","028000,1,N,1","+0216,1","+0164,1","10129,1","24,0000,9,1",,,,,"00,1,+99999,9,99,9",,,"00,99,1,00,1,00,1,99999,9,00,1,00,1",,"01,9",,"120,M,+0225,1","180,N,+0137,1","99999,9,10107,1","7,1,021,1,-005,1",,,"SYN106AAXX  19001 76458 32978 03005 10216 20164 30107 40129 57021 92350 333 10225 20137 30/// 50368 59005 70000;","Q01  00002PRCP24"
"76458099999","2001-03-19T03:00:00","4","23.2","-106.4166666","4.0","COLONIA JUAN CARRASCO MAZATLAN SIN., MX","FM-12","99999","V020","310,1,N,0040,1","22000,1,9,N","008000,1,N,1","+0208,1","+0162,1","10123,1","99,0000,9,1",,,,,"00,1,+99999,9,99,9",,,"00,99,1,00,1,00,1,99999,9,00,1,00,1",,"01,9",,,,"99999,9,10111,1","7,1,010,1,-007,1",,,"SYN082AAXX  19031 76458 32958 03104 10208 20162 30111 40123 57010 90245 333 30/// 59007;","Q01  00002PRCP99"
"76458099999","2001-03-19T12:00:00","4","23.2","-106.4166666","4.0","COLONIA JUAN CARRASCO MAZATLAN SIN., MX","FM-12","99999","V020","999,9,C,0000,1","22000,1,9,N","008000,1,N,1","+0158,1","+0128,1","10100,1","99,0000,9,1",,,,,"00,1,+99999,9,99,9",,,"00,99,1,00,1,00,1,99999,9,00,1,00,1",,"01,9","999,+0120,9","999,M,+0225,1","120,N,+0138,1","99999,9,10089,1","7,1,006,1,-026,1",,,"SYN094AAXX  19121 76458 32958 00000 10158 20128 30089 40100 57006 91140 333 10225 20138 30012 59026;","Q01  00002PRCP99"
"76458099999","2001-03-19T15:00:00","4","23.2","-106.4166666","4.0","COLONIA JUAN CARRASCO MAZATLAN SIN., MX","FM-12","99999","V020","140,1,N,0030,1","22000,1,9,N","012000,1,N,1","+0183,1","+0145,1","10125,1","99,0000,9,1",,,,,"00,1,+99999,9,99,9",,,"00,99,1,00,1,00,1,99999,9,00,1,00,1",,"01,9",,,,"99999,9,10113,1","2,1,024,1,-014,1",,,"SYN082AAXX  19151 76458 32962 01403 10183 20145 30113 40125 52024 91445 333 30/// 59014;","Q01  00002PRCP99"
"76458099999","2001-03-19T18:00:00","4","23.2","-106.4166666","4.0","COLONIA JUAN CARRASCO MAZATLAN SIN., MX","FM-12","99999","V020","180,1,N,0030,1","22000,1,9,N","008000,1,N,1","+0224,1","+0158,1","10123,1","99,0000,9,1",,,"4,1,06,1","0,1,06,1","00,1,+99999,9,99,9",,,"00,99,1,00,1,00,1,99999,9,00,1,00,1",,"01,9",,"120,M,+0245,1","240,N,+0139,1","99999,9,10112,1","0,1,002,1,-028,1",,"05,1","SYN100AAXX  19181 76458 31958 01803 10224 20158 30112 40123 50002 70540 91745 333 10245 20139 30/// 59028;","Q01  00002PRCP99"
"76458099999","2001-03-19T21:00:00","4","23.2","-106.4166666","4.0","COLONIA JUAN CARRASCO MAZATLAN SIN., MX","FM-12","99999","V020","260,1,N,0040,1","22000,1,9,N","012000,1,N,1","+0222,1","+0150,1","10101,1","99,0000,9,1",,,,,"00,1,+99999,9,99,9",,,"00,99,1,00,1,00,1,99999,9,00,1,00,1",,"01,9",,,,"99999,9,10098,1","7,1,014,1,-030,1",,,"SYN082AAXX  19211 76458 32962 02604 10222 20150 30098 40101 57014 92050 333 30/// 59030;","Q01  00002PRCP99"
"76458099999","2001-03-20T00:00:00","4","23.2","-106.4166666","4.0","COLONIA JUAN CARRASCO MAZATLAN SIN., MX","FM-12","99999","V020","300,1,N,0040,1","22000,1,9,N","018000,1,N,1","+0220,1","+0148,1","10097,1","24,0000,9,1",,,,,"00,1,+99999,9,99,9",,,"00,99,1,00,1,00,1,99999,9,00,1,00,1",,"01,9",,"120,M,+0242,1","180,N,+0139,1","99999,9,10085,1","7,1,013,1,-022,1",,,"SYN106AAXX  20001 76458 32968 03004 10220 20148 30085 40097 57013 92348 333 10242 20139 30/// 50418 59022 70000;","Q01  00002PRCP24"
"76458099999","2001-03-20T12:00:00","4","23.2","-106.4166666","4.0","COLONIA JUAN CARRASCO MAZATLAN SIN., MX","FM-12","99999","V020","999,9,C,0000,1","22000,1,9,N","008000,1,N,1","+0176,1","+0164,1","10118,1","99,0000,9,1",,,,,"00,1,+99999,9,99,9",,,"00,99,1,00,1,00,1,99999,9,00,1,00,1",,"01,9",,,,"99999,9,10107,1","2,1,004,1,+012,1",,,"SYN082AAXX  20120 76458 32958 00000 10176 20164 30107 40118 52004 90858 333 30/// 58012;","Q01  00002PRCP99"
"76458099999","2001-03-20T15:00:00","4","23.2","-106.4166666","4.0","COLONIA JUAN CARRASCO MAZATLAN SIN., MX","FM-12","99999","V020","120,1,N,0030,1","99999,9,9,N","999999,9,N,1","+0178,1","+0166,1","10136,1","99,0000,9,1",,,"4,1,03,1","7,1,03,1","09,1,+99999,9,99,9",,,"09,99,1,09,1,99,9,99999,9,99,9,99,9",,"01,9",,,,"99999,9,10125,1","2,1,014,1,+012,1",,"04,1","SYN100AAXX  20151 76458 31955 91203 10178 20166 30125 40136 52014 70447 89/// 91450 333 30/// 58012 89///;","Q01  00002PRCP99"
"76458099999","2001-03-20T18:00:00","4","23.2","-106.4166666","4.0","COLONIA JUAN CARRASCO MAZATLAN SIN., MX","FM-12","99999","V020","250,1,N,0030,1","22000,1,9,N","008000,1,N,1","+0204,1","+0170,1","10140,1","99,0000,9,1",,,"4,1,06,1","4,1,06,1","00,1,+99999,9,99,9",,,"00,99,1,00,1,00,1,99999,9,00,1,00,1",,"01,9",,"120,M,+0228,1","240,N,+0152,1","99999,9,10129,1","4,1,000,1,+017,1",,"04,1","SYN100AAXX  20181 76458 31958 02503 10204 20170 30129 40140 54009 70444 91745 333 10228 20152 30/// 58017;","Q01  00002PRCP99"
"76458099999","2001-03-20T21:00:00","4","23.2","-106.4166666","4.0","COLONIA JUAN CARRASCO MAZATLAN SIN., MX","FM-12","99999","V020","240,1,N,0030,1","22000,1,9,N","005000,1,N,1","+0226,1","+0172,1","10111,1","99,0000,9,1",,,"4,1,03,1","4,1,03,1","00,1,+99999,9,99,9",,,"00,99,1,00,1,00,1,99999,9,00,1,00,1",,"01,9",,,,"99999,9,10100,1","7,1,029,1,+002,1",,"05,1","SYN088AAXX  20211 76458 31950 02403 10226 20172 30100 40111 57029 70544 92055 333 30/// 58002;","Q01  00002PRCP99"
"76458099999","2001-03-21T00:00:00","4","23.2","-106.4166666","4.0","COLONIA JUAN CARRASCO MAZATLAN SIN., MX","FM-12","99999","V020","290,1,N,0060,1","22000,1,9,N","018000,1,N,1","+0240,1","+0164,1","10105,1","24,0000,9,1",,,,,"00,1,+99999,9,99,9",,,"00,99,1,00,1,00,1,99999,9,00,1,00,1",,"01,9",,"120,M,+0247,1","180,N,+0152,1","99999,9,10093,1","7,1,006,1,+009,1",,,"SYN106AAXX  21001 76458 32968 02906 10240 20164 30093 40105 57006 92345 333 10247 20152 30/// 5///0 58009 70000;","Q01  00002PRCP24"
"76458099999","2001-03-21T03:00:00","4","23.2","-106.4166666","4.0","COLONIA JUAN CARRASCO MAZATLAN SIN., MX","FM-12","99999","V020","320,1,N,0030,1","22000,1,9,N","010000,1,N,1","+0211,1","+0193,1","10122,1","99,0000,9,1",,,,,"00,1,+99999,9,99,9",,,"00,99,1,00,1,00,1,99999,9,00,1,00,1",,"01,9",,,,"99999,9,10110,1","2,1,017,1,+013,1",,,"SYN082AAXX  21031 76458 32960 03203 10211 20193 30110 40122 52017 90250 333 30/// 58013;","Q01  00002PRCP99"
"76458099999","2001-03-21T12:00:00","4","23.2","-106.4166666","4.0","COLONIA JUAN CARRASCO MAZATLAN SIN., MX","FM-12","99999","V020","110,1,N,0020,1","22000,1,9,N","008000,1,N,1","+0186,1","+0174,1","10143,1","99,0000,9,1",,,"4,1,06,1","4,1,06,1","00,1,+99999,9,99,9",,,"00,99,1,00,1,00,1,99999,9,00,1,00,1",,"01,9","999,+0150,9","999,M,+0247,1","120,N,+0164,1","99999,9,10132,1","7,1,004,1,+021,1",,"42,1","SYN100AAXX  21121 76458 32958 01102 10186 20174 30132 40143 57004 74244 91130 333 10247 20164 30015 58021;","Q01  00002PRCP99"
"76458099999","2001-03-21T15:00:00","4","23.2","-106.4166666","4.0","COLONIA JUAN CARRASCO MAZATLAN SIN., MX","FM-12","99999","V020","999,9,C,0000,1","22000,1,9,N","001200,1,N,1","+0173,1","+0162,1","10155,1","99,0000,9,1",,,"4,1,03,1","4,1,03,1","00,1,+99999,9,99,9",,,"00,99,1,00,1,00,1,99999,9,00,1,00,1",,"01,9",,,,"99999,9,10144,1","2,1,012,1,+019,1",,"42,1","SYN088AAXX  21151 76458 31912 00000 10173 20162 30144 40155 52012 74244 91450 333 30/// 58019;","Q01  00002PRCP99"
"76458099999","2001-03-21T18:00:00","4","23.2","-106.4166666","4.0","COLONIA JUAN CARRASCO MAZATLAN SIN., MX","FM-12","99999","V020","230,1,N,0030,1","22000,1,9,N","001000,1,N,1","+0192,1","+0169,1","10157,1","99,0000,9,1",,,"4,1,06,1","4,1,06,1","02,1,+06000,9,01,9",,,"02,99,1,00,1,00,1,99999,9,00,1,02,1",,"01,9",,"120,M,+0231,1","240,N,+0161,1","99999,9,10146,1","1,1,002,1,+017,1",,"46,1","SYN118AAXX  21181 76458 31910 22303 10192 20169 30146 40157 51002 74644 80002 91755 333 10231 20161 30/// 56/// 58017 82070;","Q01  00002PRCP99"
"76458099999","2001-03-21T21:00:00","4","23.2","-106.4166666","4.0","COLONIA JUAN CARRASCO MAZATLAN SIN., MX","FM-12","99999","V020","300,1,N,0050,1","22000,1,9,N","006000,1,N,1","+0218,1","+0164,1","10143,1","99,0000,9,1",,,"4,1,03,1","4,1,03,1","03,1,+08400,9,01,9",,,"03,99,1,00,1,00,1,99999,9,00,1,01,1",,"01,9",,,,"99999,9,10132,1","7,1,014,1,+032,1",,"04,1","SYN106AAXX  21211 76458 31956 33005 10218 20164 30132 40143 57014 70444 80001 92050 333 30/// 56009 58032 83078;","Q01  00002PRCP99"
"76458099999","2001-03-22T00:00:00","4","23.2","-106.4166666","4.0","COLONIA JUAN CARRASCO MAZATLAN SIN., MX","FM-12","99999","V020","300,1,N,0040,1","99999,9,9,N","010000,1,N,1","+0234,1","+0171,1","10133,1","24,0000,9,1",,,"4,1,06,1","4,1,06,1",,,,"05,99,1,00,1,00,1,99999,9,00,1,08,1",,"01,9",,"120,M,+0254,1","180,N,+0161,1","99999,9,10121,1","7,1,011,1,+027,1",,"04,1","SYN130AAXX  22001 76458 31960 53004 10234 20171 30121 40133 57011 70444 80008 92340 333 10254 20161 30/// 50322 56009 58027 70000 85079;","Q01  00002PRCP99Q02  00003PRCP99"
"76458099999","2001-03-22T03:00:00","4","23.2","-106.4166666","4.0","COLONIA JUAN CARRASCO MAZATLAN SIN., MX","FM-12","99999","V020","350,1,N,0010,1","22000,1,9,N","008000,1,N,1","+0204,1","+0183,1","10152,1","99,0000,9,1",,,,,"00,1,+99999,9,99,9",,,"00,99,1,00,1,00,1,99999,9,00,1,00,1",,"01,9",,,,"99999,9,10141,1","2,1,020,1,+031,1",,,"SYN082AAXX  22031 76458 32958 03501 10204 20183 30141 40152 52020 90300 333 30/// 58031;","Q01  00002PRCP99"
"76458099999","2001-03-22T06:00:00","4","23.2","-106.4166666","4.0","COLONIA JUAN CARRASCO MAZATLAN SIN., MX","FM-12","99999","V020","150,1,N,0030,1","22000,1,9,N","008000,1,N,1","+0196,1","+0184,1","10161,1","99,0000,9,1",,,,,"00,1,+99999,9,99,9",,,"00,99,1,00,1,00,1,99999,9,00,1,00,1","0522,9","01,9",,"240,M,+0255,1","240,N,+0161,1","99999,9,10150,1","2,1,009,1,+021,1",,,"SYN100AAXX  22061 76458 32958 01503 10196 20184 30150 40161 52009 90530 333 10255 20161 30/// 55087 58021;","Q01  00002PRCP99"
"76458099999","2001-03-22T15:00:00","4","23.2","-106.4166666","4.0","COLONIA JUAN CARRASCO MAZATLAN SIN., MX","FM-12","99999","V020","999,9,C,0000,1","22000,1,9,N","000400,1,N,1","+0167,1","+0162,1","10159,1","99,0000,9,1",,,"4,1,03,1","4,1,03,1","00,1,+99999,9,99,9",,,"00,99,1,00,1,00,1,99999,9,00,1,00,1",,"01,9",,,,"99999,9,10147,1","2,1,007,1,+003,1",,"44,1","SYN088AAXX  22151 76458 31904 00000 10167 20162 30147 40159 52007 74544 91450 333 30/// 58003;","Q01+000452PRSWM1Q02  00002PRCP99"
"76458099999","2001-03-22T18:00:00","4","23.2","-106.4166666","4.0","COLONIA JUAN CARRASCO MAZATLAN SIN., MX","FM-12","99999","V020","260,1,N,0040,1","22000,1,9,N","006000,1,N,1","+0201,1","+0171,1","10158,1","99,0000,9,1",,,"4,1,06,1","4,1,06,1","00,1,+99999,9,99,9",,,"00,99,1,00,1,00,1,99999,9,00,1,00,1",,"01,9",,"120,M,+0222,1","240,N,+0154,1","99999,9,10147,1","0,1,000,1,+001,1",,"40,1","SYN100AAXX  22181 76458 31956 02604 10201 20171 30147 40158 50000 74044 91750 333 10222 20154 30/// 58001;","Q01  00002PRCP99"
"76458099999","2001-03-22T21:00:00","4","23.2","-106.4166666","4.0","COLONIA JUAN CARRASCO MAZATLAN SIN., MX","FM-12","99999","V020","270,1,N,0040,1","22000,1,9,N","008000,1,N,1","+0210,1","+0180,1","10136,1","99,0000,9,1",,,"4,1,03,1","4,1,03,1","00,1,+99999,9,99,9",,,"00,99,1,00,1,00,1,99999,9,00,1,00,1",,"01,9",,,,"99999,9,10125,1","7,1,021,1,-008,1",,"44,1","SYN088AAXX  22211 76458 31958 02704 10210 20180 30125 40136 57021 74444 92050 333 30/// 59008;","Q01  00002PRCP99"
"76458099999","2001-03-23T03:00:00","4","23.2","-106.4166666","4.0","COLONIA JUAN CARRASCO MAZATLAN SIN., MX","FM-12","99999","V020","320,1,N,0020,1","22000,1,9,N","008000,1,N,1","+0214,1","+0178,1","10126,1","99,0000,9,1",,,,,"00,1,+99999,9,99,9",,,"00,99,1,00,1,00,1,99999,9,00,1,00,1",,"01,9",,,,"99999,9,10115,1","2,1,009,1,-025,1",,,"SYN082AAXX  23031 76458 32958 03202 10214 20178 30115 40126 52009 90255 333 30/// 59025;","Q01  00002PRCP99"
"76458099999","2001-03-23T12:00:00","4","23.2","-106.4166666","4.0","COLONIA JUAN CARRASCO MAZATLAN SIN., MX","FM-12","99999","V020","999,9,C,0000,1","00015,1,9,N","000100,1,N,1","+0171,1","+0165,1","10115,1","24,0000,9,1",,,"4,1,06,1","4,1,06,1","09,1,+99999,9,99,9",,,"09,99,1,09,1,99,9,99999,9,99,9,99,9",,"01,9","999,+0090,9","999,M,+0252,1","120,N,+0162,1","99999,9,10104,1","7,1,009,1,+999,9",,"45,1","SYN112AAXX  23121 76458 31/01 90000 10171 20165 30104 40115 57009 74544 89/// 91140 333 10252 20162 30009 58/// 70000;","Q01  00002PRCP24"
"76458099999","2001-03-23T18:00:00","4","23.2","-106.4166666","4.0","COLONIA JUAN CARRASCO MAZATLAN SIN., MX","FM-12","99999","V020","270,1,N,0040,1","22000,1,9,N","008000,1,N,1","+0208,1","+0165,1","10129,1","99,0000,9,1",,,"4,1,06,1","4,1,06,1","01,1,+06000,9,01,9",,,"01,99,1,00,1,00,1,99999,9,00,1,01,1",,"01,9",,"120,M,+0233,1","240,N,+0160,1","99999,9,10117,1","0,1,000,1,-030,1",,"05,1","SYN118AAXX  23181 76458 31958 12704 10208 20165 30117 40129 50000 70544 80001 91750 333 10233 20160 30/// 56009 59030 81070;","Q01  00002PRCP99"
"76458099999","2001-03-24T00:00:00","4","23.2","-106.4166666","4.0","COLONIA JUAN CARRASCO MAZATLAN SIN., MX","FM-12","99999","V020","290,1,N,0040,1","22000,1,9,N","020000,1,N,1","+0234,1","+0177,1","10089,1","24,0000,9,1",,,,,"00,1,+99999,9,99,9",,,"00,99,1,00,1,00,1,99999,9,00,1,00,1",,"01,9",,"120,M,+0255,1","180,N,+0160,1","99999,9,10077,1","7,1,013,1,-028,1",,,"SYN106AAXX  24001 76458 32970 02904 10234 20177 30077 40089 57013 92345 333 10255 20160 30/// 50361 59028 70000;","Q01  00002PRCP24"
"76458099999","2001-03-24T03:00:00","4","23.2","-106.4166666","4.0","COLONIA JUAN CARRASCO MAZATLAN SIN., MX","FM-12","99999","V020","320,1,N,0030,1","22000,1,9,N","008000,1,N,1","+0216,1","+0174,1","10093,1","99,0000,9,1",,,,,"00,1,+99999,9,99,9",,,"00,99,1,00,1,00,1,99999,9,00,1,00,1",,"01,9",,,,"99999,9,10082,1","3,1,004,1,-033,1",,,"SYN082AAXX  24031 76458 32958 03203 10216 20174 30082 40093 53004 90245 333 30/// 59033;","Q01  00002PRCP99"
"76458099999","2001-03-24T12:00:00","4","23.2","-106.4166666","4.0","COLONIA JUAN CARRASCO MAZATLAN SIN., MX","FM-12","99999","V020","999,9,C,0000,1","22000,1,9,N","008000,1,N,1","+0178,1","+0169,1","10095,1","24,0000,9,1",,,"4,1,06,1","4,1,06,1","00,1,+99999,9,99,9",,,"00,99,1,00,1,00,1,99999,9,00,1,00,1",,"01,9","999,+0140,9","999,M,+0255,1","120,N,+0162,1","99999,9,10084,1","7,1,006,1,-020,1",,"44,1","SYN106AAXX  24121 76458 32958 00000 10178 20169 30084 40095 57006 74544 91133 333 10255 20162 30014 59020 70000;","Q01+000452PRSWM1Q02  00002PRCP24"
"76458099999","2001-03-24T15:00:00","4","23.2","-106.4166666","4.0","COLONIA JUAN CARRASCO MAZATLAN SIN., MX","FM-12","99999","V020","150,1,N,0030,1","22000,1,9,N","999999,9,N,1","+0169,1","+0155,1","10118,1","99,0000,9,1",,,"4,1,03,1","4,1,03,1","00,1,+99999,9,99,9",,,"00,99,1,00,1,00,1,99999,9,00,1,00,1",,"01,9",,,,"99999,9,10106,1","2,1,022,1,-011,1",,"41,1","SYN088AAXX  24151 76458 31954 01503 10169 20155 30106 40118 52022 74144 91450 333 30/// 59011;","Q01  00002PRCP99"
"76458099999","2001-03-24T18:00:00","4","23.2","-106.4166666","4.0","COLONIA JUAN CARRASCO MAZATLAN SIN., MX","FM-12","99999","V020","190,1,N,0040,1","22000,1,9,N","006000,1,N,1","+0210,1","+0170,1","10123,1","99,0000,9,1",,,"4,1,06,1","4,1,06,1","00,1,+99999,9,99,9",,,"00,99,1,00,1,00,1,99999,9,00,1,00,1",,"01,9",,"120,M,+0227,1","240,N,+0161,1","99999,9,10112,1","1,1,006,1,-005,1",,"05,1","SYN100AAXX  24181 76458 31956 01904 10210 20170 30112 40123 51006 70544 91740 333 10227 20161 30/// 59005;","Q01  00002PRCP99"
"76458099999","2001-03-24T21:00:00","4","23.2","-106.4166666","4.0","COLONIA JUAN CARRASCO MAZATLAN SIN., MX","FM-12","99999","V020","270,1,N,0030,1","22000,1,9,N","018000,1,N,1","+0228,1","+0190,1","10102,1","99,0000,9,1",,,,,"00,1,+99999,9,99,9",,,"00,99,1,00,1,00,1,99999,9,00,1,00,1",,"01,9",,,,"99999,9,10090,1","7,1,022,1,+000,1",,,"SYN082AAXX  24211 76458 32968 02703 10228 20190 30090 40102 57022 92055 333 30/// 59000;","Q01  00002PRCP99"
"76458099999","2001-03-25T03:00:00","4","23.2","-106.4166666","4.0","COLONIA JUAN CARRASCO MAZATLAN SIN., MX","FM-12","99999","V020","310,1,N,0030,1","22000,1,9,N","008000,1,N,1","+0218,1","+0195,1","10100,1","99,0000,9,1",,,,,"00,1,+99999,9,99,9",,,"00,99,1,00,1,00,1,99999,9,00,1,00,1",,"01,9",,,,"99999,9,10089,1","2,1,010,1,+007,1",,,"SYN082AAXX  25031 76458 32958 03103 10218 20195 30089 40100 52010 92045 333 30/// 58007;","Q01  00002PRCP99"
"76458099999","2001-03-25T09:00:00","4","23.2","-106.4166666","4.0","COLONIA JUAN CARRASCO MAZATLAN SIN., MX","FM-12","99999","V020","150,1,N,0020,1","22000,1,9,N","008000,1,N,1","+0190,1","+0178,1","10119,1","99,0000,9,1",,,,,"00,1,+99999,9,99,9",,,"00,99,1,00,1,00,1,99999,9,00,1,00,1",,"01,9",,,,"99999,9,10107,1","4,1,000,1,+017,1",,,"SYN082AAXX  25091 76458 32958 01502 10190 20178 30107 40119 54001 90840 333 30/// 58017;","Q01  00002PRCP99"
"76458099999","2001-03-25T21:00:00","4","23.2","-106.4166666","4.0","COLONIA JUAN CARRASCO MAZATLAN SIN., MX","FM-12","99999","V020","290,1,N,0030,1","22000,1,9,N","020000,1,N,1","+0236,1","+0198,1","10120,1","99,0000,9,1",,,,,"02,1,+06000,9,01,9",,,"02,99,1,00,1,00,1,99999,9,00,1,01,1",,"01,9",,,,"99999,9,10109,1","8,1,013,1,+019,1",,,"SYN094AAXX  25211 76458 32970 22903 10236 20198 30109 40120 58013 80001 92045 333 30/// 58019 82070;","Q01  00002PRCP99"
"76458099999","2001-03-26T00:00:00","4","23.2","-106.4166666","4.0","COLONIA JUAN CARRASCO MAZATLAN SIN., MX","FM-12","99999","V020","300,1,N,0040,1","22000,1,9,N","020000,1,N,1","+0236,1","+0195,1","10112,1","24,0000,9,1",,,,,"01,1,+01800,9,03,9",,,"02,99,1,01,1,00,1,02250,1,08,1,01,1",,"01,9",,"120,M,+0259,1","180,N,+0165,1","99999,9,10100,1","7,1,009,1,+021,1",,,"SYN130AAXX  26001 76458 32870 23004 10236 20195 30100 40112 57009 81081 92345 333 10259 20165 30/// 50381 56099 58021 70000 81356 81070;","Q01  00002PRCP99Q02  00003PRCP99"
"76458099999","2001-03-26T03:00:00","4","23.2","-106.4166666","4.0","COLONIA JUAN CARRASCO MAZATLAN SIN., MX","FM-12","99999","V020","230,1,N,0020,1","22000,1,9,N","008000,1,N,1","+0216,1","+0196,1","10124,1","99,0000,9,1",,,,,"00,1,+99999,9,99,9",,,"00,99,1,00,1,00,1,99999,9,00,1,00,1",,"01,9",,,,"99999,9,10112,1","2,1,012,1,+023,1",,,"SYN082AAXX  26031 76458 32958 02302 10216 20196 30112 40124 52012 90255 333 30/// 58023;","Q01  00002PRCP99"
"76458099999","2001-03-26T06:00:00","4","23.2","-106.4166666","4.0","COLONIA JUAN CARRASCO MAZATLAN SIN., MX","FM-12","99999","V020","999,9,C,0000,1","22000,1,9,N","008000,1,N,1","+0206,1","+0191,1","10141,1","99,0000,9,1",,,,,"00,1,+99999,9,99,9",,,"00,99,1,00,1,00,1,99999,9,00,1,00,1","0570,9","01,9",,"240,M,+0259,1","240,N,+0165,1","99999,9,10130,1","2,1,018,1,+002,1",,,"SYN100AAXX  26061 76458 32958 00000 10206 20191 30130 40141 52018 90535 333 10259 20165 30/// 55095 58002;","Q01  00002PRCP99"
"76458099999","2001-03-26T12:00:00","4","23.2","-106.4166666","4.0","COLONIA JUAN CARRASCO MAZATLAN SIN., MX","FM-12","99999","V020","999,9,C,0000,1","22000,1,9,N","008000,1,N,1","+0202,1","+0190,1","10138,1","99,0000,9,1",,,,,"00,1,+99999,9,99,9",,,"00,99,1,00,1,00,1,99999,9,00,1,00,1",,"01,9",,,,"99999,9,10126,1","7,1,003,1,+019,1",,,"SYN082AAXX  26120 76458 32958 00000 10202 20190 30126 40138 57003 90850 333 30/// 58019;","Q01  00002PRCP99"
"76458099999","2001-03-26T15:00:00","4","23.2","-106.4166666","4.0","COLONIA JUAN CARRASCO MAZATLAN SIN., MX","FM-12","99999","V020","110,1,N,0030,1","22000,1,9,N","004000,1,N,1","+0216,1","+0182,1","10147,1","99,0000,9,1",,,"4,1,03,1","4,1,03,1","02,1,+08700,9,01,9",,,"02,99,1,00,1,00,1,99999,9,00,1,02,1",,"01,9",,,,"99999,9,10135,1","2,1,017,1,+013,1",,"05,1","SYN106AAXX  26151 76458 31940 21103 10216 20182 30135 40147 52017 70544 80002 91450 333 30/// 56009 58013 82079;","Q01  00002PRCP99"
"76458099999","2001-03-26T18:00:00","4","23.2","-106.4166666","4.0","COLONIA JUAN CARRASCO MAZATLAN SIN., MX","FM-12","99999","V020","180,1,N,0030,1","22000,1,9,N","020000,1,N,1","+0244,1","+0175,1","10154,1","99,0000,9,1",,,"4,1,06,1","4,1,06,1","03,1,+08700,9,01,9",,,"03,99,1,00,1,00,1,99999,9,00,1,02,1",,"01,9",,"120,M,+0260,1","240,N,+0185,1","99999,9,10142,1","0,1,007,1,+020,1",,"01,1","SYN118AAXX  26181 76458 31970 31803 10244 20175 30142 40154 50007 70144 80002 91755 333 10260 20185 30/// 56009 58020 83079;","Q01  00002PRCP99"
"76458099999","2001-03-26T21:00:00","4","23.2","-106.4166666","4.0","COLONIA JUAN CARRASCO MAZATLAN SIN., MX","FM-12","99999","V020","260,1,N,0040,1","22000,1,9,N","025000,1,N,1","+0256,1","+0169,1","10144,1","99,0000,9,1",,,,,"02,1,+08400,9,01,9",,,"02,99,1,00,1,00,1,99999,9,00,1,01,1",,"01,9",,,,"99999,9,10132,1","7,1,010,1,+023,1",,,"SYN100AAXX  26211 76458 32975 22604 10256 20169 30132 40144 57010 80001 92045 333 30/// 56009 58023 82078;","Q01  00002PRCP99"
"76458099999","2001-03-27T00:00:00","4","23.2","-106.4166666","4.0","COLONIA JUAN CARRASCO MAZATLAN SIN., MX","FM-12","99999","V020","260,1,N,0040,1","22000,1,9,N","030000,1,N,1","+0246,1","+0197,1","10123,1","24,0000,9,1",,,,,"01,1,+00600,9,08,9",,,"03,99,1,01,1,01,1,00450,1,00,1,01,1",,"01,9",,"120,M,+0273,1","180,N,+0185,1","99999,9,10112,1","7,1,020,1,+012,1",,,"SYN130AAXX  27001 76458 32480 32604 10246 20197 30112 40123 57020 81101 92350 333 10273 20185 30/// 50405 56109 58012 70000 81820 82078;","Q01  00002PRCP99Q02  00003PRCP99"
"76458099999","2001-03-27T03:00:00","4","23.2","-106.4166666","4.0","COLONIA JUAN CARRASCO MAZATLAN SIN., MX","FM-12","99999","V020","290,1,N,0020,1","22000,1,9,N","010000,1,N,1","+0222,1","+0196,1","10127,1","99,0000,9,1",,,,,"01,1,+08700,9,01,9",,,"01,99,1,00,1,00,1,99999,9,00,1,01,1",,"01,9",,,,"99999,9,10115,1","2,1,003,1,+002,1",,,"SYN094AAXX  27031 76458 32960 12902 10222 20196 30115 40127 52003 80001 90245 333 30/// 58002 81079;","Q01  00002PRCP99"
"76458099999","2001-03-27T12:00:00","4","23.2","-106.4166666","4.0","COLONIA JUAN CARRASCO MAZATLAN SIN., MX","FM-12","99999","V020","090,1,N,0020,1","22000,1,9,N","008000,1,N,1","+0190,1","+0172,1","10126,1","24,0000,9,1",,,,,"00,1,+99999,9,99,9",,,"00,99,1,00,1,00,1,99999,9,00,1,00,1",,"01,9","999,+0160,9","999,M,+0273,1","120,N,+0178,1","99999,9,10115,1","7,1,005,1,-003,1",,,"SYN100AAXX  27121 76458 32958 00902 10190 20172 30115 40126 57005 91135 333 10273 20178 30016 59003 70000;","Q01  00002PRCP24"
"76458099999","2001-03-27T15:00:00","4","23.2","-106.4166666","4.0","COLONIA JUAN CARRASCO MAZATLAN SIN., MX","FM-12","99999","V020","180,1,N,0010,1","22000,1,9,N","004000,1,N,1","+0181,1","+0170,1","10148,1","99,0000,9,1",,,"4,1,03,1","4,1,03,1","00,1,+99999,9,99,9",,,"00,99,1,00,1,00,1,99999,9,00,1,00,1",,"01,9",,,,"99999,9,10136,1","2,1,021,1,+001,1",,"42,1","SYN088AAXX  27151 76458 31940 01801 10181 20170 30136 40148 52021 74244 91450 333 30/// 58001;","Q01  00002PRCP99"
"76458099999","2001-03-27T21:00:00","4","23.2","-106.4166666","4.0","COLONIA JUAN CARRASCO MAZATLAN SIN., MX","FM-12","99999","V020","250,1,N,0040,1","08700,1,9,N","020000,1,N,1","+0236,1","+0189,1","10137,1","99,0000,9,1",,,"4,1,03,1","4,1,03,1","07,1,+08700,9,01,9",,,"07,99,1,00,1,00,1,99999,9,00,1,04,1",,"01,9",,,,"99999,9,10126,1","7,1,015,1,+006,1",,"03,1","SYN106AAXX  27211 76458 31970 72504 10236 20189 30126 40137 57015 70344 80004 92050 333 30/// 56009 58006 87079;","Q01  00002PRCP99"
"76458099999","2001-03-28T00:00:00","4","23.2","-106.4166666","4.0","COLONIA JUAN CARRASCO MAZATLAN SIN., MX","FM-12","99999","V020","260,1,N,0030,1","22000,1,9,N","018000,1,N,1","+0240,1","+0196,1","10123,1","24,0000,9,1",,,,,,,,"03,99,1,00,1,00,1,99999,9,00,1,02,1",,"01,9",,"120,M,+0264,1","180,N,+0170,1","99999,9,10111,1","6,1,014,1,+000,1",,,"SYN124AAXX  28001 76458 32968 32603 10240 20196 30111 40123 56014 80002 92355 333 10264 20170 30/// 50450 56009 58000 70000 83079;","Q01  00002PRCP99Q02  00003PRCP99"
"76458099999","2001-03-28T03:00:00","4","23.2","-106.4166666","4.0","COLONIA JUAN CARRASCO MAZATLAN SIN., MX","FM-12","99999","V020","310,1,N,0030,1","22000,1,9,N","008000,1,N,1","+0216,1","+0189,1","10135,1","99,0000,9,1",,,,,"00,1,+99999,9,99,9",,,"00,99,1,00,1,00,1,99999,9,00,1,00,1",,"01,9",,,,"99999,9,10124,1","2,1,013,1,+009,1",,,"SYN082AAXX  28031 76458 32958 03103 10216 20189 30124 40135 52013 90248 333 30/// 58009;","Q01  00002PRCP99"
"76458099999","2001-03-28T12:00:00","4","23.2","-106.4166666","4.0","COLONIA JUAN CARRASCO MAZATLAN SIN., MX","FM-12","99999","V020","999,9,C,0000,1","22000,1,9,N","008000,1,N,1","+0168,1","+0162,1","10126,1","24,0000,9,1",,,"4,1,06,1","4,1,06,1","00,1,+99999,9,99,9",,,"00,99,1,00,1,00,1,99999,9,00,1,00,1",,"01,9","999,+0130,9","999,M,+0264,1","120,N,+0148,1","99999,9,10115,1","7,1,008,1,+001,1",,"42,1","SYN106AAXX  28121 76458 32958 00000 10168 20162 30115 40126 57008 74244 91140 333 10264 20148 30013 58001 70000;","Q01  00002PRCP24"
"76458099999","2001-03-28T15:00:00","4","23.2","-106.4166666","4.0","COLONIA JUAN CARRASCO MAZATLAN SIN., MX","FM-12","99999","V020","090,1,N,0020,1","22000,1,9,N","004000,1,N,1","+0195,1","+0177,1","10142,1","99,0000,9,1",,,"4,1,03,1","4,1,03,1","00,1,+99999,9,99,9",,,"00,99,1,00,1,00,1,99999,9,00,1,00,1",,"01,9",,,,"99999,9,10131,1","2,1,016,1,-005,1",,"44,1","SYN088AAXX  28151 76458 31940 00902 10195 20177 30131 40142 52016 74444 91450 333 30/// 59005;","Q01  00002PRCP99"
"76458099999","2001-03-28T18:00:00","4","23.2","-106.4166666","4.0","COLONIA JUAN CARRASCO MAZATLAN SIN., MX","FM-12","99999","V020","240,1,N,0020,1","22000,1,9,N","012000,1,N,1","+0231,1","+0167,1","10145,1","99,0000,9,1",,,"4,1,06,1","4,1,06,1","01,1,+06000,9,01,9",,,"01,99,1,00,1,00,1,99999,9,00,1,01,1",,"01,9",,"120,M,+0241,1","240,N,+0146,1","99999,9,10134,1","0,1,003,1,-006,1",,"02,1","SYN118AAXX  28181 76458 31962 12402 10231 20167 30134 40145 50003 70244 80001 91750 333 10241 20146 30/// 56009 59006 81070;","Q01  00002PRCP99"
"76458099999","2001-03-28T21:00:00","4","23.2","-106.4166666","4.0","COLONIA JUAN CARRASCO MAZATLAN SIN., MX","FM-12","99999","V020","220,1,N,0030,1","22000,1,9,N","012000,1,N,1","+0240,1","+0174,1","10120,1","99,0000,9,1",,,"4,1,03,1","4,1,03,1","02,1,+08700,9,01,9",,,"02,99,1,00,1,00,1,99999,9,00,1,01,1",,"01,9",,,,"99999,9,10109,1","7,1,025,1,-017,1",,"04,1","SYN106AAXX  28211 76458 31962 22203 10240 20174 30109 40120 57025 70444 80001 92050 333 30/// 56009 59017 82079;","Q01  00002PRCP99"
"76458099999","2001-03-29T00:00:00","4","23.2","-106.4166666","4.0","COLONIA JUAN CARRASCO MAZATLAN SIN., MX","FM-12","99999","V020","250,1,N,0040,1","22000,1,9,N","018000,1,N,1","+0230,1","+0170,1","10106,1","24,0000,9,1",,,,,,,,"02,99,1,00,1,00,1,99999,9,00,1,02,1",,"01,9",,"120,M,+0260,1","180,N,+0146,1","99999,9,10095,1","7,1,041,1,-016,1",,,"SYN124AAXX  29001 76458 32968 22504 10230 20170 30095 40106 57041 80002 92355 333 10260 20146 30/// 50390 56009 59016 70000 82079;","Q01  00002PRCP99Q02  00003PRCP99"
"76458099999","2001-03-29T03:00:00","4","23.2","-106.4166666","4.0","COLONIA JUAN CARRASCO MAZATLAN SIN., MX","FM-12","99999","V020","250,1,N,0010,1","22000,1,9,N","008000,1,N,1","+0210,1","+0157,1","10112,1","99,0000,9,1",,,,,"00,1,+99999,9,99,9",,,"00,99,1,00,1,00,1,99999,9,00,1,00,1",,"01,9",,,,"99999,9,10108,1","2,1,013,1,-023,1",,,"SYN082AAXX  29031 76458 32958 02501 10210 20157 30108 40112 52013 90250 333 30/// 59023;","Q01  00002PRCP99"
"76458099999","2001-03-29T12:00:00","4","23.2","-106.4166666","4.0","COLONIA JUAN CARRASCO MAZATLAN SIN., MX","FM-12","99999","V020","070,1,N,0010,1","22000,1,9,N","008000,1,N,1","+0168,1","+0152,1","10109,1","24,0000,9,1",,,,,"00,1,+99999,9,99,9",,,"00,99,1,00,1,00,1,99999,9,00,1,00,1",,"01,9","999,+0560,9","999,M,+0260,1","120,N,+0156,1","99999,9,10098,1","7,1,010,1,-016,1",,,"SYN100AAXX  29121 76458 32958 00701 10168 20152 30098 40109 57010 91140 333 10260 20156 30056 59016 70000;","Q01  00002PRCP24"
"76458099999","2001-03-29T15:00:00","4","23.2","-106.4166666","4.0","COLONIA JUAN CARRASCO MAZATLAN SIN., MX","FM-12","99999","V020","150,1,N,0020,1","22000,1,9,N","005000,1,N,1","+0196,1","+0172,1","10124,1","99,0000,9,1",,,"4,1,03,1","4,1,03,1","00,1,+99999,9,99,9",,,"00,99,1,00,1,00,1,99999,9,00,1,00,1",,"01,9",,,,"99999,9,10113,1","2,1,015,1,-018,1",,"41,1","SYN088AAXX  29151 76458 31950 01502 10196 20172 30113 40124 52015 74144 91450 333 30/// 59018;","Q01  00002PRCP99"
"76458099999","2001-03-29T18:00:00","4","23.2","-106.4166666","4.0","COLONIA JUAN CARRASCO MAZATLAN SIN., MX","FM-12","99999","V020","240,1,N,0030,1","22000,1,9,N","015000,1,N,1","+0227,1","+0166,1","10129,1","99,0000,9,1",,,,,"01,1,+00750,9,02,9",,,"01,99,1,01,1,01,1,00800,1,00,1,00,1",,"01,9",,"120,M,+0245,1","240,N,+0156,1","99999,9,10117,1","1,1,004,1,-017,1",,,"SYN112AAXX  29181 76458 32565 12403 10227 20166 30117 40129 51004 81100 91750 333 10245 20156 30/// 56400 59017 81825;","Q01  00002PRCP99"
"76458099999","2001-03-29T21:00:00","4","23.2","-106.4166666","4.0","COLONIA JUAN CARRASCO MAZATLAN SIN., MX","FM-12","99999","V020","290,1,N,0040,1","22000,1,9,N","020000,1,N,1","+0238,1","+0158,1","10117,1","99,0000,9,1",,,,,"00,1,+99999,9,99,9",,,"00,99,1,00,1,00,1,99999,9,00,1,00,1",,"01,9",,,,"99999,9,10106,1","8,1,011,1,-003,1",,,"SYN082AAXX  29211 76458 32970 02904 10238 20158 30106 40117 58011 92050 333 30/// 59003;","Q01  00002PRCP99"
"76458099999","2001-03-30T09:00:00","4","23.2","-106.4166666","4.0","COLONIA JUAN CARRASCO MAZATLAN SIN., MX","FM-12","99999","V020","999,9,C,0000,1","22000,1,9,N","012000,1,N,1","+0185,1","+0171,1","10102,1","99,0000,9,1",,,,,"00,1,+99999,9,99,9",,,"00,99,1,00,1,00,1,99999,9,00,1,00,1",,"01,9",,,,,"7,1,999,9,-016,1",,,"SYN076AAXX  30091 76458 32962 00000 10185 20171 40102 57/// 90845 333 30/// 59016;","Q01  00002PRCP99"
"76458099999","2001-03-30T12:00:00","4","23.2","-106.4166666","4.0","COLONIA JUAN CARRASCO MAZATLAN SIN., MX","FM-12","99999","V020","999,9,C,0000,1","22000,1,9,N","012000,1,N,1","+0170,1","+0151,1","10111,1","24,0000,9,1",,,,,"03,1,+00240,9,05,9",,,"03,99,1,03,1,04,1,00250,1,00,1,00,1",,"01,9","999,+0140,9","999,M,+0260,1","120,N,+0161,1","99999,9,10100,1","3,1,008,1,+002,1",,,"SYN118AAXX  30121 76458 32362 30000 10170 20151 30100 40111 53008 83400 91140 333 10260 20161 30014 56500 58002 70000 83608;",
"76458099999","2001-03-30T15:00:00","4","23.2","-106.4166666","4.0","COLONIA JUAN CARRASCO MAZATLAN SIN., MX","FM-12","99999","V020","020,1,N,0020,1","00420,1,9,N","012000,1,N,1","+0203,1","+0169,1","10130,1","99,0000,9,1",,,,,"07,1,+00420,9,05,9",,,"07,99,1,07,1,04,1,00450,1,00,1,00,1",,"01,9",,,,"99999,9,10119,1","2,1,019,1,+006,1",,,"SYN100AAXX  30151 76458 32462 70202 10203 20169 30119 40130 52019 87400 91450 333 30/// 56400 58006 87614;","Q01  00002PRCP99"
"76458099999","2001-03-30T18:00:00","4","23.2","-106.4166666","4.0","COLONIA JUAN CARRASCO MAZATLAN SIN., MX","FM-12","99999","V020","160,1,N,0030,1","00870,1,9,N","015000,1,N,1","+0228,1","+0159,1","10140,1","99,0000,9,1",,,,,"07,1,+00870,9,05,9",,,"07,99,1,06,1,04,1,00800,1,00,1,00,1",,"01,9",,"120,M,+0245,1","240,N,+0161,1","99999,9,10128,1","0,1,009,1,+011,1",,,"SYN112AAXX  30181 76458 32565 71603 10228 20159 30128 40140 50009 86400 91750 333 10245 20161 30/// 56400 58011 87629;","Q01  00002PRCP99"
"76458099999","2001-03-30T21:00:00","4","23.2","-106.4166666","4.0","COLONIA JUAN CARRASCO MAZATLAN SIN., MX","FM-12","99999","V020","210,1,N,0040,1","22000,1,9,N","018000,1,N,1","+0238,1","+0158,1","10129,1","99,0000,9,1",,,,,"01,1,+06000,9,01,9",,,"01,99,1,00,1,00,1,99999,9,00,1,01,1",,"01,9",,,,"99999,9,10118,1","7,1,010,1,+012,1",,,"SYN094AAXX  30211 76458 32968 12104 10238 20158 30118 40129 57010 80001 92045 333 30/// 58012 81070;","Q01  00002PRCP99"
"76458099999","2001-03-31T00:00:00","4","23.2","-106.4166666","4.0","COLONIA JUAN CARRASCO MAZATLAN SIN., MX","FM-12","99999","V020","260,1,N,0040,1","06000,1,9,N","018000,1,N,1","+0230,1","+0142,1","10119,1","24,0000,9,1",,,,,"05,1,+06000,9,01,9",,,"05,99,1,00,1,00,1,99999,9,00,1,02,1",,"01,9",,"120,M,+0260,1","180,N,+0161,1","99999,9,10108,1","7,1,010,1,+018,1",,,"SYN118AAXX  31001 76458 32968 52604 10230 20142 30108 40119 57010 80002 92345 333 10260 20161 30/// 50341 58018 70000 85070;",
"76458099999","2001-03-31T03:00:00","4","23.2","-106.4166666","4.0","COLONIA JUAN CARRASCO MAZATLAN SIN., MX","FM-12","99999","V020","270,1,N,0030,1","22000,1,9,N","008000,1,N,1","+0212,1","+0173,1","10129,1","99,0000,9,1",,,,,"00,1,+99999,9,99,9",,,"00,99,1,00,1,00,1,99999,9,00,1,00,1",,"01,9",,,,"99999,9,10118,1","2,1,010,1,+999,9",,,"SYN082AAXX  31031 76458 32958 02703 10212 20173 30118 40129 52010 90245 333 30/// 58///;","Q01  00002PRCP99"
"76458099999","2001-03-31T12:00:00","4","23.2","-106.4166666","4.0","COLONIA JUAN CARRASCO MAZATLAN SIN., MX","FM-12","99999","V020","330,1,N,0010,1","22000,1,9,N","008000,1,N,1","+0176,1","+0147,1","10119,1","24,0000,9,1",,,,,"00,1,+99999,9,99,9",,,"00,99,1,00,1,00,1,99999,9,00,1,00,1",,"01,9","999,+0140,9","999,M,+0260,1","120,N,+0152,1","99999,9,10108,1","7,1,007,1,+008,1",,,"SYN100AAXX  31121 76458 32958 03301 10176 20147 30108 40119 57007 91132 333 10260 20152 30014 58008 70000;","Q01  00002PRCP24"
"76458099999","2001-03-31T15:00:00","4","23.2","-106.4166666","4.0","COLONIA JUAN CARRASCO MAZATLAN SIN., MX","FM-12","99999","V020","340,1,N,0030,1","22000,1,9,N","015000,1,N,1","+0196,1","+0164,1","10127,1","99,0000,9,1",,,,,"04,1,+00390,9,05,9",,,"04,99,1,04,1,04,1,00450,1,00,1,00,1",,"01,9",,,,"99999,9,10115,1","2,1,007,1,-004,1",,,"SYN100AAXX  31151 76458 32465 43403 10196 20164 30115 40127 52007 84400 91450 333 30/// 56400 59004 84613;","Q01  00002PRCP99"
"76458099999","2001-03-31T18:00:00","4","23.2","-106.4166666","4.0","COLONIA JUAN CARRASCO MAZATLAN SIN., MX","FM-12","99999","V020","270,1,N,0030,1","22000,1,9,N","015000,1,N,1","+0230,1","+0177,1","10126,1","99,0000,9,1",,,,,"01,1,+00660,9,02,9",,,"01,99,1,01,1,01,1,00800,1,00,1,00,1",,"01,9",,"120,M,+0248,1","240,N,+0158,1","99999,9,10114,1","0,1,001,1,-014,1",,,"SYN112AAXX  31181 76458 32565 12703 10230 20177 30114 40126 50001 81100 91755 333 10248 20158 30/// 565// 59014 81822;","Q01  00002PRCP99"
"76458099999","2001-03-31T21:00:00","4","23.2","-106.4166666","4.0","COLONIA JUAN CARRASCO MAZATLAN SIN., MX","FM-12","99999","V020","280,1,N,0040,1","22000,1,9,N","018000,1,N,1","+0238,1","+0162,1","10113,1","99,0000,9,1",,,,,"00,1,+99999,9,99,9",,,"00,99,1,00,1,00,1,99999,9,00,1,00,1",,"01,9",,,,"99999,9,10102,1","7,1,012,1,-016,1",,,"SYN082AAXX  31211 76458 32968 02804 10238 20162 30102 40113 57012 92045 333 30/// 59016;","Q01  00002PRCP99"
"76458099999","2001-04-01T00:00:00","4","23.2","-106.4166666","4.0","COLONIA JUAN CARRASCO MAZATLAN SIN., MX","FM-12","99999","V020","300,1,N,0050,1","22000,1,9,N","018000,1,N,1","+0236,1","+0170,1","10097,1","24,0000,9,1",,,,,"00,1,+99999,9,99,9",,,"00,99,1,00,1,00,1,99999,9,00,1,00,1",,"01,9",,"120,M,+0252,1","180,N,+0158,1","99999,9,10085,1","7,1,016,1,-023,1",,,"SYN106AAXX  01001 76458 32968 03005 10236 20170 30085 40097 57016 92340 333 10252 20158 30/// 50341 59023 70000;","Q01  00002PRCP24"
"76458099999","2001-04-01T09:00:00","4","23.2","-106.4166666","4.0","COLONIA JUAN CARRASCO MAZATLAN SIN., MX","FM-12","99999","V020","999,9,C,0000,1","22000,1,9,N","008000,1,N,1","+0190,1","+0172,1","10116,1","99,0000,9,1",,,,,"02,1,+00240,9,06,9",,,"02,99,1,02,1,06,1,00250,1,00,1,00,1",,"01,9",,,,"99999,9,10105,1","8,1,004,1,-010,1",,,"SYN100AAXX  01091 76458 32358 20000 10190 20172 30105 40116 58004 82600 90845 333 30/// 56600 59010 82708;","Q01  00002PRCP99"
"76458099999","2001-04-01T15:00:00","4","23.2","-106.4166666","4.0","COLONIA JUAN CARRASCO MAZATLAN SIN., MX","FM-12","99999","V020","050,1,N,0020,1","00510,1,9,N","012000,1,N,1","+0208,1","+0168,1","10125,1","99,0000,9,1",,,"4,1,03,1","4,1,03,1","08,1,+00510,9,06,9",,,"08,99,1,08,1,06,1,00450,1,00,1,00,1",,"01,9",,,,"99999,9,10113,1","2,1,016,1,-002,1",,"05,1","SYN106AAXX  01151 76458 31462 80502 10208 20168 30113 40125 52016 70544 88600 91445 333 30/// 56400 59002 88717;","Q01  00002PRCP99"
"76458099999","2001-04-01T18:00:00","4","23.2","-106.4166666","4.0","COLONIA JUAN CARRASCO MAZATLAN SIN., MX","FM-12","99999","V020","180,1,N,0030,1","00750,1,9,N","004000,1,N,1","+0234,1","+0174,1","10126,1","99,0000,9,1",,,"4,1,06,1","4,1,06,1","08,1,+00750,9,06,9",,,"08,99,1,08,1,06,1,00800,1,00,1,00,1",,"01,9",,"120,M,+0235,1","240,N,+0181,1","99999,9,10114,1","0,1,001,1,+000,1",,"05,1","SYN118AAXX  01181 76458 31540 81803 10234 20174 30114 40126 50001 70544 88600 91745 333 10235 20181 30/// 56400 59000 88725;","Q01  00002PRCP99"
"76458099999","2001-04-01T21:00:00","4","23.2","-106.4166666","4.0","COLONIA JUAN CARRASCO MAZATLAN SIN., MX","FM-12","99999","V020","300,1,N,0030,1","22000,1,9,N","008000,1,N,1","+0250,1","+0175,1","10113,1","99,0000,9,1",,,"4,1,03,1","4,1,03,1","03,1,+08700,9,08,9",,,"03,99,1,00,1,00,1,99999,9,00,1,08,1",,"01,9",,,,"99999,9,10101,1","7,1,013,1,-001,1",,"04,1","SYN106AAXX  01211 76458 31958 33003 10250 20175 30101 40113 57013 70444 80008 92050 333 30/// 56009 59001 83279;","Q01  00002PRCP99"
"76458099999","2001-04-02T00:00:00","4","23.2","-106.4166666","4.0","COLONIA JUAN CARRASCO MAZATLAN SIN., MX","FM-12","99999","V020","250,1,N,0030,1","22000,1,9,N","015000,1,N,1","+0244,1","+0179,1","99999,9","24,0000,9,1",,,,,,,,"02,99,1,00,1,00,1,99999,9,00,1,01,1",,"01,9",,"120,M,+0260,1","180,N,+0181,1","99999,9,10094,1","7,1,007,1,+008,1",,,"SYN124AAXX  02001 76458 32965 22503 10244 20179 30094 40015 57007 80001 92345 333 10260 20181 30/// 50364 56009 58008 70000 82075;","Q01+100153APOSLPQ02  00002PRCP99Q03  00003PRCP99"
"76458099999","2001-04-02T03:00:00","4","23.2","-106.4166666","4.0","COLONIA JUAN CARRASCO MAZATLAN SIN., MX","FM-12","99999","V020","290,1,N,0030,1","22000,1,9,N","010000,1,N,1","+0213,1","+0170,1","10121,1","99,0000,9,1",,,,,"03,1,+00540,9,05,9",,,"03,99,1,03,1,04,1,00450,1,00,1,00,1",,"01,9",,,,"99999,9,10110,1","2,1,016,1,+016,1",,,"SYN100AAXX  02031 76458 32460 32903 10213 20170 30110 40121 52016 83400 90250 333 30/// 56500 58016 83618;","Q01  00002PRCP99"
"76458099999","2001-04-02T12:00:00","4","23.2","-106.4166666","4.0","COLONIA JUAN CARRASCO MAZATLAN SIN., MX","FM-12","99999","V020","999,9,C,0000,1","00420,1,9,N","008000,1,N,1","+0202,1","+0169,1","10138,1","99,0000,9,1",,,,,"07,1,+00420,9,05,9",,,"07,99,1,07,1,04,1,00450,1,00,1,00,1",,"01,9","999,+0170,9","999,M,+0260,1","120,N,+0184,1","99999,9,10102,1","7,1,009,1,+005,1",,,"SYN112AAXX  02121 76458 32458 70000 10202 20169 30102 40138 57009 87400 91138 333 10260 20184 30017 56900 58005 87614;","Q01  00002PRCP99"
"76458099999","2001-04-02T21:00:00","4","23.2","-106.4166666","4.0","COLONIA JUAN CARRASCO MAZATLAN SIN., MX","FM-12","99999","V020","240,1,N,0030,1","22000,1,9,N","020000,1,N,1","+0252,1","+0175,1","10125,1","99,0000,9,1",,,,,"03,1,+02400,9,03,9",,,"04,99,1,99,9,00,1,99999,9,03,1,01,1",,"01,9",,,,"99999,9,10113,1","7,1,009,1,+012,1",,,"SYN106AAXX  02211 76458 32970 42403 10252 20175 30113 40125 57009 80031 92035 333 30/// 56099 58012 83358 81075;","Q01+000002SCOTLCQ02  00002PRCP99"
"76458099999","2001-04-03T00:00:00","4","23.2","-106.4166666","4.0","COLONIA JUAN CARRASCO MAZATLAN SIN., MX","FM-12","99999","V020","250,1,N,0030,1","22000,1,9,N","025000,1,N,1","+0236,1","+0163,1","10112,1","24,0000,9,1",,,,,,,,"03,99,1,00,1,00,1,99999,9,00,1,01,1",,"01,9",,"120,M,+0260,1","180,N,+0194,1","99999,9,10100,1","7,1,013,1,-006,1",,,"SYN124AAXX  03001 76458 32975 32503 10236 20163 30100 40112 57013 80001 92345 333 10260 20194 30/// 50512 56009 59006 70000 83078;","Q01  00002PRCP99Q02  00003PRCP99"
"76458099999","2001-04-03T03:00:00","4","23.2","-106.4166666","4.0","COLONIA JUAN CARRASCO MAZATLAN SIN., MX","FM-12","99999","V020","250,1,N,0020,1","22000,1,9,N","008000,1,N,1","+0212,1","+0163,1","10134,1","99,0000,9,1",,,,,"00,1,+99999,9,99,9",,,"00,99,1,00,1,00,1,99999,9,00,1,00,1",,"01,9",,,,"99999,9,10123,1","2,1,023,1,+013,1",,,"SYN082AAXX  03031 76458 32958 02502 10212 20163 30123 40134 52023 90240 333 30/// 58013;","Q01  00002PRCP99"
"76458099999","2001-04-03T12:00:00","4","23.2","-106.4166666","4.0","COLONIA JUAN CARRASCO MAZATLAN SIN., MX","FM-12","99999","V020","230,1,N,0010,1","22000,1,9,N","008000,1,N,1","+0178,1","+0149,1","10136,1","99,0000,9,1",,,,,"00,1,+99999,9,99,9",,,"00,99,1,00,1,00,1,99999,9,00,1,00,1",,"01,9","999,+0150,9","999,M,+0260,1","120,N,+0164,1","99999,9,10125,1","7,1,003,1,+023,1",,,"SYN094AAXX  03121 76458 32958 02301 10178 20149 30125 40136 57003 91140 333 10260 20164 30015 58023;","Q01  00002PRCP99"
"76458099999","2001-04-03T21:00:00","4","23.2","-106.4166666","4.0","COLONIA JUAN CARRASCO MAZATLAN SIN., MX","FM-12","99999","V020","270,1,N,0060,1","22000,1,9,N","020000,1,N,1","+0237,1","+0160,1","10138,1","99,0000,9,1",,,,,"00,1,+99999,9,99,9",,,"00,99,1,00,1,00,1,99999,9,00,1,00,1",,"01,9",,,,"99999,9,10127,1","7,1,018,1,+014,1",,,"SYN082AAXX  03211 76458 32970 02706 10237 20160 30127 40138 57018 92050 333 30/// 58014;","Q01  00002PRCP99"
"76458099999","2001-04-04T00:00:00","4","23.2","-106.4166666","4.0","COLONIA JUAN CARRASCO MAZATLAN SIN., MX","FM-12","99999","V020","290,1,N,0050,1","22000,1,9,N","020000,1,N,1","+0233,1","+0161,1","10125,1","24,0000,9,1",,,,,,,,"01,99,1,00,1,00,1,99999,9,00,1,01,1",,"01,9",,"120,M,+0256,1","180,N,+0161,1","99999,9,10113,1","7,1,014,1,+013,1",,,"SYN124AAXX  04001 76458 32970 12905 10233 20161 30113 40125 57014 80001 92350 333 10256 20161 30/// 50511 56009 58013 70000 81070;","Q01  00002PRCP99Q02  00003PRCP99"
"76458099999","2001-04-04T03:00:00","4","23.2","-106.4166666","4.0","COLONIA JUAN CARRASCO MAZATLAN SIN., MX","FM-12","99999","V020","300,1,N,0040,1","22000,1,9,N","010000,1,N,1","+0214,1","+0165,1","10140,1","99,0000,9,1",,,,,"00,1,+99999,9,99,9",,,"00,99,1,00,1,00,1,99999,9,00,1,00,1",,"01,9",,,,"99999,9,10128,1","2,1,014,1,+005,1",,,"SYN082AAXX  04031 76458 32960 03004 10214 20165 30128 40140 52014 90245 333 30/// 58005;","Q01  00002PRCP99"
"76458099999","2001-04-04T12:00:00","4","23.2","-106.4166666","4.0","COLONIA JUAN CARRASCO MAZATLAN SIN., MX","FM-12","99999","V020","999,9,C,0000,1","22000,1,9,N","008000,1,N,1","+0172,1","+0150,1","10124,1","99,0000,9,1",,,,,"00,1,+99999,9,99,9",,,"00,99,1,00,1,00,1,99999,9,00,1,00,1",,"01,9","999,+0140,9","999,M,+0256,1","120,N,+0160,1","99999,9,10113,1","7,1,007,1,-012,1",,,"SYN094AAXX  04121 76458 32958 00000 10172 20150 30113 40124 57007 91145 333 10256 20160 30014 59012;","Q01  00002PRCP99"
"76458099999","2001-04-04T15:00:00","4","23.2","-106.4166666","4.0","COLONIA JUAN CARRASCO MAZATLAN SIN., MX","FM-12","99999","V020","340,1,N,0020,1","22000,1,9,N","010000,1,N,1","+0198,1","+0170,1","10137,1","99,0000,9,1",,,"4,1,03,1","4,1,03,1","03,1,+07500,9,01,9",,,"03,99,1,00,1,00,1,99999,9,00,1,01,1",,"01,9",,,,"99999,9,10125,1","2,1,012,1,-017,1",,"04,1","SYN106AAXX  04151 76458 31960 33402 10198 20170 30125 40137 52012 70444 80001 91450 333 30/// 56009 59017 83075;","Q01  00002PRCP99"
"76458099999","2001-04-04T18:00:00","4","23.2","-106.4166666","4.0","COLONIA JUAN CARRASCO MAZATLAN SIN., MX","FM-12","99999","V020","240,1,N,0030,1","06000,1,9,N","012000,1,N,1","+0220,1","+0178,1","10137,1","99,0000,9,1",,,"4,1,06,1","4,1,06,1","06,1,+06000,9,01,9",,,"06,99,1,00,1,00,1,99999,9,00,1,02,1",,"01,9",,"120,M,+0237,1","240,N,+0159,1","99999,9,10125,1","4,1,000,1,-021,1",,"04,1","SYN118AAXX  04181 76458 31962 62403 10220 20178 30125 40137 54000 70444 80002 91740 333 10237 20159 30/// 56009 59021 86070;","Q01  00002PRCP99"
"76458099999","2001-04-04T21:00:00","4","23.2","-106.4166666","4.0","COLONIA JUAN CARRASCO MAZATLAN SIN., MX","FM-12","99999","V020","300,1,N,0060,1","22000,1,9,N","020000,1,N,1","+0239,1","+0181,1","10111,1","99,0000,9,1",,,,,"01,1,+00720,9,02,9",,,"01,99,1,01,1,01,1,00800,1,00,1,00,1",,"01,9",,,,"99999,9,10100,1","7,1,025,1,-027,1",,,"SYN100AAXX  04211 76458 32570 13006 10239 20181 30100 40111 57025 81100 92050 333 30/// 56800 59027 81824;","Q01  00002PRCP99"
"76458099999","2001-04-05T00:00:00","4","23.2","-106.4166666","4.0","COLONIA JUAN CARRASCO MAZATLAN SIN., MX","FM-12","99999","V020","300,1,N,0060,1","22000,1,9,N","020000,1,N,1","+0234,1","+0182,1","10095,1","24,0000,9,1",,,,,,,,"01,99,1,00,1,00,1,99999,9,00,1,01,1",,"01,9",,"120,M,+0255,1","180,N,+0159,1","99999,9,10084,1","7,1,016,1,-029,1",,,"SYN124AAXX  05001 76458 32970 13006 10234 20182 30084 40095 57016 80001 92350 333 10255 20159 30/// 50481 56009 59029 70000 81070;","Q01  00002PRCP99Q02  00003PRCP99"
"76458099999","2001-04-05T03:00:00","4","23.2","-106.4166666","4.0","COLONIA JUAN CARRASCO MAZATLAN SIN., MX","FM-12","99999","V020","310,1,N,0040,1","22000,1,9,N","008000,1,N,1","+0222,1","+0183,1","10108,1","99,0000,9,1",,,,,"00,1,+99999,9,99,9",,,"00,99,1,00,1,00,1,99999,9,00,1,00,1",,"01,9",,,,,"2,1,013,1,-031,1",,,"SYN076AAXX  05031 76458 32958 03104 10222 20183 40108 52013 90245 333 30/// 59031;","Q01  00002PRCP99"
"76458099999","2001-04-05T06:00:00","4","23.2","-106.4166666","4.0","COLONIA JUAN CARRASCO MAZATLAN SIN., MX","FM-12","99999","V020","360,1,N,0020,1","22000,1,9,N","008000,1,N,1","+0200,1","+0173,1","10112,1","99,0000,9,1",,,,,"00,1,+99999,9,99,9",,,"00,99,1,00,1,00,1,99999,9,00,1,00,1","0648,9","01,9",,"240,M,+0255,1","240,N,+0159,1","99999,9,10101,1","0,1,004,1,-037,1",,,"SYN100AAXX  05061 76458 32958 03602 10200 20173 30101 40112 50004 90530 333 10255 20159 30/// 55108 59037;","Q01  00002PRCP99"
"76458099999","2001-04-05T09:00:00","4","23.2","-106.4166666","4.0","COLONIA JUAN CARRASCO MAZATLAN SIN., MX","FM-12","99999","V020","999,9,C,0000,1","22000,1,9,N","008000,1,N,1","+0190,1","+0175,1","10110,1","99,0000,9,1",,,,,"00,1,+99999,9,99,9",,,"00,99,1,00,1,00,1,99999,9,00,1,00,1",,"01,9",,,,"99999,9,10096,1","7,1,004,1,-024,1",,,"SYN082AAXX  05091 76458 32958 00000 10190 20175 30096 40110 57004 90855 333 30/// 59024;","Q01  00002PRCP99"
"76458099999","2001-04-05T12:00:00","4","23.2","-106.4166666","4.0","COLONIA JUAN CARRASCO MAZATLAN SIN., MX","FM-12","99999","V020","130,1,N,0010,1","22000,1,9,N","008000,1,N,1","+0186,1","+0171,1","10101,1","24,0000,9,1",,,,,"00,1,+99999,9,99,9",,,"00,99,1,00,1,00,1,99999,9,00,1,00,1",,"01,9","999,+0150,9","999,M,+0255,1","120,N,+0172,1","99999,9,10090,1","7,1,006,1,-023,1",,,"SYN100AAXX  05121 76458 32958 01301 10186 20171 30090 40101 57006 91130 333 10255 20172 30015 59023 70000;","Q01  00002PRCP24"
"76458099999","2001-04-05T15:00:00","4","23.2","-106.4166666","4.0","COLONIA JUAN CARRASCO MAZATLAN SIN., MX","FM-12","99999","V020","150,1,N,0030,1","00240,1,9,N","003000,1,N,1","+0196,1","+0179,1","10135,1","99,0000,9,1",,,"4,1,03,1","0,1,03,1","07,1,+00240,9,06,9",,,"07,99,1,07,1,06,1,00250,1,99,9,99,9",,"01,9",,,,"99999,9,10122,1","2,1,032,1,+003,1",,"10,1","SYN106AAXX  05151 76458 31330 71503 10196 20179 30122 40135 52032 71040 876// 91455 333 30/// 563// 58003 87708;","Q01  00002PRCP99"
"76458099999","2001-04-05T18:00:00","4","23.2","-106.4166666","4.0","COLONIA JUAN CARRASCO MAZATLAN SIN., MX","FM-12","99999","V020","250,1,N,0030,1","06000,1,9,N","012000,1,N,1","+0238,1","+0184,1","10138,1","99,0000,9,1",,,,,"06,1,+06000,9,08,9",,,"06,99,1,99,9,00,1,99999,9,00,1,08,1",,"01,9",,"120,M,+0254,1","240,N,+0171,1","99999,9,10127,1","0,1,005,1,+002,1",,,"SYN112AAXX  05181 76458 32962 62503 10238 20184 30127 40138 50005 80008 91755 333 10254 20171 30/// 56/// 58002 86270;","Q01+000002SCOTLCQ02  00002PRCP99"
"76458099999","2001-04-05T21:00:00","4","23.2","-106.4166666","4.0","COLONIA JUAN CARRASCO MAZATLAN SIN., MX","FM-12","99999","V020","270,1,N,0040,1","05400,1,9,N","015000,1,N,1","+0243,1","+0198,1","10116,1","99,0000,9,1",,,,,"08,1,+05400,9,08,9",,,"08,99,1,99,9,00,1,99999,9,00,1,08,1",,"01,9",,,,"99999,9,10104,1","7,1,023,1,+004,1",,,"SYN100AAXX  05211 76458 32965 82704 10243 20198 30104 40116 57023 80008 92050 333 30/// 56009 58004 88268;","Q01+000002SCOTLCQ02  00002PRCP99"
"76458099999","2001-04-06T00:00:00","4","23.2","-106.4166666","4.0","COLONIA JUAN CARRASCO MAZATLAN SIN., MX","FM-12","99999","V020","290,1,N,0050,1","99999,9,9,N","015000,1,N,1","+0236,1","+0191,1","99999,9","24,0000,9,1",,,,,,,,"08,99,1,00,1,00,1,99999,9,00,1,08,1",,"01,9",,"120,M,+0260,1","180,N,+0171,1","99999,9,10098,1","6,1,006,1,+014,1",,,"SYN118AAXX  06001 76458 32965 82905 10236 20191 30098 56006 80008 92345 333 10260 20171 30/// 50291 56009 58014 70000 88268;","Q01  00002PRCP99Q02  00003PRCP99"
"76458099999","2001-04-06T03:00:00","4","23.2","-106.4166666","4.0","COLONIA JUAN CARRASCO MAZATLAN SIN., MX","FM-12","99999","V020","320,1,N,0020,1","02400,1,9,N","008000,1,N,1","+0216,1","+0193,1","10130,1","99,0000,9,1",,,,,"08,1,+02400,9,01,9",,,"08,99,1,08,1,00,1,02250,1,02,1,00,1",,"01,9",,,,"99999,9,10119,1","2,1,021,1,+022,1",,,"SYN100AAXX  06031 76458 32858 83202 10216 20193 30119 40130 52021 88020 90245 333 30/// 56090 58022 88458;","Q01  00002PRCP99"
"76458099999","2001-04-06T12:00:00","4","23.2","-106.4166666","4.0","COLONIA JUAN CARRASCO MAZATLAN SIN., MX","FM-12","99999","V020","999,9,C,0000,1","05400,1,9,N","008000,1,N,1","+0198,1","+0189,1","10131,1","24,0000,9,1",,,,,"07,1,+05400,9,08,9",,,"07,99,1,99,9,00,1,99999,9,00,1,08,1",,"01,9","999,+0170,9","999,M,+0260,1","120,N,+0182,1","99999,9,10120,1","7,1,004,1,+028,1",,,"SYN118AAXX  06121 76458 32958 70000 10198 20189 30120 40131 57004 80008 91145 333 10260 20182 30017 56009 58028 70000 87268;","Q01+000002SCOTLC"
"76458099999","2001-04-06T15:00:00","4","23.2","-106.4166666","4.0","COLONIA JUAN CARRASCO MAZATLAN SIN., MX","FM-12","99999","V020","999,9,C,0000,1","99999,9,9,N","010000,1,N,1","+0196,1","+0181,1","10142,1","99,0000,9,1",,,"4,1,03,1","4,1,03,1","02,1,+03000,9,03,9",,,"06,99,1,99,9,00,1,99999,9,03,1,06,1",,"01,9",,,,"99999,9,10131,1","2,1,011,1,+002,1",,"05,1","SYN112AAXX  06151 76458 31960 60000 10196 20181 30131 40142 52011 70544 80036 91450 333 30/// 56099 58002 82360 84078;","Q01+000002SCOTLCQ02  00002PRCP99"
"76458099999","2001-04-06T18:00:00","4","23.2","-106.4166666","4.0","COLONIA JUAN CARRASCO MAZATLAN SIN., MX","FM-12","99999","V020","140,1,N,0030,1","06600,1,9,N","012000,1,N,1","+0266,1","+0190,1","10139,1","99,0000,9,1",,,"4,1,06,1","4,1,06,1","06,1,+06600,9,01,9",,,"06,99,1,00,1,00,1,99999,9,00,1,06,1",,"01,9",,"120,M,+0277,1","240,N,+0183,1","99999,9,10127,1","1,1,004,1,+000,1",,"04,1","SYN118AAXX  06181 76458 31962 61403 10266 20190 30127 40139 51004 70444 80006 91750 333 10277 20183 30/// 56009 58000 86072;","Q01  00002PRCP99"
"76458099999","2001-04-06T21:00:00","4","23.2","-106.4166666","4.0","COLONIA JUAN CARRASCO MAZATLAN SIN., MX","FM-12","99999","V020","290,1,N,0060,1","22000,1,C,N","018000,1,N,1","+0250,1","+0193,1","10124,1","99,0000,9,1",,,,,"01,1,+00720,9,08,9",,,"05,99,1,01,1,04,1,00800,1,00,1,08,1",,"01,9",,,,"99999,9,10112,1","7,1,015,1,+008,1",,,"SYN106AAXX  06211 76458 32568 52906 10250 20193 30112 40124 57015 81408 92050 333 30/// 56609 58008 81824 84268;","Q01  00002PRCP99"
"76458099999","2001-04-07T00:00:00","4","23.2","-106.4166666","4.0","COLONIA JUAN CARRASCO MAZATLAN SIN., MX","FM-12","99999","V020","300,1,N,0050,1","99999,9,9,N","018000,1,N,1","+0239,1","+0171,1","10102,1","24,0000,9,1",,,,,,,,"05,99,1,00,1,00,1,99999,9,00,1,08,1",,"01,9",,"120,M,+0291,1","180,N,+0183,1","99999,9,10090,1","7,1,012,1,-008,1",,,"SYN124AAXX  07001 76458 32968 53005 10239 20171 30090 40102 57012 80008 92345 333 10291 20183 30/// 50351 56009 59008 70000 85268;","Q01  00002PRCP99Q02  00003PRCP99"
"76458099999","2001-04-07T03:00:00","4","23.2","-106.4166666","4.0","COLONIA JUAN CARRASCO MAZATLAN SIN., MX","FM-12","99999","V020","330,1,N,0050,1","22000,1,9,N","008000,1,N,1","+0220,1","+0184,1","10117,1","99,0000,9,1",,,,,"02,1,+06000,9,01,9",,,"02,99,1,00,1,00,1,99999,9,00,1,06,1",,"01,9",,,,"99999,9,10105,1","2,1,015,1,-014,1",,,"SYN094AAXX  07031 76458 32958 23305 10220 20184 30105 40117 52015 80006 90245 333 30/// 59014 82070;","Q01  00002PRCP99"
"76458099999","2001-04-07T09:00:00","4","23.2","-106.4166666","4.0","COLONIA JUAN CARRASCO MAZATLAN SIN., MX","FM-12","99999","V020","300,1,N,0060,1","22000,1,9,N","008000,1,N,1","+0194,1","+0166,1","10114,1","99,0000,9,1",,,,,"02,1,+06000,9,01,9",,,"02,99,1,00,1,00,1,99999,9,00,1,06,1",,"01,9",,,,"99999,9,10103,1","7,1,014,1,-020,1",,,"SYN100AAXX  07091 76458 32958 23006 10194 20166 30103 40114 57014 80006 90855 333 30/// 56009 59020 82070;","Q01  00002PRCP99"
"76458099999","2001-04-07T12:00:00","4","23.2","-106.4166666","4.0","COLONIA JUAN CARRASCO MAZATLAN SIN., MX","FM-12","99999","V020","999,9,C,0000,1","22000,1,9,N","008000,1,N,1","+0185,1","+0158,1","10119,1","99,0000,9,1",,,,,"03,1,+06600,9,01,9",,,"03,99,1,00,1,00,1,99999,9,00,1,06,1",,"01,9","999,+0150,9","999,M,+0291,1","120,N,+0168,1","99999,9,10108,1","2,1,005,1,-012,1",,,"SYN112AAXX  07121 76458 32958 30000 10185 20158 30108 40119 52005 80006 91138 333 10291 20168 30015 56009 59012 83072;","Q01  00002PRCP99"
"76458099999","2001-04-07T15:00:00","4","23.2","-106.4166666","4.0","COLONIA JUAN CARRASCO MAZATLAN SIN., MX","FM-12","99999","V020","140,1,N,0030,1","06000,1,9,N","008000,1,N,1","+0208,1","+0171,1","10135,1","99,0000,9,1",,,,,"07,1,+06000,9,08,9",,,"07,99,1,99,9,00,1,99999,9,00,1,06,1",,"01,9",,,,"99999,9,10124,1","2,1,016,1,-007,1",,,"SYN100AAXX  07151 76458 32958 71403 10208 20171 30124 40135 52016 80006 91455 333 30/// 56/// 59007 87270;","Q01+000002SCOTLCQ02  00002PRCP99"
"76458099999","2001-04-07T18:00:00","4","23.2","-106.4166666","4.0","COLONIA JUAN CARRASCO MAZATLAN SIN., MX","FM-12","99999","V020","200,1,N,0030,1","06000,1,9,N","008000,1,N,1","+0238,1","+0168,1","10141,1","99,0000,9,1",,,,,"07,1,+06000,9,01,9",,,"07,99,1,00,1,00,1,99999,9,00,1,02,1",,"01,9",,"120,M,+0257,1","240,N,+0173,1","99999,9,10130,1","1,1,006,1,+003,1",,,"SYN112AAXX  07181 76458 32958 72003 10238 20168 30130 40141 51006 80002 91755 333 10257 20173 30/// 56/// 58003 87070;","Q01  00002PRCP99"
"76458099999","2001-04-07T21:00:00","4","23.2","-106.4166666","4.0","COLONIA JUAN CARRASCO MAZATLAN SIN., MX","FM-12","99999","V020","280,1,N,0030,1","22000,1,9,N","014000,1,N,1","+0234,1","+0177,1","10128,1","99,0000,9,1",,,,,"03,1,+06000,9,01,9",,,"03,99,1,00,1,00,1,99999,9,00,1,02,1",,"01,9",,,,"99999,9,10116,1","7,1,014,1,+004,1",,,"SYN094AAXX  07211 76458 32964 32803 10234 20177 30116 40128 57014 80002 92045 333 30/// 58004 83070;","Q01  00002PRCP99"
"76458099999","2001-04-08T03:00:00","4","23.2","-106.4166666","4.0","COLONIA JUAN CARRASCO MAZATLAN SIN., MX","FM-12","99999","V020","290,1,N,0040,1","22000,1,9,N","010000,1,N,1","+0217,1","+0178,1","10120,1","99,0000,9,1",,,,,"00,1,+99999,9,99,9",,,"00,99,1,00,1,00,1,99999,9,00,1,00,1",,"01,9",,,,"99999,9,10109,1","3,1,005,1,+004,1",,,"SYN082AAXX  08031 76458 32960 02904 10217 20178 30109 40120 53005 90250 333 30/// 58004;","Q01  00002PRCP99"
"76458099999","2001-04-08T06:00:00","4","23.2","-106.4166666","4.0","COLONIA JUAN CARRASCO MAZATLAN SIN., MX","FM-12","99999","V020","340,1,N,0020,1","22000,1,9,N","010000,1,N,1","+0203,1","+0144,1","10128,1","99,0000,9,1",,,,,"00,1,+99999,9,99,9",,,"00,99,1,00,1,00,1,99999,9,00,1,00,1","0462,9","01,9",,"240,M,+0262,1","240,N,+0173,1","99999,9,10117,1","2,1,008,1,+000,1",,,"SYN100AAXX  08061 76458 32960 03402 10203 20144 30117 40128 52008 90540 333 10262 20173 30/// 55077 58000;","Q01  00002PRCP99"
"76458099999","2001-04-08T09:00:00","4","23.2","-106.4166666","4.0","COLONIA JUAN CARRASCO MAZATLAN SIN., MX","FM-12","99999","V020","999,9,C,0000,1","22000,1,9,N","008000,1,N,1","+0184,1","+0152,1","10120,1","99,0000,9,1",,,"4,1,03,1","4,1,03,1","00,1,+99999,9,99,9",,,"00,99,1,00,1,00,1,99999,9,00,1,00,1",,"01,9",,,,"99999,9,10108,1","7,1,009,1,+005,1",,"05,1","SYN088AAXX  08091 76458 31958 00000 10184 20152 30108 40120 57009 70544 90855 333 30/// 58005;","Q01  00002PRCP99"
"76458099999","2001-04-08T12:00:00","4","23.2","-106.4166666","4.0","COLONIA JUAN CARRASCO MAZATLAN SIN., MX","FM-12","99999","V020","999,9,C,0000,1","22000,1,9,N","008000,1,N,1","+0176,1","+0135,1","10119,1","24,0000,9,1",,,"4,1,06,1","4,1,06,1","00,1,+99999,9,99,9",,,"00,99,1,00,1,00,1,99999,9,00,1,00,1",,"01,9","999,+0150,9","999,M,+0262,1","120,N,+0160,1","99999,9,10107,1","4,1,000,1,-001,1",,"05,1","SYN106AAXX  08121 76458 31958 00000 10176 20135 30107 40119 54001 70544 91140 333 10262 20160 30015 59001 70000;","Q01  00002PRCP24"
"76458099999","2001-04-08T21:00:00","4","23.2","-106.4166666","4.0","COLONIA JUAN CARRASCO MAZATLAN SIN., MX","FM-12","99999","V020","290,1,N,0040,1","22000,1,9,N","012000,1,N,1","+0246,1","+0168,1","10128,1","99,0000,9,1",,,"4,1,03,1","4,1,03,1","01,1,+07500,9,01,9",,,"01,99,1,00,1,00,1,99999,9,00,1,01,1",,"01,9",,,,"99999,9,10116,1","9,9,999,9,-001,1",,"04,1","SYN106AAXX  08211 76458 31962 12904 10246 20168 30116 40128 5//// 70444 80001 92050 333 30/// 56009 59001 81075;","Q01  00002PRCP99"
"76458099999","2001-04-09T00:00:00","4","23.2","-106.4166666","4.0","COLONIA JUAN CARRASCO MAZATLAN SIN., MX","FM-12","99999","V020","300,1,N,0040,1","22000,1,9,N","018000,1,N,1","+0247,1","+0156,1","10109,1","24,0000,9,1",,,,,,,,"01,99,1,00,1,00,1,99999,9,00,1,01,1",,"01,9",,"120,M,+0265,1","180,N,+0154,1","99999,9,10096,1","7,1,019,1,-008,1",,,"SYN124AAXX  09001 76458 32968 13004 10247 20156 30096 40109 57019 80001 92350 333 10265 20154 30/// 50481 56009 59008 70000 81070;","Q01  00002PRCP99Q02  00003PRCP99"
"76458099999","2001-04-09T12:00:00","4","23.2","-106.4166666","4.0","COLONIA JUAN CARRASCO MAZATLAN SIN., MX","FM-12","99999","V020","999,9,C,0000,1","22000,1,9,N","008000,1,N,1","+0176,1","+0151,1","10116,1","24,0000,9,1",,,,,"00,1,+99999,9,99,9",,,"00,99,1,00,1,00,1,99999,9,00,1,00,1",,"01,9","999,+0140,9","999,M,+0265,1","120,N,+0158,1","99999,9,10105,1","7,1,006,1,-001,1",,,"SYN100AAXX  09121 76458 32958 00000 10176 20151 30105 40116 57006 91145 333 10265 20158 30014 59001 70000;","Q01  00002PRCP24"
"76458099999","2001-04-09T15:00:00","4","23.2","-106.4166666","4.0","COLONIA JUAN CARRASCO MAZATLAN SIN., MX","FM-12","99999","V020","140,1,N,0020,1","22000,1,9,N","010000,1,N,1","+0210,1","+0162,1","10129,1","99,0000,9,1",,,,,"00,1,+99999,9,99,9",,,"00,99,1,00,1,00,1,99999,9,00,1,00,1",,"01,9",,,,"99999,9,10117,1","2,1,012,1,+999,9",,,"SYN082AAXX  09151 76458 32960 01402 10210 20162 30117 40129 52012 91455 333 30/// 58///;","Q01  00002PRCP99"
"76458099999","2001-04-09T21:00:00","4","23.2","-106.4166666","4.0","COLONIA JUAN CARRASCO MAZATLAN SIN., MX","FM-12","99999","V020","250,1,N,0040,1","22000,1,9,N","017000,1,N,1","+0240,1","+0190,1","10122,1","99,0000,9,1",,,"4,1,03,1","4,1,03,1","00,1,+99999,9,99,9",,,"00,99,1,00,1,00,1,99999,9,00,1,00,1",,"01,9",,,,"99999,9,10110,1","2,1,010,1,-006,1",,"04,1","SYN088AAXX  09211 76458 31967 02504 10240 20190 30110 40122 52010 70444 92050 333 30/// 59006;","Q01  00002PRCP99"
"76458099999","2001-04-10T00:00:00","4","23.2","-106.4166666","4.0","COLONIA JUAN CARRASCO MAZATLAN SIN., MX","FM-12","99999","V020","310,1,N,0040,1","22000,1,9,N","028000,1,N,1","+0246,1","+0171,1","10110,1","24,0000,9,1",,,,,"00,1,+99999,9,99,9",,,"00,99,1,00,1,00,1,99999,9,00,1,00,1",,"01,9",,"120,M,+0262,1","180,N,+0164,1","99999,9,10098,1","7,1,012,1,+002,1",,,"SYN106AAXX  10001 76458 32978 03104 10246 20171 30098 40110 57012 92340 333 10262 20164 30/// 50429 58002 70000;","Q01  00002PRCP24"
"76458099999","2001-04-10T09:00:00","4","23.2","-106.4166666","4.0","COLONIA JUAN CARRASCO MAZATLAN SIN., MX","FM-12","99999","V020","999,9,C,0000,1","22000,1,9,N","005000,1,N,1","+0190,1","+0156,1","10108,1","99,0000,9,1",,,,,"00,1,+99999,9,99,9",,,"00,99,1,00,1,00,1,99999,9,00,1,00,1",,"01,9",,,,"99999,9,10092,1","7,1,018,1,-014,1",,,"SYN082AAXX  10091 76458 32950 00000 10190 20156 30092 40108 57018 90858 333 30/// 59014;","Q01  00002PRCP99"
"76458099999","2001-04-10T12:00:00","4","23.2","-106.4166666","4.0","COLONIA JUAN CARRASCO MAZATLAN SIN., MX","FM-12","99999","V020","999,9,C,0000,1","22000,1,9,N","008000,1,N,1","+0184,1","+0146,1","10115,1","24,0000,9,1",,,,,,,,"02,99,1,00,1,00,1,99999,9,00,1,06,1",,"01,9","999,+0140,9","999,M,+0262,1","120,N,+0172,1","99999,9,10104,1","2,1,007,1,+999,9",,,"SYN117AAXX  10121 76458 32958 20000 10184 20146 30104 40115 52007 80006 91130 333 10262 20172 30014 56009 5001 70000 82072;","Q01  00002PRCP99Q02  00003PRCP99"
"76458099999","2001-04-10T18:00:00","4","23.2","-106.4166666","4.0","COLONIA JUAN CARRASCO MAZATLAN SIN., MX","FM-12","99999","V020","240,1,N,0030,1","22000,1,9,N","020000,1,N,1","+0242,1","+0179,1","10129,1","99,0000,9,1",,,,,"04,1,+06000,9,08,9",,,"04,99,1,99,9,00,1,99999,9,00,1,06,1",,"01,9",,"120,M,+0265,1","240,N,+0167,1","99999,9,10118,1","3,1,003,1,-002,1",,,"SYN112AAXX  10181 76458 32970 42403 10242 20179 30118 40129 53003 80006 91755 333 10265 20167 30/// 56/// 59002 84270;","Q01+000002SCOTLCQ02  00002PRCP99"
"76458099999","2001-04-10T21:00:00","4","23.2","-106.4166666","4.0","COLONIA JUAN CARRASCO MAZATLAN SIN., MX","FM-12","99999","V020","290,1,N,0060,1","06000,1,9,N","020000,1,N,1","+0238,1","+0188,1","10117,1","99,0000,9,1",,,,,"07,1,+06000,9,01,9",,,"07,99,1,00,1,00,1,99999,9,00,1,08,1",,"01,9",,,,"99999,9,10106,1","7,1,012,1,-014,1",,,"SYN100AAXX  10211 76458 32970 72906 10238 20188 30106 40117 57012 80008 92050 333 30/// 56009 59014 87070;","Q01  00002PRCP99"
"76458099999","2001-04-11T00:00:00","4","23.2","-106.4166666","4.0","COLONIA JUAN CARRASCO MAZATLAN SIN., MX","FM-12","99999","V020","300,1,N,0050,1","99999,9,9,N","020000,1,N,1","+0232,1","+0183,1","10105,1","24,0000,9,1",,,,,,,,"07,99,1,00,1,00,1,99999,9,00,1,08,1",,"01,9",,"120,M,+0264,1","180,N,+0167,1","99999,9,10093,1","7,1,013,1,-005,1",,,"SYN124AAXX  11001 76458 32970 73005 10232 20183 30093 40105 57013 80008 92340 333 10264 20167 30/// 50471 56009 59005 70000 87268;","Q01  00002PRCP99Q02  00003PRCP99"
"76458099999","2001-04-11T06:00:00","4","23.2","-106.4166666","4.0","COLONIA JUAN CARRASCO MAZATLAN SIN., MX","FM-12","99999","V020","320,1,N,0050,1","22000,1,9,N","008000,1,N,1","+0198,1","+0158,1","10120,1","99,0000,9,1",,,,,"00,1,+99999,9,99,9",,,"00,99,1,00,1,00,1,99999,9,00,1,00,1","0504,9","01,9",,"240,M,+0264,1","240,N,+0167,1","99999,9,10109,1","2,1,012,1,-006,1",,,"SYN100AAXX  11061 76458 32958 03205 10198 20158 30109 40120 52012 90530 333 10264 20167 30/// 55084 59006;","Q01  00002PRCP99"
"76458099999","2001-04-11T12:00:00","4","23.2","-106.4166666","4.0","COLONIA JUAN CARRASCO MAZATLAN SIN., MX","FM-12","99999","V020","999,9,C,0000,1","22000,1,9,N","008000,1,N,1","+0168,1","+0139,1","10103,1","24,0000,9,1",,,,,"00,1,+99999,9,99,9",,,"00,99,1,00,1,00,1,99999,9,00,1,00,1",,"01,9","999,+0140,9","999,M,+0264,1","120,N,+0152,1","99999,9,10092,1","7,1,004,1,-011,1",,,"SYN100AAXX  11121 76458 32958 00000 10168 20139 30092 40103 57004 91130 333 10264 20152 30014 59011 70000;","Q01  00002PRCP24"
"76458099999","2001-04-11T15:00:00","4","23.2","-106.4166666","4.0","COLONIA JUAN CARRASCO MAZATLAN SIN., MX","FM-12","99999","V020","320,1,N,0040,1","22000,1,9,N","010000,1,N,1","+0190,1","+0130,1","10117,1","99,0000,9,1",,,"4,1,03,1","4,1,03,1","04,1,+06000,9,01,9",,,"04,99,1,00,1,00,1,99999,9,00,1,02,1",,"01,9",,,,"99999,9,10105,1","2,1,013,1,-016,1",,"05,1","SYN106AAXX  11151 76458 31960 43204 10190 20130 30105 40117 52013 70544 80002 91450 333 30/// 56009 59016 84070;","Q01  00002PRCP99"
"76458099999","2001-04-11T18:00:00","4","23.2","-106.4166666","4.0","COLONIA JUAN CARRASCO MAZATLAN SIN., MX","FM-12","99999","V020","300,1,N,0030,1","06000,1,9,N","015000,1,N,1","+0212,1","+0128,1","10128,1","99,0000,9,1",,,"4,1,06,1","4,1,06,1","05,1,+06000,9,01,9",,,"05,99,1,00,1,00,1,99999,9,00,1,02,1",,"01,9",,"120,M,+0225,1","240,N,+0160,1","99999,9,10117,1","2,1,012,1,-001,1",,"04,1","SYN118AAXX  11181 76458 31965 53003 10212 20128 30117 40128 52012 70444 80002 91750 333 10225 20160 30/// 56009 59001 85070;","Q01  00002PRCP99"
"76458099999","2001-04-11T21:00:00","4","23.2","-106.4166666","4.0","COLONIA JUAN CARRASCO MAZATLAN SIN., MX","FM-12","99999","V020","300,1,N,0070,1","22000,1,9,N","018000,1,N,1","+0227,1","+0119,1","10113,1","99,0000,9,1",,,,,"02,1,+06000,9,01,9",,,"02,99,1,00,1,00,1,99999,9,00,1,06,1",,"01,9",,,,"99999,9,10102,1","7,1,015,1,-004,1",,,"SYN100AAXX  11211 76458 32968 23007 10227 20119 30102 40113 57015 80006 92045 333 30/// 56009 59004 82070;","Q01  00002PRCP99"
"76458099999","2001-04-12T00:00:00","4","23.2","-106.4166666","4.0","COLONIA JUAN CARRASCO MAZATLAN SIN., MX","FM-12","99999","V020","300,1,N,0060,1","22000,1,9,N","020000,1,N,1","+0221,1","+0121,1","10105,1","24,0000,9,1",,,,,,,,"04,99,1,00,1,00,1,99999,9,00,1,08,1",,"01,9",,"120,M,+0241,1","180,N,+0160,1","99999,9,10094,1","0,1,008,1,+001,1",,,"SYN124AAXX  12001 76458 32970 43006 10221 20121 30094 40105 50008 80008 92345 333 10241 20160 30/// 50521 56009 58001 70000 84268;","Q01  00002PRCP99Q02  00003PRCP99"
"76458099999","2001-04-12T03:00:00","4","23.2","-106.4166666","4.0","COLONIA JUAN CARRASCO MAZATLAN SIN., MX","FM-12","99999","V020","310,1,N,0040,1","22000,1,9,N","008000,1,N,1","+0194,1","+0133,1","10123,1","99,0000,9,1",,,,,"00,1,+99999,9,99,9",,,"00,99,1,00,1,00,1,99999,9,00,1,00,1",,"01,9",,,,"99999,9,10111,1","2,1,017,1,+015,1",,,"SYN082AAXX  12031 76458 32958 03104 10194 20133 30111 40123 52017 90245 333 30/// 58015;","Q01  00002PRCP99"
"76458099999","2001-04-12T12:00:00","4","23.2","-106.4166666","4.0","COLONIA JUAN CARRASCO MAZATLAN SIN., MX","FM-12","99999","V020","330,1,N,0020,1","22000,1,9,N","008000,1,N,1","+0162,1","+0111,1","10122,1","24,0000,9,1",,,,,"00,1,+99999,9,99,9",,,"00,99,1,00,1,00,1,99999,9,00,1,00,1",,"01,9","999,+0140,9","999,M,+0241,1","120,N,+0152,1","99999,9,10110,1","7,1,007,1,+018,1",,,"SYN100AAXX  12121 76458 32958 03302 10162 20111 30110 40122 57007 91130 333 10241 20152 30014 58018 70000;","Q01  00002PRCP24"
"76458099999","2001-04-12T18:00:00","4","23.2","-106.4166666","4.0","COLONIA JUAN CARRASCO MAZATLAN SIN., MX","FM-12","99999","V020","280,1,N,0050,1","22000,1,9,N","020000,1,N,1","+0218,1","+0127,1","10127,1","99,0000,9,1",,,,,"02,1,+06000,9,01,9",,,"02,99,1,00,1,00,1,99999,9,00,1,02,1",,"01,9",,"120,M,+0227,1","240,N,+0142,1","99999,9,10115,1","0,1,001,1,-002,1",,,"SYN112AAXX  12181 76458 32970 22805 10218 20127 30115 40127 50001 80002 91755 333 10227 20142 30/// 56/// 59002 82070;","Q01  00002PRCP99"
"76458099999","2001-04-12T21:00:00","4","23.2","-106.4166666","4.0","COLONIA JUAN CARRASCO MAZATLAN SIN., MX","FM-12","99999","V020","290,1,N,0060,1","22000,1,9,N","020000,1,N,1","+0210,1","+0154,1","10104,1","99,0000,9,1",,,,,"04,1,+06000,9,01,9",,,"04,99,1,00,1,00,1,99999,9,00,1,06,1",,"01,9",,,,"99999,9,10094,1","7,1,021,1,-008,1",,,"SYN100AAXX  12211 76458 32970 42906 10210 20154 30094 40104 57021 80006 92050 333 30/// 56009 59008 84070;","Q01  00002PRCP99"
"76458099999","2001-04-13T00:00:00","4","23.2","-106.4166666","4.0","COLONIA JUAN CARRASCO MAZATLAN SIN., MX","FM-12","99999","V020","290,1,N,0050,1","22000,1,9,N","020000,1,N,1","+0233,1","+0104,1","10097,1","24,0000,9,1",,,,,,,,"01,99,1,00,1,00,1,99999,9,00,1,01,1",,"01,9",,"120,M,+0239,1","180,N,+0142,1","99999,9,10086,1","7,1,008,1,-008,1",,,"SYN124AAXX  13001 76458 32970 12905 10233 20104 30086 40097 57008 80001 92345 333 10239 20142 30/// 50531 56009 59008 70000 81070;","Q01  00002PRCP99Q02  00003PRCP99"
"76458099999","2001-04-13T09:00:00","4","23.2","-106.4166666","4.0","COLONIA JUAN CARRASCO MAZATLAN SIN., MX","FM-12","99999","V020","999,9,C,0000,1","22000,1,9,N","008000,1,N,1","+0172,1","+0143,1","10113,1","99,0000,9,1",,,,,"00,1,+99999,9,99,9",,,"00,99,1,00,1,00,1,99999,9,00,1,00,1",,"01,9",,,,"99999,9,10101,1","7,1,005,1,-015,1",,,"SYN082AAXX  13091 76458 32958 00000 10172 20143 30101 40113 57005 90900 333 30/// 59015;","Q01  00002PRCP99"
"76458099999","2001-04-13T12:00:00","4","23.2","-106.4166666","4.0","COLONIA JUAN CARRASCO MAZATLAN SIN., MX","FM-12","99999","V020","330,1,N,0010,1","22000,1,9,N","008000,1,N,1","+0162,1","+0143,1","10109,1","24,0000,9,1",,,,,"00,1,+99999,9,99,9",,,"00,99,1,00,1,00,1,99999,9,00,1,00,1",,"01,9","999,+0140,9","999,M,+0239,1","120,N,+0152,1","99999,9,10097,1","7,1,004,1,-012,1",,,"SYN100AAXX  13121 76458 32958 03301 10162 20143 30097 40109 57004 91130 333 10239 20152 30014 59012 70000;","Q01  00002PRCP24"
"76458099999","2001-04-13T18:00:00","4","23.2","-106.4166666","4.0","COLONIA JUAN CARRASCO MAZATLAN SIN., MX","FM-12","99999","V020","260,1,N,0040,1","06000,1,9,N","015000,1,N,1","+0210,1","+0150,1","10133,1","99,0000,9,1",,,,,"05,1,+06000,9,08,9",,,"05,99,1,99,9,00,1,99999,9,00,1,06,1",,"01,9",,"120,M,+0234,1","240,N,+0153,1","99999,9,10121,1","1,1,006,1,+006,1",,,"SYN112AAXX  13181 76458 32965 52604 10210 20150 30121 40133 51006 80006 91755 333 10234 20153 30/// 56/// 58006 85270;","Q01+000002SCOTLCQ02  00002PRCP99"
"76458099999","2001-04-13T21:00:00","4","23.2","-106.4166666","4.0","COLONIA JUAN CARRASCO MAZATLAN SIN., MX","FM-12","99999","V020","290,1,N,0060,1","22000,1,9,N","018000,1,N,1","+0222,1","+0147,1","10112,1","99,0000,9,1",,,,,"04,1,+05400,9,08,9",,,"04,99,1,99,9,00,1,99999,9,00,1,08,1",,"01,9",,,,"99999,9,10100,1","7,1,021,1,+006,1",,,"SYN100AAXX  13211 76458 32968 42906 10222 20147 30100 40112 57021 80008 92045 333 30/// 56009 58006 84268;","Q01+000002SCOTLCQ02  00002PRCP99"
"76458099999","2001-04-14T00:00:00","4","23.2","-106.4166666","4.0","COLONIA JUAN CARRASCO MAZATLAN SIN., MX","FM-12","99999","V020","290,1,N,0050,1","22000,1,9,N","018000,1,N,1","+0228,1","+0159,1","10099,1","24,0000,9,1",,,,,,,,"01,99,1,00,1,00,1,99999,9,00,1,08,1",,"01,9",,"120,M,+0241,1","180,N,+0153,1","99999,9,10087,1","7,1,013,1,+001,1",,,"SYN124AAXX  14001 76458 32968 12905 10228 20159 30087 40099 57013 80008 92340 333 10241 20153 30/// 50451 56009 58001 70000 81268;","Q01  00002PRCP99Q02  00003PRCP99"
"76458099999","2001-04-14T03:00:00","4","23.2","-106.4166666","4.0","COLONIA JUAN CARRASCO MAZATLAN SIN., MX","FM-12","99999","V020","310,1,N,0040,1","22000,1,9,N","008000,1,N,1","+0200,1","+0169,1","10124,1","99,0000,9,1",,,,,"00,1,+99999,9,99,9",,,"00,99,1,00,1,00,1,99999,9,00,1,00,1",,"01,9",,,,"99999,9,10113,1","2,1,026,1,+013,1",,,"SYN082AAXX  14031 76458 32958 03104 10200 20169 30113 40124 52026 90245 333 30/// 58013;","Q01  00002PRCP99"
"76458099999","2001-04-14T12:00:00","4","23.2","-106.4166666","4.0","COLONIA JUAN CARRASCO MAZATLAN SIN., MX","FM-12","99999","V020","999,9,C,0000,1","00180,1,9,N","008000,1,N,1","+0180,1","+0171,1","10132,1","24,0000,9,1",,,"4,1,06,1","4,1,06,1","08,1,+00180,9,05,9",,,"08,99,1,08,1,06,1,99999,9,99,9,99,9",,"01,9","999,+0150,9","999,M,+0241,1","120,N,+0164,1","99999,9,10120,1","4,1,000,1,+022,1",,"05,1","SYN124AAXX  14121 76458 31958 80000 10180 20171 30120 40132 54002 70544 886// 91150 333 10241 20164 30015 563// 58022 70000 88606;",
"76458099999","2001-04-14T18:00:00","4","23.2","-106.4166666","4.0","COLONIA JUAN CARRASCO MAZATLAN SIN., MX","FM-12","99999","V020","260,1,N,0030,1","22000,1,9,N","015000,1,N,1","+0228,1","+0170,1","10148,1","99,0000,9,1",,,,,"00,1,+99999,9,99,9",,,"00,99,1,00,1,00,1,99999,9,00,1,00,1",,"01,9",,"120,M,+0250,1","240,N,+0162,1","99999,9,10137,1","6,1,004,1,+016,1",,,"SYN094AAXX  14181 76458 32965 02603 10228 20170 30137 40148 56004 91755 333 10250 20162 30/// 58016;","Q01  00002PRCP99"
"76458099999","2001-04-14T21:00:00","4","23.2","-106.4166666","4.0","COLONIA JUAN CARRASCO MAZATLAN SIN., MX","FM-12","99999","V020","260,1,N,0050,1","22000,1,9,N","018000,1,N,1","+0224,1","+0179,1","10128,1","99,0000,9,1",,,,,"02,1,+06000,9,01,9",,,"02,99,1,00,1,00,1,99999,9,00,1,01,1",,"01,9",,,,"99999,9,10117,1","7,1,020,1,+017,1",,,"SYN094AAXX  14211 76458 32968 22605 10224 20179 30117 40128 57020 80001 92045 333 30/// 58017 82070;","Q01  00002PRCP99"
"76458099999","2001-04-15T21:00:00","4","23.2","-106.4166666","4.0","COLONIA JUAN CARRASCO MAZATLAN SIN., MX","FM-12","99999","V020","260,1,N,0040,1","22000,1,9,N","020000,1,N,1","+0230,1","+0186,1","10107,1","99,0000,9,1",,,,,"00,1,+99999,9,99,9",,,"00,99,1,00,1,00,1,99999,9,00,1,00,1",,"01,9",,,,"99999,9,10095,1","7,1,013,1,-022,1",,,"SYN082AAXX  15211 76458 32970 02604 10230 20186 30095 40107 57013 92045 333 30/// 59022;","Q01  00002PRCP99"
"76458099999","2001-04-16T00:00:00","4","23.2","-106.4166666","4.0","COLONIA JUAN CARRASCO MAZATLAN SIN., MX","FM-12","99999","V020","310,1,N,0030,1","22000,1,9,N","023000,1,N,1","+0240,1","+0157,1","10089,1","24,0000,9,1",,,,,"00,1,+99999,9,99,9",,,"00,99,1,00,1,00,1,99999,9,00,1,00,1",,"01,9",,"120,M,+0260,1","180,N,+0169,1","99999,9,10077,1","7,1,018,1,-023,1",,,"SYN106AAXX  16001 76458 32973 03103 10240 20157 30077 40089 57018 92340 333 10260 20169 30/// 50334 59023 70000;","Q01  00002PRCP24"
"76458099999","2001-04-16T03:00:00","4","23.2","-106.4166666","4.0","COLONIA JUAN CARRASCO MAZATLAN SIN., MX","FM-12","99999","V020","310,1,N,0040,1","22000,1,9,N","008000,1,N,1","+0226,1","+0130,1","10096,1","99,0000,9,1",,,,,"00,1,+99999,9,99,9",,,"00,99,1,00,1,00,1,99999,9,00,1,00,1",,"01,9",,,,"99999,9,10030,1","2,1,007,1,-021,1",,,"SYN082AAXX  16031 76458 32958 03104 10226 20130 30030 40096 52007 90245 333 30/// 59021;","Q01  00002PRCP99"
"76458099999","2001-04-16T06:00:00","4","23.2","-106.4166666","4.0","COLONIA JUAN CARRASCO MAZATLAN SIN., MX","FM-12","99999","V020","320,1,N,0020,1","22000,1,9,N","008000,1,N,1","+0212,1","+0146,1","10113,1","99,0000,9,1",,,,,"00,1,+99999,9,99,9",,,"00,99,1,00,1,00,1,99999,9,00,1,00,1","0660,9","01,9",,"240,M,+0260,1","240,N,+0169,1","99999,9,10102,2","2,1,018,1,-003,1",,,"SYN100AAXX  16061 76458 32958 03202 10212 20146 30102 40113 52018 90535 333 10260 20169 30/// 55110 59003;","Q01+101023APOSP Q02  00002PRCP99"
"76458099999","2001-04-16T12:00:00","4","23.2","-106.4166666","4.0","COLONIA JUAN CARRASCO MAZATLAN SIN., MX","FM-12","99999","V020","120,1,N,0020,1","22000,1,9,N","008000,1,N,1","+0180,1","+0148,1","10106,1","24,0000,9,1",,,,,"00,1,+99999,9,99,9",,,"00,99,1,00,1,00,1,99999,9,00,1,00,1",,"01,9","999,+0150,9","999,M,+0252,1","120,N,+0168,1","99999,9,10095,1","2,1,001,1,-005,1",,,"SYN100AAXX  16121 76458 32958 01202 10180 20148 30095 40106 52001 91130 333 10252 20168 30015 59005 70000;","Q01  00002PRCP24"
"76458099999","2001-04-16T15:00:00","4","23.2","-106.4166666","4.0","COLONIA JUAN CARRASCO MAZATLAN SIN., MX","FM-12","99999","V020","120,1,N,0030,1","22000,1,9,N","016000,1,N,1","+0224,1","+0182,1","10130,1","99,0000,9,1",,,,,"02,1,+08700,9,01,9",,,"02,99,1,00,1,00,1,99999,9,00,1,02,1",,"01,9",,,,"99999,9,10118,1","2,1,021,1,+004,1",,,"SYN100AAXX  16151 76458 32966 21203 10224 20182 30118 40130 52021 80002 91455 333 30/// 56009 58004 82079;","Q01  00002PRCP99"
"76458099999","2001-04-16T18:00:00","4","23.2","-106.4166666","4.0","COLONIA JUAN CARRASCO MAZATLAN SIN., MX","FM-12","99999","V020","210,1,N,0040,1","22000,1,9,N","018000,1,N,1","+0250,1","+0172,1","10129,1","99,0000,9,1",,,,,"01,1,+08700,9,01,9",,,"01,99,1,00,1,00,1,99999,9,00,1,01,1",,"01,9",,"120,M,+0264,1","240,N,+0171,1","99999,9,10118,1","0,1,000,1,+010,1",,,"SYN112AAXX  16181 76458 32968 12104 10250 20172 30118 40129 50000 80001 91750 333 10264 20171 30/// 56009 58010 81079;","Q01  00002PRCP99"
"76458099999","2001-04-16T21:00:00","4","23.2","-106.4166666","4.0","COLONIA JUAN CARRASCO MAZATLAN SIN., MX","FM-12","99999","V020","250,1,N,0040,1","22000,1,9,N","020000,1,N,1","+0254,1","+0173,1","10116,1","99,0000,9,1",,,,,"00,1,+99999,9,99,9",,,"00,99,1,00,1,00,1,99999,9,00,1,00,1",,"01,9",,,,"99999,9,10104,1","7,1,014,1,+009,1",,,"SYN082AAXX  16211 76458 32970 02504 10254 20173 30104 40116 57014 92045 333 30/// 58009;","Q01  00002PRCP99"
"76458099999","2001-04-17T00:00:00","4","23.2","-106.4166666","4.0","COLONIA JUAN CARRASCO MAZATLAN SIN., MX","FM-12","99999","V020","280,1,N,0040,1","22000,1,9,N","020000,1,N,1","+0244,1","+0179,1","10099,1","24,0000,9,1",,,,,"00,1,+99999,9,99,9",,,"00,99,1,00,1,00,1,99999,9,00,1,00,1",,"01,9",,"120,M,+0278,1","180,N,+0171,1","99999,9,10088,1","7,1,016,1,+011,1",,,"SYN106AAXX  17001 76458 32970 02804 10244 20179 30088 40099 57016 92340 333 10278 20171 30/// 50431 58011 70000;","Q01  00002PRCP24"
"76458099999","2001-04-17T12:00:00","4","23.2","-106.4166666","4.0","COLONIA JUAN CARRASCO MAZATLAN SIN., MX","FM-12","99999","V020","999,9,C,0000,1","22000,1,9,N","008000,1,N,1","+0186,1","+0168,1","10119,1","24,0000,9,1",,,,,"00,1,+99999,9,99,9",,,"00,99,1,00,1,00,1,99999,9,00,1,00,1",,"01,9","999,+0160,9","999,M,+0278,1","120,N,+0174,1","99999,9,10109,1","4,1,000,1,+015,1",,,"SYN100AAXX  17121 76458 32958 00000 10186 20168 30109 40119 54001 91140 333 10278 20174 30016 58015 70000;","Q01  00002PRCP24"
"76458099999","2001-04-17T21:00:00","4","23.2","-106.4166666","4.0","COLONIA JUAN CARRASCO MAZATLAN SIN., MX","FM-12","99999","V020","250,1,N,0060,1","08700,1,9,N","020000,1,N,1","+0248,1","+0191,1","10122,1","99,0000,9,1",,,,,"07,1,+08700,9,01,9",,,"07,99,1,00,1,00,1,99999,9,00,1,04,1",,"01,9",,,,"99999,9,10110,1","7,1,022,1,+006,1",,,"SYN100AAXX  17211 76458 32970 72506 10248 20191 30110 40122 57022 80004 92050 333 30/// 56009 58006 87079;","Q01  00002PRCP99"
"76458099999","2001-04-18T00:00:00","4","23.2","-106.4166666","4.0","COLONIA JUAN CARRASCO MAZATLAN SIN., MX","FM-12","99999","V020","290,1,N,0040,1","99999,9,9,N","020000,1,N,1","+0245,1","+0188,1","10112,1","24,0000,9,1",,,,,,,,"07,99,1,00,1,00,1,99999,9,00,1,04,1",,"01,9",,"120,M,+0285,1","180,N,+0168,1","99999,9,10101,1","6,1,009,1,+013,1",,,"SYN124AAXX  18001 76458 32970 72904 10245 20188 30101 40112 56009 80004 92350 333 10285 20168 30/// 50560 56009 58013 70000 87079;","Q01  00002PRCP99Q02  00003PRCP99"
"76458099999","2001-04-18T03:00:00","4","23.2","-106.4166666","4.0","COLONIA JUAN CARRASCO MAZATLAN SIN., MX","FM-12","99999","V020","270,1,N,0020,1","22000,1,9,N","018000,1,N,1","+0227,1","+0178,1","10117,1","99,0000,9,1",,,,,"02,1,+08700,9,01,9",,,"02,99,1,00,1,00,1,99999,9,00,1,02,1",,"01,9",,,,"99999,9,10106,1","2,1,011,1,+999,9",,,"SYN100AAXX  18031 76458 32968 22702 10227 20178 30106 40117 52011 80002 90245 333 30/// 56009 58/// 82079;","Q01  00002PRCP99"
"76458099999","2001-04-18T06:00:00","4","23.2","-106.4166666","4.0","COLONIA JUAN CARRASCO MAZATLAN SIN., MX","FM-12","99999","V020","320,1,N,0020,1","22000,1,9,N","016000,1,N,1","+0217,1","+0193,1","99999,9","99,0000,9,1",,,,,"00,1,+99999,9,99,9",,,"00,99,1,00,1,00,1,99999,9,00,1,00,1","0612,9","01,9",,"240,N,+0168,1",,"99999,9,10120,1","7,1,008,1,+999,9","1,0320,9",,"SYN100AAXX  18061 76458 32966 03202 10217 20193 30120 4132/ 57008 90555 333 0285/ 20168 30/// 55102 58///;","Q01  00002PRCP99"
"76458099999","2001-04-18T15:00:00","4","23.2","-106.4166666","4.0","COLONIA JUAN CARRASCO MAZATLAN SIN., MX","FM-12","99999","V020","999,9,C,0000,1","22000,1,9,N","010000,1,N,1","+0220,1","+0192,1","10141,1","99,0000,9,1",,,,,"02,1,+06000,9,01,9",,,"02,99,1,00,1,00,1,99999,9,00,1,02,1",,"01,9",,,,"99999,9,10130,1","9,9,999,9,+002,1",,,"SYN100AAXX  18151 76458 32960 20000 10220 20192 30130 40141 5//// 80002 91455 333 30/// 56/// 58002 82070;","Q01  00002PRCP99"
"76458099999","2001-04-19T00:00:00","4","23.2","-106.4166666","4.0","COLONIA JUAN CARRASCO MAZATLAN SIN., MX","FM-12","99999","V020","250,1,N,0030,1","22000,1,9,N","020000,1,N,1","+0246,1","+0206,1","10124,1","24,0000,9,1",,,,,,,,"01,99,1,01,1,02,1,00450,1,00,1,00,1",,"01,9",,"120,M,+0295,1","180,N,+0188,1","99999,9,10113,1","6,1,014,1,+012,1",,,"SYN124AAXX  19001 76458 32470 12503 10246 20206 30113 40124 56014 81200 92340 333 10295 20188 30/// 50561 56100 58012 70000 81817;","Q01  00002PRCP99Q02  00003PRCP99"
"76458099999","2001-04-19T12:00:00","4","23.2","-106.4166666","4.0","COLONIA JUAN CARRASCO MAZATLAN SIN., MX","FM-12","99999","V020","120,1,N,0020,1","22000,1,9,N","008000,1,N,1","+0198,1","+0189,1","10130,1","24,0000,9,1",,,"4,1,06,1","4,1,06,1","00,1,+99999,9,99,9",,,"00,99,1,00,1,00,1,99999,9,00,1,00,1",,"01,9","999,+0180,9","999,M,+0295,1","120,N,+0192,1","99999,9,10119,1","4,1,000,1,-002,1",,"44,1","SYN106AAXX  19121 76458 31958 01202 10198 20189 30119 40130 54001 74444 91130 333 10295 20192 30018 59002 70000;","Q01  00002PRCP24"
"76458099999","2001-04-19T18:00:00","4","23.2","-106.4166666","4.0","COLONIA JUAN CARRASCO MAZATLAN SIN., MX","FM-12","99999","V020","270,1,N,0030,1","22000,1,9,N","012000,1,N,1","+0247,1","+0191,1","10142,1","99,0000,9,1",,,,,"00,1,+99999,9,99,9",,,"00,99,1,00,1,00,1,99999,9,00,1,00,1",,"01,9",,"120,M,+0273,1","240,N,+0190,1","99999,9,10131,1","4,1,000,1,+001,1",,,"SYN094AAXX  19181 76458 32962 02703 10247 20191 30131 40142 54000 91755 333 10273 20190 30/// 58001;","Q01  00002PRCP99"
"76458099999","2001-04-20T00:00:00","4","23.2","-106.4166666","4.0","COLONIA JUAN CARRASCO MAZATLAN SIN., MX","FM-12","99999","V020","280,1,N,0030,1","22000,1,9,N","018000,1,N,1","+0266,1","+0138,1","10116,1","24,0000,9,1",,,,,,,,"01,99,1,01,1,02,1,01750,1,00,1,00,1",,"01,9",,"120,M,+0280,1","180,N,+0190,1","99999,9,10104,1","6,1,013,1,-009,1",,,"SYN124AAXX  20001 76458 32768 12803 10266 20138 30104 40116 56013 81200 92340 333 10280 20190 30/// 50461 56100 59009 70000 81856;","Q01  00002PRCP99Q02  00003PRCP99"
"76458099999","2001-04-20T12:00:00","4","23.2","-106.4166666","4.0","COLONIA JUAN CARRASCO MAZATLAN SIN., MX","FM-12","99999","V020","999,9,C,0000,1","22000,1,9,N","008000,1,N,1","+0198,1","+0133,1","10140,1","24,0000,9,1",,,,,"00,1,+99999,9,99,9",,,"00,99,1,00,1,00,1,99999,9,00,1,00,1",,"01,9","999,+0170,9","999,M,+0280,1","120,N,+0186,1","99999,9,10129,1","4,1,000,1,+010,1",,,"SYN100AAXX  20121 76458 32958 00000 10198 20133 30129 40140 54000 91130 333 10280 20186 30017 58010 70000;","Q01  00002PRCP24"
"76458099999","2001-04-20T21:00:00","4","23.2","-106.4166666","4.0","COLONIA JUAN CARRASCO MAZATLAN SIN., MX","FM-12","99999","V020","250,1,N,0040,1","22000,1,9,N","018000,1,N,1","+0248,1","+0202,1","10132,1","99,0000,9,1",,,,,"01,1,+00570,9,02,9",,,"01,99,1,01,1,02,1,00450,1,00,1,00,1",,"01,9",,,,"99999,9,10121,1","7,1,019,1,+004,1",,,"SYN094AAXX  20211 76458 32468 12504 10248 20202 30121 40132 57019 81200 92050 333 30/// 58004 81819;","Q01  00002PRCP99"
"76458099999","2001-04-21T00:00:00","4","23.2","-106.4166666","4.0","COLONIA JUAN CARRASCO MAZATLAN SIN., MX","FM-12","99999","V020","270,1,N,0030,1","22000,1,9,N","018000,1,N,1","+0254,1","+0212,1","10115,1","24,0000,9,1",,,,,"00,1,+99999,9,99,9",,,"00,99,1,00,1,00,1,99999,9,00,1,00,1",,"01,9",,"120,M,+0294,1","180,N,+0184,1","99999,9,10104,1","6,1,017,1,+000,1",,,"SYN106AAXX  21001 76458 32968 02703 10254 20212 30104 40115 56017 92340 333 10294 20184 30/// 50391 58000 70000;","Q01  00002PRCP24"
"76458099999","2001-04-21T12:00:00","4","23.2","-106.4166666","4.0","COLONIA JUAN CARRASCO MAZATLAN SIN., MX","FM-12","99999","V020","999,9,C,0000,1","22000,1,9,N","008000,1,N,1","+0196,1","+0182,1","10136,1","24,0000,9,1",,,,,"00,1,+99999,9,99,9",,,"00,99,1,00,1,00,1,99999,9,00,1,00,1",,"01,9","999,+0170,9","999,M,+0294,1","120,N,+0182,1","99999,9,10125,1","7,1,006,1,-003,1",,,"SYN100AAXX  21121 76458 32958 00000 10196 20182 30125 40136 57006 91135 333 10294 20182 30017 59003 70000;","Q01  00002PRCP24"
"76458099999","2001-04-22T00:00:00","4","23.2","-106.4166666","4.0","COLONIA JUAN CARRASCO MAZATLAN SIN., MX","FM-12","99999","V020","290,1,N,0050,1","22000,1,9,N","018000,1,N,1","+0250,1","+0192,1","10124,1","24,0000,9,1",,,,,"01,1,+06000,9,01,9",,,"01,99,1,00,1,00,1,99999,9,00,1,01,1",,"01,9",,"120,M,+0283,1","180,N,+0172,1","99999,9,10113,1","7,1,018,1,+007,1",,,"SYN118AAXX  22001 76458 32968 12905 10250 20192 30113 40124 57018 80001 92340 333 10283 20172 30/// 50531 58007 70000 81070;",
"76458099999","2001-04-22T03:00:00","4","23.2","-106.4166666","4.0","COLONIA JUAN CARRASCO MAZATLAN SIN., MX","FM-12","99999","V020","290,1,N,0020,1","22000,1,9,N","012000,1,N,1","+0225,1","+0197,1","10123,1","99,0000,9,1",,,,,"00,1,+99999,9,99,9",,,"00,99,1,00,1,00,1,99999,9,00,1,00,1",,"01,9",,,,"99999,9,10112,1","4,1,000,1,+999,9",,,"SYN082AAXX  22031 76458 32962 02902 10225 20197 30112 40123 54001 90245 333 30/// 58///;","Q01  00002PRCP99"
"76458099999","2001-04-22T06:00:00","4","23.2","-106.4166666","4.0","COLONIA JUAN CARRASCO MAZATLAN SIN., MX","FM-12","99999","V020","310,1,N,0030,1","22000,1,9,N","012000,1,N,1","+0214,1","+0193,1","10132,1","99,0000,9,1",,,,,,,,"02,99,1,99,9,04,1,99999,9,00,1,00,1","0708,9","01,9",,"240,M,+0283,1","240,N,+0172,1","99999,9,10121,1","2,1,009,1,+999,9",,,"SYN118AAXX  22061 76458 32962 23103 10214 20193 30121 40132 52009 81400 90545 333 10283 20172 30/// 55118 56300 58/// 82609;","Q01+000012SCOTLCQ02  00002PRCP99"
"76458099999","2001-04-22T15:00:00","4","23.2","-106.4166666","4.0","COLONIA JUAN CARRASCO MAZATLAN SIN., MX","FM-12","99999","V020","999,9,C,0000,1","00060,1,9,N","000800,1,N,1","+0197,1","+0186,1","10160,1","99,0000,9,1",,,"4,1,03,1","4,1,03,1","09,1,+99999,9,99,9",,,"09,99,1,09,1,99,9,99999,9,99,9,99,9",,"01,9",,,,"99999,9,10149,1","2,1,999,9,+006,1",,"43,1","SYN094AAXX  22151 76458 31/08 90000 10197 20186 30149 40160 52/// 74344 89/// 91445 333 30/// 58006;","Q01  00002PRCP99"
"76458099999","2001-04-22T18:00:00","4","23.2","-106.4166666","4.0","COLONIA JUAN CARRASCO MAZATLAN SIN., MX","FM-12","99999","V020","270,1,N,0030,1","22000,1,9,N","010000,1,N,1","+0232,1","+0188,1","10166,1","99,0000,9,1",,,"4,1,06,1","4,1,06,1","00,1,+99999,9,99,9",,,"00,99,1,00,1,00,1,99999,9,00,1,00,1",,"01,9",,"120,M,+0248,1","240,N,+0182,1","99999,9,10155,1","0,1,006,1,+009,1",,"05,1","SYN100AAXX  22181 76458 31960 02703 10232 20188 30155 40166 50006 70544 91745 333 10248 20182 30/// 58009;","Q01  00002PRCP99"
"76458099999","2001-04-22T21:00:00","4","23.2","-106.4166666","4.0","COLONIA JUAN CARRASCO MAZATLAN SIN., MX","FM-12","99999","V020","270,1,N,0040,1","22000,1,9,N","018000,1,N,1","+0250,1","+0187,1","10146,1","99,0000,9,1",,,,,"00,1,+99999,9,99,9",,,"00,99,1,00,1,00,1,99999,9,00,1,00,1",,"01,9",,,,"99999,9,10135,1","7,1,020,1,+004,1",,,"SYN082AAXX  22211 76458 32968 02704 10250 20187 30135 40146 57020 92050 333 30/// 58004;","Q01  00002PRCP99"
"76458099999","2001-04-23T00:00:00","4","23.2","-106.4166666","4.0","COLONIA JUAN CARRASCO MAZATLAN SIN., MX","FM-12","99999","V020","300,1,N,0050,1","22000,1,9,N","020000,1,N,1","+0251,1","+0181,1","10121,1","24,0000,9,1",,,,,"00,1,+99999,9,99,9",,,"00,99,1,00,1,00,1,99999,9,00,1,00,1",,"01,9",,"120,M,+0276,1","180,N,+0182,1","99999,9,10110,1","7,1,025,1,-003,1",,,"SYN106AAXX  23001 76458 32970 03005 10251 20181 30110 40121 57025 92345 333 10276 20182 30/// 50481 59003 70000;","Q01  00002PRCP24"
"76458099999","2001-04-23T03:00:00","4","23.2","-106.4166666","4.0","COLONIA JUAN CARRASCO MAZATLAN SIN., MX","FM-12","99999","V020","310,1,N,0050,1","22000,1,9,N","008000,1,N,1","+0222,1","+0190,1","10133,1","99,0000,9,1",,,,,"00,1,+99999,9,99,9",,,"00,99,1,00,1,00,1,99999,9,00,1,00,1",,"01,9",,,,"99999,9,10121,1","2,1,011,1,+009,1",,,"SYN082AAXX  23031 76458 32958 03105 10222 20190 30121 40133 52011 90245 333 30/// 58009;","Q01  00002PRCP99"
"76458099999","2001-04-23T12:00:00","4","23.2","-106.4166666","4.0","COLONIA JUAN CARRASCO MAZATLAN SIN., MX","FM-12","99999","V020","130,1,N,0020,1","22000,1,9,N","008000,1,N,1","+0182,1","+0163,1","10123,1","24,0000,9,1",,,,,"00,1,+99999,9,99,9",,,"00,99,1,00,1,00,1,99999,9,00,1,00,1",,"01,9","999,+0150,9","999,M,+0266,1","120,N,+0166,1","99999,9,10113,1","7,1,003,1,-015,1",,,"SYN100AAXX  23121 76458 32958 01302 10182 20163 30113 40123 57003 91148 333 10266 20166 30015 59015 70000;","Q01  00002PRCP24"
"76458099999","2001-04-23T18:00:00","4","23.2","-106.4166666","4.0","COLONIA JUAN CARRASCO MAZATLAN SIN., MX","FM-12","99999","V020","260,1,N,0030,1","22000,1,9,N","012000,1,N,1","+0242,1","+0171,1","10129,1","99,0000,9,1",,,,,"03,1,+06000,9,01,9",,,"03,99,1,00,1,00,1,99999,9,00,1,02,1",,"01,9",,"120,M,+0260,1","240,N,+0170,1","99999,9,10117,1","6,1,003,1,-038,1",,,"SYN112AAXX  23181 76458 32962 32603 10242 20171 30117 40129 56003 80002 91755 333 10260 20170 30/// 56/// 59038 83070;","Q01  00002PRCP99"
"76458099999","2001-04-23T21:00:00","4","23.2","-106.4166666","4.0","COLONIA JUAN CARRASCO MAZATLAN SIN., MX","FM-12","99999","V020","270,1,N,0070,1","22000,1,9,N","018000,1,N,1","+0259,1","+0178,1","10110,1","99,0000,9,1",,,,,"03,1,+08700,9,01,9",,,"03,99,1,00,1,00,1,99999,9,00,1,06,1",,"01,9",,,,"99999,9,10098,1","7,1,019,1,-036,1",,,"SYN100AAXX  23211 76458 32968 32707 10259 20178 30098 40110 57019 80006 92045 333 30/// 56009 59036 83079;","Q01  00002PRCP99"
"76458099999","2001-04-24T00:00:00","4","23.2","-106.4166666","4.0","COLONIA JUAN CARRASCO MAZATLAN SIN., MX","FM-12","99999","V020","300,1,N,0080,1","22000,1,9,N","020000,1,N,1","+0241,1","+0178,1","10094,1","24,0000,9,1",,,,,,,,"03,99,1,00,1,00,1,99999,9,00,1,06,1",,"01,9",,"120,M,+0272,1","180,N,+0170,1","99999,9,10083,1","7,1,015,1,-027,1",,,"SYN124AAXX  24001 76458 32970 33008 10241 20178 30083 40094 57015 80006 92355 333 10272 20170 30/// 50520 56009 59027 70000 83079;","Q01  00002PRCP99Q02  00003PRCP99"
"76458099999","2001-04-24T03:00:00","4","23.2","-106.4166666","4.0","COLONIA JUAN CARRASCO MAZATLAN SIN., MX","FM-12","99999","V020","300,1,N,0040,1","22000,1,9,N","008000,1,N,1","+0224,1","+0163,1","10103,1","99,0000,9,1",,,,,"01,1,+06000,9,01,9",,,"01,99,1,00,1,00,1,99999,9,00,1,01,1",,"01,9",,,,"99999,9,10092,1","2,1,009,1,-029,1",,,"SYN094AAXX  24031 76458 32958 13004 10224 20163 30092 40103 52009 80001 90245 333 30/// 59029 81070;","Q01  00002PRCP99"
"76458099999","2001-04-24T09:00:00","4","23.2","-106.4166666","4.0","COLONIA JUAN CARRASCO MAZATLAN SIN., MX","FM-12","99999","V020","999,9,C,0000,1","22000,1,9,N","008000,1,N,1","+0186,1","+0158,1","10096,1","99,0000,9,1",,,,,"00,1,+99999,9,99,9",,,"00,99,1,00,1,00,1,99999,9,00,1,00,1",,"01,9",,,,"99999,9,10087,1","2,1,008,1,-029,1",,,"SYN082AAXX  24091 76458 32958 00000 10186 20158 30087 40096 52008 90902 333 30/// 59029;","Q01  00002PRCP99"
"76458099999","2001-04-24T12:00:00","4","23.2","-106.4166666","4.0","COLONIA JUAN CARRASCO MAZATLAN SIN., MX","FM-12","99999","V020","130,1,N,0010,1","22000,1,9,N","008000,1,N,1","+0178,1","+0153,1","10093,1","24,0000,9,1",,,,,"03,1,+06600,9,01,9",,,"03,99,1,00,1,00,1,99999,9,00,1,06,1",,"01,9","999,+0150,9","999,M,+0272,1","120,N,+0166,1","99999,9,10082,1","7,1,005,1,-031,1",,,"SYN118AAXX  24121 76458 32958 31301 10178 20153 30082 40093 57005 80006 91130 333 10272 20166 30015 56009 59031 70000 83072;",
"76458099999","2001-04-24T18:00:00","4","23.2","-106.4166666","4.0","COLONIA JUAN CARRASCO MAZATLAN SIN., MX","FM-12","99999","V020","260,1,N,0030,1","22000,1,9,N","010000,1,N,1","+0238,1","+0154,1","10117,1","99,0000,9,1",,,,,"03,1,+06000,9,01,9",,,"03,99,1,00,1,00,1,99999,9,00,1,05,1",,"01,9",,"120,M,+0262,1","240,N,+0161,1","99999,9,10106,1","1,1,008,1,-011,1",,,"SYN112AAXX  24181 76458 32960 32603 10238 20154 30106 40117 51008 80005 91755 333 10262 20161 30/// 56/// 59011 83070;","Q01  00002PRCP99"
"76458099999","2001-04-24T21:00:00","4","23.2","-106.4166666","4.0","COLONIA JUAN CARRASCO MAZATLAN SIN., MX","FM-12","99999","V020","270,1,N,0060,1","22000,1,9,N","018000,1,N,1","+0253,1","+0177,1","10105,1","99,0000,9,1",,,"4,1,03,1","0,1,03,1","02,1,+08700,9,01,9",,,"02,99,1,00,1,00,1,99999,9,00,1,05,1",,"01,9",,,,"99999,9,10093,1","7,1,012,1,-005,1",,"02,1","SYN106AAXX  24211 76458 31968 22706 10253 20177 30093 40105 57012 70240 80005 92055 333 30/// 56009 59005 82079;","Q01  00002PRCP99"
"76458099999","2001-04-25T00:00:00","4","23.2","-106.4166666","4.0","COLONIA JUAN CARRASCO MAZATLAN SIN., MX","FM-12","99999","V020","300,1,N,0050,1","22000,1,9,N","020000,1,N,1","+0254,1","+0165,1","10095,1","24,0000,9,1",,,,,,,,"01,99,1,00,1,00,1,99999,9,00,1,05,1",,"01,9",,"120,M,+0268,1","180,N,+0161,1","99999,9,10084,1","7,1,010,1,+001,1",,,"SYN124AAXX  25001 76458 32970 13005 10254 20165 30084 40095 57010 80005 92355 333 10268 20161 30/// 50540 56009 58001 70000 81079;","Q01  00002PRCP99Q02  00003PRCP99"
"76458099999","2001-04-25T03:00:00","4","23.2","-106.4166666","4.0","COLONIA JUAN CARRASCO MAZATLAN SIN., MX","FM-12","99999","V020","310,1,N,0030,1","22000,1,9,N","008000,1,N,1","+0224,1","+0176,1","10107,1","99,0000,9,1",,,,,"00,1,+99999,9,99,9",,,"00,99,1,00,1,00,1,99999,9,00,1,00,1",,"01,9",,,,"99999,9,10096,1","2,1,012,1,+004,1",,,"SYN082AAXX  25031 76458 32958 03103 10224 20176 30096 40107 52012 90245 333 30/// 58004;","Q01  00002PRCP99"
"76458099999","2001-04-25T12:00:00","4","23.2","-106.4166666","4.0","COLONIA JUAN CARRASCO MAZATLAN SIN., MX","FM-12","99999","V020","010,1,N,0020,1","22000,1,9,N","008000,1,N,1","+0180,1","+0177,1","10123,1","24,0000,9,1",,,"4,1,06,1","4,1,06,1","00,1,+99999,9,99,9",,,"00,99,1,00,1,00,1,99999,9,00,1,00,1",,"01,9","999,+0150,9","999,M,+0265,1","120,N,+0172,1","99999,9,10111,1","4,1,000,1,+029,1",,"44,1","SYN106AAXX  25121 76458 32958 00102 10180 20177 30111 40123 54001 74444 91130 333 10265 20172 30015 58029 70000;","Q01  00002PRCP24"
"76458099999","2001-04-25T15:00:00","4","23.2","-106.4166666","4.0","COLONIA JUAN CARRASCO MAZATLAN SIN., MX","FM-12","99999","V020","020,1,N,0020,1","22000,1,9,N","000700,1,N,1","+0190,1","+0182,1","10137,1","99,0000,9,1",,,"4,1,03,1","4,1,03,1","03,1,+06600,9,01,9",,,"03,99,1,00,1,00,1,99999,9,00,1,02,1",,"01,9",,,,"99999,9,10126,1","2,1,014,1,+027,1",,"42,1","SYN106AAXX  25151 76458 31507 30202 10190 20182 30126 40137 52014 74244 80002 91455 333 30/// 56009 58027 83072;","Q01+008002SCOLCBQ02  00002PRCP99"
"76458099999","2001-04-25T18:00:00","4","23.2","-106.4166666","4.0","COLONIA JUAN CARRASCO MAZATLAN SIN., MX","FM-12","99999","V020","260,1,N,0040,1","22000,1,9,N","000400,1,N,1","+0206,1","+0182,1","10141,1","99,0000,9,1",,,"4,1,06,1","4,1,06,1","02,1,+01800,9,03,9",,,"03,99,1,02,1,00,1,99999,9,03,1,01,1",,"01,9",,"120,M,+0235,1","240,N,+0172,1","99999,9,10130,1","0,1,004,1,+024,1",,"46,1","SYN124AAXX  25181 76458 31904 32604 10206 20182 30130 40141 50004 74644 82031 91747 333 10235 20172 30/// 56039 58024 82356 81079;","Q01  00002PRCP99"
"76458099999","2001-04-25T21:00:00","4","23.2","-106.4166666","4.0","COLONIA JUAN CARRASCO MAZATLAN SIN., MX","FM-12","99999","V020","290,1,N,0060,1","22000,1,9,N","018000,1,N,1","+0249,1","+0195,1","10119,1","99,0000,9,1",,,,,"01,1,+00690,9,02,9",,,"01,99,1,01,1,01,1,00800,1,00,1,00,1",,"01,9",,,,"99999,9,10108,1","7,1,022,1,+015,1",,,"SYN100AAXX  25211 76458 32568 12906 10249 20195 30108 40119 57022 81100 92050 333 30/// 56100 58015 81823;","Q01  00002PRCP99"
"76458099999","2001-04-26T00:00:00","4","23.2","-106.4166666","4.0","COLONIA JUAN CARRASCO MAZATLAN SIN., MX","FM-12","99999","V020","270,1,N,0050,1","22000,1,9,N","020000,1,N,1","+0257,1","+0175,1","10103,1","24,0000,9,1",,,,,"00,1,+99999,9,99,9",,,"00,99,1,00,1,00,1,99999,9,00,1,00,1",,"01,9",,"120,M,+0270,1","180,N,+0172,1","99999,9,10092,1","7,1,016,1,+008,1",,,"SYN106AAXX  26001 76458 32970 02705 10257 20175 30092 40103 57016 92350 333 10270 20172 30/// 50471 58008 70000;","Q01  00002PRCP24"
"76458099999","2001-04-26T03:00:00","4","23.2","-106.4166666","4.0","COLONIA JUAN CARRASCO MAZATLAN SIN., MX","FM-12","99999","V020","300,1,N,0030,1","22000,1,9,N","010000,1,N,1","+0231,1","+0176,1","10110,1","99,0000,9,1",,,,,"00,1,+99999,9,99,9",,,"00,99,1,00,1,00,1,99999,9,00,1,00,1",,"01,9",,,,"99999,9,10099,1","2,1,007,1,+003,1",,,"SYN082AAXX  26031 76458 32960 03003 10231 20176 30099 40110 52007 90245 333 30/// 58003;","Q01  00002PRCP99"
"76458099999","2001-04-26T06:00:00","4","23.2","-106.4166666","4.0","COLONIA JUAN CARRASCO MAZATLAN SIN., MX","FM-12","99999","V020","150,1,N,0030,1","22000,1,9,N","010000,1,N,1","+0211,1","+0180,1","10123,1","99,0000,9,1",,,,,"00,1,+99999,9,99,9",,,"00,99,1,00,1,00,1,99999,9,00,1,00,1","0612,9","01,9",,"240,M,+0270,1","240,N,+0172,1","99999,9,10111,1","2,1,012,1,+002,1",,,"SYN100AAXX  26061 76458 32960 01503 10211 20180 30111 40123 52012 90545 333 10270 20172 30/// 55102 58002;","Q01  00002PRCP99"
"76458099999","2001-04-26T12:00:00","4","23.2","-106.4166666","4.0","COLONIA JUAN CARRASCO MAZATLAN SIN., MX","FM-12","99999","V020","999,9,C,0000,1","22000,1,9,N","008000,1,N,1","+0188,1","+0166,1","10115,1","24,0000,9,1",,,,,"00,1,+99999,9,99,9",,,"00,99,1,00,1,00,1,99999,9,00,1,00,1",,"01,9","999,+0150,9","999,M,+0270,1","120,N,+0178,1","99999,9,10103,1","7,1,007,1,-005,1",,,"SYN100AAXX  26121 76458 32958 00000 10188 20166 30103 40115 57007 91130 333 10270 20178 30015 59005 70000;","Q01  00002PRCP24"
"76458099999","2001-04-26T15:00:00","4","23.2","-106.4166666","4.0","COLONIA JUAN CARRASCO MAZATLAN SIN., MX","FM-12","99999","V020","999,9,C,0000,1","22000,1,9,N","012000,1,N,1","+0234,1","+0152,1","10129,1","99,0000,9,1",,,,,"01,1,+06000,9,01,9",,,"01,99,1,00,1,00,1,99999,9,00,1,01,1",,"01,9",,,,"99999,9,10118,1","2,1,014,1,-008,1",,,"SYN100AAXX  26151 76458 32962 10000 10234 20152 30118 40129 52014 80001 91455 333 30/// 56/// 59008 81070;","Q01  00002PRCP99"
"76458099999","2001-04-26T21:00:00","4","23.2","-106.4166666","4.0","COLONIA JUAN CARRASCO MAZATLAN SIN., MX","FM-12","99999","V020","270,1,N,0060,1","22000,1,9,N","020000,1,N,1","+0262,1","+0208,1","10117,1","99,0000,9,1",,,,,"01,1,+00660,9,08,9",,,"04,99,1,01,1,02,1,00800,1,00,1,02,1",,"01,9",,,,"99999,9,10105,1","7,1,016,1,-003,1",,,"SYN106AAXX  26211 76458 32570 42706 10262 20208 30105 40117 57016 81202 92050 333 30/// 56109 59003 81822 83079;","Q01  00002PRCP99"
"76458099999","2001-04-27T00:00:00","4","23.2","-106.4166666","4.0","COLONIA JUAN CARRASCO MAZATLAN SIN., MX","FM-12","99999","V020","270,1,N,0030,1","22000,1,9,N","020000,1,N,1","+0261,1","+0170,1","10103,1","24,0000,9,1",,,,,"01,1,+01140,9,09,9",,,"03,99,1,01,1,03,1,01250,1,00,1,02,1",,"01,9",,"120,M,+0279,1","180,N,+0170,1","99999,9,10092,1","7,1,014,1,+000,1",,,"SYN130AAXX  27001 76458 32670 32703 10261 20170 30092 40103 57014 81302 92345 333 10279 20170 30/// 50510 56109 59000 70000 81938 82079;","Q01  00002PRCP99Q02  00003PRCP99"
"76458099999","2001-04-27T03:00:00","4","23.2","-106.4166666","4.0","COLONIA JUAN CARRASCO MAZATLAN SIN., MX","FM-12","99999","V020","330,1,N,0030,1","22000,1,9,N","010000,1,N,1","+0240,1","+0176,1","10109,1","99,0000,9,1",,,,,"00,1,+99999,9,99,9",,,"00,99,1,00,1,00,1,99999,9,00,1,00,1",,"01,9",,,,"99999,9,10098,1","2,1,006,1,-001,1",,,"SYN082AAXX  27031 76458 32960 03303 10240 20176 30098 40109 52006 90250 333 30/// 59001;","Q01  00002PRCP99"
"76458099999","2001-04-27T12:00:00","4","23.2","-106.4166666","4.0","COLONIA JUAN CARRASCO MAZATLAN SIN., MX","FM-12","99999","V020","120,1,N,0010,1","22000,1,9,N","008000,1,N,1","+0186,1","+0141,1","10110,1","24,0000,9,1",,,,,"00,1,+99999,9,99,9",,,"00,99,1,00,1,00,1,99999,9,00,1,00,1",,"01,9","999,+0140,9","999,M,+0279,1","120,N,+0178,1","99999,9,10100,1","7,1,006,1,-003,1",,,"SYN100AAXX  27121 76458 32958 01201 10186 20141 30100 40110 57006 91140 333 10279 20178 30014 59003 70000;","Q01  00002PRCP24"
"76458099999","2001-04-27T15:00:00","4","23.2","-106.4166666","4.0","COLONIA JUAN CARRASCO MAZATLAN SIN., MX","FM-12","99999","V020","130,1,N,0020,1","22000,1,9,N","012000,1,N,1","+0230,1","+0162,1","10126,1","99,0000,9,1",,,,,"01,1,+06000,9,01,9",,,"01,99,1,00,1,00,1,99999,9,00,1,01,1",,"01,9",,,,"99999,9,10115,1","1,1,015,1,-003,1",,,"SYN100AAXX  27151 76458 32962 11302 10230 20162 30115 40126 51015 80001 91450 333 30/// 56/// 59003 81070;","Q01  00002PRCP99"
"76458099999","2001-04-27T18:00:00","4","23.2","-106.4166666","4.0","COLONIA JUAN CARRASCO MAZATLAN SIN., MX","FM-12","99999","V020","260,1,N,0030,1","22000,1,9,N","018000,1,N,1","+0270,1","+0090,1","10122,1","99,0000,9,1",,,,,"01,1,+06000,9,01,9",,,"01,99,1,00,1,00,1,99999,9,00,1,01,1",,"01,9",,"120,M,+0296,1","240,N,+0166,1","99999,9,10110,1","8,1,005,1,-012,1",,,"SYN112AAXX  27181 76458 32968 12603 10270 20090 30110 40122 58005 80001 91752 333 10296 20166 30/// 56/// 59012 81070;","Q01  00002PRCP99"
"76458099999","2001-04-28T03:00:00","4","23.2","-106.4166666","4.0","COLONIA JUAN CARRASCO MAZATLAN SIN., MX","FM-12","99999","V020","330,1,N,0030,1","22000,1,9,N","010000,1,N,1","+0244,1","+0201,1","10102,1","99,0000,9,1",,,,,"00,1,+99999,9,99,9",,,"00,99,1,00,1,00,1,99999,9,00,1,00,1",,"01,9",,,,"99999,9,10090,1","2,1,016,1,+002,1",,,"SYN082AAXX  28031 76458 32960 03303 10244 20201 30090 40102 52016 90245 333 30/// 58002;","Q01  00002PRCP99"
"76458099999","2001-04-28T06:00:00","4","23.2","-106.4166666","4.0","COLONIA JUAN CARRASCO MAZATLAN SIN., MX","FM-12","99999","V020","330,1,N,0020,1","22000,1,9,N","010000,1,N,1","+0225,1","+0203,1","10114,1","99,0000,9,1",,,,,"00,1,+99999,9,99,9",,,"00,99,1,00,1,00,1,99999,9,00,1,00,1","0720,9","01,9",,"240,M,+0295,1","240,N,+0166,1","99999,9,10103,1","1,1,013,1,-005,1",,,"SYN100AAXX  28060 76458 32960 03302 10225 20203 30103 40114 51013 90540 333 10295 20166 30/// 55120 59005;","Q01  00002PRCP99"
"76458099999","2001-04-28T18:00:00","4","23.2","-106.4166666","4.0","COLONIA JUAN CARRASCO MAZATLAN SIN., MX","FM-12","99999","V020","250,1,N,0030,1","22000,1,9,N","012000,1,N,1","+0270,1","+0181,1","10116,1","99,0000,9,1",,,,,"01,1,+06000,9,01,9",,,"01,99,1,00,1,00,1,99999,9,00,1,01,1",,"01,9",,"120,M,+0295,1","240,N,+0180,1","99999,9,10105,1","7,1,008,1,-005,1",,,"SYN112AAXX  28181 76458 32962 12503 10270 20181 30105 40116 57008 80001 91746 333 10295 20180 30/// 56/// 59005 81070;","Q01  00002PRCP99"
"76458099999","2001-04-29T03:00:00","4","23.2","-106.4166666","4.0","COLONIA JUAN CARRASCO MAZATLAN SIN., MX","FM-12","99999","V020","320,1,N,0020,1","22000,1,9,N","010000,1,N,1","+0242,1","+0183,1","10097,1","99,0000,9,1",,,,,"03,1,+05400,9,08,9",,,"03,99,1,99,9,00,1,99999,9,00,1,09,1",,"01,9",,,,"99999,9,10085,1","2,1,007,1,-005,1",,,"SYN100AAXX  29031 76458 32960 33202 10242 20183 30085 40097 52007 80009 90245 333 30/// 56009 59005 83268;","Q01+000002SCOTLCQ02  00002PRCP99"
"76458099999","2001-04-29T06:00:00","4","23.2","-106.4166666","4.0","COLONIA JUAN CARRASCO MAZATLAN SIN., MX","FM-12","99999","V020","130,1,N,0010,1","99999,9,9,N","010000,1,N,1","+0230,1","+0176,1","10101,1","99,0000,9,1",,,,,,,,"06,99,1,00,1,00,1,99999,9,00,1,08,1","0564,9","01,9",,"240,M,+0296,1","240,N,+0180,1","99999,9,10089,1","2,1,004,1,-014,1",,,"SYN118AAXX  29061 76458 32960 61301 10230 20176 30089 40101 52004 80008 90545 333 10296 20180 30/// 55094 56009 59014 86278;","Q01  00002PRCP99"
"76458099999","2001-04-29T15:00:00","4","23.2","-106.4166666","4.0","COLONIA JUAN CARRASCO MAZATLAN SIN., MX","FM-12","99999","V020","190,1,N,0020,1","00390,1,9,N","016000,1,N,1","+0235,1","+0203,1","10123,1","99,0000,9,1",,,"4,1,03,1","4,1,03,1","07,1,+00390,9,06,9",,,"07,99,1,07,1,06,1,00450,1,00,1,00,1",,"01,9",,,,"99999,9,10112,1","2,1,999,9,-002,1",,"05,1","SYN106AAXX  29151 76458 31466 71902 10235 20203 30112 40123 52/// 70544 87600 91445 333 30/// 56400 59002 87713;","Q01  00002PRCP99"
"76458099999","2001-04-30T03:00:00","4","23.2","-106.4166666","4.0","COLONIA JUAN CARRASCO MAZATLAN SIN., MX","FM-12","99999","V020","300,1,N,0020,1","22000,1,9,N","010000,1,N,1","+0248,1","+0204,1","10116,1","99,0000,9,1",,,,,"02,1,+03600,9,03,9",,,"03,99,1,02,1,00,1,02250,1,03,1,01,1",,"01,9",,,,"99999,9,10105,1","2,1,005,1,+020,1",,,"SYN106AAXX  30031 76458 32860 33002 10248 20204 30105 40116 52005 82031 90245 333 30/// 56099 58020 82362 81070;","Q01  00002PRCP99"
"76458099999","2001-04-30T06:00:00","4","23.2","-106.4166666","4.0","COLONIA JUAN CARRASCO MAZATLAN SIN., MX","FM-12","99999","V020","060,1,N,0010,1","22000,1,9,N","020000,1,N,1","+0225,1","+0168,1","10126,1","99,0000,9,1",,,,,"00,1,+99999,9,99,9",,,"00,99,1,00,1,00,1,99999,9,00,1,00,1","0438,9","01,9",,"240,M,+0290,1","240,N,+0200,1","99999,9,10114,1","2,1,009,1,+025,1",,,"SYN100AAXX  30061 76458 32970 00601 10225 20168 30114 40126 52009 90540 333 10290 20200 30/// 55073 58025;","Q01  00002PRCP99"
"76458099999","2001-04-30T12:00:00","4","23.2","-106.4166666","4.0","COLONIA JUAN CARRASCO MAZATLAN SIN., MX","FM-12","99999","V020","350,1,N,0010,1","22000,1,9,N","008000,1,N,1","+0196,1","+0178,1","10120,1","24,0000,9,1",,,,,"00,1,+99999,9,99,9",,,"00,99,1,00,1,00,1,99999,9,00,1,00,1",,"01,9","999,+0170,9","999,M,+0290,1","120,N,+0188,1","99999,9,10108,1","7,1,006,1,+004,1",,,"SYN100AAXX  30121 76458 32958 03501 10196 20178 30108 40120 57006 91140 333 10290 20188 30017 58004 70000;","Q01  00002PRCP24"
"76458099999","2001-04-30T15:00:00","4","23.2","-106.4166666","4.0","COLONIA JUAN CARRASCO MAZATLAN SIN., MX","FM-12","99999","V020","340,1,N,0010,1","99999,9,9,N","003000,1,N,1","+0227,1","+0196,1","10133,1","99,0000,9,1",,,"4,1,03,1","0,1,03,1","03,1,+02400,9,03,9",,,"06,99,1,03,1,00,1,99999,9,03,1,06,1",,"01,9",,,,"99999,9,10122,1","1,1,013,1,+010,1",,"10,1","SYN112AAXX  30151 76458 31930 63401 10227 20196 30122 40133 51013 71040 83036 91455 333 30/// 56/// 58010 83358 83070;","Q01  00002PRCP99"
"76458099999","2001-04-30T18:00:00","4","23.2","-106.4166666","4.0","COLONIA JUAN CARRASCO MAZATLAN SIN., MX","FM-12","99999","V020","260,1,N,0030,1","99999,9,9,N","015000,1,N,1","+0250,1","+0204,1","10137,1","99,0000,9,1",,,,,"02,1,+02400,9,03,9",,,"06,99,1,02,1,00,1,99999,9,03,1,08,1",,"01,9",,"120,M,+0269,1","240,N,+0186,1","99999,9,10126,1","1,1,004,1,+003,1",,,"SYN118AAXX  30181 76458 32965 62603 10250 20204 30126 40137 51004 82038 91755 333 10269 20186 30/// 56/// 58003 82358 84270;","Q01  00002PRCP99"
"76458099999","2001-04-30T21:00:00","4","23.2","-106.4166666","4.0","COLONIA JUAN CARRASCO MAZATLAN SIN., MX","FM-12","99999","V020","290,1,N,0070,1","99999,9,9,N","020000,1,N,1","+0263,1","+0204,1","10119,1","99,0000,9,1",,,,,"02,1,+02700,9,03,9",,,"07,99,1,02,1,00,1,99999,9,03,1,06,1",,"01,9",,,,"99999,9,10108,1","7,1,018,1,+999,9",,,"SYN106AAXX  30211 76458 32970 72907 10263 20204 30108 40119 57018 82036 92050 333 30/// 56099 58/// 82359 85079;","Q01  00002PRCP99"
"76458099999","2001-05-01T00:00:00","4","23.2","-106.4166666","4.0","COLONIA JUAN CARRASCO MAZATLAN SIN., MX","FM-12","99999","V020","290,1,N,0060,1","99999,9,9,N","020000,1,N,1","+0264,1","+0198,1","10104,1","24,0000,9,1",,,,,,,,"07,99,1,00,1,00,1,99999,9,00,1,06,1",,"01,9",,"120,M,+0288,1","180,N,+0186,1","99999,9,10093,1","7,1,015,1,+999,9",,,"SYN124AAXX  01001 76458 32970 72906 10264 20198 30093 40104 57015 80006 92345 333 10288 20186 30/// 50330 56009 58/// 70000 87079;","Q01  00002PRCP99Q02  00003PRCP99"
"76458099999","2001-05-01T09:00:00","4","23.2","-106.4166666","4.0","COLONIA JUAN CARRASCO MAZATLAN SIN., MX","FM-12","99999","V020","999,9,C,0000,1","22000,1,9,N","008000,1,N,1","+0212,1","+0185,1","10111,1","99,0000,9,1",,,,,"00,1,+99999,9,99,9",,,"00,99,1,00,1,00,1,99999,9,00,1,00,1",,"01,9",,,,"99999,9,10100,1","4,1,000,1,-004,1",,,"SYN082AAXX  01091 76458 32958 00000 10212 20185 30100 40111 54000 90900 333 30/// 59004;","Q01  00002PRCP99"
"76458099999","2001-05-01T12:00:00","4","23.2","-106.4166666","4.0","COLONIA JUAN CARRASCO MAZATLAN SIN., MX","FM-12","99999","V020","140,1,N,0020,1","22000,1,9,N","008000,1,N,1","+0202,1","+0176,1","10105,1","24,0000,9,1",,,,,"00,1,+99999,9,99,9",,,"00,99,1,00,1,00,1,99999,9,00,1,00,1",,"01,9","999,+0170,9","999,M,+0288,1","120,N,+0188,1","99999,9,10094,1","7,1,006,1,-014,1",,,"SYN100AAXX  01121 76458 32958 01402 10202 20176 30094 40105 57006 91130 333 10288 20188 30017 59014 70000;","Q01  00002PRCP24"
"76458099999","2001-05-01T15:00:00","4","23.2","-106.4166666","4.0","COLONIA JUAN CARRASCO MAZATLAN SIN., MX","FM-12","99999","V020","110,1,N,0020,1","02400,1,9,N","006000,1,N,1","+0223,1","+0195,1","10121,1","99,0000,9,1",,,,,"07,1,+02400,9,07,9",,,"07,99,1,07,1,99,9,99999,9,03,1,00,1",,"01,9",,,,"99999,9,10110,1","1,1,016,1,-012,1",,,"SYN100AAXX  01151 76458 32956 71102 10223 20195 30110 40121 51016 87030 91455 333 30/// 56/// 59012 87358;","Q01  00002PRCP99Q02    003SCOLCG"
"76458099999","2001-05-01T21:00:00","4","23.2","-106.4166666","4.0","COLONIA JUAN CARRASCO MAZATLAN SIN., MX","FM-12","99999","V020","250,1,N,0030,1","04200,1,9,N","018000,1,N,1","+0259,1","+0221,1","10095,1","99,0000,9,1",,,,,"07,1,+04200,9,07,9",,,"07,99,1,07,1,00,1,02250,1,03,1,00,1",,"01,9",,,,"99999,9,10084,1","7,1,018,1,-024,1",,,"SYN100AAXX  01211 76458 32868 72503 10259 20221 30084 40095 57018 87030 92050 333 30/// 56090 59024 87364;","Q01  00002PRCP99"
"76458099999","2001-05-02T00:00:00","4","23.2","-106.4166666","4.0","COLONIA JUAN CARRASCO MAZATLAN SIN., MX","FM-12","99999","V020","290,1,N,0040,1","22000,1,9,N","018000,1,N,1","+0267,1","+0198,1","10083,1","24,0000,9,1",,,,,,,,"03,99,1,03,1,00,1,02250,1,03,1,00,1",,"01,9",,"120,M,+0285,1","180,N,+0180,1","99999,9,10071,1","7,1,013,1,-022,1",,,"SYN124AAXX  02001 76458 32868 32904 10267 20198 30071 40083 57013 83030 92345 333 10285 20180 30/// 50351 56090 59022 70000 83364;","Q01  00002PRCP99Q02  00003PRCP99"
"76458099999","2001-05-02T03:00:00","4","23.2","-106.4166666","4.0","COLONIA JUAN CARRASCO MAZATLAN SIN., MX","FM-12","99999","V020","290,1,N,0030,1","22000,1,9,N","008000,1,N,1","+0248,1","+0193,1","10089,1","99,0000,9,1",,,,,"03,1,+02400,9,07,9",,,"03,99,1,99,9,99,9,99999,9,03,1,00,1",,"01,9",,,,"99999,9,10078,1","2,1,006,1,+999,9",,,"SYN100AAXX  02031 76458 32958 32903 10248 20193 30078 40089 52006 80030 90245 333 30/// 56090 58/// 83358;","Q01+000002SCOTLCQ02  00002PRCP99Q03    003SCOLCG"
"76458099999","2001-05-02T06:00:00","4","23.2","-106.4166666","4.0","COLONIA JUAN CARRASCO MAZATLAN SIN., MX","FM-12","99999","V020","320,1,N,0020,1","22000,1,9,N","008000,1,N,1","+0234,1","+0193,1","10101,1","99,0000,9,1",,,,,,,,"03,99,1,99,9,00,1,99999,9,03,1,00,1",,"01,9",,"240,M,+0285,1","240,N,+0180,1","99999,9,10090,1","2,1,012,1,-002,1",,,"SYN118AAXX  02061 76458 32958 33202 10234 20193 30090 40101 52012 80030 90530 333 10285 20180 30/// 55525 56090 59002 83358;","Q01+000002SCOTLCQ02  00002PRCP99"
"76458099999","2001-05-02T15:00:00","4","23.2","-106.4166666","4.0","COLONIA JUAN CARRASCO MAZATLAN SIN., MX","FM-12","99999","V020","120,1,N,0030,1","03600,1,9,N","012000,1,N,1","+0239,1","+0203,1","10108,1","99,0000,9,1",,,,,"06,1,+03600,9,07,9",,,"06,99,1,06,1,00,1,02250,1,03,1,00,1",,"01,9",,,,"99999,9,10096,1","2,1,008,1,-014,1",,,"SYN100AAXX  02151 76458 32862 61203 10239 20203 30096 40108 52008 86030 91450 333 30/// 56090 59014 86362;","Q01  00002PRCP99"
"76458099999","2001-05-03T00:00:00","4","23.2","-106.4166666","4.0","COLONIA JUAN CARRASCO MAZATLAN SIN., MX","FM-12","99999","V020","260,1,N,0040,1","99999,9,9,N","020000,1,N,1","+0255,1","+0215,1","10090,1","24,0000,9,1",,,,,"02,1,+02700,9,03,9",,,"07,99,1,02,1,00,1,99999,9,03,1,07,1",,"01,9",,"120,M,+0298,1","180,N,+0205,1","99999,9,10079,1","7,1,007,1,+008,1",,,"SYN130AAXX  03001 76458 32970 72604 10255 20215 30079 40090 57007 82037 92355 333 10298 20205 30/// 50320 56099 58008 70000 82359 85276;","Q01  00002PRCP99Q02  00003PRCP99"
"76458099999","2001-05-03T03:00:00","4","23.2","-106.4166666","4.0","COLONIA JUAN CARRASCO MAZATLAN SIN., MX","FM-12","99999","V020","999,9,C,0000,1","22000,1,9,N","008000,1,N,1","+0244,1","+0210,1","10110,1","99,0000,9,1",,,,,"03,1,+06000,9,08,9",,,"03,99,1,99,9,00,1,99999,9,00,1,07,1",,"01,9",,,,"99999,9,10098,1","2,1,019,1,+020,1",,,"SYN094AAXX  03031 76458 32958 30000 10244 20210 30098 40110 52019 80007 90245 333 30/// 58020 83270;","Q01+000002SCOTLCQ02  00002PRCP99"
"76458099999","2001-05-03T06:00:00","4","23.2","-106.4166666","4.0","COLONIA JUAN CARRASCO MAZATLAN SIN., MX","FM-12","99999","V020","999,9,C,0000,1","22000,1,9,N","008000,1,N,1","+0230,1","+0204,1","10124,1","99,0000,9,1",,,,,"04,1,+06000,9,08,9",,,"04,99,1,99,9,00,1,99999,9,00,1,07,1","0396,9","01,9",,"240,M,+0298,1","240,N,+0205,1","99999,9,10113,1","2,1,015,1,+023,1",,,"SYN112AAXX  03061 76458 32958 40000 10230 20204 30113 40124 52015 80007 90535 333 10298 20205 30/// 55066 58023 84270;","Q01+000002SCOTLCQ02  00002PRCP99"
"76458099999","2001-05-03T12:00:00","4","23.2","-106.4166666","4.0","COLONIA JUAN CARRASCO MAZATLAN SIN., MX","FM-12","99999","V020","999,9,C,0000,1","22000,1,9,N","008000,1,N,1","+0216,1","+0186,1","10099,1","24,0000,9,1",,,,,"03,1,+02400,9,07,9",,,"03,99,1,99,9,99,9,99999,9,03,1,00,1",,"01,9","999,+0180,9","999,M,+0298,1","120,N,+0196,1","99999,9,10089,1","7,1,003,1,-003,1",,,"SYN118AAXX  03121 76458 32958 30000 10216 20186 30089 40099 57003 80030 91130 333 10298 20196 30018 56090 59003 70000 83358;","Q01+000002SCOTLCQ02    003SCOLCG"
"76458099999","2001-05-03T15:00:00","4","23.2","-106.4166666","4.0","COLONIA JUAN CARRASCO MAZATLAN SIN., MX","FM-12","99999","V020","140,1,N,0010,1","03600,1,9,N","008000,1,N,1","+0227,1","+0193,1","10120,1","99,0000,9,1",,,"4,1,03,1","4,1,03,1","06,1,+03600,9,04,9",,,"08,99,1,06,1,00,1,02250,1,02,1,08,1",,"01,9",,,,"99999,9,10109,1","2,1,021,1,+013,1",,"05,1","SYN112AAXX  03151 76458 31858 81401 10227 20193 30109 40120 52021 70544 86028 91445 333 30/// 56099 58013 86462 82268;","Q01  00002PRCP99"
"76458099999","2001-05-03T18:00:00","4","23.2","-106.4166666","4.0","COLONIA JUAN CARRASCO MAZATLAN SIN., MX","FM-12","99999","V020","260,1,N,0010,1","03600,1,9,N","012000,1,N,1","+0242,1","+0211,1","10148,1","99,0000,9,1",,,,,"01,1,+00390,9,06,9",,,"08,99,1,01,1,04,1,00450,1,02,1,99,9",,"01,9",,"120,M,+0250,1","240,N,+0208,1","99999,9,10136,1","2,1,027,1,+036,1",,,"SYN118AAXX  03181 76458 32462 82601 10242 20211 30136 40148 52027 8142/ 91750 333 10250 20208 30/// 5569/ 58036 81613 87462;","Q01  00002PRCP99"
"76458099999","2001-05-03T21:00:00","4","23.2","-106.4166666","4.0","COLONIA JUAN CARRASCO MAZATLAN SIN., MX","FM-12","99999","V020","360,1,N,0040,1","02700,1,9,N","016000,1,N,1","+0279,1","+0125,1","10128,1","99,0000,9,1",,,,,"03,1,+01500,9,06,9","02,1,+02700,9,03,9",,"07,99,1,03,1,04,1,01750,1,05,1,00,1",,"01,9",,,,"99999,9,10117,1","7,1,019,1,+031,1",,,"SYN112AAXX  03211 76458 32766 73604 10279 20125 30117 40128 57019 83450 92045 333 30/// 56690 58031 83650 82359 82465;","Q01  00002PRCP99"
"76458099999","2001-05-04T00:00:00","4","23.2","-106.4166666","4.0","COLONIA JUAN CARRASCO MAZATLAN SIN., MX","FM-12","99999","V020","300,1,N,0040,1","02100,1,9,N","018000,1,N,1","+0256,1","+0167,1","10106,1","24,0000,9,1",,,,,,,,"07,99,1,07,1,00,1,02250,1,05,1,00,1",,"01,9",,"120,M,+0291,1","180,N,+0208,1","99999,9,10095,1","7,1,021,1,+016,1",,,"SYN124AAXX  04001 76458 32868 73004 10256 20167 30095 40106 57021 87050 92355 333 10291 20208 30/// 50280 56090 58016 70000 87357;","Q01  00002PRCP99Q02  00003PRCP99"
"76458099999","2001-05-04T03:00:00","4","23.2","-106.4166666","4.0","COLONIA JUAN CARRASCO MAZATLAN SIN., MX","FM-12","99999","V020","330,1,N,0040,1","00750,1,C,N","008000,1,N,1","+0240,1","+0161,1","10122,1","99,0000,9,1",,,,,"02,1,+00990,9,06,9",,,"06,99,1,06,1,04,1,00800,1,02,1,00,1",,"01,9",,,,"99999,9,10111,1","2,1,016,1,+013,1",,,"SYN106AAXX  04031 76458 32558 63304 10240 20161 30111 40122 52016 86420 90245 333 30/// 56690 58013 82633 84458;","Q01  00002PRCP99"
"76458099999","2001-05-04T06:00:00","4","23.2","-106.4166666","4.0","COLONIA JUAN CARRASCO MAZATLAN SIN., MX","FM-12","99999","V020","320,1,N,0030,1","02100,1,9,N","008000,1,N,1","+0232,1","+0151,1","10135,1","99,0000,9,1",,,,,,,,"07,99,1,07,1,00,1,02250,1,03,1,00,1","0036,9","01,9",,"240,M,+0291,1","240,N,+0208,1","99999,9,10124,1","0,1,013,1,+011,1",,,"SYN118AAXX  04061 76458 32858 73203 10232 20151 30124 40135 50013 87030 90535 333 10291 20208 30/// 55006 56090 58011 87356;","Q01  00002PRCP99"
"76458099999","2001-05-04T12:00:00","4","23.2","-106.4166666","4.0","COLONIA JUAN CARRASCO MAZATLAN SIN., MX","FM-12","99999","V020","330,1,N,0020,1","22000,1,9,N","008000,1,N,1","+0198,1","+0133,1","10125,1","24,0000,9,1",,,,,"00,1,+99999,9,99,9",,,"00,99,1,00,1,00,1,99999,9,00,1,00,1",,"01,9","999,+0170,9","999,M,+0291,1","120,N,+0188,1","99999,9,10114,1","4,1,000,1,+025,1",,,"SYN100AAXX  04121 76458 32958 03302 10198 20133 30114 40125 54000 91122 333 10291 20188 30017 58025 70000;","Q01  00002PRCP24"
"76458099999","2001-05-04T15:00:00","4","23.2","-106.4166666","4.0","COLONIA JUAN CARRASCO MAZATLAN SIN., MX","FM-12","99999","V020","340,1,N,0030,1","22000,1,9,N","015000,1,N,1","+0268,1","+0131,1","10139,1","99,0000,9,1",,,,,"01,1,+06000,9,01,9",,,"01,99,1,00,1,00,1,99999,9,00,1,01,1",,"01,9",,,,"99999,9,10128,1","2,1,014,1,+019,1",,,"SYN100AAXX  04151 76458 32965 13403 10268 20131 30128 40139 52014 80001 91455 333 30/// 56/// 58019 81070;","Q01  00002PRCP99"
"76458099999","2001-05-04T21:00:00","4","23.2","-106.4166666","4.0","COLONIA JUAN CARRASCO MAZATLAN SIN., MX","FM-12","99999","V020","290,1,N,0060,1","22000,1,9,N","020000,1,N,1","+0249,1","+0189,1","10117,1","99,0000,9,1",,,,,"01,1,+00750,9,02,9",,,"01,99,1,01,1,01,1,00800,1,00,1,00,1",,"01,9",,,,"99999,9,10106,1","7,1,024,1,-011,1",,,"SYN100AAXX  04211 76458 32570 12906 10249 20189 30106 40117 57024 81100 92045 333 30/// 56100 59011 81825;","Q01  00002PRCP99"
"76458099999","2001-05-05T00:00:00","4","23.2","-106.4166666","4.0","COLONIA JUAN CARRASCO MAZATLAN SIN., MX","FM-12","99999","V020","300,1,N,0040,1","22000,1,9,N","020000,1,N,1","+0254,1","+0182,1","10103,1","24,0000,9,1",,,,,"00,1,+99999,9,99,9",,,"00,99,1,00,1,00,1,99999,9,00,1,00,1",,"01,9",,"120,M,+0293,1","180,N,+0183,1","99999,9,10092,1","7,1,014,1,-003,1",,,"SYN106AAXX  05001 76458 32970 03004 10254 20182 30092 40103 57014 92345 333 10293 20183 30/// 50531 59003 70000;","Q01  00002PRCP24"
"76458099999","2001-05-05T03:00:00","4","23.2","-106.4166666","4.0","COLONIA JUAN CARRASCO MAZATLAN SIN., MX","FM-12","99999","V020","300,1,N,0050,1","22000,1,9,N","008000,1,N,1","+0234,1","+0181,1","10114,1","99,0000,9,1",,,,,"00,1,+99999,9,99,9",,,"00,99,1,00,1,00,1,99999,9,00,1,00,1",,"01,9",,,,"99999,9,10102,1","2,1,010,1,-009,1",,,"SYN082AAXX  05031 76458 32958 03005 10234 20181 30102 40114 52010 90245 333 30/// 59009;","Q01  00002PRCP99"
"76458099999","2001-05-05T06:00:00","4","23.2","-106.4166666","4.0","COLONIA JUAN CARRASCO MAZATLAN SIN., MX","FM-12","99999","V020","330,1,N,0030,1","22000,1,9,N","008000,1,N,1","+0218,1","+0176,1","10122,1","99,0000,9,1",,,,,"00,1,+99999,9,99,9",,,"00,99,1,00,1,00,1,99999,9,00,1,00,1","0708,9","01,9",,"240,M,+0293,1","240,N,+0183,1","99999,9,10111,1","0,1,009,1,-013,1",,,"SYN100AAXX  05061 76458 32958 03303 10218 20176 30111 40122 50009 90535 333 10293 20183 30/// 55118 59013;","Q01  00002PRCP99"
"76458099999","2001-05-05T12:00:00","4","23.2","-106.4166666","4.0","COLONIA JUAN CARRASCO MAZATLAN SIN., MX","FM-12","99999","V020","999,9,C,0000,1","22000,1,9,N","008000,1,N,1","+0192,1","+0167,1","10104,1","24,0000,9,1",,,,,"00,1,+99999,9,99,9",,,"00,99,1,00,1,00,1,99999,9,00,1,00,1",,"01,9","999,+0160,9","999,M,+0293,1","120,N,+0188,1","99999,9,10092,1","7,1,012,1,-022,1",,,"SYN100AAXX  05121 76458 32958 00000 10192 20167 30092 40104 57012 91130 333 10293 20188 30016 59022 70000;","Q01  00002PRCP24"
"76458099999","2001-05-05T18:00:00","4","23.2","-106.4166666","4.0","COLONIA JUAN CARRASCO MAZATLAN SIN., MX","FM-12","99999","V020","290,1,N,0070,1","22000,1,9,N","020000,1,N,1","+0254,1","+0180,1","10108,1","99,0000,9,1",,,,,"02,1,+06000,9,01,9",,,"02,99,1,00,1,00,1,99999,9,00,1,03,1",,"01,9",,"120,M,+0267,1","240,N,+0182,1","99999,9,10096,1","6,1,002,1,-046,1",,,"SYN112AAXX  05181 76458 32970 22907 10254 20180 30096 40108 56002 80003 91750 333 10267 20182 30/// 56/// 59046 82070;","Q01  00002PRCP99"
"76458099999","2001-05-05T21:00:00","4","23.2","-106.4166666","4.0","COLONIA JUAN CARRASCO MAZATLAN SIN., MX","FM-12","99999","V020","290,1,N,0060,1","22000,1,9,N","020000,1,N,1","+0250,1","+0195,1","10103,1","99,0000,9,1",,,,,"01,1,+06000,9,01,9",,,"01,99,1,00,1,00,1,99999,9,00,1,01,1",,"01,9",,,,"99999,9,10092,1","7,1,004,1,-014,1",,,"SYN094AAXX  05211 76458 32970 12906 10250 20195 30092 40103 57004 80001 92045 333 30/// 59014 81070;","Q01  00002PRCP99"
"76458099999","2001-05-06T00:00:00","4","23.2","-106.4166666","4.0","COLONIA JUAN CARRASCO MAZATLAN SIN., MX","FM-12","99999","V020","310,1,N,0060,1","22000,1,9,N","020000,1,N,1","+0260,1","+0193,1","10088,1","24,0000,9,1",,,,,"01,1,+06000,9,01,9",,,"01,99,1,00,1,00,1,99999,9,00,1,01,1",,"01,9",,"120,M,+0275,1","180,N,+0182,1","99999,9,10077,1","7,1,015,1,-015,1",,,"SYN118AAXX  06001 76458 32970 13106 10260 20193 30077 40088 57015 80001 92345 333 10275 20182 30/// 50531 59015 70000 81070;",
"76458099999","2001-05-06T03:00:00","4","23.2","-106.4166666","4.0","COLONIA JUAN CARRASCO MAZATLAN SIN., MX","FM-12","99999","V020","310,1,N,0050,1","22000,1,9,N","016000,1,N,1","+0226,1","+0194,1","10104,1","99,0000,9,1",,,,,"01,1,+08700,9,01,9",,,"01,99,1,00,1,00,1,99999,9,00,1,01,1",,"01,9",,,,"99999,9,10093,1","2,1,016,1,-010,1",,,"SYN100AAXX  06031 76458 32966 13105 10226 20194 30093 40104 52016 80001 90245 333 30/// 56009 59010 81079;","Q01  00002PRCP99"
"76458099999","2001-05-06T06:00:00","4","23.2","-106.4166666","4.0","COLONIA JUAN CARRASCO MAZATLAN SIN., MX","FM-12","99999","V020","290,1,N,0020,1","22000,1,9,N","012000,1,N,1","+0275,1","+0182,1","10113,1","99,0000,9,1",,,,,,,,"04,99,1,00,1,00,1,99999,9,00,1,04,1","0690,9","01,9",,"240,M,+0275,1","240,N,+0182,1",,"2,1,009,1,-009,1",,,"SYN112AAXX  06061 76458 32962 42902 10275 20182 40113 52009 80004 90545 333 10275 20182 30/// 55115 56009 59009 84079;","Q01  00002PRCP99"
"76458099999","2001-05-06T12:00:00","4","23.2","-106.4166666","4.0","COLONIA JUAN CARRASCO MAZATLAN SIN., MX","FM-12","99999","V020","340,1,N,0020,1","22000,1,9,N","002000,1,N,1","+0192,1","+0186,1","10098,1","24,0000,9,1",,,"4,1,06,1","4,1,06,1","00,1,+99999,9,99,9",,,"00,99,1,00,1,00,1,99999,9,00,1,00,1",,"01,9","999,+0170,9","999,M,+0275,1","120,N,+0182,1","99999,9,10087,1","5,1,004,1,-005,1",,"05,1","SYN106AAXX  06121 76458 31920 03402 10192 20186 30087 40098 55004 70544 91150 333 10275 20182 30017 59005 70000;","Q01  00002PRCP24"
"76458099999","2001-05-06T15:00:00","4","23.2","-106.4166666","4.0","COLONIA JUAN CARRASCO MAZATLAN SIN., MX","FM-12","99999","V020","270,1,N,0030,1","22000,1,9,N","015000,1,N,1","+0210,1","+0175,1","10111,1","99,0000,9,1",,,"4,1,03,1","4,1,03,1","01,1,+06000,9,01,9",,,"01,99,1,00,1,00,1,99999,9,00,1,03,1",,"01,9",,,,"99999,9,10099,1","3,1,012,1,+001,1",,"41,1","SYN106AAXX  06151 76458 31965 12703 10210 20175 30099 40111 53012 74144 80003 91450 333 30/// 56009 58001 81070;","Q01  00002PRCP99"
"76458099999","2001-05-06T18:00:00","4","23.2","-106.4166666","4.0","COLONIA JUAN CARRASCO MAZATLAN SIN., MX","FM-12","99999","V020","270,1,N,0060,1","22000,1,9,N","020000,1,N,1","+0230,1","+0189,1","10112,1","99,0000,9,1",,,,,"01,1,+06000,9,01,9",,,"01,99,1,00,1,00,1,99999,9,00,1,01,1",,"01,9",,"120,M,+0245,1","240,N,+0175,1","99999,9,10101,1","0,1,002,1,+005,1",,,"SYN106AAXX  06181 76458 32970 12706 10230 20189 30101 40112 50002 80001 91745 333 10245 20175 30/// 58005 81070;","Q01  00002PRCP99"
"76458099999","2001-05-06T21:00:00","4","23.2","-106.4166666","4.0","COLONIA JUAN CARRASCO MAZATLAN SIN., MX","FM-12","99999","V020","310,1,N,0070,1","22000,1,9,N","020000,1,N,1","+0254,1","+0196,1","10093,1","99,0000,9,1",,,,,"01,1,+06000,9,01,9",,,"01,99,1,00,1,00,1,99999,9,00,1,03,1",,"01,9",,,,"99999,9,10081,1","7,1,020,1,-011,1",,,"SYN094AAXX  06211 76458 32970 13107 10254 20196 30081 40093 57020 80003 92045 333 30/// 59011 81070;","Q01  00002PRCP99"
"76458099999","2001-05-07T03:00:00","4","23.2","-106.4166666","4.0","COLONIA JUAN CARRASCO MAZATLAN SIN., MX","FM-12","99999","V020","270,1,N,0040,1","22000,1,9,N","020000,1,N,1","+0252,1","+0187,1","10089,1","24,0000,9,1",,,,,,,,"01,99,1,00,1,00,1,99999,9,00,1,05,1",,"01,9",,"999,M,+0285,1","999,N,+0175,1","99999,9,10070,1","5,1,011,1,-007,1",,,"SYN124AAXX  07031 76458 32970 12704 10252 20187 30070 40089 55011 80005 92355 333 10285 20175 30/// 50560 56009 59007 70000 81079;","Q01  00002PRCP99Q02  00003PRCP99"
"76458099999","2001-05-07T09:00:00","4","23.2","-106.4166666","4.0","COLONIA JUAN CARRASCO MAZATLAN SIN., MX","FM-12","99999","V020","340,1,N,0020,1","22000,1,9,N","008000,1,N,1","+0198,1","+0154,1","10110,1","99,0000,9,1",,,,,"00,1,+99999,9,99,9",,,"00,99,1,00,1,00,1,99999,9,00,1,00,1",,"01,9",,,,"99999,9,10099,1","7,1,006,1,+008,1",,,"SYN082AAXX  07091 76458 32958 03402 10198 20154 30099 40110 57006 90830 333 30/// 58008;","Q01  00002PRCP99"
"76458099999","2001-05-07T15:00:00","4","23.2","-106.4166666","4.0","COLONIA JUAN CARRASCO MAZATLAN SIN., MX","FM-12","99999","V020","320,1,N,0030,1","22000,1,9,N","015000,1,N,1","+0220,1","+0158,1","10120,1","99,0000,9,1",,,,,"00,1,+99999,9,99,9",,,"00,99,1,00,1,00,1,99999,9,00,1,00,1",,"01,9",,,,"99999,9,10109,1","1,1,011,1,+010,1",,,"SYN082AAXX  07151 76458 32965 03203 10220 20158 30109 40120 51011 91455 333 30/// 58010;","Q01  00002PRCP99"
"76458099999","2001-05-07T18:00:00","4","23.2","-106.4166666","4.0","COLONIA JUAN CARRASCO MAZATLAN SIN., MX","FM-12","99999","V020","270,1,N,0060,1","22000,1,9,N","020000,1,N,1","+0251,1","+0165,1","10119,1","99,0000,9,1",,,,,"00,1,+99999,9,99,9",,,"00,99,1,00,1,00,1,99999,9,00,1,00,1",,"01,9",,"120,M,+0267,1","240,N,+0163,1","99999,9,10107,1","4,1,000,1,+006,1",,,"SYN094AAXX  07181 76458 32970 02706 10251 20165 30107 40119 54001 91755 333 10267 20163 30/// 58006;","Q01  00002PRCP99"
"76458099999","2001-05-07T21:00:00","4","23.2","-106.4166666","4.0","COLONIA JUAN CARRASCO MAZATLAN SIN., MX","FM-12","99999","V020","270,1,N,0060,1","22000,1,9,N","020000,1,N,1","+0268,1","+0159,1","10098,1","99,0000,9,1",,,,,"01,1,+01350,9,02,9",,,"01,99,1,01,1,01,1,01250,1,00,1,00,1",,"01,9",,,,"99999,9,10087,1","7,1,020,1,+005,1",,,"SYN100AAXX  07211 76458 32670 12706 10268 20159 30087 40098 57020 81100 92045 333 30/// 56100 58005 81845;","Q01  00002PRCP99"
"76458099999","2001-05-08T00:00:00","4","23.2","-106.4166666","4.0","COLONIA JUAN CARRASCO MAZATLAN SIN., MX","FM-12","99999","V020","290,1,N,0050,1","22000,1,9,N","020000,1,N,1","+0262,1","+0189,1","10092,1","24,0000,9,1",,,,,"00,1,+99999,9,99,9",,,"00,99,1,00,1,00,1,99999,9,00,1,00,1",,"01,9",,"120,M,+0285,1","180,N,+0163,1","99999,9,10081,1","6,1,005,1,+003,1",,,"SYN106AAXX  08001 76458 32970 02905 10262 20189 30081 40092 56005 92345 333 10285 20163 30/// 50561 58003 70000;","Q01  00002PRCP24"
"76458099999","2001-05-08T03:00:00","4","23.2","-106.4166666","4.0","COLONIA JUAN CARRASCO MAZATLAN SIN., MX","FM-12","99999","V020","330,1,N,0040,1","22000,1,9,N","008000,1,N,1","+0236,1","+0183,1","10102,1","99,0000,9,1",,,,,"00,1,+99999,9,99,9",,,"00,99,1,00,1,00,1,99999,9,00,1,00,1",,"01,9",,,,"99999,9,10091,1","3,1,010,1,-001,1",,,"SYN082AAXX  08031 76458 32958 03304 10236 20183 30091 40102 53010 90245 333 30/// 59001;","Q01  00002PRCP99"
"76458099999","2001-05-08T18:00:00","4","23.2","-106.4166666","4.0","COLONIA JUAN CARRASCO MAZATLAN SIN., MX","FM-12","99999","V020","240,1,N,0060,1","22000,1,9,N","012000,1,N,1","+0258,1","+0194,1","10109,1","99,0000,9,1",,,"4,1,06,1","4,1,06,1","00,1,+99999,9,99,9",,,"00,99,1,00,1,00,1,99999,9,00,1,00,1",,"01,9",,"120,M,+0285,1","240,N,+0186,1","99999,9,10097,1","7,1,006,1,-010,1",,"05,1","SYN100AAXX  08181 76458 31962 02406 10258 20194 30097 40109 57006 70544 91755 333 10285 20186 30/// 59010;","Q01  00002PRCP99"
"76458099999","2001-05-08T21:00:00","4","23.2","-106.4166666","4.0","COLONIA JUAN CARRASCO MAZATLAN SIN., MX","FM-12","99999","V020","290,1,N,0040,1","22000,1,9,N","018000,1,N,1","+0261,1","+0202,1","10089,1","99,0000,9,1",,,"4,1,03,1","4,1,03,1","01,1,+00750,9,02,9",,,"01,99,1,01,1,02,1,00800,1,00,1,00,1",,"01,9",,,,"99999,9,10078,1","7,1,019,1,-008,1",,"05,1","SYN106AAXX  08211 76458 31568 12904 10261 20202 30078 40089 57019 70544 81200 92055 333 30/// 56100 59008 81825;","Q01  00002PRCP99"
"76458099999","2001-05-09T00:00:00","4","23.2","-106.4166666","4.0","COLONIA JUAN CARRASCO MAZATLAN SIN., MX","FM-12","99999","V020","270,1,N,0030,1","22000,1,9,N","020000,1,N,1","+0276,1","+0165,1","10074,1","24,0000,9,1",,,,,,,,"01,99,1,00,1,00,1,99999,9,00,1,01,1",,"01,9",,"120,M,+0290,1","180,N,+0186,1","99999,9,10062,1","7,1,016,1,-022,1",,,"SYN124AAXX  09001 76458 32970 12703 10276 20165 30062 40074 57016 80001 92350 333 10290 20186 30/// 50361 56001 59022 70000 81070;","Q01  00002PRCP99Q02  00003PRCP99"
"76458099999","2001-05-09T03:00:00","4","23.2","-106.4166666","4.0","COLONIA JUAN CARRASCO MAZATLAN SIN., MX","FM-12","99999","V020","270,1,N,0040,1","22000,1,9,N","010000,1,N,1","+0242,1","+0192,1","10082,1","99,0000,9,1",,,,,"00,1,+99999,9,99,9",,,"00,99,1,00,1,00,1,99999,9,00,1,00,1",,"01,9",,,,"99999,9,10070,1","2,1,008,1,-021,1",,,"SYN082AAXX  09031 76458 32960 02704 10242 20192 30070 40082 52008 90245 333 30/// 59021;","Q01  00002PRCP99"
"76458099999","2001-05-09T06:00:00","4","23.2","-106.4166666","4.0","COLONIA JUAN CARRASCO MAZATLAN SIN., MX","FM-12","99999","V020","160,1,N,0020,1","22000,1,9,N","008000,1,N,1","+0228,1","+0205,1","10112,1","99,0000,9,1",,,,,"00,1,+99999,9,99,9",,,"00,99,1,00,1,00,1,99999,9,00,1,00,1","0630,9","01,9",,"240,M,+0290,1","240,N,+0186,1","99999,9,10100,1","2,1,030,1,-002,1",,,"SYN100AAXX  09061 76458 32958 01602 10228 20205 30100 40112 52030 90600 333 10290 20186 30/// 55105 59002;","Q01  00002PRCP99"
"76458099999","2001-05-09T09:00:00","4","23.2","-106.4166666","4.0","COLONIA JUAN CARRASCO MAZATLAN SIN., MX","FM-12","99999","V020","130,1,N,0160,1","22000,1,9,N","008000,1,N,1","+0226,1","+0209,1","10105,1","99,0000,9,1",,,,,"00,1,+99999,9,99,9",,,"00,99,1,00,1,00,1,99999,9,00,1,00,1",,"01,9",,,,"99999,9,10094,1","7,1,006,1,-007,1",,,"SYN082AAXX  09091 76458 32958 01316 10226 20209 30094 40105 57006 90835 333 30/// 59007;","Q01  00002PRCP99"
"76458099999","2001-05-09T12:00:00","4","23.2","-106.4166666","4.0","COLONIA JUAN CARRASCO MAZATLAN SIN., MX","FM-12","99999","V020","120,1,N,0010,1","22000,1,9,N","008000,1,N,1","+0220,1","+0205,1","10103,1","24,0000,9,1",,,,,"00,1,+99999,9,99,9",,,"00,99,1,00,1,00,1,99999,9,00,1,00,1",,"01,9","999,+0200,9","999,M,+0290,1","120,N,+0215,1","99999,9,10092,1","5,1,002,1,-013,1",,,"SYN100AAXX  09121 76458 32958 01201 10220 20205 30092 40103 55002 91150 333 10290 20215 30020 59013 70000;","Q01  00002PRCP24"
"76458099999","2001-05-09T15:00:00","4","23.2","-106.4166666","4.0","COLONIA JUAN CARRASCO MAZATLAN SIN., MX","FM-12","99999","V020","130,1,N,0020,1","22000,1,9,N","008000,1,N,1","+0251,1","+0205,1","10114,1","99,0000,9,1",,,"4,1,03,1","4,1,03,1","00,1,+99999,9,99,9",,,"00,99,1,00,1,00,1,99999,9,00,1,00,1",,"01,9",,,,"99999,9,10103,1","2,1,011,1,+000,1",,"05,1","SYN088AAXX  09151 76458 31958 01302 10251 20205 30103 40114 52011 70544 91445 333 30/// 58000;","Q01  00002PRCP99"
"76458099999","2001-05-09T21:00:00","4","23.2","-106.4166666","4.0","COLONIA JUAN CARRASCO MAZATLAN SIN., MX","FM-12","99999","V020","210,1,N,0050,1","22000,1,9,N","020000,1,N,1","+0283,1","+0165,1","10109,1","99,0000,9,1",,,"4,1,03,1","0,1,03,1","01,1,+01470,9,09,9",,,"01,99,1,01,1,03,1,01250,1,00,1,00,1",,"01,9",,,,"99999,9,10100,1","7,1,008,1,+021,1",,"02,1","SYN106AAXX  09211 76458 31670 12105 10283 20165 30100 40109 57008 70240 81300 92055 333 30/// 56100 58021 81949;","Q01  00002PRCP99"
"76458099999","2001-05-10T00:00:00","4","23.2","-106.4166666","4.0","COLONIA JUAN CARRASCO MAZATLAN SIN., MX","FM-12","99999","V020","230,1,N,0030,1","22000,1,9,N","020000,1,N,1","+0286,1","+0187,1","10104,1","24,0000,9,1",,,,,,,,"01,99,1,01,1,02,1,01250,1,00,1,00,1",,"01,9",,"120,M,+0305,1","180,N,+0212,1","99999,9,10093,1","5,1,007,1,+031,1",,,"SYN124AAXX  10001 76458 32670 12303 10286 20187 30093 40104 55007 81200 92345 333 10305 20212 30/// 50361 56100 58031 70000 81841;","Q01  00002PRCP99Q02  00003PRCP99"
"76458099999","2001-05-10T03:00:00","4","23.2","-106.4166666","4.0","COLONIA JUAN CARRASCO MAZATLAN SIN., MX","FM-12","99999","V020","260,1,N,0030,1","22000,1,9,N","008000,1,N,1","+0266,1","+0153,1","10117,1","99,0000,9,1",,,,,"01,1,+01800,9,07,9",,,"01,99,1,01,1,99,9,02250,1,03,1,00,1",,"01,9",,,,"99999,9,10106,1","2,1,013,1,+036,1",,,"SYN100AAXX  10031 76458 32858 12603 10266 20153 30106 40117 52013 81030 90245 333 30/// 56090 58036 81356;","Q01+000002SCOLCGQ02  00002PRCP99"
"76458099999","2001-05-10T09:00:00","4","23.2","-106.4166666","4.0","COLONIA JUAN CARRASCO MAZATLAN SIN., MX","FM-12","99999","V020","999,9,C,0000,1","22000,1,9,N","008000,1,N,1","+0224,1","+0158,1","10122,1","99,0000,9,1",,,,,"00,1,+99999,9,99,9",,,"00,99,1,00,1,00,1,99999,9,00,1,00,1",,"01,9",,,,"99999,9,10110,1","7,1,006,1,+019,1",,,"SYN082AAXX  10091 76458 32958 00000 10224 20158 30110 40122 57006 90830 333 30/// 58019;","Q01  00002PRCP99"
"76458099999","2001-05-10T12:00:00","4","23.2","-106.4166666","4.0","COLONIA JUAN CARRASCO MAZATLAN SIN., MX","FM-12","99999","V020","999,9,C,0000,1","22000,1,9,N","008000,1,N,1","+0220,1","+0158,1","10111,1","24,0000,9,1",,,,,"00,1,+99999,9,99,9",,,"00,99,1,00,1,00,1,99999,9,00,1,00,1",,"01,9","999,+0180,9","999,M,+0305,1","120,N,+0210,1","99999,9,10100,1","7,1,011,1,+008,1",,,"SYN100AAXX  10121 76458 32958 00000 10220 20158 30100 40111 57011 91150 333 10305 20210 30018 58008 70000;","Q01  00002PRCP24"
"76458099999","2001-05-10T15:00:00","4","23.2","-106.4166666","4.0","COLONIA JUAN CARRASCO MAZATLAN SIN., MX","FM-12","99999","V020","120,1,N,0010,1","22000,1,9,N","010000,1,N,1","+0255,1","+0155,1","10125,1","99,0000,9,1",,,"4,1,03,1","4,1,03,1","00,1,+99999,9,99,9",,,"00,99,1,00,1,00,1,99999,9,00,1,00,1",,"01,9",,,,"99999,9,10114,1","2,1,014,1,+011,1",,"05,1","SYN088AAXX  10151 76458 31960 01201 10255 20155 30114 40125 52014 70544 91450 333 30/// 58011;","Q01  00002PRCP99"
"76458099999","2001-05-10T21:00:00","4","23.2","-106.4166666","4.0","COLONIA JUAN CARRASCO MAZATLAN SIN., MX","FM-12","99999","V020","250,1,N,0050,1","22000,1,9,N","018000,1,N,1","+0262,1","+0217,1","10105,1","99,0000,9,1",,,,,"01,1,+00570,9,05,9",,,"01,99,1,01,1,04,1,00450,1,00,1,00,1",,"01,9",,,,"99999,9,10094,1","7,1,017,1,-004,1",,,"SYN100AAXX  10211 76458 32468 12505 10262 20217 30094 40105 57017 81400 92055 333 30/// 56500 59004 81619;","Q01  00002PRCP99"
"76458099999","2001-05-11T00:00:00","4","23.2","-106.4166666","4.0","COLONIA JUAN CARRASCO MAZATLAN SIN., MX","FM-12","99999","V020","280,1,N,0030,1","22000,1,9,N","020000,1,N,1","+0264,1","+0216,1","10098,1","99,0000,9,1",,,,,,,,"01,99,1,01,1,02,1,00800,1,00,1,00,1",,"01,9",,"120,M,+0295,1","180,N,+0207,1","99999,9,10087,1","6,1,007,1,-007,1",,,"SYN118AAXX  11001 76458 32570 12803 10264 20216 30087 40098 56007 81200 92345 333 10295 20207 30/// 50631 56100 59007 81820;","Q01  00002PRCP99"
"76458099999","2001-05-11T03:00:00","4","23.2","-106.4166666","4.0","COLONIA JUAN CARRASCO MAZATLAN SIN., MX","FM-12","99999","V020","340,1,N,0020,1","22000,1,9,N","008000,1,N,1","+0248,1","+0217,1","10113,1","99,0000,9,1",,,,,"00,1,+99999,9,99,9",,,"00,99,1,00,1,00,1,99999,9,00,1,00,1",,"01,9",,,,"99999,9,10102,1","2,1,015,1,-004,1",,,"SYN082AAXX  11031 76458 32958 03402 10248 20217 30102 40113 52015 90245 333 30/// 59004;","Q01  00002PRCP99"
"76458099999","2001-05-11T15:00:00","4","23.2","-106.4166666","4.0","COLONIA JUAN CARRASCO MAZATLAN SIN., MX","FM-12","99999","V020","270,1,N,0020,1","22000,1,9,N","004000,1,N,1","+0248,1","+0211,1","10126,1","99,0000,9,1",,,"4,1,03,1","2,1,03,1","01,1,+00450,9,02,9",,,"01,99,1,01,1,01,1,00450,1,00,1,00,1",,"01,9",,,,"99999,9,10115,1","1,1,014,1,+001,1",,"05,1","SYN106AAXX  11151 76458 31440 12702 10248 20211 30115 40126 51014 70542 81100 91455 333 30/// 563// 58001 81815;","Q01  00002PRCP99"
"76458099999","2001-05-11T18:00:00","4","23.2","-106.4166666","4.0","COLONIA JUAN CARRASCO MAZATLAN SIN., MX","FM-12","99999","V020","250,1,N,0030,1","22000,1,9,N","012000,1,N,1","+0273,1","+0196,1","10122,1","99,0000,9,1",,,"0,1,06,1","4,1,06,1","00,1,+99999,9,99,9",,,"00,99,1,00,1,00,1,99999,9,00,1,00,1",,"01,9",,"120,M,+0291,1","240,N,+0200,1","99999,9,10110,1","1,1,005,1,-001,1",,"00,1","SYN100AAXX  11181 76458 31962 02503 10273 20196 30110 40122 51005 70004 91750 333 10291 20200 30/// 59001;","Q01  00002PRCP99"
"76458099999","2001-05-11T21:00:00","4","23.2","-106.4166666","4.0","COLONIA JUAN CARRASCO MAZATLAN SIN., MX","FM-12","99999","V020","250,1,N,0030,1","22000,1,9,N","018000,1,N,1","+0267,1","+0212,1","10107,1","99,0000,9,1",,,,,"01,1,+00690,9,02,9",,,"01,99,1,01,1,02,1,00800,1,00,1,00,1",,"01,9",,,,"99999,9,10096,1","7,1,014,1,+002,1",,,"SYN100AAXX  11211 76458 32568 12503 10267 20212 30096 40107 57014 81200 92050 333 30/// 56100 58002 81823;","Q01  00002PRCP99"
"76458099999","2001-05-12T00:00:00","4","23.2","-106.4166666","4.0","COLONIA JUAN CARRASCO MAZATLAN SIN., MX","FM-12","99999","V020","280,1,N,0030,1","22000,1,9,N","018000,1,N,1","+0262,1","+0214,1","10097,1","24,0000,9,1",,,,,,,,"01,99,1,01,1,02,1,00800,1,00,1,00,1",,"01,9",,"120,M,+0295,1","180,N,+0200,1","99999,9,10086,1","5,1,010,1,-001,1",,,"SYN124AAXX  12001 76458 32568 12803 10262 20214 30086 40097 55010 81200 92345 333 10295 20200 30/// 50521 56100 59001 70000 81820;","Q01  00002PRCP99Q02  00003PRCP99"
"76458099999","2001-05-12T03:00:00","4","23.2","-106.4166666","4.0","COLONIA JUAN CARRASCO MAZATLAN SIN., MX","FM-12","99999","V020","310,1,N,0030,1","22000,1,9,N","008000,1,N,1","+0246,1","+0212,1","10115,1","99,0000,9,1",,,,,"01,1,+00450,9,02,9",,,"01,99,1,01,1,01,1,00450,1,00,1,00,1",,"01,9",,,,"99999,9,10104,1","2,1,018,1,+002,1",,,"SYN100AAXX  12031 76458 32458 13103 10246 20212 30104 40115 52018 81100 90245 333 30/// 56600 58002 81815;","Q01  00002PRCP99"
"76458099999","2001-05-12T06:00:00","4","23.2","-106.4166666","4.0","COLONIA JUAN CARRASCO MAZATLAN SIN., MX","FM-12","99999","V020","999,9,C,0000,1","22000,1,9,N","008000,1,N,1","+0234,1","+0208,1","10121,1","99,0000,9,1",,,,,"00,1,+99999,9,99,9",,,"00,99,1,00,1,00,1,99999,9,00,1,00,1","0630,9","01,9",,"240,M,+0295,1","240,N,+0200,1","99999,9,10105,1","2,1,002,1,+002,1",,,"SYN100AAXX  12061 76458 32958 00000 10234 20208 30105 40121 52002 90600 333 10295 20200 30/// 55105 58002;","Q01  00002PRCP99"
"76458099999","2001-05-12T15:00:00","4","23.2","-106.4166666","4.0","COLONIA JUAN CARRASCO MAZATLAN SIN., MX","FM-12","99999","V020","170,1,N,0030,1","22000,1,9,N","012000,1,N,1","+0246,1","+0210,1","10128,1","99,0000,9,1",,,,,"03,1,+00450,9,02,9",,,"03,99,1,03,1,01,1,00450,1,00,1,00,1",,"01,9",,,,"99999,9,10117,1","1,1,007,1,+002,1",,,"SYN100AAXX  12151 76458 32462 31703 10246 20210 30117 40128 51007 83100 91455 333 30/// 563// 58002 83815;","Q01  00002PRCP99"
"76458099999","2001-05-12T21:00:00","4","23.2","-106.4166666","4.0","COLONIA JUAN CARRASCO MAZATLAN SIN., MX","FM-12","99999","V020","230,1,N,0030,1","22000,1,9,N","016000,1,N,1","+0267,1","+0219,1","10108,1","99,0000,9,1",,,,,"01,1,+00870,9,09,9",,,"01,99,1,01,1,09,1,00800,1,00,1,00,1",,"01,9",,,,"99999,9,10096,1","7,1,011,1,+001,1",,,"SYN100AAXX  12211 76458 32566 12303 10267 20219 30096 40108 57011 81900 92055 333 30/// 56100 58001 81929;","Q01  00002PRCP99"
"76458099999","2001-05-13T03:00:00","4","23.2","-106.4166666","4.0","COLONIA JUAN CARRASCO MAZATLAN SIN., MX","FM-12","99999","V020","320,1,N,0020,1","22000,1,9,N","008000,1,N,1","+0240,1","+0209,1","10123,1","99,0000,9,1",,,,,"00,1,+99999,9,99,9",,,"00,99,1,00,1,00,1,99999,9,00,1,00,1",,"01,9",,,,"99999,9,10112,1","2,1,019,1,+008,1",,,"SYN082AAXX  13031 76458 32958 03202 10240 20209 30112 40123 52019 90240 333 30/// 58008;","Q01  00002PRCP99"
"76458099999","2001-05-13T06:00:00","4","23.2","-106.4166666","4.0","COLONIA JUAN CARRASCO MAZATLAN SIN., MX","FM-12","99999","V020","340,1,N,0010,1","22000,1,9,N","008000,1,N,1","+0232,1","+0205,1","10124,1","99,0000,9,1",,,,,"00,1,+99999,9,99,9",,,"00,99,1,00,1,00,1,99999,9,00,1,00,1","0636,9","01,9",,"240,M,+0295,1","240,N,+0013,1","99999,9,10112,1","0,1,001,1,-002,1",,,"SYN100AAXX  13061 76458 32958 03401 10232 20205 30112 40124 50001 90550 333 10295 20013 30/// 55106 59002;","Q01  00002PRCP99"
"76458099999","2001-05-13T09:00:00","4","23.2","-106.4166666","4.0","COLONIA JUAN CARRASCO MAZATLAN SIN., MX","FM-12","99999","V020","170,1,N,0020,1","22000,1,9,N","008000,1,N,1","+0219,1","+0204,1","10124,1","99,0000,9,1",,,,,"00,1,+99999,9,99,9",,,"00,99,1,00,1,00,1,99999,9,00,1,00,1",,"01,9",,,,"99999,9,10113,1","2,1,001,1,-005,1",,,"SYN082AAXX  13091 76458 32958 01702 10219 20204 30113 40124 52001 90850 333 30/// 59005;","Q01  00002PRCP99"
"76458099999","2001-05-13T15:00:00","4","23.2","-106.4166666","4.0","COLONIA JUAN CARRASCO MAZATLAN SIN., MX","FM-12","99999","V020","250,1,N,0020,1","22000,1,9,N","000800,1,N,1","+0234,1","+0208,1","10144,1","99,0000,9,1",,,"4,1,03,1","4,1,03,1","02,1,+00330,9,06,9",,,"02,99,1,02,1,06,1,00450,1,00,1,00,1",,"01,9",,,,"99999,9,10133,1","2,1,019,1,+016,1",,"42,1","SYN106AAXX  13151 76458 31408 22502 10234 20208 30133 40144 52019 74244 82600 91455 333 30/// 56600 58016 82711;","Q01  00002PRCP99"
"76458099999","2001-05-13T18:00:00","4","23.2","-106.4166666","4.0","COLONIA JUAN CARRASCO MAZATLAN SIN., MX","FM-12","99999","V020","260,1,N,0040,1","22000,1,9,N","015000,1,N,1","+0255,1","+0207,1","10141,1","99,0000,9,1",,,"4,1,06,1","4,1,06,1","00,1,+99999,9,99,9",,,"00,99,1,00,1,00,1,99999,9,00,1,00,1",,"01,9",,"120,M,+0280,1","240,N,+0202,1","99999,9,10129,1","8,1,004,1,+021,1",,"05,1","SYN100AAXX  13181 76458 31965 02604 10255 20207 30129 40141 58004 70544 91750 333 10280 20202 30/// 58021;","Q01  00002PRCP99"
"76458099999","2001-05-14T00:00:00","4","23.2","-106.4166666","4.0","COLONIA JUAN CARRASCO MAZATLAN SIN., MX","FM-12","99999","V020","300,1,N,0040,1","22000,1,9,N","018000,1,N,1","+0268,1","+0202,1","10124,1","24,0000,9,1",,,,,,,,"01,99,1,01,1,02,1,00800,1,00,1,00,1",,"01,9",,"120,M,+0285,1","180,N,+0202,1","99999,9,10113,1","5,1,003,1,+020,1",,,"SYN124AAXX  14001 76458 32568 13004 10268 20202 30113 40124 55003 81200 92345 333 10285 20202 30/// 50511 56100 58020 70000 81828;","Q01  00002PRCP99Q02  00003PRCP99"
"76458099999","2001-05-14T03:00:00","4","23.2","-106.4166666","4.0","COLONIA JUAN CARRASCO MAZATLAN SIN., MX","FM-12","99999","V020","330,1,N,0020,1","22000,1,9,N","008000,1,N,1","+0244,1","+0204,1","10123,1","99,0000,9,1",,,,,"00,1,+99999,9,99,9",,,"00,99,1,00,1,00,1,99999,9,00,1,00,1",,"01,9",,,,"99999,9,10112,1","5,1,001,1,+000,1",,,"SYN082AAXX  14031 76458 32958 03302 10244 20204 30112 40123 55001 90245 333 30/// 58000;","Q01  00002PRCP99"
"76458099999","2001-05-14T06:00:00","4","23.2","-106.4166666","4.0","COLONIA JUAN CARRASCO MAZATLAN SIN., MX","FM-12","99999","V020","160,1,N,0020,1","22000,1,9,N","008000,1,N,1","+0236,1","+0196,1","10131,1","99,0000,9,1",,,,,"00,1,+99999,9,99,9",,,"00,99,1,00,1,00,1,99999,9,00,1,00,1","0630,9","01,9",,"240,M,+0285,1","240,N,+0202,1","99999,9,10120,1","2,1,009,1,+008,1",,,"SYN100AAXX  14061 76458 32958 01602 10236 20196 30120 40131 52009 90540 333 10285 20202 30/// 55105 58008;","Q01  00002PRCP99"
"76458099999","2001-05-14T09:00:00","4","23.2","-106.4166666","4.0","COLONIA JUAN CARRASCO MAZATLAN SIN., MX","FM-12","99999","V020","140,1,N,0020,1","22000,1,9,N","008000,1,N,1","+0222,1","+0205,1","10130,1","99,0000,9,1",,,,,"00,1,+99999,9,99,9",,,"00,99,1,00,1,00,1,99999,9,00,1,00,1",,"01,9",,,,"99999,9,10119,1","7,1,002,1,+006,1",,,"SYN082AAXX  14091 76458 32958 01402 10222 20205 30119 40130 57002 90830 333 30/// 58006;","Q01  00002PRCP99"
"76458099999","2001-05-14T15:00:00","4","23.2","-106.4166666","4.0","COLONIA JUAN CARRASCO MAZATLAN SIN., MX","FM-12","99999","V020","999,9,C,0000,1","22000,1,9,N","010000,1,N,1","+0252,1","+0209,1","10140,1","99,0000,9,1",,,,,"01,1,+06000,9,01,9",,,"01,99,1,00,1,00,1,99999,9,00,1,01,1",,"01,9",,,,"99999,9,10129,1","0,1,003,1,-004,1",,,"SYN100AAXX  14151 76458 32960 10000 10252 20209 30129 40140 50003 80001 91450 333 30/// 56/// 59004 81070;","Q01  00002PRCP99"
"76458099999","2001-05-14T21:00:00","4","23.2","-106.4166666","4.0","COLONIA JUAN CARRASCO MAZATLAN SIN., MX","FM-12","99999","V020","290,1,N,0050,1","22000,1,9,N","018000,1,N,1","+0270,1","+0229,1","10123,1","99,0000,9,1",,,,,"01,1,+00510,9,09,9",,,"01,99,1,01,1,09,1,00450,1,00,1,00,1",,"01,9",,,,"99999,9,10112,1","7,1,017,1,+002,1",,,"SYN100AAXX  14211 76458 32468 12905 10270 20229 30112 40123 57017 81900 92055 333 30/// 56100 58002 81917;","Q01  00002PRCP99"
"76458099999","2001-05-15T00:00:00","4","23.2","-106.4166666","4.0","COLONIA JUAN CARRASCO MAZATLAN SIN., MX","FM-12","99999","V020","290,1,N,0030,1","22000,1,9,N","020000,1,N,1","+0276,1","+0195,1","10117,1","24,0000,9,1",,,,,,,,"01,99,1,01,1,02,1,01250,1,00,1,00,1",,"01,9",,"120,M,+0298,1","180,N,+0200,1","99999,9,10106,1","6,1,006,1,-006,1",,,"SYN124AAXX  15001 76458 32670 12903 10276 20195 30106 40117 56006 81200 92345 333 10298 20200 30/// 50631 56100 59006 70000 81834;","Q01  00002PRCP99Q02  00003PRCP99"
"76458099999","2001-05-15T03:00:00","4","23.2","-106.4166666","4.0","COLONIA JUAN CARRASCO MAZATLAN SIN., MX","FM-12","99999","V020","350,1,N,0030,1","22000,1,9,N","008000,1,N,1","+0256,1","+0205,1","10135,1","99,0000,9,1",,,,,"00,1,+99999,9,99,9",,,"00,99,1,00,1,00,1,99999,9,00,1,00,1",,"01,9",,,,"99999,9,10124,1","2,1,018,1,+012,1",,,"SYN082AAXX  15031 76458 32958 03503 10256 20205 30124 40135 52018 90245 333 30/// 58012;","Q01  00002PRCP99"
"76458099999","2001-05-15T09:00:00","4","23.2","-106.4166666","4.0","COLONIA JUAN CARRASCO MAZATLAN SIN., MX","FM-12","99999","V020","999,9,C,0000,1","22000,1,9,N","008000,1,N,1","+0228,1","+0216,1","10125,1","99,0000,9,1",,,,,"00,1,+99999,9,99,9",,,"00,99,1,00,1,00,1,99999,9,00,1,00,1",,"01,9",,,,"99999,9,10115,1","7,1,010,1,-003,1",,,"SYN082AAXX  15091 76458 32958 00000 10228 20216 30115 40125 57010 90830 333 30/// 59003;","Q01  00002PRCP99"
"76458099999","2001-05-15T15:00:00","4","23.2","-106.4166666","4.0","COLONIA JUAN CARRASCO MAZATLAN SIN., MX","FM-12","99999","V020","999,9,C,0000,1","22000,1,9,N","006000,1,N,1","+0249,1","+0172,1","10127,1","99,0000,9,1",,,,,"03,1,+06000,9,08,9",,,"03,99,1,99,9,00,1,99999,9,00,1,05,1",,"01,9",,,,"99999,9,10116,1","3,1,005,1,+013,1",,,"SYN100AAXX  15151 76458 32956 30000 10249 20172 30116 40127 53005 80005 91450 333 30/// 56/// 58013 83270;","Q01+000002SCOTLCQ02  00002PRCP99"
"76458099999","2001-05-15T21:00:00","4","23.2","-106.4166666","4.0","COLONIA JUAN CARRASCO MAZATLAN SIN., MX","FM-12","99999","V020","270,1,N,0060,1","09000,1,C,N","020000,1,N,1","+0272,1","+0217,1","10101,1","99,0000,9,1",,,,,"01,1,+00690,9,09,9","03,1,+07800,9,02,9",,"07,99,1,01,1,03,1,00800,1,00,1,07,1",,"01,9",,,,"99999,9,10090,1","7,1,020,1,-022,1",,,"SYN112AAXX  15211 76458 32570 72706 10272 20217 30090 40101 57020 81307 92055 333 30/// 56109 59022 81923 83276 83079;","Q01  00002PRCP99"
"76458099999","2001-05-16T00:00:00","4","23.2","-106.4166666","4.0","COLONIA JUAN CARRASCO MAZATLAN SIN., MX","FM-12","99999","V020","300,1,N,0040,1","99999,9,9,N","020000,1,N,1","+0283,1","+0184,1","10087,1","24,0000,9,1",,,,,,,,"05,99,1,00,1,00,1,99999,9,00,1,08,1",,"01,9",,"120,M,+0297,1","180,N,+0205,1","99999,9,10075,1","7,1,015,1,-031,1",,,"SYN124AAXX  16001 76458 32970 53004 10283 20184 30075 40087 57015 80008 92350 333 10297 20205 30/// 50441 56009 59031 70000 85268;","Q01  00002PRCP99Q02  00003PRCP99"
"76458099999","2001-05-16T03:00:00","4","23.2","-106.4166666","4.0","COLONIA JUAN CARRASCO MAZATLAN SIN., MX","FM-12","99999","V020","270,1,N,0030,1","22000,1,9,N","010000,1,N,1","+0253,1","+0218,1","10096,1","99,0000,9,1",,,,,"03,1,+05400,9,08,9",,,"03,99,1,99,9,00,1,99999,9,00,1,08,1",,"01,9",,,,"99999,9,10085,1","2,1,010,1,-039,1",,,"SYN100AAXX  16031 76458 32960 32703 10253 20218 30085 40096 52010 80008 90245 333 30/// 56009 59039 83268;","Q01+000002SCOTLCQ02  00002PRCP99"
"76458099999","2001-05-16T09:00:00","4","23.2","-106.4166666","4.0","COLONIA JUAN CARRASCO MAZATLAN SIN., MX","FM-12","99999","V020","140,1,N,0020,1","22000,1,9,N","008000,1,N,1","+0192,1","+9999,9","10112,1","99,0000,9,1",,,,,"00,1,+99999,9,99,9",,,"00,99,1,00,1,00,1,99999,9,00,1,00,1",,"01,9",,,,"99999,9,10101,1","2,1,011,1,-003,1",,,"SYN082AAXX  16091 76458 32958 01402 10192 20228 30101 40112 52011 90858 333 30/// 59003;","Q01  00002PRCP99"
"76458099999","2001-05-16T15:00:00","4","23.2","-106.4166666","4.0","COLONIA JUAN CARRASCO MAZATLAN SIN., MX","FM-12","99999","V020","130,1,N,0030,1","99999,9,9,N","012000,1,N,1","+0256,1","+0213,1","10102,1","99,0000,9,1",,,,,"01,1,+02400,9,03,9",,,"07,99,1,01,1,00,1,99999,9,03,1,06,1",,"01,9",,,,"99999,9,10091,1","6,1,005,1,-025,1",,,"SYN106AAXX  16151 76458 32962 71303 10256 20213 30091 40102 56005 81036 91455 333 30/// 56/// 59025 81358 86270;","Q01  00002PRCP99"
"76458099999","2001-05-16T21:00:00","4","23.2","-106.4166666","4.0","COLONIA JUAN CARRASCO MAZATLAN SIN., MX","FM-12","99999","V020","230,1,N,0040,1","22000,1,9,N","018000,1,N,1","+0277,1","+0229,1","10083,1","99,0000,9,1",,,,,"02,1,+04200,9,03,9",,,"03,99,1,02,1,00,1,02250,1,03,1,06,1",,"01,9",,,,"99999,9,10073,1","7,1,013,1,-017,1",,,"SYN106AAXX  16211 76458 32868 32304 10277 20229 30073 40083 57013 82036 92050 333 30/// 56099 59017 82364 81070;","Q01  00002PRCP99"
"76458099999","2001-05-17T00:00:00","4","23.2","-106.4166666","4.0","COLONIA JUAN CARRASCO MAZATLAN SIN., MX","FM-12","99999","V020","300,1,N,0030,1","99999,9,9,N","020000,1,N,1","+0262,1","+0221,1","10078,1","24,0000,9,1",,,,,,,,"08,99,1,08,1,00,1,99999,9,02,1,00,1",,"01,9",,"120,M,+0296,1","180,N,+0220,1","99999,9,10066,1","7,1,006,1,-009,1",,,"SYN124AAXX  17001 76458 32970 83003 10262 20221 30066 40078 57006 88020 92355 333 10296 20220 30/// 50390 56090 59009 70000 88460;","Q01  00002PRCP99Q02  00003PRCP99"
"76458099999","2001-05-17T03:00:00","4","23.2","-106.4166666","4.0","COLONIA JUAN CARRASCO MAZATLAN SIN., MX","FM-12","99999","V020","160,1,N,0030,1","02700,1,9,N","016000,1,N,1","+0256,1","+0219,1","10095,1","99,0000,9,1",,,,,"07,1,+02700,9,07,9",,,"07,99,1,07,1,00,1,99999,9,05,1,00,1",,"01,9",,,,"99999,9,10084,1","2,1,017,1,-001,1",,,"SYN100AAXX  17031 76458 32966 71603 10256 20219 30084 40095 52017 87050 90255 333 30/// 56090 59001 87359;","Q01  00002PRCP99"
"76458099999","2001-05-17T06:00:00","4","23.2","-106.4166666","4.0","COLONIA JUAN CARRASCO MAZATLAN SIN., MX","FM-12","99999","V020","190,1,N,0010,1","22000,1,9,N","008000,1,N,1","+0248,1","+0225,1","10110,1","99,0000,9,1",,,,,"00,1,+99999,9,99,9",,,"00,99,1,00,1,00,1,99999,9,00,1,00,1",,"01,9",,"240,M,+0296,1","240,N,+0220,1","99999,9,10090,1","7,1,007,1,+001,1",,,"SYN094AAXX  17061 76458 32058 01901 10248 20225 30090 40110 57007 90558 333 10296 20220 30/// 58001;","Q01  00002PRCP99"
"76458099999","2001-05-17T09:00:00","4","23.2","-106.4166666","4.0","COLONIA JUAN CARRASCO MAZATLAN SIN., MX","FM-12","99999","V020","150,1,N,0020,1","22000,1,9,N","008000,1,N,1","+0233,1","+0218,1","10100,1","99,0000,9,1",,,,,"00,1,+99999,9,99,9",,,"00,99,1,00,1,00,1,99999,9,00,1,00,1",,"01,9",,,,"99999,9,10089,1","7,1,011,1,-012,1",,,"SYN082AAXX  17091 76458 32958 01502 10233 20218 30089 40100 57011 90830 333 30/// 59012;","Q01  00002PRCP99"
"76458099999","2001-05-17T15:00:00","4","23.2","-106.4166666","4.0","COLONIA JUAN CARRASCO MAZATLAN SIN., MX","FM-12","99999","V020","050,1,N,0020,1","02400,1,9,N","012000,1,N,1","+0262,1","+0211,1","10099,1","99,0000,9,1",,,,,"07,1,+02400,9,01,9",,,"07,99,1,07,1,00,1,99999,9,01,1,00,1",,"01,9",,,,"99999,9,10088,1","4,1,000,1,-003,1",,,"SYN100AAXX  17151 76458 32962 70502 10262 20211 30088 40099 54001 87010 91455 333 30/// 56/// 59003 87458;","Q01  00002PRCP99"
"76458099999","2001-05-17T21:00:00","4","23.2","-106.4166666","4.0","COLONIA JUAN CARRASCO MAZATLAN SIN., MX","FM-12","99999","V020","290,1,N,0040,1","03600,1,9,N","015000,1,N,1","+0259,1","+0231,1","10086,1","99,0000,9,1",,,,,"01,1,+00360,9,06,9",,,"08,99,1,01,1,04,1,00450,1,02,1,99,9",,"01,9",,,,"99999,9,10075,1","7,1,011,1,+002,1",,,"SYN106AAXX  17211 76458 32465 82904 10259 20231 30075 40086 57011 8142/ 92045 333 30/// 5669/ 58002 81612 87462;","Q01  00002PRCP99"
"76458099999","2001-05-18T03:00:00","4","23.2","-106.4166666","4.0","COLONIA JUAN CARRASCO MAZATLAN SIN., MX","FM-12","99999","V020","290,1,N,0030,1","99999,9,9,N","012000,1,N,1","+0250,1","+0232,1","10085,1","99,0000,9,1",,,,,"02,1,+02700,9,03,9",,,"06,99,1,06,1,00,1,99999,9,03,1,00,1",,"01,9",,,,"99999,9,10073,1","3,1,007,1,-010,1",,,"SYN106AAXX  18031 76458 32962 62903 10250 20232 30073 40085 53007 86030 90250 333 30/// 56090 59010 82359 84461;","Q01  00002PRCP99"
"76458099999","2001-05-18T06:00:00","4","23.2","-106.4166666","4.0","COLONIA JUAN CARRASCO MAZATLAN SIN., MX","FM-12","99999","V020","130,1,N,0010,1","22000,1,9,N","008000,1,N,1","+0248,1","+0229,1","10106,1","99,0000,9,1",,,,,"00,1,+99999,9,99,9",,,"00,99,1,00,1,00,1,99999,9,00,1,00,1","0060,9","01,9",,"240,M,+0290,1","240,N,+0230,1","99999,9,10096,1","2,1,023,1,-004,1",,,"SYN100AAXX  18061 76458 32958 01301 10248 20229 30096 40106 52023 90858 333 10290 20230 30/// 55010 59004;","Q01  00002PRCP99"
"76458099999","2001-05-18T15:00:00","4","23.2","-106.4166666","4.0","COLONIA JUAN CARRASCO MAZATLAN SIN., MX","FM-12","99999","V020","160,1,N,0020,1","22000,1,9,N","012000,1,N,1","+0260,1","+0227,1","10106,1","99,0000,9,1",,,,,"05,1,+02100,9,07,9",,,"99,99,9,01,1,99,9,99999,9,03,1,00,1",,"01,9",,,,"99999,9,10095,1","1,1,005,1,+007,1",,,"SYN100AAXX  18151 76458 32962 21602 10260 20227 30095 40106 51005 81030 91455 333 30/// 56/// 58007 85357;","Q01+000022SCOTCVQ02+000002SCOLCGQ03  00002PRCP99"
"76458099999","2001-05-18T18:00:00","4","23.2","-106.4166666","4.0","COLONIA JUAN CARRASCO MAZATLAN SIN., MX","FM-12","99999","V020","220,1,N,0030,1","03600,1,9,N","015000,1,N,1","+0281,1","+0218,1","10107,1","99,0000,9,1",,,,,"07,1,+03600,9,07,9",,,"07,99,1,07,1,00,1,02250,1,03,1,00,1",,"01,9",,"120,M,+0295,1","240,N,+0223,1","99999,9,10096,1","2,1,001,1,+010,1",,,"SYN112AAXX  18181 76458 32865 72203 10281 20218 30096 40107 52001 87030 91745 333 10295 20223 30/// 56090 58010 87362;","Q01  00002PRCP99"
"76458099999","2001-05-18T21:00:00","4","23.2","-106.4166666","4.0","COLONIA JUAN CARRASCO MAZATLAN SIN., MX","FM-12","99999","V020","270,1,N,0050,1","22000,1,C,N","018000,1,N,1","+0273,1","+0230,1","10104,1","99,0000,9,1",,,,,"04,1,+03600,9,03,9",,,"05,99,1,04,1,00,1,02250,1,03,1,06,1",,"01,9",,,,"99999,9,10093,1","8,1,003,1,+018,1",,,"SYN106AAXX  18211 76458 32868 52705 10273 20230 30093 40104 58003 84036 92045 333 30/// 56099 58018 84362 81070;","Q01  00002PRCP99"
"76458099999","2001-05-19T06:00:00","4","23.2","-106.4166666","4.0","COLONIA JUAN CARRASCO MAZATLAN SIN., MX","FM-12","99999","V020","999,9,C,0000,1","22000,1,9,N","008000,1,N,1","+0252,1","+0233,1","10121,1","99,0000,9,1",,,,,,,,"04,99,1,04,1,00,1,99999,9,03,1,00,1",,"01,9",,"240,M,+0295,1","240,N,+0223,1","99999,9,10111,1","9,9,999,9,+015,1",,,"SYN118AAXX  19061 76458 32958 40000 10252 20233 30111 40121 5//// 84030 90548 333 10295 20223 30/// 55255 56090 58015 84358;","Q01  00002PRCP99"
"76458099999","2001-05-19T09:00:00","4","23.2","-106.4166666","4.0","COLONIA JUAN CARRASCO MAZATLAN SIN., MX","FM-12","99999","V020","230,1,N,0010,1","22000,1,9,N","008000,1,N,1","+0240,1","+0232,1","10108,1","99,0000,9,1",,,,,"00,1,+99999,9,99,9",,,"00,99,1,00,1,00,1,99999,9,00,1,00,1",,"01,9",,,,"99999,9,10097,1","7,1,014,1,+005,1",,,"SYN082AAXX  19091 76458 32958 02301 10240 20232 30097 40108 57014 90830 333 30/// 58005;","Q01  00002PRCP99"
"76458099999","2001-05-19T15:00:00","4","23.2","-106.4166666","4.0","COLONIA JUAN CARRASCO MAZATLAN SIN., MX","FM-12","99999","V020","340,1,N,0020,1","03600,1,C,N","010000,1,N,1","+0264,1","+0225,1","10119,1","99,0000,9,1",,,,,"02,1,+00510,9,08,9",,,"07,99,1,02,1,01,1,00450,1,03,1,00,1",,"01,9",,,,"99999,9,10108,1","1,1,008,1,+013,1",,,"SYN106AAXX  19151 76458 32460 73402 10264 20225 30108 40119 51008 82130 91455 333 30/// 567// 58013 82817 85358;","Q01  00002PRCP99"
"76458099999","2001-05-20T00:00:00","4","23.2","-106.4166666","4.0","COLONIA JUAN CARRASCO MAZATLAN SIN., MX","FM-12","99999","V020","270,1,N,0050,1","22000,1,9,N","020000,1,N,1","+0287,1","+0229,1","10087,1","24,0000,9,1",,,,,"01,1,+04200,9,07,9",,,"01,99,1,01,1,00,1,02250,1,03,1,00,1",,"01,9",,"120,M,+0312,1","180,N,+0221,1","99999,9,10076,1",,,,"SYN112AAXX  20001 76458 32870 12705 10287 20229 30076 40087 5//// 81030 92350 333 10312 20221 30/// 56090 70000 81364;",
"76458099999","2001-05-20T03:00:00","4","23.2","-106.4166666","4.0","COLONIA JUAN CARRASCO MAZATLAN SIN., MX","FM-12","99999","V020","280,1,N,0030,1","22000,1,9,N","010000,1,N,1","+0264,1","+0228,1","10092,1","99,0000,9,1",,,,,"00,1,+99999,9,99,9",,,"00,99,1,00,1,00,1,99999,9,00,1,00,1",,"01,9",,,,"99999,9,10081,1","3,1,005,1,+999,9",,,"SYN082AAXX  20031 76458 32960 02803 10264 20228 30081 40092 53005 90250 333 30/// 58///;","Q01  00002PRCP99"
"76458099999","2001-05-20T18:00:00","4","23.2","-106.4166666","4.0","COLONIA JUAN CARRASCO MAZATLAN SIN., MX","FM-12","99999","V020","280,1,N,0050,1","22000,1,9,N","020000,1,N,1","+0278,1","+0231,1","10095,1","99,0000,9,1",,,,,"01,1,+00600,9,08,9",,,"02,99,1,01,1,02,1,00450,1,00,1,06,1",,"01,9",,"120,M,+0290,1","240,N,+0220,1","99999,9,10084,1","9,9,999,9,-032,1",,,"SYN118AAXX  20181 76458 32470 22805 10278 20231 30084 40095 5//// 81206 91750 333 10290 20220 30/// 56109 59032 81820 81070;","Q01  00002PRCP99"
"76458099999","2001-05-21T06:00:00","4","23.2","-106.4166666","4.0","COLONIA JUAN CARRASCO MAZATLAN SIN., MX","FM-12","99999","V020","250,1,N,0020,1","22000,1,9,N","008000,1,N,1","+0256,1","+0231,1","10097,1","99,0000,9,1",,,,,"00,1,+99999,9,99,9",,,"00,99,1,00,1,00,1,99999,9,00,1,00,1",,"01,9",,"240,M,+0305,1","240,N,+0220,1","99999,9,10085,1","9,9,999,9,+001,1",,,"SYN100AAXX  21061 76458 32958 02502 10256 20231 30085 40097 5//// 90550 333 10305 20220 30/// 55/// 58001;","Q01  00002PRCP99"
"76458099999","2001-05-21T09:00:00","4","23.2","-106.4166666","4.0","COLONIA JUAN CARRASCO MAZATLAN SIN., MX","FM-12","99999","V020","999,9,C,0000,1","22000,1,9,N","008000,1,N,1","+0250,1","+0231,1","10090,1","99,0000,9,1",,,,,"00,1,+99999,9,99,9",,,"00,99,1,00,1,00,1,99999,9,00,1,00,1",,"01,9",,,,"99999,9,10079,1","7,1,006,1,+999,9",,,"SYN082AAXX  21091 76458 32958 00000 10250 20231 30079 40090 57006 90830 333 30/// 58///;","Q01  00002PRCP99"
"76458099999","2001-05-21T15:00:00","4","23.2","-106.4166666","4.0","COLONIA JUAN CARRASCO MAZATLAN SIN., MX","FM-12","99999","V020","280,1,N,0030,1","22000,1,9,N","015000,1,N,1","+0260,1","+0219,1","10099,1","99,0000,9,1",,,,,"03,1,+00510,9,02,9",,,"03,99,1,03,1,02,1,00450,1,00,1,00,1",,"01,9",,,,"99999,9,10088,1","2,1,008,1,+999,9",,,"SYN100AAXX  21151 76458 32465 32803 10260 20219 30088 40099 52008 83200 91455 333 30/// 566// 58/// 83817;","Q01  00002PRCP99"
"76458099999","2001-05-21T18:00:00","4","23.2","-106.4166666","4.0","COLONIA JUAN CARRASCO MAZATLAN SIN., MX","FM-12","99999","V020","280,1,N,0050,1","22000,1,9,N","018000,1,N,1","+0271,1","+0225,1","10101,1","99,0000,9,1",,,,,"01,1,+08700,9,01,9",,,"01,99,1,00,1,00,1,99999,9,00,1,05,1",,"01,9",,"120,M,+0293,1","240,N,+0236,1","99999,9,10090,1","0,1,002,1,+007,1",,,"SYN112AAXX  21181 76458 32968 12805 10271 20225 30090 40101 50002 80005 91758 333 10293 20236 30/// 56009 58007 81079;","Q01  00002PRCP99"
"76458099999","2001-05-21T21:00:00","4","23.2","-106.4166666","4.0","COLONIA JUAN CARRASCO MAZATLAN SIN., MX","FM-12","99999","V020","290,1,N,0050,1","22000,1,9,N","020000,1,N,1","+0285,1","+0227,1","10086,1","99,0000,9,1",,,,,"01,1,+00720,9,08,9",,,"02,99,1,01,1,01,1,00800,1,03,1,00,1",,"01,9",,,,"99999,9,10075,1","7,1,015,1,+005,1",,,"SYN106AAXX  21211 76458 32570 22905 10285 20227 30075 40086 57015 81130 92055 333 30/// 56130 58005 81824 81359;","Q01  00002PRCP99"
"76458099999","2001-05-22T00:00:00","4","23.2","-106.4166666","4.0","COLONIA JUAN CARRASCO MAZATLAN SIN., MX","FM-12","99999","V020","310,1,N,0050,1","22000,1,9,N","020000,1,N,1","+0285,1","+0215,1","10075,1","24,0000,9,1",,,,,"01,1,+00870,9,08,9",,,"02,99,1,01,1,02,1,00800,1,00,1,05,1",,"01,9",,"120,M,+0304,1","180,N,+0236,1","99999,9,10064,1","7,1,011,1,+999,9",,,"SYN124AAXX  22001 76458 32570 23105 10285 20215 30064 40075 57011 81205 92355 333 10304 20236 30/// 56109 58/// 70000 81829 81079;",
"76458099999","2001-05-22T09:00:00","4","23.2","-106.4166666","4.0","COLONIA JUAN CARRASCO MAZATLAN SIN., MX","FM-12","99999","V020","350,1,N,0020,1","22000,1,9,N","008000,1,N,1","+0225,1","+0214,1","10087,1","99,0000,9,1",,,,,"00,1,+99999,9,99,9",,,"00,99,1,00,1,00,1,99999,9,00,1,00,1",,"01,9",,,,"99999,9,10076,1","7,1,006,1,-003,1",,,"SYN082AAXX  22091 76458 32958 03502 10225 20214 30076 40087 57006 90830 333 30/// 59003;","Q01  00002PRCP99"
"76458099999","2001-05-22T15:00:00","4","23.2","-106.4166666","4.0","COLONIA JUAN CARRASCO MAZATLAN SIN., MX","FM-12","99999","V020","150,1,N,0020,1","22000,1,9,N","012000,1,N,1","+0261,1","+0217,1","10095,1","99,0000,9,1",,,,,"03,1,+00570,9,02,9",,,"03,99,1,03,1,01,1,00450,1,00,1,00,1",,"01,9",,,,"99999,9,10084,1","1,1,006,1,-004,1",,,"SYN100AAXX  22151 76458 32462 31502 10261 20217 30084 40095 51006 83100 91455 333 30/// 566// 59004 83819;","Q01  00002PRCP99"
"76458099999","2001-05-22T21:00:00","4","23.2","-106.4166666","4.0","COLONIA JUAN CARRASCO MAZATLAN SIN., MX","FM-12","99999","V020","280,1,N,0050,1","22000,1,9,N","020000,1,N,1","+0287,1","+0228,1","10083,1","99,0000,9,1",,,,,"01,1,+00720,9,02,9",,,"01,99,1,01,1,01,1,00800,1,00,1,00,1",,"01,9",,,,"99999,9,10072,1","7,1,013,1,-002,1",,,"SYN100AAXX  22211 76458 32570 12805 10287 20228 30072 40083 57013 81100 92055 333 30/// 56700 59002 81824;","Q01  00002PRCP99"
"76458099999","2001-05-23T00:00:00","4","23.2","-106.4166666","4.0","COLONIA JUAN CARRASCO MAZATLAN SIN., MX","FM-12","99999","V020","280,1,N,0040,1","22000,1,9,N","020000,1,N,1","+0280,1","+0229,1","10072,1","24,0000,9,1",,,,,"01,1,+00630,9,05,9",,,"01,99,1,01,1,04,1,00800,1,00,1,00,1",,"01,9",,"120,M,+0300,1","180,N,+0218,1","99999,9,10060,1","7,1,012,1,-004,1",,,"SYN118AAXX  23001 76458 32570 12804 10280 20229 30060 40072 57012 81400 92345 333 10300 20218 30/// 56600 59004 70000 81621;",
"76458099999","2001-05-23T03:00:00","4","23.2","-106.4166666","4.0","COLONIA JUAN CARRASCO MAZATLAN SIN., MX","FM-12","99999","V020","290,1,N,0040,1","22000,1,9,N","010000,1,N,1","+0264,1","+0231,1","10081,1","99,0000,9,1",,,,,"00,1,+99999,9,99,9",,,"00,99,1,00,1,00,1,99999,9,00,1,00,1",,"01,9",,,,"99999,9,10070,1","2,1,010,1,-001,1",,,"SYN082AAXX  23031 76458 32960 02904 10264 20231 30070 40081 52010 90245 333 30/// 59001;","Q01  00002PRCP99"
"76458099999","2001-05-23T06:00:00","4","23.2","-106.4166666","4.0","COLONIA JUAN CARRASCO MAZATLAN SIN., MX","FM-12","99999","V020","340,1,N,0010,1","22000,1,9,N","008000,1,N,1","+0252,1","+0224,1","10096,1","99,0000,9,1",,,,,"00,1,+99999,9,99,9",,,"00,99,1,00,1,00,1,99999,9,00,1,00,1","0660,9","01,9",,"240,M,+0300,1","240,N,+0218,1","99999,9,10085,1","2,1,015,1,+003,1",,,"SYN100AAXX  23061 76458 32958 03401 10252 20224 30085 40096 52015 90545 333 10300 20218 30/// 55110 58003;","Q01  00002PRCP99"
"76458099999","2001-05-23T09:00:00","4","23.2","-106.4166666","4.0","COLONIA JUAN CARRASCO MAZATLAN SIN., MX","FM-12","99999","V020","120,1,N,0010,1","22000,1,9,N","008000,1,N,1","+0246,1","+0221,1","10093,1","99,0000,9,1",,,,,"00,1,+99999,9,99,9",,,"00,99,1,00,1,00,1,99999,9,00,1,00,1",,"01,9",,,,"99999,9,10082,1","7,1,003,1,+006,1",,,"SYN082AAXX  23091 76458 32958 01201 10246 20221 30082 40093 57003 90830 333 30/// 58006;","Q01  00002PRCP99"
"76458099999","2001-05-23T15:00:00","4","23.2","-106.4166666","4.0","COLONIA JUAN CARRASCO MAZATLAN SIN., MX","FM-12","99999","V020","170,1,N,0030,1","22000,1,9,N","012000,1,N,1","+0258,1","+0217,1","10128,1","99,0000,9,1",,,,,"03,1,+00540,9,02,9",,,"03,99,1,03,1,02,1,00450,1,00,1,00,1",,"01,9",,,,"99999,9,10117,1","1,1,015,1,+033,1",,,"SYN100AAXX  23151 76458 32462 31703 10258 20217 30117 40128 51015 83200 91455 333 30/// 563// 58033 83818;","Q01  00002PRCP99"
"76458099999","2001-05-23T21:00:00","4","23.2","-106.4166666","4.0","COLONIA JUAN CARRASCO MAZATLAN SIN., MX","FM-12","99999","V020","250,1,N,0040,1","22000,1,9,N","018000,1,N,1","+0284,1","+0210,1","10106,1","99,0000,9,1",,,,,"01,1,+00930,9,02,9",,,"01,99,1,01,1,02,1,00800,1,00,1,00,1",,"01,9",,,,"99999,9,10095,1","2,1,022,1,+023,1",,,"SYN100AAXX  23211 76458 32568 12504 10284 20210 30095 40106 52022 81200 92055 333 30/// 56100 58023 81831;","Q01  00002PRCP99"
"76458099999","2001-05-24T00:00:00","4","23.2","-106.4166666","4.0","COLONIA JUAN CARRASCO MAZATLAN SIN., MX","FM-12","99999","V020","300,1,N,0060,1","22000,1,9,N","020000,1,N,1","+0284,1","+0209,1","10087,1","24,0000,9,1",,,,,"00,1,+99999,9,99,9",,,"00,99,1,00,1,00,1,99999,9,00,1,00,1",,"01,9",,"120,M,+0302,1","180,N,+0230,1","99999,9,10075,1","7,1,020,1,+015,1",,,"SYN106AAXX  24001 76458 32970 03006 10284 20209 30075 40087 57020 92350 333 10302 20230 30/// 50511 58015 70000;","Q01  00002PRCP24"
"76458099999","2001-05-24T03:00:00","4","23.2","-106.4166666","4.0","COLONIA JUAN CARRASCO MAZATLAN SIN., MX","FM-12","99999","V020","310,1,N,0040,1","22000,1,9,N","010000,1,N,1","+0263,1","+0208,1","10097,1","99,0000,9,1",,,,,"00,1,+99999,9,99,9",,,"00,99,1,00,1,00,1,99999,9,00,1,00,1",,"01,9",,,,"99999,9,10086,1","0,1,011,1,+016,1",,,"SYN082AAXX  24031 76458 32960 03104 10263 20208 30086 40097 50011 90245 333 30/// 58016;","Q01  00002PRCP99"
"76458099999","2001-05-24T06:00:00","4","23.2","-106.4166666","4.0","COLONIA JUAN CARRASCO MAZATLAN SIN., MX","FM-12","99999","V020","230,1,N,0010,1","22000,1,9,N","008000,1,N,1","+0256,1","+0205,1","10126,1","99,0000,9,1",,,,,"00,1,+99999,9,99,9",,,"00,99,1,00,1,00,1,99999,9,00,1,00,1","0660,9","01,9",,"240,M,+0302,1","240,N,+0230,1","99999,9,10115,1","2,1,030,1,+030,1",,,"SYN100AAXX  24061 76458 32958 02301 10256 20205 30115 40126 52030 90555 333 10302 20230 30/// 55110 58030;","Q01  00002PRCP99"
"76458099999","2001-05-24T09:00:00","4","23.2","-106.4166666","4.0","COLONIA JUAN CARRASCO MAZATLAN SIN., MX","FM-12","99999","V020","220,1,N,0010,1","22000,1,9,N","008000,1,N,1","+0252,1","+0206,1","10136,1","99,0000,9,1",,,,,"00,1,+99999,9,99,9",,,"00,99,1,00,1,00,1,99999,9,00,1,00,1",,"01,9",,,,"99999,9,10125,1","2,1,010,1,+043,1",,,"SYN082AAXX  24091 76458 32958 02201 10252 20206 30125 40136 52010 90830 333 30/// 58043;","Q01  00002PRCP99"
"76458099999","2001-05-24T15:00:00","4","23.2","-106.4166666","4.0","COLONIA JUAN CARRASCO MAZATLAN SIN., MX","FM-12","99999","V020","310,1,N,0020,1","22000,1,9,N","013000,1,N,1","+0260,1","+0212,1","10140,1","99,0000,9,1",,,,,"02,1,+00600,9,02,9",,,"02,99,1,02,1,02,1,00800,1,00,1,00,1",,"01,9",,,,"99999,9,10128,1","2,1,006,1,+019,1",,,"SYN100AAXX  24151 76458 32563 23102 10260 20212 30128 40140 52006 82200 91450 333 30/// 563// 58019 82820;","Q01  00002PRCP99"
"76458099999","2001-05-24T18:00:00","4","23.2","-106.4166666","4.0","COLONIA JUAN CARRASCO MAZATLAN SIN., MX","FM-12","99999","V020","250,1,N,0040,1","22000,1,9,N","016000,1,N,1","+0279,1","+0216,1","10132,1","99,0000,9,1",,,,,"00,1,+99999,9,99,9",,,"00,99,1,00,1,00,1,99999,9,00,1,00,1",,"01,9",,"120,M,+0290,1","240,N,+0221,1","99999,9,10121,1","8,1,008,1,+004,1",,,"SYN094AAXX  24181 76458 31966 02504 10279 20216 30121 40132 58008 91800 333 10290 20221 30/// 58004;","Q01  00002PRCP99"
"76458099999","2001-05-25T00:00:00","4","23.2","-106.4166666","4.0","COLONIA JUAN CARRASCO MAZATLAN SIN., MX","FM-12","99999","V020","290,1,N,0040,1","22000,1,9,N","018000,1,N,1","+0271,1","+0216,1","10092,1","24,0000,9,1",,,,,,,,"01,99,1,01,1,03,1,00800,1,00,1,00,1",,"01,9",,"120,M,+0294,1","180,N,+0221,1","99999,9,10081,1","7,1,012,1,+006,1",,,"SYN124AAXX  25001 76458 32568 12904 10271 20216 30081 40092 57012 81300 92350 333 10294 20221 30/// 50611 57100 58006 70000 81923;","Q01  00002PRCP99Q02  00003PRCP99"
"76458099999","2001-05-25T03:00:00","4","23.2","-106.4166666","4.0","COLONIA JUAN CARRASCO MAZATLAN SIN., MX","FM-12","99999","V020","290,1,N,0030,1","22000,1,9,N","010000,1,N,1","+0255,1","+0220,1","10100,1","99,0000,9,1",,,,,"01,1,+00450,9,05,9",,,"01,99,1,01,1,04,1,00450,1,00,1,00,1",,"01,9",,,,"99999,9,10088,1","3,1,007,1,+002,1",,,"SYN100AAXX  25031 76458 32460 12903 10255 20220 30088 40100 53007 81400 90245 333 30/// 56600 58002 81615;","Q01  00002PRCP99"
"76458099999","2001-05-25T06:00:00","4","23.2","-106.4166666","4.0","COLONIA JUAN CARRASCO MAZATLAN SIN., MX","FM-12","99999","V020","999,9,C,0000,1","22000,1,9,N","010000,1,N,1","+0282,1","+0221,1","10120,1","99,0000,9,1",,,,,,,,"02,99,1,02,1,04,1,00450,1,00,1,00,1","0672,9","01,9",,"240,M,+0294,1","240,N,+0221,1","99999,9,10109,1","2,1,021,1,-006,1",,,"SYN118AAXX  25061 76458 32460 20000 10282 20221 30109 40120 52021 82400 90855 333 10294 20221 30/// 55112 56600 59006 82613;","Q01  00002PRCP99"
"76458099999","2001-05-25T09:00:00","4","23.2","-106.4166666","4.0","COLONIA JUAN CARRASCO MAZATLAN SIN., MX","FM-12","99999","V020","210,1,N,0020,1","22000,1,9,N","008000,1,N,1","+0246,1","+0218,1","10121,1","99,0000,9,1",,,,,"00,1,+99999,9,99,9",,,"00,99,1,00,1,00,1,99999,9,00,1,00,1",,"01,9",,,,"99999,9,10110,1","4,1,000,1,-015,1",,,"SYN082AAXX  25091 76458 32958 02102 10246 20218 30110 40121 54001 90830 333 30/// 59015;","Q01  00002PRCP99"
"76458099999","2001-05-25T15:00:00","4","23.2","-106.4166666","4.0","COLONIA JUAN CARRASCO MAZATLAN SIN., MX","FM-12","99999","V020","180,1,N,0030,1","00540,1,9,N","013000,1,N,1","+0258,1","+0214,1","10136,1","99,0000,9,1",,,,,"05,1,+00540,9,02,9",,,"05,99,1,05,1,02,1,01250,1,00,1,00,1",,"01,9",,,,"99999,9,10125,1","2,1,010,1,-003,1",,,"SYN100AAXX  25151 76458 32663 51803 10258 20214 30125 40136 52010 85200 91455 333 30/// 563// 59003 85818;","Q01  00002PRCP99"
"76458099999","2001-05-25T21:00:00","4","23.2","-106.4166666","4.0","COLONIA JUAN CARRASCO MAZATLAN SIN., MX","FM-12","99999","V020","250,1,N,0050,1","22000,1,9,N","018000,1,N,1","+0285,1","+0219,1","10112,1","99,0000,9,1",,,,,"02,1,+00810,9,02,9",,,"02,99,1,02,1,01,1,00800,1,00,1,00,1",,"01,9",,,,"99999,9,10101,1","7,1,025,1,+008,1",,,"SYN100AAXX  25211 76458 32568 22505 10285 20219 30101 40112 57025 82100 92045 333 30/// 56600 58008 82827;","Q01  00002PRCP99"
"76458099999","2001-05-26T00:00:00","4","23.2","-106.4166666","4.0","COLONIA JUAN CARRASCO MAZATLAN SIN., MX","FM-12","99999","V020","280,1,N,0040,1","22000,1,9,N","018000,1,N,1","+0272,1","+0210,1","10097,1","24,0000,9,1",,,,,,,,"04,99,1,04,1,01,1,00800,1,00,1,00,1",,"01,9",,"120,M,+0300,1","180,N,+0230,1","99999,9,10086,1","7,1,015,1,+004,1",,,"SYN124AAXX  26001 76458 32568 42804 10272 20210 30086 40097 57015 84100 92355 333 10300 20230 30/// 50640 56600 58004 70000 84826;","Q01  00002PRCP99Q02  00003PRCP99"
"76458099999","2001-05-26T03:00:00","4","23.2","-106.4166666","4.0","COLONIA JUAN CARRASCO MAZATLAN SIN., MX","FM-12","99999","V020","340,1,N,0030,1","22000,1,9,N","012000,1,N,1","+0254,1","+0217,1","10104,1","99,0000,9,1",,,,,"00,1,+99999,9,99,9",,,"00,99,1,00,1,00,1,99999,9,00,1,00,1",,,,,,"99999,9,10093,1","3,1,008,1,+005,1",,,"SYN070AAXX  26031 76458 32962 03403 10254 20217 30093 40104 53008 333 58005;","Q01  00002PRCP99"
"76458099999","2001-05-26T06:00:00","4","23.2","-106.4166666","4.0","COLONIA JUAN CARRASCO MAZATLAN SIN., MX","FM-12","99999","V020","310,1,N,0010,1","22000,1,9,N","008000,1,N,1","+0248,1","+0220,1","10117,1","99,0000,9,1",,,,,"00,1,+99999,9,99,9",,,"00,99,1,00,1,00,1,99999,9,00,1,00,1","0570,9","01,9",,"240,M,+0300,1","240,N,+0230,1","99999,9,10106,1","2,1,013,1,-003,1",,,"SYN100AAXX  26061 76458 32958 03101 10248 20220 30106 40117 52013 90548 333 10300 20230 30/// 55095 59003;","Q01  00002PRCP99"
"76458099999","2001-05-26T09:00:00","4","23.2","-106.4166666","4.0","COLONIA JUAN CARRASCO MAZATLAN SIN., MX","FM-12","99999","V020","999,9,C,0000,1","22000,1,9,N","008000,1,N,1","+0242,1","+0219,1","10109,1","99,0000,9,1",,,,,"00,1,+99999,9,99,9",,,"00,99,1,00,1,00,1,99999,9,00,1,00,1",,,,,,"99999,9,10098,1","7,1,008,1,-012,1",,,"SYN076AAXX  26091 76458 32958 00000 10242 20219 30098 40109 57008 90830 333 59012;","Q01  00002PRCP99"
"76458099999","2001-05-26T15:00:00","4","23.2","-106.4166666","4.0","COLONIA JUAN CARRASCO MAZATLAN SIN., MX","FM-12","99999","V020","160,1,N,0030,1","22000,1,9,N","012000,1,N,1","+0261,1","+0217,1","10117,1","99,0000,9,1",,,,,"03,1,+00600,9,02,9",,,"03,99,1,03,1,02,1,00800,1,00,1,00,1",,"01,9",,,,"99999,9,10106,1","3,1,006,1,-019,1",,,"SYN100AAXX  26151 76458 32562 31603 10261 20217 30106 40117 53006 83200 91455 333 30/// 563// 59019 83820;","Q01  00002PRCP99"
"76458099999","2001-05-26T18:00:00","4","23.2","-106.4166666","4.0","COLONIA JUAN CARRASCO MAZATLAN SIN., MX","FM-12","99999","V020","250,1,N,0030,1","22000,1,9,N","010000,1,N,1","+0272,1","+0217,1","10115,1","99,0000,9,1",,,,,"00,1,+99999,9,99,9",,,"00,99,1,00,1,00,1,99999,9,00,1,00,1",,"01,9",,"120,M,+0297,1","240,N,+0230,1","99999,9,10104,1","5,1,002,1,-020,1",,,"SYN094AAXX  26181 76458 32960 02503 10272 20217 30104 40115 55002 91745 333 10297 20230 30/// 59020;","Q01  00002PRCP99"
"76458099999","2001-05-27T03:00:00","4","23.2","-106.4166666","4.0","COLONIA JUAN CARRASCO MAZATLAN SIN., MX","FM-12","99999","V020","320,1,N,0030,1","22000,1,9,N","010000,1,N,1","+0268,1","+0221,1","10077,1","99,0000,9,1",,,,,"00,1,+99999,9,99,9",,,"00,99,1,00,1,00,1,99999,9,00,1,00,1",,"01,9",,,,"99999,9,10065,1","6,1,005,1,-028,1",,,"SYN082AAXX  27031 76458 32960 03203 10268 20221 30065 40077 56005 90250 333 30/// 59028;","Q01  00002PRCP99"
"76458099999","2001-05-27T12:00:00","4","23.2","-106.4166666","4.0","COLONIA JUAN CARRASCO MAZATLAN SIN., MX","FM-12","99999","V020","120,1,N,0030,1","00360,1,9,N","010000,1,N,1","+0247,1","+0219,1","10084,1","24,0000,9,1",,,,,"06,1,+00360,9,05,9",,,"06,99,1,06,1,04,1,00450,1,00,1,00,1",,"01,9","999,+0230,9","999,M,+0303,1","120,N,+0236,1","99999,9,10073,1","9,9,999,9,-027,1",,,"SYN118AAXX  27121 76458 32460 61203 10247 20219 30073 40084 5//// 86400 91150 333 10303 20236 30023 56300 59027 70000 86612;",
"76458099999","2001-05-27T18:00:00","4","23.2","-106.4166666","4.0","COLONIA JUAN CARRASCO MAZATLAN SIN., MX","FM-12","99999","V020","230,1,N,0050,1","22000,1,9,N","018000,1,N,1","+0286,1","+0211,1","10096,1","99,0000,9,1",,,,,"01,1,+00930,9,02,9",,,"01,99,1,01,1,02,1,00800,1,00,1,00,1",,"01,9",,"120,M,+0302,1","240,N,+0236,1","99999,9,10085,1","1,1,001,1,-019,1",,,"SYN112AAXX  27181 76458 32568 12305 10286 20211 30085 40096 51001 81200 91745 333 10302 20236 30/// 56400 59019 81831;","Q01  00002PRCP99"
"76458099999","2001-05-28T00:00:00","4","23.2","-106.4166666","4.0","COLONIA JUAN CARRASCO MAZATLAN SIN., MX","FM-12","99999","V020","250,1,N,0030,1","22000,1,9,N","018000,1,N,1","+0280,1","+0250,1","10068,1","99,0000,9,1",,,,,"00,1,+99999,9,99,9",,,"00,99,1,00,1,00,1,99999,9,00,1,00,1",,"01,9",,"120,M,+0310,1","180,N,+0236,1","99999,9,10057,1","7,1,010,1,-012,1",,,"SYN100AAXX  28001 76458 32968 02503 10280 20250 30057 40068 57010 92355 333 10310 20236 30/// 50550 59012;","Q01  00002PRCP99"
"76458099999","2001-05-28T09:00:00","4","23.2","-106.4166666","4.0","COLONIA JUAN CARRASCO MAZATLAN SIN., MX","FM-12","99999","V020","130,1,N,0020,1","00360,1,9,N","010000,1,N,1","+0257,1","+0229,1","10075,1","99,0000,9,1",,,,,"05,1,+00360,9,05,9",,,"05,99,1,05,1,04,1,00450,1,00,1,00,1",,"01,9",,,,"99999,9,10064,1","4,1,000,1,+999,9",,,"SYN100AAXX  28091 76458 32460 51302 10257 20229 30064 40075 54000 85400 90845 333 30/// 56700 58/// 85612;","Q01  00002PRCP99"
"76458099999","2001-05-28T15:00:00","4","23.2","-106.4166666","4.0","COLONIA JUAN CARRASCO MAZATLAN SIN., MX","FM-12","99999","V020","140,1,N,0030,1","22000,1,9,N","012000,1,N,1","+0270,1","+0221,1","10183,2","99,0000,9,1",,,,,"02,1,+00600,9,02,9",,,"02,99,1,02,1,01,1,00800,1,00,1,00,1",,"01,9",,,,"99999,9,10072,1","1,1,005,1,-012,1",,,"SYN100AAXX  28151 76458 32562 21403 10270 20221 30072 40183 51005 82100 91455 333 30/// 563// 59012 82820;","Q01+101833APOSLPQ02  00002PRCP99"
"76458099999","2001-05-29T00:00:00","4","23.2","-106.4166666","4.0","COLONIA JUAN CARRASCO MAZATLAN SIN., MX","FM-12","99999","V020","290,1,N,0020,1","22000,1,9,N","018000,1,N,1","+0285,1","+0226,1","10046,1","99,0000,9,1",,,,,"00,1,+99999,9,99,9",,,"00,99,1,00,1,00,1,99999,9,00,1,00,1",,"01,9",,"120,M,+0314,1","180,N,+0247,1","99999,9,10035,1","7,1,010,1,-011,1",,,"SYN100AAXX  29001 76458 32968 02902 10285 20226 30035 40046 57010 92360 333 10314 20247 30/// 50600 59011;","Q01  00002PRCP99"
"76458099999","2001-05-29T03:00:00","4","23.2","-106.4166666","4.0","COLONIA JUAN CARRASCO MAZATLAN SIN., MX","FM-12","99999","V020","230,1,N,0020,1","22000,1,9,N","010000,1,N,1","+0268,1","+0228,1","10061,1","99,0000,9,1",,,,,"00,1,+99999,9,99,9",,,"00,99,1,00,1,00,1,99999,9,00,1,00,1",,"01,9",,,,"99999,9,10049,1","2,1,011,1,-003,1",,,"SYN082AAXX  29031 76458 32960 02302 10268 20228 30049 40061 52011 90258 333 30/// 59003;","Q01  00002PRCP99"
"76458099999","2001-05-29T15:00:00","4","23.2","-106.4166666","4.0","COLONIA JUAN CARRASCO MAZATLAN SIN., MX","FM-12","99999","V020","130,1,N,0030,1","22000,1,9,N","015000,1,N,1","+0274,1","+0221,1","10108,1","99,0000,9,1",,,,,"01,1,+00600,9,08,9",,,"04,99,1,01,1,02,1,00800,1,05,1,00,1",,"01,9",,,,"99999,9,10097,1","1,1,009,1,+025,1",,,"SYN106AAXX  29151 76458 32565 41303 10274 20221 30097 40108 51009 81250 91455 333 30/// 56/// 58025 81820 83358;","Q01  00002PRCP99"
"76458099999","2001-05-29T21:00:00","4","23.2","-106.4166666","4.0","COLONIA JUAN CARRASCO MAZATLAN SIN., MX","FM-12","99999","V020","200,1,N,0060,1","22000,1,9,N","018000,1,N,1","+0296,1","+0226,1","10092,1","99,0000,9,1",,,,,"00,1,+99999,9,99,9",,,"00,99,1,00,1,00,1,99999,9,00,1,00,1",,"01,9",,,,"99999,9,10081,1","7,1,012,1,+026,1",,,"SYN082AAXX  29211 76458 32968 02006 10296 20226 30081 40092 57012 92050 333 30/// 58026;","Q01  00002PRCP99"
"76458099999","2001-05-30T03:00:00","4","23.2","-106.4166666","4.0","COLONIA JUAN CARRASCO MAZATLAN SIN., MX","FM-12","99999","V020","240,1,N,0010,1","22000,1,9,N","010000,1,N,1","+0265,1","+0228,1","10099,1","99,0000,9,1",,,,,"00,1,+99999,9,99,9",,,"00,99,1,00,1,00,1,99999,9,00,1,00,1",,"01,9",,,,"99999,9,10088,1","2,1,009,1,+038,1",,,"SYN082AAXX  30031 76458 32960 02401 10265 20228 30088 40099 52009 90300 333 30/// 58038;","Q01  00002PRCP99"
"76458099999","2001-05-30T09:00:00","4","23.2","-106.4166666","4.0","COLONIA JUAN CARRASCO MAZATLAN SIN., MX","FM-12","99999","V020","340,1,N,0010,1","00660,1,9,N","010000,1,N,1","+0267,1","+0218,1","10104,1","99,0000,9,1",,,,,"06,1,+00660,9,05,9",,,"06,99,1,06,1,04,1,00800,1,00,1,00,1",,"01,9",,,,,"7,1,006,1,+999,9",,,"SYN094AAXX  30091 76458 32560 63401 10267 20218 40104 57006 86400 90845 333 30/// 56900 58/// 86622;","Q01  00002PRCP99"
"76458099999","2001-05-30T15:00:00","4","23.2","-106.4166666","4.0","COLONIA JUAN CARRASCO MAZATLAN SIN., MX","FM-12","99999","V020","290,1,N,0030,1","22000,1,9,N","015000,1,N,1","+0294,1","+0193,1","10116,1","99,0000,9,1",,,,,"01,1,+02400,9,07,9",,,"02,99,1,02,1,99,9,99999,9,03,1,00,1",,"01,9",,,,"99999,9,10104,1","1,1,011,1,+007,1",,,"SYN100AAXX  30151 76458 32965 22903 10294 20193 30104 40116 51011 82030 91455 333 30/// 56/// 58007 81358;","Q01  00002PRCP99Q02    003SCOLCG"
"76458099999","2001-05-30T21:00:00","4","23.2","-106.4166666","4.0","COLONIA JUAN CARRASCO MAZATLAN SIN., MX","FM-12","99999","V020","270,1,N,0060,1","22000,1,9,N","020000,1,N,1","+0309,1","+0217,1","10098,1","99,0000,9,1",,,,,"01,1,+01170,9,09,9",,,"01,99,1,01,1,03,1,01750,1,00,1,00,1",,"01,9",,,,"99999,9,10087,1","7,1,016,1,+006,1",,,"SYN100AAXX  30211 76458 32770 12706 10309 20217 30087 40098 57016 81300 92050 333 30/// 56100 58006 81939;","Q01  00002PRCP99"
"76458099999","2001-05-31T00:00:00","4","23.2","-106.4166666","4.0","COLONIA JUAN CARRASCO MAZATLAN SIN., MX","FM-12","99999","V020","290,1,N,0030,1","22000,1,9,N","020000,1,N,1","+0310,1","+0222,1","10089,1","99,0000,9,1",,,,,"00,1,+99999,9,99,9",,,"00,99,1,00,1,00,1,99999,9,00,1,00,1",,"01,9",,"120,M,+0324,1","180,N,+0257,1","99999,9,10078,1","7,1,009,1,+002,1",,,"SYN100AAXX  31001 76458 32970 02903 10310 20222 30078 40089 57009 92348 333 10324 20257 30/// 50480 58002;","Q01  00002PRCP99"
"76458099999","2001-05-31T03:00:00","4","23.2","-106.4166666","4.0","COLONIA JUAN CARRASCO MAZATLAN SIN., MX","FM-12","99999","V020","310,1,N,0030,1","22000,1,9,N","010000,1,N,1","+0228,1","+0228,1","10098,1","99,0000,9,1",,,,,"00,1,+99999,9,99,9",,,"00,99,1,00,1,00,1,99999,9,00,1,00,1",,"01,9",,,,"99999,9,10088,1","2,1,009,1,-003,1",,,"SYN082AAXX  31031 76458 32960 03103 10228 20228 30088 40098 52009 90245 333 30/// 59003;","Q01  00002PRCP99"
"76458099999","2001-05-31T06:00:00","4","23.2","-106.4166666","4.0","COLONIA JUAN CARRASCO MAZATLAN SIN., MX","FM-12","99999","V020","340,1,N,0030,1","00420,1,9,N","010000,1,N,1","+0274,1","+0229,1","10116,1","99,0000,9,1",,,,,,,,"07,99,1,07,1,04,1,00450,1,99,9,99,9","0648,9","01,9",,"240,M,+0324,1","240,N,+0257,1","99999,9,10104,1","9,9,999,9,+006,1",,,"SYN118AAXX  31061 76458 32460 73403 10274 20229 30104 40116 5//// 874// 90550 333 10324 20257 30/// 55108 569// 58006 87619;","Q01  00002PRCP99"
"76458099999","2001-05-31T09:00:00","4","23.2","-106.4166666","4.0","COLONIA JUAN CARRASCO MAZATLAN SIN., MX","FM-12","99999","V020","250,1,N,0020,1","00600,1,9,N","010000,1,N,1","+0274,1","+0227,1","10106,1","99,0000,9,1",,,,,"06,1,+00600,9,05,9",,,"06,99,1,06,1,06,1,00450,1,04,1,00,1",,"01,9",,,,"99999,9,10095,1","8,1,009,1,+003,1",,,"SYN100AAXX  31091 76458 32460 62502 10274 20227 30095 40106 58009 86640 90845 333 30/// 56900 58003 86620;","Q01  00002PRCP99"
"76458099999","2001-05-31T18:00:00","4","23.2","-106.4166666","4.0","COLONIA JUAN CARRASCO MAZATLAN SIN., MX","FM-12","99999","V020","270,1,N,0060,1","22000,1,9,N","020000,1,N,1","+0299,1","+0220,1","10110,1","99,0000,9,1",,,,,"01,1,+00990,9,08,9",,,"04,99,1,01,1,01,1,00800,1,03,1,00,1",,"01,9",,"120,M,+0315,1","240,N,+0261,1","99999,9,10099,1","7,1,011,1,-004,1",,,"SYN118AAXX  31181 76458 32570 42706 10299 20220 30099 40110 57011 81130 91758 333 10315 20261 30/// 56190 59004 81833 83359;","Q01  00002PRCP99"
"76458099999","2001-05-31T21:00:00","4","23.2","-106.4166666","4.0","COLONIA JUAN CARRASCO MAZATLAN SIN., MX","FM-12","99999","V020","270,1,N,0050,1","22000,1,9,N","020000,1,N,1","+0305,1","+0233,1","10096,1","99,0000,9,1",,,,,"01,1,+00900,9,09,9",,,"01,99,1,01,1,09,1,00800,1,00,1,00,1",,"01,9",,,,"99999,9,10085,1","7,1,014,1,-002,1",,,"SYN100AAXX  31211 76458 32570 12705 10305 20233 30085 40096 57014 81900 92058 333 30/// 56100 59002 81930;","Q01  00002PRCP99"
"76458099999","2001-06-01T00:00:00","4","23.2","-106.4166666","4.0","COLONIA JUAN CARRASCO MAZATLAN SIN., MX","FM-12","99999","V020","300,1,N,0030,1","22000,1,9,N","020000,1,N,1","+0294,1","+0222,1","10087,1","99,0000,9,1",,,,,"00,1,+99999,9,99,9",,,"00,99,1,00,1,00,1,99999,9,00,1,00,1",,"01,9",,"120,M,+0318,1","180,N,+0261,1","99999,9,10076,1","7,1,009,1,-002,1",,,"SYN100AAXX  01001 76458 32970 03003 10294 20222 30076 40087 57009 92355 333 10318 20261 30/// 50740 59002;","Q01  00002PRCP99"
"76458099999","2001-06-01T03:00:00","4","23.2","-106.4166666","4.0","COLONIA JUAN CARRASCO MAZATLAN SIN., MX","FM-12","99999","V020","290,1,N,0030,1","22000,1,9,N","010000,1,N,1","+0278,1","+0225,1","10106,1","99,0000,9,1",,,,,"00,1,+99999,9,99,9",,,"00,99,1,00,1,00,1,99999,9,00,1,00,1",,"01,9",,,,"99999,9,10095,1","2,1,019,1,+008,1",,,"SYN082AAXX  01031 76458 32960 02903 10278 20225 30095 40106 52019 90245 333 30/// 58008;","Q01  00002PRCP99"
"76458099999","2001-06-01T06:00:00","4","23.2","-106.4166666","4.0","COLONIA JUAN CARRASCO MAZATLAN SIN., MX","FM-12","99999","V020","320,1,N,0030,1","22000,1,9,N","010000,1,N,1","+0275,1","+0227,1","10116,1","99,0000,9,1",,,,,"00,1,+99999,9,99,9",,,"00,99,1,00,1,00,1,99999,9,00,1,00,1","0582,9","01,9",,"240,M,+0318,1","240,N,+0261,1","99999,9,10104,1","9,9,999,9,+000,1",,,"SYN100AAXX  01061 76458 32960 03203 10275 20227 30104 40116 5//// 90545 333 10318 20261 30/// 55097 58000;","Q01  00002PRCP99"
"76458099999","2001-06-01T09:00:00","4","23.2","-106.4166666","4.0","COLONIA JUAN CARRASCO MAZATLAN SIN., MX","FM-12","99999","V020","999,9,C,0000,1","22000,1,9,N","010000,1,N,1","+0267,1","+0228,1","10103,1","99,0000,9,1",,,,,"03,1,+04200,9,07,9",,,"03,99,1,03,1,00,1,02250,1,03,1,00,1",,"01,9",,,,"99999,9,10092,1","7,1,012,1,-003,1",,,"SYN100AAXX  01091 76458 32860 30000 10267 20228 30092 40103 57012 83030 90845 333 30/// 56090 59003 83364;","Q01  00002PRCP99"
"76458099999","2001-06-02T00:00:00","4","23.2","-106.4166666","4.0","COLONIA JUAN CARRASCO MAZATLAN SIN., MX","FM-12","99999","V020","310,1,N,0040,1","22000,1,9,N","010000,1,N,1","+0294,1","+0234,1","10084,1","24,0000,9,1",,,,,,,,"01,99,1,01,1,03,1,00800,1,00,1,00,1",,"01,9",,"120,M,+0310,1","180,N,+0255,1","99999,9,10073,1","9,9,999,9,-003,1",,,"SYN124AAXX  02001 76458 32560 13104 10294 20234 30073 40084 5//// 81300 92345 333 10310 20255 30/// 50731 56100 59003 70000 81925;","Q01  00002PRCP99Q02  00003PRCP99"
"76458099999","2001-06-02T09:00:00","4","23.2","-106.4166666","4.0","COLONIA JUAN CARRASCO MAZATLAN SIN., MX","FM-12","99999","V020","330,1,N,0020,1","22000,1,9,N","008000,1,N,1","+0260,1","+0233,1","10096,1","99,0000,9,1",,,,,"00,1,+99999,9,99,9",,,"00,99,1,00,1,00,1,99999,9,00,1,00,1",,"01,9",,,,"99999,9,10085,1","8,1,015,1,-007,1",,,"SYN082AAXX  02091 76458 32958 03302 10260 20233 30085 40096 58015 90845 333 30/// 59007;","Q01  00002PRCP99"
"76458099999","2001-06-02T15:00:00","4","23.2","-106.4166666","4.0","COLONIA JUAN CARRASCO MAZATLAN SIN., MX","FM-12","99999","V020","280,1,N,0030,1","22000,1,9,N","020000,1,N,1","+0274,1","+0227,1","10113,1","99,0000,9,1",,,,,"03,1,+00540,9,02,9",,,"03,99,1,03,1,02,1,00800,1,00,1,00,1",,"01,9",,,,"99999,9,10102,1","3,1,011,1,-001,1",,,"SYN100AAXX  02151 76458 32570 32803 10274 20227 30102 40113 53011 83200 91455 333 30/// 566// 59001 83818;","Q01  00002PRCP99"
"76458099999","2001-06-02T21:00:00","4","23.2","-106.4166666","4.0","COLONIA JUAN CARRASCO MAZATLAN SIN., MX","FM-12","99999","V020","270,1,N,0060,1","22000,1,9,N","020000,1,N,1","+0303,1","+0236,1","10091,1","99,0000,9,1",,,,,"01,1,+00840,9,09,9",,,"01,99,1,01,1,09,1,00800,1,00,1,00,1",,"01,9",,,,"99999,9,10080,1","7,1,019,1,+999,9",,,"SYN100AAXX  02211 76458 32570 12706 10303 20236 30080 40091 57019 81900 92055 333 30/// 56100 58/// 81928;","Q01  00002PRCP99"
"76458099999","2001-06-03T00:00:00","4","23.2","-106.4166666","4.0","COLONIA JUAN CARRASCO MAZATLAN SIN., MX","FM-12","99999","V020","260,1,N,0040,1","22000,1,9,N","020000,1,N,1","+0294,1","+0223,1","10080,1","24,0000,9,1",,,,,,,,"01,99,1,01,1,03,1,00800,1,00,1,00,1",,"01,9",,"120,M,+0312,1","180,N,+0247,1","99999,9,10069,1","7,1,010,1,-004,1",,,"SYN124AAXX  03001 76458 32570 12604 10294 20223 30069 40080 57010 81300 92345 333 10312 20247 30/// 50581 56100 59004 70000 81930;","Q01  00002PRCP99Q02  00003PRCP99"
"76458099999","2001-06-03T03:00:00","4","23.2","-106.4166666","4.0","COLONIA JUAN CARRASCO MAZATLAN SIN., MX","FM-12","99999","V020","290,1,N,0030,1","00690,1,9,N","010000,1,N,1","+0276,1","+0220,1","10089,1","99,0000,9,1",,,,,"07,1,+00690,9,05,9",,,"07,99,1,07,1,04,1,00800,1,00,1,00,1",,"01,9",,,,"99999,9,10078,1","2,1,009,1,-006,1",,,"SYN100AAXX  03031 76458 32560 72903 10276 20220 30078 40089 52009 87400 90245 333 30/// 56900 59006 87623;","Q01  00002PRCP99"
"76458099999","2001-06-03T06:00:00","4","23.2","-106.4166666","4.0","COLONIA JUAN CARRASCO MAZATLAN SIN., MX","FM-12","99999","V020","290,1,N,0020,1","22000,1,9,N","008000,1,N,1","+0272,1","+0222,1","10107,1","99,0000,9,1",,,,,"01,1,+06000,9,01,9",,,"01,99,1,00,1,00,1,99999,9,00,1,02,1","0660,9","01,9",,"240,M,+0312,1","240,N,+0247,1","99999,9,10096,1","2,1,018,1,-004,1",,,"SYN112AAXX  03061 76458 32958 12902 10272 20222 30096 40107 52018 80002 90545 333 10312 20247 30/// 55110 59004 81070;","Q01  00002PRCP99"
"76458099999","2001-06-03T12:00:00","4","23.2","-106.4166666","4.0","COLONIA JUAN CARRASCO MAZATLAN SIN., MX","FM-12","99999","V020","180,1,N,0030,1","03600,1,9,N","010000,1,N,1","+0264,1","+0226,1","10082,1","24,0000,9,1",,,,,"03,1,+00480,9,06,9",,,"05,99,1,03,1,04,1,00450,1,03,1,00,1",,"01,9","999,+0250,9","999,M,+0312,1","120,N,+0260,1","99999,9,10070,1","8,1,011,1,-021,1",,,"SYN124AAXX  03121 76458 32460 51803 10264 20226 30070 40082 58011 83430 91150 333 10312 20260 30025 56690 59021 70000 83616 82362;",
"76458099999","2001-06-03T15:00:00","4","23.2","-106.4166666","4.0","COLONIA JUAN CARRASCO MAZATLAN SIN., MX","FM-12","99999","V020","220,1,N,0020,1","22000,1,9,N","018000,1,N,1","+0268,1","+0229,1","10092,1","99,0000,9,1",,,,,"03,1,+00480,9,05,9",,,"03,99,1,03,1,04,1,00450,1,00,1,00,1",,"01,9",,,,"99999,9,10081,1","2,1,011,1,-020,1",,,"SYN100AAXX  03151 76458 32468 32202 10268 20229 30081 40092 52011 83400 91445 333 30/// 56200 59020 83616;","Q01  00002PRCP99"
"76458099999","2001-06-04T15:00:00","4","23.2","-106.4166666","4.0","COLONIA JUAN CARRASCO MAZATLAN SIN., MX","FM-12","99999","V020","190,1,N,0030,1","00750,1,9,N","012000,1,N,1","+0270,1","+0218,1","10088,1","99,0000,9,1",,,,,"07,1,+00750,9,05,9",,,"07,99,1,07,1,05,1,00800,1,00,1,00,1",,"01,9",,,,"99999,9,10076,1","2,1,016,1,-005,1",,,"SYN100AAXX  04151 76458 32562 71903 10270 20218 30076 40088 52016 87500 91455 333 0/4// 30/// 59005 87625;","Q01  00002PRCP99"
"76458099999","2001-06-05T03:00:00","4","23.2","-106.4166666","4.0","COLONIA JUAN CARRASCO MAZATLAN SIN., MX","FM-12","99999","V020","220,1,N,0020,1","00540,1,9,N","010000,1,N,1","+0267,1","+0225,1","10070,1","99,0000,9,1",,,,,"06,1,+00540,9,05,9",,,"06,99,1,06,1,04,1,00450,1,00,1,00,1",,"01,9",,,,"99999,9,10060,1","2,1,013,1,+005,1",,,"SYN106AAXX  05031 76458 32460 62202 10267 20225 30060 40070 52013 86400 90245 333 0/500 30/// 57651 58005 86618;","Q01  00002PRCP99"
"76458099999","2001-06-05T06:00:00","4","23.2","-106.4166666","4.0","COLONIA JUAN CARRASCO MAZATLAN SIN., MX","FM-12","99999","V020","220,1,N,0020,1","00510,1,9,N","010000,1,N,1","+0265,1","+0225,1","10091,1","99,0000,9,1",,,,,"07,1,+00510,9,05,9",,,"07,99,1,07,1,04,1,00450,1,00,1,00,1","0570,9","01,9",,"240,M,+0311,1","240,N,+0250,1","99999,9,10070,1","2,1,019,1,+010,1",,,"SYN112AAXX  05061 76458 32460 72202 10265 20225 30070 40091 52019 87400 90550 333 10311 20250 30/// 55095 58010 87617;","Q01  00002PRCP99"
"76458099999","2001-06-05T09:00:00","4","23.2","-106.4166666","4.0","COLONIA JUAN CARRASCO MAZATLAN SIN., MX","FM-12","99999","V020","110,1,N,0020,1","00480,1,9,N","010000,1,N,1","+0262,1","+0223,1","10084,1","99,0000,9,1",,,,,"07,1,+00480,9,05,9",,,"07,99,1,07,1,04,1,00450,1,00,1,00,1",,"01,9",,,,"99999,9,10074,1","7,1,006,1,+010,1",,,"SYN094AAXX  05091 76458 32460 71102 10262 20223 30074 40084 57006 87400 90830 333 30/// 58010 87616;","Q01  00002PRCP99"
"76458099999","2001-06-05T15:00:00","4","23.2","-106.4166666","4.0","COLONIA JUAN CARRASCO MAZATLAN SIN., MX","FM-12","99999","V020","210,1,N,0030,1","00750,1,C,N","012000,1,N,1","+0264,1","+0116,1","10105,1","99,0000,9,1",,,,,"03,1,+00600,9,05,9",,,"08,99,1,08,1,05,1,00800,1,99,9,99,9",,"01,9",,,,"99999,9,10093,1","2,1,015,1,+017,1",,,"SYN094AAXX  05151 76458 32562 82103 10264 20116 30093 40105 52015 885// 91455 333 30/// 58017 83620;","Q01  00002PRCP99"
"76458099999","2001-06-05T21:00:00","4","23.2","-106.4166666","4.0","COLONIA JUAN CARRASCO MAZATLAN SIN., MX","FM-12","99999","V020","230,1,N,0040,1","22000,1,9,N","014000,1,N,1","+0280,1","+0219,1","10096,1","99,0000,9,1",,,,,"03,1,+00780,9,05,9",,,"03,99,1,03,1,04,1,00800,1,00,1,00,1",,"01,9",,,,"99999,9,10085,1","7,1,015,1,+027,1",,,"SYN106AAXX  05211 76458 32564 32304 10280 20219 30085 40096 57015 83400 92050 333 0/400 30/// 57640 58027 83626;","Q01  00002PRCP99"
"76458099999","2001-06-06T00:00:00","4","23.2","-106.4166666","4.0","COLONIA JUAN CARRASCO MAZATLAN SIN., MX","FM-12","99999","V020","230,1,N,0030,1","22000,1,9,N","015000,1,N,1","+0274,1","+0220,1","10085,1","24,0000,9,1",,,,,,,,"03,99,1,03,1,04,1,00800,1,00,1,00,1",,"01,9",,"120,M,+0300,1","180,N,+0256,1","99999,9,10073,1","7,1,012,1,+026,1",,,"SYN124AAXX  06001 76458 32565 32303 10274 20220 30073 40085 57012 83400 92345 333 10300 20256 30/// 50361 56600 58026 70000 83622;","Q01  00002PRCP99Q02  00003PRCP99"
"76458099999","2001-06-06T03:00:00","4","23.2","-106.4166666","4.0","COLONIA JUAN CARRASCO MAZATLAN SIN., MX","FM-12","99999","V020","210,1,N,0020,1","22000,1,9,N","010000,1,N,1","+0262,1","+0223,1","10087,1","99,0000,9,1",,,,,"02,1,+00480,9,05,9",,,"02,99,1,02,1,04,1,00450,1,00,1,00,1",,"01,9",,,,"99999,9,10075,1","3,1,002,1,+015,1",,,"SYN100AAXX  06031 76458 32460 22102 10262 20223 30075 40087 53002 82400 90245 333 30/// 56500 58015 82616;","Q01  00002PRCP99"
"76458099999","2001-06-06T09:00:00","4","23.2","-106.4166666","4.0","COLONIA JUAN CARRASCO MAZATLAN SIN., MX","FM-12","99999","V020","180,1,N,0020,1","00510,1,9,N","008000,1,N,1","+0261,1","+0222,1","10099,1","99,0000,9,1",,,,,"07,1,+00510,9,05,9",,,"07,99,1,07,1,04,1,00450,1,00,1,00,1",,"01,9",,,,"99999,9,10088,1","7,1,002,1,+015,1",,,"SYN100AAXX  06091 76458 32458 71802 10261 20222 30088 40099 57002 87400 90535 333 30/// 56900 58015 87617;","Q01  00002PRCP99"
"76458099999","2001-06-06T18:00:00","4","23.2","-106.4166666","4.0","COLONIA JUAN CARRASCO MAZATLAN SIN., MX","FM-12","99999","V020","200,1,N,0040,1","00720,1,9,N","015000,1,N,1","+0284,1","+0227,1","10116,1","99,0000,9,1",,,,,"08,1,+00720,9,05,9",,,"08,99,1,08,1,04,1,00800,1,99,9,99,9",,"01,9",,"120,M,+0290,1","240,N,+0255,1","99999,9,10105,1","0,1,003,1,+005,1",,,"SYN112AAXX  06181 76458 32565 82004 10284 20227 30105 40116 50003 884// 91745 333 10290 20255 30/// 569// 58005 88624;","Q01  00002PRCP99"
"76458099999","2001-06-06T21:00:00","4","23.2","-106.4166666","4.0","COLONIA JUAN CARRASCO MAZATLAN SIN., MX","FM-12","99999","V020","250,1,N,0040,1","00750,1,9,N","016000,1,N,1","+0284,1","+0223,1","10106,1","99,0000,9,1",,,,,"06,1,+00750,9,05,9",,,"06,99,1,06,1,04,1,00800,1,00,1,00,1",,"01,9",,,,"99999,9,10095,1","7,1,010,1,+010,1",,,"SYN100AAXX  06211 76458 32566 62504 10284 20223 30095 40106 57010 86400 92050 333 0/300 30/// 58010 86625;","Q01  00002PRCP99"
"76458099999","2001-06-07T00:00:00","4","23.2","-106.4166666","4.0","COLONIA JUAN CARRASCO MAZATLAN SIN., MX","FM-12","99999","V020","210,1,N,0040,1","00750,1,9,N","018000,1,N,1","+0285,1","+0230,1","10092,1","24,0000,9,1",,,,,,,,"06,99,1,06,1,02,1,00800,1,00,1,00,1",,"01,9",,"120,M,+0309,1","180,N,+0255,1","99999,9,10081,1","7,1,014,1,+008,1",,,"SYN130AAXX  07001 76458 32568 62104 10285 20230 30081 40092 57014 86200 92340 333 01600 10309 20255 30/// 50560 57861 58008 70000 86823;","Q01  00002PRCP99Q02  00003PRCP99"
"76458099999","2001-06-07T06:00:00","4","23.2","-106.4166666","4.0","COLONIA JUAN CARRASCO MAZATLAN SIN., MX","FM-12","99999","V020","310,1,N,0020,1","00510,1,9,N","010000,1,N,1","+0266,1","+0227,1","10113,1","99,0000,9,1",,,,,"07,1,+00510,9,06,9",,,"07,99,1,07,1,06,1,00450,1,00,1,00,1",,"01,9",,"240,M,+0309,1","240,N,+0255,1","99999,9,10100,1","2,1,010,1,+010,1",,,"SYN118AAXX  07061 76458 32460 73102 10266 20227 30100 40113 52010 87600 90548 333 0/400 10309 20255 30/// 55/// 58010 87717;","Q01  00002PRCP99"
"76458099999","2001-06-07T09:00:00","4","23.2","-106.4166666","4.0","COLONIA JUAN CARRASCO MAZATLAN SIN., MX","FM-12","99999","V020","170,1,N,0020,1","00450,1,9,N","010000,1,N,1","+0262,1","+0226,1","10104,1","99,0000,9,1",,,,,"07,1,+00450,9,05,9",,,"07,99,1,07,1,04,1,00450,1,00,1,00,1",,"01,9",,,,"99999,9,10093,1","7,1,007,1,+006,1",,,"SYN100AAXX  07091 76458 32460 71702 10262 20226 30093 40104 57007 87400 90838 333 0/900 30/// 58006 87615;","Q01  00002PRCP99"
"76458099999","2001-06-07T15:00:00","4","23.2","-106.4166666","4.0","COLONIA JUAN CARRASCO MAZATLAN SIN., MX","FM-12","99999","V020","150,1,N,0030,1","03600,1,9,N","015000,1,N,1","+0275,1","+0231,1","10100,1","99,0000,9,1",,,,,"02,1,+00540,9,06,9",,,"05,99,1,02,1,04,1,00450,1,03,1,00,1",,"01,9",,,,"99999,9,10089,1","2,1,005,1,+013,1",,,"SYN106AAXX  07151 76458 32465 51503 10275 20231 30089 40100 52005 82430 91500 333 30/// 56290 58013 82618 83362;","Q01  00002PRCP99"
"76458099999","2001-06-07T21:00:00","4","23.2","-106.4166666","4.0","COLONIA JUAN CARRASCO MAZATLAN SIN., MX","FM-12","99999","V020","210,1,N,0060,1","22000,1,9,N","010000,1,N,1","+0295,1","+0232,1","10099,1","99,0000,9,1",,,,,"03,1,+00780,9,02,9",,,"03,99,1,03,1,01,1,00800,1,00,1,00,1",,"01,9",,,,"99999,9,10088,1","7,1,007,1,-007,1",,,"SYN106AAXX  07211 76458 32560 32106 10295 20232 30088 40099 57007 83100 92045 333 01400 30/// 57841 59007 83826;","Q01  00002PRCP99"
"76458099999","2001-06-08T00:00:00","4","23.2","-106.4166666","4.0","COLONIA JUAN CARRASCO MAZATLAN SIN., MX","FM-12","99999","V020","230,1,N,0050,1","22000,1,9,N","016000,1,N,1","+0292,1","+0228,1","10096,1","24,0000,9,1",,,,,,,,"04,99,1,04,1,07,1,00800,1,00,1,00,1",,"01,9",,"120,M,+0313,1","180,N,+0260,1","99999,9,10085,1","5,1,003,1,+004,1",,,"SYN130AAXX  08001 76458 32566 42305 10292 20228 30085 40096 55003 84700 92345 333 0/400 10313 20260 30/// 50400 57841 58004 70000 84826;","Q01  00002PRCP99Q02  00003PRCP99"
"76458099999","2001-06-08T03:00:00","4","23.2","-106.4166666","4.0","COLONIA JUAN CARRASCO MAZATLAN SIN., MX","FM-12","99999","V020","280,1,N,0040,1","00480,1,9,N","008000,1,N,1","+0270,1","+0229,1","10096,1","99,0000,9,1",,,,,"07,1,+00480,9,05,9",,,"07,99,1,07,1,04,1,00450,1,00,1,00,1",,"01,9",,,,"99999,9,10085,1","5,1,001,1,-006,1",,,"SYN100AAXX  08031 76458 32458 72804 10270 20229 30085 40096 55001 87400 90245 333 0/400 30/// 59006 87616;","Q01  00002PRCP99"
"76458099999","2001-06-08T06:00:00","4","23.2","-106.4166666","4.0","COLONIA JUAN CARRASCO MAZATLAN SIN., MX","FM-12","99999","V020","150,1,N,0020,1","22000,1,9,N","008000,1,N,1","+0269,1","+0223,1","10101,1","99,0000,9,1",,,,,"01,1,+00570,9,06,9",,,"02,99,1,02,1,04,1,00450,1,03,1,00,1",,"01,9",,"240,M,+0313,1","240,N,+0260,1","99999,9,10090,1","2,1,005,1,-010,1",,,"SYN118AAXX  08061 76458 32458 21502 10269 20223 30090 40101 52005 82430 90548 333 0/990 10313 20260 30/// 59010 81619 81358;","Q01  00002PRCP99"
"76458099999","2001-06-08T09:00:00","4","23.2","-106.4166666","4.0","COLONIA JUAN CARRASCO MAZATLAN SIN., MX","FM-12","99999","V020","999,9,C,0000,1","00450,1,9,N","008000,1,N,1","+0264,1","+0228,1","10094,1","99,0000,9,1",,,,,"05,1,+00450,9,05,9",,,"05,99,1,05,1,04,1,00450,1,00,1,00,1",,"01,9",,,,"99999,9,10083,1","7,1,007,1,-010,1",,,"SYN100AAXX  08091 76458 32458 50000 10264 20228 30083 40094 57007 85400 90848 333 0/800 30/// 59010 85615;","Q01  00002PRCP99"
"76458099999","2001-06-08T15:00:00","4","23.2","-106.4166666","4.0","COLONIA JUAN CARRASCO MAZATLAN SIN., MX","FM-12","99999","V020","180,1,N,0040,1","00600,1,9,N","008000,1,N,1","+0279,1","+0229,1","10106,1","99,0000,9,1",,,,,"07,1,+00600,9,05,9",,,"07,99,1,07,1,05,1,00800,1,99,9,99,9",,"01,9",,,,"99999,9,10095,1","2,1,015,1,+006,1",,,"SYN100AAXX  08151 76458 32558 71804 10279 20229 30095 40106 52015 875// 91459 333 0/4// 30/// 58006 87620;","Q01  00002PRCP99"
"76458099999","2001-06-08T18:00:00","4","23.2","-106.4166666","4.0","COLONIA JUAN CARRASCO MAZATLAN SIN., MX","FM-12","99999","V020","160,1,N,0040,1","03600,1,C,N","018000,1,N,1","+0304,1","+0224,1","10111,1","99,0000,9,1",,,,,"01,1,+00930,9,08,9",,,"05,99,1,01,1,01,1,00800,1,03,1,00,1",,"01,9",,"120,M,+0323,1","240,N,+0250,1","99999,9,10100,1","0,1,005,1,+005,1",,,"SYN118AAXX  08181 76458 32568 51604 10304 20224 30100 40111 50005 81130 91750 333 10323 20250 30/// 56290 58005 81831 84364;","Q01  00002PRCP99"
"76458099999","2001-06-08T21:00:00","4","23.2","-106.4166666","4.0","COLONIA JUAN CARRASCO MAZATLAN SIN., MX","FM-12","99999","V020","180,1,N,0040,1","04200,1,9,N","018000,1,N,1","+0298,1","+0229,1","10105,1","99,0000,9,1",,,,,"07,1,+04200,9,07,9",,,"07,99,1,07,1,00,1,02250,1,03,1,00,1",,"01,9",,,,"99999,9,10093,1","7,1,007,1,+005,1",,,"SYN106AAXX  08211 76458 32868 71804 10298 20229 30093 40105 57007 87030 92045 333 0/090 30/// 57399 58005 87364;","Q01  00002PRCP99"
"76458099999","2001-06-09T00:00:00","4","23.2","-106.4166666","4.0","COLONIA JUAN CARRASCO MAZATLAN SIN., MX","FM-12","99999","V020","300,1,N,0040,1","00690,1,9,N","018000,1,N,1","+0290,1","+0235,1","10102,1","24,0000,9,1",,,,,"05,1,+00690,9,02,9",,,"05,99,1,05,1,05,1,00800,1,00,1,00,1",,"01,9",,"120,M,+0324,1","180,N,+0250,1","99999,9,10091,1","5,1,002,1,+006,1",,,"SYN118AAXX  09001 76458 32568 53004 10290 20235 30091 40102 55002 85500 92345 333 10324 20250 30/// 56600 58006 70000 85523;",
"76458099999","2001-06-09T03:00:00","4","23.2","-106.4166666","4.0","COLONIA JUAN CARRASCO MAZATLAN SIN., MX","FM-12","99999","V020","270,1,N,0030,1","00510,1,9,N","008000,1,N,1","+0272,1","+0231,1","10116,1","99,0000,9,1",,,,,"06,1,+00510,9,05,9",,,"06,99,1,06,1,05,1,00450,1,00,1,00,1",,"01,9",,,,"99999,9,10106,1","3,1,014,1,+020,1",,,"SYN100AAXX  09031 76458 32458 62703 10272 20231 30106 40116 53014 86500 90250 333 30/// 56600 58020 86617;","Q01  00002PRCP99"
"76458099999","2001-06-09T06:00:00","4","23.2","-106.4166666","4.0","COLONIA JUAN CARRASCO MAZATLAN SIN., MX","FM-12","99999","V020","340,1,N,0020,1","22000,1,9,N","008000,1,N,1","+0270,1","+0229,1","10118,1","99,0000,9,1",,,,,"04,1,+00510,9,05,9",,,"04,99,1,04,1,04,1,00450,1,00,1,00,1","0240,9","01,9",,"240,M,+0324,1","240,N,+0250,1","99999,9,10108,1","9,9,999,9,+018,1",,,"SYN112AAXX  09061 76458 32458 43402 10270 20229 30108 40118 84400 90545 333 0/900 10324 20250 30/// 55040 58018 84617;","Q01  00002PRCP99"
"76458099999","2001-06-09T09:00:00","4","23.2","-106.4166666","4.0","COLONIA JUAN CARRASCO MAZATLAN SIN., MX","FM-12","99999","V020","310,1,N,0010,1","00510,1,9,N","008000,1,N,1","+0270,1","+0229,1","10110,1","99,0000,9,1",,,,,"07,1,+00510,9,05,9",,,"07,99,1,07,1,04,1,00450,1,00,1,00,1",,"01,9",,,,"99999,9,10099,1","7,1,009,1,+016,1",,,"SYN100AAXX  09091 76458 32458 73101 10270 20229 30099 40110 57009 87400 90850 333 0/900 30/// 58016 87617;","Q01  00002PRCP99"
"76458099999","2001-06-09T15:00:00","4","23.2","-106.4166666","4.0","COLONIA JUAN CARRASCO MAZATLAN SIN., MX","FM-12","99999","V020","999,9,C,0000,1","00570,1,9,N","013000,1,N,1","+0277,1","+0231,1","10120,1","99,0000,9,1",,,,,"06,1,+00570,9,02,9",,,"06,99,1,06,1,02,1,00450,1,00,1,00,1",,"01,9",,,,"99999,9,10109,1","1,1,004,1,+014,1",,,"SYN100AAXX  09151 76458 32463 60000 10277 20231 30109 40120 51004 86200 91455 333 30/// 57891 58014 86819;","Q01  00002PRCP99"
"76458099999","2001-06-09T18:00:00","4","23.2","-106.4166666","4.0","COLONIA JUAN CARRASCO MAZATLAN SIN., MX","FM-12","99999","V020","280,1,N,0040,1","22000,1,9,N","015000,1,N,1","+0302,1","+0237,1","10116,1","99,0000,9,1",,,,,"01,1,+00810,9,02,9",,,"01,99,1,01,1,01,1,00800,1,00,1,00,1",,"01,9",,"120,M,+0310,1","240,N,+0253,1","99999,9,10104,1","8,1,004,1,+004,1",,,"SYN118AAXX  09181 76458 32565 12804 10302 20237 30104 40116 58004 81100 91750 333 0/100 10310 20253 30/// 57816 58004 81827;","Q01  00002PRCP99"
"76458099999","2001-06-09T21:00:00","4","23.2","-106.4166666","4.0","COLONIA JUAN CARRASCO MAZATLAN SIN., MX","FM-12","99999","V020","240,1,N,0050,1","22000,1,9,N","018000,1,N,1","+0299,1","+0236,1","10111,1","99,0000,9,1",,,,,"01,1,+00780,9,02,9",,,"01,99,1,01,1,01,1,00800,1,00,1,00,1",,"01,9",,,,"99999,9,10099,1","7,1,005,1,+006,1",,,"SYN106AAXX  09211 76458 32568 12405 10299 20236 30099 40111 57005 81100 92050 333 0/600 30/// 57869 58006 81826;","Q01  00002PRCP99"
"76458099999","2001-06-10T00:00:00","4","23.2","-106.4166666","4.0","COLONIA JUAN CARRASCO MAZATLAN SIN., MX","FM-12","99999","V020","250,1,N,0050,1","22000,1,9,N","018000,1,N,1","+0288,1","+0224,1","10103,1","24,0000,9,1",,,,,,,,"01,99,1,01,1,03,1,00800,1,00,1,00,1",,"01,9",,"120,M,+0317,1","180,N,+0253,1","99999,9,10092,1","7,1,007,1,+001,1",,,"SYN124AAXX  10001 76458 32568 12505 10288 20224 30092 40103 57007 81300 92350 333 10317 20253 30/// 50421 56100 58001 70000 81927;","Q01  00002PRCP99Q02  00003PRCP99"
"76458099999","2001-06-10T03:00:00","4","23.2","-106.4166666","4.0","COLONIA JUAN CARRASCO MAZATLAN SIN., MX","FM-12","99999","V020","270,1,N,0010,1","22000,1,9,N","010000,1,N,1","+0270,1","+0226,1","10122,1","99,0000,9,1",,,,,"01,1,+00540,9,05,9",,,"01,99,1,01,1,04,1,00450,1,00,1,00,1",,"01,9",,,,"99999,9,10111,1","2,1,019,1,+005,1",,,"SYN100AAXX  10031 76458 32460 12701 10270 20226 30111 40122 52019 81400 90245 333 30/// 56600 58005 81618;","Q01  00002PRCP99"
"76458099999","2001-06-10T06:00:00","4","23.2","-106.4166666","4.0","COLONIA JUAN CARRASCO MAZATLAN SIN., MX","FM-12","99999","V020","350,1,N,0020,1","22000,1,9,N","008000,1,N,1","+0266,1","+0221,1","10130,1","99,0000,9,1",,,,,"00,1,+99999,9,99,9",,,"00,99,1,00,1,00,1,99999,9,00,1,00,1","0450,9","01,9",,"240,M,+0317,1","240,N,+0253,1","99999,9,10120,1","0,1,009,1,+012,1",,,"SYN100AAXX  10061 76458 32958 03502 10266 20221 30120 40130 50009 90545 333 10317 20253 30/// 55075 58012;","Q01  00002PRCP99"
"76458099999","2001-06-10T09:00:00","4","23.2","-106.4166666","4.0","COLONIA JUAN CARRASCO MAZATLAN SIN., MX","FM-12","99999","V020","320,1,N,0020,1","22000,1,9,N","008000,1,N,1","+0262,1","+0226,1","10118,1","99,0000,9,1",,,,,"01,1,+00450,9,05,9",,,"01,99,1,01,1,01,1,00450,1,00,1,00,1",,"01,9",,,,"99999,9,10107,1","7,1,013,1,+008,1",,,"SYN100AAXX  10091 76458 32458 13202 10262 20226 30107 40118 57013 81100 90845 333 30/// 56600 58008 81615;","Q01  00002PRCP99"
"76458099999","2001-06-10T12:00:00","4","23.2","-106.4166666","4.0","COLONIA JUAN CARRASCO MAZATLAN SIN., MX","FM-12","99999","V020","020,1,N,0010,1","22000,1,9,N","010000,1,N,1","+0256,1","+0224,1","10109,1","24,0000,9,1",,,,,"01,1,+03600,9,07,9",,,"01,99,1,01,1,00,1,02250,1,03,1,00,1",,"01,9","999,+0240,9","999,M,+0317,1","120,N,+0251,1","99999,9,10098,1","7,1,009,1,+000,1",,,"SYN124AAXX  10121 76458 32860 10201 10256 20224 30098 40109 57009 81030 91155 333 0/090 10317 20251 30024 57399 58000 70000 81362;",
"76458099999","2001-06-10T15:00:00","4","23.2","-106.4166666","4.0","COLONIA JUAN CARRASCO MAZATLAN SIN., MX","FM-12","99999","V020","250,1,N,0030,1","00540,1,9,N","015000,1,N,1","+0274,1","+0231,1","10123,1","99,0000,9,1",,,,,"05,1,+00540,9,02,9",,,"05,99,1,05,1,02,1,00450,1,00,1,00,1",,"01,9",,,,"99999,9,10111,1","2,1,013,1,+003,1",,,"SYN106AAXX  10151 76458 32465 52503 10274 20231 30111 40123 52013 85200 91450 333 00600 30/// 57859 58003 85818;","Q01  00002PRCP99"
"76458099999","2001-06-10T18:00:00","4","23.2","-106.4166666","4.0","COLONIA JUAN CARRASCO MAZATLAN SIN., MX","FM-12","99999","V020","270,1,N,0050,1","22000,1,9,N","018000,1,N,1","+0294,1","+0228,1","10134,1","99,0000,9,1",,,,,"04,1,+01800,9,07,9",,,"04,99,1,04,1,99,9,02250,1,03,1,00,1",,"01,9",,"120,M,+0310,1","240,N,+0250,1","99999,9,10123,1","2,1,012,1,+019,1",,,"SYN112AAXX  10181 76458 32868 42705 10294 20228 30123 40134 52012 84030 91745 333 10310 20250 30/// 56090 58019 84356;","Q01+000002SCOLCGQ02  00002PRCP99"
"76458099999","2001-06-10T21:00:00","4","23.2","-106.4166666","4.0","COLONIA JUAN CARRASCO MAZATLAN SIN., MX","FM-12","99999","V020","250,1,N,0040,1","22000,1,9,N","018000,1,N,1","+0288,1","+0224,1","10123,1","99,0000,9,1",,,,,,,,"02,99,1,02,1,00,1,01250,1,03,1,00,1",,"01,9",,,,"99999,9,10112,1","6,1,001,1,+013,1",,,"SYN094AAXX  10211 76458 32668 22504 10288 20224 30112 40123 56001 82030 92045 333 30/// 56090 58013;","Q01  00002PRCP99"
"76458099999","2001-06-11T00:00:00","4","23.2","-106.4166666","4.0","COLONIA JUAN CARRASCO MAZATLAN SIN., MX","FM-12","99999","V020","240,1,N,0050,1","22000,1,9,N","018000,1,N,1","+0288,1","+0227,1","10115,1","24,0000,9,1",,,,,,,,"01,99,1,01,1,02,1,00800,1,00,1,00,1",,"01,9",,"120,M,+9999,9",,"99999,9,10104,1","6,1,008,1,+012,1",,,"SYN118AAXX  11001 76458 32568 12405 10288 20227 30104 40115 56008 81200 92350 333 10250 30/// 50411 56100 58012 70000 81825;","Q01  00002PRCP99Q02  00003PRCP99Q03 +02502ATMX  "
"76458099999","2001-06-11T03:00:00","4","23.2","-106.4166666","4.0","COLONIA JUAN CARRASCO MAZATLAN SIN., MX","FM-12","99999","V020","300,1,N,0040,1","00570,1,9,N","008000,1,N,1","+0266,1","+0221,1","10130,1","99,0000,9,1",,,,,"05,1,+00570,9,02,9",,,"05,99,1,05,1,02,1,00800,1,00,1,00,1",,"01,9",,,,"99999,9,10119,1","2,1,015,1,+008,1",,,"SYN100AAXX  11031 76458 32558 53004 10266 20221 30119 40130 52015 85200 90245 333 30/// 56600 58008 85819;","Q01  00002PRCP99"
"76458099999","2001-06-11T09:00:00","4","23.2","-106.4166666","4.0","COLONIA JUAN CARRASCO MAZATLAN SIN., MX","FM-12","99999","V020","180,1,N,0010,1","22000,1,9,N","008000,1,N,1","+0258,1","+0219,1","10121,1","99,0000,9,1",,,,,"00,1,+99999,9,99,9",,,"00,99,1,00,1,00,1,99999,9,00,1,00,1",,,,,,"99999,9,10110,1","9,9,999,9,+003,1",,,"SYN076AAXX  11091 76458 32958 01801 10258 20219 30110 40121 5700/ 90835 333 58003;","Q01+000072APCTENQ02+000002APC3  Q03  00002PRCP99"
"76458099999","2001-06-11T15:00:00","4","23.2","-106.4166666","4.0","COLONIA JUAN CARRASCO MAZATLAN SIN., MX","FM-12","99999","V020","250,1,N,0010,1","02400,1,9,N","012000,1,N,1","+0264,1","+0219,1","10136,1","99,0000,9,1",,,,,"06,1,+02400,9,07,9",,,"06,99,1,06,1,99,9,99999,9,06,1,00,1",,"01,9",,,,"99999,9,10125,1","1,1,009,1,+014,1",,,"SYN094AAXX  11151 76458 32962 62501 10264 20219 30125 40136 51009 86060 91455 333 30/// 58014 86358;","Q01  00002PRCP99Q02    003SCOLCG"
"76458099999","2001-06-12T03:00:00","4","23.2","-106.4166666","4.0","COLONIA JUAN CARRASCO MAZATLAN SIN., MX","FM-12","99999","V020","270,1,N,0030,1","22000,1,9,N","012000,1,N,1","+0265,1","+0218,1","10117,1","99,0000,9,1",,,,,"00,1,+99999,9,99,9",,,"00,99,1,00,1,00,1,99999,9,00,1,00,1",,"01,9",,,,"99999,9,10105,1","3,1,003,1,-013,1",,,"SYN082AAXX  12031 76458 32962 02703 10265 20218 30105 40117 53003 90250 333 30/// 59013;","Q01  00002PRCP99"
"76458099999","2001-06-12T15:00:00","4","23.2","-106.4166666","4.0","COLONIA JUAN CARRASCO MAZATLAN SIN., MX","FM-12","99999","V020","190,1,N,0030,1","03600,1,C,N","015000,1,N,1","+0273,1","+0223,1","10120,1","99,0000,9,1",,,,,"03,1,+00600,9,08,9",,,"06,99,1,03,1,02,1,00800,1,06,1,99,9",,"01,9",,,,"99999,9,10109,1","3,1,007,1,-016,1",,,"SYN112AAXX  12151 76458 32565 61903 10273 20223 30109 40120 53007 8326/ 91455 333 033// 30/// 57830 59016 83820 83358;","Q01  00002PRCP99"
"76458099999","2001-06-12T18:00:00","4","23.2","-106.4166666","4.0","COLONIA JUAN CARRASCO MAZATLAN SIN., MX","FM-12","99999","V020","210,1,N,0030,1","22000,1,9,N","015000,1,N,1","+0293,1","+0220,1","10123,1","99,0000,9,1",,,,,"01,1,+00690,9,08,9",,,"03,99,1,01,1,02,1,00800,1,03,1,99,9",,"01,9",,"120,M,+0307,1","240,N,+0249,1","99999,9,10112,1","1,1,003,1,-008,1",,,"SYN124AAXX  12181 76458 32565 32103 10293 20220 30112 40123 51003 8123/ 91755 333 0139/ 10307 20249 30/// 57834 59008 81823 82358;","Q01  00002PRCP99"
"76458099999","2001-06-12T21:00:00","4","23.2","-106.4166666","4.0","COLONIA JUAN CARRASCO MAZATLAN SIN., MX","FM-12","99999","V020","180,1,N,0050,1","22000,1,9,N","018000,1,N,1","+0290,1","+0212,1","10112,1","99,0000,9,1",,,,,"03,1,+00990,9,02,9",,,"03,99,1,03,1,01,1,00800,1,00,1,00,1",,"01,9",,,,"99999,9,10101,1","7,1,013,1,-011,1",,,"SYN106AAXX  12211 76458 32568 31805 10290 20212 30101 40112 57013 83100 92050 333 01300 30/// 57831 59011 83833;","Q01  00002PRCP99"
"76458099999","2001-06-13T03:00:00","4","23.2","-106.4166666","4.0","COLONIA JUAN CARRASCO MAZATLAN SIN., MX","FM-12","99999","V020","220,1,N,0020,1","22000,1,9,N","010000,1,N,1","+0260,1","+0213,1","10096,1","99,0000,9,1",,,,,"01,1,+00600,9,05,9",,,"01,99,1,01,1,04,1,00450,1,00,1,00,1",,"01,9",,,,"99999,9,10085,1","3,1,004,1,-020,1",,,"SYN106AAXX  13031 76458 32460 12202 10260 20213 30085 40096 53004 81400 90245 333 0/500 30/// 57659 59020 81620;","Q01  00002PRCP99"
"76458099999","2001-06-13T09:00:00","4","23.2","-106.4166666","4.0","COLONIA JUAN CARRASCO MAZATLAN SIN., MX","FM-12","99999","V020","120,1,N,0010,1","22000,1,9,N","008000,1,N,1","+0254,1","+0236,1","10106,1","99,0000,9,1",,,,,"02,1,+00480,9,02,9",,,"02,99,1,02,1,04,1,00450,1,00,1,00,1",,"01,9",,,,"99999,9,10091,1","7,1,009,1,-010,1",,,"SYN100AAXX  13091 76458 32458 21201 10254 20236 30091 40106 57009 82400 90830 333 0/200 30/// 59010 82816;","Q01  00002PRCP99"
"76458099999","2001-06-13T12:00:00","4","23.2","-106.4166666","4.0","COLONIA JUAN CARRASCO MAZATLAN SIN., MX","FM-12","99999","V020","120,1,N,0010,1","03600,1,9,N","008000,1,N,1","+0253,1","+0219,1","10098,1","24,0000,9,1",,,,,"02,1,+00420,9,06,9",,,"07,99,1,02,1,04,1,00450,1,03,1,00,1",,"01,9","999,+0230,9","999,M,+0312,1","120,N,+0248,1","99999,9,10086,1","7,1,005,1,-016,1",,,"SYN130AAXX  13121 76458 32458 71201 10253 20219 30086 40098 57005 82430 91155 333 0/490 10312 20248 30023 57649 59016 70000 82614 85362;",
"76458099999","2001-06-13T15:00:00","4","23.2","-106.4166666","4.0","COLONIA JUAN CARRASCO MAZATLAN SIN., MX","FM-12","99999","V020","170,1,N,0040,1","22000,1,9,N","015000,1,N,1","+0282,1","+0224,1","10105,1","99,0000,9,1",,,,,"03,1,+00720,9,02,9",,,"03,99,1,03,1,02,1,00800,1,00,1,00,1",,"01,9",,,,"99999,9,10093,1","2,1,007,1,-016,1",,,"SYN106AAXX  13151 76458 32565 31704 10282 20224 30093 40105 52007 83200 91445 333 00400 30/// 57849 59016 83824;","Q01  00002PRCP99"
"76458099999","2001-06-13T18:00:00","4","23.2","-106.4166666","4.0","COLONIA JUAN CARRASCO MAZATLAN SIN., MX","FM-12","99999","V020","200,1,N,0060,1","22000,1,9,N","018000,1,N,1","+0290,1","+0220,1","10104,1","99,0000,9,1",,,,,"02,1,+00870,9,02,9",,,"02,99,1,02,1,01,1,02250,1,00,1,00,1",,"01,9",,"120,M,+0306,1","240,N,+0246,1","99999,9,10093,1","4,1,000,1,-020,1",,,"SYN118AAXX  13181 76458 32868 22006 10290 20220 30093 40104 54001 82100 91750 333 01300 10306 20246 30/// 57835 59020 82829;","Q01  00002PRCP99"
"76458099999","2001-06-13T21:00:00","4","23.2","-106.4166666","4.0","COLONIA JUAN CARRASCO MAZATLAN SIN., MX","FM-12","99999","V020","210,1,N,0050,1","22000,1,9,N","020000,1,N,1","+0302,1","+0219,1","10094,1","99,0000,9,1",,,,,"01,1,+01020,9,09,9",,,"01,99,1,01,1,09,1,01250,1,00,1,00,1",,"01,9",,,,"99999,9,10083,1","5,1,009,1,-018,1",,,"SYN106AAXX  13211 76458 32670 12105 10302 20219 30083 40094 55009 81900 92040 333 07100 30/// 57915 59018 81934;","Q01  00002PRCP99"
"76458099999","2001-06-14T00:00:00","4","23.2","-106.4166666","4.0","COLONIA JUAN CARRASCO MAZATLAN SIN., MX","FM-12","99999","V020","250,1,N,0040,1","22000,1,9,N","020000,1,N,1","+0283,1","+0220,1","10080,1","24,0000,9,1",,,,,,,,"01,99,1,01,1,03,1,00800,1,00,1,00,1",,"01,9",,"120,M,+0314,1","180,N,+0246,1","99999,9,10069,1","7,1,014,1,-011,1",,,"SYN130AAXX  14001 76458 32570 12504 10283 20220 30069 40080 57014 81300 92340 333 06100 10314 20246 30/// 50540 57916 59011 70000 81926;","Q01  00002PRCP99Q02  00003PRCP99"
"76458099999","2001-06-14T03:00:00","4","23.2","-106.4166666","4.0","COLONIA JUAN CARRASCO MAZATLAN SIN., MX","FM-12","99999","V020","240,1,N,0040,1","00570,1,9,N","016000,1,N,1","+0261,1","+0215,1","10092,1","99,0000,9,1",,,,,"06,1,+00570,9,05,9",,,"06,99,1,06,1,04,1,00450,1,00,1,00,1",,"01,9",,,,"99999,9,10081,1","2,1,011,1,-004,1",,,"SYN100AAXX  14031 76458 32466 62404 10261 20215 30081 40092 52011 86400 90240 333 0/600 30/// 59004 86619;","Q01  00002PRCP99"
"76458099999","2001-06-14T09:00:00","4","23.2","-106.4166666","4.0","COLONIA JUAN CARRASCO MAZATLAN SIN., MX","FM-12","99999","V020","130,1,N,0010,1","22000,1,9,N","008000,1,N,1","+0276,1","+0211,1","10101,1","99,0000,9,1",,,,,"04,1,+00570,9,05,9",,,"04,99,1,04,1,06,1,00450,1,00,1,00,1",,"01,9",,,,"99999,9,10090,1","7,1,003,1,-001,1",,,"SYN100AAXX  14091 76458 32458 41301 10276 20211 30090 40101 57003 84600 90840 333 0/900 30/// 59001 84619;","Q01  00002PRCP99"
"76458099999","2001-06-14T12:00:00","4","23.2","-106.4166666","4.0","COLONIA JUAN CARRASCO MAZATLAN SIN., MX","FM-12","99999","V020","110,1,N,0030,1","22000,1,9,N","010000,1,N,1","+0248,1","+0215,1","10098,1","24,0000,9,1",,,,,"00,1,+99999,9,99,9",,,"00,99,1,00,1,00,1,99999,9,00,1,00,1",,"01,9","999,+0220,9","999,M,+0314,1","120,N,+0244,1","99999,9,10087,1","8,1,003,1,+000,1",,,"SYN100AAXX  14121 76458 32960 01103 10248 20215 30087 40098 58003 91150 333 10314 20244 30022 58000 70000;","Q01  00002PRCP24"
"76458099999","2001-06-14T15:00:00","4","23.2","-106.4166666","4.0","COLONIA JUAN CARRASCO MAZATLAN SIN., MX","FM-12","99999","V020","110,1,N,0020,1","22000,1,9,N","015000,1,N,1","+0278,1","+9999,9","10112,1","99,0000,9,1",,,,,"01,1,+00750,9,02,9",,,"01,99,1,01,1,02,1,00800,1,00,1,00,1",,"01,9",,,,"99999,9,10100,1","2,1,014,1,+007,1",,,"SYN106AAXX  14151 76458 32565 11102 10278 20018 30100 40112 52014 81200 91455 333 0/500 30/// 57854 58007 81825;","Q01+000183ATOD  Q02  00002PRCP99"
"76458099999","2001-06-14T18:00:00","4","23.2","-106.4166666","4.0","COLONIA JUAN CARRASCO MAZATLAN SIN., MX","FM-12","99999","V020","250,1,N,0020,1","22000,1,9,N","015000,1,N,1","+0294,1","+0219,1","10110,1","99,0000,9,1",,,,,"01,1,+00930,9,05,9",,,"01,99,1,01,1,04,1,00800,1,00,1,00,1",,"01,9",,"120,M,+0315,1","240,N,+0244,1","99999,9,10099,1","2,1,001,1,+007,1",,,"SYN112AAXX  14181 76458 32565 12502 10294 20219 30099 40110 52001 81400 91750 333 0/400 10315 20244 30/// 58007 81631;","Q01  00002PRCP99"
"76458099999","2001-06-14T21:00:00","4","23.2","-106.4166666","4.0","COLONIA JUAN CARRASCO MAZATLAN SIN., MX","FM-12","99999","V020","270,1,N,0040,1","22000,1,9,N","018000,1,N,1","+0292,1","+0220,1","10100,1","99,0000,9,1",,,,,"01,1,+00900,9,09,9",,,"02,99,1,02,1,03,1,00800,1,00,1,00,1",,"01,9",,,,"99999,9,10088,1","7,1,011,1,+005,1",,,"SYN112AAXX  14211 76458 32568 22704 10292 20220 30088 40100 57011 82300 92045 333 04100 30/// 57916 58005 81930 81645;","Q01  00002PRCP99"
"76458099999","2001-06-15T00:00:00","4","23.2","-106.4166666","4.0","COLONIA JUAN CARRASCO MAZATLAN SIN., MX","FM-12","99999","V020","290,1,N,0030,1","22000,1,9,N","020000,1,N,1","+0280,1","+0220,1","10086,1","24,0000,9,1",,,,,,,,"01,99,1,01,1,02,1,00800,1,00,1,00,1",,"01,9",,"120,M,+0316,1","180,N,+0244,1","99999,9,10075,1","7,1,014,1,+005,1",,,"SYN130AAXX  15001 76458 32570 12903 10280 20220 30075 40086 57014 81200 92340 333 04200 10316 20244 30/// 50690 57827 58005 70000 81825;","Q01  00002PRCP99Q02  00003PRCP99"
"76458099999","2001-06-15T03:00:00","4","23.2","-106.4166666","4.0","COLONIA JUAN CARRASCO MAZATLAN SIN., MX","FM-12","99999","V020","310,1,N,0020,1","22000,1,9,N","012000,1,N,1","+0260,1","+0215,1","10094,1","99,0000,9,1",,,,,"03,1,+02700,9,07,9",,,"03,99,1,03,1,00,1,99999,9,03,1,00,1",,"01,9",,,,"99999,9,10083,1","3,1,008,1,+002,1",,,"SYN100AAXX  15031 76458 32962 33102 10260 20215 30083 40094 53008 83030 90240 333 0/010 30/// 58002 83359;","Q01  00002PRCP99"
"76458099999","2001-06-15T09:00:00","4","23.2","-106.4166666","4.0","COLONIA JUAN CARRASCO MAZATLAN SIN., MX","FM-12","99999","V020","160,1,N,0010,1","22000,1,9,N","008000,1,N,1","+0255,1","+0214,1","10106,1","99,0000,9,1",,,,,"00,1,+99999,9,99,9",,,"00,99,1,00,1,00,1,99999,9,00,1,00,1",,"01,9",,,,"99999,9,10025,1","7,1,003,1,+005,1",,,"SYN082AAXX  15091 76458 32958 01601 10255 20214 30025 40106 57003 90840 333 30/// 58005;","Q01  00002PRCP99"
"76458099999","2001-06-15T18:00:00","4","23.2","-106.4166666","4.0","COLONIA JUAN CARRASCO MAZATLAN SIN., MX","FM-12","99999","V020","270,1,N,0040,1","22000,1,9,N","018000,1,N,1","+0286,1","+0219,1","10117,1","99,0000,9,1",,,,,"01,1,+00840,9,02,9",,,"01,99,1,01,1,02,1,00800,1,00,1,00,1",,"01,9",,"120,M,+0310,1","240,N,+0243,1","99999,9,10106,1","7,1,008,1,+007,1",,,"SYN118AAXX  15181 76458 32568 12704 10286 20219 30106 40117 57008 81200 91745 333 00100 10310 20243 30/// 57818 58007 81828;","Q01  00002PRCP99"
"76458099999","2001-06-15T21:00:00","4","23.2","-106.4166666","4.0","COLONIA JUAN CARRASCO MAZATLAN SIN., MX","FM-12","99999","V020","250,1,N,0040,1","22000,1,9,N","020000,1,N,1","+0286,1","+0213,1","10104,1","99,0000,9,1",,,,,"01,1,+00900,9,09,9",,,"01,99,1,01,1,03,1,00800,1,00,1,00,1",,"01,9",,,,"99999,9,10093,1","7,1,013,1,+005,1",,,"SYN106AAXX  15211 76458 32570 12504 10286 20213 30093 40104 57013 81300 92045 333 00100 30/// 57816 58005 81930;","Q01  00002PRCP99"
"76458099999","2001-06-16T00:00:00","4","23.2","-106.4166666","4.0","COLONIA JUAN CARRASCO MAZATLAN SIN., MX","FM-12","99999","V020","290,1,N,0040,1","22000,1,9,N","020000,1,N,1","+0280,1","+0216,1","10083,1","24,0000,9,1",,,,,,,,"01,99,1,01,1,02,1,00800,1,00,1,00,1",,"01,9",,"120,M,+0310,1","180,N,+0243,1","99999,9,10072,1","7,1,021,1,+003,1",,,"SYN130AAXX  16001 76458 32570 12904 10280 20216 30072 40083 57021 81200 92345 333 01100 10310 20243 30/// 50691 57814 58003 70000 81827;","Q01  00002PRCP99Q02  00003PRCP99"
"76458099999","2001-06-16T03:00:00","4","23.2","-106.4166666","4.0","COLONIA JUAN CARRASCO MAZATLAN SIN., MX","FM-12","99999","V020","310,1,N,0030,1","22000,1,9,N","008000,1,N,1","+0266,1","+0224,1","10100,1","99,0000,9,1",,,,,"00,1,+99999,9,99,9",,,"00,99,1,00,1,00,1,99999,9,00,1,00,1",,"01,9",,,,"99999,9,10089,1","2,1,017,1,+005,1",,,"SYN082AAXX  16031 76458 32958 03103 10266 20224 30089 40100 52017 90240 333 30/// 58005;","Q01  00002PRCP99"
"76458099999","2001-06-16T18:00:00","4","23.2","-106.4166666","4.0","COLONIA JUAN CARRASCO MAZATLAN SIN., MX","FM-12","99999","V020","250,1,N,0030,1","22000,1,9,N","018000,1,N,1","+0296,1","+0230,1","10115,1","99,0000,9,1",,,,,"01,1,+00450,9,02,9",,,"01,99,1,01,1,01,1,00800,1,00,1,00,1",,"01,9",,"120,M,+0320,1","240,N,+0250,1","99999,9,10104,1","7,1,018,1,-002,1",,,"SYN118AAXX  16181 76458 32568 12503 10296 20230 30104 40115 57018 81100 91750 333 01900 10320 20250 30/// 57899 59002 81815;","Q01  00002PRCP99"
"76458099999","2001-06-16T21:00:00","4","23.2","-106.4166666","4.0","COLONIA JUAN CARRASCO MAZATLAN SIN., MX","FM-12","99999","V020","270,1,N,0050,1","22000,1,9,N","018000,1,N,1","+0303,1","+0234,1","10096,1","99,0000,9,1",,,,,"01,1,+00870,9,09,9",,,"01,99,1,01,1,03,1,00800,1,00,1,00,1",,"01,9",,,,"99999,9,10084,1","7,1,020,1,-009,1",,,"SYN106AAXX  16211 76458 32568 12705 10303 20234 30084 40096 57020 81300 92050 333 01100 30/// 57913 59009 81929;","Q01  00002PRCP99"
"76458099999","2001-06-17T03:00:00","4","23.2","-106.4166666","4.0","COLONIA JUAN CARRASCO MAZATLAN SIN., MX","FM-12","99999","V020","300,1,N,0040,1","09000,1,C,N","010000,1,N,1","+0286,1","+0225,1","10108,1","99,0000,9,1",,,,,"01,1,+00750,9,06,9","02,1,+01800,9,03,9",,"05,99,1,01,1,05,1,00800,1,03,1,06,1",,"01,9",,,,"99999,9,10097,1","2,1,017,1,+008,1",,,"SYN118AAXX  17031 76458 32560 53004 10286 20225 30097 40108 52017 81536 90245 333 0/599 30/// 57650 58008 81625 82356 82070;","Q01  00002PRCP99"
"76458099999","2001-06-17T09:00:00","4","23.2","-106.4166666","4.0","COLONIA JUAN CARRASCO MAZATLAN SIN., MX","FM-12","99999","V020","110,1,N,0060,1","00210,1,9,N","008000,1,N,1","+0234,1","+0217,1","10140,1","06,0150,9,1",,,"5,1,03,1","5,1,03,1","08,1,+00210,9,09,9",,,"08,99,1,08,1,09,1,00150,1,00,1,00,1",,"01,9",,,,"99999,9,10129,1","2,1,013,1,+999,9",,"29,1","SYN112AAXX  17091 76458 11258 81106 10234 20217 30129 40140 52013 60151 72955 88900 90855 333 0/900 30/// 58/// 88907;",
"76458099999","2001-06-17T15:00:00","4","23.2","-106.4166666","4.0","COLONIA JUAN CARRASCO MAZATLAN SIN., MX","FM-12","99999","V020","100,1,N,0030,1","22000,1,9,N","020000,1,N,1","+0264,1","+0210,1","10133,1","99,0000,9,1",,,,,"04,1,+04200,9,07,9",,,"04,99,1,04,1,00,1,02250,1,03,1,00,1",,"09,9",,,,"99999,9,10122,1","8,1,005,1,+000,1",,,"SYN106AAXX  17151 76458 32870 41003 10264 20210 30122 40133 58005 84030 91445 333 0/090 31/// 57399 58000 84364;","Q01  00002PRCP99"
"76458099999","2001-06-17T21:00:00","4","23.2","-106.4166666","4.0","COLONIA JUAN CARRASCO MAZATLAN SIN., MX","FM-12","99999","V020","280,1,N,0030,1","03600,1,C,N","020000,1,N,1","+0306,1","+0238,1","10113,1","99,0000,9,1",,,,,"02,1,+00840,9,06,9",,,"07,99,1,02,1,05,1,00800,1,07,1,00,1",,"09,9",,,,"99999,9,10102,1","7,1,017,1,+018,1",,,"SYN112AAXX  17211 76458 32570 72803 10306 20238 30102 40113 57017 82570 92045 333 0/990 31/// 56690 58018 82628 85356;","Q01  00002PRCP99"
"76458099999","2001-06-18T00:00:00","4","23.2","-106.4166666","4.0","COLONIA JUAN CARRASCO MAZATLAN SIN., MX","FM-12","99999","V020","290,1,N,0050,1","99999,9,9,N","008000,1,N,1","+0300,1","+0238,1","10099,1","24,0240,9,1",,,,,"02,1,+00720,9,06,9",,,"07,99,1,03,1,05,1,99999,9,03,1,00,1",,"01,9",,"120,M,+0330,1","180,N,+0226,1","99999,9,10088,1","7,1,014,1,+008,1",,,"SYN130AAXX  18001 76458 32958 72905 10300 20238 30088 40099 57014 83530 92345 333 0/900 10330 20226 30/// 57690 58008 70240 82624 81822;",
"76458099999","2001-06-18T03:00:00","4","23.2","-106.4166666","4.0","COLONIA JUAN CARRASCO MAZATLAN SIN., MX","FM-12","99999","V020","320,1,N,0050,1","01800,1,9,N","010000,1,N,1","+0286,1","+0232,1","10110,1","99,0000,9,1",,,,,"06,1,+01800,9,07,9",,,"06,99,1,06,1,99,9,02250,1,03,1,00,1",,"01,9",,,,"99999,9,10099,1","2,1,011,1,+002,1",,,"SYN094AAXX  18031 76458 32860 63205 10286 20232 30099 40110 52011 86030 90245 333 30/// 58002 86356;","Q01+000002SCOLCGQ02  00002PRCP99"
"76458099999","2001-06-18T15:00:00","4","23.2","-106.4166666","4.0","COLONIA JUAN CARRASCO MAZATLAN SIN., MX","FM-12","99999","V020","170,1,N,0010,1","03600,1,C,N","012000,1,N,1","+0280,1","+0233,1","10126,1","99,0000,9,1",,,,,"01,1,+00600,9,08,9",,,"06,99,1,01,1,02,1,00450,1,03,1,99,9",,"01,9",,,,"99999,9,10115,1","1,1,006,1,-007,1",,,"SYN112AAXX  18151 76458 32462 61701 10280 20233 30115 40126 51006 8123/ 91455 333 023// 30/// 57835 59007 81820 85358;","Q01  00002PRCP99"
"76458099999","2001-06-19T00:00:00","4","23.2","-106.4166666","4.0","COLONIA JUAN CARRASCO MAZATLAN SIN., MX","FM-12","99999","V020","290,1,N,0060,1","22000,1,C,N","018000,1,N,1","+0306,1","+0251,1","10103,1","24,0000,9,1",,,,,"03,1,+02400,9,03,9","01,1,+05700,9,01,9",,"05,99,1,03,1,00,1,02250,1,05,1,09,1",,"01,9",,"120,M,+0328,1","180,N,+0259,1","99999,9,10092,1","7,1,007,1,+004,1",,,"SYN130AAXX  19001 76458 32868 52906 10306 20251 30092 40103 57007 83059 92350 333 0/019 10328 20259 30/// 58004 70000 83358 81169 81079;",
"76458099999","2001-06-19T03:00:00","4","23.2","-106.4166666","4.0","COLONIA JUAN CARRASCO MAZATLAN SIN., MX","FM-12","99999","V020","010,1,N,0020,1","02100,1,C,N","014000,1,N,1","+0278,1","+0234,1","10107,1","99,0000,9,1",,,,,"02,1,+02400,9,03,9",,,"06,99,1,06,1,05,1,02250,1,99,9,00,1",,"01,9",,,,"99999,9,10096,1","3,1,004,1,-003,1",,,"SYN106AAXX  19031 76458 32864 60102 10278 20234 30096 40107 53004 86500 90245 333 0/010 30/// 59003 82358 84464;","Q01+000002SCOMCGQ02  00002PRCP99"
"76458099999","2001-06-19T06:00:00","4","23.2","-106.4166666","4.0","COLONIA JUAN CARRASCO MAZATLAN SIN., MX","FM-12","99999","V020","270,1,N,0020,1","00480,1,9,N","010000,1,N,1","+0277,1","+0242,1","10122,1","99,0000,9,1",,,,,"06,1,+00480,9,05,9",,,"06,99,1,06,1,04,1,00450,1,00,1,00,1","0468,9","01,9",,"240,M,+0328,1","240,N,+0259,1","99999,9,10111,1","2,1,015,1,+999,9",,,"SYN118AAXX  19061 76458 32460 62702 10277 20242 30111 40122 52015 86400 90545 333 0/700 10328 20259 30/// 55078 58/// 86616;","Q01  00002PRCP99"
"76458099999","2001-06-19T09:00:00","4","23.2","-106.4166666","4.0","COLONIA JUAN CARRASCO MAZATLAN SIN., MX","FM-12","99999","V020","080,1,N,0020,1","00390,1,9,N","010000,1,N,1","+0272,1","+0239,1","10112,1","99,0000,9,1",,,,,"07,1,+00390,9,05,9",,,"07,99,1,07,1,04,1,00450,1,00,1,00,1",,"01,9",,,,"99999,9,10102,1","7,1,009,1,+999,9",,,"SYN100AAXX  19091 76458 32460 70802 10272 20239 30102 40112 57009 87400 90840 333 0/100 30/// 58/// 87613;","Q01  00002PRCP99"
"76458099999","2001-06-19T15:00:00","4","23.2","-106.4166666","4.0","COLONIA JUAN CARRASCO MAZATLAN SIN., MX","FM-12","99999","V020","999,9,C,0000,1","03600,1,C,N","012000,1,N,1","+0278,1","+0240,1","10128,1","99,0000,9,1",,,,,"02,1,+00480,9,08,9",,,"06,99,1,02,1,02,1,00450,1,06,1,99,9",,"01,9",,,,"99999,9,10116,1","3,1,013,1,+001,1",,,"SYN106AAXX  19151 76458 32462 60000 10278 20240 30116 40128 53013 8226/ 91459 333 30/// 578/3 58001 82816 84358;","Q01  00002PRCP99"
"76458099999","2001-06-19T18:00:00","4","23.2","-106.4166666","4.0","COLONIA JUAN CARRASCO MAZATLAN SIN., MX","FM-12","99999","V020","210,1,N,0030,1","22000,1,9,N","015000,1,N,1","+0308,1","+0240,1","10127,1","99,0000,9,1",,,,,"01,1,+00840,9,08,9",,,"03,99,1,01,1,02,1,00800,1,06,1,99,9",,"01,9",,"120,M,+0324,1","240,N,+0258,1","99999,9,10116,1","4,1,000,1,+004,1",,,"SYN124AAXX  19181 76458 32565 32103 10308 20240 30116 40127 54000 8126/ 91750 333 003// 10324 20258 30/// 57835 58004 81828 82358;","Q01  00002PRCP99"
"76458099999","2001-06-20T00:00:00","4","23.2","-106.4166666","4.0","COLONIA JUAN CARRASCO MAZATLAN SIN., MX","FM-12","99999","V020","010,1,N,0030,1","03600,1,9,N","018000,1,N,1","+0296,1","+0177,1","10100,1","24,0000,9,1",,,"9,1,06,1","0,1,06,1",,,,"07,99,1,02,1,03,1,01250,1,04,1,00,1",,"01,9",,"120,M,+0325,1","180,N,+0258,1","99999,9,10089,1","9,9,999,9,-003,1",,"03,1","SYN136AAXX  20001 76458 31668 70103 10296 20177 30089 40100 5//// 70390 82340 92350 333 00190 10325 20258 30/// 50601 57919 59003 70000 82950;","Q01  00002PRCP99Q02  00003PRCP99"
"76458099999","2001-06-20T03:00:00","4","23.2","-106.4166666","4.0","COLONIA JUAN CARRASCO MAZATLAN SIN., MX","FM-12","99999","V020","010,1,N,0030,1","22000,1,C,N","010000,1,N,1","+0267,1","+0185,1","10105,1","99,0000,9,1",,,,,"04,1,+03600,9,04,9",,,"06,99,1,04,1,00,1,02250,1,02,1,06,1",,"01,9",,,,"99999,9,10093,1","2,1,004,1,-003,1",,,"SYN112AAXX  20031 76458 32860 60103 10267 20185 30093 40105 52004 84026 90245 333 0/099 30/// 57499 59003 84462 82068;","Q01  00002PRCP99"
"76458099999","2001-06-20T06:00:00","4","23.2","-106.4166666","4.0","COLONIA JUAN CARRASCO MAZATLAN SIN., MX","FM-12","99999","V020","100,1,N,0020,1","22000,1,9,N","010000,1,N,1","+0265,1","+0213,1","10123,1","99,0000,9,1",,,,,"04,1,+02400,9,07,9",,,"04,99,1,04,1,99,9,02250,1,05,1,00,1","0396,9","01,9",,"240,M,+0325,1","240,N,+0258,1","99999,9,10113,1","2,1,019,1,+002,1",,,"SYN118AAXX  20061 76458 32860 41002 10265 20213 30113 40123 52019 84050 90550 333 0/090 10325 20258 30/// 55066 58002 84358;","Q01  00002PRCP99Q02    003SCOLCG"
"76458099999","2001-06-20T09:00:00","4","23.2","-106.4166666","4.0","COLONIA JUAN CARRASCO MAZATLAN SIN., MX","FM-12","99999","V020","150,1,N,0030,1","03600,1,C,N","010000,1,N,1","+0252,1","+0206,1","10128,1","99,0000,9,1",,,,,"02,1,+00570,9,06,9",,,"05,99,1,02,1,04,1,00450,1,05,1,00,1",,"01,9",,,,"99999,9,10114,1","2,1,004,1,+016,1",,,"SYN106AAXX  20091 76458 32460 51503 10252 20206 30114 40128 52004 82450 90840 333 0/110 30/// 58016 82619 83358;","Q01  00002PRCP99"
"76458099999","2001-06-20T15:00:00","4","23.2","-106.4166666","4.0","COLONIA JUAN CARRASCO MAZATLAN SIN., MX","FM-12","99999","V020","140,1,N,0020,1","03600,1,C,N","015000,1,N,1","+0278,1","+0213,1","10152,1","99,0000,9,1",,,,,"01,1,+00810,9,08,9",,,"05,99,1,01,1,02,1,00800,1,03,1,99,9",,"01,9",,,,"99999,9,10141,1","2,1,016,1,+025,1",,,"SYN112AAXX  20151 76458 32565 51402 10278 20213 30141 40152 52016 8123/ 91455 333 0/3// 30/// 57836 58025 81827 84358;","Q01  00002PRCP99"
"76458099999","2001-06-20T18:00:00","4","23.2","-106.4166666","4.0","COLONIA JUAN CARRASCO MAZATLAN SIN., MX","FM-12","99999","V020","180,1,N,0030,1","03600,1,9,N","015000,1,N,1","+0292,1","+0229,1","10155,1","99,0000,9,1",,,,,"06,1,+03600,9,07,9",,,"06,99,1,06,1,00,1,02250,1,03,1,00,1",,"01,9",,"120,M,+0306,1","240,N,+0249,1","99999,9,10143,1","0,1,002,1,+027,1",,,"SYN118AAXX  20181 76458 32865 61803 10292 20229 30143 40155 50002 86030 91750 333 0/090 10306 20249 30/// 57399 58027 86362;","Q01  00002PRCP99"
"76458099999","2001-06-20T21:00:00","4","23.2","-106.4166666","4.0","COLONIA JUAN CARRASCO MAZATLAN SIN., MX","FM-12","99999","V020","220,1,N,0040,1","22000,1,9,N","020000,1,N,1","+0314,1","+0232,1","10134,1","99,0000,9,1",,,,,"01,1,+01020,9,09,9",,,"02,99,1,01,1,03,1,01250,1,03,1,00,1",,"01,9",,,,"99999,9,10123,1","7,1,020,1,+013,1",,,"SYN112AAXX  20211 76458 32670 22204 10314 20232 30123 40134 57020 81330 92045 333 00190 30/// 57916 58013 81934 81364;","Q01  00002PRCP99"
"76458099999","2001-06-21T03:00:00","4","23.2","-106.4166666","4.0","COLONIA JUAN CARRASCO MAZATLAN SIN., MX","FM-12","99999","V020","320,1,N,0040,1","22000,1,9,N","014000,1,N,1","+0288,1","+0212,1","10122,1","99,0000,9,1",,,,,"01,1,+02700,9,03,9",,,"02,99,1,01,1,00,1,99999,9,03,1,05,1",,"01,9",,,,"99999,9,10111,1","3,1,012,1,+017,1",,,"SYN106AAXX  21031 76458 32964 23204 10288 20212 30111 40122 53012 81035 90245 333 0/099 30/// 58017 81359 81079;","Q01  00002PRCP99"
"76458099999","2001-06-21T06:00:00","4","23.2","-106.4166666","4.0","COLONIA JUAN CARRASCO MAZATLAN SIN., MX","FM-12","99999","V020","270,1,N,0020,1","22000,1,9,N","010000,1,N,1","+0202,1","+9999,9","10135,1","99,0000,9,1",,,,,"03,1,+02700,9,07,9",,,"03,99,1,03,1,00,1,99999,9,03,1,00,1","0486,9","01,9",,"240,M,+0332,1","240,N,+9999,9","99999,9,10124,1","2,1,013,1,+011,1",,,"SYN118AAXX  21061 76458 32960 32702 10202 20225 30124 40135 52013 83030 90545 333 0/090 10332 20249 30/// 55081 58011 83359;","Q01  00002PRCP99Q02 +02492ATMN  "
"76458099999","2001-06-21T09:00:00","4","23.2","-106.4166666","4.0","COLONIA JUAN CARRASCO MAZATLAN SIN., MX","FM-12","99999","V020","360,1,N,0020,1","22000,1,9,N","010000,1,N,1","+0265,1","+0206,1","10134,1","99,0000,9,1",,,,,"00,1,+99999,9,99,9",,,"00,99,1,00,1,00,1,99999,9,00,1,00,1",,"01,9",,,,"99999,9,10123,1","0,1,000,1,+007,1",,,"SYN082AAXX  21091 76458 32960 03602 10265 20206 30123 40134 50000 90840 333 30/// 58007;","Q01  00002PRCP99"
"76458099999","2001-06-21T15:00:00","4","23.2","-106.4166666","4.0","COLONIA JUAN CARRASCO MAZATLAN SIN., MX","FM-12","99999","V020","360,1,N,0010,1","02100,1,9,N","015000,1,N,1","+0274,1","+0206,1","10143,1","99,0000,9,1",,,,,,,,"07,99,1,07,1,00,1,02250,1,03,1,00,1",,"01,9",,,,"99999,9,10131,1","2,1,011,1,-010,1",,,"SYN106AAXX  21151 76458 32865 73601 10274 20206 30131 40143 52011 87030 91445 333 0/090 30/// 57399 59010 97362;","Q01  00002PRCP99"
"76458099999","2001-06-21T18:00:00","4","23.2","-106.4166666","4.0","COLONIA JUAN CARRASCO MAZATLAN SIN., MX","FM-12","99999","V020","200,1,N,0020,1","02100,1,9,N","012000,1,N,1","+0310,1","+0202,1","10146,1","99,0000,9,1",,,,,"06,1,+02100,9,07,9",,,"06,99,1,06,1,99,9,02250,1,06,1,00,1",,"01,9",,"120,M,+0327,1","240,N,+0259,1","99999,9,10136,1","2,1,004,1,-007,1",,,"SYN112AAXX  21181 76458 32862 62002 10310 20202 30136 40146 52004 86060 91755 333 0/090 10327 20259 30/// 59007 86357;","Q01+000002SCOLCGQ02  00002PRCP99"
"76458099999","2001-06-21T21:00:00","4","23.2","-106.4166666","4.0","COLONIA JUAN CARRASCO MAZATLAN SIN., MX","FM-12","99999","V020","230,1,N,0040,1","22000,1,9,N","018000,1,N,1","+0311,1","+0242,1","10128,1","99,0000,9,1",,,,,"01,1,+00870,9,09,9",,,"01,99,1,01,1,09,1,00800,1,00,1,00,1",,"01,9",,,,"99999,9,10117,1","7,1,019,1,-006,1",,,"SYN106AAXX  21211 76458 32568 12304 10311 20242 30117 40128 57019 81900 92050 333 07100 30/// 57916 59006 81929;","Q01  00002PRCP99"
"76458099999","2001-06-22T00:00:00","4","23.2","-106.4166666","4.0","COLONIA JUAN CARRASCO MAZATLAN SIN., MX","FM-12","99999","V020","250,1,N,0040,1","22000,1,9,N","020000,1,N,1","+0310,1","+0223,1","10114,1","24,0000,9,1",,,,,"02,1,+01110,9,09,9",,,"03,99,1,02,1,09,1,01250,1,03,1,00,1",,"01,9",,"120,M,+0333,1","180,N,+0259,1","99999,9,10103,1","7,1,014,1,+005,1",,,"SYN136AAXX  22001 76458 32670 32504 10310 20223 30103 40114 57014 82930 92345 333 07110 10333 20259 30/// 50480 57913 58005 70000 82937 81359;","Q01  00002PRCP99Q02  00003PRCP99"
"76458099999","2001-06-22T06:00:00","4","23.2","-106.4166666","4.0","COLONIA JUAN CARRASCO MAZATLAN SIN., MX","FM-12","99999","V020","270,1,N,0020,1","22000,1,9,N","010000,1,N,1","+0284,1","+0223,1","10131,1","99,0000,9,1",,,,,"00,1,+99999,9,99,9",,,"00,99,1,00,1,00,1,99999,9,00,1,00,1",,"01,9",,"240,M,+0333,1","240,N,+0259,1","99999,9,10120,1","2,1,006,1,-004,1",,,"SYN094AAXX  22061 76458 32960 02702 10284 20223 30120 40131 52006 90540 333 10333 20259 30/// 59004;","Q01  00002PRCP99"
"76458099999","2001-06-22T09:00:00","4","23.2","-106.4166666","4.0","COLONIA JUAN CARRASCO MAZATLAN SIN., MX","FM-12","99999","V020","999,9,C,0000,1","22000,1,9,N","010000,1,N,1","+0282,1","+0224,1","10124,1","99,0000,9,1",,,,,"00,1,+99999,9,99,9",,,"00,99,1,00,1,00,1,99999,9,00,1,00,1",,"01,9",,,,"99999,9,10113,1","7,1,002,1,-010,1",,,"SYN082AAXX  22091 76458 32960 00000 10282 20224 30113 40124 57002 90830 333 30/// 59010;","Q01  00002PRCP99"
"76458099999","2001-06-22T15:00:00","4","23.2","-106.4166666","4.0","COLONIA JUAN CARRASCO MAZATLAN SIN., MX","FM-12","99999","V020","200,1,N,0020,1","22000,1,9,N","015000,1,N,1","+0288,1","+0221,1","10131,1","99,0000,9,1",,,,,"00,1,+99999,9,99,9",,,"00,99,1,00,1,00,1,99999,9,00,1,00,1",,"01,9",,,,"99999,9,10120,1","1,1,001,1,-011,1",,,"SYN082AAXX  22151 76458 32965 02002 10288 20221 30120 40131 51001 91455 333 30/// 59011;","Q01  00002PRCP99"
"76458099999","2001-06-22T18:00:00","4","23.2","-106.4166666","4.0","COLONIA JUAN CARRASCO MAZATLAN SIN., MX","FM-12","99999","V020","230,1,N,0040,1","22000,1,9,N","015000,1,N,1","+0305,1","+0243,1","10116,1","99,0000,9,1",,,,,"00,1,+99999,9,99,9",,,"00,99,1,00,1,00,1,99999,9,00,1,00,1",,"01,9",,"120,M,+0321,1","240,N,+0250,1","99999,9,10105,1","7,1,015,1,-031,1",,,"SYN094AAXX  22181 76458 32965 02304 10305 20243 30105 40116 57015 91745 333 10321 20250 30/// 59031;","Q01  00002PRCP99"
"76458099999","2001-06-22T21:00:00","4","23.2","-106.4166666","4.0","COLONIA JUAN CARRASCO MAZATLAN SIN., MX","FM-12","99999","V020","270,1,N,0040,1","22000,1,9,N","018000,1,N,1","+0211,1","+9999,9","10100,1","99,0000,9,1",,,,,"01,1,+00480,9,09,9",,,"01,99,1,01,1,03,1,00800,1,00,1,00,1",,"01,9",,,,"99999,9,10089,1","7,1,016,1,-028,1",,,"SYN106AAXX  22211 76458 32568 12704 10211 20249 30089 40100 57016 81300 92050 333 00100 30/// 57916 59028 81916;","Q01  00002PRCP99"
"76458099999","2001-06-23T00:00:00","4","23.2","-106.4166666","4.0","COLONIA JUAN CARRASCO MAZATLAN SIN., MX","FM-12","99999","V020","310,1,N,0040,1","22000,1,9,N","020000,1,N,1","+0312,1","+0242,1","10104,1","99,0000,9,1",,,,,,,,"01,99,1,01,1,09,1,00800,1,00,1,00,1",,"01,9",,"120,M,+0332,1","180,N,+0250,1","99999,9,10093,1","5,1,004,1,-009,1",,,"SYN124AAXX  23001 76458 32570 13104 10312 20242 30093 40104 55004 81900 92350 333 0/100 10332 20250 30/// 50481 5791/ 59009 81922;","Q01  00002PRCP99"
"76458099999","2001-06-23T03:00:00","4","23.2","-106.4166666","4.0","COLONIA JUAN CARRASCO MAZATLAN SIN., MX","FM-12","99999","V020","300,1,N,0050,1","22000,1,9,N","008000,1,N,1","+0292,1","+0252,1","10106,1","99,0000,9,1",,,,,"01,1,+06000,9,01,9",,,"01,99,1,00,1,00,1,99999,9,00,1,02,1",,"01,9",,,,"99999,9,10096,1","5,1,006,1,-023,1",,,"SYN094AAXX  23031 76458 32958 13005 10292 20252 30096 40106 55006 80002 90245 333 30/// 59023 81070;","Q01  00002PRCP99"
"76458099999","2001-06-23T09:00:00","4","23.2","-106.4166666","4.0","COLONIA JUAN CARRASCO MAZATLAN SIN., MX","FM-12","99999","V020","340,1,N,0010,1","22000,1,9,N","008000,1,N,1","+0280,1","+0253,1","10115,1",,,,,,"00,1,+99999,9,99,9",,,"00,99,1,00,1,00,1,99999,9,00,1,00,1",,"01,9",,,,"99999,9,10104,1","7,1,007,1,-007,1",,,"SYN082AAXX  23091 76458 43958 03401 10280 20253 30104 40115 57007 90830 333 30/// 59007;",
"76458099999","2001-06-23T15:00:00","4","23.2","-106.4166666","4.0","COLONIA JUAN CARRASCO MAZATLAN SIN., MX","FM-12","99999","V020","140,1,N,0030,1","22000,1,9,N","012000,1,N,1","+0292,1","+0249,1","10127,1","99,0000,9,1",,,,,"01,1,+00540,9,02,9",,,"01,99,1,01,1,01,1,00450,1,00,1,00,1",,"01,9",,,,"99999,9,10116,1","2,1,012,1,-004,1",,,"SYN100AAXX  23151 76458 32462 11403 10292 20249 30116 40127 52012 81100 91455 333 003// 30/// 59004 81818;","Q01  00002PRCP99"
"76458099999","2001-06-23T18:00:00","4","23.2","-106.4166666","4.0","COLONIA JUAN CARRASCO MAZATLAN SIN., MX","FM-12","99999","V020","270,1,N,0040,1","22000,1,9,N","015000,1,N,1","+0307,1","+0255,1","10111,1","99,0000,9,1",,,,,"01,1,+00660,9,02,9",,,"01,99,1,01,1,01,1,00800,1,00,1,00,1",,"01,9",,"120,M,+0331,1","240,N,+0265,1","99999,9,10100,1","7,1,016,1,-005,1",,,"SYN118AAXX  23181 76458 32565 12704 10307 20255 30100 40111 57016 81100 91750 333 0/100 10331 20265 30/// 57819 59005 81822;","Q01  00002PRCP99"
"76458099999","2001-06-23T21:00:00","4","23.2","-106.4166666","4.0","COLONIA JUAN CARRASCO MAZATLAN SIN., MX","FM-12","99999","V020","250,1,N,0050,1","22000,1,9,N","018000,1,N,1","+0318,1","+0263,1","10097,1","99,0000,9,1",,,,,"01,1,+00690,9,02,9",,,"01,99,1,01,1,02,1,00800,1,00,1,00,1",,"01,9",,,,"99999,9,10086,1","7,1,014,1,-003,1",,,"SYN106AAXX  23211 76458 32568 12505 10318 20263 30086 40097 57014 81200 92050 333 0/100 30/// 57816 59003 81823;","Q01  00002PRCP99"
"76458099999","2001-06-24T00:00:00","4","23.2","-106.4166666","4.0","COLONIA JUAN CARRASCO MAZATLAN SIN., MX","FM-12","99999","V020","300,1,N,0040,1","22000,1,9,N","018000,1,N,1","+0306,1","+0258,1","10097,1","24,0000,9,1",,,,,"02,1,+00900,9,09,9",,,"03,99,1,03,1,09,1,00800,1,00,1,00,1",,"01,9",,"120,M,+0334,1","180,N,+0265,1","99999,9,10086,1","5,1,000,1,-007,1",,,"SYN130AAXX  24001 76458 32568 33004 10306 20258 30086 40097 55000 83900 92345 333 0/100 10334 20265 30/// 57911 59007 70000 82930 81820;",
"76458099999","2001-06-24T03:00:00","4","23.2","-106.4166666","4.0","COLONIA JUAN CARRASCO MAZATLAN SIN., MX","FM-12","99999","V020","320,1,N,0020,1","22000,1,9,N","008000,1,N,1","+0290,1","+0250,1","10116,1","99,0000,9,1",,,,,"01,1,+01800,9,07,9",,,"01,99,1,01,1,99,9,02250,1,03,1,00,1",,"01,9",,,,"99999,9,10105,1","2,1,019,1,+009,1",,,"SYN094AAXX  24031 76458 32858 13202 10290 20250 30105 40116 52019 81030 90240 333 30/// 58009 81356;","Q01+000002SCOLCGQ02  00002PRCP99"
"76458099999","2001-06-24T06:00:00","4","23.2","-106.4166666","4.0","COLONIA JUAN CARRASCO MAZATLAN SIN., MX","FM-12","99999","V020","290,1,N,0030,1","22000,1,9,N","008000,1,N,1","+0294,1","+0246,1","10131,1","99,0000,9,1",,,,,"03,1,+01800,9,07,9",,,"03,99,1,03,1,99,9,02250,1,06,1,00,1","0630,9","01,9",,"240,M,+0334,1","240,N,+0265,1","99999,9,10120,1","1,1,015,1,+010,1",,,"SYN112AAXX  24061 76458 32858 32903 10294 20246 30120 40131 51015 83060 90540 333 10334 20265 30/// 55105 58010 83356;","Q01+000002SCOLCGQ02  00002PRCP99"
"76458099999","2001-06-24T09:00:00","4","23.2","-106.4166666","4.0","COLONIA JUAN CARRASCO MAZATLAN SIN., MX","FM-12","99999","V020","220,1,N,0030,1","22000,1,9,N","008000,1,N,1","+0284,1","+0246,1","10118,1","99,0000,9,1",,,,,"00,1,+99999,9,99,9",,,"00,99,1,00,1,00,1,99999,9,00,1,00,1",,"01,9",,,,"99999,9,10107,1","7,1,013,1,+003,1",,,"SYN082AAXX  24091 76458 32958 02203 10284 20246 30107 40118 57013 90840 333 30/// 58003;","Q01  00002PRCP99"
"76458099999","2001-06-24T12:00:00","4","23.2","-106.4166666","4.0","COLONIA JUAN CARRASCO MAZATLAN SIN., MX","FM-12","99999","V020","999,9,C,0000,1","22000,1,9,N","010000,1,N,1","+0280,1","+0245,1","10112,1","24,0000,9,1",,,,,"02,1,+00450,9,06,9",,,"03,99,1,02,1,04,1,00450,1,03,1,00,1",,"01,9","999,+0250,9","999,M,+0334,1","120,N,+0279,1","99999,9,10101,1","7,1,005,1,+010,1",,,"SYN130AAXX  24121 76458 32460 30000 10280 20245 30101 40112 57005 82430 91150 333 0/900 10334 20279 30025 57690 58010 70000 82615 81362;",
"76458099999","2001-06-24T15:00:00","4","23.2","-106.4166666","4.0","COLONIA JUAN CARRASCO MAZATLAN SIN., MX","FM-12","99999","V020","140,1,N,0030,1","22000,1,9,N","018000,1,N,1","+0301,1","+0247,1","10123,1","99,0000,9,1",,,,,"01,1,+00660,9,08,9",,,"02,99,1,01,1,01,1,00800,1,03,1,00,1",,"01,9",,,,"99999,9,10112,1","2,1,011,1,-004,1",,,"SYN112AAXX  24151 76458 32568 21403 10301 20247 30112 40123 52011 81130 91445 333 0/290 30/// 57829 59004 81822 81362;","Q01  00002PRCP99"
"76458099999","2001-06-24T18:00:00","4","23.2","-106.4166666","4.0","COLONIA JUAN CARRASCO MAZATLAN SIN., MX","FM-12","99999","V020","230,1,N,0040,1","22000,1,9,N","018000,1,N,1","+0314,1","+0247,1","10119,1","99,0000,9,1",,,,,"01,1,+00840,9,08,9",,,"02,99,1,02,1,02,1,00800,1,03,1,00,1",,"01,9",,"120,M,+0334,1","240,N,+0279,1","99999,9,10108,1","8,1,004,1,+008,1",,,"SYN124AAXX  24181 76458 32568 22304 10314 20247 30108 40119 58004 82230 91755 333 01190 10334 20279 30/// 57815 58008 81828 81356;","Q01  00002PRCP99"
"76458099999","2001-06-24T21:00:00","4","23.2","-106.4166666","4.0","COLONIA JUAN CARRASCO MAZATLAN SIN., MX","FM-12","99999","V020","280,1,N,0040,1","03600,1,C,N","018000,1,N,1","+0314,1","+0232,1","10107,1","99,0000,9,1",,,,,"01,1,+01020,9,09,9",,,"05,99,1,01,1,09,1,01250,1,02,1,00,1",,"01,9",,,,"99999,9,10096,1","8,1,012,1,+010,1",,,"SYN112AAXX  24211 76458 32668 52804 10314 20232 30096 40107 58012 81920 92045 333 01109 30/// 57914 58010 81934 84070;","Q01  00002PRCP99"
"76458099999","2001-06-25T00:00:00","4","23.2","-106.4166666","4.0","COLONIA JUAN CARRASCO MAZATLAN SIN., MX","FM-12","99999","V020","290,1,N,0040,1","09000,1,9,N","018000,1,N,1","+0314,1","+0223,1","10089,1","24,0000,9,1",,,,,"02,1,+01140,9,09,9",,,"05,99,1,02,1,09,1,01250,1,03,1,02,1",,"01,9",,"120,M,+0335,1","180,N,+0279,1","99999,9,10078,1","7,1,018,1,-008,1",,,"SYN130AAXX  25001 76458 32668 52904 10314 20223 30078 40089 57018 82932 92345 333 0/199 10335 20279 30/// 57911 59008 70000 82938 82356;",
"76458099999","2001-06-25T03:00:00","4","23.2","-106.4166666","4.0","COLONIA JUAN CARRASCO MAZATLAN SIN., MX","FM-12","99999","V020","290,1,N,0030,1","22000,1,9,N","008000,1,N,1","+0298,1","+0214,1","10097,1","99,0000,9,1",,,,,"00,1,+99999,9,99,9",,,"00,99,1,00,1,00,1,99999,9,00,1,00,1",,"01,9",,,,"99999,9,10086,1","2,1,010,1,-017,1",,,"SYN082AAXX  25031 76458 32958 02903 10298 20214 30086 40097 52010 90245 333 30/// 59017;","Q01  00002PRCP99"
"76458099999","2001-06-25T15:00:00","4","23.2","-106.4166666","4.0","COLONIA JUAN CARRASCO MAZATLAN SIN., MX","FM-12","99999","V020","140,1,N,0030,1","22000,1,9,N","015000,1,N,1","+0295,1","+0233,1","10118,1","99,0000,9,1",,,,,,,,"01,99,1,01,1,02,1,00800,1,99,9,99,9",,"01,9",,,,"99999,9,10107,1","3,1,009,1,-005,1",,,"SYN105AAXX  25151 76458 32565 11403 10295 20233 30107 40118 53009 812// 91450 333 016// 30/// 5786 59005 81826;","Q01  00002PRCP99"
"76458099999","2001-06-25T18:00:00","4","23.2","-106.4166666","4.0","COLONIA JUAN CARRASCO MAZATLAN SIN., MX","FM-12","99999","V020","180,1,N,0030,1","22000,1,9,N","015000,1,N,1","+0318,1","+0224,1","10119,1","99,0000,9,1",,,,,"01,1,+01080,9,02,9",,,"01,99,1,01,1,01,1,01250,1,99,9,99,9",,"01,9",,"120,M,+0332,1","240,N,+0272,1","99999,9,10108,1","1,1,001,1,+000,1",,,"SYN112AAXX  25181 76458 32665 11803 10318 20224 30108 40119 51001 811// 91755 333 003// 10332 20272 30/// 58000 81836;","Q01  00002PRCP99"
"76458099999","2001-06-25T21:00:00","4","23.2","-106.4166666","4.0","COLONIA JUAN CARRASCO MAZATLAN SIN., MX","FM-12","99999","V020","250,1,N,0050,1","22000,1,9,N","020000,1,N,1","+0316,1","+0215,1","10105,1","99,0000,9,1",,,,,"01,1,+01260,9,09,9","01,1,+02400,9,03,9",,"03,99,1,01,1,09,1,01250,1,05,1,05,1",,"01,9",,,,"99999,9,10094,1","7,1,014,1,-002,1",,,"SYN118AAXX  25211 76458 32670 32505 10316 20215 30094 40105 57014 81955 92055 333 07119 30/// 57914 59002 81942 81358 81079;","Q01  00002PRCP99"
"76458099999","2001-06-26T00:00:00","4","23.2","-106.4166666","4.0","COLONIA JUAN CARRASCO MAZATLAN SIN., MX","FM-12","99999","V020","270,1,N,0030,1","22000,1,9,N","018000,1,N,1","+0314,1","+0235,1","10090,1","24,0000,9,1",,,,,"02,1,+02400,9,03,9",,,"04,99,1,02,1,00,1,02250,1,06,1,05,1",,"01,9",,"120,M,+0338,1","180,N,+0272,1","99999,9,10079,1","7,1,015,1,+001,1",,,"SYN130AAXX  26001 76458 32868 42703 10314 20235 30079 40090 57015 82065 92350 333 0/019 10338 20272 30/// 50690 58001 70000 82358 82072;",
"76458099999","2001-06-26T03:00:00","4","23.2","-106.4166666","4.0","COLONIA JUAN CARRASCO MAZATLAN SIN., MX","FM-12","99999","V020","240,1,N,0030,1","22000,1,9,N","014000,1,N,1","+0294,1","+0237,1","10103,1","99,0000,9,1",,,,,"04,1,+02400,9,02,9",,,"04,99,1,04,1,05,1,02250,1,00,1,00,1",,"01,9",,,,"99999,9,10092,1","2,1,013,1,+005,1",,,"SYN100AAXX  26031 76458 32864 42403 10294 20237 30092 40103 52013 84500 90250 333 0/010 30/// 58005 84858;","Q01  00002PRCP99"
"76458099999","2001-06-26T09:00:00","4","23.2","-106.4166666","4.0","COLONIA JUAN CARRASCO MAZATLAN SIN., MX","FM-12","99999","V020","210,1,N,0010,1","22000,1,9,N","008000,1,N,1","+0282,1","+0224,1","10112,1","99,0000,9,1",,,,,"02,1,+02100,9,07,9",,,"02,99,1,02,1,99,9,99999,9,03,1,00,1",,"01,9",,,,"99999,9,10101,1","7,1,006,1,+006,1",,,"SYN100AAXX  26091 76458 32958 22101 10282 20224 30101 40112 57006 82030 90830 333 0/090 30/// 58006 82357;","Q01+000002SCOLCGQ02  00002PRCP99"
"76458099999","2001-06-26T21:00:00","4","23.2","-106.4166666","4.0","COLONIA JUAN CARRASCO MAZATLAN SIN., MX","FM-12","99999","V020","090,1,N,0030,1","02100,1,9,N","018000,1,N,1","+0303,1","+0209,1","10126,1","99,0000,9,1",,,,,"07,1,+02100,9,07,9",,,"07,99,1,07,1,99,9,02250,1,05,1,00,1",,"01,9",,,,"99999,9,10115,1","7,1,024,1,-021,1",,,"SYN100AAXX  26211 76458 32868 70903 10303 20209 30115 40126 57024 87050 92055 333 0/010 30/// 59021 87357;","Q01+000002SCOLCGQ02  00002PRCP99"
"76458099999","2001-06-27T00:00:00","4","23.2","-106.4166666","4.0","COLONIA JUAN CARRASCO MAZATLAN SIN., MX","FM-12","99999","V020","230,1,N,0040,1","22000,1,9,N","020000,1,N,1","+0322,1","+0205,1","10104,1","24,0000,9,1",,,,,,,,"04,99,1,04,1,00,1,02250,1,03,1,00,1",,"01,9",,"120,M,+0342,1","180,N,+0272,1","99999,9,10093,1","7,1,022,1,-014,1",,,"SYN130AAXX  27001 76458 32870 42304 10322 20205 30093 40104 57022 84030 92350 333 0/090 10342 20272 30/// 50381 57399 59014 70000 84362;","Q01  00002PRCP99Q02  00003PRCP99"
"76458099999","2001-06-27T03:00:00","4","23.2","-106.4166666","4.0","COLONIA JUAN CARRASCO MAZATLAN SIN., MX","FM-12","99999","V020","260,1,N,0030,1","03600,1,9,N","010000,1,N,1","+0292,1","+0235,1","10115,1","99,0000,9,1",,,,,"05,1,+03600,9,03,9",,,"06,99,1,05,1,00,1,02250,1,03,1,06,1",,"01,9",,,,"99999,9,10104,1","3,1,011,1,+012,1",,,"SYN112AAXX  27031 76458 32860 62603 10292 20235 30104 40115 53011 85036 90245 333 0/999 30/// 57399 58012 85362 81068;","Q01  00002PRCP99"
"76458099999","2001-06-27T09:00:00","4","23.2","-106.4166666","4.0","COLONIA JUAN CARRASCO MAZATLAN SIN., MX","FM-12","99999","V020","290,1,N,0020,1","03600,1,9,N","008000,1,N,1","+0281,1","+0253,1","10133,1","99,0000,9,1",,,,,"02,1,+00360,9,02,9",,,"05,99,1,02,1,02,1,00450,1,02,1,00,1",,"01,9",,,,"99999,9,10123,1","7,1,007,1,+020,1",,,"SYN100AAXX  27091 76458 32458 52902 10281 20253 30123 40133 57007 82220 90830 333 0/490 30/// 58020 82512;","Q01  00002PRCP99"
"76458099999","2001-06-27T15:00:00","4","23.2","-106.4166666","4.0","COLONIA JUAN CARRASCO MAZATLAN SIN., MX","FM-12","99999","V020","340,1,N,0030,1","03600,1,9,N","015000,1,N,1","+0283,1","+0251,1","10141,1","99,0000,9,1",,,,,"07,1,+03600,9,07,9",,,"07,99,1,07,1,00,1,02250,1,03,1,00,1",,"01,9",,,,"99999,9,10130,1","2,1,008,1,+003,1",,,"SYN106AAXX  27151 76458 32865 73403 10283 20251 30130 40141 52008 87030 91445 333 0/090 30/// 57399 58003 87362;","Q01  00002PRCP99"
"76458099999","2001-06-27T18:00:00","4","23.2","-106.4166666","4.0","COLONIA JUAN CARRASCO MAZATLAN SIN., MX","FM-12","99999","V020","270,1,N,0040,1","03600,1,C,N","018000,1,N,1","+0305,1","+0249,1","10137,1","99,0000,9,1",,,,,"02,1,+00690,9,08,9",,,"05,99,1,02,1,02,1,00800,1,03,1,00,1",,"01,9",,"120,M,+0325,1","240,N,+0270,1","99999,9,10126,1","8,1,003,1,-012,1",,,"SYN124AAXX  27181 76458 32568 52704 10305 20249 30126 40137 58003 82230 91755 333 05190 10325 20270 30/// 57816 59012 82823 83359;","Q01  00002PRCP99"
"76458099999","2001-06-27T21:00:00","4","23.2","-106.4166666","4.0","COLONIA JUAN CARRASCO MAZATLAN SIN., MX","FM-12","99999","V020","270,1,N,0060,1","22000,1,9,N","020000,1,N,1","+0316,1","+0245,1","10116,1","99,0000,9,1",,,,,"02,1,+00870,9,09,9",,,"03,99,1,02,1,09,1,00800,1,03,1,00,1",,"01,9",,,,"99999,9,10105,1","7,1,021,1,-010,1",,,"SYN112AAXX  27211 76458 32570 32706 10316 20245 30105 40116 57021 82930 92050 333 07190 30/// 57915 59010 82929 81079;","Q01  00002PRCP99"
"76458099999","2001-06-28T00:00:00","4","23.2","-106.4166666","4.0","COLONIA JUAN CARRASCO MAZATLAN SIN., MX","FM-12","99999","V020","270,1,N,0050,1","22000,1,9,N","014000,1,N,1","+0311,1","+0244,1","10102,1","24,0000,9,1",,,,,"01,1,+00840,9,09,9",,,"04,99,1,01,1,09,1,00800,1,02,1,05,1",,"01,9",,"120,M,+0335,1","180,N,+0270,1","99999,9,10091,1","7,1,014,1,-001,1",,,"SYN136AAXX  28001 76458 32564 42705 10311 20244 30091 40102 57014 81925 92350 333 07219 10335 20270 30/// 50610 57924 59001 70000 81928 82461;","Q01  00002PRCP99Q02  00003PRCP99"
"76458099999","2001-06-28T03:00:00","4","23.2","-106.4166666","4.0","COLONIA JUAN CARRASCO MAZATLAN SIN., MX","FM-12","99999","V020","310,1,N,0040,1","99999,9,9,N","012000,1,N,1","+0300,1","+0236,1","10112,1","99,0000,9,1",,,,,"02,1,+02700,9,03,9",,,"05,99,1,02,1,00,1,99999,9,03,1,03,1",,"01,9",,,,"99999,9,10101,1","2,1,010,1,-003,1",,,"SYN106AAXX  28031 76458 32962 53104 10300 20236 30101 40112 52010 82033 90250 333 0/099 30/// 59003 82359 83276;","Q01  00002PRCP99"
"76458099999","2001-06-28T06:00:00","4","23.2","-106.4166666","4.0","COLONIA JUAN CARRASCO MAZATLAN SIN., MX","FM-12","99999","V020","240,1,N,0030,1","00390,1,9,N","008000,1,N,1","+0284,1","+0252,1","10136,1","03,0040,9,2","24,0031,9,2",,"6,1,06,1","6,1,06,1","08,1,+00390,9,05,9",,,"08,99,1,08,1,02,1,00450,1,00,1,00,1",,"09,9",,"240,M,+0335,1","240,N,+0270,1","99999,9,10125,1","2,1,024,1,-005,1",,"60,1","SYN142AAXX  28061 76458 21458 82403 10284 20252 30125 40136 52024 60031 76066 88200 90550 333 0/900 10335 20270 31/// 55295 59005 60047 70031 88613;",
"76458099999","2001-06-28T15:00:00","4","23.2","-106.4166666","4.0","COLONIA JUAN CARRASCO MAZATLAN SIN., MX","FM-12","99999","V020","340,1,N,0020,1","22000,1,9,N","020000,1,N,1","+0294,1","+0225,1","10130,1","99,0000,2,1",,,,,"02,1,+06000,9,01,9",,,"02,99,1,00,1,00,1,99999,9,00,1,01,1",,"01,9",,,,"99999,9,10119,1","8,1,001,1,-011,1",,,"SYN100AAXX  28151 76458 32970 23402 10294 20225 30119 40130 58001 80001 91450 333 30/// 56009 59011 82070;",
"76458099999","2001-06-28T18:00:00","4","23.2","-106.4166666","4.0","COLONIA JUAN CARRASCO MAZATLAN SIN., MX","FM-12","99999","V020","260,1,N,0040,1","09000,1,C,N","020000,1,N,1","+0319,1","+0245,1","10126,1","99,0000,2,1",,,,,"01,1,+00900,9,08,9","03,1,+02400,9,03,9",,"05,99,1,01,1,02,1,00800,1,03,1,02,1",,"01,9",,"120,M,+0333,1","240,N,+0252,1","99999,9,10115,1","6,1,004,1,-011,1",,,"SYN130AAXX  28181 76458 32570 52604 10319 20245 30115 40126 56004 81232 91755 333 0/1// 10333 20252 30/// 57815 59011 81830 83358 81070;",
"76458099999","2001-06-28T21:00:00","4","23.2","-106.4166666","4.0","COLONIA JUAN CARRASCO MAZATLAN SIN., MX","FM-12","99999","V020","270,1,N,0050,1","22000,1,9,N","016000,1,N,1","+0315,1","+0244,1","10111,1","99,0000,9,1",,,,,"01,1,+00900,9,09,9",,,"02,99,1,01,1,09,1,00800,1,03,1,00,1",,"01,9",,,,"99999,9,10100,1","7,1,015,1,-005,1",,,"SYN112AAXX  28211 76458 32566 22705 10315 20244 30100 40111 57015 81930 92050 333 07190 30/// 57912 59005 81930 81361;","Q01  00002PRCP99"
"76458099999","2001-06-29T00:00:00","4","23.2","-106.4166666","4.0","COLONIA JUAN CARRASCO MAZATLAN SIN., MX","FM-12","99999","V020","300,1,N,0040,1","03600,1,9,N","012000,1,N,1","+0302,1","+0248,1","10118,1","24,0058,9,1","99,0000,9,1",,,,"04,1,+00690,9,06,9",,,"06,99,1,04,1,05,1,00800,1,06,1,00,1",,"01,9",,"120,M,+0335,1","180,N,+0252,1","99999,9,10108,1","5,1,008,1,+017,1",,,"SYN136AAXX  29001 76458 32562 63004 10302 20248 30108 40118 55008 84560 92345 333 0/990 10335 20252 30/// 50611 57690 58017 70058 84623 82356;","Q01  00002PRCP99"
"76458099999","2001-06-29T03:00:00","4","23.2","-106.4166666","4.0","COLONIA JUAN CARRASCO MAZATLAN SIN., MX","FM-12","99999","V020","999,9,C,0000,1","22000,1,9,N","008000,1,N,1","+0298,1","+0241,1","10111,1","99,0000,9,1",,,,,"02,1,+01800,9,03,9",,,"04,99,1,02,1,00,1,02250,1,03,1,02,1",,"01,9",,,,"99999,9,10100,1","3,1,008,1,-001,1",,,"SYN100AAXX  29031 76458 32858 40000 10298 20241 30100 40111 53008 82032 90245 333 30/// 59001 82356 82070;","Q01  00002PRCP99"
"76458099999","2001-06-29T15:00:00","4","23.2","-106.4166666","4.0","COLONIA JUAN CARRASCO MAZATLAN SIN., MX","FM-12","99999","V020","120,1,N,0020,1","22000,1,9,N","018000,1,N,1","+0302,1","+0240,1","10124,1","99,0000,9,1",,,,,"02,1,+02400,9,03,9",,,"03,99,1,02,1,00,1,99999,9,03,1,02,1",,"01,9",,,,"99999,9,10113,1","1,1,021,1,-006,1",,,"SYN100AAXX  29151 76458 32968 31202 10302 20240 30113 40124 51021 82032 91455 333 30/// 59006 82358 81070;","Q01  00002PRCP99"
"76458099999","2001-06-29T18:00:00","4","23.2","-106.4166666","4.0","COLONIA JUAN CARRASCO MAZATLAN SIN., MX","FM-12","99999","V020","270,1,N,0040,1","22000,1,9,N","020000,1,N,1","+0317,1","+0250,1","10124,1","99,0000,9,1",,,,,"01,1,+00840,9,08,9",,,"02,99,1,01,1,02,1,00800,1,00,1,01,1",,"01,9",,"120,M,+0337,1","240,N,+0270,1","99999,9,10113,1","5,1,000,1,-002,1",,,"SYN124AAXX  29181 76458 32570 22704 10317 20250 30113 40124 55000 81201 91750 333 0/109 10337 20270 30/// 57819 59002 81828 81070;","Q01  00002PRCP99"
"76458099999","2001-06-29T21:00:00","4","23.2","-106.4166666","4.0","COLONIA JUAN CARRASCO MAZATLAN SIN., MX","FM-12","99999","V020","270,1,N,0050,1","22000,1,9,N","020000,1,N,1","+0318,1","+0251,1","10098,1","99,0000,9,1",,,,,"01,1,+00840,9,09,9",,,"03,99,1,01,1,03,1,00800,1,00,1,06,1",,"01,9",,,,"99999,9,10087,1","7,1,020,1,-013,1",,,"SYN112AAXX  29211 76458 32570 32705 10318 20251 30087 40098 57020 81306 92050 333 00109 30/// 57916 59013 81928 82068;","Q01  00002PRCP99"
"76458099999","2001-06-30T09:00:00","4","23.2","-106.4166666","4.0","COLONIA JUAN CARRASCO MAZATLAN SIN., MX","FM-12","99999","V020","010,1,N,0010,1","22000,1,9,N","008000,1,N,1","+0282,1","+0205,1","10113,1","99,0000,9,1",,,,,"04,1,+02400,9,07,9",,,"04,99,1,04,1,99,9,99999,9,03,1,00,1",,"01,9",,,,"99999,9,10102,1","7,1,002,1,-004,1",,,"SYN100AAXX  30091 76458 32958 40101 10282 20205 30102 40113 57002 84030 90830 333 0/090 30/// 59004 84358;","Q01  00002PRCP99Q02    003SCOLCG"
"76458099999","2001-06-30T15:00:00","4","23.2","-106.4166666","4.0","COLONIA JUAN CARRASCO MAZATLAN SIN., MX","FM-12","99999","V020","130,1,N,0030,1","22000,1,9,N","018000,1,N,1","+0288,1","+0212,1","10126,1","99,0000,9,1",,,,,"02,1,+06000,9,01,9",,,"02,99,1,00,1,00,1,99999,9,00,1,01,1",,"01,9",,,,"99999,9,10114,1","0,1,001,1,+000,1",,,"SYN094AAXX  30151 76458 32968 21303 10288 20212 30114 40126 50001 80001 91450 333 30/// 58000 82070;","Q01  00002PRCP99"
"76458099999","2001-07-01T00:00:00","4","23.2","-106.4166666","4.0","COLONIA JUAN CARRASCO MAZATLAN SIN., MX","FM-12","99999","V020","250,1,N,0040,1","22000,1,9,N","020000,1,N,1","+0316,1","+0237,1","10091,1","99,0000,9,1",,,,,"01,1,+06000,9,01,9",,,"01,99,1,00,1,00,1,99999,9,00,1,06,1",,"01,9",,,,"99999,9,10080,1","7,1,016,1,-007,1",,,"SYN100AAXX  01001 76458 32970 12504 10316 20237 30080 40091 57016 80006 92045 333 30/// 56009 59007 81070;","Q01  00002PRCP99"
"76458099999","2001-07-01T03:00:00","4","23.2","-106.4166666","4.0","COLONIA JUAN CARRASCO MAZATLAN SIN., MX","FM-12","99999","V020","290,1,N,0020,1","22000,1,9,N","010000,1,N,1","+0296,1","+0242,1","10102,1","99,0000,9,1",,,,,"04,1,+01800,9,07,9",,,"04,99,1,04,1,99,9,02250,1,03,1,00,1",,"01,9",,,,"99999,9,10092,1","2,1,003,1,-013,1",,,"SYN094AAXX  01031 76458 32860 42902 10296 20242 30092 40102 52003 84030 90245 333 30/// 59013 84356;","Q01+000002SCOLCGQ02  00002PRCP99"
"76458099999","2001-07-01T15:00:00","4","23.2","-106.4166666","4.0","COLONIA JUAN CARRASCO MAZATLAN SIN., MX","FM-12","99999","V020","180,1,N,0030,1","09000,1,C,N","015000,1,N,1","+0300,1","+0240,1","10098,1","99,0000,9,1",,,,,"01,1,+00750,9,08,9","03,1,+03600,9,03,9",,"06,99,1,01,1,02,1,00800,1,03,1,06,1",,"01,9",,,,"99999,9,10087,1","2,1,012,1,-016,1",,,"SYN118AAXX  01151 76458 32565 61803 10300 20240 30087 40098 52012 81236 91445 333 0/599 30/// 57856 59016 81825 83362 82068;","Q01  00002PRCP99"
"76458099999","2001-07-01T18:00:00","4","23.2","-106.4166666","4.0","COLONIA JUAN CARRASCO MAZATLAN SIN., MX","FM-12","99999","V020","270,1,N,0040,1","22000,1,9,N","015000,1,N,1","+0306,1","+0248,1","10085,1","99,0000,9,1",,,,,"02,1,+00720,9,08,9",,,"03,99,1,02,1,02,1,00800,1,00,1,01,1",,"01,9",,"120,M,+0325,1","240,N,+0280,1","99999,9,10074,1","7,1,013,1,-022,1",,,"SYN124AAXX  01181 76458 32565 32704 10306 20248 30074 40085 57013 82201 91745 333 01109 10325 20280 30/// 57815 59022 82824 81070;","Q01  00002PRCP99"
"76458099999","2001-07-01T21:00:00","4","23.2","-106.4166666","4.0","COLONIA JUAN CARRASCO MAZATLAN SIN., MX","FM-12","99999","V020","999,9,C,0000,1","22000,1,9,N","015000,1,N,1","+0310,1","+0240,1","10083,1","99,0000,9,1",,,,,,,,"00,99,1,00,1,00,1,99999,9,00,1,00,1",,"01,9",,,,"99999,9,10072,1","0,1,002,1,+999,9",,,"SYN082AAXX  01211 76458 32565 00000 10310 20240 30072 40083 50002 92055 333 30/// 80007;","Q01  00002PRCP99"
"76458099999","2001-07-02T00:00:00","4","23.2","-106.4166666","4.0","COLONIA JUAN CARRASCO MAZATLAN SIN., MX","FM-12","99999","V020","240,1,N,0030,1","22000,1,9,N","018000,1,N,1","+0312,1","+0254,1","10070,1","99,0000,9,1",,,,,"01,1,+02400,9,08,9",,,"01,99,1,01,1,02,1,01250,1,99,9,99,9",,"01,9",,"120,M,+0336,1","180,N,+0280,1","99999,9,10059,1","1,1,012,1,-015,1",,,"SYN112AAXX  02001 76458 32668 12403 10312 20254 30059 40070 51012 812// 92355 333 10336 20280 30/// 57825 59015 81258;","Q01  00002PRCP99"
"76458099999","2001-07-02T03:00:00","4","23.2","-106.4166666","4.0","COLONIA JUAN CARRASCO MAZATLAN SIN., MX","FM-12","99999","V020","260,1,N,0020,1","22000,1,9,N","010000,1,N,1","+0296,1","+0233,1","10077,1","99,0000,9,1",,,,,"04,1,+02400,9,07,9",,,"04,99,1,04,1,99,9,99999,9,05,1,00,1",,"01,9",,,,"99999,9,10066,1","2,1,012,1,-026,1",,,"SYN100AAXX  02031 76458 32960 42602 10296 20233 30066 40077 52012 84050 90245 333 0/090 30/// 59026 84358;","Q01  00002PRCP99Q02    003SCOLCG"
"76458099999","2001-07-02T09:00:00","4","23.2","-106.4166666","4.0","COLONIA JUAN CARRASCO MAZATLAN SIN., MX","FM-12","99999","V020","180,1,N,0020,1","00690,1,9,N","010000,1,N,1","+0290,1","+0236,1","10092,1","99,0000,9,1",,,,,"05,1,+00690,9,05,9",,,"05,99,1,05,1,05,1,00800,1,00,1,00,1",,"01,9",,,,"99999,9,10081,1","7,1,009,1,-021,1",,,"SYN106AAXX  02091 76458 32560 51802 10290 20236 30081 40092 57009 85500 90845 333 0/600 30/// 57660 59021 85623;","Q01  00002PRCP99"
"76458099999","2001-07-02T12:00:00","4","23.2","-106.4166666","4.0","COLONIA JUAN CARRASCO MAZATLAN SIN., MX","FM-12","99999","V020","140,1,N,0030,1","00690,1,9,N","008000,1,N,1","+0286,1","+0231,1","10093,1","24,0000,9,1",,,,,"06,1,+00690,9,05,9",,,"06,99,1,06,1,02,1,00800,1,00,1,00,1",,"01,9","999,+0270,9","999,M,+0336,1","120,N,+0275,1","99999,9,10083,1","5,1,002,1,+008,1",,,"SYN124AAXX  02121 76458 32558 61403 10286 20231 30083 40093 55002 86200 91145 333 0/600 10336 20275 30027 57660 58008 70000 86623;",
"76458099999","2001-07-02T15:00:00","4","23.2","-106.4166666","4.0","COLONIA JUAN CARRASCO MAZATLAN SIN., MX","FM-12","99999","V020","110,1,N,0030,1","22000,1,9,N","010000,1,N,1","+0295,1","+0236,1","10106,1","99,0000,9,1",,,,,"03,1,+00750,9,02,9",,,"03,99,1,03,1,02,1,00800,1,00,1,00,1",,"01,9",,,,"99999,9,10095,1","2,1,012,1,+008,1",,,"SYN106AAXX  02151 76458 32560 31103 10295 20236 30095 40106 52012 83200 91450 333 0/600 30/// 57860 58008 83825;","Q01  00002PRCP99"
"76458099999","2001-07-02T21:00:00","4","23.2","-106.4166666","4.0","COLONIA JUAN CARRASCO MAZATLAN SIN., MX","FM-12","99999","V020","240,1,N,0050,1","22000,1,9,N","018000,1,N,1","+0314,1","+0226,1","10068,1","99,0000,9,1",,,,,"01,1,+01110,9,02,9",,,"01,99,1,01,1,08,1,01250,1,99,9,99,9",,"01,9",,,,"99999,9,10068,1","8,1,021,1,+005,1",,,"SYN100AAXX  02211 76458 32668 12405 10314 20226 30068 40068 58021 818// 92055 333 0/1// 30/// 58005 81837;","Q01  00002PRCP99"
"76458099999","2001-07-03T00:00:00","4","23.2","-106.4166666","4.0","COLONIA JUAN CARRASCO MAZATLAN SIN., MX","FM-12","99999","V020","250,1,N,0010,1","22000,1,9,N","008000,1,N,1","+0310,1","+0225,1","10068,1","99,0000,9,1",,,,,"02,1,+06600,9,01,9",,,"02,99,1,00,1,00,1,99999,9,00,1,06,1",,"01,9",,"120,M,+0339,1","180,N,+0282,1","99999,9,10057,1","7,1,010,1,+003,1",,,"SYN118AAXX  03001 76458 32958 22501 10310 20225 30057 40068 57010 80006 92355 333 0/009 10339 20282 30/// 56081 58003 82072;","Q01  00002PRCP99"
"76458099999","2001-07-03T03:00:00","4","23.2","-106.4166666","4.0","COLONIA JUAN CARRASCO MAZATLAN SIN., MX","FM-12","99999","V020","190,1,N,0010,1","22000,1,9,N","010000,1,N,1","+0296,1","+0226,1","10090,1","99,0000,9,1",,,,,"04,1,+02400,9,07,9",,,"04,99,1,04,1,99,9,99999,9,05,1,00,1",,"01,9",,,,"99999,9,10079,1","2,1,023,1,+013,1",,,"SYN100AAXX  03031 76458 32960 41901 10296 20226 30079 40090 52023 84050 90230 333 0/090 30/// 58013 84358;","Q01  00002PRCP99Q02    003SCOLCG"
"76458099999","2001-07-03T09:00:00","4","23.2","-106.4166666","4.0","COLONIA JUAN CARRASCO MAZATLAN SIN., MX","FM-12","99999","V020","999,9,C,0000,1","03600,1,C,N","010000,1,N,1","+0276,1","+0223,1","10110,1","99,0000,9,1",,,,,"02,1,+00660,9,06,9","01,1,+01410,9,09,9",,"07,99,1,03,1,09,1,00800,1,03,1,00,1",,"01,9",,,,"99999,9,10100,1","6,1,003,1,-018,1",,,"SYN118AAXX  03091 76458 32560 70000 10276 20223 30100 40110 56003 83930 90850 333 07390 30/// 57939 59018 82622 81947 84359;","Q01  00002PRCP99"
"76458099999","2001-07-03T15:00:00","4","23.2","-106.4166666","4.0","COLONIA JUAN CARRASCO MAZATLAN SIN., MX","FM-12","99999","V020","160,1,N,0030,1","03600,1,9,N","018000,1,N,1","+0277,1","+0215,1","10124,1","99,0000,9,1",,,,,"01,1,+00780,9,06,9",,,"07,99,1,01,1,04,1,00800,1,03,1,00,1",,"01,9",,,,"99999,9,10113,1","2,1,019,1,+018,1",,,"SYN112AAXX  03151 76458 32568 71603 10277 20215 30113 40124 52019 81430 91450 333 0/290 30/// 57629 58018 81626 86362;","Q01  00002PRCP99"
"76458099999","2001-07-03T21:00:00","4","23.2","-106.4166666","4.0","COLONIA JUAN CARRASCO MAZATLAN SIN., MX","FM-12","99999","V020","250,1,N,0050,1","09000,1,C,N","020000,1,N,1","+0300,1","+0239,1","10110,1","99,0000,9,1",,,,,"01,1,+00960,9,08,9","01,1,+02400,9,03,9",,"05,99,1,01,1,02,1,00800,1,05,1,08,1",,"01,9",,,,"99999,9,10099,1","5,1,017,1,+021,1",,,"SYN118AAXX  03211 76458 32570 52505 10300 20239 30099 40110 55017 81258 92050 333 0/6// 30/// 57865 58021 81832 81358 83270;","Q01  00002PRCP99"
"76458099999","2001-07-04T00:00:00","4","23.2","-106.4166666","4.0","COLONIA JUAN CARRASCO MAZATLAN SIN., MX","FM-12","99999","V020","250,1,N,0020,1","22000,1,9,N","020000,1,N,1","+0306,1","+0232,1","10103,1","99,0000,9,1",,,,,"02,1,+06600,9,01,9",,,"02,99,1,00,1,00,1,99999,9,00,1,06,1","1086,9","01,9",,"120,M,+0330,1","180,N,+0264,1","99999,9,10091,1","7,1,008,1,+034,1",,,"SYN118AAXX  04001 76458 32970 22502 10306 20232 30091 40103 57008 80006 92355 333 0/009 10330 20264 30/// 55181 58034 82072;","Q01  00002PRCP99"
"76458099999","2001-07-04T06:00:00","4","23.2","-106.4166666","4.0","COLONIA JUAN CARRASCO MAZATLAN SIN., MX","FM-12","99999","V020","320,1,N,0020,1","22000,1,9,N","010000,1,N,1","+0290,1","+0237,1","10129,1","99,0000,9,1",,,,,"02,1,+00660,9,05,9",,,"02,99,1,02,1,04,1,00800,1,00,1,00,1","0444,9","01,9",,"240,M,+0330,1","240,N,+0264,1","99999,9,10118,1","2,1,015,1,+015,1",,,"SYN118AAXX  04061 76458 32560 23202 10290 20237 30118 40129 52015 82400 90556 333 0/900 10330 20264 30/// 55074 58015 82622;","Q01  00002PRCP99"
"76458099999","2001-07-04T09:00:00","4","23.2","-106.4166666","4.0","COLONIA JUAN CARRASCO MAZATLAN SIN., MX","FM-12","99999","V020","360,1,N,0020,1","22000,1,9,N","010000,1,N,1","+0280,1","+0229,1","10126,1","99,0000,9,1",,,,,"00,1,+99999,9,99,9",,,"00,99,1,00,1,00,1,99999,9,00,1,00,1",,"01,9",,,,"99999,9,10115,1","8,1,003,1,+015,1",,,"SYN082AAXX  04091 76458 32960 03602 10280 20229 30115 40126 58003 90853 333 30/// 58015;","Q01  00002PRCP99"
"76458099999","2001-07-04T12:00:00","4","23.2","-106.4166666","4.0","COLONIA JUAN CARRASCO MAZATLAN SIN., MX","FM-12","99999","V020","999,9,C,0000,1","22000,1,9,N","010000,1,N,1","+0271,1","+0230,1","10116,1","24,0000,9,1",,,,,"02,1,+03600,9,07,9",,,"02,99,1,02,1,00,1,02250,1,03,1,00,1",,"01,9","999,+0250,9","999,M,+0330,1","120,N,+0270,1","99999,9,10106,1","7,1,009,1,+013,1",,,"SYN124AAXX  04121 76458 32860 20000 10271 20230 30106 40116 57009 82030 91150 333 0/090 10330 20270 30025 57399 58013 70000 82362;",
"76458099999","2001-07-04T15:00:00","4","23.2","-106.4166666","4.0","COLONIA JUAN CARRASCO MAZATLAN SIN., MX","FM-12","99999","V020","999,9,C,0000,1","02100,1,C,N","015000,1,N,1","+0276,1","+9999,9","10131,1","99,0000,9,1",,,,,"02,1,+03600,9,03,9",,,"07,99,1,99,9,00,1,02250,1,02,1,00,1",,"01,9",,,,"99999,9,10119,1","2,1,004,1,+006,1",,,"SYN112AAXX  04151 76458 32865 70000 10276 20278 30119 40131 52004 85020 91455 333 0/090 30/// 57499 58006 82362 85464;","Q01+000052SCOTLCQ02  00002PRCP99"
"76458099999","2001-07-04T21:00:00","4","23.2","-106.4166666","4.0","COLONIA JUAN CARRASCO MAZATLAN SIN., MX","FM-12","99999","V020","220,1,N,0030,1","22000,1,9,N","018000,1,N,1","+0316,1","+0228,1","10119,1","99,0000,9,1",,,,,"01,1,+01800,9,03,9",,,"03,99,1,01,1,00,1,02250,1,03,1,06,1",,"01,9",,,,"99999,9,10108,1","7,1,030,1,+009,1",,,"SYN100AAXX  04211 76458 32868 32203 10316 20228 30108 40119 57030 81036 92045 333 30/// 58009 81356 82070;","Q01  00002PRCP99"
"76458099999","2001-07-05T00:00:00","4","23.2","-106.4166666","4.0","COLONIA JUAN CARRASCO MAZATLAN SIN., MX","FM-12","99999","V020","250,1,N,0020,1","22000,1,9,N","018000,1,N,1","+0306,1","+0244,1","10102,1","99,0000,9,1",,,,,"01,1,+00780,9,08,9",,,"04,99,1,01,1,02,1,00800,1,00,1,06,1",,"01,9",,"120,M,+0342,1","180,N,+0270,1","99999,9,10091,1","7,1,017,1,+001,1",,,"SYN124AAXX  05001 76458 32568 42502 10306 20244 30091 40102 57017 81206 92355 333 0/109 10342 20270 30/// 51581 58001 81826 83072;","Q01  00002PRCP99"
"76458099999","2001-07-05T03:00:00","4","23.2","-106.4166666","4.0","COLONIA JUAN CARRASCO MAZATLAN SIN., MX","FM-12","99999","V020","290,1,N,0010,1","22000,1,9,N","010000,1,N,1","+0298,1","+0244,1","10111,1","99,0000,9,1",,,,,"03,1,+06600,9,01,9",,,"03,99,1,00,1,00,1,99999,9,00,1,06,1",,"01,9",,,,"99999,9,10099,1","2,1,008,1,-004,1",,,"SYN100AAXX  05031 76458 32960 32901 10298 20244 30099 40111 52008 80006 90230 333 0/009 30/// 59004 83072;","Q01  00002PRCP99"
"76458099999","2001-07-05T09:00:00","4","23.2","-106.4166666","4.0","COLONIA JUAN CARRASCO MAZATLAN SIN., MX","FM-12","99999","V020","050,1,N,0020,1","04200,1,9,N","008000,1,N,1","+0256,1","+0231,1","10132,1","03,0020,9,1",,,"5,1,03,1","5,1,03,1","06,1,+04200,9,01,9",,,"06,99,1,06,1,00,1,99999,9,01,1,99,9",,"09,9",,,,"99999,9,10121,1","7,1,013,1,+006,1",,"01,1","SYN112AAXX  05091 76458 21958 60502 10256 20231 30121 40132 57013 70155 86010 90857 333 0/090 31/// 58006 60027 86464;","Q01+000002SCOHCG"
"76458099999","2001-07-05T15:00:00","4","23.2","-106.4166666","4.0","COLONIA JUAN CARRASCO MAZATLAN SIN., MX","FM-12","99999","V020","040,1,N,0020,1","03600,1,9,N","018000,1,N,1","+0271,1","+0225,1","10137,1","99,0000,9,1",,,,,"06,1,+03600,9,03,9",,,"07,99,1,06,1,00,1,02250,1,03,1,06,1",,"01,9",,,,"99999,9,10126,1","2,1,012,1,-001,1",,,"SYN112AAXX  05151 76458 32868 70402 10271 20225 30126 40137 52012 86036 91455 333 0/099 30/// 57399 59001 86362 81068;","Q01  00002PRCP99"
"76458099999","2001-07-05T18:00:00","4","23.2","-106.4166666","4.0","COLONIA JUAN CARRASCO MAZATLAN SIN., MX","FM-12","99999","V020","240,1,N,0030,1","03600,1,C,N","020000,1,N,1","+0306,1","+0229,1","10141,1","99,0000,9,1",,,,,"01,1,+00960,9,08,9",,,"07,99,1,01,1,02,1,00800,1,07,1,01,1",,"01,9",,"120,M,+0328,1","240,N,+0256,1","99999,9,10130,1","1,1,004,1,-008,1",,,"SYN124AAXX  05181 76458 32570 72403 10306 20229 30130 40141 51004 81271 91750 333 0/1// 10328 20256 30/// 57815 59008 81832 86358;","Q01  00002PRCP99"
"76458099999","2001-07-06T00:00:00","4","23.2","-106.4166666","4.0","COLONIA JUAN CARRASCO MAZATLAN SIN., MX","FM-12","99999","V020","280,1,N,0030,1","22000,1,9,N","020000,1,N,1","+0318,1","+0254,1","10099,1","99,0000,9,1",,,,,"01,1,+00810,9,08,9",,,"03,99,1,01,1,02,1,00800,1,00,1,06,1",,"01,9",,"120,M,+0338,1","180,N,+0256,1","99999,9,10088,1","7,1,022,1,-003,1",,,"SYN124AAXX  06001 76458 32570 32803 10318 20254 30088 40099 57022 81206 92358 333 0/109 10338 20256 30/// 53941 59003 81827 82072;","Q01  00002PRCP99"
"76458099999","2001-07-06T03:00:00","4","23.2","-106.4166666","4.0","COLONIA JUAN CARRASCO MAZATLAN SIN., MX","FM-12","99999","V020","300,1,N,0020,1","22000,1,9,N","010000,1,N,1","+0295,1","+0256,1","10110,1","99,0000,9,1",,,,,"01,1,+02400,9,03,9",,,"03,99,1,99,9,00,1,99999,9,03,1,06,1",,"01,9",,,,"99999,9,10100,1","2,1,012,1,-001,1",,,"SYN106AAXX  06031 76458 32960 33002 10295 20256 30100 40110 52012 80036 90230 333 0/099 30/// 59001 81358 82072;","Q01+000002SCOTLCQ02  00002PRCP99"
"76458099999","2001-07-06T09:00:00","4","23.2","-106.4166666","4.0","COLONIA JUAN CARRASCO MAZATLAN SIN., MX","FM-12","99999","V020","360,1,N,0020,1","02400,1,9,N","010000,1,N,1","+0286,1","+0251,1","10122,1","99,0000,9,1",,,,,"06,1,+02400,9,07,9",,,"07,99,1,06,1,99,9,99999,9,05,1,00,1",,"01,9",,,,"99999,9,10111,1","7,1,005,1,-010,1",,,"SYN100AAXX  06091 76458 32960 73602 10286 20251 30111 40122 57005 86050 90849 333 0/090 30/// 59010 86358;","Q01  00002PRCP99Q02    003SCOLCG"
"76458099999","2001-07-06T15:00:00","4","23.2","-106.4166666","4.0","COLONIA JUAN CARRASCO MAZATLAN SIN., MX","FM-12","99999","V020","060,1,N,0020,1","03600,1,9,N","015000,1,N,1","+0286,1","+0246,1","10134,1","99,0000,9,1",,,,,"08,1,+03600,9,07,9",,,"08,99,1,08,1,00,1,02250,1,03,1,00,1",,"01,9",,,,"99999,9,10124,1","2,1,014,1,-002,1",,,"SYN106AAXX  06151 76458 32865 80602 10286 20246 30124 40134 52014 88030 91445 333 0/090 30/// 57399 59002 88362;","Q01  00002PRCP99"
"76458099999","2001-07-06T18:00:00","4","23.2","-106.4166666","4.0","COLONIA JUAN CARRASCO MAZATLAN SIN., MX","FM-12","99999","V020","170,1,N,0030,1","03600,1,C,N","015000,1,N,1","+0300,1","+0253,1","10144,1","99,0000,9,1",,,,,"01,1,+00600,9,08,9","02,1,+02400,9,03,9",,"07,99,1,01,1,02,1,00450,1,06,1,08,1",,"01,9",,"120,M,+0315,1","240,N,+0280,1","99999,9,10133,1","1,1,009,1,+003,1",,,"SYN130AAXX  06181 76458 32465 71703 10300 20253 30133 40144 51009 81268 91755 333 0/4// 10315 20280 30/// 57845 58003 81820 82358 84270;","Q01  00002PRCP99"
"76458099999","2001-07-06T21:00:00","4","23.2","-106.4166666","4.0","COLONIA JUAN CARRASCO MAZATLAN SIN., MX","FM-12","99999","V020","360,1,N,0080,1","00060,1,9,N","015000,1,N,1","+0278,1","+0274,1","10114,1","99,0000,9,1",,,,,"06,1,+00060,9,05,9",,,"06,99,1,04,1,99,9,00075,1,99,9,99,9",,"09,9",,,,"99999,9,10129,1","5,1,040,1,+019,1",,,"SYN106AAXX  06211 76458 32165 63608 10278 20274 30129 40114 55040 84/// 92055 333 0/6// 31/// 57684 58019 86602;","Q01  00002PRCP99"
"76458099999","2001-07-07T00:00:00","4","23.2","-106.4166666","4.0","COLONIA JUAN CARRASCO MAZATLAN SIN., MX","FM-12","99999","V020","350,1,N,0020,1","22000,1,9,N","018000,1,N,1","+0310,1","+0215,1","10110,1","99,0000,9,1",,,,,"02,1,+06600,9,01,9",,,"02,99,1,00,1,00,1,99999,9,00,1,06,1",,"01,9",,"120,M,+0320,1","180,N,+0280,1","99999,9,10100,1","7,1,028,1,+012,1",,,"SYN118AAXX  07001 76458 32968 23502 10310 20215 30100 40110 57028 80006 92355 333 0/009 10320 20280 30/// 53191 58012 82072;","Q01  00002PRCP99"
"76458099999","2001-07-07T03:00:00","4","23.2","-106.4166666","4.0","COLONIA JUAN CARRASCO MAZATLAN SIN., MX","FM-12","99999","V020","290,1,N,0020,1","22000,1,9,N","010000,1,N,1","+0290,1","+0221,1","10119,1","99,0000,9,1",,,,,"02,1,+02400,9,07,9",,,"02,99,1,99,9,99,9,99999,9,03,1,00,1",,"01,9",,,,"99999,9,10108,1","2,1,008,1,+009,1",,,"SYN100AAXX  07031 76458 32960 22902 10290 20221 30108 40119 52008 80030 90230 333 0/090 30/// 58009 82358;","Q01+000002SCOTLCQ02  00002PRCP99Q03    003SCOLCG"
"76458099999","2001-07-07T09:00:00","4","23.2","-106.4166666","4.0","COLONIA JUAN CARRASCO MAZATLAN SIN., MX","FM-12","99999","V020","320,1,N,0010,1","22000,1,9,N","008000,1,N,1","+0274,1","+0244,1","10118,1","99,0000,9,1",,,,,"01,1,+06000,9,09,9",,,"01,99,1,99,9,00,1,99999,9,00,1,09,1",,"01,9",,,,"99999,9,10107,1","8,1,009,1,-004,1",,,"SYN094AAXX  07091 76458 32958 13201 10274 20244 30107 40118 58009 80009 90845 333 30/// 59004 81170;","Q01+000002SCOTLCQ02  00002PRCP99"
"76458099999","2001-07-07T15:00:00","4","23.2","-106.4166666","4.0","COLONIA JUAN CARRASCO MAZATLAN SIN., MX","FM-12","99999","V020","360,1,N,0010,1","22000,1,9,N","015000,1,N,1","+0298,1","+0238,1","10127,1","99,0000,9,1",,,,,"03,1,+03600,9,07,9",,,"03,99,1,03,1,00,1,02250,1,03,1,00,1",,"01,9",,,,"99999,9,10115,1","0,1,010,1,-009,1",,,"SYN106AAXX  07151 76458 32865 33601 10298 20238 30115 40127 50010 83030 91445 333 0/090 30/// 57399 59009 83362;","Q01  00002PRCP99"
"76458099999","2001-07-07T18:00:00","4","23.2","-106.4166666","4.0","COLONIA JUAN CARRASCO MAZATLAN SIN., MX","FM-12","99999","V020","230,1,N,0030,1","22000,1,9,N","020000,1,N,1","+0306,1","+0260,1","10134,1","99,0000,9,1",,,,,"02,1,+00570,9,02,9",,,"02,99,1,02,1,02,1,00450,1,99,9,99,9",,"01,9",,"120,M,+0325,1","240,N,+0262,1","99999,9,10123,1","1,1,008,1,-010,1",,,"SYN118AAXX  07181 76458 32470 22303 10306 20260 30123 40134 51008 822// 91750 333 034// 10325 20262 30/// 57843 59010 82819;","Q01  00002PRCP99"
"76458099999","2001-07-07T21:00:00","4","23.2","-106.4166666","4.0","COLONIA JUAN CARRASCO MAZATLAN SIN., MX","FM-12","99999","V020","250,1,N,0060,1","22000,1,9,N","018000,1,N,1","+0322,1","+0259,1","10123,1","99,0000,9,1",,,,,"02,1,+00780,9,02,9",,,"02,99,1,02,1,02,1,00800,1,99,9,99,9",,"01,9",,,,"99999,9,10112,1","6,1,999,9,-017,1",,,"SYN106AAXX  07211 76458 32568 22506 10322 20259 30112 40123 560// 822// 92055 333 0/1// 30/// 57814 59017 82826;","Q01  00002PRCP99"
"76458099999","2001-07-08T00:00:00","4","23.2","-106.4166666","4.0","COLONIA JUAN CARRASCO MAZATLAN SIN., MX","FM-12","99999","V020","360,1,N,0030,1","02400,1,9,N","018000,1,N,1","+0304,1","+0233,1","10115,1","24,0000,9,1",,,,,"07,1,+02400,9,01,9",,,"07,99,1,07,1,00,1,02250,1,02,1,00,1",,"01,9",,"120,M,+0340,1","180,N,+0272,1","99999,9,10104,1","5,1,008,1,+004,1",,,"SYN118AAXX  08001 76458 32868 73603 10304 20233 30104 40115 55008 87020 92345 333 10340 20272 30/// 50321 58004 70000 87458;",
"76458099999","2001-07-08T03:00:00","4","23.2","-106.4166666","4.0","COLONIA JUAN CARRASCO MAZATLAN SIN., MX","FM-12","99999","V020","999,9,C,0000,1","02400,1,9,N","008000,1,N,1","+0288,1","+0210,1","10124,1","99,0000,9,1",,,,,"08,1,+02400,9,01,9",,,"08,99,1,08,1,00,1,02250,1,02,1,00,1",,"01,9",,,,"99999,9,10113,1","3,1,009,1,+005,1",,,"SYN094AAXX  08031 76458 32858 80000 10288 20210 30113 40124 53009 88020 90245 333 30/// 58005 88458;","Q01  00002PRCP99"
"76458099999","2001-07-08T06:00:00","4","23.2","-106.4166666","4.0","COLONIA JUAN CARRASCO MAZATLAN SIN., MX","FM-12","99999","V020","360,1,N,0020,1","09000,1,C,N","008000,1,N,1","+0268,1","+0219,1","10132,1","99,0000,9,1",,,,,"03,1,+02400,9,03,9",,,"05,99,1,03,1,00,1,02250,1,05,1,02,1","0450,9","01,9",,"240,M,+0340,1","240,N,+0262,1","99999,9,10122,1","0,1,008,1,+005,1",,,"SYN124AAXX  08061 76458 32858 53602 10268 20219 30122 40132 50008 83052 90550 333 0/069 10340 20262 30/// 55075 58005 83358 82079;","Q01  00002PRCP99"
"76458099999","2001-07-08T09:00:00","4","23.2","-106.4166666","4.0","COLONIA JUAN CARRASCO MAZATLAN SIN., MX","FM-12","99999","V020","999,9,C,0000,1","00540,1,9,N","008000,1,N,1","+0270,1","+0227,1","10120,1","99,0000,9,1",,,,,"07,1,+00540,9,06,9",,,"07,99,1,07,1,05,1,00450,1,00,1,00,1",,"01,9",,,,"99999,9,10109,1","7,1,012,1,+002,1",,,"SYN100AAXX  08091 76458 32458 70000 10270 20227 30109 40120 57012 87500 90845 333 0/900 30/// 58002 87718;","Q01  00002PRCP99"
"76458099999","2001-07-08T12:00:00","4","23.2","-106.4166666","4.0","COLONIA JUAN CARRASCO MAZATLAN SIN., MX","FM-12","99999","V020","060,1,N,0020,1","03600,1,C,N","008000,1,N,1","+0268,1","+9999,9","10124,1","24,0000,9,1",,,,,"03,1,+00690,9,06,9",,,"07,99,1,03,1,05,1,00800,1,06,1,00,1",,"01,9","999,+0250,9","999,M,+0340,1","120,N,+0264,1","99999,9,10113,1","5,1,004,1,+006,1",,,"SYN130AAXX  08121 76458 32558 70602 10268 20112 30113 40124 55004 83560 91145 333 0/009 10340 20264 30025 57690 58006 70000 83623 84356;","Q01+001123ATOD  "
"76458099999","2001-07-08T15:00:00","4","23.2","-106.4166666","4.0","COLONIA JUAN CARRASCO MAZATLAN SIN., MX","FM-12","99999","V020","110,1,N,0040,1","03600,1,C,N","015000,1,N,1","+0277,1","+0227,1","10129,1","99,0000,9,1",,,,,"01,1,+00630,9,08,9",,,"07,99,1,01,1,01,1,00800,1,03,1,00,1",,"01,9",,,,"99999,9,10118,1","0,1,005,1,+003,1",,,"SYN112AAXX  08151 76458 32565 71104 10277 20227 30118 40129 50005 81130 91145 333 0/990 30/// 57899 58003 81821 86364;","Q01  00002PRCP99"
"76458099999","2001-07-08T21:00:00","4","23.2","-106.4166666","4.0","COLONIA JUAN CARRASCO MAZATLAN SIN., MX","FM-12","99999","V020","230,1,N,0030,1","03600,1,C,N","018000,1,N,1","+0323,1","+0247,1","10120,1","99,0000,9,1",,,,,"02,1,+00960,9,08,9",,,"05,99,1,02,1,02,1,00800,1,03,1,99,9",,"01,9",,,,"99999,9,10109,1","8,1,011,1,-003,1",,,"SYN112AAXX  08211 76458 32568 52303 10323 20247 30109 40120 58011 8223/ 92050 333 0/3// 30/// 57834 59003 82832 83658;","Q01  00002PRCP99"
"76458099999","2001-07-09T03:00:00","4","23.2","-106.4166666","4.0","COLONIA JUAN CARRASCO MAZATLAN SIN., MX","FM-12","99999","V020","999,9,C,0020,1","22000,1,9,N","010000,1,N,1","+0296,1","+0249,1","10112,1","99,0000,9,1",,,,,"03,1,+02400,9,07,9",,,"03,99,1,99,9,99,9,99999,9,03,1,00,1",,"01,9",,,,"99999,9,10101,1","2,1,010,1,-012,1",,,"SYN100AAXX  09031 76458 32960 30002 10296 20249 30101 40112 52010 80030 90255 333 0/090 30/// 59012 83358;","Q01  00002PRCP99Q02    003SCOLCG"
"76458099999","2001-07-09T06:00:00","4","23.2","-106.4166666","4.0","COLONIA JUAN CARRASCO MAZATLAN SIN., MX","FM-12","99999","V020","360,1,N,0020,1","22000,1,9,N","010000,1,N,1","+0293,1","+0249,1","10124,1","99,0000,9,1",,,,,"02,1,+02700,9,07,9",,,"02,99,1,02,1,00,1,99999,9,03,1,00,1","0270,9","01,9",,"240,M,+0342,1","240,N,+0262,1","99999,9,10113,1","2,1,012,1,-015,1",,,"SYN118AAXX  09061 76458 32960 23602 10293 20249 30113 40124 52012 82030 90557 333 0/090 10342 20262 30/// 55045 59015 82359;","Q01  00002PRCP99"
"76458099999","2001-07-09T09:00:00","4","23.2","-106.4166666","4.0","COLONIA JUAN CARRASCO MAZATLAN SIN., MX","FM-12","99999","V020","999,9,C,0000,1","02700,1,9,N","010000,1,N,1","+0205,1","+9999,9","10119,1","99,0000,9,1",,,,,"05,1,+02700,9,07,9",,,"05,99,1,05,1,00,1,99999,9,03,1,00,1",,"01,9",,,,"99999,9,10108,1","8,1,005,1,-001,1",,,"SYN100AAXX  09091 76458 32960 50000 10205 20257 30108 40119 58005 85030 90856 333 0/090 30/// 59001 85359;","Q01  00002PRCP99"
"76458099999","2001-07-09T15:00:00","4","23.2","-106.4166666","4.0","COLONIA JUAN CARRASCO MAZATLAN SIN., MX","FM-12","99999","V020","120,1,N,0020,1","03600,1,C,N","010000,1,N,1","+0294,1","+0251,1","10147,1","99,0000,9,1",,,"0,1,03,1","0,1,03,1","03,1,+00540,9,09,9",,,"06,99,1,03,1,09,1,00450,1,03,1,00,1",,"01,9",,,,"99999,9,10138,1","2,1,016,1,+018,1",,"29,1","SYN118AAXX  09151 76458 31460 61202 10294 20251 30138 40147 52016 72900 83930 91455 333 0/690 30/// 57960 58018 83918 83356;","Q01  00002PRCP99"
"76458099999","2001-07-10T00:00:00","4","23.2","-106.4166666","4.0","COLONIA JUAN CARRASCO MAZATLAN SIN., MX","FM-12","99999","V020","240,1,N,0020,1","22000,1,9,N","015000,1,N,1","+0310,1","+0234,1","10112,1","99,0000,9,1",,,,,"01,1,+00750,9,08,9",,,"03,99,1,01,1,02,1,00800,1,00,1,06,1",,"01,9",,"120,M,+0328,1","180,N,+0267,1","99999,9,10101,1","7,1,017,1,+010,1",,,"SYN124AAXX  10001 76458 32565 32402 10310 20234 30101 40112 57017 81206 90000 333 0/109 10328 20267 30/// 52321 58010 81825 82072;","Q01  00002PRCP99"
"76458099999","2001-07-10T03:00:00","4","23.2","-106.4166666","4.0","COLONIA JUAN CARRASCO MAZATLAN SIN., MX","FM-12","99999","V020","190,1,N,0010,1","22000,1,9,N","010000,1,N,1","+0285,1","+0240,1","10120,1","99,0000,9,1",,,,,"02,1,+02400,9,03,9",,,"03,99,1,99,9,03,1,99999,9,99,9,06,1",,"01,9",,,,"99999,9,10109,1","2,1,008,1,+008,1",,,"SYN106AAXX  10031 76458 32960 31901 10285 20240 30109 40120 52008 80306 90230 333 0/099 30/// 58008 82358 81072;","Q01+000002SCOTLCQ02+000002SCOMCGQ03  00002PRCP99"
"76458099999","2001-07-10T06:00:00","4","23.2","-106.4166666","4.0","COLONIA JUAN CARRASCO MAZATLAN SIN., MX","FM-12","99999","V020","170,1,N,0020,1","22000,1,9,N","010000,1,N,1","+0282,1","+0246,1","10126,1","99,0000,9,1",,,,,"02,1,+02700,9,07,9",,,"02,99,1,02,1,00,1,99999,9,03,1,00,1","0192,9","01,9",,"240,M,+0328,1","240,N,+0267,1","99999,9,10115,1","0,1,006,1,+002,1",,,"SYN118AAXX  10061 76458 32960 21702 10282 20246 30115 40126 50006 82030 90557 333 0/090 10328 20267 30/// 55032 58002 82359;","Q01  00002PRCP99"
"76458099999","2001-07-10T09:00:00","4","23.2","-106.4166666","4.0","COLONIA JUAN CARRASCO MAZATLAN SIN., MX","FM-12","99999","V020","999,9,C,0000,1","22000,1,9,N","010000,1,N,1","+0272,1","+0245,1","10119,1","99,0000,9,1",,,,,"03,1,+00330,9,05,9",,,"03,99,1,03,1,04,1,00450,1,00,1,00,1",,"01,9",,,,"99999,9,10108,1","7,1,007,1,+000,1",,,"SYN100AAXX  10091 76458 32460 30000 10272 20245 30108 40119 57007 83400 90840 333 0/100 30/// 58000 83611;","Q01  00002PRCP99"
"76458099999","2001-07-10T21:00:00","4","23.2","-106.4166666","4.0","COLONIA JUAN CARRASCO MAZATLAN SIN., MX","FM-12","99999","V020","240,1,N,0050,1","03600,1,C,N","018000,1,N,1","+0314,1","+0243,1","10106,1","99,0000,9,1",,,,,"01,1,+00870,9,08,9",,,"07,99,1,01,1,02,1,00800,1,06,1,99,9",,"01,9",,,,"99999,9,10095,1","7,1,015,1,-023,1",,,"SYN112AAXX  10211 76458 32568 72405 10314 20243 30095 40106 57015 8126/ 92050 333 0/4// 30/// 57845 59023 81829 86270;","Q01  00002PRCP99"
"76458099999","2001-07-11T00:00:00","4","23.2","-106.4166666","4.0","COLONIA JUAN CARRASCO MAZATLAN SIN., MX","FM-12","99999","V020","330,1,N,0020,1","22000,1,9,N","018000,1,N,1","+0318,1","+0227,1","10091,1","99,0000,9,1",,,,,"01,1,+01140,9,08,9",,,"02,99,1,01,1,02,1,01250,1,00,1,06,1",,"01,9",,"120,M,+0337,1","180,N,+0265,1","99999,9,10080,1","7,1,014,1,-021,1",,,"SYN124AAXX  11001 76458 32668 23302 10318 20227 30080 40091 57014 81206 92355 333 0/109 10337 20265 30/// 52481 59021 81838 81072;","Q01  00002PRCP99"
"76458099999","2001-07-11T03:00:00","4","23.2","-106.4166666","4.0","COLONIA JUAN CARRASCO MAZATLAN SIN., MX","FM-12","99999","V020","290,1,N,0020,1","22000,1,9,N","010000,1,N,1","+0294,1","+0248,1","10105,1","99,0000,9,1",,,,,"03,1,+00570,9,08,9",,,"04,99,1,03,1,02,1,00450,1,03,1,00,1",,"01,9",,,,"99999,9,10094,1","2,1,014,1,-015,1",,,"SYN106AAXX  11031 76458 32460 42902 10294 20248 30094 40105 52014 83230 90230 333 0/390 30/// 59015 83819 81358;","Q01  00002PRCP99"
"76458099999","2001-07-11T06:00:00","4","23.2","-106.4166666","4.0","COLONIA JUAN CARRASCO MAZATLAN SIN., MX","FM-12","99999","V020","330,1,N,0020,1","22000,1,9,N","010000,1,N,1","+0276,1","+0195,1","10113,1","99,0000,9,1",,,,,"03,1,+01020,9,05,9",,,"03,99,1,03,1,04,1,01250,1,00,1,00,1","0504,9","01,9",,"240,M,+0335,1","240,N,+0265,1","99999,9,10102,1","2,1,008,1,-013,1",,,"SYN118AAXX  11061 76458 32660 33302 10276 20195 30102 40113 52008 83400 90600 333 0/300 10335 20265 30/// 55084 59013 83634;","Q01  00002PRCP99"
"76458099999","2001-07-11T09:00:00","4","23.2","-106.4166666","4.0","COLONIA JUAN CARRASCO MAZATLAN SIN., MX","FM-12","99999","V020","180,1,N,0020,1","03600,1,C,N","010000,1,N,1","+0274,1","+0207,1","10105,1","99,0000,9,1",,,,,"02,1,+00900,9,09,9",,,"07,99,1,02,1,09,1,00800,1,05,1,00,1",,"01,9",,,,"99999,9,10094,1","8,1,008,1,-014,1",,,"SYN112AAXX  11091 76458 32560 71802 10274 20207 30094 40105 58008 82950 90900 333 07390 30/// 57935 59014 82930 85357;","Q01  00002PRCP99"
"76458099999","2001-07-11T12:00:00","4","23.2","-106.4166666","4.0","COLONIA JUAN CARRASCO MAZATLAN SIN., MX","FM-12","99999","V020","100,1,N,0030,1","03600,1,9,N","010000,1,N,1","+0271,1","+0232,1","10098,1","24,0000,9,1",,,"9,1,06,1","9,1,06,1","08,1,+03600,9,01,9",,,"08,99,1,08,1,00,1,02250,1,99,9,99,9",,"01,9","999,+0250,9","999,M,+0337,1",,"99999,9,10087,1","5,1,007,1,-018,1",,"02,1","SYN124AAXX  11121 76458 31860 81003 10271 20232 30087 40098 55007 70299 880// 91135 333 10337 20661 30025 57499 59018 70000 88462;",
"76458099999","2001-07-11T15:00:00","4","23.2","-106.4166666","4.0","COLONIA JUAN CARRASCO MAZATLAN SIN., MX","FM-12","99999","V020","110,1,N,0020,1","03600,1,9,N","015000,1,N,1","+0284,1","+0245,1","10102,1","99,0000,9,1",,,,,"01,1,+00480,9,08,9",,,"07,99,1,01,1,02,1,00450,1,03,1,00,1",,"01,9",,,,"99999,9,10091,1","2,1,004,1,-011,1",,,"SYN112AAXX  11151 76458 32465 71102 10284 20245 30091 40102 52004 81230 91450 333 0/590 30/// 57854 59011 81816 86362;","Q01  00002PRCP99"
"76458099999","2001-07-11T21:00:00","4","23.2","-106.4166666","4.0","COLONIA JUAN CARRASCO MAZATLAN SIN., MX","FM-12","99999","V020","260,1,N,0050,1","22000,1,9,N","018000,1,N,1","+0310,1","+0257,1","10094,1","99,0000,9,1",,,,,"01,1,+00660,9,08,9","01,1,+01800,9,03,9",,"03,99,1,01,1,02,1,00800,1,03,1,06,1",,"01,9",,,,"99999,9,10084,1","7,1,007,1,-011,1",,,"SYN118AAXX  11211 76458 32568 32605 10310 20257 30084 40094 57007 81236 92045 333 01199 30/// 57815 59011 81822 81356 81070;","Q01  00002PRCP99"
"76458099999","2001-07-12T00:00:00","4","23.2","-106.4166666","4.0","COLONIA JUAN CARRASCO MAZATLAN SIN., MX","FM-12","99999","V020","210,1,N,0020,1","22000,1,9,N","018000,1,N,1","+0312,1","+0253,1","10082,1","99,0000,9,1",,,,,"01,1,+00720,9,08,9",,,"02,99,1,01,1,02,1,00800,1,00,1,06,1",,"01,9",,"120,M,+0336,1","180,N,+0261,1","99999,9,10070,1","7,1,013,1,-010,1",,,"SYN124AAXX  12001 76458 32568 22102 10312 20253 30070 40082 57013 81206 92355 333 0/109 10336 20261 30/// 57401 59010 81824 81072;","Q01  00002PRCP99"
"76458099999","2001-07-12T03:00:00","4","23.2","-106.4166666","4.0","COLONIA JUAN CARRASCO MAZATLAN SIN., MX","FM-12","99999","V020","999,9,9,9999,9","22000,1,9,N","010000,1,N,1","+0306,1","+0250,1","10096,1","99,0000,9,1",,,,,"02,1,+02400,9,03,9",,,"04,99,1,99,9,00,1,99999,9,03,1,06,1",,"01,9",,,,"99999,9,10085,1","2,1,015,1,-009,1",,,"SYN106AAXX  12031 76458 32960 43902 10306 20250 30085 40096 52015 80036 90230 333 0/099 30/// 59009 82358 82072;","Q01+000002SCOTLCQ02  00002PRCP99"
"76458099999","2001-07-12T06:00:00","4","23.2","-106.4166666","4.0","COLONIA JUAN CARRASCO MAZATLAN SIN., MX","FM-12","99999","V020","360,1,N,0020,1","00540,1,9,N","010000,1,N,1","+0294,1","+0254,1","10110,1","99,0000,9,1",,,,,"07,1,+00540,9,05,9",,,"07,99,1,07,1,04,1,00450,1,00,1,00,1","0402,9","01,9",,"240,M,+0335,1","240,N,+0261,1","99999,9,10099,1","2,1,014,1,-003,1",,,"SYN118AAXX  12061 76458 32460 73602 10294 20254 30099 40110 52014 87400 90600 333 0/100 10335 20261 30/// 55067 59003 87618;","Q01  00002PRCP99"
"76458099999","2001-07-12T09:00:00","4","23.2","-106.4166666","4.0","COLONIA JUAN CARRASCO MAZATLAN SIN., MX","FM-12","99999","V020","270,1,N,0020,1","00540,1,9,N","010000,1,N,1","+0294,1","+0250,1","10198,2","99,0000,9,1",,,,,"07,1,+00540,9,06,9",,,"07,99,1,07,1,05,1,00450,1,00,1,00,1",,"01,9",,,,"99999,9,10087,1","7,1,012,1,-007,1",,,"SYN100AAXX  12091 76458 32460 72702 10294 20250 30087 40198 57012 87500 90855 333 0/100 30/// 59007 87718;","Q01+101983APOSLPQ02  00002PRCP99"
"76458099999","2001-07-12T15:00:00","4","23.2","-106.4166666","4.0","COLONIA JUAN CARRASCO MAZATLAN SIN., MX","FM-12","99999","V020","140,1,N,0020,1","00330,1,9,N","015000,1,N,1","+0280,1","+0253,1","10119,1","99,0000,9,1",,,,,"08,1,+00330,9,05,9",,,"08,99,1,08,1,04,1,00450,1,00,1,00,1",,"01,9",,,,"99999,9,10108,1","2,1,015,1,+017,1",,,"SYN106AAXX  12151 76458 32465 81402 10280 20253 30108 40119 52015 88400 91450 333 0/900 30/// 57699 58017 88611;","Q01  00002PRCP99"
"76458099999","2001-07-12T18:00:00","4","23.2","-106.4166666","4.0","COLONIA JUAN CARRASCO MAZATLAN SIN., MX","FM-12","99999","V020","290,1,N,0030,1","22000,1,9,N","018000,1,N,1","+0306,1","+0250,1","10114,1","99,0000,9,1",,,,,"02,1,+00690,9,08,9",,,"03,99,1,02,1,02,1,00450,1,00,1,02,1",,"01,9",,"120,M,+0325,1","240,N,+0266,1","99999,9,10103,1","8,1,005,1,+012,1",,,"SYN124AAXX  12181 76458 32468 32903 10306 20250 30103 40114 58005 82202 91750 333 0/5// 10325 20266 30/// 57852 58012 82823 81070;","Q01  00002PRCP99"
"76458099999","2001-07-12T21:00:00","4","23.2","-106.4166666","4.0","COLONIA JUAN CARRASCO MAZATLAN SIN., MX","FM-12","99999","V020","240,1,N,0040,1","22000,1,9,N","018000,1,N,1","+0316,1","+0240,1","10109,1","99,0000,9,1",,,,,"01,1,+00960,9,08,9",,,"03,99,1,01,1,02,1,00800,1,00,1,02,1",,"01,9",,,,"99999,9,10058,1","8,1,005,1,+014,1",,,"SYN112AAXX  12211 76458 32568 32404 10316 20240 30058 40109 58005 81202 92045 333 01109 30/// 57815 58014 81832 82070;","Q01  00002PRCP99"
"76458099999","2001-07-13T03:00:00","4","23.2","-106.4166666","4.0","COLONIA JUAN CARRASCO MAZATLAN SIN., MX","FM-12","99999","V020","290,1,N,0020,1","03600,1,C,N","010000,1,N,1","+0310,1","+0243,1","10118,1","99,0000,9,1",,,,,"04,1,+00840,9,08,9",,,"06,99,1,04,1,02,1,00800,1,03,1,00,1",,"01,9",,,,"99999,9,10106,1","2,1,018,1,+021,1",,,"SYN106AAXX  13031 76458 32560 62902 10310 20243 30106 40118 52018 84230 90235 333 00190 30/// 58021 84828 82358;","Q01  00002PRCP99"
"76458099999","2001-07-13T09:00:00","4","23.2","-106.4166666","4.0","COLONIA JUAN CARRASCO MAZATLAN SIN., MX","FM-12","99999","V020","999,9,C,0000,1","03600,1,C,N","010000,1,N,1","+0280,1","+0228,1","10122,1","99,0000,9,1",,,,,"02,1,+00660,9,06,9",,,"06,99,1,02,1,04,1,00800,1,03,1,00,1",,"01,9",,,,"99999,9,10111,1","5,1,010,1,+024,1",,,"SYN106AAXX  13091 76458 32560 60000 10280 20228 30111 40122 55010 82430 90845 333 0/110 30/// 58024 82622 84358;","Q01  00002PRCP99"
"76458099999","2001-07-13T21:00:00","4","23.2","-106.4166666","4.0","COLONIA JUAN CARRASCO MAZATLAN SIN., MX","FM-12","99999","V020","210,1,N,0040,1","03600,1,C,N","018000,1,N,1","+0322,1","+0245,1","10121,1","99,0000,9,1",,,,,"01,1,+00960,9,08,9",,,"06,99,1,01,1,02,1,00800,1,05,1,00,1",,"01,9",,,,"99999,9,10110,1","7,1,011,1,+012,1",,,"SYN112AAXX  13211 76458 32568 62104 10322 20245 30110 40121 57011 81250 92045 333 0/5// 30/// 57854 58012 81832 85358;","Q01  00002PRCP99"
"76458099999","2001-07-14T03:00:00","4","23.2","-106.4166666","4.0","COLONIA JUAN CARRASCO MAZATLAN SIN., MX","FM-12","99999","V020","290,1,N,0020,1","00600,1,9,N","010000,1,N,1","+0298,1","+0250,1","10121,1","99,0000,9,1",,,,,"07,1,+00600,9,05,9",,,"07,99,1,07,1,06,1,00800,1,00,1,00,1",,"01,9",,,,"99999,9,10110,1","2,1,008,1,+004,1",,,"SYN100AAXX  14031 76458 32560 72902 10298 20250 30110 40121 52008 87600 90245 333 0/900 30/// 58004 87620;","Q01  00002PRCP99"
"76458099999","2001-07-14T06:00:00","4","23.2","-106.4166666","4.0","COLONIA JUAN CARRASCO MAZATLAN SIN., MX","FM-12","99999","V020","090,1,N,0020,1","03600,1,9,N","004800,1,N,1","+0272,1","+0236,1","10135,1","06,0010,9,1",,,"0,1,06,1","0,1,06,1","02,1,+00450,9,08,9",,,"07,99,1,03,1,02,1,00800,1,06,1,00,1","0300,9","09,9",,"240,M,+0345,1","240,N,+0268,1","99999,9,10124,1","2,1,014,1,+004,1",,"20,1","SYN142AAXX  14061 76458 11548 70902 10272 20236 30124 40135 52014 60011 72000 83260 90600 333 0/690 10345 20268 31/// 55050 57860 58004 82815 84356;",
"76458099999","2001-07-14T09:00:00","4","23.2","-106.4166666","4.0","COLONIA JUAN CARRASCO MAZATLAN SIN., MX","FM-12","99999","V020","360,1,N,0030,1","03600,1,C,N","008000,1,N,1","+0266,1","+0239,1","10119,1","99,0000,2,1",,,"5,1,03,1","5,1,03,1","01,1,+00330,9,09,9",,,"08,99,1,01,1,09,1,00450,1,02,1,00,1",,"01,9",,,,"99999,9,10108,1","7,1,016,1,-003,1",,"13,1","SYN118AAXX  14091 76458 31458 83603 10266 20239 30108 40119 57016 71355 81920 90845 333 0/400 30/// 57940 59003 81911 87548;",
"76458099999","2001-07-14T15:00:00","4","23.2","-106.4166666","4.0","COLONIA JUAN CARRASCO MAZATLAN SIN., MX","FM-12","99999","V020","130,1,N,0030,1","03600,1,9,N","018000,1,N,1","+0276,1","+0238,1","10133,1","99,0000,2,1",,,,,"01,1,+00480,9,08,9",,,"05,99,1,01,1,02,1,00450,1,05,1,00,1",,"01,9",,,,"99999,9,10122,1","2,1,017,1,+007,1",,,"SYN112AAXX  14151 76458 32468 51303 10276 20238 30122 40133 52017 81250 91455 333 0/490 30/// 57846 58007 81816 84362;",
"76458099999","2001-07-14T18:00:00","4","23.2","-106.4166666","4.0","COLONIA JUAN CARRASCO MAZATLAN SIN., MX","FM-12","99999","V020","270,1,N,0030,1","22000,1,9,N","018000,1,N,1","+0314,1","+0238,1","10121,1","99,0000,2,1",,,,,"01,1,+00960,9,08,9",,,"03,99,1,01,1,01,1,00800,1,00,1,02,1",,"01,9",,"120,M,+0336,1","240,N,+0250,1","99999,9,10110,1","8,1,012,1,-011,1",,,"SYN118AAXX  14181 76458 32568 32703 10314 20238 30110 40121 58012 81102 91750 333 0/6// 10336 20250 30/// 59011 81832 82070;",
"76458099999","2001-07-14T21:00:00","4","23.2","-106.4166666","4.0","COLONIA JUAN CARRASCO MAZATLAN SIN., MX","FM-12","99999","V020","210,1,N,0060,1","09000,1,C,N","018000,1,N,1","+0316,1","+0252,1","10109,1","99,0000,9,1",,,,,"01,1,+00810,9,08,9","03,1,+02400,9,06,9",,"06,99,1,01,1,02,1,00800,1,00,1,03,1",,"01,9",,,,"99999,9,10098,1","6,1,011,1,-012,1",,,"SYN118AAXX  14211 76458 32568 62106 10316 20252 30098 40109 56011 81203 92050 333 0/5// 30/// 57854 59012 81827 83658 82070;","Q01  00002PRCP99"
"76458099999","2001-07-15T00:00:00","4","23.2","-106.4166666","4.0","COLONIA JUAN CARRASCO MAZATLAN SIN., MX","FM-12","99999","V020","250,1,N,0040,1","02400,1,9,N","018000,1,N,1","+0300,1","+0252,1","10105,1","24,0015,9,1",,,"0,1,06,1","0,1,06,1","01,1,+00600,9,06,9","05,1,+02400,9,04,9",,"07,99,1,01,1,05,1,00800,1,02,1,06,1",,"01,9",,"120,M,+0348,1","180,N,+0250,1","99999,9,10094,1","6,1,004,1,-009,1",,"20,1","SYN142AAXX  15001 76458 31568 72504 10300 20252 30094 40105 56004 72000 81526 92350 333 0/199 10348 20250 30/// 57610 59009 70015 81620 85458 81070;",
"76458099999","2001-07-15T03:00:00","4","23.2","-106.4166666","4.0","COLONIA JUAN CARRASCO MAZATLAN SIN., MX","FM-12","99999","V020","320,1,N,0020,1","03600,1,C,N","008000,1,N,1","+0268,1","+0252,1","10114,1","06,0003,9,1",,,"5,1,03,1","5,1,03,1","02,1,+00210,9,09,9",,,"08,99,1,02,1,09,1,00250,1,02,1,00,1",,"09,9",,,,"99999,9,10103,1","2,1,007,1,+003,1",,"13,1","SYN124AAXX  15031 76458 11358 83202 10268 20252 30103 40114 52007 69931 71355 82920 90245 333 0/190 31/// 57910 58003 82907 87458;",
"76458099999","2001-07-15T06:00:00","4","23.2","-106.4166666","4.0","COLONIA JUAN CARRASCO MAZATLAN SIN., MX","FM-12","99999","V020","330,1,N,0030,1","00480,1,9,N","008000,1,N,1","+0268,1","+0229,1","10110,1","99,0000,2,1",,,,,"08,1,+00480,9,05,9",,,"08,99,1,08,1,04,1,00450,1,00,1,00,1","0312,9","01,9",,"240,M,+0348,1","240,N,+0250,1","99999,9,10099,1","7,1,004,1,-026,1",,,"SYN118AAXX  15061 76458 32458 83303 10268 20229 30099 40110 57004 88400 90558 333 0/900 10348 20250 30/// 55052 59026 88616;",
"76458099999","2001-07-15T09:00:00","4","23.2","-106.4166666","4.0","COLONIA JUAN CARRASCO MAZATLAN SIN., MX","FM-12","99999","V020","999,9,C,0000,1","00090,1,9,N","004000,1,N,1","+0259,1","+0247,1","10111,1","03,0130,9,1",,,"2,1,03,1","2,1,03,1","08,1,+00090,9,06,9",,,"08,99,1,08,1,05,1,00150,1,00,1,00,1",,"11,9",,,,"99999,9,10100,1","2,1,001,1,-008,1",,"63,1","SYN112AAXX  15091 76458 32240 80000 10259 20247 30100 40111 52001 76322 88500 90850 333 0/100 32/// 59008 60137 88703;",
"76458099999","2001-07-15T15:00:00","4","23.2","-106.4166666","4.0","COLONIA JUAN CARRASCO MAZATLAN SIN., MX","FM-12","99999","V020","320,1,N,0020,1","22000,1,9,N","020000,1,N,1","+0266,1","+0244,1","10108,1","99,0000,2,1",,,"5,1,03,1","5,1,03,1","01,1,+00270,9,02,9",,,"01,99,1,01,1,02,1,00250,1,00,1,00,1",,"09,9",,,,"99999,9,10097,1","5,1,000,1,-025,1",,"00,1","SYN112AAXX  15151 76458 31370 13202 10266 20244 30097 40108 55000 70055 81200 91445 333 01500 31/// 57813 59025 81809;",
"76458099999","2001-07-15T18:00:00","4","23.2","-106.4166666","4.0","COLONIA JUAN CARRASCO MAZATLAN SIN., MX","FM-12","99999","V020","290,1,N,0050,1","22000,1,9,N","020000,1,N,1","+0294,1","+0251,1","99999,9","99,0000,2,1",,,,,"02,1,+00540,9,02,9",,,"02,99,1,02,1,03,1,00450,1,00,1,99,9",,"01,9",,"120,M,+0313,1","240,N,+0247,1","99999,9,10089,1","8,1,008,1,-021,1",,,"SYN118AAXX  15181 76458 32470 22905 10294 20251 30089 40010 58008 8230/ 91755 333 0/7// 10313 20247 30/// 57874 59021 82818;","Q01+100103APOSLP"
"76458099999","2001-07-15T21:00:00","4","23.2","-106.4166666","4.0","COLONIA JUAN CARRASCO MAZATLAN SIN., MX","FM-12","99999","V020","230,1,N,0040,1","22000,1,9,N","020000,1,N,1","+0304,1","+0245,1","10089,1","99,0000,2,1",,,,,"02,1,+00750,9,02,9",,,"02,99,1,02,1,03,1,00800,1,00,1,99,9",,"01,9",,,,"99999,9,10078,1","7,1,011,1,-020,1",,,"SYN106AAXX  15211 76458 32570 22304 10304 20245 30078 40089 57011 8230/ 92055 333 0/5// 30/// 57852 59020 82825;",
"76458099999","2001-07-16T00:00:00","4","23.2","-106.4166666","4.0","COLONIA JUAN CARRASCO MAZATLAN SIN., MX","FM-12","99999","V020","030,1,N,9999,9","03600,1,9,N","020000,1,N,1","+0296,1","+0236,1","10083,1","24,0307,9,1","99,0000,9,1",,,,"02,1,+00750,9,06,9",,,"07,99,1,02,1,04,1,00800,1,02,1,08,1",,"01,9",,"120,M,+0324,1","180,N,+0247,1","99999,9,10072,1","7,1,006,1,-022,1",,,"SYN136AAXX  16001 76458 32570 70329 10296 20236 30072 40083 57006 82428 92350 333 0/999 10324 20247 30/// 50541 57690 59022 70307 82625 84464;","Q01+002903WOSPD Q02  00002PRCP99"
"76458099999","2001-07-16T03:00:00","4","23.2","-106.4166666","4.0","COLONIA JUAN CARRASCO MAZATLAN SIN., MX","FM-12","99999","V020","270,1,N,0020,1","03600,1,9,N","010000,1,N,1","+0292,1","+0230,1","10090,1","99,0000,9,1",,,"0,1,03,1","0,1,03,1","01,1,+00780,9,09,9","04,1,+03600,9,04,9",,"06,99,1,01,1,09,1,00800,1,02,1,08,1",,"01,9",,,,"99999,9,10079,1","0,1,007,1,-024,1",,"13,1","SYN124AAXX  16031 76458 31560 62702 10292 20230 30079 40090 50007 71300 81928 90248 333 00399 30/// 57939 59024 81926 84462 81268;","Q01  00002PRCP99"
"76458099999","2001-07-16T06:00:00","4","23.2","-106.4166666","4.0","COLONIA JUAN CARRASCO MAZATLAN SIN., MX","FM-12","99999","V020","999,9,9,9999,9","22000,1,9,N","010000,1,N,1","+0288,1","+0242,1","10109,1","99,0000,9,1",,,,,"03,1,+00570,9,05,9",,,"04,99,1,03,1,04,1,00450,1,00,1,00,1",,"01,9",,"240,M,+0324,1","240,N,+0247,1","99999,9,10098,1","0,1,019,1,-001,1",,,"SYN112AAXX  16061 76458 32460 43902 10288 20242 30098 40109 5018/ 83400 90558 333 0/600 10324 20247 30/// 59001 83619;","Q01+001802APC3  Q02  00002PRCP99"
"76458099999","2001-07-16T09:00:00","4","23.2","-106.4166666","4.0","COLONIA JUAN CARRASCO MAZATLAN SIN., MX","FM-12","99999","V020","290,1,N,0020,1","00300,1,9,N","010000,1,N,1","+0270,1","+0246,1","10105,1","99,0000,9,1",,,,,"06,1,+00300,9,07,9",,,"07,99,1,07,1,09,1,00250,1,00,1,00,1",,"01,9",,,,"99999,9,10094,1","8,1,003,1,-006,1",,,"SYN112AAXX  16091 76458 32360 72902 10270 20246 30094 40105 58003 87900 90845 333 07600 30/// 57963 59006 86710 81934;","Q01  00002PRCP99"
"76458099999","2001-07-16T15:00:00","4","23.2","-106.4166666","4.0","COLONIA JUAN CARRASCO MAZATLAN SIN., MX","FM-12","99999","V020","110,1,N,0020,1","22000,1,9,N","020000,1,N,1","+0290,1","+0238,1","10119,1","99,0000,9,1",,,,,"01,1,+00660,9,09,9","01,1,+01800,9,03,9",,"03,99,1,01,1,09,1,00800,1,03,1,06,1",,"01,9",,,,"99999,9,10108,1","2,1,011,1,+011,1",,,"SYN118AAXX  16151 76458 32570 31102 10290 20238 30108 40119 52011 81936 91450 333 0/699 30/// 57961 58011 81922 81356 81070;","Q01  00002PRCP99"
"76458099999","2001-07-16T18:00:00","4","23.2","-106.4166666","4.0","COLONIA JUAN CARRASCO MAZATLAN SIN., MX","FM-12","99999","V020","180,1,N,0030,1","22000,1,9,N","020000,1,N,1","+0318,1","+0237,1","10116,1","99,0000,9,1",,,,,"01,1,+00600,9,09,9","01,1,+01020,9,08,9",,"03,99,1,02,1,09,1,00800,1,00,1,03,1",,"01,9",,"120,M,+0332,1","240,N,+0260,1","99999,9,10106,1","8,1,002,1,+017,1",,,"SYN130AAXX  16181 76458 32570 31803 10318 20237 30106 40116 58002 82903 91750 333 0/7// 10332 20260 30/// 57974 58017 81920 81834 81070;","Q01  00002PRCP99"
"76458099999","2001-07-16T21:00:00","4","23.2","-106.4166666","4.0","COLONIA JUAN CARRASCO MAZATLAN SIN., MX","FM-12","99999","V020","210,1,N,0050,1","22000,1,9,N","020000,1,N,1","+0318,1","+0260,1","10104,1","99,0000,9,1",,,,,"01,1,+00720,9,08,9",,,"02,99,1,01,1,03,1,00800,1,00,1,00,1",,"01,9",,,,"99999,9,10093,1","7,1,013,1,+015,1",,,"SYN112AAXX  16211 76458 32570 22105 10318 20260 30093 40104 57013 81300 92055 333 0/4// 30/// 57842 58015 81824 81070;","Q01  00002PRCP99"
"76458099999","2001-07-17T00:00:00","4","23.2","-106.4166666","4.0","COLONIA JUAN CARRASCO MAZATLAN SIN., MX","FM-12","99999","V020","280,1,N,0020,1","22000,1,9,N","020000,1,N,1","+0318,1","+0257,1","10095,1","99,0000,9,1",,,,,"02,1,+00750,9,08,9",,,"03,99,1,02,1,02,1,00800,1,00,1,06,1",,"01,9",,"120,M,+0342,1","180,N,+0260,1","99999,9,10084,1","7,1,011,1,+012,1",,,"SYN124AAXX  17001 76458 32570 32802 10318 20257 30084 40095 57011 82206 92355 333 0/109 10342 20260 30/// 55431 58012 82825 81072;","Q01  00002PRCP99"
"76458099999","2001-07-17T03:00:00","4","23.2","-106.4166666","4.0","COLONIA JUAN CARRASCO MAZATLAN SIN., MX","FM-12","99999","V020","270,1,N,0010,1","22000,1,9,N","010000,1,N,1","+0298,1","+0240,1","10108,1","99,0000,9,1",,,,,"02,1,+02400,9,03,9",,,"03,99,1,99,9,00,1,99999,9,03,1,06,1",,"01,9",,,,"99999,9,10098,1","2,1,014,1,+019,1",,,"SYN106AAXX  17031 76458 32960 32701 10298 20240 30098 40108 52014 80036 90235 333 0/099 30/// 58019 82358 81072;","Q01+000002SCOTLCQ02  00002PRCP99"
"76458099999","2001-07-17T09:00:00","4","23.2","-106.4166666","4.0","COLONIA JUAN CARRASCO MAZATLAN SIN., MX","FM-12","99999","V020","360,1,N,0020,1","22000,1,9,N","010000,1,N,1","+0268,1","+0224,1","10120,1","99,0000,9,1",,,,,"00,1,+99999,9,99,9",,,"00,99,1,00,1,00,1,99999,9,00,1,00,1",,"01,9",,,,"99999,9,10110,1","6,1,002,1,+015,1",,,"SYN082AAXX  17091 76458 32960 03602 10268 20224 30110 40120 56002 90840 333 30/// 58015;","Q01  00002PRCP99"
"76458099999","2001-07-17T15:00:00","4","23.2","-106.4166666","4.0","COLONIA JUAN CARRASCO MAZATLAN SIN., MX","FM-12","99999","V020","999,9,C,0000,1","22000,1,9,N","018000,1,N,1","+0292,1","+0224,1","10132,1","99,0000,9,1",,,,,"01,1,+00840,9,09,9",,,"02,99,1,01,1,09,1,00800,1,00,1,03,1",,"01,9",,,,"99999,9,10121,1","1,1,020,1,+013,1",,,"SYN112AAXX  17151 76458 32568 20000 10292 20224 30121 40132 51020 81903 91455 333 0/4// 30/// 57945 58013 81928 81070;","Q01  00002PRCP99"
"76458099999","2001-07-17T18:00:00","4","23.2","-106.4166666","4.0","COLONIA JUAN CARRASCO MAZATLAN SIN., MX","FM-12","99999","V020","230,1,N,0060,1","22000,1,9,N","018000,1,N,1","+0312,1","+0245,1","10127,1","99,0000,9,1",,,,,"02,1,+00840,9,02,9",,,"02,99,1,02,1,08,1,00800,1,00,1,99,9",,"01,9",,"120,M,+0334,1","240,N,+0258,1","99999,9,10116,1","8,1,005,1,+006,1",,,"SYN118AAXX  17181 76458 32568 22306 10312 20245 30116 40127 58005 8280/ 91750 333 0/3// 10334 20258 30/// 57834 58006 82828;","Q01  00002PRCP99"
"76458099999","2001-07-17T21:00:00","4","23.2","-106.4166666","4.0","COLONIA JUAN CARRASCO MAZATLAN SIN., MX","FM-12","99999","V020","270,1,N,0060,1","22000,1,9,N","018000,1,N,1","+0320,1","+0251,1","10124,1","99,0000,9,1",,,,,"01,1,+00870,9,02,9",,,"01,99,1,01,1,08,1,00800,1,00,1,99,9",,"01,9",,,,"99999,9,10113,1","8,1,003,1,+017,1",,,"SYN106AAXX  17211 76458 32568 12706 10320 20251 30113 40124 58003 8180/ 92050 333 0/6// 30/// 57863 58017 81829;","Q01  00002PRCP99"
"76458099999","2001-07-18T03:00:00","4","23.2","-106.4166666","4.0","COLONIA JUAN CARRASCO MAZATLAN SIN., MX","FM-12","99999","V020","280,1,N,0010,1","22000,1,9,N","010000,1,N,1","+0304,1","+0248,1","10118,1","99,0000,9,1",,,,,"01,1,+02400,9,07,9",,,"01,99,1,99,9,99,9,99999,9,03,1,00,1",,"01,9",,,,"99999,9,10107,1","2,1,002,1,+009,1",,,"SYN100AAXX  18031 76458 32960 12801 10304 20248 30107 40118 52002 80030 90255 333 0/090 30/// 58009 81358;","Q01+000002SCOTLCQ02  00002PRCP99Q03    003SCOLCG"
"76458099999","2001-07-18T06:00:00","4","23.2","-106.4166666","4.0","COLONIA JUAN CARRASCO MAZATLAN SIN., MX","FM-12","99999","V020","310,1,N,0040,1","22000,1,9,N","010000,1,N,1","+0298,1","+0244,1","10115,1","99,0000,9,1",,,,,"03,1,+08700,9,01,9",,,"03,99,1,00,1,00,1,99999,9,00,1,02,1",,"01,9",,"240,M,+0338,1","240,N,+0258,1","99999,9,10104,1","0,1,004,1,-008,1",,,"SYN118AAXX  18061 76458 32960 33104 10298 20244 30104 40115 50004 80002 90550 333 0/009 10338 20258 30/// 55/// 59008 83079;","Q01  00002PRCP99"
"76458099999","2001-07-18T09:00:00","4","23.2","-106.4166666","4.0","COLONIA JUAN CARRASCO MAZATLAN SIN., MX","FM-12","99999","V020","360,1,N,0020,1","22000,1,9,N","010000,1,N,1","+0288,1","+0245,1","10106,1","99,0000,9,1",,,,,"03,1,+00540,9,05,9",,,"03,99,1,03,1,04,1,00450,1,00,1,00,1",,"01,9",,,,"99999,9,10095,1","6,1,008,1,-014,1",,,"SYN100AAXX  18091 76458 32460 33602 10288 20245 30095 40106 56008 83400 90845 333 0/100 30/// 59014 83618;","Q01  00002PRCP99"
"76458099999","2001-07-18T15:00:00","4","23.2","-106.4166666","4.0","COLONIA JUAN CARRASCO MAZATLAN SIN., MX","FM-12","99999","V020","280,1,N,0030,1","22000,1,9,N","018000,1,N,1","+0308,1","+0246,1","10118,1","99,0000,9,1",,,,,"01,1,+00600,9,09,9","02,1,+00750,9,08,9",,"04,99,1,03,1,03,1,00800,1,00,1,03,1",,"01,9",,,,"99999,9,10107,1","1,1,008,1,-014,1",,,"SYN118AAXX  18151 76458 32568 42803 10308 20246 30107 40118 51008 83303 91455 333 0/5// 30/// 57953 59014 81920 82825 81070;","Q01  00002PRCP99"
"76458099999","2001-07-18T18:00:00","4","23.2","-106.4166666","4.0","COLONIA JUAN CARRASCO MAZATLAN SIN., MX","FM-12","99999","V020","250,1,N,0040,1","22000,1,9,N","020000,1,N,1","+0314,1","+0256,1","10111,1","99,0000,9,1",,,,,"01,1,+00720,9,08,9",,,"03,99,1,01,1,02,1,00800,1,00,1,02,1",,"01,9",,"120,M,+0330,1","240,N,+0275,1","99999,9,10100,1","8,1,007,1,-016,1",,,"SYN118AAXX  18181 76458 32570 32504 10314 20256 30100 40111 58007 81202 91745 333 01109 10330 20275 30/// 59016 81824 82070;","Q01  00002PRCP99"
"76458099999","2001-07-18T21:00:00","4","23.2","-106.4166666","4.0","COLONIA JUAN CARRASCO MAZATLAN SIN., MX","FM-12","99999","V020","280,1,N,0040,1","22000,1,9,N","020000,1,N,1","+0316,1","+0246,1","10109,1","99,0000,9,1",,,,,"01,1,+00870,9,09,9",,,"04,99,1,01,1,09,1,00800,1,00,1,06,1",,"01,9",,,,"99999,9,10098,1","8,1,002,1,-015,1",,,"SYN112AAXX  18211 76458 32570 42804 10316 20246 30098 40109 58002 81906 92045 333 0/109 30/// 57911 59015 81929 83070;","Q01  00002PRCP99"
"76458099999","2001-07-19T00:00:00","4","23.2","-106.4166666","4.0","COLONIA JUAN CARRASCO MAZATLAN SIN., MX","FM-12","99999","V020","260,1,N,0030,1","02400,1,9,N","020000,1,N,1","+0304,1","+0239,1","10101,1","99,0000,9,1",,,,,"06,1,+02400,9,07,9",,,"06,99,1,99,9,99,9,99999,9,02,1,00,1",,"01,9",,"120,M,+0335,1","180,N,+0275,1","99999,9,10090,1","7,1,007,1,-012,1",,,"SYN118AAXX  19001 76458 32970 62603 10304 20239 30090 40101 57007 80020 92350 333 0/090 10335 20275 30/// 57241 59012 86358;","Q01+000002SCOTLCQ02  00002PRCP99Q03    003SCOLCG"
"76458099999","2001-07-19T03:00:00","4","23.2","-106.4166666","4.0","COLONIA JUAN CARRASCO MAZATLAN SIN., MX","FM-12","99999","V020","290,1,N,0010,1","22000,1,9,N","010000,1,N,1","+0298,1","+0232,1","10102,1","99,0000,9,1",,,,,"02,1,+02400,9,03,9",,,"04,99,1,99,9,00,1,99999,9,03,1,06,1",,"01,9",,,,"99999,9,10091,1","2,1,001,1,-015,1",,,"SYN106AAXX  19031 76458 32960 42901 10298 20232 30091 40102 52001 80036 90230 333 0/099 30/// 59015 82358 82072;","Q01+000002SCOTLCQ02  00002PRCP99"
"76458099999","2001-07-19T09:00:00","4","23.2","-106.4166666","4.0","COLONIA JUAN CARRASCO MAZATLAN SIN., MX","FM-12","99999","V020","999,9,C,0000,1","00450,1,C,N","010000,1,N,1","+0278,1","+0248,1","10106,1",,,,"5,1,03,1","5,1,03,1","07,1,+00450,9,07,9","09,1,+02100,9,09,9",,"08,99,1,09,1,09,1,00450,1,00,1,00,1",,"01,9",,,,"99999,9,10095,1","7,1,018,1,-001,1",,"51,1","SYN124AAXX  19091 76458 21460 80000 10278 20248 30095 40106 57018 75155 88900 90850 333 07100 30/// 57917 59001 89957 87715 81933;","Q01+000082SCOTLC"
"76458099999","2001-07-19T15:00:00","4","23.2","-106.4166666","4.0","COLONIA JUAN CARRASCO MAZATLAN SIN., MX","FM-12","99999","V020","360,1,N,0020,1","22000,1,9,N","020000,1,N,1","+0290,1","+0253,1","10111,1","99,0000,2,1",,,,,"01,1,+01800,9,03,9",,,"03,99,1,01,1,00,1,02250,1,03,1,02,1",,"01,9",,,,"99999,9,10100,1","4,1,000,1,-007,1",,,"SYN100AAXX  19151 76458 32870 33602 10290 20253 30100 40111 54002 81032 91445 333 30/// 59007 81356 82070;",
"76458099999","2001-07-19T21:00:00","4","23.2","-106.4166666","4.0","COLONIA JUAN CARRASCO MAZATLAN SIN., MX","FM-12","99999","V020","250,1,N,0060,1","22000,1,9,N","018000,1,N,1","+0326,1","+0249,1","10105,1","99,0000,2,1",,,,,"02,1,+00960,9,08,9",,,"03,99,1,02,1,02,1,00800,1,00,1,03,1",,"01,9",,,,"99999,9,10094,1","7,1,009,1,-004,1",,,"SYN112AAXX  19211 76458 32568 32506 10326 20249 30094 40105 57009 82203 92050 333 0/5// 30/// 57854 59004 82832 81070;",
"76458099999","2001-07-20T00:00:00","4","23.2","-106.4166666","4.0","COLONIA JUAN CARRASCO MAZATLAN SIN., MX","FM-12","99999","V020","260,1,N,0030,1","22000,1,9,N","018000,1,N,1","+0324,1","+0239,1","10092,1","99,0000,9,1",,,,,"01,1,+01470,9,08,9","01,1,+02400,9,03,9",,"03,99,1,01,1,02,1,01250,1,03,1,06,1",,"01,9",,"120,M,+0345,1","180,N,+0270,1","99999,9,10081,1","7,1,013,1,-009,1",,,"SYN130AAXX  20001 76458 32668 32603 10324 20239 30081 40092 57013 81236 92358 333 0/199 10345 20270 30/// 54721 59009 81849 81358 81072;","Q01  00002PRCP99"
"76458099999","2001-07-20T03:00:00","4","23.2","-106.4166666","4.0","COLONIA JUAN CARRASCO MAZATLAN SIN., MX","FM-12","99999","V020","290,1,N,0020,1","22000,1,9,N","010000,1,N,1","+0302,1","+0240,1","10101,1","99,0000,9,1",,,,,"02,1,+00750,9,06,9",,,"04,99,1,02,1,04,1,00800,1,03,1,00,1",,"01,9",,,,"99999,9,10090,1","2,1,009,1,-001,1",,,"SYN106AAXX  20031 76458 32560 42902 10302 20240 30090 40101 52009 82430 90230 333 0/990 30/// 59001 82625 82358;","Q01  00002PRCP99"
"76458099999","2001-07-20T18:00:00","4","23.2","-106.4166666","4.0","COLONIA JUAN CARRASCO MAZATLAN SIN., MX","FM-12","99999","V020","180,1,N,0040,1","09000,1,C,N","018000,1,N,1","+0318,1","+0262,1","10132,1","99,0000,9,1",,,,,"02,1,+00540,9,09,9","02,1,+00720,9,08,9",,"05,99,1,04,1,03,1,00800,1,00,1,02,1",,"01,9",,"120,M,+0329,1","240,N,+0270,1","99999,9,10121,1","0,1,007,1,+018,1",,,"SYN130AAXX  20181 76458 32568 51804 10318 20262 30121 40132 50007 84302 91755 333 0/3// 10329 20270 30/// 57931 58018 82918 82824 81070;","Q01  00002PRCP99"
"76458099999","2001-07-20T21:00:00","4","23.2","-106.4166666","4.0","COLONIA JUAN CARRASCO MAZATLAN SIN., MX","FM-12","99999","V020","210,1,N,0050,1","22000,1,9,N","018000,1,N,1","+0324,1","+0238,1","10119,1","99,0000,9,1",,,,,"02,1,+01080,9,02,9",,,"02,99,1,02,1,03,1,01250,1,00,1,99,9",,"01,9",,,,"99999,9,10108,1","7,1,013,1,+014,1",,,"SYN106AAXX  20211 76458 32668 22105 10324 20238 30108 40119 57013 8230/ 92050 333 0/3// 30/// 57832 58014 82836;","Q01  00002PRCP99"
"76458099999","2001-07-21T00:00:00","4","23.2","-106.4166666","4.0","COLONIA JUAN CARRASCO MAZATLAN SIN., MX","FM-12","99999","V020","260,1,N,0030,1","03600,1,C,N","018000,1,N,1","+0314,1","+0247,1","10101,1","99,0000,9,1",,,,,"03,1,+00840,9,08,9",,,"05,99,1,03,1,02,1,00800,1,04,1,00,1",,"01,9",,"120,M,+0340,1","180,N,+0270,1","99999,9,10091,1","7,1,016,1,+010,1",,,"SYN124AAXX  21001 76458 32568 52603 10314 20247 30091 40101 57016 83240 92350 333 0/190 10340 20270 30/// 54561 58010 83828 82358;","Q01  00002PRCP99"
"76458099999","2001-07-21T03:00:00","4","23.2","-106.4166666","4.0","COLONIA JUAN CARRASCO MAZATLAN SIN., MX","FM-12","99999","V020","280,1,N,0020,1","22000,1,C,N","010000,1,N,1","+0300,1","+0238,1","10109,1","99,0000,9,1",,,,,"04,1,+00780,9,08,9",,,"06,99,1,04,1,02,1,00800,1,00,1,06,1",,"01,9",,,,"99999,9,10098,1","2,1,007,1,+008,1",,,"SYN106AAXX  21031 76458 32560 62802 10300 20238 30098 40109 52007 84206 90235 333 0/309 30/// 58008 84826 82072;","Q01  00002PRCP99"
"76458099999","2001-07-21T09:00:00","4","23.2","-106.4166666","4.0","COLONIA JUAN CARRASCO MAZATLAN SIN., MX","FM-12","99999","V020","330,1,N,0010,1","02400,1,9,N","008000,1,N,1","+0264,1","+0239,1","10111,1","06,0005,9,1",,,"9,1,03,1","9,1,03,1","08,1,+02400,9,01,9",,,"08,99,1,08,1,00,1,02250,1,02,1,00,1",,"09,9",,,,"99999,9,10100,1","8,1,012,1,-011,1",,"20,1","SYN106AAXX  21091 76458 11858 83301 10264 20239 30100 40111 58012 69941 72099 88020 90845 333 31/// 59011 88458;",
"76458099999","2001-07-21T18:00:00","4","23.2","-106.4166666","4.0","COLONIA JUAN CARRASCO MAZATLAN SIN., MX","FM-12","99999","V020","250,1,N,0040,1","03600,1,C,N","018000,1,N,1","+0308,1","+0239,1","10118,1","99,0000,2,1",,,,,"02,1,+00870,9,08,9","01,1,+02400,9,03,9",,"07,99,1,02,1,02,1,00800,1,03,1,08,1",,"01,9",,"120,M,+0331,1","240,N,+0252,1","99999,9,10106,1","8,1,006,1,-015,1",,,"SYN130AAXX  21181 76458 32568 72504 10308 20239 30106 40118 58006 82238 91750 333 0/6// 10331 20252 30/// 57862 59015 82829 81358 84270;",
"76458099999","2001-07-21T21:00:00","4","23.2","-106.4166666","4.0","COLONIA JUAN CARRASCO MAZATLAN SIN., MX","FM-12","99999","V020","250,1,N,0030,1","09000,1,C,N","018000,1,N,1","+0318,1","+0240,1","10103,1","99,0000,2,1",,,,,"02,1,+00960,9,08,9",,,"06,99,1,02,1,03,1,00800,1,00,1,07,1",,"01,9",,,,"99999,9,10092,1","8,1,014,1,-016,1",,,"SYN112AAXX  21211 76458 32568 62503 10318 20240 30092 40103 58014 82307 92045 333 0/5// 30/// 57853 59016 82832 84270;",
"76458099999","2001-07-22T03:00:00","4","23.2","-106.4166666","4.0","COLONIA JUAN CARRASCO MAZATLAN SIN., MX","FM-12","99999","V020","280,1,N,0030,1","22000,1,9,N","008000,1,N,1","+0300,1","+0238,1","10092,1","99,0000,9,1",,,,,"02,1,+01800,9,03,9",,,"04,99,1,02,1,00,1,02250,1,03,1,02,1",,"01,9",,,,"99999,9,10081,1","3,1,008,1,-017,1",,,"SYN100AAXX  22031 76458 32858 42803 10300 20238 30081 40092 53008 82032 90245 333 30/// 59017 82356 82070;","Q01  00002PRCP99"
"76458099999","2001-07-22T06:00:00","4","23.2","-106.4166666","4.0","COLONIA JUAN CARRASCO MAZATLAN SIN., MX","FM-12","99999","V020","290,1,N,0030,1","00810,1,9,N","010000,1,N,1","+0300,1","+0236,1","10097,1","99,0000,9,1",,,,,"07,1,+00810,9,05,9",,,"07,99,1,07,1,04,1,00800,1,00,1,00,1","0588,9","01,9",,"240,M,+0332,1","240,N,+0252,1","99999,9,10086,1","2,1,005,1,-025,1",,,"SYN118AAXX  22061 76458 32560 72903 10300 20236 30086 40097 52005 87400 90555 333 0/700 10332 20252 30/// 55098 59025 87627;","Q01  00002PRCP99"
"76458099999","2001-07-22T09:00:00","4","23.2","-106.4166666","4.0","COLONIA JUAN CARRASCO MAZATLAN SIN., MX","FM-12","99999","V020","080,1,N,0020,1","22000,1,9,N","010000,1,N,1","+0288,1","+0233,1","10086,1","99,0000,9,1",,,,,"02,1,+00690,9,05,9",,,"02,99,1,02,1,04,1,00800,1,00,1,00,1",,"01,9",,,,"99999,9,10075,1","7,1,012,1,-025,1",,,"SYN100AAXX  22091 76458 32560 20802 10288 20233 30075 40086 57012 82400 90845 333 0/700 30/// 59025 82623;","Q01  00002PRCP99"
"76458099999","2001-07-22T12:00:00","4","23.2","-106.4166666","4.0","COLONIA JUAN CARRASCO MAZATLAN SIN., MX","FM-12","99999","V020","999,9,C,0000,1","22000,1,9,N","008000,1,N,1","+0278,1","+0234,1","10080,1","24,9999,9,9",,,,,"03,1,+06000,9,01,9",,,"03,99,1,00,1,00,1,99999,9,00,1,02,1",,"01,9","999,+0260,9","999,M,+0333,1","120,N,+0276,1","99999,9,10070,1","1,1,005,1,-013,1",,,"SYN112AAXX  22121 76458 32958 30000 10278 20234 30070 40080 51005 80002 91145 333 10333 20276 30026 59013 79999 83070;","Q01  99992PRCP24"
"76458099999","2001-07-22T15:00:00","4","23.2","-106.4166666","4.0","COLONIA JUAN CARRASCO MAZATLAN SIN., MX","FM-12","99999","V020","140,1,N,0020,1","01800,1,9,N","020000,1,N,1","+0282,1","+0241,1","10096,1","99,0000,9,1",,,,,"05,1,+01800,9,07,9",,,"05,99,1,05,1,99,9,02250,1,03,1,00,1",,"01,9",,,,"99999,9,10085,1","2,1,015,1,-027,1",,,"SYN094AAXX  22151 76458 32870 51402 10282 20241 30085 40096 52015 85030 91415 333 30/// 59027 85356;","Q01+000002SCOLCGQ02  00002PRCP99"
"76458099999","2001-07-22T18:00:00","4","23.2","-106.4166666","4.0","COLONIA JUAN CARRASCO MAZATLAN SIN., MX","FM-12","99999","V020","260,1,N,0040,1","22000,1,9,N","020000,1,N,1","+0316,1","+0234,1","10091,1","99,0000,9,1",,,,,"01,1,+01020,9,02,9",,,"01,99,1,01,1,03,1,01250,1,00,1,99,9",,"01,9",,"120,M,+0338,1","240,N,+0276,1","99999,9,10080,1","8,1,005,1,-026,1",,,"SYN118AAXX  22181 76458 32670 12604 10316 20234 30080 40091 58005 8130/ 91750 333 0/5// 10338 20276 30/// 57853 59026 81834;","Q01  00002PRCP99"
"76458099999","2001-07-22T21:00:00","4","23.2","-106.4166666","4.0","COLONIA JUAN CARRASCO MAZATLAN SIN., MX","FM-12","99999","V020","240,1,N,0050,1","22000,1,9,N","020000,1,N,1","+0324,1","+0240,1","10078,1","99,0000,9,1",,,,,"01,1,+01050,9,02,9",,,"01,99,1,01,1,02,1,01250,1,00,1,99,9",,"01,9",,,,"99999,9,10067,1","7,1,013,1,-025,1",,,"SYN106AAXX  22211 76458 32670 12405 10324 20240 30067 40078 57013 8120/ 92055 333 0/5// 30/// 57852 59025 81835;","Q01  00002PRCP99"
"76458099999","2001-07-23T03:00:00","4","23.2","-106.4166666","4.0","COLONIA JUAN CARRASCO MAZATLAN SIN., MX","FM-12","99999","V020","270,1,N,0020,1","22000,1,9,N","010000,1,N,1","+0304,1","+0239,1","10075,1","99,0000,9,1",,,,,"00,1,+99999,9,99,9",,,"00,99,1,00,1,00,1,99999,9,00,1,00,1",,"01,9",,,,"99999,9,10064,1","2,1,007,1,-017,1",,,"SYN082AAXX  23031 76458 32960 02702 10304 20239 30064 40075 52007 90235 333 30/// 59017;","Q01  00002PRCP99"
"76458099999","2001-07-23T09:00:00","4","23.2","-106.4166666","4.0","COLONIA JUAN CARRASCO MAZATLAN SIN., MX","FM-12","99999","V020","160,1,N,0020,1","22000,1,9,N","010000,1,N,1","+0296,1","+0250,1","10096,1","99,0000,9,1",,,,,"04,1,+00570,9,05,9",,,"04,99,1,04,1,04,1,00450,1,00,1,00,1",,"01,9",,,,"99999,9,10085,1","7,1,004,1,+010,1",,,"SYN100AAXX  23091 76458 32460 41602 10296 20250 30085 40096 57004 84400 90850 333 0/200 30/// 58010 84619;","Q01  00002PRCP99"
"76458099999","2001-07-23T12:00:00","4","23.2","-106.4166666","4.0","COLONIA JUAN CARRASCO MAZATLAN SIN., MX","FM-12","99999","V020","999,9,C,0000,1","22000,1,9,N","008000,1,N,1","+0282,1","+0255,1","10087,1","24,0000,9,1",,,,,"00,1,+99999,9,99,9",,,"00,99,1,00,1,00,1,99999,9,00,1,00,1",,"01,9","999,+0260,9","999,M,+0347,1","120,N,+0280,1","99999,9,10075,1","8,1,010,1,+005,1",,,"SYN100AAXX  23121 76458 32958 00000 10282 20255 30075 40087 58010 91145 333 10347 20280 30026 58005 70000;","Q01  00002PRCP24"
"76458099999","2001-07-23T15:00:00","4","23.2","-106.4166666","4.0","COLONIA JUAN CARRASCO MAZATLAN SIN., MX","FM-12","99999","V020","140,1,N,0030,1","22000,1,9,N","020000,1,N,1","+0296,1","+0251,1","10094,1","99,0000,9,1",,,,,"02,1,+00570,9,05,9",,,"02,99,1,02,1,05,1,00450,1,00,1,00,1",,"01,9",,,,"99999,9,10083,1","1,1,008,1,-002,1",,,"SYN106AAXX  23151 76458 32470 21403 10296 20251 30083 40094 51008 82500 91450 333 0/400 30/// 57641 59002 82619;","Q01  00002PRCP99"
"76458099999","2001-07-23T18:00:00","4","23.2","-106.4166666","4.0","COLONIA JUAN CARRASCO MAZATLAN SIN., MX","FM-12","99999","V020","250,1,N,0030,1","22000,1,9,N","020000,1,N,1","+0318,1","+0249,1","10093,1","99,0000,9,1",,,,,"02,1,+00840,9,08,9",,,"04,99,1,02,1,02,1,00800,1,03,1,00,1",,"01,9",,"120,M,+0334,1","240,N,+0280,1","99999,9,10082,1","4,1,000,1,+002,1",,,"SYN124AAXX  23181 76458 32570 42503 10318 20249 30082 40093 54000 82230 91750 333 0/5// 10334 20280 30/// 57851 58002 82828 82358;","Q01  00002PRCP99"
"76458099999","2001-07-23T21:00:00","4","23.2","-106.4166666","4.0","COLONIA JUAN CARRASCO MAZATLAN SIN., MX","FM-12","99999","V020","210,1,N,0060,1","03600,1,C,N","020000,1,N,1","+0324,1","+0246,1","10083,1","99,0000,9,1",,,,,"02,1,+00990,9,08,9",,,"06,99,1,02,1,03,1,00800,1,03,1,00,1",,"01,9",,,,"99999,9,10073,1","7,1,009,1,+006,1",,,"SYN112AAXX  23211 76458 32570 62106 10324 20246 30073 40083 57009 82330 92050 333 0/5// 30/// 57852 58006 82833 84358;","Q01  00002PRCP99"
"76458099999","2001-07-24T00:00:00","4","23.2","-106.4166666","4.0","COLONIA JUAN CARRASCO MAZATLAN SIN., MX","FM-12","99999","V020","250,1,N,0020,1","02400,1,9,N","020000,1,N,1","+0316,1","+0252,1","10073,1","99,0000,9,1",,,,,"03,1,+00780,9,08,9","02,1,+02400,9,03,9",,"06,99,1,03,1,02,1,00800,1,03,1,06,1",,"01,9",,"120,M,+0350,1","180,N,+0260,1","99999,9,10062,1","7,1,010,1,+005,1",,,"SYN130AAXX  24001 76458 32570 62502 10316 20252 30062 40073 57010 83236 92340 333 0/199 10350 20260 30/// 53741 58005 83826 82358 81072;","Q01  00002PRCP99"
"76458099999","2001-07-24T03:00:00","4","23.2","-106.4166666","4.0","COLONIA JUAN CARRASCO MAZATLAN SIN., MX","FM-12","99999","V020","290,1,N,0010,1","00540,1,9,N","010000,1,N,1","+0298,1","+0255,1","10095,1","99,0000,9,1",,,,,"06,1,+00540,9,05,9",,,"06,99,1,06,1,04,1,99999,9,00,1,00,1",,"01,9",,,,"99999,9,10084,1","2,1,021,1,+019,1",,,"SYN100AAXX  24031 76458 32960 62901 10298 20255 30084 40095 52021 86400 90240 333 0/900 30/// 58019 86618;","Q01  00002PRCP99"
"76458099999","2001-07-24T06:00:00","4","23.2","-106.4166666","4.0","COLONIA JUAN CARRASCO MAZATLAN SIN., MX","FM-12","99999","V020","130,1,N,0050,1","00300,1,C,N","010000,1,N,1","+0264,1","+0238,1","10111,1","03,0007,9,1",,,"5,1,06,1","5,1,06,1","05,1,+00300,9,07,9",,,"08,99,1,08,1,09,1,00450,1,00,1,00,1","0348,9","09,9",,"240,M,+0349,1","240,N,+9999,9","99999,9,10100,1","2,1,017,1,+011,1",,"02,1","SYN142AAXX  24061 76458 11460 81305 10264 20238 30100 40111 52017 69907 70255 88900 90555 333 07200 10349 20280 31/// 55058 57921 58011 85710 83030;","Q01 +02802ATMN  "
"76458099999","2001-07-24T09:00:00","4","23.2","-106.4166666","4.0","COLONIA JUAN CARRASCO MAZATLAN SIN., MX","FM-12","99999","V020","140,1,N,0040,1","09000,1,C,N","008000,1,N,1","+0258,1","+0236,1","10115,1","03,0010,9,1",,,"5,1,03,1","5,1,03,1","07,1,+99999,9,00,9",,,"08,99,1,08,1,09,1,00250,1,00,1,00,1",,"09,9",,,,"99999,9,10104,1","3,1,003,1,+019,1",,"51,1","SYN124AAXX  24091 76458 21358 81404 10258 20236 30104 40115 53003 75155 88900 90850 333 07400 31/// 57942 58019 60017 87051 81926;",
"76458099999","2001-07-24T15:00:00","4","23.2","-106.4166666","4.0","COLONIA JUAN CARRASCO MAZATLAN SIN., MX","FM-12","99999","V020","050,1,N,0030,1","02400,1,9,N","020000,1,N,1","+0265,1","+0223,1","10114,1","03,9999,2,9",,,"2,1,03,1","5,1,03,1","01,1,+00540,9,09,9","05,1,+02400,9,03,9",,"07,99,1,01,1,09,1,00450,1,06,1,08,1",,"01,9",,,,"99999,9,10102,1","6,1,007,1,+019,1",,"20,1","SYN130AAXX  24151 76458 21470 70503 10265 20223 30102 40114 56007 72025 81968 91455 333 0/4// 30/// 57943 58019 69907 81918 85358 81270;",
"76458099999","2001-07-24T18:00:00","4","23.2","-106.4166666","4.0","COLONIA JUAN CARRASCO MAZATLAN SIN., MX","FM-12","99999","V020","270,1,N,0020,1","03600,1,C,N","020000,1,N,1","+0320,1","+0217,1","10106,1","06,0007,9,1",,,,,"01,1,+00750,9,08,9",,,"06,99,1,01,1,02,1,01250,1,03,1,00,1",,"01,9",,"120,M,+0342,1","240,N,+0239,1","99999,9,10095,1","6,1,008,1,+013,1",,,"SYN130AAXX  24181 76458 12670 62702 10320 20217 30095 40106 56008 69901 81230 91750 333 0/4// 10342 20239 30/// 57844 58013 81825 84358;",
"76458099999","2001-07-24T21:00:00","4","23.2","-106.4166666","4.0","COLONIA JUAN CARRASCO MAZATLAN SIN., MX","FM-12","99999","V020","250,1,N,0050,1","06000,1,C,N","020000,1,N,1","+0316,1","+0231,1","10096,1","99,0000,2,1",,,,,"01,1,+00870,9,02,9","04,1,+02400,9,07,9","01,1,+06000,9,01,9","06,99,1,01,1,02,1,01250,1,03,1,99,9",,"01,9",,,,"99999,9,10085,1","8,1,010,1,+012,1",,,"SYN117AAXX  24211 76458 32670 62505 10316 20231 30085 40096 58010 81230 92050 333 0/2// 30/// 57852 58012 8182984358 81070;","Q01+000002SCOHCG"
"76458099999","2001-07-25T00:00:00","4","23.2","-106.4166666","4.0","COLONIA JUAN CARRASCO MAZATLAN SIN., MX","FM-12","99999","V020","260,1,N,0010,1","22000,1,9,N","020000,1,N,1","+0312,1","+0236,1","10092,1","24,0012,9,1",,,,,"01,1,+00900,9,08,9","01,1,+02400,9,03,9",,"03,99,1,01,1,02,1,00800,1,03,1,06,1",,"01,9",,"120,M,+0352,1","180,N,+0239,1","99999,9,10081,1","7,1,004,1,+019,1",,,"SYN136AAXX  25001 76458 32570 32601 10312 20236 30081 40092 57004 81236 92355 333 0/199 10352 20239 30/// 52081 58019 70012 81830 81358 81072;",
"76458099999","2001-07-25T03:00:00","4","23.2","-106.4166666","4.0","COLONIA JUAN CARRASCO MAZATLAN SIN., MX","FM-12","99999","V020","280,1,N,0010,1","22000,1,9,N","010000,1,N,1","+0298,1","+0235,1","10105,1","99,0000,2,1",,,,,"02,1,+00780,9,08,9",,,"04,99,1,02,1,02,1,00800,1,03,1,00,1",,"01,9",,,,"99999,9,10094,1","2,1,013,1,+011,1",,,"SYN106AAXX  25031 76458 32560 42801 10298 20235 30094 40105 52013 82230 90245 333 0/990 30/// 58011 82826 82358;",
"76458099999","2001-07-25T06:00:00","4","23.2","-106.4166666","4.0","COLONIA JUAN CARRASCO MAZATLAN SIN., MX","FM-12","99999","V020","340,1,N,0020,1","22000,1,9,N","010000,1,N,1","+0284,1","+0223,1","10111,1","99,0000,9,1",,,,,"03,1,+08700,9,01,9",,,"03,99,1,00,1,00,1,99999,9,00,1,02,1","0462,9","01,9",,"240,M,+0352,1","240,N,+0239,1","99999,9,10100,1","2,1,006,1,+000,1",,,"SYN118AAXX  25061 76458 32960 33402 10284 20223 30100 40111 52006 80002 90555 333 0/009 10352 20239 30/// 55077 59000 83079;","Q01  00002PRCP99"
"76458099999","2001-07-25T09:00:00","4","23.2","-106.4166666","4.0","COLONIA JUAN CARRASCO MAZATLAN SIN., MX","FM-12","99999","V020","020,1,N,0020,1","00630,1,9,N","010000,1,N,1","+0272,1","+0228,1","10111,1","99,0000,9,1",,,,,"06,1,+00630,9,05,9",,,"06,99,1,06,1,04,1,00800,1,00,1,00,1",,"01,9",,,,"99999,9,10100,1","0,1,000,1,-003,1",,,"SYN100AAXX  25091 76458 32560 60202 10272 20228 30100 40111 50000 86400 90845 333 0/100 30/// 59003 86621;","Q01  00002PRCP99"
"76458099999","2001-07-25T15:00:00","4","23.2","-106.4166666","4.0","COLONIA JUAN CARRASCO MAZATLAN SIN., MX","FM-12","99999","V020","340,1,N,0020,1","03600,1,C,N","020000,1,N,1","+0300,1","+0228,1","10108,1","99,0000,9,1",,,,,"01,1,+00900,9,09,9",,,"06,99,1,01,1,09,1,00800,1,03,1,00,1",,"01,9",,,,"99999,9,10097,1","3,1,006,1,-005,1",,,"SYN112AAXX  25151 76458 32570 63402 10300 20228 30097 40108 53006 81930 91459 333 0/4// 30/// 57941 59005 81930 85358;","Q01  00002PRCP99"
"76458099999","2001-07-25T18:00:00","4","23.2","-106.4166666","4.0","COLONIA JUAN CARRASCO MAZATLAN SIN., MX","FM-12","99999","V020","240,1,N,0030,1","22000,1,9,N","020000,1,N,1","+0304,1","+0245,1","10114,1","99,0000,9,1",,,,,"01,1,+00750,9,08,9",,,"04,99,1,01,1,02,1,00800,1,03,1,00,1",,"01,9",,"120,M,+0324,1","240,N,+0260,1","99999,9,10104,1","3,1,007,1,+009,1",,,"SYN124AAXX  25181 76458 32570 42403 10304 20245 30104 40114 53007 81230 91745 333 01190 10324 20260 30/// 57814 58009 81825 83356;","Q01  00002PRCP99"
"76458099999","2001-07-25T21:00:00","4","23.2","-106.4166666","4.0","COLONIA JUAN CARRASCO MAZATLAN SIN., MX","FM-12","99999","V020","250,1,N,0030,1","22000,1,9,N","020000,1,N,1","+0322,1","+0231,1","10095,1","99,0000,9,1",,,,,"01,1,+01140,9,09,9",,,"02,99,1,01,1,09,1,01250,1,00,1,03,1",,"01,9",,,,"99999,9,10085,1","7,1,019,1,+000,1",,,"SYN112AAXX  25211 76458 32670 22503 10322 20231 30085 40095 57019 81903 92045 333 0/109 30/// 57911 58000 81938 81070;","Q01  00002PRCP99"
"76458099999","2001-07-26T03:00:00","4","23.2","-106.4166666","4.0","COLONIA JUAN CARRASCO MAZATLAN SIN., MX","FM-12","99999","V020","270,1,N,0010,1","22000,1,9,N","010000,1,N,1","+0294,1","+0243,1","10103,1","99,0000,9,1",,,,,"02,1,+00630,9,08,9","01,1,+02400,9,03,9",,"04,99,1,02,1,02,1,00800,1,03,1,06,1",,"01,9",,,,"99999,9,10092,1","2,1,010,1,-003,1",,,"SYN112AAXX  26031 76458 32560 42701 10294 20243 30092 40103 52010 82236 90235 333 0/199 30/// 59003 82821 81358 81072;","Q01  00002PRCP99"
"76458099999","2001-07-26T06:00:00","4","23.2","-106.4166666","4.0","COLONIA JUAN CARRASCO MAZATLAN SIN., MX","FM-12","99999","V020","050,1,N,0050,1","00330,1,C,N","010000,1,N,1","+0265,1","+0238,1","10121,1","99,0000,9,1",,,,,"05,1,+00330,9,06,9",,,"08,99,1,08,1,09,1,00450,1,00,1,00,1","0570,9","01,9",,"240,M,+0322,1","240,N,+0260,1","99999,9,10110,1","2,1,018,1,+010,1",,,"SYN130AAXX  26061 76458 32460 80505 10265 20238 30110 40121 52018 88900 90555 333 07100 10322 20260 30/// 55095 57921 58010 85611 83934;","Q01  00002PRCP99"
"76458099999","2001-07-26T09:00:00","4","23.2","-106.4166666","4.0","COLONIA JUAN CARRASCO MAZATLAN SIN., MX","FM-12","99999","V020","050,1,N,0040,1","00180,1,9,N","008000,1,N,1","+0249,1","+0234,1","10105,1","03,0040,9,1",,,"5,1,03,1","5,1,03,1","07,1,+00180,9,07,9",,,"08,99,1,08,1,09,1,00150,1,00,1,00,1",,"09,9",,,,"99999,9,10094,1","7,1,016,1,+001,1",,"02,1","SYN124AAXX  26091 76458 32258 80504 10249 20234 30094 40105 57016 70255 88900 90845 333 07400 31/// 57946 58001 60047 87706 81924;",
"76458099999","2001-07-26T15:00:00","4","23.2","-106.4166666","4.0","COLONIA JUAN CARRASCO MAZATLAN SIN., MX","FM-12","99999","V020","999,9,C,0000,1","02400,1,9,N","020000,1,N,1","+0270,1","+0226,1","10128,1","99,0000,9,1",,,,,"01,1,+00540,9,08,9","04,1,+02400,9,04,9",,"07,99,1,01,1,02,1,00450,1,02,1,00,1",,"09,9",,,,"99999,9,10117,1","2,1,020,1,+020,1",,,"SYN118AAXX  26151 76458 32470 70000 10270 20226 30117 40128 52020 81220 91445 333 01790 31/// 57875 58020 81818 84458 82356;","Q01  00002PRCP99"
"76458099999","2001-07-26T21:00:00","4","23.2","-106.4166666","4.0","COLONIA JUAN CARRASCO MAZATLAN SIN., MX","FM-12","99999","V020","200,1,N,0030,1","00840,1,9,N","018000,1,N,1","+0290,1","+0236,1","10105,1","99,0000,9,1",,,,,"03,1,+00660,9,08,9","02,1,+00840,9,06,9",,"07,99,1,05,1,03,1,00800,1,00,1,08,1",,"01,9",,,,"99999,9,10094,1","6,1,015,1,+009,1",,,"SYN118AAXX  26211 76458 32568 72003 10290 20236 30094 40105 56015 85308 92050 333 0/2// 30/// 57823 58009 83822 82628 83270;","Q01  00002PRCP99"
"76458099999","2001-07-27T00:00:00","4","23.2","-106.4166666","4.0","COLONIA JUAN CARRASCO MAZATLAN SIN., MX","FM-12","99999","V020","270,1,N,0020,1","22000,1,9,N","020000,1,N,1","+0310,1","+0237,1","10096,1","24,0037,9,1",,,,,"03,1,+00900,9,06,9",,,"04,99,1,03,1,04,1,00800,1,00,1,06,1",,"01,9",,"120,M,+0315,1","180,N,+0238,1","99999,9,10085,1","7,1,009,1,+004,1",,,"SYN124AAXX  27001 76458 32570 42702 10310 20237 30085 40096 57009 83406 92350 333 0/109 10315 20238 30/// 58004 70037 83630 81072;",
"76458099999","2001-07-27T03:00:00","4","23.2","-106.4166666","4.0","COLONIA JUAN CARRASCO MAZATLAN SIN., MX","FM-12","99999","V020","290,1,N,0010,1","03600,1,C,N","010000,1,N,1","+0290,1","+0230,1","10109,1","99,0000,9,1",,,,,"04,1,+00750,9,06,9",,,"05,99,1,04,1,04,1,00800,1,05,1,00,1",,"01,9",,,,"99999,9,10099,1","2,1,014,1,+008,1",,,"SYN106AAXX  27031 76458 32560 52901 10290 20230 30099 40109 52014 84450 90245 333 0/090 30/// 58008 84625 81358;","Q01  00002PRCP99"
"76458099999","2001-07-27T06:00:00","4","23.2","-106.4166666","4.0","COLONIA JUAN CARRASCO MAZATLAN SIN., MX","FM-12","99999","V020","020,1,N,0030,1","03600,1,C,N","010000,1,N,1","+0273,1","+0239,1","10123,1","99,0000,9,1",,,,,"02,1,+00420,9,06,9",,,"05,99,1,02,1,03,1,00450,1,03,1,00,1","0102,9","01,9",,"240,M,+0319,1","240,N,+0238,1","99999,9,10112,1","2,1,014,1,+002,1",,,"SYN124AAXX  27061 76458 32460 50203 10273 20239 30112 40123 52014 82330 90555 333 0/990 10319 20238 30/// 55017 58002 82614 83359;","Q01  00002PRCP99"
"76458099999","2001-07-27T09:00:00","4","23.2","-106.4166666","4.0","COLONIA JUAN CARRASCO MAZATLAN SIN., MX","FM-12","99999","V020","020,1,N,0020,1","00450,1,9,N","010000,1,N,1","+0271,1","+0225,1","10118,1","99,0000,9,1",,,,,"07,1,+00450,9,05,9",,,"07,99,1,07,1,04,1,00450,1,00,1,00,1",,"01,9",,,,"99999,9,10107,1","7,1,005,1,+013,1",,,"SYN100AAXX  27091 76458 32460 70202 10271 20225 30107 40118 57005 87400 90845 333 0/900 30/// 58013 87615;","Q01  00002PRCP99"
"76458099999","2001-07-27T21:00:00","4","23.2","-106.4166666","4.0","COLONIA JUAN CARRASCO MAZATLAN SIN., MX","FM-12","99999","V020","999,9,C,0000,1","02400,1,9,N","010000,1,N,1","+0270,1","+0243,1","10135,1","03,2431,9,2",,,"9,1,03,1","6,1,03,1","02,1,+00330,9,09,9","01,1,+00450,9,08,9","03,1,+02400,9,03,9","07,99,1,02,1,09,1,00250,1,03,1,00,1",,"09,9",,,,"99999,9,10124,1","8,1,003,1,+030,1",,"29,1","SYN136AAXX  27211 76458 31360 70100 10270 20243 30124 40135 58003 62437 72996 82930 92050 333 0/1// 31/// 57912 58030 82911 81815 83358 81070;",
"76458099999","2001-07-28T00:00:00","4","23.2","-106.4166666","4.0","COLONIA JUAN CARRASCO MAZATLAN SIN., MX","FM-12","99999","V020","999,9,C,0000,1","00510,1,9,N","015000,1,N,1","+0280,1","+0239,1","10117,1","24,0528,9,1",,,,,"07,1,+00510,9,05,9",,,"07,99,1,07,1,04,1,00450,1,00,1,00,1",,"09,9",,"120,M,+0297,1","180,N,+0250,1","99999,9,10106,1","7,1,017,1,+021,1",,,"SYN124AAXX  28001 76458 12465 70000 10280 20239 30106 40117 57017 87400 92350 333 0/900 10297 20250 31/// 50371 58021 70528 87617;",
"76458099999","2001-07-28T03:00:00","4","23.2","-106.4166666","4.0","COLONIA JUAN CARRASCO MAZATLAN SIN., MX","FM-12","99999","V020","999,9,C,0000,1","00480,1,9,N","010000,1,N,1","+0278,1","+0240,1","10129,1",,,,,,"07,1,+00480,9,05,9",,,"07,99,1,07,1,04,1,00450,1,00,1,00,1",,"09,9",,,,"99999,9,10118,1","2,1,012,1,+020,1",,,"SYN100AAXX  28031 76458 12460 70000 10278 20240 30118 40129 52012 87400 90235 333 0/900 31/// 58020 87616;",
"76458099999","2001-07-28T06:00:00","4","23.2","-106.4166666","4.0","COLONIA JUAN CARRASCO MAZATLAN SIN., MX","FM-12","99999","V020","350,1,N,0020,1","02400,1,9,N","008000,1,N,1","+0264,1","+0248,1","10139,1","99,0000,9,1",,,,,"05,1,+02400,9,04,9",,,"07,99,1,05,1,00,1,02250,1,02,1,06,1","0000,9","09,9",,"240,M,+0297,1","240,N,+0250,1","99999,9,10128,1","2,1,010,1,+016,1",,,"SYN118AAXX  28061 76458 32858 73502 10264 20248 30128 40139 52010 85026 90550 333 10297 20250 31/// 55000 58016 85458 82070;","Q01  00002PRCP99"
"76458099999","2001-07-28T18:00:00","4","23.2","-106.4166666","4.0","COLONIA JUAN CARRASCO MAZATLAN SIN., MX","FM-12","99999","V020","200,1,N,0020,1","22000,1,9,N","020000,1,N,1","+0308,1","+0255,1","10156,1","99,0000,9,1",,,,,"01,1,+00660,9,08,9","01,1,+02400,9,03,9",,"04,99,1,01,1,02,1,00800,1,03,1,08,1",,"01,9",,"120,M,+0327,1","240,N,+0250,1","99999,9,10144,1","0,1,007,1,-017,1",,,"SYN130AAXX  28181 76458 32570 42002 10308 20255 30144 40156 50007 81238 91750 333 0/3// 10327 20250 30/// 57833 59017 81822 81358 82270;","Q01  00002PRCP99"
"76458099999","2001-07-28T21:00:00","4","23.2","-106.4166666","4.0","COLONIA JUAN CARRASCO MAZATLAN SIN., MX","FM-12","99999","V020","250,1,N,0050,1","22000,1,9,N","020000,1,N,1","+0310,1","+0255,1","10154,1","99,0000,9,1",,,,,"02,1,+00690,9,08,9",,,"03,99,1,02,1,08,1,00800,1,00,1,03,1",,"01,9",,,,"99999,9,10143,1","5,1,002,1,+019,1",,,"SYN112AAXX  28211 76458 32570 32505 10310 20255 30143 40154 55002 82803 92050 333 0/5// 30/// 57852 58019 82823 81070;","Q01  00002PRCP99"
"76458099999","2001-07-29T00:00:00","4","23.2","-106.4166666","4.0","COLONIA JUAN CARRASCO MAZATLAN SIN., MX","FM-12","99999","V020","290,1,N,0020,1","03600,1,9,N","020000,1,N,1","+0290,1","+0247,1","10138,1","24,0000,9,1",,,,,"02,1,+00660,9,09,9",,,"07,99,1,03,1,09,1,00450,1,02,1,00,1",,"01,9",,"120,M,+0330,1","180,N,+0250,1","99999,9,10127,1","7,1,016,1,+021,1",,,"SYN136AAXX  29001 76458 32470 72902 10290 20247 30127 40138 57016 83920 92345 333 0/990 10330 20250 30/// 50341 57990 58021 70000 82922 81818;","Q01  00002PRCP99Q02  00003PRCP99"
"76458099999","2001-07-29T03:00:00","4","23.2","-106.4166666","4.0","COLONIA JUAN CARRASCO MAZATLAN SIN., MX","FM-12","99999","V020","010,1,N,0010,1","22000,1,9,N","008000,1,N,1","+0270,1","+0234,1","10151,1","99,0000,9,1",,,,,"01,1,+01800,9,03,9",,,"02,99,1,01,1,00,1,02250,1,03,1,02,1",,"01,9",,,,"99999,9,10140,1","3,1,013,1,+022,1",,,"SYN100AAXX  29031 76458 32858 20101 10270 20234 30140 40151 53013 81032 90245 333 30/// 58022 81356 81070;","Q01  00002PRCP99"
"76458099999","2001-07-29T09:00:00","4","23.2","-106.4166666","4.0","COLONIA JUAN CARRASCO MAZATLAN SIN., MX","FM-12","99999","V020","360,1,N,0030,1","00360,1,9,N","008000,1,N,1","+0259,1","+0231,1","10146,1","99,0000,9,1",,,,,"07,1,+00360,9,05,9",,,"07,99,1,07,1,04,1,00450,1,00,1,00,1",,"01,9",,,,"99999,9,10135,1","7,1,009,1,+010,1",,,"SYN100AAXX  29091 76458 32458 73603 10259 20231 30135 40146 57009 87400 90845 333 0/900 30/// 58010 87612;","Q01  00002PRCP99"
"76458099999","2001-07-29T12:00:00","4","23.2","-106.4166666","4.0","COLONIA JUAN CARRASCO MAZATLAN SIN., MX","FM-12","99999","V020","999,9,C,0000,1","22000,1,9,N","008000,1,N,1","+0258,1","+9999,9","10145,1","24,0000,9,1",,,,,"04,1,+01800,9,07,9",,,"04,99,1,04,1,99,9,02250,1,03,1,00,1",,"01,9","999,+0240,9","999,M,+0330,1","120,N,+0252,1","99999,9,10134,1","3,1,003,1,+008,1",,,"SYN106AAXX  29121 76458 32858 40000 10258 30134 40145 53003 84030 91145 333 10330 20252 30024 58008 70000 84356;","Q01+000002SCOLCG"
"76458099999","2001-07-29T15:00:00","4","23.2","-106.4166666","4.0","COLONIA JUAN CARRASCO MAZATLAN SIN., MX","FM-12","99999","V020","020,1,N,0020,1","22000,1,9,N","020000,1,N,1","+0282,1","+0236,1","10154,1","99,0000,9,1",,,,,"01,1,+00570,9,08,9",,,"02,99,1,01,1,02,1,00450,1,03,1,00,1",,"01,9",,,,"99999,9,10143,1","2,1,008,1,+006,1",,,"SYN112AAXX  29151 76458 32470 20202 10282 20236 30143 40154 52008 81230 91445 333 01690 30/// 57815 58006 81819 81356;","Q01  00002PRCP99"
"76458099999","2001-07-29T18:00:00","4","23.2","-106.4166666","4.0","COLONIA JUAN CARRASCO MAZATLAN SIN., MX","FM-12","99999","V020","250,1,N,0040,1","22000,1,9,N","020000,1,N,1","+0310,1","+0240,1","10155,1","99,0000,9,1",,,,,"02,1,+00870,9,08,9",,,"03,99,1,02,1,03,1,00800,1,00,1,03,1",,"01,9",,"120,M,+0329,1","240,N,+0252,1","99999,9,10144,1","2,1,001,1,+000,1",,,"SYN124AAXX  29181 76458 32570 32504 10310 20240 30144 40155 52001 82303 91750 333 0/5// 10329 20252 30/// 57853 58000 82829 81370;","Q01  00002PRCP99"
"76458099999","2001-07-29T21:00:00","4","23.2","-106.4166666","4.0","COLONIA JUAN CARRASCO MAZATLAN SIN., MX","FM-12","99999","V020","230,1,N,0050,1","22000,1,9,N","020000,1,N,1","+0318,1","+0254,1","10143,1","99,0000,9,1",,,,,"02,1,+00780,9,08,9",,,"03,99,1,02,1,03,1,00800,1,03,1,99,9",,"01,9",,,,"99999,9,10132,1","8,1,012,1,-011,1",,,"SYN112AAXX  29211 76458 32570 32305 10318 20254 30132 40143 58012 8233/ 92050 333 0/2// 30/// 57825 59011 82826 81358;","Q01  00002PRCP99"
"76458099999","2001-07-30T00:00:00","4","23.2","-106.4166666","4.0","COLONIA JUAN CARRASCO MAZATLAN SIN., MX","FM-12","99999","V020","310,1,N,0030,1","22000,1,C,N","020000,1,N,1","+0308,1","+0248,1","10122,1","24,0000,9,1",,,,,"04,1,+00750,9,06,9",,,"06,99,1,04,1,04,1,00800,1,00,1,06,1",,"01,9",,"120,M,+0330,1","180,N,+0252,1","99999,9,10111,1","7,1,020,1,-015,1",,,"SYN130AAXX  30001 76458 32570 63103 10308 20248 30111 40122 57020 84406 92355 333 0/909 10330 20252 30/// 50451 59015 70000 84625 82072;",
"76458099999","2001-07-30T03:00:00","4","23.2","-106.4166666","4.0","COLONIA JUAN CARRASCO MAZATLAN SIN., MX","FM-12","99999","V020","080,1,N,9999,9","22000,1,9,N","010000,1,N,1","+0295,1","+9999,9","10126,1","99,0000,9,1",,,,,"03,1,+00630,9,08,9",,,"04,99,1,03,1,03,1,00800,1,03,1,00,1",,"01,9",,,,"99999,9,10115,1","2,1,004,1,-024,1",,,"SYN100AAXX  30031 76458 32560 45803 10295 30115 40126 52004 83330 90235 333 0/390 30/// 59024 83821 81358;","Q01+010301WOSPD Q02  00002PRCP99"
"76458099999","2001-07-30T06:00:00","4","23.2","-106.4166666","4.0","COLONIA JUAN CARRASCO MAZATLAN SIN., MX","FM-12","99999","V020","340,1,N,0030,1","22000,1,9,N","010000,1,N,1","+0290,1","+0245,1","10124,1","99,0000,9,1",,,,,,,,"04,99,1,02,1,00,1,99999,9,03,1,06,1",,,,,,"99999,9,10113,1","0,1,002,1,+999,9",,,"SYN076AAXX  30061 76458 32960 43403 10290 20245 30113 40124 50002 82036 90550 333;","Q01  00002PRCP99"
"76458099999","2001-07-30T09:00:00","4","23.2","-106.4166666","4.0","COLONIA JUAN CARRASCO MAZATLAN SIN., MX","FM-12","99999","V020","340,1,N,0020,1","22000,1,9,N","010000,1,N,1","+0281,1","+0250,1","10111,1","99,0000,9,1",,,,,"04,1,+00390,9,05,9",,,"04,99,1,04,1,04,1,00450,1,00,1,00,1",,"01,9",,,,"99999,9,10100,1","7,1,013,1,-035,1",,,"SYN100AAXX  30091 76458 32460 43402 10281 20250 30100 40111 57013 84400 90855 333 0/600 30/// 59035 84613;","Q01  00002PRCP99"
"76458099999","2001-07-30T12:00:00","4","23.2","-106.4166666","4.0","COLONIA JUAN CARRASCO MAZATLAN SIN., MX","FM-12","99999","V020","340,1,N,0030,1","00330,1,9,N","008000,1,N,1","+0276,1","+0249,1","10109,1","24,0000,9,1",,,,,"05,1,+00330,9,05,9",,,"05,99,1,05,1,05,1,00450,1,00,1,00,1",,"01,9","999,+0260,9","999,M,+0330,1","120,N,+0272,1","99999,9,10098,1","5,1,002,1,-036,1",,,"SYN124AAXX  30121 76458 32458 53403 10276 20249 30098 40109 55002 85500 91145 333 0/200 10330 20272 30026 57620 59036 70000 85611;",
"76458099999","2001-07-30T15:00:00","4","23.2","-106.4166666","4.0","COLONIA JUAN CARRASCO MAZATLAN SIN., MX","FM-12","99999","V020","999,9,C,0000,1","00420,1,9,N","020000,1,N,1","+0290,1","+0255,1","10126,1","24,6520,9,2",,,,,,,,"07,99,1,07,1,05,1,00450,1,00,1,00,1",,"01,9",,,,"99999,9,10115,1","3,1,017,1,-028,1",,,"SYN106AAXX  30151 76458 32470 70000 10290 20255 30115 40126 53017 87500 91450 333 0/400 30/// 57640 59028 76519;",
"76458099999","2001-07-30T21:00:00","4","23.2","-106.4166666","4.0","COLONIA JUAN CARRASCO MAZATLAN SIN., MX","FM-12","99999","V020","260,1,N,0030,1","09000,1,C,N","020000,1,N,1","+0318,1","+0254,1","10099,1","99,0000,9,1",,,,,"03,1,+00780,9,08,9",,,"05,99,1,03,1,03,1,00800,1,00,1,03,1",,"01,9",,,,"99999,9,10089,1","7,1,020,1,-043,1",,,"SYN112AAXX  30211 76458 32570 52603 10318 20254 30089 40099 57020 83303 92050 333 0/5// 30/// 57853 59043 83826 82070;","Q01  00002PRCP99"
"76458099999","2001-07-31T00:00:00","4","23.2","-106.4166666","4.0","COLONIA JUAN CARRASCO MAZATLAN SIN., MX","FM-12","99999","V020","260,1,N,0030,1","03600,1,C,N","020000,1,N,1","+0210,1","+9999,9","10084,1","24,0000,9,1",,,,,"04,1,+00690,9,06,9",,,"06,99,1,04,1,05,1,00800,1,02,1,00,1",,"01,9",,"120,M,+0340,1","180,N,+9999,9","99999,9,10073,1","7,1,015,1,-038,1",,,"SYN130AAXX  31001 76458 32570 62603 10210 20254 30073 40084 57015 84520 92350 333 0/990 10340 20272 30/// 50631 59038 70000 84623 82358;","Q01 +02722ATMN  "
"76458099999","2001-07-31T03:00:00","4","23.2","-106.4166666","4.0","COLONIA JUAN CARRASCO MAZATLAN SIN., MX","FM-12","99999","V020","999,9,C,0000,1","00240,1,9,N","010000,1,N,1","+0258,1","+0239,1","10099,1","06,0310,9,1",,,"6,1,03,1","6,1,03,1","08,1,+00240,9,09,9",,,"08,99,1,08,1,03,1,00250,1,00,1,00,1",,"09,9",,,,"99999,9,10088,1","2,1,015,1,-027,1",,"60,1","SYN112AAXX  31031 76458 12360 80000 10258 20239 30088 40099 52015 60311 76066 88300 90250 333 0/900 31/// 59027 88908;",
"76458099999","2001-07-31T09:00:00","4","23.2","-106.4166666","4.0","COLONIA JUAN CARRASCO MAZATLAN SIN., MX","FM-12","99999","V020","340,1,N,0020,1","03600,1,C,N","008000,1,N,1","+0252,1","+0236,1","10110,1","99,0000,2,1",,,,,"01,1,+00210,9,09,9",,,"08,99,1,01,1,09,1,00150,1,02,1,00,1",,"09,9",,,,"99999,9,10099,1","4,1,000,1,-001,1",,,"SYN112AAXX  31090 76458 32258 83402 10252 20236 30099 40110 54003 81920 90845 333 07490 31/// 57943 59001 81907 87461;",
"76458099999","2001-08-01T00:00:00","4","23.2","-106.4166666","4.0","COLONIA JUAN CARRASCO MAZATLAN SIN., MX","FM-12","99999","V020","250,1,N,0030,1","22000,1,9,N","020000,1,N,1","+0306,1","+0258,1","10107,1","24,0053,9,1",,,,,"01,1,+00600,9,08,9",,,"03,99,1,01,1,02,1,00450,1,03,1,00,1",,"01,9",,"120,M,+0330,1","180,N,+0250,1","99999,9,10096,1","7,1,013,1,+023,1",,,"SYN124AAXX  01001 76458 32470 32503 10306 20258 30096 40107 57013 81230 92355 333 0/190 10330 20250 30/// 58023 70053 81820 82358;",
"76458099999","2001-08-01T03:00:00","4","23.2","-106.4166666","4.0","COLONIA JUAN CARRASCO MAZATLAN SIN., MX","FM-12","99999","V020","999,9,C,0000,1","22000,1,9,N","010000,1,N,1","+0296,1","+0253,1","10118,1","99,0000,9,1",,,,,"01,1,+02400,9,03,9",,,"02,99,1,01,1,00,1,99999,9,03,1,06,1",,"01,9",,,,"99999,9,10107,1","2,1,010,1,+018,1",,,"SYN106AAXX  01031 76458 32960 20000 10296 20253 30107 40118 52010 81036 90240 333 0/099 30/// 58018 81358 81072;","Q01  00002PRCP99"
"76458099999","2001-08-01T06:00:00","4","23.2","-106.4166666","4.0","COLONIA JUAN CARRASCO MAZATLAN SIN., MX","FM-12","99999","V020","360,1,N,0020,1","22000,1,9,N","010000,1,N,1","+0290,1","+0261,1","10136,1","99,0000,9,1",,,,,"03,1,+00360,9,05,9",,,"03,99,1,03,1,04,1,00450,1,00,1,00,1","0180,9","01,9",,"240,M,+0332,1","240,N,+0250,1","99999,9,10125,1","2,1,019,1,+023,1",,,"SYN118AAXX  01061 76458 32460 33602 10290 20261 30125 40136 52019 83400 90550 333 0/600 10332 20250 30/// 55030 58023 83612;","Q01  00002PRCP99"
"76458099999","2001-08-01T09:00:00","4","23.2","-106.4166666","4.0","COLONIA JUAN CARRASCO MAZATLAN SIN., MX","FM-12","99999","V020","330,1,N,0020,1","00210,1,9,N","010000,1,N,1","+0278,1","+0261,1","10126,1","99,0000,9,1",,,,,"07,1,+00210,9,05,9",,,"07,99,1,07,1,04,1,00250,1,00,1,00,1",,"01,9",,,,"99999,9,10115,1","7,1,010,1,+016,1",,,"SYN100AAXX  01091 76458 32360 73302 10278 20261 30115 40126 57010 87400 90850 333 0/100 30/// 58016 87607;","Q01  00002PRCP99"
"76458099999","2001-08-01T15:00:00","4","23.2","-106.4166666","4.0","COLONIA JUAN CARRASCO MAZATLAN SIN., MX","FM-12","99999","V020","340,1,N,0020,1","22000,1,9,N","018000,1,N,1","+0286,1","+0251,1","10138,1","99,0000,9,1",,,,,"01,1,+00450,9,08,9",,,"02,99,1,01,1,02,1,00450,1,03,1,00,1",,"01,9",,,,"99999,9,10127,1","1,1,005,1,+020,1",,,"SYN112AAXX  01151 76458 32468 23402 10286 20251 30127 40138 51005 81230 91450 333 0/5// 30/// 57855 58020 81815 81358;","Q01  00002PRCP99"
"76458099999","2001-08-01T18:00:00","4","23.2","-106.4166666","4.0","COLONIA JUAN CARRASCO MAZATLAN SIN., MX","FM-12","99999","V020","270,1,N,0040,1","22000,1,9,N","020000,1,N,1","+0312,1","+0257,1","10127,1","99,0000,9,1",,,,,"01,1,+00990,9,02,9",,,"01,99,1,01,1,02,1,00800,1,00,1,00,1",,"01,9",,"120,M,+0332,1","240,N,+0262,1","99999,9,10116,1","8,1,011,1,-002,1",,,"SYN118AAXX  01181 76458 32570 12704 10312 20257 30116 40127 58011 81200 91750 333 01100 10332 20262 30/// 57814 59002 81833;","Q01  00002PRCP99"
"76458099999","2001-08-01T21:00:00","4","23.2","-106.4166666","4.0","COLONIA JUAN CARRASCO MAZATLAN SIN., MX","FM-12","99999","V020","280,1,N,0050,1","22000,1,9,N","020000,1,N,1","+0318,1","+0265,1","10123,1","99,0000,9,1",,,,,"01,1,+00660,9,09,9",,,"01,99,1,01,1,09,1,00800,1,00,1,00,1",,"01,9",,,,"99999,9,10112,1","8,1,004,1,+003,1",,,"SYN106AAXX  01211 76458 32570 12805 10318 20265 30112 40123 58004 81900 92045 333 0/100 30/// 57914 58003 81922;","Q01  00002PRCP99"
"76458099999","2001-08-02T00:00:00","4","23.2","-106.4166666","4.0","COLONIA JUAN CARRASCO MAZATLAN SIN., MX","FM-12","99999","V020","260,1,N,0020,1","22000,1,9,N","020000,1,N,1","+0320,1","+0256,1","10112,1","99,0000,9,1",,,,,"01,1,+02400,9,07,9",,,"01,99,1,99,9,99,9,99999,9,03,1,00,1",,"01,9",,"120,M,+0338,1","180,N,+0262,1","99999,9,10101,1","7,1,011,1,-004,1",,,"SYN118AAXX  02001 76458 32970 12602 10320 20256 30101 40112 57011 80030 92358 333 0/090 10338 20262 30/// 50521 59004 81358;","Q01+000002SCOTLCQ02  00002PRCP99Q03    003SCOLCG"
"76458099999","2001-08-02T03:00:00","4","23.2","-106.4166666","4.0","COLONIA JUAN CARRASCO MAZATLAN SIN., MX","FM-12","99999","V020","999,9,C,0000,1","22000,1,9,N","010000,1,N,1","+0304,1","+0259,1","10115,1","99,0000,9,1",,,,,"00,1,+99999,9,99,9",,,"00,99,1,00,1,00,1,99999,9,00,1,00,1",,"01,9",,,,"99999,9,10105,1","2,1,015,1,+001,1",,,"SYN082AAXX  02031 76458 32960 00000 10304 20259 30105 40115 52015 90250 333 30/// 58001;","Q01  00002PRCP99"
"76458099999","2001-08-02T06:00:00","4","23.2","-106.4166666","4.0","COLONIA JUAN CARRASCO MAZATLAN SIN., MX","FM-12","99999","V020","310,1,N,0030,1","00510,1,9,N","010000,1,N,1","+0298,1","+0256,1","10126,1","99,0000,9,1",,,,,"07,1,+00510,9,07,9",,,"08,99,1,08,1,09,1,00450,1,00,1,00,1","0654,9","01,9",,"240,M,+0337,1","240,N,+0262,1","99999,9,10115,1","1,1,010,1,-011,1",,,"SYN124AAXX  02061 76458 32460 83103 10298 20256 30115 40126 51010 88900 90555 333 07200 10337 20262 30/// 55109 59011 87717 81933;","Q01  00002PRCP99"
"76458099999","2001-08-02T09:00:00","4","23.2","-106.4166666","4.0","COLONIA JUAN CARRASCO MAZATLAN SIN., MX","FM-12","99999","V020","360,1,N,0020,1","03600,1,C,N","010000,1,N,1","+0280,1","+0253,1","10128,1","99,0000,9,1",,,,,"03,1,+00360,9,06,9",,,"08,99,1,03,1,04,1,00450,1,01,1,00,1",,"09,9",,,,"99999,9,10117,1","3,1,013,1,+002,1",,,"SYN106AAXX  02091 76458 32460 83602 10280 20253 30117 40128 53013 83410 90845 333 0/790 31/// 58002 83612 85461;","Q01  00002PRCP99"
"76458099999","2001-08-02T12:00:00","4","23.2","-106.4166666","4.0","COLONIA JUAN CARRASCO MAZATLAN SIN., MX","FM-12","99999","V020","120,1,N,0020,1","00330,1,9,N","008000,1,N,1","+0274,1","+0247,1","10133,1","24,0000,9,1",,,"0,1,06,1","0,1,06,1","06,1,+00330,9,06,9",,,"07,99,1,07,1,05,1,00450,1,00,1,00,1",,"01,9","999,+0260,9","999,M,+0337,1","120,N,+0270,1","99999,9,10122,1","3,1,005,1,+000,1",,"13,1","SYN136AAXX  02121 76458 31458 71202 10274 20247 30122 40133 53005 71300 87500 91145 333 0/600 10337 20270 30026 57660 58000 70000 86611 81922;",
"76458099999","2001-08-02T15:00:00","4","23.2","-106.4166666","4.0","COLONIA JUAN CARRASCO MAZATLAN SIN., MX","FM-12","99999","V020","050,1,N,0020,1","22000,1,9,N","020000,1,N,1","+0294,1","+0243,1","10139,1","99,0000,9,1",,,,,"01,1,+00630,9,09,9",,,"01,99,1,01,1,09,1,00800,1,00,1,00,1",,"01,9",,,,"99999,9,10128,1","1,1,006,1,+001,1",,,"SYN106AAXX  02151 76458 32570 10502 10294 20243 30128 40139 51006 81900 91445 333 0/700 30/// 57912 58001 81921;","Q01  00002PRCP99"
"76458099999","2001-08-02T18:00:00","4","23.2","-106.4166666","4.0","COLONIA JUAN CARRASCO MAZATLAN SIN., MX","FM-12","99999","V020","240,1,N,0030,1","22000,1,9,N","020000,1,N,1","+0314,1","+0251,1","10138,1","99,0000,9,1",,,,,"01,1,+00750,9,08,9",,,"02,99,1,01,1,01,1,00800,1,00,1,08,1",,"01,9",,"120,M,+0345,1","240,N,+0269,1","99999,9,10127,1","0,1,001,1,+011,1",,,"SYN118AAXX  02181 76458 32570 22403 10314 20251 30127 40138 50001 81108 91750 333 003// 10345 20269 30/// 58011 81825 81270;","Q01  00002PRCP99"
"76458099999","2001-08-03T03:00:00","4","23.2","-106.4166666","4.0","COLONIA JUAN CARRASCO MAZATLAN SIN., MX","FM-12","99999","V020","360,1,N,0020,1","00420,1,9,N","010000,1,N,1","+0288,1","+0256,1","10109,1","03,0020,9,1",,,"5,1,03,1","5,1,03,1","08,1,+00420,9,09,9",,,"08,99,1,08,1,02,1,00450,1,00,1,00,1",,"09,9",,,,"99999,9,10098,1","2,1,013,1,-006,1",,"50,1","SYN118AAXX  03031 76458 12460 83602 10288 20256 30098 40109 52013 60021 75055 88200 90240 333 0/900 31/// 59006 60027 88914;",
"76458099999","2001-08-03T06:00:00","4","23.2","-106.4166666","4.0","COLONIA JUAN CARRASCO MAZATLAN SIN., MX","FM-12","99999","V020","290,1,N,0040,1","00750,1,C,N","007000,1,N,1","+0268,1","+0215,1","10123,1",,,,,,"02,1,+00660,9,08,9",,,"07,99,1,05,1,06,1,00800,1,99,9,99,9",,"09,9",,"240,M,+9999,9","240,N,+9999,9","99999,9,10102,1","2,1,004,1,-012,1",,,"SYN124AAXX  03061 76458 /1557 72904 10268 20215 30102 40123 52004 856// 90550 333 0/1// 10275 20344 31/// 57612 59012 82822 85632;","Q01 +02753ATMM  Q02 +03443ATMM  "
"76458099999","2001-08-03T09:00:00","4","23.2","-106.4166666","4.0","COLONIA JUAN CARRASCO MAZATLAN SIN., MX","FM-12","99999","V020","200,1,N,9999,9","22000,1,9,N","015000,1,N,1","+0274,1","+0236,1","10109,1","99,0000,2,1",,,,,"01,1,+00480,9,07,9",,,"01,99,1,01,1,03,1,00450,1,99,9,99,9",,"01,9",,,,"99999,9,10098,1","3,1,004,1,-019,1",,,"SYN106AAXX  03091 76458 32465 17001 10274 20236 30098 40109 53004 813// 90850 333 0/7// 30/// 57371 59019 81316;","Q01+010101WOSPD "
"76458099999","2001-08-03T15:00:00","4","23.2","-106.4166666","4.0","COLONIA JUAN CARRASCO MAZATLAN SIN., MX","FM-12","99999","V020","330,1,N,0060,1","00600,1,9,N","012000,1,N,1","+0277,1","+0226,1","10138,1","99,0000,2,1",,,,,"06,1,+00600,9,06,9",,,"07,99,1,06,1,05,1,00800,1,03,1,99,9",,"01,9",,,,"99999,9,10127,1","1,1,015,1,+001,1",,,"SYN106AAXX  03151 76458 32562 73306 10277 20226 30127 40138 51015 8653/ 91455 333 0/6// 30/// 58001 86620 81358;",
"76458099999","2001-08-03T18:00:00","4","23.2","-106.4166666","4.0","COLONIA JUAN CARRASCO MAZATLAN SIN., MX","FM-12","99999","V020","280,1,N,0040,1","22000,1,9,N","020000,1,N,1","+0310,1","+0255,1","10118,1","99,0000,9,1",,,,,"01,1,+00690,9,08,9",,,"03,99,1,03,1,01,1,00800,1,00,1,06,1",,"01,9",,"120,M,+0335,1","240,N,+0260,1","99999,9,10107,1","7,1,023,1,+002,1",,,"SYN124AAXX  03181 76458 32570 32804 10310 20255 30107 40118 57023 83106 91759 333 00109 10335 20260 30/// 57810 58002 81823 82070;","Q01  00002PRCP99"
"76458099999","2001-08-03T21:00:00","4","23.2","-106.4166666","4.0","COLONIA JUAN CARRASCO MAZATLAN SIN., MX","FM-12","99999","V020","290,1,N,0050,1","22000,1,9,N","020000,1,N,1","+0322,1","+0223,1","10103,1","99,0000,9,1",,,,,"01,1,+01230,9,08,9","01,1,+01800,9,03,9",,"04,99,1,01,1,02,1,01250,1,03,1,06,1",,"01,9",,,,"99999,9,10092,1","7,1,015,1,-013,1",,,"SYN118AAXX  03211 76458 32670 42905 10322 20223 30092 40103 57015 81236 92045 333 01199 30/// 57815 59013 81841 81356 82070;","Q01  00002PRCP99"
"76458099999","2001-08-04T03:00:00","4","23.2","-106.4166666","4.0","COLONIA JUAN CARRASCO MAZATLAN SIN., MX","FM-12","99999","V020","350,1,N,0010,1","00630,1,9,N","010000,1,N,1","+0294,1","+0243,1","10109,1","99,0000,9,1",,,,,"05,1,+00630,9,06,9",,,"07,99,1,05,1,04,1,00800,1,03,1,00,1",,"01,9",,,,"99999,9,10098,1","2,1,014,1,+001,1",,,"SYN106AAXX  04031 76458 32560 73501 10294 20243 30098 40109 52014 85430 90230 333 0/990 30/// 58001 85621 82358;","Q01  00002PRCP99"
"76458099999","2001-08-04T06:00:00","4","23.2","-106.4166666","4.0","COLONIA JUAN CARRASCO MAZATLAN SIN., MX","FM-12","99999","V020","120,1,N,0060,1","09000,1,C,N","008000,1,N,1","+0256,1","+0237,1","10120,1","02,0020,9,1",,,"5,1,06,1","5,1,06,1","02,1,+00240,9,08,9","04,1,+00840,9,06,9",,"07,99,1,04,1,06,1,00250,1,00,1,03,1",,"11,9",,"240,M,+0337,1","240,N,+0254,1","99999,9,10110,1","2,1,012,1,+008,1",,"24,1","SYN148AAXX  04061 76458 /1358 71206 10256 20237 30110 40120 52012 60026 72455 84603 90550 333 0/3// 10337 20254 32/// 57833 58008 60026 82808 84628 81070;","Q01+000002PRSWM1"
"76458099999","2001-08-04T09:00:00","4","23.2","-106.4166666","4.0","COLONIA JUAN CARRASCO MAZATLAN SIN., MX","FM-12","99999","V020","340,1,N,0010,1","03600,1,C,N","010000,1,N,1","+0250,1","+0234,1","10111,1","99,0000,2,1",,,,,"02,1,+00210,9,06,9","02,1,+02400,9,03,9",,"07,99,1,02,1,04,1,00250,1,03,1,08,1",,"09,9",,,,"99999,9,10100,1","7,1,010,1,+002,1",,,"SYN118AAXX  04091 76458 3/360 73401 10250 20234 30100 40111 57010 82438 90850 333 0/7// 31/// 57671 58002 82607 82358 83270;",
"76458099999","2001-08-04T15:00:00","4","23.2","-106.4166666","4.0","COLONIA JUAN CARRASCO MAZATLAN SIN., MX","FM-12","99999","V020","100,1,N,0020,1","22000,1,9,N","020000,1,N,1","+0286,1","+0222,1","10117,1","99,0000,2,1",,,,,"01,1,+00750,9,08,9","01,1,+02400,9,03,9",,"03,99,1,01,1,02,1,00800,1,03,1,02,1",,"01,9",,,,"99999,9,10106,1","1,1,008,1,-021,1",,,"SYN118AAXX  04151 76458 32570 31002 10286 20222 30106 40117 51008 81232 91455 333 0/5// 30/// 57857 59021 81825 81358 81070;",
"76458099999","2001-08-04T18:00:00","4","23.2","-106.4166666","4.0","COLONIA JUAN CARRASCO MAZATLAN SIN., MX","FM-12","99999","V020","230,1,N,0030,1","22000,1,9,N","020000,1,N,1","+0308,1","+0247,1","10117,1","99,0000,2,1",,,,,"01,1,+00750,9,02,9",,,"01,99,1,01,1,02,1,00800,1,00,1,00,1",,"01,9",,"120,M,+0325,1","240,N,+0247,1","99999,9,10106,1","5,1,000,1,-001,1",,,"SYN118AAXX  04181 76458 32570 12303 10308 20247 30106 40117 55000 81200 91745 333 01100 10325 20247 30/// 57817 59001 81825;",
"76458099999","2001-08-04T21:00:00","4","23.2","-106.4166666","4.0","COLONIA JUAN CARRASCO MAZATLAN SIN., MX","FM-12","99999","V020","250,1,N,0040,1","22000,1,9,N","020000,1,N,1","+0312,1","+0230,1","10107,1","99,0000,9,1",,,,,"01,1,+01230,9,02,9",,,"01,99,1,01,1,02,1,01250,1,00,1,00,1",,"01,9",,,,"99999,9,10097,1","7,1,009,1,+005,1",,,"SYN106AAXX  04211 76458 32670 12504 10312 20230 30097 40107 57009 81200 92045 333 01100 30/// 57816 58005 81841;","Q01  00002PRCP99"
"76458099999","2001-08-05T00:00:00","4","23.2","-106.4166666","4.0","COLONIA JUAN CARRASCO MAZATLAN SIN., MX","FM-12","99999","V020","230,1,N,0050,1","22000,1,9,N","020000,1,N,1","+0317,1","+0243,1","10094,1","24,0000,2,1",,,,,,,,"01,99,1,01,1,03,1,00800,1,00,1,00,1",,"01,9",,"120,M,+0335,1","180,N,+0247,1","99999,9,10083,1","7,1,009,1,+000,1",,,"SYN130AAXX  05001 76458 32570 12305 10317 20243 30083 40094 57009 81300 92355 333 07100 10335 20247 30/// 50731 57916 59000 79999 81931;",
"76458099999","2001-08-05T03:00:00","4","23.2","-106.4166666","4.0","COLONIA JUAN CARRASCO MAZATLAN SIN., MX","FM-12","99999","V020","250,1,N,0020,1","22000,1,9,N","016000,1,N,1","+0296,1","+0245,1","10104,1","99,0000,9,1",,,,,"02,1,+00630,9,02,9",,,"02,99,1,02,1,01,1,00800,1,00,1,00,1",,"01,9",,,,"99999,9,10093,1","1,1,010,1,-005,1",,,"SYN100AAXX  05031 76458 32566 22502 10296 20245 30093 40104 51010 82100 90248 333 01600 30/// 59005 82821;","Q01  00002PRCP99"
"76458099999","2001-08-05T06:00:00","4","23.2","-106.4166666","4.0","COLONIA JUAN CARRASCO MAZATLAN SIN., MX","FM-12","99999","V020","340,1,N,0010,1","22000,1,9,N","014000,1,N,1","+0292,1","+0248,1","10119,1","99,0000,9,1",,,,,"04,1,+00540,9,05,9",,,"04,99,1,04,1,04,1,00450,1,99,9,99,9",,"01,9",,"240,M,+0334,1","240,N,+0262,1","99999,9,10108,1","8,1,015,1,-002,1",,,"SYN112AAXX  05061 76458 32464 43401 10292 20248 30108 40119 58015 844// 333 0/1// 10334 20262 30/// 57612 59002 84618;","Q01  00002PRCP99"
"76458099999","2001-08-05T09:00:00","4","23.2","-106.4166666","4.0","COLONIA JUAN CARRASCO MAZATLAN SIN., MX","FM-12","99999","V020","999,9,C,0000,1","22000,1,9,N","016000,1,N,1","+0280,1","+0248,1","10120,1","99,0000,9,1",,,,,"01,1,+00390,9,02,9",,,"01,99,1,01,1,02,1,00450,1,99,9,99,9",,"01,9",,,,"99999,9,10109,1","8,1,001,1,+009,1",,,"SYN106AAXX  05091 76458 32466 10700 10280 20248 30109 40120 58001 812// 90850 333 0/1// 30/// 57814 58009 81813;","Q01  00002PRCP99"
"76458099999","2001-08-05T12:00:00","4","23.2","-106.4166666","4.0","COLONIA JUAN CARRASCO MAZATLAN SIN., MX","FM-12","99999","V020","999,9,C,0000,1","22000,1,9,N","001600,1,N,1","+0267,1","+0246,1","10117,1","24,0000,9,1",,,,,"00,1,+99999,9,99,9",,,"00,99,1,00,1,00,1,99999,9,00,1,00,1",,"01,9","999,+0250,9","999,M,+0335,1","120,N,+0264,1","99999,9,10106,1","4,1,000,1,+008,1",,,"SYN100AAXX  05121 76458 32916 00000 10267 20246 30106 40117 54003 91150 333 10335 20264 30025 58008 70000;","Q01  00002PRCP24"
"76458099999","2001-08-05T15:00:00","4","23.2","-106.4166666","4.0","COLONIA JUAN CARRASCO MAZATLAN SIN., MX","FM-12","99999","V020","999,9,C,0000,1","22000,1,9,N","020000,1,N,1","+0297,1","+0241,1","10129,1","99,0000,9,1",,,,,"01,1,+00690,9,08,9",,,"02,99,1,01,1,02,1,00800,1,00,1,09,1",,"01,9",,,,"99999,9,10114,1","2,1,011,1,+016,1",,,"SYN112AAXX  05151 76458 32570 20000 10297 20241 30114 40129 52011 81209 91450 333 04409 30/// 57847 58016 81823 81079;","Q01  00002PRCP99"
"76458099999","2001-08-05T18:00:00","4","23.2","-106.4166666","4.0","COLONIA JUAN CARRASCO MAZATLAN SIN., MX","FM-12","99999","V020","240,1,N,0040,1","22000,1,9,N","020000,1,N,1","+0310,1","+0252,1","10138,1","99,0000,9,1",,,,,"01,1,+00720,9,08,9",,,"02,99,1,01,1,02,1,00800,1,00,1,01,1",,"01,9",,"120,M,+0330,1","240,N,+0263,1","99999,9,10127,1","2,1,010,1,+021,1",,,"SYN124AAXX  05181 76458 32570 22404 10310 20252 30127 40138 52010 81201 91745 333 01109 10330 20263 30/// 57814 58021 81824 81070;","Q01  00002PRCP99"
"76458099999","2001-08-06T00:00:00","4","23.2","-106.4166666","4.0","COLONIA JUAN CARRASCO MAZATLAN SIN., MX","FM-12","99999","V020","270,1,N,0020,1","22000,1,9,N","020000,1,N,1","+0318,1","+0240,1","10111,1","99,0000,9,1",,,,,,,,"02,99,1,01,1,03,1,00800,1,00,1,06,1",,"01,9",,"120,M,+0338,1","180,N,+0263,1","99999,9,10100,1","7,1,007,1,-172,1",,,"SYN124AAXX  06001 76458 32570 22702 10318 20240 30100 40111 57007 81306 92345 333 0/109 10338 20263 30/// 50521 58932 59172 70000;","Q01  00002PRCP99"
"76458099999","2001-08-06T03:00:00","4","23.2","-106.4166666","4.0","COLONIA JUAN CARRASCO MAZATLAN SIN., MX","FM-12","99999","V020","280,1,N,0020,1","22000,1,9,N","010000,1,N,1","+0300,1","+0242,1","10120,1","99,0000,9,1",,,,,"02,1,+02400,9,03,9",,,"03,99,1,02,1,00,1,99999,9,03,1,06,1",,"01,9",,,,"99999,9,10109,1","2,1,009,1,+016,1",,,"SYN106AAXX  06031 76458 32960 32802 10300 20242 30109 40120 52009 82036 90235 333 0/099 30/// 58016 82358 81072;","Q01  00002PRCP99"
"76458099999","2001-08-06T15:00:00","4","23.2","-106.4166666","4.0","COLONIA JUAN CARRASCO MAZATLAN SIN., MX","FM-12","99999","V020","360,1,N,0020,1","00630,1,9,N","018000,1,N,1","+0296,1","+0245,1","10129,1","99,0000,9,1",,,,,"05,1,+00630,9,06,9",,,"07,99,1,05,1,04,1,00800,1,03,1,00,1",,"01,9",,,,"99999,9,10119,1","2,1,014,1,+001,1",,,"SYN106AAXX  06151 76458 32568 73602 10296 20245 30119 40129 52014 85430 91450 333 0/590 30/// 58001 85621 82359;","Q01  00002PRCP99"
"76458099999","2001-08-06T18:00:00","4","23.2","-106.4166666","4.0","COLONIA JUAN CARRASCO MAZATLAN SIN., MX","FM-12","99999","V020","250,1,N,0030,1","22000,1,9,N","020000,1,N,1","+0312,1","+0242,1","10132,1","99,0000,9,1",,,,,"01,1,+00870,9,06,9",,,"04,99,1,01,1,05,1,00800,1,03,1,00,1",,"01,9",,"120,M,+0340,1","240,N,+0274,1","99999,9,10121,1","0,1,002,1,-006,1",,,"SYN124AAXX  06181 76458 32570 42503 10312 20242 30121 40132 50002 81530 91745 333 0/190 10340 20274 30/// 57613 59006 81629 83356;","Q01  00002PRCP99"
"76458099999","2001-08-06T21:00:00","4","23.2","-106.4166666","4.0","COLONIA JUAN CARRASCO MAZATLAN SIN., MX","FM-12","99999","V020","240,1,N,0040,1","22000,1,9,N","020000,1,N,1","+0320,1","+0259,1","10112,1","99,0000,9,1",,,,,"01,1,+00750,9,02,9",,,"01,99,1,01,1,01,1,00800,1,00,1,00,1",,"01,9",,,,"99999,9,10101,1","7,1,020,1,-006,1",,,"SYN106AAXX  06211 76458 32570 12404 10320 20259 30101 40112 57020 81100 92045 333 00100 30/// 57810 59006 81825;","Q01  00002PRCP99"
"76458099999","2001-08-07T00:00:00","4","23.2","-106.4166666","4.0","COLONIA JUAN CARRASCO MAZATLAN SIN., MX","FM-12","99999","V020","280,1,N,0030,1","22000,1,9,N","020000,1,N,1","+0320,1","+0256,1","10085,1","24,0000,9,1",,,,,"01,1,+00810,9,09,9",,,"02,99,1,01,1,03,1,00800,1,00,1,06,1",,"01,9",,"120,M,+0340,1","180,N,+0274,1","99999,9,10074,1","7,1,027,1,-026,1",,,"SYN124AAXX  07001 76458 32570 22803 10320 20256 30074 40085 57027 81306 92345 333 0/809 10340 20274 30/// 59026 70000 81927 81072;",
"76458099999","2001-08-07T03:00:00","4","23.2","-106.4166666","4.0","COLONIA JUAN CARRASCO MAZATLAN SIN., MX","FM-12","99999","V020","280,1,N,0020,1","22000,1,9,N","010000,1,N,1","+0302,1","+0265,1","10098,1","99,0000,9,1",,,,,"02,1,+00450,9,06,9",,,"03,99,1,02,1,04,1,00450,1,03,1,00,1",,"01,9",,,,"99999,9,10087,1","2,1,013,1,-022,1",,,"SYN106AAXX  07031 76458 32460 32802 10302 20265 30087 40098 52013 82430 90235 333 0/390 30/// 59022 82615 81358;","Q01  00002PRCP99"
"76458099999","2001-08-07T09:00:00","4","23.2","-106.4166666","4.0","COLONIA JUAN CARRASCO MAZATLAN SIN., MX","FM-12","99999","V020","350,1,N,0010,1","22000,1,9,N","012000,1,N,1","+0298,1","+0264,1","10098,1","99,0000,9,1",,,,,"03,1,+00420,9,05,9",,,"03,99,1,03,1,04,1,00450,1,99,9,99,9",,"01,9",,,,"99999,9,10087,1","8,1,005,1,-024,1",,,"SYN106AAXX  07091 76458 32462 33501 10298 20264 30087 40098 58005 834// 90850 333 0/8// 30/// 57682 59024 83614;","Q01  00002PRCP99"
"76458099999","2001-08-07T15:00:00","4","23.2","-106.4166666","4.0","COLONIA JUAN CARRASCO MAZATLAN SIN., MX","FM-12","99999","V020","350,1,N,0020,1","02400,1,9,N","015000,1,N,1","+0254,1","+0232,1","10133,1","03,0020,9,1",,,"5,1,03,1","9,1,03,1","06,1,+02400,9,03,9",,,"08,99,1,06,1,00,1,99999,9,06,1,08,1",,"09,9",,,,"99999,9,10122,1","1,1,013,1,+003,1",,"04,1","SYN112AAXX  07151 76458 21965 83502 10254 20232 30122 40133 51013 70459 86068 91455 333 31/// 58003 60027 86358 82270;",
"76458099999","2001-08-07T18:00:00","4","23.2","-106.4166666","4.0","COLONIA JUAN CARRASCO MAZATLAN SIN., MX","FM-12","99999","V020","130,1,N,0030,1","03600,1,9,N","020000,1,N,1","+0283,1","+0234,1","10137,1","99,0000,9,1",,,,,"01,1,+00600,9,08,9",,,"08,99,1,01,1,01,1,00800,1,01,1,00,1",,"09,9",,"120,M,+0292,1","240,N,+0249,1","99999,9,10126,1","2,1,003,1,+004,1",,,"SYN118AAXX  07181 76458 32570 81303 10283 20234 30126 40137 52003 81110 91755 333 01890 10292 20249 31/// 58004 81820 87462;","Q01  00002PRCP99"
"76458099999","2001-08-07T21:00:00","4","23.2","-106.4166666","4.0","COLONIA JUAN CARRASCO MAZATLAN SIN., MX","FM-12","99999","V020","180,1,N,0030,1","09000,1,C,N","020000,1,N,1","+0313,1","+0231,1","10122,1","99,0000,9,1",,,,,"01,1,+01020,9,08,9","02,1,+02700,9,03,9",,"06,99,1,01,1,02,1,01250,1,03,1,06,1",,"09,9",,,,"99999,9,10111,1","7,1,015,1,+009,1",,,"SYN118AAXX  07211 76458 32670 61803 10313 20231 30111 40122 57051 81236 92055 333 02199 31/// 57819 58009 81834 82359 83079;","Q01+000512APC3  Q02  00002PRCP99"
"76458099999","2001-08-08T06:00:00","4","23.2","-106.4166666","4.0","COLONIA JUAN CARRASCO MAZATLAN SIN., MX","FM-12","99999","V020","200,1,N,0010,1","22000,1,9,N","014000,1,N,1","+0290,1","+0258,1","10129,1","99,0000,9,1",,,,,"03,1,+02400,9,07,9",,,"99,99,9,02,1,03,1,00450,1,99,9,99,9",,"01,9",,"240,M,+0335,1","240,N,+0245,1","99999,9,10119,1","2,1,021,1,+027,1",,,"SYN106AAXX  08061 76458 32464 22001 10290 20258 30119 40129 52021 823// 90550 333 10335 20245 30/// 58027 83358;","Q01+000022SCOTCVQ02  00002PRCP99"
"76458099999","2001-08-08T09:00:00","4","23.2","-106.4166666","4.0","COLONIA JUAN CARRASCO MAZATLAN SIN., MX","FM-12","99999","V020","110,1,N,0230,1","22000,1,9,N","014000,1,N,1","+0284,1","+0255,1","10127,1","00,9999,9,9",,,,,"03,1,+00360,9,06,9",,,"04,99,1,99,9,99,9,00450,1,99,9,99,9",,"01,9",,,,"99999,9,10116,1","7,1,003,1,+029,1",,,"SYN112AAXX  08091 76458 32464 41123 10284 20255 30116 40127 57003 6343/ 90850 333 0/3// 30/// 57632 58029 83612 82358;","Q01  34292PRCP00"
"76458099999","2001-08-08T15:00:00","4","23.2","-106.4166666","4.0","COLONIA JUAN CARRASCO MAZATLAN SIN., MX","FM-12","99999","V020","120,1,N,0030,1","00600,1,9,N","015000,1,N,1","+0288,1","+0250,1","10137,1","99,0000,9,1",,,,,"03,1,+00450,9,06,9","02,1,+00600,9,08,9",,"07,99,1,05,1,02,1,00450,1,03,1,99,9",,"01,9",,,,"99999,9,10126,1","1,1,009,1,+004,1",,,"SYN118AAXX  08151 76458 32465 71203 10288 20250 30126 40137 51009 8523/ 91459 333 0/5// 30/// 57850 58004 83615 82820 82358;","Q01  00002PRCP99"
"76458099999","2001-08-08T18:00:00","4","23.2","-106.4166666","4.0","COLONIA JUAN CARRASCO MAZATLAN SIN., MX","FM-12","99999","V020","100,1,N,0030,1","22000,1,9,N","015000,1,N,1","+0299,1","+0238,1","10142,1","99,0000,9,1",,,,,"01,1,+00750,9,09,9",,,"04,99,1,02,1,09,1,00800,1,00,1,03,1",,"01,9",,"120,M,+0315,1","240,N,+0276,1","99999,9,10130,1","0,1,004,1,+004,1",,,"SYN124AAXX  08181 76458 32565 41003 10299 20238 30130 40142 50004 82903 91758 333 0/8// 10315 20276 30/// 57981 58004 81925 82070;","Q01  00002PRCP99"
"76458099999","2001-08-08T21:00:00","4","23.2","-106.4166666","4.0","COLONIA JUAN CARRASCO MAZATLAN SIN., MX","FM-12","99999","V020","250,1,N,0040,1","22000,1,9,N","020000,1,N,1","+0322,1","+0222,1","10116,1","99,0000,9,1",,,,,"01,1,+01260,9,08,9","02,1,+03600,9,04,9",,"04,99,1,01,1,01,1,01250,1,02,1,01,1",,"01,9",,,,"99999,9,10105,1","7,1,025,1,-006,1",,,"SYN112AAXX  08211 76458 32670 42504 10322 20222 30105 40116 57025 81121 92058 333 01199 30/// 59006 81842 82462 81079;","Q01  00002PRCP99"
"76458099999","2001-08-09T00:00:00","4","23.2","-106.4166666","4.0","COLONIA JUAN CARRASCO MAZATLAN SIN., MX","FM-12","99999","V020","270,1,N,0030,1","22000,1,9,N","020000,1,N,1","+0314,1","+0250,1","10106,1","24,0000,9,1",,,,,"01,1,+00810,9,09,9",,,"03,99,1,01,1,03,1,00800,1,03,1,00,1",,"01,9",,"120,M,+0340,1","180,N,+0276,1","99999,9,10095,1","7,1,010,1,-006,1",,,"SYN130AAXX  09001 76458 32570 32703 10314 20250 30095 40106 57010 81330 92350 333 0/190 10340 20276 30/// 50471 59006 70000 81927 82358;",
"76458099999","2001-08-09T03:00:00","4","23.2","-106.4166666","4.0","COLONIA JUAN CARRASCO MAZATLAN SIN., MX","FM-12","99999","V020","280,1,N,0020,1","00660,1,9,N","010000,1,N,1","+0298,1","+0244,1","10119,1","99,0000,9,1",,,,,"05,1,+00660,9,05,9",,,"05,99,1,05,1,04,1,00800,1,00,1,00,1",,"01,9",,,,"99999,9,10108,1","2,1,013,1,+010,1",,,"SYN100AAXX  09031 76458 32560 52802 10298 20244 30108 40119 52013 85400 90235 333 0/900 30/// 58010 85622;","Q01  00002PRCP99"
"76458099999","2001-08-09T06:00:00","4","23.2","-106.4166666","4.0","COLONIA JUAN CARRASCO MAZATLAN SIN., MX","FM-12","99999","V020","050,1,N,0020,1","22000,1,9,N","008000,1,N,1","+0265,1","+0248,1","10142,1","03,0010,9,1",,,,,"03,1,+00270,9,06,9",,,"04,99,1,04,1,09,1,00250,1,00,1,00,1","0360,9","09,9",,"240,M,+0340,1","240,N,+9999,9","99999,9,10131,1","2,1,023,1,+013,1",,,"SYN136AAXX  09061 76458 11358 40502 10265 20248 30131 40142 52023 60017 84900 90555 333 07700 10340 20276 31/// 55060 57971 58013 83609 81927;","Q01 +02762ATMN  "
"76458099999","2001-08-09T09:00:00","4","23.2","-106.4166666","4.0","COLONIA JUAN CARRASCO MAZATLAN SIN., MX","FM-12","99999","V020","030,1,N,0020,1","00450,1,9,N","008000,1,N,1","+0262,1","+0225,1","10134,1","99,0000,9,1",,,,,"08,1,+00450,9,05,9",,,"08,99,1,08,1,05,1,00450,1,00,1,00,1",,"09,9",,,,"99999,9,10123,1","5,1,009,1,+007,1",,,"SYN100AAXX  09091 76458 32458 80302 10262 20225 30123 40134 55009 88500 90850 333 0/900 31/// 58007 88615;","Q01  00002PRCP99"
"76458099999","2001-08-09T15:00:00","4","23.2","-106.4166666","4.0","COLONIA JUAN CARRASCO MAZATLAN SIN., MX","FM-12","99999","V020","360,1,N,0020,1","22000,1,9,N","015000,1,N,1","+0276,1","+0217,1","10133,1","99,0000,9,1",,,,,"02,1,+02400,9,03,9",,,"04,99,1,02,1,00,1,99999,9,03,1,08,1",,"01,9",,,,"99999,9,10122,1","1,1,004,1,-004,1",,,"SYN100AAXX  09151 76458 32965 43602 10276 20217 30122 40133 51004 82038 91455 333 30/// 59004 82358 82270;","Q01  00002PRCP99"
"76458099999","2001-08-09T18:00:00","4","23.2","-106.4166666","4.0","COLONIA JUAN CARRASCO MAZATLAN SIN., MX","FM-12","99999","V020","250,1,N,0040,1","09000,1,C,N","020000,1,N,1","+0318,1","+0202,1","10122,1","99,0000,9,1",,,,,"01,1,+01440,9,08,9",,,"06,99,1,01,1,02,1,01250,1,00,1,03,1",,"01,9",,"120,M,+0345,1","240,N,+0254,1","99999,9,10111,1","7,1,011,1,-020,1",,,"SYN124AAXX  09181 76458 32670 62504 10318 20202 30111 40122 57011 81203 91755 333 02109 10345 20254 30/// 57815 59020 81848 85176;","Q01  00002PRCP99"
"76458099999","2001-08-10T03:00:00","4","23.2","-106.4166666","4.0","COLONIA JUAN CARRASCO MAZATLAN SIN., MX","FM-12","99999","V020","270,1,N,0020,1","22000,1,9,N","010000,1,N,1","+0301,1","+0231,1","10114,1","99,0000,9,1",,,,,"00,1,+99999,9,99,9",,,"00,99,1,00,1,00,1,99999,9,00,1,00,1",,"01,9",,,,"99999,9,10103,1","2,1,010,1,-005,1",,,"SYN082AAXX  10031 76458 32960 02702 10301 20231 30103 40114 52010 90235 333 30/// 59005;","Q01  00002PRCP99"
"76458099999","2001-08-10T06:00:00","4","23.2","-106.4166666","4.0","COLONIA JUAN CARRASCO MAZATLAN SIN., MX","FM-12","99999","V020","340,1,N,0010,1","22000,1,9,N","010000,1,N,1","+0288,1","+0239,1","10120,1","99,0000,9,1",,,,,"00,1,+99999,9,99,9",,,"00,99,1,00,1,00,1,99999,9,00,1,00,1",,"01,9",,"240,M,+0343,1","240,N,+0254,1","99999,9,10109,1","2,1,005,1,-022,1",,,"SYN094AAXX  10061 76458 32960 03401 10288 20239 30109 40120 52005 90555 333 10343 20254 30/// 59022;","Q01  00002PRCP99"
"76458099999","2001-08-10T09:00:00","4","23.2","-106.4166666","4.0","COLONIA JUAN CARRASCO MAZATLAN SIN., MX","FM-12","99999","V020","999,9,C,0000,1","22000,1,9,N","014000,1,N,1","+0278,1","+0231,1","10118,1","99,0000,9,1",,,,,"00,1,+99999,9,99,9",,,"00,99,1,00,1,00,1,99999,9,00,1,00,1",,"01,9",,,,"99999,9,10107,1","0,1,004,1,-016,1",,,"SYN082AAXX  10091 76458 32464 03600 10278 20231 30107 40118 50004 90855 333 30/// 59016;","Q01  00002PRCP99"
"76458099999","2001-08-10T15:00:00","4","23.2","-106.4166666","4.0","COLONIA JUAN CARRASCO MAZATLAN SIN., MX","FM-12","99999","V020","350,1,N,0030,1","22000,1,9,N","015000,1,N,1","+0282,1","+0227,1","10133,1","99,0000,9,1",,,,,"01,1,+00660,9,08,9","02,1,+02400,9,03,9",,"04,99,1,01,1,02,1,00800,1,03,1,06,1",,,,,,"99999,9,10122,1","1,1,012,1,+000,1",,,"SYN112AAXX  10151 76458 32565 43503 10282 20227 30122 40133 51012 81236 91455 333 0/4// 57849 58000 81822 82358 81070;","Q01  00002PRCP99"
"76458099999","2001-08-10T18:00:00","4","23.2","-106.4166666","4.0","COLONIA JUAN CARRASCO MAZATLAN SIN., MX","FM-12","99999","V020","200,1,N,0030,1","22000,1,9,N","020000,1,N,1","+0324,1","+0240,1","10127,1","99,0000,9,1",,,,,"01,1,+01020,9,08,9",,,"03,99,1,01,1,02,1,01250,1,00,1,06,1",,"01,9",,"120,M,+0352,1","240,N,+0250,1","99999,9,10116,1","5,1,006,1,+005,1",,,"SYN124AAXX  10181 76458 32670 32003 10324 20240 30116 40127 55006 81206 91755 333 0/1// 10352 20250 30/// 57819 58005 81834 82070;","Q01  00002PRCP99"
"76458099999","2001-08-10T21:00:00","4","23.2","-106.4166666","4.0","COLONIA JUAN CARRASCO MAZATLAN SIN., MX","FM-12","99999","V020","270,1,N,0050,1","22000,1,9,N","020000,1,N,1","+0333,1","+0249,1","10100,1","99,0000,9,1",,,,,"01,1,+00060,9,03,9",,,"04,99,1,01,1,03,1,01250,1,00,1,02,1",,"01,9",,,,"99999,9,10089,1","7,1,027,1,-005,1",,,"SYN112AAXX  10211 76458 32670 42705 10333 20249 30089 40100 57027 81302 92055 333 06109 30/// 56916 59005 81935 83079;","Q01  00002PRCP99"
"76458099999","2001-08-11T00:00:00","4","23.2","-106.4166666","4.0","COLONIA JUAN CARRASCO MAZATLAN SIN., MX","FM-12","99999","V020","280,1,N,0040,1","22000,1,9,N","020000,1,N,1","+0332,1","+0244,1","10085,1","99,0000,9,1",,,,,"01,1,+01080,9,09,9",,,"03,99,1,01,1,03,1,00800,1,00,1,06,1",,"01,9",,"120,M,+9999,9","180,N,+0250,1","99999,9,10074,1","7,1,015,1,-019,1",,,"SYN124AAXX  11001 76458 32570 32804 10332 20244 30074 40085 57015 81306 92355 333 0/109 10325 20250 30/// 50651 59019 81936 82072;","Q01  00002PRCP99Q02 +03252ATMX  "
"76458099999","2001-08-11T03:00:00","4","23.2","-106.4166666","4.0","COLONIA JUAN CARRASCO MAZATLAN SIN., MX","FM-12","99999","V020","290,1,N,0020,1","22000,1,9,N","010000,1,N,1","+0306,1","+0153,1","10086,1","99,0000,9,1",,,,,"02,1,+06600,9,01,9",,,"02,99,1,00,1,00,1,99999,9,00,1,06,1",,"01,9",,,,"99999,9,10075,1","2,1,001,1,-027,1",,,"SYN100AAXX  11031 76458 32960 22902 10306 20153 30075 40086 52001 80006 90235 333 0/009 30/// 59027 82072;","Q01  00002PRCP99"
"76458099999","2001-08-11T06:00:00","4","23.2","-106.4166666","4.0","COLONIA JUAN CARRASCO MAZATLAN SIN., MX","FM-12","99999","V020","350,1,N,0020,1","22000,1,9,N","014000,1,N,1","+0304,1","+0264,2","10098,1",,,,,,"00,1,+99999,9,99,9",,,"00,99,1,00,1,00,1,99999,9,00,1,00,1",,"01,9",,"240,M,+0351,1","240,N,+0250,1","99999,9,10087,1","2,1,011,1,-022,1",,,"SYN094AAXX  11061 76458 22464 03502 10304 20264 30087 40098 52011 90550 333 10351 20250 30/// 59022;","Q01+002643ATOD  "
"76458099999","2001-08-11T21:00:00","4","23.2","-106.4166666","4.0","COLONIA JUAN CARRASCO MAZATLAN SIN., MX","FM-12","99999","V020","250,1,N,0020,1","09000,1,C,N","020000,1,N,1","+0306,1","+0224,1","10111,1","99,0000,9,1",,,,,"02,1,+00900,9,09,9",,,"07,99,1,02,1,09,1,01250,1,00,1,08,1",,"01,9",,,,"99999,9,10100,1","6,1,027,1,+011,1",,,"SYN112AAXX  11211 76458 32670 72502 10306 20224 30100 40111 56027 82908 92050 333 0/8// 30/// 57981 58011 82930 85270;","Q01  00002PRCP99"
"76458099999","2001-08-12T03:00:00","4","23.2","-106.4166666","4.0","COLONIA JUAN CARRASCO MAZATLAN SIN., MX","FM-12","99999","V020","270,1,N,0030,1","22000,1,9,N","016000,1,N,1","+0292,1","+0245,1","10106,1","99,0000,9,1",,,,,"04,1,+08700,9,01,9",,,"04,99,1,00,1,00,1,99999,9,00,1,04,1",,"01,9",,,,"99999,9,10095,1","2,1,010,1,+019,1",,,"SYN100AAXX  12031 76458 32966 42703 10292 20245 30095 40106 52010 80004 90240 333 0/00/ 30/// 58019 84079;","Q01  00002PRCP99"
"76458099999","2001-08-12T06:00:00","4","23.2","-106.4166666","4.0","COLONIA JUAN CARRASCO MAZATLAN SIN., MX","FM-12","99999","V020","110,1,N,0020,1","22000,1,9,N","014000,1,N,1","+0288,1","+0242,1","10123,1","99,0000,9,1",,,,,"02,1,+02400,9,07,9",,,"02,99,1,02,1,03,1,00450,1,99,9,99,9",,"01,9",,"240,M,+0332,1","240,N,+0260,1","99999,9,10111,1","2,1,016,1,+024,1",,,"SYN106AAXX  12061 76458 32464 21102 10288 20242 30111 40123 52016 823// 90550 333 10332 20260 30/// 58024 82358;","Q01  00002PRCP99"
"76458099999","2001-08-12T18:00:00","4","23.2","-106.4166666","4.0","COLONIA JUAN CARRASCO MAZATLAN SIN., MX","FM-12","99999","V020","180,1,N,0030,1","02400,1,9,N","018000,1,N,1","+0310,1","+0252,1","10148,1","99,0000,9,1",,,,,"02,1,+00720,9,08,9","03,1,+02400,9,03,9",,"06,99,1,02,1,08,1,00800,1,03,1,00,1",,"01,9",,"120,M,+0328,1","240,N,+0266,1","99999,9,10137,1","2,1,004,1,+010,1",,,"SYN130AAXX  12181 76458 32568 61803 10310 20252 30137 40148 52004 82830 91750 333 0/3// 10328 20266 30/// 57833 58010 82824 83358 81070;","Q01  00002PRCP99"
"76458099999","2001-08-12T21:00:00","4","23.2","-106.4166666","4.0","COLONIA JUAN CARRASCO MAZATLAN SIN., MX","FM-12","99999","V020","200,1,N,0060,1","22000,1,9,N","020000,1,N,1","+0328,1","+0239,1","10129,1","99,0000,9,1",,,,,"01,1,+00420,9,09,9","01,1,+00720,9,08,9","01,1,+02400,9,03,9","04,99,1,01,1,09,1,01250,1,03,1,00,1",,"01,9",,,,"99999,9,10118,1","8,1,019,1,+018,1",,,"SYN124AAXX  12211 76458 32670 42006 10328 20239 30118 40129 58019 81930 92050 333 0/2// 30/// 57921 58018 81914 81824 81358 81070;","Q01  00002PRCP99"
"76458099999","2001-08-13T00:00:00","4","23.2","-106.4166666","4.0","COLONIA JUAN CARRASCO MAZATLAN SIN., MX","FM-12","99999","V020","270,1,N,0030,1","22000,1,9,N","020000,1,N,1","+0310,1","+0257,1","10121,1","24,0000,9,1",,,,,"02,1,+00660,9,08,9","01,1,+02400,9,03,9",,"04,99,1,02,1,02,1,00800,1,03,1,06,1",,"01,9",,"120,M,+0350,1","180,N,+0266,1","99999,9,10110,1","7,1,007,1,+025,1",,,"SYN136AAXX  13001 76458 32570 42703 10310 20257 30110 40121 57007 82236 92350 333 0/199 10350 20266 30/// 50531 58025 70000 82822 81358 81072;",
"76458099999","2001-08-13T03:00:00","4","23.2","-106.4166666","4.0","COLONIA JUAN CARRASCO MAZATLAN SIN., MX","FM-12","99999","V020","350,1,N,0010,1","00540,1,9,N","010000,1,N,1","+0264,1","+0222,1","10133,1","99,0000,9,1",,,,,"07,1,+00540,9,05,9",,,"07,99,1,07,1,04,1,99999,9,00,1,00,1",,"01,9",,,,"99999,9,10122,1","2,1,012,1,+027,1",,,"SYN100AAXX  13031 76458 32960 73501 10264 20222 30122 40133 52012 87400 90230 333 0/900 30/// 58027 87618;","Q01  00002PRCP99"
"76458099999","2001-08-13T06:00:00","4","23.2","-106.4166666","4.0","COLONIA JUAN CARRASCO MAZATLAN SIN., MX","FM-12","99999","V020","999,9,C,0000,1","22000,1,9,N","010000,1,N,1","+0220,1","+9999,9","10139,1","99,0000,9,1",,,,,"02,1,+00540,9,06,9",,,"04,99,1,04,1,03,1,00450,1,99,9,99,9",,"27,9",,"240,M,+0349,1","240,N,+9999,9","99999,9,10128,1","8,1,006,1,+017,1",,,"SYN130AAXX  13061 76458 32460 40600 10220 20226 30128 40139 58006 843// 90550 333 01/// 10349 20266 30/// 4343/ 57612 58017 82618 82358;","Q01  00002PRCP99Q02 +02662ATMN  "
"76458099999","2001-08-13T09:00:00","4","23.2","-106.4166666","4.0","COLONIA JUAN CARRASCO MAZATLAN SIN., MX","FM-12","99999","V020","110,1,N,0030,1","22000,1,9,N","010000,1,N,1","+0266,1","+0239,1","10136,1","02,0020,9,1",,,"5,1,03,1","5,1,03,1","03,1,+00480,9,05,9",,,"03,99,1,03,1,04,1,00450,1,00,1,99,9",,"09,9",,,,"99999,9,10125,1","8,1,003,1,+015,1",,"50,1","SYN124AAXX  13091 76458 12460 31103 10266 20239 30125 40136 58003 60026 75055 8340/ 90850 333 0/1// 31/// 57621 58015 60026 83616;",
"76458099999","2001-08-13T15:00:00","4","23.2","-106.4166666","4.0","COLONIA JUAN CARRASCO MAZATLAN SIN., MX","FM-12","99999","V020","100,1,N,0030,1","00390,1,9,N","012000,1,N,1","+0271,1","+0240,1","10153,1","99,0000,2,1",,,,,"05,1,+00390,9,07,9",,,"07,99,1,05,1,05,1,00450,1,05,1,00,1",,"01,9",,,,"99999,9,10142,1","1,1,008,1,+008,1",,,"SYN106AAXX  13151 76458 32462 71003 10271 20240 30142 40153 51008 85550 91545 333 0/330 30/// 58008 85713 82357;",
"76458099999","2001-08-13T18:00:00","4","23.2","-106.4166666","4.0","COLONIA JUAN CARRASCO MAZATLAN SIN., MX","FM-12","99999","V020","050,1,N,0030,1","22000,1,9,N","018000,1,N,1","+0306,1","+0241,1","10145,1","99,0000,2,1",,,,,"01,1,+00810,9,06,9",,,"04,99,1,01,1,03,1,00800,1,03,1,99,9",,"01,9",,"120,M,+0325,1","240,N,+0259,1","99999,9,10133,1","8,1,008,1,-005,1",,,"SYN124AAXX  13181 76458 32568 40503 10306 20241 30133 40145 58008 8133/ 91750 333 0/3// 10325 20259 30/// 57632 59005 81627 83358;",
"76458099999","2001-08-13T21:00:00","4","23.2","-106.4166666","4.0","COLONIA JUAN CARRASCO MAZATLAN SIN., MX","FM-12","99999","V020","270,1,N,0030,1","03600,1,C,N","020000,1,N,1","+0312,1","+0251,1","10124,1","99,0000,2,1",,,,,"02,1,+00750,9,08,9",,,"05,99,1,02,1,08,1,00800,1,03,1,99,9",,"01,9",,,,"99999,9,10113,1","7,1,020,1,-005,1",,,"SYN112AAXX  13211 76458 32570 52703 10312 20251 30113 40124 57020 8283/ 92050 333 0/6// 30/// 57862 59005 82825 83358;",
"76458099999","2001-08-14T00:00:00","4","23.2","-106.4166666","4.0","COLONIA JUAN CARRASCO MAZATLAN SIN., MX","FM-12","99999","V020","290,1,N,0030,1","22000,1,9,N","020000,1,N,1","+0316,1","+0249,1","10106,1","99,0000,9,1",,,,,"01,1,+00840,9,08,9",,,"03,99,1,01,1,02,1,00800,1,03,1,00,1",,"01,9",,"120,M,+0340,1","180,N,+0259,1","99999,9,10095,1","7,1,017,1,-015,1",,,"SYN124AAXX  14001 76458 32570 32903 10316 20249 30095 40106 57017 81230 92350 333 0/190 10340 20259 30/// 50421 59015 81828 82358;","Q01  00002PRCP99"
"76458099999","2001-08-14T03:00:00","4","23.2","-106.4166666","4.0","COLONIA JUAN CARRASCO MAZATLAN SIN., MX","FM-12","99999","V020","290,1,N,0010,1","22000,1,9,N","010000,1,N,1","+0298,1","+0247,1","10110,1","99,0000,9,1",,,,,"02,1,+02400,9,07,9",,,"02,99,1,02,1,99,9,99999,9,03,1,00,1",,"01,9",,,,"99999,9,10099,1","2,1,005,1,-022,1",,,"SYN100AAXX  14031 76458 32960 22901 10298 20247 30099 40110 52005 82030 90235 333 0/090 30/// 59022 82358;","Q01  00002PRCP99Q02    003SCOLCG"
"76458099999","2001-08-14T09:00:00","4","23.2","-106.4166666","4.0","COLONIA JUAN CARRASCO MAZATLAN SIN., MX","FM-12","99999","V020","350,1,N,0020,1","22000,1,9,N","008000,1,N,1","+0284,1","+0249,1","10122,1","99,0000,9,1",,,,,"02,1,+06000,9,01,9",,,"02,99,1,00,1,00,1,99999,9,00,1,06,1",,"01,9",,,,"99999,9,10111,1","0,1,001,1,-014,1",,,"SYN094AAXX  14091 76458 32958 23502 10284 20249 30111 40122 50001 80006 90845 333 30/// 59014 82070;","Q01  00002PRCP99"
"76458099999","2001-08-14T15:00:00","4","23.2","-106.4166666","4.0","COLONIA JUAN CARRASCO MAZATLAN SIN., MX","FM-12","99999","V020","030,1,N,0030,1","22000,1,9,N","015000,1,N,1","+0300,1","+0255,1","10128,1","99,0000,9,1",,,,,"01,1,+00570,9,08,9","01,1,+02400,9,03,9",,"03,99,1,01,1,02,1,00800,1,03,1,02,1",,"01,9",,,,"99999,9,10117,1","3,1,010,1,-025,1",,,"SYN118AAXX  14151 76458 32565 30303 10300 20255 30117 40128 53010 81232 91455 333 0/6// 30/// 57865 59025 81819 81358 81070;","Q01  00002PRCP99"
"76458099999","2001-08-14T18:00:00","4","23.2","-106.4166666","4.0","COLONIA JUAN CARRASCO MAZATLAN SIN., MX","FM-12","99999","V020","270,1,N,0030,1","22000,1,9,N","018000,1,N,1","+0324,1","+0255,1","10123,1","99,0000,9,1",,,,,"02,1,+00840,9,08,9",,,"03,99,1,02,1,08,1,00800,1,00,1,03,1",,"01,9",,"120,M,+0345,1","240,N,+0270,1","99999,9,10112,1","7,1,005,1,-016,1",,,"SYN118AAXX  14181 76458 32568 32703 10324 20255 30112 40123 57005 82803 91750 333 0/6// 10345 20270 30/// 59016 82828 81070;","Q01  00002PRCP99"
"76458099999","2001-08-14T21:00:00","4","23.2","-106.4166666","4.0","COLONIA JUAN CARRASCO MAZATLAN SIN., MX","FM-12","99999","V020","300,1,N,0070,1","22000,1,9,N","018000,1,N,1","+0329,1","+0262,1","10099,1","99,0000,9,1",,,,,"01,1,+00840,9,08,9",,,"02,99,1,01,1,08,1,00800,1,00,1,04,1",,"01,9",,,,"99999,9,10088,1","7,1,024,1,-025,1",,,"SYN112AAXX  14211 76458 32568 23007 10329 20262 30088 40099 57024 81804 92050 333 0/7// 30/// 57873 59025 81828 81070;","Q01  00002PRCP99"
"76458099999","2001-08-15T00:00:00","4","23.2","-106.4166666","4.0","COLONIA JUAN CARRASCO MAZATLAN SIN., MX","FM-12","99999","V020","280,1,N,0040,1","22000,1,9,N","020000,1,N,1","+0330,1","+0262,1","10083,1","24,0000,9,1",,,,,"00,1,+99999,9,99,9",,,"00,99,1,00,1,00,1,99999,9,00,1,00,1",,"01,9",,"120,M,+0348,1","180,N,+0270,1","99999,9,10072,1","7,1,016,1,-023,1",,,"SYN106AAXX  15001 76458 32970 02804 10330 20262 30072 40083 57016 92355 333 10348 20270 30/// 50701 59023 70000;","Q01  00002PRCP24"
"76458099999","2001-08-15T03:00:00","4","23.2","-106.4166666","4.0","COLONIA JUAN CARRASCO MAZATLAN SIN., MX","FM-12","99999","V020","320,1,N,0010,1","22000,1,9,N","010000,1,N,1","+0301,1","+0258,1","10096,1","99,0000,9,1",,,,,"00,1,+99999,9,99,9",,,"00,99,1,00,1,00,1,99999,9,00,1,00,1",,"01,9",,,,"99999,9,10085,1","2,1,013,1,-015,1",,,"SYN082AAXX  15031 76458 32960 03201 10301 20258 30085 40096 52013 90245 333 30/// 59015;","Q01  00002PRCP99"
"76458099999","2001-08-15T06:00:00","4","23.2","-106.4166666","4.0","COLONIA JUAN CARRASCO MAZATLAN SIN., MX","FM-12","99999","V020","310,1,N,0030,1","00690,1,C,N","000200,1,N,1","+0304,1","+0248,1","10110,1","99,0000,9,1",,,,,"06,1,+00690,9,06,9",,,"07,99,1,07,1,09,1,00800,1,00,1,00,1","0624,9","01,9",,"240,M,+0348,1","240,N,+0270,1","99999,9,10099,1","7,1,014,1,-006,1",,,"SYN130AAXX  15061 76458 32502 73103 10304 20248 30099 40110 57014 87900 90600 333 07300 10348 20270 30/// 55104 57934 59006 86623 81934;","Q01  00002PRCP99"
"76458099999","2001-08-15T09:00:00","4","23.2","-106.4166666","4.0","COLONIA JUAN CARRASCO MAZATLAN SIN., MX","FM-12","99999","V020","020,1,N,0020,1","00300,1,9,N","012000,1,N,1","+0288,1","+0264,1","10103,1","03,0004,9,1",,,"5,1,03,1","2,1,03,1","07,1,+00300,9,05,9",,,"07,99,1,07,1,05,1,00250,1,00,1,00,1",,"01,9",,,,"99999,9,10092,1","8,1,008,1,-019,1",,"02,1","SYN112AAXX  15091 76458 21362 70202 10288 20264 30092 40103 58008 70252 87500 90855 333 0/100 30/// 59019 69947 87610;",
"76458099999","2001-08-15T12:00:00","4","23.2","-106.4166666","4.0","COLONIA JUAN CARRASCO MAZATLAN SIN., MX","FM-12","99999","V020","310,1,N,0020,1","00390,1,9,N","012000,1,N,1","+0268,1","+0236,1","10098,1","03,0010,9,1","24,0014,9,1",,"5,1,06,1","5,1,06,1","05,1,+00390,9,05,9",,,"06,99,1,06,1,09,1,00450,1,00,1,00,1",,"09,9","999,+0250,9","999,M,+0348,1","120,N,+0266,1","99999,9,10087,1","5,1,005,1,-020,1",,"02,1","SYN136AAXX  15121 76458 21462 63102 10268 20236 30087 40098 55005 70255 86900 91145 333 07400 10348 20266 31025 57947 59020 60017 70014 85613;",
"76458099999","2001-08-15T15:00:00","4","23.2","-106.4166666","4.0","COLONIA JUAN CARRASCO MAZATLAN SIN., MX","FM-12","99999","V020","040,1,N,0020,1","22000,1,9,N","020000,1,N,1","+0300,1","+0251,1","10111,1","99,0000,9,1",,,,,"02,1,+02700,9,03,9",,,"03,99,1,99,9,00,1,99999,9,03,1,00,1",,"01,9",,,,"99999,9,10100,1","1,1,013,1,-014,1",,,"SYN106AAXX  15151 76458 32970 30402 10300 20251 30100 40111 51013 82030 91450 333 0/02/ 30/// 59014 82359 81079;","Q01+000022SCOTLCQ02  00002PRCP99"
"76458099999","2001-08-15T18:00:00","4","23.2","-106.4166666","4.0","COLONIA JUAN CARRASCO MAZATLAN SIN., MX","FM-12","99999","V020","250,1,N,0030,1","22000,1,9,N","020000,1,N,1","+0312,1","+0260,1","10105,1","99,0000,9,1",,,,,"01,1,+00720,9,08,9",,,"02,99,1,01,1,01,1,00800,1,00,1,06,1",,"01,9",,"120,M,+0339,1","240,N,+0265,1","99999,9,10094,1","7,1,006,1,-018,1",,,"SYN118AAXX  15181 76458 32570 22503 10312 20260 30094 40105 57006 81106 91755 333 0/109 10339 20265 30/// 59018 81824 81070;","Q01  00002PRCP99"
"76458099999","2001-08-15T21:00:00","4","23.2","-106.4166666","4.0","COLONIA JUAN CARRASCO MAZATLAN SIN., MX","FM-12","99999","V020","240,1,N,0040,1","22000,1,9,N","020000,1,N,1","+0330,1","+0264,1","10090,1","99,0000,9,1",,,,,"01,1,+00810,9,08,9",,,"03,99,1,01,1,01,1,00800,1,00,1,06,1",,"01,9",,,,"99999,9,10078,1","7,1,016,1,-010,1",,,"SYN112AAXX  15211 76458 32570 32404 10330 20264 30078 40090 57016 81106 92050 333 00109 30/// 57819 59010 81827 82070;","Q01  00002PRCP99"
"76458099999","2001-08-16T03:00:00","4","23.2","-106.4166666","4.0","COLONIA JUAN CARRASCO MAZATLAN SIN., MX","FM-12","99999","V020","290,1,N,0020,1","22000,1,9,N","010000,1,N,1","+0306,1","+0264,1","10089,1","99,0000,9,1",,,,,"04,1,+00540,9,05,9",,,"04,99,1,04,1,04,1,00450,1,00,1,00,1",,"01,9",,,,"99999,9,10078,1","2,1,011,1,-007,1",,,"SYN100AAXX  16031 76458 32460 42902 10306 20264 30078 40089 52011 84400 90235 333 0/300 30/// 59007 84618;","Q01  00002PRCP99"
"76458099999","2001-08-16T06:00:00","4","23.2","-106.4166666","4.0","COLONIA JUAN CARRASCO MAZATLAN SIN., MX","FM-12","99999","V020","290,1,N,0020,1","22000,1,9,N","008000,1,N,1","+0306,1","+0269,1","10106,1",,,,"0,1,06,1","0,1,06,1","04,1,+00450,9,06,9",,,"06,99,1,04,1,05,1,00450,1,00,1,06,1","0642,9","01,9",,"240,M,+0340,1","240,N,+0265,1","99999,9,10095,1","2,1,007,1,-004,1",,"20,1","SYN136AAXX  16061 76458 11458 62902 10306 20269 30095 40106 52007 72000 84506 90550 333 0/609 10340 20265 30/// 55107 57660 59004 84615 82070;",
"76458099999","2001-08-16T09:00:00","4","23.2","-106.4166666","4.0","COLONIA JUAN CARRASCO MAZATLAN SIN., MX","FM-12","99999","V020","290,1,N,0020,1","99999,9,9,N","008000,1,N,1","+0302,1","+0219,1","10106,1","06,0007,9,1",,,"0,1,03,1","0,1,03,1","04,1,+00450,9,06,9",,,"06,99,1,99,9,04,1,00450,1,05,1,00,1","0642,9","01,9",,"999,M,+0340,1","999,N,+0265,1","99999,9,10085,1","2,1,007,1,-004,1",,"20,1","SYN142AAXX  16091 76458 11458 62902 10302 20219 30085 40106 52007 69901 72000 88450 90545 333 0/609 10340 20265 30/// 55107 57660 59004 84615 82070;","Q01+000082SCOTLC"
"76458099999","2001-08-16T18:00:00","4","23.2","-106.4166666","4.0","COLONIA JUAN CARRASCO MAZATLAN SIN., MX","FM-12","99999","V020","160,1,N,0030,1","00600,1,9,N","018000,1,N,1","+0315,1","+0267,1","10112,1","99,0000,2,1",,,,,"07,1,+00600,9,05,9",,,"07,99,1,07,1,06,1,00800,1,00,1,00,1",,"01,9",,"120,M,+0329,1","240,N,+0278,1","99999,9,10101,1","0,1,004,1,+007,1",,,"SYN118AAXX  16181 76458 32568 71603 10315 20267 30101 40112 50004 87600 91755 333 0/300 10329 20278 30/// 57639 58007 87620;",
"76458099999","2001-08-16T21:00:00","4","23.2","-106.4166666","4.0","COLONIA JUAN CARRASCO MAZATLAN SIN., MX","FM-12","99999","V020","250,1,N,0040,1","22000,1,9,N","018000,1,N,1","+0326,1","+0273,1","10094,1","99,0000,2,1",,,,,"02,1,+00660,9,08,9",,,"03,99,1,02,1,01,1,00800,1,00,1,06,1",,"01,9",,,,"99999,9,10083,1","7,1,018,1,+005,1",,,"SYN112AAXX  16211 76458 32568 32504 10326 20273 30083 40094 57018 82106 92055 333 0/909 30/// 57899 58005 82822 81070;",
"76458099999","2001-08-17T00:00:00","4","23.2","-106.4166666","4.0","COLONIA JUAN CARRASCO MAZATLAN SIN., MX","FM-12","99999","V020","280,1,N,0020,1","00750,1,9,N","018000,1,N,1","+0302,1","+0243,1","10096,1","24,0000,9,1",,,,,"07,1,+00750,9,02,9",,,"07,99,1,07,1,02,1,00800,1,00,1,00,1",,"01,9",,"120,M,+0350,1","180,N,+0278,1","99999,9,10085,1","2,1,002,1,+018,1",,,"SYN124AAXX  17001 76458 32568 72802 10302 20243 30085 40096 52002 87200 92350 333 0/900 10350 20278 30/// 50411 58018 70000 87825;",
"76458099999","2001-08-17T03:00:00","4","23.2","-106.4166666","4.0","COLONIA JUAN CARRASCO MAZATLAN SIN., MX","FM-12","99999","V020","360,1,N,0010,1","22000,1,9,N","010000,1,N,1","+0288,1","+0224,1","10108,1","99,0000,9,1",,,,,"03,1,+00810,9,08,9",,,"04,99,1,03,1,02,1,00800,1,04,1,00,1",,"01,9",,,,"99999,9,10097,1","2,1,012,1,+019,1",,,"SYN106AAXX  17031 76458 32560 43601 10288 20224 30097 40108 52012 83240 90235 333 0/390 30/// 58019 83827 81358;","Q01  00002PRCP99"
"76458099999","2001-08-17T06:00:00","4","23.2","-106.4166666","4.0","COLONIA JUAN CARRASCO MAZATLAN SIN., MX","FM-12","99999","V020","030,1,N,0020,1","03600,1,9,N","008000,1,N,1","+0284,1","+0243,1","10122,1","99,0000,9,1",,,"0,1,06,1","0,1,06,1","02,1,+00510,9,06,9","01,1,+00600,9,09,9",,"08,99,1,03,1,09,1,00450,1,02,1,00,1","0282,9","01,9",,"240,M,+0350,1","240,N,+0278,1","99999,9,10111,1","2,1,014,1,+016,1",,"13,1","SYN142AAXX  17061 76458 31458 80302 10284 20243 30111 40122 52014 71300 83920 90545 333 0/490 10350 20278 30/// 55047 57940 58016 82617 81920 85458;","Q01  00002PRCP99"
"76458099999","2001-08-17T18:00:00","4","23.2","-106.4166666","4.0","COLONIA JUAN CARRASCO MAZATLAN SIN., MX","FM-12","99999","V020","340,1,N,0020,1","03600,1,9,N","020000,1,N,1","+0269,1","+0239,1","10155,1","99,0000,9,1",,,,,"05,1,+03600,9,03,9",,,"08,99,1,05,1,00,1,02250,1,03,1,99,9",,"09,9",,"120,M,+0285,1","240,N,+0230,1","99999,9,10144,1","0,1,012,1,+043,1",,,"SYN124AAXX  17181 76458 32870 83402 10269 20239 30144 40155 50012 8503/ 91755 333 0/09/ 10285 20230 31/// 57399 58043 85362 83464;","Q01  00002PRCP99"
"76458099999","2001-08-17T21:00:00","4","23.2","-106.4166666","4.0","COLONIA JUAN CARRASCO MAZATLAN SIN., MX","FM-12","99999","V020","340,1,N,0030,1","03600,1,9,N","020000,1,N,1","+0280,1","+0231,1","10139,1","99,0000,9,1",,,,,"08,1,+03600,9,07,9",,,"08,99,1,08,1,00,1,02250,1,03,1,00,1",,"01,9",,,,"99999,9,10129,1","7,1,015,1,+046,1",,,"SYN106AAXX  17211 76458 32870 83403 10280 20231 30129 40139 57015 88030 92050 333 0/090 30/// 57390 58046 88362;","Q01  00002PRCP99"
"76458099999","2001-08-18T00:00:00","4","23.2","-106.4166666","4.0","COLONIA JUAN CARRASCO MAZATLAN SIN., MX","FM-12","99999","V020","280,1,N,0020,1","22000,1,9,N","020000,1,N,1","+0310,1","+0225,1","10107,1","24,0061,9,1",,,,,"02,1,+06600,9,08,9",,,"02,99,1,99,9,00,1,99999,9,00,1,07,1",,"09,9",,"120,M,+0320,1","180,N,+0230,1","99999,9,10096,1","7,1,032,1,+011,1",,,"SYN118AAXX  18001 76458 32970 22802 10310 20225 30096 40107 57032 80007 92340 333 0/009 10320 20230 31/// 58011 70061 82272;","Q01+000002SCOTLC"
"76458099999","2001-08-18T03:00:00","4","23.2","-106.4166666","4.0","COLONIA JUAN CARRASCO MAZATLAN SIN., MX","FM-12","99999","V020","999,9,C,0000,1","22000,1,9,N","010000,1,N,1","+0286,1","+0228,1","10116,1","99,0000,9,1",,,,,"01,1,+02400,9,07,9",,,"01,99,1,99,9,99,9,99999,9,00,1,03,1",,"09,9",,,,"99999,9,10105,1","2,1,009,1,+008,1",,,"SYN100AAXX  18031 76458 32960 10000 10286 20228 30105 40116 52009 80003 90235 333 0/090 31/// 58008 81358;","Q01+000002SCOTLCQ02  00002PRCP99Q03    003SCOLCG"
"76458099999","2001-08-18T06:00:00","4","23.2","-106.4166666","4.0","COLONIA JUAN CARRASCO MAZATLAN SIN., MX","FM-12","99999","V020","340,1,N,0020,1","22000,1,9,N","008000,1,N,1","+0264,1","+0237,1","10145,1","99,0000,9,1",,,,,"00,1,+99999,9,99,9",,,"00,99,1,00,1,00,1,99999,9,00,1,00,1","0198,9","09,9",,"240,M,+0320,1","240,N,+0230,1","99999,9,10134,1","2,1,029,1,+023,1",,,"SYN100AAXX  18061 76458 32958 03402 10264 20237 30134 40145 52029 90545 333 10320 20230 31/// 55033 58023;","Q01  00002PRCP99"
"76458099999","2001-08-18T18:00:00","4","23.2","-106.4166666","4.0","COLONIA JUAN CARRASCO MAZATLAN SIN., MX","FM-12","99999","V020","270,1,N,0030,1","22000,1,9,N","020000,1,N,1","+0310,1","+0243,1","10140,1","99,0000,9,1",,,,,"01,1,+03600,9,07,9",,,"01,99,1,01,1,00,1,02250,1,03,1,00,1",,"01,9",,"120,M,+0330,1","240,N,+0240,1","99999,9,10128,1","8,1,007,1,-016,1",,,"SYN118AAXX  18181 76458 32870 12703 10310 20243 30128 40140 58007 81030 91750 333 0/090 10330 20240 30/// 57390 59016 81362;","Q01  00002PRCP99"
"76458099999","2001-08-18T21:00:00","4","23.2","-106.4166666","4.0","COLONIA JUAN CARRASCO MAZATLAN SIN., MX","FM-12","99999","V020","250,1,N,0040,1","22000,1,9,N","020000,1,N,1","+0325,1","+0246,1","10115,1","99,0000,9,1",,,,,"01,1,+00990,9,02,9",,,"01,99,1,01,1,02,1,00800,1,00,1,00,1",,"01,9",,,,"99999,9,10104,1","7,1,024,1,-025,1",,,"SYN106AAXX  18211 76458 32570 12504 10325 20246 30104 40115 57024 81200 92047 333 0/100 30/// 57819 59025 81833;","Q01  00002PRCP99"
"76458099999","2001-08-19T00:00:00","4","23.2","-106.4166666","4.0","COLONIA JUAN CARRASCO MAZATLAN SIN., MX","FM-12","99999","V020","270,1,N,0040,1","22000,1,9,N","020000,1,N,1","+0324,1","+0255,1","10102,1","24,0000,9,1",,,,,"01,1,+00870,9,08,9",,,"02,99,1,01,1,02,1,00800,1,00,1,06,1",,"01,9",,"120,M,+0340,1","180,N,+0240,1","99999,9,10091,1","7,1,013,1,-005,1",,,"SYN136AAXX  19001 76458 32570 22704 10324 20255 30091 40102 57013 81206 92345 333 01109 10340 20240 30/// 50131 57819 59005 70000 81829 81070;","Q01  00002PRCP99Q02  00003PRCP99"
"76458099999","2001-08-19T03:00:00","4","23.2","-106.4166666","4.0","COLONIA JUAN CARRASCO MAZATLAN SIN., MX","FM-12","99999","V020","320,1,N,0020,1","22000,1,9,N","008000,1,N,1","+0302,1","+0248,1","10108,1","99,0000,9,1",,,,,"00,1,+99999,9,99,9",,,"00,99,1,00,1,00,1,99999,9,00,1,00,1",,"01,9",,,,"99999,9,10098,1","3,1,002,1,-008,1",,,"SYN082AAXX  19031 76458 32958 03202 10302 20248 30098 40108 53002 90245 333 30/// 59008;","Q01  00002PRCP99"
"76458099999","2001-08-19T06:00:00","4","23.2","-106.4166666","4.0","COLONIA JUAN CARRASCO MAZATLAN SIN., MX","FM-12","99999","V020","340,1,N,0020,1","22000,1,9,N","008000,1,N,1","+0287,1","+0251,1","10113,1","99,0000,9,1",,,,,"00,1,+99999,9,99,9",,,"00,99,1,00,1,00,1,99999,9,00,1,00,1","0690,9","01,9",,"240,M,+0337,1","240,N,+0240,1","99999,9,10102,1","0,1,004,1,-032,1",,,"SYN100AAXX  19061 76458 32958 03402 10287 20251 30102 40113 50004 90555 333 10337 20240 30/// 55115 59032;","Q01  00002PRCP99"
"76458099999","2001-08-19T15:00:00","4","23.2","-106.4166666","4.0","COLONIA JUAN CARRASCO MAZATLAN SIN., MX","FM-12","99999","V020","240,1,N,0010,1","22000,1,9,N","020000,1,N,1","+0282,1","+0250,1","10111,1","99,0000,9,1",,,,,"00,1,+99999,9,99,9",,,"00,99,1,00,1,00,1,99999,9,00,1,00,1",,"01,9",,,,"99999,9,10100,1","2,1,019,1,-035,1",,,"SYN082AAXX  19151 76458 32970 02401 10282 20250 30100 40111 52019 91445 333 30/// 59035;","Q01  00002PRCP99"
"76458099999","2001-08-20T00:00:00","4","23.2","-106.4166666","4.0","COLONIA JUAN CARRASCO MAZATLAN SIN., MX","FM-12","99999","V020","280,1,N,0030,1","22000,1,9,N","020000,1,N,1","+0324,1","+0272,1","10082,1","24,0000,9,1",,,,,"01,1,+00660,9,09,9",,,"01,99,1,01,1,03,1,00800,1,00,1,00,1",,"01,9",,"120,M,+0340,1","180,N,+0260,1","99999,9,10071,1","7,1,011,1,-027,1",,,"SYN124AAXX  20001 76458 32570 12803 10324 20272 30071 40082 57011 81300 92350 333 0/100 10340 20260 30/// 50571 59027 70000 81922;",
"76458099999","2001-08-20T03:00:00","4","23.2","-106.4166666","4.0","COLONIA JUAN CARRASCO MAZATLAN SIN., MX","FM-12","99999","V020","290,1,N,0020,1","22000,1,9,N","010000,1,N,1","+0296,1","+0272,1","10096,1","99,0000,9,1",,,,,"00,1,+99999,9,99,9",,,"00,99,1,00,1,00,1,99999,9,00,1,00,1",,"01,9",,,,"99999,9,10085,1","2,1,014,1,-013,1",,,"SYN082AAXX  20031 76458 32960 02902 10296 20272 30085 40096 52014 90235 333 30/// 59013;","Q01  00002PRCP99"
"76458099999","2001-08-20T06:00:00","4","23.2","-106.4166666","4.0","COLONIA JUAN CARRASCO MAZATLAN SIN., MX","FM-12","99999","V020","330,1,N,0030,1","22000,1,9,N","010000,1,N,1","+0303,1","+0269,1","10099,1","99,0000,9,1",,,,,"02,1,+02700,9,07,9",,,"02,99,1,02,1,00,1,99999,9,03,1,00,1",,"01,9",,"240,M,+0340,1","240,N,+0260,1","99999,9,10088,1","0,1,003,1,-014,1",,,"SYN112AAXX  20061 76458 32960 23303 10303 20269 30088 40099 50003 82030 90555 333 0/0/0 10340 20260 30/// 59014 82359;","Q01  00002PRCP99"
"76458099999","2001-08-20T09:00:00","4","23.2","-106.4166666","4.0","COLONIA JUAN CARRASCO MAZATLAN SIN., MX","FM-12","99999","V020","999,9,C,0000,1","00300,1,9,N","010000,1,N,1","+0300,1","+0277,1","10090,1","99,0000,9,1",,,,,"07,1,+00300,9,05,9",,,"07,99,1,07,1,04,1,00450,1,00,1,00,1",,"01,9",,,,"99999,9,10080,1","7,1,008,1,-004,1",,,"SYN100AAXX  20091 76458 32460 70000 10300 20277 30080 40090 57008 87400 90855 333 0/600 30/// 59004 87610;","Q01  00002PRCP99"
"76458099999","2001-08-20T15:00:00","4","23.2","-106.4166666","4.0","COLONIA JUAN CARRASCO MAZATLAN SIN., MX","FM-12","99999","V020","240,1,N,0020,1","22000,1,9,N","012000,1,N,1","+0302,1","+0269,1","10101,1","99,0000,9,1",,,,,"02,1,+00420,9,08,9",,,"03,99,1,02,1,02,1,00450,1,00,1,01,1",,"01,9",,,,"99999,9,10090,1","1,1,010,1,-010,1",,,"SYN112AAXX  20151 76458 32462 32402 10302 20269 30090 40101 51010 82201 91455 333 0/6// 30/// 57854 59010 82814 81070;","Q01  00002PRCP99"
"76458099999","2001-08-20T21:00:00","4","23.2","-106.4166666","4.0","COLONIA JUAN CARRASCO MAZATLAN SIN., MX","FM-12","99999","V020","240,1,N,0030,1","22000,1,9,N","020000,1,N,1","+0331,1","+0281,1","10096,1","99,0000,9,1",,,,,"02,1,+00630,9,09,9",,,"03,99,1,03,1,09,1,00800,1,00,1,05,1",,"01,9",,,,"99999,9,10086,1","7,1,012,1,+003,1",,,"SYN112AAXX  20211 76458 32570 32403 10331 20281 30086 40096 57012 83905 92050 333 0710/ 30/// 57914 58003 82921 81079;","Q01  00002PRCP99"
"76458099999","2001-08-21T09:00:00","4","23.2","-106.4166666","4.0","COLONIA JUAN CARRASCO MAZATLAN SIN., MX","FM-12","99999","V020","999,9,C,0000,1","22000,1,9,N","008000,1,N,1","+0296,1","+0276,1","10098,1","99,0000,9,1",,,,,"00,1,+99999,9,99,9",,,"00,99,1,00,1,00,1,99999,9,00,1,00,1",,"01,9",,,,"99999,9,10087,1","8,1,002,1,+007,1",,,"SYN082AAXX  21091 76458 32958 00000 10296 20276 30087 40098 58002 90845 333 30/// 58007;","Q01  00002PRCP99"
"76458099999","2001-08-21T15:00:00","4","23.2","-106.4166666","4.0","COLONIA JUAN CARRASCO MAZATLAN SIN., MX","FM-12","99999","V020","150,1,N,0020,1","22000,1,9,N","013000,1,N,1","+0308,1","+0277,1","10109,1","99,0000,9,1",,,,,"01,1,+00390,9,08,9",,,"02,99,1,01,1,02,1,00450,1,00,1,01,1",,"01,9",,,,"99999,9,10098,1","1,1,004,1,+008,1",,,"SYN112AAXX  21151 76458 32463 21502 10308 20277 30098 40109 51004 81201 91455 333 0/5// 30/// 57855 58008 81813 81070;","Q01  00002PRCP99"
"76458099999","2001-08-21T18:00:00","4","23.2","-106.4166666","4.0","COLONIA JUAN CARRASCO MAZATLAN SIN., MX","FM-12","99999","V020","250,1,N,0030,1","22000,1,9,N","018000,1,N,1","+0327,1","+0272,1","10108,1","99,0000,9,1",,,,,"02,1,+00690,9,08,9",,,"03,99,1,02,1,02,1,00800,1,00,1,08,1",,"01,9",,"120,M,+0350,1","240,N,+0280,1","99999,9,10097,1","8,1,001,1,+000,1",,,"SYN124AAXX  21181 76458 32568 32503 10327 20272 30097 40108 58001 82208 91755 333 00509 10350 20280 30/// 57886 58000 82823 81268;","Q01  00002PRCP99"
"76458099999","2001-08-21T21:00:00","4","23.2","-106.4166666","4.0","COLONIA JUAN CARRASCO MAZATLAN SIN., MX","FM-12","99999","V020","250,1,N,0040,1","22000,1,9,N","020000,1,N,1","+0329,1","+0269,1","10096,1","99,0000,9,1",,,,,"01,1,+00750,9,09,9",,,"01,99,1,01,1,03,1,00800,1,00,1,00,1",,"01,9",,,,"99999,9,10085,1","7,1,012,1,-001,1",,,"SYN106AAXX  21211 76458 32570 12504 10329 20269 30085 40096 57012 81300 92045 333 00100 30/// 57916 59001 81925;","Q01  00002PRCP99"
"76458099999","2001-08-22T09:00:00","4","23.2","-106.4166666","4.0","COLONIA JUAN CARRASCO MAZATLAN SIN., MX","FM-12","99999","V020","360,1,N,0030,1","22000,1,9,N","005000,1,N,1","+0288,1","+0253,1","10100,1","99,0000,9,1",,,,,"00,1,+99999,9,99,9",,,"00,99,1,00,1,00,1,99999,9,00,1,00,1",,"01,9",,,,"99999,9,10089,1","7,1,009,1,+002,1",,,"SYN082AAXX  22091 76458 32950 03603 10288 20253 30089 40100 57009 90850 333 30/// 58002;","Q01  00002PRCP99"
"76458099999","2001-08-22T12:00:00","4","23.2","-106.4166666","4.0","COLONIA JUAN CARRASCO MAZATLAN SIN., MX","FM-12","99999","V020","999,9,C,0000,1","22000,1,9,N","010000,1,N,1","+0285,1","+0263,1","10103,1","24,0000,9,1",,,,,"00,1,+99999,9,99,9",,,"00,99,1,00,1,00,1,99999,9,00,1,00,1",,"01,9","999,+0260,9","999,M,+0350,1","120,N,+0283,1","99999,9,10092,1","5,1,003,1,-002,1",,,"SYN100AAXX  22121 76458 32960 00000 10285 20263 30092 40103 55003 91150 333 10350 20283 30026 59002 70000;","Q01  00002PRCP24"
"76458099999","2001-08-22T15:00:00","4","23.2","-106.4166666","4.0","COLONIA JUAN CARRASCO MAZATLAN SIN., MX","FM-12","99999","V020","999,9,C,0000,1","22000,1,9,N","010000,1,N,1","+0304,1","+0259,1","10116,1","99,0000,9,1",,,,,"01,1,+00570,9,02,9",,,"01,99,1,01,1,02,1,00450,1,00,1,00,1",,"01,9",,,,"99999,9,10105,1","2,1,013,1,+004,1",,,"SYN106AAXX  22151 76458 32460 10000 10304 20259 30105 40116 52013 81200 91450 333 02400 30/// 57847 58004 81819;","Q01  00002PRCP99"
"76458099999","2001-08-22T21:00:00","4","23.2","-106.4166666","4.0","COLONIA JUAN CARRASCO MAZATLAN SIN., MX","FM-12","99999","V020","270,1,N,0040,1","22000,1,9,N","020000,1,N,1","+0330,1","+0263,1","10095,1","99,0000,9,1",,,,,"01,1,+00840,9,09,9",,,"01,99,1,01,1,03,1,00800,1,00,1,00,1",,"01,9",,,,"99999,9,10084,1","7,1,018,1,-001,1",,,"SYN106AAXX  22211 76458 32570 12704 10330 20263 30084 40095 57018 81300 92050 333 00100 30/// 57916 59001 81928;","Q01  00002PRCP99"
"76458099999","2001-08-23T00:00:00","4","23.2","-106.4166666","4.0","COLONIA JUAN CARRASCO MAZATLAN SIN., MX","FM-12","99999","V020","270,1,N,0030,1","22000,1,9,N","020000,1,N,1","+0330,1","+0264,1","10091,1","24,0000,9,1",,,,,"01,1,+00840,9,09,9",,,"03,99,1,01,1,03,1,00800,1,03,1,00,1",,"01,9",,"120,M,+0348,1","180,N,+0282,1","99999,9,10080,1","7,1,004,1,+002,1",,,"SYN130AAXX  23001 76458 32570 32703 10330 20264 30080 40091 57004 81330 92350 333 0/190 10348 20282 30/// 50611 58002 70000 81928 82358;",
"76458099999","2001-08-23T03:00:00","4","23.2","-106.4166666","4.0","COLONIA JUAN CARRASCO MAZATLAN SIN., MX","FM-12","99999","V020","280,1,N,0020,1","22000,1,9,N","010000,1,N,1","+0308,1","+0263,1","10084,1","99,0000,9,1",,,,,"00,1,+99999,9,99,9",,,"00,99,1,00,1,00,1,99999,9,00,1,00,1",,"01,9",,,,"99999,9,10073,1","7,1,007,1,-015,1",,,"SYN082AAXX  23031 76458 32960 02802 10308 20263 30073 40084 57007 90230 333 30/// 59015;","Q01  00002PRCP99"
"76458099999","2001-08-23T06:00:00","4","23.2","-106.4166666","4.0","COLONIA JUAN CARRASCO MAZATLAN SIN., MX","FM-12","99999","V020","360,1,N,0020,1","22000,1,9,N","009000,1,N,1","+0300,1","+0258,1","10104,1","99,0000,9,1",,,,,"00,1,+99999,9,99,9",,,"00,99,1,00,1,00,1,99999,9,00,1,00,1","0618,9","01,9",,"240,M,+0348,1","240,N,+0282,1","99999,9,10093,1","2,1,020,1,-005,1",,,"SYN100AAXX  23061 76458 32959 03602 10300 20258 30093 40104 52020 90545 333 10348 20282 30/// 55103 59005;","Q01  00002PRCP99"
"76458099999","2001-08-23T09:00:00","4","23.2","-106.4166666","4.0","COLONIA JUAN CARRASCO MAZATLAN SIN., MX","FM-12","99999","V020","130,1,N,0020,1","22000,1,9,N","008000,1,N,1","+0288,1","+0250,1","10098,1","99,0000,9,1",,,,,"02,1,+00480,9,07,9",,,"99,99,9,01,1,01,1,00450,1,00,1,00,1",,"01,9",,,,"99999,9,10085,1","7,1,008,1,-004,1",,,"SYN100AAXX  23091 76458 32458 11302 10288 20250 30085 40098 57008 81100 90845 333 00600 30/// 59004 82316;","Q01+000012SCOTCVQ02  00002PRCP99"
"76458099999","2001-08-23T21:00:00","4","23.2","-106.4166666","4.0","COLONIA JUAN CARRASCO MAZATLAN SIN., MX","FM-12","99999","V020","270,1,N,0040,1","22000,1,9,N","020000,1,N,1","+0327,1","+0267,1","10078,1","99,0000,9,1",,,,,"01,1,+00750,9,09,9",,,"01,99,1,99,9,01,1,00800,1,00,1,00,1",,"01,9",,,,"99999,9,10067,1","7,1,015,1,-019,1",,,"SYN106AAXX  23211 76458 32570 12704 10327 20267 30067 40078 57015 83100 92055 333 00100 30/// 57916 59019 81925;","Q01+000032SCOTLCQ02  00002PRCP99"
"76458099999","2001-08-24T03:00:00","4","23.2","-106.4166666","4.0","COLONIA JUAN CARRASCO MAZATLAN SIN., MX","FM-12","99999","V020","290,1,N,0010,1","22000,1,9,N","010000,1,N,1","+0310,1","+0279,1","10069,1","99,0000,9,1",,,,,"01,1,+02400,9,07,9",,,"01,99,1,99,9,99,9,99999,9,03,1,00,1",,"01,9",,,,"99999,9,10058,1","2,1,007,1,-015,1",,,"SYN100AAXX  24031 76458 32960 12901 10310 20279 30058 40069 52007 80030 90235 333 0/090 30/// 59015 81358;","Q01+000002SCOTLCQ02  00002PRCP99Q03    003SCOLCG"
"76458099999","2001-08-24T06:00:00","4","23.2","-106.4166666","4.0","COLONIA JUAN CARRASCO MAZATLAN SIN., MX","FM-12","99999","V020","310,1,N,0030,1","22000,1,9,N","008000,1,N,1","+0312,1","+0279,1","99999,9","99,0000,9,1",,,,,,,,"03,99,1,03,1,05,1,00450,1,00,1,00,1","0558,9","01,9",,"240,M,+0350,1","240,N,+0270,1","99999,9,10067,1","2,1,009,1,-026,1",,,"SYN124AAXX  24061 76458 32458 33103 10312 20279 30067 40178 52009 83500 90545 333 0/600 10350 20270 30/// 55093 57660 59026 81614;","Q01+101783APOSLPQ02  00002PRCP99"
"76458099999","2001-08-24T12:00:00","4","23.2","-106.4166666","4.0","COLONIA JUAN CARRASCO MAZATLAN SIN., MX","FM-12","99999","V020","250,1,N,0020,1","00480,1,9,N","012000,1,N,1","+0306,1","+0267,1","10065,1","24,0000,9,1",,,,,"06,1,+00480,9,05,9",,,"06,99,1,06,1,06,1,00450,1,99,9,99,9",,"01,9",,"999,M,+0350,1","120,N,+0255,1","99999,9,10054,1","7,1,007,1,-020,1",,,"SYN124AAXX  24121 76458 32462 62502 10306 20267 30054 40065 57007 866// 91150 333 0/5// 10350 20255 30/// 57651 59020 70000 86616;",
"76458099999","2001-08-24T15:00:00","4","23.2","-106.4166666","4.0","COLONIA JUAN CARRASCO MAZATLAN SIN., MX","FM-12","99999","V020","240,1,N,0010,1","00480,1,9,N","018000,1,N,1","+0312,1","+0273,1","10082,1","99,0000,9,1",,,,,"06,1,+00480,9,02,9",,,"06,99,1,06,1,08,1,00450,1,99,9,99,9",,"01,9",,,,"99999,9,10071,1","2,1,017,1,-014,1",,,"SYN106AAXX  24151 76458 32468 62401 10312 20273 30071 40082 52017 868// 91450 333 0/5// 30/// 57852 59014 86816;","Q01  00002PRCP99"
"76458099999","2001-08-24T21:00:00","4","23.2","-106.4166666","4.0","COLONIA JUAN CARRASCO MAZATLAN SIN., MX","FM-12","99999","V020","250,1,N,0040,1","22000,1,9,N","020000,1,N,1","+0334,1","+0269,1","10066,1","99,0000,9,1",,,,,"01,1,+00810,9,02,9",,,"01,99,1,01,1,01,1,00800,1,00,1,00,1",,"01,9",,,,"99999,9,10055,1","7,1,012,1,-010,1",,,"SYN106AAXX  24211 76458 32570 12504 10334 20269 30055 40066 57012 81100 92055 333 0/800 30/// 57889 59010 81827;","Q01  00002PRCP99"
"76458099999","2001-08-25T00:00:00","4","23.2","-106.4166666","4.0","COLONIA JUAN CARRASCO MAZATLAN SIN., MX","FM-12","99999","V020","270,1,N,0040,1","22000,1,9,N","020000,1,N,1","+0328,1","+0271,1","10059,1","24,0000,9,1",,,,,"01,1,+00720,9,09,9",,,"01,99,1,01,1,03,1,00800,1,00,1,00,1",,"01,9",,"120,M,+0351,1","180,N,+0277,1","99999,9,10048,1","7,1,007,1,-003,1",,,"SYN124AAXX  25001 76458 32570 12704 10328 20271 30048 40059 57007 81300 92350 333 0/600 10351 20277 30/// 50571 59003 70000 81924;",
"76458099999","2001-08-25T03:00:00","4","23.2","-106.4166666","4.0","COLONIA JUAN CARRASCO MAZATLAN SIN., MX","FM-12","99999","V020","999,9,C,0000,1","22000,1,9,N","010000,1,N,1","+0312,1","+0262,1","10073,1","99,0000,9,1",,,,,"02,1,+00630,9,06,9",,,"03,99,1,02,1,04,1,00450,1,03,1,00,1",,"01,9",,,,"99999,9,10062,1","2,1,014,1,+004,1",,,"SYN106AAXX  25031 76458 32460 30000 10312 20262 30062 40073 52014 82430 90250 333 0/990 30/// 58004 82621 82358;","Q01  00002PRCP99"
"76458099999","2001-08-25T15:00:00","4","23.2","-106.4166666","4.0","COLONIA JUAN CARRASCO MAZATLAN SIN., MX","FM-12","99999","V020","160,1,N,0020,1","09000,1,C,N","015000,1,N,1","+0294,1","+0247,1","10080,1","99,0000,9,1",,,,,"04,1,+00420,9,06,9",,,"08,99,1,04,1,05,1,00450,1,00,1,06,1",,"01,9",,,,"99999,9,10069,1","1,1,004,1,-002,1",,,"SYN106AAXX  25151 76458 32465 81602 10294 20247 30069 40080 51004 84506 91455 333 0/4// 30/// 59002 84614 84270;","Q01  00002PRCP99"
"76458099999","2001-08-25T18:00:00","4","23.2","-106.4166666","4.0","COLONIA JUAN CARRASCO MAZATLAN SIN., MX","FM-12","99999","V020","230,1,N,0010,1","09000,1,C,N","015000,1,N,1","+0305,1","+0259,1","99999,9","99,0000,9,1",,,,,"01,1,+00570,9,08,9",,,"08,99,1,01,1,01,1,00450,1,00,1,09,1",,"01,9",,"120,M,+0321,1","240,N,+0274,1","99999,9,10064,1","7,1,005,1,-003,1",,,"SYN124AAXX  25180 76458 32465 82301 10305 20259 30064 40175 57005 81109 92050 333 0/809 10321 20274 30/// 57889 59003 81819 87268;","Q01+101753APOSLPQ02  00002PRCP99"
"76458099999","2001-08-25T21:00:00","4","23.2","-106.4166666","4.0","COLONIA JUAN CARRASCO MAZATLAN SIN., MX","FM-12","99999","V020","230,1,N,0040,1","22000,1,C,N","018000,1,N,1","+0324,1","+0258,1","10066,1","99,0000,9,1",,,,,"01,1,+00810,9,08,9",,,"05,99,1,01,1,01,1,00800,1,00,1,08,1",,"01,9",,,,"99999,9,10056,1","7,1,008,1,+001,1",,,"SYN112AAXX  25211 76458 32568 52304 10324 20258 30056 40066 57008 81108 92050 333 0/609 30/// 57869 58001 81827 84268;","Q01  00002PRCP99"
"76458099999","2001-08-26T03:00:00","4","23.2","-106.4166666","4.0","COLONIA JUAN CARRASCO MAZATLAN SIN., MX","FM-12","99999","V020","240,1,N,0030,1","22000,1,9,N","010000,1,N,1","+0304,1","+0267,1","10060,1","99,0000,9,1",,,,,"04,1,+00600,9,05,9",,,"04,99,1,04,1,06,1,00450,1,99,9,99,9",,"01,9",,,,"99999,9,10049,1","5,1,002,1,-014,1",,,"SYN106AAXX  26031 76458 32460 42403 10304 20267 30049 40060 55002 846// 90250 333 0/6// 30/// 57662 59014 84620;","Q01  00002PRCP99"
"76458099999","2001-08-26T12:00:00","4","23.2","-106.4166666","4.0","COLONIA JUAN CARRASCO MAZATLAN SIN., MX","FM-12","99999","V020","999,9,C,0000,1","03600,1,C,N","010000,1,N,1","+0266,1","+0250,1","10078,1","06,0340,9,1",,,,,"02,1,+00210,9,06,9",,,"05,99,1,02,1,06,1,00150,1,04,1,99,9",,"09,9",,"999,M,+0342,1","120,N,+0265,1","99999,9,10067,1","8,1,016,1,-002,1",,,"SYN136AAXX  26121 76458 /1260 51600 10266 20250 30067 40078 58016 60341 8264/ 91150 333 0/5// 10342 20265 31/// 57652 59002 60341 82607 83458;",
"76458099999","2001-08-26T15:00:00","4","23.2","-106.4166666","4.0","COLONIA JUAN CARRASCO MAZATLAN SIN., MX","FM-12","99999","V020","150,1,N,0020,1","00600,1,9,N","014000,1,N,1","+0276,1","+0252,1","10101,1","99,0000,9,1",,,,,"08,1,+00600,9,02,9",,,"08,99,1,08,1,07,1,00450,1,99,9,99,9",,"09,9",,,,"99999,9,10090,1","2,1,023,1,+021,1",,,"SYN106AAXX  26151 76458 32464 81502 10276 20252 30090 40101 52023 887// 91450 333 0/5// 31/// 57851 58021 88820;","Q01  00002PRCP99"
"76458099999","2001-08-27T06:00:00","4","23.2","-106.4166666","4.0","COLONIA JUAN CARRASCO MAZATLAN SIN., MX","FM-12","99999","V020","340,1,N,0020,1","00180,1,C,N","008000,1,N,1","+0252,1","+0238,1","10131,1","02,0071,9,1",,,"0,1,06,1","0,1,06,1","07,1,+00180,9,06,9",,,"08,99,1,08,1,05,1,00150,1,00,1,00,1","0000,9","11,9",,"240,M,+0295,1","240,N,+9999,9","99999,9,10120,1","2,1,022,1,+037,1",,"21,1","SYN142AAXX  27061 76458 11258 83402 10252 20238 30120 40131 52022 60076 72100 88500 90600 333 0/900 10295 20265 32/// 55000 57690 58037 87606 82918;","Q01 +02652ATMN  "
"76458099999","2001-08-27T09:00:00","4","23.2","-106.4166666","4.0","COLONIA JUAN CARRASCO MAZATLAN SIN., MX","FM-12","99999","V020","999,9,C,0000,1","09000,1,C,N","008000,1,N,1","+0236,1","+0231,1","10117,1","03,0310,9,1",,,"6,1,03,1","6,1,03,1","06,1,+99999,9,00,9",,,"08,99,1,08,1,05,1,00075,1,00,1,00,1",,"11,9",,,,"99999,9,10106,1","7,1,014,1,+024,1",,"21,1","SYN124AAXX  27091 76458 11158 80000 10236 20231 30106 40117 57014 60317 72166 88500 90845 333 0/900 32/// 57690 58024 8602/ 82920;",
"76458099999","2001-08-27T15:00:00","4","23.2","-106.4166666","4.0","COLONIA JUAN CARRASCO MAZATLAN SIN., MX","FM-12","99999","V020","999,9,C,0000,1","03600,1,C,N","012000,1,N,1","+0248,1","+0231,1","10112,1","99,0000,2,1",,,"2,1,03,1","5,1,03,1","01,1,+00300,9,08,9","03,1,+02400,9,03,9",,"07,99,1,01,1,02,1,00250,1,06,1,08,1",,"09,9",,,,"99999,9,10101,1","6,1,004,1,+011,1",,"04,1","SYN124AAXX  27151 76458 31362 70000 10248 20231 30101 40112 56004 70425 81268 91455 333 0/3// 31/// 57837 58011 81810 83358 83270;",
"76458099999","2001-08-28T06:00:00","4","23.2","-106.4166666","4.0","COLONIA JUAN CARRASCO MAZATLAN SIN., MX","FM-12","99999","V020","140,1,N,0020,1","00210,1,9,N","008000,1,N,1","+0272,1","+0245,1","10106,1","99,0000,9,1",,,,,,,,"07,99,1,07,1,02,1,00250,1,00,1,00,1","0276,9","09,9",,"240,M,+0302,1","240,N,+0235,1","99999,9,10095,1","2,1,013,1,-025,1",,,"SYN124AAXX  28061 76458 32358 71402 10272 20245 30095 40106 52013 87200 90545 333 0/600 10302 20235 31/// 55046 57860 59025 87811;","Q01  00002PRCP99"
"76458099999","2001-08-28T15:00:00","4","23.2","-106.4166666","4.0","COLONIA JUAN CARRASCO MAZATLAN SIN., MX","FM-12","99999","V020","110,1,N,0030,1","02400,1,9,N","015000,1,N,1","+0256,1","+0237,1","10100,1","99,0000,9,1",,,,,"02,1,+00300,9,08,9","03,1,+02400,9,03,9",,"07,99,1,02,1,02,1,00150,1,05,1,08,1",,"01,9",,,,"99999,9,10089,1","1,1,014,1,-012,1",,,"SYN118AAXX  28151 76458 32265 71103 10256 20237 30089 40100 51014 82258 91455 333 0/3// 30/// 57834 59012 82810 83358 82270;","Q01  00002PRCP99"
"76458099999","2001-08-28T18:00:00","4","23.2","-106.4166666","4.0","COLONIA JUAN CARRASCO MAZATLAN SIN., MX","FM-12","99999","V020","090,1,N,0030,1","00570,1,9,N","018000,1,N,1","+0284,1","+0238,1","10098,1","99,0000,9,1",,,,,"05,1,+00570,9,06,9",,,"07,99,1,05,1,04,1,00450,1,02,1,00,1",,"01,9",,"120,M,+0293,1","240,N,+0248,1","99999,9,10087,1","8,1,002,1,-015,1",,,"SYN124AAXX  28181 76458 32468 70903 10284 20238 30087 40098 58002 85420 91750 333 0/390 10293 20248 30/// 57639 59015 85619 82468;","Q01  00002PRCP99"
"76458099999","2001-08-28T21:00:00","4","23.2","-106.4166666","4.0","COLONIA JUAN CARRASCO MAZATLAN SIN., MX","FM-12","99999","V020","150,1,N,0020,1","00690,1,9,N","020000,1,N,1","+0292,1","+0236,1","10088,1","99,0000,9,1",,,,,"06,1,+00690,9,08,9",,,"07,99,1,06,1,01,1,00800,1,02,1,00,1",,"01,9",,,,"99999,9,10077,1","7,1,010,1,-009,1",,,"SYN112AAXX  28211 76458 32570 71502 10292 20236 30077 40088 57010 86120 92045 333 00490 30/// 57849 59009 86823 81462;","Q01  00002PRCP99"
"76458099999","2001-08-29T06:00:00","4","23.2","-106.4166666","4.0","COLONIA JUAN CARRASCO MAZATLAN SIN., MX","FM-12","99999","V020","120,1,N,0040,1","03600,1,9,N","008000,1,N,1","+0252,1","+0241,1","10101,1","03,0160,9,1",,,"8,1,06,1","6,1,06,1","03,1,+00240,9,05,9",,,"05,99,1,03,1,06,1,00150,1,03,1,99,9",,"09,9",,"240,M,+0300,1","240,N,+0195,1","99999,9,10090,1","8,1,010,1,-005,1",,"29,1","SYN136AAXX  29061 76458 /1258 51204 10252 20241 30090 40101 58010 60167 72986 8363/ 90550 333 0/2// 10300 20195 31/// 57621 59005 60167 83608;",
"76458099999","2001-08-29T09:00:00","4","23.2","-106.4166666","4.0","COLONIA JUAN CARRASCO MAZATLAN SIN., MX","FM-12","99999","V020","120,1,N,0050,1","00840,1,9,N","008000,1,N,1","+0252,1","+0238,1","10100,1","99,0000,9,1",,,,,"05,1,+00840,9,05,9",,,"05,99,1,05,1,06,1,00150,1,99,9,99,9",,"09,9",,,,"99999,9,10089,1","8,1,001,1,+008,1",,,"SYN094AAXX  29091 76458 32258 51205 10252 20238 30089 40100 58001 856// 90850 333 31/// 58008 85628;","Q01  00002PRCP99"
"76458099999","2001-08-29T12:00:00","4","23.2","-106.4166666","4.0","COLONIA JUAN CARRASCO MAZATLAN SIN., MX","FM-12","99999","V020","120,1,N,0020,1","03600,1,9,N","008000,1,N,1","+0250,1","+0240,1","10102,1","03,0260,9,1","24,0466,9,1",,"6,1,06,1","9,1,06,1","02,1,+00060,9,05,9",,,"07,99,1,02,1,05,1,00150,1,02,1,99,9",,"11,9","999,+0230,9","999,M,+0301,1","120,N,+0242,1","99999,9,10091,1","1,1,002,1,+014,1",,"50,1","SYN136AAXX  29121 76458 /1258 71202 10250 20240 30091 40102 51002 60261 75069 8252/ 91205 333 0/3// 10301 20242 32023 58014 60267 70466 82602;",
"76458099999","2001-08-30T03:00:00","4","23.2","-106.4166666","4.0","COLONIA JUAN CARRASCO MAZATLAN SIN., MX","FM-12","99999","V020","999,9,C,0000,1","02400,1,9,N","010000,1,N,1","+0284,1","+0238,1","10106,1","99,0000,9,1",,,,,"06,1,+02400,9,07,9",,,"06,99,1,99,9,99,9,99999,9,05,1,00,1",,"09,9",,,,"99999,9,10095,1","2,1,014,1,+015,1",,,"SYN100AAXX  30031 76458 32960 60000 10284 20238 30095 40106 52014 80050 90250 333 0/090 31/// 58015 86358;","Q01+000002SCOTLCQ02  00002PRCP99Q03    003SCOLCG"
"76458099999","2001-08-30T06:00:00","4","23.2","-106.4166666","4.0","COLONIA JUAN CARRASCO MAZATLAN SIN., MX","FM-12","99999","V020","999,9,C,0000,1","22000,1,9,N","008000,1,N,1","+0270,1","+0246,1","10120,1","99,0000,9,1",,,,,"01,1,+01800,9,02,9",,,"01,99,1,01,1,00,1,02250,1,03,1,00,1","0276,9","01,9",,"240,M,+0315,1","240,N,+0244,1","99999,9,10107,1","2,1,014,1,+019,1",,,"SYN112AAXX  30061 76458 32858 10000 10270 20246 30107 40120 52014 81030 90545 333 10315 20244 30/// 55046 58019 81856;","Q01  00002PRCP99"
"76458099999","2001-08-30T09:00:00","4","23.2","-106.4166666","4.0","COLONIA JUAN CARRASCO MAZATLAN SIN., MX","FM-12","99999","V020","020,1,N,0020,1","22000,1,9,N","008000,1,N,1","+0262,1","+0248,1","10108,1","99,0000,9,1",,,,,"01,1,+00180,9,08,9",,,"04,99,1,01,1,02,1,00150,1,03,1,00,1",,"01,9",,,,,"7,1,012,1,+008,1",,,"SYN106AAXX  30091 76458 32258 40202 10262 20248 40108 57012 81230 90845 333 0/690 30/// 57860 58008 81806 83356;","Q01  00002PRCP99"
"76458099999","2001-08-30T15:00:00","4","23.2","-106.4166666","4.0","COLONIA JUAN CARRASCO MAZATLAN SIN., MX","FM-12","99999","V020","340,1,N,0020,1","03600,1,9,N","015000,1,N,1","+0243,1","+0233,1","10112,1","03,0030,9,1",,,"6,1,03,1","5,1,03,1","07,1,+03600,9,01,9",,,"07,99,1,07,1,00,1,02250,1,02,1,99,9",,"11,9",,,,"99999,9,10101,1","9,9,999,9,-003,1",,"50,1","SYN118AAXX  30151 76458 21865 73402 10243 20233 30101 40112 52000 75065 8702/ 91455 333 0/09/ 32/// 57499 59003 60037 87462;","Q01+000022APCTENQ02+000002APC3  "
"76458099999","2001-08-30T21:00:00","4","23.2","-106.4166666","4.0","COLONIA JUAN CARRASCO MAZATLAN SIN., MX","FM-12","99999","V020","240,1,N,0030,1","03000,1,9,N","020000,1,N,1","+0300,1","+0260,1","10098,1","99,0000,2,1",,,,,"01,1,+00510,9,08,9","05,1,+03000,9,02,9",,"07,99,1,01,1,08,1,00450,1,03,1,08,1",,"01,9",,,,"99999,9,10087,1","5,1,014,1,-012,1",,,"SYN118AAXX  30211 76458 32470 72403 10300 20260 30087 40098 55014 81838 92050 333 0/5// 30/// 57853 59012 81817 85260 81070;",
"76458099999","2001-08-31T03:00:00","4","23.2","-106.4166666","4.0","COLONIA JUAN CARRASCO MAZATLAN SIN., MX","FM-12","99999","V020","999,9,C,0000,1","22000,1,9,N","010000,1,N,1","+0282,1","+0244,1","10094,1","99,0000,2,1",,,,,"04,1,+02400,9,07,9",,,"04,99,1,99,9,99,9,99999,9,05,1,00,1",,"01,9",,,,"99999,9,10083,1","2,1,011,1,-012,1",,,"SYN100AAXX  31031 76458 32960 40000 10282 20244 30083 40094 52011 80050 90235 333 0/090 30/// 59012 84358;","Q01+000002SCOTLCQ02    003SCOLCG"
"76458099999","2001-08-31T06:00:00","4","23.2","-106.4166666","4.0","COLONIA JUAN CARRASCO MAZATLAN SIN., MX","FM-12","99999","V020","120,1,N,0010,1","00120,1,9,N","008000,1,N,1","+0268,1","+0249,1","10106,1","01,0010,9,1",,,"0,1,06,1","0,1,06,1",,,,"08,99,1,08,1,05,1,00150,1,00,1,00,1","0180,9","09,9",,"240,M,+0312,1","240,N,+0238,1","99999,9,10092,1","2,1,012,1,-014,1",,"24,1","SYN136AAXX  31061 76458 11258 81201 10268 20249 30092 40106 52012 60015 72400 88500 90555 333 0/900 10312 20238 31/// 55030 57690 59014 88608;","Q01+000002PRSWM1"
"76458099999","2001-08-31T12:00:00","4","23.2","-106.4166666","4.0","COLONIA JUAN CARRASCO MAZATLAN SIN., MX","FM-12","99999","V020","999,9,C,0000,1","00120,1,9,N","008000,1,N,1","+0257,1","+0248,1","10094,1","06,0060,9,1",,,"5,1,06,1","1,1,06,1",,,,"06,99,1,06,1,06,1,00150,1,99,9,99,9",,"09,9",,"999,M,+0310,1","120,N,+0255,1","99999,9,10083,1","5,1,006,1,-012,1",,"29,1","SYN136AAXX  31121 76458 /1258 63500 10257 20248 30083 40094 55006 60061 72951 866// 91150 333 0/5// 10310 20255 31/// 57651 59012 60061 70085;",
"76458099999","2001-08-31T21:00:00","4","23.2","-106.4166666","4.0","COLONIA JUAN CARRASCO MAZATLAN SIN., MX","FM-12","99999","V020","180,1,N,0020,1","00480,1,9,N","020000,1,N,1","+0297,1","+0259,1","10087,1","99,0000,9,1",,,,,"05,1,+00480,9,06,9",,,"07,99,1,05,1,04,1,00450,1,00,1,08,1",,"09,9",,,,"99999,9,10076,1","7,1,016,1,-011,1",,,"SYN112AAXX  31211 76458 32470 71802 10297 20259 30076 40087 57016 85408 92045 333 0/109 31/// 57619 59011 85616 82268;","Q01  00002PRCP99"
"76458099999","2001-09-01T06:00:00","4","23.2","-106.4166666","4.0","COLONIA JUAN CARRASCO MAZATLAN SIN., MX","FM-12","99999","V020","270,1,N,0030,1","03600,1,9,N","008000,1,N,1","+0278,1","+0259,1","10106,1","99,0000,9,1",,,,,"04,1,+00240,9,06,9",,,"06,99,1,04,1,05,1,00150,1,03,1,00,1","0036,9","01,9",,"240,M,+0312,1","240,N,+0255,1","99999,9,10095,1","1,1,999,9,+000,1",,,"SYN130AAXX  01061 76458 32258 62703 10278 20259 30095 40106 51/// 84530 90545 333 0/690 10312 20255 30/// 55006 57660 58000 84608 82356;","Q01  00002PRCP99"
"76458099999","2001-09-01T09:00:00","4","23.2","-106.4166666","4.0","COLONIA JUAN CARRASCO MAZATLAN SIN., MX","FM-12","99999","V020","140,1,N,0030,1","03600,1,9,N","008000,1,N,1","+0272,1","+0254,1","10096,1","99,0000,9,1",,,"0,1,03,1","0,1,03,1","02,1,+00240,9,07,9","01,1,+00600,9,09,9",,"07,99,1,03,1,06,1,00150,1,03,1,00,1",,"01,9",,,,"99999,9,10086,1","7,1,009,1,-003,1",,"13,1","SYN124AAXX  01091 76458 31258 71403 10272 20254 30086 40096 57009 71300 83630 90845 333 0/190 30/// 57710 59003 82708 81920 8435/;","Q01  00002PRCP99"
"76458099999","2001-09-01T15:00:00","4","23.2","-106.4166666","4.0","COLONIA JUAN CARRASCO MAZATLAN SIN., MX","FM-12","99999","V020","090,1,N,0040,1","00270,1,9,N","020000,1,N,1","+0271,1","+0248,1","10113,1","99,0000,9,1",,,,,"07,1,+00270,9,05,9",,,"07,99,1,07,1,03,1,00250,1,00,1,00,1",,"01,9",,,,"99999,9,10102,1","7,1,018,1,+012,1",,,"SYN100AAXX  01151 76458 32370 70904 10271 20248 30102 40113 57018 87300 91455 333 0/200 30/// 58012 87609;","Q01  00002PRCP99"
"76458099999","2001-09-01T18:00:00","4","23.2","-106.4166666","4.0","COLONIA JUAN CARRASCO MAZATLAN SIN., MX","FM-12","99999","V020","270,1,N,0020,1","00270,1,9,N","008000,1,N,1","+0262,1","+0241,1","10125,1","02,0010,9,1",,,"5,1,06,1","2,1,06,1","07,1,+00270,9,05,9",,,"07,99,1,07,1,06,1,00250,1,99,9,99,9",,"09,9",,"120,M,+9999,9","240,N,+9999,9","99999,9,10114,1","5,1,012,1,+096,1",,"50,1","SYN124AAXX  01181 76458 11358 72702 10262 20241 30114 40125 55012 60016 75052 876// 91750 333 0/6// 10262 20293 31/// 58096 87609;","Q01 +02623ATMM  Q02 +02933ATMM  "
"76458099999","2001-09-01T21:00:00","4","23.2","-106.4166666","4.0","COLONIA JUAN CARRASCO MAZATLAN SIN., MX","FM-12","99999","V020","270,1,N,0050,1","00540,1,9,N","014000,1,N,1","+0292,1","+0255,1","10105,1","03,0089,9,1",,,"5,1,03,1","2,1,03,1","02,1,+00450,9,09,9","03,1,+00540,9,08,9",,"08,99,1,05,1,08,1,00450,1,03,1,99,9",,"09,9",,,,"99999,9,10094,1","8,1,020,1,+018,1",,"50,1","SYN130AAXX  01211 76458 21464 82705 10292 20255 30094 40105 58020 60097 75052 8583/ 92050 333 0/6// 31/// 57862 58018 82915 83818 82358;",
"76458099999","2001-09-02T03:00:00","4","23.2","-106.4166666","4.0","COLONIA JUAN CARRASCO MAZATLAN SIN., MX","FM-12","99999","V020","020,1,N,0030,1","22000,1,9,N","010000,1,N,1","+0273,1","+0243,1","10095,1","99,0000,2,1",,,,,"02,1,+03600,9,03,9",,,"03,99,1,02,1,00,1,02250,1,03,1,01,1",,"01,9",,,,"99999,9,10084,1","2,1,010,1,+999,9",,,"SYN112AAXX  02031 76458 32860 30203 10273 20243 30084 40095 52010 82031 90250 333 0/099 30/// 57399 58/// 82362 81068;",
"76458099999","2001-09-02T06:00:00","4","23.2","-106.4166666","4.0","COLONIA JUAN CARRASCO MAZATLAN SIN., MX","FM-12","99999","V020","050,1,N,0020,1","22000,1,9,N","008000,1,N,1","+0270,1","+0236,1","10109,1","99,0000,2,1",,,,,"01,1,+01800,9,03,9",,,"03,99,1,01,1,03,1,02250,1,06,1,00,1","0222,9","01,9",,"240,M,+0325,1","240,N,+0266,1","99999,9,10098,1","2,1,014,1,+003,1",,,"SYN118AAXX  02061 76458 32858 30502 10270 20236 30098 40109 52014 81360 90545 333 10325 20266 30/// 55037 58003 81356 82070;",
"76458099999","2001-09-02T09:00:00","4","23.2","-106.4166666","4.0","COLONIA JUAN CARRASCO MAZATLAN SIN., MX","FM-12","99999","V020","130,1,N,0010,1","22000,1,9,N","008000,1,N,1","+0264,1","+0222,1","10100,1","99,0000,2,1",,,,,"01,1,+00540,9,06,9","01,1,+01800,9,03,9",,"04,99,1,01,1,06,1,00450,1,03,1,06,1",,"01,9",,,,"99999,9,10089,1","7,1,011,1,+003,1",,,"SYN118AAXX  02091 76458 32458 41301 10264 20222 30089 40100 57011 81636 90845 333 0/199 30/// 57614 58003 81618 81356 82070;",
"76458099999","2001-09-02T12:00:00","4","23.2","-106.4166666","4.0","COLONIA JUAN CARRASCO MAZATLAN SIN., MX","FM-12","99999","V020","230,1,N,0020,1","22000,1,9,N","008000,1,N,1","+0252,1","+0230,1","10099,1","24,0103,9,1",,,,,"01,1,+06000,9,01,9",,,"01,99,1,00,1,00,1,99999,9,00,1,01,1",,"01,9","999,+0230,9","999,M,+0325,1","120,N,+0248,1","99999,9,10088,1","4,1,000,1,+005,1",,,"SYN112AAXX  02121 76458 32958 12302 10252 20230 30088 40099 54001 80001 91145 333 10325 20248 30023 58005 70103 81070;",
"76458099999","2001-09-02T15:00:00","4","23.2","-106.4166666","4.0","COLONIA JUAN CARRASCO MAZATLAN SIN., MX","FM-12","99999","V020","999,9,C,0000,1","22000,1,9,N","020000,1,N,1","+0276,1","+0235,1","10107,1","99,0000,9,1",,,,,"01,1,+00510,9,08,9",,,"02,99,1,01,1,02,1,99999,9,00,1,01,1",,"01,9",,,,"99999,9,10096,1","3,1,008,1,-006,1",,,"SYN112AAXX  02151 76458 32970 20000 10276 20235 30096 40107 53008 81201 91445 333 01409 30/// 57817 59006 81817 81070;","Q01  00002PRCP99"
"76458099999","2001-09-02T18:00:00","4","23.2","-106.4166666","4.0","COLONIA JUAN CARRASCO MAZATLAN SIN., MX","FM-12","99999","V020","270,1,N,0020,1","22000,1,9,N","020000,1,N,1","+0319,1","+0240,1","10102,1","99,0000,9,1",,,,,"02,1,+00990,9,02,9",,,"02,99,1,02,1,08,1,00800,1,99,9,99,9",,"01,9",,"120,M,+0325,1","240,N,+0243,1","99999,9,10091,1","8,1,005,1,-023,1",,,"SYN118AAXX  02181 76458 32570 22702 10319 20240 30091 40102 58005 828// 91750 333 0/2// 10325 20243 30/// 57862 59023 82833;","Q01  00002PRCP99"
"76458099999","2001-09-02T21:00:00","4","23.2","-106.4166666","4.0","COLONIA JUAN CARRASCO MAZATLAN SIN., MX","FM-12","99999","V020","270,1,N,0040,1","22000,1,9,N","020000,1,N,1","+0312,1","+0251,1","10095,1","99,0000,9,1",,,,,"02,1,+00750,9,02,9",,,"02,99,1,02,1,08,1,00800,1,99,9,99,9",,"01,9",,,,"99999,9,10084,1","7,1,007,1,-010,1",,,"SYN106AAXX  02211 76458 32570 22704 10312 20251 30084 40095 57007 828// 92050 333 0/6// 30/// 57863 59010 82825;","Q01  00002PRCP99"
"76458099999","2001-09-03T00:00:00","4","23.2","-106.4166666","4.0","COLONIA JUAN CARRASCO MAZATLAN SIN., MX","FM-12","99999","V020","250,1,N,0020,1","22000,1,9,N","020000,1,N,1","+0316,1","+0248,1","10077,1","24,0000,9,1",,,,,,,,"01,99,1,01,1,01,1,99999,9,00,1,00,1",,"01,9",,"120,M,+0333,1","180,N,+0245,1","99999,9,10066,1","7,1,018,1,-008,1",,,"SYN130AAXX  03001 76458 32970 12502 10316 20248 30066 40077 57018 81100 92350 333 0/100 10333 20245 30/// 50471 57819 59008 79999 81828;","Q01  00002PRCP24"
"76458099999","2001-09-03T03:00:00","4","23.2","-106.4166666","4.0","COLONIA JUAN CARRASCO MAZATLAN SIN., MX","FM-12","99999","V020","180,1,N,0020,1","22000,1,9,N","010000,1,N,1","+0294,1","+0240,1","10092,1","99,0000,9,1",,,,,"02,1,+00780,9,05,9",,,"02,99,1,02,1,04,1,00800,1,00,1,00,1",,"01,9",,,,"99999,9,10081,1","2,1,015,1,-003,1",,,"SYN106AAXX  03031 76458 32560 21802 10294 20240 30081 40092 52015 82400 90245 333 0/900 30/// 57699 59003 82626;","Q01  00002PRCP99"
"76458099999","2001-09-03T06:00:00","4","23.2","-106.4166666","4.0","COLONIA JUAN CARRASCO MAZATLAN SIN., MX","FM-12","99999","V020","999,9,C,0000,1","09000,1,C,N","010000,1,N,1","+0285,1","+0257,1","10106,1","99,0000,9,1",,,,,"01,1,+00360,9,06,9","02,1,+02700,9,03,9",,"05,99,1,01,1,03,1,00450,1,03,1,07,1","0660,9","01,9",,"240,M,+0333,1","240,N,+0229,1","99999,9,10095,1","2,1,014,1,+001,1",,,"SYN124AAXX  03061 76458 32460 50000 10285 20257 30095 40106 52014 81337 90555 333 10333 20229 30/// 55110 58001 81612 82359 82276;","Q01  00002PRCP99"
"76458099999","2001-09-03T09:00:00","4","23.2","-106.4166666","4.0","COLONIA JUAN CARRASCO MAZATLAN SIN., MX","FM-12","99999","V020","999,9,C,0000,1","00390,1,9,N","010000,1,N,1","+0280,1","+0250,1","10093,1","99,0000,9,1",,,,,"07,1,+00390,9,05,9",,,"99,99,9,06,1,04,1,00450,1,00,1,00,1",,"01,9",,,,"99999,9,10083,1","7,1,012,1,-006,1",,,"SYN100AAXX  03091 76458 32460 60000 10280 20250 30083 40093 57012 86400 90850 333 0/200 30/// 59006 87613;","Q01+000062SCOTCVQ02  00002PRCP99"
"76458099999","2001-09-03T18:00:00","4","23.2","-106.4166666","4.0","COLONIA JUAN CARRASCO MAZATLAN SIN., MX","FM-12","99999","V020","270,1,N,0030,1","22000,1,9,N","020000,1,N,1","+0310,1","+0255,1","10087,1","99,0000,9,1",,,,,"02,1,+00720,9,02,9",,,"02,99,1,02,1,08,1,00800,1,99,9,99,9",,"01,9",,"120,M,+0327,1","240,N,+0259,1","99999,9,10076,1","3,1,001,1,-015,1",,,"SYN118AAXX  03181 76458 32570 22703 10310 20255 30076 40087 53001 828// 91750 333 0/6// 10327 20259 30/// 57862 59015 82824;","Q01  00002PRCP99"
"76458099999","2001-09-03T21:00:00","4","23.2","-106.4166666","4.0","COLONIA JUAN CARRASCO MAZATLAN SIN., MX","FM-12","99999","V020","270,1,N,0030,1","09000,1,C,N","020000,1,N,1","+0314,1","+0256,1","10072,1","99,0000,9,1",,,,,"02,1,+00720,9,08,9","02,1,+02400,9,03,9",,"05,99,1,02,1,02,1,00800,1,03,1,02,1",,"01,9",,,,"99999,9,10061,1","5,1,015,1,-028,1",,,"SYN112AAXX  03211 76458 32570 52703 10314 20256 30061 40072 55015 82232 92055 333 026// 30/// 59028 82824 82358 81079;","Q01  00002PRCP99"
"76458099999","2001-09-04T00:00:00","4","23.2","-106.4166666","4.0","COLONIA JUAN CARRASCO MAZATLAN SIN., MX","FM-12","99999","V020","230,1,N,0040,1","22000,1,9,N","020000,1,N,1","+0316,1","+0253,1","10068,1","24,0000,9,1",,,,,,,,"01,99,1,01,1,02,1,00800,1,00,1,00,1",,"01,9",,"120,M,+0338,1","180,N,+0259,1","99999,9,10057,1","6,1,004,1,+999,9",,,"SYN118AAXX  04001 76458 32570 12304 10316 20253 30057 40068 56004 81200 82345 333 01100 10338 20259 30/// 50471 70000 81826;","Q01  00002PRCP99Q02  00003PRCP99"
"76458099999","2001-09-04T06:00:00","4","23.2","-106.4166666","4.0","COLONIA JUAN CARRASCO MAZATLAN SIN., MX","FM-12","99999","V020","270,1,N,0020,1","00390,1,9,N","008000,1,N,1","+0292,1","+0260,1","10096,1","99,0000,9,1",,,,,"05,1,+00390,9,05,9",,,"05,99,1,05,1,04,1,00450,1,00,1,00,1",,"01,9",,"240,M,+0358,1","240,N,+0259,1","99999,9,10085,1","2,1,010,1,-010,1",,,"SYN112AAXX  04061 76458 32458 52702 10292 20260 30085 40096 52010 85400 90555 333 0/390 10358 20259 30/// 59010 85613;","Q01  00002PRCP99"
"76458099999","2001-09-04T09:00:00","4","23.2","-106.4166666","4.0","COLONIA JUAN CARRASCO MAZATLAN SIN., MX","FM-12","99999","V020","999,9,C,0000,1","22000,1,9,N","008000,1,N,1","+0274,1","+0247,1","10092,1","99,0000,9,1",,,,,"01,1,+00330,9,08,9",,,"03,99,1,01,1,04,1,00450,1,03,1,00,1",,"01,9",,,,"99999,9,10081,1","7,1,004,1,+001,1",,,"SYN106AAXX  04091 76458 32458 30000 10274 20247 30081 40092 57004 81430 90854 333 0/990 30/// 58001 81811 82358;","Q01  00002PRCP99"
"76458099999","2001-09-04T12:00:00","4","23.2","-106.4166666","4.0","COLONIA JUAN CARRASCO MAZATLAN SIN., MX","FM-12","99999","V020","999,9,C,0000,1","00240,1,9,N","012000,1,N,1","+0270,1","+0254,1","10091,1","24,0000,9,1",,,,,"05,1,+00240,9,05,9",,,"05,99,1,05,1,04,1,00250,1,00,1,00,1",,"01,9","999,+0250,9","999,M,+0338,1","120,N,+0268,1","99999,9,10080,1","3,1,001,1,+005,1",,,"SYN118AAXX  04121 76458 32362 50000 10270 20254 30080 40091 53001 85400 91200 333 0//00 10338 20268 30025 58005 70000 85608;",
"76458099999","2001-09-04T21:00:00","4","23.2","-106.4166666","4.0","COLONIA JUAN CARRASCO MAZATLAN SIN., MX","FM-12","99999","V020","160,1,N,0040,1","09000,1,C,N","020000,1,N,1","+0316,1","+0261,1","10088,1","99,0000,9,1",,,,,"04,1,+00690,9,08,9",,,"07,99,1,04,1,02,1,00800,1,00,1,08,1",,"01,9",,,,"99999,9,10077,1","7,1,012,1,+016,1",,,"SYN112AAXX  04211 76458 32570 71604 10316 20261 30077 40088 57012 84208 92050 333 00509 30/// 57859 58016 84823 83268;","Q01  00002PRCP99"
"76458099999","2001-09-05T00:00:00","4","23.2","-106.4166666","4.0","COLONIA JUAN CARRASCO MAZATLAN SIN., MX","FM-12","99999","V020","250,1,N,0040,1","03600,1,9,N","020000,1,N,1","+0312,1","+0251,1","10079,1","24,0000,9,1",,,,,"02,1,+00750,9,08,9",,,"06,99,1,02,1,08,1,00800,1,06,1,08,1",,"01,9",,"120,M,+0344,1","180,N,+0266,1","99999,9,10068,1","8,1,009,1,+011,1",,,"SYN136AAXX  05001 76458 32570 62504 10312 20251 30068 40079 58009 82868 92350 333 0/5// 10344 20266 30/// 50065 57835 58011 70000 82825 83458;","Q01  00002PRCP99Q02  00003PRCP99"
"76458099999","2001-09-05T03:00:00","4","23.2","-106.4166666","4.0","COLONIA JUAN CARRASCO MAZATLAN SIN., MX","FM-12","99999","V020","350,1,N,0020,1","99999,9,9,N","012000,1,N,1","+0283,1","+0247,1","10095,1","99,0000,9,1",,,,,"02,1,+00450,9,06,9",,,"06,99,1,99,9,03,1,00450,1,99,9,99,9",,"01,9",,,,"99999,9,10084,1","2,1,016,1,+009,1",,,"SYN100AAXX  05031 76458 32462 63502 10283 20247 30084 40095 52016 803// 90250 333 30/// 58009 82615 84458;","Q01+000002SCOTLCQ02  00002PRCP99"
"76458099999","2001-09-05T06:00:00","4","23.2","-106.4166666","4.0","COLONIA JUAN CARRASCO MAZATLAN SIN., MX","FM-12","99999","V020","210,1,N,0010,1","00510,1,9,N","010000,1,N,1","+0278,1","+0237,1","10110,1","99,0000,9,1",,,,,"07,1,+00510,9,05,9",,,"07,99,1,07,1,04,1,00450,1,00,1,00,1",,"01,9",,"240,M,+0344,1","240,N,+0270,1","99999,9,10099,1","2,1,015,1,+014,1",,,"SYN118AAXX  05061 76458 32460 72101 10278 20237 30099 40110 52015 87400 90558 333 0/900 10344 20270 30/// 55428 58014 87617;","Q01  00002PRCP99"
"76458099999","2001-09-05T09:00:00","4","23.2","-106.4166666","4.0","COLONIA JUAN CARRASCO MAZATLAN SIN., MX","FM-12","99999","V020","090,1,N,0010,1","22000,1,9,N","008000,1,N,1","+0270,1","+0234,1","10102,1","99,0000,9,1",,,,,"00,1,+99999,9,99,9",,,"00,99,1,00,1,00,1,99999,9,00,1,00,1",,"01,9",,,,"99999,9,10092,1","7,1,007,1,+011,1",,,"SYN082AAXX  05091 76458 32958 00901 10270 20234 30092 40102 57007 90830 333 30/// 58011;","Q01  00002PRCP99"
"76458099999","2001-09-05T12:00:00","4","23.2","-106.4166666","4.0","COLONIA JUAN CARRASCO MAZATLAN SIN., MX","FM-12","99999","V020","180,1,N,0020,1","00420,1,9,N","010000,1,N,1","+0285,1","+0251,1","10109,1","24,0000,9,1",,,,,"07,1,+00420,9,06,9",,,"08,99,1,08,1,09,1,00450,1,00,1,00,1",,"01,9","999,+0250,9","999,M,+0344,1","120,N,+0262,1","99999,9,10098,1","3,1,003,1,+999,9",,,"SYN130AAXX  05121 76458 32460 81802 10285 20251 30098 40109 53003 88900 91200 333 07200 10344 20262 30025 57920 58/// 70000 87614 81933;",
"76458099999","2001-09-05T15:00:00","4","23.2","-106.4166666","4.0","COLONIA JUAN CARRASCO MAZATLAN SIN., MX","FM-12","99999","V020","999,9,C,0000,1","09000,1,C,N","018000,1,N,1","+0272,1","+0234,1","10117,1","99,0000,9,1",,,,,"03,1,+00480,9,06,9",,,"05,99,1,03,1,04,1,00450,1,00,1,05,1",,"01,9",,,,"99999,9,10106,1","2,1,008,1,+020,1",,,"SYN106AAXX  05151 76458 32468 50000 10272 20234 30106 40117 52008 83405 91455 333 0/70/ 30/// 58020 83616 82079;","Q01  00002PRCP99"
"76458099999","2001-09-05T18:00:00","4","23.2","-106.4166666","4.0","COLONIA JUAN CARRASCO MAZATLAN SIN., MX","FM-12","99999","V020","340,1,N,0020,1","00420,1,9,N","020000,1,N,1","+0285,1","+0251,1","10122,1","01,0010,9,1",,,"0,1,06,1","5,1,06,1","07,1,+00420,9,05,9",,,"07,99,1,07,1,05,1,00450,1,00,1,00,1",,"09,9",,"120,M,+0312,1","240,N,+0262,1","99999,9,10111,1","0,1,005,1,+012,1",,"50,1","SYN136AAXX  05181 76458 /1470 73402 10285 20251 30111 40122 50005 60021 75005 87500 91750 333 00700 10312 20262 31/// 57679 58012 60015 87614;",
"76458099999","2001-09-06T03:00:00","4","23.2","-106.4166666","4.0","COLONIA JUAN CARRASCO MAZATLAN SIN., MX","FM-12","99999","V020","290,1,N,0040,1","22000,1,9,N","008000,1,N,1","+0302,1","+0244,1","10106,1","99,0000,2,1",,,,,"02,1,+00780,9,09,9",,,"04,99,1,04,1,09,1,00800,1,00,1,00,1",,"01,9",,,,"99999,9,10095,1","2,1,015,1,+011,1",,,"SYN112AAXX  06031 76458 31558 42904 10302 20244 30095 40106 52015 84900 90245 333 0/100 30/// 57910 58011 82926 82623;",
"76458099999","2001-09-06T06:00:00","4","23.2","-106.4166666","4.0","COLONIA JUAN CARRASCO MAZATLAN SIN., MX","FM-12","99999","V020","120,1,N,0020,1","00630,1,9,N","008000,1,N,1","+0258,1","+0207,1","10121,1","99,0000,2,1",,,,,"08,1,+00630,9,05,9",,,"08,99,1,08,1,04,1,00800,1,00,1,00,1","0420,9","01,9",,"240,M,+9999,9","240,N,+9999,9","99999,9,10110,1","2,1,015,1,+011,1",,,"SYN118AAXX  06061 76458 32558 81202 10258 20207 30110 40121 52015 88400 90550 333 0/900 10244 20262 30/// 55070 58011 88621;","Q01 +02443ATMM  Q02 +02623ATMM  "
"76458099999","2001-09-06T09:00:00","4","23.2","-106.4166666","4.0","COLONIA JUAN CARRASCO MAZATLAN SIN., MX","FM-12","99999","V020","340,1,N,0020,1","22000,1,9,N","008000,1,N,1","+0246,1","+0215,1","10123,1","99,0000,9,1",,,,,"04,1,+00390,9,05,9",,,"04,99,1,04,1,04,1,00450,1,00,1,00,1",,"01,9",,,,"99999,9,10112,1","2,1,002,1,+020,1",,,"SYN100AAXX  06091 76458 32458 43402 10246 20215 30112 40123 52002 84400 90830 333 0/900 30/// 58020 84613;","Q01  00002PRCP99"
"76458099999","2001-09-06T15:00:00","4","23.2","-106.4166666","4.0","COLONIA JUAN CARRASCO MAZATLAN SIN., MX","FM-12","99999","V020","360,1,N,0020,1","22000,1,9,N","020000,1,N,1","+0268,1","+0226,1","10121,1","99,0000,9,1",,,,,"01,1,+01020,9,09,9",,,"02,99,1,01,1,03,1,00450,1,00,1,05,1",,"01,9",,,,"99999,9,10110,1","0,1,005,1,+004,1",,,"SYN112AAXX  06151 76458 32470 23602 10268 20226 30110 40121 50005 81305 91450 333 0450/ 30/// 57956 58004 81934 81079;","Q01  00002PRCP99"
"76458099999","2001-09-06T21:00:00","4","23.2","-106.4166666","4.0","COLONIA JUAN CARRASCO MAZATLAN SIN., MX","FM-12","99999","V020","250,1,N,0050,1","22000,1,9,N","020000,1,N,1","+0320,1","+0254,1","10113,1","99,0000,9,1",,,,,"01,1,+00810,9,08,9",,,"02,99,1,01,1,08,1,00800,1,00,1,03,1",,"01,9",,,,"99999,9,10102,1","8,1,002,1,+014,1",,,"SYN112AAXX  06211 76458 32570 22505 10320 20254 30102 40113 58002 81803 92050 333 0/6// 30/// 57863 58014 81827 81070;","Q01  00002PRCP99"
"76458099999","2001-09-07T00:00:00","4","23.2","-106.4166666","4.0","COLONIA JUAN CARRASCO MAZATLAN SIN., MX","FM-12","99999","V020","300,1,N,0040,1","22000,1,9,N","020000,1,N,1","+0324,1","+0253,1","10097,1","24,9999,9,9",,,,,"01,1,+00900,9,09,9",,,"03,99,1,01,1,09,1,00800,1,00,1,06,1",,"01,9",,"120,M,+0336,1","180,N,+0240,1","99999,9,10086,1","7,1,016,1,+006,1",,,"SYN130AAXX  07001 76458 32570 33004 10324 20253 30086 40097 57016 81906 92345 333 0/109 10336 20240 30/// 57912 58006 79999 81930 82070;","Q01  99992PRCP24"
"76458099999","2001-09-07T03:00:00","4","23.2","-106.4166666","4.0","COLONIA JUAN CARRASCO MAZATLAN SIN., MX","FM-12","99999","V020","300,1,N,0030,1","22000,1,9,N","008000,1,N,1","+0306,1","+0256,1","10113,1","99,0000,9,1",,,,,"02,1,+00630,9,02,9",,,"02,99,1,02,1,02,1,00800,1,00,1,00,1",,"01,9",,,,"99999,9,10102,1","3,1,016,1,+007,1",,,"SYN106AAXX  07031 76458 32558 23003 10306 20256 30102 40113 53016 82200 90245 333 0/600 30/// 57860 58007 82821;","Q01  00002PRCP99"
"76458099999","2001-09-07T12:00:00","4","23.2","-106.4166666","4.0","COLONIA JUAN CARRASCO MAZATLAN SIN., MX","FM-12","99999","V020","999,9,C,0000,1","22000,1,9,N","010000,1,N,1","+0278,1","+0262,1","10104,1","24,0002,9,1",,,,,"04,1,+00180,9,05,9",,,"04,99,1,04,1,06,1,00150,1,99,9,99,9",,"01,9",,"999,M,+0335,1","120,N,+0220,1","99999,9,10093,1","6,1,012,1,+999,9",,,"SYN106AAXX  07121 76458 32260 43600 10278 20262 30093 40104 56012 846// 91150 333 10335 20220 30/// 70002 84606;",
"76458099999","2001-09-07T15:00:00","4","23.2","-106.4166666","4.0","COLONIA JUAN CARRASCO MAZATLAN SIN., MX","FM-12","99999","V020","999,9,C,0000,1","22000,1,9,N","018000,1,N,1","+0275,1","+0255,1","10109,1","03,0010,9,1",,,"5,1,03,1","0,1,03,1","04,1,+00240,9,05,9",,,"04,99,1,04,1,06,1,00250,1,99,9,99,9",,"01,9",,,,"99999,9,10097,1","2,1,004,1,-013,1",,"05,1","SYN112AAXX  07151 76458 21368 40000 10275 20255 30097 40109 52004 60017 70557 846// 91450 333 30/// 59013 60017 84608;","Q01+000072PSTWM2"
"76458099999","2001-09-07T21:00:00","4","23.2","-106.4166666","4.0","COLONIA JUAN CARRASCO MAZATLAN SIN., MX","FM-12","99999","V020","210,1,N,0030,1","22000,1,9,N","020000,1,N,1","+0324,1","+0251,1","10093,1","99,0000,9,1",,,,,"02,1,+00900,9,09,9",,,"02,99,1,02,1,03,1,00800,1,00,1,00,1",,"01,9",,,,"99999,9,10082,1","7,1,016,1,-020,1",,,"SYN106AAXX  07211 76458 32570 22103 10324 20251 30082 40093 57016 82300 92045 333 00600 30/// 57963 59020 82930;","Q01  00002PRCP99"
"76458099999","2001-09-08T00:00:00","4","23.2","-106.4166666","4.0","COLONIA JUAN CARRASCO MAZATLAN SIN., MX","FM-12","99999","V020","240,1,N,0030,1","22000,1,9,N","020000,1,N,1","+0324,1","+0255,1","10083,1","24,0009,9,1","99,0000,9,1",,,,"01,1,+00900,9,09,9",,,"03,99,1,02,1,09,1,00800,1,00,1,01,1",,"01,9",,"120,M,+0345,1","180,N,+0250,1","99999,9,10072,1","5,1,010,1,-014,1",,,"SYN135AAXX  08001 76458 32570 32403 10324 20255 30072 40083 5510/ 82901 92345 333 0/109 10345 20250 30/// 50541 57911 59014 70009 81930 1629;","Q01+001002APC3  Q02  00002PRCP99"
"76458099999","2001-09-08T03:00:00","4","23.2","-106.4166666","4.0","COLONIA JUAN CARRASCO MAZATLAN SIN., MX","FM-12","99999","V020","360,1,N,0020,1","03600,1,C,N","008000,1,N,1","+0276,1","+0217,1","10094,1","99,0000,9,1",,,"9,1,03,1","9,1,03,1","03,1,+00750,9,09,9",,,"08,99,1,03,1,09,1,00800,1,02,1,00,1",,"01,9",,,,"99999,9,10083,1","1,1,011,1,-019,1",,"29,1","SYN118AAXX  08031 76458 31558 83602 10276 20217 30083 40094 51011 72999 83920 90245 333 0/790 30/// 57970 59019 83925 85458;","Q01  00002PRCP99"
"76458099999","2001-09-08T06:00:00","4","23.2","-106.4166666","4.0","COLONIA JUAN CARRASCO MAZATLAN SIN., MX","FM-12","99999","V020","120,1,N,0040,1","00240,1,9,N","008000,1,N,1","+0260,1","+0241,1","10113,1","99,0000,9,1",,,,,"08,1,+00240,9,05,9",,,"08,99,1,08,1,04,1,00250,1,00,1,00,1","0420,9","09,9",,"240,M,+0345,1","240,N,+0250,1","99999,9,10102,1","2,1,019,1,-003,1",,,"SYN118AAXX  08061 76458 32358 81204 10260 20241 30102 40113 52019 88400 90548 333 0/900 10345 20250 31/// 55070 59003 88608;","Q01  00002PRCP99"
"76458099999","2001-09-08T09:00:00","4","23.2","-106.4166666","4.0","COLONIA JUAN CARRASCO MAZATLAN SIN., MX","FM-12","99999","V020","130,1,N,0030,1","00420,1,C,N","008000,1,N,1","+0245,1","+0218,1","10099,1","99,0000,9,1",,,,,"03,1,+00360,9,05,9",,,"08,99,1,08,1,05,1,00450,1,00,1,00,1",,"01,9",,,,"99999,9,10088,1","7,1,014,1,-012,1",,,"SYN100AAXX  08091 76458 32458 81303 10245 20218 30088 40099 57014 88500 90850 333 0/900 30/// 59012 83612;","Q01  00002PRCP99"
"76458099999","2001-09-08T15:00:00","4","23.2","-106.4166666","4.0","COLONIA JUAN CARRASCO MAZATLAN SIN., MX","FM-12","99999","V020","040,1,N,0020,1","22000,1,9,N","020000,1,N,1","+0281,1","+0246,1","10094,1","99,0000,9,1",,,,,"01,1,+00990,9,09,9","01,1,+02700,9,03,9",,"03,99,1,01,1,08,1,00450,1,03,1,05,1",,"01,9",,,,"99999,9,10083,1","2,1,004,1,+014,1",,,"SYN118AAXX  08151 76458 32470 30402 10281 20246 30083 40094 52004 81835 91450 333 075// 30/// 57954 58014 81933 81359 81070;","Q01  00002PRCP99"
"76458099999","2001-09-08T21:00:00","4","23.2","-106.4166666","4.0","COLONIA JUAN CARRASCO MAZATLAN SIN., MX","FM-12","99999","V020","160,1,N,0030,1","22000,1,9,N","020000,1,N,1","+0317,1","+0255,1","10080,1","99,0000,9,1",,,,,"02,1,+00780,9,08,9",,,"03,99,1,02,1,02,1,00800,1,03,1,00,1",,"01,9",,,,"99999,9,10069,1","7,1,015,1,-013,1",,,"SYN112AAXX  08211 76458 32570 31603 10317 20255 30069 40080 57015 82230 92045 333 00490 30/// 57849 59013 82826 81364;","Q01  00002PRCP99"
"76458099999","2001-09-09T00:00:00","4","23.2","-106.4166666","4.0","COLONIA JUAN CARRASCO MAZATLAN SIN., MX","FM-12","99999","V020","220,1,N,0040,1","22000,1,9,N","020000,1,N,1","+0312,1","+0248,1","10070,1","24,0018,9,1","99,0000,9,1",,,,,,,"01,99,1,01,1,09,1,00800,1,00,1,00,1",,"01,9",,"120,M,+0330,1","180,N,+0240,1","99999,9,10059,1","6,1,010,1,-013,1",,,"SYN130AAXX  09001 76458 32570 12204 10312 20248 30059 40070 56010 81900 92345 333 0/100 10330 20240 30/// 50691 57912 59013 70018 81927;","Q01  00002PRCP99"
"76458099999","2001-09-09T03:00:00","4","23.2","-106.4166666","4.0","COLONIA JUAN CARRASCO MAZATLAN SIN., MX","FM-12","99999","V020","210,1,N,0020,1","22000,1,9,N","008000,1,N,1","+0294,1","+0249,1","10081,1","99,0000,9,1",,,,,"00,1,+99999,9,99,9",,,"00,99,1,00,1,00,1,99999,9,00,1,00,1",,"01,9",,,,"99999,9,10070,1","0,1,011,1,-013,1",,,"SYN082AAXX  09031 76458 32958 02102 10294 20249 30070 40081 50011 90245 333 30/// 59013;","Q01  00002PRCP99"
"76458099999","2001-09-09T06:00:00","4","23.2","-106.4166666","4.0","COLONIA JUAN CARRASCO MAZATLAN SIN., MX","FM-12","99999","V020","160,1,N,0020,1","22000,1,9,N","008000,1,N,1","+0285,1","+0251,1","10089,1","99,0000,9,1",,,,,"01,1,+00420,9,02,9",,,"01,99,1,01,1,08,1,00450,1,99,9,99,9",,"01,9",,"240,M,+0330,1","240,N,+0280,1","99999,9,10078,1","8,1,008,1,-024,1",,,"SYN118AAXX  09061 76458 32458 11602 10285 20251 30078 40089 58008 818// 90550 333 0/3// 10330 20280 30/// 57831 59024 81814;","Q01  00002PRCP99"
"76458099999","2001-09-09T09:00:00","4","23.2","-106.4166666","4.0","COLONIA JUAN CARRASCO MAZATLAN SIN., MX","FM-12","99999","V020","360,1,N,0010,1","22000,1,9,N","999999,9,N,1","+0270,1","+0243,1","10087,1","99,0000,9,1",,,,,"01,1,+00330,9,08,9",,,"02,99,1,01,1,08,1,00450,1,03,1,99,9",,"01,9",,,,"99999,9,10076,1","7,1,002,1,-012,1",,,"SYN112AAXX  09091 76458 32452 23601 10270 20243 30076 40087 57002 8183/ 90850 333 0/8// 30/// 57882 59012 81811 81358;","Q01  00002PRCP99"
"76458099999","2001-09-09T12:00:00","4","23.2","-106.4166666","4.0","COLONIA JUAN CARRASCO MAZATLAN SIN., MX","FM-12","99999","V020","360,1,N,0020,1","22000,1,9,N","010000,1,N,1","+0263,1","+0236,1","10082,1","24,0000,9,1",,,,,"01,1,+01020,9,09,9",,,"02,99,1,01,1,09,1,00450,1,00,1,05,1",,"01,9","999,+0250,9","999,M,+0330,1","120,N,+0260,1","99999,9,10071,1","5,1,005,1,-008,1",,,"SYN130AAXX  09121 76458 32460 23602 10263 20236 30071 40082 55005 81905 91150 333 0740/ 10330 20260 30025 57945 59008 70000 81934 81079;",
"76458099999","2001-09-09T15:00:00","4","23.2","-106.4166666","4.0","COLONIA JUAN CARRASCO MAZATLAN SIN., MX","FM-12","99999","V020","060,1,N,0020,1","22000,1,9,N","020000,1,N,1","+0292,1","+0243,1","10084,1","99,0000,9,1",,,,,"01,1,+00600,9,09,9",,,"01,99,1,01,1,03,1,00800,1,00,1,00,1",,"01,9",,,,"99999,9,10074,1","0,1,003,1,-009,1",,,"SYN106AAXX  09151 76458 32570 10602 10292 20243 30074 40084 50003 81300 91450 333 00500 30/// 57956 59009 81920;","Q01  00002PRCP99"
"76458099999","2001-09-09T21:00:00","4","23.2","-106.4166666","4.0","COLONIA JUAN CARRASCO MAZATLAN SIN., MX","FM-12","99999","V020","210,1,N,0040,1","22000,1,9,N","020000,1,N,1","+0316,1","+0248,1","10079,1","99,0000,9,1",,,,,"01,1,+00840,9,08,9",,,"03,99,1,01,1,08,1,00800,1,00,1,00,1",,"01,9",,,,"99999,9,10068,1","8,1,013,1,-001,1",,,"SYN112AAXX  09211 76458 32570 32104 10316 20248 30068 40079 58013 81800 92050 333 0/5// 30/// 57853 59001 81828 82070;","Q01  00002PRCP99"
"76458099999","2001-09-10T00:00:00","4","23.2","-106.4166666","4.0","COLONIA JUAN CARRASCO MAZATLAN SIN., MX","FM-12","99999","V020","250,1,N,0040,1","22000,1,9,N","020000,1,N,1","+0314,1","+0250,1","10063,1","24,0000,9,1",,,,,"01,1,+00720,9,02,9",,,"01,99,1,01,1,02,1,00800,1,00,1,00,1",,"01,9",,"120,M,+0343,1","180,N,+0259,1","99999,9,10053,1","7,1,015,1,-006,1",,,"SYN124AAXX  10001 76458 32570 12504 10314 20250 30053 40063 57015 81200 92345 333 01100 10343 20259 30/// 57811 59006 70000 81824;",
"76458099999","2001-09-10T03:00:00","4","23.2","-106.4166666","4.0","COLONIA JUAN CARRASCO MAZATLAN SIN., MX","FM-12","99999","V020","300,1,N,0030,1","22000,1,9,N","008000,1,N,1","+0300,1","+0249,1","10079,1","99,0000,9,1",,,,,"01,1,+00600,9,02,9",,,"01,99,1,01,1,01,1,00800,1,00,1,00,1",,"01,9",,,,"99999,9,10069,1","3,1,016,1,-001,1",,,"SYN106AAXX  10031 76458 32558 13003 10300 20249 30069 40079 53016 81100 90245 333 00600 30/// 57860 59001 81820;","Q01  00002PRCP99"
"76458099999","2001-09-10T09:00:00","4","23.2","-106.4166666","4.0","COLONIA JUAN CARRASCO MAZATLAN SIN., MX","FM-12","99999","V020","999,9,9,9999,9","22000,1,9,N","008000,1,N,1","+0282,1","+0241,1","10074,1","99,0000,9,1",,,,,"03,1,+00510,9,02,9",,,"03,99,1,03,1,02,1,00450,1,00,1,00,1",,"01,9",,,,"99999,9,10063,1","7,1,010,1,-010,1",,,"SYN100AAXX  10091 76458 32458 33901 10282 20241 30063 40074 57010 83200 90840 333 0/200 30/// 59010 83817;","Q01  00002PRCP99"
"76458099999","2001-09-10T15:00:00","4","23.2","-106.4166666","4.0","COLONIA JUAN CARRASCO MAZATLAN SIN., MX","FM-12","99999","V020","020,1,N,0020,1","22000,1,9,N","018000,1,N,1","+0286,1","+0256,1","10087,1","99,0000,9,1",,,,,"02,1,+02400,9,07,9",,,"02,99,1,02,1,99,9,99999,9,03,1,00,1",,"01,9",,,,"99999,9,10076,1","2,1,010,1,+002,1",,,"SYN100AAXX  10151 76458 32968 20202 10286 20256 30076 40087 52010 82030 91450 333 0/0/2 30/// 58002 82358;","Q01  00002PRCP99Q02    003SCOLCG"
"76458099999","2001-09-10T18:00:00","4","23.2","-106.4166666","4.0","COLONIA JUAN CARRASCO MAZATLAN SIN., MX","FM-12","99999","V020","270,1,N,0040,1","22000,1,9,N","020000,1,N,1","+0313,1","+0253,1","10082,1","99,0000,9,1",,,,,,,,"02,99,1,02,1,08,1,00800,1,99,9,99,9",,,,,,"99999,9,10071,1","8,1,005,1,+999,9",,,"SYN082AAXX  10181 76458 32570 22704 10313 20253 30071 40082 58005 828// 91750 333 0/6//;","Q01  00002PRCP99"
"76458099999","2001-09-10T21:00:00","4","23.2","-106.4166666","4.0","COLONIA JUAN CARRASCO MAZATLAN SIN., MX","FM-12","99999","V020","300,1,N,0050,1","22000,1,9,N","020000,1,N,1","+0318,1","+0254,1","10069,1","99,0000,9,1",,,,,"01,1,+00780,9,08,9",,,"04,99,1,01,1,08,1,00800,1,03,1,99,9",,"01,9",,,,"99999,9,10058,1","7,1,013,1,-010,1",,,"SYN112AAXX  10211 76458 32570 43005 10318 20254 30058 40069 57013 8183/ 92050 333 0/7// 30/// 57871 59010 81826 83358;","Q01  00002PRCP99"
"76458099999","2001-09-11T00:00:00","4","23.2","-106.4166666","4.0","COLONIA JUAN CARRASCO MAZATLAN SIN., MX","FM-12","99999","V020","300,1,N,0050,1","22000,1,9,N","020000,1,N,1","+0322,1","+0259,1","10067,1","24,0000,9,1",,,,,"01,1,+00780,9,09,9",,,"04,99,1,01,1,09,1,00800,1,00,1,01,1",,"01,9",,"120,M,+0338,1","180,N,+0270,1","99999,9,10056,1","5,1,002,1,+003,1",,,"SYN130AAXX  11001 76458 32570 43005 10322 20259 30056 40067 55002 81901 92345 333 0/100 10338 20270 30/// 57912 58003 70000 81926 83070;",
"76458099999","2001-09-11T03:00:00","4","23.2","-106.4166666","4.0","COLONIA JUAN CARRASCO MAZATLAN SIN., MX","FM-12","99999","V020","310,1,N,0040,1","99999,9,9,N","008000,1,N,1","+0302,1","+0274,1","10069,1","06,0005,9,1",,,"5,1,03,1","5,1,03,1","02,1,+00600,9,09,9",,,"06,99,1,99,9,99,9,00450,1,99,9,99,9",,"01,9",,,,"99999,9,10058,1","3,1,002,1,-011,1",,"13,1","SYN112AAXX  11031 76458 11458 63104 10302 20274 30058 40069 53002 69951 71355 333 0/700 30/// 57970 59011 82920 84612;",
"76458099999","2001-09-11T06:00:00","4","23.2","-106.4166666","4.0","COLONIA JUAN CARRASCO MAZATLAN SIN., MX","FM-12","99999","V020","320,1,N,0010,1","22000,1,9,N","008000,1,N,1","+0290,1","+0233,1","10068,1","99,0000,9,1",,,,,"04,1,+00720,9,05,9",,,"04,99,1,04,1,05,1,00800,1,00,1,00,1","0600,9","01,9",,"240,M,+0338,1","240,N,+0270,1","99999,9,10052,1","4,1,000,1,-016,1",,,"SYN118AAXX  11061 76458 32558 43201 10290 20233 30052 40068 54000 84500 90550 333 0/300 10338 20270 30/// 55100 59016 84624;","Q01  00002PRCP99"
"76458099999","2001-09-11T09:00:00","4","23.2","-106.4166666","4.0","COLONIA JUAN CARRASCO MAZATLAN SIN., MX","FM-12","99999","V020","090,1,N,0010,1","22000,1,9,N","008000,1,N,1","+0278,1","+0257,1","10058,1","99,0000,9,1",,,,,"03,1,+02400,9,07,9",,,"03,99,1,03,1,99,9,99999,9,02,1,00,1",,"01,9",,,,"99999,9,10048,1","7,1,009,1,-015,1",,,"SYN100AAXX  11091 76458 32958 30901 10278 20257 30048 40058 57009 83020 90830 333 0/090 30/// 59015 83358;","Q01  00002PRCP99Q02    003SCOLCG"
"76458099999","2001-09-11T15:00:00","4","23.2","-106.4166666","4.0","COLONIA JUAN CARRASCO MAZATLAN SIN., MX","FM-12","99999","V020","999,9,C,0000,1","02100,1,C,N","016000,1,N,1","+0292,1","+0255,1","10066,1","99,0000,9,1",,,,,"04,1,+02100,9,03,9",,,"07,99,1,07,1,00,1,02250,1,06,1,00,1",,"01,9",,,,"99999,9,10055,1","3,1,010,1,-021,1",,,"SYN106AAXX  11151 76458 32866 70000 10292 20255 30055 40066 53010 87060 91450 333 0/0/0 30/// 59021 84357 83461;","Q01  00002PRCP99"
"76458099999","2001-09-11T21:00:00","4","23.2","-106.4166666","4.0","COLONIA JUAN CARRASCO MAZATLAN SIN., MX","FM-12","99999","V020","260,1,N,0030,1","22000,1,C,N","015000,1,N,1","+0335,1","+0261,1","10049,1","99,0000,9,1",,,,,"04,1,+03600,9,03,9",,,"05,99,1,04,1,00,1,02250,1,03,1,08,1",,"01,9",,,,"99999,9,10038,1","7,1,016,1,-020,1",,,"SYN112AAXX  11211 76458 32865 52603 10335 20261 30038 40049 57016 84038 92045 333 0/099 30/// 57399 59020 84362 81268;","Q01  00002PRCP99"
"76458099999","2001-09-12T00:00:00","4","23.2","-106.4166666","4.0","COLONIA JUAN CARRASCO MAZATLAN SIN., MX","FM-12","99999","V020","260,1,N,0050,1","99999,9,9,N","015000,1,N,1","+0322,1","+0267,1","10037,1","24,0004,9,1",,,,,"03,1,+02400,9,03,9",,,"05,99,1,99,9,00,1,00800,1,03,1,08,1",,"01,9",,"120,M,+0333,1","180,N,+0270,1","99999,9,10026,1","7,1,012,1,-030,1",,,"SYN124AAXX  12001 76458 32565 52605 10322 20267 30026 40037 57012 80038 92350 333 10333 20270 30/// 50175 59030 70004 83358 82270;","Q01+000002SCOTLC"
"76458099999","2001-09-12T03:00:00","4","23.2","-106.4166666","4.0","COLONIA JUAN CARRASCO MAZATLAN SIN., MX","FM-12","99999","V020","260,1,N,0030,1","22000,1,9,N","012000,1,N,1","+0310,1","+0260,1","10023,1","99,0000,9,1",,,,,"02,1,+06000,9,08,9",,,"02,99,1,99,9,00,1,00800,1,00,1,08,1",,"01,9",,,,"99999,9,10013,1","7,1,013,1,-045,1",,,"SYN094AAXX  12031 76458 32562 22603 10310 20260 30013 40023 57013 80008 90250 333 30/// 59045 82270;","Q01+000002SCOTLCQ02  00002PRCP99"
"76458099999","2001-09-12T06:00:00","4","23.2","-106.4166666","4.0","COLONIA JUAN CARRASCO MAZATLAN SIN., MX","FM-12","99999","V020","180,1,N,0030,1","00480,1,9,N","008000,1,N,1","+0310,1","+0271,1","10056,1","99,0000,9,1",,,,,"06,1,+00480,9,05,9",,,"06,99,1,06,1,04,1,00450,1,00,1,00,1","0120,9","01,9",,"240,M,+0333,1","240,N,+0270,1","99999,9,10045,1","2,1,032,1,-012,1",,,"SYN118AAXX  12061 76458 32458 61803 10310 20271 30045 40056 52032 86400 90550 333 0/900 10333 20270 30/// 55020 59012 86616;","Q01  00002PRCP99"
"76458099999","2001-09-12T09:00:00","4","23.2","-106.4166666","4.0","COLONIA JUAN CARRASCO MAZATLAN SIN., MX","FM-12","99999","V020","170,1,N,0030,1","00180,1,9,N","008000,1,N,1","+0245,1","+0230,1","10087,1","03,0540,9,1",,,,,"08,1,+00180,9,09,9",,,"08,99,1,08,1,03,1,00150,1,00,1,00,1",,"11,9",,,,"99999,9,10076,1","2,1,031,1,+028,1",,,"SYN106AAXX  12091 76458 21258 81703 10245 20230 30076 40087 52031 88300 90848 333 0/800 32/// 58028 60547 88906;",
"76458099999","2001-09-12T12:00:00","4","23.2","-106.4166666","4.0","COLONIA JUAN CARRASCO MAZATLAN SIN., MX","FM-12","99999","V020","999,9,C,0000,1","00270,1,9,N","008000,1,N,1","+0246,1","+0224,1","10056,1","03,0541,9,1","24,0547,9,1",,"6,1,06,1","5,1,06,1","08,1,+00270,9,05,9",,,"08,99,1,08,1,05,1,00250,1,00,1,00,1",,"11,9","999,+0230,9","999,M,+0333,1","120,N,+0239,1","99999,9,10045,1","7,1,030,1,+001,1",,"50,1","SYN130AAXX  12121 76458 /1358 80000 10246 20224 30045 40056 57030 60547 75065 88500 91155 333 0//00 10333 20239 32023 58001 70547 88609;",
"76458099999","2001-09-12T15:00:00","4","23.2","-106.4166666","4.0","COLONIA JUAN CARRASCO MAZATLAN SIN., MX","FM-12","99999","V020","999,9,C,0000,1","02100,1,C,N","020000,1,N,1","+0265,1","+0236,1","10082,1","03,0005,9,1",,,"5,1,03,1","5,1,03,1","02,1,+02400,9,03,9",,,"07,99,1,07,1,03,1,02250,1,99,9,00,1",,"09,9",,,,"99999,9,10071,1","2,1,025,1,-016,1",,"02,1","SYN118AAXX  12151 76458 21870 70000 10265 20236 30071 40082 52025 70255 87300 91450 333 0/0/0 31/// 59016 69957 82358 85462;","Q01+000002SCOMCG"
"76458099999","2001-09-12T18:00:00","4","23.2","-106.4166666","4.0","COLONIA JUAN CARRASCO MAZATLAN SIN., MX","FM-12","99999","V020","999,9,C,0000,1","03600,1,9,N","020000,1,N,1","+0318,1","+0263,1","10083,1","99,0000,2,1",,,,,"07,1,+03600,9,07,9",,,"07,99,1,07,1,00,1,02250,1,03,1,00,1",,"09,9",,"120,M,+0329,1","240,N,+0239,1","99999,9,10072,1","0,1,001,1,+018,1",,,"SYN118AAXX  12181 76458 32870 70000 10318 20263 30072 40083 50001 87030 91750 333 0/090 10329 20239 31/// 57399 58018 87362;",
"76458099999","2001-09-13T03:00:00","4","23.2","-106.4166666","4.0","COLONIA JUAN CARRASCO MAZATLAN SIN., MX","FM-12","99999","V020","130,1,N,0050,1","00120,1,C,N","008000,1,N,1","+0268,1","+0252,1","10114,1","03,0051,9,1",,,"6,1,03,1","6,1,03,1","03,1,+00600,9,09,9",,,"08,99,1,08,1,09,1,00150,1,00,1,00,1",,"11,9",,,,"99999,9,10103,1","2,1,028,1,+090,1",,"29,1","SYN124AAXX  13031 76458 11258 81305 10268 20252 30103 40114 52028 60057 72966 88900 90245 333 0/700 32/// 57970 58090 83920 85607;",
"76458099999","2001-09-13T09:00:00","4","23.2","-106.4166666","4.0","COLONIA JUAN CARRASCO MAZATLAN SIN., MX","FM-12","99999","V020","170,1,N,0010,1","00360,1,9,N","008000,1,N,1","+0258,1","+9999,9","10109,1","99,0000,9,1",,,,,"06,1,+00360,9,05,9",,,"06,99,1,06,1,04,1,00450,1,00,1,00,1",,"09,9",,,,"99999,9,10103,1","7,1,005,1,+030,1",,,"SYN100AAXX  13091 76458 32458 61701 10258 20268 30103 40109 57005 86400 90835 333 0/700 31/// 58030 86612;","Q01  00002PRCP99"
"76458099999","2001-09-13T21:00:00","4","23.2","-106.4166666","4.0","COLONIA JUAN CARRASCO MAZATLAN SIN., MX","FM-12","99999","V020","170,1,N,0040,1","22000,1,C,N","020000,1,N,1","+0316,1","+0237,1","10115,1","99,0000,9,1",,,,,"01,1,+00990,9,08,9",,,"05,99,1,01,1,08,1,00800,1,00,1,06,1",,"01,9",,,,"99999,9,10104,1","7,1,022,1,+035,1",,,"SYN112AAXX  13211 76458 32570 51704 10316 20237 30104 40115 57022 81806 92050 333 0/4// 30/// 57843 58035 81833 84270;","Q01  00002PRCP99"
"76458099999","2001-09-14T03:00:00","4","23.2","-106.4166666","4.0","COLONIA JUAN CARRASCO MAZATLAN SIN., MX","FM-12","99999","V020","310,1,N,0040,1","22000,1,9,N","008000,1,N,1","+0288,1","+0241,1","10115,1","99,0000,9,1",,,,,"00,1,+99999,9,99,9",,,"00,99,1,00,1,00,1,99999,9,00,1,00,1",,"09,9",,,,"99999,9,10104,1","2,1,007,1,+001,1",,,"SYN082AAXX  14031 76458 32958 03104 10288 20241 30104 40115 52007 90245 333 31/// 58001;","Q01  00002PRCP99"
"76458099999","2001-09-14T06:00:00","4","23.2","-106.4166666","4.0","COLONIA JUAN CARRASCO MAZATLAN SIN., MX","FM-12","99999","V020","220,1,N,0010,1","22000,1,9,N","008000,1,N,1","+0268,1","+0241,1","10121,1","99,0000,9,1",,,,,"00,1,+99999,9,99,9",,,"00,99,1,00,1,00,1,99999,9,00,1,00,1","0150,9","01,9",,"240,M,+0335,1","240,N,+0250,1","99999,9,10116,1","2,1,012,1,+008,1",,,"SYN100AAXX  14061 76458 32958 02201 10268 20241 30116 40121 52012 90555 333 10335 20250 30/// 55025 58008;","Q01  00002PRCP99"
"76458099999","2001-09-14T09:00:00","4","23.2","-106.4166666","4.0","COLONIA JUAN CARRASCO MAZATLAN SIN., MX","FM-12","99999","V020","999,9,C,0000,1","22000,1,9,N","008000,1,N,1","+0260,1","+0238,1","10119,1","99,0000,9,1",,,,,"00,1,+99999,9,99,9",,,"00,99,1,00,1,00,1,99999,9,00,1,00,1",,"01,9",,,,"99999,9,10108,1","7,1,008,1,+005,1",,,"SYN082AAXX  14091 76458 32958 00000 10260 20238 30108 40119 57008 90830 333 30/// 58005;","Q01  00002PRCP99"
"76458099999","2001-09-14T21:00:00","4","23.2","-106.4166666","4.0","COLONIA JUAN CARRASCO MAZATLAN SIN., MX","FM-12","99999","V020","270,1,N,0040,1","22000,1,9,N","020000,1,N,1","+0315,1","+0233,1","10092,1","99,0000,9,1",,,,,"01,1,+01020,9,09,9",,,"03,99,1,01,1,03,1,01250,1,00,1,08,1",,"01,9",,,,"99999,9,10081,1","7,1,018,1,-023,1",,,"SYN112AAXX  14211 76458 32670 32704 10315 20233 30081 40092 57018 81308 92045 333 00109 30/// 57914 59023 81934 82268;","Q01  00002PRCP99"
"76458099999","2001-09-15T00:00:00","4","23.2","-106.4166666","4.0","COLONIA JUAN CARRASCO MAZATLAN SIN., MX","FM-12","99999","V020","310,1,N,0050,1","22000,1,9,N","020000,1,N,1","+0308,1","+0240,1","10079,1","24,0000,9,1",,,,,"01,1,+00540,9,09,9",,,"04,99,1,01,1,09,1,00800,1,00,1,02,1",,"01,9",,"120,M,+0335,1","180,N,+0245,1","99999,9,10069,1","7,1,012,1,-018,1",,,"SYN136AAXX  15001 76458 32570 43105 10308 20240 30069 40079 57012 81902 92345 333 0/709 10335 20245 30/// 50531 57972 59018 70000 81918 83070;","Q01  00002PRCP99Q02  00003PRCP99"
"76458099999","2001-09-15T03:00:00","4","23.2","-106.4166666","4.0","COLONIA JUAN CARRASCO MAZATLAN SIN., MX","FM-12","99999","V020","340,1,N,0050,1","22000,1,9,N","008000,1,N,1","+0294,1","+0234,1","10087,1","99,0000,9,1",,,,,"02,1,+06000,9,01,9",,,"02,99,1,00,1,00,1,99999,9,00,1,02,1",,"01,9",,,,"99999,9,10076,1","3,1,007,1,-028,1",,,"SYN094AAXX  15031 76458 32958 23405 10294 20234 30076 40087 53007 80002 90245 333 30/// 59028 82070;","Q01  00002PRCP99"
"76458099999","2001-09-15T09:00:00","4","23.2","-106.4166666","4.0","COLONIA JUAN CARRASCO MAZATLAN SIN., MX","FM-12","99999","V020","999,9,C,0000,1","22000,1,9,N","008000,1,N,1","+0270,1","+0237,1","10094,1","99,0000,9,1",,,,,"00,1,+99999,9,99,9",,,"00,99,1,00,1,00,1,99999,9,00,1,00,1",,"01,9",,,,"99999,9,10083,1","7,1,005,1,-025,1",,,"SYN082AAXX  15091 76458 32858 00000 10270 20237 30083 40094 57005 90840 333 30/// 59025;","Q01  00002PRCP99"
"76458099999","2001-09-15T12:00:00","4","23.2","-106.4166666","4.0","COLONIA JUAN CARRASCO MAZATLAN SIN., MX","FM-12","99999","V020","999,9,C,0000,1","22000,1,9,N","008000,1,N,1","+0258,1","+0236,1","10094,1","24,0000,9,1",,,,,"00,1,+99999,9,99,9",,,"00,99,1,00,1,00,1,99999,9,00,1,00,1",,"01,9","999,+0240,9","999,M,+0335,1","120,N,+0257,1","99999,9,10083,1","5,1,000,1,-013,1",,,"SYN100AAXX  15121 76458 32958 00000 10258 20236 30083 40094 55000 91140 333 10335 20257 30024 59013 70000;","Q01  00002PRCP24"
"76458099999","2001-09-15T18:00:00","4","23.2","-106.4166666","4.0","COLONIA JUAN CARRASCO MAZATLAN SIN., MX","FM-12","99999","V020","270,1,N,0040,1","22000,1,9,N","020000,1,N,1","+0320,1","+0245,1","10108,1","99,0000,9,1",,,,,"01,1,+00930,9,02,9",,,"01,99,1,01,1,01,1,00800,1,00,1,00,1",,"01,9",,"120,M,+0335,1","240,N,+0255,1","99999,9,10097,1","0,1,005,1,-002,1",,,"SYN118AAXX  15181 76458 32570 12704 10320 20245 30097 40108 50005 81100 91745 333 0/800 10335 20255 30/// 57889 59002 81831;","Q01  00002PRCP99"
"76458099999","2001-09-16T03:00:00","4","23.2","-106.4166666","4.0","COLONIA JUAN CARRASCO MAZATLAN SIN., MX","FM-12","99999","V020","320,1,N,0040,1","03600,1,C,N","012000,1,N,1","+0300,1","+0258,1","10096,1","99,0000,9,1",,,,,"01,1,+00540,9,06,9",,,"07,99,1,01,1,03,1,00450,1,02,1,00,1",,"01,9",,,,"99999,9,10085,1","2,1,016,1,+009,1",,,"SYN106AAXX  16031 76458 32462 73204 10300 20258 30085 40096 52016 81320 90245 333 0/710 30/// 58009 81618 87461;","Q01  00002PRCP99"
"76458099999","2001-09-16T06:00:00","4","23.2","-106.4166666","4.0","COLONIA JUAN CARRASCO MAZATLAN SIN., MX","FM-12","99999","V020","240,1,N,0030,1","22000,1,9,N","010000,1,N,1","+0292,1","+0252,1","10101,1","99,0000,9,1",,,,,"01,1,+06000,9,01,9",,,"01,99,1,00,1,00,1,99999,9,00,1,03,1",,"01,9",,"240,M,+0336,1","240,N,+0255,1","99999,9,10090,1","3,1,005,1,+000,1",,,"SYN106AAXX  16061 76458 32460 12403 10292 20252 30090 40101 53005 80003 90550 333 10336 20255 30/// 58000 81070;","Q01+004502SCOLCBQ02  00002PRCP99"
"76458099999","2001-09-16T09:00:00","4","23.2","-106.4166666","4.0","COLONIA JUAN CARRASCO MAZATLAN SIN., MX","FM-12","99999","V020","260,1,N,0040,1","22000,1,9,N","008000,1,N,1","+0273,1","+0242,1","10098,1","99,0000,9,1",,,,,"01,1,+00390,9,08,9",,,"02,99,1,01,1,08,1,00450,1,03,1,99,9",,"01,9",,,,"99999,9,10087,1","5,1,003,1,+004,1",,,"SYN112AAXX  16091 76458 32458 22604 10273 20242 30087 40098 55003 8183/ 90850 333 0/5// 30/// 57852 58004 81813 81358;","Q01  00002PRCP99"
"76458099999","2001-09-16T12:00:00","4","23.2","-106.4166666","4.0","COLONIA JUAN CARRASCO MAZATLAN SIN., MX","FM-12","99999","V020","290,1,N,0020,1","22000,1,9,N","008000,1,N,1","+0266,1","+0239,1","10082,1","24,0000,9,1",,,"9,1,06,1","9,1,06,1","01,1,+00330,9,09,9",,,"03,99,1,01,1,09,1,00450,1,00,1,00,1",,"01,9","999,+0250,9","999,M,+0336,1","120,N,+0266,1","99999,9,10071,1","7,1,016,1,-012,1",,"13,1","SYN136AAXX  16121 76458 31458 32902 10266 20239 30071 40082 57016 71399 81900 91150 333 00400 10336 20266 30025 57944 59012 70000 81911 82611;",
"76458099999","2001-09-16T15:00:00","4","23.2","-106.4166666","4.0","COLONIA JUAN CARRASCO MAZATLAN SIN., MX","FM-12","99999","V020","999,9,C,0000,1","22000,1,9,N","018000,1,N,1","+0294,1","+0248,1","10106,1","99,0000,9,1",,,,,"01,1,+00570,9,08,9","01,1,+02700,9,03,9",,"03,99,1,01,1,02,1,00450,1,03,1,01,1",,"01,9",,,,"99999,9,10095,1","2,1,024,1,-007,1",,,"SYN118AAXX  16151 76458 32468 30000 10294 20248 30095 40106 52050 81231 91455 333 0247/ 30/// 57846 59007 81819 81359 81079;","Q01+000502APC3  Q02  00002PRCP99"
"76458099999","2001-09-16T21:00:00","4","23.2","-106.4166666","4.0","COLONIA JUAN CARRASCO MAZATLAN SIN., MX","FM-12","99999","V020","240,1,N,0050,1","22000,1,9,N","010000,1,N,1","+0322,1","+0259,1","10099,1","99,0000,9,1",,,,,"02,1,+00780,9,02,9",,,"02,99,1,02,1,08,1,00800,1,99,9,99,9",,"01,9",,,,"99999,9,10088,1","7,1,012,1,+011,1",,,"SYN106AAXX  16211 76458 32560 22405 10322 20259 30088 40099 57012 828// 92050 333 0/2// 30/// 57823 58011 82826;","Q01  00002PRCP99"
"76458099999","2001-09-17T00:00:00","4","23.2","-106.4166666","4.0","COLONIA JUAN CARRASCO MAZATLAN SIN., MX","FM-12","99999","V020","300,1,N,0050,1","22000,1,9,N","020000,1,N,1","+0320,1","+0262,1","10082,1","24,0000,9,1",,,,,"02,1,+00720,9,06,9",,,"03,99,1,02,1,05,1,00800,1,00,1,06,1",,"01,9",,"120,M,+0339,1","180,N,+0260,1","99999,9,10071,1","7,1,017,1,+002,1",,,"SYN136AAXX  17001 76458 32570 33005 10320 20262 30071 40082 57017 82506 92345 333 0/609 10339 20260 30/// 50591 57660 58002 70000 82624 81070;","Q01  00002PRCP99Q02  00003PRCP99"
"76458099999","2001-09-17T03:00:00","4","23.2","-106.4166666","4.0","COLONIA JUAN CARRASCO MAZATLAN SIN., MX","FM-12","99999","V020","310,1,N,0030,1","22000,1,9,N","008000,1,N,1","+0304,1","+0268,1","10094,1","99,0000,9,1",,,,,"01,1,+00450,9,02,9",,,"01,99,1,01,1,02,1,00800,1,00,1,00,1",,"01,9",,,,"99999,9,10083,1","2,1,012,1,-002,1",,,"SYN106AAXX  17031 76458 32558 13103 10304 20268 30083 40094 52012 81200 90245 333 0/600 30/// 57870 59002 81815;","Q01  00002PRCP99"
"76458099999","2001-09-17T18:00:00","4","23.2","-106.4166666","4.0","COLONIA JUAN CARRASCO MAZATLAN SIN., MX","FM-12","99999","V020","340,1,N,0040,1","22000,1,9,N","020000,1,N,1","+0314,1","+0264,1","10101,1","99,0000,9,1",,,,,"02,1,+00630,9,02,9",,,"02,99,1,02,1,08,1,00800,1,99,9,99,9",,"01,9",,"120,M,+0330,1","240,N,+0275,1","99999,9,10090,1","2,1,001,1,-010,1",,,"SYN118AAXX  17181 76458 32570 23404 10314 20264 30090 40101 52001 828// 91750 333 0/6// 10330 20275 30/// 57863 59010 82821;","Q01  00002PRCP99"
"76458099999","2001-09-18T00:00:00","4","23.2","-106.4166666","4.0","COLONIA JUAN CARRASCO MAZATLAN SIN., MX","FM-12","99999","V020","310,1,N,0040,1","22000,1,9,N","020000,1,N,1","+0322,1","+0259,1","10074,1","24,0000,9,1",,,,,"01,1,+00900,9,09,9",,,"03,99,1,02,1,09,1,00800,1,00,1,02,1",,"01,9",,"120,M,+0342,1","180,N,+0274,1","99999,9,10063,1","7,1,010,1,-008,1",,,"SYN136AAXX  18001 76458 32570 33104 10322 20259 30063 40074 57010 82902 92345 333 0/209 10342 20274 30/// 50471 56921 59008 70000 81930 81826;","Q01  00002PRCP99Q02  00003PRCP99"
"76458099999","2001-09-18T03:00:00","4","23.2","-106.4166666","4.0","COLONIA JUAN CARRASCO MAZATLAN SIN., MX","FM-12","99999","V020","320,1,N,0040,1","02400,1,9,N","008000,1,N,1","+0306,1","+0261,1","10081,1","99,0000,9,1",,,,,"08,1,+02400,9,01,9",,,"08,99,1,08,1,00,1,02250,1,02,1,00,1",,"01,9",,,,"99999,9,10070,1","3,1,007,1,-013,1",,,"SYN094AAXX  18031 76458 32858 83204 10306 20261 30070 40081 53007 88020 90235 333 30/// 59013 88458;","Q01  00002PRCP99"
"76458099999","2001-09-18T15:00:00","4","23.2","-106.4166666","4.0","COLONIA JUAN CARRASCO MAZATLAN SIN., MX","FM-12","99999","V020","999,9,C,0000,1","00360,1,9,N","015000,1,N,1","+0296,1","+0266,1","10083,1","99,0000,9,1",,,,,"07,1,+00360,9,02,9",,,"07,99,1,07,1,02,1,00450,1,99,9,99,9",,"01,9",,,,"99999,9,10072,1","3,1,006,1,-007,1",,,"SYN106AAXX  18151 76458 32465 70000 10296 20266 30072 40083 53006 872// 91450 333 006// 30/// 57869 59007 87812;","Q01  00002PRCP99"
"76458099999","2001-09-18T21:00:00","4","23.2","-106.4166666","4.0","COLONIA JUAN CARRASCO MAZATLAN SIN., MX","FM-12","99999","V020","220,1,N,0050,1","00750,1,9,N","020000,1,N,1","+0325,1","+0267,1","10070,1","99,0000,9,1",,,,,"05,1,+00750,9,02,9",,,"05,99,1,05,1,02,1,00800,1,00,1,00,1",,"01,9",,,,"99999,9,10059,1","7,1,019,1,-014,1",,,"SYN106AAXX  18211 76458 32570 52205 10325 20267 30059 40070 57019 85200 92040 333 01500 30/// 57851 59014 85825;","Q01  00002PRCP99"
"76458099999","2001-09-19T00:00:00","4","23.2","-106.4166666","4.0","COLONIA JUAN CARRASCO MAZATLAN SIN., MX","FM-12","99999","V020","250,1,N,0060,1","22000,1,9,N","020000,1,N,1","+0317,1","+0257,1","10063,1","24,0004,9,1","99,0000,9,1",,,,"02,1,+00750,9,08,9",,,"03,99,1,02,1,08,1,00800,1,03,1,99,9",,"01,9",,"120,M,+0345,1","180,N,+0287,1","99999,9,10053,1","5,1,006,1,-010,1",,,"SYN136AAXX  19001 76458 32570 32506 10317 20257 30053 40063 55006 8283/ 92350 333 0/5// 10345 20287 30/// 50465 57851 59010 70004 82825 81358;","Q01  00002PRCP99"
"76458099999","2001-09-19T03:00:00","4","23.2","-106.4166666","4.0","COLONIA JUAN CARRASCO MAZATLAN SIN., MX","FM-12","99999","V020","220,1,N,0040,1","22000,1,9,N","012000,1,N,1","+0304,1","+0259,1","10076,1","99,0000,9,1",,,,,"02,1,+00540,9,06,9",,,"04,99,1,99,9,04,1,00450,1,03,1,99,9",,"01,9",,,,"99999,9,10065,1","2,1,012,1,-005,1",,,"SYN106AAXX  19031 76458 32462 42204 10304 20259 30065 40076 52012 8043/ 90250 333 0/0// 30/// 59005 82618 82358;","Q01+000002SCOTLCQ02  00002PRCP99"
"76458099999","2001-09-19T09:00:00","4","23.2","-106.4166666","4.0","COLONIA JUAN CARRASCO MAZATLAN SIN., MX","FM-12","99999","V020","360,1,N,0050,1","00450,1,9,N","010000,1,N,1","+0262,1","+0225,1","10092,1","99,0000,9,1",,,,,"07,1,+00450,9,02,9",,,"07,99,1,07,1,07,1,00450,1,00,1,00,1",,"01,9",,,,"99999,9,10082,1","4,1,000,1,+999,9",,,"SYN106AAXX  19091 76458 32460 73605 10262 20225 30082 40092 54002 87700 90840 333 0//00 30/// 578/1 58/// 87815;","Q01  00002PRCP99"
"76458099999","2001-09-19T21:00:00","4","23.2","-106.4166666","4.0","COLONIA JUAN CARRASCO MAZATLAN SIN., MX","FM-12","99999","V020","250,1,N,0040,1","22000,1,9,N","020000,1,N,1","+0320,1","+0259,1","10087,1","99,0000,9,1",,,,,"04,1,+00750,9,02,9",,,"04,99,1,04,1,02,1,00800,1,00,1,00,1",,"01,9",,,,"99999,9,10076,1","7,1,008,1,+017,1",,,"SYN106AAXX  19211 76458 32570 42504 10320 20259 30076 40087 57008 84200 92050 333 00500 30/// 57859 58017 84825;","Q01  00002PRCP99"
"76458099999","2001-09-20T00:00:00","4","23.2","-106.4166666","4.0","COLONIA JUAN CARRASCO MAZATLAN SIN., MX","FM-12","99999","V020","250,1,N,0040,1","22000,1,9,N","020000,1,N,1","+0308,1","+0246,1","10086,1","24,0002,9,1","99,0000,9,1",,,,,,,"03,99,1,03,1,05,1,00800,1,00,1,00,1",,"01,9",,"120,M,+0337,1","180,N,+0257,1","99999,9,10075,1","5,1,001,1,+022,1",,,"SYN130AAXX  20001 76458 32570 32504 10308 20246 30075 40086 55001 83500 92345 333 0/100 10337 20257 30/// 50461 57610 58022 70002 83626;","Q01  00002PRCP99"
"76458099999","2001-09-20T03:00:00","4","23.2","-106.4166666","4.0","COLONIA JUAN CARRASCO MAZATLAN SIN., MX","FM-12","99999","V020","240,1,N,0030,1","00600,1,9,N","008000,1,N,1","+0298,1","+0250,1","10099,1","99,0000,9,1",,,"0,1,03,1","0,1,03,1","05,1,+00600,9,08,9",,,"06,99,1,05,1,02,1,00800,1,00,1,00,1",,"01,9",,,,"99999,9,10088,1","2,1,011,1,+022,1",,"13,1","SYN118AAXX  20031 76458 31558 62403 10298 20250 30088 40099 52011 71300 85200 90245 333 0/700 30/// 57870 58022 85820 81925;","Q01  00002PRCP99"
"76458099999","2001-09-20T12:00:00","4","23.2","-106.4166666","4.0","COLONIA JUAN CARRASCO MAZATLAN SIN., MX","FM-12","99999","V020","250,1,N,0050,1","03600,1,C,N","008000,1,N,1","+0240,1","+0226,1","10101,1","24,0269,9,1",,,,,"04,1,+00180,9,08,9",,,"06,99,1,04,1,08,1,00150,1,03,1,99,9",,"09,9","999,+0220,9","999,M,+0336,1","120,N,+9999,9","99999,9,10090,1","7,1,004,1,+007,1",,,"SYN130AAXX  20121 76458 32258 62505 10240 20226 30090 40101 57004 8483/ 91150 333 0/3// 10336 20248 31022 57831 58007 70269 84806 82358;","Q01 +02482ATMN  "
"76458099999","2001-09-20T15:00:00","4","23.2","-106.4166666","4.0","COLONIA JUAN CARRASCO MAZATLAN SIN., MX","FM-12","99999","V020","260,1,N,0030,1","02400,1,9,N","018000,1,N,1","+0260,1","+0235,1","10111,1","99,0000,9,1",,,,,"06,1,+02400,9,03,9",,,"07,99,1,99,9,00,1,00450,1,03,1,04,1",,"01,9",,,,"99999,9,10100,1","2,1,008,1,+011,1",,,"SYN106AAXX  20151 76458 32468 72603 10260 20235 30100 40111 52008 80034 91450 333 0/0// 30/// 58011 86358 81070;","Q01+000002SCOTLCQ02  00002PRCP99"
"76458099999","2001-09-20T21:00:00","4","23.2","-106.4166666","4.0","COLONIA JUAN CARRASCO MAZATLAN SIN., MX","FM-12","99999","V020","270,1,N,0040,1","22000,1,9,N","020000,1,N,1","+0314,1","+0244,1","10092,1","99,0000,9,1",,,,,"01,1,+00870,9,08,9",,,"03,99,1,01,1,02,1,00800,1,03,1,00,1",,"01,9",,,,"99999,9,10082,1","7,1,015,1,+006,1",,,"SYN112AAXX  20211 76458 32570 32704 10314 20244 30082 40092 57015 81230 92055 333 021/0 30/// 57816 58006 81829 82359;","Q01  00002PRCP99"
"76458099999","2001-09-21T00:00:00","4","23.2","-106.4166666","4.0","COLONIA JUAN CARRASCO MAZATLAN SIN., MX","FM-12","99999","V020","300,1,N,0040,1","22000,1,9,N","020000,1,N,1","+0308,1","+0252,1","10084,1","24,0149,9,1",,,,,"01,1,+00690,9,09,9",,,"01,99,1,01,1,09,1,00800,1,00,1,00,1",,"01,9",,"120,M,+0333,1","180,N,+0240,1","99999,9,10073,1","5,1,011,1,-002,1",,,"SYN124AAXX  21001 76458 32570 13004 10308 20252 30073 40084 55011 81900 92345 333 0/100 10333 20240 30/// 57914 59002 70149 81923;",
"76458099999","2001-09-21T03:00:00","4","23.2","-106.4166666","4.0","COLONIA JUAN CARRASCO MAZATLAN SIN., MX","FM-12","99999","V020","310,1,N,0030,1","22000,1,9,N","008000,1,N,1","+0298,1","+0256,1","10099,1","99,0000,9,1",,,,,"00,1,+99999,9,99,9",,,"00,99,1,00,1,00,1,99999,9,00,1,00,1",,"01,9",,,,"99999,9,10088,1","2,1,015,1,+000,1",,,"SYN082AAXX  21031 76458 32958 03103 10298 20256 30088 40099 52015 90245 333 30/// 58000;","Q01  00002PRCP99"
"76458099999","2001-09-21T06:00:00","4","23.2","-106.4166666","4.0","COLONIA JUAN CARRASCO MAZATLAN SIN., MX","FM-12","99999","V020","999,9,C,0000,1","22000,1,9,N","008000,1,N,1","+0280,1","+9999,9","10112,1","99,0000,9,1",,,,,"00,1,+99999,9,99,9",,,"00,99,1,00,1,00,1,99999,9,00,1,00,1","0510,9","01,9",,"240,M,+0332,1","240,N,+0240,1","99999,9,10101,1","2,1,013,1,+002,1",,,"SYN100AAXX  21061 76458 32958 00000 10280 20295 30101 40112 52013 90600 333 10332 20240 30/// 55085 58002;","Q01  00002PRCP99"
"76458099999","2001-09-21T09:00:00","4","23.2","-106.4166666","4.0","COLONIA JUAN CARRASCO MAZATLAN SIN., MX","FM-12","99999","V020","999,9,C,0000,1","22000,1,9,N","008000,1,N,1","+0274,1","+0258,1","10107,1","99,0000,9,1",,,,,"01,1,+00210,9,02,9",,,"01,99,1,01,1,02,1,00250,1,00,1,00,1",,"01,9",,,,"99999,9,10096,1","7,1,005,1,+001,1",,,"SYN100AAXX  21091 76458 32358 10000 10274 20258 30096 40107 57005 81200 90830 333 01300 30/// 58001 81807;","Q01  00002PRCP99"
"76458099999","2001-09-21T12:00:00","4","23.2","-106.4166666","4.0","COLONIA JUAN CARRASCO MAZATLAN SIN., MX","FM-12","99999","V020","260,1,N,0020,1","22000,1,9,N","008000,1,N,1","+0270,1","+0255,1","10106,1","24,0004,9,1",,,,,"02,1,+00180,9,02,9",,,"02,99,1,02,1,08,1,00150,1,99,9,99,9",,"01,9","999,+0250,9","999,M,+0332,1","120,N,+0268,1","99999,9,10095,1","3,1,001,1,+005,1",,,"SYN124AAXX  21121 76458 32258 22602 10270 20255 30095 40106 53001 828// 91250 333 0/6// 10332 20268 30025 57862 58005 70004 82806;",
"76458099999","2001-09-21T15:00:00","4","23.2","-106.4166666","4.0","COLONIA JUAN CARRASCO MAZATLAN SIN., MX","FM-12","99999","V020","360,1,N,0030,1","22000,1,9,N","020000,1,N,1","+0286,1","+0257,1","10115,1","99,0000,9,1",,,,,"01,1,+06000,9,01,9",,,"01,99,1,00,1,00,1,99999,9,00,1,03,1",,"01,9",,,,"99999,9,10103,1","3,1,008,1,+003,1",,,"SYN100AAXX  21151 76458 32470 13603 10286 20257 30103 40115 53008 80003 91445 333 0/0// 30/// 58003 81070;","Q01+004502SCOLCBQ02  00002PRCP99"
"76458099999","2001-09-21T18:00:00","4","23.2","-106.4166666","4.0","COLONIA JUAN CARRASCO MAZATLAN SIN., MX","FM-12","99999","V020","250,1,N,0030,1","22000,1,9,N","018000,1,N,1","+0318,1","+0256,1","10106,1","99,0000,9,1",,,,,"02,1,+00780,9,08,9",,,"03,99,1,02,1,02,1,00800,1,00,1,06,1",,"01,9",,"120,M,+0336,1","240,N,+0266,1","99999,9,10094,1","7,1,009,1,-002,1",,,"SYN124AAXX  21181 76458 32568 32503 10318 20256 30094 40106 57009 82206 91750 333 001/0 10336 20266 30/// 57814 59002 82826 81068;","Q01  00002PRCP99"
"76458099999","2001-09-21T21:00:00","4","23.2","-106.4166666","4.0","COLONIA JUAN CARRASCO MAZATLAN SIN., MX","FM-12","99999","V020","270,1,N,0030,1","22000,1,9,N","020000,1,N,1","+0321,1","+0253,1","10085,1","99,0000,9,1",,,,,"01,1,+00840,9,02,9",,,"01,99,1,01,1,01,1,00800,1,00,1,00,1",,"01,9",,,,"99999,9,10074,1","7,1,020,1,-008,1",,,"SYN106AAXX  21211 76458 32570 12703 10321 20253 30074 40085 57020 81100 92045 333 0/8// 30/// 57889 59008 81828;","Q01  00002PRCP99"
"76458099999","2001-09-22T00:00:00","4","23.2","-106.4166666","4.0","COLONIA JUAN CARRASCO MAZATLAN SIN., MX","FM-12","99999","V020","300,1,N,0050,1","22000,1,9,N","020000,1,N,1","+0314,1","+0256,1","10079,1","24,0000,9,1",,,,,"02,1,+00720,9,02,9",,,"02,99,1,02,1,02,1,00800,1,00,1,00,1",,"01,9",,"120,M,+0337,1","180,N,+0266,1","99999,9,10068,1","5,1,006,1,-005,1",,,"SYN124AAXX  22001 76458 32570 23005 10314 20256 30068 40079 55006 82200 92345 333 0/600 10337 20266 30/// 57860 59005 70000 82824;",
"76458099999","2001-09-22T03:00:00","4","23.2","-106.4166666","4.0","COLONIA JUAN CARRASCO MAZATLAN SIN., MX","FM-12","99999","V020","320,1,N,0020,1","22000,1,9,N","020000,1,N,1","+0302,1","+0254,1","10092,1","99,0000,9,1",,,"0,1,03,1","0,1,03,1","01,1,+00720,9,09,9",,,"02,99,1,02,1,09,1,00800,1,00,1,00,1",,"01,9",,,,"99999,9,10081,1","2,1,013,1,-007,1",,"13,1","SYN118AAXX  22031 76458 32570 23202 10302 20254 30081 40092 52013 71300 82900 90245 333 0/200 30/// 57920 59007 81924 81820;","Q01  00002PRCP99"
"76458099999","2001-09-22T06:00:00","4","23.2","-106.4166666","4.0","COLONIA JUAN CARRASCO MAZATLAN SIN., MX","FM-12","99999","V020","210,1,N,0020,1","00870,1,9,N","008000,1,N,1","+0274,1","+0204,1","10102,1","99,0000,9,1",,,,,"07,1,+00870,9,05,9",,,"07,99,1,07,1,04,1,00800,1,00,1,00,1","0660,9","01,9",,"240,M,+0337,1","240,N,+0266,1","99999,9,10091,1","2,1,010,1,-010,1",,,"SYN118AAXX  22061 76458 32558 72102 10274 20204 30091 40102 52010 87400 90555 333 0/300 10337 20266 30/// 55110 59010 87629;","Q01  00002PRCP99"
"76458099999","2001-09-22T15:00:00","4","23.2","-106.4166666","4.0","COLONIA JUAN CARRASCO MAZATLAN SIN., MX","FM-12","99999","V020","030,1,N,0020,1","22000,1,C,N","015000,1,N,1","+0267,1","+0231,1","10089,1","99,0000,9,1",,,,,"04,1,+03600,9,03,9",,,"05,99,1,04,1,00,1,02250,1,03,1,08,1",,"01,9",,,,"99999,9,10077,1","5,1,000,1,-076,1",,,"SYN112AAXX  22151 76458 32865 50302 10267 20231 30077 40089 55000 84038 91450 333 0//99 30/// 57399 59076 84362 81268;","Q01  00002PRCP99"
"76458099999","2001-09-22T21:00:00","4","23.2","-106.4166666","4.0","COLONIA JUAN CARRASCO MAZATLAN SIN., MX","FM-12","99999","V020","270,1,N,0040,1","22000,1,9,N","020000,1,N,1","+0310,1","+0260,1","10073,1","99,0000,9,1",,,,,"02,1,+00630,9,08,9",,,"03,99,1,02,1,02,1,00800,1,00,1,09,1",,"09,9",,,,"99999,9,10062,1","7,1,015,1,-012,1",,,"SYN112AAXX  22211 76458 32570 32704 10310 20260 30062 40073 57015 82209 92055 333 0270/ 31/// 57872 59012 82821 81169;","Q01  00002PRCP99"
"76458099999","2001-09-23T00:00:00","4","23.2","-106.4166666","4.0","COLONIA JUAN CARRASCO MAZATLAN SIN., MX","FM-12","99999","V020","280,1,N,0040,1","22000,1,9,N","020000,1,N,1","+0314,1","+0256,1","99999,9","24,0045,9,1",,,,,"01,1,+00840,9,09,9",,,"02,99,1,02,1,09,1,00800,1,00,1,00,1",,"09,9",,"120,M,+0330,1","180,N,+0231,1","99999,9,10057,1","5,1,005,1,-011,1",,,"SYN130AAXX  23001 76458 32570 22804 10314 20256 30057 40168 55005 82900 92350 333 0/100 10330 20231 31/// 57911 59011 70045 81928 81624;","Q01+101683APOSLP"
"76458099999","2001-09-23T03:00:00","4","23.2","-106.4166666","4.0","COLONIA JUAN CARRASCO MAZATLAN SIN., MX","FM-12","99999","V020","320,1,N,0030,1","22000,1,9,N","008000,1,N,1","+0298,1","+0266,1","10070,1","99,0000,9,1",,,,,"03,1,+01800,9,07,9",,,"03,99,1,03,1,99,9,99999,9,06,1,00,1",,"01,9",,,,"99999,9,10060,1","0,1,003,1,-012,1",,,"SYN094AAXX  23031 76458 32958 33203 10298 20266 30060 40070 50003 83060 90245 333 30/// 59012 83356;","Q01+000002SCOLCGQ02  00002PRCP99"
"76458099999","2001-09-23T06:00:00","4","23.2","-106.4166666","4.0","COLONIA JUAN CARRASCO MAZATLAN SIN., MX","FM-12","99999","V020","340,1,N,0020,1","22000,1,9,N","008000,1,N,1","+0272,1","+0235,1","10072,1","99,0000,9,1",,,,,"03,1,+00800,9,02,9",,,"03,99,1,03,1,08,1,00250,1,99,9,99,9",,"01,9",,"240,M,+0330,1","240,N,+0231,1","99999,9,10061,1","8,1,001,1,-030,1",,,"SYN118AAXX  23061 76458 32358 33402 10272 20235 30061 40072 58001 838// 90550 333 0/6// 10330 20231 30/// 57861 59030 83895;","Q01  00002PRCP99"
"76458099999","2001-09-23T09:00:00","4","23.2","-106.4166666","4.0","COLONIA JUAN CARRASCO MAZATLAN SIN., MX","FM-12","99999","V020","350,1,N,0020,1","22000,1,9,N","008000,1,N,1","+0263,1","+0224,1","10070,1","99,0000,9,1",,,,,,,,"02,99,1,02,1,08,1,00450,1,99,9,99,9",,"01,9",,,,"99999,9,10059,1","8,1,002,1,-028,1",,,"SYN106AAXX  23091 76458 32458 23502 10263 20224 30059 40070 58002 828// 90850 333 0/7// 30/// 57872 59028 828//;","Q01  00002PRCP99"
"76458099999","2001-09-23T18:00:00","4","23.2","-106.4166666","4.0","COLONIA JUAN CARRASCO MAZATLAN SIN., MX","FM-12","99999","V020","260,1,N,0030,1","22000,1,9,N","020000,1,N,1","+0316,1","+0243,1","10073,1","99,0000,9,1",,,,,"02,1,+00900,9,08,9",,,"04,99,1,02,1,08,1,00800,1,00,1,09,1",,"01,9",,"120,M,+0337,1","240,N,+0262,1","99999,9,10062,1","7,1,011,1,-015,1",,,"SYN124AAXX  23181 76458 32570 42603 10316 20243 30062 40073 57011 82809 91750 333 0/5// 10337 20262 30/// 57853 59015 82830 82070;","Q01  00002PRCP99"
"76458099999","2001-09-24T00:00:00","4","23.2","-106.4166666","4.0","COLONIA JUAN CARRASCO MAZATLAN SIN., MX","FM-12","99999","V020","240,1,N,0030,1","22000,1,9,N","020000,1,N,1","+0314,1","+0256,1","10045,1","24,9999,9,9",,,,,"02,1,+00720,9,02,9",,,"02,99,1,02,1,02,1,00800,1,00,1,00,1",,"01,9",,"120,M,+0343,1","180,N,+0262,1","99999,9,10034,1","7,1,014,1,-023,1",,,"SYN124AAXX  24001 76458 32570 22403 10314 20256 30034 40045 57014 82200 92345 333 0/100 10343 20262 30/// 57810 59023 79999 82824;","Q01  99992PRCP24"
"76458099999","2001-09-24T03:00:00","4","23.2","-106.4166666","4.0","COLONIA JUAN CARRASCO MAZATLAN SIN., MX","FM-12","99999","V020","270,1,N,0020,1","22000,1,9,N","008000,1,N,1","+0300,1","+0258,1","10058,1","99,0000,9,1",,,,,"01,1,+00540,9,02,9",,,"01,99,1,01,1,01,1,00450,1,00,1,00,1",,"01,9",,,,"99999,9,10047,1","2,1,013,1,-013,1",,,"SYN106AAXX  24031 76458 32458 12702 10300 20258 30047 40058 52013 81100 90245 333 00600 30/// 57860 59013 81818;","Q01  00002PRCP99"
"76458099999","2001-09-24T06:00:00","4","23.2","-106.4166666","4.0","COLONIA JUAN CARRASCO MAZATLAN SIN., MX","FM-12","99999","V020","270,1,N,0010,1","22000,1,9,N","008000,1,N,1","+0290,1","+0264,1","10063,1","99,0000,9,1",,,,,"00,1,+99999,9,99,9",,,"00,99,1,00,1,00,1,99999,9,00,1,00,1","0600,9","01,9",,"240,M,+0343,1","240,N,+0262,1","99999,9,10052,1","2,1,005,1,-008,1",,,"SYN100AAXX  24061 76458 32958 02701 10290 20264 30052 40063 52005 90550 333 10343 20262 30/// 55100 59008;","Q01  00002PRCP99"
"76458099999","2001-09-24T09:00:00","4","23.2","-106.4166666","4.0","COLONIA JUAN CARRASCO MAZATLAN SIN., MX","FM-12","99999","V020","120,1,N,0010,1","00300,1,9,N","008000,1,N,1","+0280,1","+0263,1","10061,1","99,0000,9,1",,,,,"05,1,+00300,9,05,9",,,"05,99,1,05,1,04,1,00250,1,00,1,00,1",,"01,9",,,,"99999,9,10050,1","8,1,002,1,-009,1",,,"SYN100AAXX  24091 76458 32358 51201 10280 20263 30050 40061 58002 85400 90830 333 0/900 30/// 59009 85610;","Q01  00002PRCP99"
"76458099999","2001-09-24T12:00:00","4","23.2","-106.4166666","4.0","COLONIA JUAN CARRASCO MAZATLAN SIN., MX","FM-12","99999","V020","999,9,C,0000,1","00240,1,9,N","010000,1,N,1","+0284,1","+0266,1","10062,1","24,0000,9,1",,,,,"07,1,+00240,9,05,9",,,"07,99,1,07,1,04,1,00800,1,00,1,00,1",,"01,9","999,+0270,9","999,M,+0343,1","120,N,+0282,1","99999,9,10051,1","4,1,000,1,-009,1",,,"SYN118AAXX  24121 76458 32560 70000 10284 20266 30051 40062 54000 87400 91155 333 0/800 10343 20282 30027 59009 70000 87608;",
"76458099999","2001-09-24T15:00:00","4","23.2","-106.4166666","4.0","COLONIA JUAN CARRASCO MAZATLAN SIN., MX","FM-12","99999","V020","999,9,C,0000,1","22000,1,9,N","008000,1,N,1","+0298,1","+0264,1","10069,1","99,0000,9,1",,,,,"01,1,+00420,9,02,9",,,"01,99,1,01,1,01,1,00450,1,00,1,00,1",,"01,9",,,,"99999,9,10058,1","0,1,008,1,-015,1",,,"SYN106AAXX  24151 76458 32458 10000 10298 20264 30058 40069 50008 81100 91455 333 01/00 30/// 57891 59015 81814;","Q01  00002PRCP99"
"76458099999","2001-09-24T18:00:00","4","23.2","-106.4166666","4.0","COLONIA JUAN CARRASCO MAZATLAN SIN., MX","FM-12","99999","V020","270,1,N,0040,1","22000,1,9,N","014000,1,N,1","+0312,1","+0273,1","10064,1","99,0000,9,1",,,,,"02,1,+00480,9,08,9",,,"03,99,1,02,1,08,1,00450,1,00,1,09,1",,"01,9",,"120,M,+0334,1","240,N,+0282,1","99999,9,10053,1","5,1,005,1,-009,1",,,"SYN124AAXX  24181 76458 32464 32704 10312 20273 30053 40064 55005 82809 91750 333 0/6// 10334 20282 30/// 57863 59009 82816 81070;","Q01  00002PRCP99"
"76458099999","2001-09-24T21:00:00","4","23.2","-106.4166666","4.0","COLONIA JUAN CARRASCO MAZATLAN SIN., MX","FM-12","99999","V020","300,1,N,0050,1","22000,1,9,N","020000,1,N,1","+0326,1","+0271,1","10044,1","99,0000,9,1",,,,,"01,1,+00690,9,08,9",,,"02,99,1,01,1,08,1,00800,1,00,1,05,1",,"01,9",,,,"99999,9,10033,1","7,1,020,1,-015,1",,,"SYN112AAXX  24211 76458 32570 23005 10326 20271 30033 40044 57020 81805 92050 333 0/7// 30/// 57873 59015 81823 81070;","Q01  00002PRCP99"
"76458099999","2001-09-25T00:00:00","4","23.2","-106.4166666","4.0","COLONIA JUAN CARRASCO MAZATLAN SIN., MX","FM-12","99999","V020","290,1,N,0040,1","22000,1,9,N","008000,1,N,1","+0324,1","+0275,1","10030,1","24,0000,9,1",,,,,"01,1,+06000,9,08,9",,,"01,99,1,99,9,00,1,99999,9,00,1,08,1",,"01,9",,"120,M,+0342,1","180,N,+0282,1","99999,9,10020,1","7,1,042,1,-014,1",,,"SYN118AAXX  25001 76458 32958 12904 10324 20275 30020 40030 57042 80008 92345 333 10342 20282 30/// 50311 59014 70000 81270;","Q01+000002SCOTLC"
"76458099999","2001-09-25T03:00:00","4","23.2","-106.4166666","4.0","COLONIA JUAN CARRASCO MAZATLAN SIN., MX","FM-12","99999","V020","300,1,N,0040,1","22000,1,9,N","008000,1,N,1","+0302,1","+0268,1","10041,1","99,0000,9,1",,,,,"00,1,+99999,9,99,9",,,"00,99,1,00,1,00,1,99999,9,00,1,00,1",,"01,9",,,,"99999,9,10031,1","2,1,011,1,-016,1",,,"SYN082AAXX  25031 76458 32958 03004 10302 20268 30031 40041 52011 90245 333 30/// 59016;","Q01  00002PRCP99"
"76458099999","2001-09-25T06:00:00","4","23.2","-106.4166666","4.0","COLONIA JUAN CARRASCO MAZATLAN SIN., MX","FM-12","99999","V020","350,1,N,0010,1","22000,1,9,N","008000,1,N,1","+0220,1","+9999,9","10041,1","99,0000,9,1",,,,,"00,1,+99999,9,99,9",,,"00,99,1,00,1,00,1,99999,9,00,1,00,1","0630,9","01,9",,"240,M,+0342,1","240,N,+9999,9","99999,9,10030,1","4,1,000,1,-022,1",,,"SYN100AAXX  25061 76458 32958 03501 10220 20264 30030 40041 54000 90548 333 10342 20282 30/// 55105 59022;","Q01  00002PRCP99Q02 +02822ATMN  "
"76458099999","2001-09-25T09:00:00","4","23.2","-106.4166666","4.0","COLONIA JUAN CARRASCO MAZATLAN SIN., MX","FM-12","99999","V020","090,1,N,0010,1","22000,1,9,N","008000,1,N,1","+0284,1","+0263,1","10045,1","99,0000,9,1",,,,,"02,1,+00270,9,05,9",,,"02,99,1,02,1,04,1,00150,1,00,1,00,1",,"01,9",,,,"99999,9,10035,1","2,1,005,1,-015,1",,,"SYN100AAXX  25091 76458 32258 20901 10284 20263 30035 40045 52005 82400 90830 333 0/900 30/// 59015 82609;","Q01  00002PRCP99"
"76458099999","2001-09-25T15:00:00","4","23.2","-106.4166666","4.0","COLONIA JUAN CARRASCO MAZATLAN SIN., MX","FM-12","99999","V020","140,1,N,0020,1","22000,1,9,N","008000,1,N,1","+0306,1","+0279,1","10059,1","99,0000,9,1",,,"4,1,03,1","0,1,03,1","01,1,+00330,9,08,9",,,"04,99,1,01,1,02,1,00250,1,03,1,00,1",,"01,9",,,,"99999,9,10047,1","2,1,010,1,-011,1",,"05,1","SYN118AAXX  25151 76458 31358 41402 10306 20279 30047 40059 52010 70540 81230 91445 333 0/7// 30/// 57879 59011 81811 83362;","Q01  00002PRCP99"
"76458099999","2001-09-25T21:00:00","4","23.2","-106.4166666","4.0","COLONIA JUAN CARRASCO MAZATLAN SIN., MX","FM-12","99999","V020","999,9,9,9999,9","22000,1,9,N","016000,1,N,1","+0324,1","+0279,1","10044,1","99,0000,9,1",,,"4,1,03,1","4,1,03,1","01,1,+00570,9,09,9",,,"03,99,1,01,1,03,1,00450,1,03,1,00,1",,"01,9",,,,"99999,9,10034,1","7,1,020,1,+001,1",,"05,1","SYN118AAXX  25211 76458 31466 33/03 10324 20279 30034 40044 57020 70544 81330 92045 333 041/0 30/// 57916 58001 81919 82359;","Q01  00002PRCP99"
"76458099999","2001-09-26T00:00:00","4","23.2","-106.4166666","4.0","COLONIA JUAN CARRASCO MAZATLAN SIN., MX","FM-12","99999","V020","220,1,N,0050,1","09000,1,9,N","018000,1,N,1","+0324,1","+0269,1","99999,9","24,0000,9,1",,,,,"02,1,+00690,9,08,9",,,"06,99,1,02,1,08,1,00800,1,03,1,04,1",,"01,9",,"120,M,+0357,1","180,N,+0282,1","99999,9,10021,1","8,1,013,1,+001,1",,,"SYN136AAXX  26001 76458 32568 62205 10324 20269 30021 40132 58013 82834 92350 333 0/5// 10357 20282 30/// 50476 57852 58001 70000 82823 83358;","Q01+101323APOSLPQ02  00002PRCP99Q03  00003PRCP99"
"76458099999","2001-09-26T03:00:00","4","23.2","-106.4166666","4.0","COLONIA JUAN CARRASCO MAZATLAN SIN., MX","FM-12","99999","V020","220,1,N,0030,1","22000,1,9,N","012000,1,N,1","+0318,1","+0263,1","10058,1","99,0000,9,1",,,,,"01,1,+00690,9,08,9",,,"03,99,1,01,1,08,1,00800,1,03,1,99,9",,"01,9",,,,"99999,9,10048,1","2,1,027,1,+017,1",,,"SYN112AAXX  26031 76458 32562 32203 10318 20263 30048 40058 52027 8183/ 90250 333 0/7// 30/// 57871 58017 81823 82358;","Q01  00002PRCP99"
"76458099999","2001-09-26T09:00:00","4","23.2","-106.4166666","4.0","COLONIA JUAN CARRASCO MAZATLAN SIN., MX","FM-12","99999","V020","220,1,N,0020,1","00480,1,9,N","008000,1,N,1","+0266,1","+0227,1","10066,1","03,0020,9,1",,,,,"08,1,+00480,9,05,9",,,"08,99,1,08,1,04,1,00450,1,00,1,00,1",,"09,9",,,,"99999,9,10055,1","7,1,007,1,+020,1",,,"SYN106AAXX  26091 76458 12458 82202 10266 20227 30055 40066 57007 88400 90835 333 0/900 31/// 58020 60027 88616;",
"76458099999","2001-09-26T15:00:00","4","23.2","-106.4166666","4.0","COLONIA JUAN CARRASCO MAZATLAN SIN., MX","FM-12","99999","V020","999,9,C,0000,1","03600,1,9,N","015000,1,N,1","+0268,1","+0238,1","10079,1","99,0000,9,1",,,,,"08,1,+03600,9,01,9",,,"08,99,1,08,1,00,1,02250,1,02,1,99,9",,"01,9",,,,"99999,9,10068,1","2,1,007,1,+020,1",,,"SYN100AAXX  26151 76458 32865 80000 10268 20238 30068 40079 52007 88020 91455 333 30/// 56/9/ 58020 88462;","Q01+000002SCOHCGQ02  00002PRCP99"
"76458099999","2001-09-26T21:00:00","4","23.2","-106.4166666","4.0","COLONIA JUAN CARRASCO MAZATLAN SIN., MX","FM-12","99999","V020","090,1,N,0040,1","00720,1,9,N","020000,1,N,1","+0296,1","+0238,1","10086,1","03,9999,2,9",,,"2,1,03,1","2,1,03,1","08,1,+00720,9,05,9",,,"08,99,1,06,1,05,1,00800,1,00,1,00,1",,"01,9",,,,"99999,9,10075,1","7,1,010,1,+042,1",,"50,1","SYN112AAXX  26211 76458 21570 80904 10296 20238 30075 40086 57010 75022 86500 92050 333 0/300 30/// 58042 69907 88624;",
"76458099999","2001-09-27T00:00:00","4","23.2","-106.4166666","4.0","COLONIA JUAN CARRASCO MAZATLAN SIN., MX","FM-12","99999","V020","060,1,N,0040,1","02400,1,9,N","020000,1,N,1","+0286,1","+0200,1","10069,1","06,0007,9,1","24,0121,9,1",,"5,1,06,1","5,1,06,1","08,1,+02400,9,01,9",,,"08,99,1,08,1,00,1,02250,1,02,1,00,1",,"01,9",,"120,M,+0320,1","180,N,+0239,1","99999,9,10058,1","7,1,017,1,+036,1",,"20,1","SYN130AAXX  27001 76458 31870 80604 10286 20200 30058 40069 57017 69901 72055 88020 92345 333 10320 20239 30/// 50481 58036 70121 88458;",
"76458099999","2001-09-27T03:00:00","4","23.2","-106.4166666","4.0","COLONIA JUAN CARRASCO MAZATLAN SIN., MX","FM-12","99999","V020","130,1,N,0020,1","02400,1,9,N","008000,1,N,1","+0278,1","+0214,1","10081,1","99,0000,2,1",,,,,"08,1,+02400,9,01,9",,,"08,99,1,08,1,00,1,02250,1,01,1,02,1",,"01,9",,,,"99999,9,10070,1","2,1,012,1,+022,1",,,"SYN094AAXX  27031 76458 32858 81302 10278 20214 30070 40081 52012 88012 90245 333 30/// 58022 88458;",
"76458099999","2001-09-27T09:00:00","4","23.2","-106.4166666","4.0","COLONIA JUAN CARRASCO MAZATLAN SIN., MX","FM-12","99999","V020","120,1,N,0010,1","02400,1,9,N","008000,1,N,1","+0278,1","+0220,1","10087,1","99,0000,2,1",,,,,"08,1,+02400,9,07,9",,,"08,99,1,08,1,99,9,99999,9,02,1,00,1",,"01,9",,,,"99999,9,10076,1","7,1,005,1,+021,1",,,"SYN100AAXX  27091 76458 32958 81201 10278 20220 30076 40087 57005 88020 90830 333 0/090 30/// 58021 88358;","Q01    003SCOLCG"
"76458099999","2001-09-27T15:00:00","4","23.2","-106.4166666","4.0","COLONIA JUAN CARRASCO MAZATLAN SIN., MX","FM-12","99999","V020","090,1,N,0030,1","03600,1,9,N","018000,1,N,1","+0280,1","+0215,1","10088,1","99,0000,9,1",,,,,"08,1,+03600,9,01,9",,,"08,99,1,08,1,00,1,02250,1,02,1,99,9",,"01,9",,,,"99999,9,10077,1","2,1,011,1,+009,1",,,"SYN100AAXX  27151 76458 32868 80903 10280 20215 30077 40088 52011 88020 91450 333 30/// 56/9/ 58009 88462;","Q01+000002SCOHCGQ02  00002PRCP99"
"76458099999","2001-09-28T00:00:00","4","23.2","-106.4166666","4.0","COLONIA JUAN CARRASCO MAZATLAN SIN., MX","FM-12","99999","V020","140,1,N,0050,1","02400,1,9,N","020000,1,N,1","+0300,1","+0238,1","10068,1","24,0000,9,1",,,,,"08,1,+02400,9,01,9",,,"08,99,1,08,1,00,1,02250,1,02,1,00,1",,"01,9",,"120,M,+0325,1","180,N,+0260,1","99999,9,10057,1","6,1,007,1,-001,1",,,"SYN112AAXX  28001 76458 32870 81405 10300 20238 30057 40068 56007 88020 92345 333 10325 20260 30/// 59001 70000 88458;",
"76458099999","2001-09-28T03:00:00","4","23.2","-106.4166666","4.0","COLONIA JUAN CARRASCO MAZATLAN SIN., MX","FM-12","99999","V020","160,1,N,0060,1","02400,1,9,N","008000,1,N,1","+0294,1","+0240,1","10086,1","99,0000,9,1",,,,,"08,1,+02400,9,01,9",,,"08,99,1,08,1,00,1,02250,1,02,1,00,1",,"01,9",,,,"99999,9,10075,1","2,1,018,1,+005,1",,,"SYN094AAXX  28031 76458 32858 81606 10294 20240 30075 40086 52018 88020 90245 333 30/// 58005 88458;","Q01  00002PRCP99"
"76458099999","2001-09-28T09:00:00","4","23.2","-106.4166666","4.0","COLONIA JUAN CARRASCO MAZATLAN SIN., MX","FM-12","99999","V020","120,1,N,0030,1","03600,1,C,N","008000,1,N,1","+0286,1","+0248,1","10079,1","99,0000,9,1",,,,,"04,1,+00480,9,06,9",,,"08,99,1,04,1,04,1,00450,1,02,1,00,1",,"01,9",,,,"99999,9,10068,1","7,1,012,1,-008,1",,,"SYN106AAXX  28091 76458 32458 81203 10286 20248 30068 40079 57012 84420 90850 333 0/099 30/// 59008 84616 84358;","Q01  00002PRCP99"
"76458099999","2001-09-28T12:00:00","4","23.2","-106.4166666","4.0","COLONIA JUAN CARRASCO MAZATLAN SIN., MX","FM-12","99999","V020","240,1,N,0070,1","00570,1,C,N","008000,1,N,1","+0286,1","+0240,1","10073,1","24,0000,9,1",,,,,"05,1,+00570,9,08,9",,,"07,99,1,05,1,08,1,00450,1,02,1,99,9",,"01,9",,"999,M,+0326,1","120,N,+0288,1","99999,9,10062,1","7,1,006,1,-006,1",,,"SYN136AAXX  28121 76458 32458 72407 10286 20240 30062 40073 57006 8582/ 91150 333 0/4// 10326 20288 30281 50183 57841 59006 70000 85819 82458;","Q01  00002PRCP99Q02  00003PRCP99"
"76458099999","2001-09-28T15:00:00","4","23.2","-106.4166666","4.0","COLONIA JUAN CARRASCO MAZATLAN SIN., MX","FM-12","99999","V020","120,1,N,0040,1","09000,1,C,N","018000,1,N,1","+0280,1","+0252,1","10089,1","99,0000,9,1",,,,,"03,1,+00360,9,08,9",,,"08,99,1,03,1,02,1,00450,1,00,1,08,1",,"01,9",,,,"99999,9,10078,1","2,1,016,1,+001,1",,,"SYN112AAXX  28151 76458 32468 81204 10280 20252 30078 40089 52016 83208 91450 333 0/30/ 30/// 57853 58001 83812 85270;","Q01  00002PRCP99"
"76458099999","2001-09-28T18:00:00","4","23.2","-106.4166666","4.0","COLONIA JUAN CARRASCO MAZATLAN SIN., MX","FM-12","99999","V020","130,1,N,0060,1","09000,1,C,N","020000,1,N,1","+0312,1","+0244,1","10082,1","99,0000,9,1",,,,,"01,1,+00840,9,08,9",,,"07,99,1,01,1,02,1,00800,1,00,1,08,1",,"01,9",,"120,M,+0321,1","240,N,+0275,1","99999,9,10071,1","8,1,007,1,-020,1",,,"SYN124AAXX  28181 76458 32570 71306 10312 20244 30071 40082 58007 81208 91755 333 003/9 10321 20275 30/// 57839 59020 81828 86268;","Q01  00002PRCP99"
"76458099999","2001-09-28T21:00:00","4","23.2","-106.4166666","4.0","COLONIA JUAN CARRASCO MAZATLAN SIN., MX","FM-12","99999","V020","140,1,N,0070,1","22000,1,C,N","020000,1,N,1","+0309,1","+0241,1","10064,1","99,0000,9,1",,,,,"02,1,+00840,9,08,9",,,"05,99,1,02,1,01,1,00800,1,00,1,08,1",,"01,9",,,,"99999,9,10053,1","7,1,018,1,-011,1",,,"SYN112AAXX  28211 76458 32570 51407 10309 20241 30053 40064 57018 82108 92050 333 003/9 30/// 57839 59011 82828 83268;","Q01  00002PRCP99"
"76458099999","2001-09-29T03:00:00","4","23.2","-106.4166666","4.0","COLONIA JUAN CARRASCO MAZATLAN SIN., MX","FM-12","99999","V020","170,1,N,0050,1","03600,1,C,N","008000,1,N,1","+0290,1","+0236,1","10069,1","99,0000,9,1",,,,,"03,1,+00690,9,06,9",,,"08,99,1,03,1,05,1,00800,1,02,1,00,1",,"01,9",,,,"99999,9,10059,1","2,1,013,1,-016,1",,,"SYN112AAXX  29031 76458 32558 81705 10290 20236 30059 40069 52013 83520 90245 333 0/390 30/// 57630 59016 83623 85458;","Q01  00002PRCP99"
"76458099999","2001-09-29T15:00:00","4","23.2","-106.4166666","4.0","COLONIA JUAN CARRASCO MAZATLAN SIN., MX","FM-12","99999","V020","140,1,N,0040,1","09000,1,C,N","015000,1,N,1","+0275,1","+0248,1","10076,1","03,9999,9,9",,,"5,1,03,1","5,1,03,1","01,1,+00330,9,08,9",,,"07,99,1,01,1,02,1,00450,1,00,1,08,1",,"09,9",,,,"99999,9,10065,1","2,1,011,1,-013,1",,"01,1","SYN124AAXX  29151 76458 21465 71404 10275 20248 30065 40076 52011 70155 81208 91445 333 0/3/9 31/// 57836 59013 69907 81811 86268;","Q01  99992PRCP03"
"76458099999","2001-09-29T21:00:00","4","23.2","-106.4166666","4.0","COLONIA JUAN CARRASCO MAZATLAN SIN., MX","FM-12","99999","V020","160,1,N,0050,1","03600,1,C,N","018000,1,N,1","+0298,1","+0244,1","10075,1","99,0000,9,1",,,,,"03,1,+00660,9,06,9",,,"07,99,1,03,1,04,1,00800,1,01,1,00,1",,"01,9",,,,"99999,9,10064,1","7,1,015,1,+011,1",,,"SYN106AAXX  29211 76458 32568 71605 10298 20244 30064 40075 57015 83410 92055 333 0/330 30/// 58011 83622 84461;","Q01  00002PRCP99"
"76458099999","2001-09-30T00:00:00","4","23.2","-106.4166666","4.0","COLONIA JUAN CARRASCO MAZATLAN SIN., MX","FM-12","99999","V020","150,1,N,0040,1","03600,1,9,N","018000,1,N,1","+0288,1","+0236,1","10074,1","24,0038,9,1","99,0000,9,1",,,,"02,1,+00660,9,08,9",,,"07,99,1,02,1,02,1,00800,1,02,1,00,1",,"01,9",,"120,M,+0315,1","180,N,+0258,1","99999,9,10063,1","5,1,001,1,+017,1",,,"SYN136AAXX  30001 76458 32568 71504 10288 20236 30063 40074 55001 82220 92350 333 01490 10315 20258 30/// 50421 57814 58017 70038 82822 85458;","Q01  00002PRCP99"
"76458099999","2001-09-30T06:00:00","4","23.2","-106.4166666","4.0","COLONIA JUAN CARRASCO MAZATLAN SIN., MX","FM-12","99999","V020","240,1,N,0030,1","00450,1,9,N","008000,1,N,1","+0278,1","+0243,1","10099,1","99,0000,9,1",,,,,"05,1,+00450,9,02,9",,,"05,99,1,05,1,08,1,00450,1,99,9,99,9",,"01,9",,"240,M,+0315,1","240,N,+0278,1","99999,9,10097,1","5,1,021,1,+027,1",,,"SYN118AAXX  30061 76458 32458 52403 10278 20243 30097 40099 55021 858// 90550 333 0/5// 10315 20278 30/// 57851 58027 85815;","Q01  00002PRCP99"
"76458099999","2001-09-30T09:00:00","4","23.2","-106.4166666","4.0","COLONIA JUAN CARRASCO MAZATLAN SIN., MX","FM-12","99999","V020","250,1,N,0010,1","00330,1,9,N","008000,1,N,1","+0270,1","+0243,1","10092,1","99,0000,9,1",,,,,"05,1,+00330,9,02,9",,,"05,99,1,05,1,08,1,00450,1,99,9,99,9",,"01,9",,,,"99999,9,10081,1","7,1,016,1,+033,1",,,"SYN106AAXX  30091 76458 32458 52501 10270 20243 30081 40092 57016 858// 90850 333 0/3// 30/// 57831 58033 85811;","Q01  00002PRCP99"
"76458099999","2001-09-30T12:00:00","4","23.2","-106.4166666","4.0","COLONIA JUAN CARRASCO MAZATLAN SIN., MX","FM-12","99999","V020","250,1,N,0010,1","22000,1,9,N","008000,1,N,1","+0268,1","+0241,1","10092,1","24,0038,9,1",,,,,"03,1,+00330,9,02,9",,,"03,99,1,03,1,08,1,00450,1,99,9,99,9",,"01,9",,"999,M,+0315,1","120,N,+0265,1","99999,9,10081,1","5,1,000,1,+027,1",,,"SYN124AAXX  30121 76458 32458 32501 10268 20241 30081 40092 55000 838// 91135 333 0/2// 10315 20265 30/// 57821 58027 70038 83811;",
"76458099999","2001-09-30T15:00:00","4","23.2","-106.4166666","4.0","COLONIA JUAN CARRASCO MAZATLAN SIN., MX","FM-12","99999","V020","090,1,N,0020,1","00390,1,9,N","015000,1,N,1","+0275,1","+0243,1","10112,1","99,0000,9,1",,,,,"06,1,+00390,9,02,9",,,"06,99,1,06,1,02,1,00450,1,00,1,00,1",,"01,9",,,,"99999,9,10101,1","2,1,020,1,+036,1",,,"SYN106AAXX  30151 76458 32465 60902 10275 20243 30101 40112 52020 86200 91450 333 004// 30/// 57849 58036 86813;","Q01  00002PRCP99"
"76458099999","2001-09-30T18:00:00","4","23.2","-106.4166666","4.0","COLONIA JUAN CARRASCO MAZATLAN SIN., MX","FM-12","99999","V020","140,1,N,0030,1","22000,1,9,N","018000,1,N,1","+0298,1","+0244,1","10126,1","99,0000,9,1",,,,,"03,1,+00660,9,02,9",,,"03,99,1,03,1,02,1,00800,1,00,1,00,1",,"01,9",,"120,M,+0320,1","240,N,+0265,1","99999,9,10115,1","0,1,014,1,+036,1",,,"SYN118AAXX  30181 76458 32568 31403 10298 20244 30115 40126 50014 83200 91750 333 01300 10320 20265 30/// 57831 58036 83822;","Q01  00002PRCP99"
"76458099999","2001-09-30T21:00:00","4","23.2","-106.4166666","4.0","COLONIA JUAN CARRASCO MAZATLAN SIN., MX","FM-12","99999","V020","210,1,N,0060,1","22000,1,9,N","020000,1,N,1","+0306,1","+0232,1","10109,1","99,0000,9,1",,,,,,,,"03,99,1,03,1,08,1,00800,1,99,9,99,9",,"01,9",,,,"99999,9,10098,1","7,1,017,1,+034,1",,,"SYN106AAXX  30211 76458 32570 32106 10306 20232 30098 40109 57017 838// 92050 333 0/4// 30/// 57842 58034 838//;","Q01  00002PRCP99"
"76458099999","2001-10-01T00:00:00","4","23.2","-106.4166666","4.0","COLONIA JUAN CARRASCO MAZATLAN SIN., MX","FM-12","99999","V020","180,1,N,0020,1","22000,1,9,N","020000,1,N,1","+0306,1","+0232,1","10098,1","24,0038,9,1","99,0000,9,1",,,,"02,1,+00930,9,08,9",,,"04,99,1,02,1,08,1,00800,1,00,1,05,1",,"01,9",,"120,M,+0325,1","180,N,+0265,1","99999,9,10087,1","7,1,011,1,+023,1",,,"SYN136AAXX  01001 76458 32570 41802 10306 20232 30087 40098 57011 82805 92350 333 0/4// 10325 20265 30/// 50226 57844 58023 70038 82831 82270;","Q01  00002PRCP99"
"76458099999","2001-10-01T03:00:00","4","23.2","-106.4166666","4.0","COLONIA JUAN CARRASCO MAZATLAN SIN., MX","FM-12","99999","V020","270,1,N,0030,1","22000,1,9,N","008000,1,N,1","+0280,1","+0239,1","10116,1","99,0000,9,1",,,,,"01,1,+00510,9,02,9",,,"01,99,1,01,1,02,1,00450,1,00,1,00,1",,"01,9",,,,"99999,9,10105,1","2,1,018,1,+029,1",,,"SYN106AAXX  01031 76458 32458 12703 10280 20239 30105 40116 52018 81200 90245 333 0/100 30/// 57810 58029 81817;","Q01  00002PRCP99"
"76458099999","2001-10-01T12:00:00","4","23.2","-106.4166666","4.0","COLONIA JUAN CARRASCO MAZATLAN SIN., MX","FM-12","99999","V020","350,1,N,0020,1","22000,1,9,N","008000,1,N,1","+0250,1","+0228,1","10118,1","24,0000,9,1",,,,,"00,1,+99999,9,99,9",,,"00,99,1,00,1,00,1,99999,9,00,1,00,1",,"01,9","999,+0230,9","999,M,+0325,1","120,N,+0250,1","99999,9,10107,1","7,1,008,1,+026,1",,,"SYN100AAXX  01121 76458 32958 03502 10250 20228 30107 40118 57008 91135 333 10325 20250 30023 58026 70000;","Q01  00002PRCP24"
"76458099999","2001-10-01T15:00:00","4","23.2","-106.4166666","4.0","COLONIA JUAN CARRASCO MAZATLAN SIN., MX","FM-12","99999","V020","330,1,N,0050,1","22000,1,9,N","018000,1,N,1","+0262,1","+0229,1","10127,1","99,0000,9,1",,,,,"02,1,+00420,9,02,9",,,"02,99,1,02,1,08,1,00450,1,99,9,99,9",,"01,9",,,,"99999,9,10116,1","3,1,009,1,+015,1",,,"SYN106AAXX  01151 76458 32468 23305 10262 20229 30116 40127 53009 828// 91450 333 0/5// 30/// 57853 58015 82814;","Q01  00002PRCP99"
"76458099999","2001-10-01T18:00:00","4","23.2","-106.4166666","4.0","COLONIA JUAN CARRASCO MAZATLAN SIN., MX","FM-12","99999","V020","999,9,9,9999,9","22000,1,9,N","020000,1,N,1","+0302,1","+0250,1","10134,1","99,0000,9,1",,,,,"02,1,+00660,9,02,9",,,"02,99,1,02,1,08,1,00800,1,99,9,99,9",,"01,9",,"120,M,+0325,1","240,N,+0240,1","99999,9,10123,1","2,1,007,1,+008,1",,,"SYN118AAXX  01181 76458 32570 29006 10302 20250 30123 40134 52007 828// 91750 333 0/2// 10325 20240 30/// 57823 58008 82822;","Q01  00002PRCP99"
"76458099999","2001-10-01T21:00:00","4","23.2","-106.4166666","4.0","COLONIA JUAN CARRASCO MAZATLAN SIN., MX","FM-12","99999","V020","270,1,N,0050,1","22000,1,9,N","020000,1,N,1","+0306,1","+0243,1","10106,1","99,0000,9,1",,,,,"01,1,+00810,9,09,9",,,"01,99,1,01,1,03,1,00800,1,00,1,00,1",,"01,9",,,,"99999,9,10095,1","7,1,028,1,-004,1",,,"SYN106AAXX  01211 76458 32570 12705 10306 20243 30095 40106 57028 81300 92050 333 04100 30/// 57917 59004 81927;","Q01  00002PRCP99"
"76458099999","2001-10-02T00:00:00","4","23.2","-106.4166666","4.0","COLONIA JUAN CARRASCO MAZATLAN SIN., MX","FM-12","99999","V020","270,1,N,0060,1","22000,1,9,N","020000,1,N,1","+0297,1","+0230,1","10097,1","24,0000,9,1",,,,,,,,"01,99,1,01,1,03,1,00800,1,00,1,00,1",,"01,9",,"120,M,+0325,1","180,N,+0240,1","99999,9,10086,1","7,1,009,1,-001,1",,,"SYN130AAXX  02001 76458 32570 12706 10297 20230 30086 40097 57009 81300 92350 333 04100 10325 20240 30/// 50710 57916 59001 70000 81928;","Q01  00002PRCP99Q02  00003PRCP99"
"76458099999","2001-10-02T03:00:00","4","23.2","-106.4166666","4.0","COLONIA JUAN CARRASCO MAZATLAN SIN., MX","FM-12","99999","V020","300,1,N,0030,1","22000,1,9,N","008000,1,N,1","+0284,1","+0232,1","10111,1","99,0000,9,1",,,,,"00,1,+99999,9,99,9",,,"00,99,1,00,1,00,1,99999,9,00,1,00,1",,"01,9",,,,"99999,9,10100,1","2,1,014,1,-005,1",,,"SYN082AAXX  02031 76458 32958 03003 10284 20232 30100 40111 52014 90245 333 30/// 59005;","Q01  00002PRCP99"
"76458099999","2001-10-02T09:00:00","4","23.2","-106.4166666","4.0","COLONIA JUAN CARRASCO MAZATLAN SIN., MX","FM-12","99999","V020","350,1,N,0010,1","22000,1,9,N","008000,1,N,1","+0256,1","+0225,1","10106,1","99,0000,9,1",,,,,"00,1,+99999,9,99,9",,,"00,99,1,00,1,00,1,99999,9,00,1,00,1",,"01,9",,,,"99999,9,10098,1","7,1,012,1,-017,1",,,"SYN082AAXX  02091 76458 32958 03501 10256 20225 30098 40106 57012 90858 333 30/// 59017;","Q01  00002PRCP99"
"76458099999","2001-10-02T12:00:00","4","23.2","-106.4166666","4.0","COLONIA JUAN CARRASCO MAZATLAN SIN., MX","FM-12","99999","V020","999,9,C,0000,1","22000,1,9,N","008000,1,N,1","+0250,1","+0222,1","10099,1","99,0000,9,1",,,,,"00,1,+99999,9,99,9",,,"00,99,1,00,1,00,1,99999,9,00,1,00,1",,"01,9","999,+0230,9","999,M,+0325,1","120,N,+0250,1","99999,9,10088,1","7,1,010,1,-018,1",,,"SYN094AAXX  02121 76458 32958 00000 10250 20222 30088 40099 57010 91135 333 10325 20250 30023 59018;","Q01  00002PRCP99"
"76458099999","2001-10-02T15:00:00","4","23.2","-106.4166666","4.0","COLONIA JUAN CARRASCO MAZATLAN SIN., MX","FM-12","99999","V020","120,1,N,0010,1","09000,1,C,N","020000,1,N,1","+0266,1","+0233,1","10114,1","99,0000,9,1",,,,,"03,1,+00420,9,06,9",,,"05,99,1,03,1,06,1,00450,1,00,1,05,1",,"01,9",,,,"99999,9,10103,1","2,1,015,1,+013,1",,,"SYN106AAXX  02151 76458 32470 51201 10266 20233 30103 40114 52015 83605 91450 333 0/09/ 30/// 58013 83614 82070;","Q01  00002PRCP99"
"76458099999","2001-10-02T18:00:00","4","23.2","-106.4166666","4.0","COLONIA JUAN CARRASCO MAZATLAN SIN., MX","FM-12","99999","V020","160,1,N,0030,1","09000,1,C,N","020000,1,N,1","+0302,1","+0237,1","10125,1","99,0000,9,1",,,,,"02,1,+00810,9,08,9","02,1,+02400,9,03,9",,"06,99,1,02,1,08,1,00800,1,04,1,03,1",,"01,9",,"120,M,+0324,1","240,N,+0245,1","99999,9,10114,1","8,1,011,1,-011,1",,,"SYN130AAXX  02181 76458 32570 61603 10302 20237 30114 40125 58011 82843 91750 333 0/3// 10324 20245 30/// 57832 59011 82827 82358 82070;","Q01  00002PRCP99"
"76458099999","2001-10-02T21:00:00","4","23.2","-106.4166666","4.0","COLONIA JUAN CARRASCO MAZATLAN SIN., MX","FM-12","99999","V020","140,1,N,0080,1","09000,1,C,N","016000,1,N,1","+0269,1","+0219,1","10119,1","03,9999,2,9",,,"5,1,03,1","4,1,03,1","02,1,+00630,9,08,9","03,1,+01800,9,03,9",,"06,99,1,02,1,07,1,00800,1,06,1,03,1",,"01,9",,,,"99999,9,10107,1","8,1,006,1,+013,1",,"20,1","SYN124AAXX  02211 76458 21566 61408 10269 20219 30107 40119 58006 72054 82763 92055 333 0144/ 30/// 58013 69907 82821 83356 81079;",
"76458099999","2001-10-03T00:00:00","4","23.2","-106.4166666","4.0","COLONIA JUAN CARRASCO MAZATLAN SIN., MX","FM-12","99999","V020","090,1,N,0020,1","22000,1,9,N","020000,1,N,1","+0283,1","+0195,1","10107,1","24,9999,2,9",,,,,"02,1,+01110,9,08,9",,,"03,99,1,99,9,09,1,01250,1,00,1,00,1",,"01,9",,"120,M,+0325,1","180,N,+0245,1","99999,9,10096,1","7,1,011,1,+999,9",,,"SYN124AAXX  03001 76458 32670 30902 10283 20195 30096 40107 57011 84900 92355 333 07800 10325 20245 30/// 50410 79999 82837 81942;","Q01+000042SCOTLC"
"76458099999","2001-10-03T03:00:00","4","23.2","-106.4166666","4.0","COLONIA JUAN CARRASCO MAZATLAN SIN., MX","FM-12","99999","V020","360,1,N,0020,1","22000,1,9,N","010000,1,N,1","+0259,1","+0204,1","10112,1","99,0000,2,1",,,,,"01,1,+03600,9,07,9",,,"01,99,1,01,1,00,1,02250,1,03,1,00,1",,"01,9",,,,"99999,9,10101,1","3,1,005,1,+001,1",,,"SYN100AAXX  03031 76458 32860 13602 10259 20204 30101 40112 53005 81030 90255 333 30/// 56/9/ 58001 81362;",
"76458099999","2001-10-03T06:00:00","4","23.2","-106.4166666","4.0","COLONIA JUAN CARRASCO MAZATLAN SIN., MX","FM-12","99999","V020","360,1,N,0010,1","02100,1,9,N","010000,1,N,1","+0252,1","+0202,1","10127,1","99,0000,2,1",,,,,,,,"06,99,1,06,1,00,1,02250,1,03,1,00,1","0462,9","01,9",,"240,M,+0325,1","240,N,+0245,1","99999,9,10116,1","2,1,015,1,+005,1",,,"SYN118AAXX  03061 76458 32860 63601 10252 20202 30116 40127 52015 86030 90540 333 10325 20245 30/// 55077 56/9/ 58005 86362;",
"76458099999","2001-10-03T21:00:00","4","23.2","-106.4166666","4.0","COLONIA JUAN CARRASCO MAZATLAN SIN., MX","FM-12","99999","V020","030,1,N,0040,1","03600,1,C,N","018000,1,N,1","+0242,1","+0218,1","10129,1",,,,"5,1,03,1","5,1,03,1","01,1,+00300,9,08,9",,,"08,99,1,01,1,02,1,00250,1,07,1,00,1",,"09,9",,,,"99999,9,10118,1","7,1,027,1,+010,1",,"50,1","SYN118AAXX  03211 76458 11368 80304 10242 20218 30118 40129 57027 75055 81270 92055 333 027/0 31/// 57877 58010 81810 86359;",
"76458099999","2001-10-04T03:00:00","4","23.2","-106.4166666","4.0","COLONIA JUAN CARRASCO MAZATLAN SIN., MX","FM-12","99999","V020","040,1,N,0010,1","22000,1,9,N","008000,1,N,1","+0250,1","+0226,1","10127,1","99,0000,2,1",,,,,"01,1,+01800,9,07,9",,,"01,99,1,01,1,99,9,02250,1,03,1,00,1",,"09,9",,,,"99999,9,10116,1","2,1,019,1,+015,1",,,"SYN094AAXX  04031 76458 32858 10401 10250 20226 30116 40127 52019 81030 90245 333 31/// 58015 81356;","Q01+000002SCOLCG"
"76458099999","2001-10-04T06:00:00","4","23.2","-106.4166666","4.0","COLONIA JUAN CARRASCO MAZATLAN SIN., MX","FM-12","99999","V020","999,9,C,0000,1","01800,1,9,N","008000,1,N,1","+0238,1","+0218,1","10138,1","99,0000,2,1",,,,,"06,1,+01800,9,07,9",,,"06,99,1,06,1,99,9,02250,1,06,1,00,1","0030,9","09,9",,"240,M,+0275,1","240,N,+0239,1","99999,9,10126,1","1,1,010,1,+010,1",,,"SYN112AAXX  04061 76458 32858 60000 10238 20218 30126 40138 51010 86060 90540 333 10275 20239 31/// 55005 58010 86356;","Q01+000002SCOLCG"
"76458099999","2001-10-04T12:00:00","4","23.2","-106.4166666","4.0","COLONIA JUAN CARRASCO MAZATLAN SIN., MX","FM-12","99999","V020","030,1,N,0010,1","00180,1,9,N","008000,1,N,1","+0230,1","+0216,1","10119,1","99,0000,9,1",,,,,"07,1,+00180,9,05,9",,,"07,99,1,07,1,05,1,02250,1,00,1,00,1",,"01,9","999,+0210,9","999,M,+0275,1","120,N,+0230,1","99999,9,10108,1","7,1,007,1,-006,1",,,"SYN112AAXX  04121 76458 32858 70301 10230 20216 30108 40119 57007 87500 91135 333 0/900 10275 20230 30021 59006 87606;","Q01  00002PRCP99"
"76458099999","2001-10-04T15:00:00","4","23.2","-106.4166666","4.0","COLONIA JUAN CARRASCO MAZATLAN SIN., MX","FM-12","99999","V020","340,1,N,0010,1","02400,1,9,N","018000,1,N,1","+0246,1","+0218,1","10133,1","02,0010,9,1",,,"5,1,03,1","5,1,03,1","03,1,+00360,9,06,9","02,1,+02400,9,03,9",,"07,99,1,03,1,06,1,00450,1,06,1,04,1",,"09,9",,,,"99999,9,10121,1","2,1,013,1,-003,1",,"24,1","SYN118AAXX  04151 76458 23468 73401 10246 20218 30121 40133 52013 60016 72455 83664 91450 333 31/// 59003 83612 82358 82070;","Q01+000002PRSWM1"
"76458099999","2001-10-04T21:00:00","4","23.2","-106.4166666","4.0","COLONIA JUAN CARRASCO MAZATLAN SIN., MX","FM-12","99999","V020","250,1,N,0030,1","00840,1,9,N","020000,1,N,1","+0278,1","+0210,1","10114,1","99,0000,2,1",,,,,"06,1,+00840,9,06,9",,,"08,99,1,06,1,04,1,00800,1,02,1,00,1",,"01,9",,,,"99999,9,10102,1","7,1,029,1,-016,1",,,"SYN112AAXX  04211 76458 32570 82503 10278 20210 30102 40114 57029 86420 92050 333 0/99/ 30/// 57899 59016 86628 82462;",
"76458099999","2001-10-05T00:00:00","4","23.2","-106.4166666","4.0","COLONIA JUAN CARRASCO MAZATLAN SIN., MX","FM-12","99999","V020","230,1,N,0020,1","03600,1,9,N","020000,1,N,1","+0274,1","+0212,1","10108,1","24,0007,9,1","99,0000,2,1",,,,"02,1,+00780,9,09,9",,,"07,99,1,02,1,09,1,00800,1,07,1,00,1",,"01,9",,"120,M,+0308,1","180,N,+0230,1","99999,9,10097,1","7,1,005,1,+000,1",,,"SYN136AAXX  05001 76458 32570 72302 10274 20212 30097 40108 57005 82970 92350 333 07850 10308 20230 30/// 50120 57982 59000 70007 82926 85356;",
"76458099999","2001-10-05T03:00:00","4","23.2","-106.4166666","4.0","COLONIA JUAN CARRASCO MAZATLAN SIN., MX","FM-12","99999","V020","050,1,N,0040,1","00330,1,9,N","008000,1,N,1","+0240,1","+0214,1","10118,1",,,,"5,1,03,1","5,1,03,1","08,1,+00330,9,05,9",,,"08,99,1,08,1,05,1,00450,1,00,1,00,1",,"01,9",,,,"99999,9,10106,1","1,1,009,1,-010,1",,"20,1","SYN112AAXX  05031 76458 11458 80504 10240 20214 30106 40118 51009 72055 88500 90245 333 0/400 30/// 57640 59010 88611;",
"76458099999","2001-10-05T06:00:00","4","23.2","-106.4166666","4.0","COLONIA JUAN CARRASCO MAZATLAN SIN., MX","FM-12","99999","V020","999,9,C,0000,1","00750,1,9,N","008000,1,N,1","+0236,1","+0213,1","10129,1","99,0000,2,1",,,,,,,,"08,99,1,08,1,05,1,00800,1,00,1,00,1","0132,9","01,9",,"240,M,+0308,1","240,N,+0230,1","99999,9,10117,1","2,1,011,1,-009,1",,,"SYN124AAXX  05061 76458 32558 80000 10236 20213 30117 40129 52011 88500 90530 333 0/400 10308 20230 30/// 55022 57640 59009 88610;",
"76458099999","2001-10-05T12:00:00","4","23.2","-106.4166666","4.0","COLONIA JUAN CARRASCO MAZATLAN SIN., MX","FM-12","99999","V020","999,9,C,0000,1","22000,1,9,N","008000,1,N,1","+0228,1","+0214,1","10126,1","99,0000,2,1",,,,,"04,1,+00180,9,05,9",,,"04,99,1,04,1,04,1,00150,1,00,1,00,1",,"01,9","999,+0210,9","999,M,+0308,1","120,N,+0225,1","99999,9,10115,1","2,1,003,1,-003,1",,,"SYN112AAXX  05121 76458 32258 40000 10228 20214 30115 40126 52003 84400 91138 333 0/800 10308 20225 30021 59003 84606;",
"76458099999","2001-10-05T15:00:00","4","23.2","-106.4166666","4.0","COLONIA JUAN CARRASCO MAZATLAN SIN., MX","FM-12","99999","V020","999,9,C,0000,1","03600,1,C,N","020000,1,N,1","+0245,1","+0215,1","10143,1","99,0000,2,1",,,,,"03,1,+00360,9,08,9",,,"05,99,1,03,1,08,1,00250,1,04,1,99,9",,"01,9",,,,"99999,9,10132,1","2,1,017,1,+011,1",,,"SYN112AAXX  05151 76458 32370 50000 10245 20215 30132 40143 52017 8384/ 91450 333 0/0// 30/// 57802 58011 83812 82358;",
"76458099999","2001-10-05T21:00:00","4","23.2","-106.4166666","4.0","COLONIA JUAN CARRASCO MAZATLAN SIN., MX","FM-12","99999","V020","210,1,N,0050,1","22000,1,9,N","020000,1,N,1","+0300,1","+0219,1","10124,1","99,0000,9,1",,,,,"01,1,+01020,9,02,9",,,"01,99,1,01,1,02,1,01250,1,00,1,00,1",,"01,9",,,,"99999,9,10112,1","7,1,016,1,+001,1",,,"SYN106AAXX  05211 76458 32670 12105 10300 20219 30112 40124 57016 81200 92045 333 0/1/7 30/// 57816 58001 81834;","Q01  00002PRCP99"
"76458099999","2001-10-06T00:00:00","4","23.2","-106.4166666","4.0","COLONIA JUAN CARRASCO MAZATLAN SIN., MX","FM-12","99999","V020","230,1,N,0020,1","22000,1,9,N","020000,1,N,1","+0292,1","+0213,1","10114,1","24,0000,2,1",,,,,,,,"01,99,1,01,1,02,1,00800,1,00,1,00,1",,"01,9",,"120,M,+0317,1","180,N,+0225,1","99999,9,10103,1","7,1,009,1,+006,1",,,"SYN130AAXX  06001 76458 32570 12302 10292 20213 30103 40114 57009 81200 92345 333 0/1// 10317 20225 30/// 50411 57816 58006 79999 81833;",
"76458099999","2001-10-06T03:00:00","4","23.2","-106.4166666","4.0","COLONIA JUAN CARRASCO MAZATLAN SIN., MX","FM-12","99999","V020","320,1,N,0030,1","22000,1,9,N","008000,1,N,1","+0266,1","+0224,1","99999,9","99,0000,9,1",,,,,"00,1,+99999,9,99,9",,,"00,99,1,00,1,00,1,99999,9,00,1,00,1",,"01,9",,,,,,,,"SYN081AAXX  06031 76458 32958 03203 10266 20224 3117 40128 52014 90240 333 30/// 58011;","Q01  00002PRCP99"
"76458099999","2001-10-06T06:00:00","4","23.2","-106.4166666","4.0","COLONIA JUAN CARRASCO MAZATLAN SIN., MX","FM-12","99999","V020","350,1,N,0010,1","22000,1,9,N","008000,1,N,1","+0250,1","+0226,1","10136,1","99,0000,9,1",,,,,"00,1,+99999,9,99,9",,,"00,99,1,00,1,00,1,99999,9,00,1,00,1","0570,9","01,9",,"240,M,+0317,1","240,N,+0225,1","99999,9,10125,1","2,1,008,1,+008,1",,,"SYN100AAXX  06061 76458 32958 03501 10250 20226 30125 40136 52008 90540 333 10317 20225 30/// 55095 58008;","Q01  00002PRCP99"
"76458099999","2001-10-06T15:00:00","4","23.2","-106.4166666","4.0","COLONIA JUAN CARRASCO MAZATLAN SIN., MX","FM-12","99999","V020","999,9,C,0000,1","22000,1,9,N","020000,1,N,1","+0246,1","+0197,1","10136,1","99,0000,9,1",,,,,"02,1,+02400,9,07,9",,,"02,99,1,02,1,99,9,00800,1,03,1,99,9",,,,,,"99999,9,10125,1","3,1,012,1,-007,1",,,"SYN094AAXX  06151 76458 32570 20000 10246 20197 30125 40136 53012 8203/ 91450 333 0/0// 59007 82358;","Q01  00002PRCP99Q02    003SCOLCG"
"76458099999","2001-10-06T21:00:00","4","23.2","-106.4166666","4.0","COLONIA JUAN CARRASCO MAZATLAN SIN., MX","FM-12","99999","V020","270,1,N,0030,1","22000,1,9,N","015000,1,N,1","+0304,1","+0207,1","10116,1","99,0000,9,1",,,,,"00,1,+99999,9,99,9",,,"00,99,1,00,1,00,1,99999,9,00,1,00,1",,"01,9",,,,"99999,9,10104,1","7,1,026,1,-008,1",,,"SYN082AAXX  06211 76458 32965 02703 10304 20207 30104 40116 57026 92050 333 30/// 59008;","Q01  00002PRCP99"
"76458099999","2001-10-07T03:00:00","4","23.2","-106.4166666","4.0","COLONIA JUAN CARRASCO MAZATLAN SIN., MX","FM-12","99999","V020","310,1,N,0020,1","22000,1,9,N","008000,1,N,1","+0274,1","+0218,1","10114,1","99,0000,9,1",,,,,"00,1,+99999,9,99,9",,,"00,99,1,00,1,00,1,99999,9,00,1,00,1",,"01,9",,,,"99999,9,10103,1","0,1,005,1,-014,1",,,"SYN082AAXX  07031 76458 32958 03102 10274 20218 30103 40114 50005 90240 333 30/// 59014;","Q01  00002PRCP99"
"76458099999","2001-10-07T06:00:00","4","23.2","-106.4166666","4.0","COLONIA JUAN CARRASCO MAZATLAN SIN., MX","FM-12","99999","V020","340,1,N,0020,1","22000,1,9,N","008000,1,N,1","+0254,1","+0215,1","10125,1","99,0000,9,1",,,,,"00,1,+99999,9,99,9",,,"00,99,1,00,1,00,1,99999,9,00,1,00,1","0642,9","01,9",,"240,M,+0320,1","240,N,+0220,1","99999,9,10114,1","2,1,011,1,-011,1",,,"SYN100AAXX  07061 76458 32958 03402 10254 20215 30114 40125 52011 90535 333 10320 20220 30/// 55107 59011;","Q01  00002PRCP99"
"76458099999","2001-10-07T09:00:00","4","23.2","-106.4166666","4.0","COLONIA JUAN CARRASCO MAZATLAN SIN., MX","FM-12","99999","V020","999,9,C,0000,1","22000,1,9,N","008000,1,N,1","+0240,1","+0207,1","10124,1","99,0000,9,1",,,,,"00,1,+99999,9,99,9",,,"00,99,1,00,1,00,1,99999,9,00,1,00,1",,"01,9",,,,"99999,9,10113,1","6,1,001,1,+000,1",,,"SYN082AAXX  07091 76458 32958 00000 10240 20207 30113 40124 56001 90845 333 30/// 59000;","Q01  00002PRCP99"
"76458099999","2001-10-07T12:00:00","4","23.2","-106.4166666","4.0","COLONIA JUAN CARRASCO MAZATLAN SIN., MX","FM-12","99999","V020","340,1,N,0020,1","22000,1,9,N","008000,1,N,1","+0224,1","+0204,1","10120,1","24,0000,9,1",,,,,"00,1,+99999,9,99,9",,,"00,99,1,00,1,00,1,99999,9,00,1,00,1",,"01,9","999,+0200,9","999,M,+0320,1","120,N,+0220,1","99999,9,10109,1","7,1,003,1,-004,1",,,"SYN100AAXX  07121 76458 32958 03402 10224 20204 30109 40120 57003 91155 333 10320 20220 30020 59004 70000;","Q01  00002PRCP24"
"76458099999","2001-10-07T15:00:00","4","23.2","-106.4166666","4.0","COLONIA JUAN CARRASCO MAZATLAN SIN., MX","FM-12","99999","V020","040,1,N,0020,1","22000,1,9,N","020000,1,N,1","+0262,1","+0202,1","10138,1","99,0000,9,1",,,,,"00,1,+99999,9,99,9",,,"00,99,1,00,1,00,1,99999,9,00,1,00,1",,"01,9",,,,"99999,9,10126,1","2,1,017,1,+001,1",,,"SYN082AAXX  07151 76458 32970 00402 10262 20202 30126 40138 52017 91445 333 30/// 58001;","Q01  00002PRCP99"
"76458099999","2001-10-07T18:00:00","4","23.2","-106.4166666","4.0","COLONIA JUAN CARRASCO MAZATLAN SIN., MX","FM-12","99999","V020","270,1,N,0030,1","22000,1,9,N","020000,1,N,1","+0292,1","+0208,1","10135,1","99,0000,9,1",,,,,"00,1,+99999,9,99,9",,,"00,99,1,00,1,00,1,99999,9,00,1,00,1",,"01,9",,"120,M,+0314,1","240,N,+0217,1","99999,9,10124,1","8,1,002,1,-006,1",,,"SYN094AAXX  07181 76458 32970 02703 10292 20208 30124 40135 58002 91745 333 10314 20217 30/// 59006;","Q01  00002PRCP99"
"76458099999","2001-10-07T21:00:00","4","23.2","-106.4166666","4.0","COLONIA JUAN CARRASCO MAZATLAN SIN., MX","FM-12","99999","V020","140,1,N,0060,1","22000,1,9,N","020000,1,N,1","+0302,1","+0219,1","10122,1","99,0000,9,1",,,,,"02,1,+06000,9,01,9",,,"02,99,1,00,1,00,1,99999,9,00,1,06,1",,"01,9",,,,"99999,9,10111,1","8,1,013,1,+007,1",,,"SYN100AAXX  07211 76458 32670 21406 10302 20219 30111 40122 58013 80006 92050 333 0/0// 30/// 58007 82070;","Q01+012502SCOLCBQ02  00002PRCP99"
"76458099999","2001-10-08T00:00:00","4","23.2","-106.4166666","4.0","COLONIA JUAN CARRASCO MAZATLAN SIN., MX","FM-12","99999","V020","240,1,N,0050,1","22000,1,9,N","020000,1,N,1","+0302,1","+0228,1","10106,1","24,0000,9,1",,,,,"02,1,+06000,9,01,9",,,"02,99,1,00,1,00,1,99999,9,00,1,06,1",,"01,9",,"120,M,+0323,1","180,N,+0123,1","99999,9,10094,1","6,1,017,1,-004,1",,,"SYN124AAXX  08001 76458 32570 22405 10302 20228 30094 40106 56017 80006 92350 333 0/0// 10323 20123 30/// 50762 59004 70000 82070;","Q01+008002SCOLCB"
"76458099999","2001-10-08T03:00:00","4","23.2","-106.4166666","4.0","COLONIA JUAN CARRASCO MAZATLAN SIN., MX","FM-12","99999","V020","310,1,N,0040,1","22000,1,9,N","016000,1,N,1","+0280,1","+0280,1","10119,1","99,0000,9,1",,,,,"00,1,+99999,9,99,9",,,"00,99,1,00,1,00,1,99999,9,00,1,00,1",,"01,9",,,,"99999,9,10108,1","2,1,014,1,-005,1",,,"SYN082AAXX  08031 76458 32966 03104 10280 20280 30108 40119 52014 90250 333 30/// 59005;","Q01  00002PRCP99"
"76458099999","2001-10-08T06:00:00","4","23.2","-106.4166666","4.0","COLONIA JUAN CARRASCO MAZATLAN SIN., MX","FM-12","99999","V020","340,1,N,0020,1","22000,1,9,N","016000,1,N,1","+0267,1","+0213,1","10123,1","99,0000,9,1",,,,,"00,1,+99999,9,99,9",,,"00,99,1,00,1,00,1,99999,9,00,1,00,1","0648,9",,,"240,M,+0323,1","240,N,+0217,1","99999,9,10112,1","1,1,004,1,-002,1",,,"SYN094AAXX  08061 76458 32966 03402 10267 20213 30112 40123 51004 90545 333 10323 20217 55108 59002;","Q01  00002PRCP99"
"76458099999","2001-10-08T18:00:00","4","23.2","-106.4166666","4.0","COLONIA JUAN CARRASCO MAZATLAN SIN., MX","FM-12","99999","V020","280,1,N,0030,1","06000,1,9,N","020000,1,N,1","+0296,1","+0233,1","10129,1","99,0000,9,1",,,,,"07,1,+06000,9,01,9",,,"07,99,1,00,1,00,1,99999,9,00,1,07,1",,"01,9",,"120,M,+0323,1","240,N,+0230,1","99999,9,10118,1","1,1,003,1,-006,1",,,"SYN112AAXX  08181 76458 32570 72803 10296 20233 30118 40129 51003 80007 91750 333 0/0// 10323 20230 30/// 59006 87070;","Q01+008002SCOLCBQ02  00002PRCP99"
"76458099999","2001-10-09T00:00:00","4","23.2","-106.4166666","4.0","COLONIA JUAN CARRASCO MAZATLAN SIN., MX","FM-12","99999","V020","300,1,N,0030,1","99999,9,9,N","020000,1,N,1","+0302,1","+0237,1","10097,1","24,0000,9,1",,,,,"02,1,+02700,9,03,9",,,"07,99,1,02,1,00,1,99999,9,03,1,04,1",,"01,9",,"120,M,+0324,1","180,N,+0230,1","99999,9,10086,1","5,1,003,1,-008,1",,,"SYN130AAXX  09001 76458 32970 73003 10302 20237 30086 40097 55003 82034 92345 333 0/05/ 10324 20230 30/// 50480 59008 70000 82359 85079;",
"76458099999","2001-10-09T03:00:00","4","23.2","-106.4166666","4.0","COLONIA JUAN CARRASCO MAZATLAN SIN., MX","FM-12","99999","V020","310,1,N,0030,1","22000,1,9,N","008000,1,N,1","+0288,1","+0245,1","10110,1","99,0000,9,1",,,,,"00,1,+99999,9,99,9",,,"00,99,1,00,1,00,1,99999,9,00,1,00,1",,"01,9",,,,"99999,9,10099,1","2,1,013,1,-009,1",,,"SYN082AAXX  09031 76458 32958 03103 10288 20245 30099 40110 52013 90245 333 30/// 59009;","Q01  00002PRCP99"
"76458099999","2001-10-09T09:00:00","4","23.2","-106.4166666","4.0","COLONIA JUAN CARRASCO MAZATLAN SIN., MX","FM-12","99999","V020","999,9,C,0000,1","22000,1,9,N","008000,1,N,1","+0252,1","+0235,1","10109,1","99,0000,9,1",,,,,"00,1,+99999,9,99,9",,,"00,99,1,00,1,00,1,99999,9,00,1,00,1",,"01,9",,,,"99999,9,10098,1","7,1,003,1,-007,1",,,"SYN082AAXX  09091 76458 32958 00000 10252 20235 30098 40109 57003 90858 333 30/// 59007;","Q01  00002PRCP99"
"76458099999","2001-10-09T15:00:00","4","23.2","-106.4166666","4.0","COLONIA JUAN CARRASCO MAZATLAN SIN., MX","FM-12","99999","V020","999,9,C,0000,1","22000,1,9,N","020000,1,N,1","+0266,1","+0239,1","10117,1","99,0000,9,1",,,,,"04,1,+08700,9,01,9",,,"04,99,1,00,1,00,1,99999,9,00,1,05,1",,"01,9",,,,"99999,9,10106,1","2,1,012,1,+999,9",,,"SYN100AAXX  09151 76458 32470 40000 10266 20239 30106 40117 52012 80005 91450 333 0/0// 30/// 50009 84079;","Q01+004502SCOLCBQ02  00002PRCP99"
"76458099999","2001-10-09T18:00:00","4","23.2","-106.4166666","4.0","COLONIA JUAN CARRASCO MAZATLAN SIN., MX","FM-12","99999","V020","170,1,N,0040,1","09000,1,C,N","020000,1,N,1","+0308,1","+0246,1","10122,1","99,0000,9,1",,,,,"02,1,+00780,9,08,9",,,"06,99,1,02,1,08,1,00800,1,00,1,05,1",,"01,9",,"120,M,+0322,1","240,N,+0249,1","99999,9,10111,1","8,1,005,1,-007,1",,,"SYN124AAXX  09180 76458 32570 61704 10308 20246 30111 40122 58005 82805 91750 333 0/4// 10322 20249 30/// 57842 59007 82826 84070;","Q01  00002PRCP99"
"76458099999","2001-10-09T21:00:00","4","23.2","-106.4166666","4.0","COLONIA JUAN CARRASCO MAZATLAN SIN., MX","FM-12","99999","V020","270,1,N,0040,1","02700,1,9,N","016000,1,N,1","+0298,1","+0253,1","10096,1","99,0000,9,1",,,"4,1,03,1","4,1,03,1","01,1,+00570,9,08,9","05,1,+02700,9,03,9",,"07,99,1,01,1,01,1,00450,1,03,1,05,1",,"01,9",,,,"99999,9,10085,1","7,1,026,1,-004,1",,"05,1","SYN118AAXX  09211 76458 31466 72704 10298 20253 30085 40096 57026 70544 81135 92050 333 011// 30/// 59004 81819 85359 81079;","Q01  00002PRCP99"
"76458099999","2001-10-10T00:00:00","4","23.2","-106.4166666","4.0","COLONIA JUAN CARRASCO MAZATLAN SIN., MX","FM-12","99999","V020","290,1,N,0030,1","22000,1,9,N","010000,1,N,1","+0300,1","+0253,1","10089,1","24,0000,9,1",,,"4,1,06,1","4,1,06,1","02,1,+02700,9,03,9",,,"04,99,1,02,1,00,1,99999,9,03,1,05,1",,"01,9",,"120,M,+0330,1","180,N,+0249,1","99999,9,10078,1","7,1,007,1,-008,1",,"05,1","SYN136AAXX  10001 76458 31960 42903 10300 20253 30078 40089 57007 70544 82035 92345 333 0/0// 10330 20249 30/// 50040 59008 70000 82359 82079;",
"76458099999","2001-10-10T03:00:00","4","23.2","-106.4166666","4.0","COLONIA JUAN CARRASCO MAZATLAN SIN., MX","FM-12","99999","V020","340,1,N,0020,1","22000,1,9,N","020000,1,N,1","+0282,1","+0247,1","10092,1","99,0000,9,1",,,"4,1,03,1","4,1,03,1","00,1,+99999,9,99,9",,,"00,99,1,00,1,00,1,99999,9,00,1,00,1",,"01,9",,,,"99999,9,10082,1","3,1,004,1,-017,1",,"05,1","SYN088AAXX  10031 76458 31970 03402 10282 20247 30082 40092 53004 70544 90250 333 30/// 59017;","Q01  00002PRCP99"
"76458099999","2001-10-10T15:00:00","4","23.2","-106.4166666","4.0","COLONIA JUAN CARRASCO MAZATLAN SIN., MX","FM-12","99999","V020","999,9,C,0000,1","22000,1,9,N","999999,9,N,1","+0267,1","+0240,1","10098,1","99,0000,9,1",,,"4,1,03,1","0,1,03,1","00,1,+99999,9,99,9",,,"00,99,1,00,1,00,1,99999,9,00,1,00,1",,"01,9",,,,"99999,9,10087,1","2,1,015,1,-019,1",,"05,1","SYN088AAXX  10151 76458 31955 00000 10267 20240 30087 40098 52015 70540 91445 333 30/// 59019;","Q01  00002PRCP99"
"76458099999","2001-10-10T18:00:00","4","23.2","-106.4166666","4.0","COLONIA JUAN CARRASCO MAZATLAN SIN., MX","FM-12","99999","V020","250,1,N,0030,1","22000,1,9,N","999999,9,N,1","+0300,1","+0256,1","10101,1","99,0000,9,1",,,"4,1,06,1","4,1,06,1","03,1,+00540,9,05,9",,,"03,99,1,03,1,04,1,00450,1,00,1,00,1",,"01,9",,"120,M,+0324,1","240,N,+0231,1","99999,9,10089,1","2,1,002,1,-022,1",,"05,1","SYN124AAXX  10181 76458 31455 32503 10300 20256 30089 40101 52002 70544 83400 91745 333 0/4// 10324 20231 30/// 57649 59022 83618;","Q01  00002PRCP99"
"76458099999","2001-10-10T21:00:00","4","23.2","-106.4166666","4.0","COLONIA JUAN CARRASCO MAZATLAN SIN., MX","FM-12","99999","V020","270,1,N,0060,1","22000,1,9,N","018000,1,N,1","+0302,1","+0231,1","10079,1","99,0000,9,1",,,"4,1,03,1","4,1,03,1","01,1,+00870,9,08,9",,,"03,99,1,01,1,01,1,00800,1,00,1,05,1",,"01,9",,,,"99999,9,10068,1","7,1,021,1,-017,1",,"03,1","SYN112AAXX  10211 76458 31568 32706 10302 20231 30068 40079 57021 70344 81105 92050 333 0110/ 30/// 59017 81829 82079;","Q01  00002PRCP99"
"76458099999","2001-10-11T00:00:00","4","23.2","-106.4166666","4.0","COLONIA JUAN CARRASCO MAZATLAN SIN., MX","FM-12","99999","V020","290,1,N,0060,1","22000,1,9,N","020000,1,N,1","+0307,1","+0219,1","10069,1","24,0000,9,1",,,,,"01,1,+01110,9,09,9",,,"04,99,1,01,1,03,1,01250,1,00,1,04,1",,"01,9",,"120,M,+0325,1","180,N,+0231,1","99999,9,10058,1","7,1,010,1,-020,1",,,"SYN136AAXX  11001 76458 32670 42906 10307 20219 30058 40069 57010 81304 92350 333 0410/ 10325 20231 30/// 50440 57917 59020 70000 81937 83079;","Q01  00002PRCP99Q02  00003PRCP99"
"76458099999","2001-10-11T03:00:00","4","23.2","-106.4166666","4.0","COLONIA JUAN CARRASCO MAZATLAN SIN., MX","FM-12","99999","V020","350,1,N,0020,1","22000,1,9,N","008000,1,N,1","+0282,1","+0209,1","10083,1","99,0000,9,1",,,,,"00,1,+99999,9,99,9",,,"00,99,1,00,1,00,1,99999,9,00,1,00,1",,"01,9",,,,"99999,9,10072,1","2,1,014,1,-010,1",,,"SYN082AAXX  11031 76458 32958 03502 10282 20209 30072 40083 52014 90245 333 30/// 59010;","Q01  00002PRCP99"
"76458099999","2001-10-11T06:00:00","4","23.2","-106.4166666","4.0","COLONIA JUAN CARRASCO MAZATLAN SIN., MX","FM-12","99999","V020","999,9,C,0000,1","22000,1,9,N","008000,1,N,1","+0266,1","+0234,1","10096,1","99,0000,9,1",,,,,"00,1,+99999,9,99,9",,,"00,99,1,00,1,00,1,99999,9,00,1,00,1","0558,9","01,9",,"240,M,+0325,1","240,N,+0231,1","99999,9,10086,1","2,1,013,1,+004,1",,,"SYN100AAXX  11061 76458 32958 00000 10266 20234 30086 40096 52013 90535 333 10325 20231 30/// 55093 58004;","Q01  00002PRCP99"
"76458099999","2001-10-11T12:00:00","4","23.2","-106.4166666","4.0","COLONIA JUAN CARRASCO MAZATLAN SIN., MX","FM-12","99999","V020","090,1,N,0010,1","22000,1,9,N","008000,1,N,1","+0262,1","+0240,1","10096,1","99,0000,9,1",,,,,"00,1,+99999,9,99,9",,,"00,99,1,00,1,00,1,99999,9,00,1,00,1",,"01,9","999,+0220,9","999,M,+0325,1","120,N,+0248,1","99999,9,10086,1","7,1,003,1,+014,1",,,"SYN094AAXX  11121 76458 32958 00901 10262 20240 30086 40096 57003 91135 333 10325 20248 30022 58014;","Q01  00002PRCP99"
"76458099999","2001-10-11T15:00:00","4","23.2","-106.4166666","4.0","COLONIA JUAN CARRASCO MAZATLAN SIN., MX","FM-12","99999","V020","110,1,N,0040,1","22000,1,9,N","012000,1,N,1","+0283,1","+0240,1","10105,1","99,0000,9,1",,,"4,1,03,1","0,1,03,1","01,1,+00540,9,05,9",,,"01,99,1,01,1,04,1,00450,1,00,1,00,1",,"01,9",,,,"99999,9,10094,1","2,1,008,1,+007,1",,"05,1","SYN112AAXX  11151 76458 31462 11104 10283 20240 30094 40105 52008 70540 81400 91450 333 0/4// 30/// 57649 58007 81618;","Q01  00002PRCP99"
"76458099999","2001-10-11T18:00:00","4","23.2","-106.4166666","4.0","COLONIA JUAN CARRASCO MAZATLAN SIN., MX","FM-12","99999","V020","140,1,N,0030,1","22000,1,9,N","015000,1,N,1","+0309,1","+0251,1","10111,1","99,0000,9,1",,,"4,1,06,1","4,1,06,1","02,1,+00720,9,02,9",,,"02,99,1,02,1,02,1,00800,1,00,1,00,1",,"01,9",,"120,M,+0322,1","240,N,+0260,1","99999,9,10100,1","2,1,006,1,+011,1",,"05,1","SYN124AAXX  11180 76458 31565 21403 10309 20251 30100 40111 52006 70544 82200 91747 333 0/3// 10322 20260 30/// 57836 58011 82824;","Q01  00002PRCP99"
"76458099999","2001-10-11T21:00:00","4","23.2","-106.4166666","4.0","COLONIA JUAN CARRASCO MAZATLAN SIN., MX","FM-12","99999","V020","230,1,N,0040,1","22000,1,9,N","020000,1,N,1","+0316,1","+0245,1","10102,1","99,0000,9,1",,,,,"01,1,+00870,9,08,9",,,"03,99,1,01,1,08,1,00800,1,00,1,05,1",,"01,9",,,,"99999,9,10091,1","7,1,009,1,+023,1",,,"SYN112AAXX  11211 76458 32570 32304 10316 20245 30091 40102 57009 81805 92055 333 0/5// 30/// 57853 58023 81829 82070;","Q01  00002PRCP99"
"76458099999","2001-10-12T00:00:00","4","23.2","-106.4166666","4.0","COLONIA JUAN CARRASCO MAZATLAN SIN., MX","FM-12","99999","V020","270,1,N,0030,1","22000,1,9,N","010000,1,N,1","+0293,1","+0239,1","10092,1","24,0000,9,1",,,,,"01,1,+00690,9,08,9",,,"02,99,1,02,1,03,1,00800,1,00,1,00,1",,"01,9",,"120,M,+0330,1","180,N,+0260,1","99999,9,10081,1","7,1,010,1,+023,1",,,"SYN136AAXX  12001 76458 32560 22703 10293 20239 30081 40092 57010 82300 92350 333 04100 10330 20260 30/// 50420 57916 58023 70000 81823 81934;","Q01  00002PRCP99Q02  00003PRCP99"
"76458099999","2001-10-12T03:00:00","4","23.2","-106.4166666","4.0","COLONIA JUAN CARRASCO MAZATLAN SIN., MX","FM-12","99999","V020","999,9,C,0000,1","22000,1,9,N","008000,1,N,1","+0284,1","+0220,1","10111,1","99,0000,9,1",,,,,"00,1,+99999,9,99,9",,,"00,99,1,00,1,00,1,99999,9,00,1,00,1",,"01,9",,,,"99999,9,10100,1","2,1,019,1,+028,1",,,"SYN082AAXX  12031 76458 32958 00000 10284 20220 30100 40111 52019 90245 333 30/// 58028;","Q01  00002PRCP99"
"76458099999","2001-10-12T06:00:00","4","23.2","-106.4166666","4.0","COLONIA JUAN CARRASCO MAZATLAN SIN., MX","FM-12","99999","V020","999,9,C,0000,1","22000,1,9,N","008000,1,N,1","+0268,1","+0229,1","10116,1","99,0000,9,1",,,,,"00,1,+99999,9,99,9",,,"00,99,1,00,1,00,1,99999,9,00,1,00,1","0552,9","01,9",,"240,M,+0330,1","240,N,+0260,1","99999,9,10105,1","1,1,005,1,+019,1",,,"SYN100AAXX  12061 76458 32958 00000 10268 20229 30105 40116 51005 90535 333 10330 20260 30/// 55092 58019;","Q01  00002PRCP99"
"76458099999","2001-10-12T12:00:00","4","23.2","-106.4166666","4.0","COLONIA JUAN CARRASCO MAZATLAN SIN., MX","FM-12","99999","V020","350,1,N,0010,1","22000,1,9,N","008000,1,N,1","+0250,1","+0225,1","10099,1","99,0000,9,1",,,,,"00,1,+99999,9,99,9",,,"00,99,1,00,1,00,1,99999,9,00,1,00,1",,"01,9","999,+0230,9","999,M,+0330,1","120,N,+0250,1","99999,9,10088,1","7,1,004,1,+002,1",,,"SYN094AAXX  12121 76458 32958 03501 10250 20225 30088 40099 57004 91135 333 10330 20250 30023 58002;","Q01  00002PRCP99"
"76458099999","2001-10-12T15:00:00","4","23.2","-106.4166666","4.0","COLONIA JUAN CARRASCO MAZATLAN SIN., MX","FM-12","99999","V020","340,1,N,0020,1","22000,1,9,N","020000,1,N,1","+0270,1","+0229,1","10112,1","99,0000,9,1",,,,,"01,1,+00510,9,08,9",,,"03,99,1,01,1,08,1,00450,1,00,1,02,1",,"01,9",,,,"99999,9,10101,1","2,1,013,1,+007,1",,,"SYN112AAXX  12150 76458 32470 33402 10270 20229 30101 40112 52013 81802 91450 333 0/7// 30/// 57873 58007 81817 82070;","Q01  00002PRCP99"
"76458099999","2001-10-12T21:00:00","4","23.2","-106.4166666","4.0","COLONIA JUAN CARRASCO MAZATLAN SIN., MX","FM-12","99999","V020","270,1,N,0040,1","22000,1,9,N","020000,1,N,1","+0296,1","+0233,1","10087,1","99,0000,9,1",,,,,"01,1,+00780,9,02,9",,,"01,99,1,01,1,01,1,00800,1,00,1,00,1",,"01,9",,,,"99999,9,10076,1","7,1,012,1,-015,1",,,"SYN106AAXX  12211 76458 32570 12704 10296 20233 30076 40087 57012 81100 92045 333 0/1// 30/// 57819 59015 81826;","Q01  00002PRCP99"
"76458099999","2001-10-13T00:00:00","4","23.2","-106.4166666","4.0","COLONIA JUAN CARRASCO MAZATLAN SIN., MX","FM-12","99999","V020","290,1,N,0040,1","22000,1,9,N","020000,1,N,1","+0296,1","+0233,1","10085,1","24,0000,9,1",,,,,,,,"01,99,1,01,1,02,1,00800,1,00,1,00,1",,"01,9",,"120,M,+0325,1","180,N,+0245,1","99999,9,10074,1","5,1,002,1,-007,1",,,"SYN124AAXX  13001 76458 32570 12904 10296 20233 30074 40085 55002 81200 92345 333 10325 20245 30/// 50421 56100 59007 70000 81824;","Q01  00002PRCP99Q02  00003PRCP99"
"76458099999","2001-10-13T03:00:00","4","23.2","-106.4166666","4.0","COLONIA JUAN CARRASCO MAZATLAN SIN., MX","FM-12","99999","V020","350,1,N,0030,1","22000,1,9,N","008000,1,N,1","+0280,1","+0222,1","10094,1","99,0000,9,1",,,,,"00,1,+99999,9,99,9",,,"00,99,1,00,1,00,1,99999,9,00,1,00,1",,"01,9",,,,"99999,9,10083,1","2,1,009,1,-017,1",,,"SYN082AAXX  13031 76458 32958 03503 10280 20222 30083 40094 52009 90245 333 30/// 59017;","Q01  00002PRCP99"
"76458099999","2001-10-13T12:00:00","4","23.2","-106.4166666","4.0","COLONIA JUAN CARRASCO MAZATLAN SIN., MX","FM-12","99999","V020","350,1,N,0010,1","22000,1,9,N","008000,1,N,1","+0234,1","+0205,1","10095,1","99,0000,9,1",,,,,"00,1,+99999,9,99,9",,,"00,99,1,00,1,00,1,99999,9,00,1,00,1",,"01,9","999,+0210,9","999,M,+0325,1","120,N,+0230,1","99999,9,10084,1","4,1,000,1,-004,1",,,"SYN094AAXX  13121 76458 32958 03501 10234 20205 30084 40095 54000 91135 333 10325 20230 30021 59004;","Q01  00002PRCP99"
"76458099999","2001-10-13T15:00:00","4","23.2","-106.4166666","4.0","COLONIA JUAN CARRASCO MAZATLAN SIN., MX","FM-12","99999","V020","999,9,C,0000,1","22000,1,9,N","018000,1,N,1","+0254,1","+0211,1","10101,1","99,0000,9,1",,,,,"01,1,+00540,9,02,9",,,"01,99,1,01,1,08,1,00450,1,99,9,99,9",,"01,9",,,,"99999,9,10090,1","3,1,007,1,-011,1",,,"SYN100AAXX  13151 76458 32468 10000 10254 20211 30090 40101 53007 818// 91450 333 0/0// 30/// 59011 81818;","Q01  00002PRCP99"
"76458099999","2001-10-13T18:00:00","4","23.2","-106.4166666","4.0","COLONIA JUAN CARRASCO MAZATLAN SIN., MX","FM-12","99999","V020","300,1,N,0030,1","22000,1,9,N","020000,1,N,1","+0286,1","+0207,1","10107,1","99,0000,9,1",,,,,"02,1,+00990,9,02,9",,,"02,99,1,02,1,08,1,00800,1,99,9,99,9",,"01,9",,"120,M,+0328,1","240,N,+0228,1","99999,9,10096,1","0,1,006,1,-006,1",,,"SYN118AAXX  13181 76458 32570 23003 10286 20207 30096 40107 50006 828// 91750 333 0/6// 10328 20228 30/// 57863 59006 82833;","Q01  00002PRCP99"
"76458099999","2001-10-13T21:00:00","4","23.2","-106.4166666","4.0","COLONIA JUAN CARRASCO MAZATLAN SIN., MX","FM-12","99999","V020","250,1,N,0030,1","22000,1,9,N","020000,1,N,1","+0299,1","+0206,1","10075,1","99,0000,9,1",,,,,"01,1,+01170,9,02,9",,,"01,99,1,01,1,01,1,01250,1,00,1,00,1",,"01,9",,,,"99999,9,10064,1","7,1,032,1,-012,1",,,"SYN106AAXX  13211 76458 32670 12503 10299 20206 30064 40075 57032 81100 92045 333 0/1// 30/// 57819 59012 81839;","Q01  00002PRCP99"
"76458099999","2001-10-14T00:00:00","4","23.2","-106.4166666","4.0","COLONIA JUAN CARRASCO MAZATLAN SIN., MX","FM-12","99999","V020","270,1,N,0030,1","22000,1,9,N","020000,1,N,1","+0292,1","+0208,1","10070,1","24,0000,9,1",,,,,"00,1,+99999,9,99,9",,,"00,99,1,00,1,00,1,99999,9,00,1,00,1",,"01,9",,"120,M,+0324,1","180,N,+0228,1","99999,9,10059,1","6,1,005,1,-016,1",,,"SYN106AAXX  14001 76458 32970 02703 10292 20208 30059 40070 56005 92340 333 10324 20228 30/// 5///1 59016 70000;","Q01  00002PRCP24"
"76458099999","2001-10-14T03:00:00","4","23.2","-106.4166666","4.0","COLONIA JUAN CARRASCO MAZATLAN SIN., MX","FM-12","99999","V020","340,1,N,0020,1","22000,1,9,N","008000,1,N,1","+0272,1","+0207,1","10086,1","99,0000,9,1",,,,,"00,1,+99999,9,99,9",,,"00,99,1,00,1,00,1,99999,9,00,1,00,1",,"01,9",,,,"99999,9,10075,1","2,1,016,1,-008,1",,,"SYN082AAXX  14031 76458 32958 03402 10272 20207 30075 40086 52016 90245 333 30/// 59008;","Q01  00002PRCP99"
"76458099999","2001-10-14T09:00:00","4","23.2","-106.4166666","4.0","COLONIA JUAN CARRASCO MAZATLAN SIN., MX","FM-12","99999","V020","999,9,C,0000,1","22000,1,9,N","008000,1,N,1","+0242,1","+0204,1","10096,1","99,0000,9,1",,,,,"00,1,+99999,9,99,9",,,"00,99,1,00,1,00,1,99999,9,00,1,00,1",,"01,9",,,,"99999,9,10085,1","7,1,003,1,+001,1",,,"SYN082AAXX  14091 76458 32958 00000 10242 20204 30085 40096 57003 90850 333 30/// 58001;","Q01  00002PRCP99"
"76458099999","2001-10-14T12:00:00","4","23.2","-106.4166666","4.0","COLONIA JUAN CARRASCO MAZATLAN SIN., MX","FM-12","99999","V020","090,1,N,0020,1","22000,1,9,N","008000,1,N,1","+0237,1","+0210,1","10102,1","24,0000,9,1",,,,,"03,1,+00330,9,05,9",,,"03,99,1,03,1,04,1,00450,1,00,1,00,1",,"01,9","999,+0210,9","999,M,+0324,1","120,N,+0232,1","99999,9,10091,1","2,1,006,1,+007,1",,,"SYN118AAXX  14121 76458 32458 30902 10237 20210 30091 40102 52006 83400 91150 333 0//00 10324 20232 30021 58007 70000 83611;",
"76458099999","2001-10-14T15:00:00","4","23.2","-106.4166666","4.0","COLONIA JUAN CARRASCO MAZATLAN SIN., MX","FM-12","99999","V020","120,1,N,0030,1","22000,1,9,N","018000,1,N,1","+0262,1","+0215,1","10112,1","99,0000,9,1",,,,,"02,1,+00570,9,06,9","01,1,+02400,9,03,9",,"04,99,1,02,1,06,1,00450,1,03,1,05,1",,"01,9",,,,"99999,9,10100,1","0,1,009,1,-010,1",,,"SYN112AAXX  14151 76458 32468 41203 10262 20215 30100 40112 50009 82635 91450 333 0/9// 30/// 59010 82619 81358 81070;","Q01  00002PRCP99"
"76458099999","2001-10-15T00:00:00","4","23.2","-106.4166666","4.0","COLONIA JUAN CARRASCO MAZATLAN SIN., MX","FM-12","99999","V020","270,1,N,0030,1","22000,1,9,N","020000,1,N,1","+0300,1","+0214,1","10084,1","24,0000,9,1",,,,,"00,1,+99999,9,99,9",,,"00,99,1,00,1,00,1,99999,9,00,1,00,1",,"01,9",,"120,M,+0320,1","180,N,+0225,1","99999,9,10073,1","7,1,003,1,+014,1",,,"SYN106AAXX  15001 76458 32970 02703 10300 20214 30073 40084 57003 92340 333 10320 20225 30/// 50411 58014 70000;","Q01  00002PRCP24"
"76458099999","2001-10-15T03:00:00","4","23.2","-106.4166666","4.0","COLONIA JUAN CARRASCO MAZATLAN SIN., MX","FM-12","99999","V020","310,1,N,0010,1","22000,1,9,N","008000,1,N,1","+0268,1","+0209,1","10109,1","99,0000,9,1",,,,,"00,1,+99999,9,99,9",,,"00,99,1,00,1,00,1,99999,9,00,1,00,1",,"01,9",,,,"99999,9,10098,1","2,1,025,1,-023,1",,,"SYN082AAXX  15031 76458 32958 03101 10268 20209 30098 40109 52025 90245 333 30/// 59023;","Q01  00002PRCP99"
"76458099999","2001-10-15T06:00:00","4","23.2","-106.4166666","4.0","COLONIA JUAN CARRASCO MAZATLAN SIN., MX","FM-12","99999","V020","999,9,C,0000,1","22000,1,9,N","008000,1,N,1","+0248,1","+0211,1","10126,1","99,0000,9,1",,,,,"00,1,+99999,9,99,9",,,"00,99,1,00,1,00,1,99999,9,00,1,00,1","0636,9","01,9",,"240,M,+0320,1","240,N,+0225,1","99999,9,10115,1","2,1,017,1,+027,1",,,"SYN100AAXX  15061 76458 32958 00000 10248 20211 30115 40126 52017 90530 333 10320 20225 30/// 55106 58027;","Q01  00002PRCP99"
"76458099999","2001-10-15T12:00:00","4","23.2","-106.4166666","4.0","COLONIA JUAN CARRASCO MAZATLAN SIN., MX","FM-12","99999","V020","999,9,C,0000,1","22000,1,9,N","008000,1,N,1","+0224,1","+0201,1","10107,1","99,0000,9,1",,,,,"00,1,+99999,9,99,9",,,"00,99,1,00,1,00,1,99999,9,00,1,00,1",,"01,9","999,+0200,9","999,M,+0320,1","120,N,+0220,1","99999,9,10096,1","7,1,004,1,+005,1",,,"SYN094AAXX  15121 76458 32958 00000 10224 20201 30096 40107 57004 91135 333 10320 20220 30020 58005;","Q01  00002PRCP99"
"76458099999","2001-10-15T15:00:00","4","23.2","-106.4166666","4.0","COLONIA JUAN CARRASCO MAZATLAN SIN., MX","FM-12","99999","V020","999,9,C,0000,1","22000,1,9,N","012000,1,N,1","+0260,1","+0233,1","10121,1","99,0000,9,1",,,,,"02,1,+06000,9,08,9",,,"02,99,1,99,9,00,1,99999,9,00,1,05,1",,"01,9",,,,"99999,9,10109,1","1,1,013,1,+009,1",,,"SYN100AAXX  15151 76458 32962 20000 10260 20233 30109 40121 51013 80005 91455 333 0///0 30/// 58009 82270;","Q01+000002SCOTLCQ02  00002PRCP99"
"76458099999","2001-10-15T18:00:00","4","23.2","-106.4166666","4.0","COLONIA JUAN CARRASCO MAZATLAN SIN., MX","FM-12","99999","V020","250,1,N,0030,1","22000,1,9,N","018000,1,N,1","+0306,1","+0199,1","10126,1","99,0000,9,1",,,,,"02,1,+06000,9,08,9",,,"02,99,1,99,9,00,1,99999,9,00,1,05,1",,"01,9",,"120,M,+0323,1","240,N,+0216,1","99999,9,10115,1","3,1,006,1,+018,1",,,"SYN112AAXX  15181 76458 32968 22503 10306 20199 30115 40126 53006 80005 91755 333 0///0 10323 20216 30/// 58018 82270;","Q01+000002SCOTLCQ02  00002PRCP99"
"76458099999","2001-10-15T21:00:00","4","23.2","-106.4166666","4.0","COLONIA JUAN CARRASCO MAZATLAN SIN., MX","FM-12","99999","V020","240,1,N,0060,1","22000,1,9,N","020000,1,N,1","+0308,1","+0173,1","10104,1","99,0000,9,1",,,,,"04,1,+06000,9,01,9",,,"04,99,1,00,1,00,1,99999,9,00,1,08,1",,"01,9",,,,"99999,9,10093,1","7,1,022,1,+017,1",,,"SYN094AAXX  15211 76458 32770 42406 10308 20173 30093 40104 57022 80008 92050 333 30/// 58017 84070;","Q01+017502SCOLCBQ02  00002PRCP99"
"76458099999","2001-10-16T00:00:00","4","23.2","-106.4166666","4.0","COLONIA JUAN CARRASCO MAZATLAN SIN., MX","FM-12","99999","V020","280,1,N,0050,1","22000,1,9,N","020000,1,N,1","+0300,1","+0207,1","10099,1","24,0000,9,1",,,,,,,,"04,99,1,00,1,00,1,99999,9,00,1,05,1",,"01,9",,"120,M,+0325,1","180,N,+0212,1","99999,9,10088,1","7,1,005,1,-019,1",,,"SYN118AAXX  16001 76458 32770 42805 10300 20207 30088 40099 57005 80005 92350 333 10325 20212 30/// 59019 58015 70000 84070;","Q01+017502SCOLCBQ02  00002PRCP99Q03  00003PRCP99"
"76458099999","2001-10-16T03:00:00","4","23.2","-106.4166666","4.0","COLONIA JUAN CARRASCO MAZATLAN SIN., MX","FM-12","99999","V020","310,1,N,0020,1","22000,1,9,N","008000,1,N,1","+0284,1","+0214,1","10114,1","99,0000,9,1",,,"4,1,03,1","4,1,03,1","00,1,+99999,9,99,9",,,"00,99,1,00,1,00,1,99999,9,00,1,00,1",,"01,9",,,,"99999,9,10103,1","2,1,015,1,+005,1",,"05,1","SYN088AAXX  16031 76458 32958 03102 10284 20214 30103 40114 52015 70544 90245 333 30/// 58005;","Q01  00002PRCP99"
"76458099999","2001-10-16T12:00:00","4","23.2","-106.4166666","4.0","COLONIA JUAN CARRASCO MAZATLAN SIN., MX","FM-12","99999","V020","999,9,C,0000,1","22000,1,9,N","008000,1,N,1","+0230,1","+0201,1","10118,1","99,0000,9,1",,,,,"00,1,+99999,9,99,9",,,"00,99,1,00,1,00,1,99999,9,00,1,00,1",,"01,9","999,+0200,9","999,M,+9999,9",,"99999,9,10107,1","7,1,004,1,+011,1",,,"SYN088AAXX  16121 76458 32958 00000 10230 20201 30107 40118 57004 91133 333 10220 30020 58011;","Q01  00002PRCP99Q02 +02202ATMX  "
"76458099999","2001-10-16T15:00:00","4","23.2","-106.4166666","4.0","COLONIA JUAN CARRASCO MAZATLAN SIN., MX","FM-12","99999","V020","999,9,C,0000,1","22000,1,9,N","012000,1,N,1","+0252,1","+0209,1","10129,1","99,0000,9,1",,,,,"00,1,+99999,9,99,9",,,"00,99,1,00,1,00,1,99999,9,00,1,00,1",,"01,9",,,,"99999,9,10118,1","1,1,010,1,+009,1",,,"SYN082AAXX  16150 76458 32962 00000 10252 20209 30118 40129 51010 91445 333 30/// 58009;","Q01  00002PRCP99"
"76458099999","2001-10-16T18:00:00","4","23.2","-106.4166666","4.0","COLONIA JUAN CARRASCO MAZATLAN SIN., MX","FM-12","99999","V020","240,1,N,0030,1","22000,1,9,N","013000,1,N,1","+0216,1","+0211,1","10128,1","99,0000,9,1",,,,,"00,1,+99999,9,99,9",,,"00,99,1,00,1,00,1,99999,9,00,1,00,1",,"01,9",,"120,M,+0312,1","240,N,+0219,1","99999,9,10117,1","8,1,001,1,+007,1",,,"SYN094AAXX  16181 76458 32963 02403 10216 20211 30117 40128 58001 91759 333 10312 20219 30/// 58007;","Q01  00002PRCP99"
"76458099999","2001-10-16T21:00:00","4","23.2","-106.4166666","4.0","COLONIA JUAN CARRASCO MAZATLAN SIN., MX","FM-12","99999","V020","999,9,C,0000,1","22000,1,9,N","020000,1,N,1","+0298,1","+0228,1","10102,1","99,0000,9,1",,,,,"00,1,+99999,9,99,9",,,"00,99,1,00,1,00,1,99999,9,00,1,00,1",,"01,9",,,,"99999,9,10091,1","7,1,027,1,-002,1",,,"SYN082AAXX  16211 76458 32670 00000 10298 20228 30091 40102 57027 92050 333 30/// 59002;","Q01  00002PRCP99"
"76458099999","2001-10-17T00:00:00","4","23.2","-106.4166666","4.0","COLONIA JUAN CARRASCO MAZATLAN SIN., MX","FM-12","99999","V020","999,9,C,0000,1","22000,1,9,N","020000,1,N,1","+0300,1","+0238,1","10095,1","24,0000,9,1",,,,,"00,1,+99999,9,99,9",,,"00,99,1,00,1,00,1,99999,9,00,1,00,1",,"01,9",,"120,M,+0320,1","180,N,+0219,1","99999,9,10084,1","5,1,007,1,-004,1",,,"SYN106AAXX  17001 76458 32670 00000 10300 20238 30084 40095 55007 92350 333 10320 20219 30/// 50195 59004 70000;","Q01  00002PRCP24"
"76458099999","2001-10-17T06:00:00","4","23.2","-106.4166666","4.0","COLONIA JUAN CARRASCO MAZATLAN SIN., MX","FM-12","99999","V020","340,1,N,0020,1","22000,1,9,N","020000,1,N,1","+0261,1","+0225,1","10110,1","99,0000,9,1",,,,,"00,1,+99999,9,99,9",,,"00,99,1,00,1,00,1,99999,9,00,1,00,1","0612,9","01,9",,"240,M,+0320,1","240,N,+0219,1","99999,9,10099,1","2,1,008,1,-016,1",,,"SYN100AAXX  17061 76458 32970 03402 10261 20225 30099 40110 52008 90540 333 10320 20219 30/// 55102 59016;","Q01  00002PRCP99"
"76458099999","2001-10-17T12:00:00","4","23.2","-106.4166666","4.0","COLONIA JUAN CARRASCO MAZATLAN SIN., MX","FM-12","99999","V020","100,1,N,0020,1","00240,1,9,N","008000,1,N,1","+0252,1","+0233,1","10121,1","99,0000,9,1",,,,,"06,1,+00240,9,06,9",,,"06,99,1,06,1,06,1,00250,1,00,1,00,1",,"01,9","999,+0210,9","999,M,+0320,1","120,N,+0230,1","99999,9,10110,1","2,1,003,1,+000,1",,,"SYN112AAXX  17121 76458 32358 61002 10252 20233 30110 40121 52003 86600 91132 333 0/700 10320 20230 30021 58000 86708;","Q01  00002PRCP99"
"76458099999","2001-10-17T18:00:00","4","23.2","-106.4166666","4.0","COLONIA JUAN CARRASCO MAZATLAN SIN., MX","FM-12","99999","V020","230,1,N,0030,1","22000,1,9,N","015000,1,N,1","+0310,1","+0250,1","10131,1","99,0000,9,1",,,,,"00,1,+99999,9,99,9",,,"00,99,1,00,1,00,1,99999,9,00,1,00,1",,"01,9",,"120,M,+0330,1","240,N,+0232,1","99999,9,10120,1","1,1,001,1,+003,1",,,"SYN094AAXX  17181 76458 32965 02303 10310 20250 30120 40131 51001 91755 333 10330 20232 30/// 58003;","Q01  00002PRCP99"
"76458099999","2001-10-17T21:00:00","4","23.2","-106.4166666","4.0","COLONIA JUAN CARRASCO MAZATLAN SIN., MX","FM-12","99999","V020","250,1,N,0030,1","22000,1,9,N","015000,1,N,1","+0311,1","+0251,1","10099,1","99,0000,9,1",,,,,"00,1,+99999,9,99,9",,,"00,99,1,00,1,00,1,99999,9,00,1,00,1",,"01,9",,,,"99999,9,10088,1","7,1,012,1,-003,1",,,"SYN082AAXX  17211 76458 32965 02503 10311 20251 30088 40099 57012 92050 333 30/// 59003;","Q01  00002PRCP99"
"76458099999","2001-10-18T00:00:00","4","23.2","-106.4166666","4.0","COLONIA JUAN CARRASCO MAZATLAN SIN., MX","FM-12","99999","V020","270,1,N,0040,1","22000,1,9,N","018000,1,N,1","+0306,1","+0247,1","10095,1","24,0000,9,1",,,,,"00,1,+99999,9,99,9",,,"00,99,1,00,1,00,1,99999,9,00,1,00,1",,"01,9",,"120,M,+0335,1","180,N,+0232,1","99999,9,10084,1","7,1,004,1,+000,1",,,"SYN106AAXX  18001 76458 32968 02704 10306 20247 30084 40095 57004 92345 333 10335 20232 30/// 50551 58000 70000;","Q01  00002PRCP24"
"76458099999","2001-10-18T03:00:00","4","23.2","-106.4166666","4.0","COLONIA JUAN CARRASCO MAZATLAN SIN., MX","FM-12","99999","V020","310,1,N,0040,1","22000,1,9,N","008000,1,N,1","+0278,1","+0246,1","10110,1","99,0000,9,1",,,,,"00,1,+99999,9,99,9",,,"00,99,1,00,1,00,1,99999,9,00,1,00,1",,"01,9",,,,"99999,9,10100,1","2,1,016,1,+009,1",,,"SYN082AAXX  18031 76458 32958 03104 10278 20246 30100 40110 52016 90245 333 30/// 58009;","Q01  00002PRCP99"
"76458099999","2001-10-18T06:00:00","4","23.2","-106.4166666","4.0","COLONIA JUAN CARRASCO MAZATLAN SIN., MX","FM-12","99999","V020","340,1,N,0020,1","22000,1,9,N","008000,1,N,1","+0264,1","+0214,1","10116,1","99,0000,9,1",,,,,"00,1,+99999,9,99,9",,,"00,99,1,00,1,00,1,99999,9,00,1,00,1","0588,9","01,9",,"240,M,+0335,1","240,N,+0232,1","99999,9,10106,1","0,1,006,1,+006,1",,,"SYN100AAXX  18061 76458 32958 03402 10264 20214 30106 40116 50006 90545 333 10335 20232 30/// 55098 58006;","Q01  00002PRCP99"
"76458099999","2001-10-18T12:00:00","4","23.2","-106.4166666","4.0","COLONIA JUAN CARRASCO MAZATLAN SIN., MX","FM-12","99999","V020","999,9,C,0000,1","22000,1,9,N","008000,1,N,1","+0238,1","+0204,1","10109,1","99,0000,9,1",,,,,"00,1,+99999,9,99,9",,,"00,99,1,00,1,00,1,99999,9,00,1,00,1",,"01,9","999,+0210,9","999,M,+0335,1","120,N,+0230,1","99999,9,10098,1","7,1,004,1,-012,1",,,"SYN094AAXX  18121 76458 32958 00000 10238 20204 30098 40109 57004 91135 333 10335 20230 30021 59012;","Q01  00002PRCP99"
"76458099999","2001-10-18T21:00:00","4","23.2","-106.4166666","4.0","COLONIA JUAN CARRASCO MAZATLAN SIN., MX","FM-12","99999","V020","999,9,C,0000,1","22000,1,9,N","014000,1,N,1","+0312,1","+0233,1","10098,1","99,0000,9,1",,,,,"00,1,+99999,9,99,9",,,"00,99,1,00,1,00,1,99999,9,00,1,00,1",,"01,9",,,,"99999,9,10087,1","8,1,018,1,-001,1",,,"SYN082AAXX  18211 76458 32064 00000 10312 20233 30087 40098 58018 92050 333 30/// 59001;","Q01  00002PRCP99"
"76458099999","2001-10-19T00:00:00","4","23.2","-106.4166666","4.0","COLONIA JUAN CARRASCO MAZATLAN SIN., MX","FM-12","99999","V020","999,9,C,0000,1","22000,1,9,N","016000,1,N,1","+0302,1","+0240,1","10085,1","24,0000,9,1",,,,,"00,1,+99999,9,99,9",,,"00,99,1,00,1,00,1,99999,9,00,1,00,1",,"01,9",,"120,M,+0334,1","180,N,+0220,1","99999,9,10073,1","7,1,014,1,-011,1",,,"SYN106AAXX  19001 76458 32066 00000 10302 20240 30073 40085 57014 92340 333 10334 20220 30/// 50280 59011 70000;","Q01  00002PRCP24"
"76458099999","2001-10-19T03:00:00","4","23.2","-106.4166666","4.0","COLONIA JUAN CARRASCO MAZATLAN SIN., MX","FM-12","99999","V020","310,1,N,0030,1","22000,1,9,N","008000,1,N,1","+0278,1","+0249,1","10096,1","99,0000,9,1",,,,,"00,1,+99999,9,99,9",,,"00,99,1,00,1,00,1,99999,9,00,1,00,1",,"01,9",,,,"99999,9,10086,1","2,1,013,1,-014,1",,,"SYN082AAXX  19031 76458 32958 03103 10278 20249 30086 40096 52013 90245 333 30/// 59014;","Q01  00002PRCP99"
"76458099999","2001-10-19T06:00:00","4","23.2","-106.4166666","4.0","COLONIA JUAN CARRASCO MAZATLAN SIN., MX","FM-12","99999","V020","330,1,N,0030,1","22000,1,9,N","008000,1,N,1","+0266,1","+0236,1","10101,1","99,0000,9,1",,,,,"00,1,+99999,9,99,9",,,"00,99,1,00,1,00,1,99999,9,00,1,00,1","0606,9","01,9",,"240,M,+0334,1","240,N,+0220,1","99999,9,10096,1","1,1,004,1,-016,1",,,"SYN100AAXX  19061 76458 32958 03303 10266 20236 30096 40101 51004 90535 333 10334 20220 30/// 55101 59016;","Q01  00002PRCP99"
"76458099999","2001-10-19T12:00:00","4","23.2","-106.4166666","4.0","COLONIA JUAN CARRASCO MAZATLAN SIN., MX","FM-12","99999","V020","999,9,C,0000,1","22000,1,9,N","008000,1,N,1","+0246,1","+0221,1","10093,1","99,0000,9,1",,,,,"00,1,+99999,9,99,9",,,"00,99,1,00,1,00,1,99999,9,00,1,00,1",,"01,9","999,+0220,9","999,M,+0334,1","120,N,+0230,1","99999,9,10082,1","4,1,000,1,-016,1",,,"SYN094AAXX  19121 76458 32958 00000 10246 20221 30082 40093 54000 91135 333 10334 20230 30022 59016;","Q01  00002PRCP99"
"76458099999","2001-10-19T15:00:00","4","23.2","-106.4166666","4.0","COLONIA JUAN CARRASCO MAZATLAN SIN., MX","FM-12","99999","V020","140,1,N,0020,1","22000,1,9,N","012000,1,N,1","+0268,1","+0226,1","10100,1","99,0000,9,1",,,,,"00,1,+99999,9,99,9",,,"00,99,1,00,1,00,1,99999,9,00,1,00,1",,"01,9",,,,"99999,9,10089,1","2,1,007,1,-015,1",,,"SYN082AAXX  19151 76458 32962 01402 10268 20226 30089 40100 52007 91450 333 30/// 59015;","Q01  00002PRCP99"
"76458099999","2001-10-19T18:00:00","4","23.2","-106.4166666","4.0","COLONIA JUAN CARRASCO MAZATLAN SIN., MX","FM-12","99999","V020","999,9,C,0000,1","22000,1,9,N","008000,1,N,1","+0306,1","+0240,1","10093,1","99,0000,9,1",,,"4,1,06,1","0,1,06,1","00,1,+99999,9,99,9",,,"00,99,1,00,1,00,1,99999,9,00,1,00,1",,"01,9",,"120,M,+0321,1","240,N,+0239,1","99999,9,10081,1","8,1,008,1,-024,1",,"05,1","SYN100AAXX  19181 76458 31958 00000 10306 20240 30081 40093 58008 70540 91745 333 10321 20239 30/// 59024;","Q01  00002PRCP99"
"76458099999","2001-10-19T21:00:00","4","23.2","-106.4166666","4.0","COLONIA JUAN CARRASCO MAZATLAN SIN., MX","FM-12","99999","V020","999,9,C,0000,1","22000,1,9,N","018000,1,N,1","+0304,1","+0245,1","10073,1","99,0000,9,1",,,,,"00,1,+99999,9,99,9",,,"00,99,1,00,1,00,1,99999,9,00,1,00,1",,"01,9",,,,"99999,9,10061,1","7,1,020,1,-026,1",,,"SYN082AAXX  19211 76458 32068 00000 10304 20245 30061 40073 57020 92050 333 30/// 59026;","Q01  00002PRCP99"
"76458099999","2001-10-20T00:00:00","4","23.2","-106.4166666","4.0","COLONIA JUAN CARRASCO MAZATLAN SIN., MX","FM-12","99999","V020","260,1,N,0060,1","22000,1,9,N","018000,1,N,1","+0302,1","+0251,1","10068,1","24,0000,9,1",,,,,,,,"02,99,1,02,1,08,1,00800,1,99,9,99,9",,"01,9",,"120,M,+0330,1","180,N,+0239,1","99999,9,10057,1","7,1,004,1,-016,1",,,"SYN130AAXX  20001 76458 32568 22606 10302 20251 30057 40068 57004 828// 92350 333 0/2// 10330 20239 30/// 50294 57823 59016 70000 82821;","Q01  00002PRCP99Q02  00003PRCP99"
"76458099999","2001-10-20T03:00:00","4","23.2","-106.4166666","4.0","COLONIA JUAN CARRASCO MAZATLAN SIN., MX","FM-12","99999","V020","300,1,N,0030,1","22000,1,9,N","002400,1,N,1","+0286,1","+0251,1","10078,1","99,0000,9,1",,,,,"01,1,+00450,9,02,9",,,"01,99,1,99,9,99,9,99999,9,99,9,99,9",,"01,9",,,,"99999,9,10067,1","2,1,010,1,-019,1",,,"SYN100AAXX  20031 76458 32924 13003 10286 20251 30067 40078 52010 90245 333 0/6// 30/// 57860 59019 81815;","Q01  00002PRCP99"
"76458099999","2001-10-20T06:00:00","4","23.2","-106.4166666","4.0","COLONIA JUAN CARRASCO MAZATLAN SIN., MX","FM-12","99999","V020","320,1,N,0010,1","22000,1,9,N","008000,1,N,1","+0276,1","+0252,1","10089,1","99,0000,9,1",,,,,"00,1,+99999,9,99,9",,,"00,99,1,00,1,00,1,99999,9,00,1,00,1","0606,9","01,9",,"240,M,+0330,1","240,N,+0239,1","99999,9,10078,1","2,1,011,1,-012,1",,,"SYN100AAXX  20061 76458 32958 03201 10276 20252 30078 40089 52011 90535 333 10330 20239 30/// 55101 59012;","Q01  00002PRCP99"
"76458099999","2001-10-20T12:00:00","4","23.2","-106.4166666","4.0","COLONIA JUAN CARRASCO MAZATLAN SIN., MX","FM-12","99999","V020","130,1,N,0010,1","22000,1,9,N","008000,1,N,1","+0258,1","+0242,1","10091,1","24,0000,9,1",,,,,"00,1,+99999,9,99,9",,,"00,99,1,00,1,00,1,99999,9,00,1,00,1",,"01,9","999,+0230,9","999,M,+0330,1","120,N,+0250,1","99999,9,10080,1","2,1,002,1,-002,1",,,"SYN100AAXX  20121 76458 32958 01301 10258 20242 30080 40091 52002 91132 333 10330 20250 30023 59002 70000;","Q01  00002PRCP24"
"76458099999","2001-10-20T18:00:00","4","23.2","-106.4166666","4.0","COLONIA JUAN CARRASCO MAZATLAN SIN., MX","FM-12","99999","V020","240,1,N,0030,1","22000,1,9,N","010000,1,N,1","+0304,1","+0247,1","10104,1","99,0000,9,1",,,"4,1,06,1","4,1,06,1","01,1,+00690,9,02,9",,,"01,99,1,01,1,01,1,00800,1,00,1,00,1",,"01,9",,"120,M,+0330,1","240,N,+0250,1","99999,9,10093,1","6,1,006,1,+012,1",,"05,1","SYN118AAXX  20181 76458 31560 12403 10304 20247 30093 40104 56006 70544 81100 91755 333 0/4// 10330 20250 30/// 58012 81823;","Q01  00002PRCP99"
"76458099999","2001-10-20T21:00:00","4","23.2","-106.4166666","4.0","COLONIA JUAN CARRASCO MAZATLAN SIN., MX","FM-12","99999","V020","230,1,N,0040,1","22000,1,9,N","018000,1,N,1","+0306,1","+0252,1","10081,1","99,0000,9,1",,,,,"01,1,+00660,9,02,9",,,"01,99,1,01,1,08,1,00800,1,00,1,00,1",,"01,9",,,,"99999,9,10070,1","7,1,023,1,+009,1",,,"SYN106AAXX  20211 76458 32568 12304 10306 20252 30070 40081 57023 81800 92045 333 0/2// 30/// 57822 58009 81822;","Q01  00002PRCP99"
"76458099999","2001-10-21T00:00:00","4","23.2","-106.4166666","4.0","COLONIA JUAN CARRASCO MAZATLAN SIN., MX","FM-12","99999","V020","280,1,N,0050,1","01200,1,9,N","018000,1,N,1","+0300,1","+0249,1","10079,1","24,0000,9,1",,,"4,1,06,1","4,1,06,1",,,,"06,99,1,06,1,08,1,00800,1,99,9,99,9",,"01,9",,"120,M,+0330,1","180,N,+0250,1","99999,9,10068,1","5,1,002,1,+011,1",,"05,1","SYN136AAXX  21001 76458 32568 62805 10300 20249 30068 40079 55002 70544 868// 92350 333 0/7// 10330 20250 30/// 50553 57872 58011 70000 86821;","Q01  00002PRCP99Q02  00003PRCP99"
"76458099999","2001-10-21T03:00:00","4","23.2","-106.4166666","4.0","COLONIA JUAN CARRASCO MAZATLAN SIN., MX","FM-12","99999","V020","300,1,N,0030,1","00540,1,9,N","008000,1,N,1","+0286,1","+0243,1","10091,1","99,0000,9,1",,,,,"06,1,+00540,9,02,9",,,"06,99,1,06,1,05,1,00450,1,00,1,00,1",,"01,9",,,,"99999,9,10080,1","2,1,012,1,+013,1",,,"SYN100AAXX  21031 76458 32458 63003 10286 20243 30080 40091 52012 86500 90245 333 0/2// 30/// 58013 86818;","Q01  00002PRCP99"
"76458099999","2001-10-21T09:00:00","4","23.2","-106.4166666","4.0","COLONIA JUAN CARRASCO MAZATLAN SIN., MX","FM-12","99999","V020","999,9,C,0000,1","00300,1,9,N","008000,1,N,1","+0267,1","+0243,1","10090,1","99,0000,9,1",,,,,"07,1,+00300,9,05,9",,,"07,99,1,07,1,04,1,00450,1,00,1,00,1",,"01,9",,,,"99999,9,10080,1","7,1,008,1,+002,1",,,"SYN106AAXX  21091 76458 32458 70000 10267 20243 30080 40090 57008 87400 90845 333 0/9// 30/// 57699 58002 87610;","Q01  00002PRCP99"
"76458099999","2001-10-21T12:00:00","4","23.2","-106.4166666","4.0","COLONIA JUAN CARRASCO MAZATLAN SIN., MX","FM-12","99999","V020","120,1,N,0020,1","22000,1,9,N","008000,1,N,1","+0261,1","+0247,1","10092,1","24,0000,9,1",,,,,"00,1,+99999,9,99,9",,,"00,99,1,00,1,00,1,99999,9,00,1,00,1",,"01,9","999,+0240,9","999,M,+0330,1","120,N,+0260,1","99999,9,10081,1","3,1,001,1,+001,1",,,"SYN100AAXX  21121 76458 32958 01202 10261 20247 30081 40092 53001 91140 333 10330 20260 30024 58001 70000;","Q01  00002PRCP24"
"76458099999","2001-10-21T15:00:00","4","23.2","-106.4166666","4.0","COLONIA JUAN CARRASCO MAZATLAN SIN., MX","FM-12","99999","V020","999,9,C,0000,1","22000,1,9,N","014000,1,N,1","+0266,1","+0241,1","10116,1","99,0000,9,1",,,,,"03,1,+00330,9,08,9",,,"04,99,1,02,1,08,1,00450,1,00,1,05,1",,"01,9",,,,"99999,9,10105,1","2,1,024,1,+006,1",,,"SYN112AAXX  21151 76458 32464 40000 10266 20241 30105 40116 52024 82805 91450 333 0/4// 30/// 57842 58006 83811 81070;","Q01  00002PRCP99"
"76458099999","2001-10-21T18:00:00","4","23.2","-106.4166666","4.0","COLONIA JUAN CARRASCO MAZATLAN SIN., MX","FM-12","99999","V020","180,1,N,0030,1","00690,1,9,N","018000,1,N,1","+0299,1","+0243,1","10124,1","99,0000,9,1",,,,,"05,1,+00690,9,02,9",,,"05,99,1,05,1,08,1,00800,1,99,9,99,9",,"01,9",,"120,M,+0320,1","240,N,+0258,1","99999,9,10113,1","2,1,008,1,+020,1",,,"SYN118AAXX  21181 76458 32568 51803 10299 20243 30113 40124 52008 858// 91740 333 0/4// 10320 20258 30/// 57841 58020 85823;","Q01  00002PRCP99"
"76458099999","2001-10-21T21:00:00","4","23.2","-106.4166666","4.0","COLONIA JUAN CARRASCO MAZATLAN SIN., MX","FM-12","99999","V020","250,1,N,0030,1","22000,1,9,N","015000,1,N,1","+0303,1","+0249,1","10089,1","99,0000,9,1",,,,,"02,1,+00690,9,02,9",,,"02,99,1,02,1,01,1,00800,1,00,1,00,1",,"01,9",,,,"99999,9,10078,1","7,1,035,1,+018,1",,,"SYN106AAXX  21211 76458 32565 22503 10303 20249 30078 40089 57035 82100 92050 333 0/4// 30/// 57849 58018 82823;","Q01  00002PRCP99"
"76458099999","2001-10-22T00:00:00","4","23.2","-106.4166666","4.0","COLONIA JUAN CARRASCO MAZATLAN SIN., MX","FM-12","99999","V020","270,1,N,0040,1","00420,1,9,N","018000,1,N,1","+0294,1","+0247,1","10085,1","24,0000,9,1",,,,,,,,"07,99,1,07,1,02,1,00450,1,00,1,00,1",,"01,9",,"120,M,+0330,1","180,N,+0258,1","99999,9,10074,1","5,1,004,1,+006,1",,,"SYN130AAXX  22001 76458 32468 72704 10294 20247 30074 40085 55004 87200 92340 333 0/6// 10330 20258 30/// 50311 57869 58006 70000 87820;","Q01  00002PRCP99Q02  00003PRCP99"
"76458099999","2001-10-22T03:00:00","4","23.2","-106.4166666","4.0","COLONIA JUAN CARRASCO MAZATLAN SIN., MX","FM-12","99999","V020","310,1,N,0030,1","22000,1,C,N","008000,1,N,1","+0288,1","+0248,1","10107,1","99,0000,9,1",,,,,"03,1,+00510,9,08,9",,,"05,99,1,03,1,02,1,00450,1,00,1,06,1",,"01,9",,,,"99999,9,10096,1","2,1,022,1,+016,1",,,"SYN112AAXX  22031 76458 32458 53103 10288 20248 30096 40107 52022 83206 90245 333 0/60/ 30/// 57860 58016 83817 82070;","Q01  00002PRCP99"
"76458099999","2001-10-22T06:00:00","4","23.2","-106.4166666","4.0","COLONIA JUAN CARRASCO MAZATLAN SIN., MX","FM-12","99999","V020","310,1,N,0020,1","00420,1,9,N","008000,1,N,1","+0286,1","+0248,1","10111,1","99,0000,9,1",,,,,,,,"07,99,1,07,1,02,1,00450,1,00,1,00,1","0408,9","01,9",,"240,M,+0330,1","240,N,+0258,1","99999,9,10100,1","0,1,004,1,+012,1",,,"SYN124AAXX  22061 76458 32458 73102 10286 20248 30100 40111 50004 87200 90535 333 0/6// 10330 20258 30/// 55068 57860 58012 87816;","Q01  00002PRCP99"
"76458099999","2001-10-22T18:00:00","4","23.2","-106.4166666","4.0","COLONIA JUAN CARRASCO MAZATLAN SIN., MX","FM-12","99999","V020","250,1,N,0030,1","22000,1,9,N","015000,1,N,1","+0300,1","+0249,1","10121,1","99,0000,9,1",,,,,"03,1,+00630,9,02,9",,,"03,99,1,03,1,02,1,00800,1,00,1,00,1",,"01,9",,"120,M,+0330,1","240,N,+0251,1","99999,9,10110,1","4,1,000,1,-003,1",,,"SYN118AAXX  22181 76458 32565 32503 10300 20249 30110 40121 54000 83200 91759 333 0/5// 10330 20251 30/// 57854 59003 83821;","Q01  00002PRCP99"
"76458099999","2001-10-23T00:00:00","4","23.2","-106.4166666","4.0","COLONIA JUAN CARRASCO MAZATLAN SIN., MX","FM-12","99999","V020","250,1,N,0050,1","01200,1,9,N","018000,1,N,1","+9999,9","+9999,9","10098,1","24,0000,9,1",,,,,,,,"06,99,1,06,1,08,1,00800,1,99,9,99,9",,"01,9",,"120,M,+0330,1","180,N,+0251,1","99999,9,10087,1","7,1,006,1,+013,1",,,"SYN124AAXX  23001 76458 32568 62505 20246 30087 40098 57006 868// 92350 333 0/5// 10330 20251 30/// 50378 57851 58013 70000 86823;","Q01  00002PRCP99Q02  00003PRCP99"
"76458099999","2001-10-23T03:00:00","4","23.2","-106.4166666","4.0","COLONIA JUAN CARRASCO MAZATLAN SIN., MX","FM-12","99999","V020","300,1,N,0030,1","22000,1,9,N","008000,1,N,1","+0286,1","+0246,1","10108,1","99,0000,9,1",,,,,"02,1,+00510,9,02,9",,,"02,99,1,02,1,02,1,00450,1,00,1,00,1",,"01,9",,,,"99999,9,10097,1","2,1,010,1,+001,1",,,"SYN106AAXX  23030 76458 32458 23003 10286 20246 30097 40108 52010 82200 90245 333 0/6// 30/// 57860 58001 82817;","Q01  00002PRCP99"
"76458099999","2001-10-23T18:00:00","4","23.2","-106.4166666","4.0","COLONIA JUAN CARRASCO MAZATLAN SIN., MX","FM-12","99999","V020","230,1,N,0030,1","22000,1,9,N","018000,1,N,1","+0299,1","+0238,1","10112,1","99,0000,9,1",,,,,,,,"02,99,1,02,1,01,1,00800,1,00,1,00,1",,"01,9",,"120,M,+0323,1","240,N,+0255,1","99999,9,10101,1","8,1,001,1,-009,1",,,"SYN106AAXX  23181 76458 32568 22303 10299 20238 30101 40112 58001 82100 91755 333 0/6// 10323 20255 30/// 59009;","Q01  00002PRCP99"
"76458099999","2001-10-23T21:00:00","4","23.2","-106.4166666","4.0","COLONIA JUAN CARRASCO MAZATLAN SIN., MX","FM-12","99999","V020","230,1,N,0050,1","22000,1,9,N","020000,1,N,1","+0304,1","+0236,1","10088,1","99,0000,9,1",,,,,"01,1,+00840,9,02,9",,,"01,99,1,01,1,08,1,00800,1,99,9,99,9",,"01,9",,,,"99999,9,10077,1","7,1,024,1,-016,1",,,"SYN106AAXX  23211 76458 32570 12305 10304 20236 30077 40088 57024 818// 92050 333 0/5// 30/// 57854 59016 81828;","Q01  00002PRCP99"
"76458099999","2001-10-24T00:00:00","4","23.2","-106.4166666","4.0","COLONIA JUAN CARRASCO MAZATLAN SIN., MX","FM-12","99999","V020","280,1,N,0050,1","22000,1,9,N","020000,1,N,1","+0304,1","+0236,1","10084,1","24,0000,9,1",,,,,,,,"02,99,1,02,1,08,1,00800,1,99,9,99,9",,"01,9",,"120,M,+0323,1","180,N,+0255,1","99999,9,10073,1","7,1,004,1,-014,1",,,"SYN130AAXX  24001 76458 32570 22805 10304 20236 30073 40084 57004 828// 92350 333 0/6// 10323 20255 30/// 50342 57862 59014 70000 82828;","Q01  00002PRCP99Q02  00003PRCP99"
"76458099999","2001-10-24T12:00:00","4","23.2","-106.4166666","4.0","COLONIA JUAN CARRASCO MAZATLAN SIN., MX","FM-12","99999","V020","360,1,N,0020,1","22000,1,9,N","008000,1,N,1","+0250,1","+0231,1","10091,1","24,0000,9,1",,,,,"00,1,+99999,9,99,9",,,"00,99,1,00,1,00,1,99999,9,00,1,00,1",,"01,9","999,+0220,9","999,M,+0323,1","120,N,+0240,1","99999,9,10080,1","7,1,002,1,-010,1",,,"SYN100AAXX  24121 76458 32958 03602 10250 20231 30080 40091 57002 91145 333 10323 20240 30022 59010 70000;","Q01  00002PRCP24"
"76458099999","2001-10-24T15:00:00","4","23.2","-106.4166666","4.0","COLONIA JUAN CARRASCO MAZATLAN SIN., MX","FM-12","99999","V020","010,1,N,0020,1","09000,1,C,N","012000,1,N,1","+0276,1","+0235,1","10105,1","99,0000,9,1",,,,,"01,1,+00510,9,08,9",,,"05,99,1,01,1,02,1,00450,1,00,1,02,1",,"01,9",,,,"99999,9,10094,1","1,1,014,1,-008,1",,,"SYN112AAXX  24151 76458 32462 50102 10276 20235 30094 40105 51014 81202 91455 333 0/5/0 30/// 57856 59008 81817 84070;","Q01  00002PRCP99"
"76458099999","2001-10-24T18:00:00","4","23.2","-106.4166666","4.0","COLONIA JUAN CARRASCO MAZATLAN SIN., MX","FM-12","99999","V020","260,1,N,0030,1","22000,1,9,N","018000,1,N,1","+0300,1","+0242,1","10108,1","99,0000,9,1",,,,,"01,1,+00630,9,08,9",,,"02,99,1,01,1,02,1,00800,1,00,1,01,1",,"01,9",,"120,M,+0313,1","240,N,+0239,1","99999,9,10097,1","1,1,003,1,-004,1",,,"SYN124AAXX  24181 76458 32568 22603 10300 20242 30097 40108 51003 81201 91755 333 0/6/0 10313 20239 30/// 57865 59004 81821 81070;","Q01  00002PRCP99"
"76458099999","2001-10-24T21:00:00","4","23.2","-106.4166666","4.0","COLONIA JUAN CARRASCO MAZATLAN SIN., MX","FM-12","99999","V020","250,1,N,0050,1","22000,1,9,N","018000,1,N,1","+0304,1","+0239,1","10082,1","99,0000,9,1",,,,,"01,1,+00810,9,02,9",,,"01,99,1,01,1,01,1,00800,1,00,1,00,1",,"01,9",,,,"99999,9,10071,1","2,1,026,1,-006,1",,,"SYN106AAXX  24211 76458 32568 12505 10304 20239 30071 40082 52026 81100 92050 333 0/6// 30/// 57869 59006 81827;","Q01  00002PRCP99"
"76458099999","2001-10-25T00:00:00","4","23.2","-106.4166666","4.0","COLONIA JUAN CARRASCO MAZATLAN SIN., MX","FM-12","99999","V020","290,1,N,0040,1","22000,1,9,N","020000,1,N,1","+0294,1","+0234,1","10083,1","24,0000,9,1",,,,,,,,"01,99,1,01,1,01,1,00800,1,00,1,00,1",,"01,9",,"120,M,+0320,1","180,N,+0239,1","99999,9,10072,1","3,1,001,1,-001,1",,,"SYN130AAXX  25001 76458 32570 12904 10294 20234 30072 40083 53001 81100 92345 333 0/6// 10320 20239 30/// 50451 57869 59001 70000 81825;","Q01  00002PRCP99Q02  00003PRCP99"
"76458099999","2001-10-25T03:00:00","4","23.2","-106.4166666","4.0","COLONIA JUAN CARRASCO MAZATLAN SIN., MX","FM-12","99999","V020","999,9,9,9999,9","99999,9,9,N","000300,1,N,1","+0284,1","+0223,1","10107,1",,,,,,,,,,,"01,9",,,,"99999,9,10096,1","2,1,024,1,+019,1",,,"SYN082AAXX  25031 76458 /3103 ///// 10284 20223 30096 40107 52024 90245 333 30/// 58019;",
"76458099999","2001-10-25T09:00:00","4","23.2","-106.4166666","4.0","COLONIA JUAN CARRASCO MAZATLAN SIN., MX","FM-12","99999","V020","999,9,C,0000,1","22000,1,9,N","008000,1,N,1","+0256,1","+0226,1","10113,1","99,0000,9,1",,,,,"00,1,+99999,9,99,9",,,"00,99,1,00,1,00,1,99999,9,00,1,00,1",,"01,9",,,,"99999,9,10102,1","7,1,005,1,+020,1",,,"SYN082AAXX  25091 76458 32958 00000 10256 20226 30102 40113 57005 90840 333 30/// 58020;","Q01  00002PRCP99"
"76458099999","2001-10-25T12:00:00","4","23.2","-106.4166666","4.0","COLONIA JUAN CARRASCO MAZATLAN SIN., MX","FM-12","99999","V020","999,9,C,0000,1","22000,1,9,N","008000,1,N,1","+0242,1","+0222,1","10109,1","99,0000,9,1",,,,,"00,1,+99999,9,99,9",,,"00,99,1,00,1,00,1,99999,9,00,1,00,1",,"01,9","999,+0220,9","999,M,+0320,1","120,N,+0240,1","99999,9,10098,1","7,1,004,1,+018,1",,,"SYN094AAXX  25121 76458 32958 00000 10242 20222 30098 40109 57004 91138 333 10320 20240 30022 58018;","Q01  00002PRCP99"
"76458099999","2001-10-25T15:00:00","4","23.2","-106.4166666","4.0","COLONIA JUAN CARRASCO MAZATLAN SIN., MX","FM-12","99999","V020","040,1,N,0020,1","22000,1,9,N","012000,1,N,1","+0263,1","+0233,1","10119,1","99,0000,9,1",,,,,"00,1,+99999,9,99,9",,,"00,99,1,00,1,00,1,99999,9,00,1,00,1",,"01,9",,,,"99999,9,10108,1","2,1,010,1,+014,1",,,"SYN082AAXX  25151 76458 32962 00402 10263 20233 30108 40119 52010 91450 333 30/// 58014;","Q01  00002PRCP99"
"76458099999","2001-10-25T18:00:00","4","23.2","-106.4166666","4.0","COLONIA JUAN CARRASCO MAZATLAN SIN., MX","FM-12","99999","V020","250,1,N,0030,1","22000,1,9,N","018000,1,N,1","+0290,1","+0231,1","10124,1","99,0000,9,1",,,,,"01,1,+00750,9,02,9",,,"01,99,1,01,1,01,1,00800,1,00,1,00,1",,"01,9",,"120,M,+0320,1","240,N,+0231,1","99999,9,10113,1","0,1,005,1,+016,1",,,"SYN118AAXX  25181 76458 32568 12503 10290 20231 30113 40124 50005 81100 91745 333 0/8// 10320 20231 30/// 57889 58016 81825;","Q01  00002PRCP99"
"76458099999","2001-10-25T21:00:00","4","23.2","-106.4166666","4.0","COLONIA JUAN CARRASCO MAZATLAN SIN., MX","FM-12","99999","V020","260,1,N,0050,1","22000,1,9,N","020000,1,N,1","+0298,1","+0238,1","10109,1","99,0000,9,1",,,,,"01,1,+00750,9,02,9",,,"01,99,1,01,1,08,1,00800,1,99,9,99,9",,"01,9",,,,"99999,9,10098,1","5,1,015,1,+027,1",,,"SYN106AAXX  25211 76458 32570 12605 10298 20238 30098 40109 55015 818// 92050 333 0/5// 30/// 57854 58027 81825;","Q01  00002PRCP99"
"76458099999","2001-10-26T00:00:00","4","23.2","-106.4166666","4.0","COLONIA JUAN CARRASCO MAZATLAN SIN., MX","FM-12","99999","V020","280,1,N,0060,1","22000,1,9,N","020000,1,N,1","+0304,1","+0234,1","10112,1","24,0000,9,1",,,,,,,,"02,99,1,02,1,08,1,00800,1,99,9,99,9",,"01,9",,"120,M,+0318,1","180,N,+0231,1","99999,9,10101,1","2,1,003,1,+029,1",,,"SYN130AAXX  26001 76458 32570 22806 10304 20234 30101 40112 52003 828// 92350 333 0/7// 10318 20231 30/// 50332 57872 58029 70000 82829;","Q01  00002PRCP99Q02  00003PRCP99"
"76458099999","2001-10-26T03:00:00","4","23.2","-106.4166666","4.0","COLONIA JUAN CARRASCO MAZATLAN SIN., MX","FM-12","99999","V020","300,1,N,0030,1","22000,1,9,N","008000,1,N,1","+0280,1","+0237,1","10123,1","99,0000,9,1",,,,,"00,1,+99999,9,99,9",,,"00,99,1,00,1,00,1,99999,9,00,1,00,1",,"01,9",,,,"99999,9,10112,1","2,1,012,1,+016,1",,,"SYN082AAXX  26031 76458 32958 03003 10280 20237 30112 40123 52012 90245 333 30/// 58016;","Q01  00002PRCP99"
"76458099999","2001-10-26T09:00:00","4","23.2","-106.4166666","4.0","COLONIA JUAN CARRASCO MAZATLAN SIN., MX","FM-12","99999","V020","999,9,C,0000,1","22000,1,9,N","008000,1,N,1","+0258,1","+0225,1","10131,1","99,0000,9,1",,,,,"00,1,+99999,9,99,9",,,"00,99,1,00,1,00,1,99999,9,00,1,00,1",,"01,9",,,,"99999,9,10120,1","7,1,004,1,+018,1",,,"SYN082AAXX  26091 76458 32958 00000 10258 20225 30120 40131 57004 90840 333 30/// 58018;","Q01  00002PRCP99"
"76458099999","2001-10-26T12:00:00","4","23.2","-106.4166666","4.0","COLONIA JUAN CARRASCO MAZATLAN SIN., MX","FM-12","99999","V020","999,9,C,0000,1","22000,1,9,N","008000,1,N,1","+0242,1","+0220,1","10126,1","99,0000,9,1",,,,,"00,1,+99999,9,99,9",,,"00,99,1,00,1,00,1,99999,9,00,1,00,1",,"01,9","999,+0220,9","999,M,+0318,1","120,N,+0240,1","99999,9,10115,1","7,1,005,1,+017,1",,,"SYN094AAXX  26121 76458 32958 00000 10242 20220 30115 40126 57005 91135 333 10318 20240 30022 58017;","Q01  00002PRCP99"
"76458099999","2001-10-26T18:00:00","4","23.2","-106.4166666","4.0","COLONIA JUAN CARRASCO MAZATLAN SIN., MX","FM-12","99999","V020","240,1,N,0030,1","22000,1,9,N","015000,1,N,1","+0291,1","+0220,1","10145,1","99,0000,9,1",,,,,"01,1,+02400,9,07,9",,,"01,99,1,01,1,99,9,99999,9,03,1,00,1",,"01,9",,"120,M,+0316,1","240,N,+0237,1","99999,9,10134,1","8,1,006,1,+021,1",,,"SYN112AAXX  26181 76458 32965 12403 10291 20220 30134 40145 58006 81030 91755 333 0//0/ 10316 20237 30/// 58021 81358;","Q01  00002PRCP99Q02    003SCOLCG"
"76458099999","2001-10-26T21:00:00","4","23.2","-106.4166666","4.0","COLONIA JUAN CARRASCO MAZATLAN SIN., MX","FM-12","99999","V020","270,1,N,0050,1","22000,1,9,N","018000,1,N,1","+0299,1","+0229,1","10113,1","99,0000,9,1",,,,,"03,1,+00780,9,02,9",,,"03,99,1,03,1,01,1,01250,1,00,1,00,1",,"01,9",,,,"99999,9,10102,1","7,1,032,1,+004,1",,,"SYN106AAXX  26211 76458 32668 32705 10299 20229 30102 40113 57032 83100 92045 333 0/9// 30/// 57899 58004 83826;","Q01  00002PRCP99"
"76458099999","2001-10-27T00:00:00","4","23.2","-106.4166666","4.0","COLONIA JUAN CARRASCO MAZATLAN SIN., MX","FM-12","99999","V020","340,1,N,0040,1","22000,1,9,N","018000,1,N,1","+0298,1","+0229,1","10110,1","24,0000,9,1",,,,,,,,"04,99,1,04,1,00,1,02250,1,05,1,00,1",,"01,9",,"120,M,+0320,1","180,N,+0237,1","99999,9,10099,1","7,1,003,1,-002,1",,,"SYN130AAXX  27001 76458 32868 43404 10298 20229 30099 40110 57003 84050 92345 333 0//9/ 10320 20237 30/// 50431 57399 59002 70000 84362;","Q01  00002PRCP99Q02  00003PRCP99"
"76458099999","2001-10-27T03:00:00","4","23.2","-106.4166666","4.0","COLONIA JUAN CARRASCO MAZATLAN SIN., MX","FM-12","99999","V020","310,1,N,0040,1","22000,1,9,N","008000,1,N,1","+0210,1","+9999,9","10126,1","99,0000,9,1",,,,,"00,1,+99999,9,99,9",,,"00,99,1,00,1,00,1,99999,9,00,1,00,1",,"01,9",,,,"99999,9,10115,1","2,1,016,1,+003,1",,,"SYN082AAXX  27031 76458 32958 03104 10210 20242 30115 40126 52016 90245 333 30/// 58003;","Q01  00002PRCP99"
"76458099999","2001-10-27T06:00:00","4","23.2","-106.4166666","4.0","COLONIA JUAN CARRASCO MAZATLAN SIN., MX","FM-12","99999","V020","330,1,N,0030,1","22000,1,9,N","008000,1,N,1","+0272,1","+0225,1","10131,1","99,0000,9,1",,,,,"01,1,+01800,9,07,9",,,"01,99,1,01,1,99,9,02250,1,03,1,00,1","0456,9","01,9",,"240,M,+9999,9","240,N,+0227,1","99999,9,10120,1","1,1,005,1,-005,1",,,"SYN112AAXX  27060 76458 32858 13303 10272 20225 30120 40131 51005 81030 90535 333 10237 20227 30/// 55076 59005 81356;","Q01  00002PRCP99Q02 +02372ATMX  "
"76458099999","2001-10-27T12:00:00","4","23.2","-106.4166666","4.0","COLONIA JUAN CARRASCO MAZATLAN SIN., MX","FM-12","99999","V020","060,1,N,0010,1","22000,1,9,N","008000,1,N,1","+0254,1","+0211,1","10126,1","99,0000,9,1",,,,,"02,1,+02400,9,07,9",,,"02,99,1,99,9,99,9,99999,9,03,1,00,1",,"01,9","999,+0220,9","999,M,+0320,1","120,N,+0240,1","99999,9,10115,1","7,1,005,1,-001,1",,,"SYN112AAXX  27121 76458 32958 20601 10254 20211 30115 40126 57005 80030 91145 333 0/090 10320 20240 30022 59001 82358;","Q01+000002SCOTLCQ02  00002PRCP99Q03    003SCOLCG"
"76458099999","2001-10-27T18:00:00","4","23.2","-106.4166666","4.0","COLONIA JUAN CARRASCO MAZATLAN SIN., MX","FM-12","99999","V020","230,1,N,0030,1","22000,1,9,N","010000,1,N,1","+0312,1","+0247,1","10141,1","99,0000,9,1",,,"4,1,06,1","0,1,06,1","00,1,+99999,9,99,9",,,"00,99,1,00,1,00,1,99999,9,00,1,00,1",,"01,9",,"120,M,+0331,1","240,N,+0245,1","99999,9,10130,1","8,1,004,1,-004,1",,"04,1","SYN100AAXX  27180 76458 31960 02303 10312 20247 30130 40141 58004 70440 91755 333 10331 20245 30/// 59004;","Q01  00002PRCP99"
"76458099999","2001-10-27T21:00:00","4","23.2","-106.4166666","4.0","COLONIA JUAN CARRASCO MAZATLAN SIN., MX","FM-12","99999","V020","250,1,N,0040,1","22000,1,9,N","015000,1,N,1","+0310,1","+0254,1","10112,1","99,0000,9,1",,,,,"01,1,+00690,9,08,9",,,"02,99,1,01,1,02,1,00800,1,00,1,05,1",,"01,9",,,,"99999,9,10101,1","7,1,029,1,-001,1",,,"SYN112AAXX  27211 76458 32565 22504 10310 20254 30101 40112 57029 81205 92055 333 0/1/0 30/// 57815 59001 81823 81070;","Q01  00002PRCP99"
"76458099999","2001-10-28T00:00:00","4","23.2","-106.4166666","4.0","COLONIA JUAN CARRASCO MAZATLAN SIN., MX","FM-12","99999","V020","270,1,N,0030,1","22000,1,9,N","018000,1,N,1","+0304,1","+0242,1","10101,1","24,0000,9,1",,,,,"01,1,+02400,9,03,9",,,"03,99,1,01,1,00,1,00800,1,06,1,02,1",,"01,9",,"120,M,+0332,1","180,N,+0245,1","99999,9,10090,1","6,1,011,1,-009,1",,,"SYN129AAXX  28001 76458 32568 32703 10304 20242 30090 40101 56011 81062 9250 333 0//00 10332 20245 30/// 50370 59009 70000 81358 82070;","Q01  00002PRCP99Q02  00003PRCP99"
"76458099999","2001-10-28T03:00:00","4","23.2","-106.4166666","4.0","COLONIA JUAN CARRASCO MAZATLAN SIN., MX","FM-12","99999","V020","310,1,N,0030,1","22000,1,9,N","008000,1,N,1","+0288,1","+0256,1","10116,1","99,0000,9,1",,,,,"00,1,+99999,9,99,9",,,"00,99,1,00,1,00,1,99999,9,00,1,00,1",,"01,9",,,,"99999,9,10105,1","2,1,015,1,-010,1",,,"SYN082AAXX  28031 76458 32958 03103 10288 20256 30105 40116 52015 90245 333 30/// 59010;","Q01  00002PRCP99"
"76458099999","2001-10-28T09:00:00","4","23.2","-106.4166666","4.0","COLONIA JUAN CARRASCO MAZATLAN SIN., MX","FM-12","99999","V020","360,1,N,0020,1","22000,1,9,N","008000,1,N,1","+0259,1","+0213,1","10122,1","99,0000,9,1",,,,,"00,1,+99999,9,99,9",,,"00,99,1,00,1,00,1,99999,9,00,1,00,1",,"01,9",,,,"99999,9,10111,1","5,1,009,1,-009,1",,,"SYN082AAXX  28091 76458 32958 03602 10259 20213 30111 40122 55009 90845 333 30/// 59009;","Q01  00002PRCP99"
"76458099999","2001-10-28T12:00:00","4","23.2","-106.4166666","4.0","COLONIA JUAN CARRASCO MAZATLAN SIN., MX","FM-12","99999","V020","090,1,N,0020,1","22000,1,9,N","008000,1,N,1","+0262,1","+0222,1","10133,1","24,0000,9,1",,,,,"04,1,+00510,9,05,9",,,"04,99,1,04,1,04,1,00450,1,00,1,00,1",,"01,9","999,+0220,9","999,M,+0332,1","120,N,+0241,1","99999,9,10122,1","2,1,011,1,+007,1",,,"SYN124AAXX  28121 76458 32458 40902 10262 20222 30122 40133 52011 84400 91145 333 0/4// 10332 20241 30022 57649 58007 70000 84617;",
"76458099999","2001-10-28T15:00:00","4","23.2","-106.4166666","4.0","COLONIA JUAN CARRASCO MAZATLAN SIN., MX","FM-12","99999","V020","340,1,N,0020,1","22000,1,9,N","018000,1,N,1","+0266,1","+0215,1","10149,1","99,0000,9,1",,,,,"02,1,+00630,9,05,9",,,"02,99,1,02,1,06,1,00800,1,99,9,99,9",,"01,9",,,,"99999,9,10137,1","2,1,015,1,+003,1",,,"SYN094AAXX  28151 76458 32568 23402 10266 20215 30137 40149 52015 826// 91450 333 30/// 58003 82621;","Q01  00002PRCP99"
"76458099999","2001-10-28T21:00:00","4","23.2","-106.4166666","4.0","COLONIA JUAN CARRASCO MAZATLAN SIN., MX","FM-12","99999","V020","250,1,N,0030,1","22000,1,9,N","020000,1,N,1","+0313,1","+0256,1","10117,1","99,0000,9,1",,,,,"00,1,+99999,9,99,9",,,"00,99,1,00,1,00,1,99999,9,00,1,00,1",,"01,9",,,,"99999,9,10106,1","7,1,037,1,+005,1",,,"SYN082AAXX  28211 76458 32970 02503 10313 20256 30106 40117 57037 92050 333 30/// 58005;","Q01  00002PRCP99"
"76458099999","2001-10-29T00:00:00","4","23.2","-106.4166666","4.0","COLONIA JUAN CARRASCO MAZATLAN SIN., MX","FM-12","99999","V020","290,1,N,0040,1","22000,1,9,N","020000,1,N,1","+0305,1","+0246,1","10112,1","24,0000,9,1",,,,,"00,1,+99999,9,99,9",,,"00,99,1,00,1,00,1,99999,9,00,1,00,1",,"01,9",,"120,M,+0344,1","180,N,+0244,1","99999,9,10101,1","5,1,005,1,+002,1",,,"SYN106AAXX  29001 76458 32970 02904 10305 20246 30101 40112 55005 92340 333 10344 20244 30/// 50391 58002 70000;","Q01  00002PRCP24"
"76458099999","2001-10-29T03:00:00","4","23.2","-106.4166666","4.0","COLONIA JUAN CARRASCO MAZATLAN SIN., MX","FM-12","99999","V020","330,1,N,0030,1","22000,1,9,N","008000,1,N,1","+0284,1","+0252,1","10135,1","99,0000,9,1",,,,,"00,1,+99999,9,99,9",,,"00,99,1,00,1,00,1,99999,9,00,1,00,1",,"01,9",,,,"99999,9,10124,1","2,1,023,1,+019,1",,,"SYN082AAXX  29031 76458 32958 03303 10284 20252 30124 40135 52023 90235 333 30/// 58019;","Q01  00002PRCP99"
"76458099999","2001-10-29T12:00:00","4","23.2","-106.4166666","4.0","COLONIA JUAN CARRASCO MAZATLAN SIN., MX","FM-12","99999","V020","030,1,N,0020,1","22000,1,9,N","008000,1,N,1","+0242,1","+0215,1","10131,1","99,0000,9,1",,,,,"02,1,+02400,9,07,9",,,"02,99,1,99,9,99,9,99999,9,02,1,00,1",,"01,9","999,+0220,9","999,M,+0344,1","120,N,+0230,1","99999,9,10120,1","7,1,006,1,-001,1",,,"SYN112AAXX  29121 76458 32958 20302 10242 20215 30120 40131 57006 80020 91140 333 0/090 10344 20230 30022 59001 82358;","Q01+000002SCOTLCQ02  00002PRCP99Q03    003SCOLCG"
"76458099999","2001-10-29T21:00:00","4","23.2","-106.4166666","4.0","COLONIA JUAN CARRASCO MAZATLAN SIN., MX","FM-12","99999","V020","999,9,C,0000,1","22000,1,9,N","020000,1,N,1","+0310,1","+0248,1","10134,1","99,0000,9,1",,,,,"00,1,+99999,9,99,9",,,"00,99,1,00,1,00,1,99999,9,00,1,00,1",,"01,9",,,,"99999,9,10123,1","7,1,027,1,+017,1",,,"SYN088AAXX  29211 76458 32070 00000 10310 20248 30123 40134 57027 92050 333 0/0// 30/// 58017;","Q01  00002PRCP99"
"76458099999","2001-10-30T00:00:00","4","23.2","-106.4166666","4.0","COLONIA JUAN CARRASCO MAZATLAN SIN., MX","FM-12","99999","V020","999,9,C,0000,1","22000,1,9,N","020000,1,N,1","+0302,1","+0251,1","10117,1","24,0000,9,1",,,,,"00,1,+99999,9,99,9",,,"00,99,1,00,1,00,1,99999,9,00,1,00,1",,"01,9",,"120,M,+0338,1","180,N,+0226,1","99999,9,10106,1","7,1,017,1,+005,1",,,"SYN112AAXX  30001 76458 32070 00000 10302 20251 30106 40117 57017 92345 333 0/0// 10338 20226 30/// 50360 58005 70000;","Q01  00002PRCP24"
"76458099999","2001-10-30T03:00:00","4","23.2","-106.4166666","4.0","COLONIA JUAN CARRASCO MAZATLAN SIN., MX","FM-12","99999","V020","300,1,N,0030,1","22000,1,9,N","008000,1,N,1","+0278,1","+0243,1","10136,1","99,0000,9,1",,,,,"00,1,+99999,9,99,9",,,"00,99,1,00,1,00,1,99999,9,00,1,00,1",,"01,9",,,,"99999,9,10125,1","2,1,019,1,+001,1",,,"SYN082AAXX  30031 76458 32958 03003 10278 20243 30125 40136 52019 90245 333 30/// 58001;","Q01  00002PRCP99"
"76458099999","2001-10-30T12:00:00","4","23.2","-106.4166666","4.0","COLONIA JUAN CARRASCO MAZATLAN SIN., MX","FM-12","99999","V020","999,9,C,0000,1","22000,1,9,N","008000,1,N,1","+0232,1","+0197,1","10132,1","99,0000,9,1",,,,,"00,1,+99999,9,99,9",,,"00,99,1,00,1,00,1,99999,9,00,1,00,1",,"01,9","999,+0210,9","999,M,+0338,1","120,N,+0230,1",,"4,1,000,1,+002,1",,,"SYN088AAXX  30121 76458 32958 00000 10232 20197 40132 54000 91135 333 10338 20230 30021 58002;","Q01  00002PRCP99"
"76458099999","2001-10-30T15:00:00","4","23.2","-106.4166666","4.0","COLONIA JUAN CARRASCO MAZATLAN SIN., MX","FM-12","99999","V020","999,9,C,0000,1","22000,1,9,N","018000,1,N,1","+0252,1","+0194,1","10155,1","99,0000,9,1",,,,,"00,1,+99999,9,99,9",,,"00,99,1,00,1,00,1,99999,9,00,1,00,1",,"01,9",,,,"99999,9,10144,1","2,1,022,1,-005,1",,,"SYN082AAXX  30151 76458 32968 00000 10252 20194 30144 40155 52022 91450 333 30/// 59005;","Q01  00002PRCP99"
"76458099999","2001-10-30T18:00:00","4","23.2","-106.4166666","4.0","COLONIA JUAN CARRASCO MAZATLAN SIN., MX","FM-12","99999","V020","180,1,N,0040,1","22000,1,9,N","016000,1,N,1","+0300,1","+0239,1","10159,1","99,0000,9,1",,,"0,1,06,1","0,1,06,1","01,1,+00780,9,02,9",,,"01,99,1,01,1,02,1,00800,1,00,1,00,1",,"01,9",,"120,M,+0316,1","240,N,+0220,1","99999,9,10148,1","0,1,004,1,-002,1",,"04,1","SYN124AAXX  30181 76458 31566 11804 10300 20239 30148 40159 50004 70400 81200 91755 333 04500 10316 20220 30/// 57858 59002 81826;","Q01  00002PRCP99"
"76458099999","2001-10-30T21:00:00","4","23.2","-106.4166666","4.0","COLONIA JUAN CARRASCO MAZATLAN SIN., MX","FM-12","99999","V020","190,1,N,0030,1","22000,1,9,N","018000,1,N,1","+0299,1","+0240,1","10129,1","99,0000,9,1",,,,,"01,1,+00750,9,02,9",,,"01,99,1,01,1,01,1,00800,1,00,1,00,1",,"01,9",,,,"99999,9,10117,1","7,1,031,1,-005,1",,,"SYN100AAXX  30211 76458 32568 11903 10299 20240 30117 40129 57031 81100 92100 333 01500 30/// 59005 81825;","Q01  00002PRCP99"
"76458099999","2001-10-31T00:00:00","4","23.2","-106.4166666","4.0","COLONIA JUAN CARRASCO MAZATLAN SIN., MX","FM-12","99999","V020","300,1,N,0030,1","22000,1,9,N","020000,1,N,1","+0296,1","+0233,1","10120,1","24,0000,9,1",,,,,"01,1,+00780,9,02,9",,,"01,99,1,01,1,01,1,00800,1,00,1,00,1",,"01,9",,"120,M,+0323,1","180,N,+0220,1","99999,9,10109,1","7,1,008,1,+003,1",,,"SYN124AAXX  31001 76458 32570 13003 10296 20233 30109 40120 57008 81100 92355 333 01500 10323 20220 30/// 50460 58003 70000 81826;",
"76458099999","2001-10-31T03:00:00","4","23.2","-106.4166666","4.0","COLONIA JUAN CARRASCO MAZATLAN SIN., MX","FM-12","99999","V020","290,1,N,0030,1","22000,1,9,N","010000,1,N,1","+0283,1","+0231,1","10125,1","99,0000,9,1",,,,,"00,1,+99999,9,99,9",,,"00,99,1,00,1,00,1,99999,9,00,1,00,1",,"01,9",,,,"99999,9,10114,1","2,1,007,1,-011,1",,,"SYN082AAXX  31031 76458 32960 02903 10283 20231 30114 40125 52007 90245 333 30/// 59011;","Q01  00002PRCP99"
"76458099999","2001-10-31T12:00:00","4","23.2","-106.4166666","4.0","COLONIA JUAN CARRASCO MAZATLAN SIN., MX","FM-12","99999","V020","040,1,N,0010,1","22000,1,9,N","008000,1,N,1","+0238,1","+0212,1","10133,1","99,0000,9,1",,,,,"00,1,+99999,9,99,9",,,"00,99,1,00,1,00,1,99999,9,00,1,00,1",,"01,9","999,+0210,9","999,M,+0323,1","120,N,+0230,1","99999,9,10122,1","7,1,004,1,+001,1",,,"SYN094AAXX  31121 76458 32958 00401 10238 20212 30122 40133 57004 91135 333 10323 20230 30021 58001;","Q01  00002PRCP99"
"76458099999","2001-10-31T15:00:00","4","23.2","-106.4166666","4.0","COLONIA JUAN CARRASCO MAZATLAN SIN., MX","FM-12","99999","V020","999,9,C,0000,1","22000,1,9,N","015000,1,N,1","+0261,1","+0216,1","10143,1","99,0000,9,1",,,,,"00,1,+99999,9,99,9",,,"00,99,1,00,1,00,1,99999,9,00,1,00,1",,"01,9",,,,"99999,9,10132,1","2,1,010,1,-012,1",,,"SYN082AAXX  31151 76458 32965 00000 10261 20216 30132 40143 52010 91445 333 30/// 59012;","Q01  00002PRCP99"
"76458099999","2001-10-31T21:00:00","4","23.2","-106.4166666","4.0","COLONIA JUAN CARRASCO MAZATLAN SIN., MX","FM-12","99999","V020","230,1,N,0040,1","22000,1,9,N","020000,1,N,1","+0302,1","+0226,1","10121,1","99,0000,9,1",,,,,"01,1,+00960,9,02,9",,,"01,99,1,01,1,02,1,00800,1,00,1,00,1",,"01,9",,,,"99999,9,10110,1","7,1,025,1,-037,1",,,"SYN106AAXX  31211 76458 32570 12304 10302 20226 30110 40121 57025 81200 92100 333 04100 30/// 57816 59037 81832;","Q01  00002PRCP99"
"76458099999","2001-11-01T03:00:00","4","23.2","-106.4166666","4.0","COLONIA JUAN CARRASCO MAZATLAN SIN., MX","FM-12","99999","V020","300,1,N,0020,1","22000,1,9,N","008000,1,N,1","+0276,1","+0229,1","10130,1","99,0000,9,1",,,,,"00,1,+99999,9,99,9",,,"00,99,1,00,1,00,1,99999,9,00,1,00,1",,"01,9",,,,"99999,9,10119,1","2,1,015,1,+002,1",,,"SYN082AAXX  01031 76458 32958 03002 10276 20229 30119 40130 52015 90245 333 30/// 58002;","Q01  00002PRCP99"
"76458099999","2001-11-01T18:00:00","4","23.2","-106.4166666","4.0","COLONIA JUAN CARRASCO MAZATLAN SIN., MX","FM-12","99999","V020","080,1,N,0030,1","22000,1,9,N","018000,1,N,1","+0298,1","+0227,1","10133,1","99,0000,9,1",,,,,"02,1,+06000,9,01,9",,,"02,99,1,00,1,00,1,99999,9,00,1,02,1",,"01,9",,"120,M,+0318,1","240,N,+0218,1","99999,9,10122,1","5,1,002,1,-013,1",,,"SYN112AAXX  01181 76458 32568 20803 10298 20227 30122 40133 55002 80002 91745 333 0/0// 10318 20218 30/// 59013 82070;","Q01  00002PRCP99"
"76458099999","2001-11-01T21:00:00","4","23.2","-106.4166666","4.0","COLONIA JUAN CARRASCO MAZATLAN SIN., MX","FM-12","99999","V020","270,1,N,0030,1","22000,1,9,N","018000,1,N,1","+0296,1","+0238,1","10099,1","99,0000,9,1",,,,,"01,1,+00720,9,02,9",,,"01,99,1,01,1,01,1,00800,1,00,1,00,1",,"01,9",,,,"99999,9,10088,1","7,1,034,1,-022,1",,,"SYN106AAXX  01211 76458 32568 12703 10296 20238 30088 40099 57034 81100 92050 333 0/6// 30/// 57869 59022 81824;","Q01  00002PRCP99"
"76458099999","2001-11-02T00:00:00","4","23.2","-106.4166666","4.0","COLONIA JUAN CARRASCO MAZATLAN SIN., MX","FM-12","99999","V020","280,1,N,0040,1","22000,1,9,N","018000,1,N,1","+0290,1","+0227,1","10103,1","24,0000,9,1",,,,,"00,1,+99999,9,99,9",,,"00,99,1,00,1,00,1,99999,9,00,1,00,1",,"01,9",,"120,M,+0322,1","180,N,+0218,1","99999,9,10092,1","3,1,004,1,-012,1",,,"SYN106AAXX  02001 76458 32968 02804 10290 20227 30092 40103 53004 92340 333 10322 20218 30/// 50371 59012 70000;","Q01  00002PRCP24"
"76458099999","2001-11-02T03:00:00","4","23.2","-106.4166666","4.0","COLONIA JUAN CARRASCO MAZATLAN SIN., MX","FM-12","99999","V020","340,1,N,0030,1","22000,1,9,N","014000,1,N,1","+0270,1","+0229,1","10107,1","99,0000,9,1",,,,,"01,1,+00510,9,05,9",,,"01,99,1,01,1,04,1,00450,1,00,1,00,1",,"01,9",,,,"99999,9,10096,1","2,1,004,1,-023,1",,,"SYN100AAXX  02031 76458 32464 13403 10270 20229 30096 40107 52004 81400 90250 333 01500 30/// 59023 81617;","Q01  00002PRCP99"
"76458099999","2001-11-02T06:00:00","4","23.2","-106.4166666","4.0","COLONIA JUAN CARRASCO MAZATLAN SIN., MX","FM-12","99999","V020","310,1,N,0020,1","22000,1,9,N","008000,1,N,1","+0260,1","+0224,1","10112,1","99,0000,9,1",,,,,"00,1,+99999,9,99,9",,,"00,99,1,00,1,00,1,99999,9,00,1,00,1","0582,9","01,9",,"240,M,+0322,1","240,N,+0218,1","99999,9,10101,1","2,1,005,1,-020,1",,,"SYN100AAXX  02061 76458 32958 03102 10260 20224 30101 40112 52005 90540 333 10322 20218 30/// 55097 59020;","Q01  00002PRCP99"
"76458099999","2001-11-02T18:00:00","4","23.2","-106.4166666","4.0","COLONIA JUAN CARRASCO MAZATLAN SIN., MX","FM-12","99999","V020","230,1,N,0030,1","22000,1,9,N","012000,1,N,1","+0285,1","+0228,1","10130,1","99,0000,9,1",,,,,"01,1,+00690,9,02,9",,,"01,99,1,01,1,01,1,00800,1,00,1,00,1",,"01,9",,"120,M,+0310,1","240,N,+0230,1","99999,9,10119,1","4,1,000,1,-003,1",,,"SYN112AAXX  02181 76458 32562 12303 10285 20228 30119 40130 54000 81100 91755 333 0/0// 10310 20230 30/// 59003 81823;","Q01  00002PRCP99"
"76458099999","2001-11-02T21:00:00","4","23.2","-106.4166666","4.0","COLONIA JUAN CARRASCO MAZATLAN SIN., MX","FM-12","99999","V020","200,1,N,0030,1","22000,1,9,N","020000,1,N,1","+0298,1","+0229,1","10111,1","99,0000,9,1",,,,,"01,1,+00870,9,02,9",,,"01,99,1,01,1,08,1,00800,1,00,1,00,1",,"01,9",,,,"99999,9,10100,1","7,1,019,1,+012,1",,,"SYN106AAXX  02211 76458 32570 12003 10298 20229 30100 40111 57019 81800 92040 333 0/2// 30/// 57823 58012 81829;","Q01  00002PRCP99"
"76458099999","2001-11-03T00:00:00","4","23.2","-106.4166666","4.0","COLONIA JUAN CARRASCO MAZATLAN SIN., MX","FM-12","99999","V020","280,1,N,0060,1","22000,1,9,N","020000,1,N,1","+0282,1","+0261,1","10103,1","99,0000,9,1",,,,,,,,"01,99,1,01,1,08,1,00250,1,00,1,00,1",,"01,9",,"120,M,+0320,1","180,N,+0230,1","99999,9,10092,1","7,1,008,1,+000,1",,,"SYN124AAXX  03001 76458 32370 12806 10282 20261 30092 40103 57008 81800 92340 333 0/7// 10320 20230 30/// 50335 57873 58000 81809;","Q01  00002PRCP99"
"76458099999","2001-11-03T03:00:00","4","23.2","-106.4166666","4.0","COLONIA JUAN CARRASCO MAZATLAN SIN., MX","FM-12","99999","V020","290,1,N,0020,1","22000,1,9,N","008000,1,N,1","+0278,1","+0236,1","10116,1","99,0000,9,1",,,,,"01,1,+00540,9,02,9",,,"01,99,1,01,1,01,1,00450,1,00,1,00,1",,"01,9",,,,"99999,9,10104,1","2,1,012,1,+008,1",,,"SYN106AAXX  03031 76458 32458 12902 10278 20236 30104 40116 52012 81100 90245 333 0/6// 30/// 57869 58008 81818;","Q01  00002PRCP99"
"76458099999","2001-11-03T06:00:00","4","23.2","-106.4166666","4.0","COLONIA JUAN CARRASCO MAZATLAN SIN., MX","FM-12","99999","V020","340,1,N,0020,1","22000,1,9,N","008000,1,N,1","+0260,1","+0232,1","10117,1","99,0000,9,1",,,,,"00,1,+99999,9,99,9",,,"00,99,1,00,1,00,1,99999,9,00,1,00,1","0564,9","01,9",,"240,M,+0320,1","240,N,+0230,1","99999,9,10106,1","0,1,002,1,+005,1",,,"SYN100AAXX  03061 76458 32958 03402 10260 20232 30106 40117 50002 90535 333 10320 20230 30/// 55094 58005;","Q01  00002PRCP99"
"76458099999","2001-11-03T18:00:00","4","23.2","-106.4166666","4.0","COLONIA JUAN CARRASCO MAZATLAN SIN., MX","FM-12","99999","V020","270,1,N,0040,1","22000,1,9,N","018000,1,N,1","+0292,1","+0234,1","10129,1","99,0000,9,1",,,,,"00,1,+99999,9,99,9",,,"00,99,1,00,1,00,1,99999,9,00,1,00,1",,"01,9",,"120,M,+0310,1","240,N,+0228,1","99999,9,10118,1","0,1,001,1,-001,1",,,"SYN094AAXX  03181 76458 32968 02704 10292 20234 30118 40129 50001 91755 333 10310 20228 30/// 59001;","Q01  00002PRCP99"
"76458099999","2001-11-04T00:00:00","4","23.2","-106.4166666","4.0","COLONIA JUAN CARRASCO MAZATLAN SIN., MX","FM-12","99999","V020","999,9,C,0000,1","22000,1,9,N","020000,1,N,1","+0304,1","+0234,1","10095,1","24,0000,9,1",,,,,"00,1,+99999,9,99,9",,,"00,99,1,00,1,00,1,99999,9,00,1,00,1",,"01,9",,"120,M,+0315,1","180,N,+0288,1","99999,9,10083,1","5,1,005,1,+003,1",,,"SYN112AAXX  04001 76458 32070 00000 10304 20234 30083 40095 55005 92350 333 0/0// 10315 20288 30/// 50423 58003 70000;","Q01  00002PRCP24"
"76458099999","2001-11-04T03:00:00","4","23.2","-106.4166666","4.0","COLONIA JUAN CARRASCO MAZATLAN SIN., MX","FM-12","99999","V020","310,1,N,0030,1","22000,1,9,N","010000,1,N,1","+0278,1","+0230,1","10106,1","99,0000,9,1",,,,,"00,1,+99999,9,99,9",,,"00,99,1,00,1,00,1,99999,9,00,1,00,1",,"01,9",,,,"99999,9,10095,1","2,1,012,1,-009,1",,,"SYN082AAXX  04031 76458 32960 03103 10278 20230 30095 40106 52012 90250 333 30/// 59009;","Q01  00002PRCP99"
"76458099999","2001-11-04T06:00:00","4","23.2","-106.4166666","4.0","COLONIA JUAN CARRASCO MAZATLAN SIN., MX","FM-12","99999","V020","140,1,N,0030,1","22000,1,9,N","010000,1,N,1","+0250,1","+0225,1","10105,1","99,0000,9,1",,,,,"00,1,+99999,9,99,9",,,"00,99,1,00,1,00,1,99999,9,00,1,00,1",,"01,9",,,,"99999,9,10094,1","7,1,003,1,+999,9",,,"SYN082AAXX  04061 76458 32960 01403 10250 20225 30094 40105 57003 90845 333 30/// 58///;","Q01  00002PRCP99"
"76458099999","2001-11-04T12:00:00","4","23.2","-106.4166666","4.0","COLONIA JUAN CARRASCO MAZATLAN SIN., MX","FM-12","99999","V020","140,1,N,0030,1","22000,1,9,N","010000,1,N,1","+0244,1","+0225,1","10103,1","24,0000,9,1",,,,,"00,1,+99999,9,99,9",,,"00,99,1,00,1,00,1,99999,9,00,1,00,1",,"01,9","999,+0220,9","999,M,+0315,1","120,N,+0239,1","99999,9,10092,1","7,1,002,1,+999,9",,,"SYN100AAXX  04121 76458 32960 01403 10244 20225 30092 40103 57002 91135 333 10315 20239 30022 58/// 70000;","Q01  00002PRCP24"
"76458099999","2001-11-04T15:00:00","4","23.2","-106.4166666","4.0","COLONIA JUAN CARRASCO MAZATLAN SIN., MX","FM-12","99999","V020","040,1,N,0030,1","22000,1,9,N","016000,1,N,1","+0250,1","+0231,1","10119,1","99,0000,9,1",,,"4,1,03,1","4,1,03,1","00,1,+99999,9,99,9",,,"00,99,1,00,1,00,1,99999,9,00,1,00,1",,"01,9",,,,"99999,9,10108,1","2,1,016,1,-011,1",,"05,1","SYN100AAXX  04151 76458 31366 00403 10250 20231 30108 40119 52016 70544 91450 333 0/4// 30/// 57841 59011;","Q01  00002PRCP99"
"76458099999","2001-11-04T21:00:00","4","23.2","-106.4166666","4.0","COLONIA JUAN CARRASCO MAZATLAN SIN., MX","FM-12","99999","V020","220,1,N,0030,1","22000,1,9,N","018000,1,N,1","+0297,1","+0252,1","10092,1","99,0000,9,1",,,,,"00,1,+99999,9,99,9",,,"00,99,1,00,1,00,1,99999,9,00,1,00,1",,"01,9",,,,"99999,9,10081,1","7,1,029,1,-007,1",,,"SYN082AAXX  04211 76458 32968 02203 10297 20252 30081 40092 57029 92045 333 30/// 59007;","Q01  00002PRCP99"
"76458099999","2001-11-05T00:00:00","4","23.2","-106.4166666","4.0","COLONIA JUAN CARRASCO MAZATLAN SIN., MX","FM-12","99999","V020","270,1,N,0030,1","22000,1,9,N","018000,1,N,1","+0299,1","+0238,1","10087,1","24,0000,9,1",,,,,,,,"01,99,1,01,1,00,1,02250,1,03,1,00,1",,"01,9",,"120,M,+0332,1","180,N,+0236,1","99999,9,10075,1","7,1,006,1,-008,1",,,"SYN124AAXX  05001 76458 32868 12703 10299 20238 30075 40087 57006 81030 92340 333 10332 20236 30/// 50331 56/9/ 59008 70000 81364;","Q01  00002PRCP99Q02  00003PRCP99"
"76458099999","2001-11-05T03:00:00","4","23.2","-106.4166666","4.0","COLONIA JUAN CARRASCO MAZATLAN SIN., MX","FM-12","99999","V020","340,1,N,0020,1","22000,1,9,N","016000,1,N,1","+0272,1","+0212,1","10100,1","99,0000,9,1",,,,,"00,1,+99999,9,99,9",,,"00,99,1,00,1,00,1,99999,9,00,1,00,1",,"01,9",,,,"99999,9,10089,1","2,1,013,1,-007,1",,,"SYN082AAXX  05031 76458 32966 03402 10272 20212 30089 40100 52013 90250 333 30/// 59007;","Q01  00002PRCP99"
"76458099999","2001-11-05T06:00:00","4","23.2","-106.4166666","4.0","COLONIA JUAN CARRASCO MAZATLAN SIN., MX","FM-12","99999","V020","350,1,N,0020,1","22000,1,9,N","016000,1,N,1","+0265,1","+0175,1","10101,1","99,0000,9,1",,,,,"00,1,+99999,9,99,9",,,"00,99,1,00,1,00,1,99999,9,00,1,00,1","0552,9","01,9",,"240,M,+0332,1","240,N,+0236,1","99999,9,10090,1","1,1,001,1,-007,1",,,"SYN100AAXX  05061 76458 32966 03502 10265 20175 30090 40101 51001 90530 333 10332 20236 30/// 55092 59007;","Q01  00002PRCP99"
"76458099999","2001-11-05T12:00:00","4","23.2","-106.4166666","4.0","COLONIA JUAN CARRASCO MAZATLAN SIN., MX","FM-12","99999","V020","999,9,C,0000,1","22000,1,9,N","008000,1,N,1","+0232,1","+0178,1","10084,1","24,0000,9,1",,,,,"00,1,+99999,9,99,9",,,"00,99,1,00,1,00,1,99999,9,00,1,00,1",,"01,9","999,+0210,9","999,M,+0332,1","120,N,+0230,1","99999,9,10073,1","7,1,008,1,-019,1",,,"SYN100AAXX  05121 76458 32958 00000 10232 20178 30073 40084 57008 91138 333 10332 20230 30021 59019 70000;","Q01  00002PRCP24"
"76458099999","2001-11-05T15:00:00","4","23.2","-106.4166666","4.0","COLONIA JUAN CARRASCO MAZATLAN SIN., MX","FM-12","99999","V020","030,1,N,0030,1","00390,1,9,N","014000,1,N,1","+0260,1","+0230,1","10103,1","99,0000,9,1",,,,,"06,1,+00390,9,05,9",,,"06,99,1,06,1,04,1,00450,1,00,1,00,1",,"01,9",,,,"99999,9,10092,1","2,1,019,1,-016,1",,,"SYN100AAXX  05151 76458 32464 60303 10260 20230 30092 40103 52019 86400 91450 333 0/9// 30/// 59016 86613;","Q01  00002PRCP99"
"76458099999","2001-11-05T21:00:00","4","23.2","-106.4166666","4.0","COLONIA JUAN CARRASCO MAZATLAN SIN., MX","FM-12","99999","V020","270,1,N,0040,1","03600,1,C,N","020000,1,N,1","+0300,1","+0252,1","10080,1","99,0000,9,1",,,,,"01,1,+00600,9,08,9",,,"05,99,1,01,1,02,1,00450,1,03,1,00,1",,"01,9",,,,"99999,9,10069,1","7,1,025,1,-011,1",,,"SYN106AAXX  05211 76458 32470 52704 10300 20252 30069 40080 57025 81230 92050 333 04190 30/// 59011 81820 84359;","Q01  00002PRCP99"
"76458099999","2001-11-06T00:00:00","4","23.2","-106.4166666","4.0","COLONIA JUAN CARRASCO MAZATLAN SIN., MX","FM-12","99999","V020","290,1,N,0030,1","22000,1,9,N","020000,1,N,1","+0296,1","+0245,1","10077,1","24,0000,9,1",,,,,"01,1,+00660,9,08,9",,,"02,99,1,01,1,02,1,00800,1,03,1,00,1",,"01,9",,"120,M,+0336,1","180,N,+0225,1","99999,9,10067,1","5,1,002,1,-008,1",,,"SYN136AAXX  06001 76458 32570 22903 10296 20245 30067 40077 55002 81230 92350 333 04110 10336 20225 30/// 50370 57819 59008 70000 81822 81359;","Q01  00002PRCP99Q02  00003PRCP99"
"76458099999","2001-11-06T18:00:00","4","23.2","-106.4166666","4.0","COLONIA JUAN CARRASCO MAZATLAN SIN., MX","FM-12","99999","V020","180,1,N,0030,1","22000,1,9,N","018000,1,N,1","+0299,1","+0241,1","10137,1","99,0000,9,1",,,,,"01,1,+00720,9,02,9",,,"01,99,1,01,1,02,1,00800,1,00,1,00,1",,"01,9",,"120,M,+0315,1","240,N,+0189,1","99999,9,10125,1","1,1,010,1,+030,1",,,"SYN118AAXX  06181 76458 32568 11803 10299 20241 30125 40137 51010 81200 91750 333 0/1// 10315 20189 30/// 57814 58030 81824;","Q01  00002PRCP99"
"76458099999","2001-11-06T21:00:00","4","23.2","-106.4166666","4.0","COLONIA JUAN CARRASCO MAZATLAN SIN., MX","FM-12","99999","V020","260,1,N,0040,1","22000,1,9,N","020000,1,N,1","+0302,1","+0251,1","10119,1","99,0000,9,1",,,,,"01,1,+00630,9,02,9",,,"01,99,1,01,1,08,1,00800,1,99,9,99,9",,"01,9",,,,"99999,9,10108,1","7,1,017,1,+039,1",,,"SYN106AAXX  06211 76458 32570 12604 10302 20251 30108 40119 57017 818// 92050 333 0/1// 30/// 57814 58039 81821;","Q01  00002PRCP99"
"76458099999","2001-11-07T03:00:00","4","23.2","-106.4166666","4.0","COLONIA JUAN CARRASCO MAZATLAN SIN., MX","FM-12","99999","V020","300,1,N,0030,1","22000,1,9,N","010000,1,N,1","+0267,1","+0244,1","10123,1","99,0000,9,1",,,,,"00,1,+99999,9,99,9",,,"00,99,1,00,1,00,1,99999,9,00,1,00,1",,"01,9",,,,"99999,9,10112,1","2,1,015,1,+042,1",,,"SYN082AAXX  07031 76458 32960 03003 10267 20244 30112 40123 52015 90250 333 30/// 58042;","Q01  00002PRCP99"
"76458099999","2001-11-07T09:00:00","4","23.2","-106.4166666","4.0","COLONIA JUAN CARRASCO MAZATLAN SIN., MX","FM-12","99999","V020","999,9,C,0000,1","22000,1,9,N","010000,1,N,1","+0232,1","+0208,1","10134,1","99,0000,9,1",,,,,"00,1,+99999,9,99,9",,,"00,99,1,00,1,00,1,99999,9,00,1,00,1",,"01,9",,,,"99999,9,10123,1","0,1,004,1,+999,9",,,"SYN082AAXX  07091 76458 32960 00000 10232 20208 30123 40134 50004 90840 333 30/// 58///;","Q01  00002PRCP99"
"76458099999","2001-11-07T12:00:00","4","23.2","-106.4166666","4.0","COLONIA JUAN CARRASCO MAZATLAN SIN., MX","FM-12","99999","V020","999,9,C,0000,1","22000,1,9,N","010000,1,N,1","+0216,1","+0197,1","10139,1","24,0000,9,1",,,,,"00,1,+99999,9,99,9",,,"00,99,1,00,1,00,1,99999,9,00,1,00,1",,"01,9","999,+0190,9","999,M,+0332,1","120,N,+0208,1","99999,9,10128,1","2,1,004,1,+999,9",,,"SYN100AAXX  07121 76458 32960 00000 10216 20197 30128 40139 52004 91140 333 10332 20208 30019 58/// 70000;","Q01  00002PRCP24"
"76458099999","2001-11-07T18:00:00","4","23.2","-106.4166666","4.0","COLONIA JUAN CARRASCO MAZATLAN SIN., MX","FM-12","99999","V020","180,1,N,0040,1","22000,1,9,N","006000,1,N,1","+0296,1","+0221,1","10157,1","24,6406,9,2",,,"4,1,06,1","4,1,06,1",,,,"02,99,1,00,1,00,1,99999,9,00,1,01,1",,"01,9",,"120,M,+0310,1","240,N,+0206,1","99999,9,10147,1","0,1,003,1,+021,1",,"04,1","SYN118AAXX  07180 76458 31956 21804 10296 20221 30147 40157 50003 70444 80001 91750 333 0/00/ 10310 20206 30/// 58021 76405;",
"76458099999","2001-11-07T21:00:00","4","23.2","-106.4166666","4.0","COLONIA JUAN CARRASCO MAZATLAN SIN., MX","FM-12","99999","V020","200,1,N,0040,1","22000,1,9,N","012000,1,N,1","+0303,1","+0238,1","10129,1","99,0000,9,1",,,,,"01,1,+05400,9,01,9",,,"01,99,1,00,1,00,1,99999,9,00,1,06,1",,"01,9",,,,"99999,9,10117,1","7,1,029,1,+010,1",,,"SYN100AAXX  07211 76458 32962 12004 10303 20238 30117 40129 57029 80006 92045 333 30/// 56//9 58010 81068;","Q01  00002PRCP99"
"76458099999","2001-11-08T00:00:00","4","23.2","-106.4166666","4.0","COLONIA JUAN CARRASCO MAZATLAN SIN., MX","FM-12","99999","V020","280,1,N,0040,1","22000,1,9,N","018000,1,N,1","+0291,1","+0235,1","10124,1","24,0000,9,1",,,,,,,,"01,99,1,00,1,00,1,99999,9,00,1,06,1",,"01,9",,"120,M,+0324,1","180,N,+0206,1","99999,9,10112,1","5,1,006,1,+015,1",,,"SYN124AAXX  08001 76458 32968 12804 10291 20235 30112 40124 55006 80006 92350 333 10324 20206 30/// 50311 56//9 58015 70000 81068;","Q01  00002PRCP99Q02  00003PRCP99"
"76458099999","2001-11-08T03:00:00","4","23.2","-106.4166666","4.0","COLONIA JUAN CARRASCO MAZATLAN SIN., MX","FM-12","99999","V020","340,1,N,0030,1","22000,1,9,N","008000,1,N,1","+0286,1","+0226,1","10147,1","99,0000,9,1",,,,,"00,1,+99999,9,99,9",,,"00,99,1,00,1,00,1,99999,9,00,1,00,1",,"01,9",,,,"99999,9,10136,1","2,1,024,1,+024,1",,,"SYN082AAXX  08031 76458 32958 03403 10286 20226 30136 40147 52024 90245 333 30/// 58024;","Q01  00002PRCP99"
"76458099999","2001-11-08T06:00:00","4","23.2","-106.4166666","4.0","COLONIA JUAN CARRASCO MAZATLAN SIN., MX","FM-12","99999","V020","350,1,N,0020,1","22000,1,9,N","008000,1,N,1","+0250,1","+0217,1","10153,1","99,0000,9,1",,,,,"00,1,+99999,9,99,9",,,"00,99,1,00,1,00,1,99999,9,00,1,00,1","0564,9","01,9",,"240,M,+0324,1","240,N,+0206,1","99999,9,10141,1","1,1,005,1,+022,1",,,"SYN100AAXX  08061 76458 32958 03502 10250 20217 30141 40153 51005 90535 333 10324 20206 30/// 55094 58022;","Q01  00002PRCP99"
"76458099999","2001-11-08T12:00:00","4","23.2","-106.4166666","4.0","COLONIA JUAN CARRASCO MAZATLAN SIN., MX","FM-12","99999","V020","999,9,C,0000,1","22000,1,9,N","008000,1,N,1","+0226,1","+0197,1","10142,1","24,0000,9,1",,,,,"00,1,+99999,9,99,9",,,"00,99,1,00,1,00,1,99999,9,00,1,00,1",,"01,9","999,+0210,9","999,M,+0324,1","120,N,+0220,1","99999,9,10131,1","7,1,003,1,+003,1",,,"SYN100AAXX  08121 76458 32458 00000 10226 20197 30131 40142 57003 91135 333 10324 20220 30021 58003 70000;","Q01  00002PRCP24"
"76458099999","2001-11-08T15:00:00","4","23.2","-106.4166666","4.0","COLONIA JUAN CARRASCO MAZATLAN SIN., MX","FM-12","99999","V020","090,1,N,0030,1","22000,1,9,N","002000,1,N,1","+0256,1","+0230,1","10153,1","99,0000,9,1",,,"4,1,03,1","4,1,03,1","00,1,+99999,9,99,9",,,"00,99,1,00,1,00,1,99999,9,00,1,00,1",,"01,9",,,,"99999,9,10142,1","2,1,010,1,-002,1",,"05,1","SYN088AAXX  08151 76458 31920 00903 10256 20230 30142 40153 52010 70544 91455 333 30/// 59002;","Q01  00002PRCP99"
"76458099999","2001-11-08T18:00:00","4","23.2","-106.4166666","4.0","COLONIA JUAN CARRASCO MAZATLAN SIN., MX","FM-12","99999","V020","180,1,N,0030,1","22000,1,9,N","003000,1,N,1","+0293,1","+0229,1","10154,1","99,0000,9,1",,,"4,1,06,1","4,1,06,1","00,1,+99999,9,99,9",,,"00,99,1,00,1,00,1,99999,9,00,1,00,1",,"01,9",,"120,M,+0310,1","240,N,+0210,1","99999,9,10143,1","4,1,000,1,-004,1",,"05,1","SYN100AAXX  08181 76458 31930 01803 10293 20229 30143 40154 54001 70544 91745 333 10310 20210 30/// 59004;","Q01  00002PRCP99"
"76458099999","2001-11-08T21:00:00","4","23.2","-106.4166666","4.0","COLONIA JUAN CARRASCO MAZATLAN SIN., MX","FM-12","99999","V020","999,9,C,0000,1","22000,1,9,N","008000,1,N,1","+0308,1","+0201,1","10127,1","99,0000,9,1",,,,,"00,1,+99999,9,99,9",,,"00,99,1,00,1,00,1,99999,9,00,1,00,1",,"01,9",,,,"99999,9,10115,1","7,1,028,1,-002,1",,,"SYN082AAXX  08211 76458 32058 00000 10308 20201 30115 40127 57028 92050 333 30/// 59002;","Q01  00002PRCP99"
"76458099999","2001-11-09T00:00:00","4","23.2","-106.4166666","4.0","COLONIA JUAN CARRASCO MAZATLAN SIN., MX","FM-12","99999","V020","290,1,N,0040,1","22000,1,9,N","018000,1,N,1","+0291,1","+0228,1","10121,1","24,0000,9,1",,,,,"00,1,+99999,9,99,9",,,"00,99,1,00,1,00,1,99999,9,00,1,00,1",,"01,9",,"120,M,+0324,1","180,N,+0210,1","99999,9,10110,1","6,1,005,1,-002,1",,,"SYN106AAXX  09001 76458 32968 02904 10291 20228 30110 40121 56005 92340 333 10324 20210 30/// 50351 59002 70000;","Q01  00002PRCP24"
"76458099999","2001-11-09T06:00:00","4","23.2","-106.4166666","4.0","COLONIA JUAN CARRASCO MAZATLAN SIN., MX","FM-12","99999","V020","340,1,N,0020,1","22000,1,9,N","008000,1,N,1","+0246,1","+0200,1","10136,1","99,0000,9,1",,,,,"00,1,+99999,9,99,9",,,"00,99,1,00,1,00,1,99999,9,00,1,00,1","0552,9","01,9",,"240,M,+0324,1","240,N,+0210,1","99999,9,10125,1","1,1,003,1,-016,1",,,"SYN100AAXX  09061 76458 32958 03402 10246 20200 30125 40136 51003 90535 333 10324 20210 30/// 55092 59016;","Q01  00002PRCP99"
"76458099999","2001-11-09T15:00:00","4","23.2","-106.4166666","4.0","COLONIA JUAN CARRASCO MAZATLAN SIN., MX","FM-12","99999","V020","140,1,N,0030,1","22000,1,9,N","006000,1,N,1","+0259,1","+0233,1","10156,1","99,0000,9,1",,,"4,1,03,1","4,1,03,1","00,1,+99999,9,99,9",,,"00,99,1,00,1,00,1,99999,9,00,1,00,1",,"01,9",,,,"99999,9,10150,1","2,1,020,1,+008,1",,"05,1","SYN088AAXX  09151 76458 31956 01403 10259 20233 30150 40156 52020 70544 91450 333 30/// 58008;","Q01  00002PRCP99"
"76458099999","2001-11-09T18:00:00","4","23.2","-106.4166666","4.0","COLONIA JUAN CARRASCO MAZATLAN SIN., MX","FM-12","99999","V020","160,1,N,0050,1","22000,1,9,N","008000,1,N,1","+0303,1","+0245,1","10168,1","99,0000,9,1",,,"4,1,06,1","4,1,06,1","01,1,+05400,9,01,9",,,"01,99,1,00,1,00,1,99999,9,00,1,01,1",,"01,9",,"120,M,+0319,1","240,N,+0220,1","99999,9,10157,1","0,1,007,1,+014,1",,"05,1","SYN118AAXX  09181 76458 31958 11605 10303 20245 30157 40168 50007 70544 80001 91740 333 10319 20220 30/// 56//9 58014 81068;","Q01  00002PRCP99"
"76458099999","2001-11-09T21:00:00","4","23.2","-106.4166666","4.0","COLONIA JUAN CARRASCO MAZATLAN SIN., MX","FM-12","99999","V020","170,1,N,0060,1","22000,1,9,N","018000,1,N,1","+0302,1","+0254,1","10149,1","99,0000,9,1",,,,,"01,1,+06000,9,01,9",,,"01,99,1,00,1,00,1,99999,9,00,1,05,1",,"01,9",,,,"99999,9,10137,1","7,1,020,1,+022,1",,,"SYN100AAXX  09211 76458 32468 11706 10302 20254 30137 40149 57020 80005 92050 333 30/// 56005 58022 81070;","Q01+004502SCOLCBQ02  00002PRCP99"
"76458099999","2001-11-10T00:00:00","4","23.2","-106.4166666","4.0","COLONIA JUAN CARRASCO MAZATLAN SIN., MX","FM-12","99999","V020","270,1,N,0020,1","22000,1,9,N","016000,1,N,1","+0302,1","+0236,1","10135,1","24,0000,9,1",,,,,,,,"01,99,1,00,1,00,1,99999,9,00,1,05,1",,"01,9",,"120,M,+0320,1","180,N,+0220,1","99999,9,10124,1","7,1,013,1,+015,1",,,"SYN124AAXX  10001 76458 32566 12702 10302 20236 30124 40135 57013 80005 92350 333 10320 20220 30/// 50164 56005 58015 70000 81070;","Q01+008002SCOLCBQ02  00002PRCP99Q03  00003PRCP99"
"76458099999","2001-11-10T03:00:00","4","23.2","-106.4166666","4.0","COLONIA JUAN CARRASCO MAZATLAN SIN., MX","FM-12","99999","V020","340,1,N,0020,1","22000,1,9,N","008000,1,N,1","+0270,1","+0248,1","10149,1","99,0000,9,1",,,,,"00,1,+99999,9,99,9",,,"00,99,1,00,1,00,1,99999,9,00,1,00,1",,"01,9",,,,"99999,9,10138,1","2,1,014,1,+016,1",,,"SYN082AAXX  10031 76458 32958 03402 10270 20248 30138 40149 52014 90245 333 30/// 58016;","Q01  00002PRCP99"
"76458099999","2001-11-10T06:00:00","4","23.2","-106.4166666","4.0","COLONIA JUAN CARRASCO MAZATLAN SIN., MX","FM-12","99999","V020","350,1,N,0020,1","22000,1,9,N","008000,1,N,1","+0256,1","+0245,1","10158,1","99,0000,9,1",,,,,"00,1,+99999,9,99,9",,,"00,99,1,00,1,00,1,99999,9,00,1,00,1","0576,9","01,9",,"240,M,+0320,1","240,N,+0220,1","99999,9,10147,1","2,1,009,1,+022,1",,,"SYN100AAXX  10061 76458 32958 03502 10256 20245 30147 40158 52009 90530 333 10320 20220 30/// 55096 58022;","Q01  00002PRCP99"
"76458099999","2001-11-10T21:00:00","4","23.2","-106.4166666","4.0","COLONIA JUAN CARRASCO MAZATLAN SIN., MX","FM-12","99999","V020","260,1,N,0040,1","22000,1,9,N","018000,1,N,1","+0296,1","+0248,1","10133,1","99,0000,9,1",,,,,"01,1,+00600,9,02,9",,,"01,99,1,01,1,08,1,00450,1,99,9,99,9",,"01,9",,,,"99999,9,10122,1","7,1,030,1,-015,1",,,"SYN106AAXX  10211 76458 32468 12604 10296 20248 30122 40133 57030 818// 92045 333 0/3// 30/// 57832 59015 81820;","Q01  00002PRCP99"
"76458099999","2001-11-11T00:00:00","4","23.2","-106.4166666","4.0","COLONIA JUAN CARRASCO MAZATLAN SIN., MX","FM-12","99999","V020","280,1,N,0050,1","22000,1,9,N","018000,1,N,1","+0292,1","+0244,1","10123,1","24,0000,9,1",,,,,"01,1,+00600,9,08,9",,,"02,99,1,01,1,08,1,00450,1,00,1,05,1",,"01,9",,"120,M,+0320,1","180,N,+0225,1","99999,9,10112,1","7,1,012,1,-012,1",,,"SYN136AAXX  11001 76458 32468 22805 10292 20244 30112 40123 57012 81805 92350 333 0/8// 10320 20225 30/// 50339 57823 59012 70000 81820 81070;","Q01  00002PRCP99Q02  00003PRCP99"
"76458099999","2001-11-11T03:00:00","4","23.2","-106.4166666","4.0","COLONIA JUAN CARRASCO MAZATLAN SIN., MX","FM-12","99999","V020","340,1,N,0020,1","22000,1,9,N","008000,1,N,1","+0268,1","+0241,1","10136,1","99,0000,9,1",,,,,"00,1,+99999,9,99,9",,,"00,99,1,00,1,00,1,99999,9,00,1,00,1",,"01,9",,,,"99999,9,10126,1","2,1,014,1,+012,1",,,"SYN082AAXX  11031 76458 32958 03402 10268 20241 30126 40136 52014 90245 333 30/// 58012;","Q01  00002PRCP99"
"76458099999","2001-11-11T06:00:00","4","23.2","-106.4166666","4.0","COLONIA JUAN CARRASCO MAZATLAN SIN., MX","FM-12","99999","V020","360,1,N,0020,1","22000,1,9,N","008000,1,N,1","+0252,1","+0236,1","10138,1","99,0000,9,1",,,,,"00,1,+99999,9,99,9",,,"00,99,1,00,1,00,1,99999,9,00,1,00,1","0552,9","01,9",,"240,M,+0320,1","240,N,+0227,1","99999,9,10127,1","0,1,001,1,-021,1",,,"SYN100AAXX  11061 76458 32958 03602 10252 20236 30127 40138 50001 90535 333 10320 20227 30/// 55092 59021;","Q01  00002PRCP99"
"76458099999","2001-11-11T15:00:00","4","23.2","-106.4166666","4.0","COLONIA JUAN CARRASCO MAZATLAN SIN., MX","FM-12","99999","V020","090,1,N,0020,1","22000,1,9,N","010000,1,N,1","+0245,1","+0204,1","10151,1","99,0000,9,1",,,"4,1,03,1","4,1,03,1","02,1,+02700,9,03,9",,,"04,99,1,02,1,00,1,99999,9,03,1,05,1",,"01,9",,,,"99999,9,10140,1","3,1,022,1,-008,1",,"05,1","SYN112AAXX  11151 76458 31960 40902 10245 20204 30140 40151 53022 70544 82035 91445 333 0/0// 30/// 59008 82359 82079;","Q01  00002PRCP99"
"76458099999","2001-11-11T18:00:00","4","23.2","-106.4166666","4.0","COLONIA JUAN CARRASCO MAZATLAN SIN., MX","FM-12","99999","V020","130,1,N,0020,1","08700,1,9,N","014000,1,N,1","+0296,1","+0215,1","10152,1","99,0000,9,1",,,"4,1,06,1","4,1,06,1","05,1,+08700,9,01,9",,,"05,99,1,00,1,00,1,99999,9,00,1,05,1",,"01,9",,"120,M,+0310,1","240,N,+0230,1","99999,9,10141,1","0,1,001,1,-010,1",,"05,1","SYN118AAXX  11181 76458 31964 51302 10296 20215 30141 40152 50001 70544 80005 91740 333 0/00/ 10310 20230 30/// 59010 85079;","Q01  00002PRCP99"
"76458099999","2001-11-11T21:00:00","4","23.2","-106.4166666","4.0","COLONIA JUAN CARRASCO MAZATLAN SIN., MX","FM-12","99999","V020","210,1,N,0040,1","09000,1,C,N","012000,1,N,1","+0294,1","+0230,1","10118,1","99,0000,9,1",,,,,"02,1,+03600,9,03,9",,,"06,99,1,02,1,00,1,02250,1,03,1,08,1",,"01,9",,,,"99999,9,10107,1","7,1,034,1,-015,1",,,"SYN106AAXX  11211 76458 32862 62104 10294 20230 30107 40118 57034 82038 92045 333 30/// 56/99 59015 82362 84268;","Q01  00002PRCP99"
"76458099999","2001-11-12T00:00:00","4","23.2","-106.4166666","4.0","COLONIA JUAN CARRASCO MAZATLAN SIN., MX","FM-12","99999","V020","320,1,N,0030,1","03600,1,9,N","015000,1,N,1","+0286,1","+0222,1","10113,1","24,0000,9,1",,,,,"01,1,+00810,9,08,9","02,1,+03600,9,03,9",,"07,99,1,01,1,02,1,00800,1,03,1,08,1",,"01,9",,"120,M,+0326,1","180,N,+0230,1","99999,9,10102,1","7,1,005,1,-010,1",,,"SYN136AAXX  12001 76458 32565 73203 10286 20222 30102 40113 57005 81238 92340 333 10326 20230 30/// 50381 56999 59010 70000 81827 82362 84268;","Q01  00002PRCP99Q02  00003PRCP99"
"76458099999","2001-11-12T03:00:00","4","23.2","-106.4166666","4.0","COLONIA JUAN CARRASCO MAZATLAN SIN., MX","FM-12","99999","V020","340,1,N,0030,1","22000,1,9,N","008000,1,N,1","+0274,1","+0233,1","10129,1","99,0000,9,1",,,,,"02,1,+06000,9,01,9",,,"02,99,1,99,9,99,9,99999,9,99,9,99,9",,"01,9",,,,"99999,9,10118,1","2,1,016,1,-008,1",,,"SYN088AAXX  12031 76458 32958 23403 10274 20233 30118 40129 52016 90245 333 30/// 59008 82070;","Q01  00002PRCP99"
"76458099999","2001-11-12T15:00:00","4","23.2","-106.4166666","4.0","COLONIA JUAN CARRASCO MAZATLAN SIN., MX","FM-12","99999","V020","160,1,N,0030,1","22000,1,9,N","012000,1,N,1","+0256,1","+0215,1","10146,1","99,0000,9,1",,,,,"00,1,+99999,9,99,9",,,"00,99,1,00,1,00,1,99999,9,00,1,00,1",,"01,9",,,,"99999,9,10135,1","1,1,011,1,-005,1",,,"SYN082AAXX  12151 76458 32962 01603 10256 20215 30135 40146 51011 91455 333 30/// 59005;","Q01  00002PRCP99"
"76458099999","2001-11-13T00:00:00","4","23.2","-106.4166666","4.0","COLONIA JUAN CARRASCO MAZATLAN SIN., MX","FM-12","99999","V020","280,1,N,0040,1","22000,1,9,N","015000,1,N,1","+0284,1","+0214,1","10122,1","24,0000,9,1",,,,,,,,"01,99,1,01,1,02,1,00800,1,00,1,00,1",,"01,9",,"120,M,+0315,1","180,N,+0219,1","99999,9,10111,1","5,1,004,1,+009,1",,,"SYN124AAXX  13001 76458 32565 12804 10284 20214 30111 40122 55004 81200 92340 333 10315 20219 30/// 50381 56100 58009 70000 81829;","Q01  00002PRCP99Q02  00003PRCP99"
"76458099999","2001-11-13T03:00:00","4","23.2","-106.4166666","4.0","COLONIA JUAN CARRASCO MAZATLAN SIN., MX","FM-12","99999","V020","330,1,N,0030,1","22000,1,9,N","012000,1,N,1","+0264,1","+0229,1","10134,1","99,0000,9,1",,,,,"00,1,+99999,9,99,9",,,"00,99,1,00,1,00,1,99999,9,00,1,00,1",,"01,9",,,,"99999,9,10123,1","2,1,012,1,+005,1",,,"SYN082AAXX  13031 76458 32962 03303 10264 20229 30123 40134 52012 90244 333 30/// 58005;","Q01  00002PRCP99"
"76458099999","2001-11-13T06:00:00","4","23.2","-106.4166666","4.0","COLONIA JUAN CARRASCO MAZATLAN SIN., MX","FM-12","99999","V020","999,9,C,0000,1","22000,1,9,N","012000,1,N,1","+0250,1","+0222,1","10140,1","99,0000,9,1",,,,,"00,1,+99999,9,99,9",,,"00,99,1,00,1,00,1,99999,9,00,1,00,1","0558,9","01,9",,"240,M,+0315,1","240,N,+0219,1","99999,9,10192,2","0,1,006,1,+002,1",,,"SYN100AAXX  13061 76458 32962 00000 10250 20222 30192 40140 50006 90530 333 10315 20219 30/// 55093 58002;","Q01+101923APOSP Q02  00002PRCP99"
"76458099999","2001-11-13T21:00:00","4","23.2","-106.4166666","4.0","COLONIA JUAN CARRASCO MAZATLAN SIN., MX","FM-12","99999","V020","270,1,N,0030,1","03300,1,9,N","020000,1,N,1","+0275,1","+0227,1","10135,1","99,0000,9,1",,,,,"08,1,+03300,9,01,9",,,"08,99,1,08,1,00,1,99999,9,01,1,99,9",,"01,9",,,,"99999,9,10123,1","7,1,026,1,+008,1",,,"SYN100AAXX  13211 76458 32970 82703 10275 20227 30123 40135 57026 88010 92040 333 0/0/0 30/// 58008 88461;","Q01+000002SCOHCGQ02  00002PRCP99"
"76458099999","2001-11-14T03:00:00","4","23.2","-106.4166666","4.0","COLONIA JUAN CARRASCO MAZATLAN SIN., MX","FM-12","99999","V020","340,1,N,0030,1","09000,1,C,N","010000,1,N,1","+0258,1","+0217,1","10124,1","99,0000,9,1",,,,,"04,1,+04200,9,04,9",,,"06,99,1,04,1,00,1,02250,1,02,1,08,1",,"01,9",,,,"99999,9,10113,1","2,1,005,1,-010,1",,,"SYN106AAXX  14031 76458 32860 63403 10258 20217 30113 40124 52005 84028 90245 333 30/// 56/99 59010 84464 82268;","Q01  00002PRCP99"
"76458099999","2001-11-14T06:00:00","4","23.2","-106.4166666","4.0","COLONIA JUAN CARRASCO MAZATLAN SIN., MX","FM-12","99999","V020","360,1,N,0020,1","02100,1,9,N","010000,1,N,1","+0242,1","+0206,1","10127,1","99,0000,9,1",,,,,,,,"08,99,1,08,1,00,1,02250,1,02,1,00,1","0204,9","01,9",,"240,M,+0308,1","240,N,+0210,1","99999,9,10116,1","2,1,003,1,-023,1",,,"SYN118AAXX  14061 76458 32860 83602 10242 20206 30116 40127 52003 88020 90540 333 10308 20210 30/// 55034 56/9/ 59023 88462;","Q01  00002PRCP99"
"76458099999","2001-11-14T12:00:00","4","23.2","-106.4166666","4.0","COLONIA JUAN CARRASCO MAZATLAN SIN., MX","FM-12","99999","V020","999,9,C,0000,1","22000,1,9,N","008000,1,N,1","+0222,1","+0205,1","10123,1","24,0000,9,1",,,,,"00,1,+99999,9,99,9",,,"00,99,1,00,1,00,1,99999,9,00,1,00,1",,"01,9","999,+0200,9","999,M,+0308,1","120,N,+0210,1","99999,9,10112,1","7,1,003,1,-007,1",,,"SYN100AAXX  14121 76458 32958 00000 10222 20205 30112 40123 57003 91130 333 10308 20210 30020 59007 70000;","Q01  00002PRCP24"
"76458099999","2001-11-14T15:00:00","4","23.2","-106.4166666","4.0","COLONIA JUAN CARRASCO MAZATLAN SIN., MX","FM-12","99999","V020","090,1,N,0010,1","22000,1,9,N","010000,1,N,1","+0245,1","+0215,1","10130,1","99,0000,9,1",,,"4,1,03,1","4,1,03,1","02,1,+02700,9,03,9",,,"03,99,1,02,1,00,1,99999,9,03,1,05,1",,"01,9",,,,"99999,9,10119,1","3,1,007,1,-015,1",,"05,1","SYN112AAXX  14151 76458 31960 30901 10245 20215 30119 40130 53007 70544 82035 91455 333 0/02/ 30/// 59015 82359 81079;","Q01  00002PRCP99"
"76458099999","2001-11-14T21:00:00","4","23.2","-106.4166666","4.0","COLONIA JUAN CARRASCO MAZATLAN SIN., MX","FM-12","99999","V020","240,1,N,0040,1","22000,1,9,N","020000,1,N,1","+0285,1","+0210,1","10097,1","99,0000,9,1",,,,,"01,1,+00930,9,02,9",,,"01,99,1,01,1,02,1,00800,1,00,1,00,1",,"01,9",,,,"99999,9,10086,1","7,1,030,1,-037,1",,,"SYN100AAXX  14211 76458 32570 12404 10285 20210 30086 40097 57030 81200 92045 333 30/// 561// 59037 81831;","Q01  00002PRCP99"
"76458099999","2001-11-15T00:00:00","4","23.2","-106.4166666","4.0","COLONIA JUAN CARRASCO MAZATLAN SIN., MX","FM-12","99999","V020","240,1,N,0030,1","22000,1,9,N","020000,1,N,1","+0280,1","+0220,1","10092,1","24,0000,9,1",,,,,,,,"01,99,1,01,1,01,1,00800,1,00,1,00,1",,"01,9",,"120,M,+0310,1","180,N,+0209,1","99999,9,10081,1","7,1,005,1,-019,1",,,"SYN124AAXX  15001 76458 32570 12403 10280 20220 30081 40092 57005 81100 92345 333 10310 20209 30/// 50421 566// 59019 70000 81825;","Q01  00002PRCP99Q02  00003PRCP99"
"76458099999","2001-11-15T03:00:00","4","23.2","-106.4166666","4.0","COLONIA JUAN CARRASCO MAZATLAN SIN., MX","FM-12","99999","V020","180,1,N,0020,1","22000,1,9,N","008000,1,N,1","+0266,1","+0215,1","10099,1","99,0000,9,1",,,,,"01,1,+00630,9,02,9",,,"01,99,1,01,1,01,1,00800,1,99,9,99,9",,"01,9",,,,"99999,9,10088,1","2,1,008,1,-015,1",,,"SYN100AAXX  15031 76458 32558 11802 10266 20215 30088 40099 52008 811// 90245 333 30/// 566// 59015 81821;","Q01  00002PRCP99"
"76458099999","2001-11-15T06:00:00","4","23.2","-106.4166666","4.0","COLONIA JUAN CARRASCO MAZATLAN SIN., MX","FM-12","99999","V020","140,1,N,0010,1","22000,1,9,N","008000,1,N,1","+0246,1","+0224,1","10121,1","99,0000,9,1",,,,,"00,1,+99999,9,99,9",,,"00,99,1,00,1,00,1,99999,9,00,1,00,1","0540,9","01,9",,"240,M,+0310,1","240,N,+0209,1","99999,9,10110,1","2,1,012,1,-006,1",,,"SYN100AAXX  15061 76458 32958 01401 10246 20224 30110 40121 52012 90535 333 10310 20209 30/// 55090 59006;","Q01  00002PRCP99"
"76458099999","2001-11-15T15:00:00","4","23.2","-106.4166666","4.0","COLONIA JUAN CARRASCO MAZATLAN SIN., MX","FM-12","99999","V020","999,9,C,0000,1","22000,1,9,N","012000,1,N,1","+0244,1","+0213,1","10119,1","99,0000,9,1",,,,,"01,1,+00390,9,02,9",,,"01,99,1,01,1,02,1,00450,1,00,1,00,1",,"01,9",,,,"99999,9,10108,1","2,1,017,1,-011,1",,,"SYN100AAXX  15151 76458 32462 10000 10244 20213 30108 40119 52017 81200 91445 333 30/// 56/// 59011 81813;","Q01  00002PRCP99"
"76458099999","2001-11-15T18:00:00","4","23.2","-106.4166666","4.0","COLONIA JUAN CARRASCO MAZATLAN SIN., MX","FM-12","99999","V020","140,1,N,0040,1","22000,1,9,N","018000,1,N,1","+0285,1","+0207,1","10120,1","99,0000,9,1",,,,,"01,1,+00960,9,02,9",,,"01,99,1,01,1,01,1,00800,1,00,1,00,1",,"01,9",,"120,M,+0297,1","240,N,+0213,1","99999,9,10109,1","2,1,001,1,-007,1",,,"SYN112AAXX  15181 76458 32568 11404 10285 20207 30109 40120 52001 81100 91745 333 10297 20213 30/// 566// 59007 81832;","Q01  00002PRCP99"
"76458099999","2001-11-15T21:00:00","4","23.2","-106.4166666","4.0","COLONIA JUAN CARRASCO MAZATLAN SIN., MX","FM-12","99999","V020","200,1,N,0040,1","22000,1,9,N","018000,1,N,1","+0293,1","+0229,1","10101,1","99,0000,9,1",,,,,"01,1,+00810,9,09,9",,,"01,99,1,01,1,03,1,00800,1,00,1,00,1",,"01,9",,,,"99999,9,10090,1","7,1,019,1,+000,1",,,"SYN106AAXX  15211 76458 32568 12004 10293 20229 30090 40101 57019 81300 92050 333 06800 30/// 57988 58000 81927;","Q01  00002PRCP99"
"76458099999","2001-11-16T00:00:00","4","23.2","-106.4166666","4.0","COLONIA JUAN CARRASCO MAZATLAN SIN., MX","FM-12","99999","V020","270,1,N,0030,1","22000,1,9,N","020000,1,N,1","+0280,1","+0213,1","10096,1","24,0000,9,1",,,,,"01,1,+00840,9,08,9",,,"03,99,1,02,1,03,1,00800,1,00,1,05,1",,"01,9",,"120,M,+0305,1","180,N,+0213,1","99999,9,10085,1","5,1,005,1,+004,1",,,"SYN136AAXX  16001 76458 32570 32703 10280 20213 30085 40096 55005 82305 92350 333 0480/ 10305 20213 30/// 50270 57987 58004 70000 81828 81947;","Q01  00002PRCP99Q02  00003PRCP99"
"76458099999","2001-11-16T09:00:00","4","23.2","-106.4166666","4.0","COLONIA JUAN CARRASCO MAZATLAN SIN., MX","FM-12","99999","V020","999,9,C,0000,1","22000,1,9,N","008000,1,N,1","+0234,1","+0211,1","10121,1","99,0000,9,1",,,,,"04,1,+00300,9,02,9",,,"04,99,1,04,1,02,1,00250,1,00,1,00,1",,"01,9",,,,"99999,9,10110,1","7,1,004,1,+011,1",,,"SYN100AAXX  16091 76458 32358 40000 10234 20211 30110 40121 57004 84200 90852 333 0/900 30/// 58011 84810;","Q01  00002PRCP99"
"76458099999","2001-11-16T15:00:00","4","23.2","-106.4166666","4.0","COLONIA JUAN CARRASCO MAZATLAN SIN., MX","FM-12","99999","V020","999,9,C,0000,1","22000,1,9,N","012000,1,N,1","+0245,1","+0194,1","10143,1","99,0000,9,1",,,,,"01,1,+00600,9,08,9",,,"02,99,1,01,1,02,1,99999,9,00,1,02,1",,"01,9",,,,"99999,9,10131,1","1,1,009,1,+023,1",,,"SYN112AAXX  16151 76458 32962 20000 10245 20194 30131 40143 51009 81202 91455 333 0/5/0 30/// 57855 58023 81820 81070;","Q01  00002PRCP99"
"76458099999","2001-11-16T18:00:00","4","23.2","-106.4166666","4.0","COLONIA JUAN CARRASCO MAZATLAN SIN., MX","FM-12","99999","V020","260,1,N,0030,1","22000,1,9,N","015000,1,N,1","+0277,1","+0204,1","10141,1","99,0000,9,1",,,,,"01,1,+00900,9,08,9",,,"02,99,1,01,1,02,1,00800,1,00,1,02,1",,"01,9",,"120,M,+0293,1","240,N,+0223,1","99999,9,10130,1","1,1,001,1,+021,1",,,"SYN124AAXX  16181 76458 32565 22603 10277 20204 30130 40141 51001 81202 91755 333 0/4/0 10293 20223 30/// 57845 58021 81830 81070;","Q01  00002PRCP99"
"76458099999","2001-11-16T21:00:00","4","23.2","-106.4166666","4.0","COLONIA JUAN CARRASCO MAZATLAN SIN., MX","FM-12","99999","V020","290,1,N,0050,1","22000,1,9,N","020000,1,N,1","+0280,1","+0196,1","10117,1","99,0000,9,1",,,,,"01,1,+01050,9,08,9",,,"02,99,1,01,1,01,1,01250,1,00,1,01,1",,"01,9",,,,"99999,9,10106,1","7,1,024,1,+016,1",,,"SYN106AAXX  16211 76458 32670 22905 10280 20196 30106 40117 57024 81101 92050 333 30/// 568/9 58016 81835 81070;","Q01  00002PRCP99"
"76458099999","2001-11-17T00:00:00","4","23.2","-106.4166666","4.0","COLONIA JUAN CARRASCO MAZATLAN SIN., MX","FM-12","99999","V020","280,1,N,0030,1","22000,1,9,N","020000,1,N,1","+0274,1","+0184,1","10118,1","24,0000,9,1",,,,,"01,1,+01110,9,08,9",,,"02,99,1,01,1,02,1,01250,1,00,1,01,1",,"01,9",,"120,M,+0298,1","180,N,+0223,1","99999,9,10107,1","3,1,001,1,+022,1",,,"SYN130AAXX  17001 76458 32670 22803 10274 20184 30107 40118 53001 81201 92340 333 10298 20223 30/// 50361 568/9 58022 70000 81837 81070;","Q01  00002PRCP99Q02  00003PRCP99"
"76458099999","2001-11-17T03:00:00","4","23.2","-106.4166666","4.0","COLONIA JUAN CARRASCO MAZATLAN SIN., MX","FM-12","99999","V020","040,1,N,0010,1","22000,1,9,N","008000,1,N,1","+0252,1","+0197,1","10136,1","99,0000,9,1",,,,,"00,1,+99999,9,99,9",,,"00,99,1,00,1,00,1,99999,9,00,1,00,1",,"01,9",,,,"99999,9,10125,1","2,1,018,1,+020,1",,,"SYN082AAXX  17031 76458 32958 00401 10252 20197 30125 40136 52018 90245 333 30/// 58020;","Q01  00002PRCP99"
"76458099999","2001-11-17T12:00:00","4","23.2","-106.4166666","4.0","COLONIA JUAN CARRASCO MAZATLAN SIN., MX","FM-12","99999","V020","999,9,C,0000,1","22000,1,9,N","008000,1,N,1","+0211,1","+0183,1","10142,1","24,0000,9,1",,,,,"00,1,+99999,9,99,9",,,"00,99,1,00,1,00,1,99999,9,00,1,00,1",,"01,9","999,+0190,9","999,M,+0298,1","120,N,+0205,1","99999,9,10131,1","7,1,002,1,+018,1",,,"SYN100AAXX  17121 76458 32958 00000 10211 20183 30131 40142 57002 91130 333 10298 20205 30019 58018 70000;","Q01  00002PRCP24"
"76458099999","2001-11-17T15:00:00","4","23.2","-106.4166666","4.0","COLONIA JUAN CARRASCO MAZATLAN SIN., MX","FM-12","99999","V020","360,1,N,0010,1","22000,1,9,N","018000,1,N,1","+0233,1","+0186,1","10160,1","99,0000,9,1",,,,,"00,1,+99999,9,99,9",,,"00,99,1,00,1,00,1,99999,9,00,1,00,1",,"01,9",,,,"99999,9,10149,1","2,1,018,1,+018,1",,,"SYN082AAXX  17151 76458 32968 03601 10233 20186 30149 40160 52018 91458 333 30/// 58018;","Q01  00002PRCP99"
"76458099999","2001-11-17T18:00:00","4","23.2","-106.4166666","4.0","COLONIA JUAN CARRASCO MAZATLAN SIN., MX","FM-12","99999","V020","200,1,N,0030,1","22000,1,9,N","020000,1,N,1","+0273,1","+0187,1","10165,1","99,0000,9,1",,,,,"00,1,+99999,9,99,9",,,"00,99,1,00,1,00,1,99999,9,00,1,00,1",,"01,9",,"120,M,+0295,1","240,N,+0198,1","99999,9,10154,1","0,1,005,1,+999,9",,,"SYN093AAXX  17181 76458 32970 02003 10273 20187 30154 40165 50005 91745 333 10295 20198 30/// 5802;","Q01  00002PRCP99"
"76458099999","2001-11-18T00:00:00","4","23.2","-106.4166666","4.0","COLONIA JUAN CARRASCO MAZATLAN SIN., MX","FM-12","99999","V020","280,1,N,0050,1","22000,1,9,N","020000,1,N,1","+0282,1","+0213,1","10126,1","24,0000,9,1",,,,,,,,"01,99,1,01,1,08,1,00800,1,99,9,99,9",,"01,9",,"120,M,+0293,1","180,N,+0196,1","99999,9,10115,1","7,1,012,1,+008,1",,,"SYN130AAXX  18001 76458 32570 12805 10282 20213 30115 40126 57012 818// 92350 333 0/4// 10293 20196 30/// 50196 57843 58008 70000 81829;","Q01  00002PRCP99Q02  00003PRCP99"
"76458099999","2001-11-18T03:00:00","4","23.2","-106.4166666","4.0","COLONIA JUAN CARRASCO MAZATLAN SIN., MX","FM-12","99999","V020","340,1,N,0030,1","22000,1,9,N","008000,1,N,1","+0248,1","+0205,1","10139,1","99,0000,9,1",,,,,"00,1,+99999,9,99,9",,,"00,99,1,00,1,00,1,99999,9,00,1,00,1",,"01,9",,,,"99999,9,10128,1","2,1,013,1,+003,1",,,"SYN082AAXX  18031 76458 32958 03403 10248 20205 30128 40139 52013 90245 333 30/// 58003;","Q01  00002PRCP99"
"76458099999","2001-11-18T06:00:00","4","23.2","-106.4166666","4.0","COLONIA JUAN CARRASCO MAZATLAN SIN., MX","FM-12","99999","V020","340,1,N,0020,1","22000,1,9,N","008000,1,N,1","+0230,1","+0201,1","10153,1","99,0000,9,1",,,,,"00,1,+99999,9,99,9",,,"00,99,1,00,1,00,1,99999,9,00,1,00,1","0576,9","01,9",,"240,M,+0293,1","240,N,+0198,1","99999,9,10142,1","2,1,014,1,+005,1",,,"SYN100AAXX  18061 76458 32958 03402 10230 20201 30142 40153 52014 90535 333 10293 20198 30/// 55096 58005;","Q01  00002PRCP99"
"76458099999","2001-11-18T12:00:00","4","23.2","-106.4166666","4.0","COLONIA JUAN CARRASCO MAZATLAN SIN., MX","FM-12","99999","V020","340,1,N,0020,1","22000,1,9,N","008000,1,N,1","+0208,1","+0184,1","10151,1","24,0000,9,1",,,,,"00,1,+99999,9,99,9",,,"00,99,1,00,1,00,1,99999,9,00,1,00,1",,"01,9","999,+0180,9","999,M,+0293,1","120,N,+0200,1","99999,9,10140,1","4,1,000,1,+009,1",,,"SYN100AAXX  18121 76458 32958 03402 10208 20184 30140 40151 54001 91145 333 10293 20200 30018 58009 70000;","Q01  00002PRCP24"
"76458099999","2001-11-18T15:00:00","4","23.2","-106.4166666","4.0","COLONIA JUAN CARRASCO MAZATLAN SIN., MX","FM-12","99999","V020","040,1,N,0020,1","08700,1,9,N","018000,1,N,1","+0229,1","+0196,1","10160,1","99,0000,9,1",,,,,"07,1,+08700,9,01,9",,,"07,99,1,00,1,00,1,99999,9,00,1,04,1",,"01,9",,,,"99999,9,10149,1","2,1,009,1,+007,1",,,"SYN100AAXX  18151 76458 32968 70402 10229 20196 30149 40160 52009 80004 91450 333 0/00/ 30/// 58007 87079;","Q01  00002PRCP99"
"76458099999","2001-11-18T18:00:00","4","23.2","-106.4166666","4.0","COLONIA JUAN CARRASCO MAZATLAN SIN., MX","FM-12","99999","V020","090,1,N,0020,1","05400,1,9,N","015000,1,N,1","+0278,1","+0194,1","10163,1","99,0000,9,1",,,,,"06,1,+05400,9,08,9",,,"06,99,1,99,9,00,1,99999,9,00,1,07,1",,"01,9",,"120,M,+0294,1","240,N,+0195,1","99999,9,10152,1","0,1,003,1,-002,1",,,"SYN112AAXX  18181 76458 32965 60902 10278 20194 30152 40163 50003 80007 91740 333 10294 20195 30/// 56//9 59002 86268;","Q01+000002SCOTLCQ02  00002PRCP99"
"76458099999","2001-11-18T21:00:00","4","23.2","-106.4166666","4.0","COLONIA JUAN CARRASCO MAZATLAN SIN., MX","FM-12","99999","V020","280,1,N,0030,1","06000,1,9,N","016000,1,N,1","+0279,1","+0216,1","10140,1","99,0000,9,1",,,,,"07,1,+06000,9,08,9",,,"07,99,1,99,9,00,1,00800,1,00,1,08,1",,"01,9",,,,"99999,9,10128,1","7,1,024,1,+001,1",,,"SYN094AAXX  18211 76458 32566 72803 10279 20216 30128 40140 57024 80008 92050 333 30/// 58001 87270;","Q01+000002SCOTLCQ02  00002PRCP99"
"76458099999","2001-11-19T03:00:00","4","23.2","-106.4166666","4.0","COLONIA JUAN CARRASCO MAZATLAN SIN., MX","FM-12","99999","V020","330,1,N,0040,1","22000,1,9,N","008000,1,N,1","+0254,1","+0211,1","10147,1","99,0000,9,1",,,,,"03,1,+06000,9,01,9",,,"03,99,1,00,1,99,9,99999,9,99,9,02,1",,"01,9",,,,"99999,9,10136,1","2,1,020,1,+008,1",,,"SYN094AAXX  19031 76458 32958 33304 10254 20211 30136 40147 52020 80//2 90245 333 30/// 58008 83070;","Q01  00002PRCP99"
"76458099999","2001-11-19T06:00:00","4","23.2","-106.4166666","4.0","COLONIA JUAN CARRASCO MAZATLAN SIN., MX","FM-12","99999","V020","350,1,N,0020,1","22000,1,9,N","008000,1,N,1","+0228,1","+0196,1","10153,1","99,0000,9,1",,,,,"00,1,+99999,9,99,9",,,"00,99,1,00,1,00,1,99999,9,00,1,00,1","0318,9","01,9",,"240,M,+0310,1","240,N,+0195,1","99999,9,10142,1","2,1,006,1,+000,1",,,"SYN100AAXX  19061 76458 32958 03502 10228 20196 30142 40153 52006 90535 333 10310 20195 30/// 55053 58000;","Q01  00002PRCP99"
"76458099999","2001-11-19T12:00:00","4","23.2","-106.4166666","4.0","COLONIA JUAN CARRASCO MAZATLAN SIN., MX","FM-12","99999","V020","999,9,C,0000,1","22000,1,9,N","008000,1,N,1","+0208,1","+0181,1","10139,1","24,0000,9,1",,,,,"00,1,+99999,9,99,9",,,"00,99,1,00,1,00,1,99999,9,00,1,00,1",,"01,9","999,+0180,9","999,M,+0310,1","120,N,+0198,1","99999,9,10128,1","7,1,007,1,-012,1",,,"SYN100AAXX  19121 76458 32958 00000 10208 20181 30128 40139 57007 91130 333 10310 20198 30018 59012 70000;","Q01  00002PRCP24"
"76458099999","2001-11-19T15:00:00","4","23.2","-106.4166666","4.0","COLONIA JUAN CARRASCO MAZATLAN SIN., MX","FM-12","99999","V020","360,1,N,0020,1","22000,1,9,N","018000,1,N,1","+0227,1","+0188,1","10156,1","99,0000,9,1",,,,,"01,1,+02700,9,03,9",,,"02,99,1,01,1,00,1,99999,9,03,1,05,1",,"01,9",,,,"99999,9,10145,1","2,1,017,1,-004,1",,,"SYN106AAXX  19151 76458 32968 23602 10227 20188 30145 40156 52017 81035 91450 333 0/0// 30/// 59004 81359 81079;","Q01  00002PRCP99"
"76458099999","2001-11-19T18:00:00","4","23.2","-106.4166666","4.0","COLONIA JUAN CARRASCO MAZATLAN SIN., MX","FM-12","99999","V020","270,1,N,0030,1","22000,1,9,N","004000,1,N,1","+0282,1","+0213,1","10155,1","99,0000,9,1",,,"4,1,06,1","0,1,06,1","00,1,+99999,9,99,9",,,"00,99,1,00,1,00,1,99999,9,00,1,00,1",,"01,9",,"120,M,+0302,1","240,N,+0189,1","99999,9,10144,1","0,1,001,1,-008,1",,"05,1","SYN100AAXX  19181 76458 31940 02703 10282 20213 30144 40155 50001 70540 91750 333 10302 20189 30/// 59008;","Q01  00002PRCP99"
"76458099999","2001-11-19T21:00:00","4","23.2","-106.4166666","4.0","COLONIA JUAN CARRASCO MAZATLAN SIN., MX","FM-12","99999","V020","270,1,N,0060,1","22000,1,9,N","016000,1,N,1","+0278,1","+0210,1","10132,1","99,0000,9,1",,,,,"05,1,+06000,9,01,9",,,"99,99,9,00,1,00,1,99999,9,00,1,05,1",,"01,9",,,,"99999,9,10121,1","7,1,023,1,-007,1",,,"SYN094AAXX  19211 76458 32566 32706 10278 20210 30121 40132 57023 80005 92050 333 30/// 59007 85070;","Q01+000032SCOTCVQ02+008002SCOLCBQ03  00002PRCP99"
"76458099999","2001-11-20T00:00:00","4","23.2","-106.4166666","4.0","COLONIA JUAN CARRASCO MAZATLAN SIN., MX","FM-12","99999","V020","280,1,N,0050,1","03600,1,9,N","018000,1,N,1","+0282,1","+0212,1","10126,1","24,0000,9,1",,,,,"01,1,+00840,9,08,9",,,"06,99,1,01,1,08,1,00800,1,03,1,05,1",,"01,9",,"120,M,+0310,1","180,N,+0186,1","99999,9,10115,1","7,1,006,1,-001,1",,,"SYN136AAXX  20001 76458 32568 62805 10282 20212 30115 40126 57006 81835 92350 333 0/3// 10310 20186 30/// 50318 57834 59001 70000 81828 82358;","Q01  00002PRCP99Q02  00003PRCP99"
"76458099999","2001-11-20T03:00:00","4","23.2","-106.4166666","4.0","COLONIA JUAN CARRASCO MAZATLAN SIN., MX","FM-12","99999","V020","320,1,N,0030,1","22000,1,9,N","008000,1,N,1","+0250,1","+0210,1","10139,1","99,0000,9,1",,,,,"02,1,+06000,9,01,9",,,"02,99,1,00,1,99,9,99999,9,99,9,01,1",,"01,9",,,,"99999,9,10127,1","2,1,013,1,-008,1",,,"SYN094AAXX  20031 76458 32958 23203 10250 20210 30127 40139 52013 80//1 90245 333 30/// 59008 82070;","Q01  00002PRCP99"
"76458099999","2001-11-20T06:00:00","4","23.2","-106.4166666","4.0","COLONIA JUAN CARRASCO MAZATLAN SIN., MX","FM-12","99999","V020","340,1,N,0030,1","06000,1,9,N","008000,1,N,1","+0232,1","+0201,1","10138,1","99,0000,9,1",,,,,"06,1,+06000,9,08,9",,,"06,99,1,99,9,99,9,99999,9,99,9,08,1","0570,9","01,9",,"240,M,+0301,1","240,N,+0189,1","99999,9,10126,1","0,1,002,1,-016,1",,,"SYN112AAXX  20061 76458 32958 63403 10232 20201 30126 40138 50002 80//8 90535 333 10301 20189 30/// 55095 59016 86270;","Q01+000002SCOTLCQ02  00002PRCP99"
"76458099999","2001-11-20T12:00:00","4","23.2","-106.4166666","4.0","COLONIA JUAN CARRASCO MAZATLAN SIN., MX","FM-12","99999","V020","999,9,C,0000,1","22000,1,9,N","008000,1,N,1","+0220,1","+0187,1","10121,1","24,0000,9,1",,,,,"00,1,+99999,9,99,9",,,"00,99,1,00,1,00,1,99999,9,00,1,00,1",,"01,9","999,+0200,9","999,M,+0301,1","120,N,+0214,1","99999,9,10110,1","7,1,006,1,-017,1",,,"SYN100AAXX  20121 76458 32958 00000 10220 20187 30110 40121 57006 91130 333 10301 20214 30020 59017 70000;","Q01  00002PRCP24"
"76458099999","2001-11-20T18:00:00","4","23.2","-106.4166666","4.0","COLONIA JUAN CARRASCO MAZATLAN SIN., MX","FM-12","99999","V020","180,1,N,0020,1","22000,1,9,N","010000,1,N,1","+0268,1","+0202,1","10140,1","99,0000,9,1",,,"4,1,06,1","4,1,06,1","04,1,+02700,9,07,9",,,"04,99,1,04,1,00,1,99999,9,03,1,00,1",,"01,9",,"120,M,+0280,1","240,N,+0203,1","99999,9,10129,1","7,1,001,1,-015,1",,"05,1","SYN118AAXX  20181 76458 31960 41802 10268 20202 30129 40140 57001 70544 84030 91740 333 0/050 10280 20203 30/// 59015 84359;","Q01  00002PRCP99"
"76458099999","2001-11-20T21:00:00","4","23.2","-106.4166666","4.0","COLONIA JUAN CARRASCO MAZATLAN SIN., MX","FM-12","99999","V020","250,1,N,0050,1","02400,1,9,N","016000,1,N,1","+0274,1","+0209,1","10112,1","99,0000,9,1",,,,,"05,1,+02400,9,07,9",,,"05,99,1,99,9,03,1,00800,1,99,9,99,9",,"01,9",,,,"99999,9,10101,1","7,1,028,1,-020,1",,,"SYN094AAXX  20211 76458 32566 52505 10274 20209 30101 40112 57028 803// 92050 333 30/// 59020 85358;","Q01+000002SCOTLCQ02  00002PRCP99"
"76458099999","2001-11-21T00:00:00","4","23.2","-106.4166666","4.0","COLONIA JUAN CARRASCO MAZATLAN SIN., MX","FM-12","99999","V020","280,1,N,0060,1","03600,1,C,N","016000,1,N,1","+0280,1","+0270,1","10104,1","24,0000,9,1",,,,,"01,1,+00900,9,08,9",,,"05,99,1,01,1,08,1,00800,1,03,1,99,9",,"01,9",,"120,M,+0296,1","180,N,+0203,1","99999,9,10093,1","7,1,008,1,-022,1",,,"SYN136AAXX  21001 76458 32566 52806 10280 20270 30093 40104 57008 8183/ 92350 333 0/3// 10296 20203 30/// 50166 57834 59022 70000 81830 84358;","Q01  00002PRCP99Q02  00003PRCP99"
"76458099999","2001-11-21T03:00:00","4","23.2","-106.4166666","4.0","COLONIA JUAN CARRASCO MAZATLAN SIN., MX","FM-12","99999","V020","360,1,N,0020,1","22000,1,9,N","010000,1,N,1","+0244,1","+0207,1","10112,1","99,0000,9,1",,,,,"00,1,+99999,9,99,9",,,"00,99,1,00,1,00,1,99999,9,00,1,00,1",,"01,9",,,,"99999,9,10101,1","2,1,008,1,-027,1",,,"SYN082AAXX  21031 76458 32960 03602 10244 20207 30101 40112 52008 90245 333 30/// 59027;","Q01  00002PRCP99"
"76458099999","2001-11-21T06:00:00","4","23.2","-106.4166666","4.0","COLONIA JUAN CARRASCO MAZATLAN SIN., MX","FM-12","99999","V020","360,1,N,0020,1","22000,1,9,N","010000,1,N,1","+0225,1","+0196,1","10118,1","99,0000,9,1",,,,,"00,1,+99999,9,99,9",,,"00,99,1,00,1,00,1,99999,9,00,1,00,1","0420,9","01,9",,"240,M,+0296,1","240,N,+0203,1","99999,9,10107,1","0,1,006,1,-019,1",,,"SYN100AAXX  21061 76458 32960 03602 10225 20196 30107 40118 50006 90540 333 10296 20203 30/// 55070 59019;","Q01  00002PRCP99"
"76458099999","2001-11-21T15:00:00","4","23.2","-106.4166666","4.0","COLONIA JUAN CARRASCO MAZATLAN SIN., MX","FM-12","99999","V020","999,9,C,0000,1","22000,1,9,N","010000,1,N,1","+0218,1","+0188,1","10125,1","99,0000,9,1",,,"4,1,03,1","4,1,03,1","00,1,+99999,9,99,9",,,"00,99,1,00,1,00,1,99999,9,00,1,00,1",,"01,9",,,,"99999,9,10113,1","7,1,999,9,+017,1",,"05,1","SYN088AAXX  21151 76458 31960 00000 10218 20188 30113 40125 57/// 70544 91440 333 30/// 58017;","Q01  00002PRCP99"
"76458099999","2001-11-21T18:00:00","4","23.2","-106.4166666","4.0","COLONIA JUAN CARRASCO MAZATLAN SIN., MX","FM-12","99999","V020","270,1,N,0030,1","22000,1,9,N","016000,1,N,1","+0268,1","+0209,1","10134,1","99,0000,9,1",,,"4,1,06,1","4,1,06,1","01,1,+00750,9,02,9",,,"01,99,1,01,1,01,1,00800,1,00,1,00,1",,"01,9",,"120,M,+0286,1","240,N,+0185,1","99999,9,10122,1","0,1,009,1,-004,1",,"05,1","SYN118AAXX  21181 76458 31566 12703 10268 20209 30122 40134 50009 70544 81100 91740 333 01300 10286 20185 30/// 59004 81825;","Q01  00002PRCP99"
"76458099999","2001-11-21T21:00:00","4","23.2","-106.4166666","4.0","COLONIA JUAN CARRASCO MAZATLAN SIN., MX","FM-12","99999","V020","270,1,N,0030,1","22000,1,9,N","020000,1,N,1","+0281,1","+0207,1","10106,1","99,0000,9,1",,,,,"01,1,+00930,9,02,9",,,"01,99,1,01,1,02,1,00800,1,00,1,00,1",,"01,9",,,,"99999,9,10094,1","7,1,018,1,-007,1",,,"SYN100AAXX  21211 76458 32570 12703 10281 20207 30094 40106 57018 81200 92050 333 30/// 561// 59007 81831;","Q01  00002PRCP99"
"76458099999","2001-11-22T03:00:00","4","23.2","-106.4166666","4.0","COLONIA JUAN CARRASCO MAZATLAN SIN., MX","FM-12","99999","V020","999,9,C,0000,1","22000,1,9,N","008000,1,N,1","+0244,1","+0213,1","10123,1","99,0000,9,1",,,,,"00,1,+99999,9,99,9",,,"00,99,1,00,1,00,1,99999,9,00,1,00,1",,"01,9",,,,"99999,9,10112,1","2,1,015,1,+011,1",,,"SYN082AAXX  22031 76458 32958 00000 10244 20213 30112 40123 52015 90245 333 30/// 58011;","Q01  00002PRCP99"
"76458099999","2001-11-22T06:00:00","4","23.2","-106.4166666","4.0","COLONIA JUAN CARRASCO MAZATLAN SIN., MX","FM-12","99999","V020","999,9,C,0000,1","22000,1,9,N","008000,1,N,1","+0226,1","+0203,1","10134,1","99,0000,9,1",,,,,"00,1,+99999,9,99,9",,,"00,99,1,00,1,00,1,99999,9,00,1,00,1","0552,9","01,9",,"240,M,+0291,1","240,N,+0185,1","99999,9,10122,1","2,1,010,1,+015,1",,,"SYN100AAXX  22061 76458 32958 00000 10226 20203 30122 40134 52010 90535 333 10291 20185 30/// 55092 58015;","Q01  00002PRCP99"
"76458099999","2001-11-22T12:00:00","4","23.2","-106.4166666","4.0","COLONIA JUAN CARRASCO MAZATLAN SIN., MX","FM-12","99999","V020","999,9,C,0000,1","22000,1,9,N","008000,1,N,1","+0204,1","+0189,1","10123,1","99,0000,9,1",,,,,"00,1,+99999,9,99,9",,,"00,99,1,00,1,00,1,99999,9,00,1,00,1",,"01,9","999,+0190,9","999,M,+0291,1","120,N,+0204,1","99999,9,10112,1","7,1,007,1,+006,1",,,"SYN094AAXX  22121 76458 32958 00000 10204 20189 30112 40123 57007 91138 333 10291 20204 30019 58006;","Q01  00002PRCP99"
"76458099999","2001-11-22T15:00:00","4","23.2","-106.4166666","4.0","COLONIA JUAN CARRASCO MAZATLAN SIN., MX","FM-12","99999","V020","999,9,C,0000,1","22000,1,9,N","016000,1,N,1","+0226,1","+0194,1","10140,1","99,0000,9,1",,,"4,1,03,1","4,1,03,1","01,1,+00420,9,02,9",,,"01,99,1,01,1,02,1,00450,1,00,1,00,1",,"01,9",,,,"99999,9,10120,1","2,1,017,1,+016,1",,"05,1","SYN112AAXX  22151 76458 31466 10000 10226 20194 30120 40140 52017 70544 81200 91450 333 02500 30/// 57859 58016 81814;","Q01  00002PRCP99"
"76458099999","2001-11-22T18:00:00","4","23.2","-106.4166666","4.0","COLONIA JUAN CARRASCO MAZATLAN SIN., MX","FM-12","99999","V020","270,1,N,0040,1","22000,1,9,N","020000,1,N,1","+0277,1","+0193,1","10139,1","99,0000,9,1",,,,,"01,1,+01050,9,02,9",,,"01,99,1,01,1,01,1,01250,1,00,1,00,1",,"01,9",,"120,M,+0292,1","240,N,+0191,1","99999,9,10128,1","0,1,001,1,+005,1",,,"SYN112AAXX  22181 76458 32670 12704 10277 20193 30128 40139 50001 81100 91745 333 01100 10292 20191 30/// 58005 81835;","Q01  00002PRCP99"
"76458099999","2001-11-22T21:00:00","4","23.2","-106.4166666","4.0","COLONIA JUAN CARRASCO MAZATLAN SIN., MX","FM-12","99999","V020","260,1,N,0040,1","22000,1,9,N","020000,1,N,1","+0276,1","+0192,1","10106,1","99,0000,9,1",,,,,"01,1,+01050,9,08,9",,,"02,99,1,01,1,08,1,01250,1,00,1,05,1",,"01,9",,,,"99999,9,10094,1","7,1,034,1,+000,1",,,"SYN112AAXX  22211 76458 32670 22604 10276 20192 30094 40106 57034 81805 92050 333 0/1// 30/// 57814 58000 81835 81070;","Q01  00002PRCP99"
"76458099999","2001-11-23T00:00:00","4","23.2","-106.4166666","4.0","COLONIA JUAN CARRASCO MAZATLAN SIN., MX","FM-12","99999","V020","270,1,N,0040,1","22000,1,9,N","020000,1,N,1","+0267,1","+0180,1","10102,1","24,0000,9,1",,,,,,,,"01,99,1,01,1,02,1,01250,1,00,1,00,1",,"01,9",,"120,M,+0295,1","180,N,+0191,1","99999,9,10091,1","5,1,003,1,-002,1",,,"SYN124AAXX  23001 76458 32670 12704 10267 20180 30091 40102 55003 81200 92345 333 10295 20191 30/// 50331 568// 59002 70000 81836;","Q01  00002PRCP99Q02  00003PRCP99"
"76458099999","2001-11-23T03:00:00","4","23.2","-106.4166666","4.0","COLONIA JUAN CARRASCO MAZATLAN SIN., MX","FM-12","99999","V020","350,1,N,0020,1","22000,1,9,N","008000,1,N,1","+0244,1","+0201,1","10123,1","99,0000,9,1",,,,,"00,1,+99999,9,99,9",,,"00,99,1,00,1,00,1,99999,9,00,1,00,1",,"01,9",,,,"99999,9,10112,1","1,1,021,1,+000,1",,,"SYN082AAXX  23031 76458 32958 03502 10244 20201 30112 40123 51021 90245 333 30/// 58000;","Q01  00002PRCP99"
"76458099999","2001-11-23T06:00:00","4","23.2","-106.4166666","4.0","COLONIA JUAN CARRASCO MAZATLAN SIN., MX","FM-12","99999","V020","999,9,C,0000,1","22000,1,9,N","008000,1,N,1","+0220,1","+0197,1","10130,1","99,0000,9,1",,,,,"00,1,+99999,9,99,9",,,"00,99,1,00,1,00,1,99999,9,00,1,00,1","0552,9","01,9",,"240,M,+0295,1","240,N,+0191,1","99999,9,10118,1","1,1,007,1,-004,1",,,"SYN100AAXX  23061 76458 32958 00000 10220 20197 30118 40130 51007 90535 333 10295 20191 30/// 55092 59004;","Q01  00002PRCP99"
"76458099999","2001-11-23T09:00:00","4","23.2","-106.4166666","4.0","COLONIA JUAN CARRASCO MAZATLAN SIN., MX","FM-12","99999","V020","999,9,C,0000,1","22000,1,9,N","008000,1,N,1","+0216,1","+0193,1","10122,1","99,0000,9,1",,,,,"00,1,+99999,9,99,9",,,"00,99,1,00,1,00,1,99999,9,00,1,00,1",,"01,9",,,,"99999,9,10111,1","7,1,007,1,-007,1",,,"SYN082AAXX  23091 76458 32958 00000 10216 20193 30111 40122 57007 90844 333 30/// 59007;","Q01  00002PRCP99"
"76458099999","2001-11-23T12:00:00","4","23.2","-106.4166666","4.0","COLONIA JUAN CARRASCO MAZATLAN SIN., MX","FM-12","99999","V020","999,9,C,0000,1","22000,1,9,N","008000,1,N,1","+0203,1","+0173,1","10123,1","99,0000,9,1",,,,,"00,1,+99999,9,99,9",,,"00,99,1,00,1,00,1,99999,9,00,1,00,1",,"01,9","999,+0180,9","999,M,+0295,1","120,N,+0195,1","99999,9,10112,1","2,1,001,1,+001,1",,,"SYN094AAXX  23121 76458 32958 00000 10203 20173 30112 40123 52001 91130 333 10295 20195 30018 58001;","Q01  00002PRCP99"
"76458099999","2001-11-23T15:00:00","4","23.2","-106.4166666","4.0","COLONIA JUAN CARRASCO MAZATLAN SIN., MX","FM-12","99999","V020","999,9,C,0000,1","22000,1,9,N","015000,1,N,1","+0228,1","+0182,1","10120,1","99,0000,9,1",,,,,"01,1,+06000,9,01,9",,,"01,99,1,00,1,00,1,99999,9,00,1,06,1",,"01,9",,,,"99999,9,10109,1","5,1,003,1,-002,1",,,"SYN100AAXX  23151 76458 32965 10000 10228 20182 30109 40120 55003 80006 91455 333 30/// 56//9 59002 81070;","Q01  00002PRCP99"
"76458099999","2001-11-23T18:00:00","4","23.2","-106.4166666","4.0","COLONIA JUAN CARRASCO MAZATLAN SIN., MX","FM-12","99999","V020","250,1,N,0030,1","22000,1,9,N","018000,1,N,1","+0278,1","+0189,1","10134,1","99,0000,9,1",,,,,"01,1,+00840,9,08,9",,,"03,99,1,01,1,02,1,00800,1,00,1,06,1",,"01,9",,"120,M,+0290,1","240,N,+0189,1","99999,9,10123,1","2,1,014,1,-005,1",,,"SYN124AAXX  23181 76458 32568 32503 10278 20189 30123 40134 52014 81206 91750 333 0/4/0 10290 20189 30/// 57845 59005 81828 82070;","Q01  00002PRCP99"
"76458099999","2001-11-23T21:00:00","4","23.2","-106.4166666","4.0","COLONIA JUAN CARRASCO MAZATLAN SIN., MX","FM-12","99999","V020","190,1,N,0040,1","22000,1,9,N","020000,1,N,1","+0279,1","+0170,1","10104,1","99,0000,9,1",,,,,"01,1,+01320,9,08,9",,,"03,99,1,01,1,08,1,01250,1,00,1,05,1",,"01,9",,,,"99999,9,10093,1","7,1,030,1,-001,1",,,"SYN112AAXX  23211 76458 32670 31904 10279 20170 30093 40104 57030 81805 92055 333 0/4// 30/// 57842 59001 81844 82070;","Q01  00002PRCP99"
"76458099999","2001-11-24T00:00:00","4","23.2","-106.4166666","4.0","COLONIA JUAN CARRASCO MAZATLAN SIN., MX","FM-12","99999","V020","280,1,N,0050,1","22000,1,9,N","020000,1,N,1","+0274,1","+0184,1","10088,1","24,0000,9,1",,,,,"02,1,+06000,9,01,9",,,"02,99,1,00,1,00,1,99999,9,00,1,05,1",,"01,9",,"120,M,+0297,1","180,N,+0189,1","99999,9,10077,1","7,1,016,1,-014,1",,,"SYN118AAXX  24001 76458 32670 22805 10274 20184 30077 40088 57016 80005 92340 333 10297 20189 30/// 50269 59014 70000 82070;","Q01+012502SCOLCB"
"76458099999","2001-11-24T03:00:00","4","23.2","-106.4166666","4.0","COLONIA JUAN CARRASCO MAZATLAN SIN., MX","FM-12","99999","V020","280,1,N,0020,1","22000,1,9,N","008000,1,N,1","+0254,1","+0193,1","10112,1","99,0000,9,1",,,,,"01,1,+00750,9,02,9",,,"01,99,1,01,1,01,1,00800,1,99,9,99,9",,"01,9",,,,"99999,9,10101,1","2,1,024,1,-011,1",,,"SYN100AAXX  24031 76458 32558 12802 10254 20193 30101 40112 52024 811// 90245 333 30/// 566// 59011 81825;","Q01  00002PRCP99"
"76458099999","2001-11-24T12:00:00","4","23.2","-106.4166666","4.0","COLONIA JUAN CARRASCO MAZATLAN SIN., MX","FM-12","99999","V020","999,9,C,0000,1","22000,1,9,N","008000,1,N,1","+0212,1","+0179,1","10103,1","99,0000,9,1",,,,,"00,1,+99999,9,99,9",,,"00,99,1,00,1,00,1,99999,9,00,1,00,1",,"01,9","999,+0190,9","999,M,+0297,1","120,N,+0204,1","99999,9,10092,1","7,1,005,1,-020,1",,,"SYN094AAXX  24121 76458 32958 00000 10212 20179 30092 40103 57005 91135 333 10297 20204 30019 59020;","Q01  00002PRCP99"
"76458099999","2001-11-24T15:00:00","4","23.2","-106.4166666","4.0","COLONIA JUAN CARRASCO MAZATLAN SIN., MX","FM-12","99999","V020","040,1,N,0020,1","22000,1,9,N","020000,1,N,1","+0227,1","+0174,1","10119,1","99,0000,9,1",,,,,"01,1,+00660,9,02,9",,,"01,99,1,01,1,02,1,00800,1,00,1,00,1",,"01,9",,,,"99999,9,10108,1","2,1,016,1,-001,1",,,"SYN100AAXX  24151 76458 32570 10402 10227 20174 30108 40119 52016 81200 91450 333 30/// 566// 59001 81822;","Q01  00002PRCP99"
"76458099999","2001-11-24T18:00:00","4","23.2","-106.4166666","4.0","COLONIA JUAN CARRASCO MAZATLAN SIN., MX","FM-12","99999","V020","250,1,N,0020,1","22000,1,9,N","020000,1,N,1","+0278,1","+0178,1","10129,1","99,0000,9,1",,,,,"01,1,+01260,9,02,9",,,"01,99,1,01,1,01,1,01250,1,00,1,00,1",,"01,9",,"120,M,+0290,1","240,N,+0195,1","99999,9,10117,1","0,1,001,1,-006,1",,,"SYN112AAXX  24181 76458 32670 12502 10278 20178 30117 40129 50001 81100 91745 333 10290 20195 30/// 566// 59006 81842;","Q01  00002PRCP99"
"76458099999","2001-11-24T21:00:00","4","23.2","-106.4166666","4.0","COLONIA JUAN CARRASCO MAZATLAN SIN., MX","FM-12","99999","V020","260,1,N,0040,1","22000,1,9,N","020000,1,N,1","+0278,1","+0183,1","10109,1","99,0000,9,1",,,,,"01,1,+01170,9,02,9",,,"01,99,1,01,1,08,1,01250,1,99,9,99,9",,"01,9",,,,"99999,9,10098,1","7,1,019,1,+005,1",,,"SYN106AAXX  24211 76458 32670 12604 10278 20183 30098 40109 57019 818// 92050 333 0/2// 30/// 57822 58005 81839;","Q01  00002PRCP99"
"76458099999","2001-11-25T00:00:00","4","23.2","-106.4166666","4.0","COLONIA JUAN CARRASCO MAZATLAN SIN., MX","FM-12","99999","V020","190,1,N,0050,1","22000,1,9,N","020000,1,N,1","+0268,1","+0199,1","10102,1","24,0000,9,1",,,,,,,,"01,99,1,01,1,08,1,00800,1,99,9,99,9",,"01,9",,"120,M,+0300,1","180,N,+0195,1","99999,9,10091,1","7,1,007,1,+014,1",,,"SYN130AAXX  25001 76458 32570 11905 10268 20199 30091 40102 57007 818// 92340 333 0/2// 10300 20195 30/// 50295 57823 58014 70000 81829;","Q01  00002PRCP99Q02  00003PRCP99"
"76458099999","2001-11-25T03:00:00","4","23.2","-106.4166666","4.0","COLONIA JUAN CARRASCO MAZATLAN SIN., MX","FM-12","99999","V020","320,1,N,0030,1","22000,1,9,N","008000,1,N,1","+0252,1","+0204,1","10119,1","99,0000,9,1",,,,,"00,1,+99999,9,99,9",,,"00,99,1,00,1,00,1,99999,9,00,1,00,1",,"01,9",,,,"99999,9,10108,1","2,1,018,1,+007,1",,,"SYN082AAXX  25031 76458 32958 03203 10252 20204 30108 40119 52018 90245 333 30/// 58007;","Q01  00002PRCP99"
"76458099999","2001-11-25T06:00:00","4","23.2","-106.4166666","4.0","COLONIA JUAN CARRASCO MAZATLAN SIN., MX","FM-12","99999","V020","360,1,N,0010,1","22000,1,9,N","008000,1,N,1","+0222,1","+0196,1","10124,1","99,0000,9,1",,,,,"00,1,+99999,9,99,9",,,"00,99,1,00,1,00,1,99999,9,00,1,00,1","0558,9","01,9",,"240,M,+0300,1","240,N,+0195,1","99999,9,10113,1","1,1,005,1,+011,1",,,"SYN100AAXX  25061 76458 32958 03601 10222 20196 30113 40124 51005 90535 333 10300 20195 30/// 55093 58011;","Q01  00002PRCP99"
"76458099999","2001-11-25T12:00:00","4","23.2","-106.4166666","4.0","COLONIA JUAN CARRASCO MAZATLAN SIN., MX","FM-12","99999","V020","999,9,C,0000,1","22000,1,9,N","008000,1,N,1","+0203,1","+0191,1","10110,1","24,0000,9,1",,,,,"00,1,+99999,9,99,9",,,"00,99,1,00,1,00,1,99999,9,00,1,00,1",,"01,9","999,+0170,9","999,M,+0300,1","120,N,+0193,1","99999,9,10099,1","1,1,002,1,+006,1",,,"SYN100AAXX  25121 76458 32958 00000 10203 20191 30099 40110 51002 91140 333 10300 20193 30017 58006 70000;","Q01  00002PRCP24"
"76458099999","2001-11-25T15:00:00","4","23.2","-106.4166666","4.0","COLONIA JUAN CARRASCO MAZATLAN SIN., MX","FM-12","99999","V020","340,1,N,0020,1","22000,1,9,N","014000,1,N,1","+0212,1","+0180,1","10127,1","99,0000,9,1",,,"4,1,03,1","4,1,03,1","00,1,+99999,9,99,9",,,"00,99,1,00,1,00,1,99999,9,00,1,00,1",,"01,9",,,,"99999,9,10116,1","2,1,017,1,+008,1",,"05,1","SYN088AAXX  25151 76458 31964 03402 10212 20180 30116 40127 52017 70544 91450 333 30/// 58008;","Q01  00002PRCP99"
"76458099999","2001-11-25T18:00:00","4","23.2","-106.4166666","4.0","COLONIA JUAN CARRASCO MAZATLAN SIN., MX","FM-12","99999","V020","240,1,N,0030,1","22000,1,9,N","018000,1,N,1","+0259,1","+0188,1","10133,1","99,0000,9,1",,,,,"00,1,+99999,9,99,9",,,"00,99,1,00,1,00,1,99999,9,00,1,00,1",,"01,9",,"120,M,+0280,1","240,N,+0180,1","99999,9,10123,1","0,1,007,1,+007,1",,,"SYN094AAXX  25181 76458 32968 02403 10259 20188 30123 40133 50007 91740 333 10280 20180 30/// 58007;","Q01  00002PRCP99"
"76458099999","2001-11-25T21:00:00","4","23.2","-106.4166666","4.0","COLONIA JUAN CARRASCO MAZATLAN SIN., MX","FM-12","99999","V020","999,9,C,0000,1","22000,1,9,N","020000,1,N,1","+0276,1","+0189,1","10114,1","99,0000,9,1",,,,,"00,1,+99999,9,99,9",,,"00,99,1,00,1,00,1,99999,9,00,1,00,1",,"01,9",,,,"99999,9,10103,1","7,1,020,1,+005,1",,,"SYN082AAXX  25211 76458 32070 00000 10276 20189 30103 40114 57020 92050 333 30/// 58005;","Q01  00002PRCP99"
"76458099999","2001-11-26T00:00:00","4","23.2","-106.4166666","4.0","COLONIA JUAN CARRASCO MAZATLAN SIN., MX","FM-12","99999","V020","999,9,C,0000,1","22000,1,9,N","020000,1,N,1","+0272,1","+0191,1","10109,1","24,0000,9,1",,,,,"00,1,+99999,9,99,9",,,"00,99,1,00,1,00,1,99999,9,00,1,00,1",,"01,9",,"120,M,+0294,1","180,N,+0180,1","99999,9,10098,1","5,1,005,1,+007,1",,,"SYN106AAXX  26001 76458 32070 00000 10272 20191 30098 40109 55005 92350 333 10294 20180 30/// 50370 58007 70000;","Q01  00002PRCP24"
"76458099999","2001-11-26T03:00:00","4","23.2","-106.4166666","4.0","COLONIA JUAN CARRASCO MAZATLAN SIN., MX","FM-12","99999","V020","320,1,N,0030,1","22000,1,9,N","008000,1,N,1","+0246,1","+0197,1","10122,1","99,0000,9,1",,,,,"00,1,+99999,9,99,9",,,"00,99,1,00,1,00,1,99999,9,00,1,00,1",,"01,9",,,,"99999,9,10110,1","3,1,012,1,+002,1",,,"SYN082AAXX  26031 76458 32958 03203 10246 20197 30110 40122 53012 90245 333 30/// 58002;","Q01  00002PRCP99"
"76458099999","2001-11-26T06:00:00","4","23.2","-106.4166666","4.0","COLONIA JUAN CARRASCO MAZATLAN SIN., MX","FM-12","99999","V020","350,1,N,0020,1","22000,1,9,N","008000,1,N,1","+0226,1","+0193,1","10131,1","99,0000,9,1",,,,,"00,1,+99999,9,99,9",,,"00,99,1,00,1,00,1,99999,9,00,1,00,1","0552,9","01,9",,"240,M,+0294,1","240,N,+0180,1","99999,9,10120,1","2,1,010,1,+007,1",,,"SYN100AAXX  26061 76458 32958 03502 10226 20193 30120 40131 52010 90535 333 10294 20180 30/// 55092 58007;","Q01  00002PRCP99"
"76458099999","2001-11-26T15:00:00","4","23.2","-106.4166666","4.0","COLONIA JUAN CARRASCO MAZATLAN SIN., MX","FM-12","99999","V020","999,9,C,0000,1","22000,1,9,N","014000,1,N,1","+0222,1","+0185,1","10132,1","99,0000,9,1",,,"4,1,03,1","4,1,03,1","00,1,+99999,9,99,9",,,"00,99,1,00,1,00,1,99999,9,00,1,00,1",,"01,9",,,,"99999,9,10121,1","2,1,999,9,+005,1",,"05,1","SYN088AAXX  26151 76458 31964 00000 10222 20185 30121 40132 52/// 70544 91455 333 30/// 58005;","Q01  00002PRCP99"
"76458099999","2001-11-26T18:00:00","4","23.2","-106.4166666","4.0","COLONIA JUAN CARRASCO MAZATLAN SIN., MX","FM-12","99999","V020","190,1,N,0030,1","22000,1,9,N","016000,1,N,1","+0268,1","+0191,1","10132,1","99,0000,9,1",,,,,"00,1,+99999,9,99,9",,,"00,99,1,00,1,00,1,99999,9,00,1,00,1",,"01,9",,"120,M,+0285,1","240,N,+0182,1","99999,9,10121,1","0,1,000,1,-002,1",,,"SYN094AAXX  26181 76458 32966 01903 10268 20191 30121 40132 50000 91745 333 10285 20182 30/// 59002;","Q01  00002PRCP99"
"76458099999","2001-11-26T21:00:00","4","23.2","-106.4166666","4.0","COLONIA JUAN CARRASCO MAZATLAN SIN., MX","FM-12","99999","V020","230,1,N,0060,1","22000,1,9,N","018000,1,N,1","+0274,1","+0212,1","10105,1","99,0000,9,1",,,,,"01,1,+00780,9,02,9",,,"01,99,1,01,1,08,1,00800,1,99,9,99,9",,"01,9",,,,"99999,9,10094,1","7,1,027,1,-009,1",,,"SYN106AAXX  26211 76458 32568 12306 10274 20212 30094 40105 57027 818// 92050 333 0/4// 30/// 57844 59009 81826;","Q01  00002PRCP99"
"76458099999","2001-11-27T00:00:00","4","23.2","-106.4166666","4.0","COLONIA JUAN CARRASCO MAZATLAN SIN., MX","FM-12","99999","V020","280,1,N,0060,1","22000,1,9,N","018000,1,N,1","+0276,1","+0199,1","10098,1","24,0000,9,1",,,,,"01,1,+06000,9,08,9",,,"01,99,1,99,9,00,1,00800,1,00,1,05,1",,"01,9",,"120,M,+0290,1","180,N,+0182,1","99999,9,10087,1","7,1,007,1,-011,1",,,"SYN118AAXX  27001 76458 32568 12806 10276 20199 30087 40098 57007 80005 92345 333 10290 20182 30/// 50300 59011 70000 81270;","Q01+000002SCOTLC"
"76458099999","2001-11-27T03:00:00","4","23.2","-106.4166666","4.0","COLONIA JUAN CARRASCO MAZATLAN SIN., MX","FM-12","99999","V020","310,1,N,0030,1","22000,1,9,N","008000,1,N,1","+0242,1","+0205,1","10111,1","99,0000,9,1",,,,,"00,1,+99999,9,99,9",,,"00,99,1,00,1,00,1,99999,9,00,1,00,1",,"01,9",,,,"99999,9,10100,1","2,1,013,1,-010,1",,,"SYN082AAXX  27031 76458 32958 03103 10242 20205 30100 40111 52013 90245 333 30/// 59010;","Q01  00002PRCP99"
"76458099999","2001-11-27T06:00:00","4","23.2","-106.4166666","4.0","COLONIA JUAN CARRASCO MAZATLAN SIN., MX","FM-12","99999","V020","350,1,N,0010,1","22000,1,9,N","008000,1,N,1","+0220,1","+0185,1","10117,1","99,0000,9,1",,,,,"00,1,+99999,9,99,9",,,"00,99,1,00,1,00,1,99999,9,00,1,00,1","0522,9","01,9",,"240,M,+0290,1","240,N,+0182,1","99999,9,10105,1","2,1,005,1,-005,1",,,"SYN100AAXX  27060 76458 32958 03501 10220 20185 30105 40117 52005 90535 333 10290 20182 30/// 55087 59005;","Q01  00002PRCP99"
"76458099999","2001-11-27T12:00:00","4","23.2","-106.4166666","4.0","COLONIA JUAN CARRASCO MAZATLAN SIN., MX","FM-12","99999","V020","999,9,C,0000,1","22000,1,9,N","008000,1,N,1","+0190,1","+0175,1","10108,1","24,0000,9,1",,,,,"00,1,+99999,9,99,9",,,"00,99,1,00,1,00,1,99999,9,00,1,00,1",,"01,9","999,+0170,9","999,M,+0290,1","120,N,+0185,1","99999,9,10096,1","7,1,003,1,-014,1",,,"SYN100AAXX  27121 76458 32958 00000 10190 20175 30096 40108 57003 91130 333 10290 20185 30017 59014 70000;","Q01  00002PRCP24"
"76458099999","2001-11-27T18:00:00","4","23.2","-106.4166666","4.0","COLONIA JUAN CARRASCO MAZATLAN SIN., MX","FM-12","99999","V020","140,1,N,0040,1","22000,1,9,N","020000,1,N,1","+0276,1","+0180,1","10117,1","99,0000,9,1",,,,,"02,1,+01200,9,02,9",,,"02,99,1,02,1,02,1,01250,1,00,1,00,1",,"01,9",,"120,M,+0287,1","240,N,+0182,1","99999,9,10105,1","8,1,001,1,-015,1",,,"SYN118AAXX  27181 76458 32670 21404 10276 20180 30105 40117 58001 82200 91750 333 02300 10287 20182 30/// 57438 59015 82840;","Q01  00002PRCP99"
"76458099999","2001-11-27T21:00:00","4","23.2","-106.4166666","4.0","COLONIA JUAN CARRASCO MAZATLAN SIN., MX","FM-12","99999","V020","160,1,N,0040,1","22000,1,9,N","020000,1,N,1","+0274,1","+0190,1","10095,1","99,0000,9,1",,,,,"02,1,+01050,9,08,9",,,"03,99,1,02,1,08,1,00800,1,04,1,99,9",,"01,9",,,,"99999,9,10084,1","7,1,021,1,-010,1",,,"SYN112AAXX  27211 76458 32570 31604 10274 20190 30084 40095 57021 8284/ 92050 333 0/3// 30/// 57832 59010 82835 81358;","Q01  00002PRCP99"
"76458099999","2001-11-28T00:00:00","4","23.2","-106.4166666","4.0","COLONIA JUAN CARRASCO MAZATLAN SIN., MX","FM-12","99999","V020","190,1,N,0060,1","22000,1,9,N","020000,1,N,1","+0272,1","+0188,1","10092,1","24,0000,9,1",,,,,"01,1,+01050,9,08,9",,,"04,99,1,01,1,08,1,01250,1,00,1,08,1",,"01,9",,"120,M,+0290,1","180,N,+0182,1","99999,9,10081,1","3,1,003,1,-006,1",,,"SYN136AAXX  28001 76458 32670 41906 10272 20188 30081 40092 53003 81808 92340 333 0/5// 10290 20182 30/// 50316 57854 59006 70000 81835 83270;","Q01  00002PRCP99Q02  00003PRCP99"
"76458099999","2001-11-28T03:00:00","4","23.2","-106.4166666","4.0","COLONIA JUAN CARRASCO MAZATLAN SIN., MX","FM-12","99999","V020","180,1,N,0030,1","22000,1,9,N","010000,1,N,1","+0254,1","+0187,1","10091,1","99,0000,9,1",,,,,"02,1,+00840,9,06,9",,,"03,99,1,02,1,04,1,00800,1,03,1,00,1",,"01,9",,,,"99999,9,10080,1","8,1,001,1,-020,1",,,"SYN106AAXX  28031 76458 32560 31803 10254 20187 30080 40091 58001 82430 90245 333 30/// 5669/ 59020 82628 81362;","Q01  00002PRCP99"
"76458099999","2001-11-28T06:00:00","4","23.2","-106.4166666","4.0","COLONIA JUAN CARRASCO MAZATLAN SIN., MX","FM-12","99999","V020","140,1,N,0030,1","22000,1,9,N","010000,1,N,1","+0243,1","+0192,1","10096,1","99,0000,9,1",,,,,,,,"04,99,1,04,1,02,1,00800,1,00,1,00,1","0528,9","01,9",,"240,M,+0290,1","240,N,+0182,1","99999,9,10085,1","2,1,005,1,-020,1",,,"SYN118AAXX  28061 76458 32560 41403 10243 20192 30085 40096 52005 84200 90535 333 10290 20182 30/// 55088 566// 59020 84821;","Q01  00002PRCP99"
"76458099999","2001-11-28T12:00:00","4","23.2","-106.4166666","4.0","COLONIA JUAN CARRASCO MAZATLAN SIN., MX","FM-12","99999","V020","080,1,N,0010,1","22000,1,9,N","008000,1,N,1","+0232,1","+0185,1","10096,1","24,0000,9,1",,,,,,,,"02,99,1,02,1,02,1,00450,1,00,1,00,1",,"01,9","999,+0220,9","999,M,+0290,1","120,N,+0235,1","99999,9,10085,1","2,1,002,1,-011,1",,,"SYN112AAXX  28121 76458 32458 20801 10232 20185 30085 40096 52002 82200 91136 333 0/600 10290 20235 30022 59011 70000;","Q01  00002PRCP24"
"76458099999","2001-11-28T15:00:00","4","23.2","-106.4166666","4.0","COLONIA JUAN CARRASCO MAZATLAN SIN., MX","FM-12","99999","V020","110,1,N,0030,1","22000,1,9,N","018000,1,N,1","+0224,1","+0181,1","10118,1","99,0000,9,1",,,,,"03,1,+00540,9,08,9",,,"04,99,1,03,1,02,1,00450,1,00,1,01,1",,"01,9",,,,"99999,9,10107,1","2,1,017,1,+001,1",,,"SYN112AAXX  28151 76458 32468 41103 10224 20181 30107 40118 52017 83201 91450 333 0240/ 30/// 57841 58001 83818 81079;","Q01  00002PRCP99"
"76458099999","2001-11-28T18:00:00","4","23.2","-106.4166666","4.0","COLONIA JUAN CARRASCO MAZATLAN SIN., MX","FM-12","99999","V020","110,1,N,0040,1","22000,1,9,N","020000,1,N,1","+0263,1","+0187,1","10127,1","99,0000,9,1",,,,,"04,1,+00960,9,02,9",,,"04,99,1,04,1,02,1,00800,1,00,1,00,1",,"01,9",,"120,M,+0275,1","240,N,+0212,1","99999,9,10116,1","0,1,009,1,+010,1",,,"SYN118AAXX  28181 76458 32570 41104 10263 20187 30116 40127 50009 84200 91750 333 02400 10275 20212 30/// 57841 58010 84832;","Q01  00002PRCP99"
"76458099999","2001-11-28T21:00:00","4","23.2","-106.4166666","4.0","COLONIA JUAN CARRASCO MAZATLAN SIN., MX","FM-12","99999","V020","180,1,N,0040,1","99999,9,9,N","020000,1,N,1","+0254,1","+0176,1","10107,1","99,0000,9,1",,,,,"04,1,+00990,9,06,9",,,"07,99,1,04,1,04,1,00800,1,00,1,00,1",,"01,9",,,,"99999,9,10096,1","7,1,020,1,+012,1",,,"SYN106AAXX  28211 76458 32570 71804 10254 20176 30096 40107 57020 84400 92045 333 30/// 565// 58012 84633 83833;","Q01  00002PRCP99"
"76458099999","2001-11-29T00:00:00","4","23.2","-106.4166666","4.0","COLONIA JUAN CARRASCO MAZATLAN SIN., MX","FM-12","99999","V020","320,1,N,0030,1","03600,1,9,N","020000,1,N,1","+0247,1","+0171,1","10103,1","03,0005,9,1","06,0005,9,1","24,0005,9,1",,,,,,"05,99,1,02,1,04,1,00800,1,03,1,00,1",,"01,9",,"120,M,+0280,1","180,N,+0212,1","99999,9,10092,1","5,1,004,1,+002,1",,,"SYN136AAXX  29001 76458 /2570 53203 10247 20171 30092 40103 55004 69951 82430 92345 333 10280 20212 30/// 5///1 5649/ 58002 69957 70005 82632;",
"76458099999","2001-11-29T03:00:00","4","23.2","-106.4166666","4.0","COLONIA JUAN CARRASCO MAZATLAN SIN., MX","FM-12","99999","V020","330,1,N,0030,1","22000,1,9,N","008000,1,N,1","+0226,1","+0162,1","10125,1","99,0000,9,1",,,,,"03,1,+01800,9,07,9",,,"03,99,1,03,1,99,9,02250,1,03,1,99,9",,"01,9",,,,"99999,9,10113,1","2,1,021,1,+033,1",,,"SYN094AAXX  29031 76458 32858 33303 10226 20162 30113 40125 52021 83/3/ 90245 333 30/// 58033 83356;","Q01  00002PRCP99"
"76458099999","2001-11-29T06:00:00","4","23.2","-106.4166666","4.0","COLONIA JUAN CARRASCO MAZATLAN SIN., MX","FM-12","99999","V020","340,1,N,0020,1","22000,1,9,N","008000,1,N,1","+0200,1","+0121,1","10134,1","99,0000,9,1",,,,,"00,1,+99999,9,99,9",,,"00,99,1,00,1,00,1,99999,9,00,1,00,1","0342,9","01,9",,"240,M,+0280,1","240,N,+9999,9","99999,9,10123,1","2,1,010,1,+038,1",,,"SYN100AAXX  29061 76458 32958 03402 10200 20121 30123 40134 52010 90535 333 10280 20212 30/// 55057 58038;","Q01  00002PRCP99Q02 +02122ATMN  "
"76458099999","2001-11-29T15:00:00","4","23.2","-106.4166666","4.0","COLONIA JUAN CARRASCO MAZATLAN SIN., MX","FM-12","99999","V020","360,1,N,0030,1","22000,1,9,N","016000,1,N,1","+0200,1","+0176,1","10149,1","99,0000,9,1",,,,,"01,1,+00300,9,08,9",,,"02,99,1,01,1,02,1,00450,1,03,1,00,1",,"01,9",,,,"99999,9,10138,1","2,1,016,1,+030,1",,,"SYN112AAXX  29151 76458 32466 23603 10200 20176 30138 40149 52016 81230 91450 333 02130 30/// 57818 58030 81810 81359;","Q01  00002PRCP99"
"76458099999","2001-11-29T18:00:00","4","23.2","-106.4166666","4.0","COLONIA JUAN CARRASCO MAZATLAN SIN., MX","FM-12","99999","V020","270,1,N,0030,1","03600,1,C,N","010000,1,N,1","+0241,1","+0194,1","10155,1","99,0000,9,1",,,"4,1,06,1","4,1,06,1","01,1,+00600,9,09,9",,,"05,99,1,01,1,03,1,00450,1,03,1,00,1",,"01,9",,,,"99999,9,10144,1","0,1,006,1,+028,1",,"05,1","SYN118AAXX  29181 76458 31460 52703 10241 20194 30144 40155 50006 70544 81330 91745 333 04850 30/// 57962 58028 81920 84359;","Q01  00002PRCP99"
"76458099999","2001-11-29T21:00:00","4","23.2","-106.4166666","4.0","COLONIA JUAN CARRASCO MAZATLAN SIN., MX","FM-12","99999","V020","290,1,N,0010,1","22000,1,9,N","015000,1,N,1","+0258,1","+0178,1","10126,1","99,0000,9,1",,,,,"01,1,+00990,9,08,9",,,"02,99,1,01,1,01,1,00800,1,03,1,00,1",,"01,9",,,,"99999,9,10114,1","7,1,030,1,+018,1",,,"SYN106AAXX  29211 76458 32565 22901 10258 20178 30114 40126 57030 81130 92050 333 30/// 5619/ 58018 81833 81362;","Q01  00002PRCP99"
"76458099999","2001-11-30T00:00:00","4","23.2","-106.4166666","4.0","COLONIA JUAN CARRASCO MAZATLAN SIN., MX","FM-12","99999","V020","280,1,N,0060,1","22000,1,9,N","016000,1,N,1","+0260,1","+0173,1","10126,1","24,0000,9,1",,,,,"01,1,+01080,9,08,9",,,"02,99,1,01,1,08,1,00800,1,03,1,99,9",,"01,9",,"120,M,+0277,1","180,N,+0172,1","99999,9,10115,1","3,1,001,1,+029,1",,,"SYN136AAXX  30001 76458 32566 22806 10260 20173 30115 40126 53001 8183/ 92340 333 0/3// 10277 20172 30/// 50283 57833 58029 70000 81836 81358;","Q01  00002PRCP99Q02  00003PRCP99"
"76458099999","2001-11-30T03:00:00","4","23.2","-106.4166666","4.0","COLONIA JUAN CARRASCO MAZATLAN SIN., MX","FM-12","99999","V020","330,1,N,0030,1","22000,1,9,N","008000,1,N,1","+0222,1","+0147,1","10138,1","99,0000,9,1",,,,,"00,1,+99999,9,99,9",,,"00,99,1,00,1,00,1,99999,9,00,1,00,1",,"01,9",,,,"99999,9,10127,1","2,1,012,1,+014,1",,,"SYN082AAXX  30031 76458 32958 03303 10222 20147 30127 40138 52012 90245 333 30/// 58014;","Q01  00002PRCP99"
"76458099999","2001-11-30T06:00:00","4","23.2","-106.4166666","4.0","COLONIA JUAN CARRASCO MAZATLAN SIN., MX","FM-12","99999","V020","350,1,N,0020,1","22000,1,9,N","008000,1,N,1","+0204,1","+0144,1","10141,1","99,0000,9,1",,,,,"00,1,+99999,9,99,9",,,"00,99,1,00,1,00,1,99999,9,00,1,00,1","0558,9","01,9",,"240,M,+0277,1","240,N,+0172,1","99999,9,10130,1","3,1,003,1,+007,1",,,"SYN100AAXX  30061 76458 32958 03502 10204 20144 30130 40141 53003 90535 333 10277 20172 30/// 55093 58007;","Q01  00002PRCP99"
"76458099999","2001-11-30T15:00:00","4","23.2","-106.4166666","4.0","COLONIA JUAN CARRASCO MAZATLAN SIN., MX","FM-12","99999","V020","340,1,N,0010,1","22000,1,9,N","012000,1,N,1","+0212,1","+0159,1","10147,1","99,0000,9,1",,,,,"01,1,+00600,9,06,9",,,"03,99,1,01,1,04,1,00800,1,03,1,00,1",,"01,9",,,,"99999,9,10135,1","1,1,021,1,-003,1",,,"SYN106AAXX  30151 76458 32562 33401 10212 20159 30135 40147 51021 81430 91450 333 0/00/ 30/// 59003 81620 82358;","Q01  00002PRCP99"
"76458099999","2001-11-30T18:00:00","4","23.2","-106.4166666","4.0","COLONIA JUAN CARRASCO MAZATLAN SIN., MX","FM-12","99999","V020","160,1,N,0020,1","22000,1,9,N","015000,1,N,1","+0270,1","+0164,1","10151,1","99,0000,9,1",,,,,"01,1,+00900,9,08,9","02,1,+02400,9,03,9",,"04,99,1,01,1,02,1,01250,1,03,1,02,1",,"01,9",,"120,M,+0284,1","240,N,+0188,1","99999,9,10139,1","0,1,004,1,-005,1",,,"SYN130AAXX  30181 76458 32665 41602 10270 20164 30139 40151 50004 81232 91750 333 0/100 10284 20188 30/// 57815 59005 81830 82358 81070;","Q01  00002PRCP99"
"76458099999","2001-11-30T21:00:00","4","23.2","-106.4166666","4.0","COLONIA JUAN CARRASCO MAZATLAN SIN., MX","FM-12","99999","V020","260,1,N,0060,1","22000,1,9,N","016000,1,N,1","+0280,1","+0171,1","10124,1","99,0000,9,1",,,,,"02,1,+01350,9,08,9",,,"04,99,1,02,1,08,1,01250,1,00,1,04,1",,"01,9",,,,"99999,9,10113,1","8,1,026,1,-001,1",,,"SYN112AAXX  30211 76458 32666 42606 10280 20171 30113 40124 58026 82804 92150 333 0/1// 30/// 58011 59001 82845 82070;","Q01  00002PRCP99"
"76458099999","2001-12-01T00:00:00","4","23.2","-106.4166666","4.0","COLONIA JUAN CARRASCO MAZATLAN SIN., MX","FM-12","99999","V020","280,1,N,0060,1","09000,1,9,N","016000,1,N,1","+0260,1","+0187,1","10121,1","24,0000,9,1",,,,,"01,1,+00900,9,08,9",,,"05,99,1,01,1,08,1,00800,1,00,1,05,1",,"01,9",,"120,M,+0292,1","180,N,+0188,1","99999,9,10110,1","8,1,003,1,-005,1",,,"SYN136AAXX  01001 76458 32566 52806 10260 20187 30110 40121 58003 81805 92359 333 0/1// 10292 20188 30/// 50246 57812 59005 70000 81830 84070;","Q01  00002PRCP99Q02  00003PRCP99"
"76458099999","2001-12-01T03:00:00","4","23.2","-106.4166666","4.0","COLONIA JUAN CARRASCO MAZATLAN SIN., MX","FM-12","99999","V020","340,1,N,0020,1","22000,1,9,N","008000,1,N,1","+0238,1","+0182,1","10134,1","99,0000,9,1",,,,,"02,1,+06000,9,01,9",,,"02,99,1,00,1,99,9,99999,9,99,9,02,1",,"01,9",,,,"99999,9,10122,1","2,1,012,1,+005,1",,,"SYN094AAXX  01031 76458 32958 23402 10238 20182 30122 40134 52012 80//2 90245 333 30/// 58005 82070;","Q01  00002PRCP99"
"76458099999","2001-12-01T06:00:00","4","23.2","-106.4166666","4.0","COLONIA JUAN CARRASCO MAZATLAN SIN., MX","FM-12","99999","V020","999,9,C,0000,1","22000,1,9,N","008000,1,N,1","+0216,1","+0180,1","10141,1","99,0000,9,1",,,,,"00,1,+99999,9,99,9",,,"00,99,1,00,1,00,1,99999,9,00,1,00,1","0540,9","01,9",,"240,M,+0292,1","240,N,+0188,1","99999,9,10129,1","1,1,007,1,+000,1",,,"SYN100AAXX  01061 76458 32958 00000 10216 20180 30129 40141 51007 90535 333 10292 20188 30/// 55090 59000;","Q01  00002PRCP99"
"76458099999","2001-12-01T12:00:00","4","23.2","-106.4166666","4.0","COLONIA JUAN CARRASCO MAZATLAN SIN., MX","FM-12","99999","V020","999,9,C,0000,1","22000,1,9,N","008000,1,N,1","+0194,1","+0163,1","10150,1","99,0000,9,1",,,,,"00,1,+99999,9,99,9",,,"00,99,1,00,1,00,1,99999,9,00,1,00,1",,"01,9","999,+0170,9","999,M,+0292,1","120,N,+0185,1","99999,9,10114,1","7,1,004,1,+001,1",,,"SYN094AAXX  01121 76458 32958 00000 10194 20163 30114 40150 57004 91150 333 10292 20185 30017 58001;","Q01  00002PRCP99"
"76458099999","2001-12-01T18:00:00","4","23.2","-106.4166666","4.0","COLONIA JUAN CARRASCO MAZATLAN SIN., MX","FM-12","99999","V020","270,1,N,0030,1","22000,1,9,N","018000,1,N,1","+0276,1","+0166,1","10143,1","99,0000,9,1",,,,,"03,1,+02400,9,07,9",,,"03,99,1,03,1,99,9,99999,9,03,1,00,1",,"01,9",,"120,M,+0296,1","240,N,+0178,1","99999,9,10132,1","0,1,005,1,-007,1",,,"SYN112AAXX  01181 76458 32968 32703 10276 20166 30132 40143 50005 83030 91750 333 0//0/ 10296 20178 30/// 59007 83358;","Q01  00002PRCP99Q02    003SCOLCG"
"76458099999","2001-12-01T21:00:00","4","23.2","-106.4166666","4.0","COLONIA JUAN CARRASCO MAZATLAN SIN., MX","FM-12","99999","V020","270,1,N,0050,1","22000,1,9,N","018000,1,N,1","+0272,1","+0184,1","10120,1","99,0000,9,1",,,,,"04,1,+01800,9,07,9",,,"04,99,1,04,1,99,9,02250,1,03,1,99,9",,"01,9",,,,"99999,9,10109,1","7,1,023,1,-004,1",,,"SYN094AAXX  01211 76458 32868 42705 10272 20184 30109 40120 57023 84/3/ 92045 333 30/// 59004 84356;","Q01  00002PRCP99"
"76458099999","2001-12-02T00:00:00","4","23.2","-106.4166666","4.0","COLONIA JUAN CARRASCO MAZATLAN SIN., MX","FM-12","99999","V020","300,1,N,0050,1","01800,1,9,N","020000,1,N,1","+0264,1","+0191,1","10123,1","24,0000,9,1",,,,,"06,1,+01800,9,07,9",,,"06,99,1,06,1,99,9,02250,1,03,1,99,9",,"01,9",,"120,M,+0297,1","180,N,+0178,1","99999,9,10112,1","3,1,003,1,+002,1",,,"SYN118AAXX  02001 76458 32870 63005 10264 20191 30112 40123 53003 86/3/ 92340 333 10297 20178 30/// 50351 58002 70000 86356;",
"76458099999","2001-12-02T09:00:00","4","23.2","-106.4166666","4.0","COLONIA JUAN CARRASCO MAZATLAN SIN., MX","FM-12","99999","V020","330,1,N,0020,1","22000,1,9,N","012000,1,N,1","+0203,1","+0154,1","10127,1","99,0000,9,1",,,,,"03,1,+02700,9,07,9",,,"03,99,1,03,1,00,1,99999,9,03,1,00,1",,"01,9",,,,"99999,9,10115,1","7,1,026,1,-002,1",,,"SYN100AAXX  02091 76458 32962 33302 10203 20154 30115 40127 57026 83030 90845 333 0/040 30/// 59002 83359;","Q01  00002PRCP99"
"76458099999","2001-12-02T12:00:00","4","23.2","-106.4166666","4.0","COLONIA JUAN CARRASCO MAZATLAN SIN., MX","FM-12","99999","V020","999,9,C,0000,1","00600,1,9,N","012000,1,N,1","+0197,1","+0150,1","10124,1","24,0000,9,1",,,,,"07,1,+00600,9,05,9",,,"07,99,1,07,1,04,1,00450,1,00,1,00,1",,"01,9","999,+0160,9","999,M,+0297,1","120,N,+0182,1","99999,9,10113,1","5,1,002,1,-001,1",,,"SYN118AAXX  02121 76458 32462 70000 10197 20150 30113 40124 55002 87400 91145 333 0/400 10297 20182 30016 59001 70000 87620;",
"76458099999","2001-12-02T15:00:00","4","23.2","-106.4166666","4.0","COLONIA JUAN CARRASCO MAZATLAN SIN., MX","FM-12","99999","V020","350,1,N,0020,1","22000,1,9,N","020000,1,N,1","+0210,1","+0170,1","10143,1","99,0000,9,1",,,,,"02,1,+01800,9,07,9",,,"02,99,1,02,1,99,9,02250,1,03,1,99,9",,"01,9",,,,"99999,9,10131,1","2,1,017,1,+004,1",,,"SYN094AAXX  02151 76458 32870 23502 10210 20170 30131 40143 52017 82/3/ 91445 333 30/// 58004 82356;","Q01  00002PRCP99"
"76458099999","2001-12-02T18:00:00","4","23.2","-106.4166666","4.0","COLONIA JUAN CARRASCO MAZATLAN SIN., MX","FM-12","99999","V020","220,1,N,0050,1","22000,1,9,N","020000,1,N,1","+0252,1","+0181,1","10147,1","99,0000,9,1",,,,,"00,1,+99999,9,99,9",,,"00,99,1,00,1,00,1,99999,9,00,1,00,1",,"01,9",,"120,M,+0272,1","240,N,+0180,1","99999,9,10136,1","0,1,005,1,+005,1",,,"SYN094AAXX  02181 76458 32970 02205 10252 20181 30136 40147 50005 91745 333 10272 20180 30/// 58005;","Q01  00002PRCP99"
"76458099999","2001-12-02T21:00:00","4","23.2","-106.4166666","4.0","COLONIA JUAN CARRASCO MAZATLAN SIN., MX","FM-12","99999","V020","999,9,C,0000,1","22000,1,9,N","020000,1,N,1","+0270,1","+0182,1","10121,1","99,0000,9,1",,,,,"00,1,+99999,9,99,9",,,"00,99,1,00,1,00,1,99999,9,00,1,00,1",,"01,9",,,,"99999,9,10110,1","7,1,026,1,+001,1",,,"SYN082AAXX  02211 76458 32070 00000 10270 20182 30110 40121 57026 92040 333 30/// 58001;","Q01  00002PRCP99"
"76458099999","2001-12-03T00:00:00","4","23.2","-106.4166666","4.0","COLONIA JUAN CARRASCO MAZATLAN SIN., MX","FM-12","99999","V020","290,1,N,0040,1","22000,1,9,N","020000,1,N,1","+0274,1","+0167,1","10114,1","24,0000,9,1",,,,,"01,1,+01350,9,05,9",,,"01,99,1,01,1,04,1,00800,1,99,9,99,9",,"01,9",,"120,M,+0290,1","180,N,+0180,1","99999,9,10103,1","7,1,007,1,-009,1",,,"SYN124AAXX  03001 76458 32570 12904 10274 20167 30103 40114 57007 814// 92340 333 0/0// 10290 20180 30/// 50178 59009 70000 81645;",
"76458099999","2001-12-03T15:00:00","4","23.2","-106.4166666","4.0","COLONIA JUAN CARRASCO MAZATLAN SIN., MX","FM-12","99999","V020","999,9,C,0000,1","22000,1,9,N","015000,1,N,1","+0214,1","+0155,1","10137,1","99,0000,9,1",,,,,"01,1,+02400,9,07,9",,,"01,99,1,01,1,99,9,99999,9,08,1,00,1",,"01,9",,,,"99999,9,10126,1","1,1,006,1,-005,1",,,"SYN100AAXX  03151 76458 32965 10000 10214 20155 30126 40137 51006 81080 91455 333 30/// 56/0/ 59005 81358;","Q01  00002PRCP99Q02    003SCOLCG"
"76458099999","2001-12-03T18:00:00","4","23.2","-106.4166666","4.0","COLONIA JUAN CARRASCO MAZATLAN SIN., MX","FM-12","99999","V020","170,1,N,0020,1","22000,1,9,N","015000,1,N,1","+0270,1","+0167,1","10140,1","99,0000,9,1",,,,,"01,1,+02400,9,03,9",,,"03,99,1,01,1,00,1,99999,9,03,1,02,1",,"01,9",,"120,M,+0286,1","240,N,+0162,1","99999,9,10128,1","0,1,002,1,-008,1",,,"SYN118AAXX  03181 76458 32965 31702 10270 20167 30128 40140 50002 81032 91750 333 10286 20162 30/// 56/00 59008 81358 82070;","Q01  00002PRCP99"
"76458099999","2001-12-03T21:00:00","4","23.2","-106.4166666","4.0","COLONIA JUAN CARRASCO MAZATLAN SIN., MX","FM-12","99999","V020","250,1,N,0050,1","22000,1,9,N","016000,1,N,1","+0264,1","+0189,1","10121,1","99,0000,9,1",,,,,"02,1,+02400,9,03,9",,,"04,99,1,02,1,00,1,00800,1,03,1,03,1",,"01,9",,,,"99999,9,10109,1","7,1,018,1,-001,1",,,"SYN106AAXX  03211 76458 32566 42505 10264 20189 30109 40121 57018 82033 92045 333 30/// 56/00 59001 82358 82070;","Q01  00002PRCP99"
"76458099999","2001-12-04T00:00:00","4","23.2","-106.4166666","4.0","COLONIA JUAN CARRASCO MAZATLAN SIN., MX","FM-12","99999","V020","290,1,N,0040,1","22000,1,9,N","016000,1,N,1","+0260,1","+0193,1","10108,1","24,0000,9,1",,,,,,,,"02,99,1,00,1,00,1,99999,9,00,1,04,1",,"01,9",,"120,M,+0290,1","180,N,+0164,1","99999,9,10097,1","7,1,012,1,-006,1",,,"SYN124AAXX  04001 76458 32566 22904 10260 20193 30097 40108 57012 80004 92340 333 10290 20164 30/// 50220 56/0/ 59006 70000 82070;","Q01+008002SCOLCBQ02  00002PRCP99Q03  00003PRCP99"
"76458099999","2001-12-04T09:00:00","4","23.2","-106.4166666","4.0","COLONIA JUAN CARRASCO MAZATLAN SIN., MX","FM-12","99999","V020","340,1,N,0020,1","22000,1,9,N","012000,1,N,1","+0208,1","+0152,1","10117,1","99,0000,9,1",,,,,,,,"04,99,1,04,1,00,1,99999,9,03,1,00,1",,"01,9",,,,"99999,9,10016,1","7,1,012,1,-011,1",,,"SYN094AAXX  04091 76458 32962 43402 10208 20152 30016 40117 57012 84030 90845 333 0/040 30/// 59011;","Q01  00002PRCP99"
"76458099999","2001-12-04T12:00:00","4","23.2","-106.4166666","4.0","COLONIA JUAN CARRASCO MAZATLAN SIN., MX","FM-12","99999","V020","999,9,C,0000,1","22000,1,9,N","012000,1,N,1","+0197,1","+0155,1","10120,1","24,0000,9,1",,,,,,,,"04,99,1,04,1,00,1,99999,9,03,1,00,1",,"01,9","999,+0160,9","999,M,+0290,1","120,N,+0182,1","99999,9,10109,1","1,1,002,1,-004,1",,,"SYN112AAXX  04121 76458 32962 40000 10197 20155 30109 40120 51002 84030 91145 333 0/040 10290 20182 30016 59004 70000;","Q01  00002PRCP24"
"76458099999","2001-12-04T18:00:00","4","23.2","-106.4166666","4.0","COLONIA JUAN CARRASCO MAZATLAN SIN., MX","FM-12","99999","V020","999,9,C,0000,1","22000,1,9,N","018000,1,N,1","+0260,1","+0156,1","10145,1","99,0000,9,1",,,,,"02,1,+03600,9,03,9",,,"04,99,1,02,1,00,1,02250,1,03,1,03,1",,"01,9",,"120,M,+0275,1","240,N,+0180,1","99999,9,10134,1","0,1,011,1,+004,1",,,"SYN118AAXX  04181 76458 32868 40000 10260 20156 30134 40145 50011 82033 91745 333 10275 20180 30/// 56/99 58004 82362 82070;","Q01  00002PRCP99"
"76458099999","2001-12-04T21:00:00","4","23.2","-106.4166666","4.0","COLONIA JUAN CARRASCO MAZATLAN SIN., MX","FM-12","99999","V020","270,1,N,0040,1","06000,1,9,N","018000,1,N,1","+0250,1","+0189,1","10126,1","99,0000,9,1",,,,,"07,1,+06000,9,01,9",,,"07,99,1,00,1,00,1,99999,9,00,1,05,1",,"01,9",,,,"99999,9,10114,1","7,1,020,1,+005,1",,,"SYN100AAXX  04211 76458 32568 72704 10250 20189 30114 40126 57020 80005 92050 333 30/// 56/0/ 58005 87070;","Q01+008002SCOLCBQ02  00002PRCP99"
"76458099999","2001-12-05T00:00:00","4","23.2","-106.4166666","4.0","COLONIA JUAN CARRASCO MAZATLAN SIN., MX","FM-12","99999","V020","290,1,N,0050,1","06000,1,9,N","018000,1,N,1","+0258,1","+0198,1","10123,1","24,0000,9,1",,,,,"07,1,+06000,9,01,9",,,"07,99,1,00,1,00,1,99999,9,00,1,05,1",,"01,9",,"120,M,+0283,1","180,N,+0178,1","99999,9,10112,1","5,1,002,1,+015,1",,,"SYN118AAXX  05001 76458 32568 72905 10258 20198 30112 40123 55002 80005 92340 333 10283 20178 30/// 50240 58015 70000 87070;","Q01+008002SCOLCB"
"76458099999","2001-12-05T06:00:00","4","23.2","-106.4166666","4.0","COLONIA JUAN CARRASCO MAZATLAN SIN., MX","FM-12","99999","V020","350,1,N,0020,1","22000,1,9,N","010000,1,N,1","+0218,1","+0168,1","10137,1","99,0000,9,1",,,,,"02,1,+02400,9,07,9",,,"02,99,1,02,1,99,9,99999,9,03,1,00,1","0252,9","01,9",,"240,M,+0283,1","240,N,+0180,1","99999,9,10126,1","2,1,008,1,+007,1",,,"SYN118AAXX  05061 76458 32960 23502 10218 20168 30126 40137 52008 82030 90545 333 0/090 10283 20180 30/// 55042 58007 82358;","Q01  00002PRCP99Q02    003SCOLCG"
"76458099999","2001-12-05T09:00:00","4","23.2","-106.4166666","4.0","COLONIA JUAN CARRASCO MAZATLAN SIN., MX","FM-12","99999","V020","999,9,C,0000,1","00480,1,9,N","012000,1,N,1","+0204,1","+0166,1","10136,1","99,0000,9,1",,,,,"07,1,+00480,9,05,9",,,"07,99,1,07,1,04,1,00450,1,00,1,00,1",,"01,9",,,,"99999,9,10124,1","5,1,001,1,+008,1",,,"SYN100AAXX  05091 76458 32462 70000 10204 20166 30124 40136 55001 87400 90845 333 0/500 30/// 58008 87616;","Q01  00002PRCP99"
"76458099999","2001-12-05T18:00:00","4","23.2","-106.4166666","4.0","COLONIA JUAN CARRASCO MAZATLAN SIN., MX","FM-12","99999","V020","180,1,N,0030,1","99999,9,9,N","010000,1,N,1","+0258,1","+0190,1","10153,1","99,0000,9,1",,,"4,1,06,1","2,1,06,1","04,1,+02400,9,03,9",,,"07,99,1,04,1,00,1,99999,9,03,1,03,1",,"01,9",,"120,M,+0270,1","240,N,+0183,1","99999,9,10141,1","3,1,004,1,+007,1",,"05,1","SYN124AAXX  05181 76458 31960 71803 10258 20190 30141 40153 53004 70542 84033 91750 333 10270 20183 30/// 56/00 58007 84358 83070;","Q01  00002PRCP99"
"76458099999","2001-12-05T21:00:00","4","23.2","-106.4166666","4.0","COLONIA JUAN CARRASCO MAZATLAN SIN., MX","FM-12","99999","V020","270,1,N,0030,1","09000,1,C,N","015000,1,N,1","+0258,1","+0190,1","10125,1","99,0000,9,1",,,,,"04,1,+03600,9,03,9",,,"07,99,1,04,1,00,1,02250,1,03,1,08,1",,"01,9",,,,"99999,9,10113,1","7,1,028,1,-001,1",,,"SYN106AAXX  05211 76458 32865 72703 10258 20190 30113 40125 57028 84038 92045 333 30/// 56/99 59001 84362 83268;","Q01  00002PRCP99"
"76458099999","2001-12-06T00:00:00","4","23.2","-106.4166666","4.0","COLONIA JUAN CARRASCO MAZATLAN SIN., MX","FM-12","99999","V020","340,1,N,0050,1","02100,1,9,N","015000,1,N,1","+0242,1","+0190,1","10123,1","24,0000,9,1",,,,,,,,"07,99,1,07,1,00,1,02250,1,03,1,00,1",,"01,9",,"120,M,+0277,1","180,N,+0183,1","99999,9,10112,1","5,1,001,1,+000,1",,,"SYN124AAXX  06001 76458 32865 73405 10242 20190 30112 40123 55001 87030 92350 333 10277 20183 30/// 50241 56/9/ 58000 70000 87362;","Q01  00002PRCP99Q02  00003PRCP99"
"76458099999","2001-12-06T06:00:00","4","23.2","-106.4166666","4.0","COLONIA JUAN CARRASCO MAZATLAN SIN., MX","FM-12","99999","V020","330,1,N,0020,1","22000,1,9,N","010000,1,N,1","+0232,1","+0188,1","10149,1","99,0000,9,1",,,,,"00,1,+99999,9,99,9",,,"00,99,1,00,1,00,1,99999,9,00,1,00,1","0126,9","01,9",,"240,M,+0277,1","240,N,+0183,1","99999,9,10138,1","2,1,006,1,+012,1",,,"SYN100AAXX  06061 76458 32960 03302 10232 20188 30138 40149 52006 90540 333 10277 20183 30/// 55021 58012;","Q01  00002PRCP99"
"76458099999","2001-12-06T09:00:00","4","23.2","-106.4166666","4.0","COLONIA JUAN CARRASCO MAZATLAN SIN., MX","FM-12","99999","V020","999,9,C,0000,1","22000,1,9,N","012000,1,N,1","+0212,1","+0169,1","10132,1","99,0000,9,1",,,,,"03,1,+07200,9,01,9",,,"03,99,1,00,1,00,1,99999,9,00,1,02,1",,"01,9",,,,"99999,9,10120,1","7,1,017,1,-004,1",,,"SYN100AAXX  06090 76458 32962 30000 10212 20169 30120 40132 57017 80002 90845 333 0/00/ 30/// 59004 83074;","Q01  00002PRCP99"
"76458099999","2001-12-06T12:00:00","4","23.2","-106.4166666","4.0","COLONIA JUAN CARRASCO MAZATLAN SIN., MX","FM-12","99999","V020","360,1,N,0020,1","22000,1,9,N","012000,1,N,1","+0198,1","+0165,1","10126,1","24,0000,9,1",,,,,"03,1,+07800,9,08,9",,,"03,99,1,99,9,00,1,99999,9,00,1,07,1",,"01,9","999,+0180,9","999,M,+0277,1","120,N,+0190,1","99999,9,10114,1","7,1,006,1,-013,1",,,"SYN118AAXX  06121 76458 32962 33602 10198 20165 30114 40126 57006 80007 91145 333 0/00/ 10277 20190 30018 59013 70000 83276;","Q01+000002SCOTLC"
"76458099999","2001-12-06T15:00:00","4","23.2","-106.4166666","4.0","COLONIA JUAN CARRASCO MAZATLAN SIN., MX","FM-12","99999","V020","999,9,C,0000,1","22000,1,9,N","012000,1,N,1","+0216,1","+0161,1","10135,1","99,0000,9,1",,,,,"03,1,+06000,9,01,9",,,"03,99,1,00,1,00,1,99999,9,00,1,06,1",,"01,9",,,,"99999,9,10124,1","2,1,010,1,-021,1",,,"SYN100AAXX  06151 76458 32962 30000 10216 20161 30124 40135 52010 80006 91445 333 30/// 56//9 59021 83070;","Q01  00002PRCP99"
"76458099999","2001-12-06T18:00:00","4","23.2","-106.4166666","4.0","COLONIA JUAN CARRASCO MAZATLAN SIN., MX","FM-12","99999","V020","200,1,N,0030,1","05400,1,9,N","012000,1,N,1","+0251,1","+0183,1","10141,1","99,0000,9,1",,,,,"06,1,+05400,9,08,9",,,"06,99,1,99,9,00,1,99999,9,00,1,07,1",,"01,9",,"120,M,+0262,1","240,N,+0188,1","99999,9,10130,1","0,1,006,1,-011,1",,,"SYN112AAXX  06181 76458 32962 62003 10251 20183 30130 40141 50006 80007 91745 333 10262 20188 30/// 56//9 59011 86268;","Q01+000002SCOTLCQ02  00002PRCP99"
"76458099999","2001-12-06T21:00:00","4","23.2","-106.4166666","4.0","COLONIA JUAN CARRASCO MAZATLAN SIN., MX","FM-12","99999","V020","290,1,N,0050,1","06000,1,9,N","014000,1,N,1","+0238,1","+0182,1","10123,1","99,0000,9,1",,,,,"07,1,+06000,9,01,9",,,"07,99,1,00,1,00,1,99999,9,00,1,08,1",,"01,9",,,,"99999,9,10112,1","7,1,018,1,-001,1",,,"SYN094AAXX  06211 76458 32564 72905 10238 20182 30112 40123 57018 80008 92045 333 30/// 59001 87070;","Q01+008002SCOLCBQ02  00002PRCP99"
"76458099999","2001-12-07T00:00:00","4","23.2","-106.4166666","4.0","COLONIA JUAN CARRASCO MAZATLAN SIN., MX","FM-12","99999","V020","260,1,N,0050,1","06000,1,9,N","014000,1,N,1","+0240,1","+0171,1","10109,1","24,0000,9,1",,,,,"07,1,+06000,9,01,9",,,"07,99,1,00,1,00,1,99999,9,00,1,08,1",,"01,9",,"120,M,+0272,1","180,N,+0182,1","99999,9,10097,1","5,1,015,1,-015,1",,,"SYN118AAXX  07001 76458 32564 72605 10240 20171 30097 40109 55015 80008 92340 333 10272 20182 30/// 50237 59015 70000 87070;","Q01+008002SCOLCB"
"76458099999","2001-12-07T06:00:00","4","23.2","-106.4166666","4.0","COLONIA JUAN CARRASCO MAZATLAN SIN., MX","FM-12","99999","V020","350,1,N,0010,1","22000,1,9,N","010000,1,N,1","+0218,1","+0183,1","10133,1","99,0000,9,1",,,,,"00,1,+99999,9,99,9",,,"00,99,1,00,1,00,1,99999,9,00,1,00,1","0126,9","01,9",,"240,M,+0272,1","240,N,+0188,1","99999,9,10122,1","2,1,008,1,-015,1",,,"SYN100AAXX  07061 76458 32960 03501 10218 20183 30122 40133 52008 90540 333 10272 20188 30/// 55021 59015;","Q01  00002PRCP99"
"76458099999","2001-12-07T12:00:00","4","23.2","-106.4166666","4.0","COLONIA JUAN CARRASCO MAZATLAN SIN., MX","FM-12","99999","V020","340,1,N,0020,1","22000,1,9,N","012000,1,N,1","+0200,1","+0179,1","10119,1","24,0000,9,1",,,,,"03,1,+06000,9,01,9",,,"03,99,1,00,1,00,1,99999,9,00,1,02,1",,"01,9","999,+0180,9","999,M,+0272,1","120,N,+0190,1","99999,9,10107,1","7,1,007,1,-007,1",,,"SYN118AAXX  07121 76458 32962 33402 10200 20179 30107 40119 57007 80002 91145 333 0/00/ 10272 20190 30018 59007 70000 83070;",
"76458099999","2001-12-07T15:00:00","4","23.2","-106.4166666","4.0","COLONIA JUAN CARRASCO MAZATLAN SIN., MX","FM-12","99999","V020","350,1,N,0010,1","02400,1,9,N","005000,1,N,1","+0205,1","+0170,1","10132,1","99,0000,9,1",,,"4,1,03,1","1,1,03,1","07,1,+02400,9,07,9",,,"07,99,1,07,1,99,9,99999,9,07,1,00,1",,"01,9",,,,"99999,9,10120,1","1,1,013,1,-004,1",,"05,1","SYN106AAXX  07151 76458 32950 73501 10205 20170 30120 40132 51013 70541 87070 91455 333 30/// 56/0/ 59004 87358;","Q01  00002PRCP99Q02    003SCOLCG"
"76458099999","2001-12-07T18:00:00","4","23.2","-106.4166666","4.0","COLONIA JUAN CARRASCO MAZATLAN SIN., MX","FM-12","99999","V020","290,1,N,0020,1","02400,1,9,N","013000,1,N,1","+0243,1","+0185,1","10142,1","99,0000,9,1",,,,,"06,1,+02400,9,07,9",,,"06,99,1,06,1,99,9,99999,9,03,1,00,1",,"01,9",,"120,M,+0256,1","240,N,+0186,1","99999,9,10131,1","0,1,011,1,+001,1",,,"SYN112AAXX  07181 76458 32963 62902 10243 20185 30131 40142 50011 86030 91750 333 10256 20186 30/// 56/0/ 58001 86358;","Q01  00002PRCP99Q02    003SCOLCG"
"76458099999","2001-12-07T21:00:00","4","23.2","-106.4166666","4.0","COLONIA JUAN CARRASCO MAZATLAN SIN., MX","FM-12","99999","V020","290,1,N,0050,1","02400,1,9,N","014000,1,N,1","+0250,1","+0207,1","10113,1","99,0000,9,1",,,,,"06,1,+02400,9,07,9",,,"06,99,1,99,9,04,1,00450,1,99,9,99,9",,"01,9",,,,"99999,9,10102,1","7,1,029,1,-010,1",,,"SYN100AAXX  07211 76458 32464 62905 10250 20207 30102 40113 57029 804// 92050 333 30/// 56/0/ 59010 86358;","Q01+000002SCOTLCQ02  00002PRCP99"
"76458099999","2001-12-08T00:00:00","4","23.2","-106.4166666","4.0","COLONIA JUAN CARRASCO MAZATLAN SIN., MX","FM-12","99999","V020","290,1,N,0050,1","02400,1,9,N","014000,1,N,1","+0235,1","+0183,1","10108,1","24,0000,9,1",,,,,"07,1,+02400,9,07,9",,,"07,99,1,99,9,99,9,00800,1,00,1,04,1",,"01,9",,"120,M,+0292,1","180,N,+0185,1","99999,9,10096,1","8,1,006,1,-001,1",,,"SYN118AAXX  08001 76458 32564 72905 10235 20183 30096 40108 58006 80004 92345 333 10292 20185 30/// 50212 59001 70000 87358;","Q01+000002SCOTLCQ02    003SCOLCG"
"76458099999","2001-12-08T12:00:00","4","23.2","-106.4166666","4.0","COLONIA JUAN CARRASCO MAZATLAN SIN., MX","FM-12","99999","V020","320,1,N,0020,1","02700,1,9,N","012000,1,N,1","+0204,1","+0169,1","10095,1","24,0000,9,1",,,,,"07,1,+02700,9,07,9",,,"07,99,1,07,1,00,1,99999,9,03,1,00,1",,"01,9","999,+0190,9","999,M,+0292,1","120,N,+0194,1","99999,9,10093,1","4,1,000,1,-024,1",,,"SYN118AAXX  08121 76458 32962 73202 10204 20169 30093 40095 54000 87030 91145 333 0/040 10292 20194 30019 59024 70000 87359;",
"76458099999","2001-12-08T15:00:00","4","23.2","-106.4166666","4.0","COLONIA JUAN CARRASCO MAZATLAN SIN., MX","FM-12","99999","V020","999,9,C,0000,1","09000,1,9,N","012000,1,N,1","+0212,1","+0169,1","10112,1","99,0000,9,1",,,,,"01,1,+00600,9,06,9",,,"05,99,1,01,1,04,1,00450,1,03,1,02,1",,"01,9",,,,"99999,9,10101,1","1,1,009,1,-020,1",,,"SYN106AAXX  08151 76458 32462 50000 10212 20169 30101 40112 51009 81432 91458 333 30/// 56000 59020 81620 82358;","Q01  00002PRCP99"
"76458099999","2001-12-08T18:00:00","4","23.2","-106.4166666","4.0","COLONIA JUAN CARRASCO MAZATLAN SIN., MX","FM-12","99999","V020","230,1,N,0030,1","99999,9,9,N","010000,1,N,1","+0240,1","+0182,1","10115,1","99,0000,9,1",,,"4,1,06,1","2,1,06,1","02,1,+02400,9,03,9",,,"05,99,1,02,1,03,1,99999,9,99,9,02,1",,"01,9",,"120,M,+0275,1","240,N,+0185,1","99999,9,10104,1","0,1,003,1,-027,1",,"04,1","SYN124AAXX  08181 76458 31960 52303 10240 20182 30104 40115 50003 70442 82302 91750 333 10275 20185 30/// 56/00 59027 82358 83070;","Q01+000002SCOMCGQ02  00002PRCP99"
"76458099999","2001-12-08T21:00:00","4","23.2","-106.4166666","4.0","COLONIA JUAN CARRASCO MAZATLAN SIN., MX","FM-12","99999","V020","270,1,N,0030,1","03300,1,9,N","004000,1,N,1","+0248,1","+0191,1","10085,1","99,0000,9,1",,,"4,1,03,1","4,1,03,1","05,1,+03300,9,04,9",,,"07,99,1,05,1,00,1,99999,9,01,1,02,1",,"01,9",,,,"99999,9,10074,1","7,1,030,1,-028,1",,"05,1","SYN112AAXX  08211 76458 31940 72703 10248 20191 30074 40085 57030 70544 85012 92045 333 0/06/ 30/// 59028 85461 82079;","Q01  00002PRCP99"
"76458099999","2001-12-09T00:00:00","4","23.2","-106.4166666","4.0","COLONIA JUAN CARRASCO MAZATLAN SIN., MX","FM-12","99999","V020","320,1,N,0030,1","03300,1,9,N","014000,1,N,1","+0231,1","+0185,1","10088,1","24,0000,9,1",,,"4,1,06,1","4,1,06,1","06,1,+03300,9,04,9",,,"07,99,1,06,1,00,1,99999,9,02,1,02,1",,"01,9",,"120,M,+0275,1","180,N,+0185,1","99999,9,10076,1","3,1,002,1,-020,1",,"05,1","SYN136AAXX  09001 76458 31964 73203 10231 20185 30076 40088 53002 70544 86022 92345 333 0/07/ 10275 20185 30/// 50210 59020 70000 86461 81079;",
"76458099999","2001-12-09T03:00:00","4","23.2","-106.4166666","4.0","COLONIA JUAN CARRASCO MAZATLAN SIN., MX","FM-12","99999","V020","360,1,N,0030,1","99999,9,9,N","012000,1,N,1","+0224,1","+0173,1","10096,1","99,0000,9,1",,,,,"04,1,+02400,9,04,9",,,"05,99,1,02,1,08,1,00450,1,99,9,99,9",,"01,9",,,,"99999,9,10084,1","3,1,008,1,-013,1",,,"SYN106AAXX  09031 76458 32462 53603 10224 20173 30084 40096 53008 828// 90245 333 30/// 56/6/ 59013 84458 81070;","Q01  00002PRCP99"
"76458099999","2001-12-09T06:00:00","4","23.2","-106.4166666","4.0","COLONIA JUAN CARRASCO MAZATLAN SIN., MX","FM-12","99999","V020","360,1,N,0040,1","22000,1,9,N","010000,1,N,1","+0202,1","+0172,1","10102,1","99,0000,9,1",,,,,"02,1,+02400,9,07,9",,,"02,99,1,99,9,04,1,00450,1,99,9,99,9",,"01,9",,"240,M,+0275,1","240,N,+0203,1","99999,9,10091,1","2,1,007,1,-006,1",,,"SYN112AAXX  09061 76458 32460 23604 10202 20172 30091 40102 52007 804// 90540 333 10275 20203 30/// 56/0/ 59006 82358;","Q01+000002SCOTLCQ02  00002PRCP99"
"76458099999","2001-12-09T12:00:00","4","23.2","-106.4166666","4.0","COLONIA JUAN CARRASCO MAZATLAN SIN., MX","FM-12","99999","V020","999,9,C,0000,1","22000,1,9,N","012000,1,N,1","+0192,1","+0166,1","10092,1","24,0000,9,1",,,,,"00,1,+99999,9,99,9",,,"00,99,1,00,1,00,1,99999,9,00,1,00,1",,"01,9","999,+0160,9","999,M,+0275,1","120,N,+0179,1","99999,9,10081,1","7,1,005,1,-002,1",,,"SYN100AAXX  09121 76458 32962 00000 10192 20166 30081 40092 57005 91145 333 10275 20179 30016 59002 70000;","Q01  00002PRCP24"
"76458099999","2001-12-09T15:00:00","4","23.2","-106.4166666","4.0","COLONIA JUAN CARRASCO MAZATLAN SIN., MX","FM-12","99999","V020","340,1,N,0020,1","08700,1,9,N","014000,1,N,1","+0188,1","+0163,1","10106,1","99,0000,9,1",,,"4,1,03,1","1,1,03,1","07,1,+08700,9,01,9",,,"07,99,1,00,1,00,1,99999,9,00,1,04,1",,"01,9",,,,"99999,9,10094,1","2,1,013,1,-004,1",,"05,1","SYN106AAXX  09151 76458 31964 73402 10188 20163 30094 40106 52013 70541 80004 91450 333 0/00/ 30/// 59004 87079;","Q01  00002PRCP99"
"76458099999","2001-12-09T18:00:00","4","23.2","-106.4166666","4.0","COLONIA JUAN CARRASCO MAZATLAN SIN., MX","FM-12","99999","V020","270,1,N,0020,1","08700,1,9,N","010000,1,N,1","+0253,1","+0193,1","10109,1","99,0000,9,1",,,"4,1,06,1","4,1,06,1","07,1,+08700,9,01,9",,,"07,99,1,00,1,00,1,99999,9,00,1,04,1",,"01,9",,"120,M,+0270,1","240,N,+0170,1","99999,9,10097,1","2,1,003,1,-004,1",,"05,1","SYN118AAXX  09181 76458 31960 72702 10253 20193 30097 40109 52003 70544 80004 91745 333 0/00/ 10270 20170 30/// 59004 87079;","Q01  00002PRCP99"
"76458099999","2001-12-09T21:00:00","4","23.2","-106.4166666","4.0","COLONIA JUAN CARRASCO MAZATLAN SIN., MX","FM-12","99999","V020","230,1,N,0050,1","06000,1,9,N","016000,1,N,1","+0242,1","+0190,1","10089,1","99,0000,9,1",,,,,"05,1,+06000,9,01,9",,,"05,99,1,00,1,00,1,99999,9,00,1,04,1",,"01,9",,,,"99999,9,10078,1","7,1,019,1,+004,1",,,"SYN100AAXX  09211 76458 32566 52305 10242 20190 30078 40089 57019 80004 92050 333 30/// 56/0/ 58004 85070;","Q01+008002SCOLCBQ02  00002PRCP99"
"76458099999","2001-12-10T00:00:00","4","23.2","-106.4166666","4.0","COLONIA JUAN CARRASCO MAZATLAN SIN., MX","FM-12","99999","V020","280,1,N,0050,1","22000,1,9,N","016000,1,N,1","+0242,1","+0190,1","10084,1","24,0000,9,1",,,,,"01,1,+00660,9,08,9",,,"06,99,1,01,1,08,1,00800,1,00,1,04,1",,"01,9",,"120,M,+0270,1","180,N,+0168,1","99999,9,10073,1","5,1,005,1,-003,1",,,"SYN130AAXX  10001 76458 32566 62805 10242 20190 30073 40084 55005 81804 92340 333 10270 20168 30/// 50200 56/2/ 59003 70000 81822 85070;","Q01  00002PRCP99Q02  00003PRCP99"
"76458099999","2001-12-10T09:00:00","4","23.2","-106.4166666","4.0","COLONIA JUAN CARRASCO MAZATLAN SIN., MX","FM-12","99999","V020","999,9,C,0000,1","22000,1,9,N","010000,1,N,1","+0195,1","+0172,1","10092,1","99,0000,9,1",,,,,"00,1,+99999,9,99,9",,,"00,99,1,00,1,00,1,99999,9,00,1,00,1",,"01,9",,,,"99999,9,10081,1","7,1,009,1,-005,1",,,"SYN082AAXX  10091 76458 32960 00000 10195 20172 30081 40092 57009 90845 333 30/// 59005;","Q01  00002PRCP99"
"76458099999","2001-12-10T12:00:00","4","23.2","-106.4166666","4.0","COLONIA JUAN CARRASCO MAZATLAN SIN., MX","FM-12","99999","V020","999,9,C,0000,1","22000,1,9,N","010000,1,N,1","+0198,1","+0172,1","10091,1","24,0000,9,1",,,,,"03,1,+03600,9,07,9",,,"03,99,1,03,1,00,1,02250,1,03,1,00,1",,"01,9","999,+0170,9","999,M,+0270,1","120,N,+0182,1","99999,9,10079,1","7,1,002,1,-002,1",,,"SYN118AAXX  10121 76458 32860 30000 10198 20172 30079 40091 57002 83030 91140 333 10270 20182 30017 56/9/ 59002 70000 83362;",
"76458099999","2001-12-10T15:00:00","4","23.2","-106.4166666","4.0","COLONIA JUAN CARRASCO MAZATLAN SIN., MX","FM-12","99999","V020","140,1,N,0010,1","02400,1,9,N","005000,1,N,1","+0220,1","+0197,1","10110,1","99,0000,9,1",,,"4,1,03,1","1,1,03,1","07,1,+02400,9,07,9",,,"07,99,1,07,1,99,9,99999,9,05,1,00,1",,"01,9",,,,"99999,9,10098,1","1,1,019,1,+004,1",,"05,1","SYN106AAXX  10151 76458 31950 71401 10220 20197 30098 40110 51019 70541 87050 91455 333 30/// 56/0/ 58004 87358;","Q01  00002PRCP99Q02    003SCOLCG"
"76458099999","2001-12-10T18:00:00","4","23.2","-106.4166666","4.0","COLONIA JUAN CARRASCO MAZATLAN SIN., MX","FM-12","99999","V020","150,1,N,0030,1","02400,1,9,N","012000,1,N,1","+0253,1","+0210,1","10118,1","99,0000,9,1",,,,,"07,1,+02400,9,07,9",,,"07,99,1,07,1,99,9,99999,9,08,1,00,1",,"01,9",,"120,M,+0265,1","240,N,+0182,1","99999,9,10106,1","1,1,008,1,+009,1",,,"SYN112AAXX  10181 76458 32962 71503 10253 20210 30106 40118 51008 87080 91755 333 10265 20182 30/// 56/0/ 58009 87358;","Q01  00002PRCP99Q02    003SCOLCG"
"76458099999","2001-12-10T21:00:00","4","23.2","-106.4166666","4.0","COLONIA JUAN CARRASCO MAZATLAN SIN., MX","FM-12","99999","V020","160,1,N,0030,1","02400,1,9,N","014000,1,N,1","+0250,1","+0217,1","10102,1","99,0000,9,1",,,,,"07,1,+02400,9,07,9",,,"07,99,1,07,1,99,9,00450,1,06,1,00,1",,"01,9",,,,"99999,9,10091,1","7,1,015,1,+013,1",,,"SYN100AAXX  10211 76458 32464 71603 10250 20217 30091 40102 57015 87060 92045 333 30/// 56/0/ 58013 87358;","Q01  00002PRCP99Q02    003SCOLCG"
"76458099999","2001-12-11T09:00:00","4","23.2","-106.4166666","4.0","COLONIA JUAN CARRASCO MAZATLAN SIN., MX","FM-12","99999","V020","090,1,N,0020,1","04200,1,9,N","012000,1,N,1","+0222,1","+0190,1","10112,1","99,0000,2,1",,,"5,1,03,1","5,1,03,1","08,1,+04200,9,01,9",,,"08,99,1,08,1,00,1,99999,9,02,1,99,9",,"01,9",,,,"99999,9,10100,1","7,1,009,1,+020,1",,"51,1","SYN106AAXX  11091 76458 31962 80902 10222 20190 30100 40112 57009 75155 88020 90845 333 0/0/0 30/// 58020 88464;","Q01+000002SCOHCG"
"76458099999","2001-12-11T15:00:00","4","23.2","-106.4166666","4.0","COLONIA JUAN CARRASCO MAZATLAN SIN., MX","FM-12","99999","V020","090,1,N,0040,1","00480,1,9,N","015000,1,N,1","+0209,1","+0171,1","10126,1","06,0020,9,1",,,"5,1,03,1","5,1,03,1","05,1,+00480,9,06,9",,,"08,99,1,05,1,04,1,00450,1,02,1,00,1",,"09,9",,,,"99999,9,10111,1","2,1,010,1,+013,1",,"02,1","SYN118AAXX  11151 76458 21465 80904 10209 20171 30111 40126 52010 70255 85420 91450 333 31/// 5649/ 58013 60021 85616 83462;",
"76458099999","2001-12-11T21:00:00","4","23.2","-106.4166666","4.0","COLONIA JUAN CARRASCO MAZATLAN SIN., MX","FM-12","99999","V020","120,1,N,0040,1","03600,1,C,N","018000,1,N,1","+0214,1","+0172,1","10131,1","02,0009,9,1",,,,,"02,1,+00510,9,06,9",,,"08,99,1,02,1,05,1,00800,1,07,1,99,9",,"09,9",,,,"99999,9,10119,1","8,1,009,1,+028,1",,,"SYN112AAXX  11211 76458 22568 81204 10214 20172 30119 40131 58009 8257/ 92050 333 31/// 56/// 58028 69996 82617 86358;",
"76458099999","2001-12-12T00:00:00","4","23.2","-106.4166666","4.0","COLONIA JUAN CARRASCO MAZATLAN SIN., MX","FM-12","99999","V020","100,1,N,0030,1","00540,1,C,N","018000,1,N,1","+0214,1","+0172,1","10129,1","24,0002,9,1","99,0000,9,1",,,,"06,1,+00540,9,06,9",,,"08,99,1,06,1,04,1,00800,1,07,1,99,9",,"09,9",,"120,M,+0225,1","180,N,+0195,1","99999,9,10117,1","6,1,002,1,+024,1",,,"SYN130AAXX  12001 76458 32568 81003 10214 20172 30117 40129 56002 8647/ 92340 333 10225 20195 31/// 50171 56/4/ 58024 70002 86618 82458;","Q01  00002PRCP99"
"76458099999","2001-12-12T06:00:00","4","23.2","-106.4166666","4.0","COLONIA JUAN CARRASCO MAZATLAN SIN., MX","FM-12","99999","V020","070,1,N,0010,1","02400,1,9,N","010000,1,N,1","+0200,1","+0187,1","10153,1","99,0000,9,1",,,,,"08,1,+02400,9,07,9",,,"08,99,1,08,1,99,9,99999,9,03,1,00,1",,"01,9",,"240,M,+0277,1","240,N,+0182,1","99999,9,10142,1","2,1,009,1,+032,1",,,"SYN112AAXX  12061 76458 32960 80701 10200 20187 30142 40153 52009 88030 90540 333 10277 20182 30/// 55/// 58032 88358;","Q01  00002PRCP99Q02    003SCOLCG"
"76458099999","2001-12-12T15:00:00","4","23.2","-106.4166666","4.0","COLONIA JUAN CARRASCO MAZATLAN SIN., MX","FM-12","99999","V020","360,1,N,0010,1","02400,1,9,N","015000,1,N,1","+0198,1","+0170,1","10160,1","99,0000,9,1",,,,,"08,1,+02400,9,07,9",,,"08,99,1,08,1,99,9,99999,9,05,1,00,1",,"01,9",,,,"99999,9,10149,1","1,1,013,1,+038,1",,,"SYN100AAXX  12151 76458 32965 83601 10198 20170 30149 40160 51013 88050 91450 333 30/// 56/0/ 58038 88358;","Q01  00002PRCP99Q02    003SCOLCG"
"76458099999","2001-12-12T18:00:00","4","23.2","-106.4166666","4.0","COLONIA JUAN CARRASCO MAZATLAN SIN., MX","FM-12","99999","V020","270,1,N,0020,1","02400,1,9,N","015000,1,N,1","+0244,1","+0185,1","10158,1","99,0000,9,1",,,,,"07,1,+02400,9,07,9",,,"07,99,1,07,1,99,9,99999,9,07,1,00,1",,"01,9",,"120,M,+0251,1","240,N,+0190,1","99999,9,10147,1","3,1,002,1,+019,1",,,"SYN112AAXX  12181 76458 32965 72702 10244 20185 30147 40158 53002 87070 91750 333 10251 20190 30/// 56/0/ 58019 87358;","Q01  00002PRCP99Q02    003SCOLCG"
"76458099999","2001-12-12T21:00:00","4","23.2","-106.4166666","4.0","COLONIA JUAN CARRASCO MAZATLAN SIN., MX","FM-12","99999","V020","290,1,N,0040,1","09000,1,C,N","018000,1,N,1","+0239,1","+0177,1","10145,1","99,0000,9,1",,,,,"02,1,+03600,9,03,9",,,"08,99,1,02,1,00,1,02250,1,03,1,08,1",,"01,9",,,,"99999,9,10134,1","6,1,013,1,+015,1",,,"SYN106AAXX  12211 76458 32868 82904 10239 20177 30134 40145 56013 82038 92045 333 30/// 56/99 58015 82362 86268;","Q01  00002PRCP99"
"76458099999","2001-12-13T00:00:00","4","23.2","-106.4166666","4.0","COLONIA JUAN CARRASCO MAZATLAN SIN., MX","FM-12","99999","V020","290,1,N,0030,1","09000,1,9,N","018000,1,N,1","+0229,1","+0183,1","10139,1","24,0000,9,1",,,,,"02,1,+03600,9,03,9",,,"08,99,1,02,1,00,1,02250,1,03,1,08,1",,"01,9",,"120,M,+0255,1","180,N,+0190,1","99999,9,10128,1","5,1,006,1,+011,1",,,"SYN130AAXX  13001 76458 32868 82903 10229 20183 30128 40139 55006 82038 92345 333 10255 20190 30/// 50011 56/9/ 58011 79999 82362 86268;","Q01  00002PRCP24"
"76458099999","2001-12-13T09:00:00","4","23.2","-106.4166666","4.0","COLONIA JUAN CARRASCO MAZATLAN SIN., MX","FM-12","99999","V020","310,1,N,0030,1","02700,1,9,N","012000,1,N,1","+0185,1","+0156,1","10186,1","99,0000,9,1",,,,,"05,1,+02700,9,03,9",,,"06,99,1,05,1,00,1,99999,9,03,1,02,1",,"01,9",,,,"99999,9,10154,1","0,1,999,9,+019,1",,,"SYN106AAXX  13091 76458 32962 63103 10185 20156 30154 40186 50/// 85032 90845 333 0/0// 30/// 58019 85359 81079;","Q01  00002PRCP99"
"76458099999","2001-12-13T12:00:00","4","23.2","-106.4166666","4.0","COLONIA JUAN CARRASCO MAZATLAN SIN., MX","FM-12","99999","V020","340,1,N,0030,1","22000,1,9,N","012000,1,N,1","+0172,1","+0145,1","10152,1","24,0000,9,1",,,,,"00,1,+99999,9,99,9",,,"00,99,1,00,1,00,1,99999,9,00,1,00,1",,"01,9","999,+0150,9","999,M,+0255,1","120,N,+0160,1","99999,9,10141,1","7,1,014,1,+007,1",,,"SYN100AAXX  13121 76458 32962 03403 10172 20145 30141 40152 57014 91155 333 10255 20160 30015 58007 70000;","Q01  00002PRCP24"
"76458099999","2001-12-13T15:00:00","4","23.2","-106.4166666","4.0","COLONIA JUAN CARRASCO MAZATLAN SIN., MX","FM-12","99999","V020","340,1,N,0020,1","05400,1,9,N","018000,1,N,1","+0182,1","+0146,1","10151,1","99,0000,9,1",,,,,"05,1,+05400,9,01,9",,,"05,99,1,00,1,00,1,99999,9,00,1,03,1",,"01,9",,,,"99999,9,10140,1","7,1,001,1,-001,1",,,"SYN100AAXX  13151 76458 32968 53402 10182 20146 30140 40151 57001 80003 91445 333 30/// 56//9 59001 85068;","Q01  00002PRCP99"
"76458099999","2001-12-13T21:00:00","4","23.2","-106.4166666","4.0","COLONIA JUAN CARRASCO MAZATLAN SIN., MX","FM-12","99999","V020","270,1,N,0060,1","22000,1,9,N","020000,1,N,1","+0230,1","+0170,1","10119,1","99,0000,9,1",,,,,"04,1,+06000,9,01,9",,,"04,99,1,00,1,00,1,99999,9,00,1,08,1",,"01,9",,,,"99999,9,10108,1","7,1,032,1,-026,1",,,"SYN100AAXX  13211 76458 32570 42706 10230 20170 30108 40119 57032 80008 92040 333 30/// 56/// 59026 84070;","Q01+008002SCOLCBQ02  00002PRCP99"
"76458099999","2001-12-14T00:00:00","4","23.2","-106.4166666","4.0","COLONIA JUAN CARRASCO MAZATLAN SIN., MX","FM-12","99999","V020","280,1,N,0060,1","99999,9,9,N","020000,1,N,1","+0230,1","+0173,1","10115,1","24,0000,9,1",,,,,,,,"05,99,1,00,1,00,1,99999,9,00,1,08,1",,"01,9",,"120,M,+0243,1","180,N,+0151,1","99999,9,10103,1","3,1,005,1,-025,1",,,"SYN124AAXX  14001 76458 32570 52806 10230 20173 30103 40115 53005 80008 92340 333 10243 20151 30/// 50280 56/// 59025 70000 85070;","Q01+008002SCOLCBQ02  00002PRCP99Q03  00003PRCP99"
"76458099999","2001-12-14T03:00:00","4","23.2","-106.4166666","4.0","COLONIA JUAN CARRASCO MAZATLAN SIN., MX","FM-12","99999","V020","310,1,N,0010,1","22000,1,9,N","010000,1,N,1","+0200,1","+0166,1","10109,1","99,0000,9,1",,,,,"00,1,+99999,9,99,9",,,"00,99,1,00,1,00,1,99999,9,00,1,00,1",,"01,9",,,,"99999,9,10098,1","7,1,006,1,+999,9",,,"SYN082AAXX  14031 76458 32960 03101 10200 20166 30098 40109 57006 90245 333 30/// 59///;","Q01  00002PRCP99"
"76458099999","2001-12-14T06:00:00","4","23.2","-106.4166666","4.0","COLONIA JUAN CARRASCO MAZATLAN SIN., MX","FM-12","99999","V020","350,1,N,0020,1","22000,1,9,N","010000,1,N,1","+0188,1","+0177,1","10115,1","99,0000,9,1",,,,,"00,1,+99999,9,99,9",,,"00,99,1,00,1,00,1,99999,9,00,1,00,1","0510,9","01,9",,"240,M,+0243,1","240,N,+0151,1","99999,9,10104,1","2,1,006,1,-006,1",,,"SYN100AAXX  14061 76458 32960 03502 10188 20177 30104 40115 52006 90530 333 10243 20151 30/// 55085 59006;","Q01  00002PRCP99"
"76458099999","2001-12-14T09:00:00","4","23.2","-106.4166666","4.0","COLONIA JUAN CARRASCO MAZATLAN SIN., MX","FM-12","99999","V020","300,1,N,0200,1","22000,1,9,N","012000,1,N,1","+0154,1","+0131,1","10100,1","99,0000,9,1",,,,,"00,1,+99999,9,99,9",,,"00,99,1,00,1,00,1,99999,9,00,1,00,1",,"01,9",,,,"99999,9,10088,1","7,1,016,1,-066,1",,,"SYN082AAXX  14091 76458 32962 03020 10154 20131 30088 40100 57016 90845 333 30/// 59066;","Q01  00002PRCP99"
"76458099999","2001-12-14T12:00:00","4","23.2","-106.4166666","4.0","COLONIA JUAN CARRASCO MAZATLAN SIN., MX","FM-12","99999","V020","340,1,N,0020,1","22000,1,9,N","012000,1,N,1","+0146,1","+0122,1","10094,1","24,0000,9,1",,,,,"00,1,+99999,9,99,9",,,"00,99,1,00,1,00,1,99999,9,00,1,00,1",,"01,9","999,+0120,9","999,M,+0243,1","120,N,+0131,1","99999,9,10082,1","6,1,006,1,-058,1",,,"SYN100AAXX  14121 76458 32962 03402 10146 20122 30082 40094 56006 91145 333 10243 20131 30012 59058 70000;","Q01  00002PRCP24"
"76458099999","2001-12-14T18:00:00","4","23.2","-106.4166666","4.0","COLONIA JUAN CARRASCO MAZATLAN SIN., MX","FM-12","99999","V020","260,1,N,0020,1","99999,9,9,N","010000,1,N,1","+0216,1","+0150,1","10109,1","99,0000,9,1",,,"4,1,06,1","2,1,06,1","03,1,+02400,9,03,9",,,"06,99,1,03,1,00,1,99999,9,03,1,06,1",,"01,9",,"120,M,+0235,1","240,N,+0123,1","99999,9,10097,1","1,1,004,1,-043,1",,"04,1","SYN124AAXX  14181 76458 31960 62602 10216 20150 30097 40109 51004 70442 83036 91750 333 10235 20123 30/// 56/00 59043 83358 83270;","Q01  00002PRCP99"
"76458099999","2001-12-14T21:00:00","4","23.2","-106.4166666","4.0","COLONIA JUAN CARRASCO MAZATLAN SIN., MX","FM-12","99999","V020","280,1,N,0040,1","02400,1,9,N","012000,1,N,1","+0214,1","+0159,1","10087,1","99,0000,9,1",,,,,"05,1,+02400,9,03,9",,,"07,99,1,05,1,00,1,00800,1,06,1,08,1",,"01,9",,,,"99999,9,10076,1","7,1,021,1,-032,1",,,"SYN106AAXX  14211 76458 32562 72804 10214 20159 30076 40087 57021 85068 92045 333 30/// 56/0/ 59032 85358 82270;","Q01  00002PRCP99"
"76458099999","2001-12-15T00:00:00","4","23.2","-106.4166666","4.0","COLONIA JUAN CARRASCO MAZATLAN SIN., MX","FM-12","99999","V020","280,1,N,0040,1","00660,1,9,N","007000,1,N,1","+0208,1","+0155,1","10079,1","24,0000,9,1",,,,,"05,1,+00660,9,06,9",,,"07,99,1,05,1,99,9,00800,1,04,1,06,1",,"01,9",,"120,M,+0336,1","180,N,+0206,1","99999,9,10068,1","5,1,008,1,-035,1",,,"SYN124AAXX  15001 76458 32557 72804 10208 20155 30068 40079 55008 85046 92340 333 10336 20206 30/// 56/3/ 59035 70000 85622 82358;","Q01+000002SCOLCG"
"76458099999","2001-12-15T03:00:00","4","23.2","-106.4166666","4.0","COLONIA JUAN CARRASCO MAZATLAN SIN., MX","FM-12","99999","V020","320,1,N,0020,1","22000,1,9,N","010000,1,N,1","+0202,1","+0159,1","10107,1","99,0000,9,1",,,,,"04,1,+02400,9,07,9",,,"04,99,1,04,1,99,9,99999,9,03,1,00,1",,"01,9",,,,"99999,9,10096,1","2,1,028,1,-002,1",,,"SYN100AAXX  15031 76458 32960 43202 10202 20159 30096 40107 52028 84030 90245 333 0/090 30/// 59002 84358;","Q01  00002PRCP99Q02    003SCOLCG"
"76458099999","2001-12-15T06:00:00","4","23.2","-106.4166666","4.0","COLONIA JUAN CARRASCO MAZATLAN SIN., MX","FM-12","99999","V020","350,1,N,0010,1","22000,1,9,N","020000,1,N,1","+0194,1","+0157,1","10119,1","99,0000,9,1",,,,,"04,1,+02400,9,07,9",,,"04,99,1,04,1,99,9,99999,9,03,1,00,1","0210,9","01,9",,"240,M,+0236,1","240,N,+0123,1","99999,9,10108,1","2,1,012,1,+004,1",,,"SYN118AAXX  15061 76458 32970 43501 10194 20157 30108 40119 52012 84030 90530 333 0/090 10236 20123 30/// 55035 58004 84358;","Q01  00002PRCP99Q02    003SCOLCG"
"76458099999","2001-12-15T09:00:00","4","23.2","-106.4166666","4.0","COLONIA JUAN CARRASCO MAZATLAN SIN., MX","FM-12","99999","V020","070,1,N,0030,1","03600,1,9,N","010000,1,N,1","+0201,1","+0164,1","10113,1","01,0007,9,1",,,"0,1,03,1","0,1,03,1","08,1,+03600,9,01,9",,,"08,99,1,08,1,00,1,02250,1,02,1,99,9",,"01,9",,,,"99999,9,10102,1","8,1,006,1,+014,1",,"50,1","SYN112AAXX  15091 76458 21860 80703 10201 20164 30102 40113 58006 69905 75000 88020 90845 333 30/// 56/9/ 58014 88462;","Q01+000002SCOHCG"
"76458099999","2001-12-15T12:00:00","4","23.2","-106.4166666","4.0","COLONIA JUAN CARRASCO MAZATLAN SIN., MX","FM-12","99999","V020","090,1,N,0020,1","00240,1,9,N","010000,1,N,1","+0185,1","+0167,1","10113,1","03,9999,2,9","24,9999,2,9",,"5,1,06,1","5,1,06,1","07,1,+00240,9,05,9",,,"07,99,1,07,1,04,1,00150,1,00,1,00,1",,"09,9","999,+0170,9","999,M,+0236,1","120,N,+0179,1","99999,9,10102,1","0,1,000,1,+020,1",,"50,1","SYN136AAXX  15121 76458 /1260 70902 10185 20167 30102 40113 50000 69901 75055 87400 91145 333 10236 20179 31017 569// 58020 69907 79999 87608;",
"76458099999","2001-12-16T21:00:00","4","23.2","-106.4166666","4.0","COLONIA JUAN CARRASCO MAZATLAN SIN., MX","FM-12","99999","V020","280,1,N,0060,1","09000,1,C,N","020000,1,N,1","+0243,1","+0182,1","10131,1","99,0000,9,1",,,,,"01,1,+00750,9,08,9",,,"06,99,1,01,1,08,1,00800,1,00,1,05,1",,"01,9",,,,"99999,9,10120,1","7,1,016,1,+011,1",,,"SYN106AAXX  16211 76458 32570 62806 10243 20182 30120 40131 57016 81805 92050 333 30/// 563// 58011 81825 85070;","Q01  00002PRCP99"
"76458099999","2001-12-17T00:00:00","4","23.2","-106.4166666","4.0","COLONIA JUAN CARRASCO MAZATLAN SIN., MX","FM-12","99999","V020","320,1,N,0060,1","99999,9,9,N","020000,1,N,1","+0234,1","+0174,1","10131,1","24,0000,9,1",,,,,,,,"07,99,1,00,1,00,1,99999,9,00,1,05,1",,"01,9",,"120,M,+0260,1","180,N,+0162,1","99999,9,10119,1","5,1,001,1,+999,9",,,"SYN123AAXX  17001 76458 32570 73206 10234 20174 30119 40131 55001 80005 92340 333 10260 20162 30/// 50180 56/// 5811 70000 87070;","Q01+008002SCOLCBQ02  00002PRCP99Q03  00003PRCP99"
"76458099999","2001-12-17T12:00:00","4","23.2","-106.4166666","4.0","COLONIA JUAN CARRASCO MAZATLAN SIN., MX","FM-12","99999","V020","340,1,N,0020,1","22000,1,9,N","012000,1,N,1","+0167,1","+0150,1","10128,1","24,0000,9,1",,,,,"00,1,+99999,9,99,9",,,"00,99,1,00,1,00,1,99999,9,00,1,00,1",,"01,9","999,+0150,9","999,M,+0260,1","120,N,+0155,1","99999,9,10117,1","2,1,002,1,-001,1",,,"SYN100AAXX  17121 76458 32962 03402 10167 20150 30117 40128 52002 91140 333 10260 20155 30015 59001 70000;","Q01  00002PRCP24"
"76458099999","2001-12-17T15:00:00","4","23.2","-106.4166666","4.0","COLONIA JUAN CARRASCO MAZATLAN SIN., MX","FM-12","99999","V020","360,1,N,0020,1","99999,9,9,N","012000,1,N,1","+0180,1","+0153,1","10134,1","99,0000,9,1",,,,,"02,1,+02400,9,03,9",,,"06,99,1,02,1,00,1,99999,9,08,1,02,1",,"01,9",,,,"99999,9,10122,1","1,1,002,1,-001,1",,,"SYN106AAXX  17151 76458 32962 63602 10180 20153 30122 40134 51002 82082 91459 333 30/// 56/00 59001 82358 84070;","Q01  00002PRCP99"
"76458099999","2001-12-17T18:00:00","4","23.2","-106.4166666","4.0","COLONIA JUAN CARRASCO MAZATLAN SIN., MX","FM-12","99999","V020","290,1,N,0030,1","99999,9,9,N","015000,1,N,1","+0214,1","+0166,1","10141,1","99,0000,9,1",,,,,"02,1,+02400,9,03,9",,,"07,99,1,02,1,00,1,99999,9,03,1,02,1",,"01,9",,"120,M,+0228,1","240,N,+0146,1","99999,9,10129,1","0,1,007,1,-007,1",,,"SYN118AAXX  17181 76458 32965 72903 10214 20166 30129 40141 50007 82032 91750 333 10228 20146 30/// 56/00 59007 82358 85070;","Q01  00002PRCP99"
"76458099999","2001-12-17T21:00:00","4","23.2","-106.4166666","4.0","COLONIA JUAN CARRASCO MAZATLAN SIN., MX","FM-12","99999","V020","280,1,N,0030,1","22000,1,9,N","015000,1,N,1","+0236,1","+0166,1","10118,1","99,0000,9,1",,,,,"04,1,+06000,9,01,9",,,"04,99,1,00,1,99,9,99999,9,99,9,06,1",,"01,9",,,,"99999,9,10104,1","7,1,023,1,-014,1",,,"SYN094AAXX  17211 76458 32965 42803 10236 20166 30104 40118 57023 80//6 92045 333 30/// 59014 84070;","Q01  00002PRCP99"
"76458099999","2001-12-18T00:00:00","4","23.2","-106.4166666","4.0","COLONIA JUAN CARRASCO MAZATLAN SIN., MX","FM-12","99999","V020","300,1,N,0040,1","06000,1,9,N","020000,1,N,1","+0218,1","+0170,1","10108,1","24,0000,9,1",,,,,"06,1,+06000,9,01,9",,,"06,99,1,00,1,99,9,99999,9,99,9,06,1",,"01,9",,"120,M,+0260,1","180,N,+0146,1","99999,9,10097,1","7,1,009,1,-022,1",,,"SYN118AAXX  18001 76458 32970 63004 10218 20170 30097 40108 57009 80//6 92340 333 10260 20146 30/// 50171 59022 70000 86070;",
"76458099999","2001-12-18T03:00:00","4","23.2","-106.4166666","4.0","COLONIA JUAN CARRASCO MAZATLAN SIN., MX","FM-12","99999","V020","290,1,N,0040,1","22000,1,9,N","014000,1,N,1","+0210,1","+0172,1","10113,1","99,0000,9,1",,,,,"02,1,+06000,9,08,9",,,"02,99,1,99,9,00,1,00450,1,00,1,08,1",,"01,9",,,,"99999,9,10102,1","3,1,005,1,-012,1",,,"SYN100AAXX  18031 76458 32464 22904 10210 20172 30102 40113 53005 80008 90250 333 30/// 56/// 59012 82270;","Q01+000002SCOTLCQ02  00002PRCP99"
"76458099999","2001-12-18T06:00:00","4","23.2","-106.4166666","4.0","COLONIA JUAN CARRASCO MAZATLAN SIN., MX","FM-12","99999","V020","999,9,C,0000,1","22000,1,9,N","010000,1,N,1","+0200,1","+0176,1","10127,1","99,0000,9,1",,,,,"00,1,+99999,9,99,9",,,"00,99,1,00,1,00,1,99999,9,00,1,00,1",,"01,9",,"240,M,+0260,1","240,N,+0146,1","99999,9,10116,1","2,1,014,1,-006,1",,,"SYN100AAXX  18061 76458 32960 00000 10200 20176 30116 40127 52014 90540 333 10260 20146 30/// 56/// 59006;","Q01  00002PRCP99"
"76458099999","2001-12-18T09:00:00","4","23.2","-106.4166666","4.0","COLONIA JUAN CARRASCO MAZATLAN SIN., MX","FM-12","99999","V020","320,1,N,0040,1","22000,1,9,N","012000,1,N,1","+0181,1","+0144,1","10126,1","99,0000,9,1",,,,,"00,1,+99999,9,99,9",,,"00,99,1,00,1,00,1,99999,9,00,1,00,1",,"01,9",,,,"99999,9,10115,1","6,1,001,1,-004,1",,,"SYN082AAXX  18091 76458 32962 03204 10181 20144 30115 40126 56001 90845 333 30/// 59004;","Q01  00002PRCP99"
"76458099999","2001-12-18T12:00:00","4","23.2","-106.4166666","4.0","COLONIA JUAN CARRASCO MAZATLAN SIN., MX","FM-12","99999","V020","320,1,N,0030,1","22000,1,9,N","012000,1,N,1","+0167,1","+0142,1","10119,1","24,0000,9,1",,,,,"00,1,+99999,9,99,9",,,"00,99,1,00,1,00,1,99999,9,00,1,00,1",,"01,9","999,+0140,9","999,M,+0260,1","120,N,+0152,1","99999,9,10108,1","7,1,006,1,-008,1",,,"SYN100AAXX  18121 76458 32962 03203 10167 20142 30108 40119 57006 91145 333 10260 20152 30014 59008 70000;","Q01  00002PRCP24"
"76458099999","2001-12-18T15:00:00","4","23.2","-106.4166666","4.0","COLONIA JUAN CARRASCO MAZATLAN SIN., MX","FM-12","99999","V020","999,9,C,0000,1","99999,9,9,N","012000,1,N,1","+0180,1","+0148,1","10130,1","99,0000,9,1",,,,,"04,1,+02400,9,03,9",,,"06,99,1,04,1,00,1,99999,9,06,1,02,1",,"01,9",,,,"99999,9,10118,1","1,1,007,1,-004,1",,,"SYN106AAXX  18151 76458 32962 60000 10180 20148 30118 40130 51007 84062 91450 333 30/// 56/00 59004 84358 82070;","Q01  00002PRCP99"
"76458099999","2001-12-18T18:00:00","4","23.2","-106.4166666","4.0","COLONIA JUAN CARRASCO MAZATLAN SIN., MX","FM-12","99999","V020","260,1,N,0020,1","22000,1,9,N","015000,1,N,1","+0228,1","+0170,1","10133,1","99,0000,9,1",,,,,"02,1,+02400,9,03,9",,,"03,99,1,02,1,00,1,99999,9,03,1,09,1",,"01,9",,"120,M,+0248,1","240,N,+0146,1","99999,9,10122,1","0,1,004,1,-007,1",,,"SYN118AAXX  18181 76458 32965 32602 10228 20170 30122 40133 50004 82039 91750 333 10248 20146 30/// 56/00 59007 82358 81170;","Q01  00002PRCP99"
"76458099999","2001-12-18T21:00:00","4","23.2","-106.4166666","4.0","COLONIA JUAN CARRASCO MAZATLAN SIN., MX","FM-12","99999","V020","270,1,N,0020,1","22000,1,9,N","020000,1,N,1","+0240,1","+0172,1","10098,1","99,0000,9,1",,,,,"01,1,+03600,9,07,9",,,"01,99,1,01,1,00,1,02250,1,03,1,00,1",,"01,9",,,,"99999,9,10086,1","7,1,016,1,-020,1",,,"SYN100AAXX  18211 76458 32870 12702 10240 20172 30086 40098 57016 81030 92045 333 30/// 56/9/ 59020 81362;","Q01  00002PRCP99"
"76458099999","2001-12-19T00:00:00","4","23.2","-106.4166666","4.0","COLONIA JUAN CARRASCO MAZATLAN SIN., MX","FM-12","99999","V020","270,1,N,0030,1","22000,1,9,N","001800,1,N,1","+0231,1","+0152,1","10095,1","24,0000,9,1",,,,,"01,1,+00990,9,08,9",,,"02,99,1,01,1,01,1,00800,1,03,1,00,1",,"01,9",,"120,M,+0265,1","180,N,+0146,1","99999,9,10083,1","5,1,003,1,-014,1",,,"SYN130AAXX  19001 76458 32518 22703 10231 20152 30083 40095 55003 81130 92345 333 10265 20146 30/// 50121 5649/ 59014 70000 81833 81362;","Q01  00002PRCP99Q02  00003PRCP99"
"76458099999","2001-12-19T03:00:00","4","23.2","-106.4166666","4.0","COLONIA JUAN CARRASCO MAZATLAN SIN., MX","FM-12","99999","V020","320,1,N,0030,1","22000,1,9,N","012000,1,N,1","+0206,1","+0169,1","10104,1","99,0000,9,1",,,,,"01,1,+00420,9,08,9",,,"02,99,1,01,1,08,1,00450,1,03,1,99,9",,"01,9",,,,"99999,9,10093,1","2,1,010,1,-009,1",,,"SYN106AAXX  19031 76458 32462 23203 10206 20169 30093 40104 52010 8183/ 90250 333 30/// 563// 59009 81814 81358;","Q01  00002PRCP99"
"76458099999","2001-12-19T06:00:00","4","23.2","-106.4166666","4.0","COLONIA JUAN CARRASCO MAZATLAN SIN., MX","FM-12","99999","V020","360,1,N,0050,1","22000,1,9,N","012000,1,N,1","+0200,1","+0143,1","10114,1","99,0000,9,1",,,,,"03,1,+02400,9,07,9",,,"03,99,1,03,1,99,9,00800,1,03,1,99,9",,"01,9",,"240,M,+0265,1","240,N,+0146,1","99999,9,10103,1","2,1,010,1,-013,1",,,"SYN112AAXX  19061 76458 32562 33605 10200 20143 30103 40114 52010 8303/ 90540 333 10265 20146 30/// 56/// 59013 83358;","Q01  00002PRCP99Q02    003SCOLCG"
"76458099999","2001-12-19T09:00:00","4","23.2","-106.4166666","4.0","COLONIA JUAN CARRASCO MAZATLAN SIN., MX","FM-12","99999","V020","340,1,N,0020,1","22000,1,9,N","012000,1,N,1","+0176,1","+0147,1","10106,1","99,0000,9,1",,,,,"00,1,+99999,9,99,9",,,"00,99,1,00,1,00,1,99999,9,00,1,00,1",,"01,9",,,,"99999,9,10095,1","7,1,008,1,-020,1",,,"SYN082AAXX  19091 76458 32962 03402 10176 20147 30095 40106 57008 90845 333 30/// 59020;","Q01  00002PRCP99"
"76458099999","2001-12-19T12:00:00","4","23.2","-106.4166666","4.0","COLONIA JUAN CARRASCO MAZATLAN SIN., MX","FM-12","99999","V020","999,9,C,0000,1","22000,1,9,N","012000,1,N,1","+0172,1","+0137,1","10103,1","24,0000,9,1",,,,,"00,1,+99999,9,99,9",,,"00,99,1,00,1,00,1,99999,9,00,1,00,1",,"01,9","999,+0140,9","999,M,+0235,1","120,N,+0154,1","99999,9,10092,1","7,1,003,1,-016,1",,,"SYN100AAXX  19121 76458 32962 00000 10172 20137 30092 40103 57003 91150 333 10235 20154 30014 59016 70000;","Q01  00002PRCP24"
"76458099999","2001-12-19T15:00:00","4","23.2","-106.4166666","4.0","COLONIA JUAN CARRASCO MAZATLAN SIN., MX","FM-12","99999","V020","350,1,N,0010,1","22000,1,9,N","012000,1,N,1","+0186,1","+0141,1","10116,1","99,0000,9,1",,,,,"00,1,+99999,9,99,9",,,"00,99,1,00,1,00,1,99999,9,00,1,00,1",,"01,9",,,,"99999,9,10104,1","1,1,005,1,-014,1",,,"SYN082AAXX  19151 76458 32962 03501 10186 20141 30104 40116 51005 91455 333 30/// 59014;","Q01  00002PRCP99"
"76458099999","2001-12-19T18:00:00","4","23.2","-106.4166666","4.0","COLONIA JUAN CARRASCO MAZATLAN SIN., MX","FM-12","99999","V020","240,1,N,0020,1","22000,1,9,N","012000,1,N,1","+0244,1","+0168,1","10118,1","99,0000,9,1",,,,,"00,1,+99999,9,99,9",,,"00,99,1,00,1,00,1,99999,9,00,1,00,1",,"01,9",,"120,M,+0260,1","240,N,+0148,1","99999,9,10106,1","1,1,002,1,-016,1",,,"SYN094AAXX  19181 76458 32962 02402 10244 20168 30106 40118 51002 91450 333 10260 20148 30/// 59016;","Q01  00002PRCP99"
"76458099999","2001-12-19T21:00:00","4","23.2","-106.4166666","4.0","COLONIA JUAN CARRASCO MAZATLAN SIN., MX","FM-12","99999","V020","290,1,N,0030,1","22000,1,9,N","015000,1,N,1","+0233,1","+0159,1","10093,1","99,0000,9,1",,,,,"01,1,+03600,9,07,9",,,"01,99,1,01,1,00,1,02250,1,03,1,00,1",,"01,9",,,,"99999,9,10081,1","7,1,026,1,-005,1",,,"SYN100AAXX  19211 76458 32865 12903 10233 20159 30081 40093 57026 81030 92045 333 30/// 56/9/ 59005 81362;","Q01  00002PRCP99"
"76458099999","2001-12-20T00:00:00","4","23.2","-106.4166666","4.0","COLONIA JUAN CARRASCO MAZATLAN SIN., MX","FM-12","99999","V020","270,1,N,0040,1","22000,1,9,N","018000,1,N,1","+0227,1","+0165,1","10089,1","24,0000,9,1",,,,,,,,"01,99,1,01,1,00,1,02250,1,03,1,00,1",,"01,9",,"120,M,+0261,1","180,N,+0148,1","99999,9,10078,1","7,1,003,1,-005,1",,,"SYN124AAXX  20001 76458 32868 12704 10227 20165 30078 40089 57003 81030 92345 333 10261 20148 30/// 50391 56/9/ 59005 70000 81362;","Q01  00002PRCP99Q02  00003PRCP99"
"76458099999","2001-12-20T03:00:00","4","23.2","-106.4166666","4.0","COLONIA JUAN CARRASCO MAZATLAN SIN., MX","FM-12","99999","V020","310,1,N,0020,1","22000,1,9,N","008000,1,N,1","+0208,1","+0178,1","10119,1","99,0000,9,1",,,,,"00,1,+99999,9,99,9",,,"00,99,1,00,1,00,1,99999,9,00,1,00,1",,"01,9",,,,"99999,9,10108,1","2,1,031,1,+015,1",,,"SYN082AAXX  20031 76458 32958 03102 10208 20178 30108 40119 52031 90245 333 30/// 58015;","Q01  00002PRCP99"
"76458099999","2001-12-20T06:00:00","4","23.2","-106.4166666","4.0","COLONIA JUAN CARRASCO MAZATLAN SIN., MX","FM-12","99999","V020","999,9,C,0000,1","22000,1,9,N","008000,1,N,1","+0198,1","+0177,1","10131,1","99,0000,9,1",,,,,"00,1,+99999,9,99,9",,,"00,99,1,00,1,00,1,99999,9,00,1,00,1","0570,9","01,9",,"240,M,+0261,1","240,N,+0148,1","99999,9,10120,1","1,1,012,1,+017,1",,,"SYN100AAXX  20061 76458 32958 00000 10198 20177 30120 40131 51012 90530 333 10261 20148 30/// 55095 58017;","Q01  00002PRCP99"
"76458099999","2001-12-20T09:00:00","4","23.2","-106.4166666","4.0","COLONIA JUAN CARRASCO MAZATLAN SIN., MX","FM-12","99999","V020","050,1,N,0020,1","22000,1,9,N","010000,1,N,1","+0182,1","+0172,1","10134,1","99,0000,9,1",,,,,"00,1,+99999,9,99,9",,,"00,99,1,00,1,00,1,99999,9,00,1,00,1",,"01,9",,,,"99999,9,10123,1","3,1,003,1,+028,1",,,"SYN082AAXX  20091 76458 32960 00502 10182 20172 30123 40134 53003 90845 333 30/// 58028;","Q01  00002PRCP99"
"76458099999","2001-12-20T12:00:00","4","23.2","-106.4166666","4.0","COLONIA JUAN CARRASCO MAZATLAN SIN., MX","FM-12","99999","V020","999,9,C,0000,1","22000,1,9,N","010000,1,N,1","+0169,1","+0142,1","10135,1","24,0000,9,1",,,,,"00,1,+99999,9,99,9",,,"00,99,1,00,1,00,1,99999,9,00,1,00,1",,"01,9","999,+0140,9","999,M,+0261,1","120,N,+0158,1","99999,9,10123,1","4,1,000,1,+032,1",,,"SYN100AAXX  20121 76458 32960 00000 10169 20142 30123 40135 54000 91145 333 10261 20158 30014 58032 70000;","Q01  00002PRCP24"
"76458099999","2001-12-20T15:00:00","4","23.2","-106.4166666","4.0","COLONIA JUAN CARRASCO MAZATLAN SIN., MX","FM-12","99999","V020","999,9,C,0000,1","22000,1,9,N","008000,1,N,1","+0172,1","+9999,9","10150,1","99,0000,9,1",,,,,"00,1,+99999,9,99,9",,,"00,99,1,00,1,00,1,99999,9,00,1,00,1",,"01,9",,,,"99999,9,10138,1","2,1,015,1,+034,1",,,"SYN076AAXX  20151 76458 32958 00000 10172 30138 40150 52015 91445 333 30/// 58034;","Q01  00002PRCP99"
"76458099999","2001-12-20T18:00:00","4","23.2","-106.4166666","4.0","COLONIA JUAN CARRASCO MAZATLAN SIN., MX","FM-12","99999","V020","270,1,N,0030,1","22000,1,9,N","008000,1,N,1","+0246,1","+0174,1","10162,1","99,0000,9,1",,,,,"00,1,+99999,9,99,9",,,"00,99,1,00,1,00,1,99999,9,00,1,00,1",,"01,9",,"120,M,+0270,1","240,N,+0148,1","99999,9,10150,1","0,1,012,1,+044,1",,,"SYN094AAXX  20181 76458 32958 02703 10246 20174 30150 40162 50012 91745 333 10270 20148 30/// 58044;","Q01  00002PRCP99"
"76458099999","2001-12-20T21:00:00","4","23.2","-106.4166666","4.0","COLONIA JUAN CARRASCO MAZATLAN SIN., MX","FM-12","99999","V020","270,1,N,0040,1","22000,1,9,N","018000,1,N,1","+0233,1","+0168,1","10138,1","99,0000,9,1",,,,,"00,1,+99999,9,99,9",,,"00,99,1,00,1,00,1,99999,9,00,1,00,1",,"01,9",,,,"99999,9,10126,1","7,1,024,1,+045,1",,,"SYN082AAXX  20211 76458 32968 02704 10233 20168 30126 40138 57024 92045 333 30/// 58045;","Q01  00002PRCP99"
"76458099999","2001-12-21T00:00:00","4","23.2","-106.4166666","4.0","COLONIA JUAN CARRASCO MAZATLAN SIN., MX","FM-12","99999","V020","290,1,N,0030,1","22000,1,9,N","020000,1,N,1","+0244,1","+0162,1","10135,1","24,0000,9,1",,,,,"00,1,+99999,9,99,9",,,"00,99,1,00,1,00,1,99999,9,00,1,00,1",,"01,9",,"120,M,+0253,1","180,N,+0148,1","99999,9,10123,1","7,1,003,1,+045,1",,,"SYN106AAXX  21001 76458 32970 02903 10244 20162 30123 40135 57003 92345 333 10253 20148 30/// 50421 58045 70000;","Q01  00002PRCP24"
"76458099999","2001-12-21T06:00:00","4","23.2","-106.4166666","4.0","COLONIA JUAN CARRASCO MAZATLAN SIN., MX","FM-12","99999","V020","999,9,C,0000,1","22000,1,9,N","010000,1,N,1","+0200,1","+0139,1","10156,1","99,0000,9,1",,,,,"00,1,+99999,9,99,9",,,"00,99,1,00,1,00,1,99999,9,00,1,00,1",,"01,9",,"240,M,+0253,1","240,N,+0148,1","99999,9,10141,1","2,1,007,1,+021,1",,,"SYN100AAXX  21061 76458 32060 00000 10200 20139 30141 40156 52007 90540 333 10253 20148 30/// 56/// 58021;","Q01  00002PRCP99"
"76458099999","2001-12-21T09:00:00","4","23.2","-106.4166666","4.0","COLONIA JUAN CARRASCO MAZATLAN SIN., MX","FM-12","99999","V020","999,9,C,0000,1","22000,1,9,N","012000,1,N,1","+0182,1","+0157,1","10146,1","99,0000,9,1",,,,,"00,1,+99999,9,99,9",,,"00,99,1,00,1,00,1,99999,9,00,1,00,1",,"01,9",,,,"99999,9,10134,1","7,1,011,1,+011,1",,,"SYN082AAXX  21091 76458 32962 00000 10182 20157 30134 40146 57011 90850 333 30/// 58011;","Q01  00002PRCP99"
"76458099999","2001-12-21T12:00:00","4","23.2","-106.4166666","4.0","COLONIA JUAN CARRASCO MAZATLAN SIN., MX","FM-12","99999","V020","320,1,N,0020,1","02700,1,9,N","012000,1,N,1","+0175,1","+0143,1","10140,1","24,0000,9,1",,,,,"06,1,+02700,9,07,9",,,"06,99,1,06,1,00,1,99999,9,03,1,00,1",,"01,9","999,+0140,9","999,M,+0252,1","120,N,+0160,1","99999,9,10129,1","7,1,005,1,+005,1",,,"SYN118AAXX  21121 76458 32962 63202 10175 20143 30129 40140 57005 86030 91140 333 0/030 10252 20160 30014 58005 70000 86359;",
"76458099999","2001-12-21T18:00:00","4","23.2","-106.4166666","4.0","COLONIA JUAN CARRASCO MAZATLAN SIN., MX","FM-12","99999","V020","260,1,N,0020,1","22000,1,9,N","008000,1,N,1","+0237,1","+0175,1","10160,1","99,0000,9,1",,,"4,1,06,1","2,1,06,1","03,1,+02400,9,07,9",,,"03,99,1,03,1,99,9,99999,9,03,1,00,1",,"01,9",,"120,M,+0257,1","240,N,+0160,1","99999,9,10149,1","1,1,005,1,-001,1",,"04,1","SYN118AAXX  21181 76458 31958 32602 10237 20175 30149 40160 51005 70442 83030 91750 333 10257 20160 30/// 56/0/ 59001 83358;","Q01  00002PRCP99Q02    003SCOLCG"
"76458099999","2001-12-22T00:00:00","4","23.2","-106.4166666","4.0","COLONIA JUAN CARRASCO MAZATLAN SIN., MX","FM-12","99999","V020","300,1,N,0040,1","22000,1,9,N","020000,1,N,1","+0241,1","+0149,1","10122,1","24,0000,9,1",,,,,"00,1,+99999,9,99,9",,,"00,99,1,00,1,00,1,99999,9,00,1,00,1",,"01,9",,"120,M,+0276,1","180,N,+0160,1","99999,9,10111,1","7,1,008,1,-012,1",,,"SYN106AAXX  22001 76458 32970 03004 10241 20149 30111 40122 57008 92340 333 10276 20160 30/// 50271 59012 70000;","Q01  00002PRCP24"
"76458099999","2001-12-22T03:00:00","4","23.2","-106.4166666","4.0","COLONIA JUAN CARRASCO MAZATLAN SIN., MX","FM-12","99999","V020","999,9,C,0000,1","22000,1,9,N","014000,1,N,1","+0216,1","+0157,1","10125,1","99,0000,9,1",,,,,"00,1,+99999,9,99,9",,,"00,99,1,00,1,00,1,99999,9,00,1,00,1",,"01,9",,,,"99999,9,10114,1","3,1,003,1,-020,1",,,"SYN088AAXX  22030 76458 32064 00000 10216 20157 30114 40125 53003 90240 333 30/// 56/// 59020;","Q01  00002PRCP99"
"76458099999","2001-12-22T06:00:00","4","23.2","-106.4166666","4.0","COLONIA JUAN CARRASCO MAZATLAN SIN., MX","FM-12","99999","V020","999,9,C,0000,1","22000,1,9,N","010000,1,N,1","+0202,1","+0155,1","10129,1","99,0000,9,1",,,,,"00,1,+99999,9,99,9",,,"00,99,1,00,1,00,1,99999,9,00,1,00,1",,"01,9",,"240,M,+0276,1","240,N,+0165,1","99999,9,10118,1","2,1,004,1,-023,1",,,"SYN100AAXX  22061 76458 32060 00000 10202 20155 30118 40129 52004 90540 333 10276 20165 30/// 56/// 59023;","Q01  00002PRCP99"
"76458099999","2001-12-22T09:00:00","4","23.2","-106.4166666","4.0","COLONIA JUAN CARRASCO MAZATLAN SIN., MX","FM-12","99999","V020","330,1,N,0020,1","22000,1,9,N","008000,1,N,1","+0186,1","+0148,1","10131,1","99,0000,9,1",,,,,"00,1,+99999,9,99,9",,,"00,99,1,00,1,00,1,99999,9,00,1,00,1",,"01,9",,,,"99999,9,10120,1","0,1,002,1,-014,1",,,"SYN082AAXX  22091 76458 32958 03302 10186 20148 30120 40131 50002 90845 333 30/// 59014;","Q01  00002PRCP99"
"76458099999","2001-12-22T18:00:00","4","23.2","-106.4166666","4.0","COLONIA JUAN CARRASCO MAZATLAN SIN., MX","FM-12","99999","V020","290,1,N,0040,1","22000,1,9,N","012000,1,N,1","+0225,1","+0167,1","10154,1","99,0000,9,1",,,,,"04,1,+05400,9,08,9",,,"04,99,1,99,9,00,1,99999,9,00,1,08,1",,"01,9",,"120,M,+0245,1","240,N,+0151,1","99999,9,10142,1","0,1,005,1,-007,1",,,"SYN112AAXX  22180 76458 32962 42904 10225 20167 30142 40154 50005 80008 91745 333 10245 20151 30/// 56//9 59007 84268;","Q01+000002SCOTLCQ02  00002PRCP99"
"76458099999","2001-12-22T21:00:00","4","23.2","-106.4166666","4.0","COLONIA JUAN CARRASCO MAZATLAN SIN., MX","FM-12","99999","V020","350,1,N,0050,1","06000,1,9,N","015000,1,N,1","+0230,1","+0176,1","10128,1","99,0000,9,1",,,,,"05,1,+06000,9,01,9",,,"05,99,1,00,1,99,9,99999,9,99,9,06,1",,"01,9",,,,"99999,9,10117,1","7,1,025,1,-002,1",,,"SYN094AAXX  22211 76458 32965 53505 10230 20176 30117 40128 57025 80//6 92045 333 30/// 59002 85070;","Q01  00002PRCP99"
"76458099999","2001-12-23T00:00:00","4","23.2","-106.4166666","4.0","COLONIA JUAN CARRASCO MAZATLAN SIN., MX","FM-12","99999","V020","320,1,N,0050,1","22000,1,9,N","015000,1,N,1","+0216,1","+0161,1","10124,1","24,0000,9,1",,,,,"01,1,+01800,9,03,9",,,"02,99,1,01,1,99,9,02250,1,03,1,02,1",,"01,9",,"120,M,+0246,1","180,N,+0151,1","99999,9,10112,1","6,1,005,1,+001,1",,,"SYN124AAXX  23001 76458 32865 23205 10216 20161 30112 40124 56005 81/32 92340 333 10246 20151 30/// 50271 58001 70000 81356 81070;",
"76458099999","2001-12-23T03:00:00","4","23.2","-106.4166666","4.0","COLONIA JUAN CARRASCO MAZATLAN SIN., MX","FM-12","99999","V020","280,1,N,0030,1","22000,1,9,N","010000,1,N,1","+0200,1","+0160,1","10131,1","99,0000,9,1",,,,,"02,1,+02400,9,07,9",,,"02,99,1,02,1,99,9,99999,9,03,1,01,1",,"01,9",,,,"99999,9,10120,1","2,1,007,1,-006,1",,,"SYN100AAXX  23031 76458 32960 22803 10200 20160 30120 40131 52007 82031 90245 333 30/// 56/// 59006 82358;","Q01  00002PRCP99Q02    003SCOLCG"
"76458099999","2001-12-23T06:00:00","4","23.2","-106.4166666","4.0","COLONIA JUAN CARRASCO MAZATLAN SIN., MX","FM-12","99999","V020","999,9,C,0000,1","22000,1,9,N","010000,1,N,1","+0204,1","+0161,1","10136,1","99,0000,9,1",,,,,"00,1,+99999,9,99,9",,,"00,99,1,00,1,00,1,99999,9,00,1,00,1",,"01,9",,"240,M,+0246,1","240,N,+0158,1","99999,9,10125,1","0,1,005,1,+007,1",,,"SYN100AAXX  23061 76458 32060 00000 10204 20161 30125 40136 50005 90540 333 10246 20158 30/// 56/// 58007;","Q01  00002PRCP99"
"76458099999","2001-12-23T12:00:00","4","23.2","-106.4166666","4.0","COLONIA JUAN CARRASCO MAZATLAN SIN., MX","FM-12","99999","V020","340,1,N,0020,1","22000,1,9,N","012000,1,N,1","+0156,1","+0128,1","10127,1","24,0000,9,1",,,,,"00,1,+99999,9,99,9",,,"00,99,1,00,1,00,1,99999,9,00,1,00,1",,"01,9","999,+0130,9","999,M,+0246,1","120,N,+0141,1","99999,9,10116,1","6,1,010,1,+000,1",,,"SYN100AAXX  23121 76458 32962 03402 10156 20128 30116 40127 56010 91145 333 10246 20141 30013 58000 70000;","Q01  00002PRCP24"
"76458099999","2001-12-23T18:00:00","4","23.2","-106.4166666","4.0","COLONIA JUAN CARRASCO MAZATLAN SIN., MX","FM-12","99999","V020","240,1,N,0020,1","06000,1,9,N","008000,1,N,1","+0202,1","+0159,1","10153,1","99,0000,9,1",,,,,"07,1,+06000,9,01,9",,,"07,99,1,00,1,00,1,99999,9,00,1,06,1",,"01,9",,"120,M,+0218,1","240,N,+0130,1","99999,9,10142,1","2,1,010,1,+000,1",,,"SYN106AAXX  23181 76458 32958 72402 10202 20159 30142 40153 52010 80006 91740 333 10218 20130 30/// 58000 87070;","Q01  00002PRCP99"
"76458099999","2001-12-23T21:00:00","4","23.2","-106.4166666","4.0","COLONIA JUAN CARRASCO MAZATLAN SIN., MX","FM-12","99999","V020","290,1,N,0030,1","05400,1,9,N","015000,1,N,1","+0216,1","+0159,1","10118,1","99,0000,9,1",,,,,"07,1,+05400,9,08,9",,,"07,99,1,99,9,00,1,99999,9,00,1,08,1",,"01,9",,,,"99999,9,10106,1","7,1,036,1,-011,1",,,"SYN100AAXX  23211 76458 32965 72903 10216 20159 30106 40118 57036 80008 92045 333 30/// 56//9 59011 87268;","Q01+000002SCOTLCQ02  00002PRCP99"
"76458099999","2001-12-24T00:00:00","4","23.2","-106.4166666","4.0","COLONIA JUAN CARRASCO MAZATLAN SIN., MX","FM-12","99999","V020","290,1,N,0040,1","99999,9,9,N","015000,1,N,1","+0201,1","+0137,1","10118,1","24,0000,9,1",,,,,,,,"08,99,1,00,1,00,1,99999,9,00,1,08,1",,"01,9",,"120,M,+0232,1","180,N,+0130,1","99999,9,10107,1","3,1,001,1,-006,1",,,"SYN124AAXX  24001 76458 32965 82904 10201 20137 30107 40118 53001 80008 92340 333 10232 20130 30/// 50241 56//9 59006 70000 86268;","Q01  00002PRCP99Q02  00003PRCP99"
"76458099999","2001-12-24T09:00:00","4","23.2","-106.4166666","4.0","COLONIA JUAN CARRASCO MAZATLAN SIN., MX","FM-12","99999","V020","320,1,N,0020,1","22000,1,9,N","012000,1,N,1","+0162,1","+0135,1","10131,1","99,0000,9,1",,,,,"02,1,+08700,9,01,9",,,"02,99,1,00,1,00,1,99999,9,00,1,02,1",,"01,9",,,,"99999,9,10121,1","6,1,011,1,-002,1",,,"SYN100AAXX  24091 76458 32962 23202 10162 20135 30121 40131 56011 80002 90845 333 0/00/ 30/// 59002 82079;","Q01  00002PRCP99"
"76458099999","2001-12-24T12:00:00","4","23.2","-106.4166666","4.0","COLONIA JUAN CARRASCO MAZATLAN SIN., MX","FM-12","99999","V020","360,1,N,0020,1","22000,1,9,N","012000,1,N,1","+0150,1","+0122,1","10131,1","24,0000,9,1",,,,,"02,1,+08700,9,01,9",,,"02,99,1,00,1,00,1,99999,9,00,1,02,1",,"01,9","999,+0120,9","999,M,+0232,1","120,N,+0136,1","99999,9,10119,1","7,1,001,1,+003,1",,,"SYN118AAXX  24121 76458 32962 23602 10150 20122 30119 40131 57001 80002 91145 333 0/00/ 10232 20136 30012 58003 70000 82079;",
"76458099999","2001-12-24T15:00:00","4","23.2","-106.4166666","4.0","COLONIA JUAN CARRASCO MAZATLAN SIN., MX","FM-12","99999","V020","360,1,N,0010,1","22000,1,9,N","010000,1,N,1","+0162,1","+0129,1","10143,1","99,0000,9,1",,,,,"01,1,+02400,9,03,9",,,"02,99,1,01,1,00,1,99999,9,03,1,02,1",,"01,9",,,,"99999,9,10131,1","1,1,006,1,-001,1",,,"SYN106AAXX  24151 76458 32960 23601 10162 20129 30131 40143 51006 81032 91450 333 30/// 56/00 59001 81358 81070;","Q01  00002PRCP99"
"76458099999","2001-12-24T18:00:00","4","23.2","-106.4166666","4.0","COLONIA JUAN CARRASCO MAZATLAN SIN., MX","FM-12","99999","V020","250,1,N,0020,1","22000,1,9,N","012000,1,N,1","+0206,1","+0156,1","10142,1","99,0000,9,1",,,,,"01,1,+06000,9,01,9",,,"01,99,1,00,1,00,1,99999,9,00,1,02,1",,"01,9",,"120,M,+0245,1","240,N,+0125,1","99999,9,10130,1","0,1,001,1,-012,1",,,"SYN112AAXX  24181 76458 32962 12502 10206 20156 30130 40142 50001 80002 91750 333 10245 20125 30/// 56//0 59012 81070;","Q01  00002PRCP99"
"76458099999","2001-12-24T21:00:00","4","23.2","-106.4166666","4.0","COLONIA JUAN CARRASCO MAZATLAN SIN., MX","FM-12","99999","V020","270,1,N,0040,1","22000,1,9,N","015000,1,N,1","+0218,1","+0163,1","10126,1","99,0000,9,1",,,,,"02,1,+01800,9,07,9",,,"02,99,1,02,1,99,9,02250,1,03,1,99,9",,"01,9",,,,"99999,9,10114,1","7,1,016,1,+008,1",,,"SYN094AAXX  24211 76458 32865 22704 10218 20163 30114 40126 57016 82/3/ 92045 333 30/// 58008 82356;","Q01  00002PRCP99"
"76458099999","2001-12-25T00:00:00","4","23.2","-106.4166666","4.0","COLONIA JUAN CARRASCO MAZATLAN SIN., MX","FM-12","99999","V020","320,1,N,0050,1","22000,1,9,N","015000,1,N,1","+0212,1","+0161,1","10119,1","24,0000,9,1",,,,,"00,1,+99999,9,99,9",,,"00,99,1,00,1,00,1,99999,9,00,1,00,1",,"01,9",,"120,M,+0247,1","180,N,+0125,1","99999,9,10108,1","6,1,006,1,+001,1",,,"SYN106AAXX  25001 76458 32965 03205 10212 20161 30108 40119 56006 92340 333 10247 20125 30/// 50241 58001 70000;","Q01  00002PRCP24"
"76458099999","2001-12-25T03:00:00","4","23.2","-106.4166666","4.0","COLONIA JUAN CARRASCO MAZATLAN SIN., MX","FM-12","99999","V020","999,9,C,0000,1","22000,1,9,N","012000,1,N,1","+0186,1","+0148,1","10129,1","99,0000,9,1",,,,,"00,1,+99999,9,99,9",,,"00,99,1,00,1,00,1,99999,9,00,1,00,1",,"01,9",,,,"99999,9,10117,1","3,1,009,1,-002,1",,,"SYN088AAXX  25031 76458 32062 00000 10186 20148 30117 40129 53009 90250 333 30/// 56/// 59002;","Q01  00002PRCP99"
"76458099999","2001-12-25T06:00:00","4","23.2","-106.4166666","4.0","COLONIA JUAN CARRASCO MAZATLAN SIN., MX","FM-12","99999","V020","999,9,C,0000,1","22000,1,9,N","010000,1,N,1","+0160,1","+0141,1","10132,1","99,0000,9,1",,,,,"00,1,+99999,9,99,9",,,"00,99,1,00,1,00,1,99999,9,00,1,00,1",,"01,9",,"240,M,+0245,1","240,N,+0130,1","99999,9,10121,1","0,1,004,1,-010,1",,,"SYN094AAXX  25061 76458 32060 00000 10160 20141 30121 40132 50004 90540 333 10245 20130 30/// 59010;","Q01  00002PRCP99"
"76458099999","2001-12-25T12:00:00","4","23.2","-106.4166666","4.0","COLONIA JUAN CARRASCO MAZATLAN SIN., MX","FM-12","99999","V020","320,1,N,0020,1","22000,1,9,N","012000,1,N,1","+0128,1","+0107,1","10132,1","24,0000,9,1",,,,,"00,1,+99999,9,99,9",,,"00,99,1,00,1,00,1,99999,9,00,1,00,1",,"01,9","999,+0100,9","999,M,+0245,1","120,N,+0112,1","99999,9,10121,1","7,1,004,1,+002,1",,,"SYN100AAXX  25121 76458 32962 03202 10128 20107 30121 40132 57004 91145 333 10245 20112 30010 58002 70000;","Q01  00002PRCP24"
"76458099999","2001-12-25T18:00:00","4","23.2","-106.4166666","4.0","COLONIA JUAN CARRASCO MAZATLAN SIN., MX","FM-12","99999","V020","310,1,N,0030,1","22000,1,9,N","010000,1,N,1","+0200,1","+0120,1","10144,1","99,0000,9,1",,,,,"00,1,+99999,9,99,9",,,"00,99,1,00,1,00,1,99999,9,00,1,00,1",,"01,9",,"120,M,+0219,1","240,N,+0108,1","99999,9,10132,1","8,1,007,1,+002,1",,,"SYN094AAXX  25181 76458 32960 03103 10200 20120 30132 40144 58007 91750 333 10219 20108 30/// 58002;","Q01  00002PRCP99"
"76458099999","2001-12-25T21:00:00","4","23.2","-106.4166666","4.0","COLONIA JUAN CARRASCO MAZATLAN SIN., MX","FM-12","99999","V020","290,1,N,0040,1","22000,1,9,N","020000,1,N,1","+0210,1","+0129,1","10117,1","99,0000,9,1",,,,,"01,1,+06000,9,01,9",,,"01,99,1,00,1,00,1,99999,9,00,1,01,1",,"01,9",,,,"99999,9,10106,1","7,1,026,1,-008,1",,,"SYN100AAXX  25211 76458 32970 12904 10210 20129 30106 40117 57026 80001 92045 333 30/// 56//9 59008 81070;","Q01  00002PRCP99"
"76458099999","2001-12-26T00:00:00","4","23.2","-106.4166666","4.0","COLONIA JUAN CARRASCO MAZATLAN SIN., MX","FM-12","99999","V020","290,1,N,0040,1","22000,1,9,N","020000,1,N,1","+0206,1","+0098,1","10115,1","24,0000,9,1",,,,,"00,1,+99999,9,99,9",,,"00,99,1,00,1,00,1,99999,9,00,1,00,1",,"01,9",,"120,M,+0220,1","180,N,+0108,1","99999,9,10104,1","7,1,002,1,-004,1",,,"SYN106AAXX  26001 76458 32970 02904 10206 20098 30104 40115 57002 92345 333 10220 20108 30/// 50281 59004 70000;","Q01  00002PRCP24"
"76458099999","2001-12-26T03:00:00","4","23.2","-106.4166666","4.0","COLONIA JUAN CARRASCO MAZATLAN SIN., MX","FM-12","99999","V020","999,9,C,0000,1","22000,1,9,N","018000,1,N,1","+0172,1","+0119,1","10130,1","99,0000,9,1",,,,,"00,1,+99999,9,99,9",,,"00,99,1,00,1,00,1,99999,9,00,1,00,1",,"01,9",,,,"99999,9,10119,1","2,1,015,1,+002,1",,,"SYN088AAXX  26031 76458 32068 00000 10172 20119 30119 40130 52015 90245 333 30/// 56/// 58002;","Q01  00002PRCP99"
"76458099999","2001-12-26T06:00:00","4","23.2","-106.4166666","4.0","COLONIA JUAN CARRASCO MAZATLAN SIN., MX","FM-12","99999","V020","999,9,C,0000,1","22000,1,9,N","010000,1,N,1","+0150,1","+0119,1","10136,1","99,0000,9,1",,,,,"00,1,+99999,9,99,9",,,"00,99,1,00,1,00,1,99999,9,00,1,00,1",,"01,9",,"240,M,+0220,1","240,N,+0118,1","99999,9,10125,1","2,1,005,1,+004,1",,,"SYN100AAXX  26061 76458 32060 00000 10150 20119 30125 40136 52005 90540 333 10220 20118 30/// 56/// 58004;","Q01  00002PRCP99"
"76458099999","2001-12-26T09:00:00","4","23.2","-106.4166666","4.0","COLONIA JUAN CARRASCO MAZATLAN SIN., MX","FM-12","99999","V020","320,1,N,0020,1","22000,1,9,N","012000,1,N,1","+0128,1","+0090,1","10126,1","99,0000,9,1",,,,,"00,1,+99999,9,99,9",,,"00,99,1,00,1,00,1,99999,9,00,1,00,1",,"01,9",,,,"99999,9,10114,1","6,1,011,1,-010,1",,,"SYN082AAXX  26091 76458 32962 03202 10128 20090 30114 40126 56011 90845 333 30/// 59010;","Q01  00002PRCP99"
"76458099999","2001-12-26T12:00:00","4","23.2","-106.4166666","4.0","COLONIA JUAN CARRASCO MAZATLAN SIN., MX","FM-12","99999","V020","999,9,C,0000,1","22000,1,9,N","012000,1,N,1","+0115,1","+0087,1","10123,1","24,0000,9,1",,,,,"00,1,+99999,9,99,9",,,"00,99,1,00,1,00,1,99999,9,00,1,00,1",,"01,9","999,+0080,9","999,M,+0220,1","120,N,+0100,1","99999,9,10112,1","5,1,002,1,-009,1",,,"SYN100AAXX  26121 76458 32962 00000 10115 20087 30112 40123 55002 91145 333 10220 20100 30008 59009 70000;","Q01  00002PRCP24"
"76458099999","2001-12-26T15:00:00","4","23.2","-106.4166666","4.0","COLONIA JUAN CARRASCO MAZATLAN SIN., MX","FM-12","99999","V020","999,9,C,0000,1","22000,1,9,N","012000,1,N,1","+0142,1","+0107,1","10138,1","99,0000,9,1",,,,,"00,1,+99999,9,99,9",,,"00,99,1,00,1,00,1,99999,9,00,1,00,1",,"01,9",,,,"99999,9,10126,1","1,1,008,1,-013,1",,,"SYN082AAXX  26151 76458 32962 00000 10142 20107 30126 40138 51008 91450 333 30/// 59013;","Q01  00002PRCP99"
"76458099999","2001-12-26T18:00:00","4","23.2","-106.4166666","4.0","COLONIA JUAN CARRASCO MAZATLAN SIN., MX","FM-12","99999","V020","170,1,N,0030,1","22000,1,9,N","015000,1,N,1","+0200,1","+0114,1","10143,1","99,0000,9,1",,,,,"01,1,+06000,9,01,9",,,"01,99,1,00,1,00,1,99999,9,00,1,05,1",,"01,9",,"120,M,+0217,1","240,N,+0092,1","99999,9,10132,1","0,1,006,1,+000,1",,,"SYN112AAXX  26181 76458 32965 11703 10200 20114 30132 40143 50006 80005 91745 333 10217 20092 30/// 56//0 58000 81070;","Q01  00002PRCP99"
"76458099999","2001-12-26T21:00:00","4","23.2","-106.4166666","4.0","COLONIA JUAN CARRASCO MAZATLAN SIN., MX","FM-12","99999","V020","270,1,N,0030,1","22000,1,9,N","020000,1,N,1","+0204,1","+0137,1","10115,1","99,0000,9,1",,,,,,,,"01,99,1,00,1,00,1,99999,9,00,1,01,1",,"01,9",,,,"99999,9,10103,1","7,1,029,1,-003,1",,,"SYN099AAXX  26211 76458 32970 12703 10204 20137 30103 40115 57029 80001 9205 333 30/// 56//9 59003 81070;","Q01  00002PRCP99"
"76458099999","2001-12-27T00:00:00","4","23.2","-106.4166666","4.0","COLONIA JUAN CARRASCO MAZATLAN SIN., MX","FM-12","99999","V020","240,1,N,0030,1","22000,1,9,N","020000,1,N,1","+0210,1","+0121,1","10114,1","24,0000,9,1",,,,,,,,"02,99,1,00,1,00,1,99999,9,00,1,03,1",,"01,9",,"120,M,+0225,1","180,N,+0092,1","99999,9,10102,1","5,1,001,1,-002,1",,,"SYN124AAXX  27001 76458 32970 22403 10210 20121 30102 40114 55001 80003 92340 333 10225 20092 30/// 50251 56//9 59002 70000 82070;","Q01  00002PRCP99Q02  00003PRCP99"
"76458099999","2001-12-27T06:00:00","4","23.2","-106.4166666","4.0","COLONIA JUAN CARRASCO MAZATLAN SIN., MX","FM-12","99999","V020","999,9,C,0000,1","22000,1,9,N","008000,1,N,1","+0152,1","+0133,1","10144,1","99,0000,9,1",,,,,"00,1,+99999,9,99,9",,,"00,99,1,00,1,00,1,99999,9,00,1,00,1","0528,9","01,9",,"240,M,+0225,1","240,N,+0092,1","99999,9,10132,1","2,1,011,1,+007,1",,,"SYN100AAXX  27061 76458 32958 00000 10152 20133 30132 40144 52011 90530 333 10225 20092 30/// 55088 58007;","Q01  00002PRCP99"
"76458099999","2001-12-27T12:00:00","4","23.2","-106.4166666","4.0","COLONIA JUAN CARRASCO MAZATLAN SIN., MX","FM-12","99999","V020","999,9,C,0000,1","22000,1,9,N","012000,1,N,1","+0125,1","+0109,1","10131,1","24,0000,9,1",,,,,"00,1,+99999,9,99,9",,,"00,99,1,00,1,00,1,99999,9,00,1,00,1",,"01,9","999,+0090,9","999,M,+0225,1","120,N,+0111,1","99999,9,10120,1","7,1,009,1,+008,1",,,"SYN100AAXX  27121 76458 32962 00000 10125 20109 30120 40131 57009 91145 333 10225 20111 30009 58008 70000;","Q01  00002PRCP24"
"76458099999","2001-12-27T15:00:00","4","23.2","-106.4166666","4.0","COLONIA JUAN CARRASCO MAZATLAN SIN., MX","FM-12","99999","V020","999,9,C,0000,1","22000,1,9,N","012000,1,N,1","+0140,1","+0105,1","10149,1","99,0000,9,1",,,,,"00,1,+99999,9,99,9",,,"00,99,1,00,1,00,1,99999,9,00,1,00,1",,"01,9",,,,"99999,9,10137,1","1,1,010,1,+011,1",,,"SYN082AAXX  27151 76458 32962 00000 10140 20105 30137 40149 51010 91450 333 30/// 58011;","Q01  00002PRCP99"
"76458099999","2001-12-27T18:00:00","4","23.2","-106.4166666","4.0","COLONIA JUAN CARRASCO MAZATLAN SIN., MX","FM-12","99999","V020","250,1,N,0030,1","22000,1,9,N","010000,1,N,1","+0214,1","+0129,1","10147,1","99,0000,9,1",,,,,"00,1,+99999,9,99,9",,,"00,99,1,00,1,00,1,99999,9,00,1,00,1",,"01,9",,"120,M,+0237,1","240,N,+0106,1","99999,9,10135,1","0,1,002,1,+003,1",,,"SYN094AAXX  27181 76458 32960 02503 10214 20129 30135 40147 50002 91745 333 10237 20106 30/// 58003;","Q01  00002PRCP99"
"76458099999","2001-12-27T21:00:00","4","23.2","-106.4166666","4.0","COLONIA JUAN CARRASCO MAZATLAN SIN., MX","FM-12","99999","V020","240,1,N,0040,1","22000,1,9,N","008000,1,N,1","+0224,1","+0153,1","10129,1","99,0000,9,1",,,,,"00,1,+99999,9,99,9",,,"00,99,1,00,1,00,1,99999,9,00,1,00,1",,"01,9",,,,"99999,9,10117,1","7,1,018,1,+014,1",,,"SYN082AAXX  27211 76458 32958 02404 10224 20153 30117 40129 57018 92045 333 30/// 58014;","Q01  00002PRCP99"
"76458099999","2001-12-28T00:00:00","4","23.2","-106.4166666","4.0","COLONIA JUAN CARRASCO MAZATLAN SIN., MX","FM-12","99999","V020","270,1,N,0040,1","22000,1,9,N","018000,1,N,1","+0216,1","+0154,1","10127,1","24,0000,9,1",,,,,"01,1,+06000,9,01,9",,,"01,99,1,00,1,99,9,99999,9,99,9,06,1",,"01,9",,"120,M,+0238,1","180,N,+0106,1","99999,9,10116,1","5,1,001,1,+014,1",,,"SYN118AAXX  28001 76458 32968 12704 10216 20154 30116 40127 55001 80//6 92340 333 10238 20106 30/// 50251 58014 70000 81070;",
"76458099999","2001-12-28T03:00:00","4","23.2","-106.4166666","4.0","COLONIA JUAN CARRASCO MAZATLAN SIN., MX","FM-12","99999","V020","999,9,C,0000,1","22000,1,9,N","014000,1,N,1","+0186,1","+0148,1","10135,1","99,0000,9,1",,,,,"00,1,+99999,9,99,9",,,"00,99,1,00,1,00,1,99999,9,00,1,00,1",,"01,9",,,,"99999,9,10124,1","2,1,008,1,+004,1",,,"SYN088AAXX  28031 76458 32064 00000 10186 20148 30124 40135 52008 90240 333 30/// 56/// 58004;","Q01  00002PRCP99"
"76458099999","2001-12-28T06:00:00","4","23.2","-106.4166666","4.0","COLONIA JUAN CARRASCO MAZATLAN SIN., MX","FM-12","99999","V020","999,9,C,0000,1","22000,1,9,N","010000,1,N,1","+0182,1","+0154,1","10145,1","99,0000,9,1",,,,,"00,1,+99999,9,99,9",,,"00,99,1,00,1,00,1,99999,9,00,1,00,1",,"01,9",,"240,M,+0236,1","240,N,+0104,1","99999,9,10133,1","2,1,009,1,+001,1",,,"SYN100AAXX  28061 76458 32060 00000 10182 20154 30133 40145 52009 90540 333 10236 20104 30/// 56/// 58001;","Q01  00002PRCP99"
"76458099999","2001-12-28T15:00:00","4","23.2","-106.4166666","4.0","COLONIA JUAN CARRASCO MAZATLAN SIN., MX","FM-12","99999","V020","999,9,C,0000,1","22000,1,9,N","010000,1,N,1","+0156,1","+0102,1","10147,1","99,0000,9,1",,,,,"00,1,+99999,9,99,9",,,"00,99,1,00,1,00,1,99999,9,00,1,00,1",,"01,9",,,,"99999,9,10135,1","1,1,009,1,-002,1",,,"SYN082AAXX  28151 76458 32960 00000 10156 20102 30135 40147 51009 91450 333 30/// 59002;","Q01  00002PRCP99"
"76458099999","2001-12-28T21:00:00","4","23.2","-106.4166666","4.0","COLONIA JUAN CARRASCO MAZATLAN SIN., MX","FM-12","99999","V020","270,1,N,0040,1","22000,1,9,N","020000,1,N,1","+0231,1","+0145,1","10129,1","99,0000,9,1",,,,,"01,1,+06000,9,01,9",,,"01,99,1,00,1,00,1,99999,9,00,1,01,1",,"01,9",,,,"99999,9,10117,1","7,1,023,1,+000,1",,,"SYN100AAXX  28211 76458 32970 12704 10231 20145 30117 40129 57023 80001 92045 333 30/// 56//9 58000 81070;","Q01  00002PRCP99"
"76458099999","2001-12-29T00:00:00","4","23.2","-106.4166666","4.0","COLONIA JUAN CARRASCO MAZATLAN SIN., MX","FM-12","99999","V020","270,1,N,0040,1","22000,1,9,N","020000,1,N,1","+0224,1","+0149,1","10132,1","24,0000,9,1",,,,,,,,"01,99,1,00,1,00,1,99999,9,00,1,01,1",,"01,9",,"120,M,+0261,1","180,N,+0112,1","99999,9,10120,1","2,1,003,1,+004,1",,,"SYN124AAXX  29001 76458 32970 12704 10224 20149 30120 40132 52003 80001 92345 333 10261 20112 30/// 50281 56//9 58004 70000 81070;","Q01  00002PRCP99Q02  00003PRCP99"
"76458099999","2001-12-29T03:00:00","4","23.2","-106.4166666","4.0","COLONIA JUAN CARRASCO MAZATLAN SIN., MX","FM-12","99999","V020","999,9,C,0000,1","22000,1,9,N","018000,1,N,1","+0190,1","+0153,1","10141,1","99,0000,9,1",,,,,"00,1,+99999,9,99,9",,,"00,99,1,00,1,00,1,99999,9,00,1,00,1",,"01,9",,,,"99999,9,10130,1","2,1,010,1,+006,1",,,"SYN088AAXX  29031 76458 32068 00000 10190 20153 30130 40141 52010 90250 333 30/// 56/// 58006;","Q01  00002PRCP99"
"76458099999","2001-12-29T06:00:00","4","23.2","-106.4166666","4.0","COLONIA JUAN CARRASCO MAZATLAN SIN., MX","FM-12","99999","V020","999,9,C,0000,1","22000,1,9,N","010000,1,N,1","+0172,1","+0144,1","10145,1","99,0000,9,1",,,,,"00,1,+99999,9,99,9",,,"00,99,1,00,1,00,1,99999,9,00,1,00,1",,"01,9",,"240,M,+0260,1","240,N,+0119,1","99999,9,10134,1","0,1,004,1,+001,1",,,"SYN100AAXX  29061 76458 32060 00000 10172 20144 30134 40145 50004 90540 333 10260 20119 30/// 56/// 58001;","Q01  00002PRCP99"
"76458099999","2001-12-29T15:00:00","4","23.2","-106.4166666","4.0","COLONIA JUAN CARRASCO MAZATLAN SIN., MX","FM-12","99999","V020","999,9,C,0000,1","22000,1,9,N","020000,1,N,1","+0141,1","+0082,1","10157,1","99,0000,9,1",,,,,"01,1,+06000,9,01,9",,,"01,99,1,00,1,00,1,99999,9,00,1,01,1",,"01,9",,,,"99999,9,10145,1","2,1,015,1,+010,1",,,"SYN100AAXX  29151 76458 32970 10000 10141 20082 30145 40157 52015 80001 91450 333 30/// 56//9 58010 81070;","Q01  00002PRCP99"
"76458099999","2001-12-29T18:00:00","4","23.2","-106.4166666","4.0","COLONIA JUAN CARRASCO MAZATLAN SIN., MX","FM-12","99999","V020","180,1,N,0020,1","22000,1,9,N","015000,1,N,1","+0242,1","+0057,1","10166,1","99,0000,9,1",,,,,"00,1,+99999,9,99,9",,,"00,99,1,00,1,00,1,99999,9,00,1,00,1",,"01,9",,"120,M,+0256,1","240,N,+0111,1","99999,9,10155,1","0,1,010,1,+015,1",,,"SYN094AAXX  29181 76458 32965 01802 10242 20057 30155 40166 50010 91745 333 10256 20111 30/// 58015;","Q01  00002PRCP99"
"76458099999","2001-12-29T21:00:00","4","23.2","-106.4166666","4.0","COLONIA JUAN CARRASCO MAZATLAN SIN., MX","FM-12","99999","V020","240,1,N,0040,1","22000,1,9,N","018000,1,N,1","+0246,1","+0135,1","10139,1","99,0000,9,1",,,,,"01,1,+06000,9,01,9",,,"01,99,1,00,1,99,9,99999,9,99,9,01,1",,"01,9",,,,"99999,9,10128,1","7,1,027,1,+011,1",,,"SYN094AAXX  29211 76458 32968 12404 10246 20135 30128 40139 57027 80//1 92045 333 30/// 58011 81070;","Q01  00002PRCP99"
"76458099999","2001-12-30T00:00:00","4","23.2","-106.4166666","4.0","COLONIA JUAN CARRASCO MAZATLAN SIN., MX","FM-12","99999","V020","240,1,N,0030,1","22000,1,9,N","018000,1,N,1","+0230,1","+0152,1","10131,1","24,0000,9,1",,,,,"00,1,+99999,9,99,9",,,"00,99,1,00,1,00,1,99999,9,00,1,00,1",,"01,9",,"120,M,+0264,1","180,N,+0111,1","99999,9,10119,1","6,1,009,1,-001,1",,,"SYN106AAXX  30001 76458 32968 02403 10230 20152 30119 40131 56009 92340 333 10264 20111 30/// 50281 59001 70000;","Q01  00002PRCP24"
"76458099999","2001-12-30T06:00:00","4","23.2","-106.4166666","4.0","COLONIA JUAN CARRASCO MAZATLAN SIN., MX","FM-12","99999","V020","999,9,C,0000,1","22000,1,9,N","010000,1,N,1","+0176,1","+0134,1","10139,1","99,0000,9,1",,,,,"00,1,+99999,9,99,9",,,"00,99,1,00,1,00,1,99999,9,00,1,00,1",,"01,9",,"240,M,+0261,1","240,N,+0163,1","99999,9,10128,1","0,1,003,1,-006,1",,,"SYN100AAXX  30061 76458 32060 00000 10176 20134 30128 40139 50003 90540 333 10261 20163 30/// 56/// 59006;","Q01  00002PRCP99"
"76458099999","2001-12-30T09:00:00","4","23.2","-106.4166666","4.0","COLONIA JUAN CARRASCO MAZATLAN SIN., MX","FM-12","99999","V020","340,1,N,0020,1","22000,1,9,N","012000,1,N,1","+0151,1","+0100,1","10132,1","99,0000,9,1",,,,,"00,1,+99999,9,99,9",,,"00,99,1,00,1,00,1,99999,9,00,1,00,1",,"01,9",,,,"99999,9,10121,1","7,1,007,1,-018,1",,,"SYN082AAXX  30091 76458 32962 03402 10151 20100 30121 40132 57007 90855 333 30/// 59018;","Q01  00002PRCP99"
"76458099999","2001-12-30T12:00:00","4","23.2","-106.4166666","4.0","COLONIA JUAN CARRASCO MAZATLAN SIN., MX","FM-12","99999","V020","999,9,C,0000,1","22000,1,9,N","012000,1,N,1","+0135,1","+0079,1","10129,1","24,0000,9,1",,,,,"02,1,+08700,9,01,9",,,"02,99,1,00,1,00,1,99999,9,00,1,02,1",,"01,9","999,+0090,9","999,M,+0264,1","120,N,+0120,1","99999,9,10118,1","6,1,001,1,-012,1",,,"SYN118AAXX  30121 76458 32962 20000 10135 20079 30118 40129 56001 80002 91140 333 0/00/ 10264 20120 30009 59012 70000 82079;",
"76458099999","2001-12-30T15:00:00","4","23.2","-106.4166666","4.0","COLONIA JUAN CARRASCO MAZATLAN SIN., MX","FM-12","99999","V020","140,1,N,0020,1","22000,1,9,N","020000,1,N,1","+0142,1","+0115,1","10147,1","99,0000,9,1",,,,,,,,"04,99,1,00,1,99,9,99999,9,99,9,02,1",,"01,9",,,,"99999,9,10135,1","2,1,017,1,-010,1",,,"SYN093AAXX  30151 76458 32970 41402 10142 20115 30135 40147 52017 80//2 91445 333 30/// 59010 8070;","Q01  00002PRCP99"
"76458099999","2001-12-30T18:00:00","4","23.2","-106.4166666","4.0","COLONIA JUAN CARRASCO MAZATLAN SIN., MX","FM-12","99999","V020","150,1,N,0020,1","22000,1,9,N","020000,1,N,1","+0242,1","+0119,1","10159,1","99,0000,9,1",,,,,"03,1,+06000,9,01,9",,,"03,99,1,00,1,00,1,99999,9,00,1,02,1",,"01,9",,"120,M,+0252,1","240,N,+0112,1","99999,9,10147,1","2,1,012,1,-007,1",,,"SYN106AAXX  30181 76458 32970 31502 10242 20119 30147 40159 52012 80002 91740 333 10252 20112 30/// 59007 83070;","Q01  00002PRCP99"
"76458099999","2001-12-30T21:00:00","4","23.2","-106.4166666","4.0","COLONIA JUAN CARRASCO MAZATLAN SIN., MX","FM-12","99999","V020","270,1,N,0040,1","22000,1,9,N","020000,1,N,1","+0232,1","+0143,1","10134,1","99,0000,9,1",,,,,"04,1,+06000,9,01,9",,,"04,99,1,00,1,00,1,99999,9,00,1,01,1",,"01,9",,,,"99999,9,10122,1","7,1,025,1,-006,1",,,"SYN100AAXX  30211 76458 32970 42704 10232 20143 30122 40134 57025 80001 92045 333 30/// 56//9 59006 84070;","Q01  00002PRCP99"
"76458099999","2001-12-31T00:00:00","4","23.2","-106.4166666","4.0","COLONIA JUAN CARRASCO MAZATLAN SIN., MX","FM-12","99999","V020","270,1,N,0040,1","22000,1,9,N","020000,1,N,1","+0226,1","+0158,1","10126,1","24,0000,9,1",,,,,,,,"02,99,1,00,1,00,1,99999,9,00,1,01,1",,"01,9",,"120,M,+0247,1","180,N,+0112,1","99999,9,10115,1","5,1,004,1,-004,1",,,"SYN124AAXX  31001 76458 32970 22704 10226 20158 30115 40126 55004 80001 92340 333 10247 20112 30/// 50241 56//9 59004 70000 82070;","Q01  00002PRCP99Q02  00003PRCP99"
"76458099999","2001-12-31T03:00:00","4","23.2","-106.4166666","4.0","COLONIA JUAN CARRASCO MAZATLAN SIN., MX","FM-12","99999","V020","290,1,N,0030,1","22000,1,9,N","018000,1,N,1","+0204,1","+0171,1","10145,1","99,0000,9,1",,,,,"01,1,+06000,9,01,9",,,"01,99,1,00,1,00,1,99999,9,00,1,08,1",,"01,9",,,,"99999,9,10134,1","2,1,019,1,+008,1",,,"SYN100AAXX  31031 76458 32468 12903 10204 20171 30134 40145 52019 80008 90245 333 30/// 56/// 58008 81070;","Q01+004502SCOLCBQ02  00002PRCP99"
"76458099999","2001-12-31T06:00:00","4","23.2","-106.4166666","4.0","COLONIA JUAN CARRASCO MAZATLAN SIN., MX","FM-12","99999","V020","999,9,C,0000,1","22000,1,9,N","010000,1,N,1","+0176,1","+0130,1","10141,1","99,0000,9,1",,,,,"00,1,+99999,9,99,9",,,"00,99,1,00,1,00,1,99999,9,00,1,00,1",,"01,9",,"240,M,+0247,1","240,N,+0121,1","99999,9,10129,1","0,1,005,1,+001,1",,,"SYN100AAXX  31061 76458 32060 00000 10176 20130 30129 40141 50005 90540 333 10247 20121 30/// 56/// 58001;","Q01  00002PRCP99"
"76458099999","2001-12-31T09:00:00","4","23.2","-106.4166666","4.0","COLONIA JUAN CARRASCO MAZATLAN SIN., MX","FM-12","99999","V020","999,9,C,0000,1","22000,1,9,N","012000,1,N,1","+0145,1","+0111,1","10134,1","99,0000,9,1",,,,,"00,1,+99999,9,99,9",,,"00,99,1,00,1,00,1,99999,9,00,1,00,1",,"01,9",,,,"99999,9,10123,1","7,1,006,1,+005,1",,,"SYN082AAXX  31091 76458 32962 00000 10145 20111 30123 40134 57006 90850 333 30/// 58005;","Q01  00002PRCP99"
"76458099999","2001-12-31T12:00:00","4","23.2","-106.4166666","4.0","COLONIA JUAN CARRASCO MAZATLAN SIN., MX","FM-12","99999","V020","999,9,C,0000,1","22000,1,9,N","012000,1,N,1","+0130,1","+0110,1","10128,1","24,0000,9,1",,,,,"00,1,+99999,9,99,9",,,"00,99,1,00,1,00,1,99999,9,00,1,00,1",,"01,9","999,+0090,9","120,N,+0118,1",,"99999,9,10116,1","7,1,006,1,-001,1",,,"SYN100AAXX  31121 76458 32962 00000 10130 20110 30116 40128 5706/ 91150 333 0247/ 20118 30009 59001 70000;","Q01+000602APC3  Q02  00002PRCP24"
"76458099999","2001-12-31T15:00:00","4","23.2","-106.4166666","4.0","COLONIA JUAN CARRASCO MAZATLAN SIN., MX","FM-12","99999","V020","999,9,C,0000,1","22000,1,9,N","012000,1,N,1","+0140,1","+0116,1","10150,1","99,0000,9,1",,,,,"00,1,+99999,9,99,9",,,"00,99,1,00,1,00,1,99999,9,00,1,00,1",,"01,9",,,,"99999,9,10116,1","2,1,022,1,+003,1",,,"SYN082AAXX  31151 76458 32962 00000 10140 20116 30116 40150 52022 91422 333 30/// 58003;","Q01  00002PRCP99"
"76458099999","2001-12-31T18:00:00","4","23.2","-106.4166666","4.0","COLONIA JUAN CARRASCO MAZATLAN SIN., MX","FM-12","99999","V020","270,1,N,0020,1","22000,1,9,N","012000,1,N,1","+0240,1","+0146,1","10152,1","99,0000,9,1",,,,,"00,1,+99999,9,99,9",,,"00,99,1,00,1,00,1,99999,9,00,1,00,1",,"01,9",,"120,M,+0250,1","240,N,+0110,1","99999,9,10140,1","0,1,002,1,-007,1",,,"SYN094AAXX  31181 76458 32962 02702 10240 20146 30140 40152 50002 91745 333 10250 20110 30/// 59007;","Q01  00002PRCP99"
