"STATION","DATE","SOURCE","LATITUDE","LONGITUDE","ELEVATION","NAME","REPORT_TYPE","CALL_SIGN","QUALITY_CONTROL","WND","CIG","VIS","TMP","DEW","SLP","AA1","AA2","AA3","AJ1","AY1","AY2","GA1","GA2","GA3","GF1","GJ1","IA1","IA2","KA1","KA2","MA1","MD1","MW1","OA1","REM","EQD"
"76458099999","2004-01-01T00:00:00","4","23.2","-106.4166666","4.0","COLONIA JUAN CARRASCO MAZATLAN SIN., MX","FM-12","99999","V020","260,1,N,0030,1","09000,1,9,N","018000,1,N,1","+0243,1","+0184,1","10139,1","06,0000,9,1","24,0000,9,1",,,,,"01,1,+03600,9,03,9",,,"07,99,1,01,1,00,1,02250,1,03,1,08,1",,"01,9",,"120,M,+0290,1","180,N,+0165,1","99999,9,10134,1","7,1,004,1,-011,1",,,"SYN130AAXX  01001 76458 32868 72603 10243 20184 30134 40139 57004 81038 92345 333 10290 20165 30/// 50191 56/99 59011 70000 81362 86268;","Q01  00002PRCP06"
"76458099999","2004-01-01T03:00:00","4","23.2","-106.4166666","4.0","COLONIA JUAN CARRASCO MAZATLAN SIN., MX","FM-12","99999","V020","330,1,N,0030,1","99999,9,9,N","016000,1,N,1","+9999,9","+9999,9","99999,9","06,0000,9,1",,,,,,,,,"06,99,1,99,9,99,9,99999,9,99,9,99,9",,"01,9",,,,,"9,9,999,9,+018,1",,,"SYN101AAXX  01031 76458 32966 63303 1024 20189 3 30153 40157 52018 80007 90250 333 0/009 30/// 58018 86276;","Q01  00002PRCP06"
"76458099999","2004-01-01T12:00:00","4","23.2","-106.4166666","4.0","COLONIA JUAN CARRASCO MAZATLAN SIN., MX","FM-12","99999","V020","310,1,N,0020,1","22000,1,9,N","016000,1,N,1","+0212,1","+0185,1","10154,1","06,0000,9,1","24,0000,9,1",,,,,,,,"04,99,1,04,1,00,1,99999,9,03,1,00,1",,"01,9",,"999,M,+0290,1","120,N,+0197,1","99999,9,10150,1","2,1,004,1,+999,9",,,"SYN124AAXX  01121 76458 32966 43102 10212 20185 30150 40154 52004 84030 91150 333 10290 20197 30/// 30019 56090 58/// 70000 84361;","Q01  00002PRCP06"
"76458099999","2004-01-01T15:00:00","4","23.2","-106.4166666","4.0","COLONIA JUAN CARRASCO MAZATLAN SIN., MX","FM-12","99999","V020","999,9,C,0000,1","03600,1,C,N","016000,1,N,1","+0214,1","+0182,1","10174,1","06,0000,9,1",,,,,,"03,1,+00420,9,08,9",,,"08,99,1,03,1,07,1,00450,1,02,1,00,1",,"01,9",,,,"99999,9,10170,1","2,1,020,1,+018,1",,,"SYN106AAXX  01151 76458 32466 80000 10214 20182 30170 40174 52020 83720 91445 333 30/// 56590 58018 83814 85461;","Q01  00002PRCP06"
"76458099999","2004-01-02T03:00:00","4","23.2","-106.4166666","4.0","COLONIA JUAN CARRASCO MAZATLAN SIN., MX","FM-12","99999","V020","999,9,C,0000,1","99999,9,9,N","008000,1,N,1","+9999,9","+9999,9","99999,9","06,0000,9,1",,,,,,,,,"08,99,1,99,9,99,9,02250,1,99,9,99,9",,"01,9",,,,,"9,9,999,9,-005,1",,,"SYN095AAXX  02031 76458 32858 832003 10226 20181 30148 40153 54/// 88/2/ 90240 333 30/// 59005 88458;","Q01  00002PRCP06"
"76458099999","2004-01-02T18:00:00","4","23.2","-106.4166666","4.0","COLONIA JUAN CARRASCO MAZATLAN SIN., MX","FM-12","99999","V020","160,1,N,0020,1","99999,9,9,N","012000,1,N,1","+0250,1","+0195,1","10153,1","06,0000,9,1",,,,,,"03,1,+02400,9,03,9",,,"06,99,1,03,1,00,1,99999,9,03,1,06,1",,"01,9",,"120,M,+0265,1","240,N,+0181,1","99999,9,10148,1","0,1,009,1,-020,1",,,"SYN118AAXX  02181 76458 32962 61602 10250 20195 30148 40153 50009 83036 91745 333 10265 20181 30/// 56/00 59020 83358 83270;","Q01  00002PRCP06"
"76458099999","2004-01-03T03:00:00","4","23.2","-106.4166666","4.0","COLONIA JUAN CARRASCO MAZATLAN SIN., MX","FM-12","99999","V020","270,1,N,0050,1","02400,1,9,N","008000,1,N,1","+0212,1","+0176,1","10140,1","06,0000,9,1",,,,,,"08,1,+02400,9,04,9",,,"08,99,1,08,1,99,9,02250,1,02,1,99,9",,"01,9",,,,"99999,9,10136,1","3,1,999,9,-012,1",,,"SYN094AAXX  03031 76458 32858 82705 10212 20176 30136 40140 53/// 88/2/ 90240 333 30/// 59012 88458;","Q01  00002PRCP06"
"76458099999","2004-01-03T12:00:00","4","23.2","-106.4166666","4.0","COLONIA JUAN CARRASCO MAZATLAN SIN., MX","FM-12","99999","V020","340,1,N,0020,1","22000,1,9,N","008000,1,N,1","+0190,1","+0165,1","10129,1","06,0000,9,1",,,,,,"00,1,+99999,9,99,9",,,"00,99,1,00,1,00,1,99999,9,00,1,00,1",,"01,9","999,+0170,9","999,M,+0265,1","120,N,+0180,1","99999,9,10124,1","7,1,002,1,-002,1",,,"SYN094AAXX  03121 76458 32958 03402 10190 20165 30124 40129 57002 91140 333 10265 20180 30017 59002;","Q01  00002PRCP06"
"76458099999","2004-01-03T15:00:00","4","23.2","-106.4166666","4.0","COLONIA JUAN CARRASCO MAZATLAN SIN., MX","FM-12","99999","V020","999,9,C,0000,1","02400,1,9,N","010000,1,N,1","+0202,1","+0173,1","10139,1","06,0000,9,1",,,,,,"06,1,+02400,9,03,9",,,"06,99,1,06,1,00,1,99999,9,03,1,00,1",,"01,9",,,,"99999,9,10134,1","2,1,010,1,-005,1",,,"SYN100AAXX  03151 76458 32960 60000 10202 20173 30134 40139 52010 86030 91448 333 30/// 56/0/ 59005 86358;","Q01  00002PRCP06"
"76458099999","2004-01-03T18:00:00","4","23.2","-106.4166666","4.0","COLONIA JUAN CARRASCO MAZATLAN SIN., MX","FM-12","99999","V020","250,1,N,0030,1","99999,9,9,N","013000,1,N,1","+0234,1","+0184,1","99999,9","06,0000,9,1",,,,,,,,,"05,99,1,99,9,99,9,99999,9,99,9,99,9",,,,,,,,,,"SYN076AAXX  03181 76458 32963 52503 10234 20184 000 30142 40147 50008 82036 91745;","Q01  00002PRCP06"
"76458099999","2004-01-03T21:00:00","4","23.2","-106.4166666","4.0","COLONIA JUAN CARRASCO MAZATLAN SIN., MX","FM-12","99999","V020","270,1,N,0040,1","03600,1,9,N","016000,1,N,1","+0246,1","+0168,1","10133,1","06,0000,9,1",,,,,,"01,1,+00990,9,08,9","01,1,+03300,9,03,9",,"05,99,1,01,1,02,1,00800,1,03,1,05,1",,"01,9",,,,"99999,9,10128,1","7,1,014,1,+999,9",,,"SYN112AAXX  03211 76458 32566 52704 10246 20168 30128 40133 57014 81235 92055 333 30/// 56199 58/// 81833 81361 81079;","Q01  00002PRCP06"
"76458099999","2004-01-04T00:00:00","4","23.2","-106.4166666","4.0","COLONIA JUAN CARRASCO MAZATLAN SIN., MX","FM-12","99999","V020","300,1,N,0030,1","03000,1,C,N","020000,1,N,1","+0225,1","+0161,1","10123,1","06,0000,9,1","24,0000,9,1",,,,,"01,1,+00810,9,08,9","04,1,+03000,9,03,9",,"07,99,1,01,1,02,1,00800,1,03,1,01,1",,"01,9",,"120,M,+0265,1","180,N,+0170,1","99999,9,10119,1","5,1,009,1,+999,9",,,"SYN136AAXX  04001 76458 32570 73003 10225 20161 30119 40123 55009 81231 92350 333 10265 20170 30/// 5//// 56159 58/// 70000 81827 84360 82079;","Q01  00002PRCP06"
"76458099999","2004-01-04T03:00:00","4","23.2","-106.4166666","4.0","COLONIA JUAN CARRASCO MAZATLAN SIN., MX","FM-12","99999","V020","320,1,N,0040,1","99999,9,9,N","008000,1,N,1","+0218,1","+0166,1","10126,1","06,0000,9,1",,,,,,"04,1,+02400,9,04,9",,,"07,99,1,07,1,99,9,02250,1,02,1,99,9",,"01,9",,,,"99999,9,10122,1","3,1,003,1,-014,1",,,"SYN100AAXX  04031 76458 32858 73204 10218 20166 30122 40126 53003 87/2/ 90240 333 30/// 59014 84458 83356;","Q01  00002PRCP06"
"76458099999","2004-01-04T15:00:00","4","23.2","-106.4166666","4.0","COLONIA JUAN CARRASCO MAZATLAN SIN., MX","FM-12","99999","V020","360,1,N,0020,1","22000,1,9,N","018000,1,N,1","+0194,1","+0140,1","10141,1","06,0000,9,1",,,,,,"01,1,+01800,9,03,9",,,"02,99,1,01,1,00,1,02250,1,03,1,01,1",,"01,9",,,,"99999,9,10136,1","2,1,999,9,+002,1",,,"SYN100AAXX  04151 76458 32868 23602 10194 20140 30136 40141 52/// 81031 91440 333 30/// 58002 81356 81070;","Q01  00002PRCP06"
"76458099999","2004-01-04T18:00:00","4","23.2","-106.4166666","4.0","COLONIA JUAN CARRASCO MAZATLAN SIN., MX","FM-12","99999","V020","270,1,N,0040,1","22000,1,9,N","018000,1,N,1","+0234,1","+0168,1","10158,1","06,0000,9,1",,,,,,"01,1,+00840,9,08,9",,,"02,99,1,01,1,02,1,02250,1,03,1,99,9",,"01,9",,"120,M,+0248,1","240,N,+0174,1","99999,9,10153,1","1,1,017,1,+011,1",,,"SYN118AAXX  04181 76458 32868 22704 10234 20168 30153 40158 51017 8123/ 91740 333 10248 20174 30/// 5619/ 58011 81828 81356;","Q01  00002PRCP06"
"76458099999","2004-01-04T21:00:00","4","23.2","-106.4166666","4.0","COLONIA JUAN CARRASCO MAZATLAN SIN., MX","FM-12","99999","V020","270,1,N,0030,1","22000,1,9,N","018000,1,N,1","+0240,1","+0167,1","10135,1","06,0000,9,1",,,,,,"01,1,+00900,9,08,9",,,"01,99,1,01,1,01,1,00800,1,00,1,00,1",,"01,9",,,,"99999,9,10131,1","7,1,021,1,+003,1",,,"SYN100AAXX  04211 76458 32568 12703 10240 20167 30131 40135 57021 81100 92042 333 30/// 56/00 58003 81830;","Q01  00002PRCP06"
"76458099999","2004-01-05T00:00:00","4","23.2","-106.4166666","4.0","COLONIA JUAN CARRASCO MAZATLAN SIN., MX","FM-12","99999","V020","300,1,N,0030,1","22000,1,9,N","018000,1,N,1","+0236,1","+0154,1","10127,1","06,0000,9,1",,,,,,,,,"01,99,1,01,1,01,1,01250,1,00,1,00,1",,"01,9",,"120,M,+0265,1","180,N,+0174,1","99999,9,10123,1","7,1,008,1,+004,1",,,"SYN118AAXX  05001 76458 32668 13003 10236 20154 30123 40127 57008 81100 92335 333 10265 20174 30/// 52091 56100 58004 81834;","Q01  00002PRCP06"
"76458099999","2004-01-05T03:00:00","4","23.2","-106.4166666","4.0","COLONIA JUAN CARRASCO MAZATLAN SIN., MX","FM-12","99999","V020","300,1,N,0040,1","22000,1,9,N","010000,1,N,1","+0207,1","+0160,1","10133,1","06,0000,9,1",,,,,,"00,1,+99999,9,99,9",,,"00,99,1,00,1,00,1,99999,9,00,1,00,1",,"01,9",,,,"99999,9,10128,1","2,1,005,1,+006,1",,,"SYN082AAXX  05031 76458 32960 03004 10207 20160 30128 40133 52005 90248 333 30/// 58006;","Q01  00002PRCP06"
"76458099999","2004-01-05T09:00:00","4","23.2","-106.4166666","4.0","COLONIA JUAN CARRASCO MAZATLAN SIN., MX","FM-12","99999","V020","320,1,N,0040,1","22000,1,9,N","010000,1,N,1","+0190,1","+0149,1","10136,1","06,0000,9,1",,,,,,"00,1,+99999,9,99,9",,,"00,99,1,00,1,00,1,99999,9,00,1,00,1",,"01,9",,,,"99999,9,10132,1","6,1,004,1,+999,9",,,"SYN082AAXX  05091 76458 32960 03204 10190 20149 30132 40136 56004 90850 333 30/// 58///;","Q01  00002PRCP06"
"76458099999","2004-01-05T15:00:00","4","23.2","-106.4166666","4.0","COLONIA JUAN CARRASCO MAZATLAN SIN., MX","FM-12","99999","V020","330,1,N,0010,1","22000,1,9,N","020000,1,N,1","+0172,1","+0137,1","10141,1","06,0000,9,1",,,,,,"01,1,+06900,9,01,9",,,"01,99,1,00,1,00,1,99999,9,00,1,09,1",,"01,9",,,,"99999,9,10136,1","3,1,005,1,+000,1",,,"SYN100AAXX  05151 76458 32970 13301 10172 20137 30136 40141 53005 80009 91453 333 30/// 56009 58000 81173;","Q01  00002PRCP06"
"76458099999","2004-01-05T21:00:00","4","23.2","-106.4166666","4.0","COLONIA JUAN CARRASCO MAZATLAN SIN., MX","FM-12","99999","V020","280,1,N,0030,1","22000,1,9,N","020000,1,N,1","+0236,1","+0163,1","10119,1","06,0000,9,1",,,,,,"02,1,+06600,9,00,9",,,"02,99,1,00,1,00,1,99999,9,00,1,06,1",,"01,9",,,,"99999,9,10115,1","7,1,026,1,-016,1",,,"SYN100AAXX  05211 76458 32970 22803 10236 20163 30115 40119 57026 80006 92048 333 30/// 56009 59016 82072;","Q01  00002PRCP06"
"76458099999","2004-01-06T03:00:00","4","23.2","-106.4166666","4.0","COLONIA JUAN CARRASCO MAZATLAN SIN., MX","FM-12","99999","V020","310,1,N,0050,1","22000,1,9,N","008000,1,N,1","+0206,1","+0153,1","10129,1","06,0000,9,1",,,,,,"03,1,+06000,9,02,9",,,"03,99,1,00,1,99,9,99999,9,99,9,07,1",,"01,9",,,,"99999,9,10125,1","2,1,015,1,-003,1",,,"SYN094AAXX  06031 76458 32958 33105 10206 20153 30125 40129 52015 80//7 90240 333 30/// 59003 83270;","Q01  00002PRCP06"
"76458099999","2004-01-06T06:00:00","4","23.2","-106.4166666","4.0","COLONIA JUAN CARRASCO MAZATLAN SIN., MX","FM-12","99999","V020","300,1,N,0030,1","22000,1,9,N","008000,1,N,1","+0200,1","+0169,1","10145,1","06,0000,9,1",,,,,,,,,"02,99,1,00,1,99,9,99999,9,99,9,07,1","0552,9","01,9",,"240,M,+0255,1","240,N,+0142,1","99999,9,10141,1","2,1,016,1,+005,1",,,"SYN118AAXX  06061 76458 32958 23003 10200 20169 30141 40145 52016 80//7 90535 333 10255 20142 30/// 55092 20944 58005 82070;","Q01  00002PRCP06"
"76458099999","2004-01-06T09:00:00","4","23.2","-106.4166666","4.0","COLONIA JUAN CARRASCO MAZATLAN SIN., MX","FM-12","99999","V020","999,9,C,0000,1","03300,1,9,N","008000,1,N,1","+0180,1","+0151,1","10146,1","06,0000,9,1",,,,,,"05,1,+03300,9,04,9",,,"05,99,1,05,1,00,1,99999,9,02,1,00,1",,"01,9",,,,"99999,9,10142,1","4,1,000,1,+010,1",,,"SYN100AAXX  06091 76458 32958 50000 10180 20151 30142 40146 54001 85020 90846 333 30/// 56040 58010 85461;","Q01  00002PRCP06"
"76458099999","2004-01-06T12:00:00","4","23.2","-106.4166666","4.0","COLONIA JUAN CARRASCO MAZATLAN SIN., MX","FM-12","99999","V020","020,1,N,0010,1","02400,1,9,N","008000,1,N,1","+0176,1","+0137,1","10144,1","06,0000,9,1","24,0000,9,1",,,,,"05,1,+02400,9,03,9",,,"07,99,1,07,1,00,1,99999,9,03,1,00,1",,"01,9","999,+0150,9","999,M,+0255,1","120,N,+0158,1","99999,9,10139,1","7,1,003,1,+008,1",,,"SYN124AAXX  06121 76458 32958 70201 10176 20137 30139 40144 57003 87030 91140 333 10255 20158 30015 56040 58008 70000 85358 82461;","Q01  00002PRCP06"
"76458099999","2004-01-06T15:00:00","4","23.2","-106.4166666","4.0","COLONIA JUAN CARRASCO MAZATLAN SIN., MX","FM-12","99999","V020","350,1,N,0020,1","99999,9,9,N","012000,1,N,1","+0178,1","+0135,1","10153,1","06,0000,9,1",,,,,,"04,1,+02400,9,03,9",,,"07,99,1,04,1,00,1,99999,9,08,1,02,1",,"01,9",,,,"99999,9,10149,1","2,1,010,1,+014,1",,,"SYN106AAXX  06151 76458 32962 73502 10178 20135 30149 40153 52010 84082 91448 333 30/// 56//0 58014 84358 83070;","Q01  00002PRCP06"
"76458099999","2004-01-06T21:00:00","4","23.2","-106.4166666","4.0","COLONIA JUAN CARRASCO MAZATLAN SIN., MX","FM-12","99999","V020","300,1,N,0030,1","02400,1,9,N","018000,1,N,1","+0234,1","+0168,1","10139,1","06,0000,9,1",,,,,,"06,1,+02400,9,03,9",,,"06,99,1,99,9,00,1,99999,9,05,1,00,1",,"01,9",,,,"99999,9,10134,1","7,1,035,1,+019,1",,,"SYN100AAXX  06211 76458 32968 63003 10234 20168 30134 40139 57035 80050 92035 333 30/// 56090 58019 86358;","Q01+000002SCOTLCQ02  00002PRCP06"
"76458099999","2004-01-07T00:00:00","4","23.2","-106.4166666","4.0","COLONIA JUAN CARRASCO MAZATLAN SIN., MX","FM-12","99999","V020","270,1,N,0030,1","22000,1,9,N","018000,1,N,1","+0234,1","+0168,1","10134,1","06,0000,9,1",,,,,,"03,1,+02400,9,03,9",,,"03,99,1,99,9,00,1,99999,9,03,1,00,1",,"01,9",,"120,M,+0258,1","180,N,+0152,1","99999,9,10130,1","7,1,004,1,+020,1",,,"SYN112AAXX  07001 76458 32968 32703 10234 20168 30130 40134 57004 80030 92332 333 10258 20152 30/// 56090 58020 83358;","Q01+000002SCOTLCQ02  00002PRCP06"
"76458099999","2004-01-07T03:00:00","4","23.2","-106.4166666","4.0","COLONIA JUAN CARRASCO MAZATLAN SIN., MX","FM-12","99999","V020","310,1,N,0020,1","04200,1,9,N","010000,1,N,1","+0206,1","+0169,1","10148,1","06,0000,9,1",,,,,,"06,1,+04200,9,03,9",,,"06,99,1,06,1,00,1,02250,1,03,1,00,1",,"01,9",,,,"99999,9,10144,1","2,1,014,1,+019,1",,,"SYN100AAXX  07031 76458 32860 63102 10206 20169 30144 40148 52014 86030 90245 333 30/// 56/9/ 58019 86364;","Q01  00002PRCP06"
"76458099999","2004-01-07T09:00:00","4","23.2","-106.4166666","4.0","COLONIA JUAN CARRASCO MAZATLAN SIN., MX","FM-12","99999","V020","330,1,N,0020,1","02700,1,9,N","010000,1,N,1","+0185,1","+0167,1","10164,1","06,0000,9,1",,,,,,"06,1,+02700,9,03,9",,,"06,99,1,06,1,00,1,99999,9,03,1,00,1",,"01,9",,,,"99999,9,10159,1","0,1,002,1,+018,1",,,"SYN100AAXX  07091 76458 32960 63302 10185 20167 30159 40164 50002 86030 90848 333 30/// 56050 58018 86359;","Q01  00002PRCP06"
"76458099999","2004-01-07T12:00:00","4","23.2","-106.4166666","4.0","COLONIA JUAN CARRASCO MAZATLAN SIN., MX","FM-12","99999","V020","999,9,C,0000,1","99999,9,9,N","010000,1,N,1","+0185,1","+0156,1","10165,1","06,0000,9,1","24,0000,9,1",,,,,"04,1,+02700,9,03,9",,,"07,99,1,07,1,00,1,99999,9,03,1,00,1",,"01,9",,"999,M,+0258,1","120,N,+0160,1","99999,9,10160,1","4,1,000,1,+021,1",,,"SYN130AAXX  07121 76458 32960 70000 10185 20156 30160 40165 54001 87030 91140 333 10258 20160 30/// 30015 56050 58021 70000 84359 83461;","Q01  00002PRCP06"
"76458099999","2004-01-07T15:00:00","4","23.2","-106.4166666","4.0","COLONIA JUAN CARRASCO MAZATLAN SIN., MX","FM-12","99999","V020","340,1,N,0010,1","09000,1,C,N","015000,1,N,1","+0179,1","+0153,1","10176,1","06,0000,9,1",,,,,,"04,1,+04200,9,03,9",,,"07,99,1,04,1,00,1,02250,1,03,1,08,1",,"01,9",,,,"99999,9,10171,1","2,1,011,1,+022,1",,,"SYN106AAXX  07151 76458 32865 73401 10179 20153 30171 40176 52011 84038 91445 333 30/// 56/99 58022 84364 83268;","Q01  00002PRCP06"
"76458099999","2004-01-07T18:00:00","4","23.2","-106.4166666","4.0","COLONIA JUAN CARRASCO MAZATLAN SIN., MX","FM-12","99999","V020","310,1,N,0030,1","03600,1,9,N","015000,1,N,1","+0217,1","+0148,1","10189,1","06,0000,9,1",,,,,,"05,1,+03600,9,04,9","01,1,+04200,9,03,9",,"07,99,1,05,1,00,1,02250,1,02,1,08,1",,"01,9",,"120,M,+0230,1","240,N,+0158,1","99999,9,10184,1","2,1,013,1,+025,1",,,"SYN124AAXX  07181 76458 32865 73103 10217 20148 30184 40189 52013 85028 91745 333 10230 20158 30/// 56/99 58025 85462 81364 81268;","Q01  00002PRCP06"
"76458099999","2004-01-07T21:00:00","4","23.2","-106.4166666","4.0","COLONIA JUAN CARRASCO MAZATLAN SIN., MX","FM-12","99999","V020","270,1,N,0030,1","02400,1,9,N","018000,1,N,1","+0234,1","+0168,1","10166,1","06,0000,9,1",,,,,,"05,1,+02400,9,03,9",,,"05,99,1,99,9,00,1,99999,9,05,1,00,1",,"01,9",,,,"99999,9,10162,1","7,1,022,1,+028,1",,,"SYN100AAXX  07211 76458 32968 52703 10234 20168 30162 40166 57022 80050 92035 333 30/// 56090 58028 85358;","Q01  00002PRCP06"
"76458099999","2004-01-08T00:00:00","4","23.2","-106.4166666","4.0","COLONIA JUAN CARRASCO MAZATLAN SIN., MX","FM-12","99999","V020","300,1,N,0030,1","99999,9,9,N","015000,1,N,1","+0234,1","+0168,1","10164,1","06,0000,9,1",,,,,,"03,1,+02400,9,03,9",,,"05,99,1,99,9,00,1,99999,9,05,1,08,1",,"01,9",,"120,M,+0268,1","180,N,+0158,1","99999,9,10159,1","7,1,003,1,+029,1",,,"SYN124AAXX  08001 76458 32965 53003 10234 20168 30159 40164 57003 80058 92338 333 10268 20158 30/// 52261 56099 58029 83358 82272;","Q01+000002SCOTLCQ02  00002PRCP06"
"76458099999","2004-01-08T03:00:00","4","23.2","-106.4166666","4.0","COLONIA JUAN CARRASCO MAZATLAN SIN., MX","FM-12","99999","V020","320,1,N,0040,1","22000,1,9,N","008000,1,N,1","+0208,1","+0172,1","10173,1","06,0000,9,1",,,,,,"01,1,+01800,9,03,9",,,"02,99,1,01,1,99,9,02250,1,03,1,01,1",,"01,9",,,,"99999,9,10169,1","2,1,010,1,+025,1",,,"SYN100AAXX  08031 76458 32858 23204 10208 20172 30169 40173 52010 81/31 90240 333 30/// 58025 81356 81070;","Q01  00002PRCP06"
"76458099999","2004-01-08T06:00:00","4","23.2","-106.4166666","4.0","COLONIA JUAN CARRASCO MAZATLAN SIN., MX","FM-12","99999","V020","320,1,N,0020,1","22000,1,9,N","008000,1,N,1","+0194,1","+0146,1","10180,1","06,0000,9,1",,,,,,"00,1,+99999,9,99,9",,,"00,99,1,00,1,00,1,99999,9,00,1,00,1","0240,9","01,9",,"240,M,+0265,1","240,N,+0158,1","99999,9,10176,1","2,1,007,1,+999,9",,,"SYN106AAXX  08061 76458 32958 03202 10194 20146 30176 40180 52007 90535 333 10265 20158 30/// 55040 20743 58016;","Q01  00002PRCP06"
"76458099999","2004-01-08T09:00:00","4","23.2","-106.4166666","4.0","COLONIA JUAN CARRASCO MAZATLAN SIN., MX","FM-12","99999","V020","320,1,N,0010,1","22000,1,9,N","008000,1,N,1","+0171,1","+0117,1","10178,1","06,0000,9,1",,,,,,"04,1,+08700,9,04,9",,,"04,99,1,00,1,00,1,99999,9,00,1,04,1",,"01,9",,,,"99999,9,10174,1","7,1,002,1,+014,1",,,"SYN100AAXX  08091 76458 32958 43201 10171 20117 30174 40178 57002 80004 90850 333 30/// 56009 58014 84479;","Q01  00002PRCP06"
"76458099999","2004-01-08T12:00:00","4","23.2","-106.4166666","4.0","COLONIA JUAN CARRASCO MAZATLAN SIN., MX","FM-12","99999","V020","320,1,N,0010,1","22000,1,9,N","008000,1,N,1","+0163,1","+0114,1","10177,1","06,0000,9,1","24,0000,9,1",,,,,,,,"02,99,1,00,1,00,1,99999,9,00,1,02,1",,"01,9",,"999,M,+0264,1","120,N,+0140,1","99999,9,10173,1","4,1,000,1,+013,1",,,"SYN124AAXX  08121 76458 32958 23201 10163 20114 30173 40177 54001 80002 91140 333 10264 20140 30/// 30012 56009 58013 70000 82079;","Q01  00002PRCP06"
"76458099999","2004-01-08T15:00:00","4","23.2","-106.4166666","4.0","COLONIA JUAN CARRASCO MAZATLAN SIN., MX","FM-12","99999","V020","330,1,N,0020,1","22000,1,9,N","018000,1,N,1","+0165,1","+0111,1","10181,1","06,0000,9,1",,,,,,"02,1,+04200,9,03,9",,,"04,99,1,02,1,00,1,02250,1,03,1,01,1",,"01,9",,,,"99999,9,10176,1","2,1,003,1,+005,1",,,"SYN106AAXX  08151 76458 32868 43302 10165 20111 30176 40181 52003 82031 91445 333 30/// 56/99 58005 82364 82070;","Q01  00002PRCP06"
"76458099999","2004-01-08T18:00:00","4","23.2","-106.4166666","4.0","COLONIA JUAN CARRASCO MAZATLAN SIN., MX","FM-12","99999","V020","300,1,N,0020,1","22000,1,9,N","020000,1,N,1","+0240,1","+0131,1","10185,1","06,0000,9,1",,,,,,"01,1,+02400,9,03,9",,,"03,99,1,01,1,00,1,99999,9,03,1,03,1",,"01,9",,"120,M,+0252,1","240,N,+0135,1","99999,9,10181,1","0,1,005,1,-003,1",,,"SYN118AAXX  08181 76458 32970 33002 10240 20131 30181 40185 50005 81033 91745 333 10252 20135 30/// 56/00 59003 81358 82070;","Q01  00002PRCP06"
"76458099999","2004-01-08T21:00:00","4","23.2","-106.4166666","4.0","COLONIA JUAN CARRASCO MAZATLAN SIN., MX","FM-12","99999","V020","260,1,N,0030,1","22000,1,9,N","020000,1,N,1","+0262,1","+0155,1","10156,1","06,0000,9,1",,,,,,"01,1,+06600,9,00,9",,,"01,99,1,00,1,00,1,99999,9,00,1,06,1",,"01,9",,,,"99999,9,10152,1","7,1,029,1,-010,1",,,"SYN100AAXX  08211 76458 32970 12603 10262 20155 30152 40156 57029 80006 92040 333 30/// 56009 59010 81072;","Q01  00002PRCP06"
"76458099999","2004-01-09T00:00:00","4","23.2","-106.4166666","4.0","COLONIA JUAN CARRASCO MAZATLAN SIN., MX","FM-12","99999","V020","300,1,N,0030,1","22000,1,9,N","020000,1,N,1","+0236,1","+0170,1","10151,1","06,0000,9,1",,,,,,,,,"01,99,1,99,9,00,1,99999,9,03,1,00,1",,"01,9",,"120,M,+0287,1","180,N,+0135,1","99999,9,10147,1","7,1,005,1,-012,1",,,"SYN118AAXX  09001 76458 32970 13003 10236 20170 30147 40151 57005 80030 92340 333 10287 20135 30/// 52781 56090 59012 81358;","Q01+000002SCOTLCQ02  00002PRCP06"
"76458099999","2004-01-09T18:00:00","4","23.2","-106.4166666","4.0","COLONIA JUAN CARRASCO MAZATLAN SIN., MX","FM-12","99999","V020","300,1,N,0040,1","99999,9,9,N","018000,1,N,1","+0220,1","+0129,1","10176,1","06,0000,9,1",,,,,,"03,1,+02400,9,03,9",,,"05,99,1,03,1,00,1,99999,9,03,1,02,1",,"01,9",,"120,M,+0235,1","240,N,+0135,1","99999,9,10172,1","0,1,007,1,-009,1",,,"SYN118AAXX  09181 76458 32968 53004 10220 20129 30172 40176 50007 83032 91750 333 10235 20135 30/// 56/00 59009 83358 82070;","Q01  00002PRCP06"
"76458099999","2004-01-09T21:00:00","4","23.2","-106.4166666","4.0","COLONIA JUAN CARRASCO MAZATLAN SIN., MX","FM-12","99999","V020","280,1,N,0030,1","22000,1,9,N","020000,1,N,1","+0226,1","+0162,1","10150,1","06,0000,9,1",,,,,,"02,1,+02400,9,03,9",,,"02,99,1,02,1,00,1,99999,9,03,1,00,1",,"01,9",,,,"99999,9,10146,1","7,1,025,1,-006,1",,,"SYN100AAXX  09211 76458 32970 22803 10226 20162 30146 40150 57025 82030 92035 333 30/// 56090 59006 82358;","Q01  00002PRCP06"
"76458099999","2004-01-10T03:00:00","4","23.2","-106.4166666","4.0","COLONIA JUAN CARRASCO MAZATLAN SIN., MX","FM-12","99999","V020","300,1,N,0020,1","22000,1,9,N","010000,1,N,1","+0199,1","+0156,1","10145,1","06,0000,9,1",,,,,,"00,1,+99999,9,99,9",,,"00,99,1,00,1,00,1,99999,9,00,1,00,1",,"01,9",,,,"99999,9,10141,1","2,1,010,1,-023,1",,,"SYN082AAXX  10031 76458 32960 03002 10199 20156 30141 40145 52010 90245 333 30/// 59023;","Q01  00002PRCP06"
"76458099999","2004-01-10T06:00:00","4","23.2","-106.4166666","4.0","COLONIA JUAN CARRASCO MAZATLAN SIN., MX","FM-12","99999","V020","320,1,N,0020,1","22000,1,9,N","010000,1,N,1","+0192,1","+0169,1","10148,1","06,0000,9,1",,,,,,,,,"01,99,1,00,1,00,1,99999,9,00,1,01,1","0510,9","01,9",,"240,M,+0271,1","240,N,+0135,1","99999,9,10144,1","0,1,003,1,-016,1",,,"SYN124AAXX  10061 76458 32960 13202 10192 20169 30144 40148 50003 80001 90535 333 10271 20135 30/// 55085 20867 56//9 59016 81070;","Q01  00002PRCP06"
"76458099999","2004-01-10T12:00:00","4","23.2","-106.4166666","4.0","COLONIA JUAN CARRASCO MAZATLAN SIN., MX","FM-12","99999","V020","320,1,N,0010,1","22000,1,9,N","008000,1,N,1","+0158,1","+0139,1","10139,1","06,0000,9,1","24,0000,9,1",,,,,"00,1,+99999,9,99,9",,,"00,99,1,00,1,00,1,99999,9,00,1,00,1",,"01,9","999,+0130,9","999,M,+0271,1","120,N,+0136,1","99999,9,10134,1","7,1,009,1,-024,1",,,"SYN100AAXX  10121 76458 32958 03201 10158 20139 30134 40139 57009 91135 333 10271 20136 30013 59024 70000;","Q01  00002PRCP06Q02  00002PRCP24"
"76458099999","2004-01-10T15:00:00","4","23.2","-106.4166666","4.0","COLONIA JUAN CARRASCO MAZATLAN SIN., MX","FM-12","99999","V020","310,1,N,0010,1","22000,1,9,N","012000,1,N,1","+0161,1","+0126,1","10148,1","06,0000,9,1",,,,,,"02,1,+06000,9,02,9",,,"02,99,1,00,1,00,1,99999,9,00,1,05,1",,"01,9",,,,"99999,9,10143,1","2,1,009,1,-023,1",,,"SYN100AAXX  10151 76458 32962 23101 10161 20126 30143 40148 52009 80005 91448 333 30/// 56//0 59023 82270;","Q01  00002PRCP06"
"76458099999","2004-01-11T00:00:00","4","23.2","-106.4166666","4.0","COLONIA JUAN CARRASCO MAZATLAN SIN., MX","FM-12","99999","V020","300,1,N,0020,1","22000,1,9,N","020000,1,N,1","+0232,1","+0160,1","10124,1","06,0000,9,1","24,0000,9,1",,,,,"01,1,+00900,9,08,9","02,1,+03600,9,03,9",,"04,99,1,01,1,01,1,00800,1,03,1,08,1",,"01,9",,"120,M,+0254,1","180,N,+0130,1","99999,9,10120,1","8,1,005,1,-006,1",,,"SYN136AAXX  11001 76458 32570 43002 10232 20160 30120 40124 58005 81138 92345 333 10254 20130 30/// 50301 56199 59006 70000 81830 82362 81268;","Q01  00002PRCP06"
"76458099999","2004-01-11T03:00:00","4","23.2","-106.4166666","4.0","COLONIA JUAN CARRASCO MAZATLAN SIN., MX","FM-12","99999","V020","330,1,N,0030,1","22000,1,9,N","008000,1,N,1","+0210,1","+0167,1","10141,1","06,0000,9,1",,,,,,"03,1,+00540,9,08,9",,,"03,99,1,03,1,01,1,00450,1,99,9,99,9",,"01,9",,,,"99999,9,10137,1","2,1,017,1,-004,1",,,"SYN100AAXX  11031 76458 32458 33303 10210 20167 30137 40141 52017 831// 90240 333 30/// 566// 59004 83818;","Q01  00002PRCP06"
"76458099999","2004-01-11T12:00:00","4","23.2","-106.4166666","4.0","COLONIA JUAN CARRASCO MAZATLAN SIN., MX","FM-12","99999","V020","999,9,C,0000,1","01200,1,9,N","008000,1,N,1","+0225,1","+0144,1","10153,1","06,0000,9,1","24,0000,9,1",,,,,,,,"07,99,1,07,1,04,1,01250,1,00,1,00,1",,"01,9",,"999,M,+0254,1","120,N,+0200,1","99999,9,10149,1","7,1,009,1,+015,1",,,"SYN124AAXX  11121 76458 32658 70000 10225 20144 30149 40153 57009 87400 91150 333 10254 20200 30/// 30019 56500 58015 70000 87634;","Q01  00002PRCP06"
"76458099999","2004-01-11T15:00:00","4","23.2","-106.4166666","4.0","COLONIA JUAN CARRASCO MAZATLAN SIN., MX","FM-12","99999","V020","320,1,N,0030,1","03600,1,C,N","020000,1,N,1","+0210,1","+0164,1","10155,1","06,0000,9,1",,,,,,"02,1,+00570,9,06,9",,,"07,99,1,02,1,05,1,00450,1,07,1,99,9",,"01,9",,,,"99999,9,10150,1","4,1,000,1,+007,1",,,"SYN106AAXX  11151 76458 32470 73203 10210 20164 30150 40155 54001 8257/ 91440 333 30/// 5649/ 58007 82619 85356;","Q01  00002PRCP06"
"76458099999","2004-01-12T00:00:00","4","23.2","-106.4166666","4.0","COLONIA JUAN CARRASCO MAZATLAN SIN., MX","FM-12","99999","V020","120,1,N,0020,1","22000,1,9,N","018000,1,N,1","+0264,1","+0150,1","10145,1","06,0000,9,1",,,,,,,,,"02,99,1,99,9,00,1,99999,9,03,1,00,1",,"01,9",,"120,M,+0282,1","180,N,+0196,1","99999,9,10141,1","7,1,006,1,+021,1",,,"SYN118AAXX  12001 76458 32968 21202 10264 20150 30141 40145 57006 80030 92350 333 10282 20196 30/// 50151 56090 58021 82358;","Q01+000002SCOTLCQ02  00002PRCP06"
"76458099999","2004-01-12T03:00:00","4","23.2","-106.4166666","4.0","COLONIA JUAN CARRASCO MAZATLAN SIN., MX","FM-12","99999","V020","340,1,N,0020,1","22000,1,9,N","010000,1,N,1","+0221,1","+0173,1","10156,1","06,0000,9,1",,,,,,"00,1,+99999,9,99,9",,,"00,99,1,00,1,00,1,99999,9,00,1,00,1",,"01,9",,,,"99999,9,10152,1","2,1,011,1,+015,1",,,"SYN082AAXX  12031 76458 32960 03402 10221 20173 30152 40156 52011 90246 333 30/// 58015;","Q01  00002PRCP06"
"76458099999","2004-01-12T09:00:00","4","23.2","-106.4166666","4.0","COLONIA JUAN CARRASCO MAZATLAN SIN., MX","FM-12","99999","V020","150,1,N,0010,1","03600,1,C,N","010000,1,N,1","+0208,1","+0168,1","10177,1","06,0000,9,1",,,,,,"04,1,+00510,9,06,9",,,"07,99,1,04,1,04,1,00450,1,05,1,00,1",,"01,9",,,,"99999,9,10172,1","2,1,006,1,+013,1",,,"SYN106AAXX  12091 76458 32460 71501 10208 20168 30172 40177 52006 84450 90855 333 30/// 56550 58013 84617 83359;","Q01  00002PRCP06"
"76458099999","2004-01-12T12:00:00","4","23.2","-106.4166666","4.0","COLONIA JUAN CARRASCO MAZATLAN SIN., MX","FM-12","99999","V020","100,1,N,0040,1","00420,1,9,N","005000,1,N,1","+0208,1","+0162,1","10185,1","06,0000,9,1","24,9999,9,9",,,,,,,,"07,99,1,07,1,05,1,00450,1,00,1,00,1",,"01,9",,"999,M,+0282,1","120,N,+0184,1","99999,9,10181,1","2,1,009,1,+032,1",,,"SYN124AAXX  12121 76458 32450 71004 10208 20162 30181 40185 52009 87500 91140 333 10282 20184 30/// 30018 56500 58032 79999 87619;","Q01  00002PRCP06Q02  99992PRCP24"
"76458099999","2004-01-12T15:00:00","4","23.2","-106.4166666","4.0","COLONIA JUAN CARRASCO MAZATLAN SIN., MX","FM-12","99999","V020","090,1,N,0020,1","99999,9,9,N","015000,1,N,1","+0212,1","+0177,1","10186,1","02,0010,9,2","06,0000,9,2",,,"9,1,03,1","6,1,03,1","04,1,+02400,9,03,9",,,"07,99,1,04,1,00,1,99999,9,05,1,06,1",,"09,9",,,,"99999,9,10182,1","4,1,000,1,+032,1","04,1",,"SYN118AAXX  12151 76458 31965 70902 10212 20177 30182 40186 54000 60016 70496 84056 91455 333 31/// 56/00 58032 84358 83270;","Q01  00002PRCP06"
"76458099999","2004-01-12T18:00:00","4","23.2","-106.4166666","4.0","COLONIA JUAN CARRASCO MAZATLAN SIN., MX","FM-12","99999","V020","010,1,N,0010,1","99999,9,9,N","020000,1,N,1","+0242,1","+0173,1","10191,1","06,0010,9,1",,,,,,"04,1,+02400,9,03,9",,,"07,99,1,04,1,00,1,99999,9,03,1,06,1",,"01,9",,"120,M,+0252,1","240,N,+0182,1","99999,9,10186,1","0,1,004,1,+021,1",,,"SYN124AAXX  12181 76458 12970 70101 10242 20173 30186 40191 50004 60011 84036 91748 333 10252 20182 30/// 56/00 58021 84358 83270;",
"76458099999","2004-01-13T00:00:00","4","23.2","-106.4166666","4.0","COLONIA JUAN CARRASCO MAZATLAN SIN., MX","FM-12","99999","V020","180,1,N,0010,1","99999,9,9,N","018000,1,N,1","+0222,1","+0190,1","10178,1","06,0020,9,1",,,,"5,1,06,1","5,1,06,1",,,,"08,99,1,99,9,99,9,99999,9,99,9,99,9",,,,,,"99999,9,10174,1","2,1,017,1,+999,9","51,1",,"SYN072AAXX  13001 76458 21968 81801 10222 20190 30174 40178 52017 60021 75155;",
"76458099999","2004-01-13T03:00:00","4","23.2","-106.4166666","4.0","COLONIA JUAN CARRASCO MAZATLAN SIN., MX","FM-12","99999","V020","360,1,N,0020,1","00390,1,9,N","008000,1,N,1","+0206,1","+0175,1","10188,1","03,0030,9,1",,,,,,"05,1,+00390,9,06,9",,,"08,99,1,05,1,05,1,00250,1,02,1,99,9",,"09,9",,,,"99999,9,10184,1","2,1,010,1,+032,1",,,"SYN112AAXX  13031 76458 12358 83602 10206 20175 30184 40188 52010 60037 8552/ 90240 333 31/// 5669/ 58032 85613 83458;",
"76458099999","2004-01-13T06:00:00","4","23.2","-106.4166666","4.0","COLONIA JUAN CARRASCO MAZATLAN SIN., MX","FM-12","99999","V020","330,1,N,0020,1","22000,1,9,N","008000,1,N,1","+0210,1","+0180,1","10184,1","06,0000,2,1",,,,,,,,,"03,99,1,03,1,99,9,02250,1,03,1,99,9","0036,9","09,9",,"240,M,+0282,1","240,N,+0182,1","99999,9,10180,1","5,1,004,1,+014,1",,,"SYN118AAXX  13061 76458 32858 33302 10210 20180 30180 40184 55004 83/3/ 90535 333 10282 20182 31/// 55006 20557 58014 83356;",
"76458099999","2004-01-13T12:00:00","4","23.2","-106.4166666","4.0","COLONIA JUAN CARRASCO MAZATLAN SIN., MX","FM-12","99999","V020","130,1,N,0020,1","00210,1,9,N","008000,1,N,1","+0207,1","+0185,1","10163,1","06,0000,9,1","24,0045,9,1",,,,,,,,"08,99,1,08,1,05,1,00250,1,00,1,00,1",,"01,9",,"999,M,+0282,1","120,N,+0190,1","99999,9,10158,1","6,1,004,1,-023,1",,,"SYN124AAXX  13121 76458 32358 81302 10207 20185 30158 40163 56004 88500 91140 333 10282 20190 30/// 30019 56500 59023 70045 88609;","Q01  00002PRCP06"
"76458099999","2004-01-13T15:00:00","4","23.2","-106.4166666","4.0","COLONIA JUAN CARRASCO MAZATLAN SIN., MX","FM-12","99999","V020","360,1,N,0020,1","03600,1,C,N","013000,1,N,1","+0197,1","+0186,1","10185,1","03,0040,9,1",,,,"6,1,03,1","5,1,03,1","03,1,+00150,9,06,9",,,"08,99,1,03,1,05,1,00150,1,02,1,99,9",,"11,9",,,,"99999,9,10180,1","2,1,022,1,-001,1","51,1",,"SYN118AAXX  13151 76458 21263 83602 10197 20186 30180 40185 52022 75165 8352/ 91445 333 32/// 5600/ 59001 60047 83605 85460;",
"76458099999","2004-01-13T18:00:00","4","23.2","-106.4166666","4.0","COLONIA JUAN CARRASCO MAZATLAN SIN., MX","FM-12","99999","V020","360,1,N,0030,1","99999,9,9,N","015000,1,N,1","+0214,1","+0181,1","10184,1","06,0041,9,1",,,,"5,1,06,1","2,1,06,1",,,,"08,99,1,99,9,99,9,99999,9,99,9,99,9",,,,,,"99999,9,10180,1","4,1,000,1,+999,9","50,1",,"SYN072AAXX  13181 76458 01965 83603 10214 20181 30180 40184 54000 60041 75052;",
"76458099999","2004-01-13T21:00:00","4","23.2","-106.4166666","4.0","COLONIA JUAN CARRASCO MAZATLAN SIN., MX","FM-12","99999","V020","090,1,N,0020,1","02400,1,9,N","015000,1,N,1","+0220,1","+0191,1","10158,1","06,0000,2,1",,,,"5,1,03,1","5,1,03,1","08,1,+02400,9,04,9",,,"08,99,1,99,9,00,1,99999,9,02,1,00,1",,"09,9",,,,"99999,9,10154,1","7,1,026,1,-003,1","52,1",,"SYN106AAXX  13211 76458 31965 80902 10220 20191 30154 40158 57026 75255 80020 92050 333 31/// 56090 59003 88458;","Q01+000002SCOTLC"
"76458099999","2004-01-14T00:00:00","4","23.2","-106.4166666","4.0","COLONIA JUAN CARRASCO MAZATLAN SIN., MX","FM-12","99999","V020","110,1,N,0020,1","99999,9,9,N","015000,1,N,1","+0218,1","+0183,1","10158,1","06,0000,2,1","24,0006,9,1",,,"5,1,06,1","5,1,06,1",,,,"07,99,1,99,9,00,1,99999,9,05,1,00,1",,"09,9",,"120,M,+0280,1","180,N,+0180,1","99999,9,10154,1","4,1,000,1,-020,1","52,1",,"SYN130AAXX  14001 76458 32965 71102 10218 20183 30154 40158 54000 75255 80050 92342 333 10280 20180 31/// 5//// 56090 59020 70006 87358;","Q01+000002SCOTLC"
"76458099999","2004-01-14T03:00:00","4","23.2","-106.4166666","4.0","COLONIA JUAN CARRASCO MAZATLAN SIN., MX","FM-12","99999","V020","090,1,N,0030,1","00750,1,9,N","010000,1,N,1","+0233,1","+0170,1","10170,1","06,0000,2,1",,,,,,,,,"07,99,1,07,1,04,1,00800,1,00,1,00,1",,"01,9",,,,"99999,9,10165,1","2,1,011,1,-019,1",,,"SYN099AAXX  14031 76458 32560 70903 10233 20170 30165 40170 52011 87400 9025 333 30/// 569// 59019 87626;",
"76458099999","2004-01-14T06:00:00","4","23.2","-106.4166666","4.0","COLONIA JUAN CARRASCO MAZATLAN SIN., MX","FM-12","99999","V020","110,1,N,0030,1","99999,9,9,N","010000,1,N,1","+0217,1","+0185,1","10177,1","06,0010,9,1",,,,"5,1,06,1","5,1,06,1",,,,"08,99,1,99,9,99,9,00450,1,99,9,99,9",,,,,,"99999,9,10172,1","2,1,007,1,+999,9","50,1",,"SYN072AAXX  14061 76458 01460 81103 10217 20185 30172 40177 52007 60011 75055;",
"76458099999","2004-01-14T12:00:00","4","23.2","-106.4166666","4.0","COLONIA JUAN CARRASCO MAZATLAN SIN., MX","FM-12","99999","V020","090,1,N,0070,1","99999,9,9,N","010000,1,N,1","+0196,1","+0181,1","10154,1","06,0051,9,1",,,,"5,1,06,1","5,1,06,1",,,,"08,99,1,99,9,99,9,00150,1,99,9,99,9",,,,,,"99999,9,10149,1","5,1,030,1,+999,9","50,1",,"SYN072AAXX  14121 76458 11260 80907 10196 20181 30149 40154 55030 60051 75055;",
"76458099999","2004-01-14T15:00:00","4","23.2","-106.4166666","4.0","COLONIA JUAN CARRASCO MAZATLAN SIN., MX","FM-12","99999","V020","130,1,N,0030,1","04200,1,9,N","015000,1,N,1","+0204,1","+0163,1","10157,1","03,9999,2,9",,,,"0,1,03,1","5,1,03,1","05,1,+04200,9,03,9",,,"07,99,1,05,1,00,1,02250,1,03,1,08,1",,"09,9",,,,"99999,9,10152,1","3,1,003,1,-028,1","02,1",,"SYN118AAXX  14151 76458 21865 71303 10204 20163 30152 40157 53003 70205 85038 91448 333 31/// 56/99 59028 69907 85364 82268;",
"76458099999","2004-01-14T18:00:00","4","23.2","-106.4166666","4.0","COLONIA JUAN CARRASCO MAZATLAN SIN., MX","FM-12","99999","V020","140,1,N,0030,1","00570,1,9,N","020000,1,N,1","+0227,1","+0181,1","10168,1","06,0000,2,1",,,,,,"06,1,+00570,9,06,9",,,"07,99,1,06,1,04,1,00450,1,00,1,08,1",,"09,9",,,,"99999,9,10163,1","2,1,011,1,-017,1",,,"SYN118AAXX  14181 76458 32470 71403 10227 20181 30163 40168 52011 86408 91745 333 19231 29171 31/// 564/9 59017 86619 81268;",
"76458099999","2004-01-14T21:00:00","4","23.2","-106.4166666","4.0","COLONIA JUAN CARRASCO MAZATLAN SIN., MX","FM-12","99999","V020","150,1,N,0020,1","00570,1,9,N","020000,1,N,1","+0234,1","+0187,1","10133,1","06,0000,9,1",,,,,,"06,1,+00570,9,06,9",,,"07,99,1,06,1,04,1,00450,1,03,1,00,1",,"01,9",,,,"99999,9,10129,1","7,1,034,1,-025,1",,,"SYN106AAXX  14211 76458 32470 71502 10234 20187 30129 40133 57034 86430 92048 333 30/// 56490 59025 86619 81358;","Q01  00002PRCP06"
"76458099999","2004-01-15T00:00:00","4","23.2","-106.4166666","4.0","COLONIA JUAN CARRASCO MAZATLAN SIN., MX","FM-12","99999","V020","140,1,N,0030,1","01020,1,9,N","020000,1,N,1","+0248,1","+0166,1","10125,1","06,0000,9,1","24,0050,9,1",,,,,"06,1,+01020,9,06,9",,,"06,99,1,06,1,05,1,01250,1,00,1,00,1",,"01,9",,"120,M,+0266,1","180,N,+0171,1","99999,9,10121,1","7,1,008,1,-033,1",,,"SYN118AAXX  15001 76458 32670 61403 10248 20166 30121 40125 57008 86500 92340 333 10266 20171 30/// 5//// 59033 70050 86634;","Q01  00002PRCP06"
"76458099999","2004-01-15T03:00:00","4","23.2","-106.4166666","4.0","COLONIA JUAN CARRASCO MAZATLAN SIN., MX","FM-12","99999","V020","130,1,N,0030,1","00390,1,9,N","008000,1,N,1","+0226,1","+0194,1","10143,1","06,0000,9,1",,,,,,"08,1,+00390,9,06,9",,,"08,99,1,08,1,05,1,00450,1,99,9,99,9",,"09,9",,,,"99999,9,10138,1","2,1,017,1,-027,1",,,"SYN100AAXX  15031 76458 32458 81303 10226 20194 30138 40143 52017 885// 90245 333 31/// 564// 59027 88613;","Q01  00002PRCP06"
"76458099999","2004-01-15T06:00:00","4","23.2","-106.4166666","4.0","COLONIA JUAN CARRASCO MAZATLAN SIN., MX","FM-12","99999","V020","020,1,N,0090,1","03600,1,C,N","008000,1,N,1","+0218,1","+0186,1","10148,1","06,0000,9,1",,,,,,"02,1,+00390,9,06,9",,,"05,99,1,02,1,05,1,00450,1,03,1,99,9","0150,9","09,9",,"240,M,+0266,1","240,N,+0171,1","99999,9,10144,1","1,1,006,1,-028,1",,,"SYN124AAXX  15061 76458 32458 50209 10218 20186 30144 40148 51006 8253/ 90535 333 10266 20171 31/// 55025 5619/ 59028 82613 83356;","Q01  00002PRCP06"
"76458099999","2004-01-15T12:00:00","4","23.2","-106.4166666","4.0","COLONIA JUAN CARRASCO MAZATLAN SIN., MX","FM-12","99999","V020","120,1,N,0020,1","00420,1,9,N","010000,1,N,1","+0208,1","+0181,1","10133,1","06,0010,9,1","24,0016,9,1",,,,,,,,"06,99,1,06,1,07,1,00450,1,00,1,00,1",,"09,9",,"999,M,+0266,1","120,N,+0194,1","99999,9,10129,1","5,1,004,1,-020,1",,,"SYN130AAXX  15121 76458 11460 61202 10208 20181 30129 40133 55004 60011 86700 91156 333 10266 20194 31/// 30019 56400 59020 70016 86811;",
"76458099999","2004-01-15T15:00:00","4","23.2","-106.4166666","4.0","COLONIA JUAN CARRASCO MAZATLAN SIN., MX","FM-12","99999","V020","070,1,N,0030,1","22000,1,9,N","020000,1,N,1","+0206,1","+0179,1","10141,1","03,9999,9,9",,,,"5,1,03,1","5,1,03,1","04,1,+00330,9,06,9",,,"04,99,1,04,1,04,1,00450,1,00,1,00,1",,"09,9",,,,"99999,9,10137,1","2,1,008,1,-015,1","01,1",,"SYN112AAXX  15151 76458 21470 40703 10206 20179 30137 40141 52008 70155 84400 91447 333 31/// 564// 59015 69907 84611;","Q01  99992PRCP03"
"76458099999","2004-01-15T18:00:00","4","23.2","-106.4166666","4.0","COLONIA JUAN CARRASCO MAZATLAN SIN., MX","FM-12","99999","V020","170,1,N,0030,1","99999,9,9,N","020000,1,N,1","+0242,1","+0190,1","10147,1","06,0010,9,1",,,,"5,1,06,1","5,1,06,1",,,,"07,99,1,99,9,99,9,00800,1,99,9,99,9",,,,,,"99999,9,10142,1","0,1,005,1,+999,9","50,1",,"SYN072AAXX  15181 76458 01570 71703 10242 20190 30142 40147 50005 60011 75055;",
"76458099999","2004-01-15T21:00:00","4","23.2","-106.4166666","4.0","COLONIA JUAN CARRASCO MAZATLAN SIN., MX","FM-12","99999","V020","120,1,N,0030,1","22000,1,9,N","020000,1,N,1","+0243,1","+0192,1","10115,1","06,0000,2,1",,,,,,"03,1,+00630,9,08,9",,,"04,99,1,03,1,02,1,00800,1,00,1,00,1",,"01,9",,,,"99999,9,10111,1","7,1,031,1,-018,1",,,"SYN100AAXX  15211 76458 32570 41203 10243 20192 30111 40115 57031 83200 92050 333 30/// 56400 59018 83821;",
"76458099999","2004-01-16T00:00:00","4","23.2","-106.4166666","4.0","COLONIA JUAN CARRASCO MAZATLAN SIN., MX","FM-12","99999","V020","130,1,N,0050,1","03600,1,9,N","020000,1,N,1","+0230,1","+0198,1","10115,1","06,0000,2,1","24,0001,9,1",,,,,"03,1,+00390,9,06,9",,,"05,99,1,03,1,05,1,00450,1,03,1,00,1",,"01,9",,"120,M,+0261,1","180,N,+0190,1","99999,9,10110,1","4,1,000,1,-011,1",,,"SYN130AAXX  16001 76458 32470 51305 10230 20198 30110 40115 54001 83530 92340 333 10261 20190 30/// 5//// 56490 59011 70001 83613 82358;",
"76458099999","2004-01-16T03:00:00","4","23.2","-106.4166666","4.0","COLONIA JUAN CARRASCO MAZATLAN SIN., MX","FM-12","99999","V020","120,1,N,0030,1","22000,1,9,N","008000,1,N,1","+0214,1","+0177,1","10130,1","06,0000,9,1",,,,,,,,,"01,99,1,00,1,99,9,99999,9,99,9,99,9",,"01,9",,,,"99999,9,10126,1","2,1,016,1,-012,1",,,"SYN095AAXX  16031 76458 32958 11203 10214 20177 30126 40130 52016 80///1 90245 333 30/// 59012 81070;","Q01  00002PRCP06"
"76458099999","2004-01-16T06:00:00","4","23.2","-106.4166666","4.0","COLONIA JUAN CARRASCO MAZATLAN SIN., MX","FM-12","99999","V020","090,1,N,0020,1","22000,1,9,N","008000,1,N,1","+0198,1","+0167,1","10135,1","06,0000,9,1",,,,"0,1,06,1","0,1,06,1","01,1,+00600,9,09,9",,,"02,99,1,02,1,09,1,00450,1,99,9,99,9","0312,9","01,9",,"240,M,+0261,1","240,N,+0190,1","99999,9,10130,1","1,1,004,1,-014,1","13,1",,"SYN136AAXX  16061 76458 31458 20902 10198 20167 30130 40135 51004 71300 829// 90535 333 10261 20190 30/// 55052 20805 562// 59014 81920 81613;","Q01  00002PRCP06"
"76458099999","2004-01-16T12:00:00","4","23.2","-106.4166666","4.0","COLONIA JUAN CARRASCO MAZATLAN SIN., MX","FM-12","99999","V020","030,1,N,0030,1","99999,9,9,N","008000,1,N,1","+0181,1","+0172,1","10108,1","06,0150,9,1",,,,"5,1,06,1","2,1,06,1",,,,"08,99,1,99,9,99,9,00150,1,99,9,99,9",,,,,,"99999,9,10103,1","7,1,006,1,+999,9","60,1",,"SYN072AAXX  121 7 76458 11258 80303 10181 20172 30103 40108 57006 60151 76052;",
"76458099999","2004-01-16T15:00:00","4","23.2","-106.4166666","4.0","COLONIA JUAN CARRASCO MAZATLAN SIN., MX","FM-12","99999","V020","020,1,N,0020,1","00900,1,9,N","018000,1,N,1","+0174,1","+0152,1","10121,1","03,0030,9,1",,,,"9,1,03,1","6,1,03,1","06,1,+00900,9,06,9",,,"06,99,1,06,1,04,1,01250,1,00,1,00,1",,"09,9",,,,"99999,9,10116,1","2,1,013,1,-021,1","04,1",,"SYN112AAXX  16151 76458 11668 60202 10174 20152 30116 40121 52013 70496 86400 91448 333 31/// 563// 59021 60037 86630;",
"76458099999","2004-01-16T21:00:00","4","23.2","-106.4166666","4.0","COLONIA JUAN CARRASCO MAZATLAN SIN., MX","FM-12","99999","V020","260,1,N,0020,1","22000,1,9,N","020000,1,N,1","+0231,1","+0171,1","10103,1","06,0000,9,1",,,,,,"01,1,+00750,9,08,9",,,"02,99,1,01,1,02,1,00800,1,03,1,00,1",,"09,9",,,,"99999,9,10099,1","7,1,018,1,-012,1",,,"SYN106AAXX  16211 76458 32570 22602 10231 20171 30099 40103 57018 81230 92035 333 31/// 56190 59012 81825 81358;","Q01  00002PRCP06"
"76458099999","2004-01-17T00:00:00","4","23.2","-106.4166666","4.0","COLONIA JUAN CARRASCO MAZATLAN SIN., MX","FM-12","99999","V020","210,1,N,0020,1","22000,1,9,N","020000,1,N,1","+0230,1","+0152,1","10095,1","06,0000,9,1","24,0018,9,1",,,,,,,,"01,99,1,01,1,02,1,00800,1,00,1,00,1",,"01,9",,"120,M,+0252,1","180,N,+0155,1","99999,9,10091,1","7,1,008,1,-019,1",,,"SYN124AAXX  17001 76458 32570 12102 10230 20152 30091 40095 57008 81200 92340 333 10252 20155 30/// 5//// 56100 59019 70018 81832;","Q01  00002PRCP06"
"76458099999","2004-01-17T03:00:00","4","23.2","-106.4166666","4.0","COLONIA JUAN CARRASCO MAZATLAN SIN., MX","FM-12","99999","V020","230,1,N,0020,1","22000,1,9,N","010000,1,N,1","+0216,1","+0140,1","10117,1","06,0000,9,1",,,,,,"00,1,+99999,9,99,9",,,"00,99,1,00,1,00,1,99999,9,00,1,00,1",,"01,9",,,,"99999,9,10112,1","2,1,021,1,-014,1",,,"SYN082AAXX  17031 76458 32960 02302 10216 20140 30112 40117 52021 90247 333 30/// 59014;","Q01  00002PRCP06"
"76458099999","2004-01-17T06:00:00","4","23.2","-106.4166666","4.0","COLONIA JUAN CARRASCO MAZATLAN SIN., MX","FM-12","99999","V020","999,9,C,0000,1","22000,1,9,N","010000,1,N,1","+0192,1","+0160,1","10125,1","06,0000,9,1",,,,"9,1,06,1","0,1,06,1",,,,"01,99,1,01,1,09,1,00450,1,00,1,00,1","0432,9","01,9",,"240,M,+0252,1","240,N,+0155,1","99999,9,10121,1","1,1,009,1,-009,1","13,1",,"SYN130AAXX  17061 76458 31460 10000 10192 20160 30121 40125 51009 71390 81900 90540 333 10252 20155 30/// 55072 20828 562// 59009 81913;","Q01  00002PRCP06"
"76458099999","2004-01-17T09:00:00","4","23.2","-106.4166666","4.0","COLONIA JUAN CARRASCO MAZATLAN SIN., MX","FM-12","99999","V020","150,1,N,0050,1","22000,1,9,N","008000,1,N,1","+0174,1","+0121,1","10131,1","02,0089,9,1",,,,"9,1,03,1","9,1,03,1","02,1,+00600,9,09,9",,,"04,99,1,02,1,09,1,00800,1,99,9,02,1",,"11,9",,,,"99999,9,10126,1","0,1,005,1,+016,1","13,1",,"SYN118AAXX  17091 76458 11558 41505 10174 20121 30126 40131 50005 60096 71399 829/2 90840 333 32/// 567/9 58016 82920 82070;",
"76458099999","2004-01-17T12:00:00","4","23.2","-106.4166666","4.0","COLONIA JUAN CARRASCO MAZATLAN SIN., MX","FM-12","99999","V020","060,1,N,0010,1","22000,1,9,N","008000,1,N,1","+0156,1","+0133,1","10134,1","06,0000,9,1","24,0138,9,1",,,,,"04,1,+00300,9,06,9",,,"04,99,1,04,1,05,1,00150,1,99,9,99,9",,"09,9","999,+0130,9","999,M,+0250,1","120,N,+0145,1","99999,9,10130,1","1,1,004,1,+027,1",,,"SYN118AAXX  17121 76458 32258 40601 10156 20133 30130 40134 51004 845// 91140 333 10250 20145 31013 566// 58027 70138 84610;","Q01  00002PRCP06"
"76458099999","2004-01-17T15:00:00","4","23.2","-106.4166666","4.0","COLONIA JUAN CARRASCO MAZATLAN SIN., MX","FM-12","99999","V020","060,1,N,0010,1","22000,1,9,N","018000,1,N,1","+0166,1","+0137,1","10147,1","06,0000,9,1",,,,,,"01,1,+02400,9,03,9",,,"01,99,1,01,1,00,1,99999,9,03,1,00,1",,"01,9",,,,"99999,9,10140,1","2,1,010,1,+024,1",,,"SYN100AAXX  17151 76458 32968 10601 10166 20137 30140 40147 52010 81030 91445 333 30/// 56/0/ 58024 81358;","Q01  00002PRCP06"
"76458099999","2004-01-17T18:00:00","4","23.2","-106.4166666","4.0","COLONIA JUAN CARRASCO MAZATLAN SIN., MX","FM-12","99999","V020","150,1,N,0020,1","22000,1,9,N","025000,1,N,1","+0216,1","+0100,1","10155,1","06,0000,9,1",,,,,,"01,1,+00750,9,08,9",,,"01,99,1,01,1,02,1,01250,1,00,1,00,1",,"01,9",,"120,M,+0232,1","240,N,+0140,1","99999,9,10150,1","1,1,010,1,+033,1",,,"SYN112AAXX  17181 76458 32675 11502 10216 20100 30150 40155 51010 81200 91755 333 10232 20140 30/// 563// 58033 81825;","Q01  00002PRCP06"
"76458099999","2004-01-17T21:00:00","4","23.2","-106.4166666","4.0","COLONIA JUAN CARRASCO MAZATLAN SIN., MX","FM-12","99999","V020","190,1,N,0030,1","22000,1,9,N","025000,1,N,1","+0229,1","+0136,1","10144,1","06,0000,9,1",,,,,,"01,1,+01170,9,08,9",,,"01,99,1,01,1,01,1,01250,1,00,1,00,1",,"01,9",,,,"99999,9,10139,1","7,1,011,1,+040,1",,,"SYN100AAXX  17211 76458 32675 11903 10229 20136 30139 40144 57011 81100 92047 333 30/// 561// 58040 81839;","Q01  00002PRCP06"
"76458099999","2004-01-18T00:00:00","4","23.2","-106.4166666","4.0","COLONIA JUAN CARRASCO MAZATLAN SIN., MX","FM-12","99999","V020","240,1,N,0020,1","22000,1,9,N","025000,1,N,1","+0223,1","+0135,1","10145,1","06,0000,9,1","24,0106,9,1",,,,,,,,"01,99,1,01,1,02,1,01250,1,00,1,00,1",,"01,9",,"120,M,+0243,1","180,N,+0140,1","99999,9,10140,1","3,1,001,1,+049,1",,,"SYN124AAXX  18001 76458 32675 12402 10223 20135 30140 40145 53001 81200 92345 333 10243 20140 30/// 50341 561// 58049 70106 81837;","Q01  00002PRCP06"
"76458099999","2004-01-18T03:00:00","4","23.2","-106.4166666","4.0","COLONIA JUAN CARRASCO MAZATLAN SIN., MX","FM-12","99999","V020","330,1,N,0020,1","22000,1,9,N","008000,1,N,1","+0194,1","+0157,1","10147,1","06,0000,9,1",,,,,,"00,1,+99999,9,99,9",,,"00,99,1,00,1,00,1,99999,9,00,1,00,1",,"01,9",,,,"99999,9,10142,1","1,1,002,1,+030,1",,,"SYN082AAXX  18031 76458 32958 03302 10194 20157 30142 40147 51002 90240 333 30/// 58030;","Q01  00002PRCP06"
"76458099999","2004-01-18T06:00:00","4","23.2","-106.4166666","4.0","COLONIA JUAN CARRASCO MAZATLAN SIN., MX","FM-12","99999","V020","330,1,N,0010,1","22000,1,9,N","008000,1,N,1","+0176,1","+0147,1","10155,1","06,0000,9,1",,,,,,"00,1,+99999,9,99,9",,,"00,99,1,00,1,00,1,99999,9,00,1,00,1","0510,9","01,9",,"240,M,+0243,1","240,N,+0140,1","99999,9,10151,1","2,1,009,1,+999,9",,,"SYN106AAXX  18061 76458 32958 03301 10176 20147 30151 40155 52009 90535 333 10243 20140 30/// 55085 20975 58030;","Q01  00002PRCP06"
"76458099999","2004-01-18T18:00:00","4","23.2","-106.4166666","4.0","COLONIA JUAN CARRASCO MAZATLAN SIN., MX","FM-12","99999","V020","360,1,N,0010,1","22000,1,9,N","008000,1,N,1","+0230,1","+0134,1","10173,1","06,0000,9,1",,,,,,"00,1,+99999,9,99,9",,,"00,99,1,00,1,00,1,99999,9,00,1,00,1",,"01,9",,"120,M,+0242,1","240,N,+0130,1","99999,9,10168,1","0,1,005,1,+018,1",,,"SYN094AAXX  18181 76458 32958 03601 10230 20134 30168 40173 50005 91740 333 10242 20130 30/// 58018;","Q01  00002PRCP06"
"76458099999","2004-01-18T21:00:00","4","23.2","-106.4166666","4.0","COLONIA JUAN CARRASCO MAZATLAN SIN., MX","FM-12","99999","V020","260,1,N,0030,1","22000,1,9,N","020000,1,N,1","+0230,1","+0152,1","10141,1","06,0000,9,1",,,,,,"00,1,+99999,9,99,9",,,"00,99,1,00,1,00,1,99999,9,00,1,00,1",,"01,9",,,,"99999,9,10137,1","7,1,031,1,-002,1",,,"SYN082AAXX  18211 76458 32970 02603 10230 20152 30137 40141 57031 92048 333 30/// 59002;","Q01  00002PRCP06"
"76458099999","2004-01-19T00:00:00","4","23.2","-106.4166666","4.0","COLONIA JUAN CARRASCO MAZATLAN SIN., MX","FM-12","99999","V020","270,1,N,0030,1","22000,1,9,N","020000,1,N,1","+0227,1","+0140,1","10129,1","06,0000,9,1","24,0000,9,1",,,,,"00,1,+99999,9,99,9",,,"00,99,1,00,1,00,1,99999,9,00,1,00,1",,"01,9",,"120,M,+0257,1","180,N,+0130,1","99999,9,10125,1","7,1,012,1,-015,1",,,"SYN106AAXX  19001 76458 32970 02703 10227 20140 30125 40129 57012 92338 333 10257 20130 30/// 52581 59015 70000;","Q01  00002PRCP06Q02  00002PRCP24"
"76458099999","2004-01-19T03:00:00","4","23.2","-106.4166666","4.0","COLONIA JUAN CARRASCO MAZATLAN SIN., MX","FM-12","99999","V020","330,1,N,0030,1","22000,1,9,N","010000,1,N,1","+0196,1","+0135,1","10144,1","06,0000,9,1",,,,,,"00,1,+99999,9,99,9",,,"00,99,1,00,1,00,1,99999,9,00,1,00,1",,"01,9",,,,"99999,9,10140,1","2,1,015,1,-002,1",,,"SYN082AAXX  19031 76458 32960 03303 10196 20135 30140 40144 52015 90247 333 30/// 59002;","Q01  00002PRCP06"
"76458099999","2004-01-19T06:00:00","4","23.2","-106.4166666","4.0","COLONIA JUAN CARRASCO MAZATLAN SIN., MX","FM-12","99999","V020","320,1,N,0020,1","22000,1,9,N","010000,1,N,1","+0177,1","+0117,1","10153,1","06,0000,9,1",,,,,,"00,1,+99999,9,99,9",,,"00,99,1,00,1,00,1,99999,9,00,1,00,1","0570,9","01,9",,"240,M,+0257,1","240,N,+0130,1","99999,9,10148,1","2,1,008,1,+999,9",,,"SYN106AAXX  19061 76458 32960 03202 10177 20117 30148 40153 52008 90535 333 10257 20130 30/// 55095 20836 59003;","Q01  00002PRCP06"
"76458099999","2004-01-19T12:00:00","4","23.2","-106.4166666","4.0","COLONIA JUAN CARRASCO MAZATLAN SIN., MX","FM-12","99999","V020","330,1,N,0010,1","22000,1,9,N","010000,1,N,1","+0144,1","+0113,1","10146,1","06,0000,9,1",,,,,,"00,1,+99999,9,99,9",,,"00,99,1,00,1,00,1,99999,9,00,1,00,1",,"01,9",,"999,M,+0257,1","120,N,+0130,1","99999,9,10141,1","7,1,002,1,-010,1",,,"SYN106AAXX  19121 76458 32960 03301 10144 20113 30141 40146 57002 91140 333 10257 20130 30/// 30011 59010 70000;","Q01  00002PRCP06"
"76458099999","2004-01-19T15:00:00","4","23.2","-106.4166666","4.0","COLONIA JUAN CARRASCO MAZATLAN SIN., MX","FM-12","99999","V020","999,9,C,0000,1","22000,1,9,N","015000,1,N,1","+0166,1","+0126,1","10155,1","06,0000,9,1",,,,,,"01,1,+06000,9,00,9",,,"01,99,1,00,1,00,1,99999,9,00,1,02,1",,"01,9",,,,"99999,9,10150,1","2,1,009,1,-013,1",,,"SYN100AAXX  19151 76458 32965 10000 10166 20126 30150 40155 52009 80002 91448 333 30/// 56//0 59013 81070;","Q01  00002PRCP06"
"76458099999","2004-01-19T18:00:00","4","23.2","-106.4166666","4.0","COLONIA JUAN CARRASCO MAZATLAN SIN., MX","FM-12","99999","V020","250,1,N,0020,1","22000,1,9,N","020000,1,N,1","+0217,1","+0142,1","10163,1","06,0000,9,1",,,,,,"01,1,+06000,9,00,9",,,"01,99,1,00,1,00,1,99999,9,00,1,02,1",,"01,9",,"120,M,+0242,1","240,N,+0133,1","99999,9,10158,1","1,1,008,1,-010,1",,,"SYN112AAXX  19181 76458 32970 12502 10217 20142 30158 40163 51008 80002 91750 333 10242 20133 30/// 56//0 59010 81070;","Q01  00002PRCP06"
"76458099999","2004-01-19T21:00:00","4","23.2","-106.4166666","4.0","COLONIA JUAN CARRASCO MAZATLAN SIN., MX","FM-12","99999","V020","250,1,N,0020,1","22000,1,9,N","002000,1,N,1","+0220,1","+0158,1","10136,1","06,0000,9,1",,,,,,"00,1,+99999,9,99,9",,,"00,99,1,00,1,00,1,99999,9,00,1,00,1",,"01,9",,,,"99999,9,10132,1","7,1,026,1,-005,1",,,"SYN082AAXX  19211 76458 32920 02502 10220 20158 30132 40136 57026 92052 333 30/// 59005;","Q01  00002PRCP06"
"76458099999","2004-01-20T00:00:00","4","23.2","-106.4166666","4.0","COLONIA JUAN CARRASCO MAZATLAN SIN., MX","FM-12","99999","V020","260,1,N,0020,1","22000,1,9,N","020000,1,N,1","+0226,1","+0151,1","10124,1","06,0000,9,1","24,0000,9,1",,,,,"00,1,+99999,9,99,9",,,"00,99,1,00,1,00,1,99999,9,00,1,00,1",,"01,9",,"120,M,+0248,1","180,N,+0133,1","99999,9,10120,1","7,1,012,1,-005,1",,,"SYN112AAXX  20001 76458 32970 02602 10226 20151 30120 40124 57012 82335 92340 333 10248 20133 30/// 50191 59005 70000;","Q01  00002PRCP06Q02  00002PRCP24"
"76458099999","2004-01-20T03:00:00","4","23.2","-106.4166666","4.0","COLONIA JUAN CARRASCO MAZATLAN SIN., MX","FM-12","99999","V020","360,1,N,0020,1","22000,1,9,N","008000,1,N,1","+0200,1","+0164,1","10136,1","06,0000,9,1",,,,,,"00,1,+99999,9,99,9",,,"00,99,1,00,1,00,1,99999,9,00,1,00,1",,"01,9",,,,"99999,9,10132,1","2,1,012,1,-008,1",,,"SYN082AAXX  20031 76458 32958 03602 10200 20164 30132 40136 52012 90240 333 30/// 59008;","Q01  00002PRCP06"
"76458099999","2004-01-20T12:00:00","4","23.2","-106.4166666","4.0","COLONIA JUAN CARRASCO MAZATLAN SIN., MX","FM-12","99999","V020","999,9,C,0000,1","22000,1,9,N","010000,1,N,1","+0164,1","+0145,1","10155,1","06,0000,9,1","24,0000,9,1",,,,,"00,1,+99999,9,99,9",,,"00,99,1,00,1,00,1,99999,9,00,1,00,1",,"01,9","999,+0140,9","999,M,+0248,1","120,N,+0152,1","99999,9,10150,1","1,1,003,1,+009,1",,,"SYN100AAXX  20121 76458 32960 00000 10164 20145 30150 40155 51003 91140 333 10248 20152 30014 58009 70000;","Q01  00002PRCP06Q02  00002PRCP24"
"76458099999","2004-01-20T15:00:00","4","23.2","-106.4166666","4.0","COLONIA JUAN CARRASCO MAZATLAN SIN., MX","FM-12","99999","V020","999,9,C,0000,1","99999,9,9,N","012000,1,N,1","+0170,1","+0148,1","10164,1","06,0000,9,1",,,,,,,,,"07,99,1,00,1,00,1,99999,9,00,1,06,1",,"01,9",,,,"99999,9,10159,1","2,1,009,1,+999,9",,,"SYN100AAXX  20151 76458 32962 70000 10170 20148 30159 40164 52009 80006 91448 333 30/// 58//0 58009 87270;","Q01  00002PRCP06"
"76458099999","2004-01-20T18:00:00","4","23.2","-106.4166666","4.0","COLONIA JUAN CARRASCO MAZATLAN SIN., MX","FM-12","99999","V020","100,1,N,0010,1","00840,1,9,N","015000,1,N,1","+0222,1","+0157,1","10177,1","06,0000,9,1",,,,,,"05,1,+00840,9,06,9",,,"07,99,1,05,1,04,1,00800,1,00,1,06,1",,"01,9",,"120,M,+0240,1","240,N,+0146,1","99999,9,10172,1","1,1,013,1,+014,1",,,"SYN118AAXX  20181 76458 32565 71001 10222 20157 30172 40177 51013 85406 91748 333 10240 20146 30/// 560/0 58014 85628 82270;","Q01  00002PRCP06"
"76458099999","2004-01-20T21:00:00","4","23.2","-106.4166666","4.0","COLONIA JUAN CARRASCO MAZATLAN SIN., MX","FM-12","99999","V020","260,1,N,0020,1","00660,1,9,N","015000,1,N,1","+0224,1","+0170,1","10158,1","06,0000,9,1",,,,,,"05,1,+00660,9,06,9",,,"07,99,1,05,1,05,1,00800,1,00,1,08,1",,"01,9",,,,"99999,9,10154,1","7,1,018,1,+022,1",,,"SYN106AAXX  20211 76458 32565 72602 10224 20170 30154 40158 57018 85508 92048 333 30/// 56909 58022 85622 82272;","Q01  00002PRCP06"
"76458099999","2004-01-21T03:00:00","4","23.2","-106.4166666","4.0","COLONIA JUAN CARRASCO MAZATLAN SIN., MX","FM-12","99999","V020","330,1,N,0020,1","22000,1,9,N","010000,1,N,1","+0203,1","+0168,1","10167,1","06,0000,9,1",,,,,,"03,1,+04200,9,03,9",,,"03,99,1,03,1,00,1,02250,1,03,1,00,1",,"01,9",,,,"99999,9,10162,1","1,1,010,1,+030,1",,,"SYN100AAXX  21031 76458 32860 33302 10203 20168 30162 40167 51010 83030 90248 333 30/// 56/9/ 58030 83364;","Q01  00002PRCP06"
"76458099999","2004-01-21T12:00:00","4","23.2","-106.4166666","4.0","COLONIA JUAN CARRASCO MAZATLAN SIN., MX","FM-12","99999","V020","330,1,N,0010,1","22000,1,9,N","010000,1,N,1","+0172,1","+0150,1","10176,1","06,0000,9,1",,,,,,"00,1,+99999,9,99,9",,,"00,99,1,00,1,00,1,99999,9,00,1,00,1",,"01,9",,"999,M,+0249,1","120,N,+0166,1","99999,9,10172,1","4,1,000,1,+022,1",,,"SYN106AAXX  21121 76458 32960 03301 10172 20150 30172 40176 54001 91140 333 10249 20166 30/// 30015 58022 70000;","Q01  00002PRCP06"
"76458099999","2004-01-21T15:00:00","4","23.2","-106.4166666","4.0","COLONIA JUAN CARRASCO MAZATLAN SIN., MX","FM-12","99999","V020","330,1,N,0010,1","22000,1,9,N","018000,1,N,1","+0170,1","+0148,1","10188,1","06,0000,9,1",,,,,,"02,1,+01080,9,00,9",,,"03,99,1,02,1,00,1,02250,1,03,1,06,1",,"01,9",,,,"99999,9,10183,1","2,1,011,1,+024,1",,,"SYN106AAXX  21151 76458 32868 33301 10170 20148 30183 40188 52011 82036 91445 333 30/// 56/99 58024 82364 81070;","Q01  00002PRCP06"
"76458099999","2004-01-21T18:00:00","4","23.2","-106.4166666","4.0","COLONIA JUAN CARRASCO MAZATLAN SIN., MX","FM-12","99999","V020","270,1,N,0030,1","22000,1,9,N","020000,1,N,1","+0227,1","+0121,1","10197,1","06,0000,9,1",,,,,,"01,1,+04200,9,03,9",,,"01,99,1,01,1,00,1,02250,1,03,1,00,1",,"01,9",,"120,M,+0243,1","240,N,+0154,1","99999,9,10193,1","0,1,010,1,+021,1",,,"SYN112AAXX  21181 76458 32870 12703 10227 20121 30193 40197 50010 81030 91745 333 10243 20154 30/// 56/9/ 58021 81364;","Q01  00002PRCP06"
"76458099999","2004-01-21T21:00:00","4","23.2","-106.4166666","4.0","COLONIA JUAN CARRASCO MAZATLAN SIN., MX","FM-12","99999","V020","270,1,N,0030,1","22000,1,9,N","020000,1,N,1","+0240,1","+0134,1","10179,1","06,0000,9,1",,,,,,"00,1,+99999,9,99,9",,,"00,99,1,00,1,00,1,99999,9,00,1,00,1",,"01,9",,,,"99999,9,10175,1","7,1,018,1,-021,1",,,"SYN082AAXX  21211 76458 32970 02703 10240 20134 30175 40179 57018 92035 333 30/// 59021;","Q01  00002PRCP06"
"76458099999","2004-01-22T00:00:00","4","23.2","-106.4166666","4.0","COLONIA JUAN CARRASCO MAZATLAN SIN., MX","FM-12","99999","V020","290,1,N,0030,1","22000,1,9,N","020000,1,N,1","+0236,1","+0130,1","10161,1","06,0000,9,1",,,,,,"00,1,+99999,9,99,9",,,"00,99,1,00,1,00,1,99999,9,00,1,00,1",,"01,9",,"120,M,+0257,1","180,N,+0154,1","99999,9,10157,1","7,1,018,1,+001,1",,,"SYN112AAXX  22001 76458 32970 02903 10236 20130 30157 40161 57018 92340 333 10257 20154 30/// 50301 58001 58005 70000;","Q01  00002PRCP06"
"76458099999","2004-01-22T03:00:00","4","23.2","-106.4166666","4.0","COLONIA JUAN CARRASCO MAZATLAN SIN., MX","FM-12","99999","V020","330,1,N,0020,1","22000,1,9,N","008000,1,N,1","+0204,1","+0130,1","10171,1","06,0000,9,1",,,,,,"00,1,+99999,9,99,9",,,"00,99,1,00,1,00,1,99999,9,00,1,00,1",,"01,9",,,,"99999,9,10167,1","2,1,010,1,+005,1",,,"SYN082AAXX  22031 76458 32958 03302 10204 20130 30167 40171 52010 90240 333 30/// 58005;","Q01  00002PRCP06"
"76458099999","2004-01-22T06:00:00","4","23.2","-106.4166666","4.0","COLONIA JUAN CARRASCO MAZATLAN SIN., MX","FM-12","99999","V020","330,1,N,0010,1","22000,1,9,N","008000,1,N,1","+0184,1","+0114,1","99999,9","06,0000,9,1",,,,,,"00,1,+99999,9,99,9",,,"00,99,1,00,1,00,1,99999,9,00,1,00,1","0516,9","01,9",,"240,M,+0257,1","240,N,+0154,1",,"2,1,011,1,+999,9",,,"SYN106AAXX  22061 76458 32958 03301 10184 20114 30078 40082 52011 90530 333 10257 20154 30/// 55086 20998 58007;","Q01+100783APOSP Q02+100823APOSLPQ03  00002PRCP06"
"76458099999","2004-01-22T09:00:00","4","23.2","-106.4166666","4.0","COLONIA JUAN CARRASCO MAZATLAN SIN., MX","FM-12","99999","V020","999,9,C,0000,1","22000,1,9,N","010000,1,N,1","+0170,1","+0112,1","10182,1","06,0000,9,1",,,,,,"00,1,+99999,9,99,9",,,"00,99,1,00,1,00,1,99999,9,00,1,00,1",,"01,9",,,,"99999,9,10178,1","4,1,000,1,+007,1",,,"SYN082AAXX  22091 76458 32960 00000 10170 20112 30178 40182 54000 90856 333 30/// 58007;","Q01  00002PRCP06"
"76458099999","2004-01-22T12:00:00","4","23.2","-106.4166666","4.0","COLONIA JUAN CARRASCO MAZATLAN SIN., MX","FM-12","99999","V020","999,9,C,0000,1","22000,1,9,N","010000,1,N,1","+0158,1","+0112,1","10182,1","06,0000,9,1",,,,,,"00,1,+99999,9,99,9",,,"00,99,1,00,1,00,1,99999,9,00,1,00,1",,"01,9",,"999,M,+0257,1","120,N,+0147,1","99999,9,10177,1","4,1,000,1,+006,1",,,"SYN106AAXX  22121 76458 32960 00000 10158 20112 30177 40182 56000 91140 333 10257 20147 30/// 30012 58006 70000;","Q01+000062APCTENQ02  00002PRCP06"
"76458099999","2004-01-22T21:00:00","4","23.2","-106.4166666","4.0","COLONIA JUAN CARRASCO MAZATLAN SIN., MX","FM-12","99999","V020","290,1,N,0030,1","99999,9,9,N","018000,1,N,1","+0218,1","+0126,1","10176,1","06,0000,9,1",,,,,,"02,1,+02400,9,03,9",,,"07,99,1,99,9,00,1,99999,9,03,1,08,1",,"01,9",,,,"99999,9,10172,1","7,1,018,1,-003,1",,,"SYN106AAXX  22211 76458 32968 72903 10218 20126 30172 40176 57018 80038 92038 333 30/// 56099 59003 82358 85272;","Q01+000002SCOTLCQ02  00002PRCP06"
"76458099999","2004-01-23T00:00:00","4","23.2","-106.4166666","4.0","COLONIA JUAN CARRASCO MAZATLAN SIN., MX","FM-12","99999","V020","310,1,N,0020,1","99999,9,9,N","018000,1,N,1","+0216,1","+0136,1","10167,1","06,0000,9,1",,,,,,"03,1,+02400,9,03,9",,,"07,99,1,99,9,00,1,99999,9,04,1,08,1",,"01,9",,"120,M,+0240,1","180,N,+0146,1","99999,9,10163,1","7,1,009,1,+006,1",,,"SYN124AAXX  23001 76458 32968 73102 10216 20136 30163 40167 57009 80048 92348 333 10240 20146 30/// 50251 56099 58006 83358 84270;","Q01+000002SCOTLCQ02  00002PRCP06"
"76458099999","2004-01-23T03:00:00","4","23.2","-106.4166666","4.0","COLONIA JUAN CARRASCO MAZATLAN SIN., MX","FM-12","99999","V020","320,1,N,0010,1","22000,1,9,N","008000,1,N,1","+0208,1","+0182,1","10184,1","06,0000,9,1",,,,,,"03,1,+01800,9,03,9",,,"03,99,1,03,1,99,9,99999,9,03,1,99,9",,"01,9",,,,"99999,9,10180,1","2,1,017,1,+013,1",,,"SYN094AAXX  23031 76458 32958 33201 10208 20182 30180 40184 52017 83/3/ 90245 333 30/// 58013 83356;","Q01  00002PRCP06"
"76458099999","2004-01-23T12:00:00","4","23.2","-106.4166666","4.0","COLONIA JUAN CARRASCO MAZATLAN SIN., MX","FM-12","99999","V020","330,1,N,0020,1","00120,1,9,N","010000,1,N,1","+0176,1","+0121,1","10182,1","06,0000,9,1","24,0000,9,1",,,,,,,,"07,99,1,07,1,04,1,00150,1,00,1,00,1",,"01,9",,"999,M,+0273,1","120,N,+0165,1","99999,9,10177,1","7,1,005,1,+000,1",,,"SYN118AAXX  23121 76458 35260 73302 10176 20121 30177 40182 57005 87400 91150 333 10273 20165 30/// 30015 59000 70000 87823;","Q01  00002PRCP06"
"76458099999","2004-01-23T15:00:00","4","23.2","-106.4166666","4.0","COLONIA JUAN CARRASCO MAZATLAN SIN., MX","FM-12","99999","V020","240,1,N,0020,1","03600,1,C,N","008000,1,N,1","+0176,1","+0140,1","10197,1","03,0010,9,1",,,,"5,1,03,1","2,1,03,1","03,1,+00450,9,06,9",,,"08,99,1,03,1,05,1,00450,1,02,1,99,9",,"11,9",,,,"99999,9,10192,1","2,1,015,1,+999,9","61,1",,"SYN112AAXX  23151 76458 21458 82402 10176 20140 30192 40197 52015 76152 8352/ 91445 333 32/// 5600/ 60017 83615 85460;",
"76458099999","2004-01-23T18:00:00","4","23.2","-106.4166666","4.0","COLONIA JUAN CARRASCO MAZATLAN SIN., MX","FM-12","99999","V020","030,1,N,0020,1","99999,9,9,N","008000,1,N,1","+0174,1","+0152,1","10207,1","06,0061,9,1",,,,"6,1,06,1","5,1,06,1",,,,"08,99,1,99,9,99,9,00250,1,99,9,99,9",,,,,,"99999,9,10202,1","1,1,010,1,+999,9","61,1",,"SYN072AAXX  23181 76458 01358 80302 10174 20152 30202 40207 51010 60061 76165;",
"76458099999","2004-01-24T00:00:00","4","23.2","-106.4166666","4.0","COLONIA JUAN CARRASCO MAZATLAN SIN., MX","FM-12","99999","V020","300,1,N,0020,1","09000,1,C,N","008000,1,N,1","+0188,1","+0176,1","10193,1","03,0020,9,1","24,0115,9,1",,,,,"02,1,+00150,9,06,9",,,"08,99,1,02,1,05,1,00150,1,00,1,06,1",,"11,9",,"120,M,+0200,1","180,N,+0166,1","99999,9,10188,1","2,1,009,1,+025,1",,,"SYN130AAXX  24001 76458 21258 83002 10188 20176 30188 40193 52009 82506 92340 333 10200 20166 32/// 56909 58025 60027 70115 82605 86472;",
"76458099999","2004-01-24T03:00:00","4","23.2","-106.4166666","4.0","COLONIA JUAN CARRASCO MAZATLAN SIN., MX","FM-12","99999","V020","050,1,N,0030,1","00210,1,9,N","008000,1,N,1","+0182,1","+0166,1","10200,1","03,0040,9,1",,,,"6,1,03,1","6,1,03,1","08,1,+00210,9,06,9",,,"08,99,1,08,1,05,1,00250,1,00,1,00,1",,"09,9",,,,"99999,9,10195,1","0,1,007,1,+015,1","50,1",,"SYN112AAXX  24031 76458 21358 80503 10182 20166 30195 40200 50007 75066 88500 90255 333 31/// 569// 58015 60047 88607;",
"76458099999","2004-01-24T06:00:00","4","23.2","-106.4166666","4.0","COLONIA JUAN CARRASCO MAZATLAN SIN., MX","FM-12","99999","V020","080,1,N,0020,1","22000,1,9,N","008000,1,N,1","+0182,1","+0166,1","10172,1","06,0041,9,1",,,,"5,1,06,1","5,1,06,1",,,,"03,99,1,99,9,99,9,00150,1,99,9,99,9",,,,,,"99999,9,10167,1","7,1,028,1,+999,9","02,1",,"SYN072AAXX  24061 76458 01258 30802 10182 20166 30167 40172 57028 60041 70255;",
"76458099999","2004-01-24T12:00:00","4","23.2","-106.4166666","4.0","COLONIA JUAN CARRASCO MAZATLAN SIN., MX","FM-12","99999","V020","120,1,N,0020,1","00240,1,9,N","008000,1,N,1","+0186,1","+0168,1","10144,1","06,0000,9,1","24,0155,9,1",,,,,"06,1,+00240,9,08,9",,,"06,99,1,06,1,01,1,99999,9,99,9,99,9",,"09,9",,"999,M,+0200,1","120,N,+0170,1","99999,9,10139,1","7,1,013,1,-038,1",,,"SYN118AAXX  24121 76458 32958 61202 10186 20168 30139 40144 57013 861// 91140 333 10200 20170 31/// 56/// 59038 70155 86808;","Q01  00002PRCP06"
"76458099999","2004-01-24T15:00:00","4","23.2","-106.4166666","4.0","COLONIA JUAN CARRASCO MAZATLAN SIN., MX","FM-12","99999","V020","270,1,N,0020,1","00150,1,9,N","008000,1,N,1","+0184,1","+0176,1","10158,1","03,0090,9,1",,,,"6,1,03,1","5,1,03,1","08,1,+00150,9,05,9",,,"08,99,1,08,1,02,1,00150,1,00,1,99,9",,"11,9",,,,"99999,9,99999,9","2,1,014,1,-039,1","60,1",,"SYN112AAXX  24151 76458 21258 82702 10184 20176 30753 40158 52014 76065 8820/ 91445 333 32/// 563// 59039 60097 88505;","Q01+097533APOSP Q02 097533APOSP "
"76458099999","2004-01-24T21:00:00","4","23.2","-106.4166666","4.0","COLONIA JUAN CARRASCO MAZATLAN SIN., MX","FM-12","99999","V020","290,1,N,0030,1","22000,1,9,N","025000,1,N,1","+0227,1","+0151,1","10167,1","06,0000,2,1",,,,,,"01,1,+00960,9,08,9",,,"02,99,1,01,1,02,1,00800,1,03,1,00,1",,"01,9",,,,"99999,9,10162,1","7,1,009,1,-017,1",,,"SYN106AAXX  24211 76458 32575 22903 10227 20151 30162 40167 57009 81230 92048 333 30/// 5673/ 59017 81832 81364;",
"76458099999","2004-01-25T00:00:00","4","23.2","-106.4166666","4.0","COLONIA JUAN CARRASCO MAZATLAN SIN., MX","FM-12","99999","V020","270,1,N,0030,1","22000,1,9,N","025000,1,N,1","+0221,1","+0144,1","10167,1","06,0000,9,1","24,0145,9,1",,,,,"01,1,+00990,9,08,9",,,"02,99,1,01,1,01,1,00800,1,03,1,00,1",,"01,9",,"120,M,+0245,1","180,N,+0172,1","99999,9,10163,1","3,1,001,1,-025,1",,,"SYN130AAXX  25001 76458 32575 22703 10221 20144 30163 40167 53001 81130 92345 333 10245 20172 30/// 50201 5669/ 59025 70145 81833 81364;","Q01  00002PRCP06"
"76458099999","2004-01-25T03:00:00","4","23.2","-106.4166666","4.0","COLONIA JUAN CARRASCO MAZATLAN SIN., MX","FM-12","99999","V020","330,1,N,0010,1","22000,1,9,N","008000,1,N,1","+0188,1","+0150,1","10168,1","06,0000,9,1",,,,,,"00,1,+99999,9,99,9",,,"00,99,1,00,1,00,1,99999,9,00,1,00,1",,"01,9",,,,"99999,9,10163,1","4,1,000,1,-032,1",,,"SYN082AAXX  25031 76458 32958 03301 10188 20150 30163 40168 54000 90240 333 30/// 59032;","Q01  00002PRCP06"
"76458099999","2004-01-25T06:00:00","4","23.2","-106.4166666","4.0","COLONIA JUAN CARRASCO MAZATLAN SIN., MX","FM-12","99999","V020","330,1,N,0010,1","22000,1,9,N","008000,1,N,1","+0168,1","+0139,1","10171,1","06,0000,9,1",,,,,,"00,1,+99999,9,99,9",,,"00,99,1,00,1,00,1,99999,9,00,1,00,1","0318,9","01,9",,"240,M,+0245,1","240,N,+0162,1","99999,9,10167,1","1,1,004,1,+999,9",,,"SYN106AAXX  25061 76458 32958 03301 10168 20139 30167 40171 51004 90530 333 10245 20162 30/// 55053 20883 58000;","Q01  00002PRCP06"
"76458099999","2004-01-25T12:00:00","4","23.2","-106.4166666","4.0","COLONIA JUAN CARRASCO MAZATLAN SIN., MX","FM-12","99999","V020","330,1,N,0010,1","22000,1,9,N","010000,1,N,1","+0140,1","+0120,1","10160,1","06,0000,9,1","24,0105,9,1",,,,,,,,"02,99,1,02,1,00,1,99999,9,03,1,00,1",,"01,9",,"999,M,+0245,1","120,N,+0130,1","99999,9,10156,1","6,1,002,1,+017,1",,,"SYN124AAXX  25121 76458 32960 23301 10140 20120 30156 40160 56002 82030 91146 333 10245 20130 30/// 30012 56090 58017 70105 82359;","Q01  00002PRCP06"
"76458099999","2004-01-25T15:00:00","4","23.2","-106.4166666","4.0","COLONIA JUAN CARRASCO MAZATLAN SIN., MX","FM-12","99999","V020","330,1,N,0020,1","22000,1,9,N","020000,1,N,1","+0148,1","+0110,1","10174,1","06,0000,9,1",,,,,,,,,"01,99,1,00,1,00,1,99999,9,99,9,99,9",,"01,9",,,,"99999,9,10169,1","2,1,013,1,+016,1",,,"SYN095AAXX  25151 76458 32970 13302 10148 20110 30169 40174 52013 800//1 91440 333 30/// 58016 81070;","Q01  00002PRCP06"
"76458099999","2004-01-25T21:00:00","4","23.2","-106.4166666","4.0","COLONIA JUAN CARRASCO MAZATLAN SIN., MX","FM-12","99999","V020","270,1,N,0020,1","22000,1,9,N","020000,1,N,1","+0222,1","+0078,1","10161,1","06,0000,9,1",,,,,,"00,1,+99999,9,99,9",,,"00,99,1,00,1,00,1,99999,9,00,1,00,1",,"01,9",,,,"99999,9,10156,1","7,1,029,1,-006,1",,,"SYN082AAXX  25211 76458 32970 02702 10222 20078 30156 40161 57029 92048 333 30/// 59006;","Q01  00002PRCP06"
"76458099999","2004-01-26T00:00:00","4","23.2","-106.4166666","4.0","COLONIA JUAN CARRASCO MAZATLAN SIN., MX","FM-12","99999","V020","270,1,N,0030,1","22000,1,9,N","020000,1,N,1","+0214,1","+0094,1","10147,1","06,0000,9,1","24,0000,9,1",,,,,"00,1,+99999,9,99,9",,,"00,99,1,00,1,00,1,99999,9,00,1,00,1",,"01,9",,"120,M,+0241,1","180,N,+0130,1","99999,9,10142,1","7,1,014,1,-020,1",,,"SYN106AAXX  26001 76458 32970 02703 10214 20094 30142 40147 57014 92340 333 10241 20130 30/// 50261 59020 70000;","Q01  00002PRCP06Q02  00002PRCP24"
"76458099999","2004-01-26T03:00:00","4","23.2","-106.4166666","4.0","COLONIA JUAN CARRASCO MAZATLAN SIN., MX","FM-12","99999","V020","300,1,N,0030,1","22000,1,9,N","010000,1,N,1","+0193,1","+0108,1","10163,1","06,0000,9,1",,,,,,"00,1,+99999,9,99,9",,,"00,99,1,00,1,00,1,99999,9,00,1,00,1",,"01,9",,,,"99999,9,10158,1","2,1,016,1,-005,1",,,"SYN082AAXX  26031 76458 32960 03003 10193 20108 30158 40163 52016 90245 333 30/// 59005;","Q01  00002PRCP06"
"76458099999","2004-01-26T06:00:00","4","23.2","-106.4166666","4.0","COLONIA JUAN CARRASCO MAZATLAN SIN., MX","FM-12","99999","V020","340,1,N,0020,1","22000,1,9,N","010000,1,N,1","+0166,1","+0125,1","10170,1","06,0000,9,1",,,,,,"00,1,+99999,9,99,9",,,"00,99,1,00,1,00,1,99999,9,00,1,00,1","0576,9","01,9",,"240,M,+0239,1","240,N,+0130,1","99999,9,10165,1","2,1,007,1,+999,9",,,"SYN106AAXX  26061 76458 32960 03402 10166 20125 30165 40170 52007 90540 333 10239 20130 30/// 55096 20921 59002;","Q01  00002PRCP06"
"76458099999","2004-01-26T09:00:00","4","23.2","-106.4166666","4.0","COLONIA JUAN CARRASCO MAZATLAN SIN., MX","FM-12","99999","V020","999,9,C,0000,1","22000,1,9,N","010000,1,N,1","+0150,1","+0110,1","10170,1","06,0000,9,1",,,,,,"00,1,+99999,9,99,9",,,"00,99,1,00,1,00,1,99999,9,00,1,00,1",,"01,9",,,,"99999,9,10165,1","4,1,000,1,+008,1",,,"SYN082AAXX  26091 76458 32960 00000 10150 20110 30165 40170 54000 90851 333 30/// 58008;","Q01  00002PRCP06"
"76458099999","2004-01-26T12:00:00","4","23.2","-106.4166666","4.0","COLONIA JUAN CARRASCO MAZATLAN SIN., MX","FM-12","99999","V020","320,1,N,0010,1","22000,1,9,N","010000,1,N,1","+0132,1","+0101,1","10169,1","06,0000,9,1",,,,,,"00,1,+99999,9,99,9",,,"00,99,1,00,1,00,1,99999,9,00,1,00,1",,"01,9",,"999,M,+0239,1","120,N,+0122,1","99999,9,10164,1","5,1,001,1,+008,1",,,"SYN106AAXX  26121 76458 32960 03201 10132 20101 30164 40169 55001 91150 333 10239 20122 30/// 30010 58008 70000;","Q01  00002PRCP06"
"76458099999","2004-01-26T15:00:00","4","23.2","-106.4166666","4.0","COLONIA JUAN CARRASCO MAZATLAN SIN., MX","FM-12","99999","V020","330,1,N,0010,1","22000,1,9,N","018000,1,N,1","+0148,1","+0098,1","10183,1","06,0000,9,1",,,,,,"01,1,+00450,9,08,9",,,"01,99,1,01,1,02,1,00800,1,00,1,00,1",,"01,9",,,,"99999,9,10179,1","2,1,015,1,+010,1",,,"SYN100AAXX  26151 76458 32568 13301 10148 20098 30179 40183 52015 81200 91450 333 30/// 563// 58010 81815;","Q01  00002PRCP06"
"76458099999","2004-01-26T21:00:00","4","23.2","-106.4166666","4.0","COLONIA JUAN CARRASCO MAZATLAN SIN., MX","FM-12","99999","V020","270,1,N,0030,1","22000,1,9,N","025000,1,N,1","+0218,1","+0120,1","10158,1","06,0000,9,1",,,,,,"00,1,+99999,9,99,9",,,"00,99,1,00,1,00,1,99999,9,00,1,00,1",,"01,9",,,,"99999,9,10153,1","7,1,031,1,-003,1",,,"SYN082AAXX  26211 76458 32975 02703 10218 20120 30153 40158 57031 92045 333 30/// 59003;","Q01  00002PRCP06"
"76458099999","2004-01-27T00:00:00","4","23.2","-106.4166666","4.0","COLONIA JUAN CARRASCO MAZATLAN SIN., MX","FM-12","99999","V020","290,1,N,0030,1","22000,1,9,N","025000,1,N,1","+0214,1","+0117,1","10154,1","06,0000,9,1","24,0000,9,1",,,,,"00,1,+99999,9,99,9",,,"00,99,1,00,1,00,1,99999,9,00,1,00,1",,"01,9",,"120,M,+0231,1","180,N,+0118,1","99999,9,10149,1","7,1,004,1,+007,1",,,"SYN106AAXX  27001 76458 32975 02903 10214 20117 30149 40154 57004 92345 333 10231 20118 30/// 50381 58007 70000;","Q01  00002PRCP06Q02  00002PRCP24"
"76458099999","2004-01-27T03:00:00","4","23.2","-106.4166666","4.0","COLONIA JUAN CARRASCO MAZATLAN SIN., MX","FM-12","99999","V020","320,1,N,0040,1","22000,1,9,N","008000,1,N,1","+0196,1","+0131,1","10166,1","06,0000,9,1",,,,,,"00,1,+99999,9,99,9",,,"00,99,1,00,1,00,1,99999,9,00,1,00,1",,"01,9",,,,"99999,9,10162,1","2,1,013,1,+004,1",,,"SYN082AAXX  27031 76458 32958 03204 10196 20131 30162 40166 52013 90240 333 30/// 58004;","Q01  00002PRCP06"
"76458099999","2004-01-27T12:00:00","4","23.2","-106.4166666","4.0","COLONIA JUAN CARRASCO MAZATLAN SIN., MX","FM-12","99999","V020","330,1,N,0010,1","22000,1,9,N","010000,1,N,1","+0138,1","+0114,1","10164,1","06,0000,9,1",,,,,,"00,1,+99999,9,99,9",,,"00,99,1,00,1,00,1,99999,9,00,1,00,1",,"01,9",,"999,M,+0230,1","120,N,+0128,1","99999,9,10159,1","7,1,003,1,-004,1",,,"SYN106AAXX  27121 76458 32960 03301 10138 20114 30159 40164 57003 91145 333 10230 20128 30/// 30011 59004 70000;","Q01  00002PRCP06"
"76458099999","2004-01-27T21:00:00","4","23.2","-106.4166666","4.0","COLONIA JUAN CARRASCO MAZATLAN SIN., MX","FM-12","99999","V020","270,1,N,0030,1","22000,1,9,N","020000,1,N,1","+0216,1","+0140,1","10154,1","06,0000,9,1",,,,,,"00,1,+99999,9,99,9",,,"00,99,1,00,1,00,1,99999,9,00,1,00,1",,"01,9",,,,"99999,9,10149,1","7,1,024,1,-004,1",,,"SYN082AAXX  27211 76458 32970 02703 10216 20140 30149 40154 57024 92040 333 30/// 59004;","Q01  00002PRCP06"
"76458099999","2004-01-28T06:00:00","4","23.2","-106.4166666","4.0","COLONIA JUAN CARRASCO MAZATLAN SIN., MX","FM-12","99999","V020","320,1,N,0010,1","22000,1,9,N","010000,1,N,1","+0172,1","+0122,1","10164,1","06,0000,9,1",,,,,,"00,1,+99999,9,99,9",,,"00,99,1,00,1,00,1,99999,9,00,1,00,1","0546,9","01,9",,"240,M,+0238,1","240,N,+0117,1","99999,9,10160,1","2,1,007,1,+999,9",,,"SYN106AAXX  28061 76458 32960 03201 10172 20122 30160 40164 52007 90556 333 10238 20117 30/// 55091 20882 59012;","Q01  00002PRCP06"
"76458099999","2004-01-28T12:00:00","4","23.2","-106.4166666","4.0","COLONIA JUAN CARRASCO MAZATLAN SIN., MX","FM-12","99999","V020","999,9,C,0000,1","22000,1,9,N","010000,1,N,1","+0137,1","+0128,1","10162,1","06,0000,9,1",,,,,,"00,1,+99999,9,99,9",,,"00,99,1,00,1,00,1,99999,9,00,1,00,1",,"01,9",,"999,M,+0238,1","120,N,+0111,1","99999,9,10157,1","6,1,003,1,-002,1",,,"SYN106AAXX  28121 76458 32960 00000 10137 20128 30157 40162 56003 91146 333 10238 20111 30/// 30011 59002 70000;","Q01  00002PRCP06"
"76458099999","2004-01-28T15:00:00","4","23.2","-106.4166666","4.0","COLONIA JUAN CARRASCO MAZATLAN SIN., MX","FM-12","99999","V020","060,1,N,0010,1","22000,1,9,N","012000,1,N,1","+0158,1","+0135,1","10168,1","06,0000,9,1",,,,,,"04,1,+06000,9,00,9",,,"04,99,1,00,1,00,1,99999,9,00,1,02,1",,"01,9",,,,"99999,9,10164,1","2,1,007,1,+000,1",,,"SYN100AAXX  28151 76458 32962 40601 10158 20135 30164 40168 52007 80002 91448 333 30/// 56//0 58000 84070;","Q01  00002PRCP06"
"76458099999","2004-01-28T18:00:00","4","23.2","-106.4166666","4.0","COLONIA JUAN CARRASCO MAZATLAN SIN., MX","FM-12","99999","V020","130,1,N,0020,1","99999,9,9,N","013000,1,N,1","+0206,1","+0156,1","10178,1","06,0000,9,1",,,,,,"04,1,+06000,9,02,9",,,"06,99,1,00,1,00,1,99999,9,00,1,08,1",,"01,9",,"120,M,+0216,1","240,N,+0112,1","99999,9,10173,1","0,1,009,1,+000,1",,,"SYN118AAXX  28181 76458 32963 61302 10206 20156 30173 40178 50009 80008 91745 333 10216 20112 30/// 56//0 58000 84270 82075;","Q01  00002PRCP06"
"76458099999","2004-01-28T21:00:00","4","23.2","-106.4166666","4.0","COLONIA JUAN CARRASCO MAZATLAN SIN., MX","FM-12","99999","V020","250,1,N,0020,1","06600,1,9,N","015000,1,N,1","+0210,1","+0161,1","10159,1","06,0000,9,1",,,,,,"07,1,+06600,9,02,9",,,"07,99,1,00,1,00,1,99999,9,00,1,07,1",,"01,9",,,,"99999,9,10154,1","7,1,019,1,+005,1",,,"SYN100AAXX  28211 76458 32965 72502 10210 20161 30154 40159 57019 80007 92050 333 30/// 56009 58005 87272;","Q01  00002PRCP06"
"76458099999","2004-01-29T00:00:00","4","23.2","-106.4166666","4.0","COLONIA JUAN CARRASCO MAZATLAN SIN., MX","FM-12","99999","V020","280,1,N,0030,1","06600,1,C,N","012000,1,N,1","+0210,1","+0161,1","10151,1","06,0000,9,1",,,,,,"07,1,+06600,9,02,9",,,"07,99,1,00,1,00,1,99999,9,00,1,07,1",,"01,9",,"120,M,+0237,1","180,N,+0112,1","99999,9,10146,1","7,1,008,1,+005,1",,,"SYN124AAXX  29001 76458 32962 72803 10210 20161 30146 40151 57008 80007 92345 333 10237 20112 30/// 50171 56009 58005 87272 70000;","Q01  00002PRCP06"
"76458099999","2004-01-29T03:00:00","4","23.2","-106.4166666","4.0","COLONIA JUAN CARRASCO MAZATLAN SIN., MX","FM-12","99999","V020","310,1,N,0020,1","05400,1,9,N","010000,1,N,1","+0192,1","+0156,1","10162,1","06,0000,9,1",,,,,,"05,1,+05400,9,02,9",,,"05,99,1,00,1,00,1,99999,9,00,1,07,1",,"01,9",,,,"99999,9,10158,1","2,1,011,1,+005,1",,,"SYN100AAXX  29031 76458 32960 53102 10192 20156 30158 40162 52011 80007 90248 333 30/// 56/99 58005 85268;","Q01  00002PRCP06"
"76458099999","2004-01-29T12:00:00","4","23.2","-106.4166666","4.0","COLONIA JUAN CARRASCO MAZATLAN SIN., MX","FM-12","99999","V020","330,1,N,0010,1","22000,1,9,N","008000,1,N,1","+0162,1","+0146,1","10140,1","06,0000,9,1","24,0000,9,1",,,,,"03,1,+06000,9,00,9",,,"04,99,1,99,9,01,1,99999,9,01,1,02,1",,"01,9","999,+0150,9","999,M,+0234,1","120,N,+0158,1","99999,9,10135,1","7,1,018,1,-022,1",,,"SYN118AAXX  29121 76458 32958 43301 10162 20146 30135 40140 57018 80112 91140 333 10234 20158 30015 59022 70000 83070 81170;","Q01+000002SCOTLCQ02  00002PRCP06"
"76458099999","2004-01-29T15:00:00","4","23.2","-106.4166666","4.0","COLONIA JUAN CARRASCO MAZATLAN SIN., MX","FM-12","99999","V020","350,1,N,0020,1","99999,9,9,N","013000,1,N,1","+0168,1","+0145,1","10164,1","06,0000,9,1",,,,,,"03,1,+02400,9,03,9",,,"07,99,1,03,1,00,1,99999,9,06,1,06,1",,"01,9",,,,"99999,9,10160,1","2,1,011,1,-004,1",,,"SYN106AAXX  29151 76458 32963 73502 10168 20145 30160 40164 52011 83066 91448 333 30/// 56/00 59004 83358 84270;","Q01  00002PRCP06"
"76458099999","2004-01-29T18:00:00","4","23.2","-106.4166666","4.0","COLONIA JUAN CARRASCO MAZATLAN SIN., MX","FM-12","99999","V020","330,1,N,0010,1","99999,9,9,N","015000,1,N,1","+0214,1","+0155,1","10174,1","06,0000,9,1",,,,,,"02,1,+02400,9,03,9",,,"07,99,1,02,1,00,1,99999,9,03,1,06,1",,"01,9",,"120,M,+0225,1","240,N,+0150,1","99999,9,10170,1","0,1,010,1,-003,1",,,"SYN118AAXX  29181 76458 32965 73301 10214 20155 30170 40174 50010 82036 91748 333 10225 20150 30/// 56/00 59003 82358 85270;","Q01  00002PRCP06"
"76458099999","2004-01-29T21:00:00","4","23.2","-106.4166666","4.0","COLONIA JUAN CARRASCO MAZATLAN SIN., MX","FM-12","99999","V020","270,1,N,0020,1","99999,9,9,N","015000,1,N,1","+0218,1","+0166,1","10148,1","06,0000,9,1",,,,,,"03,1,+02400,9,03,9",,,"05,99,1,99,9,00,1,99999,9,05,1,07,1",,"01,9",,,,"99999,9,10143,1","7,1,027,1,-011,1",,,"SYN106AAXX  29211 76458 32965 52702 10218 20166 30143 40148 57027 80057 92045 333 30/// 56099 59011 83358 82272;","Q01+000002SCOTLCQ02  00002PRCP06"
"76458099999","2004-01-30T00:00:00","4","23.2","-106.4166666","4.0","COLONIA JUAN CARRASCO MAZATLAN SIN., MX","FM-12","99999","V020","270,1,N,0020,1","22000,1,9,N","015000,1,N,1","+0218,1","+0170,1","10141,1","06,0000,9,1","24,0000,9,1",,,,,"01,1,+00600,9,08,9",,,"03,99,1,01,1,02,1,00450,1,00,1,06,1",,"01,9",,"120,M,+0242,1","180,N,+0150,1","99999,9,10136,1","7,1,007,1,-010,1",,,"SYN130AAXX  30001 76458 32465 32702 10218 20170 30136 40141 57007 81206 92342 333 10242 20150 30/// 50171 56109 59010 70000 81820 82072;","Q01  00002PRCP06"
"76458099999","2004-01-30T03:00:00","4","23.2","-106.4166666","4.0","COLONIA JUAN CARRASCO MAZATLAN SIN., MX","FM-12","99999","V020","360,1,N,0010,1","22000,1,9,N","010000,1,N,1","+0200,1","+0156,1","10152,1","06,0000,9,1",,,,,,"01,1,+06000,9,00,9",,,"01,99,1,00,1,00,1,99999,9,00,1,01,1",,"01,9",,,,"99999,9,10147,1","2,1,011,1,-011,1",,,"SYN100AAXX  30031 76458 32960 13601 10200 20156 30147 40152 52011 80001 90248 333 30/// 56//9 59011 81070;","Q01  00002PRCP06"
"76458099999","2004-01-30T06:00:00","4","23.2","-106.4166666","4.0","COLONIA JUAN CARRASCO MAZATLAN SIN., MX","FM-12","99999","V020","999,9,C,0000,1","22000,1,9,N","010000,1,N,1","+0178,1","+0153,1","10155,1","06,0000,9,1",,,,,,"00,1,+99999,9,99,9",,,"00,99,1,00,1,00,1,99999,9,00,1,00,1","0264,9","01,9",,"240,M,+0240,1","240,N,+0150,1","99999,9,10150,1","2,1,003,1,+999,9",,,"SYN106AAXX  30061 76458 32960 00000 10178 20153 30150 40155 52003 90540 333 10240 20150 30/// 55044 20627 59010;","Q01  00002PRCP06"
"76458099999","2004-01-30T12:00:00","4","23.2","-106.4166666","4.0","COLONIA JUAN CARRASCO MAZATLAN SIN., MX","FM-12","99999","V020","010,1,N,9999,9","22000,1,9,N","000100,1,N,1","+9999,9","+9999,9","10148,1","24,0000,9,1",,,,,,,,,"01,99,1,99,9,99,9,00250,1,99,9,99,9",,"01,9","999,+0150,9","999,M,+0240,1","120,N,+0136,1","99999,9,10143,1","6,1,008,1,-006,1",,,"SYN094AAXX  30121 76458 03301 10160 20144 30143 40148 56008 91140 333 10240 20136 30015 59006 70000;","Q01+006003WOSPD Q02  00002PRCP24"
"76458099999","2004-01-30T15:00:00","4","23.2","-106.4166666","4.0","COLONIA JUAN CARRASCO MAZATLAN SIN., MX","FM-12","99999","V020","330,1,N,0020,1","22000,1,9,N","013000,1,N,1","+0174,1","+0148,1","10151,1","06,0000,9,1",,,,,,"01,1,+00330,9,08,9",,,"01,99,1,01,1,02,1,00250,1,00,1,00,1",,"01,9",,,,"99999,9,10146,1","1,1,003,1,-014,1",,,"SYN100AAXX  30151 76458 32363 13302 10174 20148 30146 40151 51003 81200 91448 333 30/// 565// 59014 81811;","Q01  00002PRCP06"
"76458099999","2004-01-30T21:00:00","4","23.2","-106.4166666","4.0","COLONIA JUAN CARRASCO MAZATLAN SIN., MX","FM-12","99999","V020","270,1,N,0030,1","22000,1,9,N","020000,1,N,1","+0222,1","+0167,1","10127,1","06,0000,9,1",,,,,,"01,1,+00690,9,08,9",,,"02,99,1,01,1,02,1,00800,1,00,1,06,1",,"01,9",,,,"99999,9,10122,1","7,1,024,1,-021,1",,,"SYN100AAXX  30211 76458 32570 22703 10222 20167 30122 40127 57024 81206 92050 333 30/// 59021 81823 81072;","Q01  00002PRCP06"
"76458099999","2004-01-31T00:00:00","4","23.2","-106.4166666","4.0","COLONIA JUAN CARRASCO MAZATLAN SIN., MX","FM-12","99999","V020","290,1,N,0020,1","22000,1,9,N","020000,1,N,1","+0218,1","+0160,1","10119,1","06,0000,9,1","24,0000,9,1",,,,,,,,"01,99,1,01,1,02,1,00800,1,00,1,00,1",,"01,9",,"120,M,+0240,1","180,N,+0142,1","99999,9,10115,1","7,1,007,1,-021,1",,,"SYN124AAXX  31001 76458 32570 12902 10218 20160 30115 40119 57007 81200 92348 333 10240 20142 30/// 50281 56100 59021 70000 81824;","Q01  00002PRCP06"
"76458099999","2004-01-31T03:00:00","4","23.2","-106.4166666","4.0","COLONIA JUAN CARRASCO MAZATLAN SIN., MX","FM-12","99999","V020","320,1,N,0020,1","22000,1,9,N","010000,1,N,1","+0204,1","+0161,1","10129,1","06,0000,9,1",,,,,,"00,1,+99999,9,99,9",,,"00,99,1,00,1,00,1,99999,9,00,1,00,1",,"01,9",,,,"99999,9,10125,1","2,1,010,1,-022,1",,,"SYN082AAXX  31031 76458 32960 03202 10204 20161 30125 40129 52010 90247 333 30/// 59022;","Q01  00002PRCP06"
"76458099999","2004-01-31T06:00:00","4","23.2","-106.4166666","4.0","COLONIA JUAN CARRASCO MAZATLAN SIN., MX","FM-12","99999","V020","350,1,N,0010,1","22000,1,9,N","010000,1,N,1","+0187,1","+0156,1","10139,1","06,0000,9,1",,,,,,"00,1,+99999,9,99,9",,,"00,99,1,00,1,00,1,99999,9,00,1,00,1","0552,9","01,9",,"240,M,+0240,1","240,N,+0142,1","99999,9,10135,1","2,1,010,1,+999,9",,,"SYN106AAXX  31061 76458 32960 03501 10187 20156 30135 40139 52010 90540 333 10240 20142 30/// 55092 20921 59015;","Q01  00002PRCP06"
"76458099999","2004-01-31T09:00:00","4","23.2","-106.4166666","4.0","COLONIA JUAN CARRASCO MAZATLAN SIN., MX","FM-12","99999","V020","360,1,N,0020,1","22000,1,9,N","008000,1,N,1","+0166,1","+0147,1","10156,1","06,0000,9,1",,,,,,,,,"02,99,1,02,1,01,1,00250,1,99,9,99,9",,"01,9",,,,"99999,9,10151,1","4,1,000,1,-002,1",,,"SYN100AAXX  31091 76458 32358 23602 10166 20147 30151 40156 54001 821// 90840 333 30/// 566// 59002 52808;","Q01  00002PRCP06"
"76458099999","2004-01-31T15:00:00","4","23.2","-106.4166666","4.0","COLONIA JUAN CARRASCO MAZATLAN SIN., MX","FM-12","99999","V020","999,9,C,0000,1","22000,1,9,N","013000,1,N,1","+0176,1","+0149,1","10142,1","06,0000,9,1",,,,,,"00,1,+99999,9,99,9",,,"00,99,1,00,1,00,1,99999,9,00,1,00,1",,"01,9",,,,"99999,9,10137,1","9,9,999,9,-009,1",,,"SYN082AAXX  31151 76458 32963 00000 10176 20149 30137 40142 5//// 91448 333 30/// 59009;","Q01  00002PRCP06"
"76458099999","2004-01-31T18:00:00","4","23.2","-106.4166666","4.0","COLONIA JUAN CARRASCO MAZATLAN SIN., MX","FM-12","99999","V020","210,1,N,0010,1","22000,1,9,N","018000,1,N,1","+0234,1","+0150,1","10146,1","06,0000,9,1",,,,,,"01,1,+06000,9,00,9",,,"01,99,1,00,1,00,1,99999,9,00,1,01,1",,"01,9",,"120,M,+0257,1","240,N,+0143,1","99999,9,10141,1","0,1,004,1,-005,1",,,"SYN112AAXX  31181 76458 32968 12101 10234 20150 30141 40146 50004 80001 91742 333 10257 20143 30/// 56//0 59005 81070;","Q01  00002PRCP06"
"76458099999","2004-01-31T21:00:00","4","23.2","-106.4166666","4.0","COLONIA JUAN CARRASCO MAZATLAN SIN., MX","FM-12","99999","V020","220,1,N,0030,1","22000,1,9,N","020000,1,N,1","+0230,1","+0170,1","10126,1","06,0000,9,1",,,,,,"01,1,+00750,9,08,9",,,"03,99,1,01,1,02,1,00800,1,00,1,01,1",,"01,9",,,,"99999,9,10121,1","7,1,020,1,-001,1",,,"SYN106AAXX  31211 76458 32570 32203 10230 20170 30121 40126 57020 81201 92055 333 30/// 56109 59001 81825 82079;","Q01  00002PRCP06"
"76458099999","2004-02-01T00:00:00","4","23.2","-106.4166666","4.0","COLONIA JUAN CARRASCO MAZATLAN SIN., MX","FM-12","99999","V020","260,1,N,0030,1","22000,1,9,N","020000,1,N,1","+0232,1","+0154,1","10117,1","06,0000,9,1","24,0000,9,1",,,,,"01,1,+00990,9,08,9",,,"04,99,1,01,1,01,1,00800,1,00,1,04,1",,"01,9",,"120,M,+0259,1","180,N,+0143,1","99999,9,10112,1","7,1,009,1,+001,1",,,"SYN130AAXX  01001 76458 32570 42603 10232 20154 30112 40117 57009 81104 92350 333 10259 20143 30/// 50341 56106 58001 70000 81833 84079;","Q01  00002PRCP06"
"76458099999","2004-02-01T03:00:00","4","23.2","-106.4166666","4.0","COLONIA JUAN CARRASCO MAZATLAN SIN., MX","FM-12","99999","V020","310,1,N,0020,1","22000,1,9,N","010000,1,N,1","+0208,1","+0162,1","10126,1","06,0000,9,1",,,,,,"03,1,+00570,9,08,9",,,"03,99,1,03,1,01,1,00450,1,00,1,00,1",,"01,9",,,,"99999,9,10122,1","2,1,010,1,-003,1",,,"SYN100AAXX  01031 76458 32460 33102 10208 20162 30122 40126 52010 83100 90250 333 30/// 566// 59003 83819;","Q01  00002PRCP06"
"76458099999","2004-02-01T15:00:00","4","23.2","-106.4166666","4.0","COLONIA JUAN CARRASCO MAZATLAN SIN., MX","FM-12","99999","V020","340,1,N,0020,1","22000,1,9,N","020000,1,N,1","+0166,1","+0147,1","10145,1","06,0000,9,1",,,,,,"01,1,+00240,9,08,9",,,"01,99,1,01,1,02,1,00250,1,00,1,00,1",,"01,9",,,,"99999,9,10140,1","9,9,999,9,-003,1",,,"SYN100AAXX  01151 76458 32370 13402 10166 20147 30140 40145 5//// 81200 91452 333 30/// 56600 59003 81808;","Q01  00002PRCP06"
"76458099999","2004-02-01T18:00:00","4","23.2","-106.4166666","4.0","COLONIA JUAN CARRASCO MAZATLAN SIN., MX","FM-12","99999","V020","240,1,N,0010,1","22000,1,9,N","020000,1,N,1","+0230,1","+0142,1","10156,1","06,0000,9,1",,,,,,"02,1,+01110,9,08,9",,,"02,99,1,02,1,02,1,01250,1,00,1,00,1",,"01,9",,"120,M,+0250,1","240,N,+0143,1","99999,9,10152,1","2,1,011,1,+010,1",,,"SYN112AAXX  01181 76458 32670 22401 10230 20142 30152 40156 52011 82200 91750 333 10250 20143 30/// 56200 58010 82837;","Q01  00002PRCP06"
"76458099999","2004-02-01T21:00:00","4","23.2","-106.4166666","4.0","COLONIA JUAN CARRASCO MAZATLAN SIN., MX","FM-12","99999","V020","240,1,N,0030,1","22000,1,9,N","020000,1,N,1","+0234,1","+0143,1","10141,1","06,0000,9,1",,,,,,"01,1,+01140,9,08,9",,,"01,99,1,01,1,01,1,01250,1,00,1,00,1",,"01,9",,,,"99999,9,10137,1","7,1,015,1,+016,1",,,"SYN100AAXX  01211 76458 32670 12403 10234 20143 30137 40141 57015 81100 92048 333 30/// 561// 58016 81838;","Q01  00002PRCP06"
"76458099999","2004-02-02T15:00:00","4","23.2","-106.4166666","4.0","COLONIA JUAN CARRASCO MAZATLAN SIN., MX","FM-12","99999","V020","999,9,C,0000,1","22000,1,9,N","012000,1,N,1","+0170,1","+0142,1","10161,1","06,0000,9,1",,,,,,"00,1,+99999,9,99,9",,,"00,99,1,00,1,00,1,99999,9,00,1,00,1",,"01,9",,,,"99999,9,10157,1","9,9,999,9,+017,1",,,"SYN082AAXX  02151 76458 32962 00000 10170 20142 30157 40161 5//// 91448 333 30/// 58017;","Q01  00002PRCP06"
"76458099999","2004-02-02T18:00:00","4","23.2","-106.4166666","4.0","COLONIA JUAN CARRASCO MAZATLAN SIN., MX","FM-12","99999","V020","250,1,N,0020,1","22000,1,9,N","015000,1,N,1","+0226,1","+0144,1","10160,1","06,0000,9,1",,,,,,"01,1,+06000,9,00,9",,,"01,99,1,00,1,00,1,99999,9,00,1,05,1",,"01,9",,"120,M,+0248,1","240,N,+0135,1","99999,9,10165,1","1,1,008,1,+013,1",,,"SYN112AAXX  02181 76458 32965 12502 10226 20144 30165 40160 51008 80005 91748 333 10248 20135 30/// 56//0 58013 81070;","Q01  00002PRCP06"
"76458099999","2004-02-02T21:00:00","4","23.2","-106.4166666","4.0","COLONIA JUAN CARRASCO MAZATLAN SIN., MX","FM-12","99999","V020","270,1,N,0030,1","22000,1,9,N","020000,1,N,1","+0231,1","+0155,1","10152,1","06,0000,9,1",,,,,,"02,1,+08700,9,00,9",,,"02,99,1,00,1,00,1,99999,9,00,1,05,1",,"01,9",,,,"99999,9,10147,1","7,1,018,1,+010,1",,,"SYN100AAXX  02211 76458 32970 22703 10231 20155 30147 40152 57018 80005 92050 333 30/// 56009 58010 82079;","Q01  00002PRCP06"
"76458099999","2004-02-03T03:00:00","4","23.2","-106.4166666","4.0","COLONIA JUAN CARRASCO MAZATLAN SIN., MX","FM-12","99999","V020","290,1,N,0020,1","22000,1,9,N","008000,1,N,1","+0200,1","+0160,1","10122,1","06,0000,9,1",,,,,,"00,1,+99999,9,99,9",,,"00,99,1,00,1,00,1,99999,9,00,1,00,1",,"01,9",,,,"99999,9,10117,1","7,1,007,1,+999,9",,,"SYN082AAXX  03031 76458 32958 02902 10200 20160 30117 40122 57007 90238 333 30/// 58///;","Q01  00002PRCP06"
"76458099999","2004-02-03T06:00:00","4","23.2","-106.4166666","4.0","COLONIA JUAN CARRASCO MAZATLAN SIN., MX","FM-12","99999","V020","300,1,N,0010,1","22000,1,9,N","008000,1,N,1","+0180,1","+0150,1","10135,1","06,0000,9,1",,,,,,"00,1,+99999,9,99,9",,,"00,99,1,00,1,00,1,99999,9,00,1,00,1","0510,9","01,9",,"240,M,+0248,1","240,N,+0135,1","99999,9,10130,1","2,1,012,1,+999,9",,,"SYN106AAXX  03061 76458 32958 03001 10180 20150 30130 40135 52012 90540 333 10248 20135 30/// 55085 29827 58///;","Q01  00002PRCP06"
"76458099999","2004-02-03T15:00:00","4","23.2","-106.4166666","4.0","COLONIA JUAN CARRASCO MAZATLAN SIN., MX","FM-12","99999","V020","090,1,N,0030,1","99999,9,9,N","020000,1,N,1","+0170,1","+0144,1","10137,1","06,0000,9,1",,,,,,"04,1,+02400,9,03,9",,,"07,99,1,04,1,00,1,01250,1,07,1,06,1",,"01,9",,,,"99999,9,10132,1","9,9,999,9,-025,1",,,"SYN106AAXX  03151 76458 32670 70903 10170 20144 30132 40137 5//// 84076 91448 333 30/// 56/00 59025 84358 83270;","Q01  00002PRCP06"
"76458099999","2004-02-03T18:00:00","4","23.2","-106.4166666","4.0","COLONIA JUAN CARRASCO MAZATLAN SIN., MX","FM-12","99999","V020","120,1,N,0030,1","02400,1,9,N","013000,1,N,1","+0204,1","+0159,1","10146,1","06,0000,9,1",,,,,,"06,1,+02400,9,03,9",,,"08,99,1,06,1,00,1,99999,9,06,1,06,1",,"01,9",,"120,M,+0214,1","240,N,+0157,1","99999,9,10141,1","0,1,009,1,-024,1",,,"SYN118AAXX  03181 76458 32963 81203 10204 20159 30141 40146 50009 86066 91745 333 10214 20157 30/// 56/00 59024 86358 82270;","Q01  00002PRCP06"
"76458099999","2004-02-03T21:00:00","4","23.2","-106.4166666","4.0","COLONIA JUAN CARRASCO MAZATLAN SIN., MX","FM-12","99999","V020","999,9,C,0000,1","09000,1,C,N","015000,1,N,1","+0223,1","+0168,1","10139,1","06,0000,9,1",,,,,,"03,1,+00690,9,08,9",,,"08,99,1,03,1,02,1,00800,1,00,1,08,1",,"01,9",,,,"99999,9,10134,1","8,1,007,1,-013,1",,,"SYN106AAXX  03211 76458 32565 80000 10223 20168 30134 40139 58007 83208 92047 333 30/// 565/9 59013 83823 85268;","Q01  00002PRCP06"
"76458099999","2004-02-04T00:00:00","4","23.2","-106.4166666","4.0","COLONIA JUAN CARRASCO MAZATLAN SIN., MX","FM-12","99999","V020","270,1,N,0030,1","22000,1,9,N","018000,1,N,1","+0223,1","+0172,1","10126,1","06,0000,9,1","24,0000,9,1",,,,,"01,1,+00630,9,08,9",,,"02,99,1,01,1,01,1,00800,1,03,1,00,1",,"01,9",,"120,M,+0245,1","180,N,+0157,1","99999,9,10121,1","7,1,013,1,-003,1",,,"SYN130AAXX  04001 76458 32568 22703 10223 20172 30121 40126 57013 81130 92347 333 10245 20157 30/// 50161 5619/ 59003 70000 81821 81364;","Q01  00002PRCP06"
"76458099999","2004-02-04T03:00:00","4","23.2","-106.4166666","4.0","COLONIA JUAN CARRASCO MAZATLAN SIN., MX","FM-12","99999","V020","290,1,N,0010,1","22000,1,9,N","008000,1,N,1","+0204,1","+0174,1","10133,1","06,0000,9,1",,,,,,"02,1,+00360,9,08,9",,,"02,99,1,02,1,02,1,00450,1,00,1,00,1",,"01,9",,,,"99999,9,10128,1","2,1,007,1,+011,1",,,"SYN100AAXX  04031 76458 32458 22901 10204 20174 30128 40133 52007 82200 90242 333 30/// 56100 58011 82812;","Q01  00002PRCP06"
"76458099999","2004-02-04T06:00:00","4","23.2","-106.4166666","4.0","COLONIA JUAN CARRASCO MAZATLAN SIN., MX","FM-12","99999","V020","060,1,N,0010,1","22000,1,9,N","008000,1,N,1","+0186,1","+0164,1","10146,1","06,0000,9,1",,,,,,,,,"02,99,1,02,1,02,1,00250,1,00,1,00,1","0090,9","01,9",,"240,M,+0245,1","240,N,+0157,1","99999,9,10142,1","2,1,014,1,+012,1",,,"SYN124AAXX  04061 76458 32358 20601 10186 20164 30142 40146 52014 82200 90535 333 10245 20157 30/// 55015 24101 56100 58012 82809;","Q01  00002PRCP06"
"76458099999","2004-02-04T12:00:00","4","23.2","-106.4166666","4.0","COLONIA JUAN CARRASCO MAZATLAN SIN., MX","FM-12","99999","V020","999,9,C,0000,1","00210,1,9,N","010000,1,N,1","+0180,1","+0160,1","10149,1","06,0000,9,1","24,0000,9,1",,,,,,,,"07,99,1,07,1,04,1,00250,1,00,1,00,1",,"01,9",,"999,M,+0245,1","120,N,+0172,1","99999,9,10144,1","4,1,000,1,+999,9",,,"SYN124AAXX  04121 76458 32360 70000 10180 20160 30144 40149 54001 87400 91140 333 10245 20172 30/// 30016 56400 58/// 70000 87608;","Q01  00002PRCP06"
"76458099999","2004-02-04T15:00:00","4","23.2","-106.4166666","4.0","COLONIA JUAN CARRASCO MAZATLAN SIN., MX","FM-12","99999","V020","999,9,C,0000,1","22000,1,9,N","015000,1,N,1","+0193,1","+0170,1","10154,1","06,0000,9,1",,,,,,"04,1,+04200,9,03,9",,,"04,99,1,04,1,00,1,02250,1,03,1,00,1",,"01,9",,,,"99999,9,10150,1","3,1,006,1,+018,1",,,"SYN100AAXX  04151 76458 32865 40000 10193 20170 30150 40154 53006 84030 91447 333 30/// 56/9/ 58018 84364;","Q01  00002PRCP06"
"76458099999","2004-02-04T18:00:00","4","23.2","-106.4166666","4.0","COLONIA JUAN CARRASCO MAZATLAN SIN., MX","FM-12","99999","V020","280,1,N,0020,1","22000,1,9,N","018000,1,N,1","+0223,1","+0173,1","10165,1","06,0000,9,1",,,,,,"04,1,+00630,9,08,9",,,"04,99,1,04,1,01,1,00800,1,00,1,00,1",,"01,9",,"120,M,+0244,1","240,N,+0171,1","99999,9,10160,1","0,1,010,1,+019,1",,,"SYN112AAXX  04181 76458 32568 42802 10223 20173 30160 40165 50010 84100 91747 333 10244 20171 30/// 566// 58019 84821;","Q01  00002PRCP06"
"76458099999","2004-02-04T21:00:00","4","23.2","-106.4166666","4.0","COLONIA JUAN CARRASCO MAZATLAN SIN., MX","FM-12","99999","V020","260,1,N,0030,1","22000,1,9,N","020000,1,N,1","+0236,1","+0166,1","10145,1","06,0000,9,1",,,,,,"02,1,+00870,9,08,9",,,"02,99,1,02,1,02,1,00800,1,00,1,00,1",,"01,9",,,,"99999,9,10141,1","7,1,020,1,+006,1",,,"SYN100AAXX  04211 76458 32570 22603 10236 20166 30141 40145 57020 82200 92048 333 30/// 56100 58006 82829;","Q01  00002PRCP06"
"76458099999","2004-02-05T00:00:00","4","23.2","-106.4166666","4.0","COLONIA JUAN CARRASCO MAZATLAN SIN., MX","FM-12","99999","V020","270,1,N,0030,1","22000,1,9,N","020000,1,N,1","+0229,1","+0160,1","10143,1","06,0000,9,1","24,0000,9,1",,,,,"01,1,+00870,9,08,9","01,1,+02700,9,03,9",,"03,99,1,01,1,02,1,00800,1,03,1,01,1",,"01,9",,"120,M,+0258,1","180,N,+0171,1",,"6,1,002,1,+017,1",,,"SYN136AAXX  05001 76458 32570 32703 10229 20160 31380 40143 56002 81231 92350 333 10258 20171 30/// 50301 56119 58017 70000 81829 81359 81079;","Q01+013801APOSP Q02  00002PRCP06"
"76458099999","2004-02-05T03:00:00","4","23.2","-106.4166666","4.0","COLONIA JUAN CARRASCO MAZATLAN SIN., MX","FM-12","99999","V020","320,1,N,0020,1","22000,1,9,N","008000,1,N,1","+0204,1","+0159,1","10145,1","06,0000,9,1",,,,,,"00,1,+99999,9,99,9",,,"00,99,1,00,1,00,1,99999,9,00,1,00,1",,"01,9",,,,"99999,9,10141,1","2,1,003,1,+013,1",,,"SYN082AAXX  05031 76458 32958 03202 10204 20159 30141 40145 52003 90252 333 30/// 58013;","Q01  00002PRCP06"
"76458099999","2004-02-05T06:00:00","4","23.2","-106.4166666","4.0","COLONIA JUAN CARRASCO MAZATLAN SIN., MX","FM-12","99999","V020","330,1,N,0020,1","22000,1,9,N","008000,1,N,1","+0194,1","+0150,1","10161,1","06,0000,9,1",,,,,,,,,"03,99,1,99,9,00,1,99999,9,05,1,00,1","0570,9","01,9",,"240,M,+0258,1","240,N,+0171,1","99999,9,10156,1","2,1,015,1,+014,1",,,"SYN122AAXX  05061 76458 32958 33302 10194 20150 30156 40161 52015 80050 90535 333 10258 20171 30/// 55095 29517 590 58014 83358;","Q01+000002SCOTLCQ02  00002PRCP06"
"76458099999","2004-02-05T12:00:00","4","23.2","-106.4166666","4.0","COLONIA JUAN CARRASCO MAZATLAN SIN., MX","FM-12","99999","V020","330,1,N,0010,1","22000,1,9,N","008000,1,N,1","+0174,1","+0146,1","10144,1","06,0000,9,1","24,0000,9,1",,,,,"04,1,+00360,9,08,9",,,"04,99,1,04,1,01,1,00450,1,00,1,00,1",,"01,9","999,+0160,9","999,M,+0258,1","120,N,+0168,1","99999,9,10139,1","7,1,012,1,-005,1",,,"SYN118AAXX  05121 76458 32458 43301 10174 20146 30139 40144 57012 84100 91135 333 10258 20168 30016 565// 59005 70000 84812;","Q01  00002PRCP06"
"76458099999","2004-02-05T15:00:00","4","23.2","-106.4166666","4.0","COLONIA JUAN CARRASCO MAZATLAN SIN., MX","FM-12","99999","V020","320,1,N,0010,1","03600,1,C,N","018000,1,N,1","+0175,1","+0143,1","10163,1","06,0000,9,1",,,,,,"02,1,+00390,9,08,9","01,1,+04200,9,03,9",,"07,99,1,02,1,01,1,00450,1,03,1,06,1",,"01,9",,,,"99999,9,10158,1","2,1,019,1,+008,1",,,"SYN112AAXX  05151 76458 32468 73201 10175 20143 30158 40163 52019 82136 91448 333 30/// 56699 58008 82813 81364 84070;","Q01  00002PRCP06"
"76458099999","2004-02-05T18:00:00","4","23.2","-106.4166666","4.0","COLONIA JUAN CARRASCO MAZATLAN SIN., MX","FM-12","99999","V020","230,1,N,0030,1","22000,1,9,N","020000,1,N,1","+0230,1","+0156,1","10166,1","06,0000,9,1",,,,,,"02,1,+00930,9,06,9",,,"04,99,1,02,1,04,1,00800,1,00,1,02,1",,"01,9",,"120,M,+0258,1","240,N,+0160,1","99999,9,10161,1","0,1,003,1,+001,1",,,"SYN118AAXX  05181 76458 32570 42303 10230 20156 30161 40166 50003 82402 91748 333 10258 20160 30/// 560/0 58001 82631 82070;","Q01  00002PRCP06"
"76458099999","2004-02-05T21:00:00","4","23.2","-106.4166666","4.0","COLONIA JUAN CARRASCO MAZATLAN SIN., MX","FM-12","99999","V020","280,1,N,0030,1","22000,1,9,N","020000,1,N,1","+0229,1","+0142,1","10156,1","06,0000,9,1",,,,,,"01,1,+01080,9,08,9",,,"04,99,1,01,1,02,1,01250,1,00,1,02,1",,"01,9",,,,"99999,9,10152,1","7,1,009,1,+011,1",,,"SYN106AAXX  05211 76458 32670 42803 10229 20142 30152 40156 57009 81202 92058 333 30/// 56109 58011 81836 83079;","Q01  00002PRCP06"
"76458099999","2004-02-06T00:00:00","4","23.2","-106.4166666","4.0","COLONIA JUAN CARRASCO MAZATLAN SIN., MX","FM-12","99999","V020","300,1,N,0030,1","22000,1,9,N","020000,1,N,1","+0227,1","+0134,1","10150,1","06,0000,9,1","24,0000,9,1",,,,,"01,1,+01170,9,08,9",,,"06,99,1,01,1,02,1,01250,1,00,1,04,1",,"01,9",,"120,M,+0257,1","180,N,+0160,1","99999,9,10145,1","7,1,006,1,+007,1",,,"SYN130AAXX  06001 76458 32670 63003 10227 20134 30145 40150 57006 81204 92350 333 10257 20160 30/// 50321 56109 58007 70000 81839 85079;","Q01  00002PRCP06"
"76458099999","2004-02-06T03:00:00","4","23.2","-106.4166666","4.0","COLONIA JUAN CARRASCO MAZATLAN SIN., MX","FM-12","99999","V020","310,1,N,0030,1","22000,1,9,N","008000,1,N,1","+0204,1","+0137,1","10150,1","06,0000,9,1",,,,,,"03,1,+06600,9,00,9",,,"03,99,1,00,1,00,1,99999,9,00,1,06,1",,"01,9",,,,"99999,9,10145,1","4,1,000,1,+004,1",,,"SYN100AAXX  06031 76458 32958 33103 10204 20137 30145 40150 54000 80006 90252 333 30/// 56009 58004 83072;","Q01  00002PRCP06"
"76458099999","2004-02-06T06:00:00","4","23.2","-106.4166666","4.0","COLONIA JUAN CARRASCO MAZATLAN SIN., MX","FM-12","99999","V020","320,1,N,0030,1","22000,1,9,N","008000,1,N,1","+0182,1","+0113,1","10161,1","06,0000,9,1",,,,,,,,,"04,99,1,99,9,00,1,99999,9,01,1,00,1","0540,9","01,9",,"240,M,+0257,1","240,N,+0160,1","99999,9,10156,1","2,1,011,1,+001,1",,,"SYN124AAXX  06061 76458 32958 43203 10182 20113 30156 40161 52011 80010 90535 333 10257 20160 30/// 55090 29749 56090 58001 84458;","Q01+000002SCOTLCQ02  00002PRCP06"
"76458099999","2004-02-06T12:00:00","4","23.2","-106.4166666","4.0","COLONIA JUAN CARRASCO MAZATLAN SIN., MX","FM-12","99999","V020","340,1,N,0020,1","06000,1,9,N","008000,1,N,1","+0160,1","+0101,1","10159,1","06,0000,9,1","24,0000,9,1",,,,,"06,1,+06000,9,02,9",,,"06,99,1,00,1,99,9,99999,9,99,9,07,1",,"01,9","999,+0140,9","999,M,+0257,1","120,N,+0152,1","99999,9,10154,1","4,1,000,1,+015,1",,,"SYN112AAXX  06121 76458 32958 63402 10160 20101 30154 40159 54001 80//7 91135 333 10257 20152 30014 58015 70000 86270;","Q01  00002PRCP06"
"76458099999","2004-02-06T15:00:00","4","23.2","-106.4166666","4.0","COLONIA JUAN CARRASCO MAZATLAN SIN., MX","FM-12","99999","V020","320,1,N,0020,1","99999,9,9,N","013000,1,N,1","+0170,1","+0118,1","10162,1","06,0000,9,1",,,,,,"03,1,+06000,9,02,9",,,"07,99,1,00,1,00,1,99999,9,00,1,03,1",,"01,9",,,,"99999,9,10157,1","1,1,003,1,-001,1",,,"SYN106AAXX  06151 76458 32963 73202 10170 20118 30157 40162 51003 80003 91448 333 30/// 56//0 59001 83270 84072;","Q01  00002PRCP06"
"76458099999","2004-02-06T21:00:00","4","23.2","-106.4166666","4.0","COLONIA JUAN CARRASCO MAZATLAN SIN., MX","FM-12","99999","V020","270,1,N,0040,1","22000,1,9,N","020000,1,N,1","+0230,1","+0147,1","10149,1","06,0000,9,1",,,,,,"01,1,+04200,9,03,9",,,"03,99,1,01,1,00,1,02250,1,03,1,01,1",,"01,9",,,,"99999,9,10144,1","7,1,015,1,-008,1",,,"SYN106AAXX  06211 76458 32870 32704 10230 20147 30144 40149 57015 81031 92048 333 30/// 56/99 59008 81364 82070;","Q01  00002PRCP06"
"76458099999","2004-02-07T00:00:00","4","23.2","-106.4166666","4.0","COLONIA JUAN CARRASCO MAZATLAN SIN., MX","FM-12","99999","V020","300,1,N,0050,1","22000,1,9,N","020000,1,N,1","+0222,1","+0152,1","10144,1","06,0000,9,1","24,0000,9,1",,,,,,,,"02,99,1,00,1,00,1,99999,9,00,1,08,1",,"01,9",,"120,M,+0246,1","180,N,+0144,1","99999,9,10139,1","7,1,005,1,-006,1",,,"SYN124AAXX  07001 76458 32970 23005 10222 20152 30139 40144 57005 80008 92345 333 10246 20144 30/// 50321 56//9 59006 70000 82070;","Q01  00002PRCP06"
"76458099999","2004-02-07T03:00:00","4","23.2","-106.4166666","4.0","COLONIA JUAN CARRASCO MAZATLAN SIN., MX","FM-12","99999","V020","320,1,N,0030,1","22000,1,9,N","008000,1,N,1","+0204,1","+0159,1","10148,1","06,0000,9,1",,,,,,"04,1,+06600,9,00,9",,,"04,99,1,00,1,00,1,99999,9,00,1,06,1",,"01,9",,,,"99999,9,10143,1","2,1,004,1,-002,1",,,"SYN100AAXX  07031 76458 32958 43203 10204 20159 30143 40148 52004 80006 90252 333 30/// 56009 59002 84072;","Q01  00002PRCP06"
"76458099999","2004-02-07T09:00:00","4","23.2","-106.4166666","4.0","COLONIA JUAN CARRASCO MAZATLAN SIN., MX","FM-12","99999","V020","320,1,N,0020,1","06000,1,9,N","008000,1,N,1","+0170,1","+0128,1","10140,1","06,0000,9,1",,,,,,"07,1,+06000,9,00,9",,,"07,99,1,00,1,99,9,99999,9,99,9,06,1",,"01,9",,,,"99999,9,10135,1","8,1,007,1,-020,1",,,"SYN094AAXX  07091 76458 32958 73202 10170 20128 30135 40140 58007 80//6 90840 333 30/// 59020 87070;","Q01  00002PRCP06"
"76458099999","2004-02-07T12:00:00","4","23.2","-106.4166666","4.0","COLONIA JUAN CARRASCO MAZATLAN SIN., MX","FM-12","99999","V020","320,1,N,0010,1","22000,1,9,N","008000,1,N,1","+0158,1","+0128,1","10135,1","06,0000,9,1","24,0000,9,1",,,,,"03,1,+06000,9,00,9",,,"03,99,1,00,1,99,9,99999,9,99,9,06,1",,"01,9","999,+0130,9","999,M,+0246,1","120,N,+0150,1","99999,9,10130,1","6,1,005,1,-024,1",,,"SYN112AAXX  07121 76458 32958 33201 10158 20128 30130 40135 56005 80//6 91135 333 10246 20150 30013 59024 70000 83070;","Q01  00002PRCP06"
"76458099999","2004-02-07T15:00:00","4","23.2","-106.4166666","4.0","COLONIA JUAN CARRASCO MAZATLAN SIN., MX","FM-12","99999","V020","999,9,C,0000,1","06000,1,9,N","013000,1,N,1","+0158,1","+0119,1","10151,1","06,0000,9,1",,,,,,"06,1,+06000,9,02,9",,,"06,99,1,00,1,00,1,99999,9,00,1,06,1",,"01,9",,,,"99999,9,10146,1","2,1,016,1,-011,1",,,"SYN100AAXX  07151 76458 32963 60000 10158 20119 30146 40151 52016 80006 91445 333 30/// 56//0 59011 86270;","Q01  00002PRCP06"
"76458099999","2004-02-07T18:00:00","4","23.2","-106.4166666","4.0","COLONIA JUAN CARRASCO MAZATLAN SIN., MX","FM-12","99999","V020","260,1,N,0010,1","06000,1,9,N","015000,1,N,1","+0214,1","+0137,1","10165,1","06,0000,9,1",,,,,,"07,1,+06000,9,02,9",,,"07,99,1,00,1,00,1,99999,9,00,1,06,1",,"01,9",,"120,M,+0230,1","240,N,+0143,1","99999,9,10160,1","1,1,014,1,+001,1",,,"SYN112AAXX  07181 76458 32965 72601 10214 20137 30160 40165 51014 80006 91748 333 10230 20143 30/// 56//0 58001 87270;","Q01  00002PRCP06"
"76458099999","2004-02-07T21:00:00","4","23.2","-106.4166666","4.0","COLONIA JUAN CARRASCO MAZATLAN SIN., MX","FM-12","99999","V020","240,1,N,0030,1","09000,1,C,N","015000,1,N,1","+0233,1","+0130,1","10146,1","06,0000,9,1",,,,,,"04,1,+03600,9,04,9",,,"08,99,1,04,1,00,1,02250,1,02,1,08,1",,"01,9",,,,"99999,9,10141,1","7,1,019,1,-003,1",,,"SYN106AAXX  07211 76458 32865 82403 10233 20130 30141 40146 57019 84028 92048 333 30/// 56/99 59003 84462 84268;","Q01  00002PRCP06"
"76458099999","2004-02-08T00:00:00","4","23.2","-106.4166666","4.0","COLONIA JUAN CARRASCO MAZATLAN SIN., MX","FM-12","99999","V020","240,1,N,0020,1","02100,1,9,N","015000,1,N,1","+0225,1","+0126,1","10142,1","06,0000,9,1","24,0000,9,1",,,,,,,,"08,99,1,08,1,00,1,02250,1,02,1,00,1",,"01,9",,"120,M,+0245,1","180,N,+0143,1","99999,9,10137,1","5,1,004,1,-002,1",,,"SYN124AAXX  08001 76458 32865 82402 10225 20126 30137 40142 55004 88020 92345 333 10245 20143 30/// 50201 56/9/ 59002 70000 86468;","Q01  00002PRCP06"
"76458099999","2004-02-08T03:00:00","4","23.2","-106.4166666","4.0","COLONIA JUAN CARRASCO MAZATLAN SIN., MX","FM-12","99999","V020","330,1,N,0020,1","22000,1,9,N","016000,1,N,1","+0200,1","+0161,1","10148,1","06,0000,9,1",,,,,,"03,1,+08700,9,00,9",,,"03,99,1,00,1,00,1,99999,9,00,1,05,1",,"01,9",,,,"99999,9,10144,1","3,1,007,1,+001,1",,,"SYN100AAXX  08031 76458 32966 33302 10200 20161 30144 40148 53007 80005 90247 333 30/// 56009 58001 83079;","Q01  00002PRCP06"
"76458099999","2004-02-08T12:00:00","4","23.2","-106.4166666","4.0","COLONIA JUAN CARRASCO MAZATLAN SIN., MX","FM-12","99999","V020","999,9,C,0000,1","22000,1,9,N","008000,1,N,1","+0160,1","+0134,1","10157,1","06,0000,9,1",,,,,,"00,1,+99999,9,99,9",,,"00,99,1,00,1,00,1,99999,9,00,1,00,1",,"01,9","999,+0130,9","999,M,+0245,1","120,N,+0150,1","99999,9,10153,1","4,1,000,1,+023,1",,,"SYN094AAXX  08121 76458 32958 00000 10160 20134 30153 40157 54001 91135 333 10245 20150 30013 58023;","Q01  00002PRCP06"
"76458099999","2004-02-08T15:00:00","4","23.2","-106.4166666","4.0","COLONIA JUAN CARRASCO MAZATLAN SIN., MX","FM-12","99999","V020","999,9,C,0000,1","22000,1,9,N","018000,1,N,1","+0176,1","+0138,1","10164,1","06,0000,9,1",,,,,,"01,1,+02700,9,03,9",,,"04,99,1,01,1,00,1,99999,9,03,1,01,1",,"01,9",,,,"99999,9,10159,1","2,1,006,1,+013,1",,,"SYN106AAXX  08151 76458 32968 40000 10176 20138 30159 40164 52006 81031 91455 333 30/// 56039 58013 81359 83079;","Q01  00002PRCP06"
"76458099999","2004-02-08T18:00:00","4","23.2","-106.4166666","4.0","COLONIA JUAN CARRASCO MAZATLAN SIN., MX","FM-12","99999","V020","260,1,N,0020,1","22000,1,9,N","014000,1,N,1","+0232,1","+0163,1","10172,1","06,0000,9,1",,,,,,"01,1,+02700,9,03,9",,,"02,99,1,01,1,00,1,99999,9,03,1,09,1",,"01,9",,"120,M,+0269,1","240,N,+0142,1","99999,9,10167,1","2,1,008,1,+007,1",,,"SYN118AAXX  08181 76458 32964 22602 10232 20163 30167 40172 52008 81039 91750 333 10269 20142 30/// 56039 58007 81359 81169;","Q01  00002PRCP06"
"76458099999","2004-02-08T21:00:00","4","23.2","-106.4166666","4.0","COLONIA JUAN CARRASCO MAZATLAN SIN., MX","FM-12","99999","V020","260,1,N,0030,1","22000,1,9,N","018000,1,N,1","+0244,1","+0166,1","10159,1","06,0000,9,1",,,,,,"01,1,+04200,9,03,9",,,"01,99,1,01,1,00,1,02250,1,03,1,00,1",,"01,9",,,,"99999,9,10154,1","7,1,013,1,+013,1",,,"SYN100AAXX  08211 76458 32868 12603 10244 20166 30154 40159 57013 81030 92045 333 30/// 56/9/ 58013 81364;","Q01  00002PRCP06"
"76458099999","2004-02-09T00:00:00","4","23.2","-106.4166666","4.0","COLONIA JUAN CARRASCO MAZATLAN SIN., MX","FM-12","99999","V020","290,1,N,0020,1","22000,1,9,N","018000,1,N,1","+0241,1","+0151,1","10157,1","06,0000,9,1","24,0000,9,1",,,,,,,,"01,99,1,01,1,00,1,02250,1,03,1,00,1",,"01,9",,"120,M,+0268,1","180,N,+0142,1","99999,9,10152,1","7,1,002,1,+015,1",,,"SYN124AAXX  09001 76458 32868 12902 10241 20151 30152 40157 57002 81030 92345 333 10268 20142 30/// 50291 56/9/ 58015 70000 81364;","Q01  00002PRCP06"
"76458099999","2004-02-09T03:00:00","4","23.2","-106.4166666","4.0","COLONIA JUAN CARRASCO MAZATLAN SIN., MX","FM-12","99999","V020","280,1,N,0020,1","22000,1,9,N","008000,1,N,1","+0210,1","+0180,1","10164,1","06,0000,9,1",,,,,,"00,1,+99999,9,99,9",,,"00,99,1,00,1,00,1,99999,9,00,1,00,1",,"01,9",,,,"99999,9,10149,1","2,1,007,1,+015,1",,,"SYN082AAXX  09031 76458 32958 02802 10210 20180 30149 40164 52007 90245 333 30/// 58015;","Q01  00002PRCP06"
"76458099999","2004-02-09T09:00:00","4","23.2","-106.4166666","4.0","COLONIA JUAN CARRASCO MAZATLAN SIN., MX","FM-12","99999","V020","999,9,C,0000,1","22000,1,9,N","008000,1,N,1","+0180,1","+0159,1","10165,1","06,0000,9,1",,,,,,"02,1,+06000,9,00,9",,,"02,99,1,00,1,99,9,99999,9,99,9,06,1",,"01,9",,,,"99999,9,10161,1","6,1,004,1,+005,1",,,"SYN094AAXX  09091 76458 32958 20000 10180 20159 30161 40165 56004 80//6 90840 333 30/// 58005 82070;","Q01  00002PRCP06"
"76458099999","2004-02-09T12:00:00","4","23.2","-106.4166666","4.0","COLONIA JUAN CARRASCO MAZATLAN SIN., MX","FM-12","99999","V020","999,9,C,0000,1","22000,1,9,N","008000,1,N,1","+0172,1","+0156,1","10162,1","06,0000,9,1","24,0000,9,1",,,,,"00,1,+99999,9,99,9",,,"00,99,1,00,1,00,1,99999,9,00,1,00,1",,"01,9","999,+0140,9","999,M,+0268,1","120,N,+0164,1","99999,9,10157,1","6,1,004,1,+004,1",,,"SYN100AAXX  09121 76458 32958 00000 10172 20156 30157 40162 56004 91135 333 10268 20164 30014 58004 70000;","Q01  00002PRCP06Q02  00002PRCP24"
"76458099999","2004-02-09T15:00:00","4","23.2","-106.4166666","4.0","COLONIA JUAN CARRASCO MAZATLAN SIN., MX","FM-12","99999","V020","999,9,C,0000,1","99999,9,9,N","012000,1,N,1","+0195,1","+0156,1","10166,1","06,0000,9,1",,,,,,"02,1,+02400,9,03,9",,,"06,99,1,02,1,00,1,99999,9,03,1,08,1",,"01,9",,,,"99999,9,10162,1","1,1,005,1,+003,1",,,"SYN106AAXX  09151 76458 32962 60000 10195 20156 30162 40166 51005 82038 91448 333 30/// 56/00 58003 82358 84270;","Q01  00002PRCP06"
"76458099999","2004-02-09T21:00:00","4","23.2","-106.4166666","4.0","COLONIA JUAN CARRASCO MAZATLAN SIN., MX","FM-12","99999","V020","270,1,N,0020,1","02700,1,9,N","018000,1,N,1","+0230,1","+0176,1","10157,1","06,0000,9,1",,,,,,"07,1,+02700,9,03,9",,,"07,99,1,07,1,00,1,99999,9,03,1,00,1",,"01,9",,,,"99999,9,10153,1","7,1,016,1,-001,1",,,"SYN100AAXX  09211 76458 32968 72702 10230 20176 30153 40157 57016 87030 92058 333 30/// 56060 59001 87359;","Q01  00002PRCP06"
"76458099999","2004-02-10T00:00:00","4","23.2","-106.4166666","4.0","COLONIA JUAN CARRASCO MAZATLAN SIN., MX","FM-12","99999","V020","320,1,N,0030,1","02100,1,9,N","018000,1,N,1","+0218,1","+0166,1","10149,1","06,0000,9,1","24,0000,9,1",,,,,,,,"07,99,1,07,1,00,1,02250,1,05,1,00,1",,"01,9",,"120,M,+0270,1","180,N,+0157,1","99999,9,10145,1","7,1,008,1,-007,1",,,"SYN124AAXX  10001 76458 32868 73203 10218 20166 30145 40149 57008 87050 92350 333 10270 20157 30/// 50281 56060 59007 70000 87356;","Q01  00002PRCP06"
"76458099999","2004-02-10T03:00:00","4","23.2","-106.4166666","4.0","COLONIA JUAN CARRASCO MAZATLAN SIN., MX","FM-12","99999","V020","280,1,N,0010,1","02400,1,9,N","008000,1,N,1","+0210,1","+0164,1","10153,1","06,0000,9,1",,,,,,"07,1,+02400,9,03,9",,,"07,99,1,99,9,00,1,99999,9,05,1,00,1",,"01,9",,,,"99999,9,10148,1","2,1,003,1,-005,1",,,"SYN100AAXX  10031 76458 32958 72801 10210 20164 30148 40153 52003 80050 90245 333 30/// 56090 59005 87358;","Q01+000002SCOTLCQ02  00002PRCP06"
"76458099999","2004-02-10T06:00:00","4","23.2","-106.4166666","4.0","COLONIA JUAN CARRASCO MAZATLAN SIN., MX","FM-12","99999","V020","999,9,C,0000,1","99999,9,9,N","008000,1,N,1","+0204,1","+0177,1","10152,1","06,0000,9,1",,,,,,,,,"07,99,1,99,9,00,1,99999,9,05,1,00,1","0150,9","01,9",,"240,M,+0270,1","240,N,+0157,1","99999,9,10148,1","4,1,000,1,-017,1",,,"SYN124AAXX  10061 76458 32958 70000 10204 20177 30148 40152 54000 80050 90532 333 10270 20157 30/// 55025 26654 56090 59017 87358;","Q01+000002SCOTLCQ02  00002PRCP06"
"76458099999","2004-02-10T12:00:00","4","23.2","-106.4166666","4.0","COLONIA JUAN CARRASCO MAZATLAN SIN., MX","FM-12","99999","V020","320,1,N,0010,1","06000,1,9,N","008000,1,N,1","+0190,1","+0156,1","10154,1","06,0000,9,1",,,,,,"07,1,+06000,9,00,9",,,"07,99,1,00,1,99,9,99999,9,99,9,09,1",,"01,9","999,+0170,9","999,M,+0270,1","120,N,+0187,1","99999,9,10144,1","4,1,000,1,-008,1",,,"SYN106AAXX  10121 76458 32958 73201 10190 20156 30144 40154 54000 80//9 91135 333 10270 20187 30017 59008 87070;","Q01  00002PRCP06"
"76458099999","2004-02-10T15:00:00","4","23.2","-106.4166666","4.0","COLONIA JUAN CARRASCO MAZATLAN SIN., MX","FM-12","99999","V020","330,1,N,0010,1","02400,1,9,N","013000,1,N,1","+0198,1","+0159,1","10162,1","06,0000,9,1",,,,,,"05,1,+02400,9,03,9",,,"07,99,1,05,1,00,1,99999,9,07,1,02,1",,"01,9",,,,"99999,9,10157,1","1,1,008,1,-005,1",,,"SYN106AAXX  10151 76458 32963 73301 10198 20159 30157 40162 51008 85072 91448 333 30/// 56/00 59005 85358 82070;","Q01  00002PRCP06"
"76458099999","2004-02-10T21:00:00","4","23.2","-106.4166666","4.0","COLONIA JUAN CARRASCO MAZATLAN SIN., MX","FM-12","99999","V020","280,1,N,0040,1","09000,1,C,N","018000,1,N,1","+0229,1","+0159,1","10154,1","06,0000,9,1",,,,,,"01,1,+04200,9,03,9",,,"07,99,1,01,1,00,1,02250,1,03,1,08,1",,"01,9",,,,"99999,9,10149,1","7,1,010,1,-004,1",,,"SYN106AAXX  10211 76458 32868 72804 10229 20159 30149 40154 57010 81038 92045 333 30/// 56/99 59004 81364 86268;","Q01  00002PRCP06"
"76458099999","2004-02-11T00:00:00","4","23.2","-106.4166666","4.0","COLONIA JUAN CARRASCO MAZATLAN SIN., MX","FM-12","99999","V020","290,1,N,0030,1","09000,1,9,N","018000,1,N,1","+0219,1","+0145,1","10142,1","06,0000,9,1","24,0000,9,1",,,,,"02,1,+04200,9,03,9",,,"07,99,1,02,1,00,1,02250,1,03,1,08,1",,"01,9",,"120,M,+0255,1","180,N,+0184,1","99999,9,10137,1","5,1,012,1,-008,1",,,"SYN130AAXX  11001 76458 32868 72903 10219 20145 30137 40142 55012 82038 92345 333 10255 20184 30/// 50271 56/99 59008 70000 82364 85268;","Q01  00002PRCP06"
"76458099999","2004-02-11T06:00:00","4","23.2","-106.4166666","4.0","COLONIA JUAN CARRASCO MAZATLAN SIN., MX","FM-12","99999","V020","320,1,N,0030,1","99999,9,9,N","008000,1,N,1","+0204,1","+0154,1","10145,1","06,0000,9,1",,,,,,,,,"05,99,1,99,9,00,1,99999,9,05,1,00,1","0240,9","01,9",,"240,M,+0255,1","240,N,+0184,1","99999,9,10140,1","2,1,004,1,-008,1",,,"SYN118AAXX  11061 76458 32958 53203 10204 20154 30140 40145 52004 80050 90545 333 10255 20184 30/// 55040 27505 59008 85358;","Q01+000002SCOTLCQ02  00002PRCP06"
"76458099999","2004-02-11T09:00:00","4","23.2","-106.4166666","4.0","COLONIA JUAN CARRASCO MAZATLAN SIN., MX","FM-12","99999","V020","310,1,N,0010,1","02400,1,9,N","010000,1,N,1","+0196,1","+0152,1","10129,1","06,0000,9,1",,,,,,"07,1,+02400,9,03,9",,,"07,99,1,07,1,00,1,99999,9,05,1,00,1",,"01,9",,,,"99999,9,10125,1","7,1,015,1,-024,1",,,"SYN100AAXX  11091 76458 32960 73101 10196 20152 30125 40129 57015 87050 90850 333 30/// 56050 59024 87358;","Q01  00002PRCP06"
"76458099999","2004-02-11T12:00:00","4","23.2","-106.4166666","4.0","COLONIA JUAN CARRASCO MAZATLAN SIN., MX","FM-12","99999","V020","330,1,N,0020,1","03600,1,C,N","010000,1,N,1","+0188,1","+0122,1","10127,1","06,0000,9,1","24,0000,9,1",,,,,"02,1,+00840,9,06,9",,,"07,99,1,02,1,03,1,00800,1,05,1,00,1",,"01,9","999,+0170,9","999,M,+0255,1","120,N,+0182,1","99999,9,10123,1","4,1,000,1,-027,1",,,"SYN124AAXX  11121 76458 32560 73302 10188 20122 30123 40127 54002 82350 91148 333 10255 20182 30017 56550 59027 70000 82628 85358;","Q01  00002PRCP06"
"76458099999","2004-02-11T15:00:00","4","23.2","-106.4166666","4.0","COLONIA JUAN CARRASCO MAZATLAN SIN., MX","FM-12","99999","V020","310,1,N,0030,1","02400,1,9,N","018000,1,N,1","+0194,1","+0122,1","10153,1","06,0000,9,1",,,,,,"07,1,+02400,9,03,9",,,"07,99,1,07,1,00,1,02250,1,05,1,00,1",,"01,9",,,,"99999,9,10148,1","2,1,025,1,-009,1",,,"SYN100AAXX  11151 76458 32868 73103 10194 20122 30148 40153 52025 87050 91454 333 30/// 56050 59009 87358;","Q01  00002PRCP06"
"76458099999","2004-02-11T18:00:00","4","23.2","-106.4166666","4.0","COLONIA JUAN CARRASCO MAZATLAN SIN., MX","FM-12","99999","V020","300,1,N,0030,1","02400,1,9,N","020000,1,N,1","+0214,1","+0112,1","10160,1","06,0000,9,1",,,,,,"07,1,+02400,9,03,9",,,"07,99,1,07,1,00,1,02250,1,05,1,00,1",,"01,9",,"120,M,+0226,1","240,N,+0184,1","99999,9,10155,1","0,1,007,1,-004,1",,,"SYN112AAXX  11181 76458 32870 73003 10214 20112 30155 40160 50007 87050 91746 333 10226 20184 30/// 56050 59004 87358;","Q01  00002PRCP06"
"76458099999","2004-02-11T21:00:00","4","23.2","-106.4166666","4.0","COLONIA JUAN CARRASCO MAZATLAN SIN., MX","FM-12","99999","V020","290,1,N,0040,1","22000,1,C,N","020000,1,N,1","+0234,1","+0117,1","10144,1","06,0000,9,1",,,,,,"01,1,+04200,9,03,9",,,"05,99,1,01,1,00,1,02250,1,03,1,08,1",,"01,9",,,,"99999,9,10139,1","7,1,016,1,-010,1",,,"SYN106AAXX  11211 76458 32870 52904 10234 20117 30139 40144 57016 81038 92045 333 30/// 56/99 59010 81364 84268;","Q01  00002PRCP06"
"76458099999","2004-02-12T00:00:00","4","23.2","-106.4166666","4.0","COLONIA JUAN CARRASCO MAZATLAN SIN., MX","FM-12","99999","V020","300,1,N,0040,1","09000,1,9,N","020000,1,N,1","+0219,1","+0116,1","10138,1","06,0000,9,1","24,0000,9,1",,,,,"01,1,+04200,9,03,9",,,"06,99,1,01,1,00,1,02250,1,03,1,08,1",,"01,9",,"120,M,+0250,1","180,N,+0184,1","99999,9,10133,1","5,1,006,1,-004,1",,,"SYN130AAXX  12001 76458 32870 63004 10219 20116 30133 40138 55006 81038 92347 333 10250 20184 30/// 50351 56/99 59004 70000 81364 85268;","Q01  00002PRCP06"
"76458099999","2004-02-12T03:00:00","4","23.2","-106.4166666","4.0","COLONIA JUAN CARRASCO MAZATLAN SIN., MX","FM-12","99999","V020","280,1,N,0010,1","22000,1,9,N","008000,1,N,1","+0199,1","+0146,1","10133,1","06,0000,9,1",,,,,,"00,1,+99999,9,99,9",,,"00,99,1,00,1,00,1,99999,9,00,1,00,1",,"01,9",,,,"99999,9,10128,1","7,1,005,1,-005,1",,,"SYN082AAXX  12031 76458 32958 02801 10199 20146 30128 40133 57005 90252 333 30/// 59005;","Q01  00002PRCP06"
"76458099999","2004-02-12T06:00:00","4","23.2","-106.4166666","4.0","COLONIA JUAN CARRASCO MAZATLAN SIN., MX","FM-12","99999","V020","280,1,N,0020,1","22000,1,9,N","008000,1,N,1","+0192,1","+0148,1","10140,1","06,0000,9,1",,,,,,"00,1,+99999,9,99,9",,,"00,99,1,00,1,00,1,99999,9,00,1,00,1","0330,9","01,9",,"240,M,+0250,1","240,N,+0148,1","99999,9,10136,1","2,1,008,1,+999,9",,,"SYN106AAXX  12061 76458 32958 02802 10192 20148 30136 40140 52008 90532 333 10250 20148 30/// 55055 28744 59004;","Q01  00002PRCP06"
"76458099999","2004-02-12T12:00:00","4","23.2","-106.4166666","4.0","COLONIA JUAN CARRASCO MAZATLAN SIN., MX","FM-12","99999","V020","360,1,N,0010,1","99999,9,9,N","008000,1,N,1","+0162,1","+0126,1","10145,1","06,0000,9,1","24,0000,9,1",,,,,"01,1,+01800,9,03,9",,,"05,99,1,01,1,99,9,99999,9,05,1,06,1",,"01,9","999,+0150,9","999,M,+0250,1","120,N,+0158,1","99999,9,10140,1","5,1,001,1,+017,1",,,"SYN118AAXX  12121 76458 32958 53601 10162 20126 30140 40145 55001 81/56 91135 333 10250 20158 30015 58017 70000 81356 84070;","Q01  00002PRCP06"
"76458099999","2004-02-12T15:00:00","4","23.2","-106.4166666","4.0","COLONIA JUAN CARRASCO MAZATLAN SIN., MX","FM-12","99999","V020","999,9,C,0000,1","02400,1,9,N","020000,1,N,1","+0180,1","+0128,1","10151,1","06,0000,9,1",,,,,,"06,1,+02400,9,03,9",,,"06,99,1,06,1,00,1,02250,1,05,1,00,1",,"01,9",,,,"99999,9,10147,1","2,1,006,1,-001,1",,,"SYN100AAXX  12151 76458 32870 60000 10180 20128 30147 40151 52006 86050 91455 333 30/// 56050 59001 86358;","Q01  00002PRCP06"
"76458099999","2004-02-12T18:00:00","4","23.2","-106.4166666","4.0","COLONIA JUAN CARRASCO MAZATLAN SIN., MX","FM-12","99999","V020","270,1,N,0030,1","22000,1,9,N","018000,1,N,1","+0216,1","+0154,1","10159,1","06,0000,9,1",,,,,,"03,1,+02700,9,03,9",,,"04,99,1,03,1,00,1,99999,9,03,1,01,1",,"01,9",,"120,M,+0240,1","240,N,+0156,1","99999,9,10154,1","1,1,008,1,-001,1",,,"SYN118AAXX  12181 76458 32968 42703 10216 20154 30154 40159 51008 83031 91748 333 10240 20156 30/// 56059 59001 83359 81079;","Q01  00002PRCP06"
"76458099999","2004-02-12T21:00:00","4","23.2","-106.4166666","4.0","COLONIA JUAN CARRASCO MAZATLAN SIN., MX","FM-12","99999","V020","260,1,N,0050,1","04200,1,9,N","020000,1,N,1","+0237,1","+0160,1","10138,1","06,0000,9,1",,,,,,"06,1,+04200,9,03,9",,,"07,99,1,06,1,00,1,02250,1,03,1,08,1",,"01,9",,,,"99999,9,10134,1","7,1,020,1,-005,1",,,"SYN106AAXX  12211 76458 32870 72605 10237 20160 30134 40138 57020 86038 92048 333 30/// 56/59 59005 86364 81268;","Q01  00002PRCP06"
"76458099999","2004-02-13T00:00:00","4","23.2","-106.4166666","4.0","COLONIA JUAN CARRASCO MAZATLAN SIN., MX","FM-12","99999","V020","300,1,N,0060,1","02100,1,9,N","020000,1,N,1","+0222,1","+0117,1","10132,1","06,0000,9,1","24,0000,9,1",,,,,,,,"07,99,1,07,1,00,1,02250,1,03,1,00,1",,"01,9",,"120,M,+0274,1","180,N,+0156,1","99999,9,10127,1","5,1,007,1,-006,1",,,"SYN124AAXX  13001 76458 32870 73006 10222 20117 30127 40132 55007 87030 92345 333 10274 20156 30/// 50391 56/9/ 59006 70000 87364;","Q01  00002PRCP06"
"76458099999","2004-02-13T03:00:00","4","23.2","-106.4166666","4.0","COLONIA JUAN CARRASCO MAZATLAN SIN., MX","FM-12","99999","V020","300,1,N,0030,1","00840,1,9,N","008000,1,N,1","+0210,1","+0144,1","10157,1","06,0000,9,1",,,,,,"07,1,+00840,9,06,9",,,"07,99,1,07,1,05,1,99999,9,00,1,00,1",,"01,9",,,,"99999,9,10152,1","2,1,025,1,+024,1",,,"SYN094AAXX  13031 76458 32958 73003 10210 20144 30152 40157 52025 87500 90244 333 30/// 58024 87628;","Q01  00002PRCP06"
"76458099999","2004-02-13T06:00:00","4","23.2","-106.4166666","4.0","COLONIA JUAN CARRASCO MAZATLAN SIN., MX","FM-12","99999","V020","270,1,N,0030,1","00750,1,9,N","008000,1,N,1","+0200,1","+0125,1","10154,1","06,0000,9,1",,,,,,,,,"07,99,1,07,1,05,1,00800,1,00,1,00,1","0480,9","01,9",,"240,M,+0274,1","240,N,+0156,1","99999,9,10149,1","7,1,003,1,+013,1",,,"SYN124AAXX  13061 76458 32558 72703 10200 20125 30149 40154 57003 87500 90535 333 10274 20156 30/// 55080 28589 56900 58013 87631;","Q01  00002PRCP06"
"76458099999","2004-02-13T12:00:00","4","23.2","-106.4166666","4.0","COLONIA JUAN CARRASCO MAZATLAN SIN., MX","FM-12","99999","V020","320,1,N,0020,1","03600,1,C,N","008000,1,N,1","+0184,1","+0136,1","10150,1","06,0000,9,1","24,0000,9,1",,,,,"03,1,+00600,9,06,9",,,"06,99,1,03,1,05,1,00800,1,03,1,99,9",,"01,9","999,+0170,9","999,M,+0274,1","120,N,+0180,1","99999,9,10145,1","5,1,000,1,+007,1",,,"SYN124AAXX  13121 76458 32558 63202 10184 20136 30145 40150 55000 8353/ 91135 333 10274 20180 30017 5659/ 58007 79999 83620 83356;","Q01  00002PRCP06Q02  00002PRCP24"
"76458099999","2004-02-13T15:00:00","4","23.2","-106.4166666","4.0","COLONIA JUAN CARRASCO MAZATLAN SIN., MX","FM-12","99999","V020","330,1,N,0020,1","00750,1,9,N","013000,1,N,1","+0186,1","+0141,1","10159,1","06,0000,9,1",,,,,,"05,1,+00750,9,06,9",,,"07,99,1,05,1,04,1,00450,1,03,1,00,1",,"01,9",,,,"99999,9,10155,1","3,1,010,1,+008,1",,,"SYN106AAXX  13151 76458 32463 73302 10186 20141 30155 40159 53010 85430 91448 333 30/// 5650/ 58008 85625 82358;","Q01  00002PRCP06"
"76458099999","2004-02-13T21:00:00","4","23.2","-106.4166666","4.0","COLONIA JUAN CARRASCO MAZATLAN SIN., MX","FM-12","99999","V020","300,1,N,0040,1","22000,1,9,N","020000,1,N,1","+0225,1","+0121,1","10158,1","06,0000,9,1",,,,,,"03,1,+04200,9,03,9",,,"03,99,1,03,1,00,1,02250,1,03,1,00,1",,"01,9",,,,"99999,9,10153,1","7,1,012,1,+019,1",,,"SYN100AAXX  13211 76458 32870 33004 10225 20121 30153 40158 57012 83030 92045 333 30/// 56/9/ 58019 83364;","Q01  00002PRCP06"
"76458099999","2004-02-14T00:00:00","4","23.2","-106.4166666","4.0","COLONIA JUAN CARRASCO MAZATLAN SIN., MX","FM-12","99999","V020","320,1,N,0040,1","22000,1,9,N","020000,1,N,1","+0216,1","+0136,1","10152,1","06,0000,9,1","24,9999,9,9",,,,,,,,"01,99,1,01,1,00,1,02250,1,03,1,00,1",,"01,9",,"120,M,+0242,1","180,N,+0176,1","99999,9,10147,1","7,1,006,1,+020,1",,,"SYN124AAXX  14001 76458 32870 13204 10216 20136 30147 40152 57006 81030 92345 333 10242 20176 30/// 50391 56/9/ 58020 79999 81364;","Q01  00002PRCP06Q02  99992PRCP24"
"76458099999","2004-02-14T03:00:00","4","23.2","-106.4166666","4.0","COLONIA JUAN CARRASCO MAZATLAN SIN., MX","FM-12","99999","V020","300,1,N,0040,1","22000,1,9,N","008000,1,N,1","+0192,1","+0148,1","10161,1","06,0000,9,1",,,,,,"04,1,+02400,9,03,9",,,"04,99,1,99,9,00,1,99999,9,03,1,00,1",,"01,9",,,,"99999,9,10156,1","2,1,009,1,+004,1",,,"SYN100AAXX  14031 76458 32958 43004 10192 20148 30156 40161 52009 80030 90255 333 30/// 56090 58004 84358;","Q01+000002SCOTLCQ02  00002PRCP06"
"76458099999","2004-02-14T06:00:00","4","23.2","-106.4166666","4.0","COLONIA JUAN CARRASCO MAZATLAN SIN., MX","FM-12","99999","V020","310,1,N,0030,1","22000,1,9,N","008000,1,N,1","+0182,1","+0144,1","10168,1","06,0000,9,1",,,,,,"00,1,+99999,9,99,9",,,"00,99,1,00,1,00,1,99999,9,00,1,00,1","0450,9","01,9",,"240,M,+0242,1","240,N,+0176,1","99999,9,10164,1","2,1,008,1,+999,9",,,"SYN106AAXX  14061 76458 32958 03103 10182 20144 30164 40168 52008 90535 333 10242 20176 30/// 55075 28743 58015;","Q01  00002PRCP06"
"76458099999","2004-02-14T09:00:00","4","23.2","-106.4166666","4.0","COLONIA JUAN CARRASCO MAZATLAN SIN., MX","FM-12","99999","V020","330,1,N,0020,1","22000,1,9,N","008000,1,N,1","+0160,1","+0132,1","10164,1","06,0000,9,1",,,,,,"00,1,+99999,9,99,9",,,"00,99,1,00,1,00,1,99999,9,00,1,00,1",,"01,9",,,,"99999,9,10159,1","8,1,005,1,+014,1",,,"SYN082AAXX  14091 76458 32958 03302 10160 20132 30159 40164 58005 90840 333 30/// 58014;","Q01  00002PRCP06"
"76458099999","2004-02-14T12:00:00","4","23.2","-106.4166666","4.0","COLONIA JUAN CARRASCO MAZATLAN SIN., MX","FM-12","99999","V020","340,1,N,0010,1","22000,1,9,N","008000,1,N,1","+0144,1","+0099,1","10156,1","06,0000,9,1","24,0000,9,1",,,,,"00,1,+99999,9,99,9",,,"00,99,1,00,1,00,1,99999,9,00,1,00,1",,"01,9","999,+0120,9","999,M,+0242,1","120,N,+0136,1","99999,9,10151,1","7,1,008,1,+006,1",,,"SYN100AAXX  14121 76458 32958 03401 10144 20099 30151 40156 57008 91135 333 10242 20136 30012 58006 70000;","Q01  00002PRCP06Q02  00002PRCP24"
"76458099999","2004-02-14T15:00:00","4","23.2","-106.4166666","4.0","COLONIA JUAN CARRASCO MAZATLAN SIN., MX","FM-12","99999","V020","330,1,N,0020,1","22000,1,9,N","013000,1,N,1","+0158,1","+0121,1","10165,1","06,0000,9,1",,,,,,"00,1,+99999,9,99,9",,,"00,99,1,00,1,00,1,99999,9,00,1,00,1",,"01,9",,,,"99999,9,10160,1","1,1,009,1,+005,1",,,"SYN082AAXX  14151 76458 32963 03302 10158 20121 30160 40165 51009 91445 333 30/// 58005;","Q01  00002PRCP06"
"76458099999","2004-02-14T18:00:00","4","23.2","-106.4166666","4.0","COLONIA JUAN CARRASCO MAZATLAN SIN., MX","FM-12","99999","V020","270,1,N,0030,1","22000,1,9,N","020000,1,N,1","+0206,1","+0135,1","10170,1","06,0000,9,1",,,,,,"00,1,+99999,9,99,9",,,"00,99,1,00,1,00,1,99999,9,00,1,00,1",,"01,9",,"120,M,+0220,1","240,N,+0124,1","99999,9,10165,1","1,1,005,1,-001,1",,,"SYN094AAXX  14181 76458 32970 02703 10206 20135 30165 40170 51005 91745 333 10220 20124 30/// 59001;","Q01  00002PRCP06"
"76458099999","2004-02-14T21:00:00","4","23.2","-106.4166666","4.0","COLONIA JUAN CARRASCO MAZATLAN SIN., MX","FM-12","99999","V020","270,1,N,0040,1","22000,1,9,N","020000,1,N,1","+0221,1","+0125,1","10148,1","06,0000,9,1",,,,,,"00,1,+99999,9,99,9",,,"00,99,1,00,1,00,1,99999,9,00,1,00,1",,"01,9",,,,"99999,9,10144,1","7,1,021,1,-009,1",,,"SYN082AAXX  14211 76458 32970 02704 10221 20125 30144 40148 57021 92047 333 30/// 59009;","Q01  00002PRCP06"
"76458099999","2004-02-15T00:00:00","4","23.2","-106.4166666","4.0","COLONIA JUAN CARRASCO MAZATLAN SIN., MX","FM-12","99999","V020","300,1,N,0040,1","22000,1,9,N","020000,1,N,1","+0210,1","+0131,1","10136,1","06,0000,9,1","24,0000,9,1",,,,,"00,1,+99999,9,99,9",,,"00,99,1,00,1,00,1,99999,9,00,1,00,1",,"01,9",,"120,M,+0238,1","180,N,+0124,1","99999,9,10131,1","7,1,013,1,-016,1",,,"SYN106AAXX  15001 76458 32970 03004 10210 20131 30131 40136 57013 92345 333 10238 20124 30/// 50401 59016 70000;","Q01  00002PRCP06Q02  00002PRCP24"
"76458099999","2004-02-15T03:00:00","4","23.2","-106.4166666","4.0","COLONIA JUAN CARRASCO MAZATLAN SIN., MX","FM-12","99999","V020","300,1,N,0020,1","22000,1,9,N","016000,1,N,1","+0186,1","+0120,1","10144,1","06,0000,9,1",,,,,,"00,1,+99999,9,99,9",,,"00,99,1,00,1,00,1,99999,9,00,1,00,1",,"01,9",,,,"99999,9,10140,1","2,1,009,1,-016,1",,,"SYN082AAXX  15031 76458 32966 03002 10186 20120 30140 40144 52009 90248 333 30/// 59016;","Q01  00002PRCP06"
"76458099999","2004-02-15T06:00:00","4","23.2","-106.4166666","4.0","COLONIA JUAN CARRASCO MAZATLAN SIN., MX","FM-12","99999","V020","330,1,N,0020,1","22000,1,9,N","016000,1,N,1","+0160,1","+0118,1","10146,1","06,0000,9,1",,,,,,"00,1,+99999,9,99,9",,,"00,99,1,00,1,00,1,99999,9,00,1,00,1","0600,9","01,9",,"240,M,+0238,1","240,N,+0124,1","99999,9,10141,1","2,1,001,1,+999,9",,,"SYN106AAXX  15061 76458 32966 03302 10160 20118 30141 40146 52001 90548 333 10238 20124 30/// 55100 20843 59023;","Q01  00002PRCP06"
"76458099999","2004-02-15T09:00:00","4","23.2","-106.4166666","4.0","COLONIA JUAN CARRASCO MAZATLAN SIN., MX","FM-12","99999","V020","360,1,N,0010,1","22000,1,9,N","008000,1,N,1","+0144,1","+0065,1","10148,1","06,0000,9,1",,,,,,"00,1,+99999,9,99,9",,,"00,99,1,00,1,00,1,99999,9,00,1,00,1",,"01,9",,,,"99999,9,10143,1","2,1,002,1,-016,1",,,"SYN082AAXX  15091 76458 32958 03601 10144 20065 30143 40148 52002 90835 333 30/// 59016;","Q01  00002PRCP06"
"76458099999","2004-02-15T12:00:00","4","23.2","-106.4166666","4.0","COLONIA JUAN CARRASCO MAZATLAN SIN., MX","FM-12","99999","V020","999,9,C,0000,1","22000,1,9,N","008000,1,N,1","+0134,1","+0099,1","10147,1","06,0000,9,1","24,0000,9,1",,,,,"00,1,+99999,9,99,9",,,"00,99,1,00,1,00,1,99999,9,00,1,00,1",,"01,9",,"999,M,+0238,1","120,N,+0124,1","99999,9,10142,1","4,1,000,1,-009,1",,,"SYN100AAXX  15121 76458 32958 00000 10134 20099 30142 40147 54001 91135 333 10238 20124 30090 59009 70000;","Q01  00002PRCP06Q02  00002PRCP24"
"76458099999","2004-02-15T15:00:00","4","23.2","-106.4166666","4.0","COLONIA JUAN CARRASCO MAZATLAN SIN., MX","FM-12","99999","V020","330,1,N,0020,1","22000,1,9,N","018000,1,N,1","+0140,1","+0094,1","10167,1","06,0000,9,1",,,,,,"00,1,+99999,9,99,9",,,"00,99,1,00,1,00,1,99999,9,00,1,00,1",,"01,9",,,,"99999,9,10162,1","2,1,020,1,+002,1",,,"SYN082AAXX  15151 76458 32968 03302 10140 20094 30162 40167 52020 91447 333 30/// 58002;","Q01  00002PRCP06"
"76458099999","2004-02-15T18:00:00","4","23.2","-106.4166666","4.0","COLONIA JUAN CARRASCO MAZATLAN SIN., MX","FM-12","99999","V020","240,1,N,0030,1","22000,1,9,N","020000,1,N,1","+0204,1","+0111,1","10169,1","06,0000,9,1",,,,,,"00,1,+99999,9,99,9",,,"00,99,1,00,1,00,1,99999,9,00,1,00,1",,"01,9",,"120,M,+0225,1","240,N,+0108,1","99999,9,10165,1","0,1,002,1,+000,1",,,"SYN094AAXX  15181 76458 32970 02403 10204 20111 30165 40169 50002 91750 333 10225 20108 30/// 59000;","Q01  00002PRCP06"
"76458099999","2004-02-15T21:00:00","4","23.2","-106.4166666","4.0","COLONIA JUAN CARRASCO MAZATLAN SIN., MX","FM-12","99999","V020","280,1,N,0050,1","22000,1,9,N","020000,1,N,1","+0206,1","+0126,1","10157,1","06,0000,9,1",,,,,,"00,1,+99999,9,99,9",,,"00,99,1,00,1,00,1,99999,9,00,1,00,1",,"01,9",,,,"99999,9,10152,1","7,1,013,1,+008,1",,,"SYN082AAXX  15211 76458 32970 02805 10206 20126 30152 40157 57013 92050 333 30/// 58008;","Q01  00002PRCP06"
"76458099999","2004-02-16T00:00:00","4","23.2","-106.4166666","4.0","COLONIA JUAN CARRASCO MAZATLAN SIN., MX","FM-12","99999","V020","300,1,N,0050,1","22000,1,9,N","020000,1,N,1","+0208,1","+0125,1","10150,1","06,0000,9,1","24,0000,9,1",,,,,"00,1,+99999,9,99,9",,,"00,99,1,00,1,00,1,99999,9,00,1,00,1",,"01,9",,"120,M,+0225,1","180,N,+0108,1","99999,9,10145,1","7,1,007,1,+014,1",,,"SYN106AAXX  16001 76458 32970 03005 10208 20125 30145 40150 57007 92345 333 10225 20108 30/// 50381 58014 70000;","Q01  00002PRCP06Q02  00002PRCP24"
"76458099999","2004-02-16T03:00:00","4","23.2","-106.4166666","4.0","COLONIA JUAN CARRASCO MAZATLAN SIN., MX","FM-12","99999","V020","310,1,N,0030,1","22000,1,9,N","008000,1,N,1","+0180,1","+0134,1","10155,1","06,0000,9,1",,,,,,"00,1,+99999,9,99,9",,,"00,99,1,00,1,00,1,99999,9,00,1,00,1",,"01,9",,,,"99999,9,10151,1","2,1,006,1,+011,1",,,"SYN082AAXX  16031 76458 32958 03103 10180 20134 30151 40155 52006 90242 333 30/// 58011;","Q01  00002PRCP06"
"76458099999","2004-02-16T06:00:00","4","23.2","-106.4166666","4.0","COLONIA JUAN CARRASCO MAZATLAN SIN., MX","FM-12","99999","V020","290,1,N,0010,1","22000,1,9,N","008000,1,N,1","+0162,1","+0126,1","10169,1","06,0000,9,1",,,,,,"00,1,+99999,9,99,9",,,"00,99,1,00,1,00,1,99999,9,00,1,00,1","0612,9","01,9",,"240,M,+0245,1","240,N,+0108,1","99999,9,10165,1","2,1,014,1,+999,9",,,"SYN106AAXX  16061 76458 32958 02901 10162 20126 30165 40169 52014 90532 333 10245 20108 30/// 55102 21021 58024;","Q01  00002PRCP06"
"76458099999","2004-02-16T09:00:00","4","23.2","-106.4166666","4.0","COLONIA JUAN CARRASCO MAZATLAN SIN., MX","FM-12","99999","V020","300,1,N,0010,1","22000,1,9,N","008000,1,N,1","+0146,1","+0120,1","10168,1","06,0000,9,1",,,,,,"00,1,+99999,9,99,9",,,"00,99,1,00,1,00,1,99999,9,00,1,00,1",,"01,9",,,,"99999,9,10163,1","8,1,002,1,+020,1",,,"SYN082AAXX  16091 76458 32958 03001 10146 20120 30163 40168 58002 90835 333 30/// 58020;","Q01  00002PRCP06"
"76458099999","2004-02-16T12:00:00","4","23.2","-106.4166666","4.0","COLONIA JUAN CARRASCO MAZATLAN SIN., MX","FM-12","99999","V020","999,9,C,0000,1","22000,1,9,N","008000,1,N,1","+0132,1","+0115,1","10164,1","06,0000,9,1","24,0000,9,1",,,,,"00,1,+99999,9,99,9",,,"00,99,1,00,1,00,1,99999,9,00,1,00,1",,"01,9",,"999,M,+0225,1","120,N,+0120,1","99999,9,10159,1","6,1,004,1,+999,9",,,"SYN100AAXX  16121 76458 32958 00000 10132 20115 30159 40164 56004 91135 333 10225 20120 30090 70000 58017;","Q01  00002PRCP06"
"76458099999","2004-02-16T15:00:00","4","23.2","-106.4166666","4.0","COLONIA JUAN CARRASCO MAZATLAN SIN., MX","FM-12","99999","V020","999,9,C,0000,1","22000,1,9,N","013000,1,N,1","+0152,1","+0114,1","10179,1","06,0000,9,1",,,,,,"00,1,+99999,9,99,9",,,"00,99,1,00,1,00,1,99999,9,00,1,00,1",,"01,9",,,,"99999,9,10174,1","2,1,015,1,+012,1",,,"SYN082AAXX  16151 76458 32963 00000 10152 20114 30174 40179 52015 91440 333 30/// 58012;","Q01  00002PRCP06"
"76458099999","2004-02-16T18:00:00","4","23.2","-106.4166666","4.0","COLONIA JUAN CARRASCO MAZATLAN SIN., MX","FM-12","99999","V020","250,1,N,0020,1","22000,1,9,N","018000,1,N,1","+0212,1","+0135,1","10190,1","06,0000,9,1",,,,,,"00,1,+99999,9,99,9",,,"00,99,1,00,1,00,1,99999,9,00,1,00,1",,"01,9",,"120,M,+0241,1","240,N,+0114,1","99999,9,10186,1","1,1,012,1,+021,1",,,"SYN094AAXX  16181 76458 32968 02502 10212 20135 30186 40190 51012 91748 333 10241 20114 30/// 58021;","Q01  00002PRCP06"
"76458099999","2004-02-16T21:00:00","4","23.2","-106.4166666","4.0","COLONIA JUAN CARRASCO MAZATLAN SIN., MX","FM-12","99999","V020","270,1,N,0030,1","22000,1,9,N","020000,1,N,1","+0220,1","+0155,1","10167,1","06,0000,9,1",,,,,,"00,1,+99999,9,99,9",,,"00,99,1,00,1,00,1,99999,9,00,1,00,1",,"01,9",,,,"99999,9,10162,1","7,1,023,1,+010,1",,,"SYN082AAXX  16211 76458 32970 02703 10220 20155 30162 40167 57023 92046 333 30/// 58010;","Q01  00002PRCP06"
"76458099999","2004-02-17T00:00:00","4","23.2","-106.4166666","4.0","COLONIA JUAN CARRASCO MAZATLAN SIN., MX","FM-12","99999","V020","300,1,N,0030,1","22000,1,9,N","020000,1,N,1","+0219,1","+0145,1","10160,1","06,0000,9,1","24,0000,9,1",,,,,"00,1,+99999,9,99,9",,,"00,99,1,00,1,00,1,99999,9,00,1,00,1",,"01,9",,"120,M,+0245,1","180,N,+0114,1","99999,9,10155,1","6,1,007,1,+010,1",,,"SYN106AAXX  17001 76458 32970 03003 10219 20145 30155 40160 56007 92350 333 10245 20114 30/// 50351 58010 70000;","Q01  00002PRCP06Q02  00002PRCP24"
"76458099999","2004-02-17T06:00:00","4","23.2","-106.4166666","4.0","COLONIA JUAN CARRASCO MAZATLAN SIN., MX","FM-12","99999","V020","290,1,N,0020,1","22000,1,9,N","008000,1,N,1","+0176,1","+0141,1","10172,1","06,0000,9,1",,,,,,"00,1,+99999,9,99,9",,,"00,99,1,00,1,00,1,99999,9,00,1,00,1","0600,9","01,9",,"240,M,+0245,1","240,N,+0114,1","99999,9,10168,1","2,1,010,1,+999,9",,,"SYN106AAXX  17061 76458 32958 02902 10176 20141 30168 40172 52010 90532 333 10245 20114 30/// 55100 21106 58003;","Q01  00002PRCP06"
"76458099999","2004-02-17T09:00:00","4","23.2","-106.4166666","4.0","COLONIA JUAN CARRASCO MAZATLAN SIN., MX","FM-12","99999","V020","320,1,N,0020,1","22000,1,9,N","008000,1,N,1","+0166,1","+0119,1","10164,1","06,0000,9,1",,,,,,"00,1,+99999,9,99,9",,,"00,99,1,00,1,00,1,99999,9,00,1,00,1",,"01,9",,,,"99999,9,10160,1","7,1,008,1,-003,1",,,"SYN082AAXX  17091 76458 32958 03202 10166 20119 30160 40164 57008 90835 333 30/// 59003;","Q01  00002PRCP06"
"76458099999","2004-02-17T12:00:00","4","23.2","-106.4166666","4.0","COLONIA JUAN CARRASCO MAZATLAN SIN., MX","FM-12","99999","V020","999,9,C,0000,1","22000,1,9,N","008000,1,N,1","+0148,1","+0117,1","10160,1","06,0000,9,1","24,0000,9,1",,,,,"00,1,+99999,9,99,9",,,"00,99,1,00,1,00,1,99999,9,00,1,00,1",,"01,9","999,+0110,9","999,M,+0245,1","120,N,+0140,1","99999,9,10155,1","6,1,005,1,-004,1",,,"SYN100AAXX  17121 76458 32958 00000 10148 20117 30155 40160 56005 91135 333 10245 20140 30011 59004 70000;","Q01  00002PRCP06Q02  00002PRCP24"
"76458099999","2004-02-17T15:00:00","4","23.2","-106.4166666","4.0","COLONIA JUAN CARRASCO MAZATLAN SIN., MX","FM-12","99999","V020","999,9,C,0000,1","22000,1,9,N","020000,1,N,1","+0166,1","+0119,1","10181,1","06,0000,9,1",,,,,,"01,1,+08700,9,00,9",,,"01,99,1,00,1,00,1,99999,9,00,1,01,1",,"01,9",,,,"99999,9,10177,1","2,1,021,1,+002,1",,,"SYN100AAXX  17151 76458 32970 10000 10166 20119 30177 40181 52021 80001 91450 333 30/// 56009 58002 81079;","Q01  00002PRCP06"
"76458099999","2004-02-17T18:00:00","4","23.2","-106.4166666","4.0","COLONIA JUAN CARRASCO MAZATLAN SIN., MX","FM-12","99999","V020","180,1,N,0020,1","22000,1,9,N","020000,1,N,1","+0243,1","+0143,1","10195,1","06,0000,9,1",,,,,,"01,1,+08700,9,00,9",,,"01,99,1,00,1,00,1,99999,9,00,1,01,1",,"01,9",,"120,M,+0260,1","240,N,+0129,1","99999,9,10191,1","0,1,014,1,+005,1",,,"SYN112AAXX  17181 76458 32970 11802 10243 20143 30191 40195 50014 80001 91750 333 10260 20129 30/// 56009 58005 81079;","Q01  00002PRCP06"
"76458099999","2004-02-17T21:00:00","4","23.2","-106.4166666","4.0","COLONIA JUAN CARRASCO MAZATLAN SIN., MX","FM-12","99999","V020","180,1,N,0020,1","22000,1,9,N","020000,1,N,1","+0286,1","+0078,1","10181,1","06,0000,9,1",,,,,,"01,1,+06000,9,00,9",,,"01,99,1,00,1,00,1,99999,9,00,1,01,1",,"01,9",,,,"99999,9,10176,1","7,1,016,1,+014,1",,,"SYN100AAXX  17211 76458 32970 11802 10286 20078 30176 40181 57016 80001 92048 333 30/// 56//9 58014 81070;","Q01  00002PRCP06"
"76458099999","2004-02-18T00:00:00","4","23.2","-106.4166666","4.0","COLONIA JUAN CARRASCO MAZATLAN SIN., MX","FM-12","99999","V020","290,1,N,0030,1","22000,1,9,N","020000,1,N,1","+0269,1","+0104,1","10166,1","06,0000,9,1","24,0000,9,1",,,,,"00,1,+99999,9,99,9",,,"00,99,1,00,1,00,1,99999,9,00,1,00,1",,"01,9",,"120,M,+0304,1","180,N,+0129,1","99999,9,10162,1","5,1,014,1,+007,1",,,"SYN106AAXX  18001 76458 32970 02903 10269 20104 30162 40166 55014 92347 333 10304 20129 30/// 50351 58007 70000;","Q01  00002PRCP06Q02  00002PRCP24"
"76458099999","2004-02-18T06:00:00","4","23.2","-106.4166666","4.0","COLONIA JUAN CARRASCO MAZATLAN SIN., MX","FM-12","99999","V020","290,1,N,0020,1","22000,1,9,N","008000,1,N,1","+0196,1","+9999,9","10184,1","06,0000,9,1",,,,,,"00,1,+99999,9,99,9",,,"00,99,1,00,1,00,1,99999,9,00,1,00,1","0690,9","01,9",,"240,M,+0304,1","240,N,+0129,1","99999,9,10180,1","2,1,014,1,+999,9",,,"SYN106AAXX  18061 76458 32958 02902 10196 20268 30180 40184 52014 90532 333 10304 20129 30/// 55115 21099 58012;","Q01  00002PRCP06"
"76458099999","2004-02-18T12:00:00","4","23.2","-106.4166666","4.0","COLONIA JUAN CARRASCO MAZATLAN SIN., MX","FM-12","99999","V020","100,1,N,0020,1","22000,1,9,N","012000,1,N,1","+0158,1","+0103,1","10178,1","06,0000,9,1","24,0000,9,1",,,,,"00,1,+99999,9,99,9",,,"00,99,1,00,1,00,1,99999,9,00,1,00,1",,"01,9","999,+0110,9","999,M,+0304,1","120,N,+0146,1","99999,9,10174,1","9,9,999,9,+018,1",,,"SYN100AAXX  18121 76458 32962 01002 10158 20103 30174 40178 5//// 91148 333 10304 20146 30011 58018 70000;","Q01  00002PRCP06Q02  00002PRCP24"
"76458099999","2004-02-18T15:00:00","4","23.2","-106.4166666","4.0","COLONIA JUAN CARRASCO MAZATLAN SIN., MX","FM-12","99999","V020","999,9,C,0000,1","22000,1,9,N","020000,1,N,1","+0183,1","+0125,1","10192,1","06,0000,9,1",,,,,,"00,1,+99999,9,99,9",,,"00,99,1,00,1,00,1,99999,9,00,1,00,1",,"01,9",,,,"99999,9,10187,1","2,1,014,1,+011,1",,,"SYN082AAXX  18150 76458 32970 00000 10183 20125 30187 40192 52014 91443 333 30/// 58011;","Q01  00002PRCP06"
"76458099999","2004-02-18T18:00:00","4","23.2","-106.4166666","4.0","COLONIA JUAN CARRASCO MAZATLAN SIN., MX","FM-12","99999","V020","130,1,N,0010,1","22000,1,9,N","020000,1,N,1","+0285,1","+0119,1","10202,1","06,0000,9,1",,,,,,"00,1,+99999,9,99,9",,,"00,99,1,00,1,00,1,99999,9,00,1,00,1",,"01,9",,"120,M,+0299,1","240,N,+0139,1","99999,9,10197,1","0,1,010,1,+006,1",,,"SYN094AAXX  18181 76458 32970 01301 10285 20119 30197 40202 50010 91748 333 10299 20139 30/// 58006;","Q01  00002PRCP06"
"76458099999","2004-02-19T00:00:00","4","23.2","-106.4166666","4.0","COLONIA JUAN CARRASCO MAZATLAN SIN., MX","FM-12","99999","V020","300,1,N,0020,1","22000,1,9,N","020000,1,N,1","+0268,1","+0126,1","10169,1","06,0000,9,1","24,0000,9,1",,,,,"00,1,+99999,9,99,9",,,"00,99,1,00,1,00,1,99999,9,00,1,00,1",,"01,9",,"120,M,+9999,9","180,N,+0139,1","99999,9,10164,1","7,1,017,1,+002,1",,,"SYN106AAXX  19001 76458 32970 03002 10268 20126 30164 40169 57017 92345 333 10223 20139 30/// 50431 58002 70000;","Q01  00002PRCP06Q02  00002PRCP24Q03 +02232ATMX  "
"76458099999","2004-02-19T03:00:00","4","23.2","-106.4166666","4.0","COLONIA JUAN CARRASCO MAZATLAN SIN., MX","FM-12","99999","V020","290,1,N,0020,1","22000,1,9,N","008000,1,N,1","+0216,1","+0140,1","10168,1","06,0000,9,1",,,,,,"00,1,+99999,9,99,9",,,"00,99,1,00,1,00,1,99999,9,00,1,00,1",,"01,9",,,,"99999,9,10163,1","4,1,000,1,-003,1",,,"SYN082AAXX  19031 76458 32958 02902 10216 20140 30163 40168 54001 90245 333 30/// 59003;","Q01  00002PRCP06"
"76458099999","2004-02-19T12:00:00","4","23.2","-106.4166666","4.0","COLONIA JUAN CARRASCO MAZATLAN SIN., MX","FM-12","99999","V020","999,9,C,0000,1","22000,1,9,N","008000,1,N,1","+0156,1","+0130,1","10161,1","06,0000,9,1","24,0000,9,1",,,,,"00,1,+99999,9,99,9",,,"00,99,1,00,1,00,1,99999,9,00,1,00,1",,"01,9","999,+0120,9","999,M,+0323,1","120,N,+0150,1","99999,9,10156,1","3,1,003,1,-018,1",,,"SYN100AAXX  19121 76458 32958 00000 10156 20130 30156 40161 53003 91135 333 10323 20150 30012 59018 70000;","Q01  00002PRCP06Q02  00002PRCP24"
"76458099999","2004-02-19T15:00:00","4","23.2","-106.4166666","4.0","COLONIA JUAN CARRASCO MAZATLAN SIN., MX","FM-12","99999","V020","340,1,N,0010,1","22000,1,9,N","020000,1,N,1","+0182,1","+0092,1","10171,1","06,0000,9,1",,,,,,"04,1,+08700,9,00,9",,,"04,99,1,00,1,00,1,99999,9,00,1,04,1",,"01,9",,,,"99999,9,10167,1","2,1,010,1,-021,1",,,"SYN100AAXX  19151 76458 32970 43401 10182 20092 30167 40171 52010 80004 91453 333 30/// 56009 59021 84079;","Q01  00002PRCP06"
"76458099999","2004-02-19T21:00:00","4","23.2","-106.4166666","4.0","COLONIA JUAN CARRASCO MAZATLAN SIN., MX","FM-12","99999","V020","240,1,N,0030,1","22000,1,9,N","020000,1,N,1","+0244,1","+0150,1","10146,1","06,0000,9,1",,,,,,"00,1,+99999,9,99,9",,,"00,99,1,00,1,00,1,99999,9,00,1,00,1",,"01,9",,,,"99999,9,10141,1","7,1,024,1,-020,1",,,"SYN082AAXX  19211 76458 32970 02403 10244 20150 30141 40146 57024 92045 333 30/// 59020;","Q01  00002PRCP06"
"76458099999","2004-02-20T00:00:00","4","23.2","-106.4166666","4.0","COLONIA JUAN CARRASCO MAZATLAN SIN., MX","FM-12","99999","V020","290,1,N,0030,1","22000,1,9,N","020000,1,N,1","+0240,1","+0175,1","10129,1","06,0000,9,1","24,0000,9,1",,,,,"00,1,+99999,9,99,9",,,"00,99,1,00,1,00,1,99999,9,00,1,00,1",,"01,9",,"120,M,+0285,1","180,N,+0139,1","99999,9,10125,1","7,1,016,1,-039,1",,,"SYN106AAXX  20001 76458 32970 02903 10240 20175 30125 40129 57016 92345 333 10285 20139 30/// 50321 59039 70000;","Q01  00002PRCP06Q02  00002PRCP24"
"76458099999","2004-02-20T03:00:00","4","23.2","-106.4166666","4.0","COLONIA JUAN CARRASCO MAZATLAN SIN., MX","FM-12","99999","V020","290,1,N,0010,1","22000,1,9,N","008000,1,N,1","+0208,1","+0159,1","10131,1","06,0000,9,1",,,,,,"00,1,+99999,9,99,9",,,"00,99,1,00,1,00,1,99999,9,00,1,00,1",,"01,9",,,,"99999,9,10127,1","4,1,000,1,-036,1",,,"SYN082AAXX  20031 76458 32958 02901 10208 20159 30127 40131 54002 90258 333 30/// 59036;","Q01  00002PRCP06"
"76458099999","2004-02-20T09:00:00","4","23.2","-106.4166666","4.0","COLONIA JUAN CARRASCO MAZATLAN SIN., MX","FM-12","99999","V020","150,1,N,0010,1","22000,1,9,N","008000,1,N,1","+0166,1","+0137,1","10140,1","06,0000,9,1",,,,,,"00,1,+99999,9,99,9",,,"00,99,1,00,1,00,1,99999,9,00,1,00,1",,"01,9",,,,"99999,9,10136,1","4,1,000,1,-017,1",,,"SYN082AAXX  20091 76458 32958 01501 10166 20137 30136 40140 54000 90835 333 30/// 59017;","Q01  00002PRCP06"
"76458099999","2004-02-20T12:00:00","4","23.2","-106.4166666","4.0","COLONIA JUAN CARRASCO MAZATLAN SIN., MX","FM-12","99999","V020","999,9,C,0000,1","22000,1,9,N","008000,1,N,1","+0140,1","+0116,1","10133,1","06,0000,9,1","24,0000,9,1",,,,,"00,1,+99999,9,99,9",,,"00,99,1,00,1,00,1,99999,9,00,1,00,1",,"01,9","999,+0100,9","999,M,+0285,1","120,N,+0132,1","99999,9,10129,1","7,1,007,1,-027,1",,,"SYN100AAXX  20121 76458 32958 00000 10140 20116 30129 40133 57007 91135 333 10285 20132 30010 59027 70000;","Q01  00002PRCP06Q02  00002PRCP24"
"76458099999","2004-02-20T15:00:00","4","23.2","-106.4166666","4.0","COLONIA JUAN CARRASCO MAZATLAN SIN., MX","FM-12","99999","V020","999,9,C,0000,1","22000,1,9,N","015000,1,N,1","+0170,1","+0128,1","10147,1","06,0000,9,1",,,,,,"00,1,+99999,9,99,9",,,"00,99,1,00,1,00,1,99999,9,00,1,00,1",,"01,9",,,,"99999,9,10142,1","2,1,014,1,-025,1",,,"SYN082AAXX  20151 76458 32965 00000 10170 20128 30142 40147 52014 91450 333 30/// 59025;","Q01  00002PRCP06"
"76458099999","2004-02-20T21:00:00","4","23.2","-106.4166666","4.0","COLONIA JUAN CARRASCO MAZATLAN SIN., MX","FM-12","99999","V020","210,1,N,0020,1","22000,1,9,N","020000,1,N,1","+0232,1","+0152,1","10145,1","06,0000,9,1",,,,,,"00,1,+99999,9,99,9",,,"00,99,1,00,1,00,1,99999,9,00,1,00,1",,"01,9",,,,"99999,9,10141,1","7,1,015,1,+000,1",,,"SYN082AAXX  20211 76458 32970 02102 10232 20152 30141 40145 57015 92045 333 30/// 58000;","Q01  00002PRCP06"
"76458099999","2004-02-21T00:00:00","4","23.2","-106.4166666","4.0","COLONIA JUAN CARRASCO MAZATLAN SIN., MX","FM-12","99999","V020","290,1,N,0020,1","22000,1,9,N","020000,1,N,1","+0222,1","+0182,1","10138,1","06,0000,9,1","24,0000,9,1",,,,,,,,"01,99,1,00,1,00,1,99999,9,00,1,01,1",,"01,9",,"120,M,+0260,1","180,N,+0122,1","99999,9,10133,1","5,1,008,1,+008,1",,,"SYN124AAXX  21001 76458 32970 12902 10222 20182 30133 40138 55008 80001 92345 333 10260 20122 30/// 50441 56//9 58008 70000 81070;","Q01  00002PRCP06"
"76458099999","2004-02-21T03:00:00","4","23.2","-106.4166666","4.0","COLONIA JUAN CARRASCO MAZATLAN SIN., MX","FM-12","99999","V020","360,1,N,0020,1","22000,1,9,N","008000,1,N,1","+0194,1","+0176,1","10139,1","06,0000,9,1",,,,,,"00,1,+99999,9,99,9",,,"00,99,1,00,1,00,1,99999,9,00,1,00,1",,"01,9",,,,"99999,9,10134,1","4,1,000,1,+008,1",,,"SYN082AAXX  21031 76458 32958 03602 10194 20176 30134 40139 54001 90240 333 30/// 58008;","Q01  00002PRCP06"
"76458099999","2004-02-21T15:00:00","4","23.2","-106.4166666","4.0","COLONIA JUAN CARRASCO MAZATLAN SIN., MX","FM-12","99999","V020","130,1,N,0020,1","22000,1,9,N","020000,1,N,1","+0154,1","+0141,1","10143,1","06,0000,9,1",,,,,,"01,1,+06000,9,00,9",,,"01,99,1,00,1,99,9,99999,9,99,9,04,1",,"01,9",,,,"99999,9,10138,1","2,1,999,9,-004,1",,,"SYN094AAXX  21151 76458 32970 11302 10154 20141 30138 40143 52/// 80//4 91440 333 30/// 59004 81070;","Q01  00002PRCP06"
"76458099999","2004-02-21T18:00:00","4","23.2","-106.4166666","4.0","COLONIA JUAN CARRASCO MAZATLAN SIN., MX","FM-12","99999","V020","180,1,N,0020,1","06000,1,9,N","020000,1,N,1","+0206,1","+0156,1","10156,1","06,0000,9,1",,,,,,"05,1,+06000,9,00,9",,,"05,99,1,99,9,01,1,99999,9,01,1,04,1",,"01,9",,"120,M,+0223,1","240,N,+0130,1","99999,9,10151,1","1,1,013,1,-005,1",,,"SYN106AAXX  21181 76458 32970 51802 10206 20156 30151 40156 51013 80114 91750 333 10223 20130 30/// 59005 85070;","Q01+000002SCOTLCQ02  00002PRCP06"
"76458099999","2004-02-21T21:00:00","4","23.2","-106.4166666","4.0","COLONIA JUAN CARRASCO MAZATLAN SIN., MX","FM-12","99999","V020","240,1,N,0020,1","22000,1,9,N","015000,1,N,1","+0218,1","+0168,1","10127,1","06,0000,9,1",,,,,,"01,1,+05400,9,00,9",,,"01,99,1,00,1,00,1,99999,9,00,1,01,1",,"01,9",,,,"99999,9,10122,1","7,1,029,1,-019,1",,,"SYN100AAXX  21211 76458 32965 12402 10218 20168 30122 40127 57029 80001 92045 333 30/// 56//9 59019 81068;","Q01  00002PRCP06"
"76458099999","2004-02-22T00:00:00","4","23.2","-106.4166666","4.0","COLONIA JUAN CARRASCO MAZATLAN SIN., MX","FM-12","99999","V020","270,1,N,0030,1","22000,1,9,N","018000,1,N,1","+0223,1","+0165,1","10125,1","06,0000,9,1","24,0000,9,1",,,,,,,,"01,99,1,00,1,00,1,99999,9,00,1,01,1",,"01,9",,"120,M,+0264,1","180,N,+0130,1","99999,9,10121,1","7,1,001,1,-012,1",,,"SYN124AAXX  22001 76458 32968 12703 10223 20165 30121 40125 57001 80001 92345 333 10264 20130 30/// 50331 56//9 59012 70000 81070;","Q01  00002PRCP06"
"76458099999","2004-02-22T03:00:00","4","23.2","-106.4166666","4.0","COLONIA JUAN CARRASCO MAZATLAN SIN., MX","FM-12","99999","V020","330,1,N,0010,1","22000,1,9,N","016000,1,N,1","+0196,1","+0165,1","10136,1","06,0000,9,1",,,,,,"00,1,+99999,9,99,9",,,"00,99,1,00,1,00,1,99999,9,00,1,00,1",,"01,9",,,,"99999,9,10132,1","2,1,011,1,-002,1",,,"SYN082AAXX  22031 76458 32966 03301 10196 20165 30132 40136 52011 90250 333 30/// 59002;","Q01  00002PRCP06"
"76458099999","2004-02-22T15:00:00","4","23.2","-106.4166666","4.0","COLONIA JUAN CARRASCO MAZATLAN SIN., MX","FM-12","99999","V020","330,1,N,0020,1","03300,1,9,N","018000,1,N,1","+0185,1","+0154,1","10171,1","06,0000,9,1",,,,,,"02,1,+02400,9,03,9","04,1,+03300,9,04,9",,"07,99,1,06,1,00,1,99999,9,03,1,01,1",,"01,9",,,,"99999,9,10166,1","9,9,999,9,+028,1",,,"SYN112AAXX  22151 76458 32968 73302 10185 20154 30166 40171 5//// 86031 91452 333 30/// 56059 58028 82358 84461 82079;","Q01  00002PRCP06"
"76458099999","2004-02-22T21:00:00","4","23.2","-106.4166666","4.0","COLONIA JUAN CARRASCO MAZATLAN SIN., MX","FM-12","99999","V020","270,1,N,0040,1","00510,1,9,N","020000,1,N,1","+0219,1","+0179,1","10164,1","06,0000,9,1",,,,,,"06,1,+00510,9,06,9",,,"07,99,1,06,1,04,1,00450,1,03,1,00,1",,"01,9",,,,"99999,9,10159,1","7,1,015,1,+037,1",,,"SYN106AAXX  22211 76458 32470 72704 10219 20179 30159 40164 57015 86430 92045 333 30/// 5659/ 58037 86617 81364;","Q01  00002PRCP06"
"76458099999","2004-02-23T00:00:00","4","23.2","-106.4166666","4.0","COLONIA JUAN CARRASCO MAZATLAN SIN., MX","FM-12","99999","V020","280,1,N,0040,1","22000,1,9,N","020000,1,N,1","+0220,1","+0175,1","10151,1","06,0000,9,1","24,0000,9,1",,,,,"02,1,+04200,9,03,9",,,"03,99,1,02,1,00,1,02250,1,03,1,09,1",,"01,9",,"120,M,+0261,1","180,N,+0166,1","99999,9,10146,1","7,1,013,1,+025,1",,,"SYN130AAXX  23001 76458 32870 32804 10220 20175 30146 40151 57013 82039 92345 333 10261 20166 30/// 50201 56/99 58025 70000 82364 81968;","Q01  00002PRCP06"
"76458099999","2004-02-23T03:00:00","4","23.2","-106.4166666","4.0","COLONIA JUAN CARRASCO MAZATLAN SIN., MX","FM-12","99999","V020","320,1,N,0030,1","22000,1,9,N","008000,1,N,1","+0208,1","+0162,1","10155,1","06,0000,9,1",,,,,,"03,1,+01800,9,03,9",,,"03,99,1,03,1,99,9,99999,9,03,1,99,9",,"01,9",,,,"99999,9,10151,1","3,1,005,1,+019,1",,,"SYN094AAXX  23031 76458 32958 33203 10208 20162 30151 40155 53005 83/3/ 90240 333 30/// 58019 83356;","Q01  00002PRCP06"
"76458099999","2004-02-23T15:00:00","4","23.2","-106.4166666","4.0","COLONIA JUAN CARRASCO MAZATLAN SIN., MX","FM-12","99999","V020","999,9,C,0000,1","22000,1,9,N","016000,1,N,1","+0190,1","+0159,1","10158,1","06,0000,9,1",,,,,,"04,1,+03300,9,03,9",,,"04,99,1,04,1,00,1,99999,9,03,1,00,1",,"01,9",,,,"99999,9,10153,1","2,1,007,1,-013,1",,,"SYN100AAXX  23151 76458 32966 40000 10190 20159 30153 40158 52007 84030 91455 333 30/// 56060 59013 84361;","Q01  00002PRCP06"
"76458099999","2004-02-23T21:00:00","4","23.2","-106.4166666","4.0","COLONIA JUAN CARRASCO MAZATLAN SIN., MX","FM-12","99999","V020","210,1,N,0030,1","22000,1,9,N","020000,1,N,1","+0238,1","+0142,1","10156,1","06,0000,9,1",,,,,,,,,"03,99,1,03,1,99,9,02250,1,03,1,99,9",,"01,9",,,,"99999,9,10151,1","7,1,011,1,-008,1",,,"SYN100AAXX  23211 76458 32870 32103 10238 20142 30151 40156 57011 83/3/ 92040 333 30/// 59008 59008 83356;","Q01  00002PRCP06"
"76458099999","2004-02-24T00:00:00","4","23.2","-106.4166666","4.0","COLONIA JUAN CARRASCO MAZATLAN SIN., MX","FM-12","99999","V020","210,1,N,0030,1","22000,1,9,N","020000,1,N,1","+0234,1","+0178,1","10145,1","06,0000,9,1","24,0000,9,1",,,,,"02,1,+01800,9,03,9",,,"02,99,1,02,1,99,9,02250,1,03,1,99,9",,"01,9",,"120,M,+0260,1","180,N,+0147,1","99999,9,10141,1","6,1,010,1,-005,1",,,"SYN118AAXX  24001 76458 32870 22103 10234 20178 30141 40145 56010 82/3/ 92340 333 10260 20147 30/// 50201 59005 70000 82356;","Q01  00002PRCP06"
"76458099999","2004-02-24T15:00:00","4","23.2","-106.4166666","4.0","COLONIA JUAN CARRASCO MAZATLAN SIN., MX","FM-12","99999","V020","320,1,N,0020,1","22000,1,9,N","020000,1,N,1","+0188,1","+0129,1","10171,1","06,0000,9,1",,,,,,"01,1,+00750,9,08,9",,,"02,99,1,01,1,02,1,00800,1,03,1,00,1",,"01,9",,,,"99999,9,10166,1","2,1,019,1,+013,1",,,"SYN106AAXX  24151 76458 32570 23202 10188 20129 30166 40171 52019 81230 91455 333 30/// 56620 58013 81825 81361;","Q01  00002PRCP06"
"76458099999","2004-02-24T18:00:00","4","23.2","-106.4166666","4.0","COLONIA JUAN CARRASCO MAZATLAN SIN., MX","FM-12","99999","V020","270,1,N,0040,1","22000,1,9,N","020000,1,N,1","+0230,1","+0142,1","10177,1","06,0000,9,1",,,,,,"01,1,+01110,9,08,9",,,"01,99,1,01,1,01,1,01250,1,00,1,00,1",,"01,9",,"120,M,+0242,1","240,N,+0170,1","99999,9,10174,1","2,1,006,1,+010,1",,,"SYN112AAXX  24181 76458 32670 12704 10230 20142 30174 40177 52006 81100 91750 333 10242 20170 30/// 56700 58010 81837;","Q01  00002PRCP06"
"76458099999","2004-02-25T00:00:00","4","23.2","-106.4166666","4.0","COLONIA JUAN CARRASCO MAZATLAN SIN., MX","FM-12","99999","V020","300,1,N,0040,1","22000,1,9,N","020000,1,N,1","+0213,1","+0117,1","10153,1","06,0000,9,1","24,0000,9,1",,,,,"00,1,+99999,9,99,9",,,"00,99,1,00,1,00,1,99999,9,00,1,00,1",,"01,9",,"120,M,+0246,1","180,N,+0170,1","99999,9,10148,1","5,1,009,1,+007,1",,,"SYN106AAXX  25001 76458 32970 03004 10213 20117 30148 40153 55009 92345 333 10246 20170 30/// 50541 58007 70000;","Q01  00002PRCP06Q02  00002PRCP24"
"76458099999","2004-02-25T03:00:00","4","23.2","-106.4166666","4.0","COLONIA JUAN CARRASCO MAZATLAN SIN., MX","FM-12","99999","V020","290,1,N,0030,1","22000,1,9,N","008000,1,N,1","+0188,1","+0122,1","10154,1","06,0000,9,1",,,,,,"00,1,+99999,9,99,9",,,"00,99,1,00,1,00,1,99999,9,00,1,00,1",,"01,9",,,,"99999,9,10149,1","4,1,000,1,+001,1",,,"SYN082AAXX  25031 76458 32958 02903 10188 20122 30149 40154 54001 90240 333 30/// 58001;","Q01  00002PRCP06"
"76458099999","2004-02-25T15:00:00","4","23.2","-106.4166666","4.0","COLONIA JUAN CARRASCO MAZATLAN SIN., MX","FM-12","99999","V020","350,1,N,0020,1","22000,1,9,N","020000,1,N,1","+0151,1","+0108,1","10155,1","06,0000,9,1",,,,,,"00,1,+99999,9,99,9",,,"00,99,1,00,1,00,1,99999,9,00,1,00,1",,"01,9",,,,"99999,9,10150,1","2,1,012,1,-016,1",,,"SYN082AAXX  25151 76458 32970 03502 10151 20108 30150 40155 52012 91450 333 30/// 59016;","Q01  00002PRCP06"
"76458099999","2004-02-25T18:00:00","4","23.2","-106.4166666","4.0","COLONIA JUAN CARRASCO MAZATLAN SIN., MX","FM-12","99999","V020","240,1,N,0030,1","22000,1,9,N","020000,1,N,1","+0203,1","+0130,1","10157,1","06,0000,9,1",,,,,,"00,1,+99999,9,99,9",,,"00,99,1,00,1,00,1,99999,9,00,1,00,1",,"01,9",,"120,M,+0222,1","240,N,+0122,1","99999,9,10152,1","1,1,002,1,-020,1",,,"SYN094AAXX  25181 76458 32970 02403 10203 20130 30152 40157 51002 91750 333 10222 20122 30/// 59020;","Q01  00002PRCP06"
"76458099999","2004-02-25T21:00:00","4","23.2","-106.4166666","4.0","COLONIA JUAN CARRASCO MAZATLAN SIN., MX","FM-12","99999","V020","280,1,N,0060,1","22000,1,9,N","020000,1,N,1","+0222,1","+0151,1","10135,1","06,0000,9,1",,,,,,"00,1,+99999,9,99,9",,,"00,99,1,00,1,00,1,99999,9,00,1,00,1",,"01,9",,,,"99999,9,10130,1","7,1,022,1,-030,1",,,"SYN082AAXX  25211 76458 32970 02806 10222 20151 30130 40135 57022 92047 333 30/// 59030;","Q01  00002PRCP06"
"76458099999","2004-02-26T00:00:00","4","23.2","-106.4166666","4.0","COLONIA JUAN CARRASCO MAZATLAN SIN., MX","FM-12","99999","V020","280,1,N,0040,1","22000,1,9,N","020000,1,N,1","+0223,1","+0139,1","10116,1","06,0000,9,1","24,0000,9,1",,,,,"00,1,+99999,9,99,9",,,"00,99,1,00,1,00,1,99999,9,00,1,00,1",,"01,9",,"120,M,+0233,1","180,N,+0122,1","99999,9,10112,1","7,1,018,1,-036,1",,,"SYN106AAXX  26001 76458 32970 02804 10223 20139 30112 40116 57018 92345 333 10233 20122 30/// 50441 59036 70000;","Q01  00002PRCP06Q02  00002PRCP24"
"76458099999","2004-02-26T03:00:00","4","23.2","-106.4166666","4.0","COLONIA JUAN CARRASCO MAZATLAN SIN., MX","FM-12","99999","V020","290,1,N,0030,1","22000,1,9,N","008000,1,N,1","+0194,1","+0129,1","10121,1","06,0000,9,1",,,,,,"00,1,+99999,9,99,9",,,"00,99,1,00,1,00,1,99999,9,00,1,00,1",,"01,9",,,,"99999,9,10116,1","2,1,004,1,-033,1",,,"SYN082AAXX  26031 76458 32958 02903 10194 20129 30116 40121 52004 90248 333 30/// 59033;","Q01  00002PRCP06"
"76458099999","2004-02-26T06:00:00","4","23.2","-106.4166666","4.0","COLONIA JUAN CARRASCO MAZATLAN SIN., MX","FM-12","99999","V020","300,1,N,0020,1","22000,1,9,N","008000,1,N,1","+0182,1","+0144,1","10128,1","06,0000,9,1",,,,,,"00,1,+99999,9,99,9",,,"00,99,1,00,1,00,1,99999,9,00,1,00,1","0600,9","01,9",,"240,M,+0233,1","240,N,+0122,1","99999,9,10123,1","2,1,007,1,+999,9",,,"SYN106AAXX  26061 76458 32958 03002 10182 20144 30123 40128 52007 90532 333 10233 20122 30/// 55100 21099 59036;","Q01  00002PRCP06"
"76458099999","2004-02-26T12:00:00","4","23.2","-106.4166666","4.0","COLONIA JUAN CARRASCO MAZATLAN SIN., MX","FM-12","99999","V020","999,9,C,0000,1","22000,1,9,N","008000,1,N,1","+0140,1","+0113,1","10105,1","06,0000,9,1","24,0000,9,1",,,,,"00,1,+99999,9,99,9",,,"00,99,1,00,1,00,1,99999,9,00,1,00,1",,"01,9","999,+0100,9","999,M,+0233,1","120,N,+0130,1","99999,9,10101,1","5,1,009,1,-037,1",,,"SYN100AAXX  26121 76458 32958 00000 10140 20113 30101 40105 55009 91135 333 10233 20130 30010 59037 70000;","Q01  00002PRCP06Q02  00002PRCP24"
"76458099999","2004-02-26T15:00:00","4","23.2","-106.4166666","4.0","COLONIA JUAN CARRASCO MAZATLAN SIN., MX","FM-12","99999","V020","999,9,C,0000,1","22000,1,9,N","001800,1,N,1","+0163,1","+0133,1","10121,1","06,0000,9,1",,,,,,"00,1,+99999,9,99,9",,,"00,99,1,00,1,00,1,99999,9,00,1,00,1",,"01,9",,,,"99999,9,10116,1","2,1,015,1,-034,1",,,"SYN082AAXX  26151 76458 32918 00000 10163 20133 30116 40121 52015 91450 333 30/// 59034;","Q01  00002PRCP06"
"76458099999","2004-02-26T21:00:00","4","23.2","-106.4166666","4.0","COLONIA JUAN CARRASCO MAZATLAN SIN., MX","FM-12","99999","V020","250,1,N,0040,1","22000,1,9,N","020000,1,N,1","+0220,1","+0153,1","99999,9","06,0000,9,1",,,,,,"00,1,+99999,9,99,9",,,"00,99,1,00,1,00,1,99999,9,00,1,00,1",,"01,9",,,,"99999,9,10129,1","7,1,009,1,-006,1",,,"SYN082AAXX  26211 76458 32970 02504 10220 20153 30129 4//// 57009 92045 333 30/// 59006;","Q01  00002PRCP06"
"76458099999","2004-02-27T00:00:00","4","23.2","-106.4166666","4.0","COLONIA JUAN CARRASCO MAZATLAN SIN., MX","FM-12","99999","V020","260,1,N,0020,1","22000,1,9,N","020000,1,N,1","+0215,1","+0161,1","10126,1","06,0000,9,1","24,0000,9,1",,,,,,,,"01,99,1,00,1,00,1,99999,9,00,1,06,1",,"01,9",,"120,M,+0245,1","180,N,+0122,1","99999,9,10121,1","7,1,003,1,+009,1",,,"SYN124AAXX  27001 76458 32970 12602 10215 20161 30121 40126 57003 80006 92345 333 10245 20122 30/// 50381 56//9 58009 70000 81070;","Q01  00002PRCP06"
"76458099999","2004-02-27T03:00:00","4","23.2","-106.4166666","4.0","COLONIA JUAN CARRASCO MAZATLAN SIN., MX","FM-12","99999","V020","260,1,N,0020,1","22000,1,9,N","008000,1,N,1","+0192,1","+0160,1","10139,1","06,0000,9,1",,,,,,"00,1,+99999,9,99,9",,,"00,99,1,00,1,00,1,99999,9,00,1,00,1",,"01,9",,,,"99999,9,10134,1","2,1,013,1,+018,1",,,"SYN082AAXX  27031 76458 32958 02602 10192 20160 30134 40139 52013 90258 333 30/// 58018;","Q01  00002PRCP06"
"76458099999","2004-02-27T06:00:00","4","23.2","-106.4166666","4.0","COLONIA JUAN CARRASCO MAZATLAN SIN., MX","FM-12","99999","V020","030,1,N,0010,1","22000,1,9,N","008000,1,N,1","+0185,1","+0152,1","10139,1","06,0000,9,1",,,,,,,,,"01,99,1,99,9,00,1,99999,9,03,1,00,1","0720,9","01,9",,"240,M,+0245,1","240,N,+0122,1","99999,9,10135,1","2,1,002,1,+012,1",,,"SYN124AAXX  27061 76458 32958 10301 10185 20152 30135 40139 52002 80030 90532 333 10245 20122 30/// 55120 21122 56090 58012 81358;","Q01+000002SCOTLCQ02  00002PRCP06"
"76458099999","2004-02-27T12:00:00","4","23.2","-106.4166666","4.0","COLONIA JUAN CARRASCO MAZATLAN SIN., MX","FM-12","99999","V020","340,1,N,0010,1","22000,1,9,N","008000,1,N,1","+0166,1","+0150,1","10144,1","06,0000,9,1","24,0000,9,1",,,,,"00,1,+99999,9,99,9",,,"00,99,1,00,1,00,1,99999,9,00,1,00,1",,"01,9","999,+0140,9","999,M,+0245,1","120,N,+0156,1","99999,9,10139,1","4,1,000,1,+038,1",,,"SYN100AAXX  27121 76458 32958 03401 10166 20150 30139 40144 54000 91135 333 10245 20156 30014 58038 70000;","Q01  00002PRCP06Q02  00002PRCP24"
"76458099999","2004-02-27T15:00:00","4","23.2","-106.4166666","4.0","COLONIA JUAN CARRASCO MAZATLAN SIN., MX","FM-12","99999","V020","330,1,N,0010,1","22000,1,9,N","020000,1,N,1","+0182,1","+0144,1","10163,1","06,0000,9,1",,,,,,"00,1,+99999,9,99,9",,,"00,99,1,00,1,00,1,99999,9,00,1,00,1",,"01,9",,,,"99999,9,10158,1","2,1,019,1,+042,1",,,"SYN082AAXX  27151 76458 32970 03301 10182 20144 30158 40163 52019 91450 333 30/// 58042;","Q01  00002PRCP06"
"76458099999","2004-02-27T18:00:00","4","23.2","-106.4166666","4.0","COLONIA JUAN CARRASCO MAZATLAN SIN., MX","FM-12","99999","V020","280,1,N,0020,1","22000,1,9,N","020000,1,N,1","+0232,1","+0158,1","10171,1","06,0000,9,1",,,,,,"00,1,+99999,9,99,9",,,"00,99,1,00,1,00,1,99999,9,00,1,00,1",,"01,9",,"120,M,+0254,1","240,N,+0150,1","99999,9,10166,1","2,1,008,1,+033,1",,,"SYN094AAXX  27181 76458 32970 02802 10232 20158 30166 40171 52008 91748 333 10254 20150 30/// 58033;","Q01  00002PRCP06"
"76458099999","2004-02-27T21:00:00","4","23.2","-106.4166666","4.0","COLONIA JUAN CARRASCO MAZATLAN SIN., MX","FM-12","99999","V020","240,1,N,0030,1","22000,1,9,N","020000,1,N,1","+0236,1","+0159,1","10157,1","06,0000,9,1",,,,,,"02,1,+06000,9,00,9",,,"02,99,1,00,1,00,1,99999,9,00,1,01,1",,"01,9",,,,"99999,9,10152,1","7,1,014,1,+028,1",,,"SYN100AAXX  27211 76458 32970 22403 10236 20159 30152 40157 57014 80001 92045 333 30/// 56//9 58028 82070;","Q01  00002PRCP06"
"76458099999","2004-02-28T00:00:00","4","23.2","-106.4166666","4.0","COLONIA JUAN CARRASCO MAZATLAN SIN., MX","FM-12","99999","V020","270,1,N,0030,1","22000,1,9,N","020000,1,N,1","+0228,1","+0160,1","10146,1","06,0000,9,1","24,0000,9,1",,,,,,,,"04,99,1,00,1,00,1,99999,9,00,1,06,1",,"01,9",,"120,M,+0256,1","180,N,+0150,1","99999,9,10141,1","7,1,011,1,+020,1",,,"SYN124AAXX  28001 76458 32970 42703 10228 20160 30141 40146 57011 80006 92350 333 10256 20150 30/// 50351 56//9 58020 70000 84070;","Q01  00002PRCP06"
"76458099999","2004-02-28T03:00:00","4","23.2","-106.4166666","4.0","COLONIA JUAN CARRASCO MAZATLAN SIN., MX","FM-12","99999","V020","360,1,N,0020,1","22000,1,9,N","008000,1,N,1","+0204,1","+0171,1","10151,1","06,0000,9,1",,,,,,"00,1,+99999,9,99,9",,,"00,99,1,00,1,00,1,99999,9,00,1,00,1",,"01,9",,,,"99999,9,10147,1","2,1,006,1,+013,1",,,"SYN082AAXX  28031 76458 32958 03602 10204 20171 30147 40151 52006 90240 333 30/// 58013;","Q01  00002PRCP06"
"76458099999","2004-02-28T06:00:00","4","23.2","-106.4166666","4.0","COLONIA JUAN CARRASCO MAZATLAN SIN., MX","FM-12","99999","V020","999,9,C,0000,1","22000,1,9,N","008000,1,N,1","+0198,1","+0170,1","10163,1","06,0000,9,1",,,,,,"00,1,+99999,9,99,9",,,"00,99,1,00,1,00,1,99999,9,00,1,00,1","0540,9","01,9",,"240,M,+0256,1","240,N,+0150,1","99999,9,10159,1","2,1,012,1,+024,1",,,"SYN100AAXX  28061 76458 32958 00000 10198 20170 30159 40163 52012 90530 333 10256 20150 30/// 55090 58024;","Q01  00002PRCP06"
"76458099999","2004-02-28T15:00:00","4","23.2","-106.4166666","4.0","COLONIA JUAN CARRASCO MAZATLAN SIN., MX","FM-12","99999","V020","360,1,N,0010,1","03600,1,C,N","016000,1,N,1","+0198,1","+0161,1","10166,1","06,0000,9,1",,,,,,"03,1,+00420,9,06,9",,,"08,99,1,03,1,05,1,00450,1,02,1,99,9",,"01,9",,,,"99999,9,10161,1","2,1,999,9,+003,1",,,"SYN106AAXX  28151 76458 32466 83601 10198 20161 30161 40166 52/// 8352/ 91440 333 30/// 5659/ 58003 83614 85458;","Q01  00002PRCP06"
"76458099999","2004-02-28T18:00:00","4","23.2","-106.4166666","4.0","COLONIA JUAN CARRASCO MAZATLAN SIN., MX","FM-12","99999","V020","170,1,N,0020,1","02400,1,9,N","008000,1,N,1","+0240,1","+0167,1","10179,1","06,0000,9,1",,,,"4,1,06,1","4,1,06,1","08,1,+02400,9,04,9",,,"08,99,1,08,1,99,9,02250,1,02,1,99,9",,"01,9",,"120,M,+0250,1","240,N,+0180,1","99999,9,10174,1","1,1,013,1,+008,1","05,1",,"SYN112AAXX  28181 76458 31858 81702 10240 20167 30174 40179 51013 70544 88/2/ 91740 333 10250 20180 30/// 58008 88458;","Q01  00002PRCP06"
"76458099999","2004-02-28T21:00:00","4","23.2","-106.4166666","4.0","COLONIA JUAN CARRASCO MAZATLAN SIN., MX","FM-12","99999","V020","190,1,N,0030,1","05400,1,9,N","018000,1,N,1","+0241,1","+0182,1","10155,1","06,0000,9,1",,,,,,"07,1,+05400,9,02,9",,,"07,99,1,00,1,00,1,99999,9,00,1,07,1",,"01,9",,,,"99999,9,10150,1","7,1,024,1,-002,1",,,"SYN100AAXX  28211 76458 32968 71903 10241 20182 30150 40155 57024 80007 92050 333 30/// 56//9 59002 87268;","Q01  00002PRCP06"
"76458099999","2004-02-29T00:00:00","4","23.2","-106.4166666","4.0","COLONIA JUAN CARRASCO MAZATLAN SIN., MX","FM-12","99999","V020","240,1,N,0020,1","99999,9,9,N","018000,1,N,1","+0234,1","+0171,1","10150,1","06,0000,9,1","24,0000,9,1",,,,,,,,"05,99,1,00,1,00,1,99999,9,00,1,01,1",,"01,9",,"120,M,+0260,1","180,N,+0180,1","99999,9,10145,1","5,1,005,1,+004,1",,,"SYN124AAXX  29001 76458 32968 52402 10234 20171 30145 40150 55005 80001 92345 333 10260 20180 30/// 50271 56//9 58004 70000 85070;","Q01  00002PRCP06"
"76458099999","2004-02-29T06:00:00","4","23.2","-106.4166666","4.0","COLONIA JUAN CARRASCO MAZATLAN SIN., MX","FM-12","99999","V020","999,9,C,0000,1","22000,1,9,N","016000,1,N,1","+0192,1","+0164,1","10165,1","06,0000,9,1",,,,,,"00,1,+99999,9,99,9",,,"00,99,1,00,1,00,1,99999,9,00,1,00,1","0222,9","01,9",,"240,M,+0260,1","240,N,+0180,1","99999,9,10160,1","2,1,007,1,+999,9",,,"SYN106AAXX  29061 76458 32966 00000 10192 20164 30160 40165 52007 90550 333 10260 20180 30/// 55037 20627 58001;","Q01  00002PRCP06"
"76458099999","2004-02-29T09:00:00","4","23.2","-106.4166666","4.0","COLONIA JUAN CARRASCO MAZATLAN SIN., MX","FM-12","99999","V020","999,9,C,0000,1","00300,1,9,N","016000,1,N,1","+0192,1","+0168,1","10157,1","06,0000,9,1",,,,,,"07,1,+00300,9,06,9",,,"07,99,1,07,1,04,1,00450,1,00,1,00,1",,"01,9",,,,"99999,9,10152,1","7,1,008,1,+999,9",,,"SYN100AAXX  29091 76458 32466 70000 10192 20168 30152 40157 57098 87400 90850 333 30/// 56200 58/// 87610;","Q01+000982APC3  Q02  00002PRCP06"
"76458099999","2004-02-29T12:00:00","4","23.2","-106.4166666","4.0","COLONIA JUAN CARRASCO MAZATLAN SIN., MX","FM-12","99999","V020","330,1,N,0010,1","00210,1,9,N","016000,1,N,1","+0184,1","+0161,1","10146,1","06,0000,9,1","24,0000,9,1",,,,,,,,"07,99,1,07,1,04,1,00250,1,00,1,00,1",,"01,9",,"999,M,+0260,1","120,N,+0175,1","99999,9,10141,1","7,1,011,1,+999,9",,,"SYN124AAXX  29121 76458 32366 73301 10184 20161 30141 40146 57011 87400 91140 333 10260 20175 30/// 30016 56300 58/// 70000 87609;","Q01  00002PRCP06"
"76458099999","2004-02-29T15:00:00","4","23.2","-106.4166666","4.0","COLONIA JUAN CARRASCO MAZATLAN SIN., MX","FM-12","99999","V020","340,1,N,0010,1","22000,1,9,N","018000,1,N,1","+0190,1","+0154,1","10153,1","06,0000,9,1",,,,,,"03,1,+00450,9,06,9",,,"03,99,1,03,1,04,1,00450,1,00,1,00,1",,"01,9",,,,"99999,9,10148,1","3,1,007,1,-013,1",,,"SYN100AAXX  29151 76458 32468 33401 10190 20154 30148 40153 53007 83400 91444 333 30/// 56300 59013 83615;","Q01  00002PRCP06"
"76458099999","2004-02-29T18:00:00","4","23.2","-106.4166666","4.0","COLONIA JUAN CARRASCO MAZATLAN SIN., MX","FM-12","99999","V020","280,1,N,0030,1","22000,1,9,N","018000,1,N,1","+0238,1","+0155,1","10164,1","06,0000,9,1",,,,,,"02,1,+01050,9,08,9",,,"02,99,1,02,1,02,1,01250,1,00,1,00,1",,"01,9",,"120,M,+0260,1","240,N,+0175,1","99999,9,10159,1","2,1,011,1,-015,1",,,"SYN106AAXX  29181 76458 32668 22803 10238 20155 30159 40164 52011 82200 91740 333 10260 20175 30/// 59015 82835;","Q01  00002PRCP06"
"76458099999","2004-02-29T21:00:00","4","23.2","-106.4166666","4.0","COLONIA JUAN CARRASCO MAZATLAN SIN., MX","FM-12","99999","V020","260,1,N,0040,1","22000,1,9,N","020000,1,N,1","+0230,1","+0168,1","10153,1","06,0000,9,1",,,,,,"01,1,+00780,9,08,9",,,"01,99,1,01,1,01,1,00800,1,00,1,00,1",,"01,9",,,,"99999,9,10148,1","7,1,011,1,-002,1",,,"SYN100AAXX  29211 76458 32570 12604 10230 20168 30148 40153 57011 81100 92045 333 30/// 561// 59002 81826;","Q01  00002PRCP06"
"76458099999","2004-03-01T00:00:00","4","23.2","-106.4166666","4.0","COLONIA JUAN CARRASCO MAZATLAN SIN., MX","FM-12","99999","V020","280,1,N,0030,1","22000,1,9,N","020000,1,N,1","+0224,1","+0170,1","10144,1","06,0000,9,1","24,0000,9,1",,,,,"00,1,+99999,9,99,9",,,"00,99,1,00,1,00,1,99999,9,00,1,00,1",,"01,9",,"120,M,+0260,1","180,N,+0175,1","99999,9,10139,1","7,1,009,1,-006,1",,,"SYN106AAXX  01001 76458 32970 02803 10224 20170 30139 40144 57009 92345 333 10260 20175 30/// 50391 59006 70000;","Q01  00002PRCP06Q02  00002PRCP24"
"76458099999","2004-03-01T03:00:00","4","23.2","-106.4166666","4.0","COLONIA JUAN CARRASCO MAZATLAN SIN., MX","FM-12","99999","V020","290,1,N,0030,1","22000,1,9,N","008000,1,N,1","+0202,1","+0166,1","10145,1","06,0000,9,1",,,,,,"00,1,+99999,9,99,9",,,"00,99,1,00,1,00,1,99999,9,00,1,00,1",,"01,9",,,,"99999,9,10140,1","4,1,000,1,-013,1",,,"SYN082AAXX  01031 76458 32958 02903 10202 20166 30140 40145 54001 90248 333 30/// 59013;","Q01  00002PRCP06"
"76458099999","2004-03-01T06:00:00","4","23.2","-106.4166666","4.0","COLONIA JUAN CARRASCO MAZATLAN SIN., MX","FM-12","99999","V020","280,1,N,0020,1","22000,1,9,N","008000,1,N,1","+0190,1","+0156,1","10154,1","06,0000,9,1",,,,,,"00,1,+99999,9,99,9",,,"00,99,1,00,1,00,1,99999,9,00,1,00,1","0624,9","01,9",,"240,M,+0260,1","240,N,+0175,1","99999,9,10149,1","2,1,009,1,+999,9",,,"SYN106AAXX  01061 76458 32958 02802 10190 20156 30149 40154 52009 90532 333 10260 20175 30/// 55104 29839 58011;","Q01  00002PRCP06"
"76458099999","2004-03-01T15:00:00","4","23.2","-106.4166666","4.0","COLONIA JUAN CARRASCO MAZATLAN SIN., MX","FM-12","99999","V020","120,1,N,0010,1","22000,1,9,N","015000,1,N,1","+0190,1","+0145,1","10146,1","06,0000,9,1",,,,,,"00,1,+99999,9,99,9",,,"00,99,1,00,1,00,1,99999,9,00,1,00,1",,"01,9",,,,"99999,9,10142,1","2,1,011,1,-006,1",,,"SYN082AAXX  01151 76458 32965 01201 10190 20145 30142 40146 52011 91448 333 30/// 59006;","Q01  00002PRCP06"
"76458099999","2004-03-01T21:00:00","4","23.2","-106.4166666","4.0","COLONIA JUAN CARRASCO MAZATLAN SIN., MX","FM-12","99999","V020","270,1,N,0040,1","22000,1,9,N","020000,1,N,1","+0224,1","+0165,1","10140,1","06,0000,9,1",,,,,,"01,1,+08700,9,00,9",,,"01,99,1,00,1,00,1,99999,9,00,1,01,1",,"01,9",,,,"99999,9,10136,1","7,1,013,1,-012,1",,,"SYN100AAXX  01211 76458 32970 12704 10224 20165 30136 40140 57013 80001 92050 333 30/// 56009 59012 81079;","Q01  00002PRCP06"
"76458099999","2004-03-02T00:00:00","4","23.2","-106.4166666","4.0","COLONIA JUAN CARRASCO MAZATLAN SIN., MX","FM-12","99999","V020","300,1,N,0060,1","22000,1,9,N","020000,1,N,1","+0224,1","+0153,1","10125,1","06,0000,9,1","24,0000,9,1",,,,,,,,"01,99,1,00,1,00,1,99999,9,00,1,01,1",,"01,9",,"120,M,+0251,1","180,N,+0144,1","99999,9,10120,1","7,1,015,1,-019,1",,,"SYN124AAXX  02001 76458 32970 13006 10224 20153 30120 40125 57015 80001 92358 333 10251 20144 30/// 50401 56009 59019 70000 81079;","Q01  00002PRCP06"
"76458099999","2004-03-02T03:00:00","4","23.2","-106.4166666","4.0","COLONIA JUAN CARRASCO MAZATLAN SIN., MX","FM-12","99999","V020","280,1,N,0020,1","22000,1,9,N","008000,1,N,1","+0198,1","+0154,1","10128,1","06,0000,9,1",,,,,,"00,1,+99999,9,99,9",,,"00,99,1,00,1,00,1,99999,9,00,1,00,1",,"01,9",,,,"99999,9,10123,1","2,1,003,1,-017,1",,,"SYN082AAXX  02031 76458 32958 02802 10198 20154 30123 40128 52003 90253 333 30/// 59017;","Q01  00002PRCP06"
"76458099999","2004-03-02T06:00:00","4","23.2","-106.4166666","4.0","COLONIA JUAN CARRASCO MAZATLAN SIN., MX","FM-12","99999","V020","300,1,N,0020,1","22000,1,9,N","008000,1,N,1","+0182,1","+0144,1","10137,1","06,0000,9,1",,,,,,"00,1,+99999,9,99,9",,,"00,99,1,00,1,00,1,99999,9,00,1,00,1","0630,9","01,9",,"240,M,+0251,1","240,N,+0144,1","99999,9,10132,1","2,1,009,1,+999,9",,,"SYN106AAXX  02061 76458 32958 03002 10182 20144 30132 40137 52009 90532 333 10251 20144 30/// 55105 21130 59017;","Q01  00002PRCP06"
"76458099999","2004-03-02T15:00:00","4","23.2","-106.4166666","4.0","COLONIA JUAN CARRASCO MAZATLAN SIN., MX","FM-12","99999","V020","100,1,N,0020,1","07800,1,9,N","014000,1,N,1","+0180,1","+0150,1","10136,1","06,0000,9,1",,,,,,"07,1,+07800,9,02,9",,,"07,99,1,00,1,00,1,99999,9,00,1,07,1",,"01,9",,,,"99999,9,10132,1","2,1,010,1,-010,1",,,"SYN100AAXX  02151 76458 32964 71002 10180 20150 30132 40136 52010 80007 91450 333 30/// 56009 59010 87276;","Q01  00002PRCP06"
"76458099999","2004-03-02T18:00:00","4","23.2","-106.4166666","4.0","COLONIA JUAN CARRASCO MAZATLAN SIN., MX","FM-12","99999","V020","210,1,N,0030,1","09000,1,C,N","016000,1,N,1","+0220,1","+0167,1","10145,1","06,0000,9,1",,,,"4,1,06,1","4,1,06,1","04,1,+00660,9,08,9",,,"07,99,1,04,1,02,1,00800,1,00,1,07,1",,"01,9",,"120,M,+0237,1","240,N,+0150,1","99999,9,10140,1","2,1,009,1,-009,1","05,1",,"SYN118AAXX  02181 76458 31566 72103 10220 20167 30140 40145 52009 70544 84207 91745 333 10237 20150 30/// 59009 84822 83276;","Q01  00002PRCP06"
"76458099999","2004-03-02T21:00:00","4","23.2","-106.4166666","4.0","COLONIA JUAN CARRASCO MAZATLAN SIN., MX","FM-12","99999","V020","170,1,N,0030,1","99999,9,9,N","018000,1,N,1","+0235,1","+0162,1","10130,1","06,0000,9,1",,,,,,"03,1,+03300,9,04,9",,,"06,99,1,03,1,00,1,99999,9,03,1,05,1",,"01,9",,,,"99999,9,10126,1","7,1,014,1,-010,1",,,"SYN106AAXX  02211 76458 32968 61703 10235 20162 30126 40130 57014 83035 92045 333 30/// 56099 59010 83461 83079;","Q01  00002PRCP06"
"76458099999","2004-03-03T00:00:00","4","23.2","-106.4166666","4.0","COLONIA JUAN CARRASCO MAZATLAN SIN., MX","FM-12","99999","V020","240,1,N,0020,1","03600,1,9,N","020000,1,N,1","+0228,1","+0159,1","10134,1","06,0000,9,1","24,0000,9,1",,,,,"01,1,+00870,9,06,9","02,1,+03300,9,03,9",,"07,99,1,01,1,04,1,00800,1,03,1,06,1",,"01,9",,"120,M,+0255,1","180,N,+0150,1","99999,9,10130,1","2,1,004,1,+009,1",,,"SYN136AAXX  03001 76458 32570 72402 10228 20159 30130 40134 52004 81436 92345 333 10255 20150 30/// 50351 56449 58009 70000 81629 82361 84079;","Q01  00002PRCP06"
"76458099999","2004-03-03T03:00:00","4","23.2","-106.4166666","4.0","COLONIA JUAN CARRASCO MAZATLAN SIN., MX","FM-12","99999","V020","150,1,N,0010,1","22000,1,9,N","010000,1,N,1","+0203,1","+0151,1","10133,1","06,0000,9,1",,,,,,"01,1,+06000,9,00,9",,,"01,99,1,00,1,00,1,99999,9,00,1,06,1",,"01,9",,,,"99999,9,10129,1","5,1,001,1,+006,1",,,"SYN100AAXX  03031 76458 32960 11501 10203 20151 30129 40133 55001 80006 90245 333 30/// 56//9 58006 81070;","Q01  00002PRCP06"
"76458099999","2004-03-03T06:00:00","4","23.2","-106.4166666","4.0","COLONIA JUAN CARRASCO MAZATLAN SIN., MX","FM-12","99999","V020","999,9,C,0000,1","22000,1,9,N","010000,1,N,1","+0195,1","+0147,1","10143,1","06,0000,9,1",,,,,,"00,1,+99999,9,99,9",,,"00,99,1,00,1,00,1,99999,9,00,1,00,1","0504,9","01,9",,"240,M,+0255,1","240,N,+0150,1","99999,9,10138,1","2,1,009,1,+999,9",,,"SYN106AAXX  03061 76458 32960 00000 10195 20147 30138 40143 52009 90545 333 10255 20150 30/// 55084 21052 58006;","Q01  00002PRCP06"
"76458099999","2004-03-03T09:00:00","4","23.2","-106.4166666","4.0","COLONIA JUAN CARRASCO MAZATLAN SIN., MX","FM-12","99999","V020","999,9,C,0000,1","22000,1,9,N","010000,1,N,1","+0176,1","+0151,1","10137,1","06,0000,9,1",,,,,,"00,1,+99999,9,99,9",,,"00,99,1,00,1,00,1,99999,9,00,1,00,1",,"01,9",,,,"99999,9,10132,1","7,1,006,1,+999,9",,,"SYN082AAXX  03091 76458 32960 00000 10176 20151 30132 40137 57006 90838 333 30/// 580//;","Q01  00002PRCP06"
"76458099999","2004-03-03T12:00:00","4","23.2","-106.4166666","4.0","COLONIA JUAN CARRASCO MAZATLAN SIN., MX","FM-12","99999","V020","999,9,C,0000,1","22000,1,9,N","010000,1,N,1","+0170,1","+0144,1","10127,1","06,0000,9,1","24,0000,9,1",,,,,"00,1,+99999,9,99,9",,,"00,99,1,00,1,00,1,99999,9,00,1,00,1",,"01,9","999,+0150,9","999,M,+0255,1","120,N,+0165,1","99999,9,10122,1","7,1,010,1,-001,1",,,"SYN100AAXX  03121 76458 32960 00000 10170 20144 30122 40127 57010 91135 333 10255 20165 30015 59001 70000;","Q01  00002PRCP06Q02  00002PRCP24"
"76458099999","2004-03-03T15:00:00","4","23.2","-106.4166666","4.0","COLONIA JUAN CARRASCO MAZATLAN SIN., MX","FM-12","99999","V020","070,1,N,0010,1","02400,1,9,N","013000,1,N,1","+0190,1","+0159,1","10149,1","06,0000,9,1",,,,,,"05,1,+02400,9,03,9",,,"05,99,1,05,1,00,1,99999,9,08,1,00,1",,"01,9",,,,"99999,9,10144,1","2,1,022,1,+012,1",,,"SYN100AAXX  03151 76458 32963 50701 10190 20159 30144 40149 52022 85080 91448 333 30/// 56/0/ 58012 85358;","Q01  00002PRCP06"
"76458099999","2004-03-03T18:00:00","4","23.2","-106.4166666","4.0","COLONIA JUAN CARRASCO MAZATLAN SIN., MX","FM-12","99999","V020","160,1,N,0020,1","03600,1,C,N","018000,1,N,1","+0226,1","+0144,1","10154,1","06,0000,9,1",,,,,,"02,1,+01020,9,06,9",,,"05,99,1,02,1,04,1,01250,1,03,1,00,1",,"01,9",,"120,M,+0240,1","240,N,+0161,1","99999,9,10150,1","0,1,004,1,+010,1",,,"SYN118AAXX  03181 76458 32668 51602 10226 20144 30150 40154 50004 82430 91748 333 10240 20161 30/// 5640/ 58010 82634 83358;","Q01  00002PRCP06"
"76458099999","2004-03-03T21:00:00","4","23.2","-106.4166666","4.0","COLONIA JUAN CARRASCO MAZATLAN SIN., MX","FM-12","99999","V020","250,1,N,0030,1","04200,1,9,N","020000,1,N,1","+0236,1","+0164,1","10140,1","06,0000,9,1",,,,,,"05,1,+04200,9,03,9",,,"05,99,1,05,1,00,1,02250,1,03,1,00,1",,"01,9",,,,"99999,9,10135,1","7,1,014,1,+009,1",,,"SYN100AAXX  03211 76458 32870 52503 10236 20164 30135 40140 57014 85030 92048 333 30/// 56/9/ 58009 85364;","Q01  00002PRCP06"
"76458099999","2004-03-04T00:00:00","4","23.2","-106.4166666","4.0","COLONIA JUAN CARRASCO MAZATLAN SIN., MX","FM-12","99999","V020","260,1,N,0030,1","04200,1,C,N","020000,1,N,1","+0227,1","+0156,1","10132,1","06,0000,9,1","24,0000,9,1",,,,,"02,1,+00900,9,06,9","03,1,+04200,9,03,9",,"06,99,1,02,1,04,1,00800,1,03,1,09,1",,"01,9",,"120,M,+0260,1","180,N,+0161,1","99999,9,10128,1","0,1,007,1,-002,1",,,"SYN136AAXX  04001 76458 32570 62603 10227 20156 30128 40132 50007 82439 92345 333 10260 20161 30/// 50241 56499 59002 70000 82630 83364 81968;","Q01  00002PRCP06"
"76458099999","2004-03-04T03:00:00","4","23.2","-106.4166666","4.0","COLONIA JUAN CARRASCO MAZATLAN SIN., MX","FM-12","99999","V020","180,1,N,0020,1","00600,1,9,N","008000,1,N,1","+0214,1","+0166,1","10137,1","06,0000,9,1",,,,,,"07,1,+00600,9,06,9",,,"07,99,1,07,1,05,1,00800,1,99,9,99,9",,"01,9",,,,"99999,9,10133,1","3,1,005,1,+004,1",,,"SYN100AAXX  04031 76458 32558 71802 10214 20166 30133 40137 53005 875// 90240 333 30/// 565// 58004 87620;","Q01  00002PRCP06"
"76458099999","2004-03-04T06:00:00","4","23.2","-106.4166666","4.0","COLONIA JUAN CARRASCO MAZATLAN SIN., MX","FM-12","99999","V020","180,1,N,0020,1","22000,1,9,N","008000,1,N,1","+0210,1","+0164,1","10149,1","06,0000,9,1",,,,,,"00,1,+99999,9,99,9",,,"00,99,1,00,1,00,1,99999,9,00,1,00,1","0564,9","01,9",,"240,M,+0260,1","240,N,+0161,1","99999,9,10145,1","2,1,012,1,+999,9",,,"SYN106AAXX  04061 76458 32958 01802 10210 20164 30145 40149 52012 90533 333 10260 20161 30/// 55094 21339 58007;","Q01  00002PRCP06"
"76458099999","2004-03-04T09:00:00","4","23.2","-106.4166666","4.0","COLONIA JUAN CARRASCO MAZATLAN SIN., MX","FM-12","99999","V020","999,9,C,0000,1","22000,1,9,N","008000,1,N,1","+0196,1","+0165,1","10141,1","06,0000,9,1",,,,,,"04,1,+00390,9,06,9",,,"04,99,1,04,1,05,1,00450,1,00,1,00,1",,"01,9",,,,"99999,9,10136,1","7,1,009,1,+004,1",,,"SYN100AAXX  04090 76458 32458 40000 10196 20165 30136 40141 57009 84500 90848 333 30/// 56100 58004 84613;","Q01  00002PRCP06"
"76458099999","2004-03-04T12:00:00","4","23.2","-106.4166666","4.0","COLONIA JUAN CARRASCO MAZATLAN SIN., MX","FM-12","99999","V020","270,1,N,0030,1","00240,1,9,N","008000,1,N,1","+0190,1","+0172,1","10147,1","06,0000,2,1","12,9999,9,9","24,0002,9,1",,"0,1,06,1","6,1,06,1","07,1,+00240,9,06,9",,,"07,99,1,07,1,05,1,00250,1,00,1,00,1",,"01,9","999,+0180,9","999,M,+0260,1","120,N,+0195,1","99999,9,10143,1","2,1,007,1,+021,1","60,1",,"SYN130AAXX  04121 76458 31358 72703 10190 20172 30143 40147 52007 76006 87500 91138 333 10260 20195 30018 56100 58021 60002 70002 87608;","Q01  00002PRCP12"
"76458099999","2004-03-04T15:00:00","4","23.2","-106.4166666","4.0","COLONIA JUAN CARRASCO MAZATLAN SIN., MX","FM-12","99999","V020","330,1,N,0030,1","00420,1,C,N","013000,1,N,1","+0192,1","+0162,1","10170,1","06,0000,2,1",,,,,,"03,1,+00390,9,06,9",,,"05,99,1,05,1,02,1,00450,1,00,1,00,1",,"09,9",,,,"99999,9,10165,1","2,1,022,1,+021,1",,,"SYN106AAXX  04151 76458 32463 53303 10192 20162 30165 40170 52022 85200 91448 333 31/// 564// 58021 83613 82818;",
"76458099999","2004-03-04T18:00:00","4","23.2","-106.4166666","4.0","COLONIA JUAN CARRASCO MAZATLAN SIN., MX","FM-12","99999","V020","270,1,N,0030,1","22000,1,9,N","020000,1,N,1","+0220,1","+0118,1","10182,1","06,0000,2,1",,,,,,"01,1,+01200,9,06,9",,,"02,99,1,01,1,04,1,01250,1,00,1,05,1",,"01,9",,"120,M,+0242,1","240,N,+0186,1","99999,9,10177,1","0,1,012,1,+027,1",,,"SYN118AAXX  04181 76458 32670 22703 10220 20118 30177 40182 50012 81405 91748 333 10242 20186 30/// 564/0 58027 81640 81070;",
"76458099999","2004-03-04T21:00:00","4","23.2","-106.4166666","4.0","COLONIA JUAN CARRASCO MAZATLAN SIN., MX","FM-12","99999","V020","260,1,N,0040,1","22000,1,9,N","020000,1,N,1","+0232,1","+0145,1","10156,1","06,0000,9,1",,,,,,"01,1,+01320,9,08,9",,,"02,99,1,01,1,01,1,01750,1,00,1,01,1",,"01,9",,,,"99999,9,10151,1","7,1,026,1,+016,1",,,"SYN106AAXX  04211 76458 32770 22604 10232 20145 30151 40156 57026 81101 92047 333 30/// 561/9 58016 81844 81070;","Q01  00002PRCP06"
"76458099999","2004-03-05T00:00:00","4","23.2","-106.4166666","4.0","COLONIA JUAN CARRASCO MAZATLAN SIN., MX","FM-12","99999","V020","280,1,N,0030,1","99999,9,9,N","020000,1,N,1","+0222,1","+0122,1","10138,1","06,0000,9,1","24,0024,9,1",,,,,,,,"05,99,1,00,1,00,1,99999,9,00,1,01,1",,"01,9",,"120,M,+0249,1","180,N,+0186,1","99999,9,10134,1","7,1,017,1,+006,1",,,"SYN124AAXX  05001 76458 32970 52803 10222 20122 30134 40138 57017 80001 92345 333 10249 20186 30/// 50321 56//9 58006 70024 85070;","Q01  00002PRCP06"
"76458099999","2004-03-05T03:00:00","4","23.2","-106.4166666","4.0","COLONIA JUAN CARRASCO MAZATLAN SIN., MX","FM-12","99999","V020","310,1,N,0030,1","22000,1,9,N","008000,1,N,1","+0204,1","+0126,1","10147,1","06,0000,9,1",,,,,,"03,1,+06000,9,00,9",,,"03,99,1,00,1,99,9,99999,9,99,9,06,1",,"01,9",,,,"99999,9,10142,1","2,1,008,1,+009,1",,,"SYN094AAXX  05031 76458 32958 33103 10204 20126 30142 40147 52008 80//6 90240 333 30/// 58009 83070;","Q01  00002PRCP06"
"76458099999","2004-03-05T06:00:00","4","23.2","-106.4166666","4.0","COLONIA JUAN CARRASCO MAZATLAN SIN., MX","FM-12","99999","V020","360,1,N,0030,1","99999,9,9,N","008000,1,N,1","+0188,1","+0118,1","10159,1","06,0000,9,1",,,,,,,,,"05,99,1,00,1,99,9,99999,9,99,9,06,1","0582,9","01,9",,"240,M,+0249,1","240,N,+0186,1","99999,9,10155,1","2,1,013,1,+010,1",,,"SYN118AAXX  05061 76458 32958 53603 10188 20118 30155 40159 52013 80//6 90535 333 10249 20186 30/// 55097 21462 58010 85070;","Q01  00002PRCP06"
"76458099999","2004-03-05T09:00:00","4","23.2","-106.4166666","4.0","COLONIA JUAN CARRASCO MAZATLAN SIN., MX","FM-12","99999","V020","320,1,N,0020,1","22000,1,9,N","008000,1,N,1","+0174,1","+0085,1","10165,1","06,0000,9,1",,,,,,"04,1,+02400,9,03,9",,,"04,99,1,99,9,00,1,99999,9,05,1,00,1",,"01,9",,,,"99999,9,10160,1","2,1,005,1,+024,1",,,"SYN100AAXX  05091 76458 32958 43202 10174 20085 30160 40165 52005 80050 90838 333 30/// 56090 58024 84358;","Q01+000002SCOTLCQ02  00002PRCP06"
"76458099999","2004-03-05T12:00:00","4","23.2","-106.4166666","4.0","COLONIA JUAN CARRASCO MAZATLAN SIN., MX","FM-12","99999","V020","290,1,N,0020,1","22000,1,9,N","008000,1,N,1","+0160,1","+0067,1","10170,1","06,0000,9,1","24,0000,9,1",,,,,"02,1,+02400,9,03,9",,,"02,99,1,99,9,00,1,99999,9,05,1,00,1",,"01,9",,"999,M,+0249,1","120,N,+0150,1","99999,9,10165,1","2,1,005,1,+022,1",,,"SYN118AAXX  05121 76458 32958 22902 10160 20067 30165 40170 52005 80050 91135 333 10249 20150 30/// 56090 58022 70000 82358;","Q01+000002SCOTLCQ02  00002PRCP06"
"76458099999","2004-03-05T15:00:00","4","23.2","-106.4166666","4.0","COLONIA JUAN CARRASCO MAZATLAN SIN., MX","FM-12","99999","V020","320,1,N,0020,1","06000,1,9,N","013000,1,N,1","+0182,1","+0064,1","10184,1","06,0000,9,1",,,,,,"06,1,+06000,9,02,9",,,"06,99,1,00,1,00,1,99999,9,00,1,06,1",,"01,9",,,,"99999,9,10180,1","2,1,015,1,+015,1",,,"SYN100AAXX  05151 76458 32963 63202 10182 20064 30180 40184 52015 80006 91448 333 30/// 56//0 58015 86270;","Q01  00002PRCP06"
"76458099999","2004-03-05T18:00:00","4","23.2","-106.4166666","4.0","COLONIA JUAN CARRASCO MAZATLAN SIN., MX","FM-12","99999","V020","270,1,N,0030,1","06000,1,9,N","020000,1,N,1","+0220,1","+0097,1","10188,1","06,0000,9,1",,,,,,"05,1,+06000,9,02,9",,,"05,99,1,00,1,00,1,99999,9,00,1,06,1",,"01,9",,"120,M,+0237,1","240,N,+0150,1","99999,9,10183,1","0,1,003,1,+006,1",,,"SYN112AAXX  05181 76458 32970 52703 10220 20097 30183 40188 50003 80006 91745 333 10237 20150 30/// 56//0 58006 85270;","Q01  00002PRCP06"
"76458099999","2004-03-05T21:00:00","4","23.2","-106.4166666","4.0","COLONIA JUAN CARRASCO MAZATLAN SIN., MX","FM-12","99999","V020","270,1,N,0030,1","22000,1,9,N","020000,1,N,1","+0224,1","+0144,1","10167,1","06,0000,9,1",,,,,,"04,1,+05400,9,02,9",,,"04,99,1,00,1,00,1,99999,9,00,1,08,1",,"01,9",,,,"99999,9,10163,1","7,1,020,1,+012,1",,,"SYN100AAXX  05211 76458 32970 42703 10224 20144 30163 40167 57020 80008 92048 333 30/// 56//9 58012 84268;","Q01  00002PRCP06"
"76458099999","2004-03-06T00:00:00","4","23.2","-106.4166666","4.0","COLONIA JUAN CARRASCO MAZATLAN SIN., MX","FM-12","99999","V020","300,1,N,0060,1","22000,1,9,N","020000,1,N,1","+0222,1","+0131,1","10152,1","06,0000,9,1","24,0000,9,1",,,,,,,,"02,99,1,00,1,00,1,99999,9,00,1,01,1",,"01,9",,"120,M,+0255,1","180,N,+0150,1","99999,9,10147,1","7,1,016,1,+013,1",,,"SYN124AAXX  06001 76458 32970 23006 10222 20131 30147 40152 57016 80001 92345 333 10255 20150 30/// 50521 56//9 58013 70000 82070;","Q01  00002PRCP06"
"76458099999","2004-03-06T03:00:00","4","23.2","-106.4166666","4.0","COLONIA JUAN CARRASCO MAZATLAN SIN., MX","FM-12","99999","V020","310,1,N,0070,1","22000,1,9,N","008000,1,N,1","+0202,1","+0131,1","10155,1","06,0000,9,1",,,,,,"02,1,+06000,9,00,9",,,"02,99,1,00,1,99,9,99999,9,99,9,06,1",,"01,9",,,,"99999,9,10151,1","3,1,004,1,+009,1",,,"SYN094AAXX  06031 76458 32958 23107 10202 20131 30151 40155 53004 80//6 90240 333 30/// 58009 82070;","Q01  00002PRCP06"
"76458099999","2004-03-06T06:00:00","4","23.2","-106.4166666","4.0","COLONIA JUAN CARRASCO MAZATLAN SIN., MX","FM-12","99999","V020","330,1,N,0030,1","22000,1,9,N","008000,1,N,1","+0190,1","+0128,1","10169,1","06,0000,9,1",,,,,,,,,"03,99,1,00,1,99,9,99999,9,99,9,07,1","0552,9","01,9",,"240,M,+0255,1","240,N,+0150,1","99999,9,10164,1","2,1,013,1,+009,1",,,"SYN118AAXX  06061 76458 32958 33303 10190 20128 30164 40169 52013 80//7 90530 333 10255 20150 30/// 55092 21369 58009 83270;","Q01  00002PRCP06"
"76458099999","2004-03-06T09:00:00","4","23.2","-106.4166666","4.0","COLONIA JUAN CARRASCO MAZATLAN SIN., MX","FM-12","99999","V020","300,1,N,0020,1","22000,1,9,N","008000,1,N,1","+0166,1","+0115,1","10154,1","06,0000,9,1",,,,,,"01,1,+06600,9,02,9",,,"01,99,1,00,1,00,1,99999,9,00,1,08,1",,"01,9",,,,"99999,9,10149,1","7,1,015,1,-011,1",,,"SYN100AAXX  06091 76458 32958 13002 10166 20115 30149 40154 57015 80008 90852 333 30/// 56009 59011 81272;","Q01  00002PRCP06"
"76458099999","2004-03-06T12:00:00","4","23.2","-106.4166666","4.0","COLONIA JUAN CARRASCO MAZATLAN SIN., MX","FM-12","99999","V020","340,1,N,0010,1","22000,1,9,N","008000,1,N,1","+0162,1","+0107,1","10144,1","06,0000,9,1","24,0000,9,1",,,,,"04,1,+06600,9,02,9",,,"04,99,1,00,1,00,1,99999,9,00,1,08,1",,"01,9","999,+0140,9","999,M,+0255,1","120,N,+0155,1","99999,9,10139,1","7,1,010,1,+026,1",,,"SYN118AAXX  06121 76458 32958 43401 10162 20107 30139 40144 57010 80008 91135 333 10255 20155 30014 56009 58026 70000 84272;","Q01  00002PRCP06"
"76458099999","2004-03-06T15:00:00","4","23.2","-106.4166666","4.0","COLONIA JUAN CARRASCO MAZATLAN SIN., MX","FM-12","99999","V020","340,1,N,0010,1","99999,9,9,N","013000,1,N,1","+0184,1","+0132,1","10161,1","06,0000,9,1",,,,,,"03,1,+02400,9,03,9",,,"06,99,1,03,1,00,1,99999,9,03,1,06,1",,"01,9",,,,"99999,9,10157,1","2,1,017,1,-023,1",,,"SYN106AAXX  06151 76458 32963 63401 10184 20132 30157 40161 52017 83036 91448 333 30/// 56/00 59023 83358 83270;","Q01  00002PRCP06"
"76458099999","2004-03-06T18:00:00","4","23.2","-106.4166666","4.0","COLONIA JUAN CARRASCO MAZATLAN SIN., MX","FM-12","99999","V020","260,1,N,0040,1","22000,1,9,N","020000,1,N,1","+0224,1","+0152,1","10167,1","06,0000,9,1",,,,,,"04,1,+06000,9,00,9",,,"04,99,1,00,1,00,1,99999,9,00,1,02,1",,"01,9",,"120,M,+0239,1","240,N,+0147,1","99999,9,10162,1","1,1,005,1,-021,1",,,"SYN112AAXX  06181 76458 32970 42604 10224 20152 30162 40167 51005 80002 91748 333 10239 20147 30/// 56//0 59021 84070;","Q01  00002PRCP06"
"76458099999","2004-03-06T21:00:00","4","23.2","-106.4166666","4.0","COLONIA JUAN CARRASCO MAZATLAN SIN., MX","FM-12","99999","V020","270,1,N,0050,1","22000,1,9,N","020000,1,N,1","+0236,1","+0163,1","10148,1","06,0000,9,1",,,,,,"01,1,+04200,9,03,9",,,"01,99,1,01,1,00,1,02250,1,03,1,00,1",,"01,9",,,,"99999,9,10144,1","7,1,018,1,-019,1",,,"SYN100AAXX  06211 76458 32870 12705 10236 20163 30144 40148 57018 81030 92045 333 30/// 56/9/ 59019 81364;","Q01  00002PRCP06"
"76458099999","2004-03-07T00:00:00","4","23.2","-106.4166666","4.0","COLONIA JUAN CARRASCO MAZATLAN SIN., MX","FM-12","99999","V020","280,1,N,0030,1","22000,1,9,N","020000,1,N,1","+0230,1","+0163,1","10136,1","06,0000,9,1","24,0000,9,1",,,,,,,,"03,99,1,00,1,00,1,99999,9,00,1,06,1",,"01,9",,"120,M,+0253,1","180,N,+0147,1","99999,9,10131,1","7,1,013,1,-016,1",,,"SYN124AAXX  07001 76458 32970 32803 10230 20163 30131 40136 57013 80006 92340 333 10253 20147 30/// 50521 56//9 59016 70000 83070;","Q01  00002PRCP06"
"76458099999","2004-03-07T03:00:00","4","23.2","-106.4166666","4.0","COLONIA JUAN CARRASCO MAZATLAN SIN., MX","FM-12","99999","V020","310,1,N,0030,1","22000,1,9,N","008000,1,N,1","+0206,1","+0166,1","10140,1","06,0000,9,1",,,,,,"01,1,+06000,9,00,9",,,"01,99,1,00,1,99,9,99999,9,99,9,01,1",,"01,9",,,,"99999,9,10136,1","3,1,005,1,-015,1",,,"SYN094AAXX  07031 76458 32958 13103 10206 20166 30136 40140 53005 80//1 90240 333 30/// 59015 81070;","Q01  00002PRCP06"
"76458099999","2004-03-07T06:00:00","4","23.2","-106.4166666","4.0","COLONIA JUAN CARRASCO MAZATLAN SIN., MX","FM-12","99999","V020","310,1,N,0030,1","22000,1,9,N","008000,1,N,1","+0200,1","+0179,1","10158,1","06,0000,9,1",,,,,,,,,"02,99,1,00,1,99,9,99999,9,99,9,07,1","0612,9","01,9",,"240,M,+0253,1","240,N,+0147,1","99999,9,10153,1","2,1,017,1,-011,1",,,"SYN118AAXX  07061 76458 32958 23103 10200 20179 30153 40158 52017 80//7 90530 333 10253 20147 30/// 55102 21524 59011 82270;","Q01  00002PRCP06"
"76458099999","2004-03-07T15:00:00","4","23.2","-106.4166666","4.0","COLONIA JUAN CARRASCO MAZATLAN SIN., MX","FM-12","99999","V020","999,9,C,0000,1","00030,1,9,N","000200,1,N,1","+0181,1","+0177,1","10167,1","06,0000,9,1",,,,"4,1,03,1","4,1,03,1","09,1,+99999,9,99,9",,,"09,99,1,09,1,99,9,99999,9,99,9,99,9",,"01,9",,,,"99999,9,10163,1","2,1,010,1,+006,1","45,1",,"SYN100AAXX  07151 76458 31/02 90000 10181 20177 30163 40167 52010 74544 89/// 91444 333 30/// 58006 89///;","Q01  00002PRCP06"
"76458099999","2004-03-07T18:00:00","4","23.2","-106.4166666","4.0","COLONIA JUAN CARRASCO MAZATLAN SIN., MX","FM-12","99999","V020","160,1,N,0030,1","07800,1,9,N","016000,1,N,1","+0229,1","+0176,1","10175,1","06,0000,9,1",,,,,,"07,1,+07800,9,02,9",,,"07,99,1,00,1,00,1,99999,9,00,1,07,1",,"01,9",,"120,M,+0255,1","240,N,+0170,1","99999,9,10170,1","8,1,008,1,+008,1",,,"SYN112AAXX  07181 76458 31966 71603 10229 20176 30170 40175 58008 80007 91744 333 10255 20170 30/// 56009 58008 87276;","Q01  00002PRCP06"
"76458099999","2004-03-07T21:00:00","4","23.2","-106.4166666","4.0","COLONIA JUAN CARRASCO MAZATLAN SIN., MX","FM-12","99999","V020","270,1,N,0030,1","22000,1,9,N","016000,1,N,1","+0220,1","+0181,1","10156,1","06,0000,9,1",,,,"4,1,03,1","4,1,03,1","02,1,+06000,9,00,9",,,"02,99,1,00,1,99,9,99999,9,99,9,01,1",,"01,9",,,,"99999,9,10152,1","7,1,018,1,+008,1","40,1",,"SYN100AAXX  07211 76458 31966 22703 10220 20181 30152 40156 57018 74044 80//1 92040 333 30/// 58008 82070;","Q01  00002PRCP06"
"76458099999","2004-03-08T00:00:00","4","23.2","-106.4166666","4.0","COLONIA JUAN CARRASCO MAZATLAN SIN., MX","FM-12","99999","V020","270,1,N,0040,1","22000,1,9,N","020000,1,N,1","+0242,1","+0177,1","10144,1","06,0000,9,1","24,0000,9,1",,,,,"01,1,+06000,9,00,9",,,"01,99,1,00,1,99,9,99999,9,99,9,01,1",,"01,9",,"120,M,+0260,1","180,N,+0170,1","99999,9,10139,1","6,1,013,1,+008,1",,,"SYN118AAXX  08001 76458 32970 12704 10242 20177 30139 40144 56013 80//1 92340 333 10260 20170 30/// 50381 58008 70000 81070;","Q01  00002PRCP06"
"76458099999","2004-03-08T03:00:00","4","23.2","-106.4166666","4.0","COLONIA JUAN CARRASCO MAZATLAN SIN., MX","FM-12","99999","V020","300,1,N,0020,1","22000,1,9,N","010000,1,N,1","+0216,1","+0182,1","10149,1","06,0000,9,1",,,,,,"01,1,+04200,9,03,9",,,"01,99,1,01,1,00,1,02250,1,03,1,00,1",,"01,9",,,,"99999,9,10144,1","2,1,005,1,+008,1",,,"SYN100AAXX  08031 76458 32860 13002 10216 20182 30144 40149 52005 81030 90245 333 30/// 56/9/ 58008 81364;","Q01  00002PRCP06"
"76458099999","2004-03-08T06:00:00","4","23.2","-106.4166666","4.0","COLONIA JUAN CARRASCO MAZATLAN SIN., MX","FM-12","99999","V020","290,1,N,0010,1","22000,1,9,N","010000,1,N,1","+0207,1","+0192,1","10156,1","06,0000,9,1",,,,,,"00,1,+99999,9,99,9",,,"00,99,1,00,1,00,1,99999,9,00,1,00,1","0570,9","01,9",,"240,M,+0260,1","240,N,+0170,1","99999,9,10152,1","1,1,008,1,+999,9",,,"SYN106AAXX  08061 76458 32960 02901 10207 20192 30152 40156 51008 90545 333 10260 20170 30/// 55095 21145 58019;","Q01  00002PRCP06"
"76458099999","2004-03-08T12:00:00","4","23.2","-106.4166666","4.0","COLONIA JUAN CARRASCO MAZATLAN SIN., MX","FM-12","99999","V020","130,1,N,0020,1","22000,1,9,N","005000,1,N,1","+0190,1","+0184,1","10149,1","06,0000,9,1",,,,,,"00,1,+99999,9,99,9",,,"00,99,1,00,1,00,1,99999,9,00,1,00,1",,"01,9","999,+0180,9","999,M,+0260,1","120,N,+0185,1","99999,9,10144,1","4,1,000,1,-008,1",,,"SYN094AAXX  08121 76458 32950 01302 10190 20184 30144 40149 54000 91138 333 10260 20185 30018 59008;","Q01  00002PRCP06"
"76458099999","2004-03-08T15:00:00","4","23.2","-106.4166666","4.0","COLONIA JUAN CARRASCO MAZATLAN SIN., MX","FM-12","99999","V020","110,1,N,0020,1","00180,1,9,N","004000,1,N,1","+0202,1","+0188,1","10161,1","06,0000,9,1",,,,"4,1,03,1","4,1,03,1","07,1,+00180,9,07,9",,,"08,99,1,07,1,06,1,00150,1,99,9,99,9",,"01,9",,,,"99999,9,10157,1","2,1,013,1,-006,1","10,1",,"SYN106AAXX  08151 76458 31240 81102 10202 20188 30157 40161 52013 71044 876// 91448 333 30/// 564// 59006 87706;","Q01  00002PRCP06"
"76458099999","2004-03-08T18:00:00","4","23.2","-106.4166666","4.0","COLONIA JUAN CARRASCO MAZATLAN SIN., MX","FM-12","99999","V020","170,1,N,0020,1","22000,1,9,N","012000,1,N,1","+0258,1","+0167,1","10161,1","06,0000,9,1",,,,,,"02,1,+06000,9,00,9",,,"02,99,1,00,1,00,1,99999,9,00,1,02,1",,"01,9",,"120,M,+0274,1","240,N,+0180,1","99999,9,10156,1","0,1,001,1,-014,1",,,"SYN112AAXX  08181 76458 32962 21702 10258 20167 30156 40161 50001 80002 91748 333 10274 20180 30/// 56//0 59014 82070;","Q01  00002PRCP06"
"76458099999","2004-03-08T21:00:00","4","23.2","-106.4166666","4.0","COLONIA JUAN CARRASCO MAZATLAN SIN., MX","FM-12","99999","V020","270,1,N,0030,1","22000,1,9,N","018000,1,N,1","+0250,1","+0194,1","10157,1","06,0000,9,1",,,,"4,1,03,1","0,1,03,1","01,1,+00690,9,08,9",,,"03,99,1,01,1,02,1,00800,1,00,1,05,1",,"01,9",,,,"99999,9,10152,1","5,1,004,1,+001,1","02,1",,"SYN112AAXX  08211 76458 31568 32703 10250 20194 30152 40157 55004 70240 81205 92055 333 30/// 56109 58001 81823 82079;","Q01  00002PRCP06"
"76458099999","2004-03-09T03:00:00","4","23.2","-106.4166666","4.0","COLONIA JUAN CARRASCO MAZATLAN SIN., MX","FM-12","99999","V020","310,1,N,0040,1","22000,1,9,N","008000,1,N,1","+0222,1","+0187,1","10137,1","06,0000,9,1",,,,,,"00,1,+99999,9,99,9",,,"00,99,1,00,1,00,1,99999,9,00,1,00,1",,"01,9",,,,"99999,9,10132,1","3,1,005,1,-012,1",,,"SYN082AAXX  09031 76458 32958 03104 10222 20187 30132 40137 53005 90240 333 30/// 59012;","Q01  00002PRCP06"
"76458099999","2004-03-09T09:00:00","4","23.2","-106.4166666","4.0","COLONIA JUAN CARRASCO MAZATLAN SIN., MX","FM-12","99999","V020","999,9,C,0000,1","22000,1,9,N","010000,1,N,1","+0208,1","+0181,1","10133,1","06,0000,9,1",,,,,,"00,1,+99999,9,99,9",,,"00,99,1,00,1,00,1,99999,9,00,1,00,1",,"01,9",,,,"99999,9,10128,1","7,1,010,1,-016,1",,,"SYN082AAXX  09091 76458 32960 00000 10208 20181 30128 40133 57010 90842 333 30/// 59016;","Q01  00002PRCP06"
"76458099999","2004-03-09T12:00:00","4","23.2","-106.4166666","4.0","COLONIA JUAN CARRASCO MAZATLAN SIN., MX","FM-12","99999","V020","120,1,N,0020,1","22000,1,9,N","010000,1,N,1","+0208,1","+0190,1","10133,1","06,0000,9,1","24,0000,9,1",,,,,"00,1,+99999,9,99,9",,,"00,99,1,00,1,00,1,99999,9,00,1,00,1",,"01,9","999,+0180,9","999,M,+0282,1","120,N,+0196,1","99999,9,10128,1","4,1,000,1,-016,1",,,"SYN100AAXX  09121 76458 32960 01202 10208 20190 30128 40133 54000 91135 333 10282 20196 30018 59016 70000;","Q01  00002PRCP06Q02  00002PRCP24"
"76458099999","2004-03-09T15:00:00","4","23.2","-106.4166666","4.0","COLONIA JUAN CARRASCO MAZATLAN SIN., MX","FM-12","99999","V020","140,1,N,0010,1","00270,1,9,N","005000,1,N,1","+0218,1","+0195,1","10143,1","06,0000,9,1",,,,"4,1,03,1","4,1,03,1","07,1,+00270,9,07,9",,,"07,99,1,07,1,06,1,00250,1,99,9,99,9",,"01,9",,,,"99999,9,10139,1","2,1,011,1,-018,1","10,1",,"SYN106AAXX  09151 76458 31350 71401 10218 20195 30139 40143 52011 71044 876// 91455 333 30/// 564// 59018 87709;","Q01  00002PRCP06"
"76458099999","2004-03-09T21:00:00","4","23.2","-106.4166666","4.0","COLONIA JUAN CARRASCO MAZATLAN SIN., MX","FM-12","99999","V020","250,1,N,0030,1","22000,1,C,N","016000,1,N,1","+0250,1","+0200,1","10116,1","06,0000,9,1",,,,"4,1,03,1","4,1,03,1","01,1,+00630,9,08,9",,,"06,99,1,01,1,02,1,00800,1,00,1,04,1",,"01,9",,,,"99999,9,10112,1","7,1,024,1,-040,1","05,1",,"SYN112AAXX  09211 76458 31566 62503 10250 20200 30112 40116 57024 70544 81204 92055 333 30/// 56109 59040 81821 85079;","Q01  00002PRCP06"
"76458099999","2004-03-10T00:00:00","4","23.2","-106.4166666","4.0","COLONIA JUAN CARRASCO MAZATLAN SIN., MX","FM-12","99999","V020","300,1,N,0030,1","22000,1,9,N","020000,1,N,1","+0253,1","+0162,1","10101,1","06,0000,9,1","24,0000,9,1",,,,,"01,1,+01020,9,09,9",,,"02,99,1,01,1,03,1,01250,1,00,1,05,1",,"01,9",,"120,M,+0270,1","180,N,+0193,1","99999,9,10097,1","6,1,015,1,-031,1",,,"SYN130AAXX  10001 76458 32670 23003 10253 20162 30097 40101 56015 81305 92355 333 10270 20193 30/// 50461 56109 59031 70000 81934 81079;","Q01  00002PRCP06"
"76458099999","2004-03-10T03:00:00","4","23.2","-106.4166666","4.0","COLONIA JUAN CARRASCO MAZATLAN SIN., MX","FM-12","99999","V020","330,1,N,0020,1","22000,1,9,N","010000,1,N,1","+0225,1","+0188,1","10107,1","06,0000,9,1",,,,,,"00,1,+99999,9,99,9",,,"00,99,1,00,1,00,1,99999,9,00,1,00,1",,"01,9",,,,"99999,9,10102,1","2,1,005,1,-030,1",,,"SYN082AAXX  10031 76458 32960 03302 10225 20188 30102 40107 52005 90247 333 30/// 59030;","Q01  00002PRCP06"
"76458099999","2004-03-10T06:00:00","4","23.2","-106.4166666","4.0","COLONIA JUAN CARRASCO MAZATLAN SIN., MX","FM-12","99999","V020","270,1,N,0010,1","22000,1,9,N","010000,1,N,1","+0217,1","+0197,1","10110,1","06,0000,9,1",,,,,,"00,1,+99999,9,99,9",,,"00,99,1,00,1,00,1,99999,9,00,1,00,1","0558,9","01,9",,"240,M,+0270,1","240,N,+0193,1","99999,9,10106,1","2,1,004,1,+999,9",,,"SYN106AAXX  10061 76458 32960 02701 10217 20197 30106 40110 52004 90545 333 10270 20193 30/// 55093 21099 59031;","Q01  00002PRCP06"
"76458099999","2004-03-10T09:00:00","4","23.2","-106.4166666","4.0","COLONIA JUAN CARRASCO MAZATLAN SIN., MX","FM-12","99999","V020","120,1,N,0020,1","22000,1,9,N","010000,1,N,1","+0206,1","+0191,1","10113,1","06,0000,9,1",,,,,,"00,1,+99999,9,99,9",,,"00,99,1,00,1,00,1,99999,9,00,1,00,1",,"01,9",,,,"99999,9,10108,1","4,1,000,1,-020,1",,,"SYN082AAXX  10091 76458 32960 01202 10206 20191 30108 40113 54000 90832 333 30/// 59020;","Q01  00002PRCP06"
"76458099999","2004-03-10T12:00:00","4","23.2","-106.4166666","4.0","COLONIA JUAN CARRASCO MAZATLAN SIN., MX","FM-12","99999","V020","120,1,N,0020,1","22000,1,9,N","010000,1,N,1","+0212,1","+0197,1","10116,1","06,0000,9,1",,,,,,"00,1,+99999,9,99,9",,,"00,99,1,00,1,00,1,99999,9,00,1,00,1",,"01,9","999,+0190,9","999,M,+0270,1","120,N,+0200,1","99999,9,10112,1","2,1,003,1,-016,1",,,"SYN094AAXX  10121 76458 32960 01202 10212 20197 30112 40116 52003 91145 333 10270 20200 30019 59016;","Q01  00002PRCP06"
"76458099999","2004-03-10T15:00:00","4","23.2","-106.4166666","4.0","COLONIA JUAN CARRASCO MAZATLAN SIN., MX","FM-12","99999","V020","120,1,N,0020,1","22000,1,9,N","003000,1,N,1","+0220,1","+0201,1","10132,1","06,0000,9,1",,,,"4,1,03,1","4,1,03,1","03,1,+00240,9,07,9",,,"03,99,1,01,1,06,1,00450,1,00,1,00,1",,"01,9",,,,"99999,9,10128,1","2,1,016,1,-011,1","05,1",,"SYN106AAXX  10151 76458 31430 31202 10220 20201 30128 40132 52016 70544 81600 91445 333 30/// 56400 59011 83708;","Q01  00002PRCP06"
"76458099999","2004-03-10T18:00:00","4","23.2","-106.4166666","4.0","COLONIA JUAN CARRASCO MAZATLAN SIN., MX","FM-12","99999","V020","150,1,N,0030,1","22000,1,9,N","016000,1,N,1","+0267,1","+0185,1","10143,1",,,,,"4,1,06,1","4,1,06,1","01,1,+08700,9,00,9",,,"01,99,1,00,1,00,1,99999,9,00,1,01,1",,"01,9",,"120,M,+0280,1","240,N,+0199,1","99999,9,10139,1","0,1,011,1,+003,1","05,1",,"SYN118AAXX  10181 76458 42966 11503 10267 20185 30139 40143 50011 70544 80001 91740 333 10280 20199 30/// 56009 58003 81079;",
"76458099999","2004-03-10T21:00:00","4","23.2","-106.4166666","4.0","COLONIA JUAN CARRASCO MAZATLAN SIN., MX","FM-12","99999","V020","160,1,N,0030,1","22000,1,9,N","016000,1,N,1","+0258,1","+0198,1","10136,1","06,0000,9,1",,,,,,"01,1,+04200,9,03,9",,,"01,99,1,01,1,00,1,02250,1,03,1,00,1",,"01,9",,,,"99999,9,10131,1","7,1,008,1,+019,1",,,"SYN100AAXX  10211 76458 32866 11603 10258 20198 30131 40136 57008 81030 92050 333 30/// 56/9/ 58019 81364;","Q01  00002PRCP06"
"76458099999","2004-03-11T00:00:00","4","23.2","-106.4166666","4.0","COLONIA JUAN CARRASCO MAZATLAN SIN., MX","FM-12","99999","V020","140,1,N,0020,1","22000,1,9,N","018000,1,N,1","+0250,1","+0207,1","10133,1","06,0000,9,1","24,0000,9,1",,,,,,,,"01,99,1,01,1,04,1,00450,1,00,1,00,1",,"01,9",,"120,M,+0280,1","180,N,+0199,1","99999,9,10128,1","7,1,003,1,+031,1",,,"SYN124AAXX  11001 76458 32468 11402 10250 20207 30128 40133 57003 81400 92340 333 10280 20199 30/// 50421 564// 58031 70000 81618;","Q01  00002PRCP06"
"76458099999","2004-03-11T03:00:00","4","23.2","-106.4166666","4.0","COLONIA JUAN CARRASCO MAZATLAN SIN., MX","FM-12","99999","V020","120,1,N,0020,1","22000,1,9,N","008000,1,N,1","+0226,1","+0209,1","10126,1","06,0000,9,1",,,,,,"01,1,+00210,9,08,9",,,"01,99,1,01,1,01,1,00250,1,99,9,99,9",,"01,9",,,,"99999,9,10122,1","7,1,006,1,+020,1",,,"SYN100AAXX  11031 76458 32358 11202 10226 20209 30122 40126 57006 811// 90240 333 30/// 564// 58020 81807;","Q01  00002PRCP06"
"76458099999","2004-03-11T06:00:00","4","23.2","-106.4166666","4.0","COLONIA JUAN CARRASCO MAZATLAN SIN., MX","FM-12","99999","V020","120,1,N,0010,1","99999,9,9,N","008000,1,N,1","+0222,1","+0210,1","10139,1","06,0000,9,1",,,,,,,,,"05,99,1,05,1,06,1,99999,9,99,9,99,9","0528,9","01,9",,"240,M,+0280,1","240,N,+0199,1","99999,9,10134,1","2,1,012,1,+028,1",,,"SYN124AAXX  11061 76458 32958 51201 10222 20210 30134 40139 52012 856// 90535 333 10280 20199 30/// 55088 21346 564// 58028 85702;","Q01  00002PRCP06"
"76458099999","2004-03-11T09:00:00","4","23.2","-106.4166666","4.0","COLONIA JUAN CARRASCO MAZATLAN SIN., MX","FM-12","99999","V020","999,9,C,0000,1","22000,1,9,N","008000,1,N,1","+0216,1","+0201,1","10136,1","06,0000,9,1",,,,,,"04,1,+00210,9,07,9",,,"04,99,1,04,1,06,1,00150,1,00,1,00,1",,"01,9",,,,"99999,9,10132,1","7,1,002,1,+024,1",,,"SYN100AAXX  11091 76458 32258 40000 10216 20201 30132 40136 57002 84600 90832 333 30/// 56400 58024 84707;","Q01  00002PRCP06"
"76458099999","2004-03-11T12:00:00","4","23.2","-106.4166666","4.0","COLONIA JUAN CARRASCO MAZATLAN SIN., MX","FM-12","99999","V020","999,9,C,0000,1","22000,1,9,N","008000,1,N,1","+0197,1","+0189,1","10126,1","06,0000,9,1","24,0000,9,1",,,,,"00,1,+99999,9,99,9",,,"00,99,1,00,1,00,1,99999,9,00,1,00,1",,"01,9","999,+0180,9","999,M,+0280,1","120,N,+0190,1","99999,9,10121,1","7,1,011,1,-009,1",,,"SYN100AAXX  11121 76458 32958 00000 10197 20189 30121 40126 57011 91138 333 10280 20190 30018 59009 70000;","Q01  00002PRCP06Q02  00002PRCP24"
"76458099999","2004-03-11T15:00:00","4","23.2","-106.4166666","4.0","COLONIA JUAN CARRASCO MAZATLAN SIN., MX","FM-12","99999","V020","999,9,C,0000,1","03300,1,9,N","000800,1,N,1","+0210,1","+0197,1","10142,1","06,0000,9,1",,,,"4,1,03,1","4,1,03,1","06,1,+03300,9,03,9",,,"06,99,1,06,1,00,1,99999,9,03,1,00,1",,"01,9",,,,"99999,9,10138,1","2,1,017,1,+010,1","40,1",,"SYN106AAXX  11151 76458 32908 60000 10210 20197 30138 40142 52017 74044 86030 91450 333 30/// 56090 58010 86361;","Q01  00002PRCP06"
"76458099999","2004-03-11T18:00:00","4","23.2","-106.4166666","4.0","COLONIA JUAN CARRASCO MAZATLAN SIN., MX","FM-12","99999","V020","180,1,N,0020,1","22000,1,9,N","014000,1,N,1","+0250,1","+0202,1","10146,1","06,0000,9,1",,,,"4,1,06,1","4,1,06,1","03,1,+03300,9,03,9",,,"03,99,1,03,1,00,1,99999,9,03,1,00,1",,"01,9",,"120,M,+0270,1","240,N,+0190,1","99999,9,10141,1","0,1,003,1,+003,1","05,1",,"SYN118AAXX  11181 76458 31964 31802 10250 20202 30141 40146 50003 70544 83030 91750 333 10270 20190 30/// 56009 58003 83361;","Q01  00002PRCP06"
"76458099999","2004-03-11T21:00:00","4","23.2","-106.4166666","4.0","COLONIA JUAN CARRASCO MAZATLAN SIN., MX","FM-12","99999","V020","260,1,N,0030,1","22000,1,9,N","018000,1,N,1","+0260,1","+0193,1","10132,1","06,0000,9,1",,,,,,"03,1,+04200,9,03,9",,,"03,99,1,03,1,00,1,02250,1,03,1,00,1",,"01,9",,,,"99999,9,10127,1","7,1,014,1,-004,1",,,"SYN100AAXX  11211 76458 32868 32603 10260 20193 30127 40132 57014 83030 92048 333 30/// 56/9/ 59004 83364;","Q01  00002PRCP06"
"76458099999","2004-03-12T00:00:00","4","23.2","-106.4166666","4.0","COLONIA JUAN CARRASCO MAZATLAN SIN., MX","FM-12","99999","V020","250,1,N,0030,1","02100,1,9,N","018000,1,N,1","+0244,1","+0195,1","10122,1","06,0000,9,1","24,0000,9,1",,,,,,,,"05,99,1,05,1,00,1,02250,1,03,1,00,1",,"01,9",,"120,M,+0285,1","180,N,+0190,1","99999,9,10118,1","6,1,009,1,-010,1",,,"SYN124AAXX  12001 76458 32868 52503 10244 20195 30118 40122 56009 85030 92345 333 10285 20190 30/// 50381 56/9/ 59010 70000 85364;","Q01  00002PRCP06"
"76458099999","2004-03-12T03:00:00","4","23.2","-106.4166666","4.0","COLONIA JUAN CARRASCO MAZATLAN SIN., MX","FM-12","99999","V020","270,1,N,0020,1","22000,1,9,N","008000,1,N,1","+0226,1","+0177,1","10124,1","06,0000,9,1",,,,,,"00,1,+99999,9,99,9",,,"00,99,1,00,1,00,1,99999,9,00,1,00,1",,"01,9",,,,"99999,9,10119,1","5,1,001,1,-003,1",,,"SYN082AAXX  12031 76458 32958 02702 10226 20177 30119 40124 55001 90240 333 30/// 59003;","Q01  00002PRCP06"
"76458099999","2004-03-12T06:00:00","4","23.2","-106.4166666","4.0","COLONIA JUAN CARRASCO MAZATLAN SIN., MX","FM-12","99999","V020","270,1,N,0010,1","22000,1,9,N","008000,1,N,1","+0218,1","+0203,1","10137,1","06,0000,9,1",,,,,,,,,"01,99,1,01,1,01,1,00150,1,99,9,99,9","0522,9","01,9",,"240,M,+0285,1","240,N,+0190,1","99999,9,10132,1","2,1,013,1,+999,9",,,"SYN122AAXX  12061 76458 32258 12701 10218 20203 30132 40137 52013 811// 90530 333 10285 20190 30/// 55087 21199 565//9002 81806;","Q01  00002PRCP06"
"76458099999","2004-03-12T12:00:00","4","23.2","-106.4166666","4.0","COLONIA JUAN CARRASCO MAZATLAN SIN., MX","FM-12","99999","V020","999,9,C,0000,1","22000,1,9,N","008000,1,N,1","+0202,1","+0187,1","10128,1","06,0000,9,1",,,,,,"03,1,+02400,9,03,9",,,"03,99,1,99,9,00,1,99999,9,05,1,00,1",,"01,9","999,+0180,9","999,M,+0285,1","120,N,+0196,1","99999,9,10124,1","4,1,000,1,+003,1",,,"SYN112AAXX  12121 76458 32958 30000 10202 20187 30124 40128 54001 80050 91138 333 10285 20196 30018 56090 58003 83358;","Q01+000002SCOTLCQ02  00002PRCP06"
"76458099999","2004-03-12T15:00:00","4","23.2","-106.4166666","4.0","COLONIA JUAN CARRASCO MAZATLAN SIN., MX","FM-12","99999","V020","120,1,N,0010,1","22000,1,9,N","004000,1,N,1","+0212,1","+0191,1","10143,1","06,0000,9,1",,,,"4,1,03,1","4,1,03,1","05,1,+02400,9,03,9",,,"99,99,9,04,1,00,1,99999,9,03,1,00,1",,"01,9",,,,"99999,9,10138,1","2,1,015,1,+000,1","10,1",,"SYN106AAXX  12151 76458 31940 41201 10212 20191 30138 40143 52015 71044 84030 91448 333 30/// 56/0/ 58000 85358;","Q01+000042SCOTCVQ02  00002PRCP06"
"76458099999","2004-03-12T18:00:00","4","23.2","-106.4166666","4.0","COLONIA JUAN CARRASCO MAZATLAN SIN., MX","FM-12","99999","V020","250,1,N,0030,1","22000,1,9,N","015000,1,N,1","+0242,1","+0192,1","10145,1","06,0000,9,1",,,,,,"00,1,+99999,9,99,9",,,"00,99,1,00,1,00,1,99999,9,00,1,00,1",,"01,9",,"120,M,+0275,1","240,N,+0184,1","99999,9,10141,1","1,1,003,1,-001,1",,,"SYN094AAXX  12181 76458 32965 02503 10242 20192 30141 40145 51003 91748 333 10275 20184 30/// 59001;","Q01  00002PRCP06"
"76458099999","2004-03-19T21:00:00","4","23.2","-106.4166666","4.0","COLONIA JUAN CARRASCO MAZATLAN SIN., MX","FM-12","99999","V020","280,1,N,0030,1","00570,1,9,N","018000,1,N,1","+0244,1","+0198,1","10105,1","06,0000,9,1",,,,,,"05,1,+00570,9,06,9",,,"05,99,1,05,1,05,1,00450,1,00,1,00,1",,"01,9",,,,"99999,9,10103,1","7,1,021,1,-004,1",,,"SYN100AAXX  19211 76458 32468 52803 10244 20198 30103 40105 57021 85500 92038 333 30/// 56600 59004 85619;","Q01  00002PRCP06"
"76458099999","2004-03-20T00:00:00","4","23.2","-106.4166666","4.0","COLONIA JUAN CARRASCO MAZATLAN SIN., MX","FM-12","99999","V020","300,1,N,0040,1","00750,1,9,N","018000,1,N,1","+0256,1","+0185,1","10103,1","06,0000,9,1","24,0000,9,1",,,,,,,,"05,99,1,05,1,05,1,00800,1,00,1,00,1",,"01,9",,"120,M,+0280,1","180,N,+0185,1","99999,9,10098,1","7,1,005,1,-006,1",,,"SYN124AAXX  20001 76458 32568 53004 10256 20185 30098 40103 57005 85500 92350 333 10280 20185 30/// 53411 56600 59006 70000 85630;","Q01  00002PRCP06"
"76458099999","2004-03-20T03:00:00","4","23.2","-106.4166666","4.0","COLONIA JUAN CARRASCO MAZATLAN SIN., MX","FM-12","99999","V020","300,1,N,0020,1","22000,1,9,N","010000,1,N,1","+0243,1","+0184,1","10109,1","06,0000,9,1",,,,,,"00,1,+99999,9,99,9",,,"00,99,1,00,1,00,1,99999,9,00,1,00,1",,"01,9",,,,"99999,9,10105,1","2,1,007,1,-009,1",,,"SYN082AAXX  20030 76458 32960 03002 10243 20184 30105 40109 52007 90245 333 30/// 59009;","Q01  00002PRCP06"
"76458099999","2004-03-20T06:00:00","4","23.2","-106.4166666","4.0","COLONIA JUAN CARRASCO MAZATLAN SIN., MX","FM-12","99999","V020","999,9,C,0000,1","22000,1,9,N","010000,1,N,1","+0220,1","+0194,1","10118,1","06,0000,9,1",,,,,,"00,1,+99999,9,99,9",,,"00,99,1,00,1,00,1,99999,9,00,1,00,1","0444,9","01,9",,"240,M,+0280,1","240,N,+0185,1","99999,9,10113,1","2,1,008,1,+999,9",,,"SYN106AAXX  20061 76458 32960 00000 10220 20194 30113 40118 52008 90545 333 10280 20185 30/// 55074 20944 59011;","Q01  00002PRCP06"
"76458099999","2004-03-20T15:00:00","4","23.2","-106.4166666","4.0","COLONIA JUAN CARRASCO MAZATLAN SIN., MX","FM-12","99999","V020","999,9,C,0000,1","22000,1,9,N","012000,1,N,1","+0220,1","+0194,1","10132,1","06,0000,9,1",,,,,,"03,1,+06600,9,02,9",,,"03,99,1,00,1,00,1,99999,9,00,1,06,1",,"01,9",,,,"99999,9,10127,1","4,1,000,1,-003,1",,,"SYN094AAXX  20151 76458 32962 30000 10220 20194 30127 40132 54000 80006 91448 333 30/// 59003 83272;","Q01  00002PRCP06"
"76458099999","2004-03-20T21:00:00","4","23.2","-106.4166666","4.0","COLONIA JUAN CARRASCO MAZATLAN SIN., MX","FM-12","99999","V020","240,1,N,0030,1","22000,1,9,N","016000,1,N,1","+0288,1","+0193,1","10129,1","06,0000,9,1",,,,,,"02,1,+08700,9,00,9",,,"02,99,1,00,1,00,1,99999,9,00,1,05,1",,"01,9",,,,"99999,9,10125,1","7,1,011,1,+021,1",,,"SYN100AAXX  20211 76458 32966 22403 10288 20193 30125 40129 57011 80005 92056 333 30/// 56009 58021 82079;","Q01  00002PRCP06"
"76458099999","2004-03-21T00:00:00","4","23.2","-106.4166666","4.0","COLONIA JUAN CARRASCO MAZATLAN SIN., MX","FM-12","99999","V020","220,1,N,0030,1","22000,1,9,N","018000,1,N,1","+0257,1","+0216,1","10116,1","06,0000,9,1","24,0000,9,1",,,,,,,,"02,99,1,00,1,00,1,99999,9,00,1,05,1",,"01,9",,"120,M,+0305,1","180,N,+0190,1","99999,9,10111,1","7,1,013,1,+014,1",,,"SYN124AAXX  21001 76458 32968 22203 10257 20216 30111 40116 57013 80005 92350 333 10305 20190 30/// 50411 56009 58014 70000 82079;","Q01  00002PRCP06"
"76458099999","2004-03-21T03:00:00","4","23.2","-106.4166666","4.0","COLONIA JUAN CARRASCO MAZATLAN SIN., MX","FM-12","99999","V020","999,9,C,0000,1","22000,1,9,N","010000,1,N,1","+0237,1","+0218,1","10122,1","06,0000,9,1",,,,,,"00,1,+99999,9,99,9",,,"00,99,1,00,1,00,1,99999,9,00,1,00,1",,"01,9",,,,"99999,9,10118,1","3,1,007,1,+013,1",,,"SYN082AAXX  21031 76458 32960 00000 10237 20218 30118 40122 53007 90248 333 30/// 58013;","Q01  00002PRCP06"
"76458099999","2004-03-21T06:00:00","4","23.2","-106.4166666","4.0","COLONIA JUAN CARRASCO MAZATLAN SIN., MX","FM-12","99999","V020","999,9,C,0000,1","22000,1,9,N","010000,1,N,1","+0225,1","+0213,1","10133,1","06,0000,9,1",,,,,,"00,1,+99999,9,99,9",,,"00,99,1,00,1,00,1,99999,9,00,1,00,1","0576,9","01,9",,"240,M,+0305,1","240,N,+0190,1","99999,9,10128,1","2,1,010,1,+999,9",,,"SYN106AAXX  21061 76458 32960 00000 10225 20213 30128 40133 52010 90545 333 10305 20190 30/// 55096 21122 58015;","Q01  00002PRCP06"
"76458099999","2004-03-21T15:00:00","4","23.2","-106.4166666","4.0","COLONIA JUAN CARRASCO MAZATLAN SIN., MX","FM-12","99999","V020","999,9,9,9999,9","99999,9,9,N","999999,9,N,1","+9999,9","+9999,9","99999,9",,,,,,,,,,,,,,,,,,,,"SYN098AAXX  21151 76458 31/01 902 10205 20201 30116 40121 5//// 74744 89/// 91450 333 30/// 59011 89///;",
"76458099999","2004-03-21T18:00:00","4","23.2","-106.4166666","4.0","COLONIA JUAN CARRASCO MAZATLAN SIN., MX","FM-12","99999","V020","180,1,N,0020,1","22000,1,9,N","014000,1,N,1","+0260,1","+0198,1","10115,1","06,0000,9,1",,,,"4,1,06,1","4,1,06,1","00,1,+99999,9,99,9",,,"00,99,1,00,1,00,1,99999,9,00,1,00,1",,"01,9",,"120,M,+0276,1","240,N,+0199,1","99999,9,10110,1","7,1,006,1,-026,1","05,1",,"SYN100AAXX  21181 76458 32964 01802 10260 20198 30110 40115 57006 70544 91750 333 10276 20199 30/// 59026;","Q01  00002PRCP06"
"76458099999","2004-03-21T21:00:00","4","23.2","-106.4166666","4.0","COLONIA JUAN CARRASCO MAZATLAN SIN., MX","FM-12","99999","V020","270,1,N,0020,1","22000,1,9,N","018000,1,N,1","+0270,1","+0192,1","10093,1","06,0000,9,1",,,,,,"00,1,+99999,9,99,9",,,"00,99,1,00,1,00,1,99999,9,00,1,00,1",,"01,9",,,,"99999,9,10088,1","7,1,022,1,-037,1",,,"SYN082AAXX  21211 76458 32968 02702 10270 20192 30088 40093 57022 92046 333 30/// 59037;","Q01  00002PRCP06"
"76458099999","2004-03-22T00:00:00","4","23.2","-106.4166666","4.0","COLONIA JUAN CARRASCO MAZATLAN SIN., MX","FM-12","99999","V020","270,1,N,0020,1","22000,1,9,N","018000,1,N,1","+0260,1","+0209,1","10077,1","06,0000,9,1",,,,,,"00,1,+99999,9,99,9",,,"00,99,1,00,1,00,1,99999,9,00,1,00,1",,"01,9",,"120,M,+0300,1","180,N,+0199,1","99999,9,10072,1","7,1,016,1,-039,1",,,"SYN100AAXX  22001 76458 32968 02702 10260 20209 30072 40077 57016 92335 333 10300 20199 30/// 53051 59039;","Q01  00002PRCP06"
"76458099999","2004-03-22T03:00:00","4","23.2","-106.4166666","4.0","COLONIA JUAN CARRASCO MAZATLAN SIN., MX","FM-12","99999","V020","270,1,N,0010,1","22000,1,9,N","010000,1,N,1","+0235,1","+0214,1","99999,9","06,0000,9,1",,,,,,"00,1,+99999,9,99,9",,,"00,99,1,00,1,00,1,99999,9,00,1,00,1",,"01,9",,,,"99999,9,10085,1","2,1,013,1,-033,1",,,"SYN082AAXX  22031 76458 32960 02701 10235 20214 30085 40189 52013 90250 333 30/// 59033;","Q01+101893APOSLPQ02  00002PRCP06"
"76458099999","2004-03-22T06:00:00","4","23.2","-106.4166666","4.0","COLONIA JUAN CARRASCO MAZATLAN SIN., MX","FM-12","99999","V020","130,1,N,0010,1","22000,1,9,N","010000,1,N,1","+0228,1","+0215,1","10102,1","06,0000,9,1",,,,,,"00,1,+99999,9,99,9",,,"00,99,1,00,1,00,1,99999,9,00,1,00,1","0522,9","01,9",,"240,M,+0300,1","240,N,+0199,1","99999,9,10097,1","2,1,012,1,+999,9",,,"SYN106AAXX  22061 76458 32960 01301 10228 20215 30097 40102 52012 90545 333 10300 20199 30/// 55087 21130 59031;","Q01  00002PRCP06"
"76458099999","2004-03-22T15:00:00","4","23.2","-106.4166666","4.0","COLONIA JUAN CARRASCO MAZATLAN SIN., MX","FM-12","99999","V020","140,1,N,0010,1","00030,1,9,N","000200,1,N,1","+0206,1","+0199,1","10105,1","06,0000,9,1",,,,"4,1,03,1","4,1,03,1","09,1,+99999,9,99,9",,,"09,99,1,09,1,99,9,99999,9,99,9,99,9",,"01,9",,,,"99999,9,10101,1","9,9,999,9,-015,1","43,1",,"SYN088AAXX  22151 76458 31902 91401 10206 20199 30101 40105 5//// 74344 91452 333 30/// 59015;","Q01  00002PRCP06"
"76458099999","2004-03-22T18:00:00","4","23.2","-106.4166666","4.0","COLONIA JUAN CARRASCO MAZATLAN SIN., MX","FM-12","99999","V020","160,1,N,0030,1","22000,1,9,N","010000,1,N,1","+0254,1","+0202,1","10117,1","06,0000,9,1",,,,,,"00,1,+99999,9,99,9",,,"00,99,1,00,1,00,1,99999,9,00,1,00,1",,"01,9",,"120,M,+0270,1","240,N,+0202,1","99999,9,10113,1","1,1,012,1,+003,1",,,"SYN094AAXX  22181 76458 32960 01603 10254 20202 30113 40117 51012 91748 333 10270 20202 30/// 58003;","Q01  00002PRCP06"
"76458099999","2004-03-22T21:00:00","4","23.2","-106.4166666","4.0","COLONIA JUAN CARRASCO MAZATLAN SIN., MX","FM-12","99999","V020","240,1,N,0020,1","22000,1,9,N","020000,1,N,1","+0260,1","+0212,1","10113,1","06,0000,9,1",,,,,,"01,1,+00180,9,08,9",,,"01,99,1,01,1,02,1,00450,1,00,1,00,1",,"01,9",,,,"99999,9,10109,1","8,1,004,1,+021,1",,,"SYN100AAXX  22211 76458 32470 12402 10260 20212 30109 40113 58004 81200 92058 333 30/// 56100 58021 81806;","Q01  00002PRCP06"
"76458099999","2004-03-23T00:00:00","4","23.2","-106.4166666","4.0","COLONIA JUAN CARRASCO MAZATLAN SIN., MX","FM-12","99999","V020","020,1,N,9999,9","22000,1,9,N","000300,1,N,1","+9999,9","+9999,9","10105,1","24,0000,9,1",,,,,,,,,"01,99,1,01,1,03,1,00450,1,00,1,00,1",,"01,9",,"120,M,+0282,1","180,N,+0202,1","99999,9,10101,1","7,1,008,1,+029,1",,,"SYN118AAXX  23001 76458 12403 10257 20207 30101 40105 57008 81300 92345 333 10282 20202 30/// 50551 56100 58029 70000 81921;","Q01+005703WOSPD "
"76458099999","2004-03-23T03:00:00","4","23.2","-106.4166666","4.0","COLONIA JUAN CARRASCO MAZATLAN SIN., MX","FM-12","99999","V020","999,9,C,0000,1","22000,1,9,N","008000,1,N,1","+0238,1","+0102,1","10112,1","06,0000,9,1",,,,,,"00,1,+99999,9,99,9",,,"00,99,1,00,1,00,1,99999,9,00,1,00,1",,"01,9",,,,"99999,9,10107,1","2,1,006,1,+022,1",,,"SYN082AAXX  23031 76458 32958 00000 10238 20102 30107 40112 52006 90245 333 30/// 58022;","Q01  00002PRCP06"
"76458099999","2004-03-23T06:00:00","4","23.2","-106.4166666","4.0","COLONIA JUAN CARRASCO MAZATLAN SIN., MX","FM-12","99999","V020","090,1,N,0010,1","22000,1,9,N","008000,1,N,1","+0227,1","+0205,1","10133,1","06,0000,9,1",,,,,,"00,1,+99999,9,99,9",,,"00,99,1,00,1,00,1,99999,9,00,1,00,1","0540,9","01,9",,"240,M,+0282,1","240,N,+0202,1","99999,9,10128,1","2,1,021,1,+999,9",,,"SYN106AAXX  23061 76458 32958 00901 10227 20205 30128 40133 52021 90532 333 10282 20202 30/// 55090 21130 58029;","Q01  00002PRCP06"
"76458099999","2004-03-23T15:00:00","4","23.2","-106.4166666","4.0","COLONIA JUAN CARRASCO MAZATLAN SIN., MX","FM-12","99999","V020","050,1,N,0010,1","22000,1,9,N","012000,1,N,1","+0232,1","+0181,1","10139,1","06,0000,9,1",,,,,,"00,1,+99999,9,99,9",,,"00,99,1,00,1,00,1,99999,9,00,1,00,1",,"01,9",,,,"99999,9,10134,1","9,9,999,9,+033,1",,,"SYN082AAXX  23151 76458 32962 00501 10232 20181 30134 40139 5//// 91448 333 30/// 58033;","Q01  00002PRCP06"
"76458099999","2004-03-23T18:00:00","4","23.2","-106.4166666","4.0","COLONIA JUAN CARRASCO MAZATLAN SIN., MX","FM-12","99999","V020","160,1,N,0030,1","22000,1,9,N","018000,1,N,1","+0260,1","+0195,1","10143,1","06,0000,9,1",,,,,,"00,1,+99999,9,99,9",,,"00,99,1,00,1,00,1,99999,9,00,1,00,1",,"01,9",,"120,M,+0283,1","240,N,+0182,1","99999,9,10139,1","0,1,005,1,+026,1",,,"SYN094AAXX  23181 76458 32968 01603 10260 20195 30139 40143 50005 91748 333 10283 20182 30/// 58026;","Q01  00002PRCP06"
"76458099999","2004-03-23T21:00:00","4","23.2","-106.4166666","4.0","COLONIA JUAN CARRASCO MAZATLAN SIN., MX","FM-12","99999","V020","240,1,N,0030,1","22000,1,9,N","020000,1,N,1","+0254,1","+0213,1","10127,1","06,0000,9,1",,,,,,"00,1,+99999,9,99,9",,,"00,99,1,00,1,00,1,99999,9,00,1,00,1",,"01,9",,,,"99999,9,10123,1","7,1,016,1,+014,1",,,"SYN082AAXX  23211 76458 32970 02403 10254 20213 30123 40127 57016 92050 333 30/// 58014;","Q01  00002PRCP06"
"76458099999","2004-03-24T00:00:00","4","23.2","-106.4166666","4.0","COLONIA JUAN CARRASCO MAZATLAN SIN., MX","FM-12","99999","V020","290,1,N,0030,1","22000,1,9,N","020000,1,N,1","+0257,1","+0209,1","10126,1","06,0000,9,1","24,0000,9,1",,,,,"00,1,+99999,9,99,9",,,"00,99,1,00,1,00,1,99999,9,00,1,00,1",,"01,9",,"120,M,+0300,1","180,N,+0182,1","99999,9,10117,1","5,1,006,1,+016,1",,,"SYN106AAXX  24001 76458 32970 02903 10257 20209 30117 40126 55006 92350 333 10300 20182 30/// 50481 58016 70000;","Q01  00002PRCP06Q02  00002PRCP24"
"76458099999","2004-03-24T03:00:00","4","23.2","-106.4166666","4.0","COLONIA JUAN CARRASCO MAZATLAN SIN., MX","FM-12","99999","V020","330,1,N,0040,1","22000,1,9,N","010000,1,N,1","+0232,1","+0205,1","10132,1","06,0000,9,1",,,,,,"01,1,+00330,9,06,9",,,"01,99,1,01,1,04,1,00450,1,00,1,00,1",,"01,9",,,,"99999,9,10127,1","2,1,010,1,+020,1",,,"SYN100AAXX  24031 76458 32460 13304 10232 20205 30127 40132 52010 81400 90245 333 30/// 566// 58020 81611;","Q01  00002PRCP06"
"76458099999","2004-03-24T06:00:00","4","23.2","-106.4166666","4.0","COLONIA JUAN CARRASCO MAZATLAN SIN., MX","FM-12","99999","V020","320,1,N,0010,1","22000,1,9,N","010000,1,N,1","+0217,1","+0187,1","10139,1","06,0000,9,1",,,,,,"00,1,+99999,9,99,9",,,"00,99,1,00,1,00,1,99999,9,00,1,00,1","0636,9","01,9",,"240,M,+0300,1","240,N,+0182,1","99999,9,10134,1","2,1,007,1,+999,9",,,"SYN106AAXX  24061 76458 32960 03201 10217 20187 30134 40139 52007 90545 333 10300 20182 30/// 55106 21300 58006;","Q01  00002PRCP06"
"76458099999","2004-03-24T09:00:00","4","23.2","-106.4166666","4.0","COLONIA JUAN CARRASCO MAZATLAN SIN., MX","FM-12","99999","V020","999,9,C,0000,1","22000,1,9,N","008000,1,N,1","+0194,1","+0170,1","10133,1","06,0000,9,1",,,,,,"00,1,+99999,9,99,9",,,"00,99,1,00,1,00,1,99999,9,00,1,00,1",,"01,9",,,,"99999,9,10128,1","7,1,006,1,+999,9",,,"SYN082AAXX  24091 76458 32958 00000 10194 20170 30128 40133 57006 90838 333 30/// 58///;","Q01  00002PRCP06"
"76458099999","2004-03-24T12:00:00","4","23.2","-106.4166666","4.0","COLONIA JUAN CARRASCO MAZATLAN SIN., MX","FM-12","99999","V020","999,9,C,0000,1","22000,1,9,N","010000,1,N,1","+0180,1","+0171,1","10126,1","06,0000,9,1","24,0000,9,1",,,,,"00,1,+99999,9,99,9",,,"00,99,1,00,1,00,1,99999,9,00,1,00,1",,"01,9","999,+0170,9","999,M,+0300,1","120,N,+0180,1","99999,9,10121,1","7,1,007,1,+999,9",,,"SYN100AAXX  24121 76458 32960 00000 10180 20171 30121 40126 57007 91138 333 10300 20180 30017 58/// 70000;","Q01  00002PRCP06Q02  00002PRCP24"
"76458099999","2004-03-24T15:00:00","4","23.2","-106.4166666","4.0","COLONIA JUAN CARRASCO MAZATLAN SIN., MX","FM-12","99999","V020","999,9,C,0000,1","22000,1,9,N","012000,1,N,1","+0218,1","+0159,1","10140,1","06,0000,9,1",,,,,,"00,1,+99999,9,99,9",,,"00,99,1,00,1,00,1,99999,9,00,1,00,1",,"01,9",,,,"99999,9,10135,1","1,1,014,1,+001,1",,,"SYN082AAXX  24151 76458 32962 00000 10218 20159 30135 40140 51014 91445 333 30/// 58001;","Q01  00002PRCP06"
"76458099999","2004-03-24T18:00:00","4","23.2","-106.4166666","4.0","COLONIA JUAN CARRASCO MAZATLAN SIN., MX","FM-12","99999","V020","240,1,N,0030,1","22000,1,9,N","018000,1,N,1","+0250,1","+0195,1","10142,1","06,0000,9,1",,,,,,"00,1,+99999,9,99,9",,,"00,99,1,00,1,00,1,99999,9,00,1,00,1",,"01,9",,"120,M,+0275,1","240,N,+0166,1","99999,9,10138,1","1,1,003,1,-001,1",,,"SYN094AAXX  24181 76458 32968 02403 10250 20195 30138 40142 51003 91745 333 10275 20166 30/// 59001;","Q01  00002PRCP06"
"76458099999","2004-03-25T00:00:00","4","23.2","-106.4166666","4.0","COLONIA JUAN CARRASCO MAZATLAN SIN., MX","FM-12","99999","V020","280,1,N,0040,1","22000,1,9,N","020000,1,N,1","+0268,1","+0197,1","10120,1","06,0000,9,1","24,0000,9,1",,,,,"00,1,+99999,9,99,9",,,"00,99,1,00,1,00,1,99999,9,00,1,00,1",,"01,9",,"120,M,+0283,1","180,N,+0166,1","99999,9,10115,1","6,1,008,1,-001,1",,,"SYN106AAXX  25001 76458 32970 02804 10268 20197 30115 40120 56008 92350 333 10283 20166 30/// 50451 59001 70000;","Q01  00002PRCP06Q02  00002PRCP24"
"76458099999","2004-03-25T03:00:00","4","23.2","-106.4166666","4.0","COLONIA JUAN CARRASCO MAZATLAN SIN., MX","FM-12","99999","V020","320,1,N,0020,1","22000,1,9,N","010000,1,N,1","+0236,1","+0203,1","10128,1","06,0000,9,1",,,,,,"00,1,+99999,9,99,9",,,"00,99,1,00,1,00,1,99999,9,00,1,00,1",,"01,9",,,,"99999,9,10123,1","2,1,008,1,-004,1",,,"SYN082AAXX  25031 76458 32960 03202 10236 20203 30123 40128 52008 90245 333 30/// 59004;","Q01  00002PRCP06"
"76458099999","2004-03-25T06:00:00","4","23.2","-106.4166666","4.0","COLONIA JUAN CARRASCO MAZATLAN SIN., MX","FM-12","99999","V020","330,1,N,0020,1","22000,1,9,N","010000,1,N,1","+0216,1","+0194,1","10140,1","06,0000,9,1",,,,,,"00,1,+99999,9,99,9",,,"00,99,1,00,1,00,1,99999,9,00,1,00,1","0648,9","01,9",,"240,M,+0283,1","240,N,+0166,1","99999,9,10135,1","2,1,012,1,+999,9",,,"SYN106AAXX  25061 76458 32960 03302 10216 20194 30135 40140 52012 90540 333 10283 20166 30/// 55108 21308 58001;","Q01  00002PRCP06"
"76458099999","2004-03-25T12:00:00","4","23.2","-106.4166666","4.0","COLONIA JUAN CARRASCO MAZATLAN SIN., MX","FM-12","99999","V020","120,1,N,0010,1","22000,1,9,N","010000,1,N,1","+0174,1","+0135,1","10135,1","06,0000,9,1",,,,,,"00,1,+99999,9,99,9",,,"00,99,1,00,1,00,1,99999,9,00,1,00,1",,"01,9","999,+0170,9","999,M,+0283,1","120,N,+9999,9","99999,9,10131,1","4,1,000,1,-010,1",,,"SYN094AAXX  25121 76458 32960 01201 10174 20135 30131 40135 54001 91138 333 10283 20185 30017 59010;","Q01  00002PRCP06Q02 +01852ATMN  "
"76458099999","2004-03-25T15:00:00","4","23.2","-106.4166666","4.0","COLONIA JUAN CARRASCO MAZATLAN SIN., MX","FM-12","99999","V020","120,1,N,0020,1","22000,1,9,N","013000,1,N,1","+0220,1","+0133,1","10152,1","06,0000,9,1",,,,,,"00,1,+99999,9,99,9",,,"00,99,1,00,1,00,1,99999,9,00,1,00,1",,"01,9",,,,"99999,9,10147,1","2,1,016,1,+012,1",,,"SYN082AAXX  25151 76458 32963 01202 10220 20133 30147 40152 52016 91442 333 30/// 58012;","Q01  00002PRCP06"
"76458099999","2004-03-25T21:00:00","4","23.2","-106.4166666","4.0","COLONIA JUAN CARRASCO MAZATLAN SIN., MX","FM-12","99999","V020","250,1,N,0030,1","22000,1,9,N","020000,1,N,1","+0265,1","+0220,1","10140,1","06,0000,9,1",,,,,,"00,1,+99999,9,99,9",,,"00,99,1,00,1,00,1,99999,9,00,1,00,1",,"01,9",,,,"99999,9,10136,1","7,1,011,1,+012,1",,,"SYN082AAXX  25211 76458 32970 02503 10265 20220 30136 40140 57011 92055 333 30/// 58012;","Q01  00002PRCP06"
"76458099999","2004-03-26T00:00:00","4","23.2","-106.4166666","4.0","COLONIA JUAN CARRASCO MAZATLAN SIN., MX","FM-12","99999","V020","280,1,N,0030,1","22000,1,9,N","020000,1,N,1","+0265,1","+0194,1","10124,1","06,0000,9,1","24,0000,9,1",,,,,"01,1,+08700,9,00,9",,,"01,99,1,00,1,00,1,99999,9,00,1,05,1",,"01,9",,"120,M,+0309,1","180,N,+0161,1","99999,9,10120,1","7,1,016,1,+999,9",,,"SYN118AAXX  26001 76458 32970 12803 10265 20194 30120 40124 57016 80005 92350 333 10309 20161 30/// 50601 56004 70000 81079;","Q01  00002PRCP06"
"76458099999","2004-03-26T03:00:00","4","23.2","-106.4166666","4.0","COLONIA JUAN CARRASCO MAZATLAN SIN., MX","FM-12","99999","V020","250,1,N,0020,1","22000,1,9,N","010000,1,N,1","+0235,1","+0211,1","10132,1","06,0000,9,1",,,,,,"00,1,+99999,9,99,9",,,"00,99,1,00,1,00,1,99999,9,00,1,00,1",,"01,9",,,,"99999,9,10127,1","2,1,007,1,+004,1",,,"SYN082AAXX  26031 76458 32960 02502 10235 20211 30127 40132 52007 90245 333 30/// 58004;","Q01  00002PRCP06"
"76458099999","2004-03-26T06:00:00","4","23.2","-106.4166666","4.0","COLONIA JUAN CARRASCO MAZATLAN SIN., MX","FM-12","99999","V020","999,9,C,0000,1","22000,1,9,N","010000,1,N,1","+0219,1","+0202,1","10140,1","06,0000,9,1",,,,,,"00,1,+99999,9,99,9",,,"00,99,1,00,1,00,1,99999,9,00,1,00,1","0654,9","01,9",,"240,M,+0309,1","240,N,+0161,1","99999,9,10136,1","2,1,009,1,+999,9",,,"SYN106AAXX  26061 76458 32960 00000 10219 20202 30136 40140 52009 90540 333 10309 20161 30/// 55109 21292 58001;","Q01  00002PRCP06"
"76458099999","2004-03-26T12:00:00","4","23.2","-106.4166666","4.0","COLONIA JUAN CARRASCO MAZATLAN SIN., MX","FM-12","99999","V020","320,1,N,0010,1","22000,1,9,N","008000,1,N,1","+0176,1","+0112,1","10120,1","06,0000,9,1","24,0000,9,1",,,,,"00,1,+99999,9,99,9",,,"00,99,1,00,1,00,1,99999,9,00,1,00,1",,"01,9","999,+0160,9","999,M,+0309,1","120,N,+0170,1","99999,9,10116,1","7,1,014,1,+015,1",,,"SYN100AAXX  26121 76458 32958 03201 10176 20112 30116 40120 57014 91148 333 10309 20170 30016 58015 70000;","Q01  00002PRCP06Q02  00002PRCP24"
"76458099999","2004-03-26T15:00:00","4","23.2","-106.4166666","4.0","COLONIA JUAN CARRASCO MAZATLAN SIN., MX","FM-12","99999","V020","150,1,N,0010,1","22000,1,9,N","013000,1,N,1","+0224,1","+0138,1","10137,1","06,0000,9,1",,,,,,"01,1,+06000,9,00,9",,,"01,99,1,00,1,00,1,99999,9,00,1,04,1",,"01,9",,,,"99999,9,10132,1","1,1,016,1,-015,1",,,"SYN100AAXX  26151 76458 32963 11501 10224 20138 30132 40137 51016 80004 91448 333 30/// 56//0 59015 81070;","Q01  00002PRCP06"
"76458099999","2004-03-26T18:00:00","4","23.2","-106.4166666","4.0","COLONIA JUAN CARRASCO MAZATLAN SIN., MX","FM-12","99999","V020","190,1,N,0030,1","22000,1,9,N","018000,1,N,1","+0262,1","+0132,1","10138,1","06,0000,9,1",,,,,,"01,1,+06000,9,00,9",,,"01,99,1,00,1,00,1,99999,9,00,1,01,1",,"01,9",,"120,M,+0290,1","240,N,+0156,1","99999,9,10133,1","0,1,001,1,-013,1",,,"SYN112AAXX  26181 76458 32968 11903 10262 20132 30133 40138 50001 80001 91745 333 10290 20156 30/// 56//0 59013 81070;","Q01  00002PRCP06"
"76458099999","2004-03-26T21:00:00","4","23.2","-106.4166666","4.0","COLONIA JUAN CARRASCO MAZATLAN SIN., MX","FM-12","99999","V020","260,1,N,0040,1","22000,1,9,N","018000,1,N,1","+0259,1","+0214,1","10125,1","06,0000,9,1",,,,,,"00,1,+99999,9,99,9",,,"00,99,1,00,1,00,1,99999,9,00,1,00,1",,"01,9",,,,"99999,9,10120,1","7,1,013,1,+015,1",,,"SYN082AAXX  26211 76458 32968 02604 10259 20214 30120 40125 57013 92040 333 30/// 58015;","Q01  00002PRCP06"
"76458099999","2004-03-27T03:00:00","4","23.2","-106.4166666","4.0","COLONIA JUAN CARRASCO MAZATLAN SIN., MX","FM-12","99999","V020","300,1,N,0030,1","22000,1,9,N","010000,1,N,1","+0232,1","+0213,1","10120,1","06,0000,9,1",,,,,,"01,1,+00240,9,06,9",,,"01,99,1,01,1,04,1,00250,1,00,1,00,1",,"01,9",,,,"99999,9,10115,1","2,1,007,1,-012,1",,,"SYN100AAXX  27031 76458 32360 13003 10232 20213 30115 40120 52007 81400 90248 333 30/// 566// 59012 81608;","Q01  00002PRCP06"
"76458099999","2004-03-27T06:00:00","4","23.2","-106.4166666","4.0","COLONIA JUAN CARRASCO MAZATLAN SIN., MX","FM-12","99999","V020","340,1,N,0020,1","22000,1,9,N","010000,1,N,1","+0213,1","+0188,1","10124,1","06,0000,9,1",,,,,,"00,1,+99999,9,99,9",,,"00,99,1,00,1,00,1,99999,9,00,1,00,1","0654,9","01,9",,"240,M,+0292,1","240,N,+0156,1","99999,9,10119,1","0,1,004,1,+999,9",,,"SYN106AAXX  27061 76458 32960 03402 10213 20188 30119 40124 50004 90545 333 10292 20156 30/// 55109 21377 59017;","Q01  00002PRCP06"
"76458099999","2004-03-27T15:00:00","4","23.2","-106.4166666","4.0","COLONIA JUAN CARRASCO MAZATLAN SIN., MX","FM-12","99999","V020","999,9,C,0000,1","22000,1,9,N","015000,1,N,1","+0228,1","+9999,9","10116,1","06,0000,9,1",,,,"4,1,03,1","4,1,03,1","00,1,+99999,9,99,9",,,"00,99,1,00,1,00,1,99999,9,00,1,00,1",,"01,9",,,,"99999,9,10111,1","9,9,999,9,-013,1","05,1",,"SYN088AAXX  27151 76458 31965 00000 10228 2//// 30111 40116 5//// 70544 91455 333 30/// 59013;","Q01  00002PRCP06"
"76458099999","2004-03-27T21:00:00","4","23.2","-106.4166666","4.0","COLONIA JUAN CARRASCO MAZATLAN SIN., MX","FM-12","99999","V020","270,1,N,0030,1","22000,1,9,N","020000,1,N,1","+0255,1","+0211,1","10110,1","06,0000,9,1",,,,,,"01,1,+00540,9,08,9",,,"01,99,1,01,1,01,1,00450,1,00,1,00,1",,"01,9",,,,"99999,9,10106,1","7,1,011,1,-014,1",,,"SYN094AAXX  27211 76458 32470 12703 10255 20211 30106 40110 57011 81100 92055 333 30/// 59014 81818;","Q01  00002PRCP06"
"76458099999","2004-03-28T00:00:00","4","23.2","-106.4166666","4.0","COLONIA JUAN CARRASCO MAZATLAN SIN., MX","FM-12","99999","V020","270,1,N,0050,1","22000,1,9,N","020000,1,N,1","+0255,1","+0205,1","10102,1","06,0000,9,1","24,0000,9,1",,,,,,,,"01,99,1,01,1,02,1,00800,1,00,1,00,1",,"01,9",,"120,M,+0280,1","180,N,+0179,1","99999,9,10097,1","7,1,008,1,-011,1",,,"SYN124AAXX  28001 76458 32570 12705 10255 20205 30097 40102 57008 81200 92350 333 10280 20179 30/// 50501 56100 59011 70000 81821;","Q01  00002PRCP06"
"76458099999","2004-03-28T03:00:00","4","23.2","-106.4166666","4.0","COLONIA JUAN CARRASCO MAZATLAN SIN., MX","FM-12","99999","V020","310,1,N,0030,1","22000,1,9,N","010000,1,N,1","+0235,1","+0197,1","10108,1","06,0000,9,1",,,,,,"00,1,+99999,9,99,9",,,"00,99,1,00,1,00,1,99999,9,00,1,00,1",,"01,9",,,,"99999,9,10104,1","2,1,007,1,-011,1",,,"SYN082AAXX  28031 76458 32960 03103 10235 20197 30104 40108 52007 90250 333 30/// 59011;","Q01  00002PRCP06"
"76458099999","2004-03-28T06:00:00","4","23.2","-106.4166666","4.0","COLONIA JUAN CARRASCO MAZATLAN SIN., MX","FM-12","99999","V020","340,1,N,0020,1","22000,1,9,N","010000,1,N,1","+0214,1","+0195,1","10115,1","06,0000,9,1",,,,,,"00,1,+99999,9,99,9",,,"00,99,1,00,1,00,1,99999,9,00,1,00,1","0642,9","01,9",,"240,M,+0280,1","240,N,+0179,1","99999,9,10110,1","2,1,006,1,+999,9",,,"SYN106AAXX  28061 76458 32960 03402 10214 20195 30110 40115 52006 90545 333 10280 20179 30/// 55107 21292 59009;","Q01  00002PRCP06"
"76458099999","2004-03-28T15:00:00","4","23.2","-106.4166666","4.0","COLONIA JUAN CARRASCO MAZATLAN SIN., MX","FM-12","99999","V020","120,1,N,0010,1","22000,1,9,N","012000,1,N,1","+0220,1","+0194,1","10128,1","06,0000,9,1",,,,,,"03,1,+02400,9,03,9",,,"03,99,1,99,9,00,1,99999,9,05,1,00,1",,"01,9",,,,"99999,9,10123,1","4,1,000,1,-009,1",,,"SYN100AAXX  28151 76458 32962 31201 10220 20194 30123 40128 54000 80050 91452 333 30/// 56090 59009 83358;","Q01+000002SCOTLCQ02  00002PRCP06"
"76458099999","2004-03-28T18:00:00","4","23.2","-106.4166666","4.0","COLONIA JUAN CARRASCO MAZATLAN SIN., MX","FM-12","99999","V020","180,1,N,0010,1","22000,1,9,N","018000,1,N,1","+0254,1","+0177,1","10132,1","06,0000,9,1",,,,,,"00,1,+99999,9,99,9",,,"00,99,1,00,1,00,1,99999,9,00,1,00,1",,"01,9",,"120,M,+0275,1","240,N,+0192,1","99999,9,10128,1","2,1,003,1,-011,1",,,"SYN094AAXX  28181 76458 32968 01801 10254 20177 30128 40132 52003 91740 333 10275 20192 30/// 59011;","Q01  00002PRCP06"
"76458099999","2004-03-28T21:00:00","4","23.2","-106.4166666","4.0","COLONIA JUAN CARRASCO MAZATLAN SIN., MX","FM-12","99999","V020","240,1,N,0030,1","22000,1,9,N","020000,1,N,1","+0258,1","+0194,1","10118,1","06,0000,9,1",,,,,,"01,1,+06000,9,00,9",,,"01,99,1,00,1,00,1,99999,9,00,1,06,1",,"01,9",,,,"99999,9,10114,1","7,1,014,1,+009,1",,,"SYN100AAXX  28211 76458 32970 12403 10258 20194 30114 40118 57014 80006 92048 333 30/// 56//9 58009 81070;","Q01  00002PRCP06"
"76458099999","2004-03-29T00:00:00","4","23.2","-106.4166666","4.0","COLONIA JUAN CARRASCO MAZATLAN SIN., MX","FM-12","99999","V020","270,1,N,0040,1","22000,1,9,N","020000,1,N,1","+0252,1","+0196,1","10108,1","06,0000,9,1","24,0000,9,1",,,,,,,,"04,99,1,00,1,00,1,99999,9,00,1,06,1",,"01,9",,"120,M,+0290,1","180,N,+0192,1","99999,9,10104,1","7,1,010,1,+007,1",,,"SYN124AAXX  29001 76458 32970 42704 10252 20196 30104 40108 57010 80006 92345 333 10290 20192 30/// 50451 56//9 58007 70000 84070;","Q01  00002PRCP06"
"76458099999","2004-03-29T06:00:00","4","23.2","-106.4166666","4.0","COLONIA JUAN CARRASCO MAZATLAN SIN., MX","FM-12","99999","V020","010,1,N,0010,1","22000,1,9,N","016000,1,N,1","+0224,1","+0104,1","10129,1","06,0000,9,1",,,,,,"00,1,+99999,9,99,9",,,"00,99,1,00,1,00,1,99999,9,00,1,00,1","0606,9","01,9",,"240,M,+0290,1","240,N,+0190,1","99999,9,10125,1","2,1,006,1,+999,9",,,"SYN106AAXX  29061 76458 32966 00101 10224 20104 30125 40129 52006 90540 333 10290 20190 30/// 55101 21114 58015;","Q01  00002PRCP06"
"76458099999","2004-03-29T15:00:00","4","23.2","-106.4166666","4.0","COLONIA JUAN CARRASCO MAZATLAN SIN., MX","FM-12","99999","V020","060,1,N,0020,1","06000,1,9,N","003000,1,N,1","+0216,1","+0192,1","10141,1","06,0000,9,1",,,,"4,1,03,1","4,1,03,1","05,1,+06000,9,02,9",,,"05,99,1,00,1,00,1,99999,9,00,1,06,1",,"01,9",,,,"99999,9,10137,1","2,1,006,1,+013,1","44,1",,"SYN106AAXX  29151 76458 31930 50602 10216 20192 30137 40141 52006 74444 80006 91448 333 30/// 56//0 58013 85270;","Q01  00002PRCP06"
"76458099999","2004-03-29T18:00:00","4","23.2","-106.4166666","4.0","COLONIA JUAN CARRASCO MAZATLAN SIN., MX","FM-12","99999","V020","250,1,N,0030,1","06000,1,9,N","013000,1,N,1","+0250,1","+0190,1","10137,1","06,0000,9,1",,,,,,"06,1,+06000,9,00,9",,,"06,99,1,00,1,00,1,99999,9,00,1,02,1",,"01,9",,"120,M,+0282,1","240,N,+0192,1","99999,9,10133,1","6,1,004,1,+004,1",,,"SYN112AAXX  29181 76458 32963 62503 10250 20190 30133 40137 56004 80002 91748 333 10282 20192 30/// 56//0 58004 86070;","Q01  00002PRCP06"
"76458099999","2004-03-29T21:00:00","4","23.2","-106.4166666","4.0","COLONIA JUAN CARRASCO MAZATLAN SIN., MX","FM-12","99999","V020","240,1,N,0030,1","09000,1,C,N","018000,1,N,1","+0255,1","+0197,1","10123,1","06,0000,9,1",,,,,,"01,1,+00720,9,08,9","01,1,+02700,9,03,9",,"06,99,1,01,1,02,1,00800,1,03,1,04,1",,"01,9",,,,"99999,9,10118,1","7,1,014,1,+005,1",,,"SYN112AAXX  29211 76458 32568 62403 10255 20197 30118 40123 57014 81234 92057 333 30/// 56199 58005 81824 81359 84079;","Q01  00002PRCP06"
"76458099999","2004-03-30T00:00:00","4","23.2","-106.4166666","4.0","COLONIA JUAN CARRASCO MAZATLAN SIN., MX","FM-12","99999","V020","280,1,N,0030,1","99999,9,9,N","020000,1,N,1","+0253,1","+0190,1","10112,1","06,0000,9,1","24,0000,9,1",,,,,"04,1,+02700,9,03,9",,,"07,99,1,04,1,00,1,99999,9,03,1,06,1",,"01,9",,"120,M,+0282,1","180,N,+0192,1","99999,9,10108,1","5,1,010,1,+005,1",,,"SYN130AAXX  30001 76458 32970 72803 10253 20190 30108 40112 55010 84036 92358 333 10282 20192 30/// 50371 56099 58005 70000 84359 83079;","Q01  00002PRCP06"
"76458099999","2004-03-30T03:00:00","4","23.2","-106.4166666","4.0","COLONIA JUAN CARRASCO MAZATLAN SIN., MX","FM-12","99999","V020","280,1,N,0010,1","22000,1,9,N","010000,1,N,1","+0236,1","+0187,1","10117,1","06,0000,9,1",,,,,,"00,1,+99999,9,99,9",,,"00,99,1,00,1,00,1,99999,9,00,1,00,1",,"01,9",,,,"99999,9,99999,9","2,1,004,1,+007,1",,,"SYN082AAXX  30031 76458 32960 02801 10236 20187 30425 40117 52004 90240 333 30/// 58007;","Q01+104253APOSP Q02  00002PRCP06Q03 104253APOSP "
"76458099999","2004-03-30T15:00:00","4","23.2","-106.4166666","4.0","COLONIA JUAN CARRASCO MAZATLAN SIN., MX","FM-12","99999","V020","260,1,N,0010,1","22000,1,9,N","013000,1,N,1","+0234,1","+0199,1","10141,1","06,0000,9,1",,,,,,"01,1,+06000,9,00,9",,,"01,99,1,00,1,00,1,99999,9,00,1,02,1",,"01,9",,,,"99999,9,10137,1","9,9,999,9,+000,1",,,"SYN100AAXX  30151 76458 32963 12601 10234 20199 30137 40141 5//// 80002 91448 333 30/// 56//0 58000 81070;","Q01  00002PRCP06"
"76458099999","2004-03-30T21:00:00","4","23.2","-106.4166666","4.0","COLONIA JUAN CARRASCO MAZATLAN SIN., MX","FM-12","99999","V020","280,1,N,0030,1","22000,1,9,N","020000,1,N,1","+0260,1","+0198,1","10131,1","06,0000,9,1",,,,,,"01,1,+00780,9,09,9","02,1,+03300,9,03,9",,"04,99,1,01,1,09,1,00800,1,03,1,05,1",,"01,9",,,,"99999,9,10127,1","7,1,016,1,+008,1",,,"SYN112AAXX  30211 76458 32570 42803 10260 20198 30127 40131 57016 81935 92055 333 30/// 56199 58008 81926 82361 81079;","Q01  00002PRCP06"
"76458099999","2004-03-31T00:00:00","4","23.2","-106.4166666","4.0","COLONIA JUAN CARRASCO MAZATLAN SIN., MX","FM-12","99999","V020","310,1,N,0030,1","22000,1,9,N","020000,1,N,1","+0261,1","+0194,1","10120,1","06,0000,9,1","24,0000,9,1",,,,,"01,1,+00840,9,08,9","01,1,+03300,9,03,9",,"04,99,1,01,1,02,1,00800,1,03,1,06,1",,"01,9",,"120,M,+0280,1","180,N,+0188,1","99999,9,10116,1","6,1,011,1,+008,1",,,"SYN136AAXX  31001 76458 32570 43103 10261 20194 30116 40120 56011 81236 92358 333 10280 20188 30/// 50481 56199 58008 70000 81828 81361 82079;","Q01  00002PRCP06"
"76458099999","2004-03-31T03:00:00","4","23.2","-106.4166666","4.0","COLONIA JUAN CARRASCO MAZATLAN SIN., MX","FM-12","99999","V020","310,1,N,0020,1","22000,1,9,N","010000,1,N,1","+0240,1","+0203,1","10122,1","06,0000,9,1",,,,,,"02,1,+06000,9,00,9",,,"02,99,1,00,1,00,1,99999,9,00,1,06,1",,"01,9",,,,"99999,9,10118,1","3,1,002,1,+006,1",,,"SYN100AAXX  31031 76458 32960 23102 10240 20203 30118 40122 53002 80006 90248 333 30/// 56//9 58006 82070;","Q01  00002PRCP06"
"76458099999","2004-03-31T06:00:00","4","23.2","-106.4166666","4.0","COLONIA JUAN CARRASCO MAZATLAN SIN., MX","FM-12","99999","V020","150,1,N,0020,1","99999,9,9,N","010000,1,N,1","+0233,1","+0207,1","10139,1","06,0000,9,1",,,,,,,,,"07,99,1,00,1,00,1,99999,9,00,1,08,1","0582,9","01,9",,"240,M,+0280,1","240,N,+0188,1","99999,9,10134,1","2,1,016,1,+006,1",,,"SYN118AAXX  31061 76458 32960 71502 10233 20207 30134 40139 52016 80008 90545 333 10280 20188 30/// 55097 21192 58006 87268;","Q01  00002PRCP06"
"76458099999","2004-03-31T12:00:00","4","23.2","-106.4166666","4.0","COLONIA JUAN CARRASCO MAZATLAN SIN., MX","FM-12","99999","V020","040,1,N,0010,1","22000,1,9,N","010000,1,N,1","+0216,1","+0198,1","10140,1","06,0000,9,1","24,0000,9,1",,,,,"00,1,+99999,9,99,9",,,"00,99,1,00,1,00,1,99999,9,00,1,00,1",,"01,9","999,+0200,9","999,M,+0280,1","120,N,+0212,1","99999,9,10135,1","7,1,011,1,+999,9",,,"SYN100AAXX  31121 76458 32960 00401 10216 20198 30135 40140 57011 91138 333 10280 20212 30020 58/// 70000;","Q01  00002PRCP06Q02  00002PRCP24"
"76458099999","2004-03-31T15:00:00","4","23.2","-106.4166666","4.0","COLONIA JUAN CARRASCO MAZATLAN SIN., MX","FM-12","99999","V020","150,1,N,0010,1","22000,1,9,N","013000,1,N,1","+0234,1","+0204,1","10150,1","06,0000,9,1",,,,,,,,,"01,99,1,01,1,00,1,99999,9,08,1,00,1",,"01,9",,,,"99999,9,10146,1","1,1,011,1,+000,1",,,"SYN101AAXX  31151 76458 32963 11501 10234 20204 30146 40150 51011 81080 91448 333 30/// 56/0/ 580009 81358;","Q01  00002PRCP06"
"76458099999","2004-03-31T21:00:00","4","23.2","-106.4166666","4.0","COLONIA JUAN CARRASCO MAZATLAN SIN., MX","FM-12","99999","V020","270,1,N,0020,1","22000,1,9,N","020000,1,N,1","+0261,1","+0205,1","10138,1","06,0000,9,1",,,,,,"01,1,+00720,9,09,9",,,"01,99,1,01,1,09,1,00800,1,00,1,00,1",,"01,9",,,,"99999,9,10133,1","7,1,027,1,+006,1",,,"SYN100AAXX  31211 76458 32570 12702 10261 20205 30133 40138 57027 81900 92050 333 30/// 56100 58006 81924;","Q01  00002PRCP06"
"76458099999","2004-04-01T00:00:00","4","23.2","-106.4166666","4.0","COLONIA JUAN CARRASCO MAZATLAN SIN., MX","FM-12","99999","V020","280,1,N,0030,1","01020,1,C,N","020000,1,N,1","+0255,1","+0207,1","10124,1","06,0000,9,1","24,0000,9,1",,,,,"04,1,+00600,9,08,9","01,1,+01020,9,09,9",,"06,99,1,05,1,09,1,00800,1,00,1,01,1",,"01,9",,"120,M,+0287,1","180,N,+0200,1","99999,9,10120,1","6,1,013,1,+009,1",,,"SYN136AAXX  01001 76458 32570 62803 10255 20207 30120 40124 56013 85901 92358 333 10287 20200 30/// 50501 56109 58009 70000 84820 81934 81079;","Q01  00002PRCP06"
"76458099999","2004-04-01T03:00:00","4","23.2","-106.4166666","4.0","COLONIA JUAN CARRASCO MAZATLAN SIN., MX","FM-12","99999","V020","340,1,N,0020,1","00450,1,9,N","010000,1,N,1","+0242,1","+0206,1","10134,1","06,0000,9,1",,,,,,"06,1,+00450,9,06,9",,,"06,99,1,06,1,04,1,00450,1,00,1,00,1",,"01,9",,,,"99999,9,10129,1","2,1,009,1,+012,1",,,"SYN100AAXX  01031 76458 32460 63402 10242 20206 30129 40134 52009 86400 90248 333 30/// 566// 58012 86615;","Q01  00002PRCP06"
"76458099999","2004-04-01T06:00:00","4","23.2","-106.4166666","4.0","COLONIA JUAN CARRASCO MAZATLAN SIN., MX","FM-12","99999","V020","210,1,N,0020,1","00420,1,9,N","010000,1,N,1","+0236,1","+0203,1","10147,1","06,0000,9,1",,,,,,,,,"06,99,1,06,1,04,1,00450,1,00,1,00,1","1188,9","01,9",,"240,M,+0287,1","240,N,+0200,1","99999,9,10143,1","2,1,014,1,+005,1",,,"SYN124AAXX  01061 76458 32460 62102 10236 20203 30143 40147 52014 86400 90545 333 10287 20200 30/// 55198 21238 565// 58005 86614;","Q01  00002PRCP06"
"76458099999","2004-04-01T09:00:00","4","23.2","-106.4166666","4.0","COLONIA JUAN CARRASCO MAZATLAN SIN., MX","FM-12","99999","V020","999,9,C,0000,1","00660,1,9,N","010000,1,N,1","+0234,1","+0184,1","10144,1","06,0000,9,1",,,,,,"05,1,+00660,9,06,9",,,"05,99,1,05,1,05,1,00800,1,00,1,00,1",,"01,9",,,,"99999,9,10139,1","7,1,004,1,-007,1",,,"SYN100AAXX  01091 76458 32560 50000 10234 20184 30139 40144 57004 85500 90850 333 30/// 56500 59007 85622;","Q01  00002PRCP06"
"76458099999","2004-04-01T12:00:00","4","23.2","-106.4166666","4.0","COLONIA JUAN CARRASCO MAZATLAN SIN., MX","FM-12","99999","V020","120,1,N,0010,1","00600,1,9,N","010000,1,N,1","+0224,1","+0176,1","10142,1","06,0000,9,1",,,,,,"05,1,+00600,9,06,9",,,"05,99,1,05,1,05,1,00800,1,00,1,00,1",,"01,9","999,+0200,9","999,M,+0287,1","120,N,+0220,1","99999,9,10127,1","7,1,012,1,-008,1",,,"SYN118AAXX  01121 76458 32560 51201 10224 20176 30127 40142 57012 85500 91138 333 10287 20220 30020 56500 59008 85620 70000;","Q01  00002PRCP06"
"76458099999","2004-04-01T15:00:00","4","23.2","-106.4166666","4.0","COLONIA JUAN CARRASCO MAZATLAN SIN., MX","FM-12","99999","V020","120,1,N,0010,1","22000,1,9,N","013000,1,N,1","+0240,1","+0193,1","10151,1","06,0000,9,1",,,,,,,,,"02,99,1,02,1,00,1,99999,9,08,1,00,1",,"01,9",,,,"99999,9,10147,1","2,1,020,1,+001,1",,,"SYN101AAXX  01151 76458 32963 21201 10240 20193 30147 40151 52020 82080 914483 333 30/// 56/0/ 58001 82358;","Q01  00002PRCP06"
"76458099999","2004-04-01T21:00:00","4","23.2","-106.4166666","4.0","COLONIA JUAN CARRASCO MAZATLAN SIN., MX","FM-12","99999","V020","240,1,N,0030,1","22000,1,9,N","020000,1,N,1","+0266,1","+0187,1","10140,1","06,0000,9,1",,,,,,"01,1,+00900,9,09,9","01,1,+03300,9,03,9",,"03,99,1,01,1,09,1,00800,1,03,1,09,1",,"01,9",,,,"99999,9,10136,1","7,1,012,1,+003,1",,,"SYN112AAXX  01211 76458 32570 32403 10266 20187 30136 40140 57012 81939 92046 333 30/// 56199 58003 81930 81361 81169;","Q01  00002PRCP06"
"76458099999","2004-04-02T00:00:00","4","23.2","-106.4166666","4.0","COLONIA JUAN CARRASCO MAZATLAN SIN., MX","FM-12","99999","V020","250,1,N,0030,1","22000,1,9,N","020000,1,N,1","+0244,1","+0187,1","10116,1","06,0000,9,1","24,0000,9,1",,,,,"07,1,+00720,9,08,9",,,"99,99,9,07,1,03,1,00800,1,00,1,00,1",,"01,9",,"120,M,+0290,1","180,N,+0208,1","99999,9,10112,1","7,1,019,1,-008,1",,,"SYN130AAXX  02001 76458 32570 32503 10244 20187 30112 40116 57019 87300 92350 333 10290 20208 30/// 50521 56100 59008 70000 87824 81934;","Q01+000032SCOTCVQ02  00002PRCP06"
"76458099999","2004-04-02T03:00:00","4","23.2","-106.4166666","4.0","COLONIA JUAN CARRASCO MAZATLAN SIN., MX","FM-12","99999","V020","270,1,N,0020,1","00015,1,9,N","010000,1,N,1","+0234,1","+0184,1","10131,1","06,0000,9,1",,,,,,"06,1,+00015,9,05,9",,,"99,99,9,05,1,05,1,00800,1,00,1,00,1",,"01,9",,,,"99999,9,10126,1","2,1,014,1,-003,1",,,"SYN100AAXX  02031 76458 32560 52702 10234 20184 30126 40131 52014 85500 90248 333 30/// 86500 59003 85621;","Q01+000052SCOTCVQ02  00002PRCP06"
"76458099999","2004-04-02T06:00:00","4","23.2","-106.4166666","4.0","COLONIA JUAN CARRASCO MAZATLAN SIN., MX","FM-12","99999","V020","230,1,N,0010,1","22000,1,9,N","010000,1,N,1","+0225,1","+0179,1","10143,1","06,0000,9,1",,,,,,,,,"04,99,1,04,1,05,1,00450,1,00,1,00,1",,"01,9",,"240,M,+0290,1","240,N,+0218,1","99999,9,10139,1","2,1,013,1,-004,1",,,"SYN118AAXX  02061 76458 32460 42301 10225 20179 30139 40143 52013 84500 90535 333 10290 20218 30/// 55975 21176 59004 84619;","Q01  00002PRCP06"
"76458099999","2004-04-02T09:00:00","4","23.2","-106.4166666","4.0","COLONIA JUAN CARRASCO MAZATLAN SIN., MX","FM-12","99999","V020","170,1,N,0010,1","22000,1,9,N","010000,1,N,1","+0219,1","+0177,1","10133,1","06,0000,9,1",,,,,,"01,1,+00510,9,06,9",,,"01,99,1,01,1,04,1,00450,1,00,1,00,1",,"01,9",,,,"99999,9,10129,1","7,1,010,1,-010,1",,,"SYN100AAXX  02091 76458 32460 11701 10219 20177 30129 40133 57010 81400 90848 333 30/// 564// 59010 81617;","Q01  00002PRCP06"
"76458099999","2004-04-02T12:00:00","4","23.2","-106.4166666","4.0","COLONIA JUAN CARRASCO MAZATLAN SIN., MX","FM-12","99999","V020","090,1,N,0010,1","03600,1,9,N","010000,1,N,1","+0216,1","+0182,1","10130,1","06,0000,9,1","24,0000,9,1",,,,,"01,1,+00420,9,06,9",,,"05,99,1,01,1,04,1,00450,1,03,1,00,1",,"01,9",,"999,M,+0290,1","120,N,+0210,1","99999,9,10125,1","7,1,004,1,-002,1",,,"SYN130AAXX  02121 76458 32460 50901 10216 20182 30125 40130 57004 81430 91140 333 10290 20210 30/// 30197 5649/ 59002 70000 81614 84364;","Q01  00002PRCP06"
"76458099999","2004-04-02T15:00:00","4","23.2","-106.4166666","4.0","COLONIA JUAN CARRASCO MAZATLAN SIN., MX","FM-12","99999","V020","180,1,N,0020,1","00900,1,C,N","015000,1,N,1","+0234,1","+0187,1","10148,1","01,9999,2,9",,,,"4,1,03,1","2,1,03,1","02,1,+00600,9,06,9",,,"05,99,1,05,1,08,1,00450,1,00,1,00,1",,"01,9",,,,"99999,9,10144,1","2,1,019,1,-003,1","50,1",,"SYN118AAXX  02151 76458 21465 51802 10234 20187 30144 40148 52019 75042 85800 91450 333 30/// 564// 59003 69905 82620 83825;",
"76458099999","2004-04-02T21:00:00","4","23.2","-106.4166666","4.0","COLONIA JUAN CARRASCO MAZATLAN SIN., MX","FM-12","99999","V020","220,1,N,0030,1","22000,1,9,N","020000,1,N,1","+0260,1","+0167,1","10148,1","06,0000,2,1",,,,,,"02,1,+02400,9,03,9",,,"02,99,1,99,9,00,1,99999,9,03,1,00,1",,"01,9",,,,"99999,9,10144,1","7,1,011,1,+014,1",,,"SYN100AAXX  02211 76458 32970 22203 10260 20167 30144 40148 57011 80030 92041 333 30/// 56090 58014 82358;","Q01+000002SCOTLC"
"76458099999","2004-04-03T00:00:00","4","23.2","-106.4166666","4.0","COLONIA JUAN CARRASCO MAZATLAN SIN., MX","FM-12","99999","V020","270,1,N,0020,1","22000,1,9,N","020000,1,N,1","+0250,1","+0179,1","10130,1","06,0000,9,1","24,0000,2,1",,,,,"00,1,+99999,9,99,9",,,"00,99,1,00,1,00,1,99999,9,00,1,00,1",,"01,9",,"120,M,+0280,1","180,N,+0107,1","99999,9,10125,1","7,1,019,1,+014,1",,,"SYN106AAXX  03001 76458 32970 02702 10250 20179 30125 40130 57019 92345 333 10280 20107 30/// 54491 58014 70000;","Q01  00002PRCP06"
"76458099999","2004-04-03T03:00:00","4","23.2","-106.4166666","4.0","COLONIA JUAN CARRASCO MAZATLAN SIN., MX","FM-12","99999","V020","270,1,N,0020,1","22000,1,9,N","008000,1,N,1","+0228,1","+0174,1","10144,1","06,0000,9,1",,,,,,"00,1,+99999,9,99,9",,,"00,99,1,00,1,00,1,99999,9,00,1,00,1",,"01,9",,,,"99999,9,10140,1","2,1,015,1,+024,1",,,"SYN082AAXX  03031 76458 32958 02702 10228 20174 30140 40144 52015 90245 333 30/// 58024;","Q01  00002PRCP06"
"76458099999","2004-04-03T06:00:00","4","23.2","-106.4166666","4.0","COLONIA JUAN CARRASCO MAZATLAN SIN., MX","FM-12","99999","V020","360,1,N,0010,1","22000,1,9,N","008000,1,N,1","+0222,1","+0174,1","10154,1","06,0000,9,1",,,,,,"00,1,+99999,9,99,9",,,"00,99,1,00,1,00,1,99999,9,00,1,00,1","0612,9","01,9",,"240,M,+0280,1","240,N,+9999,9","99999,9,10150,1","2,1,010,1,+999,9",,,"SYN106AAXX  03061 76458 32958 03601 10222 20174 30150 40154 52010 90530 333 10280 20270 30/// 55102 21547 58011;","Q01  00002PRCP06Q02 +02702ATMN  "
"76458099999","2004-04-03T15:00:00","4","23.2","-106.4166666","4.0","COLONIA JUAN CARRASCO MAZATLAN SIN., MX","FM-12","99999","V020","330,1,N,0010,1","03600,1,C,N","013000,1,N,1","+0220,1","+0175,1","10141,1","06,0000,9,1",,,,,,"04,1,+00600,9,06,9",,,"07,99,1,04,1,05,1,00800,1,03,1,00,1",,"01,9",,,,"99999,9,10136,1","9,9,999,9,-008,1",,,"SYN106AAXX  03151 76458 32563 73301 10220 20175 30136 40141 5//// 84530 91448 333 30/// 5630/ 59008 84620 83358;","Q01  00002PRCP06"
"76458099999","2004-04-03T18:00:00","4","23.2","-106.4166666","4.0","COLONIA JUAN CARRASCO MAZATLAN SIN., MX","FM-12","99999","V020","270,1,N,0040,1","22000,1,9,N","018000,1,N,1","+0252,1","+0174,1","10146,1","06,0000,9,1",,,,,,"02,1,+00960,9,08,9",,,"02,99,1,02,1,02,1,00800,1,00,1,00,1",,"01,9",,"120,M,+0265,1","240,N,+0192,1","99999,9,10141,1","1,1,005,1,-014,1",,,"SYN112AAXX  03181 76458 32568 22704 10252 20174 30141 40146 51005 82200 91748 333 10265 20192 30/// 563// 59014 82832;","Q01  00002PRCP06"
"76458099999","2004-04-03T21:00:00","4","23.2","-106.4166666","4.0","COLONIA JUAN CARRASCO MAZATLAN SIN., MX","FM-12","99999","V020","270,1,N,0040,1","22000,1,9,N","020000,1,N,1","+0252,1","+0161,1","10136,1","06,0000,9,1",,,,,,"02,1,+01140,9,08,9",,,"02,99,1,02,1,02,1,01250,1,00,1,00,1",,"01,9",,,,"99999,9,10132,1","7,1,009,1,-012,1",,,"SYN100AAXX  03211 76458 32670 22704 10252 20161 30132 40136 57009 82200 92056 333 30/// 56100 59012 82838;","Q01  00002PRCP06"
"76458099999","2004-04-04T00:00:00","4","23.2","-106.4166666","4.0","COLONIA JUAN CARRASCO MAZATLAN SIN., MX","FM-12","99999","V020","270,1,N,0030,1","22000,1,9,N","020000,1,N,1","+0239,1","+0167,1","10126,1","06,0000,9,1","24,0000,9,1",,,,,,,,"01,99,1,01,1,02,1,01250,1,00,1,00,1",,"01,9",,"120,M,+0272,1","180,N,+0192,1","99999,9,10121,1","6,1,010,1,-004,1",,,"SYN124AAXX  04001 76458 32670 12703 10239 20167 30121 40126 56010 81200 92358 333 10272 20192 30/// 50501 56100 59004 70000 81830;","Q01  00002PRCP06"
"76458099999","2004-04-04T03:00:00","4","23.2","-106.4166666","4.0","COLONIA JUAN CARRASCO MAZATLAN SIN., MX","FM-12","99999","V020","290,1,N,0020,1","22000,1,9,N","008000,1,N,1","+0226,1","+0158,1","10132,1","06,0000,9,1",,,,,,"00,1,+99999,9,99,9",,,"00,99,1,00,1,00,1,99999,9,00,1,00,1",,"01,9",,,,"99999,9,10127,1","3,1,006,1,-013,1",,,"SYN082AAXX  04031 76458 32958 02902 10226 20158 30127 40132 53006 90240 333 30/// 59013;","Q01  00002PRCP06"
"76458099999","2004-04-04T15:00:00","4","23.2","-106.4166666","4.0","COLONIA JUAN CARRASCO MAZATLAN SIN., MX","FM-12","99999","V020","999,9,C,0000,1","02400,1,9,N","018000,1,N,1","+0226,1","+0165,1","10144,1","06,0000,9,1",,,,,,"06,1,+02400,9,03,9",,,"06,99,1,99,9,00,1,99999,9,05,1,00,1",,"01,9",,,,"99999,9,10139,1","4,1,000,1,+999,9",,,"SYN094AAXX  04151 76458 32968 60000 10226 20165 30139 40144 54000 80050 91447 333 30/// 58/// 86358;","Q01+000002SCOTLCQ02  00002PRCP06"
"76458099999","2004-04-04T18:00:00","4","23.2","-106.4166666","4.0","COLONIA JUAN CARRASCO MAZATLAN SIN., MX","FM-12","99999","V020","220,1,N,0030,1","22000,1,9,N","020000,1,N,1","+0251,1","+0163,1","10152,1","06,0000,9,1",,,,,,"02,1,+01110,9,08,9",,,"02,99,1,02,1,02,1,01250,1,00,1,00,1",,"01,9",,"120,M,+0270,1","240,N,+0190,1","99999,9,10147,1","2,1,008,1,+006,1",,,"SYN106AAXX  04181 76458 32670 22203 10251 20163 30147 40152 52008 82200 91740 333 10270 20190 30/// 58006 82837;","Q01  00002PRCP06"
"76458099999","2004-04-05T00:00:00","4","23.2","-106.4166666","4.0","COLONIA JUAN CARRASCO MAZATLAN SIN., MX","FM-12","99999","V020","240,1,N,0030,1","22000,1,9,N","020000,1,N,1","+0244,1","+0158,1","10130,1","06,0000,9,1","24,0000,9,1",,,,,"01,1,+01080,9,08,9",,,"02,99,1,01,1,02,1,01250,1,00,1,05,1",,"01,9",,"120,M,+0270,1","180,N,+0190,1","99999,9,10126,1","6,1,008,1,+004,1",,,"SYN130AAXX  05001 76458 32670 22403 10244 20158 30126 40130 56008 81205 92345 333 10270 20190 30/// 50471 561/0 58004 70000 81836 81070;","Q01  00002PRCP06"
"76458099999","2004-04-05T03:00:00","4","23.2","-106.4166666","4.0","COLONIA JUAN CARRASCO MAZATLAN SIN., MX","FM-12","99999","V020","280,1,N,0020,1","22000,1,9,N","008000,1,N,1","+0226,1","+0158,1","10136,1","06,0000,9,1",,,,,,"00,1,+99999,9,99,9",,,"00,99,1,00,1,00,1,99999,9,00,1,00,1",,"01,9",,,,"99999,9,10131,1","2,1,005,1,+004,1",,,"SYN082AAXX  05031 76458 32958 02802 10226 20158 30131 40136 52005 90240 333 30/// 58004;","Q01  00002PRCP06"
"76458099999","2004-04-05T06:00:00","4","23.2","-106.4166666","4.0","COLONIA JUAN CARRASCO MAZATLAN SIN., MX","FM-12","99999","V020","330,1,N,0020,1","22000,1,9,N","008000,1,N,1","+0212,1","+0160,1","10144,1","06,0000,9,1",,,,,,"00,1,+99999,9,99,9",,,"00,99,1,00,1,00,1,99999,9,00,1,00,1","0612,9","01,9",,"240,M,+0270,1","240,N,+0190,1","99999,9,10139,1","2,1,008,1,+999,9",,,"SYN106AAXX  05061 76458 32958 03302 10212 20160 30139 40144 52008 90530 333 10270 20190 30/// 55102 21571 58003;","Q01  00002PRCP06"
"76458099999","2004-04-05T15:00:00","4","23.2","-106.4166666","4.0","COLONIA JUAN CARRASCO MAZATLAN SIN., MX","FM-12","99999","V020","300,1,N,0010,1","22000,1,9,N","015000,1,N,1","+0218,1","+0149,1","10149,1","06,0000,9,1",,,,,,"02,1,+00750,9,08,9",,,"04,99,1,04,1,02,1,00800,1,00,1,00,1",,"01,9",,,,"99999,9,10145,1","9,9,999,9,+005,1",,,"SYN106AAXX  05151 76458 32565 43001 10218 20149 30145 40149 5//// 84200 91445 333 30/// 564// 58005 82825 82630;","Q01  00002PRCP06"
"76458099999","2004-04-05T21:00:00","4","23.2","-106.4166666","4.0","COLONIA JUAN CARRASCO MAZATLAN SIN., MX","FM-12","99999","V020","210,1,N,0040,1","22000,1,9,N","020000,1,N,1","+0250,1","+0162,1","10142,1","06,0000,9,1",,,,,,"01,1,+01110,9,08,9",,,"02,99,1,01,1,01,1,01250,1,00,1,00,1",,"01,9",,,,"99999,9,10138,1","7,1,009,1,-004,1",,,"SYN106AAXX  05211 76458 32670 22104 10250 20162 30138 40142 57009 81100 92050 333 30/// 56100 59004 81837 81079;","Q01  00002PRCP06"
"76458099999","2004-04-06T00:00:00","4","23.2","-106.4166666","4.0","COLONIA JUAN CARRASCO MAZATLAN SIN., MX","FM-12","99999","V020","300,1,N,0030,1","22000,1,9,N","020000,1,N,1","+0250,1","+0159,1","10126,1","06,0000,9,1","24,0000,9,1",,,,,,,,"02,99,1,01,1,01,1,01250,1,00,1,05,1",,"01,9",,"120,M,+0273,1","180,N,+0177,1","99999,9,10122,1","7,1,016,1,-004,1",,,"SYN128AAXX  06001 76458 32670 23003 10250 20159 30122 40126 57016 81105 90000 333 10273 20177 30/// 50601 56109 59004 70000 818 81079;","Q01  00002PRCP06"
"76458099999","2004-04-06T03:00:00","4","23.2","-106.4166666","4.0","COLONIA JUAN CARRASCO MAZATLAN SIN., MX","FM-12","99999","V020","310,1,N,0040,1","22000,1,9,N","008000,1,N,1","+0230,1","+0159,1","10133,1","06,0000,9,1",,,,,,"00,1,+99999,9,99,9",,,"00,99,1,00,1,00,1,99999,9,00,1,00,1",,"01,9",,,,"99999,9,10128,1","3,1,006,1,-003,1",,,"SYN082AAXX  06031 76458 32958 03104 10230 20159 30128 40133 53006 90240 333 30/// 59003;","Q01  00002PRCP06"
"76458099999","2004-04-06T15:00:00","4","23.2","-106.4166666","4.0","COLONIA JUAN CARRASCO MAZATLAN SIN., MX","FM-12","99999","V020","120,1,N,0020,1","22000,1,9,N","013000,1,N,1","+0214,1","+0153,1","99999,9","06,0000,9,1",,,,,,,,,"01,99,1,99,9,99,9,00800,1,99,9,99,9",,"01,9",,,,,"9,9,999,9,+000,1",,,"SYN102AAXX  06151 76458 32563 11202 10214 20153 3 30145 40150 5//// 81200 91448 333 30/// 564// 58000 81825;","Q01  00002PRCP06"
"76458099999","2004-04-06T18:00:00","4","23.2","-106.4166666","4.0","COLONIA JUAN CARRASCO MAZATLAN SIN., MX","FM-12","99999","V020","230,1,N,0030,1","22000,1,9,N","020000,1,N,1","+0240,1","+0159,1","10155,1","06,0000,9,1",,,,,,"00,1,+99999,9,99,9",,,"00,99,1,00,1,00,1,99999,9,00,1,00,1",,"01,9",,"120,M,+0273,1","240,N,+0164,1","99999,9,10150,1","6,1,005,1,+003,1",,,"SYN094AAXX  06181 76458 32970 02303 10240 20159 30150 40155 56005 91748 333 10273 20164 30/// 58003;","Q01  00002PRCP06"
"76458099999","2004-04-06T21:00:00","4","23.2","-106.4166666","4.0","COLONIA JUAN CARRASCO MAZATLAN SIN., MX","FM-12","99999","V020","260,1,N,0030,1","22000,1,9,N","020000,1,N,1","+0265,1","+0175,1","10144,1","06,0000,9,1",,,,,,"01,1,+01110,9,08,9",,,"03,99,1,01,1,01,1,01250,1,00,1,01,1",,"01,9",,,,"99999,9,10139,1","7,1,011,1,+001,1",,,"SYN106AAXX  06211 76458 32670 32603 10265 20175 30139 40144 57011 81101 92058 333 30/// 56109 58001 81837 82079;","Q01  00002PRCP06"
"76458099999","2004-04-07T00:00:00","4","23.2","-106.4166666","4.0","COLONIA JUAN CARRASCO MAZATLAN SIN., MX","FM-12","99999","V020","270,1,N,0030,1","22000,1,9,N","020000,1,N,1","+0246,1","+0164,1","10139,1","06,0000,9,1","24,0000,9,1",,,,,"01,1,+01020,9,08,9",,,"06,99,1,01,1,02,1,01250,1,00,1,04,1",,"01,9",,"120,M,+0280,1","180,N,+0164,1","99999,9,10134,1","7,1,005,1,+012,1",,,"SYN130AAXX  07001 76458 32670 62703 10246 20164 30134 40139 57005 81204 92345 333 10280 20164 30/// 50481 56109 58012 70000 81834 85079;","Q01  00002PRCP06"
"76458099999","2004-04-07T03:00:00","4","23.2","-106.4166666","4.0","COLONIA JUAN CARRASCO MAZATLAN SIN., MX","FM-12","99999","V020","280,1,N,0010,1","22000,1,9,N","010000,1,N,1","+0224,1","+0153,1","10143,1","06,0000,9,1",,,,,,"02,1,+06600,9,00,9",,,"02,99,1,00,1,00,1,99999,9,00,1,06,1",,"01,9",,,,"99999,9,10138,1","2,1,004,1,+010,1",,,"SYN100AAXX  07031 76458 32960 22801 10224 20153 30138 40143 52004 80006 90238 333 30/// 56009 58010 82072;","Q01  00002PRCP06"
"76458099999","2004-04-07T06:00:00","4","23.2","-106.4166666","4.0","COLONIA JUAN CARRASCO MAZATLAN SIN., MX","FM-12","99999","V020","999,9,C,0000,1","22000,1,9,N","010000,1,N,1","+0218,1","+0156,1","10161,1","06,0000,9,1",,,,,,"00,1,+99999,9,99,9",,,"00,99,1,00,1,00,1,99999,9,00,1,00,1","0660,9","01,9",,"240,M,+0280,1","240,N,+0164,1","99999,9,10157,1","2,1,019,1,+999,9",,,"SYN106AAXX  07061 76458 32960 00000 10218 20156 30157 40161 52019 90532 333 10280 20164 30/// 55110 21261 58021;","Q01  00002PRCP06"
"76458099999","2004-04-07T15:00:00","4","23.2","-106.4166666","4.0","COLONIA JUAN CARRASCO MAZATLAN SIN., MX","FM-12","99999","V020","330,1,N,0010,1","06000,1,9,N","015000,1,N,1","+0216,1","+0155,1","10138,1","06,0000,9,1",,,,,,"05,1,+06000,9,02,9",,,"05,99,1,00,1,00,1,99999,9,00,1,06,1",,"01,9",,,,"99999,9,10133,1","9,9,999,9,-012,1",,,"SYN100AAXX  07151 76458 32965 53301 10216 20155 30133 40138 5//// 80006 91448 333 30/// 56//0 59012 85270;","Q01  00002PRCP06"
"76458099999","2004-04-07T18:00:00","4","23.2","-106.4166666","4.0","COLONIA JUAN CARRASCO MAZATLAN SIN., MX","FM-12","99999","V020","240,1,N,0030,1","99999,9,9,N","020000,1,N,1","+0240,1","+0159,1","10137,1","06,0000,9,1",,,,,,"04,1,+03000,9,04,9",,,"07,99,1,04,1,00,1,99999,9,02,1,06,1",,"01,9",,"120,M,+0255,1","240,N,+0173,1","99999,9,10132,1","0,1,001,1,-018,1",,,"SYN118AAXX  07181 76458 32970 72403 10240 20159 30132 40137 50001 84026 91748 333 10255 20173 30/// 56/00 59018 84460 83270;","Q01  00002PRCP06"
"76458099999","2004-04-07T21:00:00","4","23.2","-106.4166666","4.0","COLONIA JUAN CARRASCO MAZATLAN SIN., MX","FM-12","99999","V020","270,1,N,0030,1","99999,9,9,N","020000,1,N,1","+0240,1","+0166,1","10119,1","06,0000,9,1",,,,,,"02,1,+02700,9,03,9",,,"08,99,1,08,1,05,1,99999,9,99,9,00,1",,"01,9",,,,"99999,9,10114,1","7,1,018,1,-025,1",,,"SYN106AAXX  07211 76458 32970 82703 10240 20166 30114 40119 57018 88500 92050 333 30/// 56090 59025 82359 86461;","Q01+000002SCOMCGQ02  00002PRCP06"
"76458099999","2004-04-08T00:00:00","4","23.2","-106.4166666","4.0","COLONIA JUAN CARRASCO MAZATLAN SIN., MX","FM-12","99999","V020","290,1,N,0030,1","03600,1,9,N","020000,1,N,1","+0228,1","+0165,1","10120,1","06,0000,9,1","24,0000,9,1",,,,,"01,1,+00780,9,06,9",,,"08,99,1,01,1,04,1,00800,1,05,1,00,1",,"01,9",,"120,M,+0259,1","180,N,+0173,1","99999,9,10116,1","0,1,002,1,-018,1",,,"SYN130AAXX  08001 76458 32570 82903 10228 20165 30116 40120 50002 81450 92350 333 10259 20173 30/// 50491 56660 59018 70000 81626 87356;","Q01  00002PRCP06"
"76458099999","2004-04-08T03:00:00","4","23.2","-106.4166666","4.0","COLONIA JUAN CARRASCO MAZATLAN SIN., MX","FM-12","99999","V020","300,1,N,0020,1","02400,1,9,N","008000,1,N,1","+0222,1","+0168,1","10133,1","06,0000,9,1",,,,,,"08,1,+02400,9,04,9",,,"08,99,1,08,1,99,9,02250,1,02,1,99,9",,"01,9",,,,"99999,9,10129,1","2,1,013,1,-009,1",,,"SYN094AAXX  08031 76458 32858 83002 10222 20168 30129 40133 52013 88/2/ 90240 333 30/// 59009 88458;","Q01  00002PRCP06"
"76458099999","2004-04-08T12:00:00","4","23.2","-106.4166666","4.0","COLONIA JUAN CARRASCO MAZATLAN SIN., MX","FM-12","99999","V020","320,1,N,0010,1","02400,1,9,N","008000,1,N,1","+0198,1","+0164,1","10117,1","06,0000,9,1","24,0000,9,1",,,,,"08,1,+02400,9,03,9",,,"08,99,1,99,9,00,1,99999,9,05,1,00,1",,"01,9","999,+0190,9","999,M,+0259,1","120,N,+0196,1","99999,9,10113,1","7,1,013,1,-012,1",,,"SYN118AAXX  08121 76458 32958 83201 10198 20164 30113 40117 57013 80050 91135 333 10259 20196 30019 56090 59012 70000 88358;","Q01+000002SCOTLCQ02  00002PRCP06"
"76458099999","2004-04-08T15:00:00","4","23.2","-106.4166666","4.0","COLONIA JUAN CARRASCO MAZATLAN SIN., MX","FM-12","99999","V020","300,1,N,0020,1","99999,9,9,N","018000,1,N,1","+0222,1","+0169,1","10135,1","06,0000,9,1",,,,,,"01,1,+02400,9,03,9",,,"06,99,1,01,1,00,1,99999,9,03,1,06,1",,"01,9",,,,"99999,9,10131,1","2,1,018,1,-002,1",,,"SYN106AAXX  08151 76458 32968 63002 10222 20169 30131 40135 52018 81036 91445 333 30/// 56/00 59002 81358 84270;","Q01  00002PRCP06"
"76458099999","2004-04-08T18:00:00","4","23.2","-106.4166666","4.0","COLONIA JUAN CARRASCO MAZATLAN SIN., MX","FM-12","99999","V020","240,1,N,0030,1","06000,1,9,N","020000,1,N,1","+0254,1","+0176,1","10133,1","06,0000,9,1",,,,,,"06,1,+06000,9,02,9",,,"06,99,1,00,1,00,1,99999,9,00,1,06,1",,"01,9",,"120,M,+0279,1","240,N,+0187,1","99999,9,10128,1","8,1,003,1,-004,1",,,"SYN112AAXX  08181 76458 32970 62403 10254 20176 30128 40133 58003 80006 91748 333 10279 20187 30/// 56//0 59004 86270;","Q01  00002PRCP06"
"76458099999","2004-04-08T21:00:00","4","23.2","-106.4166666","4.0","COLONIA JUAN CARRASCO MAZATLAN SIN., MX","FM-12","99999","V020","270,1,N,0040,1","22000,1,C,N","020000,1,N,1","+0251,1","+0176,1","10119,1","06,0000,9,1",,,,,,"01,1,+00930,9,08,9",,,"07,99,1,01,1,02,1,00800,1,00,1,04,1",,"01,9",,,,"99999,9,10115,1","7,1,013,1,+001,1",,,"SYN106AAXX  08211 76458 32570 72704 10251 20176 30115 40119 57013 81204 92050 333 30/// 56109 58001 81831 86079;","Q01  00002PRCP06"
"76458099999","2004-04-09T00:00:00","4","23.2","-106.4166666","4.0","COLONIA JUAN CARRASCO MAZATLAN SIN., MX","FM-12","99999","V020","280,1,N,0040,1","22000,1,9,N","020000,1,N,1","+0243,1","+0156,1","10112,1","06,0000,9,1","24,0000,9,1",,,,,"01,1,+01080,9,02,9",,,"07,99,1,01,1,02,1,01250,1,00,1,04,1",,"01,9",,"120,M,+0280,1","180,N,+0187,1","99999,9,10108,1","5,1,007,1,-008,1",,,"SYN130AAXX  09001 76458 32670 72804 10243 20156 30108 40112 55007 81204 92358 333 10280 20187 30/// 50441 56109 59008 70000 81236 86079;","Q01  00002PRCP06"
"76458099999","2004-04-09T03:00:00","4","23.2","-106.4166666","4.0","COLONIA JUAN CARRASCO MAZATLAN SIN., MX","FM-12","99999","V020","320,1,N,0030,1","22000,1,9,N","008000,1,N,1","+0230,1","+0184,1","10119,1","06,0000,9,1",,,,,,"00,1,+99999,9,99,9",,,"00,99,1,00,1,00,1,99999,9,00,1,00,1",,"01,9",,,,"99999,9,10115,1","2,1,007,1,-014,1",,,"SYN082AAXX  09031 76458 32958 03203 10230 20184 30115 40119 52007 92040 333 30/// 59014;","Q01  00002PRCP06"
"76458099999","2004-04-09T06:00:00","4","23.2","-106.4166666","4.0","COLONIA JUAN CARRASCO MAZATLAN SIN., MX","FM-12","99999","V020","320,1,N,0020,1","22000,1,9,N","008000,1,N,1","+0218,1","+0159,1","10131,1","06,0000,9,1",,,,,,"00,1,+99999,9,99,9",,,"00,99,1,00,1,00,1,99999,9,00,1,00,1",,"01,9",,"240,M,+0280,1","240,N,+0187,1","99999,9,10126,1","2,1,011,1,-011,1",,,"SYN094AAXX  09061 76458 32958 03202 10218 20159 30126 40131 52011 90530 333 10280 20187 30/// 59011;","Q01  00002PRCP06"
"76458099999","2004-04-09T12:00:00","4","23.2","-106.4166666","4.0","COLONIA JUAN CARRASCO MAZATLAN SIN., MX","FM-12","99999","V020","320,1,N,0010,1","22000,1,9,N","008000,1,N,1","+0188,1","+0166,1","10120,1","06,0000,9,1","24,0000,9,1",,,,,"00,1,+99999,9,99,9",,,"00,99,1,00,1,00,1,99999,9,00,1,00,1",,"01,9","999,+0160,9","999,M,+0280,1","120,N,+0180,1","99999,9,10116,1","7,1,010,1,+003,1",,,"SYN100AAXX  09121 76458 32958 03201 10188 20166 30116 40120 57010 91135 333 10280 20180 30016 58003 70000;","Q01  00002PRCP06Q02  00002PRCP24"
"76458099999","2004-04-09T15:00:00","4","23.2","-106.4166666","4.0","COLONIA JUAN CARRASCO MAZATLAN SIN., MX","FM-12","99999","V020","360,1,N,0010,1","22000,1,9,N","015000,1,N,1","+0238,1","+0147,1","10130,1","06,0000,9,1",,,,,,"02,1,+06000,9,02,9",,,"02,99,1,00,1,00,1,99999,9,00,1,06,1",,"01,9",,,,"99999,9,10125,1","0,1,009,1,-006,1",,,"SYN100AAXX  09151 76458 32965 23601 10238 20147 30125 40130 50009 80006 91448 333 30/// 56//0 59006 82270;","Q01  00002PRCP06"
"76458099999","2004-04-09T18:00:00","4","23.2","-106.4166666","4.0","COLONIA JUAN CARRASCO MAZATLAN SIN., MX","FM-12","99999","V020","240,1,N,0030,1","22000,1,9,N","020000,1,N,1","+0252,1","+0171,1","10137,1","06,0000,9,1",,,,,,"02,1,+06000,9,02,9",,,"02,99,1,00,1,00,1,99999,9,00,1,05,1",,"01,9",,"120,M,+0272,1","240,N,+0168,1","99999,9,10133,1","1,1,008,1,-005,1",,,"SYN118AAXX  09181 76458 32970 22403 10252 20171 30133 40137 51008 80005 91748 333 10272 20168 30/// 56//0 59005 82270 76556;","Q01  00002PRCP06"
"76458099999","2004-04-10T00:00:00","4","23.2","-106.4166666","4.0","COLONIA JUAN CARRASCO MAZATLAN SIN., MX","FM-12","99999","V020","290,1,N,0030,1","22000,1,9,N","020000,1,N,1","+0261,1","+0186,1","10112,1","06,0000,9,1","24,0000,9,1",,,,,"00,1,+99999,9,99,9",,,"00,99,1,00,1,00,1,99999,9,00,1,00,1",,"01,9",,"120,M,+0281,1","180,N,+0168,1","99999,9,10108,1","7,1,012,1,+001,1",,,"SYN106AAXX  10001 76458 32970 02903 10261 20186 30108 40112 57012 92338 333 10281 20168 30/// 54471 58001 70000;","Q01  00002PRCP06Q02  00002PRCP24"
"76458099999","2004-04-10T03:00:00","4","23.2","-106.4166666","4.0","COLONIA JUAN CARRASCO MAZATLAN SIN., MX","FM-12","99999","V020","290,1,N,0030,1","22000,1,9,N","008000,1,N,1","+0230,1","+0192,1","10125,1","06,0000,9,1",,,,,,"00,1,+99999,9,99,9",,,"00,99,1,00,1,00,1,99999,9,00,1,00,1",,"01,9",,,,"99999,9,10120,1","2,1,012,1,+005,1",,,"SYN082AAXX  10031 76458 32958 02903 10230 20192 30120 40125 52012 90240 333 30/// 58005;","Q01  00002PRCP06"
"76458099999","2004-04-10T06:00:00","4","23.2","-106.4166666","4.0","COLONIA JUAN CARRASCO MAZATLAN SIN., MX","FM-12","99999","V020","330,1,N,0020,1","22000,1,9,N","008000,1,N,1","+0222,1","+0199,1","10140,1","06,0000,9,1",,,,,,"00,1,+99999,9,99,9",,,"00,99,1,00,1,00,1,99999,9,00,1,00,1","0672,9","01,9",,"240,M,+0281,1","240,N,+0168,1","99999,9,10135,1","2,1,015,1,+999,9",,,"SYN106AAXX  10061 76458 32958 03302 10222 20199 30135 40140 52015 90530 333 10281 20168 30/// 55112 21516 58009;","Q01  00002PRCP06"
"76458099999","2004-04-10T15:00:00","4","23.2","-106.4166666","4.0","COLONIA JUAN CARRASCO MAZATLAN SIN., MX","FM-12","99999","V020","120,1,N,0020,1","00420,1,C,N","012000,1,N,1","+0226,1","+0191,1","10137,1","06,0000,9,1",,,,,,"04,1,+00450,9,06,9",,,"07,99,1,07,1,02,1,00450,1,00,1,00,1",,"01,9",,,,"99999,9,10133,1","9,9,999,9,+008,1",,,"SYN106AAXX  10151 76458 32462 71202 10226 20191 30133 40137 5//// 87200 91448 333 30/// 564// 58008 84615 83820;","Q01  00002PRCP06"
"76458099999","2004-04-10T18:00:00","4","23.2","-106.4166666","4.0","COLONIA JUAN CARRASCO MAZATLAN SIN., MX","FM-12","99999","V020","190,1,N,0030,1","22000,1,9,N","020000,1,N,1","+0254,1","+0170,1","10136,1","06,0000,9,1",,,,,,"02,1,+01050,9,08,9",,,"02,99,1,02,1,02,1,01250,1,00,1,00,1",,"01,9",,"120,M,+0272,1","240,N,+0193,1","99999,9,10132,1","1,1,001,1,-001,1",,,"SYN112AAXX  10181 76458 32670 21903 10254 20170 30132 40136 51001 82200 91748 333 10272 20193 30/// 564// 59001 82835;","Q01  00002PRCP06"
"76458099999","2004-04-10T21:00:00","4","23.2","-106.4166666","4.0","COLONIA JUAN CARRASCO MAZATLAN SIN., MX","FM-12","99999","V020","250,1,N,0030,1","22000,1,C,N","020000,1,N,1","+0245,1","+0172,1","10125,1","06,0000,9,1",,,,,,"01,1,+00900,9,08,9",,,"05,99,1,01,1,01,1,01250,1,00,1,04,1",,"01,9",,,,"99999,9,10120,1","7,1,012,1,+000,1",,,"SYN106AAXX  10211 76458 32670 52503 10245 20172 30120 40125 57012 81104 92058 333 30/// 56109 58000 81830 84079;","Q01  00002PRCP06"
"76458099999","2004-04-11T00:00:00","4","23.2","-106.4166666","4.0","COLONIA JUAN CARRASCO MAZATLAN SIN., MX","FM-12","99999","V020","270,1,N,0030,1","22000,1,9,N","020000,1,N,1","+0242,1","+0175,1","10111,1","06,0000,9,1",,,,,,"01,1,+00840,9,06,9","01,1,+01020,9,08,9",,"07,99,1,02,1,02,1,00800,1,00,1,04,1",,"01,9",,"120,M,+0275,1","180,N,+0193,1","99999,9,10106,1","6,1,014,1,-002,1",,,"SYN130AAXX  11001 76458 32570 72703 10242 20175 30106 40111 56014 82204 92350 333 10275 20193 30/// 5//// 56106 59002 81628 81834 85079;","Q01  00002PRCP06"
"76458099999","2004-04-11T03:00:00","4","23.2","-106.4166666","4.0","COLONIA JUAN CARRASCO MAZATLAN SIN., MX","FM-12","99999","V020","280,1,N,0030,1","22000,1,9,N","008000,1,N,1","+0220,1","+0172,1","10113,1","06,0000,9,1",,,,,,"00,1,+99999,9,99,9",,,"00,99,1,00,1,00,1,99999,9,00,1,00,1",,"01,9",,,,"99999,9,10109,1","3,1,003,1,-011,1",,,"SYN082AAXX  11031 76458 32958 02803 10220 20172 30109 40113 53003 90545 333 30/// 59011;","Q01  00002PRCP06"
"76458099999","2004-04-11T15:00:00","4","23.2","-106.4166666","4.0","COLONIA JUAN CARRASCO MAZATLAN SIN., MX","FM-12","99999","V020","999,9,C,0000,1","02400,1,9,N","015000,1,N,1","+0216,1","+0155,1","10123,1","06,0000,9,1",,,,,,"06,1,+02400,9,03,9",,,"06,99,1,99,9,00,1,99999,9,05,1,00,1",,"01,9",,,,"99999,9,10118,1","4,1,000,1,+999,9",,,"SYN100AAXX  11151 76458 32965 60000 10216 20155 30118 40123 54000 80050 91450 333 30/// 56090 58/// 86358;","Q01+000002SCOTLCQ02  00002PRCP06"
"76458099999","2004-04-12T03:00:00","4","23.2","-106.4166666","4.0","COLONIA JUAN CARRASCO MAZATLAN SIN., MX","FM-12","99999","V020","130,1,N,0030,1","22000,1,9,N","008000,1,N,1","+0224,1","+0163,1","10101,1","06,0000,9,1",,,,,,"00,1,+99999,9,99,9",,,"00,99,1,00,1,00,1,99999,9,00,1,00,1",,"01,9",,,,"99999,9,10096,1","4,1,000,1,-013,1",,,"SYN082AAXX  12030 76458 32958 01303 10224 20163 30096 40101 54002 90240 333 30/// 59013;","Q01  00002PRCP06"
"76458099999","2004-04-12T06:00:00","4","23.2","-106.4166666","4.0","COLONIA JUAN CARRASCO MAZATLAN SIN., MX","FM-12","99999","V020","360,1,N,0020,1","22000,1,9,N","008000,1,N,1","+0212,1","+0164,1","10113,1","06,0000,9,1",,,,,,"00,1,+99999,9,99,9",,,"00,99,1,00,1,00,1,99999,9,00,1,00,1","0558,9","01,9",,"240,M,+0275,1","240,N,+0188,1","99999,9,10109,1","2,1,013,1,+999,9",,,"SYN106AAXX  12061 76458 32958 03602 10212 20164 30109 40113 52013 90530 333 10275 20188 30/// 55093 21524 59009;","Q01  00002PRCP06"
"76458099999","2004-04-12T15:00:00","4","23.2","-106.4166666","4.0","COLONIA JUAN CARRASCO MAZATLAN SIN., MX","FM-12","99999","V020","120,1,N,0020,1","22000,1,9,N","013000,1,N,1","+0218,1","+0164,1","10124,1","06,0000,9,1",,,,,,"00,1,+99999,9,99,9",,,"00,99,1,00,1,00,1,99999,9,00,1,00,1",,"01,9",,,,"99999,9,10119,1",,,,"SYN082AAXX  12151 76458 32963 01202 10218 20164 30119 40124 5//// 91448 333 30/// 58///;","Q01  00002PRCP06"
"76458099999","2004-04-12T18:00:00","4","23.2","-106.4166666","4.0","COLONIA JUAN CARRASCO MAZATLAN SIN., MX","FM-12","99999","V020","210,1,N,0030,1","22000,1,9,N","018000,1,N,1","+0244,1","+0178,1","10124,1","06,0000,9,1",,,,,,,,,"01,99,1,01,1,02,1,00800,1,00,1,00,1",,"01,9",,"120,M,+0263,1","240,N,+0170,1","99999,9,10120,1","0,1,001,1,+999,9",,,"SYN106AAXX  12181 76458 32568 12103 10244 20178 30120 40124 50001 81200 91748 333 10263 20170 30/// 563// 5 000;","Q01  00002PRCP06"
"76458099999","2004-04-12T21:00:00","4","23.2","-106.4166666","4.0","COLONIA JUAN CARRASCO MAZATLAN SIN., MX","FM-12","99999","V020","260,1,N,0040,1","22000,1,C,N","020000,1,N,1","+0255,1","+0184,1","10111,1","06,0000,9,1",,,,,,"01,1,+00900,9,08,9",,,"06,99,1,01,1,01,1,00800,1,00,1,04,1",,"01,9",,,,"99999,9,10107,1","7,1,013,1,-004,1",,,"SYN106AAXX  12211 76458 32570 62604 10255 20184 30107 40111 57013 81104 92050 333 30/// 56109 59004 81830 85079;","Q01  00002PRCP06"
"76458099999","2004-04-13T00:00:00","4","23.2","-106.4166666","4.0","COLONIA JUAN CARRASCO MAZATLAN SIN., MX","FM-12","99999","V020","280,1,N,0040,1","22000,1,9,N","020000,1,N,1","+0249,1","+0186,1","10097,1","06,0000,9,1","24,0000,9,1",,,,,"02,1,+06900,9,01,9",,,"03,99,1,00,1,00,1,99999,9,00,1,09,1",,"01,9",,"120,M,+0277,1","180,N,+0170,1","99999,9,10093,1","7,1,014,1,-002,1",,,"SYN130AAXX  13001 76458 32970 32804 10249 20186 30093 40097 57014 80009 92350 333 10277 20170 30/// 50581 56009 59002 70000 82173 81079;","Q01  00002PRCP06"
"76458099999","2004-04-13T03:00:00","4","23.2","-106.4166666","4.0","COLONIA JUAN CARRASCO MAZATLAN SIN., MX","FM-12","99999","V020","310,1,N,0050,1","22000,1,9,N","008000,1,N,1","+0232,1","+0188,1","10103,1","06,0000,9,1",,,,,,"01,1,+06000,9,01,9",,,"01,99,1,00,1,99,9,99999,9,99,9,09,1",,"01,9",,,,"99999,9,10099,1","2,1,006,1,+003,1",,,"SYN094AAXX  13031 76458 32958 13105 10232 20188 30099 40103 52006 80//9 90240 333 30/// 58003 81170;","Q01  00002PRCP06"
"76458099999","2004-04-13T12:00:00","4","23.2","-106.4166666","4.0","COLONIA JUAN CARRASCO MAZATLAN SIN., MX","FM-12","99999","V020","999,9,C,0000,1","22000,1,9,N","008000,1,N,1","+0190,1","+0162,1","10104,1","06,0000,9,1","24,0000,9,1",,,,,"00,1,+99999,9,99,9",,,"00,99,1,00,1,00,1,99999,9,00,1,00,1",,"01,9","999,+0160,9","999,M,+0277,1","120,N,+0190,1","99999,9,10100,1","2,1,002,1,+999,9",,,"SYN100AAXX  13121 76458 32958 00000 10190 20162 30100 40104 52002 91138 333 10277 20190 30016 58/// 70000;","Q01  00002PRCP06Q02  00002PRCP24"
"76458099999","2004-04-13T15:00:00","4","23.2","-106.4166666","4.0","COLONIA JUAN CARRASCO MAZATLAN SIN., MX","FM-12","99999","V020","130,1,N,0030,1","06000,1,9,N","013000,1,N,1","+0222,1","+0164,1","10132,1","06,0000,9,1",,,,,,"06,1,+06000,9,02,9",,,"06,99,1,00,1,00,1,99999,9,00,1,06,1",,"01,9",,,,"99999,9,10127,1","2,1,027,1,+008,1",,,"SYN100AAXX  13151 76458 32963 61303 10222 20164 30127 40132 52027 80006 91448 333 30/// 56//0 58008 86270;","Q01  00002PRCP06"
"76458099999","2004-04-13T18:00:00","4","23.2","-106.4166666","4.0","COLONIA JUAN CARRASCO MAZATLAN SIN., MX","FM-12","99999","V020","160,1,N,0020,1","06000,1,9,N","020000,1,N,1","+0256,1","+0179,1","10132,1","06,0000,9,1",,,,,,"05,1,+06000,9,02,9",,,"05,99,1,00,1,00,1,99999,9,00,1,06,1",,"01,9",,"120,M,+0272,1","240,N,+0177,1","99999,9,10128,1","0,1,001,1,+008,1",,,"SYN112AAXX  13181 76458 32970 51602 10256 20179 30128 40132 50001 80006 91748 333 10272 20177 30/// 56//0 58008 85270;","Q01  00002PRCP06"
"76458099999","2004-04-13T21:00:00","4","23.2","-106.4166666","4.0","COLONIA JUAN CARRASCO MAZATLAN SIN., MX","FM-12","99999","V020","260,1,N,0030,1","99999,9,9,N","020000,1,N,1","+0251,1","+0204,1","10122,1","06,0000,9,1",,,,,,"01,1,+02700,9,03,9",,,"07,99,1,01,1,00,1,99999,9,03,1,06,1",,"01,9",,,,"99999,9,10117,1","7,1,010,1,-010,1",,,"SYN106AAXX  13211 76458 32970 72603 10251 20204 30117 40122 57010 81036 92058 333 30/// 56019 59010 81359 86079;","Q01  00002PRCP06"
"76458099999","2004-04-14T00:00:00","4","23.2","-106.4166666","4.0","COLONIA JUAN CARRASCO MAZATLAN SIN., MX","FM-12","99999","V020","300,1,N,0030,1","99999,9,9,N","020000,1,N,1","+0248,1","+0188,1","10120,1","06,0000,9,1","24,0000,9,1",,,,,"02,1,+02400,9,03,9",,,"07,99,1,07,1,00,1,99999,9,03,1,00,1",,"01,9",,"120,M,+0285,1","180,N,+0177,1","99999,9,10115,1","6,1,002,1,+023,1",,,"SYN130AAXX  14001 76458 32970 73003 10248 20188 30115 40120 56002 87030 92350 333 10285 20177 30/// 50501 56090 58023 70000 82358 85461;","Q01  00002PRCP06"
"76458099999","2004-04-14T03:00:00","4","23.2","-106.4166666","4.0","COLONIA JUAN CARRASCO MAZATLAN SIN., MX","FM-12","99999","V020","999,9,C,0000,1","22000,1,9,N","008000,1,N,1","+0234,1","+0184,1","10120,1","06,0000,9,1",,,,,,"00,1,+99999,9,99,9",,,"00,99,1,00,1,00,1,99999,9,00,1,00,1",,"01,9",,,,"99999,9,10116,1","4,1,000,1,-017,1",,,"SYN082AAXX  14031 76458 32958 00000 10234 20184 30116 40120 54001 90240 333 30/// 59017;","Q01  00002PRCP06"
"76458099999","2004-04-14T06:00:00","4","23.2","-106.4166666","4.0","COLONIA JUAN CARRASCO MAZATLAN SIN., MX","FM-12","99999","V020","270,1,N,0030,1","22000,1,9,N","008000,1,N,1","+0230,1","+0196,1","10152,1","06,0000,9,1",,,,,,"00,1,+99999,9,99,9",,,"00,99,1,00,1,00,1,99999,9,00,1,00,1","0360,9","01,9",,"240,M,+0285,1","240,N,+0177,1","99999,9,10147,1","2,1,031,1,+999,9",,,"SYN106AAXX  14061 76458 32958 02703 10230 20196 30147 40152 52031 90532 333 10285 20177 30/// 55060 21052 58039;","Q01  00002PRCP06"
"76458099999","2004-04-14T15:00:00","4","23.2","-106.4166666","4.0","COLONIA JUAN CARRASCO MAZATLAN SIN., MX","FM-12","99999","V020","120,1,N,0020,1","22000,1,9,N","015000,1,N,1","+0236,1","+0198,1","10155,1","06,0000,9,1",,,,,,"01,1,+00480,9,08,9",,,"03,99,1,01,1,02,1,00450,1,00,1,04,1",,"01,9",,,,"99999,9,10151,1","9,9,999,9,+024,1",,,"SYN106AAXX  14151 76458 32465 31202 10236 20198 30151 40155 5//// 81204 91448 333 30/// 563/0 58024 81816 82070;","Q01  00002PRCP06"
"76458099999","2004-04-15T15:00:00","4","23.2","-106.4166666","4.0","COLONIA JUAN CARRASCO MAZATLAN SIN., MX","FM-12","99999","V020","120,1,N,0020,1","22000,1,9,N","014000,1,N,1","+0248,1","+0189,1","10163,1","06,0000,9,1",,,,,,"03,1,+06000,9,02,9",,,"03,99,1,00,1,00,1,99999,9,00,1,05,1",,"01,9",,,,"99999,9,10159,1","9,9,999,9,+008,1",,,"SYN100AAXX  15151 76458 32964 31202 10248 20189 30159 40163 5//// 80005 91448 333 30/// 56//0 58008 83270;","Q01  00002PRCP06"
"76458099999","2004-04-15T18:00:00","4","23.2","-106.4166666","4.0","COLONIA JUAN CARRASCO MAZATLAN SIN., MX","FM-12","99999","V020","250,1,N,0040,1","06000,1,9,N","020000,1,N,1","+0262,1","+0211,1","10169,1","06,0000,9,1",,,,,,"06,1,+06000,9,02,9",,,"06,99,1,00,1,00,1,99999,9,00,1,07,1",,"01,9",,"120,M,+0286,1","240,N,+0196,1","99999,9,10165,1","1,1,006,1,+011,1",,,"SYN112AAXX  15181 76458 32970 62504 10262 20211 30165 40169 51006 80007 91748 333 10286 20196 30/// 56//0 58011 86270;","Q01  00002PRCP06"
"76458099999","2004-04-15T21:00:00","4","23.2","-106.4166666","4.0","COLONIA JUAN CARRASCO MAZATLAN SIN., MX","FM-12","99999","V020","270,1,N,0040,1","09000,1,C,N","020000,1,N,1","+0264,1","+0209,1","10158,1","06,0000,9,1",,,,,,"01,1,+00690,9,08,9",,,"07,99,1,01,1,01,1,00800,1,00,1,07,1",,"01,9",,,,"99999,9,10153,1","7,1,012,1,+006,1",,,"SYN106AAXX  15211 76458 32570 72704 10264 20209 30153 40158 57012 81107 92045 333 30/// 56109 58006 81823 86277;","Q01  00002PRCP06"
"76458099999","2004-04-16T00:00:00","4","23.2","-106.4166666","4.0","COLONIA JUAN CARRASCO MAZATLAN SIN., MX","FM-12","99999","V020","300,1,N,0040,1","09000,1,9,N","020000,1,N,1","+0254,1","+0207,1","10146,1","06,0000,9,1","24,0000,9,1",,,,,"01,1,+00570,9,08,9","03,1,+03300,9,04,9",,"06,99,1,01,1,02,1,00450,1,01,1,06,1",,"01,9",,"120,M,+0287,1","180,N,+0196,1","99999,9,10141,1","6,1,012,1,+003,1",,,"SYN136AAXX  16001 76458 32470 63004 10254 20207 30141 40146 56012 81216 92346 333 10287 20196 30/// 50521 56199 58003 70000 81819 83461 82079;","Q01  00002PRCP06"
"76458099999","2004-04-16T03:00:00","4","23.2","-106.4166666","4.0","COLONIA JUAN CARRASCO MAZATLAN SIN., MX","FM-12","99999","V020","320,1,N,0030,1","22000,1,9,N","008000,1,N,1","+0236,1","+0207,1","10154,1","06,0000,9,1",,,,,,"00,1,+99999,9,99,9",,,"00,99,1,00,1,00,1,99999,9,00,1,00,1",,"01,9",,,,"99999,9,10149,1","2,1,008,1,+000,1",,,"SYN082AAXX  16031 76458 32958 03203 10236 20207 30149 40154 52008 90240 333 30/// 58000;","Q01  00002PRCP06"
"76458099999","2004-04-16T12:00:00","4","23.2","-106.4166666","4.0","COLONIA JUAN CARRASCO MAZATLAN SIN., MX","FM-12","99999","V020","340,1,N,0010,1","22000,1,9,N","008000,1,N,1","+0206,1","+0182,1","10151,1","06,0000,9,1","24,0000,9,1",,,,,"00,1,+99999,9,99,9",,,"00,99,1,00,1,00,1,99999,9,00,1,00,1",,"01,9","999,+0190,9","999,M,+0287,1","120,N,+0202,1","99999,9,10146,1","4,1,000,1,+999,9",,,"SYN100AAXX  16121 76458 32958 03401 10206 20182 30146 40151 54001 91138 333 10287 20202 30019 58/// 70000;","Q01  00002PRCP06Q02  00002PRCP24"
"76458099999","2004-04-16T15:00:00","4","23.2","-106.4166666","4.0","COLONIA JUAN CARRASCO MAZATLAN SIN., MX","FM-12","99999","V020","300,1,N,0020,1","22000,1,C,N","015000,1,N,1","+0244,1","+0199,1","10167,1","06,0000,9,1",,,,,,"02,1,+00570,9,08,9",,,"06,99,1,02,1,02,1,00450,1,00,1,06,1",,"01,9",,,,"99999,9,10163,1","2,1,016,1,+004,1",,,"SYN106AAXX  16151 76458 32465 63002 10244 20199 30163 40167 52016 82206 91448 333 30/// 565/0 58004 82819 84270;","Q01  00002PRCP06"
"76458099999","2004-04-16T18:00:00","4","23.2","-106.4166666","4.0","COLONIA JUAN CARRASCO MAZATLAN SIN., MX","FM-12","99999","V020","240,1,N,0030,1","22000,1,9,N","020000,1,N,1","+0258,1","+0203,1","10165,1","06,0000,9,1",,,,,,"04,1,+06000,9,02,9",,,"04,99,1,00,1,00,1,99999,9,00,1,05,1",,"01,9",,"120,M,+0278,1","240,N,+0200,1","99999,9,10160,1","1,1,003,1,-005,1",,,"SYN112AAXX  16181 76458 32970 42403 10258 20203 30160 40165 51003 80005 91748 333 10278 20200 30/// 56//0 59005 84270;","Q01  00002PRCP06"
"76458099999","2004-04-16T21:00:00","4","23.2","-106.4166666","4.0","COLONIA JUAN CARRASCO MAZATLAN SIN., MX","FM-12","99999","V020","260,1,N,0020,1","22000,1,9,N","020000,1,N,1","+0256,1","+0211,1","10147,1","06,0000,9,1",,,,,,"02,1,+06600,9,02,9",,,"02,99,1,00,1,00,1,99999,9,00,1,08,1",,"01,9",,,,"99999,9,10142,1","7,1,018,1,-011,1",,,"SYN100AAXX  16211 76458 32970 22602 10256 20211 30142 40147 57018 80008 92035 333 30/// 56009 59011 82272;","Q01  00002PRCP06"
"76458099999","2004-04-17T03:00:00","4","23.2","-106.4166666","4.0","COLONIA JUAN CARRASCO MAZATLAN SIN., MX","FM-12","99999","V020","320,1,N,0030,1","22000,1,9,N","008000,1,N,1","+0242,1","+0202,1","10146,1","06,0000,9,1",,,,,,"03,1,+06000,9,00,9",,,"03,99,1,00,1,99,9,99999,9,99,9,01,1",,"01,9",,,,"99999,9,10141,1","2,1,999,9,-008,1",,,"SYN094AAXX  17031 76458 32958 33203 10242 20202 30141 40146 52/// 80//1 90240 333 30/// 59008 83070;","Q01  00002PRCP06"
"76458099999","2004-04-17T06:00:00","4","23.2","-106.4166666","4.0","COLONIA JUAN CARRASCO MAZATLAN SIN., MX","FM-12","99999","V020","320,1,N,0020,1","22000,1,9,N","008000,1,N,1","+0230,1","+0192,1","10153,1","06,0000,9,1",,,,,,,,,"04,99,1,00,1,99,9,99999,9,99,9,01,1","0666,9","01,9",,"240,M,+0285,1","240,N,+0200,1","99999,9,10148,1","2,1,007,1,-012,1",,,"SYN118AAXX  17061 76458 32958 43202 10230 20192 30148 40153 52007 80//1 90530 333 10285 20200 30/// 55111 21625 59012 84070;","Q01  00002PRCP06"
"76458099999","2004-04-17T15:00:00","4","23.2","-106.4166666","4.0","COLONIA JUAN CARRASCO MAZATLAN SIN., MX","FM-12","99999","V020","030,1,N,0010,1","06000,1,9,N","013000,1,N,1","+0232,1","+0197,1","10149,1","06,0000,9,1",,,,,,"06,1,+06000,9,00,9",,,"06,99,1,00,1,00,1,99999,9,00,1,03,1",,"01,9",,,,"99999,9,10145,1","1,1,011,1,-018,1",,,"SYN100AAXX  17151 76458 32963 60301 10232 20197 30145 40149 51011 80003 91448 333 30/// 56//0 59018 86070;","Q01  00002PRCP06"
"76458099999","2004-04-17T18:00:00","4","23.2","-106.4166666","4.0","COLONIA JUAN CARRASCO MAZATLAN SIN., MX","FM-12","99999","V020","180,1,N,0020,1","06000,1,9,N","020000,1,N,1","+0274,1","+0158,1","10153,1","06,0000,9,1",,,,,,"05,1,+06000,9,00,9",,,"05,99,1,00,1,00,1,99999,9,00,1,03,1",,"01,9",,"120,M,+0295,1","240,N,+0200,1","99999,9,10148,1","1,1,003,1,-012,1",,,"SYN112AAXX  17181 76458 32970 51802 10274 20158 30148 40153 51003 80003 91748 333 10295 20200 30/// 56//0 59012 85070;","Q01  00002PRCP06"
"76458099999","2004-04-18T00:00:00","4","23.2","-106.4166666","4.0","COLONIA JUAN CARRASCO MAZATLAN SIN., MX","FM-12","99999","V020","270,1,N,0050,1","09000,1,9,N","020000,1,N,1","+0254,1","+0188,1","10121,1","06,0000,9,1","24,0000,9,1",,,,,"01,1,+04200,9,03,9",,,"06,99,1,01,1,00,1,02250,1,03,1,08,1",,"01,9",,"120,M,+0302,1","180,N,+0200,1","99999,9,10116,1","7,1,024,1,+999,9",,,"SYN130AAXX  18001 76458 32870 62705 10254 20188 30116 40121 57024 81038 92345 333 10302 20200 30/// 50471 56/99 58/// 70000 81364 85268;","Q01  00002PRCP06"
"76458099999","2004-04-18T15:00:00","4","23.2","-106.4166666","4.0","COLONIA JUAN CARRASCO MAZATLAN SIN., MX","FM-12","99999","V020","270,1,N,0020,1","99999,9,9,N","010000,1,N,1","+0242,1","+0157,1","10140,1","06,0000,9,1",,,,,,,,,"06,99,1,00,1,99,9,99999,9,99,9,06,1",,"01,9",,,,"99999,9,10135,1","3,1,009,1,-009,1",,,"SYN088AAXX  18151 76458 32960 62702 10242 20157 30135 40140 53009 80//6 91440 333 30/// 59009;","Q01  00002PRCP06"
"76458099999","2004-04-18T21:00:00","4","23.2","-106.4166666","4.0","COLONIA JUAN CARRASCO MAZATLAN SIN., MX","FM-12","99999","V020","240,1,N,0020,1","05400,1,9,N","018000,1,N,1","+0259,1","+0188,1","10139,1","06,0000,9,1",,,,,,"08,1,+05400,9,02,9",,,"08,99,1,00,1,00,1,99999,9,00,1,08,1",,"01,9",,,,"99999,9,10135,1","7,1,014,1,-005,1",,,"SYN100AAXX  18211 76458 32968 82402 10259 20188 30135 40139 57014 80008 92047 333 30/// 56//9 59005 88268;","Q01  00002PRCP06"
"76458099999","2004-04-19T03:00:00","4","23.2","-106.4166666","4.0","COLONIA JUAN CARRASCO MAZATLAN SIN., MX","FM-12","99999","V020","320,1,N,0020,1","22000,1,9,N","008000,1,N,1","+0234,1","+0205,1","10137,1","06,0000,9,1",,,,,,"00,1,+99999,9,99,9",,,"00,99,1,00,1,00,1,99999,9,00,1,00,1",,"01,9",,,,"99999,9,10132,1","7,1,008,1,+012,1",,,"SYN082AAXX  19031 76458 32958 03202 10234 20205 30132 40137 57008 90245 333 30/// 58012;","Q01  00002PRCP06"
"76458099999","2004-04-19T15:00:00","4","23.2","-106.4166666","4.0","COLONIA JUAN CARRASCO MAZATLAN SIN., MX","FM-12","99999","V020","100,1,N,0020,1","03600,1,C,N","013000,1,N,1","+0244,1","+0210,1","10169,1","06,0000,9,1",,,,,,"04,1,+00600,9,08,9",,,"05,99,1,04,1,02,1,00800,1,03,1,00,1",,"01,9",,,,"99999,9,10165,1","2,1,022,1,+030,1",,,"SYN106AAXX  19151 76458 32563 51002 10244 20210 30165 40169 52022 84230 91450 333 30/// 5640/ 58030 84820 81358;","Q01  00002PRCP06"
"76458099999","2004-04-19T21:00:00","4","23.2","-106.4166666","4.0","COLONIA JUAN CARRASCO MAZATLAN SIN., MX","FM-12","99999","V020","260,1,N,0030,1","22000,1,9,N","018000,1,N,1","+0264,1","+0207,1","10154,1","06,0000,9,1",,,,,,"00,1,+99999,9,99,9",,,"00,99,1,00,1,00,1,99999,9,00,1,00,1",,"01,9",,,,"99999,9,10149,1","7,1,023,1,+014,1",,,"SYN082AAXX  19211 76458 32968 02603 10264 20207 30149 40154 57023 92050 333 30/// 58014;","Q01  00002PRCP06"
"76458099999","2004-04-20T00:00:00","4","23.2","-106.4166666","4.0","COLONIA JUAN CARRASCO MAZATLAN SIN., MX","FM-12","99999","V020","280,1,N,0050,1","22000,1,9,N","018000,1,N,1","+0254,1","+0206,1","10136,1","06,0000,9,1","24,0000,9,1",,,,,"02,1,+06000,9,00,9",,,"02,99,1,00,1,99,9,99999,9,99,9,06,1",,"01,9",,"120,M,+0294,1","180,N,+0210,1","99999,9,10132,1","7,1,007,1,+008,1",,,"SYN112AAXX  20001 76458 32968 22805 10254 20206 30132 40136 57007 80//6 92340 333 10294 20210 30/// 58008 70000 82070;","Q01  00002PRCP06"
"76458099999","2004-04-20T03:00:00","4","23.2","-106.4166666","4.0","COLONIA JUAN CARRASCO MAZATLAN SIN., MX","FM-12","99999","V020","270,1,N,0030,1","22000,1,9,N","008000,1,N,1","+0236,1","+0198,1","10135,1","06,0000,9,1",,,,,,"02,1,+06000,9,00,9",,,"02,99,1,00,1,99,9,99999,9,99,9,01,1",,"01,9",,,,"99999,9,10131,1","5,1,001,1,-001,1",,,"SYN094AAXX  20031 76458 32958 22703 10236 20198 30131 40135 55001 80//1 90240 333 30/// 59001 82070;","Q01  00002PRCP06"
"76458099999","2004-04-20T15:00:00","4","23.2","-106.4166666","4.0","COLONIA JUAN CARRASCO MAZATLAN SIN., MX","FM-12","99999","V020","100,1,N,0020,1","22000,1,9,N","013000,1,N,1","+0244,1","+0207,1","10148,1","06,0000,9,1",,,,,,"02,1,+00480,9,08,9",,,"03,99,1,02,1,02,1,00450,1,00,1,02,1",,"01,9",,,,"99999,9,10144,1","1,1,011,1,-021,1",,,"SYN106AAXX  20151 76458 32463 31002 10244 20207 30144 40148 51011 82202 91448 333 30/// 563/0 59021 82816 81070;","Q01  00002PRCP06"
"76458099999","2004-04-20T18:00:00","4","23.2","-106.4166666","4.0","COLONIA JUAN CARRASCO MAZATLAN SIN., MX","FM-12","99999","V020","140,1,N,0030,1","22000,1,9,N","018000,1,N,1","+0258,1","+0198,1","10154,1","06,0000,9,1",,,,,,"04,1,+00750,9,08,9",,,"04,99,1,04,1,01,1,00800,1,00,1,00,1",,"01,9",,"120,M,+0277,1","240,N,+0206,1","99999,9,10150,1","0,1,006,1,-022,1",,,"SYN112AAXX  20181 76458 32568 41403 10258 20198 30150 40154 50006 84100 91745 333 10277 20206 30/// 563// 59022 84825;","Q01  00002PRCP06"
"76458099999","2004-04-20T21:00:00","4","23.2","-106.4166666","4.0","COLONIA JUAN CARRASCO MAZATLAN SIN., MX","FM-12","99999","V020","240,1,N,0030,1","22000,1,9,N","020000,1,N,1","+0273,1","+0200,1","10136,1","06,0000,9,1",,,,,,"01,1,+06000,9,00,9",,,"01,99,1,00,1,00,1,99999,9,00,1,06,1",,"01,9",,,,"99999,9,10131,1","7,1,019,1,-018,1",,,"SYN100AAXX  20211 76458 32970 12403 10273 20200 30131 40136 57019 80006 92048 333 30/// 56//9 59018 81070;","Q01  00002PRCP06"
"76458099999","2004-04-21T00:00:00","4","23.2","-106.4166666","4.0","COLONIA JUAN CARRASCO MAZATLAN SIN., MX","FM-12","99999","V020","260,1,N,0020,1","22000,1,9,N","018000,1,N,1","+0258,1","+0198,1","10107,1","06,0000,9,1","24,0000,9,1",,,,,"00,1,+99999,9,99,9",,,"00,99,1,00,1,00,1,99999,9,00,1,00,1",,"01,9",,"120,M,+0290,1","180,N,+0206,1","99999,9,10102,1","7,1,029,1,-029,1",,,"SYN100AAXX  21001 76458 32968 02602 10258 20198 30102 40107 57029 92340 333 10290 20206 30/// 59029 70000;","Q01  00002PRCP06Q02  00002PRCP24"
"76458099999","2004-04-21T03:00:00","4","23.2","-106.4166666","4.0","COLONIA JUAN CARRASCO MAZATLAN SIN., MX","FM-12","99999","V020","250,1,N,0010,1","22000,1,9,N","008000,1,N,1","+0236,1","+0201,1","10115,1","06,0000,9,1",,,,,,"00,1,+99999,9,99,9",,,"00,99,1,00,1,00,1,99999,9,00,1,00,1",,"01,9",,,,"99999,9,10110,1","2,1,003,1,-020,1",,,"SYN082AAXX  21031 76458 32958 02501 10236 20201 30110 40115 52003 90243 333 30/// 59020;","Q01  00002PRCP06"
"76458099999","2004-04-21T15:00:00","4","23.2","-106.4166666","4.0","COLONIA JUAN CARRASCO MAZATLAN SIN., MX","FM-12","99999","V020","100,1,N,0020,1","00360,1,9,N","008000,1,N,1","+0227,1","+0199,1","10112,1","06,0000,9,1",,,,"4,1,03,1","1,1,03,1","05,1,+00360,9,07,9",,,"05,99,1,05,1,06,1,00450,1,00,1,00,1",,"01,9",,,,"99999,9,10108,1","2,1,012,1,-036,1","05,1",,"SYN106AAXX  21151 76458 31458 51002 10227 20199 30108 40112 52012 70541 85600 91448 333 30/// 564// 59036 85712;","Q01  00002PRCP06"
"76458099999","2004-04-21T21:00:00","4","23.2","-106.4166666","4.0","COLONIA JUAN CARRASCO MAZATLAN SIN., MX","FM-12","99999","V020","180,1,N,0020,1","22000,1,9,N","018000,1,N,1","+0274,1","+0203,1","10107,1","06,0000,9,1",,,,,,"00,1,+99999,9,99,9",,,"00,99,1,00,1,00,1,99999,9,00,1,00,1",,"01,9",,,,"99999,9,10102,1","7,1,011,1,-029,1",,,"SYN082AAXX  21211 76458 32968 01802 10274 20203 30102 40107 57011 92040 333 30/// 59029;","Q01  00002PRCP06"
"76458099999","2004-04-22T00:00:00","4","23.2","-106.4166666","4.0","COLONIA JUAN CARRASCO MAZATLAN SIN., MX","FM-12","99999","V020","220,1,N,0030,1","22000,1,9,N","018000,1,N,1","+0256,1","+0201,1","10100,1","06,0000,9,1","24,0000,9,1",,,,,,,,"02,99,1,02,1,01,1,00800,1,99,9,99,9",,"01,9",,"120,M,+0290,1","180,N,+0196,1","99999,9,10096,1","5,1,006,1,-006,1",,,"SYN124AAXX  22001 76458 32568 22203 10256 20201 30096 40100 55006 821// 92340 333 10290 20196 30/// 50561 566// 59006 70000 82823;","Q01  00002PRCP06"
"76458099999","2004-04-22T03:00:00","4","23.2","-106.4166666","4.0","COLONIA JUAN CARRASCO MAZATLAN SIN., MX","FM-12","99999","V020","280,1,N,0010,1","22000,1,9,N","008000,1,N,1","+0234,1","+0178,1","10111,1","06,0000,9,1",,,,,,"00,1,+99999,9,99,9",,,"00,99,1,00,1,00,1,99999,9,00,1,00,1",,"01,9",,,,"99999,9,10107,1","2,1,011,1,-003,1",,,"SYN082AAXX  22031 76458 32958 02801 10234 20178 30107 40111 52011 90240 333 30/// 59003;","Q01  00002PRCP06"
"76458099999","2004-04-22T06:00:00","4","23.2","-106.4166666","4.0","COLONIA JUAN CARRASCO MAZATLAN SIN., MX","FM-12","99999","V020","150,1,N,0010,1","22000,1,9,N","008000,1,N,1","+0229,1","+0180,1","10123,1","06,0000,9,1",,,,,,"00,1,+99999,9,99,9",,,"00,99,1,00,1,00,1,99999,9,00,1,00,1","0636,9","01,9",,"240,M,+0290,1","240,N,+0196,1","99999,9,10118,1","2,1,011,1,+999,9",,,"SYN106AAXX  22061 76458 32958 01501 10229 20180 30118 40123 52011 90545 333 10290 20196 30/// 55106 21292 58///;","Q01  00002PRCP06"
"76458099999","2004-04-22T09:00:00","4","23.2","-106.4166666","4.0","COLONIA JUAN CARRASCO MAZATLAN SIN., MX","FM-12","99999","V020","999,9,C,0000,1","22000,1,9,N","008000,1,N,1","+0219,1","+0185,1","10121,1","06,0000,9,1",,,,,,"01,1,+00420,9,06,9",,,"01,99,1,01,1,04,1,00450,1,00,1,00,1",,"01,9",,,,"99999,9,10116,1","7,1,002,1,+999,9",,,"SYN100AAXX  22091 76458 32458 10000 10219 20185 30116 40121 57002 81400 90845 333 30/// 562// 58/// 81614;","Q01  00002PRCP06"
"76458099999","2004-04-22T15:00:00","4","23.2","-106.4166666","4.0","COLONIA JUAN CARRASCO MAZATLAN SIN., MX","FM-12","99999","V020","120,1,N,0030,1","99999,9,9,N","015000,1,N,1","+0244,1","+0191,1","99999,9","06,0000,9,1",,,,,,"01,1,+00660,9,08,9","02,1,+02400,9,03,9",,"05,99,1,99,9,99,9,00800,1,99,9,99,9",,"01,9",,,,,"9,9,999,9,+011,1",,,"SYN114AAXX  22151 76458 32565 51203 10244 20191 3 30119 40123 52009 81136 91448 333 30/// 56300 58011 81822 82358 82270;","Q01  00002PRCP06"
"76458099999","2004-04-22T18:00:00","4","23.2","-106.4166666","4.0","COLONIA JUAN CARRASCO MAZATLAN SIN., MX","FM-12","99999","V020","180,1,N,0020,1","22000,1,9,N","020000,1,N,1","+0270,1","+0185,1","10127,1","06,0000,9,1",,,,,,,,,"03,99,1,00,1,00,1,99999,9,00,1,06,1",,"01,9",,"120,M,+0288,1","240,N,+0205,1","99999,9,10122,1","2,1,003,1,-008,1",,,"SYN100AAXX  22181 76458 32970 31802 10270 20185 30122 40127 52003 80006 91750 333 10288 20205 30/// 59008;","Q01  00002PRCP06"
"76458099999","2004-04-22T21:00:00","4","23.2","-106.4166666","4.0","COLONIA JUAN CARRASCO MAZATLAN SIN., MX","FM-12","99999","V020","180,1,N,0030,1","06600,1,9,N","020000,1,N,1","+0266,1","+0190,1","10113,1","06,0000,9,1",,,,,,"06,1,+06600,9,02,9",,,"06,99,1,00,1,00,1,99999,9,00,1,08,1",,"01,9",,,,"99999,9,10108,1","7,1,014,1,+006,1",,,"SYN100AAXX  22211 76458 32970 61803 10266 20190 30108 40113 57014 80008 92050 333 30/// 56009 58006 86272;","Q01  00002PRCP06"
"76458099999","2004-04-23T00:00:00","4","23.2","-106.4166666","4.0","COLONIA JUAN CARRASCO MAZATLAN SIN., MX","FM-12","99999","V020","250,1,N,0020,1","22000,1,9,N","020000,1,N,1","+0256,1","+0201,1","10102,1","06,0000,9,1","24,0000,9,1",,,,,"01,1,+00690,9,08,9",,,"03,99,1,01,1,01,1,01250,1,99,9,01,1",,"01,9",,"120,M,+0290,1","180,N,+0205,1","99999,9,10097,1","6,1,011,1,+001,1",,,"SYN130AAXX  23001 76458 32670 32502 10256 20201 30097 40102 56011 811/1 92340 333 10290 20205 30/// 50571 566/9 58001 70000 81823 82070;","Q01  00002PRCP06"
"76458099999","2004-04-23T03:00:00","4","23.2","-106.4166666","4.0","COLONIA JUAN CARRASCO MAZATLAN SIN., MX","FM-12","99999","V020","270,1,N,0020,1","22000,1,9,N","008000,1,N,1","+0236,1","+0195,1","10111,1","06,0000,9,1",,,,,,"01,1,+00600,9,08,9",,,"01,99,1,01,1,01,1,00800,1,99,9,99,9",,"01,9",,,,"99999,9,10107,1","2,1,011,1,+000,1",,,"SYN100AAXX  23031 76458 32558 12702 10236 20195 30107 40111 52011 811// 90245 333 30/// 566// 58000 81820;","Q01  00002PRCP06"
"76458099999","2004-04-23T06:00:00","4","23.2","-106.4166666","4.0","COLONIA JUAN CARRASCO MAZATLAN SIN., MX","FM-12","99999","V020","100,1,N,0010,1","22000,1,9,N","008000,1,N,1","+0229,1","+0207,1","10123,1","06,0000,9,1",,,,,,,,,"01,99,1,01,1,04,1,00250,1,00,1,00,1","0642,9","01,9",,"240,M,+0290,1","240,N,+0205,1","99999,9,10118,1","2,1,011,1,+000,1",,,"SYN124AAXX  23061 76458 32358 11001 10229 20207 30118 40123 52011 81400 90548 333 10290 20205 30/// 55107 21253 566// 58000 81409;","Q01  00002PRCP06"
"76458099999","2004-04-23T09:00:00","4","23.2","-106.4166666","4.0","COLONIA JUAN CARRASCO MAZATLAN SIN., MX","FM-12","99999","V020","090,1,N,0020,1","22000,1,9,N","008000,1,N,1","+0219,1","+0193,1","10116,1","06,0000,9,1",,,,,,"00,1,+99999,9,99,9",,,"00,99,1,00,1,00,1,99999,9,00,1,00,1",,"01,9",,,,"99999,9,10111,1","7,1,007,1,-005,1",,,"SYN082AAXX  23091 76458 32958 00902 10219 20193 30111 40116 57007 90845 333 30/// 59005;","Q01  00002PRCP06"
"76458099999","2004-04-23T15:00:00","4","23.2","-106.4166666","4.0","COLONIA JUAN CARRASCO MAZATLAN SIN., MX","FM-12","99999","V020","120,1,N,0020,1","22000,1,9,N","018000,1,N,1","+0248,1","+0188,1","10121,1","06,0000,9,1",,,,,,"01,1,+00540,9,08,9",,,"03,99,1,01,1,02,1,00800,1,00,1,06,1",,"01,9",,,,"99999,9,10117,1","2,1,012,1,-002,1",,,"SYN106AAXX  23151 76458 32568 31202 10248 20188 30117 40121 52012 81206 91448 333 30/// 564/0 59002 81818 82270;","Q01  00002PRCP06"
"76458099999","2004-04-23T21:00:00","4","23.2","-106.4166666","4.0","COLONIA JUAN CARRASCO MAZATLAN SIN., MX","FM-12","99999","V020","180,1,N,0030,1","22000,1,9,N","020000,1,N,1","+0270,1","+0201,1","10113,1","06,0000,9,1",,,,,,"01,1,+00870,9,08,9",,,"01,99,1,01,1,02,1,00800,1,00,1,00,1",,"01,9",,,,"99999,9,10108,1","7,1,013,1,-001,1",,,"SYN100AAXX  23211 76458 32570 11803 10270 20201 30108 40113 57013 81200 92045 333 30/// 56/00 59001 81829;","Q01  00002PRCP06"
"76458099999","2004-04-24T00:00:00","4","23.2","-106.4166666","4.0","COLONIA JUAN CARRASCO MAZATLAN SIN., MX","FM-12","99999","V020","210,1,N,0030,1","22000,1,9,N","020000,1,N,1","+0256,1","+0176,1","10102,1","06,0000,9,1","24,0000,9,1",,,,,"00,1,+99999,9,99,9",,,"00,99,1,00,1,00,1,99999,9,00,1,00,1",,"01,9",,"120,M,+0288,1","180,N,+0204,1","99999,9,10097,1","6,1,011,1,+000,1",,,"SYN106AAXX  24001 76458 32970 02103 10256 20176 30097 40102 56011 92345 333 10288 20204 30/// 50401 58000 70000;","Q01  00002PRCP06Q02  00002PRCP24"
"76458099999","2004-04-24T03:00:00","4","23.2","-106.4166666","4.0","COLONIA JUAN CARRASCO MAZATLAN SIN., MX","FM-12","99999","V020","170,1,N,0020,1","22000,1,9,N","008000,1,N,1","+0236,1","+0183,1","10109,1","06,0000,9,1",,,,,,"00,1,+99999,9,99,9",,,"00,99,1,00,1,00,1,99999,9,00,1,00,1",,"01,9",,,,"99999,9,10104,1","2,1,007,1,-003,1",,,"SYN082AAXX  24031 76458 32958 01702 10236 20183 30104 40109 52007 90240 333 30/// 59003;","Q01  00002PRCP06"
"76458099999","2004-04-24T06:00:00","4","23.2","-106.4166666","4.0","COLONIA JUAN CARRASCO MAZATLAN SIN., MX","FM-12","99999","V020","170,1,N,0010,1","22000,1,9,N","008000,1,N,1","+0230,1","+0186,1","10119,1","06,0000,9,1",,,,,,,,,"01,99,1,01,1,04,1,00800,1,00,1,00,1","0684,9","01,9",,"240,M,+0288,1","240,N,+0204,1","99999,9,10114,1","2,1,010,1,-004,1",,,"SYN124AAXX  24061 76458 32558 11701 10230 20186 30114 40119 52010 81400 90545 333 10288 20204 30/// 55114 21377 566// 59004 81618;","Q01  00002PRCP06"
"76458099999","2004-04-24T09:00:00","4","23.2","-106.4166666","4.0","COLONIA JUAN CARRASCO MAZATLAN SIN., MX","FM-12","99999","V020","999,9,C,0000,1","22000,1,9,N","008000,1,N,1","+0220,1","+0185,1","10116,1","06,0000,9,1",,,,,,"00,1,+99999,9,99,9",,,"00,99,1,00,1,00,1,99999,9,00,1,00,1",,"01,9",,,,"99999,9,10111,1","2,1,002,1,+000,1",,,"SYN082AAXX  24091 76458 32958 00000 10220 20185 30111 40116 52002 90847 333 30/// 58000;","Q01  00002PRCP06"
"76458099999","2004-04-24T15:00:00","4","23.2","-106.4166666","4.0","COLONIA JUAN CARRASCO MAZATLAN SIN., MX","FM-12","99999","V020","120,1,N,0020,1","22000,1,9,N","013000,1,N,1","+0246,1","+0193,1","10124,1","06,0000,9,1",,,,,,"03,1,+00660,9,08,9",,,"03,99,1,03,1,02,1,00800,1,00,1,00,1",,"01,9",,,,"99999,9,10120,1","3,1,007,1,+003,1",,,"SYN100AAXX  24151 76458 32563 31202 10246 20193 30120 40124 53007 83200 91448 333 30/// 564// 58003 83822;","Q01  00002PRCP06"
"76458099999","2004-04-24T18:00:00","4","23.2","-106.4166666","4.0","COLONIA JUAN CARRASCO MAZATLAN SIN., MX","FM-12","99999","V020","160,1,N,0040,1","22000,1,9,N","018000,1,N,1","+0263,1","+0185,1","10126,1","06,0000,9,1",,,,,,"01,1,+00960,9,06,9",,,"01,99,1,01,1,04,1,00800,1,00,1,00,1",,"01,9",,"120,M,+0283,1","240,N,+0203,1","99999,9,10122,1","0,1,003,1,+001,1",,,"SYN112AAXX  24181 76458 32568 11604 10263 20185 30122 40126 50003 81400 91745 333 10283 20203 30/// 563// 58001 81632;","Q01  00002PRCP06"
"76458099999","2004-04-24T21:00:00","4","23.2","-106.4166666","4.0","COLONIA JUAN CARRASCO MAZATLAN SIN., MX","FM-12","99999","V020","250,1,N,0040,1","22000,1,9,N","018000,1,N,1","+0269,1","+0189,1","10110,1","06,0000,9,1",,,,,,"01,1,+00990,9,08,9",,,"01,99,1,01,1,01,1,00800,1,00,1,00,1",,"01,9",,,,"99999,9,10106,1","7,1,016,1,-002,1",,,"SYN100AAXX  24211 76458 32568 12504 10269 20189 30106 40110 57016 81100 92048 333 30/// 566// 59002 81833;","Q01  00002PRCP06"
"76458099999","2004-04-25T00:00:00","4","23.2","-106.4166666","4.0","COLONIA JUAN CARRASCO MAZATLAN SIN., MX","FM-12","99999","V020","240,1,N,0030,1","22000,1,9,N","008000,1,N,1","+0260,1","+0190,1","10107,1","06,0000,9,1","24,0000,9,1",,,,,"00,1,+99999,9,99,9",,,"00,99,1,00,1,00,1,99999,9,00,1,00,1",,"01,9",,"120,M,+0290,1","180,N,+0203,1","99999,9,10103,1","5,1,003,1,+006,1",,,"SYN106AAXX  25001 76458 32958 02403 10260 20190 30103 40107 55003 92345 333 10290 20203 30/// 50641 58006 70000;","Q01  00002PRCP06Q02  00002PRCP24"
"76458099999","2004-04-25T03:00:00","4","23.2","-106.4166666","4.0","COLONIA JUAN CARRASCO MAZATLAN SIN., MX","FM-12","99999","V020","210,1,N,0020,1","22000,1,9,N","008000,1,N,1","+0236,1","+0186,1","10119,1","06,0000,9,1",,,,,,"00,1,+99999,9,99,9",,,"00,99,1,00,1,00,1,99999,9,00,1,00,1",,"01,9",,,,"99999,9,10115,1","2,1,012,1,+011,1",,,"SYN082AAXX  25031 76458 32958 02102 10236 20186 30115 40119 52012 90240 333 30/// 58011;","Q01  00002PRCP06"
"76458099999","2004-04-25T15:00:00","4","23.2","-106.4166666","4.0","COLONIA JUAN CARRASCO MAZATLAN SIN., MX","FM-12","99999","V020","999,9,C,0000,1","22000,1,9,N","015000,1,N,1","+0236,1","+0198,1","10136,1","06,0000,9,1",,,,,,"03,1,+00480,9,08,9",,,"03,99,1,03,1,02,1,00450,1,00,1,00,1",,"01,9",,,,"99999,9,10131,1","2,1,005,1,+012,1",,,"SYN100AAXX  25151 76458 32465 30000 10236 20198 30131 40136 52005 83200 91458 333 30/// 56500 58012 83816;","Q01  00002PRCP06"
"76458099999","2004-04-25T18:00:00","4","23.2","-106.4166666","4.0","COLONIA JUAN CARRASCO MAZATLAN SIN., MX","FM-12","99999","V020","220,1,N,0040,1","22000,1,9,N","018000,1,N,1","+0268,1","+0193,1","10131,1","06,0000,9,1",,,,,,"00,1,+99999,9,99,9",,,"00,99,1,00,1,00,1,99999,9,00,1,00,1",,"01,9",,"120,M,+0285,1","240,N,+0205,1","99999,9,10127,1","8,1,004,1,+005,1",,,"SYN094AAXX  25181 76458 32968 02204 10268 20193 30127 40131 58004 91745 333 10285 20205 30/// 58005;","Q01  00002PRCP06"
"76458099999","2004-04-25T21:00:00","4","23.2","-106.4166666","4.0","COLONIA JUAN CARRASCO MAZATLAN SIN., MX","FM-12","99999","V020","270,1,N,0030,1","22000,1,9,N","020000,1,N,1","+0270,1","+0190,1","10121,1","06,0000,9,1",,,,,,"00,1,+99999,9,99,9",,,"00,99,1,00,1,00,1,99999,9,00,1,00,1",,"01,9",,,,"99999,9,10117,1","7,1,010,1,+011,1",,,"SYN082AAXX  25211 76458 32970 02703 10270 20190 30117 40121 57010 92045 333 30/// 58011;","Q01  00002PRCP06"
"76458099999","2004-04-26T00:00:00","4","23.2","-106.4166666","4.0","COLONIA JUAN CARRASCO MAZATLAN SIN., MX","FM-12","99999","V020","270,1,N,0030,1","06000,1,9,N","020000,1,N,1","+0256,1","+0186,1","10110,1","06,0000,9,1","24,0000,9,1",,,,,"06,1,+06000,9,00,9",,,"06,99,1,00,1,99,9,99999,9,99,9,06,1",,"01,9",,"120,M,+0287,1","180,N,+0205,1","99999,9,10105,1","7,1,012,1,+002,1",,,"SYN112AAXX  26001 76458 32970 62703 10256 20186 30105 40110 57012 80//6 92340 333 10287 20205 30/// 58002 70000 86070;","Q01  00002PRCP06"
"76458099999","2004-04-26T03:00:00","4","23.2","-106.4166666","4.0","COLONIA JUAN CARRASCO MAZATLAN SIN., MX","FM-12","99999","V020","320,1,N,0020,1","22000,1,9,N","008000,1,N,1","+0238,1","+0207,1","10121,1","06,0000,9,1",,,,,,"00,1,+99999,9,99,9",,,"00,99,1,00,1,00,1,99999,9,00,1,00,1",,"01,9",,,,"99999,9,10116,1","2,1,011,1,+001,1",,,"SYN082AAXX  26031 76458 32958 03202 10238 20207 30116 40121 52011 90245 333 30/// 58001;","Q01  00002PRCP06"
"76458099999","2004-04-26T15:00:00","4","23.2","-106.4166666","4.0","COLONIA JUAN CARRASCO MAZATLAN SIN., MX","FM-12","99999","V020","100,1,N,0010,1","22000,1,9,N","012000,1,N,1","+0240,1","+0199,1","10150,1","06,0000,9,1",,,,,,"03,1,+00510,9,08,9",,,"03,99,1,03,1,02,1,00450,1,00,1,00,1",,"01,9",,,,"99999,9,10146,1","2,1,013,1,+015,1",,,"SYN100AAXX  26151 76458 32462 31001 10240 20199 30146 40150 52013 83200 91448 333 30/// 564// 58015 83817;","Q01  00002PRCP06"
"76458099999","2004-04-26T18:00:00","4","23.2","-106.4166666","4.0","COLONIA JUAN CARRASCO MAZATLAN SIN., MX","FM-12","99999","V020","170,1,N,0020,1","22000,1,9,N","018000,1,N,1","+0262,1","+0192,1","10149,1","06,0000,9,1",,,,,,"02,1,+06600,9,00,9",,,"02,99,1,00,1,00,1,99999,9,00,1,06,1",,"01,9",,"120,M,+0288,1","240,N,+0194,1","99999,9,10144,1","7,1,002,1,+017,1",,,"SYN112AAXX  26181 76458 32968 21702 10262 20192 30144 40149 57002 80006 91752 333 10288 20194 30/// 56009 58017 82072;","Q01  00002PRCP06"
"76458099999","2004-04-26T21:00:00","4","23.2","-106.4166666","4.0","COLONIA JUAN CARRASCO MAZATLAN SIN., MX","FM-12","99999","V020","250,1,N,0030,1","22000,1,9,N","020000,1,N,1","+0270,1","+0198,1","10133,1","06,0000,9,1",,,,,,,,,"03,99,1,99,9,00,1,99999,9,03,1,00,1",,"01,9",,,,"99999,9,10128,1","7,1,016,1,+011,1",,,"SYN100AAXX  26211 76458 32970 32503 10270 20198 30128 40133 57016 80030 92048 333 30/// 58011 56090 83358;","Q01+000002SCOTLCQ02  00002PRCP06"
"76458099999","2004-04-27T03:00:00","4","23.2","-106.4166666","4.0","COLONIA JUAN CARRASCO MAZATLAN SIN., MX","FM-12","99999","V020","300,1,N,0030,1","22000,1,9,N","008000,1,N,1","+0238,1","+0197,1","10133,1","06,0000,9,1",,,,,,"00,1,+99999,9,99,9",,,"00,99,1,00,1,00,1,99999,9,00,1,00,1",,"01,9",,,,"99999,9,10128,1","2,1,016,1,+012,1",,,"SYN082AAXX  27031 76458 32958 03003 10238 20197 30128 40133 52016 90240 333 30/// 58012;","Q01  00002PRCP06"
"76458099999","2004-04-27T15:00:00","4","23.2","-106.4166666","4.0","COLONIA JUAN CARRASCO MAZATLAN SIN., MX","FM-12","99999","V020","330,1,N,0010,1","22000,1,9,N","013000,1,N,1","+0242,1","+0204,1","10146,1","06,0000,9,1",,,,,,"03,1,+00480,9,08,9",,,"03,99,1,03,1,02,1,00450,1,00,1,00,1",,"01,9",,,,"99999,9,10141,1","2,1,016,1,-005,1",,,"SYN100AAXX  27151 76458 32463 33301 10242 20204 30141 40146 52016 83200 91448 333 30/// 566// 59005 83816;","Q01  00002PRCP06"
"76458099999","2004-04-27T18:00:00","4","23.2","-106.4166666","4.0","COLONIA JUAN CARRASCO MAZATLAN SIN., MX","FM-12","99999","V020","180,1,N,0040,1","22000,1,9,N","015000,1,N,1","+0271,1","+0199,1","10147,1","06,0000,9,1",,,,,,"01,1,+06000,9,01,9",,,"01,99,1,00,1,00,1,99999,9,00,1,09,1",,"01,9",,"120,M,+0285,1","240,N,+0193,1","99999,9,10143,1","0,1,002,1,-001,1",,,"SYN112AAXX  27181 76458 32965 11804 10271 20199 30143 40147 50002 80009 91745 333 10285 20193 30/// 56//9 59001 81170;","Q01  00002PRCP06"
"76458099999","2004-04-27T21:00:00","4","23.2","-106.4166666","4.0","COLONIA JUAN CARRASCO MAZATLAN SIN., MX","FM-12","99999","V020","230,1,N,0040,1","22000,1,9,N","016000,1,N,1","+0265,1","+0200,1","10133,1","06,0000,9,1",,,,,,"03,1,+06000,9,00,9",,,"03,99,1,00,1,00,1,99999,9,00,1,01,1",,"01,9",,,,"99999,9,10129,1","7,1,014,1,+001,1",,,"SYN100AAXX  27211 76458 32966 32304 10265 20200 30129 40133 57014 80001 92045 333 30/// 56//9 58001 83070;","Q01  00002PRCP06"
"76458099999","2004-04-28T00:00:00","4","23.2","-106.4166666","4.0","COLONIA JUAN CARRASCO MAZATLAN SIN., MX","FM-12","99999","V020","250,1,N,0030,1","22000,1,9,N","018000,1,N,1","+0265,1","+0206,1","10113,1","06,0000,9,1","24,0000,9,1",,,,,,,,"02,99,1,00,1,00,1,99999,9,00,1,06,1",,"01,9",,"120,M,+0291,1","180,N,+0193,1","99999,9,10108,1","7,1,021,1,-004,1",,,"SYN124AAXX  28001 76458 32968 22503 10265 20206 30108 40113 57021 80006 92345 333 10291 20193 30/// 53481 56009 59004 70000 82072;","Q01  00002PRCP06"
"76458099999","2004-04-28T03:00:00","4","23.2","-106.4166666","4.0","COLONIA JUAN CARRASCO MAZATLAN SIN., MX","FM-12","99999","V020","999,9,C,0000,1","22000,1,9,N","008000,1,N,1","+0240,1","+0199,1","10122,1","06,0000,9,1",,,,,,"00,1,+99999,9,99,9",,,"00,99,1,00,1,00,1,99999,9,00,1,00,1",,"01,9",,,,"99999,9,10117,1","2,1,009,1,-011,1",,,"SYN082AAXX  28031 76458 32958 00000 10240 20199 30117 40122 52009 90240 333 30/// 59011;","Q01  00002PRCP06"
"76458099999","2004-04-28T15:00:00","4","23.2","-106.4166666","4.0","COLONIA JUAN CARRASCO MAZATLAN SIN., MX","FM-12","99999","V020","100,1,N,0020,1","22000,1,9,N","015000,1,N,1","+0237,1","+0193,1","10133,1","06,0000,9,1",,,,,,"01,1,+00540,9,08,9",,,"01,99,1,01,1,01,1,00450,1,00,1,00,1",,"01,9",,,,"99999,9,10128,1","1,1,008,1,-013,1",,,"SYN100AAXX  28151 76458 32465 11002 10237 20193 30128 40133 51008 81100 91448 333 30/// 563// 59013 81818;","Q01  00002PRCP06"
"76458099999","2004-04-28T18:00:00","4","23.2","-106.4166666","4.0","COLONIA JUAN CARRASCO MAZATLAN SIN., MX","FM-12","99999","V020","170,1,N,0020,1","22000,1,9,N","020000,1,N,1","+0265,1","+0206,1","10142,1","06,0000,9,1",,,,,,"00,1,+99999,9,99,9",,,"00,99,1,00,1,00,1,99999,9,00,1,00,1",,"01,9",,"120,M,+0291,1","240,N,+0190,1","99999,9,10137,1","2,1,009,1,-006,1",,,"SYN094AAXX  28181 76458 32970 01702 10265 20206 30137 40142 52009 91752 333 10291 20190 30/// 59006;","Q01  00002PRCP06"
"76458099999","2004-04-29T00:00:00","4","23.2","-106.4166666","4.0","COLONIA JUAN CARRASCO MAZATLAN SIN., MX","FM-12","99999","V020","240,1,N,0030,1","22000,1,9,N","020000,1,N,1","+0268,1","+0211,1","10115,1","06,0000,9,1","24,0000,9,1",,,,,"00,1,+99999,9,99,9",,,"00,99,1,00,1,00,1,99999,9,00,1,00,1",,"01,9",,"120,M,+0292,1","180,N,+0190,1","99999,9,10111,1","7,1,010,1,+003,1",,,"SYN106AAXX  29001 76458 32970 02403 10268 20211 30111 40115 57010 92345 333 10292 20190 30/// 50451 58003 70000;","Q01  00002PRCP06Q02  00002PRCP24"
"76458099999","2004-04-29T03:00:00","4","23.2","-106.4166666","4.0","COLONIA JUAN CARRASCO MAZATLAN SIN., MX","FM-12","99999","V020","300,1,N,0020,1","22000,1,9,N","008000,1,N,1","+0242,1","+0208,1","10122,1","06,0000,9,1",,,,,,"00,1,+99999,9,99,9",,,"00,99,1,00,1,00,1,99999,9,00,1,00,1",,"01,9",,,,"99999,9,10117,1","3,1,006,1,+000,1",,,"SYN082AAXX  29031 76458 32958 03002 10242 20208 30117 40122 53006 90240 333 30/// 58000;","Q01  00002PRCP06"
"76458099999","2004-04-29T09:00:00","4","23.2","-106.4166666","4.0","COLONIA JUAN CARRASCO MAZATLAN SIN., MX","FM-12","99999","V020","999,9,C,0000,1","22000,1,9,N","008000,1,N,1","+0226,1","+0204,1","10130,1","06,0000,9,1",,,,,,"03,1,+00300,9,08,9",,,"03,99,1,03,1,01,1,00150,1,00,1,00,1",,"01,9",,,,"99999,9,10126,1","7,1,006,1,+999,9",,,"SYN100AAXX  29091 76458 32258 30000 10226 20204 30126 40130 57006 83100 90845 333 30/// 564// 58/// 83810;","Q01  00002PRCP06"
"76458099999","2004-04-29T15:00:00","4","23.2","-106.4166666","4.0","COLONIA JUAN CARRASCO MAZATLAN SIN., MX","FM-12","99999","V020","110,1,N,0020,1","22000,1,9,N","013000,1,N,1","+0256,1","+0192,1","10151,1","06,0000,9,1",,,,,,"01,1,+00780,9,08,9",,,"02,99,1,02,1,02,1,00800,1,00,1,00,1",,"01,9",,,,"99999,9,10147,1","2,1,012,1,+019,1",,,"SYN100AAXX  29151 76458 32563 21102 10256 20192 30147 40151 52012 82200 91448 333 30/// 563// 58019 81826;","Q01  00002PRCP06"
"76458099999","2004-04-29T18:00:00","4","23.2","-106.4166666","4.0","COLONIA JUAN CARRASCO MAZATLAN SIN., MX","FM-12","99999","V020","180,1,N,0030,1","22000,1,9,N","018000,1,N,1","+0270,1","+0198,1","10158,1","06,0000,9,1",,,,,,"01,1,+06600,9,00,9",,,"01,99,1,00,1,00,1,99999,9,00,1,06,1",,"01,9",,"120,M,+0290,1","240,N,+0210,1","99999,9,10153,1","2,1,006,1,+016,1",,,"SYN112AAXX  29181 76458 32968 11803 10270 20198 30153 40158 52006 80006 91740 333 10290 20210 30/// 56009 58016 81072;","Q01  00002PRCP06"
"76458099999","2004-04-29T21:00:00","4","23.2","-106.4166666","4.0","COLONIA JUAN CARRASCO MAZATLAN SIN., MX","FM-12","99999","V020","240,1,N,0030,1","22000,1,9,N","020000,1,N,1","+0278,1","+0207,1","10147,1","06,0000,9,1",,,,,,"03,1,+02400,9,03,9",,,"03,99,1,99,9,00,1,99999,9,03,1,00,1",,"01,9",,,,"99999,9,10142,1","7,1,011,1,+021,1",,,"SYN100AAXX  29211 76458 32970 32403 10278 20207 30142 40147 57011 80030 92050 333 30/// 56090 58021 83358;","Q01+000002SCOTLCQ02  00002PRCP06"
"76458099999","2004-04-30T00:00:00","4","23.2","-106.4166666","4.0","COLONIA JUAN CARRASCO MAZATLAN SIN., MX","FM-12","99999","V020","270,1,N,0020,1","22000,1,9,N","020000,1,N,1","+0264,1","+0204,1","10134,1","06,0000,9,1","24,0000,9,1",,,,,"01,1,+00750,9,08,9",,,"02,99,1,01,1,01,1,01250,1,03,1,99,9",,"01,9",,"120,M,+0300,1","180,N,+0210,1","99999,9,10130,1","7,1,012,1,+019,1",,,"SYN130AAXX  30001 76458 32670 22702 10264 20204 30130 40134 57012 8113/ 92345 333 10300 20210 30/// 50681 5669/ 58019 70000 81825 81356;","Q01  00002PRCP06"
"76458099999","2004-04-30T15:00:00","4","23.2","-106.4166666","4.0","COLONIA JUAN CARRASCO MAZATLAN SIN., MX","FM-12","99999","V020","250,1,N,0020,1","22000,1,9,N","013000,1,N,1","+0236,1","+0198,1","10134,1","06,0000,9,1",,,,,,"01,1,+00480,9,08,9",,,"01,99,1,01,1,02,1,00450,1,00,1,00,1",,"01,9",,,,"99999,9,10129,1","2,1,010,1,-017,1",,,"SYN100AAXX  30151 76458 32463 12502 10236 20198 30129 40134 52010 81200 91438 333 30/// 564// 59017 81816;","Q01  00002PRCP06"
"76458099999","2004-04-30T18:00:00","4","23.2","-106.4166666","4.0","COLONIA JUAN CARRASCO MAZATLAN SIN., MX","FM-12","99999","V020","270,1,N,0030,1","22000,1,9,N","020000,1,N,1","+0256,1","+0207,1","10138,1","06,0000,9,1",,,,,,"00,1,+99999,9,99,9",,,"00,99,1,00,1,00,1,99999,9,00,1,00,1",,"01,9",,"120,M,+0280,1","240,N,+0191,1","99999,9,10133,1","2,1,004,1,-020,1",,,"SYN094AAXX  30181 76458 32970 02703 10256 20207 30133 40138 52004 91740 333 10280 20191 30/// 59020;","Q01  00002PRCP06"
"76458099999","2004-04-30T21:00:00","4","23.2","-106.4166666","4.0","COLONIA JUAN CARRASCO MAZATLAN SIN., MX","FM-12","99999","V020","250,1,N,0040,1","22000,1,9,N","020000,1,N,1","+0270,1","+0208,1","10122,1","06,0000,9,1",,,,,,"02,1,+06600,9,00,9",,,"99,99,9,00,1,00,1,99999,9,00,1,99,9",,"01,9",,,,"99999,9,10117,1","7,1,016,1,-025,1",,,"SYN100AAXX  30211 76458 32970 02504 10270 20208 30117 40122 57016 80006 92048 333 30/// 56009 59025 82072;","Q01+000002SCOTCVQ02+000002SCOHCGQ03  00002PRCP06"
"76458099999","2004-05-01T00:00:00","4","23.2","-106.4166666","4.0","COLONIA JUAN CARRASCO MAZATLAN SIN., MX","FM-12","99999","V020","290,1,N,0050,1","22000,1,9,N","020000,1,N,1","+0266,1","+0197,1","10104,1","06,0000,9,1","24,0000,9,1",,,,,"00,1,+99999,9,99,9",,,"00,99,1,00,1,00,1,99999,9,00,1,00,1",,"01,9",,"120,M,+0290,1","180,N,+0191,1","99999,9,10099,1","7,1,018,1,-031,1",,,"SYN106AAXX  01001 76458 32970 02905 10266 20197 30099 40104 57018 92340 333 10290 20191 30/// 50521 59031 70000;","Q01  00002PRCP06Q02  00002PRCP24"
"76458099999","2004-05-01T18:00:00","4","23.2","-106.4166666","4.0","COLONIA JUAN CARRASCO MAZATLAN SIN., MX","FM-12","99999","V020","260,1,N,0030,1","22000,1,9,N","020000,1,N,1","+0265,1","+0208,1","10116,1","06,0000,9,1",,,,,,"00,1,+99999,9,99,9",,,"00,99,1,00,1,00,1,99999,9,00,1,00,1",,"01,9",,"120,M,+0279,1","240,N,+0184,1","99999,9,10112,1","7,1,002,1,-021,1",,,"SYN094AAXX  01181 76458 32970 02603 10265 20208 30112 40116 57002 91747 333 10279 20184 30/// 59021;","Q01  00002PRCP06"
"76458099999","2004-05-01T21:00:00","4","23.2","-106.4166666","4.0","COLONIA JUAN CARRASCO MAZATLAN SIN., MX","FM-12","99999","V020","260,1,N,0040,1","22000,1,9,N","020000,1,N,1","+0273,1","+0201,1","10103,1","06,0000,9,1",,,,,,"00,1,+99999,9,99,9",,,"00,99,1,00,1,00,1,99999,9,00,1,00,1",,"01,9",,,,"99999,9,10099,1","7,1,013,1,-018,1",,,"SYN082AAXX  01211 76458 32970 02604 10273 20201 30099 40103 57013 92045 333 30/// 59018;","Q01  00002PRCP06"
"76458099999","2004-05-02T18:00:00","4","23.2","-106.4166666","4.0","COLONIA JUAN CARRASCO MAZATLAN SIN., MX","FM-12","99999","V020","230,1,N,0030,1","22000,1,9,N","018000,1,N,1","+0266,1","+0211,1","10112,1","06,0000,9,1",,,,,,"00,1,+99999,9,99,9",,,"00,99,1,00,1,00,1,99999,9,00,1,00,1",,"01,9",,"120,M,+0284,1","240,N,+0190,1","99999,9,10107,1","9,9,999,9,-005,1",,,"SYN094AAXX  02181 76458 32968 02303 10266 20211 30107 40112 5//// 91745 333 10284 20190 30/// 59005;","Q01  00002PRCP06"
"76458099999","2004-05-02T21:00:00","4","23.2","-106.4166666","4.0","COLONIA JUAN CARRASCO MAZATLAN SIN., MX","FM-12","99999","V020","290,1,N,0050,1","22000,1,9,N","018000,1,N,1","+0276,1","+0210,1","10092,1","06,0000,9,1",,,,,,"01,1,+00810,9,08,9",,,"01,99,1,01,1,01,1,00800,1,00,1,00,1",,"01,9",,,,"99999,9,10087,1","7,1,020,1,-012,1",,,"SYN100AAXX  02211 76458 32568 12905 10276 20210 30087 40092 57020 81100 92045 333 30/// 561// 59012 81827;","Q01  00002PRCP06"
"76458099999","2004-05-03T03:00:00","4","23.2","-106.4166666","4.0","COLONIA JUAN CARRASCO MAZATLAN SIN., MX","FM-12","99999","V020","300,1,N,0030,1","22000,1,9,N","016000,1,N,1","+0250,1","+0200,1","10085,1","06,0000,9,1",,,,,,"01,1,+03300,9,03,9",,,"01,99,1,01,1,00,1,99999,9,03,1,00,1",,"01,9",,,,"99999,9,10080,1","2,1,009,1,+999,9",,,"SYN100AAXX  03031 76458 32966 13003 10250 20200 30080 40085 52009 81030 90250 333 30/// 56010 58/// 81361;","Q01  00002PRCP06"
"76458099999","2004-05-03T09:00:00","4","23.2","-106.4166666","4.0","COLONIA JUAN CARRASCO MAZATLAN SIN., MX","FM-12","99999","V020","999,9,C,0000,1","22000,1,9,N","008000,1,N,1","+0222,1","+0205,1","10102,1","06,0000,9,1",,,,,,"00,1,+99999,9,99,9",,,"00,99,1,00,1,00,1,99999,9,00,1,00,1",,"01,9",,,,"99999,9,10098,1","0,1,003,1,-005,1",,,"SYN082AAXX  03091 76458 32958 00000 10222 20205 30098 40102 50003 90840 333 30/// 59005;","Q01  00002PRCP06"
"76458099999","2004-05-03T18:00:00","4","23.2","-106.4166666","4.0","COLONIA JUAN CARRASCO MAZATLAN SIN., MX","FM-12","99999","V020","250,1,N,0020,1","22000,1,9,N","020000,1,N,1","+0265,1","+0208,1","10130,1","06,0000,9,1",,,,,,"00,1,+99999,9,99,9",,,"00,99,1,00,1,00,1,99999,9,00,1,00,1",,"01,9",,"120,M,+0293,1","240,N,+0210,1","99999,9,10125,1","2,1,008,1,+018,1",,,"SYN094AAXX  03181 76458 32970 02502 10265 20208 30125 40130 52008 91750 333 10293 20210 30/// 58018;","Q01  00002PRCP06"
"76458099999","2004-05-03T21:00:00","4","23.2","-106.4166666","4.0","COLONIA JUAN CARRASCO MAZATLAN SIN., MX","FM-12","99999","V020","270,1,N,0030,1","22000,1,9,N","020000,1,N,1","+0274,1","+0215,1","10119,1","06,0000,9,1",,,,,,"00,1,+99999,9,99,9",,,"00,99,1,00,1,00,1,99999,9,00,1,00,1",,"01,9",,,,"99999,9,10115,1","7,1,010,1,+028,1",,,"SYN082AAXX  03211 76458 32970 02703 10274 20215 30115 40119 57010 92045 333 30/// 58028;","Q01  00002PRCP06"
"76458099999","2004-05-04T00:00:00","4","23.2","-106.4166666","4.0","COLONIA JUAN CARRASCO MAZATLAN SIN., MX","FM-12","99999","V020","999,9,9,9999,9","99999,9,9,N","999999,9,N,1","+9999,9","+9999,9","99999,9",,,,,,,,,,,,,,,,,,,,"SYN122AAXX  04001 76458 870 12703 10270 20218 30105 40109 57010 812// 92345 333 10300 20210 30/// 5//// 561// 58034 70000 81822;",
"76458099999","2004-05-04T03:00:00","4","23.2","-106.4166666","4.0","COLONIA JUAN CARRASCO MAZATLAN SIN., MX","FM-12","99999","V020","300,1,N,0020,1","22000,1,9,N","008000,1,N,1","+0262,1","+0159,1","10128,1","06,0000,9,1",,,,,,"00,1,+99999,9,99,9",,,"00,99,1,00,1,00,1,99999,9,00,1,00,1",,"01,9",,,,"99999,9,10124,1","2,1,019,1,+044,1",,,"SYN082AAXX  04031 76458 32958 03002 10262 20159 30124 40128 52019 90240 333 30/// 58044;","Q01  00002PRCP06"
"76458099999","2004-05-04T15:00:00","4","23.2","-106.4166666","4.0","COLONIA JUAN CARRASCO MAZATLAN SIN., MX","FM-12","99999","V020","350,1,N,0020,1","22000,1,9,N","015000,1,N,1","+0242,1","+0216,1","10146,1","06,0000,9,1",,,,,,"00,1,+99999,9,99,9",,,"00,99,1,00,1,00,1,99999,9,00,1,00,1",,"01,9",,,,"99999,9,10142,1","1,1,008,1,+025,1",,,"SYN082AAXX  04151 76458 32965 03502 10242 20216 30142 40146 51008 91448 333 30/// 58025;","Q01  00002PRCP06"
"76458099999","2004-05-04T18:00:00","4","23.2","-106.4166666","4.0","COLONIA JUAN CARRASCO MAZATLAN SIN., MX","FM-12","99999","V020","270,1,N,0030,1","22000,1,9,N","020000,1,N,1","+0272,1","+0194,1","10148,1","06,0000,9,1",,,,,,"00,1,+99999,9,99,9",,,"00,99,1,00,1,00,1,99999,9,00,1,00,1",,"01,9",,"120,M,+0293,1","240,N,+0199,1","99999,9,10143,1","2,1,002,1,-018,1",,,"SYN094AAXX  04181 76458 32970 02703 10272 20194 30143 40148 52002 91742 333 10293 20199 30/// 59018;","Q01  00002PRCP06"
"76458099999","2004-05-04T21:00:00","4","23.2","-106.4166666","4.0","COLONIA JUAN CARRASCO MAZATLAN SIN., MX","FM-12","99999","V020","280,1,N,0030,1","22000,1,9,N","020000,1,N,1","+0296,1","+0153,1","10130,1","06,0000,9,1",,,,,,"02,1,+01800,9,08,9",,,"02,99,1,02,1,02,1,01750,1,00,1,00,1",,,,,,"99999,9,10125,1","7,1,017,1,+010,1",,,"SYN094AAXX  04211 76458 32770 22803 10296 20153 30125 40130 57017 82200 92050 333 56100 58010 82856;","Q01  00002PRCP06"
"76458099999","2004-05-05T00:00:00","4","23.2","-106.4166666","4.0","COLONIA JUAN CARRASCO MAZATLAN SIN., MX","FM-12","99999","V020","280,1,N,0030,1","22000,1,9,N","020000,1,N,1","+0291,1","+0145,1","10114,1","06,0000,9,1","24,0000,9,1",,,,,,,,"01,99,1,01,1,02,1,01750,1,00,1,00,1",,"01,9",,"120,M,+0310,1","180,N,+0199,1","99999,9,10110,1","7,1,015,1,+005,1",,,"SYN124AAXX  05001 76458 32770 12803 10291 20145 30110 40114 57015 81200 92347 333 10310 20199 30/// 50611 561// 58005 70000 81861;","Q01  00002PRCP06"
"76458099999","2004-05-05T03:00:00","4","23.2","-106.4166666","4.0","COLONIA JUAN CARRASCO MAZATLAN SIN., MX","FM-12","99999","V020","310,1,N,0030,1","22000,1,9,N","010000,1,N,1","+0272,1","+0142,1","10124,1","06,0000,9,1",,,,,,"00,1,+99999,9,99,9",,,"00,99,1,00,1,00,1,99999,9,00,1,00,1",,"01,9",,,,"99999,9,10120,1","2,1,020,1,-004,1",,,"SYN082AAXX  05031 76458 32960 03103 10272 20142 30120 40124 52020 90545 333 30/// 59004;","Q01  00002PRCP06"
"76458099999","2004-05-05T06:00:00","4","23.2","-106.4166666","4.0","COLONIA JUAN CARRASCO MAZATLAN SIN., MX","FM-12","99999","V020","340,1,N,0020,1","22000,1,9,N","010000,1,N,1","+0248,1","+0073,1","10142,1","06,0000,9,1",,,,,,"00,1,+99999,9,99,9",,,"00,99,1,00,1,00,1,99999,9,00,1,00,1","0696,9","01,9",,"240,M,+0310,1","240,N,+0199,1","99999,9,10137,1","2,1,018,1,+999,9",,,"SYN106AAXX  05061 76458 32960 03402 10248 20073 30137 40142 52018 90556 333 10310 20199 30/// 55116 21207 58001;","Q01  00002PRCP06"
"76458099999","2004-05-05T09:00:00","4","23.2","-106.4166666","4.0","COLONIA JUAN CARRASCO MAZATLAN SIN., MX","FM-12","99999","V020","330,1,N,0030,1","22000,1,9,N","010000,1,N,1","+0237,1","+0049,1","10131,1","06,0000,9,1",,,,,,"00,1,+99999,9,99,9",,,"00,99,1,00,1,00,1,99999,9,00,1,00,1",,"01,9",,,,"99999,9,10126,1","7,1,011,1,-005,1",,,"SYN082AAXX  05091 76458 32960 03303 10237 20049 30126 40131 57011 90846 333 30/// 59005;","Q01  00002PRCP06"
"76458099999","2004-05-05T18:00:00","4","23.2","-106.4166666","4.0","COLONIA JUAN CARRASCO MAZATLAN SIN., MX","FM-12","99999","V020","250,1,N,0030,1","22000,1,9,N","020000,1,N,1","+0302,1","+0152,1","10138,1","06,0000,9,1",,,,,,"00,1,+99999,9,99,9",,,"00,99,1,00,1,00,1,99999,9,00,1,00,1",,"01,9",,"120,M,+0320,1","240,N,+0210,1","99999,9,10134,1","7,1,003,1,-009,1",,,"SYN094AAXX  05181 76458 32970 02503 10302 20152 30134 40138 57003 91748 333 10320 20210 30/// 59009;","Q01  00002PRCP06"
"76458099999","2004-05-05T21:00:00","4","23.2","-106.4166666","4.0","COLONIA JUAN CARRASCO MAZATLAN SIN., MX","FM-12","99999","V020","260,1,N,0040,1","22000,1,9,N","020000,1,N,1","+0286,1","+0209,1","10125,1","06,0000,9,1",,,,,,"01,1,+00960,9,08,9",,,"01,99,1,01,1,02,1,00800,1,00,1,00,1",,"01,9",,,,"99999,9,10121,1","7,1,013,1,-004,1",,,"SYN100AAXX  05211 76458 32570 12604 10286 20209 30121 40125 57013 81200 92050 333 30/// 561// 59004 81832;","Q01  00002PRCP06"
"76458099999","2004-05-06T00:00:00","4","23.2","-106.4166666","4.0","COLONIA JUAN CARRASCO MAZATLAN SIN., MX","FM-12","99999","V020","280,1,N,0040,1","22000,1,9,N","020000,1,N,1","+0288,1","+0188,1","10109,1","06,0000,9,1","24,0000,9,1",,,,,,,,"01,99,1,01,1,02,1,01250,1,00,1,00,1",,"01,9",,"120,M,+0330,1","180,N,+0210,1","99999,9,10104,1","7,1,016,1,-006,1",,,"SYN124AAXX  06001 76458 32670 12804 10288 20188 30104 40109 57016 81200 92399 333 10330 20210 30/// 50661 56100 59006 70000 81842;","Q01  00002PRCP06"
"76458099999","2004-05-06T03:00:00","4","23.2","-106.4166666","4.0","COLONIA JUAN CARRASCO MAZATLAN SIN., MX","FM-12","99999","V020","330,1,N,0030,1","22000,1,9,N","018000,1,N,1","+0270,1","+0145,1","10116,1","06,0000,9,1",,,,,,"00,1,+99999,9,99,9",,,"00,99,1,00,1,00,1,99999,9,00,1,00,1",,"01,9",,,,"99999,9,10111,1","2,1,007,1,-009,1",,,"SYN082AAXX  06031 76458 32968 03303 10270 20145 30111 40116 52007 90248 333 30/// 59009;","Q01  00002PRCP06"
"76458099999","2004-05-06T09:00:00","4","23.2","-106.4166666","4.0","COLONIA JUAN CARRASCO MAZATLAN SIN., MX","FM-12","99999","V020","310,1,N,0020,1","22000,1,9,N","010000,1,N,1","+0250,1","+0076,1","10117,1","06,0000,9,1",,,,,,"02,1,+02400,9,03,9",,,"02,99,1,99,9,00,1,99999,9,05,1,00,1",,"01,9",,,,"99999,9,10112,1","7,1,010,1,+014,1",,,"SYN100AAXX  06091 76458 32960 23102 10250 20076 30112 40117 57010 80050 90848 333 30/// 56091 58014 82358;","Q01+000002SCOTLCQ02  00002PRCP06"
"76458099999","2004-05-06T15:00:00","4","23.2","-106.4166666","4.0","COLONIA JUAN CARRASCO MAZATLAN SIN., MX","FM-12","99999","V020","130,1,N,0020,1","22000,1,9,N","015000,1,N,1","+0272,1","+0141,1","10141,1","06,0000,9,1",,,,,,"01,1,+01500,9,06,9",,,"03,99,1,01,1,04,1,01750,1,03,1,00,1",,"01,9",,,,"99999,9,10136,1","2,1,016,1,+005,1",,,"SYN106AAXX  06151 76458 32765 31302 10272 20141 30136 40141 52016 81430 91448 333 30/// 5640/ 58005 81650 82358;","Q01  00002PRCP06"
"76458099999","2004-05-06T21:00:00","4","23.2","-106.4166666","4.0","COLONIA JUAN CARRASCO MAZATLAN SIN., MX","FM-12","99999","V020","270,1,N,0020,1","22000,1,9,N","020000,1,N,1","+0312,1","+0201,1","10133,1","06,0000,9,1",,,,,,"01,1,+01380,9,08,9",,,"01,99,1,01,1,01,1,01750,1,00,1,00,1",,"01,9",,,,"99999,9,10129,1","7,1,017,1,+008,1",,,"SYN100AAXX  06211 76458 32770 12702 10312 20201 30129 40133 57017 81100 92048 333 30/// 56/// 58008 81846;","Q01  00002PRCP06"
"76458099999","2004-05-07T00:00:00","4","23.2","-106.4166666","4.0","COLONIA JUAN CARRASCO MAZATLAN SIN., MX","FM-12","99999","V020","300,1,N,0040,1","22000,1,9,N","020000,1,N,1","+0307,1","+0127,1","10115,1","06,0000,9,1","24,0000,9,1",,,,,,,,"01,99,1,01,1,02,1,99999,9,00,1,00,1",,"01,9",,"120,M,+0330,1","180,N,+0218,1","99999,9,10110,1","7,1,019,1,+006,1",,,"SYN124AAXX  07001 76458 32970 13004 10307 20127 30110 40115 57019 81200 92399 333 10330 20218 30/// 50811 56100 58006 70000 81858;","Q01  00002PRCP06"
"76458099999","2004-05-07T03:00:00","4","23.2","-106.4166666","4.0","COLONIA JUAN CARRASCO MAZATLAN SIN., MX","FM-12","99999","V020","230,1,N,0060,1","22000,1,9,N","018000,1,N,1","+0280,1","+0152,1","10121,1","06,0000,9,1",,,,,,"00,1,+99999,9,99,9",,,"00,99,1,00,1,00,1,99999,9,00,1,00,1",,"01,9",,,,"99999,9,10116,1","2,1,006,1,+005,1",,,"SYN082AAXX  07031 76458 32968 02306 10280 20152 30116 40121 52006 90246 333 30/// 58005;","Q01  00002PRCP06"
"76458099999","2004-05-07T09:00:00","4","23.2","-106.4166666","4.0","COLONIA JUAN CARRASCO MAZATLAN SIN., MX","FM-12","99999","V020","320,1,N,0010,1","22000,1,9,N","010000,1,N,1","+0244,1","+0172,1","10117,1","06,0000,9,1",,,,,,"00,1,+99999,9,99,9",,,"00,99,1,00,1,00,1,99999,9,00,1,00,1",,"01,9",,,,"99999,9,10112,1","7,1,013,1,+001,1",,,"SYN082AAXX  07091 76458 32960 03201 10244 20172 30112 40117 57013 90855 333 30/// 58001;","Q01  00002PRCP06"
"76458099999","2004-05-07T15:00:00","4","23.2","-106.4166666","4.0","COLONIA JUAN CARRASCO MAZATLAN SIN., MX","FM-12","99999","V020","310,1,N,0030,1","22000,1,9,N","015000,1,N,1","+0262,1","+0195,1","10134,1","06,0000,9,1",,,,,,"00,1,+99999,9,99,9",,,"00,99,1,00,1,00,1,99999,9,00,1,00,1",,"01,9",,,,"99999,9,10130,1","1,1,009,1,-006,1",,,"SYN082AAXX  07151 76458 32965 03103 10262 20195 30130 40134 51009 91448 333 30/// 59006;","Q01  00002PRCP06"
"76458099999","2004-05-07T18:00:00","4","23.2","-106.4166666","4.0","COLONIA JUAN CARRASCO MAZATLAN SIN., MX","FM-12","99999","V020","280,1,N,0020,1","22000,1,9,N","020000,1,N,1","+0312,1","+0163,1","10139,1","06,0000,9,1",,,,,,"00,1,+99999,9,99,9",,,"00,99,1,00,1,00,1,99999,9,00,1,00,1",,"01,9",,"120,M,+0330,1","240,N,+0208,1","99999,9,10135,1","2,1,006,1,-011,1",,,"SYN094AAXX  07181 76458 32970 02802 10312 20163 30135 40139 52006 91750 333 10330 20208 30/// 59011;","Q01  00002PRCP06"
"76458099999","2004-05-07T21:00:00","4","23.2","-106.4166666","4.0","COLONIA JUAN CARRASCO MAZATLAN SIN., MX","FM-12","99999","V020","270,1,N,0030,1","22000,1,9,N","020000,1,N,1","+0300,1","+0184,1","10120,1","06,0000,9,1",,,,,,"00,1,+99999,9,99,9",,,"00,99,1,00,1,00,1,99999,9,00,1,00,1",,"01,9",,,,"99999,9,10116,1","7,1,019,1,-013,1",,,"SYN082AAXX  07211 76458 32970 02703 10300 20184 30116 40120 57019 92048 333 30/// 59013;","Q01  00002PRCP06"
"76458099999","2004-05-08T00:00:00","4","23.2","-106.4166666","4.0","COLONIA JUAN CARRASCO MAZATLAN SIN., MX","FM-12","99999","V020","280,1,N,0030,1","22000,1,9,N","020000,1,N,1","+0284,1","+0214,1","10108,1","06,0000,9,1","24,0000,9,1",,,,,"00,1,+99999,9,99,9",,,"00,99,1,00,1,00,1,99999,9,00,1,00,1",,"01,9",,"120,M,+0371,1","180,N,+0208,1","99999,9,10103,1","5,1,013,1,-007,1",,,"SYN106AAXX  08001 76458 32970 02803 10284 20214 30103 40108 55013 92348 333 10371 20208 30/// 50811 59007 70000;","Q01  00002PRCP06Q02  00002PRCP24"
"76458099999","2004-05-08T03:00:00","4","23.2","-106.4166666","4.0","COLONIA JUAN CARRASCO MAZATLAN SIN., MX","FM-12","99999","V020","320,1,N,0040,1","22000,1,9,N","010000,1,N,1","+0266,1","+0156,1","10115,1","06,0000,9,1",,,,,,"00,1,+99999,9,99,9",,,"00,99,1,00,1,00,1,99999,9,00,1,00,1",,"01,9",,,,"99999,9,10110,1","2,1,007,1,-006,1",,,"SYN082AAXX  08031 76458 32960 03204 10266 20156 30110 40115 52007 90247 333 30/// 59006;","Q01  00002PRCP06"
"76458099999","2004-05-09T00:00:00","4","23.2","-106.4166666","4.0","COLONIA JUAN CARRASCO MAZATLAN SIN., MX","FM-12","99999","V020","290,1,N,0040,1","22000,1,9,N","020000,1,N,1","+0286,1","+0179,1","10100,1","06,0000,9,1","24,0000,9,1",,,,,,,,"01,99,1,00,1,00,1,99999,9,00,1,06,1",,"01,9",,"120,M,+0307,1","180,N,+0200,1","99999,9,10095,1","7,1,012,1,-008,1",,,"SYN124AAXX  09001 76458 32970 12904 10286 20179 30095 40100 57012 80006 92345 333 10307 20200 30/// 50641 56//9 59008 70000 81070;","Q01  00002PRCP06"
"76458099999","2004-05-09T03:00:00","4","23.2","-106.4166666","4.0","COLONIA JUAN CARRASCO MAZATLAN SIN., MX","FM-12","99999","V020","320,1,N,0030,1","22000,1,9,N","010000,1,N,1","+0263,1","+0173,1","10105,1","06,0000,9,1",,,,,,"00,1,+99999,9,99,9",,,"00,99,1,00,1,00,1,99999,9,00,1,00,1",,"01,9",,,,"99999,9,10100,1","3,1,005,1,-010,1",,,"SYN082AAXX  09031 76458 32960 03203 10263 20173 30100 40105 53005 90248 333 30/// 59010;","Q01  00002PRCP06"
"76458099999","2004-05-10T00:00:00","4","23.2","-106.4166666","4.0","COLONIA JUAN CARRASCO MAZATLAN SIN., MX","FM-12","99999","V020","270,1,N,0030,1","99999,9,9,N","020000,1,N,1","+0266,1","+0209,1","10104,1","06,0000,9,1","24,0000,9,1",,,,,,,,"05,99,1,00,1,00,1,99999,9,00,1,05,1",,"01,9",,"120,M,+0305,1","180,N,+0208,1","99999,9,10100,1","7,1,015,1,-004,1",,,"SYN124AAXX  10001 76458 32970 52703 10266 20209 30100 40104 57015 80005 92350 333 10305 20208 30/// 50521 56009 59004 70000 85079;","Q01  00002PRCP06"
"76458099999","2004-05-10T03:00:00","4","23.2","-106.4166666","4.0","COLONIA JUAN CARRASCO MAZATLAN SIN., MX","FM-12","99999","V020","260,1,N,0020,1","22000,1,9,N","020000,1,N,1","+0250,1","+0210,1","10108,1","06,0000,9,1",,,,,,"01,1,+08700,9,00,9",,,"02,99,1,00,1,00,1,99999,9,00,1,02,1",,"01,9",,,,"99999,9,10104,1","2,1,004,1,+003,1",,,"SYN100AAXX  10031 76458 32970 22602 10250 20210 30104 40108 52004 80002 90240 333 30/// 56009 58003 81079;","Q01  00002PRCP06"
"76458099999","2004-05-10T18:00:00","4","23.2","-106.4166666","4.0","COLONIA JUAN CARRASCO MAZATLAN SIN., MX","FM-12","99999","V020","220,1,N,0030,1","22000,1,9,N","020000,1,N,1","+0272,1","+0207,1","10128,1","06,0000,9,1",,,,,,"00,1,+99999,9,99,9",,,"00,99,1,00,1,00,1,99999,9,00,1,00,1",,"01,9",,"120,M,+0292,1","240,N,+0213,1","99999,9,10123,1","4,1,000,1,-003,1",,,"SYN094AAXX  10181 76458 32970 02203 10272 20207 30123 40128 54000 91740 333 10292 20213 30/// 59003;","Q01  00002PRCP06"
"76458099999","2004-05-10T21:00:00","4","23.2","-106.4166666","4.0","COLONIA JUAN CARRASCO MAZATLAN SIN., MX","FM-12","99999","V020","270,1,N,0030,1","22000,1,9,N","020000,1,N,1","+0272,1","+0207,1","10114,1","06,0000,9,1",,,,,,"00,1,+99999,9,99,9",,,"00,99,1,00,1,00,1,99999,9,00,1,00,1",,"01,9",,,,"99999,9,10109,1","7,1,014,1,-005,1",,,"SYN082AAXX  10211 76458 32970 02703 10272 20207 30109 40114 57014 92040 333 30/// 59005;","Q01  00002PRCP06"
"76458099999","2004-05-11T09:00:00","4","23.2","-106.4166666","4.0","COLONIA JUAN CARRASCO MAZATLAN SIN., MX","FM-12","99999","V020","350,1,N,0010,1","22000,1,9,N","012000,1,N,1","+0227,1","+0197,1","10119,1","06,0000,9,1",,,,,,"00,1,+99999,9,99,9",,,"00,99,1,00,1,00,1,99999,9,00,1,00,1",,"01,9",,,,"99999,9,10115,1","7,1,010,1,+999,9",,,"SYN082AAXX  11091 76458 32962 03501 10227 20197 30115 40119 57010 90856 333 30/// 58///;","Q01  00002PRCP06"
"76458099999","2004-05-11T15:00:00","4","23.2","-106.4166666","4.0","COLONIA JUAN CARRASCO MAZATLAN SIN., MX","FM-12","99999","V020","140,1,N,0010,1","22000,1,9,N","013000,1,N,1","+0254,1","+0199,1","10119,1","06,0000,9,1",,,,,,"00,1,+99999,9,99,9",,,"00,99,1,00,1,00,1,99999,9,00,1,00,1",,"01,9",,,,"99999,9,10114,1","1,1,002,1,-009,1",,,"SYN082AAXX  11151 76458 32963 01401 10254 20199 30114 40119 51002 91448 333 30/// 59009;","Q01  00002PRCP06"
"76458099999","2004-05-11T18:00:00","4","23.2","-106.4166666","4.0","COLONIA JUAN CARRASCO MAZATLAN SIN., MX","FM-12","99999","V020","270,1,N,0020,1","22000,1,9,N","020000,1,N,1","+0260,1","+0203,1","10122,1","06,0000,9,1",,,,,,"00,1,+99999,9,99,9",,,"00,99,1,00,1,00,1,99999,9,00,1,00,1",,"01,9",,"120,M,+0298,1","240,N,+0205,1","99999,9,10118,1","2,1,004,1,-005,1",,,"SYN094AAXX  11181 76458 32970 02702 10260 20203 30118 40122 52004 91745 333 10298 20205 30/// 59005;","Q01  00002PRCP06"
"76458099999","2004-05-13T15:00:00","4","23.2","-106.4166666","4.0","COLONIA JUAN CARRASCO MAZATLAN SIN., MX","FM-12","99999","V020","110,1,N,0010,1","22000,1,9,N","008000,1,N,1","+0242,1","+0196,1","10115,1","06,0000,9,1",,,,,,"00,1,+99999,9,99,9",,,"00,99,1,00,1,00,1,99999,9,00,1,00,1",,"01,9",,,,"99999,9,10111,1","1,1,009,1,-008,1",,,"SYN082AAXX  13151 76458 32958 01101 10242 20196 30111 40115 51009 91458 333 30/// 59008;","Q01  00002PRCP06"
"76458099999","2004-05-18T18:00:00","4","23.2","-106.4166666","4.0","COLONIA JUAN CARRASCO MAZATLAN SIN., MX","FM-12","99999","V020","230,1,N,0020,1","22000,1,9,N","020000,1,N,1","+0270,1","+0214,1","10138,1","06,0000,9,1",,,,,,"03,1,+06600,9,00,9",,,"03,99,1,00,1,00,1,99999,9,00,1,06,1",,"01,9",,"120,M,+0300,1","240,N,+0190,1","99999,9,10133,1","4,1,000,1,+008,1",,,"SYN112AAXX  18181 76458 32970 32302 10270 20214 30133 40138 54000 80006 91752 333 10300 20190 30/// 56009 58008 83072;","Q01  00002PRCP06"
"76458099999","2004-05-18T21:00:00","4","23.2","-106.4166666","4.0","COLONIA JUAN CARRASCO MAZATLAN SIN., MX","FM-12","99999","V020","250,1,N,0030,1","22000,1,9,N","020000,1,N,1","+0290,1","+0213,1","10118,1","06,0000,9,1",,,,,,"02,1,+06600,9,00,9",,,"02,99,1,00,1,00,1,99999,9,00,1,06,1",,"01,9",,,,"99999,9,10113,1","7,1,020,1,-015,1",,,"SYN100AAXX  18211 76458 32970 22503 10290 20213 30113 40118 57020 80006 92048 333 30/// 56009 59015 82072;","Q01  00002PRCP06"
"76458099999","2004-05-19T00:00:00","4","23.2","-106.4166666","4.0","COLONIA JUAN CARRASCO MAZATLAN SIN., MX","FM-12","99999","V020","290,1,N,0030,1","22000,1,9,N","020000,1,N,1","+0286,1","+0195,1","10099,1","06,0000,9,1","24,0000,9,1",,,,,,,,"02,99,1,00,1,00,1,99999,9,00,1,06,1",,"01,9",,"120,M,+0306,1","180,N,+0190,1","99999,9,10094,1","7,1,019,1,-029,1",,,"SYN124AAXX  19001 76458 32970 22903 10286 20195 30094 40099 57019 80006 92347 333 10306 20190 30/// 50491 56//9 59029 70000 82070;","Q01  00002PRCP06"
"76458099999","2004-05-22T21:00:00","4","23.2","-106.4166666","4.0","COLONIA JUAN CARRASCO MAZATLAN SIN., MX","FM-12","99999","V020","240,1,N,0050,1","99999,9,9,N","020000,1,N,1","+0308,1","+0230,1","10123,1","06,0000,9,1",,,,,,,,,"05,99,1,00,1,00,1,99999,9,00,1,08,1",,"01,9",,,,"99999,9,10118,1","7,1,010,1,-015,1",,,"SYN100AAXX  22211 76458 32970 52405 10308 20230 30118 40123 57010 80008 92045 333 30/// 56//9 59015 55266;","Q01  00002PRCP06"
"76458099999","2004-05-23T00:00:00","4","23.2","-106.4166666","4.0","COLONIA JUAN CARRASCO MAZATLAN SIN., MX","FM-12","99999","V020","290,1,N,0030,1","99999,9,9,N","020000,1,N,1","+0299,1","+0222,1","10106,1","06,0000,9,1","24,0000,9,1",,,,,,,,"06,99,1,00,1,00,1,99999,9,00,1,07,1",,"01,9",,"120,M,+0332,1","180,N,+0230,1","99999,9,10102,1","7,1,016,1,-013,1",,,"SYN124AAXX  23001 76458 32970 62903 10299 20222 30102 40106 57016 80007 90000 333 10332 20230 30/// 50621 56009 59013 70000 86170;","Q01  00002PRCP06"
"76458099999","2004-05-24T15:00:00","4","23.2","-106.4166666","4.0","COLONIA JUAN CARRASCO MAZATLAN SIN., MX","FM-12","99999","V020","270,1,N,0030,1","22000,1,9,N","015000,1,N,1","+0280,1","+0239,1","10114,1","06,0000,9,1",,,,,,"01,1,+00510,9,08,9",,,"01,99,1,01,1,02,1,00450,1,00,1,00,1",,"01,9",,,,"99999,9,10110,1","4,1,000,1,-002,1",,,"SYN100AAXX  24151 76458 32465 12703 10280 20239 30110 40114 54000 81200 91448 333 30/// 56600 59002 81817;","Q01  00002PRCP06"
"76458099999","2004-05-25T21:00:00","4","23.2","-106.4166666","4.0","COLONIA JUAN CARRASCO MAZATLAN SIN., MX","FM-12","99999","V020","260,1,N,0050,1","22000,1,9,N","020000,1,N,1","+0292,1","+0237,1","10113,1","06,0000,9,1",,,,,,"01,1,+00690,9,09,9",,,"01,99,1,01,1,01,1,00800,1,00,1,00,1",,"01,9",,,,"99999,9,10108,1","7,1,012,1,+014,1",,,"SYN100AAXX  25211 76458 32570 12605 10292 20237 30108 40113 57012 81100 92050 333 30/// 56100 58014 81923;","Q01  00002PRCP06"
"76458099999","2004-05-26T00:00:00","4","23.2","-106.4166666","4.0","COLONIA JUAN CARRASCO MAZATLAN SIN., MX","FM-12","99999","V020","280,1,N,0030,1","22000,1,9,N","020000,1,N,1","+0292,1","+0232,1","10099,1","06,0000,9,1","24,0000,9,1",,,,,,,,"01,99,1,01,1,02,1,00800,1,00,1,00,1",,"01,9",,"120,M,+0312,1","180,N,+0260,1","99999,9,10095,1","7,1,013,1,+011,1",,,"SYN124AAXX  26001 76458 32570 12803 10292 20232 30095 40099 57013 81200 92348 333 10312 20260 30/// 50521 56/// 58011 70000 81825;","Q01  00002PRCP06"
"76458099999","2004-05-26T18:00:00","4","23.2","-106.4166666","4.0","COLONIA JUAN CARRASCO MAZATLAN SIN., MX","FM-12","99999","V020","210,1,N,0030,1","22000,1,9,N","020000,1,N,1","+0291,1","+0223,1","10133,1","06,0000,9,1",,,,,,"01,1,+00840,9,06,9",,,"03,99,1,01,1,04,1,00800,1,03,1,00,1",,"01,9",,"120,M,+0322,1","240,N,+0256,1","99999,9,10128,1","1,1,002,1,-002,1",,,"SYN118AAXX  26181 76458 32570 32103 10291 20223 30128 40133 51002 81430 91745 333 10322 20256 30/// 5666/ 59002 81628 82362;","Q01  00002PRCP06"
"76458099999","2004-05-27T03:00:00","4","23.2","-106.4166666","4.0","COLONIA JUAN CARRASCO MAZATLAN SIN., MX","FM-12","99999","V020","270,1,N,0020,1","22000,1,9,N","016000,1,N,1","+0276,1","+0235,1","10119,1","06,0000,9,1",,,,,,"01,1,+00510,9,06,9",,,"01,99,1,01,1,01,1,00450,1,00,1,00,1",,"01,9",,,,"99999,9,10115,1","2,1,007,1,+005,1",,,"SYN094AAXX  27031 76458 32466 12702 10276 20235 30115 40119 52007 81100 90246 333 30/// 58005 81617;","Q01  00002PRCP06"
"76458099999","2004-05-27T06:00:00","4","23.2","-106.4166666","4.0","COLONIA JUAN CARRASCO MAZATLAN SIN., MX","FM-12","99999","V020","300,1,N,0030,1","22000,1,9,N","008000,1,N,1","+0270,1","+0234,1","10133,1","06,0000,9,1",,,,,,,,,"01,99,1,01,1,01,1,00450,1,99,9,99,9","0564,9","01,9",,"240,M,+0324,1","240,N,+0256,1","99999,9,10129,1","2,1,014,1,+999,9",,,"SYN130AAXX  27061 76458 32458 13003 10270 20234 30129 40133 52014 811// 90540 333 006// 10324 20256 30/// 55094 21339 57860 58/// 81815;","Q01  00002PRCP06"
"76458099999","2004-05-28T15:00:00","4","23.2","-106.4166666","4.0","COLONIA JUAN CARRASCO MAZATLAN SIN., MX","FM-12","99999","V020","130,1,N,0020,1","22000,1,9,N","018000,1,N,1","+0280,1","+0224,1","10134,1","06,0000,9,1",,,,,,"01,1,+00600,9,08,9",,,"02,99,1,01,1,01,1,00800,1,03,1,00,1",,"01,9",,,,"99999,9,10126,1","1,1,007,1,-008,1",,,"SYN106AAXX  28151 76458 32568 21302 10280 20224 30126 40134 51007 81130 91448 333 30/// 5630/ 59008 81820 81358;","Q01  00002PRCP06"
"76458099999","2004-05-29T18:00:00","4","23.2","-106.4166666","4.0","COLONIA JUAN CARRASCO MAZATLAN SIN., MX","FM-12","99999","V020","160,1,N,0030,1","22000,1,9,N","020000,1,N,1","+0300,1","+0225,1","10121,1","06,0000,9,1",,,,,,"01,1,+00900,9,08,9",,,"04,99,1,01,1,01,1,01250,1,00,1,02,1",,"01,9",,"120,M,+0320,1","240,N,+0254,1","99999,9,10116,1","8,1,005,1,-014,1",,,"SYN118AAXX  29181 76458 32670 41603 10300 20225 30116 40121 58005 81102 91758 333 10320 20254 30/// 564/0 59014 81830 83070;","Q01  00002PRCP06"
"76458099999","2004-05-30T09:00:00","4","23.2","-106.4166666","4.0","COLONIA JUAN CARRASCO MAZATLAN SIN., MX","FM-12","99999","V020","120,1,N,0020,1","22000,1,9,N","008000,1,N,1","+0264,1","+0231,1","10117,1","06,0000,9,1",,,,,,"04,1,+06000,9,00,9",,,"04,99,1,00,1,99,9,99999,9,99,9,01,1",,"01,9",,,,"99999,9,10113,1","7,1,008,1,+999,9",,,"SYN094AAXX  30091 76458 32958 41202 10264 20231 30113 40117 57008 80//1 90840 333 30/// 58/// 84070;","Q01  00002PRCP06"
"76458099999","2004-05-30T12:00:00","4","23.2","-106.4166666","4.0","COLONIA JUAN CARRASCO MAZATLAN SIN., MX","FM-12","99999","V020","100,1,N,0020,1","22000,1,9,N","010000,1,N,1","+0259,1","+0236,1","10115,1","06,0000,9,1","24,0000,9,1",,,,,,,,"01,99,1,00,1,00,1,99999,9,00,1,06,1",,"01,9",,"999,M,+0328,1","120,N,+0251,1","99999,9,10111,1","5,1,002,1,+004,1",,,"SYN124AAXX  30121 76458 32960 11002 10259 20236 30111 40115 55002 80006 91148 333 10328 20251 30/// 30024 56//9 58004 70000 81068;","Q01  00002PRCP06"
"76458099999","2004-05-31T03:00:00","4","23.2","-106.4166666","4.0","COLONIA JUAN CARRASCO MAZATLAN SIN., MX","FM-12","99999","V020","300,1,N,0020,1","22000,1,9,N","016000,1,N,1","+0270,1","+0225,1","10108,1","06,0000,9,1",,,,,,"00,1,+99999,9,99,9",,,"00,99,1,00,1,00,1,99999,9,00,1,00,1",,"01,9",,,,"99999,9,10103,1","2,1,017,1,-003,1",,,"SYN082AAXX  31031 76458 32966 03002 10270 20225 30103 40108 52017 90255 333 30/// 59003;","Q01  00002PRCP06"
"76458099999","2004-06-01T00:00:00","4","23.2","-106.4166666","4.0","COLONIA JUAN CARRASCO MAZATLAN SIN., MX","FM-12","99999","V020","280,1,N,0070,1","22000,1,9,N","020000,1,N,1","+0292,1","+0208,1","10063,1","06,0000,9,1","24,0000,9,1",,,,,,,,"01,99,1,01,1,09,1,01250,1,99,9,99,9",,"01,9",,"120,M,+0320,1","180,N,+0241,1","99999,9,10058,1","7,1,017,1,+029,1",,,"SYN124AAXX  01001 76458 32670 12807 10292 20208 30058 40063 57017 819// 92340 333 10320 20241 30/// 50631 561// 58029 70000 81935;","Q01  00002PRCP06"
"76458099999","2004-06-03T12:00:00","4","23.2","-106.4166666","4.0","COLONIA JUAN CARRASCO MAZATLAN SIN., MX","FM-12","99999","V020","999,9,C,0000,1","22000,1,9,N","016000,1,N,1","+0252,1","+0219,1","10106,1","06,0020,9,1","24,0024,9,1",,,"6,1,06,1","0,1,06,1",,,,"02,99,1,02,1,00,1,99999,9,03,1,00,1",,"09,9",,"999,M,+0325,1","120,N,+0243,1","99999,9,10102,1","8,1,003,1,+029,1","01,1",,"SYN136AAXX  03121 76458 11966 20000 10252 20219 30102 40106 58003 60021 70160 82030 91156 333 00030 10325 20243 31/// 30022 58029 70024 82359;",
"76458099999","2004-06-03T15:00:00","4","23.2","-106.4166666","4.0","COLONIA JUAN CARRASCO MAZATLAN SIN., MX","FM-12","99999","V020","290,1,N,0020,1","22000,1,9,N","018000,1,N,1","+0288,1","+0206,1","10113,1","06,0000,9,1",,,,,,"02,1,+02400,9,03,9",,,"02,99,1,99,9,00,1,99999,9,03,1,00,1",,"01,9",,,,"99999,9,10108,1","1,1,006,1,+026,1",,,"SYN100AAXX  03151 76458 32968 22902 10288 20206 30108 40113 51006 81030 91440 333 0//0/ 30/// 58026 82358;","Q01+000012SCOTLCQ02  00002PRCP06"
"76458099999","2004-06-04T12:00:00","4","23.2","-106.4166666","4.0","COLONIA JUAN CARRASCO MAZATLAN SIN., MX","FM-12","99999","V020","999,9,C,0000,1","02400,1,9,N","018000,1,N,1","+0274,1","+0227,1","10125,1","06,0000,9,1","24,0000,9,1",,,,,"07,1,+02400,9,03,9",,,"07,99,1,07,1,00,1,02250,1,05,1,00,1",,"01,9","999,+0260,9","999,M,+0330,1","120,N,+0270,1","99999,9,10121,1","7,1,004,1,+019,1",,,"SYN118AAXX  04121 76458 32868 70000 10274 20227 30121 40125 57004 87050 91150 333 00010 10330 20270 30026 58019 70000 87358;","Q01  00002PRCP06"
"76458099999","2004-06-04T15:00:00","4","23.2","-106.4166666","4.0","COLONIA JUAN CARRASCO MAZATLAN SIN., MX","FM-12","99999","V020","310,1,N,0020,1","02400,1,9,N","015000,1,N,1","+0289,1","+0219,1","10128,1","06,0000,9,1",,,,,,"06,1,+02400,9,03,9",,,"06,99,1,06,1,00,1,99999,9,03,1,00,1",,"01,9",,,,"99999,9,10123,1","1,1,003,1,+015,1",,,"SYN100AAXX  04151 76458 32965 63102 10289 20219 30123 40128 51003 86030 91448 333 0//0/ 30/// 58015 86358;","Q01  00002PRCP06"
"76458099999","2004-06-06T00:00:00","4","23.2","-106.4166666","4.0","COLONIA JUAN CARRASCO MAZATLAN SIN., MX","FM-12","99999","V020","270,1,N,0030,1","22000,1,9,N","020000,1,N,1","+0300,1","+0248,1","10092,1","06,0000,9,1","24,9999,9,9",,,,,"01,1,+00660,9,09,9",,,"03,99,1,99,9,03,1,00800,1,00,1,00,1",,"01,9",,"120,M,+0321,1","180,N,+0241,1","99999,9,10087,1","7,1,018,1,-008,1",,,"SYN136AAXX  06001 76458 32570 32703 10300 20248 30087 40092 57018 8/300 92348 333 001// 10321 20241 30/// 50561 57913 59008 79999 81922 82822;","Q01  00002PRCP06Q02  99992PRCP24"
"76458099999","2004-06-07T18:00:00","4","23.2","-106.4166666","4.0","COLONIA JUAN CARRASCO MAZATLAN SIN., MX","FM-12","99999","V020","170,1,N,0040,1","22000,1,9,N","020000,1,N,1","+0296,1","+0233,1","10099,1","06,0000,9,1",,,,,,"03,1,+00780,9,08,9",,,"03,99,1,03,1,02,1,00800,1,00,1,00,1",,"01,9",,"120,M,+0317,1","240,N,+0256,1","99999,9,10094,1","7,1,002,1,+002,1",,,"SYN112AAXX  07181 76458 32570 31704 10296 20233 30094 40099 57002 83200 91758 333 10317 20256 30/// 56300 58002 83826;","Q01  00002PRCP06"
"76458099999","2004-06-07T21:00:00","4","23.2","-106.4166666","4.0","COLONIA JUAN CARRASCO MAZATLAN SIN., MX","FM-12","99999","V020","260,1,N,0030,1","22000,1,9,N","020000,1,N,1","+0310,1","+0237,1","10084,1","06,0000,9,1",,,,,,"07,1,+00900,9,08,9",,,"99,99,9,07,1,02,1,00800,1,00,1,00,1",,"01,9",,,,"99999,9,10080,1","7,1,014,1,+007,1",,,"SYN100AAXX  07211 76458 32570 32603 10310 20237 30080 40084 57014 87200 92048 333 0/100 30/// 58007 87830;","Q01+000032SCOTCVQ02  00002PRCP06"
"76458099999","2004-06-08T00:00:00","4","23.2","-106.4166666","4.0","COLONIA JUAN CARRASCO MAZATLAN SIN., MX","FM-12","99999","V020","210,1,N,0030,1","22000,1,9,N","020000,1,N,1","+0302,1","+0225,1","10078,1","06,0000,9,1","24,0000,9,1",,,,,"01,1,+00960,9,08,9",,,"02,99,1,02,1,02,1,00800,1,99,9,99,9",,"01,9",,"120,M,+0335,1","180,N,+0256,1","99999,9,10074,1","2,1,006,1,+007,1",,,"SYN136AAXX  08001 76458 32570 22103 10302 20225 30074 40078 52006 822// 92340 333 011// 10335 20256 30/// 50671 57814 58007 70000 81832 81620;","Q01  00002PRCP06"
"76458099999","2004-06-08T03:00:00","4","23.2","-106.4166666","4.0","COLONIA JUAN CARRASCO MAZATLAN SIN., MX","FM-12","99999","V020","240,1,N,0030,1","22000,1,9,N","008000,1,N,1","+0282,1","+0233,1","10093,1","06,0000,9,1",,,,,,"01,1,+00600,9,08,9",,,"01,99,1,01,1,01,1,00800,1,99,9,99,9",,"01,9",,,,"99999,9,10088,1","2,1,014,1,+008,1",,,"SYN106AAXX  08031 76458 32558 12403 10282 20233 30088 40093 52014 811// 90240 333 006// 30/// 57810 58008 81820;","Q01  00002PRCP06"
"76458099999","2004-06-08T06:00:00","4","23.2","-106.4166666","4.0","COLONIA JUAN CARRASCO MAZATLAN SIN., MX","FM-12","99999","V020","240,1,N,0010,1","22000,1,9,N","010000,1,N,1","+0277,1","+0234,1","10108,1","06,0000,9,1",,,,,,,,,"01,99,1,01,1,01,1,00450,1,00,1,00,1","0642,9","01,9",,"240,M,+0325,1","240,N,+0256,1","99999,9,10104,1","2,1,015,1,+014,1",,,"SYN124AAXX  08061 76458 32460 12401 10277 20234 30104 40108 52015 81100 90550 333 01600 10325 20256 30/// 55107 21021 58014 81818;","Q01  00002PRCP06"
"76458099999","2004-06-08T09:00:00","4","23.2","-106.4166666","4.0","COLONIA JUAN CARRASCO MAZATLAN SIN., MX","FM-12","99999","V020","340,1,N,0010,1","00480,1,9,N","010000,1,N,1","+0274,1","+0235,1","10099,1","06,0000,9,1",,,,,,"07,1,+00480,9,08,9",,,"07,99,1,07,1,07,1,00450,1,00,1,00,1",,,,,,"99999,9,10095,1","7,1,009,1,+010,1",,,"SYN100AAXX  08091 76458 32460 73401 10274 20235 30095 40099 57009 87700 90850 333 0/300 57841 58010 87816;","Q01  00002PRCP06"
"76458099999","2004-06-08T18:00:00","4","23.2","-106.4166666","4.0","COLONIA JUAN CARRASCO MAZATLAN SIN., MX","FM-12","99999","V020","250,1,N,0030,1","22000,1,9,N","020000,1,N,1","+0290,1","+0227,1","10117,1","06,0000,9,1",,,,,,"03,1,+00780,9,08,9",,,"03,99,1,03,1,02,1,00800,1,00,1,00,1",,"01,9",,"120,M,+0311,1","240,N,+0261,1","99999,9,10112,1","2,1,007,1,+018,1",,,"SYN112AAXX  08181 76458 32570 32503 10290 20227 30112 40117 52007 83200 91745 333 0/400 10311 20261 30/// 58018 83826;","Q01  00002PRCP06"
"76458099999","2004-06-08T21:00:00","4","23.2","-106.4166666","4.0","COLONIA JUAN CARRASCO MAZATLAN SIN., MX","FM-12","99999","V020","260,1,N,0030,1","22000,1,9,N","020000,1,N,1","+0303,1","+0231,1","10111,1","06,0000,9,1",,,,,,"03,1,+00900,9,08,9",,,"03,99,1,03,1,02,1,00800,1,00,1,00,1",,"01,9",,,,"99999,9,10106,1","7,1,006,1,+026,1",,,"SYN100AAXX  08211 76458 32570 32603 10303 20231 30106 40111 50706 83200 92040 333 0/400 30/// 58026 83830;","Q01+000007APCTENQ02+007067APC3  Q03  00002PRCP06"
"76458099999","2004-06-09T00:00:00","4","23.2","-106.4166666","4.0","COLONIA JUAN CARRASCO MAZATLAN SIN., MX","FM-12","99999","V020","999,9,9,9999,9","99999,9,9,N","020000,1,N,1","+0297,1","+0230,1","10105,1","06,0000,9,1","24,0000,9,1",,,,,,,,,,"01,9",,"120,M,+0323,1","180,N,+0261,1","99999,9,10101,1","5,1,005,1,+027,1",,,"SYN130AAXX  09001 76458 32570 ///// 10297 20230 30101 40105 55005 81100 92345 333 0/6// 10323 20261 30/// 50661 57869 58027 70000 81828;","Q01  00002PRCP06"
"76458099999","2004-06-09T06:00:00","4","23.2","-106.4166666","4.0","COLONIA JUAN CARRASCO MAZATLAN SIN., MX","FM-12","99999","V020","350,1,N,0020,1","22000,1,9,N","010000,1,N,1","+0272,1","+0231,1","10127,1","06,0000,9,1",,,,,,,,,"02,99,1,02,1,02,1,00450,1,00,1,00,1","0690,9","01,9",,"240,M,+0323,1","240,N,+0261,1","99999,9,10123,1","2,1,014,1,+019,1",,,"SYN130AAXX  09061 76458 32460 23502 10272 20231 30123 40127 52014 82200 90555 333 01600 10323 20261 30/// 55115 21029 57861 58019 82817;","Q01  00002PRCP06"
"76458099999","2004-06-09T09:00:00","4","23.2","-106.4166666","4.0","COLONIA JUAN CARRASCO MAZATLAN SIN., MX","FM-12","99999","V020","350,1,N,0010,1","22000,1,9,N","010000,1,N,1","+0262,1","+0229,1","10121,1","06,0000,9,1",,,,,,"00,1,+99999,9,99,9",,,"00,99,1,00,1,00,1,99999,9,00,1,00,1",,"01,9",,,,"99999,9,10117,1","7,1,006,1,+022,1",,,"SYN082AAXX  09091 76458 32960 03501 10262 20229 30117 40121 57006 90850 333 30/// 58022;","Q01  00002PRCP06"
"76458099999","2004-06-09T12:00:00","4","23.2","-106.4166666","4.0","COLONIA JUAN CARRASCO MAZATLAN SIN., MX","FM-12","99999","V020","360,1,N,0020,1","22000,1,9,N","010000,1,N,1","+0255,1","+0225,1","10123,1","06,0000,9,1",,,,,,"00,1,+99999,9,99,9",,,"00,99,1,00,1,00,1,99999,9,00,1,00,1",,"01,9",,"999,M,+0323,1","120,N,+0247,1","99999,9,10119,1","2,1,002,1,+021,1",,,"SYN106AAXX  09121 76458 32960 03602 10255 20225 30119 40123 52002 91150 333 10323 20247 30/// 30024 58021 70000;","Q01  00002PRCP06"
"76458099999","2004-06-09T15:00:00","4","23.2","-106.4166666","4.0","COLONIA JUAN CARRASCO MAZATLAN SIN., MX","FM-12","99999","V020","360,1,N,0010,1","22000,1,9,N","016000,1,N,1","+0253,1","+0222,1","10125,1","06,0000,9,1",,,,,,"01,1,+00750,9,08,9",,,"01,99,1,01,1,01,1,00800,1,00,1,00,1",,"01,9",,,,"99999,9,10123,1","8,1,004,1,+018,1",,,"SYN106AAXX  09151 76458 32566 13601 10253 20222 30123 40125 58004 81100 91445 333 0/4// 30/// 57849 58018 81825;","Q01  00002PRCP06"
"76458099999","2004-06-09T18:00:00","4","23.2","-106.4166666","4.0","COLONIA JUAN CARRASCO MAZATLAN SIN., MX","FM-12","99999","V020","260,1,N,0020,1","22000,1,9,N","018000,1,N,1","+0297,1","+0230,1","10131,1","06,0000,9,1",,,,,,"01,1,+00840,9,02,9",,,"01,99,1,01,1,02,1,99999,9,00,1,00,1",,"01,9",,"120,M,+0313,1","240,N,+0246,1","99999,9,10126,1","7,1,003,1,+014,1",,,"SYN112AAXX  09181 76458 32968 12602 10297 20230 30126 40131 57003 81200 91750 333 0/200 10313 20246 30/// 58014 81228;","Q01  00002PRCP06"
"76458099999","2004-06-10T00:00:00","4","23.2","-106.4166666","4.0","COLONIA JUAN CARRASCO MAZATLAN SIN., MX","FM-12","99999","V020","270,1,N,0040,1","22000,1,9,N","020000,1,N,1","+0300,1","+0244,1","10105,1","06,0000,9,1","24,0000,9,1",,,,,,,,"01,99,1,01,1,02,1,00800,1,99,9,99,9",,"01,9",,"120,M,+0325,1","180,N,+0246,1","99999,9,10104,1","7,1,013,1,+003,1",,,"SYN130AAXX  10001 76458 32570 12704 10300 20244 30104 40105 57013 812// 92340 333 011// 10325 20246 30/// 50661 57815 58003 70000 81823;","Q01  00002PRCP06"
"76458099999","2004-06-10T03:00:00","4","23.2","-106.4166666","4.0","COLONIA JUAN CARRASCO MAZATLAN SIN., MX","FM-12","99999","V020","300,1,N,0050,1","22000,1,9,N","008000,1,N,1","+0282,1","+0244,1","10113,1","06,0000,9,1",,,,,,"01,1,+00480,9,08,9",,,"01,99,1,01,1,01,1,00450,1,99,9,99,9",,"01,9",,,,"99999,9,10108,1","3,1,004,1,-001,1",,,"SYN106AAXX  10031 76458 32458 13005 10282 20244 30108 40113 53004 811// 90240 333 001// 30/// 57810 59001 81816;","Q01  00002PRCP06"
"76458099999","2004-06-10T06:00:00","4","23.2","-106.4166666","4.0","COLONIA JUAN CARRASCO MAZATLAN SIN., MX","FM-12","99999","V020","330,1,N,0020,1","00420,1,9,N","010000,1,N,1","+0278,1","+0232,1","10124,1","06,0000,9,1",,,,,,,,,"07,99,1,07,1,07,1,00450,1,00,1,00,1","0720,9","01,9",,"240,M,+0325,1","240,N,+0246,1","99999,9,10120,1","2,1,011,1,-003,1",,,"SYN130AAXX  10061 76458 32460 73302 10278 20232 30120 40124 52011 87700 90545 333 0/600 10325 20246 30/// 55120 21099 57861 59003 87817;","Q01  00002PRCP06"
"76458099999","2004-06-10T09:00:00","4","23.2","-106.4166666","4.0","COLONIA JUAN CARRASCO MAZATLAN SIN., MX","FM-12","99999","V020","340,1,N,0020,1","22000,1,9,N","010000,1,N,1","+0270,1","+0227,1","10118,1","06,0000,9,1",,,,,,"01,1,+03300,9,03,9",,,"01,99,1,01,1,00,1,99999,9,03,1,00,1",,"01,9",,,,"99999,9,10114,1","7,1,006,1,-003,1",,,"SYN100AAXX  10091 76458 32960 13402 10270 20227 30114 40118 57006 81030 90845 333 0/060 30/// 59003 81361;","Q01  00002PRCP06"
"76458099999","2004-06-10T12:00:00","4","23.2","-106.4166666","4.0","COLONIA JUAN CARRASCO MAZATLAN SIN., MX","FM-12","99999","V020","350,1,N,0010,1","03600,1,C,N","010000,1,N,1","+0266,1","+0230,1","10114,1","06,0000,9,1","24,0000,9,1",,,,,"01,1,+00450,9,06,9","03,1,+03000,9,03,9",,"06,99,1,01,1,04,1,00450,1,03,1,08,1",,"01,9","999,+0250,9","999,M,+0325,1","120,N,+0260,1","99999,9,10110,1","6,1,004,1,-006,1",,,"SYN136AAXX  10121 76458 32460 63501 10266 20230 30110 40114 56004 81438 91147 333 0/669 10325 20260 30025 57669 59006 70000 81615 83360 82266;","Q01  00002PRCP06"
"76458099999","2004-06-10T15:00:00","4","23.2","-106.4166666","4.0","COLONIA JUAN CARRASCO MAZATLAN SIN., MX","FM-12","99999","V020","240,1,N,0020,1","22000,1,9,N","018000,1,N,1","+0291,1","+0232,1","10122,1","06,0000,9,1",,,,,,"03,1,+00750,9,08,9",,,"03,99,1,03,1,01,1,00800,1,00,1,00,1",,"01,9",,,,"99999,9,10118,1","2,1,018,1,-005,1",,,"SYN106AAXX  10151 76458 32568 32402 10291 20232 30118 40122 52018 83100 91445 333 0/5// 30/// 57859 59005 83825;","Q01  00002PRCP06"
"76458099999","2004-06-10T18:00:00","4","23.2","-106.4166666","4.0","COLONIA JUAN CARRASCO MAZATLAN SIN., MX","FM-12","99999","V020","250,1,N,0030,1","22000,1,9,N","020000,1,N,1","+0299,1","+0231,1","10121,1","06,0000,9,1",,,,,,"02,1,+00840,9,08,9",,,"02,99,1,02,1,02,1,00800,1,00,1,00,1",,"01,9",,"120,M,+0321,1","240,N,+0260,1","99999,9,10116,1","7,1,002,1,-006,1",,,"SYN112AAXX  10181 76458 32570 22503 10299 20231 30116 40121 57002 82200 91752 333 0/100 10321 20260 30/// 59006 82828;","Q01  00002PRCP06"
"76458099999","2004-06-10T21:00:00","4","23.2","-106.4166666","4.0","COLONIA JUAN CARRASCO MAZATLAN SIN., MX","FM-12","99999","V020","260,1,N,0030,1","22000,1,9,N","020000,1,N,1","+0308,1","+0234,1","10105,1","06,0000,9,1",,,,,,"02,1,+00810,9,08,9",,,"02,99,1,02,1,02,1,00800,1,00,1,00,1",,"01,9",,,,"99999,9,10100,1","7,1,016,1,+017,1",,,"SYN100AAXX  10211 76458 32570 22603 10308 20234 30100 40105 57016 82200 92058 333 0/100 30/// 58017 82827;","Q01  00002PRCP06"
"76458099999","2004-06-11T00:00:00","4","23.2","-106.4166666","4.0","COLONIA JUAN CARRASCO MAZATLAN SIN., MX","FM-12","99999","V020","250,1,N,0050,1","22000,1,9,N","020000,1,N,1","+0300,1","+0244,1","10089,1","06,0000,9,1","24,0000,9,1",,,,,,,,"02,99,1,02,1,01,1,00800,1,99,9,99,9",,"01,9",,"120,M,+0325,1","180,N,+0260,1","99999,9,10084,1","6,1,016,1,-016,1",,,"SYN130AAXX  11001 76458 32570 22505 10300 20244 30084 40089 56016 821// 92340 333 007// 10325 20260 30/// 50671 57860 59016 70000 82823;","Q01  00002PRCP06"
"76458099999","2004-06-11T03:00:00","4","23.2","-106.4166666","4.0","COLONIA JUAN CARRASCO MAZATLAN SIN., MX","FM-12","99999","V020","300,1,N,0030,1","22000,1,9,N","008000,1,N,1","+0286,1","+0243,1","10095,1","06,0000,9,1",,,,,,"01,1,+00540,9,06,9",,,"04,99,1,01,1,04,1,00450,1,06,1,99,9",,"01,9",,,,"99999,9,10091,1","3,1,007,1,-016,1",,,"SYN112AAXX  11031 76458 32458 43003 10286 20243 30091 40095 53007 8146/ 90240 333 0069/ 30/// 57660 59016 81618 83356;","Q01  00002PRCP06"
"76458099999","2004-06-11T15:00:00","4","23.2","-106.4166666","4.0","COLONIA JUAN CARRASCO MAZATLAN SIN., MX","FM-12","99999","V020","260,1,N,0020,1","22000,1,9,N","016000,1,N,1","+0282,1","+0231,1","10114,1","06,0000,9,1",,,,,,"04,1,+00600,9,08,9",,,"04,99,1,04,1,02,1,00800,1,00,1,00,1",,"01,9",,,,"99999,9,10109,1","2,1,013,1,-009,1",,,"SYN106AAXX  11151 76458 32566 42602 10282 20231 30109 40114 52013 84200 91448 333 0/7// 30/// 57873 59009 84820;","Q01  00002PRCP06"
"76458099999","2004-06-11T18:00:00","4","23.2","-106.4166666","4.0","COLONIA JUAN CARRASCO MAZATLAN SIN., MX","FM-12","99999","V020","250,1,N,0030,1","22000,1,9,N","020000,1,N,1","+0308,1","+0238,1","10114,1","06,0000,9,1",,,,,,"02,1,+00870,9,08,9",,,"02,99,1,02,1,02,1,00800,1,00,1,00,1",,"01,9",,"120,M,+0328,1","240,N,+0270,1","99999,9,10109,1","4,1,000,1,+007,1",,,"SYN112AAXX  11181 76458 32570 22503 10308 20238 30109 40114 54000 82200 91759 333 0/300 10328 20270 30/// 58007 82829;","Q01  00002PRCP06"
"76458099999","2004-06-11T21:00:00","4","23.2","-106.4166666","4.0","COLONIA JUAN CARRASCO MAZATLAN SIN., MX","FM-12","99999","V020","220,1,N,0030,1","22000,1,9,N","020000,1,N,1","+0314,1","+0220,1","10105,1","06,0000,9,1",,,,,,"02,1,+01110,9,08,9",,,"02,99,1,02,1,02,1,01250,1,00,1,00,1",,"01,9",,,,"99999,9,10101,1","7,1,008,1,+001,1",,,"SYN094AAXX  11211 76458 32670 22203 10314 20220 30101 40105 57008 82200 92055 333 30/// 58001 82837;","Q01  00002PRCP06"
"76458099999","2004-06-12T00:00:00","4","23.2","-106.4166666","4.0","COLONIA JUAN CARRASCO MAZATLAN SIN., MX","FM-12","99999","V020","270,1,N,0030,1","22000,1,9,N","020000,1,N,1","+0311,1","+0204,1","10094,1","06,0000,9,1","24,0000,9,1",,,,,,,,"01,99,1,01,1,02,1,99999,9,00,1,00,1",,"01,9",,"120,M,+0335,1","180,N,+0170,1","99999,9,10090,1","5,1,011,1,+006,1",,,"SYN130AAXX  12001 76458 32970 12703 10311 20204 30090 40094 55011 81200 92347 333 0/111 10335 20170 30/// 50621 57815 58006 70000 81845;","Q01  00002PRCP06"
"76458099999","2004-06-12T03:00:00","4","23.2","-106.4166666","4.0","COLONIA JUAN CARRASCO MAZATLAN SIN., MX","FM-12","99999","V020","280,1,N,0040,1","22000,1,9,N","010000,1,N,1","+0290,1","+0220,1","10096,1","06,0000,9,1",,,,,,"01,1,+00870,9,08,9",,,"02,99,1,01,1,02,1,00800,1,03,1,00,1",,"01,9",,,,"99999,9,10091,1","3,1,001,1,+000,1",,,"SYN112AAXX  12031 76458 32560 22804 10290 20220 30091 40096 53001 81230 90247 333 0/86/ 30/// 57889 58000 81829 81362;","Q01  00002PRCP06"
"76458099999","2004-06-12T06:00:00","4","23.2","-106.4166666","4.0","COLONIA JUAN CARRASCO MAZATLAN SIN., MX","FM-12","99999","V020","320,1,N,0030,1","99999,9,9,N","008000,1,N,1","+0286,1","+0228,1","10114,1","06,0000,9,1",,,,,,,,,"06,99,1,06,1,99,9,02250,1,05,1,99,9","0684,9","01,9",,"240,M,+0335,1","240,N,+0270,1","99999,9,10110,1","2,1,018,1,+999,9",,,"SYN118AAXX  12061 76458 32858 63203 10286 20228 30110 40114 52018 86/5/ 90540 333 10335 20270 30/// 55114 21362 58/// 86356;","Q01  00002PRCP06"
"76458099999","2004-06-12T09:00:00","4","23.2","-106.4166666","4.0","COLONIA JUAN CARRASCO MAZATLAN SIN., MX","FM-12","99999","V020","270,1,N,0020,1","03600,1,C,N","008000,1,N,1","+0286,1","+0236,1","10100,1","06,0000,9,1",,,,,,"03,1,+00690,9,06,9",,,"05,99,1,03,1,05,1,00800,1,03,1,99,9",,"01,9",,,,"99999,9,10096,1","7,1,014,1,+999,9",,,"SYN112AAXX  12091 76458 32558 52702 10286 20236 30096 40100 57014 8353/ 90835 333 0079/ 30/// 57670 58/// 83623 82356;","Q01  00002PRCP06"
"76458099999","2004-06-12T15:00:00","4","23.2","-106.4166666","4.0","COLONIA JUAN CARRASCO MAZATLAN SIN., MX","FM-12","99999","V020","140,1,N,0020,1","22000,1,9,N","015000,1,N,1","+0294,1","+0222,1","10120,1","06,0000,9,1",,,,,,"01,1,+00720,9,08,9",,,"04,99,1,01,1,01,1,00800,1,08,1,00,1",,"01,9",,,,"99999,9,10116,1","2,1,016,1,+007,1",,,"SYN106AAXX  12151 76458 32565 41402 10294 20222 30116 40120 52016 81180 91448 333 0020/ 30/// 58007 81824 83358;","Q01  00002PRCP06"
"76458099999","2004-06-12T18:00:00","4","23.2","-106.4166666","4.0","COLONIA JUAN CARRASCO MAZATLAN SIN., MX","FM-12","99999","V020","250,1,N,0040,1","22000,1,9,N","020000,1,N,1","+0316,1","+0213,1","10122,1","06,0000,9,1",,,,,,"00,1,+99999,9,99,9",,,"00,99,1,00,1,00,1,99999,9,00,1,00,1",,"01,9",,"120,M,+0332,1","240,N,+0276,1","99999,9,10117,1","4,1,000,1,+008,1",,,"SYN094AAXX  12181 76458 32970 02504 10316 20213 30117 40122 54001 91740 333 10332 20276 30/// 58008;","Q01  00002PRCP06"
"76458099999","2004-06-12T21:00:00","4","23.2","-106.4166666","4.0","COLONIA JUAN CARRASCO MAZATLAN SIN., MX","FM-12","99999","V020","240,1,N,0040,1","22000,1,9,N","020000,1,N,1","+0310,1","+0232,1","10108,1","06,0000,9,1",,,,,,"01,1,+01380,9,09,9",,,"01,99,1,01,1,09,1,01250,1,99,9,99,9",,"01,9",,,,"99999,9,99999,9","7,1,013,1,+003,1",,,"SYN106AAXX  12211 76458 32670 12404 10310 20232 30404 40108 57013 819// 92040 333 0/1// 30/// 57913 58003 81946;","Q01+104043APOSP Q02  00002PRCP06Q03 104043APOSP "
"76458099999","2004-06-13T00:00:00","4","23.2","-106.4166666","4.0","COLONIA JUAN CARRASCO MAZATLAN SIN., MX","FM-12","99999","V020","270,1,N,0020,1","22000,1,9,N","020000,1,N,1","+0311,1","+0210,1","10103,1","06,0000,9,1","24,0000,9,1",,,,,,,,"01,99,1,01,1,03,1,01750,1,00,1,00,1",,"01,9",,"120,M,+0339,1","180,N,+0276,1","99999,9,10099,1","7,1,005,1,+009,1",,,"SYN130AAXX  13001 76458 32770 12702 10311 20210 30099 40103 57005 81300 92345 333 0/100 10339 20276 30/// 50691 57917 58009 70000 81942;","Q01  00002PRCP06"
"76458099999","2004-06-13T03:00:00","4","23.2","-106.4166666","4.0","COLONIA JUAN CARRASCO MAZATLAN SIN., MX","FM-12","99999","V020","260,1,N,0020,1","22000,1,9,N","010000,1,N,1","+0293,1","+0216,1","10107,1","06,0000,9,1",,,,,,"00,1,+99999,9,99,9",,,"00,99,1,00,1,00,1,99999,9,00,1,00,1",,"01,9",,,,"99999,9,10103,1","3,1,004,1,+012,1",,,"SYN082AAXX  13031 76458 32960 02602 10293 20216 30103 40107 53004 90245 333 30/// 58012;","Q01  00002PRCP06"
"76458099999","2004-06-13T06:00:00","4","23.2","-106.4166666","4.0","COLONIA JUAN CARRASCO MAZATLAN SIN., MX","FM-12","99999","V020","210,1,N,0020,1","22000,1,9,N","010000,1,N,1","+0288,1","+0227,1","10126,1","06,0000,9,1",,,,,,"00,1,+99999,9,99,9",,,"00,99,1,00,1,00,1,99999,9,00,1,00,1","0696,9","01,9",,"240,M,+0339,1","240,N,+0276,1","99999,9,10121,1","2,1,019,1,+999,9",,,"SYN106AAXX  13061 76458 32960 02102 10288 20227 30121 40126 52019 90600 333 10339 20276 30/// 55116 21168 58012;","Q01  00002PRCP06"
"76458099999","2004-06-13T09:00:00","4","23.2","-106.4166666","4.0","COLONIA JUAN CARRASCO MAZATLAN SIN., MX","FM-12","99999","V020","120,1,N,0020,1","00600,1,9,N","010000,1,N,1","+0283,1","+0235,1","10125,1","06,0000,9,1",,,,,,"07,1,+00600,9,08,9",,,"07,99,1,07,1,07,1,00800,1,00,1,00,1",,"01,9",,,,"99999,9,10120,1","4,1,000,1,+024,1",,,"SYN100AAXX  13091 76458 32560 71202 10283 20235 30120 40125 54001 87700 90845 333 0/900 30/// 58024 87820;","Q01  00002PRCP06"
"76458099999","2004-06-13T15:00:00","4","23.2","-106.4166666","4.0","COLONIA JUAN CARRASCO MAZATLAN SIN., MX","FM-12","99999","V020","030,1,N,0010,1","22000,1,9,N","016000,1,N,1","+0296,1","+0233,1","10141,1","06,0000,9,1",,,,,,"00,1,+99999,9,99,9",,,"00,99,1,00,1,00,1,99999,9,00,1,00,1",,"01,9",,,,"99999,9,10136,1","2,1,010,1,+020,1",,,"SYN082AAXX  13151 76458 32966 00301 10296 20233 30136 40141 52010 91440 333 30/// 58020;","Q01  00002PRCP06"
"76458099999","2004-06-13T18:00:00","4","23.2","-106.4166666","4.0","COLONIA JUAN CARRASCO MAZATLAN SIN., MX","FM-12","99999","V020","210,1,N,0030,1","22000,1,9,N","020000,1,N,1","+0311,1","+0226,1","10131,1","06,0000,9,1",,,,,,"00,1,+99999,9,99,9",,,"00,99,1,00,1,00,1,99999,9,00,1,00,1",,"01,9",,"120,M,+0335,1","240,N,+0268,1","99999,9,10127,1","7,1,009,1,+010,1",,,"SYN094AAXX  13181 76458 32970 02103 10311 20226 30127 40131 57009 91750 333 10335 20268 30/// 58010;","Q01  00002PRCP06"
"76458099999","2004-06-14T00:00:00","4","23.2","-106.4166666","4.0","COLONIA JUAN CARRASCO MAZATLAN SIN., MX","FM-12","99999","V020","210,1,N,0030,1","22000,1,9,N","020000,1,N,1","+0316,1","+0219,1","10106,1","06,0000,9,1","24,0000,9,1",,,,,,,,"01,99,1,01,1,02,1,01750,1,00,1,00,1",,,,"120,M,+0335,1","180,N,+0268,1","99999,9,10101,1","7,1,013,1,+002,1",,,"SYN124AAXX  14001 76458 32770 12103 10316 20219 30101 40106 57013 81200 92345 333 0/100 10335 20268 50641 57816 58002 70000 81840;","Q01  00002PRCP06"
"76458099999","2004-06-14T03:00:00","4","23.2","-106.4166666","4.0","COLONIA JUAN CARRASCO MAZATLAN SIN., MX","FM-12","99999","V020","250,1,N,0020,1","22000,1,9,N","010000,1,N,1","+0291,1","+0222,1","10114,1","06,0000,9,1",,,,,,"00,1,+99999,9,99,9",,,"00,99,1,00,1,00,1,99999,9,00,1,00,1",,"01,9",,,,"99999,9,10110,1","2,1,009,1,+007,1",,,"SYN082AAXX  14031 76458 32960 02502 10291 20222 30110 40114 52009 90245 333 30/// 58007;","Q01  00002PRCP06"
"76458099999","2004-06-14T06:00:00","4","23.2","-106.4166666","4.0","COLONIA JUAN CARRASCO MAZATLAN SIN., MX","FM-12","99999","V020","150,1,N,0010,1","22000,1,9,N","010000,1,N,1","+0282,1","+0229,1","10127,1","06,0000,9,1",,,,,,"00,1,+99999,9,99,9",,,"00,99,1,00,1,00,1,99999,9,00,1,00,1","0666,9","01,9",,"240,M,+0335,1","240,N,+0268,1","99999,9,10123,1","2,1,013,1,+999,9",,,"SYN106AAXX  14061 76458 32960 01501 10282 20229 30123 40127 52013 90555 333 10335 20268 30/// 55111 21106 58002;","Q01  00002PRCP06"
"76458099999","2004-06-14T09:00:00","4","23.2","-106.4166666","4.0","COLONIA JUAN CARRASCO MAZATLAN SIN., MX","FM-12","99999","V020","140,1,N,0010,1","22000,1,9,N","010000,1,N,1","+0275,1","+0234,1","10124,1","06,0000,9,1",,,,,,"00,1,+99999,9,99,9",,,"00,99,1,00,1,00,1,99999,9,00,1,00,1",,"01,9",,,,"99999,9,10119,1","7,1,004,1,-001,1",,,"SYN082AAXX  14091 76458 32960 01401 10275 20234 30119 40124 57004 90850 333 30/// 59001;","Q01  00002PRCP06"
"76458099999","2004-06-14T15:00:00","4","23.2","-106.4166666","4.0","COLONIA JUAN CARRASCO MAZATLAN SIN., MX","FM-12","99999","V020","120,1,N,0020,1","22000,1,9,N","015000,1,N,1","+0300,1","+0231,1","10134,1","06,0000,9,1",,,,,,"01,1,+00750,9,08,9",,,"01,99,1,01,1,01,1,00800,1,00,1,00,1",,"01,9",,,,"99999,9,10129,1","2,1,007,1,-007,1",,,"SYN100AAXX  14151 76458 32565 11202 10300 20231 30129 40134 52007 81100 91445 333 003// 30/// 59007 81825;","Q01  00002PRCP06"
"76458099999","2004-06-14T18:00:00","4","23.2","-106.4166666","4.0","COLONIA JUAN CARRASCO MAZATLAN SIN., MX","FM-12","99999","V020","170,1,N,0030,1","22000,1,9,N","020000,1,N,1","+0311,1","+0226,1","10132,1","06,0000,9,1",,,,,,"00,1,+99999,9,99,9",,,"00,99,1,00,1,00,1,99999,9,00,1,00,1",,"01,9",,"120,M,+0335,1","240,N,+0267,1","99999,9,10127,1","7,1,002,1,-001,1",,,"SYN094AAXX  14181 76458 32970 01703 10311 20226 30127 40132 57002 91755 333 10335 20267 30/// 59001;","Q01  00002PRCP06"
"76458099999","2004-06-14T21:00:00","4","23.2","-106.4166666","4.0","COLONIA JUAN CARRASCO MAZATLAN SIN., MX","FM-12","99999","V020","260,1,N,0030,1","22000,1,9,N","020000,1,N,1","+0320,1","+0239,1","10112,1","06,0000,9,1",,,,,,"01,1,+01020,9,08,9",,,"01,99,1,01,1,02,1,01250,1,00,1,00,1",,"01,9",,,,"99999,9,10107,1","7,1,020,1,-007,1",,,"SYN100AAXX  14211 76458 32670 12603 10320 20239 30107 40112 57020 81200 92040 333 0/100 30/// 59007 81834;","Q01  00002PRCP06"
"76458099999","2004-06-15T00:00:00","4","23.2","-106.4166666","4.0","COLONIA JUAN CARRASCO MAZATLAN SIN., MX","FM-12","99999","V020","240,1,N,0040,1","22000,1,9,N","020000,1,N,1","+0308,1","+0232,1","10092,1","06,0000,9,1","24,0000,9,1",,,,,"00,1,+99999,9,99,9",,,"00,99,1,00,1,00,1,99999,9,00,1,00,1",,"01,9",,"120,M,+0340,1","180,N,+0263,1","99999,9,10088,1","7,1,019,1,-013,1",,,"SYN100AAXX  15001 76458 32970 02404 10308 20232 30088 40092 57019 92345 333 10340 20263 30/// 59013 70000;","Q01  00002PRCP06Q02  00002PRCP24"
"76458099999","2004-06-15T03:00:00","4","23.2","-106.4166666","4.0","COLONIA JUAN CARRASCO MAZATLAN SIN., MX","FM-12","99999","V020","240,1,N,0020,1","22000,1,9,N","008000,1,N,1","+0290,1","+0238,1","10099,1","06,0000,9,1",,,,,,"00,1,+99999,9,99,9",,,"00,99,1,00,1,00,1,99999,9,00,1,00,1",,"01,9",,,,"99999,9,10095,1","2,1,007,1,-015,1",,,"SYN082AAXX  15031 76458 32958 02402 10290 20238 30095 40099 52007 90240 333 30/// 59015;","Q01  00002PRCP06"
"76458099999","2004-06-15T06:00:00","4","23.2","-106.4166666","4.0","COLONIA JUAN CARRASCO MAZATLAN SIN., MX","FM-12","99999","V020","260,1,N,0010,1","22000,1,9,N","010000,1,N,1","+0285,1","+0230,1","10114,1","06,0000,9,1",,,,,,"00,1,+99999,9,99,9",,,"00,99,1,00,1,00,1,99999,9,00,1,00,1","0726,9","01,9",,"240,M,+0340,1","240,N,+0263,1","99999,9,10109,1","2,1,015,1,+999,9",,,"SYN106AAXX  15061 76458 32960 02601 10285 20230 30109 40114 52015 90550 333 10340 20263 30/// 55121 21145 59013;","Q01  00002PRCP06"
"76458099999","2004-06-15T09:00:00","4","23.2","-106.4166666","4.0","COLONIA JUAN CARRASCO MAZATLAN SIN., MX","FM-12","99999","V020","120,1,N,0020,1","22000,1,9,N","010000,1,N,1","+0279,1","+0231,1","10107,1","06,0000,9,1",,,,,,"03,1,+02700,9,03,9",,,"99,99,9,01,1,00,1,99999,9,03,1,00,1",,"01,9",,,,"99999,9,10103,1","6,1,006,1,-016,1",,,"SYN100AAXX  15091 76458 32960 21202 10279 20231 30103 40107 56006 81030 90850 333 0/090 30/// 59016 83359;","Q01+000022SCOTCVQ02  00002PRCP06"
"76458099999","2004-06-15T15:00:00","4","23.2","-106.4166666","4.0","COLONIA JUAN CARRASCO MAZATLAN SIN., MX","FM-12","99999","V020","110,1,N,0020,1","02400,1,9,N","015000,1,N,1","+0285,1","+0231,1","10117,1","06,0000,9,1",,,,,,"07,1,+02400,9,03,9",,,"07,99,1,07,1,00,1,99999,9,05,1,00,1",,"01,9",,,,"99999,9,10112,1","2,1,009,1,+999,9",,,"SYN094AAXX  15151 76458 32965 71102 10285 20231 30112 40117 52009 87050 91448 333 0//0/ 30/// 87358;","Q01  00002PRCP06"
"76458099999","2004-06-15T18:00:00","4","23.2","-106.4166666","4.0","COLONIA JUAN CARRASCO MAZATLAN SIN., MX","FM-12","99999","V020","180,1,N,0030,1","22000,1,9,N","020000,1,N,1","+0318,1","+0229,1","10120,1","06,0000,9,1",,,,,,"01,1,+01110,9,08,9",,,"03,99,1,01,1,02,1,01250,1,03,1,00,1",,"01,9",,"120,M,+0340,1","240,N,+0264,1","99999,9,10116,1","2,1,004,1,-011,1",,,"SYN118AAXX  15181 76458 32670 31803 10318 20229 30116 40120 52004 81230 91758 333 0/190 10340 20264 30/// 59011 81837 82358;","Q01  00002PRCP06"
"76458099999","2004-06-15T21:00:00","4","23.2","-106.4166666","4.0","COLONIA JUAN CARRASCO MAZATLAN SIN., MX","FM-12","99999","V020","190,1,N,0030,1","22000,1,9,N","020000,1,N,1","+0322,1","+0213,1","10102,1","06,0000,9,1",,,,,,"01,1,+01260,9,08,9",,,"01,99,1,01,1,02,1,01250,1,00,1,00,1",,"01,9",,,,"99999,9,10097,1","7,1,019,1,-010,1",,,"SYN100AAXX  15211 76458 32670 11903 10322 20213 30097 40102 57019 81200 92050 333 0/100 30/// 59010 81842;","Q01  00002PRCP06"
"76458099999","2004-06-16T00:00:00","4","23.2","-106.4166666","4.0","COLONIA JUAN CARRASCO MAZATLAN SIN., MX","FM-12","99999","V020","240,1,N,0020,1","22000,1,9,N","020000,1,N,1","+0311,1","+0210,1","10082,1","06,0000,9,1","24,0000,9,1",,,,,,,,"02,99,1,00,1,00,1,99999,9,00,1,08,1",,"01,9",,"120,M,+0339,1","180,N,+0264,1","99999,9,10077,1","7,1,020,1,-011,1",,,"SYN130AAXX  16001 76458 32970 22402 10311 20210 30077 40082 57020 80008 92347 333 0///9 10339 20264 30/// 50661 57299 59011 70000 82268;","Q01  00002PRCP06"
"76458099999","2004-06-16T06:00:00","4","23.2","-106.4166666","4.0","COLONIA JUAN CARRASCO MAZATLAN SIN., MX","FM-12","99999","V020","190,1,N,0020,1","22000,1,9,N","010000,1,N,1","+0287,1","+0219,1","10112,1","06,0000,9,1",,,,,,"00,1,+99999,9,99,9",,,"00,99,1,00,1,00,1,99999,9,00,1,00,1","0522,9","01,9",,"240,M,+0339,1","240,N,+0264,1","99999,9,10108,1","2,1,017,1,+999,9",,,"SYN106AAXX  16061 76458 32960 01902 10287 20219 30108 40112 52017 90550 333 10339 20264 30/// 55087 21045 59001;","Q01  00002PRCP06"
"76458099999","2004-06-16T09:00:00","4","23.2","-106.4166666","4.0","COLONIA JUAN CARRASCO MAZATLAN SIN., MX","FM-12","99999","V020","090,1,N,0020,1","22000,1,9,N","010000,1,N,1","+0278,1","+0220,1","10107,1","06,0000,9,1",,,,,,"00,1,+99999,9,99,9",,,"00,99,1,00,1,00,1,99999,9,00,1,00,1",,"01,9",,,,"99999,9,10103,1","8,1,005,1,+999,9",,,"SYN082AAXX  16091 76458 32960 00902 10278 20220 30103 40107 58005 90850 333 30/// 58///;","Q01  00002PRCP06"
"76458099999","2004-06-16T12:00:00","4","23.2","-106.4166666","4.0","COLONIA JUAN CARRASCO MAZATLAN SIN., MX","FM-12","99999","V020","350,1,N,0020,1","22000,1,9,N","010000,1,N,1","+0271,1","+0212,1","10095,1","06,0000,9,1","24,0000,9,1",,,,,"01,1,+03000,9,00,9",,,"01,99,1,00,1,00,1,99999,9,00,1,06,1",,"01,9","999,+0250,9","999,M,+0339,1","120,N,+0260,1","99999,9,10091,1","7,1,012,1,-012,1",,,"SYN124AAXX  16121 76458 32960 13502 10271 20212 30091 40095 57012 80006 91148 333 0///9 10339 20260 30025 57019 59012 70000 81060;","Q01  00002PRCP06"
"76458099999","2004-06-16T15:00:00","4","23.2","-106.4166666","4.0","COLONIA JUAN CARRASCO MAZATLAN SIN., MX","FM-12","99999","V020","290,1,N,0010,1","22000,1,9,N","015000,1,N,1","+0297,1","+0211,1","10110,1","06,0000,9,1",,,,,,"01,1,+03600,9,03,9",,,"01,99,1,01,1,00,1,02250,1,03,1,00,1",,"01,9",,,,"99999,9,10106,1","2,1,016,1,-006,1",,,"SYN106AAXX  16151 76458 32865 12901 10297 20211 30106 40110 52016 81030 91445 333 0//3/ 30/// 57339 59006 81362;","Q01  00002PRCP06"
"76458099999","2004-06-16T21:00:00","4","23.2","-106.4166666","4.0","COLONIA JUAN CARRASCO MAZATLAN SIN., MX","FM-12","99999","V020","210,1,N,0030,1","22000,1,9,N","020000,1,N,1","+0318,1","+0192,1","10110,1","06,0000,9,1",,,,,,"01,1,+01440,9,08,9",,,"01,99,1,01,1,02,1,01250,1,00,1,00,1",,"01,9",,,,"99999,9,10105,1","7,1,008,1,+008,1",,,"SYN100AAXX  16211 76458 32670 12103 10318 20192 30105 40110 57008 81200 92048 333 0/100 30/// 58008 81848;","Q01  00002PRCP06"
"76458099999","2004-06-17T00:00:00","4","23.2","-106.4166666","4.0","COLONIA JUAN CARRASCO MAZATLAN SIN., MX","FM-12","99999","V020","240,1,N,0040,1","22000,1,9,N","020000,1,N,1","+0316,1","+0206,1","10102,1","06,0000,9,1","24,0000,9,1",,,,,"01,1,+01800,9,03,9",,,"02,99,1,02,1,99,9,02250,1,03,1,99,9",,"01,9",,"120,M,+0340,1","180,N,+0259,1","99999,9,10097,1","7,1,008,1,+013,1",,,"SYN118AAXX  17001 76458 32870 22404 10316 20206 30097 40102 57008 82/3/ 92340 333 10340 20259 30/// 50661 58013 70000 81356;","Q01  00002PRCP06"
"76458099999","2004-06-17T03:00:00","4","23.2","-106.4166666","4.0","COLONIA JUAN CARRASCO MAZATLAN SIN., MX","FM-12","99999","V020","270,1,N,0030,1","22000,1,9,N","008000,1,N,1","+0294,1","+0204,1","10111,1","06,0000,9,1",,,,,,"00,1,+99999,9,99,9",,,"00,99,1,00,1,00,1,99999,9,00,1,00,1",,"01,9",,,,"99999,9,10107,1","3,1,010,1,+016,1",,,"SYN082AAXX  17031 76458 32958 02703 10294 20204 30107 40111 53010 90240 333 30/// 58016;","Q01  00002PRCP06"
"76458099999","2004-06-17T06:00:00","4","23.2","-106.4166666","4.0","COLONIA JUAN CARRASCO MAZATLAN SIN., MX","FM-12","99999","V020","090,1,N,0020,1","22000,1,9,N","010000,1,N,1","+0286,1","+0205,1","10119,1","06,0000,9,1",,,,,,"00,1,+99999,9,99,9",,,"00,99,1,00,1,00,1,99999,9,00,1,00,1","0690,9","01,9",,"240,M,+0340,1","240,N,+0259,1","99999,9,10115,1","3,1,008,1,+999,9",,,"SYN106AAXX  17061 76458 32960 00902 10286 20205 30115 40119 53008 90600 333 10340 20259 30/// 55115 20990 59003;","Q01  00002PRCP06"
"76458099999","2004-06-17T09:00:00","4","23.2","-106.4166666","4.0","COLONIA JUAN CARRASCO MAZATLAN SIN., MX","FM-12","99999","V020","060,1,N,0010,1","22000,1,9,N","010000,1,N,1","+0274,1","+0212,1","10114,1","06,0000,9,1",,,,,,"00,1,+99999,9,99,9",,,"00,99,1,00,1,00,1,99999,9,00,1,00,1",,"01,9",,,,"99999,9,10110,1","5,1,005,1,+007,1",,,"SYN082AAXX  17091 76458 32960 00601 10274 20212 30110 40114 55005 90855 333 30/// 58007;","Q01  00002PRCP06"
"76458099999","2004-06-17T12:00:00","4","23.2","-106.4166666","4.0","COLONIA JUAN CARRASCO MAZATLAN SIN., MX","FM-12","99999","V020","360,1,N,0020,1","22000,1,9,N","010000,1,N,1","+0267,1","+0209,1","10118,1","06,0000,9,1","24,0000,9,1",,,,,"01,1,+06000,9,00,9",,,"01,99,1,00,1,00,1,99999,9,00,1,06,1",,"01,9","999,+0240,9","999,M,+0340,1","120,N,+0260,1","99999,9,10113,1","0,1,003,1,+023,1",,,"SYN124AAXX  17121 76458 32960 13602 10267 20209 30113 40118 50003 80006 91148 333 0///9 10340 20260 30024 57029 58023 70000 81070;","Q01  00002PRCP06"
"76458099999","2004-06-17T15:00:00","4","23.2","-106.4166666","4.0","COLONIA JUAN CARRASCO MAZATLAN SIN., MX","FM-12","99999","V020","350,1,N,0020,1","22000,1,9,N","015000,1,N,1","+0295,1","+0215,1","10121,1","06,0000,9,1",,,,,,"02,1,+05400,9,00,9",,,"02,99,1,00,1,00,1,99999,9,00,1,06,1",,"01,9",,,,"99999,9,10116,1","0,1,003,1,+010,1",,,"SYN106AAXX  17151 76458 32965 23502 10295 20215 30116 40121 50003 80006 91445 333 0///9 30/// 57099 58010 82068;","Q01  00002PRCP06"
"76458099999","2004-06-17T18:00:00","4","23.2","-106.4166666","4.0","COLONIA JUAN CARRASCO MAZATLAN SIN., MX","FM-12","99999","V020","190,1,N,0030,1","22000,1,9,N","020000,1,N,1","+0320,1","+0224,1","10127,1","06,0000,9,1",,,,,,"01,1,+02400,9,03,9",,,"01,99,1,99,9,00,1,99999,9,03,1,00,1",,"01,9",,"120,M,+0342,1","240,N,+0255,1","99999,9,10122,1","2,1,006,1,+009,1",,,"SYN112AAXX  17181 76458 32970 11903 10320 20224 30122 40127 52006 80030 91752 333 0/090 10342 20255 30/// 58009 81358;","Q01+000002SCOTLCQ02  00002PRCP06"
"76458099999","2004-06-17T21:00:00","4","23.2","-106.4166666","4.0","COLONIA JUAN CARRASCO MAZATLAN SIN., MX","FM-12","99999","V020","240,1,N,0030,1","22000,1,9,N","020000,1,N,1","+0320,1","+0224,1","10121,1","06,0000,9,1",,,,,,"01,1,+01110,9,08,9",,,"01,99,1,01,1,02,1,01250,1,00,1,00,1",,"01,9",,,,"99999,9,10116,1","7,1,006,1,+010,1",,,"SYN100AAXX  17211 76458 32670 12403 10320 20224 30116 40121 57006 81200 92045 333 0/100 30/// 58010 81837;","Q01  00002PRCP06"
"76458099999","2004-06-18T00:00:00","4","23.2","-106.4166666","4.0","COLONIA JUAN CARRASCO MAZATLAN SIN., MX","FM-12","99999","V020","240,1,N,0030,1","01800,1,9,N","020000,1,N,1","+0306,1","+0202,1","10117,1","06,0000,9,1","24,0000,9,1",,,,,"06,1,+01800,9,03,9",,,"06,99,1,06,1,99,9,02250,1,07,1,99,9",,"01,9",,"120,M,+0340,1","180,N,+0255,1","99999,9,10113,1","5,1,003,1,+016,1",,,"SYN118AAXX  18001 76458 32870 62403 10306 20202 30113 40117 55003 86/7/ 92345 333 10340 20255 30/// 50691 58016 70000 86356;","Q01  00002PRCP06"
"76458099999","2004-06-18T03:00:00","4","23.2","-106.4166666","4.0","COLONIA JUAN CARRASCO MAZATLAN SIN., MX","FM-12","99999","V020","310,1,N,0040,1","01800,1,9,N","008000,1,N,1","+0300,1","+0198,1","10122,1","06,0000,9,1",,,,,,"07,1,+01800,9,03,9",,,"07,99,1,07,1,99,9,02250,1,07,1,99,9",,"01,9",,,,"99999,9,10117,1","3,1,004,1,+010,1",,,"SYN094AAXX  18031 76458 32858 73104 10300 20198 30117 40122 53004 87/7/ 90240 333 30/// 58010 87356;","Q01  00002PRCP06"
"76458099999","2004-06-18T06:00:00","4","23.2","-106.4166666","4.0","COLONIA JUAN CARRASCO MAZATLAN SIN., MX","FM-12","99999","V020","090,1,N,0030,1","01200,1,9,N","010000,1,N,1","+0293,1","+0204,1","10134,1","06,0000,9,1",,,,,,,,,"07,99,1,07,1,07,1,01250,1,00,1,00,1","0630,9","01,9",,"240,M,+0340,1","240,N,+0255,1","99999,9,10130,1","3,1,012,1,+015,1",,,"SYN124AAXX  18061 76458 32660 70903 10293 20204 30130 40134 53012 87700 90600 333 0/900 10340 20255 30/// 55105 20781 58015 87837;","Q01  00002PRCP06"
"76458099999","2004-06-18T09:00:00","4","23.2","-106.4166666","4.0","COLONIA JUAN CARRASCO MAZATLAN SIN., MX","FM-12","99999","V020","120,1,N,0030,1","00840,1,9,N","010000,1,N,1","+0280,1","+0214,1","10135,1","06,0000,9,1",,,,,,"07,1,+00840,9,08,9",,,"07,99,1,07,1,07,1,00800,1,00,1,00,1",,"01,9",,,,"99999,9,10131,1","0,1,005,1,+021,1",,,"SYN100AAXX  18091 76458 32560 71203 10280 20214 30131 40135 50005 87700 90850 333 0/900 30/// 58021 87828;","Q01  00002PRCP06"
"76458099999","2004-06-18T15:00:00","4","23.2","-106.4166666","4.0","COLONIA JUAN CARRASCO MAZATLAN SIN., MX","FM-12","99999","V020","180,1,N,0020,1","22000,1,9,N","015000,1,N,1","+0304,1","+0222,1","10142,1","06,0000,9,1",,,,,,"02,1,+02400,9,03,9",,,"03,99,1,02,1,00,1,99999,9,03,1,05,1",,"01,9",,,,"99999,9,10138,1","2,1,007,1,+022,1",,,"SYN106AAXX  18151 76458 32965 31802 10304 20222 30138 40142 52007 82035 91440 333 01100 30/// 58022 82358 81270;","Q01  00002PRCP06"
"76458099999","2004-06-18T18:00:00","4","23.2","-106.4166666","4.0","COLONIA JUAN CARRASCO MAZATLAN SIN., MX","FM-12","99999","V020","180,1,N,0020,1","22000,1,9,N","020000,1,N,1","+0324,1","+0221,1","10141,1","06,0000,9,1",,,,,,"01,1,+01200,9,08,9",,,"01,99,1,01,1,02,1,01250,1,00,1,00,1",,"01,9",,"120,M,+0345,1","240,N,+0266,1","99999,9,10137,1","4,1,000,1,+015,1",,,"SYN118AAXX  18181 76458 32670 11802 10324 20221 30137 40141 54000 81200 91745 333 0/100 10345 20266 30/// 57810 58015 81840;","Q01  00002PRCP06"
"76458099999","2004-06-18T21:00:00","4","23.2","-106.4166666","4.0","COLONIA JUAN CARRASCO MAZATLAN SIN., MX","FM-12","99999","V020","230,1,N,0030,1","22000,1,9,N","020000,1,N,1","+0320,1","+0230,1","10135,1","06,0000,9,1",,,,,,"02,1,+01110,9,08,9",,,"02,99,1,02,1,02,1,01250,1,00,1,00,1",,"01,9",,,,"99999,9,10131,1","7,1,006,1,+015,1",,,"SYN100AAXX  18211 76458 32670 22303 10320 20230 30131 40135 57006 82200 92050 333 0/100 30/// 58015 82837;","Q01  00002PRCP06"
"76458099999","2004-06-19T00:00:00","4","23.2","-106.4166666","4.0","COLONIA JUAN CARRASCO MAZATLAN SIN., MX","FM-12","99999","V020","260,1,N,0020,1","99999,9,9,N","020000,1,N,1","+0306,1","+0231,1","10138,1","06,0000,9,1","24,9999,9,9",,,,,"02,1,+00930,9,06,9",,,"07,99,1,04,1,03,1,00800,1,00,1,00,1",,"01,9",,"120,M,+0351,1","180,N,+0266,1","99999,9,10133,1","3,1,002,1,+020,1",,,"SYN136AAXX  19001 76458 32570 72602 10306 20231 30133 40138 53002 84300 92347 333 0/32/ 10351 20266 30/// 50721 57639 58020 79999 82631 85364;","Q01  00002PRCP06Q02  99992PRCP24"
"76458099999","2004-06-19T09:00:00","4","23.2","-106.4166666","4.0","COLONIA JUAN CARRASCO MAZATLAN SIN., MX","FM-12","99999","V020","090,1,N,0020,1","01800,1,C,N","008000,1,N,1","+0282,1","+0233,1","10163,1","06,0000,9,1",,,,,,"01,1,+00600,9,08,9","04,1,+01800,9,03,9",,"07,99,1,01,1,01,1,00800,1,03,1,06,1",,"01,9",,,,"99999,9,10159,1","7,1,005,1,+028,1",,,"SYN118AAXX  19091 76458 32558 70902 10282 20233 30159 40163 57005 81136 90835 333 00699 30/// 57810 58028 81820 84356 82070;","Q01  00002PRCP06"
"76458099999","2004-06-19T15:00:00","4","23.2","-106.4166666","4.0","COLONIA JUAN CARRASCO MAZATLAN SIN., MX","FM-12","99999","V020","020,1,N,0010,1","02400,1,9,N","013000,1,N,1","+0287,1","+0235,1","10162,1","06,0000,9,1",,,,,,"05,1,+02400,9,03,9",,,"06,99,1,05,1,00,1,99999,9,03,1,02,1",,"01,9",,,,"99999,9,10157,1","3,1,002,1,+019,1",,,"SYN106AAXX  19151 76458 32963 60201 10287 20235 30157 40162 53002 85032 91448 333 0//00 30/// 58019 85358 81070;","Q01  00002PRCP06"
"76458099999","2004-06-19T18:00:00","4","23.2","-106.4166666","4.0","COLONIA JUAN CARRASCO MAZATLAN SIN., MX","FM-12","99999","V020","240,1,N,0040,1","22000,1,9,N","018000,1,N,1","+0314,1","+0244,1","10163,1","06,0000,9,1",,,,,,"01,1,+00870,9,08,9",,,"02,99,1,01,1,02,1,00800,1,03,1,99,9",,"01,9",,"120,M,+0335,1","240,N,+0270,1","99999,9,10159,1","3,1,002,1,+022,1",,,"SYN124AAXX  19181 76458 32568 22404 10314 20244 30159 40163 53002 8123/ 91740 333 0119/ 10335 20270 30/// 57815 58022 81829 81356;","Q01  00002PRCP06"
"76458099999","2004-06-19T21:00:00","4","23.2","-106.4166666","4.0","COLONIA JUAN CARRASCO MAZATLAN SIN., MX","FM-12","99999","V020","250,1,N,0050,1","22000,1,9,N","020000,1,N,1","+0326,1","+0251,1","10147,1","06,0000,9,1",,,,,,"01,1,+00930,9,09,9",,,"01,99,1,01,1,09,1,00800,1,99,9,99,9",,"01,9",,,,"99999,9,10142,1","7,1,017,1,+011,1",,,"SYN106AAXX  19211 76458 32570 12505 10326 20251 30142 40147 57017 819// 92040 333 0/1// 30/// 57913 58011 81931;","Q01  00002PRCP06"
"76458099999","2004-06-20T00:00:00","4","23.2","-106.4166666","4.0","COLONIA JUAN CARRASCO MAZATLAN SIN., MX","FM-12","99999","V020","280,1,N,0040,1","22000,1,9,N","020000,1,N,1","+0313,1","+0240,1","10129,1","06,0000,9,1","24,0000,9,1",,,,,"01,1,+00900,9,09,9",,,"03,99,1,01,1,03,1,00800,1,00,1,08,1",,"01,9",,"120,M,+0341,1","180,N,+0270,1","99999,9,10125,1","7,1,017,1,-008,1",,,"SYN136AAXX  20001 76458 32570 32804 10313 20240 30125 40129 57017 81308 92345 333 0/2/9 10341 20270 30/// 50661 57925 59008 70000 81930 82268;","Q01  00002PRCP06"
"76458099999","2004-06-20T03:00:00","4","23.2","-106.4166666","4.0","COLONIA JUAN CARRASCO MAZATLAN SIN., MX","FM-12","99999","V020","290,1,N,0040,1","22000,1,9,N","010000,1,N,1","+0294,1","+0228,1","10139,1","06,0000,9,1",,,,,,"01,1,+03600,9,03,9",,,"04,99,1,01,1,00,1,02250,1,03,1,08,1",,"01,9",,,,"99999,9,10134,1","2,1,009,1,-002,1",,,"SYN112AAXX  20031 76458 32860 42904 10294 20228 30134 40139 52009 81038 90245 333 0//99 30/// 57399 59002 81362 83268;","Q01  00002PRCP06"
"76458099999","2004-06-20T09:00:00","4","23.2","-106.4166666","4.0","COLONIA JUAN CARRASCO MAZATLAN SIN., MX","FM-12","99999","V020","270,1,N,0020,1","22000,1,9,N","010000,1,N,1","+0290,1","+0228,1","10140,1","06,0000,9,1",,,,,,"01,1,+00780,9,08,9",,,"02,99,1,01,1,07,1,00800,1,03,1,00,1",,"01,9",,,,"99999,9,10135,1","6,1,002,1,-024,1",,,"SYN106AAXX  20091 76458 32560 22702 10290 20228 30135 40140 56002 81730 90855 333 0/990 30/// 59024 81826 81359;","Q01  00002PRCP06"
"76458099999","2004-06-20T12:00:00","4","23.2","-106.4166666","4.0","COLONIA JUAN CARRASCO MAZATLAN SIN., MX","FM-12","99999","V020","060,1,N,0020,1","06000,1,9,N","008000,1,N,1","+0280,1","+0222,1","10143,1","06,0000,9,1",,,,,,"05,1,+06000,9,00,9",,,"05,99,1,00,1,99,9,99999,9,99,9,06,1",,"01,9","999,+0270,9","999,M,+0341,1","120,N,+0276,1","99999,9,10138,1","3,1,003,1,-017,1",,,"SYN106AAXX  20121 76458 32958 50602 10280 20222 30138 40143 53003 80//6 91140 333 10341 20276 30027 59017 85070;","Q01  00002PRCP06"
"76458099999","2004-06-20T15:00:00","4","23.2","-106.4166666","4.0","COLONIA JUAN CARRASCO MAZATLAN SIN., MX","FM-12","99999","V020","100,1,N,0030,1","22000,1,9,N","020000,1,N,1","+0300,1","+0235,1","10153,1","06,0000,9,1",,,,,,"01,1,+00810,9,08,9",,,"01,99,1,01,1,02,1,00800,1,99,9,99,9",,"01,9",,,,"99999,9,10184,1","1,1,010,1,-009,1",,,"SYN106AAXX  20151 76458 32570 11003 10300 20235 30184 40153 51010 812// 91440 333 014// 30/// 57844 59009 81827;","Q01  00002PRCP06"
"76458099999","2004-06-21T15:00:00","4","23.2","-106.4166666","4.0","COLONIA JUAN CARRASCO MAZATLAN SIN., MX","FM-12","99999","V020","110,1,N,0010,1","22000,1,9,N","015000,1,N,1","+0300,1","+0225,1","10124,1","06,0000,9,1",,,,,,"02,1,+02400,9,03,9",,,"02,99,1,02,1,00,1,99999,9,03,1,00,1",,"01,9",,,,"99999,9,10119,1","1,1,001,1,-029,1",,,"SYN100AAXX  21151 76458 32965 21101 10300 20225 30119 40124 51001 82030 91448 333 0//0/ 30/// 59029 82358;","Q01  00002PRCP06"
"76458099999","2004-06-21T18:00:00","4","23.2","-106.4166666","4.0","COLONIA JUAN CARRASCO MAZATLAN SIN., MX","FM-12","99999","V020","160,1,N,0030,1","22000,1,9,N","020000,1,N,1","+0315,1","+0229,1","10123,1","06,0000,9,1",,,,,,"01,1,+00810,9,08,9",,,"02,99,1,01,1,01,1,01250,1,00,1,02,1",,"01,9",,"120,M,+0328,1","240,N,+0248,1","99999,9,10119,1","4,1,000,1,+999,9",,,"SYN118AAXX  21181 76458 32670 21603 10315 20229 30119 40123 54000 81102 91748 333 003/0 10328 20248 30/// 59/// 81827 81070;","Q01  00002PRCP06"
"76458099999","2004-06-21T21:00:00","4","23.2","-106.4166666","4.0","COLONIA JUAN CARRASCO MAZATLAN SIN., MX","FM-12","99999","V020","240,1,N,0040,1","22000,1,9,N","020000,1,N,1","+0312,1","+0229,1","10108,1","06,0000,9,1",,,,,,"01,1,+01050,9,09,9",,,"02,99,1,01,1,09,1,01250,1,03,1,00,1",,"01,9",,,,"99999,9,10103,1","8,1,015,1,+999,9",,,"SYN112AAXX  21211 76458 32670 22404 10312 20229 30103 40108 58015 81930 92050 333 07190 30/// 57912 58/// 81935 81361;","Q01  00002PRCP06"
"76458099999","2004-06-22T00:00:00","4","23.2","-106.4166666","4.0","COLONIA JUAN CARRASCO MAZATLAN SIN., MX","FM-12","99999","V020","230,1,N,0030,1","22000,1,9,N","020000,1,N,1","+0312,1","+0224,1","10094,1","06,0000,9,1","24,0000,9,1",,,,,"01,1,+01110,9,09,9",,,"02,99,1,01,1,09,1,01250,1,99,9,06,1",,"01,9",,"120,M,+0335,1","180,N,+0248,1","99999,9,10090,1","7,1,013,1,-030,1",,,"SYN136AAXX  22001 76458 32670 22303 10312 20224 30090 40094 57013 819/6 92340 333 0/8/4 10335 20248 30/// 50641 57984 59030 70000 81937 81070;","Q01  00002PRCP06"
"76458099999","2004-06-22T03:00:00","4","23.2","-106.4166666","4.0","COLONIA JUAN CARRASCO MAZATLAN SIN., MX","FM-12","99999","V020","180,1,N,0030,1","22000,1,9,N","008000,1,N,1","+0288,1","+0224,1","10101,1","06,0000,9,1",,,,,,"01,1,+06000,9,00,9",,,"01,99,1,00,1,99,9,99999,9,99,9,01,1",,"01,9",,,,"99999,9,10097,1","2,1,007,1,-023,1",,,"SYN094AAXX  22031 76458 32958 11803 10288 20224 30097 40101 52007 80//1 90235 333 30/// 59023 81070;","Q01  00002PRCP06"
"76458099999","2004-06-22T06:00:00","4","23.2","-106.4166666","4.0","COLONIA JUAN CARRASCO MAZATLAN SIN., MX","FM-12","99999","V020","130,1,N,0020,1","22000,1,9,N","010000,1,N,1","+0284,1","+0235,1","10115,1","06,0000,9,1",,,,,,"00,1,+99999,9,99,9",,,"00,99,1,00,1,00,1,99999,9,00,1,00,1","0732,9","01,9",,"240,M,+0335,1","240,N,+0248,1","99999,9,10111,1","2,1,014,1,+999,9",,,"SYN106AAXX  22061 76458 32960 01302 10284 20235 30111 40115 52014 90550 333 10335 20248 30/// 55122 21075 59016;","Q01  00002PRCP06"
"76458099999","2004-06-22T09:00:00","4","23.2","-106.4166666","4.0","COLONIA JUAN CARRASCO MAZATLAN SIN., MX","FM-12","99999","V020","070,1,N,0020,1","22000,1,9,N","010000,1,N,1","+0274,1","+0230,1","10109,1","06,0000,9,1",,,,,,"00,1,+99999,9,99,9",,,"00,99,1,00,1,00,1,99999,9,00,1,00,1",,"01,9",,,,"99999,9,10104,1","7,1,007,1,-017,1",,,"SYN082AAXX  22091 76458 32960 00702 10274 20230 30104 40109 57007 90850 333 30/// 59017;","Q01  00002PRCP06"
"76458099999","2004-06-22T15:00:00","4","23.2","-106.4166666","4.0","COLONIA JUAN CARRASCO MAZATLAN SIN., MX","FM-12","99999","V020","090,1,N,0020,1","22000,1,9,N","014000,1,N,1","+0298,1","+0232,1","10116,1","06,0000,9,1",,,,,,"01,1,+00600,9,08,9",,,"02,99,1,01,1,02,1,01250,1,03,1,00,1",,"01,9",,,,"99999,9,10112,1","2,1,020,1,-004,1",,,"SYN112AAXX  22151 76458 32664 20902 10298 20232 30112 40116 52020 81230 91448 333 0/30/ 30/// 57667 59004 81820 81358;","Q01  00002PRCP06"
"76458099999","2004-06-22T18:00:00","4","23.2","-106.4166666","4.0","COLONIA JUAN CARRASCO MAZATLAN SIN., MX","FM-12","99999","V020","210,1,N,0030,1","22000,1,9,N","020000,1,N,1","+0312,1","+0233,1","10117,1","06,0000,9,1",,,,,,"01,1,+00660,9,08,9",,,"01,99,1,01,1,01,1,01250,1,00,1,00,1",,"01,9",,"120,M,+0336,1","240,N,+0257,1","99999,9,10112,1","1,1,002,1,-007,1",,,"SYN112AAXX  22181 76458 32670 12103 10312 20233 30112 40117 51002 81100 91745 333 003// 10336 20257 30/// 59007 81822;","Q01  00002PRCP06"
"76458099999","2004-06-22T21:00:00","4","23.2","-106.4166666","4.0","COLONIA JUAN CARRASCO MAZATLAN SIN., MX","FM-12","99999","V020","210,1,N,0040,1","22000,1,9,N","020000,1,N,1","+0319,1","+0232,1","10101,1","06,0000,9,1",,,,,,"02,1,+01080,9,09,9",,,"02,99,1,02,1,03,1,01250,1,00,1,00,1",,"01,9",,,,"99999,9,10096,1","7,1,016,1,-007,1",,,"SYN106AAXX  22211 76458 32670 22104 10319 20232 30096 40101 57016 82300 92050 333 04100 30/// 57913 59007 82936;","Q01  00002PRCP06"
"76458099999","2004-06-23T00:00:00","4","23.2","-106.4166666","4.0","COLONIA JUAN CARRASCO MAZATLAN SIN., MX","FM-12","99999","V020","240,1,N,0030,1","22000,1,9,N","020000,1,N,1","+0312,1","+0225,1","10090,1","06,0000,9,1","24,0000,9,1",,,,,,,,"01,99,1,01,1,03,1,01250,1,00,1,00,1",,"01,9",,"120,M,+0340,1","180,N,+0257,1","99999,9,10086,1","7,1,010,1,-004,1",,,"SYN130AAXX  23001 76458 32670 12403 10312 20225 30086 40090 57010 81300 92345 333 001// 10340 20257 30/// 50721 57915 59004 70000 81936;","Q01  00002PRCP06"
"76458099999","2004-06-23T03:00:00","4","23.2","-106.4166666","4.0","COLONIA JUAN CARRASCO MAZATLAN SIN., MX","FM-12","99999","V020","220,1,N,0020,1","22000,1,9,N","010000,1,N,1","+0290,1","+0209,1","10104,1","06,0000,9,1",,,,"0,1,03,1","0,1,03,1","01,1,+01020,9,09,9",,,"01,99,1,01,1,09,1,01250,1,00,1,00,1",,"01,9",,,,"99999,9,10099,1","2,1,013,1,+002,1","13,1",,"SYN112AAXX  23031 76458 31660 12202 10290 20209 30099 40104 52013 71300 81900 90245 333 001// 30/// 57919 58002 81934;","Q01  00002PRCP06"
"76458099999","2004-06-23T12:00:00","4","23.2","-106.4166666","4.0","COLONIA JUAN CARRASCO MAZATLAN SIN., MX","FM-12","99999","V020","360,1,N,0020,1","22000,1,9,N","010000,1,N,1","+0261,1","+0207,1","10115,1","06,0000,9,1",,,,,,"03,1,+06000,9,00,9",,,"03,99,1,00,1,00,1,99999,9,00,1,02,1",,"01,9","999,+0240,9","999,M,+0340,1","120,N,+0252,1","99999,9,10111,1","9,9,999,9,+016,1",,,"SYN112AAXX  23121 76458 32960 33602 10261 20207 30111 40115 5//// 80002 91250 333 0///0 10340 20252 30024 58016 83070;","Q01  00002PRCP06"
"76458099999","2004-06-23T15:00:00","4","23.2","-106.4166666","4.0","COLONIA JUAN CARRASCO MAZATLAN SIN., MX","FM-12","99999","V020","030,1,N,0010,1","22000,1,9,N","015000,1,N,1","+0294,1","+0211,1","10120,1","06,0000,9,1",,,,,,,,,"01,99,1,00,1,00,1,99999,9,00,1,02,1",,"01,9",,,,"99999,9,10115,1","3,1,004,1,+999,9",,,"SYN098AAXX  23151 76458 32965 10301 10294 20211 30115 40120 53004 80002 91445 333 0///0 30/// 004 81070;","Q01  00002PRCP06"
"76458099999","2004-06-23T21:00:00","4","23.2","-106.4166666","4.0","COLONIA JUAN CARRASCO MAZATLAN SIN., MX","FM-12","99999","V020","210,1,N,0030,1","22000,1,9,N","020000,1,N,1","+0320,1","+0238,1","10111,1","06,0000,9,1",,,,,,"01,1,+01020,9,08,9",,,"01,99,1,01,1,02,1,01250,1,00,1,00,1",,"01,9",,,,"99999,9,10107,1","7,1,006,1,+011,1",,,"SYN106AAXX  23211 76458 32670 12103 10320 20238 30107 40111 57006 81200 92045 333 0/1// 30/// 57819 58011 81834;","Q01  00002PRCP06"
"76458099999","2004-06-24T03:00:00","4","23.2","-106.4166666","4.0","COLONIA JUAN CARRASCO MAZATLAN SIN., MX","FM-12","99999","V020","300,1,N,0040,1","99999,9,9,N","008000,1,N,1","+0294,1","+0231,1","10116,1","06,0000,9,1",,,,,,"01,1,+06000,9,00,9",,,"05,99,1,00,1,99,9,99999,9,99,9,01,1",,"01,9",,,,"99999,9,10112,1","2,1,012,1,+013,1",,,"SYN094AAXX  24031 76458 32958 53004 10294 20231 30112 40116 52012 80//1 90240 333 30/// 58013 81070;","Q01  00002PRCP06"
"76458099999","2004-06-24T06:00:00","4","23.2","-106.4166666","4.0","COLONIA JUAN CARRASCO MAZATLAN SIN., MX","FM-12","99999","V020","270,1,N,0010,1","22000,1,9,N","010000,1,N,1","+0290,1","+0245,1","10133,1","06,0000,9,1",,,,,,,,,"01,99,1,01,1,04,1,00450,1,00,1,00,1","0714,9","01,9",,"240,M,+0338,1","240,N,+0252,1","99999,9,10129,1","2,1,016,1,+999,9",,,"SYN124AAXX  24061 76458 32460 12701 10290 20245 30129 40133 52016 81400 90555 333 0/700 10338 20252 30/// 55119 20983 58/// 81619;","Q01  00002PRCP06"
"76458099999","2004-06-24T09:00:00","4","23.2","-106.4166666","4.0","COLONIA JUAN CARRASCO MAZATLAN SIN., MX","FM-12","99999","V020","090,1,N,0020,1","22000,1,9,N","010000,1,N,1","+0284,1","+0241,1","10130,1","06,0000,9,1",,,,,,"01,1,+00540,9,08,9",,,"03,99,1,01,1,02,1,00450,1,03,1,00,1",,"01,9",,,,"99999,9,10125,1","8,1,003,1,+999,9",,,"SYN112AAXX  24091 76458 32460 30902 10284 20241 30125 40130 58003 81230 90850 333 01990 30/// 57891 58/// 81818 82359;","Q01  00002PRCP06"
"76458099999","2004-06-24T15:00:00","4","23.2","-106.4166666","4.0","COLONIA JUAN CARRASCO MAZATLAN SIN., MX","FM-12","99999","V020","110,1,N,0020,1","22000,1,9,N","013000,1,N,1","+0300,1","+0242,1","10135,1","06,0000,9,1",,,,,,"01,1,+00600,9,08,9",,,"03,99,1,01,1,02,1,01250,1,00,1,02,1",,"01,9",,,,"99999,9,10130,1","1,1,007,1,+015,1",,,"SYN112AAXX  24151 76458 32663 31102 10300 20242 30130 40135 51007 81202 91448 333 0/4/0 30/// 57848 58015 81820 82270;","Q01  00002PRCP06"
"76458099999","2004-06-24T18:00:00","4","23.2","-106.4166666","4.0","COLONIA JUAN CARRASCO MAZATLAN SIN., MX","FM-12","99999","V020","200,1,N,0030,1","22000,1,9,N","018000,1,N,1","+0320,1","+0211,1","10132,1","06,0000,9,1",,,,,,"01,1,+01350,9,08,9",,,"02,99,1,01,1,02,1,01750,1,00,1,01,1",,"01,9",,"120,M,+0332,1","240,N,+0270,1","99999,9,10127,1","7,1,003,1,+014,1",,,"SYN124AAXX  24181 76458 32768 22003 10320 20211 30127 40132 57003 81201 91747 333 0/1/9 10332 20270 30/// 57816 58014 81845 81068;","Q01  00002PRCP06"
"76458099999","2004-06-24T21:00:00","4","23.2","-106.4166666","4.0","COLONIA JUAN CARRASCO MAZATLAN SIN., MX","FM-12","99999","V020","210,1,N,0030,1","22000,1,9,N","018000,1,N,1","+0323,1","+0226,1","10124,1","06,0000,9,1",,,,,,"01,1,+01200,9,09,9",,,"03,99,1,01,1,03,1,01750,1,00,1,01,1",,"01,9",,,,"99999,9,10120,1","7,1,007,1,+013,1",,,"SYN112AAXX  24211 76458 32768 32103 10323 20226 30120 40124 57007 81301 92045 333 0/1/9 30/// 57916 58013 81940 82068;","Q01  00002PRCP06"
"76458099999","2004-06-25T00:00:00","4","23.2","-106.4166666","4.0","COLONIA JUAN CARRASCO MAZATLAN SIN., MX","FM-12","99999","V020","270,1,N,0030,1","22000,1,9,N","018000,1,N,1","+0312,1","+0200,1","10119,1","06,0000,9,1","24,0000,9,1",,,,,"01,1,+01410,9,09,9",,,"02,99,1,01,1,09,1,01250,1,99,9,01,1",,"01,9",,"120,M,+0340,1","180,N,+0170,1","99999,9,10115,1","7,1,005,1,+015,1",,,"SYN136AAXX  25001 76458 32668 22703 10312 20200 30115 40119 57005 819/1 92345 333 011/9 10340 20170 30/// 50621 57913 58015 70000 81947 81070;","Q01  00002PRCP06"
"76458099999","2004-06-25T03:00:00","4","23.2","-106.4166666","4.0","COLONIA JUAN CARRASCO MAZATLAN SIN., MX","FM-12","99999","V020","240,1,N,0020,1","22000,1,9,N","008000,1,N,1","+0294,1","+0219,1","10135,1","06,0000,9,1",,,,,,"01,1,+01800,9,03,9",,,"01,99,1,01,1,99,9,02250,1,03,1,99,9",,"01,9",,,,"99999,9,10131,1","2,1,016,1,+019,1",,,"SYN094AAXX  25031 76458 32858 12402 10294 20219 30131 40135 52016 81/3/ 90240 333 30/// 58019 81356;","Q01  00002PRCP06"
"76458099999","2004-06-25T06:00:00","4","23.2","-106.4166666","4.0","COLONIA JUAN CARRASCO MAZATLAN SIN., MX","FM-12","99999","V020","060,1,N,0010,1","22000,1,9,N","010000,1,N,1","+0292,1","+0228,1","10144,1","06,0000,9,1",,,,,,,,,"03,99,1,03,1,00,1,99999,9,03,1,00,1","0708,9","01,9",,"240,M,+0340,1","240,N,+0270,1","99999,9,10139,1","2,1,008,1,+011,1",,,"SYN124AAXX  25061 76458 32960 30601 10292 20228 30139 40144 52008 83030 90550 333 0/090 10340 20270 30/// 55118 20967 58011 83359;","Q01  00002PRCP06"
"76458099999","2004-06-25T09:00:00","4","23.2","-106.4166666","4.0","COLONIA JUAN CARRASCO MAZATLAN SIN., MX","FM-12","99999","V020","999,9,C,0000,1","22000,1,9,N","010000,1,N,1","+0289,1","+0229,1","10133,1","06,0000,9,1",,,,,,"02,1,+02700,9,03,9",,,"02,99,1,02,1,00,1,99999,9,03,1,00,1",,"01,9",,,,"99999,9,10129,1","7,1,010,1,+003,1",,,"SYN100AAXX  25091 76458 32960 20000 10289 20229 30129 40133 57010 82030 90850 333 0/090 30/// 58003 82359;","Q01  00002PRCP06"
"76458099999","2004-06-25T12:00:00","4","23.2","-106.4166666","4.0","COLONIA JUAN CARRASCO MAZATLAN SIN., MX","FM-12","99999","V020","999,9,C,0000,1","22000,1,9,N","010000,1,N,1","+0279,1","+0228,1","10130,1","06,0000,9,1","24,0000,9,1",,,,,"00,1,+99999,9,99,9",,,"00,99,1,00,1,00,1,99999,9,00,1,00,1",,"01,9","999,+0250,9","999,M,+0342,1","120,N,+0270,1","99999,9,10125,1","6,1,004,1,+003,1",,,"SYN100AAXX  25121 76458 32960 00000 10279 20228 30125 40130 56004 91240 333 10342 20270 30025 58003 70000;","Q01  00002PRCP06Q02  00002PRCP24"
"76458099999","2004-06-25T15:00:00","4","23.2","-106.4166666","4.0","COLONIA JUAN CARRASCO MAZATLAN SIN., MX","FM-12","99999","V020","140,1,N,0020,1","22000,1,9,N","013000,1,N,1","+0302,1","+0237,1","10140,1","06,0000,9,1",,,,,,"01,1,+00600,9,08,9",,,"01,99,1,01,1,01,1,01250,1,00,1,00,1",,"01,9",,,,"99999,9,10135,1","2,1,010,1,+005,1",,,"SYN100AAXX  25151 76458 32663 11402 10302 20237 30135 40140 52010 81100 91448 333 003// 30/// 58005 81820;","Q01  00002PRCP06"
"76458099999","2004-06-25T18:00:00","4","23.2","-106.4166666","4.0","COLONIA JUAN CARRASCO MAZATLAN SIN., MX","FM-12","99999","V020","240,1,N,0030,1","22000,1,9,N","018000,1,N,1","+0320,1","+0233,1","10141,1","06,0000,9,1",,,,,,"03,1,+01080,9,08,9",,,"03,99,1,03,1,03,1,99999,9,00,1,00,1",,"01,9",,"120,M,+0341,1","240,N,+0270,1","99999,9,10137,1","7,1,002,1,+010,1",,,"SYN112AAXX  25181 76458 32968 32403 10320 20233 30137 40141 57002 83300 91755 333 0/300 10341 20270 30/// 58010 83836;","Q01  00002PRCP06"
"76458099999","2004-06-25T21:00:00","4","23.2","-106.4166666","4.0","COLONIA JUAN CARRASCO MAZATLAN SIN., MX","FM-12","99999","V020","240,1,N,0030,1","22000,1,9,N","018000,1,N,1","+0320,1","+0233,1","10121,1","06,0000,9,1",,,,,,"01,1,+01080,9,08,9",,,"01,99,1,01,1,02,1,01250,1,00,1,00,1",,"01,9",,,,"99999,9,10117,1","7,1,020,1,-003,1",,,"SYN100AAXX  25211 76458 32668 12403 10320 20233 30117 40121 57020 81200 92050 333 0/100 30/// 59003 81836;","Q01  00002PRCP06"
"76458099999","2004-06-26T00:00:00","4","23.2","-106.4166666","4.0","COLONIA JUAN CARRASCO MAZATLAN SIN., MX","FM-12","99999","V020","280,1,N,0040,1","22000,1,9,N","018000,1,N,1","+0313,1","+0225,1","10107,1","06,0000,9,1","24,0000,9,1",,,,,,,,"01,99,1,01,1,03,1,01250,1,00,1,00,1",,"01,9",,"120,M,+0340,1","180,N,+0270,1","99999,9,10102,1","7,1,015,1,-013,1",,,"SYN130AAXX  26001 76458 32668 12804 10313 20225 30102 40107 57015 81300 92345 333 0/1// 10340 20270 30/// 50691 57916 59013 70000 81937;","Q01  00002PRCP06"
"76458099999","2004-06-26T03:00:00","4","23.2","-106.4166666","4.0","COLONIA JUAN CARRASCO MAZATLAN SIN., MX","FM-12","99999","V020","280,1,N,0030,1","22000,1,9,N","010000,1,N,1","+0300,1","+0232,1","10112,1","06,0000,9,1",,,,,,"01,1,+00840,9,09,9",,,"01,99,1,01,1,03,1,00800,1,00,1,00,1",,"01,9",,,,"99999,9,10108,1","2,1,006,1,-013,1",,,"SYN106AAXX  26031 76458 32560 12803 10300 20232 30108 40112 52006 81300 90245 333 0/1// 30/// 57917 59013 81928;","Q01  00002PRCP06"
"76458099999","2004-06-26T15:00:00","4","23.2","-106.4166666","4.0","COLONIA JUAN CARRASCO MAZATLAN SIN., MX","FM-12","99999","V020","100,1,N,0010,1","22000,1,9,N","015000,1,N,1","+0303,1","+0226,1","10124,1","06,0000,9,1",,,,,,"01,1,+02400,9,03,9",,,"01,99,1,01,1,00,1,99999,9,03,1,00,1",,"01,9",,,,"99999,9,10119,1","1,1,002,1,-016,1",,,"SYN100AAXX  26151 76458 32965 11001 10303 20226 30119 40124 51002 81030 91448 333 0//0/ 30/// 59016 81358;","Q01  00002PRCP06"
"76458099999","2004-06-26T18:00:00","4","23.2","-106.4166666","4.0","COLONIA JUAN CARRASCO MAZATLAN SIN., MX","FM-12","99999","V020","240,1,N,0030,1","22000,1,9,N","018000,1,N,1","+0322,1","+0241,1","10114,1","06,0000,9,1",,,,,,"01,1,+01020,9,08,9",,,"01,99,1,01,1,02,1,01250,1,99,9,99,9",,"01,9",,"120,M,+0337,1","240,N,+0277,1","99999,9,10110,1","7,1,009,1,-027,1",,,"SYN118AAXX  26181 76458 32668 12403 10322 20241 30110 40114 57009 812// 91740 333 011// 10337 20277 30/// 57817 59027 81834;","Q01  00002PRCP06"
"76458099999","2004-06-27T12:00:00","4","23.2","-106.4166666","4.0","COLONIA JUAN CARRASCO MAZATLAN SIN., MX","FM-12","99999","V020","120,1,N,0040,1","22000,1,9,N","008000,1,N,1","+0288,1","+0233,1","10119,1","06,0000,9,1","24,0000,9,1",,,,,"00,1,+99999,9,99,9",,,"00,99,1,00,1,00,1,99999,9,00,1,00,1",,"01,9","999,+0270,9","999,M,+0345,1","120,N,+0282,1","99999,9,10115,1","3,1,002,1,-002,1",,,"SYN100AAXX  27121 76458 32958 01204 10288 20233 30115 40119 53002 91135 333 10345 20282 30027 59002 70000;","Q01  00002PRCP06Q02  00002PRCP24"
"76458099999","2004-06-27T15:00:00","4","23.2","-106.4166666","4.0","COLONIA JUAN CARRASCO MAZATLAN SIN., MX","FM-12","99999","V020","120,1,N,0020,1","22000,1,9,N","016000,1,N,1","+0306,1","+0235,1","10126,1","06,0000,9,1",,,,,,"00,1,+99999,9,99,9",,,"00,99,1,00,1,00,1,99999,9,00,1,00,1",,"01,9",,,,"99999,9,10121,1","3,1,006,1,+002,1",,,"SYN082AAXX  27151 76458 32966 01202 10306 20235 30121 40126 53006 91440 333 30/// 58002;","Q01  00002PRCP06"
"76458099999","2004-06-27T18:00:00","4","23.2","-106.4166666","4.0","COLONIA JUAN CARRASCO MAZATLAN SIN., MX","FM-12","99999","V020","180,1,N,0030,1","22000,1,9,N","020000,1,N,1","+0326,1","+0198,1","10129,1","06,0000,9,1",,,,,,"00,1,+99999,9,99,9",,,"00,99,1,00,1,00,1,99999,9,00,1,00,1",,"01,9",,"120,M,+0348,1","240,N,+0282,1","99999,9,10125,1","2,1,004,1,+015,1",,,"SYN094AAXX  27181 76458 32970 01803 10326 20198 30125 40129 52004 91750 333 10348 20282 30/// 58015;","Q01  00002PRCP06"
"76458099999","2004-06-27T21:00:00","4","23.2","-106.4166666","4.0","COLONIA JUAN CARRASCO MAZATLAN SIN., MX","FM-12","99999","V020","230,1,N,0030,1","22000,1,9,N","020000,1,N,1","+0322,1","+0241,1","10128,1","06,0000,9,1",,,,,,"01,1,+00960,9,08,9",,,"01,99,1,01,1,02,1,01250,1,00,1,00,1",,"01,9",,,,"99999,9,10118,1","7,1,007,1,+026,1",,,"SYN100AAXX  27211 76458 32670 12303 10322 20241 30118 40128 57007 81200 92050 333 0/100 30/// 58026 81832;","Q01  00002PRCP06"
"76458099999","2004-06-28T00:00:00","4","23.2","-106.4166666","4.0","COLONIA JUAN CARRASCO MAZATLAN SIN., MX","FM-12","99999","V020","220,1,N,0030,1","22000,1,9,N","020000,1,N,1","+0317,1","+0236,1","10109,1","06,0000,9,1","24,0000,9,1",,,,,,,,"02,99,1,02,1,02,1,01250,1,00,1,00,1",,"01,9",,"120,M,+0347,1","180,N,+0282,1","99999,9,10104,1","7,1,014,1,+027,1",,,"SYN130AAXX  28001 76458 32670 22203 10317 20236 30104 40109 57014 82200 92345 333 004// 10347 20282 30/// 50731 57849 58027 70000 82838;","Q01  00002PRCP06"
"76458099999","2004-06-28T03:00:00","4","23.2","-106.4166666","4.0","COLONIA JUAN CARRASCO MAZATLAN SIN., MX","FM-12","99999","V020","230,1,N,0020,1","22000,1,9,N","010000,1,N,1","+0297,1","+0242,1","10118,1","06,0000,9,1",,,,"0,1,03,1","0,1,03,1","01,1,+00690,9,09,9",,,"01,99,1,01,1,09,1,00800,1,00,1,00,1",,"01,9",,,,"99999,9,10114,1","2,1,010,1,+023,1","13,1",,"SYN112AAXX  28031 76458 31560 12302 10297 20242 30114 40118 52010 71300 81900 90245 333 002// 30/// 57926 58023 81923;","Q01  00002PRCP06"
"76458099999","2004-06-28T09:00:00","4","23.2","-106.4166666","4.0","COLONIA JUAN CARRASCO MAZATLAN SIN., MX","FM-12","99999","V020","090,1,N,0020,1","00840,1,9,N","010000,1,N,1","+0267,1","+0200,1","10130,1","06,0000,9,1",,,,,,"07,1,+00840,9,08,9",,,"07,99,1,07,1,07,1,00800,1,00,1,00,1",,"01,9",,,,"99999,9,10126,1","8,1,016,1,+013,1",,,"SYN106AAXX  28091 76458 32560 70902 10267 20200 30126 40130 58016 87700 90850 333 01800 30/// 57881 58013 87828;","Q01  00002PRCP06"
"76458099999","2004-06-28T18:00:00","4","23.2","-106.4166666","4.0","COLONIA JUAN CARRASCO MAZATLAN SIN., MX","FM-12","99999","V020","180,1,N,0040,1","03600,1,C,N","020000,1,N,1","+0314,1","+0230,1","10138,1","06,0000,9,1",,,,,,"01,1,+01050,9,08,9","03,1,+03300,9,03,9","01,1,+05700,9,01,9","06,99,1,01,1,02,1,01250,1,03,1,09,1",,"01,9",,"120,M,+0340,1","240,N,+0254,1","99999,9,10134,1","7,1,009,1,+009,1",,,"SYN136AAXX  28181 76458 32670 61804 10314 20230 30134 40138 57009 81239 91750 333 04199 10340 20254 30/// 57814 58009 81835 83361 81169 81079;","Q01  00002PRCP06"
"76458099999","2004-06-28T21:00:00","4","23.2","-106.4166666","4.0","COLONIA JUAN CARRASCO MAZATLAN SIN., MX","FM-12","99999","V020","220,1,N,0060,1","03600,1,C,N","020000,1,N,1","+0316,1","+0245,1","10124,1","06,0000,9,1",,,,,,"02,1,+00900,9,09,9","02,1,+03000,9,03,9",,"06,99,1,02,1,09,1,00800,1,03,1,02,1",,"01,9",,,,"99999,9,10120,1","7,1,014,1,+002,1",,,"SYN118AAXX  28211 76458 32570 62206 10316 20245 30120 40124 57014 82932 92050 333 07199 30/// 57922 58002 82930 82360 82079;","Q01  00002PRCP06"
"76458099999","2004-06-29T00:00:00","4","23.2","-106.4166666","4.0","COLONIA JUAN CARRASCO MAZATLAN SIN., MX","FM-12","99999","V020","260,1,N,0030,1","22000,1,9,N","020000,1,N,1","+0318,1","+0246,1","10113,1","06,0000,9,1","24,0000,9,1",,,,,"01,1,+00900,9,08,9",,,"02,99,1,01,1,02,1,00800,1,03,1,99,9",,"01,9",,"120,M,+0340,1","180,N,+0254,1","99999,9,10109,1","7,1,011,1,+005,1",,,"SYN130AAXX  29001 76458 32570 22603 10318 20246 30109 40113 57011 8123/ 92340 333 10340 20254 30/// 50631 57813 58005 70000 81830 81356;","Q01  00002PRCP06"
"76458099999","2004-06-29T03:00:00","4","23.2","-106.4166666","4.0","COLONIA JUAN CARRASCO MAZATLAN SIN., MX","FM-12","99999","V020","270,1,N,0020,1","22000,1,9,N","008000,1,N,1","+0298,1","+0253,1","10126,1","06,0000,9,1",,,,"1,1,03,1","3,1,03,1","01,1,+00750,9,09,9",,,"02,99,1,02,1,09,1,00450,1,99,9,99,9",,"01,9",,,,"99999,9,10121,1","3,1,012,1,+007,1","00,1",,"SYN118AAXX  29031 76458 31458 22702 10298 20253 30121 40126 53012 70013 829// 90240 333 0/2// 30/// 57913 58007 81925 81619;","Q01  00002PRCP06"
"76458099999","2004-06-29T09:00:00","4","23.2","-106.4166666","4.0","COLONIA JUAN CARRASCO MAZATLAN SIN., MX","FM-12","99999","V020","330,1,N,0020,1","22000,1,9,N","008000,1,N,1","+0292,1","+0249,1","10136,1","06,0000,9,1",,,,,,"02,1,+00570,9,08,9",,,"02,99,1,02,1,02,1,00450,1,00,1,00,1",,"01,9",,,,"99999,9,10132,1","7,1,009,1,+006,1",,,"SYN100AAXX  29091 76458 32458 23302 10292 20249 30132 40136 57009 82200 90855 333 0/200 30/// 58006 82819;","Q01  00002PRCP06"
"76458099999","2004-06-29T15:00:00","4","23.2","-106.4166666","4.0","COLONIA JUAN CARRASCO MAZATLAN SIN., MX","FM-12","99999","V020","999,9,C,0000,1","03600,1,C,N","013000,1,N,1","+0288,1","+0220,1","10145,1","06,0000,9,1",,,,,,"01,1,+00900,9,08,9",,,"05,99,1,01,1,02,1,01250,1,03,1,00,1",,"01,9",,,,"99999,9,10141,1","1,1,014,1,-002,1",,,"SYN112AAXX  29151 76458 32663 50000 10288 20220 30141 40145 51014 81230 91445 333 0/30/ 30/// 57832 59002 81830 84358;","Q01  00002PRCP06"
"76458099999","2004-06-29T18:00:00","4","23.2","-106.4166666","4.0","COLONIA JUAN CARRASCO MAZATLAN SIN., MX","FM-12","99999","V020","250,1,N,0030,1","22000,1,9,N","020000,1,N,1","+0318,1","+0242,1","10140,1","06,0000,9,1",,,,,,"01,1,+00930,9,08,9",,,"04,99,1,01,1,02,1,01250,1,03,1,00,1",,"01,9",,"120,M,+0340,1","240,N,+0273,1","99999,9,10135,1","7,1,006,1,+001,1",,,"SYN124AAXX  29181 76458 32670 42503 10318 20242 30135 40140 57006 81230 91748 333 0/30/ 10340 20273 30/// 57833 58001 81831 83358;","Q01  00002PRCP06"
"76458099999","2004-06-29T21:00:00","4","23.2","-106.4166666","4.0","COLONIA JUAN CARRASCO MAZATLAN SIN., MX","FM-12","99999","V020","240,1,N,0040,1","22000,1,9,N","020000,1,N,1","+0321,1","+0243,1","10123,1","06,0000,9,1",,,,,,"01,1,+00990,9,09,9","01,1,+03300,9,03,9",,"03,99,1,01,1,03,1,00800,1,03,1,02,1",,"01,9",,,,"99999,9,10118,1","7,1,017,1,-001,1",,,"SYN118AAXX  29211 76458 32570 32404 10321 20243 30118 40123 57017 81332 92050 333 04199 30/// 57912 59001 81933 81361 81079;","Q01  00002PRCP06"
"76458099999","2004-06-30T00:00:00","4","23.2","-106.4166666","4.0","COLONIA JUAN CARRASCO MAZATLAN SIN., MX","FM-12","99999","V020","250,1,N,0030,1","22000,1,9,N","020000,1,N,1","+0315,1","+0244,1","10106,1","06,0000,9,1","24,0000,9,1",,,,,"01,1,+00900,9,08,9",,,"02,99,1,01,1,02,1,00800,1,03,1,00,1",,"01,9",,"120,M,+0343,1","180,N,+0273,1","99999,9,10102,1","7,1,016,1,-007,1",,,"SYN136AAXX  30001 76458 32570 22503 10315 20244 30102 40106 57016 81230 92345 333 0/19/ 10343 20273 30/// 50711 57819 59007 70000 81830 81362;","Q01  00002PRCP06"
"76458099999","2004-06-30T03:00:00","4","23.2","-106.4166666","4.0","COLONIA JUAN CARRASCO MAZATLAN SIN., MX","FM-12","99999","V020","240,1,N,0020,1","22000,1,9,N","010000,1,N,1","+0300,1","+0245,1","10119,1","06,0000,9,1",,,,,,"01,1,+03600,9,03,9",,,"01,99,1,01,1,00,1,02250,1,03,1,00,1",,"01,9",,,,"99999,9,10114,1","3,1,012,1,-007,1",,,"SYN106AAXX  30031 76458 32860 12402 10300 20245 30114 40119 53012 81030 90247 333 0//9/ 30/// 57399 59007 81362;","Q01  00002PRCP06"
"76458099999","2004-06-30T06:00:00","4","23.2","-106.4166666","4.0","COLONIA JUAN CARRASCO MAZATLAN SIN., MX","FM-12","99999","V020","270,1,N,0020,1","22000,1,9,N","010000,1,N,1","+0297,1","+0242,1","10141,1","06,0000,9,1",,,,,,"00,1,+99999,9,99,9",,,"00,99,1,00,1,00,1,99999,9,00,1,00,1","0600,9","01,9",,"240,M,+0343,1","240,N,+0273,1","99999,9,10136,1","2,1,022,1,+999,9",,,"SYN106AAXX  30061 76458 32960 02702 10297 20242 30136 40141 52022 90555 333 10343 20273 30/// 55100 21246 59006;","Q01  00002PRCP06"
"76458099999","2004-06-30T12:00:00","4","23.2","-106.4166666","4.0","COLONIA JUAN CARRASCO MAZATLAN SIN., MX","FM-12","99999","V020","330,1,N,0010,1","22000,1,9,N","010000,1,N,1","+0281,1","+0242,1","10133,1","06,0000,9,1","24,0000,9,1",,,,,"01,1,+03600,9,03,9",,,"01,99,1,01,1,00,1,02250,1,03,1,00,1",,"01,9","999,+0270,9","999,M,+0343,1","120,N,+0276,1",,"5,1,002,1,+002,1",,,"SYN118AAXX  30121 76458 32860 13301 10281 20242 40133 55002 81030 91147 333 0//9/ 10343 20276 30027 57399 58002 70000 81362;","Q01  00002PRCP06"
"76458099999","2004-06-30T18:00:00","4","23.2","-106.4166666","4.0","COLONIA JUAN CARRASCO MAZATLAN SIN., MX","FM-12","99999","V020","240,1,N,0030,1","22000,1,9,N","020000,1,N,1","+0322,1","+0254,1","10137,1","06,0000,9,1",,,,,,"01,1,+00780,9,08,9",,,"02,99,1,01,1,02,1,00800,1,00,1,02,1",,"01,9",,"120,M,+0335,1","240,N,+0271,1","99999,9,10132,1","5,1,001,1,-003,1",,,"SYN124AAXX  30181 76458 32570 22403 10322 20254 30132 40137 55001 81202 91748 333 0/3/0 10335 20271 30/// 57813 59003 81826 81070;","Q01  00002PRCP06"
"76458099999","2004-06-30T21:00:00","4","23.2","-106.4166666","4.0","COLONIA JUAN CARRASCO MAZATLAN SIN., MX","FM-12","99999","V020","210,1,N,0040,1","22000,1,9,N","020000,1,N,1","+0326,1","+0232,1","10124,1","06,0000,9,1",,,,,,"01,1,+01170,9,09,9",,,"02,99,1,01,1,03,1,01250,1,00,1,05,1",,"01,9",,,,"99999,9,10119,1","7,1,013,1,+001,1",,,"SYN112AAXX  30211 76458 32670 22104 10326 20232 30119 40124 57013 81305 92050 333 04101 30/// 57912 58001 81939 81079;","Q01  00002PRCP06"
"76458099999","2004-07-01T00:00:00","4","23.2","-106.4166666","4.0","COLONIA JUAN CARRASCO MAZATLAN SIN., MX","FM-12","99999","V020","270,1,N,0040,1","22000,1,9,N","020000,1,N,1","+0322,1","+0229,1","10109,1","06,0000,9,1","24,0000,9,1",,,,,"01,1,+01170,9,08,9",,,"02,99,1,01,1,02,1,01250,1,99,9,06,1",,"01,9",,"120,M,+0345,1","180,N,+0271,1","99999,9,10105,1","7,1,015,1,+003,1",,,"SYN136AAXX  01001 76458 32670 22704 10322 20229 30105 40109 57015 812/6 92340 333 011/9 10345 20271 30/// 50711 57814 58003 70000 81839 81070;","Q01  00002PRCP06"
"76458099999","2004-07-01T03:00:00","4","23.2","-106.4166666","4.0","COLONIA JUAN CARRASCO MAZATLAN SIN., MX","FM-12","99999","V020","360,1,N,0040,1","22000,1,9,N","010000,1,N,1","+0280,1","+0225,1","10127,1","02,0000,9,1",,,,"5,1,03,1","5,1,03,1","01,1,+00690,9,09,9",,,"02,99,1,02,1,09,1,00800,1,99,9,99,9",,"01,9",,,,"99999,9,10123,1","1,1,018,1,+009,1","00,1",,"SYN118AAXX  01031 76458 11560 23604 10280 20225 30123 40127 51018 69906 70055 829// 90240 333 0/2// 30/// 57911 58009 81923;","Q01  00002PRCP02"
"76458099999","2004-07-01T06:00:00","4","23.2","-106.4166666","4.0","COLONIA JUAN CARRASCO MAZATLAN SIN., MX","FM-12","99999","V020","360,1,N,0020,1","22000,1,9,N","008000,1,N,1","+0276,1","+0220,1","10131,1","06,0000,9,1",,,,,,,,,"01,99,1,99,9,00,1,99999,9,03,1,00,1","0720,9","01,9",,"240,M,+0345,1","240,N,+0271,1","99999,9,10127,1","7,1,004,1,-009,1",,,"SYN124AAXX  01061 76458 32958 13602 10276 20220 30127 40131 57004 80030 90555 333 0/090 10345 20271 30/// 55120 21246 59009 81358;","Q01+000002SCOTLCQ02  00002PRCP06"
"76458099999","2004-07-01T12:00:00","4","23.2","-106.4166666","4.0","COLONIA JUAN CARRASCO MAZATLAN SIN., MX","FM-12","99999","V020","999,9,C,0010,1","22000,1,9,N","020000,1,N,1","+0268,1","+0222,1","10119,1","06,0000,9,1","24,0000,9,1",,,,,"01,1,+03000,9,03,9",,,"01,99,1,01,1,00,1,99999,9,09,1,00,1",,"01,9","999,+0250,9","999,M,+0345,1","120,N,+0256,1","99999,9,10115,1","5,1,004,1,+014,1",,,"SYN118AAXX  01121 76458 32970 10001 10268 20222 30115 40119 55004 81090 91150 333 0/090 10345 20256 30025 58014 70000 81360;","Q01  00002PRCP06"
"76458099999","2004-07-01T15:00:00","4","23.2","-106.4166666","4.0","COLONIA JUAN CARRASCO MAZATLAN SIN., MX","FM-12","99999","V020","999,9,C,0000,1","22000,1,9,N","020000,1,N,1","+0302,1","+0229,1","10126,1","06,0000,9,1",,,,,,"00,1,+99999,9,99,9",,,"00,99,1,00,1,00,1,99999,9,00,1,00,1",,"01,9",,,,"99999,9,10121,1","2,1,006,1,-009,1",,,"SYN082AAXX  01151 76458 32970 00000 10302 20229 30121 40126 52006 91450 333 30/// 59009;","Q01  00002PRCP06"
"76458099999","2004-07-01T18:00:00","4","23.2","-106.4166666","4.0","COLONIA JUAN CARRASCO MAZATLAN SIN., MX","FM-12","99999","V020","190,1,N,0030,1","22000,1,9,N","020000,1,N,1","+0311,1","+0241,1","10129,1","06,0000,9,1",,,,,,"01,1,+00870,9,08,9",,,"01,99,1,01,1,01,1,00800,1,00,1,00,1",,"01,9",,"120,M,+0339,1","240,N,+0258,1","99999,9,10125,1","0,1,004,1,-007,1",,,"SYN118AAXX  01181 76458 32570 11903 10311 20241 30125 40129 50004 81100 91745 333 0/1// 10339 20258 30/// 57819 59007 81829;","Q01  00002PRCP06"
"76458099999","2004-07-01T21:00:00","4","23.2","-106.4166666","4.0","COLONIA JUAN CARRASCO MAZATLAN SIN., MX","FM-12","99999","V020","230,1,N,0040,1","22000,1,9,N","020000,1,N,1","+0323,1","+0228,1","10117,1","06,0000,9,1",,,,,,"01,1,+01200,9,09,9",,,"01,99,1,01,1,03,1,01250,1,00,1,00,1",,"01,9",,,,"99999,9,10113,1","7,1,012,1,-006,1",,,"SYN106AAXX  01211 76458 32670 12304 10323 20228 30113 40117 57012 81300 92045 333 0/1// 30/// 57916 59006 81940;","Q01  00002PRCP06"
"76458099999","2004-07-02T00:00:00","4","23.2","-106.4166666","4.0","COLONIA JUAN CARRASCO MAZATLAN SIN., MX","FM-12","99999","V020","270,1,N,0050,1","22000,1,9,N","020000,1,N,1","+0330,1","+0230,1","10100,1","06,0000,9,1","24,0000,9,1",,,,,"01,1,+01260,9,09,9",,,"02,99,1,01,1,09,1,01250,1,99,9,06,1",,"01,9",,"120,M,+0345,1","180,N,+0258,1","99999,9,10096,1","7,1,017,1,-009,1",,,"SYN136AAXX  02001 76458 32670 22705 10330 20230 30096 40100 57017 819/6 92340 333 0/1/9 10345 20258 30/// 50611 57913 59009 70000 81942 81070;","Q01  00002PRCP06"
"76458099999","2004-07-02T03:00:00","4","23.2","-106.4166666","4.0","COLONIA JUAN CARRASCO MAZATLAN SIN., MX","FM-12","99999","V020","150,1,N,0040,1","00870,1,9,N","008000,1,N,1","+0310,1","+0237,1","10137,1","06,0000,9,1",,,,"0,1,03,1","0,1,03,1","05,1,+00870,9,06,9",,,"07,99,1,07,1,05,1,00800,1,99,9,99,9",,"01,9",,,,"99999,9,10133,1","2,1,037,1,+010,1","13,1",,"SYN118AAXX  02031 76458 31558 71504 10310 20237 30133 40137 52037 71300 875// 90240 333 0/2// 30/// 57620 58010 85629 82930;","Q01  00002PRCP06"
"76458099999","2004-07-02T18:00:00","4","23.2","-106.4166666","4.0","COLONIA JUAN CARRASCO MAZATLAN SIN., MX","FM-12","99999","V020","160,1,N,0030,1","22000,1,9,N","020000,1,N,1","+0308,1","+0245,1","10133,1","06,0000,9,1",,,,,,"04,1,+00750,9,08,9",,,"04,99,1,04,1,02,1,00800,1,00,1,00,1",,"01,9",,"120,M,+0328,1","240,N,+0243,1","99999,9,10128,1","4,1,000,1,+003,1",,,"SYN118AAXX  02181 76458 32570 41603 10308 20245 30128 40133 54000 84200 91745 333 014// 10328 20243 30/// 57843 58003 84825;","Q01  00002PRCP06"
"76458099999","2004-07-02T21:00:00","4","23.2","-106.4166666","4.0","COLONIA JUAN CARRASCO MAZATLAN SIN., MX","FM-12","99999","V020","190,1,N,0030,1","22000,1,9,N","020000,1,N,1","+0320,1","+0237,1","10127,1","06,0000,9,1",,,,,,"03,1,+01020,9,08,9",,,"04,99,1,03,1,02,1,01250,1,04,1,00,1",,"01,9",,,,"99999,9,10122,1","6,1,006,1,+009,1",,,"SYN112AAXX  02211 76458 32670 41903 10320 20237 30122 40127 56006 83240 92045 333 0140/ 30/// 57845 58009 83834 81358;","Q01  00002PRCP06"
"76458099999","2004-07-03T00:00:00","4","23.2","-106.4166666","4.0","COLONIA JUAN CARRASCO MAZATLAN SIN., MX","FM-12","99999","V020","240,1,N,0030,1","22000,1,9,N","020000,1,N,1","+0316,1","+0242,1","10116,1","06,0000,9,1","24,0038,9,1",,,,,"01,1,+00930,9,08,9",,,"03,99,1,01,1,01,1,00800,1,00,1,08,1",,"01,9",,"120,M,+0342,1","180,N,+0243,1","99999,9,10112,1","7,1,010,1,+016,1",,,"SYN136AAXX  03001 76458 32570 32403 10316 20242 30112 40116 57010 81108 92345 333 0/1/9 10342 20243 30/// 50691 57819 58016 70038 81831 82268;","Q01  00002PRCP06"
"76458099999","2004-07-03T03:00:00","4","23.2","-106.4166666","4.0","COLONIA JUAN CARRASCO MAZATLAN SIN., MX","FM-12","99999","V020","210,1,N,0020,1","03600,1,C,N","010000,1,N,1","+0301,1","+0244,1","10124,1","06,0000,9,1",,,,,,"01,1,+00720,9,08,9","01,1,+03600,9,03,9",,"06,99,1,01,1,01,1,00800,1,03,1,08,1",,"01,9",,,,"99999,9,10119,1","3,1,007,1,-014,1",,,"SYN118AAXX  03031 76458 32560 62102 10301 20244 30119 40124 53007 81138 90245 333 0/699 30/// 57869 59014 81824 81362 84268;","Q01  00002PRCP06"
"76458099999","2004-07-03T06:00:00","4","23.2","-106.4166666","4.0","COLONIA JUAN CARRASCO MAZATLAN SIN., MX","FM-12","99999","V020","240,1,N,0020,1","03600,1,9,N","008000,1,N,1","+0296,1","+0245,1","10134,1","06,0000,9,1",,,,"0,1,06,1","0,1,06,1","01,1,+00900,9,09,9",,,"06,99,1,02,1,09,1,01250,1,03,1,01,1","0684,9","01,9",,"240,M,+0342,1","240,N,+0243,1","99999,9,10129,1","2,1,010,1,+999,9","13,1",,"SYN142AAXX  03061 76458 31658 62402 10296 20245 30129 40134 52010 71300 82931 90540 333 0/199 10342 20243 30/// 55114 21694 57910 58/// 81930 81621;","Q01  00002PRCP06"
"76458099999","2004-07-03T09:00:00","4","23.2","-106.4166666","4.0","COLONIA JUAN CARRASCO MAZATLAN SIN., MX","FM-12","99999","V020","060,1,N,0010,1","00210,1,C,N","008000,1,N,1","+0282,1","+0261,1","10134,1","02,0010,9,1",,,,"6,1,03,1","9,1,03,1","04,1,+00900,9,09,9",,,"08,99,1,08,1,09,1,00250,1,99,9,99,9",,"09,9",,,,"99999,9,10130,1","0,1,001,1,+999,9","20,1",,"SYN124AAXX  03091 76458 11358 80601 10282 20261 30130 40134 50001 60016 72069 889// 90840 333 0/8// 31/// 57910 58/// 84930 84609;",
"76458099999","2004-07-03T15:00:00","4","23.2","-106.4166666","4.0","COLONIA JUAN CARRASCO MAZATLAN SIN., MX","FM-12","99999","V020","110,1,N,0030,1","03600,1,C,N","013000,1,N,1","+0275,1","+0246,1","10135,1","06,0000,2,1",,,,,,"01,1,+00360,9,09,9","02,1,+02400,9,03,9",,"06,99,1,01,1,09,1,00450,1,03,1,08,1",,"01,9",,,,"99999,9,10129,1","3,1,007,1,+001,1",,,"SYN118AAXX  03151 76458 32463 61103 10275 20246 30129 40135 53007 81938 91448 333 0/500 30/// 57952 58001 81912 82358 83270;",
"76458099999","2004-07-03T18:00:00","4","23.2","-106.4166666","4.0","COLONIA JUAN CARRASCO MAZATLAN SIN., MX","FM-12","99999","V020","180,1,N,0030,1","22000,1,9,N","020000,1,N,1","+0320,1","+0233,1","10131,1","06,0000,9,1",,,,,,"01,1,+00900,9,08,9",,,"04,99,1,01,1,02,1,01250,1,00,1,00,1",,"01,9",,"120,M,+0330,1","240,N,+0249,1","99999,9,10127,1","8,1,002,1,+001,1",,,"SYN124AAXX  03181 76458 32670 41803 10320 20233 30127 40131 58002 81200 91748 333 0/3/0 10330 20249 30/// 57815 58001 81830 83070;","Q01  00002PRCP06"
"76458099999","2004-07-03T21:00:00","4","23.2","-106.4166666","4.0","COLONIA JUAN CARRASCO MAZATLAN SIN., MX","FM-12","99999","V020","200,1,N,0040,1","22000,1,C,N","020000,1,N,1","+0324,1","+0245,1","10121,1","06,0000,9,1",,,,,,"01,1,+00990,9,08,9",,,"05,99,1,01,1,02,1,00800,1,00,1,06,1",,"01,9",,,,"99999,9,10117,1","7,1,010,1,-006,1",,,"SYN112AAXX  03211 76458 32570 52004 10324 20245 30117 40121 57010 81206 92050 333 04109 30/// 57814 59006 81833 84079;","Q01  00002PRCP06"
"76458099999","2004-07-04T00:00:00","4","23.2","-106.4166666","4.0","COLONIA JUAN CARRASCO MAZATLAN SIN., MX","FM-12","99999","V020","260,1,N,0030,1","09000,1,9,N","020000,1,N,1","+0316,1","+0208,1","10106,1","06,0000,9,1","24,0035,9,1",,,,,"01,1,+01350,9,08,9",,,"06,99,1,01,1,01,1,01750,1,00,1,08,1",,"01,9",,"120,M,+0339,1","180,N,+0249,1","99999,9,10101,1","7,1,016,1,-011,1",,,"SYN136AAXX  04001 76458 32770 62603 10316 20208 30101 40106 57016 81108 92345 333 0/6/9 10339 20249 30/// 50641 57819 59011 70035 81845 85268;","Q01  00002PRCP06"
"76458099999","2004-07-04T03:00:00","4","23.2","-106.4166666","4.0","COLONIA JUAN CARRASCO MAZATLAN SIN., MX","FM-12","99999","V020","240,1,N,0020,1","03600,1,C,N","010000,1,N,1","+0302,1","+0214,1","10119,1","06,0000,9,1",,,,,,"01,1,+01110,9,06,9","01,1,+03600,9,03,9",,"07,99,1,01,1,04,1,01250,1,03,1,08,1",,"01,9",,,,"99999,9,10114,1","2,1,013,1,-005,1",,,"SYN118AAXX  04031 76458 32660 72402 10302 20214 30114 40119 52013 81438 90245 333 0/499 30/// 57649 59005 81637 81362 85268;","Q01  00002PRCP06"
"76458099999","2004-07-04T06:00:00","4","23.2","-106.4166666","4.0","COLONIA JUAN CARRASCO MAZATLAN SIN., MX","FM-12","99999","V020","270,1,N,0020,1","03600,1,C,N","008000,1,N,1","+0296,1","+0224,1","10136,1","06,0000,9,1",,,,"0,1,06,1","0,1,06,1","01,1,+00600,9,06,9","01,1,+00900,9,09,9",,"06,99,1,02,1,09,1,00800,1,03,1,99,9","0666,9","01,9",,"240,M,+0339,1","240,N,+0249,1","99999,9,10132,1","2,1,018,1,+003,1","13,1",,"SYN148AAXX  04061 76458 31558 62702 10296 20224 30132 40136 52018 71300 8293/ 90540 333 0/19/ 10339 20249 30/// 55111 21810 57910 58003 81930 81620 84356;","Q01  00002PRCP06"
"76458099999","2004-07-04T09:00:00","4","23.2","-106.4166666","4.0","COLONIA JUAN CARRASCO MAZATLAN SIN., MX","FM-12","99999","V020","030,1,N,0010,1","02400,1,9,N","008000,1,N,1","+0292,1","+0220,1","10131,1","06,0000,9,1",,,,,,"02,1,+00900,9,06,9","03,1,+02400,9,04,9",,"07,99,1,02,1,05,1,00800,1,02,1,06,1",,"01,9",,,,"99999,9,10127,1","8,1,005,1,-003,1",,,"SYN118AAXX  04091 76458 32558 70301 10292 20220 30127 40131 58005 82526 90840 333 00199 30/// 57610 59003 82630 83458 82070;","Q01  00002PRCP06"
"76458099999","2004-07-04T15:00:00","4","23.2","-106.4166666","4.0","COLONIA JUAN CARRASCO MAZATLAN SIN., MX","FM-12","99999","V020","090,1,N,0020,1","99999,9,9,N","020000,1,N,1","+0289,1","+0224,1","10123,1","06,0000,9,1",,,,,,"04,1,+02700,9,03,9",,,"07,99,1,04,1,00,1,99999,9,03,1,06,1",,"01,9",,,,"99999,9,10124,1","0,1,000,1,-004,1",,,"SYN106AAXX  04151 76458 32970 70902 10289 20224 30124 40123 50000 84036 91458 333 0/099 30/// 59004 84359 83079;","Q01  00002PRCP06"
"76458099999","2004-07-04T18:00:00","4","23.2","-106.4166666","4.0","COLONIA JUAN CARRASCO MAZATLAN SIN., MX","FM-12","99999","V020","240,1,N,0020,1","22000,1,C,N","020000,1,N,1","+0313,1","+0191,1","10122,1","06,0000,9,1",,,,,,"01,1,+03600,9,03,9",,,"05,99,1,01,1,00,1,02250,1,03,1,01,1",,"01,9",,"120,M,+0328,1","240,N,+0256,1","99999,9,10117,1","7,1,007,1,-005,1",,,"SYN124AAXX  04181 76458 32870 52402 10313 20191 30117 40122 57007 81031 91745 333 0//99 10328 20256 30/// 57399 59005 81362 84068;","Q01  00002PRCP06"
"76458099999","2004-07-04T21:00:00","4","23.2","-106.4166666","4.0","COLONIA JUAN CARRASCO MAZATLAN SIN., MX","FM-12","99999","V020","260,1,N,0020,1","03600,1,C,N","020000,1,N,1","+0316,1","+0225,1","10114,1","06,0000,9,1",,,,,,"01,1,+01140,9,08,9","02,1,+03600,9,03,9",,"06,99,1,01,1,01,1,01250,1,03,1,08,1",,"01,9",,,,"99999,9,10109,1","7,1,008,1,-008,1",,,"SYN118AAXX  04211 76458 32670 62602 10316 20225 30109 40114 57008 81138 92045 333 0/899 30/// 57889 59008 81838 82362 83268;","Q01  00002PRCP06"
"76458099999","2004-07-05T06:00:00","4","23.2","-106.4166666","4.0","COLONIA JUAN CARRASCO MAZATLAN SIN., MX","FM-12","99999","V020","330,1,N,0020,1","22000,1,9,N","008000,1,N,1","+0296,1","+0236,1","10130,1","06,0000,9,1",,,,,,,,,"03,99,1,00,1,99,9,99999,9,99,9,06,1","0408,9","01,9",,"240,M,+0335,1","240,N,+0256,1","99999,9,10125,1","9,9,999,9,-007,1",,,"SYN118AAXX  05061 76458 32958 33302 10296 20236 30125 40130 5//// 80//6 90540 333 10335 20256 30/// 55068 21346 59007 83070;","Q01  00002PRCP06"
"76458099999","2004-07-05T09:00:00","4","23.2","-106.4166666","4.0","COLONIA JUAN CARRASCO MAZATLAN SIN., MX","FM-12","99999","V020","300,1,N,0010,1","22000,1,9,N","008000,1,N,1","+0290,1","+0221,1","10124,1","06,0000,9,1",,,,,,"04,1,+01800,9,03,9",,,"04,99,1,04,1,99,9,02250,1,03,1,99,9",,"01,9",,,,"99999,9,10120,1","8,1,005,1,-007,1",,,"SYN094AAXX  05091 76458 32858 43001 10290 20221 30120 40124 58005 84/3/ 90840 333 30/// 59007 84356;","Q01  00002PRCP06"
"76458099999","2004-07-05T15:00:00","4","23.2","-106.4166666","4.0","COLONIA JUAN CARRASCO MAZATLAN SIN., MX","FM-12","99999","V020","100,1,N,0020,1","22000,1,9,N","015000,1,N,1","+0304,1","+0243,1","10131,1","06,0000,9,1",,,,,,"01,1,+00720,9,08,9",,,"02,99,1,01,1,01,1,00800,1,03,1,00,1",,"01,9",,,,"99999,9,10126,1","2,1,009,1,+002,1",,,"SYN106AAXX  05151 76458 32565 21002 10304 20243 30126 40131 52009 81130 91448 333 0030/ 30/// 58002 81824 81358;","Q01  00002PRCP06"
"76458099999","2004-07-05T18:00:00","4","23.2","-106.4166666","4.0","COLONIA JUAN CARRASCO MAZATLAN SIN., MX","FM-12","99999","V020","240,1,N,0040,1","22000,1,9,N","020000,1,N,1","+0321,1","+0246,1","10138,1","06,0000,9,1",,,,,,"02,1,+00750,9,08,9",,,"03,99,1,02,1,02,1,00800,1,03,1,00,1",,"01,9",,"120,M,+0342,1","240,N,+0267,1","99999,9,10124,1","0,1,008,1,+017,1",,,"SYN124AAXX  05181 76458 32570 32404 10321 20246 30124 40138 50008 82230 91755 333 04190 10342 20267 30/// 57811 58017 82825 81359;","Q01  00002PRCP06"
"76458099999","2004-07-05T21:00:00","4","23.2","-106.4166666","4.0","COLONIA JUAN CARRASCO MAZATLAN SIN., MX","FM-12","99999","V020","240,1,N,0040,1","22000,1,9,N","020000,1,N,1","+0337,1","+0252,1","10129,1","06,0000,9,1",,,,,,"01,1,+01080,9,09,9","01,1,+02400,9,03,9",,"03,99,1,01,1,09,1,01250,1,03,1,03,1",,"01,9",,,,"99999,9,10124,1","7,1,009,1,+015,1",,,"SYN118AAXX  05211 76458 32670 32404 10337 20252 30124 40129 57009 81933 92050 333 07199 30/// 57913 58015 81936 81358 81079;","Q01  00002PRCP06"
"76458099999","2004-07-06T00:00:00","4","23.2","-106.4166666","4.0","COLONIA JUAN CARRASCO MAZATLAN SIN., MX","FM-12","99999","V020","270,1,N,0060,1","02400,1,9,N","020000,1,N,1","+0314,1","+0247,1","10112,1","06,0000,9,1","24,0000,9,1",,,,,"06,1,+02400,9,04,9",,,"07,99,1,06,1,99,9,02250,1,02,1,01,1",,"01,9",,"120,M,+0345,1","180,N,+0267,1","99999,9,10108,1","7,1,016,1,+999,9",,,"SYN118AAXX  06001 76458 32870 72706 10314 20247 30108 40112 57016 86/21 92340 333 10345 20267 30/// 58/// 70000 86458 81070;","Q01  00002PRCP06"
"76458099999","2004-07-06T03:00:00","4","23.2","-106.4166666","4.0","COLONIA JUAN CARRASCO MAZATLAN SIN., MX","FM-12","99999","V020","300,1,N,0050,1","99999,9,9,N","008000,1,N,1","+0304,1","+0245,1","10124,1","06,0000,9,1",,,,,,"01,1,+00750,9,06,9",,,"07,99,1,01,1,05,1,00800,1,99,9,06,1",,"01,9",,,,"99999,9,10119,1","2,1,011,1,+999,9",,,"SYN112AAXX  06031 76458 32558 73005 10304 20245 30119 40124 52011 815/6 90240 333 007/9 30/// 57610 58/// 81625 86070;","Q01  00002PRCP06"
"76458099999","2004-07-06T15:00:00","4","23.2","-106.4166666","4.0","COLONIA JUAN CARRASCO MAZATLAN SIN., MX","FM-12","99999","V020","090,1,N,0030,1","03600,1,C,N","015000,1,N,1","+0300,1","+0245,1","10145,1","06,0000,9,1",,,,,,"02,1,+00690,9,09,9",,,"05,99,1,03,1,03,1,00800,1,03,1,00,1",,"01,9",,,,"99999,9,10141,1","1,1,012,1,+015,1",,,"SYN112AAXX  06151 76458 32565 50903 10300 20245 30141 40145 51012 83330 91455 333 0/60/ 30/// 57951 58015 82923 82358;","Q01  00002PRCP06"
"76458099999","2004-07-06T18:00:00","4","23.2","-106.4166666","4.0","COLONIA JUAN CARRASCO MAZATLAN SIN., MX","FM-12","99999","V020","300,1,N,0040,1","03600,1,C,N","020000,1,N,1","+0294,1","+0236,1","10153,1","06,0000,9,1",,,,,,"01,1,+00720,9,08,9",,,"06,99,1,01,1,01,1,00800,1,03,1,00,1",,"01,9",,"120,M,+0320,1","240,N,+0267,1","99999,9,10149,1","0,1,008,1,+015,1",,,"SYN124AAXX  06181 76458 32570 63004 10294 20236 30149 40153 50008 81130 91747 333 0/8// 10320 20267 30/// 57889 58015 81824 85364;","Q01  00002PRCP06"
"76458099999","2004-07-06T21:00:00","4","23.2","-106.4166666","4.0","COLONIA JUAN CARRASCO MAZATLAN SIN., MX","FM-12","99999","V020","270,1,N,0040,1","22000,1,9,N","020000,1,N,1","+0326,1","+0251,1","10137,1","06,0000,9,1",,,,,,"01,1,+00930,9,08,9",,,"03,99,1,01,1,02,1,00800,1,00,1,08,1",,"01,9",,,,"99999,9,10133,1","7,1,016,1,+009,1",,,"SYN112AAXX  06211 76458 32570 32704 10326 20251 30133 40137 57016 81208 92045 333 001/9 30/// 57815 58009 81831 82268;","Q01  00002PRCP06"
"76458099999","2004-07-07T06:00:00","4","23.2","-106.4166666","4.0","COLONIA JUAN CARRASCO MAZATLAN SIN., MX","FM-12","99999","V020","250,1,N,0020,1","00390,1,C,N","010000,1,N,1","+0279,1","+0248,1","10151,1","06,0010,9,1",,,,"5,1,06,1","6,1,06,1","07,1,+00390,9,06,9",,,"08,99,1,08,1,09,1,00450,1,00,1,00,1","0450,9","09,9",,"240,M,+0340,1","240,N,+0267,1","99999,9,10147,1","0,1,016,1,+999,9","50,1",,"SYN148AAXX  07061 76458 11460 82502 10279 20248 30147 40151 50016 60011 75056 88900 90550 333 07400 10340 20267 31/// 55075 20851 57941 58/// 87613 81934;",
"76458099999","2004-07-07T09:00:00","4","23.2","-106.4166666","4.0","COLONIA JUAN CARRASCO MAZATLAN SIN., MX","FM-12","99999","V020","060,1,N,0010,1","00150,1,9,N","008000,1,N,1","+0250,1","+0239,1","10154,1","03,0050,9,1",,,,,,"05,1,+00150,9,06,9",,,"08,99,1,99,9,99,9,00150,1,00,1,00,1",,"09,9",,,,"99999,9,10150,1","7,1,003,1,+999,9",,,"SYN118AAXX  07091 76458 21258 80601 10250 20239 30150 40154 57003 89000 90850 333 07600 31/// 57961 58/// 60057 85605 83934;",
"76458099999","2004-07-07T15:00:00","4","23.2","-106.4166666","4.0","COLONIA JUAN CARRASCO MAZATLAN SIN., MX","FM-12","99999","V020","330,1,N,0020,1","09000,1,C,N","020000,1,N,1","+0264,1","+0222,1","10150,1","06,0000,9,1",,,,,,"01,1,+00540,9,08,9","03,1,+02700,9,03,9",,"05,99,1,01,1,02,1,00450,1,03,1,01,1",,"09,9",,,,"99999,9,10146,1","0,1,004,1,+005,1",,,"SYN118AAXX  07151 76458 32470 53302 10264 20222 30146 40150 50004 81231 91445 333 04599 31/// 57856 58005 81818 83359 81079;","Q01  00002PRCP06"
"76458099999","2004-07-07T18:00:00","4","23.2","-106.4166666","4.0","COLONIA JUAN CARRASCO MAZATLAN SIN., MX","FM-12","99999","V020","210,1,N,0030,1","22000,1,9,N","020000,1,N,1","+0306,1","+0226,1","10146,1","06,0000,9,1",,,,,,"01,1,+00990,9,08,9",,,"02,99,1,01,1,01,1,00800,1,00,1,01,1",,"01,9",,"120,M,+0323,1","240,N,+0230,1","99999,9,10141,1","7,1,005,1,-008,1",,,"SYN124AAXX  07181 76458 32570 22103 10306 20226 30141 40146 57005 81101 91747 333 0/8/9 10323 20230 30/// 57889 59008 81833 81068;","Q01  00002PRCP06"
"76458099999","2004-07-07T21:00:00","4","23.2","-106.4166666","4.0","COLONIA JUAN CARRASCO MAZATLAN SIN., MX","FM-12","99999","V020","250,1,N,0030,1","22000,1,9,N","020000,1,N,1","+0312,1","+0220,1","10128,1","06,0000,9,1",,,,,,"01,1,+01140,9,09,9",,,"02,99,1,01,1,03,1,01250,1,99,9,09,1",,"01,9",,,,"99999,9,10124,1","7,1,017,1,-009,1",,,"SYN112AAXX  07211 76458 32670 22503 10312 20220 30124 40128 57017 813/9 92045 333 0/1/9 30/// 57915 59009 81938 81070;","Q01  00002PRCP06"
"76458099999","2004-07-08T00:00:00","4","23.2","-106.4166666","4.0","COLONIA JUAN CARRASCO MAZATLAN SIN., MX","FM-12","99999","V020","270,1,N,0050,1","22000,1,9,N","020000,1,N,1","+0308,1","+0243,1","10115,1","06,0000,9,1","24,0092,9,1",,,,,"01,1,+00810,9,08,9",,,"02,99,1,01,1,01,1,00800,1,99,9,06,1",,"09,9",,"120,M,+0333,1","180,N,+0230,1","99999,9,10111,1","7,1,013,1,-007,1",,,"SYN136AAXX  08001 76458 32570 22705 10308 20243 30111 40115 57013 811/6 92340 333 007/9 10333 20230 31/// 50461 57870 59007 70092 81827 81070;","Q01  00002PRCP06"
"76458099999","2004-07-08T03:00:00","4","23.2","-106.4166666","4.0","COLONIA JUAN CARRASCO MAZATLAN SIN., MX","FM-12","99999","V020","270,1,N,0030,1","22000,1,9,N","008000,1,N,1","+0296,1","+0245,1","10121,1","06,0000,9,1",,,,,,"01,1,+00630,9,08,9",,,"02,99,1,01,1,01,1,00800,1,99,9,01,1",,"01,9",,,,"99999,9,10117,1","2,1,007,1,-014,1",,,"SYN112AAXX  08031 76458 32558 22703 10296 20245 30117 40121 52007 811/1 90240 333 007/9 30/// 57810 59014 81821 81070;","Q01  00002PRCP06"
"76458099999","2004-07-08T06:00:00","4","23.2","-106.4166666","4.0","COLONIA JUAN CARRASCO MAZATLAN SIN., MX","FM-12","99999","V020","280,1,N,0020,1","22000,1,9,N","008000,1,N,1","+0292,1","+0232,1","10133,1","06,0000,9,1",,,,,,,,,"01,99,1,01,1,02,1,00800,1,00,1,00,1","0660,9","01,9",,"240,M,+0333,1","240,N,+0230,1","99999,9,10128,1","2,1,011,1,-017,1",,,"SYN124AAXX  08061 76458 32558 12802 10292 20232 30128 40133 52011 81200 90558 333 0/700 10333 20230 30/// 55110 21261 59017 81825;","Q01  00002PRCP06"
"76458099999","2004-07-08T09:00:00","4","23.2","-106.4166666","4.0","COLONIA JUAN CARRASCO MAZATLAN SIN., MX","FM-12","99999","V020","350,1,N,0020,1","22000,1,9,N","008000,1,N,1","+0280,1","+0230,1","10127,1","06,0000,9,1",,,,,,"01,1,+02400,9,03,9",,,"01,99,1,99,9,00,1,99999,9,03,1,00,1",,"01,9",,,,"99999,9,10122,1","7,1,006,1,-028,1",,,"SYN100AAXX  08091 76458 32958 13502 10280 20230 30122 40127 57006 80030 90856 333 0/090 30/// 59028 81358;","Q01+000002SCOTLCQ02  00002PRCP06"
"76458099999","2004-07-08T12:00:00","4","23.2","-106.4166666","4.0","COLONIA JUAN CARRASCO MAZATLAN SIN., MX","FM-12","99999","V020","330,1,N,0010,1","22000,1,9,N","010000,1,N,1","+0256,1","+0222,1","10116,1","06,0000,9,1","24,0006,9,1",,,,,"01,1,+03300,9,03,9",,,"01,99,1,01,1,00,1,99999,9,03,1,00,1",,"01,9","999,+0240,9","999,M,+0333,1","120,N,+0252,1","99999,9,10112,1","7,1,010,1,-030,1",,,"SYN118AAXX  08121 76458 32960 13301 10256 20222 30112 40116 57010 81030 91145 333 0/090 10333 20252 30024 59030 70006 81361;","Q01  00002PRCP06"
"76458099999","2004-07-08T15:00:00","4","23.2","-106.4166666","4.0","COLONIA JUAN CARRASCO MAZATLAN SIN., MX","FM-12","99999","V020","150,1,N,0010,1","22000,1,9,N","020000,1,N,1","+0297,1","+0226,1","10120,1","06,0000,9,1",,,,,,"01,1,+00870,9,08,9",,,"03,99,1,01,1,02,1,00800,1,03,1,00,1",,"01,9",,,,"99999,9,10115,1","2,1,004,1,-030,1",,,"SYN112AAXX  08151 76458 32570 31501 10297 20226 30115 40120 52004 81230 91455 333 04410 30/// 57846 59030 81829 82361;","Q01  00002PRCP06"
"76458099999","2004-07-08T21:00:00","4","23.2","-106.4166666","4.0","COLONIA JUAN CARRASCO MAZATLAN SIN., MX","FM-12","99999","V020","250,1,N,0030,1","22000,1,9,N","020000,1,N,1","+0321,1","+0239,1","10104,1","06,0000,9,1",,,,,,"01,1,+01020,9,08,9",,,"02,99,1,01,1,02,1,01250,1,00,1,06,1",,"01,9",,,,"99999,9,10100,1","6,1,014,1,-024,1",,,"SYN112AAXX  08211 76458 32670 22503 10321 20239 30100 40104 56014 81206 92045 333 0/8/9 30/// 57886 59024 81834 81068;","Q01  00002PRCP06"
"76458099999","2004-07-09T00:00:00","4","23.2","-106.4166666","4.0","COLONIA JUAN CARRASCO MAZATLAN SIN., MX","FM-12","99999","V020","270,1,N,0040,1","22000,1,9,N","020000,1,N,1","+0310,1","+0235,1","10088,1","06,0000,9,1","24,0000,9,1",,,,,,,,"02,99,1,01,1,09,1,01250,1,99,9,06,1",,"01,9",,"120,M,+0340,1","180,N,+0252,1","99999,9,10084,1","7,1,016,1,-027,1",,,"SYN130AAXX  09001 76458 32670 22704 10310 20235 30084 40088 57016 819/6 92340 333 0/2/9 10340 20252 30/// 50691 57923 59027 70000 81935;","Q01  00002PRCP06"
"76458099999","2004-07-09T03:00:00","4","23.2","-106.4166666","4.0","COLONIA JUAN CARRASCO MAZATLAN SIN., MX","FM-12","99999","V020","270,1,N,0020,1","22000,1,9,N","008000,1,N,1","+0302,1","+0228,1","10095,1","06,0000,9,1",,,,"0,1,03,1","0,1,03,1","01,1,+00930,9,09,9",,,"02,99,1,01,1,09,1,00800,1,99,9,01,1",,"01,9",,,,"99999,9,10091,1","3,1,007,1,-026,1","13,1",,"SYN118AAXX  09031 76458 31558 22702 10302 20228 30091 40095 53007 71300 819/1 90240 333 0/2/9 30/// 57910 59026 81931 81070;","Q01  00002PRCP06"
"76458099999","2004-07-09T06:00:00","4","23.2","-106.4166666","4.0","COLONIA JUAN CARRASCO MAZATLAN SIN., MX","FM-12","99999","V020","230,1,N,0010,1","22000,1,9,N","008000,1,N,1","+0300,1","+0232,1","10105,1","06,0000,9,1",,,,,,,,,"03,99,1,99,9,00,1,99999,9,03,1,00,1","0720,9","01,9",,"240,M,+0340,1","240,N,+0252,1","99999,9,10001,2","2,1,010,1,-027,1",,,"SYN124AAXX  09061 76458 32958 32301 10300 20232 30001 40105 52010 80030 90558 333 0/090 10340 20252 30/// 55120 21323 59027 83358;","Q01+000002SCOTLCQ02+100013APOSP Q03  00002PRCP06"
"76458099999","2004-07-09T18:00:00","4","23.2","-106.4166666","4.0","COLONIA JUAN CARRASCO MAZATLAN SIN., MX","FM-12","99999","V020","230,1,N,0030,1","22000,1,9,N","020000,1,N,1","+0326,1","+0247,1","10105,1","06,0000,9,1",,,,,,"02,1,+00990,9,08,9","01,1,+02400,9,03,9",,"04,99,1,99,9,02,1,00800,1,03,1,09,1",,"01,9",,"120,M,+0340,1","240,N,+0279,1","99999,9,10100,1","4,1,000,1,-014,1",,,"SYN130AAXX  09181 76458 32570 42303 10326 20247 30100 40105 54000 88239 91755 333 0/149 10340 20279 30/// 57816 59014 82833 81358 81070;","Q01+000082SCOTLCQ02  00002PRCP06"
"76458099999","2004-07-09T21:00:00","4","23.2","-106.4166666","4.0","COLONIA JUAN CARRASCO MAZATLAN SIN., MX","FM-12","99999","V020","250,1,N,0030,1","22000,1,9,N","020000,1,N,1","+0325,1","+0246,1","10089,1","06,0000,9,1",,,,,,"01,1,+00990,9,08,9",,,"01,99,1,01,1,02,1,00800,1,00,1,00,1",,"01,9",,,,"99999,9,10084,1","7,1,016,1,-016,1",,,"SYN106AAXX  09211 76458 32570 12503 10325 20246 30084 40089 57016 81200 92046 333 0/8// 30/// 57887 59016 81833;","Q01  00002PRCP06"
"76458099999","2004-07-10T00:00:00","4","23.2","-106.4166666","4.0","COLONIA JUAN CARRASCO MAZATLAN SIN., MX","FM-12","99999","V020","260,1,N,0030,1","22000,1,9,N","020000,1,N,1","+0327,1","+0242,1","10079,1","06,0000,9,1","24,0000,9,1",,,,,,,,"02,99,1,02,1,04,1,01250,1,00,1,00,1",,"01,9",,"120,M,+0349,1","180,N,+0279,1","99999,9,10074,1","8,1,010,1,-010,1",,,"SYN130AAXX  10001 76458 32670 22603 10327 20242 30074 40079 58010 82400 92340 333 0/1// 10349 20279 30/// 50701 57619 59010 70000 82635;","Q01  00002PRCP06"
"76458099999","2004-07-10T03:00:00","4","23.2","-106.4166666","4.0","COLONIA JUAN CARRASCO MAZATLAN SIN., MX","FM-12","99999","V020","300,1,N,0030,1","09000,1,C,N","010000,1,N,1","+0310,1","+0240,1","10093,1","06,0000,9,1",,,,,,"01,1,+03600,9,03,9",,,"07,99,1,01,1,00,1,02250,1,03,1,08,1",,"01,9",,,,"99999,9,10089,1","2,1,015,1,-002,1",,,"SYN112AAXX  10031 76458 32860 73003 10310 20240 30089 40093 52015 81038 90240 333 0//99 30/// 57399 59002 81362 86268;","Q01  00002PRCP06"
"76458099999","2004-07-10T06:00:00","4","23.2","-106.4166666","4.0","COLONIA JUAN CARRASCO MAZATLAN SIN., MX","FM-12","99999","V020","360,1,N,0020,1","99999,9,9,N","008000,1,N,1","+0304,1","+0254,1","10100,1","06,0000,9,1",,,,,,,,,"08,99,1,08,1,99,9,02250,1,02,1,99,9","0630,9","01,9",,"240,M,+0349,1","240,N,+0279,1","99999,9,10095,1","1,1,006,1,-006,1",,,"SYN118AAXX  10061 76458 32858 83602 10304 20254 30095 40100 51006 88/2/ 90540 333 10349 20279 30/// 55105 21578 59006 88458;","Q01  00002PRCP06"
"76458099999","2004-07-10T09:00:00","4","23.2","-106.4166666","4.0","COLONIA JUAN CARRASCO MAZATLAN SIN., MX","FM-12","99999","V020","330,1,N,0030,1","06000,1,9,N","008000,1,N,1","+0298,1","+9999,9","10079,1","06,0000,9,1",,,,,,"06,1,+06000,9,00,9",,,"06,99,1,00,1,99,9,99999,9,99,9,06,1",,"01,9",,,,"99999,9,10075,1","7,1,020,1,-023,1",,,"SYN094AAXX  10091 76458 32958 63303 10298 20313 30075 40079 57020 80//6 90840 333 30/// 59023 86070;","Q01  00002PRCP06"
"76458099999","2004-07-10T18:00:00","4","23.2","-106.4166666","4.0","COLONIA JUAN CARRASCO MAZATLAN SIN., MX","FM-12","99999","V020","190,1,N,0020,1","09000,1,C,N","020000,1,N,1","+0324,1","+0227,1","10107,1","06,0000,9,1",,,,,,"02,1,+01200,9,08,9","02,1,+03600,9,03,9",,"05,99,1,02,1,01,1,01750,1,03,1,06,1",,"01,9",,"120,M,+0342,1","240,N,+0279,1","99999,9,10103,1","2,1,003,1,+003,1",,,"SYN130AAXX  10181 76458 32770 51902 10324 20227 30103 40107 52003 82136 91747 333 0/199 10342 20279 30/// 57819 58003 82840 82362 81068;","Q01  00002PRCP06"
"76458099999","2004-07-10T21:00:00","4","23.2","-106.4166666","4.0","COLONIA JUAN CARRASCO MAZATLAN SIN., MX","FM-12","99999","V020","250,1,N,0030,1","22000,1,9,N","020000,1,N,1","+0330,1","+0267,1","10096,1","06,0000,9,1",,,,,,"01,1,+00780,9,08,9",,,"01,99,1,01,1,01,1,00800,1,00,1,00,1",,"01,9",,,,"99999,9,10092,1","7,1,011,1,+004,1",,,"SYN106AAXX  10211 76458 32570 12503 10330 20267 30092 40096 57011 81100 92040 333 0/1// 30/// 57819 58004 81826;","Q01  00002PRCP06"
"76458099999","2004-07-11T00:00:00","4","23.2","-106.4166666","4.0","COLONIA JUAN CARRASCO MAZATLAN SIN., MX","FM-12","99999","V020","270,1,N,0050,1","03600,1,C,N","020000,1,N,1","+0312,1","+0254,1","10083,1","06,0000,9,1","24,0000,9,1",,,,,"01,1,+00900,9,09,9",,,"06,99,1,01,1,09,1,00800,1,02,1,99,9",,"01,9",,"120,M,+0355,1","180,N,+0279,1","99999,9,10079,1","7,1,013,1,+005,1",,,"SYN136AAXX  11001 76458 32570 62705 10312 20254 30079 40083 57013 8192/ 92340 333 0/19/ 10355 20279 30/// 50701 57914 58005 70000 81930 85458;","Q01  00002PRCP06"
"76458099999","2004-07-11T03:00:00","4","23.2","-106.4166666","4.0","COLONIA JUAN CARRASCO MAZATLAN SIN., MX","FM-12","99999","V020","270,1,N,0040,1","00900,1,9,N","008000,1,N,1","+0304,1","+0262,1","10092,1","02,0000,2,1",,,,"9,1,03,1","9,1,03,1","03,1,+00540,9,06,9","02,1,+00900,9,09,9",,"08,99,1,05,1,09,1,00450,1,02,1,99,9",,"01,9",,,,"99999,9,10088,1","0,1,009,1,-001,1","20,1",,"SYN130AAXX  11031 76458 11458 82704 10304 20262 30088 40092 50009 69906 72099 8592/ 90240 333 0/19/ 30/// 57910 59001 82930 83618 83458;",
"76458099999","2004-07-11T06:00:00","4","23.2","-106.4166666","4.0","COLONIA JUAN CARRASCO MAZATLAN SIN., MX","FM-12","99999","V020","340,1,N,0020,1","22000,1,9,N","010000,1,N,1","+0286,1","+0225,1","10102,1","06,0000,2,1",,,,,,"00,1,+99999,9,99,9",,,"00,99,1,00,1,00,1,99999,9,00,1,00,1","0558,9","01,9",,"240,M,+0355,1","240,N,+0279,1","99999,9,10098,1","2,1,010,1,+999,9",,,"SYN106AAXX  11061 76458 32960 03402 10286 20225 30098 40102 52010 90550 333 10355 20279 30/// 55093 20867 58003;",
"76458099999","2004-07-11T09:00:00","4","23.2","-106.4166666","4.0","COLONIA JUAN CARRASCO MAZATLAN SIN., MX","FM-12","99999","V020","100,1,N,0020,1","00600,1,9,N","010000,1,N,1","+0281,1","+0233,1","10101,1","06,0000,2,1",,,,,,"08,1,+00600,9,08,9",,,"08,99,1,08,1,07,1,00450,1,00,1,00,1",,"01,9",,,,"99999,9,10097,1","8,1,001,1,+012,1",,,"SYN100AAXX  11091 76458 32460 81002 10281 20233 30097 40101 58001 88700 90850 333 0/900 30/// 58012 88820;",
"76458099999","2004-07-11T12:00:00","4","23.2","-106.4166666","4.0","COLONIA JUAN CARRASCO MAZATLAN SIN., MX","FM-12","99999","V020","270,1,N,0040,1","00210,1,C,N","010000,1,N,1","+0268,1","+0245,1","10103,1","06,0000,9,1","24,0041,9,1",,,,,"04,1,+00300,9,08,9",,,"08,99,1,08,1,09,1,00250,1,00,1,00,1",,"11,9","999,+0250,9","999,M,+0355,1","120,N,+0260,1","99999,9,10099,1","3,1,002,1,+015,1",,,"SYN130AAXX  11121 76458 32360 82704 10268 20245 30099 40103 53002 88900 91150 333 07100 10355 20260 32025 57931 58015 70041 84810 84934;","Q01  00002PRCP06"
"76458099999","2004-07-11T15:00:00","4","23.2","-106.4166666","4.0","COLONIA JUAN CARRASCO MAZATLAN SIN., MX","FM-12","99999","V020","120,1,N,0020,1","22000,1,9,N","020000,1,N,1","+0290,1","+0230,1","10108,1","03,0080,9,1",,,,"6,1,03,1","6,1,03,1","01,1,+00750,9,08,9","01,1,+02400,9,03,9",,"04,99,1,01,1,02,1,00800,1,05,1,02,1",,"11,9",,,,"99999,9,10104,1","2,1,005,1,+004,1","01,1",,"SYN130AAXX  11151 76458 21570 41202 10290 20230 30104 40108 52005 70166 81252 91450 333 04449 32/// 57844 58004 60087 81825 81358 81079;",
"76458099999","2004-07-11T18:00:00","4","23.2","-106.4166666","4.0","COLONIA JUAN CARRASCO MAZATLAN SIN., MX","FM-12","99999","V020","200,1,N,0020,1","22000,1,9,N","016000,1,N,1","+0321,1","+0241,1","10101,1","06,0000,9,1",,,,,,"01,1,+00990,9,08,9",,,"01,99,1,01,1,02,1,00800,1,00,1,00,1",,"01,9",,"120,M,+0342,1","240,N,+0238,1","99999,9,10096,1","8,1,008,1,-007,1",,,"SYN118AAXX  11181 76458 32566 12002 10321 20241 30096 40101 58008 81200 91747 333 0/1// 10342 20238 30/// 57816 59007 81833;","Q01  00002PRCP06"
"76458099999","2004-07-11T21:00:00","4","23.2","-106.4166666","4.0","COLONIA JUAN CARRASCO MAZATLAN SIN., MX","FM-12","99999","V020","240,1,N,0040,1","22000,1,9,N","018000,1,N,1","+0322,1","+0240,1","10087,1","06,0000,9,1",,,,,,"01,1,+01020,9,09,9",,,"01,99,1,01,1,03,1,01250,1,00,1,00,1",,"01,9",,,,"99999,9,10082,1","7,1,014,1,-010,1",,,"SYN106AAXX  11211 76458 32668 12404 10322 20240 30082 40087 57014 81300 92045 333 0/1// 30/// 57915 59010 81934;","Q01  00002PRCP06"
"76458099999","2004-07-12T00:00:00","4","23.2","-106.4166666","4.0","COLONIA JUAN CARRASCO MAZATLAN SIN., MX","FM-12","99999","V020","280,1,N,0030,1","22000,1,9,N","018000,1,N,1","+0322,1","+0256,1","10070,1","06,0000,9,1",,,,,,"01,1,+01020,9,09,9",,,"01,99,1,01,1,03,1,00800,1,00,1,00,1",,"01,9",,"120,M,+0348,1","180,N,+0238,1","99999,9,10066,1","7,1,016,1,-023,1",,,"SYN118AAXX  12001 76458 32568 12803 10322 20256 30066 40070 57016 81300 92358 333 0/100 10348 20238 30/// 5271/ 59023 81934;","Q01  00002PRCP06"
"76458099999","2004-07-12T03:00:00","4","23.2","-106.4166666","4.0","COLONIA JUAN CARRASCO MAZATLAN SIN., MX","FM-12","99999","V020","290,1,N,0030,1","22000,1,9,N","010000,1,N,1","+0306,1","+0246,1","10078,1","06,0000,9,1",,,,,,"01,1,+02400,9,03,9",,,"01,99,1,99,9,00,1,99999,9,03,1,00,1",,"01,9",,,,"99999,9,10073,1","2,1,002,1,-015,1",,,"SYN100AAXX  12031 76458 32960 12903 10306 20246 30073 40078 52002 80030 90242 333 0/090 30/// 59015 81358;","Q01+000002SCOTLCQ02  00002PRCP06"
"76458099999","2004-07-12T09:00:00","4","23.2","-106.4166666","4.0","COLONIA JUAN CARRASCO MAZATLAN SIN., MX","FM-12","99999","V020","030,1,N,0010,1","22000,1,9,N","008000,1,N,1","+0292,1","+0255,1","10094,1","02,0000,9,1",,,,"5,1,03,1","5,1,03,1","01,1,+00750,9,09,9",,,"02,99,1,02,1,09,1,00450,1,99,9,99,9",,"01,9",,,,"99999,9,10089,1","6,1,005,1,-008,1","13,1",,"SYN124AAXX  12091 76458 11458 20301 10292 20255 30089 40094 56005 69926 71355 829// 90840 333 0/3// 30/// 57910 59008 81925 81616;","Q01  00002PRCP02"
"76458099999","2004-07-12T15:00:00","4","23.2","-106.4166666","4.0","COLONIA JUAN CARRASCO MAZATLAN SIN., MX","FM-12","99999","V020","100,1,N,0020,1","03600,1,C,N","018000,1,N,1","+0265,1","+0225,1","10123,1","06,0000,9,1",,,,,,"01,1,+00480,9,08,9","03,1,+02400,9,03,9",,"07,99,1,01,1,02,1,00450,1,06,1,08,1",,"01,9",,,,"99999,9,10118,1","1,1,010,1,+014,1",,,"SYN118AAXX  12151 76458 32468 71002 10265 20225 30118 40123 51010 81268 91448 333 0/300 30/// 57848 58014 81816 83358 83270;","Q01  00002PRCP06"
"76458099999","2004-07-12T18:00:00","4","23.2","-106.4166666","4.0","COLONIA JUAN CARRASCO MAZATLAN SIN., MX","FM-12","99999","V020","090,1,N,0020,1","03600,1,C,N","020000,1,N,1","+0287,1","+0225,1","10119,1","06,9999,9,9",,,,,,"01,1,+00750,9,08,9","03,1,+02400,9,03,9",,"07,99,1,01,1,02,1,00800,1,04,1,09,1",,"01,9",,"120,M,+0307,1","240,N,+0238,1","99999,9,10114,1","6,1,004,1,+018,1",,,"SYN136AAXX  12181 76458 12570 70902 10287 20225 30114 40119 56004 69901 81249 91745 333 0/149 10307 20238 30/// 57816 58018 81825 83358 83270;",
"76458099999","2004-07-12T21:00:00","4","23.2","-106.4166666","4.0","COLONIA JUAN CARRASCO MAZATLAN SIN., MX","FM-12","99999","V020","250,1,N,0020,1","03600,1,C,N","020000,1,N,1","+0296,1","+0230,1","10096,1","06,0000,9,1",,,,,,"01,1,+00810,9,08,9",,,"07,99,1,01,1,02,1,00800,1,03,1,09,1",,"01,9",,,,"99999,9,10091,1","7,1,023,1,+009,1",,,"SYN112AAXX  12211 76458 32570 72502 10296 20230 30091 40096 57023 81239 92045 333 0/189 30/// 57817 58009 81827 84356;","Q01  00002PRCP06"
"76458099999","2004-07-13T00:00:00","4","23.2","-106.4166666","4.0","COLONIA JUAN CARRASCO MAZATLAN SIN., MX","FM-12","99999","V020","210,1,N,0040,1","03600,1,C,N","020000,1,N,1","+0294,1","+0237,1","10103,1","06,0000,9,1","24,0090,9,1",,,,,"01,1,+00720,9,08,9",,,"07,99,1,01,1,02,1,00800,1,03,1,99,9",,"09,9",,"120,M,+0315,1","180,N,+0238,1","99999,9,10099,1","2,1,008,1,+033,1",,,"SYN130AAXX  13001 76458 32570 72104 10294 20237 30099 40103 52008 8123/ 92340 333 0189/ 10315 20238 31/// 57817 58033 70090 81824 86356;","Q01  00002PRCP06"
"76458099999","2004-07-13T03:00:00","4","23.2","-106.4166666","4.0","COLONIA JUAN CARRASCO MAZATLAN SIN., MX","FM-12","99999","V020","999,9,C,0000,1","01800,1,9,N","008000,1,N,1","+0290,1","+0241,1","10112,1","06,0000,9,1",,,,,,"06,1,+01800,9,03,9",,,"07,99,1,06,1,99,9,02250,1,07,1,01,1",,"09,9",,,,"99999,9,10107,1","2,1,008,1,+034,1",,,"SYN100AAXX  13031 76458 32858 70000 10290 20241 30107 40112 52008 86/71 90235 333 31/// 58034 86356 81070;","Q01  00002PRCP06"
"76458099999","2004-07-13T09:00:00","4","23.2","-106.4166666","4.0","COLONIA JUAN CARRASCO MAZATLAN SIN., MX","FM-12","99999","V020","360,1,N,0020,1","03600,1,C,N","008000,1,N,1","+0274,1","+0236,1","10117,1","06,0000,9,1",,,,,,"02,1,+00570,9,06,9",,,"08,99,1,02,1,04,1,00450,1,05,1,00,1",,"01,9",,,,"99999,9,10112,1","7,1,014,1,+023,1",,,"SYN106AAXX  13091 76458 32458 83602 10274 20236 30112 40117 57014 82450 90855 333 0/990 30/// 58023 82619 86358;","Q01  00002PRCP06"
"76458099999","2004-07-13T15:00:00","4","23.2","-106.4166666","4.0","COLONIA JUAN CARRASCO MAZATLAN SIN., MX","FM-12","99999","V020","090,1,N,0010,1","02400,1,9,N","016000,1,N,1","+0294,1","+0231,1","10119,1","06,0000,9,1",,,,,,"06,1,+02400,9,03,9",,,"07,99,1,06,1,00,1,99999,9,03,1,03,1",,"01,9",,,,"99999,9,10115,1","3,1,008,1,-003,1",,,"SYN106AAXX  13151 76458 32966 70901 10294 20231 30115 40119 53008 86033 91448 333 0//00 30/// 59003 86358 81070;","Q01  00002PRCP06"
"76458099999","2004-07-13T21:00:00","4","23.2","-106.4166666","4.0","COLONIA JUAN CARRASCO MAZATLAN SIN., MX","FM-12","99999","V020","190,1,N,0030,1","09000,1,C,N","020000,1,N,1","+0318,1","+0231,1","10124,1","06,0000,9,1",,,,,,"01,1,+01080,9,08,9","03,1,+02400,9,03,9",,"05,99,1,01,1,03,1,01250,1,04,1,03,1",,"01,9",,,,"99999,9,10120,1","2,1,001,1,+029,1",,,"SYN118AAXX  13211 76458 32670 51903 10318 20231 30120 40124 52001 81343 92045 333 0/100 30/// 57816 58029 81836 83358 81270;","Q01  00002PRCP06"
"76458099999","2004-07-14T00:00:00","4","23.2","-106.4166666","4.0","COLONIA JUAN CARRASCO MAZATLAN SIN., MX","FM-12","99999","V020","220,1,N,0030,1","09000,1,9,N","020000,1,N,1","+0314,1","+0246,1","10121,1","06,0000,9,1","24,0000,9,1",,,,,"01,1,+00840,9,09,9","01,1,+03600,9,03,9",,"05,99,1,01,1,03,1,00800,1,03,1,08,1",,"01,9",,"120,M,+0341,1","180,N,+0264,1","99999,9,10117,1","5,1,003,1,+018,1",,,"SYN142AAXX  14001 76458 32570 52203 10314 20246 30117 40121 55003 81338 92347 333 00199 10341 20264 30/// 50491 57915 58018 70000 81928 81362 83268;","Q01  00002PRCP06"
"76458099999","2004-07-14T03:00:00","4","23.2","-106.4166666","4.0","COLONIA JUAN CARRASCO MAZATLAN SIN., MX","FM-12","99999","V020","260,1,N,0020,1","09000,1,C,N","010000,1,N,1","+0303,1","+0238,1","10139,1","06,0000,9,1",,,,,,"02,1,+00810,9,08,9",,,"08,99,1,02,1,01,1,00800,1,00,1,08,1",,"01,9",,,,"99999,9,10135,1","2,1,018,1,+028,1",,,"SYN112AAXX  14031 76458 32560 82602 10303 20238 30135 40139 52018 82108 90248 333 0/6/9 30/// 57869 58028 82827 86268;","Q01  00002PRCP06"
"76458099999","2004-07-14T06:00:00","4","23.2","-106.4166666","4.0","COLONIA JUAN CARRASCO MAZATLAN SIN., MX","FM-12","99999","V020","360,1,N,0030,1","00750,1,9,N","008000,1,N,1","+0294,1","+0237,1","10158,1","06,0000,9,1",,,,,,,,,"06,99,1,06,1,06,1,00800,1,00,1,00,1","0324,9","01,9",,"240,M,+0341,1","240,N,+0264,1","99999,9,10153,1","2,1,018,1,+027,1",,,"SYN124AAXX  14061 76458 32558 63603 10294 20237 30153 40158 52018 86600 90555 333 0/600 10341 20264 30/// 55054 21153 58027 86623;","Q01  00002PRCP06"
"76458099999","2004-07-14T12:00:00","4","23.2","-106.4166666","4.0","COLONIA JUAN CARRASCO MAZATLAN SIN., MX","FM-12","99999","V020","360,1,N,0020,1","22000,1,9,N","010000,1,N,1","+0268,1","+0226,1","10139,1","06,0000,9,1","24,0000,9,1",,,,,"02,1,+02400,9,03,9",,,"02,99,1,02,1,99,9,99999,9,03,1,00,1",,"01,9",,"999,M,+0308,1","120,N,+0267,1","99999,9,10134,1","5,1,007,1,+027,1",,,"SYN118AAXX  14121 76458 32960 23602 10268 20226 30134 40139 55007 82/30 91200 333 0//3/ 10308 20267 30256 58027 70000 82358;","Q01  00002PRCP06"
"76458099999","2004-07-14T18:00:00","4","23.2","-106.4166666","4.0","COLONIA JUAN CARRASCO MAZATLAN SIN., MX","FM-12","99999","V020","280,1,N,0030,1","03600,1,9,N","018000,1,N,1","+0308,1","+0234,1","10153,1","06,0000,9,1",,,,,,"01,1,+00810,9,08,9",,,"08,99,1,01,1,01,1,00800,1,03,1,00,1",,"01,9",,"120,M,+0321,1","240,N,+0266,1","99999,9,10149,1","0,1,003,1,+030,1",,,"SYN124AAXX  14181 76458 32568 82803 10308 20234 30149 40153 50003 81130 91748 333 0/69/ 10321 20266 30/// 57869 58030 81827 87362;","Q01  00002PRCP06"
"76458099999","2004-07-14T21:00:00","4","23.2","-106.4166666","4.0","COLONIA JUAN CARRASCO MAZATLAN SIN., MX","FM-12","99999","V020","270,1,N,0040,1","03600,1,C,N","018000,1,N,1","+0316,1","+0255,1","10139,1","06,0000,9,1",,,,,,"01,1,+00750,9,08,9","03,1,+03600,9,03,9",,"08,99,1,01,1,01,1,00800,1,03,1,08,1",,"01,9",,,,"99999,9,10135,1","7,1,014,1,+015,1",,,"SYN118AAXX  14211 76458 32568 82704 10316 20255 30135 40139 57014 81138 92045 333 0/699 30/// 57869 58015 81825 83362 84268;","Q01  00002PRCP06"
"76458099999","2004-07-15T03:00:00","4","23.2","-106.4166666","4.0","COLONIA JUAN CARRASCO MAZATLAN SIN., MX","FM-12","99999","V020","290,1,N,0050,1","02400,1,9,N","008000,1,N,1","+0302,1","+0243,1","10125,1","06,0000,9,1",,,,,,"08,1,+02400,9,04,9",,,"08,99,1,08,1,99,9,02250,1,02,1,99,9",,"01,9",,,,"99999,9,10120,1","3,1,009,1,-015,1",,,"SYN094AAXX  15031 76458 32858 82905 10302 20243 30120 40125 53009 88/2/ 90240 333 30/// 59015 88458;","Q01  00002PRCP06"
"76458099999","2004-07-15T06:00:00","4","23.2","-106.4166666","4.0","COLONIA JUAN CARRASCO MAZATLAN SIN., MX","FM-12","99999","V020","330,1,N,0020,1","99999,9,9,N","008000,1,N,1","+0294,1","+0237,1","10133,1","06,0000,9,1",,,,,,,,,"08,99,1,99,9,00,1,99999,9,02,1,00,1",,"01,9",,"240,M,+0325,1","240,N,+0266,1","99999,9,10128,1","2,1,008,1,-025,1",,,"SYN124AAXX  15061 76458 32958 83302 10294 20237 30128 40133 52008 80020 90555 333 0/090 10325 20266 30/// 55/// 26035 59025 88458;","Q01+000002SCOTLCQ02  00002PRCP06"
"76458099999","2004-07-15T15:00:00","4","23.2","-106.4166666","4.0","COLONIA JUAN CARRASCO MAZATLAN SIN., MX","FM-12","99999","V020","140,1,N,0040,1","22000,1,C,N","015000,1,N,1","+0296,1","+0229,1","10125,1","06,0000,9,1",,,,,,"01,1,+00810,9,08,9","02,1,+02400,9,03,9",,"05,99,1,01,1,03,1,00800,1,06,1,09,1",,"01,9",,,,"99999,9,10120,1","3,1,007,1,-026,1",,,"SYN118AAXX  15151 76458 32565 51404 10296 20229 30120 40125 53007 81369 91445 333 0/400 30/// 57847 59026 81827 82358 82270;","Q01  00002PRCP06"
"76458099999","2004-07-15T18:00:00","4","23.2","-106.4166666","4.0","COLONIA JUAN CARRASCO MAZATLAN SIN., MX","FM-12","99999","V020","230,1,N,0040,1","03600,1,9,N","020000,1,N,1","+0316,1","+0225,1","10131,1","06,0000,9,1",,,,,,"01,1,+01140,9,08,9","04,1,+03600,9,03,9",,"07,99,1,01,1,01,1,01250,1,03,1,08,1",,"01,9",,"120,M,+0335,1","240,N,+0278,1","99999,9,10126,1","2,1,006,1,-023,1",,,"SYN130AAXX  15181 76458 32670 72304 10316 20225 30126 40131 52006 81138 91750 333 0/899 10335 20278 30/// 57889 59023 81838 84362 82268;","Q01  00002PRCP06"
"76458099999","2004-07-15T21:00:00","4","23.2","-106.4166666","4.0","COLONIA JUAN CARRASCO MAZATLAN SIN., MX","FM-12","99999","V020","270,1,N,0040,1","22000,1,C,N","020000,1,N,1","+0326,1","+0237,1","10111,1","06,0000,9,1",,,,,,"01,1,+01110,9,08,9",,,"05,99,1,01,1,02,1,01250,1,00,1,08,1",,"01,9",,,,"99999,9,10107,1","7,1,019,1,-028,1",,,"SYN112AAXX  15211 76458 32670 52704 10326 20237 30107 40111 57019 81208 92045 333 0/1/9 30/// 57815 59028 81837 84268;","Q01  00002PRCP06"
"76458099999","2004-07-16T03:00:00","4","23.2","-106.4166666","4.0","COLONIA JUAN CARRASCO MAZATLAN SIN., MX","FM-12","99999","V020","300,1,N,0070,1","22000,1,9,N","008000,1,N,1","+0308,1","+0249,1","10081,1","06,0000,9,1",,,,,,"01,1,+01800,9,03,9",,,"02,99,1,01,1,99,9,02250,1,03,1,06,1",,"01,9",,,,"99999,9,10076,1","8,1,007,1,-044,1",,,"SYN100AAXX  16031 76458 32858 23007 10308 20249 30076 40081 58007 81/36 90240 333 30/// 59044 81356 81070;","Q01  00002PRCP06"
"76458099999","2004-07-16T21:00:00","4","23.2","-106.4166666","4.0","COLONIA JUAN CARRASCO MAZATLAN SIN., MX","FM-12","99999","V020","300,1,N,0030,1","03600,1,C,N","020000,1,N,1","+0307,1","+0242,1","10121,1","06,0000,9,1",,,,,,"01,1,+00810,9,08,9","01,1,+03600,9,03,9",,"07,99,1,01,1,01,1,00800,1,03,1,08,1",,"01,9",,,,"99999,9,10116,1","7,1,012,1,+009,1",,,"SYN118AAXX  16211 76458 32570 73003 10307 20242 30116 40121 57012 81138 92050 333 0/199 30/// 57819 58009 81827 81362 85268;","Q01  00002PRCP06"
"76458099999","2004-07-17T00:00:00","4","23.2","-106.4166666","4.0","COLONIA JUAN CARRASCO MAZATLAN SIN., MX","FM-12","99999","V020","270,1,N,0050,1","09000,1,9,N","020000,1,N,1","+0314,1","+0244,1","10096,1","06,0000,9,1","24,0005,9,1",,,,,"01,1,+00870,9,08,9","02,1,+01800,9,03,9",,"05,99,1,01,1,02,1,00800,1,03,1,06,1",,"01,9",,"120,M,+0332,1","180,N,+0280,1","99999,9,10092,1","7,1,024,1,+009,1",,,"SYN142AAXX  17001 76458 32570 52705 10314 20244 30092 40096 57024 81236 92340 333 01199 10332 20280 30/// 50651 57817 58009 70005 81829 82356 82070;","Q01  00002PRCP06"
"76458099999","2004-07-17T03:00:00","4","23.2","-106.4166666","4.0","COLONIA JUAN CARRASCO MAZATLAN SIN., MX","FM-12","99999","V020","220,1,N,0040,1","22000,1,9,N","008000,1,N,1","+0290,1","+0250,1","10106,1","06,0000,9,1",,,,,,"02,1,+00510,9,06,9",,,"04,99,1,02,1,05,1,00450,1,03,1,99,9",,"01,9",,,,"99999,9,10102,1","3,1,010,1,+026,1",,,"SYN112AAXX  17031 76458 32458 42204 10290 20250 30102 40106 53010 8253/ 90240 333 0076/ 30/// 57670 58026 82617 82356;","Q01  00002PRCP06"
"76458099999","2004-07-17T06:00:00","4","23.2","-106.4166666","4.0","COLONIA JUAN CARRASCO MAZATLAN SIN., MX","FM-12","99999","V020","260,1,N,0030,1","22000,1,9,N","008000,1,N,1","+0290,1","+0245,1","10119,1","06,0000,9,1",,,,,,,,,"04,99,1,04,1,05,1,00450,1,00,1,00,1","0192,9","01,9",,"240,M,+0332,1","240,N,+0280,1","99999,9,10115,1","2,1,013,1,+023,1",,,"SYN124AAXX  17061 76458 32458 42603 10290 20245 30115 40119 52013 84500 90555 333 0/700 10332 20280 30/// 55032 26345 58023 84619;","Q01  00002PRCP06"
"76458099999","2004-07-17T09:00:00","4","23.2","-106.4166666","4.0","COLONIA JUAN CARRASCO MAZATLAN SIN., MX","FM-12","99999","V020","250,1,N,0030,1","22000,1,9,N","008000,1,N,1","+0290,1","+0241,1","10115,1","06,0000,9,1",,,,,,"04,1,+00540,9,06,9",,,"04,99,1,04,1,05,1,00450,1,00,1,00,1",,"01,9",,,,"99999,9,10111,1","7,1,004,1,+015,1",,,"SYN100AAXX  17091 76458 32458 42503 10290 20241 30111 40115 57004 84500 90852 333 0/300 30/// 58015 84618;","Q01  00002PRCP06"
"76458099999","2004-07-17T15:00:00","4","23.2","-106.4166666","4.0","COLONIA JUAN CARRASCO MAZATLAN SIN., MX","FM-12","99999","V020","070,1,N,0030,1","03600,1,C,N","010000,1,N,1","+0244,1","+0233,1","10144,1","03,0080,9,1",,,,"9,1,03,1","6,1,03,1","02,1,+00180,9,06,9","02,1,+00450,9,09,9",,"08,99,1,04,1,09,1,00150,1,02,1,99,9",,"11,9",,,,"99999,9,10139,1","2,1,013,1,+027,1","29,1",,"SYN130AAXX  17151 76458 21260 80703 10244 20233 30139 40144 52013 72996 8492/ 91448 333 0/30/ 32/// 57851 58027 60087 82606 82915 84460;",
"76458099999","2004-07-17T18:00:00","4","23.2","-106.4166666","4.0","COLONIA JUAN CARRASCO MAZATLAN SIN., MX","FM-12","99999","V020","140,1,N,0020,1","03600,1,C,N","020000,1,N,1","+0271,1","+0230,1","10136,1","03,0010,9,1","06,0089,9,1",,,"5,1,06,1","6,1,06,1","01,1,+00510,9,08,9","02,1,+03600,9,03,9","02,1,+03600,9,04,9","07,99,1,01,1,01,1,00450,1,03,1,08,1",,"09,9",,"120,M,+0279,1","240,N,+0232,1","99999,9,10132,1","7,1,007,1,+004,1","02,1",,"SYN154AAXX  17181 76458 01470 71402 10271 20230 30132 40136 57007 60091 70256 81138 91748 333 0/199 10279 20232 31/// 57819 58004 60017 81817 82362 82462 82268;",
"76458099999","2004-07-18T06:00:00","4","23.2","-106.4166666","4.0","COLONIA JUAN CARRASCO MAZATLAN SIN., MX","FM-12","99999","V020","999,9,C,0000,1","00420,1,9,N","010000,1,N,1","+0280,1","+0242,1","10138,1","06,0000,9,1",,,,,,,,,"07,99,1,07,1,07,1,00450,1,00,1,00,1","0342,9","01,9",,"240,M,+0330,1","240,N,+0232,1","99999,9,10134,1","3,1,006,1,+019,1",,,"SYN124AAXX  18061 76458 32460 70000 10280 20242 30134 40138 53006 87700 90556 333 0/900 10330 20232 30/// 55057 20534 58019 87816;","Q01  00002PRCP06"
"76458099999","2004-07-18T09:00:00","4","23.2","-106.4166666","4.0","COLONIA JUAN CARRASCO MAZATLAN SIN., MX","FM-12","99999","V020","999,9,C,0000,1","00420,1,9,N","010000,1,N,1","+0277,1","+0243,1","10134,1","06,0000,9,1",,,,,,"07,1,+00420,9,08,9",,,"07,99,1,07,1,07,1,00450,1,00,1,00,1",,"01,9",,,,"99999,9,10129,1","7,1,005,1,+018,1",,,"SYN100AAXX  18091 76458 32460 70000 10277 20243 30129 40134 57005 87700 90855 333 0/900 30/// 58018 87814;","Q01  00002PRCP06"
"76458099999","2004-07-18T12:00:00","4","23.2","-106.4166666","4.0","COLONIA JUAN CARRASCO MAZATLAN SIN., MX","FM-12","99999","V020","999,9,C,0000,1","00330,1,9,N","010000,1,N,1","+0272,1","+0245,1","10133,1","06,0000,9,1","24,0092,9,1",,,,,"07,1,+00330,9,08,9",,,"07,99,1,07,1,07,1,00450,1,00,1,00,1",,"01,9","999,+0260,9","999,M,+0330,1","120,N,+0265,1","99999,9,10128,1","5,1,001,1,+002,1",,,"SYN118AAXX  18121 76458 32460 70000 10272 20245 30128 40133 55001 87700 91150 333 0/900 10330 20265 30026 58002 70092 87811;","Q01  00002PRCP06"
"76458099999","2004-07-18T15:00:00","4","23.2","-106.4166666","4.0","COLONIA JUAN CARRASCO MAZATLAN SIN., MX","FM-12","99999","V020","090,1,N,0030,1","03600,1,C,N","020000,1,N,1","+0284,1","+0232,1","10139,1","06,0000,9,1",,,,,,"01,1,+00660,9,08,9",,,"07,99,1,01,1,02,1,00800,1,05,1,00,1",,"01,9",,,,"99999,9,10135,1","0,1,006,1,-004,1",,,"SYN112AAXX  18151 76458 32570 70903 10284 20232 30135 40139 50006 81250 91450 333 04490 30/// 57845 59004 81822 86358;","Q01  00002PRCP06"
"76458099999","2004-07-18T18:00:00","4","23.2","-106.4166666","4.0","COLONIA JUAN CARRASCO MAZATLAN SIN., MX","FM-12","99999","V020","180,1,N,0040,1","22000,1,9,N","020000,1,N,1","+0308,1","+0249,1","10138,1","06,0000,9,1",,,,,,"01,1,+00750,9,08,9",,,"01,99,1,01,1,02,1,01250,1,99,9,99,9",,"01,9",,"120,M,+0330,1","240,N,+0267,1","99999,9,10134,1","4,1,000,1,+002,1",,,"SYN118AAXX  18181 76458 32670 11804 10308 20249 30134 40138 54001 812// 91740 333 011// 10330 20267 30/// 57811 58002 81825;","Q01  00002PRCP06"
"76458099999","2004-07-18T21:00:00","4","23.2","-106.4166666","4.0","COLONIA JUAN CARRASCO MAZATLAN SIN., MX","FM-12","99999","V020","210,1,N,0040,1","03600,1,C,N","020000,1,N,1","+0310,1","+0243,1","10130,1","06,0000,9,1",,,,,,"04,1,+00840,9,06,9",,,"07,99,1,04,1,05,1,00800,1,07,1,99,9",,"01,9",,,,"99999,9,10125,1","7,1,009,1,+005,1",,,"SYN112AAXX  18211 76458 32570 72104 10310 20243 30125 40130 57009 8457/ 92040 333 0/19/ 30/// 57610 58005 84628 83356;","Q01  00002PRCP06"
"76458099999","2004-07-19T00:00:00","4","23.2","-106.4166666","4.0","COLONIA JUAN CARRASCO MAZATLAN SIN., MX","FM-12","99999","V020","240,1,N,0070,1","22000,1,9,N","018000,1,N,1","+0312,1","+0247,1","10112,1","06,0000,9,1",,,,,,"04,1,+00810,9,06,9",,,"04,99,1,04,1,05,1,00800,1,00,1,00,1",,"01,9",,"120,M,+0326,1","180,N,+0259,1","99999,9,10108,1","7,1,017,1,+002,1",,,"SYN118AAXX  19001 76458 32568 42407 10312 20247 30108 40112 57017 84500 92350 333 0/100 10326 20259 30/// 54191 58002 84627;","Q01  00002PRCP06"
"76458099999","2004-07-19T03:00:00","4","23.2","-106.4166666","4.0","COLONIA JUAN CARRASCO MAZATLAN SIN., MX","FM-12","99999","V020","260,1,N,0020,1","00660,1,9,N","008000,1,N,1","+0300,1","+0246,1","10124,1","06,0000,9,1",,,,,,"05,1,+00660,9,06,9",,,"05,99,1,05,1,04,1,00800,1,00,1,00,1",,"01,9",,,,"99999,9,10119,1","2,1,011,1,-009,1",,,"SYN100AAXX  19031 76458 32558 52602 10300 20246 30119 40124 52011 85400 90250 333 0/100 30/// 59009 85622;","Q01  00002PRCP06"
"76458099999","2004-07-19T06:00:00","4","23.2","-106.4166666","4.0","COLONIA JUAN CARRASCO MAZATLAN SIN., MX","FM-12","99999","V020","260,1,N,0020,1","00420,1,9,N","008000,1,N,1","+0294,1","+0252,1","10139,1","06,0000,9,1",,,,,,,,,"06,99,1,06,1,04,1,00450,1,00,1,00,1","0438,9","01,9",,"240,M,+0332,1","240,N,+0267,1","99999,9,10134,1","2,1,015,1,+000,1",,,"SYN130AAXX  19061 76458 32458 62602 10294 20252 30134 40139 52015 86400 90547 333 0/6// 10332 20267 30/// 55073 21161 57669 58000 86617;","Q01  00002PRCP06"
"76458099999","2004-07-19T09:00:00","4","23.2","-106.4166666","4.0","COLONIA JUAN CARRASCO MAZATLAN SIN., MX","FM-12","99999","V020","240,1,N,0020,1","22000,1,9,N","008000,1,N,1","+0290,1","+0247,1","10129,1","06,0000,9,1",,,,"0,1,03,1","0,1,03,1","01,1,+00540,9,09,9",,,"03,99,1,01,1,09,1,00450,1,00,1,00,1",,"01,9",,,,"99999,9,10125,1","7,1,009,1,-004,1","13,1",,"SYN118AAXX  19091 76458 31458 32402 10290 20247 30125 40129 57009 71300 81900 90847 333 008// 30/// 57985 59004 81918 82620;","Q01  00002PRCP06"
"76458099999","2004-07-19T18:00:00","4","23.2","-106.4166666","4.0","COLONIA JUAN CARRASCO MAZATLAN SIN., MX","FM-12","99999","V020","170,1,N,0020,1","03600,1,C,N","018000,1,N,1","+0296,1","+0242,1","10140,1","03,0003,9,1","06,0061,9,1",,,"9,1,06,1","0,1,06,1","02,1,+00660,9,08,9",,,"06,99,1,02,1,02,1,00800,1,06,1,00,1",,"09,9",,"120,M,+0310,1","240,N,+0235,1","99999,9,10136,1","6,1,004,1,+002,1","04,1",,"SYN142AAXX  19181 76458 01568 61702 10296 20242 30136 40140 56004 60061 70497 82260 91748 333 0/30/ 10310 20235 31/// 57834 58002 69937 82822 84358;","Q01+000072PSTWM2"
"76458099999","2004-07-19T21:00:00","4","23.2","-106.4166666","4.0","COLONIA JUAN CARRASCO MAZATLAN SIN., MX","FM-12","99999","V020","250,1,N,0030,1","03600,1,C,N","020000,1,N,1","+0295,1","+0243,1","10134,1","06,0000,9,1",,,,,,"01,1,+00660,9,08,9",,,"07,99,1,01,1,01,1,00800,1,05,1,00,1",,"09,9",,,,"99999,9,10130,1","7,1,006,1,+004,1",,,"SYN106AAXX  19211 76458 32570 72503 10295 20243 30130 40134 57006 81150 92050 333 0/890 31/// 58004 81822 86358;","Q01  00002PRCP06"
"76458099999","2004-07-20T15:00:00","4","23.2","-106.4166666","4.0","COLONIA JUAN CARRASCO MAZATLAN SIN., MX","FM-12","99999","V020","090,1,N,0030,1","03600,1,C,N","016000,1,N,1","+0288,1","+0246,1","10129,1","06,0000,9,1",,,,,,"02,1,+00540,9,08,9",,,"05,99,1,02,1,03,1,00800,1,04,1,00,1",,"01,9",,,,"99999,9,10124,1","7,1,013,1,-016,1",,,"SYN112AAXX  20151 76458 32566 50903 10288 20246 30124 40129 57013 82340 91445 333 0/30/ 30/// 57836 59016 82818 83358;","Q01  00002PRCP06"
"76458099999","2004-07-20T18:00:00","4","23.2","-106.4166666","4.0","COLONIA JUAN CARRASCO MAZATLAN SIN., MX","FM-12","99999","V020","180,1,N,0040,1","00750,1,9,N","020000,1,N,1","+0301,1","+0242,1","10132,1","06,0000,9,1",,,,,,"08,1,+00750,9,06,9",,,"08,99,1,08,1,04,1,00800,1,00,1,00,1",,"01,9",,"120,M,+0315,1","240,N,+0272,1","99999,9,10127,1","3,1,003,1,-008,1",,,"SYN118AAXX  20181 76458 32570 81804 10301 20242 30127 40132 53003 88400 91748 333 0/3// 10315 20272 30/// 57639 59008 88625;","Q01  00002PRCP06"
"76458099999","2004-07-21T00:00:00","4","23.2","-106.4166666","4.0","COLONIA JUAN CARRASCO MAZATLAN SIN., MX","FM-12","99999","V020","220,1,N,0030,1","03600,1,C,N","015000,1,N,1","+0305,1","+0228,1","10120,1","06,0000,9,1",,,,,,"02,1,+00960,9,08,9",,,"08,99,1,02,1,01,1,00800,1,05,1,00,1",,"01,9",,"120,M,+0340,1","180,N,+0272,1","99999,9,10116,1","7,1,006,1,+008,1",,,"SYN124AAXX  21001 76458 32565 82203 10305 20228 30116 40120 57006 82150 92355 333 0/190 10340 20272 30/// 53761 58008 82832 86358;","Q01  00002PRCP06"
"76458099999","2004-07-21T03:00:00","4","23.2","-106.4166666","4.0","COLONIA JUAN CARRASCO MAZATLAN SIN., MX","FM-12","99999","V020","040,1,N,0010,1","03600,1,C,N","008000,1,N,1","+0286,1","+0237,1","10127,1","06,0000,9,1",,,,,,"02,1,+00600,9,06,9",,,"07,99,1,02,1,05,1,00800,1,02,1,00,1",,"01,9",,,,"99999,9,10123,1","2,1,007,1,+007,1",,,"SYN106AAXX  21031 76458 32558 70401 10286 20237 30123 40127 52007 82520 90245 333 0/990 30/// 58007 82620 85358;","Q01  00002PRCP06"
"76458099999","2004-07-21T06:00:00","4","23.2","-106.4166666","4.0","COLONIA JUAN CARRASCO MAZATLAN SIN., MX","FM-12","99999","V020","150,1,N,0010,1","99999,9,9,N","010000,1,N,1","+0270,1","+0240,1","10129,1","06,0005,9,1",,,,"5,1,06,1","5,1,06,1",,,,"07,99,1,07,1,00,1,99999,9,02,1,00,1","0342,9","01,9",,"240,M,+0340,1","240,N,+0270,1","99999,9,10124,1","0,1,001,1,+001,1","02,1",,"SYN136AAXX  21061 76458 11960 71501 10270 20240 30124 40129 50001 69961 70255 87020 90550 333 0/090 10340 20270 30/// 55057 20696 58001 87461;",
"76458099999","2004-07-21T09:00:00","4","23.2","-106.4166666","4.0","COLONIA JUAN CARRASCO MAZATLAN SIN., MX","FM-12","99999","V020","340,1,N,0010,1","22000,1,9,N","010000,1,N,1","+0262,1","+0236,1","10128,1","06,0000,9,1",,,,,,"03,1,+02700,9,03,9",,,"03,99,1,03,1,00,1,99999,9,03,1,00,1",,"01,9",,,,"99999,9,10123,1","8,1,001,1,+011,1",,,"SYN100AAXX  21091 76458 32960 33401 10262 20236 30123 40128 58001 83030 90850 333 0/090 30/// 58011 83359;","Q01  00002PRCP06"
"76458099999","2004-07-21T15:00:00","4","23.2","-106.4166666","4.0","COLONIA JUAN CARRASCO MAZATLAN SIN., MX","FM-12","99999","V020","030,1,N,0010,1","22000,1,9,N","020000,1,N,1","+0291,1","+0247,1","10127,1","06,0000,9,1",,,,,,"02,1,+08700,9,00,9",,,"02,99,1,00,1,00,1,99999,9,00,1,05,1",,"01,9",,,,"99999,9,10123,1","5,1,001,1,-001,1",,,"SYN100AAXX  21151 76458 32970 20301 10291 20247 30123 40127 55001 80005 91450 333 0/009 30/// 59001 82079;","Q01  00002PRCP06"
"76458099999","2004-07-21T18:00:00","4","23.2","-106.4166666","4.0","COLONIA JUAN CARRASCO MAZATLAN SIN., MX","FM-12","99999","V020","170,1,N,0040,1","22000,1,9,N","020000,1,N,1","+0319,1","+0225,1","10129,1","06,0000,9,1",,,,,,"01,1,+01170,9,08,9",,,"02,99,1,01,1,02,1,01750,1,00,1,06,1",,"01,9",,"120,M,+0335,1","240,N,+0248,1","99999,9,10124,1","0,1,001,1,-003,1",,,"SYN124AAXX  21181 76458 32770 21704 10319 20225 30124 40129 50001 81206 91747 333 0/1/9 10335 20248 30/// 57816 59003 81839 81068;","Q01  00002PRCP06"
"76458099999","2004-07-21T21:00:00","4","23.2","-106.4166666","4.0","COLONIA JUAN CARRASCO MAZATLAN SIN., MX","FM-12","99999","V020","210,1,N,0020,1","22000,1,9,N","020000,1,N,1","+0321,1","+0223,1","10118,1","06,0000,9,1",,,,,,"01,1,+01230,9,08,9",,,"04,99,1,01,1,02,1,01750,1,00,1,08,1",,"01,9",,,,"99999,9,10113,1","7,1,011,1,-009,1",,,"SYN112AAXX  21211 76458 32770 42102 10321 20223 30113 40118 57011 81208 92045 333 0/1/9 30/// 57814 59009 81841 83268;","Q01  00002PRCP06"
"76458099999","2004-07-22T00:00:00","4","23.2","-106.4166666","4.0","COLONIA JUAN CARRASCO MAZATLAN SIN., MX","FM-12","99999","V020","240,1,N,0030,1","02400,1,9,N","020000,1,N,1","+0306,1","+0226,1","10109,1","06,0000,9,1","24,0000,9,1",,,,,"07,1,+02400,9,04,9",,,"07,99,1,07,1,99,9,02250,1,02,1,99,9",,"01,9",,"120,M,+0345,1","180,N,+0248,1","99999,9,10104,1","5,1,009,1,-012,1",,,"SYN112AAXX  22001 76458 32870 72403 10306 20226 30104 40109 55009 87/2/ 92340 333 10345 20248 30/// 59012 70000 87458;","Q01  00002PRCP06"
"76458099999","2004-07-22T03:00:00","4","23.2","-106.4166666","4.0","COLONIA JUAN CARRASCO MAZATLAN SIN., MX","FM-12","99999","V020","270,1,N,0030,1","99999,9,9,N","008000,1,N,1","+0296,1","+0236,1","10115,1","06,0000,9,1",,,,,,,,,"05,99,1,00,1,99,9,99999,9,99,9,06,1",,"01,9",,,,"99999,9,10111,1","1,1,007,1,-012,1",,,"SYN094AAXX  22031 76458 32958 52703 10296 20236 30111 40115 51007 80//6 90240 333 30/// 59012 58070;","Q01  00002PRCP06"
"76458099999","2004-07-22T06:00:00","4","23.2","-106.4166666","4.0","COLONIA JUAN CARRASCO MAZATLAN SIN., MX","FM-12","99999","V020","280,1,N,0020,1","22000,1,9,N","008000,1,N,1","+0294,1","+0234,1","10134,1","06,0000,9,1",,,,,,"03,1,+02400,9,03,9",,,"03,99,1,99,9,00,1,99999,9,05,1,00,1",,"01,9",,"240,M,+0345,1","240,N,+0248,1","99999,9,10130,1","2,1,019,1,+008,1",,,"SYN112AAXX  22061 76458 32958 32802 10294 20234 30130 40134 52019 80050 90552 333 0/090 10345 20248 30/// 58008 83358;","Q01+000002SCOTLCQ02  00002PRCP06"
"76458099999","2004-07-22T12:00:00","4","23.2","-106.4166666","4.0","COLONIA JUAN CARRASCO MAZATLAN SIN., MX","FM-12","99999","V020","330,1,N,0010,1","22000,1,9,N","010000,1,N,1","+0275,1","+0249,1","10117,1","06,0000,9,1","24,0000,9,1",,,,,"02,1,+00900,9,09,9",,,"03,99,1,02,1,09,1,00450,1,03,1,00,1",,"01,9","999,+0260,9","999,M,+0345,1","120,N,+0270,1","99999,9,10113,1","7,1,005,1,-011,1",,,"SYN136AAXX  22121 76458 32460 33301 10275 20249 30113 40117 57005 82930 91145 333 07390 10345 20270 30026 57933 59011 70000 81811 81934 81361;","Q01  00002PRCP06"
"76458099999","2004-07-22T15:00:00","4","23.2","-106.4166666","4.0","COLONIA JUAN CARRASCO MAZATLAN SIN., MX","FM-12","99999","V020","330,1,N,0020,1","03600,1,C,N","020000,1,N,1","+0280,1","+0255,1","10126,1","06,0000,9,1",,,,,,"02,1,+00300,9,08,9",,,"07,99,1,02,1,02,1,00450,1,05,1,00,1",,"01,9",,,,"99999,9,10122,1","4,1,000,1,-001,1",,,"SYN112AAXX  22151 76458 32470 73302 10280 20255 30122 40126 54009 82250 91450 333 04590 30/// 57856 59001 82810 85358;","Q01  00002PRCP06"
"76458099999","2004-07-22T21:00:00","4","23.2","-106.4166666","4.0","COLONIA JUAN CARRASCO MAZATLAN SIN., MX","FM-12","99999","V020","170,1,N,0030,1","03600,1,C,N","020000,1,N,1","+0299,1","+0230,1","10124,1","03,0041,9,1",,,,"5,1,03,1","6,1,03,1","02,1,+00870,9,08,9",,,"05,99,1,02,1,01,1,00800,1,03,1,00,1",,"01,9",,,,"99999,9,10120,1","8,1,018,1,+007,1","01,1",,"SYN124AAXX  22211 76458 11570 51703 10299 20230 30120 40124 58018 60047 70156 82130 92045 333 0/39/ 30/// 57839 58007 82829 83358;",
"76458099999","2004-07-23T00:00:00","4","23.2","-106.4166666","4.0","COLONIA JUAN CARRASCO MAZATLAN SIN., MX","FM-12","99999","V020","240,1,N,0020,1","01800,1,C,N","020000,1,N,1","+0294,1","+0213,1","10107,1","06,0000,9,1","24,0083,9,1",,,,,"03,1,+01020,9,06,9","02,1,+01800,9,03,9",,"07,99,1,03,1,05,1,01250,1,03,1,06,1",,"09,9",,"120,M,+0315,1","180,N,+0268,1","99999,9,10103,1","7,1,017,1,-001,1",,,"SYN142AAXX  23001 76458 32670 72402 10294 20213 30103 40107 57017 83536 92340 333 0/199 10315 20268 31/// 5//// 57610 59001 70083 83634 82356 82070;","Q01  00002PRCP06"
"76458099999","2004-07-23T03:00:00","4","23.2","-106.4166666","4.0","COLONIA JUAN CARRASCO MAZATLAN SIN., MX","FM-12","99999","V020","270,1,N,0020,1","22000,1,9,N","008000,1,N,1","+0276,1","+0232,1","10109,1","06,0000,9,1",,,,,,"01,1,+00540,9,08,9",,,"04,99,1,01,1,01,1,00450,1,99,9,06,1",,"09,9",,,,"99999,9,10105,1","3,1,002,1,-018,1",,,"SYN112AAXX  23031 76458 32458 42702 10276 20232 30105 40109 53002 811/6 90240 333 007/9 31/// 57870 59018 81818 83070;","Q01  00002PRCP06"
"76458099999","2004-07-23T12:00:00","4","23.2","-106.4166666","4.0","COLONIA JUAN CARRASCO MAZATLAN SIN., MX","FM-12","99999","V020","360,1,N,0030,1","00390,1,9,N","008000,1,N,1","+0259,1","+0228,1","10113,1","06,0000,9,1","24,0000,9,1",,,,,"08,1,+00390,9,06,9",,,"08,99,1,06,1,05,1,99999,9,00,1,00,1",,"01,9","999,+0260,9","999,M,+0315,1","120,N,+0254,1","99999,9,10108,1","7,1,001,1,-008,1",,,"SYN118AAXX  23121 76458 32958 83603 10259 20228 30108 40113 57001 86500 91155 333 0/900 10315 20254 30026 59008 70000 88613;","Q01  00002PRCP06"
"76458099999","2004-07-23T15:00:00","4","23.2","-106.4166666","4.0","COLONIA JUAN CARRASCO MAZATLAN SIN., MX","FM-12","99999","V020","360,1,N,0010,1","03600,1,C,N","013000,1,N,1","+0280,1","+0246,1","10122,1","06,0000,9,1",,,,,,"01,1,+00420,9,09,9",,,"07,99,1,01,1,03,1,00800,1,08,1,00,1",,"01,9",,,,"99999,9,10118,1","5,1,015,1,-004,1",,,"SYN112AAXX  23151 76458 32563 73601 10280 20246 30118 40122 55015 81380 91445 333 0/39/ 30/// 57936 59004 81914 86356;","Q01  00002PRCP06"
"76458099999","2004-07-23T18:00:00","4","23.2","-106.4166666","4.0","COLONIA JUAN CARRASCO MAZATLAN SIN., MX","FM-12","99999","V020","260,1,N,0020,1","03600,1,9,N","020000,1,N,1","+0288,1","+0233,1","10125,1","06,0000,9,1",,,,,,"01,1,+00990,9,08,9",,,"07,99,1,01,1,01,1,00800,1,03,1,00,1",,"01,9",,"120,M,+0300,1","240,N,+0252,1","99999,9,10120,1","0,1,002,1,-018,1",,,"SYN124AAXX  23181 76458 32570 72602 10288 20233 30120 40125 50002 81130 91745 333 0/89/ 10300 20252 30/// 57889 59018 81833 82362;","Q01  00002PRCP06"
"76458099999","2004-07-23T21:00:00","4","23.2","-106.4166666","4.0","COLONIA JUAN CARRASCO MAZATLAN SIN., MX","FM-12","99999","V020","210,1,N,0020,1","03600,1,9,N","020000,1,N,1","+0302,1","+0234,1","10115,1","06,0000,9,1",,,,"9,1,03,1","0,1,03,1","04,1,+00840,9,09,9","02,1,+03600,9,03,9",,"07,99,1,04,1,09,1,00800,1,03,1,01,1",,"01,9",,,,"99999,9,10111,1","7,1,009,1,-009,1","17,1",,"SYN124AAXX  23211 76458 31570 72102 10302 20234 30111 40115 57009 71790 84931 92047 333 06199 30/// 57919 59009 84928 82362 81068;","Q01  00002PRCP06"
"76458099999","2004-07-24T03:00:00","4","23.2","-106.4166666","4.0","COLONIA JUAN CARRASCO MAZATLAN SIN., MX","FM-12","99999","V020","060,1,N,0010,1","03600,1,C,N","008000,1,N,1","+0286,1","+0234,1","10120,1","06,0000,9,1",,,,,,"01,1,+00660,9,08,9",,,"07,99,1,01,1,01,1,00800,1,07,1,99,9",,"01,9",,,,"99999,9,10115,1","2,1,012,1,+999,9",,,"SYN106AAXX  24031 76458 32558 70601 10286 20234 30115 40120 52012 8117/ 90240 333 0079/ 30/// 57810 81822 86356;","Q01  00002PRCP06"
"76458099999","2004-07-24T06:00:00","4","23.2","-106.4166666","4.0","COLONIA JUAN CARRASCO MAZATLAN SIN., MX","FM-12","99999","V020","030,1,N,0010,1","99999,9,9,N","008000,1,N,1","+0280,1","+0251,1","10138,1","06,0000,9,1",,,,,,,,,"05,99,1,99,9,00,1,99999,9,05,1,00,1","0210,9","01,9",,"240,M,+0330,1","240,N,+0252,1","99999,9,10129,1","2,1,014,1,+008,1",,,"SYN124AAXX  24061 76458 32958 50301 10280 20251 30129 40138 52014 80050 90555 333 0/090 10330 20252 30/// 55035 28898 58008 85358;","Q01+000002SCOTLCQ02  00002PRCP06"
"76458099999","2004-07-24T18:00:00","4","23.2","-106.4166666","4.0","COLONIA JUAN CARRASCO MAZATLAN SIN., MX","FM-12","99999","V020","250,1,N,0020,1","09000,1,C,N","020000,1,N,1","+0301,1","+0243,1","10134,1","06,0000,9,1",,,,,,"02,1,+00720,9,08,9","02,1,+03600,9,03,9",,"05,99,1,02,1,02,1,00800,1,03,1,08,1",,"01,9",,"120,M,+0324,1","240,N,+0262,1","99999,9,10130,1","1,1,003,1,+010,1",,,"SYN130AAXX  24181 76458 32570 52502 10301 20243 30130 40134 51003 82238 91747 333 0/199 10324 20262 30/// 57815 58010 82824 82362 81268;","Q01  00002PRCP06"
"76458099999","2004-07-24T21:00:00","4","23.2","-106.4166666","4.0","COLONIA JUAN CARRASCO MAZATLAN SIN., MX","FM-12","99999","V020","240,1,N,0030,1","22000,1,9,N","020000,1,N,1","+0312,1","+0244,1","10122,1","06,0000,9,1",,,,,,"01,1,+00840,9,08,9",,,"02,99,1,01,1,01,1,00800,1,00,1,08,1",,"01,9",,,,"99999,9,10118,1","7,1,012,1,+007,1",,,"SYN112AAXX  24211 76458 32570 22403 10312 20244 30118 40122 57012 81108 92045 333 0/1/9 30/// 57819 58007 81828 81268;","Q01  00002PRCP06"
"76458099999","2004-07-25T03:00:00","4","23.2","-106.4166666","4.0","COLONIA JUAN CARRASCO MAZATLAN SIN., MX","FM-12","99999","V020","300,1,N,0030,1","22000,1,9,N","016000,1,N,1","+0294,1","+0236,1","10119,1","06,0000,9,1",,,,,,"01,1,+08700,9,00,9",,,"01,99,1,00,1,00,1,99999,9,00,1,01,1",,"01,9",,,,"99999,9,10115,1","2,1,008,1,-001,1",,,"SYN100AAXX  25031 76458 32966 13003 10294 20236 30115 40119 52008 80001 90250 333 0/009 30/// 59001 81079;","Q01  00002PRCP06"
"76458099999","2004-07-25T12:00:00","4","23.2","-106.4166666","4.0","COLONIA JUAN CARRASCO MAZATLAN SIN., MX","FM-12","99999","V020","350,1,N,0010,1","00450,1,9,N","010000,1,N,1","+0273,1","+0235,1","10131,1","06,0000,9,1","24,0000,9,1",,,,,"06,1,+00450,9,08,9",,,"07,99,1,07,1,09,1,00450,1,00,1,00,1",,"01,9","999,+0260,9","999,M,+0335,1","120,N,+0274,1","99999,9,10126,1","9,9,999,9,+009,1",,,"SYN130AAXX  25121 76458 32460 73501 10273 20235 30126 40131 5//// 87900 91150 333 07300 10335 20274 30026 57936 58009 70000 86815 81934;","Q01  00002PRCP06"
"76458099999","2004-07-25T15:00:00","4","23.2","-106.4166666","4.0","COLONIA JUAN CARRASCO MAZATLAN SIN., MX","FM-12","99999","V020","090,1,N,0030,1","00390,1,9,N","020000,1,N,1","+0268,1","+0237,1","10150,1","06,0000,9,1",,,,,,"05,1,+00390,9,08,9",,,"07,99,1,05,1,07,1,00450,1,02,1,00,1",,"01,9",,,,"99999,9,10146,1","2,1,019,1,+020,1",,,"SYN106AAXX  25151 76458 32470 70903 10268 20237 30146 40150 52019 85720 91450 333 0/390 30/// 58020 85813 82462;","Q01  00002PRCP06"
"76458099999","2004-07-25T18:00:00","4","23.2","-106.4166666","4.0","COLONIA JUAN CARRASCO MAZATLAN SIN., MX","FM-12","99999","V020","140,1,N,0010,1","03600,1,9,N","020000,1,N,1","+0263,1","+0228,1","10146,1","03,0004,9,1","06,0005,9,1",,,"5,1,06,1","5,1,06,1","02,1,+00450,9,06,9",,,"08,99,1,02,1,05,1,00450,1,02,1,00,1",,"09,9",,"120,M,+0278,1","240,N,+9999,9","99999,9,10141,1","5,1,005,1,+011,1","02,1",,"SYN142AAXX  25181 76458 01470 81401 10263 20228 30141 40146 55005 69941 70255 82520 91748 333 0/99/ 10278 20272 31/// 57699 58011 69947 82615 86462;","Q01 +02722ATMN  "
"76458099999","2004-07-25T21:00:00","4","23.2","-106.4166666","4.0","COLONIA JUAN CARRASCO MAZATLAN SIN., MX","FM-12","99999","V020","220,1,N,0030,1","22000,1,9,N","020000,1,N,1","+0311,1","+0233,1","10123,1","06,0000,9,1",,,,,,"01,1,+00960,9,08,9",,,"04,99,1,01,1,02,1,00800,1,03,1,00,1",,"01,9",,,,"99999,9,10119,1","7,1,021,1,+001,1",,,"SYN112AAXX  25211 76458 32570 42203 10311 20233 30119 40123 57021 81230 92045 333 0/19/ 30/// 57815 58001 81832 83362;","Q01  00002PRCP06"
"76458099999","2004-07-26T00:00:00","4","23.2","-106.4166666","4.0","COLONIA JUAN CARRASCO MAZATLAN SIN., MX","FM-12","99999","V020","240,1,N,0020,1","22000,1,9,N","020000,1,N,1","+0310,1","+0246,1","10112,1","06,0000,9,1","24,0000,9,1",,,,,"01,1,+00810,9,09,9",,,"02,99,1,01,1,03,1,00800,1,03,1,00,1",,"01,9",,"120,M,+0341,1","180,N,+0272,1","99999,9,10107,1","7,1,012,1,+001,1",,,"SYN130AAXX  26001 76458 32570 22402 10310 20246 30107 40112 57012 81330 92350 333 0/190 10341 20272 30/// 54511 58001 70000 81927 81358;","Q01  00002PRCP06"
"76458099999","2004-07-26T03:00:00","4","23.2","-106.4166666","4.0","COLONIA JUAN CARRASCO MAZATLAN SIN., MX","FM-12","99999","V020","290,1,N,0030,1","22000,1,9,N","008000,1,N,1","+0290,1","+0250,1","10116,1","06,0000,9,1",,,,,,"04,1,+06600,9,00,9",,,"04,99,1,00,1,00,1,99999,9,00,1,06,1",,"01,9",,,,"99999,9,10112,1","2,1,005,1,-003,1",,,"SYN100AAXX  26031 76458 32958 42903 10290 20250 30112 40116 52005 80006 90255 333 0/009 30/// 59003 84072;","Q01  00002PRCP06"
"76458099999","2004-07-26T15:00:00","4","23.2","-106.4166666","4.0","COLONIA JUAN CARRASCO MAZATLAN SIN., MX","FM-12","99999","V020","100,1,N,0020,1","22000,1,9,N","016000,1,N,1","+0293,1","+0246,1","10127,1","06,0000,9,1",,,,,,"01,1,+00540,9,08,9",,,"01,99,1,01,1,02,1,00450,1,00,1,00,1",,"01,9",,,,"99999,9,10122,1","3,1,014,1,-024,1",,,"SYN106AAXX  26151 76458 32466 11002 10293 20246 30122 40127 53014 81200 91448 333 015// 30/// 57856 59024 81818;","Q01  00002PRCP06"
"76458099999","2004-07-26T18:00:00","4","23.2","-106.4166666","4.0","COLONIA JUAN CARRASCO MAZATLAN SIN., MX","FM-12","99999","V020","280,1,N,0030,1","22000,1,9,N","020000,1,N,1","+0312,1","+0248,1","10127,1","06,0000,9,1",,,,,,"01,1,+00540,9,08,9",,,"01,99,1,01,1,02,1,00800,1,00,1,00,1",,"01,9",,"120,M,+0335,1","240,N,+0267,1","99999,9,10122,1","4,1,000,1,-019,1",,,"SYN118AAXX  26181 76458 32570 12803 10312 20248 30122 40127 54000 81200 91745 333 0/3// 10335 20267 30/// 57837 59019 81818;","Q01  00002PRCP06"
"76458099999","2004-07-26T21:00:00","4","23.2","-106.4166666","4.0","COLONIA JUAN CARRASCO MAZATLAN SIN., MX","FM-12","99999","V020","300,1,N,0030,1","22000,1,9,N","020000,1,N,1","+0325,1","+0254,1","10121,1","06,0000,9,1",,,,,,"01,1,+00870,9,08,9",,,"01,99,1,01,1,02,1,00800,1,00,1,00,1",,"01,9",,,,"99999,9,10117,1","7,1,005,1,+999,9",,,"SYN100AAXX  26211 76458 32570 13003 10325 20254 30117 40121 57005 81200 92048 333 0/3// 30/// 57837 81829;","Q01  00002PRCP06"
"76458099999","2004-07-27T00:00:00","4","23.2","-106.4166666","4.0","COLONIA JUAN CARRASCO MAZATLAN SIN., MX","FM-12","99999","V020","270,1,N,0030,1","22000,1,9,N","020000,1,N,1","+0320,1","+0259,1","10098,1","06,0000,9,1","24,0000,9,1",,,,,"01,1,+00750,9,08,9",,,"04,99,1,01,1,02,1,00800,1,05,1,00,1",,"01,9",,"120,M,+0345,1","180,N,+0267,1","99999,9,10094,1","7,1,012,1,-613,1",,,"SYN124AAXX  27001 76458 32570 42703 10320 20259 30094 40098 57012 81250 92350 333 0/190 10345 20267 30/// 59613 70000 81825 83358;","Q01  00002PRCP06"
"76458099999","2004-07-27T03:00:00","4","23.2","-106.4166666","4.0","COLONIA JUAN CARRASCO MAZATLAN SIN., MX","FM-12","99999","V020","310,1,N,0030,1","22000,1,9,N","008000,1,N,1","+0304,1","+0260,1","10107,1","06,0000,9,1",,,,,,"03,1,+02400,9,03,9",,,"03,99,1,99,9,00,1,99999,9,03,1,00,1",,"01,9",,,,"99999,9,10102,1","7,1,008,1,-010,1",,,"SYN100AAXX  27031 76458 32958 33103 10304 20260 30102 40107 57008 80030 90248 333 0/090 30/// 59010 83358;","Q01+000002SCOTLCQ02  00002PRCP06"
"76458099999","2004-07-27T09:00:00","4","23.2","-106.4166666","4.0","COLONIA JUAN CARRASCO MAZATLAN SIN., MX","FM-12","99999","V020","050,1,N,0010,1","00630,1,9,N","010000,1,N,1","+0291,1","+0241,1","10108,1","06,0000,9,1",,,,,,"07,1,+00630,9,08,9",,,"07,99,1,07,1,07,1,00800,1,00,1,00,1",,"01,9",,,,"99999,9,10104,1","4,1,000,1,+999,9",,,"SYN100AAXX  27091 76458 32560 70501 10291 20241 30104 40108 54002 87700 90840 333 0/500 30/// 58/// 87821;","Q01  00002PRCP06"
"76458099999","2004-07-27T15:00:00","4","23.2","-106.4166666","4.0","COLONIA JUAN CARRASCO MAZATLAN SIN., MX","FM-12","99999","V020","130,1,N,0020,1","00750,1,C,N","016000,1,N,1","+0292,1","+0253,1","10126,1","06,0000,9,1",,,,"2,1,03,1","2,1,03,1","01,1,+00480,9,09,9",,,"05,99,1,05,1,03,1,00800,1,00,1,00,1",,"01,9",,,,"99999,9,10121,1","2,1,017,1,-001,1","29,1",,"SYN118AAXX  27151 76458 31566 51302 10292 20253 30121 40126 52017 72922 85300 91445 333 0/4// 30/// 57941 59001 81916 84818;","Q01  00002PRCP06"
"76458099999","2004-07-27T18:00:00","4","23.2","-106.4166666","4.0","COLONIA JUAN CARRASCO MAZATLAN SIN., MX","FM-12","99999","V020","160,1,N,0050,1","99999,9,9,N","000300,1,N,1","+0255,1","+0240,1","10141,1","01,0180,9,1","06,0180,9,1",,,"0,1,06,1","0,1,06,1","04,1,+00180,9,09,9",,,"08,99,1,04,1,09,1,00150,1,99,9,99,9",,"11,9",,"120,M,+0330,1","240,N,+9999,9","99999,9,10136,1","3,1,011,1,+014,1","59,1",,"SYN142AAXX  27181 76458 01203 81605 10255 20240 30136 40141 53011 60185 75900 849// 91755 333 069// 10330 20276 32/// 57999 58014 60181 84906 84607;","Q01 +02762ATMN  "
"76458099999","2004-07-27T21:00:00","4","23.2","-106.4166666","4.0","COLONIA JUAN CARRASCO MAZATLAN SIN., MX","FM-12","99999","V020","300,1,N,0040,1","03600,1,9,N","018000,1,N,1","+0258,1","+0240,1","10132,1","03,0150,9,1",,,,"2,1,03,1","6,1,03,1","02,1,+00210,9,06,9","04,1,+03600,9,03,9",,"08,99,1,02,1,04,1,00250,1,05,1,08,1",,"09,9",,,,"99999,9,10127,1","5,1,009,1,+021,1","02,1",,"SYN130AAXX  27211 76458 21368 83004 10258 20240 30127 40132 55009 70226 82458 92047 333 0/599 31/// 57659 58021 60157 82607 84362 82268;",
"76458099999","2004-07-28T00:00:00","4","23.2","-106.4166666","4.0","COLONIA JUAN CARRASCO MAZATLAN SIN., MX","FM-12","99999","V020","020,1,N,0010,1","06600,1,9,N","018000,1,N,1","+0272,1","+0245,1","10119,1","06,0000,2,1",,,,,,"07,1,+06600,9,04,9",,,"07,99,1,99,9,00,1,99999,9,02,1,00,1",,"09,9",,"120,M,+0335,1","180,N,+0276,1","99999,9,10115,1","7,1,012,1,+021,1",,,"SYN112AAXX  28001 76458 32968 70201 10272 20245 30115 40119 57012 80020 92358 333 0/009 10335 20276 31/// 58021 87472;","Q01+000002SCOTLC"
"76458099999","2004-07-28T03:00:00","4","23.2","-106.4166666","4.0","COLONIA JUAN CARRASCO MAZATLAN SIN., MX","FM-12","99999","V020","120,1,N,0010,1","06600,1,9,N","008000,1,N,1","+0270,1","+0245,1","10128,1","06,0000,9,1",,,,,,"07,1,+06600,9,04,9",,,"07,99,1,99,9,00,1,99999,9,02,1,00,1",,"09,9",,,,"99999,9,10124,1","2,1,009,1,+002,1",,,"SYN100AAXX  28031 76458 32958 71201 10270 20245 30124 40128 52009 80020 90255 333 0/090 31/// 58002 87472;","Q01+000002SCOTLCQ02  00002PRCP06"
"76458099999","2004-07-28T06:00:00","4","23.2","-106.4166666","4.0","COLONIA JUAN CARRASCO MAZATLAN SIN., MX","FM-12","99999","V020","090,1,N,0010,1","22000,1,9,N","010000,1,N,1","+0278,1","+0248,1","10149,1","06,0000,9,1",,,,,,"01,1,+02700,9,03,9",,,"02,99,1,01,1,00,1,99999,9,03,1,02,1","0108,9","09,9",,"240,M,+0332,1","240,N,+0276,1","99999,9,10145,1","2,1,020,1,+039,1",,,"SYN130AAXX  28061 76458 32960 20901 10278 20248 30145 40149 52020 81032 90555 333 0/099 10332 20276 31/// 55018 20077 58039 81359 81079;","Q01  00002PRCP06"
"76458099999","2004-07-28T09:00:00","4","23.2","-106.4166666","4.0","COLONIA JUAN CARRASCO MAZATLAN SIN., MX","FM-12","99999","V020","030,1,N,0010,1","22000,1,9,N","010000,1,N,1","+0258,1","+0244,1","10144,1","06,0000,9,1",,,,,,"01,1,+02700,9,03,9",,,"01,99,1,01,1,00,1,99999,9,03,1,00,1",,"09,9",,,,"99999,9,10139,1","7,1,005,1,+036,1",,,"SYN100AAXX  28091 76458 32960 10301 10258 20244 30139 40144 57005 81030 90840 333 0/090 31/// 58036 81359;","Q01  00002PRCP06"
"76458099999","2004-07-28T12:00:00","4","23.2","-106.4166666","4.0","COLONIA JUAN CARRASCO MAZATLAN SIN., MX","FM-12","99999","V020","050,1,N,0010,1","22000,1,9,N","010000,1,N,1","+0254,1","+0239,1","10142,1","06,0000,9,1","24,0335,9,1",,,,,"01,1,+02700,9,03,9",,,"01,99,1,01,1,00,1,99999,9,03,1,00,1",,"09,9","999,+0240,9","999,M,+0332,1","120,N,+0256,1","99999,9,10137,1","5,1,002,1,+033,1",,,"SYN118AAXX  28121 76458 32960 10501 10254 20239 30137 40142 55002 81030 91140 333 0/010 10332 20256 31024 58033 70335 81359;","Q01  00002PRCP06"
"76458099999","2004-07-28T15:00:00","4","23.2","-106.4166666","4.0","COLONIA JUAN CARRASCO MAZATLAN SIN., MX","FM-12","99999","V020","020,1,N,0020,1","22000,1,9,N","020000,1,N,1","+0283,1","+0244,1","10146,1","06,0000,9,1",,,,,,"01,1,+00480,9,08,9",,,"02,99,1,01,1,02,1,00450,1,00,1,01,1",,"09,9",,,,"99999,9,10142,1","2,1,004,1,+020,1",,,"SYN112AAXX  28151 76458 32470 20202 10283 20244 30142 40146 52004 81201 91450 333 04609 31/// 57866 58020 81816 81079;","Q01  00002PRCP06"
"76458099999","2004-07-28T18:00:00","4","23.2","-106.4166666","4.0","COLONIA JUAN CARRASCO MAZATLAN SIN., MX","FM-12","99999","V020","250,1,N,0030,1","22000,1,9,N","020000,1,N,1","+0311,1","+0230,1","10139,1","06,0000,9,1",,,,,,"01,1,+01020,9,08,9",,,"01,99,1,01,1,01,1,00800,1,00,1,00,1",,"01,9",,"120,M,+0329,1","240,N,+0254,1","99999,9,10135,1","7,1,007,1,-001,1",,,"SYN118AAXX  28181 76458 32570 12503 10311 20230 30135 40139 57007 81100 91745 333 0/2// 10329 20254 30/// 57829 59001 81834;","Q01  00002PRCP06"
"76458099999","2004-07-28T21:00:00","4","23.2","-106.4166666","4.0","COLONIA JUAN CARRASCO MAZATLAN SIN., MX","FM-12","99999","V020","250,1,N,0030,1","22000,1,9,N","020000,1,N,1","+0319,1","+0254,1","10130,1","06,0000,9,1",,,,,,"01,1,+00810,9,09,9",,,"03,99,1,03,1,02,1,00800,1,00,1,00,1",,"01,9",,,,"99999,9,10125,1","7,1,010,1,-002,1",,,"SYN112AAXX  28211 76458 32570 32503 10319 20254 30125 40130 57010 83200 92045 333 0/3// 30/// 57936 59002 81927 82858;","Q01  00002PRCP06"
"76458099999","2004-07-29T00:00:00","4","23.2","-106.4166666","4.0","COLONIA JUAN CARRASCO MAZATLAN SIN., MX","FM-12","99999","V020","240,1,N,0030,1","22000,1,9,N","018000,1,N,1","+0210,1","+9999,9","10116,1","06,0000,9,1","24,0000,9,1",,,,,"02,1,+00840,9,06,9",,,"04,99,1,02,1,05,1,00800,1,00,1,08,1",,"01,9",,"120,M,+0341,1","180,N,+9999,9","99999,9,10112,1","7,1,013,1,-003,1",,,"SYN130AAXX  29001 76458 32568 42403 10210 20243 30112 40116 57013 82508 92358 333 0/109 10341 20254 30/// 53651 59003 70000 82628 82272;","Q01  00002PRCP06Q02 +02542ATMN  "
"76458099999","2004-07-29T03:00:00","4","23.2","-106.4166666","4.0","COLONIA JUAN CARRASCO MAZATLAN SIN., MX","FM-12","99999","V020","260,1,N,0010,1","22000,1,9,N","008000,1,N,1","+0296,1","+0245,1","10127,1","06,0000,9,1",,,,,,"02,1,+00630,9,08,9",,,"04,99,1,02,1,02,1,00800,1,02,1,00,1",,"01,9",,,,"99999,9,10122,1","7,1,010,1,-002,1",,,"SYN106AAXX  29031 76458 32558 42601 10296 20245 30122 40127 57010 82220 90258 333 0/390 30/// 59002 82821 82358;","Q01  00002PRCP06"
"76458099999","2004-07-29T09:00:00","4","23.2","-106.4166666","4.0","COLONIA JUAN CARRASCO MAZATLAN SIN., MX","FM-12","99999","V020","360,1,N,0010,1","01800,1,9,N","008000,1,N,1","+0272,1","+0237,1","10129,1","06,0000,9,1",,,,,,"06,1,+01800,9,03,9",,,"06,99,1,06,1,99,9,02250,1,03,1,99,9",,"01,9",,,,"99999,9,10125,1","7,1,013,1,-014,1",,,"SYN094AAXX  29091 76458 32858 63601 10272 20237 30125 40129 57013 86/3/ 90840 333 30/// 59014 86356;","Q01  00002PRCP06"
"76458099999","2004-07-29T12:00:00","4","23.2","-106.4166666","4.0","COLONIA JUAN CARRASCO MAZATLAN SIN., MX","FM-12","99999","V020","340,1,N,0010,1","22000,1,9,N","010000,1,N,1","+0267,1","+0237,1","10125,1","06,0000,9,1","24,0000,9,1",,,,,"01,1,+00360,9,09,9",,,"02,99,1,01,1,09,1,00450,1,03,1,00,1",,"01,9","999,+0250,9","999,M,+0341,1","120,N,+0267,1","99999,9,10121,1","7,1,004,1,-017,1",,,"SYN130AAXX  29121 76458 32460 23401 10267 20237 30121 40125 57004 81930 91150 333 07690 10341 20267 30025 57968 59017 70000 81912 81359;","Q01  00002PRCP06"
"76458099999","2004-07-29T15:00:00","4","23.2","-106.4166666","4.0","COLONIA JUAN CARRASCO MAZATLAN SIN., MX","FM-12","99999","V020","360,1,N,0020,1","09000,1,C,N","020000,1,N,1","+0293,1","+0234,1","10135,1","06,0000,9,1",,,,,,"01,1,+00750,9,08,9","01,1,+01020,9,09,9","02,1,+02700,9,03,9","05,99,1,02,1,09,1,00800,1,03,1,01,1",,"01,9",,,,"99999,9,10131,1","2,1,010,1,-011,1",,,"SYN124AAXX  29151 76458 32570 53602 10293 20234 30131 40135 52010 82931 91450 333 07699 30/// 57962 59011 81825 81934 82359 81079;","Q01  00002PRCP06"
"76458099999","2004-07-29T18:00:00","4","23.2","-106.4166666","4.0","COLONIA JUAN CARRASCO MAZATLAN SIN., MX","FM-12","99999","V020","220,1,N,0030,1","22000,1,9,N","020000,1,N,1","+0306,1","+0246,1","10131,1","06,0000,9,1",,,,,,"01,1,+00750,9,08,9",,,"02,99,1,01,1,02,1,00800,1,03,1,00,1",,"01,9",,"120,M,+0330,1","240,N,+0266,1","99999,9,10126,1","8,1,005,1,-009,1",,,"SYN124AAXX  29181 76458 32570 22203 10306 20246 30126 40131 58005 81230 91745 333 0/19/ 10330 20266 30/// 57812 59009 81825 81362;","Q01  00002PRCP06"
"76458099999","2004-07-29T21:00:00","4","23.2","-106.4166666","4.0","COLONIA JUAN CARRASCO MAZATLAN SIN., MX","FM-12","99999","V020","230,1,N,0030,1","22000,1,9,N","020000,1,N,1","+0323,1","+0251,1","10110,1","06,0000,9,1",,,,,,"01,1,+00900,9,09,9",,,"01,99,1,01,1,03,1,00800,1,00,1,00,1",,"01,9",,,,"99999,9,10106,1","7,1,020,1,-019,1",,,"SYN106AAXX  29211 76458 32570 12303 10323 20251 30106 40110 57020 81300 92045 333 001// 30/// 57913 59019 81930;","Q01  00002PRCP06"
"76458099999","2004-07-30T00:00:00","4","23.2","-106.4166666","4.0","COLONIA JUAN CARRASCO MAZATLAN SIN., MX","FM-12","99999","V020","270,1,N,0030,1","22000,1,9,N","020000,1,N,1","+0314,1","+0253,1","10101,1","06,0000,9,1","24,0000,9,1",,,,,"04,1,+00750,9,08,9",,,"04,99,1,04,1,02,1,00800,1,00,1,00,1",,"01,9",,"120,M,+0341,1","180,N,+0266,1","99999,9,10096,1","7,1,010,1,-016,1",,,"SYN118AAXX  30001 76458 32570 42703 10314 20253 30096 40101 57010 84200 92355 333 0/600 10341 20266 30/// 59016 70000 84825;","Q01  00002PRCP06"
"76458099999","2004-07-30T03:00:00","4","23.2","-106.4166666","4.0","COLONIA JUAN CARRASCO MAZATLAN SIN., MX","FM-12","99999","V020","290,1,N,0020,1","22000,1,9,N","008000,1,N,1","+0300,1","+0296,1","10108,1","06,0000,9,1",,,,,,"01,1,+00780,9,02,9",,,"01,99,1,01,1,01,1,00800,1,00,1,00,1",,"01,9",,,,"99999,9,10104,1","2,1,008,1,-018,1",,,"SYN100AAXX  30031 76458 32558 12902 10300 20296 30104 40108 52008 81100 90255 333 0/300 30/// 59018 81226;","Q01  00002PRCP06"
"76458099999","2004-07-30T06:00:00","4","23.2","-106.4166666","4.0","COLONIA JUAN CARRASCO MAZATLAN SIN., MX","FM-12","99999","V020","250,1,N,0020,1","99999,9,9,N","008000,1,N,1","+0298,1","+0242,1","10121,1","06,0000,9,1",,,,"0,1,06,1","0,1,06,1",,,,"05,99,1,02,1,02,1,00800,1,99,9,01,1",,,,,,"99999,9,10116,1","2,1,012,1,+999,9","13,1",,"SYN072AAXX  30061 76458 31558 52502 10298 20242 30116 40121 52012 71300 822/1;","Q01  00002PRCP06"
"76458099999","2004-07-30T09:00:00","4","23.2","-106.4166666","4.0","COLONIA JUAN CARRASCO MAZATLAN SIN., MX","FM-12","99999","V020","060,1,N,0020,1","99999,9,9,N","008000,1,N,1","+0266,1","+0236,1","10105,1","02,0040,9,1",,,,,,"01,1,+00390,9,08,9",,,"06,99,1,01,1,01,1,00450,1,99,9,06,1",,"09,9",,,,"99999,9,10101,1","7,1,015,1,-024,1",,,"SYN124AAXX  30091 76458 02458 60602 10266 20236 30101 40105 57015 60046 811/6 90840 333 007// 31/// 57870 59024 60046 81813 85070;",
"76458099999","2004-07-30T15:00:00","4","23.2","-106.4166666","4.0","COLONIA JUAN CARRASCO MAZATLAN SIN., MX","FM-12","99999","V020","180,1,N,0010,1","02400,1,9,N","014000,1,N,1","+0287,1","+0244,1","10104,1","06,0000,9,1",,,,,,"01,1,+00510,9,09,9","02,1,+00540,9,08,9","03,1,+02400,9,03,9","06,99,1,03,1,02,1,00800,1,09,1,09,1",,"01,9",,,,"99999,9,10100,1","2,1,014,1,-031,1",,,"SYN124AAXX  30151 76458 32564 61801 10287 20244 30100 40104 52014 83299 91445 333 0/399 30/// 57935 59031 81917 82818 83358 81070;","Q01  00002PRCP06"
"76458099999","2004-07-30T21:00:00","4","23.2","-106.4166666","4.0","COLONIA JUAN CARRASCO MAZATLAN SIN., MX","FM-12","99999","V020","230,1,N,0050,1","22000,1,9,N","020000,1,N,1","+0328,1","+0257,1","10093,1","06,0000,9,1",,,,,,"01,1,+00900,9,09,9",,,"02,99,1,01,1,03,1,00800,1,00,1,08,1",,"01,9",,,,"99999,9,10089,1","7,1,011,1,-017,1",,,"SYN112AAXX  30211 76458 32570 22305 10328 20257 30089 40093 57011 81308 92045 333 0/1/9 30/// 57911 59017 81930 81268;","Q01  00002PRCP06"
"76458099999","2004-07-31T03:00:00","4","23.2","-106.4166666","4.0","COLONIA JUAN CARRASCO MAZATLAN SIN., MX","FM-12","99999","V020","250,1,N,0010,1","22000,1,9,N","008000,1,N,1","+0298,1","+0235,1","10096,1","06,0000,9,1",,,,,,"02,1,+02400,9,03,9",,,"03,99,1,99,9,00,1,99999,9,03,1,06,1",,"01,9",,,,"99999,9,10092,1","2,1,015,1,-012,1",,,"SYN106AAXX  31031 76458 32958 32501 10298 20235 30092 40096 52015 80036 90258 333 0/099 30/// 59012 82358 81072;","Q01  00002PRCP06"
"76458099999","2004-07-31T09:00:00","4","23.2","-106.4166666","4.0","COLONIA JUAN CARRASCO MAZATLAN SIN., MX","FM-12","99999","V020","999,9,C,0000,1","99999,9,9,N","008000,1,N,1","+0284,1","+0243,1","10101,1","06,0000,9,1",,,,,,"02,1,+00510,9,06,9",,,"07,99,1,02,1,05,1,00450,1,99,9,06,1",,"01,9",,,,"99999,9,10096,1","8,1,007,1,-005,1",,,"SYN112AAXX  31091 76458 32458 70000 10284 20243 30096 40101 58007 825/6 90840 333 007/9 30/// 57670 59005 82617 85070;","Q01  00002PRCP06"
"76458099999","2004-07-31T18:00:00","4","23.2","-106.4166666","4.0","COLONIA JUAN CARRASCO MAZATLAN SIN., MX","FM-12","99999","V020","140,1,N,0030,1","22000,1,9,N","020000,1,N,1","+0317,1","+0237,1","10103,1","06,0000,9,1",,,,,,"01,1,+00990,9,09,9","01,1,+01020,9,08,9",,"03,99,1,02,1,03,1,00800,1,00,1,06,1",,"01,9",,"120,M,+0335,1","240,N,+0276,1","99999,9,10098,1","0,1,003,1,-002,1",,,"SYN130AAXX  31181 76458 32570 31403 10317 20237 30098 40103 50003 82306 91745 333 0/4/9 10335 20276 30/// 57940 59002 81933 81834 81068;","Q01  00002PRCP06"
"76458099999","2004-08-01T00:00:00","4","23.2","-106.4166666","4.0","COLONIA JUAN CARRASCO MAZATLAN SIN., MX","FM-12","99999","V020","240,1,N,0030,1","22000,1,9,N","020000,1,N,1","+0318,1","+0250,1","10082,1","06,0000,9,1","24,0000,9,1",,,,,"01,1,+00840,9,08,9",,,"04,99,1,02,1,09,1,00800,1,00,1,05,1",,"01,9",,"120,M,+0339,1","180,N,+0276,1","99999,9,10078,1","7,1,009,1,+000,1",,,"SYN136AAXX  01001 76458 32570 42403 10318 20250 30078 40082 57009 82905 92350 333 08109 10339 20276 30/// 50591 57912 58000 70000 81828 81934;","Q01  00002PRCP06"
"76458099999","2004-08-01T03:00:00","4","23.2","-106.4166666","4.0","COLONIA JUAN CARRASCO MAZATLAN SIN., MX","FM-12","99999","V020","270,1,N,0020,1","22000,1,9,N","016000,1,N,1","+0300,1","+0239,1","10094,1","06,0000,9,1",,,,,,"01,1,+00780,9,09,9",,,"04,99,1,01,1,09,1,00800,1,00,1,03,1",,"01,9",,,,"99999,9,10089,1","2,1,012,1,-002,1",,,"SYN112AAXX  01031 76458 32566 42702 10300 20239 30089 40094 52012 81903 90250 333 07202 30/// 57924 59002 81926 83276;","Q01  00002PRCP06"
"76458099999","2004-08-01T12:00:00","4","23.2","-106.4166666","4.0","COLONIA JUAN CARRASCO MAZATLAN SIN., MX","FM-12","99999","V020","030,1,N,0010,1","03300,1,9,N","010000,1,N,1","+0278,1","+0227,1","10103,1","06,0000,9,1","24,0000,9,1",,,,,"07,1,+03300,9,03,9",,,"07,99,1,07,1,00,1,99999,9,03,1,00,1",,"01,9","999,+0270,9","999,M,+0339,1","120,N,+0278,1","99999,9,10099,1","5,1,001,1,-007,1",,,"SYN118AAXX  01121 76458 32960 70301 10278 20227 30099 40103 55001 87030 91148 333 0/090 10339 20278 30027 59007 70000 87361;","Q01  00002PRCP06"
"76458099999","2004-08-01T15:00:00","4","23.2","-106.4166666","4.0","COLONIA JUAN CARRASCO MAZATLAN SIN., MX","FM-12","99999","V020","100,1,N,0020,1","03600,1,C,N","020000,1,N,1","+0288,1","+0229,1","10112,1","06,0000,9,1",,,,,,"01,1,+00750,9,08,9",,,"07,99,1,01,1,02,1,00800,1,03,1,00,1",,"01,9",,,,"99999,9,10108,1","2,1,009,1,-013,1",,,"SYN112AAXX  01151 76458 32570 71002 10288 20229 30108 40112 52009 81230 91450 333 04490 30/// 57846 59013 81825 86360;","Q01  00002PRCP06"
"76458099999","2004-08-01T18:00:00","4","23.2","-106.4166666","4.0","COLONIA JUAN CARRASCO MAZATLAN SIN., MX","FM-12","99999","V020","150,1,N,0020,1","22000,1,9,N","020000,1,N,1","+0326,1","+0246,1","10120,1","06,0000,9,1",,,,,,"01,1,+00990,9,08,9","02,1,+06000,9,00,9",,"04,99,1,01,1,02,1,01250,1,99,9,01,1",,"01,9",,"120,M,+0340,1","240,N,+0275,1","99999,9,10115,1","2,1,007,1,+017,1",,,"SYN130AAXX  01181 76458 32670 41502 10326 20246 30115 40120 52007 812/1 91740 333 011/9 10340 20275 30/// 57813 58017 81833 82070 81170;","Q01  00002PRCP06"
"76458099999","2004-08-01T21:00:00","4","23.2","-106.4166666","4.0","COLONIA JUAN CARRASCO MAZATLAN SIN., MX","FM-12","99999","V020","240,1,N,0040,1","22000,1,9,N","020000,1,N,1","+0322,1","+0256,1","10115,1","06,0000,9,1",,,,,,"01,1,+00840,9,08,9",,,"03,99,1,01,1,02,1,00800,1,99,9,09,1",,"01,9",,,,"99999,9,10110,1","3,1,005,1,+024,1",,,"SYN112AAXX  01211 76458 32570 32404 10322 20256 30110 40115 53005 812/9 92040 333 011/9 30/// 57815 58024 81828 82070;","Q01  00002PRCP06"
"76458099999","2004-08-02T00:00:00","4","23.2","-106.4166666","4.0","COLONIA JUAN CARRASCO MAZATLAN SIN., MX","FM-12","99999","V020","240,1,N,0030,1","22000,1,9,N","020000,1,N,1","+0321,1","+0252,1","99999,9","06,0000,9,1","24,0000,9,1",,,,,"01,1,+00870,9,08,9",,,"02,99,1,01,1,02,1,00800,1,00,1,08,1",,"01,9",,"120,M,+0340,1","180,N,+0275,1","99999,9,10094,1","7,1,016,1,-016,1",,,"SYN136AAXX  02001 76458 32570 22403 10321 20252 30094 40199 57016 81208 92348 333 0/1/9 10340 20275 30/// 50581 57813 59016 70000 81829 81268;","Q01+101993APOSLPQ02  00002PRCP06"
"76458099999","2004-08-02T03:00:00","4","23.2","-106.4166666","4.0","COLONIA JUAN CARRASCO MAZATLAN SIN., MX","FM-12","99999","V020","170,1,N,0030,1","22000,1,9,N","010000,1,N,1","+0300,1","+0248,1","10121,1","06,0000,9,1",,,,"0,1,03,1","0,1,03,1","01,1,+00660,9,09,9",,,"04,99,1,04,1,09,1,00800,1,00,1,00,1",,"01,9",,,,"99999,9,10117,1","2,1,023,1,+028,1","13,1",,"SYN118AAXX  02031 76458 31560 41703 10300 20248 30117 40121 52023 71300 84900 90245 333 0/1// 30/// 57919 58028 81922 83823;","Q01  00002PRCP06"
"76458099999","2004-08-02T15:00:00","4","23.2","-106.4166666","4.0","COLONIA JUAN CARRASCO MAZATLAN SIN., MX","FM-12","99999","V020","360,1,N,0020,1","22000,1,9,N","018000,1,N,1","+0293,1","+0249,1","10122,1","06,0000,9,1",,,,,,"01,1,+00540,9,08,9",,,"02,99,1,01,1,02,1,00800,1,00,1,09,1",,"01,9",,,,"99999,9,10118,1","2,1,005,1,+010,1",,,"SYN112AAXX  02151 76458 32568 23602 10293 20249 30118 40122 52005 81209 91450 333 0/2/0 30/// 57847 58010 81818 81070;","Q01  00002PRCP06"
"76458099999","2004-08-02T18:00:00","4","23.2","-106.4166666","4.0","COLONIA JUAN CARRASCO MAZATLAN SIN., MX","FM-12","99999","V020","210,1,N,0030,1","22000,1,9,N","020000,1,N,1","+0322,1","+0238,1","10125,1","06,0000,9,1",,,,,,"02,1,+01050,9,08,9",,,"02,99,1,02,1,02,1,01250,1,00,1,00,1",,"01,9",,"120,M,+0344,1","240,N,+0278,1","99999,9,10121,1","0,1,003,1,+006,1",,,"SYN118AAXX  02181 76458 32670 22103 10322 20238 30121 40125 50003 82200 91755 333 04300 10344 20278 30/// 57836 58006 82835;","Q01  00002PRCP06"
"76458099999","2004-08-02T21:00:00","4","23.2","-106.4166666","4.0","COLONIA JUAN CARRASCO MAZATLAN SIN., MX","FM-12","99999","V020","240,1,N,0030,1","22000,1,9,N","020000,1,N,1","+0320,1","+0245,1","10115,1","06,0000,9,1",,,,,,"01,1,+00960,9,09,9",,,"02,99,1,01,1,09,1,00800,1,00,1,05,1",,"01,9",,,,"99999,9,10110,1","7,1,011,1,+000,1",,,"SYN112AAXX  02211 76458 32570 22403 10320 20245 30110 40115 57011 81905 92050 333 07109 30/// 57911 58000 81932 81079;","Q01  00002PRCP06"
"76458099999","2004-08-03T00:00:00","4","23.2","-106.4166666","4.0","COLONIA JUAN CARRASCO MAZATLAN SIN., MX","FM-12","99999","V020","260,1,N,0040,1","22000,1,9,N","020000,1,N,1","+0322,1","+0256,1","10097,1","06,0000,9,1","24,0000,9,1",,,,,"01,1,+02400,9,04,9",,,"02,99,1,01,1,99,9,02250,1,02,1,99,9",,"01,9",,"120,M,+0345,1","180,N,+0278,1","99999,9,10093,1","7,1,017,1,-001,1",,,"SYN124AAXX  03001 76458 32870 22604 10322 20256 30093 40097 57017 81/2/ 92340 333 10345 20278 30/// 50581 59001 70000 81458 81070;","Q01  00002PRCP06"
"76458099999","2004-08-03T03:00:00","4","23.2","-106.4166666","4.0","COLONIA JUAN CARRASCO MAZATLAN SIN., MX","FM-12","99999","V020","290,1,N,0040,1","22000,1,9,N","008000,1,N,1","+0306,1","+0253,1","10100,1","06,0000,9,1",,,,,,"03,1,+06000,9,00,9",,,"03,99,1,00,1,99,9,99999,9,99,9,06,1",,"01,9",,,,"99999,9,10095,1","3,1,002,1,-022,1",,,"SYN094AAXX  03031 76458 32958 32904 10306 20253 30095 40100 53002 80//6 90240 333 30/// 59022 83070;","Q01  00002PRCP06"
"76458099999","2004-08-03T12:00:00","4","23.2","-106.4166666","4.0","COLONIA JUAN CARRASCO MAZATLAN SIN., MX","FM-12","99999","V020","360,1,N,0020,1","03600,1,9,N","008000,1,N,1","+0285,1","+0227,1","10096,1","06,0000,9,1","24,0000,9,1",,,,,"03,1,+00510,9,06,9",,,"05,99,1,03,1,03,1,00800,1,04,1,00,1",,"01,9","999,+0270,9","999,M,+0345,1","120,N,+0281,1","99999,9,10091,1","5,1,004,1,-021,1",,,"SYN130AAXX  03121 76458 32558 53602 10285 20227 30091 40096 55004 83340 91145 333 0/39/ 10345 20281 30027 57645 59021 70000 83617 82335;","Q01  00002PRCP06"
"76458099999","2004-08-03T15:00:00","4","23.2","-106.4166666","4.0","COLONIA JUAN CARRASCO MAZATLAN SIN., MX","FM-12","99999","V020","180,1,N,0060,1","00300,1,9,N","013000,1,N,1","+0287,1","+0267,1","10111,1","02,0020,9,1",,,,"9,1,03,1","5,1,03,1","05,1,+00300,9,05,9","03,1,+00390,9,09,9",,"08,99,1,03,1,09,1,00800,1,02,1,99,9",,"11,9",,,,"99999,9,10107,1","1,1,015,1,-011,1","18,1","4,01,0100,1","SYN136AAXX  03151 76458 21563 81806 10287 20267 30107 40111 51015 71895 8392/ 91445 333 0/33/ 32/// 57961 59011 60026 85510 83913 91010 91517;",
"76458099999","2004-08-03T18:00:00","4","23.2","-106.4166666","4.0","COLONIA JUAN CARRASCO MAZATLAN SIN., MX","FM-12","99999","V020","060,1,N,0020,1","03600,1,C,N","018000,1,N,1","+0264,1","+0243,1","10137,1","03,0110,9,1","06,0130,9,1",,,"6,1,06,1","6,1,06,1","02,1,+00270,9,08,9","02,1,+00720,9,05,9",,"07,99,1,02,1,02,1,00250,1,02,1,00,1",,"09,9",,"120,M,+0292,1","240,N,+0242,1","99999,9,10133,1","2,1,026,1,+012,1","50,1",,"SYN148AAXX  03181 76458 01368 70602 10264 20243 30133 40137 52026 60131 75066 82220 91755 333 04990 10292 20242 31/// 57897 58012 60117 82809 82524 83358;",
"76458099999","2004-08-03T21:00:00","4","23.2","-106.4166666","4.0","COLONIA JUAN CARRASCO MAZATLAN SIN., MX","FM-12","99999","V020","270,1,N,0030,1","00690,1,9,N","020000,1,N,1","+0299,1","+0243,1","10116,1","03,0001,9,1",,,,"5,1,03,1","5,1,03,1","05,1,+00690,9,08,9",,,"07,99,1,05,1,02,1,00800,1,00,1,05,1",,"09,9",,,,"99999,9,10112,1","7,1,021,1,+001,1","02,1",,"SYN124AAXX  03211 76458 21570 72703 10299 20243 30112 40116 57021 70255 85205 92050 333 01709 31/// 57871 58001 69917 85823 82079;",
"76458099999","2004-08-04T03:00:00","4","23.2","-106.4166666","4.0","COLONIA JUAN CARRASCO MAZATLAN SIN., MX","FM-12","99999","V020","290,1,N,0030,1","03600,1,C,N","010000,1,N,1","+0290,1","+0248,1","10107,1","06,0000,9,1",,,,"0,1,03,1","0,1,03,1","02,1,+00510,9,09,9","01,1,+03600,9,03,9",,"07,99,1,02,1,09,1,00450,1,03,1,08,1",,"01,9",,,,"99999,9,10103,1","2,1,012,1,+008,1","17,1",,"SYN124AAXX  04031 76458 31460 72903 10290 20248 30103 40107 52012 71700 82938 90245 333 0/199 30/// 57919 58008 82917 81362 84268;","Q01  00002PRCP06"
"76458099999","2004-08-04T06:00:00","4","23.2","-106.4166666","4.0","COLONIA JUAN CARRASCO MAZATLAN SIN., MX","FM-12","99999","V020","350,1,N,0010,1","22000,1,9,N","008000,1,N,1","+0280,1","+0242,1","10126,1","06,0000,9,1",,,,,,"01,1,+00480,9,06,9",,,"05,99,1,01,1,05,1,00450,1,00,1,08,1","0300,9","01,9",,"240,M,+0321,1","240,N,+0240,1","99999,9,10122,1","2,1,019,1,+017,1",,,"SYN130AAXX  04061 76458 32458 53501 10280 20242 30122 40126 52019 81508 90558 333 0/909 10321 20240 30/// 55050 27196 58017 81616 84272;","Q01  00002PRCP06"
"76458099999","2004-08-04T12:00:00","4","23.2","-106.4166666","4.0","COLONIA JUAN CARRASCO MAZATLAN SIN., MX","FM-12","99999","V020","010,1,N,0010,1","99999,9,9,N","012000,1,N,1","+0262,1","+0242,1","10116,1","06,0000,9,1","24,0128,9,1",,,,,"04,1,+03300,9,03,9",,,"05,99,1,04,1,00,1,99999,9,03,1,05,1",,"01,9","999,+0250,9","999,M,+0321,1","120,N,+0260,1","99999,9,10112,1","5,1,003,1,+020,1",,,"SYN124AAXX  04121 76458 32962 50101 10262 20242 30112 40116 55003 84035 91156 333 0/099 10321 20260 30025 58020 70128 84361 81079;","Q01  00002PRCP06"
"76458099999","2004-08-04T15:00:00","4","23.2","-106.4166666","4.0","COLONIA JUAN CARRASCO MAZATLAN SIN., MX","FM-12","99999","V020","120,1,N,0020,1","22000,1,9,N","016000,1,N,1","+0292,1","+0248,1","10120,1","06,0000,9,1",,,,,,"01,1,+00540,9,08,9","01,1,+01500,9,03,9",,"03,99,1,01,1,02,1,00450,1,03,1,01,1",,"01,9",,,,"99999,9,10116,1","2,1,004,1,+009,1",,,"SYN118AAXX  04151 76458 32466 31202 10292 20248 30116 40120 52004 81231 91450 333 04599 30/// 57858 58009 81818 81350 81079;","Q01  00002PRCP06"
"76458099999","2004-08-04T18:00:00","4","23.2","-106.4166666","4.0","COLONIA JUAN CARRASCO MAZATLAN SIN., MX","FM-12","99999","V020","230,1,N,0030,1","22000,1,9,N","018000,1,N,1","+0314,1","+0243,1","10122,1","06,0000,9,1",,,,,,"03,1,+00870,9,08,9",,,"03,99,1,03,1,02,1,00800,1,00,1,00,1",,"01,9",,"120,M,+0321,1","240,N,+0256,1","99999,9,10118,1","1,1,003,1,-015,1",,,"SYN118AAXX  04181 76458 32568 32303 10314 20243 30118 40122 51003 83200 91745 333 0/1// 10321 20256 30/// 57816 59015 83829;","Q01  00002PRCP06"
"76458099999","2004-08-04T21:00:00","4","23.2","-106.4166666","4.0","COLONIA JUAN CARRASCO MAZATLAN SIN., MX","FM-12","99999","V020","270,1,N,0040,1","22000,1,9,N","020000,1,N,1","+0320,1","+0254,1","10112,1","06,0000,9,1",,,,,,"01,1,+00810,9,09,9",,,"01,99,1,01,1,03,1,00800,1,00,1,00,1",,"01,9",,,,"99999,9,10107,1","7,1,011,1,-005,1",,,"SYN106AAXX  04211 76458 32570 12704 10320 20254 30107 40112 57011 81300 92046 333 0/1// 30/// 57911 59005 81927;","Q01  00002PRCP06"
"76458099999","2004-08-05T00:00:00","4","23.2","-106.4166666","4.0","COLONIA JUAN CARRASCO MAZATLAN SIN., MX","FM-12","99999","V020","270,1,N,0030,1","99999,9,9,N","020000,1,N,1","+0314,1","+0242,1","10105,1","06,0000,9,1","24,0000,9,1",,,,,"04,1,+02400,9,04,9",,,"06,99,1,06,1,99,9,02250,1,02,1,99,9",,"01,9",,"120,M,+0340,1","180,N,+0256,1","99999,9,10101,1","6,1,006,1,+010,1",,,"SYN124AAXX  05001 76458 32870 62703 10314 20242 30101 40105 56006 86/2/ 92340 333 10340 20256 30/// 50451 58010 70000 84458 82356;","Q01  00002PRCP06"
"76458099999","2004-08-05T03:00:00","4","23.2","-106.4166666","4.0","COLONIA JUAN CARRASCO MAZATLAN SIN., MX","FM-12","99999","V020","290,1,N,0020,1","22000,1,9,N","020000,1,N,1","+0304,1","+0236,1","10119,1","06,0000,9,1",,,,"0,1,03,1","0,1,03,1","01,1,+00840,9,09,9",,,"03,99,1,01,1,09,1,00800,1,03,1,99,9",,"01,9",,,,"99999,9,10115,1","2,1,014,1,+012,1","13,1",,"SYN118AAXX  05031 76458 31570 32902 10304 20236 30115 40119 52014 71300 8193/ 90240 333 0/19/ 30/// 57910 58012 81928 82356;","Q01  00002PRCP06"
"76458099999","2004-08-05T09:00:00","4","23.2","-106.4166666","4.0","COLONIA JUAN CARRASCO MAZATLAN SIN., MX","FM-12","99999","V020","999,9,C,0000,1","22000,1,9,N","008000,1,N,1","+0278,1","+0240,1","10120,1","06,0000,9,1",,,,,,"01,1,+02400,9,03,9",,,"02,99,1,99,9,00,1,99999,9,03,1,06,1",,"01,9",,,,"99999,9,10116,1","7,1,002,1,+001,1",,,"SYN106AAXX  05091 76458 32958 20000 10278 20240 30116 40120 57002 80036 90850 333 0/009 30/// 58001 81358 81072;","Q01+000002SCOTLCQ02  00002PRCP06"
"76458099999","2004-08-05T12:00:00","4","23.2","-106.4166666","4.0","COLONIA JUAN CARRASCO MAZATLAN SIN., MX","FM-12","99999","V020","360,1,N,0020,1","22000,1,9,N","008000,1,N,1","+0285,1","+0244,1","10118,1","06,0000,9,1","24,0000,9,1",,,,,"03,1,+01080,9,06,9",,,"03,99,1,03,1,99,9,99999,9,09,1,00,1",,"01,9","999,+0260,9","999,M,+0340,1","120,N,+0256,1","99999,9,10114,1","7,1,002,1,+002,1",,,"SYN118AAXX  05121 76458 32958 33602 10285 20244 30114 40118 57002 83090 91145 333 0//0/ 10340 20256 30026 58002 70000 83636;","Q01+000002SCOLCGQ02  00002PRCP06"
"76458099999","2004-08-05T18:00:00","4","23.2","-106.4166666","4.0","COLONIA JUAN CARRASCO MAZATLAN SIN., MX","FM-12","99999","V020","210,1,N,0020,1","22000,1,9,N","020000,1,N,1","+0316,1","+0235,1","10133,1","06,0000,9,1",,,,,,"01,1,+01020,9,08,9",,,"04,99,1,01,1,02,1,01250,1,03,1,99,9",,"01,9",,"120,M,+0342,1","240,N,+0250,1","99999,9,10128,1","0,1,002,1,+010,1",,,"SYN124AAXX  05181 76458 32670 42102 10316 20235 30128 40133 50002 8123/ 91740 333 0119/ 10342 20250 30/// 57813 58010 81834 83356;","Q01  00002PRCP06"
"76458099999","2004-08-05T21:00:00","4","23.2","-106.4166666","4.0","COLONIA JUAN CARRASCO MAZATLAN SIN., MX","FM-12","99999","V020","240,1,N,0020,1","03600,1,C,N","020000,1,N,1","+0326,1","+0234,1","10124,1","06,0000,9,1",,,,,,"01,1,+01140,9,09,9","03,1,+02400,9,04,9",,"05,99,1,01,1,09,1,01250,1,02,1,99,9",,"01,9",,,,"99999,9,10120,1","7,1,008,1,+013,1",,,"SYN118AAXX  05211 76458 32670 52402 10326 20234 30120 40124 57008 8192/ 92045 333 0/49/ 30/// 57944 58013 81938 83458 81356;","Q01  00002PRCP06"
"76458099999","2004-08-06T00:00:00","4","23.2","-106.4166666","4.0","COLONIA JUAN CARRASCO MAZATLAN SIN., MX","FM-12","99999","V020","330,1,N,0030,1","02700,1,9,N","020000,1,N,1","+0305,1","+0225,1","10115,1","06,0000,9,1","24,0000,9,1",,,,,"03,1,+00990,9,08,9","02,1,+02700,9,03,9",,"07,99,1,03,1,07,1,01250,1,05,1,02,1",,"01,9",,"120,M,+0349,1","180,N,+0250,1","99999,9,10110,1","7,1,009,1,+009,1",,,"SYN136AAXX  06001 76458 32670 73303 10305 20225 30110 40115 57009 83752 92358 333 0/490 10349 20250 30/// 50561 58009 70000 83833 82359 82463;","Q01  00002PRCP06"
"76458099999","2004-08-06T03:00:00","4","23.2","-106.4166666","4.0","COLONIA JUAN CARRASCO MAZATLAN SIN., MX","FM-12","99999","V020","350,1,N,0030,1","00960,1,9,N","018000,1,N,1","+0290,1","+0213,1","10118,1","06,0000,9,1",,,,,,"07,1,+00960,9,08,9",,,"07,99,1,07,1,07,1,00800,1,00,1,00,1",,"01,9",,,,"99999,9,10114,1","2,1,004,1,-001,1",,,"SYN100AAXX  06031 76458 32568 73503 10290 20213 30114 40118 52004 87700 90250 333 0/400 30/// 59001 87832;","Q01  00002PRCP06"
"76458099999","2004-08-06T15:00:00","4","23.2","-106.4166666","4.0","COLONIA JUAN CARRASCO MAZATLAN SIN., MX","FM-12","99999","V020","030,1,N,0010,1","02400,1,9,N","015000,1,N,1","+0272,1","+0239,1","10131,1","06,0000,9,1",,,,,,"05,1,+02400,9,03,9",,,"07,99,1,05,1,00,1,99999,9,03,1,08,1",,"01,9",,,,"99999,9,10127,1","1,1,003,1,+000,1",,,"SYN106AAXX  06151 76458 32965 70301 10272 20239 30127 40131 51003 85038 91445 333 0//00 30/// 58000 85358 82270;","Q01  00002PRCP06"
"76458099999","2004-08-06T18:00:00","4","23.2","-106.4166666","4.0","COLONIA JUAN CARRASCO MAZATLAN SIN., MX","FM-12","99999","V020","250,1,N,0030,1","02400,1,9,N","020000,1,N,1","+0300,1","+0242,1","10141,1","06,0000,9,1",,,,,,"02,1,+00660,9,08,9","04,1,+02400,9,03,9",,"07,99,1,02,1,02,1,00800,1,09,1,09,1",,"01,9",,"120,M,+0320,1","240,N,+0257,1","99999,9,10136,1","1,1,009,1,+008,1",,,"SYN130AAXX  06181 76458 32570 72503 10300 20242 30136 40141 51009 82299 91748 333 0/600 10320 20257 30/// 57865 58008 82822 84358 81268;","Q01  00002PRCP06"
"76458099999","2004-08-06T21:00:00","4","23.2","-106.4166666","4.0","COLONIA JUAN CARRASCO MAZATLAN SIN., MX","FM-12","99999","V020","250,1,N,0040,1","03600,1,C,N","020000,1,N,1","+0317,1","+0186,1","10123,1","06,0000,9,1",,,,,,"02,1,+01020,9,08,9","02,1,+02400,9,03,9",,"06,99,1,02,1,01,1,01250,1,09,1,09,1",,"01,9",,,,"99999,9,10118,1","6,1,017,1,-001,1",,,"SYN118AAXX  06211 76458 32670 62504 10317 20186 30118 40123 56017 82199 92045 333 0/100 30/// 57816 59001 82834 82358 82270;","Q01  00002PRCP06"
"76458099999","2004-08-07T03:00:00","4","23.2","-106.4166666","4.0","COLONIA JUAN CARRASCO MAZATLAN SIN., MX","FM-12","99999","V020","300,1,N,0050,1","22000,1,9,N","008000,1,N,1","+0298,1","+0253,1","10116,1","06,0000,9,1",,,,,,"01,1,+00570,9,06,9",,,"02,99,1,01,1,04,1,00450,1,03,1,99,9",,"01,9",,,,"99999,9,10112,1","3,1,003,1,-002,1",,,"SYN112AAXX  07031 76458 32458 23005 10298 20253 30112 40116 53003 8143/ 90240 333 0079/ 30/// 57670 59002 81619 81356;","Q01  00002PRCP06"
"76458099999","2004-08-07T09:00:00","4","23.2","-106.4166666","4.0","COLONIA JUAN CARRASCO MAZATLAN SIN., MX","FM-12","99999","V020","330,1,N,0020,1","22000,1,9,N","008000,1,N,1","+0284,1","+0249,1","10112,1","06,0000,9,1",,,,,,"02,1,+06600,9,06,9",,,"02,99,1,99,9,00,1,99999,9,00,1,08,1",,"01,9",,,,"99999,9,10108,1","7,1,006,1,-007,1",,,"SYN100AAXX  07091 76458 32958 23302 10284 20249 30108 40112 57006 80008 90850 333 0/009 30/// 59007 82672;","Q01+000002SCOTLCQ02  00002PRCP06"
"76458099999","2004-08-07T15:00:00","4","23.2","-106.4166666","4.0","COLONIA JUAN CARRASCO MAZATLAN SIN., MX","FM-12","99999","V020","030,1,N,0020,1","22000,1,9,N","016000,1,N,1","+0292,1","+0240,1","10114,1","06,0000,9,1",,,,,,"01,1,+00600,9,09,9",,,"03,99,1,01,1,09,1,01250,1,00,1,03,1",,"01,9",,,,"99999,9,10110,1","1,1,005,1,-017,1",,,"SYN112AAXX  07151 76458 32666 30302 10292 20240 30110 40114 51005 81903 91448 333 0/4/0 30/// 57943 59017 81920 82070;","Q01  00002PRCP06"
"76458099999","2004-08-07T21:00:00","4","23.2","-106.4166666","4.0","COLONIA JUAN CARRASCO MAZATLAN SIN., MX","FM-12","99999","V020","250,1,N,0050,1","22000,1,9,N","020000,1,N,1","+0325,1","+0252,1","10095,1","06,0000,9,1",,,,,,"01,1,+00900,9,09,9","01,1,+00960,9,08,9",,"04,99,1,02,1,02,1,00800,1,00,1,09,1",,"01,9",,,,"99999,9,10090,1","6,1,017,1,-028,1",,,"SYN118AAXX  07211 76458 32570 42505 10325 20252 30090 40095 56017 82209 92045 333 0/7/0 30/// 57975 59028 81930 81832 82068;","Q01  00002PRCP06"
"76458099999","2004-08-08T00:00:00","4","23.2","-106.4166666","4.0","COLONIA JUAN CARRASCO MAZATLAN SIN., MX","FM-12","99999","V020","270,1,N,0070,1","02400,1,C,N","020000,1,N,1","+0314,1","+0256,1","10087,1","06,0000,9,1","24,0000,9,1",,,,,"02,1,+00720,9,09,9","03,1,+02400,9,05,9",,"06,99,1,02,1,09,1,00800,1,02,1,01,1",,"01,9",,"120,M,+0345,1","180,N,+0265,1","99999,9,10083,1","7,1,007,1,-026,1",,,"SYN142AAXX  08001 76458 31570 62707 10314 20256 30083 40087 57007 82921 92340 333 0/899 10345 20265 30/// 50271 57980 59026 70000 82924 83558 81070;","Q01  00002PRCP06"
"76458099999","2004-08-08T03:00:00","4","23.2","-106.4166666","4.0","COLONIA JUAN CARRASCO MAZATLAN SIN., MX","FM-12","99999","V020","300,1,N,0020,1","03600,1,C,N","008000,1,N,1","+0300,1","+0269,1","10109,1","02,0003,9,1",,,,"5,1,03,1","5,1,03,1","02,1,+00390,9,08,9","01,1,+00660,9,09,9",,"07,99,1,03,1,02,1,00250,1,02,1,99,9",,"09,9",,,,"99999,9,10104,1","2,1,011,1,-008,1","13,1",,"SYN136AAXX  08031 76458 01358 73002 10300 20269 30104 40109 52011 69936 71355 8322/ 90240 333 0/79/ 31/// 57870 59008 69936 82813 81922 84458;",
"76458099999","2004-08-08T06:00:00","4","23.2","-106.4166666","4.0","COLONIA JUAN CARRASCO MAZATLAN SIN., MX","FM-12","99999","V020","350,1,N,0010,1","00210,1,9,N","010000,1,N,1","+0284,1","+0264,1","10119,1","03,0005,9,1","06,0010,9,1",,,"5,1,06,1","5,1,06,1",,,,"08,99,1,08,1,07,1,00250,1,00,1,00,1","0582,9","09,9",,"240,M,+0345,1","240,N,+0265,1","99999,9,10114,1","0,1,010,1,+000,1","02,1",,"SYN142AAXX  08061 76458 01360 83501 10284 20264 30114 40119 50010 60011 70255 88700 90558 333 0/900 10345 20265 31/// 55097 20774 58000 69957 88808;",
"76458099999","2004-08-08T09:00:00","4","23.2","-106.4166666","4.0","COLONIA JUAN CARRASCO MAZATLAN SIN., MX","FM-12","99999","V020","120,1,N,0020,1","22000,1,9,N","010000,1,N,1","+0279,1","+0250,1","10110,1","06,0000,9,1",,,,,,"01,1,+02400,9,03,9",,,"01,99,1,01,1,00,1,99999,9,03,1,00,1",,"09,9",,,,"99999,9,10106,1","7,1,009,1,-002,1",,,"SYN100AAXX  08091 76458 32960 11202 10279 20250 30106 40110 57009 81030 90845 333 0/090 31/// 59002 81358;","Q01  00002PRCP06"
"76458099999","2004-08-08T12:00:00","4","23.2","-106.4166666","4.0","COLONIA JUAN CARRASCO MAZATLAN SIN., MX","FM-12","99999","V020","999,9,C,0000,1","22000,1,9,N","012000,1,N,1","+0268,1","+0242,1","10113,1","06,0000,9,1","24,0008,9,1",,,,,"01,1,+00630,9,09,9",,,"02,99,1,01,1,03,1,00450,1,03,1,00,1",,"09,9","999,+0260,9","999,M,+0345,1","120,N,+0266,1","99999,9,10108,1","3,1,003,1,+003,1",,,"SYN130AAXX  08121 76458 32462 20000 10268 20242 30108 40113 53003 81330 91156 333 04510 10345 20266 31026 57951 58003 70008 81921 81358;","Q01  00002PRCP06"
"76458099999","2004-08-08T18:00:00","4","23.2","-106.4166666","4.0","COLONIA JUAN CARRASCO MAZATLAN SIN., MX","FM-12","99999","V020","230,1,N,0030,1","22000,1,9,N","020000,1,N,1","+0320,1","+0258,1","10116,1","06,0000,9,1",,,,,,"01,1,+00810,9,08,9",,,"02,99,1,02,1,02,1,00800,1,00,1,09,1",,"01,9",,"120,M,+0345,1","240,N,+0265,1","99999,9,10112,1","7,1,001,1,-020,1",,,"SYN130AAXX  08181 76458 32570 22303 10320 20258 30112 40116 57001 82209 91748 333 0/4/0 10345 20265 30/// 57945 59020 91926 81827 81068;","Q01  00002PRCP06"
"76458099999","2004-08-08T21:00:00","4","23.2","-106.4166666","4.0","COLONIA JUAN CARRASCO MAZATLAN SIN., MX","FM-12","99999","V020","290,1,N,0030,1","22000,1,9,N","020000,1,N,1","+0328,1","+0265,1","10108,1","06,0000,9,1",,,,,,"01,1,+00780,9,09,9","02,1,+00840,9,08,9",,"04,99,1,03,1,02,1,00800,1,00,1,09,1",,"01,9",,,,"99999,9,10103,1","7,1,002,1,+014,1",,,"SYN118AAXX  08211 76458 32570 42903 10328 20265 30103 40108 57002 83209 92045 333 0/7/0 30/// 57976 58014 81926 82828 81070;","Q01  00002PRCP06"
"76458099999","2004-08-09T03:00:00","4","23.2","-106.4166666","4.0","COLONIA JUAN CARRASCO MAZATLAN SIN., MX","FM-12","99999","V020","040,1,N,0010,1","00840,1,9,N","008000,1,N,1","+0290,1","+0241,1","10116,1","03,0000,9,1",,,,"5,1,03,1","5,1,03,1","02,1,+00600,9,06,9","03,1,+00840,9,09,9",,"06,99,1,05,1,09,1,00800,1,99,9,99,9",,"01,9",,,,"99999,9,10112,1","3,1,013,1,+008,1","13,1",,"SYN136AAXX  09031 76458 01558 60401 10290 20241 30112 40116 53013 69907 71355 859// 90240 333 0/4/9 30/// 57940 58008 69907 83928 82620 81070;","Q01  00002PRCP03"
"76458099999","2004-08-09T15:00:00","4","23.2","-106.4166666","4.0","COLONIA JUAN CARRASCO MAZATLAN SIN., MX","FM-12","99999","V020","030,1,N,0030,1","03600,1,9,N","010000,1,N,1","+0241,1","+0230,1","10145,1","03,0410,9,1",,,,"9,1,03,1","6,1,03,1","04,1,+00300,9,05,9",,,"08,99,1,03,1,09,1,00150,1,02,1,99,9",,"11,9",,,,"99999,9,10140,1","0,1,026,1,+037,1","17,1",,"SYN124AAXX  09151 76458 21260 80303 10241 20230 30140 40145 50026 71796 8392/ 91448 333 0/71/ 32/// 57971 58037 60417 84510 83912;",
"76458099999","2004-08-09T18:00:00","4","23.2","-106.4166666","4.0","COLONIA JUAN CARRASCO MAZATLAN SIN., MX","FM-12","99999","V020","150,1,N,0020,1","22000,1,9,N","020000,1,N,1","+0306,1","+0229,1","10145,1","06,0439,9,1",,,,,,"01,1,+00960,9,08,9","02,1,+03300,9,03,9",,"04,99,1,01,1,02,1,00800,1,03,1,01,1",,"09,9",,"120,M,+0325,1","240,N,+0240,1","99999,9,10140,1","5,1,000,1,+038,1",,,"SYN136AAXX  09181 76458 12570 41502 10306 20229 30140 40145 55000 60441 81231 91755 333 04199 10325 20240 31/// 57818 58038 81832 82361 81079;",
"76458099999","2004-08-10T03:00:00","4","23.2","-106.4166666","4.0","COLONIA JUAN CARRASCO MAZATLAN SIN., MX","FM-12","99999","V020","330,1,N,0020,1","22000,1,9,N","008000,1,N,1","+0296,1","+0239,1","10126,1","06,0000,9,1",,,,,,"00,1,+99999,9,99,9",,,"00,99,1,00,1,00,1,99999,9,00,1,00,1",,"09,9",,,,"99999,9,10122,1","3,1,007,1,+010,1",,,"SYN082AAXX  10031 76458 32958 03302 10296 20239 30122 40126 53007 90240 333 31/// 58010;","Q01  00002PRCP06"
"76458099999","2004-08-10T09:00:00","4","23.2","-106.4166666","4.0","COLONIA JUAN CARRASCO MAZATLAN SIN., MX","FM-12","99999","V020","999,9,C,0000,1","22000,1,9,N","008000,1,N,1","+0270,1","+0240,1","10126,1","06,0000,9,1",,,,,,"00,1,+99999,9,99,9",,,"00,99,1,00,1,00,1,99999,9,00,1,00,1",,"01,9",,,,"99999,9,10122,1","7,1,008,1,+002,1",,,"SYN082AAXX  10091 76458 32958 00000 10270 20240 30122 40126 57008 90858 333 30/// 58002;","Q01  00002PRCP06"
"76458099999","2004-08-10T15:00:00","4","23.2","-106.4166666","4.0","COLONIA JUAN CARRASCO MAZATLAN SIN., MX","FM-12","99999","V020","030,1,N,0010,1","22000,1,9,N","016000,1,N,1","+0286,1","+0232,1","10135,1","06,0000,9,1",,,,,,,,,"02,99,1,01,1,02,1,00800,1,00,1,05,1",,"01,9",,,,"99999,9,10131,1","2,1,007,1,-009,1",,,"SYN110AAXX  10151 76458 32566 20301 10286 20232 30131 40135 52007 81205 91450 333 014/0 30/// 57846 59009 818 81270;","Q01  00002PRCP06"
"76458099999","2004-08-10T18:00:00","4","23.2","-106.4166666","4.0","COLONIA JUAN CARRASCO MAZATLAN SIN., MX","FM-12","99999","V020","220,1,N,0030,1","22000,1,9,N","020000,1,N,1","+0314,1","+0253,1","10135,1","06,0000,9,1",,,,,,"02,1,+00420,9,08,9",,,"02,99,1,02,1,02,1,00800,1,00,1,00,1",,"01,9",,"120,M,+0330,1","240,N,+0257,1","99999,9,10131,1","4,1,000,1,-014,1",,,"SYN118AAXX  10181 76458 32570 22203 10314 20253 30131 40135 54000 82200 91748 333 0/3// 10330 20257 30/// 57837 59014 82814;","Q01  00002PRCP06"
"76458099999","2004-08-10T21:00:00","4","23.2","-106.4166666","4.0","COLONIA JUAN CARRASCO MAZATLAN SIN., MX","FM-12","99999","V020","250,1,N,0040,1","22000,1,9,N","020000,1,N,1","+0332,1","+0257,1","10124,1","06,0000,9,1",,,,,,"02,1,+01110,9,08,9",,,"04,99,1,02,1,02,1,00800,1,09,1,00,1",,"01,9",,,,"99999,9,10119,1","7,1,012,1,-018,1",,,"SYN112AAXX  10211 76458 32570 42504 10332 20257 30119 40124 57012 82290 92048 333 0/39/ 30/// 57836 59018 82837 82358;","Q01  00002PRCP06"
"76458099999","2004-08-11T03:00:00","4","23.2","-106.4166666","4.0","COLONIA JUAN CARRASCO MAZATLAN SIN., MX","FM-12","99999","V020","300,1,N,0040,1","22000,1,9,N","018000,1,N,1","+0304,1","+0254,1","10111,1","06,0000,9,1",,,,,,"01,1,+08700,9,00,9",,,"01,99,1,00,1,00,1,99999,9,00,1,01,1",,"01,9",,,,"99999,9,10107,1","4,1,000,1,-015,1",,,"SYN100AAXX  11031 76458 32968 13004 10304 20254 30107 40111 54001 80001 90250 333 0/009 30/// 59015 81079;","Q01  00002PRCP06"
"76458099999","2004-08-11T12:00:00","4","23.2","-106.4166666","4.0","COLONIA JUAN CARRASCO MAZATLAN SIN., MX","FM-12","99999","V020","350,1,N,0010,1","22000,1,9,N","010000,1,N,1","+0280,1","+0248,1","10114,1","06,0000,9,1","24,0000,9,1",,,,,"03,1,+03300,9,03,9",,,"03,99,1,03,1,00,1,99999,9,03,1,00,1",,"01,9","999,+0260,9","999,M,+0342,1","120,N,+0276,1","99999,9,10110,1","4,1,000,1,+014,1",,,"SYN118AAXX  11121 76458 32960 33501 10280 20248 30110 40114 54003 83030 91150 333 0/010 10342 20276 30026 58014 70000 83361;","Q01  00002PRCP06"
"76458099999","2004-08-11T15:00:00","4","23.2","-106.4166666","4.0","COLONIA JUAN CARRASCO MAZATLAN SIN., MX","FM-12","99999","V020","330,1,N,0010,1","22000,1,9,N","020000,1,N,1","+0285,1","+0245,1","10121,1","06,0000,9,1",,,,,,"01,1,+00900,9,02,9",,,"03,99,1,01,1,02,1,00450,1,03,1,00,1",,"01,9",,,,"99999,9,10116,1","2,1,007,1,-014,1",,,"SYN112AAXX  11151 76458 32470 33301 10285 20245 30116 40121 52007 81230 91455 333 04520 30/// 57857 59014 81817 82361;","Q01  00002PRCP06"
"76458099999","2004-08-11T18:00:00","4","23.2","-106.4166666","4.0","COLONIA JUAN CARRASCO MAZATLAN SIN., MX","FM-12","99999","V020","240,1,N,0020,1","03600,1,C,N","020000,1,N,1","+0314,1","+0264,1","10134,1","06,0000,9,1",,,,,,"04,1,+00630,9,08,9",,,"06,99,1,04,1,02,1,00800,1,05,1,00,1",,"01,9",,"120,M,+0340,1","240,N,+0269,1","99999,9,10129,1","2,1,013,1,-002,1",,,"SYN118AAXX  11181 76458 32570 62402 10314 20264 30129 40134 52013 84250 91750 333 0/790 10340 20269 30/// 59002 84821 82350;","Q01  00002PRCP06"
"76458099999","2004-08-12T09:00:00","4","23.2","-106.4166666","4.0","COLONIA JUAN CARRASCO MAZATLAN SIN., MX","FM-12","99999","V020","360,1,N,0020,1","00390,1,9,N","008000,1,N,1","+0284,1","+0252,1","10130,1","06,0000,9,1",,,,,,"06,1,+00390,9,08,9",,,"08,99,1,06,1,02,1,00250,1,02,1,99,9",,"01,9",,,,"99999,9,10126,1","7,1,007,1,+014,1",,,"SYN112AAXX  12091 76458 32358 83602 10284 20252 30126 40130 57007 8622/ 90840 333 0/89/ 30/// 57880 58014 86813 82458;","Q01  00002PRCP06"
"76458099999","2004-08-12T12:00:00","4","23.2","-106.4166666","4.0","COLONIA JUAN CARRASCO MAZATLAN SIN., MX","FM-12","99999","V020","020,1,N,0020,1","00300,1,9,N","010000,1,N,1","+0276,1","+0252,1","10126,1","03,0004,9,1","06,0005,9,2","24,0004,9,2",,"5,1,06,1","2,1,06,1","08,1,+00300,9,06,9",,,"08,99,1,08,1,05,1,00250,1,00,1,00,1",,"09,9","999,+0260,9","999,M,+0345,1","120,N,+0274,1","99999,9,10122,1","5,1,004,1,+012,1","55,1",,"SYN136AAXX  12121 76458 01360 80202 10276 20252 30122 40126 55004 69941 75552 88500 91150 333 0/400 10345 20274 31026 58012 69947 70004 88610;",
"76458099999","2004-08-12T15:00:00","4","23.2","-106.4166666","4.0","COLONIA JUAN CARRASCO MAZATLAN SIN., MX","FM-12","99999","V020","090,1,N,0010,1","03600,1,C,N","020000,1,N,1","+0274,1","+0233,1","10134,1","03,0370,9,1",,,,,,"01,1,+00510,9,08,9","01,1,+01020,9,09,9","01,1,+03300,9,03,9","05,99,1,03,1,03,1,00450,1,03,1,00,1",,"11,9",,,,"99999,9,10130,1","1,1,008,1,-013,1",,,"SYN130AAXX  12151 76458 21470 50901 10274 20233 30130 40134 51008 83330 91455 333 04740 32/// 57974 59013 60377 81817 81934 81361 82463;",
"76458099999","2004-08-12T18:00:00","4","23.2","-106.4166666","4.0","COLONIA JUAN CARRASCO MAZATLAN SIN., MX","FM-12","99999","V020","250,1,N,0020,1","09000,1,9,N","020000,1,N,1","+0314,1","+0243,1","10139,1","03,0005,9,1","06,0371,9,1",,,"9,1,06,1","6,1,06,1","01,1,+00660,9,08,9","03,1,+99999,9,03,9",,"05,99,1,01,1,02,1,00800,1,06,1,07,1",,"09,9",,"120,M,+0345,1","240,N,+0249,1","99999,9,10134,1","3,1,004,1,+005,1","02,1",,"SYN148AAXX  12181 76458 01570 52502 10314 20243 30134 40139 53004 60371 70296 81267 91748 333 0/100 10345 20249 31/// 57817 58005 69957 81822 83354 81070;",
"76458099999","2004-08-12T21:00:00","4","23.2","-106.4166666","4.0","COLONIA JUAN CARRASCO MAZATLAN SIN., MX","FM-12","99999","V020","230,1,N,0030,1","22000,1,9,N","020000,1,N,1","+0323,1","+0253,1","10122,1","06,0000,9,1",,,,,,"01,1,+00870,9,09,9",,,"02,99,1,01,1,03,1,00800,1,00,1,08,1",,"01,9",,,,"99999,9,10117,1","5,1,017,1,+000,1",,,"SYN112AAXX  12211 76458 32570 22303 10323 20253 30117 40122 55017 81308 92045 333 0/1/9 30/// 57912 58000 81929 81268;","Q01  00002PRCP06"
"76458099999","2004-08-13T00:00:00","4","23.2","-106.4166666","4.0","COLONIA JUAN CARRASCO MAZATLAN SIN., MX","FM-12","99999","V020","240,1,N,0030,1","99999,9,9,N","020000,1,N,1","+0314,1","+0242,1","10112,1","06,0000,9,1","24,0375,9,1",,,,,"04,1,+02400,9,04,9",,,"06,99,1,04,1,99,9,02250,1,02,1,06,1",,"09,9",,"120,M,+0345,1","180,N,+0249,1","99999,9,10107,1","4,1,000,1,-006,1",,,"SYN124AAXX  13001 76458 32870 62403 10314 20242 30107 40112 54010 84/26 92340 333 10345 20249 31/// 50541 59006 70375 84458 82070;","Q01  00002PRCP06"
"76458099999","2004-08-13T03:00:00","4","23.2","-106.4166666","4.0","COLONIA JUAN CARRASCO MAZATLAN SIN., MX","FM-12","99999","V020","030,1,N,0020,1","00900,1,9,N","008000,1,N,1","+0296,1","+0239,1","10131,1","06,0000,9,1",,,,"0,1,03,1","0,1,03,1","02,1,+00720,9,08,9","03,1,+00900,9,09,9",,"08,99,1,05,1,09,1,00800,1,02,1,99,9",,"09,9",,,,"99999,9,10127,1","2,1,020,1,+011,1","29,1",,"SYN124AAXX  13031 76458 31558 80302 10296 20239 30127 40131 52020 72900 8592/ 90240 333 0/89/ 31/// 57980 58011 83930 82824 83458;","Q01  00002PRCP06"
"76458099999","2004-08-13T09:00:00","4","23.2","-106.4166666","4.0","COLONIA JUAN CARRASCO MAZATLAN SIN., MX","FM-12","99999","V020","050,1,N,0020,1","03600,1,C,N","008000,1,N,1","+0262,1","+0247,1","10152,1","06,0061,9,1",,,,"6,1,03,1","6,1,03,1","04,1,+00210,9,08,9",,,"08,99,1,04,1,02,1,00450,1,02,1,00,1",,"09,9",,,,"99999,9,10148,1","2,1,009,1,+022,1","58,1",,"SYN118AAXX  13091 76458 31458 80502 10262 20247 30148 40152 52009 60061 75866 84220 90858 333 0/790 31/// 58022 84807 84458;",
"76458099999","2004-08-13T15:00:00","4","23.2","-106.4166666","4.0","COLONIA JUAN CARRASCO MAZATLAN SIN., MX","FM-12","99999","V020","999,9,C,0000,1","99999,9,9,N","015000,1,N,1","+0267,1","+0247,1","10130,1","06,0000,2,1",,,,,,"03,1,+02400,9,03,9",,,"07,99,1,03,1,00,1,99999,9,03,1,06,1",,"09,9",,,,"99999,9,10126,1","5,1,001,1,-004,1",,,"SYN106AAXX  13151 76458 32965 70000 10267 20247 30126 40130 55001 83036 91450 333 0//00 31/// 59004 83358 84270;",
"76458099999","2004-08-13T18:00:00","4","23.2","-106.4166666","4.0","COLONIA JUAN CARRASCO MAZATLAN SIN., MX","FM-12","99999","V020","280,1,N,0020,1","22000,1,9,N","020000,1,N,1","+0301,1","+0242,1","10134,1","06,0000,9,1",,,,,,"01,1,+00750,9,08,9",,,"03,99,1,01,1,01,1,00800,1,00,1,08,1",,"01,9",,"120,M,+0320,1","240,N,+0247,1","99999,9,10130,1","3,1,004,1,-004,1",,,"SYN124AAXX  13181 76458 32570 32802 10301 20242 30130 40134 53004 81108 91747 333 0/8/9 10320 20247 30/// 57889 59004 81825 82268;","Q01  00002PRCP06"
"76458099999","2004-08-14T00:00:00","4","23.2","-106.4166666","4.0","COLONIA JUAN CARRASCO MAZATLAN SIN., MX","FM-12","99999","V020","270,1,N,0040,1","22000,1,9,N","020000,1,N,1","+0316,1","+0249,1","10118,1","06,0000,9,1","24,0119,9,1",,,,,,,,"01,99,1,01,1,09,1,00800,1,99,9,99,9",,"01,9",,"120,M,+0338,1","180,N,+0245,1","99999,9,10113,1","6,1,007,1,+006,1",,,"SYN124AAXX  14001 76458 32570 12704 10316 20249 30113 40118 56007 819// 92350 333 10338 20245 30/// 50751 57912 58006 70119 81928;","Q01  00002PRCP06"
"76458099999","2004-08-14T15:00:00","4","23.2","-106.4166666","4.0","COLONIA JUAN CARRASCO MAZATLAN SIN., MX","FM-12","99999","V020","090,1,N,0020,1","22000,1,9,N","016000,1,N,1","+0294,1","+0254,1","10137,1","06,0000,9,1",,,,,,"01,1,+00510,9,08,9",,,"03,99,1,01,1,02,1,00450,1,03,1,03,1",,"01,9",,,,"99999,9,10132,1","1,1,009,1,-006,1",,,"SYN112AAXX  14151 76458 32466 30902 10294 20254 30132 40137 51009 81233 91448 333 0/500 30/// 57855 59006 81817 81358;","Q01  00002PRCP06"
"76458099999","2004-08-14T18:00:00","4","23.2","-106.4166666","4.0","COLONIA JUAN CARRASCO MAZATLAN SIN., MX","FM-12","99999","V020","260,1,N,0030,1","22000,1,9,N","020000,1,N,1","+0324,1","+0255,1","10132,1","06,0000,9,1",,,,,,"01,1,+00870,9,08,9",,,"02,99,1,01,1,01,1,00800,1,00,1,08,1",,"01,9",,"120,M,+0343,1","240,N,+0275,1","99999,9,10127,1","7,1,005,1,-003,1",,,"SYN124AAXX  14181 76458 32570 22603 10324 20255 30127 40132 57005 81108 91745 333 0/8/9 10343 20275 30/// 57889 59003 81829 81268;","Q01  00002PRCP06"
"76458099999","2004-08-14T21:00:00","4","23.2","-106.4166666","4.0","COLONIA JUAN CARRASCO MAZATLAN SIN., MX","FM-12","99999","V020","260,1,N,0040,1","22000,1,9,N","020000,1,N,1","+0327,1","+0260,1","10114,1","06,0000,9,1",,,,,,"01,1,+00840,9,08,9",,,"01,99,1,01,1,02,1,00800,1,00,1,00,1",,"01,9",,,,"99999,9,10110,1","7,1,017,1,-010,1",,,"SYN106AAXX  14211 76458 32570 12604 10327 20260 30110 40114 57017 81200 92047 333 0/1// 30/// 57814 59010 81828;","Q01  00002PRCP06"
"76458099999","2004-08-15T00:00:00","4","23.2","-106.4166666","4.0","COLONIA JUAN CARRASCO MAZATLAN SIN., MX","FM-12","99999","V020","270,1,N,0030,1","22000,1,9,N","020000,1,N,1","+0324,1","+0264,1","10101,1","06,0000,9,1","24,0000,9,1",,,,,,,,"01,99,1,01,1,09,1,00800,1,99,9,99,9",,"01,9",,"120,M,+0347,1","180,N,+0275,1","99999,9,10097,1","7,1,013,1,-016,1",,,"SYN130AAXX  15001 76458 32570 12703 10324 20264 30097 40101 57013 819// 92340 333 0/1// 10347 20275 30/// 5//// 57914 59016 70000 81925;","Q01  00002PRCP06"
"76458099999","2004-08-15T03:00:00","4","23.2","-106.4166666","4.0","COLONIA JUAN CARRASCO MAZATLAN SIN., MX","FM-12","99999","V020","290,1,N,0040,1","22000,1,9,N","008000,1,N,1","+0308,1","+0263,1","10106,1","06,0000,9,1",,,,"0,1,03,1","0,1,03,1","01,1,+00570,9,09,9",,,"01,99,1,01,1,09,1,00450,1,99,9,99,9",,"01,9",,,,"99999,9,10102,1","1,1,005,1,-018,1","13,1",,"SYN112AAXX  15031 76458 31458 12904 10308 20263 30102 40106 51005 71300 819// 90240 333 0/2// 30/// 57920 59018 81919;","Q01  00002PRCP06"
"76458099999","2004-08-15T09:00:00","4","23.2","-106.4166666","4.0","COLONIA JUAN CARRASCO MAZATLAN SIN., MX","FM-12","99999","V020","010,1,N,0010,1","00390,1,9,N","010000,1,N,1","+0300,1","+0269,1","10124,1","06,0000,9,1",,,,,,"07,1,+00390,9,08,9",,,"08,99,1,08,1,09,1,00450,1,00,1,00,1",,"01,9",,,,"99999,9,10120,1","7,1,007,1,+999,9",,,"SYN112AAXX  15091 76458 32460 80101 10300 20269 30120 40124 57007 88900 90850 333 07400 30/// 57944 58/// 87813 81934;","Q01  00002PRCP06"
"76458099999","2004-08-15T12:00:00","4","23.2","-106.4166666","4.0","COLONIA JUAN CARRASCO MAZATLAN SIN., MX","FM-12","99999","V020","070,1,N,0020,1","00360,1,9,N","010000,1,N,1","+0290,1","+0262,1","10119,1","06,0000,9,1","24,0000,9,1",,,,,"08,1,+00360,9,08,9",,,"08,99,1,08,1,07,1,00450,1,00,1,00,1",,"01,9","999,+0280,9","999,M,+0347,1","120,N,+0288,1","99999,9,10115,1","6,1,005,1,-008,1",,,"SYN118AAXX  15121 76458 32460 80702 10290 20262 30115 40119 56005 88700 91150 333 0/400 10347 20288 30028 59008 70000 88812;","Q01  00002PRCP06"
"76458099999","2004-08-15T15:00:00","4","23.2","-106.4166666","4.0","COLONIA JUAN CARRASCO MAZATLAN SIN., MX","FM-12","99999","V020","030,1,N,0010,1","22000,1,9,N","020000,1,N,1","+0314,1","+0247,1","10128,1","06,0000,9,1",,,,,,"01,1,+00840,9,08,9",,,"04,99,1,01,1,02,1,00800,1,03,1,00,1",,"01,9",,,,"99999,9,10124,1","2,1,009,1,-008,1",,,"SYN112AAXX  15151 76458 32570 40301 10314 20247 30124 40128 52009 81230 91450 333 04490 30/// 57847 59008 81828 83358;","Q01  00002PRCP06"
"76458099999","2004-08-15T18:00:00","4","23.2","-106.4166666","4.0","COLONIA JUAN CARRASCO MAZATLAN SIN., MX","FM-12","99999","V020","240,1,N,0030,1","22000,1,9,N","016000,1,N,1","+0326,1","+0271,1","10133,1","06,0000,9,1",,,,,,"02,1,+00690,9,08,9",,,"02,99,1,02,1,02,1,00800,1,99,9,99,9",,"01,9",,"120,M,+0345,1","240,N,+0290,1","99999,9,10129,1","2,1,005,1,+002,1",,,"SYN118AAXX  15181 76458 32566 22403 10326 20271 30129 40133 52005 822// 91740 333 018// 10345 20290 30/// 57882 58002 82823;","Q01  00002PRCP06"
"76458099999","2004-08-15T21:00:00","4","23.2","-106.4166666","4.0","COLONIA JUAN CARRASCO MAZATLAN SIN., MX","FM-12","99999","V020","240,1,N,0030,1","22000,1,9,N","016000,1,N,1","+0328,1","+0271,1","10123,1","06,0000,9,1",,,,,,"01,1,+00720,9,08,9",,,"01,99,1,01,1,02,1,00800,1,99,9,99,9",,"01,9",,,,"99999,9,10118,1","8,1,009,1,+008,1",,,"SYN106AAXX  15211 76458 32566 12403 10328 20271 30118 40123 58009 812// 92040 333 018// 30/// 57812 58008 81824;","Q01  00002PRCP06"
"76458099999","2004-08-16T03:00:00","4","23.2","-106.4166666","4.0","COLONIA JUAN CARRASCO MAZATLAN SIN., MX","FM-12","99999","V020","030,1,N,0020,1","00750,1,C,N","010000,1,N,1","+0270,1","+0219,1","10123,1","03,0006,9,1",,,,"2,1,03,1","9,1,03,1","02,1,+00630,9,09,9",,,"06,99,1,06,1,09,1,00800,1,00,1,00,1",,"09,9",,,,"99999,9,10119,1","2,1,013,1,+017,1","13,1",,"SYN124AAXX  16031 76458 21560 60302 10270 20219 30119 40123 52013 71329 86900 90247 333 0/4// 31/// 57949 58017 69967 82921 84622;",
"76458099999","2004-08-16T15:00:00","4","23.2","-106.4166666","4.0","COLONIA JUAN CARRASCO MAZATLAN SIN., MX","FM-12","99999","V020","100,1,N,0030,1","03600,1,C,N","015000,1,N,1","+0290,1","+0226,1","10141,1","06,0000,9,1",,,,,,"01,1,+00660,9,09,9",,,"06,99,1,01,1,03,1,00800,1,03,1,00,1",,"01,9",,,,"99999,9,10136,1","2,1,010,1,+012,1",,,"SYN112AAXX  16151 76458 32565 61003 10290 20226 30136 40141 52010 81330 91448 333 0/50/ 30/// 57952 58012 81922 85358;","Q01  00002PRCP06"
"76458099999","2004-08-16T18:00:00","4","23.2","-106.4166666","4.0","COLONIA JUAN CARRASCO MAZATLAN SIN., MX","FM-12","99999","V020","160,1,N,0030,1","22000,1,9,N","020000,1,N,1","+0325,1","+0249,1","10149,1","06,0000,9,1",,,,,,"02,1,+00960,9,08,9",,,"03,99,1,02,1,99,9,00800,1,00,1,09,1",,"01,9",,"120,M,+0344,1","240,N,+0267,1","99999,9,10145,1","9,9,999,9,+016,1",,,"SYN124AAXX  16181 76458 32570 31603 10325 20249 30145 40149 82009 83300 91750 333 07500 10344 20267 30/// 57952 58016 82832 81934;","Q01+000002SCOLCGQ02  00002PRCP06"
"76458099999","2004-08-16T21:00:00","4","23.2","-106.4166666","4.0","COLONIA JUAN CARRASCO MAZATLAN SIN., MX","FM-12","99999","V020","210,1,N,0040,1","22000,1,9,N","020000,1,N,1","+0332,1","+0262,1","10137,1","06,0000,9,1",,,,,,"02,1,+00870,9,08,9","01,1,+01020,9,09,9",,"04,99,1,03,1,03,1,00800,1,00,1,03,1",,"01,9",,,,"99999,9,10133,1","7,1,012,1,+014,1",,,"SYN118AAXX  16211 76458 32570 42104 10332 20262 30133 40137 57012 83303 92055 333 07101 30/// 57912 58014 82829 81934 81079;","Q01  00002PRCP06"
"76458099999","2004-08-17T00:00:00","4","23.2","-106.4166666","4.0","COLONIA JUAN CARRASCO MAZATLAN SIN., MX","FM-12","99999","V020","210,1,N,0030,1","22000,1,9,N","020000,1,N,1","+0322,1","+0256,1","10125,1","06,0000,9,1","24,0000,9,1",,,,,,,,"02,99,1,02,1,09,1,00800,1,99,9,99,9",,"01,9",,"120,M,+0345,1","180,N,+0267,1","99999,9,10121,1","7,1,012,1,+015,1",,,"SYN130AAXX  17001 76458 32570 22103 10322 20256 30121 40125 57012 829// 92340 333 0/1// 10345 20267 30/// 50611 57912 58015 70000 82928;","Q01  00002PRCP06"
"76458099999","2004-08-17T03:00:00","4","23.2","-106.4166666","4.0","COLONIA JUAN CARRASCO MAZATLAN SIN., MX","FM-12","99999","V020","240,1,N,0020,1","22000,1,9,N","008000,1,N,1","+0308,1","+0252,1","10138,1","06,0000,9,1",,,,"0,1,03,1","0,1,03,1","04,1,+00750,9,09,9",,,"04,99,1,04,1,09,1,00800,1,99,9,99,9",,"01,9",,,,"99999,9,10134,1","2,1,013,1,+015,1","29,1",,"SYN112AAXX  17031 76458 31558 42402 10308 20252 30134 40138 52013 72900 849// 90240 333 0/1// 30/// 57910 58015 84925;","Q01  00002PRCP06"
"76458099999","2004-08-17T12:00:00","4","23.2","-106.4166666","4.0","COLONIA JUAN CARRASCO MAZATLAN SIN., MX","FM-12","99999","V020","330,1,N,0010,1","22000,1,9,N","010000,1,N,1","+0252,1","+0229,1","10132,1","06,0099,9,1","24,0099,9,1",,,,,"00,1,+99999,9,99,9",,,"00,99,1,00,1,00,1,99999,9,00,1,00,1",,"09,9","999,+0230,9","999,M,+0345,1","120,N,+0247,1","99999,9,10128,1","7,1,010,1,+002,1",,,"SYN106AAXX  17121 76458 12960 03301 10252 20229 30128 40132 57010 60101 91148 333 10345 20247 31023 58002 70100;",
"76458099999","2004-08-17T15:00:00","4","23.2","-106.4166666","4.0","COLONIA JUAN CARRASCO MAZATLAN SIN., MX","FM-12","99999","V020","340,1,N,0020,1","22000,1,9,N","018000,1,N,1","+0268,1","+0232,1","10143,1","06,0000,9,1",,,,,,"01,1,+00450,9,08,9","02,1,+02400,9,03,9",,"04,99,1,01,1,02,1,00450,1,03,1,02,1",,"01,9",,,,"99999,9,10139,1","2,1,011,1,+003,1",,,"SYN118AAXX  17151 76458 32468 43402 10268 20232 30139 40143 52011 81232 91445 333 0/100 30/// 57817 58003 81815 82358 81270;","Q01  00002PRCP06"
"76458099999","2004-08-17T18:00:00","4","23.2","-106.4166666","4.0","COLONIA JUAN CARRASCO MAZATLAN SIN., MX","FM-12","99999","V020","240,1,N,0030,1","22000,1,9,N","010000,1,N,1","+0308,1","+0237,1","10144,1","06,0000,9,1",,,,,,"01,1,+00630,9,09,9","01,1,+02400,9,03,9",,"03,99,1,01,1,09,1,00800,1,03,1,08,1",,"01,9",,"120,M,+0331,1","240,N,+0245,1","99999,9,10140,1","0,1,001,1,-010,1",,,"SYN130AAXX  17181 76458 32560 32403 10308 20237 30140 40144 50001 81938 91748 333 0/500 10331 20245 30/// 57955 59010 81921 81358 81270;","Q01  00002PRCP06"
"76458099999","2004-08-17T21:00:00","4","23.2","-106.4166666","4.0","COLONIA JUAN CARRASCO MAZATLAN SIN., MX","FM-12","99999","V020","240,1,N,0040,1","22000,1,9,N","020000,1,N,1","+0316,1","+0240,1","10131,1","06,0000,9,1",,,,,,"02,1,+00930,9,09,9",,,"03,99,1,02,1,09,1,00800,1,00,1,02,1",,"09,9",,,,"99999,9,10126,1","7,1,012,1,-006,1",,,"SYN112AAXX  17211 76458 32570 32404 10316 20240 30126 40131 57012 82902 92050 333 07109 31/// 57912 59006 82931 81079;","Q01  00002PRCP06"
"76458099999","2004-08-18T00:00:00","4","23.2","-106.4166666","4.0","COLONIA JUAN CARRASCO MAZATLAN SIN., MX","FM-12","99999","V020","260,1,N,0030,1","22000,1,9,N","020000,1,N,1","+0321,1","+0241,1","10114,1","06,0000,9,1","24,0100,9,1",,,,,,,,"02,99,1,02,1,03,1,00800,1,00,1,00,1",,"01,9",,"120,M,+0335,1","180,N,+0245,1","99999,9,10110,1","7,1,016,1,-028,1",,,"SYN130AAXX  18001 76458 32570 22603 10321 20241 30110 40114 57016 82300 92345 333 061// 10335 20245 30/// 50681 57912 59028 70100 82933;","Q01  00002PRCP06"
"76458099999","2004-08-18T03:00:00","4","23.2","-106.4166666","4.0","COLONIA JUAN CARRASCO MAZATLAN SIN., MX","FM-12","99999","V020","030,1,N,0040,1","22000,1,C,N","010000,1,N,1","+0298,1","+0228,1","10119,1","06,0000,9,1",,,,,,"01,1,+00870,9,08,9",,,"05,99,1,01,1,01,1,00800,1,00,1,08,1",,"01,9",,,,"99999,9,10115,1","0,1,005,1,-019,1",,,"SYN112AAXX  18031 76458 32560 50304 10298 20228 30115 40119 50005 81108 90245 333 0/8/9 30/// 57889 59019 81829 84268;","Q01  00002PRCP06"
"76458099999","2004-08-18T06:00:00","4","23.2","-106.4166666","4.0","COLONIA JUAN CARRASCO MAZATLAN SIN., MX","FM-12","99999","V020","350,1,N,0030,1","22000,1,9,N","008000,1,N,1","+0270,1","+0204,1","10129,1","06,0000,9,1",,,,,,,,,"04,99,1,99,9,00,1,99999,9,05,1,00,1","0678,9","01,9",,"240,M,+0335,1","240,N,+0245,1","99999,9,10124,1","2,1,009,1,-028,1",,,"SYN124AAXX  18061 76458 32958 43503 10270 20204 30124 40129 52009 80050 90558 333 0/090 10335 20245 30/// 55113 21192 59028 84358;","Q01+000002SCOTLCQ02  00002PRCP06"
"76458099999","2004-08-18T15:00:00","4","23.2","-106.4166666","4.0","COLONIA JUAN CARRASCO MAZATLAN SIN., MX","FM-12","99999","V020","040,1,N,0020,1","22000,1,9,N","020000,1,N,1","+0291,1","+0219,1","10130,1","06,0000,9,1",,,,,,"01,1,+00900,9,09,9",,,"04,99,1,01,1,09,1,00800,1,03,1,00,1",,"01,9",,,,"99999,9,10125,1","2,1,015,1,-013,1",,,"SYN112AAXX  18151 76458 32570 40402 10291 20219 30125 40130 52015 81930 91450 333 07480 30/// 57943 59013 81930 83361;","Q01  00002PRCP06"
"76458099999","2004-08-18T18:00:00","4","23.2","-106.4166666","4.0","COLONIA JUAN CARRASCO MAZATLAN SIN., MX","FM-12","99999","V020","240,1,N,0030,1","22000,1,9,N","020000,1,N,1","+0315,1","+0233,1","10126,1","06,0000,9,1",,,,,,"01,1,+01020,9,08,9",,,"01,99,1,01,1,01,1,01250,1,00,1,00,1",,"01,9",,"120,M,+0338,1","240,N,+0249,1","99999,9,10122,1","7,1,003,1,-018,1",,,"SYN118AAXX  18181 76458 32670 12403 10315 20233 30122 40126 57003 81100 91745 333 0/8// 10338 20249 30/// 57889 59018 81834;","Q01  00002PRCP06"
"76458099999","2004-08-18T21:00:00","4","23.2","-106.4166666","4.0","COLONIA JUAN CARRASCO MAZATLAN SIN., MX","FM-12","99999","V020","250,1,N,0050,1","22000,1,9,N","020000,1,N,1","+0322,1","+0240,1","10111,1","06,0000,9,1",,,,,,"01,1,+00660,9,08,9",,,"02,99,1,01,1,01,1,01250,1,00,1,02,1",,"01,9",,,,"99999,9,10107,1","6,1,015,1,-020,1",,,"SYN112AAXX  18211 76458 32670 22505 10322 20240 30107 40111 56015 81102 92045 333 0/1/0 30/// 57816 59020 81822 81070;","Q01  00002PRCP06"
"76458099999","2004-08-19T03:00:00","4","23.2","-106.4166666","4.0","COLONIA JUAN CARRASCO MAZATLAN SIN., MX","FM-12","99999","V020","270,1,N,0020,1","22000,1,9,N","008000,1,N,1","+0304,1","+0236,1","10122,1","06,0000,9,1",,,,"0,1,03,1","0,1,03,1","01,1,+00840,9,09,9",,,"02,99,1,01,1,09,1,00800,1,99,9,06,1",,"01,9",,,,"99999,9,10117,1","2,1,023,1,+002,1","13,1",,"SYN118AAXX  19031 76458 31558 22702 10304 20236 30117 40122 52023 71300 819/6 90240 333 0/1/9 30/// 57910 58002 81928 81070;","Q01  00002PRCP06"
"76458099999","2004-08-19T12:00:00","4","23.2","-106.4166666","4.0","COLONIA JUAN CARRASCO MAZATLAN SIN., MX","FM-12","99999","V020","360,1,N,0020,1","22000,1,9,N","010000,1,N,1","+0270,1","+0218,1","10118,1","06,0000,9,1","24,0000,9,1",,,,,"02,1,+00600,9,06,9",,,"02,99,1,02,1,04,1,00800,1,00,1,00,1",,"01,9","999,+0250,9","999,M,+0345,1","120,N,+0268,1","99999,9,10114,1","7,1,010,1,+013,1",,,"SYN124AAXX  19121 76458 32560 23602 10270 20218 30114 40118 57010 82400 91148 333 0/4// 10345 20268 30025 57646 58013 70000 82620;","Q01  00002PRCP06"
"76458099999","2004-08-19T15:00:00","4","23.2","-106.4166666","4.0","COLONIA JUAN CARRASCO MAZATLAN SIN., MX","FM-12","99999","V020","360,1,N,0020,1","22000,1,9,N","016000,1,N,1","+0295,1","+0232,1","10133,1","06,0000,9,1",,,,,,"01,1,+00660,9,08,9",,,"02,99,1,01,1,01,1,00800,1,00,1,04,1",,"01,9",,,,"99999,9,10129,1","3,1,015,1,+004,1",,,"SYN112AAXX  19151 76458 32566 23602 10295 20232 30129 40133 53015 81104 91448 333 0/3/0 30/// 57836 58004 81822 81070;","Q01  00002PRCP06"
"76458099999","2004-08-19T18:00:00","4","23.2","-106.4166666","4.0","COLONIA JUAN CARRASCO MAZATLAN SIN., MX","FM-12","99999","V020","190,1,N,0020,1","22000,1,9,N","020000,1,N,1","+0324,1","+0243,1","10136,1","06,0000,9,1",,,,,,"01,1,+01020,9,08,9",,,"01,99,1,01,1,01,1,01250,1,00,1,00,1",,"01,9",,"120,M,+0343,1","240,N,+0260,1","99999,9,10131,1","0,1,002,1,+009,1",,,"SYN118AAXX  19181 76458 32670 11902 10324 20243 30131 40136 50002 81100 91748 333 0/1// 10343 20260 30/// 57811 58009 81834;","Q01  00002PRCP06"
"76458099999","2004-08-19T21:00:00","4","23.2","-106.4166666","4.0","COLONIA JUAN CARRASCO MAZATLAN SIN., MX","FM-12","99999","V020","250,1,N,0040,1","22000,1,9,N","020000,1,N,1","+0321,1","+0250,1","10120,1","06,0000,9,1",,,,,,"01,1,+00900,9,08,9",,,"01,99,1,01,1,01,1,00800,1,00,1,00,1",,"01,9",,,,"99999,9,10116,1","7,1,015,1,+009,1",,,"SYN106AAXX  19211 76458 32570 12504 10321 20250 30116 40120 57015 81100 92047 333 0/1// 30/// 57817 58009 81830;","Q01  00002PRCP06"
"76458099999","2004-08-20T00:00:00","4","23.2","-106.4166666","4.0","COLONIA JUAN CARRASCO MAZATLAN SIN., MX","FM-12","99999","V020","240,1,N,0030,1","22000,1,9,N","020000,1,N,1","+0324,1","+0238,1","10109,1","06,0000,9,1","24,0000,9,1",,,,,,,,"01,99,1,01,1,09,1,01250,1,99,9,99,9",,"01,9",,"120,M,+0345,1","180,N,+0260,1","99999,9,10105,1","6,1,011,1,+011,1",,,"SYN130AAXX  20001 76458 32670 12403 10324 20238 30105 40109 56011 819// 92340 333 0/8// 10345 20260 30/// 50551 57913 58011 70000 81936;","Q01  00002PRCP06"
"76458099999","2004-08-20T03:00:00","4","23.2","-106.4166666","4.0","COLONIA JUAN CARRASCO MAZATLAN SIN., MX","FM-12","99999","V020","300,1,N,0020,1","22000,1,9,N","008000,1,N,1","+0310,1","+0237,1","10125,1","06,0000,9,1",,,,"0,1,03,1","0,1,03,1","01,1,+00900,9,09,9",,,"01,99,1,01,1,09,1,00800,1,99,9,99,9",,"01,9",,,,"99999,9,10120,1","3,1,015,1,+003,1","13,1",,"SYN112AAXX  20031 76458 31558 13002 10310 20237 30120 40125 53015 71300 819// 90240 333 0/7// 30/// 57910 58003 81930;","Q01  00002PRCP06"
"76458099999","2004-08-20T12:00:00","4","23.2","-106.4166666","4.0","COLONIA JUAN CARRASCO MAZATLAN SIN., MX","FM-12","99999","V020","360,1,N,0030,1","22000,1,9,N","008000,1,N,1","+0277,1","+0228,1","10126,1","06,0000,9,1","24,0000,9,1",,,,,"00,1,+99999,9,99,9",,,"00,99,1,00,1,00,1,99999,9,00,1,00,1",,"01,9","999,+0260,9","999,M,+0345,1","120,N,+0275,1","99999,9,10122,1","7,1,006,1,+018,1",,,"SYN100AAXX  20121 76458 32958 03603 10277 20228 30122 40126 57006 91148 333 10345 20275 30026 58018 70000;","Q01  00002PRCP06Q02  00002PRCP24"
"76458099999","2004-08-20T15:00:00","4","23.2","-106.4166666","4.0","COLONIA JUAN CARRASCO MAZATLAN SIN., MX","FM-12","99999","V020","360,1,N,0030,1","22000,1,9,N","020000,1,N,1","+0293,1","+0234,1","10139,1","06,0000,9,1",,,,,,"02,1,+00720,9,08,9",,,"02,99,1,02,1,01,1,00800,1,00,1,00,1",,"01,9",,,,"99999,9,10135,1","2,1,013,1,+006,1",,,"SYN106AAXX  20151 76458 32570 23603 10293 20234 30135 40139 52013 82100 91445 333 0/5// 30/// 57856 58006 82824;","Q01  00002PRCP06"
"76458099999","2004-08-20T21:00:00","4","23.2","-106.4166666","4.0","COLONIA JUAN CARRASCO MAZATLAN SIN., MX","FM-12","99999","V020","230,1,N,0040,1","22000,1,9,N","020000,1,N,1","+0328,1","+0248,1","10120,1","06,0000,9,1",,,,,,"01,1,+00990,9,08,9",,,"02,99,1,01,1,02,1,00800,1,03,1,00,1",,"01,9",,,,"99999,9,10116,1","7,1,013,1,+000,1",,,"SYN112AAXX  20211 76458 32570 22304 10328 20248 30116 40120 57013 81230 92045 333 0/19/ 30/// 57818 58000 81833 81362;","Q01  00002PRCP06"
"76458099999","2004-08-21T03:00:00","4","23.2","-106.4166666","4.0","COLONIA JUAN CARRASCO MAZATLAN SIN., MX","FM-12","99999","V020","250,1,N,0030,1","22000,1,9,N","008000,1,N,1","+0310,1","+0246,1","10120,1","06,0000,9,1",,,,,,"01,1,+00810,9,08,9",,,"02,99,1,01,1,01,1,00800,1,99,9,06,1",,"01,9",,,,"99999,9,10116,1","2,1,016,1,-004,1",,,"SYN112AAXX  21031 76458 32558 22503 10310 20246 30116 40120 52016 811/6 90240 333 007/9 30/// 57870 59004 81827 81070;","Q01  00002PRCP06"
"76458099999","2004-08-21T06:00:00","4","23.2","-106.4166666","4.0","COLONIA JUAN CARRASCO MAZATLAN SIN., MX","FM-12","99999","V020","030,1,N,0010,1","22000,1,9,N","008000,1,N,1","+0300,1","+0252,1","10126,1","06,0000,9,1",,,,,,"00,1,+99999,9,99,9",,,"00,99,1,00,1,00,1,99999,9,00,1,00,1","0672,9","01,9",,"240,M,+0350,1","240,N,+0268,1","99999,9,10121,1","2,1,005,1,+999,9",,,"SYN106AAXX  21061 76458 32958 00301 10300 20252 30121 40126 52005 90558 333 10350 20268 30/// 55112 21246 59011;","Q01  00002PRCP06"
"76458099999","2004-08-21T12:00:00","4","23.2","-106.4166666","4.0","COLONIA JUAN CARRASCO MAZATLAN SIN., MX","FM-12","99999","V020","999,9,C,0000,1","00450,1,9,N","008000,1,N,1","+0275,1","+0239,1","10124,1","06,0000,9,1","24,0000,9,1",,,,,"07,1,+00450,9,06,9",,,"07,99,1,07,1,04,1,00450,1,00,1,00,1",,"01,9","999,+0260,9","999,M,+0350,1","120,N,+0271,1","99999,9,10120,1","3,1,002,1,-002,1",,,"SYN124AAXX  21121 76458 32458 70000 10275 20239 30120 40124 53002 87400 91150 333 0/6// 10350 20271 30026 57669 59002 70000 87615;","Q01  00002PRCP06"
"76458099999","2004-08-21T15:00:00","4","23.2","-106.4166666","4.0","COLONIA JUAN CARRASCO MAZATLAN SIN., MX","FM-12","99999","V020","060,1,N,0020,1","22000,1,9,N","018000,1,N,1","+0295,1","+0253,1","10131,1","06,0000,9,1",,,,"9,1,03,1","9,1,03,1","03,1,+00510,9,08,9",,,"04,99,1,03,1,02,1,00450,1,03,1,00,1",,"01,9",,,,"99999,9,10127,1","2,1,009,1,-006,1","02,1",,"SYN118AAXX  21151 76458 31468 40602 10295 20253 30127 40131 52009 70299 83230 91447 333 0/49/ 30/// 57849 59006 83817 81362;","Q01  00002PRCP06"
"76458099999","2004-08-21T18:00:00","4","23.2","-106.4166666","4.0","COLONIA JUAN CARRASCO MAZATLAN SIN., MX","FM-12","99999","V020","240,1,N,0020,1","22000,1,9,N","015000,1,N,1","+0310,1","+0253,1","10129,1","06,0000,9,1",,,,,,"02,1,+00720,9,08,9",,,"03,99,1,03,1,09,1,00800,1,00,1,00,1",,"01,9",,"120,M,+0342,1","240,N,+0271,1","99999,9,10125,1","4,1,000,1,-004,1",,,"SYN124AAXX  21181 76458 32565 32402 10310 20253 30125 40129 54002 83900 91750 333 07100 10342 20271 30/// 57911 59004 82824 81934;","Q01  00002PRCP06"
"76458099999","2004-08-21T21:00:00","4","23.2","-106.4166666","4.0","COLONIA JUAN CARRASCO MAZATLAN SIN., MX","FM-12","99999","V020","240,1,N,0040,1","22000,1,9,N","020000,1,N,1","+0323,1","+0250,1","10112,1","06,0000,9,1",,,,,,"02,1,+00900,9,08,9",,,"03,99,1,03,1,09,1,00800,1,00,1,00,1",,"01,9",,,,"99999,9,10107,1","2,1,018,1,-009,1",,,"SYN112AAXX  21211 76458 32570 32404 10323 20250 30107 40112 52018 83900 92050 333 07100 30/// 57811 59009 82830 81934;","Q01  00002PRCP06"
"76458099999","2004-08-22T03:00:00","4","23.2","-106.4166666","4.0","COLONIA JUAN CARRASCO MAZATLAN SIN., MX","FM-12","99999","V020","260,1,N,0030,1","22000,1,9,N","008000,1,N,1","+0306,1","+0250,1","10108,1","06,0000,9,1",,,,,,"01,1,+00690,9,08,9",,,"01,99,1,01,1,01,1,00800,1,99,9,99,9",,"01,9",,,,"99999,9,10104,1","2,1,009,1,-012,1",,,"SYN106AAXX  22031 76458 32558 12603 10306 20250 30104 40108 52009 811// 90240 333 007// 30/// 57810 59012 81823;","Q01  00002PRCP06"
"76458099999","2004-08-22T15:00:00","4","23.2","-106.4166666","4.0","COLONIA JUAN CARRASCO MAZATLAN SIN., MX","FM-12","99999","V020","090,1,N,0040,1","09000,1,C,N","020000,1,N,1","+0280,1","+0226,1","10123,1","06,0000,9,1",,,,,,"01,1,+00690,9,08,9","01,1,+01020,9,09,9","01,1,+02400,9,03,9","05,99,1,02,1,09,1,00800,1,03,1,04,1",,"01,9",,,,"99999,9,10118,1","0,1,002,1,-008,1",,,"SYN124AAXX  22151 76458 32570 50904 10280 20226 30118 40123 50002 82934 91450 333 07629 30/// 57963 59008 81823 81934 81358 82079;","Q01  00002PRCP06"
"76458099999","2004-08-22T18:00:00","4","23.2","-106.4166666","4.0","COLONIA JUAN CARRASCO MAZATLAN SIN., MX","FM-12","99999","V020","150,1,N,0030,1","22000,1,9,N","020000,1,N,1","+0316,1","+0228,1","10127,1","06,0000,9,1",,,,,,"01,1,+00600,9,08,9","01,1,+01110,9,09,9",,"03,99,1,02,1,09,1,01250,1,99,9,01,1",,"01,9",,"120,M,+0330,1","240,N,+0249,1","99999,9,10123,1","2,1,005,1,-002,1",,,"SYN130AAXX  22181 76458 32670 31503 10316 20228 30123 40127 52005 829/1 91740 333 0/4/9 10330 20249 30/// 57944 59002 81937 81820 81070;","Q01  00002PRCP06"
"76458099999","2004-08-22T21:00:00","4","23.2","-106.4166666","4.0","COLONIA JUAN CARRASCO MAZATLAN SIN., MX","FM-12","99999","V020","180,1,N,0050,1","22000,1,9,N","020000,1,N,1","+0326,1","+0228,1","10117,1","06,0000,9,1",,,,,,"02,1,+01230,9,09,9",,,"03,99,1,02,1,09,1,01250,1,99,9,01,1",,"01,9",,,,"99999,9,10113,1","7,1,010,1,+006,1",,,"SYN112AAXX  22211 76458 32670 31805 10326 20228 30113 40117 57010 829/1 92040 333 0/1// 30/// 57913 58006 82941 81070;","Q01  00002PRCP06"
"76458099999","2004-08-23T00:00:00","4","23.2","-106.4166666","4.0","COLONIA JUAN CARRASCO MAZATLAN SIN., MX","FM-12","99999","V020","240,1,N,0030,1","22000,1,9,N","020000,1,N,1","+0324,1","+0227,1","10129,1","06,0000,9,1","24,0005,9,1",,,,,"01,1,+01200,9,09,9",,,"02,99,1,01,1,03,1,01250,1,00,1,01,1",,"01,9",,"120,M,+0344,1","180,N,+0249,1","99999,9,10097,1","7,1,016,1,+002,1",,,"SYN136AAXX  23001 76458 32670 22403 10324 20227 30097 40129 57016 81301 92348 333 0/1/9 10344 20249 30/// 50541 57912 58002 70005 81940 81068;","Q01  00002PRCP06"
"76458099999","2004-08-23T03:00:00","4","23.2","-106.4166666","4.0","COLONIA JUAN CARRASCO MAZATLAN SIN., MX","FM-12","99999","V020","230,1,N,0010,1","22000,1,9,N","010000,1,N,1","+0306,1","+0232,1","10098,1","06,0000,9,1",,,,,,"04,1,+03600,9,03,9",,,"04,99,1,04,1,00,1,02250,1,03,1,00,1",,"01,9",,,,"99999,9,10093,1","8,1,004,1,-011,1",,,"SYN106AAXX  23031 76458 32860 42301 10306 20232 30093 40098 58004 84030 90248 333 0//9/ 30/// 57399 59011 84362;","Q01  00002PRCP06"
"76458099999","2004-08-23T15:00:00","4","23.2","-106.4166666","4.0","COLONIA JUAN CARRASCO MAZATLAN SIN., MX","FM-12","99999","V020","140,1,N,0010,1","09000,1,C,N","020000,1,N,1","+0300,1","+0223,1","10120,1","06,0000,9,1",,,,,,"01,1,+00960,9,09,9","01,1,+02700,9,03,9",,"06,99,1,01,1,09,1,00800,1,03,1,04,1",,"01,9",,,,"99999,9,10115,1","2,1,008,1,-003,1",,,"SYN118AAXX  23151 76458 32570 61401 10300 20223 30115 40120 52008 81934 91450 333 07499 30/// 57942 59003 81932 81359 84079;","Q01  00002PRCP06"
"76458099999","2004-08-23T18:00:00","4","23.2","-106.4166666","4.0","COLONIA JUAN CARRASCO MAZATLAN SIN., MX","FM-12","99999","V020","210,1,N,0030,1","22000,1,9,N","020000,1,N,1","+0337,1","+0210,1","10119,1","06,0000,9,1",,,,,,"01,1,+01500,9,08,9",,,"02,99,1,01,1,02,1,01750,1,00,1,05,1",,"01,9",,"120,M,+0355,1","240,N,+0269,1","99999,9,10114,1","4,1,000,1,-008,1",,,"SYN124AAXX  23181 76458 32770 22103 10337 20210 30114 40119 54001 81205 91755 333 04509 10355 20269 30/// 57856 59008 81850 81079;","Q01  00002PRCP06"
"76458099999","2004-08-23T21:00:00","4","23.2","-106.4166666","4.0","COLONIA JUAN CARRASCO MAZATLAN SIN., MX","FM-12","99999","V020","040,1,N,0240,1","09000,1,C,N","020000,1,N,1","+0345,1","+0262,1","10112,1","06,0000,9,1",,,,,,"01,1,+00750,9,09,9","01,1,+00900,9,08,9","02,1,+01800,9,03,9","05,99,1,02,1,02,1,01250,1,03,1,04,1",,"01,9",,,,"99999,9,10107,1","5,1,008,1,-006,1",,,"SYN124AAXX  23211 76458 32670 50424 10345 20262 30107 40112 55008 82234 92045 333 0/300 30/// 57935 59006 81925 81830 82356 81070;","Q01  00002PRCP06"
"76458099999","2004-08-24T00:00:00","4","23.2","-106.4166666","4.0","COLONIA JUAN CARRASCO MAZATLAN SIN., MX","FM-12","99999","V020","270,1,N,0050,1","22000,1,9,N","020000,1,N,1","+0322,1","+0261,1","10105,1","06,0000,9,1","24,0000,9,1",,,,,,,,"04,99,1,04,1,02,1,00800,1,99,9,99,9",,"01,9",,"120,M,+0360,1","180,N,+0269,1","99999,9,10101,1","6,1,006,1,+004,1",,,"SYN130AAXX  24001 76458 32570 42705 10322 20261 30101 40105 56006 842// 92340 333 011// 10360 20269 30/// 50491 57810 58004 70000 84825;","Q01  00002PRCP06"
"76458099999","2004-08-24T03:00:00","4","23.2","-106.4166666","4.0","COLONIA JUAN CARRASCO MAZATLAN SIN., MX","FM-12","99999","V020","300,1,N,0030,1","00750,1,9,N","008000,1,N,1","+0300,1","+0232,1","10128,1","06,0000,9,1",,,,"9,1,03,1","9,1,03,1","03,1,+00900,9,09,9",,,"06,99,1,06,1,09,1,00800,1,99,9,99,9",,"01,9",,,,"99999,9,10124,1","2,1,023,1,+031,1","29,1",,"SYN119AAXX  24031 76458 31558 63003 10300 20232 30124 40128 52023 72999 869/// 90240 333 0/2// 30/// 57910 58031 83930 83628;","Q01  00002PRCP06"
"76458099999","2004-08-24T12:00:00","4","23.2","-106.4166666","4.0","COLONIA JUAN CARRASCO MAZATLAN SIN., MX","FM-12","99999","V020","150,1,N,0020,1","22000,1,9,N","012000,1,N,1","+0264,1","+0243,1","10123,1","06,0000,9,1","24,0005,9,1",,,,,"03,1,+02400,9,03,9",,,"03,99,1,03,1,00,1,99999,9,05,1,00,1",,"01,9","999,+0250,9","999,M,+0360,1","120,N,+0260,1","99999,9,10108,1","9,9,999,9,+001,1",,,"SYN118AAXX  24121 76458 32962 31502 10264 20243 30108 40123 5//// 83050 91148 333 0/080 10360 20260 30025 58001 70005 83358;","Q01  00002PRCP06"
"76458099999","2004-08-24T15:00:00","4","23.2","-106.4166666","4.0","COLONIA JUAN CARRASCO MAZATLAN SIN., MX","FM-12","99999","V020","130,1,N,0010,1","22000,1,9,N","020000,1,N,1","+0295,1","+0234,1","10122,1","06,0000,9,1",,,,,,"01,1,+00780,9,09,9",,,"02,99,1,01,1,09,1,00800,1,00,1,05,1",,"01,9",,,,"99999,9,10118,1","2,1,009,1,+002,1",,,"SYN112AAXX  24151 76458 32570 21301 10295 20234 30118 40122 52009 81905 91450 333 07609 30/// 57962 58002 81926 81079;","Q01  00002PRCP06"
"76458099999","2004-08-24T18:00:00","4","23.2","-106.4166666","4.0","COLONIA JUAN CARRASCO MAZATLAN SIN., MX","FM-12","99999","V020","250,1,N,0030,1","22000,1,C,N","020000,1,N,1","+0311,1","+0249,1","10128,1","06,0000,9,1",,,,,,"01,1,+00660,9,09,9","02,1,+00750,9,08,9",,"05,99,1,03,1,03,1,00800,1,00,1,04,1",,"01,9",,"120,M,+0360,1","240,N,+0260,1","99999,9,10124,1","2,1,006,1,+010,1",,,"SYN130AAXX  24181 76458 32570 52503 10311 20249 30124 40128 52006 83304 91748 333 0/5/0 10360 20260 30/// 57956 58010 81922 82825 82070;","Q01  00002PRCP06"
"76458099999","2004-08-25T00:00:00","4","23.2","-106.4166666","4.0","COLONIA JUAN CARRASCO MAZATLAN SIN., MX","FM-12","99999","V020","280,1,N,0040,1","22000,1,9,N","020000,1,N,1","+0328,1","+0247,1","10099,1","06,0000,9,1","24,0005,9,1",,,,,"01,1,+01020,9,08,9",,,"04,99,1,01,1,01,1,01250,1,00,1,08,1",,"01,9",,"120,M,+0349,1","180,N,+0260,1","99999,9,10095,1","7,1,013,1,-006,1",,,"SYN136AAXX  25001 76458 32670 42804 10328 20247 30095 40099 57013 81108 92347 333 0/5/9 10349 20260 30/// 50491 57859 59006 70005 81834 83268;","Q01  00002PRCP06"
"76458099999","2004-08-25T03:00:00","4","23.2","-106.4166666","4.0","COLONIA JUAN CARRASCO MAZATLAN SIN., MX","FM-12","99999","V020","280,1,N,0040,1","00810,1,9,N","008000,1,N,1","+0315,1","+0250,1","10110,1","06,0000,9,1",,,,,,"07,1,+00810,9,06,9",,,"07,99,1,07,1,04,1,00800,1,00,1,00,1",,"01,9",,,,"99999,9,10106,1","2,1,011,1,-018,1",,,"SYN106AAXX  25031 76458 32558 72804 10315 20250 30106 40110 52011 87400 90245 333 0/7// 30/// 57697 59018 87627;","Q01  00002PRCP06"
"76458099999","2004-08-25T12:00:00","4","23.2","-106.4166666","4.0","COLONIA JUAN CARRASCO MAZATLAN SIN., MX","FM-12","99999","V020","999,9,C,0000,1","22000,1,9,N","010000,1,N,1","+0286,1","+0240,1","10110,1","06,0000,9,1","24,0000,9,1",,,,,"01,1,+00570,9,09,9",,,"03,99,1,01,1,09,1,00450,1,03,1,00,1",,"01,9","999,+0270,9","999,M,+0349,1","120,N,+0284,1","99999,9,10106,1","5,1,000,1,-003,1",,,"SYN130AAXX  25121 76458 32460 30000 10286 20240 30106 40110 55000 81930 91150 333 07490 10349 20284 30027 57941 59003 70000 81919 82359;","Q01  00002PRCP06"
"76458099999","2004-08-25T15:00:00","4","23.2","-106.4166666","4.0","COLONIA JUAN CARRASCO MAZATLAN SIN., MX","FM-12","99999","V020","360,1,N,0050,1","22000,1,9,N","016000,1,N,1","+0303,1","+0249,1","10110,1","06,0000,9,1",,,,,,"01,1,+00660,9,09,9",,,"03,99,1,01,1,03,1,00800,1,00,1,04,1",,"01,9",,,,"99999,9,10105,1","7,1,001,1,-013,1",,,"SYN112AAXX  25151 76458 32566 33605 10303 20249 30105 40110 57001 81304 91448 333 0/4/0 30/// 57946 59013 81922 82070;","Q01  00002PRCP06"
"76458099999","2004-08-25T18:00:00","4","23.2","-106.4166666","4.0","COLONIA JUAN CARRASCO MAZATLAN SIN., MX","FM-12","99999","V020","250,1,N,0030,1","22000,1,9,N","020000,1,N,1","+0329,1","+0252,1","10113,1","06,0000,9,1",,,,,,"01,1,+00960,9,08,9",,,"01,99,1,01,1,02,1,00800,1,00,1,00,1",,"01,9",,"120,M,+0346,1","240,N,+0278,1","99999,9,10108,1","0,1,003,1,-016,1",,,"SYN118AAXX  25181 76458 32570 12503 10329 20252 30108 40113 50003 81200 91750 333 0/1// 10346 20278 30/// 57815 59016 81832;","Q01  00002PRCP06"
"76458099999","2004-08-25T21:00:00","4","23.2","-106.4166666","4.0","COLONIA JUAN CARRASCO MAZATLAN SIN., MX","FM-12","99999","V020","260,1,N,0040,1","22000,1,9,N","020000,1,N,1","+0340,1","+0260,1","10103,1","06,0000,9,1",,,,,,"01,1,+00990,9,08,9",,,"01,99,1,01,1,02,1,00800,1,00,1,00,1",,"01,9",,,,"99999,9,10099,1","7,1,009,1,-009,1",,,"SYN106AAXX  25211 76458 32570 12604 10340 20260 30099 40103 57009 81200 92045 333 0/1// 30/// 57815 59009 81833;","Q01  00002PRCP06"
"76458099999","2004-08-26T03:00:00","4","23.2","-106.4166666","4.0","COLONIA JUAN CARRASCO MAZATLAN SIN., MX","FM-12","99999","V020","300,1,N,0060,1","22000,1,9,N","008000,1,N,1","+0316,1","+0269,1","10101,1","06,0000,9,1",,,,,,"01,1,+00570,9,08,9",,,"01,99,1,01,1,01,1,00450,1,99,9,99,9",,"01,9",,,,"99999,9,10097,1","3,1,010,1,+999,9",,,"SYN100AAXX  26031 76458 32458 13006 10316 20269 30097 40101 53010 811// 90240 333 007// 30/// 57870 81819;","Q01  00002PRCP06"
"76458099999","2004-08-26T06:00:00","4","23.2","-106.4166666","4.0","COLONIA JUAN CARRASCO MAZATLAN SIN., MX","FM-12","99999","V020","330,1,N,0020,1","22000,1,9,N","008000,1,N,1","+0310,1","+0263,1","10106,1","06,0000,9,1",,,,,,,,,"01,99,1,99,9,00,1,99999,9,03,1,00,1","0672,9","01,9",,"240,M,+0346,1","240,N,+0278,1","99999,9,10102,1","2,1,005,1,-013,1",,,"SYN124AAXX  26061 76458 32958 13302 10310 20263 30102 40106 52005 80030 90555 333 0/090 10346 20278 30/// 55112 21137 59013 81358;","Q01+000002SCOTLCQ02  00002PRCP06"
"76458099999","2004-08-26T15:00:00","4","23.2","-106.4166666","4.0","COLONIA JUAN CARRASCO MAZATLAN SIN., MX","FM-12","99999","V020","120,1,N,0020,1","00330,1,9,N","016000,1,N,1","+0293,1","+0267,1","10115,1","06,0000,9,1",,,,,,"07,1,+00330,9,08,9",,,"07,99,1,07,1,07,1,00800,1,00,1,00,1",,"01,9",,,,"99999,9,10111,1","2,1,025,1,+006,1",,,"SYN106AAXX  26151 76458 32566 71202 10293 20267 30111 40115 52025 87700 91448 333 0/4// 30/// 57845 58006 87811;","Q01  00002PRCP06"
"76458099999","2004-08-26T18:00:00","4","23.2","-106.4166666","4.0","COLONIA JUAN CARRASCO MAZATLAN SIN., MX","FM-12","99999","V020","140,1,N,0020,1","09000,1,C,N","016000,1,N,1","+0317,1","+0274,1","10115,1","06,0000,9,1",,,,,,"01,1,+00540,9,08,9",,,"08,99,1,01,1,02,1,00450,1,00,1,08,1",,"01,9",,"120,M,+0323,1","240,N,+0288,1","99999,9,10111,1","0,1,000,1,+003,1",,,"SYN124AAXX  26181 76458 32466 81402 10317 20274 30111 40115 50000 81208 91747 333 0/8/9 10323 20288 30/// 57887 58003 81818 87268;","Q01  00002PRCP06"
"76458099999","2004-08-26T21:00:00","4","23.2","-106.4166666","4.0","COLONIA JUAN CARRASCO MAZATLAN SIN., MX","FM-12","99999","V020","240,1,N,0030,1","09000,1,C,N","018000,1,N,1","+0334,1","+0255,1","10104,1","06,0000,9,1",,,,,,"01,1,+00990,9,08,9",,,"08,99,1,01,1,01,1,00800,1,00,1,08,1",,"01,9",,,,"99999,9,10099,1","7,1,012,1,+000,1",,,"SYN112AAXX  26211 76458 32568 82403 10334 20255 30099 40104 57012 81108 92048 333 0/8/9 30/// 57889 58000 81833 87268;","Q01  00002PRCP06"
"76458099999","2004-08-27T00:00:00","4","23.2","-106.4166666","4.0","COLONIA JUAN CARRASCO MAZATLAN SIN., MX","FM-12","99999","V020","210,1,N,0030,1","02400,1,C,N","018000,1,N,1","+0320,1","+0268,1","10098,1","06,0000,9,1","24,0000,9,1",,,,,"04,1,+00630,9,06,9","02,1,+02400,9,04,9",,"07,99,1,04,1,05,1,00800,1,02,1,06,1",,"01,9",,"120,M,+0355,1","180,N,+0288,1","99999,9,10093,1","6,1,006,1,+006,1",,,"SYN142AAXX  27001 76458 32568 72103 10320 20268 30093 40098 56006 84526 92340 333 0/199 10355 20288 30/// 50681 57610 58006 70000 84621 82458 81070;","Q01  00002PRCP06"
"76458099999","2004-08-27T03:00:00","4","23.2","-106.4166666","4.0","COLONIA JUAN CARRASCO MAZATLAN SIN., MX","FM-12","99999","V020","220,1,N,0030,1","00750,1,C,N","008000,1,N,1","+0310,1","+0266,1","10109,1","06,0000,9,1",,,,"0,1,03,1","0,1,03,1","04,1,+00540,9,06,9",,,"06,99,1,06,1,05,1,00800,1,99,9,99,9",,"01,9",,,,"99999,9,10105,1","3,1,012,1,+008,1","13,1",,"SYN118AAXX  27031 76458 31558 62203 10310 20266 30105 40109 53012 71300 865// 90240 333 0/6// 30/// 57660 58008 84618 82924;","Q01  00002PRCP06"
"76458099999","2004-08-27T15:00:00","4","23.2","-106.4166666","4.0","COLONIA JUAN CARRASCO MAZATLAN SIN., MX","FM-12","99999","V020","160,1,N,0030,1","00300,1,9,N","014000,1,N,1","+0267,1","+0254,1","10134,1","06,0000,9,1",,,,,,"05,1,+00300,9,08,9",,,"08,99,1,05,1,03,1,00250,1,00,1,05,1",,"09,9",,,,"99999,9,10130,1","2,1,015,1,+019,1",,,"SYN112AAXX  27151 76458 32364 81603 10267 20254 30130 40134 52015 85305 91445 333 0/3/0 31/// 57834 58019 85810 83268;","Q01  00002PRCP06"
"76458099999","2004-08-27T18:00:00","4","23.2","-106.4166666","4.0","COLONIA JUAN CARRASCO MAZATLAN SIN., MX","FM-12","99999","V020","120,1,N,0020,1","03600,1,C,N","020000,1,N,1","+0310,1","+0260,1","10137,1","06,0000,9,1",,,,,,"01,1,+00630,9,08,9","02,1,+03600,9,03,9",,"07,99,1,01,1,01,1,00800,1,03,1,08,1",,"01,9",,"120,M,+0320,1","240,N,+0249,1","99999,9,10132,1","0,1,002,1,+021,1",,,"SYN130AAXX  27181 76458 32570 71202 10310 20260 30132 40137 50002 81138 91745 333 0/899 10320 20249 30/// 57889 58021 81821 82362 84268;","Q01  00002PRCP06"
"76458099999","2004-08-27T21:00:00","4","23.2","-106.4166666","4.0","COLONIA JUAN CARRASCO MAZATLAN SIN., MX","FM-12","99999","V020","230,1,N,0020,1","03600,1,9,N","020000,1,N,1","+0314,1","+0240,1","10125,1","06,0000,9,1",,,,,,"01,1,+00930,9,08,9",,,"07,99,1,01,1,01,1,00800,1,03,1,00,1",,"01,9",,,,"99999,9,10121,1","7,1,011,1,+022,1",,,"SYN112AAXX  27211 76458 32570 72302 10314 20240 30121 40125 57011 81130 92047 333 0/89/ 30/// 57888 58022 81831 86362;","Q01  00002PRCP06"
"76458099999","2004-08-28T00:00:00","4","23.2","-106.4166666","4.0","COLONIA JUAN CARRASCO MAZATLAN SIN., MX","FM-12","99999","V020","280,1,N,0050,1","22000,1,9,N","020000,1,N,1","+0314,1","+0292,1","10106,1","06,0000,9,1","24,0078,9,1",,,,,"01,1,+00870,9,09,9","01,1,+01800,9,03,9",,"04,99,1,01,1,09,1,00800,1,03,1,06,1",,"01,9",,"120,M,+0345,1","180,N,+0249,1","99999,9,10102,1","7,1,019,1,+009,1",,,"SYN142AAXX  28001 76458 32570 42805 10314 20292 30102 40106 57019 81936 92340 333 0/199 10345 20249 30/// 50341 57913 58009 70078 81929 81356 82070;","Q01  00002PRCP06"
"76458099999","2004-08-28T03:00:00","4","23.2","-106.4166666","4.0","COLONIA JUAN CARRASCO MAZATLAN SIN., MX","FM-12","99999","V020","330,1,N,0030,1","22000,1,9,N","008000,1,N,1","+0302,1","+0251,1","10120,1","06,0000,9,1",,,,,,"02,1,+01800,9,03,9",,,"04,99,1,02,1,99,9,02250,1,03,1,01,1",,"01,9",,,,"99999,9,10116,1","2,1,014,1,+011,1",,,"SYN100AAXX  28031 76458 32858 43303 10302 20251 30116 40120 52014 82/31 90240 333 30/// 58011 82356 82070;","Q01  00002PRCP06"
"76458099999","2004-08-28T12:00:00","4","23.2","-106.4166666","4.0","COLONIA JUAN CARRASCO MAZATLAN SIN., MX","FM-12","99999","V020","999,9,C,0000,1","99999,9,9,N","010000,1,N,1","+0249,1","+0234,1","10120,1","03,0210,9,1","06,0211,9,1","24,0227,9,1",,"6,1,06,1","0,1,06,1","04,1,+00180,9,09,9",,,"08,99,1,04,1,09,1,00150,1,99,9,99,9",,"11,9","999,+0230,9","999,M,+0345,1","120,N,+0240,1","99999,9,10116,1","2,1,016,1,+001,1","17,1",,"SYN148AAXX  28121 76458 01260 80000 10249 20234 30116 40120 52016 60211 71760 849// 91150 333 0/9// 10345 20240 32023 57999 58001 60217 70227 84906 84507;",
"76458099999","2004-08-28T15:00:00","4","23.2","-106.4166666","4.0","COLONIA JUAN CARRASCO MAZATLAN SIN., MX","FM-12","99999","V020","100,1,N,0030,1","00210,1,9,N","018000,1,N,1","+0249,1","+0231,1","10133,1","03,0010,9,1",,,,"2,1,03,1","5,1,03,1","06,1,+00210,9,06,9","01,1,+00240,9,08,9",,"08,99,1,06,1,04,1,00250,1,02,1,00,1",,"09,9",,,,"99999,9,10129,1","2,1,012,1,-001,1","02,1",,"SYN130AAXX  28151 76458 21368 81003 10249 20231 30129 40133 52012 70225 86420 91445 333 0/49/ 31/// 57649 59001 60017 86607 81808 81462;",
"76458099999","2004-08-28T18:00:00","4","23.2","-106.4166666","4.0","COLONIA JUAN CARRASCO MAZATLAN SIN., MX","FM-12","99999","V020","100,1,N,0020,1","03600,1,C,N","020000,1,N,1","+0293,1","+0233,1","10136,1","03,0000,9,1","06,0211,9,1",,,"4,1,06,1","4,1,06,1","02,1,+00750,9,08,9",,,"07,99,1,02,1,01,1,00800,1,03,1,07,1",,"09,9",,"120,M,+0313,1","240,N,+0241,1","99999,9,10131,1","0,1,002,1,-001,1","02,1",,"SYN136AAXX  28181 76458 31570 71002 10293 20233 30131 40136 50002 60211 70244 82137 91800 333 0/199 10313 20241 31/// 59001 69907 82825 82358;","Q01  00002PRCP03"
"76458099999","2004-08-28T21:00:00","4","23.2","-106.4166666","4.0","COLONIA JUAN CARRASCO MAZATLAN SIN., MX","FM-12","99999","V020","170,1,N,0030,1","01020,1,9,N","020000,1,N,1","+0291,1","+0238,1","10122,1","06,0000,9,1",,,,,,"04,1,+00660,9,08,9","01,1,+01020,9,09,9",,"07,99,1,05,1,09,1,00800,1,00,1,07,1",,"09,9",,,,"99999,9,10118,1","7,1,013,1,-003,1",,,"SYN118AAXX  28211 76458 32570 71703 10291 20238 30118 40122 57013 85907 92058 333 07109 31/// 57911 59003 84822 81934 82276;","Q01  00002PRCP06"
"76458099999","2004-08-29T00:00:00","4","23.2","-106.4166666","4.0","COLONIA JUAN CARRASCO MAZATLAN SIN., MX","FM-12","99999","V020","999,9,C,0000,1","02400,1,9,N","020000,1,N,1","+0294,1","+0237,1","10115,1","06,0000,9,1","24,0213,9,1",,,,,"07,1,+02400,9,04,9",,,"07,99,1,07,1,99,9,02250,1,99,9,99,9",,"01,9",,"120,M,+0320,1","180,N,+0241,1","99999,9,10111,1","6,1,007,1,+009,1",,,"SYN118AAXX  29001 76458 32870 70000 10294 20237 30111 40115 56007 87/// 92340 333 10320 20241 30/// 50541 58009 70213 87458;","Q01  00002PRCP06"
"76458099999","2004-08-29T03:00:00","4","23.2","-106.4166666","4.0","COLONIA JUAN CARRASCO MAZATLAN SIN., MX","FM-12","99999","V020","060,1,N,0020,1","99999,9,9,N","008000,1,N,1","+0280,1","+0242,1","10118,1","06,0000,9,1",,,,,,"01,1,+01800,9,03,9","02,1,+02400,9,04,9",,"05,99,1,04,1,99,9,02250,1,02,1,06,1",,"09,9",,,,"99999,9,10114,1","1,1,003,1,-002,1",,,"SYN106AAXX  29031 76458 32858 50602 10280 20242 30114 40118 51003 84/26 90240 333 31/// 59002 82458 81356 83070;","Q01  00002PRCP06"
"76458099999","2004-08-29T12:00:00","4","23.2","-106.4166666","4.0","COLONIA JUAN CARRASCO MAZATLAN SIN., MX","FM-12","99999","V020","010,1,N,0010,1","03600,1,9,N","010000,1,N,1","+0260,1","+0239,1","10116,1","06,0000,9,1","24,0213,9,1",,,,,"01,1,+00270,9,09,9",,,"05,99,1,01,1,09,1,00250,1,03,1,00,1",,"01,9","999,+0250,9","999,M,+0320,1","120,N,+0258,1","99999,9,10112,1","9,9,999,9,-004,1",,,"SYN128AAXX  29121 76458 32360 50101 10260 20239 30112 40116 5//// 81930 91145 333 07490 10320 20258 30025 57945 59004 70213 81909 848;","Q01  00002PRCP06"
"76458099999","2004-08-29T15:00:00","4","23.2","-106.4166666","4.0","COLONIA JUAN CARRASCO MAZATLAN SIN., MX","FM-12","99999","V020","999,9,C,0000,1","22000,1,9,N","010000,1,N,1","+0281,1","+0239,1","10120,1","06,0000,9,1",,,,,,"01,1,+00540,9,08,9","01,1,+01020,9,09,9","01,1,+02400,9,03,9","04,99,1,01,1,09,1,00450,1,03,1,05,1",,"01,9",,,,"99999,9,10116,1","0,1,004,1,-013,1",,,"SYN124AAXX  29151 76458 32460 40000 10281 20239 30116 40120 50004 81935 91440 333 07699 30/// 57961 59013 81818 81934 81358 81079;","Q01  00002PRCP06"
"76458099999","2004-08-29T18:00:00","4","23.2","-106.4166666","4.0","COLONIA JUAN CARRASCO MAZATLAN SIN., MX","FM-12","99999","V020","180,1,N,0030,1","22000,1,9,N","020000,1,N,1","+0316,1","+0246,1","10123,1","06,0000,9,1",,,,,,"02,1,+00900,9,09,9",,,"04,99,1,04,1,09,1,00800,1,99,9,99,9",,"01,9",,"120,M,+0335,1","240,N,+0256,1","99999,9,10119,1","3,1,003,1,-012,1",,,"SYN124AAXX  29181 76458 32570 41803 10316 20246 30119 40123 53003 849// 91740 333 0/5// 10335 20256 30/// 57951 59012 82930 82221;","Q01  00002PRCP06"
"76458099999","2004-08-29T21:00:00","4","23.2","-106.4166666","4.0","COLONIA JUAN CARRASCO MAZATLAN SIN., MX","FM-12","99999","V020","220,1,N,0030,1","22000,1,9,N","020000,1,N,1","+0216,1","+9999,9","10106,1","06,0000,9,1",,,,,,"01,1,+00720,9,08,9",,,"01,99,1,01,1,02,1,01250,1,99,9,99,9",,"01,9",,,,"99999,9,10101,1","7,1,018,1,-017,1",,,"SYN106AAXX  29211 76458 32670 12203 10216 20235 30101 40106 57018 812// 92040 333 011// 30/// 57814 59017 81824;","Q01  00002PRCP06"
"76458099999","2004-08-30T00:00:00","4","23.2","-106.4166666","4.0","COLONIA JUAN CARRASCO MAZATLAN SIN., MX","FM-12","99999","V020","260,1,N,0040,1","22000,1,9,N","020000,1,N,1","+0314,1","+0236,1","10093,1","06,0000,9,1","24,0000,9,1",,,,,"01,1,+00960,9,08,9",,,"02,99,1,02,1,03,1,00800,1,00,1,00,1",,"01,9",,"120,M,+0339,1","180,N,+0256,1","99999,9,10089,1","7,1,012,1,-022,1",,,"SYN136AAXX  30001 76458 32570 22604 10314 20236 30089 40093 57012 82300 92347 333 0/1// 10339 20256 30/// 50411 57911 59022 70000 81832 81833;","Q01  00002PRCP06"
"76458099999","2004-08-30T03:00:00","4","23.2","-106.4166666","4.0","COLONIA JUAN CARRASCO MAZATLAN SIN., MX","FM-12","99999","V020","320,1,N,0020,1","00750,1,C,N","010000,1,N,1","+0301,1","+0242,1","10103,1","06,0000,9,1",,,,"9,1,03,1","0,1,03,1","01,1,+00750,9,09,9",,,"07,99,1,07,1,09,1,00800,1,00,1,00,1",,"01,9",,,,"99999,9,10099,1","2,1,010,1,-015,1","13,1",,"SYN118AAXX  30031 76458 31560 73202 10301 20242 30099 40103 52010 71390 87900 90245 333 0/8// 30/// 57989 59015 81925 86626;","Q01  00002PRCP06"
"76458099999","2004-08-30T12:00:00","4","23.2","-106.4166666","4.0","COLONIA JUAN CARRASCO MAZATLAN SIN., MX","FM-12","99999","V020","090,1,N,0020,1","00480,1,9,N","010000,1,N,1","+0272,1","+0237,1","10104,1","06,0000,9,1","24,0000,9,1",,,,,"05,1,+00480,9,08,9",,,"07,99,1,07,1,09,1,00450,1,00,1,00,1",,"01,9","999,+0250,9","999,M,+0339,1","120,N,+0264,1","99999,9,10100,1","9,9,999,9,-012,1",,,"SYN130AAXX  30121 76458 32460 70902 10272 20237 30100 40104 5//// 87900 91200 333 07400 10339 20264 30025 57941 59012 70000 85816 82934;","Q01  00002PRCP06"
"76458099999","2004-08-30T15:00:00","4","23.2","-106.4166666","4.0","COLONIA JUAN CARRASCO MAZATLAN SIN., MX","FM-12","99999","V020","030,1,N,0010,1","03600,1,C,N","020000,1,N,1","+0266,1","+0240,1","10109,1","03,9999,9,9",,,,"5,1,03,1","5,1,03,1","01,1,+00330,9,08,9","02,1,+02400,9,03,9",,"07,99,1,01,1,02,1,00450,1,03,1,00,1",,"01,9",,,,"99999,9,10104,1","2,1,005,1,-011,1","02,1",,"SYN130AAXX  30151 76458 21470 70301 10266 20240 30104 40109 52005 70255 81230 91450 333 04590 30/// 57855 59011 69907 81811 82358 84464;","Q01  99992PRCP03"
"76458099999","2004-08-30T18:00:00","4","23.2","-106.4166666","4.0","COLONIA JUAN CARRASCO MAZATLAN SIN., MX","FM-12","99999","V020","200,1,N,0030,1","03600,1,9,N","020000,1,N,1","+0300,1","+0242,1","10111,1","06,0000,9,1",,,,,,"02,1,+00750,9,08,9","02,1,+00900,9,04,9",,"07,99,1,02,1,02,1,00800,1,06,1,00,1",,"01,9",,"120,M,+0339,1","240,N,+0263,1","99999,9,10106,1","4,1,000,1,-012,1",,,"SYN130AAXX  30181 76458 32570 72003 10300 20242 30106 40111 54000 82260 91745 333 0/60/ 10339 20263 30/// 57866 59012 82825 82430 83352;","Q01  00002PRCP06"
"76458099999","2004-08-30T21:00:00","4","23.2","-106.4166666","4.0","COLONIA JUAN CARRASCO MAZATLAN SIN., MX","FM-12","99999","V020","240,1,N,0030,1","01800,1,C,N","020000,1,N,1","+0325,1","+0247,1","10095,1","06,0000,9,1",,,,,,"02,1,+00900,9,08,9","03,1,+01800,9,03,9",,"07,99,1,02,1,02,1,00800,1,04,1,03,1",,"01,9",,,,"99999,9,10091,1","7,1,015,1,-010,1",,,"SYN118AAXX  30211 76458 32570 72403 10325 20247 30091 40095 57015 82243 92045 333 0/100 30/// 57816 59010 82830 83356 81070;","Q01  00002PRCP06"
"76458099999","2004-08-31T00:00:00","4","23.2","-106.4166666","4.0","COLONIA JUAN CARRASCO MAZATLAN SIN., MX","FM-12","99999","V020","270,1,N,0020,1","03600,1,9,N","020000,1,N,1","+0304,1","+0251,1","10094,1","06,0000,9,1",,,,,,"01,1,+00660,9,08,9",,,"07,99,1,01,1,02,1,00800,1,03,1,99,9",,"01,9",,"120,M,+0338,1","180,N,+0263,1","99999,9,10089,1","4,1,000,1,+000,1",,,"SYN130AAXX  31001 76458 32570 72702 10304 20251 30089 40094 54002 8123/ 92350 333 0119/ 10338 20263 30/// 50411 57815 58000 81822 86356;","Q01  00002PRCP06"
"76458099999","2004-08-31T03:00:00","4","23.2","-106.4166666","4.0","COLONIA JUAN CARRASCO MAZATLAN SIN., MX","FM-12","99999","V020","310,1,N,0010,1","02100,1,C,N","008000,1,N,1","+0300,1","+0252,1","10114,1","06,0000,9,1",,,,,,"04,1,+02400,9,04,9",,,"07,99,1,07,1,02,1,02250,1,99,9,99,9",,"01,9",,,,"99999,9,10110,1","2,1,021,1,+011,1",,,"SYN100AAXX  31031 76458 32858 73101 10300 20252 30110 40114 52021 872// 90240 333 30/// 58011 84458 83356;","Q01  00002PRCP06"
"76458099999","2004-08-31T09:00:00","4","23.2","-106.4166666","4.0","COLONIA JUAN CARRASCO MAZATLAN SIN., MX","FM-12","99999","V020","060,1,N,0020,1","02400,1,9,N","008000,1,N,1","+0272,1","+0231,1","10126,1","06,0000,9,1",,,,,,"05,1,+02400,9,03,9",,,"05,99,1,99,9,00,1,99999,9,05,1,00,1",,"01,9",,,,"99999,9,10122,1","7,1,002,1,-002,1",,,"SYN100AAXX  31091 76458 32958 50602 10272 20231 30122 40126 57002 80050 90855 333 0/090 30/// 59002 85358;","Q01+000002SCOTLCQ02  00002PRCP06"
"76458099999","2004-08-31T12:00:00","4","23.2","-106.4166666","4.0","COLONIA JUAN CARRASCO MAZATLAN SIN., MX","FM-12","99999","V020","150,1,N,0010,1","00450,1,9,N","010000,1,N,1","+0275,1","+0240,1","10120,1","06,0000,9,1","24,0000,9,1",,,,,"06,1,+00450,9,08,9",,,"07,99,1,07,1,09,1,00450,1,00,1,00,1",,"01,9","999,+0260,9","999,M,+0338,1","120,N,+0272,1","99999,9,10115,1","7,1,006,1,+016,1",,,"SYN130AAXX  31121 76458 32460 71501 10275 20240 30115 40120 57006 87900 91150 333 07500 10338 20272 30026 57951 58016 79999 86815 81934;","Q01  00002PRCP06Q02  00002PRCP24"
"76458099999","2004-08-31T15:00:00","4","23.2","-106.4166666","4.0","COLONIA JUAN CARRASCO MAZATLAN SIN., MX","FM-12","99999","V020","090,1,N,0020,1","03600,1,C,N","020000,1,N,1","+0273,1","+0244,1","10135,1","03,9999,2,9",,,,"5,1,03,1","5,1,03,1","02,1,+00360,9,08,9","03,1,+01140,9,05,9",,"08,99,1,02,1,02,1,00450,1,05,1,00,1",,"01,9",,,,"99999,9,10131,1","2,1,015,1,+026,1","51,1",,"SYN130AAXX  31151 76458 21470 80902 10273 20244 30131 40135 52015 75155 82250 91450 333 04590 30/// 57855 58026 69907 82812 83538 83358;",
"76458099999","2004-08-31T18:00:00","4","23.2","-106.4166666","4.0","COLONIA JUAN CARRASCO MAZATLAN SIN., MX","FM-12","99999","V020","060,1,N,0010,1","03600,1,C,N","020000,1,N,1","+0277,1","+0241,1","10138,1","03,0004,9,1","06,0005,9,1",,,"5,1,06,1","5,1,06,1","02,1,+00450,9,08,9",,,"08,99,1,02,1,02,1,00450,1,02,1,00,1",,"09,9",,"120,M,+0338,1","240,N,+0270,1","99999,9,10134,1","0,1,003,1,+028,1","50,1",,"SYN142AAXX  31181 76458 01470 80601 10277 20241 30134 40138 50003 69941 75055 82220 91745 333 0450/ 10338 20270 31/// 57855 58028 69947 82815 86458;",
"76458099999","2004-08-31T21:00:00","4","23.2","-106.4166666","4.0","COLONIA JUAN CARRASCO MAZATLAN SIN., MX","FM-12","99999","V020","160,1,N,0030,1","03600,1,C,N","020000,1,N,1","+0310,1","+0238,1","10115,1","06,0000,2,1",,,,,,"02,1,+00660,9,08,9",,,"08,99,1,02,1,02,1,00800,1,02,1,00,1",,"01,9",,,,"99999,9,10110,1","7,1,024,1,+019,1",,,"SYN112AAXX  31211 76458 32570 81603 10310 20238 30110 40115 57024 82220 92045 333 0450/ 30/// 57855 58019 82822 86458;",
"76458099999","2004-09-01T00:00:00","4","23.2","-106.4166666","4.0","COLONIA JUAN CARRASCO MAZATLAN SIN., MX","FM-12","99999","V020","270,1,N,0040,1","22000,1,9,N","020000,1,N,1","+0310,1","+0240,1","10106,1","06,0000,2,1","24,0004,9,1",,,,,"01,1,+00870,9,08,9","01,1,+03600,9,03,9",,"03,99,1,01,1,02,1,00800,1,03,1,08,1",,"01,9",,"120,M,+0330,1","180,N,+0270,1","99999,9,10101,1","5,1,009,1,+012,1",,,"SYN142AAXX  01001 76458 32570 32704 10310 20240 30101 40106 55009 81238 92345 333 0/199 10330 20270 30/// 50251 57812 58012 70004 81829 81362 81268;",
"76458099999","2004-09-01T03:00:00","4","23.2","-106.4166666","4.0","COLONIA JUAN CARRASCO MAZATLAN SIN., MX","FM-12","99999","V020","330,1,N,0010,1","00570,1,9,N","010000,1,N,1","+0297,1","+0252,1","10125,1","01,0001,9,1",,,,"2,1,03,1","0,1,03,1","05,1,+00570,9,06,9",,,"06,99,1,06,1,05,1,00450,1,00,1,00,1",,"09,9",,,,"99999,9,10121,1","2,1,020,1,+011,1","50,1",,"SYN124AAXX  01031 76458 21460 63301 10297 20252 30121 40125 52020 75020 86500 90248 333 0/6// 31/// 57669 58011 69915 85619 81820;",
"76458099999","2004-09-01T06:00:00","4","23.2","-106.4166666","4.0","COLONIA JUAN CARRASCO MAZATLAN SIN., MX","FM-12","99999","V020","360,1,N,0020,1","00420,1,9,N","008000,1,N,1","+0274,1","+0250,1","10137,1","06,0000,2,1",,,,,,,,,"07,99,1,07,1,05,1,00450,1,00,1,00,1","0180,9","01,9",,"240,M,+0330,1","240,N,+0270,1","99999,9,10132,1","2,1,011,1,+008,1",,,"SYN124AAXX  01061 76458 32458 73602 10274 20250 30132 40137 52011 87500 90558 333 0/800 10330 20270 30/// 55030 25339 58008 87610;",
"76458099999","2004-09-01T15:00:00","4","23.2","-106.4166666","4.0","COLONIA JUAN CARRASCO MAZATLAN SIN., MX","FM-12","99999","V020","120,1,N,0010,1","22000,1,C,N","020000,1,N,1","+0252,1","+0234,1","10131,1","03,0001,9,1",,,,"2,1,03,1","5,1,03,1","04,1,+03600,9,03,9",,,"05,99,1,04,1,00,1,02250,1,03,1,08,1",,"09,9",,,,"99999,9,10127,1","5,1,003,1,-004,1","02,1",,"SYN124AAXX  01151 76458 21870 51201 10252 20234 30127 40131 55003 70225 84038 91448 333 0//99 31/// 57399 59004 69917 84362 81268;",
"76458099999","2004-09-01T21:00:00","4","23.2","-106.4166666","4.0","COLONIA JUAN CARRASCO MAZATLAN SIN., MX","FM-12","99999","V020","180,1,N,0020,1","03600,1,C,N","020000,1,N,1","+0301,1","+0243,1","10117,1","06,0000,9,1",,,,,,"01,1,+00750,9,08,9",,,"07,99,1,01,1,02,1,00800,1,05,1,00,1",,"01,9",,,,"99999,9,10112,1","7,1,013,1,+002,1",,,"SYN112AAXX  01211 76458 32570 71802 10301 20243 30112 40117 57013 81250 92058 333 04190 30/// 57815 58002 81825 86358;","Q01  00002PRCP06"
"76458099999","2004-09-02T00:00:00","4","23.2","-106.4166666","4.0","COLONIA JUAN CARRASCO MAZATLAN SIN., MX","FM-12","99999","V020","250,1,N,0030,1","03600,1,9,N","018000,1,N,1","+0304,1","+0245,1","10107,1","06,0000,9,1","24,0049,9,1",,,,,"01,1,+00750,9,08,9","03,1,+02400,9,04,9",,"07,99,1,01,1,02,1,00800,1,02,1,99,9",,"09,9",,"120,M,+0330,1","180,N,+0244,1","99999,9,10103,1","5,1,009,1,+002,1",,,"SYN142AAXX  02001 76458 32568 72503 10304 20245 30103 40107 55009 8122/ 92340 333 0119/ 10330 20244 31/// 50251 57816 58002 70049 81825 83458 83356;","Q01  00002PRCP06"
"76458099999","2004-09-02T06:00:00","4","23.2","-106.4166666","4.0","COLONIA JUAN CARRASCO MAZATLAN SIN., MX","FM-12","99999","V020","350,1,N,0020,1","99999,9,9,N","008000,1,N,1","+0276,1","+0232,1","10131,1","06,0000,9,1",,,,,,,,,"06,99,1,99,9,00,1,99999,9,05,1,00,1","0240,9","01,9",,"240,M,+0330,1","240,N,+0244,1","99999,9,10126,1","2,1,011,1,-006,1",,,"SYN124AAXX  02061 76458 32958 63502 10276 20232 30126 40131 52011 80050 90558 333 0/090 10330 20244 30/// 55040 28356 59006 86358;","Q01+000002SCOTLCQ02  00002PRCP06"
"76458099999","2004-09-02T12:00:00","4","23.2","-106.4166666","4.0","COLONIA JUAN CARRASCO MAZATLAN SIN., MX","FM-12","99999","V020","360,1,N,0020,1","02400,1,9,N","010000,1,N,1","+0263,1","+0221,1","10104,1","06,0000,9,1","24,0000,9,1",,,,,"07,1,+02400,9,03,9",,,"07,99,1,07,1,00,1,99999,9,03,1,00,1",,"01,9","999,+0240,9","999,M,+0330,1","120,N,+0257,1","99999,9,10099,1","7,1,010,1,-031,1",,,"SYN118AAXX  02121 76458 32960 73602 10263 20221 30099 40104 57010 87030 91145 333 0//0/ 10330 20257 30024 59031 70000 87358;","Q01  00002PRCP06"
"76458099999","2004-09-02T15:00:00","4","23.2","-106.4166666","4.0","COLONIA JUAN CARRASCO MAZATLAN SIN., MX","FM-12","99999","V020","360,1,N,0020,1","02400,1,9,N","016000,1,N,1","+0274,1","+0235,1","10113,1","06,0000,9,1",,,,,,"07,1,+02400,9,03,9",,,"07,99,1,07,1,00,1,99999,9,06,1,00,1",,"01,9",,,,"99999,9,10108,1","2,1,009,1,-019,1",,,"SYN100AAXX  02151 76458 32966 73602 10274 20235 30108 40113 52009 87060 91445 333 0//0/ 30/// 59019 87358;","Q01  00002PRCP06"
"76458099999","2004-09-02T18:00:00","4","23.2","-106.4166666","4.0","COLONIA JUAN CARRASCO MAZATLAN SIN., MX","FM-12","99999","V020","260,1,N,0040,1","03600,1,9,N","020000,1,N,1","+0319,1","+0243,1","10112,1","06,0000,9,1",,,,,,"07,1,+03600,9,03,9",,,"07,99,1,07,1,00,1,02250,1,03,1,00,1",,"01,9",,"120,M,+0338,1","240,N,+0255,1","99999,9,10108,1","0,1,000,1,-018,1",,,"SYN118AAXX  02181 76458 32870 72604 10319 20243 30108 40112 50000 87030 91747 333 0//9/ 10338 20255 30/// 57399 59018 87362;","Q01  00002PRCP06"
"76458099999","2004-09-02T21:00:00","4","23.2","-106.4166666","4.0","COLONIA JUAN CARRASCO MAZATLAN SIN., MX","FM-12","99999","V020","240,1,N,0030,1","03600,1,C,N","020000,1,N,1","+0309,1","+0232,1","10103,1","06,0000,9,1",,,,,,"01,1,+00960,9,09,9","02,1,+02400,9,03,9",,"07,99,1,01,1,09,1,00800,1,05,1,00,1",,"01,9",,,,"99999,9,10099,1","8,1,009,1,-014,1",,,"SYN118AAXX  02211 76458 32570 72403 10309 20232 30099 40103 58009 81950 92050 333 07190 30/// 57914 59014 81932 82358 84461;","Q01  00002PRCP06"
"76458099999","2004-09-03T00:00:00","4","23.2","-106.4166666","4.0","COLONIA JUAN CARRASCO MAZATLAN SIN., MX","FM-12","99999","V020","270,1,N,0020,1","03600,1,9,N","020000,1,N,1","+0308,1","+0235,1","10091,1","06,0000,9,1","24,0000,9,1",,"9999,9,9,999999,9,9",,,"01,1,+00900,9,08,9",,,"07,99,1,01,1,02,1,00800,1,02,1,99,9",,"23,9",,"120,M,+0340,1","180,N,+0255,1","99999,9,10087,1","7,1,012,1,-016,1",,,"SYN136AAXX  03001 76458 32570 72702 10308 20235 30087 40091 57012 8122/ 92340 333 0189/ 10340 20255 30/// 50371 47815 59016 70000 81830 86458;","Q01  00002PRCP06Q02  08152SNDP  "
"76458099999","2004-09-03T03:00:00","4","23.2","-106.4166666","4.0","COLONIA JUAN CARRASCO MAZATLAN SIN., MX","FM-12","99999","V020","300,1,N,0020,1","06000,1,9,N","008000,1,N,1","+0302,1","+0231,1","10103,1","06,0000,9,1",,,,,,"06,1,+06000,9,00,9",,,"06,99,1,00,1,99,9,99999,9,99,9,06,1",,"01,9",,,,"99999,9,10099,1","3,1,012,1,-016,1",,,"SYN094AAXX  03031 76458 32958 63002 10302 20231 30099 40103 53012 80//6 90240 333 30/// 59016 86070;","Q01  00002PRCP06"
"76458099999","2004-09-03T06:00:00","4","23.2","-106.4166666","4.0","COLONIA JUAN CARRASCO MAZATLAN SIN., MX","FM-12","99999","V020","999,9,C,0000,1","22000,1,9,N","008000,1,N,1","+0291,1","+0241,1","10112,1","06,0000,9,1",,,,,,,,,"04,99,1,99,9,00,1,99999,9,05,1,00,1","0126,9","01,9",,"240,M,+0340,1","240,N,+0255,1","99999,9,10108,1","2,1,007,1,-618,1",,,"SYN124AAXX  03061 76458 32958 40000 10291 20241 30108 40112 52007 80050 90558 333 0/090 10340 20255 30/// 55021 28357 59618 84358;","Q01+000002SCOTLCQ02  00002PRCP06"
"76458099999","2004-09-03T09:00:00","4","23.2","-106.4166666","4.0","COLONIA JUAN CARRASCO MAZATLAN SIN., MX","FM-12","99999","V020","090,1,N,0020,1","00300,1,9,N","008000,1,N,1","+0276,1","+0252,1","10106,1","06,0000,9,1",,,,,,"05,1,+00300,9,06,9",,,"07,99,1,05,1,05,1,00450,1,05,1,00,1",,"01,9",,,,"99999,9,10102,1","7,1,006,1,-007,1",,,"SYN106AAXX  03091 76458 32458 70902 10276 20252 30102 40106 57006 85550 90852 333 0/990 30/// 59007 85610 82358;","Q01  00002PRCP06"
"76458099999","2004-09-03T12:00:00","4","23.2","-106.4166666","4.0","COLONIA JUAN CARRASCO MAZATLAN SIN., MX","FM-12","99999","V020","070,1,N,0020,1","99999,9,9,N","010000,1,N,1","+0257,1","+0228,1","10096,1","06,0000,9,1","24,0000,9,1",,,"0,1,06,1","0,1,06,1","03,1,+00390,9,06,9",,,"06,99,1,03,1,05,1,99999,9,06,1,00,1",,"01,9","999,+0240,9","999,M,+0340,1","120,N,+0253,1","99999,9,10091,1","6,1,012,1,-008,1","13,1",,"SYN130AAXX  03121 76458 31960 60702 10257 20228 30091 40096 56012 71300 83560 91145 333 0/00/ 10340 20253 30024 59008 70000 83613 83358;","Q01  00002PRCP06"
"76458099999","2004-09-03T15:00:00","4","23.2","-106.4166666","4.0","COLONIA JUAN CARRASCO MAZATLAN SIN., MX","FM-12","99999","V020","090,1,N,0030,1","99999,9,9,N","016000,1,N,1","+0272,1","+0238,1","10111,1","06,0000,9,1",,,,,,"04,1,+00420,9,06,9",,,"07,99,1,04,1,05,1,99999,9,06,1,00,1",,"01,9",,,,"99999,9,10107,1","2,1,016,1,-001,1",,,"SYN106AAXX  03151 76458 32966 70903 10272 20238 30107 40111 52016 84560 91445 333 0/00/ 30/// 59001 84614 83358;","Q01  00002PRCP06"
"76458099999","2004-09-03T18:00:00","4","23.2","-106.4166666","4.0","COLONIA JUAN CARRASCO MAZATLAN SIN., MX","FM-12","99999","V020","110,1,N,0020,1","22000,1,9,N","020000,1,N,1","+0309,1","+0236,1","10111,1","06,0000,9,1",,,,,,"01,1,+00900,9,08,9","01,1,+03600,9,03,9",,"03,99,1,01,1,01,1,00800,1,03,1,06,1",,"01,9",,"120,M,+0321,1","240,N,+0253,1","99999,9,10107,1","0,1,000,1,-001,1",,,"SYN130AAXX  03181 76458 32570 31102 10309 20236 30107 40111 50000 81136 91745 333 0/799 10321 20253 30/// 57878 59001 81830 81362 81068;","Q01  00002PRCP06"
"76458099999","2004-09-03T21:00:00","4","23.2","-106.4166666","4.0","COLONIA JUAN CARRASCO MAZATLAN SIN., MX","FM-12","99999","V020","230,1,N,0040,1","22000,1,9,N","020000,1,N,1","+0321,1","+0236,1","10097,1","06,0000,9,1",,,,,,"01,1,+01050,9,08,9",,,"02,99,1,01,1,02,1,01250,1,03,1,00,1",,"01,9",,,,"99999,9,10092,1","7,1,015,1,-007,1",,,"SYN112AAXX  03211 76458 32670 22304 10321 20236 30092 40097 57015 81230 92045 333 0/19/ 30/// 57818 59007 81835 81362;","Q01  00002PRCP06"
"76458099999","2004-09-04T00:00:00","4","23.2","-106.4166666","4.0","COLONIA JUAN CARRASCO MAZATLAN SIN., MX","FM-12","99999","V020","240,1,N,0020,1","22000,1,9,N","020000,1,N,1","+0318,1","+0243,1","10089,1","06,0000,9,1","24,0000,9,1",,,,,"02,1,+00930,9,09,9",,,"03,99,1,02,1,09,1,00800,1,99,9,06,1",,"01,9",,"120,M,+0345,1","180,N,+0253,1","99999,9,10084,1","5,1,008,1,-003,1",,,"SYN130AAXX  04001 76458 32570 32402 10318 20243 30084 40089 55008 829/6 92340 333 10345 20253 30/// 50361 57924 59003 70000 82931 81070;","Q01  00002PRCP06"
"76458099999","2004-09-04T03:00:00","4","23.2","-106.4166666","4.0","COLONIA JUAN CARRASCO MAZATLAN SIN., MX","FM-12","99999","V020","270,1,N,0020,1","22000,1,9,N","008000,1,N,1","+0302,1","+0243,1","10107,1","06,0000,9,1",,,,"0,1,03,1","0,1,03,1","01,1,+00720,9,08,9","02,1,+00900,9,09,9",,"04,99,1,03,1,09,1,00800,1,03,1,99,9",,"01,9",,,,"99999,9,10103,1","2,1,019,1,+004,1","13,1",,"SYN124AAXX  04031 76458 31558 42702 10302 20243 30103 40107 52019 71300 8393/ 90240 333 0/8// 30/// 57910 58004 82930 81824 81356;","Q01  00002PRCP06"
"76458099999","2004-09-04T06:00:00","4","23.2","-106.4166666","4.0","COLONIA JUAN CARRASCO MAZATLAN SIN., MX","FM-12","99999","V020","060,1,N,0020,1","00420,1,9,N","008000,1,N,1","+0270,1","+0238,1","10121,1","06,0000,9,1",,,,,,,,,"08,99,1,08,1,05,1,00450,1,00,1,00,1","0480,9","01,9",,"240,M,+0345,1","240,N,+0253,1","99999,9,10116,1","2,1,013,1,+008,1",,,"SYN124AAXX  04061 76458 32458 80602 10270 20238 30116 40121 52013 88500 90555 333 0/900 10345 20253 30/// 55080 21678 58008 88613;","Q01  00002PRCP06"
"76458099999","2004-09-04T15:00:00","4","23.2","-106.4166666","4.0","COLONIA JUAN CARRASCO MAZATLAN SIN., MX","FM-12","99999","V020","090,1,N,0020,1","22000,1,9,N","015000,1,N,1","+0292,1","+0242,1","10120,1","06,0000,9,1",,,,,,"01,1,+00600,9,09,9",,,"04,99,1,01,1,09,1,00800,1,03,1,00,1",,"01,9",,,,"99999,9,10116,1","1,1,007,1,+009,1",,,"SYN112AAXX  04151 76458 32565 40902 10292 20242 30116 40120 51007 81930 91448 333 0/50/ 30/// 57952 58009 81920 83358;","Q01  00002PRCP06"
"76458099999","2004-09-04T21:00:00","4","23.2","-106.4166666","4.0","COLONIA JUAN CARRASCO MAZATLAN SIN., MX","FM-12","99999","V020","260,1,N,0030,1","02400,1,9,N","020000,1,N,1","+0299,1","+0238,1","10127,1","06,0000,9,1",,,,,,"03,1,+00750,9,08,9","02,1,+02400,9,03,9",,"07,99,1,03,1,02,1,00800,1,05,1,00,1",,"01,9",,,,"99999,9,10123,1","8,1,002,1,+031,1",,,"SYN118AAXX  04211 76458 32570 72603 10299 20238 30123 40127 58002 83250 92050 333 04190 30/// 57911 58031 83825 82358 82461;","Q01  00002PRCP06"
"76458099999","2004-09-05T00:00:00","4","23.2","-106.4166666","4.0","COLONIA JUAN CARRASCO MAZATLAN SIN., MX","FM-12","99999","V020","300,1,N,0030,1","03600,1,9,N","020000,1,N,1","+0286,1","+0232,1","10123,1","06,0000,9,1","24,0000,9,1",,,,,"01,1,+00600,9,06,9",,,"07,99,1,01,1,04,1,00800,1,02,1,99,9",,"01,9",,"120,M,+0340,1","180,N,+0257,1","99999,9,10119,1","5,1,004,1,+035,1",,,"SYN136AAXX  05001 76458 32570 73003 10286 20232 30119 40123 55004 8142/ 92340 333 0079/ 10340 20257 30/// 50411 57670 58035 70000 81620 86458;","Q01  00002PRCP06"
"76458099999","2004-09-05T03:00:00","4","23.2","-106.4166666","4.0","COLONIA JUAN CARRASCO MAZATLAN SIN., MX","FM-12","99999","V020","040,1,N,0020,1","22000,1,9,N","008000,1,N,1","+0278,1","+0235,1","10129,1","06,0000,9,1",,,,,,"03,1,+06000,9,00,9",,,"03,99,1,00,1,99,9,99999,9,99,9,06,1",,"01,9",,,,"99999,9,10124,1","1,1,005,1,+021,1",,,"SYN094AAXX  05031 76458 32958 30402 10278 20235 30124 40129 51005 80//6 90240 333 30/// 58021 83070;","Q01  00002PRCP06"
"76458099999","2004-09-05T06:00:00","4","23.2","-106.4166666","4.0","COLONIA JUAN CARRASCO MAZATLAN SIN., MX","FM-12","99999","V020","350,1,N,0010,1","22000,1,9,N","008000,1,N,1","+0269,1","+0238,1","10135,1","06,0000,9,1",,,,,,,,,"02,99,1,00,1,00,1,99999,9,00,1,08,1","0336,9","01,9",,"240,M,+0340,1","240,N,+0257,1","99999,9,10131,1","0,1,007,1,+015,1",,,"SYN130AAXX  05061 76458 32958 23501 10269 20238 30131 40135 50007 80008 90545 333 0///9 10340 20257 30/// 55056 20820 57299 58015 82268;","Q01  00002PRCP06"
"76458099999","2004-09-05T09:00:00","4","23.2","-106.4166666","4.0","COLONIA JUAN CARRASCO MAZATLAN SIN., MX","FM-12","99999","V020","999,9,C,0000,1","22000,1,9,N","008000,1,N,1","+0266,1","+0227,1","10129,1","06,0000,9,1",,,,,,"02,1,+03600,9,03,9",,,"02,99,1,02,1,00,1,02250,1,03,1,00,1",,"01,9",,,,"99999,9,10125,1","6,1,006,1,+015,1",,,"SYN106AAXX  05091 76458 32858 20000 10266 20227 30125 40129 56006 82030 90845 333 0//9/ 30/// 57399 58015 82362;","Q01  00002PRCP06"
"76458099999","2004-09-05T12:00:00","4","23.2","-106.4166666","4.0","COLONIA JUAN CARRASCO MAZATLAN SIN., MX","FM-12","99999","V020","340,1,N,0020,1","03000,1,9,N","008000,1,N,1","+0256,1","+0225,1","10131,1","06,0000,9,1","24,0000,9,1",,,,,"05,1,+03000,9,03,9",,,"07,99,1,03,1,99,9,02250,1,03,1,06,1",,"01,9",,"999,M,+0340,1","120,N,+0252,1","99999,9,10126,1","5,1,016,1,+017,1",,,"SYN118AAXX  05121 76458 32858 73402 10256 20225 30126 40131 55016 83/36 91140 333 10340 20252 30240 58017 70000 85360 82070;","Q01  00002PRCP06"
"76458099999","2004-09-05T15:00:00","4","23.2","-106.4166666","4.0","COLONIA JUAN CARRASCO MAZATLAN SIN., MX","FM-12","99999","V020","360,1,N,0020,1","01800,1,9,N","020000,1,N,1","+0272,1","+0222,1","10139,1","06,0000,9,1",,,,,,"07,1,+01800,9,03,9",,,"07,99,1,07,1,99,9,99999,9,03,1,99,9",,"01,9",,,,"99999,9,10134,1","2,1,008,1,+018,1",,,"SYN094AAXX  05151 76458 32970 73602 10272 20222 30134 40139 52008 87/3/ 91440 333 30/// 58018 87356;","Q01  00002PRCP06"
"76458099999","2004-09-05T18:00:00","4","23.2","-106.4166666","4.0","COLONIA JUAN CARRASCO MAZATLAN SIN., MX","FM-12","99999","V020","270,1,N,0030,1","03600,1,C,N","020000,1,N,1","+0304,1","+0245,1","10145,1","06,0000,9,1",,,,,,"01,1,+00720,9,08,9","01,1,+01020,9,09,9",,"07,99,1,02,1,03,1,00800,1,03,1,00,1",,"01,9",,"120,M,+0323,1","240,N,+0252,1","99999,9,10140,1","2,1,006,1,-015,1",,,"SYN130AAXX  05181 76458 32570 72703 10304 20245 30140 40145 52006 82330 91750 333 04190 10323 20252 30/// 57915 59015 81824 81934 85358;","Q01  00002PRCP06"
"76458099999","2004-09-05T21:00:00","4","23.2","-106.4166666","4.0","COLONIA JUAN CARRASCO MAZATLAN SIN., MX","FM-12","99999","V020","280,1,N,0050,1","03600,1,C,N","020000,1,N,1","+0315,1","+0253,1","10122,1","06,0000,9,1",,,,,,"01,1,+00780,9,08,9","01,1,+03000,9,03,9",,"07,99,1,01,1,01,1,00800,1,03,1,04,1",,"01,9",,,,"99999,9,10117,1","7,1,023,1,-005,1",,,"SYN112AAXX  05211 76458 32570 72805 10315 20253 30117 40122 57023 81134 92030 333 01799 30/// 59005 81826 81360 85079;","Q01  00002PRCP06"
"76458099999","2004-09-06T00:00:00","4","23.2","-106.4166666","4.0","COLONIA JUAN CARRASCO MAZATLAN SIN., MX","FM-12","99999","V020","260,1,N,0040,1","22000,1,9,N","020000,1,N,1","+0311,1","+0242,1","10100,1","06,0000,9,1","24,0000,9,1",,,,,"09,1,+00720,9,00,9",,,"09,99,1,09,1,01,1,00800,1,03,1,08,1",,"01,9",,"120,M,+0335,1","180,N,+0252,1","99999,9,10095,1","7,1,022,1,+999,9",,,"SYN142AAXX  06001 76458 32570 42604 10311 20242 30095 40100 57022 81138 92348 333 0/199 10335 20252 30/// 50511 57819 89024 70000 81829 81362 82268;","Q01+000042SCOTCVQ02+000012SCOTLCQ03+000082SCOHCGQ04  00002PRCP06"
"76458099999","2004-09-06T03:00:00","4","23.2","-106.4166666","4.0","COLONIA JUAN CARRASCO MAZATLAN SIN., MX","FM-12","99999","V020","310,1,N,0040,1","22000,1,9,N","010000,1,N,1","+0298,1","+0250,1","10101,1","06,0000,9,1",,,,,,"01,1,+00600,9,08,9",,,"01,99,1,01,1,01,1,00800,1,00,1,00,1",,"01,9",,,,"99999,9,10096,1","2,1,001,1,-028,1",,,"SYN106AAXX  06031 76458 32560 13104 10298 20250 30096 40101 52001 81100 90247 333 0/7// 30/// 57879 59028 81820;","Q01  00002PRCP06"
"76458099999","2004-09-06T06:00:00","4","23.2","-106.4166666","4.0","COLONIA JUAN CARRASCO MAZATLAN SIN., MX","FM-12","99999","V020","330,1,N,0020,1","22000,1,9,N","008000,1,N,1","+0288,1","+0248,1","10106,1","06,0000,9,1",,,,,,,,,"02,99,1,02,1,02,1,00450,1,00,1,00,1","0420,9","01,9",,"240,M,+0335,1","240,N,+0252,1","99999,9,10102,1","2,1,006,1,-029,1",,,"SYN124AAXX  06061 76458 32458 23302 10288 20248 30102 40106 52006 82200 90558 333 0/700 10335 20252 30/// 55070 21013 59029 82817;","Q01  00002PRCP06"
"76458099999","2004-09-06T12:00:00","4","23.2","-106.4166666","4.0","COLONIA JUAN CARRASCO MAZATLAN SIN., MX","FM-12","99999","V020","340,1,N,0020,1","02700,1,9,N","010000,1,N,1","+0269,1","+0219,1","10088,1","06,0000,9,1","24,0000,9,1",,,,,"07,1,+02700,9,03,9",,,"07,99,1,07,1,00,1,02250,1,03,1,00,1",,"01,9",,"999,M,+0335,1","120,N,+0268,1","99999,9,10083,1","7,1,011,1,-043,1",,,"SYN118AAXX  06121 76458 32860 73402 10269 20219 30083 40088 57011 87030 91150 333 0/090 10335 20268 30260 59043 70000 87359;","Q01  00002PRCP06"
"76458099999","2004-09-06T15:00:00","4","23.2","-106.4166666","4.0","COLONIA JUAN CARRASCO MAZATLAN SIN., MX","FM-12","99999","V020","320,1,N,0030,1","02700,1,9,N","020000,1,N,1","+0284,1","+0220,1","10090,1","06,0000,9,1",,,,,,"01,1,+00810,9,08,9","04,1,+02700,9,03,9",,"06,99,1,01,1,02,1,00800,1,03,1,05,1",,"01,9",,,,"99999,9,10085,1","3,1,002,1,-049,1",,,"SYN118AAXX  06151 76458 32570 63203 10284 20220 30085 40090 53002 81235 91450 333 04699 30/// 57866 59049 81827 84359 81079;","Q01  00002PRCP06"
"76458099999","2004-09-06T18:00:00","4","23.2","-106.4166666","4.0","COLONIA JUAN CARRASCO MAZATLAN SIN., MX","FM-12","99999","V020","270,1,N,0050,1","03600,1,C,N","020000,1,N,1","+0310,1","+0228,1","10091,1","06,0000,9,1",,,,,,"01,1,+00660,9,07,9",,,"05,99,1,01,1,02,1,01250,1,05,1,00,1",,"01,9",,"120,M,+0335,1","240,N,+0263,1","99999,9,10087,1","2,1,002,1,-053,1",,,"SYN124AAXX  06181 76458 32670 52705 10310 20228 30087 40091 52002 81250 91745 333 0/80/ 10335 20263 30/// 57887 59053 81722 84358;","Q01  00002PRCP06"
"76458099999","2004-09-06T21:00:00","4","23.2","-106.4166666","4.0","COLONIA JUAN CARRASCO MAZATLAN SIN., MX","FM-12","99999","V020","270,1,N,0050,1","03600,1,C,N","020000,1,N,1","+0323,1","+0241,1","10068,1","06,0000,9,1",,,,,,"01,1,+00720,9,08,9",,,"05,99,1,01,1,02,1,01250,1,05,1,00,1",,"01,9",,,,"99999,9,10064,1","7,1,023,1,-053,1",,,"SYN112AAXX  06211 76458 32670 52705 10323 20241 30064 40068 57023 81250 92045 333 0/10/ 30/// 57816 59053 81824 84358;","Q01  00002PRCP06"
"76458099999","2004-09-07T00:00:00","4","23.2","-106.4166666","4.0","COLONIA JUAN CARRASCO MAZATLAN SIN., MX","FM-12","99999","V020","300,1,N,0040,1","09000,1,9,N","020000,1,N,1","+0312,1","+0236,1","10061,1","06,0000,9,1","24,0000,9,1",,,,,"01,1,+00960,9,09,9","04,1,+02400,9,04,9",,"06,99,1,01,1,09,1,00800,1,02,1,06,1",,"01,9",,"120,M,+0340,1","180,N,+0263,1","99999,9,10056,1","5,1,008,1,-039,1",,,"SYN142AAXX  07001 76458 32570 63004 10312 20236 30056 40061 55008 81926 92340 333 0/199 10340 20263 30/// 50511 57913 59039 70000 81932 84458 81070;","Q01  00002PRCP06"
"76458099999","2004-09-07T12:00:00","4","23.2","-106.4166666","4.0","COLONIA JUAN CARRASCO MAZATLAN SIN., MX","FM-12","99999","V020","070,1,N,0020,1","00660,1,9,N","010000,1,N,1","+0277,1","+0228,1","10082,1","06,0000,9,1","24,0000,9,1",,,,,"06,1,+00660,9,08,9",,,"07,99,1,07,1,09,1,00800,1,00,1,00,1",,"01,9",,"999,M,+0340,1","120,N,+0271,1","99999,9,10077,1","5,1,003,1,-006,1",,,"SYN130AAXX  07121 76458 32560 70702 10277 20228 30077 40082 55003 87900 91146 333 07500 10340 20271 30254 57956 59006 79999 86822 81934;","Q01  00002PRCP06Q02  00002PRCP24"
"76458099999","2004-09-07T15:00:00","4","23.2","-106.4166666","4.0","COLONIA JUAN CARRASCO MAZATLAN SIN., MX","FM-12","99999","V020","150,1,N,0030,1","22000,1,9,N","020000,1,N,1","+0296,1","+0233,1","10093,1","06,0000,9,1",,,,,,"01,1,+00840,9,09,9",,,"02,99,1,01,1,09,1,00800,1,00,1,05,1",,"01,9",,,,"99999,9,10088,1","2,1,011,1,+003,1",,,"SYN112AAXX  07151 76458 32570 21503 10296 20233 30088 40093 52011 81905 91445 333 07509 30/// 57958 58003 81928 81079;","Q01  00002PRCP06"
"76458099999","2004-09-07T18:00:00","4","23.2","-106.4166666","4.0","COLONIA JUAN CARRASCO MAZATLAN SIN., MX","FM-12","99999","V020","160,1,N,0050,1","22000,1,9,N","020000,1,N,1","+0324,1","+0250,1","10113,1","06,0000,9,1",,,,,,"02,1,+00750,9,08,9",,,"03,99,1,02,1,02,1,00800,1,05,1,00,1",,"01,9",,"120,M,+0340,1","240,N,+0270,1","99999,9,10098,1","2,1,011,1,+011,1",,,"SYN124AAXX  07181 76458 32570 31605 10324 20250 30098 40113 52011 82250 91745 333 0/50/ 10340 20270 30/// 57855 58011 82825 81356;","Q01  00002PRCP06"
"76458099999","2004-09-07T21:00:00","4","23.2","-106.4166666","4.0","COLONIA JUAN CARRASCO MAZATLAN SIN., MX","FM-12","99999","V020","240,1,N,0050,1","03600,1,C,N","020000,1,N,1","+0323,1","+0246,1","10087,1","06,0000,9,1",,,,,,"01,1,+00660,9,09,9","01,1,+00780,9,08,9",,"05,99,1,02,1,02,1,00800,1,05,1,00,1",,"01,9",,,,"99999,9,10082,1","7,1,016,1,+018,1",,,"SYN118AAXX  07211 76458 32570 52405 10323 20246 30082 40087 57016 82250 92045 333 0/10/ 30/// 57915 58018 81922 81826 83358;","Q01  00002PRCP06"
"76458099999","2004-09-08T00:00:00","4","23.2","-106.4166666","4.0","COLONIA JUAN CARRASCO MAZATLAN SIN., MX","FM-12","99999","V020","280,1,N,0020,1","03900,1,C,N","020000,1,N,1","+0301,1","+0243,1","10075,1","06,0000,9,1","24,9999,9,9",,,,,"02,1,+00720,9,08,9","02,1,+03600,9,03,9","01,1,+03900,9,04,9","06,99,1,02,1,01,1,00800,1,03,1,08,1",,"01,9",,"120,M,+0345,1","180,N,+0270,1","99999,9,10071,1","5,1,011,1,+015,1",,,"SYN148AAXX  08001 76458 32570 62802 10301 20243 30071 40075 55011 82138 92347 333 0/799 10345 20270 30/// 50541 57879 58015 79999 82824 82362 81463 81268;","Q01  00002PRCP06Q02  99992PRCP24"
"76458099999","2004-09-08T03:00:00","4","23.2","-106.4166666","4.0","COLONIA JUAN CARRASCO MAZATLAN SIN., MX","FM-12","99999","V020","340,1,N,0020,1","22000,1,9,N","010000,1,N,1","+0294,1","+0250,1","10090,1","06,0000,9,1",,,,,,"02,1,+00540,9,06,9",,,"02,99,1,02,1,04,1,00450,1,00,1,00,1",,"01,9",,,,"99999,9,10085,1","2,1,014,1,+018,1",,,"SYN106AAXX  08031 76458 32460 23402 10294 20250 30085 40090 52014 82400 90245 333 0/6// 30/// 57669 58018 82618;","Q01  00002PRCP06"
"76458099999","2004-09-08T06:00:00","4","23.2","-106.4166666","4.0","COLONIA JUAN CARRASCO MAZATLAN SIN., MX","FM-12","99999","V020","360,1,N,0010,1","03600,1,9,N","008000,1,N,1","+0282,1","+0247,1","10105,1","06,0000,9,1",,,,,,"02,1,+00450,9,06,9",,,"05,99,1,02,1,05,1,00450,1,03,1,00,1","0438,9","01,9",,"240,M,+0345,1","240,N,+0270,1","99999,9,10101,1","7,1,014,1,+007,1",,,"SYN130AAXX  08061 76458 32458 53601 10282 20247 30101 40105 57014 82530 90555 333 0/690 10345 20270 30/// 55073 29672 58007 82615 83358;","Q01  00002PRCP06"
"76458099999","2004-09-08T15:00:00","4","23.2","-106.4166666","4.0","COLONIA JUAN CARRASCO MAZATLAN SIN., MX","FM-12","99999","V020","999,9,C,0000,1","22000,1,9,N","020000,1,N,1","+0289,1","+0243,1","10090,1","06,0000,9,1",,,,,,"01,1,+00570,9,08,9",,,"02,99,1,01,1,02,1,00450,1,03,1,00,1",,"01,9",,,,"99999,9,10085,1","2,1,004,1,-003,1",,,"SYN112AAXX  08151 76458 32470 20000 10289 20243 30085 40090 52004 81230 91445 333 0/49/ 30/// 57849 59003 81819 81362;","Q01  00002PRCP06"
"76458099999","2004-09-08T18:00:00","4","23.2","-106.4166666","4.0","COLONIA JUAN CARRASCO MAZATLAN SIN., MX","FM-12","99999","V020","250,1,N,0030,1","22000,1,9,N","020000,1,N,1","+0302,1","+0254,1","10104,1","06,0000,9,1",,,,,,"02,1,+00660,9,08,9",,,"04,99,1,02,1,02,1,00800,1,05,1,00,1",,"01,9",,"120,M,+0345,1","240,N,+0262,1","99999,9,10099,1","2,1,006,1,+001,1",,,"SYN124AAXX  08181 76458 32570 42503 10302 20254 30099 40104 52006 82250 91748 333 0/60/ 10345 20262 30/// 57866 58001 82822 82352;","Q01  00002PRCP06"
"76458099999","2004-09-08T21:00:00","4","23.2","-106.4166666","4.0","COLONIA JUAN CARRASCO MAZATLAN SIN., MX","FM-12","99999","V020","270,1,N,0040,1","22000,1,9,N","020000,1,N,1","+0320,1","+0256,1","10082,1","06,0000,9,1",,,,,,"01,1,+00660,9,09,9","01,1,+00780,9,08,9",,"04,99,1,02,1,02,1,00800,1,05,1,00,1",,"01,9",,,,"99999,9,10077,1","7,1,023,1,-005,1",,,"SYN118AAXX  08211 76458 32570 42704 10320 20256 30077 40082 57023 82250 92045 333 0/60/ 30/// 57915 59005 81922 81826 82352;","Q01  00002PRCP06"
"76458099999","2004-09-09T03:00:00","4","23.2","-106.4166666","4.0","COLONIA JUAN CARRASCO MAZATLAN SIN., MX","FM-12","99999","V020","300,1,N,0040,1","22000,1,9,N","008000,1,N,1","+0310,1","+0252,1","10075,1","06,0000,9,1",,,,,,"00,1,+99999,9,99,9",,,"00,99,1,00,1,00,1,99999,9,00,1,00,1",,"01,9",,,,"99999,9,10070,1","3,1,006,1,-015,1",,,"SYN082AAXX  09031 76458 32958 03004 10310 20252 30070 40075 53006 90240 333 30/// 59015;","Q01  00002PRCP06"
"76458099999","2004-09-09T06:00:00","4","23.2","-106.4166666","4.0","COLONIA JUAN CARRASCO MAZATLAN SIN., MX","FM-12","99999","V020","210,1,N,0020,1","22000,1,9,N","008000,1,N,1","+0306,1","+0261,1","10094,1","06,0000,9,1",,,,,,,,,"04,99,1,04,1,05,1,00450,1,00,1,00,1","0570,9","01,9",,"240,M,+0340,1","240,N,+0262,1","99999,9,10089,1","2,1,019,1,-012,1",,,"SYN124AAXX  09061 76458 32458 42102 10306 20261 30089 40094 52019 84500 90555 333 0/300 10340 20262 30/// 55095 29053 59012 84619;","Q01  00002PRCP06"
"76458099999","2004-09-09T09:00:00","4","23.2","-106.4166666","4.0","COLONIA JUAN CARRASCO MAZATLAN SIN., MX","FM-12","99999","V020","140,1,N,0020,1","99999,9,9,N","008000,1,N,1","+0242,1","+0231,1","10105,1","02,0490,9,2","06,0000,2,2",,,"6,1,03,1","6,1,03,1","04,1,+00150,9,06,9",,,"08,99,1,04,1,04,1,00150,1,00,1,00,1",,"09,9",,,,"99999,9,10101,1","2,1,012,1,+015,1","61,1",,"SYN118AAXX  09091 76458 31258 81402 10242 20231 30101 40105 52012 60496 76166 84400 90858 333 0/700 31/// 58015 84605 84905;",
"76458099999","2004-09-09T12:00:00","4","23.2","-106.4166666","4.0","COLONIA JUAN CARRASCO MAZATLAN SIN., MX","FM-12","99999","V020","999,9,C,0000,1","00120,1,C,N","008000,1,N,1","+0250,1","+0234,1","10097,1","06,0490,9,1","12,0490,9,1","24,0490,9,1",,"2,1,06,1","2,1,06,1","01,1,+00210,9,09,9",,,"07,99,1,07,1,04,1,00150,1,00,1,00,1",,"01,9",,"999,M,+0340,1","120,N,+0234,1","99999,9,10093,1","7,1,008,1,+012,1","13,1",,"SYN148AAXX  09121 76458 01258 70000 10250 20234 30093 40097 57008 60491 71322 87400 91148 333 0/7// 10340 20234 30230 57679 58012 60492 70490 81907 86608;",
"76458099999","2004-09-09T21:00:00","4","23.2","-106.4166666","4.0","COLONIA JUAN CARRASCO MAZATLAN SIN., MX","FM-12","99999","V020","270,1,N,0040,1","22000,1,9,N","020000,1,N,1","+0310,1","+0250,1","10081,1","06,0000,9,1",,,,,,"01,1,+00660,9,08,9",,,"04,99,1,01,1,02,1,00800,1,00,1,09,1",,"01,9",,,,"99999,9,10076,1","7,1,015,1,-001,1",,,"SYN112AAXX  09211 76458 32570 42704 10310 20250 30076 40081 57015 81209 92045 333 0/1/0 30/// 57817 59001 81822 83070;","Q01  00002PRCP06"
"76458099999","2004-09-10T03:00:00","4","23.2","-106.4166666","4.0","COLONIA JUAN CARRASCO MAZATLAN SIN., MX","FM-12","99999","V020","270,1,N,0030,1","09000,1,C,N","008000,1,N,1","+0300,1","+0249,1","10096,1","06,0000,9,1",,,,,,"01,1,+00660,9,08,9","03,1,+02400,9,04,9",,"06,99,1,01,1,01,1,00800,1,02,1,06,1",,"09,9",,,,"99999,9,10091,1","3,1,015,1,+021,1",,,"SYN118AAXX  10031 76458 32558 62703 10300 20249 30091 40096 53015 81126 90240 333 00799 31/// 57810 58021 81822 83458 82070;","Q01  00002PRCP06"
"76458099999","2004-09-10T06:00:00","4","23.2","-106.4166666","4.0","COLONIA JUAN CARRASCO MAZATLAN SIN., MX","FM-12","99999","V020","210,1,N,0030,1","99999,9,9,N","008000,1,N,1","+0270,1","+0256,1","10113,1","02,0211,9,2","06,0210,9,2",,,"6,1,06,1","6,1,06,1","04,1,+00180,9,06,9",,,"08,99,1,04,1,04,1,00150,1,00,1,00,1","0618,9","09,9",,"240,M,+0330,1","240,N,+0232,1","99999,9,10108,1","7,1,008,1,+019,1","62,1",,"SYN148AAXX  10061 76458 01258 82103 10270 20256 30108 40113 57008 60216 76266 84400 90558 333 0/900 10330 20232 31/// 55103 21060 58019 60211 84606 84906;",
"76458099999","2004-09-10T12:00:00","4","23.2","-106.4166666","4.0","COLONIA JUAN CARRASCO MAZATLAN SIN., MX","FM-12","99999","V020","340,1,N,0020,1","22000,1,9,N","008000,1,N,1","+0258,1","+0243,1","10097,1","06,0000,2,1","24,0739,9,1",,,,,"00,1,+99999,9,99,9",,,"00,99,1,00,1,00,1,99999,9,00,1,00,1",,"01,9",,"999,M,+0330,1","120,N,+0248,1","99999,9,10093,1","7,1,006,1,-004,1",,,"SYN100AAXX  10121 76458 32058 03402 10258 20243 30093 40097 57006 91145 333 10330 20248 30241 59004 70738;",
"76458099999","2004-09-10T15:00:00","4","23.2","-106.4166666","4.0","COLONIA JUAN CARRASCO MAZATLAN SIN., MX","FM-12","99999","V020","340,1,N,0010,1","22000,1,9,N","016000,1,N,1","+0275,1","+0262,1","10107,1","06,0000,9,1",,,,,,"02,1,+00180,9,04,9",,,"04,99,1,02,1,06,1,00150,1,04,1,00,1",,"09,9",,,,"99999,9,10102,1","2,1,009,1,+005,1",,,"SYN106AAXX  10151 76458 32266 43401 10275 20262 30102 40107 52009 82640 91445 333 0/00/ 31/// 58005 82406 82648;","Q01  00002PRCP06"
"76458099999","2004-09-11T03:00:00","4","23.2","-106.4166666","4.0","COLONIA JUAN CARRASCO MAZATLAN SIN., MX","FM-12","99999","V020","270,1,N,0030,1","00420,1,9,N","008000,1,N,1","+0304,1","+0259,1","10107,1","06,0000,9,1",,,,,,,,,"06,99,1,06,1,02,1,00450,1,99,9,99,9",,"09,9",,,,"99999,9,10103,1","2,1,016,1,+012,1",,,"SYN100AAXX  11031 76458 32458 62703 10304 20259 30103 40107 52016 862// 90240 333 0/7// 31/// 57870 58012;","Q01  00002PRCP06"
"76458099999","2004-09-11T06:00:00","4","23.2","-106.4166666","4.0","COLONIA JUAN CARRASCO MAZATLAN SIN., MX","FM-12","99999","V020","360,1,N,0020,1","00420,1,9,N","008000,1,N,1","+0260,1","+0227,1","10112,1","02,0020,9,2","06,0000,2,2",,,"6,1,06,1","6,1,06,1",,,,"06,99,1,06,1,04,1,00450,1,00,1,00,1","0546,9","11,9",,"240,M,+0340,1","240,N,+0248,1","99999,9,10107,1","2,1,005,1,-001,1","60,1",,"SYN136AAXX  11061 76458 31458 63602 10260 20227 30107 40112 52005 60026 76066 86400 90558 333 0/900 10340 20248 32/// 55091 2//// 59001 86614;",
"76458099999","2004-09-11T15:00:00","4","23.2","-106.4166666","4.0","COLONIA JUAN CARRASCO MAZATLAN SIN., MX","FM-12","99999","V020","110,1,N,0010,1","22000,1,9,N","015000,1,N,1","+0292,1","+0257,1","10122,1","06,0000,9,1",,,,,,"01,1,+02400,9,03,9",,,"04,99,1,01,1,00,1,99999,9,06,1,03,1",,"01,9",,,,"99999,9,10118,1","1,1,005,1,+016,1",,,"SYN106AAXX  11151 76458 32965 41101 10292 20257 30118 40122 51005 81063 91448 333 0//00 30/// 58016 81358 83070;","Q01  00002PRCP06"
"76458099999","2004-09-11T18:00:00","4","23.2","-106.4166666","4.0","COLONIA JUAN CARRASCO MAZATLAN SIN., MX","FM-12","99999","V020","220,1,N,0030,1","22000,1,9,N","020000,1,N,1","+0310,1","+0254,1","10122,1","06,0000,9,1",,,,,,"01,1,+00660,9,09,9",,,"03,99,1,02,1,09,1,00800,1,00,1,02,1",,"01,9",,"120,M,+0336,1","240,N,+0250,1","99999,9,10118,1","4,1,000,1,+015,1",,,"SYN124AAXX  11181 76458 32570 32203 10310 20254 30118 40122 54000 82902 91748 333 0/6/0 10336 20250 30/// 57956 58015 81922 81070;","Q01  00002PRCP06"
"76458099999","2004-09-11T21:00:00","4","23.2","-106.4166666","4.0","COLONIA JUAN CARRASCO MAZATLAN SIN., MX","FM-12","99999","V020","240,1,N,0030,1","22000,1,9,N","020000,1,N,1","+0320,1","+0265,1","10101,1","06,0000,9,1",,,,,,"01,1,+00690,9,08,9","01,1,+01020,9,09,9",,"03,99,1,02,1,09,1,00800,1,00,1,05,1",,"09,9",,,,"99999,9,10097,1","7,1,021,1,+004,1",,,"SYN118AAXX  11211 76458 32570 32403 10320 20265 30097 40101 57021 82905 92050 333 07809 31/// 57981 58004 81823 81934 81079;","Q01  00002PRCP06"
"76458099999","2004-09-12T03:00:00","4","23.2","-106.4166666","4.0","COLONIA JUAN CARRASCO MAZATLAN SIN., MX","FM-12","99999","V020","310,1,N,0040,1","03600,1,C,N","008000,1,N,1","+0310,1","+0268,1","10095,1","06,0000,9,1",,,,"0,1,03,1","0,1,03,1","03,1,+00540,9,08,9","01,1,+00720,9,09,9",,"08,99,1,04,1,01,1,00450,1,02,1,99,9",,"01,9",,,,"99999,9,10091,1","2,1,009,1,-012,1","13,1",,"SYN124AAXX  12031 76458 32458 83104 10310 20268 30091 40095 52009 71300 8412/ 90240 333 0079/ 30/// 57870 59012 83818 81924 84458;","Q01  00002PRCP06"
"76458099999","2004-09-12T06:00:00","4","23.2","-106.4166666","4.0","COLONIA JUAN CARRASCO MAZATLAN SIN., MX","FM-12","99999","V020","110,1,N,0020,1","00420,1,9,N","008000,1,N,1","+0289,1","+0257,1","10104,1","03,0002,9,1","06,9999,9,9",,,"5,1,06,1","5,1,06,1",,,,"07,99,1,07,1,04,1,00450,1,00,1,00,1","0612,9","09,9",,"240,M,+0340,1","240,N,+0250,1","99999,9,10099,1","2,1,008,1,-008,1","02,1",,"SYN148AAXX  12061 76458 01458 71102 10289 20257 30099 40104 52008 69921 70255 87400 90548 333 0/6// 10340 20250 31/// 55102 2//// 57669 59008 69927 87613;",
"76458099999","2004-09-12T09:00:00","4","23.2","-106.4166666","4.0","COLONIA JUAN CARRASCO MAZATLAN SIN., MX","FM-12","99999","V020","999,9,C,0000,1","99999,9,9,N","008000,1,N,1","+0284,1","+0250,1","99999,9","06,0000,9,1",,,,,,"02,1,+00420,9,09,9",,,"07,99,1,99,9,99,9,00450,1,99,9,99,9",,"01,9",,,,"99999,9,10095,1","9,9,999,9,-009,1",,,"SYN116AAXX  12091 76458 31458 70000 10284 20250 300950099 55004 71799 87900 90847 333 024// 30/// 57949 59009 82914 85615;","Q01  00002PRCP06"
"76458099999","2004-09-12T15:00:00","4","23.2","-106.4166666","4.0","COLONIA JUAN CARRASCO MAZATLAN SIN., MX","FM-12","99999","V020","330,1,N,0010,1","02400,1,9,N","020000,1,N,1","+0244,1","+0224,1","10115,1","06,0000,2,1",,,,"6,1,03,1","6,1,03,1","08,1,+02400,9,04,9",,,"08,99,1,08,1,99,9,00150,1,02,1,99,9",,"11,9",,,,"99999,9,10110,1","3,1,013,1,-008,1","24,1",,"SYN100AAXX  12151 76458 31270 83301 10244 20224 30110 40115 53013 72466 88/2/ 91440 333 32/// 59008 88458;","Q01+000002PRSWM1"
"76458099999","2004-09-12T18:00:00","4","23.2","-106.4166666","4.0","COLONIA JUAN CARRASCO MAZATLAN SIN., MX","FM-12","99999","V020","270,1,N,0030,1","09000,1,C,N","018000,1,N,1","+0293,1","+0237,1","10122,1","03,0000,2,1","06,0030,9,1",,,"2,1,06,1","2,1,06,1","01,1,+03600,9,03,9",,,"07,99,1,01,1,00,1,02250,1,03,1,08,1",,"09,9",,"120,M,+0313,1","240,N,+0220,1","99999,9,10117,1","0,1,007,1,-001,1","02,1",,"SYN136AAXX  12181 76458 01868 72703 10293 20237 30117 40122 50007 60031 70222 81038 91748 333 0//99 10313 20220 31/// 57399 59001 69907 81362;",
"76458099999","2004-09-12T21:00:00","4","23.2","-106.4166666","4.0","COLONIA JUAN CARRASCO MAZATLAN SIN., MX","FM-12","99999","V020","270,1,N,0030,1","00480,1,9,N","018000,1,N,1","+0299,1","+0231,1","10097,1","06,0000,2,1",,,,,,"07,1,+00480,9,08,9",,,"07,99,1,01,1,02,1,00800,1,03,1,08,1",,"01,9",,,,"99999,9,10092,1","7,1,025,1,-005,1",,,"SYN118AAXX  12211 76458 32568 72703 10299 20231 30092 40097 57025 81238 92048 333 0/199 30/// 87816 59005 81828 81362 85268;",
"76458099999","2004-09-13T00:00:00","4","23.2","-106.4166666","4.0","COLONIA JUAN CARRASCO MAZATLAN SIN., MX","FM-12","99999","V020","280,1,N,0020,1","03900,1,C,N","020000,1,N,1","+0301,1","+0243,1","10075,1","06,0000,9,1","24,9999,2,9",,,,,"02,1,+00720,9,08,9","02,1,+03600,9,03,9","01,1,+03900,9,04,9","06,99,1,02,1,01,1,00800,1,03,1,08,1",,"01,9",,"120,M,+0345,1","180,N,+0270,1","99999,9,10071,1","5,1,011,1,+015,1",,,"SYN148AAXX  08001 76458 32570 62802 10301 20243 30071 40075 55011 82138 92347 333 0/799 10345 20270 30/// 50541 57879 58015 79999 82824 82362 81463 81268;","Q01  00002PRCP06"
"76458099999","2004-09-13T03:00:00","4","23.2","-106.4166666","4.0","COLONIA JUAN CARRASCO MAZATLAN SIN., MX","FM-12","99999","V020","340,1,N,0020,1","22000,1,9,N","010000,1,N,1","+0294,1","+0250,1","10090,1","06,0000,9,1",,,,,,"02,1,+00540,9,06,9",,,"02,99,1,02,1,04,1,00450,1,00,1,00,1",,"01,9",,,,"99999,9,10085,1","2,1,014,1,+018,1",,,"SYN106AAXX  08031 76458 32460 23402 10294 20250 30085 40090 52014 82400 90245 333 0/6// 30/// 57669 58018 82618;","Q01  00002PRCP06"
"76458099999","2004-09-13T06:00:00","4","23.2","-106.4166666","4.0","COLONIA JUAN CARRASCO MAZATLAN SIN., MX","FM-12","99999","V020","360,1,N,0010,1","03600,1,9,N","008000,1,N,1","+0282,1","+0247,1","10105,1","06,0000,9,1",,,,,,"02,1,+00450,9,06,9",,,"05,99,1,02,1,05,1,00450,1,03,1,00,1","0438,9","01,9",,"240,M,+0345,1","240,N,+0270,1","99999,9,10101,1","7,1,014,1,+007,1",,,"SYN130AAXX  08061 76458 32458 53601 10282 20247 30101 40105 57014 82530 90555 333 0/690 10345 20270 30/// 55073 29672 58007 82615 83358;","Q01  00002PRCP06"
"76458099999","2004-09-13T12:00:00","4","23.2","-106.4166666","4.0","COLONIA JUAN CARRASCO MAZATLAN SIN., MX","FM-12","99999","V020","100,1,N,0010,1","22000,1,9,N","012000,1,N,1","+0279,1","+0259,1","10097,1","06,0000,9,1","24,0027,9,1",,,,,"03,1,+02400,9,03,9",,,"03,99,1,03,1,00,1,99999,9,03,1,00,1",,"01,9",,"999,M,+0318,1","120,N,+0279,1","99999,9,10092,1","6,1,003,1,-005,1",,,"SYN118AAXX  13121 76458 32962 31001 10279 20259 30092 40097 56003 83030 91140 333 0/090 10318 20279 30270 59005 70027 83358;","Q01  00002PRCP06"
"76458099999","2004-09-13T15:00:00","4","23.2","-106.4166666","4.0","COLONIA JUAN CARRASCO MAZATLAN SIN., MX","FM-12","99999","V020","999,9,C,0000,1","22000,1,9,N","020000,1,N,1","+0296,1","+0253,1","10105,1","06,0000,9,1",,,,,,"01,1,+00540,9,08,9","01,1,+02400,9,03,9",,"03,99,1,01,1,02,1,00450,1,03,1,09,1",,"01,9",,,,"99999,9,10101,1","2,1,009,1,-009,1",,,"SYN118AAXX  13151 76458 32470 30000 10296 20253 30101 40105 52009 81239 91450 333 04499 30/// 57844 59009 81818 81358 81169;","Q01  00002PRCP06"
"76458099999","2004-09-13T21:00:00","4","23.2","-106.4166666","4.0","COLONIA JUAN CARRASCO MAZATLAN SIN., MX","FM-12","99999","V020","240,1,N,0030,1","22000,1,9,N","020000,1,N,1","+0323,1","+0250,1","10085,1","06,0000,9,1",,,,,,"02,1,+00660,9,09,9",,,"03,99,1,02,1,02,1,00800,1,00,1,05,1",,"01,9",,,,"99999,9,10080,1","7,1,020,1,-012,1",,,"SYN112AAXX  13211 76458 32570 32403 10323 20250 30080 40085 57020 82205 92045 333 0/07/ 30/// 57975 59012 82922 81070;","Q01  00002PRCP06"
"76458099999","2004-09-14T12:00:00","4","23.2","-106.4166666","4.0","COLONIA JUAN CARRASCO MAZATLAN SIN., MX","FM-12","99999","V020","360,1,N,0010,1","22000,1,9,N","008000,1,N,1","+0263,1","+0221,1","10075,1","06,0000,9,1","24,0000,9,1",,,,,"00,1,+99999,9,99,9",,,"00,99,1,00,1,00,1,99999,9,00,1,00,1",,"01,9",,"999,M,+0340,1","120,N,+0250,1","99999,9,10071,1","7,1,023,1,-025,1",,,"SYN100AAXX  14121 76458 32958 03601 10263 20221 30071 40075 57023 91145 333 10340 20250 30233 59025 70000;","Q01  00002PRCP06Q02  00002PRCP24"
"76458099999","2004-09-14T15:00:00","4","23.2","-106.4166666","4.0","COLONIA JUAN CARRASCO MAZATLAN SIN., MX","FM-12","99999","V020","030,1,N,0010,1","22000,1,9,N","015000,1,N,1","+0284,1","+0230,1","10092,1","06,0000,9,1",,,,,,"01,1,+00630,9,08,9",,,"01,99,1,01,1,02,1,00800,1,00,1,00,1",,"01,9",,,,"99999,9,10088,1","2,1,017,1,-013,1",,,"SYN106AAXX  14151 76458 32565 10301 10284 20230 30088 40092 52017 81200 91455 333 0/5// 30/// 57856 59013 81821;","Q01  00002PRCP06"
"76458099999","2004-09-14T18:00:00","4","23.2","-106.4166666","4.0","COLONIA JUAN CARRASCO MAZATLAN SIN., MX","FM-12","99999","V020","210,1,N,0040,1","22000,1,9,N","020000,1,N,1","+0309,1","+0241,1","10099,1","06,0000,9,1",,,,,,"01,1,+00840,9,08,9",,,"02,99,1,01,1,02,1,00800,1,03,1,00,1",,"01,9",,"120,M,+0335,1","240,N,+0245,1","99999,9,10095,1","1,1,007,1,-005,1",,,"SYN124AAXX  14181 76458 32570 22104 10309 20241 30095 40099 51007 81230 91750 333 04590 10335 20245 30/// 57855 59005 81828 81358;","Q01  00002PRCP06"
"76458099999","2004-09-14T21:00:00","4","23.2","-106.4166666","4.0","COLONIA JUAN CARRASCO MAZATLAN SIN., MX","FM-12","99999","V020","210,1,N,0030,1","22000,1,9,N","020000,1,N,1","+0314,1","+0249,1","10086,1","06,0000,9,1",,,,,,"01,1,+00840,9,08,9",,,"02,99,1,01,1,02,1,00800,1,00,1,05,1",,"01,9",,,,"99999,9,10082,1","7,1,013,1,+002,1",,,"SYN112AAXX  14211 76458 32570 22103 10314 20249 30082 40086 57013 81205 92045 333 04109 30/// 57831 58002 81828 81079;","Q01  00002PRCP06"
"76458099999","2004-09-15T00:00:00","4","23.2","-106.4166666","4.0","COLONIA JUAN CARRASCO MAZATLAN SIN., MX","FM-12","99999","V020","250,1,N,0030,1","22000,1,9,N","020000,1,N,1","+0318,1","+0246,1","10074,1","06,0000,9,1","24,0000,9,1",,,,,,,,"01,99,1,01,1,02,1,00800,1,00,1,00,1",,"01,9",,"120,M,+0336,1","180,N,+0245,1","99999,9,10069,1","5,1,013,1,-014,1",,,"SYN130AAXX  15001 76458 32570 12503 10318 20246 30069 40074 55013 81200 92347 333 0/1// 10336 20245 30/// 50501 57818 59014 70000 81830;","Q01  00002PRCP06"
"76458099999","2004-09-15T03:00:00","4","23.2","-106.4166666","4.0","COLONIA JUAN CARRASCO MAZATLAN SIN., MX","FM-12","99999","V020","240,1,N,0010,1","22000,1,9,N","008000,1,N,1","+0300,1","+0249,1","10082,1","06,0000,9,1",,,,,,"01,1,+00630,9,08,9",,,"01,99,1,01,1,01,1,00800,1,00,1,00,1",,"01,9",,,,"99999,9,10078,1","2,1,009,1,-012,1",,,"SYN106AAXX  15031 76458 32558 12401 10300 20249 30078 40082 52009 81100 90245 333 0/6// 30/// 57869 59012 81821;","Q01  00002PRCP06"
"76458099999","2004-09-15T12:00:00","4","23.2","-106.4166666","4.0","COLONIA JUAN CARRASCO MAZATLAN SIN., MX","FM-12","99999","V020","360,1,N,0020,1","22000,1,9,N","009000,1,N,1","+0269,1","+0244,1","10074,1","06,0000,9,1","24,0000,9,1",,,,,"01,1,+00660,9,08,9",,,"04,99,1,01,1,02,1,00450,1,05,1,00,1",,"01,9",,"999,M,+0336,1","120,N,+0264,1","99999,9,10070,1","6,1,001,1,-001,1",,,"SYN130AAXX  15121 76458 32459 43602 10269 20244 30070 40074 56001 81250 91145 333 0/56/ 10336 20264 30256 57856 59001 70000 81822 83358;","Q01  00002PRCP06"
"76458099999","2004-09-15T15:00:00","4","23.2","-106.4166666","4.0","COLONIA JUAN CARRASCO MAZATLAN SIN., MX","FM-12","99999","V020","020,1,N,0020,1","03600,1,C,N","014000,1,N,1","+0287,1","+0246,1","10092,1","06,0000,9,1",,,,,,"01,1,+00660,9,09,9",,,"05,99,1,01,1,02,1,00450,1,05,1,00,1",,"01,9",,,,"99999,9,10087,1","2,1,017,1,-001,1",,,"SYN112AAXX  15151 76458 32464 50202 10287 20246 30087 40092 52017 81250 91445 333 0/40/ 30/// 57945 59001 81922 84358;","Q01  00002PRCP06"
"76458099999","2004-09-15T18:00:00","4","23.2","-106.4166666","4.0","COLONIA JUAN CARRASCO MAZATLAN SIN., MX","FM-12","99999","V020","210,1,N,0030,1","03600,1,C,N","020000,1,N,1","+0314,1","+0249,1","10095,1","06,0000,9,1",,,,,,"02,1,+00810,9,08,9",,,"05,99,1,02,1,02,1,00800,1,03,1,00,1",,"01,9",,"120,M,+0339,1","240,N,+0261,1","99999,9,10091,1","1,1,004,1,-004,1",,,"SYN124AAXX  15181 76458 32570 52103 10314 20249 30091 40095 51004 82230 91747 333 0/89/ 10339 20261 30/// 57882 59004 82827 83364;","Q01  00002PRCP06"
"76458099999","2004-09-15T21:00:00","4","23.2","-106.4166666","4.0","COLONIA JUAN CARRASCO MAZATLAN SIN., MX","FM-12","99999","V020","240,1,N,0040,1","03600,1,C,N","020000,1,N,1","+0319,1","+0252,1","10084,1","06,0000,9,1",,,,,,"01,1,+00840,9,09,9","03,1,+02700,9,03,9",,"07,99,1,01,1,03,1,00800,1,03,1,04,1",,"01,9",,,,"99999,9,10080,1","7,1,011,1,-002,1",,,"SYN118AAXX  15211 76458 32570 72404 10319 20252 30080 40084 57011 81334 92050 333 07199 30/// 57911 59002 81928 83359 83079;","Q01  00002PRCP06"
"76458099999","2004-09-16T00:00:00","4","23.2","-106.4166666","4.0","COLONIA JUAN CARRASCO MAZATLAN SIN., MX","FM-12","99999","V020","240,1,N,0030,1","22000,1,9,N","020000,1,N,1","+0316,1","+0246,1","10076,1","06,0000,9,1","24,0000,9,1",,,,,"01,1,+00870,9,09,9",,,"02,99,1,01,1,09,1,00800,1,99,9,01,1",,"01,9",,"120,M,+0340,1","180,N,+0261,1","99999,9,10072,1","6,1,008,1,+003,1",,,"SYN136AAXX  16001 76458 32570 22403 10316 20246 30072 40076 56008 819/1 92340 333 0/1/9 10340 20261 30/// 50511 57912 58003 70000 81929 81070;","Q01  00002PRCP06"
"76458099999","2004-09-16T03:00:00","4","23.2","-106.4166666","4.0","COLONIA JUAN CARRASCO MAZATLAN SIN., MX","FM-12","99999","V020","360,1,N,0010,1","22000,1,9,N","008000,1,N,1","+0298,1","+0244,1","10085,1","06,0000,9,1",,,,,,"00,1,+99999,9,99,9",,,"00,99,1,00,1,00,1,99999,9,00,1,00,1",,"01,9",,,,"99999,9,10080,1","2,1,008,1,+002,1",,,"SYN082AAXX  16031 76458 32958 03601 10298 20244 30080 40085 52008 90240 333 30/// 58002;","Q01  00002PRCP06"
"76458099999","2004-09-16T15:00:00","4","23.2","-106.4166666","4.0","COLONIA JUAN CARRASCO MAZATLAN SIN., MX","FM-12","99999","V020","060,1,N,0010,1","22000,1,9,N","015000,1,N,1","+0290,1","+0244,1","10092,1","06,0000,9,1",,,,,,"01,1,+00570,9,09,9",,,"04,99,1,01,1,09,1,00450,1,00,1,08,1",,"01,9",,,,"99999,9,10087,1","2,1,014,1,+000,1",,,"SYN112AAXX  16151 76458 32465 40601 10290 20244 30087 40092 52014 81908 91448 333 0/5/0 30/// 57951 58000 81919 83270;","Q01  00002PRCP06"
"76458099999","2004-09-16T18:00:00","4","23.2","-106.4166666","4.0","COLONIA JUAN CARRASCO MAZATLAN SIN., MX","FM-12","99999","V020","180,1,N,0030,1","03600,1,9,N","008000,1,N,1","+0281,1","+0261,1","10108,1","03,0010,9,1","06,0010,9,1",,,"5,1,06,1","2,1,06,1","01,1,+00240,9,06,9",,,"08,99,1,01,1,05,1,00250,1,05,1,00,1",,"09,9",,"120,M,+0314,1","240,N,+0260,1","99999,9,10103,1","0,1,016,1,+012,1","50,1",,"SYN142AAXX  16181 76458 01358 81803 10281 20261 30103 40108 50016 60011 75052 81550 91748 333 0/69/ 10314 20260 31/// 57669 58012 60017 81608 87462;",
"76458099999","2004-09-16T21:00:00","4","23.2","-106.4166666","4.0","COLONIA JUAN CARRASCO MAZATLAN SIN., MX","FM-12","99999","V020","230,1,N,0020,1","00420,1,9,N","016000,1,N,1","+0290,1","+0257,1","10099,1","03,0020,9,2","06,0000,2,2",,,,,"05,1,+00420,9,08,9",,,"08,99,1,05,1,07,1,00450,1,02,1,00,1",,"09,9",,,,"99999,9,10094,1","7,1,009,1,+015,1",,,"SYN118AAXX  16211 76458 32466 82302 10290 20257 30094 40099 57009 85720 92050 333 0/490 31/// 57841 58015 60027 85814 83461;",
"76458099999","2004-09-17T03:00:00","4","23.2","-106.4166666","4.0","COLONIA JUAN CARRASCO MAZATLAN SIN., MX","FM-12","99999","V020","150,1,N,0010,1","22000,1,9,N","008000,1,N,1","+0284,1","+0249,1","10095,1","06,0000,9,1",,,,,,"01,1,+01800,9,03,9",,,"03,99,1,01,1,99,9,02250,1,03,1,01,1",,"09,9",,,,"99999,9,10091,1","2,1,009,1,+011,1",,,"SYN100AAXX  17031 76458 32858 31501 10284 20249 30091 40095 52009 81/31 90240 333 31/// 58011 81356 82070;","Q01  00002PRCP06"
"76458099999","2004-09-17T06:00:00","4","23.2","-106.4166666","4.0","COLONIA JUAN CARRASCO MAZATLAN SIN., MX","FM-12","99999","V020","070,1,N,0020,1","99999,9,9,N","008000,1,N,1","+0278,1","+0251,1","10102,1","06,0000,9,1",,,,,,,,,"06,99,1,99,9,00,1,99999,9,03,1,00,1","0078,9","01,9",,"240,M,+0325,1","240,N,+0260,1","99999,9,10099,1","2,1,008,1,+017,1",,,"SYN124AAXX  17061 76458 32958 60702 10278 20251 30099 40102 52008 80030 90558 333 0/090 10325 20260 30/// 55013 25029 58017 86358;","Q01+000002SCOTLCQ02  00002PRCP06"
"76458099999","2004-09-17T09:00:00","4","23.2","-106.4166666","4.0","COLONIA JUAN CARRASCO MAZATLAN SIN., MX","FM-12","99999","V020","060,1,N,0020,1","02400,1,9,N","008000,1,N,1","+0272,1","+0240,1","10100,1","06,0000,9,1",,,,,,"05,1,+02400,9,03,9",,,"05,99,1,99,9,00,1,99999,9,05,1,00,1",,"01,9",,,,"99999,9,10095,1","7,1,004,1,+025,1",,,"SYN100AAXX  17091 76458 32958 50602 10272 20240 30095 40100 57004 80050 90845 333 0/090 30/// 58025 85358;","Q01+000002SCOTLCQ02  00002PRCP06"
"76458099999","2004-09-17T15:00:00","4","23.2","-106.4166666","4.0","COLONIA JUAN CARRASCO MAZATLAN SIN., MX","FM-12","99999","V020","110,1,N,0030,1","03600,1,9,N","016000,1,N,1","+0272,1","+0249,1","10103,1","06,0000,9,1",,,,,,"02,1,+00630,9,09,9",,,"05,99,1,02,1,02,1,00450,1,05,1,00,1",,"01,9",,,,"99999,9,10099,1","2,1,013,1,+012,1",,,"SYN112AAXX  17151 76458 32466 51103 10272 20249 30099 40103 52013 82250 91445 333 0/50/ 30/// 57956 58012 82921 83352;","Q01  00002PRCP06"
"76458099999","2004-09-17T18:00:00","4","23.2","-106.4166666","4.0","COLONIA JUAN CARRASCO MAZATLAN SIN., MX","FM-12","99999","V020","150,1,N,0030,1","03600,1,C,N","020000,1,N,1","+0299,1","+0251,1","10113,1","06,0000,9,1",,,,,,"01,1,+00600,9,08,9","01,1,+03600,9,03,9",,"07,99,1,01,1,02,1,00800,1,03,1,08,1",,"01,9",,"120,M,+0320,1","240,N,+0256,1","99999,9,10108,1","1,1,009,1,+005,1",,,"SYN130AAXX  17181 76458 32570 71503 10299 20251 30108 40113 51009 81238 91747 333 0/899 10320 20256 30/// 57884 58005 81820 81362 85268;","Q01  00002PRCP06"
"76458099999","2004-09-17T21:00:00","4","23.2","-106.4166666","4.0","COLONIA JUAN CARRASCO MAZATLAN SIN., MX","FM-12","99999","V020","200,1,N,0040,1","03600,1,C,N","020000,1,N,1","+0299,1","+0247,1","10097,1","06,0000,9,1",,,,,,"02,1,+00660,9,08,9","02,1,+03600,9,03,9",,"06,99,1,02,1,02,1,00800,1,03,1,08,1",,"01,9",,,,"99999,9,10093,1","7,1,015,1,-001,1",,,"SYN118AAXX  17211 76458 32570 62004 10299 20247 30093 40097 57015 82238 92045 333 0/899 30/// 57889 59001 82822 82362 82268;","Q01  00002PRCP06"
"76458099999","2004-09-18T00:00:00","4","23.2","-106.4166666","4.0","COLONIA JUAN CARRASCO MAZATLAN SIN., MX","FM-12","99999","V020","220,1,N,0040,1","22000,1,9,N","020000,1,N,1","+0306,1","+0214,1","10085,1","06,0000,9,1","24,0033,9,1",,,,,"01,1,+01110,9,09,9",,,"02,99,1,01,1,09,1,01250,1,99,9,01,1",,"01,9",,"120,M,+0325,1","180,N,+0256,1","99999,9,10080,1","7,1,013,1,-002,1",,,"SYN136AAXX  18001 76458 32670 22204 10306 20214 30080 40085 57013 819/1 92340 333 0/199 10325 20256 30/// 50151 57912 59002 70033 81937 81070;","Q01  00002PRCP06"
"76458099999","2004-09-18T03:00:00","4","23.2","-106.4166666","4.0","COLONIA JUAN CARRASCO MAZATLAN SIN., MX","FM-12","99999","V020","250,1,N,0020,1","22000,1,9,N","008000,1,N,1","+0290,1","+0241,1","10098,1","06,0000,9,1",,,,,,"01,1,+00600,9,08,9",,,"02,99,1,01,1,01,1,00800,1,03,1,99,9",,"01,9",,,,"99999,9,10094,1","2,1,014,1,+003,1",,,"SYN112AAXX  18031 76458 32558 22502 10290 20241 30094 40098 52014 8113/ 90240 333 0079/ 30/// 57870 58003 81820 81356;","Q01  00002PRCP06"
"76458099999","2004-09-18T09:00:00","4","23.2","-106.4166666","4.0","COLONIA JUAN CARRASCO MAZATLAN SIN., MX","FM-12","99999","V020","060,1,N,0020,1","00180,1,9,N","008000,1,N,1","+0260,1","+0247,1","10096,1","02,0051,9,1",,,,"6,1,03,1","6,1,03,1","08,1,+00180,9,06,9",,,"08,99,1,08,1,04,1,00150,1,00,1,00,1",,"09,9",,,,"99999,9,10091,1","7,1,005,1,-004,1","60,1",,"SYN112AAXX  18091 76458 11258 80602 10260 20247 30091 40096 57005 60056 76066 88400 90858 333 0/700 31/// 59004 88606;",
"76458099999","2004-09-18T18:00:00","4","23.2","-106.4166666","4.0","COLONIA JUAN CARRASCO MAZATLAN SIN., MX","FM-12","99999","V020","150,1,N,0030,1","00360,1,9,N","014000,1,N,1","+0280,1","+0253,1","10110,1","06,9999,9,9",,,,,,"05,1,+00360,9,08,9",,,"07,99,1,05,1,02,1,00450,1,08,1,00,1",,"01,9",,"120,M,+0288,1","240,N,+0247,1","99999,9,10105,1","1,1,009,1,-003,1",,,"SYN130AAXX  18181 76458 12464 71503 10280 20253 30105 40110 51009 69901 85280 91748 333 0/30/ 10288 20247 30/// 57836 59003 85812 82358;",
"76458099999","2004-09-18T21:00:00","4","23.2","-106.4166666","4.0","COLONIA JUAN CARRASCO MAZATLAN SIN., MX","FM-12","99999","V020","180,1,N,0030,1","02700,1,9,N","020000,1,N,1","+0298,1","+0243,1","10099,1","06,0000,9,1",,,,,,"03,1,+00690,9,08,9","03,1,+02700,9,03,9",,"07,99,1,03,1,02,1,00800,1,03,1,02,1",,"09,9",,,,"99999,9,10095,1","7,1,010,1,-002,1",,,"SYN118AAXX  18211 76458 32570 71803 10298 20243 30095 40099 57010 83232 92056 333 04199 31/// 57811 59002 83823 83359 81079;","Q01  00002PRCP06"
"76458099999","2004-09-19T09:00:00","4","23.2","-106.4166666","4.0","COLONIA JUAN CARRASCO MAZATLAN SIN., MX","FM-12","99999","V020","090,1,N,0030,1","00090,1,9,N","008000,1,N,1","+0251,1","+0244,1","10120,1","03,0079,9,1",,,,"5,1,03,1","6,1,03,1","08,1,+00090,9,06,9",,,"08,99,1,08,1,05,1,00075,1,00,1,00,1",,"11,9",,,,"99999,9,10116,1","7,1,001,1,+025,1","50,1",,"SYN118AAXX  19091 76458 11158 80903 10251 20244 30116 40120 57001 60087 75056 88500 90850 333 0/9// 32/// 57699 58025 88603;",
"76458099999","2004-09-19T12:00:00","4","23.2","-106.4166666","4.0","COLONIA JUAN CARRASCO MAZATLAN SIN., MX","FM-12","99999","V020","330,1,N,0020,1","00150,1,9,N","008000,1,N,1","+0252,1","+0241,1","10124,1","03,0061,9,1","24,0088,9,1",,,"6,1,06,1","6,1,06,1","05,1,+00150,9,06,9",,,"08,99,1,05,1,05,1,00150,1,02,1,99,9",,"01,9",,"999,M,+0312,1","120,N,+0242,1","99999,9,10120,1","3,1,004,1,+028,1","20,1",,"SYN142AAXX  19121 76458 01258 83302 10252 20241 30120 40124 53004 60067 72066 8552/ 91140 333 0/99/ 10312 20242 30240 57690 58028 70088 85605 83458;",
"76458099999","2004-09-19T15:00:00","4","23.2","-106.4166666","4.0","COLONIA JUAN CARRASCO MAZATLAN SIN., MX","FM-12","99999","V020","999,9,C,0000,1","03600,1,C,N","020000,1,N,1","+0262,1","+0237,1","10130,1","03,0005,9,1",,,,,,"01,1,+00300,9,08,9",,,"06,99,1,01,1,08,1,00150,1,03,1,99,9",,"11,9",,,,"99999,9,10125,1","1,1,005,1,+030,1",,,"SYN118AAXX  19151 76458 12270 60000 10262 20237 30125 40130 51005 69957 8183/ 91440 333 0149/ 32/// 57818 58030 81810 85356;",
"76458099999","2004-09-19T18:00:00","4","23.2","-106.4166666","4.0","COLONIA JUAN CARRASCO MAZATLAN SIN., MX","FM-12","99999","V020","250,1,N,0010,1","03600,1,C,N","020000,1,N,1","+0307,1","+0239,1","10131,1","06,0000,2,1",,,,,,"02,1,+00840,9,08,9","02,1,+02400,9,03,9","01,1,+05700,9,01,9","06,99,1,02,1,02,1,00800,1,03,1,09,1",,"09,9",,"120,M,+0323,1","240,N,+0241,1","99999,9,10126,1","4,1,000,1,+021,1",,,"SYN136AAXX  19181 76458 32570 62501 10307 20239 30126 40131 54013 82239 91750 333 04199 10323 20241 31/// 57811 58021 82828 82358 81169 81079;",
"76458099999","2004-09-19T21:00:00","4","23.2","-106.4166666","4.0","COLONIA JUAN CARRASCO MAZATLAN SIN., MX","FM-12","99999","V020","270,1,N,0090,1","03600,1,C,N","020000,1,N,1","+0297,1","+0242,1","10117,1","06,0000,9,1",,,,,,"02,1,+00690,9,09,9",,,"05,99,1,02,1,03,1,00800,1,03,1,00,1",,"09,9",,,,"99999,9,10113,1","7,1,014,1,+018,1",,,"SYN112AAXX  19211 76458 32570 52709 10297 20242 30113 40117 57014 82330 92040 333 07190 31/// 57912 58018 82923 83358;","Q01  00002PRCP06"
"76458099999","2004-09-20T00:00:00","4","23.2","-106.4166666","4.0","COLONIA JUAN CARRASCO MAZATLAN SIN., MX","FM-12","99999","V020","300,1,N,0030,1","22000,1,9,N","020000,1,N,1","+0302,1","+0140,1","10101,1","06,0000,9,1","24,0103,9,1",,,,,"02,1,+00780,9,08,9",,,"03,99,1,02,1,01,1,00800,1,00,1,06,1",,"01,9",,"120,M,+0331,1","180,N,+0241,1","99999,9,10096,1","6,1,017,1,+007,1",,,"SYN136AAXX  20001 76458 32570 33003 10302 20140 30096 40101 56017 82106 92348 333 0/8/9 10331 20241 30/// 50341 57889 58007 70103 82826 81068;","Q01  00002PRCP06"
"76458099999","2004-09-20T03:00:00","4","23.2","-106.4166666","4.0","COLONIA JUAN CARRASCO MAZATLAN SIN., MX","FM-12","99999","V020","310,1,N,0030,1","22000,1,9,N","010000,1,N,1","+0287,1","+0242,1","10108,1","06,0000,9,1",,,,,,"01,1,+00570,9,06,9",,,"01,99,1,01,1,04,1,00450,1,00,1,00,1",,"01,9",,,,"99999,9,10104,1","2,1,008,1,-003,1",,,"SYN106AAXX  20031 76458 32460 13103 10287 20242 30104 40108 52008 81400 90245 333 0/7// 30/// 57679 59003 81619;","Q01  00002PRCP06"
"76458099999","2004-09-20T15:00:00","4","23.2","-106.4166666","4.0","COLONIA JUAN CARRASCO MAZATLAN SIN., MX","FM-12","99999","V020","340,1,N,0020,1","22000,1,9,N","020000,1,N,1","+0280,1","+0244,1","10116,1","06,0000,9,1",,,,,,"01,1,+00450,9,08,9","01,1,+02700,9,03,9",,"03,99,1,01,1,02,1,00450,1,03,1,05,1",,"01,9",,,,"99999,9,10112,1","2,1,006,1,-013,1",,,"SYN118AAXX  20151 76458 32470 33402 10280 20244 30112 40116 52006 81235 91450 333 04599 30/// 57856 59013 81815 81359 81079;","Q01  00002PRCP06"
"76458099999","2004-09-20T18:00:00","4","23.2","-106.4166666","4.0","COLONIA JUAN CARRASCO MAZATLAN SIN., MX","FM-12","99999","V020","250,1,N,0040,1","22000,1,9,N","020000,1,N,1","+0303,1","+0242,1","10110,1","06,0000,9,1",,,,,,"02,1,+00660,9,08,9",,,"03,99,1,02,1,02,1,00800,1,00,1,03,1",,"01,9",,"120,M,+0331,1","240,N,+0253,1","99999,9,10106,1","7,1,006,1,-020,1",,,"SYN124AAXX  20181 76458 32570 32504 10303 20242 30106 40110 57006 82203 91745 333 0/3/0 10331 20253 30/// 57835 59020 82822 81070;","Q01  00002PRCP06"
"76458099999","2004-09-20T21:00:00","4","23.2","-106.4166666","4.0","COLONIA JUAN CARRASCO MAZATLAN SIN., MX","FM-12","99999","V020","250,1,N,0050,1","22000,1,9,N","020000,1,N,1","+0315,1","+0257,1","10090,1","06,0000,9,1",,,,,,"02,1,+00660,9,08,9","01,1,+02400,9,03,9",,"04,99,1,02,1,02,1,00800,1,05,1,03,1",,"01,9",,,,"99999,9,10086,1","7,1,020,1,-027,1",,,"SYN118AAXX  20211 76458 32570 42505 10315 20257 30086 40090 57020 82253 92045 333 0/700 30/// 57875 59027 82822 81358 81070;","Q01  00002PRCP06"
"76458099999","2004-09-21T00:00:00","4","23.2","-106.4166666","4.0","COLONIA JUAN CARRASCO MAZATLAN SIN., MX","FM-12","99999","V020","280,1,N,0050,1","99999,9,9,N","020000,1,N,1","+0302,1","+0248,1","10082,1","06,0000,9,1","24,0000,9,1",,,,,"01,1,+00660,9,08,9",,,"07,99,1,01,1,02,1,00800,1,99,9,06,1",,"01,9",,"120,M,+0330,1","180,N,+0253,1","99999,9,10077,1","5,1,009,1,-019,1",,,"SYN136AAXX  21001 76458 32570 72805 10302 20248 30077 40082 55009 812/6 92340 333 011/9 10330 20253 30/// 50341 57814 59019 70000 81822 86070;","Q01  00002PRCP06"
"76458099999","2004-09-21T03:00:00","4","23.2","-106.4166666","4.0","COLONIA JUAN CARRASCO MAZATLAN SIN., MX","FM-12","99999","V020","310,1,N,0030,1","99999,9,9,N","008000,1,N,1","+0292,1","+0247,1","10091,1","06,0000,9,1",,,,"0,1,03,1","0,1,03,1","01,1,+00570,9,08,9","01,1,+00720,9,09,9",,"05,99,1,02,1,09,1,00450,1,99,9,01,1",,"01,9",,,,"99999,9,10086,1","2,1,009,1,-018,1","13,1",,"SYN124AAXX  21031 76458 31458 53103 10292 20247 30086 40091 52009 71300 829/1 90240 333 0/3/9 30/// 57930 59018 81924 81819 83070;","Q01  00002PRCP06"
"76458099999","2004-09-21T15:00:00","4","23.2","-106.4166666","4.0","COLONIA JUAN CARRASCO MAZATLAN SIN., MX","FM-12","99999","V020","020,1,N,0010,1","99999,9,9,N","012000,1,N,1","+0240,1","+0226,1","10105,1","03,0010,9,1",,,,"5,1,03,1","2,1,03,1","03,1,+02400,9,03,9",,,"08,99,1,08,1,00,1,99999,9,02,1,00,1",,"09,9",,,,"99999,9,10110,1","4,1,000,1,-002,1","50,1",,"SYN118AAXX  21151 76458 21962 80201 10240 20226 30110 40105 54000 75052 88020 91445 333 0//0/ 31/// 59002 60017 83358 85460;",
"76458099999","2004-09-21T18:00:00","4","23.2","-106.4166666","4.0","COLONIA JUAN CARRASCO MAZATLAN SIN., MX","FM-12","99999","V020","090,1,N,0020,1","03600,1,C,N","020000,1,N,1","+0272,1","+0226,1","10121,1","03,0005,9,1","06,0020,9,1",,,,,"01,1,+00570,9,08,9","03,1,+02400,9,03,9",,"07,99,1,01,1,02,1,00450,1,03,1,08,1",,"09,9",,"120,M,+0287,1","240,N,+0229,1","99999,9,10117,1","1,1,007,1,+011,1",,,"SYN142AAXX  21181 76458 02470 70902 10272 20226 30117 40121 51007 60021 81238 91755 333 0/600 10287 20229 31/// 57875 58011 69957 81819 83358 83270;",
"76458099999","2004-09-21T21:00:00","4","23.2","-106.4166666","4.0","COLONIA JUAN CARRASCO MAZATLAN SIN., MX","FM-12","99999","V020","240,1,N,0020,1","03600,1,C,N","020000,1,N,1","+0300,1","+0230,1","10103,1","06,0000,2,1",,,,,,"01,1,+00750,9,08,9","01,1,+00960,9,09,9",,"06,99,1,02,1,03,1,00800,1,03,1,00,1",,"09,9",,,,"99999,9,10098,1","7,1,018,1,+012,1",,,"SYN118AAXX  21211 76458 32570 62402 10300 20230 30098 40103 57018 82330 92056 333 04190 31/// 57913 58012 81825 81932 84358;",
"76458099999","2004-09-22T00:00:00","4","23.2","-106.4166666","4.0","COLONIA JUAN CARRASCO MAZATLAN SIN., MX","FM-12","99999","V020","280,1,N,0030,1","09000,1,9,N","020000,1,N,1","+0297,1","+0236,1","10095,1","06,0000,9,1","24,0107,9,1",,,,,"01,1,+00750,9,08,9","03,1,+04200,9,03,9",,"05,99,1,01,1,02,1,00800,1,03,1,01,1",,"01,9",,"120,M,+0323,1","180,N,+0229,1","99999,9,10090,1","7,1,008,1,+013,1",,,"SYN142AAXX  22001 76458 32570 52803 10297 20236 30090 40095 57008 81231 92347 333 0/199 10323 20229 30/// 50421 57814 58013 70107 81825 83364 81068;","Q01  00002PRCP06"
"76458099999","2004-09-22T03:00:00","4","23.2","-106.4166666","4.0","COLONIA JUAN CARRASCO MAZATLAN SIN., MX","FM-12","99999","V020","320,1,N,0010,1","22000,1,9,N","010000,1,N,1","+0281,1","+0240,1","10099,1","06,0000,9,1",,,,,,"00,1,+99999,9,99,9",,,"00,99,1,00,1,00,1,99999,9,00,1,00,1",,"01,9",,,,"99999,9,10095,1","1,1,005,1,-004,1",,,"SYN082AAXX  22031 76458 32960 03201 10281 20240 30095 40099 51005 90245 333 30/// 59004;","Q01  00002PRCP06"
"76458099999","2004-09-22T12:00:00","4","23.2","-106.4166666","4.0","COLONIA JUAN CARRASCO MAZATLAN SIN., MX","FM-12","99999","V020","080,1,N,0020,1","22000,1,9,N","008000,1,N,1","+0268,1","+0241,1","10104,1","06,0000,9,1","24,0107,9,1",,,,,"02,1,+02400,9,03,9",,,"04,99,1,02,1,00,1,99999,9,05,1,03,1",,"01,9",,"999,M,+0323,1","120,N,+0257,1","99999,9,10099,1","7,1,004,1,-011,1",,,"SYN124AAXX  22121 76458 32958 40802 10268 20241 30099 40104 57004 82053 91145 333 0//00 10323 20257 30251 59011 70107 82358 82070;","Q01  00002PRCP06"
"76458099999","2004-09-22T15:00:00","4","23.2","-106.4166666","4.0","COLONIA JUAN CARRASCO MAZATLAN SIN., MX","FM-12","99999","V020","110,1,N,0030,1","02400,1,9,N","018000,1,N,1","+0280,1","+0246,1","10119,1","06,0000,9,1",,,,,,"02,1,+00660,9,08,9","03,1,+02400,9,03,9",,"07,99,1,02,1,02,1,00450,1,05,1,03,1",,"01,9",,,,"99999,9,10115,1","2,1,016,1,+005,1",,,"SYN118AAXX  22151 76458 32468 71103 10280 20246 30115 40119 52016 82253 91448 333 0/300 30/// 57835 58005 82822 83358 82070;","Q01  00002PRCP06"
"76458099999","2004-09-22T18:00:00","4","23.2","-106.4166666","4.0","COLONIA JUAN CARRASCO MAZATLAN SIN., MX","FM-12","99999","V020","999,9,C,0000,1","02400,1,9,N","010000,1,N,1","+0309,1","+0251,1","10128,1","06,0000,9,1",,,,,,"02,1,+00720,9,08,9","02,1,+01020,9,09,9","01,1,+02400,9,03,9","06,99,1,04,1,09,1,00800,1,06,1,02,1",,"01,9",,"120,M,+0305,1","240,N,+0253,1","99999,9,10123,1","0,1,008,1,+007,1",,,"SYN136AAXX  22181 76458 32560 60000 10309 20251 30123 40128 50008 84962 91750 333 07899 10305 20253 30/// 57981 58007 82824 82934 81358 81079;","Q01  00002PRCP06"
"76458099999","2004-09-22T21:00:00","4","23.2","-106.4166666","4.0","COLONIA JUAN CARRASCO MAZATLAN SIN., MX","FM-12","99999","V020","210,1,N,0030,1","09000,1,C,N","020000,1,N,1","+0295,1","+0247,1","10104,1","03,0008,9,1",,,,"6,1,03,1","5,1,03,1","04,1,+00600,9,08,9",,,"07,99,1,04,1,01,1,00800,1,00,1,06,1",,"09,9",,,,"99999,9,10099,1","7,1,024,1,+001,1","02,1",,"SYN118AAXX  22211 76458 21570 72103 10295 20247 30099 40104 57024 70265 84106 92050 333 01809 31/// 58001 69987 84820 83079;",
"76458099999","2004-09-23T00:00:00","4","23.2","-106.4166666","4.0","COLONIA JUAN CARRASCO MAZATLAN SIN., MX","FM-12","99999","V020","270,1,N,0040,1","22000,1,9,N","020000,1,N,1","+0300,1","+0249,1","10097,1","06,0000,9,1",,,,"0,1,06,1","0,1,06,1",,,,"03,99,1,03,1,09,1,00800,1,99,9,99,9",,,,,,"99999,9,10092,1","6,1,007,1,+999,9","17,1",,"SYN072AAXX  23001 76458 31570 32704 10300 20249 30092 40097 56007 71700 839//;","Q01  00002PRCP06"
"76458099999","2004-09-23T03:00:00","4","23.2","-106.4166666","4.0","COLONIA JUAN CARRASCO MAZATLAN SIN., MX","FM-12","99999","V020","060,1,N,0020,1","01800,1,C,N","008000,1,N,1","+0264,1","+0245,1","10115,1","03,0109,9,1",,,,"6,1,03,1","6,1,03,1","02,1,+00240,9,08,9","03,1,+01800,9,03,9",,"07,99,1,02,1,02,1,00250,1,03,1,02,1",,"11,9",,,,"99999,9,10111,1","2,1,019,1,+016,1","00,1",,"SYN130AAXX  23031 76458 01358 70602 10264 20245 30111 40115 52019 60117 70066 82232 90240 333 0/599 32/// 57850 58016 82808 83356 82070;",
"76458099999","2004-09-23T06:00:00","4","23.2","-106.4166666","4.0","COLONIA JUAN CARRASCO MAZATLAN SIN., MX","FM-12","99999","V020","330,1,N,0010,1","22000,1,9,N","008000,1,N,1","+0258,1","+0240,1","10116,1","06,0000,9,1",,,,,,,,,"03,99,1,99,9,00,1,99999,9,05,1,00,1",,"09,9",,"240,M,+0325,1","240,N,+0253,1","99999,9,10111,1","2,1,010,1,+007,1",,,"SYN124AAXX  23061 76458 32958 33301 10258 20240 30111 40116 52010 80050 90558 333 0/090 10325 20253 31/// 55820 21021 58007 83358;","Q01+000002SCOTLCQ02  00002PRCP06"
"76458099999","2004-09-23T12:00:00","4","23.2","-106.4166666","4.0","COLONIA JUAN CARRASCO MAZATLAN SIN., MX","FM-12","99999","V020","110,1,N,0020,1","00180,1,9,N","008000,1,N,1","+0255,1","+0241,1","10105,1","06,0000,9,1","24,0116,9,1",,,,,"05,1,+00180,9,06,9",,,"05,99,1,05,1,05,1,99999,9,00,1,00,1",,"01,9",,"999,M,+0325,1","120,N,+0249,1","99999,9,10101,1","9,9,999,9,+002,1",,,"SYN118AAXX  23121 76458 32958 51102 10255 20241 30101 40105 5//// 85500 91145 333 0/0// 10325 20249 30245 58002 70116 85606;","Q01  00002PRCP06"
"76458099999","2004-09-23T21:00:00","4","23.2","-106.4166666","4.0","COLONIA JUAN CARRASCO MAZATLAN SIN., MX","FM-12","99999","V020","250,1,N,0030,1","22000,1,9,N","020000,1,N,1","+0307,1","+0247,1","10107,1","06,0000,9,1",,,,,,"02,1,+00750,9,08,9",,,"03,99,1,02,1,02,1,00800,1,03,1,00,1",,"01,9",,,,"99999,9,10102,1","7,1,019,1,+003,1",,,"SYN112AAXX  23211 76458 32570 32503 10307 20247 30102 40107 57019 82230 92048 333 0/49/ 30/// 57849 58003 82825 81362;","Q01  00002PRCP06"
"76458099999","2004-09-24T12:00:00","4","23.2","-106.4166666","4.0","COLONIA JUAN CARRASCO MAZATLAN SIN., MX","FM-12","99999","V020","090,1,N,0020,1","99999,9,9,N","008000,1,N,1","+0257,1","+0238,1","10111,1","06,0000,9,1","24,0320,9,1",,,,,"03,1,+01500,9,04,9",,,"05,99,1,03,1,00,1,99999,9,04,1,03,1",,"01,9",,"999,M,+9999,9","120,N,+9999,9","99999,9,10107,1","7,1,002,1,-003,1",,,"SYN118AAXX  24121 76458 32958 50902 10257 20238 30107 40111 57002 83043 91145 333 10225 20247 30243 59003 70320 83450 82070;","Q01  00002PRCP06Q02 +02253ATMM  Q03 +02473ATMM  "
"76458099999","2004-09-24T18:00:00","4","23.2","-106.4166666","4.0","COLONIA JUAN CARRASCO MAZATLAN SIN., MX","FM-12","99999","V020","180,1,N,0020,1","22000,1,9,N","020000,1,N,1","+0307,1","+0239,1","10130,1","06,0000,9,1",,,,,,"01,1,+00840,9,08,9",,,"02,99,1,01,1,02,1,00800,1,03,1,00,1",,"01,9",,"120,M,+0330,1","240,N,+0244,1","99999,9,10126,1","0,1,002,1,+005,1",,,"SYN124AAXX  24181 76458 32570 21802 10307 20239 30126 40130 50002 81230 91745 333 0/89/ 10330 20244 30/// 57881 58005 81828 81362;","Q01  00002PRCP06"
"76458099999","2004-09-24T21:00:00","4","23.2","-106.4166666","4.0","COLONIA JUAN CARRASCO MAZATLAN SIN., MX","FM-12","99999","V020","230,1,N,0030,1","22000,1,9,N","020000,1,N,1","+0318,1","+0243,1","10114,1","06,0000,9,1",,,,,,"01,1,+00930,9,08,9",,,"02,99,1,01,1,02,1,00800,1,03,1,00,1",,"01,9",,,,"99999,9,10109,1","7,1,017,1,+007,1",,,"SYN112AAXX  24211 76458 32570 22303 10318 20243 30109 40114 57017 81230 92047 333 0/19/ 30/// 57812 58007 81831 81362;","Q01  00002PRCP06"
"76458099999","2004-09-25T03:00:00","4","23.2","-106.4166666","4.0","COLONIA JUAN CARRASCO MAZATLAN SIN., MX","FM-12","99999","V020","130,1,N,0020,1","01800,1,9,N","008000,1,N,1","+0294,1","+0243,1","10115,1","06,0000,9,1",,,,,,"06,1,+01800,9,03,9",,,"06,99,1,06,1,99,9,99999,9,03,1,99,9",,"01,9",,,,"99999,9,10111,1","2,1,013,1,-007,1",,,"SYN094AAXX  25031 76458 32958 61302 10294 20243 30111 40115 52013 86/3/ 90240 333 30/// 59007 86356;","Q01  00002PRCP06"
"76458099999","2004-09-25T15:00:00","4","23.2","-106.4166666","4.0","COLONIA JUAN CARRASCO MAZATLAN SIN., MX","FM-12","99999","V020","100,1,N,0010,1","03600,1,C,N","015000,1,N,1","+0283,1","+0248,1","10119,1","06,0000,9,1",,,,,,"01,1,+00420,9,08,9",,,"07,99,1,01,1,02,1,00450,1,06,1,00,1",,"01,9",,,,"99999,9,10114,1","2,1,008,1,-010,1",,,"SYN112AAXX  25151 76458 32465 71001 10283 20248 30114 40119 52008 81260 91448 333 0/40/ 30/// 57846 59010 81814 86358;","Q01  00002PRCP06"
"76458099999","2004-09-25T18:00:00","4","23.2","-106.4166666","4.0","COLONIA JUAN CARRASCO MAZATLAN SIN., MX","FM-12","99999","V020","250,1,N,0030,1","22000,1,9,N","020000,1,N,1","+0309,1","+0243,1","10119,1","06,0000,9,1",,,,,,"02,1,+00840,9,08,9",,,"02,99,1,02,1,02,1,00800,1,00,1,00,1",,"01,9",,"120,M,+0332,1","240,N,+0260,1","99999,9,10114,1","4,1,000,1,-012,1",,,"SYN118AAXX  25181 76458 32570 22503 10309 20243 30114 40119 54000 82200 91748 333 0/6// 10332 20260 30/// 57856 59012 82828;","Q01  00002PRCP06"
"76458099999","2004-09-26T00:00:00","4","23.2","-106.4166666","4.0","COLONIA JUAN CARRASCO MAZATLAN SIN., MX","FM-12","99999","V020","220,1,N,0030,1","22000,1,9,N","020000,1,N,1","+0312,1","+0251,1","10103,1","06,0000,9,1","24,0000,9,1",,,,,"02,1,+00750,9,03,9",,,"03,99,1,03,1,03,1,00800,1,99,9,99,9",,"01,9",,"120,M,+0335,1","180,N,+0260,1","99999,9,10099,1","5,1,001,1,+001,1",,,"SYN136AAXX  26001 76458 32570 32203 10312 20251 30099 40103 55001 833// 92340 333 0/1// 10335 20260 30/// 50641 57311 58001 70000 82325 81818;","Q01  00002PRCP06"
"76458099999","2004-09-26T03:00:00","4","23.2","-106.4166666","4.0","COLONIA JUAN CARRASCO MAZATLAN SIN., MX","FM-12","99999","V020","020,1,N,0020,1","22000,1,9,N","008000,1,N,1","+0274,1","+0236,1","10117,1","06,0000,9,1",,,,,,"02,1,+00480,9,08,9",,,"02,99,1,02,1,02,1,00450,1,99,9,99,9",,"01,9",,,,"99999,9,10112,1","2,1,013,1,+001,1",,,"SYN106AAXX  26031 76458 32458 20202 10274 20236 30112 40117 52013 822// 90240 333 0/7// 30/// 57810 58001 82816;","Q01  00002PRCP06"
"76458099999","2004-09-26T06:00:00","4","23.2","-106.4166666","4.0","COLONIA JUAN CARRASCO MAZATLAN SIN., MX","FM-12","99999","V020","030,1,N,0050,1","00420,1,9,N","008000,1,N,1","+0264,1","+0233,1","10130,1","03,9999,2,9","06,9999,9,9",,,"9,1,06,1","9,1,06,1","04,1,+00390,9,06,9",,,"07,99,1,07,1,09,1,00450,1,00,1,00,1","0546,9","09,9",,"240,M,+0335,1","240,N,+0260,1","99999,9,10126,1","2,1,014,1,+999,9","50,1",,"SYN154AAXX  26061 76458 01458 70305 10264 20233 30126 40130 52014 69901 75099 87900 90550 333 0/8// 10335 20260 31/// 55091 21068 57989 58/// 69907 84613 83914;",
"76458099999","2004-09-26T09:00:00","4","23.2","-106.4166666","4.0","COLONIA JUAN CARRASCO MAZATLAN SIN., MX","FM-12","99999","V020","300,1,N,0010,1","00240,1,9,N","008000,1,N,1","+0244,1","+0225,1","10118,1","03,0050,9,1",,,,"5,1,03,1","6,1,03,1","01,1,+00240,9,09,9","05,1,+00240,9,06,9",,"07,99,1,06,1,05,1,00250,1,02,1,00,1",,"09,9",,,,"99999,9,10113,1","7,1,013,1,+999,9","17,1",,"SYN124AAXX  26091 76458 21358 73001 10244 20225 30113 40118 57013 71756 86520 90848 333 0/59/ 31/// 58/// 60057 85608 81908 81462;",
"76458099999","2004-09-26T15:00:00","4","23.2","-106.4166666","4.0","COLONIA JUAN CARRASCO MAZATLAN SIN., MX","FM-12","99999","V020","090,1,N,0010,1","22000,1,9,N","020000,1,N,1","+0268,1","+0238,1","10116,1","06,0000,9,1",,,,,,"02,1,+01800,9,03,9",,,"02,99,1,02,1,99,9,02250,1,03,1,99,9",,"09,9",,,,"99999,9,10112,1","5,1,009,1,-002,1",,,"SYN094AAXX  26151 76458 32870 20901 10268 20238 30112 40116 55009 82/3/ 91440 333 31/// 59002 82356;","Q01  00002PRCP06"
"76458099999","2004-09-26T18:00:00","4","23.2","-106.4166666","4.0","COLONIA JUAN CARRASCO MAZATLAN SIN., MX","FM-12","99999","V020","220,1,N,0020,1","22000,1,9,N","020000,1,N,1","+0295,1","+0243,1","10117,1","06,0000,9,1",,,,,,"02,1,+00660,9,08,9",,,"02,99,1,02,1,02,1,00800,1,00,1,00,1",,"01,9",,"120,M,+0324,1","240,N,+0236,1","99999,9,10112,1","0,1,000,1,-002,1",,,"SYN118AAXX  26181 76458 32570 22202 10295 20243 30112 40117 50000 82200 91748 333 0/1// 10324 20236 30/// 57819 59002 82822;","Q01  00002PRCP06"
"76458099999","2004-09-26T21:00:00","4","23.2","-106.4166666","4.0","COLONIA JUAN CARRASCO MAZATLAN SIN., MX","FM-12","99999","V020","220,1,N,0030,1","22000,1,9,N","020000,1,N,1","+0306,1","+0240,1","10094,1","06,0000,9,1",,,,,,"01,1,+00810,9,08,9",,,"01,99,1,01,1,01,1,00800,1,00,1,00,1",,"01,9",,,,"99999,9,10089,1","7,1,023,1,-011,1",,,"SYN106AAXX  26211 76458 32570 12203 10306 20240 30089 40094 57023 81100 92047 333 0/1// 30/// 57819 59011 81827;","Q01  00002PRCP06"
"76458099999","2004-09-27T00:00:00","4","23.2","-106.4166666","4.0","COLONIA JUAN CARRASCO MAZATLAN SIN., MX","FM-12","99999","V020","240,1,N,0020,1","22000,1,9,N","020000,1,N,1","+0304,1","+0242,1","10087,1","06,0000,9,1","24,0048,9,1",,,,,"01,1,+00720,9,08,9",,,"02,99,1,02,1,03,1,00800,1,00,1,00,1",,"01,9",,"120,M,+0330,1","180,N,+0236,1","99999,9,10083,1","5,1,007,1,-016,1",,,"SYN136AAXX  27001 76458 32570 22402 10304 20242 30083 40087 55007 82300 92350 333 04100 10330 20236 30/// 50531 57912 59016 70048 81824 81934;","Q01  00002PRCP06"
"76458099999","2004-09-27T03:00:00","4","23.2","-106.4166666","4.0","COLONIA JUAN CARRASCO MAZATLAN SIN., MX","FM-12","99999","V020","300,1,N,0020,1","22000,1,9,N","016000,1,N,1","+0294,1","+0237,1","10096,1","06,0000,9,1",,,,,,"01,1,+00720,9,08,9",,,"01,99,1,01,1,01,1,00800,1,00,1,00,1",,"01,9",,,,"99999,9,10092,1","2,1,009,1,-020,1",,,"SYN100AAXX  27031 76458 32566 13002 10294 20237 30092 40096 52009 81100 90250 333 01100 30/// 59020 81824;","Q01  00002PRCP06"
"76458099999","2004-09-27T06:00:00","4","23.2","-106.4166666","4.0","COLONIA JUAN CARRASCO MAZATLAN SIN., MX","FM-12","99999","V020","360,1,N,0010,1","22000,1,9,N","008000,1,N,1","+0274,1","+0243,1","10108,1","06,0000,9,1",,,,,,,,,"01,99,1,01,1,02,1,00450,1,00,1,00,1",,"01,9",,"240,M,+0330,1","240,N,+0236,1","99999,9,10103,1","2,1,011,1,-022,1",,,"SYN124AAXX  27061 76458 32458 13601 10274 20243 30103 40108 52011 81200 90558 333 0/500 10330 20236 30/// 55930 21253 59022 81813;","Q01  00002PRCP06"
"76458099999","2004-09-27T12:00:00","4","23.2","-106.4166666","4.0","COLONIA JUAN CARRASCO MAZATLAN SIN., MX","FM-12","99999","V020","999,9,C,0000,1","22000,1,9,N","008000,1,N,1","+0250,1","+0231,1","10126,1","06,0051,9,2","24,0048,9,2",,,,,"01,1,+01800,9,03,9",,,"02,99,1,01,1,99,9,02250,1,03,1,01,1",,"01,9",,"999,M,+0335,1","120,N,+0236,1","99999,9,10121,1","5,1,008,1,+015,1",,,"SYN124AAXX  27121 76458 02858 20000 10250 20231 30121 40126 55008 60051 81/31 91140 333 10335 20236 30230 58015 70048 81356 81070;",
"76458099999","2004-09-27T18:00:00","4","23.2","-106.4166666","4.0","COLONIA JUAN CARRASCO MAZATLAN SIN., MX","FM-12","99999","V020","270,1,N,0020,1","22000,1,9,N","020000,1,N,1","+0308,1","+0253,1","10126,1","06,0000,9,1",,,,,,"02,1,+00600,9,08,9",,,"02,99,1,99,9,03,1,00800,1,00,1,00,1",,"09,9",,"120,M,+0328,1","240,N,+0255,1","99999,9,10121,1","0,1,005,1,+009,1",,,"SYN124AAXX  27181 76458 32570 22702 10308 20253 30121 40126 50005 83300 91758 333 04100 10328 20255 31/// 57913 58009 82820 81934;","Q01+000032SCOTLCQ02  00002PRCP06"
"76458099999","2004-09-28T03:00:00","4","23.2","-106.4166666","4.0","COLONIA JUAN CARRASCO MAZATLAN SIN., MX","FM-12","99999","V020","300,1,N,0020,1","22000,1,9,N","008000,1,N,1","+0296,1","+0242,1","10114,1","06,0000,9,1",,,,,,"00,1,+99999,9,99,9",,,"00,99,1,00,1,00,1,99999,9,00,1,00,1",,"01,9",,,,"99999,9,10107,1","2,1,012,1,+015,1",,,"SYN082AAXX  28031 76458 32958 03002 10296 20242 30107 40114 52012 90240 333 30/// 58015;","Q01  00002PRCP06"
"76458099999","2004-09-28T12:00:00","4","23.2","-106.4166666","4.0","COLONIA JUAN CARRASCO MAZATLAN SIN., MX","FM-12","99999","V020","360,1,N,0020,1","22000,1,9,N","010000,1,N,1","+0263,1","+0238,1","10116,1","06,0000,9,1","24,0064,9,1",,,,,"01,1,+00360,9,08,9",,,"04,99,1,01,1,02,1,00450,1,05,1,00,1",,"01,9",,"999,M,+0330,1","120,N,+0254,1","99999,9,10112,1","7,1,003,1,+011,1",,,"SYN130AAXX  28121 76458 32460 43602 10263 20238 30112 40116 57003 81250 91145 333 0/50/ 10330 20254 30245 57855 58011 70064 81812 83652;","Q01  00002PRCP06"
"76458099999","2004-09-28T15:00:00","4","23.2","-106.4166666","4.0","COLONIA JUAN CARRASCO MAZATLAN SIN., MX","FM-12","99999","V020","360,1,N,0020,1","22000,1,9,N","020000,1,N,1","+0274,1","+0242,1","10130,1","06,0000,9,1",,,,,,"01,1,+00480,9,09,9",,,"03,99,1,01,1,02,1,00450,1,05,1,00,1",,"01,9",,,,"99999,9,10126,1","2,1,014,1,+010,1",,,"SYN112AAXX  28151 76458 32470 33602 10274 20242 30126 40130 52014 81250 91450 333 0/50/ 30/// 57955 58010 81916 82358;","Q01  00002PRCP06"
"76458099999","2004-09-28T18:00:00","4","23.2","-106.4166666","4.0","COLONIA JUAN CARRASCO MAZATLAN SIN., MX","FM-12","99999","V020","260,1,N,0030,1","22000,1,9,N","020000,1,N,1","+0311,1","+0230,1","10136,1","06,0000,9,1",,,,,,"01,1,+00810,9,08,9",,,"01,99,1,01,1,01,1,01250,1,00,1,00,1",,"01,9",,"120,M,+0328,1","240,N,+0253,1","99999,9,10131,1","2,1,005,1,+010,1",,,"SYN112AAXX  28181 76458 32670 12603 10311 20230 30131 40136 52005 81100 91755 333 01100 10328 20253 30/// 58010 81827;","Q01  00002PRCP06"
"76458099999","2004-09-28T21:00:00","4","23.2","-106.4166666","4.0","COLONIA JUAN CARRASCO MAZATLAN SIN., MX","FM-12","99999","V020","270,1,N,0040,1","22000,1,9,N","020000,1,N,1","+0317,1","+0250,1","10113,1","06,0000,9,1",,,,,,"01,1,+00720,9,08,9",,,"01,99,1,01,1,02,1,00800,1,00,1,00,1",,"01,9",,,,"99999,9,10109,1","7,1,023,1,+007,1",,,"SYN106AAXX  28211 76458 32570 12704 10317 20250 30109 40113 57023 81200 92050 333 04100 30/// 57817 58007 81824;","Q01  00002PRCP06"
"76458099999","2004-09-29T00:00:00","4","23.2","-106.4166666","4.0","COLONIA JUAN CARRASCO MAZATLAN SIN., MX","FM-12","99999","V020","290,1,N,0030,1","22000,1,9,N","020000,1,N,1","+0318,1","+0213,1","10102,1","06,0000,9,1","24,0000,9,1",,,,,,,,"01,99,1,01,1,01,1,01250,1,00,1,00,1",,"01,9",,"120,M,+0335,1","180,N,+0253,1","99999,9,10098,1","7,1,011,1,+003,1",,,"SYN130AAXX  29001 76458 32670 12903 10318 20213 30098 40102 57011 81100 92345 333 0/1// 10335 20253 30/// 50561 57819 58003 70000 81844;","Q01  00002PRCP06"
"76458099999","2004-09-29T03:00:00","4","23.2","-106.4166666","4.0","COLONIA JUAN CARRASCO MAZATLAN SIN., MX","FM-12","99999","V020","330,1,N,0020,1","22000,1,9,N","010000,1,N,1","+0289,1","+0226,1","10113,1","06,0000,9,1",,,,,,"00,1,+99999,9,99,9",,,"00,99,1,00,1,00,1,99999,9,00,1,00,1",,"01,9",,,,"99999,9,10109,1","2,1,011,1,+002,1",,,"SYN082AAXX  29031 76458 32960 03302 10289 20226 30109 40113 52011 90245 333 30/// 58002;","Q01  00002PRCP06"
"76458099999","2004-09-29T06:00:00","4","23.2","-106.4166666","4.0","COLONIA JUAN CARRASCO MAZATLAN SIN., MX","FM-12","99999","V020","330,1,N,0010,1","22000,1,9,N","008000,1,N,1","+0270,1","+0225,1","10127,1","06,0000,9,1",,,,,,"00,1,+99999,9,99,9",,,"00,99,1,00,1,00,1,99999,9,00,1,00,1","0618,9","01,9",,"240,M,+0335,1","240,N,+0253,1","99999,9,10122,1","2,1,013,1,+999,9",,,"SYN106AAXX  29061 76458 32958 03301 10270 20225 30122 40127 52013 90558 333 10335 20253 30/// 55103 21137 58004;","Q01  00002PRCP06"
"76458099999","2004-09-29T12:00:00","4","23.2","-106.4166666","4.0","COLONIA JUAN CARRASCO MAZATLAN SIN., MX","FM-12","99999","V020","340,1,N,0010,1","22000,1,9,N","008000,1,N,1","+0244,1","+0203,1","10120,1","06,0000,9,1",,,,,,"00,1,+99999,9,99,9",,,"00,99,1,00,1,00,1,99999,9,00,1,00,1",,"01,9",,"999,M,+0335,1","120,N,+0234,1","99999,9,10116,1","7,1,002,1,+004,1",,,"SYN100AAXX  29121 76458 32958 03401 10244 20203 30116 40120 57002 91145 333 10335 20234 30225 58004 700OO;","Q01  00002PRCP06"
"76458099999","2004-09-29T15:00:00","4","23.2","-106.4166666","4.0","COLONIA JUAN CARRASCO MAZATLAN SIN., MX","FM-12","99999","V020","360,1,N,0080,1","22000,1,9,N","020000,1,N,1","+0278,1","+0215,1","10127,1","06,0000,9,1",,,,,,"01,1,+00660,9,08,9",,,"01,99,1,01,1,02,1,00450,1,00,1,00,1",,"01,9",,,,"99999,9,10122,1","2,1,006,1,-004,1",,,"SYN106AAXX  29151 76458 32470 13608 10278 20215 30122 40127 52006 81200 91445 333 0/1// 30/// 57816 59004 81822;","Q01  00002PRCP06"
"76458099999","2004-09-29T18:00:00","4","23.2","-106.4166666","4.0","COLONIA JUAN CARRASCO MAZATLAN SIN., MX","FM-12","99999","V020","300,1,N,0030,1","22000,1,9,N","020000,1,N,1","+0312,1","+0225,1","10124,1","06,0000,9,1",,,,,,"01,1,+01080,9,08,9",,,"01,99,1,01,1,01,1,01250,1,00,1,00,1",,"01,9",,"120,M,+0331,1","240,N,+0234,1","99999,9,10120,1","8,1,002,1,-011,1",,,"SYN118AAXX  29181 76458 32670 13003 10312 20225 30120 40124 58002 81100 91745 333 0/1// 10331 20234 30/// 57819 59011 81836;","Q01  00002PRCP06"
"76458099999","2004-09-29T21:00:00","4","23.2","-106.4166666","4.0","COLONIA JUAN CARRASCO MAZATLAN SIN., MX","FM-12","99999","V020","240,1,N,0030,1","22000,1,9,N","020000,1,N,1","+0312,1","+0216,1","10104,1","06,0000,9,1",,,,,,"09,1,+00270,9,00,9",,,"09,99,1,09,1,02,1,01250,1,00,1,00,1",,"01,9",,,,"99999,9,10100,1","7,1,020,1,+999,9",,,"SYN106AAXX  29211 76458 32670 12403 10312 20216 30100 40104 57020 81200 92050 333 04100 30/// 57816 89009 81826;","Q01+000012SCOTCVQ02+000012SCOTLCQ03  00002PRCP06"
"76458099999","2004-09-30T00:00:00","4","23.2","-106.4166666","4.0","COLONIA JUAN CARRASCO MAZATLAN SIN., MX","FM-12","99999","V020","280,1,N,0060,1","22000,1,9,N","020000,1,N,1","+0312,1","+0212,1","10090,1","06,0000,9,1","24,0000,9,1",,,,,,,,"01,99,1,01,1,02,1,01250,1,99,9,99,9",,"01,9",,"120,M,+0335,1","180,N,+0234,1","99999,9,10085,1","7,1,015,1,-013,1",,,"SYN130AAXX  30001 76458 32670 12806 10312 20212 30085 40090 57015 812// 92340 333 011// 10335 20234 30/// 50561 57818 59013 70000 81842;","Q01  00002PRCP06"
"76458099999","2004-09-30T06:00:00","4","23.2","-106.4166666","4.0","COLONIA JUAN CARRASCO MAZATLAN SIN., MX","FM-12","99999","V020","030,1,N,0010,1","22000,1,9,N","008000,1,N,1","+0264,1","+0220,1","10108,1","06,0000,9,1",,,,,,"00,1,+99999,9,99,9",,,"00,99,1,00,1,00,1,99999,9,00,1,00,1","0630,9","01,9",,"240,M,+0335,1","240,N,+0234,1","99999,9,10103,1","2,1,007,1,+999,9",,,"SYN106AAXX  30061 76458 32358 00301 10264 20220 30103 40108 52007 90558 333 10335 20234 30/// 55105 21014 59019;","Q01  00002PRCP06"
"76458099999","2004-09-30T12:00:00","4","23.2","-106.4166666","4.0","COLONIA JUAN CARRASCO MAZATLAN SIN., MX","FM-12","99999","V020","360,1,N,0020,1","22000,1,9,N","008000,1,N,1","+0235,1","+0201,1","10100,1","06,0000,9,1","24,0000,9,1",,,,,"00,1,+99999,9,99,9",,,"00,99,1,00,1,00,1,99999,9,00,1,00,1",,"01,9",,"999,M,+0335,1","120,N,+0229,1","99999,9,10096,1","0,1,004,1,-020,1",,,"SYN100AAXX  30121 76458 32958 03602 10235 20201 30096 40100 50004 91145 333 10335 20229 30215 59020 70000;","Q01  00002PRCP06Q02  00002PRCP24"
"76458099999","2004-09-30T15:00:00","4","23.2","-106.4166666","4.0","COLONIA JUAN CARRASCO MAZATLAN SIN., MX","FM-12","99999","V020","360,1,N,0020,1","22000,1,9,N","020000,1,N,1","+0264,1","+0209,1","10110,1","06,0000,9,1",,,,,,"00,1,+99999,9,99,9",,,"00,99,1,00,1,00,1,99999,9,00,1,00,1",,"01,9",,,,"99999,9,10105,1","2,1,009,1,-017,1",,,"SYN082AAXX  30151 76458 32970 03602 10264 20209 30105 40110 52009 91455 333 30/// 59017;","Q01  00002PRCP06"
"76458099999","2004-09-30T21:00:00","4","23.2","-106.4166666","4.0","COLONIA JUAN CARRASCO MAZATLAN SIN., MX","FM-12","99999","V020","290,1,N,0040,1","22000,1,9,N","020000,1,N,1","+0317,1","+0225,1","10098,1","06,0000,9,1",,,,,,"01,1,+01140,9,08,9",,,"01,99,1,01,1,02,1,01250,1,00,1,00,1",,"01,9",,,,"99999,9,10094,1","7,1,014,1,-003,1",,,"SYN106AAXX  30211 76458 32670 12904 10317 20225 30094 40098 57014 81200 92045 333 0/1// 30/// 57815 59003 81838;","Q01  00002PRCP06"
"76458099999","2004-10-01T00:00:00","4","23.2","-106.4166666","4.0","COLONIA JUAN CARRASCO MAZATLAN SIN., MX","FM-12","99999","V020","280,1,N,0050,1","22000,1,9,N","020000,1,N,1","+0310,1","+0222,1","10088,1","06,0000,9,1","24,0000,9,1",,,,,"00,1,+99999,9,99,9",,,"00,99,1,00,1,00,1,99999,9,00,1,00,1",,"01,9",,"120,M,+0332,1","180,N,+0225,1","99999,9,10083,1","7,1,011,1,-009,1",,,"SYN106AAXX  01001 76458 32970 02805 10310 20222 30083 40088 57011 92340 333 10332 20225 30/// 50571 59009 70000;","Q01  00002PRCP06Q02  00002PRCP24"
"76458099999","2004-10-01T03:00:00","4","23.2","-106.4166666","4.0","COLONIA JUAN CARRASCO MAZATLAN SIN., MX","FM-12","99999","V020","330,1,N,0030,1","22000,1,9,N","008000,1,N,1","+0286,1","+0222,1","10097,1","06,0000,9,1",,,,,,"00,1,+99999,9,99,9",,,"00,99,1,00,1,00,1,99999,9,00,1,00,1",,"01,9",,,,"99999,9,10092,1","2,1,009,1,-004,1",,,"SYN082AAXX  01031 76458 32958 03303 10286 20222 30092 40097 52009 90240 333 30/// 59004;","Q01  00002PRCP06"
"76458099999","2004-10-01T06:00:00","4","23.2","-106.4166666","4.0","COLONIA JUAN CARRASCO MAZATLAN SIN., MX","FM-12","99999","V020","330,1,N,0010,1","22000,1,9,N","008000,1,N,1","+0274,1","+0218,1","10105,1","06,0000,9,1",,,,,,"00,1,+99999,9,99,9",,,"00,99,1,00,1,00,1,99999,9,00,1,00,1","0630,9","01,9",,"240,M,+0332,1","240,N,+0225,1","99999,9,10101,1","2,1,009,1,+999,9",,,"SYN106AAXX  01061 76458 32958 03301 10274 20218 30101 40105 52009 90558 333 10332 20225 30/// 55105 21137 59002;","Q01  00002PRCP06"
"76458099999","2004-10-01T09:00:00","4","23.2","-106.4166666","4.0","COLONIA JUAN CARRASCO MAZATLAN SIN., MX","FM-12","99999","V020","350,1,N,0010,1","22000,1,9,N","008000,1,N,1","+0250,1","+0214,1","10097,1","06,0000,9,1",,,,,,"00,1,+99999,9,99,9",,,"00,99,1,00,1,00,1,99999,9,00,1,00,1",,"01,9",,,,"99999,9,10092,1","7,1,008,1,-007,1",,,"SYN082AAXX  01091 76458 32958 03501 10250 20214 30092 40097 57008 90855 333 30/// 59007;","Q01  00002PRCP06"
"76458099999","2004-10-01T12:00:00","4","23.2","-106.4166666","4.0","COLONIA JUAN CARRASCO MAZATLAN SIN., MX","FM-12","99999","V020","999,9,C,0000,1","22000,1,9,N","008000,1,N,1","+0244,1","+0215,1","10103,1","06,0000,9,1","24,0000,9,1",,,,,"00,1,+99999,9,99,9",,,"00,99,1,00,1,00,1,99999,9,00,1,00,1",,"01,9",,"999,M,+0332,1","120,N,+0239,1","99999,9,10099,1","2,1,007,1,+003,1",,,"SYN100AAXX  01121 76458 32958 00000 10244 20215 30099 40103 52007 91150 333 10332 20239 30210 58003 70000;","Q01  00002PRCP06Q02  00002PRCP24"
"76458099999","2004-10-01T15:00:00","4","23.2","-106.4166666","4.0","COLONIA JUAN CARRASCO MAZATLAN SIN., MX","FM-12","99999","V020","999,9,C,0000,1","22000,1,9,N","018000,1,N,1","+0269,1","+0220,1","10114,1","06,0000,9,1",,,,,,"00,1,+99999,9,99,9",,,"00,99,1,00,1,00,1,99999,9,00,1,00,1",,"01,9",,,,"99999,9,10110,1","2,1,011,1,+005,1",,,"SYN082AAXX  01151 76458 32968 00000 10269 20220 30110 40114 52011 81448 333 30/// 58005;","Q01  00002PRCP06"
"76458099999","2004-10-01T18:00:00","4","23.2","-106.4166666","4.0","COLONIA JUAN CARRASCO MAZATLAN SIN., MX","FM-12","99999","V020","280,1,N,0040,1","22000,1,9,N","020000,1,N,1","+0311,1","+0209,1","10117,1","06,0000,9,1",,,,,,"01,1,+00840,9,08,9",,,"01,99,1,01,1,02,1,01250,1,00,1,00,1",,"01,9",,"120,M,+0332,1","240,N,+0235,1","99999,9,10112,1","2,1,002,1,+004,1",,,"SYN118AAXX  01181 76458 32670 12804 10311 20209 30112 40117 52002 81200 91745 333 0/8// 10332 20235 30/// 57887 58004 81828;","Q01  00002PRCP06"
"76458099999","2004-10-01T21:00:00","4","23.2","-106.4166666","4.0","COLONIA JUAN CARRASCO MAZATLAN SIN., MX","FM-12","99999","V020","270,1,N,0040,1","22000,1,9,N","020000,1,N,1","+0322,1","+0190,1","10099,1","06,0000,9,1",,,,,,"01,1,+00750,9,08,9",,,"01,99,1,01,1,02,1,01250,1,00,1,00,1",,"01,9",,,,"99999,9,10095,1","7,1,017,1,+001,1",,,"SYN106AAXX  01211 76458 32670 12704 10322 20190 30095 40099 57017 81200 92045 333 0/8// 30/// 57887 58001 81825;","Q01  00002PRCP06"
"76458099999","2004-10-02T00:00:00","4","23.2","-106.4166666","4.0","COLONIA JUAN CARRASCO MAZATLAN SIN., MX","FM-12","99999","V020","290,1,N,0050,1","22000,1,9,N","020000,1,N,1","+0314,1","+0198,1","10095,1","06,0000,9,1","24,0000,9,1",,,,,,,,"01,99,1,01,1,02,1,01250,1,99,9,99,9",,"01,9",,"120,M,+0335,1","180,N,+0235,1","99999,9,10091,1","5,1,004,1,+008,1",,,"SYN130AAXX  02001 76458 32670 12905 10314 20198 30091 40095 55004 812// 92340 333 011// 10335 20235 30/// 50571 57818 58008 70000 81848;","Q01  00002PRCP06"
"76458099999","2004-10-02T03:00:00","4","23.2","-106.4166666","4.0","COLONIA JUAN CARRASCO MAZATLAN SIN., MX","FM-12","99999","V020","320,1,N,0020,1","22000,1,9,N","008000,1,N,1","+0290,1","+0209,1","10105,1","06,0000,9,1",,,,,,"00,1,+99999,9,99,9",,,"00,99,1,00,1,00,1,99999,9,00,1,00,1",,"01,9",,,,"99999,9,10100,1","2,1,009,1,+008,1",,,"SYN082AAXX  02031 76458 32958 03202 10290 20209 30100 40105 52009 90240 333 30/// 58008;","Q01  00002PRCP06"
"76458099999","2004-10-02T06:00:00","4","23.2","-106.4166666","4.0","COLONIA JUAN CARRASCO MAZATLAN SIN., MX","FM-12","99999","V020","330,1,N,0020,1","22000,1,9,N","008000,1,N,1","+0272,1","+0220,1","10116,1","06,0000,9,1",,,,,,"00,1,+99999,9,99,9",,,"00,99,1,00,1,00,1,99999,9,00,1,00,1","0630,9","01,9",,"240,M,+0335,1","240,N,+0235,1","99999,9,10111,1","2,1,011,1,+999,9",,,"SYN106AAXX  02061 76458 32958 03302 10272 20220 30111 40116 52011 90558 333 10335 20235 30/// 55105 21098 58011;","Q01  00002PRCP06"
"76458099999","2004-10-02T15:00:00","4","23.2","-106.4166666","4.0","COLONIA JUAN CARRASCO MAZATLAN SIN., MX","FM-12","99999","V020","350,1,N,0010,1","22000,1,9,N","015000,1,N,1","+0270,1","+0224,1","10122,1","06,0000,9,1",,,,,,"00,1,+99999,9,99,9",,,"00,99,1,00,1,00,1,99999,9,00,1,00,1",,"01,9",,,,"99999,9,10117,1","1,1,008,1,+007,1",,,"SYN082AAXX  02151 76458 32965 03501 10270 20224 30117 40122 51008 91448 333 30/// 58007;","Q01  00002PRCP06"
"76458099999","2004-10-02T18:00:00","4","23.2","-106.4166666","4.0","COLONIA JUAN CARRASCO MAZATLAN SIN., MX","FM-12","99999","V020","270,1,N,0030,1","22000,1,9,N","018000,1,N,1","+0308,1","+0217,1","10121,1","06,0000,9,1",,,,,,"00,1,+99999,9,99,9",,,"00,99,1,00,1,00,1,99999,9,00,1,00,1",,"01,9",,"120,M,+0332,1","240,N,+0241,1","99999,9,10117,1","0,1,000,1,+005,1",,,"SYN094AAXX  02181 76458 32968 02703 10308 20217 30117 40121 50000 91745 333 10332 20241 30/// 58005;","Q01  00002PRCP06"
"76458099999","2004-10-02T21:00:00","4","23.2","-106.4166666","4.0","COLONIA JUAN CARRASCO MAZATLAN SIN., MX","FM-12","99999","V020","280,1,N,0040,1","22000,1,9,N","018000,1,N,1","+0321,1","+0209,1","10112,1","06,0000,9,1",,,,,,"01,1,+01410,9,08,9",,,"01,99,1,01,1,01,1,01250,1,00,1,00,1",,"01,9",,,,"99999,9,10107,1","7,1,010,1,+012,1",,,"SYN106AAXX  02211 76458 32668 12804 10321 20209 30107 40112 57010 81100 92047 333 0/1// 30/// 57819 58012 81847;","Q01  00002PRCP06"
"76458099999","2004-10-03T00:00:00","4","23.2","-106.4166666","4.0","COLONIA JUAN CARRASCO MAZATLAN SIN., MX","FM-12","99999","V020","300,1,N,0040,1","22000,1,9,N","020000,1,N,1","+0318,1","+0209,1","10105,1","06,0000,9,1","24,0000,9,1",,,,,,,,"01,99,1,01,1,02,1,01250,1,00,1,00,1",,"01,9",,"120,M,+0338,1","180,N,+0241,1","99999,9,10101,1","7,1,006,1,+010,1",,,"SYN130AAXX  03001 76458 32670 13004 10318 20209 30101 40105 57006 81200 92358 333 04100 10338 20241 30/// 50771 57816 58010 70000 81845;","Q01  00002PRCP06"
"76458099999","2004-10-03T09:00:00","4","23.2","-106.4166666","4.0","COLONIA JUAN CARRASCO MAZATLAN SIN., MX","FM-12","99999","V020","999,9,C,0000,1","22000,1,9,N","008000,1,N,1","+0264,1","+0225,1","10112,1","06,0000,9,1",,,,,,"01,1,+01800,9,03,9",,,"01,99,1,01,1,99,9,02250,1,03,1,99,9",,"01,9",,,,"99999,9,10107,1","7,1,008,1,+000,1",,,"SYN094AAXX  03091 76458 32858 10000 10264 20225 30107 40112 57008 81/3/ 90840 333 30/// 58000 81356;","Q01  00002PRCP06"
"76458099999","2004-10-03T12:00:00","4","23.2","-106.4166666","4.0","COLONIA JUAN CARRASCO MAZATLAN SIN., MX","FM-12","99999","V020","999,9,C,0000,1","22000,1,9,N","008000,1,N,1","+0257,1","+0230,1","10116,1","06,0000,9,1","24,0020,9,1",,,,,"00,1,+99999,9,99,9",,,"00,99,1,00,1,00,1,99999,9,00,1,00,1",,"01,9",,"999,M,+0338,1","120,N,+0250,1","99999,9,10112,1","8,1,005,1,+003,1",,,"SYN100AAXX  03121 76458 32958 00000 10257 20230 30112 40116 58005 91148 333 10338 20250 30236 58003 70021;","Q01  00002PRCP06"
"76458099999","2004-10-03T21:00:00","4","23.2","-106.4166666","4.0","COLONIA JUAN CARRASCO MAZATLAN SIN., MX","FM-12","99999","V020","260,1,N,0030,1","22000,1,9,N","020000,1,N,1","+0320,1","+0252,1","10111,1","06,0000,9,1",,,,,,"00,1,+99999,9,99,9",,,"00,99,1,00,1,00,1,99999,9,00,1,00,1",,"01,9",,,,"99999,9,10106,1","7,1,023,1,-004,1",,,"SYN082AAXX  03211 76458 32970 02603 10320 20252 30106 40111 57023 92055 333 30/// 59004;","Q01  00002PRCP06"
"76458099999","2004-10-04T00:00:00","4","23.2","-106.4166666","4.0","COLONIA JUAN CARRASCO MAZATLAN SIN., MX","FM-12","99999","V020","300,1,N,0030,1","22000,1,9,N","020000,1,N,1","+0318,1","+0250,1","10101,1","06,0000,9,1","24,0021,9,1",,,,,,,,"01,99,1,01,1,09,1,00800,1,00,1,00,1",,"01,9",,"120,M,+0344,1","180,N,+0250,1","99999,9,10097,1","5,1,006,1,-004,1",,,"SYN130AAXX  04001 76458 32570 13003 10318 20250 30097 40101 55006 81900 92350 333 07800 10344 20250 30/// 50471 57983 59004 70021 81830;","Q01  00002PRCP06"
"76458099999","2004-10-04T03:00:00","4","23.2","-106.4166666","4.0","COLONIA JUAN CARRASCO MAZATLAN SIN., MX","FM-12","99999","V020","330,1,N,0030,1","22000,1,9,N","016000,1,N,1","+0297,1","+0257,1","10109,1","06,0000,9,1",,,,,,"02,1,+02700,9,03,9",,,"02,99,1,02,1,00,1,99999,9,03,1,00,1",,"01,9",,,,"99999,9,10104,1","2,1,008,1,-004,1",,,"SYN100AAXX  04031 76458 32966 23303 10297 20257 30104 40109 52008 82030 90250 333 0/080 30/// 59004 82359;","Q01  00002PRCP06"
"76458099999","2004-10-04T06:00:00","4","23.2","-106.4166666","4.0","COLONIA JUAN CARRASCO MAZATLAN SIN., MX","FM-12","99999","V020","330,1,N,0020,1","22000,1,9,N","008000,1,N,1","+0286,1","+0246,1","10117,1","06,0000,9,1",,,,,,,,,"01,99,1,01,1,99,9,99999,9,03,1,99,9","0618,9","01,9",,"240,M,+0344,1","240,N,+0250,1","99999,9,10112,1","2,1,007,1,-003,1",,,"SYN118AAXX  04061 76458 32958 13302 10286 20246 30112 40117 52007 81/3/ 90540 333 10344 20250 30/// 55103 21284 59003 81356;","Q01  00002PRCP06"
"76458099999","2004-10-04T09:00:00","4","23.2","-106.4166666","4.0","COLONIA JUAN CARRASCO MAZATLAN SIN., MX","FM-12","99999","V020","360,1,N,0010,1","22000,1,9,N","008000,1,N,1","+0274,1","+0245,1","10109,1","06,0000,9,1",,,,,,"02,1,+01800,9,03,9",,,"02,99,1,02,1,99,9,99999,9,03,1,99,9",,"01,9",,,,"99999,9,10104,1","7,1,008,1,-003,1",,,"SYN094AAXX  04091 76458 32958 23601 10274 20245 30104 40109 57008 82/3/ 90840 333 30/// 59003 82356;","Q01  00002PRCP06"
"76458099999","2004-10-04T15:00:00","4","23.2","-106.4166666","4.0","COLONIA JUAN CARRASCO MAZATLAN SIN., MX","FM-12","99999","V020","140,1,N,0020,1","22000,1,9,N","015000,1,N,1","+0286,1","+0251,1","10123,1","06,0000,9,1",,,,,,"01,1,+02400,9,03,9",,,"01,99,1,99,9,00,1,99999,9,03,1,00,1",,"01,9",,,,"99999,9,10119,1","2,1,004,1,-006,1",,,"SYN100AAXX  04151 76458 32965 11402 10286 20251 30119 40123 52004 80030 91450 333 0/090 30/// 59006 81358;","Q01+000002SCOTLCQ02  00002PRCP06"
"76458099999","2004-10-04T18:00:00","4","23.2","-106.4166666","4.0","COLONIA JUAN CARRASCO MAZATLAN SIN., MX","FM-12","99999","V020","160,1,N,0040,1","22000,1,9,N","020000,1,N,1","+0317,1","+0271,1","10124,1","06,0000,9,1",,,,,,"01,1,+00660,9,08,9",,,"03,99,1,01,1,02,1,00450,1,06,1,00,1",,"01,9",,"120,M,+0344,1","240,N,+0264,1","99999,9,10120,1","2,1,001,1,-002,1",,,"SYN124AAXX  04181 76458 32470 31604 10317 20271 30120 40124 52001 81260 91745 333 0/30/ 10344 20264 30/// 57837 59002 81822 82358;","Q01  00002PRCP06"
"76458099999","2004-10-04T21:00:00","4","23.2","-106.4166666","4.0","COLONIA JUAN CARRASCO MAZATLAN SIN., MX","FM-12","99999","V020","270,1,N,0030,1","22000,1,9,N","020000,1,N,1","+0334,1","+0263,1","10099,1","06,0000,9,1",,,,,,"01,1,+00720,9,08,9",,,"03,99,1,01,1,02,1,00800,1,05,1,00,1",,"01,9",,,,"99999,9,10094,1","7,1,026,1,-008,1",,,"SYN112AAXX  04211 76458 32570 32703 10334 20263 30094 40099 57026 81250 92045 333 0/10/ 30/// 57817 59008 81824 82358;","Q01  00002PRCP06"
"76458099999","2004-10-05T00:00:00","4","23.2","-106.4166666","4.0","COLONIA JUAN CARRASCO MAZATLAN SIN., MX","FM-12","99999","V020","310,1,N,0040,1","02400,1,9,N","020000,1,N,1","+0322,1","+0270,1","10092,1","06,0000,9,1","24,0000,9,1",,,,,"05,1,+02400,9,04,9",,,"05,99,1,05,1,99,9,02250,1,02,1,99,9",,"01,9",,"120,M,+0350,1","180,N,+0264,1","99999,9,10088,1","5,1,006,1,-009,1",,,"SYN118AAXX  05001 76458 32870 53104 10322 20270 30088 40092 55006 85/2/ 92340 333 10350 20264 30/// 50471 59009 70000 85458;","Q01  00002PRCP06"
"76458099999","2004-10-05T06:00:00","4","23.2","-106.4166666","4.0","COLONIA JUAN CARRASCO MAZATLAN SIN., MX","FM-12","99999","V020","330,1,N,0010,1","22000,1,9,N","008000,1,N,1","+0288,1","+0238,1","10099,1","06,0000,9,1",,,,,,,,,"01,99,1,01,1,00,1,99999,9,03,1,00,1","0618,9","01,9",,"240,M,+0350,1","240,N,+0264,1","99999,9,10095,1","0,1,001,1,-017,1",,,"SYN124AAXX  05061 76458 32958 13301 10288 20238 30095 40099 50001 81030 90555 333 0/010 10350 20264 30/// 55103 20789 59017 81358;","Q01  00002PRCP06"
"76458099999","2004-10-05T09:00:00","4","23.2","-106.4166666","4.0","COLONIA JUAN CARRASCO MAZATLAN SIN., MX","FM-12","99999","V020","340,1,N,0010,1","22000,1,9,N","008000,1,N,1","+0274,1","+0230,1","10100,1","06,0000,9,1",,,,,,"00,1,+99999,9,99,9",,,"00,99,1,00,1,00,1,99999,9,00,1,00,1",,"01,9",,,,"99999,9,10095,1","4,1,000,1,-009,1",,,"SYN082AAXX  05091 76458 32958 03401 10274 20230 30095 40100 54000 90850 333 30/// 59009;","Q01  00002PRCP06"
"76458099999","2004-10-05T15:00:00","4","23.2","-106.4166666","4.0","COLONIA JUAN CARRASCO MAZATLAN SIN., MX","FM-12","99999","V020","120,1,N,0020,1","22000,1,9,N","015000,1,N,1","+0292,1","+0240,1","10104,1","06,0000,9,1",,,,,,"00,1,+99999,9,99,9",,,"00,99,1,00,1,00,1,99999,9,00,1,00,1",,"01,9",,,,"99999,9,10099,1","2,1,012,1,-020,1",,,"SYN082AAXX  05151 76458 32965 01202 10292 20240 30099 40104 52012 91458 333 30/// 59020;","Q01  00002PRCP06"
"76458099999","2004-10-05T18:00:00","4","23.2","-106.4166666","4.0","COLONIA JUAN CARRASCO MAZATLAN SIN., MX","FM-12","99999","V020","200,1,N,0030,1","22000,1,9,N","020000,1,N,1","+0325,1","+0256,1","10114,1","06,0000,9,1",,,,,,"01,1,+00660,9,08,9",,,"02,99,1,01,1,02,1,00800,1,00,1,02,1",,"01,9",,"120,M,+0348,1","240,N,+0262,1","99999,9,10109,1","2,1,010,1,-011,1",,,"SYN124AAXX  05181 76458 32570 22003 10325 20256 30109 40114 52010 81202 91745 333 0///0 10348 20262 30/// 57817 59011 81822 81070;","Q01  00002PRCP06"
"76458099999","2004-10-05T21:00:00","4","23.2","-106.4166666","4.0","COLONIA JUAN CARRASCO MAZATLAN SIN., MX","FM-12","99999","V020","230,1,N,0030,1","22000,1,9,N","020000,1,N,1","+0320,1","+0258,1","10088,1","06,0000,9,1",,,,,,"01,1,+00660,9,08,9",,,"01,99,1,01,1,02,1,00800,1,00,1,00,1",,"01,9",,,,"99999,9,10083,1","7,1,026,1,-011,1",,,"SYN106AAXX  05211 76458 32570 12303 10320 20258 30083 40088 57026 81200 92045 333 0/1// 30/// 57817 59011 81822;","Q01  00002PRCP06"
"76458099999","2004-10-06T00:00:00","4","23.2","-106.4166666","4.0","COLONIA JUAN CARRASCO MAZATLAN SIN., MX","FM-12","99999","V020","240,1,N,0030,1","22000,1,9,N","020000,1,N,1","+0316,1","+0266,1","10083,1","06,0000,9,1","24,0000,9,1",,,,,,,,"02,99,1,02,1,09,1,00800,1,99,9,99,9",,"01,9",,"120,M,+0350,1","180,N,+0262,1","99999,9,10079,1","5,1,004,1,-009,1",,,"SYN130AAXX  06001 76458 32570 22403 10316 20266 30079 40083 55004 829// 92340 333 0/8// 10350 20262 30/// 50431 57981 59009 70000 82921;","Q01  00002PRCP06"
"76458099999","2004-10-06T15:00:00","4","23.2","-106.4166666","4.0","COLONIA JUAN CARRASCO MAZATLAN SIN., MX","FM-12","99999","V020","040,1,N,0010,1","22000,1,9,N","015000,1,N,1","+0288,1","+0224,1","10123,1","06,0000,9,1",,,,,,"01,1,+00810,9,09,9",,,"02,99,1,01,1,03,1,00800,1,05,1,00,1",,"01,9",,,,"99999,9,10119,1","2,1,010,1,+020,1",,,"SYN106AAXX  06151 76458 32565 20401 10288 20224 30119 40123 52010 81350 91455 333 06790 30/// 58020 81927 81358;","Q01  00002PRCP06"
"76458099999","2004-10-06T18:00:00","4","23.2","-106.4166666","4.0","COLONIA JUAN CARRASCO MAZATLAN SIN., MX","FM-12","99999","V020","180,1,N,0030,1","22000,1,9,N","020000,1,N,1","+0320,1","+0244,1","10120,1","06,0000,9,1",,,,,,"01,1,+00660,9,08,9",,,"02,99,1,01,1,02,1,00800,1,05,1,00,1",,"01,9",,"120,M,+0338,1","240,N,+0266,1","99999,9,10116,1","4,1,000,1,+007,1",,,"SYN124AAXX  06181 76458 32570 21803 10320 20244 30116 40120 54000 81250 91745 333 0/10/ 10338 20266 30/// 57817 58007 81822 81358;","Q01  00002PRCP06"
"76458099999","2004-10-06T21:00:00","4","23.2","-106.4166666","4.0","COLONIA JUAN CARRASCO MAZATLAN SIN., MX","FM-12","99999","V020","200,1,N,0030,1","22000,1,9,N","020000,1,N,1","+0317,1","+0257,1","10102,1","06,0000,9,1",,,,,,"01,1,+00750,9,08,9",,,"02,99,1,01,1,02,1,00800,1,03,1,00,1",,"01,9",,,,"99999,9,10097,1","7,1,009,1,+014,1",,,"SYN112AAXX  06211 76458 32570 22003 10317 20257 30097 40102 57009 81230 92045 333 0/19/ 30/// 57812 58014 81825 81362;","Q01  00002PRCP06"
"76458099999","2004-10-07T03:00:00","4","23.2","-106.4166666","4.0","COLONIA JUAN CARRASCO MAZATLAN SIN., MX","FM-12","99999","V020","270,1,N,0020,1","22000,1,9,N","016000,1,N,1","+0300,1","+0258,1","10106,1","06,0000,9,1",,,,,,"03,1,+00540,9,08,9",,,"03,99,1,03,1,01,1,00450,1,00,1,00,1",,"01,9",,,,"99999,9,10101,1","3,1,006,1,-001,1",,,"SYN100AAXX  07031 76458 32466 32702 10300 20258 30101 40106 53006 83100 90250 333 01600 30/// 59001 83818;","Q01  00002PRCP06"
"76458099999","2004-10-07T06:00:00","4","23.2","-106.4166666","4.0","COLONIA JUAN CARRASCO MAZATLAN SIN., MX","FM-12","99999","V020","240,1,N,0010,1","00420,1,9,N","016000,1,N,1","+0299,1","+0259,1","10114,1","06,0000,9,1",,,,,,,,,"06,99,1,06,1,07,1,00450,1,00,1,00,1","0588,9","01,9",,"240,M,+0344,1","240,N,+0266,1","99999,9,10109,1","1,1,008,1,+004,1",,,"SYN124AAXX  07061 76458 32466 62401 10299 20259 30109 40114 51008 86700 90540 333 0/600 10344 20266 30/// 55098 21052 58004 86817;","Q01  00002PRCP06"
"76458099999","2004-10-07T09:00:00","4","23.2","-106.4166666","4.0","COLONIA JUAN CARRASCO MAZATLAN SIN., MX","FM-12","99999","V020","999,9,C,0000,1","22000,1,9,N","016000,1,N,1","+0286,1","+0258,1","10109,1","06,0000,9,1",,,,,,"02,1,+00360,9,08,9",,,"04,99,1,02,1,02,1,00450,1,03,1,00,1",,"01,9",,,,"99999,9,10105,1","4,1,000,1,+000,1",,,"SYN112AAXX  07091 76458 32466 40000 10286 20258 30105 40109 54005 82230 90850 333 04690 30/// 57864 58000 82812 82358;","Q01  00002PRCP06"
"76458099999","2004-10-07T15:00:00","4","23.2","-106.4166666","4.0","COLONIA JUAN CARRASCO MAZATLAN SIN., MX","FM-12","99999","V020","060,1,N,0010,1","22000,1,9,N","018000,1,N,1","+0288,1","+0248,1","10120,1","06,0000,9,1",,,,,,"04,1,+00510,9,08,9",,,"04,99,1,04,1,02,1,00450,1,00,1,00,1",,"01,9",,,,"99999,9,10116,1","2,1,012,1,-003,1",,,"SYN100AAXX  07151 76458 32468 40601 10288 20248 30116 40120 52012 84200 91448 333 0/6// 30/// 59003 84817;","Q01  00002PRCP06"
"76458099999","2004-10-07T18:00:00","4","23.2","-106.4166666","4.0","COLONIA JUAN CARRASCO MAZATLAN SIN., MX","FM-12","99999","V020","180,1,N,0040,1","22000,1,9,N","018000,1,N,1","+0314,1","+0252,1","10125,1","06,0000,9,1",,,,,,"03,1,+00780,9,08,9",,,"03,99,1,03,1,02,1,00800,1,00,1,00,1",,"01,9",,"120,M,+0338,1","240,N,+0276,1","99999,9,10120,1","0,1,004,1,+004,1",,,"SYN118AAXX  07181 76458 32568 31804 10314 20252 30120 40125 50004 83200 91747 333 0/8// 10338 20276 30/// 57881 58004 83826;","Q01  00002PRCP06"
"76458099999","2004-10-07T21:00:00","4","23.2","-106.4166666","4.0","COLONIA JUAN CARRASCO MAZATLAN SIN., MX","FM-12","99999","V020","250,1,N,0040,1","22000,1,9,N","020000,1,N,1","+0320,1","+0256,1","10106,1","06,0000,9,1",,,,,,"02,1,+00660,9,08,9","01,1,+02400,9,03,9",,"04,99,1,02,1,02,1,00800,1,05,1,03,1",,"01,9",,,,"99999,9,10102,1","7,1,018,1,+005,1",,,"SYN118AAXX  07211 76458 32570 42504 10320 20256 30102 40106 57018 82253 92045 333 0/800 30/// 57885 58005 82822 81358 81070;","Q01  00002PRCP06"
"76458099999","2004-10-08T00:00:00","4","23.2","-106.4166666","4.0","COLONIA JUAN CARRASCO MAZATLAN SIN., MX","FM-12","99999","V020","270,1,N,0030,1","22000,1,9,N","020000,1,N,1","+0210,2","+9999,9","10099,1","06,0000,9,1","24,0000,9,1",,,,,"02,1,+00660,9,08,9",,,"03,99,1,03,1,09,1,00800,1,00,1,00,1",,"01,9",,"120,M,+0338,1","180,N,+9999,9","99999,9,10095,1","5,1,007,1,-001,1",,,"SYN136AAXX  08001 76458 32570 32703 10210 20256 30095 40099 55007 83900 92350 333 07100 10338 20276 30/// 50461 57911 59001 70000 82822 81934;","Q01  00002PRCP06Q02 +02762ATMN  "
"76458099999","2004-10-08T03:00:00","4","23.2","-106.4166666","4.0","COLONIA JUAN CARRASCO MAZATLAN SIN., MX","FM-12","99999","V020","270,1,N,0020,1","22000,1,9,N","016000,1,N,1","+0298,1","+0250,1","10113,1","06,0000,9,1",,,,,,"02,1,+00600,9,08,9",,,"03,99,1,03,1,09,1,00800,1,00,1,00,1",,"01,9",,,,"99999,9,10109,1","2,1,014,1,+008,1",,,"SYN112AAXX  08031 76458 32566 32702 10298 20250 30109 40113 52014 83900 90250 333 07200 30/// 57924 58008 82820 81932;","Q01  00002PRCP06"
"76458099999","2004-10-08T06:00:00","4","23.2","-106.4166666","4.0","COLONIA JUAN CARRASCO MAZATLAN SIN., MX","FM-12","99999","V020","280,1,N,0020,1","22000,1,9,N","008000,1,N,1","+0296,1","+0248,1","10122,1","06,0000,9,1",,,,,,,,,"01,99,1,01,1,01,1,00800,1,99,9,99,9","0558,9","01,9",,"240,M,+0338,1","240,N,+0276,1","99999,9,10117,1","2,1,008,1,+008,1",,,"SYN130AAXX  08061 76458 32558 12802 10296 20248 30117 40122 52008 811// 90540 333 007// 10338 20276 30/// 55093 21331 57870 58008 81820;","Q01  00002PRCP06"
"76458099999","2004-10-08T09:00:00","4","23.2","-106.4166666","4.0","COLONIA JUAN CARRASCO MAZATLAN SIN., MX","FM-12","99999","V020","300,1,N,0010,1","22000,1,9,N","008000,1,N,1","+0284,1","+0247,1","10112,1","06,0000,9,1",,,,"0,1,03,1","0,1,03,1","01,1,+00480,9,09,9",,,"01,99,1,01,1,09,1,00450,1,99,9,99,9",,"01,9",,,,"99999,9,10108,1","8,1,009,1,+003,1","13,1",,"SYN112AAXX  08091 76458 31458 13001 10284 20247 30108 40112 58009 71300 819// 90840 333 0/3// 30/// 57930 58003 81916;","Q01  00002PRCP06"
"76458099999","2004-10-08T12:00:00","4","23.2","-106.4166666","4.0","COLONIA JUAN CARRASCO MAZATLAN SIN., MX","FM-12","99999","V020","120,1,N,0020,1","00330,1,9,N","008000,1,N,1","+0280,1","+0253,1","10112,1","06,0000,9,1","24,0000,9,1",,,,,"06,1,+00330,9,06,9",,,"06,99,1,06,1,05,1,00450,1,99,9,99,9",,"01,9",,"999,M,+0338,1","120,N,+0265,1","99999,9,10108,1","4,1,000,1,+004,1",,,"SYN118AAXX  08121 76458 32458 61202 10280 20253 30108 40112 54000 865// 91158 333 0/7// 10338 20265 30244 58004 70000 86611;","Q01  00002PRCP06"
"76458099999","2004-10-08T15:00:00","4","23.2","-106.4166666","4.0","COLONIA JUAN CARRASCO MAZATLAN SIN., MX","FM-12","99999","V020","090,1,N,0020,1","22000,1,9,N","018000,1,N,1","+0270,1","+0231,1","10121,1","06,0000,9,1",,,,,,"01,1,+02400,9,03,9",,,"01,99,1,01,1,03,1,99999,9,99,9,00,1",,"01,9",,,,"99999,9,10117,1","2,1,008,1,+001,1",,,"SYN100AAXX  08151 76458 32968 10902 10270 20231 30117 40121 52008 81300 91455 333 0//2/ 30/// 58001 81358;","Q01+000002SCOMCGQ02  00002PRCP06"
"76458099999","2004-10-08T21:00:00","4","23.2","-106.4166666","4.0","COLONIA JUAN CARRASCO MAZATLAN SIN., MX","FM-12","99999","V020","250,1,N,0030,1","22000,1,9,N","020000,1,N,1","+0320,1","+0258,1","10097,1","06,0000,9,1",,,,,,"02,1,+00720,9,08,9",,,"02,99,1,02,1,02,1,00800,1,00,1,00,1",,"01,9",,,,"99999,9,10093,1","7,1,024,1,+999,9",,,"SYN100AAXX  08211 76458 32570 22503 10320 20258 30093 40097 57024 82200 92045 333 0/1// 30/// 57817 82824;","Q01  00002PRCP06"
"76458099999","2004-10-09T00:00:00","4","23.2","-106.4166666","4.0","COLONIA JUAN CARRASCO MAZATLAN SIN., MX","FM-12","99999","V020","270,1,N,0040,1","22000,1,9,N","020000,1,N,1","+0311,1","+0252,1","10084,1","06,0000,9,1","24,9999,9,9",,,,,,,,"02,99,1,02,1,01,1,00800,1,00,1,00,1",,"01,9",,"120,M,+0333,1","180,N,+0256,1","99999,9,10079,1","5,1,014,1,-016,1",,,"SYN130AAXX  09001 76458 32570 22704 10311 20252 30079 40084 55014 82100 92348 333 0/8// 10333 20256 30/// 50381 57889 59016 79999 82825;","Q01  00002PRCP06Q02  99992PRCP24"
"76458099999","2004-10-09T03:00:00","4","23.2","-106.4166666","4.0","COLONIA JUAN CARRASCO MAZATLAN SIN., MX","FM-12","99999","V020","300,1,N,0030,1","22000,1,9,N","010000,1,N,1","+0301,1","+0243,1","99999,9","06,0000,9,1",,,,,,"01,1,+00720,9,09,9",,,"03,99,1,99,9,99,9,00800,1,99,9,99,9",,"01,9",,,,"99999,9,10093,1","9,9,999,9,-016,1",,,"SYN118AAXX  09031 76458 31560 33003 10301 20243 30093 38900 40097 52014 71300 90247 333 0/2// 30/// 57929 59016 81924 82625;","Q01  00002PRCP06"
"76458099999","2004-10-09T09:00:00","4","23.2","-106.4166666","4.0","COLONIA JUAN CARRASCO MAZATLAN SIN., MX","FM-12","99999","V020","360,1,N,0020,1","22000,1,9,N","008000,1,N,1","+0274,1","+0239,1","10099,1","06,0000,9,1",,,,"0,1,03,1","0,1,03,1","01,1,+00450,9,09,9",,,"01,99,1,01,1,09,1,00450,1,99,9,99,9",,"01,9",,,,"99999,9,10095,1","7,1,009,1,-013,1","13,1",,"SYN112AAXX  09091 76458 31458 13602 10274 20239 30095 40099 57009 71300 819// 90840 333 0/4// 30/// 57910 59013 81915;","Q01  00002PRCP06"
"76458099999","2004-10-09T15:00:00","4","23.2","-106.4166666","4.0","COLONIA JUAN CARRASCO MAZATLAN SIN., MX","FM-12","99999","V020","020,1,N,0020,1","22000,1,9,N","015000,1,N,1","+0286,1","+0245,1","10100,1","06,0000,9,1",,,,,,"01,1,+00510,9,08,9",,,"02,99,1,01,1,02,1,00450,1,00,1,03,1",,"01,9",,,,"99999,9,10095,1","3,1,005,1,-022,1",,,"SYN112AAXX  09151 76458 32465 20202 10286 20245 30095 40100 53005 81203 91448 333 0/4/0 30/// 57855 59022 81817 81070;","Q01  00002PRCP06"
"76458099999","2004-10-09T21:00:00","4","23.2","-106.4166666","4.0","COLONIA JUAN CARRASCO MAZATLAN SIN., MX","FM-12","99999","V020","240,1,N,0040,1","22000,1,9,N","020000,1,N,1","+0315,1","+0255,1","10081,1","06,0000,9,1",,,,,,"02,1,+00750,9,08,9",,,"02,99,1,02,1,01,1,00800,1,00,1,00,1",,"01,9",,,,"99999,9,10076,1","7,1,020,1,-017,1",,,"SYN106AAXX  09211 76458 32570 22404 10315 20255 30076 40081 57020 82100 92045 333 0/8// 30/// 57889 59017 82825;","Q01  00002PRCP06"
"76458099999","2004-10-10T00:00:00","4","23.2","-106.4166666","4.0","COLONIA JUAN CARRASCO MAZATLAN SIN., MX","FM-12","99999","V020","300,1,N,0030,1","22000,1,9,N","020000,1,N,1","+0310,1","+0245,1","10074,1","06,0000,9,1","24,0000,9,1",,,,,"01,1,+00810,9,08,9",,,"03,99,1,03,1,03,1,00800,1,00,1,00,1",,"01,9",,"120,M,+0333,1","180,N,+0259,1","99999,9,10070,1","5,1,007,1,-010,1",,,"SYN136AAXX  10001 76458 32570 33003 10310 20245 30070 40074 55007 83300 92350 333 04100 10333 20259 30/// 50341 57913 59010 70000 81827 82934;","Q01  00002PRCP06"
"76458099999","2004-10-10T06:00:00","4","23.2","-106.4166666","4.0","COLONIA JUAN CARRASCO MAZATLAN SIN., MX","FM-12","99999","V020","310,1,N,0010,1","22000,1,9,N","008000,1,N,1","+0280,1","+0225,1","10088,1","06,0000,9,1",,,,,,"00,1,+99999,9,99,9",,,"00,99,1,00,1,00,1,99999,9,00,1,00,1","0588,9","01,9",,"240,M,+0333,1","240,N,+0259,1","99999,9,10083,1","2,1,009,1,+999,9",,,"SYN106AAXX  10061 76458 32958 03101 10280 20225 30083 40088 52009 90540 333 10333 20259 30/// 55098 21269 59021;","Q01  00002PRCP06"
"76458099999","2004-10-10T09:00:00","4","23.2","-106.4166666","4.0","COLONIA JUAN CARRASCO MAZATLAN SIN., MX","FM-12","99999","V020","020,1,N,0010,1","22000,1,9,N","008000,1,N,1","+0266,1","+0233,1","10087,1","06,0000,9,1",,,,,,"00,1,+99999,9,99,9",,,"00,99,1,00,1,00,1,99999,9,00,1,00,1",,"01,9",,,,"99999,9,10082,1","4,1,000,1,-013,1",,,"SYN082AAXX  10091 76458 32958 00201 10266 20233 30082 40087 54001 90840 333 30/// 59013;","Q01  00002PRCP06"
"76458099999","2004-10-10T12:00:00","4","23.2","-106.4166666","4.0","COLONIA JUAN CARRASCO MAZATLAN SIN., MX","FM-12","99999","V020","350,1,N,0010,1","22000,1,9,N","012000,1,N,1","+0252,1","+0229,1","10082,1","06,0000,9,1","24,0000,9,1",,,,,"01,1,+02700,9,03,9",,,"01,99,1,01,1,00,1,99999,9,03,1,00,1",,"01,9",,"999,M,+0333,1","120,N,+0249,1","99999,9,10077,1","5,1,005,1,-013,1",,,"SYN118AAXX  10121 76458 32962 13501 10252 20229 30077 40082 55005 81030 91150 333 0/060 10333 20249 30230 59013 70000 81359;","Q01  00002PRCP06"
"76458099999","2004-10-10T15:00:00","4","23.2","-106.4166666","4.0","COLONIA JUAN CARRASCO MAZATLAN SIN., MX","FM-12","99999","V020","030,1,N,0010,1","00510,1,9,N","018000,1,N,1","+0279,1","+0238,1","10094,1","06,0000,9,1",,,,,,"05,1,+00510,9,08,9",,,"05,99,1,05,1,01,1,00450,1,00,1,00,1",,"01,9",,,,"99999,9,10090,1","2,1,013,1,-005,1",,,"SYN100AAXX  10151 76458 32468 50301 10279 20238 30090 40094 52013 85100 91440 333 01300 30/// 59005 85817;","Q01  00002PRCP06"
"76458099999","2004-10-10T18:00:00","4","23.2","-106.4166666","4.0","COLONIA JUAN CARRASCO MAZATLAN SIN., MX","FM-12","99999","V020","240,1,N,0020,1","22000,1,9,N","020000,1,N,1","+0310,1","+0245,1","10095,1","06,0000,9,1",,,,,,"03,1,+00810,9,08,9",,,"03,99,1,02,1,02,1,00800,1,00,1,00,1",,"01,9",,"120,M,+0344,1","240,N,+0249,1","99999,9,10090,1","7,1,003,1,-005,1",,,"SYN112AAXX  10181 76458 32570 32402 10310 20245 30090 40095 57003 82200 91758 333 0/1// 10344 20249 30/// 59005 83827;","Q01  00002PRCP06"
"76458099999","2004-10-10T21:00:00","4","23.2","-106.4166666","4.0","COLONIA JUAN CARRASCO MAZATLAN SIN., MX","FM-12","99999","V020","240,1,N,0030,1","22000,1,9,N","020000,1,N,1","+0316,1","+0242,1","10074,1","06,0000,9,1",,,,,,"02,1,+00930,9,08,9",,,"02,99,1,02,1,02,1,00800,1,00,1,00,1",,"01,9",,,,"99999,9,10070,1","7,1,020,1,-006,1",,,"SYN100AAXX  10211 76458 32570 22403 10316 20242 30070 40074 57020 82200 92048 333 0/1// 30/// 59006 82831;","Q01  00002PRCP06"
"76458099999","2004-10-11T00:00:00","4","23.2","-106.4166666","4.0","COLONIA JUAN CARRASCO MAZATLAN SIN., MX","FM-12","99999","V020","270,1,N,0030,1","22000,1,9,N","020000,1,N,1","+0310,1","+0230,1","10061,1","06,0000,9,1","24,0000,9,1",,,,,,,,"01,99,1,01,1,02,1,00800,1,00,1,00,1",,"01,9",,"120,M,+0335,1","180,N,+0249,1","99999,9,10057,1","7,1,009,1,-012,1",,,"SYN130AAXX  11001 76458 32570 12703 10310 20230 30057 40061 57009 81200 92347 333 0/8// 10335 20249 30/// 50511 57883 59012 70000 81833;","Q01  00002PRCP06"
"76458099999","2004-10-11T03:00:00","4","23.2","-106.4166666","4.0","COLONIA JUAN CARRASCO MAZATLAN SIN., MX","FM-12","99999","V020","290,1,N,0020,1","22000,1,9,N","010000,1,N,1","+0300,1","+0218,1","10073,1","06,0000,9,1",,,,,,"02,1,+03600,9,03,9",,,"02,99,1,02,1,00,1,02250,1,03,1,00,1",,"01,9",,,,"99999,9,10068,1","2,1,011,1,-006,1",,,"SYN106AAXX  11031 76458 32860 22902 10300 20218 30068 40073 52011 82030 90245 333 0//9/ 30/// 57399 59006 82362;","Q01  00002PRCP06"
"76458099999","2004-10-11T09:00:00","4","23.2","-106.4166666","4.0","COLONIA JUAN CARRASCO MAZATLAN SIN., MX","FM-12","99999","V020","330,1,N,0010,1","22000,1,9,N","008000,1,N,1","+0266,1","+0221,1","10086,1","06,0000,9,1",,,,,,"00,1,+99999,9,99,9",,,"00,99,1,00,1,00,1,99999,9,00,1,00,1",,"01,9",,,,"99999,9,10082,1","4,1,000,1,+000,1",,,"SYN082AAXX  11091 76458 32958 03301 10266 20221 30082 40086 54000 90840 333 30/// 58000;","Q01  00002PRCP06"
"76458099999","2004-10-11T12:00:00","4","23.2","-106.4166666","4.0","COLONIA JUAN CARRASCO MAZATLAN SIN., MX","FM-12","99999","V020","999,9,C,0000,1","22000,1,9,N","008000,1,N,1","+0258,1","+0221,1","10084,1","06,0000,9,1","24,0000,9,1",,,,,"00,1,+99999,9,99,9",,,"00,99,1,00,1,00,1,99999,9,00,1,00,1",,"01,9",,"999,M,+0335,1","120,N,+0236,1","99999,9,10079,1","7,1,003,1,+002,1",,,"SYN100AAXX  11121 76458 32958 00000 10258 20221 30079 40084 57003 91158 333 10335 20236 30224 58002 70000;","Q01  00002PRCP06Q02  00002PRCP24"
"76458099999","2004-10-11T15:00:00","4","23.2","-106.4166666","4.0","COLONIA JUAN CARRASCO MAZATLAN SIN., MX","FM-12","99999","V020","360,1,N,0010,1","22000,1,9,N","018000,1,N,1","+0278,1","+0231,1","10098,1","06,0000,9,1",,,,,,"00,1,+99999,9,99,9",,,"00,99,1,00,1,00,1,99999,9,00,1,00,1",,"01,9",,,,"99999,9,10094,1","2,1,015,1,+004,1",,,"SYN082AAXX  11151 76458 32968 03601 10278 20231 30094 40098 52015 91458 333 30/// 58004;","Q01  00002PRCP06"
"76458099999","2004-10-11T18:00:00","4","23.2","-106.4166666","4.0","COLONIA JUAN CARRASCO MAZATLAN SIN., MX","FM-12","99999","V020","250,1,N,0030,1","22000,1,9,N","020000,1,N,1","+0310,1","+0253,1","10105,1","06,0000,9,1",,,,,,"03,1,+00660,9,08,9",,,"03,99,1,03,1,02,1,00800,1,00,1,00,1",,"01,9",,"120,M,+0340,1","240,N,+0240,1","99999,9,10100,1","1,1,006,1,+012,1",,,"SYN118AAXX  11181 76458 32570 32503 10310 20253 30100 40105 51006 83200 91745 333 0/5// 10340 20240 30/// 57856 58012 83822;","Q01  00002PRCP06"
"76458099999","2004-10-11T21:00:00","4","23.2","-106.4166666","4.0","COLONIA JUAN CARRASCO MAZATLAN SIN., MX","FM-12","99999","V020","250,1,N,0030,1","22000,1,9,N","020000,1,N,1","+0315,1","+0231,1","10081,1","06,0000,9,1",,,,,,"02,1,+00780,9,08,9",,,"02,99,1,02,1,02,1,01250,1,00,1,00,1",,"01,9",,,,"99999,9,10076,1","7,1,024,1,+010,1",,,"SYN106AAXX  11211 76458 32670 22503 10315 20231 30076 40081 57024 82200 92045 333 0/7// 30/// 57877 58010 82826;","Q01  00002PRCP06"
"76458099999","2004-10-12T03:00:00","4","23.2","-106.4166666","4.0","COLONIA JUAN CARRASCO MAZATLAN SIN., MX","FM-12","99999","V020","340,1,N,0020,1","22000,1,9,N","008000,1,N,1","+0292,1","+0217,1","10094,1","06,0000,9,1",,,,,,"00,1,+99999,9,99,9",,,"00,99,1,00,1,00,1,99999,9,00,1,00,1",,"01,9",,,,"99999,9,10089,1","2,1,007,1,+017,1",,,"SYN082AAXX  12031 76458 32958 03402 10292 20217 30089 40094 52007 90240 333 30/// 58017;","Q01  00002PRCP06"
"76458099999","2004-10-12T12:00:00","4","23.2","-106.4166666","4.0","COLONIA JUAN CARRASCO MAZATLAN SIN., MX","FM-12","99999","V020","360,1,N,0010,1","22000,1,9,N","008000,1,N,1","+0240,1","+0212,1","10095,1","06,0000,9,1","24,0000,9,1",,,,,"00,1,+99999,9,99,9",,,"00,99,1,00,1,00,1,99999,9,00,1,00,1",,"01,9",,"999,M,+0330,1","120,N,+0232,1","99999,9,10091,1","7,1,004,1,+011,1",,,"SYN100AAXX  12121 76458 32958 03601 10240 20212 30091 40095 57004 91158 333 10330 20232 30220 58011 70000;","Q01  00002PRCP06Q02  00002PRCP24"
"76458099999","2004-10-12T15:00:00","4","23.2","-106.4166666","4.0","COLONIA JUAN CARRASCO MAZATLAN SIN., MX","FM-12","99999","V020","130,1,N,0010,1","22000,1,9,N","015000,1,N,1","+0272,1","+0222,1","10107,1","06,0000,9,1",,,,,,"00,1,+99999,9,99,9",,,"00,99,1,00,1,00,1,99999,9,00,1,00,1",,"01,9",,,,"99999,9,10102,1","2,1,010,1,+008,1",,,"SYN082AAXX  12151 76458 32565 01301 10272 20222 30102 40107 52010 91455 333 30/// 58008;","Q01  00002PRCP06"
"76458099999","2004-10-12T18:00:00","4","23.2","-106.4166666","4.0","COLONIA JUAN CARRASCO MAZATLAN SIN., MX","FM-12","99999","V020","230,1,N,0040,1","22000,1,9,N","020000,1,N,1","+0302,1","+0222,1","10109,1","06,0000,9,1",,,,,,"01,1,+00750,9,08,9",,,"02,99,1,01,1,02,1,00800,1,00,1,03,1",,"01,9",,"120,M,+0327,1","240,N,+0221,1","99999,9,10104,1","1,1,002,1,+004,1",,,"SYN124AAXX  12181 76458 32570 22304 10302 20222 30104 40109 51002 81203 91745 333 0/1/0 10327 20221 30/// 57817 58004 81825 81070;","Q01  00002PRCP06"
"76458099999","2004-10-12T21:00:00","4","23.2","-106.4166666","4.0","COLONIA JUAN CARRASCO MAZATLAN SIN., MX","FM-12","99999","V020","220,1,N,0040,1","22000,1,9,N","020000,1,N,1","+0313,1","+0203,1","10095,1","06,0000,9,1",,,,,,"01,1,+00780,9,08,9",,,"01,99,1,01,1,02,1,00800,1,00,1,00,1",,"01,9",,,,"99999,9,10090,1","7,1,014,1,+014,1",,,"SYN106AAXX  12211 76458 32570 12204 10313 20203 30090 40095 57014 81200 92045 333 0/1// 30/// 57817 58014 81826;","Q01  00002PRCP06"
"76458099999","2004-10-13T00:00:00","4","23.2","-106.4166666","4.0","COLONIA JUAN CARRASCO MAZATLAN SIN., MX","FM-12","99999","V020","300,1,N,0080,1","22000,1,9,N","008000,1,N,1","+0310,1","+0207,1","10086,1","06,0000,9,1","24,0000,9,1",,,,,"00,1,+99999,9,99,9",,,"00,99,1,00,1,00,1,99999,9,00,1,00,1",,"01,9",,"120,M,+0335,1","180,N,+0221,1","99999,9,10082,1","6,1,008,1,+000,1",,,"SYN106AAXX  13001 76458 32958 03008 10310 20207 30082 40086 56008 92340 333 10335 20221 30/// 50521 58000 70000;","Q01  00002PRCP06Q02  00002PRCP24"
"76458099999","2004-10-13T03:00:00","4","23.2","-106.4166666","4.0","COLONIA JUAN CARRASCO MAZATLAN SIN., MX","FM-12","99999","V020","310,1,N,0050,1","22000,1,9,N","008000,1,N,1","+0292,1","+0214,1","10097,1","06,0000,9,1",,,,,,"00,1,+99999,9,99,9",,,"00,99,1,00,1,00,1,99999,9,00,1,00,1",,"01,9",,,,"99999,9,10093,1","2,1,011,1,+004,1",,,"SYN082AAXX  13031 76458 32958 03105 10292 20214 30093 40097 52011 90240 333 30/// 58004;","Q01  00002PRCP06"
"76458099999","2004-10-13T06:00:00","4","23.2","-106.4166666","4.0","COLONIA JUAN CARRASCO MAZATLAN SIN., MX","FM-12","99999","V020","330,1,N,0020,1","22000,1,9,N","008000,1,N,1","+0269,1","+0219,1","10104,1","06,0000,9,1",,,,,,"00,1,+99999,9,99,9",,,"00,99,1,00,1,00,1,99999,9,00,1,00,1","0618,9","01,9",,"240,M,+0335,1","240,N,+0221,1","99999,9,10100,1","0,1,007,1,+999,9",,,"SYN106AAXX  13061 76458 32958 03302 10269 20219 30100 40104 50007 90548 333 10335 20221 30/// 55103 21037 58000;","Q01  00002PRCP06"
"76458099999","2004-10-13T09:00:00","4","23.2","-106.4166666","4.0","COLONIA JUAN CARRASCO MAZATLAN SIN., MX","FM-12","99999","V020","999,9,C,0000,1","22000,1,9,N","008000,1,N,1","+0254,1","+0207,1","10102,1","06,0000,9,1",,,,,,"00,1,+99999,9,99,9",,,"00,99,1,00,1,00,1,99999,9,00,1,00,1",,"01,9",,,,"99999,9,10098,1","7,1,002,1,+002,1",,,"SYN082AAXX  13091 76458 32958 00000 10254 20207 30098 40102 57002 90847 333 30/// 58002;","Q01  00002PRCP06"
"76458099999","2004-10-13T15:00:00","4","23.2","-106.4166666","4.0","COLONIA JUAN CARRASCO MAZATLAN SIN., MX","FM-12","99999","V020","340,1,N,0020,1","22000,1,9,N","015000,1,N,1","+0260,1","+0209,1","10108,1","06,0000,9,1",,,,,,"00,1,+99999,9,99,9",,,"00,99,1,00,1,00,1,99999,9,00,1,00,1",,"01,9",,,,"99999,9,10104,1","2,1,009,1,+002,1",,,"SYN082AAXX  13151 76458 32965 03402 10260 20209 30104 40108 52009 91458 333 30/// 58002;","Q01  00002PRCP06"
"76458099999","2004-10-13T18:00:00","4","23.2","-106.4166666","4.0","COLONIA JUAN CARRASCO MAZATLAN SIN., MX","FM-12","99999","V020","280,1,N,0040,1","22000,1,9,N","020000,1,N,1","+0299,1","+0199,1","10104,1","06,0000,9,1",,,,,,"01,1,+01260,9,08,9",,,"01,99,1,01,1,01,1,01250,1,00,1,00,1",,"01,9",,"120,M,+0318,1","240,N,+0222,1","99999,9,10099,1","8,1,005,1,-005,1",,,"SYN118AAXX  13181 76458 32670 12804 10299 20199 30099 40104 58005 81100 91747 333 0/1// 10318 20222 30/// 57819 59005 81842;","Q01  00002PRCP06"
"76458099999","2004-10-13T21:00:00","4","23.2","-106.4166666","4.0","COLONIA JUAN CARRASCO MAZATLAN SIN., MX","FM-12","99999","V020","290,1,N,0060,1","22000,1,9,N","020000,1,N,1","+0312,1","+0190,1","10079,1","06,0000,9,1",,,,,,"01,1,+00780,9,08,9",,,"01,99,1,01,1,02,1,01250,1,00,1,00,1",,"01,9",,,,"99999,9,10075,1","7,1,014,1,-015,1",,,"SYN106AAXX  13211 76458 32670 12906 10312 20190 30075 40079 57014 81200 92045 333 0/1// 30/// 57817 59015 81826;","Q01  00002PRCP06"
"76458099999","2004-10-14T00:00:00","4","23.2","-106.4166666","4.0","COLONIA JUAN CARRASCO MAZATLAN SIN., MX","FM-12","99999","V020","300,1,N,0040,1","22000,1,9,N","020000,1,N,1","+0303,1","+0228,1","10078,1","06,0000,9,1","24,0000,9,1",,,,,,,,"01,99,1,01,1,02,1,01250,1,00,1,00,1",,"01,9",,"120,M,+0330,1","180,N,+0222,1","99999,9,10074,1","7,1,001,1,-008,1",,,"SYN130AAXX  14001 76458 32670 13004 10303 20228 30074 40078 57001 81200 92355 333 04100 10330 20222 30/// 50611 57871 59008 70000 81826;","Q01  00002PRCP06"
"76458099999","2004-10-14T03:00:00","4","23.2","-106.4166666","4.0","COLONIA JUAN CARRASCO MAZATLAN SIN., MX","FM-12","99999","V020","330,1,N,0030,1","22000,1,9,N","016000,1,N,1","+0284,1","+0212,1","10084,1","06,0000,9,1",,,,,,"00,1,+99999,9,99,9",,,"00,99,1,00,1,00,1,99999,9,00,1,00,1",,"01,9",,,,"99999,9,10079,1","2,1,006,1,-013,1",,,"SYN082AAXX  14031 76458 32966 03303 10284 20212 30079 40084 52006 90240 333 30/// 59013;","Q01  00002PRCP06"
"76458099999","2004-10-14T06:00:00","4","23.2","-106.4166666","4.0","COLONIA JUAN CARRASCO MAZATLAN SIN., MX","FM-12","99999","V020","330,1,N,0020,1","22000,1,9,N","016000,1,N,1","+0262,1","+0196,1","10094,1","06,0000,9,1",,,,,,"00,1,+99999,9,99,9",,,"00,99,1,00,1,00,1,99999,9,00,1,00,1","0618,9","01,9",,"240,M,+0330,1","240,N,+0222,1","99999,9,10090,1","1,1,010,1,+999,9",,,"SYN106AAXX  14061 76458 32966 03302 10262 20196 30090 40094 51010 90550 333 10330 20222 30/// 55103 20774 59010;","Q01  00002PRCP06"
"76458099999","2004-10-14T09:00:00","4","23.2","-106.4166666","4.0","COLONIA JUAN CARRASCO MAZATLAN SIN., MX","FM-12","99999","V020","360,1,N,0010,1","22000,1,9,N","016000,1,N,1","+0242,1","+0191,1","10095,1","06,0000,9,1",,,,,,"00,1,+99999,9,99,9",,,"00,99,1,00,1,00,1,99999,9,00,1,00,1",,"01,9",,,,"99999,9,10090,1","4,1,000,1,-007,1",,,"SYN082AAXX  14091 76458 32966 03601 10242 20191 30090 40095 54000 90850 333 30/// 59007;","Q01  00002PRCP06"
"76458099999","2004-10-14T12:00:00","4","23.2","-106.4166666","4.0","COLONIA JUAN CARRASCO MAZATLAN SIN., MX","FM-12","99999","V020","999,9,C,0000,1","22000,1,9,N","008000,1,N,1","+0230,1","+0186,1","10098,1","06,0000,9,1","24,0000,9,1",,,,,"00,1,+99999,9,99,9",,,"00,99,1,00,1,00,1,99999,9,00,1,00,1",,"01,9",,"999,M,+0330,1","120,N,+0221,1","99999,9,10093,1","2,1,003,1,-002,1",,,"SYN100AAXX  14121 76458 32958 00000 10230 20186 30093 40098 52003 91155 333 10330 20221 30208 59002 70000;","Q01  00002PRCP06Q02  00002PRCP24"
"76458099999","2004-10-14T21:00:00","4","23.2","-106.4166666","4.0","COLONIA JUAN CARRASCO MAZATLAN SIN., MX","FM-12","99999","V020","280,1,N,0060,1","22000,1,9,N","020000,1,N,1","+0312,1","+0186,1","10075,1","06,0000,9,1",,,,,,"01,1,+00840,9,08,9",,,"01,99,1,01,1,02,1,01250,1,00,1,00,1",,"01,9",,,,"99999,9,10071,1",,,,"SYN094AAXX  14211 76458 32670 12806 10312 20186 30071 40075 81200 92045 333 0/7// 30/// 57877 81828;","Q01  00002PRCP06"
"76458099999","2004-10-15T00:00:00","4","23.2","-106.4166666","4.0","COLONIA JUAN CARRASCO MAZATLAN SIN., MX","FM-12","99999","V020","300,1,N,0050,1","22000,1,9,N","020000,1,N,1","+0300,1","+0200,1","10070,1","06,0000,9,1","24,0000,9,1",,,,,"00,1,+99999,9,99,9",,,"00,99,1,00,1,00,1,99999,9,00,1,00,1",,"01,9",,"120,M,+0330,1","180,N,+0214,1","99999,9,10065,1","6,1,006,1,-009,1",,,"SYN106AAXX  15001 76458 32970 03005 10300 20200 30065 40070 56006 92340 333 10330 20214 30/// 50611 59009 70000;","Q01  00002PRCP06Q02  00002PRCP24"
"76458099999","2004-10-15T06:00:00","4","23.2","-106.4166666","4.0","COLONIA JUAN CARRASCO MAZATLAN SIN., MX","FM-12","99999","V020","330,1,N,0020,1","22000,1,9,N","008000,1,N,1","+0268,1","+0199,1","10089,1","06,0000,9,1",,,,,,"00,1,+99999,9,99,9",,,"00,99,1,00,1,00,1,99999,9,00,1,00,1","0618,9","01,9",,"240,M,+0330,1","240,N,+0214,1","99999,9,10085,1","1,1,010,1,+999,9",,,"SYN106AAXX  15061 76458 32958 03302 10268 20199 30085 40089 51010 90540 333 10330 20214 30/// 55103 21393 59005;","Q01  00002PRCP06"
"76458099999","2004-10-15T09:00:00","4","23.2","-106.4166666","4.0","COLONIA JUAN CARRASCO MAZATLAN SIN., MX","FM-12","99999","V020","999,9,C,0000,1","22000,1,9,N","008000,1,N,1","+0242,1","+0193,1","10094,1","06,0000,9,1",,,,,,"00,1,+99999,9,99,9",,,"00,99,1,00,1,00,1,99999,9,00,1,00,1",,"01,9",,,,"99999,9,10089,1","3,1,004,1,-001,1",,,"SYN082AAXX  15091 76458 32958 00000 10242 20193 30089 40094 53004 90835 333 30/// 59001;","Q01  00002PRCP06"
"76458099999","2004-10-15T15:00:00","4","23.2","-106.4166666","4.0","COLONIA JUAN CARRASCO MAZATLAN SIN., MX","FM-12","99999","V020","060,1,N,0010,1","22000,1,9,N","015000,1,N,1","+0258,1","+0207,1","10112,1","06,0000,9,1",,,,,,"00,1,+99999,9,99,9",,,"00,99,1,00,1,00,1,99999,9,00,1,00,1",,"01,9",,,,"99999,9,10108,1","2,1,012,1,+004,1",,,"SYN082AAXX  15151 76458 32065 00601 10258 20207 30108 40112 52012 91458 333 30/// 58004;","Q01  00002PRCP06"
"76458099999","2004-10-20T09:00:00","4","23.2","-106.4166666","4.0","COLONIA JUAN CARRASCO MAZATLAN SIN., MX","FM-12","99999","V020","999,9,C,0000,1","22000,1,9,N","008000,1,N,1","+0258,1","+0223,1","10138,1","06,0000,9,1",,,,,,"00,1,+99999,9,99,9",,,"00,99,1,00,1,00,1,99999,9,00,1,00,1",,"01,9",,,,"99999,9,10134,1","7,1,004,1,+021,1",,,"SYN082AAXX  20091 76458 32958 00000 10258 20223 30134 40138 57004 90845 333 30/// 58021;","Q01  00002PRCP06"
"76458099999","2004-10-20T12:00:00","4","23.2","-106.4166666","4.0","COLONIA JUAN CARRASCO MAZATLAN SIN., MX","FM-12","99999","V020","360,1,N,0010,1","22000,1,9,N","008000,1,N,1","+0243,1","+0212,1","10131,1","06,0000,9,1","24,0000,9,1",,,,,"00,1,+99999,9,99,9",,,"00,99,1,00,1,00,1,99999,9,00,1,00,1",,"01,9",,"999,M,+0330,1","120,N,+0232,1","99999,9,10126,1","7,1,008,1,+001,1",,,"SYN100AAXX  20121 76458 32958 03601 10243 20212 30126 40131 57008 91158 333 10330 20232 30224 58001 70000;","Q01  00002PRCP06Q02  00002PRCP24"
"76458099999","2004-10-20T15:00:00","4","23.2","-106.4166666","4.0","COLONIA JUAN CARRASCO MAZATLAN SIN., MX","FM-12","99999","V020","130,1,N,0010,1","22000,1,9,N","015000,1,N,1","+0270,1","+0223,1","10141,1","06,0000,9,1",,,,,,"00,1,+99999,9,99,9",,,"00,99,1,00,1,00,1,99999,9,00,1,00,1",,"01,9",,,,"99999,9,10137,1","2,1,014,1,-003,1",,,"SYN082AAXX  20151 76458 32965 01301 10270 20223 30137 40141 52014 91458 333 30/// 59003;","Q01  00002PRCP06"
"76458099999","2004-10-20T18:00:00","4","23.2","-106.4166666","4.0","COLONIA JUAN CARRASCO MAZATLAN SIN., MX","FM-12","99999","V020","250,1,N,0030,1","22000,1,9,N","020000,1,N,1","+0298,1","+0221,1","10144,1","06,0000,9,1",,,,,,"01,1,+00720,9,08,9","01,1,+02400,9,03,9",,"03,99,1,01,1,02,1,00800,1,05,1,03,1",,"01,9",,"120,M,+0325,1","240,N,+0229,1","99999,9,10139,1","1,1,008,1,+004,1",,,"SYN130AAXX  20181 76458 32570 32503 10298 20221 30139 40144 51008 81253 91745 333 0/100 10325 20229 30/// 57817 58004 81824 81358 81070;","Q01  00002PRCP06"
"76458099999","2004-10-20T21:00:00","4","23.2","-106.4166666","4.0","COLONIA JUAN CARRASCO MAZATLAN SIN., MX","FM-12","99999","V020","250,1,N,0030,1","22000,1,9,N","018000,1,N,1","+0302,1","+0229,1","10126,1","06,0000,9,1",,,,,,"01,1,+05400,9,01,9",,,"01,99,1,00,1,00,1,99999,9,00,1,09,1",,"01,9",,,,"99999,9,10121,1","7,1,018,1,+005,1",,,"SYN106AAXX  20211 76458 32968 12503 10302 20229 30121 40126 57018 80009 92047 333 0///9 30/// 57199 58005 81168;","Q01  00002PRCP06"
"76458099999","2004-10-21T00:00:00","4","23.2","-106.4166666","4.0","COLONIA JUAN CARRASCO MAZATLAN SIN., MX","FM-12","99999","V020","270,1,N,0030,1","22000,1,9,N","020000,1,N,1","+0300,1","+0238,1","10123,1","06,0000,9,1","24,0000,9,1",,,,,"01,1,+00780,9,08,9",,,"02,99,1,01,1,01,1,00800,1,03,1,00,1",,"01,9",,"120,M,+0327,1","180,N,+0229,1","99999,9,10118,1","7,1,003,1,+002,1",,,"SYN130AAXX  21001 76458 32570 22703 10300 20238 30118 40123 57003 81130 92350 333 01690 10327 20229 30/// 5044/ 58002 70000 81826 81358;","Q01  00002PRCP06"
"76458099999","2004-10-21T03:00:00","4","23.2","-106.4166666","4.0","COLONIA JUAN CARRASCO MAZATLAN SIN., MX","FM-12","99999","V020","330,1,N,0020,1","22000,1,9,N","016000,1,N,1","+0284,1","+0238,1","10127,1","06,0000,9,1",,,,,,"01,1,+00570,9,08,9",,,"01,99,1,01,1,01,1,00450,1,00,1,00,1",,"01,9",,,,"99999,9,10123,1","3,1,005,1,-004,1",,,"SYN100AAXX  21031 76458 32466 13302 10284 20238 30123 40127 53005 81100 90255 333 01600 30/// 59004 81819;","Q01  00002PRCP06"
"76458099999","2004-10-21T06:00:00","4","23.2","-106.4166666","4.0","COLONIA JUAN CARRASCO MAZATLAN SIN., MX","FM-12","99999","V020","350,1,N,0020,1","22000,1,9,N","016000,1,N,1","+0267,1","+0234,1","10128,1","06,0000,9,1",,,,,,"00,1,+99999,9,99,9",,,"00,99,1,00,1,00,1,99999,9,00,1,00,1","0594,9","01,9",,"240,M,+0327,1","240,N,+0229,1","99999,9,10123,1","4,1,000,1,+999,9",,,"SYN106AAXX  21061 76458 32966 03502 10267 20234 30123 40128 54000 90550 333 10327 20229 30/// 55099 20712 59014;","Q01  00002PRCP06"
"76458099999","2004-10-21T09:00:00","4","23.2","-106.4166666","4.0","COLONIA JUAN CARRASCO MAZATLAN SIN., MX","FM-12","99999","V020","360,1,N,0010,1","22000,1,9,N","016000,1,N,1","+0258,1","+0232,1","10122,1","06,0000,9,1",,,,,,"00,1,+99999,9,99,9",,,"00,99,1,00,1,00,1,99999,9,00,1,00,1",,"01,9",,,,"99999,9,10117,1","7,1,006,1,-016,1",,,"SYN082AAXX  21091 76458 32966 03601 10258 20232 30117 40122 57006 90850 333 30/// 59016;","Q01  00002PRCP06"
"76458099999","2004-10-21T12:00:00","4","23.2","-106.4166666","4.0","COLONIA JUAN CARRASCO MAZATLAN SIN., MX","FM-12","99999","V020","999,9,C,0000,1","22000,1,9,N","008000,1,N,1","+0250,1","+0226,1","10108,1","06,0000,9,1","24,0000,9,1",,,,,"00,1,+99999,9,99,9",,,"00,99,1,00,1,00,1,99999,9,00,1,00,1",,"01,9",,"999,M,+0327,1","120,N,+0238,1","99999,9,10104,1","7,1,013,1,-019,1",,,"SYN100AAXX  21121 76458 32958 00000 10250 20226 30104 40108 57013 91158 333 10327 20238 30221 59019 70000;","Q01  00002PRCP06Q02  00002PRCP24"
"76458099999","2004-10-21T15:00:00","4","23.2","-106.4166666","4.0","COLONIA JUAN CARRASCO MAZATLAN SIN., MX","FM-12","99999","V020","130,1,N,0020,1","22000,1,9,N","015000,1,N,1","+0271,1","+0232,1","10116,1","06,0000,9,1",,,,,,"02,1,+06600,9,00,9",,,"02,99,1,00,1,00,1,99999,9,00,1,04,1",,"01,9",,,,"99999,9,10111,1","7,1,007,1,-026,1",,,"SYN100AAXX  21151 76458 32965 21302 10271 20232 30111 40116 57007 82004 91452 333 0/009 30/// 59026 82072;","Q01+000022SCOTLCQ02  00002PRCP06"
"76458099999","2004-10-21T18:00:00","4","23.2","-106.4166666","4.0","COLONIA JUAN CARRASCO MAZATLAN SIN., MX","FM-12","99999","V020","240,1,N,0030,1","22000,1,9,N","020000,1,N,1","+0302,1","+0236,1","10119,1","06,0000,9,1",,,,,,"01,1,+00780,9,08,9","01,1,+02400,9,03,9",,"02,99,1,01,1,01,1,00800,1,06,1,01,1",,"01,9",,"120,M,+0329,1","240,N,+0238,1","99999,9,10115,1","1,1,004,1,-024,1",,,"SYN130AAXX  21181 76458 32570 22403 10302 20236 30115 40119 51004 81161 91745 333 0/200 10329 20238 30/// 57826 59024 81826 81358 81070;","Q01  00002PRCP06"
"76458099999","2004-10-21T21:00:00","4","23.2","-106.4166666","4.0","COLONIA JUAN CARRASCO MAZATLAN SIN., MX","FM-12","99999","V020","240,1,N,0030,1","22000,1,9,N","016000,1,N,1","+0305,1","+0243,1","10101,1","06,0000,9,1",,,,,,"00,1,+99999,9,99,9",,,"00,99,1,00,1,00,1,99999,9,00,1,00,1",,"01,9",,,,"99999,9,10103,1","7,1,012,1,-018,1",,,"SYN082AAXX  21211 76458 32966 02403 10305 20243 30103 40101 57012 92045 333 30/// 59018;","Q01  00002PRCP06"
"76458099999","2004-10-22T00:00:00","4","23.2","-106.4166666","4.0","COLONIA JUAN CARRASCO MAZATLAN SIN., MX","FM-12","99999","V020","290,1,N,0040,1","22000,1,9,N","020000,1,N,1","+0298,1","+0242,1","10105,1","06,0000,9,1","24,0000,9,1",,,,,"01,1,+00660,9,08,9",,,"02,99,1,01,1,01,1,00800,1,99,9,01,1",,"01,9",,"120,M,+0330,1","180,N,+0238,1","99999,9,10101,1","5,1,002,1,-017,1",,,"SYN136AAXX  22001 76458 32570 22904 10298 20242 30101 40105 55002 811/1 92340 333 017/9 10330 20238 30/// 50441 57870 59017 70000 81822 81070;","Q01  00002PRCP06"
"76458099999","2004-10-22T03:00:00","4","23.2","-106.4166666","4.0","COLONIA JUAN CARRASCO MAZATLAN SIN., MX","FM-12","99999","V020","330,1,N,0020,1","22000,1,9,N","008000,1,N,1","+0286,1","+0243,1","10117,1","06,0000,9,1",,,,,,"00,1,+99999,9,99,9",,,"00,99,1,00,1,00,1,99999,9,00,1,00,1",,"01,9",,,,"99999,9,10112,1","2,1,011,1,-011,1",,,"SYN082AAXX  22031 76458 32958 03302 10286 20243 30112 40117 52011 90240 333 30/// 59011;","Q01  00002PRCP06"
"76458099999","2004-10-22T06:00:00","4","23.2","-106.4166666","4.0","COLONIA JUAN CARRASCO MAZATLAN SIN., MX","FM-12","99999","V020","360,1,N,0010,1","03600,1,9,N","008000,1,N,1","+0282,1","+0243,1","10130,1","06,0000,9,1",,,,,,"01,1,+00420,9,08,9",,,"07,99,1,01,1,01,1,00450,1,03,1,99,9","0552,9","01,9",,"240,M,+0330,1","240,N,+0238,1","99999,9,10126,1","1,1,026,1,+003,1",,,"SYN136AAXX  22061 76458 32458 73601 10282 20243 30126 40130 51026 8113/ 90540 333 0179/ 10330 20238 30/// 55092 20812 57810 58003 81814 86356;","Q01  00002PRCP06"
"76458099999","2004-10-22T09:00:00","4","23.2","-106.4166666","4.0","COLONIA JUAN CARRASCO MAZATLAN SIN., MX","FM-12","99999","V020","030,1,N,0020,1","06000,1,9,N","008000,1,N,1","+0272,1","+0237,1","10155,1","06,0000,9,1",,,,,,"05,1,+06000,9,00,9",,,"05,99,1,00,1,99,9,99999,9,99,9,06,1",,"01,9",,,,"99999,9,10111,1","7,1,015,1,-006,1",,,"SYN094AAXX  22091 76458 32958 50302 10272 20237 30111 40155 57015 80//6 90840 333 30/// 59006 85070;","Q01  00002PRCP06"
"76458099999","2004-10-22T12:00:00","4","23.2","-106.4166666","4.0","COLONIA JUAN CARRASCO MAZATLAN SIN., MX","FM-12","99999","V020","360,1,N,0010,1","22000,1,9,N","008000,1,N,1","+0256,1","+0234,1","10101,1","06,0000,9,1","24,0000,9,1",,,,,"03,1,+06600,9,00,9",,,"99,99,9,00,1,00,1,99999,9,00,1,99,9",,"01,9",,"999,M,+0330,1","120,N,+0242,1","99999,9,10097,1","7,1,014,1,-007,1",,,"SYN118AAXX  22121 76458 32958 03601 10256 20234 30097 40101 57014 83004 91158 333 0/00/ 10330 20242 30230 59007 70000 83072;","Q01+000002SCOTCVQ02+000002SCOHCGQ03  00002PRCP06"
"76458099999","2004-10-22T15:00:00","4","23.2","-106.4166666","4.0","COLONIA JUAN CARRASCO MAZATLAN SIN., MX","FM-12","99999","V020","999,9,C,0000,1","22000,1,9,N","015000,1,N,1","+0274,1","+0239,1","10113,1","06,0000,9,1",,,,,,"02,1,+06600,9,00,9",,,"02,99,1,00,1,00,1,99999,9,00,1,04,1",,"01,9",,,,"99999,9,10109,1","2,1,012,1,-002,1",,,"SYN100AAXX  22151 76458 32965 20000 10274 20239 30109 40113 52012 80004 91455 333 0/00/ 30/// 59002 82072;","Q01  00002PRCP06"
"76458099999","2004-10-22T18:00:00","4","23.2","-106.4166666","4.0","COLONIA JUAN CARRASCO MAZATLAN SIN., MX","FM-12","99999","V020","190,1,N,0030,1","22000,1,9,N","020000,1,N,1","+0315,1","+0231,1","10119,1","06,0000,9,1",,,,,,"01,1,+00780,9,08,9",,,"03,99,1,01,1,01,1,01250,1,00,1,06,1",,"01,9",,"120,M,+0335,1","240,N,+0235,1","99999,9,10115,1","2,1,006,1,+001,1",,,"SYN124AAXX  22181 76458 32670 31903 10315 20231 30115 40119 52006 81106 91745 333 0/6/0 10335 20235 30/// 58001 57867 81826 82070;","Q01  00002PRCP06"
"76458099999","2004-10-22T21:00:00","4","23.2","-106.4166666","4.0","COLONIA JUAN CARRASCO MAZATLAN SIN., MX","FM-12","99999","V020","240,1,N,0040,1","22000,1,9,N","020000,1,N,1","+0310,1","+0243,1","10099,1","06,0000,9,1",,,,,,"01,1,+00660,9,08,9",,,"03,99,1,01,1,01,1,00800,1,00,1,06,1",,"01,9",,,,"99999,9,10095,1","7,1,020,1,-008,1",,,"SYN112AAXX  22211 76458 32570 32404 10310 20243 30095 40099 57020 81106 92045 333 0/1/0 30/// 57817 59008 81822 82070;","Q01  00002PRCP06"
"76458099999","2004-10-23T00:00:00","4","23.2","-106.4166666","4.0","COLONIA JUAN CARRASCO MAZATLAN SIN., MX","FM-12","99999","V020","270,1,N,0030,1","99999,9,9,N","012000,1,N,1","+0297,1","+0245,1","10094,1","06,0000,9,1","24,0000,9,1",,,,,,,,"06,99,1,00,1,00,1,99999,9,00,1,08,1",,"01,9",,"120,M,+0334,1","180,N,+0235,1","99999,9,10090,1","5,1,005,1,-011,1",,,"SYN130AAXX  23001 76458 32962 62703 10297 20245 30090 40094 55005 80008 92345 333 0///9 10334 20235 30/// 50391 57299 59011 70000 86268;","Q01  00002PRCP06"
"76458099999","2004-10-23T03:00:00","4","23.2","-106.4166666","4.0","COLONIA JUAN CARRASCO MAZATLAN SIN., MX","FM-12","99999","V020","330,1,N,0040,1","05400,1,9,N","010000,1,N,1","+0283,1","+0242,1","10102,1","06,0000,9,1",,,,,,"06,1,+05400,9,02,9",,,"06,99,1,00,1,00,1,99999,9,00,1,07,1",,"01,9",,,,"99999,9,10098,1","2,1,008,1,-014,1",,,"SYN106AAXX  23031 76458 32960 63304 10283 20242 30098 40102 52008 80007 90245 333 0///9 30/// 57299 59014 86268;","Q01  00002PRCP06"
"76458099999","2004-10-23T06:00:00","4","23.2","-106.4166666","4.0","COLONIA JUAN CARRASCO MAZATLAN SIN., MX","FM-12","99999","V020","320,1,N,0020,1","99999,9,9,N","008000,1,N,1","+0274,1","+0218,1","10106,1","06,0000,9,1",,,,,,,,,"07,99,1,00,1,00,1,99999,9,00,1,04,1","0378,9","01,9",,"240,M,+0334,1","240,N,+0235,1","99999,9,10101,1","2,1,004,1,-024,1",,,"SYN124AAXX  23061 76458 32958 73202 10274 20218 30101 40106 52004 80004 90550 333 0/009 10334 20235 30/// 55063 20596 59024 87079;","Q01  00002PRCP06"
"76458099999","2004-10-23T09:00:00","4","23.2","-106.4166666","4.0","COLONIA JUAN CARRASCO MAZATLAN SIN., MX","FM-12","99999","V020","040,1,N,0010,1","22000,1,9,N","010000,1,N,1","+0264,1","+0228,1","10101,1","06,0000,9,1",,,,,,"04,1,+08700,9,00,9",,,"04,99,1,00,1,00,1,99999,9,00,1,04,1",,"01,9",,,,"99999,9,10097,1","7,1,005,1,-014,1",,,"SYN100AAXX  23091 76458 32960 40401 10264 20228 30097 40101 57005 80004 90850 333 0/009 307// 59014 84079;","Q01  00002PRCP06"
"76458099999","2004-10-23T15:00:00","4","23.2","-106.4166666","4.0","COLONIA JUAN CARRASCO MAZATLAN SIN., MX","FM-12","99999","V020","120,1,N,0020,1","02400,1,9,N","008000,1,N,1","+0271,1","+0228,1","10112,1","06,0000,9,1",,,,"4,1,03,1","2,1,03,1","07,1,+02400,9,03,9",,,"07,99,1,07,1,00,1,99999,9,06,1,00,1",,"01,9",,,,"99999,9,10107,1","2,1,012,1,-002,1","05,1",,"SYN106AAXX  23151 76458 31958 71202 10271 20228 30107 40112 52012 70542 87060 91448 333 0//0/ 30/// 59002 87358;","Q01  00002PRCP06"
"76458099999","2004-10-23T18:00:00","4","23.2","-106.4166666","4.0","COLONIA JUAN CARRASCO MAZATLAN SIN., MX","FM-12","99999","V020","140,1,N,0010,1","99999,9,9,N","012000,1,N,1","+0298,1","+0229,1","10110,1","06,0000,9,1",,,,,,"04,1,+02400,9,03,9",,,"06,99,1,04,1,00,1,99999,9,03,1,05,1",,"01,9",,"120,M,+0315,1","240,N,+0258,1","99999,9,10106,1","0,1,001,1,-009,1",,,"SYN118AAXX  23181 76458 32962 61401 10298 20229 30106 40110 50001 84035 91748 333 0//00 10315 20258 30/// 59009 84358 82270;","Q01  00002PRCP06"
"76458099999","2004-10-23T21:00:00","4","23.2","-106.4166666","4.0","COLONIA JUAN CARRASCO MAZATLAN SIN., MX","FM-12","99999","V020","240,1,N,0020,1","03600,1,9,N","015000,1,N,1","+0306,1","+0244,1","10089,1","06,0000,9,1",,,,,,"07,1,+03600,9,03,9",,,"07,99,1,07,1,00,1,99999,9,03,1,00,1",,"01,9",,,,"99999,9,10085,1","7,1,021,1,-010,1",,,"SYN106AAXX  23211 76458 32965 72402 10306 20244 30085 40089 57021 87030 92045 333 0//9/ 30/// 57399 59010 87362;","Q01  00002PRCP06"
"76458099999","2004-10-24T00:00:00","4","23.2","-106.4166666","4.0","COLONIA JUAN CARRASCO MAZATLAN SIN., MX","FM-12","99999","V020","260,1,N,0020,1","02400,1,9,N","015000,1,N,1","+0296,1","+0248,1","10085,1","06,0000,9,1","24,0000,9,1",,,,,"08,1,+02400,9,04,9",,,"08,99,1,08,1,99,9,02250,1,02,1,99,9",,"01,9",,"120,M,+0340,1","180,N,+0258,1","99999,9,10080,1","6,1,005,1,-010,1",,,"SYN118AAXX  24001 76458 32865 82602 10296 20248 30080 40085 56005 88/2/ 92340 333 10340 20258 30/// 50391 59010 70000 88458;","Q01  00002PRCP06"
"76458099999","2004-10-24T03:00:00","4","23.2","-106.4166666","4.0","COLONIA JUAN CARRASCO MAZATLAN SIN., MX","FM-12","99999","V020","330,1,N,0010,1","99999,9,9,N","008000,1,N,1","+0288,1","+0242,1","10091,1","06,0000,9,1",,,,,,"03,1,+01800,9,03,9",,,"07,99,1,03,1,99,9,02250,1,03,1,06,1",,"01,9",,,,"99999,9,10087,1","2,1,007,1,-011,1",,,"SYN100AAXX  24031 76458 32858 73301 10288 20242 30087 40091 52007 83/36 90240 333 30/// 59011 83356 84070;","Q01  00002PRCP06"
"76458099999","2004-10-24T09:00:00","4","23.2","-106.4166666","4.0","COLONIA JUAN CARRASCO MAZATLAN SIN., MX","FM-12","99999","V020","120,1,N,0010,1","06000,1,9,N","008000,1,N,1","+0268,1","+0244,1","10089,1","06,0000,9,1",,,,,,"06,1,+06000,9,00,9",,,"06,99,1,00,1,99,9,99999,9,99,9,06,1",,"01,9",,,,"99999,9,10085,1","7,1,011,1,-012,1",,,"SYN094AAXX  24091 76458 32958 61201 10268 20244 30085 40089 57011 80//6 90840 333 30/// 59012 86070;","Q01  00002PRCP06"
"76458099999","2004-10-24T12:00:00","4","23.2","-106.4166666","4.0","COLONIA JUAN CARRASCO MAZATLAN SIN., MX","FM-12","99999","V020","999,9,C,0000,1","22000,1,9,N","010000,1,N,1","+0256,1","+0233,1","10089,1","06,0000,9,1","24,0000,9,1",,,,,"00,1,+99999,9,99,9",,,"00,99,1,00,1,00,1,99999,9,00,1,00,1",,"01,9",,"999,M,+0340,1","120,N,+0251,1","99999,9,10084,1","5,1,001,1,-011,1",,,"SYN100AAXX  24121 76458 32960 00000 10256 20233 30084 40089 55001 91145 333 10340 20251 30224 59011 70000;","Q01  00002PRCP06Q02  00002PRCP24"
"76458099999","2004-10-24T15:00:00","4","23.2","-106.4166666","4.0","COLONIA JUAN CARRASCO MAZATLAN SIN., MX","FM-12","99999","V020","120,1,N,0070,1","22000,1,9,N","012000,1,N,1","+0282,1","+0241,1","10103,1","06,0000,9,1",,,,,,"03,1,+03600,9,03,9",,,"04,99,1,03,1,00,1,02250,1,03,1,08,1",,"01,9",,,,"99999,9,10099,1","2,1,015,1,-008,1",,,"SYN112AAXX  24151 76458 32862 41207 10282 20241 30099 40103 52015 83038 91445 333 0//99 30/// 57399 59008 83362 81268;","Q01  00002PRCP06"
"76458099999","2004-10-24T18:00:00","4","23.2","-106.4166666","4.0","COLONIA JUAN CARRASCO MAZATLAN SIN., MX","FM-12","99999","V020","120,1,N,0020,1","06600,1,9,N","020000,1,N,1","+0302,1","+0246,1","10107,1","06,0000,9,1",,,,,,"07,1,+06600,9,06,9",,,"07,99,1,07,1,00,1,99999,9,00,1,07,1",,"01,9",,"120,M,+0318,1","240,N,+0250,1","99999,9,10102,1","2,1,003,1,-003,1",,,"SYN112AAXX  24181 76458 32970 71202 10302 20246 30102 40107 52003 87007 91758 333 0/00/ 10318 20250 30/// 59003 87672;","Q01  00002PRCP06"
"76458099999","2004-10-24T21:00:00","4","23.2","-106.4166666","4.0","COLONIA JUAN CARRASCO MAZATLAN SIN., MX","FM-12","99999","V020","210,1,N,0020,1","06600,1,9,N","020000,1,N,1","+0310,1","+0230,1","10086,1","06,0000,9,1",,,,,,"07,1,+06600,9,06,9",,,"07,99,1,07,1,00,1,99999,9,00,1,07,1",,"01,9",,,,"99999,9,10081,1","7,1,022,1,-004,1",,,"SYN100AAXX  24211 76458 32970 72102 10310 20230 30081 40086 57022 87007 92055 333 0/00/ 30/// 59004 87672;","Q01  00002PRCP06"
"76458099999","2004-10-25T00:00:00","4","23.2","-106.4166666","4.0","COLONIA JUAN CARRASCO MAZATLAN SIN., MX","FM-12","99999","V020","270,1,N,0020,1","03600,1,9,N","018000,1,N,1","+0300,1","+0253,1","10090,1","06,0000,9,1","24,0000,9,1",,,,,"03,1,+02400,9,03,9","03,1,+03600,9,04,9",,"07,99,1,06,1,00,1,99999,9,05,1,02,1",,"01,9",,"120,M,+0331,1","180,N,+0250,1","99999,9,10086,1","3,1,004,1,+005,1",,,"SYN136AAXX  25001 76458 32968 72702 10300 20253 30086 40090 53004 86052 92350 333 0/099 10331 20250 30/// 50271 58005 70000 83358 83462 81079;","Q01  00002PRCP06"
"76458099999","2004-10-25T03:00:00","4","23.2","-106.4166666","4.0","COLONIA JUAN CARRASCO MAZATLAN SIN., MX","FM-12","99999","V020","999,9,C,0000,1","02400,1,9,N","016000,1,N,1","+0288,1","+0250,1","10098,1","06,0000,9,1",,,,,,"06,1,+02400,9,03,9",,,"06,99,1,06,1,00,1,99999,9,04,1,00,1",,"01,9",,,,"99999,9,10094,1","2,1,008,1,+007,1",,,"SYN100AAXX  25031 76458 32966 60000 10288 20250 30094 40098 52008 86040 90250 333 0/040 30/// 58007 86358;","Q01  00002PRCP06"
"76458099999","2004-10-25T06:00:00","4","23.2","-106.4166666","4.0","COLONIA JUAN CARRASCO MAZATLAN SIN., MX","FM-12","99999","V020","999,9,C,0000,1","22000,1,9,N","016000,1,N,1","+0281,1","+0250,1","10101,1","06,0000,9,1",,,,,,,,,"03,99,1,03,1,00,1,99999,9,03,1,00,1","0096,9","01,9",,"240,M,+0331,1","240,N,+0250,1","99999,9,10096,1","0,1,003,1,+003,1",,,"SYN124AAXX  25061 76458 32966 30000 10281 20250 30096 40101 50003 83030 90550 333 0/020 10331 20250 30/// 55016 20302 58003 83359;","Q01  00002PRCP06"
"76458099999","2004-10-25T09:00:00","4","23.2","-106.4166666","4.0","COLONIA JUAN CARRASCO MAZATLAN SIN., MX","FM-12","99999","V020","100,1,N,0030,1","22000,1,9,N","006000,1,N,1","+0260,1","+0245,1","10088,1","03,9999,9,9","06,0000,9,1",,,"5,1,03,1","5,1,03,1","02,1,+02400,9,03,9",,,"02,99,1,02,1,00,1,99999,9,03,1,00,1",,"01,9",,,,"99999,9,10084,1","7,1,012,1,-001,1","01,1",,"SYN112AAXX  25091 76458 31956 21003 10260 20245 30084 40088 57012 70155 82030 90850 333 0/090 30/// 59001 69907 82358;","Q01  00002PRCP06Q02  99992PRCP03"
"76458099999","2004-10-25T12:00:00","4","23.2","-106.4166666","4.0","COLONIA JUAN CARRASCO MAZATLAN SIN., MX","FM-12","99999","V020","090,1,N,0020,1","22000,1,9,N","008000,1,N,1","+0264,1","+0247,1","10082,1","06,0000,9,1","24,0000,9,1",,,,,"00,1,+99999,9,99,9",,,"00,99,1,00,1,00,1,99999,9,00,1,00,1",,"01,9",,"999,M,+0331,1","120,N,+0252,1","99999,9,10077,1","7,1,007,1,-007,1",,,"SYN100AAXX  25121 76458 32958 00902 10264 20247 30077 40082 57007 91158 333 10331 20252 30241 59007 70000;","Q01  00002PRCP06Q02  00002PRCP24"
"76458099999","2004-10-25T15:00:00","4","23.2","-106.4166666","4.0","COLONIA JUAN CARRASCO MAZATLAN SIN., MX","FM-12","99999","V020","120,1,N,0030,1","22000,1,9,N","015000,1,N,1","+0274,1","+0240,1","10097,1","06,0000,9,1",,,,,,"04,1,+06600,9,06,9",,,"04,99,1,04,1,00,1,99999,9,00,1,06,1",,"01,9",,,,"99999,9,10093,1","2,1,015,1,-009,1",,,"SYN100AAXX  25151 76458 32965 41203 10274 20240 30093 40097 52015 84006 91458 333 0/00/ 30/// 59009 84672;","Q01  00002PRCP06"
"76458099999","2004-10-25T18:00:00","4","23.2","-106.4166666","4.0","COLONIA JUAN CARRASCO MAZATLAN SIN., MX","FM-12","99999","V020","110,1,N,0060,1","22000,1,9,N","020000,1,N,1","+0317,1","+0245,1","10094,1","06,0000,9,1",,,,,,"01,1,+00780,9,08,9","01,1,+02400,9,03,9",,"04,99,1,02,1,02,1,00800,1,06,1,03,1",,"01,9",,"120,M,+0330,1","240,N,+0250,1","99999,9,10089,1","7,1,004,1,-014,1",,,"SYN130AAXX  25181 76458 32570 41106 10317 20245 30089 40094 57004 82263 91745 333 0/700 10330 20250 30/// 57876 59014 81826 81358 81270;","Q01  00002PRCP06"
"76458099999","2004-10-25T21:00:00","4","23.2","-106.4166666","4.0","COLONIA JUAN CARRASCO MAZATLAN SIN., MX","FM-12","99999","V020","110,1,N,0110,1","09000,1,C,N","020000,1,N,1","+0312,1","+0240,1","10074,1","06,0000,9,1",,,,,,"02,1,+00720,9,08,9","02,1,+01800,9,03,9",,"06,99,1,02,1,02,1,00800,1,05,1,03,1",,"01,9",,,,"99999,9,10070,1","7,1,019,1,-011,1",,,"SYN118AAXX  25211 76458 32570 61111 10312 20240 30070 40074 57019 82253 92045 333 0/200 30/// 57825 59011 82824 82356 82270;","Q01  00002PRCP06"
"76458099999","2004-10-26T03:00:00","4","23.2","-106.4166666","4.0","COLONIA JUAN CARRASCO MAZATLAN SIN., MX","FM-12","99999","V020","160,1,N,0080,1","00210,1,9,N","008000,1,N,1","+0264,1","+0248,1","10092,1","03,0079,9,1",,,,"5,1,03,1","5,1,03,1","08,1,+00210,9,06,9",,,"08,99,1,08,1,05,1,00150,1,99,9,99,9",,"09,9",,,,"99999,9,10088,1","2,1,017,1,-006,1","20,1",,"SYN118AAXX  26031 76458 11258 81608 10264 20248 30088 40092 52017 60087 72055 885// 90255 333 0/4// 31/// 57640 59006 88607;",
"76458099999","2004-10-26T09:00:00","4","23.2","-106.4166666","4.0","COLONIA JUAN CARRASCO MAZATLAN SIN., MX","FM-12","99999","V020","180,1,N,0060,1","00060,1,9,N","006000,1,N,1","+0237,1","+0232,1","10111,1","03,0680,9,1",,,,"6,1,03,1","6,1,03,1","08,1,+00060,9,06,9",,,"08,99,1,08,1,05,1,00075,1,00,1,00,1",,"12,9",,,,"99999,9,10106,1","2,1,007,1,+022,1","65,1",,"SYN112AAXX  26091 76458 21156 81806 10237 20232 30106 40111 52007 76566 88500 90858 333 0/300 33/// 58022 60687 88602;",
"76458099999","2004-10-26T15:00:00","4","23.2","-106.4166666","4.0","COLONIA JUAN CARRASCO MAZATLAN SIN., MX","FM-12","99999","V020","100,1,N,0030,1","00270,1,9,N","015000,1,N,1","+0238,1","+0218,1","10135,1","06,0000,2,1",,,,,,"05,1,+00270,9,08,9",,,"05,99,1,05,1,01,1,00250,1,00,1,00,1",,"11,9",,,,"99999,9,10131,1","2,1,014,1,+038,1",,,"SYN100AAXX  26151 76458 32365 51003 10238 20218 30131 40135 52014 85100 91455 333 0/200 32/// 58038 85809;",
"76458099999","2004-10-26T18:00:00","4","23.2","-106.4166666","4.0","COLONIA JUAN CARRASCO MAZATLAN SIN., MX","FM-12","99999","V020","140,1,N,0050,1","00420,1,C,N","020000,1,N,1","+0270,1","+0229,1","10140,1","02,0000,9,1","06,0008,9,1",,,,,"03,1,+00600,9,06,9",,,"06,99,1,06,1,02,1,00450,1,00,1,00,1",,"09,9",,"120,M,+0287,1","240,N,+0215,1","99999,9,10136,1","2,1,012,1,+047,1",,,"SYN136AAXX  26181 76458 12470 61405 10270 20229 30136 40140 52012 69981 86200 91745 333 0/5// 10287 20215 31/// 57655 58047 69906 83620 83822;","Q01  00002PRCP02"
"76458099999","2004-10-26T21:00:00","4","23.2","-106.4166666","4.0","COLONIA JUAN CARRASCO MAZATLAN SIN., MX","FM-12","99999","V020","160,1,N,0040,1","00750,1,C,N","020000,1,N,1","+0271,1","+0228,1","10120,1","06,0000,9,1",,,,,,"02,1,+00600,9,06,9",,,"07,99,1,07,1,02,1,00800,1,00,1,00,1",,"01,9",,,,"99999,9,10116,1","7,1,020,1,+046,1",,,"SYN112AAXX  26211 76458 32570 71604 10271 20228 30116 40120 57020 87200 92045 333 0/3// 30/// 57635 58046 82620 85824;","Q01  00002PRCP06"
"76458099999","2004-10-27T00:00:00","4","23.2","-106.4166666","4.0","COLONIA JUAN CARRASCO MAZATLAN SIN., MX","FM-12","99999","V020","180,1,N,0030,1","22000,1,9,N","020000,1,N,1","+0278,1","+0231,1","10119,1","06,0000,9,1","24,0978,9,1",,,,,"01,1,+00600,9,08,9",,,"03,99,1,01,1,02,1,00800,1,03,1,99,9",,"09,9",,"120,M,+0310,1","180,N,+0215,1","99999,9,10115,1","5,1,001,1,+044,1",,,"SYN136AAXX  27001 76458 32570 31803 10278 20231 30115 40119 55001 8123/ 92340 333 0119/ 10310 20215 31/// 50381 57817 58044 70978 81820 82356;","Q01  00002PRCP06"
"76458099999","2004-10-27T03:00:00","4","23.2","-106.4166666","4.0","COLONIA JUAN CARRASCO MAZATLAN SIN., MX","FM-12","99999","V020","999,9,C,0000,1","22000,1,9,N","008000,1,N,1","+0262,1","+0226,1","10127,1","06,0000,9,1",,,,,,"00,1,+99999,9,99,9",,,"00,99,1,00,1,00,1,99999,9,00,1,00,1",,"09,9",,,,"99999,9,10122,1","2,1,007,1,+034,1",,,"SYN082AAXX  27031 76458 32958 00000 10262 20226 30122 40127 52007 90240 333 31/// 58034;","Q01  00002PRCP06"
"76458099999","2004-10-27T06:00:00","4","23.2","-106.4166666","4.0","COLONIA JUAN CARRASCO MAZATLAN SIN., MX","FM-12","99999","V020","999,9,C,0000,1","22000,1,9,N","008000,1,N,1","+0244,1","+0229,1","10134,1","06,0000,9,1",,,,,,,,,"03,99,1,03,1,01,1,00150,1,00,1,00,1","0306,9","01,9",,"240,M,+0310,1","240,N,+0215,1","99999,9,10129,1","0,1,007,1,+030,1",,,"SYN130AAXX  27061 76458 32258 30000 10244 20229 30129 40134 50007 83100 90548 333 0/6// 10310 20215 30/// 55051 20495 57869 58030 83807;","Q01  00002PRCP06"
"76458099999","2004-10-27T12:00:00","4","23.2","-106.4166666","4.0","COLONIA JUAN CARRASCO MAZATLAN SIN., MX","FM-12","99999","V020","260,1,N,0020,1","22000,1,9,N","008000,1,N,1","+0228,1","+0217,1","10132,1","06,0000,9,1","24,0008,9,1",,,,,"02,1,+00150,9,08,9",,,"03,99,1,02,1,02,1,00150,1,00,1,06,1",,"01,9",,"999,M,+0310,1","120,N,+0220,1","99999,9,10127,1","2,1,002,1,+010,1",,,"SYN124AAXX  27121 76458 32258 32602 10228 20217 30127 40132 52002 82206 91158 333 0/60/ 10310 20220 30208 58010 70008 82805 81072;","Q01  00002PRCP06"
"76458099999","2004-10-27T15:00:00","4","23.2","-106.4166666","4.0","COLONIA JUAN CARRASCO MAZATLAN SIN., MX","FM-12","99999","V020","360,1,N,0010,1","22000,1,9,N","015000,1,N,1","+0244,1","+0215,1","10144,1","06,0000,9,1",,,,,,"02,1,+00360,9,08,9",,,"04,99,1,02,1,02,1,00450,1,05,1,00,1",,"01,9",,,,"99999,9,10140,1","2,1,016,1,+009,1",,,"SYN106AAXX  27151 76458 32465 43601 10244 20215 30140 40144 52016 82250 91445 333 0/6/0 30/// 58009 82812 82358;","Q01  00002PRCP06"
"76458099999","2004-10-27T21:00:00","4","23.2","-106.4166666","4.0","COLONIA JUAN CARRASCO MAZATLAN SIN., MX","FM-12","99999","V020","260,1,N,0050,1","22000,1,9,N","020000,1,N,1","+0291,1","+0225,1","10130,1","06,0000,9,1",,,,,,"01,1,+00720,9,08,9",,,"01,99,1,01,1,02,1,00800,1,00,1,00,1",,"01,9",,,,"99999,9,10126,1","7,1,019,1,+010,1",,,"SYN106AAXX  27211 76458 32570 12605 10291 20225 30126 40130 57019 81200 92045 333 0/1// 30/// 57817 58010 81824;","Q01  00002PRCP06"
"76458099999","2004-10-28T00:00:00","4","23.2","-106.4166666","4.0","COLONIA JUAN CARRASCO MAZATLAN SIN., MX","FM-12","99999","V020","300,1,N,0030,1","22000,1,9,N","020000,1,N,1","+0284,1","+0225,1","10130,1","06,0000,9,1","24,0000,9,1",,,,,,,,"01,99,1,01,1,02,1,00800,1,00,1,00,1",,"01,9",,"120,M,+0312,1","180,N,+0220,1","99999,9,10126,1","5,1,000,1,+011,1",,,"SYN130AAXX  28001 76458 32570 13003 10284 20225 30126 40130 55000 81200 92350 333 02100 10312 20220 30/// 50271 57816 58011 70000 81825;","Q01  00002PRCP06"
"76458099999","2004-10-28T03:00:00","4","23.2","-106.4166666","4.0","COLONIA JUAN CARRASCO MAZATLAN SIN., MX","FM-12","99999","V020","340,1,N,0020,1","22000,1,9,N","016000,1,N,1","+0258,1","+0256,1","10137,1","06,0000,9,1",,,,,,"00,1,+99999,9,99,9",,,"00,99,1,00,1,00,1,99999,9,00,1,00,1",,"01,9",,,,"99999,9,10133,1","2,1,007,1,+011,1",,,"SYN082AAXX  28031 76458 32966 03402 10258 20256 30133 40137 52007 90250 333 30/// 58011;","Q01  00002PRCP06"
"76458099999","2004-10-28T09:00:00","4","23.2","-106.4166666","4.0","COLONIA JUAN CARRASCO MAZATLAN SIN., MX","FM-12","99999","V020","330,1,N,0020,1","22000,1,9,N","016000,1,N,1","+0239,1","+0219,1","10140,1","06,0000,9,1",,,,,,"00,1,+99999,9,99,9",,,"00,99,1,00,1,00,1,99999,9,00,1,00,1",,"01,9",,,,"99999,9,10136,1","7,1,007,1,+021,1",,,"SYN082AAXX  28091 76458 32966 03302 10239 20219 30136 40140 57007 90850 333 30/// 58021;","Q01  00002PRCP06"
"76458099999","2004-10-28T12:00:00","4","23.2","-106.4166666","4.0","COLONIA JUAN CARRASCO MAZATLAN SIN., MX","FM-12","99999","V020","999,9,C,0000,1","22000,1,9,N","008000,1,N,1","+0228,1","+0219,1","10138,1","06,0000,9,1","24,0000,9,1",,,,,"00,1,+99999,9,99,9",,,"00,99,1,00,1,00,1,99999,9,00,1,00,1",,"01,9",,"999,M,+0312,1","120,N,+0218,1","99999,9,10134,1","4,1,000,1,+011,1",,,"SYN100AAXX  28121 76458 32958 00000 10228 20219 30134 40138 54001 91158 333 10312 20218 30204 58011 70000;","Q01  00002PRCP06Q02  00002PRCP24"
"76458099999","2004-10-28T15:00:00","4","23.2","-106.4166666","4.0","COLONIA JUAN CARRASCO MAZATLAN SIN., MX","FM-12","99999","V020","120,1,N,0020,1","22000,1,9,N","015000,1,N,1","+0254,1","+0223,1","10149,1","06,0000,9,1",,,,,,"01,1,+00390,9,08,9",,,"01,99,1,01,1,02,1,00450,1,00,1,00,1",,"01,9",,,,"99999,9,10145,1","1,1,013,1,-005,1",,,"SYN106AAXX  28151 76458 32465 11202 10254 20223 30145 40149 51013 81200 91448 333 0/4// 30/// 57848 59005 81813;","Q01  00002PRCP06"
"76458099999","2004-10-28T18:00:00","4","23.2","-106.4166666","4.0","COLONIA JUAN CARRASCO MAZATLAN SIN., MX","FM-12","99999","V020","240,1,N,0030,1","22000,1,9,N","020000,1,N,1","+0288,1","+0221,1","10157,1","06,0000,9,1",,,,,,"01,1,+00660,9,08,9",,,"01,99,1,01,1,02,1,00800,1,00,1,00,1",,"01,9",,"120,M,+0312,1","240,N,+0212,1","99999,9,10153,1","0,1,008,1,+008,1",,,"SYN118AAXX  28181 76458 32570 12403 10288 20221 30153 40157 50008 81200 91745 333 0/5// 10312 20212 30/// 57857 58008 81822;","Q01  00002PRCP06"
"76458099999","2004-10-28T21:00:00","4","23.2","-106.4166666","4.0","COLONIA JUAN CARRASCO MAZATLAN SIN., MX","FM-12","99999","V020","300,1,N,0040,1","22000,1,9,N","020000,1,N,1","+0293,1","+0231,1","10141,1","06,0000,9,1",,,,,,"01,1,+00780,9,08,9",,,"01,99,1,01,1,01,1,00800,1,00,1,00,1",,"01,9",,,,"99999,9,10137,1","7,1,016,1,+011,1",,,"SYN106AAXX  28211 76458 32570 13004 10293 20231 30137 40141 57016 81100 92047 333 0/1// 30/// 57819 58011 81826;","Q01  00002PRCP06"
"76458099999","2004-10-29T00:00:00","4","23.2","-106.4166666","4.0","COLONIA JUAN CARRASCO MAZATLAN SIN., MX","FM-12","99999","V020","350,1,N,0050,1","22000,1,9,N","020000,1,N,1","+0288,1","+0233,1","10138,1","06,0000,9,1","24,0000,9,1",,,,,"00,1,+99999,9,99,9",,,"00,99,1,00,1,00,1,99999,9,00,1,00,1",,"01,9",,"120,M,+0315,1","180,N,+0212,1","99999,9,10134,1","6,1,003,1,+008,1",,,"SYN106AAXX  29001 76458 32970 03505 10288 20233 30134 40138 56003 92340 333 10315 20212 30/// 50271 58008 70000;","Q01  00002PRCP06Q02  00002PRCP24"
"76458099999","2004-10-29T03:00:00","4","23.2","-106.4166666","4.0","COLONIA JUAN CARRASCO MAZATLAN SIN., MX","FM-12","99999","V020","360,1,N,0020,1","22000,1,9,N","008000,1,N,1","+0268,1","+0232,1","10152,1","06,0000,9,1",,,,,,"00,1,+99999,9,99,9",,,"00,99,1,00,1,00,1,99999,9,00,1,00,1",,"01,9",,,,"99999,9,10147,1","3,1,013,1,+017,1",,,"SYN082AAXX  29031 76458 32958 03602 10268 20232 30147 40152 53013 90240 333 30/// 58017;","Q01  00002PRCP06"
"76458099999","2004-10-29T09:00:00","4","23.2","-106.4166666","4.0","COLONIA JUAN CARRASCO MAZATLAN SIN., MX","FM-12","99999","V020","360,1,N,0020,1","22000,1,9,N","008000,1,N,1","+0236,1","+0216,1","10148,1","06,0000,9,1",,,,,,"00,1,+99999,9,99,9",,,"00,99,1,00,1,00,1,99999,9,00,1,00,1",,"01,9",,,,"99999,9,10144,1","7,1,008,1,+008,1",,,"SYN082AAXX  29091 76458 32958 03602 10236 20216 30144 40148 57008 90840 333 30/// 58008;","Q01  00002PRCP06"
"76458099999","2004-10-29T18:00:00","4","23.2","-106.4166666","4.0","COLONIA JUAN CARRASCO MAZATLAN SIN., MX","FM-12","99999","V020","270,1,N,0030,1","22000,1,9,N","020000,1,N,1","+0283,1","+0220,1","10140,1","06,0000,9,1",,,,,,"01,1,+00720,9,08,9",,,"04,99,1,01,1,02,1,00800,1,00,1,03,1",,"01,9",,"120,M,+0310,1","240,N,+0220,1","99999,9,10135,1","6,1,005,1,-018,1",,,"SYN124AAXX  29181 76458 32570 42703 10283 20220 30135 40140 56005 81203 91745 333 0/1/0 10310 20220 30/// 57817 59018 81824 83270;","Q01  00002PRCP06"
"76458099999","2004-10-29T21:00:00","4","23.2","-106.4166666","4.0","COLONIA JUAN CARRASCO MAZATLAN SIN., MX","FM-12","99999","V020","270,1,N,0040,1","22000,1,9,N","020000,1,N,1","+0295,1","+0232,1","10119,1","06,0000,9,1",,,,,,"01,1,+00660,9,08,9",,,"04,99,1,01,1,02,1,00800,1,00,1,03,1",,"01,9",,,,"99999,9,10114,1","7,1,021,1,-023,1",,,"SYN112AAXX  29211 76458 32570 42704 10295 20232 30114 40119 57021 81203 92045 333 0/1/0 30/// 57817 59023 81822 83270;","Q01  00002PRCP06"
"76458099999","2004-10-30T03:00:00","4","23.2","-106.4166666","4.0","COLONIA JUAN CARRASCO MAZATLAN SIN., MX","FM-12","99999","V020","310,1,N,0020,1","22000,1,9,N","010000,1,N,1","+0271,1","+0207,1","10123,1","06,0000,9,1",,,,,,"01,1,+03600,9,03,9",,,"01,99,1,01,1,00,1,02250,1,03,1,00,1",,"01,9",,,,"99999,9,10118,1","2,1,018,1,-029,1",,,"SYN106AAXX  30031 76458 32860 13102 10271 20207 30118 40123 52018 81030 90247 333 0//9/ 30/// 57399 59029 81362;","Q01  00002PRCP06"
"76458099999","2004-10-30T06:00:00","4","23.2","-106.4166666","4.0","COLONIA JUAN CARRASCO MAZATLAN SIN., MX","FM-12","99999","V020","999,9,C,0000,1","22000,1,9,N","010000,1,N,1","+0250,1","+0210,1","10126,1","06,0000,9,1",,,,,,,,,"01,99,1,00,1,00,1,99999,9,00,1,05,1","0510,9","01,9",,"240,M,+0311,1","240,N,+0220,1","99999,9,10122,1","2,1,003,1,-030,1",,,"SYN124AAXX  30061 76458 32960 10000 10250 20210 30122 40126 52003 80005 90556 333 0/009 10311 20220 30/// 55085 20658 59030 81079;","Q01  00002PRCP06"
"76458099999","2004-10-30T15:00:00","4","23.2","-106.4166666","4.0","COLONIA JUAN CARRASCO MAZATLAN SIN., MX","FM-12","99999","V020","130,1,N,0010,1","22000,1,9,N","015000,1,N,1","+0259,1","+0215,1","10122,1","06,0000,9,1",,,,,,"01,1,+02400,9,03,9",,,"01,99,1,01,1,00,1,99999,9,03,1,00,1",,"01,9",,,,"99999,9,10117,1","3,1,002,1,-024,1",,,"SYN100AAXX  30151 76458 32965 11301 10259 20215 30117 40122 53002 81030 91448 333 0//0/ 30/// 59024 81358;","Q01  00002PRCP06"
"76458099999","2004-10-30T18:00:00","4","23.2","-106.4166666","4.0","COLONIA JUAN CARRASCO MAZATLAN SIN., MX","FM-12","99999","V020","240,1,N,0020,1","22000,1,9,N","015000,1,N,1","+0288,1","+0231,1","10127,1","06,0000,9,1",,,,,,"01,1,+00720,9,08,9",,,"02,99,1,01,1,02,1,00800,1,00,1,01,1",,"01,9",,"120,M,+0310,1","240,N,+0223,1","99999,9,10122,1","0,1,005,1,-013,1",,,"SYN124AAXX  30181 76458 32565 22402 10288 20231 30122 40127 50005 81201 91748 333 0/1/9 10310 20223 30/// 57813 59013 81824 81068;","Q01  00002PRCP06"
"76458099999","2004-10-31T03:00:00","4","23.2","-106.4166666","4.0","COLONIA JUAN CARRASCO MAZATLAN SIN., MX","FM-12","99999","V020","330,1,N,0020,1","22000,1,9,N","008000,1,N,1","+0266,1","+0206,1","99999,9","06,0000,9,1",,,,,,"00,1,+99999,9,99,9",,,"00,99,1,00,1,00,1,99999,9,00,1,00,1",,,,,,,,,,"SYN081AAXX  31031 76458 32958 03302 10266 20206 3008 40113 52008 90240 333 0//// 59010;","Q01  00002PRCP06"
"76458099999","2004-10-31T06:00:00","4","23.2","-106.4166666","4.0","COLONIA JUAN CARRASCO MAZATLAN SIN., MX","FM-12","99999","V020","360,1,N,0010,1","22000,1,9,N","008000,1,N,1","+0254,1","+0200,1","10119,1","06,0000,9,1",,,,,,"00,1,+99999,9,99,9",,,"00,99,1,00,1,00,1,99999,9,00,1,00,1","0528,9","01,9",,"240,M,+0310,1","240,N,+0223,1","99999,9,10114,1","0,1,006,1,+999,9",,,"SYN106AAXX  31061 76458 32958 03601 10254 20200 30114 40119 50006 90540 333 10310 20223 30/// 55088 20789 59008;","Q01  00002PRCP06"
"76458099999","2004-10-31T09:00:00","4","23.2","-106.4166666","4.0","COLONIA JUAN CARRASCO MAZATLAN SIN., MX","FM-12","99999","V020","999,9,C,0000,1","22000,1,9,N","008000,1,N,1","+0238,1","+0207,1","10115,1","06,0000,9,1",,,,,,"00,1,+99999,9,99,9",,,"00,99,1,00,1,00,1,99999,9,00,1,00,1",,"01,9",,,,"99999,9,10111,1","8,1,003,1,-006,1",,,"SYN082AAXX  31091 76458 32958 00000 10238 20207 30111 40115 58003 90535 333 30/// 59006;","Q01  00002PRCP06"
"76458099999","2004-10-31T12:00:00","4","23.2","-106.4166666","4.0","COLONIA JUAN CARRASCO MAZATLAN SIN., MX","FM-12","99999","V020","330,1,N,0010,1","22000,1,9,N","008000,1,N,1","+0230,1","+0210,1","10111,1","06,0000,9,1","24,0000,9,1",,,,,"01,1,+01800,9,03,9",,,"01,99,1,01,1,99,9,99999,9,03,1,99,9",,"01,9",,"999,M,+0310,1","120,N,+0225,1","99999,9,10107,1","6,1,004,1,-007,1",,,"SYN112AAXX  31121 76458 32958 13301 10230 20210 30107 40111 56004 81/3/ 91130 333 10310 20225 30215 59007 70000 81356;","Q01  00002PRCP06"
"76458099999","2004-10-31T15:00:00","4","23.2","-106.4166666","4.0","COLONIA JUAN CARRASCO MAZATLAN SIN., MX","FM-12","99999","V020","999,9,C,0000,1","22000,1,9,N","018000,1,N,1","+0262,1","+0204,1","10116,1","06,0000,9,1",,,,,,"01,1,+03600,9,03,9",,,"04,99,1,01,1,00,1,02250,1,03,1,08,1",,"01,9",,,,"99999,9,10112,1","2,1,005,1,-005,1",,,"SYN112AAXX  31151 76458 32868 40000 10262 20204 30112 40116 52005 81038 91447 333 0//99 30/// 57399 59005 81362 83268;","Q01  00002PRCP06"
"76458099999","2004-10-31T18:00:00","4","23.2","-106.4166666","4.0","COLONIA JUAN CARRASCO MAZATLAN SIN., MX","FM-12","99999","V020","280,1,N,0020,1","22000,1,C,N","018000,1,N,1","+0289,1","+0202,1","10126,1","06,0000,9,1",,,,,,"04,1,+03600,9,03,9",,,"05,99,1,04,1,00,1,02250,1,03,1,08,1",,"01,9",,"120,M,+0312,1","240,N,+0222,1","99999,9,10121,1","0,1,009,1,-001,1",,,"SYN124AAXX  31181 76458 32868 52802 10289 20202 30121 40126 50009 84038 91740 333 0//99 10312 20222 30/// 57399 59001 84362 81268;","Q01  00002PRCP06"
"76458099999","2004-11-01T03:00:00","4","23.2","-106.4166666","4.0","COLONIA JUAN CARRASCO MAZATLAN SIN., MX","FM-12","99999","V020","340,1,N,0020,1","00180,1,9,N","016000,1,N,1","+0222,1","+0209,1","10125,1","03,0140,9,1",,,,"6,1,03,1","5,1,03,1","07,1,+00180,9,08,9",,,"07,99,1,07,1,07,1,00150,1,00,1,00,1",,"11,9",,,,"99999,9,10121,1","9,9,999,9,+012,1","51,1",,"SYN112AAXX  01031 76458 21266 73402 10222 20209 30121 40125 5//// 75165 87700 90250 333 0/600 32/// 58012 60147 87806;",
"76458099999","2004-11-01T09:00:00","4","23.2","-106.4166666","4.0","COLONIA JUAN CARRASCO MAZATLAN SIN., MX","FM-12","99999","V020","350,1,N,0020,1","22000,1,9,N","016000,1,N,1","+0210,1","+0198,1","10122,1","06,0000,2,1",,,,,,"01,1,+02700,9,03,9",,,"01,99,1,01,1,00,1,99999,9,03,1,00,1",,"09,9",,,,"99999,9,10118,1","6,1,004,1,-007,1",,,"SYN100AAXX  01091 76458 32966 13502 10210 20198 30118 40122 56004 81030 90840 333 0/090 31/// 59007 81359;",
"76458099999","2004-11-01T12:00:00","4","23.2","-106.4166666","4.0","COLONIA JUAN CARRASCO MAZATLAN SIN., MX","FM-12","99999","V020","360,1,N,0020,1","22000,1,9,N","016000,1,N,1","+0202,1","+0195,1","10123,1","06,0000,9,1","24,0136,9,1",,,,,"01,1,+02400,9,03,9",,,"01,99,1,01,1,00,1,99999,9,03,1,00,1",,"01,9",,"999,M,+0318,1","120,N,+0195,1","99999,9,10118,1","0,1,000,1,-011,1",,,"SYN118AAXX  01121 76458 32966 13602 10202 20195 30118 40123 50000 81030 91146 333 0/090 10318 20195 30185 59011 70136 81358;","Q01  00002PRCP06"
"76458099999","2004-11-01T15:00:00","4","23.2","-106.4166666","4.0","COLONIA JUAN CARRASCO MAZATLAN SIN., MX","FM-12","99999","V020","300,1,N,0020,1","22000,1,9,N","022000,1,N,1","+0219,1","+0188,1","10138,1","06,0000,9,1",,,,,,"03,1,+06000,9,00,9",,,"03,99,1,00,1,00,1,99999,9,00,1,02,1",,"01,9",,,,"99999,9,10133,1","2,1,015,1,+011,1",,,"SYN100AAXX  01151 76458 32972 33002 10219 20188 30133 40138 52015 80002 91448 333 0///0 30/// 58011 83070;","Q01  00002PRCP06"
"76458099999","2004-11-01T18:00:00","4","23.2","-106.4166666","4.0","COLONIA JUAN CARRASCO MAZATLAN SIN., MX","FM-12","99999","V020","310,1,N,0030,1","22000,1,C,N","025000,1,N,1","+0268,1","+0179,1","10141,1","06,0000,9,1",,,,,,"01,1,+00750,9,08,9",,,"05,99,1,01,1,02,1,01250,1,00,1,08,1",,"01,9",,"120,M,+0284,1","240,N,+0188,1","99999,9,10137,1","0,1,004,1,+015,1",,,"SYN124AAXX  01181 76458 32675 53103 10268 20179 30137 40141 50004 81208 91748 333 0/2/0 10284 20188 30/// 57828 58015 81825 84270;","Q01  00002PRCP06"
"76458099999","2004-11-01T21:00:00","4","23.2","-106.4166666","4.0","COLONIA JUAN CARRASCO MAZATLAN SIN., MX","FM-12","99999","V020","300,1,N,0040,1","22000,1,C,N","025000,1,N,1","+0292,1","+0174,1","10121,1","06,0000,9,1",,,,,,"01,1,+01470,9,08,9",,,"07,99,1,01,1,02,1,01250,1,00,1,04,1",,"01,9",,,,"99999,9,10117,1","7,1,020,1,+999,9",,,"SYN112AAXX  01211 76458 32675 73004 10292 20174 30117 40121 57020 81204 92058 333 02109 30/// 57816 58/// 81849 86079;","Q01  00002PRCP06"
"76458099999","2004-11-02T00:00:00","4","23.2","-106.4166666","4.0","COLONIA JUAN CARRASCO MAZATLAN SIN., MX","FM-12","99999","V020","320,1,N,0030,1","22000,1,9,N","025000,1,N,1","+0275,1","+0174,1","10118,1","06,0000,9,1","24,0136,9,1",,,,,"01,1,+01500,9,08,9",,,"07,99,1,01,1,02,1,01750,1,00,1,04,1",,"01,9",,"120,M,+0302,1","180,N,+0188,1","99999,9,10114,1","5,1,003,1,+999,9",,,"SYN142AAXX  02001 76458 32775 73203 10275 20174 30114 40118 55003 81204 92340 333 02109 10302 20188 20188 30/// 5//// 57819 58/// 70136 81850 86079;","Q01  00002PRCP06"
"76458099999","2004-11-02T06:00:00","4","23.2","-106.4166666","4.0","COLONIA JUAN CARRASCO MAZATLAN SIN., MX","FM-12","99999","V020","330,1,N,0030,1","22000,1,9,N","008000,1,N,1","+0214,1","+0138,1","10136,1","06,0000,9,1",,,,,,"00,1,+99999,9,99,9",,,"00,99,1,00,1,00,1,99999,9,00,1,00,1","0558,9","01,9",,"240,M,+0302,1","240,N,+0188,1","99999,9,10131,1","2,1,007,1,+999,9",,,"SYN106AAXX  02061 76458 32958 03303 10214 20138 30131 40136 52007 90530 333 10302 20188 30/// 55093 20812 58010;","Q01  00002PRCP06"
"76458099999","2004-11-02T18:00:00","4","23.2","-106.4166666","4.0","COLONIA JUAN CARRASCO MAZATLAN SIN., MX","FM-12","99999","V020","310,1,N,0040,1","22000,1,9,N","025000,1,N,1","+0250,1","+0102,1","10134,1","06,0000,9,1",,,,,,"01,1,+02400,9,03,9",,,"01,99,1,01,1,00,1,99999,9,03,1,00,1",,"01,9",,"120,M,+0266,1","240,N,+0170,1","99999,9,10129,1","0,1,004,1,-008,1",,,"SYN112AAXX  02181 76458 32975 13104 10250 20102 30129 40134 50004 81030 91748 333 0/0// 10266 20170 30/// 59008 81358;","Q01  00002PRCP06"
"76458099999","2004-11-02T21:00:00","4","23.2","-106.4166666","4.0","COLONIA JUAN CARRASCO MAZATLAN SIN., MX","FM-12","99999","V020","300,1,N,0040,1","22000,1,9,N","025000,1,N,1","+0258,1","+0123,1","10112,1","06,0000,9,1",,,,,,"00,1,+99999,9,99,9",,,"00,99,1,00,1,00,1,99999,9,00,1,00,1",,"01,9",,,,"99999,9,10108,1","7,1,021,1,-009,1",,,"SYN082AAXX  02211 76458 32975 03004 10258 20123 30108 40112 57021 92045 333 30/// 59009;","Q01  00002PRCP06"
"76458099999","2004-11-03T00:00:00","4","23.2","-106.4166666","4.0","COLONIA JUAN CARRASCO MAZATLAN SIN., MX","FM-12","99999","V020","020,1,N,0520,2","22000,1,9,N","025000,1,N,1","+9999,9","+9999,9","10105,1","06,0000,9,1",,,,,,,,,"01,99,1,99,9,99,9,99999,9,99,9,99,9",,"01,9",,"120,M,+0275,1","180,N,+0170,1","99999,9,10101,1","2,1,003,1,-003,1",,,"SYN094AAXX  03001 76458 32975 10252 20133 30101 40105 52003 92345 333 10275 20170 30/// 50491 59003;","Q01+005203WOSPD Q02  00002PRCP06"
"76458099999","2004-11-03T12:00:00","4","23.2","-106.4166666","4.0","COLONIA JUAN CARRASCO MAZATLAN SIN., MX","FM-12","99999","V020","330,1,N,0010,1","22000,1,9,N","012000,1,N,1","+0182,1","+0133,1","10112,1","06,0000,9,1","24,0000,9,1",,,,,"00,1,+99999,9,99,9",,,"00,99,1,00,1,00,1,99999,9,00,1,00,1",,"01,9","999,-0500,9","999,M,+0275,1","120,N,+0170,1","99999,9,10108,1","8,1,004,1,+999,9",,,"SYN100AAXX  03121 76458 32962 03301 10182 20133 30108 40112 58004 91150 333 10275 20170 30150 58/// 70000;","Q01  00002PRCP06Q02  00002PRCP24"
"76458099999","2004-11-03T15:00:00","4","23.2","-106.4166666","4.0","COLONIA JUAN CARRASCO MAZATLAN SIN., MX","FM-12","99999","V020","330,1,N,0020,1","22000,1,9,N","020000,1,N,1","+0220,1","+0114,1","10121,1","06,0000,9,1",,,,,,"02,1,+06000,9,00,9",,,"02,99,1,00,1,00,1,99999,9,00,1,02,1",,"01,9",,,,"99999,9,10117,1","1,1,009,1,-016,1",,,"SYN100AAXX  03151 76458 32970 23302 10220 20114 30117 40121 51009 80002 91448 333 0///0 30/// 59016 82070;","Q01  00002PRCP06"
"76458099999","2004-11-03T18:00:00","4","23.2","-106.4166666","4.0","COLONIA JUAN CARRASCO MAZATLAN SIN., MX","FM-12","99999","V020","310,1,N,0020,1","22000,1,9,N","025000,1,N,1","+0272,1","+0080,1","10121,1","06,0000,9,1",,,,,,"01,1,+02400,9,03,9",,,"01,99,1,01,1,00,1,99999,9,03,1,00,1",,"01,9",,"120,M,+0293,1","240,N,+0168,1","99999,9,10116,1","0,1,001,1,-013,1",,,"SYN112AAXX  03181 76458 32975 13102 10272 20080 30116 40121 50001 81030 91745 333 0//0/ 10293 20168 30/// 59013 81358;","Q01  00002PRCP06"
"76458099999","2004-11-03T21:00:00","4","23.2","-106.4166666","4.0","COLONIA JUAN CARRASCO MAZATLAN SIN., MX","FM-12","99999","V020","260,1,N,0030,1","22000,1,9,N","025000,1,N,1","+0277,1","+0146,1","10102,1","06,0000,9,1",,,,,,"02,1,+05400,9,02,9",,,"02,99,1,00,1,00,1,99999,9,00,1,08,1",,"01,9",,,,"99999,9,10097,1","7,1,019,1,-011,1",,,"SYN100AAXX  03211 76458 32975 22603 10277 20146 30097 40102 57019 80008 92046 333 30/// 56//9 59011 82268;","Q01  00002PRCP06"
"76458099999","2004-11-04T03:00:00","4","23.2","-106.4166666","4.0","COLONIA JUAN CARRASCO MAZATLAN SIN., MX","FM-12","99999","V020","330,1,N,0020,1","22000,1,9,N","008000,1,N,1","+0236,1","+9999,9","10112,1","06,0000,9,1",,,,,,"03,1,+06000,9,00,9",,,"03,99,1,00,1,99,9,99999,9,99,9,02,1",,"01,9",,,,"99999,9,10108,1","2,1,012,1,+999,9",,,"SYN088AAXX  04031 76458 32958 33302 10236 30108 40112 52012 80//2 90240 333 30/// 58/// 83070;","Q01  00002PRCP06"
"76458099999","2004-11-04T09:00:00","4","23.2","-106.4166666","4.0","COLONIA JUAN CARRASCO MAZATLAN SIN., MX","FM-12","99999","V020","340,1,N,0010,1","22000,1,9,N","010000,1,N,1","+0204,1","+0140,1","10115,1","06,0000,9,1",,,,,,"01,1,+08700,9,00,9",,,"01,99,1,00,1,00,1,99999,9,00,1,02,1",,"01,9",,,,"99999,9,10111,1","7,1,006,1,-003,1",,,"SYN100AAXX  04091 76458 32960 13401 10204 20140 30111 40115 57006 80002 90850 333 0/009 30/// 59003 81079;","Q01  00002PRCP06"
"76458099999","2004-11-04T15:00:00","4","23.2","-106.4166666","4.0","COLONIA JUAN CARRASCO MAZATLAN SIN., MX","FM-12","99999","V020","360,1,N,0010,1","22000,1,9,N","020000,1,N,1","+0224,1","+0091,1","10130,1","06,0000,9,1",,,,,,"01,1,+06000,9,00,9",,,"01,99,1,00,1,00,1,99999,9,00,1,02,1",,"01,9",,,,"99999,9,10125,1","2,1,015,1,+008,1",,,"SYN100AAXX  04151 76458 32970 13601 10224 20091 30125 40130 52015 80002 91448 333 0///0 30/// 58008 81070;","Q01  00002PRCP06"
"76458099999","2004-11-04T21:00:00","4","23.2","-106.4166666","4.0","COLONIA JUAN CARRASCO MAZATLAN SIN., MX","FM-12","99999","V020","250,1,N,0030,1","22000,1,9,N","025000,1,N,1","+0289,1","+0161,1","10113,1","06,0000,9,1",,,,,,"04,1,+03600,9,02,9",,,"04,99,1,00,1,00,1,99999,9,00,1,08,1",,"01,9",,,,"99999,9,10108,1","7,1,019,1,+011,1",,,"SYN100AAXX  04211 76458 32975 42503 10289 20161 30108 40113 57019 80008 92045 333 30/// 56//9 58011 84262;","Q01  00002PRCP06"
"76458099999","2004-11-05T03:00:00","4","23.2","-106.4166666","4.0","COLONIA JUAN CARRASCO MAZATLAN SIN., MX","FM-12","99999","V020","999,9,C,0000,1","22000,1,9,N","030000,1,N,1","+0268,1","+0226,1","10128,1","06,0000,9,1",,,,,,"00,1,+99999,9,99,9",,,"00,99,1,00,1,00,1,99999,9,00,1,00,1",,"01,9",,,,"99999,9,10124,1","2,1,018,1,+016,1",,,"SYN082AAXX  05031 76458 32980 00000 10268 20226 30124 40128 52018 90240 333 30/// 58016;","Q01  00002PRCP06"
"76458099999","2004-11-05T09:00:00","4","23.2","-106.4166666","4.0","COLONIA JUAN CARRASCO MAZATLAN SIN., MX","FM-12","99999","V020","340,1,N,0020,1","22000,1,9,N","010000,1,N,1","+0222,1","+0158,1","10123,1","06,0000,9,1",,,,,,"00,1,+99999,9,99,9",,,"00,99,1,00,1,00,1,99999,9,00,1,00,1",,"01,9",,,,"99999,9,10119,1","7,1,005,1,+008,1",,,"SYN082AAXX  05091 76458 32960 03402 10222 20158 30119 40123 57005 90850 333 30/// 58008;","Q01  00002PRCP06"
"76458099999","2004-11-05T15:00:00","4","23.2","-106.4166666","4.0","COLONIA JUAN CARRASCO MAZATLAN SIN., MX","FM-12","99999","V020","120,1,N,0010,1","22000,1,9,N","018000,1,N,1","+0246,1","+0181,1","10132,1","06,0000,9,1",,,,,,"00,1,+99999,9,99,9",,,"00,99,1,00,1,00,1,99999,9,00,1,00,1",,"01,9",,,,"99999,9,10127,1","1,1,010,1,+002,1",,,"SYN082AAXX  05151 76458 32968 01201 10246 20181 30127 40132 51010 91448 333 30/// 58002;","Q01  00002PRCP06"
"76458099999","2004-11-05T21:00:00","4","23.2","-106.4166666","4.0","COLONIA JUAN CARRASCO MAZATLAN SIN., MX","FM-12","99999","V020","250,1,N,0030,1","22000,1,9,N","020000,1,N,1","+0289,1","+0224,1","10111,1","06,0000,9,1",,,,,,"00,1,+99999,9,99,9",,,"00,99,1,00,1,00,1,99999,9,00,1,00,1",,"01,9",,,,"99999,9,10107,1","7,1,029,1,-001,1",,,"SYN082AAXX  05211 76458 32970 02503 10289 20224 30107 40111 57029 92047 333 30/// 59001;","Q01  00002PRCP06"
"76458099999","2004-11-06T00:00:00","4","23.2","-106.4166666","4.0","COLONIA JUAN CARRASCO MAZATLAN SIN., MX","FM-12","99999","V020","310,1,N,0030,1","22000,1,9,N","020000,1,N,1","+0282,1","+0191,1","10108,1","06,0000,9,1","24,0000,9,1",,,,,"00,1,+99999,9,99,9",,,"00,99,1,00,1,00,1,99999,9,00,1,00,1",,"01,9",,"120,M,+0340,1","180,N,+0183,1","99999,9,10104,1","8,1,003,1,-002,1",,,"SYN106AAXX  06001 76458 32970 03103 10282 20191 30104 40108 58003 92345 333 10340 20183 30/// 50351 59002 70000;","Q01  00002PRCP06Q02  00002PRCP24"
"76458099999","2004-11-06T03:00:00","4","23.2","-106.4166666","4.0","COLONIA JUAN CARRASCO MAZATLAN SIN., MX","FM-12","99999","V020","330,1,N,0020,1","22000,1,9,N","008000,1,N,1","+0252,1","+0209,1","10121,1","06,0000,9,1",,,,,,"00,1,+99999,9,99,9",,,"00,99,1,00,1,00,1,99999,9,00,1,00,1",,"01,9",,,,"99999,9,10117,1","2,1,013,1,-007,1",,,"SYN082AAXX  06031 76458 32958 03302 10252 20209 30117 40121 52013 90235 333 30/// 59007;","Q01  00002PRCP06"
"76458099999","2004-11-06T06:00:00","4","23.2","-106.4166666","4.0","COLONIA JUAN CARRASCO MAZATLAN SIN., MX","FM-12","99999","V020","330,1,N,0020,1","22000,1,9,N","008000,1,N,1","+0230,1","+0170,1","10123,1","06,0000,9,1",,,,,,"00,1,+99999,9,99,9",,,"00,99,1,00,1,00,1,99999,9,00,1,00,1","0588,9","01,9",,"240,M,+0340,1","240,N,+0183,1","99999,9,10119,1","1,1,002,1,+999,9",,,"SYN106AAXX  06061 76458 32958 03302 10230 20170 30119 40123 51002 90530 333 10340 20183 30/// 55098 20727 59006;","Q01  00002PRCP06"
"76458099999","2004-11-06T18:00:00","4","23.2","-106.4166666","4.0","COLONIA JUAN CARRASCO MAZATLAN SIN., MX","FM-12","99999","V020","250,1,N,0020,1","22000,1,9,N","022000,1,N,1","+0309,1","+0149,1","10124,1","06,0000,9,1",,,,,,"00,1,+99999,9,99,9",,,"00,99,1,00,1,00,1,99999,9,00,1,00,1",,"01,9",,"120,M,+0332,1","240,N,+0182,1","99999,9,10120,1","4,1,000,1,-016,1",,,"SYN094AAXX  06181 76458 32972 02502 10309 20149 30120 40124 54000 91748 333 10332 20182 30/// 59016;","Q01  00002PRCP06"
"76458099999","2004-11-06T21:00:00","4","23.2","-106.4166666","4.0","COLONIA JUAN CARRASCO MAZATLAN SIN., MX","FM-12","99999","V020","240,1,N,0030,1","22000,1,9,N","020000,1,N,1","+0300,1","+0195,1","10109,1","06,0000,9,1",,,,,,"00,1,+99999,9,99,9",,,"00,99,1,00,1,00,1,99999,9,00,1,00,1",,"01,9",,,,"99999,9,10105,1","7,1,014,1,-002,1",,,"SYN082AAXX  06211 76458 32970 02403 10300 20195 30105 40109 57014 92040 333 30/// 59002;","Q01  00002PRCP06"
"76458099999","2004-11-07T03:00:00","4","23.2","-106.4166666","4.0","COLONIA JUAN CARRASCO MAZATLAN SIN., MX","FM-12","99999","V020","340,1,N,0010,1","22000,1,9,N","010000,1,N,1","+0253,1","+0204,1","10108,1","06,0000,9,1",,,,,,"00,1,+99999,9,99,9",,,"00,99,1,00,1,00,1,99999,9,00,1,00,1",,"01,9",,,,"99999,9,10104,1","3,1,006,1,+013,1",,,"SYN082AAXX  07031 76458 32960 03401 10253 20204 30104 40108 53006 90245 333 30/// 58013;","Q01  00002PRCP06"
"76458099999","2004-11-07T09:00:00","4","23.2","-106.4166666","4.0","COLONIA JUAN CARRASCO MAZATLAN SIN., MX","FM-12","99999","V020","999,9,C,0000,1","22000,1,9,N","010000,1,N,1","+0205,1","+0181,1","10114,1","06,0000,9,1",,,,,,"00,1,+99999,9,99,9",,,"00,99,1,00,1,00,1,99999,9,00,1,00,1",,"01,9",,,,"99999,9,10110,1","7,1,001,1,+999,9",,,"SYN082AAXX  07091 76458 32960 00000 10205 20181 30110 40114 57001 90848 333 30/// 58///;","Q01  00002PRCP06"
"76458099999","2004-11-07T15:00:00","4","23.2","-106.4166666","4.0","COLONIA JUAN CARRASCO MAZATLAN SIN., MX","FM-12","99999","V020","999,9,C,0000,1","22000,1,9,N","020000,1,N,1","+0224,1","+0167,1","10130,1","06,0000,9,1",,,,,,"00,1,+99999,9,99,9",,,"00,99,1,00,1,00,1,99999,9,00,1,00,1",,"01,9",,,,"99999,9,10126,1","2,1,016,1,+006,1",,,"SYN082AAXX  07151 76458 32970 00000 10224 20167 30126 40130 52016 91440 333 30/// 58006;","Q01  00002PRCP06"
"76458099999","2004-11-07T18:00:00","4","23.2","-106.4166666","4.0","COLONIA JUAN CARRASCO MAZATLAN SIN., MX","FM-12","99999","V020","090,1,N,0010,1","22000,1,9,N","020000,1,N,1","+0296,1","+0161,1","10132,1","06,0000,9,1",,,,,,"00,1,+99999,9,99,9",,,"00,99,1,00,1,00,1,99999,9,00,1,00,1",,"01,9",,"120,M,+0315,1","240,N,+0180,1","99999,9,10128,1","0,1,002,1,+008,1",,,"SYN094AAXX  07181 76458 32970 00901 10296 20161 30128 40132 50002 91740 333 10315 20180 30/// 58008;","Q01  00002PRCP06"
"76458099999","2004-11-07T21:00:00","4","23.2","-106.4166666","4.0","COLONIA JUAN CARRASCO MAZATLAN SIN., MX","FM-12","99999","V020","180,1,N,0020,1","22000,1,9,N","020000,1,N,1","+0296,1","+0205,1","10109,1","06,0000,9,1",,,,,,"00,1,+99999,9,99,9",,,"00,99,1,00,1,00,1,99999,9,00,1,00,1",,"01,9",,,,"99999,9,10105,1","7,1,023,1,+000,1",,,"SYN082AAXX  07211 76458 32970 01802 10296 20205 30105 40109 57023 92047 333 30/// 58000;","Q01  00002PRCP06"
"76458099999","2004-11-08T03:00:00","4","23.2","-106.4166666","4.0","COLONIA JUAN CARRASCO MAZATLAN SIN., MX","FM-12","99999","V020","030,1,N,0010,1","22000,1,9,N","016000,1,N,1","+0255,1","+0234,1","10119,1","06,0000,9,1",,,,,,"00,1,+99999,9,99,9",,,"00,99,1,00,1,00,1,99999,9,00,1,00,1",,"01,9",,,,"99999,9,10114,1","2,1,012,1,+010,1",,,"SYN082AAXX  08031 76458 32966 00301 10255 20234 30114 40119 52012 90250 333 30/// 58010;","Q01  00002PRCP06"
"76458099999","2004-11-08T15:00:00","4","23.2","-106.4166666","4.0","COLONIA JUAN CARRASCO MAZATLAN SIN., MX","FM-12","99999","V020","030,1,N,0010,1","22000,1,9,N","012000,1,N,1","+0248,1","+0208,1","10148,1","06,0000,9,1",,,,,,"04,1,+06000,9,00,9",,,"04,99,1,00,1,00,1,99999,9,00,1,02,1",,"01,9",,,,"99999,9,10144,1","9,9,999,9,+018,1",,,"SYN100AAXX  08151 76458 32962 40301 10248 20208 30144 40148 5//// 80002 91448 333 0///0 30/// 58018 84070;","Q01  00002PRCP06"
"76458099999","2004-11-08T18:00:00","4","23.2","-106.4166666","4.0","COLONIA JUAN CARRASCO MAZATLAN SIN., MX","FM-12","99999","V020","160,1,N,0010,1","22000,1,9,N","015000,1,N,1","+0276,1","+0223,1","10152,1","06,0000,9,1",,,,,,"04,1,+06000,9,00,9",,,"04,99,1,00,1,00,1,99999,9,00,1,02,1",,"01,9",,"120,M,+0298,1","240,N,+0191,1","99999,9,10147,1","0,1,003,1,+019,1",,,"SYN112AAXX  08181 76458 32965 41601 10276 20223 30147 40152 50003 80002 91748 333 0///0 10298 20191 30/// 58019 84070;","Q01  00002PRCP06"
"76458099999","2004-11-09T15:00:00","4","23.2","-106.4166666","4.0","COLONIA JUAN CARRASCO MAZATLAN SIN., MX","FM-12","99999","V020","050,1,N,0010,1","22000,1,9,N","013000,1,N,1","+0235,1","+0205,1","10151,1","06,0000,9,1",,,,,,"03,1,+02400,9,03,9",,,"03,99,1,03,1,00,1,99999,9,05,1,00,1",,"01,9",,,,"99999,9,10146,1","9,9,999,9,+002,1",,,"SYN100AAXX  09151 76458 32963 30501 10235 20205 30146 40151 5//// 83050 91448 333 0//0/ 30/// 58002 83358;","Q01  00002PRCP06"
"76458099999","2004-11-09T18:00:00","4","23.2","-106.4166666","4.0","COLONIA JUAN CARRASCO MAZATLAN SIN., MX","FM-12","99999","V020","130,1,N,0010,1","22000,1,9,N","013000,1,N,1","+0280,1","+0212,1","10154,1","06,0000,9,1",,,,,,"02,1,+02400,9,03,9",,,"02,99,1,02,1,00,1,99999,9,05,1,00,1",,"01,9",,"120,M,+0297,1","240,N,+0200,1","99999,9,10150,1","0,1,004,1,+003,1",,,"SYN112AAXX  09181 76458 32963 21301 10280 20212 30150 40154 50004 82050 91748 333 0//0/ 10297 20200 30/// 58003 82358;","Q01  00002PRCP06"
"76458099999","2004-11-09T21:00:00","4","23.2","-106.4166666","4.0","COLONIA JUAN CARRASCO MAZATLAN SIN., MX","FM-12","99999","V020","240,1,N,0020,1","22000,1,9,N","013000,1,N,1","+0278,1","+0224,1","10131,1","06,0000,9,1",,,,,,"01,1,+03600,9,03,9",,,"01,99,1,01,1,00,1,02250,1,03,1,00,1",,"01,9",,,,"99999,9,10126,1","7,1,024,1,+002,1",,,"SYN100AAXX  09211 76458 32863 12402 10278 20224 30126 40131 57024 81030 92048 333 30/// 56/9/ 58002 81362;","Q01  00002PRCP06"
"76458099999","2004-11-10T00:00:00","4","23.2","-106.4166666","4.0","COLONIA JUAN CARRASCO MAZATLAN SIN., MX","FM-12","99999","V020","300,1,N,0030,1","22000,1,9,N","015000,1,N,1","+0272,1","+0205,1","10125,1","06,0000,9,1","24,0000,9,1",,,,,,,,"01,99,1,01,1,00,1,02250,1,03,1,00,1",,"01,9",,"120,M,+0320,1","180,N,+0200,1","99999,9,10121,1","7,1,005,1,-004,1",,,"SYN124AAXX  10001 76458 32865 13003 10272 20205 30121 40125 57005 81030 92345 333 10320 20200 30/// 50171 56/9/ 59004 70000 81362;","Q01  00002PRCP06"
"76458099999","2004-11-10T09:00:00","4","23.2","-106.4166666","4.0","COLONIA JUAN CARRASCO MAZATLAN SIN., MX","FM-12","99999","V020","999,9,C,0000,1","22000,1,9,N","012000,1,N,1","+0221,1","+0199,1","10133,1","06,0000,9,1",,,,,,"00,1,+99999,9,99,9",,,"00,99,1,00,1,00,1,99999,9,00,1,00,1",,"01,9",,,,"99999,9,10128,1",,,,"SYN082AAXX  10091 76458 32962 00000 10221 20199 30128 40133 5//// 90850 333 30/// 58///;","Q01  00002PRCP06"
"76458099999","2004-11-10T12:00:00","4","23.2","-106.4166666","4.0","COLONIA JUAN CARRASCO MAZATLAN SIN., MX","FM-12","99999","V020","330,1,N,0070,1","22000,1,9,N","012000,1,N,1","+0214,1","+0197,1","10135,1","06,0000,9,1","24,0000,9,1",,,,,"00,1,+99999,9,99,9",,,"00,99,1,00,1,00,1,99999,9,00,1,00,1",,"01,9",,"999,M,+0303,1","120,N,+0203,1","99999,9,10130,1","3,1,002,1,+999,9",,,"SYN100AAXX  10121 76458 32962 03307 10214 20197 30130 40135 53002 91150 333 10303 20203 30175 58/// 70000;","Q01  00002PRCP06Q02  00002PRCP24"
"76458099999","2004-11-10T15:00:00","4","23.2","-106.4166666","4.0","COLONIA JUAN CARRASCO MAZATLAN SIN., MX","FM-12","99999","V020","999,9,C,0000,1","22000,1,9,N","013000,1,N,1","+0236,1","+0207,1","10147,1","06,0000,9,1",,,,,,"00,1,+99999,9,99,9",,,"00,99,1,00,1,00,1,99999,9,00,1,00,1",,"01,9",,,,"99999,9,10143,1","2,1,013,1,-003,1",,,"SYN082AAXX  10151 76458 32963 00000 10236 20207 30143 40147 52013 91448 333 30/// 59003;","Q01  00002PRCP06"
"76458099999","2004-11-10T18:00:00","4","23.2","-106.4166666","4.0","COLONIA JUAN CARRASCO MAZATLAN SIN., MX","FM-12","99999","V020","160,1,N,0020,1","22000,1,9,N","016000,1,N,1","+0274,1","+0215,1","10151,1","06,0000,9,1",,,,,,"00,1,+99999,9,99,9",,,"00,99,1,00,1,00,1,99999,9,00,1,00,1",,"01,9",,"120,M,+0295,1","240,N,+0195,1","99999,9,10147,1","0,1,004,1,-003,1",,,"SYN094AAXX  10181 76458 32966 01602 10274 20215 30147 40151 50004 91748 333 10295 20195 30/// 59003;","Q01  00002PRCP06"
"76458099999","2004-11-10T21:00:00","4","23.2","-106.4166666","4.0","COLONIA JUAN CARRASCO MAZATLAN SIN., MX","FM-12","99999","V020","240,1,N,0020,1","22000,1,9,N","013000,1,N,1","+0269,1","+0222,1","10138,1","06,0000,9,1",,,,,,,,,"01,99,1,99,9,99,9,00450,1,99,9,99,9",,"01,9",,,,"99999,9,10133,1","9,9,999,9,+007,1",,,"SYN099AAXX  10211 76458 32463 12402 10269 20222 30133 40138 7014 81100 92047 333 30/// 561// 58007 81820;","Q01  00002PRCP06"
"76458099999","2004-11-11T03:00:00","4","23.2","-106.4166666","4.0","COLONIA JUAN CARRASCO MAZATLAN SIN., MX","FM-12","99999","V020","320,1,N,0030,1","22000,1,9,N","008000,1,N,1","+0250,1","+0213,1","10146,1","06,0000,9,1",,,,,,"00,1,+99999,9,99,9",,,"00,99,1,00,1,00,1,99999,9,00,1,00,1",,"01,9",,,,"99999,9,10141,1","2,1,011,1,+999,9",,,"SYN082AAXX  11031 76458 32958 03203 10250 20213 30141 40146 52011 90235 333 30/// 58///;","Q01  00002PRCP06"
"76458099999","2004-11-11T09:00:00","4","23.2","-106.4166666","4.0","COLONIA JUAN CARRASCO MAZATLAN SIN., MX","FM-12","99999","V020","340,1,N,0010,1","22000,1,9,N","010000,1,N,1","+0210,1","+0180,1","10138,1","06,0000,9,1",,,,,,"00,1,+99999,9,99,9",,,"00,99,1,00,1,00,1,99999,9,00,1,00,1",,"01,9",,,,"99999,9,10134,1","7,1,012,1,+005,1",,,"SYN082AAXX  11091 76458 32960 03401 10210 20180 30134 40138 57012 90850 333 30/// 58005;","Q01  00002PRCP06"
"76458099999","2004-11-11T12:00:00","4","23.2","-106.4166666","4.0","COLONIA JUAN CARRASCO MAZATLAN SIN., MX","FM-12","99999","V020","330,1,N,0010,1","22000,1,9,N","010000,1,N,1","+0203,1","+0188,1","10135,1","06,0000,9,1","24,0000,9,1",,,,,"00,1,+99999,9,99,9",,,"00,99,1,00,1,00,1,99999,9,00,1,00,1",,"01,9","999,-0640,9","999,M,+0295,1","120,N,+0193,1","99999,9,10130,1","5,1,004,1,+000,1",,,"SYN100AAXX  11121 76458 32960 03301 10203 20188 30130 40135 55004 91156 333 10295 20193 30164 59000 70000;","Q01  00002PRCP06Q02  00002PRCP24"
"76458099999","2004-11-11T15:00:00","4","23.2","-106.4166666","4.0","COLONIA JUAN CARRASCO MAZATLAN SIN., MX","FM-12","99999","V020","310,1,N,0020,1","22000,1,9,N","017000,1,N,1","+0228,1","+0174,1","10149,1","06,0000,9,1",,,,,,"00,1,+99999,9,99,9",,,"00,99,1,00,1,00,1,99999,9,00,1,00,1",,"01,9",,,,"99999,9,10145,1","2,1,015,1,+002,1",,,"SYN082AAXX  11151 76458 32967 03102 10228 20174 30145 40149 52015 91448 333 30/// 58002;","Q01  00002PRCP06"
"76458099999","2004-11-11T18:00:00","4","23.2","-106.4166666","4.0","COLONIA JUAN CARRASCO MAZATLAN SIN., MX","FM-12","99999","V020","240,1,N,0030,1","22000,1,9,N","020000,1,N,1","+0276,1","+0195,1","10147,1","06,0000,9,1",,,,,,"00,1,+99999,9,99,9",,,"00,99,1,00,1,00,1,99999,9,00,1,00,1",,"01,9",,"120,M,+0291,1","240,N,+0191,1","99999,9,10143,1","0,1,002,1,-004,1",,,"SYN094AAXX  11181 76458 32970 02403 10276 20195 30143 40147 50002 91749 333 10291 20191 30/// 59004;","Q01  00002PRCP06"
"76458099999","2004-11-11T21:00:00","4","23.2","-106.4166666","4.0","COLONIA JUAN CARRASCO MAZATLAN SIN., MX","FM-12","99999","V020","280,1,N,0040,1","22000,1,9,N","020000,1,N,1","+0275,1","+0174,1","10120,1","06,0000,9,1",,,,,,"00,1,+99999,9,99,9",,,"00,99,1,00,1,00,1,99999,9,00,1,00,1",,"01,9",,,,"99999,9,10115,1","7,1,028,1,-018,1",,,"SYN082AAXX  11211 76458 32970 02804 10275 20174 30115 40120 57028 92048 333 30/// 59018;","Q01  00002PRCP06"
"76458099999","2004-11-12T00:00:00","4","23.2","-106.4166666","4.0","COLONIA JUAN CARRASCO MAZATLAN SIN., MX","FM-12","99999","V020","300,1,N,0030,1","22000,1,9,N","020000,1,N,1","+0263,1","+0195,1","10110,1","06,0000,9,1","24,0000,9,1",,,,,,,,"01,99,1,00,1,00,1,99999,9,00,1,01,1",,"01,9",,"120,M,+0291,1","180,N,+0191,1","99999,9,10106,1","7,1,009,1,-014,1",,,"SYN124AAXX  12001 76458 32970 13003 10263 20195 30106 40110 57009 80001 92345 333 10291 20191 30/// 50361 56//9 59014 70000 81070;","Q01  00002PRCP06"
"76458099999","2004-11-12T06:00:00","4","23.2","-106.4166666","4.0","COLONIA JUAN CARRASCO MAZATLAN SIN., MX","FM-12","99999","V020","999,9,C,0000,1","22000,1,9,N","008000,1,N,1","+0224,1","+0177,1","10118,1","06,0000,9,1",,,,,,"00,1,+99999,9,99,9",,,"00,99,1,00,1,00,1,99999,9,00,1,00,1","0570,9","01,9",,"240,M,+0290,1","240,N,+0191,1","99999,9,10113,1","4,1,000,1,+999,9",,,"SYN106AAXX  12061 76458 32958 00000 10224 20177 30113 40118 54001 90530 333 10290 20191 30/// 55095 20828 59032;","Q01  00002PRCP06"
"76458099999","2004-11-12T12:00:00","4","23.2","-106.4166666","4.0","COLONIA JUAN CARRASCO MAZATLAN SIN., MX","FM-12","99999","V020","999,9,C,0000,1","22000,1,9,N","010000,1,N,1","+0196,1","+0179,1","10112,1","06,0000,9,1","24,0000,9,1",,,,,"00,1,+99999,9,99,9",,,"00,99,1,00,1,00,1,99999,9,00,1,00,1",,"01,9","999,-0590,9","999,M,+0291,1","120,N,+0190,1","99999,9,10107,1","7,1,003,1,-023,1",,,"SYN100AAXX  12121 76458 32960 00000 10196 20179 30107 40112 57003 91156 333 10291 20190 30159 59023 70000;","Q01  00002PRCP06Q02  00002PRCP24"
"76458099999","2004-11-12T15:00:00","4","23.2","-106.4166666","4.0","COLONIA JUAN CARRASCO MAZATLAN SIN., MX","FM-12","99999","V020","110,1,N,0020,1","22000,1,9,N","014000,1,N,1","+0236,1","+0189,1","10128,1","06,0000,9,1",,,,,,"02,1,+06000,9,00,9",,,"02,99,1,00,1,00,1,99999,9,00,1,02,1",,"01,9",,,,"99999,9,10124,1","2,1,017,1,-021,1",,,"SYN100AAXX  12151 76458 32964 21102 10236 20189 30124 40128 52017 80002 91448 333 0///0 30/// 59021 82070;","Q01  00002PRCP06"
"76458099999","2004-11-12T18:00:00","4","23.2","-106.4166666","4.0","COLONIA JUAN CARRASCO MAZATLAN SIN., MX","FM-12","99999","V020","160,1,N,0030,1","22000,1,9,N","018000,1,N,1","+0270,1","+0213,1","10128,1","06,0000,9,1",,,,,,"01,1,+00750,9,08,9",,,"03,99,1,01,1,01,1,01250,1,00,1,02,1",,"01,9",,"120,M,+0285,1","240,N,+0187,1","99999,9,10124,1","4,1,000,1,-019,1",,,"SYN118AAXX  12181 76458 32668 31603 10270 20213 30124 40128 54000 81102 91748 333 0/3/0 10285 20187 30/// 59019 81825 82070;","Q01  00002PRCP06"
"76458099999","2004-11-12T21:00:00","4","23.2","-106.4166666","4.0","COLONIA JUAN CARRASCO MAZATLAN SIN., MX","FM-12","99999","V020","160,1,N,0030,1","22000,1,9,N","020000,1,N,1","+0278,1","+0204,1","10111,1","06,0000,9,1",,,,,,"01,1,+00930,9,08,9",,,"03,99,1,01,1,02,1,00800,1,00,1,06,1",,"01,9",,,,"99999,9,10106,1","7,1,018,1,-009,1",,,"SYN106AAXX  12211 76458 32570 31603 10278 20204 30106 40111 57018 81206 92058 333 0/33/ 30/// 59009 81831 82072;","Q01  00002PRCP06"
"76458099999","2004-11-13T00:00:00","4","23.2","-106.4166666","4.0","COLONIA JUAN CARRASCO MAZATLAN SIN., MX","FM-12","99999","V020","210,1,N,0020,1","22000,1,9,N","020000,1,N,1","+0265,1","+0210,1","10113,1","06,0000,9,1","24,0000,9,1",,,,,"03,1,+06600,9,00,9",,,"03,99,1,00,1,00,1,99999,9,00,1,06,1",,"01,9",,"120,M,+0298,1","180,N,+0187,1","99999,9,10108,1","2,1,002,1,+002,1",,,"SYN124AAXX  13001 76458 32970 32102 10265 20210 30108 40113 52002 83006 92350 333 0/00/ 10298 20187 30/// 51501 58002 70000 83072;","Q01+000032SCOTLCQ02  00002PRCP06"
"76458099999","2004-11-13T03:00:00","4","23.2","-106.4166666","4.0","COLONIA JUAN CARRASCO MAZATLAN SIN., MX","FM-12","99999","V020","340,1,N,0020,1","22000,1,9,N","010000,1,N,1","+0245,1","+0200,1","10124,1","06,0000,9,1",,,,,,"00,1,+99999,9,99,9",,,"00,99,1,00,1,00,1,99999,9,00,1,00,1",,"01,9",,,,"99999,9,10120,1","2,1,012,1,+008,1",,,"SYN082AAXX  13031 76458 32960 03402 10245 20200 30120 40124 52012 90245 333 30/// 58008;","Q01  00002PRCP06"
"76458099999","2004-11-13T06:00:00","4","23.2","-106.4166666","4.0","COLONIA JUAN CARRASCO MAZATLAN SIN., MX","FM-12","99999","V020","999,9,C,0000,1","22000,1,9,N","010000,1,N,1","+0221,1","+0196,1","10127,1","06,0000,9,1",,,,,,"00,1,+99999,9,99,9",,,"00,99,1,00,1,00,1,99999,9,00,1,00,1","0552,9","01,9",,"240,M,+0294,1","240,N,+0187,1","99999,9,10123,1","0,1,003,1,+999,9",,,"SYN106AAXX  13061 76458 32960 00000 10221 20196 30123 40127 50003 90540 333 10294 20187 30/// 55092 20619 58010;","Q01  00002PRCP06"
"76458099999","2004-11-13T09:00:00","4","23.2","-106.4166666","4.0","COLONIA JUAN CARRASCO MAZATLAN SIN., MX","FM-12","99999","V020","999,9,C,0000,1","22000,1,9,N","008000,1,N,1","+0210,1","+0190,1","10133,1","06,0000,9,1",,,,,,"00,1,+99999,9,99,9",,,"00,99,1,00,1,00,1,99999,9,00,1,00,1",,"01,9",,,,"99999,9,10128,1","0,1,005,1,+018,1",,,"SYN082AAXX  13091 76458 32958 00000 10210 20190 30128 40133 50005 90835 333 30/// 58018;","Q01  00002PRCP06"
"76458099999","2004-11-13T15:00:00","4","23.2","-106.4166666","4.0","COLONIA JUAN CARRASCO MAZATLAN SIN., MX","FM-12","99999","V020","100,1,N,0010,1","22000,1,9,N","013000,1,N,1","+0238,1","+0203,1","10136,1","06,0000,9,1",,,,,,"01,1,+00300,9,06,9",,,"02,99,1,02,1,02,1,00450,1,00,1,00,1",,"01,9",,,,"99999,9,10131,1","2,1,005,1,+007,1",,,"SYN112AAXX  13151 76458 32463 21001 10238 20203 30131 40136 52005 82200 91448 333 0/0// 30/// 57837 58007 81610 81814;","Q01  00002PRCP06"
"76458099999","2004-11-13T18:00:00","4","23.2","-106.4166666","4.0","COLONIA JUAN CARRASCO MAZATLAN SIN., MX","FM-12","99999","V020","160,1,N,0010,1","22000,1,9,N","020000,1,N,1","+0272,1","+0205,1","10140,1","06,0000,9,1",,,,,,"01,1,+00900,9,08,9",,,"02,99,1,01,1,01,1,00800,1,06,1,00,1",,"01,9",,"120,M,+0302,1","240,N,+0195,1","99999,9,10136,1","0,1,005,1,+012,1",,,"SYN118AAXX  13181 76458 32570 21601 10272 20205 30136 40140 50005 81160 91748 333 0030/ 10302 20195 30/// 58012 81830 81358;","Q01  00002PRCP06"
"76458099999","2004-11-13T21:00:00","4","23.2","-106.4166666","4.0","COLONIA JUAN CARRASCO MAZATLAN SIN., MX","FM-12","99999","V020","240,1,N,0020,1","22000,1,9,N","020000,1,N,1","+0270,1","+0220,1","10125,1","06,0000,9,1",,,,,,"01,1,+00690,9,08,9",,,"01,99,1,01,1,02,1,00800,1,99,9,99,9",,"01,9",,,,"99999,9,10121,1","7,1,015,1,+015,1",,,"SYN106AAXX  13211 76458 32570 12402 10270 20220 30121 40125 57015 812// 92040 333 011// 30/// 57816 58015 81823;","Q01  00002PRCP06"
"76458099999","2004-11-14T03:00:00","4","23.2","-106.4166666","4.0","COLONIA JUAN CARRASCO MAZATLAN SIN., MX","FM-12","99999","V020","999,9,C,0000,1","22000,1,9,N","010000,1,N,1","+0253,1","+0218,1","10115,1","06,0000,9,1",,,,,,,,,"01,99,1,01,1,00,1,02250,1,03,1,00,1",,"01,9",,,,"99999,9,10111,1","3,1,005,1,-009,1",,,"SYN100AAXX  14031 76458 32860 10000 10253 20218 30111 40115 53005 81030 90247 333 30/// 58/9/ 59009 81362;","Q01  00002PRCP06"
"76458099999","2004-11-14T06:00:00","4","23.2","-106.4166666","4.0","COLONIA JUAN CARRASCO MAZATLAN SIN., MX","FM-12","99999","V020","140,1,N,0010,1","22000,1,9,N","010000,1,N,1","+0248,1","+0217,1","10130,1","06,0000,9,1",,,,,,,,,"03,99,1,03,1,04,1,00450,1,00,1,00,1","0504,9","01,9",,"240,M,+0300,1","240,N,+0195,1","99999,9,10125,1","2,1,014,1,+002,1",,,"SYN124AAXX  14061 76458 32460 31401 10248 20217 30125 40130 52014 83400 90540 333 10300 20195 30/// 55084 20975 565// 58002 83613;","Q01  00002PRCP06"
"76458099999","2004-11-14T09:00:00","4","23.2","-106.4166666","4.0","COLONIA JUAN CARRASCO MAZATLAN SIN., MX","FM-12","99999","V020","150,1,N,0020,1","22000,1,9,N","010000,1,N,1","+0249,1","+0217,1","10129,1","06,0000,9,1",,,,,,"03,1,+00390,9,08,9",,,"03,99,1,03,1,07,1,00450,1,03,1,00,1",,"01,9",,,,"99999,9,10124,1","0,1,001,1,-004,1",,,"SYN106AAXX  14091 76458 32460 31502 10249 20217 30124 40129 50001 83730 90850 333 01490 30/// 59004 83813 82358;","Q01  00002PRCP06"
"76458099999","2004-11-14T12:00:00","4","23.2","-106.4166666","4.0","COLONIA JUAN CARRASCO MAZATLAN SIN., MX","FM-12","99999","V020","210,1,N,0030,1","22000,1,9,N","010000,1,N,1","+0251,1","+0202,1","10125,1","06,0000,9,1","24,0000,9,1",,,,,"01,1,+00600,9,08,9",,,"04,99,1,04,1,09,1,00800,1,00,1,00,1",,"01,9",,"999,M,+0300,1","120,N,+0240,1","99999,9,10120,1","5,1,004,1,-003,1",,,"SYN130AAXX  14121 76458 32560 42103 10251 20202 30120 40125 55004 84900 91156 333 07100 10300 20240 30225 57916 59003 70000 81820 83934;","Q01  00002PRCP06"
"76458099999","2004-11-14T15:00:00","4","23.2","-106.4166666","4.0","COLONIA JUAN CARRASCO MAZATLAN SIN., MX","FM-12","99999","V020","340,1,N,0010,1","00240,1,9,N","016000,1,N,1","+0234,1","+0215,1","10152,1","06,0000,9,1",,,,,,"07,1,+00240,9,06,9",,,"07,99,1,07,1,05,1,00250,1,99,9,99,9",,"01,9",,,,"99999,9,10148,1","2,1,028,1,+017,1",,,"SYN106AAXX  14151 76458 32366 73401 10234 20215 30148 40152 52028 875// 91440 333 0/4// 30/// 57640 58017 87608;","Q01  00002PRCP06"
"76458099999","2004-11-14T18:00:00","4","23.2","-106.4166666","4.0","COLONIA JUAN CARRASCO MAZATLAN SIN., MX","FM-12","99999","V020","150,1,N,0020,1","00600,1,9,N","016000,1,N,1","+0264,1","+0217,1","10148,1","02,0005,9,1",,,,,,"04,1,+00480,9,06,9","02,1,+00600,9,08,9",,"07,99,1,06,1,05,1,00800,1,03,1,99,9",,"09,9",,"120,M,+0275,1","240,N,+0238,1","99999,9,10144,1","4,1,000,1,+008,1",,,"SYN130AAXX  14181 76458 11566 71502 10264 20217 30144 40148 54004 69946 8653/ 91740 333 10275 20238 31/// 57640 58008 84616 82820 81356;",
"76458099999","2004-11-14T21:00:00","4","23.2","-106.4166666","4.0","COLONIA JUAN CARRASCO MAZATLAN SIN., MX","FM-12","99999","V020","120,1,N,0030,1","22000,1,9,N","020000,1,N,1","+0282,1","+0205,1","10129,1","06,0000,9,1",,,,,,"02,1,+00960,9,08,9","01,1,+02400,9,03,9",,"04,99,1,02,1,02,1,00800,1,03,1,06,1",,"01,9",,,,"99999,9,10124,1","7,1,020,1,+003,1",,,"SYN112AAXX  14211 76458 32570 41203 10282 20205 30124 40129 57020 82236 92058 333 0/1// 30/// 58003 82832 81358 81072;","Q01  00002PRCP06"
"76458099999","2004-11-15T00:00:00","4","23.2","-106.4166666","4.0","COLONIA JUAN CARRASCO MAZATLAN SIN., MX","FM-12","99999","V020","150,1,N,0030,1","22000,1,9,N","020000,1,N,1","+0276,1","+0188,1","10117,1","06,0000,9,1","24,0000,9,1",,,,,"02,1,+02400,9,03,9",,,"03,99,1,99,9,00,1,99999,9,03,1,06,1",,"01,9",,"120,M,+0298,1","180,N,+0238,1","99999,9,10113,1","7,1,012,1,+007,1",,,"SYN130AAXX  15001 76458 32970 31503 10276 20188 30113 40117 57012 80036 92355 333 0/0// 10298 20238 30/// 52451 58007 70000 82358 81072;","Q01+000002SCOTLCQ02  00002PRCP06"
"76458099999","2004-11-15T03:00:00","4","23.2","-106.4166666","4.0","COLONIA JUAN CARRASCO MAZATLAN SIN., MX","FM-12","99999","V020","110,1,N,0040,1","03600,1,9,N","010000,1,N,1","+0255,1","+0211,1","10132,1","06,0000,9,1",,,,"9,1,03,1","0,1,03,1","01,1,+00540,9,09,9",,,"06,99,1,01,1,09,1,00800,1,03,1,00,1",,"01,9",,,,"99999,9,10127,1","2,1,014,1,+016,1","13,1",,"SYN112AAXX  15031 76458 31560 61104 10255 20211 30127 40132 52014 71390 81930 90255 333 30/// 5669/ 58016 81918 85362;","Q01  00002PRCP06"
"76458099999","2004-11-15T06:00:00","4","23.2","-106.4166666","4.0","COLONIA JUAN CARRASCO MAZATLAN SIN., MX","FM-12","99999","V020","120,1,N,0020,1","00750,1,9,N","010000,1,N,1","+0249,1","+0206,1","10136,1","06,0000,9,1",,,,"9,1,06,1","9,1,06,1","01,1,+00540,9,09,9",,,"07,99,1,07,1,09,1,00800,1,00,1,00,1","0306,9","01,9",,"240,M,+0298,1","240,N,+0238,1","99999,9,10132,1","2,1,004,1,+007,1","17,1",,"SYN136AAXX  15061 76458 31560 71202 10249 20206 30132 40136 52004 71799 87900 90540 333 10298 20238 30/// 55051 20619 563// 58007 81918 86618;","Q01  00002PRCP06"
"76458099999","2004-11-15T12:00:00","4","23.2","-106.4166666","4.0","COLONIA JUAN CARRASCO MAZATLAN SIN., MX","FM-12","99999","V020","060,1,N,0030,1","00120,1,9,N","008000,1,N,1","+0208,1","+0198,1","10150,1","06,0480,9,1","24,0485,9,1",,,"6,1,06,1","5,1,06,1","06,1,+00120,9,06,9",,,"08,99,1,08,1,09,1,00150,1,00,1,00,1",,"01,9",,"999,M,+0298,1","120,N,+0200,1","99999,9,10145,1","0,1,009,1,+025,1","65,1",,"SYN142AAXX  15121 76458 31258 80603 10208 20198 30145 40150 50009 60481 76565 88900 91150 333 07400 10298 20200 30196 57941 58025 70485 86604 82934;",
"76458099999","2004-11-15T15:00:00","4","23.2","-106.4166666","4.0","COLONIA JUAN CARRASCO MAZATLAN SIN., MX","FM-12","99999","V020","090,1,N,0040,1","00660,1,9,N","014000,1,N,1","+0220,1","+0200,1","10161,1","03,0090,9,1",,,,"9,1,03,1","5,1,03,1","08,1,+00660,9,06,9",,,"08,99,1,08,1,03,1,00250,1,00,1,00,1",,"11,9",,,,"99999,9,10156,1","1,1,011,1,+008,1","21,1",,"SYN118AAXX  15151 76458 21364 80904 10220 20200 30156 40161 51011 72195 88300 91445 333 0/5// 32/// 57654 58008 60097 88622;",
"76458099999","2004-11-15T18:00:00","4","23.2","-106.4166666","4.0","COLONIA JUAN CARRASCO MAZATLAN SIN., MX","FM-12","99999","V020","070,1,N,0030,1","00660,1,9,N","018000,1,N,1","+0233,1","+0197,1","10151,1","06,0180,9,1",,,,"1,1,06,1","0,1,06,1","08,1,+00660,9,06,9",,,"08,99,1,08,1,03,1,00800,1,00,1,00,1",,"11,9",,"120,M,+9999,9","240,N,+9999,9","99999,9,10147,1","6,1,009,1,+003,1","03,1",,"SYN130AAXX  15181 76458 11568 80703 10233 20197 30147 40151 56009 60181 70317 88300 91745 333 0/5// 10235 20295 32/// 57654 58003 88622;","Q01+000072PSTWM2Q02 +02353ATMM  Q03 +02953ATMM  "
"76458099999","2004-11-15T21:00:00","4","23.2","-106.4166666","4.0","COLONIA JUAN CARRASCO MAZATLAN SIN., MX","FM-12","99999","V020","120,1,N,0020,1","00480,1,9,N","017000,1,N,1","+0260,1","+0222,1","10141,1","06,0000,2,1",,,,,,"08,1,+00480,9,06,9",,,"08,99,1,08,1,04,1,00450,1,00,1,00,1",,"01,9",,,,"99999,9,10136,1","7,1,011,1,+011,1",,,"SYN100AAXX  15211 76458 32467 81202 10260 20222 30136 40141 57011 88400 92055 333 0/800 30/// 58011 88616;",
"76458099999","2004-11-16T03:00:00","4","23.2","-106.4166666","4.0","COLONIA JUAN CARRASCO MAZATLAN SIN., MX","FM-12","99999","V020","999,9,C,0000,1","00600,1,9,N","008000,1,N,1","+0220,1","+0208,1","10165,1","03,0099,9,1",,,,"6,1,03,1","9,1,03,1","05,1,+00600,9,09,9",,,"08,99,1,08,1,09,1,00150,1,99,9,99,9",,"12,9",,,,"99999,9,10160,1","2,1,016,1,+043,1","20,1",,"SYN118AAXX  16031 76458 11258 80000 10220 20208 30160 40165 52016 60107 72069 889// 90240 333 33/// 57970 58043 85920 83505;",
"76458099999","2004-11-16T06:00:00","4","23.2","-106.4166666","4.0","COLONIA JUAN CARRASCO MAZATLAN SIN., MX","FM-12","99999","V020","360,1,N,0010,1","03600,1,9,N","008000,1,N,1","+0214,1","+0206,1","10181,1","06,0279,9,1",,,,"6,1,06,1","9,1,06,1","03,1,+00090,9,08,9",,,"06,99,1,03,1,02,1,00150,1,03,1,99,9","0072,9","12,9",,"240,M,+0282,1","240,N,+0195,1","99999,9,10177,1","2,1,017,1,+045,1","00,1",,"SYN148AAXX  16061 76458 11258 63601 10214 20206 30177 40181 52017 60281 70069 8323/ 90540 333 0049/ 10282 20195 33/// 55012 20696 57840 58045 83803 83356;",
"76458099999","2004-11-16T09:00:00","4","23.2","-106.4166666","4.0","COLONIA JUAN CARRASCO MAZATLAN SIN., MX","FM-12","99999","V020","999,9,C,0000,1","00150,1,9,N","010000,1,N,1","+0212,1","+0200,1","10171,1","03,0020,9,1",,,,"5,1,03,1","5,1,03,1","05,1,+00150,9,08,9",,,"08,99,1,08,1,09,1,00150,1,00,1,00,1",,"11,9",,,,"99999,9,10166,1","7,1,011,1,+030,1","53,1",,"SYN124AAXX  16091 76458 21260 80000 10212 20200 30166 40171 57011 75355 88900 90850 333 07300 32/// 57931 58030 60027 85805 83934;",
"76458099999","2004-11-16T15:00:00","4","23.2","-106.4166666","4.0","COLONIA JUAN CARRASCO MAZATLAN SIN., MX","FM-12","99999","V020","310,1,N,0010,1","00120,1,C,N","020000,1,N,1","+0216,1","+0204,1","10181,1","06,0000,2,1",,,,,,"03,1,+00180,9,06,9",,,"06,99,1,06,1,02,1,00150,1,00,1,00,1",,"09,9",,,,"99999,9,10177,1","2,1,013,1,+021,1",,,"SYN112AAXX  16151 76458 32270 63101 10216 20204 30177 40181 52013 86200 91448 333 0/5// 31/// 57855 58021 83606 83815;",
"76458099999","2004-11-16T18:00:00","4","23.2","-106.4166666","4.0","COLONIA JUAN CARRASCO MAZATLAN SIN., MX","FM-12","99999","V020","120,1,N,0010,1","22000,1,9,N","022000,1,N,1","+0256,1","+0211,1","10184,1","06,0000,9,1",,,,,,"01,1,+00540,9,08,9",,,"04,99,1,01,1,02,1,00450,1,03,1,00,1",,"01,9",,"120,M,+0273,1","240,N,+0200,1","99999,9,10180,1","0,1,003,1,+033,1",,,"SYN124AAXX  16181 76458 32472 41201 10256 20211 30180 40184 50003 81230 91748 333 0/30/ 10273 20200 30/// 57815 58033 81818 83358;","Q01  00002PRCP06"
"76458099999","2004-11-16T21:00:00","4","23.2","-106.4166666","4.0","COLONIA JUAN CARRASCO MAZATLAN SIN., MX","FM-12","99999","V020","180,1,N,0030,1","22000,1,9,N","022000,1,N,1","+0269,1","+0199,1","10166,1","06,0000,9,1",,,,,,"01,1,+00780,9,08,9",,,"04,99,1,01,1,02,1,00800,1,05,1,00,1",,"01,9",,,,"99999,9,10162,1","7,1,018,1,+026,1",,,"SYN112AAXX  16211 76458 32572 41803 10269 20199 30162 40166 57018 81250 92045 333 0/10/ 30/// 57816 58026 81826 83358;","Q01  00002PRCP06"
"76458099999","2004-11-17T03:00:00","4","23.2","-106.4166666","4.0","COLONIA JUAN CARRASCO MAZATLAN SIN., MX","FM-12","99999","V020","330,1,N,0010,1","22000,1,9,N","010000,1,N,1","+0241,1","+0207,1","10173,1","06,0000,9,1",,,,,,"00,1,+99999,9,99,9",,,"00,99,1,00,1,00,1,99999,9,00,1,00,1",,"01,9",,,,"99999,9,10168,1","2,1,013,1,+008,1",,,"SYN082AAXX  17031 76458 32960 03301 10241 20207 30168 40173 52013 90245 333 30/// 58008;","Q01  00002PRCP06"
"76458099999","2004-11-17T06:00:00","4","23.2","-106.4166666","4.0","COLONIA JUAN CARRASCO MAZATLAN SIN., MX","FM-12","99999","V020","330,1,N,0010,1","22000,1,9,N","010000,1,N,1","+0221,1","+0201,1","10174,1","06,0000,9,1",,,,,,"00,1,+99999,9,99,9",,,"00,99,1,00,1,00,1,99999,9,00,1,00,1","0438,9","01,9",,"240,M,+0290,1","240,N,+0200,1","99999,9,10170,1","1,1,002,1,+999,9",,,"SYN106AAXX  17061 76458 32960 03301 10221 20201 30170 40174 51002 90540 333 10290 20200 30/// 55073 20843 59007;","Q01  00002PRCP06"
"76458099999","2004-11-17T09:00:00","4","23.2","-106.4166666","4.0","COLONIA JUAN CARRASCO MAZATLAN SIN., MX","FM-12","99999","V020","330,1,N,0020,1","22000,1,9,N","010000,1,N,1","+0210,1","+0198,1","10166,1","06,0000,9,1",,,,,,"00,1,+99999,9,99,9",,,"00,99,1,00,1,00,1,99999,9,00,1,00,1",,"01,9",,,,"99999,9,10162,1","7,1,008,1,-004,1",,,"SYN082AAXX  17091 76458 32960 03302 10210 20198 30162 40166 57008 90852 333 30/// 59004;","Q01  00002PRCP06"
"76458099999","2004-11-17T12:00:00","4","23.2","-106.4166666","4.0","COLONIA JUAN CARRASCO MAZATLAN SIN., MX","FM-12","99999","V020","340,1,N,0010,1","22000,1,9,N","010000,1,N,1","+0197,1","+0190,1","10161,1","06,0000,9,1","24,0000,9,1",,,,,"00,1,+99999,9,99,9",,,"00,99,1,00,1,00,1,99999,9,00,1,00,1",,"01,9",,"999,M,+0290,1","120,N,+0190,1","99999,9,10157,1","7,1,005,1,-006,1",,,"SYN100AAXX  17121 76458 32960 03401 10197 20190 30157 40161 57005 91135 333 10290 20190 30178 59006 70000;","Q01  00002PRCP06Q02  00002PRCP24"
"76458099999","2004-11-17T15:00:00","4","23.2","-106.4166666","4.0","COLONIA JUAN CARRASCO MAZATLAN SIN., MX","FM-12","99999","V020","340,1,N,0020,1","22000,1,9,N","016000,1,N,1","+0213,1","+0182,1","10163,1","06,0000,9,1",,,,,,"01,1,+02400,9,03,9",,,"02,99,1,01,1,00,1,00025,1,03,1,04,1",,"01,9",,,,"99999,9,10169,1","2,1,012,1,-008,1",,,"SYN106AAXX  17151 76458 32066 23402 10213 20182 30169 40163 52012 81034 91450 333 0//00 30/// 59008 81358 81070;","Q01  00002PRCP06"
"76458099999","2004-11-17T18:00:00","4","23.2","-106.4166666","4.0","COLONIA JUAN CARRASCO MAZATLAN SIN., MX","FM-12","99999","V020","290,1,N,0030,1","22000,1,9,N","020000,1,N,1","+0265,1","+0164,1","10177,1","06,0000,9,1",,,,,,"01,1,+02400,9,03,9",,,"03,99,1,01,1,00,1,99999,9,03,1,04,1",,"01,9",,"120,M,+0285,1","240,N,+0166,1","99999,9,10173,1","6,1,004,1,-007,1",,,"SYN118AAXX  17181 76458 32970 32903 10265 20164 30173 40177 56004 81034 91750 333 0//00 10285 20166 30/// 59007 81358 82070;","Q01  00002PRCP06"
"76458099999","2004-11-17T21:00:00","4","23.2","-106.4166666","4.0","COLONIA JUAN CARRASCO MAZATLAN SIN., MX","FM-12","99999","V020","280,1,N,0040,1","22000,1,9,N","025000,1,N,1","+0273,1","+0193,1","10159,1","06,0000,9,1",,,,,,"01,1,+06000,9,00,9",,,"01,99,1,00,1,00,1,99999,9,00,1,06,1",,"01,9",,,,"99999,9,10155,1","7,1,018,1,-007,1",,,"SYN100AAXX  17211 76458 32975 12804 10273 20193 30155 40159 57018 80006 92045 333 30/// 56//9 59007 81070;","Q01  00002PRCP06"
"76458099999","2004-11-18T03:00:00","4","23.2","-106.4166666","4.0","COLONIA JUAN CARRASCO MAZATLAN SIN., MX","FM-12","99999","V020","330,1,N,0020,1","22000,1,9,N","008000,1,N,1","+0232,1","+0188,1","10161,1","06,0000,9,1",,,,,,"02,1,+06000,9,00,9",,,"02,99,1,00,1,99,9,99999,9,99,9,02,1",,"01,9",,,,"99999,9,10157,1","2,1,012,1,-011,1",,,"SYN094AAXX  18031 76458 32958 23302 10232 20188 30157 40161 52012 80//2 90240 333 30/// 59011 82070;","Q01  00002PRCP06"
"76458099999","2004-11-18T12:00:00","4","23.2","-106.4166666","4.0","COLONIA JUAN CARRASCO MAZATLAN SIN., MX","FM-12","99999","V020","340,1,N,0010,1","22000,1,9,N","008000,1,N,1","+0190,1","+0172,1","10153,1","06,0000,9,1",,,,,,"00,1,+99999,9,99,9",,,"00,99,1,00,1,00,1,99999,9,00,1,00,1",,"01,9","999,-0700,9","999,M,+0290,1","120,N,+0180,1","99999,9,10149,1","7,1,006,1,-008,1",,,"SYN094AAXX  18121 76458 32958 03401 10190 20172 30149 40153 57006 91148 333 10290 20180 30170 59008;","Q01  00002PRCP06"
"76458099999","2004-11-18T15:00:00","4","23.2","-106.4166666","4.0","COLONIA JUAN CARRASCO MAZATLAN SIN., MX","FM-12","99999","V020","360,1,N,0020,1","02400,1,9,N","016000,1,N,1","+0203,1","+0166,1","10164,1","06,0000,9,1",,,,,,"05,1,+02400,9,03,9",,,"06,99,1,05,1,00,1,99999,9,03,1,04,1",,"01,9",,,,"99999,9,10160,1","2,1,011,1,-009,1",,,"SYN106AAXX  18151 76458 32966 63602 10203 20166 30160 40164 52011 85034 91448 333 0//00 30/// 59009 85358 81070;","Q01  00002PRCP06"
"76458099999","2004-11-18T18:00:00","4","23.2","-106.4166666","4.0","COLONIA JUAN CARRASCO MAZATLAN SIN., MX","FM-12","99999","V020","250,1,N,0020,1","06000,1,9,N","020000,1,N,1","+0253,1","+0182,1","10165,1","06,0000,9,1",,,,,,"05,1,+06000,9,02,9",,,"05,99,1,05,1,00,1,99999,9,06,1,99,9",,"01,9",,"120,M,+0283,1","240,N,+0174,1","99999,9,10160,1","0,1,000,1,-013,1",,,"SYN112AAXX  18181 76458 32970 52502 10253 20182 30160 40165 50000 85060 91750 333 0//0/ 10283 20174 30/// 59013 85270;","Q01+000002SCOHCGQ02  00002PRCP06"
"76458099999","2004-11-18T21:00:00","4","23.2","-106.4166666","4.0","COLONIA JUAN CARRASCO MAZATLAN SIN., MX","FM-12","99999","V020","270,1,N,0030,1","05400,1,9,N","020000,1,N,1","+0259,1","+0177,1","10144,1","06,0000,9,1",,,,,,"06,1,+05400,9,02,9",,,"06,99,1,00,1,00,1,99999,9,00,1,08,1",,"01,9",,,,"99999,9,10140,1","7,1,020,1,-015,1",,,"SYN100AAXX  18211 76458 32970 62703 10259 20177 30140 40144 57020 80008 92047 333 30/// 56//9 59015 86268;","Q01  00002PRCP06"
"76458099999","2004-11-19T03:00:00","4","23.2","-106.4166666","4.0","COLONIA JUAN CARRASCO MAZATLAN SIN., MX","FM-12","99999","V020","330,1,N,0020,1","22000,1,9,N","008000,1,N,1","+0236,1","+0198,1","10156,1","06,0000,9,1",,,,,,"01,1,+06000,9,00,9",,,"01,99,1,00,1,99,9,99999,9,99,9,02,1",,"01,9",,,,"99999,9,10141,1","2,1,009,1,+016,1",,,"SYN094AAXX  19031 76458 32958 13302 10236 20198 30141 40156 52009 80//2 90230 333 30/// 58016 81070;","Q01  00002PRCP06"
"76458099999","2004-11-19T06:00:00","4","23.2","-106.4166666","4.0","COLONIA JUAN CARRASCO MAZATLAN SIN., MX","FM-12","99999","V020","330,1,N,0020,1","22000,1,9,N","008000,1,N,1","+0212,1","+0189,1","10149,1","06,0000,9,1",,,,,,,,,"01,99,1,00,1,99,9,99999,9,99,9,01,1","0348,9","01,9",,"240,M,+0282,1","240,N,+0174,1","99999,9,10145,1","1,1,004,1,-020,1",,,"SYN118AAXX  19061 76458 32958 13302 10212 20189 30145 40149 51004 80//1 90530 333 10282 20174 30/// 55058 20114 59020 81070;","Q01  00002PRCP06"
"76458099999","2004-11-19T15:00:00","4","23.2","-106.4166666","4.0","COLONIA JUAN CARRASCO MAZATLAN SIN., MX","FM-12","99999","V020","340,1,N,0010,1","22000,1,9,N","016000,1,N,1","+0207,1","+0190,1","10154,1","06,0000,9,1",,,,,,"02,1,+06000,9,02,9",,,"02,99,1,00,1,00,1,99999,9,00,1,02,1",,"01,9",,,,"99999,9,10149,1","1,1,005,1,-011,1",,,"SYN100AAXX  19151 76458 32966 23401 10207 20190 30149 40154 51005 80002 91450 333 0///0 30/// 59011 82270;","Q01  00002PRCP06"
"76458099999","2004-11-19T18:00:00","4","23.2","-106.4166666","4.0","COLONIA JUAN CARRASCO MAZATLAN SIN., MX","FM-12","99999","V020","360,1,N,0020,1","22000,1,9,N","020000,1,N,1","+0257,1","+0222,1","10151,1","06,0000,9,1",,,,,,"00,1,+99999,9,99,9",,,"00,99,1,00,1,00,1,99999,9,00,1,00,1",,"01,9",,"120,M,+0279,1","240,N,+0177,1","99999,9,10147,1","6,1,002,1,-013,1",,,"SYN094AAXX  19181 76458 32970 03602 10257 20222 30147 40151 56002 91748 333 10279 20177 30/// 59013;","Q01  00002PRCP06"
"76458099999","2004-11-19T21:00:00","4","23.2","-106.4166666","4.0","COLONIA JUAN CARRASCO MAZATLAN SIN., MX","FM-12","99999","V020","240,1,N,0030,1","22000,1,9,N","018000,1,N,1","+0264,1","+0180,1","10131,1","06,0000,9,1",,,,,,"01,1,+01050,9,08,9",,,"01,99,1,01,1,01,1,01250,1,00,1,00,1",,"01,9",,,,"99999,9,10127,1","7,1,021,1,-009,1",,,"SYN100AAXX  19211 76458 32668 12403 10264 20180 30127 40131 57021 81100 92045 333 30/// 561// 59009 81835;","Q01  00002PRCP06"
"76458099999","2004-11-20T03:00:00","4","23.2","-106.4166666","4.0","COLONIA JUAN CARRASCO MAZATLAN SIN., MX","FM-12","99999","V020","330,1,N,0010,1","22000,1,9,N","008000,1,N,1","+0234,1","+0184,1","10140,1","06,0000,9,1",,,,,,"01,1,+01800,9,03,9",,,"01,99,1,01,1,99,9,02250,1,03,1,99,9",,"01,9",,,,"99999,9,10135,1","2,1,011,1,-006,1",,,"SYN094AAXX  20031 76458 32858 13301 10234 20184 30135 40140 52011 81/3/ 90235 333 30/// 59006 81356;","Q01  00002PRCP06"
"76458099999","2004-11-20T09:00:00","4","23.2","-106.4166666","4.0","COLONIA JUAN CARRASCO MAZATLAN SIN., MX","FM-12","99999","V020","999,9,C,0000,1","22000,1,9,N","008000,1,N,1","+0206,1","+0179,1","10132,1","06,0000,9,1",,,,,,"01,1,+06600,9,00,9",,,"01,99,1,00,1,00,1,99999,9,00,1,06,1",,"01,9",,,,"99999,9,10127,1","7,1,012,1,-008,1",,,"SYN100AAXX  20091 76458 32958 10000 10206 20179 30127 40132 57012 80006 90848 333 0/00/ 30/// 59008 81072;","Q01  00002PRCP06"
"76458099999","2004-11-20T12:00:00","4","23.2","-106.4166666","4.0","COLONIA JUAN CARRASCO MAZATLAN SIN., MX","FM-12","99999","V020","999,9,C,0000,1","22000,1,9,N","008000,1,N,1","+0210,1","+0180,1","10130,1","06,0000,9,1","24,0000,9,1",,,,,"02,1,+00360,9,06,9",,,"02,99,1,02,1,05,1,00450,1,00,1,00,1",,"01,9",,"999,M,+0286,1","120,N,+0194,1","99999,9,10126,1","4,1,000,1,-008,1",,,"SYN118AAXX  20121 76458 32458 20000 10210 20180 30126 40130 54001 82500 91138 333 0/700 10286 20194 30182 59008 70000 82612;","Q01  00002PRCP06"
"76458099999","2004-11-20T15:00:00","4","23.2","-106.4166666","4.0","COLONIA JUAN CARRASCO MAZATLAN SIN., MX","FM-12","99999","V020","999,9,C,0000,1","09000,1,C,N","012000,1,N,1","+0224,1","+0188,1","10149,1","06,0000,9,1",,,,,,"03,1,+00450,9,06,9","01,1,+00600,9,08,9",,"07,99,1,04,1,02,1,00450,1,00,1,08,1",,"01,9",,,,"99999,9,10144,1","2,1,018,1,+005,1",,,"SYN118AAXX  20151 76458 32462 70000 10224 20188 30144 40149 52018 84208 91448 333 0/5/0 30/// 57867 58005 83615 81820 83270;","Q01  00002PRCP06"
"76458099999","2004-11-20T18:00:00","4","23.2","-106.4166666","4.0","COLONIA JUAN CARRASCO MAZATLAN SIN., MX","FM-12","99999","V020","210,1,N,0020,1","09000,1,C,N","020000,1,N,1","+0258,1","+0187,1","10154,1","06,0000,9,1",,,,,,"01,1,+00750,9,08,9","01,1,+02400,9,03,9",,"05,99,1,01,1,02,1,00800,1,03,1,06,1",,"01,9",,"120,M,+0285,1","240,N,+0193,1","99999,9,10150,1","0,1,006,1,+003,1",,,"SYN130AAXX  20181 76458 32570 52102 10258 20187 30150 40154 50006 81236 91750 333 0/300 10285 20193 30/// 57836 58003 81825 81358 83270;","Q01  00002PRCP06"
"76458099999","2004-11-20T21:00:00","4","23.2","-106.4166666","4.0","COLONIA JUAN CARRASCO MAZATLAN SIN., MX","FM-12","99999","V020","210,1,N,0020,1","06000,1,9,N","020000,1,N,1","+0260,1","+0177,1","10131,1","06,0000,9,1",,,,,,"07,1,+06000,9,00,9",,,"07,99,1,00,1,99,9,99999,9,99,9,06,1",,"01,9",,,,"99999,9,10127,1","7,1,023,1,+000,1",,,"SYN094AAXX  20211 76458 32970 72102 10260 20177 30127 40131 57023 80//6 92040 333 30/// 58000 87070;","Q01  00002PRCP06"
"76458099999","2004-11-21T15:00:00","4","23.2","-106.4166666","4.0","COLONIA JUAN CARRASCO MAZATLAN SIN., MX","FM-12","99999","V020","999,9,C,0000,1","00180,1,9,N","012000,1,N,1","+0206,1","+0191,1","10160,1","06,0000,9,1",,,,"0,1,03,1","0,1,03,1","07,1,+00180,9,06,9",,,"07,99,1,07,1,05,1,00150,1,99,9,99,9",,"01,9",,,,"99999,9,10155,1","2,1,999,9,+011,1","11,1",,"SYN112AAXX  21151 76458 31262 70000 10206 20191 30155 40160 52/// 71100 875// 91440 333 0/4// 30/// 57640 58011 87606;","Q01  00002PRCP06"
"76458099999","2004-11-21T18:00:00","4","23.2","-106.4166666","4.0","COLONIA JUAN CARRASCO MAZATLAN SIN., MX","FM-12","99999","V020","020,1,N,0010,1","02400,1,9,N","012000,1,N,1","+0250,1","+0195,1","10166,1","06,0000,9,1",,,,,,"05,1,+02400,9,04,9",,,"07,99,1,05,1,00,1,02250,1,02,1,06,1",,"01,9",,"120,M,+0263,1","240,N,+0194,1","99999,9,10162,1","0,1,007,1,+012,1",,,"SYN112AAXX  21181 76458 32862 70201 10250 20195 30162 40166 50007 85026 91740 333 10263 20194 30/// 58012 85458 82080;","Q01  00002PRCP06"
"76458099999","2004-11-22T09:00:00","4","23.2","-106.4166666","4.0","COLONIA JUAN CARRASCO MAZATLAN SIN., MX","FM-12","99999","V020","360,1,N,0010,1","22000,1,9,N","008000,1,N,1","+0210,1","+0180,1","10130,1","06,0000,9,1",,,,,,"02,1,+06600,9,00,9",,,"02,99,1,00,1,00,1,99999,9,00,1,06,1",,"01,9",,,,"99999,9,10126,1","7,1,006,1,-004,1",,,"SYN094AAXX  22091 76458 32958 23601 10210 20180 30126 40130 57006 80006 90848 333 30/// 59004 82072;","Q01  00002PRCP06"
"76458099999","2004-11-22T15:00:00","4","23.2","-106.4166666","4.0","COLONIA JUAN CARRASCO MAZATLAN SIN., MX","FM-12","99999","V020","360,1,N,0020,1","99999,9,9,N","018000,1,N,1","+0214,1","+0171,1","10163,1","06,0000,9,1",,,,,,"01,1,+02400,9,03,9",,,"05,99,1,01,1,00,1,99999,9,03,1,06,1",,"01,9",,,,"99999,9,10158,1","2,1,012,1,+003,1",,,"SYN106AAXX  22151 76458 32968 53602 10214 20171 30158 40163 52012 81036 91448 333 0//00 30/// 58003 81358 84270;","Q01  00002PRCP06"
"76458099999","2004-11-22T18:00:00","4","23.2","-106.4166666","4.0","COLONIA JUAN CARRASCO MAZATLAN SIN., MX","FM-12","99999","V020","220,1,N,0020,1","22000,1,9,N","020000,1,N,1","+0268,1","+0169,1","10163,1","06,0000,9,1",,,,,,"02,1,+02400,9,03,9",,,"04,99,1,02,1,00,1,99999,9,03,1,05,1",,"01,9",,"120,M,+0292,1","240,N,+0187,1","99999,9,10159,1","0,1,001,1,-003,1",,,"SYN118AAXX  22181 76458 32970 42202 10268 20169 30159 40163 50001 82035 91750 333 0//00 10292 20187 30/// 59003 82358 82270;","Q01  00002PRCP06"
"76458099999","2004-11-22T21:00:00","4","23.2","-106.4166666","4.0","COLONIA JUAN CARRASCO MAZATLAN SIN., MX","FM-12","99999","V020","240,1,N,0030,1","09000,1,C,N","020000,1,N,1","+0267,1","+0184,1","10140,1","06,0000,9,1",,,,,,"01,1,+00690,9,08,9","02,1,+02400,9,03,9",,"05,99,1,01,1,02,1,01250,1,05,1,06,1",,"01,9",,,,"99999,9,10136,1","7,1,023,1,+999,9",,,"SYN118AAXX  22211 76458 32670 52403 10267 20184 30136 40140 57023 81256 92050 333 0/100 30/// 57816 58/// 81823 82358 82270;","Q01  00002PRCP06"
"76458099999","2004-11-23T03:00:00","4","23.2","-106.4166666","4.0","COLONIA JUAN CARRASCO MAZATLAN SIN., MX","FM-12","99999","V020","270,1,N,0010,1","22000,1,9,N","008000,1,N,1","+0244,1","+0182,1","10142,1","06,0000,9,1",,,,,,"02,1,+06000,9,00,9",,,"03,99,1,00,1,99,9,99999,9,99,9,06,1",,"01,9",,,,"99999,9,10137,1","2,1,012,1,+999,9",,,"SYN100AAXX  23031 76458 32958 32701 10244 20182 30137 40142 52012 80//6 90240 333 30/// 58/// 82070 81170;","Q01  00002PRCP06"
"76458099999","2004-11-23T09:00:00","4","23.2","-106.4166666","4.0","COLONIA JUAN CARRASCO MAZATLAN SIN., MX","FM-12","99999","V020","999,9,C,0000,1","22000,1,9,N","008000,1,N,1","+0210,1","+0191,1","10140,1","06,0000,9,1",,,,,,"00,1,+99999,9,99,9",,,"00,99,1,00,1,00,1,99999,9,00,1,00,1",,"01,9",,,,"99999,9,10136,1","7,1,003,1,-014,1",,,"SYN082AAXX  23091 76458 32958 00000 10210 20191 30136 40140 57003 90855 333 30/// 59014;","Q01  00002PRCP06"
"76458099999","2004-11-23T12:00:00","4","23.2","-106.4166666","4.0","COLONIA JUAN CARRASCO MAZATLAN SIN., MX","FM-12","99999","V020","999,9,C,0000,1","22000,1,9,N","008000,1,N,1","+0201,1","+0185,1","10129,1","06,0000,9,1","24,0000,9,1",,,,,"00,1,+99999,9,99,9",,,"00,99,1,00,1,00,1,99999,9,00,1,00,1",,"01,9",,"999,M,+0297,1","120,N,+0188,1","99999,9,10124,1","7,1,012,1,-022,1",,,"SYN100AAXX  23121 76458 32958 00000 10201 20185 30124 40129 57012 91132 333 10297 20188 30174 59022 70000;","Q01  00002PRCP06Q02  00002PRCP24"
"76458099999","2004-11-23T18:00:00","4","23.2","-106.4166666","4.0","COLONIA JUAN CARRASCO MAZATLAN SIN., MX","FM-12","99999","V020","250,1,N,0030,1","22000,1,9,N","020000,1,N,1","+0267,1","+0197,1","10149,1","06,0000,9,1",,,,,,"01,1,+00660,9,08,9",,,"03,99,1,01,1,02,1,00800,1,05,1,00,1",,"01,9",,"120,M,+0287,1","240,N,+0191,1","99999,9,10145,1","2,1,006,1,-014,1",,,"SYN124AAXX  23181 76458 32570 32503 10267 20197 30145 40149 52006 81250 91748 333 0/50/ 10287 20191 30/// 57857 59014 81822 82358;","Q01  00002PRCP06"
"76458099999","2004-11-23T21:00:00","4","23.2","-106.4166666","4.0","COLONIA JUAN CARRASCO MAZATLAN SIN., MX","FM-12","99999","V020","270,1,N,0030,1","22000,1,9,N","020000,1,N,1","+0261,1","+0186,1","10124,1","06,0000,9,1",,,,,,"02,1,+00660,9,08,9",,,"03,99,1,02,1,02,1,00800,1,05,1,00,1",,"01,9",,,,"99999,9,10120,1","7,1,025,1,-016,1",,,"SYN112AAXX  23211 76458 32570 32703 10261 20186 30120 40124 57025 82250 92045 333 0050/ 30/// 57857 59016 82822 81358;","Q01  00002PRCP06"
"76458099999","2004-11-24T00:00:00","4","23.2","-106.4166666","4.0","COLONIA JUAN CARRASCO MAZATLAN SIN., MX","FM-12","99999","V020","290,1,N,0040,1","22000,1,9,N","020000,1,N,1","+0259,1","+0155,1","10118,1","06,0000,9,1","24,0000,9,1",,,,,"01,1,+00660,9,08,9",,,"03,99,1,01,1,02,1,01250,1,05,1,00,1",,"01,9",,"120,M,+0285,1","180,N,+0191,1","99999,9,10113,1","6,1,007,1,-012,1",,,"SYN136AAXX  24001 76458 32670 32904 10259 20155 30113 40118 56007 81250 92350 333 0/10/ 10285 20191 30/// 50361 57816 59012 70000 81822 82358;","Q01  00002PRCP06"
"76458099999","2004-11-24T03:00:00","4","23.2","-106.4166666","4.0","COLONIA JUAN CARRASCO MAZATLAN SIN., MX","FM-12","99999","V020","320,1,N,0020,1","22000,1,9,N","010000,1,N,1","+0229,1","+0146,1","10133,1","06,0000,9,1",,,,,,"02,1,+03600,9,03,9",,,"02,99,1,02,1,00,1,02250,1,03,1,00,1",,"01,9",,,,"99999,9,10129,1","2,1,016,1,-008,1",,,"SYN100AAXX  24031 76458 32860 23202 10229 20146 30129 40133 52016 82030 90245 333 30/// 56/3/ 59008 82362;","Q01  00002PRCP06"
"76458099999","2004-11-24T06:00:00","4","23.2","-106.4166666","4.0","COLONIA JUAN CARRASCO MAZATLAN SIN., MX","FM-12","99999","V020","320,1,N,0030,1","22000,1,9,N","010000,1,N,1","+0204,1","+0134,1","10145,1","06,0000,9,1",,,,,,,,,"02,99,1,02,1,00,1,02250,1,03,1,00,1","0498,9","01,9",,"240,M,+0285,1","240,N,+0191,1","99999,9,10141,1","2,1,012,1,-002,1",,,"SYN124AAXX  24061 76458 32860 23203 10204 20134 30141 40145 52012 82030 90545 333 10285 20191 30/// 55083 20944 56/3/ 59002 82362;","Q01  00002PRCP06"
"76458099999","2004-11-24T09:00:00","4","23.2","-106.4166666","4.0","COLONIA JUAN CARRASCO MAZATLAN SIN., MX","FM-12","99999","V020","320,1,N,0020,1","22000,1,9,N","010000,1,N,1","+0190,1","+0151,1","10137,1","06,0000,9,1",,,,,,"00,1,+99999,9,99,9",,,"00,99,1,00,1,00,1,99999,9,00,1,00,1",,"01,9",,,,"99999,9,10132,1","7,1,009,1,-001,1",,,"SYN082AAXX  24091 76458 32960 03202 10190 20151 30132 40137 57009 90848 333 30/// 59001;","Q01  00002PRCP06"
"76458099999","2004-11-24T12:00:00","4","23.2","-106.4166666","4.0","COLONIA JUAN CARRASCO MAZATLAN SIN., MX","FM-12","99999","V020","230,1,N,0040,1","22000,1,9,N","010000,1,N,1","+0174,1","+0135,1","10132,1","06,0000,9,1","24,0000,9,1",,,,,"00,1,+99999,9,99,9",,,"00,99,1,00,1,00,1,99999,9,00,1,00,1",,"01,9","999,-0620,9","999,M,+0296,1","120,N,+0170,1","99999,9,10128,1","7,1,004,1,-002,1",,,"SYN100AAXX  24121 76458 32960 02304 10174 20135 30128 40132 57004 91148 333 10296 20170 30162 59002 70000;","Q01  00002PRCP06Q02  00002PRCP24"
"76458099999","2004-11-24T15:00:00","4","23.2","-106.4166666","4.0","COLONIA JUAN CARRASCO MAZATLAN SIN., MX","FM-12","99999","V020","330,1,N,0020,1","22000,1,9,N","018000,1,N,1","+0196,1","+0142,1","10147,1","06,0000,9,1",,,,,,"01,1,+06000,9,00,9",,,"01,99,1,00,1,00,1,99999,9,00,1,05,1",,"01,9",,,,"99999,9,10142,1","9,9,999,9,+002,1",,,"SYN100AAXX  24151 76458 32968 13302 10196 20142 30142 40147 5//// 80005 91450 333 0///0 30/// 58002 81070;","Q01  00002PRCP06"
"76458099999","2004-11-24T18:00:00","4","23.2","-106.4166666","4.0","COLONIA JUAN CARRASCO MAZATLAN SIN., MX","FM-12","99999","V020","250,1,N,0030,1","22000,1,9,N","020000,1,N,1","+0246,1","+0153,1","10147,1","06,0000,9,1",,,,,,"01,1,+06000,9,00,9",,,"01,99,1,00,1,00,1,99999,9,00,1,05,1",,"01,9",,"120,M,+0275,1","240,N,+0162,1","99999,9,10143,1","0,1,001,1,-003,1",,,"SYN112AAXX  24181 76458 32970 12503 10246 20153 30143 40147 50001 80005 91748 333 0///0 10275 20162 30/// 59003 81070;","Q01  00002PRCP06"
"76458099999","2004-11-24T21:00:00","4","23.2","-106.4166666","4.0","COLONIA JUAN CARRASCO MAZATLAN SIN., MX","FM-12","99999","V020","280,1,N,0030,1","05400,1,9,N","020000,1,N,1","+0253,1","+0161,1","10127,1","06,0000,9,1",,,,,,"05,1,+05400,9,02,9",,,"05,99,1,00,1,00,1,99999,9,00,1,08,1",,"01,9",,,,"99999,9,10122,1","7,1,020,1,+002,1",,,"SYN100AAXX  24211 76458 32970 52803 10253 20161 30122 40127 57020 80008 92047 333 30/// 56//9 58002 85268;","Q01  00002PRCP06"
"76458099999","2004-11-25T00:00:00","4","23.2","-106.4166666","4.0","COLONIA JUAN CARRASCO MAZATLAN SIN., MX","FM-12","99999","V020","310,1,N,0030,1","99999,9,9,N","020000,1,N,1","+0244,1","+0171,1","10126,1","06,0000,9,1","24,0000,9,1",,,,,,,,"05,99,1,00,1,00,1,99999,9,00,1,08,1",,"01,9",,"120,M,+0275,1","180,N,+0162,1","99999,9,10122,1","0,1,000,1,+009,1",,,"SYN124AAXX  25001 76458 32970 53103 10244 20171 30122 40126 50000 80008 92345 333 10275 20162 30/// 50431 56//9 58009 70000 85268;","Q01  00002PRCP06"
"76458099999","2004-11-25T03:00:00","4","23.2","-106.4166666","4.0","COLONIA JUAN CARRASCO MAZATLAN SIN., MX","FM-12","99999","V020","330,1,N,0020,1","22000,1,9,N","008000,1,N,1","+0220,1","+0175,1","10137,1","06,0000,9,1",,,,,,"00,1,+99999,9,99,9",,,"00,99,1,00,1,00,1,99999,9,00,1,00,1",,"01,9",,,,"99999,9,10133,1","2,1,011,1,+004,1",,,"SYN082AAXX  25031 76458 32958 03302 10220 20175 30133 40137 52011 90535 333 30/// 58004;","Q01  00002PRCP06"
"76458099999","2004-11-25T12:00:00","4","23.2","-106.4166666","4.0","COLONIA JUAN CARRASCO MAZATLAN SIN., MX","FM-12","99999","V020","340,1,N,0010,1","22000,1,9,N","008000,1,N,1","+0180,1","+0164,1","10142,1","06,0000,9,1","24,0000,9,1",,,,,,,,"03,99,1,99,9,99,9,99999,9,99,9,99,9",,"01,9","999,-0640,9","999,M,+0275,1","120,N,+0170,1","99999,9,10137,1","7,1,004,1,+009,1",,,"SYN100AAXX  25121 76458 32958 33401 10180 20164 30137 40142 57004 91135 333 10275 20170 30164 58009 70000;","Q01  00002PRCP06Q02  00002PRCP24"
"76458099999","2004-11-25T15:00:00","4","23.2","-106.4166666","4.0","COLONIA JUAN CARRASCO MAZATLAN SIN., MX","FM-12","99999","V020","999,9,C,0000,1","06000,1,9,N","018000,1,N,1","+0196,1","+0165,1","10158,1","06,0000,9,1",,,,,,"05,1,+06000,9,00,9",,,"05,99,1,00,1,00,1,99999,9,00,1,01,1",,"01,9",,,,"99999,9,10154,1","2,1,017,1,+012,1",,,"SYN100AAXX  25151 76458 32968 50000 10196 20165 30154 40158 52017 80001 91445 333 0///9 30/// 58012 85070;","Q01  00002PRCP06"
"76458099999","2004-11-25T18:00:00","4","23.2","-106.4166666","4.0","COLONIA JUAN CARRASCO MAZATLAN SIN., MX","FM-12","99999","V020","210,1,N,0020,1","22000,1,9,N","018000,1,N,1","+0254,1","+0176,1","10163,1","06,0000,9,1",,,,,,"04,1,+05400,9,02,9",,,"04,99,1,00,1,00,1,99999,9,00,1,08,1",,"01,9",,"120,M,+0274,1","240,N,+0164,1","99999,9,10158,1","0,1,004,1,+016,1",,,"SYN112AAXX  25181 76458 32968 42102 10254 20176 30158 40163 50004 80008 91745 333 10274 20164 30/// 56//9 58016 84268;","Q01  00002PRCP06"
"76458099999","2004-11-26T03:00:00","4","23.2","-106.4166666","4.0","COLONIA JUAN CARRASCO MAZATLAN SIN., MX","FM-12","99999","V020","999,9,C,0000,1","22000,1,9,N","008000,1,N,1","+0222,1","+0171,1","10140,1","06,0000,9,1",,,,,,"03,1,+01800,9,08,9",,,"03,99,1,03,1,99,9,02250,1,03,1,99,9",,"01,9",,,,"99999,9,10135,1","2,1,015,1,+003,1",,,"SYN094AAXX  26031 76458 32858 30000 10222 20171 30135 40140 52015 83/3/ 90240 333 30/// 58003 83856;","Q01  00002PRCP06"
"76458099999","2004-11-26T06:00:00","4","23.2","-106.4166666","4.0","COLONIA JUAN CARRASCO MAZATLAN SIN., MX","FM-12","99999","V020","999,9,C,0000,1","22000,1,9,N","008000,1,N,1","+0204,1","+0174,1","10151,1","06,0000,9,1",,,,,,,,,"03,99,1,03,1,99,9,99999,9,03,1,99,9","0438,9","01,9",,"240,M,+0280,1","240,N,+0164,1","99999,9,10147,1","2,1,011,1,+001,1",,,"SYN118AAXX  26061 76458 32958 30000 10204 20174 30147 40151 52011 83/3/ 90530 333 10280 20164 30/// 55073 21060 58001 83356;","Q01  00002PRCP06"
"76458099999","2004-11-26T12:00:00","4","23.2","-106.4166666","4.0","COLONIA JUAN CARRASCO MAZATLAN SIN., MX","FM-12","99999","V020","999,9,C,0000,1","22000,1,9,N","008000,1,N,1","+0178,1","+0161,1","10136,1","06,0000,9,1","24,0000,9,1",,,,,"01,1,+06600,9,00,9",,,"01,99,1,00,1,99,9,99999,9,00,1,06,1",,"01,9","999,-0500,9","999,M,+0280,1","120,N,+0162,1","99999,9,10132,1","7,1,006,1,+002,1",,,"SYN118AAXX  26121 76458 32958 10000 10178 20161 30132 40136 57006 80106 91138 333 0/00/ 10280 20162 30150 58002 70000 81072;","Q01+000012SCOLCGQ02  00002PRCP06"
"76458099999","2004-11-26T15:00:00","4","23.2","-106.4166666","4.0","COLONIA JUAN CARRASCO MAZATLAN SIN., MX","FM-12","99999","V020","999,9,C,0000,1","22000,1,9,N","016000,1,N,1","+0198,1","+0161,1","10162,1","06,0000,9,1",,,,,,"01,1,+05400,9,00,9",,,"01,99,1,00,1,00,1,99999,9,00,1,01,1",,"01,9",,,,"99999,9,10157,1","2,1,017,1,+004,1",,,"SYN100AAXX  26151 76458 32966 10000 10198 20161 30157 40162 52017 80001 91445 333 30/// 56//9 58004 81068;","Q01  00002PRCP06"
"76458099999","2004-11-26T18:00:00","4","23.2","-106.4166666","4.0","COLONIA JUAN CARRASCO MAZATLAN SIN., MX","FM-12","99999","V020","270,1,N,0020,1","22000,1,9,N","020000,1,N,1","+0253,1","+0177,1","10163,1","06,0000,9,1",,,,,,"01,1,+06000,9,00,9",,,"01,99,1,00,1,00,1,99999,9,00,1,01,1",,"01,9",,"120,M,+0278,1","240,N,+0137,1","99999,9,10158,1","0,1,001,1,+000,1",,,"SYN112AAXX  26181 76458 32970 12702 10253 20177 30158 40163 50001 80001 91745 333 10278 20137 30/// 56//9 58000 81070;","Q01  00002PRCP06"
"76458099999","2004-11-26T21:00:00","4","23.2","-106.4166666","4.0","COLONIA JUAN CARRASCO MAZATLAN SIN., MX","FM-12","99999","V020","250,1,N,0030,1","22000,1,9,N","020000,1,N,1","+0256,1","+0176,1","10140,1","06,0000,9,1",,,,,,"03,1,+06000,9,02,9",,,"03,99,1,00,1,00,1,99999,9,00,1,06,1",,"01,9",,,,"99999,9,10136,1","7,1,022,1,+005,1",,,"SYN100AAXX  26211 76458 32970 32503 10256 20176 30136 40140 57022 83006 92050 333 0///0 30/// 58005 83270;","Q01+000032SCOTLCQ02  00002PRCP06"
"76458099999","2004-11-27T03:00:00","4","23.2","-106.4166666","4.0","COLONIA JUAN CARRASCO MAZATLAN SIN., MX","FM-12","99999","V020","340,1,N,0020,1","22000,1,9,N","008000,1,N,1","+0224,1","+0189,1","10146,1","06,0000,9,1",,,,,,"00,1,+99999,9,99,9",,,"00,99,1,00,1,00,1,99999,9,00,1,00,1",,"01,9",,,,"99999,9,10142,1","2,1,020,1,+005,1",,,"SYN082AAXX  27031 76458 32958 03402 10224 20189 30142 40146 52020 90235 333 30/// 58005;","Q01  00002PRCP06"
"76458099999","2004-11-27T12:00:00","4","23.2","-106.4166666","4.0","COLONIA JUAN CARRASCO MAZATLAN SIN., MX","FM-12","99999","V020","340,1,N,0010,1","22000,1,9,N","008000,1,N,1","+0180,1","+0145,1","10146,1","06,0000,9,1","24,0000,9,1",,,,,"00,1,+99999,9,99,9",,,"00,99,1,00,1,00,1,99999,9,00,1,00,1",,"01,9","999,-0620,9","999,M,+0283,1","120,N,+0170,1","99999,9,10141,1","2,1,006,1,+001,1",,,"SYN100AAXX  27121 76458 32958 03401 10180 20145 30141 40146 52006 91145 333 10283 20170 30162 58001 70000;","Q01  00002PRCP06Q02  00002PRCP24"
"76458099999","2004-11-27T15:00:00","4","23.2","-106.4166666","4.0","COLONIA JUAN CARRASCO MAZATLAN SIN., MX","FM-12","99999","V020","999,9,C,0000,1","22000,1,9,N","020000,1,N,1","+0206,1","+0144,1","10143,1","06,0000,9,1",,,,,,"02,1,+06000,9,00,9",,,"02,99,1,00,1,00,1,99999,9,00,1,02,1",,"01,9",,,,"99999,9,10138,1","9,9,999,9,-020,1",,,"SYN100AAXX  27151 76458 32970 20000 10206 20144 30138 40143 5//// 80002 91448 333 0///0 30/// 59020 82070;","Q01  00002PRCP06"
"76458099999","2004-11-27T21:00:00","4","23.2","-106.4166666","4.0","COLONIA JUAN CARRASCO MAZATLAN SIN., MX","FM-12","99999","V020","270,1,N,0020,1","22000,1,9,N","020000,1,N,1","+0266,1","+0149,1","10115,1","06,0000,9,1",,,,,,"01,1,+05400,9,00,9",,,"01,99,1,00,1,00,1,99999,9,00,1,06,1",,"01,9",,,,"99999,9,10110,1","7,1,026,1,-026,1",,,"SYN100AAXX  27211 76458 32970 12702 10266 20149 30110 40115 57026 80006 92045 333 30/// 56//9 59026 81068;","Q01  00002PRCP06"
"76458099999","2004-11-28T06:00:00","4","23.2","-106.4166666","4.0","COLONIA JUAN CARRASCO MAZATLAN SIN., MX","FM-12","99999","V020","330,1,N,0010,1","22000,1,9,N","008000,1,N,1","+0204,1","+0158,1","10122,1","06,0000,9,1",,,,,,"00,1,+99999,9,99,9",,,"00,99,1,00,1,00,1,99999,9,00,1,00,1","0540,9","01,9",,"240,M,+0283,1","240,N,+0180,1","99999,9,10117,1","1,1,005,1,+999,9",,,"SYN106AAXX  28061 76458 32958 03301 10204 20158 30117 40122 51005 90530 333 10283 20180 30/// 55090 20534 59032;","Q01  00002PRCP06"
"76458099999","2004-11-28T15:00:00","4","23.2","-106.4166666","4.0","COLONIA JUAN CARRASCO MAZATLAN SIN., MX","FM-12","99999","V020","360,1,N,0010,1","22000,1,9,N","020000,1,N,1","+0200,1","+0128,1","10118,1","06,0000,9,1",,,,,,"00,1,+99999,9,99,9",,,"00,99,1,00,1,00,1,99999,9,00,1,00,1",,"01,9",,,,"99999,9,10113,1","2,1,999,9,-025,1",,,"SYN082AAXX  28151 76458 32970 03601 10200 20128 30113 40118 52/// 91445 333 30/// 59025;","Q01  00002PRCP06"
"76458099999","2004-11-28T18:00:00","4","23.2","-106.4166666","4.0","COLONIA JUAN CARRASCO MAZATLAN SIN., MX","FM-12","99999","V020","210,1,N,0010,1","22000,1,9,N","020000,1,N,1","+0260,1","+0146,1","10132,1","06,0000,9,1",,,,,,"00,1,+99999,9,99,9",,,"00,99,1,00,1,00,1,99999,9,00,1,00,1",,"01,9",,"120,M,+0285,1","240,N,+0158,1","99999,9,10127,1","2,1,014,1,-011,1",,,"SYN094AAXX  28181 76458 32970 02101 10260 20146 30127 40132 52014 91740 333 10285 20158 30/// 59011;","Q01  00002PRCP06"
"76458099999","2004-11-28T21:00:00","4","23.2","-106.4166666","4.0","COLONIA JUAN CARRASCO MAZATLAN SIN., MX","FM-12","99999","V020","220,1,N,0020,1","22000,1,9,N","020000,1,N,1","+0262,1","+0181,1","10122,1","06,0000,9,1",,,,,,"00,1,+99999,9,99,9",,,"00,99,1,00,1,00,1,99999,9,00,1,00,1",,"01,9",,,,"99999,9,10117,1","6,1,010,1,+007,1",,,"SYN082AAXX  28211 76458 32970 02202 10262 20181 30117 40122 56010 92046 333 30/// 58007;","Q01  00002PRCP06"
"76458099999","2004-11-29T09:00:00","4","23.2","-106.4166666","4.0","COLONIA JUAN CARRASCO MAZATLAN SIN., MX","FM-12","99999","V020","320,1,N,0010,1","22000,1,9,N","008000,1,N,1","+0188,1","+0150,1","10119,1","06,0000,9,1",,,,,,"00,1,+99999,9,99,9",,,"00,99,1,00,1,00,1,99999,9,00,1,00,1",,"01,9",,,,"99999,9,10114,1","4,1,000,1,+999,9",,,"SYN082AAXX  29091 76458 32958 03201 10188 20150 30114 40119 54000 90852 333 30/// 58///;","Q01  00002PRCP06"
"76458099999","2004-11-29T12:00:00","4","23.2","-106.4166666","4.0","COLONIA JUAN CARRASCO MAZATLAN SIN., MX","FM-12","99999","V020","999,9,C,0000,1","22000,1,9,N","008000,1,N,1","+0178,1","+0162,1","10126,1","06,0000,9,1","24,0000,9,1",,,,,"00,1,+99999,9,99,9",,,"00,99,1,00,1,00,1,99999,9,00,1,00,1",,"01,9","999,-0610,9","999,M,+0289,1","120,N,+0170,1","99999,9,10121,1","4,1,000,1,+999,9",,,"SYN100AAXX  29121 76458 32958 00000 10178 20162 30121 40126 54000 91138 333 10289 20170 30161 58/// 70000;","Q01  00002PRCP06Q02  00002PRCP24"
"76458099999","2004-11-29T15:00:00","4","23.2","-106.4166666","4.0","COLONIA JUAN CARRASCO MAZATLAN SIN., MX","FM-12","99999","V020","330,1,N,0010,1","22000,1,9,N","018000,1,N,1","+0208,1","+0168,1","10142,1","06,0000,9,1",,,,,,"01,1,+02400,9,03,9",,,"01,99,1,01,1,00,1,99999,9,03,1,00,1",,"01,9",,,,"99999,9,10137,1","2,1,016,1,+024,1",,,"SYN100AAXX  29151 76458 32968 13301 10208 20168 30137 40142 52016 81030 91448 333 0//0/ 30/// 58024 81358;","Q01  00002PRCP06"
"76458099999","2004-11-29T21:00:00","4","23.2","-106.4166666","4.0","COLONIA JUAN CARRASCO MAZATLAN SIN., MX","FM-12","99999","V020","240,1,N,0030,1","22000,1,9,N","020000,1,N,1","+0263,1","+0177,1","10129,1","06,0000,9,1",,,,,,"01,1,+02400,9,03,9",,,"01,99,1,01,1,00,1,99999,9,03,1,00,1",,"01,9",,,,"99999,9,10125,1","7,1,019,1,+008,1",,,"SYN100AAXX  29211 76458 32970 12403 10263 20177 30125 40129 57019 81030 92050 333 0//3/ 30/// 58008 81358;","Q01  00002PRCP06"
"76458099999","2004-11-30T03:00:00","4","23.2","-106.4166666","4.0","COLONIA JUAN CARRASCO MAZATLAN SIN., MX","FM-12","99999","V020","310,1,N,0050,1","22000,1,9,N","008000,1,N,1","+0234,1","+0194,1","10140,1","06,0000,9,1",,,,,,"00,1,+99999,9,99,9",,,"00,99,1,00,1,00,1,99999,9,00,1,00,1",,"01,9",,,,"99999,9,10135,1","2,1,016,1,+999,9",,,"SYN082AAXX  30031 76458 32958 03105 10234 20194 30135 40140 52016 90235 333 30/// 58///;","Q01  00002PRCP06"
"76458099999","2004-11-30T06:00:00","4","23.2","-106.4166666","4.0","COLONIA JUAN CARRASCO MAZATLAN SIN., MX","FM-12","99999","V020","320,1,N,0050,1","22000,1,9,N","008000,1,N,1","+0214,1","+0156,1","10145,1","06,0000,9,1",,,,,,"00,1,+99999,9,99,9",,,"00,99,1,00,1,00,1,99999,9,00,1,00,1","0528,9","01,9",,"240,M,+0288,1","240,N,+0163,1","99999,9,10141,1","1,1,006,1,+999,9",,,"SYN106AAXX  30061 76458 32958 03205 10214 20156 30141 40145 51006 90530 333 10288 20163 30/// 55088 20379 58///;","Q01  00002PRCP06"
"76458099999","2004-11-30T09:00:00","4","23.2","-106.4166666","4.0","COLONIA JUAN CARRASCO MAZATLAN SIN., MX","FM-12","99999","V020","330,1,N,0010,1","22000,1,9,N","008000,1,N,1","+0192,1","+0132,1","10140,1","06,0000,9,1",,,,,,"00,1,+99999,9,99,9",,,"00,99,1,00,1,00,1,99999,9,00,1,00,1",,"01,9",,,,"99999,9,10135,1","7,1,005,1,+014,1",,,"SYN082AAXX  30091 76458 32958 03301 10192 20132 30135 40140 57005 90842 333 30/// 58014;","Q01  00002PRCP06"
"76458099999","2004-11-30T12:00:00","4","23.2","-106.4166666","4.0","COLONIA JUAN CARRASCO MAZATLAN SIN., MX","FM-12","99999","V020","330,1,N,0020,1","22000,1,9,N","008000,1,N,1","+0178,1","+0130,1","10131,1","06,0000,9,1","24,0000,9,1",,,,,"00,1,+99999,9,99,9",,,"00,99,1,00,1,00,1,99999,9,00,1,00,1",,"01,9","999,-0620,9","999,M,+0288,1","120,N,+0170,1","99999,9,10127,1","7,1,006,1,+007,1",,,"SYN100AAXX  30121 76458 32958 03302 10178 20130 30127 40131 57006 91145 333 10288 20170 30162 58007 70000;","Q01  00002PRCP06Q02  00002PRCP24"
"76458099999","2004-11-30T15:00:00","4","23.2","-106.4166666","4.0","COLONIA JUAN CARRASCO MAZATLAN SIN., MX","FM-12","99999","V020","320,1,N,0030,1","22000,1,9,N","020000,1,N,1","+0186,1","+0130,1","10148,1","06,0000,9,1",,,,,,"01,1,+06000,9,00,9",,,"01,99,1,00,1,00,1,99999,9,00,1,05,1",,"01,9",,,,"99999,9,10143,1","1,1,016,1,+006,1",,,"SYN100AAXX  30151 76458 32970 13203 10186 20130 30143 40148 51016 80005 91448 333 0///0 30/// 58006 81070;","Q01  00002PRCP06"
"76458099999","2004-11-30T18:00:00","4","23.2","-106.4166666","4.0","COLONIA JUAN CARRASCO MAZATLAN SIN., MX","FM-12","99999","V020","280,1,N,0030,1","22000,1,9,N","022000,1,N,1","+0230,1","+0149,1","10152,1","06,0000,9,1",,,,,,"01,1,+06000,9,00,9",,,"01,99,1,00,1,00,1,99999,9,00,1,05,1",,"01,9",,"120,M,+0248,1","240,N,+0157,1","99999,9,10147,1","1,1,003,1,+002,1",,,"SYN119AAXX  30181 76458 32972 12803 10230 20149 30147 40152 51003 80005 91748 333 0///0 10248 20157 30/// 58002 81070/ 76556;","Q01  00002PRCP06"
"76458099999","2004-11-30T21:00:00","4","23.2","-106.4166666","4.0","COLONIA JUAN CARRASCO MAZATLAN SIN., MX","FM-12","99999","V020","280,1,N,0040,1","22000,1,9,N","023000,1,N,1","+0242,1","+0165,1","10131,1","06,0000,9,1",,,,,,"01,1,+06000,9,00,9",,,"01,99,1,00,1,00,1,99999,9,00,1,03,1",,"01,9",,,,"99999,9,10127,1","7,1,020,1,-010,1",,,"SYN100AAXX  30211 76458 32973 12804 10242 20165 30127 40131 57020 81003 92045 333 0///0 30/// 59010 81070;","Q01+000012SCOTLCQ02  00002PRCP06"
"76458099999","2004-12-01T03:00:00","4","23.2","-106.4166666","4.0","COLONIA JUAN CARRASCO MAZATLAN SIN., MX","FM-12","99999","V020","310,1,N,0040,1","22000,1,9,N","010000,1,N,1","+0217,1","+0166,1","10143,1","06,0000,9,1",,,,,,"00,1,+99999,9,99,9",,,"00,99,1,00,1,00,1,99999,9,00,1,00,1",,"01,9",,,,"99999,9,10138,1","2,1,012,1,+003,1",,,"SYN082AAXX  01031 76458 32960 03104 10217 20166 30138 40143 52012 90247 333 30/// 58003;","Q01  00002PRCP06"
"76458099999","2004-12-01T06:00:00","4","23.2","-106.4166666","4.0","COLONIA JUAN CARRASCO MAZATLAN SIN., MX","FM-12","99999","V020","310,1,N,0030,1","22000,1,9,N","010000,1,N,1","+0199,1","+0132,1","10147,1","06,0000,9,1",,,,,,,,,"03,99,1,03,1,00,1,02250,1,03,1,00,1","0534,9","01,9",,"240,M,+0265,1","240,N,+0157,1","99999,9,10142,1","2,1,004,1,+001,1",,,"SYN118AAXX  01061 76458 32860 33103 10199 20132 30142 40147 52004 83030 90540 333 10265 20157 30/// 55089 56/9/ 58001 83362;","Q01  00002PRCP06"
"76458099999","2004-12-01T12:00:00","4","23.2","-106.4166666","4.0","COLONIA JUAN CARRASCO MAZATLAN SIN., MX","FM-12","99999","V020","999,9,C,0000,1","22000,1,9,N","008000,1,N,1","+0174,1","+0137,1","10133,1","06,0000,9,1","24,0000,9,1",,,,,"02,1,+06600,9,00,9",,,"02,99,1,00,1,00,1,99999,9,00,1,06,1",,"01,9","999,-0540,9","999,M,+0265,1","120,N,+0162,1","99999,9,10128,1","7,1,004,1,+001,1",,,"SYN118AAXX  01121 76458 32958 20000 10174 20137 30128 40133 57004 80006 91158 333 10265 20162 30154 56/// 58001 70000 82072;","Q01  00002PRCP06"
"76458099999","2004-12-01T15:00:00","4","23.2","-106.4166666","4.0","COLONIA JUAN CARRASCO MAZATLAN SIN., MX","FM-12","99999","V020","350,1,N,0010,1","07800,1,9,N","020000,1,N,1","+0185,1","+0152,1","10149,1","06,0000,9,1",,,,,,"06,1,+07800,9,02,9",,,"06,99,1,00,1,00,1,99999,9,00,1,07,1",,"01,9",,,,"99999,9,10144,1","2,1,016,1,-001,1",,,"SYN100AAXX  01151 76458 32970 63501 10185 20152 30144 40149 52016 80007 91450 333 30/// 56009 59001 86276;","Q01  00002PRCP06"
"76458099999","2004-12-01T18:00:00","4","23.2","-106.4166666","4.0","COLONIA JUAN CARRASCO MAZATLAN SIN., MX","FM-12","99999","V020","180,1,N,0020,1","99999,9,9,N","020000,1,N,1","+0247,1","+0184,1","10151,1","06,0000,9,1",,,,,,"01,1,+03300,9,03,9",,,"06,99,1,01,1,00,1,99999,9,03,1,06,1",,"01,9",,"120,M,+0268,1","240,N,+0163,1","99999,9,10146,1","0,1,002,1,+001,1",,,"SYN118AAXX  01181 76458 32970 61802 10247 20184 30146 40151 50002 81036 91750 333 10268 20163 30/// 56099 58001 81361 85276;","Q01  00002PRCP06"
"76458099999","2004-12-01T21:00:00","4","23.2","-106.4166666","4.0","COLONIA JUAN CARRASCO MAZATLAN SIN., MX","FM-12","99999","V020","270,1,N,0020,1","09000,1,C,N","015000,1,N,1","+0241,1","+0187,1","10137,1","06,0000,9,1",,,,,,"01,1,+03600,9,03,9",,,"07,99,1,01,1,00,1,02250,1,03,1,07,1",,"01,9",,,,"99999,9,10132,1","7,1,014,1,+005,1",,,"SYN106AAXX  01211 76458 32865 72702 10241 20187 30132 40137 57014 81037 92045 333 30/// 56/99 58005 81362 86268;","Q01  00002PRCP06"
"76458099999","2004-12-02T00:00:00","4","23.2","-106.4166666","4.0","COLONIA JUAN CARRASCO MAZATLAN SIN., MX","FM-12","99999","V020","300,1,N,0020,1","02100,1,9,N","018000,1,N,1","+0230,1","+0178,1","10140,1","06,0000,9,1","24,0000,9,1",,,,,,,,"05,99,1,05,1,00,1,02250,1,03,1,00,1",,"01,9",,"120,M,+0270,1","180,N,+0163,1","99999,9,10136,1","3,1,004,1,+010,1",,,"SYN124AAXX  02001 76458 32868 53002 10230 20178 30136 40140 53004 85030 92345 333 10270 20163 30/// 50321 56/9/ 58010 70000 85362;","Q01  00002PRCP06"
"76458099999","2004-12-02T03:00:00","4","23.2","-106.4166666","4.0","COLONIA JUAN CARRASCO MAZATLAN SIN., MX","FM-12","99999","V020","360,1,N,0010,1","22000,1,9,N","008000,1,N,1","+0212,1","+0182,1","10153,1","06,0000,9,1",,,,,,"01,1,+06000,9,00,9",,,"99,99,9,00,1,00,1,99999,9,00,1,99,9",,"01,9",,,,"99999,9,10148,1","2,1,012,1,+010,1",,,"SYN094AAXX  02031 76458 32958 03601 10212 20182 30148 40153 52012 80//1 90235 333 30/// 58010 81070;","Q01+000002SCOTCVQ02+000002SCOHCGQ03  00002PRCP06"
"76458099999","2004-12-02T06:00:00","4","23.2","-106.4166666","4.0","COLONIA JUAN CARRASCO MAZATLAN SIN., MX","FM-12","99999","V020","340,1,N,0010,1","22000,1,9,N","008000,1,N,1","+0202,1","+0182,1","10159,1","06,0000,9,1",,,,,,,,,"02,99,1,00,1,99,9,99999,9,99,9,02,1","0372,9","01,9",,"240,M,+0265,1","240,N,+0157,1","99999,9,10154,1","1,1,006,1,+012,1",,,"SYN118AAXX  02061 76458 32958 23401 10202 20182 30154 40159 51006 80//2 90530 333 10265 20157 30/// 55062 20302 58012 82070;","Q01  00002PRCP06"
"76458099999","2004-12-02T09:00:00","4","23.2","-106.4166666","4.0","COLONIA JUAN CARRASCO MAZATLAN SIN., MX","FM-12","99999","V020","340,1,N,0020,1","22000,1,9,N","008000,1,N,1","+0195,1","+0177,1","10144,1","06,0000,9,1",,,,,,"02,1,+06000,9,00,9",,,"02,99,1,00,1,00,1,99999,9,00,1,06,1",,"01,9",,,,"99999,9,10140,1","7,1,014,1,+008,1",,,"SYN094AAXX  02091 76458 32958 23402 10195 20177 30140 40144 57014 80006 90858 333 30/// 58008 82070;","Q01  00002PRCP06"
"76458099999","2004-12-02T12:00:00","4","23.2","-106.4166666","4.0","COLONIA JUAN CARRASCO MAZATLAN SIN., MX","FM-12","99999","V020","340,1,N,0020,1","22000,1,9,N","008000,1,N,1","+0190,1","+0167,1","10135,1","06,0000,9,1","24,0000,9,1",,,,,"02,1,+06000,9,00,9",,,"02,99,1,00,1,00,1,99999,9,00,1,06,1",,"01,9","999,-0540,9","999,M,+0280,1","120,N,+0160,1","99999,9,10131,1","7,1,009,1,+003,1",,,"SYN112AAXX  02121 76458 32958 23402 10190 20167 30131 40135 57009 80006 91150 333 10280 20160 30154 58003 70000 82070;","Q01  00002PRCP06"
"76458099999","2004-12-02T18:00:00","4","23.2","-106.4166666","4.0","COLONIA JUAN CARRASCO MAZATLAN SIN., MX","FM-12","99999","V020","240,1,N,0020,1","22000,1,9,N","020000,1,N,1","+0239,1","+0191,1","10148,1","06,0000,9,1",,,,,,"01,1,+03300,9,03,9",,,"01,99,1,01,1,00,1,99999,9,03,1,00,1",,"01,9",,"120,M,+0262,1","240,N,+0161,1","99999,9,10143,1","0,1,002,1,-003,1",,,"SYN112AAXX  02181 76458 32970 12402 10239 20191 30143 40148 50002 81030 91756 333 10262 20161 30/// 56090 59003 81361;","Q01  00002PRCP06"
"76458099999","2004-12-03T06:00:00","4","23.2","-106.4166666","4.0","COLONIA JUAN CARRASCO MAZATLAN SIN., MX","FM-12","99999","V020","320,1,N,0040,1","22000,1,9,N","008000,1,N,1","+0210,1","+0183,1","10132,1","06,0000,9,1",,,,,,,,,"02,99,1,02,1,99,9,99999,9,03,1,99,9","0018,9","01,9",,"240,M,+0269,1","240,N,+0161,1","99999,9,10128,1","3,1,002,1,-026,1",,,"SYN118AAXX  03061 76458 32958 23204 10210 20183 30128 40132 53002 82/3/ 90530 333 10269 20161 30/// 55003 20503 59026 82356;","Q01  00002PRCP06"
"76458099999","2004-12-03T12:00:00","4","23.2","-106.4166666","4.0","COLONIA JUAN CARRASCO MAZATLAN SIN., MX","FM-12","99999","V020","340,1,N,0020,1","22000,1,9,N","008000,1,N,1","+0190,1","+0170,1","10115,1","06,0000,9,1","24,0000,9,1",,,,,"01,1,+02400,9,03,9",,,"03,99,1,01,1,00,1,99999,9,05,1,06,1",,"01,9","999,-0550,9","999,M,+0269,1","120,N,+0181,1","99999,9,10111,1","6,1,001,1,-020,1",,,"SYN118AAXX  03121 76458 32958 33402 10190 20170 30111 40115 56001 81056 91150 333 10269 20181 30155 59020 70000 81358 82070;","Q01  00002PRCP06"
"76458099999","2004-12-03T15:00:00","4","23.2","-106.4166666","4.0","COLONIA JUAN CARRASCO MAZATLAN SIN., MX","FM-12","99999","V020","330,1,N,0010,1","02400,1,9,N","013000,1,N,1","+0200,1","+0176,1","10129,1","06,0000,9,1",,,,,,"06,1,+02400,9,03,9",,,"06,99,1,06,1,00,1,99999,9,08,1,00,1",,"01,9",,,,"99999,9,10125,1","2,1,014,1,-016,1",,,"SYN100AAXX  03151 76458 32963 63301 10200 20176 30125 40129 52014 86080 91448 333 30/// 56/0/ 59016 86358;","Q01  00002PRCP06"
"76458099999","2004-12-03T18:00:00","4","23.2","-106.4166666","4.0","COLONIA JUAN CARRASCO MAZATLAN SIN., MX","FM-12","99999","V020","260,1,N,0020,1","99999,9,9,N","018000,1,N,1","+0244,1","+0190,1","10130,1","06,0000,9,1",,,,,,"01,1,+02400,9,03,9",,,"06,99,1,01,1,00,1,99999,9,08,1,06,1",,"01,9",,"120,M,+0262,1","240,N,+0175,1","99999,9,10125,1","4,1,000,1,-018,1",,,"SYN118AAXX  03181 76458 32968 62602 10244 20190 30125 40130 54000 81086 91748 333 10262 20175 30/// 56/00 59018 81358 85270;","Q01  00002PRCP06"
"76458099999","2004-12-03T21:00:00","4","23.2","-106.4166666","4.0","COLONIA JUAN CARRASCO MAZATLAN SIN., MX","FM-12","99999","V020","290,1,N,0030,1","22000,1,C,N","018000,1,N,1","+0240,1","+0187,1","10112,1","06,0000,9,1",,,,,,"04,1,+03600,9,03,9",,,"05,99,1,04,1,00,1,02250,1,03,1,08,1",,"01,9",,,,"99999,9,10108,1","7,1,017,1,-011,1",,,"SYN106AAXX  03211 76458 32868 52903 10240 20187 30108 40112 57017 84038 92047 333 30/// 56/99 59011 84362 81268;","Q01  00002PRCP06"
"76458099999","2004-12-04T03:00:00","4","23.2","-106.4166666","4.0","COLONIA JUAN CARRASCO MAZATLAN SIN., MX","FM-12","99999","V020","300,1,N,0020,1","22000,1,9,N","008000,1,N,1","+0222,1","+0190,1","10114,1","06,0000,9,1",,,,,,"00,1,+99999,9,99,9",,,"00,99,1,00,1,00,1,99999,9,00,1,00,1",,"01,9",,,,"99999,9,10110,1","1,1,007,1,-016,1",,,"SYN082AAXX  04031 76458 32958 03002 10222 20190 30110 40114 51007 90235 333 30/// 59016;","Q01  00002PRCP06"
"76458099999","2004-12-04T09:00:00","4","23.2","-106.4166666","4.0","COLONIA JUAN CARRASCO MAZATLAN SIN., MX","FM-12","99999","V020","340,1,N,0030,1","22000,1,9,N","008000,1,N,1","+0202,1","+0179,1","10115,1","06,0000,9,1",,,,,,"03,1,+06000,9,00,9",,,"03,99,1,00,1,00,1,99999,9,00,1,06,1",,"01,9",,,,"99999,9,10110,1","6,1,007,1,+000,1",,,"SYN100AAXX  04091 76458 32958 33403 10202 20179 30110 40115 56007 80006 90850 333 30/// 56//0 58000 83070;","Q01  00002PRCP06"
"76458099999","2004-12-04T12:00:00","4","23.2","-106.4166666","4.0","COLONIA JUAN CARRASCO MAZATLAN SIN., MX","FM-12","99999","V020","340,1,N,0020,1","22000,1,9,N","008000,1,N,1","+0192,1","+0171,1","10113,1","06,0000,9,1","24,0000,9,1",,,,,"04,1,+06000,9,02,9",,,"04,99,1,00,1,00,1,99999,9,00,1,06,1",,"01,9","999,-0650,9","999,M,+0264,1","120,N,+0180,1","99999,9,10109,1","6,1,001,1,-002,1",,,"SYN118AAXX  04121 76458 32558 43402 10192 20171 30109 40113 56001 80006 91150 333 10264 20180 30165 56//0 59002 70000 84270;","Q01+008002SCOLCBQ02  00002PRCP06"
"76458099999","2004-12-04T15:00:00","4","23.2","-106.4166666","4.0","COLONIA JUAN CARRASCO MAZATLAN SIN., MX","FM-12","99999","V020","999,9,C,0000,1","06000,1,9,N","005000,1,N,1","+0214,1","+0187,1","10125,1","06,0000,9,1",,,,"4,1,03,1","2,1,03,1","06,1,+06000,9,02,9",,,"06,99,1,00,1,00,1,99999,9,00,1,06,1",,"01,9",,,,"99999,9,10120,1","1,1,011,1,-005,1","05,1",,"SYN106AAXX  04151 76458 31950 60000 10214 20187 30120 40125 51011 70542 80006 91448 333 30/// 56//0 59005 86270;","Q01  00002PRCP06"
"76458099999","2004-12-04T18:00:00","4","23.2","-106.4166666","4.0","COLONIA JUAN CARRASCO MAZATLAN SIN., MX","FM-12","99999","V020","170,1,N,0030,1","99999,9,9,N","014000,1,N,1","+0254,1","+0214,1","10132,1","06,0000,9,1",,,,,,"03,1,+02400,9,03,9",,,"06,99,1,03,1,00,1,99999,9,03,1,06,1",,"01,9",,"120,M,+0262,1","240,N,+0178,1","99999,9,10128,1","2,1,008,1,+003,1",,,"SYN118AAXX  04181 76458 32964 61703 10254 20214 30128 40132 52008 83036 91748 333 10262 20178 30/// 56/00 58003 83358 83270;","Q01  00002PRCP06"
"76458099999","2004-12-05T03:00:00","4","23.2","-106.4166666","4.0","COLONIA JUAN CARRASCO MAZATLAN SIN., MX","FM-12","99999","V020","999,9,C,0000,1","06000,1,9,N","008000,1,N,1","+0236,1","+0216,1","10130,1","06,0000,9,1",,,,,,"07,1,+06000,9,00,9",,,"07,99,1,00,1,99,9,99999,9,99,9,06,1",,"01,9",,,,"99999,9,10126,1","2,1,020,1,+016,1",,,"SYN094AAXX  05031 76458 32958 70000 10236 20216 30126 40130 52020 80//6 90240 333 30/// 58016 87070;","Q01  00002PRCP06"
"76458099999","2004-12-05T15:00:00","4","23.2","-106.4166666","4.0","COLONIA JUAN CARRASCO MAZATLAN SIN., MX","FM-12","99999","V020","999,9,C,0000,1","00150,1,9,N","001000,1,N,1","+0224,1","+0213,1","10140,1","06,0000,9,1",,,,"4,1,03,1","4,1,03,1","07,1,+00150,9,07,9",,,"07,99,1,07,1,06,1,00150,1,00,1,00,1",,"01,9",,,,"99999,9,10135,1","2,1,005,1,+015,1","42,1",,"SYN106AAXX  05151 76458 31210 70000 10224 20213 30135 40140 52005 74244 87600 91445 333 30/// 56900 58015 87705;","Q01  00002PRCP06"
"76458099999","2004-12-05T18:00:00","4","23.2","-106.4166666","4.0","COLONIA JUAN CARRASCO MAZATLAN SIN., MX","FM-12","99999","V020","180,1,N,0030,1","22000,1,C,N","010000,1,N,1","+0263,1","+0215,1","10143,1","06,0000,9,1",,,,"4,1,06,1","4,1,06,1","03,1,+00600,9,08,9",,,"07,99,1,03,1,01,1,00800,1,00,1,04,1",,"01,9",,"120,M,+0280,1","240,N,+0207,1","99999,9,10139,1","0,1,004,1,+011,1","05,1",,"SYN124AAXX  05181 76458 31560 71803 10263 20215 30139 40143 50004 70544 83104 91750 333 10280 20207 30/// 56309 58011 83820 84079;","Q01  00002PRCP06"
"76458099999","2004-12-05T21:00:00","4","23.2","-106.4166666","4.0","COLONIA JUAN CARRASCO MAZATLAN SIN., MX","FM-12","99999","V020","200,1,N,0020,1","09000,1,C,N","018000,1,N,1","+0261,1","+0215,1","10120,1","06,0000,9,1",,,,,,"01,1,+03600,9,03,9",,,"07,99,1,01,1,00,1,02250,1,03,1,03,1",,"01,9",,,,"99999,9,10116,1","7,1,023,1,+002,1",,,"SYN106AAXX  05211 76458 32868 72002 10261 20215 30116 40120 57023 81033 92048 333 30/// 56/99 58002 81362 86068;","Q01  00002PRCP06"
"76458099999","2004-12-06T03:00:00","4","23.2","-106.4166666","4.0","COLONIA JUAN CARRASCO MAZATLAN SIN., MX","FM-12","99999","V020","999,9,C,0000,1","06000,1,9,N","008000,1,N,1","+0204,1","+9999,9","10137,1","06,0000,9,1",,,,,,"07,1,+06000,9,00,9",,,"07,99,1,00,1,99,9,99999,9,99,9,06,1",,"01,9",,,,"99999,9,10133,1","2,1,017,1,+007,1",,,"SYN094AAXX  06031 76458 32958 70000 10204 20215 30133 40137 52017 80//6 90240 333 30/// 58007 87070;","Q01  00002PRCP06"
"76458099999","2004-12-06T06:00:00","4","23.2","-106.4166666","4.0","COLONIA JUAN CARRASCO MAZATLAN SIN., MX","FM-12","99999","V020","999,9,C,0000,1","99999,9,9,N","008000,1,N,1","+0228,1","+0211,1","10145,1","06,0000,9,1",,,,,,"02,1,+01800,9,03,9","02,1,+01800,9,03,9",,"06,99,1,02,1,99,9,99999,9,03,1,06,1","0342,9","01,9",,"240,M,+0285,1","240,N,+0207,1","99999,9,10140,1","1,1,007,1,+002,1",,,"SYN124AAXX  06061 76458 32958 60000 10228 20211 30140 40145 51007 82/36 90530 333 10285 20207 30/// 55057 58002 82356 82356 84070;","Q01  00002PRCP06"
"76458099999","2004-12-06T15:00:00","4","23.2","-106.4166666","4.0","COLONIA JUAN CARRASCO MAZATLAN SIN., MX","FM-12","99999","V020","120,1,N,0020,1","02400,1,9,N","006000,1,N,1","+0224,1","+0212,1","10156,1","01,9999,2,9",,,,"4,1,03,1","2,1,03,1","01,1,+00180,9,08,9","05,1,+02400,9,03,9",,"08,99,1,01,1,02,1,00150,1,03,1,08,1",,"01,9",,,,"99999,9,10152,1","9,9,999,9,+021,1","20,1",,"SYN124AAXX  06151 76458 21256 81202 10224 20212 30152 40156 5//// 72042 81238 91448 333 30/// 56600 58021 69905 81806 85358 82270;",
"76458099999","2004-12-06T18:00:00","4","23.2","-106.4166666","4.0","COLONIA JUAN CARRASCO MAZATLAN SIN., MX","FM-12","99999","V020","300,1,N,0020,1","03600,1,C,N","013000,1,N,1","+0244,1","+0210,1","10176,1","06,9999,9,9",,,,,,"02,1,+00450,9,08,9",,,"08,99,1,02,1,02,1,00450,1,06,1,00,1",,"01,9",,"120,M,+0255,1","240,N,+0205,1","99999,9,10172,1","1,1,020,1,+033,1",,,"SYN124AAXX  06181 76458 12463 83002 10244 20210 30172 40176 51020 69901 82260 91748 333 10255 20205 30/// 5636/ 58033 82815 86358;",
"76458099999","2004-12-06T21:00:00","4","23.2","-106.4166666","4.0","COLONIA JUAN CARRASCO MAZATLAN SIN., MX","FM-12","99999","V020","300,1,N,0030,1","01800,1,9,N","016000,1,N,1","+0248,1","+0208,1","10154,1","06,0000,2,1",,,,"4,1,03,1","4,1,03,1","07,1,+01800,9,03,9",,,"07,99,1,07,1,00,1,02250,1,05,1,00,1",,"01,9",,,,"99999,9,10150,1","7,1,022,1,+034,1","05,1",,"SYN100AAXX  06211 76458 31866 73003 10248 20208 30150 40154 57022 70544 87050 92050 333 30/// 58034 87356;",
"76458099999","2004-12-07T03:00:00","4","23.2","-106.4166666","4.0","COLONIA JUAN CARRASCO MAZATLAN SIN., MX","FM-12","99999","V020","330,1,N,0040,1","06000,1,9,N","008000,1,N,1","+0228,1","+0199,1","10157,1","06,0000,9,1",,,,,,"07,1,+06000,9,00,9",,,"07,99,1,00,1,99,9,99999,9,99,9,06,1",,"01,9",,,,"99999,9,10152,1","2,1,012,1,+019,1",,,"SYN094AAXX  07031 76458 32958 73304 10228 20199 30152 40157 52012 80//6 90235 333 30/// 58019 87070;","Q01  00002PRCP06"
"76458099999","2004-12-07T06:00:00","4","23.2","-106.4166666","4.0","COLONIA JUAN CARRASCO MAZATLAN SIN., MX","FM-12","99999","V020","330,1,N,0020,1","22000,1,9,N","008000,1,N,1","+0206,1","+0179,1","10162,1","06,0000,9,1",,,,,,"03,1,+06000,9,00,9",,,"03,99,1,00,1,99,9,99999,9,99,9,01,1","0024,9","01,9",,"240,M,+0269,1","240,N,+0205,1","99999,9,10158,1","1,1,006,1,+018,1",,,"SYN112AAXX  07061 76458 32958 33302 10206 20179 30158 40162 51006 80//1 90530 333 10269 20205 30/// 55004 58018 83070;","Q01  00002PRCP06"
"76458099999","2004-12-07T12:00:00","4","23.2","-106.4166666","4.0","COLONIA JUAN CARRASCO MAZATLAN SIN., MX","FM-12","99999","V020","340,1,N,0030,1","22000,1,9,N","008000,1,N,1","+0188,1","+0173,1","10144,1","06,0000,9,1","24,0000,2,1",,,,,"00,1,+99999,9,99,9",,,"00,99,1,00,1,00,1,99999,9,00,1,00,1",,"01,9","999,-0660,9","999,M,+0269,1","120,N,+0179,1","99999,9,10140,1","7,1,010,1,+999,9",,,"SYN100AAXX  07121 76458 32958 03403 10188 20173 30140 40144 57010 91145 333 10269 20179 30166 58/// 70000;","Q01  00002PRCP06"
"76458099999","2004-12-07T15:00:00","4","23.2","-106.4166666","4.0","COLONIA JUAN CARRASCO MAZATLAN SIN., MX","FM-12","99999","V020","330,1,N,0020,1","22000,1,9,N","020000,1,N,1","+0200,1","+0169,1","10159,1","06,0000,9,1",,,,,,"01,1,+06000,9,00,9",,,"01,99,1,00,1,00,1,99999,9,00,1,02,1",,"01,9",,,,"99999,9,10154,1","1,1,014,1,+002,1",,,"SYN100AAXX  07151 76458 32970 13302 10200 20169 30154 40159 51014 80002 91448 333 30/// 56//0 58002 81070;","Q01  00002PRCP06"
"76458099999","2004-12-07T18:00:00","4","23.2","-106.4166666","4.0","COLONIA JUAN CARRASCO MAZATLAN SIN., MX","FM-12","99999","V020","280,1,N,0030,1","22000,1,9,N","025000,1,N,1","+0250,1","+0182,1","10158,1","06,0000,9,1",,,,,,"01,1,+06000,9,00,9",,,"01,99,1,00,1,00,1,99999,9,00,1,02,1",,"01,9",,"120,M,+0262,1","240,N,+0172,1","99999,9,10153,1","0,1,001,1,-019,1",,,"SYN112AAXX  07181 76458 32975 12803 10250 20182 30153 40158 50001 80002 91748 333 10262 20172 30/// 56//0 59019 81070;","Q01  00002PRCP06"
"76458099999","2004-12-07T21:00:00","4","23.2","-106.4166666","4.0","COLONIA JUAN CARRASCO MAZATLAN SIN., MX","FM-12","99999","V020","300,1,N,0040,1","22000,1,9,N","020000,1,N,1","+0246,1","+0168,1","10133,1","06,0000,9,1",,,,,,"01,1,+03600,9,03,9",,,"01,99,1,01,1,00,1,02250,1,03,1,00,1",,"01,9",,,,"99999,9,10128,1","7,1,025,1,-022,1",,,"SYN100AAXX  07211 76458 32870 13004 10246 20168 30128 40133 57025 81030 92046 333 30/// 56/9/ 59022 81362;","Q01  00002PRCP06"
"76458099999","2004-12-08T06:00:00","4","23.2","-106.4166666","4.0","COLONIA JUAN CARRASCO MAZATLAN SIN., MX","FM-12","99999","V020","340,1,N,0020,1","22000,1,9,N","008000,1,N,1","+0190,1","+0148,1","10148,1","06,0000,9,1",,,,,,"00,1,+99999,9,99,9",,,"00,99,1,00,1,00,1,99999,9,00,1,00,1","0546,9","01,9",,"240,M,+0264,1","240,N,+0172,1","99999,9,10144,1","2,1,011,1,+999,9",,,"SYN106AAXX  08061 76458 32958 03402 10190 20148 30144 40148 52011 90550 333 10264 20172 30/// 55091 2//// 59014;","Q01  00002PRCP06"
"76458099999","2004-12-08T09:00:00","4","23.2","-106.4166666","4.0","COLONIA JUAN CARRASCO MAZATLAN SIN., MX","FM-12","99999","V020","999,9,C,0000,1","22000,1,9,N","008000,1,N,1","+0177,1","+0145,1","10142,1","06,0000,9,1",,,,,,"00,1,+99999,9,99,9",,,"00,99,1,00,1,00,1,99999,9,00,1,00,1",,"01,9",,,,"99999,9,10138,1","7,1,006,1,-013,1",,,"SYN082AAXX  08091 76458 32958 00000 10177 20145 30138 40142 57006 90850 333 30/// 59013;","Q01  00002PRCP06"
"76458099999","2004-12-08T12:00:00","4","23.2","-106.4166666","4.0","COLONIA JUAN CARRASCO MAZATLAN SIN., MX","FM-12","99999","V020","320,1,N,0030,1","22000,1,9,N","008000,1,N,1","+0175,1","+0140,1","10144,1","06,0000,9,1","24,0000,9,1",,,,,"01,1,+00450,9,08,9",,,"02,99,1,01,1,01,1,00450,1,03,1,00,1",,"01,9","999,-0280,9","999,M,+0264,1","120,N,+0160,1","99999,9,10140,1","3,1,002,1,+000,1",,,"SYN124AAXX  08121 76458 32458 23203 10175 20140 30140 40144 53002 81130 91150 333 10264 20160 30128 56590 58000 70000 81815 81360;","Q01  00002PRCP06"
"76458099999","2004-12-08T15:00:00","4","23.2","-106.4166666","4.0","COLONIA JUAN CARRASCO MAZATLAN SIN., MX","FM-12","99999","V020","330,1,N,0010,1","03000,1,9,N","020000,1,N,1","+0181,1","+0153,1","10161,1","06,0000,9,1",,,,,,"07,1,+03000,9,03,9",,,"07,99,1,07,1,00,1,99999,9,03,1,00,1",,"01,9",,,,"99999,9,10156,1","2,1,016,1,+002,1",,,"SYN100AAXX  08151 76458 32970 73301 10181 20153 30156 40161 52016 87030 91450 333 30/// 56050 58002 87360;","Q01  00002PRCP06"
"76458099999","2004-12-08T18:00:00","4","23.2","-106.4166666","4.0","COLONIA JUAN CARRASCO MAZATLAN SIN., MX","FM-12","99999","V020","130,1,N,0030,1","03000,1,9,N","020000,1,N,1","+0238,1","+0173,1","10166,1","06,0000,9,1",,,,,,"05,1,+03000,9,03,9",,,"07,99,1,05,1,00,1,99999,9,06,1,05,1",,"01,9",,"120,M,+0250,1","240,N,+0157,1","99999,9,10161,1","0,1,005,1,+008,1",,,"SYN118AAXX  08181 76458 32970 71303 10238 20173 30161 40166 50005 85065 91750 333 10250 20157 30/// 56059 58008 85360 82079;","Q01  00002PRCP06"
"76458099999","2004-12-08T21:00:00","4","23.2","-106.4166666","4.0","COLONIA JUAN CARRASCO MAZATLAN SIN., MX","FM-12","99999","V020","270,1,N,0030,1","03600,1,9,N","020000,1,N,1","+0232,1","+0188,1","10154,1","06,0000,9,1",,,,,,"07,1,+03600,9,04,9",,,"07,99,1,07,1,00,1,02250,1,02,1,00,1",,"01,9",,,,"99999,9,10150,1","7,1,011,1,+032,1",,,"SYN100AAXX  08211 76458 32870 72703 10232 20188 30150 40154 57011 87020 92045 333 30/// 56/9/ 58032 87462;","Q01  00002PRCP06"
"76458099999","2004-12-09T03:00:00","4","23.2","-106.4166666","4.0","COLONIA JUAN CARRASCO MAZATLAN SIN., MX","FM-12","99999","V020","330,1,N,0020,1","22000,1,9,N","008000,1,N,1","+0208,1","+0181,1","10160,1","06,0000,9,1",,,,,,"00,1,+99999,9,99,9",,,"00,99,1,00,1,00,1,99999,9,00,1,00,1",,"01,9",,,,"99999,9,10156,1","2,1,015,1,+023,1",,,"SYN082AAXX  09031 76458 32958 03302 10208 20181 30156 40160 52015 90235 333 30/// 58023;","Q01  00002PRCP06"
"76458099999","2004-12-09T06:00:00","4","23.2","-106.4166666","4.0","COLONIA JUAN CARRASCO MAZATLAN SIN., MX","FM-12","99999","V020","330,1,N,0020,1","22000,1,9,N","008000,1,N,1","+0194,1","+0176,1","10166,1","06,0000,9,1",,,,,,"00,1,+99999,9,99,9",,,"00,99,1,00,1,00,1,99999,9,00,1,00,1","0252,9","01,9",,"240,M,+0268,1","240,N,+0157,1","99999,9,10161,1","2,1,005,1,+999,9",,,"SYN106AAXX  09061 76458 32958 03302 10194 20176 30161 40166 52005 90530 333 10268 20157 30/// 55042 2//// 58017;","Q01  00002PRCP06"
"76458099999","2004-12-09T12:00:00","4","23.2","-106.4166666","4.0","COLONIA JUAN CARRASCO MAZATLAN SIN., MX","FM-12","99999","V020","310,1,N,0020,1","22000,1,9,N","008000,1,N,1","+0172,1","+0158,1","10142,1","06,0000,9,1","24,0000,9,1",,,,,"00,1,+99999,9,99,9",,,"00,99,1,00,1,00,1,99999,9,00,1,00,1",,"01,9","999,-0300,9","999,M,+0268,1","120,N,+0162,1","99999,9,10137,1","6,1,004,1,-003,1",,,"SYN100AAXX  09121 76458 32958 03102 10172 20158 30137 40142 56004 91150 333 10268 20162 30130 59003 70000;","Q01  00002PRCP06Q02  00002PRCP24"
"76458099999","2004-12-09T15:00:00","4","23.2","-106.4166666","4.0","COLONIA JUAN CARRASCO MAZATLAN SIN., MX","FM-12","99999","V020","140,1,N,0030,1","22000,1,9,N","020000,1,N,1","+0190,1","+0167,1","10161,1","06,0000,9,1",,,,,,"01,1,+08700,9,00,9",,,"01,99,1,00,1,00,1,99999,9,00,1,05,1",,"01,9",,,,"99999,9,10156,1","2,1,019,1,+000,1",,,"SYN100AAXX  09151 76458 32970 11403 10190 20167 30156 40161 52019 80005 91450 333 30/// 56009 58000 81079;","Q01  00002PRCP06"
"76458099999","2004-12-09T18:00:00","4","23.2","-106.4166666","4.0","COLONIA JUAN CARRASCO MAZATLAN SIN., MX","FM-12","99999","V020","270,1,N,0030,1","22000,1,9,N","020000,1,N,1","+0254,1","+0184,1","10162,1","06,0000,9,1",,,,,,"00,1,+99999,9,99,9",,,"00,99,1,00,1,00,1,99999,9,00,1,00,1",,"01,9",,"120,M,+0270,1","240,N,+0152,1","99999,9,10157,1","0,1,000,1,-004,1",,,"SYN094AAXX  09181 76458 32970 02703 10254 20184 30157 40162 50000 91750 333 10270 20152 30/// 59004;","Q01  00002PRCP06"
"76458099999","2004-12-10T00:00:00","4","23.2","-106.4166666","4.0","COLONIA JUAN CARRASCO MAZATLAN SIN., MX","FM-12","99999","V020","300,1,N,0030,1","22000,1,9,N","025000,1,N,1","+0242,1","+0180,1","10128,1","06,0000,9,1","24,0000,9,1",,,,,"00,1,+99999,9,99,9",,,"00,99,1,00,1,00,1,99999,9,00,1,00,1",,"01,9",,"120,M,+0270,1","180,N,+0152,1","99999,9,10123,1","6,1,011,1,-018,1",,,"SYN106AAXX  10001 76458 32975 03003 10242 20180 30123 40128 56011 92345 333 10270 20152 30/// 50121 59018 70000;","Q01  00002PRCP06Q02  00002PRCP24"
"76458099999","2004-12-10T06:00:00","4","23.2","-106.4166666","4.0","COLONIA JUAN CARRASCO MAZATLAN SIN., MX","FM-12","99999","V020","330,1,N,0020,1","22000,1,9,N","008000,1,N,1","+0200,1","+0176,1","10144,1","06,0000,9,1",,,,,,"00,1,+99999,9,99,9",,,"00,99,1,00,1,00,1,99999,9,00,1,00,1","0546,9","01,9",,"240,M,+0270,1","240,N,+0152,1","99999,9,10140,1","2,1,007,1,+999,9",,,"SYN106AAXX  10061 76458 32958 03302 10200 20176 30140 40144 52007 90530 333 10270 20152 30/// 55091 2//// 59021;","Q01  00002PRCP06"
"76458099999","2004-12-10T15:00:00","4","23.2","-106.4166666","4.0","COLONIA JUAN CARRASCO MAZATLAN SIN., MX","FM-12","99999","V020","360,1,N,0020,1","22000,1,9,N","020000,1,N,1","+0188,1","+0147,1","10135,1","06,0000,9,1",,,,,,"00,1,+99999,9,99,9",,,"00,99,1,00,1,00,1,99999,9,00,1,00,1",,"01,9",,,,"99999,9,10130,1","2,1,014,1,-026,1",,,"SYN082AAXX  10151 76458 32970 03602 10188 20147 30130 40135 52014 91448 333 30/// 59026;","Q01  00002PRCP06"
"76458099999","2004-12-10T18:00:00","4","23.2","-106.4166666","4.0","COLONIA JUAN CARRASCO MAZATLAN SIN., MX","FM-12","99999","V020","230,1,N,0030,1","22000,1,9,N","022000,1,N,1","+0242,1","+0166,1","10134,1","06,0000,9,1",,,,,,"00,1,+99999,9,99,9",,,"00,99,1,00,1,00,1,99999,9,00,1,00,1",,"01,9",,"120,M,+0266,1","240,N,+0148,1","99999,9,10130,1","4,1,000,1,-027,1",,,"SYN094AAXX  10181 76458 32972 02303 10242 20166 30130 40134 54000 91745 333 10266 20148 30/// 59027;","Q01  00002PRCP06"
"76458099999","2004-12-11T06:00:00","4","23.2","-106.4166666","4.0","COLONIA JUAN CARRASCO MAZATLAN SIN., MX","FM-12","99999","V020","030,1,N,0010,1","22000,1,9,N","008000,1,N,1","+0202,1","+0185,1","10123,1","06,0000,9,1",,,,,,"00,1,+99999,9,99,9",,,"00,99,1,00,1,00,1,99999,9,00,1,00,1","0534,9","01,9",,"240,M,+0271,1","240,N,+0148,1","99999,9,10118,1","2,1,008,1,+999,9",,,"SYN106AAXX  11061 76458 32958 00301 10202 20185 30118 40123 52008 90530 333 10271 20148 30/// 55089 2//// 59022;","Q01  00002PRCP06"
"76458099999","2004-12-11T09:00:00","4","23.2","-106.4166666","4.0","COLONIA JUAN CARRASCO MAZATLAN SIN., MX","FM-12","99999","V020","150,1,N,0020,1","22000,1,9,N","008000,1,N,1","+0199,1","+0189,1","10119,1","06,0000,9,1",,,,,,"03,1,+06000,9,02,9",,,"03,99,1,00,1,00,1,99999,9,00,1,06,1",,"01,9",,,,"99999,9,10114,1","6,1,004,1,-010,1",,,"SYN094AAXX  11091 76458 32958 31502 10199 20189 30114 40119 56004 80006 90848 333 30/// 59010 83270;","Q01  00002PRCP06"
"76458099999","2004-12-11T12:00:00","4","23.2","-106.4166666","4.0","COLONIA JUAN CARRASCO MAZATLAN SIN., MX","FM-12","99999","V020","090,1,N,0030,1","22000,1,9,N","008000,1,N,1","+0217,1","+0200,1","10117,1","06,0000,9,1","24,0000,9,1",,,,,"00,1,+99999,9,99,9",,,"00,99,1,00,1,00,1,99999,9,00,1,00,1",,"01,9","999,-0300,9","999,M,+0271,1","120,N,+0147,1","99999,9,10113,1","6,1,001,1,-003,1",,,"SYN100AAXX  11121 76458 32958 00903 10217 20200 30113 40117 56001 91148 333 10271 20147 30130 59003 70000;","Q01  00002PRCP06Q02  00002PRCP24"
"76458099999","2004-12-11T21:00:00","4","23.2","-106.4166666","4.0","COLONIA JUAN CARRASCO MAZATLAN SIN., MX","FM-12","99999","V020","130,1,N,0020,1","22000,1,9,N","020000,1,N,1","+0268,1","+0210,1","10133,1","06,0000,9,1",,,,,,"01,1,+00720,9,08,9",,,"01,99,1,01,1,01,1,00800,1,00,1,00,1",,"01,9",,,,"99999,9,10128,1","7,1,016,1,+022,1",,,"SYN100AAXX  11211 76458 32570 11302 10268 20210 30128 40133 57016 81100 92045 333 30/// 564// 58022 81824;","Q01  00002PRCP06"
"76458099999","2004-12-12T00:00:00","4","23.2","-106.4166666","4.0","COLONIA JUAN CARRASCO MAZATLAN SIN., MX","FM-12","99999","V020","240,1,N,0020,1","22000,1,9,N","020000,1,N,1","+0247,1","+0211,1","10126,1","06,0000,9,1","24,0000,9,1",,,,,"00,1,+99999,9,99,9",,,"00,99,1,00,1,00,1,99999,9,00,1,00,1",,"01,9",,"120,M,+0285,1","180,N,+0146,1","99999,9,10122,1","5,1,006,1,+022,1",,,"SYN106AAXX  12001 76458 32970 02402 10247 20211 30122 40126 55006 92345 333 10285 20146 30/// 50231 58022 70000;","Q01  00002PRCP06Q02  00002PRCP24"
"76458099999","2004-12-12T09:00:00","4","23.2","-106.4166666","4.0","COLONIA JUAN CARRASCO MAZATLAN SIN., MX","FM-12","99999","V020","040,1,N,0010,1","22000,1,9,N","000600,1,N,1","+0206,1","+0197,1","10147,1","06,0000,9,1",,,,"4,1,03,1","4,1,03,1","00,1,+99999,9,99,9",,,"00,99,1,00,1,00,1,99999,9,00,1,00,1",,"01,9",,,,"99999,9,10143,1","7,1,010,1,+029,1","42,1",,"SYN088AAXX  12091 76458 31906 00401 10206 20197 30143 40147 57010 74244 90850 333 30/// 58029;","Q01  00002PRCP06"
"76458099999","2004-12-12T15:00:00","4","23.2","-106.4166666","4.0","COLONIA JUAN CARRASCO MAZATLAN SIN., MX","FM-12","99999","V020","340,1,N,0010,1","22000,1,9,N","010000,1,N,1","+0198,1","+0189,1","10158,1","06,0000,9,1",,,,"4,1,03,1","4,1,03,1","00,1,+99999,9,99,9",,,"00,99,1,00,1,00,1,99999,9,00,1,00,1",,"01,9",,,,"99999,9,10154,1","2,1,010,1,+018,1","05,1",,"SYN088AAXX  12151 76458 31960 03401 10198 20189 30154 40158 52010 70544 91450 333 30/// 58018;","Q01  00002PRCP06"
"76458099999","2004-12-13T00:00:00","4","23.2","-106.4166666","4.0","COLONIA JUAN CARRASCO MAZATLAN SIN., MX","FM-12","99999","V020","280,1,N,0030,1","22000,1,9,N","018000,1,N,1","+0244,1","+0207,1","10136,1","06,0000,9,1","24,0000,9,1",,,,,"00,1,+99999,9,99,9",,,"00,99,1,00,1,00,1,99999,9,00,1,00,1",,"01,9",,"120,M,+0270,1","180,N,+0177,1","99999,9,10131,1","5,1,005,1,+009,1",,,"SYN106AAXX  13001 76458 32968 02803 10244 20207 30131 40136 55005 92345 333 10270 20177 30/// 50321 58009 70000;","Q01  00002PRCP06Q02  00002PRCP24"
"76458099999","2004-12-13T06:00:00","4","23.2","-106.4166666","4.0","COLONIA JUAN CARRASCO MAZATLAN SIN., MX","FM-12","99999","V020","340,1,N,0020,1","22000,1,9,N","008000,1,N,1","+0208,1","+0193,1","10154,1","06,0000,9,1",,,,,,"00,1,+99999,9,99,9",,,"00,99,1,00,1,00,1,99999,9,00,1,00,1","0522,9","01,9",,"240,M,+0270,1","240,N,+0177,1","99999,9,10150,1","2,1,008,1,+999,9",,,"SYN106AAXX  13061 76458 32958 03402 10208 20193 30150 40154 52008 90830 333 10270 20177 30/// 55087 2//// 59003;","Q01  00002PRCP06"
"76458099999","2004-12-13T15:00:00","4","23.2","-106.4166666","4.0","COLONIA JUAN CARRASCO MAZATLAN SIN., MX","FM-12","99999","V020","350,1,N,0010,1","22000,1,9,N","003000,1,N,1","+0197,1","+0186,1","10153,1","06,0000,9,1",,,,"4,1,03,1","0,1,03,1","00,1,+99999,9,99,9",,,"00,99,1,00,1,00,1,99999,9,00,1,00,1",,"01,9",,,,"99999,9,10148,1","9,9,999,9,-006,1","10,1",,"SYN088AAXX  13151 76458 31930 03501 10197 20186 30148 40153 5//// 71040 91448 333 30/// 59006;","Q01  00002PRCP06"
"76458099999","2004-12-14T06:00:00","4","23.2","-106.4166666","4.0","COLONIA JUAN CARRASCO MAZATLAN SIN., MX","FM-12","99999","V020","030,1,N,0010,1","22000,1,9,N","008000,1,N,1","+0208,1","+0191,1","10164,1","06,0000,9,1",,,,,,"00,1,+99999,9,99,9",,,"00,99,1,00,1,00,1,99999,9,00,1,00,1","0480,9","01,9",,"240,M,+0270,1","240,N,+0168,1","99999,9,10159,1","2,1,011,1,+999,9",,,"SYN106AAXX  14061 76458 32958 00301 10208 20191 30159 40164 52011 90530 333 10270 20168 30/// 55080 2//// 58009;","Q01  00002PRCP06"
"76458099999","2004-12-14T09:00:00","4","23.2","-106.4166666","4.0","COLONIA JUAN CARRASCO MAZATLAN SIN., MX","FM-12","99999","V020","160,1,N,0020,1","22000,1,9,N","008000,1,N,1","+0213,1","+0196,1","10155,1","06,0000,9,1",,,,,,"00,1,+99999,9,99,9",,,"00,99,1,00,1,00,1,99999,9,00,1,00,1",,"01,9",,,,"99999,9,10150,1","7,1,009,1,+999,9",,,"SYN082AAXX  14091 76458 32958 01602 10213 20196 30150 40155 57009 90848 333 30/// 58///;","Q01  00002PRCP06"
"76458099999","2004-12-14T12:00:00","4","23.2","-106.4166666","4.0","COLONIA JUAN CARRASCO MAZATLAN SIN., MX","FM-12","99999","V020","360,1,N,0020,1","22000,1,9,N","008000,1,N,1","+0193,1","+0184,1","10148,1","06,0000,9,1","24,0000,9,1",,,,,"02,1,+06000,9,00,9",,,"02,99,1,00,1,00,1,99999,9,00,1,06,1",,"01,9","999,-0460,9","999,M,+0270,1","120,N,+0180,1","99999,9,10143,1","7,1,006,1,+999,9",,,"SYN118AAXX  14121 76458 32958 23602 10193 20184 30143 40148 57006 80006 91145 333 10270 20180 30146 56//0 58/// 70000 82070;","Q01  00002PRCP06"
"76458099999","2004-12-14T15:00:00","4","23.2","-106.4166666","4.0","COLONIA JUAN CARRASCO MAZATLAN SIN., MX","FM-12","99999","V020","340,1,N,0010,1","22000,1,9,N","003000,1,N,1","+0200,1","+0193,1","10168,1","06,0000,9,1",,,,"4,1,03,1","0,1,03,1","03,1,+02400,9,03,9",,,"03,99,1,03,1,00,1,99999,9,08,1,00,1",,"01,9",,,,"99999,9,10163,1","2,1,020,1,+015,1","10,1",,"SYN106AAXX  14151 76458 31930 33401 10200 20193 30163 40168 52020 71040 83080 91448 333 30/// 56/0/ 58015 83358;","Q01  00002PRCP06"
"76458099999","2004-12-14T21:00:00","4","23.2","-106.4166666","4.0","COLONIA JUAN CARRASCO MAZATLAN SIN., MX","FM-12","99999","V020","250,1,N,0030,1","22000,1,9,N","018000,1,N,1","+0261,1","+0212,1","10153,1","06,0000,9,1",,,,,,"01,1,+03600,9,03,9",,,"01,99,1,01,1,00,1,02250,1,03,1,00,1",,"01,9",,,,"99999,9,10149,1","7,1,015,1,+007,1",,,"SYN100AAXX  14211 76458 32868 12503 10261 20212 30149 40153 57015 81030 92047 333 30/// 56/5/ 58007 81362;","Q01  00002PRCP06"
"76458099999","2004-12-15T03:00:00","4","23.2","-106.4166666","4.0","COLONIA JUAN CARRASCO MAZATLAN SIN., MX","FM-12","99999","V020","340,1,N,0030,1","22000,1,9,N","008000,1,N,1","+0234,1","+0215,1","10145,1","06,0000,9,1",,,,,,"01,1,+02400,9,03,9",,,"01,99,1,01,1,00,1,99999,9,05,1,00,1",,"01,9",,,,"99999,9,10140,1","4,1,000,1,-008,1",,,"SYN100AAXX  15031 76458 32958 13403 10234 20215 30140 40145 54000 81050 90235 333 30/// 56/0/ 59008 81358;","Q01  00002PRCP06"
"76458099999","2004-12-15T06:00:00","4","23.2","-106.4166666","4.0","COLONIA JUAN CARRASCO MAZATLAN SIN., MX","FM-12","99999","V020","360,1,N,0030,1","22000,1,9,N","008000,1,N,1","+0222,1","+0205,1","10152,1","06,0000,9,1",,,,,,"00,1,+99999,9,99,9",,,"00,99,1,00,1,00,1,99999,9,00,1,00,1","0498,9","01,9",,"240,M,+0288,1","240,N,+0176,1","99999,9,10148,1","1,1,008,1,+999,9",,,"SYN106AAXX  15061 76458 32958 03603 10222 20205 30148 40152 51008 90535 333 10288 20176 30/// 55083 2//// 59005;","Q01  00002PRCP06"
"76458099999","2004-12-15T09:00:00","4","23.2","-106.4166666","4.0","COLONIA JUAN CARRASCO MAZATLAN SIN., MX","FM-12","99999","V020","210,1,N,0020,1","22000,1,9,N","010000,1,N,1","+0218,1","+0199,1","10154,1","06,0000,9,1",,,,,,"00,1,+99999,9,99,9",,,"00,99,1,00,1,00,1,99999,9,00,1,00,1",,"01,9",,,,"99999,9,10150,1","0,1,001,1,-001,1",,,"SYN082AAXX  15091 76458 32960 02102 10218 20199 30150 40154 50001 90840 333 30/// 59001;","Q01  00002PRCP06"
"76458099999","2004-12-15T18:00:00","4","23.2","-106.4166666","4.0","COLONIA JUAN CARRASCO MAZATLAN SIN., MX","FM-12","99999","V020","230,1,N,0010,1","22000,1,9,N","008000,1,N,1","+0260,1","+0218,1","10170,1","06,0000,9,1",,,,,,"01,1,+00510,9,08,9",,,"01,99,1,01,1,01,1,00450,1,00,1,00,1",,"01,9",,"120,M,+0280,1","240,N,+0198,1","99999,9,10166,1","0,1,011,1,+001,1",,,"SYN112AAXX  15181 76458 31458 12301 10260 20218 30166 40170 50011 81100 91745 333 10280 20198 30/// 562// 58001 81817;","Q01  00002PRCP06"
"76458099999","2004-12-15T21:00:00","4","23.2","-106.4166666","4.0","COLONIA JUAN CARRASCO MAZATLAN SIN., MX","FM-12","99999","V020","270,1,N,0030,1","22000,1,9,N","020000,1,N,1","+0271,1","+0218,1","10145,1","06,0000,9,1",,,,,,,,,"01,99,1,01,1,03,1,00800,1,00,1,00,1",,"01,9",,,,"99999,9,10140,1","7,1,026,1,-009,1",,,"SYN112AAXX  15211 76458 32570 12703 10271 20218 30140 40145 57026 81300 92045 333 30/// 57837 59009 563// 57837 81822;","Q01  00002PRCP06"
"76458099999","2004-12-16T21:00:00","4","23.2","-106.4166666","4.0","COLONIA JUAN CARRASCO MAZATLAN SIN., MX","FM-12","99999","V020","280,1,N,0040,1","22000,1,9,N","020000,1,N,1","+0265,1","+0204,1","10152,1","06,0000,9,1",,,,,,"01,1,+00750,9,08,9",,,"01,99,1,01,1,02,1,00800,1,00,1,00,1",,"01,9",,,,"99999,9,10148,1","7,1,021,1,+007,1",,,"SYN100AAXX  16211 76458 32570 12804 10265 20204 30148 40152 57021 81200 92050 333 30/// 56100 58007 81825;","Q01  00002PRCP06"
"76458099999","2004-12-17T00:00:00","4","23.2","-106.4166666","4.0","COLONIA JUAN CARRASCO MAZATLAN SIN., MX","FM-12","99999","V020","310,1,N,0050,1","22000,1,9,N","020000,1,N,1","+0254,1","+0206,1","10141,1","06,0000,9,1","24,0000,9,1",,,,,,,,"01,99,1,01,1,02,1,00800,1,99,9,99,9",,"01,9",,"120,M,+0287,1","180,N,+0191,1","99999,9,10137,1","6,1,011,1,-007,1",,,"SYN124AAXX  17001 76458 32570 13105 10254 20206 30137 40141 56011 812// 92335 333 10287 20191 30/// 50091 561// 59007 70000 81820;","Q01  00002PRCP06"
"76458099999","2004-12-17T03:00:00","4","23.2","-106.4166666","4.0","COLONIA JUAN CARRASCO MAZATLAN SIN., MX","FM-12","99999","V020","340,1,N,0030,1","22000,1,9,N","008000,1,N,1","+0235,1","+0211,1","10147,1","06,0000,9,1",,,,,,"00,1,+99999,9,99,9",,,"00,99,1,00,1,00,1,99999,9,00,1,00,1",,"01,9",,,,"99999,9,10142,1","2,1,005,1,-019,1",,,"SYN082AAXX  17031 76458 32958 03403 10235 20211 30142 40147 52005 90245 333 30/// 59019;","Q01  00002PRCP06"
"76458099999","2004-12-17T18:00:00","4","23.2","-106.4166666","4.0","COLONIA JUAN CARRASCO MAZATLAN SIN., MX","FM-12","99999","V020","300,1,N,0060,1","05400,1,9,N","015000,1,N,1","+0237,1","+0187,1","10159,1","06,0000,9,1",,,,,,"06,1,+05400,9,02,9",,,"06,99,1,00,1,00,1,99999,9,00,1,08,1",,"01,9",,"120,M,+0255,1","240,N,+0170,1","99999,9,10154,1","2,1,007,1,-015,1",,,"SYN112AAXX  17181 76458 32965 63006 10237 20187 30154 40159 52007 80008 91745 333 10255 20170 30/// 56//9 59015 86268;","Q01  00002PRCP06"
"76458099999","2004-12-18T00:00:00","4","23.2","-106.4166666","4.0","COLONIA JUAN CARRASCO MAZATLAN SIN., MX","FM-12","99999","V020","340,1,N,0040,1","06000,1,9,N","015000,1,N,1","+0242,1","+0198,1","10131,1","06,0000,9,1","24,0000,9,1",,,,,"05,1,+06000,9,02,9",,,"05,99,1,00,1,00,1,99999,9,00,1,06,1",,"01,9",,"120,M,+0290,1","180,N,+0170,1","99999,9,10126,1","7,1,005,1,-011,1",,,"SYN118AAXX  18001 76458 32965 53404 10242 20198 30126 40131 57005 80006 92345 333 10290 20170 30/// 50051 59011 70000 85270;","Q01  00002PRCP06"
"76458099999","2004-12-18T09:00:00","4","23.2","-106.4166666","4.0","COLONIA JUAN CARRASCO MAZATLAN SIN., MX","FM-12","99999","V020","330,1,N,0010,1","22000,1,9,N","008000,1,N,1","+0196,1","+0184,1","10155,1","06,0000,9,1",,,,,,"04,1,+06000,9,00,9",,,"04,99,1,00,1,99,9,99999,9,99,9,01,1",,"01,9",,,,"99999,9,10150,1","4,1,000,1,+008,1",,,"SYN094AAXX  18091 76458 32958 43301 10196 20184 30150 40155 54/// 80//1 90830 333 30/// 58008 84070;","Q01  00002PRCP06"
"76458099999","2004-12-18T12:00:00","4","23.2","-106.4166666","4.0","COLONIA JUAN CARRASCO MAZATLAN SIN., MX","FM-12","99999","V020","330,1,N,0010,1","22000,1,9,N","008000,1,N,1","+0186,1","+0174,1","10152,1","06,0000,9,1","24,0000,9,1",,,,,"00,1,+99999,9,99,9",,,"00,99,1,00,1,00,1,99999,9,00,1,00,1",,"01,9","999,-0450,9","999,M,+0290,1","120,N,+0178,1","99999,9,10148,1","4,1,000,1,+014,1",,,"SYN100AAXX  18121 76458 32958 03301 10186 20174 30148 40152 54002 91130 333 10290 20178 30145 58014 70000;","Q01  00002PRCP06Q02  00002PRCP24"
"76458099999","2004-12-18T18:00:00","4","23.2","-106.4166666","4.0","COLONIA JUAN CARRASCO MAZATLAN SIN., MX","FM-12","99999","V020","250,1,N,0020,1","06000,1,9,N","016000,1,N,1","+0248,1","+0189,1","10169,1","06,0000,9,1",,,,,,"06,1,+06000,9,02,9",,,"06,99,1,00,1,00,1,99999,9,00,1,06,1",,"01,9",,"120,M,+0265,1","240,N,+0171,1","99999,9,10164,1","1,1,004,1,+005,1",,,"SYN112AAXX  18181 76458 32966 62502 10248 20189 30164 40169 51004 80006 91748 333 10265 20171 30/// 56//0 58005 86270;","Q01  00002PRCP06"
"76458099999","2004-12-18T21:00:00","4","23.2","-106.4166666","4.0","COLONIA JUAN CARRASCO MAZATLAN SIN., MX","FM-12","99999","V020","250,1,N,0030,1","06000,1,9,N","018000,1,N,1","+0245,1","+0196,1","10145,1","06,0000,9,1",,,,,,"06,1,+06000,9,02,9",,,"06,99,1,00,1,00,1,99999,9,00,1,06,1",,"01,9",,,,"99999,9,10141,1","7,1,023,1,+010,1",,,"SYN094AAXX  18211 76458 32968 62503 10245 20196 30141 40145 57023 80006 92048 333 30/// 58010 86270;","Q01  00002PRCP06"
"76458099999","2004-12-19T00:00:00","4","23.2","-106.4166666","4.0","COLONIA JUAN CARRASCO MAZATLAN SIN., MX","FM-12","99999","V020","270,1,N,0030,1","99999,9,9,N","018000,1,N,1","+0242,1","+0198,1","10145,1","06,0000,9,1","24,0000,9,1",,,,,,,,"05,99,1,00,1,00,1,99999,9,00,1,06,1",,"01,9",,"120,M,+0285,1","180,N,+0171,1","99999,9,10140,1","4,1,000,1,+014,1",,,"SYN124AAXX  19001 76458 32968 52703 10242 20198 30140 40145 54000 80006 92348 333 10285 20171 30/// 5//// 56//0 58014 70000 85270;","Q01  00002PRCP06"
"76458099999","2004-12-19T03:00:00","4","23.2","-106.4166666","4.0","COLONIA JUAN CARRASCO MAZATLAN SIN., MX","FM-12","99999","V020","320,1,N,0030,1","09000,1,C,N","008000,1,N,1","+0227,1","+0195,1","10163,1","06,0000,9,1",,,,,,"03,1,+03600,9,03,9",,,"07,99,1,03,1,00,1,02250,1,03,1,08,1",,"01,9",,,,"99999,9,10158,1","2,1,018,1,+999,9",,,"SYN106AAXX  19031 76458 32858 73203 10227 20195 30158 40163 52018 83038 90247 333 30/// 56/99 58/// 83362 84268;","Q01  00002PRCP06"
"76458099999","2004-12-19T06:00:00","4","23.2","-106.4166666","4.0","COLONIA JUAN CARRASCO MAZATLAN SIN., MX","FM-12","99999","V020","330,1,N,0020,1","09000,1,9,N","008000,1,N,1","+0215,1","+0185,1","10176,1","06,0000,9,1",,,,,,"04,1,+03600,9,03,9",,,"07,99,1,04,1,00,1,02250,1,03,1,08,1","0444,9","01,9",,"240,M,+0285,1","240,N,+0171,1","99999,9,10171,1","2,1,013,1,+999,9",,,"SYN124AAXX  19061 76458 32858 73302 10215 20185 30171 40176 52013 84038 90540 333 10285 20171 30/// 55074 56/99 58/// 84362 83268;","Q01  00002PRCP06"
"76458099999","2004-12-19T09:00:00","4","23.2","-106.4166666","4.0","COLONIA JUAN CARRASCO MAZATLAN SIN., MX","FM-12","99999","V020","190,1,N,0010,1","00330,1,9,N","008000,1,N,1","+0210,1","+0185,1","10164,1","06,0000,9,1",,,,,,"07,1,+00330,9,06,9",,,"07,99,1,07,1,04,1,00450,1,00,1,00,1",,"01,9",,,,"99999,9,10159,1","7,1,012,1,+009,1",,,"SYN100AAXX  19091 76458 32458 71901 10210 20185 30159 40164 57012 87400 90850 333 30/// 56500 58009 87611;","Q01  00002PRCP06"
"76458099999","2004-12-20T00:00:00","4","23.2","-106.4166666","4.0","COLONIA JUAN CARRASCO MAZATLAN SIN., MX","FM-12","99999","V020","999,9,C,0000,1","02100,1,9,N","012000,1,N,1","+0251,1","+0198,1","10139,1","06,0000,9,1","24,0000,9,1",,,,,"04,1,+03600,9,04,9",,,"07,99,1,07,1,00,1,02250,1,02,1,00,1",,"01,9",,"120,M,+0272,1","180,N,+0192,1","99999,9,10135,1","7,1,011,1,-005,1",,,"SYN130AAXX  20001 76458 32862 70000 10251 20198 30135 40139 57011 87020 92340 333 10272 20192 30/// 50201 56/6/ 59005 70000 84462 83362;","Q01  00002PRCP06"
"76458099999","2004-12-20T03:00:00","4","23.2","-106.4166666","4.0","COLONIA JUAN CARRASCO MAZATLAN SIN., MX","FM-12","99999","V020","320,1,N,0020,1","02400,1,9,N","008000,1,N,1","+0232,1","+0198,1","10148,1","06,0000,9,1",,,,,,"05,1,+02400,9,03,9",,,"05,99,1,05,1,00,1,99999,9,05,1,00,1",,"01,9",,,,"99999,9,10143,1","2,1,008,1,-015,1",,,"SYN100AAXX  20031 76458 32958 53202 10232 20198 30143 40148 52008 85050 90232 333 30/// 56090 59015 85358;","Q01  00002PRCP06"
"76458099999","2004-12-20T06:00:00","4","23.2","-106.4166666","4.0","COLONIA JUAN CARRASCO MAZATLAN SIN., MX","FM-12","99999","V020","320,1,N,0020,1","99999,9,9,N","008000,1,N,1","+0222,1","+0175,1","10161,1","06,0000,9,1",,,,,,,,,"06,99,1,06,1,00,1,99999,9,05,1,00,1",,"01,9",,"240,M,+0272,1","240,N,+0192,1","99999,9,10157,1","2,1,014,1,-014,1",,,"SYN124AAXX  20061 76458 32958 63202 10222 20175 30157 40161 52014 86050 90532 333 10272 20192 30/// 55/// 2//// 56090 59014 86358;","Q01  00002PRCP06"
"76458099999","2004-12-20T09:00:00","4","23.2","-106.4166666","4.0","COLONIA JUAN CARRASCO MAZATLAN SIN., MX","FM-12","99999","V020","330,1,N,0010,1","22000,1,9,N","008000,1,N,1","+0208,1","+0175,1","10147,1","06,0000,9,1",,,,,,"02,1,+01800,9,03,9",,,"02,99,1,02,1,99,9,99999,9,03,1,99,9",,"01,9",,,,"99999,9,10142,1","7,1,015,1,-017,1",,,"SYN094AAXX  20091 76458 32958 23301 10208 20175 30142 40147 57015 82/3/ 90835 333 30/// 59017 82356;","Q01  00002PRCP06"
"76458099999","2004-12-20T21:00:00","4","23.2","-106.4166666","4.0","COLONIA JUAN CARRASCO MAZATLAN SIN., MX","FM-12","99999","V020","270,1,N,0040,1","03000,1,9,N","018000,1,N,1","+0249,1","+0191,1","10143,1","06,0000,9,1",,,,,,"06,1,+03000,9,03,9",,,"07,99,1,06,1,00,1,99999,9,03,1,05,1",,"01,9",,,,"99999,9,10138,1","7,1,015,1,-007,1",,,"SYN106AAXX  20211 76458 32968 72704 10249 20191 30138 40143 57015 86035 92056 333 30/// 56069 59007 86360 81079;","Q01  00002PRCP06"
"76458099999","2004-12-21T03:00:00","4","23.2","-106.4166666","4.0","COLONIA JUAN CARRASCO MAZATLAN SIN., MX","FM-12","99999","V020","340,1,N,0020,1","22000,1,9,N","008000,1,N,1","+0224,1","+0179,1","10142,1","06,0000,9,1",,,,,,"02,1,+02400,9,03,9",,,"02,99,1,99,9,00,1,99999,9,03,1,00,1",,"01,9",,,,"99999,9,10137,1","2,1,006,1,-006,1",,,"SYN100AAXX  21031 76458 32958 23402 10224 20179 30137 40142 52006 80030 90242 333 30/// 56090 59006 82358;","Q01+000002SCOTLCQ02  00002PRCP06"
"76458099999","2004-12-21T06:00:00","4","23.2","-106.4166666","4.0","COLONIA JUAN CARRASCO MAZATLAN SIN., MX","FM-12","99999","V020","330,1,N,0010,1","22000,1,9,N","008000,1,N,1","+0200,1","+0169,1","10151,1","06,0000,9,1",,,,,,"00,1,+99999,9,99,9",,,"00,99,1,00,1,00,1,99999,9,00,1,00,1","0390,9","01,9",,"240,M,+0275,1","240,N,+0168,1","99999,9,10146,1","2,1,009,1,+999,9",,,"SYN106AAXX  21061 76458 32958 03301 10200 20169 30146 40151 52009 90532 333 10275 20168 30/// 55065 2//// 59011;","Q01  00002PRCP06"
"76458099999","2004-12-21T09:00:00","4","23.2","-106.4166666","4.0","COLONIA JUAN CARRASCO MAZATLAN SIN., MX","FM-12","99999","V020","340,1,N,0010,1","22000,1,9,N","008000,1,N,1","+0180,1","+0159,1","10151,1","06,0000,9,1",,,,,,"00,1,+99999,9,99,9",,,"00,99,1,00,1,00,1,99999,9,00,1,00,1",,"01,9",,,,"99999,9,10147,1","0,1,002,1,+005,1",,,"SYN082AAXX  21091 76458 32958 03401 10180 20159 30147 40151 50002 90830 333 30/// 58005;","Q01  00002PRCP06"
"76458099999","2004-12-21T15:00:00","4","23.2","-106.4166666","4.0","COLONIA JUAN CARRASCO MAZATLAN SIN., MX","FM-12","99999","V020","340,1,N,0010,1","22000,1,C,N","015000,1,N,1","+0189,1","+0164,1","10162,1","06,0000,9,1",,,,,,"01,1,+00330,9,08,9",,,"06,99,1,01,1,02,1,00450,1,00,1,06,1",,"01,9",,,,"99999,9,10157,1","2,1,014,1,+010,1",,,"SYN106AAXX  21151 76458 32465 63401 10189 20164 30157 40162 52014 81206 91448 333 30/// 564/0 58010 81811 85270;","Q01  00002PRCP06"
"76458099999","2004-12-21T21:00:00","4","23.2","-106.4166666","4.0","COLONIA JUAN CARRASCO MAZATLAN SIN., MX","FM-12","99999","V020","240,1,N,0030,1","03600,1,9,N","020000,1,N,1","+0248,1","+0183,1","10140,1","06,0000,9,1",,,,,,"05,1,+03600,9,03,9",,,"05,99,1,05,1,00,1,02250,1,03,1,00,1",,"01,9",,,,"99999,9,10136,1","7,1,024,1,-002,1",,,"SYN100AAXX  21211 76458 32870 52403 10248 20183 30136 40140 57024 85030 92048 333 30/// 56/4/ 59002 85362;","Q01  00002PRCP06"
"76458099999","2004-12-22T00:00:00","4","23.2","-106.4166666","4.0","COLONIA JUAN CARRASCO MAZATLAN SIN., MX","FM-12","99999","V020","270,1,N,0030,1","22000,1,9,N","020000,1,N,1","+0245,1","+0189,1","10134,1","06,0000,9,1","24,0000,9,1",,,,,,,,"04,99,1,04,1,00,1,02250,1,03,1,00,1",,"01,9",,"120,M,+0272,1","180,N,+0155,1","99999,9,10130,1","5,1,006,1,-001,1",,,"SYN124AAXX  22001 76458 32870 42703 10245 20189 30130 40134 55006 84030 92347 333 10272 20155 30/// 50211 56/4/ 59001 70000 84362;","Q01  00002PRCP06"
"76458099999","2004-12-22T03:00:00","4","23.2","-106.4166666","4.0","COLONIA JUAN CARRASCO MAZATLAN SIN., MX","FM-12","99999","V020","350,1,N,0020,1","22000,1,9,N","008000,1,N,1","+0230,1","+0176,1","10142,1","06,0000,9,1",,,,,,"00,1,+99999,9,99,9",,,"00,99,1,00,1,00,1,99999,9,00,1,00,1",,"01,9",,,,"99999,9,10138,1","2,1,008,1,+001,1",,,"SYN082AAXX  22031 76458 32958 03502 10230 20176 30138 40142 52008 90245 333 30/// 58001;","Q01  00002PRCP06"
"76458099999","2004-12-22T06:00:00","4","23.2","-106.4166666","4.0","COLONIA JUAN CARRASCO MAZATLAN SIN., MX","FM-12","99999","V020","360,1,N,0010,1","22000,1,9,N","008000,1,N,1","+0198,1","+0170,1","10152,1","06,0000,9,1",,,,,,"00,1,+99999,9,99,9",,,"00,99,1,00,1,00,1,99999,9,00,1,00,1",,"01,9",,"240,M,+0272,1","240,N,+0155,1","99999,9,10145,1","2,1,010,1,+999,9",,,"SYN106AAXX  22061 76458 32958 03601 10198 20170 30145 40152 52010 90532 333 10272 20155 30/// 55775 2//// 58002;","Q01  00002PRCP06"
"76458099999","2004-12-22T09:00:00","4","23.2","-106.4166666","4.0","COLONIA JUAN CARRASCO MAZATLAN SIN., MX","FM-12","99999","V020","320,1,N,0020,1","22000,1,9,N","012000,1,N,1","+0179,1","+0161,1","10143,1","06,0000,9,1",,,,,,"03,1,+02700,9,03,9",,,"03,99,1,03,1,00,1,99999,9,03,1,00,1",,"01,9",,,,"99999,9,10139,1","7,1,009,1,-008,1",,,"SYN100AAXX  22091 76458 32962 33202 10179 20161 30139 40143 57009 83030 90846 333 30/// 56060 59008 83359;","Q01  00002PRCP06"
"76458099999","2004-12-22T12:00:00","4","23.2","-106.4166666","4.0","COLONIA JUAN CARRASCO MAZATLAN SIN., MX","FM-12","99999","V020","330,1,N,0010,1","22000,1,9,N","012000,1,N,1","+0170,1","+0149,1","10140,1","06,0000,9,1","24,0000,9,1",,,,,"03,1,+02700,9,03,9",,,"03,99,1,03,1,00,1,99999,9,03,1,00,1",,"01,9","999,-0300,9","999,M,+0272,1","120,N,+0159,1","99999,9,10135,1","6,1,004,1,-008,1",,,"SYN118AAXX  22121 76458 32962 33301 10170 20149 30135 40140 56004 83030 91140 333 10272 20159 30130 56090 59008 70000 83359;","Q01  00002PRCP06"
"76458099999","2004-12-22T15:00:00","4","23.2","-106.4166666","4.0","COLONIA JUAN CARRASCO MAZATLAN SIN., MX","FM-12","99999","V020","340,1,N,0020,1","99999,9,9,N","020000,1,N,1","+0176,1","+0154,1","10150,1","06,0000,9,1",,,,,,"01,1,+02700,9,03,9",,,"07,99,1,01,1,00,1,99999,9,03,1,07,1",,"01,9",,,,"99999,9,10146,1","2,1,011,1,-011,1",,,"SYN106AAXX  22151 76458 32970 73402 10176 20154 30146 40150 52011 81037 91450 333 30/// 56099 59011 81359 86276;","Q01  00002PRCP06"
"76458099999","2004-12-22T18:00:00","4","23.2","-106.4166666","4.0","COLONIA JUAN CARRASCO MAZATLAN SIN., MX","FM-12","99999","V020","300,1,N,0030,1","22000,1,9,N","020000,1,N,1","+0235,1","+0149,1","10153,1","06,0000,9,1",,,,,,"04,1,+08700,9,00,9",,,"04,99,1,00,1,00,1,99999,9,00,1,04,1",,"01,9",,"120,M,+0250,1","240,N,+0153,1","99999,9,10149,1","7,1,003,1,-011,1",,,"SYN112AAXX  22181 76458 32970 43003 10235 20149 30149 40153 57003 80004 91750 333 10250 20153 30/// 56009 59011 84079;","Q01  00002PRCP06"
"76458099999","2004-12-23T00:00:00","4","23.2","-106.4166666","4.0","COLONIA JUAN CARRASCO MAZATLAN SIN., MX","FM-12","99999","V020","320,1,N,0020,1","09000,1,9,N","020000,1,N,1","+0225,1","+0136,1","10126,1","06,0000,9,1","24,0000,9,1",,,,,"04,1,+03600,9,04,9",,,"07,99,1,04,1,00,1,02250,1,02,1,08,1",,"01,9",,"120,M,+0259,1","180,N,+0153,1","99999,9,10121,1","0,1,000,1,-009,1",,,"SYN130AAXX  23001 76458 32870 73202 10225 20136 30121 40126 50000 84028 92345 333 10259 20153 30/// 50271 56/99 59009 70000 84462 83268;","Q01  00002PRCP06"
"76458099999","2004-12-23T06:00:00","4","23.2","-106.4166666","4.0","COLONIA JUAN CARRASCO MAZATLAN SIN., MX","FM-12","99999","V020","330,1,N,0010,1","22000,1,9,N","008000,1,N,1","+0180,1","+0134,1","10138,1","06,0000,9,1",,,,,,"00,1,+99999,9,99,9",,,"00,99,1,00,1,00,1,99999,9,00,1,00,1","0240,9","01,9",,"240,M,+0259,1","240,N,+0153,1","99999,9,10133,1","2,1,007,1,+999,9",,,"SYN106AAXX  23061 76458 32958 03301 10180 20134 30133 40138 52007 90548 333 10259 20153 30/// 55040 2//// 59015;","Q01  00002PRCP06"
"76458099999","2004-12-23T09:00:00","4","23.2","-106.4166666","4.0","COLONIA JUAN CARRASCO MAZATLAN SIN., MX","FM-12","99999","V020","320,1,N,0010,1","22000,1,9,N","008000,1,N,1","+0168,1","+0132,1","10138,1","06,0000,9,1",,,,,,"03,1,+06000,9,00,9",,,"03,99,1,03,1,99,9,99999,9,99,9,01,1",,"01,9",,,,"99999,9,10134,1","0,1,001,1,-005,1",,,"SYN094AAXX  23091 76458 32958 33201 10168 20132 30134 40138 50001 83//1 90835 333 30/// 59005 83070;","Q01  00002PRCP06"
"76458099999","2004-12-23T12:00:00","4","23.2","-106.4166666","4.0","COLONIA JUAN CARRASCO MAZATLAN SIN., MX","FM-12","99999","V020","999,9,C,0000,1","22000,1,9,N","008000,1,N,1","+0154,1","+0131,1","10125,1","06,0000,9,1","24,0000,9,1",,,,,"00,1,+99999,9,99,9",,,"00,99,1,00,1,00,1,99999,9,00,1,00,1",,"01,9","999,-0100,9","999,M,+0259,1","120,N,+0145,1","99999,9,10120,1","7,1,014,1,-015,1",,,"SYN100AAXX  23121 76458 32958 00000 10154 20131 30120 40125 57014 91130 333 10259 20145 30110 59015 70000;","Q01  00002PRCP06Q02  00002PRCP24"
"76458099999","2004-12-23T15:00:00","4","23.2","-106.4166666","4.0","COLONIA JUAN CARRASCO MAZATLAN SIN., MX","FM-12","99999","V020","010,1,N,0010,1","99999,9,9,N","020000,1,N,1","+0162,1","+0136,1","10136,1","06,0000,9,1",,,,,,"01,1,+02700,9,03,9",,,"07,99,1,01,1,00,1,99999,9,03,1,07,1",,"01,9",,,,"99999,9,10131,1","0,1,011,1,-015,1",,,"SYN100AAXX  23151 76458 32970 70101 10162 20136 30131 40136 50011 81037 91450 333 30/// 59015 81359 86276;","Q01  00002PRCP06"
"76458099999","2004-12-23T18:00:00","4","23.2","-106.4166666","4.0","COLONIA JUAN CARRASCO MAZATLAN SIN., MX","FM-12","99999","V020","270,1,N,0030,1","99999,9,9,N","018000,1,N,1","+0219,1","+0142,1","10134,1","06,0000,9,1",,,,,,"04,1,+04500,9,04,9",,,"07,99,1,04,1,00,1,99999,9,01,1,05,1",,"01,9",,"120,M,+0237,1","240,N,+0139,1","99999,9,10129,1","8,1,001,1,-019,1",,,"SYN118AAXX  23181 76458 32968 72703 10219 20142 30129 40134 58001 84015 91750 333 10237 20139 30/// 56099 59019 84465 83079;","Q01  00002PRCP06"
"76458099999","2004-12-23T21:00:00","4","23.2","-106.4166666","4.0","COLONIA JUAN CARRASCO MAZATLAN SIN., MX","FM-12","99999","V020","290,1,N,0030,1","03600,1,9,N","018000,1,N,1","+0225,1","+0176,1","10120,1","06,0000,9,1",,,,,,"05,1,+03600,9,04,9",,,"08,99,1,08,1,00,1,02250,1,02,1,00,1",,"01,9",,,,"99999,9,10116,1","7,1,013,1,-005,1",,,"SYN106AAXX  23211 76458 32868 82903 10225 20176 30116 40120 57013 88020 92047 333 30/// 56/9/ 59005 85462 83363;","Q01  00002PRCP06"
"76458099999","2004-12-24T00:00:00","4","23.2","-106.4166666","4.0","COLONIA JUAN CARRASCO MAZATLAN SIN., MX","FM-12","99999","V020","290,1,N,0030,1","00720,1,C,N","018000,1,N,1","+0219,1","+0161,1","10116,1","06,0000,9,1","24,0000,9,1",,,,,"06,1,+00720,9,06,9",,,"08,99,1,06,1,04,1,00800,1,02,1,00,1",,"01,9",,"120,M,+0245,1","180,N,+0139,1","99999,9,10112,1","6,1,004,1,-009,1",,,"SYN130AAXX  24001 76458 32568 82903 10219 20161 30112 40116 56004 86420 92345 333 10245 20139 30/// 50171 56/69 59009 70000 86624 82462;","Q01  00002PRCP06"
"76458099999","2004-12-24T03:00:00","4","23.2","-106.4166666","4.0","COLONIA JUAN CARRASCO MAZATLAN SIN., MX","FM-12","99999","V020","350,1,N,0020,1","02400,1,9,N","008000,1,N,1","+0202,1","+0155,1","10132,1","06,0000,9,1",,,,,,"08,1,+02400,9,04,9",,,"08,99,1,08,1,00,1,99999,9,02,1,00,1",,"01,9",,,,"99999,9,10127,1","2,1,015,1,+001,1",,,"SYN100AAXX  24031 76458 32958 83502 10202 20155 30127 40132 52015 88020 90245 333 30/// 56090 58001 88458;","Q01  00002PRCP06"
"76458099999","2004-12-24T06:00:00","4","23.2","-106.4166666","4.0","COLONIA JUAN CARRASCO MAZATLAN SIN., MX","FM-12","99999","V020","350,1,N,0020,1","99999,9,9,N","008000,1,N,1","+0192,1","+0152,1","10142,1","06,0000,9,1",,,,,,,,,"08,99,1,08,1,00,1,99999,9,02,1,00,1","0138,9","01,9",,"240,M,+0245,1","240,N,+0139,1","99999,9,10137,1","2,1,010,1,+004,1",,,"SYN118AAXX  24061 76458 32958 83502 10192 20152 30137 40142 52010 88020 90532 333 10245 20139 30/// 55023 2//// 58004 88458;","Q01  00002PRCP06"
"76458099999","2004-12-24T09:00:00","4","23.2","-106.4166666","4.0","COLONIA JUAN CARRASCO MAZATLAN SIN., MX","FM-12","99999","V020","360,1,N,0020,1","06000,1,9,N","008000,1,N,1","+0180,1","+0145,1","10142,1","06,0000,9,1",,,,,,"07,1,+06000,9,00,9",,,"07,99,1,00,1,99,9,99999,9,99,9,06,1",,"01,9",,,,"99999,9,10137,1","4,1,000,1,+003,1",,,"SYN094AAXX  24091 76458 32958 73602 10180 20145 30137 40142 54000 80//6 90835 333 30/// 58003 87070;","Q01  00002PRCP06"
"76458099999","2004-12-24T12:00:00","4","23.2","-106.4166666","4.0","COLONIA JUAN CARRASCO MAZATLAN SIN., MX","FM-12","99999","V020","330,1,N,0030,1","99999,9,9,N","008000,1,N,1","+0176,1","+0130,1","10138,1","06,0000,9,1","24,0000,9,1",,,,,"03,1,+01800,9,03,9",,,"06,99,1,03,1,99,9,02250,1,03,1,06,1",,"01,9","999,-0640,9","999,M,+0245,1","120,N,+0168,1","99999,9,10134,1","5,1,003,1,+014,1",,,"SYN118AAXX  24121 76458 32858 63303 10176 20130 30134 40138 55003 83/36 91130 333 10245 20168 30164 58014 70000 83356 83070;","Q01  00002PRCP06"
"76458099999","2004-12-24T15:00:00","4","23.2","-106.4166666","4.0","COLONIA JUAN CARRASCO MAZATLAN SIN., MX","FM-12","99999","V020","330,1,N,0030,1","22000,1,9,N","018000,1,N,1","+0164,1","+0093,1","10152,1","06,0000,9,1",,,,,,"02,1,+02400,9,03,9",,,"04,99,1,02,1,00,1,99999,9,03,1,06,1",,"01,9",,,,"99999,9,10148,1","1,1,014,1,+017,1",,,"SYN106AAXX  24151 76458 32968 43303 10164 20093 30148 40152 51014 82036 91448 333 30/// 56/00 58017 82358 82270;","Q01  00002PRCP06"
"76458099999","2004-12-24T18:00:00","4","23.2","-106.4166666","4.0","COLONIA JUAN CARRASCO MAZATLAN SIN., MX","FM-12","99999","V020","310,1,N,0040,1","22000,1,9,N","023000,1,N,1","+0220,1","+0049,1","10164,1","06,0000,9,1",,,,,,"02,1,+02400,9,03,9",,,"03,99,1,02,1,00,1,99999,9,03,1,05,1",,"01,9",,"120,M,+0237,1","240,N,+0145,1","99999,9,10159,1","1,1,011,1,+030,1",,,"SYN118AAXX  24181 76458 32973 33104 10220 20049 30159 40164 51011 82035 91748 333 10237 20145 30/// 56/00 58030 82358 81070;","Q01  00002PRCP06"
"76458099999","2004-12-25T03:00:00","4","23.2","-106.4166666","4.0","COLONIA JUAN CARRASCO MAZATLAN SIN., MX","FM-12","99999","V020","330,1,N,0030,1","22000,1,9,N","008000,1,N,1","+0180,1","+0071,1","10158,1","06,0000,9,1",,,,,,"00,1,+99999,9,99,9",,,"00,99,1,00,1,00,1,99999,9,00,1,00,1",,"01,9",,,,"99999,9,10153,1","2,1,009,1,+026,1",,,"SYN082AAXX  25031 76458 32958 03303 10180 20071 30153 40158 52009 90235 333 30/// 58026;","Q01  00002PRCP06"
"76458099999","2004-12-25T09:00:00","4","23.2","-106.4166666","4.0","COLONIA JUAN CARRASCO MAZATLAN SIN., MX","FM-12","99999","V020","360,1,N,0010,1","22000,1,9,N","008000,1,N,1","+0132,1","+0060,1","10153,1","06,0000,9,1",,,,,,"00,1,+99999,9,99,9",,,"00,99,1,00,1,00,1,99999,9,00,1,00,1",,"01,9",,,,"99999,9,10147,1","7,1,015,1,+010,1",,,"SYN082AAXX  25091 76458 32958 03601 10132 20060 30147 40153 57015 90835 333 30/// 58010;","Q01  00002PRCP06"
"76458099999","2004-12-25T12:00:00","4","23.2","-106.4166666","4.0","COLONIA JUAN CARRASCO MAZATLAN SIN., MX","FM-12","99999","V020","360,1,N,0020,1","22000,1,9,N","008000,1,N,1","+0122,1","+0074,1","10149,1","06,0000,9,1","24,0000,9,1",,,,,"01,1,+06000,9,00,9",,,"01,99,1,00,1,99,9,99999,9,99,9,06,1",,"01,9",,"999,M,+0239,1","120,N,+0108,1","99999,9,10144,1","6,1,003,1,+010,1",,,"SYN112AAXX  25121 76458 32958 13602 10122 20074 30144 40149 56003 80//6 91130 333 10239 20108 30085 58010 70000 81070;","Q01  00002PRCP06"
"76458099999","2004-12-25T15:00:00","4","23.2","-106.4166666","4.0","COLONIA JUAN CARRASCO MAZATLAN SIN., MX","FM-12","99999","V020","350,1,N,0010,1","22000,1,9,N","022000,1,N,1","+0156,1","+0066,1","10155,1","06,0000,9,1",,,,,,"00,1,+99999,9,99,9",,,"00,99,1,00,1,00,1,99999,9,00,1,00,1",,"01,9",,,,"99999,9,10150,1","1,1,006,1,+002,1",,,"SYN082AAXX  25151 76458 32972 03501 10156 20066 30150 40155 51006 91450 333 30/// 58002;","Q01  00002PRCP06"
"76458099999","2004-12-25T21:00:00","4","23.2","-106.4166666","4.0","COLONIA JUAN CARRASCO MAZATLAN SIN., MX","FM-12","99999","V020","220,1,N,0020,1","22000,1,9,N","025000,1,N,1","+0231,1","+0102,1","10141,1","06,0000,9,1",,,,,,"00,1,+99999,9,99,9",,,"00,99,1,00,1,00,1,99999,9,00,1,00,1",,"01,9",,,,"99999,9,10136,1","7,1,019,1,-012,1",,,"SYN082AAXX  25211 76458 32975 02202 10231 20102 30136 40141 57019 92047 333 30/// 59012;","Q01  00002PRCP06"
"76458099999","2004-12-26T00:00:00","4","23.2","-106.4166666","4.0","COLONIA JUAN CARRASCO MAZATLAN SIN., MX","FM-12","99999","V020","280,1,N,0030,1","22000,1,9,N","025000,1,N,1","+0227,1","+0106,1","10133,1","06,0000,9,1","24,0000,9,1",,,,,"00,1,+99999,9,99,9",,,"00,99,1,00,1,00,1,99999,9,00,1,00,1",,"01,9",,"120,M,+0259,1","180,N,+0104,1","99999,9,10128,1","7,1,008,1,-016,1",,,"SYN106AAXX  26001 76458 32975 02803 10227 20106 30128 40133 57008 92345 333 10259 20104 30/// 50331 59016 70000;","Q01  00002PRCP06Q02  00002PRCP24"
"76458099999","2004-12-26T03:00:00","4","23.2","-106.4166666","4.0","COLONIA JUAN CARRASCO MAZATLAN SIN., MX","FM-12","99999","V020","330,1,N,0020,1","22000,1,9,N","016000,1,N,1","+0192,1","+0095,1","10143,1","06,0000,9,1",,,,,,"00,1,+99999,9,99,9",,,"00,99,1,00,1,00,1,99999,9,00,1,00,1",,"01,9",,,,"99999,9,10139,1","2,1,011,1,-014,1",,,"SYN082AAXX  26031 76458 32966 03302 10192 20095 30139 40143 52011 90250 333 30/// 59014;","Q01  00002PRCP06"
"76458099999","2004-12-26T06:00:00","4","23.2","-106.4166666","4.0","COLONIA JUAN CARRASCO MAZATLAN SIN., MX","FM-12","99999","V020","330,1,N,0010,1","22000,1,9,N","016000,1,N,1","+0165,1","+0095,1","10149,1","06,0000,9,1",,,,,,"00,1,+99999,9,99,9",,,"00,99,1,00,1,00,1,99999,9,00,1,00,1","0552,9","01,9",,"240,M,+0259,1","240,N,+0104,1","99999,9,10145,1","2,1,006,1,+999,9",,,"SYN106AAXX  26061 76458 32966 03301 10165 20095 30145 40149 52006 90550 333 10259 20104 30/// 55092 2//// 59017;","Q01  00002PRCP06"
"76458099999","2004-12-26T09:00:00","4","23.2","-106.4166666","4.0","COLONIA JUAN CARRASCO MAZATLAN SIN., MX","FM-12","99999","V020","340,1,N,0020,1","22000,1,9,N","008000,1,N,1","+0142,1","+0107,1","10149,1","06,0000,9,1",,,,,,"00,1,+99999,9,99,9",,,"00,99,1,00,1,00,1,99999,9,00,1,00,1",,"01,9",,,,"99999,9,10145,1","0,1,000,1,-002,1",,,"SYN082AAXX  26091 76458 32958 03402 10142 20107 30145 40149 50000 90830 333 30/// 59002;","Q01  00002PRCP06"
"76458099999","2004-12-26T12:00:00","4","23.2","-106.4166666","4.0","COLONIA JUAN CARRASCO MAZATLAN SIN., MX","FM-12","99999","V020","360,1,N,0010,1","22000,1,9,N","008000,1,N,1","+0136,1","+0093,1","10144,1","06,0000,9,1","24,0000,9,1",,,,,"00,1,+99999,9,99,9",,,"00,99,1,00,1,00,1,99999,9,00,1,00,1",,"01,9","999,+0700,9","999,M,+0259,1","120,N,+0120,1","99999,9,10139,1","6,1,006,1,-005,1",,,"SYN100AAXX  26121 76458 32958 03601 10136 20093 30139 40144 56006 91130 333 10259 20120 30070 59005 70000;","Q01  00002PRCP06Q02  00002PRCP24"
"76458099999","2004-12-26T21:00:00","4","23.2","-106.4166666","4.0","COLONIA JUAN CARRASCO MAZATLAN SIN., MX","FM-12","99999","V020","250,1,N,0030,1","22000,1,9,N","020000,1,N,1","+0244,1","+0154,1","10150,1","06,0000,9,1",,,,,,"00,1,+99999,9,99,9",,,"00,99,1,00,1,00,1,99999,9,00,1,00,1",,"01,9",,,,"99999,9,10145,1","7,1,021,1,+009,1",,,"SYN082AAXX  26211 76458 32970 02503 10244 20154 30145 40150 57021 92045 333 30/// 58009;","Q01  00002PRCP06"
"76458099999","2004-12-27T00:00:00","4","23.2","-106.4166666","4.0","COLONIA JUAN CARRASCO MAZATLAN SIN., MX","FM-12","99999","V020","290,1,N,0040,1","22000,1,9,N","020000,1,N,1","+0232,1","+0152,1","10141,1","06,0000,9,1","24,0000,9,1",,,,,"00,1,+99999,9,99,9",,,"00,99,1,00,1,00,1,99999,9,00,1,00,1",,"01,9",,"120,M,+0260,1","180,N,+0117,1","99999,9,10136,1","6,1,011,1,+008,1",,,"SYN106AAXX  27001 76458 32970 02904 10232 20152 30136 40141 56011 92345 333 10260 20117 30/// 50251 58008 70000;","Q01  00002PRCP06Q02  00002PRCP24"
"76458099999","2004-12-27T03:00:00","4","23.2","-106.4166666","4.0","COLONIA JUAN CARRASCO MAZATLAN SIN., MX","FM-12","99999","V020","330,1,N,0020,1","22000,1,9,N","008000,1,N,1","+0202,1","+0159,1","10144,1","06,0000,9,1",,,,,,"00,1,+99999,9,99,9",,,"00,99,1,00,1,00,1,99999,9,00,1,00,1",,"01,9",,,,"99999,9,10139,1","2,1,003,1,+001,1",,,"SYN082AAXX  27031 76458 32958 03302 10202 20159 30139 40144 52003 90238 333 30/// 58001;","Q01  00002PRCP06"
"76458099999","2004-12-27T06:00:00","4","23.2","-106.4166666","4.0","COLONIA JUAN CARRASCO MAZATLAN SIN., MX","FM-12","99999","V020","350,1,N,0010,1","22000,1,9,N","008000,1,N,1","+0182,1","+0154,1","10158,1","06,0000,9,1",,,,,,"00,1,+99999,9,99,9",,,"00,99,1,00,1,00,1,99999,9,00,1,00,1",,"01,9",,"240,M,+0280,1","240,N,+0117,1","99999,9,10154,1","2,1,015,1,+999,9",,,"SYN106AAXX  27061 76458 32958 03501 10182 20154 30154 40158 52015 90532 333 10280 20117 30/// 55930 2//// 58009;","Q01  00002PRCP06"
"76458099999","2004-12-27T09:00:00","4","23.2","-106.4166666","4.0","COLONIA JUAN CARRASCO MAZATLAN SIN., MX","FM-12","99999","V020","360,1,N,0010,1","22000,1,9,N","008000,1,N,1","+0166,1","+0137,1","10162,1","06,0000,9,1",,,,,,"00,1,+99999,9,99,9",,,"00,99,1,00,1,00,1,99999,9,00,1,00,1",,"01,9",,,,"99999,9,10157,1","1,1,003,1,+012,1",,,"SYN082AAXX  27091 76458 32958 03601 10166 20137 30157 40162 51003 90835 333 30/// 58012;","Q01  00002PRCP06"
"76458099999","2004-12-27T15:00:00","4","23.2","-106.4166666","4.0","COLONIA JUAN CARRASCO MAZATLAN SIN., MX","FM-12","99999","V020","360,1,N,0010,1","22000,1,9,N","018000,1,N,1","+0174,1","+0128,1","10182,1","06,0000,9,1",,,,"0,1,03,1","2,1,03,1","03,1,+06000,9,00,9",,,"03,99,1,99,9,99,9,99999,9,99,9,99,9",,"01,9",,,,"99999,9,10178,1","2,1,016,1,+027,1","00,1",,"SYN100AAXX  27151 76458 32968 33601 10174 20128 30178 40182 52016 70002 91450 333 30/// 56//0 58027 83070;","Q01  00002PRCP06"
"76458099999","2004-12-27T21:00:00","4","23.2","-106.4166666","4.0","COLONIA JUAN CARRASCO MAZATLAN SIN., MX","FM-12","99999","V020","270,1,N,0060,1","22000,1,9,N","020000,1,N,1","+0254,1","+0154,1","10176,1","06,0000,9,1",,,,,,"01,1,+05700,9,01,9",,,"02,99,1,00,1,00,1,99999,9,00,1,09,1",,"01,9",,,,"99999,9,10171,1","7,1,019,1,+026,1",,,"SYN106AAXX  27211 76458 32970 22706 10254 20154 30171 40176 57019 80009 92055 333 30/// 56009 58026 81169 81079;","Q01  00002PRCP06"
"76458099999","2004-12-28T03:00:00","4","23.2","-106.4166666","4.0","COLONIA JUAN CARRASCO MAZATLAN SIN., MX","FM-12","99999","V020","330,1,N,0030,1","22000,1,9,N","008000,1,N,1","+0220,1","+0185,1","10184,1","06,0000,9,1",,,,,,"00,1,+99999,9,99,9",,,"00,99,1,00,1,00,1,99999,9,00,1,00,1",,"01,9",,,,"99999,9,10180,1","2,1,010,1,+041,1",,,"SYN082AAXX  28031 76458 32958 03303 10220 20185 30180 40184 52010 90245 333 30/// 58041;","Q01  00002PRCP06"
"76458099999","2004-12-28T06:00:00","4","23.2","-106.4166666","4.0","COLONIA JUAN CARRASCO MAZATLAN SIN., MX","FM-12","99999","V020","350,1,N,0010,1","22000,1,9,N","008000,1,N,1","+0190,1","+0175,1","10191,1","06,0000,9,1",,,,,,"00,1,+99999,9,99,9",,,"00,99,1,00,1,00,1,99999,9,00,1,00,1",,"01,9",,"240,M,+0272,1","240,N,+0130,1","99999,9,10187,1","2,1,007,1,+999,9",,,"SYN106AAXX  28061 76458 32958 03501 10190 20175 30187 40191 52007 90532 333 10272 20130 30/// 55830 2//// 58033;","Q01  00002PRCP06"
"76458099999","2004-12-28T09:00:00","4","23.2","-106.4166666","4.0","COLONIA JUAN CARRASCO MAZATLAN SIN., MX","FM-12","99999","V020","330,1,N,0020,1","22000,1,9,N","008000,1,N,1","+0180,1","+0159,1","10179,1","06,0000,9,1",,,,,,"01,1,+06000,9,00,9",,,"01,99,1,00,1,99,9,99999,9,99,9,01,1",,"01,9",,,,"99999,9,10175,1","7,1,012,1,+018,1",,,"SYN100AAXX  28091 76458 32958 13302 10180 20159 30175 40179 57012 80//1 90835 333 30/// 56//9 58018 81070;","Q01  00002PRCP06"
"76458099999","2004-12-28T15:00:00","4","23.2","-106.4166666","4.0","COLONIA JUAN CARRASCO MAZATLAN SIN., MX","FM-12","99999","V020","999,9,C,0000,1","06000,1,9,N","013000,1,N,1","+0186,1","+0151,1","10183,1","06,0000,9,1",,,,,,"06,1,+06000,9,02,9",,,"06,99,1,00,1,00,1,99999,9,00,1,06,1",,"01,9",,,,"99999,9,10178,1","2,1,007,1,+000,1",,,"SYN100AAXX  28151 76458 32963 60000 10186 20151 30178 40183 52007 80006 91450 333 30/// 56//0 58000 86270;","Q01  00002PRCP06"
"76458099999","2004-12-28T18:00:00","4","23.2","-106.4166666","4.0","COLONIA JUAN CARRASCO MAZATLAN SIN., MX","FM-12","99999","V020","260,1,N,0010,1","22000,1,9,N","020000,1,N,1","+0252,1","+0157,1","10187,1","06,0000,9,1",,,,,,"04,1,+06000,9,02,9",,,"04,99,1,00,1,00,1,99999,9,00,1,06,1",,"01,9",,"120,M,+0272,1","240,N,+0152,1","99999,9,10182,1","0,1,004,1,-009,1",,,"SYN112AAXX  28181 76458 32970 42601 10252 20157 30182 40187 50004 80006 91750 333 10272 20152 30/// 56//0 59009 84270;","Q01  00002PRCP06"
"76458099999","2004-12-29T06:00:00","4","23.2","-106.4166666","4.0","COLONIA JUAN CARRASCO MAZATLAN SIN., MX","FM-12","99999","V020","350,1,N,0020,1","22000,1,9,N","008000,1,N,1","+0202,1","+0167,1","10167,1","06,0000,9,1",,,,,,"00,1,+99999,9,99,9",,,"00,99,1,00,1,00,1,99999,9,00,1,00,1",,"01,9",,"240,M,+0272,1","240,N,+0152,1","99999,9,10162,1","4,1,000,1,+999,9",,,"SYN106AAXX  29061 76458 32958 03502 10202 20167 30162 40167 54000 90532 333 10272 20152 30/// 55500 2//// 59024;","Q01  00002PRCP06"
"76458099999","2004-12-29T09:00:00","4","23.2","-106.4166666","4.0","COLONIA JUAN CARRASCO MAZATLAN SIN., MX","FM-12","99999","V020","999,9,C,0000,1","07800,1,9,N","012000,1,N,1","+0187,1","+0164,1","10165,1","06,0000,9,1",,,,,,"08,1,+07800,9,02,9",,,"08,99,1,00,1,00,1,99999,9,00,1,07,1",,"01,9",,,,"99999,9,10160,1","7,1,002,1,-015,1",,,"SYN100AAXX  29091 76458 32962 80000 10187 20164 30160 40165 57002 80007 90858 333 30/// 56009 59015 88276;","Q01  00002PRCP06"
"76458099999","2004-12-29T12:00:00","4","23.2","-106.4166666","4.0","COLONIA JUAN CARRASCO MAZATLAN SIN., MX","FM-12","99999","V020","330,1,N,0010,1","07800,1,9,N","012000,1,N,1","+0192,1","+0171,1","10161,1","06,0000,9,1","24,0000,9,1",,,,,"07,1,+07800,9,02,9",,,"07,99,1,00,1,00,1,99999,9,00,1,07,1",,"01,9","999,-0500,9","999,M,+0283,1","120,N,+0177,1","99999,9,10156,1","7,1,004,1,-015,1",,,"SYN118AAXX  29121 76458 32962 73301 10192 20171 30156 40161 57004 80007 91140 333 10283 20177 30150 56009 59015 70000 87276;","Q01  00002PRCP06"
"76458099999","2004-12-29T18:00:00","4","23.2","-106.4166666","4.0","COLONIA JUAN CARRASCO MAZATLAN SIN., MX","FM-12","99999","V020","130,1,N,0010,1","02400,1,9,N","020000,1,N,1","+0244,1","+0181,1","10182,1","06,0000,9,1",,,,,,"07,1,+02400,9,03,9",,,"07,99,1,07,1,00,1,02250,1,05,1,00,1",,"01,9",,"120,M,+0254,1","240,N,+0171,1","99999,9,10177,1","0,1,005,1,-005,1",,,"SYN112AAXX  29181 76458 32870 71301 10244 20181 30177 40182 50005 87050 91756 333 10254 20171 30/// 56050 59005 87358;","Q01  00002PRCP06"
"76458099999","2004-12-30T06:00:00","4","23.2","-106.4166666","4.0","COLONIA JUAN CARRASCO MAZATLAN SIN., MX","FM-12","99999","V020","300,1,N,0010,1","22000,1,9,N","008000,1,N,1","+0210,1","+0186,1","10172,1","06,0000,9,1",,,,,,"00,1,+99999,9,99,9",,,"00,99,1,00,1,00,1,99999,9,00,1,00,1",,"01,9",,"240,M,+0285,1","240,N,+0171,1","99999,9,10167,1","2,1,005,1,+999,9",,,"SYN106AAXX  30061 76458 32958 03001 10210 20186 30167 40172 52005 90532 333 10285 20171 30/// 55999 2//// 58005;","Q01  00002PRCP06"
"76458099999","2004-12-30T09:00:00","4","23.2","-106.4166666","4.0","COLONIA JUAN CARRASCO MAZATLAN SIN., MX","FM-12","99999","V020","330,1,N,0010,1","06000,1,9,N","008000,1,N,1","+0198,1","+0170,1","10159,1","06,0000,9,1",,,,,,"06,1,+06000,9,00,9",,,"06,99,1,00,1,99,9,99999,9,99,9,06,1",,"01,9",,,,"99999,9,10154,1","7,1,013,1,-006,1",,,"SYN094AAXX  30091 76458 32958 63301 10198 20170 30154 40159 57013 80//6 90835 333 30/// 59006 86070;","Q01  00002PRCP06"
"76458099999","2004-12-30T18:00:00","4","23.2","-106.4166666","4.0","COLONIA JUAN CARRASCO MAZATLAN SIN., MX","FM-12","99999","V020","210,1,N,0020,1","08700,1,9,N","018000,1,N,1","+0252,1","+0204,1","10162,1","06,0000,9,1",,,,,,"06,1,+08700,9,00,9",,,"06,99,1,00,1,00,1,99999,9,00,1,04,1",,"01,9",,"120,M,+0270,1","240,N,+0177,1","99999,9,10158,1","0,1,005,1,-019,1",,,"SYN112AAXX  30181 76458 32968 62102 10252 20204 30158 40162 50005 80004 91750 333 10270 20177 30/// 56009 59019 86079;","Q01  00002PRCP06"
"76458099999","2004-12-30T21:00:00","4","23.2","-106.4166666","4.0","COLONIA JUAN CARRASCO MAZATLAN SIN., MX","FM-12","99999","V020","280,1,N,0040,1","22000,1,9,N","018000,1,N,1","+0252,1","+0188,1","10138,1","06,0000,9,1",,,,,,"01,1,+03600,9,03,9",,,"02,99,1,01,1,00,1,02250,1,03,1,03,1",,"01,9",,,,"99999,9,10133,1","7,1,025,1,-016,1",,,"SYN106AAXX  30211 76458 32868 22804 10252 20188 30133 40138 57025 81033 92045 333 30/// 56/99 59016 81362 81068;","Q01  00002PRCP06"
"76458099999","2004-12-31T00:00:00","4","23.2","-106.4166666","4.0","COLONIA JUAN CARRASCO MAZATLAN SIN., MX","FM-12","99999","V020","290,1,N,0050,1","22000,1,9,N","020000,1,N,1","+0255,1","+0184,1","10124,1","06,0000,9,1","24,0000,9,1",,,,,,,,"01,99,1,01,1,00,1,02250,1,03,1,00,1",,"01,9",,"120,M,+0275,1","180,N,+0177,1","99999,9,10119,1","7,1,014,1,-026,1",,,"SYN124AAXX  31001 76458 32870 12905 10255 20184 30119 40124 57014 81030 92345 333 10275 20177 30/// 50241 56/9/ 59026 70000 81362;","Q01  00002PRCP06"
"76458099999","2004-12-31T06:00:00","4","23.2","-106.4166666","4.0","COLONIA JUAN CARRASCO MAZATLAN SIN., MX","FM-12","99999","V020","310,1,N,0020,1","22000,1,9,N","008000,1,N,1","+0230,1","+0180,1","10137,1","06,0000,9,1",,,,,,"00,1,+99999,9,99,9",,,"00,99,1,00,1,00,1,99999,9,00,1,00,1",,"01,9",,"240,M,+0275,1","240,N,+0177,1","99999,9,10132,1","2,1,005,1,-035,1",,,"SYN100AAXX  31061 76458 32958 03102 10230 20180 30132 40137 52005 90538 333 10275 20177 30/// 55730 59035;","Q01  00002PRCP06"
"76458099999","2004-12-31T09:00:00","4","23.2","-106.4166666","4.0","COLONIA JUAN CARRASCO MAZATLAN SIN., MX","FM-12","99999","V020","020,1,N,0010,1","22000,1,9,N","008000,1,N,1","+0202,1","+0175,1","10133,1","06,0000,9,1",,,,,,"00,1,+99999,9,99,9",,,"00,99,1,00,1,00,1,99999,9,00,1,00,1",,"01,9",,,,"99999,9,10129,1","8,1,003,1,-025,1",,,"SYN082AAXX  31091 76458 32958 00201 10202 20175 30129 40133 58003 90535 333 30/// 59025;","Q01  00002PRCP06"
"76458099999","2004-12-31T21:00:00","4","23.2","-106.4166666","4.0","COLONIA JUAN CARRASCO MAZATLAN SIN., MX","FM-12","99999","V020","220,1,N,0020,1","22000,1,9,N","016000,1,N,1","+0255,1","+0199,1","10133,1","06,0000,9,1",,,,,,"01,1,+03600,9,03,9",,,"03,99,1,01,1,00,1,02250,1,03,1,01,1",,"01,9",,,,"99999,9,10129,1","7,1,019,1,-004,1",,,"SYN106AAXX  31211 76458 32866 32202 10255 20199 30129 40133 57019 81031 92048 333 30/// 56/99 59004 81362 82068;","Q01  00002PRCP06"
