"STATION","DATE","SOURCE","LATITUDE","LONGITUDE","ELEVATION","NAME","REPORT_TYPE","CALL_SIGN","QUALITY_CONTROL","WND","CIG","VIS","TMP","DEW","SLP","AA1","GA1","GA2","GA3","GE1","GF1","MA1","MD1","MW1","REM","EQD"
"76459399999","2025-01-01T00:41:00","4","23.161356","-106.266072","11.58","GENERAL RAFAEL BUELNA INTERNATIONAL, MX","FM-15","99999","V020","300,1,N,0026,1","99999,9,9,N","019312,1,9,9","+0220,1","+0160,1","99999,9",,"02,1,+07315,1,00,1",,,"9,AGL   ,+99999,+99999","99,99,9,02,1,99,9,07315,1,99,9,99,9","10122,1,99999,9",,,"MET061METAR MMMZ 010041Z 30005KT 12SM FEW240 22/16 A2989 RMK 8/002=",
"76459399999","2025-01-01T01:44:00","4","23.161356","-106.266072","11.58","GENERAL RAFAEL BUELNA INTERNATIONAL, MX","FM-15","99999","V020","300,1,N,0021,1","99999,9,9,N","016093,1,9,9","+0200,1","+0170,1","99999,9",,"02,1,+07315,1,00,1",,,"9,AGL   ,+99999,+99999","99,99,9,02,1,99,9,07315,1,99,9,99,9","10125,1,99999,9",,,"MET061METAR MMMZ 010144Z 30004KT 10SM FEW240 20/17 A2990 RMK 8/002=",
"76459399999","2025-01-01T02:43:00","4","23.161356","-106.266072","11.58","GENERAL RAFAEL BUELNA INTERNATIONAL, MX","FM-15","99999","V020","999,9,C,0000,1","22000,1,9,N","016093,1,9,9","+0190,1","+0160,1","10128,1",,,,,,"00,99,1,99,9,99,9,99999,9,99,9,99,9","10129,1,99999,9","2,1,017,1,+999,9",,"MET069METAR MMMZ 010243Z 00000KT 10SM SKC 19/16 A2991 RMK SLP128 52017 958=",
"76459399999","2025-01-01T03:47:00","4","23.161356","-106.266072","11.58","GENERAL RAFAEL BUELNA INTERNATIONAL, MX","FM-15","99999","V020","999,9,C,0000,1","22000,1,9,N","016093,1,9,9","+0170,1","+0170,1","99999,9",,,,,,"00,99,1,99,9,99,9,99999,9,99,9,99,9","10132,1,99999,9",,,"MET048METAR MMMZ 010347Z 00000KT 10SM SKC 17/17 A2992=",
"76459399999","2025-01-01T04:41:00","4","23.161356","-106.266072","11.58","GENERAL RAFAEL BUELNA INTERNATIONAL, MX","FM-15","99999","V020","999,9,C,0000,1","22000,1,9,N","016093,1,9,9","+0160,1","+0150,1","99999,9",,,,,,"00,99,1,99,9,99,9,99999,9,99,9,99,9","10132,1,99999,9",,,"MET056METAR MMMZ 010441Z 00000KT 10SM SKC 16/15 A2992 RMK HZY=",
"76459399999","2025-01-01T05:50:00","4","23.161356","-106.266072","11.58","GENERAL RAFAEL BUELNA INTERNATIONAL, MX","FM-15","99999","V020","999,9,C,0000,1","22000,1,9,N","016093,1,9,9","+0140,1","+0120,1","10140,1",,,,,,"00,99,1,99,9,99,9,99999,9,99,9,99,9","10132,1,99999,9","2,1,003,1,+999,9",,"MET073METAR MMMZ 010550Z 00000KT 10SM SKC 14/12 A2992 RMK SLP140 52003 911 HZY=",
"76459399999","2025-01-01T06:43:00","4","23.161356","-106.266072","11.58","GENERAL RAFAEL BUELNA INTERNATIONAL, MX","FM-15","99999","V020","999,9,C,0000,1","22000,1,9,N","016093,1,9,9","+0140,1","+0120,1","99999,9",,,,,,"00,99,1,99,9,99,9,99999,9,99,9,99,9","10132,1,99999,9",,,"MET064METAR MMMZ 010643Z 00000KT 10SM SKC 14/12 A2992 RMK ISOL SC HZY=",
"76459399999","2025-01-01T07:43:00","4","23.161356","-106.266072","11.58","GENERAL RAFAEL BUELNA INTERNATIONAL, MX","FM-15","99999","V020","999,9,C,0000,1","22000,1,9,N","016093,1,9,9","+0130,1","+0120,1","99999,9",,,,,,"00,99,1,99,9,99,9,99999,9,99,9,99,9","10135,1,99999,9",,,"MET056METAR MMMZ 010743Z 00000KT 10SM SKC 13/12 A2993 RMK HZY=",
"76459399999","2025-01-01T09:40:00","4","23.161356","-106.266072","11.58","GENERAL RAFAEL BUELNA INTERNATIONAL, MX","FM-15","99999","V020","999,9,C,0000,1","22000,1,9,N","016093,1,9,9","+0120,1","+0100,1","99999,9",,,,,,"00,99,1,99,9,99,9,99999,9,99,9,99,9","10129,1,99999,9",,,"MET056METAR MMMZ 010940Z 00000KT 10SM SKC 12/10 A2991 RMK HZY=",
"76459399999","2025-01-01T10:40:00","4","23.161356","-106.266072","11.58","GENERAL RAFAEL BUELNA INTERNATIONAL, MX","FM-15","99999","V020","999,9,C,0000,1","22000,1,9,N","016093,1,9,9","+0120,1","+0100,1","99999,9",,,,,,"00,99,1,99,9,99,9,99999,9,99,9,99,9","10129,1,99999,9",,,"MET064METAR MMMZ 011040Z 00000KT 10SM SKC 12/10 A2991 RMK ISOL SC HZY=",
"76459399999","2025-01-01T11:43:00","4","23.161356","-106.266072","11.58","GENERAL RAFAEL BUELNA INTERNATIONAL, MX","FM-15","99999","V020","999,9,C,0000,1","22000,1,9,N","016093,1,9,9","+0120,1","+0100,1","10137,1",,,,,,"00,99,1,99,9,99,9,99999,9,99,9,99,9","10129,1,99999,9","7,1,003,1,+999,9",,"MET081METAR MMMZ 011143Z 00000KT 10SM SKC 12/10 A2991 RMK SLP137 57003 957 ISOL SC HZY=",
"76459399999","2025-01-01T12:45:00","4","23.161356","-106.266072","11.58","GENERAL RAFAEL BUELNA INTERNATIONAL, MX","FM-15","99999","V020","050,1,N,0021,1","22000,1,9,N","016093,1,9,9","+0110,1","+0100,1","99999,9",,,,,,"00,99,1,99,9,99,9,99999,9,99,9,99,9","10132,1,99999,9",,,"MET064METAR MMMZ 011245Z 05004KT 10SM SKC 11/10 A2992 RMK ISOL SC HZY=",
"76459399999","2025-01-01T13:46:00","4","23.161356","-106.266072","11.58","GENERAL RAFAEL BUELNA INTERNATIONAL, MX","FM-15","99999","V020","050,1,N,0021,1","99999,9,9,N","019312,1,9,9","+0120,1","+0100,1","99999,9",,"02,1,+07315,1,00,1",,,"9,AGL   ,+99999,+99999","99,99,9,02,1,99,9,07315,1,99,9,99,9","10135,1,99999,9",,,"MET065METAR MMMZ 011346Z 05004KT 12SM FEW240 12/10 A2993 RMK 8/002 HZY=",
"76459399999","2025-01-01T14:42:00","4","23.161356","-106.266072","11.58","GENERAL RAFAEL BUELNA INTERNATIONAL, MX","FM-15","99999","V020","999,9,C,0000,1","99999,9,9,N","020921,1,9,9","+0140,1","+0110,1","10142,1",,"04,1,+07315,1,00,1",,,"9,AGL   ,+99999,+99999","99,99,9,04,1,99,9,07315,1,99,9,99,9","10142,1,99999,9","2,1,013,1,+999,9",,"MET078METAR MMMZ 011442Z 00000KT 13SM SCT240 14/11 A2995 RMK SLP142 52013 970 8/002=",
"76459399999","2025-01-01T15:43:00","4","23.161356","-106.266072","11.58","GENERAL RAFAEL BUELNA INTERNATIONAL, MX","FM-15","99999","V020","999,9,C,0000,1","99999,9,9,N","022531,1,9,9","+0200,1","+0120,1","99999,9",,"04,1,+07315,1,00,1",,,"9,AGL   ,+99999,+99999","99,99,9,04,1,99,9,07315,1,99,9,99,9","10152,1,99999,9",,,"MET061METAR MMMZ 011543Z 00000KT 14SM SCT240 20/12 A2998 RMK 8/002=",
"76459399999","2025-01-01T16:42:00","4","23.161356","-106.266072","11.58","GENERAL RAFAEL BUELNA INTERNATIONAL, MX","FM-15","99999","V020","999,9,C,0000,1","99999,9,9,N","024140,1,9,9","+0230,1","+0140,1","99999,9",,"04,1,+07315,1,00,1",,,"9,AGL   ,+99999,+99999","99,99,9,04,1,99,9,07315,1,99,9,99,9","10159,1,99999,9",,,"MET061METAR MMMZ 011642Z 00000KT 15SM SCT240 23/14 A3000 RMK 8/002=",
"76459399999","2025-01-01T17:41:00","4","23.161356","-106.266072","11.58","GENERAL RAFAEL BUELNA INTERNATIONAL, MX","FM-15","99999","V020","999,9,C,0000,1","99999,9,9,N","024140,1,9,9","+0240,1","+0140,1","10153,1",,"04,1,+07620,1,00,1",,,"9,AGL   ,+99999,+99999","99,99,9,04,1,99,9,07620,1,99,9,99,9","10159,1,99999,9","2,1,017,1,+999,9",,"MET078METAR MMMZ 011741Z 00000KT 15SM SCT250 24/14 A3000 RMK SLP153 52017 958 8/002=",
"76459399999","2025-01-01T18:40:00","4","23.161356","-106.266072","11.58","GENERAL RAFAEL BUELNA INTERNATIONAL, MX","FM-15","99999","V020","999,9,C,0000,1","99999,9,9,N","024140,1,9,9","+0260,1","+0140,1","99999,9",,"04,1,+07620,1,00,1",,,"9,AGL   ,+99999,+99999","99,99,9,04,1,99,9,07620,1,99,9,99,9","10149,1,99999,9",,,"MET061METAR MMMZ 011840Z 00000KT 15SM SCT250 26/14 A2997 RMK 8/002=",
"76459399999","2025-01-01T19:42:00","4","23.161356","-106.266072","11.58","GENERAL RAFAEL BUELNA INTERNATIONAL, MX","FM-15","99999","V020","240,1,N,0031,1","07315,1,C,N","024140,1,9,9","+0260,1","+0160,1","99999,9",,"07,1,+07315,1,00,1",,,"9,AGL   ,+99999,+99999","99,99,9,07,1,99,9,07315,1,99,9,99,9","10135,1,99999,9",,,"MET061METAR MMMZ 011942Z 24006KT 15SM BKN240 26/16 A2993 RMK 8/002=",
"76459399999","2025-01-01T20:43:00","4","23.161356","-106.266072","11.58","GENERAL RAFAEL BUELNA INTERNATIONAL, MX","FM-15","99999","V020","290,1,N,0041,1","07315,1,C,N","024140,1,9,9","+0250,1","+0170,1","10125,1",,"07,1,+07315,1,02,1",,,"9,AGL   ,+99999,+99999","99,99,9,07,1,99,9,07315,1,99,9,99,9","10125,1,99999,9","7,1,033,1,+999,9",,"MET078METAR MMMZ 012043Z 29008KT 15SM BKN240 25/17 A2990 RMK SLP125 57033 957 8/008=",
"76459399999","2025-01-01T21:43:00","4","23.161356","-106.266072","11.58","GENERAL RAFAEL BUELNA INTERNATIONAL, MX","FM-15","99999","V020","310,1,N,0036,1","07315,1,C,N","022531,1,9,9","+0250,1","+0170,1","99999,9",,"07,1,+07315,1,02,1",,,"9,AGL   ,+99999,+99999","99,99,9,07,1,99,9,07315,1,99,9,99,9","10122,1,99999,9",,,"MET061METAR MMMZ 012143Z 31007KT 14SM BKN240 25/17 A2989 RMK 8/008=",
"76459399999","2025-01-01T22:42:00","4","23.161356","-106.266072","11.58","GENERAL RAFAEL BUELNA INTERNATIONAL, MX","FM-15","99999","V020","270,1,N,0021,1","07315,1,C,N","022531,1,9,9","+0260,1","+0160,1","99999,9",,"07,1,+07315,1,02,1",,,"9,AGL   ,+99999,+99999","99,99,9,07,1,99,9,07315,1,99,9,99,9","10118,1,99999,9",,,"MET061METAR MMMZ 012242Z 27004KT 14SM BKN240 26/16 A2988 RMK 8/008=",
"76459399999","2025-01-01T23:44:00","4","23.161356","-106.266072","11.58","GENERAL RAFAEL BUELNA INTERNATIONAL, MX","FM-15","99999","V020","310,1,N,0026,1","07315,1,C,N","020921,1,9,9","+0240,1","+0170,1","10118,1",,"07,1,+07315,1,02,1",,,"9,AGL   ,+99999,+99999","99,99,9,07,1,99,9,07315,1,99,9,99,9","10122,1,99999,9","7,1,003,1,+999,9",,"MET078METAR MMMZ 012344Z 31005KT 13SM BKN240 24/17 A2989 RMK SLP118 57003 902 8/008=",
"76459399999","2025-01-02T00:44:00","4","23.161356","-106.266072","11.58","GENERAL RAFAEL BUELNA INTERNATIONAL, MX","FM-15","99999","V020","300,1,N,0021,1","99999,9,9,N","016093,1,9,9","+0220,1","+0170,1","99999,9",,"04,1,+07315,1,00,1",,,"9,AGL   ,+99999,+99999","99,99,9,04,1,99,9,07315,1,99,9,99,9","10129,1,99999,9",,,"MET061METAR MMMZ 020044Z 30004KT 10SM SCT240 22/17 A2991 RMK 8/002=",
"76459399999","2025-01-02T01:43:00","4","23.161356","-106.266072","11.58","GENERAL RAFAEL BUELNA INTERNATIONAL, MX","FM-15","99999","V020","999,9,C,0000,1","99999,9,9,N","016093,1,9,9","+0200,1","+0160,1","99999,9",,"02,1,+07315,1,00,1",,,"9,AGL   ,+99999,+99999","99,99,9,02,1,99,9,07315,1,99,9,99,9","10139,1,99999,9",,,"MET061METAR MMMZ 020143Z 00000KT 10SM FEW240 20/16 A2994 RMK 8/002=",
"76459399999","2025-01-02T02:43:00","4","23.161356","-106.266072","11.58","GENERAL RAFAEL BUELNA INTERNATIONAL, MX","FM-15","99999","V020","999,9,C,0000,1","99999,9,9,N","016093,1,9,9","+0180,1","+0150,1","10141,1",,"02,1,+07315,1,00,1",,,"9,AGL   ,+99999,+99999","99,99,9,02,1,99,9,07315,1,99,9,99,9","10146,1,99999,9","2,1,020,1,+999,9",,"MET078METAR MMMZ 020243Z 00000KT 10SM FEW240 18/15 A2996 RMK SLP141 52020 914 8/002=",
"76459399999","2025-01-02T03:40:00","4","23.161356","-106.266072","11.58","GENERAL RAFAEL BUELNA INTERNATIONAL, MX","FM-15","99999","V020","999,9,C,0000,1","99999,9,9,N","016093,1,9,9","+0160,1","+0160,1","99999,9",,"02,1,+07315,1,00,1",,,"9,AGL   ,+99999,+99999","99,99,9,02,1,99,9,07315,1,99,9,99,9","10152,1,99999,9",,,"MET061METAR MMMZ 020340Z 00000KT 10SM FEW240 16/16 A2998 RMK 8/002=",
"76459399999","2025-01-02T04:50:00","4","23.161356","-106.266072","11.58","GENERAL RAFAEL BUELNA INTERNATIONAL, MX","FM-15","99999","V020","999,9,C,0000,1","99999,9,9,N","016093,1,9,9","+0150,1","+0150,1","99999,9",,"02,1,+07315,1,00,1",,,"9,AGL   ,+99999,+99999","99,99,9,02,1,99,9,07315,1,99,9,99,9","10159,1,99999,9",,,"MET065METAR MMMZ 020450Z 00000KT 10SM FEW240 15/15 A3000 RMK 8/002 HZY=",
"76459399999","2025-01-02T05:46:00","4","23.161356","-106.266072","11.58","GENERAL RAFAEL BUELNA INTERNATIONAL, MX","FM-15","99999","V020","999,9,C,0000,1","99999,9,9,N","016093,1,9,9","+0150,1","+0140,1","10154,1",,"02,1,+07315,1,00,1",,,"9,AGL   ,+99999,+99999","99,99,9,02,1,99,9,07315,1,99,9,99,9","10159,1,99999,9","2,1,013,1,+999,9",,"MET082METAR MMMZ 020546Z 00000KT 10SM FEW240 15/14 A3000 RMK SLP154 52013 914 8/002 HZY=",
"76459399999","2025-01-02T06:40:00","4","23.161356","-106.266072","11.58","GENERAL RAFAEL BUELNA INTERNATIONAL, MX","FM-15","99999","V020","040,1,N,0021,1","22000,1,9,N","012875,1,9,9","+0150,1","+0140,1","99999,9",,,,,,"00,99,1,99,9,99,9,99999,9,99,9,99,9","10159,1,99999,9",,,"MET063METAR MMMZ 020640Z 04004KT 8SM SKC 15/14 A3000 RMK HZY ISOL CI=",
"76459399999","2025-01-02T07:46:00","4","23.161356","-106.266072","11.58","GENERAL RAFAEL BUELNA INTERNATIONAL, MX","FM-15","99999","V020","999,9,C,0000,1","22000,1,9,N","012875,1,9,9","+0140,1","+0130,1","99999,9",,,,,,"00,99,1,99,9,99,9,99999,9,99,9,99,9","10159,1,99999,9",,,"MET055METAR MMMZ 020746Z 00000KT 8SM SKC 14/13 A3000 RMK HZY=",
"76459399999","2025-01-02T08:45:00","4","23.161356","-106.266072","11.58","GENERAL RAFAEL BUELNA INTERNATIONAL, MX","FM-15","99999","V020","999,9,C,0000,1","22000,1,9,N","012875,1,9,9","+0140,1","+0130,1","10140,1",,,,,,"00,99,1,99,9,99,9,99999,9,99,9,99,9","10152,1,99999,9","7,1,007,1,+999,9",,"MET072METAR MMMZ 020845Z 00000KT 8SM SKC 14/13 A2998 RMK SLP140 57007 909 HZY=",
"76459399999","2025-01-02T09:40:00","4","23.161356","-106.266072","11.58","GENERAL RAFAEL BUELNA INTERNATIONAL, MX","FM-15","99999","V020","999,9,C,0000,1","22000,1,9,N","012875,1,9,9","+0140,1","+0130,1","99999,9",,,,,,"00,99,1,99,9,99,9,99999,9,99,9,99,9","10152,1,99999,9",,,"MET055METAR MMMZ 020940Z 00000KT 8SM SKC 14/13 A2998 RMK HZY=",
"76459399999","2025-01-02T10:40:00","4","23.161356","-106.266072","11.58","GENERAL RAFAEL BUELNA INTERNATIONAL, MX","FM-15","99999","V020","050,1,N,0021,1","99999,9,9,N","012875,1,9,9","+0130,1","+0130,1","99999,9",,"04,1,+07315,1,00,1",,,"9,AGL   ,+99999,+99999","99,99,9,04,1,99,9,07315,1,99,9,99,9","10142,1,99999,9",,,"MET064METAR MMMZ 021040Z 05004KT 8SM SCT240 13/13 A2995 RMK 8/002 HZY=",
"76459399999","2025-01-02T11:42:00","4","23.161356","-106.266072","11.58","GENERAL RAFAEL BUELNA INTERNATIONAL, MX","FM-15","99999","V020","999,9,C,0000,1","99999,9,9,N","016093,1,9,9","+0130,1","+0120,1","10138,1",,"04,1,+07315,1,00,1",,,"9,AGL   ,+99999,+99999","99,99,9,04,1,99,9,07315,1,99,9,99,9","10142,1,99999,9","7,1,010,1,+999,9",,"MET078METAR MMMZ 021142Z 00000KT 10SM SCT240 13/12 A2995 RMK SLP138 57010 901 8/002=",
"76459399999","2025-01-02T12:48:00","4","23.161356","-106.266072","11.58","GENERAL RAFAEL BUELNA INTERNATIONAL, MX","FM-15","99999","V020","999,9,C,0000,1","99999,9,9,N","016093,1,9,9","+0130,1","+0120,1","99999,9",,"04,1,+07315,1,00,1",,,"9,AGL   ,+99999,+99999","99,99,9,04,1,99,9,07315,1,99,9,99,9","10146,1,99999,9",,,"MET061METAR MMMZ 021248Z 00000KT 10SM SCT240 13/12 A2996 RMK 8/002=",
"76459399999","2025-01-02T13:43:00","4","23.161356","-106.266072","11.58","GENERAL RAFAEL BUELNA INTERNATIONAL, MX","FM-15","99999","V020","050,1,N,0021,1","07315,1,C,N","019312,1,9,9","+0140,1","+0130,1","99999,9",,"07,1,+07315,1,00,1",,,"9,AGL   ,+99999,+99999","99,99,9,07,1,99,9,07315,1,99,9,99,9","10149,1,99999,9",,,"MET061METAR MMMZ 021343Z 05004KT 12SM BKN240 14/13 A2997 RMK 8/002=",
"76459399999","2025-01-02T14:43:00","4","23.161356","-106.266072","11.58","GENERAL RAFAEL BUELNA INTERNATIONAL, MX","FM-15","99999","V020","040,1,N,0026,1","07315,1,C,N","019312,1,9,9","+0150,1","+0130,1","10155,1",,"07,1,+07315,1,00,1",,,"9,AGL   ,+99999,+99999","99,99,9,07,1,99,9,07315,1,99,9,99,9","10156,1,99999,9","2,1,003,1,+999,9",,"MET082METAR MMMZ 021443Z 04005KT 12SM BKN240 15/13 A2999 RMK SLP155 52003 914 8/002 HZY=",
"76459399999","2025-01-02T15:40:00","4","23.161356","-106.266072","11.58","GENERAL RAFAEL BUELNA INTERNATIONAL, MX","FM-15","99999","V020","040,1,N,0026,1","99999,9,9,N","022531,1,9,9","+0200,1","+0140,1","99999,9",,"04,1,+07315,1,00,1",,,"9,AGL   ,+99999,+99999","99,99,9,04,1,99,9,07315,1,99,9,99,9","10163,1,99999,9",,,"MET061METAR MMMZ 021540Z 04005KT 14SM SCT240 20/14 A3001 RMK 8/002=",
"76459399999","2025-01-02T16:43:00","4","23.161356","-106.266072","11.58","GENERAL RAFAEL BUELNA INTERNATIONAL, MX","FM-15","99999","V020","999,9,C,0000,1","99999,9,9,N","022531,1,9,9","+0240,1","+0140,1","99999,9",,"04,1,+07315,1,00,1",,,"9,AGL   ,+99999,+99999","99,99,9,04,1,99,9,07315,1,99,9,99,9","10163,1,99999,9",,,"MET061METAR MMMZ 021643Z 00000KT 14SM SCT240 24/14 A3001 RMK 8/002=",
"76459399999","2025-01-02T17:40:00","4","23.161356","-106.266072","11.58","GENERAL RAFAEL BUELNA INTERNATIONAL, MX","FM-15","99999","V020","999,9,C,0000,1","07315,1,C,N","022531,1,9,9","+0270,1","+0160,1","10155,1",,"07,1,+07315,1,00,1",,,"9,AGL   ,+99999,+99999","99,99,9,07,1,99,9,07315,1,99,9,99,9","10159,1,99999,9","2,1,003,1,+999,9",,"MET086METAR MMMZ 021740Z 00000KT 14SM BKN240 27/16 A3000 RMK SLP155 52003 902 8/002 ISOL AC=",
"76459399999","2025-01-02T18:40:00","4","23.161356","-106.266072","11.58","GENERAL RAFAEL BUELNA INTERNATIONAL, MX","FM-15","99999","V020","310,1,N,0046,1","07315,1,9,N","024140,1,9,9","+0270,1","+0150,1","99999,9",,"02,1,+03048,1,03,1","07,1,+07315,1,00,1",,"9,AGL   ,+99999,+99999","99,99,9,02,1,99,9,03048,1,99,9,99,9","10156,1,99999,9",,,"MET068METAR MMMZ 021840Z 31009KT 15SM FEW100 BKN240 27/15 A2999 RMK 8/032=",
"76459399999","2025-01-02T19:52:00","4","23.161356","-106.266072","11.58","GENERAL RAFAEL BUELNA INTERNATIONAL, MX","FM-15","99999","V020","290,1,N,0036,1","07315,1,9,N","024140,1,9,9","+0270,1","+0160,1","99999,9",,"02,1,+03048,1,03,1","07,1,+07315,1,00,1",,"9,AGL   ,+99999,+99999","99,99,9,02,1,99,9,03048,1,99,9,99,9","10142,1,99999,9",,,"MET068METAR MMMZ 021952Z 29007KT 15SM FEW100 BKN240 27/16 A2995 RMK 8/032=",
"76459399999","2025-01-02T20:43:00","4","23.161356","-106.266072","11.58","GENERAL RAFAEL BUELNA INTERNATIONAL, MX","FM-15","99999","V020","280,1,N,0031,1","07315,1,9,N","024140,1,9,9","+0290,1","+0160,1","10138,1",,"02,1,+03048,1,03,1","07,1,+07315,1,00,1",,"9,AGL   ,+99999,+99999","99,99,9,02,1,99,9,03048,1,99,9,99,9","10139,1,99999,9","7,1,023,1,+999,9",,"MET085METAR MMMZ 022043Z 28006KT 15SM FEW100 BKN240 29/16 A2994 RMK SLP138 57023 913 8/032=",
"76459399999","2025-01-02T21:49:00","4","23.161356","-106.266072","11.58","GENERAL RAFAEL BUELNA INTERNATIONAL, MX","FM-15","99999","V020","300,1,N,0051,1","07315,1,9,N","022531,1,9,9","+0270,1","+0160,1","99999,9",,"02,1,+03048,1,03,1","07,1,+07315,1,00,1",,"9,AGL   ,+99999,+99999","99,99,9,02,1,99,9,03048,1,99,9,99,9","10135,1,99999,9",,,"MET072METAR MMMZ 022149Z 30010KT 14SM FEW100 BKN240 27/16 A2993 RMK 8/032 HZY=",
"76459399999","2025-01-02T22:42:00","4","23.161356","-106.266072","11.58","GENERAL RAFAEL BUELNA INTERNATIONAL, MX","FM-15","99999","V020","310,1,N,0036,1","07315,1,9,N","022531,1,9,9","+0260,1","+0170,1","99999,9",,"04,1,+03048,1,03,1","07,1,+07315,1,00,1",,"9,AGL   ,+99999,+99999","99,99,9,04,1,99,9,03048,1,99,9,99,9","10132,1,99999,9",,,"MET072METAR MMMZ 022242Z 31007KT 14SM SCT100 BKN240 26/17 A2992 RMK 8/032 HZY=",
"76459399999","2025-01-02T23:49:00","4","23.161356","-106.266072","11.58","GENERAL RAFAEL BUELNA INTERNATIONAL, MX","FM-15","99999","V020","999,9,C,0000,1","07315,1,9,N","019312,1,9,9","+0240,1","+0180,1","10144,1",,"04,1,+03048,1,03,1","07,1,+07315,1,00,1",,"9,AGL   ,+99999,+99999","99,99,9,04,1,99,9,03048,1,99,9,99,9","10135,1,99999,9","7,1,003,1,+999,9",,"MET089METAR MMMZ 022349Z 00000KT 12SM SCT100 BKN240 24/18 A2993 RMK SLP144 57003 926 8/032 HZY=",
"76459399999","2025-01-03T00:47:00","4","23.161356","-106.266072","11.58","GENERAL RAFAEL BUELNA INTERNATIONAL, MX","FM-15","99999","V020","999,9,C,0000,1","07315,1,9,N","017703,1,9,9","+0220,1","+0180,1","99999,9",,"04,1,+03048,1,03,1","07,1,+07315,1,00,1",,"9,AGL   ,+99999,+99999","99,99,9,04,1,99,9,03048,1,99,9,99,9","10142,1,99999,9",,,"MET072METAR MMMZ 030047Z 00000KT 11SM SCT100 BKN240 22/18 A2995 RMK 8/072 HZY=",
"76459399999","2025-01-03T01:42:00","4","23.161356","-106.266072","11.58","GENERAL RAFAEL BUELNA INTERNATIONAL, MX","FM-15","99999","V020","999,9,C,0000,1","07315,1,9,N","016093,1,9,9","+0200,1","+0160,1","99999,9",,"02,1,+03048,1,03,1","07,1,+07315,1,00,1",,"9,AGL   ,+99999,+99999","99,99,9,02,1,99,9,03048,1,99,9,99,9","10146,1,99999,9",,,"MET072METAR MMMZ 030142Z 00000KT 10SM FEW100 BKN240 20/16 A2996 RMK 8/072 HZY=",
"76459399999","2025-01-03T02:43:00","4","23.161356","-106.266072","11.58","GENERAL RAFAEL BUELNA INTERNATIONAL, MX","FM-15","99999","V020","999,9,C,0000,1","07315,1,9,N","016093,1,9,9","+0190,1","+0150,1","10148,1",,"02,1,+03048,1,03,1","07,1,+07315,1,00,1",,"9,AGL   ,+99999,+99999","99,99,9,02,1,99,9,03048,1,99,9,99,9","10149,1,99999,9","2,1,013,1,+999,9",,"MET089METAR MMMZ 030243Z 00000KT 10SM FEW100 BKN240 19/15 A2997 RMK SLP148 52013 906 8/072 HZY=",
"76459399999","2025-01-03T03:42:00","4","23.161356","-106.266072","11.58","GENERAL RAFAEL BUELNA INTERNATIONAL, MX","FM-15","99999","V020","240,1,N,0015,1","07315,1,9,N","016093,1,9,9","+0190,1","+0180,1","99999,9",,"02,1,+03048,1,03,1","07,1,+07315,1,00,1",,"9,AGL   ,+99999,+99999","99,99,9,02,1,99,9,03048,1,99,9,99,9","10152,1,99999,9",,,"MET072METAR MMMZ 030342Z 24003KT 10SM FEW100 BKN240 19/18 A2998 RMK 8/032 HZY=",
"76459399999","2025-01-03T04:42:00","4","23.161356","-106.266072","11.58","GENERAL RAFAEL BUELNA INTERNATIONAL, MX","FM-15","99999","V020","999,9,C,0000,1","07315,1,9,N","016093,1,9,9","+0180,1","+0180,1","99999,9",,"04,1,+03048,1,03,1","07,1,+07315,1,00,1",,"9,AGL   ,+99999,+99999","99,99,9,04,1,99,9,03048,1,99,9,99,9","10156,1,99999,9",,,"MET072METAR MMMZ 030442Z 00000KT 10SM SCT100 BKN240 18/18 A2999 RMK 8/032 HZY=",
"76459399999","2025-01-03T05:47:00","4","23.161356","-106.266072","11.58","GENERAL RAFAEL BUELNA INTERNATIONAL, MX","FM-15","99999","V020","999,9,C,0000,1","07315,1,9,N","016093,1,9,9","+0160,1","+0160,1","10168,1",,"04,1,+03048,1,03,1","07,1,+07315,1,00,1",,"9,AGL   ,+99999,+99999","99,99,9,04,1,99,9,03048,1,99,9,99,9","10159,1,99999,9","2,1,010,1,+999,9",,"MET089METAR MMMZ 030547Z 00000KT 10SM SCT100 BKN240 16/16 A3000 RMK SLP168 52010 914 8/032 HZY=",
"76459399999","2025-01-03T06:40:00","4","23.161356","-106.266072","11.58","GENERAL RAFAEL BUELNA INTERNATIONAL, MX","FM-15","99999","V020","999,9,C,0000,1","07315,1,9,N","016093,1,9,9","+0150,1","+0140,1","99999,9",,"04,1,+03048,1,03,1","07,1,+07315,1,00,1",,"9,AGL   ,+99999,+99999","99,99,9,04,1,99,9,03048,1,99,9,99,9","10159,1,99999,9",,,"MET080METAR MMMZ 030640Z 00000KT 10SM SCT100 BKN240 15/14 A3000 RMK 8/032 ISOL SC HZY=",
"76459399999","2025-01-03T07:43:00","4","23.161356","-106.266072","11.58","GENERAL RAFAEL BUELNA INTERNATIONAL, MX","FM-15","99999","V020","999,9,C,0000,1","07315,1,C,N","016093,1,9,9","+0150,1","+0140,1","99999,9",,"02,1,+03048,1,03,1","04,1,+07315,1,00,1",,"9,AGL   ,+99999,+99999","99,99,9,02,1,99,9,03048,1,99,9,99,9","10163,1,99999,9",,,"MET080METAR MMMZ 030743Z 00000KT 10SM FEW100 SCT240 15/14 A3001 RMK 8/032 ISOL SC HZY=",
"76459399999","2025-01-03T08:42:00","4","23.161356","-106.266072","11.58","GENERAL RAFAEL BUELNA INTERNATIONAL, MX","FM-15","99999","V020","999,9,C,0000,1","99999,9,9,N","016093,1,9,9","+0150,1","+0140,1","10162,1",,"02,1,+03048,1,03,1","02,1,+07315,1,00,1",,"9,AGL   ,+99999,+99999","99,99,9,02,1,99,9,03048,1,99,9,99,9","10163,1,99999,9","2,1,003,1,+999,9",,"MET089METAR MMMZ 030842Z 00000KT 10SM FEW100 FEW240 15/14 A3001 RMK SLP162 52003 922 8/032 HZY=",
"76459399999","2025-01-03T09:40:00","4","23.161356","-106.266072","11.58","GENERAL RAFAEL BUELNA INTERNATIONAL, MX","FM-15","99999","V020","999,9,C,0000,1","99999,9,9,N","016093,1,9,9","+0140,1","+0130,1","99999,9",,"02,1,+03048,1,03,1","02,1,+07315,1,00,1",,"9,AGL   ,+99999,+99999","99,99,9,02,1,99,9,03048,1,99,9,99,9","10163,1,99999,9",,,"MET072METAR MMMZ 030940Z 00000KT 10SM FEW100 FEW240 14/13 A3001 RMK 8/032 HZY=",
"76459399999","2025-01-03T10:40:00","4","23.161356","-106.266072","11.58","GENERAL RAFAEL BUELNA INTERNATIONAL, MX","FM-15","99999","V020","050,1,N,0021,1","99999,9,9,N","016093,1,9,9","+0140,1","+0130,1","99999,9",,"02,1,+03048,1,03,1","02,1,+07315,1,00,1",,"9,AGL   ,+99999,+99999","99,99,9,02,1,99,9,03048,1,99,9,99,9","10159,1,99999,9",,,"MET072METAR MMMZ 031040Z 05004KT 10SM FEW100 FEW240 14/13 A3000 RMK 8/032 HZY=",
"76459399999","2025-01-03T11:44:00","4","23.161356","-106.266072","11.58","GENERAL RAFAEL BUELNA INTERNATIONAL, MX","FM-15","99999","V020","999,9,C,0000,1","99999,9,9,N","016093,1,9,9","+0140,1","+0130,1","10171,1",,"02,1,+03048,1,03,1","02,1,+07315,1,00,1",,"9,AGL   ,+99999,+99999","99,99,9,02,1,99,9,03048,1,99,9,99,9","10163,1,99999,9","4,1,000,1,+999,9",,"MET089METAR MMMZ 031144Z 00000KT 10SM FEW100 FEW240 14/13 A3001 RMK SLP171 54000 933 8/032 HZY=",
"76459399999","2025-01-03T12:40:00","4","23.161356","-106.266072","11.58","GENERAL RAFAEL BUELNA INTERNATIONAL, MX","FM-15","99999","V020","060,1,N,0021,1","99999,9,9,N","016093,1,9,9","+0140,1","+0120,1","99999,9",,"04,1,+07315,1,00,1",,,"9,AGL   ,+99999,+99999","99,99,9,04,1,99,9,07315,1,99,9,99,9","10166,1,99999,9",,,"MET073METAR MMMZ 031240Z 06004KT 10SM SCT240 14/12 A3002 RMK 8/002 ISOL AC HZY=",
"76459399999","2025-01-03T13:48:00","4","23.161356","-106.266072","11.58","GENERAL RAFAEL BUELNA INTERNATIONAL, MX","FM-15","99999","V020","999,9,C,0000,1","07315,1,C,N","019312,1,9,9","+0140,1","+0130,1","99999,9",,"07,1,+07315,1,00,1",,,"9,AGL   ,+99999,+99999","99,99,9,07,1,99,9,07315,1,99,9,99,9","10169,1,99999,9",,,"MET073METAR MMMZ 031348Z 00000KT 12SM BKN240 14/13 A3003 RMK 8/002 ISOL AC HZY=",
"76459399999","2025-01-03T14:41:00","4","23.161356","-106.266072","11.58","GENERAL RAFAEL BUELNA INTERNATIONAL, MX","FM-15","99999","V020","050,1,N,0026,1","07315,1,C,N","016093,1,9,9","+0150,1","+0130,1","10172,1",,"07,1,+07315,1,02,1",,,"9,AGL   ,+99999,+99999","99,99,9,07,1,99,9,07315,1,99,9,99,9","10173,1,99999,9","2,1,010,1,+999,9",,"MET078METAR MMMZ 031441Z 05005KT 10SM BKN240 15/13 A3004 RMK SLP172 52010 917 8/008=",
"76459399999","2025-01-03T15:41:00","4","23.161356","-106.266072","11.58","GENERAL RAFAEL BUELNA INTERNATIONAL, MX","FM-15","99999","V020","999,9,C,0000,1","07315,1,C,N","016093,1,9,9","+0200,1","+0150,1","99999,9",,"07,1,+07315,1,02,1",,,"9,AGL   ,+99999,+99999","99,99,9,07,1,99,9,07315,1,99,9,99,9","10183,1,99999,9",,,"MET061METAR MMMZ 031541Z 00000KT 10SM BKN240 20/15 A3007 RMK 8/008=",
"76459399999","2025-01-03T16:41:00","4","23.161356","-106.266072","11.58","GENERAL RAFAEL BUELNA INTERNATIONAL, MX","FM-15","99999","V020","100,1,N,0010,1","99999,9,9,N","016093,1,9,9","+0230,1","+0170,1","99999,9",,"04,1,+07315,1,00,1",,,"9,AGL   ,+99999,+99999","99,99,9,04,1,99,9,07315,1,99,9,99,9","10186,1,99999,9",,,"MET061METAR MMMZ 031641Z 10002KT 10SM SCT240 23/17 A3008 RMK 8/002=",
"76459399999","2025-01-03T17:41:00","4","23.161356","-106.266072","11.58","GENERAL RAFAEL BUELNA INTERNATIONAL, MX","FM-15","99999","V020","300,1,N,0010,1","99999,9,9,N","019312,1,9,9","+0260,1","+0180,1","10180,1",,"04,1,+07315,1,00,1",,,"9,AGL   ,+99999,+99999","99,99,9,04,1,99,9,07315,1,99,9,99,9","10186,1,99999,9","2,1,013,1,+999,9",,"MET078METAR MMMZ 031741Z 30002KT 12SM SCT240 26/18 A3008 RMK SLP180 52013 925 8/002=",
"76459399999","2025-01-03T18:47:00","4","23.161356","-106.266072","11.58","GENERAL RAFAEL BUELNA INTERNATIONAL, MX","FM-15","99999","V020","210,1,N,0031,1","99999,9,9,N","019312,1,9,9","+0270,1","+0170,1","99999,9",,"04,1,+07315,1,00,1",,,"9,AGL   ,+99999,+99999","99,99,9,04,1,99,9,07315,1,99,9,99,9","10173,1,99999,9",,,"MET061METAR MMMZ 031847Z 21006KT 12SM SCT240 27/17 A3004 RMK 8/002=",
"76459399999","2025-01-03T19:45:00","4","23.161356","-106.266072","11.58","GENERAL RAFAEL BUELNA INTERNATIONAL, MX","FM-15","99999","V020","250,1,N,0026,1","99999,9,9,N","019312,1,9,9","+0270,1","+0170,1","99999,9",,"04,1,+07315,1,00,1",,,"9,AGL   ,+99999,+99999","99,99,9,04,1,99,9,07315,1,99,9,99,9","10156,1,99999,9",,,"MET061METAR MMMZ 031945Z 25005KT 12SM SCT240 27/17 A2999 RMK 8/002=",
"76459399999","2025-01-03T20:46:00","4","23.161356","-106.266072","11.58","GENERAL RAFAEL BUELNA INTERNATIONAL, MX","FM-15","99999","V020","270,1,N,0031,1","07315,1,C,N","019312,1,9,9","+0270,1","+0180,1","10145,1",,"07,1,+07315,1,02,1",,,"9,AGL   ,+99999,+99999","99,99,9,07,1,99,9,07315,1,99,9,99,9","10146,1,99999,9","7,1,040,1,+999,9",,"MET078METAR MMMZ 032046Z 27006KT 12SM BKN240 27/18 A2996 RMK SLP145 57040 960 8/008=",
"76459399999","2025-01-03T21:43:00","4","23.161356","-106.266072","11.58","GENERAL RAFAEL BUELNA INTERNATIONAL, MX","FM-15","99999","V020","300,1,N,0031,1","07315,1,C,N","016093,1,9,9","+0270,1","+0170,1","99999,9",,"02,1,+03048,1,03,1","04,1,+07315,1,00,1",,"9,AGL   ,+99999,+99999","99,99,9,02,1,99,9,03048,1,99,9,99,9","10142,1,99999,9",,,"MET068METAR MMMZ 032143Z 30006KT 10SM FEW100 SCT240 27/17 A2995 RMK 8/032=",
"76459399999","2025-01-03T22:42:00","4","23.161356","-106.266072","11.58","GENERAL RAFAEL BUELNA INTERNATIONAL, MX","FM-15","99999","V020","300,1,N,0026,1","07315,1,C,N","020921,1,9,9","+0250,1","+0190,1","99999,9",,"02,1,+03048,1,03,1","04,1,+07315,1,00,1",,"9,AGL   ,+99999,+99999","99,99,9,02,1,99,9,03048,1,99,9,99,9","10142,1,99999,9",,,"MET076METAR MMMZ 032242Z 30005KT 13SM FEW100 SCT240 25/19 A2995 RMK 8/032 ISOL CU=",
"76459399999","2025-01-03T23:40:00","4","23.161356","-106.266072","11.58","GENERAL RAFAEL BUELNA INTERNATIONAL, MX","FM-15","99999","V020","300,1,N,0041,1","07315,1,9,N","020921,1,9,9","+0240,1","+0190,1","10139,1",,"04,1,+03048,1,03,1","07,1,+07315,1,00,1",,"9,AGL   ,+99999,+99999","99,99,9,04,1,99,9,03048,1,99,9,99,9","10142,1,99999,9","7,1,003,1,+999,9",,"MET085METAR MMMZ 032340Z 30008KT 13SM SCT100 BKN240 24/19 A2995 RMK SLP139 57003 955 8/032=",
"76459399999","2025-01-04T00:44:00","4","23.161356","-106.266072","11.58","GENERAL RAFAEL BUELNA INTERNATIONAL, MX","FM-15","99999","V020","999,9,C,0000,1","07620,1,C,N","019312,1,9,9","+0220,1","+0180,1","99999,9",,"02,1,+03048,1,03,1","04,1,+07620,1,00,1",,"9,AGL   ,+99999,+99999","99,99,9,02,1,99,9,03048,1,99,9,99,9","10146,1,99999,9",,,"MET068METAR MMMZ 040044Z 00000KT 12SM FEW100 SCT250 22/18 A2996 RMK 8/032=",
"76459399999","2025-01-04T01:45:00","4","23.161356","-106.266072","11.58","GENERAL RAFAEL BUELNA INTERNATIONAL, MX","FM-15","99999","V020","999,9,C,0000,1","99999,9,9,N","016093,1,9,9","+0200,1","+0180,1","99999,9",,"02,1,+03048,1,03,1","02,1,+07620,1,00,1",,"9,AGL   ,+99999,+99999","99,99,9,02,1,99,9,03048,1,99,9,99,9","10149,1,99999,9",,,"MET068METAR MMMZ 040145Z 00000KT 10SM FEW100 FEW250 20/18 A2997 RMK 8/032=",
"76459399999","2025-01-04T02:43:00","4","23.161356","-106.266072","11.58","GENERAL RAFAEL BUELNA INTERNATIONAL, MX","FM-15","99999","V020","999,9,C,0000,1","22000,1,9,N","016093,1,9,9","+0200,1","+0180,1","10139,1",,,,,,"00,99,1,99,9,99,9,99999,9,99,9,99,9","10152,1,99999,9","2,1,010,1,+999,9",,"MET077METAR MMMZ 040243Z 00000KT 10SM SKC 20/18 A2998 RMK SLP139 52010 954 ISOL CI=",
"76459399999","2025-01-04T03:43:00","4","23.161356","-106.266072","11.58","GENERAL RAFAEL BUELNA INTERNATIONAL, MX","FM-15","99999","V020","999,9,C,0000,1","99999,9,9,N","016093,1,9,9","+0170,1","+0170,1","99999,9",,"02,1,+03048,1,03,1","02,1,+07620,1,00,1",,"9,AGL   ,+99999,+99999","99,99,9,02,1,99,9,03048,1,99,9,99,9","10156,1,99999,9",,,"MET068METAR MMMZ 040343Z 00000KT 10SM FEW100 FEW250 17/17 A2999 RMK 8/032=",
"76459399999","2025-01-04T04:41:00","4","23.161356","-106.266072","11.58","GENERAL RAFAEL BUELNA INTERNATIONAL, MX","FM-15","99999","V020","999,9,C,0000,1","07620,1,C,N","016093,1,9,9","+0170,1","+0150,1","99999,9",,"02,1,+03048,1,03,1","04,1,+07620,1,00,1",,"9,AGL   ,+99999,+99999","99,99,9,02,1,99,9,03048,1,99,9,99,9","10163,1,99999,9",,,"MET068METAR MMMZ 040441Z 00000KT 10SM FEW100 SCT250 17/15 A3001 RMK 8/032=",
"76459399999","2025-01-04T05:42:00","4","23.161356","-106.266072","11.58","GENERAL RAFAEL BUELNA INTERNATIONAL, MX","FM-15","99999","V020","999,9,C,0000,1","07315,1,C,N","016093,1,9,9","+0170,1","+0160,1","10157,1",,"04,1,+03048,1,03,1","04,1,+07315,1,00,1",,"9,AGL   ,+99999,+99999","99,99,9,04,1,99,9,03048,1,99,9,99,9","10163,1,99999,9","2,1,010,1,+999,9",,"MET085METAR MMMZ 040542Z 00000KT 10SM SCT100 SCT240 17/16 A3001 RMK SLP157 52010 961 8/032=",
"76459399999","2025-01-04T06:41:00","4","23.161356","-106.266072","11.58","GENERAL RAFAEL BUELNA INTERNATIONAL, MX","FM-15","99999","V020","999,9,C,0000,1","07315,1,C,N","012875,1,9,9","+0160,1","+0160,1","99999,9",,"04,1,+03048,1,03,1","04,1,+07315,1,00,1",,"9,AGL   ,+99999,+99999","99,99,9,04,1,99,9,03048,1,99,9,99,9","10163,1,99999,9",,,"MET071METAR MMMZ 040641Z 00000KT 8SM SCT100 SCT240 16/16 A3001 RMK 8/032 HZY=",
"76459399999","2025-01-04T07:40:00","4","23.161356","-106.266072","11.58","GENERAL RAFAEL BUELNA INTERNATIONAL, MX","FM-15","99999","V020","999,9,C,0000,1","07315,1,C,N","012875,1,9,9","+0160,1","+0150,1","99999,9",,"02,1,+03048,1,03,1","04,1,+07315,1,00,1",,"9,AGL   ,+99999,+99999","99,99,9,02,1,99,9,03048,1,99,9,99,9","10163,1,99999,9",,,"MET071METAR MMMZ 040740Z 00000KT 8SM FEW100 SCT240 16/15 A3001 RMK 8/032 HZY=",
"76459399999","2025-01-04T08:41:00","4","23.161356","-106.266072","11.58","GENERAL RAFAEL BUELNA INTERNATIONAL, MX","FM-15","99999","V020","999,9,C,0000,1","99999,9,9,N","012875,1,9,9","+0150,1","+0140,1","10149,1",,"02,1,+07315,1,00,1",,,"9,AGL   ,+99999,+99999","99,99,9,02,1,99,9,07315,1,99,9,99,9","10163,1,99999,9","4,1,000,1,+999,9",,"MET077METAR MMMZ 040841Z 00000KT 8SM FEW240 15/14 A3001 RMK SLP149 54000 963 8/002=",
"76459399999","2025-01-04T09:42:00","4","23.161356","-106.266072","11.58","GENERAL RAFAEL BUELNA INTERNATIONAL, MX","FM-15","99999","V020","040,1,N,0026,1","22000,1,9,N","012875,1,9,9","+0150,1","+0150,1","99999,9",,,,,,"00,99,1,99,9,99,9,99999,9,99,9,99,9","10163,1,99999,9",,,"MET069METAR MMMZ 040942Z 04005KT 8SM SKC 15/15 A3001 RMK HZY BCFG 2ND QUAD=",
"76459399999","2025-01-04T10:40:00","4","23.161356","-106.266072","11.58","GENERAL RAFAEL BUELNA INTERNATIONAL, MX","FM-15","99999","V020","999,9,C,0000,1","22000,1,9,N","012875,1,9,9","+0150,1","+0150,1","99999,9",,,,,,"00,99,1,99,9,99,9,99999,9,99,9,99,9","10159,1,99999,9",,,"MET055METAR MMMZ 041040Z 00000KT 8SM SKC 15/15 A3000 RMK HZY=",
"76459399999","2025-01-04T11:44:00","4","23.161356","-106.266072","11.58","GENERAL RAFAEL BUELNA INTERNATIONAL, MX","FM-15","99999","V020","999,9,C,0000,1","99999,9,9,N","012875,1,9,9","+0150,1","+0140,1","10159,1",,"04,1,+00549,1,06,1",,,"9,AGL   ,+99999,+99999","99,99,9,04,1,99,9,00549,1,99,9,99,9","10163,1,99999,9","4,1,000,1,+999,9",,"MET081METAR MMMZ 041144Z 00000KT 8SM SCT018 15/14 A3001 RMK SLP159 54000 962 8/500 HZY=",
"76459399999","2025-01-04T12:41:00","4","23.161356","-106.266072","11.58","GENERAL RAFAEL BUELNA INTERNATIONAL, MX","FM-15","99999","V020","050,1,N,0021,1","99999,9,9,N","016093,1,9,9","+0150,1","+0140,1","99999,9",,"02,1,+00549,1,06,1",,,"9,AGL   ,+99999,+99999","99,99,9,02,1,99,9,00549,1,99,9,99,9","10163,1,99999,9",,,"MET065METAR MMMZ 041241Z 05004KT 10SM FEW018 15/14 A3001 RMK 8/500 HZY=",
"76459399999","2025-01-04T13:48:00","4","23.161356","-106.266072","11.58","GENERAL RAFAEL BUELNA INTERNATIONAL, MX","FM-15","99999","V020","999,9,C,0000,1","99999,9,9,N","011265,1,9,9","+0150,1","+0140,1","99999,9",,"02,1,+07620,1,00,1",,,"9,AGL   ,+99999,+99999","99,99,9,02,1,99,9,07620,1,99,9,99,9","10166,1,99999,9",,"40,1","MET069METAR MMMZ 041348Z 00000KT 7SM VCFG FEW250 15/14 A3002 RMK 8/002 HZY=",
"76459399999","2025-01-04T14:41:00","4","23.161356","-106.266072","11.58","GENERAL RAFAEL BUELNA INTERNATIONAL, MX","FM-15","99999","V020","999,9,C,0000,1","99999,9,9,N","011265,1,9,9","+0160,1","+0150,1","10172,1",,"02,1,+07315,1,00,1",,,"9,AGL   ,+99999,+99999","99,99,9,02,1,99,9,07315,1,99,9,99,9","10173,1,99999,9","2,1,010,1,+999,9",,"MET081METAR MMMZ 041441Z 00000KT 7SM FEW240 16/15 A3004 RMK SLP172 52010 900 8/002 HZY=",
"76459399999","2025-01-04T15:45:00","4","23.161356","-106.266072","11.58","GENERAL RAFAEL BUELNA INTERNATIONAL, MX","FM-15","99999","V020","999,9,C,0000,1","22000,1,9,N","011265,1,9,9","+0200,1","+0170,1","99999,9",,,,,,"00,99,1,99,9,99,9,99999,9,99,9,99,9","10176,1,99999,9",,,"MET055METAR MMMZ 041545Z 00000KT 7SM SKC 20/17 A3005 RMK HZY=",
"76459399999","2025-01-04T16:48:00","4","23.161356","-106.266072","11.58","GENERAL RAFAEL BUELNA INTERNATIONAL, MX","FM-15","99999","V020","120,1,N,0010,1","22000,1,9,N","016093,1,9,9","+0250,1","+0190,1","99999,9",,,,,,"00,99,1,99,9,99,9,99999,9,99,9,99,9","10179,1,99999,9",,,"MET056METAR MMMZ 041648Z 12002KT 10SM SKC 25/19 A3006 RMK HZY=",
"76459399999","2025-01-04T17:41:00","4","23.161356","-106.266072","11.58","GENERAL RAFAEL BUELNA INTERNATIONAL, MX","FM-15","99999","V020","190,1,N,0010,1","22000,1,9,N","017703,1,9,9","+0270,1","+0190,1","10172,1",,,,,,"00,99,1,99,9,99,9,99999,9,99,9,99,9","10176,1,99999,9","2,1,003,1,+999,9",,"MET069METAR MMMZ 041741Z 19002KT 11SM SKC 27/19 A3005 RMK SLP172 52003 958=",
"76459399999","2025-01-04T18:50:00","4","23.161356","-106.266072","11.58","GENERAL RAFAEL BUELNA INTERNATIONAL, MX","FM-15","99999","V020","340,1,N,0021,1","22000,1,9,N","019312,1,9,9","+0280,1","+0170,1","99999,9",,,,,,"00,99,1,99,9,99,9,99999,9,99,9,99,9","10163,1,99999,9",,,"MET048METAR MMMZ 041850Z 34004KT 12SM SKC 28/17 A3001=",
"76459399999","2025-01-04T19:42:00","4","23.161356","-106.266072","11.58","GENERAL RAFAEL BUELNA INTERNATIONAL, MX","FM-15","99999","V020","180,1,N,0021,1","22000,1,9,N","019312,1,9,9","+0280,1","+0180,1","99999,9",,,,,,"00,99,1,99,9,99,9,99999,9,99,9,99,9","10149,1,99999,9",,,"MET048METAR MMMZ 041942Z 18004KT 12SM SKC 28/18 A2997=",
"76459399999","2025-01-04T20:42:00","4","23.161356","-106.266072","11.58","GENERAL RAFAEL BUELNA INTERNATIONAL, MX","FM-15","99999","V020","270,1,N,0046,1","22000,1,9,N","019312,1,9,9","+0260,1","+0190,1","10138,1",,,,,,"00,99,1,99,9,99,9,99999,9,99,9,99,9","10139,1,99999,9","7,1,030,1,+999,9",,"MET069METAR MMMZ 042042Z 27009KT 12SM SKC 26/19 A2994 RMK SLP138 57030 957=",
"76459399999","2025-01-04T21:40:00","4","23.161356","-106.266072","11.58","GENERAL RAFAEL BUELNA INTERNATIONAL, MX","FM-15","99999","V020","280,1,N,0031,1","22000,1,9,N","022531,1,9,9","+0260,1","+0180,1","99999,9",,,,,,"00,99,1,99,9,99,9,99999,9,99,9,99,9","10135,1,99999,9",,,"MET048METAR MMMZ 042140Z 28006KT 14SM SKC 26/18 A2993=",
"76459399999","2025-01-04T22:41:00","4","23.161356","-106.266072","11.58","GENERAL RAFAEL BUELNA INTERNATIONAL, MX","FM-15","99999","V020","270,1,N,0041,1","22000,1,9,N","022531,1,9,9","+0250,1","+0180,1","99999,9",,,,,,"00,99,1,99,9,99,9,99999,9,99,9,99,9","10135,1,99999,9",,,"MET048METAR MMMZ 042241Z 27008KT 14SM SKC 25/18 A2993=",
"76459399999","2025-01-04T23:49:00","4","23.161356","-106.266072","11.58","GENERAL RAFAEL BUELNA INTERNATIONAL, MX","FM-15","99999","V020","290,1,N,0041,1","22000,1,9,N","022531,1,9,9","+0240,1","+0190,1","10131,1",,,,,,"00,99,1,99,9,99,9,99999,9,99,9,99,9","10139,1,99999,9","7,1,003,1,+999,9",,"MET069METAR MMMZ 042349Z 29008KT 14SM SKC 24/19 A2994 RMK SLP131 57003 958=",
"76459399999","2025-01-05T00:41:00","4","23.161356","-106.266072","11.58","GENERAL RAFAEL BUELNA INTERNATIONAL, MX","FM-15","99999","V020","290,1,N,0015,1","99999,9,9,N","016093,1,9,9","+0220,1","+0190,1","99999,9",,"02,1,+04572,1,03,1",,,"9,AGL   ,+99999,+99999","99,99,9,02,1,99,9,04572,1,99,9,99,9","10139,1,99999,9",,,"MET065METAR MMMZ 050041Z 29003KT 10SM FEW150 22/19 A2994 RMK 8/050 HZY=",
"76459399999","2025-01-05T01:45:00","4","23.161356","-106.266072","11.58","GENERAL RAFAEL BUELNA INTERNATIONAL, MX","FM-15","99999","V020","330,1,N,0026,1","22000,1,9,N","012875,1,9,9","+0210,1","+0180,1","99999,9",,,,,,"00,99,1,99,9,99,9,99999,9,99,9,99,9","10146,1,99999,9",,,"MET055METAR MMMZ 050145Z 33005KT 8SM SKC 21/18 A2996 RMK HZY=",
"76459399999","2025-01-05T02:48:00","4","23.161356","-106.266072","11.58","GENERAL RAFAEL BUELNA INTERNATIONAL, MX","FM-15","99999","V020","999,9,C,0000,1","99999,9,9,N","012875,1,9,9","+0200,1","+0190,1","10148,1",,"02,1,+04572,1,03,1",,,"9,AGL   ,+99999,+99999","99,99,9,02,1,99,9,04572,1,99,9,99,9","10149,1,99999,9","2,1,013,1,+999,9",,"MET077METAR MMMZ 050248Z 00000KT 8SM FEW150 20/19 A2997 RMK SLP148 52013 910 8/050=",
"76459399999","2025-01-05T03:43:00","4","23.161356","-106.266072","11.58","GENERAL RAFAEL BUELNA INTERNATIONAL, MX","FM-15","99999","V020","999,9,C,0000,1","99999,9,9,N","012875,1,9,9","+0180,1","+0180,1","99999,9",,"02,1,+04572,1,03,1",,,"9,AGL   ,+99999,+99999","99,99,9,02,1,99,9,04572,1,99,9,99,9","10152,1,99999,9",,,"MET060METAR MMMZ 050343Z 00000KT 8SM FEW150 18/18 A2998 RMK 8/050=",
"76459399999","2025-01-05T04:42:00","4","23.161356","-106.266072","11.58","GENERAL RAFAEL BUELNA INTERNATIONAL, MX","FM-15","99999","V020","999,9,C,0000,1","99999,9,9,N","012875,1,9,9","+0180,1","+0170,1","99999,9",,"02,1,+04572,1,03,1",,,"9,AGL   ,+99999,+99999","99,99,9,02,1,99,9,04572,1,99,9,99,9","10156,1,99999,9",,,"MET060METAR MMMZ 050442Z 00000KT 8SM FEW150 18/17 A2999 RMK 8/050=",
"76459399999","2025-01-05T05:47:00","4","23.161356","-106.266072","11.58","GENERAL RAFAEL BUELNA INTERNATIONAL, MX","FM-15","99999","V020","999,9,C,0000,1","99999,9,9,N","012875,1,9,9","+0170,1","+0160,1","10168,1",,"04,1,+04572,1,03,1",,,"9,AGL   ,+99999,+99999","99,99,9,04,1,99,9,04572,1,99,9,99,9","10159,1,99999,9","2,1,010,1,+999,9",,"MET081METAR MMMZ 050547Z 00000KT 8SM SCT150 17/16 A3000 RMK SLP168 52010 911 8/050 HZY=",
"76459399999","2025-01-05T06:42:00","4","23.161356","-106.266072","11.58","GENERAL RAFAEL BUELNA INTERNATIONAL, MX","FM-15","99999","V020","999,9,C,0000,1","99999,9,9,N","011265,1,9,9","+0170,1","+0160,1","99999,9",,"02,1,+04572,1,03,1",,,"9,AGL   ,+99999,+99999","99,99,9,02,1,99,9,04572,1,99,9,99,9","10159,1,99999,9",,"40,1","MET065METAR MMMZ 050642Z 00000KT 7SM VCFG FEW150 17/16 A3000 RMK 8/050=",
"76459399999","2025-01-05T07:41:00","4","23.161356","-106.266072","11.58","GENERAL RAFAEL BUELNA INTERNATIONAL, MX","FM-15","99999","V020","999,9,C,0000,1","99999,9,9,N","011265,1,9,9","+0170,1","+0160,1","99999,9",,"02,1,+04572,1,03,1",,,"9,AGL   ,+99999,+99999","99,99,9,02,1,99,9,04572,1,99,9,99,9","10159,1,99999,9",,"40,1","MET065METAR MMMZ 050741Z 00000KT 7SM VCFG FEW150 17/16 A3000 RMK 8/050=",
"76459399999","2025-01-05T08:50:00","4","23.161356","-106.266072","11.58","GENERAL RAFAEL BUELNA INTERNATIONAL, MX","FM-15","99999","V020","040,1,N,0021,1","00061,1,W,N","001207,1,9,9","+0160,1","+0160,1","10158,1",,"09,1,+00061,1,99,9",,,"9,AGL   ,+99999,+99999","09,99,1,09,1,99,9,00061,1,99,9,99,9","10159,1,99999,9","4,1,000,1,+999,9","10,1","MET090METAR MMMZ 050850Z 04004KT 3/4SM BR VV002 16/16 A3000 RMK SLP158 54000 909 8//// BR INCRG=",
"76459399999","2025-01-05T09:34:00","4","23.161356","-106.266072","11.58","GENERAL RAFAEL BUELNA INTERNATIONAL, MX","FM-15","99999","V020","999,9,C,0000,1","00000,1,W,N","000000,1,9,9","+0170,1","+0170,1","99999,9",,"09,1,+00000,1,99,9",,,"9,AGL   ,+99999,+99999","09,99,1,09,1,99,9,00000,1,99,9,99,9","10156,1,99999,9",,"44,1","MET062METAR MMMZ 050934Z 00000KT 0SM FG VV000 17/17 A2999 RMK 8////=",
"76459399999","2025-01-05T09:34:00","4","23.161356","-106.266072","11.58","GENERAL RAFAEL BUELNA INTERNATIONAL, MX","FM-16","99999","V020","999,9,C,0000,1","00000,1,W,N","000000,1,9,9","+0170,1","+0170,1","99999,9",,"09,1,+00000,1,99,9",,,"9,AGL   ,+99999,+99999","09,99,1,09,1,99,9,00000,1,99,9,99,9","10156,1,99999,9",,"44,1","MET062SPECI MMMZ 050934Z 00000KT 0SM FG VV000 17/17 A2999 RMK 8////=",
"76459399999","2025-01-05T09:41:00","4","23.161356","-106.266072","11.58","GENERAL RAFAEL BUELNA INTERNATIONAL, MX","FM-15","99999","V020","999,9,C,0000,1","00000,1,W,N","000000,1,9,9","+0170,1","+0170,1","99999,9",,"09,1,+00000,1,99,9",,,"9,AGL   ,+99999,+99999","09,99,1,09,1,99,9,00000,1,99,9,99,9","10156,1,99999,9",,"44,1","MET062METAR MMMZ 050941Z 00000KT 0SM FG VV000 17/17 A2999 RMK 8////=",
"76459399999","2025-01-05T10:41:00","4","23.161356","-106.266072","11.58","GENERAL RAFAEL BUELNA INTERNATIONAL, MX","FM-15","99999","V020","999,9,C,0000,1","00000,1,W,N","000000,1,9,9","+0170,1","+0170,1","99999,9",,"09,1,+00000,1,99,9",,,"9,AGL   ,+99999,+99999","09,99,1,09,1,99,9,00000,1,99,9,99,9","10159,1,99999,9",,"44,1","MET062METAR MMMZ 051041Z 00000KT 0SM FG VV000 17/17 A3000 RMK 8////=",
"76459399999","2025-01-05T11:44:00","4","23.161356","-106.266072","11.58","GENERAL RAFAEL BUELNA INTERNATIONAL, MX","FM-15","99999","V020","999,9,C,0000,1","00030,1,W,N","000101,5,9,9","+0160,5","+0160,5","10168,1",,"09,1,+00030,1,99,9",,,"9,AGL   ,+99999,+99999","09,99,1,09,1,99,9,00030,1,99,9,99,9","10159,1,99999,9","4,1,000,1,+999,9","44,1","MET082METAR MMMZ 051144Z 00000KT 1/16SM FG VV001 16/16 A3000 RMK SLP168 54000 909 8////=","D01      0ADE729"
"76459399999","2025-01-05T12:44:00","4","23.161356","-106.266072","11.58","GENERAL RAFAEL BUELNA INTERNATIONAL, MX","FM-15","99999","V020","999,9,C,0000,1","00061,1,W,N","000805,1,9,9","+0160,1","+0160,1","99999,9",,"09,1,+00061,1,99,9",,,"9,AGL   ,+99999,+99999","09,99,1,09,1,99,9,00061,1,99,9,99,9","10159,1,99999,9",,"44,1","MET075METAR MMMZ 051244Z 00000KT 1/2SM FG VV002 16/16 A3000 RMK 8//// VSBY N 3SM=",
"76459399999","2025-01-05T13:48:00","4","23.161356","-106.266072","11.58","GENERAL RAFAEL BUELNA INTERNATIONAL, MX","FM-15","99999","V020","999,9,C,0000,1","00061,1,C,N","003219,1,9,9","+0150,1","+0150,1","99999,9",,"07,1,+00061,1,07,1","07,1,+07315,1,00,1",,"9,AGL   ,+99999,+99999","99,99,9,07,1,99,9,00061,1,99,9,99,9","10163,1,99999,9",,"10,1","MET087METAR MMMZ 051348Z 00000KT 2SM BR BKN002 BKN240 15/15 A3001 RMK 8/602 VSBY LWR N 1/2SM=",
"76459399999","2025-01-05T14:12:00","4","23.161356","-106.266072","11.58","GENERAL RAFAEL BUELNA INTERNATIONAL, MX","FM-15","99999","V020","999,9,C,0000,1","02743,1,C,N","000805,1,9,9","+0150,1","+0150,1","99999,9",,"02,1,+00061,1,07,1","04,1,+02743,1,03,1","07,1,+07315,1,00,1","9,AGL   ,+99999,+99999","99,99,9,02,1,99,9,00061,1,99,9,99,9","10166,1,99999,9",,"44,1","MET090METAR MMMZ 051412Z 00000KT 1/2SM FG FEW002 SCT090 BKN240 15/15 A3002 RMK 8/632 CDNS VRBLS=",
"76459399999","2025-01-05T14:12:00","4","23.161356","-106.266072","11.58","GENERAL RAFAEL BUELNA INTERNATIONAL, MX","FM-16","99999","V020","999,9,C,0000,1","02743,1,C,N","000805,1,9,9","+0150,1","+0150,1","99999,9",,"02,1,+00061,1,07,1","04,1,+02743,1,03,1","07,1,+07315,1,00,1","9,AGL   ,+99999,+99999","99,99,9,02,1,99,9,00061,1,99,9,99,9","10166,1,99999,9",,"44,1","MET090SPECI MMMZ 051412Z 00000KT 1/2SM FG FEW002 SCT090 BKN240 15/15 A3002 RMK 8/632 CDNS VRBLS=",
"76459399999","2025-01-05T14:41:00","4","23.161356","-106.266072","11.58","GENERAL RAFAEL BUELNA INTERNATIONAL, MX","FM-15","99999","V020","999,9,C,0000,1","07315,1,9,N","011265,1,9,9","+0160,1","+0160,1","10169,1",,"04,1,+02743,1,03,1","07,1,+07315,1,00,1",,"9,AGL   ,+99999,+99999","99,99,9,04,1,99,9,02743,1,99,9,99,9","10169,1,99999,9","2,1,010,1,+999,9","12,1","MET089METAR MMMZ 051441Z 00000KT 7SM MIFG SCT090 BKN240 16/16 A3003 RMK SLP169 52010 953 8/032=",
"76459399999","2025-01-05T15:40:00","4","23.161356","-106.266072","11.58","GENERAL RAFAEL BUELNA INTERNATIONAL, MX","FM-15","99999","V020","999,9,C,0000,1","07315,1,C,N","014484,1,9,9","+0170,1","+0160,1","99999,9",,"07,1,+07315,1,00,1",,,"9,AGL   ,+99999,+99999","99,99,9,07,1,99,9,07315,1,99,9,99,9","10176,1,99999,9",,,"MET072METAR MMMZ 051540Z 00000KT 9SM BKN240 17/16 A3005 RMK 8/002 ISOL AC HZY=",
"76459399999","2025-01-05T16:40:00","4","23.161356","-106.266072","11.58","GENERAL RAFAEL BUELNA INTERNATIONAL, MX","FM-15","99999","V020","999,9,C,0000,1","07315,1,C,N","016093,1,9,9","+0200,1","+0180,1","99999,9",,"07,1,+07315,1,00,1",,,"9,AGL   ,+99999,+99999","99,99,9,07,1,99,9,07315,1,99,9,99,9","10179,1,99999,9",,,"MET065METAR MMMZ 051640Z 00000KT 10SM BKN240 20/18 A3006 RMK 8/002 HZY=",
"76459399999","2025-01-05T17:43:00","4","23.161356","-106.266072","11.58","GENERAL RAFAEL BUELNA INTERNATIONAL, MX","FM-15","99999","V020","999,9,C,0000,1","07315,1,C,N","019312,1,9,9","+0250,1","+0180,1","10171,1",,"07,1,+07315,1,00,1",,,"9,AGL   ,+99999,+99999","99,99,9,07,1,99,9,07315,1,99,9,99,9","10176,1,99999,9","2,1,007,1,+999,9",,"MET082METAR MMMZ 051743Z 00000KT 12SM BKN240 25/18 A3005 RMK SLP171 52007 951 8/002 HZY=",
"76459399999","2025-01-05T18:42:00","4","23.161356","-106.266072","11.58","GENERAL RAFAEL BUELNA INTERNATIONAL, MX","FM-15","99999","V020","290,1,N,0021,1","07315,1,C,N","022531,1,9,9","+0270,1","+0180,1","99999,9",,"07,1,+07315,1,00,1",,,"9,AGL   ,+99999,+99999","99,99,9,07,1,99,9,07315,1,99,9,99,9","10166,1,99999,9",,,"MET061METAR MMMZ 051842Z 29004KT 14SM BKN240 27/18 A3002 RMK 8/002=",
"76459399999","2025-01-05T19:42:00","4","23.161356","-106.266072","11.58","GENERAL RAFAEL BUELNA INTERNATIONAL, MX","FM-15","99999","V020","260,1,N,0031,1","07315,1,C,N","022531,1,9,9","+0260,1","+0180,1","99999,9",,"07,1,+07315,1,00,1",,,"9,AGL   ,+99999,+99999","99,99,9,07,1,99,9,07315,1,99,9,99,9","10152,1,99999,9",,,"MET061METAR MMMZ 051942Z 26006KT 14SM BKN240 26/18 A2998 RMK 8/002=",
"76459399999","2025-01-05T20:44:00","4","23.161356","-106.266072","11.58","GENERAL RAFAEL BUELNA INTERNATIONAL, MX","FM-15","99999","V020","300,1,N,0041,1","07315,1,C,N","022531,1,9,9","+0250,1","+0170,1","10142,1",,"07,1,+07315,1,00,1",,,"9,AGL   ,+99999,+99999","99,99,9,07,1,99,9,07315,1,99,9,99,9","10142,1,99999,9","7,1,033,1,+999,9",,"MET078METAR MMMZ 052044Z 30008KT 14SM BKN240 25/17 A2995 RMK SLP142 57033 903 8/002=",
"76459399999","2025-01-05T21:40:00","4","23.161356","-106.266072","11.58","GENERAL RAFAEL BUELNA INTERNATIONAL, MX","FM-15","99999","V020","260,1,N,0021,1","07315,1,C,N","022531,1,9,9","+0270,1","+0170,1","99999,9",,"07,1,+07315,1,00,1",,,"9,AGL   ,+99999,+99999","99,99,9,07,1,99,9,07315,1,99,9,99,9","10135,1,99999,9",,,"MET061METAR MMMZ 052140Z 26004KT 14SM BKN240 27/17 A2993 RMK 8/002=",
"76459399999","2025-01-05T22:44:00","4","23.161356","-106.266072","11.58","GENERAL RAFAEL BUELNA INTERNATIONAL, MX","FM-15","99999","V020","280,1,N,0041,1","99999,9,9,N","022531,1,9,9","+0250,1","+0170,1","99999,9",,"04,1,+07315,1,00,1",,,"9,AGL   ,+99999,+99999","99,99,9,04,1,99,9,07315,1,99,9,99,9","10135,1,99999,9",,,"MET061METAR MMMZ 052244Z 28008KT 14SM SCT240 25/17 A2993 RMK 8/002=",
"76459399999","2025-01-05T23:45:00","4","23.161356","-106.266072","11.58","GENERAL RAFAEL BUELNA INTERNATIONAL, MX","FM-15","99999","V020","290,1,N,0046,1","99999,9,9,N","019312,1,9,9","+0240,1","+0170,1","10147,1",,"02,1,+07315,1,00,1",,,"9,AGL   ,+99999,+99999","99,99,9,02,1,99,9,07315,1,99,9,99,9","10139,1,99999,9","7,1,003,1,+999,9",,"MET082METAR MMMZ 052345Z 29009KT 12SM FEW240 24/17 A2994 RMK SLP147 57003 916 8/002 HZY=",
"76459399999","2025-01-06T00:43:00","4","23.161356","-106.266072","11.58","GENERAL RAFAEL BUELNA INTERNATIONAL, MX","FM-15","99999","V020","310,1,N,0021,1","22000,1,9,N","017703,1,9,9","+0220,1","+0180,1","99999,9",,,,,,"00,99,1,99,9,99,9,99999,9,99,9,99,9","10149,1,99999,9",,,"MET064METAR MMMZ 060043Z 31004KT 11SM SKC 22/18 A2997 RMK ISOL CI HZY=",
"76459399999","2025-01-06T01:41:00","4","23.161356","-106.266072","11.58","GENERAL RAFAEL BUELNA INTERNATIONAL, MX","FM-15","99999","V020","999,9,C,0000,1","22000,1,9,N","016093,1,9,9","+0200,1","+0170,1","99999,9",,,,,,"00,99,1,99,9,99,9,99999,9,99,9,99,9","10152,1,99999,9",,,"MET064METAR MMMZ 060141Z 00000KT 10SM SKC 20/17 A2998 RMK ISOL CI HZY=",
"76459399999","2025-01-06T02:43:00","4","23.161356","-106.266072","11.58","GENERAL RAFAEL BUELNA INTERNATIONAL, MX","FM-15","99999","V020","999,9,C,0000,1","22000,1,9,N","016093,1,9,9","+0180,1","+0160,1","10158,1",,,,,,"00,99,1,99,9,99,9,99999,9,99,9,99,9","10159,1,99999,9","2,1,020,1,+999,9",,"MET081METAR MMMZ 060243Z 00000KT 10SM SKC 18/16 A3000 RMK SLP158 52020 910 ISOL CI HZY=",
"76459399999","2025-01-06T03:46:00","4","23.161356","-106.266072","11.58","GENERAL RAFAEL BUELNA INTERNATIONAL, MX","FM-15","99999","V020","999,9,C,0000,1","22000,1,9,N","016093,1,9,9","+0170,1","+0160,1","99999,9",,,,,,"00,99,1,99,9,99,9,99999,9,99,9,99,9","10166,1,99999,9",,,"MET056METAR MMMZ 060346Z 00000KT 10SM SKC 17/16 A3002 RMK HZY=",
"76459399999","2025-01-06T04:48:00","4","23.161356","-106.266072","11.58","GENERAL RAFAEL BUELNA INTERNATIONAL, MX","FM-15","99999","V020","999,9,C,0000,1","99999,9,9,N","016093,1,9,9","+0150,1","+0140,1","99999,9",,"02,1,+07010,1,00,1",,,"9,AGL   ,+99999,+99999","99,99,9,02,1,99,9,07010,1,99,9,99,9","10169,1,99999,9",,,"MET065METAR MMMZ 060448Z 00000KT 10SM FEW230 15/14 A3003 RMK 8/002 HZY=",
"76459399999","2025-01-06T05:48:00","4","23.161356","-106.266072","11.58","GENERAL RAFAEL BUELNA INTERNATIONAL, MX","FM-15","99999","V020","999,9,C,0000,1","99999,9,9,N","016093,1,9,9","+0150,1","+0140,1","10159,1",,"02,1,+07010,1,00,1",,,"9,AGL   ,+99999,+99999","99,99,9,02,1,99,9,07010,1,99,9,99,9","10166,1,99999,9","2,1,007,1,+999,9",,"MET088METAR MMMZ 060548Z 00000KT 10SM FEW230 15/14 A3002 RMK SLP159 52007 959 8/002 ISOL SC S=",
"76459399999","2025-01-06T06:46:00","4","23.161356","-106.266072","11.58","GENERAL RAFAEL BUELNA INTERNATIONAL, MX","FM-15","99999","V020","999,9,C,0000,1","22000,1,9,N","016093,1,9,9","+0140,1","+0140,1","99999,9",,,,,,"00,99,1,99,9,99,9,99999,9,99,9,99,9","10163,1,99999,9",,,"MET067METAR MMMZ 060646Z 00000KT 10SM SKC 14/14 A3001 RMK HZY ISOL SC CI=",
"76459399999","2025-01-06T07:40:00","4","23.161356","-106.266072","11.58","GENERAL RAFAEL BUELNA INTERNATIONAL, MX","FM-15","99999","V020","050,1,N,0021,1","22000,1,9,N","016093,1,9,9","+0140,1","+0140,1","99999,9",,,,,,"00,99,1,99,9,99,9,99999,9,99,9,99,9","10159,1,99999,9",,,"MET064METAR MMMZ 060740Z 05004KT 10SM SKC 14/14 A3000 RMK ISOL CI HZY=",
"76459399999","2025-01-06T08:40:00","4","23.161356","-106.266072","11.58","GENERAL RAFAEL BUELNA INTERNATIONAL, MX","FM-15","99999","V020","999,9,C,0000,1","22000,1,9,N","016093,1,9,9","+0140,1","+0130,1","10140,1",,,,,,"00,99,1,99,9,99,9,99999,9,99,9,99,9","10152,1,99999,9","7,1,013,1,+999,9",,"MET073METAR MMMZ 060840Z 00000KT 10SM SKC 14/13 A2998 RMK SLP140 57013 968 HZY=",
"76459399999","2025-01-06T09:41:00","4","23.161356","-106.266072","11.58","GENERAL RAFAEL BUELNA INTERNATIONAL, MX","FM-15","99999","V020","070,1,N,0015,1","22000,1,9,N","016093,1,9,9","+0130,1","+0130,1","99999,9",,,,,,"00,99,1,99,9,99,9,99999,9,99,9,99,9","10152,1,99999,9",,,"MET056METAR MMMZ 060941Z 07003KT 10SM SKC 13/13 A2998 RMK HZY=",
"76459399999","2025-01-06T10:40:00","4","23.161356","-106.266072","11.58","GENERAL RAFAEL BUELNA INTERNATIONAL, MX","FM-15","99999","V020","999,9,C,0000,1","22000,1,9,N","016093,1,9,9","+0130,1","+0130,1","99999,9",,,,,,"00,99,1,99,9,99,9,99999,9,99,9,99,9","10149,1,99999,9",,,"MET056METAR MMMZ 061040Z 00000KT 10SM SKC 13/13 A2997 RMK HZY=",
"76459399999","2025-01-06T11:41:00","4","23.161356","-106.266072","11.58","GENERAL RAFAEL BUELNA INTERNATIONAL, MX","FM-15","99999","V020","030,1,N,0015,1","22000,1,9,N","016093,1,9,9","+0120,1","+0120,1","10140,1",,,,,,"00,99,1,99,9,99,9,99999,9,99,9,99,9","10149,1,99999,9","7,1,013,1,+999,9",,"MET073METAR MMMZ 061141Z 03003KT 10SM SKC 12/12 A2997 RMK SLP140 57013 968 HZY=",
"76459399999","2025-01-06T12:48:00","4","23.161356","-106.266072","11.58","GENERAL RAFAEL BUELNA INTERNATIONAL, MX","FM-15","99999","V020","999,9,C,0000,1","99999,9,9,N","016093,1,9,9","+0120,1","+0120,1","99999,9",,"02,1,+07620,1,00,1",,,"9,AGL   ,+99999,+99999","99,99,9,02,1,99,9,07620,1,99,9,99,9","10149,1,99999,9",,,"MET061METAR MMMZ 061248Z 00000KT 10SM FEW250 12/12 A2997 RMK 8/002=",
"76459399999","2025-01-06T13:40:00","4","23.161356","-106.266072","11.58","GENERAL RAFAEL BUELNA INTERNATIONAL, MX","FM-15","99999","V020","999,9,C,0000,1","99999,9,9,N","019312,1,9,9","+0120,1","+0120,1","99999,9",,"04,1,+07010,1,00,1",,,"9,AGL   ,+99999,+99999","99,99,9,04,1,99,9,07010,1,99,9,99,9","10156,1,99999,9",,,"MET061METAR MMMZ 061340Z 00000KT 12SM SCT230 12/12 A2999 RMK 8/002=",
"76459399999","2025-01-06T14:41:00","4","23.161356","-106.266072","11.58","GENERAL RAFAEL BUELNA INTERNATIONAL, MX","FM-15","99999","V020","050,1,N,0015,1","07315,1,C,N","019312,1,9,9","+0130,1","+0130,1","10162,1",,"07,1,+07315,1,00,1",,,"9,AGL   ,+99999,+99999","99,99,9,07,1,99,9,07315,1,99,9,99,9","10163,1,99999,9","2,1,013,1,+999,9",,"MET082METAR MMMZ 061441Z 05003KT 12SM BKN240 13/13 A3001 RMK SLP162 52013 957 8/002 HZY=",
"76459399999","2025-01-06T15:40:00","4","23.161356","-106.266072","11.58","GENERAL RAFAEL BUELNA INTERNATIONAL, MX","FM-15","99999","V020","040,1,N,0010,1","07315,1,C,N","022531,1,9,9","+0170,1","+0150,1","99999,9",,"07,1,+07315,1,00,1",,,"9,AGL   ,+99999,+99999","99,99,9,07,1,99,9,07315,1,99,9,99,9","10166,1,99999,9",,,"MET061METAR MMMZ 061540Z 04002KT 14SM BKN240 17/15 A3002 RMK 8/004=",
"76459399999","2025-01-06T16:43:00","4","23.161356","-106.266072","11.58","GENERAL RAFAEL BUELNA INTERNATIONAL, MX","FM-15","99999","V020","999,9,C,0000,1","99999,9,9,N","024140,1,9,9","+0230,1","+0160,1","99999,9",,"04,1,+07315,1,00,1",,,"9,AGL   ,+99999,+99999","99,99,9,04,1,99,9,07315,1,99,9,99,9","10169,1,99999,9",,,"MET061METAR MMMZ 061643Z 00000KT 15SM SCT240 23/16 A3003 RMK 8/004=",
"76459399999","2025-01-06T17:41:00","4","23.161356","-106.266072","11.58","GENERAL RAFAEL BUELNA INTERNATIONAL, MX","FM-15","99999","V020","999,9,C,0000,1","99999,9,9,N","024140,1,9,9","+0250,1","+0160,1","10162,1",,"02,1,+07620,1,00,1",,,"9,AGL   ,+99999,+99999","99,99,9,02,1,99,9,07620,1,99,9,99,9","10166,1,99999,9","2,1,003,1,+999,9",,"MET078METAR MMMZ 061741Z 00000KT 15SM FEW250 25/16 A3002 RMK SLP162 52003 959 8/002=",
"76459399999","2025-01-06T18:49:00","4","23.161356","-106.266072","11.58","GENERAL RAFAEL BUELNA INTERNATIONAL, MX","FM-15","99999","V020","170,1,N,0015,1","99999,9,9,N","024140,1,9,9","+0270,1","+0150,1","99999,9",,"02,1,+07620,1,00,1",,,"9,AGL   ,+99999,+99999","99,99,9,02,1,99,9,07620,1,99,9,99,9","10152,1,99999,9",,,"MET061METAR MMMZ 061849Z 17003KT 15SM FEW250 27/15 A2998 RMK 8/002=",
"76459399999","2025-01-06T19:41:00","4","23.161356","-106.266072","11.58","GENERAL RAFAEL BUELNA INTERNATIONAL, MX","FM-15","99999","V020","280,1,N,0021,1","99999,9,9,N","024140,1,9,9","+0280,1","+0150,1","99999,9",,"02,1,+07620,1,00,1",,,"9,AGL   ,+99999,+99999","99,99,9,02,1,99,9,07620,1,99,9,99,9","10139,1,99999,9",,,"MET061METAR MMMZ 061941Z 28004KT 15SM FEW250 28/15 A2994 RMK 8/002=",
"76459399999","2025-01-06T20:42:00","4","23.161356","-106.266072","11.58","GENERAL RAFAEL BUELNA INTERNATIONAL, MX","FM-15","99999","V020","290,1,N,0036,1","22000,1,9,N","024140,1,9,9","+0280,1","+0170,1","10128,1",,,,,,"00,99,1,99,9,99,9,99999,9,99,9,99,9","10129,1,99999,9","7,1,037,1,+999,9",,"MET077METAR MMMZ 062042Z 29007KT 15SM SKC 28/17 A2991 RMK SLP128 57037 963 ISOL CI=",
"76459399999","2025-01-06T21:41:00","4","23.161356","-106.266072","11.58","GENERAL RAFAEL BUELNA INTERNATIONAL, MX","FM-15","99999","V020","300,1,N,0051,1","99999,9,9,N","022531,1,9,9","+0270,1","+0150,1","99999,9",,"02,1,+07315,1,00,1",,,"9,AGL   ,+99999,+99999","99,99,9,02,1,99,9,07315,1,99,9,99,9","10125,1,99999,9",,,"MET061METAR MMMZ 062141Z 30010KT 14SM FEW240 27/15 A2990 RMK 8/002=",
"76459399999","2025-01-06T22:49:00","4","23.161356","-106.266072","11.58","GENERAL RAFAEL BUELNA INTERNATIONAL, MX","FM-15","99999","V020","300,1,N,0046,1","22000,1,9,N","022531,1,9,9","+0260,1","+0160,1","99999,9",,,,,,"00,99,1,99,9,99,9,99999,9,99,9,99,9","10125,1,99999,9",,,"MET060METAR MMMZ 062249Z 30009KT 14SM SKC 26/16 A2990 RMK ISOL CI=",
"76459399999","2025-01-06T23:40:00","4","23.161356","-106.266072","11.58","GENERAL RAFAEL BUELNA INTERNATIONAL, MX","FM-15","99999","V020","280,1,N,0036,1","22000,1,9,N","022531,1,9,9","+0250,1","+0170,1","10122,1",,,,,,"00,99,1,99,9,99,9,99999,9,99,9,99,9","10125,1,99999,9","7,1,003,1,+999,9",,"MET077METAR MMMZ 062340Z 28007KT 14SM SKC 25/17 A2990 RMK SLP122 57003 975 ISOL CI=",
"76459399999","2025-01-07T00:43:00","4","23.161356","-106.266072","11.58","GENERAL RAFAEL BUELNA INTERNATIONAL, MX","FM-15","99999","V020","290,1,N,0031,1","22000,1,9,N","019312,1,9,9","+0220,1","+0170,1","99999,9",,,,,,"00,99,1,99,9,99,9,99999,9,99,9,99,9","10135,1,99999,9",,,"MET060METAR MMMZ 070043Z 29006KT 12SM SKC 22/17 A2993 RMK ISOL CI=",
"76459399999","2025-01-07T01:40:00","4","23.161356","-106.266072","11.58","GENERAL RAFAEL BUELNA INTERNATIONAL, MX","FM-15","99999","V020","999,9,C,0000,1","22000,1,9,N","016093,1,9,9","+0200,1","+0150,1","99999,9",,,,,,"00,99,1,99,9,99,9,99999,9,99,9,99,9","10142,1,99999,9",,,"MET060METAR MMMZ 070140Z 00000KT 10SM SKC 20/15 A2995 RMK ISOL CI=",
"76459399999","2025-01-07T02:43:00","4","23.161356","-106.266072","11.58","GENERAL RAFAEL BUELNA INTERNATIONAL, MX","FM-15","99999","V020","999,9,C,0000,1","22000,1,9,N","016093,1,9,9","+0190,1","+0140,1","10148,1",,,,,,"00,99,1,99,9,99,9,99999,9,99,9,99,9","10149,1,99999,9","7,1,023,1,+999,9",,"MET069METAR MMMZ 070243Z 00000KT 10SM SKC 19/14 A2997 RMK SLP148 57023 960=",
"76459399999","2025-01-07T03:43:00","4","23.161356","-106.266072","11.58","GENERAL RAFAEL BUELNA INTERNATIONAL, MX","FM-15","99999","V020","999,9,C,0000,1","22000,1,9,N","016093,1,9,9","+0180,1","+0150,1","99999,9",,,,,,"00,99,1,99,9,99,9,99999,9,99,9,99,9","10152,1,99999,9",,,"MET048METAR MMMZ 070343Z 00000KT 10SM SKC 18/15 A2998=",
"76459399999","2025-01-07T04:49:00","4","23.161356","-106.266072","11.58","GENERAL RAFAEL BUELNA INTERNATIONAL, MX","FM-15","99999","V020","999,9,C,0000,1","22000,1,9,N","016093,1,9,9","+0150,1","+0130,1","99999,9",,,,,,"00,99,1,99,9,99,9,99999,9,99,9,99,9","10152,1,99999,9",,,"MET048METAR MMMZ 070449Z 00000KT 10SM SKC 15/13 A2998=",
"76459399999","2025-01-07T05:53:00","4","23.161356","-106.266072","11.58","GENERAL RAFAEL BUELNA INTERNATIONAL, MX","FM-15","99999","V020","999,9,C,0000,1","22000,1,9,N","016093,1,9,9","+0150,1","+0130,1","10161,1",,,,,,"00,99,1,99,9,99,9,99999,9,99,9,99,9","10152,1,99999,9","2,1,003,1,+999,9",,"MET069METAR MMMZ 070553Z 00000KT 10SM SKC 15/13 A2998 RMK SLP161 52003 902=",
"76459399999","2025-01-07T06:42:00","4","23.161356","-106.266072","11.58","GENERAL RAFAEL BUELNA INTERNATIONAL, MX","FM-15","99999","V020","999,9,C,0000,1","22000,1,9,N","016093,1,9,9","+0140,1","+0120,1","99999,9",,,,,,"00,99,1,99,9,99,9,99999,9,99,9,99,9","10149,1,99999,9",,,"MET060METAR MMMZ 070642Z 00000KT 10SM SKC 14/12 A2997 RMK ISOL AC=",
"76459399999","2025-01-07T07:44:00","4","23.161356","-106.266072","11.58","GENERAL RAFAEL BUELNA INTERNATIONAL, MX","FM-15","99999","V020","999,9,C,0000,1","99999,9,9,N","016093,1,9,9","+0140,1","+0130,1","99999,9",,"02,1,+07315,1,00,1",,,"9,AGL   ,+99999,+99999","99,99,9,02,1,99,9,07315,1,99,9,99,9","10149,1,99999,9",,,"MET073METAR MMMZ 070744Z 00000KT 10SM FEW240 14/13 A2997 RMK 8/002 ISOL AC HZY=",
"76459399999","2025-01-07T08:42:00","4","23.161356","-106.266072","11.58","GENERAL RAFAEL BUELNA INTERNATIONAL, MX","FM-15","99999","V020","040,1,N,0021,1","99999,9,9,N","016093,1,9,9","+0130,1","+0120,1","10141,1",,"02,1,+03048,1,03,1","02,1,+07315,1,00,1",,"9,AGL   ,+99999,+99999","99,99,9,02,1,99,9,03048,1,99,9,99,9","10142,1,99999,9","7,1,010,1,+999,9",,"MET089METAR MMMZ 070842Z 04004KT 10SM FEW100 FEW240 13/12 A2995 RMK SLP141 57010 901 8/032 HZY=",
"76459399999","2025-01-07T09:43:00","4","23.161356","-106.266072","11.58","GENERAL RAFAEL BUELNA INTERNATIONAL, MX","FM-15","99999","V020","999,9,C,0000,1","07315,1,C,N","016093,1,9,9","+0130,1","+0120,1","99999,9",,"02,1,+03048,1,03,1","04,1,+07315,1,00,1",,"9,AGL   ,+99999,+99999","99,99,9,02,1,99,9,03048,1,99,9,99,9","10139,1,99999,9",,,"MET072METAR MMMZ 070943Z 00000KT 10SM FEW100 SCT240 13/12 A2994 RMK 8/032 HZY=",
"76459399999","2025-01-07T10:40:00","4","23.161356","-106.266072","11.58","GENERAL RAFAEL BUELNA INTERNATIONAL, MX","FM-15","99999","V020","999,9,C,0000,1","99999,9,9,N","016093,1,9,9","+0120,1","+0110,1","99999,9",,"04,1,+07315,1,00,1",,,"9,AGL   ,+99999,+99999","99,99,9,04,1,99,9,07315,1,99,9,99,9","10142,1,99999,9",,,"MET073METAR MMMZ 071040Z 00000KT 10SM SCT240 12/11 A2995 RMK 8/002 ISOL AC HZY=",
"76459399999","2025-01-07T11:40:00","4","23.161356","-106.266072","11.58","GENERAL RAFAEL BUELNA INTERNATIONAL, MX","FM-15","99999","V020","999,9,C,0000,1","99999,9,9,N","016093,1,9,9","+0130,1","+0120,1","10151,1",,"04,1,+07315,1,00,1",,,"9,AGL   ,+99999,+99999","99,99,9,04,1,99,9,07315,1,99,9,99,9","10142,1,99999,9","4,1,000,1,+999,9",,"MET090METAR MMMZ 071140Z 00000KT 10SM SCT240 13/12 A2995 RMK SLP151 54000 903 8/002 ISOL AC HZY=",
"76459399999","2025-01-07T12:40:00","4","23.161356","-106.266072","11.58","GENERAL RAFAEL BUELNA INTERNATIONAL, MX","FM-15","99999","V020","999,9,C,0000,1","99999,9,9,N","016093,1,9,9","+0120,1","+0120,1","99999,9",,"04,1,+07315,1,00,1",,,"9,AGL   ,+99999,+99999","99,99,9,04,1,99,9,07315,1,99,9,99,9","10149,1,99999,9",,,"MET073METAR MMMZ 071240Z 00000KT 10SM SCT240 12/12 A2997 RMK 8/002 ISOL AC HZY=",
"76459399999","2025-01-07T13:47:00","4","23.161356","-106.266072","11.58","GENERAL RAFAEL BUELNA INTERNATIONAL, MX","FM-15","99999","V020","060,1,N,0021,1","99999,9,9,N","017703,1,9,9","+0120,1","+0110,1","99999,9",,"02,1,+07315,1,00,1",,,"9,AGL   ,+99999,+99999","99,99,9,02,1,99,9,07315,1,99,9,99,9","10156,1,99999,9",,,"MET065METAR MMMZ 071347Z 06004KT 11SM FEW240 12/11 A2999 RMK 8/002 HZY=",
"76459399999","2025-01-07T14:40:00","4","23.161356","-106.266072","11.58","GENERAL RAFAEL BUELNA INTERNATIONAL, MX","FM-15","99999","V020","080,1,N,0015,1","99999,9,9,N","019312,1,9,9","+0130,1","+0120,1","10162,1",,"02,1,+07315,1,00,1",,,"9,AGL   ,+99999,+99999","99,99,9,02,1,99,9,07315,1,99,9,99,9","10163,1,99999,9","2,1,020,1,+999,9",,"MET082METAR MMMZ 071440Z 08003KT 12SM FEW240 13/12 A3001 RMK SLP162 52020 900 8/002 HZY=",
"76459399999","2025-01-07T15:40:00","4","23.161356","-106.266072","11.58","GENERAL RAFAEL BUELNA INTERNATIONAL, MX","FM-15","99999","V020","040,1,N,0010,1","99999,9,9,N","022531,1,9,9","+0180,1","+0130,1","99999,9",,"02,1,+07315,1,00,1",,,"9,AGL   ,+99999,+99999","99,99,9,02,1,99,9,07315,1,99,9,99,9","10163,1,99999,9",,,"MET061METAR MMMZ 071540Z 04002KT 14SM FEW240 18/13 A3001 RMK 8/002=",
"76459399999","2025-01-07T16:45:00","4","23.161356","-106.266072","11.58","GENERAL RAFAEL BUELNA INTERNATIONAL, MX","FM-15","99999","V020","999,9,C,0000,1","99999,9,9,N","024140,1,9,9","+0230,1","+0150,1","99999,9",,"02,1,+07315,1,00,1",,,"9,AGL   ,+99999,+99999","99,99,9,02,1,99,9,07315,1,99,9,99,9","10163,1,99999,9",,,"MET061METAR MMMZ 071645Z 00000KT 15SM FEW240 23/15 A3001 RMK 8/002=",
"76459399999","2025-01-07T17:42:00","4","23.161356","-106.266072","11.58","GENERAL RAFAEL BUELNA INTERNATIONAL, MX","FM-15","99999","V020","999,9,C,0000,1","99999,9,9,N","024140,1,9,9","+0250,1","+0160,1","10157,1",,"02,1,+07315,1,02,1",,,"9,AGL   ,+99999,+99999","99,99,9,02,1,99,9,07315,1,99,9,99,9","10163,1,99999,9","4,1,000,1,+999,9",,"MET078METAR MMMZ 071742Z 00000KT 15SM FEW240 25/16 A3001 RMK SLP157 54000 955 8/005=",
"76459399999","2025-01-07T18:41:00","4","23.161356","-106.266072","11.58","GENERAL RAFAEL BUELNA INTERNATIONAL, MX","FM-15","99999","V020","250,1,N,0026,1","99999,9,9,N","024140,1,9,9","+0260,1","+0160,1","99999,9",,"02,1,+07620,1,00,1",,,"9,AGL   ,+99999,+99999","99,99,9,02,1,99,9,07620,1,99,9,99,9","10152,1,99999,9",,,"MET061METAR MMMZ 071841Z 25005KT 15SM FEW250 26/16 A2998 RMK 8/002=",
"76459399999","2025-01-07T19:42:00","4","23.161356","-106.266072","11.58","GENERAL RAFAEL BUELNA INTERNATIONAL, MX","FM-15","99999","V020","210,1,N,0026,1","99999,9,9,N","024140,1,9,9","+0260,1","+0150,1","99999,9",,"02,1,+07620,1,00,1",,,"9,AGL   ,+99999,+99999","99,99,9,02,1,99,9,07620,1,99,9,99,9","10142,1,99999,9",,,"MET061METAR MMMZ 071942Z 21005KT 15SM FEW250 26/15 A2995 RMK 8/002=",
"76459399999","2025-01-07T21:40:00","4","23.161356","-106.266072","11.58","GENERAL RAFAEL BUELNA INTERNATIONAL, MX","FM-15","99999","V020","250,1,N,0021,1","07315,1,C,N","022531,1,9,9","+0250,1","+0180,1","99999,9",,"07,1,+07315,1,00,1",,,"9,AGL   ,+99999,+99999","99,99,9,07,1,99,9,07315,1,99,9,99,9","10135,1,99999,9",,,"MET061METAR MMMZ 072140Z 25004KT 14SM BKN240 25/18 A2993 RMK 8/002=",
"76459399999","2025-01-07T22:45:00","4","23.161356","-106.266072","11.58","GENERAL RAFAEL BUELNA INTERNATIONAL, MX","FM-15","99999","V020","210,1,N,0021,1","07315,1,C,N","022531,1,9,9","+0250,1","+0190,1","99999,9",,"07,1,+07315,1,02,1",,,"9,AGL   ,+99999,+99999","99,99,9,07,1,99,9,07315,1,99,9,99,9","10135,1,99999,9",,,"MET061METAR MMMZ 072245Z 21004KT 14SM BKN240 25/19 A2993 RMK 8/008=",
"76459399999","2025-01-07T23:43:00","4","23.161356","-106.266072","11.58","GENERAL RAFAEL BUELNA INTERNATIONAL, MX","FM-15","99999","V020","999,9,C,0000,1","07315,1,9,N","022531,1,9,9","+0230,1","+0190,1","10132,1",,"02,1,+03353,1,03,1","07,1,+07315,1,02,1",,"9,AGL   ,+99999,+99999","99,99,9,02,1,99,9,03353,1,99,9,99,9","10135,1,99999,9","7,1,003,1,+999,9",,"MET085METAR MMMZ 072343Z 00000KT 14SM FEW110 BKN240 23/19 A2993 RMK SLP132 57003 910 8/058=",
"76459399999","2025-01-08T00:45:00","4","23.161356","-106.266072","11.58","GENERAL RAFAEL BUELNA INTERNATIONAL, MX","FM-15","99999","V020","999,9,C,0000,1","07315,1,9,N","016093,1,9,9","+0210,1","+0190,1","99999,9",,"02,1,+03353,1,03,1","08,1,+07315,1,02,1",,"9,AGL   ,+99999,+99999","99,99,9,02,1,99,9,03353,1,99,9,99,9","10146,1,99999,9",,,"MET068METAR MMMZ 080045Z 00000KT 10SM FEW110 OVC240 21/19 A2996 RMK 8/057=",
"76459399999","2025-01-08T01:46:00","4","23.161356","-106.266072","11.58","GENERAL RAFAEL BUELNA INTERNATIONAL, MX","FM-15","99999","V020","999,9,C,0000,1","07315,1,C,N","016093,1,9,9","+0200,1","+0190,1","99999,9",,"07,1,+07315,1,02,1",,,"9,AGL   ,+99999,+99999","99,99,9,07,1,99,9,07315,1,99,9,99,9","10149,1,99999,9",,,"MET061METAR MMMZ 080146Z 00000KT 10SM BKN240 20/19 A2997 RMK 8/008=",
"76459399999","2025-01-08T02:44:00","4","23.161356","-106.266072","11.58","GENERAL RAFAEL BUELNA INTERNATIONAL, MX","FM-15","99999","V020","999,9,C,0000,1","99999,9,9,N","016093,1,9,9","+0190,1","+0190,1","10152,1",,"04,1,+07315,1,00,1",,,"9,AGL   ,+99999,+99999","99,99,9,04,1,99,9,07315,1,99,9,99,9","10152,1,99999,9","2,1,017,1,+999,9",,"MET082METAR MMMZ 080244Z 00000KT 10SM SCT240 19/19 A2998 RMK SLP152 52017 903 8/002 RTS=",
"76459399999","2025-01-08T03:43:00","4","23.161356","-106.266072","11.58","GENERAL RAFAEL BUELNA INTERNATIONAL, MX","FM-15","99999","V020","999,9,C,0000,1","07315,1,C,N","016093,1,9,9","+0190,1","+0180,1","99999,9",,"07,1,+07315,1,02,1",,,"9,AGL   ,+99999,+99999","99,99,9,07,1,99,9,07315,1,99,9,99,9","10159,1,99999,9",,,"MET061METAR MMMZ 080343Z 00000KT 10SM BKN240 19/18 A3000 RMK 8/008=",
"76459399999","2025-01-08T04:45:00","4","23.161356","-106.266072","11.58","GENERAL RAFAEL BUELNA INTERNATIONAL, MX","FM-15","99999","V020","999,9,C,0000,1","07315,1,9,N","012875,1,9,9","+0180,1","+0180,1","99999,9",,"04,1,+03048,1,03,1","07,1,+07315,1,00,1",,"9,AGL   ,+99999,+99999","99,99,9,04,1,99,9,03048,1,99,9,99,9","10159,1,99999,9",,,"MET071METAR MMMZ 080445Z 00000KT 8SM SCT100 BKN240 18/18 A3000 RMK 8/072 HZY=",
"76459399999","2025-01-08T05:42:00","4","23.161356","-106.266072","11.58","GENERAL RAFAEL BUELNA INTERNATIONAL, MX","FM-15","99999","V020","050,1,N,0026,1","02743,1,C,N","012875,1,9,9","+0180,1","+0170,1","10150,1",,"07,1,+02743,1,03,1","08,1,+07315,1,02,1",,"9,AGL   ,+99999,+99999","99,99,9,07,1,99,9,02743,1,99,9,99,9","10156,1,99999,9","2,1,003,1,+999,9",,"MET088METAR MMMZ 080542Z 05005KT 8SM BKN090 OVC240 18/17 A2999 RMK SLP150 52003 961 8/077 HZY=",
"76459399999","2025-01-08T06:44:00","4","23.161356","-106.266072","11.58","GENERAL RAFAEL BUELNA INTERNATIONAL, MX","FM-15","99999","V020","999,9,C,0000,1","07010,1,9,N","012875,1,9,9","+0170,1","+0170,1","99999,9",,"04,1,+02743,1,03,1","08,1,+07010,1,02,1",,"9,AGL   ,+99999,+99999","99,99,9,04,1,99,9,02743,1,99,9,99,9","10152,1,99999,9",,,"MET071METAR MMMZ 080644Z 00000KT 8SM SCT090 OVC230 17/17 A2998 RMK 8/077 HZY=",
"76459399999","2025-01-08T07:40:00","4","23.161356","-106.266072","11.58","GENERAL RAFAEL BUELNA INTERNATIONAL, MX","FM-15","99999","V020","999,9,C,0000,1","07010,1,9,N","012875,1,9,9","+0170,1","+0170,1","99999,9",,"04,1,+02743,1,03,1","08,1,+07010,1,02,1",,"9,AGL   ,+99999,+99999","99,99,9,04,1,99,9,02743,1,99,9,99,9","10142,1,99999,9",,,"MET071METAR MMMZ 080740Z 00000KT 8SM SCT090 OVC230 17/17 A2995 RMK 8/077 HZY=",
"76459399999","2025-01-08T08:41:00","4","23.161356","-106.266072","11.58","GENERAL RAFAEL BUELNA INTERNATIONAL, MX","FM-15","99999","V020","040,1,N,0021,1","02743,1,9,N","012875,1,9,9","+0170,1","+0160,1","10125,1",,"02,1,+00914,1,06,1","07,1,+02743,1,03,1","08,1,+07620,1,02,1","9,AGL   ,+99999,+99999","99,99,9,02,1,99,9,00914,1,99,9,99,9","10139,1,99999,9","7,1,017,1,+999,9",,"MET095METAR MMMZ 080841Z 04004KT 8SM FEW030 BKN090 OVC250 17/16 A2994 RMK SLP125 57017 966 8/577 HZY=",
"76459399999","2025-01-08T09:40:00","4","23.161356","-106.266072","11.58","GENERAL RAFAEL BUELNA INTERNATIONAL, MX","FM-15","99999","V020","999,9,C,0000,1","07010,1,9,N","012875,1,9,9","+0170,1","+0160,1","99999,9",,"04,1,+02743,1,03,1","08,1,+07010,1,02,1",,"9,AGL   ,+99999,+99999","99,99,9,04,1,99,9,02743,1,99,9,99,9","10132,1,99999,9",,,"MET079METAR MMMZ 080940Z 00000KT 8SM SCT090 OVC230 17/16 A2992 RMK 8/077 ISOL SC HZY=",
"76459399999","2025-01-08T10:40:00","4","23.161356","-106.266072","11.58","GENERAL RAFAEL BUELNA INTERNATIONAL, MX","FM-15","99999","V020","050,1,N,0015,1","02743,1,C,N","012875,1,9,9","+0160,1","+0160,1","99999,9",,"07,1,+02743,1,03,1","08,1,+07010,1,02,1",,"9,AGL   ,+99999,+99999","99,99,9,07,1,99,9,02743,1,99,9,99,9","10132,1,99999,9",,,"MET075METAR MMMZ 081040Z 05003KT 8SM BKN090 OVC230 16/16 A2992 RMK 8/077 ISOL SC=",
"76459399999","2025-01-08T11:42:00","4","23.161356","-106.266072","11.58","GENERAL RAFAEL BUELNA INTERNATIONAL, MX","FM-15","99999","V020","999,9,C,0000,1","02743,1,9,N","012875,1,9,9","+0160,1","+0150,1","10134,1",,"02,1,+00914,1,06,1","07,1,+02743,1,03,1","08,1,+07010,1,02,1","9,AGL   ,+99999,+99999","99,99,9,02,1,99,9,00914,1,99,9,99,9","10135,1,99999,9","7,1,003,1,+999,9",,"MET095METAR MMMZ 081142Z 00000KT 8SM FEW030 BKN090 OVC230 16/15 A2993 RMK SLP134 57003 967 8/577 HZY=",
"76459399999","2025-01-08T12:49:00","4","23.161356","-106.266072","11.58","GENERAL RAFAEL BUELNA INTERNATIONAL, MX","FM-15","99999","V020","999,9,C,0000,1","02743,1,C,N","016093,1,9,9","+0160,1","+0150,1","99999,9",,"07,1,+02743,1,03,1","08,1,+07315,1,02,1",,"9,AGL   ,+99999,+99999","99,99,9,07,1,99,9,02743,1,99,9,99,9","10139,1,99999,9",,,"MET068METAR MMMZ 081249Z 00000KT 10SM BKN090 OVC240 16/15 A2994 RMK 8/077=",
"76459399999","2025-01-08T13:42:00","4","23.161356","-106.266072","11.58","GENERAL RAFAEL BUELNA INTERNATIONAL, MX","FM-15","99999","V020","030,1,N,0026,1","02743,1,C,N","019312,1,9,9","+0160,1","+0150,1","99999,9",,"02,1,+01219,1,06,1","04,1,+02743,1,03,1","07,1,+07315,1,02,1","9,AGL   ,+99999,+99999","99,99,9,02,1,99,9,01219,1,99,9,99,9","10149,1,99999,9",,,"MET075METAR MMMZ 081342Z 03005KT 12SM FEW040 SCT090 BKN240 16/15 A2997 RMK 8/577=",
"76459399999","2025-01-08T14:42:00","4","23.161356","-106.266072","11.58","GENERAL RAFAEL BUELNA INTERNATIONAL, MX","FM-15","99999","V020","999,9,C,0000,1","07315,1,9,N","020921,1,9,9","+0170,1","+0150,1","10159,1",,"04,1,+02438,1,03,1","08,1,+07315,1,02,1",,"9,AGL   ,+99999,+99999","99,99,9,04,1,99,9,02438,1,99,9,99,9","10159,1,99999,9","2,1,017,1,+999,9",,"MET089METAR MMMZ 081442Z 00000KT 13SM SCT080 OVC240 17/15 A3000 RMK SLP159 52017 953 8/077 HZY=",
"76459399999","2025-01-08T15:41:00","4","23.161356","-106.266072","11.58","GENERAL RAFAEL BUELNA INTERNATIONAL, MX","FM-15","99999","V020","999,9,C,0000,1","03048,1,9,N","020921,1,9,9","+0190,1","+0160,1","99999,9",,"04,1,+02438,1,03,1","07,1,+03048,1,02,1","08,1,+07315,1,99,9","9,AGL   ,+99999,+99999","99,99,9,04,1,99,9,02438,1,99,9,99,9","10169,1,99999,9",,,"MET082METAR MMMZ 081541Z 00000KT 13SM SCT080 BKN100 OVC240 19/16 A3003 RMK 8/077 BINOVC=",
"76459399999","2025-01-08T16:41:00","4","23.161356","-106.266072","11.58","GENERAL RAFAEL BUELNA INTERNATIONAL, MX","FM-15","99999","V020","999,9,C,0000,1","02438,1,C,N","020921,1,9,9","+0220,1","+0160,1","99999,9",,"02,1,+01219,1,06,1","04,1,+02438,1,03,1","08,1,+07315,1,02,1","9,AGL   ,+99999,+99999","99,99,9,02,1,99,9,01219,1,99,9,99,9","10173,1,99999,9",,,"MET077METAR MMMZ 081641Z 00000KT 13SM FEW040 SCT080 OVC240 22/16 A3004 RMK 8/577 S=",
"76459399999","2025-01-08T17:41:00","4","23.161356","-106.266072","11.58","GENERAL RAFAEL BUELNA INTERNATIONAL, MX","FM-15","99999","V020","200,1,N,0026,1","07315,1,9,N","022531,1,9,9","+0250,1","+0190,1","10165,1",,"04,1,+02438,1,03,1","08,1,+07315,1,02,1",,"9,AGL   ,+99999,+99999","99,99,9,04,1,99,9,02438,1,99,9,99,9","10169,1,99999,9","2,1,010,1,+999,9",,"MET093METAR MMMZ 081741Z 20005KT 14SM SCT080 OVC240 25/19 A3003 RMK SLP165 52010 958 8/037 ISOL SC=",
"76459399999","2025-01-08T18:42:00","4","23.161356","-106.266072","11.58","GENERAL RAFAEL BUELNA INTERNATIONAL, MX","FM-15","99999","V020","170,1,N,0046,1","02438,1,C,N","022531,1,9,9","+0260,1","+0160,1","99999,9",,"07,1,+02438,1,03,1","08,1,+07315,1,02,1",,"9,AGL   ,+99999,+99999","99,99,9,07,1,99,9,02438,1,99,9,99,9","10163,1,99999,9",,,"MET076METAR MMMZ 081842Z 17009KT 14SM BKN080 OVC240 26/16 A3001 RMK 8/077 ISOL SC=",
"76459399999","2025-01-08T19:44:00","4","23.161356","-106.266072","11.58","GENERAL RAFAEL BUELNA INTERNATIONAL, MX","FM-15","99999","V020","190,1,N,0062,1","02438,1,9,N","016093,1,9,9","+0260,1","+0160,1","99999,9",,"02,1,+01219,1,06,1","07,1,+02438,1,03,1","08,1,+07315,1,02,1","9,AGL   ,+99999,+99999","99,99,9,02,1,99,9,01219,1,99,9,99,9","10156,1,99999,9",,,"MET094METAR MMMZ 081944Z 19012KT 10SM FEW040 BKN080 OVC240 26/16 A2999 RMK 8/577 DSNT PCPN E BINOVC=",
"76459399999","2025-01-08T20:44:00","4","23.161356","-106.266072","11.58","GENERAL RAFAEL BUELNA INTERNATIONAL, MX","FM-15","99999","V020","170,1,N,0057,1","02438,1,9,N","016093,1,9,9","+0250,1","+0170,1","10152,1",,"02,1,+01219,1,07,1","07,1,+02438,1,03,1","08,1,+07315,1,02,1","9,AGL   ,+99999,+99999","99,99,9,02,1,99,9,01219,1,99,9,99,9","10149,1,99999,9","7,1,017,1,+999,9",,"MET099METAR MMMZ 082044Z 17011KT 10SM FEW040 BKN080 OVC240 25/17 A2997 RMK SLP152 57017 924 8/777 PCPN E=",
"76459399999","2025-01-08T21:44:00","4","23.161356","-106.266072","11.58","GENERAL RAFAEL BUELNA INTERNATIONAL, MX","FM-15","99999","V020","140,1,N,0062,1","02438,1,9,N","016093,1,9,9","+0260,1","+0160,1","99999,9",,"04,1,+01372,1,07,1","07,1,+02438,1,03,1","08,1,+07315,1,02,1","9,AGL   ,+99999,+99999","99,99,9,04,1,99,9,01372,1,99,9,99,9","10142,1,99999,9",,,"MET091METAR MMMZ 082144Z 14012KT 10SM SCT045 BKN080 OVC240 26/16 A2995 RMK 8/777 DSNT PCPN E HZY=",
"76459399999","2025-01-08T22:40:00","4","23.161356","-106.266072","11.58","GENERAL RAFAEL BUELNA INTERNATIONAL, MX","FM-15","99999","V020","140,1,N,0031,1","02438,1,9,N","019312,1,9,9","+0250,1","+0160,1","99999,9",,"04,1,+01372,1,06,1","07,1,+02438,1,03,1","08,1,+07315,1,02,1","9,AGL   ,+99999,+99999","99,99,9,04,1,99,9,01372,1,99,9,99,9","10135,1,99999,9",,,"MET086METAR MMMZ 082240Z 14006KT 12SM SCT045 BKN080 OVC240 25/16 A2993 RMK 8/577 OCNL DROPS=",
"76459399999","2025-01-08T23:42:00","4","23.161356","-106.266072","11.58","GENERAL RAFAEL BUELNA INTERNATIONAL, MX","FM-15","99999","V020","130,1,N,0036,1","02438,1,9,N","022531,1,9,9","+0230,1","+0170,1","10134,1",,"04,1,+01372,1,07,1","07,1,+02438,1,03,1","08,1,+03048,1,99,9","9,AGL   ,+99999,+99999","99,99,9,04,1,99,9,01372,1,99,9,99,9","10139,1,99999,9","7,1,013,1,+999,9",,"MET103METAR MMMZ 082342Z 13007KT 14SM SCT045 BKN080 OVC100 23/17 A2994 RMK SLP134 57013 902 8/77/ OCNL DROPS=",
"76459399999","2025-01-09T00:42:00","4","23.161356","-106.266072","11.58","GENERAL RAFAEL BUELNA INTERNATIONAL, MX","FM-15","99999","V020","170,1,N,0015,1","01372,1,C,N","020921,1,9,9","+0220,1","+0170,1","99999,9",,"07,1,+01372,1,06,1","08,1,+02438,1,03,1",,"9,AGL   ,+99999,+99999","99,99,9,07,1,99,9,01372,1,99,9,99,9","10139,1,99999,9",,,"MET068METAR MMMZ 090042Z 17003KT 13SM BKN045 OVC080 22/17 A2994 RMK 8/57/=",
"76459399999","2025-01-09T01:43:00","4","23.161356","-106.266072","11.58","GENERAL RAFAEL BUELNA INTERNATIONAL, MX","FM-15","99999","V020","160,1,N,0021,1","02438,1,9,N","019312,1,9,9","+0220,1","+0170,1","99999,9",,"04,1,+01372,1,06,1","08,1,+02438,1,03,1",,"9,AGL   ,+99999,+99999","99,99,9,04,1,99,9,01372,1,99,9,99,9","10142,1,99999,9",,,"MET075METAR MMMZ 090143Z 16004KT 12SM SCT045 OVC080 22/17 A2995 RMK 8/57/ BINOVC=",
"76459399999","2025-01-09T02:44:00","4","23.161356","-106.266072","11.58","GENERAL RAFAEL BUELNA INTERNATIONAL, MX","FM-15","99999","V020","999,9,C,0000,1","02743,1,9,N","016093,1,9,9","+0220,1","+0160,1","10149,1",,"02,1,+01067,1,06,1","07,1,+02743,1,03,1","08,1,+07315,1,02,1","9,AGL   ,+99999,+99999","99,99,9,02,1,99,9,01067,1,99,9,99,9","10152,1,99999,9","2,1,013,1,+999,9",,"MET092METAR MMMZ 090244Z 00000KT 10SM FEW035 BKN090 OVC240 22/16 A2998 RMK SLP149 52013 953 8/577=",
"76459399999","2025-01-09T03:40:00","4","23.161356","-106.266072","11.58","GENERAL RAFAEL BUELNA INTERNATIONAL, MX","FM-15","99999","V020","999,9,C,0000,1","02743,1,9,N","016093,1,9,9","+0210,1","+0170,1","99999,9",,"02,1,+01067,1,06,1","07,1,+02743,1,03,1","08,1,+07315,1,02,1","9,AGL   ,+99999,+99999","99,99,9,02,1,99,9,01067,1,99,9,99,9","10156,1,99999,9",,,"MET079METAR MMMZ 090340Z 00000KT 10SM FEW035 BKN090 OVC240 21/17 A2999 RMK 8/577 HZY=",
"76459399999","2025-01-09T04:42:00","4","23.161356","-106.266072","11.58","GENERAL RAFAEL BUELNA INTERNATIONAL, MX","FM-15","99999","V020","999,9,C,0000,1","02743,1,9,N","016093,1,9,9","+0200,1","+0170,1","99999,9",,"02,1,+01067,1,06,1","07,1,+02743,1,03,1","08,1,+07315,1,02,1","9,AGL   ,+99999,+99999","99,99,9,02,1,99,9,01067,1,99,9,99,9","10159,1,99999,9",,,"MET079METAR MMMZ 090442Z 00000KT 10SM FEW035 BKN090 OVC240 20/17 A3000 RMK 8/577 HZY=",
"76459399999","2025-01-09T05:43:00","4","23.161356","-106.266072","11.58","GENERAL RAFAEL BUELNA INTERNATIONAL, MX","FM-15","99999","V020","999,9,C,0000,1","02438,1,C,N","016093,1,9,9","+0200,1","+0180,1","10164,1",,"07,1,+02438,1,03,1","08,1,+07315,1,02,1",,"9,AGL   ,+99999,+99999","99,99,9,07,1,99,9,02438,1,99,9,99,9","10156,1,99999,9","2,1,007,1,+999,9",,"MET097METAR MMMZ 090543Z 00000KT 10SM BKN080 OVC240 20/18 A2999 RMK SLP164 52007 914 8/077 ISOL SC HZY=",
"76459399999","2025-01-09T06:42:00","4","23.161356","-106.266072","11.58","GENERAL RAFAEL BUELNA INTERNATIONAL, MX","FM-15","99999","V020","999,9,C,0000,1","02438,1,C,N","016093,1,9,9","+0210,1","+0200,1","99999,9",,"07,1,+02438,1,03,1","08,1,+07315,1,02,1",,"9,AGL   ,+99999,+99999","99,99,9,07,1,99,9,02438,1,99,9,99,9","10149,1,99999,9",,,"MET080METAR MMMZ 090642Z 00000KT 10SM BKN080 OVC240 21/20 A2997 RMK 8/077 ISOL SC HZY=",
"76459399999","2025-01-09T07:40:00","4","23.161356","-106.266072","11.58","GENERAL RAFAEL BUELNA INTERNATIONAL, MX","FM-15","99999","V020","999,9,C,0000,1","02438,1,C,N","016093,1,9,9","+0210,1","+0190,1","99999,9",,"07,1,+02438,1,03,1","08,1,+07315,1,02,1",,"9,AGL   ,+99999,+99999","99,99,9,07,1,99,9,02438,1,99,9,99,9","10146,1,99999,9",,,"MET080METAR MMMZ 090740Z 00000KT 10SM BKN080 OVC240 21/19 A2996 RMK 8/077 ISOL SC HZY=",
"76459399999","2025-01-09T08:41:00","4","23.161356","-106.266072","11.58","GENERAL RAFAEL BUELNA INTERNATIONAL, MX","FM-15","99999","V020","999,9,C,0000,1","02438,1,C,N","016093,1,9,9","+0200,1","+0190,1","10141,1",,"07,1,+02438,1,03,1","08,1,+07315,1,02,1",,"9,AGL   ,+99999,+99999","99,99,9,07,1,99,9,02438,1,99,9,99,9","10142,1,99999,9","7,1,013,1,+999,9",,"MET097METAR MMMZ 090841Z 00000KT 10SM BKN080 OVC240 20/19 A2995 RMK SLP141 57013 917 8/077 ISOL SC HZY=",
"76459399999","2025-01-09T09:40:00","4","23.161356","-106.266072","11.58","GENERAL RAFAEL BUELNA INTERNATIONAL, MX","FM-15","99999","V020","040,1,N,0021,1","02438,1,C,N","016093,1,9,9","+0200,1","+0190,1","99999,9",,"07,1,+02438,1,03,1","08,1,+07315,1,02,1",,"9,AGL   ,+99999,+99999","99,99,9,07,1,99,9,02438,1,99,9,99,9","10139,1,99999,9",,,"MET080METAR MMMZ 090940Z 04004KT 10SM BKN080 OVC240 20/19 A2994 RMK 8/077 ISOL SC HZY=",
"76459399999","2025-01-09T10:41:00","4","23.161356","-106.266072","11.58","GENERAL RAFAEL BUELNA INTERNATIONAL, MX","FM-15","99999","V020","350,1,N,0015,1","02438,1,9,N","012875,1,9,9","+0200,1","+0190,1","99999,9",,"04,1,+01219,1,06,1","07,1,+02438,1,03,1","08,1,+07315,1,02,1","9,AGL   ,+99999,+99999","99,99,9,04,1,99,9,01219,1,99,9,99,9","10139,1,99999,9",,"61,1","MET084METAR MMMZ 091041Z 35003KT 8SM -RA SCT040 BKN080 OVC240 20/19 A2994 RMK 8/577 RAB35=",
"76459399999","2025-01-09T11:45:00","4","23.161356","-106.266072","11.58","GENERAL RAFAEL BUELNA INTERNATIONAL, MX","FM-15","99999","V020","999,9,C,0000,1","02438,1,9,N","014484,1,9,9","+0190,1","+0190,1","10147,1","01,0008,3,1","04,1,+01219,1,06,1","07,1,+02438,1,03,1","08,1,+07315,1,02,1","9,AGL   ,+99999,+99999","99,99,9,04,1,99,9,01219,1,99,9,99,9","10139,1,99999,9","7,1,003,1,+999,9",,"MET107METAR MMMZ 091145Z 00000KT 9SM SCT040 BKN080 OVC240 19/19 A2994 RMK SLP147 57003 913 60085 8/577 RAE25 HZY=",
"76459399999","2025-01-09T12:40:00","4","23.161356","-106.266072","11.58","GENERAL RAFAEL BUELNA INTERNATIONAL, MX","FM-15","99999","V020","999,9,C,0000,1","02438,1,9,N","014484,1,9,9","+0190,1","+0180,1","99999,9",,"04,1,+01372,1,07,1","07,1,+02438,1,03,1","08,1,+03048,1,99,9","9,AGL   ,+99999,+99999","99,99,9,04,1,99,9,01372,1,99,9,99,9","10146,1,99999,9",,,"MET074METAR MMMZ 091240Z 00000KT 9SM SCT045 BKN080 OVC100 19/18 A2996 RMK 8/77/=",
"76459399999","2025-01-09T13:41:00","4","23.161356","-106.266072","11.58","GENERAL RAFAEL BUELNA INTERNATIONAL, MX","FM-15","99999","V020","999,9,C,0000,1","02134,1,9,N","012875,1,9,9","+0190,1","+0180,1","99999,9",,"04,1,+00914,1,07,1","07,1,+02134,1,03,1","08,1,+02743,1,99,9","9,AGL   ,+99999,+99999","99,99,9,04,1,99,9,00914,1,99,9,99,9","10152,1,99999,9",,"61,1","MET084METAR MMMZ 091341Z 00000KT 8SM -RA SCT030 BKN070 OVC090 19/18 A2998 RMK 8/77/ RAB30=",
"76459399999","2025-01-09T14:13:00","4","23.161356","-106.266072","11.58","GENERAL RAFAEL BUELNA INTERNATIONAL, MX","FM-15","99999","V020","999,9,C,0000,1","00183,1,9,N","002414,1,9,9","+0190,1","+0190,1","99999,9",,"02,1,+00061,1,07,1","07,1,+00183,1,99,9","08,1,+00305,1,99,9","9,AGL   ,+99999,+99999","99,99,9,02,1,99,9,00061,1,99,9,99,9","10163,1,99999,9",,"61,1","MET095METAR MMMZ 091413Z 00000KT 1 1/2SM -RA FEW002 BKN006 OVC010 19/19 A3001 RMK 8/7// TWR VIS 2 SM=",
"76459399999","2025-01-09T14:13:00","4","23.161356","-106.266072","11.58","GENERAL RAFAEL BUELNA INTERNATIONAL, MX","FM-16","99999","V020","999,9,C,0000,1","00183,1,9,N","002414,1,9,9","+0190,1","+0190,1","99999,9",,"02,1,+00061,1,07,1","07,1,+00183,1,99,9","08,1,+00305,1,99,9","9,AGL   ,+99999,+99999","99,99,9,02,1,99,9,00061,1,99,9,99,9","10163,1,99999,9",,"61,1","MET095SPECI MMMZ 091413Z 00000KT 1 1/2SM -RA FEW002 BKN006 OVC010 19/19 A3001 RMK 8/7// TWR VIS 2 SM=",
"76459399999","2025-01-09T14:43:00","4","23.161356","-106.266072","11.58","GENERAL RAFAEL BUELNA INTERNATIONAL, MX","FM-15","99999","V020","999,9,C,0000,1","00183,1,C,N","002414,1,9,9","+0190,1","+0190,1","10162,1","01,0030,3,1","07,1,+00183,1,07,1","08,1,+00305,1,99,9",,"9,AGL   ,+99999,+99999","99,99,9,07,1,99,9,00183,1,99,9,99,9","10163,1,99999,9","2,1,023,1,+999,9","61,1","MET109METAR MMMZ 091443Z 00000KT 1 1/2SM -RA BKN006 OVC010 19/19 A3001 RMK SLP162 52023 903 60305 8/7// RA LIG/MOD=",
"76459399999","2025-01-09T15:10:00","4","23.161356","-106.266072","11.58","GENERAL RAFAEL BUELNA INTERNATIONAL, MX","FM-15","99999","V020","999,9,C,0000,1","00244,1,C,N","004023,1,9,9","+0190,1","+0190,1","99999,9",,"07,1,+00244,1,07,1","08,1,+00396,1,99,9",,"9,AGL   ,+99999,+99999","99,99,9,07,1,99,9,00244,1,99,9,99,9","10163,1,99999,9",,"61,1","MET075METAR MMMZ 091510Z 00000KT 2 1/2SM -RA BKN008 OVC013 19/19 A3001 RMK 8/7//=",
"76459399999","2025-01-09T15:10:00","4","23.161356","-106.266072","11.58","GENERAL RAFAEL BUELNA INTERNATIONAL, MX","FM-16","99999","V020","999,9,C,0000,1","00244,1,C,N","004023,1,9,9","+0190,1","+0190,1","99999,9",,"07,1,+00244,1,07,1","08,1,+00396,1,99,9",,"9,AGL   ,+99999,+99999","99,99,9,07,1,99,9,00244,1,99,9,99,9","10163,1,99999,9",,"61,1","MET075SPECI MMMZ 091510Z 00000KT 2 1/2SM -RA BKN008 OVC013 19/19 A3001 RMK 8/7//=",
"76459399999","2025-01-09T15:40:00","4","23.161356","-106.266072","11.58","GENERAL RAFAEL BUELNA INTERNATIONAL, MX","FM-15","99999","V020","999,9,C,0000,1","00244,1,C,N","004828,1,9,9","+0190,1","+0190,1","99999,9","01,0017,3,1","07,1,+00244,1,07,1","08,1,+00396,1,99,9",,"9,AGL   ,+99999,+99999","99,99,9,07,1,99,9,00244,1,99,9,99,9","10166,1,99999,9",,"61,1","MET087METAR MMMZ 091540Z 00000KT 3SM -RA BKN008 OVC013 19/19 A3002 RMK 60175 8/7// RA INTMTE=",
"76459399999","2025-01-09T16:45:00","4","23.161356","-106.266072","11.58","GENERAL RAFAEL BUELNA INTERNATIONAL, MX","FM-15","99999","V020","999,9,C,0000,1","00244,1,9,N","008047,1,9,9","+0190,1","+0180,1","99999,9","01,0016,3,1","02,1,+00091,1,07,1","07,1,+00244,1,99,9","08,1,+00396,1,99,9","9,AGL   ,+99999,+99999","99,99,9,02,1,99,9,00091,1,99,9,99,9","10169,1,99999,9",,"61,1","MET084METAR MMMZ 091645Z 00000KT 5SM -RA FEW003 BKN008 OVC013 19/18 A3003 RMK 60165 8/7//=",
"76459399999","2025-01-09T17:43:00","4","23.161356","-106.266072","11.58","GENERAL RAFAEL BUELNA INTERNATIONAL, MX","FM-15","99999","V020","999,9,C,0000,1","00457,1,9,N","008047,1,9,9","+0190,1","+0180,1","10160,1","01,0010,3,1","04,1,+00213,1,07,1","07,1,+00457,1,99,9","08,1,+00610,1,99,9","9,AGL   ,+99999,+99999","99,99,9,04,1,99,9,00213,1,99,9,99,9","10166,1,99999,9","2,1,003,1,+999,9","61,1","MET101METAR MMMZ 091743Z 00000KT 5SM -RA SCT007 BKN015 OVC020 19/18 A3002 RMK SLP160 52003 955 60105 8/7//=",
"76459399999","2025-01-09T18:47:00","4","23.161356","-106.266072","11.58","GENERAL RAFAEL BUELNA INTERNATIONAL, MX","FM-15","99999","V020","999,9,C,0000,1","00457,1,9,N","009656,1,9,9","+0190,1","+0180,1","99999,9","01,0015,3,1","04,1,+00213,1,07,1","07,1,+00457,1,99,9","08,1,+00549,1,99,9","9,AGL   ,+99999,+99999","99,99,9,04,1,99,9,00213,1,99,9,99,9","10163,1,99999,9",,"61,1","MET094METAR MMMZ 091847Z 00000KT 6SM -RA SCT007 BKN015 OVC018 19/18 A3001 RMK 60155 8/7// RA INTMTE=",
"76459399999","2025-01-09T19:43:00","4","23.161356","-106.266072","11.58","GENERAL RAFAEL BUELNA INTERNATIONAL, MX","FM-15","99999","V020","330,1,N,0036,1","00488,1,9,N","008047,1,9,9","+0190,1","+0170,1","99999,9","01,0010,3,1","04,1,+00366,1,07,1","07,1,+00488,1,99,9","08,1,+00671,1,99,9","9,AGL   ,+99999,+99999","99,99,9,04,1,99,9,00366,1,99,9,99,9","10149,1,99999,9",,"61,1","MET084METAR MMMZ 091943Z 33007KT 5SM -RA SCT012 BKN016 OVC022 19/17 A2997 RMK 60105 8/7//=",
"76459399999","2025-01-09T20:22:00","4","23.161356","-106.266072","11.58","GENERAL RAFAEL BUELNA INTERNATIONAL, MX","FM-15","99999","V020","999,9,C,0000,1","00549,1,9,N","009656,1,9,9","+0190,1","+0160,1","99999,9",,"04,1,+00366,1,06,1","07,1,+00549,1,99,9","08,1,+00762,1,99,9","9,AGL   ,+99999,+99999","99,99,9,04,1,99,9,00366,1,99,9,99,9","10146,1,99999,9",,,"MET080METAR MMMZ 092022Z 00000KT 6SM SCT012 BKN018 OVC025 19/16 A2996 RMK 8/5// RAE12=",
"76459399999","2025-01-09T20:22:00","4","23.161356","-106.266072","11.58","GENERAL RAFAEL BUELNA INTERNATIONAL, MX","FM-16","99999","V020","999,9,C,0000,1","00549,1,9,N","009656,1,9,9","+0190,1","+0160,1","99999,9",,"04,1,+00366,1,06,1","07,1,+00549,1,99,9","08,1,+00762,1,99,9","9,AGL   ,+99999,+99999","99,99,9,04,1,99,9,00366,1,99,9,99,9","10146,1,99999,9",,,"MET080SPECI MMMZ 092022Z 00000KT 6SM SCT012 BKN018 OVC025 19/16 A2996 RMK 8/5// RAE12=",
"76459399999","2025-01-09T21:42:00","4","23.161356","-106.266072","11.58","GENERAL RAFAEL BUELNA INTERNATIONAL, MX","FM-15","99999","V020","999,9,C,0000,1","02438,1,9,N","022531,1,9,9","+0190,1","+0160,1","99999,9",,"04,1,+01067,1,06,1","07,1,+02438,1,03,1","08,1,+03353,1,99,9","9,AGL   ,+99999,+99999","99,99,9,04,1,99,9,01067,1,99,9,99,9","10142,1,99999,9",,,"MET075METAR MMMZ 092142Z 00000KT 14SM SCT035 BKN080 OVC110 19/16 A2995 RMK 8/57/=",
"76459399999","2025-01-09T22:42:00","4","23.161356","-106.266072","11.58","GENERAL RAFAEL BUELNA INTERNATIONAL, MX","FM-15","99999","V020","999,9,C,0000,1","02743,1,C,N","022531,1,9,9","+0190,1","+0160,1","99999,9",,"08,1,+02743,1,03,1",,,"9,AGL   ,+99999,+99999","99,99,9,08,1,99,9,02743,1,99,9,99,9","10139,1,99999,9",,,"MET069METAR MMMZ 092242Z 00000KT 14SM OVC090 19/16 A2994 RMK 8/07/ ISOL SC=",
"76459399999","2025-01-09T23:44:00","4","23.161356","-106.266072","11.58","GENERAL RAFAEL BUELNA INTERNATIONAL, MX","FM-15","99999","V020","999,9,C,0000,1","02438,1,C,N","019312,1,9,9","+0190,1","+0170,1","10139,1",,"07,1,+02438,1,03,1","08,1,+03048,1,99,9",,"9,AGL   ,+99999,+99999","99,99,9,07,1,99,9,02438,1,99,9,99,9","10142,1,99999,9","7,1,003,1,+999,9",,"MET092METAR MMMZ 092344Z 00000KT 12SM BKN080 OVC100 19/17 A2995 RMK SLP139 57003 905 8/07/ BINOVC=",
"76459399999","2025-01-10T00:44:00","4","23.161356","-106.266072","11.58","GENERAL RAFAEL BUELNA INTERNATIONAL, MX","FM-15","99999","V020","999,9,C,0000,1","01524,1,C,N","019312,1,9,9","+0190,1","+0170,1","99999,9",,"07,1,+01524,1,06,1","07,1,+02134,1,03,1",,"9,AGL   ,+99999,+99999","99,99,9,07,1,99,9,01524,1,99,9,99,9","10142,1,99999,9",,,"MET068METAR MMMZ 100044Z 00000KT 12SM BKN050 BKN070 19/17 A2995 RMK 8/570=",
"76459399999","2025-01-10T01:41:00","4","23.161356","-106.266072","11.58","GENERAL RAFAEL BUELNA INTERNATIONAL, MX","FM-15","99999","V020","320,1,N,0021,1","07620,1,9,N","019312,1,9,9","+0180,1","+0160,1","99999,9",,"02,1,+01219,1,06,1","07,1,+07620,1,00,1",,"9,AGL   ,+99999,+99999","99,99,9,02,1,99,9,01219,1,99,9,99,9","10152,1,99999,9",,,"MET068METAR MMMZ 100141Z 32004KT 12SM FEW040 BKN250 18/16 A2998 RMK 8/502=",
"76459399999","2025-01-10T02:42:00","4","23.161356","-106.266072","11.58","GENERAL RAFAEL BUELNA INTERNATIONAL, MX","FM-15","99999","V020","999,9,C,0000,1","99999,9,9,N","016093,1,9,9","+0150,1","+0140,1","10159,1",,"02,1,+07315,1,00,1",,,"9,AGL   ,+99999,+99999","99,99,9,02,1,99,9,07315,1,99,9,99,9","10159,1,99999,9","2,1,017,1,+999,9",,"MET078METAR MMMZ 100242Z 00000KT 10SM FEW240 15/14 A3000 RMK SLP159 52017 910 8/002=",
"76459399999","2025-01-10T03:44:00","4","23.161356","-106.266072","11.58","GENERAL RAFAEL BUELNA INTERNATIONAL, MX","FM-15","99999","V020","999,9,C,0000,1","99999,9,9,N","016093,1,9,9","+0150,1","+0130,1","99999,9",,"04,1,+07315,1,00,1",,,"9,AGL   ,+99999,+99999","99,99,9,04,1,99,9,07315,1,99,9,99,9","10163,1,99999,9",,,"MET061METAR MMMZ 100344Z 00000KT 10SM SCT240 15/13 A3001 RMK 8/002=",
"76459399999","2025-01-10T04:42:00","4","23.161356","-106.266072","11.58","GENERAL RAFAEL BUELNA INTERNATIONAL, MX","FM-15","99999","V020","999,9,C,0000,1","07315,1,C,N","016093,1,9,9","+0140,1","+0120,1","99999,9",,"02,1,+03048,1,03,1","04,1,+07315,1,00,1",,"9,AGL   ,+99999,+99999","99,99,9,02,1,99,9,03048,1,99,9,99,9","10176,1,99999,9",,,"MET068METAR MMMZ 100442Z 00000KT 10SM FEW100 SCT240 14/12 A3005 RMK 8/032=",
"76459399999","2025-01-10T05:45:00","4","23.161356","-106.266072","11.58","GENERAL RAFAEL BUELNA INTERNATIONAL, MX","FM-15","99999","V020","030,1,N,0015,1","99999,9,9,N","016093,1,9,9","+0140,1","+0120,1","10169,1",,"04,1,+07315,1,00,1",,,"9,AGL   ,+99999,+99999","99,99,9,04,1,99,9,07315,1,99,9,99,9","10173,1,99999,9","2,1,013,1,+999,9",,"MET078METAR MMMZ 100545Z 03003KT 10SM SCT240 14/12 A3004 RMK SLP169 52013 905 8/002=",
"76459399999","2025-01-10T06:44:00","4","23.161356","-106.266072","11.58","GENERAL RAFAEL BUELNA INTERNATIONAL, MX","FM-15","99999","V020","010,1,N,0015,1","07315,1,C,N","016093,1,9,9","+0140,1","+0120,1","99999,9",,"02,1,+03048,1,03,1","04,1,+07315,1,00,1",,"9,AGL   ,+99999,+99999","99,99,9,02,1,99,9,03048,1,99,9,99,9","10169,1,99999,9",,,"MET068METAR MMMZ 100644Z 01003KT 10SM FEW100 SCT240 14/12 A3003 RMK 8/032=",
"76459399999","2025-01-10T07:44:00","4","23.161356","-106.266072","11.58","GENERAL RAFAEL BUELNA INTERNATIONAL, MX","FM-15","99999","V020","999,9,C,0000,1","03048,1,C,N","016093,1,9,9","+0130,1","+0110,1","99999,9",,"07,1,+03048,1,03,1","07,1,+07315,1,00,1",,"9,AGL   ,+99999,+99999","99,99,9,07,1,99,9,03048,1,99,9,99,9","10166,1,99999,9",,,"MET068METAR MMMZ 100744Z 00000KT 10SM BKN100 BKN240 13/11 A3002 RMK 8/032=",
"76459399999","2025-01-10T08:40:00","4","23.161356","-106.266072","11.58","GENERAL RAFAEL BUELNA INTERNATIONAL, MX","FM-15","99999","V020","350,1,N,0015,1","03048,1,C,N","016093,1,9,9","+0140,1","+0110,1","10147,1",,"07,1,+03048,1,03,1","07,1,+07315,1,00,1",,"9,AGL   ,+99999,+99999","99,99,9,07,1,99,9,03048,1,99,9,99,9","10163,1,99999,9","7,1,010,1,+999,9",,"MET085METAR MMMZ 100840Z 35003KT 10SM BKN100 BKN240 14/11 A3001 RMK SLP147 57010 906 8/032=",
"76459399999","2025-01-10T09:40:00","4","23.161356","-106.266072","11.58","GENERAL RAFAEL BUELNA INTERNATIONAL, MX","FM-15","99999","V020","999,9,C,0000,1","07315,1,9,N","016093,1,9,9","+0130,1","+0110,1","99999,9",,"04,1,+03048,1,03,1","07,1,+07315,1,00,1",,"9,AGL   ,+99999,+99999","99,99,9,04,1,99,9,03048,1,99,9,99,9","10152,1,99999,9",,,"MET068METAR MMMZ 100940Z 00000KT 10SM SCT100 BKN240 13/11 A2998 RMK 8/032=",
"76459399999","2025-01-10T10:40:00","4","23.161356","-106.266072","11.58","GENERAL RAFAEL BUELNA INTERNATIONAL, MX","FM-15","99999","V020","350,1,N,0026,1","07315,1,9,N","016093,1,9,9","+0140,1","+0110,1","99999,9",,"04,1,+03048,1,03,1","07,1,+07315,1,00,1",,"9,AGL   ,+99999,+99999","99,99,9,04,1,99,9,03048,1,99,9,99,9","10149,1,99999,9",,,"MET068METAR MMMZ 101040Z 35005KT 10SM SCT100 BKN240 14/11 A2997 RMK 8/032=",
"76459399999","2025-01-10T11:44:00","4","23.161356","-106.266072","11.58","GENERAL RAFAEL BUELNA INTERNATIONAL, MX","FM-15","99999","V020","010,1,N,0015,1","07620,1,C,N","016093,1,9,9","+0130,1","+0110,1","10135,1",,"02,1,+03048,1,03,1","04,1,+07620,1,00,1",,"9,AGL   ,+99999,+99999","99,99,9,02,1,99,9,03048,1,99,9,99,9","10139,1,99999,9","7,1,023,1,+999,9",,"MET085METAR MMMZ 101144Z 01003KT 10SM FEW100 SCT250 13/11 A2994 RMK SLP135 57023 962 8/032=",
"76459399999","2025-01-10T12:49:00","4","23.161356","-106.266072","11.58","GENERAL RAFAEL BUELNA INTERNATIONAL, MX","FM-15","99999","V020","999,9,C,0000,1","99999,9,9,N","016093,1,9,9","+0110,1","+0100,1","99999,9",,"04,1,+07315,1,00,1",,,"9,AGL   ,+99999,+99999","99,99,9,04,1,99,9,07315,1,99,9,99,9","10142,1,99999,9",,,"MET061METAR MMMZ 101249Z 00000KT 10SM SCT240 11/10 A2995 RMK 8/002=",
"76459399999","2025-01-10T13:42:00","4","23.161356","-106.266072","11.58","GENERAL RAFAEL BUELNA INTERNATIONAL, MX","FM-15","99999","V020","999,9,C,0000,1","07620,1,C,N","019312,1,9,9","+0110,1","+0100,1","99999,9",,"02,1,+01219,1,06,1","04,1,+07620,1,00,1",,"9,AGL   ,+99999,+99999","99,99,9,02,1,99,9,01219,1,99,9,99,9","10142,1,99999,9",,,"MET068METAR MMMZ 101342Z 00000KT 12SM FEW040 SCT250 11/10 A2995 RMK 8/502=",
"76459399999","2025-01-10T14:44:00","4","23.161356","-106.266072","11.58","GENERAL RAFAEL BUELNA INTERNATIONAL, MX","FM-15","99999","V020","999,9,C,0000,1","07620,1,C,N","022531,1,9,9","+0130,1","+0110,1","10145,1",,"02,1,+02438,1,03,1","04,1,+07620,1,00,1",,"9,AGL   ,+99999,+99999","99,99,9,02,1,99,9,02438,1,99,9,99,9","10149,1,99999,9","2,1,010,1,+999,9",,"MET100METAR MMMZ 101444Z 00000KT 14SM FEW080 SCT250 13/11 A2997 RMK SLP145 52010 967 8/082 FULYR 3RD QUAD=",
"76459399999","2025-01-10T15:45:00","4","23.161356","-106.266072","11.58","GENERAL RAFAEL BUELNA INTERNATIONAL, MX","FM-15","99999","V020","999,9,C,0000,1","99999,9,9,N","022531,1,9,9","+0170,1","+0120,1","99999,9",,"04,1,+07620,1,00,1",,,"9,AGL   ,+99999,+99999","99,99,9,04,1,99,9,07620,1,99,9,99,9","10156,1,99999,9",,,"MET072METAR MMMZ 101545Z 00000KT 14SM SCT250 17/12 A2999 RMK 8/002 ISOL SC-AC=",
"76459399999","2025-01-10T16:44:00","4","23.161356","-106.266072","11.58","GENERAL RAFAEL BUELNA INTERNATIONAL, MX","FM-15","99999","V020","050,1,N,0026,1","07315,1,C,N","022531,1,9,9","+0190,1","+0120,1","99999,9",,"02,1,+00853,1,06,1","04,1,+07315,1,00,1",,"9,AGL   ,+99999,+99999","99,99,9,02,1,99,9,00853,1,99,9,99,9","10159,1,99999,9",,,"MET068METAR MMMZ 101644Z 05005KT 14SM FEW028 SCT240 19/12 A3000 RMK 8/502=",
"76459399999","2025-01-10T17:48:00","4","23.161356","-106.266072","11.58","GENERAL RAFAEL BUELNA INTERNATIONAL, MX","FM-15","99999","V020","300,1,N,0031,1","07315,1,C,N","022531,1,9,9","+0210,1","+0100,1","10148,1",,"04,1,+00853,1,06,1","04,1,+07315,1,00,1",,"9,AGL   ,+99999,+99999","99,99,9,04,1,99,9,00853,1,99,9,99,9","10152,1,99999,9","2,1,003,1,+999,9",,"MET093METAR MMMZ 101748Z 30006KT 14SM SCT028 SCT240 21/10 A2998 RMK SLP148 52003 962 8/502 ISOL AC=",
"76459399999","2025-01-10T18:46:00","4","23.161356","-106.266072","11.58","GENERAL RAFAEL BUELNA INTERNATIONAL, MX","FM-15","99999","V020","020,1,N,0031,1","07315,1,C,N","022531,1,9,9","+0230,1","+0100,1","99999,9",,"02,1,+00853,1,06,1","04,1,+07315,1,00,1",,"9,AGL   ,+99999,+99999","99,99,9,02,1,99,9,00853,1,99,9,99,9","10139,1,99999,9",,,"MET068METAR MMMZ 101846Z 02006KT 14SM FEW028 SCT240 23/10 A2994 RMK 8/502=",
"76459399999","2025-01-10T19:45:00","4","23.161356","-106.266072","11.58","GENERAL RAFAEL BUELNA INTERNATIONAL, MX","FM-15","99999","V020","320,1,N,0082,1","99999,9,9,N","022531,1,9,9","+0230,1","+0080,1","99999,9",,"02,1,+00853,1,06,1","02,1,+07315,1,00,1",,"9,AGL   ,+99999,+99999","99,99,9,02,1,99,9,00853,1,99,9,99,9","10125,1,99999,9",,,"MET068METAR MMMZ 101945Z 32016KT 14SM FEW028 FEW240 23/08 A2990 RMK 8/502=",
"76459399999","2025-01-10T20:48:00","4","23.161356","-106.266072","11.58","GENERAL RAFAEL BUELNA INTERNATIONAL, MX","FM-15","99999","V020","340,1,N,0046,1","07315,1,C,N","022531,1,9,9","+0240,1","+0070,1","10118,1",,"02,1,+00853,1,06,1","04,1,+07315,1,00,1",,"9,AGL   ,+99999,+99999","99,99,9,02,1,99,9,00853,1,99,9,99,9","10118,1,99999,9","7,1,033,1,+999,9",,"MET085METAR MMMZ 102048Z 34009KT 14SM FEW028 SCT240 24/07 A2988 RMK SLP118 57033 977 8/502=",
"76459399999","2025-01-10T21:46:00","4","23.161356","-106.266072","11.58","GENERAL RAFAEL BUELNA INTERNATIONAL, MX","FM-15","99999","V020","290,1,N,0062,1","07315,1,9,N","022531,1,9,9","+0230,1","+0070,1","99999,9",,"02,1,+00610,1,06,1","07,1,+07315,1,00,1",,"9,AGL   ,+99999,+99999","99,99,9,02,1,99,9,00610,1,99,9,99,9","10108,1,99999,9",,,"MET068METAR MMMZ 102146Z 29012KT 14SM FEW020 BKN240 23/07 A2985 RMK 8/502=",
"76459399999","2025-01-10T22:40:00","4","23.161356","-106.266072","11.58","GENERAL RAFAEL BUELNA INTERNATIONAL, MX","FM-15","99999","V020","320,1,N,0088,1","07315,1,9,N","020921,1,9,9","+0220,1","+0040,1","99999,9",,"02,1,+00762,1,06,1","07,1,+07315,1,02,1",,"9,AGL   ,+99999,+99999","99,99,9,02,1,99,9,00762,1,99,9,99,9","10112,1,99999,9",,,"MET068METAR MMMZ 102240Z 32017KT 13SM FEW025 BKN240 22/04 A2986 RMK 8/508=",
"76459399999","2025-01-10T23:47:00","4","23.161356","-106.266072","11.58","GENERAL RAFAEL BUELNA INTERNATIONAL, MX","FM-15","99999","V020","320,1,N,0062,1","07315,1,9,N","020921,1,9,9","+0200,1","+0050,1","10109,1",,"02,1,+00610,1,06,1","07,1,+07315,1,02,1",,"9,AGL   ,+99999,+99999","99,99,9,02,1,99,9,00610,1,99,9,99,9","10112,1,99999,9","2,1,007,1,+999,9",,"MET085METAR MMMZ 102347Z 32012KT 13SM FEW020 BKN240 20/05 A2986 RMK SLP109 52007 980 8/508=",
"76459399999","2025-01-11T00:42:00","4","23.161356","-106.266072","11.58","GENERAL RAFAEL BUELNA INTERNATIONAL, MX","FM-15","99999","V020","320,1,N,0046,1","07315,1,C,N","019312,1,9,9","+0190,1","+0050,1","99999,9",,"02,1,+00762,1,06,1","04,1,+07315,1,00,1",,"9,AGL   ,+99999,+99999","99,99,9,02,1,99,9,00762,1,99,9,99,9","10118,1,99999,9",,,"MET068METAR MMMZ 110042Z 32009KT 12SM FEW025 SCT240 19/05 A2988 RMK 8/502=",
"76459399999","2025-01-11T01:46:00","4","23.161356","-106.266072","11.58","GENERAL RAFAEL BUELNA INTERNATIONAL, MX","FM-15","99999","V020","340,1,N,0031,1","99999,9,9,N","016093,1,9,9","+0170,1","+0070,1","99999,9",,"02,1,+00914,1,06,1",,,"9,AGL   ,+99999,+99999","99,99,9,02,1,99,9,00914,1,99,9,99,9","10122,1,99999,9",,,"MET069METAR MMMZ 110146Z 34006KT 10SM FEW030 17/07 A2989 RMK 8/500 ISOL CI=",
"76459399999","2025-01-11T02:44:00","4","23.161356","-106.266072","11.58","GENERAL RAFAEL BUELNA INTERNATIONAL, MX","FM-15","99999","V020","340,1,N,0021,1","22000,1,9,N","016093,1,9,9","+0160,1","+0080,1","10121,1",,,,,,"00,99,1,99,9,99,9,99999,9,99,9,99,9","10122,1,99999,9","2,1,010,1,+999,9",,"MET077METAR MMMZ 110244Z 34004KT 10SM SKC 16/08 A2989 RMK SLP121 52010 987 ISOL SC=",
"76459399999","2025-01-11T03:40:00","4","23.161356","-106.266072","11.58","GENERAL RAFAEL BUELNA INTERNATIONAL, MX","FM-15","99999","V020","999,9,C,0000,1","22000,1,9,N","016093,1,9,9","+0150,1","+0080,1","99999,9",,,,,,"00,99,1,99,9,99,9,99999,9,99,9,99,9","10125,1,99999,9",,,"MET060METAR MMMZ 110340Z 00000KT 10SM SKC 15/08 A2990 RMK ISOL CI=",
"76459399999","2025-01-11T04:42:00","4","23.161356","-106.266072","11.58","GENERAL RAFAEL BUELNA INTERNATIONAL, MX","FM-15","99999","V020","999,9,C,0000,1","22000,1,9,N","016093,1,9,9","+0130,1","+0080,1","99999,9",,,,,,"00,99,1,99,9,99,9,99999,9,99,9,99,9","10129,1,99999,9",,,"MET063METAR MMMZ 110442Z 00000KT 10SM SKC 13/08 A2991 RMK ISOL SC CI=",
"76459399999","2025-01-11T05:46:00","4","23.161356","-106.266072","11.58","GENERAL RAFAEL BUELNA INTERNATIONAL, MX","FM-15","99999","V020","999,9,C,0000,1","22000,1,9,N","016093,1,9,9","+0110,1","+0090,1","10137,1",,,,,,"00,99,1,99,9,99,9,99999,9,99,9,99,9","10129,1,99999,9","2,1,007,1,+999,9",,"MET080METAR MMMZ 110546Z 00000KT 10SM SKC 11/09 A2991 RMK SLP137 52007 981 ISOL SC CI=",
"76459399999","2025-01-11T06:45:00","4","23.161356","-106.266072","11.58","GENERAL RAFAEL BUELNA INTERNATIONAL, MX","FM-15","99999","V020","999,9,C,0000,1","22000,1,9,N","016093,1,9,9","+0100,1","+0090,1","99999,9",,,,,,"00,99,1,99,9,99,9,99999,9,99,9,99,9","10129,1,99999,9",,,"MET067METAR MMMZ 110645Z 00000KT 10SM SKC 10/09 A2991 RMK ISOL SC CI RTS=",
"76459399999","2025-01-11T07:44:00","4","23.161356","-106.266072","11.58","GENERAL RAFAEL BUELNA INTERNATIONAL, MX","FM-15","99999","V020","999,9,C,0000,1","22000,1,9,N","016093,1,9,9","+0100,1","+0080,1","99999,9",,,,,,"00,99,1,99,9,99,9,99999,9,99,9,99,9","10129,1,99999,9",,,"MET063METAR MMMZ 110744Z 00000KT 10SM SKC 10/08 A2991 RMK ISOL SC CI=",
"76459399999","2025-01-11T08:41:00","4","23.161356","-106.266072","11.58","GENERAL RAFAEL BUELNA INTERNATIONAL, MX","FM-15","99999","V020","999,9,C,0000,1","22000,1,9,N","016093,1,9,9","+0100,1","+0080,1","10125,1",,,,,,"00,99,1,99,9,99,9,99999,9,99,9,99,9","10125,1,99999,9","7,1,003,1,+999,9",,"MET080METAR MMMZ 110841Z 00000KT 10SM SKC 10/08 A2990 RMK SLP125 57003 972 ISOL SC CI=",
"76459399999","2025-01-11T09:43:00","4","23.161356","-106.266072","11.58","GENERAL RAFAEL BUELNA INTERNATIONAL, MX","FM-15","99999","V020","060,1,N,0021,1","99999,9,9,N","016093,1,9,9","+0110,1","+0100,1","99999,9",,"04,1,+02438,1,03,1",,,"9,AGL   ,+99999,+99999","99,99,9,04,1,99,9,02438,1,99,9,99,9","10122,1,99999,9",,,"MET069METAR MMMZ 110943Z 06004KT 10SM SCT080 11/10 A2989 RMK 8/050 ISOL SC=",
"76459399999","2025-01-11T10:40:00","4","23.161356","-106.266072","11.58","GENERAL RAFAEL BUELNA INTERNATIONAL, MX","FM-15","99999","V020","999,9,C,0000,1","02438,1,C,N","016093,1,9,9","+0120,1","+0100,1","99999,9",,"07,1,+02438,1,03,1",,,"9,AGL   ,+99999,+99999","99,99,9,07,1,99,9,02438,1,99,9,99,9","10118,1,99999,9",,,"MET061METAR MMMZ 111040Z 00000KT 10SM BKN080 12/10 A2988 RMK 8/050=",
"76459399999","2025-01-11T11:45:00","4","23.161356","-106.266072","11.58","GENERAL RAFAEL BUELNA INTERNATIONAL, MX","FM-15","99999","V020","999,9,C,0000,1","99999,9,9,N","016093,1,9,9","+0100,1","+0090,1","10114,1",,"02,1,+02438,1,03,1",,,"9,AGL   ,+99999,+99999","99,99,9,02,1,99,9,02438,1,99,9,99,9","10115,1,99999,9","7,1,010,1,+999,9",,"MET078METAR MMMZ 111145Z 00000KT 10SM FEW080 10/09 A2987 RMK SLP114 57010 960 8/050=",
"76459399999","2025-01-11T12:41:00","4","23.161356","-106.266072","11.58","GENERAL RAFAEL BUELNA INTERNATIONAL, MX","FM-15","99999","V020","999,9,C,0000,1","99999,9,9,N","016093,1,9,9","+0100,1","+0090,1","99999,9",,"02,1,+02438,1,03,1",,,"9,AGL   ,+99999,+99999","99,99,9,02,1,99,9,02438,1,99,9,99,9","10122,1,99999,9",,,"MET061METAR MMMZ 111241Z 00000KT 10SM FEW080 10/09 A2989 RMK 8/050=",
"76459399999","2025-01-11T13:44:00","4","23.161356","-106.266072","11.58","GENERAL RAFAEL BUELNA INTERNATIONAL, MX","FM-15","99999","V020","060,1,N,0015,1","22000,1,9,N","017703,1,9,9","+0090,1","+0090,1","99999,9",,,,,,"00,99,1,99,9,99,9,99999,9,99,9,99,9","10125,1,99999,9",,,"MET064METAR MMMZ 111344Z 06003KT 11SM SKC 09/09 A2990 RMK ISOL SC HZY=",
"76459399999","2025-01-11T14:43:00","4","23.161356","-106.266072","11.58","GENERAL RAFAEL BUELNA INTERNATIONAL, MX","FM-15","99999","V020","060,1,N,0015,1","99999,9,9,N","022531,1,9,9","+0100,1","+0090,1","10135,1",,"04,1,+00853,1,06,1",,,"9,AGL   ,+99999,+99999","99,99,9,04,1,99,9,00853,1,99,9,99,9","10135,1,99999,9","2,1,020,1,+999,9",,"MET093METAR MMMZ 111443Z 06003KT 14SM SCT028 10/09 A2993 RMK SLP135 52020 960 8/500 FULYR 3RD QUAD=",
"76459399999","2025-01-11T15:46:00","4","23.161356","-106.266072","11.58","GENERAL RAFAEL BUELNA INTERNATIONAL, MX","FM-15","99999","V020","030,1,N,0015,1","99999,9,9,N","022531,1,9,9","+0140,1","+0100,1","99999,9",,"04,1,+00853,1,06,1",,,"9,AGL   ,+99999,+99999","99,99,9,04,1,99,9,00853,1,99,9,99,9","10142,1,99999,9",,,"MET076METAR MMMZ 111546Z 03003KT 14SM SCT028 14/10 A2995 RMK 8/500 FULYR 3RD QUAD=",
"76459399999","2025-01-11T16:43:00","4","23.161356","-106.266072","11.58","GENERAL RAFAEL BUELNA INTERNATIONAL, MX","FM-15","99999","V020","999,9,C,0000,1","00853,1,C,N","022531,1,9,9","+0180,1","+0100,1","99999,9",,"07,1,+00853,1,06,1",,,"9,AGL   ,+99999,+99999","99,99,9,07,1,99,9,00853,1,99,9,99,9","10149,1,99999,9",,,"MET061METAR MMMZ 111643Z 00000KT 14SM BKN028 18/10 A2997 RMK 8/500=",
"76459399999","2025-01-11T17:45:00","4","23.161356","-106.266072","11.58","GENERAL RAFAEL BUELNA INTERNATIONAL, MX","FM-15","99999","V020","999,9,C,0000,1","99999,9,9,N","022531,1,9,9","+0200,1","+0100,1","10144,1",,"04,1,+00853,1,06,1",,,"9,AGL   ,+99999,+99999","99,99,9,04,1,99,9,00853,1,99,9,99,9","10149,1,99999,9","2,1,013,1,+999,9",,"MET078METAR MMMZ 111745Z 00000KT 14SM SCT028 20/10 A2997 RMK SLP144 52013 954 8/500=",
"76459399999","2025-01-11T18:44:00","4","23.161356","-106.266072","11.58","GENERAL RAFAEL BUELNA INTERNATIONAL, MX","FM-15","99999","V020","160,1,N,0021,1","99999,9,9,N","022531,1,9,9","+0220,1","+0110,1","99999,9",,"04,1,+00853,1,06,1",,,"9,AGL   ,+99999,+99999","99,99,9,04,1,99,9,00853,1,99,9,99,9","10142,1,99999,9",,,"MET061METAR MMMZ 111844Z 16004KT 14SM SCT028 22/11 A2995 RMK 8/500=",
"76459399999","2025-01-11T19:44:00","4","23.161356","-106.266072","11.58","GENERAL RAFAEL BUELNA INTERNATIONAL, MX","FM-15","99999","V020","240,1,N,0046,1","99999,9,9,N","022531,1,9,9","+0220,1","+0100,1","99999,9",,"02,1,+00853,1,06,1",,,"9,AGL   ,+99999,+99999","99,99,9,02,1,99,9,00853,1,99,9,99,9","10135,1,99999,9",,,"MET063METAR MMMZ 111944Z 24009KT 14SM FEW028 22/10 A2993 RMK 8/500 S=",
"76459399999","2025-01-11T20:47:00","4","23.161356","-106.266072","11.58","GENERAL RAFAEL BUELNA INTERNATIONAL, MX","FM-15","99999","V020","240,1,N,0036,1","99999,9,9,N","022531,1,9,9","+0220,1","+0090,1","10132,1",,"02,1,+00853,1,06,1",,,"9,AGL   ,+99999,+99999","99,99,9,02,1,99,9,00853,1,99,9,99,9","10132,1,99999,9","7,1,017,1,+999,9",,"MET078METAR MMMZ 112047Z 24007KT 14SM FEW028 22/09 A2992 RMK SLP132 57017 914 8/500=",
"76459399999","2025-01-11T21:46:00","4","23.161356","-106.266072","11.58","GENERAL RAFAEL BUELNA INTERNATIONAL, MX","FM-15","99999","V020","200,1,N,0031,1","99999,9,9,N","022531,1,9,9","+0220,1","+0100,1","99999,9",,"02,1,+00914,1,06,1",,,"9,AGL   ,+99999,+99999","99,99,9,02,1,99,9,00914,1,99,9,99,9","10132,1,99999,9",,,"MET061METAR MMMZ 112146Z 20006KT 14SM FEW030 22/10 A2992 RMK 8/500=",
"76459399999","2025-01-11T22:47:00","4","23.161356","-106.266072","11.58","GENERAL RAFAEL BUELNA INTERNATIONAL, MX","FM-15","99999","V020","240,1,N,0041,1","99999,9,9,N","022531,1,9,9","+0210,1","+0110,1","99999,9",,"02,1,+00914,1,06,1",,,"9,AGL   ,+99999,+99999","99,99,9,02,1,99,9,00914,1,99,9,99,9","10132,1,99999,9",,,"MET061METAR MMMZ 112247Z 24008KT 14SM FEW030 21/11 A2992 RMK 8/500=",
"76459399999","2025-01-11T23:43:00","4","23.161356","-106.266072","11.58","GENERAL RAFAEL BUELNA INTERNATIONAL, MX","FM-15","99999","V020","240,1,N,0031,1","99999,9,9,N","022531,1,9,9","+0210,1","+0110,1","10124,1",,"02,1,+00914,1,06,1",,,"9,AGL   ,+99999,+99999","99,99,9,02,1,99,9,00914,1,99,9,99,9","10129,1,99999,9","7,1,003,1,+999,9",,"MET078METAR MMMZ 112343Z 24006KT 14SM FEW030 21/11 A2991 RMK SLP124 57003 915 8/500=",
"76459399999","2025-01-12T00:43:00","4","23.161356","-106.266072","11.58","GENERAL RAFAEL BUELNA INTERNATIONAL, MX","FM-15","99999","V020","999,9,C,0000,1","99999,9,9,N","019312,1,9,9","+0180,1","+0120,1","99999,9",,"02,1,+00914,1,06,1",,,"9,AGL   ,+99999,+99999","99,99,9,02,1,99,9,00914,1,99,9,99,9","10129,1,99999,9",,,"MET069METAR MMMZ 120043Z 00000KT 12SM FEW030 18/12 A2991 RMK 8/500 ISOL AC=",
"76459399999","2025-01-12T01:44:00","4","23.161356","-106.266072","11.58","GENERAL RAFAEL BUELNA INTERNATIONAL, MX","FM-15","99999","V020","999,9,C,0000,1","99999,9,9,N","016093,1,9,9","+0160,1","+0120,1","99999,9",,"02,1,+00914,1,06,1",,,"9,AGL   ,+99999,+99999","99,99,9,02,1,99,9,00914,1,99,9,99,9","10132,1,99999,9",,,"MET061METAR MMMZ 120144Z 00000KT 10SM FEW030 16/12 A2992 RMK 8/500=",
"76459399999","2025-01-12T02:48:00","4","23.161356","-106.266072","11.58","GENERAL RAFAEL BUELNA INTERNATIONAL, MX","FM-15","99999","V020","050,1,N,0021,1","99999,9,9,N","016093,1,9,9","+0140,1","+0110,1","10135,1",,"02,1,+00914,1,06,1",,,"9,AGL   ,+99999,+99999","99,99,9,02,1,99,9,00914,1,99,9,99,9","10135,1,99999,9","2,1,007,1,+999,9",,"MET078METAR MMMZ 120248Z 05004KT 10SM FEW030 14/11 A2993 RMK SLP135 52007 914 8/500=",
"76459399999","2025-01-12T03:47:00","4","23.161356","-106.266072","11.58","GENERAL RAFAEL BUELNA INTERNATIONAL, MX","FM-15","99999","V020","050,1,N,0026,1","99999,9,9,N","016093,1,9,9","+0140,1","+0110,1","99999,9",,"02,1,+03353,1,03,1",,,"9,AGL   ,+99999,+99999","99,99,9,02,1,99,9,03353,1,99,9,99,9","10139,1,99999,9",,,"MET061METAR MMMZ 120347Z 05005KT 10SM FEW110 14/11 A2994 RMK 8/050=",
"76459399999","2025-01-12T04:48:00","4","23.161356","-106.266072","11.58","GENERAL RAFAEL BUELNA INTERNATIONAL, MX","FM-15","99999","V020","040,1,N,0021,1","99999,9,9,N","016093,1,9,9","+0130,1","+0110,1","99999,9",,"04,1,+02743,1,03,1",,,"9,AGL   ,+99999,+99999","99,99,9,04,1,99,9,02743,1,99,9,99,9","10142,1,99999,9",,,"MET061METAR MMMZ 120448Z 04004KT 10SM SCT090 13/11 A2995 RMK 8/030=",
"76459399999","2025-01-12T05:42:00","4","23.161356","-106.266072","11.58","GENERAL RAFAEL BUELNA INTERNATIONAL, MX","FM-15","99999","V020","050,1,N,0015,1","07620,1,C,N","016093,1,9,9","+0140,1","+0120,1","10135,1",,"02,1,+01524,1,06,1","02,1,+02743,1,03,1","04,1,+07620,1,00,1","9,AGL   ,+99999,+99999","99,99,9,02,1,99,9,01524,1,99,9,99,9","10139,1,99999,9","2,1,003,1,+999,9",,"MET092METAR MMMZ 120542Z 05003KT 10SM FEW050 FEW090 SCT250 14/12 A2994 RMK SLP135 52003 952 8/532=",
"76459399999","2025-01-12T06:46:00","4","23.161356","-106.266072","11.58","GENERAL RAFAEL BUELNA INTERNATIONAL, MX","FM-15","99999","V020","999,9,C,0000,1","07620,1,C,N","016093,1,9,9","+0120,1","+0110,1","99999,9",,"02,1,+02743,1,03,1","04,1,+07620,1,00,1",,"9,AGL   ,+99999,+99999","99,99,9,02,1,99,9,02743,1,99,9,99,9","10135,1,99999,9",,,"MET076METAR MMMZ 120646Z 00000KT 10SM FEW090 SCT250 12/11 A2993 RMK 8/032 ISOL SC=",
"76459399999","2025-01-12T07:40:00","4","23.161356","-106.266072","11.58","GENERAL RAFAEL BUELNA INTERNATIONAL, MX","FM-15","99999","V020","060,1,N,0021,1","07620,1,C,N","016093,1,9,9","+0120,1","+0110,1","99999,9",,"02,1,+01524,1,06,1","02,1,+02743,1,03,1","04,1,+07620,1,00,1","9,AGL   ,+99999,+99999","99,99,9,02,1,99,9,01524,1,99,9,99,9","10135,1,99999,9",,,"MET075METAR MMMZ 120740Z 06004KT 10SM FEW050 FEW090 SCT250 12/11 A2993 RMK 8/532=",
"76459399999","2025-01-12T08:43:00","4","23.161356","-106.266072","11.58","GENERAL RAFAEL BUELNA INTERNATIONAL, MX","FM-15","99999","V020","040,1,N,0031,1","99999,9,9,N","016093,1,9,9","+0120,1","+0110,1","10121,1",,"02,1,+02743,1,03,1",,,"9,AGL   ,+99999,+99999","99,99,9,02,1,99,9,02743,1,99,9,99,9","10135,1,99999,9","7,1,003,1,+999,9",,"MET078METAR MMMZ 120843Z 04006KT 10SM FEW090 12/11 A2993 RMK SLP121 57003 954 8/030=",
"76459399999","2025-01-12T09:40:00","4","23.161356","-106.266072","11.58","GENERAL RAFAEL BUELNA INTERNATIONAL, MX","FM-15","99999","V020","999,9,C,0000,1","22000,1,9,N","016093,1,9,9","+0120,1","+0110,1","99999,9",,,,,,"00,99,1,99,9,99,9,99999,9,99,9,99,9","10139,1,99999,9",,,"MET048METAR MMMZ 120940Z 00000KT 10SM SKC 12/11 A2994=",
"76459399999","2025-01-12T10:41:00","4","23.161356","-106.266072","11.58","GENERAL RAFAEL BUELNA INTERNATIONAL, MX","FM-15","99999","V020","999,9,C,0000,1","02743,1,9,N","016093,1,9,9","+0110,1","+0100,1","99999,9",,"04,1,+01219,1,06,1","07,1,+02743,1,03,1",,"9,AGL   ,+99999,+99999","99,99,9,04,1,99,9,01219,1,99,9,99,9","10142,1,99999,9",,,"MET076METAR MMMZ 121041Z 00000KT 10SM SCT040 BKN090 11/10 A2995 RMK 8/530 ISOL CI=",
"76459399999","2025-01-12T11:42:00","4","23.161356","-106.266072","11.58","GENERAL RAFAEL BUELNA INTERNATIONAL, MX","FM-15","99999","V020","999,9,C,0000,1","07620,1,C,N","016093,1,9,9","+0110,1","+0100,1","10141,1",,"02,1,+02743,1,03,1","04,1,+07620,1,00,1",,"9,AGL   ,+99999,+99999","99,99,9,02,1,99,9,02743,1,99,9,99,9","10146,1,99999,9","2,1,010,1,+999,9",,"MET085METAR MMMZ 121142Z 00000KT 10SM FEW090 SCT250 11/10 A2996 RMK SLP141 52010 926 8/032=",
"76459399999","2025-01-12T12:41:00","4","23.161356","-106.266072","11.58","GENERAL RAFAEL BUELNA INTERNATIONAL, MX","FM-15","99999","V020","999,9,C,0000,1","07620,1,C,N","016093,1,9,9","+0110,1","+0100,1","99999,9",,"02,1,+02743,1,03,1","04,1,+07620,1,00,1",,"9,AGL   ,+99999,+99999","99,99,9,02,1,99,9,02743,1,99,9,99,9","10152,1,99999,9",,,"MET068METAR MMMZ 121241Z 00000KT 10SM FEW090 SCT250 11/10 A2998 RMK 8/032=",
"76459399999","2025-01-12T13:44:00","4","23.161356","-106.266072","11.58","GENERAL RAFAEL BUELNA INTERNATIONAL, MX","FM-15","99999","V020","999,9,C,0000,1","99999,9,9,N","019312,1,9,9","+0100,1","+0100,1","99999,9",,"04,1,+07315,1,00,1",,,"9,AGL   ,+99999,+99999","99,99,9,04,1,99,9,07315,1,99,9,99,9","10156,1,99999,9",,,"MET071METAR MMMZ 121344Z 00000KT 12SM SCT240 10/10 A2999 RMK 8/002 ISOL SC S=",
"76459399999","2025-01-12T14:42:00","4","23.161356","-106.266072","11.58","GENERAL RAFAEL BUELNA INTERNATIONAL, MX","FM-15","99999","V020","040,1,N,0026,1","07315,1,9,N","022531,1,9,9","+0120,1","+0110,1","10162,1",,"02,1,+02743,1,03,1","07,1,+07315,1,02,1",,"9,AGL   ,+99999,+99999","99,99,9,02,1,99,9,02743,1,99,9,99,9","10163,1,99999,9","2,1,017,1,+999,9",,"MET093METAR MMMZ 121442Z 04005KT 14SM FEW090 BKN240 12/11 A3001 RMK SLP162 52017 927 8/038 FULYR W=",
"76459399999","2025-01-12T15:43:00","4","23.161356","-106.266072","11.58","GENERAL RAFAEL BUELNA INTERNATIONAL, MX","FM-15","99999","V020","040,1,N,0015,1","07315,1,9,N","022531,1,9,9","+0150,1","+0120,1","99999,9",,"02,1,+02743,1,03,1","08,1,+07315,1,02,1",,"9,AGL   ,+99999,+99999","99,99,9,02,1,99,9,02743,1,99,9,99,9","10169,1,99999,9",,,"MET075METAR MMMZ 121543Z 04003KT 14SM FEW090 OVC240 15/12 A3003 RMK 8/037 BINOVC=",
"76459399999","2025-01-12T16:42:00","4","23.161356","-106.266072","11.58","GENERAL RAFAEL BUELNA INTERNATIONAL, MX","FM-15","99999","V020","030,1,N,0021,1","07315,1,9,N","022531,1,9,9","+0170,1","+0120,1","99999,9",,"02,1,+02438,1,03,1","08,1,+07315,1,02,1",,"9,AGL   ,+99999,+99999","99,99,9,02,1,99,9,02438,1,99,9,99,9","10169,1,99999,9",,,"MET075METAR MMMZ 121642Z 03004KT 14SM FEW080 OVC240 17/12 A3003 RMK 8/037 BINOVC=",
"76459399999","2025-01-12T17:43:00","4","23.161356","-106.266072","11.58","GENERAL RAFAEL BUELNA INTERNATIONAL, MX","FM-15","99999","V020","040,1,N,0015,1","07315,1,C,N","024140,1,9,9","+0210,1","+0110,1","10160,1",,"08,1,+07315,1,02,1",,,"9,AGL   ,+99999,+99999","99,99,9,08,1,99,9,07315,1,99,9,99,9","10163,1,99999,9","2,1,003,1,+999,9",,"MET093METAR MMMZ 121743Z 04003KT 15SM OVC240 21/11 A3001 RMK SLP160 52003 916 8/007 BINOVC ISOL AS=",
"76459399999","2025-01-12T18:43:00","4","23.161356","-106.266072","11.58","GENERAL RAFAEL BUELNA INTERNATIONAL, MX","FM-15","99999","V020","290,1,N,0021,1","07315,1,C,N","024140,1,9,9","+0230,1","+0100,1","99999,9",,"08,1,+07315,1,02,1",,,"9,AGL   ,+99999,+99999","99,99,9,08,1,99,9,07315,1,99,9,99,9","10159,1,99999,9",,,"MET068METAR MMMZ 121843Z 29004KT 15SM OVC240 23/10 A3000 RMK 8/007 BINOVC=",
"76459399999","2025-01-12T19:43:00","4","23.161356","-106.266072","11.58","GENERAL RAFAEL BUELNA INTERNATIONAL, MX","FM-15","99999","V020","999,9,C,0000,1","07315,1,C,N","024140,1,9,9","+0230,1","+0110,1","99999,9",,"07,1,+07315,1,02,1",,,"9,AGL   ,+99999,+99999","99,99,9,07,1,99,9,07315,1,99,9,99,9","10146,1,99999,9",,,"MET061METAR MMMZ 121943Z 00000KT 15SM BKN240 23/11 A2996 RMK 8/008=",
"76459399999","2025-01-12T20:43:00","4","23.161356","-106.266072","11.58","GENERAL RAFAEL BUELNA INTERNATIONAL, MX","FM-15","99999","V020","270,1,N,0026,1","07315,1,C,N","024140,1,9,9","+0230,1","+0100,1","10138,1",,"08,1,+07315,1,02,1",,,"9,AGL   ,+99999,+99999","99,99,9,08,1,99,9,07315,1,99,9,99,9","10139,1,99999,9","7,1,027,1,+999,9",,"MET085METAR MMMZ 122043Z 27005KT 15SM OVC240 23/10 A2994 RMK SLP138 57027 907 8/007 BINOVC=",
"76459399999","2025-01-12T21:42:00","4","23.161356","-106.266072","11.58","GENERAL RAFAEL BUELNA INTERNATIONAL, MX","FM-15","99999","V020","270,1,N,0036,1","07315,1,C,N","022531,1,9,9","+0220,1","+0100,1","99999,9",,"08,1,+07315,1,02,1",,,"9,AGL   ,+99999,+99999","99,99,9,08,1,99,9,07315,1,99,9,99,9","10135,1,99999,9",,,"MET061METAR MMMZ 122142Z 27007KT 14SM OVC240 22/10 A2993 RMK 8/007=",
"76459399999","2025-01-12T22:41:00","4","23.161356","-106.266072","11.58","GENERAL RAFAEL BUELNA INTERNATIONAL, MX","FM-15","99999","V020","310,1,N,0051,1","07315,1,C,N","022531,1,9,9","+0220,1","+0100,1","99999,9",,"08,1,+07315,1,02,1",,,"9,AGL   ,+99999,+99999","99,99,9,08,1,99,9,07315,1,99,9,99,9","10135,1,99999,9",,,"MET061METAR MMMZ 122241Z 31010KT 14SM OVC240 22/10 A2993 RMK 8/007=",
"76459399999","2025-01-12T23:46:00","4","23.161356","-106.266072","11.58","GENERAL RAFAEL BUELNA INTERNATIONAL, MX","FM-15","99999","V020","310,1,N,0041,1","07315,1,C,N","022531,1,9,9","+0210,1","+0110,1","10134,1",,"08,1,+07315,1,02,1",,,"9,AGL   ,+99999,+99999","99,99,9,08,1,99,9,07315,1,99,9,99,9","10139,1,99999,9","4,1,000,1,+999,9",,"MET078METAR MMMZ 122346Z 31008KT 14SM OVC240 21/11 A2994 RMK SLP134 54000 910 8/007=",
"76459399999","2025-01-13T00:46:00","4","23.161356","-106.266072","11.58","GENERAL RAFAEL BUELNA INTERNATIONAL, MX","FM-15","99999","V020","330,1,N,0026,1","07315,1,C,N","019312,1,9,9","+0190,1","+0110,1","99999,9",,"08,1,+07315,1,02,1",,,"9,AGL   ,+99999,+99999","99,99,9,08,1,99,9,07315,1,99,9,99,9","10142,1,99999,9",,,"MET061METAR MMMZ 130046Z 33005KT 12SM OVC240 19/11 A2995 RMK 8/007=",
"76459399999","2025-01-13T01:40:00","4","23.161356","-106.266072","11.58","GENERAL RAFAEL BUELNA INTERNATIONAL, MX","FM-15","99999","V020","340,1,N,0021,1","07315,1,C,N","016093,1,9,9","+0180,1","+0100,1","99999,9",,"07,1,+07315,1,02,1",,,"9,AGL   ,+99999,+99999","99,99,9,07,1,99,9,07315,1,99,9,99,9","10152,1,99999,9",,,"MET061METAR MMMZ 130140Z 34004KT 10SM BKN240 18/10 A2998 RMK 8/008=",
"76459399999","2025-01-13T02:44:00","4","23.161356","-106.266072","11.58","GENERAL RAFAEL BUELNA INTERNATIONAL, MX","FM-15","99999","V020","999,9,C,0000,1","99999,9,9,N","016093,1,9,9","+0160,1","+0100,1","10158,1",,"04,1,+07315,1,00,1",,,"9,AGL   ,+99999,+99999","99,99,9,04,1,99,9,07315,1,99,9,99,9","10159,1,99999,9","2,1,020,1,+999,9",,"MET078METAR MMMZ 130244Z 00000KT 10SM SCT240 16/10 A3000 RMK SLP158 52020 924 8/002=",
"76459399999","2025-01-13T03:48:00","4","23.161356","-106.266072","11.58","GENERAL RAFAEL BUELNA INTERNATIONAL, MX","FM-15","99999","V020","999,9,C,0000,1","99999,9,9,N","016093,1,9,9","+0150,1","+0100,1","99999,9",,"04,1,+07315,1,00,1",,,"9,AGL   ,+99999,+99999","99,99,9,04,1,99,9,07315,1,99,9,99,9","10166,1,99999,9",,,"MET061METAR MMMZ 130348Z 00000KT 10SM SCT240 15/10 A3002 RMK 8/002=",
"76459399999","2025-01-13T04:42:00","4","23.161356","-106.266072","11.58","GENERAL RAFAEL BUELNA INTERNATIONAL, MX","FM-15","99999","V020","999,9,C,0000,1","99999,9,9,N","016093,1,9,9","+0160,1","+0090,1","99999,9",,"04,1,+07315,1,00,1",,,"9,AGL   ,+99999,+99999","99,99,9,04,1,99,9,07315,1,99,9,99,9","10169,1,99999,9",,,"MET069METAR MMMZ 130442Z 00000KT 10SM SCT240 16/09 A3003 RMK 8/002 ISOL AC=",
"76459399999","2025-01-13T05:47:00","4","23.161356","-106.266072","11.58","GENERAL RAFAEL BUELNA INTERNATIONAL, MX","FM-15","99999","V020","999,9,C,0000,1","07315,1,C,N","016093,1,9,9","+0130,1","+0100,1","10181,1",,"02,1,+02743,1,03,1","04,1,+07315,1,00,1",,"9,AGL   ,+99999,+99999","99,99,9,02,1,99,9,02743,1,99,9,99,9","10173,1,99999,9","2,1,013,1,+999,9",,"MET085METAR MMMZ 130547Z 00000KT 10SM FEW090 SCT240 13/10 A3004 RMK SLP181 52013 940 8/052=",
"76459399999","2025-01-13T06:42:00","4","23.161356","-106.266072","11.58","GENERAL RAFAEL BUELNA INTERNATIONAL, MX","FM-15","99999","V020","999,9,C,0000,1","07315,1,C,N","016093,1,9,9","+0110,1","+0100,1","99999,9",,"02,1,+02743,1,03,1","04,1,+07315,1,00,1",,"9,AGL   ,+99999,+99999","99,99,9,02,1,99,9,02743,1,99,9,99,9","10169,1,99999,9",,,"MET072METAR MMMZ 130642Z 00000KT 10SM FEW090 SCT240 11/10 A3003 RMK 8/052 HZY=",
"76459399999","2025-01-13T07:42:00","4","23.161356","-106.266072","11.58","GENERAL RAFAEL BUELNA INTERNATIONAL, MX","FM-15","99999","V020","999,9,C,0000,1","07315,1,C,N","016093,1,9,9","+0110,1","+0100,1","99999,9",,"02,1,+02743,1,03,1","04,1,+07315,1,00,1",,"9,AGL   ,+99999,+99999","99,99,9,02,1,99,9,02743,1,99,9,99,9","10169,1,99999,9",,,"MET072METAR MMMZ 130742Z 00000KT 10SM FEW090 SCT240 11/10 A3003 RMK 8/052 HZY=",
"76459399999","2025-01-13T08:43:00","4","23.161356","-106.266072","11.58","GENERAL RAFAEL BUELNA INTERNATIONAL, MX","FM-15","99999","V020","999,9,C,0000,1","99999,9,9,N","016093,1,9,9","+0110,1","+0100,1","10169,1",,"02,1,+02743,1,03,1","02,1,+07315,1,00,1",,"9,AGL   ,+99999,+99999","99,99,9,02,1,99,9,02743,1,99,9,99,9","10169,1,99999,9","7,1,003,1,+999,9",,"MET089METAR MMMZ 130843Z 00000KT 10SM FEW090 FEW240 11/10 A3003 RMK SLP169 57003 940 8/052 HZY=",
"76459399999","2025-01-13T09:40:00","4","23.161356","-106.266072","11.58","GENERAL RAFAEL BUELNA INTERNATIONAL, MX","FM-15","99999","V020","140,1,N,0015,1","99999,9,9,N","016093,1,9,9","+0100,1","+0080,1","99999,9",,"02,1,+02743,1,03,1","02,1,+07315,1,00,1",,"9,AGL   ,+99999,+99999","99,99,9,02,1,99,9,02743,1,99,9,99,9","10169,1,99999,9",,,"MET072METAR MMMZ 130940Z 14003KT 10SM FEW090 FEW240 10/08 A3003 RMK 8/052 HZY=",
"76459399999","2025-01-13T10:41:00","4","23.161356","-106.266072","11.58","GENERAL RAFAEL BUELNA INTERNATIONAL, MX","FM-15","99999","V020","999,9,C,0000,1","99999,9,9,N","016093,1,9,9","+0090,1","+0080,1","99999,9",,"02,1,+02743,1,03,1","02,1,+07315,1,00,1",,"9,AGL   ,+99999,+99999","99,99,9,02,1,99,9,02743,1,99,9,99,9","10169,1,99999,9",,,"MET072METAR MMMZ 131041Z 00000KT 10SM FEW090 FEW240 09/08 A3003 RMK 8/052 HZY=",
"76459399999","2025-01-13T11:47:00","4","23.161356","-106.266072","11.58","GENERAL RAFAEL BUELNA INTERNATIONAL, MX","FM-15","99999","V020","999,9,C,0000,1","22000,1,9,N","016093,1,9,9","+0090,1","+0090,1","10178,1",,,,,,"00,99,1,99,9,99,9,99999,9,99,9,99,9","10169,1,99999,9","4,1,000,1,+999,9",,"MET084METAR MMMZ 131147Z 00000KT 10SM SKC 09/09 A3003 RMK SLP178 54000 937 ISOL AC CI HZY=",
"76459399999","2025-01-13T12:41:00","4","23.161356","-106.266072","11.58","GENERAL RAFAEL BUELNA INTERNATIONAL, MX","FM-15","99999","V020","999,9,C,0000,1","22000,1,9,N","016093,1,9,9","+0100,1","+0090,1","99999,9",,,,,,"00,99,1,99,9,99,9,99999,9,99,9,99,9","10169,1,99999,9",,,"MET067METAR MMMZ 131241Z 00000KT 10SM SKC 10/09 A3003 RMK ISOL AC CI HZY=",
"76459399999","2025-01-13T13:41:00","4","23.161356","-106.266072","11.58","GENERAL RAFAEL BUELNA INTERNATIONAL, MX","FM-15","99999","V020","999,9,C,0000,1","22000,1,9,N","017703,1,9,9","+0100,1","+0090,1","99999,9",,,,,,"00,99,1,99,9,99,9,99999,9,99,9,99,9","10173,1,99999,9",,,"MET064METAR MMMZ 131341Z 00000KT 11SM SKC 10/09 A3004 RMK ISOL SC HZY=",
"76459399999","2025-01-13T14:45:00","4","23.161356","-106.266072","11.58","GENERAL RAFAEL BUELNA INTERNATIONAL, MX","FM-15","99999","V020","030,1,N,0015,1","99999,9,9,N","022531,1,9,9","+0120,1","+0110,1","10179,1",,"02,1,+02438,1,03,1",,,"9,AGL   ,+99999,+99999","99,99,9,02,1,99,9,02438,1,99,9,99,9","10179,1,99999,9","2,1,010,1,+999,9",,"MET090METAR MMMZ 131445Z 03003KT 14SM FEW080 12/11 A3006 RMK SLP179 52010 917 8/030 FULYR 3QUAD=",
"76459399999","2025-01-13T15:42:00","4","23.161356","-106.266072","11.58","GENERAL RAFAEL BUELNA INTERNATIONAL, MX","FM-15","99999","V020","999,9,C,0000,1","99999,9,9,N","024140,1,9,9","+0160,1","+0110,1","99999,9",,"02,1,+02438,1,03,1",,,"9,AGL   ,+99999,+99999","99,99,9,02,1,99,9,02438,1,99,9,99,9","10190,1,99999,9",,,"MET084METAR MMMZ 131542Z 00000KT 15SM FEW080 16/11 A3009 RMK 8/030 FULIR 3RD QUAD ISOL CI=",
"76459399999","2025-01-13T16:40:00","4","23.161356","-106.266072","11.58","GENERAL RAFAEL BUELNA INTERNATIONAL, MX","FM-15","99999","V020","999,9,C,0000,1","99999,9,9,N","024140,1,9,9","+0210,1","+0100,1","99999,9",,"02,1,+02134,1,03,1",,,"9,AGL   ,+99999,+99999","99,99,9,02,1,99,9,02134,1,99,9,99,9","10190,1,99999,9",,,"MET078METAR MMMZ 131640Z 00000KT 15SM FEW070 21/10 A3009 RMK 8/030 SC E FULYR 3QUAD=",
"76459399999","2025-01-13T17:43:00","4","23.161356","-106.266072","11.58","GENERAL RAFAEL BUELNA INTERNATIONAL, MX","FM-15","99999","V020","999,9,C,0000,1","99999,9,9,N","024140,1,9,9","+0230,1","+0110,1","10180,1",,"02,1,+02134,1,03,1",,,"9,AGL   ,+99999,+99999","99,99,9,02,1,99,9,02134,1,99,9,99,9","10183,1,99999,9","2,1,007,1,+999,9",,"MET078METAR MMMZ 131743Z 00000KT 15SM FEW070 23/11 A3007 RMK SLP180 52007 920 8/030=",
"76459399999","2025-01-13T18:42:00","4","23.161356","-106.266072","11.58","GENERAL RAFAEL BUELNA INTERNATIONAL, MX","FM-15","99999","V020","260,1,N,0010,1","99999,9,9,N","024140,1,9,9","+0250,1","+0120,1","99999,9",,"02,1,+01219,1,06,1",,,"9,AGL   ,+99999,+99999","99,99,9,02,1,99,9,01219,1,99,9,99,9","10173,1,99999,9",,,"MET069METAR MMMZ 131842Z 26002KT 15SM FEW040 25/12 A3004 RMK 8/500 ISOL CI=",
"76459399999","2025-01-13T19:43:00","4","23.161356","-106.266072","11.58","GENERAL RAFAEL BUELNA INTERNATIONAL, MX","FM-15","99999","V020","240,1,N,0010,1","99999,9,9,N","024140,1,9,9","+0250,1","+0110,1","99999,9",,"02,1,+01219,1,06,1",,,"9,AGL   ,+99999,+99999","99,99,9,02,1,99,9,01219,1,99,9,99,9","10163,1,99999,9",,,"MET069METAR MMMZ 131943Z 24002KT 15SM FEW040 25/11 A3001 RMK 8/500 ISOL CI=",
"76459399999","2025-01-13T20:45:00","4","23.161356","-106.266072","11.58","GENERAL RAFAEL BUELNA INTERNATIONAL, MX","FM-15","99999","V020","999,9,C,0000,1","22000,1,9,N","024140,1,9,9","+0260,1","+0120,1","10148,1",,,,,,"00,99,1,99,9,99,9,99999,9,99,9,99,9","10149,1,99999,9","7,1,017,1,+999,9",,"MET080METAR MMMZ 132045Z 00000KT 15SM SKC 26/12 A2997 RMK SLP148 57017 910 ISOL SC-CI=",
"76459399999","2025-01-13T21:43:00","4","23.161356","-106.266072","11.58","GENERAL RAFAEL BUELNA INTERNATIONAL, MX","FM-15","99999","V020","240,1,N,0015,1","99999,9,9,N","022531,1,9,9","+0270,1","+0130,1","99999,9",,"02,1,+02134,1,03,1",,,"9,AGL   ,+99999,+99999","99,99,9,02,1,99,9,02134,1,99,9,99,9","10142,1,99999,9",,,"MET061METAR MMMZ 132143Z 24003KT 14SM FEW070 27/13 A2995 RMK 8/050=",
"76459399999","2025-01-13T22:43:00","4","23.161356","-106.266072","11.58","GENERAL RAFAEL BUELNA INTERNATIONAL, MX","FM-15","99999","V020","270,1,N,0026,1","99999,9,9,N","022531,1,9,9","+0260,1","+0140,1","99999,9",,"02,1,+03353,1,03,1",,,"9,AGL   ,+99999,+99999","99,99,9,02,1,99,9,03353,1,99,9,99,9","10146,1,99999,9",,,"MET061METAR MMMZ 132243Z 27005KT 14SM FEW110 26/14 A2996 RMK 8/050=",
"76459399999","2025-01-13T23:43:00","4","23.161356","-106.266072","11.58","GENERAL RAFAEL BUELNA INTERNATIONAL, MX","FM-15","99999","V020","300,1,N,0046,1","99999,9,9,N","022531,1,9,9","+0230,1","+0120,1","10141,1",,"02,1,+03353,1,03,1",,,"9,AGL   ,+99999,+99999","99,99,9,02,1,99,9,03353,1,99,9,99,9","10146,1,99999,9","2,1,013,1,+999,9",,"MET078METAR MMMZ 132343Z 30009KT 14SM FEW110 23/12 A2996 RMK SLP141 52013 907 8/050=",
"76459399999","2025-01-14T00:40:00","4","23.161356","-106.266072","11.58","GENERAL RAFAEL BUELNA INTERNATIONAL, MX","FM-15","99999","V020","300,1,N,0046,1","99999,9,9,N","019312,1,9,9","+0210,1","+0120,1","99999,9",,"02,1,+03353,1,03,1",,,"9,AGL   ,+99999,+99999","99,99,9,02,1,99,9,03353,1,99,9,99,9","10149,1,99999,9",,,"MET061METAR MMMZ 140040Z 30009KT 12SM FEW110 21/12 A2997 RMK 8/050=",
"76459399999","2025-01-14T01:47:00","4","23.161356","-106.266072","11.58","GENERAL RAFAEL BUELNA INTERNATIONAL, MX","FM-15","99999","V020","999,9,C,0000,1","99999,9,9,N","016093,1,9,9","+0200,1","+0120,1","99999,9",,"02,1,+03353,1,03,1",,,"9,AGL   ,+99999,+99999","99,99,9,02,1,99,9,03353,1,99,9,99,9","10159,1,99999,9",,,"MET061METAR MMMZ 140147Z 00000KT 10SM FEW110 20/12 A3000 RMK 8/050=",
"76459399999","2025-01-14T02:49:00","4","23.161356","-106.266072","11.58","GENERAL RAFAEL BUELNA INTERNATIONAL, MX","FM-15","99999","V020","999,9,C,0000,1","99999,9,9,N","016093,1,9,9","+0180,1","+0120,1","10162,1",,"02,1,+03353,1,03,1",,,"9,AGL   ,+99999,+99999","99,99,9,02,1,99,9,03353,1,99,9,99,9","10166,1,99999,9","2,1,017,1,+999,9",,"MET078METAR MMMZ 140249Z 00000KT 10SM FEW110 18/12 A3002 RMK SLP162 52017 903 8/050=",
"76459399999","2025-01-14T03:47:00","4","23.161356","-106.266072","11.58","GENERAL RAFAEL BUELNA INTERNATIONAL, MX","FM-15","99999","V020","999,9,C,0000,1","99999,9,9,N","016093,1,9,9","+0170,1","+0110,1","99999,9",,"02,1,+03353,1,03,1",,,"9,AGL   ,+99999,+99999","99,99,9,02,1,99,9,03353,1,99,9,99,9","10169,1,99999,9",,,"MET061METAR MMMZ 140347Z 00000KT 10SM FEW110 17/11 A3003 RMK 8/050=",
"76459399999","2025-01-14T04:44:00","4","23.161356","-106.266072","11.58","GENERAL RAFAEL BUELNA INTERNATIONAL, MX","FM-15","99999","V020","310,1,N,0015,1","07315,1,9,N","016093,1,9,9","+0170,1","+0130,1","99999,9",,"04,1,+03048,1,03,1","07,1,+07315,1,00,1",,"9,AGL   ,+99999,+99999","99,99,9,04,1,99,9,03048,1,99,9,99,9","10173,1,99999,9",,,"MET068METAR MMMZ 140444Z 31003KT 10SM SCT100 BKN240 17/13 A3004 RMK 8/072=",
"76459399999","2025-01-14T05:43:00","4","23.161356","-106.266072","11.58","GENERAL RAFAEL BUELNA INTERNATIONAL, MX","FM-15","99999","V020","999,9,C,0000,1","07315,1,9,N","016093,1,9,9","+0160,1","+0130,1","10172,1",,"04,1,+03048,1,03,1","08,1,+07315,1,02,1",,"9,AGL   ,+99999,+99999","99,99,9,04,1,99,9,03048,1,99,9,99,9","10176,1,99999,9","2,1,013,1,+999,9",,"MET085METAR MMMZ 140543Z 00000KT 10SM SCT100 OVC240 16/13 A3005 RMK SLP172 52013 959 8/077=",
"76459399999","2025-01-14T06:40:00","4","23.161356","-106.266072","11.58","GENERAL RAFAEL BUELNA INTERNATIONAL, MX","FM-15","99999","V020","999,9,C,0000,1","02743,1,9,N","016093,1,9,9","+0160,1","+0130,1","99999,9",,"04,1,+01219,1,06,1","07,1,+02743,1,03,1","08,1,+07315,1,02,1","9,AGL   ,+99999,+99999","99,99,9,04,1,99,9,01219,1,99,9,99,9","10176,1,99999,9",,,"MET075METAR MMMZ 140640Z 00000KT 10SM SCT040 BKN090 OVC240 16/13 A3005 RMK 8/577=",
"76459399999","2025-01-14T07:41:00","4","23.161356","-106.266072","11.58","GENERAL RAFAEL BUELNA INTERNATIONAL, MX","FM-15","99999","V020","999,9,C,0000,1","02743,1,9,N","016093,1,9,9","+0160,1","+0130,1","99999,9",,"02,1,+01219,1,06,1","07,1,+02743,1,03,1","08,1,+07315,1,02,1","9,AGL   ,+99999,+99999","99,99,9,02,1,99,9,01219,1,99,9,99,9","10173,1,99999,9",,,"MET075METAR MMMZ 140741Z 00000KT 10SM FEW040 BKN090 OVC240 16/13 A3004 RMK 8/577=",
"76459399999","2025-01-14T08:40:00","4","23.161356","-106.266072","11.58","GENERAL RAFAEL BUELNA INTERNATIONAL, MX","FM-15","99999","V020","999,9,C,0000,1","02743,1,9,N","016093,1,9,9","+0160,1","+0130,1","10155,1",,"02,1,+01219,1,06,1","07,1,+02743,1,03,1","08,1,+07315,1,02,1","9,AGL   ,+99999,+99999","99,99,9,02,1,99,9,01219,1,99,9,99,9","10159,1,99999,9","7,1,007,1,+999,9",,"MET092METAR MMMZ 140840Z 00000KT 10SM FEW040 BKN090 OVC240 16/13 A3000 RMK SLP155 57007 964 8/577=",
"76459399999","2025-01-14T09:41:00","4","23.161356","-106.266072","11.58","GENERAL RAFAEL BUELNA INTERNATIONAL, MX","FM-15","99999","V020","999,9,C,0000,1","02743,1,C,N","016093,1,9,9","+0160,1","+0130,1","99999,9",,"07,1,+02743,1,03,1","08,1,+07315,1,02,1",,"9,AGL   ,+99999,+99999","99,99,9,07,1,99,9,02743,1,99,9,99,9","10166,1,99999,9",,,"MET068METAR MMMZ 140941Z 00000KT 10SM BKN090 OVC240 16/13 A3002 RMK 8/077=",
"76459399999","2025-01-14T10:40:00","4","23.161356","-106.266072","11.58","GENERAL RAFAEL BUELNA INTERNATIONAL, MX","FM-15","99999","V020","999,9,C,0000,1","07315,1,9,N","016093,1,9,9","+0160,1","+0140,1","99999,9",,"04,1,+03048,1,03,1","08,1,+07315,1,02,1",,"9,AGL   ,+99999,+99999","99,99,9,04,1,99,9,03048,1,99,9,99,9","10163,1,99999,9",,,"MET068METAR MMMZ 141040Z 00000KT 10SM SCT100 OVC240 16/14 A3001 RMK 8/037=",
"76459399999","2025-01-14T11:41:00","4","23.161356","-106.266072","11.58","GENERAL RAFAEL BUELNA INTERNATIONAL, MX","FM-15","99999","V020","999,9,C,0000,1","07315,1,9,N","016093,1,9,9","+0160,1","+0140,1","10161,1",,"04,1,+02743,1,03,1","08,1,+07315,1,02,1",,"9,AGL   ,+99999,+99999","99,99,9,04,1,99,9,02743,1,99,9,99,9","10166,1,99999,9","7,1,003,1,+999,9",,"MET085METAR MMMZ 141141Z 00000KT 10SM SCT090 OVC240 16/14 A3002 RMK SLP161 57003 967 8/077=",
"76459399999","2025-01-14T12:47:00","4","23.161356","-106.266072","11.58","GENERAL RAFAEL BUELNA INTERNATIONAL, MX","FM-15","99999","V020","999,9,C,0000,1","02743,1,9,N","016093,1,9,9","+0160,1","+0130,1","99999,9",,"02,1,+01219,1,06,1","07,1,+02743,1,03,1","08,1,+07315,1,02,1","9,AGL   ,+99999,+99999","99,99,9,02,1,99,9,01219,1,99,9,99,9","10169,1,99999,9",,,"MET075METAR MMMZ 141247Z 00000KT 10SM FEW040 BKN090 OVC240 16/13 A3003 RMK 8/577=",
"76459399999","2025-01-14T13:47:00","4","23.161356","-106.266072","11.58","GENERAL RAFAEL BUELNA INTERNATIONAL, MX","FM-15","99999","V020","999,9,C,0000,1","02743,1,9,N","019312,1,9,9","+0150,1","+0140,1","99999,9",,"04,1,+01219,1,06,1","07,1,+02743,1,03,1","08,1,+07315,1,02,1","9,AGL   ,+99999,+99999","99,99,9,04,1,99,9,01219,1,99,9,99,9","10173,1,99999,9",,,"MET075METAR MMMZ 141347Z 00000KT 12SM SCT040 BKN090 OVC240 15/14 A3004 RMK 8/577=",
"76459399999","2025-01-14T14:41:00","4","23.161356","-106.266072","11.58","GENERAL RAFAEL BUELNA INTERNATIONAL, MX","FM-15","99999","V020","999,9,C,0000,1","07315,1,9,N","022531,1,9,9","+0160,1","+0150,1","10176,1",,"04,1,+03658,1,03,1","07,1,+07315,1,02,1",,"9,AGL   ,+99999,+99999","99,99,9,04,1,99,9,03658,1,99,9,99,9","10179,1,99999,9","2,1,013,1,+999,9",,"MET085METAR MMMZ 141441Z 00000KT 14SM SCT120 BKN240 16/15 A3006 RMK SLP176 52013 953 8/078=",
"76459399999","2025-01-14T15:43:00","4","23.161356","-106.266072","11.58","GENERAL RAFAEL BUELNA INTERNATIONAL, MX","FM-15","99999","V020","999,9,C,0000,1","06706,1,C,N","022531,1,9,9","+0190,1","+0140,1","99999,9",,"07,1,+06706,1,02,1",,,"9,AGL   ,+99999,+99999","99,99,9,07,1,99,9,06706,1,99,9,99,9","10190,1,99999,9",,,"MET061METAR MMMZ 141543Z 00000KT 14SM BKN220 19/14 A3009 RMK 8/008=",
"76459399999","2025-01-14T16:45:00","4","23.161356","-106.266072","11.58","GENERAL RAFAEL BUELNA INTERNATIONAL, MX","FM-15","99999","V020","999,9,C,0000,1","06706,1,9,N","022531,1,9,9","+0220,1","+0150,1","99999,9",,"02,1,+04267,1,03,1","07,1,+06706,1,02,1",,"9,AGL   ,+99999,+99999","99,99,9,02,1,99,9,04267,1,99,9,99,9","10190,1,99999,9",,,"MET068METAR MMMZ 141645Z 00000KT 14SM FEW140 BKN220 22/15 A3009 RMK 8/078=",
"76459399999","2025-01-14T17:45:00","4","23.161356","-106.266072","11.58","GENERAL RAFAEL BUELNA INTERNATIONAL, MX","FM-15","99999","V020","270,1,N,0015,1","06706,1,9,N","022531,1,9,9","+0230,1","+0140,1","10185,1",,"04,1,+04267,1,03,1","07,1,+06706,1,02,1",,"9,AGL   ,+99999,+99999","99,99,9,04,1,99,9,04267,1,99,9,99,9","10190,1,99999,9","2,1,010,1,+999,9",,"MET085METAR MMMZ 141745Z 27003KT 14SM SCT140 BKN220 23/14 A3009 RMK SLP185 52010 905 8/078=",
"76459399999","2025-01-14T18:44:00","4","23.161356","-106.266072","11.58","GENERAL RAFAEL BUELNA INTERNATIONAL, MX","FM-15","99999","V020","260,1,N,0015,1","06706,1,9,N","022531,1,9,9","+0250,1","+0150,1","99999,9",,"04,1,+03658,1,03,1","07,1,+06706,1,02,1",,"9,AGL   ,+99999,+99999","99,99,9,04,1,99,9,03658,1,99,9,99,9","10179,1,99999,9",,,"MET068METAR MMMZ 141844Z 26003KT 14SM SCT120 BKN220 25/15 A3006 RMK 8/078=",
"76459399999","2025-01-14T19:47:00","4","23.161356","-106.266072","11.58","GENERAL RAFAEL BUELNA INTERNATIONAL, MX","FM-15","99999","V020","280,1,N,0031,1","03658,1,C,N","022531,1,9,9","+0240,1","+0160,1","99999,9",,"07,1,+03658,1,03,1",,,"9,AGL   ,+99999,+99999","99,99,9,07,1,99,9,03658,1,99,9,99,9","10166,1,99999,9",,,"MET061METAR MMMZ 141947Z 28006KT 14SM BKN120 24/16 A3002 RMK 8/070=",
"76459399999","2025-01-14T20:41:00","4","23.161356","-106.266072","11.58","GENERAL RAFAEL BUELNA INTERNATIONAL, MX","FM-15","99999","V020","999,9,C,0000,1","03658,1,C,N","022531,1,9,9","+0240,1","+0150,1","10159,1",,"07,1,+03658,1,03,1",,,"9,AGL   ,+99999,+99999","99,99,9,07,1,99,9,03658,1,99,9,99,9","10159,1,99999,9","7,1,030,1,+999,9",,"MET078METAR MMMZ 142041Z 00000KT 14SM BKN120 24/15 A3000 RMK SLP159 57030 910 8/070=",
"76459399999","2025-01-14T21:43:00","4","23.161356","-106.266072","11.58","GENERAL RAFAEL BUELNA INTERNATIONAL, MX","FM-15","99999","V020","260,1,N,0031,1","02743,1,C,N","022531,1,9,9","+0250,1","+0150,1","99999,9",,"07,1,+02743,1,03,1","08,1,+07315,1,02,1",,"9,AGL   ,+99999,+99999","99,99,9,07,1,99,9,02743,1,99,9,99,9","10152,1,99999,9",,,"MET075METAR MMMZ 142143Z 26006KT 14SM BKN090 OVC240 25/15 A2998 RMK 8/057 BINOVC=",
"76459399999","2025-01-14T22:42:00","4","23.161356","-106.266072","11.58","GENERAL RAFAEL BUELNA INTERNATIONAL, MX","FM-15","99999","V020","270,1,N,0026,1","02743,1,C,N","022531,1,9,9","+0230,1","+0160,1","99999,9",,"07,1,+02743,1,03,1","07,1,+03658,1,02,1","08,1,+07315,1,99,9","9,AGL   ,+99999,+99999","99,99,9,07,1,99,9,02743,1,99,9,99,9","10152,1,99999,9",,,"MET082METAR MMMZ 142242Z 27005KT 14SM BKN090 BKN120 OVC240 23/16 A2998 RMK 8/077 BINOVC=",
"76459399999","2025-01-14T23:42:00","4","23.161356","-106.266072","11.58","GENERAL RAFAEL BUELNA INTERNATIONAL, MX","FM-15","99999","V020","270,1,N,0010,1","03353,1,9,N","024140,1,9,9","+0220,1","+0160,1","10153,1",,"04,1,+02743,1,03,1","07,1,+03353,1,02,1","07,1,+07315,1,99,9","9,AGL   ,+99999,+99999","99,99,9,04,1,99,9,02743,1,99,9,99,9","10159,1,99999,9","4,1,000,1,+999,9",,"MET092METAR MMMZ 142342Z 27002KT 15SM SCT090 BKN110 BKN240 22/16 A3000 RMK SLP153 54000 913 8/078=",
"76459399999","2025-01-15T00:40:00","4","23.161356","-106.266072","11.58","GENERAL RAFAEL BUELNA INTERNATIONAL, MX","FM-15","99999","V020","999,9,C,0000,1","02743,1,C,N","020921,1,9,9","+0210,1","+0160,1","99999,9",,"07,1,+02743,1,03,1",,,"9,AGL   ,+99999,+99999","99,99,9,07,1,99,9,02743,1,99,9,99,9","10163,1,99999,9",,,"MET061METAR MMMZ 150040Z 00000KT 13SM BKN090 21/16 A3001 RMK 8/070=",
"76459399999","2025-01-15T01:42:00","4","23.161356","-106.266072","11.58","GENERAL RAFAEL BUELNA INTERNATIONAL, MX","FM-15","99999","V020","999,9,C,0000,1","02743,1,C,N","017703,1,9,9","+0200,1","+0160,1","99999,9",,"07,1,+02743,1,03,1",,,"9,AGL   ,+99999,+99999","99,99,9,07,1,99,9,02743,1,99,9,99,9","10166,1,99999,9",,,"MET061METAR MMMZ 150142Z 00000KT 11SM BKN090 20/16 A3002 RMK 8/030=",
"76459399999","2025-01-15T02:42:00","4","23.161356","-106.266072","11.58","GENERAL RAFAEL BUELNA INTERNATIONAL, MX","FM-15","99999","V020","999,9,C,0000,1","07315,1,9,N","016093,1,9,9","+0180,1","+0160,1","10176,1",,"04,1,+02743,1,03,1","07,1,+07315,1,00,1",,"9,AGL   ,+99999,+99999","99,99,9,04,1,99,9,02743,1,99,9,99,9","10176,1,99999,9","2,1,017,1,+999,9",,"MET089METAR MMMZ 150242Z 00000KT 10SM SCT090 BKN240 18/16 A3005 RMK SLP176 52017 914 8/032 HZY=",
"76459399999","2025-01-15T03:42:00","4","23.161356","-106.266072","11.58","GENERAL RAFAEL BUELNA INTERNATIONAL, MX","FM-15","99999","V020","999,9,C,0000,1","99999,9,9,N","016093,1,9,9","+0170,1","+0140,1","99999,9",,"04,1,+02743,1,03,1",,,"9,AGL   ,+99999,+99999","99,99,9,04,1,99,9,02743,1,99,9,99,9","10183,1,99999,9",,,"MET061METAR MMMZ 150342Z 00000KT 10SM SCT090 17/14 A3007 RMK 8/030=",
"76459399999","2025-01-15T04:42:00","4","23.161356","-106.266072","11.58","GENERAL RAFAEL BUELNA INTERNATIONAL, MX","FM-15","99999","V020","999,9,C,0000,1","99999,9,9,N","016093,1,9,9","+0160,1","+0140,1","99999,9",,"04,1,+02743,1,03,1",,,"9,AGL   ,+99999,+99999","99,99,9,04,1,99,9,02743,1,99,9,99,9","10186,1,99999,9",,,"MET069METAR MMMZ 150442Z 00000KT 10SM SCT090 16/14 A3008 RMK 8/030 ISOL CI=",
"76459399999","2025-01-15T05:50:00","4","23.161356","-106.266072","11.58","GENERAL RAFAEL BUELNA INTERNATIONAL, MX","FM-15","99999","V020","999,9,C,0000,1","99999,9,9,N","016093,1,9,9","+0160,1","+0150,1","10198,1",,"02,1,+02743,1,03,1",,,"9,AGL   ,+99999,+99999","99,99,9,02,1,99,9,02743,1,99,9,99,9","10190,1,99999,9","2,1,013,1,+999,9",,"MET090METAR MMMZ 150550Z 00000KT 10SM FEW090 16/15 A3009 RMK SLP198 52013 926 8/030 ISOL CI HZY=",
"76459399999","2025-01-15T06:41:00","4","23.161356","-106.266072","11.58","GENERAL RAFAEL BUELNA INTERNATIONAL, MX","FM-15","99999","V020","999,9,C,0000,1","99999,9,9,N","016093,1,9,9","+0150,1","+0140,1","99999,9",,"02,1,+02743,1,03,1",,,"9,AGL   ,+99999,+99999","99,99,9,02,1,99,9,02743,1,99,9,99,9","10190,1,99999,9",,,"MET065METAR MMMZ 150641Z 00000KT 10SM FEW090 15/14 A3009 RMK 8/030 HZY=",
"76459399999","2025-01-15T07:45:00","4","23.161356","-106.266072","11.58","GENERAL RAFAEL BUELNA INTERNATIONAL, MX","FM-15","99999","V020","030,1,N,0021,1","99999,9,9,N","016093,1,9,9","+0140,1","+0140,1","99999,9",,"04,1,+02743,1,03,1",,,"9,AGL   ,+99999,+99999","99,99,9,04,1,99,9,02743,1,99,9,99,9","10193,1,99999,9",,,"MET073METAR MMMZ 150745Z 03004KT 10SM SCT090 14/14 A3010 RMK 8/030 ISOL CI HZY=",
"76459399999","2025-01-15T09:48:00","4","23.161356","-106.266072","11.58","GENERAL RAFAEL BUELNA INTERNATIONAL, MX","FM-15","99999","V020","999,9,C,0000,1","99999,9,9,N","016093,1,9,9","+0140,1","+0140,1","99999,9",,"04,1,+02743,1,03,1",,,"9,AGL   ,+99999,+99999","99,99,9,04,1,99,9,02743,1,99,9,99,9","10179,1,99999,9",,,"MET073METAR MMMZ 150948Z 00000KT 10SM SCT090 14/14 A3006 RMK 8/030 ISOL CI HZY=",
"76459399999","2025-01-15T10:43:00","4","23.161356","-106.266072","11.58","GENERAL RAFAEL BUELNA INTERNATIONAL, MX","FM-15","99999","V020","999,9,C,0000,1","99999,9,9,N","016093,1,9,9","+0140,1","+0130,1","99999,9",,"02,1,+02743,1,03,1",,,"9,AGL   ,+99999,+99999","99,99,9,02,1,99,9,02743,1,99,9,99,9","10179,1,99999,9",,,"MET065METAR MMMZ 151043Z 00000KT 10SM FEW090 14/13 A3006 RMK 8/030 HZY=",
"76459399999","2025-01-15T11:46:00","4","23.161356","-106.266072","11.58","GENERAL RAFAEL BUELNA INTERNATIONAL, MX","FM-15","99999","V020","999,9,C,0000,1","99999,9,9,N","016093,1,9,9","+0140,1","+0130,1","10191,1",,"02,1,+02743,1,03,1",,,"9,AGL   ,+99999,+99999","99,99,9,02,1,99,9,02743,1,99,9,99,9","10183,1,99999,9","2,1,003,1,+999,9",,"MET082METAR MMMZ 151146Z 00000KT 10SM FEW090 14/13 A3007 RMK SLP191 52003 930 8/030 HZY=",
"76459399999","2025-01-15T12:45:00","4","23.161356","-106.266072","11.58","GENERAL RAFAEL BUELNA INTERNATIONAL, MX","FM-15","99999","V020","999,9,C,0000,1","99999,9,9,N","016093,1,9,9","+0130,1","+0130,1","99999,9",,"02,1,+02743,1,03,1",,,"9,AGL   ,+99999,+99999","99,99,9,02,1,99,9,02743,1,99,9,99,9","10186,1,99999,9",,"40,1","MET081METAR MMMZ 151245Z 00000KT 10SM VCFG FEW090 13/13 A3008 RMK 8/030 ISOL ST CI HZY=",
"76459399999","2025-01-15T13:42:00","4","23.161356","-106.266072","11.58","GENERAL RAFAEL BUELNA INTERNATIONAL, MX","FM-15","99999","V020","310,1,N,0015,1","22000,1,9,N","016093,1,9,9","+0120,1","+0120,1","99999,9",,,,,,"00,99,1,99,9,99,9,99999,9,99,9,99,9","10193,1,99999,9",,"40,1","MET068METAR MMMZ 151342Z 31003KT 10SM VCFG SKC 12/12 A3010 RMK ISOL AC CI=",
"76459399999","2025-01-15T14:44:00","4","23.161356","-106.266072","11.58","GENERAL RAFAEL BUELNA INTERNATIONAL, MX","FM-15","99999","V020","999,9,C,0000,1","07315,1,C,N","019312,1,9,9","+0150,1","+0140,1","10196,1",,"02,1,+03353,1,03,1","04,1,+07315,1,00,1",,"9,AGL   ,+99999,+99999","99,99,9,02,1,99,9,03353,1,99,9,99,9","10200,1,99999,9","2,1,017,1,+999,9",,"MET100METAR MMMZ 151444Z 00000KT 12SM FEW110 SCT240 15/14 A3012 RMK SLP196 52017 920 8/072 FULYR 3RD QUAD=",
"76459399999","2025-01-15T15:41:00","4","23.161356","-106.266072","11.58","GENERAL RAFAEL BUELNA INTERNATIONAL, MX","FM-15","99999","V020","999,9,C,0000,1","99999,9,9,N","022531,1,9,9","+0180,1","+0150,1","99999,9",,"04,1,+07315,1,00,1",,,"9,AGL   ,+99999,+99999","99,99,9,04,1,99,9,07315,1,99,9,99,9","10203,1,99999,9",,,"MET084METAR MMMZ 151541Z 00000KT 14SM SCT240 18/15 A3013 RMK 8/002 ISOL AC FULYR 3RD QUAD=",
"76459399999","2025-01-15T16:42:00","4","23.161356","-106.266072","11.58","GENERAL RAFAEL BUELNA INTERNATIONAL, MX","FM-15","99999","V020","999,9,C,0000,1","99999,9,9,N","022531,1,9,9","+0220,1","+0160,1","99999,9",,"02,1,+07315,1,00,1",,,"9,AGL   ,+99999,+99999","99,99,9,02,1,99,9,07315,1,99,9,99,9","10207,1,99999,9",,,"MET076METAR MMMZ 151642Z 00000KT 14SM FEW240 22/16 A3014 RMK 8/002 FULYR 3RD QUAD=",
"76459399999","2025-01-15T17:50:00","4","23.161356","-106.266072","11.58","GENERAL RAFAEL BUELNA INTERNATIONAL, MX","FM-15","99999","V020","999,9,C,0000,1","99999,9,9,N","022531,1,9,9","+0250,1","+0170,1","10198,1",,"02,1,+07315,1,00,1",,,"9,AGL   ,+99999,+99999","99,99,9,02,1,99,9,07315,1,99,9,99,9","10203,1,99999,9","2,1,003,1,+999,9",,"MET086METAR MMMZ 151750Z 00000KT 14SM FEW240 25/17 A3013 RMK SLP198 52003 913 8/002 FULYR W=",
"76459399999","2025-01-15T18:41:00","4","23.161356","-106.266072","11.58","GENERAL RAFAEL BUELNA INTERNATIONAL, MX","FM-15","99999","V020","250,1,N,0021,1","99999,9,9,N","022531,1,9,9","+0280,1","+0170,1","99999,9",,"02,1,+07315,1,00,1",,,"9,AGL   ,+99999,+99999","99,99,9,02,1,99,9,07315,1,99,9,99,9","10193,1,99999,9",,,"MET069METAR MMMZ 151841Z 25004KT 14SM FEW240 28/17 A3010 RMK 8/002 ISOL AC=",
"76459399999","2025-01-15T19:42:00","4","23.161356","-106.266072","11.58","GENERAL RAFAEL BUELNA INTERNATIONAL, MX","FM-15","99999","V020","280,1,N,0021,1","99999,9,9,N","022531,1,9,9","+0280,1","+0150,1","99999,9",,"02,1,+07315,1,00,1",,,"9,AGL   ,+99999,+99999","99,99,9,02,1,99,9,07315,1,99,9,99,9","10179,1,99999,9",,,"MET069METAR MMMZ 151942Z 28004KT 14SM FEW240 28/15 A3006 RMK 8/002 ISOL AC=",
"76459399999","2025-01-15T20:40:00","4","23.161356","-106.266072","11.58","GENERAL RAFAEL BUELNA INTERNATIONAL, MX","FM-15","99999","V020","270,1,N,0036,1","99999,9,9,N","022531,1,9,9","+0290,1","+0160,1","10172,1",,"02,1,+07315,1,00,1",,,"9,AGL   ,+99999,+99999","99,99,9,02,1,99,9,07315,1,99,9,99,9","10173,1,99999,9","7,1,030,1,+999,9",,"MET086METAR MMMZ 152040Z 27007KT 14SM FEW240 29/16 A3004 RMK SLP172 57030 914 8/002 ISOL AC=",
"76459399999","2025-01-15T21:43:00","4","23.161356","-106.266072","11.58","GENERAL RAFAEL BUELNA INTERNATIONAL, MX","FM-15","99999","V020","280,1,N,0036,1","22000,1,9,N","024140,1,9,9","+0280,1","+0160,1","99999,9",,,,,,"00,99,1,99,9,99,9,99999,9,99,9,99,9","10169,1,99999,9",,,"MET060METAR MMMZ 152143Z 28007KT 15SM SKC 28/16 A3003 RMK ISOL CI=",
"76459399999","2025-01-15T22:41:00","4","23.161356","-106.266072","11.58","GENERAL RAFAEL BUELNA INTERNATIONAL, MX","FM-15","99999","V020","300,1,N,0041,1","22000,1,9,N","024140,1,9,9","+0260,1","+0160,1","99999,9",,,,,,"00,99,1,99,9,99,9,99999,9,99,9,99,9","10169,1,99999,9",,,"MET060METAR MMMZ 152241Z 30008KT 15SM SKC 26/16 A3003 RMK ISOL CI=",
"76459399999","2025-01-15T23:41:00","4","23.161356","-106.266072","11.58","GENERAL RAFAEL BUELNA INTERNATIONAL, MX","FM-15","99999","V020","310,1,N,0046,1","22000,1,9,N","024140,1,9,9","+0250,1","+0140,1","10164,1",,,,,,"00,99,1,99,9,99,9,99999,9,99,9,99,9","10169,1,99999,9","7,1,003,1,+999,9",,"MET079METAR MMMZ 152341Z 31009KT 15SM SKC 25/14 A3003 RMK SLP164 57003 911 DSNT CI S=",
"76459399999","2025-01-16T00:42:00","4","23.161356","-106.266072","11.58","GENERAL RAFAEL BUELNA INTERNATIONAL, MX","FM-15","99999","V020","300,1,N,0031,1","22000,1,9,N","020921,1,9,9","+0220,1","+0150,1","99999,9",,,,,,"00,99,1,99,9,99,9,99999,9,99,9,99,9","10176,1,99999,9",,,"MET062METAR MMMZ 160042Z 30006KT 13SM SKC 22/15 A3005 RMK DSNT CI S=",
"76459399999","2025-01-16T01:42:00","4","23.161356","-106.266072","11.58","GENERAL RAFAEL BUELNA INTERNATIONAL, MX","FM-15","99999","V020","300,1,N,0041,1","22000,1,9,N","016093,1,9,9","+0200,1","+0150,1","99999,9",,,,,,"00,99,1,99,9,99,9,99999,9,99,9,99,9","10179,1,99999,9",,,"MET048METAR MMMZ 160142Z 30008KT 10SM SKC 20/15 A3006=",
"76459399999","2025-01-16T02:44:00","4","23.161356","-106.266072","11.58","GENERAL RAFAEL BUELNA INTERNATIONAL, MX","FM-15","99999","V020","340,1,N,0010,1","22000,1,9,N","016093,1,9,9","+0190,1","+0130,1","10186,1",,,,,,"00,99,1,99,9,99,9,99999,9,99,9,99,9","10186,1,99999,9","2,1,017,1,+999,9",,"MET069METAR MMMZ 160244Z 34002KT 10SM SKC 19/13 A3008 RMK SLP186 52017 910=",
"76459399999","2025-01-16T03:42:00","4","23.161356","-106.266072","11.58","GENERAL RAFAEL BUELNA INTERNATIONAL, MX","FM-15","99999","V020","999,9,C,0000,1","22000,1,9,N","016093,1,9,9","+0180,1","+0150,1","99999,9",,,,,,"00,99,1,99,9,99,9,99999,9,99,9,99,9","10190,1,99999,9",,,"MET048METAR MMMZ 160342Z 00000KT 10SM SKC 18/15 A3009=",
"76459399999","2025-01-16T04:46:00","4","23.161356","-106.266072","11.58","GENERAL RAFAEL BUELNA INTERNATIONAL, MX","FM-15","99999","V020","300,1,N,0026,1","22000,1,9,N","016093,1,9,9","+0170,1","+0150,1","99999,9",,,,,,"00,99,1,99,9,99,9,99999,9,99,9,99,9","10193,1,99999,9",,,"MET048METAR MMMZ 160446Z 30005KT 10SM SKC 17/15 A3010=",
"76459399999","2025-01-16T05:41:00","4","23.161356","-106.266072","11.58","GENERAL RAFAEL BUELNA INTERNATIONAL, MX","FM-15","99999","V020","999,9,C,0000,1","22000,1,9,N","016093,1,9,9","+0160,1","+0140,1","10188,1",,,,,,"00,99,1,99,9,99,9,99999,9,99,9,99,9","10193,1,99999,9","2,1,007,1,+999,9",,"MET069METAR MMMZ 160541Z 00000KT 10SM SKC 16/14 A3010 RMK SLP188 52007 961=",
"76459399999","2025-01-16T06:40:00","4","23.161356","-106.266072","11.58","GENERAL RAFAEL BUELNA INTERNATIONAL, MX","FM-15","99999","V020","999,9,C,0000,1","22000,1,9,N","016093,1,9,9","+0150,1","+0140,1","99999,9",,,,,,"00,99,1,99,9,99,9,99999,9,99,9,99,9","10186,1,99999,9",,,"MET048METAR MMMZ 160640Z 00000KT 10SM SKC 15/14 A3008=",
"76459399999","2025-01-16T07:40:00","4","23.161356","-106.266072","11.58","GENERAL RAFAEL BUELNA INTERNATIONAL, MX","FM-15","99999","V020","999,9,C,0000,1","22000,1,9,N","016093,1,9,9","+0150,1","+0140,1","99999,9",,,,,,"00,99,1,99,9,99,9,99999,9,99,9,99,9","10179,1,99999,9",,,"MET048METAR MMMZ 160740Z 00000KT 10SM SKC 15/14 A3006=",
"76459399999","2025-01-16T08:42:00","4","23.161356","-106.266072","11.58","GENERAL RAFAEL BUELNA INTERNATIONAL, MX","FM-15","99999","V020","999,9,C,0000,1","22000,1,9,N","016093,1,9,9","+0140,1","+0130,1","10163,1",,,,,,"00,99,1,99,9,99,9,99999,9,99,9,99,9","10176,1,99999,9","7,1,017,1,+999,9",,"MET069METAR MMMZ 160842Z 00000KT 10SM SKC 14/13 A3005 RMK SLP163 57017 966=",
"76459399999","2025-01-16T09:40:00","4","23.161356","-106.266072","11.58","GENERAL RAFAEL BUELNA INTERNATIONAL, MX","FM-15","99999","V020","999,9,C,0000,1","22000,1,9,N","016093,1,9,9","+0130,1","+0130,1","99999,9",,,,,,"00,99,1,99,9,99,9,99999,9,99,9,99,9","10173,1,99999,9",,,"MET048METAR MMMZ 160940Z 00000KT 10SM SKC 13/13 A3004=",
"76459399999","2025-01-16T10:40:00","4","23.161356","-106.266072","11.58","GENERAL RAFAEL BUELNA INTERNATIONAL, MX","FM-15","99999","V020","999,9,C,0000,1","99999,9,9,N","016093,1,9,9","+0130,1","+0120,1","99999,9",,"02,1,+07620,1,00,1",,,"9,AGL   ,+99999,+99999","99,99,9,02,1,99,9,07620,1,99,9,99,9","10176,1,99999,9",,,"MET061METAR MMMZ 161040Z 00000KT 10SM FEW250 13/12 A3005 RMK 8/002=",
"76459399999","2025-01-16T11:44:00","4","23.161356","-106.266072","11.58","GENERAL RAFAEL BUELNA INTERNATIONAL, MX","FM-15","99999","V020","080,1,N,0015,1","99999,9,9,N","016093,1,9,9","+0130,1","+0130,1","10168,1",,"02,1,+07620,1,00,1",,,"9,AGL   ,+99999,+99999","99,99,9,02,1,99,9,07620,1,99,9,99,9","10176,1,99999,9","4,1,000,1,+999,9",,"MET082METAR MMMZ 161144Z 08003KT 10SM FEW250 13/13 A3005 RMK SLP168 54000 973 8/002 HZY=",
"76459399999","2025-01-16T12:50:00","4","23.161356","-106.266072","11.58","GENERAL RAFAEL BUELNA INTERNATIONAL, MX","FM-15","99999","V020","050,1,N,0021,1","22000,1,9,N","016093,1,9,9","+0130,1","+0120,1","99999,9",,,,,,"00,99,1,99,9,99,9,99999,9,99,9,99,9","10169,1,99999,9",,,"MET060METAR MMMZ 161250Z 05004KT 10SM SKC 13/12 A3003 RMK ISOL AC=",
"76459399999","2025-01-16T13:44:00","4","23.161356","-106.266072","11.58","GENERAL RAFAEL BUELNA INTERNATIONAL, MX","FM-15","99999","V020","999,9,C,0000,1","07620,1,C,N","019312,1,9,9","+0120,1","+0120,1","99999,9",,"02,1,+02743,1,03,1","04,1,+07620,1,00,1",,"9,AGL   ,+99999,+99999","99,99,9,02,1,99,9,02743,1,99,9,99,9","10176,1,99999,9",,,"MET068METAR MMMZ 161344Z 00000KT 12SM FEW090 SCT250 12/12 A3005 RMK 8/034=",
"76459399999","2025-01-16T14:47:00","4","23.161356","-106.266072","11.58","GENERAL RAFAEL BUELNA INTERNATIONAL, MX","FM-15","99999","V020","999,9,C,0000,1","07315,1,C,N","016093,1,9,9","+0150,1","+0140,1","10186,1",,"02,1,+03353,1,03,1","04,1,+07315,1,00,1",,"9,AGL   ,+99999,+99999","99,99,9,02,1,99,9,03353,1,99,9,99,9","10186,1,99999,9","2,1,017,1,+999,9",,"MET085METAR MMMZ 161447Z 00000KT 10SM FEW110 SCT240 15/14 A3008 RMK SLP186 52017 960 8/032=",
"76459399999","2025-01-16T15:44:00","4","23.161356","-106.266072","11.58","GENERAL RAFAEL BUELNA INTERNATIONAL, MX","FM-15","99999","V020","999,9,C,0000,1","07315,1,C,N","017703,1,9,9","+0190,1","+0160,1","99999,9",,"02,1,+03353,1,03,1","04,1,+07315,1,00,1",,"9,AGL   ,+99999,+99999","99,99,9,02,1,99,9,03353,1,99,9,99,9","10196,1,99999,9",,,"MET068METAR MMMZ 161544Z 00000KT 11SM FEW110 SCT240 19/16 A3011 RMK 8/032=",
"76459399999","2025-01-16T16:41:00","4","23.161356","-106.266072","11.58","GENERAL RAFAEL BUELNA INTERNATIONAL, MX","FM-15","99999","V020","070,1,N,0021,1","07315,1,9,N","019312,1,9,9","+0200,1","+0150,1","99999,9",,"04,1,+03353,1,03,1","07,1,+07315,1,02,1",,"9,AGL   ,+99999,+99999","99,99,9,04,1,99,9,03353,1,99,9,99,9","10196,1,99999,9",,,"MET068METAR MMMZ 161641Z 07004KT 12SM SCT110 BKN240 20/15 A3011 RMK 8/038=",
"76459399999","2025-01-16T17:44:00","4","23.161356","-106.266072","11.58","GENERAL RAFAEL BUELNA INTERNATIONAL, MX","FM-15","99999","V020","160,1,N,0026,1","07315,1,C,N","019312,1,9,9","+0250,1","+0160,1","10187,1",,"02,1,+03353,1,03,1","04,1,+07315,1,00,1",,"9,AGL   ,+99999,+99999","99,99,9,02,1,99,9,03353,1,99,9,99,9","10193,1,99999,9","2,1,003,1,+999,9",,"MET085METAR MMMZ 161744Z 16005KT 12SM FEW110 SCT240 25/16 A3010 RMK SLP187 52003 960 8/032=",
"76459399999","2025-01-16T18:44:00","4","23.161356","-106.266072","11.58","GENERAL RAFAEL BUELNA INTERNATIONAL, MX","FM-15","99999","V020","250,1,N,0036,1","07315,1,9,N","019312,1,9,9","+0270,1","+0160,1","99999,9",,"02,1,+03353,1,03,1","07,1,+07315,1,00,1",,"9,AGL   ,+99999,+99999","99,99,9,02,1,99,9,03353,1,99,9,99,9","10183,1,99999,9",,,"MET068METAR MMMZ 161844Z 25007KT 12SM FEW110 BKN240 27/16 A3007 RMK 8/032=",
"76459399999","2025-01-16T19:43:00","4","23.161356","-106.266072","11.58","GENERAL RAFAEL BUELNA INTERNATIONAL, MX","FM-15","99999","V020","290,1,N,0062,1","07315,1,C,N","022531,1,9,9","+0260,1","+0140,1","99999,9",,"07,1,+07315,1,02,1",,,"9,AGL   ,+99999,+99999","99,99,9,07,1,99,9,07315,1,99,9,99,9","10173,1,99999,9",,,"MET069METAR MMMZ 161943Z 29012KT 14SM BKN240 26/14 A3004 RMK 8/008 ISOL AC=",
"76459399999","2025-01-16T20:46:00","4","23.161356","-106.266072","11.58","GENERAL RAFAEL BUELNA INTERNATIONAL, MX","FM-15","99999","V020","280,1,N,0062,1","99999,9,9,N","022531,1,9,9","+0280,1","+0140,1","10162,1",,"02,1,+07315,1,00,1",,,"9,AGL   ,+99999,+99999","99,99,9,02,1,99,9,07315,1,99,9,99,9","10163,1,99999,9","7,1,030,1,+999,9",,"MET078METAR MMMZ 162046Z 28012KT 14SM FEW240 28/14 A3001 RMK SLP162 57030 960 8/002=",
"76459399999","2025-01-16T21:44:00","4","23.161356","-106.266072","11.58","GENERAL RAFAEL BUELNA INTERNATIONAL, MX","FM-15","99999","V020","310,1,N,0062,1","99999,9,9,N","024140,1,9,9","+0280,1","+0140,1","99999,9",,"02,1,+07620,1,02,1",,,"9,AGL   ,+99999,+99999","99,99,9,02,1,99,9,07620,1,99,9,99,9","10156,1,99999,9",,,"MET061METAR MMMZ 162144Z 31012KT 15SM FEW250 28/14 A2999 RMK 8/005=",
"76459399999","2025-01-16T22:43:00","4","23.161356","-106.266072","11.58","GENERAL RAFAEL BUELNA INTERNATIONAL, MX","FM-15","99999","V020","320,1,N,0072,1","99999,9,9,N","024140,1,9,9","+0270,1","+0140,1","99999,9",,"02,1,+07620,1,00,1",,,"9,AGL   ,+99999,+99999","99,99,9,02,1,99,9,07620,1,99,9,99,9","10152,1,99999,9",,,"MET061METAR MMMZ 162243Z 32014KT 15SM FEW250 27/14 A2998 RMK 8/002=",
"76459399999","2025-01-16T23:43:00","4","23.161356","-106.266072","11.58","GENERAL RAFAEL BUELNA INTERNATIONAL, MX","FM-15","99999","V020","300,1,N,0031,1","99999,9,9,N","022531,1,9,9","+0250,1","+0140,1","10151,1",,"02,1,+07315,1,00,1",,,"9,AGL   ,+99999,+99999","99,99,9,02,1,99,9,07315,1,99,9,99,9","10156,1,99999,9","7,1,003,1,+999,9",,"MET078METAR MMMZ 162343Z 30006KT 14SM FEW240 25/14 A2999 RMK SLP151 57003 963 8/002=",
"76459399999","2025-01-17T00:41:00","4","23.161356","-106.266072","11.58","GENERAL RAFAEL BUELNA INTERNATIONAL, MX","FM-15","99999","V020","310,1,N,0031,1","99999,9,9,N","019312,1,9,9","+0220,1","+0140,1","99999,9",,"02,1,+07315,1,00,1",,,"9,AGL   ,+99999,+99999","99,99,9,02,1,99,9,07315,1,99,9,99,9","10156,1,99999,9",,,"MET069METAR MMMZ 170041Z 31006KT 12SM FEW240 22/14 A2999 RMK 8/002 ISOL AC=",
"76459399999","2025-01-17T01:41:00","4","23.161356","-106.266072","11.58","GENERAL RAFAEL BUELNA INTERNATIONAL, MX","FM-15","99999","V020","310,1,N,0021,1","99999,9,9,N","016093,1,9,9","+0200,1","+0140,1","99999,9",,"02,1,+07315,1,00,1",,,"9,AGL   ,+99999,+99999","99,99,9,02,1,99,9,07315,1,99,9,99,9","10156,1,99999,9",,,"MET061METAR MMMZ 170141Z 31004KT 10SM FEW240 20/14 A2999 RMK 8/002=",
"76459399999","2025-01-17T02:44:00","4","23.161356","-106.266072","11.58","GENERAL RAFAEL BUELNA INTERNATIONAL, MX","FM-15","99999","V020","999,9,C,0000,1","99999,9,9,N","016093,1,9,9","+0290,1","+0140,1","10162,1",,"02,1,+07315,1,00,1",,,"9,AGL   ,+99999,+99999","99,99,9,02,1,99,9,07315,1,99,9,99,9","10163,1,99999,9","2,1,007,1,+999,9",,"MET078METAR MMMZ 170244Z 00000KT 10SM FEW240 29/14 A3001 RMK SLP162 52007 974 8/002=",
"76459399999","2025-01-17T03:47:00","4","23.161356","-106.266072","11.58","GENERAL RAFAEL BUELNA INTERNATIONAL, MX","FM-15","99999","V020","999,9,C,0000,1","99999,9,9,N","016093,1,9,9","+0180,2","+0140,1","99999,9",,"04,1,+07315,1,00,1",,,"9,AGL   ,+99999,+99999","99,99,9,04,1,99,9,07315,1,99,9,99,9","10166,1,99999,9",,,"MET061METAR MMMZ 170347Z 00000KT 10SM SCT240 18/14 A3002 RMK 8/002=",
"76459399999","2025-01-17T04:43:00","4","23.161356","-106.266072","11.58","GENERAL RAFAEL BUELNA INTERNATIONAL, MX","FM-15","99999","V020","999,9,C,0000,1","99999,9,9,N","016093,1,9,9","+0170,1","+0140,1","99999,9",,"02,1,+07315,1,00,1",,,"9,AGL   ,+99999,+99999","99,99,9,02,1,99,9,07315,1,99,9,99,9","10173,1,99999,9",,,"MET061METAR MMMZ 170443Z 00000KT 10SM FEW240 17/14 A3004 RMK 8/002=",
"76459399999","2025-01-17T05:43:00","4","23.161356","-106.266072","11.58","GENERAL RAFAEL BUELNA INTERNATIONAL, MX","FM-15","99999","V020","999,9,C,0000,1","99999,9,9,N","014484,1,9,9","+0150,1","+0130,1","10173,1",,"04,1,+07315,1,00,1",,,"9,AGL   ,+99999,+99999","99,99,9,04,1,99,9,07315,1,99,9,99,9","10179,1,99999,9","2,1,017,1,+999,9",,"MET077METAR MMMZ 170543Z 00000KT 9SM SCT240 15/13 A3006 RMK SLP173 52017 965 8/002=",
"76459399999","2025-01-17T06:41:00","4","23.161356","-106.266072","11.58","GENERAL RAFAEL BUELNA INTERNATIONAL, MX","FM-15","99999","V020","999,9,C,0000,1","99999,9,9,N","014484,1,9,9","+0140,1","+0130,1","99999,9",,"04,1,+07315,1,00,1",,,"9,AGL   ,+99999,+99999","99,99,9,04,1,99,9,07315,1,99,9,99,9","10179,1,99999,9",,,"MET060METAR MMMZ 170641Z 00000KT 9SM SCT240 14/13 A3006 RMK 8/002=",
"76459399999","2025-01-17T07:44:00","4","23.161356","-106.266072","11.58","GENERAL RAFAEL BUELNA INTERNATIONAL, MX","FM-15","99999","V020","999,9,C,0000,1","07315,1,C,N","014484,1,9,9","+0150,1","+0130,1","99999,9",,"07,1,+07315,1,02,1",,,"9,AGL   ,+99999,+99999","99,99,9,07,1,99,9,07315,1,99,9,99,9","10173,1,99999,9",,,"MET060METAR MMMZ 170744Z 00000KT 9SM BKN240 15/13 A3004 RMK 8/008=",
"76459399999","2025-01-17T08:45:00","4","23.161356","-106.266072","11.58","GENERAL RAFAEL BUELNA INTERNATIONAL, MX","FM-15","99999","V020","999,9,C,0000,1","07315,1,C,N","014484,1,9,9","+0140,1","+0130,1","10172,1",,"07,1,+07315,1,02,1",,,"9,AGL   ,+99999,+99999","99,99,9,07,1,99,9,07315,1,99,9,99,9","10173,1,99999,9","7,1,007,1,+999,9",,"MET077METAR MMMZ 170845Z 00000KT 9SM BKN240 14/13 A3004 RMK SLP172 57007 912 8/008=",
"76459399999","2025-01-17T09:42:00","4","23.161356","-106.266072","11.58","GENERAL RAFAEL BUELNA INTERNATIONAL, MX","FM-15","99999","V020","999,9,C,0000,1","07315,1,C,N","014484,1,9,9","+0140,1","+0130,1","99999,9",,"07,1,+07315,1,02,1",,,"9,AGL   ,+99999,+99999","99,99,9,07,1,99,9,07315,1,99,9,99,9","10173,1,99999,9",,,"MET060METAR MMMZ 170942Z 00000KT 9SM BKN240 14/13 A3004 RMK 8/008=",
"76459399999","2025-01-17T10:44:00","4","23.161356","-106.266072","11.58","GENERAL RAFAEL BUELNA INTERNATIONAL, MX","FM-15","99999","V020","999,9,C,0000,1","07315,1,9,N","012875,1,9,9","+0140,1","+0120,1","99999,9",,"02,1,+02743,1,03,1","08,1,+07315,1,02,1",,"9,AGL   ,+99999,+99999","99,99,9,02,1,99,9,02743,1,99,9,99,9","10179,1,99999,9",,,"MET067METAR MMMZ 171044Z 00000KT 8SM FEW090 OVC240 14/12 A3006 RMK 8/037=",
"76459399999","2025-01-17T11:44:00","4","23.161356","-106.266072","11.58","GENERAL RAFAEL BUELNA INTERNATIONAL, MX","FM-15","99999","V020","999,9,C,0000,1","07315,1,9,N","012875,1,9,9","+0140,1","+0130,1","10176,1",,"02,1,+03353,1,03,1","07,1,+07315,1,02,1",,"9,AGL   ,+99999,+99999","99,99,9,02,1,99,9,03353,1,99,9,99,9","10179,1,99999,9","2,1,007,1,+999,9",,"MET084METAR MMMZ 171144Z 00000KT 8SM FEW110 BKN240 14/13 A3006 RMK SLP176 52007 901 8/038=",
"76459399999","2025-01-17T12:42:00","4","23.161356","-106.266072","11.58","GENERAL RAFAEL BUELNA INTERNATIONAL, MX","FM-15","99999","V020","999,9,C,0000,1","07315,1,C,N","012875,1,9,9","+0140,1","+0130,1","99999,9",,"08,1,+07315,1,02,1",,,"9,AGL   ,+99999,+99999","99,99,9,08,1,99,9,07315,1,99,9,99,9","10183,1,99999,9",,,"MET068METAR MMMZ 171242Z 00000KT 8SM OVC240 14/13 A3007 RMK 8/007 ISOL AC=",
"76459399999","2025-01-17T13:45:00","4","23.161356","-106.266072","11.58","GENERAL RAFAEL BUELNA INTERNATIONAL, MX","FM-15","99999","V020","999,9,C,0000,1","07315,1,9,N","016093,1,9,9","+0140,1","+0130,1","99999,9",,"02,1,+03353,1,03,1","08,1,+07315,1,02,1",,"9,AGL   ,+99999,+99999","99,99,9,02,1,99,9,03353,1,99,9,99,9","10190,1,99999,9",,,"MET068METAR MMMZ 171345Z 00000KT 10SM FEW110 OVC240 14/13 A3009 RMK 8/057=",
"76459399999","2025-01-17T14:46:00","4","23.161356","-106.266072","11.58","GENERAL RAFAEL BUELNA INTERNATIONAL, MX","FM-15","99999","V020","999,9,C,0000,1","07315,1,9,N","019312,1,9,9","+0150,1","+0140,1","10196,1",,"02,1,+03353,1,03,1","08,1,+07315,1,02,1",,"9,AGL   ,+99999,+99999","99,99,9,02,1,99,9,03353,1,99,9,99,9","10196,1,99999,9","2,1,017,1,+999,9",,"MET085METAR MMMZ 171446Z 00000KT 12SM FEW110 OVC240 15/14 A3011 RMK SLP196 52017 910 8/057=",
"76459399999","2025-01-17T15:47:00","4","23.161356","-106.266072","11.58","GENERAL RAFAEL BUELNA INTERNATIONAL, MX","FM-15","99999","V020","999,9,C,0000,1","07315,1,9,N","022531,1,9,9","+0190,1","+0150,1","99999,9",,"02,1,+03353,1,03,1","08,1,+07315,1,02,1",,"9,AGL   ,+99999,+99999","99,99,9,02,1,99,9,03353,1,99,9,99,9","10200,1,99999,9",,,"MET075METAR MMMZ 171547Z 00000KT 14SM FEW110 OVC240 19/15 A3012 RMK 8/077 BINOVC=",
"76459399999","2025-01-17T16:46:00","4","23.161356","-106.266072","11.58","GENERAL RAFAEL BUELNA INTERNATIONAL, MX","FM-15","99999","V020","999,9,C,0000,1","07315,1,9,N","022531,1,9,9","+0220,1","+0170,1","99999,9",,"02,1,+03962,1,03,1","07,1,+07315,1,02,1",,"9,AGL   ,+99999,+99999","99,99,9,02,1,99,9,03962,1,99,9,99,9","10203,1,99999,9",,,"MET068METAR MMMZ 171646Z 00000KT 14SM FEW130 BKN240 22/17 A3013 RMK 8/038=",
"76459399999","2025-01-17T17:43:00","4","23.161356","-106.266072","11.58","GENERAL RAFAEL BUELNA INTERNATIONAL, MX","FM-15","99999","V020","260,1,N,0021,1","07315,1,9,N","022531,1,9,9","+0240,1","+0170,1","10195,1",,"02,1,+03962,1,03,1","07,1,+07315,1,02,1",,"9,AGL   ,+99999,+99999","99,99,9,02,1,99,9,03962,1,99,9,99,9","10196,1,99999,9","4,1,000,1,+999,9",,"MET085METAR MMMZ 171743Z 26004KT 14SM FEW130 BKN240 24/17 A3011 RMK SLP195 54000 908 8/038=",
"76459399999","2025-01-17T18:41:00","4","23.161356","-106.266072","11.58","GENERAL RAFAEL BUELNA INTERNATIONAL, MX","FM-15","99999","V020","240,1,N,0031,1","07315,1,C,N","022531,1,9,9","+0250,1","+0170,1","99999,9",,"07,1,+07315,1,02,1",,,"9,AGL   ,+99999,+99999","99,99,9,07,1,99,9,07315,1,99,9,99,9","10190,1,99999,9",,,"MET069METAR MMMZ 171841Z 24006KT 14SM BKN240 25/17 A3009 RMK 8/008 ISOL AC=",
"76459399999","2025-01-17T19:42:00","4","23.161356","-106.266072","11.58","GENERAL RAFAEL BUELNA INTERNATIONAL, MX","FM-15","99999","V020","260,1,N,0021,1","07315,1,C,N","022531,1,9,9","+0250,1","+0170,1","99999,9",,"07,1,+07315,1,02,1",,,"9,AGL   ,+99999,+99999","99,99,9,07,1,99,9,07315,1,99,9,99,9","10176,1,99999,9",,,"MET069METAR MMMZ 171942Z 26004KT 14SM BKN240 25/17 A3005 RMK 8/008 ISOL AC=",
"76459399999","2025-01-17T20:47:00","4","23.161356","-106.266072","11.58","GENERAL RAFAEL BUELNA INTERNATIONAL, MX","FM-15","99999","V020","290,1,N,0021,1","07315,1,C,N","022531,1,9,9","+0250,1","+0160,1","10166,1",,"07,1,+07315,1,02,1",,,"9,AGL   ,+99999,+99999","99,99,9,07,1,99,9,07315,1,99,9,99,9","10166,1,99999,9","7,1,030,1,+999,9",,"MET078METAR MMMZ 172047Z 29004KT 14SM BKN240 25/16 A3002 RMK SLP166 57030 903 8/008=",
"76459399999","2025-01-17T21:43:00","4","23.161356","-106.266072","11.58","GENERAL RAFAEL BUELNA INTERNATIONAL, MX","FM-15","99999","V020","200,1,N,0041,1","07315,1,C,N","022531,1,9,9","+0250,1","+0150,1","99999,9",,"07,1,+07315,1,02,1",,,"9,AGL   ,+99999,+99999","99,99,9,07,1,99,9,07315,1,99,9,99,9","10159,1,99999,9",,,"MET061METAR MMMZ 172143Z 20008KT 14SM BKN240 25/15 A3000 RMK 8/008=",
"76459399999","2025-01-17T22:45:00","4","23.161356","-106.266072","11.58","GENERAL RAFAEL BUELNA INTERNATIONAL, MX","FM-15","99999","V020","270,1,N,0026,1","07315,1,C,N","022531,1,9,9","+0240,1","+0150,1","99999,9",,"07,1,+07315,1,00,1",,,"9,AGL   ,+99999,+99999","99,99,9,07,1,99,9,07315,1,99,9,99,9","10159,1,99999,9",,,"MET061METAR MMMZ 172245Z 27005KT 14SM BKN240 24/15 A3000 RMK 8/002=",
"76459399999","2025-01-17T23:43:00","4","23.161356","-106.266072","11.58","GENERAL RAFAEL BUELNA INTERNATIONAL, MX","FM-15","99999","V020","270,1,N,0026,1","07315,1,9,N","022531,1,9,9","+0230,1","+0150,1","10155,1",,"02,1,+03658,1,03,1","07,1,+07315,1,00,1",,"9,AGL   ,+99999,+99999","99,99,9,02,1,99,9,03658,1,99,9,99,9","10163,1,99999,9","7,1,003,1,+999,9",,"MET085METAR MMMZ 172343Z 27005KT 14SM FEW120 BKN240 23/15 A3001 RMK SLP155 57003 904 8/032=",
"76459399999","2025-01-18T00:40:00","4","23.161356","-106.266072","11.58","GENERAL RAFAEL BUELNA INTERNATIONAL, MX","FM-15","99999","V020","300,1,N,0026,1","07315,1,C,N","022531,1,9,9","+0210,1","+0140,1","99999,9",,"04,1,+03962,1,03,1","04,1,+07315,1,00,1",,"9,AGL   ,+99999,+99999","99,99,9,04,1,99,9,03962,1,99,9,99,9","10163,1,99999,9",,,"MET068METAR MMMZ 180040Z 30005KT 14SM SCT130 SCT240 21/14 A3001 RMK 8/072=",
"76459399999","2025-01-18T01:43:00","4","23.161356","-106.266072","11.58","GENERAL RAFAEL BUELNA INTERNATIONAL, MX","FM-15","99999","V020","260,1,N,0015,1","07315,1,C,N","019312,1,9,9","+0200,1","+0150,1","99999,9",,"04,1,+03353,1,03,1","04,1,+07315,1,00,1",,"9,AGL   ,+99999,+99999","99,99,9,04,1,99,9,03353,1,99,9,99,9","10169,1,99999,9",,,"MET068METAR MMMZ 180143Z 26003KT 12SM SCT110 SCT240 20/15 A3003 RMK 8/032=",
"76459399999","2025-01-18T02:44:00","4","23.161356","-106.266072","11.58","GENERAL RAFAEL BUELNA INTERNATIONAL, MX","FM-15","99999","V020","999,9,C,0000,1","07315,1,C,N","016093,1,9,9","+0180,1","+0140,1","10172,1",,"02,1,+03353,1,03,1","04,1,+07315,1,00,1",,"9,AGL   ,+99999,+99999","99,99,9,02,1,99,9,03353,1,99,9,99,9","10173,1,99999,9","2,1,010,1,+999,9",,"MET085METAR MMMZ 180244Z 00000KT 10SM FEW110 SCT240 18/14 A3004 RMK SLP172 52010 910 8/032=",
"76459399999","2025-01-18T03:41:00","4","23.161356","-106.266072","11.58","GENERAL RAFAEL BUELNA INTERNATIONAL, MX","FM-15","99999","V020","350,1,N,0015,1","99999,9,9,N","016093,1,9,9","+0180,1","+0140,1","99999,9",,"04,1,+07315,1,00,1",,,"9,AGL   ,+99999,+99999","99,99,9,04,1,99,9,07315,1,99,9,99,9","10176,1,99999,9",,,"MET061METAR MMMZ 180341Z 35003KT 10SM SCT240 18/14 A3005 RMK 8/002=",
"76459399999","2025-01-18T04:40:00","4","23.161356","-106.266072","11.58","GENERAL RAFAEL BUELNA INTERNATIONAL, MX","FM-15","99999","V020","999,9,C,0000,1","99999,9,9,N","016093,1,9,9","+0180,1","+0140,1","99999,9",,"04,1,+07315,1,00,1",,,"9,AGL   ,+99999,+99999","99,99,9,04,1,99,9,07315,1,99,9,99,9","10179,1,99999,9",,,"MET061METAR MMMZ 180440Z 00000KT 10SM SCT240 18/14 A3006 RMK 8/002=",
"76459399999","2025-01-18T05:42:00","4","23.161356","-106.266072","11.58","GENERAL RAFAEL BUELNA INTERNATIONAL, MX","FM-15","99999","V020","999,9,C,0000,1","99999,9,9,N","016093,1,9,9","+0150,1","+0140,1","10174,1",,"04,1,+07315,1,00,1",,,"9,AGL   ,+99999,+99999","99,99,9,04,1,99,9,07315,1,99,9,99,9","10179,1,99999,9","2,1,007,1,+999,9",,"MET082METAR MMMZ 180542Z 00000KT 10SM SCT240 15/14 A3006 RMK SLP174 52007 901 8/002 HZY=",
"76459399999","2025-01-18T06:42:00","4","23.161356","-106.266072","11.58","GENERAL RAFAEL BUELNA INTERNATIONAL, MX","FM-15","99999","V020","999,9,C,0000,1","99999,9,9,N","012875,1,9,9","+0150,1","+0140,1","99999,9",,"02,1,+02743,1,03,1",,,"9,AGL   ,+99999,+99999","99,99,9,02,1,99,9,02743,1,99,9,99,9","10179,1,99999,9",,,"MET064METAR MMMZ 180642Z 00000KT 8SM FEW090 15/14 A3006 RMK 8/030 HZY=",
"76459399999","2025-01-18T07:41:00","4","23.161356","-106.266072","11.58","GENERAL RAFAEL BUELNA INTERNATIONAL, MX","FM-15","99999","V020","999,9,C,0000,1","99999,9,9,N","012875,1,9,9","+0140,1","+0130,1","99999,9",,"02,1,+02743,1,03,1",,,"9,AGL   ,+99999,+99999","99,99,9,02,1,99,9,02743,1,99,9,99,9","10176,1,99999,9",,,"MET064METAR MMMZ 180741Z 00000KT 8SM FEW090 14/13 A3005 RMK 8/030 HZY=",
"76459399999","2025-01-18T08:42:00","4","23.161356","-106.266072","11.58","GENERAL RAFAEL BUELNA INTERNATIONAL, MX","FM-15","99999","V020","999,9,C,0000,1","99999,9,9,N","012875,1,9,9","+0130,1","+0120,1","10176,1",,"02,1,+02743,1,03,1",,,"9,AGL   ,+99999,+99999","99,99,9,02,1,99,9,02743,1,99,9,99,9","10176,1,99999,9","7,1,003,1,+999,9",,"MET081METAR MMMZ 180842Z 00000KT 8SM FEW090 13/12 A3005 RMK SLP176 57003 903 8/030 HZY=",
"76459399999","2025-01-18T09:42:00","4","23.161356","-106.266072","11.58","GENERAL RAFAEL BUELNA INTERNATIONAL, MX","FM-15","99999","V020","999,9,C,0000,1","99999,9,9,N","012875,1,9,9","+0130,1","+0120,1","99999,9",,"02,1,+02743,1,03,1",,,"9,AGL   ,+99999,+99999","99,99,9,02,1,99,9,02743,1,99,9,99,9","10173,1,99999,9",,,"MET064METAR MMMZ 180942Z 00000KT 8SM FEW090 13/12 A3004 RMK 8/030 HZY=",
"76459399999","2025-01-18T10:40:00","4","23.161356","-106.266072","11.58","GENERAL RAFAEL BUELNA INTERNATIONAL, MX","FM-15","99999","V020","060,1,N,0015,1","99999,9,9,N","012875,1,9,9","+0130,1","+0120,1","99999,9",,"02,1,+02743,1,03,1",,,"9,AGL   ,+99999,+99999","99,99,9,02,1,99,9,02743,1,99,9,99,9","10169,1,99999,9",,,"MET064METAR MMMZ 181040Z 06003KT 8SM FEW090 13/12 A3003 RMK 8/030 HZY=",
"76459399999","2025-01-18T11:42:00","4","23.161356","-106.266072","11.58","GENERAL RAFAEL BUELNA INTERNATIONAL, MX","FM-15","99999","V020","999,9,C,0000,1","99999,9,9,N","016093,1,9,9","+0120,1","+0110,1","10164,1",,"02,1,+02743,1,03,1",,,"9,AGL   ,+99999,+99999","99,99,9,02,1,99,9,02743,1,99,9,99,9","10169,1,99999,9","7,1,007,1,+999,9",,"MET082METAR MMMZ 181142Z 00000KT 10SM FEW090 12/11 A3003 RMK SLP164 57007 963 8/030 HZY=",
"76459399999","2025-01-18T12:41:00","4","23.161356","-106.266072","11.58","GENERAL RAFAEL BUELNA INTERNATIONAL, MX","FM-15","99999","V020","999,9,C,0000,1","22000,1,9,N","016093,1,9,9","+0110,1","+0110,1","99999,9",,,,,,"00,99,1,99,9,99,9,99999,9,99,9,99,9","10173,1,99999,9",,,"MET060METAR MMMZ 181241Z 00000KT 10SM SKC 11/11 A3004 RMK ISOL CI=",
"76459399999","2025-01-18T13:43:00","4","23.161356","-106.266072","11.58","GENERAL RAFAEL BUELNA INTERNATIONAL, MX","FM-15","99999","V020","999,9,C,0000,1","22000,1,9,N","022531,1,9,9","+0110,1","+0100,1","99999,9",,,,,,"00,99,1,99,9,99,9,99999,9,99,9,99,9","10179,1,99999,9",,"12,1","MET053METAR MMMZ 181343Z 00000KT 14SM MIFG SKC 11/10 A3006=",
"76459399999","2025-01-18T14:44:00","4","23.161356","-106.266072","11.58","GENERAL RAFAEL BUELNA INTERNATIONAL, MX","FM-15","99999","V020","999,9,C,0000,1","22000,1,9,N","022531,1,9,9","+0150,1","+0130,1","10179,1",,,,,,"00,99,1,99,9,99,9,99999,9,99,9,99,9","10179,1,99999,9","2,1,010,1,+999,9",,"MET084METAR MMMZ 181444Z 00000KT 14SM SKC 15/13 A3006 RMK SLP179 52010 964 FULYR 3RD QUAD=",
"76459399999","2025-01-18T15:51:00","4","23.161356","-106.266072","11.58","GENERAL RAFAEL BUELNA INTERNATIONAL, MX","FM-15","99999","V020","999,9,C,0000,1","22000,1,9,N","022531,1,9,9","+0190,1","+0130,1","99999,9",,,,,,"00,99,1,99,9,99,9,99999,9,99,9,99,9","10190,1,99999,9",,,"MET067METAR MMMZ 181551Z 00000KT 14SM SKC 19/13 A3009 RMK FULYR 3RD QUAD=",
"76459399999","2025-01-18T16:46:00","4","23.161356","-106.266072","11.58","GENERAL RAFAEL BUELNA INTERNATIONAL, MX","FM-15","99999","V020","999,9,C,0000,1","22000,1,9,N","022531,1,9,9","+0230,1","+0120,1","99999,9",,,,,,"00,99,1,99,9,99,9,99999,9,99,9,99,9","10190,1,99999,9",,,"MET067METAR MMMZ 181646Z 00000KT 14SM SKC 23/12 A3009 RMK FULYR 3RD QUAD=",
"76459399999","2025-01-18T17:40:00","4","23.161356","-106.266072","11.58","GENERAL RAFAEL BUELNA INTERNATIONAL, MX","FM-15","99999","V020","999,9,C,0000,1","22000,1,9,N","022531,1,9,9","+0250,1","+0100,1","10184,1",,,,,,"00,99,1,99,9,99,9,99999,9,99,9,99,9","10190,1,99999,9","2,1,010,1,+999,9",,"MET077METAR MMMZ 181740Z 00000KT 14SM SKC 25/10 A3009 RMK SLP184 52010 961 FULYR W=",
"76459399999","2025-01-18T18:43:00","4","23.161356","-106.266072","11.58","GENERAL RAFAEL BUELNA INTERNATIONAL, MX","FM-15","99999","V020","280,1,N,0021,1","22000,1,9,N","022531,1,9,9","+0260,1","+0110,1","99999,9",,,,,,"00,99,1,99,9,99,9,99999,9,99,9,99,9","10183,1,99999,9",,,"MET048METAR MMMZ 181843Z 28004KT 14SM SKC 26/11 A3007=",
"76459399999","2025-01-18T19:43:00","4","23.161356","-106.266072","11.58","GENERAL RAFAEL BUELNA INTERNATIONAL, MX","FM-15","99999","V020","310,1,N,0057,1","22000,1,9,N","022531,1,9,9","+0280,2","+0050,1","99999,9",,,,,,"00,99,1,99,9,99,9,99999,9,99,9,99,9","10169,1,99999,9",,,"MET060METAR MMMZ 181943Z 31011KT 14SM SKC 28/05 A3003 RMK ISOL CI=",
"76459399999","2025-01-18T20:41:00","4","23.161356","-106.266072","11.58","GENERAL RAFAEL BUELNA INTERNATIONAL, MX","FM-15","99999","V020","300,1,N,0077,1","22000,1,9,N","022531,1,9,9","+0250,1","+0120,1","10159,1",,,,,,"00,99,1,99,9,99,9,99999,9,99,9,99,9","10159,1,99999,9","7,1,030,1,+999,9",,"MET080METAR MMMZ 182041Z 30015KT 14SM SKC 25/12 A3000 RMK SLP159 57030 957 DSNT CI NW=",
"76459399999","2025-01-18T21:47:00","4","23.161356","-106.266072","11.58","GENERAL RAFAEL BUELNA INTERNATIONAL, MX","FM-15","99999","V020","300,1,N,0062,1","22000,1,9,N","022531,1,9,9","+0240,1","+0130,1","99999,9",,,,,,"00,99,1,99,9,99,9,99999,9,99,9,99,9","10152,1,99999,9",,,"MET060METAR MMMZ 182147Z 30012KT 14SM SKC 24/13 A2998 RMK ISOL CI=",
"76459399999","2025-01-18T22:42:00","4","23.161356","-106.266072","11.58","GENERAL RAFAEL BUELNA INTERNATIONAL, MX","FM-15","99999","V020","300,1,N,0062,1","22000,1,9,N","022531,1,9,9","+0240,1","+0110,1","99999,9",,,,,,"00,99,1,99,9,99,9,99999,9,99,9,99,9","10152,1,99999,9",,,"MET048METAR MMMZ 182242Z 30012KT 14SM SKC 24/11 A2998=",
"76459399999","2025-01-18T23:41:00","4","23.161356","-106.266072","11.58","GENERAL RAFAEL BUELNA INTERNATIONAL, MX","FM-15","99999","V020","310,1,N,0036,1","99999,9,9,N","022531,1,9,9","+0230,1","+0110,1","10150,1",,"02,1,+07315,1,00,1",,,"9,AGL   ,+99999,+99999","99,99,9,02,1,99,9,07315,1,99,9,99,9","10152,1,99999,9","7,1,007,1,+999,9",,"MET078METAR MMMZ 182341Z 31007KT 14SM FEW240 23/11 A2998 RMK SLP150 57007 955 8/002=",
"76459399999","2025-01-19T00:45:00","4","23.161356","-106.266072","11.58","GENERAL RAFAEL BUELNA INTERNATIONAL, MX","FM-15","99999","V020","310,1,N,0036,1","99999,9,9,N","022531,1,9,9","+0210,1","+0110,1","99999,9",,"02,1,+03353,1,03,1","02,1,+07315,1,00,1",,"9,AGL   ,+99999,+99999","99,99,9,02,1,99,9,03353,1,99,9,99,9","10159,1,99999,9",,,"MET068METAR MMMZ 190045Z 31007KT 14SM FEW110 FEW240 21/11 A3000 RMK 8/031=",
"76459399999","2025-01-19T01:43:00","4","23.161356","-106.266072","11.58","GENERAL RAFAEL BUELNA INTERNATIONAL, MX","FM-15","99999","V020","330,1,N,0026,1","99999,9,9,N","019312,1,9,9","+0200,1","+0110,1","99999,9",,"02,1,+07315,1,00,1",,,"9,AGL   ,+99999,+99999","99,99,9,02,1,99,9,07315,1,99,9,99,9","10163,1,99999,9",,,"MET069METAR MMMZ 190143Z 33005KT 12SM FEW240 20/11 A3001 RMK 8/002 ISOL AC=",
"76459399999","2025-01-19T02:40:00","4","23.161356","-106.266072","11.58","GENERAL RAFAEL BUELNA INTERNATIONAL, MX","FM-15","99999","V020","350,1,N,0021,1","99999,9,9,N","016093,1,9,9","+0190,1","+0100,1","10166,1",,"02,1,+07315,1,00,1",,,"9,AGL   ,+99999,+99999","99,99,9,02,1,99,9,07315,1,99,9,99,9","10166,1,99999,9","2,1,007,1,+999,9",,"MET078METAR MMMZ 190240Z 35004KT 10SM FEW240 19/10 A3002 RMK SLP166 52007 957 8/002=",
"76459399999","2025-01-19T03:40:00","4","23.161356","-106.266072","11.58","GENERAL RAFAEL BUELNA INTERNATIONAL, MX","FM-15","99999","V020","999,9,C,0000,1","99999,9,9,N","016093,1,9,9","+0160,1","+0090,1","99999,9",,"02,1,+07315,1,00,1",,,"9,AGL   ,+99999,+99999","99,99,9,02,1,99,9,07315,1,99,9,99,9","10166,1,99999,9",,,"MET061METAR MMMZ 190340Z 00000KT 10SM FEW240 16/09 A3002 RMK 8/002=",
"76459399999","2025-01-19T04:41:00","4","23.161356","-106.266072","11.58","GENERAL RAFAEL BUELNA INTERNATIONAL, MX","FM-15","99999","V020","999,9,C,0000,1","99999,9,9,N","016093,1,9,9","+0160,1","+0090,1","99999,9",,"02,1,+07315,1,00,1",,,"9,AGL   ,+99999,+99999","99,99,9,02,1,99,9,07315,1,99,9,99,9","10169,1,99999,9",,,"MET061METAR MMMZ 190441Z 00000KT 10SM FEW240 16/09 A3003 RMK 8/002=",
"76459399999","2025-01-19T05:43:00","4","23.161356","-106.266072","11.58","GENERAL RAFAEL BUELNA INTERNATIONAL, MX","FM-15","99999","V020","999,9,C,0000,1","22000,1,9,N","016093,1,9,9","+0140,1","+0090,1","10164,1",,,,,,"00,99,1,99,9,99,9,99999,9,99,9,99,9","10169,1,99999,9","2,1,003,1,+999,9",,"MET077METAR MMMZ 190543Z 00000KT 10SM SKC 14/09 A3003 RMK SLP164 52003 959 ISOL AC=",
"76459399999","2025-01-19T06:47:00","4","23.161356","-106.266072","11.58","GENERAL RAFAEL BUELNA INTERNATIONAL, MX","FM-15","99999","V020","999,9,C,0000,1","22000,1,9,N","016093,1,9,9","+0120,1","+0080,1","99999,9",,,,,,"00,99,1,99,9,99,9,99999,9,99,9,99,9","10166,1,99999,9",,,"MET068METAR MMMZ 190647Z 00000KT 10SM SKC 12/08 A3002 RMK ISOL AC ISOL CI=",
"76459399999","2025-01-19T07:42:00","4","23.161356","-106.266072","11.58","GENERAL RAFAEL BUELNA INTERNATIONAL, MX","FM-15","99999","V020","999,9,C,0000,1","99999,9,9,N","016093,1,9,9","+0120,1","+0100,1","99999,9",,"02,1,+03353,1,03,1",,,"9,AGL   ,+99999,+99999","99,99,9,02,1,99,9,03353,1,99,9,99,9","10166,1,99999,9",,,"MET061METAR MMMZ 190742Z 00000KT 10SM FEW110 12/10 A3002 RMK 8/050=",
"76459399999","2025-01-19T08:42:00","4","23.161356","-106.266072","11.58","GENERAL RAFAEL BUELNA INTERNATIONAL, MX","FM-15","99999","V020","999,9,C,0000,1","99999,9,9,N","016093,1,9,9","+0120,1","+0100,1","10149,1",,"02,1,+03353,1,03,1",,,"9,AGL   ,+99999,+99999","99,99,9,02,1,99,9,03353,1,99,9,99,9","10163,1,99999,9","7,1,007,1,+999,9",,"MET086METAR MMMZ 190842Z 00000KT 10SM FEW110 12/10 A3001 RMK SLP149 57007 976 8/030 ISOL CI=",
"76459399999","2025-01-19T09:54:00","4","23.161356","-106.266072","11.58","GENERAL RAFAEL BUELNA INTERNATIONAL, MX","FM-15","99999","V020","999,9,C,0000,1","99999,9,9,N","016093,1,9,9","+0110,1","+0090,1","99999,9",,"02,1,+03353,1,03,1",,,"9,AGL   ,+99999,+99999","99,99,9,02,1,99,9,03353,1,99,9,99,9","10159,1,99999,9",,,"MET061METAR MMMZ 190954Z 00000KT 10SM FEW110 11/09 A3000 RMK 8/030=",
"76459399999","2025-01-19T10:40:00","4","23.161356","-106.266072","11.58","GENERAL RAFAEL BUELNA INTERNATIONAL, MX","FM-15","99999","V020","060,1,N,0015,1","99999,9,9,N","016093,1,9,9","+0110,1","+0090,1","99999,9",,"02,1,+03353,1,03,1",,,"9,AGL   ,+99999,+99999","99,99,9,02,1,99,9,03353,1,99,9,99,9","10156,1,99999,9",,,"MET061METAR MMMZ 191040Z 06003KT 10SM FEW110 11/09 A2999 RMK 8/030=",
"76459399999","2025-01-19T11:43:00","4","23.161356","-106.266072","11.58","GENERAL RAFAEL BUELNA INTERNATIONAL, MX","FM-15","99999","V020","999,9,C,0000,1","99999,9,9,N","016093,1,9,9","+0100,1","+0090,1","10152,1",,"04,1,+07315,1,00,1",,,"9,AGL   ,+99999,+99999","99,99,9,04,1,99,9,07315,1,99,9,99,9","10156,1,99999,9","7,1,007,1,+999,9",,"MET078METAR MMMZ 191143Z 00000KT 10SM SCT240 10/09 A2999 RMK SLP152 57007 962 8/002=",
"76459399999","2025-01-19T12:41:00","4","23.161356","-106.266072","11.58","GENERAL RAFAEL BUELNA INTERNATIONAL, MX","FM-15","99999","V020","999,9,C,0000,1","07315,1,C,N","016093,1,9,9","+0100,1","+0090,1","99999,9",,"07,1,+07315,1,02,1",,,"9,AGL   ,+99999,+99999","99,99,9,07,1,99,9,07315,1,99,9,99,9","10163,1,99999,9",,,"MET061METAR MMMZ 191241Z 00000KT 10SM BKN240 10/09 A3001 RMK 8/008=",
"76459399999","2025-01-19T13:44:00","4","23.161356","-106.266072","11.58","GENERAL RAFAEL BUELNA INTERNATIONAL, MX","FM-15","99999","V020","999,9,C,0000,1","07315,1,C,N","012875,1,9,9","+0100,1","+0080,1","99999,9",,"07,1,+07315,1,02,1",,,"9,AGL   ,+99999,+99999","99,99,9,07,1,99,9,07315,1,99,9,99,9","10166,1,99999,9",,,"MET060METAR MMMZ 191344Z 00000KT 8SM BKN240 10/08 A3002 RMK 8/008=",
"76459399999","2025-01-19T14:46:00","4","23.161356","-106.266072","11.58","GENERAL RAFAEL BUELNA INTERNATIONAL, MX","FM-15","99999","V020","999,9,C,0000,1","07315,1,C,N","022531,1,9,9","+0120,1","+0100,1","10172,1",,"07,1,+07315,1,02,1",,,"9,AGL   ,+99999,+99999","99,99,9,07,1,99,9,07315,1,99,9,99,9","10173,1,99999,9","2,1,017,1,+999,9",,"MET086METAR MMMZ 191446Z 00000KT 14SM BKN240 12/10 A3004 RMK SLP172 52017 957 8/008 ISOL AC=",
"76459399999","2025-01-19T15:42:00","4","23.161356","-106.266072","11.58","GENERAL RAFAEL BUELNA INTERNATIONAL, MX","FM-15","99999","V020","999,9,C,0000,1","07315,1,C,N","022531,1,9,9","+0170,1","+0130,1","99999,9",,"07,1,+07315,1,02,1",,,"9,AGL   ,+99999,+99999","99,99,9,07,1,99,9,07315,1,99,9,99,9","10176,1,99999,9",,,"MET069METAR MMMZ 191542Z 00000KT 14SM BKN240 17/13 A3005 RMK 8/008 ISOL AC=",
"76459399999","2025-01-19T16:41:00","4","23.161356","-106.266072","11.58","GENERAL RAFAEL BUELNA INTERNATIONAL, MX","FM-15","99999","V020","999,9,C,0000,1","07315,1,C,N","024140,1,9,9","+0210,1","+0120,1","99999,9",,"07,1,+07315,1,02,1",,,"9,AGL   ,+99999,+99999","99,99,9,07,1,99,9,07315,1,99,9,99,9","10179,1,99999,9",,,"MET069METAR MMMZ 191641Z 00000KT 15SM BKN240 21/12 A3006 RMK 8/008 ISOL AC=",
"76459399999","2025-01-19T17:43:00","4","23.161356","-106.266072","11.58","GENERAL RAFAEL BUELNA INTERNATIONAL, MX","FM-15","99999","V020","220,1,N,0021,1","07315,1,C,N","024140,1,9,9","+0220,1","+0120,1","10164,1",,"07,1,+07315,1,02,1",,,"9,AGL   ,+99999,+99999","99,99,9,07,1,99,9,07315,1,99,9,99,9","10169,1,99999,9","7,1,003,1,+999,9",,"MET078METAR MMMZ 191743Z 22004KT 15SM BKN240 22/12 A3003 RMK SLP164 57003 970 8/008=",
"76459399999","2025-01-19T18:41:00","4","23.161356","-106.266072","11.58","GENERAL RAFAEL BUELNA INTERNATIONAL, MX","FM-15","99999","V020","260,1,N,0031,1","07315,1,C,N","022531,1,9,9","+0250,1","+0120,1","99999,9",,"07,1,+07315,1,02,1",,,"9,AGL   ,+99999,+99999","99,99,9,07,1,99,9,07315,1,99,9,99,9","10163,1,99999,9",,,"MET061METAR MMMZ 191841Z 26006KT 14SM BKN240 25/12 A3001 RMK 8/008=",
"76459399999","2025-01-19T19:42:00","4","23.161356","-106.266072","11.58","GENERAL RAFAEL BUELNA INTERNATIONAL, MX","FM-15","99999","V020","290,1,N,0031,1","07315,1,C,N","024140,1,9,9","+0240,1","+0110,1","99999,9",,"07,1,+07315,1,02,1",,,"9,AGL   ,+99999,+99999","99,99,9,07,1,99,9,07315,1,99,9,99,9","10149,1,99999,9",,,"MET061METAR MMMZ 191942Z 29006KT 15SM BKN240 24/11 A2997 RMK 8/008=",
"76459399999","2025-01-19T20:42:00","4","23.161356","-106.266072","11.58","GENERAL RAFAEL BUELNA INTERNATIONAL, MX","FM-15","99999","V020","300,1,N,0051,1","07620,1,C,N","024140,1,9,9","+0240,1","+0110,1","10138,1",,"07,1,+07620,1,00,1",,,"9,AGL   ,+99999,+99999","99,99,9,07,1,99,9,07620,1,99,9,99,9","10139,1,99999,9","7,1,030,1,+999,9",,"MET078METAR MMMZ 192042Z 30010KT 15SM BKN250 24/11 A2994 RMK SLP138 57030 970 8/002=",
"76459399999","2025-01-19T21:40:00","4","23.161356","-106.266072","11.58","GENERAL RAFAEL BUELNA INTERNATIONAL, MX","FM-15","99999","V020","290,1,N,0051,1","07315,1,C,N","024140,1,9,9","+0250,1","+0110,1","99999,9",,"07,1,+07315,1,00,1",,,"9,AGL   ,+99999,+99999","99,99,9,07,1,99,9,07315,1,99,9,99,9","10132,1,99999,9",,,"MET069METAR MMMZ 192140Z 29010KT 15SM BKN240 25/11 A2992 RMK 8/002 ISOL AC=",
"76459399999","2025-01-19T22:41:00","4","23.161356","-106.266072","11.58","GENERAL RAFAEL BUELNA INTERNATIONAL, MX","FM-15","99999","V020","280,1,N,0051,1","07315,1,9,N","022531,1,9,9","+0230,1","+0130,1","99999,9",,"02,1,+02743,1,05,1","08,1,+07315,1,02,1",,"9,AGL   ,+99999,+99999","99,99,9,02,1,99,9,02743,1,99,9,99,9","10129,1,99999,9",,,"MET075METAR MMMZ 192241Z 28010KT 14SM FEW090 OVC240 23/13 A2991 RMK 8/027 BINOVC=",
"76459399999","2025-01-19T23:47:00","4","23.161356","-106.266072","11.58","GENERAL RAFAEL BUELNA INTERNATIONAL, MX","FM-15","99999","V020","320,1,N,0036,1","07315,1,9,N","024140,1,9,9","+0220,1","+0100,1","10125,1",,"02,1,+02743,1,05,1","07,1,+07315,1,02,1",,"9,AGL   ,+99999,+99999","99,99,9,02,1,99,9,02743,1,99,9,99,9","10129,1,99999,9","7,1,010,1,+999,9",,"MET085METAR MMMZ 192347Z 32007KT 15SM FEW090 BKN240 22/10 A2991 RMK SLP125 57010 965 8/028=",
"76459399999","2025-01-20T00:41:00","4","23.161356","-106.266072","11.58","GENERAL RAFAEL BUELNA INTERNATIONAL, MX","FM-15","99999","V020","320,1,N,0026,1","07315,1,9,N","020921,1,9,9","+0200,1","+0100,1","99999,9",,"04,1,+02743,1,05,1","08,1,+07315,1,02,1",,"9,AGL   ,+99999,+99999","99,99,9,04,1,99,9,02743,1,99,9,99,9","10132,1,99999,9",,,"MET068METAR MMMZ 200041Z 32005KT 13SM SCT090 OVC240 20/10 A2992 RMK 8/027=",
"76459399999","2025-01-20T01:41:00","4","23.161356","-106.266072","11.58","GENERAL RAFAEL BUELNA INTERNATIONAL, MX","FM-15","99999","V020","310,1,N,0010,1","99999,9,9,N","016093,1,9,9","+0170,1","+0110,1","99999,9",,"04,1,+07315,1,00,1",,,"9,AGL   ,+99999,+99999","99,99,9,04,1,99,9,07315,1,99,9,99,9","10135,1,99999,9",,,"MET061METAR MMMZ 200141Z 31002KT 10SM SCT240 17/11 A2993 RMK 8/002=",
"76459399999","2025-01-20T02:44:00","4","23.161356","-106.266072","11.58","GENERAL RAFAEL BUELNA INTERNATIONAL, MX","FM-15","99999","V020","300,1,N,0026,1","22000,1,9,N","016093,1,9,9","+0150,1","+0120,1","10138,1",,,,,,"00,99,1,99,9,99,9,99999,9,99,9,99,9","10139,1,99999,9","2,1,010,1,+999,9",,"MET069METAR MMMZ 200244Z 30005KT 10SM SKC 15/12 A2994 RMK SLP138 52010 977=",
"76459399999","2025-01-20T03:40:00","4","23.161356","-106.266072","11.58","GENERAL RAFAEL BUELNA INTERNATIONAL, MX","FM-15","99999","V020","999,9,C,0000,1","22000,1,9,N","016093,1,9,9","+0150,1","+0120,1","99999,9",,,,,,"00,99,1,99,9,99,9,99999,9,99,9,99,9","10142,1,99999,9",,,"MET048METAR MMMZ 200340Z 00000KT 10SM SKC 15/12 A2995=",
"76459399999","2025-01-20T04:45:00","4","23.161356","-106.266072","11.58","GENERAL RAFAEL BUELNA INTERNATIONAL, MX","FM-15","99999","V020","999,9,C,0000,1","99999,9,9,N","016093,1,9,9","+0140,1","+0120,1","99999,9",,"04,1,+07315,1,00,1",,,"9,AGL   ,+99999,+99999","99,99,9,04,1,99,9,07315,1,99,9,99,9","10146,1,99999,9",,,"MET061METAR MMMZ 200445Z 00000KT 10SM SCT240 14/12 A2996 RMK 8/002=",
"76459399999","2025-01-20T05:41:00","4","23.161356","-106.266072","11.58","GENERAL RAFAEL BUELNA INTERNATIONAL, MX","FM-15","99999","V020","999,9,C,0000,1","99999,9,9,N","016093,1,9,9","+0120,1","+0100,1","10145,1",,"04,1,+07315,1,00,1",,,"9,AGL   ,+99999,+99999","99,99,9,04,1,99,9,07315,1,99,9,99,9","10149,1,99999,9","2,1,010,1,+999,9",,"MET078METAR MMMZ 200541Z 00000KT 10SM SCT240 12/10 A2997 RMK SLP145 52010 969 8/002=",
"76459399999","2025-01-20T06:41:00","4","23.161356","-106.266072","11.58","GENERAL RAFAEL BUELNA INTERNATIONAL, MX","FM-15","99999","V020","999,9,C,0000,1","99999,9,9,N","016093,1,9,9","+0120,1","+0100,1","99999,9",,"02,1,+07315,1,00,1",,,"9,AGL   ,+99999,+99999","99,99,9,02,1,99,9,07315,1,99,9,99,9","10149,1,99999,9",,,"MET061METAR MMMZ 200641Z 00000KT 10SM FEW240 12/10 A2997 RMK 8/002=",
"76459399999","2025-01-20T07:50:00","4","23.161356","-106.266072","11.58","GENERAL RAFAEL BUELNA INTERNATIONAL, MX","FM-15","99999","V020","999,9,C,0000,1","99999,9,9,N","016093,1,9,9","+0110,1","+0090,1","99999,9",,"02,1,+07315,1,00,1",,,"9,AGL   ,+99999,+99999","99,99,9,02,1,99,9,07315,1,99,9,99,9","10149,1,99999,9",,,"MET061METAR MMMZ 200750Z 00000KT 10SM FEW240 11/09 A2997 RMK 8/002=",
"76459399999","2025-01-20T08:45:00","4","23.161356","-106.266072","11.58","GENERAL RAFAEL BUELNA INTERNATIONAL, MX","FM-15","99999","V020","999,9,C,0000,1","99999,9,9,N","016093,1,9,9","+0110,1","+0100,1","10141,1",,"02,1,+07315,1,00,1",,,"9,AGL   ,+99999,+99999","99,99,9,02,1,99,9,07315,1,99,9,99,9","10142,1,99999,9","7,1,007,1,+999,9",,"MET078METAR MMMZ 200845Z 00000KT 10SM FEW240 11/10 A2995 RMK SLP141 57007 957 8/002=",
"76459399999","2025-01-20T09:42:00","4","23.161356","-106.266072","11.58","GENERAL RAFAEL BUELNA INTERNATIONAL, MX","FM-15","99999","V020","999,9,C,0000,1","99999,9,9,N","016093,1,9,9","+0100,1","+0100,1","99999,9",,"02,1,+07315,1,00,1",,,"9,AGL   ,+99999,+99999","99,99,9,02,1,99,9,07315,1,99,9,99,9","10139,1,99999,9",,,"MET061METAR MMMZ 200942Z 00000KT 10SM FEW240 10/10 A2994 RMK 8/002=",
"76459399999","2025-01-20T10:46:00","4","23.161356","-106.266072","11.58","GENERAL RAFAEL BUELNA INTERNATIONAL, MX","FM-15","99999","V020","999,9,C,0000,1","07315,1,C,N","016093,1,9,9","+0100,1","+0090,1","99999,9",,"08,1,+07315,1,02,1",,,"9,AGL   ,+99999,+99999","99,99,9,08,1,99,9,07315,1,99,9,99,9","10139,1,99999,9",,,"MET061METAR MMMZ 201046Z 00000KT 10SM OVC240 10/09 A2994 RMK 8/007=",
"76459399999","2025-01-20T11:50:00","4","23.161356","-106.266072","11.58","GENERAL RAFAEL BUELNA INTERNATIONAL, MX","FM-15","99999","V020","999,9,C,0000,1","07315,1,C,N","016093,1,9,9","+0100,1","+0090,1","10135,1",,"08,1,+07315,1,02,1",,,"9,AGL   ,+99999,+99999","99,99,9,08,1,99,9,07315,1,99,9,99,9","10139,1,99999,9","7,1,003,1,+999,9",,"MET078METAR MMMZ 201150Z 00000KT 10SM OVC240 10/09 A2994 RMK SLP135 57003 967 8/007=",
"76459399999","2025-01-20T12:47:00","4","23.161356","-106.266072","11.58","GENERAL RAFAEL BUELNA INTERNATIONAL, MX","FM-15","99999","V020","999,9,C,0000,1","07315,1,C,N","016093,1,9,9","+0100,1","+0090,1","99999,9",,"08,1,+07315,1,02,1",,,"9,AGL   ,+99999,+99999","99,99,9,08,1,99,9,07315,1,99,9,99,9","10112,1,99999,9",,,"MET061METAR MMMZ 201247Z 00000KT 10SM OVC240 10/09 A2986 RMK 8/007=",
"76459399999","2025-01-20T13:43:00","4","23.161356","-106.266072","11.58","GENERAL RAFAEL BUELNA INTERNATIONAL, MX","FM-15","99999","V020","060,1,N,0010,1","07315,1,9,N","014484,1,9,9","+0100,1","+0090,1","99999,9",,"02,1,+03353,1,03,1","07,1,+07315,1,02,1",,"9,AGL   ,+99999,+99999","99,99,9,02,1,99,9,03353,1,99,9,99,9","10152,1,99999,9",,,"MET071METAR MMMZ 201343Z 06002KT 9SM FEW110 BKN240 10/09 A2998 RMK 8/058 HZY=",
"76459399999","2025-01-20T14:42:00","4","23.161356","-106.266072","11.58","GENERAL RAFAEL BUELNA INTERNATIONAL, MX","FM-15","99999","V020","090,1,N,0015,1","07315,1,9,N","020921,1,9,9","+0120,1","+0100,1","10162,1",,"02,1,+03048,1,03,1","07,1,+07315,1,02,1",,"9,AGL   ,+99999,+99999","99,99,9,02,1,99,9,03048,1,99,9,99,9","10163,1,99999,9","2,1,023,1,+999,9",,"MET085METAR MMMZ 201442Z 09003KT 13SM FEW100 BKN240 12/10 A3001 RMK SLP162 52023 960 8/038=",
"76459399999","2025-01-20T15:44:00","4","23.161356","-106.266072","11.58","GENERAL RAFAEL BUELNA INTERNATIONAL, MX","FM-15","99999","V020","999,9,C,0000,1","07315,1,9,N","019312,1,9,9","+0140,1","+0110,1","99999,9",,"02,1,+02743,1,03,1","07,1,+07315,1,02,1",,"9,AGL   ,+99999,+99999","99,99,9,02,1,99,9,02743,1,99,9,99,9","10169,1,99999,9",,,"MET068METAR MMMZ 201544Z 00000KT 12SM FEW090 BKN240 14/11 A3003 RMK 8/038=",
"76459399999","2025-01-20T16:40:00","4","23.161356","-106.266072","11.58","GENERAL RAFAEL BUELNA INTERNATIONAL, MX","FM-15","99999","V020","999,9,C,0000,1","99999,9,9,N","022531,1,9,9","+0180,1","+0140,1","99999,9",,"04,1,+07620,1,00,1",,,"9,AGL   ,+99999,+99999","99,99,9,04,1,99,9,07620,1,99,9,99,9","10169,1,99999,9",,,"MET061METAR MMMZ 201640Z 00000KT 14SM SCT250 18/14 A3003 RMK 8/002=",
"76459399999","2025-01-20T18:42:00","4","23.161356","-106.266072","11.58","GENERAL RAFAEL BUELNA INTERNATIONAL, MX","FM-15","99999","V020","170,1,N,0031,1","07620,1,C,N","022531,1,9,9","+0230,1","+0160,1","99999,9",,"07,1,+07620,1,00,1",,,"9,AGL   ,+99999,+99999","99,99,9,07,1,99,9,07620,1,99,9,99,9","10169,1,99999,9",,,"MET061METAR MMMZ 201842Z 17006KT 14SM BKN250 23/16 A3003 RMK 8/002=",
"76459399999","2025-01-20T19:41:00","4","23.161356","-106.266072","11.58","GENERAL RAFAEL BUELNA INTERNATIONAL, MX","FM-15","99999","V020","240,1,N,0041,1","99999,9,9,N","024140,1,9,9","+0230,1","+0150,1","99999,9",,"04,1,+07620,1,00,1",,,"9,AGL   ,+99999,+99999","99,99,9,04,1,99,9,07620,1,99,9,99,9","10159,1,99999,9",,,"MET061METAR MMMZ 201941Z 24008KT 15SM SCT250 23/15 A3000 RMK 8/002=",
"76459399999","2025-01-20T20:41:00","4","23.161356","-106.266072","11.58","GENERAL RAFAEL BUELNA INTERNATIONAL, MX","FM-15","99999","V020","230,1,N,0031,1","99999,9,9,N","024140,1,9,9","+0230,1","+0150,1","10152,1",,"04,1,+07620,1,00,1",,,"9,AGL   ,+99999,+99999","99,99,9,04,1,99,9,07620,1,99,9,99,9","10152,1,99999,9","7,1,017,1,+999,9",,"MET078METAR MMMZ 202041Z 23006KT 15SM SCT250 23/15 A2998 RMK SLP152 57017 913 8/002=",
"76459399999","2025-01-20T21:49:00","4","23.161356","-106.266072","11.58","GENERAL RAFAEL BUELNA INTERNATIONAL, MX","FM-15","99999","V020","250,1,N,0026,1","99999,9,9,N","022531,1,9,9","+0230,1","+0150,1","99999,9",,"04,1,+07620,1,00,1",,,"9,AGL   ,+99999,+99999","99,99,9,04,1,99,9,07620,1,99,9,99,9","10149,1,99999,9",,,"MET061METAR MMMZ 202149Z 25005KT 14SM SCT250 23/15 A2997 RMK 8/002=",
"76459399999","2025-01-20T22:46:00","4","23.161356","-106.266072","11.58","GENERAL RAFAEL BUELNA INTERNATIONAL, MX","FM-15","99999","V020","999,9,C,0000,1","99999,9,9,N","022531,1,9,9","+0220,1","+0150,1","99999,9",,"04,1,+07620,1,00,1",,,"9,AGL   ,+99999,+99999","99,99,9,04,1,99,9,07620,1,99,9,99,9","10149,1,99999,9",,,"MET061METAR MMMZ 202246Z 00000KT 14SM SCT250 22/15 A2997 RMK 8/002=",
"76459399999","2025-01-20T23:41:00","4","23.161356","-106.266072","11.58","GENERAL RAFAEL BUELNA INTERNATIONAL, MX","FM-15","99999","V020","270,1,N,0015,1","99999,9,9,N","022531,1,9,9","+0210,1","+0150,1","10145,1",,"04,1,+07620,1,00,1",,,"9,AGL   ,+99999,+99999","99,99,9,04,1,99,9,07620,1,99,9,99,9","10152,1,99999,9","4,1,000,1,+999,9",,"MET078METAR MMMZ 202341Z 27003KT 14SM SCT250 21/15 A2998 RMK SLP145 54000 920 8/002=",
"76459399999","2025-01-21T00:44:00","4","23.161356","-106.266072","11.58","GENERAL RAFAEL BUELNA INTERNATIONAL, MX","FM-15","99999","V020","999,9,C,0000,1","99999,9,9,N","022531,1,9,9","+0190,1","+0160,1","99999,9",,"02,1,+03353,1,03,1","02,1,+07620,1,00,1",,"9,AGL   ,+99999,+99999","99,99,9,02,1,99,9,03353,1,99,9,99,9","10159,1,99999,9",,,"MET068METAR MMMZ 210044Z 00000KT 14SM FEW110 FEW250 19/16 A3000 RMK 8/032=",
"76459399999","2025-01-21T01:43:00","4","23.161356","-106.266072","11.58","GENERAL RAFAEL BUELNA INTERNATIONAL, MX","FM-15","99999","V020","999,9,C,0000,1","99999,9,9,N","019312,1,9,9","+0160,1","+0150,1","99999,9",,"02,1,+07315,1,00,1",,,"9,AGL   ,+99999,+99999","99,99,9,02,1,99,9,07315,1,99,9,99,9","10163,1,99999,9",,,"MET069METAR MMMZ 210143Z 00000KT 12SM FEW240 16/15 A3001 RMK 8/002 ISOL AC=",
"76459399999","2025-01-21T02:41:00","4","23.161356","-106.266072","11.58","GENERAL RAFAEL BUELNA INTERNATIONAL, MX","FM-15","99999","V020","999,9,C,0000,1","99999,9,9,N","016093,1,9,9","+0150,1","+0130,1","10166,1",,"02,1,+07315,1,00,1",,,"9,AGL   ,+99999,+99999","99,99,9,02,1,99,9,07315,1,99,9,99,9","10166,1,99999,9","2,1,013,1,+999,9",,"MET078METAR MMMZ 210241Z 00000KT 10SM FEW240 15/13 A3002 RMK SLP166 52013 927 8/002=",
"76459399999","2025-01-21T03:42:00","4","23.161356","-106.266072","11.58","GENERAL RAFAEL BUELNA INTERNATIONAL, MX","FM-15","99999","V020","999,9,C,0000,1","99999,9,9,N","016093,1,9,9","+0140,1","+0140,1","99999,9",,"02,1,+07315,1,00,1",,,"9,AGL   ,+99999,+99999","99,99,9,02,1,99,9,07315,1,99,9,99,9","10173,1,99999,9",,,"MET068METAR MMMZ 210342Z 00000KT 10SM FEW240 14/14 A3004 RMK 8/002 MIFG E=",
"76459399999","2025-01-21T04:42:00","4","23.161356","-106.266072","11.58","GENERAL RAFAEL BUELNA INTERNATIONAL, MX","FM-15","99999","V020","999,9,C,0000,1","99999,9,9,N","011265,1,9,9","+0130,1","+0120,1","99999,9",,"02,1,+07315,1,00,1",,,"9,AGL   ,+99999,+99999","99,99,9,02,1,99,9,07315,1,99,9,99,9","10176,1,99999,9",,,"MET078METAR MMMZ 210442Z 00000KT 7SM FEW240 13/12 A3005 RMK 8/002 LER VIS MIFG NE-E=",
"76459399999","2025-01-21T05:46:00","4","23.161356","-106.266072","11.58","GENERAL RAFAEL BUELNA INTERNATIONAL, MX","FM-15","99999","V020","999,9,C,0000,1","99999,9,9,N","011265,1,9,9","+0120,1","+0120,1","10174,1",,"02,1,+07315,1,00,1",,,"9,AGL   ,+99999,+99999","99,99,9,02,1,99,9,07315,1,99,9,99,9","10179,1,99999,9","2,1,013,1,+999,9",,"MET077METAR MMMZ 210546Z 00000KT 7SM FEW240 12/12 A3006 RMK SLP174 52013 929 8/002=",
"76459399999","2025-01-21T06:40:00","4","23.161356","-106.266072","11.58","GENERAL RAFAEL BUELNA INTERNATIONAL, MX","FM-15","99999","V020","999,9,C,0000,1","22000,1,9,N","011265,1,9,9","+0120,1","+0110,1","99999,9",,,,,,"00,99,1,99,9,99,9,99999,9,99,9,99,9","10179,1,99999,9",,,"MET047METAR MMMZ 210640Z 00000KT 7SM SKC 12/11 A3006=",
"76459399999","2025-01-21T07:44:00","4","23.161356","-106.266072","11.58","GENERAL RAFAEL BUELNA INTERNATIONAL, MX","FM-15","99999","V020","999,9,C,0000,1","22000,1,9,N","011265,1,9,9","+0110,1","+0100,1","99999,9",,,,,,"00,99,1,99,9,99,9,99999,9,99,9,99,9","10179,1,99999,9",,,"MET047METAR MMMZ 210744Z 00000KT 7SM SKC 11/10 A3006=",
"76459399999","2025-01-21T08:51:00","4","23.161356","-106.266072","11.58","GENERAL RAFAEL BUELNA INTERNATIONAL, MX","FM-15","99999","V020","999,9,C,0000,1","22000,1,9,N","011265,1,9,9","+0110,1","+0100,1","10175,1",,,,,,"00,99,1,99,9,99,9,99999,9,99,9,99,9","10176,1,99999,9","7,1,003,1,+999,9",,"MET068METAR MMMZ 210851Z 00000KT 7SM SKC 11/10 A3005 RMK SLP175 57003 934=",
"76459399999","2025-01-21T09:42:00","4","23.161356","-106.266072","11.58","GENERAL RAFAEL BUELNA INTERNATIONAL, MX","FM-15","99999","V020","999,9,C,0000,1","22000,1,9,N","011265,1,9,9","+0110,1","+0100,1","99999,9",,,,,,"00,99,1,99,9,99,9,99999,9,99,9,99,9","10176,1,99999,9",,,"MET047METAR MMMZ 210942Z 00000KT 7SM SKC 11/10 A3005=",
"76459399999","2025-01-21T10:44:00","4","23.161356","-106.266072","11.58","GENERAL RAFAEL BUELNA INTERNATIONAL, MX","FM-15","99999","V020","999,9,C,0000,1","99999,9,9,N","016093,1,9,9","+0110,1","+0100,1","99999,9",,"02,1,+07315,1,00,1",,,"9,AGL   ,+99999,+99999","99,99,9,02,1,99,9,07315,1,99,9,99,9","10176,1,99999,9",,,"MET065METAR COR MMMZ 211044Z 00000KT 10SM FEW240 11/10 A3005 RMK 8/002=",
"76459399999","2025-01-21T11:40:00","4","23.161356","-106.266072","11.58","GENERAL RAFAEL BUELNA INTERNATIONAL, MX","FM-15","99999","V020","030,1,N,0026,1","99999,9,9,N","016093,1,9,9","+0100,1","+0100,1","10166,1",,"02,1,+07315,1,00,1",,,"9,AGL   ,+99999,+99999","99,99,9,02,1,99,9,07315,1,99,9,99,9","10169,1,99999,9","7,1,007,1,+999,9",,"MET078METAR MMMZ 211140Z 03005KT 10SM FEW240 10/10 A3003 RMK SLP166 57007 931 8/002=",
"76459399999","2025-01-21T12:42:00","4","23.161356","-106.266072","11.58","GENERAL RAFAEL BUELNA INTERNATIONAL, MX","FM-15","99999","V020","050,1,N,0021,1","99999,9,9,N","016093,1,9,9","+0110,1","+0100,1","99999,9",,"04,1,+07315,1,00,1",,,"9,AGL   ,+99999,+99999","99,99,9,04,1,99,9,07315,1,99,9,99,9","10173,1,99999,9",,,"MET061METAR MMMZ 211242Z 05004KT 10SM SCT240 11/10 A3004 RMK 8/002=",
"76459399999","2025-01-21T13:48:00","4","23.161356","-106.266072","11.58","GENERAL RAFAEL BUELNA INTERNATIONAL, MX","FM-15","99999","V020","999,9,C,0000,1","99999,9,9,N","016093,1,9,9","+0100,1","+0090,1","99999,9",,"02,1,+03353,1,03,1",,,"9,AGL   ,+99999,+99999","99,99,9,02,1,99,9,03353,1,99,9,99,9","10183,1,99999,9",,,"MET069METAR MMMZ 211348Z 00000KT 10SM FEW110 10/09 A3007 RMK 8/050 ISOL CI=",
"76459399999","2025-01-21T14:43:00","4","23.161356","-106.266072","11.58","GENERAL RAFAEL BUELNA INTERNATIONAL, MX","FM-15","99999","V020","999,9,C,0000,1","99999,9,9,N","022531,1,9,9","+0140,1","+0120,1","10186,1",,"02,1,+07315,1,00,1",,,"9,AGL   ,+99999,+99999","99,99,9,02,1,99,9,07315,1,99,9,99,9","10190,1,99999,9","2,1,020,1,+999,9",,"MET093METAR MMMZ 211443Z 00000KT 14SM FEW240 14/12 A3009 RMK SLP186 52020 924 8/002 FULYR 3RD QUAD=",
"76459399999","2025-01-21T15:41:00","4","23.161356","-106.266072","11.58","GENERAL RAFAEL BUELNA INTERNATIONAL, MX","FM-15","99999","V020","999,9,C,0000,1","99999,9,9,N","022531,1,9,9","+0180,1","+0130,1","99999,9",,"02,1,+07315,1,00,1",,,"9,AGL   ,+99999,+99999","99,99,9,02,1,99,9,07315,1,99,9,99,9","10193,1,99999,9",,,"MET076METAR MMMZ 211541Z 00000KT 14SM FEW240 18/13 A3010 RMK 8/002 FULYR 3RD QUAD=",
"76459399999","2025-01-21T16:42:00","4","23.161356","-106.266072","11.58","GENERAL RAFAEL BUELNA INTERNATIONAL, MX","FM-15","99999","V020","999,9,C,0000,1","99999,9,9,N","022531,1,9,9","+0220,1","+0130,1","99999,9",,"02,1,+07315,1,00,1",,,"9,AGL   ,+99999,+99999","99,99,9,02,1,99,9,07315,1,99,9,99,9","10200,1,99999,9",,,"MET069METAR MMMZ 211642Z 00000KT 14SM FEW240 22/13 A3012 RMK 8/002 FULYR W=",
"76459399999","2025-01-21T17:43:00","4","23.161356","-106.266072","11.58","GENERAL RAFAEL BUELNA INTERNATIONAL, MX","FM-15","99999","V020","999,9,C,0000,1","99999,9,9,N","022531,1,9,9","+0240,1","+0150,1","10186,1",,"02,1,+07315,1,00,1",,,"9,AGL   ,+99999,+99999","99,99,9,02,1,99,9,07315,1,99,9,99,9","10190,1,99999,9","4,1,000,1,+999,9",,"MET078METAR MMMZ 211743Z 00000KT 14SM FEW240 24/15 A3009 RMK SLP186 54000 920 8/002=",
"76459399999","2025-01-21T18:46:00","4","23.161356","-106.266072","11.58","GENERAL RAFAEL BUELNA INTERNATIONAL, MX","FM-15","99999","V020","230,1,N,0021,1","99999,9,9,N","022531,1,9,9","+0250,1","+0150,1","99999,9",,"02,1,+07315,1,00,1",,,"9,AGL   ,+99999,+99999","99,99,9,02,1,99,9,07315,1,99,9,99,9","10183,1,99999,9",,,"MET061METAR MMMZ 211846Z 23004KT 14SM FEW240 25/15 A3007 RMK 8/002=",
"76459399999","2025-01-21T19:45:00","4","23.161356","-106.266072","11.58","GENERAL RAFAEL BUELNA INTERNATIONAL, MX","FM-15","99999","V020","240,1,N,0036,1","99999,9,9,N","022531,1,9,9","+0250,1","+0160,1","99999,9",,"02,1,+07315,1,00,1",,,"9,AGL   ,+99999,+99999","99,99,9,02,1,99,9,07315,1,99,9,99,9","10173,1,99999,9",,,"MET061METAR MMMZ 211945Z 24007KT 14SM FEW240 25/16 A3004 RMK 8/002=",
"76459399999","2025-01-21T20:40:00","4","23.161356","-106.266072","11.58","GENERAL RAFAEL BUELNA INTERNATIONAL, MX","FM-15","99999","V020","260,1,N,0036,1","99999,9,9,N","022531,1,9,9","+0260,1","+0160,1","10179,1",,"02,1,+07315,1,00,1",,,"9,AGL   ,+99999,+99999","99,99,9,02,1,99,9,07315,1,99,9,99,9","10163,1,99999,9","7,1,027,1,+999,9",,"MET078METAR MMMZ 212040Z 26007KT 14SM FEW240 26/16 A3001 RMK SLP179 57027 927 8/002=",
"76459399999","2025-01-21T21:42:00","4","23.161356","-106.266072","11.58","GENERAL RAFAEL BUELNA INTERNATIONAL, MX","FM-15","99999","V020","270,1,N,0021,1","99999,9,9,N","024140,1,9,9","+0250,1","+0160,1","99999,9",,"02,1,+07315,1,02,1",,,"9,AGL   ,+99999,+99999","99,99,9,02,1,99,9,07315,1,99,9,99,9","10152,1,99999,9",,,"MET061METAR MMMZ 212142Z 27004KT 15SM FEW240 25/16 A2998 RMK 8/005=",
"76459399999","2025-01-21T22:40:00","4","23.161356","-106.266072","11.58","GENERAL RAFAEL BUELNA INTERNATIONAL, MX","FM-15","99999","V020","280,1,N,0015,1","99999,9,9,N","024140,1,9,9","+0240,1","+0150,1","99999,9",,"02,1,+07315,1,02,1",,,"9,AGL   ,+99999,+99999","99,99,9,02,1,99,9,07315,1,99,9,99,9","10152,1,99999,9",,,"MET061METAR MMMZ 212240Z 28003KT 15SM FEW240 24/15 A2998 RMK 8/005=",
"76459399999","2025-01-21T23:42:00","4","23.161356","-106.266072","11.58","GENERAL RAFAEL BUELNA INTERNATIONAL, MX","FM-15","99999","V020","300,1,N,0036,1","22000,1,9,N","022531,1,9,9","+0230,1","+0140,1","10144,1",,,,,,"00,99,1,99,9,99,9,99999,9,99,9,99,9","10149,1,99999,9","7,1,013,1,+999,9",,"MET077METAR MMMZ 212342Z 30007KT 14SM SKC 23/14 A2997 RMK SLP144 57013 951 ISOL CI=",
"76459399999","2025-01-22T00:41:00","4","23.161356","-106.266072","11.58","GENERAL RAFAEL BUELNA INTERNATIONAL, MX","FM-15","99999","V020","300,1,N,0026,1","99999,9,9,N","020921,1,9,9","+0200,1","+0130,1","99999,9",,"02,1,+07620,1,00,1",,,"9,AGL   ,+99999,+99999","99,99,9,02,1,99,9,07620,1,99,9,99,9","10156,1,99999,9",,,"MET061METAR MMMZ 220041Z 30005KT 13SM FEW250 20/13 A2999 RMK 8/002=",
"76459399999","2025-01-22T01:42:00","4","23.161356","-106.266072","11.58","GENERAL RAFAEL BUELNA INTERNATIONAL, MX","FM-15","99999","V020","320,1,N,0026,1","99999,9,9,N","019312,1,9,9","+0180,1","+0120,1","99999,9",,"02,1,+07315,1,00,1",,,"9,AGL   ,+99999,+99999","99,99,9,02,1,99,9,07315,1,99,9,99,9","10163,1,99999,9",,,"MET061METAR MMMZ 220142Z 32005KT 12SM FEW240 18/12 A3001 RMK 8/002=",
"76459399999","2025-01-22T02:42:00","4","23.161356","-106.266072","11.58","GENERAL RAFAEL BUELNA INTERNATIONAL, MX","FM-15","99999","V020","999,9,C,0000,1","99999,9,9,N","016093,1,9,9","+0160,1","+0120,1","10165,1",,"02,1,+07315,1,00,1",,,"9,AGL   ,+99999,+99999","99,99,9,02,1,99,9,07315,1,99,9,99,9","10166,1,99999,9","2,1,017,1,+999,9",,"MET078METAR MMMZ 220242Z 00000KT 10SM FEW240 16/12 A3002 RMK SLP165 52017 900 8/002=",
"76459399999","2025-01-22T03:40:00","4","23.161356","-106.266072","11.58","GENERAL RAFAEL BUELNA INTERNATIONAL, MX","FM-15","99999","V020","999,9,C,0000,1","22000,1,9,N","016093,1,9,9","+0160,1","+0120,1","99999,9",,,,,,"00,99,1,99,9,99,9,99999,9,99,9,99,9","10166,1,99999,9",,,"MET060METAR MMMZ 220340Z 00000KT 10SM SKC 16/12 A3002 RMK ISOL CI=",
"76459399999","2025-01-22T04:48:00","4","23.161356","-106.266072","11.58","GENERAL RAFAEL BUELNA INTERNATIONAL, MX","FM-15","99999","V020","999,9,C,0000,1","22000,1,9,N","016093,1,9,9","+0150,1","+0120,1","99999,9",,,,,,"00,99,1,99,9,99,9,99999,9,99,9,99,9","10166,1,99999,9",,,"MET060METAR MMMZ 220448Z 00000KT 10SM SKC 15/12 A3002 RMK ISOL CI=",
"76459399999","2025-01-22T05:44:00","4","23.161356","-106.266072","11.58","GENERAL RAFAEL BUELNA INTERNATIONAL, MX","FM-15","99999","V020","999,9,C,0000,1","22000,1,9,N","016093,1,9,9","+0130,1","+0110,1","10160,1",,,,,,"00,99,1,99,9,99,9,99999,9,99,9,99,9","10166,1,99999,9","4,1,000,1,+999,9",,"MET069METAR MMMZ 220544Z 00000KT 10SM SKC 13/11 A3002 RMK SLP160 54000 964=",
"76459399999","2025-01-22T06:46:00","4","23.161356","-106.266072","11.58","GENERAL RAFAEL BUELNA INTERNATIONAL, MX","FM-15","99999","V020","999,9,C,0000,1","22000,1,9,N","016093,1,9,9","+0120,1","+0110,1","99999,9",,,,,,"00,99,1,99,9,99,9,99999,9,99,9,99,9","10163,1,99999,9",,,"MET048METAR MMMZ 220646Z 00000KT 10SM SKC 12/11 A3001=",
"76459399999","2025-01-22T07:40:00","4","23.161356","-106.266072","11.58","GENERAL RAFAEL BUELNA INTERNATIONAL, MX","FM-15","99999","V020","999,9,C,0000,1","22000,1,9,N","016093,1,9,9","+0120,1","+0110,1","99999,9",,,,,,"00,99,1,99,9,99,9,99999,9,99,9,99,9","10159,1,99999,9",,,"MET048METAR MMMZ 220740Z 00000KT 10SM SKC 12/11 A3000=",
"76459399999","2025-01-22T08:41:00","4","23.161356","-106.266072","11.58","GENERAL RAFAEL BUELNA INTERNATIONAL, MX","FM-15","99999","V020","999,9,C,0000,1","22000,1,9,N","016093,1,9,9","+0110,1","+0100,1","10143,1",,,,,,"00,99,1,99,9,99,9,99999,9,99,9,99,9","10156,1,99999,9","7,1,010,1,+999,9",,"MET069METAR MMMZ 220841Z 00000KT 10SM SKC 11/10 A2999 RMK SLP143 57010 982=",
"76459399999","2025-01-22T09:41:00","4","23.161356","-106.266072","11.58","GENERAL RAFAEL BUELNA INTERNATIONAL, MX","FM-15","99999","V020","999,9,C,0000,1","22000,1,9,N","016093,1,9,9","+0110,1","+0100,1","99999,9",,,,,,"00,99,1,99,9,99,9,99999,9,99,9,99,9","10152,1,99999,9",,,"MET048METAR MMMZ 220941Z 00000KT 10SM SKC 11/10 A2998=",
"76459399999","2025-01-22T10:40:00","4","23.161356","-106.266072","11.58","GENERAL RAFAEL BUELNA INTERNATIONAL, MX","FM-15","99999","V020","999,9,C,0000,1","22000,1,9,N","016093,1,9,9","+0110,1","+0100,1","99999,9",,,,,,"00,99,1,99,9,99,9,99999,9,99,9,99,9","10152,1,99999,9",,,"MET048METAR MMMZ 221040Z 00000KT 10SM SKC 11/10 A2998=",
"76459399999","2025-01-22T11:46:00","4","23.161356","-106.266072","11.58","GENERAL RAFAEL BUELNA INTERNATIONAL, MX","FM-15","99999","V020","050,1,N,0021,1","22000,1,9,N","016093,1,9,9","+0110,1","+0110,1","10146,1",,,,,,"00,99,1,99,9,99,9,99999,9,99,9,99,9","10152,1,99999,9","7,1,003,1,+999,9",,"MET069METAR MMMZ 221146Z 05004KT 10SM SKC 11/11 A2998 RMK SLP146 57003 970=",
"76459399999","2025-01-22T12:43:00","4","23.161356","-106.266072","11.58","GENERAL RAFAEL BUELNA INTERNATIONAL, MX","FM-15","99999","V020","999,9,C,0000,1","22000,1,9,N","016093,1,9,9","+0110,1","+0110,1","99999,9",,,,,,"00,99,1,99,9,99,9,99999,9,99,9,99,9","10156,1,99999,9",,,"MET048METAR MMMZ 221243Z 00000KT 10SM SKC 11/11 A2999=",
"76459399999","2025-01-22T13:45:00","4","23.161356","-106.266072","11.58","GENERAL RAFAEL BUELNA INTERNATIONAL, MX","FM-15","99999","V020","999,9,C,0000,1","99999,9,9,N","019312,1,9,9","+0110,1","+0100,1","99999,9",,"02,1,+07620,1,00,1",,,"9,AGL   ,+99999,+99999","99,99,9,02,1,99,9,07620,1,99,9,99,9","10163,1,99999,9",,,"MET061METAR MMMZ 221345Z 00000KT 12SM FEW250 11/10 A3001 RMK 8/002=",
"76459399999","2025-01-22T14:40:00","4","23.161356","-106.266072","11.58","GENERAL RAFAEL BUELNA INTERNATIONAL, MX","FM-15","99999","V020","999,9,C,0000,1","22000,1,9,N","019312,1,9,9","+0130,1","+0120,1","10169,1",,,,,,"00,99,1,99,9,99,9,99999,9,99,9,99,9","10169,1,99999,9","2,1,017,1,+999,9",,"MET077METAR MMMZ 221440Z 00000KT 12SM SKC 13/12 A3003 RMK SLP169 52017 967 ISOL CI=",
"76459399999","2025-01-22T15:42:00","4","23.161356","-106.266072","11.58","GENERAL RAFAEL BUELNA INTERNATIONAL, MX","FM-15","99999","V020","999,9,C,0000,1","22000,1,9,N","022531,1,9,9","+0190,1","+0130,1","99999,9",,,,,,"00,99,1,99,9,99,9,99999,9,99,9,99,9","10176,1,99999,9",,,"MET048METAR MMMZ 221542Z 00000KT 14SM SKC 19/13 A3005=",
"76459399999","2025-01-22T16:41:00","4","23.161356","-106.266072","11.58","GENERAL RAFAEL BUELNA INTERNATIONAL, MX","FM-15","99999","V020","999,9,C,0000,1","22000,1,9,N","024140,1,9,9","+0230,1","+0140,1","99999,9",,,,,,"00,99,1,99,9,99,9,99999,9,99,9,99,9","10179,1,99999,9",,,"MET048METAR MMMZ 221641Z 00000KT 15SM SKC 23/14 A3006=",
"76459399999","2025-01-22T17:43:00","4","23.161356","-106.266072","11.58","GENERAL RAFAEL BUELNA INTERNATIONAL, MX","FM-15","99999","V020","240,1,N,0026,1","22000,1,9,N","024140,1,9,9","+0250,1","+0140,1","10170,1",,,,,,"00,99,1,99,9,99,9,99999,9,99,9,99,9","10176,1,99999,9","2,1,007,1,+999,9",,"MET069METAR MMMZ 221743Z 24005KT 15SM SKC 25/14 A3005 RMK SLP170 52007 966=",
"76459399999","2025-01-22T19:42:00","4","23.161356","-106.266072","11.58","GENERAL RAFAEL BUELNA INTERNATIONAL, MX","FM-15","99999","V020","290,1,N,0036,1","22000,1,9,N","024140,1,9,9","+0250,1","+0140,1","99999,9",,,,,,"00,99,1,99,9,99,9,99999,9,99,9,99,9","10163,1,99999,9",,,"MET048METAR MMMZ 221942Z 29007KT 15SM SKC 25/14 A3001=",
"76459399999","2025-01-22T20:42:00","4","23.161356","-106.266072","11.58","GENERAL RAFAEL BUELNA INTERNATIONAL, MX","FM-15","99999","V020","270,1,N,0036,1","22000,1,9,N","024140,1,9,9","+0250,1","+0140,1","10152,1",,,,,,"00,99,1,99,9,99,9,99999,9,99,9,99,9","10152,1,99999,9","7,1,023,1,+999,9",,"MET077METAR MMMZ 222042Z 27007KT 15SM SKC 25/14 A2998 RMK SLP152 57023 977 ISOL CI=",
"76459399999","2025-01-22T21:42:00","4","23.161356","-106.266072","11.58","GENERAL RAFAEL BUELNA INTERNATIONAL, MX","FM-15","99999","V020","270,1,N,0031,1","22000,1,9,N","024140,1,9,9","+0260,1","+0130,1","99999,9",,,,,,"00,99,1,99,9,99,9,99999,9,99,9,99,9","10146,1,99999,9",,,"MET060METAR MMMZ 222142Z 27006KT 15SM SKC 26/13 A2996 RMK ISOL CI=",
"76459399999","2025-01-22T22:41:00","4","23.161356","-106.266072","11.58","GENERAL RAFAEL BUELNA INTERNATIONAL, MX","FM-15","99999","V020","300,1,N,0041,1","99999,9,9,N","024140,1,9,9","+0240,1","+0130,1","99999,9",,"02,1,+07620,1,00,1",,,"9,AGL   ,+99999,+99999","99,99,9,02,1,99,9,07620,1,99,9,99,9","10149,1,99999,9",,,"MET061METAR MMMZ 222241Z 30008KT 15SM FEW250 24/13 A2997 RMK 8/001=",
"76459399999","2025-01-22T23:41:00","4","23.161356","-106.266072","11.58","GENERAL RAFAEL BUELNA INTERNATIONAL, MX","FM-15","99999","V020","310,1,N,0062,1","99999,9,9,N","024140,1,9,9","+0230,1","+0110,1","10145,1",,"02,1,+07620,1,00,1",,,"9,AGL   ,+99999,+99999","99,99,9,02,1,99,9,07620,1,99,9,99,9","10149,1,99999,9","7,1,007,1,+999,9",,"MET078METAR MMMZ 222341Z 31012KT 15SM FEW250 23/11 A2997 RMK SLP145 57007 901 8/001=",
"76459399999","2025-01-23T00:41:00","4","23.161356","-106.266072","11.58","GENERAL RAFAEL BUELNA INTERNATIONAL, MX","FM-15","99999","V020","320,1,N,0041,1","99999,9,9,N","022531,1,9,9","+0210,1","+0090,1","99999,9",,"02,1,+07620,1,00,1",,,"9,AGL   ,+99999,+99999","99,99,9,02,1,99,9,07620,1,99,9,99,9","10152,1,99999,9",,,"MET061METAR MMMZ 230041Z 32008KT 14SM FEW250 21/09 A2998 RMK 8/002=",
"76459399999","2025-01-23T01:40:00","4","23.161356","-106.266072","11.58","GENERAL RAFAEL BUELNA INTERNATIONAL, MX","FM-15","99999","V020","999,9,C,0000,1","22000,1,9,N","016093,1,9,9","+0180,1","+0090,1","99999,9",,,,,,"00,99,1,99,9,99,9,99999,9,99,9,99,9","10159,1,99999,9",,,"MET060METAR MMMZ 230140Z 00000KT 10SM SKC 18/09 A3000 RMK ISOL CI=",
"76459399999","2025-01-23T03:42:00","4","23.161356","-106.266072","11.58","GENERAL RAFAEL BUELNA INTERNATIONAL, MX","FM-15","99999","V020","999,9,C,0000,1","22000,1,9,N","016093,1,9,9","+0150,1","+0090,1","99999,9",,,,,,"00,99,1,99,9,99,9,99999,9,99,9,99,9","10166,1,99999,9",,,"MET060METAR MMMZ 230342Z 00000KT 10SM SKC 15/09 A3002 RMK ISOL CI=",
"76459399999","2025-01-23T04:40:00","4","23.161356","-106.266072","11.58","GENERAL RAFAEL BUELNA INTERNATIONAL, MX","FM-15","99999","V020","999,9,C,0000,1","22000,1,9,N","016093,1,9,9","+0140,1","+0090,1","99999,9",,,,,,"00,99,1,99,9,99,9,99999,9,99,9,99,9","10169,1,99999,9",,,"MET048METAR MMMZ 230440Z 00000KT 10SM SKC 14/09 A3003=",
"76459399999","2025-01-23T05:47:00","4","23.161356","-106.266072","11.58","GENERAL RAFAEL BUELNA INTERNATIONAL, MX","FM-15","99999","V020","999,9,C,0000,1","99999,9,9,N","016093,1,9,9","+0120,1","+0090,1","10164,1",,"02,1,+06706,1,00,1",,,"9,AGL   ,+99999,+99999","99,99,9,02,1,99,9,06706,1,99,9,99,9","10169,1,99999,9","2,1,007,1,+999,9",,"MET082METAR MMMZ 230547Z 00000KT 10SM FEW220 12/09 A3003 RMK SLP164 52007 904 8/002 HZY=",
"76459399999","2025-01-23T07:40:00","4","23.161356","-106.266072","11.58","GENERAL RAFAEL BUELNA INTERNATIONAL, MX","FM-15","99999","V020","999,9,C,0000,1","99999,9,9,N","016093,1,9,9","+0100,1","+0070,1","99999,9",,"04,1,+06706,1,00,1",,,"9,AGL   ,+99999,+99999","99,99,9,04,1,99,9,06706,1,99,9,99,9","10166,1,99999,9",,,"MET061METAR MMMZ 230740Z 00000KT 10SM SCT220 10/07 A3002 RMK 8/002=",
"76459399999","2025-01-23T08:40:00","4","23.161356","-106.266072","11.58","GENERAL RAFAEL BUELNA INTERNATIONAL, MX","FM-15","99999","V020","999,9,C,0000,1","99999,9,9,N","016093,1,9,9","+0100,1","+0090,1","10152,1",,"02,1,+06706,1,00,1",,,"9,AGL   ,+99999,+99999","99,99,9,02,1,99,9,06706,1,99,9,99,9","10166,1,99999,9","7,1,003,1,+999,9",,"MET078METAR MMMZ 230840Z 00000KT 10SM FEW220 10/09 A3002 RMK SLP152 57003 909 8/002=",
"76459399999","2025-01-23T09:40:00","4","23.161356","-106.266072","11.58","GENERAL RAFAEL BUELNA INTERNATIONAL, MX","FM-15","99999","V020","999,9,C,0000,1","99999,9,9,N","016093,1,9,9","+0100,1","+0090,1","99999,9",,"02,1,+06706,1,00,1",,,"9,AGL   ,+99999,+99999","99,99,9,02,1,99,9,06706,1,99,9,99,9","10163,1,99999,9",,,"MET061METAR MMMZ 230940Z 00000KT 10SM FEW220 10/09 A3001 RMK 8/002=",
"76459399999","2025-01-23T10:40:00","4","23.161356","-106.266072","11.58","GENERAL RAFAEL BUELNA INTERNATIONAL, MX","FM-15","99999","V020","050,1,N,0021,1","22000,1,9,N","016093,1,9,9","+0100,1","+0080,1","99999,9",,,,,,"00,99,1,99,9,99,9,99999,9,99,9,99,9","10163,1,99999,9",,,"MET048METAR MMMZ 231040Z 05004KT 10SM SKC 10/08 A3001=",
"76459399999","2025-01-23T11:41:00","4","23.161356","-106.266072","11.58","GENERAL RAFAEL BUELNA INTERNATIONAL, MX","FM-15","99999","V020","999,9,C,0000,1","22000,1,9,N","016093,1,9,9","+0100,1","+0080,1","10158,1",,,,,,"00,99,1,99,9,99,9,99999,9,99,9,99,9","10163,1,99999,9","7,1,003,1,+999,9",,"MET069METAR MMMZ 231141Z 00000KT 10SM SKC 10/08 A3001 RMK SLP158 57003 912=",
"76459399999","2025-01-23T12:43:00","4","23.161356","-106.266072","11.58","GENERAL RAFAEL BUELNA INTERNATIONAL, MX","FM-15","99999","V020","999,9,C,0000,1","22000,1,9,N","016093,1,9,9","+0090,1","+0080,1","99999,9",,,,,,"00,99,1,99,9,99,9,99999,9,99,9,99,9","10166,1,99999,9",,,"MET048METAR MMMZ 231243Z 00000KT 10SM SKC 09/08 A3002=",
"76459399999","2025-01-23T13:44:00","4","23.161356","-106.266072","11.58","GENERAL RAFAEL BUELNA INTERNATIONAL, MX","FM-15","99999","V020","999,9,C,0000,1","22000,1,9,N","019312,1,9,9","+0090,1","+0080,1","99999,9",,,,,,"00,99,1,99,9,99,9,99999,9,99,9,99,9","10169,1,99999,9",,,"MET063METAR MMMZ 231344Z 00000KT 12SM SKC 09/08 A3003 RMK ISOL AC CI=",
"76459399999","2025-01-23T14:40:00","4","23.161356","-106.266072","11.58","GENERAL RAFAEL BUELNA INTERNATIONAL, MX","FM-15","99999","V020","999,9,C,0000,1","99999,9,9,N","024140,1,9,9","+0120,1","+0100,1","10176,1",,"02,1,+07315,1,00,1",,,"9,AGL   ,+99999,+99999","99,99,9,02,1,99,9,07315,1,99,9,99,9","10176,1,99999,9","2,1,013,1,+999,9",,"MET086METAR MMMZ 231440Z 00000KT 15SM FEW240 12/10 A3005 RMK SLP176 52013 907 8/001 ISOL AC=",
"76459399999","2025-01-23T15:45:00","4","23.161356","-106.266072","11.58","GENERAL RAFAEL BUELNA INTERNATIONAL, MX","FM-15","99999","V020","070,1,N,0015,1","99999,9,9,N","024140,1,9,9","+0180,1","+0120,1","99999,9",,"02,1,+07315,1,00,1",,,"9,AGL   ,+99999,+99999","99,99,9,02,1,99,9,07315,1,99,9,99,9","10183,1,99999,9",,,"MET061METAR MMMZ 231545Z 07003KT 15SM FEW240 18/12 A3007 RMK 8/001=",
"76459399999","2025-01-23T16:43:00","4","23.161356","-106.266072","11.58","GENERAL RAFAEL BUELNA INTERNATIONAL, MX","FM-15","99999","V020","999,9,C,0000,1","99999,9,9,N","024140,1,9,9","+0220,1","+0120,1","99999,9",,"02,1,+07315,1,00,1",,,"9,AGL   ,+99999,+99999","99,99,9,02,1,99,9,07315,1,99,9,99,9","10179,1,99999,9",,,"MET061METAR MMMZ 231643Z 00000KT 15SM FEW240 22/12 A3006 RMK 8/002=",
"76459399999","2025-01-23T17:41:00","4","23.161356","-106.266072","11.58","GENERAL RAFAEL BUELNA INTERNATIONAL, MX","FM-15","99999","V020","999,9,C,0000,1","99999,9,9,N","024140,1,9,9","+0240,1","+0120,1","10174,1",,"02,1,+07315,1,00,1",,,"9,AGL   ,+99999,+99999","99,99,9,02,1,99,9,07315,1,99,9,99,9","10179,1,99999,9","2,1,003,1,+999,9",,"MET082METAR COR MMMZ 231741Z 00000KT 15SM FEW240 24/12 A3006 RMK SLP174 52003 904 8/002=",
"76459399999","2025-01-23T18:40:00","4","23.161356","-106.266072","11.58","GENERAL RAFAEL BUELNA INTERNATIONAL, MX","FM-15","99999","V020","270,1,N,0026,1","99999,9,9,N","024140,1,9,9","+0240,1","+0120,1","99999,9",,"02,1,+07315,1,00,1",,,"9,AGL   ,+99999,+99999","99,99,9,02,1,99,9,07315,1,99,9,99,9","10169,1,99999,9",,,"MET061METAR MMMZ 231840Z 27005KT 15SM FEW240 24/12 A3003 RMK 8/002=",
"76459399999","2025-01-23T19:44:00","4","23.161356","-106.266072","11.58","GENERAL RAFAEL BUELNA INTERNATIONAL, MX","FM-15","99999","V020","240,1,N,0021,1","99999,9,9,N","024140,1,9,9","+0250,1","+0110,1","99999,9",,"02,1,+03962,1,03,1","02,1,+07315,1,00,1",,"9,AGL   ,+99999,+99999","99,99,9,02,1,99,9,03962,1,99,9,99,9","10159,1,99999,9",,,"MET068METAR MMMZ 231944Z 24004KT 15SM FEW130 FEW240 25/11 A3000 RMK 8/052=",
"76459399999","2025-01-23T21:41:00","4","23.161356","-106.266072","11.58","GENERAL RAFAEL BUELNA INTERNATIONAL, MX","FM-15","99999","V020","290,1,N,0026,1","07315,1,C,N","024140,1,9,9","+0260,1","+0120,1","99999,9",,"02,1,+03353,1,03,1","04,1,+07315,1,00,1",,"9,AGL   ,+99999,+99999","99,99,9,02,1,99,9,03353,1,99,9,99,9","10146,1,99999,9",,,"MET068METAR MMMZ 232141Z 29005KT 15SM FEW110 SCT240 26/12 A2996 RMK 8/052=",
"76459399999","2025-01-23T22:43:00","4","23.161356","-106.266072","11.58","GENERAL RAFAEL BUELNA INTERNATIONAL, MX","FM-15","99999","V020","290,1,N,0051,1","99999,9,9,N","024140,1,9,9","+0240,1","+0140,1","99999,9",,"02,1,+07315,1,00,1",,,"9,AGL   ,+99999,+99999","99,99,9,02,1,99,9,07315,1,99,9,99,9","10146,1,99999,9",,,"MET069METAR MMMZ 232243Z 29010KT 15SM FEW240 24/14 A2996 RMK 8/002 ISOL AC=",
"76459399999","2025-01-23T23:46:00","4","23.161356","-106.266072","11.58","GENERAL RAFAEL BUELNA INTERNATIONAL, MX","FM-15","99999","V020","290,1,N,0031,1","99999,9,9,N","024140,1,9,9","+0230,1","+0130,1","10140,1",,"02,1,+07620,1,00,1",,,"9,AGL   ,+99999,+99999","99,99,9,02,1,99,9,07620,1,99,9,99,9","10146,1,99999,9","7,1,007,1,+999,9",,"MET086METAR MMMZ 232346Z 29006KT 15SM FEW250 23/13 A2996 RMK SLP140 57007 955 8/002 ISOL AC=",
"76459399999","2025-01-24T00:41:00","4","23.161356","-106.266072","11.58","GENERAL RAFAEL BUELNA INTERNATIONAL, MX","FM-15","99999","V020","300,1,N,0036,1","99999,9,9,N","022531,1,9,9","+0200,1","+0120,1","99999,9",,"02,1,+07620,1,02,1",,,"9,AGL   ,+99999,+99999","99,99,9,02,1,99,9,07620,1,99,9,99,9","10149,1,99999,9",,,"MET069METAR MMMZ 240041Z 30007KT 14SM FEW250 20/12 A2997 RMK 8/005 ISOL AC=",
"76459399999","2025-01-24T01:41:00","4","23.161356","-106.266072","11.58","GENERAL RAFAEL BUELNA INTERNATIONAL, MX","FM-15","99999","V020","320,1,N,0015,1","22000,1,9,N","019312,1,9,9","+0180,1","+0110,1","99999,9",,,,,,"00,99,1,99,9,99,9,99999,9,99,9,99,9","10152,1,99999,9",,,"MET060METAR MMMZ 240141Z 32003KT 12SM SKC 18/11 A2998 RMK ISOL CI=",
"76459399999","2025-01-24T02:43:00","4","23.161356","-106.266072","11.58","GENERAL RAFAEL BUELNA INTERNATIONAL, MX","FM-15","99999","V020","999,9,C,0000,1","22000,1,9,N","016093,1,9,9","+0160,1","+0110,1","10152,1",,,,,,"00,99,1,99,9,99,9,99999,9,99,9,99,9","10152,1,99999,9","2,1,007,1,+999,9",,"MET077METAR MMMZ 240243Z 00000KT 10SM SKC 16/11 A2998 RMK SLP152 52007 960 ISOL CI=",
"76459399999","2025-01-24T03:41:00","4","23.161356","-106.266072","11.58","GENERAL RAFAEL BUELNA INTERNATIONAL, MX","FM-15","99999","V020","300,1,N,0015,1","22000,1,9,N","016093,1,9,9","+0150,1","+0110,1","99999,9",,,,,,"00,99,1,99,9,99,9,99999,9,99,9,99,9","10159,1,99999,9",,,"MET048METAR MMMZ 240341Z 30003KT 10SM SKC 15/11 A3000=",
"76459399999","2025-01-24T04:46:00","4","23.161356","-106.266072","11.58","GENERAL RAFAEL BUELNA INTERNATIONAL, MX","FM-15","99999","V020","999,9,C,0000,1","22000,1,9,N","016093,1,9,9","+0130,1","+0090,1","99999,9",,,,,,"00,99,1,99,9,99,9,99999,9,99,9,99,9","10159,1,99999,9",,,"MET048METAR MMMZ 240446Z 00000KT 10SM SKC 13/09 A3000=",
"76459399999","2025-01-24T05:40:00","4","23.161356","-106.266072","11.58","GENERAL RAFAEL BUELNA INTERNATIONAL, MX","FM-15","99999","V020","999,9,C,0000,1","99999,9,9,N","016093,1,9,9","+0110,1","+0090,1","10152,1",,"02,1,+07315,1,00,1",,,"9,AGL   ,+99999,+99999","99,99,9,02,1,99,9,07315,1,99,9,99,9","10156,1,99999,9","2,1,003,1,+999,9",,"MET078METAR MMMZ 240540Z 00000KT 10SM FEW240 11/09 A2999 RMK SLP152 52003 962 8/002=",
"76459399999","2025-01-24T06:40:00","4","23.161356","-106.266072","11.58","GENERAL RAFAEL BUELNA INTERNATIONAL, MX","FM-15","99999","V020","999,9,C,0000,1","22000,1,9,N","016093,1,9,9","+0110,1","+0090,1","99999,9",,,,,,"00,99,1,99,9,99,9,99999,9,99,9,99,9","10156,1,99999,9",,,"MET060METAR MMMZ 240640Z 00000KT 10SM SKC 11/09 A2999 RMK ISOL CI=",
"76459399999","2025-01-24T07:42:00","4","23.161356","-106.266072","11.58","GENERAL RAFAEL BUELNA INTERNATIONAL, MX","FM-15","99999","V020","999,9,C,0000,1","99999,9,9,N","016093,1,9,9","+0110,1","+0100,1","99999,9",,"02,1,+07315,1,00,1",,,"9,AGL   ,+99999,+99999","99,99,9,02,1,99,9,07315,1,99,9,99,9","10152,1,99999,9",,,"MET061METAR MMMZ 240742Z 00000KT 10SM FEW240 11/10 A2998 RMK 8/002=",
"76459399999","2025-01-24T08:40:00","4","23.161356","-106.266072","11.58","GENERAL RAFAEL BUELNA INTERNATIONAL, MX","FM-15","99999","V020","999,9,C,0000,1","99999,9,9,N","016093,1,9,9","+0100,1","+0090,1","10139,1",,"02,1,+07315,1,00,1",,,"9,AGL   ,+99999,+99999","99,99,9,02,1,99,9,07315,1,99,9,99,9","10152,1,99999,9","7,1,003,1,+999,9",,"MET078METAR MMMZ 240840Z 00000KT 10SM FEW240 10/09 A2998 RMK SLP139 57003 963 8/002=",
"76459399999","2025-01-24T09:40:00","4","23.161356","-106.266072","11.58","GENERAL RAFAEL BUELNA INTERNATIONAL, MX","FM-15","99999","V020","999,9,C,0000,1","99999,9,9,N","016093,1,9,9","+0100,1","+0090,1","99999,9",,"02,1,+07315,1,00,1",,,"9,AGL   ,+99999,+99999","99,99,9,02,1,99,9,07315,1,99,9,99,9","10146,1,99999,9",,,"MET061METAR MMMZ 240940Z 00000KT 10SM FEW240 10/09 A2996 RMK 8/002=",
"76459399999","2025-01-24T10:40:00","4","23.161356","-106.266072","11.58","GENERAL RAFAEL BUELNA INTERNATIONAL, MX","FM-15","99999","V020","999,9,C,0000,1","99999,9,9,N","016093,1,9,9","+0100,1","+0090,1","99999,9",,"04,1,+07315,1,00,1",,,"9,AGL   ,+99999,+99999","99,99,9,04,1,99,9,07315,1,99,9,99,9","10146,1,99999,9",,,"MET061METAR MMMZ 241040Z 00000KT 10SM SCT240 10/09 A2996 RMK 8/002=",
"76459399999","2025-01-24T11:43:00","4","23.161356","-106.266072","11.58","GENERAL RAFAEL BUELNA INTERNATIONAL, MX","FM-15","99999","V020","999,9,C,0000,1","99999,9,9,N","016093,1,9,9","+0100,1","+0090,1","10143,1",,"04,1,+07315,1,00,1",,,"9,AGL   ,+99999,+99999","99,99,9,04,1,99,9,07315,1,99,9,99,9","10149,1,99999,9","7,1,003,1,+999,9",,"MET078METAR MMMZ 241143Z 00000KT 10SM SCT240 10/09 A2997 RMK SLP143 57003 965 8/002=",
"76459399999","2025-01-24T12:41:00","4","23.161356","-106.266072","11.58","GENERAL RAFAEL BUELNA INTERNATIONAL, MX","FM-15","99999","V020","050,1,N,0026,1","99999,9,9,N","016093,1,9,9","+0090,1","+0080,1","99999,9",,"02,1,+07315,1,00,1",,,"9,AGL   ,+99999,+99999","99,99,9,02,1,99,9,07315,1,99,9,99,9","10146,1,99999,9",,,"MET061METAR MMMZ 241241Z 05005KT 10SM FEW240 09/08 A2996 RMK 8/002=",
"76459399999","2025-01-24T13:42:00","4","23.161356","-106.266072","11.58","GENERAL RAFAEL BUELNA INTERNATIONAL, MX","FM-15","99999","V020","999,9,C,0000,1","99999,9,9,N","019312,1,9,9","+0100,1","+0080,1","99999,9",,"04,1,+07315,1,00,1",,,"9,AGL   ,+99999,+99999","99,99,9,04,1,99,9,07315,1,99,9,99,9","10152,1,99999,9",,,"MET061METAR MMMZ 241342Z 00000KT 12SM SCT240 10/08 A2998 RMK 8/002=",
"76459399999","2025-01-24T14:44:00","4","23.161356","-106.266072","11.58","GENERAL RAFAEL BUELNA INTERNATIONAL, MX","FM-15","99999","V020","040,1,N,0021,1","07315,1,C,N","022531,1,9,9","+0120,1","+0100,1","10159,1",,"07,1,+07315,1,00,1",,,"9,AGL   ,+99999,+99999","99,99,9,07,1,99,9,07315,1,99,9,99,9","10159,1,99999,9","2,1,010,1,+999,9",,"MET078METAR MMMZ 241444Z 04004KT 14SM BKN240 12/10 A3000 RMK SLP159 52010 967 8/002=",
"76459399999","2025-01-24T15:46:00","4","23.161356","-106.266072","11.58","GENERAL RAFAEL BUELNA INTERNATIONAL, MX","FM-15","99999","V020","999,9,C,0000,1","99999,9,9,N","022531,1,9,9","+0170,1","+0120,1","99999,9",,"04,1,+07315,1,00,1",,,"9,AGL   ,+99999,+99999","99,99,9,04,1,99,9,07315,1,99,9,99,9","10166,1,99999,9",,,"MET061METAR MMMZ 241546Z 00000KT 14SM SCT240 17/12 A3002 RMK 8/002=",
"76459399999","2025-01-24T16:41:00","4","23.161356","-106.266072","11.58","GENERAL RAFAEL BUELNA INTERNATIONAL, MX","FM-15","99999","V020","999,9,C,0000,1","99999,9,9,N","022531,1,9,9","+0240,1","+0130,1","99999,9",,"04,1,+07315,1,00,1",,,"9,AGL   ,+99999,+99999","99,99,9,04,1,99,9,07315,1,99,9,99,9","10166,1,99999,9",,,"MET061METAR MMMZ 241641Z 00000KT 14SM SCT240 24/13 A3002 RMK 8/002=",
"76459399999","2025-01-24T17:40:00","4","23.161356","-106.266072","11.58","GENERAL RAFAEL BUELNA INTERNATIONAL, MX","FM-15","99999","V020","999,9,C,0000,1","99999,9,9,N","022531,1,9,9","+0260,1","+0120,1","10160,1",,"04,1,+07315,1,00,1",,,"9,AGL   ,+99999,+99999","99,99,9,04,1,99,9,07315,1,99,9,99,9","10163,1,99999,9","2,1,003,1,+999,9",,"MET078METAR MMMZ 241740Z 00000KT 14SM SCT240 26/12 A3001 RMK SLP160 52003 964 8/002=",
"76459399999","2025-01-24T18:42:00","4","23.161356","-106.266072","11.58","GENERAL RAFAEL BUELNA INTERNATIONAL, MX","FM-15","99999","V020","280,1,N,0031,1","99999,9,9,N","022531,1,9,9","+0260,1","+0120,1","99999,9",,"04,1,+07315,1,00,1",,,"9,AGL   ,+99999,+99999","99,99,9,04,1,99,9,07315,1,99,9,99,9","10159,1,99999,9",,,"MET063METAR MMMZ 241842Z 28006KT 14SM SCT240 26/12 A3000 RMK 8/002 S=",
"76459399999","2025-01-24T19:45:00","4","23.161356","-106.266072","11.58","GENERAL RAFAEL BUELNA INTERNATIONAL, MX","FM-15","99999","V020","240,1,N,0026,1","99999,9,9,N","022531,1,9,9","+0270,1","+0110,1","99999,9",,"04,1,+07315,1,00,1",,,"9,AGL   ,+99999,+99999","99,99,9,04,1,99,9,07315,1,99,9,99,9","10146,1,99999,9",,,"MET061METAR MMMZ 241945Z 24005KT 14SM SCT240 27/11 A2996 RMK 8/002=",
"76459399999","2025-01-24T20:40:00","4","23.161356","-106.266072","11.58","GENERAL RAFAEL BUELNA INTERNATIONAL, MX","FM-15","99999","V020","290,1,N,0026,1","99999,9,9,N","022531,1,9,9","+0260,1","+0120,1","10142,1",,"04,1,+07315,1,00,1",,,"9,AGL   ,+99999,+99999","99,99,9,04,1,99,9,07315,1,99,9,99,9","10142,1,99999,9","7,1,020,1,+999,9",,"MET078METAR MMMZ 242040Z 29005KT 14SM SCT240 26/12 A2995 RMK SLP142 57020 960 8/002=",
"76459399999","2025-01-24T21:50:00","4","23.161356","-106.266072","11.58","GENERAL RAFAEL BUELNA INTERNATIONAL, MX","FM-15","99999","V020","290,1,N,0026,1","99999,9,9,N","022531,1,9,9","+0270,1","+0100,1","99999,9",,"04,1,+07315,1,00,1",,,"9,AGL   ,+99999,+99999","99,99,9,04,1,99,9,07315,1,99,9,99,9","10132,1,99999,9",,,"MET061METAR MMMZ 242150Z 29005KT 14SM SCT240 27/10 A2992 RMK 8/002=",
"76459399999","2025-01-24T22:44:00","4","23.161356","-106.266072","11.58","GENERAL RAFAEL BUELNA INTERNATIONAL, MX","FM-15","99999","V020","999,9,C,0000,1","07315,1,C,N","022531,1,9,9","+0270,1","+0100,1","99999,9",,"07,1,+07315,1,00,1",,,"9,AGL   ,+99999,+99999","99,99,9,07,1,99,9,07315,1,99,9,99,9","10132,1,99999,9",,,"MET061METAR MMMZ 242244Z 00000KT 14SM BKN240 27/10 A2992 RMK 8/002=",
"76459399999","2025-01-24T23:42:00","4","23.161356","-106.266072","11.58","GENERAL RAFAEL BUELNA INTERNATIONAL, MX","FM-15","99999","V020","280,1,N,0021,1","07315,1,C,N","022531,1,9,9","+0260,1","+0090,1","10128,1",,"07,1,+07315,1,00,1",,,"9,AGL   ,+99999,+99999","99,99,9,07,1,99,9,07315,1,99,9,99,9","10132,1,99999,9","7,1,010,1,+999,9",,"MET078METAR MMMZ 242342Z 28004KT 14SM BKN240 26/09 A2992 RMK SLP128 57010 962 8/002=",
"76459399999","2025-01-25T00:41:00","4","23.161356","-106.266072","11.58","GENERAL RAFAEL BUELNA INTERNATIONAL, MX","FM-15","99999","V020","280,1,N,0015,1","07315,1,C,N","022531,1,9,9","+0230,1","+0130,1","99999,9",,"07,1,+07315,1,00,1",,,"9,AGL   ,+99999,+99999","99,99,9,07,1,99,9,07315,1,99,9,99,9","10135,1,99999,9",,,"MET061METAR MMMZ 250041Z 28003KT 14SM BKN240 23/13 A2993 RMK 8/002=",
"76459399999","2025-01-25T01:41:00","4","23.161356","-106.266072","11.58","GENERAL RAFAEL BUELNA INTERNATIONAL, MX","FM-15","99999","V020","300,1,N,0021,1","07315,1,C,N","019312,1,9,9","+0200,1","+0140,1","99999,9",,"07,1,+07315,1,00,1",,,"9,AGL   ,+99999,+99999","99,99,9,07,1,99,9,07315,1,99,9,99,9","10135,1,99999,9",,,"MET061METAR MMMZ 250141Z 30004KT 12SM BKN240 20/14 A2993 RMK 8/002=",
"76459399999","2025-01-25T02:40:00","4","23.161356","-106.266072","11.58","GENERAL RAFAEL BUELNA INTERNATIONAL, MX","FM-15","99999","V020","290,1,N,0021,1","99999,9,9,N","016093,1,9,9","+0180,1","+0130,1","10142,1",,"04,1,+07315,1,00,1",,,"9,AGL   ,+99999,+99999","99,99,9,04,1,99,9,07315,1,99,9,99,9","10142,1,99999,9","2,1,010,1,+999,9",,"MET078METAR MMMZ 250240Z 29004KT 10SM SCT240 18/13 A2995 RMK SLP142 52010 960 8/002=",
"76459399999","2025-01-25T03:40:00","4","23.161356","-106.266072","11.58","GENERAL RAFAEL BUELNA INTERNATIONAL, MX","FM-15","99999","V020","999,9,C,0000,1","99999,9,9,N","016093,1,9,9","+0170,1","+0120,1","99999,9",,"04,1,+07315,1,00,1",,,"9,AGL   ,+99999,+99999","99,99,9,04,1,99,9,07315,1,99,9,99,9","10149,1,99999,9",,,"MET061METAR MMMZ 250340Z 00000KT 10SM SCT240 17/12 A2997 RMK 8/002=",
"76459399999","2025-01-25T04:42:00","4","23.161356","-106.266072","11.58","GENERAL RAFAEL BUELNA INTERNATIONAL, MX","FM-15","99999","V020","999,9,C,0000,1","22000,1,9,N","016093,1,9,9","+0150,1","+0120,1","99999,9",,,,,,"00,99,1,99,9,99,9,99999,9,99,9,99,9","10156,1,99999,9",,,"MET048METAR MMMZ 250442Z 00000KT 10SM SKC 15/12 A2999=",
"76459399999","2025-01-25T05:44:00","4","23.161356","-106.266072","11.58","GENERAL RAFAEL BUELNA INTERNATIONAL, MX","FM-15","99999","V020","999,9,C,0000,1","22000,1,9,N","016093,1,9,9","+0140,1","+0110,1","10152,1",,,,,,"00,99,1,99,9,99,9,99999,9,99,9,99,9","10159,1,99999,9","2,1,017,1,+999,9",,"MET069METAR MMMZ 250544Z 00000KT 10SM SKC 14/11 A3000 RMK SLP152 52017 900=",
"76459399999","2025-01-25T06:41:00","4","23.161356","-106.266072","11.58","GENERAL RAFAEL BUELNA INTERNATIONAL, MX","FM-15","99999","V020","999,9,C,0000,1","22000,1,9,N","016093,1,9,9","+0130,1","+0120,1","99999,9",,,,,,"00,99,1,99,9,99,9,99999,9,99,9,99,9","10159,1,99999,9",,,"MET048METAR MMMZ 250641Z 00000KT 10SM SKC 13/12 A3000=",
"76459399999","2025-01-25T07:41:00","4","23.161356","-106.266072","11.58","GENERAL RAFAEL BUELNA INTERNATIONAL, MX","FM-15","99999","V020","060,1,N,0015,1","22000,1,9,N","016093,1,9,9","+0120,1","+0110,1","99999,9",,,,,,"00,99,1,99,9,99,9,99999,9,99,9,99,9","10159,1,99999,9",,,"MET048METAR MMMZ 250741Z 06003KT 10SM SKC 12/11 A3000=",
"76459399999","2025-01-25T08:43:00","4","23.161356","-106.266072","11.58","GENERAL RAFAEL BUELNA INTERNATIONAL, MX","FM-15","99999","V020","050,1,N,0036,1","22000,1,9,N","016093,1,9,9","+0140,1","+0090,1","10155,1",,,,,,"00,99,1,99,9,99,9,99999,9,99,9,99,9","10156,1,99999,9","2,1,003,1,+999,9",,"MET069METAR MMMZ 250843Z 05007KT 10SM SKC 14/09 A2999 RMK SLP155 52003 916=",
"76459399999","2025-01-25T09:41:00","4","23.161356","-106.266072","11.58","GENERAL RAFAEL BUELNA INTERNATIONAL, MX","FM-15","99999","V020","030,1,N,0031,1","22000,1,9,N","016093,1,9,9","+0130,1","+0090,1","99999,9",,,,,,"00,99,1,99,9,99,9,99999,9,99,9,99,9","10149,1,99999,9",,,"MET048METAR MMMZ 250941Z 03006KT 10SM SKC 13/09 A2997=",
"76459399999","2025-01-25T10:42:00","4","23.161356","-106.266072","11.58","GENERAL RAFAEL BUELNA INTERNATIONAL, MX","FM-15","99999","V020","999,9,C,0000,1","22000,1,9,N","016093,1,9,9","+0120,1","+0090,1","99999,9",,,,,,"00,99,1,99,9,99,9,99999,9,99,9,99,9","10146,1,99999,9",,,"MET048METAR MMMZ 251042Z 00000KT 10SM SKC 12/09 A2996=",
"76459399999","2025-01-25T11:43:00","4","23.161356","-106.266072","11.58","GENERAL RAFAEL BUELNA INTERNATIONAL, MX","FM-15","99999","V020","050,1,N,0021,1","22000,1,9,N","016093,1,9,9","+0120,1","+0090,1","10140,1",,,,,,"00,99,1,99,9,99,9,99999,9,99,9,99,9","10146,1,99999,9","7,1,010,1,+999,9",,"MET069METAR MMMZ 251143Z 05004KT 10SM SKC 12/09 A2996 RMK SLP140 57010 953=",
"76459399999","2025-01-25T12:42:00","4","23.161356","-106.266072","11.58","GENERAL RAFAEL BUELNA INTERNATIONAL, MX","FM-15","99999","V020","999,9,C,0000,1","22000,1,9,N","016093,1,9,9","+0120,1","+0090,1","99999,9",,,,,,"00,99,1,99,9,99,9,99999,9,99,9,99,9","10149,1,99999,9",,,"MET048METAR MMMZ 251242Z 00000KT 10SM SKC 12/09 A2997=",
"76459399999","2025-01-25T13:41:00","4","23.161356","-106.266072","11.58","GENERAL RAFAEL BUELNA INTERNATIONAL, MX","FM-15","99999","V020","050,1,N,0010,1","22000,1,9,N","022531,1,9,9","+0120,1","+0090,1","99999,9",,,,,,"00,99,1,99,9,99,9,99999,9,99,9,99,9","10152,1,99999,9",,"11,1","MET053METAR MMMZ 251341Z 05002KT 14SM BCFG SKC 12/09 A2998=",
"76459399999","2025-01-25T14:44:00","4","23.161356","-106.266072","11.58","GENERAL RAFAEL BUELNA INTERNATIONAL, MX","FM-15","99999","V020","999,9,C,0000,1","22000,1,9,N","022531,1,9,9","+0150,1","+0090,1","10159,1",,,,,,"00,99,1,99,9,99,9,99999,9,99,9,99,9","10159,1,99999,9","2,1,013,1,+999,9",,"MET069METAR MMMZ 251444Z 00000KT 14SM SKC 15/09 A3000 RMK SLP159 52013 900=",
"76459399999","2025-01-25T15:45:00","4","23.161356","-106.266072","11.58","GENERAL RAFAEL BUELNA INTERNATIONAL, MX","FM-15","99999","V020","999,9,C,0000,1","22000,1,9,N","022531,1,9,9","+0200,1","+0100,1","99999,9",,,,,,"00,99,1,99,9,99,9,99999,9,99,9,99,9","10166,1,99999,9",,,"MET048METAR MMMZ 251545Z 00000KT 14SM SKC 20/10 A3002=",
"76459399999","2025-01-25T16:44:00","4","23.161356","-106.266072","11.58","GENERAL RAFAEL BUELNA INTERNATIONAL, MX","FM-15","99999","V020","999,9,C,0000,1","22000,1,9,N","022531,1,9,9","+0240,1","+0110,1","99999,9",,,,,,"00,99,1,99,9,99,9,99999,9,99,9,99,9","10173,1,99999,9",,,"MET048METAR MMMZ 251644Z 00000KT 14SM SKC 24/11 A3004=",
"76459399999","2025-01-25T17:40:00","4","23.161356","-106.266072","11.58","GENERAL RAFAEL BUELNA INTERNATIONAL, MX","FM-15","99999","V020","230,1,N,0015,1","22000,1,9,N","022531,1,9,9","+0270,1","+0100,1","10167,1",,,,,,"00,99,1,99,9,99,9,99999,9,99,9,99,9","10173,1,99999,9","2,1,013,1,+999,9",,"MET077METAR MMMZ 251740Z 23003KT 14SM SKC 27/10 A3004 RMK SLP167 52013 907 ISOL AC=",
"76459399999","2025-01-25T18:42:00","4","23.161356","-106.266072","11.58","GENERAL RAFAEL BUELNA INTERNATIONAL, MX","FM-15","99999","V020","240,1,N,0026,1","99999,9,9,N","022531,1,9,9","+0280,1","+0100,1","99999,9",,"02,1,+03962,1,03,1",,,"9,AGL   ,+99999,+99999","99,99,9,02,1,99,9,03962,1,99,9,99,9","10166,1,99999,9",,,"MET061METAR MMMZ 251842Z 24005KT 14SM FEW130 28/10 A3002 RMK 8/030=",
"76459399999","2025-01-25T19:45:00","4","23.161356","-106.266072","11.58","GENERAL RAFAEL BUELNA INTERNATIONAL, MX","FM-15","99999","V020","280,1,N,0041,1","99999,9,9,N","022531,1,9,9","+0290,1","+0080,1","99999,9",,"02,1,+03353,1,03,1",,,"9,AGL   ,+99999,+99999","99,99,9,02,1,99,9,03353,1,99,9,99,9","10159,1,99999,9",,,"MET061METAR MMMZ 251945Z 28008KT 14SM FEW110 29/08 A3000 RMK 8/030=",
"76459399999","2025-01-25T20:41:00","4","23.161356","-106.266072","11.58","GENERAL RAFAEL BUELNA INTERNATIONAL, MX","FM-15","99999","V020","230,1,N,0026,1","99999,9,9,N","022531,1,9,9","+0280,1","+0070,1","10156,1",,"02,1,+02743,1,03,1",,,"9,AGL   ,+99999,+99999","99,99,9,02,1,99,9,02743,1,99,9,99,9","10152,1,99999,9","7,1,020,1,+999,9",,"MET078METAR MMMZ 252041Z 23005KT 14SM FEW090 28/07 A2998 RMK SLP156 57020 914 8/030=",
"76459399999","2025-01-25T21:43:00","4","23.161356","-106.266072","11.58","GENERAL RAFAEL BUELNA INTERNATIONAL, MX","FM-15","99999","V020","280,1,N,0036,1","99999,9,9,N","024140,1,9,9","+0280,1","+0100,1","99999,9",,"02,1,+02743,1,03,1",,,"9,AGL   ,+99999,+99999","99,99,9,02,1,99,9,02743,1,99,9,99,9","10149,1,99999,9",,,"MET061METAR MMMZ 252143Z 28007KT 15SM FEW090 28/10 A2997 RMK 8/030=",
"76459399999","2025-01-25T22:40:00","4","23.161356","-106.266072","11.58","GENERAL RAFAEL BUELNA INTERNATIONAL, MX","FM-15","99999","V020","310,1,N,0046,1","99999,9,9,N","024140,1,9,9","+0290,1","+0090,1","99999,9",,"04,1,+02743,1,03,1",,,"9,AGL   ,+99999,+99999","99,99,9,04,1,99,9,02743,1,99,9,99,9","10146,1,99999,9",,,"MET061METAR MMMZ 252240Z 31009KT 15SM SCT090 29/09 A2996 RMK 8/030=",
"76459399999","2025-01-25T23:42:00","4","23.161356","-106.266072","11.58","GENERAL RAFAEL BUELNA INTERNATIONAL, MX","FM-15","99999","V020","290,1,N,0036,1","99999,9,9,N","024140,1,9,9","+0260,1","+0100,1","10144,1",,"04,1,+02743,1,03,1",,,"9,AGL   ,+99999,+99999","99,99,9,04,1,99,9,02743,1,99,9,99,9","10149,1,99999,9","7,1,003,1,+999,9",,"MET078METAR MMMZ 252342Z 29007KT 15SM SCT090 26/10 A2997 RMK SLP144 57003 916 8/030=",
"76459399999","2025-01-26T00:47:00","4","23.161356","-106.266072","11.58","GENERAL RAFAEL BUELNA INTERNATIONAL, MX","FM-15","99999","V020","290,1,N,0026,1","99999,9,9,N","019312,1,9,9","+0240,1","+0110,1","99999,9",,"04,1,+01524,1,06,1",,,"9,AGL   ,+99999,+99999","99,99,9,04,1,99,9,01524,1,99,9,99,9","10156,1,99999,9",,,"MET061METAR MMMZ 260047Z 29005KT 12SM SCT050 24/11 A2999 RMK 8/500=",
"76459399999","2025-01-26T01:42:00","4","23.161356","-106.266072","11.58","GENERAL RAFAEL BUELNA INTERNATIONAL, MX","FM-15","99999","V020","999,9,C,0000,1","99999,9,9,N","016093,1,9,9","+0220,1","+0110,1","99999,9",,"02,1,+01524,1,06,1",,,"9,AGL   ,+99999,+99999","99,99,9,02,1,99,9,01524,1,99,9,99,9","10159,1,99999,9",,,"MET061METAR MMMZ 260142Z 00000KT 10SM FEW050 22/11 A3000 RMK 8/500=",
"76459399999","2025-01-26T02:40:00","4","23.161356","-106.266072","11.58","GENERAL RAFAEL BUELNA INTERNATIONAL, MX","FM-15","99999","V020","999,9,C,0000,1","22000,1,9,N","016093,1,9,9","+0200,1","+0100,1","10149,1",,,,,,"00,99,1,99,9,99,9,99999,9,99,9,99,9","10163,1,99999,9","2,1,013,1,+999,9",,"MET077METAR MMMZ 260240Z 00000KT 10SM SKC 20/10 A3001 RMK SLP149 52013 908 ISOL SC=",
"76459399999","2025-01-26T03:44:00","4","23.161356","-106.266072","11.58","GENERAL RAFAEL BUELNA INTERNATIONAL, MX","FM-15","99999","V020","999,9,C,0000,1","22000,1,9,N","016093,1,9,9","+0190,1","+0090,1","99999,9",,,,,,"00,99,1,99,9,99,9,99999,9,99,9,99,9","10166,1,99999,9",,,"MET060METAR MMMZ 260344Z 00000KT 10SM SKC 19/09 A3002 RMK ISOL SC=",
"76459399999","2025-01-26T04:42:00","4","23.161356","-106.266072","11.58","GENERAL RAFAEL BUELNA INTERNATIONAL, MX","FM-15","99999","V020","999,9,C,0000,1","22000,1,9,N","016093,1,9,9","+0180,1","+0090,1","99999,9",,,,,,"00,99,1,99,9,99,9,99999,9,99,9,99,9","10169,1,99999,9",,,"MET048METAR MMMZ 260442Z 00000KT 10SM SKC 18/09 A3003=",
"76459399999","2025-01-26T05:41:00","4","23.161356","-106.266072","11.58","GENERAL RAFAEL BUELNA INTERNATIONAL, MX","FM-15","99999","V020","999,9,C,0000,1","22000,1,9,N","016093,1,9,9","+0160,1","+0100,1","10166,1",,,,,,"00,99,1,99,9,99,9,99999,9,99,9,99,9","10169,1,99999,9","2,1,007,1,+999,9",,"MET069METAR MMMZ 260541Z 00000KT 10SM SKC 16/10 A3003 RMK SLP166 52007 914=",
"76459399999","2025-01-26T06:40:00","4","23.161356","-106.266072","11.58","GENERAL RAFAEL BUELNA INTERNATIONAL, MX","FM-15","99999","V020","080,1,N,0015,1","22000,1,9,N","016093,1,9,9","+0150,1","+0090,1","99999,9",,,,,,"00,99,1,99,9,99,9,99999,9,99,9,99,9","10169,1,99999,9",,,"MET048METAR MMMZ 260640Z 08003KT 10SM SKC 15/09 A3003=",
"76459399999","2025-01-26T07:40:00","4","23.161356","-106.266072","11.58","GENERAL RAFAEL BUELNA INTERNATIONAL, MX","FM-15","99999","V020","999,9,C,0000,1","22000,1,9,N","016093,1,9,9","+0150,1","+0090,1","99999,9",,,,,,"00,99,1,99,9,99,9,99999,9,99,9,99,9","10169,1,99999,9",,,"MET048METAR MMMZ 260740Z 00000KT 10SM SKC 15/09 A3003=",
"76459399999","2025-01-26T08:41:00","4","23.161356","-106.266072","11.58","GENERAL RAFAEL BUELNA INTERNATIONAL, MX","FM-15","99999","V020","999,9,C,0000,1","22000,1,9,N","016093,1,9,9","+0150,1","+0080,1","10157,1",,,,,,"00,99,1,99,9,99,9,99999,9,99,9,99,9","10169,1,99999,9","4,1,000,1,+999,9",,"MET069METAR MMMZ 260841Z 00000KT 10SM SKC 15/08 A3003 RMK SLP157 54000 902=",
"76459399999","2025-01-26T09:40:00","4","23.161356","-106.266072","11.58","GENERAL RAFAEL BUELNA INTERNATIONAL, MX","FM-15","99999","V020","999,9,C,0000,1","22000,1,9,N","016093,1,9,9","+0140,1","+0090,1","99999,9",,,,,,"00,99,1,99,9,99,9,99999,9,99,9,99,9","10169,1,99999,9",,,"MET048METAR MMMZ 260940Z 00000KT 10SM SKC 14/09 A3003=",
"76459399999","2025-01-26T10:41:00","4","23.161356","-106.266072","11.58","GENERAL RAFAEL BUELNA INTERNATIONAL, MX","FM-15","99999","V020","999,9,C,0000,1","22000,1,9,N","016093,1,9,9","+0140,1","+0080,1","99999,9",,,,,,"00,99,1,99,9,99,9,99999,9,99,9,99,9","10169,1,99999,9",,,"MET048METAR MMMZ 261041Z 00000KT 10SM SKC 14/08 A3003=",
"76459399999","2025-01-26T11:41:00","4","23.161356","-106.266072","11.58","GENERAL RAFAEL BUELNA INTERNATIONAL, MX","FM-15","99999","V020","999,9,C,0000,1","22000,1,9,N","016093,1,9,9","+0140,1","+0090,1","10162,1",,,,,,"00,99,1,99,9,99,9,99999,9,99,9,99,9","10166,1,99999,9","7,1,003,1,+999,9",,"MET069METAR MMMZ 261141Z 00000KT 10SM SKC 14/09 A3002 RMK SLP162 57003 922=",
"76459399999","2025-01-26T12:42:00","4","23.161356","-106.266072","11.58","GENERAL RAFAEL BUELNA INTERNATIONAL, MX","FM-15","99999","V020","999,9,C,0000,1","22000,1,9,N","016093,1,9,9","+0140,1","+0090,1","99999,9",,,,,,"00,99,1,99,9,99,9,99999,9,99,9,99,9","10173,1,99999,9",,,"MET048METAR MMMZ 261242Z 00000KT 10SM SKC 14/09 A3004=",
"76459399999","2025-01-26T13:42:00","4","23.161356","-106.266072","11.58","GENERAL RAFAEL BUELNA INTERNATIONAL, MX","FM-15","99999","V020","999,9,C,0000,1","99999,9,9,N","019312,1,9,9","+0140,1","+0080,1","99999,9",,"02,1,+02743,1,03,1","02,1,+06706,1,00,1",,"9,AGL   ,+99999,+99999","99,99,9,02,1,99,9,02743,1,99,9,99,9","10179,1,99999,9",,,"MET068METAR MMMZ 261342Z 00000KT 12SM FEW090 FEW220 14/08 A3006 RMK 8/032=",
"76459399999","2025-01-26T14:44:00","4","23.161356","-106.266072","11.58","GENERAL RAFAEL BUELNA INTERNATIONAL, MX","FM-15","99999","V020","060,1,N,0015,1","07620,1,C,N","020921,1,9,9","+0170,1","+0090,1","10183,1",,"07,1,+07620,1,00,1",,,"9,AGL   ,+99999,+99999","99,99,9,07,1,99,9,07620,1,99,9,99,9","10183,1,99999,9","2,1,017,1,+999,9",,"MET082METAR MMMZ 261444Z 06003KT 13SM BKN250 17/09 A3007 RMK SLP183 52017 924 8/004 HZY=",
"76459399999","2025-01-26T15:44:00","4","23.161356","-106.266072","11.58","GENERAL RAFAEL BUELNA INTERNATIONAL, MX","FM-15","99999","V020","999,9,C,0000,1","99999,9,9,N","022531,1,9,9","+0210,1","+0100,1","99999,9",,"04,1,+07620,1,00,1",,,"9,AGL   ,+99999,+99999","99,99,9,04,1,99,9,07620,1,99,9,99,9","10190,1,99999,9",,,"MET069METAR MMMZ 261544Z 00000KT 14SM SCT250 21/10 A3009 RMK 8/004 ISOL AC=",
"76459399999","2025-01-26T16:42:00","4","23.161356","-106.266072","11.58","GENERAL RAFAEL BUELNA INTERNATIONAL, MX","FM-15","99999","V020","999,9,C,0000,1","99999,9,9,N","022531,1,9,9","+0260,1","+0090,1","99999,9",,"04,1,+07620,1,00,1",,,"9,AGL   ,+99999,+99999","99,99,9,04,1,99,9,07620,1,99,9,99,9","10196,1,99999,9",,,"MET069METAR MMMZ 261642Z 00000KT 14SM SCT250 26/09 A3011 RMK 8/002 ISOL AC=",
"76459399999","2025-01-26T17:43:00","4","23.161356","-106.266072","11.58","GENERAL RAFAEL BUELNA INTERNATIONAL, MX","FM-15","99999","V020","999,9,C,0000,1","99999,9,9,N","022531,1,9,9","+0280,1","+0100,1","10187,1",,"04,1,+07620,1,00,1",,,"9,AGL   ,+99999,+99999","99,99,9,04,1,99,9,07620,1,99,9,99,9","10190,1,99999,9","2,1,010,1,+999,9",,"MET088METAR MMMZ 261743Z 00000KT 14SM SCT250 28/10 A3009 RMK SLP187 52010 920 8/004 ISOL CU E=",
"76459399999","2025-01-26T18:45:00","4","23.161356","-106.266072","11.58","GENERAL RAFAEL BUELNA INTERNATIONAL, MX","FM-15","99999","V020","250,1,N,0041,1","99999,9,9,N","024140,1,9,9","+0290,1","+0090,1","99999,9",,"04,1,+07620,1,00,1",,,"9,AGL   ,+99999,+99999","99,99,9,04,1,99,9,07620,1,99,9,99,9","10183,1,99999,9",,,"MET078METAR MMMZ 261845Z 25008KT 15SM SCT250 29/09 A3007 RMK 8/004 ISOL CU 1ST QUAD=",
"76459399999","2025-01-26T19:42:00","4","23.161356","-106.266072","11.58","GENERAL RAFAEL BUELNA INTERNATIONAL, MX","FM-15","99999","V020","290,1,N,0021,1","99999,9,9,N","024140,1,9,9","+0300,1","+0120,1","99999,9",,"02,1,+07620,1,00,1",,,"9,AGL   ,+99999,+99999","99,99,9,02,1,99,9,07620,1,99,9,99,9","10169,1,99999,9",,,"MET078METAR MMMZ 261942Z 29004KT 15SM FEW250 30/12 A3003 RMK 8/002 ISOL CU 1ST QUAD=",
"76459399999","2025-01-26T20:44:00","4","23.161356","-106.266072","11.58","GENERAL RAFAEL BUELNA INTERNATIONAL, MX","FM-15","99999","V020","280,1,N,0046,1","99999,9,9,N","024140,1,9,9","+0310,1","+0060,1","10159,1",,"02,1,+07620,1,00,1",,,"9,AGL   ,+99999,+99999","99,99,9,02,1,99,9,07620,1,99,9,99,9","10159,1,99999,9","7,1,033,1,+999,9",,"MET095METAR MMMZ 262044Z 28009KT 15SM FEW250 31/06 A3000 RMK SLP159 57033 903 8/002 ISOL CU 1ST QUAD=",
"76459399999","2025-01-26T22:42:00","4","23.161356","-106.266072","11.58","GENERAL RAFAEL BUELNA INTERNATIONAL, MX","FM-15","99999","V020","310,1,N,0062,1","99999,9,9,N","024140,1,9,9","+0300,1","+0030,1","99999,9",,"02,1,+07620,1,00,1",,,"9,AGL   ,+99999,+99999","99,99,9,02,1,99,9,07620,1,99,9,99,9","10146,1,99999,9",,,"MET078METAR MMMZ 262242Z 31012KT 15SM FEW250 30/03 A2996 RMK 8/004 ISOL CU 1ST QUAD=",
"76459399999","2025-01-26T23:44:00","4","23.161356","-106.266072","11.58","GENERAL RAFAEL BUELNA INTERNATIONAL, MX","FM-15","99999","V020","310,1,N,0062,1","99999,9,9,N","024140,1,9,9","+0280,1","+0020,1","10142,1",,"02,1,+07620,1,00,1",,,"9,AGL   ,+99999,+99999","99,99,9,02,1,99,9,07620,1,99,9,99,9","10146,1,99999,9","7,1,013,1,+999,9",,"MET078METAR MMMZ 262344Z 31012KT 15SM FEW250 28/02 A2996 RMK SLP142 57013 952 8/002=",
"76459399999","2025-01-27T00:43:00","4","23.161356","-106.266072","11.58","GENERAL RAFAEL BUELNA INTERNATIONAL, MX","FM-15","99999","V020","300,1,N,0031,1","99999,9,9,N","022531,1,9,9","+0270,1","-0010,1","99999,9",,"04,1,+07620,1,00,1",,,"9,AGL   ,+99999,+99999","99,99,9,04,1,99,9,07620,1,99,9,99,9","10149,1,99999,9",,,"MET070METAR MMMZ 270043Z 30006KT 14SM SCT250 27/M01 A2997 RMK 8/002 ISOL AC=",
"76459399999","2025-01-27T01:41:00","4","23.161356","-106.266072","11.58","GENERAL RAFAEL BUELNA INTERNATIONAL, MX","FM-15","99999","V020","350,1,N,0031,1","99999,9,9,N","019312,1,9,9","+0250,1","+0060,1","99999,9",,"04,1,+07620,1,00,1",,,"9,AGL   ,+99999,+99999","99,99,9,04,1,99,9,07620,1,99,9,99,9","10152,1,99999,9",,,"MET069METAR MMMZ 270141Z 35006KT 12SM SCT250 25/06 A2998 RMK 8/002 ISOL AC=",
"76459399999","2025-01-27T03:42:00","4","23.161356","-106.266072","11.58","GENERAL RAFAEL BUELNA INTERNATIONAL, MX","FM-15","99999","V020","999,9,C,0000,1","99999,9,9,N","016093,1,9,9","+0220,1","+0090,1","99999,9",,"02,1,+07315,1,00,1",,,"9,AGL   ,+99999,+99999","99,99,9,02,1,99,9,07315,1,99,9,99,9","10159,1,99999,9",,,"MET061METAR MMMZ 270342Z 00000KT 10SM FEW240 22/09 A3000 RMK 8/002=",
"76459399999","2025-01-27T04:41:00","4","23.161356","-106.266072","11.58","GENERAL RAFAEL BUELNA INTERNATIONAL, MX","FM-15","99999","V020","290,1,N,0036,1","99999,9,9,N","016093,1,9,9","+0200,1","+0100,1","99999,9",,"02,1,+07315,1,00,1",,,"9,AGL   ,+99999,+99999","99,99,9,02,1,99,9,07315,1,99,9,99,9","10163,1,99999,9",,,"MET069METAR MMMZ 270441Z 29007KT 10SM FEW240 20/10 A3001 RMK 8/002 ISOL AC=",
"76459399999","2025-01-27T05:40:00","4","23.161356","-106.266072","11.58","GENERAL RAFAEL BUELNA INTERNATIONAL, MX","FM-15","99999","V020","320,1,N,0026,1","99999,9,9,N","016093,1,9,9","+0200,1","+0110,1","10156,1",,"02,1,+07315,1,00,1",,,"9,AGL   ,+99999,+99999","99,99,9,02,1,99,9,07315,1,99,9,99,9","10159,1,99999,9","2,1,003,1,+999,9",,"MET078METAR MMMZ 270540Z 32005KT 10SM FEW240 20/11 A3000 RMK SLP156 52003 960 8/002=",
"76459399999","2025-01-27T06:42:00","4","23.161356","-106.266072","11.58","GENERAL RAFAEL BUELNA INTERNATIONAL, MX","FM-15","99999","V020","999,9,C,0000,1","99999,9,9,N","016093,1,9,9","+0170,1","+0100,1","99999,9",,"02,1,+07315,1,00,1",,,"9,AGL   ,+99999,+99999","99,99,9,02,1,99,9,07315,1,99,9,99,9","10163,1,99999,9",,,"MET061METAR MMMZ 270642Z 00000KT 10SM FEW240 17/10 A3001 RMK 8/002=",
"76459399999","2025-01-27T07:40:00","4","23.161356","-106.266072","11.58","GENERAL RAFAEL BUELNA INTERNATIONAL, MX","FM-15","99999","V020","999,9,C,0000,1","99999,9,9,N","016093,1,9,9","+0160,1","+0090,1","99999,9",,"02,1,+07315,1,00,1",,,"9,AGL   ,+99999,+99999","99,99,9,02,1,99,9,07315,1,99,9,99,9","10159,1,99999,9",,,"MET061METAR MMMZ 270740Z 00000KT 10SM FEW240 16/09 A3000 RMK 8/002=",
"76459399999","2025-01-27T08:44:00","4","23.161356","-106.266072","11.58","GENERAL RAFAEL BUELNA INTERNATIONAL, MX","FM-15","99999","V020","130,1,N,0021,1","99999,9,9,N","016093,1,9,9","+0150,1","+0100,1","10156,1",,"02,1,+07315,1,00,1",,,"9,AGL   ,+99999,+99999","99,99,9,02,1,99,9,07315,1,99,9,99,9","10156,1,99999,9","7,1,003,1,+999,9",,"MET078METAR MMMZ 270844Z 13004KT 10SM FEW240 15/10 A2999 RMK SLP156 57003 902 8/002=",
"76459399999","2025-01-27T09:40:00","4","23.161356","-106.266072","11.58","GENERAL RAFAEL BUELNA INTERNATIONAL, MX","FM-15","99999","V020","999,9,C,0000,1","07315,1,C,N","016093,1,9,9","+0160,1","+0090,1","99999,9",,"04,1,+02743,1,03,1","04,1,+07315,1,00,1",,"9,AGL   ,+99999,+99999","99,99,9,04,1,99,9,02743,1,99,9,99,9","10152,1,99999,9",,,"MET068METAR MMMZ 270940Z 00000KT 10SM SCT090 SCT240 16/09 A2998 RMK 8/032=",
"76459399999","2025-01-27T10:41:00","4","23.161356","-106.266072","11.58","GENERAL RAFAEL BUELNA INTERNATIONAL, MX","FM-15","99999","V020","999,9,C,0000,1","07315,1,C,N","016093,1,9,9","+0150,1","+0090,1","99999,9",,"02,1,+02743,1,03,1","04,1,+07315,1,00,1",,"9,AGL   ,+99999,+99999","99,99,9,02,1,99,9,02743,1,99,9,99,9","10149,1,99999,9",,,"MET068METAR MMMZ 271041Z 00000KT 10SM FEW090 SCT240 15/09 A2997 RMK 8/032=",
"76459399999","2025-01-27T11:45:00","4","23.161356","-106.266072","11.58","GENERAL RAFAEL BUELNA INTERNATIONAL, MX","FM-15","99999","V020","999,9,C,0000,1","99999,9,9,N","016093,1,9,9","+0150,1","+0080,1","10143,1",,"02,1,+07315,1,00,1",,,"9,AGL   ,+99999,+99999","99,99,9,02,1,99,9,07315,1,99,9,99,9","10149,1,99999,9","7,1,007,1,+999,9",,"MET078METAR MMMZ 271145Z 00000KT 10SM FEW240 15/08 A2997 RMK SLP143 57007 969 8/002=",
"76459399999","2025-01-27T12:45:00","4","23.161356","-106.266072","11.58","GENERAL RAFAEL BUELNA INTERNATIONAL, MX","FM-15","99999","V020","999,9,C,0000,1","06706,1,9,N","016093,1,9,9","+0150,1","+0090,1","99999,9",,"04,1,+02438,1,03,1","08,1,+06706,1,02,1",,"9,AGL   ,+99999,+99999","99,99,9,04,1,99,9,02438,1,99,9,99,9","10149,1,99999,9",,,"MET068METAR MMMZ 271245Z 00000KT 10SM SCT080 OVC220 15/09 A2997 RMK 8/077=",
"76459399999","2025-01-27T13:43:00","4","23.161356","-106.266072","11.58","GENERAL RAFAEL BUELNA INTERNATIONAL, MX","FM-15","99999","V020","999,9,C,0000,1","06706,1,C,N","022531,1,9,9","+0160,1","+0090,1","99999,9",,"08,1,+06706,1,02,1",,,"9,AGL   ,+99999,+99999","99,99,9,08,1,99,9,06706,1,99,9,99,9","10156,1,99999,9",,,"MET068METAR MMMZ 271343Z 00000KT 14SM OVC220 16/09 A2999 RMK 8/007 BINOVC=",
"76459399999","2025-01-27T14:42:00","4","23.161356","-106.266072","11.58","GENERAL RAFAEL BUELNA INTERNATIONAL, MX","FM-15","99999","V020","999,9,C,0000,1","07010,1,9,N","022531,1,9,9","+0160,1","+0110,1","10159,1",,"04,1,+03048,1,05,1","08,1,+07010,1,02,1",,"9,AGL   ,+99999,+99999","99,99,9,04,1,99,9,03048,1,99,9,99,9","10159,1,99999,9","2,1,010,1,+999,9",,"MET092METAR MMMZ 271442Z 00000KT 14SM SCT100 OVC230 16/11 A3000 RMK SLP159 52010 974 8/027 BINOVC=",
"76459399999","2025-01-27T15:43:00","4","23.161356","-106.266072","11.58","GENERAL RAFAEL BUELNA INTERNATIONAL, MX","FM-15","99999","V020","999,9,C,0000,1","07315,1,C,N","022531,1,9,9","+0190,1","+0110,1","99999,9",,"07,1,+07315,1,02,1",,,"9,AGL   ,+99999,+99999","99,99,9,07,1,99,9,07315,1,99,9,99,9","10169,1,99999,9",,,"MET069METAR MMMZ 271543Z 00000KT 14SM BKN240 19/11 A3003 RMK 8/008 ISOL AS=",
"76459399999","2025-01-27T16:41:00","4","23.161356","-106.266072","11.58","GENERAL RAFAEL BUELNA INTERNATIONAL, MX","FM-15","99999","V020","999,9,C,0000,1","99999,9,9,N","022531,1,9,9","+0250,1","+0120,1","99999,9",,"04,1,+07315,1,00,1",,,"9,AGL   ,+99999,+99999","99,99,9,04,1,99,9,07315,1,99,9,99,9","10169,1,99999,9",,,"MET061METAR MMMZ 271641Z 00000KT 14SM SCT240 25/12 A3003 RMK 8/002=",
"76459399999","2025-01-27T17:43:00","4","23.161356","-106.266072","11.58","GENERAL RAFAEL BUELNA INTERNATIONAL, MX","FM-15","99999","V020","999,9,C,0000,1","99999,9,9,N","024140,1,9,9","+0260,1","+0100,1","10161,1",,"04,1,+07315,1,00,1",,,"9,AGL   ,+99999,+99999","99,99,9,04,1,99,9,07315,1,99,9,99,9","10166,1,99999,9","2,1,007,1,+999,9",,"MET078METAR MMMZ 271743Z 00000KT 15SM SCT240 26/10 A3002 RMK SLP161 52007 976 8/002=",
"76459399999","2025-01-27T18:42:00","4","23.161356","-106.266072","11.58","GENERAL RAFAEL BUELNA INTERNATIONAL, MX","FM-15","99999","V020","250,1,N,0031,1","99999,9,9,N","022531,1,9,9","+0290,1","+0120,1","99999,9",,"04,1,+07315,1,00,1",,,"9,AGL   ,+99999,+99999","99,99,9,04,1,99,9,07315,1,99,9,99,9","10156,1,99999,9",,,"MET061METAR MMMZ 271842Z 25006KT 14SM SCT240 29/12 A2999 RMK 8/002=",
"76459399999","2025-01-27T19:42:00","4","23.161356","-106.266072","11.58","GENERAL RAFAEL BUELNA INTERNATIONAL, MX","FM-15","99999","V020","290,1,N,0046,1","07315,1,C,N","022531,1,9,9","+0280,1","+0100,1","99999,9",,"07,1,+07315,1,00,1",,,"9,AGL   ,+99999,+99999","99,99,9,07,1,99,9,07315,1,99,9,99,9","10146,1,99999,9",,,"MET061METAR MMMZ 271942Z 29009KT 14SM BKN240 28/10 A2996 RMK 8/002=",
"76459399999","2025-01-27T20:43:00","4","23.161356","-106.266072","11.58","GENERAL RAFAEL BUELNA INTERNATIONAL, MX","FM-15","99999","V020","300,1,N,0051,1","99999,9,9,N","022531,1,9,9","+0300,1","+0100,1","10135,1",,"04,1,+07315,1,00,1",,,"9,AGL   ,+99999,+99999","99,99,9,04,1,99,9,07315,1,99,9,99,9","10135,1,99999,9","7,1,030,1,+999,9",,"MET078METAR MMMZ 272043Z 30010KT 14SM SCT240 30/10 A2993 RMK SLP135 57030 974 8/002=",
"76459399999","2025-01-27T21:40:00","4","23.161356","-106.266072","11.58","GENERAL RAFAEL BUELNA INTERNATIONAL, MX","FM-15","99999","V020","300,1,N,0062,1","07315,1,C,N","024140,1,9,9","+0300,1","+0100,1","99999,9",,"02,1,+03048,1,03,1","04,1,+07315,1,00,1",,"9,AGL   ,+99999,+99999","99,99,9,02,1,99,9,03048,1,99,9,99,9","10125,1,99999,9",,,"MET068METAR MMMZ 272140Z 30012KT 15SM FEW100 SCT240 30/10 A2990 RMK 8/032=",
"76459399999","2025-01-27T22:40:00","4","23.161356","-106.266072","11.58","GENERAL RAFAEL BUELNA INTERNATIONAL, MX","FM-15","99999","V020","320,1,N,0067,1","07315,1,9,N","020921,1,9,9","+0280,1","+0120,1","99999,9",,"04,1,+03048,1,03,1","07,1,+07315,1,00,1",,"9,AGL   ,+99999,+99999","99,99,9,04,1,99,9,03048,1,99,9,99,9","10122,1,99999,9",,,"MET068METAR MMMZ 272240Z 32013KT 13SM SCT100 BKN240 28/12 A2989 RMK 8/032=",
"76459399999","2025-01-27T23:44:00","4","23.161356","-106.266072","11.58","GENERAL RAFAEL BUELNA INTERNATIONAL, MX","FM-15","99999","V020","310,1,N,0072,1","07315,1,9,N","020921,1,9,9","+0260,1","+0120,1","10109,1",,"04,1,+03048,1,03,1","07,1,+07315,1,00,1",,"9,AGL   ,+99999,+99999","99,99,9,04,1,99,9,03048,1,99,9,99,9","10125,1,99999,9","2,1,007,1,+999,9",,"MET085METAR MMMZ 272344Z 31014KT 13SM SCT100 BKN240 26/12 A2990 RMK SLP109 52007 983 8/032=",
"76459399999","2025-01-28T00:40:00","4","23.161356","-106.266072","11.58","GENERAL RAFAEL BUELNA INTERNATIONAL, MX","FM-15","99999","V020","320,1,N,0031,1","06706,1,9,N","020921,1,9,9","+0250,1","+0120,1","99999,9",,"02,1,+03048,1,03,1","07,1,+06706,1,00,1",,"9,AGL   ,+99999,+99999","99,99,9,02,1,99,9,03048,1,99,9,99,9","10125,1,99999,9",,,"MET068METAR MMMZ 280040Z 32006KT 13SM FEW100 BKN220 25/12 A2990 RMK 8/032=",
"76459399999","2025-01-28T01:43:00","4","23.161356","-106.266072","11.58","GENERAL RAFAEL BUELNA INTERNATIONAL, MX","FM-15","99999","V020","999,9,C,0000,1","06706,1,9,N","016093,1,9,9","+0230,1","+0120,1","99999,9",,"02,1,+03048,1,03,1","07,1,+06706,1,00,1",,"9,AGL   ,+99999,+99999","99,99,9,02,1,99,9,03048,1,99,9,99,9","10125,1,99999,9",,,"MET068METAR MMMZ 280143Z 00000KT 10SM FEW100 BKN220 23/12 A2990 RMK 8/032=",
"76459399999","2025-01-28T02:41:00","4","23.161356","-106.266072","11.58","GENERAL RAFAEL BUELNA INTERNATIONAL, MX","FM-15","99999","V020","999,9,C,0000,1","06706,1,9,N","016093,1,9,9","+0210,1","+0120,1","10119,1",,"02,1,+03048,1,03,1","07,1,+06706,1,00,1",,"9,AGL   ,+99999,+99999","99,99,9,02,1,99,9,03048,1,99,9,99,9","10132,1,99999,9","7,1,007,1,+999,9",,"MET085METAR MMMZ 280241Z 00000KT 10SM FEW100 BKN220 21/12 A2992 RMK SLP119 57007 986 8/032=",
"76459399999","2025-01-28T03:41:00","4","23.161356","-106.266072","11.58","GENERAL RAFAEL BUELNA INTERNATIONAL, MX","FM-15","99999","V020","310,1,N,0015,1","06706,1,9,N","016093,1,9,9","+0210,1","+0120,1","99999,9",,"04,1,+03048,1,03,1","07,1,+06706,1,00,1",,"9,AGL   ,+99999,+99999","99,99,9,04,1,99,9,03048,1,99,9,99,9","10139,1,99999,9",,,"MET068METAR MMMZ 280341Z 31003KT 10SM SCT100 BKN220 21/12 A2994 RMK 8/032=",
"76459399999","2025-01-28T04:41:00","4","23.161356","-106.266072","11.58","GENERAL RAFAEL BUELNA INTERNATIONAL, MX","FM-15","99999","V020","999,9,C,0000,1","06706,1,9,N","016093,1,9,9","+0180,1","+0130,1","99999,9",,"02,1,+03048,1,03,1","07,1,+06706,1,00,1",,"9,AGL   ,+99999,+99999","99,99,9,02,1,99,9,03048,1,99,9,99,9","10142,1,99999,9",,,"MET068METAR MMMZ 280441Z 00000KT 10SM FEW100 BKN220 18/13 A2995 RMK 8/032=",
"76459399999","2025-01-28T05:41:00","4","23.161356","-106.266072","11.58","GENERAL RAFAEL BUELNA INTERNATIONAL, MX","FM-15","99999","V020","999,9,C,0000,1","06706,1,9,N","016093,1,9,9","+0160,1","+0110,1","10138,1",,"04,1,+03048,1,03,1","07,1,+06706,1,00,1",,"9,AGL   ,+99999,+99999","99,99,9,04,1,99,9,03048,1,99,9,99,9","10142,1,99999,9","2,1,010,1,+999,9",,"MET085METAR MMMZ 280541Z 00000KT 10SM SCT100 BKN220 16/11 A2995 RMK SLP138 52010 968 8/032=",
"76459399999","2025-01-28T06:46:00","4","23.161356","-106.266072","11.58","GENERAL RAFAEL BUELNA INTERNATIONAL, MX","FM-15","99999","V020","999,9,C,0000,1","06706,1,9,N","016093,1,9,9","+0160,1","+0120,1","99999,9",,"04,1,+02743,1,03,1","08,1,+06706,1,02,1",,"9,AGL   ,+99999,+99999","99,99,9,04,1,99,9,02743,1,99,9,99,9","10139,1,99999,9",,,"MET068METAR MMMZ 280646Z 00000KT 10SM SCT090 OVC220 16/12 A2994 RMK 8/077=",
"76459399999","2025-01-28T08:41:00","4","23.161356","-106.266072","11.58","GENERAL RAFAEL BUELNA INTERNATIONAL, MX","FM-15","99999","V020","999,9,C,0000,1","06706,1,9,N","016093,1,9,9","+0160,1","+0120,1","10120,1",,"04,1,+02743,1,03,1","07,1,+06706,1,00,1",,"9,AGL   ,+99999,+99999","99,99,9,04,1,99,9,02743,1,99,9,99,9","10132,1,99999,9","7,1,007,1,+999,9",,"MET085METAR MMMZ 280841Z 00000KT 10SM SCT090 BKN220 16/12 A2992 RMK SLP120 57007 985 8/032=",
"76459399999","2025-01-28T09:41:00","4","23.161356","-106.266072","11.58","GENERAL RAFAEL BUELNA INTERNATIONAL, MX","FM-15","99999","V020","999,9,C,0000,1","06706,1,9,N","016093,1,9,9","+0150,1","+0120,1","99999,9",,"04,1,+02743,1,03,1","07,1,+06706,1,00,1",,"9,AGL   ,+99999,+99999","99,99,9,04,1,99,9,02743,1,99,9,99,9","10129,1,99999,9",,,"MET068METAR MMMZ 280941Z 00000KT 10SM SCT090 BKN220 15/12 A2991 RMK 8/032=",
"76459399999","2025-01-28T10:40:00","4","23.161356","-106.266072","11.58","GENERAL RAFAEL BUELNA INTERNATIONAL, MX","FM-15","99999","V020","999,9,C,0000,1","06706,1,9,N","016093,1,9,9","+0140,1","+0120,1","99999,9",,"04,1,+03048,1,03,1","07,1,+06706,1,00,1",,"9,AGL   ,+99999,+99999","99,99,9,04,1,99,9,03048,1,99,9,99,9","10125,1,99999,9",,,"MET068METAR MMMZ 281040Z 00000KT 10SM SCT100 BKN220 14/12 A2990 RMK 8/032=",
"76459399999","2025-01-28T11:43:00","4","23.161356","-106.266072","11.58","GENERAL RAFAEL BUELNA INTERNATIONAL, MX","FM-15","99999","V020","999,9,C,0000,1","06706,1,C,N","016093,1,9,9","+0140,1","+0120,1","10116,1",,"07,1,+06706,1,00,1",,,"9,AGL   ,+99999,+99999","99,99,9,07,1,99,9,06706,1,99,9,99,9","10122,1,99999,9","7,1,013,1,+999,9",,"MET078METAR MMMZ 281143Z 00000KT 10SM BKN220 14/12 A2989 RMK SLP116 57013 977 8/002=",
"76459399999","2025-01-28T12:40:00","4","23.161356","-106.266072","11.58","GENERAL RAFAEL BUELNA INTERNATIONAL, MX","FM-15","99999","V020","999,9,C,0000,1","06706,1,C,N","016093,1,9,9","+0130,1","+0110,1","99999,9",,"07,1,+06706,1,00,1",,,"9,AGL   ,+99999,+99999","99,99,9,07,1,99,9,06706,1,99,9,99,9","10125,1,99999,9",,,"MET061METAR MMMZ 281240Z 00000KT 10SM BKN220 13/11 A2990 RMK 8/002=",
"76459399999","2025-01-28T13:48:00","4","23.161356","-106.266072","11.58","GENERAL RAFAEL BUELNA INTERNATIONAL, MX","FM-15","99999","V020","999,9,C,0000,1","07315,1,9,N","019312,1,9,9","+0130,1","+0110,1","99999,9",,"02,1,+03048,1,03,1","07,1,+07315,1,00,1",,"9,AGL   ,+99999,+99999","99,99,9,02,1,99,9,03048,1,99,9,99,9","10132,1,99999,9",,,"MET068METAR MMMZ 281348Z 00000KT 12SM FEW100 BKN240 13/11 A2992 RMK 8/032=",
"76459399999","2025-01-28T14:40:00","4","23.161356","-106.266072","11.58","GENERAL RAFAEL BUELNA INTERNATIONAL, MX","FM-15","99999","V020","999,9,C,0000,1","07315,1,9,N","022531,1,9,9","+0160,1","+0130,1","10135,1",,"02,1,+03048,1,03,1","07,1,+07315,1,02,1",,"9,AGL   ,+99999,+99999","99,99,9,02,1,99,9,03048,1,99,9,99,9","10139,1,99999,9","2,1,003,1,+999,9",,"MET085METAR MMMZ 281440Z 00000KT 14SM FEW100 BKN240 16/13 A2994 RMK SLP135 52003 974 8/038=",
"76459399999","2025-01-28T15:46:00","4","23.161356","-106.266072","11.58","GENERAL RAFAEL BUELNA INTERNATIONAL, MX","FM-15","99999","V020","999,9,C,0000,1","07315,1,9,N","022531,1,9,9","+0210,1","+0140,1","99999,9",,"02,1,+03048,1,03,1","07,1,+07315,1,02,1",,"9,AGL   ,+99999,+99999","99,99,9,02,1,99,9,03048,1,99,9,99,9","10146,1,99999,9",,,"MET068METAR MMMZ 281546Z 00000KT 14SM FEW100 BKN240 21/14 A2996 RMK 8/038=",
"76459399999","2025-01-28T16:43:00","4","23.161356","-106.266072","11.58","GENERAL RAFAEL BUELNA INTERNATIONAL, MX","FM-15","99999","V020","999,9,C,0000,1","07315,1,9,N","022531,1,9,9","+0230,1","+0130,1","99999,9",,"02,1,+03048,1,03,1","08,1,+07315,1,02,1",,"9,AGL   ,+99999,+99999","99,99,9,02,1,99,9,03048,1,99,9,99,9","10149,1,99999,9",,,"MET068METAR MMMZ 281643Z 00000KT 14SM FEW100 OVC240 23/13 A2997 RMK 8/037=",
"76459399999","2025-01-28T17:44:00","4","23.161356","-106.266072","11.58","GENERAL RAFAEL BUELNA INTERNATIONAL, MX","FM-15","99999","V020","999,9,C,0000,1","07315,1,9,N","022531,1,9,9","+0250,1","+0140,1","10142,1",,"02,1,+03353,1,03,1","08,1,+07315,1,02,1",,"9,AGL   ,+99999,+99999","99,99,9,02,1,99,9,03353,1,99,9,99,9","10149,1,99999,9","2,1,010,1,+999,9",,"MET085METAR MMMZ 281744Z 00000KT 14SM FEW110 OVC240 25/14 A2997 RMK SLP142 52010 968 8/077=",
"76459399999","2025-01-28T18:45:00","4","23.161356","-106.266072","11.58","GENERAL RAFAEL BUELNA INTERNATIONAL, MX","FM-15","99999","V020","300,1,N,0041,1","07315,1,9,N","022531,1,9,9","+0270,1","+0150,1","99999,9",,"02,1,+03353,1,03,1","07,1,+07315,1,02,1",,"9,AGL   ,+99999,+99999","99,99,9,02,1,99,9,03353,1,99,9,99,9","10139,1,99999,9",,,"MET068METAR MMMZ 281845Z 30008KT 14SM FEW110 BKN240 27/15 A2994 RMK 8/078=",
"76459399999","2025-01-28T19:47:00","4","23.161356","-106.266072","11.58","GENERAL RAFAEL BUELNA INTERNATIONAL, MX","FM-15","99999","V020","280,1,N,0026,1","07315,1,9,N","022531,1,9,9","+0280,1","+0150,1","99999,9",,"02,1,+03353,1,03,1","07,1,+07315,1,02,1",,"9,AGL   ,+99999,+99999","99,99,9,02,1,99,9,03353,1,99,9,99,9","10125,1,99999,9",,,"MET076METAR MMMZ 281947Z 28005KT 14SM FEW110 BKN240 28/15 A2990 RMK 8/078 ISOL CC=",
"76459399999","2025-01-28T20:43:00","4","23.161356","-106.266072","11.58","GENERAL RAFAEL BUELNA INTERNATIONAL, MX","FM-15","99999","V020","290,1,N,0072,1","07315,1,9,N","022531,1,9,9","+0280,1","+0100,1","10122,1",,"04,1,+03353,1,03,1","07,1,+07315,1,00,1",,"9,AGL   ,+99999,+99999","99,99,9,04,1,99,9,03353,1,99,9,99,9","10122,1,99999,9","7,1,027,1,+999,9",,"MET085METAR MMMZ 282043Z 29014KT 14SM SCT110 BKN240 28/10 A2989 RMK SLP122 57027 964 8/032=",
"76459399999","2025-01-28T21:42:00","4","23.161356","-106.266072","11.58","GENERAL RAFAEL BUELNA INTERNATIONAL, MX","FM-15","99999","V020","310,1,N,0067,1","03353,1,C,N","022531,1,9,9","+0280,1","+0120,1","99999,9",,"07,1,+03353,1,03,1",,,"9,AGL   ,+99999,+99999","99,99,9,07,1,99,9,03353,1,99,9,99,9","10112,1,99999,9",,,"MET069METAR MMMZ 282142Z 31013KT 14SM BKN110 28/12 A2986 RMK 8/050 ISOL CI=",
"76459399999","2025-01-28T22:41:00","4","23.161356","-106.266072","11.58","GENERAL RAFAEL BUELNA INTERNATIONAL, MX","FM-15","99999","V020","310,1,N,0062,1","03353,1,C,N","022531,1,9,9","+0270,1","+0130,1","99999,9",,"07,1,+03353,1,03,1",,,"9,AGL   ,+99999,+99999","99,99,9,07,1,99,9,03353,1,99,9,99,9","10108,1,99999,9",,,"MET069METAR MMMZ 282241Z 31012KT 14SM BKN110 27/13 A2985 RMK 8/050 ISOL CI=",
"76459399999","2025-01-28T23:43:00","4","23.161356","-106.266072","11.58","GENERAL RAFAEL BUELNA INTERNATIONAL, MX","FM-15","99999","V020","320,1,N,0057,1","03353,1,C,N","022531,1,9,9","+0230,1","+0100,1","10108,1",,"07,1,+03353,1,03,1",,,"9,AGL   ,+99999,+99999","99,99,9,07,1,99,9,03353,1,99,9,99,9","10115,1,99999,9","7,1,007,1,+999,9",,"MET078METAR MMMZ 282343Z 32011KT 14SM BKN110 23/10 A2987 RMK SLP108 57007 961 8/050=",
"76459399999","2025-01-29T00:43:00","4","23.161356","-106.266072","11.58","GENERAL RAFAEL BUELNA INTERNATIONAL, MX","FM-15","99999","V020","310,1,N,0036,1","03048,1,C,N","022531,1,9,9","+0220,1","+0100,1","99999,9",,"07,1,+03048,1,03,1",,,"9,AGL   ,+99999,+99999","99,99,9,07,1,99,9,03048,1,99,9,99,9","10118,1,99999,9",,,"MET061METAR MMMZ 290043Z 31007KT 14SM BKN100 22/10 A2988 RMK 8/050=",
"76459399999","2025-01-29T01:41:00","4","23.161356","-106.266072","11.58","GENERAL RAFAEL BUELNA INTERNATIONAL, MX","FM-15","99999","V020","330,1,N,0026,1","99999,9,9,N","019312,1,9,9","+0210,1","+0100,1","99999,9",,"04,1,+03048,1,03,1",,,"9,AGL   ,+99999,+99999","99,99,9,04,1,99,9,03048,1,99,9,99,9","10122,1,99999,9",,,"MET061METAR MMMZ 290141Z 33005KT 12SM SCT100 21/10 A2989 RMK 8/030=",
"76459399999","2025-01-29T02:42:00","4","23.161356","-106.266072","11.58","GENERAL RAFAEL BUELNA INTERNATIONAL, MX","FM-15","99999","V020","999,9,C,0000,1","07315,1,C,N","016093,1,9,9","+0190,1","+0100,1","10128,1",,"02,1,+02743,1,03,1","04,1,+07315,1,00,1",,"9,AGL   ,+99999,+99999","99,99,9,02,1,99,9,02743,1,99,9,99,9","10129,1,99999,9","2,1,013,1,+999,9",,"MET085METAR MMMZ 290242Z 00000KT 10SM FEW090 SCT240 19/10 A2991 RMK SLP128 52013 909 8/032=",
"76459399999","2025-01-29T03:41:00","4","23.161356","-106.266072","11.58","GENERAL RAFAEL BUELNA INTERNATIONAL, MX","FM-15","99999","V020","290,1,N,0026,1","07315,1,9,N","016093,1,9,9","+0190,1","+0120,1","99999,9",,"04,1,+02743,1,03,1","07,1,+07315,1,00,1",,"9,AGL   ,+99999,+99999","99,99,9,04,1,99,9,02743,1,99,9,99,9","10132,1,99999,9",,,"MET068METAR MMMZ 290341Z 29005KT 10SM SCT090 BKN240 19/12 A2992 RMK 8/032=",
"76459399999","2025-01-29T04:43:00","4","23.161356","-106.266072","11.58","GENERAL RAFAEL BUELNA INTERNATIONAL, MX","FM-15","99999","V020","290,1,N,0021,1","07315,1,9,N","016093,1,9,9","+0190,1","+0130,1","99999,9",,"04,1,+02743,1,03,1","07,1,+07315,1,00,1",,"9,AGL   ,+99999,+99999","99,99,9,04,1,99,9,02743,1,99,9,99,9","10139,1,99999,9",,,"MET068METAR MMMZ 290443Z 29004KT 10SM SCT090 BKN240 19/13 A2994 RMK 8/032=",
"76459399999","2025-01-29T05:45:00","4","23.161356","-106.266072","11.58","GENERAL RAFAEL BUELNA INTERNATIONAL, MX","FM-15","99999","V020","999,9,C,0000,1","07315,1,9,N","012875,1,9,9","+0170,1","+0140,1","10137,1",,"04,1,+02743,1,03,1","07,1,+07315,1,00,1",,"9,AGL   ,+99999,+99999","99,99,9,04,1,99,9,02743,1,99,9,99,9","10142,1,99999,9","2,1,013,1,+999,9",,"MET084METAR MMMZ 290545Z 00000KT 8SM SCT090 BKN240 17/14 A2995 RMK SLP137 52013 951 8/032=",
"76459399999","2025-01-29T06:41:00","4","23.161356","-106.266072","11.58","GENERAL RAFAEL BUELNA INTERNATIONAL, MX","FM-15","99999","V020","999,9,C,0000,1","07315,1,9,N","012875,1,9,9","+0180,1","+0150,1","99999,9",,"04,1,+02743,1,03,1","07,1,+07315,1,00,1",,"9,AGL   ,+99999,+99999","99,99,9,04,1,99,9,02743,1,99,9,99,9","10142,1,99999,9",,,"MET067METAR MMMZ 290641Z 00000KT 8SM SCT090 BKN240 18/15 A2995 RMK 8/032=",
"76459399999","2025-01-29T07:43:00","4","23.161356","-106.266072","11.58","GENERAL RAFAEL BUELNA INTERNATIONAL, MX","FM-15","99999","V020","999,9,C,0000,1","07315,1,9,N","012875,1,9,9","+0170,1","+0140,1","99999,9",,"04,1,+02743,1,03,1","07,1,+07315,1,00,1",,"9,AGL   ,+99999,+99999","99,99,9,04,1,99,9,02743,1,99,9,99,9","10139,1,99999,9",,,"MET067METAR MMMZ 290743Z 00000KT 8SM SCT090 BKN240 17/14 A2994 RMK 8/032=",
"76459399999","2025-01-29T08:46:00","4","23.161356","-106.266072","11.58","GENERAL RAFAEL BUELNA INTERNATIONAL, MX","FM-15","99999","V020","999,9,C,0000,1","07315,1,C,N","012875,1,9,9","+0160,1","+0120,1","10135,1",,"02,1,+02743,1,03,1","04,1,+07315,1,00,1",,"9,AGL   ,+99999,+99999","99,99,9,02,1,99,9,02743,1,99,9,99,9","10135,1,99999,9","7,1,007,1,+999,9",,"MET084METAR MMMZ 290846Z 00000KT 8SM FEW090 SCT240 16/12 A2993 RMK SLP135 57007 915 8/052=",
"76459399999","2025-01-29T09:48:00","4","23.161356","-106.266072","11.58","GENERAL RAFAEL BUELNA INTERNATIONAL, MX","FM-15","99999","V020","999,9,C,0000,1","07315,1,C,N","012875,1,9,9","+0150,1","+0120,1","99999,9",,"02,1,+02743,1,03,1","04,1,+07315,1,00,1",,"9,AGL   ,+99999,+99999","99,99,9,02,1,99,9,02743,1,99,9,99,9","10132,1,99999,9",,,"MET067METAR MMMZ 290948Z 00000KT 8SM FEW090 SCT240 15/12 A2992 RMK 8/052=",
"76459399999","2025-01-29T10:51:00","4","23.161356","-106.266072","11.58","GENERAL RAFAEL BUELNA INTERNATIONAL, MX","FM-15","99999","V020","999,9,C,0000,1","07315,1,C,N","012875,1,9,9","+0130,1","+0110,1","99999,9",,"02,1,+02743,1,03,1","04,1,+07315,1,00,1",,"9,AGL   ,+99999,+99999","99,99,9,02,1,99,9,02743,1,99,9,99,9","10135,1,99999,9",,,"MET067METAR MMMZ 291051Z 00000KT 8SM FEW090 SCT240 13/11 A2993 RMK 8/052=",
"76459399999","2025-01-29T11:48:00","4","23.161356","-106.266072","11.58","GENERAL RAFAEL BUELNA INTERNATIONAL, MX","FM-15","99999","V020","999,9,C,0000,1","07315,1,C,N","012875,1,9,9","+0140,1","+0110,1","10132,1",,"02,1,+02743,1,03,1","04,1,+07315,1,00,1",,"9,AGL   ,+99999,+99999","99,99,9,02,1,99,9,02743,1,99,9,99,9","10139,1,99999,9","4,1,000,1,+999,9",,"MET084METAR MMMZ 291148Z 00000KT 8SM FEW090 SCT240 14/11 A2994 RMK SLP132 54000 916 8/052=",
"76459399999","2025-01-29T12:47:00","4","23.161356","-106.266072","11.58","GENERAL RAFAEL BUELNA INTERNATIONAL, MX","FM-15","99999","V020","999,9,C,0000,1","07315,1,9,N","012875,1,9,9","+0140,1","+0110,1","99999,9",,"04,1,+02743,1,03,1","07,1,+07315,1,02,1",,"9,AGL   ,+99999,+99999","99,99,9,04,1,99,9,02743,1,99,9,99,9","10146,1,99999,9",,,"MET067METAR MMMZ 291247Z 00000KT 8SM SCT090 BKN240 14/11 A2996 RMK 8/058=",
"76459399999","2025-01-29T13:46:00","4","23.161356","-106.266072","11.58","GENERAL RAFAEL BUELNA INTERNATIONAL, MX","FM-15","99999","V020","300,1,N,0015,1","02743,1,C,N","016093,1,9,9","+0140,1","+0120,1","99999,9",,"07,1,+02743,1,03,1","07,1,+07315,1,00,1",,"9,AGL   ,+99999,+99999","99,99,9,07,1,99,9,02743,1,99,9,99,9","10152,1,99999,9",,,"MET068METAR MMMZ 291346Z 30003KT 10SM BKN090 BKN240 14/12 A2998 RMK 8/032=",
"76459399999","2025-01-29T14:48:00","4","23.161356","-106.266072","11.58","GENERAL RAFAEL BUELNA INTERNATIONAL, MX","FM-15","99999","V020","999,9,C,0000,1","02743,1,C,N","022531,1,9,9","+0140,1","+0120,1","10159,1",,"07,1,+02743,1,03,1",,,"9,AGL   ,+99999,+99999","99,99,9,07,1,99,9,02743,1,99,9,99,9","10159,1,99999,9","2,1,023,1,+999,9",,"MET093METAR MMMZ 291448Z 00000KT 14SM BKN090 14/12 A3000 RMK SLP159 52023 924 8/030 FULYR 3RD QUAD=",
"76459399999","2025-01-29T15:46:00","4","23.161356","-106.266072","11.58","GENERAL RAFAEL BUELNA INTERNATIONAL, MX","FM-15","99999","V020","999,9,C,0000,1","03048,1,C,N","022531,1,9,9","+0190,1","+0120,1","99999,9",,"07,1,+03048,1,03,1","07,1,+06706,1,01,1",,"9,AGL   ,+99999,+99999","99,99,9,07,1,99,9,03048,1,99,9,99,9","10166,1,99999,9",,,"MET083METAR MMMZ 291546Z 00000KT 14SM BKN100 BKN220 19/12 A3002 RMK 8/039 FULYR 3RD QUAD=",
"76459399999","2025-01-29T16:43:00","4","23.161356","-106.266072","11.58","GENERAL RAFAEL BUELNA INTERNATIONAL, MX","FM-15","99999","V020","190,1,N,0021,1","03048,1,C,N","022531,1,9,9","+0210,1","+0130,1","99999,9",,"07,1,+03048,1,03,1",,,"9,AGL   ,+99999,+99999","99,99,9,07,1,99,9,03048,1,99,9,99,9","10169,1,99999,9",,,"MET069METAR MMMZ 291643Z 19004KT 14SM BKN100 21/13 A3003 RMK 8/030 ISOL CC=",
"76459399999","2025-01-29T17:41:00","4","23.161356","-106.266072","11.58","GENERAL RAFAEL BUELNA INTERNATIONAL, MX","FM-15","99999","V020","999,9,C,0000,1","03048,1,C,N","022531,1,9,9","+0230,1","+0110,1","10162,1",,"07,1,+03048,1,03,1",,,"9,AGL   ,+99999,+99999","99,99,9,07,1,99,9,03048,1,99,9,99,9","10166,1,99999,9","2,1,007,1,+999,9",,"MET078METAR MMMZ 291741Z 00000KT 14SM BKN100 23/11 A3002 RMK SLP162 52007 919 8/030=",
"76459399999","2025-01-29T18:43:00","4","23.161356","-106.266072","11.58","GENERAL RAFAEL BUELNA INTERNATIONAL, MX","FM-15","99999","V020","290,1,N,0021,1","03658,1,C,N","022531,1,9,9","+0240,1","+0110,1","99999,9",,"07,1,+03658,1,03,1",,,"9,AGL   ,+99999,+99999","99,99,9,07,1,99,9,03658,1,99,9,99,9","10156,1,99999,9",,,"MET069METAR MMMZ 291843Z 29004KT 14SM BKN120 24/11 A2999 RMK 8/030 ISOL CI=",
"76459399999","2025-01-29T19:50:00","4","23.161356","-106.266072","11.58","GENERAL RAFAEL BUELNA INTERNATIONAL, MX","FM-15","99999","V020","260,1,N,0026,1","99999,9,9,N","022531,1,9,9","+0250,1","+0120,1","99999,9",,"04,1,+03658,1,03,1",,,"9,AGL   ,+99999,+99999","99,99,9,04,1,99,9,03658,1,99,9,99,9","10146,1,99999,9",,,"MET061METAR MMMZ 291950Z 26005KT 14SM SCT120 25/12 A2996 RMK 8/030=",
"76459399999","2025-01-29T20:46:00","4","23.161356","-106.266072","11.58","GENERAL RAFAEL BUELNA INTERNATIONAL, MX","FM-15","99999","V020","300,1,N,0036,1","99999,9,9,N","022531,1,9,9","+0250,1","+0100,1","10139,1",,"04,1,+03353,1,03,1",,,"9,AGL   ,+99999,+99999","99,99,9,04,1,99,9,03353,1,99,9,99,9","10142,1,99999,9","7,1,023,1,+999,9",,"MET078METAR MMMZ 292046Z 30007KT 14SM SCT110 25/10 A2995 RMK SLP139 57023 917 8/030=",
"76459399999","2025-01-29T21:42:00","4","23.161356","-106.266072","11.58","GENERAL RAFAEL BUELNA INTERNATIONAL, MX","FM-15","99999","V020","320,1,N,0051,1","99999,9,9,N","024140,1,9,9","+0250,1","+0070,1","99999,9",,"02,1,+03353,1,03,1",,,"9,AGL   ,+99999,+99999","99,99,9,02,1,99,9,03353,1,99,9,99,9","10132,1,99999,9",,,"MET069METAR MMMZ 292142Z 32010KT 15SM FEW110 25/07 A2992 RMK 8/030 ISOL CC=",
"76459399999","2025-01-29T22:41:00","4","23.161356","-106.266072","11.58","GENERAL RAFAEL BUELNA INTERNATIONAL, MX","FM-15","99999","V020","200,1,N,0057,1","99999,9,9,N","024140,1,9,9","+0230,1","+0090,1","99999,9",,"02,1,+03353,1,03,1",,,"9,AGL   ,+99999,+99999","99,99,9,02,1,99,9,03353,1,99,9,99,9","10125,1,99999,9",,,"MET061METAR MMMZ 292241Z 20011KT 15SM FEW110 23/09 A2990 RMK 8/030=",
"76459399999","2025-01-29T23:43:00","4","23.161356","-106.266072","11.58","GENERAL RAFAEL BUELNA INTERNATIONAL, MX","FM-15","99999","V020","330,1,N,0057,1","22000,1,9,N","022531,1,9,9","+0220,1","+0090,1","10124,1",,,,,,"00,99,1,99,9,99,9,99999,9,99,9,99,9","10129,1,99999,9","7,1,013,1,+999,9",,"MET077METAR MMMZ 292343Z 33011KT 14SM SKC 22/09 A2991 RMK SLP124 57013 916 ISOL AC=",
"76459399999","2025-01-30T00:43:00","4","23.161356","-106.266072","11.58","GENERAL RAFAEL BUELNA INTERNATIONAL, MX","FM-15","99999","V020","330,1,N,0046,1","99999,9,9,N","022531,1,9,9","+0200,1","+0100,1","99999,9",,"02,1,+07010,1,00,1",,,"9,AGL   ,+99999,+99999","99,99,9,02,1,99,9,07010,1,99,9,99,9","10132,1,99999,9",,,"MET069METAR MMMZ 300043Z 33009KT 14SM FEW230 20/10 A2992 RMK 8/002 ISOL AC=",
"76459399999","2025-01-30T01:42:00","4","23.161356","-106.266072","11.58","GENERAL RAFAEL BUELNA INTERNATIONAL, MX","FM-15","99999","V020","340,1,N,0026,1","22000,1,9,N","019312,1,9,9","+0180,1","+0100,1","99999,9",,,,,,"00,99,1,99,9,99,9,99999,9,99,9,99,9","10135,1,99999,9",,,"MET060METAR MMMZ 300142Z 34005KT 12SM SKC 18/10 A2993 RMK ISOL CI=",
"76459399999","2025-01-30T02:45:00","4","23.161356","-106.266072","11.58","GENERAL RAFAEL BUELNA INTERNATIONAL, MX","FM-15","99999","V020","340,1,N,0015,1","22000,1,9,N","016093,1,9,9","+0170,1","+0100,1","10145,1",,,,,,"00,99,1,99,9,99,9,99999,9,99,9,99,9","10146,1,99999,9","2,1,017,1,+999,9",,"MET069METAR MMMZ 300245Z 34003KT 10SM SKC 17/10 A2996 RMK SLP145 52017 917=",
"76459399999","2025-01-30T03:43:00","4","23.161356","-106.266072","11.58","GENERAL RAFAEL BUELNA INTERNATIONAL, MX","FM-15","99999","V020","320,1,N,0015,1","22000,1,9,N","016093,1,9,9","+0160,1","+0100,1","99999,9",,,,,,"00,99,1,99,9,99,9,99999,9,99,9,99,9","10152,1,99999,9",,,"MET048METAR MMMZ 300343Z 32003KT 10SM SKC 16/10 A2998=",
"76459399999","2025-01-30T04:54:00","4","23.161356","-106.266072","11.58","GENERAL RAFAEL BUELNA INTERNATIONAL, MX","FM-15","99999","V020","999,9,C,0000,1","22000,1,9,N","016093,1,9,9","+0130,1","+0090,1","99999,9",,,,,,"00,99,1,99,9,99,9,99999,9,99,9,99,9","10156,1,99999,9",,,"MET048METAR MMMZ 300454Z 00000KT 10SM SKC 13/09 A2999=",
"76459399999","2025-01-30T05:47:00","4","23.161356","-106.266072","11.58","GENERAL RAFAEL BUELNA INTERNATIONAL, MX","FM-15","99999","V020","999,9,C,0000,1","22000,1,9,N","016093,1,9,9","+0130,1","+0090,1","10151,1",,,,,,"00,99,1,99,9,99,9,99999,9,99,9,99,9","10156,1,99999,9","2,1,010,1,+999,9",,"MET069METAR MMMZ 300547Z 00000KT 10SM SKC 13/09 A2999 RMK SLP151 52010 914=",
"76459399999","2025-01-30T06:43:00","4","23.161356","-106.266072","11.58","GENERAL RAFAEL BUELNA INTERNATIONAL, MX","FM-15","99999","V020","999,9,C,0000,1","06706,1,9,N","016093,1,9,9","+0130,1","+0090,1","99999,9",,"04,1,+02743,1,03,1","07,1,+06706,1,02,1",,"9,AGL   ,+99999,+99999","99,99,9,04,1,99,9,02743,1,99,9,99,9","10159,1,99999,9",,,"MET068METAR MMMZ 300643Z 00000KT 10SM SCT090 BKN220 13/09 A3000 RMK 8/077=",
"76459399999","2025-01-30T07:40:00","4","23.161356","-106.266072","11.58","GENERAL RAFAEL BUELNA INTERNATIONAL, MX","FM-15","99999","V020","999,9,C,0000,1","07315,1,9,N","016093,1,9,9","+0140,1","+0090,1","99999,9",,"02,1,+03048,1,03,1","07,1,+07315,1,00,1",,"9,AGL   ,+99999,+99999","99,99,9,02,1,99,9,03048,1,99,9,99,9","10159,1,99999,9",,,"MET068METAR MMMZ 300740Z 00000KT 10SM FEW100 BKN240 14/09 A3000 RMK 8/032=",
"76459399999","2025-01-30T08:42:00","4","23.161356","-106.266072","11.58","GENERAL RAFAEL BUELNA INTERNATIONAL, MX","FM-15","99999","V020","999,9,C,0000,1","07315,1,C,N","016093,1,9,9","+0130,1","+0090,1","10142,1",,"07,1,+07315,1,00,1",,,"9,AGL   ,+99999,+99999","99,99,9,07,1,99,9,07315,1,99,9,99,9","10156,1,99999,9","4,1,000,1,+999,9",,"MET078METAR MMMZ 300842Z 00000KT 10SM BKN240 13/09 A2999 RMK SLP142 54000 907 8/002=",
"76459399999","2025-01-30T09:41:00","4","23.161356","-106.266072","11.58","GENERAL RAFAEL BUELNA INTERNATIONAL, MX","FM-15","99999","V020","999,9,C,0000,1","07315,1,C,N","016093,1,9,9","+0120,1","+0090,1","99999,9",,"07,1,+07315,1,00,1",,,"9,AGL   ,+99999,+99999","99,99,9,07,1,99,9,07315,1,99,9,99,9","10149,1,99999,9",,,"MET061METAR MMMZ 300941Z 00000KT 10SM BKN240 12/09 A2997 RMK 8/004=",
"76459399999","2025-01-30T10:41:00","4","23.161356","-106.266072","11.58","GENERAL RAFAEL BUELNA INTERNATIONAL, MX","FM-15","99999","V020","999,9,C,0000,1","22000,1,9,N","016093,1,9,9","+0110,1","+0100,1","99999,9",,,,,,"00,99,1,99,9,99,9,99999,9,99,9,99,9","10146,1,99999,9",,,"MET048METAR MMMZ 301041Z 00000KT 10SM SKC 11/10 A2996=",
"76459399999","2025-01-30T11:42:00","4","23.161356","-106.266072","11.58","GENERAL RAFAEL BUELNA INTERNATIONAL, MX","FM-15","99999","V020","999,9,C,0000,1","99999,9,9,N","016093,1,9,9","+0090,1","+0090,1","10146,1",,"04,1,+07315,1,00,1",,,"9,AGL   ,+99999,+99999","99,99,9,04,1,99,9,07315,1,99,9,99,9","10152,1,99999,9","7,1,003,1,+999,9",,"MET078METAR MMMZ 301142Z 00000KT 10SM SCT240 09/09 A2998 RMK SLP146 57003 914 8/002=",
"76459399999","2025-01-30T12:44:00","4","23.161356","-106.266072","11.58","GENERAL RAFAEL BUELNA INTERNATIONAL, MX","FM-15","99999","V020","080,1,N,0015,1","99999,9,9,N","016093,1,9,9","+0100,1","+0090,1","99999,9",,"04,1,+07315,1,00,1",,,"9,AGL   ,+99999,+99999","99,99,9,04,1,99,9,07315,1,99,9,99,9","10156,1,99999,9",,,"MET061METAR MMMZ 301244Z 08003KT 10SM SCT240 10/09 A2999 RMK 8/002=",
"76459399999","2025-01-30T13:47:00","4","23.161356","-106.266072","11.58","GENERAL RAFAEL BUELNA INTERNATIONAL, MX","FM-15","99999","V020","999,9,C,0000,1","99999,9,9,N","019312,1,9,9","+0090,1","+0080,1","99999,9",,"04,1,+07315,1,00,1",,,"9,AGL   ,+99999,+99999","99,99,9,04,1,99,9,07315,1,99,9,99,9","10163,1,99999,9",,,"MET069METAR MMMZ 301347Z 00000KT 12SM SCT240 09/08 A3001 RMK 8/002 ISOL AC=",
"76459399999","2025-01-30T14:46:00","4","23.161356","-106.266072","11.58","GENERAL RAFAEL BUELNA INTERNATIONAL, MX","FM-15","99999","V020","999,9,C,0000,1","07315,1,C,N","022531,1,9,9","+0120,1","+0090,1","10166,1",,"07,1,+07315,1,02,1",,,"9,AGL   ,+99999,+99999","99,99,9,07,1,99,9,07315,1,99,9,99,9","10166,1,99999,9","2,1,013,1,+999,9",,"MET078METAR MMMZ 301446Z 00000KT 14SM BKN240 12/09 A3002 RMK SLP166 52013 907 8/008=",
"76459399999","2025-01-30T15:46:00","4","23.161356","-106.266072","11.58","GENERAL RAFAEL BUELNA INTERNATIONAL, MX","FM-15","99999","V020","999,9,C,0000,1","07315,1,C,N","022531,1,9,9","+0160,1","+0100,1","99999,9",,"07,1,+07315,1,02,1",,,"9,AGL   ,+99999,+99999","99,99,9,07,1,99,9,07315,1,99,9,99,9","10173,1,99999,9",,,"MET061METAR MMMZ 301546Z 00000KT 14SM BKN240 16/10 A3004 RMK 8/008=",
"76459399999","2025-01-30T16:43:00","4","23.161356","-106.266072","11.58","GENERAL RAFAEL BUELNA INTERNATIONAL, MX","FM-15","99999","V020","999,9,C,0000,1","07315,1,9,N","022531,1,9,9","+0200,1","+0110,1","99999,9",,"04,1,+03353,1,03,1","07,1,+07315,1,02,1",,"9,AGL   ,+99999,+99999","99,99,9,04,1,99,9,03353,1,99,9,99,9","10179,1,99999,9",,,"MET068METAR MMMZ 301643Z 00000KT 14SM SCT110 BKN240 20/11 A3006 RMK 8/038=",
"76459399999","2025-01-30T17:41:00","4","23.161356","-106.266072","11.58","GENERAL RAFAEL BUELNA INTERNATIONAL, MX","FM-15","99999","V020","999,9,C,0000,1","07315,1,9,N","022531,1,9,9","+0210,1","+0110,1","10174,1",,"02,1,+03353,1,03,1","07,1,+07315,1,02,1",,"9,AGL   ,+99999,+99999","99,99,9,02,1,99,9,03353,1,99,9,99,9","10179,1,99999,9","2,1,013,1,+999,9",,"MET085METAR MMMZ 301741Z 00000KT 14SM FEW110 BKN240 21/11 A3006 RMK SLP174 52013 912 8/078=",
"76459399999","2025-01-30T18:42:00","4","23.161356","-106.266072","11.58","GENERAL RAFAEL BUELNA INTERNATIONAL, MX","FM-15","99999","V020","230,1,N,0015,1","07315,1,9,N","022531,1,9,9","+0230,1","+0120,1","99999,9",,"04,1,+03353,1,03,1","07,1,+07315,1,02,1",,"9,AGL   ,+99999,+99999","99,99,9,04,1,99,9,03353,1,99,9,99,9","10169,1,99999,9",,,"MET068METAR MMMZ 301842Z 23003KT 14SM SCT110 BKN240 23/12 A3003 RMK 8/078=",
"76459399999","2025-01-30T19:43:00","4","23.161356","-106.266072","11.58","GENERAL RAFAEL BUELNA INTERNATIONAL, MX","FM-15","99999","V020","999,9,C,0000,1","07315,1,9,N","022531,1,9,9","+0250,1","+0120,1","99999,9",,"04,1,+03353,1,03,1","07,1,+07315,1,02,1",,"9,AGL   ,+99999,+99999","99,99,9,04,1,99,9,03353,1,99,9,99,9","10159,1,99999,9",,,"MET068METAR MMMZ 301943Z 00000KT 14SM SCT110 BKN240 25/12 A3000 RMK 8/078=",
"76459399999","2025-01-30T20:43:00","4","23.161356","-106.266072","11.58","GENERAL RAFAEL BUELNA INTERNATIONAL, MX","FM-15","99999","V020","300,1,N,0036,1","07315,1,9,N","022531,1,9,9","+0230,1","+0110,1","10152,1",,"04,1,+03353,1,03,1","07,1,+07315,1,02,1",,"9,AGL   ,+99999,+99999","99,99,9,04,1,99,9,03353,1,99,9,99,9","10152,1,99999,9","7,1,027,1,+999,9",,"MET085METAR MMMZ 302043Z 30007KT 14SM SCT110 BKN240 23/11 A2998 RMK SLP152 57027 914 8/078=",
"76459399999","2025-01-30T21:42:00","4","23.161356","-106.266072","11.58","GENERAL RAFAEL BUELNA INTERNATIONAL, MX","FM-15","99999","V020","270,1,N,0041,1","07315,1,9,N","020921,1,9,9","+0230,1","+0110,1","99999,9",,"02,1,+03048,1,03,1","07,1,+07315,1,00,1",,"9,AGL   ,+99999,+99999","99,99,9,02,1,99,9,03048,1,99,9,99,9","10146,1,99999,9",,,"MET068METAR MMMZ 302142Z 27008KT 13SM FEW100 BKN240 23/11 A2996 RMK 8/032=",
"76459399999","2025-01-30T22:45:00","4","23.161356","-106.266072","11.58","GENERAL RAFAEL BUELNA INTERNATIONAL, MX","FM-15","99999","V020","280,1,N,0041,1","07315,1,9,N","020921,1,9,9","+0220,1","+0100,1","99999,9",,"02,1,+03048,1,03,1","07,1,+07315,1,02,1",,"9,AGL   ,+99999,+99999","99,99,9,02,1,99,9,03048,1,99,9,99,9","10142,1,99999,9",,,"MET068METAR MMMZ 302245Z 28008KT 13SM FEW100 BKN240 22/10 A2995 RMK 8/038=",
"76459399999","2025-01-30T23:43:00","4","23.161356","-106.266072","11.58","GENERAL RAFAEL BUELNA INTERNATIONAL, MX","FM-15","99999","V020","290,1,N,0041,1","07315,1,9,N","020921,1,9,9","+0220,1","+0090,1","10136,1",,"02,1,+03048,1,03,1","07,1,+07315,1,02,1",,"9,AGL   ,+99999,+99999","99,99,9,02,1,99,9,03048,1,99,9,99,9","10142,1,99999,9","7,1,010,1,+999,9",,"MET085METAR MMMZ 302343Z 29008KT 13SM FEW100 BKN240 22/09 A2995 RMK SLP136 57010 912 8/038=",
"76459399999","2025-01-31T00:42:00","4","23.161356","-106.266072","11.58","GENERAL RAFAEL BUELNA INTERNATIONAL, MX","FM-15","99999","V020","310,1,N,0031,1","03048,1,C,N","020921,1,9,9","+0200,1","+0090,1","99999,9",,"07,1,+03048,1,03,1","07,1,+07010,1,02,1",,"9,AGL   ,+99999,+99999","99,99,9,07,1,99,9,03048,1,99,9,99,9","10142,1,99999,9",,,"MET068METAR MMMZ 310042Z 31006KT 13SM BKN100 BKN230 20/09 A2995 RMK 8/058=",
"76459399999","2025-01-31T01:41:00","4","23.161356","-106.266072","11.58","GENERAL RAFAEL BUELNA INTERNATIONAL, MX","FM-15","99999","V020","320,1,N,0041,1","07010,1,9,N","019312,1,9,9","+0180,1","+0110,1","99999,9",,"04,1,+03048,1,03,1","08,1,+07010,1,02,1",,"9,AGL   ,+99999,+99999","99,99,9,04,1,99,9,03048,1,99,9,99,9","10146,1,99999,9",,,"MET075METAR MMMZ 310141Z 32008KT 12SM SCT100 OVC230 18/11 A2996 RMK 8/057 BINOVC=",
"76459399999","2025-01-31T02:44:00","4","23.161356","-106.266072","11.58","GENERAL RAFAEL BUELNA INTERNATIONAL, MX","FM-15","99999","V020","310,1,N,0015,1","07010,1,9,N","016093,1,9,9","+0160,1","+0100,1","10152,1",,"04,1,+03048,1,03,1","07,1,+07010,1,00,1",,"9,AGL   ,+99999,+99999","99,99,9,04,1,99,9,03048,1,99,9,99,9","10152,1,99999,9","2,1,010,1,+999,9",,"MET085METAR MMMZ 310244Z 31003KT 10SM SCT100 BKN230 16/10 A2998 RMK SLP152 52010 907 8/032=",
"76459399999","2025-01-31T03:43:00","4","23.161356","-106.266072","11.58","GENERAL RAFAEL BUELNA INTERNATIONAL, MX","FM-15","99999","V020","310,1,N,0021,1","07010,1,C,N","016093,1,9,9","+0160,1","+0100,1","99999,9",,"02,1,+03048,1,03,1","04,1,+07010,1,00,1",,"9,AGL   ,+99999,+99999","99,99,9,02,1,99,9,03048,1,99,9,99,9","10156,1,99999,9",,,"MET068METAR MMMZ 310343Z 31004KT 10SM FEW100 SCT230 16/10 A2999 RMK 8/032=",
"76459399999","2025-01-31T04:45:00","4","23.161356","-106.266072","11.58","GENERAL RAFAEL BUELNA INTERNATIONAL, MX","FM-15","99999","V020","999,9,C,0000,1","99999,9,9,N","016093,1,9,9","+0150,1","+0090,1","99999,9",,"02,1,+02743,1,03,1","02,1,+07315,1,00,1",,"9,AGL   ,+99999,+99999","99,99,9,02,1,99,9,02743,1,99,9,99,9","10156,1,99999,9",,,"MET068METAR MMMZ 310445Z 00000KT 10SM FEW090 FEW240 15/09 A2999 RMK 8/052=",
"76459399999","2025-01-31T05:47:00","4","23.161356","-106.266072","11.58","GENERAL RAFAEL BUELNA INTERNATIONAL, MX","FM-15","99999","V020","999,9,C,0000,1","99999,9,9,N","016093,1,9,9","+0130,1","+0090,1","10153,1",,"02,1,+02743,1,03,1","02,1,+07315,1,00,1",,"9,AGL   ,+99999,+99999","99,99,9,02,1,99,9,02743,1,99,9,99,9","10159,1,99999,9","2,1,007,1,+999,9",,"MET085METAR MMMZ 310547Z 00000KT 10SM FEW090 FEW240 13/09 A3000 RMK SLP153 52007 902 8/052=",
"76459399999","2025-01-31T06:43:00","4","23.161356","-106.266072","11.58","GENERAL RAFAEL BUELNA INTERNATIONAL, MX","FM-15","99999","V020","999,9,C,0000,1","99999,9,9,N","016093,1,9,9","+0110,1","+0080,1","99999,9",,"02,1,+02743,1,03,1","02,1,+07315,1,00,1",,"9,AGL   ,+99999,+99999","99,99,9,02,1,99,9,02743,1,99,9,99,9","10156,1,99999,9",,,"MET068METAR MMMZ 310643Z 00000KT 10SM FEW090 FEW240 11/08 A2999 RMK 8/052=",
"76459399999","2025-01-31T07:47:00","4","23.161356","-106.266072","11.58","GENERAL RAFAEL BUELNA INTERNATIONAL, MX","FM-15","99999","V020","999,9,C,0000,1","99999,9,9,N","016093,1,9,9","+0100,1","+0080,1","99999,9",,"02,1,+02743,1,03,1","02,1,+07315,1,00,1",,"9,AGL   ,+99999,+99999","99,99,9,02,1,99,9,02743,1,99,9,99,9","10156,1,99999,9",,,"MET068METAR MMMZ 310747Z 00000KT 10SM FEW090 FEW240 10/08 A2999 RMK 8/052=",
"76459399999","2025-01-31T08:44:00","4","23.161356","-106.266072","11.58","GENERAL RAFAEL BUELNA INTERNATIONAL, MX","FM-15","99999","V020","999,9,C,0000,1","99999,9,9,N","016093,1,9,9","+0100,1","+0100,1","10154,1",,"02,1,+07315,1,00,1",,,"9,AGL   ,+99999,+99999","99,99,9,02,1,99,9,07315,1,99,9,99,9","10152,1,99999,9","7,1,007,1,+999,9",,"MET078METAR MMMZ 310844Z 00000KT 10SM FEW240 10/10 A2998 RMK SLP154 57007 910 8/002=",
"76459399999","2025-01-31T09:49:00","4","23.161356","-106.266072","11.58","GENERAL RAFAEL BUELNA INTERNATIONAL, MX","FM-15","99999","V020","999,9,C,0000,1","99999,9,9,N","016093,1,9,9","+0090,1","+0080,1","99999,9",,"04,1,+07315,1,00,1",,,"9,AGL   ,+99999,+99999","99,99,9,04,1,99,9,07315,1,99,9,99,9","10149,1,99999,9",,,"MET061METAR MMMZ 310949Z 00000KT 10SM SCT240 09/08 A2997 RMK 8/002=",
"76459399999","2025-01-31T10:46:00","4","23.161356","-106.266072","11.58","GENERAL RAFAEL BUELNA INTERNATIONAL, MX","FM-15","99999","V020","999,9,C,0000,1","99999,9,9,N","016093,1,9,9","+0080,1","+0060,1","99999,9",,"02,1,+07315,1,00,1",,,"9,AGL   ,+99999,+99999","99,99,9,02,1,99,9,07315,1,99,9,99,9","10146,1,99999,9",,,"MET061METAR MMMZ 311046Z 00000KT 10SM FEW240 08/06 A2996 RMK 8/002=",
"76459399999","2025-01-31T11:47:00","4","23.161356","-106.266072","11.58","GENERAL RAFAEL BUELNA INTERNATIONAL, MX","FM-15","99999","V020","999,9,C,0000,1","99999,9,9,N","016093,1,9,9","+0080,1","+0070,1","10142,1",,"02,1,+07315,1,00,1",,,"9,AGL   ,+99999,+99999","99,99,9,02,1,99,9,07315,1,99,9,99,9","10146,1,99999,9","7,1,007,1,+999,9",,"MET078METAR MMMZ 311147Z 00000KT 10SM FEW240 08/07 A2996 RMK SLP142 57007 954 8/002=",
"76459399999","2025-01-31T12:50:00","4","23.161356","-106.266072","11.58","GENERAL RAFAEL BUELNA INTERNATIONAL, MX","FM-15","99999","V020","999,9,C,0000,1","99999,9,9,N","016093,1,9,9","+0100,1","+0090,1","99999,9",,"02,1,+07315,1,00,1",,,"9,AGL   ,+99999,+99999","99,99,9,02,1,99,9,07315,1,99,9,99,9","10149,1,99999,9",,,"MET061METAR MMMZ 311250Z 00000KT 10SM FEW240 10/09 A2997 RMK 8/002=",
"76459399999","2025-01-31T13:47:00","4","23.161356","-106.266072","11.58","GENERAL RAFAEL BUELNA INTERNATIONAL, MX","FM-15","99999","V020","999,9,C,0000,1","99999,9,9,N","017703,1,9,9","+0090,1","+0080,1","99999,9",,"02,1,+07315,1,00,1",,,"9,AGL   ,+99999,+99999","99,99,9,02,1,99,9,07315,1,99,9,99,9","10156,1,99999,9",,,"MET061METAR MMMZ 311347Z 00000KT 11SM FEW240 09/08 A2999 RMK 8/002=",
"76459399999","2025-01-31T14:46:00","4","23.161356","-106.266072","11.58","GENERAL RAFAEL BUELNA INTERNATIONAL, MX","FM-15","99999","V020","999,9,C,0000,1","99999,9,9,N","022531,1,9,9","+0100,1","+0080,1","10162,1",,"02,1,+07315,1,00,1",,,"9,AGL   ,+99999,+99999","99,99,9,02,1,99,9,07315,1,99,9,99,9","10163,1,99999,9","2,1,017,1,+999,9",,"MET093METAR MMMZ 311446Z 00000KT 14SM FEW240 10/08 A3001 RMK SLP162 52017 953 8/002 FULYR 3RD QUAD=",
"76459399999","2025-01-31T15:43:00","4","23.161356","-106.266072","11.58","GENERAL RAFAEL BUELNA INTERNATIONAL, MX","FM-15","99999","V020","999,9,C,0000,1","99999,9,9,N","022531,1,9,9","+0170,1","+0100,1","99999,9",,"02,1,+07315,1,00,1",,,"9,AGL   ,+99999,+99999","99,99,9,02,1,99,9,07315,1,99,9,99,9","10169,1,99999,9",,,"MET069METAR MMMZ 311543Z 00000KT 14SM FEW240 17/10 A3003 RMK 8/002 FULYR W=",
"76459399999","2025-01-31T16:40:00","4","23.161356","-106.266072","11.58","GENERAL RAFAEL BUELNA INTERNATIONAL, MX","FM-15","99999","V020","999,9,C,0000,1","22000,1,9,N","022531,1,9,9","+0220,1","+0120,1","99999,9",,,,,,"00,99,1,99,9,99,9,99999,9,99,9,99,9","10169,1,99999,9",,,"MET063METAR MMMZ 311640Z 00000KT 14SM SKC 22/12 A3003 RMK DSNT CI SE=",
"76459399999","2025-01-31T17:43:00","4","23.161356","-106.266072","11.58","GENERAL RAFAEL BUELNA INTERNATIONAL, MX","FM-15","99999","V020","260,1,N,0021,1","22000,1,9,N","022531,1,9,9","+0240,1","+0120,1","10162,1",,,,,,"00,99,1,99,9,99,9,99999,9,99,9,99,9","10166,1,99999,9","2,1,003,1,+999,9",,"MET077METAR MMMZ 311743Z 26004KT 14SM SKC 24/12 A3002 RMK SLP162 52003 962 ISOL CI=",
"76459399999","2025-01-31T18:45:00","4","23.161356","-106.266072","11.58","GENERAL RAFAEL BUELNA INTERNATIONAL, MX","FM-15","99999","V020","230,1,N,0031,1","22000,1,9,N","022531,1,9,9","+0250,1","+0110,1","99999,9",,,,,,"00,99,1,99,9,99,9,99999,9,99,9,99,9","10159,1,99999,9",,,"MET060METAR MMMZ 311845Z 23006KT 14SM SKC 25/11 A3000 RMK ISOL CI=",
"76459399999","2025-01-31T19:50:00","4","23.161356","-106.266072","11.58","GENERAL RAFAEL BUELNA INTERNATIONAL, MX","FM-15","99999","V020","280,1,N,0041,1","22000,1,9,N","022531,1,9,9","+0260,1","+0100,1","99999,9",,,,,,"00,99,1,99,9,99,9,99999,9,99,9,99,9","10142,1,99999,9",,,"MET060METAR MMMZ 311950Z 28008KT 14SM SKC 26/10 A2995 RMK ISOL CI=",
"76459399999","2025-01-31T21:44:00","4","23.161356","-106.266072","11.58","GENERAL RAFAEL BUELNA INTERNATIONAL, MX","FM-15","99999","V020","300,1,N,0062,1","22000,1,9,N","022531,1,9,9","+0250,1","+0080,1","99999,9",,,,,,"00,99,1,99,9,99,9,99999,9,99,9,99,9","10129,1,99999,9",,,"MET048METAR MMMZ 312144Z 30012KT 14SM SKC 25/08 A2991=",
"76459399999","2025-01-31T22:44:00","4","23.161356","-106.266072","11.58","GENERAL RAFAEL BUELNA INTERNATIONAL, MX","FM-15","99999","V020","300,1,N,0057,1","22000,1,9,N","020921,1,9,9","+0250,1","+0080,1","99999,9",,,,,,"00,99,1,99,9,99,9,99999,9,99,9,99,9","10129,1,99999,9",,,"MET048METAR MMMZ 312244Z 30011KT 13SM SKC 25/08 A2991=",
"76459399999","2025-01-31T23:46:00","4","23.161356","-106.266072","11.58","GENERAL RAFAEL BUELNA INTERNATIONAL, MX","FM-15","99999","V020","320,1,N,0046,1","22000,1,9,N","019312,1,9,9","+0240,1","+0070,1","10137,1",,,,,,"00,99,1,99,9,99,9,99999,9,99,9,99,9","10129,1,99999,9","7,1,007,1,+999,9",,"MET069METAR MMMZ 312346Z 32009KT 12SM SKC 24/07 A2991 RMK SLP137 57007 902=",
"76459399999","2025-02-01T00:48:00","4","23.161356","-106.266072","11.58","GENERAL RAFAEL BUELNA INTERNATIONAL, MX","FM-15","99999","V020","310,1,N,0041,1","22000,1,9,N","017703,1,9,9","+0200,1","+0040,1","99999,9",,,,,,"00,99,1,99,9,99,9,99999,9,99,9,99,9","10135,1,99999,9",,,"MET056METAR MMMZ 010048Z 31008KT 11SM SKC 20/04 A2993 RMK HZY=",
"76459399999","2025-02-01T01:43:00","4","23.161356","-106.266072","11.58","GENERAL RAFAEL BUELNA INTERNATIONAL, MX","FM-15","99999","V020","300,1,N,0021,1","22000,1,9,N","016093,1,9,9","+0180,1","+0080,1","99999,9",,,,,,"00,99,1,99,9,99,9,99999,9,99,9,99,9","10139,1,99999,9",,,"MET056METAR MMMZ 010143Z 30004KT 10SM SKC 18/08 A2994 RMK HZY=",
"76459399999","2025-02-01T02:47:00","4","23.161356","-106.266072","11.58","GENERAL RAFAEL BUELNA INTERNATIONAL, MX","FM-15","99999","V020","300,1,N,0026,1","22000,1,9,N","016093,1,9,9","+0160,1","+0090,1","10141,1",,,,,,"00,99,1,99,9,99,9,99999,9,99,9,99,9","10142,1,99999,9","2,1,013,1,+999,9",,"MET073METAR MMMZ 010247Z 30005KT 10SM SKC 16/09 A2995 RMK SLP141 52013 960 HZY=",
"76459399999","2025-02-01T03:41:00","4","23.161356","-106.266072","11.58","GENERAL RAFAEL BUELNA INTERNATIONAL, MX","FM-15","99999","V020","310,1,N,0015,1","22000,1,9,N","016093,1,9,9","+0150,1","+0100,1","99999,9",,,,,,"00,99,1,99,9,99,9,99999,9,99,9,99,9","10146,1,99999,9",,,"MET064METAR MMMZ 010341Z 31003KT 10SM SKC 15/10 A2996 RMK ISOL SC HZY=",
"76459399999","2025-02-01T04:51:00","4","23.161356","-106.266072","11.58","GENERAL RAFAEL BUELNA INTERNATIONAL, MX","FM-15","99999","V020","300,1,N,0021,1","22000,1,9,N","016093,1,9,9","+0140,1","+0100,1","99999,9",,,,,,"00,99,1,99,9,99,9,99999,9,99,9,99,9","10146,1,99999,9",,,"MET048METAR MMMZ 010451Z 30004KT 10SM SKC 14/10 A2996=",
"76459399999","2025-02-01T05:41:00","4","23.161356","-106.266072","11.58","GENERAL RAFAEL BUELNA INTERNATIONAL, MX","FM-15","99999","V020","999,9,C,0000,1","22000,1,9,N","016093,1,9,9","+0120,1","+0080,1","10143,1",,,,,,"00,99,1,99,9,99,9,99999,9,99,9,99,9","10149,1,99999,9","2,1,007,1,+999,9",,"MET069METAR MMMZ 010541Z 00000KT 10SM SKC 12/08 A2997 RMK SLP143 52007 960=",
"76459399999","2025-02-01T06:41:00","4","23.161356","-106.266072","11.58","GENERAL RAFAEL BUELNA INTERNATIONAL, MX","FM-15","99999","V020","999,9,C,0000,1","22000,1,9,N","016093,1,9,9","+0100,1","+0080,1","99999,9",,,,,,"00,99,1,99,9,99,9,99999,9,99,9,99,9","10146,1,99999,9",,,"MET048METAR MMMZ 010641Z 00000KT 10SM SKC 10/08 A2996=",
"76459399999","2025-02-01T07:42:00","4","23.161356","-106.266072","11.58","GENERAL RAFAEL BUELNA INTERNATIONAL, MX","FM-15","99999","V020","999,9,C,0000,1","22000,1,9,N","016093,1,9,9","+0090,1","+0070,1","99999,9",,,,,,"00,99,1,99,9,99,9,99999,9,99,9,99,9","10149,1,99999,9",,,"MET048METAR MMMZ 010742Z 00000KT 10SM SKC 09/07 A2997=",
"76459399999","2025-02-01T08:41:00","4","23.161356","-106.266072","11.58","GENERAL RAFAEL BUELNA INTERNATIONAL, MX","FM-15","99999","V020","999,9,C,0000,1","22000,1,9,N","016093,1,9,9","+0090,1","+0070,1","10133,1",,,,,,"00,99,1,99,9,99,9,99999,9,99,9,99,9","10146,1,99999,9","7,1,003,1,+999,9",,"MET069METAR MMMZ 010841Z 00000KT 10SM SKC 09/07 A2996 RMK SLP133 57003 971=",
"76459399999","2025-02-01T09:40:00","4","23.161356","-106.266072","11.58","GENERAL RAFAEL BUELNA INTERNATIONAL, MX","FM-15","99999","V020","999,9,C,0000,1","22000,1,9,N","016093,1,9,9","+0080,1","+0070,1","99999,9",,,,,,"00,99,1,99,9,99,9,99999,9,99,9,99,9","10146,1,99999,9",,,"MET048METAR MMMZ 010940Z 00000KT 10SM SKC 08/07 A2996=",
"76459399999","2025-02-01T10:40:00","4","23.161356","-106.266072","11.58","GENERAL RAFAEL BUELNA INTERNATIONAL, MX","FM-15","99999","V020","999,9,C,0000,1","22000,1,9,N","016093,1,9,9","+0080,1","+0060,1","99999,9",,,,,,"00,99,1,99,9,99,9,99999,9,99,9,99,9","10142,1,99999,9",,,"MET048METAR MMMZ 011040Z 00000KT 10SM SKC 08/06 A2995=",
"76459399999","2025-02-01T11:45:00","4","23.161356","-106.266072","11.58","GENERAL RAFAEL BUELNA INTERNATIONAL, MX","FM-15","99999","V020","999,9,C,0000,1","22000,1,9,N","016093,1,9,9","+0080,1","+0060,1","10136,1",,,,,,"00,99,1,99,9,99,9,99999,9,99,9,99,9","10142,1,99999,9","7,1,003,1,+999,9",,"MET069METAR MMMZ 011145Z 00000KT 10SM SKC 08/06 A2995 RMK SLP136 57003 956=",
"76459399999","2025-02-01T13:40:00","4","23.161356","-106.266072","11.58","GENERAL RAFAEL BUELNA INTERNATIONAL, MX","FM-15","99999","V020","040,1,N,0026,1","22000,1,9,N","019312,1,9,9","+0070,1","+0050,1","99999,9",,,,,,"00,99,1,99,9,99,9,99999,9,99,9,99,9","10152,1,99999,9",,,"MET048METAR MMMZ 011340Z 04005KT 12SM SKC 07/05 A2998=",
"76459399999","2025-02-01T14:43:00","4","23.161356","-106.266072","11.58","GENERAL RAFAEL BUELNA INTERNATIONAL, MX","FM-15","99999","V020","050,1,N,0021,1","22000,1,9,N","019312,1,9,9","+0100,1","+0070,1","10155,1",,,,,,"00,99,1,99,9,99,9,99999,9,99,9,99,9","10156,1,99999,9","2,1,013,1,+999,9",,"MET073METAR MMMZ 011443Z 05004KT 12SM SKC 10/07 A2999 RMK SLP155 52013 957 HZY=",
"76459399999","2025-02-01T15:30:00","4","23.161356","-106.266072","11.58","GENERAL RAFAEL BUELNA INTERNATIONAL, MX","FM-15","99999","V020","999,9,C,0000,1","22000,1,9,N","019312,1,9,9","+0140,1","+0070,1","99999,9",,,,,,"00,99,1,99,9,99,9,99999,9,99,9,99,9","10163,1,99999,9",,,"MET056METAR MMMZ 011530Z 00000KT 12SM SKC 14/07 A3001 RMK HZY=",
"76459399999","2025-02-01T15:42:00","4","23.161356","-106.266072","11.58","GENERAL RAFAEL BUELNA INTERNATIONAL, MX","FM-15","99999","V020","999,9,C,0000,1","22000,1,9,N","019312,1,9,9","+0160,1","+0080,1","99999,9",,,,,,"00,99,1,99,9,99,9,99999,9,99,9,99,9","10163,1,99999,9",,,"MET056METAR MMMZ 011542Z 00000KT 12SM SKC 16/08 A3001 RMK HZY=",
"76459399999","2025-02-01T16:44:00","4","23.161356","-106.266072","11.58","GENERAL RAFAEL BUELNA INTERNATIONAL, MX","FM-15","99999","V020","999,9,C,0000,1","22000,1,9,N","019312,1,9,9","+0210,1","+0090,1","99999,9",,,,,,"00,99,1,99,9,99,9,99999,9,99,9,99,9","10166,1,99999,9",,,"MET056METAR MMMZ 011644Z 00000KT 12SM SKC 21/09 A3002 RMK HZY=",
"76459399999","2025-02-01T17:50:00","4","23.161356","-106.266072","11.58","GENERAL RAFAEL BUELNA INTERNATIONAL, MX","FM-15","99999","V020","220,1,N,0021,1","22000,1,9,N","016093,1,9,9","+0230,1","+0110,1","10174,1",,,,,,"00,99,1,99,9,99,9,99999,9,99,9,99,9","10166,1,99999,9","2,1,010,1,+999,9",,"MET073METAR MMMZ 011750Z 22004KT 10SM SKC 23/11 A3002 RMK SLP174 52010 913 HZY=",
"76459399999","2025-02-01T18:49:00","4","23.161356","-106.266072","11.58","GENERAL RAFAEL BUELNA INTERNATIONAL, MX","FM-15","99999","V020","999,9,C,0000,1","22000,1,9,N","019312,1,9,9","+0250,1","+0110,1","99999,9",,,,,,"00,99,1,99,9,99,9,99999,9,99,9,99,9","10156,1,99999,9",,,"MET056METAR MMMZ 011849Z 00000KT 12SM SKC 25/11 A2999 RMK HZY=",
"76459399999","2025-02-01T19:46:00","4","23.161356","-106.266072","11.58","GENERAL RAFAEL BUELNA INTERNATIONAL, MX","FM-15","99999","V020","260,1,N,0031,1","22000,1,9,N","019312,1,9,9","+0250,1","+0090,1","99999,9",,,,,,"00,99,1,99,9,99,9,99999,9,99,9,99,9","10146,1,99999,9",,,"MET056METAR MMMZ 011946Z 26006KT 12SM SKC 25/09 A2996 RMK HZY=",
"76459399999","2025-02-01T20:49:00","4","23.161356","-106.266072","11.58","GENERAL RAFAEL BUELNA INTERNATIONAL, MX","FM-15","99999","V020","290,1,N,0041,1","22000,1,9,N","019312,1,9,9","+0260,1","+0100,1","10135,1",,,,,,"00,99,1,99,9,99,9,99999,9,99,9,99,9","10135,1,99999,9","7,1,030,1,+999,9",,"MET073METAR MMMZ 012049Z 29008KT 12SM SKC 26/10 A2993 RMK SLP135 57030 900 HZY=",
"76459399999","2025-02-01T21:43:00","4","23.161356","-106.266072","11.58","GENERAL RAFAEL BUELNA INTERNATIONAL, MX","FM-15","99999","V020","280,1,N,0031,1","22000,1,9,N","019312,1,9,9","+0250,1","+0100,1","99999,9",,,,,,"00,99,1,99,9,99,9,99999,9,99,9,99,9","10132,1,99999,9",,,"MET056METAR MMMZ 012143Z 28006KT 12SM SKC 25/10 A2992 RMK HZY=",
"76459399999","2025-02-01T22:43:00","4","23.161356","-106.266072","11.58","GENERAL RAFAEL BUELNA INTERNATIONAL, MX","FM-15","99999","V020","260,1,N,0031,1","22000,1,9,N","019312,1,9,9","+0240,1","+0130,1","99999,9",,,,,,"00,99,1,99,9,99,9,99999,9,99,9,99,9","10129,1,99999,9",,,"MET056METAR MMMZ 012243Z 26006KT 12SM SKC 24/13 A2991 RMK HZY=",
"76459399999","2025-02-01T23:46:00","4","23.161356","-106.266072","11.58","GENERAL RAFAEL BUELNA INTERNATIONAL, MX","FM-15","99999","V020","280,1,N,0031,1","22000,1,9,N","019312,1,9,9","+0230,1","+0110,1","10137,1",,,,,,"00,99,1,99,9,99,9,99999,9,99,9,99,9","10129,1,99999,9","7,1,007,1,+999,9",,"MET073METAR MMMZ 012346Z 28006KT 12SM SKC 23/11 A2991 RMK SLP137 57007 900 HZY=",
"76459399999","2025-02-02T00:42:00","4","23.161356","-106.266072","11.58","GENERAL RAFAEL BUELNA INTERNATIONAL, MX","FM-15","99999","V020","310,1,N,0036,1","22000,1,9,N","017703,1,9,9","+0210,1","+0070,1","99999,9",,,,,,"00,99,1,99,9,99,9,99999,9,99,9,99,9","10135,1,99999,9",,,"MET056METAR MMMZ 020042Z 31007KT 11SM SKC 21/07 A2993 RMK HZY=",
"76459399999","2025-02-02T01:42:00","4","23.161356","-106.266072","11.58","GENERAL RAFAEL BUELNA INTERNATIONAL, MX","FM-15","99999","V020","300,1,N,0021,1","22000,1,9,N","016093,1,9,9","+0180,1","+0100,1","99999,9",,,,,,"00,99,1,99,9,99,9,99999,9,99,9,99,9","10139,1,99999,9",,,"MET056METAR MMMZ 020142Z 30004KT 10SM SKC 18/10 A2994 RMK HZY=",
"76459399999","2025-02-02T02:43:00","4","23.161356","-106.266072","11.58","GENERAL RAFAEL BUELNA INTERNATIONAL, MX","FM-15","99999","V020","300,1,N,0015,1","22000,1,9,N","016093,1,9,9","+0160,1","+0110,1","10145,1",,,,,,"00,99,1,99,9,99,9,99999,9,99,9,99,9","10146,1,99999,9","2,1,017,1,+999,9",,"MET073METAR MMMZ 020243Z 30003KT 10SM SKC 16/11 A2996 RMK SLP145 52017 903 HZY=",
"76459399999","2025-02-02T03:41:00","4","23.161356","-106.266072","11.58","GENERAL RAFAEL BUELNA INTERNATIONAL, MX","FM-15","99999","V020","999,9,C,0000,1","22000,1,9,N","016093,1,9,9","+0150,1","+0120,1","99999,9",,,,,,"00,99,1,99,9,99,9,99999,9,99,9,99,9","10146,1,99999,9",,,"MET056METAR MMMZ 020341Z 00000KT 10SM SKC 15/12 A2996 RMK HZY=",
"76459399999","2025-02-02T04:41:00","4","23.161356","-106.266072","11.58","GENERAL RAFAEL BUELNA INTERNATIONAL, MX","FM-15","99999","V020","999,9,C,0000,1","22000,1,9,N","016093,1,9,9","+0140,1","+0120,1","99999,9",,,,,,"00,99,1,99,9,99,9,99999,9,99,9,99,9","10149,1,99999,9",,,"MET048METAR MMMZ 020441Z 00000KT 10SM SKC 14/12 A2997=",
"76459399999","2025-02-02T05:42:00","4","23.161356","-106.266072","11.58","GENERAL RAFAEL BUELNA INTERNATIONAL, MX","FM-15","99999","V020","999,9,C,0000,1","22000,1,9,N","016093,1,9,9","+0100,1","+0080,1","10146,1",,,,,,"00,99,1,99,9,99,9,99999,9,99,9,99,9","10152,1,99999,9","2,1,007,1,+999,9",,"MET069METAR MMMZ 020542Z 00000KT 10SM SKC 10/08 A2998 RMK SLP146 52007 903=",
"76459399999","2025-02-02T06:42:00","4","23.161356","-106.266072","11.58","GENERAL RAFAEL BUELNA INTERNATIONAL, MX","FM-15","99999","V020","999,9,C,0000,1","22000,1,9,N","016093,1,9,9","+0100,1","+0080,1","99999,9",,,,,,"00,99,1,99,9,99,9,99999,9,99,9,99,9","10152,1,99999,9",,,"MET048METAR MMMZ 020642Z 00000KT 10SM SKC 10/08 A2998=",
"76459399999","2025-02-02T07:44:00","4","23.161356","-106.266072","11.58","GENERAL RAFAEL BUELNA INTERNATIONAL, MX","FM-15","99999","V020","999,9,C,0000,1","22000,1,9,N","016093,1,9,9","+0080,1","+0060,1","99999,9",,,,,,"00,99,1,99,9,99,9,99999,9,99,9,99,9","10149,1,99999,9",,,"MET048METAR MMMZ 020744Z 00000KT 10SM SKC 08/06 A2997=",
"76459399999","2025-02-02T08:46:00","4","23.161356","-106.266072","11.58","GENERAL RAFAEL BUELNA INTERNATIONAL, MX","FM-15","99999","V020","999,9,C,0000,1","22000,1,9,N","016093,1,9,9","+0080,1","+0070,1","10195,1",,,,,,"00,99,1,99,9,99,9,99999,9,99,9,99,9","10146,1,99999,9","7,1,007,1,+999,9",,"MET069METAR MMMZ 020846Z 00000KT 10SM SKC 08/07 A2996 RMK SLP195 57007 912=",
"76459399999","2025-02-02T09:42:00","4","23.161356","-106.266072","11.58","GENERAL RAFAEL BUELNA INTERNATIONAL, MX","FM-15","99999","V020","999,9,C,0000,1","22000,1,9,N","016093,1,9,9","+0080,1","+0070,1","99999,9",,,,,,"00,99,1,99,9,99,9,99999,9,99,9,99,9","10139,1,99999,9",,,"MET048METAR MMMZ 020942Z 00000KT 10SM SKC 08/07 A2994=",
"76459399999","2025-02-02T10:48:00","4","23.161356","-106.266072","11.58","GENERAL RAFAEL BUELNA INTERNATIONAL, MX","FM-15","99999","V020","999,9,C,0000,1","22000,1,9,N","016093,1,9,9","+0070,1","+0060,1","99999,9",,,,,,"00,99,1,99,9,99,9,99999,9,99,9,99,9","10142,1,99999,9",,,"MET048METAR MMMZ 021048Z 00000KT 10SM SKC 07/06 A2995=",
"76459399999","2025-02-02T11:46:00","4","23.161356","-106.266072","11.58","GENERAL RAFAEL BUELNA INTERNATIONAL, MX","FM-15","99999","V020","999,9,C,0000,1","22000,1,9,N","016093,1,9,9","+0070,1","+0060,1","10136,1",,,,,,"00,99,1,99,9,99,9,99999,9,99,9,99,9","10142,1,99999,9","7,1,003,1,+999,9",,"MET069METAR MMMZ 021146Z 00000KT 10SM SKC 07/06 A2995 RMK SLP136 57003 900=",
"76459399999","2025-02-02T12:48:00","4","23.161356","-106.266072","11.58","GENERAL RAFAEL BUELNA INTERNATIONAL, MX","FM-15","99999","V020","999,9,C,0000,1","22000,1,9,N","016093,1,9,9","+0070,1","+0060,1","99999,9",,,,,,"00,99,1,99,9,99,9,99999,9,99,9,99,9","10146,1,99999,9",,,"MET048METAR MMMZ 021248Z 00000KT 10SM SKC 07/06 A2996=",
"76459399999","2025-02-02T13:42:00","4","23.161356","-106.266072","11.58","GENERAL RAFAEL BUELNA INTERNATIONAL, MX","FM-15","99999","V020","050,1,N,0021,1","22000,1,9,N","019312,1,9,9","+0080,1","+0070,1","99999,9",,,,,,"00,99,1,99,9,99,9,99999,9,99,9,99,9","10149,1,99999,9",,,"MET048METAR MMMZ 021342Z 05004KT 12SM SKC 08/07 A2997=",
"76459399999","2025-02-02T14:42:00","4","23.161356","-106.266072","11.58","GENERAL RAFAEL BUELNA INTERNATIONAL, MX","FM-15","99999","V020","999,9,C,0000,1","22000,1,9,N","022531,1,9,9","+0110,1","+0070,1","10152,1",,,,,,"00,99,1,99,9,99,9,99999,9,99,9,99,9","10152,1,99999,9","2,1,010,1,+999,9","11,1","MET074METAR MMMZ 021442Z 00000KT 14SM BCFG SKC 11/07 A2998 RMK SLP152 52010 953=",
"76459399999","2025-02-02T15:41:00","4","23.161356","-106.266072","11.58","GENERAL RAFAEL BUELNA INTERNATIONAL, MX","FM-15","99999","V020","999,9,C,0000,1","22000,1,9,N","024140,1,9,9","+0180,1","+0090,1","99999,9",,,,,,"00,99,1,99,9,99,9,99999,9,99,9,99,9","10156,1,99999,9",,,"MET048METAR MMMZ 021541Z 00000KT 15SM SKC 18/09 A2999=",
"76459399999","2025-02-02T16:42:00","4","23.161356","-106.266072","11.58","GENERAL RAFAEL BUELNA INTERNATIONAL, MX","FM-15","99999","V020","999,9,C,0000,1","22000,1,9,N","024140,1,9,9","+0230,1","+0100,1","99999,9",,,,,,"00,99,1,99,9,99,9,99999,9,99,9,99,9","10159,1,99999,9",,,"MET048METAR MMMZ 021642Z 00000KT 15SM SKC 23/10 A3000=",
"76459399999","2025-02-02T17:44:00","4","23.161356","-106.266072","11.58","GENERAL RAFAEL BUELNA INTERNATIONAL, MX","FM-15","99999","V020","260,1,N,0021,1","22000,1,9,N","024140,1,9,9","+0250,1","+0110,1","10152,1",,,,,,"00,99,1,99,9,99,9,99999,9,99,9,99,9","10156,1,99999,9","2,1,003,1,+999,9",,"MET069METAR MMMZ 021744Z 26004KT 15SM SKC 25/11 A2999 RMK SLP152 52003 973=",
"76459399999","2025-02-02T18:42:00","4","23.161356","-106.266072","11.58","GENERAL RAFAEL BUELNA INTERNATIONAL, MX","FM-15","99999","V020","260,1,N,0031,1","22000,1,9,N","024140,1,9,9","+0250,1","+0100,1","99999,9",,,,,,"00,99,1,99,9,99,9,99999,9,99,9,99,9","10152,1,99999,9",,,"MET048METAR MMMZ 021842Z 26006KT 15SM SKC 25/10 A2998=",
"76459399999","2025-02-02T19:41:00","4","23.161356","-106.266072","11.58","GENERAL RAFAEL BUELNA INTERNATIONAL, MX","FM-15","99999","V020","300,1,N,0036,1","22000,1,9,N","024140,1,9,9","+0260,1","+0120,1","99999,9",,,,,,"00,99,1,99,9,99,9,99999,9,99,9,99,9","10142,1,99999,9",,,"MET048METAR MMMZ 021941Z 30007KT 15SM SKC 26/12 A2995=",
"76459399999","2025-02-02T20:44:00","4","23.161356","-106.266072","11.58","GENERAL RAFAEL BUELNA INTERNATIONAL, MX","FM-15","99999","V020","290,1,N,0051,1","22000,1,9,N","024140,1,9,9","+0260,1","+0080,1","10132,1",,,,,,"00,99,1,99,9,99,9,99999,9,99,9,99,9","10132,1,99999,9","7,1,023,1,+999,9",,"MET069METAR MMMZ 022044Z 29010KT 15SM SKC 26/08 A2992 RMK SLP132 57023 902=",
"76459399999","2025-02-02T21:45:00","4","23.161356","-106.266072","11.58","GENERAL RAFAEL BUELNA INTERNATIONAL, MX","FM-15","99999","V020","300,1,N,0051,1","22000,1,9,N","022531,1,9,9","+0270,1","+0100,1","99999,9",,,,,,"00,99,1,99,9,99,9,99999,9,99,9,99,9","10125,1,99999,9",,,"MET048METAR MMMZ 022145Z 30010KT 14SM SKC 27/10 A2990=",
"76459399999","2025-02-02T22:41:00","4","23.161356","-106.266072","11.58","GENERAL RAFAEL BUELNA INTERNATIONAL, MX","FM-15","99999","V020","300,1,N,0031,1","22000,1,9,N","022531,1,9,9","+0270,1","+0080,1","99999,9",,,,,,"00,99,1,99,9,99,9,99999,9,99,9,99,9","10122,1,99999,9",,,"MET048METAR MMMZ 022241Z 30006KT 14SM SKC 27/08 A2989=",
"76459399999","2025-02-02T23:46:00","4","23.161356","-106.266072","11.58","GENERAL RAFAEL BUELNA INTERNATIONAL, MX","FM-15","99999","V020","280,1,N,0026,1","22000,1,9,N","022531,1,9,9","+0260,1","+0100,1","10130,1",,,,,,"00,99,1,99,9,99,9,99999,9,99,9,99,9","10122,1,99999,9","7,1,010,1,+999,9",,"MET069METAR MMMZ 022346Z 28005KT 14SM SKC 26/10 A2989 RMK SLP130 57010 956=",
"76459399999","2025-02-03T00:41:00","4","23.161356","-106.266072","11.58","GENERAL RAFAEL BUELNA INTERNATIONAL, MX","FM-15","99999","V020","300,1,N,0026,1","22000,1,9,N","019312,1,9,9","+0230,1","+0090,1","99999,9",,,,,,"00,99,1,99,9,99,9,99999,9,99,9,99,9","10125,1,99999,9",,,"MET048METAR MMMZ 030041Z 30005KT 12SM SKC 23/09 A2990=",
"76459399999","2025-02-03T02:43:00","4","23.161356","-106.266072","11.58","GENERAL RAFAEL BUELNA INTERNATIONAL, MX","FM-15","99999","V020","300,1,N,0021,1","22000,1,9,N","016093,1,9,9","+0170,1","+0100,1","10135,1",,,,,,"00,99,1,99,9,99,9,99999,9,99,9,99,9","10135,1,99999,9","2,1,013,1,+999,9",,"MET069METAR MMMZ 030243Z 30004KT 10SM SKC 17/10 A2993 RMK SLP135 52013 960=",
"76459399999","2025-02-03T03:41:00","4","23.161356","-106.266072","11.58","GENERAL RAFAEL BUELNA INTERNATIONAL, MX","FM-15","99999","V020","999,9,C,0000,1","22000,1,9,N","016093,1,9,9","+0150,1","+0090,1","99999,9",,,,,,"00,99,1,99,9,99,9,99999,9,99,9,99,9","10135,1,99999,9",,,"MET048METAR MMMZ 030341Z 00000KT 10SM SKC 15/09 A2993=",
"76459399999","2025-02-03T04:45:00","4","23.161356","-106.266072","11.58","GENERAL RAFAEL BUELNA INTERNATIONAL, MX","FM-15","99999","V020","999,9,C,0000,1","22000,1,9,N","016093,1,9,9","+0130,1","+0080,1","99999,9",,,,,,"00,99,1,99,9,99,9,99999,9,99,9,99,9","10135,1,99999,9",,,"MET048METAR MMMZ 030445Z 00000KT 10SM SKC 13/08 A2993=",
"76459399999","2025-02-03T05:44:00","4","23.161356","-106.266072","11.58","GENERAL RAFAEL BUELNA INTERNATIONAL, MX","FM-15","99999","V020","999,9,C,0000,1","22000,1,9,N","016093,1,9,9","+0120,1","+0100,1","10130,1",,,,,,"00,99,1,99,9,99,9,99999,9,99,9,99,9","10135,1,99999,9",,,"MET068METAR MMMZ 030544Z 00000KT 10SM SKC 12/10 A2993 RMK SLP130 5400 966=",
"76459399999","2025-02-03T06:43:00","4","23.161356","-106.266072","11.58","GENERAL RAFAEL BUELNA INTERNATIONAL, MX","FM-15","99999","V020","999,9,C,0000,1","22000,1,9,N","016093,1,9,9","+0110,1","+0100,1","99999,9",,,,,,"00,99,1,99,9,99,9,99999,9,99,9,99,9","10135,1,99999,9",,,"MET048METAR MMMZ 030643Z 00000KT 10SM SKC 11/10 A2993=",
"76459399999","2025-02-03T07:40:00","4","23.161356","-106.266072","11.58","GENERAL RAFAEL BUELNA INTERNATIONAL, MX","FM-15","99999","V020","120,1,N,0015,1","22000,1,9,N","016093,1,9,9","+0110,1","+0090,1","99999,9",,,,,,"00,99,1,99,9,99,9,99999,9,99,9,99,9","10135,1,99999,9",,,"MET048METAR MMMZ 030740Z 12003KT 10SM SKC 11/09 A2993=",
"76459399999","2025-02-03T08:41:00","4","23.161356","-106.266072","11.58","GENERAL RAFAEL BUELNA INTERNATIONAL, MX","FM-15","99999","V020","999,9,C,0000,1","22000,1,9,N","016093,1,9,9","+0100,1","+0080,1","10122,1",,,,,,"00,99,1,99,9,99,9,99999,9,99,9,99,9","10135,1,99999,9","4,1,000,1,+999,9",,"MET069METAR MMMZ 030841Z 00000KT 10SM SKC 10/08 A2993 RMK SLP122 54000 975=",
"76459399999","2025-02-03T09:40:00","4","23.161356","-106.266072","11.58","GENERAL RAFAEL BUELNA INTERNATIONAL, MX","FM-15","99999","V020","050,1,N,0021,1","22000,1,9,N","016093,1,9,9","+0100,1","+0070,1","99999,9",,,,,,"00,99,1,99,9,99,9,99999,9,99,9,99,9","10132,1,99999,9",,,"MET048METAR MMMZ 030940Z 05004KT 10SM SKC 10/07 A2992=",
"76459399999","2025-02-03T10:40:00","4","23.161356","-106.266072","11.58","GENERAL RAFAEL BUELNA INTERNATIONAL, MX","FM-15","99999","V020","050,1,N,0015,1","22000,1,9,N","016093,1,9,9","+0100,1","+0080,1","99999,9",,,,,,"00,99,1,99,9,99,9,99999,9,99,9,99,9","10129,1,99999,9",,,"MET048METAR MMMZ 031040Z 05003KT 10SM SKC 10/08 A2991=",
"76459399999","2025-02-03T11:42:00","4","23.161356","-106.266072","11.58","GENERAL RAFAEL BUELNA INTERNATIONAL, MX","FM-15","99999","V020","999,9,C,0000,1","22000,1,9,N","016093,1,9,9","+0100,1","+0070,1","10123,1",,,,,,"00,99,1,99,9,99,9,99999,9,99,9,99,9","10129,1,99999,9","7,1,007,1,+999,9",,"MET069METAR MMMZ 031142Z 00000KT 10SM SKC 10/07 A2991 RMK SLP123 57007 963=",
"76459399999","2025-02-03T12:40:00","4","23.161356","-106.266072","11.58","GENERAL RAFAEL BUELNA INTERNATIONAL, MX","FM-15","99999","V020","070,1,N,0015,1","22000,1,9,N","016093,1,9,9","+0100,1","+0070,1","99999,9",,,,,,"00,99,1,99,9,99,9,99999,9,99,9,99,9","10132,1,99999,9",,,"MET048METAR MMMZ 031240Z 07003KT 10SM SKC 10/07 A2992=",
"76459399999","2025-02-03T13:43:00","4","23.161356","-106.266072","11.58","GENERAL RAFAEL BUELNA INTERNATIONAL, MX","FM-15","99999","V020","999,9,C,0000,1","99999,9,9,N","019312,1,9,9","+0090,1","+0060,1","99999,9",,"02,1,+07620,1,00,1",,,"9,AGL   ,+99999,+99999","99,99,9,02,1,99,9,07620,1,99,9,99,9","10139,1,99999,9",,,"MET061METAR MMMZ 031343Z 00000KT 12SM FEW250 09/06 A2994 RMK 8/001=",
"76459399999","2025-02-03T14:42:00","4","23.161356","-106.266072","11.58","GENERAL RAFAEL BUELNA INTERNATIONAL, MX","FM-15","99999","V020","040,1,N,0015,1","22000,1,9,N","024140,1,9,9","+0130,1","+0070,1","10142,1",,,,,,"00,99,1,99,9,99,9,99999,9,99,9,99,9","10146,1,99999,9","2,1,013,1,+999,9",,"MET077METAR MMMZ 031442Z 04003KT 15SM SKC 13/07 A2996 RMK SLP142 52013 960 ISOL CI=",
"76459399999","2025-02-03T15:42:00","4","23.161356","-106.266072","11.58","GENERAL RAFAEL BUELNA INTERNATIONAL, MX","FM-15","99999","V020","999,9,C,0000,1","22000,1,9,N","024140,1,9,9","+0190,1","+0080,1","99999,9",,,,,,"00,99,1,99,9,99,9,99999,9,99,9,99,9","10149,1,99999,9",,,"MET060METAR MMMZ 031542Z 00000KT 15SM SKC 19/08 A2997 RMK ISOL CI=",
"76459399999","2025-02-03T16:45:00","4","23.161356","-106.266072","11.58","GENERAL RAFAEL BUELNA INTERNATIONAL, MX","FM-15","99999","V020","999,9,C,0000,1","99999,9,9,N","024140,1,9,9","+0240,1","+0110,1","99999,9",,"02,1,+07620,1,00,1",,,"9,AGL   ,+99999,+99999","99,99,9,02,1,99,9,07620,1,99,9,99,9","10149,1,99999,9",,,"MET061METAR MMMZ 031645Z 00000KT 15SM FEW250 24/11 A2997 RMK 8/001=",
"76459399999","2025-02-03T17:44:00","4","23.161356","-106.266072","11.58","GENERAL RAFAEL BUELNA INTERNATIONAL, MX","FM-15","99999","V020","220,1,N,0021,1","99999,9,9,N","024140,1,9,9","+0280,1","+0100,1","10121,1",,"02,1,+07620,1,00,1",,,"9,AGL   ,+99999,+99999","99,99,9,02,1,99,9,07620,1,99,9,99,9","10146,1,99999,9","2,1,003,1,+999,9",,"MET078METAR MMMZ 031744Z 22004KT 15SM FEW250 28/10 A2996 RMK SLP121 52003 981 8/001=",
"76459399999","2025-02-03T18:43:00","4","23.161356","-106.266072","11.58","GENERAL RAFAEL BUELNA INTERNATIONAL, MX","FM-15","99999","V020","240,1,N,0026,1","99999,9,9,N","024140,1,9,9","+0290,2","+0130,1","99999,9",,"02,1,+07620,1,00,1",,,"9,AGL   ,+99999,+99999","99,99,9,02,1,99,9,07620,1,99,9,99,9","10139,1,99999,9",,,"MET061METAR MMMZ 031843Z 24005KT 15SM FEW250 29/13 A2994 RMK 8/001=",
"76459399999","2025-02-03T19:41:00","4","23.161356","-106.266072","11.58","GENERAL RAFAEL BUELNA INTERNATIONAL, MX","FM-15","99999","V020","270,1,N,0015,1","99999,9,9,N","024140,1,9,9","+0290,2","+0130,1","99999,9",,"02,1,+07620,1,00,1",,,"9,AGL   ,+99999,+99999","99,99,9,02,1,99,9,07620,1,99,9,99,9","10129,1,99999,9",,,"MET061METAR MMMZ 031941Z 27003KT 15SM FEW250 29/13 A2991 RMK 8/001=",
"76459399999","2025-02-03T20:44:00","4","23.161356","-106.266072","11.58","GENERAL RAFAEL BUELNA INTERNATIONAL, MX","FM-15","99999","V020","280,1,N,0026,1","99999,9,9,N","024140,1,9,9","+0280,1","+0120,1","10118,1",,"04,1,+07620,1,00,1",,,"9,AGL   ,+99999,+99999","99,99,9,04,1,99,9,07620,1,99,9,99,9","10118,1,99999,9","7,1,027,1,+999,9",,"MET078METAR MMMZ 032044Z 28005KT 15SM SCT250 28/12 A2988 RMK SLP118 57027 964 8/004=",
"76459399999","2025-02-03T21:46:00","4","23.161356","-106.266072","11.58","GENERAL RAFAEL BUELNA INTERNATIONAL, MX","FM-15","99999","V020","230,1,N,0026,1","07620,1,C,N","022531,1,9,9","+0280,1","+0110,1","99999,9",,"07,1,+07620,1,02,1",,,"9,AGL   ,+99999,+99999","99,99,9,07,1,99,9,07620,1,99,9,99,9","10115,1,99999,9",,,"MET061METAR MMMZ 032146Z 23005KT 14SM BKN250 28/11 A2987 RMK 8/008=",
"76459399999","2025-02-03T22:49:00","4","23.161356","-106.266072","11.58","GENERAL RAFAEL BUELNA INTERNATIONAL, MX","FM-15","99999","V020","260,1,N,0036,1","07620,1,C,N","022531,1,9,9","+0280,1","+0100,1","99999,9",,"07,1,+07620,1,02,1",,,"9,AGL   ,+99999,+99999","99,99,9,07,1,99,9,07620,1,99,9,99,9","10112,1,99999,9",,,"MET061METAR MMMZ 032249Z 26007KT 14SM BKN250 28/10 A2986 RMK 8/008=",
"76459399999","2025-02-03T23:48:00","4","23.161356","-106.266072","11.58","GENERAL RAFAEL BUELNA INTERNATIONAL, MX","FM-15","99999","V020","280,1,N,0031,1","99999,9,9,N","022531,1,9,9","+0270,1","+0100,1","10120,1",,"04,1,+07620,1,00,1",,,"9,AGL   ,+99999,+99999","99,99,9,04,1,99,9,07620,1,99,9,99,9","10112,1,99999,9","7,1,007,1,+999,9",,"MET078METAR MMMZ 032348Z 28006KT 14SM SCT250 27/10 A2986 RMK SLP120 57007 960 8/001=",
"76459399999","2025-02-04T00:45:00","4","23.161356","-106.266072","11.58","GENERAL RAFAEL BUELNA INTERNATIONAL, MX","FM-15","99999","V020","300,1,N,0036,1","99999,9,9,N","019312,1,9,9","+0220,1","+0120,1","99999,9",,"02,1,+07620,1,00,1",,,"9,AGL   ,+99999,+99999","99,99,9,02,1,99,9,07620,1,99,9,99,9","10115,1,99999,9",,,"MET061METAR MMMZ 040045Z 30007KT 12SM FEW250 22/12 A2987 RMK 8/001=",
"76459399999","2025-02-04T01:44:00","4","23.161356","-106.266072","11.58","GENERAL RAFAEL BUELNA INTERNATIONAL, MX","FM-15","99999","V020","310,1,N,0026,1","22000,1,9,N","016093,1,9,9","+0190,1","+0110,1","99999,9",,,,,,"00,99,1,99,9,99,9,99999,9,99,9,99,9","10122,1,99999,9",,,"MET060METAR MMMZ 040144Z 31005KT 10SM SKC 19/11 A2989 RMK ISOL CI=",
"76459399999","2025-02-04T02:43:00","4","23.161356","-106.266072","11.58","GENERAL RAFAEL BUELNA INTERNATIONAL, MX","FM-15","99999","V020","310,1,N,0021,1","22000,1,9,N","016093,1,9,9","+0170,1","+0090,1","10131,1",,,,,,"00,99,1,99,9,99,9,99999,9,99,9,99,9","10132,1,99999,9","2,1,020,1,+999,9",,"MET077METAR MMMZ 040243Z 31004KT 10SM SKC 17/09 A2992 RMK SLP131 52020 953 ISOL CI=",
"76459399999","2025-02-04T03:43:00","4","23.161356","-106.266072","11.58","GENERAL RAFAEL BUELNA INTERNATIONAL, MX","FM-15","99999","V020","999,9,C,0000,1","22000,1,9,N","016093,1,9,9","+0170,1","+0090,1","99999,9",,,,,,"00,99,1,99,9,99,9,99999,9,99,9,99,9","10135,1,99999,9",,,"MET060METAR MMMZ 040343Z 00000KT 10SM SKC 17/09 A2993 RMK ISOL CI=",
"76459399999","2025-02-04T04:43:00","4","23.161356","-106.266072","11.58","GENERAL RAFAEL BUELNA INTERNATIONAL, MX","FM-15","99999","V020","999,9,C,0000,1","22000,1,9,N","016093,1,9,9","+0160,1","+0090,1","99999,9",,,,,,"00,99,1,99,9,99,9,99999,9,99,9,99,9","10135,1,99999,9",,,"MET048METAR MMMZ 040443Z 00000KT 10SM SKC 16/09 A2993=",
"76459399999","2025-02-04T05:44:00","4","23.161356","-106.266072","11.58","GENERAL RAFAEL BUELNA INTERNATIONAL, MX","FM-15","99999","V020","999,9,C,0000,1","22000,1,9,N","016093,1,9,9","+0140,1","+0080,1","10132,1",,,,,,"00,99,1,99,9,99,9,99999,9,99,9,99,9","10135,1,99999,9","2,1,003,1,+999,9",,"MET069METAR MMMZ 040544Z 00000KT 10SM SKC 14/08 A2993 RMK SLP132 52003 902=",
"76459399999","2025-02-04T06:41:00","4","23.161356","-106.266072","11.58","GENERAL RAFAEL BUELNA INTERNATIONAL, MX","FM-15","99999","V020","999,9,C,0000,1","22000,1,9,N","016093,1,9,9","+0140,1","+0090,1","99999,9",,,,,,"00,99,1,99,9,99,9,99999,9,99,9,99,9","10135,1,99999,9",,,"MET048METAR MMMZ 040641Z 00000KT 10SM SKC 14/09 A2993=",
"76459399999","2025-02-04T07:51:00","4","23.161356","-106.266072","11.58","GENERAL RAFAEL BUELNA INTERNATIONAL, MX","FM-15","99999","V020","999,9,C,0000,1","22000,1,9,N","016093,1,9,9","+0130,1","+0090,1","99999,9",,,,,,"00,99,1,99,9,99,9,99999,9,99,9,99,9","10135,1,99999,9",,,"MET048METAR MMMZ 040751Z 00000KT 10SM SKC 13/09 A2993=",
"76459399999","2025-02-04T09:52:00","4","23.161356","-106.266072","11.58","GENERAL RAFAEL BUELNA INTERNATIONAL, MX","FM-15","99999","V020","999,9,C,0000,1","22000,1,9,N","016093,1,9,9","+0130,1","+0060,1","99999,9",,,,,,"00,99,1,99,9,99,9,99999,9,99,9,99,9","10129,1,99999,9",,,"MET048METAR MMMZ 040952Z 00000KT 10SM SKC 13/06 A2991=",
"76459399999","2025-02-04T10:42:00","4","23.161356","-106.266072","11.58","GENERAL RAFAEL BUELNA INTERNATIONAL, MX","FM-15","99999","V020","999,9,C,0000,1","22000,1,9,N","016093,1,9,9","+0120,1","+0080,1","99999,9",,,,,,"00,99,1,99,9,99,9,99999,9,99,9,99,9","10132,1,99999,9",,,"MET048METAR MMMZ 041042Z 00000KT 10SM SKC 12/08 A2992=",
"76459399999","2025-02-04T11:43:00","4","23.161356","-106.266072","11.58","GENERAL RAFAEL BUELNA INTERNATIONAL, MX","FM-15","99999","V020","120,1,N,0026,1","22000,1,9,N","016093,1,9,9","+0120,1","+0060,1","10127,1",,,,,,"00,99,1,99,9,99,9,99999,9,99,9,99,9","10132,1,99999,9","4,1,000,1,+999,9",,"MET069METAR MMMZ 041143Z 12005KT 10SM SKC 12/06 A2992 RMK SLP127 54000 904=",
"76459399999","2025-02-04T12:52:00","4","23.161356","-106.266072","11.58","GENERAL RAFAEL BUELNA INTERNATIONAL, MX","FM-15","99999","V020","999,9,C,0000,1","22000,1,9,N","016093,1,9,9","+0120,1","+0060,1","99999,9",,,,,,"00,99,1,99,9,99,9,99999,9,99,9,99,9","10135,1,99999,9",,,"MET048METAR MMMZ 041252Z 00000KT 10SM SKC 12/06 A2993=",
"76459399999","2025-02-04T13:46:00","4","23.161356","-106.266072","11.58","GENERAL RAFAEL BUELNA INTERNATIONAL, MX","FM-15","99999","V020","999,9,C,0000,1","22000,1,9,N","019312,1,9,9","+0110,1","+0060,1","99999,9",,,,,,"00,99,1,99,9,99,9,99999,9,99,9,99,9","10142,1,99999,9",,,"MET048METAR MMMZ 041346Z 00000KT 12SM SKC 11/06 A2995=",
"76459399999","2025-02-04T14:43:00","4","23.161356","-106.266072","11.58","GENERAL RAFAEL BUELNA INTERNATIONAL, MX","FM-15","99999","V020","999,9,C,0000,1","22000,1,9,N","024140,1,9,9","+0130,1","+0070,1","10149,1",,,,,,"00,99,1,99,9,99,9,99999,9,99,9,99,9","10149,1,99999,9","2,1,017,1,+999,9",,"MET069METAR MMMZ 041443Z 00000KT 15SM SKC 13/07 A2997 RMK SLP149 52017 907=",
"76459399999","2025-02-04T15:42:00","4","23.161356","-106.266072","11.58","GENERAL RAFAEL BUELNA INTERNATIONAL, MX","FM-15","99999","V020","999,9,C,0000,1","22000,1,9,N","024140,1,9,9","+0200,1","+0090,1","99999,9",,,,,,"00,99,1,99,9,99,9,99999,9,99,9,99,9","10156,1,99999,9",,,"MET048METAR MMMZ 041542Z 00000KT 15SM SKC 20/09 A2999=",
"76459399999","2025-02-04T16:42:00","4","23.161356","-106.266072","11.58","GENERAL RAFAEL BUELNA INTERNATIONAL, MX","FM-15","99999","V020","999,9,C,0000,1","22000,1,9,N","024140,1,9,9","+0250,1","+0100,1","99999,9",,,,,,"00,99,1,99,9,99,9,99999,9,99,9,99,9","10156,1,99999,9",,,"MET048METAR MMMZ 041642Z 00000KT 15SM SKC 25/10 A2999=",
"76459399999","2025-02-04T17:45:00","4","23.161356","-106.266072","11.58","GENERAL RAFAEL BUELNA INTERNATIONAL, MX","FM-15","99999","V020","999,9,C,0000,1","22000,1,9,N","024140,1,9,9","+0280,1","+0110,1","10148,1",,,,,,"00,99,1,99,9,99,9,99999,9,99,9,99,9","10152,1,99999,9","2,1,003,1,+999,9",,"MET069METAR MMMZ 041745Z 00000KT 15SM SKC 28/11 A2998 RMK SLP148 52003 927=",
"76459399999","2025-02-04T18:42:00","4","23.161356","-106.266072","11.58","GENERAL RAFAEL BUELNA INTERNATIONAL, MX","FM-15","99999","V020","220,1,N,0031,1","22000,1,9,N","024140,1,9,9","+0290,1","+0090,1","99999,9",,,,,,"00,99,1,99,9,99,9,99999,9,99,9,99,9","10146,1,99999,9",,,"MET048METAR MMMZ 041842Z 22006KT 15SM SKC 29/09 A2996=",
"76459399999","2025-02-04T19:43:00","4","23.161356","-106.266072","11.58","GENERAL RAFAEL BUELNA INTERNATIONAL, MX","FM-15","99999","V020","290,1,N,0041,1","22000,1,9,N","024140,1,9,9","+0260,1","+0110,1","99999,9",,,,,,"00,99,1,99,9,99,9,99999,9,99,9,99,9","10139,1,99999,9",,,"MET048METAR MMMZ 041943Z 29008KT 15SM SKC 26/11 A2994=",
"76459399999","2025-02-04T20:43:00","4","23.161356","-106.266072","11.58","GENERAL RAFAEL BUELNA INTERNATIONAL, MX","FM-15","99999","V020","270,1,N,0031,1","22000,1,9,N","024140,1,9,9","+0280,1","+0070,1","10128,1",,,,,,"00,99,1,99,9,99,9,99999,9,99,9,99,9","10129,1,99999,9","7,1,023,1,+999,9",,"MET069METAR MMMZ 042043Z 27006KT 15SM SKC 28/07 A2991 RMK SLP128 57023 910=",
"76459399999","2025-02-04T21:42:00","4","23.161356","-106.266072","11.58","GENERAL RAFAEL BUELNA INTERNATIONAL, MX","FM-15","99999","V020","300,1,N,0067,1","22000,1,9,N","022531,1,9,9","+0300,1","+0040,1","99999,9",,,,,,"00,99,1,99,9,99,9,99999,9,99,9,99,9","10125,1,99999,9",,,"MET048METAR MMMZ 042142Z 30013KT 14SM SKC 30/04 A2990=",
"76459399999","2025-02-04T22:42:00","4","23.161356","-106.266072","11.58","GENERAL RAFAEL BUELNA INTERNATIONAL, MX","FM-15","99999","V020","300,1,N,0051,1","22000,1,9,N","022531,1,9,9","+0300,1","+0040,1","99999,9",,,,,,"00,99,1,99,9,99,9,99999,9,99,9,99,9","10122,1,99999,9",,,"MET048METAR MMMZ 042242Z 30010KT 14SM SKC 30/04 A2989=",
"76459399999","2025-02-04T23:44:00","4","23.161356","-106.266072","11.58","GENERAL RAFAEL BUELNA INTERNATIONAL, MX","FM-15","99999","V020","300,1,N,0051,1","22000,1,9,N","022531,1,9,9","+0290,1","+0060,1","10130,1",,,,,,"00,99,1,99,9,99,9,99999,9,99,9,99,9","10122,1,99999,9","7,1,007,1,+999,9",,"MET069METAR MMMZ 042344Z 30010KT 14SM SKC 29/06 A2989 RMK SLP130 57007 910=",
"76459399999","2025-02-05T00:44:00","4","23.161356","-106.266072","11.58","GENERAL RAFAEL BUELNA INTERNATIONAL, MX","FM-15","99999","V020","280,1,N,0036,1","22000,1,9,N","019312,1,9,9","+0250,1","+0070,1","99999,9",,,,,,"00,99,1,99,9,99,9,99999,9,99,9,99,9","10125,1,99999,9",,,"MET056METAR MMMZ 050044Z 28007KT 12SM SKC 25/07 A2990 RMK HZY=",
"76459399999","2025-02-05T01:42:00","4","23.161356","-106.266072","11.58","GENERAL RAFAEL BUELNA INTERNATIONAL, MX","FM-15","99999","V020","340,1,N,0031,1","22000,1,9,N","016093,1,9,9","+0240,1","+0070,1","99999,9",,,,,,"00,99,1,99,9,99,9,99999,9,99,9,99,9","10135,1,99999,9",,,"MET056METAR MMMZ 050142Z 34006KT 10SM SKC 24/07 A2993 RMK HZY=",
"76459399999","2025-02-05T02:45:00","4","23.161356","-106.266072","11.58","GENERAL RAFAEL BUELNA INTERNATIONAL, MX","FM-15","99999","V020","330,1,N,0021,1","22000,1,9,N","016093,1,9,9","+0220,1","+0050,1","10141,1",,,,,,"00,99,1,99,9,99,9,99999,9,99,9,99,9","10142,1,99999,9","2,1,020,1,+999,9",,"MET073METAR MMMZ 050245Z 33004KT 10SM SKC 22/05 A2995 RMK SLP141 52020 910 HZY=",
"76459399999","2025-02-05T03:41:00","4","23.161356","-106.266072","11.58","GENERAL RAFAEL BUELNA INTERNATIONAL, MX","FM-15","99999","V020","999,9,C,0000,1","22000,1,9,N","016093,1,9,9","+0210,1","+0030,1","99999,9",,,,,,"00,99,1,99,9,99,9,99999,9,99,9,99,9","10146,1,99999,9",,,"MET048METAR MMMZ 050341Z 00000KT 10SM SKC 21/03 A2996=",
"76459399999","2025-02-05T04:43:00","4","23.161356","-106.266072","11.58","GENERAL RAFAEL BUELNA INTERNATIONAL, MX","FM-15","99999","V020","999,9,C,0000,1","22000,1,9,N","016093,1,9,9","+0190,1","+0040,1","99999,9",,,,,,"00,99,1,99,9,99,9,99999,9,99,9,99,9","10146,1,99999,9",,,"MET048METAR MMMZ 050443Z 00000KT 10SM SKC 19/04 A2996=",
"76459399999","2025-02-05T05:42:00","4","23.161356","-106.266072","11.58","GENERAL RAFAEL BUELNA INTERNATIONAL, MX","FM-15","99999","V020","999,9,C,0000,1","22000,1,9,N","016093,1,9,9","+0190,1","+0030,1","10154,1",,,,,,"00,99,1,99,9,99,9,99999,9,99,9,99,9","10146,1,99999,9","2,1,003,1,+999,9",,"MET069METAR MMMZ 050542Z 00000KT 10SM SKC 19/03 A2996 RMK SLP154 52003 922=",
"76459399999","2025-02-05T06:42:00","4","23.161356","-106.266072","11.58","GENERAL RAFAEL BUELNA INTERNATIONAL, MX","FM-15","99999","V020","999,9,C,0000,1","22000,1,9,N","016093,1,9,9","+0170,1","+0060,1","99999,9",,,,,,"00,99,1,99,9,99,9,99999,9,99,9,99,9","10142,1,99999,9",,,"MET048METAR MMMZ 050642Z 00000KT 10SM SKC 17/06 A2995=",
"76459399999","2025-02-05T07:41:00","4","23.161356","-106.266072","11.58","GENERAL RAFAEL BUELNA INTERNATIONAL, MX","FM-15","99999","V020","999,9,C,0000,1","22000,1,9,N","016093,1,9,9","+0160,1","+0070,1","99999,9",,,,,,"00,99,1,99,9,99,9,99999,9,99,9,99,9","10142,1,99999,9",,,"MET048METAR MMMZ 050741Z 00000KT 10SM SKC 16/07 A2995=",
"76459399999","2025-02-05T08:43:00","4","23.161356","-106.266072","11.58","GENERAL RAFAEL BUELNA INTERNATIONAL, MX","FM-15","99999","V020","999,9,C,0000,1","22000,1,9,N","016093,1,9,9","+0140,1","+0070,1","10138,1",,,,,,"00,99,1,99,9,99,9,99999,9,99,9,99,9","10139,1,99999,9","7,1,007,1,+999,9",,"MET069METAR MMMZ 050843Z 00000KT 10SM SKC 14/07 A2994 RMK SLP138 57007 906=",
"76459399999","2025-02-05T09:42:00","4","23.161356","-106.266072","11.58","GENERAL RAFAEL BUELNA INTERNATIONAL, MX","FM-15","99999","V020","999,9,C,0000,1","22000,1,9,N","016093,1,9,9","+0130,1","+0070,1","99999,9",,,,,,"00,99,1,99,9,99,9,99999,9,99,9,99,9","10135,1,99999,9",,,"MET048METAR MMMZ 050942Z 00000KT 10SM SKC 13/07 A2993=",
"76459399999","2025-02-05T10:43:00","4","23.161356","-106.266072","11.58","GENERAL RAFAEL BUELNA INTERNATIONAL, MX","FM-15","99999","V020","999,9,C,0000,1","22000,1,9,N","016093,1,9,9","+0140,1","+0070,1","99999,9",,,,,,"00,99,1,99,9,99,9,99999,9,99,9,99,9","10135,1,99999,9",,,"MET048METAR MMMZ 051043Z 00000KT 10SM SKC 14/07 A2993=",
"76459399999","2025-02-05T11:43:00","4","23.161356","-106.266072","11.58","GENERAL RAFAEL BUELNA INTERNATIONAL, MX","FM-15","99999","V020","999,9,C,0000,1","22000,1,9,N","016093,1,9,9","+0120,1","+0080,1","10147,1",,,,,,"00,99,1,99,9,99,9,99999,9,99,9,99,9","10139,1,99999,9","4,1,000,1,+999,9",,"MET069METAR MMMZ 051143Z 00000KT 10SM SKC 12/08 A2994 RMK SLP147 54000 920=",
"76459399999","2025-02-05T12:41:00","4","23.161356","-106.266072","11.58","GENERAL RAFAEL BUELNA INTERNATIONAL, MX","FM-15","99999","V020","999,9,C,0000,1","22000,1,9,N","016093,1,9,9","+0140,1","+0070,1","99999,9",,,,,,"00,99,1,99,9,99,9,99999,9,99,9,99,9","10142,1,99999,9",,,"MET048METAR MMMZ 051241Z 00000KT 10SM SKC 14/07 A2995=",
"76459399999","2025-02-05T13:43:00","4","23.161356","-106.266072","11.58","GENERAL RAFAEL BUELNA INTERNATIONAL, MX","FM-15","99999","V020","060,1,N,0026,1","22000,1,9,N","019312,1,9,9","+0130,1","+0070,1","99999,9",,,,,,"00,99,1,99,9,99,9,99999,9,99,9,99,9","10149,1,99999,9",,,"MET056METAR MMMZ 051343Z 06005KT 12SM SKC 13/07 A2997 RMK HZY=",
"76459399999","2025-02-05T14:50:00","4","23.161356","-106.266072","11.58","GENERAL RAFAEL BUELNA INTERNATIONAL, MX","FM-15","99999","V020","040,1,N,0021,1","22000,1,9,N","022531,1,9,9","+0160,1","+0080,1","10156,1",,,,,,"00,99,1,99,9,99,9,99999,9,99,9,99,9","10156,1,99999,9","2,1,017,1,+999,9",,"MET077METAR MMMZ 051450Z 04004KT 14SM SKC 16/08 A2999 RMK SLP156 52017 907 FULYR W=",
"76459399999","2025-02-05T15:43:00","4","23.161356","-106.266072","11.58","GENERAL RAFAEL BUELNA INTERNATIONAL, MX","FM-15","99999","V020","999,9,C,0000,1","22000,1,9,N","022531,1,9,9","+0200,1","+0090,1","99999,9",,,,,,"00,99,1,99,9,99,9,99999,9,99,9,99,9","10159,1,99999,9",,,"MET048METAR MMMZ 051543Z 00000KT 14SM SKC 20/09 A3000=",
"76459399999","2025-02-05T16:50:00","4","23.161356","-106.266072","11.58","GENERAL RAFAEL BUELNA INTERNATIONAL, MX","FM-15","99999","V020","999,9,C,0000,1","22000,1,9,N","022531,1,9,9","+0250,1","+0090,1","99999,9",,,,,,"00,99,1,99,9,99,9,99999,9,99,9,99,9","10159,1,99999,9",,,"MET048METAR MMMZ 051650Z 00000KT 14SM SKC 25/09 A3000=",
"76459399999","2025-02-05T17:43:00","4","23.161356","-106.266072","11.58","GENERAL RAFAEL BUELNA INTERNATIONAL, MX","FM-15","99999","V020","250,1,N,0031,1","22000,1,9,N","022531,1,9,9","+0280,1","+0090,1","10151,1",,,,,,"00,99,1,99,9,99,9,99999,9,99,9,99,9","10152,1,99999,9","7,1,003,1,+999,9",,"MET069METAR MMMZ 051743Z 25006KT 14SM SKC 28/09 A2998 RMK SLP151 57003 903=",
"76459399999","2025-02-05T18:45:00","4","23.161356","-106.266072","11.58","GENERAL RAFAEL BUELNA INTERNATIONAL, MX","FM-15","99999","V020","220,1,N,0026,1","22000,1,9,N","022531,1,9,9","+0290,1","+0100,1","99999,9",,,,,,"00,99,1,99,9,99,9,99999,9,99,9,99,9","10146,1,99999,9",,,"MET048METAR MMMZ 051845Z 22005KT 14SM SKC 29/10 A2996=",
"76459399999","2025-02-05T19:43:00","4","23.161356","-106.266072","11.58","GENERAL RAFAEL BUELNA INTERNATIONAL, MX","FM-15","99999","V020","270,1,N,0026,1","22000,1,9,N","022531,1,9,9","+0290,1","+0100,1","99999,9",,,,,,"00,99,1,99,9,99,9,99999,9,99,9,99,9","10135,1,99999,9",,,"MET048METAR MMMZ 051943Z 27005KT 14SM SKC 29/10 A2993=",
"76459399999","2025-02-05T20:40:00","4","23.161356","-106.266072","11.58","GENERAL RAFAEL BUELNA INTERNATIONAL, MX","FM-15","99999","V020","270,1,N,0041,1","22000,1,9,N","022531,1,9,9","+0260,1","+0130,1","10125,1",,,,,,"00,99,1,99,9,99,9,99999,9,99,9,99,9","10125,1,99999,9","7,1,027,1,+999,9",,"MET069METAR MMMZ 052040Z 27008KT 14SM SKC 26/13 A2990 RMK SLP125 57027 953=",
"76459399999","2025-02-05T21:42:00","4","23.161356","-106.266072","11.58","GENERAL RAFAEL BUELNA INTERNATIONAL, MX","FM-15","99999","V020","290,1,N,0036,1","22000,1,9,N","024140,1,9,9","+0270,1","+0120,1","99999,9",,,,,,"00,99,1,99,9,99,9,99999,9,99,9,99,9","10118,1,99999,9",,,"MET048METAR MMMZ 052142Z 29007KT 15SM SKC 27/12 A2988=",
"76459399999","2025-02-05T22:42:00","4","23.161356","-106.266072","11.58","GENERAL RAFAEL BUELNA INTERNATIONAL, MX","FM-15","99999","V020","290,1,N,0031,1","22000,1,9,N","024140,1,9,9","+0270,1","+0150,1","99999,9",,,,,,"00,99,1,99,9,99,9,99999,9,99,9,99,9","10112,1,99999,9",,,"MET048METAR MMMZ 052242Z 29006KT 15SM SKC 27/15 A2986=",
"76459399999","2025-02-05T23:43:00","4","23.161356","-106.266072","11.58","GENERAL RAFAEL BUELNA INTERNATIONAL, MX","FM-15","99999","V020","280,1,N,0041,1","22000,1,9,N","024140,1,9,9","+0250,1","+0140,1","10106,1",,,,,,"00,99,1,99,9,99,9,99999,9,99,9,99,9","10108,1,99999,9","7,1,013,1,+999,9",,"MET069METAR MMMZ 052343Z 28008KT 15SM SKC 25/14 A2985 RMK SLP106 57013 975=",
"76459399999","2025-02-06T00:43:00","4","23.161356","-106.266072","11.58","GENERAL RAFAEL BUELNA INTERNATIONAL, MX","FM-15","99999","V020","300,1,N,0036,1","22000,1,9,N","022531,1,9,9","+0230,1","+0140,1","99999,9",,,,,,"00,99,1,99,9,99,9,99999,9,99,9,99,9","10112,1,99999,9",,,"MET048METAR MMMZ 060043Z 30007KT 14SM SKC 23/14 A2986=",
"76459399999","2025-02-06T01:42:00","4","23.161356","-106.266072","11.58","GENERAL RAFAEL BUELNA INTERNATIONAL, MX","FM-15","99999","V020","310,1,N,0026,1","22000,1,9,N","020921,1,9,9","+0210,1","+0140,1","99999,9",,,,,,"00,99,1,99,9,99,9,99999,9,99,9,99,9","10118,1,99999,9",,,"MET048METAR MMMZ 060142Z 31005KT 13SM SKC 21/14 A2988=",
"76459399999","2025-02-06T02:43:00","4","23.161356","-106.266072","11.58","GENERAL RAFAEL BUELNA INTERNATIONAL, MX","FM-15","99999","V020","999,9,C,0000,1","22000,1,9,N","019312,1,9,9","+0200,1","+0130,1","10125,1",,,,,,"00,99,1,99,9,99,9,99999,9,99,9,99,9","10125,1,99999,9","2,1,013,1,+999,9",,"MET069METAR MMMZ 060243Z 00000KT 12SM SKC 20/13 A2990 RMK SLP125 52013 957=",
"76459399999","2025-02-06T03:42:00","4","23.161356","-106.266072","11.58","GENERAL RAFAEL BUELNA INTERNATIONAL, MX","FM-15","99999","V020","999,9,C,0000,1","22000,1,9,N","019312,1,9,9","+0180,1","+0120,1","99999,9",,,,,,"00,99,1,99,9,99,9,99999,9,99,9,99,9","10132,1,99999,9",,,"MET048METAR MMMZ 060342Z 00000KT 12SM SKC 18/12 A2992=",
"76459399999","2025-02-06T04:41:00","4","23.161356","-106.266072","11.58","GENERAL RAFAEL BUELNA INTERNATIONAL, MX","FM-15","99999","V020","999,9,C,0000,1","22000,1,9,N","016093,1,9,9","+0160,1","+0110,1","99999,9",,,,,,"00,99,1,99,9,99,9,99999,9,99,9,99,9","10135,1,99999,9",,,"MET048METAR MMMZ 060441Z 00000KT 10SM SKC 16/11 A2993=",
"76459399999","2025-02-06T05:43:00","4","23.161356","-106.266072","11.58","GENERAL RAFAEL BUELNA INTERNATIONAL, MX","FM-15","99999","V020","999,9,C,0000,1","22000,1,9,N","016093,1,9,9","+0150,1","+0110,1","10132,1",,,,,,"00,99,1,99,9,99,9,99999,9,99,9,99,9","10135,1,99999,9","7,1,010,1,+999,9",,"MET069METAR MMMZ 060543Z 00000KT 10SM SKC 15/11 A2993 RMK SLP132 57010 972=",
"76459399999","2025-02-06T06:42:00","4","23.161356","-106.266072","11.58","GENERAL RAFAEL BUELNA INTERNATIONAL, MX","FM-15","99999","V020","999,9,C,0000,1","22000,1,9,N","016093,1,9,9","+0140,1","+0110,1","99999,9",,,,,,"00,99,1,99,9,99,9,99999,9,99,9,99,9","10135,1,99999,9",,,"MET048METAR MMMZ 060642Z 00000KT 10SM SKC 14/11 A2993=",
"76459399999","2025-02-06T07:43:00","4","23.161356","-106.266072","11.58","GENERAL RAFAEL BUELNA INTERNATIONAL, MX","FM-15","99999","V020","999,9,C,0000,1","22000,1,9,N","016093,1,9,9","+0140,1","+0110,1","99999,9",,,,,,"00,99,1,99,9,99,9,99999,9,99,9,99,9","10135,1,99999,9",,,"MET048METAR MMMZ 060743Z 00000KT 10SM SKC 14/11 A2993=",
"76459399999","2025-02-06T08:42:00","4","23.161356","-106.266072","11.58","GENERAL RAFAEL BUELNA INTERNATIONAL, MX","FM-15","99999","V020","999,9,C,0000,1","22000,1,9,N","016093,1,9,9","+0130,1","+0090,1","10135,1",,,,,,"00,99,1,99,9,99,9,99999,9,99,9,99,9","10135,1,99999,9","4,1,000,1,+999,9",,"MET069METAR MMMZ 060842Z 00000KT 10SM SKC 13/09 A2993 RMK SLP135 54000 953=",
"76459399999","2025-02-06T09:45:00","4","23.161356","-106.266072","11.58","GENERAL RAFAEL BUELNA INTERNATIONAL, MX","FM-15","99999","V020","999,9,C,0000,1","22000,1,9,N","016093,1,9,9","+0130,1","+0100,1","99999,9",,,,,,"00,99,1,99,9,99,9,99999,9,99,9,99,9","10135,1,99999,9",,,"MET048METAR MMMZ 060945Z 00000KT 10SM SKC 13/10 A2993=",
"76459399999","2025-02-06T10:46:00","4","23.161356","-106.266072","11.58","GENERAL RAFAEL BUELNA INTERNATIONAL, MX","FM-15","99999","V020","999,9,C,0000,1","22000,1,9,N","016093,1,9,9","+0120,1","+0090,1","99999,9",,,,,,"00,99,1,99,9,99,9,99999,9,99,9,99,9","10135,1,99999,9",,,"MET048METAR MMMZ 061046Z 00000KT 10SM SKC 12/09 A2993=",
"76459399999","2025-02-06T11:47:00","4","23.161356","-106.266072","11.58","GENERAL RAFAEL BUELNA INTERNATIONAL, MX","FM-15","99999","V020","999,9,C,0000,1","22000,1,9,N","016093,1,9,9","+0120,1","+0090,1","10138,1",,,,,,"00,99,1,99,9,99,9,99999,9,99,9,99,9","10135,1,99999,9","4,1,000,1,+999,9",,"MET069METAR MMMZ 061147Z 00000KT 10SM SKC 12/09 A2993 RMK SLP138 54000 959=",
"76459399999","2025-02-06T12:42:00","4","23.161356","-106.266072","11.58","GENERAL RAFAEL BUELNA INTERNATIONAL, MX","FM-15","99999","V020","999,9,C,0000,1","22000,1,9,N","016093,1,9,9","+0120,1","+0090,1","99999,9",,,,,,"00,99,1,99,9,99,9,99999,9,99,9,99,9","10142,1,99999,9",,,"MET048METAR MMMZ 061242Z 00000KT 10SM SKC 12/09 A2995=",
"76459399999","2025-02-06T13:50:00","4","23.161356","-106.266072","11.58","GENERAL RAFAEL BUELNA INTERNATIONAL, MX","FM-15","99999","V020","999,9,C,0000,1","22000,1,9,N","019312,1,9,9","+0120,1","+0090,1","99999,9",,,,,,"00,99,1,99,9,99,9,99999,9,99,9,99,9","10152,1,99999,9",,,"MET048METAR MMMZ 061350Z 00000KT 12SM SKC 12/09 A2998=",
"76459399999","2025-02-06T14:40:00","4","23.161356","-106.266072","11.58","GENERAL RAFAEL BUELNA INTERNATIONAL, MX","FM-15","99999","V020","999,9,C,0000,1","22000,1,9,N","024140,1,9,9","+0150,1","+0100,1","10159,1",,,,,,"00,99,1,99,9,99,9,99999,9,99,9,99,9","10163,1,99999,9","2,1,027,1,+999,9",,"MET069METAR MMMZ 061440Z 00000KT 15SM SKC 15/10 A3001 RMK SLP159 52027 903=",
"76459399999","2025-02-06T15:44:00","4","23.161356","-106.266072","11.58","GENERAL RAFAEL BUELNA INTERNATIONAL, MX","FM-15","99999","V020","999,9,C,0000,1","22000,1,9,N","024140,1,9,9","+0200,1","+0110,1","99999,9",,,,,,"00,99,1,99,9,99,9,99999,9,99,9,99,9","10169,1,99999,9",,,"MET048METAR MMMZ 061544Z 00000KT 15SM SKC 20/11 A3003=",
"76459399999","2025-02-06T16:42:00","4","23.161356","-106.266072","11.58","GENERAL RAFAEL BUELNA INTERNATIONAL, MX","FM-15","99999","V020","999,9,C,0000,1","22000,1,9,N","024140,1,9,9","+0240,1","+0140,1","99999,9",,,,,,"00,99,1,99,9,99,9,99999,9,99,9,99,9","10169,1,99999,9",,,"MET048METAR MMMZ 061642Z 00000KT 15SM SKC 24/14 A3003=",
"76459399999","2025-02-06T17:49:00","4","23.161356","-106.266072","11.58","GENERAL RAFAEL BUELNA INTERNATIONAL, MX","FM-15","99999","V020","999,9,C,0000,1","22000,1,9,N","024140,1,9,9","+0270,1","+0130,1","10160,1",,,,,,"00,99,1,99,9,99,9,99999,9,99,9,99,9","10166,1,99999,9","2,1,003,1,+999,9",,"MET069METAR MMMZ 061749Z 00000KT 15SM SKC 27/13 A3002 RMK SLP160 52003 909=",
"76459399999","2025-02-06T18:48:00","4","23.161356","-106.266072","11.58","GENERAL RAFAEL BUELNA INTERNATIONAL, MX","FM-15","99999","V020","230,1,N,0026,1","22000,1,9,N","024140,1,9,9","+0290,2","+0140,1","99999,9",,,,,,"00,99,1,99,9,99,9,99999,9,99,9,99,9","10156,1,99999,9",,,"MET048METAR MMMZ 061848Z 23005KT 15SM SKC 29/14 A2999=",
"76459399999","2025-02-06T19:40:00","4","23.161356","-106.266072","11.58","GENERAL RAFAEL BUELNA INTERNATIONAL, MX","FM-15","99999","V020","280,1,N,0021,1","22000,1,9,N","024140,1,9,9","+0280,1","+0110,1","99999,9",,,,,,"00,99,1,99,9,99,9,99999,9,99,9,99,9","10142,1,99999,9",,,"MET048METAR MMMZ 061940Z 28004KT 15SM SKC 28/11 A2995=",
"76459399999","2025-02-06T20:44:00","4","23.161356","-106.266072","11.58","GENERAL RAFAEL BUELNA INTERNATIONAL, MX","FM-15","99999","V020","270,1,N,0036,1","22000,1,9,N","024140,1,9,9","+0280,1","+0120,1","10132,1",,,,,,"00,99,1,99,9,99,9,99999,9,99,9,99,9","10132,1,99999,9","7,1,030,1,+999,9",,"MET069METAR MMMZ 062044Z 27007KT 15SM SKC 28/12 A2992 RMK SLP132 57030 907=",
"76459399999","2025-02-06T21:43:00","4","23.161356","-106.266072","11.58","GENERAL RAFAEL BUELNA INTERNATIONAL, MX","FM-15","99999","V020","270,1,N,0036,1","22000,1,9,N","024140,1,9,9","+0280,1","+0120,1","99999,9",,,,,,"00,99,1,99,9,99,9,99999,9,99,9,99,9","10125,1,99999,9",,,"MET048METAR MMMZ 062143Z 27007KT 15SM SKC 28/12 A2990=",
"76459399999","2025-02-06T22:41:00","4","23.161356","-106.266072","11.58","GENERAL RAFAEL BUELNA INTERNATIONAL, MX","FM-15","99999","V020","290,1,N,0041,1","22000,1,9,N","024140,1,9,9","+0260,1","+0150,1","99999,9",,,,,,"00,99,1,99,9,99,9,99999,9,99,9,99,9","10122,1,99999,9",,,"MET048METAR MMMZ 062241Z 29008KT 15SM SKC 26/15 A2989=",
"76459399999","2025-02-06T23:42:00","4","23.161356","-106.266072","11.58","GENERAL RAFAEL BUELNA INTERNATIONAL, MX","FM-15","99999","V020","280,1,N,0031,1","22000,1,9,N","024140,1,9,9","+0250,1","+0150,1","10117,1",,,,,,"00,99,1,99,9,99,9,99999,9,99,9,99,9","10122,1,99999,9","7,1,010,1,+999,9",,"MET069METAR MMMZ 062342Z 28006KT 15SM SKC 25/15 A2989 RMK SLP117 57010 911=",
"76459399999","2025-02-07T00:40:00","4","23.161356","-106.266072","11.58","GENERAL RAFAEL BUELNA INTERNATIONAL, MX","FM-15","99999","V020","320,1,N,0031,1","22000,1,9,N","022531,1,9,9","+0240,1","+0130,1","99999,9",,,,,,"00,99,1,99,9,99,9,99999,9,99,9,99,9","10125,1,99999,9",,,"MET048METAR MMMZ 070040Z 32006KT 14SM SKC 24/13 A2990=",
"76459399999","2025-02-07T01:40:00","4","23.161356","-106.266072","11.58","GENERAL RAFAEL BUELNA INTERNATIONAL, MX","FM-15","99999","V020","340,1,N,0021,1","22000,1,9,N","019312,1,9,9","+0210,1","+0130,1","99999,9",,,,,,"00,99,1,99,9,99,9,99999,9,99,9,99,9","10132,1,99999,9",,,"MET048METAR MMMZ 070140Z 34004KT 12SM SKC 21/13 A2992=",
"76459399999","2025-02-07T02:42:00","4","23.161356","-106.266072","11.58","GENERAL RAFAEL BUELNA INTERNATIONAL, MX","FM-15","99999","V020","310,1,N,0021,1","22000,1,9,N","019312,1,9,9","+0190,1","+0130,1","10135,1",,,,,,"00,99,1,99,9,99,9,99999,9,99,9,99,9","10135,1,99999,9","2,1,013,1,+999,9",,"MET069METAR MMMZ 070242Z 31004KT 12SM SKC 19/13 A2993 RMK SLP135 52013 910=",
"76459399999","2025-02-07T03:42:00","4","23.161356","-106.266072","11.58","GENERAL RAFAEL BUELNA INTERNATIONAL, MX","FM-15","99999","V020","310,1,N,0010,1","22000,1,9,N","019312,1,9,9","+0170,1","+0130,1","99999,9",,,,,,"00,99,1,99,9,99,9,99999,9,99,9,99,9","10139,1,99999,9",,,"MET048METAR MMMZ 070342Z 31002KT 12SM SKC 17/13 A2994=",
"76459399999","2025-02-07T04:40:00","4","23.161356","-106.266072","11.58","GENERAL RAFAEL BUELNA INTERNATIONAL, MX","FM-15","99999","V020","999,9,C,0000,1","22000,1,9,N","016093,1,9,9","+0160,1","+0120,1","99999,9",,,,,,"00,99,1,99,9,99,9,99999,9,99,9,99,9","10142,1,99999,9",,,"MET048METAR MMMZ 070440Z 00000KT 10SM SKC 16/12 A2995=",
"76459399999","2025-02-07T05:46:00","4","23.161356","-106.266072","11.58","GENERAL RAFAEL BUELNA INTERNATIONAL, MX","FM-15","99999","V020","999,9,C,0000,1","22000,1,9,N","016093,1,9,9","+0150,1","+0110,1","10137,1",,,,,,"00,99,1,99,9,99,9,99999,9,99,9,99,9","10142,1,99999,9","2,1,007,1,+999,9",,"MET069METAR MMMZ 070546Z 00000KT 10SM SKC 15/11 A2995 RMK SLP137 52007 905=",
"76459399999","2025-02-07T06:43:00","4","23.161356","-106.266072","11.58","GENERAL RAFAEL BUELNA INTERNATIONAL, MX","FM-15","99999","V020","999,9,C,0000,1","22000,1,9,N","016093,1,9,9","+0150,1","+0110,1","99999,9",,,,,,"00,99,1,99,9,99,9,99999,9,99,9,99,9","10139,1,99999,9",,,"MET048METAR MMMZ 070643Z 00000KT 10SM SKC 15/11 A2994=",
"76459399999","2025-02-07T07:42:00","4","23.161356","-106.266072","11.58","GENERAL RAFAEL BUELNA INTERNATIONAL, MX","FM-15","99999","V020","999,9,C,0000,1","22000,1,9,N","016093,1,9,9","+0130,1","+0100,1","99999,9",,,,,,"00,99,1,99,9,99,9,99999,9,99,9,99,9","10135,1,99999,9",,,"MET048METAR MMMZ 070742Z 00000KT 10SM SKC 13/10 A2993=",
"76459399999","2025-02-07T08:44:00","4","23.161356","-106.266072","11.58","GENERAL RAFAEL BUELNA INTERNATIONAL, MX","FM-15","99999","V020","999,9,C,0000,1","22000,1,9,N","016093,1,9,9","+0130,1","+0090,1","10135,1",,,,,,"00,99,1,99,9,99,9,99999,9,99,9,99,9","10135,1,99999,9","7,1,007,1,+999,9",,"MET069METAR MMMZ 070844Z 00000KT 10SM SKC 13/09 A2993 RMK SLP135 57007 900=",
"76459399999","2025-02-07T09:41:00","4","23.161356","-106.266072","11.58","GENERAL RAFAEL BUELNA INTERNATIONAL, MX","FM-15","99999","V020","999,9,C,0000,1","22000,1,9,N","016093,1,9,9","+0120,1","+0110,1","99999,9",,,,,,"00,99,1,99,9,99,9,99999,9,99,9,99,9","10135,1,99999,9",,,"MET048METAR MMMZ 070941Z 00000KT 10SM SKC 12/11 A2993=",
"76459399999","2025-02-07T10:43:00","4","23.161356","-106.266072","11.58","GENERAL RAFAEL BUELNA INTERNATIONAL, MX","FM-15","99999","V020","999,9,C,0000,1","22000,1,9,N","016093,1,9,9","+0120,1","+0080,1","99999,9",,,,,,"00,99,1,99,9,99,9,99999,9,99,9,99,9","10132,1,99999,9",,,"MET048METAR MMMZ 071043Z 00000KT 10SM SKC 12/08 A2992=",
"76459399999","2025-02-07T11:48:00","4","23.161356","-106.266072","11.58","GENERAL RAFAEL BUELNA INTERNATIONAL, MX","FM-15","99999","V020","999,9,C,0000,1","22000,1,9,N","016093,1,9,9","+0120,1","+0080,1","10129,1",,,,,,"00,99,1,99,9,99,9,99999,9,99,9,99,9","10135,1,99999,9","4,1,000,1,+999,9",,"MET069METAR MMMZ 071148Z 00000KT 10SM SKC 12/08 A2993 RMK SLP129 54000 958=",
"76459399999","2025-02-07T12:45:00","4","23.161356","-106.266072","11.58","GENERAL RAFAEL BUELNA INTERNATIONAL, MX","FM-15","99999","V020","999,9,C,0000,1","22000,1,9,N","016093,1,9,9","+0120,1","+0080,1","99999,9",,,,,,"00,99,1,99,9,99,9,99999,9,99,9,99,9","10135,1,99999,9",,,"MET048METAR MMMZ 071245Z 00000KT 10SM SKC 12/08 A2993=",
"76459399999","2025-02-07T13:55:00","4","23.161356","-106.266072","11.58","GENERAL RAFAEL BUELNA INTERNATIONAL, MX","FM-15","99999","V020","999,9,C,0000,1","22000,1,9,N","019312,1,9,9","+0120,1","+0080,1","99999,9",,,,,,"00,99,1,99,9,99,9,99999,9,99,9,99,9","10135,1,99999,9",,,"MET048METAR MMMZ 071355Z 00000KT 12SM SKC 12/08 A2993=",
"76459399999","2025-02-07T14:43:00","4","23.161356","-106.266072","11.58","GENERAL RAFAEL BUELNA INTERNATIONAL, MX","FM-15","99999","V020","999,9,C,0000,1","22000,1,9,N","020921,1,9,9","+0150,1","+0090,1","10149,1",,,,,,"00,99,1,99,9,99,9,99999,9,99,9,99,9","10149,1,99999,9","2,1,013,1,+999,9",,"MET069METAR MMMZ 071443Z 00000KT 13SM SKC 15/09 A2997 RMK SLP149 52013 960=",
"76459399999","2025-02-07T15:47:00","4","23.161356","-106.266072","11.58","GENERAL RAFAEL BUELNA INTERNATIONAL, MX","FM-15","99999","V020","999,9,C,0000,1","22000,1,9,N","024140,1,9,9","+0200,1","+0100,1","99999,9",,,,,,"00,99,1,99,9,99,9,99999,9,99,9,99,9","10152,1,99999,9",,,"MET048METAR MMMZ 071547Z 00000KT 15SM SKC 20/10 A2998=",
"76459399999","2025-02-07T16:42:00","4","23.161356","-106.266072","11.58","GENERAL RAFAEL BUELNA INTERNATIONAL, MX","FM-15","99999","V020","190,1,N,0021,1","22000,1,9,N","024140,1,9,9","+0250,1","+0100,1","99999,9",,,,,,"00,99,1,99,9,99,9,99999,9,99,9,99,9","10156,1,99999,9",,,"MET048METAR MMMZ 071642Z 19004KT 15SM SKC 25/10 A2999=",
"76459399999","2025-02-07T17:43:00","4","23.161356","-106.266072","11.58","GENERAL RAFAEL BUELNA INTERNATIONAL, MX","FM-15","99999","V020","180,1,N,0026,1","22000,1,9,N","024140,1,9,9","+0270,2","+0100,1","10146,1",,,,,,"00,99,1,99,9,99,9,99999,9,99,9,99,9","10152,1,99999,9","2,1,003,1,+999,9",,"MET069METAR MMMZ 071743Z 18005KT 15SM SKC 27/10 A2998 RMK SLP146 52003 964=",
"76459399999","2025-02-07T18:42:00","4","23.161356","-106.266072","11.58","GENERAL RAFAEL BUELNA INTERNATIONAL, MX","FM-15","99999","V020","240,1,N,0036,1","22000,1,9,N","024140,1,9,9","+0270,1","+0090,1","99999,9",,,,,,"00,99,1,99,9,99,9,99999,9,99,9,99,9","10142,1,99999,9",,,"MET048METAR MMMZ 071842Z 24007KT 15SM SKC 27/09 A2995=",
"76459399999","2025-02-07T19:45:00","4","23.161356","-106.266072","11.58","GENERAL RAFAEL BUELNA INTERNATIONAL, MX","FM-15","99999","V020","260,1,N,0031,1","22000,1,9,N","024140,1,9,9","+0270,1","+0100,1","99999,9",,,,,,"00,99,1,99,9,99,9,99999,9,99,9,99,9","10132,1,99999,9",,,"MET048METAR MMMZ 071945Z 26006KT 15SM SKC 27/10 A2992=",
"76459399999","2025-02-07T21:43:00","4","23.161356","-106.266072","11.58","GENERAL RAFAEL BUELNA INTERNATIONAL, MX","FM-15","99999","V020","290,1,N,0046,1","22000,1,9,N","024140,1,9,9","+0270,1","+0130,1","99999,9",,,,,,"00,99,1,99,9,99,9,99999,9,99,9,99,9","10118,1,99999,9",,,"MET048METAR MMMZ 072143Z 29009KT 15SM SKC 27/13 A2988=",
"76459399999","2025-02-07T22:41:00","4","23.161356","-106.266072","11.58","GENERAL RAFAEL BUELNA INTERNATIONAL, MX","FM-15","99999","V020","300,1,N,0062,1","22000,1,9,N","024140,1,9,9","+0260,1","+0140,1","99999,9",,,,,,"00,99,1,99,9,99,9,99999,9,99,9,99,9","10115,1,99999,9",,,"MET048METAR MMMZ 072241Z 30012KT 15SM SKC 26/14 A2987=",
"76459399999","2025-02-07T23:42:00","4","23.161356","-106.266072","11.58","GENERAL RAFAEL BUELNA INTERNATIONAL, MX","FM-15","99999","V020","300,1,N,0051,1","22000,1,9,N","024140,1,9,9","+0240,1","+0160,1","10123,1",,,,,,"00,99,1,99,9,99,9,99999,9,99,9,99,9","10115,1,99999,9","7,1,010,1,+999,9",,"MET069METAR MMMZ 072342Z 30010KT 15SM SKC 24/16 A2987 RMK SLP123 57010 907=",
"76459399999","2025-02-08T00:41:00","4","23.161356","-106.266072","11.58","GENERAL RAFAEL BUELNA INTERNATIONAL, MX","FM-15","99999","V020","310,1,N,0057,1","22000,1,9,N","022531,1,9,9","+0240,1","+0120,1","99999,9",,,,,,"00,99,1,99,9,99,9,99999,9,99,9,99,9","10118,1,99999,9",,,"MET048METAR MMMZ 080041Z 31011KT 14SM SKC 24/12 A2988=",
"76459399999","2025-02-08T01:42:00","4","23.161356","-106.266072","11.58","GENERAL RAFAEL BUELNA INTERNATIONAL, MX","FM-15","99999","V020","999,9,C,0000,1","22000,1,9,N","019312,1,9,9","+0200,1","+0110,1","99999,9",,,,,,"00,99,1,99,9,99,9,99999,9,99,9,99,9","10122,1,99999,9",,,"MET048METAR MMMZ 080142Z 00000KT 12SM SKC 20/11 A2989=",
"76459399999","2025-02-08T02:46:00","4","23.161356","-106.266072","11.58","GENERAL RAFAEL BUELNA INTERNATIONAL, MX","FM-15","99999","V020","290,1,N,0021,1","22000,1,9,N","016093,1,9,9","+0200,1","+0110,1","10128,1",,,,,,"00,99,1,99,9,99,9,99999,9,99,9,99,9","10129,1,99999,9","2,1,013,1,+999,9",,"MET069METAR MMMZ 080246Z 29004KT 10SM SKC 20/11 A2991 RMK SLP128 52013 957=",
"76459399999","2025-02-08T03:41:00","4","23.161356","-106.266072","11.58","GENERAL RAFAEL BUELNA INTERNATIONAL, MX","FM-15","99999","V020","300,1,N,0015,1","22000,1,9,N","016093,1,9,9","+0190,1","+0100,1","99999,9",,,,,,"00,99,1,99,9,99,9,99999,9,99,9,99,9","10132,1,99999,9",,,"MET048METAR MMMZ 080341Z 30003KT 10SM SKC 19/10 A2992=",
"76459399999","2025-02-08T04:40:00","4","23.161356","-106.266072","11.58","GENERAL RAFAEL BUELNA INTERNATIONAL, MX","FM-15","99999","V020","999,9,C,0000,1","22000,1,9,N","016093,1,9,9","+0150,1","+0090,1","99999,9",,,,,,"00,99,1,99,9,99,9,99999,9,99,9,99,9","10132,1,99999,9",,,"MET048METAR MMMZ 080440Z 00000KT 10SM SKC 15/09 A2992=",
"76459399999","2025-02-08T05:42:00","4","23.161356","-106.266072","11.58","GENERAL RAFAEL BUELNA INTERNATIONAL, MX","FM-15","99999","V020","999,9,C,0000,1","22000,1,9,N","016093,1,9,9","+0150,1","+0110,1","10134,1",,,,,,"00,99,1,99,9,99,9,99999,9,99,9,99,9","10139,1,99999,9","2,1,010,1,+999,9",,"MET069METAR MMMZ 080542Z 00000KT 10SM SKC 15/11 A2994 RMK SLP134 52010 953=",
"76459399999","2025-02-08T06:41:00","4","23.161356","-106.266072","11.58","GENERAL RAFAEL BUELNA INTERNATIONAL, MX","FM-15","99999","V020","999,9,C,0000,1","22000,1,9,N","016093,1,9,9","+0130,1","+0100,1","99999,9",,,,,,"00,99,1,99,9,99,9,99999,9,99,9,99,9","10139,1,99999,9",,,"MET048METAR MMMZ 080641Z 00000KT 10SM SKC 13/10 A2994=",
"76459399999","2025-02-08T07:51:00","4","23.161356","-106.266072","11.58","GENERAL RAFAEL BUELNA INTERNATIONAL, MX","FM-15","99999","V020","999,9,C,0000,1","22000,1,9,N","016093,1,9,9","+0130,1","+0100,1","99999,9",,,,,,"00,99,1,99,9,99,9,99999,9,99,9,99,9","10135,1,99999,9",,,"MET048METAR MMMZ 080751Z 00000KT 10SM SKC 13/10 A2993=",
"76459399999","2025-02-08T08:52:00","4","23.161356","-106.266072","11.58","GENERAL RAFAEL BUELNA INTERNATIONAL, MX","FM-15","99999","V020","999,9,C,0000,1","22000,1,9,N","016093,1,9,9","+0120,1","+0100,1","10035,1",,,,,,"00,99,1,99,9,99,9,99999,9,99,9,99,9","10135,1,99999,9","7,1,003,1,+999,9",,"MET069METAR MMMZ 080852Z 00000KT 10SM SKC 12/10 A2993 RMK SLP035 57003 900=",
"76459399999","2025-02-08T09:46:00","4","23.161356","-106.266072","11.58","GENERAL RAFAEL BUELNA INTERNATIONAL, MX","FM-15","99999","V020","999,9,C,0000,1","22000,1,9,N","016093,1,9,9","+0110,1","+0100,1","99999,9",,,,,,"00,99,1,99,9,99,9,99999,9,99,9,99,9","10132,1,99999,9",,,"MET048METAR MMMZ 080946Z 00000KT 10SM SKC 11/10 A2992=",
"76459399999","2025-02-08T10:42:00","4","23.161356","-106.266072","11.58","GENERAL RAFAEL BUELNA INTERNATIONAL, MX","FM-15","99999","V020","999,9,C,0000,1","22000,1,9,N","016093,1,9,9","+0110,1","+0100,1","99999,9",,,,,,"00,99,1,99,9,99,9,99999,9,99,9,99,9","10129,1,99999,9",,,"MET048METAR MMMZ 081042Z 00000KT 10SM SKC 11/10 A2991=",
"76459399999","2025-02-08T11:53:00","4","23.161356","-106.266072","11.58","GENERAL RAFAEL BUELNA INTERNATIONAL, MX","FM-15","99999","V020","999,9,C,0000,1","22000,1,9,N","016093,1,9,9","+0110,1","+0100,1","10125,1",,,,,,"00,99,1,99,9,99,9,99999,9,99,9,99,9","10129,1,99999,9","2,1,007,1,+999,9",,"MET069METAR MMMZ 081153Z 00000KT 10SM SKC 11/10 A2991 RMK SLP125 52007 954=",
"76459399999","2025-02-08T13:43:00","4","23.161356","-106.266072","11.58","GENERAL RAFAEL BUELNA INTERNATIONAL, MX","FM-15","99999","V020","999,9,C,0000,1","22000,1,9,N","019312,1,9,9","+0110,1","+0100,1","99999,9",,,,,,"00,99,1,99,9,99,9,99999,9,99,9,99,9","10135,1,99999,9",,,"MET048METAR MMMZ 081343Z 00000KT 12SM SKC 11/10 A2993=",
"76459399999","2025-02-08T14:44:00","4","23.161356","-106.266072","11.58","GENERAL RAFAEL BUELNA INTERNATIONAL, MX","FM-15","99999","V020","999,9,C,0000,1","22000,1,9,N","020921,1,9,9","+0140,1","+0100,1","10142,1",,,,,,"00,99,1,99,9,99,9,99999,9,99,9,99,9","10142,1,99999,9","2,1,013,1,+999,9",,"MET069METAR MMMZ 081444Z 00000KT 13SM SKC 14/10 A2995 RMK SLP142 52013 957=",
"76459399999","2025-02-08T15:46:00","4","23.161356","-106.266072","11.58","GENERAL RAFAEL BUELNA INTERNATIONAL, MX","FM-15","99999","V020","999,9,C,0000,1","22000,1,9,N","024140,1,9,9","+0190,1","+0120,1","99999,9",,,,,,"00,99,1,99,9,99,9,99999,9,99,9,99,9","10146,1,99999,9",,,"MET048METAR MMMZ 081546Z 00000KT 15SM SKC 19/12 A2996=",
"76459399999","2025-02-08T16:54:00","4","23.161356","-106.266072","11.58","GENERAL RAFAEL BUELNA INTERNATIONAL, MX","FM-15","99999","V020","999,9,C,0000,1","22000,1,9,N","024140,1,9,9","+0230,1","+0150,1","99999,9",,,,,,"00,99,1,99,9,99,9,99999,9,99,9,99,9","10152,1,99999,9",,,"MET048METAR MMMZ 081654Z 00000KT 15SM SKC 23/15 A2998=",
"76459399999","2025-02-08T17:50:00","4","23.161356","-106.266072","11.58","GENERAL RAFAEL BUELNA INTERNATIONAL, MX","FM-15","99999","V020","220,1,N,0026,1","22000,1,9,N","024140,1,9,9","+0260,1","+0140,1","10144,1",,,,,,"00,99,1,99,9,99,9,99999,9,99,9,99,9","10149,1,99999,9","2,1,007,1,+999,9",,"MET069METAR MMMZ 081750Z 22005KT 15SM SKC 26/14 A2997 RMK SLP144 52007 952=",
"76459399999","2025-02-08T18:42:00","4","23.161356","-106.266072","11.58","GENERAL RAFAEL BUELNA INTERNATIONAL, MX","FM-15","99999","V020","210,1,N,0021,1","22000,1,9,N","024140,1,9,9","+0260,1","+0170,1","99999,9",,,,,,"00,99,1,99,9,99,9,99999,9,99,9,99,9","10142,1,99999,9",,,"MET060METAR MMMZ 081842Z 21004KT 15SM SKC 26/17 A2995 RMK FULRY E=",
"76459399999","2025-02-08T19:45:00","4","23.161356","-106.266072","11.58","GENERAL RAFAEL BUELNA INTERNATIONAL, MX","FM-15","99999","V020","250,1,N,0031,1","22000,1,9,N","024140,1,9,9","+0270,1","+0150,1","99999,9",,,,,,"00,99,1,99,9,99,9,99999,9,99,9,99,9","10132,1,99999,9",,,"MET048METAR MMMZ 081945Z 25006KT 15SM SKC 27/15 A2992=",
"76459399999","2025-02-08T20:44:00","4","23.161356","-106.266072","11.58","GENERAL RAFAEL BUELNA INTERNATIONAL, MX","FM-15","99999","V020","240,1,N,0036,1","22000,1,9,N","024140,1,9,9","+0260,1","+0140,1","10125,1",,,,,,"00,99,1,99,9,99,9,99999,9,99,9,99,9","10125,1,99999,9","7,1,023,1,+999,9",,"MET069METAR MMMZ 082044Z 24007KT 15SM SKC 26/14 A2990 RMK SLP125 57023 900=",
"76459399999","2025-02-08T21:42:00","4","23.161356","-106.266072","11.58","GENERAL RAFAEL BUELNA INTERNATIONAL, MX","FM-15","99999","V020","250,1,N,0031,1","22000,1,9,N","024140,1,9,9","+0260,1","+0130,1","99999,9",,,,,,"00,99,1,99,9,99,9,99999,9,99,9,99,9","10125,1,99999,9",,,"MET048METAR MMMZ 082142Z 25006KT 15SM SKC 26/13 A2990=",
"76459399999","2025-02-08T22:40:00","4","23.161356","-106.266072","11.58","GENERAL RAFAEL BUELNA INTERNATIONAL, MX","FM-15","99999","V020","280,1,N,0041,1","22000,1,9,N","024140,1,9,9","+0250,1","+0150,1","99999,9",,,,,,"00,99,1,99,9,99,9,99999,9,99,9,99,9","10125,1,99999,9",,,"MET048METAR MMMZ 082240Z 28008KT 15SM SKC 25/15 A2990=",
"76459399999","2025-02-08T23:40:00","4","23.161356","-106.266072","11.58","GENERAL RAFAEL BUELNA INTERNATIONAL, MX","FM-15","99999","V020","280,1,N,0031,1","22000,1,9,N","022531,1,9,9","+0250,1","+0160,1","10134,1",,,,,,"00,99,1,99,9,99,9,99999,9,99,9,99,9","10125,1,99999,9","4,1,000,1,+999,9",,"MET069METAR MMMZ 082340Z 28006KT 14SM SKC 25/16 A2990 RMK SLP134 54000 910=",
"76459399999","2025-02-09T00:41:00","4","23.161356","-106.266072","11.58","GENERAL RAFAEL BUELNA INTERNATIONAL, MX","FM-15","99999","V020","270,1,N,0015,1","22000,1,9,N","019312,1,9,9","+0220,1","+0170,1","99999,9",,,,,,"00,99,1,99,9,99,9,99999,9,99,9,99,9","10129,1,99999,9",,,"MET048METAR MMMZ 090041Z 27003KT 12SM SKC 22/17 A2991=",
"76459399999","2025-02-09T01:45:00","4","23.161356","-106.266072","11.58","GENERAL RAFAEL BUELNA INTERNATIONAL, MX","FM-15","99999","V020","270,1,N,0021,1","22000,1,9,N","016093,1,9,9","+0190,1","+0170,1","99999,9",,,,,,"00,99,1,99,9,99,9,99999,9,99,9,99,9","10135,1,99999,9",,,"MET048METAR MMMZ 090145Z 27004KT 10SM SKC 19/17 A2993=",
"76459399999","2025-02-09T02:44:00","4","23.161356","-106.266072","11.58","GENERAL RAFAEL BUELNA INTERNATIONAL, MX","FM-15","99999","V020","999,9,C,0000,1","22000,1,9,N","016093,1,9,9","+0180,1","+0160,1","10145,1",,,,,,"00,99,1,99,9,99,9,99999,9,99,9,99,9","10146,1,99999,9","2,1,020,1,+999,9",,"MET069METAR MMMZ 090244Z 00000KT 10SM SKC 18/16 A2996 RMK SLP145 52020 917=",
"76459399999","2025-02-09T03:40:00","4","23.161356","-106.266072","11.58","GENERAL RAFAEL BUELNA INTERNATIONAL, MX","FM-15","99999","V020","999,9,C,0000,1","22000,1,9,N","016093,1,9,9","+0160,1","+0150,1","99999,9",,,,,,"00,99,1,99,9,99,9,99999,9,99,9,99,9","10156,1,99999,9",,,"MET048METAR MMMZ 090340Z 00000KT 10SM SKC 16/15 A2999=",
"76459399999","2025-02-09T04:46:00","4","23.161356","-106.266072","11.58","GENERAL RAFAEL BUELNA INTERNATIONAL, MX","FM-15","99999","V020","999,9,C,0000,1","22000,1,9,N","016093,1,9,9","+0150,1","+0140,1","99999,9",,,,,,"00,99,1,99,9,99,9,99999,9,99,9,99,9","10159,1,99999,9",,,"MET056METAR MMMZ 090446Z 00000KT 10SM SKC 15/14 A3000 RMK HZY=",
"76459399999","2025-02-09T05:46:00","4","23.161356","-106.266072","11.58","GENERAL RAFAEL BUELNA INTERNATIONAL, MX","FM-15","99999","V020","999,9,C,0000,1","99999,9,9,N","009656,1,9,9","+0140,1","+0140,1","10171,1",,"04,1,+00152,1,07,1",,,"9,AGL   ,+99999,+99999","99,99,9,04,1,99,9,00152,1,99,9,99,9","10163,1,99999,9","2,1,017,1,+999,9","11,1","MET082METAR MMMZ 090546Z 00000KT 6SM BCFG SCT005 14/14 A3001 RMK SLP171 52017 937 8/600=",
"76459399999","2025-02-09T05:58:00","4","23.161356","-106.266072","11.58","GENERAL RAFAEL BUELNA INTERNATIONAL, MX","FM-15","99999","V020","999,9,C,0000,1","00152,1,W,N","000402,1,9,9","+0140,1","+0140,1","99999,9",,"09,1,+00152,1,99,9",,,"9,AGL   ,+99999,+99999","09,99,1,09,1,99,9,00152,1,99,9,99,9","10163,1,99999,9",,"44,1","MET064METAR MMMZ 090558Z 00000KT 1/4SM FG VV005 14/14 A3001 RMK 8////=",
"76459399999","2025-02-09T05:58:00","4","23.161356","-106.266072","11.58","GENERAL RAFAEL BUELNA INTERNATIONAL, MX","FM-16","99999","V020","999,9,C,0000,1","00152,1,W,N","000402,1,9,9","+0140,1","+0140,1","99999,9",,"09,1,+00152,1,99,9",,,"9,AGL   ,+99999,+99999","09,99,1,09,1,99,9,00152,1,99,9,99,9","10163,1,99999,9",,"44,1","MET064SPECI MMMZ 090558Z 00000KT 1/4SM FG VV005 14/14 A3001 RMK 8////=",
"76459399999","2025-02-09T06:18:00","4","23.161356","-106.266072","11.58","GENERAL RAFAEL BUELNA INTERNATIONAL, MX","FM-15","99999","V020","999,9,C,0000,1","00030,1,W,N","000000,1,9,9","+0140,1","+0140,1","99999,9",,"09,1,+00030,1,99,9",,,"9,AGL   ,+99999,+99999","09,99,1,09,1,99,9,00030,1,99,9,99,9","10163,1,99999,9",,"44,1","MET062METAR MMMZ 090618Z 00000KT 0SM FG VV001 14/14 A3001 RMK 8////=",
"76459399999","2025-02-09T06:18:00","4","23.161356","-106.266072","11.58","GENERAL RAFAEL BUELNA INTERNATIONAL, MX","FM-16","99999","V020","999,9,C,0000,1","00030,1,W,N","000000,1,9,9","+0140,1","+0140,1","99999,9",,"09,1,+00030,1,99,9",,,"9,AGL   ,+99999,+99999","09,99,1,09,1,99,9,00030,1,99,9,99,9","10163,1,99999,9",,"44,1","MET062SPECI MMMZ 090618Z 00000KT 0SM FG VV001 14/14 A3001 RMK 8////=",
"76459399999","2025-02-09T06:44:00","4","23.161356","-106.266072","11.58","GENERAL RAFAEL BUELNA INTERNATIONAL, MX","FM-15","99999","V020","999,9,C,0000,1","00000,1,W,N","000000,1,9,9","+0140,1","+0140,1","99999,9",,"09,1,+00000,1,99,9",,,"9,AGL   ,+99999,+99999","09,99,1,09,1,99,9,00000,1,99,9,99,9","10159,1,99999,9",,"44,1","MET062METAR MMMZ 090644Z 00000KT 0SM FG VV000 14/14 A3000 RMK 8////=",
"76459399999","2025-02-09T07:42:00","4","23.161356","-106.266072","11.58","GENERAL RAFAEL BUELNA INTERNATIONAL, MX","FM-15","99999","V020","999,9,C,0000,1","00000,1,W,N","000000,1,9,9","+0130,1","+0130,1","99999,9",,"09,1,+00000,1,99,9",,,"9,AGL   ,+99999,+99999","09,99,1,09,1,99,9,00000,1,99,9,99,9","10159,1,99999,9",,"44,1","MET062METAR MMMZ 090742Z 00000KT 0SM FG VV000 13/13 A3000 RMK 8////=",
"76459399999","2025-02-09T08:48:00","4","23.161356","-106.266072","11.58","GENERAL RAFAEL BUELNA INTERNATIONAL, MX","FM-15","99999","V020","999,9,C,0000,1","00091,1,W,N","000201,1,9,9","+0120,1","+0120,1","10155,1",,"09,1,+00091,1,99,9",,,"9,AGL   ,+99999,+99999","09,99,1,09,1,99,9,00091,1,99,9,99,9","10156,1,99999,9","7,1,007,1,+999,9","44,1","MET081METAR MMMZ 090848Z 00000KT 1/8SM FG VV003 12/12 A2999 RMK SLP155 57007 920 8////=",
"76459399999","2025-02-09T09:44:00","4","23.161356","-106.266072","11.58","GENERAL RAFAEL BUELNA INTERNATIONAL, MX","FM-15","99999","V020","080,1,N,0015,1","99999,9,9,N","001609,1,9,9","+0120,1","+0120,1","99999,9",,"04,1,+00091,1,07,1",,,"9,AGL   ,+99999,+99999","99,99,9,04,1,99,9,00091,1,99,9,99,9","10152,1,99999,9",,"10,1","MET063METAR MMMZ 090944Z 08003KT 1SM BR SCT003 12/12 A2998 RMK 8/600=",
"76459399999","2025-02-09T10:42:00","4","23.161356","-106.266072","11.58","GENERAL RAFAEL BUELNA INTERNATIONAL, MX","FM-15","99999","V020","999,9,C,0000,1","99999,9,9,N","004828,1,9,9","+0110,1","+0100,1","99999,9",,"04,1,+00152,1,07,1",,,"9,AGL   ,+99999,+99999","99,99,9,04,1,99,9,00152,1,99,9,99,9","10152,1,99999,9",,"10,1","MET063METAR MMMZ 091042Z 00000KT 3SM BR SCT005 11/10 A2998 RMK 8/600=",
"76459399999","2025-02-09T11:45:00","4","23.161356","-106.266072","11.58","GENERAL RAFAEL BUELNA INTERNATIONAL, MX","FM-15","99999","V020","999,9,C,0000,1","99999,9,9,N","008047,1,9,9","+0110,1","+0100,1","10161,1",,"02,1,+00152,1,07,1",,,"9,AGL   ,+99999,+99999","99,99,9,02,1,99,9,00152,1,99,9,99,9","10152,1,99999,9","7,1,013,1,+999,9","40,1","MET082METAR MMMZ 091145Z 00000KT 5SM VCFG FEW005 11/10 A2998 RMK SLP161 57013 936 8/600=",
"76459399999","2025-02-09T12:41:00","4","23.161356","-106.266072","11.58","GENERAL RAFAEL BUELNA INTERNATIONAL, MX","FM-15","99999","V020","999,9,C,0000,1","99999,9,9,N","009656,1,9,9","+0110,1","+0100,1","99999,9",,"02,1,+00122,1,07,1",,,"9,AGL   ,+99999,+99999","99,99,9,02,1,99,9,00122,1,99,9,99,9","10152,1,99999,9",,,"MET060METAR MMMZ 091241Z 00000KT 6SM FEW004 11/10 A2998 RMK 8/600=",
"76459399999","2025-02-09T13:44:00","4","23.161356","-106.266072","11.58","GENERAL RAFAEL BUELNA INTERNATIONAL, MX","FM-15","99999","V020","050,1,N,0021,1","22000,1,9,N","014484,1,9,9","+0100,1","+0090,1","99999,9",,,,,,"00,99,1,99,9,99,9,99999,9,99,9,99,9","10159,1,99999,9",,,"MET062METAR MMMZ 091344Z 05004KT 9SM SKC 10/09 A3000 RMK ISOL ST HZ=",
"76459399999","2025-02-09T14:42:00","4","23.161356","-106.266072","11.58","GENERAL RAFAEL BUELNA INTERNATIONAL, MX","FM-15","99999","V020","999,9,C,0000,1","22000,1,9,N","020921,1,9,9","+0140,1","+0110,1","10162,1",,,,,,"00,99,1,99,9,99,9,99999,9,99,9,99,9","10163,1,99999,9","2,1,010,1,+999,9",,"MET069METAR MMMZ 091442Z 00000KT 13SM SKC 14/11 A3001 RMK SLP162 52010 920=",
"76459399999","2025-02-09T15:41:00","4","23.161356","-106.266072","11.58","GENERAL RAFAEL BUELNA INTERNATIONAL, MX","FM-15","99999","V020","040,1,N,0026,1","22000,1,9,N","024140,1,9,9","+0190,1","+0120,1","99999,9",,,,,,"00,99,1,99,9,99,9,99999,9,99,9,99,9","10169,1,99999,9",,,"MET048METAR MMMZ 091541Z 04005KT 15SM SKC 19/12 A3003=",
"76459399999","2025-02-09T16:40:00","4","23.161356","-106.266072","11.58","GENERAL RAFAEL BUELNA INTERNATIONAL, MX","FM-15","99999","V020","999,9,C,0000,1","22000,1,9,N","024140,1,9,9","+0250,1","+0120,1","99999,9",,,,,,"00,99,1,99,9,99,9,99999,9,99,9,99,9","10173,1,99999,9",,,"MET048METAR MMMZ 091640Z 00000KT 15SM SKC 25/12 A3004=",
"76459399999","2025-02-09T17:43:00","4","23.161356","-106.266072","11.58","GENERAL RAFAEL BUELNA INTERNATIONAL, MX","FM-15","99999","V020","210,1,N,0015,1","22000,1,9,N","024140,1,9,9","+0280,1","+0100,1","10164,1",,,,,,"00,99,1,99,9,99,9,99999,9,99,9,99,9","10169,1,99999,9","2,1,007,1,+999,9",,"MET069METAR MMMZ 091743Z 21003KT 15SM SKC 28/10 A3003 RMK SLP164 52007 920=",
"76459399999","2025-02-09T18:40:00","4","23.161356","-106.266072","11.58","GENERAL RAFAEL BUELNA INTERNATIONAL, MX","FM-15","99999","V020","240,1,N,0021,1","22000,1,9,N","024140,1,9,9","+0290,2","+0110,1","99999,9",,,,,,"00,99,1,99,9,99,9,99999,9,99,9,99,9","10159,1,99999,9",,,"MET048METAR MMMZ 091840Z 24004KT 15SM SKC 29/11 A3000=",
"76459399999","2025-02-09T19:44:00","4","23.161356","-106.266072","11.58","GENERAL RAFAEL BUELNA INTERNATIONAL, MX","FM-15","99999","V020","270,1,N,0041,1","22000,1,9,N","024140,1,9,9","+0280,1","+0110,1","99999,9",,,,,,"00,99,1,99,9,99,9,99999,9,99,9,99,9","10152,1,99999,9",,,"MET048METAR MMMZ 091944Z 27008KT 15SM SKC 28/11 A2998=",
"76459399999","2025-02-09T21:42:00","4","23.161356","-106.266072","11.58","GENERAL RAFAEL BUELNA INTERNATIONAL, MX","FM-15","99999","V020","260,1,N,0036,1","22000,1,9,N","024140,1,9,9","+0280,1","+0080,1","99999,9",,,,,,"00,99,1,99,9,99,9,99999,9,99,9,99,9","10139,1,99999,9",,,"MET048METAR MMMZ 092142Z 26007KT 15SM SKC 28/08 A2994=",
"76459399999","2025-02-09T22:41:00","4","23.161356","-106.266072","11.58","GENERAL RAFAEL BUELNA INTERNATIONAL, MX","FM-15","99999","V020","270,1,N,0026,1","22000,1,9,N","024140,1,9,9","+0270,1","+0110,1","99999,9",,,,,,"00,99,1,99,9,99,9,99999,9,99,9,99,9","10135,1,99999,9",,,"MET048METAR MMMZ 092241Z 27005KT 15SM SKC 27/11 A2993=",
"76459399999","2025-02-09T23:45:00","4","23.161356","-106.266072","11.58","GENERAL RAFAEL BUELNA INTERNATIONAL, MX","FM-15","99999","V020","280,1,N,0031,1","22000,1,9,N","022531,1,9,9","+0250,1","+0140,1","10144,1",,,,,,"00,99,1,99,9,99,9,99999,9,99,9,99,9","10135,1,99999,9","7,1,010,1,+999,9",,"MET069METAR MMMZ 092345Z 28006KT 14SM SKC 25/14 A2993 RMK SLP144 57010 910=",
"76459399999","2025-02-10T00:42:00","4","23.161356","-106.266072","11.58","GENERAL RAFAEL BUELNA INTERNATIONAL, MX","FM-15","99999","V020","290,1,N,0046,1","22000,1,9,N","019312,1,9,9","+0230,1","+0130,1","99999,9",,,,,,"00,99,1,99,9,99,9,99999,9,99,9,99,9","10142,1,99999,9",,,"MET048METAR MMMZ 100042Z 29009KT 12SM SKC 23/13 A2995=",
"76459399999","2025-02-10T01:43:00","4","23.161356","-106.266072","11.58","GENERAL RAFAEL BUELNA INTERNATIONAL, MX","FM-15","99999","V020","999,9,C,0000,1","22000,1,9,N","016093,1,9,9","+0200,1","+0140,1","99999,9",,,,,,"00,99,1,99,9,99,9,99999,9,99,9,99,9","10146,1,99999,9",,,"MET048METAR MMMZ 100143Z 00000KT 10SM SKC 20/14 A2996=",
"76459399999","2025-02-10T02:44:00","4","23.161356","-106.266072","11.58","GENERAL RAFAEL BUELNA INTERNATIONAL, MX","FM-15","99999","V020","999,9,C,0000,1","22000,1,9,N","016093,1,9,9","+0180,1","+0130,1","10148,1",,,,,,"00,99,1,99,9,99,9,99999,9,99,9,99,9","10152,1,99999,9","2,1,013,1,+999,9",,"MET069METAR MMMZ 100244Z 00000KT 10SM SKC 18/13 A2998 RMK SLP148 52013 903=",
"76459399999","2025-02-10T03:41:00","4","23.161356","-106.266072","11.58","GENERAL RAFAEL BUELNA INTERNATIONAL, MX","FM-15","99999","V020","999,9,C,0000,1","22000,1,9,N","016093,1,9,9","+0160,1","+0130,1","99999,9",,,,,,"00,99,1,99,9,99,9,99999,9,99,9,99,9","10156,1,99999,9",,,"MET048METAR MMMZ 100341Z 00000KT 10SM SKC 16/13 A2999=",
"76459399999","2025-02-10T04:45:00","4","23.161356","-106.266072","11.58","GENERAL RAFAEL BUELNA INTERNATIONAL, MX","FM-15","99999","V020","170,1,N,0010,1","22000,1,9,N","016093,1,9,9","+0150,1","+0130,1","99999,9",,,,,,"00,99,1,99,9,99,9,99999,9,99,9,99,9","10163,1,99999,9",,,"MET048METAR MMMZ 100445Z 17002KT 10SM SKC 15/13 A3001=",
"76459399999","2025-02-10T05:44:00","4","23.161356","-106.266072","11.58","GENERAL RAFAEL BUELNA INTERNATIONAL, MX","FM-15","99999","V020","999,9,C,0000,1","22000,1,9,N","016093,1,9,9","+0140,1","+0120,1","10166,1",,,,,,"00,99,1,99,9,99,9,99999,9,99,9,99,9","10169,1,99999,9","2,1,020,1,+999,9",,"MET069METAR MMMZ 100544Z 00000KT 10SM SKC 14/12 A3003 RMK SLP166 52020 956=",
"76459399999","2025-02-10T06:48:00","4","23.161356","-106.266072","11.58","GENERAL RAFAEL BUELNA INTERNATIONAL, MX","FM-15","99999","V020","999,9,C,0000,1","22000,1,9,N","016093,1,9,9","+0130,1","+0110,1","99999,9",,,,,,"00,99,1,99,9,99,9,99999,9,99,9,99,9","10169,1,99999,9",,,"MET048METAR MMMZ 100648Z 00000KT 10SM SKC 13/11 A3003=",
"76459399999","2025-02-10T07:51:00","4","23.161356","-106.266072","11.58","GENERAL RAFAEL BUELNA INTERNATIONAL, MX","FM-15","99999","V020","999,9,C,0000,1","22000,1,9,N","016093,1,9,9","+0130,1","+0100,1","99999,9",,,,,,"00,99,1,99,9,99,9,99999,9,99,9,99,9","10163,1,99999,9",,,"MET048METAR MMMZ 100751Z 00000KT 10SM SKC 13/10 A3001=",
"76459399999","2025-02-10T08:51:00","4","23.161356","-106.266072","11.58","GENERAL RAFAEL BUELNA INTERNATIONAL, MX","FM-15","99999","V020","999,9,C,0000,1","22000,1,9,N","016093,1,9,9","+0120,1","+0090,1","10155,1",,,,,,"00,99,1,99,9,99,9,99999,9,99,9,99,9","10156,1,99999,9","7,1,013,1,+999,9",,"MET069METAR MMMZ 100851Z 00000KT 10SM SKC 12/09 A2999 RMK SLP155 57013 900=",
"76459399999","2025-02-10T09:42:00","4","23.161356","-106.266072","11.58","GENERAL RAFAEL BUELNA INTERNATIONAL, MX","FM-15","99999","V020","999,9,C,0000,1","22000,1,9,N","016093,1,9,9","+0120,1","+0090,1","99999,9",,,,,,"00,99,1,99,9,99,9,99999,9,99,9,99,9","10152,1,99999,9",,,"MET048METAR MMMZ 100942Z 00000KT 10SM SKC 12/09 A2998=",
"76459399999","2025-02-10T10:50:00","4","23.161356","-106.266072","11.58","GENERAL RAFAEL BUELNA INTERNATIONAL, MX","FM-15","99999","V020","999,9,C,0000,1","22000,1,9,N","016093,1,9,9","+0110,1","+0090,1","99999,9",,,,,,"00,99,1,99,9,99,9,99999,9,99,9,99,9","10152,1,99999,9",,,"MET048METAR MMMZ 101050Z 00000KT 10SM SKC 11/09 A2998=",
"76459399999","2025-02-10T11:43:00","4","23.161356","-106.266072","11.58","GENERAL RAFAEL BUELNA INTERNATIONAL, MX","FM-15","99999","V020","999,9,C,0000,1","22000,1,9,N","016093,1,9,9","+0110,1","+0080,1","10149,1",,,,,,"00,99,1,99,9,99,9,99999,9,99,9,99,9","10152,1,99999,9","7,1,003,1,+999,9",,"MET069METAR MMMZ 101143Z 00000KT 10SM SKC 11/08 A2998 RMK SLP149 57003 962=",
"76459399999","2025-02-10T12:46:00","4","23.161356","-106.266072","11.58","GENERAL RAFAEL BUELNA INTERNATIONAL, MX","FM-15","99999","V020","999,9,C,0000,1","22000,1,9,N","016093,1,9,9","+0100,1","+0080,1","99999,9",,,,,,"00,99,1,99,9,99,9,99999,9,99,9,99,9","10159,1,99999,9",,,"MET048METAR MMMZ 101246Z 00000KT 10SM SKC 10/08 A3000=",
"76459399999","2025-02-10T13:46:00","4","23.161356","-106.266072","11.58","GENERAL RAFAEL BUELNA INTERNATIONAL, MX","FM-15","99999","V020","999,9,C,0000,1","99999,9,9,N","019312,1,9,9","+0100,1","+0080,1","99999,9",,"02,1,+07315,1,00,1",,,"9,AGL   ,+99999,+99999","99,99,9,02,1,99,9,07315,1,99,9,99,9","10166,1,99999,9",,,"MET061METAR MMMZ 101346Z 00000KT 12SM FEW240 10/08 A3002 RMK 8/002=",
"76459399999","2025-02-10T14:45:00","4","23.161356","-106.266072","11.58","GENERAL RAFAEL BUELNA INTERNATIONAL, MX","FM-15","99999","V020","999,9,C,0000,1","22000,1,9,N","022531,1,9,9","+0140,1","+0080,1","10169,1",,,,,,"00,99,1,99,9,99,9,99999,9,99,9,99,9","10169,1,99999,9","2,1,017,1,+999,9",,"MET077METAR MMMZ 101445Z 00000KT 14SM SKC 14/08 A3003 RMK SLP169 52017 907 ISOL CI=",
"76459399999","2025-02-10T15:42:00","4","23.161356","-106.266072","11.58","GENERAL RAFAEL BUELNA INTERNATIONAL, MX","FM-15","99999","V020","999,9,C,0000,1","99999,9,9,N","024140,1,9,9","+0190,1","+0080,1","99999,9",,"02,1,+07315,1,00,1",,,"9,AGL   ,+99999,+99999","99,99,9,02,1,99,9,07315,1,99,9,99,9","10173,1,99999,9",,,"MET061METAR MMMZ 101542Z 00000KT 15SM FEW240 19/08 A3004 RMK 8/001=",
"76459399999","2025-02-10T16:41:00","4","23.161356","-106.266072","11.58","GENERAL RAFAEL BUELNA INTERNATIONAL, MX","FM-15","99999","V020","130,1,N,0015,1","99999,9,9,N","024140,1,9,9","+0240,1","+0100,1","99999,9",,"02,1,+07315,1,00,1",,,"9,AGL   ,+99999,+99999","99,99,9,02,1,99,9,07315,1,99,9,99,9","10176,1,99999,9",,,"MET061METAR MMMZ 101641Z 13003KT 15SM FEW240 24/10 A3005 RMK 8/002=",
"76459399999","2025-02-10T17:43:00","4","23.161356","-106.266072","11.58","GENERAL RAFAEL BUELNA INTERNATIONAL, MX","FM-15","99999","V020","999,9,C,0000,1","99999,9,9,N","024140,1,9,9","+0280,1","+0090,1","10166,1",,"02,1,+07315,1,00,1",,,"9,AGL   ,+99999,+99999","99,99,9,02,1,99,9,07315,1,99,9,99,9","10169,1,99999,9","4,1,000,1,+999,9",,"MET078METAR MMMZ 101743Z 00000KT 15SM FEW240 28/09 A3003 RMK SLP166 54000 902 8/002=",
"76459399999","2025-02-10T18:41:00","4","23.161356","-106.266072","11.58","GENERAL RAFAEL BUELNA INTERNATIONAL, MX","FM-15","99999","V020","999,9,C,0000,1","99999,9,9,N","024140,1,9,9","+0300,2","+0040,1","99999,9",,"02,1,+07620,1,00,1",,,"9,AGL   ,+99999,+99999","99,99,9,02,1,99,9,07620,1,99,9,99,9","10163,1,99999,9",,,"MET061METAR MMMZ 101841Z 00000KT 15SM FEW250 30/04 A3001 RMK 8/002=",
"76459399999","2025-02-10T19:42:00","4","23.161356","-106.266072","11.58","GENERAL RAFAEL BUELNA INTERNATIONAL, MX","FM-15","99999","V020","210,1,N,0026,1","99999,9,9,N","024140,1,9,9","+0290,2","+0130,1","99999,9",,"02,1,+07620,1,00,1",,,"9,AGL   ,+99999,+99999","99,99,9,02,1,99,9,07620,1,99,9,99,9","10152,1,99999,9",,,"MET061METAR MMMZ 101942Z 21005KT 15SM FEW250 29/13 A2998 RMK 8/001=",
"76459399999","2025-02-10T21:44:00","4","23.161356","-106.266072","11.58","GENERAL RAFAEL BUELNA INTERNATIONAL, MX","FM-15","99999","V020","300,1,N,0036,1","22000,1,9,N","024140,1,9,9","+0270,1","+0140,1","99999,9",,,,,,"00,99,1,99,9,99,9,99999,9,99,9,99,9","10135,1,99999,9",,,"MET060METAR MMMZ 102144Z 30007KT 15SM SKC 27/14 A2993 RMK ISOL CI=",
"76459399999","2025-02-10T22:49:00","4","23.161356","-106.266072","11.58","GENERAL RAFAEL BUELNA INTERNATIONAL, MX","FM-15","99999","V020","290,1,N,0057,1","22000,1,9,N","024140,1,9,9","+0250,1","+0150,1","99999,9",,,,,,"00,99,1,99,9,99,9,99999,9,99,9,99,9","10135,1,99999,9",,,"MET060METAR MMMZ 102249Z 29011KT 15SM SKC 25/15 A2993 RMK ISOL CI=",
"76459399999","2025-02-10T23:46:00","4","23.161356","-106.266072","11.58","GENERAL RAFAEL BUELNA INTERNATIONAL, MX","FM-15","99999","V020","300,1,N,0041,1","22000,1,9,N","022531,1,9,9","+0260,1","+0110,1","10144,1",,,,,,"00,99,1,99,9,99,9,99999,9,99,9,99,9","10135,1,99999,9","7,1,003,1,+999,9",,"MET069METAR MMMZ 102346Z 30008KT 14SM SKC 26/11 A2993 RMK SLP144 57003 900=",
"76459399999","2025-02-11T00:44:00","4","23.161356","-106.266072","11.58","GENERAL RAFAEL BUELNA INTERNATIONAL, MX","FM-15","99999","V020","280,1,N,0021,1","22000,1,9,N","019312,1,9,9","+0230,1","+0110,1","99999,9",,,,,,"00,99,1,99,9,99,9,99999,9,99,9,99,9","10135,1,99999,9",,,"MET048METAR MMMZ 110044Z 28004KT 12SM SKC 23/11 A2993=",
"76459399999","2025-02-11T01:41:00","4","23.161356","-106.266072","11.58","GENERAL RAFAEL BUELNA INTERNATIONAL, MX","FM-15","99999","V020","300,1,N,0021,1","99999,9,9,N","016093,1,9,9","+0200,1","+0140,1","99999,9",,"02,1,+07315,1,00,1",,,"9,AGL   ,+99999,+99999","99,99,9,02,1,99,9,07315,1,99,9,99,9","10132,1,99999,9",,,"MET065METAR MMMZ 110141Z 30004KT 10SM FEW240 20/14 A2992 RMK 8/001 HZY=",
"76459399999","2025-02-11T02:47:00","4","23.161356","-106.266072","11.58","GENERAL RAFAEL BUELNA INTERNATIONAL, MX","FM-15","99999","V020","310,1,N,0026,1","99999,9,9,N","016093,1,9,9","+0190,1","+0130,1","10138,1",,"04,1,+07315,1,00,1",,,"9,AGL   ,+99999,+99999","99,99,9,04,1,99,9,07315,1,99,9,99,9","10142,1,99999,9","2,1,003,1,+999,9",,"MET090METAR MMMZ 110247Z 31005KT 10SM SCT240 19/13 A2995 RMK SLP138 52003 960 8/001 ISOL AC HZY=",
"76459399999","2025-02-11T03:41:00","4","23.161356","-106.266072","11.58","GENERAL RAFAEL BUELNA INTERNATIONAL, MX","FM-15","99999","V020","999,9,C,0000,1","07315,1,C,N","016093,1,9,9","+0190,1","+0120,1","99999,9",,"02,1,+02438,1,03,1","04,1,+07315,1,00,1",,"9,AGL   ,+99999,+99999","99,99,9,02,1,99,9,02438,1,99,9,99,9","10146,1,99999,9",,,"MET068METAR MMMZ 110341Z 00000KT 10SM FEW080 SCT240 19/12 A2996 RMK 8/031=",
"76459399999","2025-02-11T04:43:00","4","23.161356","-106.266072","11.58","GENERAL RAFAEL BUELNA INTERNATIONAL, MX","FM-15","99999","V020","999,9,C,0000,1","07315,1,9,N","016093,1,9,9","+0170,1","+0120,1","99999,9",,"02,1,+02743,1,03,1","07,1,+07315,1,00,1",,"9,AGL   ,+99999,+99999","99,99,9,02,1,99,9,02743,1,99,9,99,9","10146,1,99999,9",,,"MET068METAR MMMZ 110443Z 00000KT 10SM FEW090 BKN240 17/12 A2996 RMK 8/032=",
"76459399999","2025-02-11T05:42:00","4","23.161356","-106.266072","11.58","GENERAL RAFAEL BUELNA INTERNATIONAL, MX","FM-15","99999","V020","999,9,C,0000,1","07315,1,9,N","016093,1,9,9","+0150,1","+0110,1","10142,1",,"04,1,+02743,1,03,1","07,1,+07315,1,00,1",,"9,AGL   ,+99999,+99999","99,99,9,04,1,99,9,02743,1,99,9,99,9","10146,1,99999,9","2,1,007,1,+999,9",,"MET085METAR MMMZ 110542Z 00000KT 10SM SCT090 BKN240 15/11 A2996 RMK SLP142 52007 974 8/032=",
"76459399999","2025-02-11T06:43:00","4","23.161356","-106.266072","11.58","GENERAL RAFAEL BUELNA INTERNATIONAL, MX","FM-15","99999","V020","999,9,C,0000,1","07620,1,9,N","016093,1,9,9","+0150,1","+0110,1","99999,9",,"04,1,+02743,1,03,1","08,1,+07620,1,02,1",,"9,AGL   ,+99999,+99999","99,99,9,04,1,99,9,02743,1,99,9,99,9","10142,1,99999,9",,,"MET073METAR MMMZ 110643Z 00000KT 10SM SCT090 OVC250 15/11 A2995 RMK 8/037 HALO=",
"76459399999","2025-02-11T07:40:00","4","23.161356","-106.266072","11.58","GENERAL RAFAEL BUELNA INTERNATIONAL, MX","FM-15","99999","V020","999,9,C,0000,1","07620,1,9,N","016093,1,9,9","+0140,1","+0100,1","99999,9",,"04,1,+02743,1,03,1","08,1,+07620,1,02,1",,"9,AGL   ,+99999,+99999","99,99,9,04,1,99,9,02743,1,99,9,99,9","10139,1,99999,9",,,"MET068METAR MMMZ 110740Z 00000KT 10SM SCT090 OVC250 14/10 A2994 RMK 8/037=",
"76459399999","2025-02-11T08:41:00","4","23.161356","-106.266072","11.58","GENERAL RAFAEL BUELNA INTERNATIONAL, MX","FM-15","99999","V020","300,1,N,0015,1","07315,1,9,N","016093,1,9,9","+0130,1","+0090,1","10125,1",,"04,1,+02743,1,03,1","07,1,+07315,1,00,1",,"9,AGL   ,+99999,+99999","99,99,9,04,1,99,9,02743,1,99,9,99,9","10139,1,99999,9","7,1,007,1,+999,9",,"MET085METAR MMMZ 110841Z 30003KT 10SM SCT090 BKN240 13/09 A2994 RMK SLP125 57007 980 8/032=",
"76459399999","2025-02-11T09:41:00","4","23.161356","-106.266072","11.58","GENERAL RAFAEL BUELNA INTERNATIONAL, MX","FM-15","99999","V020","999,9,C,0000,1","02743,1,C,N","016093,1,9,9","+0130,1","+0110,1","99999,9",,"07,1,+02743,1,03,1","08,1,+07620,1,02,1",,"9,AGL   ,+99999,+99999","99,99,9,07,1,99,9,02743,1,99,9,99,9","10135,1,99999,9",,,"MET068METAR MMMZ 110941Z 00000KT 10SM BKN090 OVC250 13/11 A2993 RMK 8/037=",
"76459399999","2025-02-11T10:41:00","4","23.161356","-106.266072","11.58","GENERAL RAFAEL BUELNA INTERNATIONAL, MX","FM-15","99999","V020","999,9,C,0000,1","07620,1,9,N","016093,1,9,9","+0120,1","+0110,1","99999,9",,"02,1,+02743,1,03,1","07,1,+07620,1,00,1",,"9,AGL   ,+99999,+99999","99,99,9,02,1,99,9,02743,1,99,9,99,9","10132,1,99999,9",,,"MET068METAR MMMZ 111041Z 00000KT 10SM FEW090 BKN250 12/11 A2992 RMK 8/032=",
"76459399999","2025-02-11T11:40:00","4","23.161356","-106.266072","11.58","GENERAL RAFAEL BUELNA INTERNATIONAL, MX","FM-15","99999","V020","999,9,C,0000,1","07315,1,9,N","016093,1,9,9","+0120,1","+0100,1","10120,1",,"02,1,+02743,1,03,1","07,1,+07315,1,00,1",,"9,AGL   ,+99999,+99999","99,99,9,02,1,99,9,02743,1,99,9,99,9","10125,1,99999,9","7,1,013,1,+999,9",,"MET085METAR MMMZ 111140Z 00000KT 10SM FEW090 BKN240 12/10 A2990 RMK SLP120 57013 979 8/032=",
"76459399999","2025-02-11T12:41:00","4","23.161356","-106.266072","11.58","GENERAL RAFAEL BUELNA INTERNATIONAL, MX","FM-15","99999","V020","120,1,N,0015,1","07315,1,9,N","016093,1,9,9","+0120,1","+0090,1","99999,9",,"04,1,+02743,1,03,1","07,1,+07315,1,00,1",,"9,AGL   ,+99999,+99999","99,99,9,04,1,99,9,02743,1,99,9,99,9","10125,1,99999,9",,,"MET068METAR MMMZ 111241Z 12003KT 10SM SCT090 BKN240 12/09 A2990 RMK 8/032=",
"76459399999","2025-02-11T13:44:00","4","23.161356","-106.266072","11.58","GENERAL RAFAEL BUELNA INTERNATIONAL, MX","FM-15","99999","V020","999,9,C,0000,1","99999,9,9,N","019312,1,9,9","+0110,1","+0090,1","99999,9",,"04,1,+07315,1,00,1",,,"9,AGL   ,+99999,+99999","99,99,9,04,1,99,9,07315,1,99,9,99,9","10125,1,99999,9",,,"MET061METAR MMMZ 111344Z 00000KT 12SM SCT240 11/09 A2990 RMK 8/002=",
"76459399999","2025-02-11T14:43:00","4","23.161356","-106.266072","11.58","GENERAL RAFAEL BUELNA INTERNATIONAL, MX","FM-15","99999","V020","999,9,C,0000,1","99999,9,9,N","022531,1,9,9","+0150,1","+0090,1","10132,1",,"04,1,+07315,1,00,1",,,"9,AGL   ,+99999,+99999","99,99,9,04,1,99,9,07315,1,99,9,99,9","10132,1,99999,9","2,1,007,1,+999,9",,"MET086METAR MMMZ 111443Z 00000KT 14SM SCT240 15/09 A2992 RMK SLP132 52007 987 8/002 ISOL AC=",
"76459399999","2025-02-11T15:41:00","4","23.161356","-106.266072","11.58","GENERAL RAFAEL BUELNA INTERNATIONAL, MX","FM-15","99999","V020","280,1,N,0026,1","99999,9,9,N","024140,1,9,9","+0210,1","+0100,1","99999,9",,"02,1,+07315,1,00,1",,,"9,AGL   ,+99999,+99999","99,99,9,02,1,99,9,07315,1,99,9,99,9","10142,1,99999,9",,,"MET069METAR MMMZ 111541Z 28005KT 15SM FEW240 21/10 A2995 RMK 8/001 ISOL AC=",
"76459399999","2025-02-11T16:41:00","4","23.161356","-106.266072","11.58","GENERAL RAFAEL BUELNA INTERNATIONAL, MX","FM-15","99999","V020","999,9,C,0000,1","99999,9,9,N","024140,1,9,9","+0240,1","+0120,1","99999,9",,"04,1,+07315,1,00,1",,,"9,AGL   ,+99999,+99999","99,99,9,04,1,99,9,07315,1,99,9,99,9","10142,1,99999,9",,,"MET069METAR MMMZ 111641Z 00000KT 15SM SCT240 24/12 A2995 RMK 8/002 ISOL AC=",
"76459399999","2025-02-11T19:42:00","4","23.161356","-106.266072","11.58","GENERAL RAFAEL BUELNA INTERNATIONAL, MX","FM-15","99999","V020","280,1,N,0036,1","99999,9,9,N","024140,1,9,9","+0280,2","+0110,1","99999,9",,"02,1,+07620,1,00,1",,,"9,AGL   ,+99999,+99999","99,99,9,02,1,99,9,07620,1,99,9,99,9","10122,1,99999,9",,,"MET061METAR MMMZ 111942Z 28007KT 15SM FEW250 28/11 A2989 RMK 8/002=",
"76459399999","2025-02-11T20:41:00","4","23.161356","-106.266072","11.58","GENERAL RAFAEL BUELNA INTERNATIONAL, MX","FM-15","99999","V020","290,1,N,0041,1","99999,9,9,N","024140,1,9,9","+0270,1","+0140,1","10111,1",,"02,1,+07620,1,00,1",,,"9,AGL   ,+99999,+99999","99,99,9,02,1,99,9,07620,1,99,9,99,9","10115,1,99999,9","7,1,023,1,+999,9",,"MET078METAR MMMZ 112041Z 29008KT 15SM FEW250 27/14 A2987 RMK SLP111 57023 977 8/002=",
"76459399999","2025-02-11T21:48:00","4","23.161356","-106.266072","11.58","GENERAL RAFAEL BUELNA INTERNATIONAL, MX","FM-15","99999","V020","300,1,N,0046,1","07620,1,C,N","024140,1,9,9","+0270,1","+0130,1","99999,9",,"07,1,+07620,1,00,1",,,"9,AGL   ,+99999,+99999","99,99,9,07,1,99,9,07620,1,99,9,99,9","10105,1,99999,9",,,"MET069METAR MMMZ 112148Z 30009KT 15SM BKN250 27/13 A2984 RMK 8/002 ISOL AC=",
"76459399999","2025-02-11T22:43:00","4","23.161356","-106.266072","11.58","GENERAL RAFAEL BUELNA INTERNATIONAL, MX","FM-15","99999","V020","280,1,N,0031,1","07620,1,9,N","024140,1,9,9","+0270,1","+0140,1","99999,9",,"04,1,+02438,1,03,1","07,1,+07620,1,00,1",,"9,AGL   ,+99999,+99999","99,99,9,04,1,99,9,02438,1,99,9,99,9","10102,1,99999,9",,,"MET068METAR MMMZ 112243Z 28006KT 15SM SCT080 BKN250 27/14 A2983 RMK 8/032=",
"76459399999","2025-02-11T23:49:00","4","23.161356","-106.266072","11.58","GENERAL RAFAEL BUELNA INTERNATIONAL, MX","FM-15","99999","V020","300,1,N,0041,1","02438,1,C,N","022531,1,9,9","+0250,1","+0130,1","10113,1",,"07,1,+02438,1,03,1","07,1,+07620,1,00,1",,"9,AGL   ,+99999,+99999","99,99,9,07,1,99,9,02438,1,99,9,99,9","10105,1,99999,9","7,1,010,1,+999,9",,"MET085METAR MMMZ 112349Z 30008KT 14SM BKN080 BKN250 25/13 A2984 RMK SLP113 57010 980 8/032=",
"76459399999","2025-02-12T00:44:00","4","23.161356","-106.266072","11.58","GENERAL RAFAEL BUELNA INTERNATIONAL, MX","FM-15","99999","V020","300,1,N,0031,1","07620,1,9,N","019312,1,9,9","+0230,1","+0160,1","99999,9",,"04,1,+02438,1,03,1","07,1,+07620,1,00,1",,"9,AGL   ,+99999,+99999","99,99,9,04,1,99,9,02438,1,99,9,99,9","10108,1,99999,9",,,"MET068METAR MMMZ 120044Z 30006KT 12SM SCT080 BKN250 23/16 A2985 RMK 8/032=",
"76459399999","2025-02-12T01:42:00","4","23.161356","-106.266072","11.58","GENERAL RAFAEL BUELNA INTERNATIONAL, MX","FM-15","99999","V020","300,1,N,0026,1","07620,1,9,N","016093,1,9,9","+0210,1","+0150,1","99999,9",,"02,1,+02438,1,03,1","07,1,+07620,1,00,1",,"9,AGL   ,+99999,+99999","99,99,9,02,1,99,9,02438,1,99,9,99,9","10108,1,99999,9",,,"MET068METAR MMMZ 120142Z 30005KT 10SM FEW080 BKN250 21/15 A2985 RMK 8/032=",
"76459399999","2025-02-12T02:43:00","4","23.161356","-106.266072","11.58","GENERAL RAFAEL BUELNA INTERNATIONAL, MX","FM-15","99999","V020","999,9,C,0000,1","07620,1,9,N","016093,1,9,9","+0190,1","+0150,1","10108,1",,"02,1,+02438,1,03,1","07,1,+07620,1,00,1",,"9,AGL   ,+99999,+99999","99,99,9,02,1,99,9,02438,1,99,9,99,9","10108,1,99999,9","2,1,003,1,+999,9",,"MET085METAR MMMZ 120243Z 00000KT 10SM FEW080 BKN250 19/15 A2985 RMK SLP108 52003 980 8/032=",
"76459399999","2025-02-12T03:42:00","4","23.161356","-106.266072","11.58","GENERAL RAFAEL BUELNA INTERNATIONAL, MX","FM-15","99999","V020","999,9,C,0000,1","07620,1,9,N","016093,1,9,9","+0200,1","+0160,1","99999,9",,"04,1,+02438,1,03,1","07,1,+07620,1,00,1",,"9,AGL   ,+99999,+99999","99,99,9,04,1,99,9,02438,1,99,9,99,9","10115,1,99999,9",,,"MET068METAR MMMZ 120342Z 00000KT 10SM SCT080 BKN250 20/16 A2987 RMK 8/032=",
"76459399999","2025-02-12T04:42:00","4","23.161356","-106.266072","11.58","GENERAL RAFAEL BUELNA INTERNATIONAL, MX","FM-15","99999","V020","999,9,C,0000,1","07315,1,C,N","016093,1,9,9","+0190,1","+0140,1","99999,9",,"04,1,+03353,1,03,1","04,1,+07315,1,00,1",,"9,AGL   ,+99999,+99999","99,99,9,04,1,99,9,03353,1,99,9,99,9","10118,1,99999,9",,,"MET068METAR MMMZ 120442Z 00000KT 10SM SCT110 SCT240 19/14 A2988 RMK 8/032=",
"76459399999","2025-02-12T05:48:00","4","23.161356","-106.266072","11.58","GENERAL RAFAEL BUELNA INTERNATIONAL, MX","FM-15","99999","V020","999,9,C,0000,1","07315,1,C,N","016093,1,9,9","+0170,1","+0160,1","10118,1",,"04,1,+03353,1,03,1","04,1,+07315,1,00,1",,"9,AGL   ,+99999,+99999","99,99,9,04,1,99,9,03353,1,99,9,99,9","10122,1,99999,9","2,1,013,1,+999,9",,"MET085METAR MMMZ 120548Z 00000KT 10SM SCT110 SCT240 17/16 A2989 RMK SLP118 52013 974 8/032=",
"76459399999","2025-02-12T06:43:00","4","23.161356","-106.266072","11.58","GENERAL RAFAEL BUELNA INTERNATIONAL, MX","FM-15","99999","V020","999,9,C,0000,1","99999,9,9,N","016093,1,9,9","+0160,1","+0150,1","99999,9",,"04,1,+03353,1,03,1",,,"9,AGL   ,+99999,+99999","99,99,9,04,1,99,9,03353,1,99,9,99,9","10122,1,99999,9",,,"MET061METAR MMMZ 120643Z 00000KT 10SM SCT110 16/15 A2989 RMK 8/050=",
"76459399999","2025-02-12T07:44:00","4","23.161356","-106.266072","11.58","GENERAL RAFAEL BUELNA INTERNATIONAL, MX","FM-15","99999","V020","999,9,C,0000,1","03353,1,C,N","016093,1,9,9","+0160,1","+0160,1","99999,9",,"02,1,+01067,1,06,1","04,1,+03353,1,03,1",,"9,AGL   ,+99999,+99999","99,99,9,02,1,99,9,01067,1,99,9,99,9","10118,1,99999,9",,,"MET068METAR MMMZ 120744Z 00000KT 10SM FEW035 SCT110 16/16 A2988 RMK 8/550=",
"76459399999","2025-02-12T07:59:00","4","23.161356","-106.266072","11.58","GENERAL RAFAEL BUELNA INTERNATIONAL, MX","FM-15","99999","V020","999,9,C,0000,1","00000,1,W,N","000101,1,9,9","+0170,1","+0160,1","99999,9",,"09,1,+00000,1,99,9",,,"9,AGL   ,+99999,+99999","09,99,1,09,1,99,9,00000,1,99,9,99,9","10118,1,99999,9",,"44,1","MET065METAR MMMZ 120759Z 00000KT 1/16SM FG VV000 17/16 A2988 RMK 8////=",
"76459399999","2025-02-12T07:59:00","4","23.161356","-106.266072","11.58","GENERAL RAFAEL BUELNA INTERNATIONAL, MX","FM-16","99999","V020","999,9,C,0000,1","00000,1,W,N","000101,1,9,9","+0170,1","+0160,1","99999,9",,"09,1,+00000,1,99,9",,,"9,AGL   ,+99999,+99999","09,99,1,09,1,99,9,00000,1,99,9,99,9","10118,1,99999,9",,"44,1","MET065SPECI MMMZ 120759Z 00000KT 1/16SM FG VV000 17/16 A2988 RMK 8////=",
"76459399999","2025-02-12T08:44:00","4","23.161356","-106.266072","11.58","GENERAL RAFAEL BUELNA INTERNATIONAL, MX","FM-15","99999","V020","999,9,C,0000,1","00000,1,W,N","000101,1,9,9","+0170,1","+0160,1","10182,1",,"09,1,+00000,1,99,9",,,"9,AGL   ,+99999,+99999","09,99,1,09,1,99,9,00000,1,99,9,99,9","10118,1,99999,9","7,1,003,1,+999,9","44,1","MET082METAR MMMZ 120844Z 00000KT 1/16SM FG VV000 17/16 A2988 RMK SLP182 57003 957 8////=",
"76459399999","2025-02-12T09:49:00","4","23.161356","-106.266072","11.58","GENERAL RAFAEL BUELNA INTERNATIONAL, MX","FM-15","99999","V020","999,9,C,0000,1","99999,9,9,N","011265,1,9,9","+0160,1","+0160,1","99999,9",,"04,1,+03353,1,03,1",,,"9,AGL   ,+99999,+99999","99,99,9,04,1,99,9,03353,1,99,9,99,9","10115,1,99999,9",,,"MET068METAR MMMZ 120949Z 00000KT 7SM SCT110 16/16 A2987 RMK 8/030 ISOL CU=",
"76459399999","2025-02-12T10:45:00","4","23.161356","-106.266072","11.58","GENERAL RAFAEL BUELNA INTERNATIONAL, MX","FM-15","99999","V020","999,9,C,0000,1","99999,9,9,N","016093,1,9,9","+0160,1","+0150,1","99999,9",,"04,1,+03353,1,03,1",,,"9,AGL   ,+99999,+99999","99,99,9,04,1,99,9,03353,1,99,9,99,9","10115,1,99999,9",,,"MET061METAR MMMZ 121045Z 00000KT 10SM SCT110 16/15 A2987 RMK 8/030=",
"76459399999","2025-02-12T11:41:00","4","23.161356","-106.266072","11.58","GENERAL RAFAEL BUELNA INTERNATIONAL, MX","FM-15","99999","V020","999,9,C,0000,1","99999,9,9,N","016093,1,9,9","+0160,1","+0150,1","10109,1",,"04,1,+03353,1,03,1",,,"9,AGL   ,+99999,+99999","99,99,9,04,1,99,9,03353,1,99,9,99,9","10115,1,99999,9","7,1,003,1,+999,9",,"MET078METAR MMMZ 121141Z 00000KT 10SM SCT110 16/15 A2987 RMK SLP109 57003 960 8/030=",
"76459399999","2025-02-12T12:44:00","4","23.161356","-106.266072","11.58","GENERAL RAFAEL BUELNA INTERNATIONAL, MX","FM-15","99999","V020","999,9,C,0000,1","99999,9,9,N","016093,1,9,9","+0160,1","+0140,1","99999,9",,"04,1,+03353,1,03,1",,,"9,AGL   ,+99999,+99999","99,99,9,04,1,99,9,03353,1,99,9,99,9","10118,1,99999,9",,,"MET061METAR MMMZ 121244Z 00000KT 10SM SCT110 16/14 A2988 RMK 8/030=",
"76459399999","2025-02-12T13:44:00","4","23.161356","-106.266072","11.58","GENERAL RAFAEL BUELNA INTERNATIONAL, MX","FM-15","99999","V020","020,1,N,0031,1","07315,1,9,N","019312,1,9,9","+0150,1","+0130,1","99999,9",,"04,1,+03353,1,03,1","07,1,+07315,1,00,1",,"9,AGL   ,+99999,+99999","99,99,9,04,1,99,9,03353,1,99,9,99,9","10129,1,99999,9",,,"MET068METAR MMMZ 121344Z 02006KT 12SM SCT110 BKN240 15/13 A2991 RMK 8/032=",
"76459399999","2025-02-12T14:48:00","4","23.161356","-106.266072","11.58","GENERAL RAFAEL BUELNA INTERNATIONAL, MX","FM-15","99999","V020","999,9,C,0000,1","07315,1,9,N","022531,1,9,9","+0190,1","+0130,1","10132,1",,"02,1,+03048,1,03,1","07,1,+07315,1,00,1",,"9,AGL   ,+99999,+99999","99,99,9,02,1,99,9,03048,1,99,9,99,9","10132,1,99999,9","2,1,013,1,+999,9",,"MET100METAR MMMZ 121448Z 00000KT 14SM FEW100 BKN240 19/13 A2992 RMK SLP132 52013 900 8/032 FULYR 3RD QUAD=",
"76459399999","2025-02-12T15:41:00","4","23.161356","-106.266072","11.58","GENERAL RAFAEL BUELNA INTERNATIONAL, MX","FM-15","99999","V020","999,9,C,0000,1","07315,1,C,N","022531,1,9,9","+0210,1","+0160,1","99999,9",,"07,1,+07315,1,00,1",,,"9,AGL   ,+99999,+99999","99,99,9,07,1,99,9,07315,1,99,9,99,9","10135,1,99999,9",,,"MET069METAR MMMZ 121541Z 00000KT 14SM BKN240 21/16 A2993 RMK 8/002 ISOL AC=",
"76459399999","2025-02-12T17:44:00","4","23.161356","-106.266072","11.58","GENERAL RAFAEL BUELNA INTERNATIONAL, MX","FM-15","99999","V020","220,1,N,0036,1","99999,9,9,N","022531,1,9,9","+0260,1","+0180,1","10126,1",,"02,1,+07315,1,00,1",,,"9,AGL   ,+99999,+99999","99,99,9,02,1,99,9,07315,1,99,9,99,9","10132,1,99999,9","4,1,000,1,+999,9",,"MET100METAR MMMZ 121744Z 22007KT 14SM FEW240 26/18 A2992 RMK SLP126 54000 957 8/002 LWR ST OVSEA 3RD QUAD=",
"76459399999","2025-02-12T18:43:00","4","23.161356","-106.266072","11.58","GENERAL RAFAEL BUELNA INTERNATIONAL, MX","FM-15","99999","V020","270,1,N,0036,1","99999,9,9,N","022531,1,9,9","+0250,1","+0170,1","99999,9",,"02,1,+07315,1,00,1",,,"9,AGL   ,+99999,+99999","99,99,9,02,1,99,9,07315,1,99,9,99,9","10129,1,99999,9",,,"MET083METAR MMMZ 121843Z 27007KT 14SM FEW240 25/17 A2991 RMK 8/002 LWR ST OVSEA 3RD QUAD=",
"76459399999","2025-02-12T19:43:00","4","23.161356","-106.266072","11.58","GENERAL RAFAEL BUELNA INTERNATIONAL, MX","FM-15","99999","V020","260,1,N,0041,1","22000,1,9,N","022531,1,9,9","+0250,1","+0160,1","99999,9",,,,,,"00,99,1,99,9,99,9,99999,9,99,9,99,9","10118,1,99999,9",,,"MET060METAR MMMZ 121943Z 26008KT 14SM SKC 25/16 A2988 RMK ISOL CI=",
"76459399999","2025-02-12T20:45:00","4","23.161356","-106.266072","11.58","GENERAL RAFAEL BUELNA INTERNATIONAL, MX","FM-15","99999","V020","300,1,N,0021,1","22000,1,9,N","022531,1,9,9","+0260,1","+0150,1","10108,1",,,,,,"00,99,1,99,9,99,9,99999,9,99,9,99,9","10108,1,99999,9","7,1,023,1,+999,9",,"MET080METAR MMMZ 122045Z 30004KT 14SM SKC 26/15 A2985 RMK SLP108 57023 953 ISOL SC CI=",
"76459399999","2025-02-12T21:42:00","4","23.161356","-106.266072","11.58","GENERAL RAFAEL BUELNA INTERNATIONAL, MX","FM-15","99999","V020","310,1,N,0036,1","22000,1,9,N","024140,1,9,9","+0270,1","+0130,1","99999,9",,,,,,"00,99,1,99,9,99,9,99999,9,99,9,99,9","10105,1,99999,9",,,"MET060METAR MMMZ 122142Z 31007KT 15SM SKC 27/13 A2984 RMK ISOL CI=",
"76459399999","2025-02-12T22:41:00","4","23.161356","-106.266072","11.58","GENERAL RAFAEL BUELNA INTERNATIONAL, MX","FM-15","99999","V020","290,1,N,0041,1","22000,1,9,N","024140,1,9,9","+0270,1","+0110,1","99999,9",,,,,,"00,99,1,99,9,99,9,99999,9,99,9,99,9","10098,1,99999,9",,,"MET060METAR MMMZ 122241Z 29008KT 15SM SKC 27/11 A2982 RMK ISOL CI=",
"76459399999","2025-02-12T23:44:00","4","23.161356","-106.266072","11.58","GENERAL RAFAEL BUELNA INTERNATIONAL, MX","FM-15","99999","V020","290,1,N,0041,1","99999,9,9,N","024140,1,9,9","+0260,1","+0110,1","10096,1",,"02,1,+07620,1,02,1",,,"9,AGL   ,+99999,+99999","99,99,9,02,1,99,9,07620,1,99,9,99,9","10102,1,99999,9","7,1,007,1,+999,9",,"MET078METAR MMMZ 122344Z 29008KT 15SM FEW250 26/11 A2983 RMK SLP096 57007 967 8/005=",
"76459399999","2025-02-13T00:42:00","4","23.161356","-106.266072","11.58","GENERAL RAFAEL BUELNA INTERNATIONAL, MX","FM-15","99999","V020","320,1,N,0051,1","99999,9,9,N","022531,1,9,9","+0250,1","+0060,1","99999,9",,"02,1,+07620,1,02,1",,,"9,AGL   ,+99999,+99999","99,99,9,02,1,99,9,07620,1,99,9,99,9","10105,1,99999,9",,,"MET061METAR MMMZ 130042Z 32010KT 14SM FEW250 25/06 A2984 RMK 8/005=",
"76459399999","2025-02-13T01:57:00","4","23.161356","-106.266072","11.58","GENERAL RAFAEL BUELNA INTERNATIONAL, MX","FM-15","99999","V020","340,1,N,0015,1","99999,9,9,N","022531,1,9,9","+0210,1","+0090,1","99999,9",,"02,1,+07315,1,02,1",,,"9,AGL   ,+99999,+99999","99,99,9,02,1,99,9,07315,1,99,9,99,9","10108,1,99999,9",,,"MET065METAR MMMZ 130157Z RTD 34003KT 14SM FEW240 21/09 A2985 RMK 8/005=",
"76459399999","2025-02-13T02:44:00","4","23.161356","-106.266072","11.58","GENERAL RAFAEL BUELNA INTERNATIONAL, MX","FM-15","99999","V020","999,9,C,0000,1","22000,1,9,N","019312,1,9,9","+0190,1","+0090,1","10115,1",,,,,,"00,99,1,99,9,99,9,99999,9,99,9,99,9","10115,1,99999,9","2,1,013,1,+999,9",,"MET077METAR MMMZ 130244Z 00000KT 12SM SKC 19/09 A2987 RMK SLP115 52013 907 ISOL CI=",
"76459399999","2025-02-13T03:42:00","4","23.161356","-106.266072","11.58","GENERAL RAFAEL BUELNA INTERNATIONAL, MX","FM-15","99999","V020","999,9,C,0000,1","22000,1,9,N","019312,1,9,9","+0190,1","+0100,1","99999,9",,,,,,"00,99,1,99,9,99,9,99999,9,99,9,99,9","10122,1,99999,9",,,"MET048METAR MMMZ 130342Z 00000KT 12SM SKC 19/10 A2989=",
"76459399999","2025-02-13T04:46:00","4","23.161356","-106.266072","11.58","GENERAL RAFAEL BUELNA INTERNATIONAL, MX","FM-15","99999","V020","999,9,C,0000,1","22000,1,9,N","016093,1,9,9","+0150,1","+0090,1","99999,9",,,,,,"00,99,1,99,9,99,9,99999,9,99,9,99,9","10125,1,99999,9",,,"MET063METAR MMMZ 130446Z 00000KT 10SM SKC 15/09 A2990 RMK ISOL AC CI=",
"76459399999","2025-02-13T05:43:00","4","23.161356","-106.266072","11.58","GENERAL RAFAEL BUELNA INTERNATIONAL, MX","FM-15","99999","V020","999,9,C,0000,1","22000,1,9,N","016093,1,9,9","+0140,1","+0090,1","10130,1",,,,,,"00,99,1,99,9,99,9,99999,9,99,9,99,9","10135,1,99999,9","2,1,020,1,+999,9",,"MET077METAR MMMZ 130543Z 00000KT 10SM SKC 14/09 A2993 RMK SLP130 52020 912 ISOL CI=",
"76459399999","2025-02-13T06:42:00","4","23.161356","-106.266072","11.58","GENERAL RAFAEL BUELNA INTERNATIONAL, MX","FM-15","99999","V020","999,9,C,0000,1","99999,9,9,N","016093,1,9,9","+0130,1","+0090,1","99999,9",,"02,1,+07620,1,00,1",,,"9,AGL   ,+99999,+99999","99,99,9,02,1,99,9,07620,1,99,9,99,9","10139,1,99999,9",,,"MET061METAR MMMZ 130642Z 00000KT 10SM FEW250 13/09 A2994 RMK 8/002=",
"76459399999","2025-02-13T07:40:00","4","23.161356","-106.266072","11.58","GENERAL RAFAEL BUELNA INTERNATIONAL, MX","FM-15","99999","V020","999,9,C,0000,1","99999,9,9,N","016093,1,9,9","+0120,1","+0090,1","99999,9",,"02,1,+07620,1,00,1",,,"9,AGL   ,+99999,+99999","99,99,9,02,1,99,9,07620,1,99,9,99,9","10142,1,99999,9",,,"MET061METAR MMMZ 130740Z 00000KT 10SM FEW250 12/09 A2995 RMK 8/002=",
"76459399999","2025-02-13T08:41:00","4","23.161356","-106.266072","11.58","GENERAL RAFAEL BUELNA INTERNATIONAL, MX","FM-15","99999","V020","999,9,C,0000,1","22000,1,9,N","016093,1,9,9","+0120,1","+0090,1","10127,1",,,,,,"00,99,1,99,9,99,9,99999,9,99,9,99,9","10142,1,99999,9","2,1,007,1,+999,9",,"MET069METAR MMMZ 130841Z 00000KT 10SM SKC 12/09 A2995 RMK SLP127 52007 909=",
"76459399999","2025-02-13T09:40:00","4","23.161356","-106.266072","11.58","GENERAL RAFAEL BUELNA INTERNATIONAL, MX","FM-15","99999","V020","999,9,C,0000,1","22000,1,9,N","016093,1,9,9","+0110,1","+0080,1","99999,9",,,,,,"00,99,1,99,9,99,9,99999,9,99,9,99,9","10142,1,99999,9",,,"MET048METAR MMMZ 130940Z 00000KT 10SM SKC 11/08 A2995=",
"76459399999","2025-02-13T10:41:00","4","23.161356","-106.266072","11.58","GENERAL RAFAEL BUELNA INTERNATIONAL, MX","FM-15","99999","V020","999,9,C,0000,1","22000,1,9,N","016093,1,9,9","+0090,1","+0060,1","99999,9",,,,,,"00,99,1,99,9,99,9,99999,9,99,9,99,9","10142,1,99999,9",,,"MET048METAR MMMZ 131041Z 00000KT 10SM SKC 09/06 A2995=",
"76459399999","2025-02-13T11:42:00","4","23.161356","-106.266072","11.58","GENERAL RAFAEL BUELNA INTERNATIONAL, MX","FM-15","99999","V020","999,9,C,0000,1","22000,1,9,N","016093,1,9,9","+0100,1","+0070,1","10139,1",,,,,,"00,99,1,99,9,99,9,99999,9,99,9,99,9","10142,1,99999,9","4,1,000,1,+999,9",,"MET069METAR MMMZ 131142Z 00000KT 10SM SKC 10/07 A2995 RMK SLP139 54000 930=",
"76459399999","2025-02-13T12:49:00","4","23.161356","-106.266072","11.58","GENERAL RAFAEL BUELNA INTERNATIONAL, MX","FM-15","99999","V020","060,1,N,0015,1","22000,1,9,N","016093,1,9,9","+0090,1","+0070,1","99999,9",,,,,,"00,99,1,99,9,99,9,99999,9,99,9,99,9","10152,1,99999,9",,,"MET048METAR MMMZ 131249Z 06003KT 10SM SKC 09/07 A2998=",
"76459399999","2025-02-13T13:43:00","4","23.161356","-106.266072","11.58","GENERAL RAFAEL BUELNA INTERNATIONAL, MX","FM-15","99999","V020","030,1,N,0031,1","99999,9,9,N","019312,1,9,9","+0100,1","+0070,1","99999,9",,"02,1,+07620,1,00,1",,,"9,AGL   ,+99999,+99999","99,99,9,02,1,99,9,07620,1,99,9,99,9","10159,1,99999,9",,,"MET061METAR MMMZ 131343Z 03006KT 12SM FEW250 10/07 A3000 RMK 8/004=",
"76459399999","2025-02-13T14:46:00","4","23.161356","-106.266072","11.58","GENERAL RAFAEL BUELNA INTERNATIONAL, MX","FM-15","99999","V020","030,1,N,0021,1","99999,9,9,N","024140,1,9,9","+0130,1","+0080,1","10169,1",,"02,1,+07620,1,00,1",,,"9,AGL   ,+99999,+99999","99,99,9,02,1,99,9,07620,1,99,9,99,9","10169,1,99999,9","2,1,027,1,+999,9",,"MET078METAR MMMZ 131446Z 03004KT 15SM FEW250 13/08 A3003 RMK SLP169 52027 937 8/002=",
"76459399999","2025-02-13T15:47:00","4","23.161356","-106.266072","11.58","GENERAL RAFAEL BUELNA INTERNATIONAL, MX","FM-15","99999","V020","050,1,N,0015,1","99999,9,9,N","024140,1,9,9","+0190,1","+0060,1","99999,9",,"02,1,+07620,1,00,1",,,"9,AGL   ,+99999,+99999","99,99,9,02,1,99,9,07620,1,99,9,99,9","10173,1,99999,9",,,"MET063METAR MMMZ 131547Z 05003KT 15SM FEW250 19/06 A3004 RMK 8/002 S=",
"76459399999","2025-02-13T16:43:00","4","23.161356","-106.266072","11.58","GENERAL RAFAEL BUELNA INTERNATIONAL, MX","FM-15","99999","V020","999,9,C,0000,1","99999,9,9,N","024140,1,9,9","+0240,1","+0070,1","99999,9",,"02,1,+07315,1,00,1",,,"9,AGL   ,+99999,+99999","99,99,9,02,1,99,9,07315,1,99,9,99,9","10176,1,99999,9",,,"MET061METAR MMMZ 131643Z 00000KT 15SM FEW240 24/07 A3005 RMK 8/002=",
"76459399999","2025-02-13T17:42:00","4","23.161356","-106.266072","11.58","GENERAL RAFAEL BUELNA INTERNATIONAL, MX","FM-15","99999","V020","170,1,N,0015,1","99999,9,9,N","024140,1,9,9","+0280,2","+0070,1","10173,1",,"02,1,+07620,1,00,1",,,"9,AGL   ,+99999,+99999","99,99,9,02,1,99,9,07620,1,99,9,99,9","10176,1,99999,9","2,1,007,1,+999,9",,"MET078METAR MMMZ 131742Z 17003KT 15SM FEW250 28/07 A3005 RMK SLP173 52007 941 8/002=",
"76459399999","2025-02-13T18:41:00","4","23.161356","-106.266072","11.58","GENERAL RAFAEL BUELNA INTERNATIONAL, MX","FM-15","99999","V020","270,1,N,0026,1","99999,9,9,N","024140,1,9,9","+0260,1","+0110,1","99999,9",,"02,1,+07620,1,00,1",,,"9,AGL   ,+99999,+99999","99,99,9,02,1,99,9,07620,1,99,9,99,9","10169,1,99999,9",,,"MET061METAR MMMZ 131841Z 27005KT 15SM FEW250 26/11 A3003 RMK 8/002=",
"76459399999","2025-02-13T19:47:00","4","23.161356","-106.266072","11.58","GENERAL RAFAEL BUELNA INTERNATIONAL, MX","FM-15","99999","V020","250,1,N,0036,1","99999,9,9,N","024140,1,9,9","+0260,1","+0120,1","99999,9",,"02,1,+07315,1,00,1",,,"9,AGL   ,+99999,+99999","99,99,9,02,1,99,9,07315,1,99,9,99,9","10156,1,99999,9",,,"MET061METAR MMMZ 131947Z 25007KT 15SM FEW240 26/12 A2999 RMK 8/002=",
"76459399999","2025-02-13T20:45:00","4","23.161356","-106.266072","11.58","GENERAL RAFAEL BUELNA INTERNATIONAL, MX","FM-15","99999","V020","270,1,N,0036,1","99999,9,9,N","024140,1,9,9","+0280,1","+0100,1","10142,1",,"02,1,+07315,1,02,1",,,"9,AGL   ,+99999,+99999","99,99,9,02,1,99,9,07315,1,99,9,99,9","10142,1,99999,9","7,1,033,1,+999,9",,"MET078METAR MMMZ 132045Z 27007KT 15SM FEW240 28/10 A2995 RMK SLP142 57033 934 8/005=",
