"STATION","DATE","SOURCE","LATITUDE","LONGITUDE","ELEVATION","NAME","REPORT_TYPE","CALL_SIGN","QUALITY_CONTROL","WND","CIG","VIS","TMP","DEW","SLP","AA1","AA2","AA3","AJ1","AY1","AY2","GA1","GA2","GA3","GF1","GJ1","IA1","IA2","KA1","KA2","MA1","MD1","MW1","OA1","REM","EQD"
"76458099999","2003-01-01T03:00:00","4","23.2","-106.4166666","4.0","COLONIA JUAN CARRASCO MAZATLAN SIN., MX","FM-12","99999","V020","300,1,N,0020,1","22000,1,9,N","020000,1,N,1","+0221,1","+0170,1","10123,1","06,0000,9,1",,,,,,"00,1,+99999,9,99,9",,,"00,99,1,00,1,00,1,99999,9,00,1,00,1",,"01,9",,,,"99999,9,10119,1","5,1,002,1,-022,1",,,"SYN082AAXX  01031 76458 32970 03002 10221 20170 30119 40123 55002 90245 333 30/// 59022;","Q01  00002PRCP06"
"76458099999","2003-01-01T06:00:00","4","23.2","-106.4166666","4.0","COLONIA JUAN CARRASCO MAZATLAN SIN., MX","FM-12","99999","V020","340,1,N,0020,1","22000,1,9,N","016000,1,N,1","+0194,1","+0146,1","10137,1","06,0000,9,1",,,,,,"00,1,+99999,9,99,9",,,"00,99,1,00,1,00,1,99999,9,00,1,00,1","0570,9","01,9",,"240,M,+0267,1","240,N,+0138,1","99999,9,10126,1","2,1,007,1,+999,9",,,"SYN106AAXX  01061 76458 32966 03402 10194 20146 30126 40137 52007 90535 333 10267 20138 30/// 55095 20883 59024;","Q01  00002PRCP06"
"76458099999","2003-01-01T15:00:00","4","23.2","-106.4166666","4.0","COLONIA JUAN CARRASCO MAZATLAN SIN., MX","FM-12","99999","V020","999,9,C,0000,1","99999,9,9,N","020000,1,N,1","+0174,1","+0106,1","10133,1","06,0000,9,1",,,,,,"03,1,+03300,9,03,9",,,"05,99,1,03,1,00,1,99999,9,03,1,02,1",,"01,9",,,,"99999,9,10128,1","2,1,999,9,-029,1",,,"SYN106AAXX  01151 76458 32970 50000 10174 20106 30128 40133 52/// 83032 91445 333 30/// 56069 59029 83361 82079;","Q01  00002PRCP06"
"76458099999","2003-01-01T18:00:00","4","23.2","-106.4166666","4.0","COLONIA JUAN CARRASCO MAZATLAN SIN., MX","FM-12","99999","V020","180,1,N,0020,1","99999,9,9,N","020000,1,N,1","+0251,1","+0140,1","10134,1","06,0000,9,1",,,,,,,,,"07,99,1,02,1,00,1,99999,9,03,1,04,1",,"01,9",,"120,M,+0263,1","240,N,+0138,1","99999,9,10129,1","0,1,001,1,-003,1",,"1,06,0610,1","SYN112AAXX  01181 76458 32970 71802 10251 20140 30129 40134 50001 82034 91745 333 10263 20138 30/// 59003 92361 85079;","Q01  00002PRCP06"
"76458099999","2003-01-02T00:00:00","4","23.2","-106.4166666","4.0","COLONIA JUAN CARRASCO MAZATLAN SIN., MX","FM-12","99999","V020","320,1,N,0030,1","99999,9,9,N","020000,1,N,1","+0234,1","+0168,1","10110,1","06,0000,9,1","24,0000,9,1",,,,,,,,"06,99,1,00,1,00,1,99999,9,00,1,04,1",,"01,9",,"120,M,+0263,1","180,N,+0138,1","99999,9,10106,1","5,1,003,1,-015,1",,,"SYN124AAXX  02001 76458 32970 63203 10234 20168 30106 40110 55003 80004 92345 333 10263 20138 30/// 50421 56009 59015 70000 86079;","Q01  00002PRCP06"
"76458099999","2003-01-02T12:00:00","4","23.2","-106.4166666","4.0","COLONIA JUAN CARRASCO MAZATLAN SIN., MX","FM-12","99999","V020","999,9,C,0000,1","22000,1,9,N","008000,1,N,1","+0150,1","+0123,1","10116,1","06,0000,9,1","24,0000,9,1",,,,,"00,1,+99999,9,99,9",,,"00,99,1,00,1,00,1,99999,9,00,1,00,1",,"01,9","999,+0120,9","999,M,+0263,1","120,N,+0130,1","99999,9,10111,1","7,1,008,1,+006,1",,,"SYN100AAXX  02121 76458 32958 00000 10150 20123 30111 40116 57008 91135 333 10263 20130 30012 58006 70000;","Q01  00002PRCP06Q02  00002PRCP24"
"76458099999","2003-01-02T15:00:00","4","23.2","-106.4166666","4.0","COLONIA JUAN CARRASCO MAZATLAN SIN., MX","FM-12","99999","V020","330,1,N,0020,1","22000,1,9,N","012000,1,N,1","+0163,1","+0121,1","10141,1","06,0000,9,1",,,,,,"00,1,+99999,9,99,9",,,"00,99,1,00,1,00,1,99999,9,00,1,00,1",,"01,9",,,,"99999,9,10136,1","2,1,015,1,+008,1",,,"SYN082AAXX  02151 76458 32962 03302 10163 20121 30136 40141 52015 91450 333 30/// 58008;","Q01  00002PRCP06"
"76458099999","2003-01-02T18:00:00","4","23.2","-106.4166666","4.0","COLONIA JUAN CARRASCO MAZATLAN SIN., MX","FM-12","99999","V020","240,1,N,0020,1","22000,1,9,N","015000,1,N,1","+0248,1","+0149,1","10145,1","06,0000,9,1",,,,,,"00,1,+99999,9,99,9",,,"00,99,1,00,1,00,1,99999,9,00,1,00,1",,"01,9",,"120,M,+0279,1","240,N,+0126,1","99999,9,10140,1","2,1,004,1,+011,1",,,"SYN094AAXX  02181 76458 32965 02402 10248 20149 30140 40145 52004 91745 333 10279 20126 30/// 58011;","Q01  00002PRCP06"
"76458099999","2003-01-02T21:00:00","4","23.2","-106.4166666","4.0","COLONIA JUAN CARRASCO MAZATLAN SIN., MX","FM-12","99999","V020","270,1,N,0030,1","22000,1,9,N","020000,1,N,1","+0247,1","+0163,1","10118,1","06,0000,9,1",,,,,,"00,1,+99999,9,99,9",,,"00,99,1,00,1,00,1,99999,9,00,1,00,1",,"01,9",,,,"99999,9,10113,1","7,1,027,1,+005,1",,,"SYN082AAXX  02211 76458 32970 02703 10247 20163 30113 40118 57027 92045 333 30/// 58005;","Q01  00002PRCP06"
"76458099999","2003-01-03T00:00:00","4","23.2","-106.4166666","4.0","COLONIA JUAN CARRASCO MAZATLAN SIN., MX","FM-12","99999","V020","280,1,N,0030,1","22000,1,9,N","020000,1,N,1","+0245,1","+0173,1","10117,1","06,0000,9,1","24,0000,9,1",,,,,"00,1,+99999,9,99,9",,,"00,99,1,00,1,00,1,99999,9,00,1,00,1",,"01,9",,"120,M,+0280,1","180,N,+0126,1","99999,9,10112,1","4,1,000,1,+006,1",,,"SYN106AAXX  03001 76458 32970 02803 10245 20173 30112 40117 54001 92340 333 10280 20126 30/// 50411 58006 70000;","Q01  00002PRCP06Q02  00002PRCP24"
"76458099999","2003-01-03T03:00:00","4","23.2","-106.4166666","4.0","COLONIA JUAN CARRASCO MAZATLAN SIN., MX","FM-12","99999","V020","330,1,N,0020,1","22000,1,9,N","010000,1,N,1","+0208,1","+0175,1","10125,1","06,0000,9,1",,,,,,"00,1,+99999,9,99,9",,,"00,99,1,00,1,00,1,99999,9,00,1,00,1",,"01,9",,,,"99999,9,10121,1","2,1,009,1,+007,1",,,"SYN082AAXX  03031 76458 32960 03302 10208 20175 30121 40125 52009 90245 333 30/// 58007;","Q01  00002PRCP06"
"76458099999","2003-01-03T06:00:00","4","23.2","-106.4166666","4.0","COLONIA JUAN CARRASCO MAZATLAN SIN., MX","FM-12","99999","V020","999,9,C,0000,1","22000,1,9,N","008000,1,N,1","+0192,1","+0155,1","10133,1","06,0000,9,1",,,,,,"00,1,+99999,9,99,9",,,"00,99,1,00,1,00,1,99999,9,00,1,00,1","0570,9","01,9",,"240,M,+0280,1","240,N,+0126,1","99999,9,10128,1","2,1,007,1,+999,9",,,"SYN106AAXX  03061 76458 32958 00000 10192 20155 30128 40133 52007 90535 333 10280 20126 30/// 55095 21238 58011;","Q01  00002PRCP06"
"76458099999","2003-01-03T15:00:00","4","23.2","-106.4166666","4.0","COLONIA JUAN CARRASCO MAZATLAN SIN., MX","FM-12","99999","V020","330,1,N,0020,1","22000,1,9,N","016000,1,N,1","+0164,1","+0125,1","10156,1","06,0000,9,1",,,,,,"01,1,+02400,9,03,9",,,"02,99,1,01,1,00,1,00450,1,05,1,05,1",,"01,9",,,,"99999,9,10151,1","2,1,024,1,+015,1",,,"SYN106AAXX  03151 76458 32466 23302 10164 20125 30151 40156 52024 81055 91445 333 30/// 56/00 58015 81358 81070;","Q01  00002PRCP06"
"76458099999","2003-01-03T18:00:00","4","23.2","-106.4166666","4.0","COLONIA JUAN CARRASCO MAZATLAN SIN., MX","FM-12","99999","V020","240,1,N,0020,1","22000,1,9,N","020000,1,N,1","+0238,1","+0172,1","10159,1","06,0000,9,1",,,,,,"01,1,+06000,9,00,9",,,"01,99,1,00,1,00,1,99999,9,00,1,05,1",,"01,9",,"120,M,+0266,1","240,N,+0128,1","99999,9,10155,1","0,1,004,1,+015,1",,,"SYN112AAXX  03181 76458 32570 12402 10238 20172 30155 40159 50004 80005 91750 333 10266 20128 30/// 56//0 58015 81070;","Q01+008002SCOLCBQ02  00002PRCP06"
"76458099999","2003-01-03T21:00:00","4","23.2","-106.4166666","4.0","COLONIA JUAN CARRASCO MAZATLAN SIN., MX","FM-12","99999","V020","270,1,N,0030,1","22000,1,9,N","020000,1,N,1","+0249,1","+0181,1","10129,1","06,0000,9,1",,,,,,"00,1,+99999,9,99,9",,,"00,99,1,00,1,00,1,99999,9,00,1,00,1",,"01,9",,,,"99999,9,10124,1","7,1,031,1,+011,1",,,"SYN082AAXX  03211 76458 32970 02703 10249 20181 30124 40129 57031 92047 333 30/// 58011;","Q01  00002PRCP06"
"76458099999","2003-01-04T00:00:00","4","23.2","-106.4166666","4.0","COLONIA JUAN CARRASCO MAZATLAN SIN., MX","FM-12","99999","V020","290,1,N,0020,1","22000,1,9,N","020000,1,N,1","+0242,1","+0185,1","10129,1","06,0000,9,1","24,0000,9,1",,,,,,,,"02,99,1,00,1,00,1,99999,9,00,1,01,1",,"01,9",,"120,M,+0267,1","180,N,+0131,1","99999,9,10124,1","5,1,000,1,+012,1",,,"SYN124AAXX  04001 76458 32970 22902 10242 20185 30124 40129 55000 80001 92345 333 10267 20131 30/// 50121 56//9 58012 70000 82070;","Q01  00002PRCP06"
"76458099999","2003-01-04T03:00:00","4","23.2","-106.4166666","4.0","COLONIA JUAN CARRASCO MAZATLAN SIN., MX","FM-12","99999","V020","330,1,N,0020,1","22000,1,9,N","008000,1,N,1","+0216,1","+0180,1","10143,1","06,0000,9,1",,,,,,"00,1,+99999,9,99,9",,,"00,99,1,00,1,00,1,99999,9,00,1,00,1",,"01,9",,,,"99999,9,10138,1","2,1,014,1,+017,1",,,"SYN082AAXX  04031 76458 32958 03302 10216 20180 30138 40143 52014 90245 333 30/// 58017;","Q01  00002PRCP06"
"76458099999","2003-01-04T12:00:00","4","23.2","-106.4166666","4.0","COLONIA JUAN CARRASCO MAZATLAN SIN., MX","FM-12","99999","V020","999,9,C,0000,1","22000,1,9,N","008000,1,N,1","+0165,1","+0141,1","10143,1","06,0000,9,1","24,0000,9,1",,,,,"02,1,+02400,9,03,9",,,"02,99,1,99,9,00,1,99999,9,05,1,00,1",,"01,9","999,+0130,9","999,M,+0267,1","120,N,+0140,1","99999,9,10139,1","4,1,000,1,+012,1",,,"SYN118AAXX  04121 76458 32958 20000 10165 20141 30139 40143 54000 80050 91135 333 10267 20140 30013 56090 58012 70000 82358;","Q01+000002SCOTLCQ02  00002PRCP06"
"76458099999","2003-01-04T15:00:00","4","23.2","-106.4166666","4.0","COLONIA JUAN CARRASCO MAZATLAN SIN., MX","FM-12","99999","V020","340,1,N,0020,1","99999,9,9,N","016000,1,N,1","+0170,1","+0120,1","10154,1","06,0000,9,1",,,,,,"04,1,+02400,9,03,9",,,"05,99,1,04,1,00,1,00800,1,03,1,05,1",,"01,9",,,,"99999,9,10150,1","2,1,011,1,-001,1",,,"SYN106AAXX  04151 76458 32566 53402 10170 20120 30150 40154 52011 84035 91445 333 30/// 56/00 59001 84358 81070;","Q01  00002PRCP06"
"76458099999","2003-01-04T18:00:00","4","23.2","-106.4166666","4.0","COLONIA JUAN CARRASCO MAZATLAN SIN., MX","FM-12","99999","V020","240,1,N,0020,1","22000,1,9,N","020000,1,N,1","+0250,1","+0158,1","10158,1","06,0000,9,1",,,,,,"04,1,+02400,9,03,9",,,"04,99,1,04,1,00,1,01250,1,03,1,99,9",,"01,9",,"120,M,+0268,1","240,N,+0140,1","99999,9,10154,1","0,1,004,1,-001,1",,,"SYN112AAXX  04181 76458 32670 42402 10250 20158 30154 40158 50004 8403/ 91750 333 10268 20140 30/// 56/0/ 59001 84358;","Q01  00002PRCP06"
"76458099999","2003-01-04T21:00:00","4","23.2","-106.4166666","4.0","COLONIA JUAN CARRASCO MAZATLAN SIN., MX","FM-12","99999","V020","250,1,N,0030,1","22000,1,C,N","018000,1,N,1","+0250,1","+0179,1","10135,1","06,0000,9,1",,,,,,"01,1,+04200,9,03,9",,,"05,99,1,01,1,00,1,02250,1,03,1,08,1",,"01,9",,,,"99999,9,10130,1","7,1,024,1,+006,1",,,"SYN106AAXX  04211 76458 32868 52503 10250 20179 30130 40135 57024 81038 92045 333 30/// 56/99 58006 81364 84268;","Q01  00002PRCP06"
"76458099999","2003-01-05T00:00:00","4","23.2","-106.4166666","4.0","COLONIA JUAN CARRASCO MAZATLAN SIN., MX","FM-12","99999","V020","300,1,N,0020,1","22000,1,9,N","020000,1,N,1","+0240,1","+0186,1","10136,1","06,0000,9,1","24,0000,9,1",,,,,"03,1,+04200,9,03,9",,,"05,99,1,03,1,00,1,02250,1,03,1,01,1",,"01,9",,"120,M,+0267,1","180,N,+0142,1","99999,9,10131,1","5,1,001,1,+007,1",,,"SYN130AAXX  05001 76458 32870 53002 10240 20186 30131 40136 55001 83031 92345 333 10267 20142 30/// 50221 56/99 58007 70000 83364 82070;","Q01  00002PRCP06"
"76458099999","2003-01-05T03:00:00","4","23.2","-106.4166666","4.0","COLONIA JUAN CARRASCO MAZATLAN SIN., MX","FM-12","99999","V020","360,1,N,0020,1","22000,1,9,N","008000,1,N,1","+0222,1","+0180,1","10137,1","06,0000,9,1",,,,,,"02,1,+06000,9,00,9",,,"02,99,1,00,1,99,9,99999,9,99,9,02,1",,"01,9",,,,"99999,9,10133,1","3,1,002,1,-005,1",,,"SYN094AAXX  05031 76458 32958 23602 10222 20180 30133 40137 53002 80//2 90250 333 30/// 59005 82070;","Q01  00002PRCP06"
"76458099999","2003-01-05T06:00:00","4","23.2","-106.4166666","4.0","COLONIA JUAN CARRASCO MAZATLAN SIN., MX","FM-12","99999","V020","330,1,N,0020,1","22000,1,9,N","008000,1,N,1","+0204,1","+0174,1","10141,1","06,0000,9,1",,,,,,,,,"03,99,1,00,1,99,9,99999,9,99,9,02,1","0468,9","01,9",,"240,M,+0267,1","240,N,+0142,1","99999,9,10136,1","2,1,003,1,-008,1",,,"SYN118AAXX  05061 76458 32958 33302 10204 20174 30136 40141 52003 80//2 90530 333 10267 20142 30/// 55078 21207 59008 83070;","Q01  00002PRCP06"
"76458099999","2003-01-05T09:00:00","4","23.2","-106.4166666","4.0","COLONIA JUAN CARRASCO MAZATLAN SIN., MX","FM-12","99999","V020","999,9,C,0000,1","22000,1,9,N","012000,1,N,1","+0181,1","+0151,1","10137,1","06,0000,9,1",,,,,,"00,1,+99999,9,99,9",,,"00,99,1,00,1,00,1,99999,9,00,1,00,1",,"01,9",,,,"99999,9,10133,1","7,1,003,1,-009,1",,,"SYN082AAXX  05091 76458 32962 00000 10181 20151 30133 40137 57003 90850 333 30/// 59009;","Q01  00002PRCP06"
"76458099999","2003-01-05T12:00:00","4","23.2","-106.4166666","4.0","COLONIA JUAN CARRASCO MAZATLAN SIN., MX","FM-12","99999","V020","999,9,C,0000,1","22000,1,9,N","012000,1,N,1","+0172,1","+0133,1","10137,1","06,0000,9,1",,,,,,"00,1,+99999,9,99,9",,,"00,99,1,00,1,00,1,99999,9,00,1,00,1",,"01,9","999,+0140,9","999,M,+0267,1","120,N,+0150,1","99999,9,10132,1","4,1,000,1,-006,1",,,"SYN099AAXX  05121 76458 32962 00000 10172 20133 30132 40137 54000 9114 333 10267 20150 30014 59006 70000;","Q01  00002PRCP06"
"76458099999","2003-01-05T15:00:00","4","23.2","-106.4166666","4.0","COLONIA JUAN CARRASCO MAZATLAN SIN., MX","FM-12","99999","V020","140,1,N,0020,1","22000,1,9,N","018000,1,N,1","+0170,1","+0141,1","10143,1","06,0000,9,1",,,,,,"04,1,+08700,9,00,9",,,"04,99,1,00,1,00,1,99999,9,00,1,04,1",,"01,9",,,,"99999,9,10138,1","3,1,005,1,-012,1",,,"SYN100AAXX  05151 76458 32968 41402 10170 20141 30138 40143 53005 80004 91445 333 30/// 56009 59012 84079;","Q01  00002PRCP06"
"76458099999","2003-01-05T18:00:00","4","23.2","-106.4166666","4.0","COLONIA JUAN CARRASCO MAZATLAN SIN., MX","FM-12","99999","V020","150,1,N,0020,1","22000,1,9,N","020000,1,N,1","+0244,1","+0150,1","10150,1","06,0000,9,1",,,,,,"03,1,+06000,9,00,9",,,"03,99,1,00,1,00,1,99999,9,00,1,04,1",,"01,9",,"120,M,+0257,1","240,N,+0147,1","99999,9,10145,1","0,1,007,1,-009,1",,,"SYN112AAXX  05181 76458 32670 31502 10244 20150 30145 40150 50007 80004 91740 333 10257 20147 30/// 56//0 59009 83070;","Q01+012502SCOLCBQ02  00002PRCP06"
"76458099999","2003-01-05T21:00:00","4","23.2","-106.4166666","4.0","COLONIA JUAN CARRASCO MAZATLAN SIN., MX","FM-12","99999","V020","260,1,N,0030,1","06000,1,9,N","000700,1,N,1","+0246,1","+0184,1","10121,1","06,0000,9,1",,,,,,"05,1,+06000,9,00,9",,,"05,99,1,00,1,99,9,99999,9,99,9,06,1",,"01,9",,,,"99999,9,10116,1","7,1,029,1,-014,1",,,"SYN094AAXX  05211 76458 32907 52603 10246 20184 30116 40121 57029 80//6 92045 333 30/// 59014 85070;","Q01  00002PRCP06"
"76458099999","2003-01-06T03:00:00","4","23.2","-106.4166666","4.0","COLONIA JUAN CARRASCO MAZATLAN SIN., MX","FM-12","99999","V020","350,1,N,0020,1","22000,1,9,N","010000,1,N,1","+0223,1","+0184,1","10128,1","06,0000,9,1",,,,,,"00,1,+99999,9,99,9",,,"00,99,1,00,1,00,1,99999,9,00,1,00,1",,"01,9",,,,"99999,9,10124,1","2,1,008,1,-009,1",,,"SYN082AAXX  06031 76458 32960 03502 10223 20184 30124 40128 52008 90245 333 30/// 59009;","Q01  00002PRCP06"
"76458099999","2003-01-06T06:00:00","4","23.2","-106.4166666","4.0","COLONIA JUAN CARRASCO MAZATLAN SIN., MX","FM-12","99999","V020","999,9,C,0000,1","22000,1,9,N","010000,1,N,1","+0196,1","+0176,1","10131,1","06,0000,9,1",,,,,,"00,1,+99999,9,99,9",,,"00,99,1,00,1,00,1,99999,9,00,1,00,1","0468,9","01,9",,"240,M,+0280,1","240,N,+0147,1","99999,9,10127,1","0,1,003,1,+999,9",,,"SYN106AAXX  06061 76458 32960 00000 10196 20176 30127 40131 50003 90530 333 10280 20147 30/// 55078 29285 59009;","Q01  00002PRCP06"
"76458099999","2003-01-06T15:00:00","4","23.2","-106.4166666","4.0","COLONIA JUAN CARRASCO MAZATLAN SIN., MX","FM-12","99999","V020","310,1,N,0020,1","22000,1,9,N","016000,1,N,1","+0178,1","+0125,1","10134,1","06,0000,9,1",,,,,,"02,1,+02400,9,03,9",,,"04,99,1,02,1,00,1,00800,1,06,1,05,1",,"01,9",,,,"99999,9,10129,1","0,1,018,1,-009,1",,,"SYN106AAXX  06151 76458 32566 43102 10178 20125 30129 40134 50018 82065 91450 333 30/// 56/00 59009 82358 82070;","Q01  00002PRCP06"
"76458099999","2003-01-06T18:00:00","4","23.2","-106.4166666","4.0","COLONIA JUAN CARRASCO MAZATLAN SIN., MX","FM-12","99999","V020","350,1,N,0020,1","99999,9,9,N","018000,1,N,1","+0234,1","+0138,1","10137,1","06,0000,9,1",,,,,,"02,1,+02400,9,03,9",,,"05,99,1,02,1,00,1,01250,1,06,1,05,1",,"01,9",,"120,M,+0242,1","240,N,+0155,1","99999,9,10133,1","5,1,004,1,-012,1",,,"SYN118AAXX  06181 76458 32668 53502 10234 20138 30133 40137 55004 82065 91745 333 10242 20155 30/// 56/00 59012 82358 83270;","Q01  00002PRCP06"
"76458099999","2003-01-06T21:00:00","4","23.2","-106.4166666","4.0","COLONIA JUAN CARRASCO MAZATLAN SIN., MX","FM-12","99999","V020","270,1,N,0030,1","99999,9,9,N","018000,1,N,1","+0248,1","+0175,1","10117,1","06,0000,9,1",,,,,,"03,1,+03300,9,03,9",,,"06,99,1,03,1,00,1,99999,9,03,1,07,1",,"01,9",,,,"99999,9,10112,1","7,1,020,1,-004,1",,,"SYN106AAXX  06211 76458 32968 62703 10248 20175 30112 40117 57020 83037 92050 333 30/// 56099 59004 83361 83276;","Q01  00002PRCP06"
"76458099999","2003-01-07T00:00:00","4","23.2","-106.4166666","4.0","COLONIA JUAN CARRASCO MAZATLAN SIN., MX","FM-12","99999","V020","280,1,N,0020,1","02400,1,9,N","018000,1,N,1","+0242,1","+0180,1","10123,1","06,0000,9,1","24,0000,9,1",,,,,"07,1,+02400,9,03,9",,,"07,99,1,07,1,00,1,02250,1,05,1,00,1",,"01,9",,"120,M,+0287,1","180,N,+0157,1","99999,9,10119,1","3,1,006,1,+002,1",,,"SYN118AAXX  07001 76458 32868 72802 10242 20180 30119 40123 53006 87050 92350 333 10287 20157 30/// 50301 58002 70000 87358;","Q01  00002PRCP06"
"76458099999","2003-01-07T03:00:00","4","23.2","-106.4166666","4.0","COLONIA JUAN CARRASCO MAZATLAN SIN., MX","FM-12","99999","V020","350,1,N,0020,1","99999,9,9,N","008000,1,N,1","+0232,1","+0203,1","10142,1","06,0000,9,1",,,,,,,,,"08,99,1,08,1,99,9,02250,1,99,9,02,1",,"01,9",,,,"99999,9,10138,1","2,1,019,1,+015,1",,,"SYN095AAXX  07031 76458 32858 83502 10232 20203 30138 40142 52019 88//2/ 90245 333 30/// 58015 88458;","Q01  00002PRCP06"
"76458099999","2003-01-07T12:00:00","4","23.2","-106.4166666","4.0","COLONIA JUAN CARRASCO MAZATLAN SIN., MX","FM-12","99999","V020","360,1,N,0010,1","02400,1,9,N","008000,1,N,1","+0206,1","+0166,1","10136,1","06,0000,9,1",,,,,,"06,1,+02400,9,04,9",,,"06,99,1,99,9,00,1,99999,9,02,1,00,1",,"01,9","999,+0180,9","999,M,+0287,1","120,N,+0190,1","99999,9,10132,1","7,1,005,1,+020,1",,,"SYN112AAXX  07121 76458 32958 63601 10206 20166 30132 40136 57005 80020 91135 333 10287 20190 30018 56090 58020 86458;","Q01+000002SCOTLCQ02  00002PRCP06"
"76458099999","2003-01-07T15:00:00","4","23.2","-106.4166666","4.0","COLONIA JUAN CARRASCO MAZATLAN SIN., MX","FM-12","99999","V020","340,1,N,0020,1","22000,1,9,N","016000,1,N,1","+0212,1","+0146,1","10150,1","06,0000,9,1",,,,,,"04,1,+02400,9,03,9",,,"04,99,1,04,1,00,1,00800,1,06,1,99,9",,"01,9",,,,"99999,9,10145,1","2,1,013,1,+016,1",,,"SYN100AAXX  07151 76458 32566 43402 10212 20146 30145 40150 52013 8406/ 91450 333 30/// 56/0/ 58016 84358;","Q01  00002PRCP06"
"76458099999","2003-01-07T18:00:00","4","23.2","-106.4166666","4.0","COLONIA JUAN CARRASCO MAZATLAN SIN., MX","FM-12","99999","V020","340,1,N,0020,1","02400,1,9,N","018000,1,N,1","+0258,1","+0147,1","10148,1","06,0000,9,1",,,,,,"02,1,+01200,9,06,9","04,1,+02400,9,03,9",,"05,99,1,02,1,05,1,01250,1,06,1,05,1",,"01,9",,"120,M,+0267,1","240,N,+0190,1","99999,9,10144,1","8,1,001,1,+011,1",,,"SYN118AAXX  07181 76458 32668 53402 10258 20147 30144 40148 58001 82565 91740 333 10267 20190 30/// 58011 82640 84358 81070;","Q01  00002PRCP06"
"76458099999","2003-01-07T21:00:00","4","23.2","-106.4166666","4.0","COLONIA JUAN CARRASCO MAZATLAN SIN., MX","FM-12","99999","V020","280,1,N,0020,1","02400,1,9,N","018000,1,N,1","+0261,1","+0182,1","10134,1","06,0000,9,1",,,,,,"05,1,+02400,9,03,9",,,"08,99,1,05,1,00,1,02250,1,05,1,02,1",,"01,9",,,,"99999,9,10129,1","7,1,014,1,+017,1",,,"SYN106AAXX  07211 76458 32868 82802 10261 20182 30129 40134 57014 85052 92050 333 30/// 56090 58017 85358 83464;","Q01  00002PRCP06"
"76458099999","2003-01-08T00:00:00","4","23.2","-106.4166666","4.0","COLONIA JUAN CARRASCO MAZATLAN SIN., MX","FM-12","99999","V020","280,1,N,0020,1","03600,1,9,N","016000,1,N,1","+0258,1","+0190,1","10135,1","06,0000,9,1","24,0000,9,1",,,"4,1,06,1","4,1,06,1","03,1,+00840,9,06,9",,,"07,99,1,03,1,03,1,00800,1,02,1,00,1",,"01,9",,"120,M,+0282,1","180,N,+0192,1","99999,9,10131,1","4,1,000,1,+012,1","05,1",,"SYN136AAXX  08001 76458 31566 72802 10258 20190 30131 40135 54002 70544 83320 92355 333 10282 20192 30/// 50261 56490 58012 70000 83628 84461;","Q01  00002PRCP06"
"76458099999","2003-01-08T03:00:00","4","23.2","-106.4166666","4.0","COLONIA JUAN CARRASCO MAZATLAN SIN., MX","FM-12","99999","V020","300,1,N,0010,1","09000,1,C,N","010000,1,N,1","+0244,1","+0192,1","10148,1","06,0000,9,1",,,,,,"02,1,+03600,9,03,9",,,"07,99,1,02,1,00,1,02250,1,03,1,08,1",,"01,9",,,,"99999,9,10144,1","2,1,013,1,+006,1",,,"SYN106AAXX  08031 76458 32860 73001 10244 20192 30144 40148 52013 82038 90245 333 30/// 56/99 58006 82362 85268;","Q01  00002PRCP06"
"76458099999","2003-01-08T06:00:00","4","23.2","-106.4166666","4.0","COLONIA JUAN CARRASCO MAZATLAN SIN., MX","FM-12","99999","V020","999,9,C,0000,1","09000,1,C,N","010000,1,N,1","+0237,1","+0193,1","10153,1","06,0000,9,1",,,,,,"01,1,+03600,9,03,9",,,"06,99,1,01,1,00,1,02250,1,03,1,08,1","0000,9","01,9",,"240,M,+0282,1","240,N,+0192,1","99999,9,10148,1","0,1,004,1,+006,1",,,"SYN118AAXX  08061 76458 32860 60000 10237 20193 30148 40153 50004 81038 90535 333 10282 20192 30/// 55000 58006 81362 85268;","Q01  00002PRCP06"
"76458099999","2003-01-08T15:00:00","4","23.2","-106.4166666","4.0","COLONIA JUAN CARRASCO MAZATLAN SIN., MX","FM-12","99999","V020","240,1,N,0020,1","03600,1,9,N","015000,1,N,1","+0226,1","+0180,1","10159,1","06,0000,9,1",,,,,,"06,1,+03600,9,03,9",,,"07,99,1,06,1,00,1,02250,1,03,1,08,1",,"01,9",,,,"99999,9,10154,1","2,1,008,1,+009,1",,,"SYN106AAXX  08151 76458 32865 72402 10226 20180 30154 40159 52008 86038 91445 333 30/// 56/99 58009 86362 81268;","Q01  00002PRCP06"
"76458099999","2003-01-08T18:00:00","4","23.2","-106.4166666","4.0","COLONIA JUAN CARRASCO MAZATLAN SIN., MX","FM-12","99999","V020","180,1,N,0030,1","03600,1,9,N","018000,1,N,1","+0287,1","+0175,1","10180,1","06,0000,9,1",,,,,,"05,1,+03600,9,03,9",,,"05,99,1,05,1,00,1,02250,1,03,1,00,1",,"01,9",,"120,M,+0300,1","240,N,+0210,1","99999,9,10175,1","0,1,001,1,+031,1",,,"SYN112AAXX  08181 76458 32868 51803 10287 20175 30175 40180 50001 85030 91750 333 10300 20210 30/// 56/9/ 58031 85362;","Q01  00002PRCP06"
"76458099999","2003-01-08T21:00:00","4","23.2","-106.4166666","4.0","COLONIA JUAN CARRASCO MAZATLAN SIN., MX","FM-12","99999","V020","180,1,N,0020,1","02700,1,9,N","014000,1,N,1","+0294,1","+0167,1","10156,1","06,0000,9,1",,,,"4,1,03,1","4,1,03,1","07,1,+02700,9,03,9",,,"07,99,1,07,1,00,1,99999,9,03,1,00,1",,"01,9",,,,"99999,9,10152,1","7,1,024,1,+023,1","05,1",,"SYN106AAXX  08211 76458 31964 71802 10294 20167 30152 40156 57024 70544 87030 92055 333 30/// 56040 58023 87359;","Q01  00002PRCP06"
"76458099999","2003-01-09T00:00:00","4","23.2","-106.4166666","4.0","COLONIA JUAN CARRASCO MAZATLAN SIN., MX","FM-12","99999","V020","260,1,N,0030,1","02100,1,9,N","016000,1,N,1","+0261,1","+0221,1","10148,1","06,0000,9,1","24,0000,9,1",,,"4,1,06,1","4,1,06,1","03,1,+02400,9,03,9",,,"07,99,1,07,1,00,1,02250,1,03,1,00,1",,"01,9",,"120,M,+0314,1","180,N,+0210,1","99999,9,10144,1","5,1,008,1,+013,1","05,1",,"SYN136AAXX  09001 76458 31866 72603 10261 20221 30144 40148 55008 70544 87030 92345 333 10314 20210 30/// 50031 56040 58013 70000 83358 84461;","Q01  00002PRCP06"
"76458099999","2003-01-09T03:00:00","4","23.2","-106.4166666","4.0","COLONIA JUAN CARRASCO MAZATLAN SIN., MX","FM-12","99999","V020","340,1,N,0020,1","03600,1,9,N","008000,1,N,1","+0252,1","+0209,1","10154,1","06,0000,9,1",,,,,,"03,1,+00540,9,06,9",,,"08,99,1,03,1,05,1,00450,1,02,1,01,1",,"01,9",,,,"99999,9,10149,1","2,1,005,1,+005,1",,,"SYN101AAXX  09030 76458 32458 83402 10252 20209 30149 40154 52005 83521/ 90245 333 30/// 58005 83618 85452;","Q01  00002PRCP06"
"76458099999","2003-01-09T18:00:00","4","23.2","-106.4166666","4.0","COLONIA JUAN CARRASCO MAZATLAN SIN., MX","FM-12","99999","V020","240,1,N,0020,1","02400,1,9,N","020000,1,N,1","+0270,1","+0219,1","10155,1","06,0000,9,1",,,,,,"05,1,+02400,9,03,9",,,"05,99,1,05,1,00,1,00800,1,03,1,99,9",,"01,9",,"120,M,+0295,1","240,N,+0218,1","99999,9,10150,1","0,1,008,1,-025,1",,,"SYN112AAXX  09181 76458 32570 52402 10270 20219 30150 40155 50008 8503/ 91750 333 10295 20218 30/// 56/0/ 59025 85358;","Q01  00002PRCP06"
"76458099999","2003-01-10T00:00:00","4","23.2","-106.4166666","4.0","COLONIA JUAN CARRASCO MAZATLAN SIN., MX","FM-12","99999","V020","280,1,N,0030,1","22000,1,9,N","020000,1,N,1","+0256,1","+0214,1","10126,1","06,0000,9,1","24,9999,9,9",,,,,"01,1,+00510,9,08,9",,,"02,99,1,01,1,02,1,00450,1,03,1,00,1",,"01,9",,"120,M,+0293,1","180,N,+0119,1","99999,9,10122,1","7,1,012,1,-021,1",,,"SYN130AAXX  10001 76458 32470 22803 10256 20214 30122 40126 57012 81230 92330 333 10293 20119 30/// 50291 56130 59021 79999 81817 81358;","Q01  00002PRCP06Q02  99992PRCP24"
"76458099999","2003-01-10T03:00:00","4","23.2","-106.4166666","4.0","COLONIA JUAN CARRASCO MAZATLAN SIN., MX","FM-12","99999","V020","300,1,N,0020,1","22000,1,9,N","008000,1,N,1","+0242,1","+0208,1","10137,1","06,0000,9,1",,,,,,"04,1,+06000,9,00,9",,,"04,99,1,00,1,99,9,99999,9,99,9,06,1",,"01,9",,,,"99999,9,10133,1","2,1,011,1,-016,1",,,"SYN094AAXX  10031 76458 32958 43002 10242 20208 30133 40137 52011 80//6 90245 333 30/// 59016 84070;","Q01  00002PRCP06"
"76458099999","2003-01-10T06:00:00","4","23.2","-106.4166666","4.0","COLONIA JUAN CARRASCO MAZATLAN SIN., MX","FM-12","99999","V020","350,1,N,0020,1","22000,1,9,N","008000,1,N,1","+0228,1","+0202,1","10145,1","06,0000,9,1",,,,,,"00,1,+99999,9,99,9",,,"00,99,1,00,1,00,1,99999,9,00,1,00,1","0438,9","01,9",,"240,M,+0293,1","240,N,+0219,1","99999,9,10140,1","2,1,007,1,+999,9",,,"SYN106AAXX  10061 76458 32958 03502 10228 20202 30140 40145 52007 90535 333 10293 20219 30/// 55073 21269 59013;","Q01  00002PRCP06"
"76458099999","2003-01-10T15:00:00","4","23.2","-106.4166666","4.0","COLONIA JUAN CARRASCO MAZATLAN SIN., MX","FM-12","99999","V020","300,1,N,0030,1","22000,1,9,N","016000,1,N,1","+0210,1","+0193,1","10147,1","06,0000,9,1",,,,,,"02,1,+02700,9,03,9",,,"03,99,1,02,1,00,1,00250,1,05,1,05,1",,"01,9",,,,"99999,9,10143,1","0,1,016,1,+001,1",,,"SYN106AAXX  10151 76458 32366 33003 10210 20193 30143 40147 50016 82055 91450 333 30/// 56/00 58001 82359 81070;","Q01  00002PRCP06"
"76458099999","2003-01-10T18:00:00","4","23.2","-106.4166666","4.0","COLONIA JUAN CARRASCO MAZATLAN SIN., MX","FM-12","99999","V020","150,1,N,0020,1","99999,9,9,N","020000,1,N,1","+0260,1","+0190,1","10154,1","06,0000,9,1",,,,,,"04,1,+02400,9,03,9",,,"05,99,1,04,1,00,1,00800,1,05,1,03,1",,"01,9",,"120,M,+0277,1","240,N,+0182,1","99999,9,10149,1","0,1,006,1,+001,1",,,"SYN118AAXX  10181 76458 32570 51502 10260 20190 30149 40154 50006 84053 91750 333 10277 20182 30/// 56/00 58001 84358 81070;","Q01  00002PRCP06"
"76458099999","2003-01-11T00:00:00","4","23.2","-106.4166666","4.0","COLONIA JUAN CARRASCO MAZATLAN SIN., MX","FM-12","99999","V020","340,1,N,0030,1","00420,1,C,N","015000,1,N,1","+0240,1","+0206,1","10117,1","06,0000,9,1","24,0000,9,1",,,,,"05,1,+00420,9,06,9",,,"08,99,1,05,1,05,1,00800,1,04,1,00,1",,"01,9",,"120,M,+0270,1","180,N,+0219,1","99999,9,10112,1","7,1,012,1,-010,1",,,"SYN130AAXX  11001 76458 32565 83403 10240 20206 30112 40117 57012 85540 92355 333 10270 20219 30/// 51770 56990 59010 70000 85614 83358;","Q01  00002PRCP06"
"76458099999","2003-01-11T03:00:00","4","23.2","-106.4166666","4.0","COLONIA JUAN CARRASCO MAZATLAN SIN., MX","FM-12","99999","V020","350,1,N,0020,1","99999,9,9,N","008000,1,N,1","+0232,1","+0206,1","10138,1","06,0000,9,1",,,,,,"04,1,+02400,9,04,9",,,"08,99,1,99,9,99,9,02250,1,02,1,06,1",,"01,9",,,,"99999,9,10133,1","2,1,020,1,-001,1",,,"SYN100AAXX  11031 76458 32858 83502 10232 20206 30133 40138 52020 80/26 90245 333 30/// 59001 84458 84070;","Q01+000002SCOTLCQ02  00002PRCP06"
"76458099999","2003-01-11T06:00:00","4","23.2","-106.4166666","4.0","COLONIA JUAN CARRASCO MAZATLAN SIN., MX","FM-12","99999","V020","330,1,N,0020,1","99999,9,9,N","008000,1,N,1","+0220,1","+0200,1","10140,1","06,0000,9,1",,,,,,,,,"08,99,1,00,1,99,9,99999,9,99,9,08,1","0180,9","01,9",,"240,M,+0270,1","240,N,+0182,1","99999,9,10135,1","1,1,002,1,-005,1",,,"SYN118AAXX  11061 76458 32958 83302 10220 20200 30135 40140 51002 80//8 90535 333 10270 20182 30/// 55030 20843 59005 88270;","Q01  00002PRCP06"
"76458099999","2003-01-11T15:00:00","4","23.2","-106.4166666","4.0","COLONIA JUAN CARRASCO MAZATLAN SIN., MX","FM-12","99999","V020","330,1,N,0020,1","99999,9,9,N","014000,1,N,1","+0216,1","+0180,1","10151,1","06,0000,9,1",,,,,,"03,1,+02400,9,03,9",,,"06,99,1,03,1,00,1,00450,1,03,1,07,1",,"01,9",,,,"99999,9,10146,1","2,1,018,1,+003,1",,,"SYN106AAXX  11151 76458 32464 63302 10216 20180 30146 40151 52018 83037 91450 333 30/// 56/00 58003 83358 83270;","Q01  00002PRCP06"
"76458099999","2003-01-11T18:00:00","4","23.2","-106.4166666","4.0","COLONIA JUAN CARRASCO MAZATLAN SIN., MX","FM-12","99999","V020","350,1,N,0030,1","99999,9,9,N","018000,1,N,1","+0236,1","+0198,1","10164,1","06,0000,9,1",,,,,,"02,1,+02400,9,03,9",,,"06,99,1,02,1,00,1,00800,1,06,1,07,1",,"01,9",,"120,M,+0245,1","240,N,+0195,1","99999,9,10159,1","2,1,013,1,+010,1",,,"SYN118AAXX  11181 76458 32568 63503 10236 20198 30159 40164 52013 82067 91740 333 10245 20195 30/// 56/00 58010 82358 84270;","Q01  00002PRCP06"
"76458099999","2003-01-11T21:00:00","4","23.2","-106.4166666","4.0","COLONIA JUAN CARRASCO MAZATLAN SIN., MX","FM-12","99999","V020","290,1,N,0020,1","22000,1,9,N","020000,1,N,1","+0235,1","+0196,1","10147,1","06,0000,9,1",,,,,,"05,1,+03600,9,03,9",,,"99,99,9,05,1,00,1,02250,1,03,1,00,1",,"01,9",,,,"99999,9,10142,1","7,1,017,1,+018,1",,,"SYN106AAXX  11211 76458 32870 22902 10235 20196 30142 40147 57017 85030 92045 333 30/// 56/9/ 58018 85362 82463;","Q01+000022SCOTCVQ02  00002PRCP06"
"76458099999","2003-01-12T00:00:00","4","23.2","-106.4166666","4.0","COLONIA JUAN CARRASCO MAZATLAN SIN., MX","FM-12","99999","V020","290,1,N,0020,1","99999,9,9,N","020000,1,N,1","+0232,1","+0194,1","10145,1","06,0000,9,1","24,0000,9,1",,,,,"04,1,+03600,9,04,9",,,"07,99,1,99,9,00,1,02250,1,02,1,00,1",,"01,9",,"120,M,+0247,1","180,N,+0197,1","99999,9,10140,1","7,1,002,1,+015,1",,,"SYN130AAXX  12001 76458 32870 72902 10232 20194 30140 40145 57002 84020 92340 333 10247 20197 30/// 50221 56/9/ 58015 70000 84462 83363;","Q01+000042SCOTLCQ02  00002PRCP06"
"76458099999","2003-01-12T03:00:00","4","23.2","-106.4166666","4.0","COLONIA JUAN CARRASCO MAZATLAN SIN., MX","FM-12","99999","V020","350,1,N,0010,1","99999,9,9,N","999999,9,N,1","+0212,1","+9999,9","10155,1","06,0000,9,1",,,,,,"04,1,+02400,9,04,9",,,"07,99,1,99,9,00,1,02250,1,02,1,00,1",,"01,9",,,,"99999,9,10150,1","7,1,010,1,+024,1",,,"SYN106AAXX  12031 76458 32855 73501 10212 2//// 30150 40155 57010 84020 90255 333 30/// 56099 58024 84458 83360;","Q01+000042SCOTLCQ02  00002PRCP06"
"76458099999","2003-01-12T12:00:00","4","23.2","-106.4166666","4.0","COLONIA JUAN CARRASCO MAZATLAN SIN., MX","FM-12","99999","V020","320,1,N,0020,1","22000,1,9,N","010000,1,N,1","+0175,1","+0159,1","10164,1","06,0000,9,1","24,0000,9,1",,,,,"00,1,+99999,9,99,9",,,"00,99,1,00,1,00,1,99999,9,00,1,00,1",,"01,9","999,+0140,9","999,M,+0247,1","120,N,+0153,1","99999,9,10160,1","4,1,000,1,+032,1",,,"SYN100AAXX  12121 76458 32960 03202 10175 20159 30160 40164 54000 91140 333 10247 20153 30014 58032 70000;","Q01  00002PRCP06Q02  00002PRCP24"
"76458099999","2003-01-12T15:00:00","4","23.2","-106.4166666","4.0","COLONIA JUAN CARRASCO MAZATLAN SIN., MX","FM-12","99999","V020","999,9,C,0000,1","22000,1,9,N","018000,1,N,1","+0178,1","+0160,1","10175,1","06,0000,9,1",,,,,,"00,1,+99999,9,99,9",,,"00,99,1,00,1,00,1,99999,9,00,1,00,1",,"01,9",,,,"99999,9,10171,1","2,1,011,1,+025,1",,,"SYN082AAXX  12151 76458 32968 00000 10178 20160 30171 40175 52011 91440 333 30/// 58025;","Q01  00002PRCP06"
"76458099999","2003-01-12T18:00:00","4","23.2","-106.4166666","4.0","COLONIA JUAN CARRASCO MAZATLAN SIN., MX","FM-12","99999","V020","250,1,N,0030,1","22000,1,9,N","018000,1,N,1","+0238,1","+0178,1","10189,1","06,0000,9,1",,,,,,"00,1,+99999,9,99,9",,,"00,99,1,00,1,00,1,99999,9,00,1,00,1",,"01,9",,"120,M,+0255,1","240,N,+0149,1","99999,9,10184,1","2,1,013,1,+025,1",,,"SYN094AAXX  12181 76458 32968 02503 10238 20178 30184 40189 52013 91735 333 10255 20149 30/// 58025;","Q01  00002PRCP06"
"76458099999","2003-01-12T21:00:00","4","23.2","-106.4166666","4.0","COLONIA JUAN CARRASCO MAZATLAN SIN., MX","FM-12","99999","V020","260,1,N,0030,1","22000,1,9,N","020000,1,N,1","+0258,1","+0191,1","10169,1","06,0000,9,1",,,,,,"00,1,+99999,9,99,9",,,"00,99,1,00,1,00,1,99999,9,00,1,00,1",,"01,9",,,,"99999,9,10164,1","7,1,020,1,+022,1",,,"SYN082AAXX  12211 76458 32070 02603 10258 20191 30164 40169 57020 92050 333 30/// 58022;","Q01  00002PRCP06"
"76458099999","2003-01-14T03:00:00","4","23.2","-106.4166666","4.0","COLONIA JUAN CARRASCO MAZATLAN SIN., MX","FM-12","99999","V020","320,1,N,0020,1","22000,1,9,N","016000,1,N,1","+0232,1","+0194,1","10153,1","06,0000,9,1",,,,,,"00,1,+99999,9,99,9",,,"00,99,1,00,1,00,1,99999,9,00,1,00,1",,"01,9",,,,"99999,9,10148,1","2,1,008,1,-022,1",,,"SYN082AAXX  14031 76458 32966 03202 10232 20194 30148 40153 52008 90245 333 30/// 59022;","Q01  00002PRCP06"
"76458099999","2003-01-14T12:00:00","4","23.2","-106.4166666","4.0","COLONIA JUAN CARRASCO MAZATLAN SIN., MX","FM-12","99999","V020","340,1,N,0020,1","22000,1,9,N","008000,1,N,1","+0174,1","+0143,1","10150,1","06,0000,9,1","24,0000,9,1",,,,,"00,1,+99999,9,99,9",,,"00,99,1,00,1,00,1,99999,9,00,1,00,1",,"01,9","999,+0150,9","999,M,+0285,1","120,N,+0160,1","99999,9,10146,1","7,1,001,1,-009,1",,,"SYN100AAXX  14121 76458 32958 03402 10174 20143 30146 40150 57001 91135 333 10285 20160 30015 59009 70000;","Q01  00002PRCP06Q02  00002PRCP24"
"76458099999","2003-01-14T15:00:00","4","23.2","-106.4166666","4.0","COLONIA JUAN CARRASCO MAZATLAN SIN., MX","FM-12","99999","V020","320,1,N,0020,1","22000,1,9,N","016000,1,N,1","+0174,1","+0125,1","10161,1","06,0000,9,1",,,,,,"01,1,+06000,9,00,9",,,"01,99,1,00,1,00,1,99999,9,00,1,05,1",,"01,9",,,,"99999,9,10156,1","2,1,010,1,-016,1",,,"SYN100AAXX  14151 76458 32566 13202 10174 20125 30156 40161 52010 80005 91450 333 30/// 56//0 59016 81070;","Q01+008002SCOLCBQ02  00002PRCP06"
"76458099999","2003-01-14T18:00:00","4","23.2","-106.4166666","4.0","COLONIA JUAN CARRASCO MAZATLAN SIN., MX","FM-12","99999","V020","180,1,N,0030,1","22000,1,9,N","020000,1,N,1","+0280,1","+0163,1","10168,1","06,0000,9,1",,,,,,"00,1,+99999,9,99,9",,,"00,99,1,00,1,00,1,99999,9,00,1,00,1",,"01,9",,"120,M,+0294,1","240,N,+0143,1","99999,9,10164,1","2,1,008,1,-006,1",,,"SYN094AAXX  14181 76458 32070 01803 10280 20163 30164 40168 52008 91750 333 10294 20143 30/// 59006;","Q01  00002PRCP06"
"76458099999","2003-01-14T21:00:00","4","23.2","-106.4166666","4.0","COLONIA JUAN CARRASCO MAZATLAN SIN., MX","FM-12","99999","V020","250,1,N,0020,1","22000,1,9,N","020000,1,N,1","+0263,1","+0195,1","10147,1","06,0000,9,1",,,,,,"01,1,+00840,9,08,9",,,"01,99,1,01,1,02,1,00800,1,00,1,00,1",,"01,9",,,,"99999,9,10142,1","7,1,021,1,-001,1",,,"SYN100AAXX  14211 76458 32570 12502 10263 20195 30142 40147 57021 81200 92050 333 30/// 56100 59001 81828;","Q01  00002PRCP06"
"76458099999","2003-01-15T00:00:00","4","23.2","-106.4166666","4.0","COLONIA JUAN CARRASCO MAZATLAN SIN., MX","FM-12","99999","V020","320,1,N,0020,1","22000,1,9,N","020000,1,N,1","+0256,1","+0220,1","10140,1","06,0000,9,1","24,0000,9,1",,,,,"00,1,+99999,9,99,9",,,"00,99,1,00,1,00,1,99999,9,00,1,00,1",,"01,9",,"120,M,+0295,1","180,N,+0146,1","99999,9,10135,1","5,1,007,1,-005,1",,,"SYN106AAXX  15001 76458 32970 03202 10256 20220 30135 40140 55007 92355 333 10295 20146 30/// 50371 59005 70000;","Q01  00002PRCP06Q02  00002PRCP24"
"76458099999","2003-01-15T03:00:00","4","23.2","-106.4166666","4.0","COLONIA JUAN CARRASCO MAZATLAN SIN., MX","FM-12","99999","V020","330,1,N,0020,1","22000,1,9,N","010000,1,N,1","+0231,1","+0198,1","10145,1","06,0000,9,1",,,,,,"00,1,+99999,9,99,9",,,"00,99,1,00,1,00,1,99999,9,00,1,00,1",,"01,9",,,,"99999,9,10141,1","2,1,006,1,-007,1",,,"SYN082AAXX  15031 76458 32960 03302 10231 20198 30141 40145 52006 90245 333 30/// 59007;","Q01  00002PRCP06"
"76458099999","2003-01-15T06:00:00","4","23.2","-106.4166666","4.0","COLONIA JUAN CARRASCO MAZATLAN SIN., MX","FM-12","99999","V020","330,1,N,0020,1","22000,1,9,N","010000,1,N,1","+0217,1","+0174,1","10149,1","06,0000,9,1",,,,,,"00,1,+99999,9,99,9",,,"00,99,1,00,1,00,1,99999,9,00,1,00,1","0570,9","01,9",,"240,M,+0295,1","240,N,+0146,1","99999,9,10144,1","1,1,003,1,+999,9",,,"SYN106AAXX  15061 76458 32960 03302 10217 20174 30144 40149 51003 90530 333 10295 20146 30/// 55095 21014 59007;","Q01  00002PRCP06"
"76458099999","2003-01-15T09:00:00","4","23.2","-106.4166666","4.0","COLONIA JUAN CARRASCO MAZATLAN SIN., MX","FM-12","99999","V020","999,9,C,0000,1","22000,1,9,N","008000,1,N,1","+0188,1","+0153,1","10147,1","06,0000,9,1",,,,,,"00,1,+99999,9,99,9",,,"00,99,1,00,1,00,1,99999,9,00,1,00,1",,"01,9",,,,"99999,9,10145,1","7,1,004,1,-011,1",,,"SYN082AAXX  15091 76458 32958 00000 10188 20153 30145 40147 57004 90900 333 30/// 59011;","Q01  00002PRCP06"
"76458099999","2003-01-15T15:00:00","4","23.2","-106.4166666","4.0","COLONIA JUAN CARRASCO MAZATLAN SIN., MX","FM-12","99999","V020","999,9,C,0000,1","22000,1,9,N","018000,1,N,1","+0190,1","+0148,1","10157,1","06,0000,9,1",,,,,,"00,1,+99999,9,99,9",,,"00,99,1,00,1,00,1,99999,9,00,1,00,1",,"01,9",,,,"99999,9,10153,1","2,1,016,1,-003,1",,,"SYN082AAXX  15151 76458 32968 00000 10190 20148 30153 40157 52016 91440 333 30/// 59003;","Q01  00002PRCP06"
"76458099999","2003-01-15T18:00:00","4","23.2","-106.4166666","4.0","COLONIA JUAN CARRASCO MAZATLAN SIN., MX","FM-12","99999","V020","130,1,N,0030,1","22000,1,9,N","020000,1,N,1","+0275,1","+0169,1","10164,1","06,0000,9,1",,,,,,"00,1,+99999,9,99,9",,,"00,99,1,00,1,00,1,99999,9,00,1,00,1",,"01,9",,"120,M,+0282,1","240,N,+0154,1","99999,9,10160,1","0,1,007,1,-004,1",,,"SYN094AAXX  15181 76458 32970 01303 10275 20169 30160 40164 50007 91740 333 10282 20154 30/// 59004;","Q01  00002PRCP06"
"76458099999","2003-01-15T21:00:00","4","23.2","-106.4166666","4.0","COLONIA JUAN CARRASCO MAZATLAN SIN., MX","FM-12","99999","V020","250,1,N,0020,1","22000,1,9,N","020000,1,N,1","+0264,1","+0222,1","10142,1","06,0000,9,1",,,,,,"00,1,+99999,9,99,9",,,"00,99,1,00,1,00,1,99999,9,00,1,00,1",,"01,9",,,,"99999,9,10137,1","7,1,023,1,-005,1",,,"SYN082AAXX  15211 76458 32970 02502 10264 20222 30137 40142 57023 92050 333 30/// 59005;","Q01  00002PRCP06"
"76458099999","2003-01-16T00:00:00","4","23.2","-106.4166666","4.0","COLONIA JUAN CARRASCO MAZATLAN SIN., MX","FM-12","99999","V020","280,1,N,0020,1","22000,1,9,N","018000,1,N,1","+0252,1","+0222,1","10139,1","06,0000,9,1","24,0000,9,1",,,,,,,,"01,99,1,01,1,04,1,00450,1,00,1,00,1",,"01,9",,"120,M,+0303,1","180,N,+0154,1","99999,9,10135,1","5,1,003,1,+000,1",,,"SYN124AAXX  16001 76458 32468 12802 10252 20222 30135 40139 55003 81400 92350 333 10303 20154 30/// 50351 56700 59000 70000 81612;","Q01  00002PRCP06"
"76458099999","2003-01-16T03:00:00","4","23.2","-106.4166666","4.0","COLONIA JUAN CARRASCO MAZATLAN SIN., MX","FM-12","99999","V020","330,1,N,0020,1","22000,1,9,N","008000,1,N,1","+0236,1","+0201,1","10149,1","06,0000,9,1",,,,,,"00,1,+99999,9,99,9",,,"00,99,1,00,1,00,1,99999,9,00,1,00,1",,"01,9",,,,"99999,9,10144,1","2,1,002,1,+003,1",,,"SYN082AAXX  16031 76458 32958 03302 10236 20201 30144 40149 52002 90545 333 30/// 58003;","Q01  00002PRCP06"
"76458099999","2003-01-16T06:00:00","4","23.2","-106.4166666","4.0","COLONIA JUAN CARRASCO MAZATLAN SIN., MX","FM-12","99999","V020","330,1,N,0020,1","22000,1,9,N","008000,1,N,1","+0222,1","+0193,1","10157,1","06,0000,9,1",,,,,,"00,1,+99999,9,99,9",,,"00,99,1,00,1,00,1,99999,9,00,1,00,1","0558,9","01,9",,"240,M,+0303,1","240,N,+0154,1","99999,9,10153,1","2,1,009,1,+999,9",,,"SYN106AAXX  16061 76458 32958 03302 10222 20193 30153 40157 52009 90535 333 10303 20154 30/// 55093 21222 58009;","Q01  00002PRCP06"
"76458099999","2003-01-16T12:00:00","4","23.2","-106.4166666","4.0","COLONIA JUAN CARRASCO MAZATLAN SIN., MX","FM-12","99999","V020","340,1,N,0010,1","22000,1,9,N","008000,1,N,1","+0178,1","+0132,1","10150,1","06,0000,9,1",,,,,,"00,1,+99999,9,99,9",,,"00,99,1,00,1,00,1,99999,9,00,1,00,1",,"01,9","999,+0150,9","999,M,+0303,1","120,N,+0160,1","99999,9,10145,1","4,1,000,1,+008,1",,,"SYN094AAXX  16121 76458 32958 03401 10178 20132 30145 40150 54000 91135 333 10303 20160 30015 58008;","Q01  00002PRCP06"
"76458099999","2003-01-16T15:00:00","4","23.2","-106.4166666","4.0","COLONIA JUAN CARRASCO MAZATLAN SIN., MX","FM-12","99999","V020","340,1,N,0020,1","22000,1,9,N","018000,1,N,1","+0180,1","+0148,1","10165,1","06,0000,9,1",,,,,,"00,1,+99999,9,99,9",,,"00,99,1,00,1,00,1,99999,9,00,1,00,1",,"01,9",,,,"99999,9,10161,1","8,1,016,1,+008,1",,,"SYN082AAXX  16151 76458 32968 03402 10180 20148 30161 40165 58016 91440 333 30/// 58008;","Q01  00002PRCP06"
"76458099999","2003-01-16T18:00:00","4","23.2","-106.4166666","4.0","COLONIA JUAN CARRASCO MAZATLAN SIN., MX","FM-12","99999","V020","120,1,N,0010,1","22000,1,9,N","012000,1,N,1","+0259,1","+0173,1","10173,1","06,0000,9,1",,,,,,"01,1,+06000,9,00,9",,,"01,99,1,00,1,00,1,99999,9,00,1,01,1",,"01,9",,"120,M,+0303,1","240,N,+0156,1","99999,9,10168,1","0,1,007,1,+008,1",,,"SYN112AAXX  16181 76458 32962 11201 10259 20173 30168 40173 50007 80001 91745 333 10303 20156 30/// 56//9 58008 81070;","Q01  00002PRCP06"
"76458099999","2003-01-16T21:00:00","4","23.2","-106.4166666","4.0","COLONIA JUAN CARRASCO MAZATLAN SIN., MX","FM-12","99999","V020","250,1,N,0030,1","22000,1,9,N","014000,1,N,1","+0256,1","+0189,1","10150,1","06,0000,9,1",,,,,,"04,1,+07800,9,02,9",,,"04,99,1,00,1,00,1,99999,9,00,1,07,1",,"01,9",,,,"99999,9,10145,1","7,1,023,1,+008,1",,,"SYN100AAXX  16211 76458 32964 42503 10256 20189 30145 40150 57023 80007 92050 333 30/// 56009 58008 84276;","Q01  00002PRCP06"
"76458099999","2003-01-17T00:00:00","4","23.2","-106.4166666","4.0","COLONIA JUAN CARRASCO MAZATLAN SIN., MX","FM-12","99999","V020","270,1,N,0020,1","22000,1,9,N","020000,1,N,1","+0255,1","+0202,1","10137,1","06,0000,9,1","24,0000,9,1",,,,,,,,"02,99,1,00,1,00,1,99999,9,00,1,05,1",,"01,9",,"120,M,+0304,1","180,N,+0156,1","99999,9,10132,1","7,1,013,1,-002,1",,,"SYN124AAXX  17001 76458 32970 22702 10255 20202 30132 40137 57013 80005 92350 333 10304 20156 30/// 50201 56009 59002 70000 82079;","Q01  00002PRCP06"
"76458099999","2003-01-17T03:00:00","4","23.2","-106.4166666","4.0","COLONIA JUAN CARRASCO MAZATLAN SIN., MX","FM-12","99999","V020","310,1,N,0020,1","22000,1,9,N","008000,1,N,1","+0234,1","+0203,1","10146,1","06,0000,9,1",,,,,,"00,1,+99999,9,99,9",,,"00,99,1,00,1,00,1,99999,9,00,1,00,1",,"01,9",,,,"99999,9,10141,1","2,1,009,1,-003,1",,,"SYN082AAXX  17031 76458 32958 03102 10234 20203 30141 40146 52009 90245 333 30/// 59003;","Q01  00002PRCP06"
"76458099999","2003-01-17T06:00:00","4","23.2","-106.4166666","4.0","COLONIA JUAN CARRASCO MAZATLAN SIN., MX","FM-12","99999","V020","330,1,N,0020,1","22000,1,9,N","008000,1,N,1","+0216,1","+0189,1","10148,1","06,0000,9,1",,,,,,"00,1,+99999,9,99,9",,,"00,99,1,00,1,00,1,99999,9,00,1,00,1","0558,9","01,9",,"240,M,+0304,1","240,N,+0156,1","99999,9,10143,1","1,1,002,1,+999,9",,,"SYN106AAXX  17061 76458 32958 03302 10216 20189 30143 40148 51002 90535 333 10304 20156 30/// 55093 21230 59010;","Q01  00002PRCP06"
"76458099999","2003-01-17T15:00:00","4","23.2","-106.4166666","4.0","COLONIA JUAN CARRASCO MAZATLAN SIN., MX","FM-12","99999","V020","080,1,N,0030,1","22000,1,9,N","016000,1,N,1","+0202,1","+0185,1","10154,1","06,0000,9,1",,,,,,"01,1,+02400,9,03,9",,,"03,99,1,01,1,00,1,00250,1,05,1,07,1",,"01,9",,,,"99999,9,10149,1","0,1,013,1,-012,1",,,"SYN106AAXX  17151 76458 32366 30803 10202 20185 30149 40154 50013 81057 91450 333 30/// 56/00 59012 81358 82270;","Q01  00002PRCP06"
"76458099999","2003-01-17T18:00:00","4","23.2","-106.4166666","4.0","COLONIA JUAN CARRASCO MAZATLAN SIN., MX","FM-12","99999","V020","130,1,N,0020,1","22000,1,9,N","010000,1,N,1","+0240,1","+0203,1","10171,1","06,0000,9,1",,,,"4,1,06,1","2,1,06,1","06,1,+06000,9,02,9",,,"99,99,9,00,1,00,1,99999,9,00,1,06,1",,"01,9",,"120,M,+0250,1","240,N,+0170,1","99999,9,10166,1","0,1,017,1,-002,1","05,1",,"SYN118AAXX  17181 76458 31960 31302 10240 20203 30166 40171 50017 70542 80006 91748 333 10250 20170 30/// 56//0 59002 86270;","Q01+000032SCOTCVQ02  00002PRCP06"
"76458099999","2003-01-17T21:00:00","4","23.2","-106.4166666","4.0","COLONIA JUAN CARRASCO MAZATLAN SIN., MX","FM-12","99999","V020","270,1,N,0020,1","22000,1,9,N","020000,1,N,1","+0264,1","+0210,1","10151,1","06,0000,9,1",,,,,,"00,1,+99999,9,99,9",,,"00,99,1,00,1,00,1,99999,9,00,1,00,1",,"01,9",,,,"99999,9,10147,1","7,1,018,1,+002,1",,,"SYN082AAXX  17211 76458 32970 02702 10264 20210 30147 40151 57018 92045 333 30/// 58002;","Q01  00002PRCP06"
"76458099999","2003-01-18T03:00:00","4","23.2","-106.4166666","4.0","COLONIA JUAN CARRASCO MAZATLAN SIN., MX","FM-12","99999","V020","330,1,N,0020,1","22000,1,9,N","008000,1,N,1","+0224,1","+0195,1","10163,1","06,0000,9,1",,,,,,"00,1,+99999,9,99,9",,,"00,99,1,00,1,00,1,99999,9,00,1,00,1",,"01,9",,,,"99999,9,10159,1","2,1,018,1,+018,1",,,"SYN082AAXX  18031 76458 32958 03302 10224 20195 30159 40163 52018 90245 333 30/// 58018;","Q01  00002PRCP06"
"76458099999","2003-01-18T06:00:00","4","23.2","-106.4166666","4.0","COLONIA JUAN CARRASCO MAZATLAN SIN., MX","FM-12","99999","V020","999,9,C,0000,1","22000,1,9,N","008000,1,N,1","+0208,1","+0164,1","10168,1","06,0000,9,1",,,,,,"00,1,+99999,9,99,9",,,"00,99,1,00,1,00,1,99999,9,00,1,00,1","0336,9","01,9",,"240,M,+0287,1","240,N,+0170,1","99999,9,10163,1","2,1,004,1,+999,9",,,"SYN106AAXX  18061 76458 32958 00000 10208 20164 30163 40168 52004 90535 333 10287 20170 30/// 55056 20982 58020;","Q01  00002PRCP06"
"76458099999","2003-01-18T12:00:00","4","23.2","-106.4166666","4.0","COLONIA JUAN CARRASCO MAZATLAN SIN., MX","FM-12","99999","V020","300,1,N,0020,1","22000,1,9,N","008000,1,N,1","+0185,1","+0156,1","10169,1","06,0000,9,1","24,0000,9,1",,,,,"02,1,+06000,9,00,9",,,"02,99,1,00,1,00,1,99999,9,00,1,01,1",,"01,9","999,+0150,9","999,M,+0287,1","120,N,+0164,1","99999,9,10165,1","5,1,000,1,+029,1",,,"SYN118AAXX  18121 76458 32958 23002 10185 20156 30165 40169 55000 80001 91130 333 10287 20164 30015 56//9 58029 70000 82070;","Q01  00002PRCP06"
"76458099999","2003-01-18T15:00:00","4","23.2","-106.4166666","4.0","COLONIA JUAN CARRASCO MAZATLAN SIN., MX","FM-12","99999","V020","060,1,N,0020,1","22000,1,9,N","016000,1,N,1","+0185,1","+0172,1","10178,1","06,0000,9,1",,,,,,"00,1,+99999,9,99,9",,,"00,99,1,00,1,00,1,99999,9,00,1,00,1",,"01,9","999,+0150,9",,,"99999,9,10174,1","1,1,009,1,+025,1",,,"SYN082AAXX  18151 76458 32966 00602 10185 20172 30174 40178 51009 91445 333 30015 58025;","Q01  00002PRCP06"
"76458099999","2003-01-18T18:00:00","4","23.2","-106.4166666","4.0","COLONIA JUAN CARRASCO MAZATLAN SIN., MX","FM-12","99999","V020","180,1,N,0030,1","22000,1,9,N","020000,1,N,1","+0250,1","+0200,1","10193,1","06,0000,9,1",,,,,,"00,1,+99999,9,99,9",,,"00,99,1,00,1,00,1,99999,9,00,1,00,1",,"01,9",,"120,M,+0267,1","240,N,+0162,1","99999,9,10188,1","2,1,014,1,+022,1",,,"SYN094AAXX  18181 76458 32070 01803 10250 20200 30188 40193 52014 91745 333 10267 20162 30/// 58022;","Q01  00002PRCP06"
"76458099999","2003-01-18T21:00:00","4","23.2","-106.4166666","4.0","COLONIA JUAN CARRASCO MAZATLAN SIN., MX","FM-12","99999","V020","250,1,N,0030,1","22000,1,9,N","015000,1,N,1","+0257,1","+0205,1","10174,1","06,0000,9,1",,,,,,"00,1,+99999,9,99,9",,,"00,99,1,00,1,00,1,99999,9,00,1,00,1",,"01,9",,,,"99999,9,10170,1","7,1,018,1,+023,1",,,"SYN082AAXX  18211 76458 32965 02503 10257 20205 30170 40174 57018 92047 333 30/// 58023;","Q01  00002PRCP06"
"76458099999","2003-01-19T00:00:00","4","23.2","-106.4166666","4.0","COLONIA JUAN CARRASCO MAZATLAN SIN., MX","FM-12","99999","V020","270,1,N,0020,1","22000,1,9,N","018000,1,N,1","+0253,1","+0203,1","10162,1","06,0000,9,1","24,0000,9,1",,,,,"00,1,+99999,9,99,9",,,"00,99,1,00,1,00,1,99999,9,00,1,00,1",,"01,9",,"120,M,+0280,1","180,N,+0163,1","99999,9,10157,1","7,1,013,1,+016,1",,,"SYN106AAXX  19001 76458 32968 02702 10253 20203 30157 40162 57013 92345 333 10280 20163 30/// 50241 58016 70000;","Q01  00002PRCP06Q02  00002PRCP24"
"76458099999","2003-01-19T09:00:00","4","23.2","-106.4166666","4.0","COLONIA JUAN CARRASCO MAZATLAN SIN., MX","FM-12","99999","V020","310,1,N,0020,1","22000,1,9,N","010000,1,N,1","+0192,1","+0174,1","10176,1","06,0000,9,1",,,,,,"00,1,+99999,9,99,9",,,"00,99,1,00,1,00,1,99999,9,00,1,00,1",,,,,,"99999,9,10172,1","4,1,000,1,+999,9",,,"SYN082AAXX  19091 76458 32960 03102 10192 20174 30172 40176 54000 9085 333 3 0/// 58007;","Q01  00002PRCP06"
"76458099999","2003-01-19T12:00:00","4","23.2","-106.4166666","4.0","COLONIA JUAN CARRASCO MAZATLAN SIN., MX","FM-12","99999","V020","330,1,N,0020,1","22000,1,9,N","010000,1,N,1","+0181,1","+0161,1","10175,1","06,0000,9,1","24,0000,9,1",,,,,,,,"01,99,1,00,1,00,1,99999,9,00,1,01,1",,"01,9","999,+0150,9","999,M,+0280,1","120,N,+0163,1","99999,9,10171,1","8,1,001,1,+007,1",,,"SYN112AAXX  19121 76458 32960 13302 10181 20161 30171 40175 58001 80001 91145 333 10280 20163 30015 56009 58007 70000;","Q01  00002PRCP06Q02  00002PRCP24"
"76458099999","2003-01-19T15:00:00","4","23.2","-106.4166666","4.0","COLONIA JUAN CARRASCO MAZATLAN SIN., MX","FM-12","99999","V020","330,1,N,0020,1","22000,1,9,N","016000,1,N,1","+0204,1","+0163,1","10202,1","06,0000,9,1",,,,,,"02,1,+06000,9,00,9",,,"02,99,1,00,1,00,1,99999,9,00,1,05,1",,"01,9",,,,,"2,1,020,1,+017,1",,,"SYN100AAXX  19151 76458 32466 23302 10204 20163 30498 40202 52020 80005 91450 333 30/// 56//0 58017 82070;","Q01+004502SCOLCBQ02+104983APOSP Q03  00002PRCP06"
"76458099999","2003-01-19T18:00:00","4","23.2","-106.4166666","4.0","COLONIA JUAN CARRASCO MAZATLAN SIN., MX","FM-12","99999","V020","120,1,N,0030,1","22000,1,9,N","020000,1,N,1","+0250,1","+0186,1","10205,1","06,0000,9,1",,,,,,"02,1,+06000,9,00,9",,,"02,99,1,00,1,00,1,99999,9,00,1,05,1",,"01,9",,"120,M,+0292,1","240,N,+0155,1","99999,9,10200,1","3,1,012,1,+012,1",,,"SYN112AAXX  19181 76458 32570 21203 10250 20186 30200 40205 53012 80005 91745 333 10292 20155 30/// 56//0 58012 82070;","Q01+008002SCOLCBQ02  00002PRCP06"
"76458099999","2003-01-19T21:00:00","4","23.2","-106.4166666","4.0","COLONIA JUAN CARRASCO MAZATLAN SIN., MX","FM-12","99999","V020","240,1,N,0020,1","22000,1,9,N","008000,1,N,1","+0258,1","+0210,1","10180,1","06,0000,9,1",,,,,,"00,1,+99999,9,99,9",,,"00,99,1,00,1,00,1,99999,9,00,1,00,1",,"01,9",,,,"99999,9,10176,1","7,1,024,1,+006,1",,,"SYN082AAXX  19211 76458 32958 02402 10258 20210 30176 40180 57024 92045 333 30/// 58006;","Q01  00002PRCP06"
"76458099999","2003-01-20T00:00:00","4","23.2","-106.4166666","4.0","COLONIA JUAN CARRASCO MAZATLAN SIN., MX","FM-12","99999","V020","260,1,N,0020,1","22000,1,9,N","020000,1,N,1","+0264,1","+0211,1","10167,1","06,0000,9,1","24,0000,9,1",,,,,"01,1,+06000,9,00,9",,,"01,99,1,00,1,99,9,99999,9,99,9,01,1",,"01,9",,"120,M,+0285,1","180,N,+0157,1","99999,9,10163,1","7,1,013,1,+006,1",,,"SYN112AAXX  20001 76458 32970 12602 10264 20211 30163 40167 57013 80//1 92340 333 10285 20157 30/// 58006 70000 81070;","Q01  00002PRCP06"
"76458099999","2003-01-20T03:00:00","4","23.2","-106.4166666","4.0","COLONIA JUAN CARRASCO MAZATLAN SIN., MX","FM-12","99999","V020","330,1,N,0020,1","22000,1,9,N","016000,1,N,1","+0236,1","+0198,1","10174,1","06,0000,9,1",,,,,,"00,1,+99999,9,99,9",,,"00,99,1,00,1,00,1,99999,9,00,1,00,1",,"01,9",,,,"99999,9,10169,1","2,1,007,1,+999,9",,,"SYN081AAXX  20031 76458 32966 03302 10236 20198 30169 40174 52007 90245 333 30/// 5800;","Q01  00002PRCP06"
"76458099999","2003-01-20T06:00:00","4","23.2","-106.4166666","4.0","COLONIA JUAN CARRASCO MAZATLAN SIN., MX","FM-12","99999","V020","999,9,C,0000,1","22000,1,9,N","012000,1,N,1","+0218,1","+0171,1","10080,2","06,0000,9,1",,,,,,"00,1,+99999,9,99,9",,,"00,99,1,00,1,00,1,99999,9,00,1,00,1","0570,9","01,9",,"240,M,+0285,1","240,N,+0157,1","99999,9,10076,2","0,1,007,1,+999,9",,,"SYN106AAXX  20061 76458 32962 00000 10218 20171 30076 40080 50007 90535 333 10285 20157 30/// 55095 20872 58005;","Q01+100763APOSP Q02+100803APOSLPQ03  00002PRCP06"
"76458099999","2003-01-20T15:00:00","4","23.2","-106.4166666","4.0","COLONIA JUAN CARRASCO MAZATLAN SIN., MX","FM-12","99999","V020","120,1,N,0020,1","22000,1,9,N","014000,1,N,1","+0209,1","+0204,1","10197,1","06,0000,9,1",,,,,,"00,1,+99999,9,99,9",,,"00,99,1,00,1,00,1,99999,9,00,1,00,1",,"01,9",,,,"99999,9,10182,1","0,1,008,1,-016,1",,,"SYN082AAXX  20151 76458 32064 01202 10209 20204 30182 40197 50008 91450 333 30/// 59016;","Q01  00002PRCP06"
"76458099999","2003-01-20T18:00:00","4","23.2","-106.4166666","4.0","COLONIA JUAN CARRASCO MAZATLAN SIN., MX","FM-12","99999","V020","120,1,N,0020,1","22000,1,9,N","020000,1,N,1","+0287,1","+0113,1","10207,1","06,0000,9,1",,,,,,"00,1,+99999,9,99,9",,,"00,99,1,00,1,00,1,99999,9,00,1,00,1",,"01,9",,"120,M,+0287,1","240,N,+0179,1","99999,9,10202,1","0,1,020,1,+002,1",,,"SYN094AAXX  20181 76458 32070 01202 10287 20113 30202 40207 50020 91750 333 10287 20179 30/// 58002;","Q01  00002PRCP06"
"76458099999","2003-01-20T21:00:00","4","23.2","-106.4166666","4.0","COLONIA JUAN CARRASCO MAZATLAN SIN., MX","FM-12","99999","V020","250,1,N,0030,1","22000,1,9,N","018000,1,N,1","+0266,1","+9999,9","10178,1","06,0000,9,1",,,,,,"00,1,+99999,9,99,9",,,"00,99,1,00,1,00,1,99999,9,00,1,00,1",,"01,9",,,,"99999,9,10174,1","7,1,029,1,-002,1",,,"SYN076AAXX  20211 76458 32968 02503 10266 30174 40178 57029 92050 333 30/// 59002;","Q01  00002PRCP06"
"76458099999","2003-01-21T00:00:00","4","23.2","-106.4166666","4.0","COLONIA JUAN CARRASCO MAZATLAN SIN., MX","FM-12","99999","V020","280,1,N,0020,1","22000,1,9,N","018000,1,N,1","+0252,1","+0209,1","10170,1","06,0000,9,1","24,0000,9,1",,,,,"00,1,+99999,9,99,9",,,"00,99,1,00,1,00,1,99999,9,00,1,00,1",,"01,9",,"120,M,+0290,1","180,N,+0181,1","99999,9,10165,1","5,1,008,1,+003,1",,,"SYN106AAXX  21001 76458 32968 02802 10252 20209 30165 40170 55008 92355 333 10290 20181 30/// 50371 58003 70000;","Q01  00002PRCP06Q02  00002PRCP24"
"76458099999","2003-01-21T03:00:00","4","23.2","-106.4166666","4.0","COLONIA JUAN CARRASCO MAZATLAN SIN., MX","FM-12","99999","V020","340,1,N,0010,1","22000,1,9,N","008000,1,N,1","+0232,1","+0206,1","99999,9","06,0000,9,1",,,,,,,,,"02,99,1,99,9,99,9,99999,9,99,9,99,9",,"01,9",,,,,"9,9,999,9,+001,1",,,"SYN095AAXX  21031 76458 32958 23401 10232 20206 320170 40174 53005 80//1 90245 333 30/// 58001 82070;","Q01+020171APOSP Q02  00002PRCP06"
"76458099999","2003-01-21T06:00:00","4","23.2","-106.4166666","4.0","COLONIA JUAN CARRASCO MAZATLAN SIN., MX","FM-12","99999","V020","330,1,N,0020,1","22000,1,9,N","008000,1,N,1","+0210,1","+0183,1","10177,1","06,0000,9,1",,,,,,"00,1,+99999,9,99,9",,,"00,99,1,00,1,00,1,99999,9,00,1,00,1","0510,9","01,9",,"240,M,+0290,1","240,N,+0181,1","99999,9,10172,1","0,1,002,1,+999,9",,,"SYN106AAXX  21061 76458 32958 03302 10210 20183 30172 40177 50002 90535 333 10290 20181 30/// 55085 21184 59004;","Q01  00002PRCP06"
"76458099999","2003-01-21T15:00:00","4","23.2","-106.4166666","4.0","COLONIA JUAN CARRASCO MAZATLAN SIN., MX","FM-12","99999","V020","330,1,N,0020,1","22000,1,9,N","016000,1,N,1","+0182,1","+0165,1","10176,1","06,0000,9,1",,,,,,"01,1,+06000,9,00,9",,,"01,99,1,00,1,00,1,99999,9,00,1,05,1",,"01,9",,,,"99999,9,10172,1","0,1,013,1,-010,1",,,"SYN100AAXX  21151 76458 32566 13302 10182 20165 30172 40176 50013 80005 91450 333 30/// 56//0 59010 81070;","Q01+008002SCOLCBQ02  00002PRCP06"
"76458099999","2003-01-21T18:00:00","4","23.2","-106.4166666","4.0","COLONIA JUAN CARRASCO MAZATLAN SIN., MX","FM-12","99999","V020","180,1,N,0020,1","22000,1,9,N","020000,1,N,1","+0262,1","+0194,1","10182,1","06,0000,9,1",,,,,,"01,1,+06000,9,00,9",,,"01,99,1,00,1,00,1,99999,9,00,1,05,1",,"01,9",,"120,M,+0279,1","240,N,+0153,1","99999,9,10177,1","0,1,005,1,-025,1",,,"SYN112AAXX  21181 76458 32570 11802 10262 20194 30177 40182 50005 80005 91750 333 10279 20153 30/// 56//0 59025 81070;","Q01+008002SCOLCBQ02  00002PRCP06"
"76458099999","2003-01-21T21:00:00","4","23.2","-106.4166666","4.0","COLONIA JUAN CARRASCO MAZATLAN SIN., MX","FM-12","99999","V020","270,1,N,0030,1","22000,1,9,N","020000,1,N,1","+0268,1","+0191,1","10154,1","06,0000,9,1",,,,,,"01,1,+08700,9,00,9",,,"01,99,1,00,1,00,1,99999,9,00,1,02,1",,"01,9",,,,"99999,9,10149,1","7,1,028,1,-025,1",,,"SYN100AAXX  21211 76458 32970 12703 10268 20191 30149 40154 57028 80002 92045 333 30/// 56009 59025 81079;","Q01  00002PRCP06"
"76458099999","2003-01-22T03:00:00","4","23.2","-106.4166666","4.0","COLONIA JUAN CARRASCO MAZATLAN SIN., MX","FM-12","99999","V020","320,1,N,0020,1","22000,1,9,N","010000,1,N,1","+0244,1","+0198,1","10147,1","06,0000,9,1",,,,,,"00,1,+99999,9,99,9",,,"00,99,1,00,1,00,1,99999,9,00,1,00,1",,"01,9",,,,"99999,9,10143,1","3,1,004,1,-027,1",,,"SYN082AAXX  22031 76458 32960 03202 10244 20198 30143 40147 53004 90245 333 30/// 59027;","Q01  00002PRCP06"
"76458099999","2003-01-22T06:00:00","4","23.2","-106.4166666","4.0","COLONIA JUAN CARRASCO MAZATLAN SIN., MX","FM-12","99999","V020","320,1,N,0020,1","22000,1,9,N","010000,1,N,1","+0237,1","+0172,1","10154,1","06,0000,9,1",,,,,,,,,"03,99,1,00,1,00,1,99999,9,00,1,08,1","0570,9","01,9",,"240,M,+0281,1","240,N,+0158,1","99999,9,10149,1","2,1,006,1,-022,1",,,"SYN118AAXX  22061 76458 32960 33202 10237 20172 30149 40154 52006 80008 90530 333 10281 20158 30/// 55095 20990 59022 83268;","Q01  00002PRCP06"
"76458099999","2003-01-22T12:00:00","4","23.2","-106.4166666","4.0","COLONIA JUAN CARRASCO MAZATLAN SIN., MX","FM-12","99999","V020","340,1,N,0020,1","22000,1,9,N","008000,1,N,1","+0184,1","+0132,1","10150,1","06,0000,9,1","24,0000,9,1",,,,,"00,1,+99999,9,99,9",,,"00,99,1,00,1,00,1,99999,9,00,1,00,1",,"01,9","999,+0160,9","999,M,+0281,1","120,N,+0170,1","99999,9,10146,1","7,1,001,1,-013,1",,,"SYN100AAXX  22121 76458 32958 03402 10184 20132 30146 40150 57001 91130 333 10281 20170 30016 59013 70000;","Q01  00002PRCP06Q02  00002PRCP24"
"76458099999","2003-01-22T15:00:00","4","23.2","-106.4166666","4.0","COLONIA JUAN CARRASCO MAZATLAN SIN., MX","FM-12","99999","V020","340,1,N,0020,1","09000,1,C,N","015000,1,N,1","+0184,1","+0129,1","10161,1","06,0000,9,1",,,,,,"01,1,+04200,9,03,9",,,"08,99,1,01,1,00,1,02250,1,03,1,08,1",,"01,9",,,,"99999,9,10156,1","2,1,010,1,-016,1",,,"SYN106AAXX  22151 76458 32865 83402 10184 20129 30156 40161 52010 81038 91445 333 30/// 56/99 59016 81364 87268;","Q01  00002PRCP06"
"76458099999","2003-01-22T21:00:00","4","23.2","-106.4166666","4.0","COLONIA JUAN CARRASCO MAZATLAN SIN., MX","FM-12","99999","V020","280,1,N,0050,1","07800,1,9,N","020000,1,N,1","+0249,1","+0156,1","10136,1","06,0000,9,1",,,,,,"07,1,+07800,9,02,9",,,"07,99,1,00,1,00,1,99999,9,00,1,07,1",,"01,9",,,,"99999,9,10131,1","7,1,031,1,-018,1",,,"SYN100AAXX  22211 76458 32970 72805 10249 20156 30131 40136 57031 80007 92055 333 30/// 56009 59018 87276;","Q01  00002PRCP06"
"76458099999","2003-01-23T03:00:00","4","23.2","-106.4166666","4.0","COLONIA JUAN CARRASCO MAZATLAN SIN., MX","FM-12","99999","V020","330,1,N,0020,1","22000,1,9,N","008000,1,N,1","+0226,1","+0184,1","10133,1","06,0000,9,1",,,,,,"00,1,+99999,9,99,9",,,"00,99,1,00,1,00,1,99999,9,00,1,00,1",,"01,9",,,,"99999,9,10128,1","3,1,005,1,-015,1",,,"SYN082AAXX  23031 76458 32958 03302 10226 20184 30128 40133 53005 90245 333 30/// 59015;","Q01  00002PRCP06"
"76458099999","2003-01-24T03:00:00","4","23.2","-106.4166666","4.0","COLONIA JUAN CARRASCO MAZATLAN SIN., MX","FM-12","99999","V020","030,1,N,0040,1","22000,1,9,N","008000,1,N,1","+0228,1","+0199,1","10126,1","06,0000,9,1",,,,,,"00,1,+99999,9,99,9",,,"00,99,1,00,1,00,1,99999,9,00,1,00,1",,"01,9",,,,"99999,9,10122,1","2,1,013,1,-006,1",,,"SYN082AAXX  24031 76458 32958 00304 10228 20199 30122 40126 52013 90245 333 30/// 59006;","Q01  00002PRCP06"
"76458099999","2003-01-24T12:00:00","4","23.2","-106.4166666","4.0","COLONIA JUAN CARRASCO MAZATLAN SIN., MX","FM-12","99999","V020","340,1,N,0010,1","00750,1,9,N","008000,1,N,1","+0218,1","+0162,1","10143,1","06,0000,9,1","24,0000,9,1",,,,,,,,"07,99,1,07,1,05,1,00800,1,00,1,00,1",,"01,9","999,+0190,9","999,M,+0275,1","120,N,+0120,1","99999,9,99999,9","2,1,001,1,+031,1",,,"SYN106AAXX  24121 76458 32558 73401 10218 20162 39138 40143 52001 87500 91135 333 10275 20120 30019 58031 70000;","Q01  00002PRCP06Q02  00002PRCP24Q03 091383APOSP "
"76458099999","2003-01-24T15:00:00","4","23.2","-106.4166666","4.0","COLONIA JUAN CARRASCO MAZATLAN SIN., MX","FM-12","99999","V020","300,1,N,0020,1","22000,1,9,N","018000,1,N,1","+0214,1","+0159,1","10157,1","06,0000,9,1",,,,,,"01,1,+02400,9,03,9",,,"03,99,1,01,1,00,1,00800,1,03,1,05,1",,"01,9",,,,"99999,9,10153,2","0,1,015,1,+031,1",,,"SYN106AAXX  24151 76458 32568 33002 10214 20159 30153 40157 50015 81035 91450 333 30/// 56/00 58031 81358 82070;","Q01+101533APOSP Q02  00002PRCP06"
"76458099999","2003-01-24T21:00:00","4","23.2","-106.4166666","4.0","COLONIA JUAN CARRASCO MAZATLAN SIN., MX","FM-12","99999","V020","210,1,N,0030,1","22000,1,9,N","020000,1,N,1","+0284,1","+0202,1","10152,1","06,0000,9,1",,,,,,"01,1,+02400,9,03,9",,,"01,99,1,99,9,00,1,99999,9,03,1,00,1",,"01,9",,,,"99999,9,10148,1","7,1,017,1,+039,1",,,"SYN100AAXX  24211 76458 32970 12103 10284 20202 30148 40152 57017 80030 92045 333 30/// 56090 58039 81358;","Q01+000002SCOTLCQ02  00002PRCP06"
"76458099999","2003-01-25T00:00:00","4","23.2","-106.4166666","4.0","COLONIA JUAN CARRASCO MAZATLAN SIN., MX","FM-12","99999","V020","240,1,N,0030,1","22000,1,9,N","020000,1,N,1","+0270,1","+0214,1","10147,1","06,0000,9,1",,,,,,,,,"01,99,1,00,1,00,1,99999,9,00,1,06,1",,"01,9",,"120,M,+0308,1","180,N,+0200,1","99999,9,10142,1","7,1,005,1,+034,1",,,"SYN118AAXX  25001 76458 32970 12403 10270 20214 30142 40147 57005 80006 92340 333 10308 20200 30/// 52080 56008 58034 81072;","Q01  00002PRCP06"
"76458099999","2003-01-26T03:00:00","4","23.2","-106.4166666","4.0","COLONIA JUAN CARRASCO MAZATLAN SIN., MX","FM-12","99999","V020","330,1,N,0020,1","22000,1,9,N","008000,1,N,1","+0236,1","+0204,1","10145,1","06,0000,9,1",,,,,,"00,1,+99999,9,99,9",,,"00,99,1,00,1,00,1,99999,9,00,1,00,1",,"01,9",,,,"99999,9,10140,1","2,1,007,1,-020,1",,,"SYN082AAXX  26031 76458 32958 03302 10236 20204 30140 40145 52007 90250 333 30/// 59020;","Q01  00002PRCP06"
"76458099999","2003-01-27T21:00:00","4","23.2","-106.4166666","4.0","COLONIA JUAN CARRASCO MAZATLAN SIN., MX","FM-12","99999","V020","240,1,N,0020,1","22000,1,9,N","018000,1,N,1","+0260,1","+0213,1","10130,1","06,0000,9,1",,,,,,"02,1,+08700,9,00,9",,,"02,99,1,00,1,00,1,99999,9,00,1,05,1",,"01,9",,,,"99999,9,10125,1","7,1,018,1,-004,1",,,"SYN100AAXX  27211 76458 32968 22402 10260 20213 30125 40130 57018 80005 92055 333 30/// 56009 59004 82079;","Q01  00002PRCP06"
"76458099999","2003-01-28T00:00:00","4","23.2","-106.4166666","4.0","COLONIA JUAN CARRASCO MAZATLAN SIN., MX","FM-12","99999","V020","240,1,N,0020,1","99999,9,9,N","018000,1,N,1","+0246,1","+0206,1","10128,1","06,0000,9,1","24,0000,9,1",,,,,"04,1,+03300,9,03,9",,,"07,99,1,07,1,00,1,99999,9,03,1,00,1",,"01,9",,"120,M,+0285,1","180,N,+0152,1","99999,9,10123,1","4,1,000,1,+005,1",,,"SYN130AAXX  28001 76458 32968 72402 10246 20206 30123 40128 54002 87030 92355 333 10285 20152 30/// 50241 56040 58005 70000 84361 83464;","Q01  00002PRCP06"
"76458099999","2003-01-28T03:00:00","4","23.2","-106.4166666","4.0","COLONIA JUAN CARRASCO MAZATLAN SIN., MX","FM-12","99999","V020","080,1,N,0020,1","22000,1,9,N","010000,1,N,1","+0238,1","+0207,1","10141,1","06,0000,9,1",,,,,,"04,1,+00390,9,06,9",,,"04,99,1,04,1,99,9,00450,1,00,1,00,1",,"01,9",,,,"99999,9,10137,1","2,1,014,1,+011,1",,,"SYN100AAXX  28031 76458 32460 40802 10238 20207 30137 40141 52014 84000 90240 333 30/// 56/0/ 58011 84613;","Q01+000002SCOLCGQ02  00002PRCP06"
"76458099999","2003-01-29T00:00:00","4","23.2","-106.4166666","4.0","COLONIA JUAN CARRASCO MAZATLAN SIN., MX","FM-12","99999","V020","290,1,N,0030,1","22000,1,9,N","020000,1,N,1","+0268,1","+0205,1","10141,1","06,0000,9,1","24,0007,9,1",,,,,,,,"01,99,1,00,1,00,1,99999,9,00,1,05,1",,"01,9",,"120,M,+0295,1","180,N,+0190,1","99999,9,10136,1","5,1,009,1,+013,1",,,"SYN124AAXX  29001 76458 32570 12903 10268 20205 30136 40141 55009 80005 92340 333 10295 20190 30/// 50240 56//0 58013 70007 81070;","Q01+008002SCOLCBQ02  00002PRCP06"
"76458099999","2003-01-29T03:00:00","4","23.2","-106.4166666","4.0","COLONIA JUAN CARRASCO MAZATLAN SIN., MX","FM-12","99999","V020","320,1,N,0020,1","22000,1,9,N","010000,1,N,1","+0247,1","+0214,1","10151,1","06,0000,9,1",,,,,,"00,1,+99999,9,99,9",,,"00,99,1,00,1,00,1,99999,9,00,1,00,1",,"01,9",,,,"99999,9,10146,1","2,1,010,1,+009,1",,,"SYN082AAXX  29031 76458 32960 03202 10247 20214 30146 40151 52010 90245 333 30/// 58009;","Q01  00002PRCP06"
"76458099999","2003-01-29T12:00:00","4","23.2","-106.4166666","4.0","COLONIA JUAN CARRASCO MAZATLAN SIN., MX","FM-12","99999","V020","310,1,N,0010,1","22000,1,9,N","008000,1,N,1","+0204,1","+0167,1","10148,1","06,0000,9,1","24,0000,9,1",,,,,"00,1,+99999,9,99,9",,,"00,99,1,00,1,00,1,99999,9,00,1,00,1",,"01,9","999,+0180,9","999,M,+0295,1","120,N,+0190,1","99999,9,10143,1","7,1,007,1,+002,1",,,"SYN100AAXX  29121 76458 32958 03101 10204 20167 30143 40148 57007 91135 333 10295 20190 30018 58002 70000;","Q01  00002PRCP06Q02  00002PRCP24"
"76458099999","2003-01-29T15:00:00","4","23.2","-106.4166666","4.0","COLONIA JUAN CARRASCO MAZATLAN SIN., MX","FM-12","99999","V020","999,9,C,0000,1","06000,1,9,N","018000,1,N,1","+0202,1","+0172,1","10164,1","06,0000,9,1",,,,,,"08,1,+06000,9,00,9",,,"08,99,1,00,1,00,1,99999,9,00,1,03,1",,"01,9",,,,"99999,9,10159,1","2,1,016,1,+002,1",,,"SYN100AAXX  29151 76458 32968 80000 10202 20172 30159 40164 52016 80003 91447 333 30/// 56//9 58002 88070;","Q01  00002PRCP06"
"76458099999","2003-01-29T18:00:00","4","23.2","-106.4166666","4.0","COLONIA JUAN CARRASCO MAZATLAN SIN., MX","FM-12","99999","V020","250,1,N,0020,1","05400,1,9,N","018000,1,N,1","+0254,1","+0176,1","10168,1","06,0000,9,1",,,,,,"07,1,+05400,9,00,9",,,"07,99,1,00,1,00,1,99999,9,00,1,03,1",,"01,9",,"120,M,+0269,1","240,N,+0176,1","99999,9,10163,1","0,1,004,1,+004,1",,,"SYN112AAXX  29181 76458 32968 72502 10254 20176 30163 40168 50004 80003 91745 333 10269 20176 30/// 56//9 58004 87068;","Q01  00002PRCP06"
"76458099999","2003-01-29T21:00:00","4","23.2","-106.4166666","4.0","COLONIA JUAN CARRASCO MAZATLAN SIN., MX","FM-12","99999","V020","280,1,N,0030,1","09000,1,C,N","018000,1,N,1","+0262,1","+0202,1","10146,1","06,0000,9,1",,,,,,"01,1,+00750,9,08,9",,,"07,99,1,01,1,02,1,00800,1,00,1,08,1",,"01,9",,,,"99999,9,10141,1","7,1,022,1,-004,1",,,"SYN106AAXX  29211 76458 32568 72803 10262 20202 30141 40146 57022 81208 92055 333 30/// 56109 59004 81825 87276;","Q01  00002PRCP06"
"76458099999","2003-01-30T00:00:00","4","23.2","-106.4166666","4.0","COLONIA JUAN CARRASCO MAZATLAN SIN., MX","FM-12","99999","V020","280,1,N,0020,1","22000,1,9,N","018000,1,N,1","+0262,1","+0199,1","10139,1","06,0000,9,1","24,0000,9,1",,,,,"01,1,+00780,9,08,9","01,1,+02700,9,03,9",,"03,99,1,01,1,02,1,00800,1,03,1,02,1",,"01,9",,"120,M,+0279,1","180,N,+0176,1","99999,9,10135,1","5,1,007,1,-002,1",,,"SYN136AAXX  30001 76458 32568 32802 10262 20199 30135 40139 55007 81232 92350 333 10279 20176 30/// 50311 56199 59002 70000 81826 81359 81079;","Q01  00002PRCP06"
"76458099999","2003-01-30T03:00:00","4","23.2","-106.4166666","4.0","COLONIA JUAN CARRASCO MAZATLAN SIN., MX","FM-12","99999","V020","310,1,N,0020,1","22000,1,9,N","008000,1,N,1","+0242,1","+0105,1","10147,1","06,0000,9,1",,,,,,"00,1,+99999,9,99,9",,,"00,99,1,00,1,00,1,99999,9,00,1,00,1",,"01,9",,,,"99999,9,10143,1","3,1,008,1,-003,1",,,"SYN082AAXX  30031 76458 32958 03102 10242 20105 30143 40147 53008 90245 333 30/// 59003;","Q01  00002PRCP06"
"76458099999","2003-01-30T06:00:00","4","23.2","-106.4166666","4.0","COLONIA JUAN CARRASCO MAZATLAN SIN., MX","FM-12","99999","V020","330,1,N,0010,1","22000,1,9,N","008000,1,N,1","+0234,1","+0200,1","10150,1","06,0000,9,1",,,,,,,,,"01,99,1,00,1,99,9,99999,9,99,9,02,1","0372,9","01,9",,"240,M,+0279,1","240,N,+0176,1","99999,9,10145,1","1,1,002,1,-010,1",,,"SYN118AAXX  30061 76458 32958 13301 10234 20200 30145 40150 51002 80//2 90535 333 10279 20176 30/// 55062 21068 59010 81070;","Q01  00002PRCP06"
"76458099999","2003-01-30T12:00:00","4","23.2","-106.4166666","4.0","COLONIA JUAN CARRASCO MAZATLAN SIN., MX","FM-12","99999","V020","999,9,C,0000,1","22000,1,9,N","008000,1,N,1","+0208,1","+0182,1","10117,1","06,0000,9,1","24,0000,9,1",,,,,"00,1,+99999,9,99,9",,,"00,99,1,00,1,00,1,99999,9,00,1,00,1",,"01,9","999,+0170,9","999,M,+0279,1","120,N,+0180,1","99999,9,10113,1","7,1,014,1,+999,9",,,"SYN100AAXX  30121 76458 32958 00000 10208 20182 30113 40117 57014 91135 333 10279 20180 30017 70000 59030;","Q01  00002PRCP06"
"76458099999","2003-01-30T15:00:00","4","23.2","-106.4166666","4.0","COLONIA JUAN CARRASCO MAZATLAN SIN., MX","FM-12","99999","V020","340,1,N,0020,1","22000,1,9,N","018000,1,N,1","+0202,1","+0167,1","10132,1","06,0000,9,1",,,,,,"03,1,+06000,9,00,9",,,"03,99,1,00,1,00,1,99999,9,00,1,05,1",,"01,9",,,,"99999,9,10128,1","0,1,015,1,-031,1",,,"SYN094AAXX  30151 76458 32468 33402 10202 20167 30128 40132 50015 80005 91445 333 30/// 59031 83070;","Q01+004502SCOLCBQ02  00002PRCP06"
"76458099999","2003-01-30T18:00:00","4","23.2","-106.4166666","4.0","COLONIA JUAN CARRASCO MAZATLAN SIN., MX","FM-12","99999","V020","280,1,N,0020,1","99999,9,9,N","020000,1,N,1","+0255,1","+0166,1","10136,1","06,0000,9,1",,,,,,"01,1,+02400,9,03,9",,,"05,99,1,01,1,00,1,01250,1,03,1,05,1",,"01,9",,"120,M,+0272,1","240,N,+0176,1","99999,9,10132,1","3,1,004,1,-031,1",,,"SYN118AAXX  30181 76458 32670 52802 10255 20166 30132 40136 53004 81035 91750 333 10272 20176 30/// 56/00 59031 81358 84070;","Q01  00002PRCP06"
"76458099999","2003-01-31T03:00:00","4","23.2","-106.4166666","4.0","COLONIA JUAN CARRASCO MAZATLAN SIN., MX","FM-12","99999","V020","300,1,N,0020,1","22000,1,9,N","008000,1,N,1","+0244,1","+0204,1","10116,1","06,0000,9,1",,,,,,"03,1,+06000,9,00,9",,,"03,99,1,00,1,99,9,99999,9,99,9,02,1",,"01,9",,,,"99999,9,10122,1","2,1,011,1,-031,1",,,"SYN094AAXX  31031 76458 32958 33002 10244 20204 30122 40116 52011 80//2 90245 333 30/// 59031 83070;","Q01  00002PRCP06"
"76458099999","2003-01-31T09:00:00","4","23.2","-106.4166666","4.0","COLONIA JUAN CARRASCO MAZATLAN SIN., MX","FM-12","99999","V020","999,9,C,0000,1","22000,1,9,N","008000,1,N,1","+0220,1","+0197,1","10119,1","06,0000,9,1",,,,,,"00,1,+99999,9,99,9",,,"00,99,1,00,1,00,1,99999,9,00,1,00,1",,"01,9",,,,"99999,9,10118,1","7,1,009,1,-010,1",,,"SYN082AAXX  31091 76458 32958 00000 10220 20197 30118 40119 57009 90852 333 30/// 59010;","Q01  00002PRCP06"
"76458099999","2003-01-31T15:00:00","4","23.2","-106.4166666","4.0","COLONIA JUAN CARRASCO MAZATLAN SIN., MX","FM-12","99999","V020","120,1,N,0020,1","22000,1,9,N","016000,1,N,1","+0222,1","+0210,1","10139,1","06,0000,9,1",,,,,,"01,1,+02400,9,03,9",,,"03,99,1,01,1,00,1,00250,1,05,1,08,1",,"01,9",,,,"99999,9,10134,1","2,1,018,1,+007,1",,,"SYN106AAXX  31151 76458 32366 31202 10222 20210 30134 40139 52018 81058 91445 333 30/// 56/00 58007 81358 82270;","Q01  00002PRCP06"
"76458099999","2003-02-01T00:00:00","4","23.2","-106.4166666","4.0","COLONIA JUAN CARRASCO MAZATLAN SIN., MX","FM-12","99999","V020","210,1,N,0030,1","99999,9,9,N","020000,1,N,1","+0256,1","+0219,1","10130,1","06,0000,9,1",,,,,,"03,1,+02400,9,03,9",,,"06,99,1,99,9,00,1,99999,9,03,1,06,1",,"01,9",,"120,M,+0298,1","180,N,+0195,1","99999,9,10126,1","4,1,000,1,+026,1",,,"SYN118AAXX  01001 76458 32970 62103 10256 20219 30126 40130 54000 80036 92345 333 10298 20195 30/// 51800 58026 83358 83272;","Q01+000002SCOTLCQ02  00002PRCP06"
"76458099999","2003-02-01T03:00:00","4","23.2","-106.4166666","4.0","COLONIA JUAN CARRASCO MAZATLAN SIN., MX","FM-12","99999","V020","280,1,N,0020,1","22000,1,9,N","008000,1,N,1","+0246,1","+0221,1","10150,1","06,0000,9,1",,,,,,"02,1,+01800,9,04,9",,,"04,99,1,02,1,99,9,02250,1,02,1,02,1",,"01,9",,,,"99999,9,10145,1","2,1,019,1,+033,1",,,"SYN100AAXX  01031 76458 32858 42802 10246 20221 30145 40150 52019 82/22 90245 333 30/// 58033 82456 82070;","Q01  00002PRCP06"
"76458099999","2003-02-01T09:00:00","4","23.2","-106.4166666","4.0","COLONIA JUAN CARRASCO MAZATLAN SIN., MX","FM-12","99999","V020","160,1,N,0020,1","03600,1,C,N","010000,1,N,1","+0240,1","+0201,1","10138,1","06,0000,9,1",,,,,,"01,1,+00480,9,08,9",,,"07,99,1,01,1,01,1,00450,1,02,1,00,1",,"01,9",,,,"99999,9,10133,1","7,1,013,1,+015,1",,,"SYN106AAXX  01091 76458 32460 71602 10240 20201 30133 40138 57013 81120 90850 333 30/// 5669/ 58015 81816 86464;","Q01  00002PRCP06"
"76458099999","2003-02-01T15:00:00","4","23.2","-106.4166666","4.0","COLONIA JUAN CARRASCO MAZATLAN SIN., MX","FM-12","99999","V020","320,1,N,0020,1","02400,1,9,N","016000,1,N,1","+0230,1","+0159,1","10142,1","06,0000,9,1",,,,,,"04,1,+00900,9,06,9","02,1,+02400,9,03,9",,"07,99,1,04,1,04,1,00800,1,03,1,05,1",,"01,9",,,,"99999,9,10138,1","0,1,003,1,+003,1",,,"SYN112AAXX  01151 76458 32566 73202 10230 20159 30138 40142 50003 84435 91450 333 30/// 56000 58003 84630 82358 81070;","Q01  00002PRCP06"
"76458099999","2003-02-02T09:00:00","4","23.2","-106.4166666","4.0","COLONIA JUAN CARRASCO MAZATLAN SIN., MX","FM-12","99999","V020","999,9,C,0000,1","22000,1,9,N","014000,1,N,1","+0226,1","+0209,1","10133,1","06,0000,9,1",,,,,,"02,1,+03000,9,03,9",,,"02,99,1,02,1,00,1,99999,9,03,1,00,1",,"01,9",,,,"99999,9,10128,1","2,1,003,1,-005,1",,,"SYN100AAXX  02091 76458 32964 20000 10226 20209 30128 40133 52003 82030 90840 333 30/// 56090 59005 82360;","Q01  00002PRCP06"
"76458099999","2003-02-02T15:00:00","4","23.2","-106.4166666","4.0","COLONIA JUAN CARRASCO MAZATLAN SIN., MX","FM-12","99999","V020","220,1,N,0020,1","00330,1,9,N","018000,1,N,1","+0227,1","+0201,1","10137,1","03,0000,9,1",,,,"5,1,03,1","0,1,03,1","06,1,+00330,9,04,9",,,"08,99,1,06,1,04,1,00450,1,02,1,00,1",,"01,9",,,,"99999,9,10132,1","2,1,010,1,-006,1","02,1",,"SYN118AAXX  02151 76458 21468 82202 10227 20201 30132 40137 52010 69907 70250 86420 91447 333 30/// 5669/ 59006 86411 82462;","Q01  00002PRCP03"
"76458099999","2003-02-03T03:00:00","4","23.2","-106.4166666","4.0","COLONIA JUAN CARRASCO MAZATLAN SIN., MX","FM-12","99999","V020","060,1,N,0010,1","22000,1,9,N","014000,1,N,1","+0236,1","+0198,1","10127,1","06,0000,9,1",,,,,,"00,1,+99999,9,99,9",,,"00,99,1,00,1,00,1,99999,9,00,1,00,1",,"01,9",,,,"99999,9,10122,1","3,1,002,1,+004,1",,,"SYN082AAXX  03031 76458 32964 00601 10236 20198 30122 40127 53002 90245 333 30/// 58004;","Q01  00002PRCP06"
"76458099999","2003-02-03T15:00:00","4","23.2","-106.4166666","4.0","COLONIA JUAN CARRASCO MAZATLAN SIN., MX","FM-12","99999","V020","999,9,C,0000,1","22000,1,9,N","012000,1,N,1","+0202,1","+0162,1","10145,1","06,0000,9,1",,,,,,"01,1,+06600,9,00,9",,,"01,99,1,00,1,00,1,99999,9,00,1,06,1",,"01,9",,,,"99999,9,10141,1","2,1,012,1,+009,1",,,"SYN100AAXX  03151 76458 32962 10000 10202 20162 30141 40145 52012 80006 91450 333 30/// 56009 58009 81072;","Q01  00002PRCP06"
"76458099999","2003-02-04T03:00:00","4","23.2","-106.4166666","4.0","COLONIA JUAN CARRASCO MAZATLAN SIN., MX","FM-12","99999","V020","330,1,N,0020,1","22000,1,9,N","016000,1,N,1","+0236,1","+0198,1","10134,1","06,0000,9,1",,,,,,"00,1,+99999,9,99,9",,,"00,99,1,00,1,00,1,99999,9,00,1,00,1",,"01,9",,,,"99999,9,10129,1","2,1,009,1,+007,1",,,"SYN082AAXX  04031 76458 32966 03302 10236 20198 30129 40134 52009 90245 333 30/// 58007;","Q01  00002PRCP06"
"76458099999","2003-02-06T21:00:00","4","23.2","-106.4166666","4.0","COLONIA JUAN CARRASCO MAZATLAN SIN., MX","FM-12","99999","V020","270,1,N,0040,1","99999,9,9,N","020000,1,N,1","+0268,1","+0173,1","10129,1","06,0000,9,1",,,,,,"01,1,+02400,9,03,9",,,"07,99,1,01,1,00,1,01250,1,03,1,07,1",,"01,9",,,,"99999,9,10124,1","7,1,020,1,+007,1",,,"SYN106AAXX  06211 76458 32670 72704 10268 20173 30124 40129 57020 81037 92050 333 30/// 56/00 58007 81358 86270;","Q01  00002PRCP06"
"76458099999","2003-02-07T00:00:00","4","23.2","-106.4166666","4.0","COLONIA JUAN CARRASCO MAZATLAN SIN., MX","FM-12","99999","V020","300,1,N,0040,1","03600,1,9,N","020000,1,N,1","+0255,1","+0189,1","10130,1","06,0000,9,1","24,0000,9,1",,,,,"01,1,+00840,9,06,9","03,1,+02400,9,03,9",,"06,99,1,01,1,04,1,00800,1,03,1,05,1",,"01,9",,"120,M,+0289,1","180,N,+0176,1","99999,9,10125,1","3,1,001,1,+012,1",,,"SYN136AAXX  07001 76458 32570 63004 10255 20189 30125 40130 53001 81435 92350 333 10289 20176 30/// 50415 56000 58012 70000 81628 83358 82070;","Q01  00002PRCP06"
"76458099999","2003-02-07T03:00:00","4","23.2","-106.4166666","4.0","COLONIA JUAN CARRASCO MAZATLAN SIN., MX","FM-12","99999","V020","320,1,N,0020,1","03600,1,C,N","014000,1,N,1","+0252,1","+0112,1","10130,1","06,0000,9,1",,,,,,"03,1,+01800,9,06,9",,,"08,99,1,03,1,05,1,01750,1,02,1,99,9",,"01,9",,,,"99999,9,10125,1","5,1,000,1,+012,1",,,"SYN100AAXX  07031 76458 32764 83202 10252 20112 30125 40130 55000 8352/ 90245 333 30/// 58012 83656 85458;","Q01  00002PRCP06"
"76458099999","2003-02-07T21:00:00","4","23.2","-106.4166666","4.0","COLONIA JUAN CARRASCO MAZATLAN SIN., MX","FM-12","99999","V020","300,1,N,0030,1","99999,9,9,N","018000,1,N,1","+0258,1","+0154,1","10151,1","06,0000,9,1",,,,,,"03,1,+02400,9,03,9",,,"05,99,1,03,1,00,1,01250,1,03,1,02,1",,"01,9",,,,"99999,9,10146,1","7,1,008,1,+022,1",,,"SYN106AAXX  07211 76458 32668 53003 10258 20154 30146 40151 57008 83032 92050 333 30/// 56/00 58022 83358 82070;","Q01  00002PRCP06"
"76458099999","2003-02-08T00:00:00","4","23.2","-106.4166666","4.0","COLONIA JUAN CARRASCO MAZATLAN SIN., MX","FM-12","99999","V020","280,1,N,0030,1","22000,1,9,N","020000,1,N,1","+0256,1","+0144,1","10142,1","06,0000,9,1","24,0010,9,1",,,,,"02,1,+02400,9,03,9",,,"03,99,1,02,1,00,1,01250,1,03,1,05,1",,"01,9",,"120,M,+0277,1","180,N,+0188,1","99999,9,10138,1","0,1,008,1,+013,1",,,"SYN124AAXX  08001 76458 32670 32803 10256 20144 30138 40142 50008 82035 92350 333 10277 20188 30/// 50225 58013 70010 82358 81070;","Q01  00002PRCP06"
"76458099999","2003-02-08T03:00:00","4","23.2","-106.4166666","4.0","COLONIA JUAN CARRASCO MAZATLAN SIN., MX","FM-12","99999","V020","330,1,N,0020,1","22000,1,9,N","008000,1,N,1","+0234,1","+0167,1","10144,1","06,0000,9,1",,,,,,"00,1,+99999,9,99,9",,,"00,99,1,00,1,00,1,99999,9,00,1,00,1",,"01,9",,,,"99999,9,10140,1","3,1,002,1,+015,1",,,"SYN082AAXX  08031 76458 32958 03302 10234 20167 30140 40144 53002 90245 333 30/// 58015;","Q01  00002PRCP06"
"76458099999","2003-02-08T21:00:00","4","23.2","-106.4166666","4.0","COLONIA JUAN CARRASCO MAZATLAN SIN., MX","FM-12","99999","V020","280,1,N,0040,1","22000,1,9,N","020000,1,N,1","+0262,1","+0171,1","10151,1","06,0000,9,1",,,,,,"01,1,+01140,9,08,9",,,"02,99,1,01,1,02,1,99999,9,03,1,99,9",,"01,9",,,,"99999,9,10146,1","7,1,007,1,+000,1",,,"SYN106AAXX  08211 76458 32970 22804 10262 20171 30146 40151 57007 8123/ 92350 333 30/// 56//0 58000 81838 81358;","Q01  00002PRCP06"
"76458099999","2003-02-09T00:00:00","4","23.2","-106.4166666","4.0","COLONIA JUAN CARRASCO MAZATLAN SIN., MX","FM-12","99999","V020","300,1,N,0030,1","22000,1,9,N","020000,1,N,1","+0270,1","+0159,1","10152,1","06,0000,9,1","24,9999,9,9",,,,,,,,"01,99,1,01,1,02,1,01250,1,00,1,00,1",,"01,9",,"120,M,+0282,1","180,N,+0156,1","99999,9,10147,1","3,1,001,1,+009,1",,,"SYN124AAXX  09001 76458 32670 13003 10270 20159 30147 40152 53001 81200 92340 333 10282 20156 30/// 50445 560// 58009 79999 81846;","Q01  00002PRCP06Q02  99992PRCP24"
"76458099999","2003-02-09T12:00:00","4","23.2","-106.4166666","4.0","COLONIA JUAN CARRASCO MAZATLAN SIN., MX","FM-12","99999","V020","330,1,N,0020,1","22000,1,9,N","016000,1,N,1","+0168,1","+0106,1","10155,1","06,0000,9,1","24,0000,9,1",,,,,"00,1,+99999,9,99,9",,,"00,99,1,00,1,00,1,99999,9,00,1,00,1",,"01,9","999,+0120,9","999,M,+0282,1","120,N,+0145,1","99999,9,10151,1","4,1,000,1,+017,1",,,"SYN100AAXX  09121 76458 32966 03302 10168 20106 30151 40155 54001 91140 333 10282 20145 30012 58017 70000;","Q01  00002PRCP06Q02  00002PRCP24"
"76458099999","2003-02-09T18:00:00","4","23.2","-106.4166666","4.0","COLONIA JUAN CARRASCO MAZATLAN SIN., MX","FM-12","99999","V020","270,1,N,0030,1","99999,9,9,N","020000,1,N,1","+0240,1","+0111,1","10176,1","06,0000,9,1",,,,,,"03,1,+02400,9,03,9",,,"05,99,1,99,9,03,1,99999,9,99,9,06,1",,"01,9",,"120,M,+0255,1","240,N,+0135,1","99999,9,10171,1","2,1,013,1,+018,1",,,"SYN118AAXX  09181 76458 32970 52703 10240 20111 30171 40176 52013 80306 91738 333 10255 20135 30/// 56099 58018 83358 82072;","Q01+000002SCOTLCQ02+000002SCOMCGQ03  00002PRCP06"
"76458099999","2003-02-10T18:00:00","4","23.2","-106.4166666","4.0","COLONIA JUAN CARRASCO MAZATLAN SIN., MX","FM-12","99999","V020","240,1,N,0030,1","22000,1,9,N","020000,1,N,1","+0258,1","+0113,1","10153,1","06,0000,9,1",,,,,,"03,1,+02400,9,03,9",,,"03,99,1,99,9,00,1,99999,9,03,1,00,1",,"01,9",,"120,M,+0270,1","240,N,+0141,1","99999,9,10148,1","2,1,006,1,-023,1",,,"SYN112AAXX  10181 76458 32970 32403 10258 20113 30148 40153 52006 80030 91750 333 10270 20141 30/// 56090 59023 83358;","Q01+000002SCOTLCQ02  00002PRCP06"
"76458099999","2003-02-10T21:00:00","4","23.2","-106.4166666","4.0","COLONIA JUAN CARRASCO MAZATLAN SIN., MX","FM-12","99999","V020","240,1,N,0040,1","99999,9,9,N","020000,1,N,1","+0260,1","+0190,1","10141,1","06,0000,9,1",,,,,,"02,1,+02400,9,03,9",,,"05,99,1,02,1,00,1,00800,1,03,1,03,1",,"01,9",,,,"99999,9,10136,1","7,1,012,1,-015,1",,,"SYN106AAXX  10211 76458 32570 52404 10260 20190 30136 40141 57012 82033 92050 333 30/// 56/00 59015 82358 83070;","Q01  00002PRCP06"
"76458099999","2003-02-11T09:00:00","4","23.2","-106.4166666","4.0","COLONIA JUAN CARRASCO MAZATLAN SIN., MX","FM-12","99999","V020","999,9,C,0000,1","22000,1,9,N","016000,1,N,1","+0195,1","+0159,1","10126,1","06,0000,9,1",,,,,,"02,1,+08700,9,00,9",,,"02,99,1,00,1,00,1,99999,9,00,1,02,1",,"01,9",,,,"99999,9,10121,1","7,1,008,1,-015,1",,,"SYN100AAXX  11091 76458 32966 20000 10195 20159 30121 40126 57008 80002 90850 333 30/// 56009 59015 82079;","Q01  00002PRCP06"
"76458099999","2003-02-11T15:00:00","4","23.2","-106.4166666","4.0","COLONIA JUAN CARRASCO MAZATLAN SIN., MX","FM-12","99999","V020","999,9,C,0000,1","22000,1,9,N","008000,1,N,1","+0198,1","+0144,1","10138,1","06,0000,9,1",,,,,,"02,1,+02400,9,03,9",,,"03,99,1,99,9,00,1,99999,9,03,1,06,1",,"01,9",,,,"99999,9,10134,1","2,1,013,1,-008,1",,,"SYN106AAXX  11151 76458 32958 30000 10198 20144 30134 40138 52013 80036 91445 333 30/// 56099 59008 82358 81072;","Q01+000002SCOTLCQ02  00002PRCP06"
"76458099999","2003-02-12T03:00:00","4","23.2","-106.4166666","4.0","COLONIA JUAN CARRASCO MAZATLAN SIN., MX","FM-12","99999","V020","230,1,N,0020,1","22000,1,9,N","014000,1,N,1","+0234,1","+0184,1","10121,1","06,0000,9,1",,,,,,"00,1,+99999,9,99,9",,,"00,99,1,00,1,00,1,99999,9,00,1,00,1",,"01,9",,,,"99999,9,10116,1","3,1,003,1,-003,1",,,"SYN082AAXX  12031 76458 32964 02302 10234 20184 30116 40121 53003 90245 333 30/// 59003;","Q01  00002PRCP06"
"76458099999","2003-02-13T00:00:00","4","23.2","-106.4166666","4.0","COLONIA JUAN CARRASCO MAZATLAN SIN., MX","FM-12","99999","V020","270,1,N,0020,1","22000,1,9,N","020000,1,N,1","+0257,1","+0206,1","10127,1","06,0000,9,1","24,0000,9,1",,,,,"01,1,+03600,9,03,9",,,"06,99,1,01,1,00,1,02250,1,03,1,06,1",,"01,9",,"120,M,+0300,1","180,N,+0161,1","99999,9,10123,1","3,1,001,1,+010,1",,,"SYN130AAXX  13001 76458 32870 62702 10257 20206 30123 40127 53001 81036 92345 333 10300 20161 30/// 50471 56/99 58010 70000 81362 85070;","Q01  00002PRCP06"
"76458099999","2003-02-13T15:00:00","4","23.2","-106.4166666","4.0","COLONIA JUAN CARRASCO MAZATLAN SIN., MX","FM-12","99999","V020","120,1,N,0030,1","22000,1,9,N","018000,1,N,1","+0212,1","+0169,1","10157,1","06,0000,9,1",,,,,,"02,1,+02400,9,03,9",,,"04,99,1,99,9,00,1,99999,9,03,1,06,1",,"01,9",,,,"99999,9,10152,1","4,1,000,1,+019,1",,,"SYN106AAXX  13151 76458 32968 41203 10212 20169 30152 40157 54000 80036 91455 333 30/// 56099 58019 82358 82070;","Q01+000002SCOTLCQ02  00002PRCP06"
"76458099999","2003-02-13T18:00:00","4","23.2","-106.4166666","4.0","COLONIA JUAN CARRASCO MAZATLAN SIN., MX","FM-12","99999","V020","140,1,N,0030,1","02400,1,9,N","020000,1,N,1","+0251,1","+0172,1","10161,1","06,0000,9,1",,,,,,"05,1,+02400,9,03,9",,,"05,99,1,99,9,00,1,99999,9,05,1,00,1",,"01,9",,"120,M,+0256,1","240,N,+0180,1","99999,9,10156,1","2,1,004,1,+005,1",,,"SYN112AAXX  13181 76458 32970 51403 10251 20172 30156 40161 52004 80050 91745 333 10256 20180 30/// 56090 58005 85358;","Q01+000002SCOTLCQ02  00002PRCP06"
"76458099999","2003-02-13T21:00:00","4","23.2","-106.4166666","4.0","COLONIA JUAN CARRASCO MAZATLAN SIN., MX","FM-12","99999","V020","180,1,N,0020,1","03600,1,C,N","020000,1,N,1","+0259,1","+0217,1","10145,1","06,0000,9,1",,,,,,"01,1,+00510,9,06,9",,,"07,99,1,01,1,04,1,00450,1,03,1,00,1",,"01,9",,,,"99999,9,10141,1","8,1,015,1,+019,1",,,"SYN106AAXX  13211 76458 32470 71802 10259 20217 30141 40145 58015 81430 92050 333 30/// 5669/ 58019 81617 86364;","Q01  00002PRCP06"
"76458099999","2003-02-14T03:00:00","4","23.2","-106.4166666","4.0","COLONIA JUAN CARRASCO MAZATLAN SIN., MX","FM-12","99999","V020","330,1,N,9999,9","22000,1,9,N","014000,1,N,1","+9999,9","+9999,9","99999,9","06,0000,9,1",,,,,,,,,"04,99,1,99,9,99,9,02250,1,99,9,99,9",,"01,9",,,,,"9,9,999,9,+456,1",,,"SYN095AAXX  14031 76458 32864 433302 10238 20212 30133 40138 52009 84/6/ 90245 333 30/// 58456 59018;","Q01  00002PRCP06Q020003003WOSPD "
"76458099999","2003-02-14T09:00:00","4","23.2","-106.4166666","4.0","COLONIA JUAN CARRASCO MAZATLAN SIN., MX","FM-12","99999","V020","330,1,N,0010,1","01800,1,9,N","008000,1,N,1","+0220,1","+0148,1","10139,1","06,0000,9,1",,,,,,"06,1,+01800,9,03,9",,,"06,99,1,06,1,99,9,02250,1,03,1,99,9",,"01,9",,,,"99999,9,10135,1","7,1,011,1,-023,1",,,"SYN094AAXX  14091 76458 32858 63301 10220 20148 30135 40139 57011 86/3/ 90845 333 30/// 59023 86356;","Q01  00002PRCP06"
"76458099999","2003-02-14T12:00:00","4","23.2","-106.4166666","4.0","COLONIA JUAN CARRASCO MAZATLAN SIN., MX","FM-12","99999","V020","999,9,C,0000,1","22000,1,9,N","008000,1,N,1","+0202,1","+0155,1","10127,1","06,0000,9,1","24,0000,9,1",,,,,"03,1,+01800,9,03,9",,,"03,99,1,03,1,99,9,99999,9,03,1,99,9",,"01,9","999,+0170,9","999,M,+0273,1","120,N,+0188,1","99999,9,10122,1","7,1,013,1,-031,1",,,"SYN112AAXX  14121 76458 32958 30000 10202 20155 30122 40127 57013 83/3/ 91135 333 10273 20188 30017 59031 70000 83356;","Q01  00002PRCP06"
"76458099999","2003-02-14T15:00:00","4","23.2","-106.4166666","4.0","COLONIA JUAN CARRASCO MAZATLAN SIN., MX","FM-12","99999","V020","999,9,C,0000,1","22000,1,9,N","015000,1,N,1","+0224,1","+0153,1","10133,1","06,0000,9,1",,,,,,"03,1,+02400,9,03,9",,,"03,99,1,99,9,00,1,99999,9,05,1,00,1",,"01,9",,,,"99999,9,10129,1","2,1,007,1,-023,1",,,"SYN100AAXX  14151 76458 32965 30000 10224 20153 30129 40133 52007 80050 91448 333 30/// 56090 59023 83358;","Q01+000002SCOTLCQ02  00002PRCP06"
"76458099999","2003-02-14T18:00:00","4","23.2","-106.4166666","4.0","COLONIA JUAN CARRASCO MAZATLAN SIN., MX","FM-12","99999","V020","350,1,N,0030,1","99999,9,9,N","005000,1,N,1","+0240,1","+0193,1","99999,9",,,,,,,,,,"08,99,1,99,9,99,9,00450,1,99,9,99,9",,,,,,,,,,"SYN120AAXX  14181 76458 01450 83503 10240 20193 10262 20184 30146 32/// 40150 52017 59010 60051 60057 76251 8802/ 88519 91750;",
"76458099999","2003-02-14T21:00:00","4","23.2","-106.4166666","4.0","COLONIA JUAN CARRASCO MAZATLAN SIN., MX","FM-12","99999","V020","030,1,N,0030,1","00330,1,9,N","010000,1,N,1","+0222,1","+0196,1","10132,1","03,0119,9,2","12,0010,9,2",,,"6,1,03,1","6,1,03,1","08,1,+00330,9,02,9",,,"99,99,9,05,1,02,1,00450,1,00,1,00,1",,"09,9",,,,"99999,9,10128,1","7,1,018,1,-013,1","61,1",,"SYN118AAXX  14211 76458 21460 50303 10222 20196 30128 40132 57018 60127 76166 85200 92350 333 31/// 560// 59013 60012 88211;","Q01+000052SCOTCV"
"76458099999","2003-02-15T00:00:00","4","23.2","-106.4166666","4.0","COLONIA JUAN CARRASCO MAZATLAN SIN., MX","FM-12","99999","V020","090,1,N,0030,1","03600,1,9,N","018000,1,N,1","+0244,1","+0195,1","10119,1","06,0000,2,1","24,0017,9,1",,,"0,1,06,1","1,1,06,1","04,1,+00600,9,08,9",,,"06,99,1,04,1,02,1,00450,1,06,1,99,9",,"09,9",,"120,M,+0267,1","180,N,+0188,1","99999,9,10114,1","5,1,014,1,-010,1","02,1",,"SYN136AAXX  15001 76458 32468 60903 10244 20195 30114 40119 55014 70201 8426/ 92350 333 10267 20188 31/// 50293 5600/ 59010 70017 84820 82358;",
"76458099999","2003-02-15T03:00:00","4","23.2","-106.4166666","4.0","COLONIA JUAN CARRASCO MAZATLAN SIN., MX","FM-12","99999","V020","100,1,N,0020,1","00240,1,9,N","010000,1,N,1","+0218,1","+0198,1","10113,1","06,0000,2,1",,,,,,"06,1,+00240,9,08,9",,,"06,99,1,06,1,02,1,00250,1,00,1,00,1",,"01,9",,,,"99999,9,10127,1","2,1,013,1,-006,1",,,"SYN100AAXX  15031 76458 32360 61002 10218 20198 30127 40113 52013 86200 90250 333 30/// 565// 59006 86808;",
"76458099999","2003-02-15T06:00:00","4","23.2","-106.4166666","4.0","COLONIA JUAN CARRASCO MAZATLAN SIN., MX","FM-12","99999","V020","050,1,N,0020,1","22000,1,9,N","010000,1,N,1","+0208,1","+0192,1","10135,1","06,0000,9,1",,,,,,,,,"01,99,1,01,1,04,1,00150,1,00,1,00,1","0216,9","01,9",,"240,M,+0267,1","240,N,+0184,1","99999,9,10130,1","2,1,003,1,-016,1",,,"SYN124AAXX  15061 76458 32260 10502 10208 20192 30130 40135 52003 81400 90540 333 10267 20184 30/// 55036 20588 565// 59016 81607;","Q01  00002PRCP06"
"76458099999","2003-02-15T09:00:00","4","23.2","-106.4166666","4.0","COLONIA JUAN CARRASCO MAZATLAN SIN., MX","FM-12","99999","V020","280,1,N,0020,1","00150,1,9,N","008000,1,N,1","+0202,1","+0190,1","10133,1","06,0000,9,1",,,,,,"06,1,+00150,9,08,9",,,"06,99,1,06,1,02,1,00150,1,99,9,99,9",,"01,9",,,,"99999,9,10129,1","4,1,000,1,-006,1",,,"SYN094AAXX  15091 76458 32258 62802 10202 20190 30129 40133 54003 862// 90845 333 30/// 59006 86805;","Q01  00002PRCP06"
"76458099999","2003-02-15T12:00:00","4","23.2","-106.4166666","4.0","COLONIA JUAN CARRASCO MAZATLAN SIN., MX","FM-12","99999","V020","360,1,N,0020,1","22000,1,9,N","008000,1,N,1","+0280,1","+0166,1","10131,1","06,0000,9,1","24,0175,9,1",,,,,"01,1,+01800,9,03,9",,,"01,99,1,01,1,99,9,02250,1,03,1,99,9",,"01,9","999,+0150,9","999,M,+9999,9","120,N,+0161,1","99999,9,10127,1","5,1,002,1,+005,1",,,"SYN112AAXX  15121 76458 32858 13602 10280 20166 30127 40131 55002 81/3/ 91135 333 10267 20161 30015 58005 70175 81356;","Q01  00002PRCP06Q02 +02672ATMX  "
"76458099999","2003-02-15T15:00:00","4","23.2","-106.4166666","4.0","COLONIA JUAN CARRASCO MAZATLAN SIN., MX","FM-12","99999","V020","310,1,N,0020,1","22000,1,9,N","015000,1,N,1","+0198,1","+0162,1","10139,1","06,0000,9,1",,,,,,"02,1,+00450,9,08,9",,,"02,99,1,02,1,02,1,00450,1,00,1,00,1",,"01,9",,,,"99999,9,10134,1","1,1,007,1,+005,1",,,"SYN100AAXX  15151 76458 32465 23102 10198 20162 30134 40139 51007 82200 91450 333 30/// 560// 58005 82815;","Q01  00002PRCP06"
"76458099999","2003-02-15T21:00:00","4","23.2","-106.4166666","4.0","COLONIA JUAN CARRASCO MAZATLAN SIN., MX","FM-12","99999","V020","270,1,N,0030,1","22000,1,9,N","020000,1,N,1","+0246,1","+0168,1","10138,1","06,0000,9,1",,,,,,"01,1,+00960,9,08,9",,,"01,99,1,01,1,02,1,00800,1,00,1,00,1",,"01,9",,,,"99999,9,10133,1","7,1,008,1,+005,1",,,"SYN100AAXX  15211 76458 32570 12703 10246 20168 30133 40138 57008 81200 92050 333 30/// 560// 58005 81832;","Q01  00002PRCP06"
"76458099999","2003-02-16T00:00:00","4","23.2","-106.4166666","4.0","COLONIA JUAN CARRASCO MAZATLAN SIN., MX","FM-12","99999","V020","300,1,N,0030,1","22000,1,9,N","020000,1,N,1","+0252,1","+0151,1","10127,1","06,0000,9,1","24,0000,9,1",,,,,,,,"01,99,1,01,1,02,1,00800,1,00,1,00,1",,"01,9",,"120,M,+0268,1","180,N,+0156,1","99999,9,10123,1","5,1,010,1,+009,1",,,"SYN124AAXX  16001 76458 32570 13003 10252 20151 30123 40127 55010 81200 92350 333 10268 20156 30/// 50364 560// 58009 70000 81840;","Q01  00002PRCP06"
"76458099999","2003-02-16T03:00:00","4","23.2","-106.4166666","4.0","COLONIA JUAN CARRASCO MAZATLAN SIN., MX","FM-12","99999","V020","300,1,N,0020,1","22000,1,9,N","010000,1,N,1","+0219,1","+0156,1","10134,1","06,0000,9,1",,,,,,"00,1,+99999,9,99,9",,,"00,99,1,00,1,00,1,99999,9,00,1,00,1",,"01,9",,,,"99999,9,10129,1","3,1,006,1,+002,1",,,"SYN082AAXX  16031 76458 32960 03002 10219 20156 30129 40134 53006 90250 333 30/// 58002;","Q01  00002PRCP06"
"76458099999","2003-02-16T06:00:00","4","23.2","-106.4166666","4.0","COLONIA JUAN CARRASCO MAZATLAN SIN., MX","FM-12","99999","V020","999,9,C,0000,1","22000,1,9,N","010000,1,N,1","+0194,1","+0152,1","10138,1","06,0000,9,1",,,,,,"00,1,+99999,9,99,9",,,"00,99,1,00,1,00,1,99999,9,00,1,00,1","0612,9","01,9",,"240,M,+0268,1","240,N,+0156,1","99999,9,10134,1","2,1,005,1,+999,9",,,"SYN106AAXX  16061 76458 32960 00000 10194 20152 30134 40138 52005 90540 333 10268 20156 30/// 55102 21416 58004;","Q01  00002PRCP06"
"76458099999","2003-02-16T12:00:00","4","23.2","-106.4166666","4.0","COLONIA JUAN CARRASCO MAZATLAN SIN., MX","FM-12","99999","V020","320,1,N,0020,1","22000,1,9,N","010000,1,N,1","+0175,1","+0138,1","10133,1","06,0000,9,1","24,0000,9,1",,,,,"00,1,+99999,9,99,9",,,"00,99,1,00,1,00,1,99999,9,00,1,00,1",,"01,9","999,+0130,9","999,M,+0268,1","120,N,+0148,1","99999,9,10128,1","5,1,002,1,+001,1",,,"SYN100AAXX  16121 76458 32960 03202 10175 20138 30128 40133 55002 91145 333 10268 20148 30013 58001 70000;","Q01  00002PRCP06Q02  00002PRCP24"
"76458099999","2003-02-16T15:00:00","4","23.2","-106.4166666","4.0","COLONIA JUAN CARRASCO MAZATLAN SIN., MX","FM-12","99999","V020","999,9,C,0000,1","22000,1,9,N","020000,1,N,1","+0178,1","+0143,1","10144,1","06,0000,9,1",,,,,,"00,1,+99999,9,99,9",,,"00,99,1,00,1,00,1,99999,9,00,1,00,1",,"01,9",,,,"99999,9,10139,1","2,1,011,1,+005,1",,,"SYN082AAXX  16151 76458 32970 00000 10178 20143 30139 40144 52011 91440 333 30/// 58005;","Q01  00002PRCP06"
"76458099999","2003-02-16T18:00:00","4","23.2","-106.4166666","4.0","COLONIA JUAN CARRASCO MAZATLAN SIN., MX","FM-12","99999","V020","240,1,N,0030,1","22000,1,9,N","020000,1,N,1","+0254,1","+0149,1","10144,1","06,0000,9,1",,,,,,"00,1,+99999,9,99,9",,,"00,99,1,00,1,00,1,99999,9,00,1,00,1",,"01,9",,"120,M,+0267,1","240,N,+0145,1","99999,9,10139,1","4,1,000,1,-002,1",,,"SYN094AAXX  16181 76458 32970 02403 10254 20149 30139 40144 54000 91740 333 10267 20145 30/// 59002;","Q01  00002PRCP06"
"76458099999","2003-02-16T21:00:00","4","23.2","-106.4166666","4.0","COLONIA JUAN CARRASCO MAZATLAN SIN., MX","FM-12","99999","V020","260,1,N,0030,1","22000,1,9,N","020000,1,N,1","+0260,1","+0160,1","10129,1","06,0000,9,1",,,,,,"00,1,+99999,9,99,9",,,"00,99,1,00,1,00,1,99999,9,00,1,00,1",,"01,9",,,,"99999,9,10124,1","7,1,015,1,-009,1",,,"SYN082AAXX  16211 76458 32070 02603 10260 20160 30124 40129 57015 92050 333 30/// 59009;","Q01  00002PRCP06"
"76458099999","2003-02-17T03:00:00","4","23.2","-106.4166666","4.0","COLONIA JUAN CARRASCO MAZATLAN SIN., MX","FM-12","99999","V020","300,1,N,0020,1","22000,1,9,N","010000,1,N,1","+0235,1","+0172,1","10123,1","06,0000,9,1",,,,,,"00,1,+99999,9,99,9",,,"00,99,1,00,1,00,1,99999,9,00,1,00,1",,"01,9",,,,"99999,9,10119,1","3,1,009,1,-010,1",,,"SYN082AAXX  17031 76458 32960 03002 10235 20172 30119 40123 53009 90245 333 30/// 59010;","Q01  00002PRCP06"
"76458099999","2003-02-17T12:00:00","4","23.2","-106.4166666","4.0","COLONIA JUAN CARRASCO MAZATLAN SIN., MX","FM-12","99999","V020","130,1,N,0010,1","22000,1,9,N","010000,1,N,1","+0176,1","+0141,1","10116,1","06,0000,9,1","24,0000,9,1",,,,,"00,1,+99999,9,99,9",,,"00,99,1,00,1,00,1,99999,9,00,1,00,1",,"01,9","999,+0150,9","999,M,+0277,1","120,N,+0160,1","99999,9,10111,1","7,1,005,1,-017,1",,,"SYN100AAXX  17121 76458 32960 01301 10176 20141 30111 40116 57005 91210 333 10277 20160 30015 59017 70000;","Q01  00002PRCP06Q02  00002PRCP24"
"76458099999","2003-02-17T15:00:00","4","23.2","-106.4166666","4.0","COLONIA JUAN CARRASCO MAZATLAN SIN., MX","FM-12","99999","V020","070,1,N,0010,1","22000,1,9,N","016000,1,N,1","+0198,1","+0159,1","10139,1","06,0000,9,1",,,,,,"00,1,+99999,9,99,9",,,"00,99,1,00,1,00,1,99999,9,00,1,00,1",,"01,9",,,,"99999,9,10134,1","1,1,023,1,-005,1",,,"SYN082AAXX  17151 76458 32966 00701 10198 20159 30134 40139 51023 91450 333 30/// 59005;","Q01  00002PRCP06"
"76458099999","2003-02-17T21:00:00","4","23.2","-106.4166666","4.0","COLONIA JUAN CARRASCO MAZATLAN SIN., MX","FM-12","99999","V020","270,1,N,0030,1","22000,1,9,N","020000,1,N,1","+0260,1","+0205,1","10140,1","06,0000,9,1",,,,,,"00,1,+99999,9,99,9",,,"00,99,1,00,1,00,1,99999,9,00,1,00,1",,"01,9",,,,"99999,9,10136,1","7,1,008,1,+012,1",,,"SYN082AAXX  17211 76458 32070 02703 10260 20205 30136 40140 57008 92040 333 30/// 58012;","Q01  00002PRCP06"
"76458099999","2003-02-18T00:00:00","4","23.2","-106.4166666","4.0","COLONIA JUAN CARRASCO MAZATLAN SIN., MX","FM-12","99999","V020","320,1,N,0030,1","22000,1,9,N","020000,1,N,1","+0260,1","+0200,1","10112,1","06,0000,9,1","24,0000,9,1",,,,,"00,1,+99999,9,99,9",,,"00,99,1,00,1,00,1,99999,9,00,1,00,1",,"01,9",,"120,M,+0282,1","180,N,+0148,1","99999,9,10108,1","5,1,028,1,-002,1",,,"SYN106AAXX  18001 76458 32070 03203 10260 20200 30108 40112 55028 92340 333 10282 20148 30/// 50494 59002 70000;","Q01  00002PRCP06Q02  00002PRCP24"
"76458099999","2003-02-18T03:00:00","4","23.2","-106.4166666","4.0","COLONIA JUAN CARRASCO MAZATLAN SIN., MX","FM-12","99999","V020","280,1,N,0020,1","22000,1,9,N","016000,1,N,1","+0236,1","+0197,1","10142,1","06,0000,9,1",,,,,,"00,1,+99999,9,99,9",,,"00,99,1,00,1,00,1,99999,9,00,1,00,1",,"01,9",,,,"99999,9,10137,1","2,1,029,1,+018,1",,,"SYN082AAXX  18031 76458 32966 02802 10236 20197 30137 40142 52029 90245 333 30/// 58018;","Q01  00002PRCP06"
"76458099999","2003-02-18T12:00:00","4","23.2","-106.4166666","4.0","COLONIA JUAN CARRASCO MAZATLAN SIN., MX","FM-12","99999","V020","090,1,N,0010,1","22000,1,9,N","008000,1,N,1","+0214,1","+0199,1","10155,1","06,0000,9,1",,,,,,"00,1,+99999,9,99,9",,,"00,99,1,00,1,00,1,99999,9,00,1,00,1",,"01,9","999,+0180,9","999,M,+0280,1","120,N,+0190,1","99999,9,10146,1","2,1,001,1,+035,1",,,"SYN094AAXX  18121 76458 32958 00901 10214 20199 30146 40155 52001 91135 333 10280 20190 30018 58035;","Q01  00002PRCP06"
"76458099999","2003-02-18T15:00:00","4","23.2","-106.4166666","4.0","COLONIA JUAN CARRASCO MAZATLAN SIN., MX","FM-12","99999","V020","110,1,N,0030,1","22000,1,9,N","018000,1,N,1","+0217,1","+0198,1","10159,1","06,0000,9,1",,,,,,"00,1,+99999,9,99,9",,,"00,99,1,00,1,00,1,99999,9,00,1,00,1",,"01,9",,,,"99999,9,10154,1","2,1,008,1,+020,1",,,"SYN082AAXX  18151 76458 32968 01103 10217 20198 30154 40159 52008 91447 333 30/// 58020;","Q01  00002PRCP06"
"76458099999","2003-02-18T21:00:00","4","23.2","-106.4166666","4.0","COLONIA JUAN CARRASCO MAZATLAN SIN., MX","FM-12","99999","V020","260,1,N,0030,1","22000,1,9,N","020000,1,N,1","+0262,1","+0212,1","10157,1","06,0000,9,1",,,,,,"01,1,+00630,9,06,9",,,"01,99,1,01,1,04,1,00800,1,00,1,00,1",,"01,9",,,,"99999,9,10152,1","7,1,008,1,+010,1",,,"SYN100AAXX  18211 76458 32570 12603 10262 20212 30152 40157 57008 81400 92050 333 30/// 56500 58010 81621;","Q01  00002PRCP06"
"76458099999","2003-02-19T00:00:00","4","23.2","-106.4166666","4.0","COLONIA JUAN CARRASCO MAZATLAN SIN., MX","FM-12","99999","V020","280,1,N,0020,1","22000,1,9,N","020000,1,N,1","+0252,1","+0204,1","10146,1","06,0000,9,1","24,0000,9,1",,,,,,,,"02,99,1,99,9,04,1,00800,1,00,1,00,1",,"01,9",,"120,M,+0281,1","180,N,+0180,1","99999,9,10141,1","6,1,011,1,+033,1",,,"SYN124AAXX  19001 76458 32570 22802 10252 20204 30141 40146 56011 81400 92350 333 10281 20180 30/// 50381 56600 58033 70000 82620;","Q01+000012SCOTLCQ02  00002PRCP06"
"76458099999","2003-02-19T03:00:00","4","23.2","-106.4166666","4.0","COLONIA JUAN CARRASCO MAZATLAN SIN., MX","FM-12","99999","V020","320,1,N,0020,1","22000,1,9,N","012000,1,N,1","+0236,1","+0195,1","10157,1","06,0000,9,1",,,,,,"03,1,+00510,9,08,9",,,"03,99,1,03,1,01,1,00450,1,00,1,00,1",,"01,9",,,,"99999,9,10152,1","2,1,011,1,+015,1",,,"SYN100AAXX  19031 76458 32462 33202 10236 20195 30152 40157 52011 83100 90250 333 30/// 560// 58015 83817;","Q01  00002PRCP06"
"76458099999","2003-02-19T06:00:00","4","23.2","-106.4166666","4.0","COLONIA JUAN CARRASCO MAZATLAN SIN., MX","FM-12","99999","V020","340,1,N,0020,1","22000,1,9,N","010000,1,N,1","+0220,1","+0191,1","10161,1","06,0000,9,1",,,,,,"00,1,+99999,9,99,9",,,"00,99,1,00,1,00,1,99999,9,00,1,00,1","0630,9","01,9",,"240,M,+0282,1","240,N,+0182,1","99999,9,10156,1","2,1,004,1,+999,9",,,"SYN106AAXX  19061 76458 32960 03402 10220 20191 30156 40161 52004 90540 333 10282 20182 30/// 55105 21392 58009;","Q01  00002PRCP06"
"76458099999","2003-02-19T12:00:00","4","23.2","-106.4166666","4.0","COLONIA JUAN CARRASCO MAZATLAN SIN., MX","FM-12","99999","V020","999,9,C,0000,1","22000,1,9,N","010000,1,N,1","+0200,1","+0188,1","10147,1","06,0000,9,1","24,0000,9,1",,,,,"00,1,+99999,9,99,9",,,"00,99,1,00,1,00,1,99999,9,00,1,00,1",,"01,9","999,+0170,9","999,M,+0281,1","120,N,+0180,1","99999,9,10142,1","7,1,007,1,+999,9",,,"SYN100AAXX  19121 76458 32960 00000 10200 20188 30142 40147 57007 91135 333 10281 20180 30017 70000 59004;","Q01  00002PRCP06"
"76458099999","2003-02-19T15:00:00","4","23.2","-106.4166666","4.0","COLONIA JUAN CARRASCO MAZATLAN SIN., MX","FM-12","99999","V020","340,1,N,0020,1","22000,1,9,N","010000,1,N,1","+0214,1","+0190,1","10160,1","06,0000,9,1",,,,"4,1,03,1","1,1,03,1","03,1,+00300,9,08,9",,,"04,99,1,03,1,02,1,00450,1,03,1,00,1",,"01,9",,,,"99999,9,10156,1","1,1,014,1,+002,1","05,1",,"SYN112AAXX  19151 76458 31460 43402 10214 20190 30156 40160 51014 70541 83230 91450 333 30/// 566/0 58002 83810 81358;","Q01  00002PRCP06"
"76458099999","2003-02-19T21:00:00","4","23.2","-106.4166666","4.0","COLONIA JUAN CARRASCO MAZATLAN SIN., MX","FM-12","99999","V020","270,1,N,0020,1","22000,1,9,N","020000,1,N,1","+0254,1","+0184,1","10152,1","06,0000,9,1",,,,,,"01,1,+00870,9,08,9",,,"01,99,1,01,1,01,1,00800,1,00,1,00,1",,"01,9",,,,"99999,9,10147,1","7,1,011,1,-005,1",,,"SYN100AAXX  19211 76458 32570 12702 10254 20184 30147 40152 57011 81100 92050 333 30/// 566// 59005 81829;","Q01  00002PRCP06"
"76458099999","2003-02-20T00:00:00","4","23.2","-106.4166666","4.0","COLONIA JUAN CARRASCO MAZATLAN SIN., MX","FM-12","99999","V020","260,1,N,0020,1","22000,1,9,N","020000,1,N,1","+0252,1","+0180,1","10147,1","06,0000,9,1","24,0000,9,1",,,,,,,,"01,99,1,01,1,01,1,00800,1,00,1,00,1",,"01,9",,"120,M,+0273,1","180,N,+0178,1","99999,9,10143,1","5,1,004,1,+002,1",,,"SYN124AAXX  20001 76458 32570 12602 10252 20180 30143 40147 55004 81100 92345 333 10273 20178 30/// 50341 556// 58002 70000 81830;","Q01  00002PRCP06"
"76458099999","2003-02-20T03:00:00","4","23.2","-106.4166666","4.0","COLONIA JUAN CARRASCO MAZATLAN SIN., MX","FM-12","99999","V020","220,1,N,0020,1","22000,1,9,N","016000,1,N,1","+0231,1","+0179,1","10151,1","06,0000,9,1",,,,,,"02,1,+00660,9,06,9",,,"02,99,1,02,1,04,1,00800,1,00,1,00,1",,"01,9",,,,"99999,9,10147,1","2,1,004,1,-005,1",,,"SYN100AAXX  20031 76458 32566 22202 10231 20179 30147 40151 52004 82400 90245 333 30/// 56500 59005 82622;","Q01  00002PRCP06"
"76458099999","2003-02-20T06:00:00","4","23.2","-106.4166666","4.0","COLONIA JUAN CARRASCO MAZATLAN SIN., MX","FM-12","99999","V020","160,1,N,0020,1","00750,1,9,N","016000,1,N,1","+0230,1","+0178,1","10154,1","06,0000,9,1",,,,,,,,,"07,99,1,07,1,04,1,00800,1,00,1,00,1","0600,9","01,9",,"240,M,+0273,1","240,N,+0178,1","99999,9,10150,1","1,1,003,1,-007,1",,,"SYN124AAXX  20061 76458 32566 71602 10230 20178 30150 40154 51003 87400 90545 333 10273 20178 30/// 55100 21014 56400 59007 87622;","Q01  00002PRCP06"
"76458099999","2003-02-20T12:00:00","4","23.2","-106.4166666","4.0","COLONIA JUAN CARRASCO MAZATLAN SIN., MX","FM-12","99999","V020","999,9,C,0000,1","00450,1,9,N","010000,1,N,1","+0214,1","+0178,1","10130,1","06,0000,9,1","24,0000,9,1",,,,,"07,1,+00450,9,06,9",,,"07,99,1,07,1,04,1,00450,1,00,1,00,1",,"01,9","999,+0180,9","999,M,+0273,1","120,N,+0190,1","99999,9,10126,1","7,1,009,1,-016,1",,,"SYN118AAXX  20121 76458 32460 70000 10214 20178 30126 40130 57009 87400 91138 333 10273 20190 30018 56900 59016 70000 87615;","Q01  00002PRCP06"
"76458099999","2003-02-20T15:00:00","4","23.2","-106.4166666","4.0","COLONIA JUAN CARRASCO MAZATLAN SIN., MX","FM-12","99999","V020","120,1,N,0030,1","03600,1,C,N","018000,1,N,1","+0220,1","+0181,1","10147,1","06,0000,9,1",,,,,,"01,1,+00480,9,06,9","03,1,+03600,9,03,9",,"06,99,1,01,1,01,1,00450,1,03,1,09,1",,"01,9",,,,"99999,9,10142,1","2,1,016,1,-013,1",,,"SYN112AAXX  20151 76458 32468 61203 10220 20181 30142 40147 52016 81139 91445 333 30/// 56999 59013 81616 83362 82170;","Q01  00002PRCP06"
"76458099999","2003-02-20T21:00:00","4","23.2","-106.4166666","4.0","COLONIA JUAN CARRASCO MAZATLAN SIN., MX","FM-12","99999","V020","210,1,N,0020,1","22000,1,9,N","020000,1,N,1","+0260,1","+0160,1","10147,1","06,0000,9,1",,,,,,"01,1,+00840,9,08,9",,,"03,99,1,01,1,02,1,00800,1,06,1,99,9",,"01,9",,,,"99999,9,10143,1","5,1,007,1,-004,1",,,"SYN106AAXX  20211 76458 32570 32102 10260 20160 30143 40147 55007 8126/ 92050 333 30/// 5600/ 59004 81828 82358;","Q01  00002PRCP06"
"76458099999","2003-02-21T00:00:00","4","23.2","-106.4166666","4.0","COLONIA JUAN CARRASCO MAZATLAN SIN., MX","FM-12","99999","V020","230,1,N,0030,1","22000,1,9,N","020000,1,N,1","+0252,1","+0175,1","10129,1","06,0000,9,1","24,0000,9,1",,,,,,,,"01,99,1,01,1,02,1,00800,1,00,1,00,1",,"01,9",,"120,M,+0278,1","180,N,+0185,1","99999,9,10125,1","5,1,018,1,-018,1",,,"SYN124AAXX  21001 76458 32570 12303 10252 20175 30125 40129 55018 81200 92340 333 10278 20185 30/// 50263 560// 59018 70000 81832;","Q01  00002PRCP06"
"76458099999","2003-02-21T06:00:00","4","23.2","-106.4166666","4.0","COLONIA JUAN CARRASCO MAZATLAN SIN., MX","FM-12","99999","V020","180,1,N,0010,1","22000,1,9,N","016000,1,N,1","+0224,1","+0160,1","10134,1","06,0000,9,1",,,,,,,,,"01,99,1,01,1,04,1,00800,1,00,1,00,1","0456,9","01,9",,"240,M,+0278,1","240,N,+0184,1","99999,9,10130,1","0,1,002,1,-020,1",,,"SYN124AAXX  21061 76458 32566 11801 10224 20160 30130 40134 50002 81400 90545 333 10278 20184 30/// 55076 20983 56400 59020 81627;","Q01  00002PRCP06"
"76458099999","2003-02-21T12:00:00","4","23.2","-106.4166666","4.0","COLONIA JUAN CARRASCO MAZATLAN SIN., MX","FM-12","99999","V020","210,1,N,0010,1","22000,1,9,N","010000,1,N,1","+0218,1","+0165,1","10120,1","06,0000,9,1","24,0000,9,1",,,,,"01,1,+00660,9,06,9",,,"01,99,1,01,1,04,1,00800,1,00,1,00,1",,"01,9","999,+0180,9","999,M,+0278,1","120,N,+0190,1","99999,9,10115,1","7,1,003,1,-011,1",,,"SYN118AAXX  21121 76458 32560 12101 10218 20165 30115 40120 57003 81400 91138 333 10278 20190 30018 56400 59011 70000 81622;","Q01  00002PRCP06"
"76458099999","2003-02-21T15:00:00","4","23.2","-106.4166666","4.0","COLONIA JUAN CARRASCO MAZATLAN SIN., MX","FM-12","99999","V020","330,1,N,0020,1","22000,1,9,N","018000,1,N,1","+0212,1","+0145,1","10136,1","06,0000,9,1",,,,,,"02,1,+00840,9,08,9",,,"02,99,1,02,1,02,1,00800,1,00,1,00,1",,"01,9",,,,"99999,9,10131,1","2,1,016,1,-011,1",,,"SYN100AAXX  21151 76458 32568 23302 10212 20145 30131 40136 52016 82200 91455 333 30/// 565// 59011 82828;","Q01  00002PRCP06"
"76458099999","2003-02-22T18:00:00","4","23.2","-106.4166666","4.0","COLONIA JUAN CARRASCO MAZATLAN SIN., MX","FM-12","99999","V020","240,1,N,0030,1","22000,1,9,N","020000,1,N,1","+0222,1","+0122,1","10125,1","06,0000,9,1",,,,,,"00,1,+99999,9,99,9",,,"00,99,1,00,1,00,1,99999,9,00,1,00,1",,"01,9",,"120,M,+0250,1","240,N,+0128,1","99999,9,10121,1","1,1,006,1,-015,1",,,"SYN094AAXX  22181 76458 32970 02403 10222 20122 30121 40125 51006 91742 333 10250 20128 30/// 59015;","Q01  00002PRCP06"
"76458099999","2003-02-24T03:00:00","4","23.2","-106.4166666","4.0","COLONIA JUAN CARRASCO MAZATLAN SIN., MX","FM-12","99999","V020","340,1,N,0020,1","22000,1,9,N","016000,1,N,1","+0222,1","+0154,1","10121,1","06,0000,9,1",,,,,,"00,1,+99999,9,99,9",,,"00,99,1,00,1,00,1,99999,9,00,1,00,1",,"01,9",,,,"99999,9,10117,1","2,1,010,1,+024,1",,,"SYN082AAXX  24031 76458 32966 03402 10222 20154 30117 40121 52010 90250 333 30/// 58024;","Q01  00002PRCP06"
"76458099999","2003-02-25T03:00:00","4","23.2","-106.4166666","4.0","COLONIA JUAN CARRASCO MAZATLAN SIN., MX","FM-12","99999","V020","320,1,N,0020,1","22000,1,9,N","016000,1,N,1","+0225,1","+0182,1","10154,1","06,0000,9,1",,,,,,"01,1,+03300,9,03,9",,,"01,99,1,01,1,00,1,99999,9,03,1,00,1",,"01,9",,,,"99999,9,10146,1","5,1,002,1,+029,1",,,"SYN100AAXX  25031 76458 32966 13202 10225 20182 30146 40154 55002 81030 90255 333 30/// 56090 58029 81361;","Q01  00002PRCP06"
"76458099999","2003-02-25T15:00:00","4","23.2","-106.4166666","4.0","COLONIA JUAN CARRASCO MAZATLAN SIN., MX","FM-12","99999","V020","999,9,C,0000,1","03600,1,9,N","018000,1,N,1","+0196,1","+0164,1","10164,1","06,0000,9,1",,,,,,"08,1,+03600,9,04,9",,,"08,99,1,08,1,00,1,02250,1,02,1,00,1",,"01,9",,,,"99999,9,10159,1","2,1,013,1,-012,1",,,"SYN100AAXX  25151 76458 32868 80000 10196 20164 30159 40164 52013 88020 91440 333 30/// 56/9/ 59012 88462;","Q01  00002PRCP06"
"76458099999","2003-02-25T21:00:00","4","23.2","-106.4166666","4.0","COLONIA JUAN CARRASCO MAZATLAN SIN., MX","FM-12","99999","V020","280,1,N,0040,1","03300,1,9,N","020000,1,N,1","+0244,1","+0162,1","10163,1","06,0000,9,1",,,,,,"01,1,+01020,9,08,9","04,1,+03300,9,03,9",,"07,99,1,01,1,02,1,01250,1,05,1,06,1",,"01,9",,,,"99999,9,10158,1","7,1,007,1,+000,1",,,"SYN112AAXX  25211 76458 32670 72804 10244 20162 30158 40163 57007 81256 92100 333 30/// 56149 59000 81834 84361 82079;","Q01  00002PRCP06"
"76458099999","2003-02-26T03:00:00","4","23.2","-106.4166666","4.0","COLONIA JUAN CARRASCO MAZATLAN SIN., MX","FM-12","99999","V020","290,1,N,0030,1","22000,1,9,N","010000,1,N,1","+0224,1","+0160,1","10153,1","06,0000,9,1",,,,,,"01,1,+02400,9,03,9",,,"02,99,1,01,1,00,1,00800,1,05,1,05,1",,"01,9",,,,"99999,9,10149,1","2,1,005,1,+003,1",,,"SYN106AAXX  26031 76458 32560 22903 10224 20160 30149 40153 52005 81055 90245 333 30/// 56/00 58003 81358 81070;","Q01  00002PRCP06"
"76458099999","2003-02-27T03:00:00","4","23.2","-106.4166666","4.0","COLONIA JUAN CARRASCO MAZATLAN SIN., MX","FM-12","99999","V020","999,9,9,9999,9","99999,9,9,N","999999,9,N,1","+9999,9","+9999,9","99999,9",,,,,,,,,,,,,,,,,,,,"SYN093AAXX  27031 76458 3296 63202 10217 20162 30126 40130 52007 90245 333 30/// 56090 59023 86464;",
"76458099999","2003-02-28T03:00:00","4","23.2","-106.4166666","4.0","COLONIA JUAN CARRASCO MAZATLAN SIN., MX","FM-12","99999","V020","310,1,N,0010,1","22000,1,9,N","016000,1,N,1","+0212,1","+0135,1","10138,1","06,0000,9,1",,,,,,"00,1,+99999,9,99,9",,,"00,99,1,00,1,00,1,99999,9,00,1,00,1",,"01,9",,,,"99999,9,10134,1","2,1,008,1,+008,1",,,"SYN082AAXX  28031 76458 32966 03101 10212 20135 30134 40138 52008 90258 333 30/// 58008;","Q01  00002PRCP06"
"76458099999","2003-03-01T03:00:00","4","23.2","-106.4166666","4.0","COLONIA JUAN CARRASCO MAZATLAN SIN., MX","FM-12","99999","V020","310,1,N,0010,1","22000,1,9,N","010000,1,N,1","+0210,1","+0154,1","10127,1","06,0000,9,1",,,,,,"02,1,+05400,9,02,9",,,"02,99,1,00,1,00,1,99999,9,00,1,08,1",,"01,9",,,,"99999,9,10122,1","3,1,009,1,-012,1",,,"SYN100AAXX  01031 76458 32960 23101 10210 20154 30122 40127 53009 80008 90250 333 30/// 56//9 59012 82268;","Q01  00002PRCP06"
"76458099999","2003-03-01T15:00:00","4","23.2","-106.4166666","4.0","COLONIA JUAN CARRASCO MAZATLAN SIN., MX","FM-12","99999","V020","030,1,N,0020,1","99999,9,9,N","012000,1,N,1","+0180,1","+0121,1","10143,1","06,0000,9,1",,,,,,"03,1,+02400,9,03,9",,,"06,99,1,03,1,00,1,99999,9,03,1,06,1",,"01,9",,,,"99999,9,10138,1","9,9,999,9,+008,1",,,"SYN106AAXX  01151 76458 32962 60302 10180 20121 30138 40143 5//// 83036 91755 333 30/// 560// 58008 83358 83270;","Q01  00002PRCP06"
"76458099999","2003-03-02T12:00:00","4","23.2","-106.4166666","4.0","COLONIA JUAN CARRASCO MAZATLAN SIN., MX","FM-12","99999","V020","999,9,C,0000,1","22000,1,9,N","012000,1,N,1","+0160,1","+0107,1","10130,1","06,0000,9,1","24,0000,9,1",,,,,"03,1,+03300,9,03,9",,,"03,99,1,03,1,00,1,99999,9,03,1,00,1",,"01,9","999,+0110,9","999,M,+0248,1","120,N,+0133,1","99999,9,10126,1","7,1,006,1,+015,1",,,"SYN118AAXX  02121 76458 32962 30000 10160 20107 30126 40130 57006 83030 91140 333 10248 20133 30011 56090 58015 70000 83361;","Q01  00002PRCP06"
"76458099999","2003-03-02T15:00:00","4","23.2","-106.4166666","4.0","COLONIA JUAN CARRASCO MAZATLAN SIN., MX","FM-12","99999","V020","999,9,C,0000,1","22000,1,9,N","009000,1,N,1","+0166,1","+0104,1","10142,1","06,0000,9,1",,,,,,"00,1,+99999,9,99,9",,,"00,99,1,00,1,00,1,99999,9,00,1,00,1",,"01,9",,,,"99999,9,10138,1","3,1,012,1,+000,1",,,"SYN082AAXX  02150 76458 32959 00000 10166 20104 30138 40142 53012 91450 333 30/// 58000;","Q01  00002PRCP06"
"76458099999","2003-03-02T18:00:00","4","23.2","-106.4166666","4.0","COLONIA JUAN CARRASCO MAZATLAN SIN., MX","FM-12","99999","V020","290,1,N,0040,1","22000,1,9,N","020000,1,N,1","+0222,1","+0122,1","10151,1","06,0000,9,1",,,,,,"00,1,+99999,9,99,9",,,"00,99,1,00,1,00,1,99999,9,00,1,00,1",,"01,9",,"120,M,+0237,1","240,N,+0128,1","99999,9,10147,1","2,1,009,1,+006,1",,,"SYN094AAXX  02181 76458 32970 02904 10222 20122 30147 40151 52009 91745 333 10237 20128 30/// 58006;","Q01  00002PRCP06"
"76458099999","2003-03-03T00:00:00","4","23.2","-106.4166666","4.0","COLONIA JUAN CARRASCO MAZATLAN SIN., MX","FM-12","99999","V020","280,1,N,0030,1","22000,1,9,N","020000,1,N,1","+0232,1","+0151,1","10106,1","06,0000,9,1",,,,,,"00,1,+99999,9,99,9",,,"00,99,1,00,1,00,1,99999,9,00,1,00,1",,"01,9",,"120,M,+9999,9","180,N,+0128,1","99999,9,10101,1","7,1,012,1,-001,1",,,"SYN100AAXX  03001 76458 32970 02803 10232 20151 30101 40106 57012 92335 333 10225 20128 30/// 53571 59001;","Q01  00002PRCP06Q02 +02252ATMX  "
"76458099999","2003-03-03T09:00:00","4","23.2","-106.4166666","4.0","COLONIA JUAN CARRASCO MAZATLAN SIN., MX","FM-12","99999","V020","330,1,N,0010,1","22000,1,9,N","012000,1,N,1","+0173,1","+0106,1","10121,1","06,0000,9,1",,,,,,"00,1,+99999,9,99,9",,,"00,99,1,00,1,00,1,99999,9,00,1,00,1",,"01,9",,,,"99999,9,10117,1","7,1,003,1,-015,1",,,"SYN082AAXX  03091 76458 32962 03301 10173 20106 30117 40121 57003 90840 333 30/// 59015;","Q01  00002PRCP06"
"76458099999","2003-03-03T12:00:00","4","23.2","-106.4166666","4.0","COLONIA JUAN CARRASCO MAZATLAN SIN., MX","FM-12","99999","V020","999,9,C,0000,1","22000,1,9,N","012000,1,N,1","+0154,1","+0113,1","10119,1","06,0000,9,1","24,0000,9,1",,,,,"00,1,+99999,9,99,9",,,"00,99,1,00,1,00,1,99999,9,00,1,00,1",,"01,9","999,+0100,9","999,M,+0253,1","120,N,+0123,1","99999,9,10114,1","7,1,003,1,-011,1",,,"SYN100AAXX  03121 76458 32962 00000 10154 20113 30114 40119 57003 91140 333 10253 20123 30010 59011 70000;","Q01  00002PRCP06Q02  00002PRCP24"
"76458099999","2003-03-03T15:00:00","4","23.2","-106.4166666","4.0","COLONIA JUAN CARRASCO MAZATLAN SIN., MX","FM-12","99999","V020","070,1,N,0010,1","22000,1,9,N","013000,1,N,1","+0180,1","+0123,1","10120,1","06,0000,9,1",,,,,,"03,1,+06000,9,00,9",,,"03,99,1,00,1,00,1,99999,9,00,1,02,1",,"01,9",,,,"99999,9,10115,1","1,1,002,1,-023,1",,,"SYN100AAXX  03151 76458 32963 30701 10180 20123 30115 40120 51002 80002 91455 333 30/// 5600/ 59023 83070;","Q01  00002PRCP06"
"76458099999","2003-03-03T18:00:00","4","23.2","-106.4166666","4.0","COLONIA JUAN CARRASCO MAZATLAN SIN., MX","FM-12","99999","V020","270,1,N,0040,1","22000,1,9,N","018000,1,N,1","+0216,1","+0139,1","10131,1","06,0000,9,1",,,,,,"04,1,+06000,9,00,9",,,"04,99,1,00,1,00,1,99999,9,00,1,02,1",,"01,9",,"120,M,+0235,1","240,N,+0130,1","99999,9,10127,1","1,1,012,1,-020,1",,,"SYN112AAXX  03181 76458 32968 42704 10216 20139 30127 40131 51012 80002 91755 333 10235 20130 30/// 5600/ 59020 84070;","Q01  00002PRCP06"
"76458099999","2003-03-03T21:00:00","4","23.2","-106.4166666","4.0","COLONIA JUAN CARRASCO MAZATLAN SIN., MX","FM-12","99999","V020","280,1,N,0040,1","06600,1,9,N","020000,1,N,1","+0235,1","+0135,1","10099,1","06,0000,9,1",,,,,,"05,1,+06600,9,00,9",,,"05,99,1,00,1,00,1,99999,9,00,1,06,1",,"01,9",,,,"99999,9,10094,1","7,1,033,1,-013,1",,,"SYN100AAXX  03211 76458 32970 52804 10235 20135 30094 40099 57033 80006 92050 333 30/// 56009 59013 85072;","Q01  00002PRCP06"
"76458099999","2003-03-04T00:00:00","4","23.2","-106.4166666","4.0","COLONIA JUAN CARRASCO MAZATLAN SIN., MX","FM-12","99999","V020","290,1,N,0040,1","22000,1,9,N","020000,1,N,1","+0236,1","+0132,1","10086,1","06,0000,9,1",,,,,,"04,1,+06600,9,00,9",,,"04,99,1,00,1,00,1,99999,9,00,1,06,1",,"01,9",,"120,M,+0256,1","180,N,+0120,1","99999,9,10081,1","7,1,013,1,-020,1",,,"SYN112AAXX  04001 76458 32970 42904 10236 20132 30081 40086 57013 80006 92350 333 10256 20120 30/// 54541 59020 84072;","Q01  00002PRCP06"
"76458099999","2003-03-04T03:00:00","4","23.2","-106.4166666","4.0","COLONIA JUAN CARRASCO MAZATLAN SIN., MX","FM-12","99999","V020","310,1,N,0020,1","22000,1,9,N","008000,1,N,1","+0204,1","+0151,1","10102,1","06,0000,9,1",,,,,,"00,1,+99999,9,99,9",,,"00,99,1,00,1,00,1,99999,9,00,1,00,1",,"01,9",,,,"99999,9,10097,1","2,1,016,1,-009,1",,,"SYN082AAXX  04031 76458 32958 03102 10204 20151 30097 40102 52016 90245 333 30/// 59009;","Q01  00002PRCP06"
"76458099999","2003-03-04T09:00:00","4","23.2","-106.4166666","4.0","COLONIA JUAN CARRASCO MAZATLAN SIN., MX","FM-12","99999","V020","999,9,C,0000,1","22000,1,9,N","012000,1,N,1","+0163,1","+0125,1","10110,1","06,0000,9,1",,,,,,"00,1,+99999,9,99,9",,,"00,99,1,00,1,00,1,99999,9,00,1,00,1",,"01,9",,,,"99999,9,10106,1","8,1,005,1,-011,1",,,"SYN082AAXX  04091 76458 32962 00000 10163 20125 30106 40110 58005 90848 333 30/// 59011;","Q01  00002PRCP06"
"76458099999","2003-03-04T12:00:00","4","23.2","-106.4166666","4.0","COLONIA JUAN CARRASCO MAZATLAN SIN., MX","FM-12","99999","V020","330,1,N,0010,1","22000,1,9,N","012000,1,N,1","+0152,1","+0112,1","10107,1","06,0000,9,1","24,0000,9,1",,,,,"00,1,+99999,9,99,9",,,"00,99,1,00,1,00,1,99999,9,00,1,00,1",,"01,9","999,+0110,9","999,M,+0254,1","120,N,+0130,1","99999,9,10102,1","4,1,000,1,-012,1",,,"SYN100AAXX  04121 76458 32962 03301 10152 20112 30102 40107 54004 91152 333 10254 20130 30011 59012 70000;","Q01  00002PRCP06Q02  00002PRCP24"
"76458099999","2003-03-04T15:00:00","4","23.2","-106.4166666","4.0","COLONIA JUAN CARRASCO MAZATLAN SIN., MX","FM-12","99999","V020","100,1,N,0010,1","22000,1,9,N","013000,1,N,1","+0187,1","+0124,1","10113,1","06,0000,9,1",,,,,,"03,1,+06000,9,00,9",,,"03,99,1,00,1,00,1,99999,9,00,1,03,1",,"01,9",,,,"99999,9,10109,1","1,1,007,1,-006,1",,,"SYN100AAXX  04151 76458 32963 31001 10187 20124 30109 40113 51007 80003 91447 333 30/// 5600/ 59006 83070;","Q01  00002PRCP06"
"76458099999","2003-03-04T18:00:00","4","23.2","-106.4166666","4.0","COLONIA JUAN CARRASCO MAZATLAN SIN., MX","FM-12","99999","V020","270,1,N,0030,1","22000,1,9,N","020000,1,N,1","+0216,1","+0146,1","10125,1","06,0000,9,1",,,,,,"01,1,+02400,9,03,9",,,"03,99,1,01,1,00,1,99999,9,03,1,03,1",,"01,9",,"120,M,+0240,1","240,N,+0120,1","99999,9,10120,1","1,1,011,1,-007,1",,,"SYN118AAXX  04181 76458 32970 32703 10216 20146 30120 40125 51011 81033 91740 333 10240 20120 30/// 560// 59007 81358 82070;","Q01  00002PRCP06"
"76458099999","2003-03-04T21:00:00","4","23.2","-106.4166666","4.0","COLONIA JUAN CARRASCO MAZATLAN SIN., MX","FM-12","99999","V020","270,1,N,0040,1","02400,1,9,N","020000,1,N,1","+0236,1","+0149,1","10111,1","06,0000,9,1",,,,,,"05,1,+02400,9,03,9",,,"05,99,1,99,9,00,1,99999,9,03,1,00,1",,"01,9",,,,"99999,9,10106,1","7,1,014,1,+012,1",,,"SYN100AAXX  04211 76458 32970 52704 10236 20149 30106 40111 57014 80030 92048 333 30/// 56090 58012 85358;","Q01+000002SCOTLCQ02  00002PRCP06"
"76458099999","2003-03-05T00:00:00","4","23.2","-106.4166666","4.0","COLONIA JUAN CARRASCO MAZATLAN SIN., MX","FM-12","99999","V020","300,1,N,0020,1","99999,9,9,N","020000,1,N,1","+0230,1","+0138,1","10100,1","06,0000,9,1",,,,,,,,,"06,99,1,99,9,00,1,99999,9,03,1,00,1",,"01,9",,"120,M,+0261,1","180,N,+0120,1","99999,9,10096,1","7,1,010,1,+015,1",,,"SYN118AAXX  05001 76458 32970 63002 10230 20138 30096 40100 57010 80030 92342 333 10261 20120 30/// 53691 56090 58015 86358;","Q01+000002SCOTLCQ02  00002PRCP06"
"76458099999","2003-03-05T03:00:00","4","23.2","-106.4166666","4.0","COLONIA JUAN CARRASCO MAZATLAN SIN., MX","FM-12","99999","V020","310,1,N,0020,1","22000,1,9,N","010000,1,N,1","+0210,1","+0161,1","10107,1","06,0000,9,1",,,,,,"01,1,+03600,9,03,9",,,"01,99,1,01,1,00,1,02250,1,03,1,00,1",,"01,9",,,,"99999,9,10102,1","2,1,006,1,+005,1",,,"SYN100AAXX  05031 76458 32860 13102 10210 20161 30102 40107 52006 81030 90245 333 30/// 56/9/ 58005 81362;","Q01  00002PRCP06"
"76458099999","2003-03-05T06:00:00","4","23.2","-106.4166666","4.0","COLONIA JUAN CARRASCO MAZATLAN SIN., MX","FM-12","99999","V020","310,1,N,0020,1","22000,1,9,N","010000,1,N,1","+0198,1","+0162,1","10109,1","06,0000,9,1",,,,,,"00,1,+99999,9,99,9",,,"00,99,1,00,1,00,1,99999,9,00,1,00,1","0534,9","01,9",,"240,M,+0261,1","240,N,+0120,1","99999,9,10105,1","2,1,003,1,+999,9",,,"SYN106AAXX  05061 76458 32960 03102 10198 20162 30105 40109 52003 90530 333 10261 20120 30/// 55089 21354 59006;","Q01  00002PRCP06"
"76458099999","2003-03-05T09:00:00","4","23.2","-106.4166666","4.0","COLONIA JUAN CARRASCO MAZATLAN SIN., MX","FM-12","99999","V020","300,1,N,0010,1","22000,1,9,N","012000,1,N,1","+0169,1","+0134,1","10107,1","06,0000,9,1",,,,,,"00,1,+99999,9,99,9",,,"00,99,1,00,1,00,1,99999,9,00,1,00,1",,"01,9",,,,"99999,9,10102,1","0,1,003,1,-003,1",,,"SYN082AAXX  05091 76458 32962 03001 10169 20134 30102 40107 50003 90850 333 30/// 59003;","Q01  00002PRCP06"
"76458099999","2003-03-05T12:00:00","4","23.2","-106.4166666","4.0","COLONIA JUAN CARRASCO MAZATLAN SIN., MX","FM-12","99999","V020","330,1,N,0010,1","22000,1,9,N","012000,1,N,1","+0162,1","+0111,1","10104,1","06,0000,9,1","24,0000,9,1",,,,,"00,1,+99999,9,99,9",,,"00,99,1,00,1,00,1,99999,9,00,1,00,1",,"01,9","999,+0120,9","999,M,+0205,1","120,N,+0141,1","99999,9,10099,1","7,1,003,1,-003,1",,,"SYN100AAXX  05121 76458 32962 03301 10162 20111 30099 40104 57003 91200 333 10205 20141 30012 59003 70000;","Q01  00002PRCP06Q02  00002PRCP24"
"76458099999","2003-03-05T15:00:00","4","23.2","-106.4166666","4.0","COLONIA JUAN CARRASCO MAZATLAN SIN., MX","FM-12","99999","V020","030,1,N,0010,1","09000,1,C,N","020000,1,N,1","+0180,1","+0131,1","10113,1","06,0000,9,1",,,,,,"02,1,+01800,9,03,9",,,"07,99,1,02,1,00,1,02250,1,03,1,06,1",,"01,9",,,,"99999,9,10109,1","2,1,010,1,+000,1",,,"SYN100AAXX  05151 76458 32870 70301 10180 20131 30109 40113 52010 82036 91445 333 30/// 58000 82356 85070;","Q01  00002PRCP06"
"76458099999","2003-03-05T18:00:00","4","23.2","-106.4166666","4.0","COLONIA JUAN CARRASCO MAZATLAN SIN., MX","FM-12","99999","V020","270,1,N,0050,1","99999,9,9,N","020000,1,N,1","+0216,1","+0161,1","99999,9","06,0000,9,1",,,,,,"03,1,+01800,9,03,9",,,"07,99,1,99,9,99,9,99999,9,99,9,99,9",,"01,9",,"120,M,+0245,1","240,N,+0144,1",,"9,9,999,9,+002,1",,,"SYN112AAXX  05181 76458 32970 72705 10216 20161 01445 30122 40127 51013 83/36 333 10245 20144 30/// 58002 83356 84070;","Q01  00002PRCP06"
"76458099999","2003-03-06T15:00:00","4","23.2","-106.4166666","4.0","COLONIA JUAN CARRASCO MAZATLAN SIN., MX","FM-12","99999","V020","360,1,N,0010,1","22000,1,9,N","020000,1,N,1","+0174,1","+0114,1","10125,1","06,0000,9,1",,,,,,"02,1,+06000,9,00,9",,,"02,99,1,00,1,99,9,99999,9,99,9,03,1",,"01,9",,,,"99999,9,10120,1","2,1,011,1,+016,1",,,"SYN094AAXX  06151 76458 32970 23601 10174 20114 30120 40125 52011 80//3 91445 333 30/// 58016 82070;","Q01  00002PRCP06"
"76458099999","2003-03-08T00:00:00","4","23.2","-106.4166666","4.0","COLONIA JUAN CARRASCO MAZATLAN SIN., MX","FM-12","99999","V020","280,1,N,0020,1","22000,1,9,N","020000,1,N,1","+0236,1","+0145,1","10099,1","06,0000,9,1","24,0000,9,1",,,,,"00,1,+99999,9,99,9",,,"00,99,1,00,1,00,1,99999,9,00,1,00,1",,"01,9",,"120,M,+0250,1","180,N,+0113,1","99999,9,10095,1","7,1,011,1,+002,1",,,"SYN106AAXX  08001 76458 32970 02802 10236 20145 30095 40099 57011 92345 333 10250 20113 30/// 53551 58002 70000;","Q01  00002PRCP06Q02  00002PRCP24"
"76458099999","2003-03-08T09:00:00","4","23.2","-106.4166666","4.0","COLONIA JUAN CARRASCO MAZATLAN SIN., MX","FM-12","99999","V020","300,1,N,0020,1","22000,1,9,N","008000,1,N,1","+0176,1","+0116,1","10115,1","06,0000,9,1",,,,,,"00,1,+99999,9,99,9",,,"00,99,1,00,1,00,1,99999,9,00,1,00,1",,"01,9",,,,"99999,9,10111,1","8,1,002,1,+005,1",,,"SYN082AAXX  08091 76458 32958 03002 10176 20116 30111 40115 58002 90845 333 30/// 58005;","Q01  00002PRCP06"
"76458099999","2003-03-10T09:00:00","4","23.2","-106.4166666","4.0","COLONIA JUAN CARRASCO MAZATLAN SIN., MX","FM-12","99999","V020","300,1,N,0010,1","22000,1,9,N","012000,1,N,1","+0191,1","+0173,1","10097,1","06,0000,9,1",,,,,,"01,1,+03300,9,03,9",,,"01,99,1,01,1,00,1,99999,9,03,1,00,1",,"01,9",,,,"99999,9,10093,1","7,1,004,1,-017,1",,,"SYN100AAXX  10091 76458 32962 13001 10191 20173 30093 40097 57004 81030 90840 333 30/// 56090 59017 81361;","Q01  00002PRCP06"
"76458099999","2003-03-11T00:00:00","4","23.2","-106.4166666","4.0","COLONIA JUAN CARRASCO MAZATLAN SIN., MX","FM-12","99999","V020","280,1,N,0030,1","99999,9,9,N","020000,1,N,1","+0224,1","+0176,1","10094,1","06,0000,9,1",,,,,,"03,1,+02400,9,03,9",,,"07,99,1,99,9,00,1,99999,9,03,1,08,1",,"01,9",,"120,M,+0260,1","180,N,+0169,1","99999,9,10089,1","7,1,002,1,+999,9",,,"SYN118AAXX  11001 76458 32970 72803 10224 20176 30089 40094 57002 80038 92335 333 10260 20169 30/// 51861 56099 83358 84272;","Q01+000002SCOTLCQ02  00002PRCP06"
"76458099999","2003-03-11T03:00:00","4","23.2","-106.4166666","4.0","COLONIA JUAN CARRASCO MAZATLAN SIN., MX","FM-12","99999","V020","300,1,N,0020,1","05400,1,9,N","010000,1,N,1","+0215,1","+0153,1","10100,1","06,0000,9,1",,,,,,"06,1,+05400,9,02,9",,,"06,99,1,00,1,00,1,99999,9,00,1,07,1",,"01,9",,,,"99999,9,10095,1","2,1,004,1,-027,1",,,"SYN100AAXX  11031 76458 32960 63002 10215 20153 30095 40100 52004 80007 90245 333 30/// 56//9 59027 86268;","Q01  00002PRCP06"
"76458099999","2003-03-11T18:00:00","4","23.2","-106.4166666","4.0","COLONIA JUAN CARRASCO MAZATLAN SIN., MX","FM-12","99999","V020","170,1,N,0030,1","22000,1,9,N","015000,1,N,1","+0250,1","+0185,1","10110,1","06,0000,9,1",,,,,,"03,1,+02400,9,03,9",,,"03,99,1,03,1,00,1,99999,9,03,1,00,1",,"01,9",,"120,M,+0261,1","240,N,+0179,1","99999,9,10116,1","0,1,002,1,+016,1",,,"SYN112AAXX  11181 76458 32965 31703 10250 20185 30116 40110 50002 83030 91745 333 10261 20179 30/// 560/0 58016 83358;","Q01  00002PRCP06"
"76458099999","2003-03-11T21:00:00","4","23.2","-106.4166666","4.0","COLONIA JUAN CARRASCO MAZATLAN SIN., MX","FM-12","99999","V020","280,1,N,0030,1","22000,1,9,N","020000,1,N,1","+0254,1","+0187,1","10105,1","06,0000,9,1",,,,,,"01,1,+02400,9,03,9",,,"01,99,1,99,9,00,1,99999,9,03,1,00,1",,"01,9",,,,"99999,9,10100,1","7,1,005,1,+009,1",,,"SYN100AAXX  11211 76458 32970 12803 10254 20187 30100 40105 57616 80030 92045 333 30/// 56090 58009 81358;","Q01+000002SCOTLCQ02+006167APC3  Q03  00002PRCP06"
"76458099999","2003-03-12T03:00:00","4","23.2","-106.4166666","4.0","COLONIA JUAN CARRASCO MAZATLAN SIN., MX","FM-12","99999","V020","300,1,N,0020,1","22000,1,9,N","010000,1,N,1","+0215,1","+0213,1","10108,1","06,0000,9,1",,,,,,"00,1,+99999,9,99,9",,,"00,99,1,00,1,00,1,99999,9,00,1,00,1",,"01,9",,,,"99999,9,10103,1","2,1,007,1,+003,1",,,"SYN082AAXX  12031 76458 32960 03002 10215 20213 30103 40108 52007 90245 333 30/// 58003;","Q01  00002PRCP06"
"76458099999","2003-03-12T06:00:00","4","23.2","-106.4166666","4.0","COLONIA JUAN CARRASCO MAZATLAN SIN., MX","FM-12","99999","V020","280,1,N,0020,1","22000,1,9,N","010000,1,N,1","+0205,1","+0186,1","10117,1","06,0000,9,1",,,,,,"00,1,+99999,9,99,9",,,"00,99,1,00,1,00,1,99999,9,00,1,00,1","0498,9","01,9",,"240,M,+0271,1","240,N,+0179,1","99999,9,10113,1","2,1,010,1,+999,9",,,"SYN106AAXX  12061 76458 32960 02802 10205 20186 30113 40117 52010 90530 333 10271 20179 30/// 55083 21215 58007;","Q01  00002PRCP06"
"76458099999","2003-03-12T12:00:00","4","23.2","-106.4166666","4.0","COLONIA JUAN CARRASCO MAZATLAN SIN., MX","FM-12","99999","V020","100,1,N,0010,1","22000,1,9,N","010000,1,N,1","+0176,1","+0167,1","10112,1","06,0000,9,1","24,0000,9,1",,,"4,1,06,1","4,1,06,1","00,1,+99999,9,99,9",,,"00,99,1,00,1,00,1,99999,9,00,1,00,1",,"01,9","999,+0150,9","999,M,+0271,1","120,N,+0155,1","99999,9,10104,1","4,1,000,1,+011,1","00,1",,"SYN106AAXX  12121 76458 32960 01001 10176 20167 30104 40112 54001 70044 91130 333 10271 20155 30015 58011 70000;","Q01  00002PRCP06Q02  00002PRCP24"
"76458099999","2003-03-12T15:00:00","4","23.2","-106.4166666","4.0","COLONIA JUAN CARRASCO MAZATLAN SIN., MX","FM-12","99999","V020","210,1,N,0020,1","22000,1,9,N","000100,1,N,1","+0179,1","+0174,1","10129,1","06,0000,9,1",,,,"4,1,03,1","4,1,03,1","00,1,+99999,9,99,9",,,"00,99,1,00,1,00,1,99999,9,00,1,00,1",,"01,9",,,,"99999,9,10125,1","2,1,017,1,+011,1","05,1",,"SYN088AAXX  12151 76458 31901 02102 10179 20174 30125 40129 52017 70544 91445 333 30/// 58011;","Q01  00002PRCP06"
"76458099999","2003-03-12T18:00:00","4","23.2","-106.4166666","4.0","COLONIA JUAN CARRASCO MAZATLAN SIN., MX","FM-12","99999","V020","250,1,N,0030,1","22000,1,9,N","000400,1,N,1","+0211,1","+0180,1","10135,1","06,0000,9,1",,,,"4,1,06,1","4,1,06,1","00,1,+99999,9,99,9",,,"00,99,1,00,1,00,1,99999,9,00,1,00,1",,"01,9","999,-0540,9","120,M,+0234,1",,,"0,1,005,1,+999,9","42,1",,"SYN100AAXX  12181 76458 31904 02503 10211 20180 38130 40135 50005 74244 91745 333 10234 30154 30/// 58014;","Q01+081303APOSP Q02  00002PRCP06"
"76458099999","2003-03-12T21:00:00","4","23.2","-106.4166666","4.0","COLONIA JUAN CARRASCO MAZATLAN SIN., MX","FM-12","99999","V020","240,1,N,0020,1","22000,1,9,N","010000,1,N,1","+0210,1","+0183,1","10112,1","06,0000,9,1",,,,,,"00,1,+99999,9,99,9",,,"00,99,1,00,1,00,1,99999,9,00,1,00,1",,"01,9",,,,"99999,9,10106,1","7,1,024,1,+006,1",,,"SYN082AAXX  12211 76458 32960 02402 10210 20183 30106 40112 57024 92055 333 30/// 58006;","Q01  00002PRCP06"
"76458099999","2003-03-13T03:00:00","4","23.2","-106.4166666","4.0","COLONIA JUAN CARRASCO MAZATLAN SIN., MX","FM-12","99999","V020","310,1,N,0020,1","22000,1,9,N","008000,1,N,1","+0212,1","+0169,1","10117,1","06,0000,9,1",,,,,,,,,"01,99,1,00,1,99,9,99999,9,99,9,02,1",,"01,9",,,,"99999,9,10113,1","2,1,022,1,+010,1",,,"SYN088AAXX  13031 76458 32958 13102 10212 20169 30113 40117 52022 80//2 90240 333 30/// 58010;","Q01  00002PRCP06"
"76458099999","2003-03-13T09:00:00","4","23.2","-106.4166666","4.0","COLONIA JUAN CARRASCO MAZATLAN SIN., MX","FM-12","99999","V020","330,1,N,0020,1","22000,1,9,N","012000,1,N,1","+0168,1","+0121,1","10134,1","06,0000,9,1",,,,,,"00,1,+99999,9,99,9",,,"00,99,1,00,1,00,1,99999,9,00,1,00,1",,"01,9",,,,"99999,9,10130,1","4,1,000,1,+025,1",,,"SYN082AAXX  13091 76458 32962 03302 10168 20121 30130 40134 54005 90838 333 30/// 58025;","Q01  00002PRCP06"
"76458099999","2003-03-13T12:00:00","4","23.2","-106.4166666","4.0","COLONIA JUAN CARRASCO MAZATLAN SIN., MX","FM-12","99999","V020","999,9,C,0000,1","22000,1,9,N","012000,1,N,1","+0157,1","+0114,1","10135,1","06,0000,9,1",,,,,,"00,1,+99999,9,99,9",,,"00,99,1,00,1,00,1,99999,9,00,1,00,1",,"01,9","999,+0110,9","999,M,+0257,1","120,N,+0132,1","99999,9,10130,1","4,1,000,1,+022,1",,,"SYN094AAXX  13121 76458 32962 00000 10157 20114 30130 40135 54000 91138 333 10257 20132 30011 58022;","Q01  00002PRCP06"
"76458099999","2003-03-13T15:00:00","4","23.2","-106.4166666","4.0","COLONIA JUAN CARRASCO MAZATLAN SIN., MX","FM-12","99999","V020","999,9,C,0000,1","05400,1,9,N","015000,1,N,1","+0170,1","+0138,1","10139,1","06,0000,9,1",,,,,,"07,1,+05400,9,02,9",,,"07,99,1,00,1,00,1,99999,9,00,1,07,1",,"01,9",,,,"99999,9,10134,1","2,1,004,1,+009,1",,,"SYN100AAXX  13151 76458 32965 70000 10170 20138 30134 40139 52004 80007 91445 333 30/// 56//9 58009 87268;","Q01  00002PRCP06"
"76458099999","2003-03-13T18:00:00","4","23.2","-106.4166666","4.0","COLONIA JUAN CARRASCO MAZATLAN SIN., MX","FM-12","99999","V020","270,1,N,0030,1","06000,1,9,N","012000,1,N,1","+0222,1","+0167,1","10146,1","06,0000,9,1",,,,,,"06,1,+06000,9,01,9",,,"06,99,1,00,1,00,1,99999,9,00,1,09,1",,"01,9",,"120,M,+0249,1","240,N,+0125,1","99999,9,10148,1","0,1,007,1,+011,1",,,"SYN112AAXX  13181 76458 32962 62703 10222 20167 30148 40146 50007 80009 91740 333 10249 20125 30/// 5600/ 58011 86170;","Q01  00002PRCP06"
"76458099999","2003-03-13T21:00:00","4","23.2","-106.4166666","4.0","COLONIA JUAN CARRASCO MAZATLAN SIN., MX","FM-12","99999","V020","260,1,N,0030,1","06600,1,9,N","012000,1,N,1","+0240,1","+0174,1","10121,1","06,0000,9,1",,,,,,"06,1,+06600,9,02,9",,,"06,99,1,00,1,00,1,99999,9,00,1,07,1",,"01,9",,,,"99999,9,10117,1","7,1,024,1,-011,1",,,"SYN100AAXX  13211 76458 32962 62603 10240 20174 30117 40121 57024 80007 92050 333 30/// 56009 59011 86272;","Q01  00002PRCP06"
"76458099999","2003-03-14T03:00:00","4","23.2","-106.4166666","4.0","COLONIA JUAN CARRASCO MAZATLAN SIN., MX","FM-12","99999","V020","350,1,N,0010,1","01800,1,9,N","008000,1,N,1","+0216,1","+0177,1","10132,1","06,0000,9,1",,,,,,"07,1,+01800,9,03,9",,,"09,99,1,09,1,99,9,99999,9,99,9,99,9",,"01,9",,,,"99999,9,10127,1","2,1,020,1,+014,1",,,"SYN100AAXX  14031 76458 32858 93501 10216 20177 30127 40132 52020 87/6/ 90240 333 30/// 563// 58014 87356;","Q01  00002PRCP06"
"76458099999","2003-03-14T15:00:00","4","23.2","-106.4166666","4.0","COLONIA JUAN CARRASCO MAZATLAN SIN., MX","FM-12","99999","V020","120,1,N,0020,1","22000,1,9,N","012000,1,N,1","+0200,1","+0161,1","10127,1","06,0000,9,1",,,,,,"02,1,+02400,9,03,9",,,"02,99,1,99,9,00,1,99999,9,03,1,00,1",,"01,9",,,,"99999,9,10123,1","2,1,004,1,-011,1",,,"SYN100AAXX  14151 76458 32962 21202 10200 20161 30123 40127 52004 81030 91450 333 30/// 560/0 59011 82358;","Q01+000012SCOTLCQ02  00002PRCP06"
"76458099999","2003-03-14T18:00:00","4","23.2","-106.4166666","4.0","COLONIA JUAN CARRASCO MAZATLAN SIN., MX","FM-12","99999","V020","240,1,N,0020,1","02400,1,9,N","015000,1,N,1","+0240,1","+0156,1","10124,1","06,0000,9,1",,,,,,"05,1,+02400,9,03,9",,,"05,99,1,05,1,00,1,99999,9,03,1,00,1",,"01,9",,"120,M,+0264,1","240,N,+0150,1","99999,9,10119,1","1,1,004,1,-022,1",,,"SYN112AAXX  14181 76458 32965 52402 10240 20156 30119 40124 51004 85030 91748 333 10264 20150 30/// 560/0 59022 85358;","Q01  00002PRCP06"
"76458099999","2003-03-14T21:00:00","4","23.2","-106.4166666","4.0","COLONIA JUAN CARRASCO MAZATLAN SIN., MX","FM-12","99999","V020","240,1,N,0020,1","22000,1,9,N","020000,1,N,1","+0234,1","+0196,1","10113,1","06,0000,9,1",,,,,,"03,1,+02400,9,03,9",,,"03,99,1,99,9,00,1,99999,9,05,1,00,1",,"01,9",,,,"99999,9,10108,1","7,1,011,1,-019,1",,,"SYN100AAXX  14211 76458 32970 32402 10234 20196 30108 40113 57011 80050 92050 333 30/// 56090 59019 83358;","Q01+000002SCOTLCQ02  00002PRCP06"
"76458099999","2003-03-15T00:00:00","4","23.2","-106.4166666","4.0","COLONIA JUAN CARRASCO MAZATLAN SIN., MX","FM-12","99999","V020","280,1,N,0030,1","22000,1,9,N","020000,1,N,1","+0242,1","+0180,1","10101,1","06,0000,9,1","24,0000,9,1",,,,,,,,"03,99,1,99,9,00,1,99999,9,03,1,00,1",,"01,9",,"120,M,+0265,1","180,N,+0150,1","99999,9,10096,1","7,1,012,1,-011,1",,,"SYN124AAXX  15001 76458 32970 32803 10242 20180 30096 40101 57012 80030 92338 333 10265 20150 30/// 53601 56090 59011 70000 83358;","Q01+000002SCOTLCQ02  00002PRCP06"
"76458099999","2003-03-15T18:00:00","4","23.2","-106.4166666","4.0","COLONIA JUAN CARRASCO MAZATLAN SIN., MX","FM-12","99999","V020","170,1,N,0030,1","22000,1,9,N","013000,1,N,1","+0243,1","+0175,1","10128,1","06,0000,9,1",,,,,,"00,1,+99999,9,99,9",,,"00,99,1,00,1,00,1,99999,9,00,1,00,1",,"01,9",,"120,M,+0255,1","240,N,+0155,1","99999,9,10124,1","1,1,007,1,+005,1",,,"SYN094AAXX  15181 76458 32963 01703 10243 20175 30124 40128 51007 91745 333 10255 20155 30/// 58005;","Q01  00002PRCP06"
"76458099999","2003-03-15T21:00:00","4","23.2","-106.4166666","4.0","COLONIA JUAN CARRASCO MAZATLAN SIN., MX","FM-12","99999","V020","240,1,N,0020,1","22000,1,9,N","015000,1,N,1","+0266,1","+0149,1","10112,1","06,0000,9,1",,,,,,"00,1,+99999,9,99,9",,,"00,99,1,00,1,00,1,99999,9,00,1,00,1",,"01,9",,,,"99999,9,10107,1","7,1,017,1,-001,1",,,"SYN082AAXX  15211 76458 32965 02402 10266 20149 30107 40112 57017 92045 333 30/// 59001;","Q01  00002PRCP06"
"76458099999","2003-03-16T00:00:00","4","23.2","-106.4166666","4.0","COLONIA JUAN CARRASCO MAZATLAN SIN., MX","FM-12","99999","V020","260,1,N,0020,1","22000,1,9,N","015000,1,N,1","+0244,1","+0189,1","10100,1","06,0000,9,1","24,0000,9,1",,,,,"00,1,+99999,9,99,9",,,"00,99,1,00,1,00,1,99999,9,00,1,00,1",,"01,9",,"120,M,+0278,1","180,N,+0155,1","99999,9,10096,1","7,1,011,1,+000,1",,,"SYN100AAXX  16000 76458 32965 02602 10244 20189 30096 40100 57011 92335 333 10278 20155 30/// 58000 70000;","Q01  00002PRCP06Q02  00002PRCP24"
"76458099999","2003-03-16T03:00:00","4","23.2","-106.4166666","4.0","COLONIA JUAN CARRASCO MAZATLAN SIN., MX","FM-12","99999","V020","330,1,N,0020,1","22000,1,9,N","010000,1,N,1","+0218,1","+0188,1","10110,1","06,0000,9,1",,,,,,"00,1,+99999,9,99,9",,,"00,99,1,00,1,00,1,99999,9,00,1,00,1",,"01,9",,,,"99999,9,10106,1","2,1,010,1,+004,1",,,"SYN082AAXX  16031 76458 32960 03302 10218 20188 30106 40110 52010 90245 333 30/// 58004;","Q01  00002PRCP06"
"76458099999","2003-03-16T15:00:00","4","23.2","-106.4166666","4.0","COLONIA JUAN CARRASCO MAZATLAN SIN., MX","FM-12","99999","V020","060,1,N,0020,1","22000,1,9,N","010000,1,N,1","+0196,1","+0175,1","10130,1","06,0000,9,1",,,,,,"00,1,+99999,9,99,9",,,"00,99,1,00,1,00,1,99999,9,00,1,00,1",,"01,9",,,,"99999,9,10125,1","2,1,012,1,+008,1",,,"SYN082AAXX  16151 76458 32960 00602 10196 20175 30125 40130 52012 91440 333 30/// 58008;","Q01  00002PRCP06"
"76458099999","2003-03-16T21:00:00","4","23.2","-106.4166666","4.0","COLONIA JUAN CARRASCO MAZATLAN SIN., MX","FM-12","99999","V020","270,1,N,0020,1","22000,1,9,N","020000,1,N,1","+0258,1","+0178,1","10116,1","06,0000,9,1",,,,,,"00,1,+99999,9,99,9",,,"00,99,1,00,1,00,1,99999,9,00,1,00,1",,"01,9",,,,"99999,9,10111,1","7,1,024,1,+004,1",,,"SYN082AAXX  16211 76458 32970 02702 10258 20178 30111 40116 57024 92050 333 30/// 58004;","Q01  00002PRCP06"
"76458099999","2003-03-17T03:00:00","4","23.2","-106.4166666","4.0","COLONIA JUAN CARRASCO MAZATLAN SIN., MX","FM-12","99999","V020","240,1,N,0020,1","22000,1,9,N","010000,1,N,1","+0222,1","+0196,1","10114,1","06,0000,9,1",,,,,,"04,1,+00330,9,08,9",,,"04,99,1,04,1,01,1,00450,1,00,1,00,1",,"01,9",,,,"99999,9,10109,1","2,1,011,1,+003,1",,,"SYN100AAXX  17031 76458 32460 42402 10222 20196 30109 40114 52011 84100 90245 333 30/// 564// 58003 84811;","Q01  00002PRCP06"
"76458099999","2003-03-17T09:00:00","4","23.2","-106.4166666","4.0","COLONIA JUAN CARRASCO MAZATLAN SIN., MX","FM-12","99999","V020","120,1,N,0020,1","00210,1,9,N","010000,1,N,1","+0206,1","+0188,1","10116,1","06,0000,9,1",,,,,,"05,1,+00210,9,06,9",,,"05,99,1,05,1,04,1,00250,1,00,1,00,1",,"01,9",,,,,"7,1,005,1,+000,1",,,"SYN100AAXX  17091 76458 32360 51202 10206 20188 30011 40116 57005 85400 90840 333 30/// 56400 58000 85607;","Q01+100113APOSP Q02  00002PRCP06"
"76458099999","2003-03-17T12:00:00","4","23.2","-106.4166666","4.0","COLONIA JUAN CARRASCO MAZATLAN SIN., MX","FM-12","99999","V020","100,1,N,0020,1","22000,1,9,N","010000,1,N,1","+0197,1","+0181,1","10117,1","06,0000,9,1","24,0000,9,1",,,,,"02,1,+00210,9,06,9",,,"02,99,1,02,1,04,1,00250,1,00,1,00,1",,"01,9","999,+0170,9","999,M,+0265,1","120,N,+0181,1","99999,9,10112,1","4,1,000,1,-001,1",,,"SYN118AAXX  17121 76458 32360 21002 10197 20181 30112 40117 54001 82400 91135 333 10265 20181 30017 56400 59001 70000 82607;","Q01  00002PRCP06"
"76458099999","2003-03-17T15:00:00","4","23.2","-106.4166666","4.0","COLONIA JUAN CARRASCO MAZATLAN SIN., MX","FM-12","99999","V020","100,1,N,0030,1","22000,1,9,N","015000,1,N,1","+0220,1","+0184,1","10132,1","06,0000,9,1",,,,,,"02,1,+00450,9,08,9",,,"02,99,1,02,1,02,1,00450,1,00,1,00,1",,"01,9",,,,"99999,9,10127,1","2,1,015,1,+002,1",,,"SYN100AAXX  17151 76458 32465 21003 10220 20184 30127 40132 52015 82200 91445 333 30/// 56400 58002 82815;","Q01  00002PRCP06"
"76458099999","2003-03-17T21:00:00","4","23.2","-106.4166666","4.0","COLONIA JUAN CARRASCO MAZATLAN SIN., MX","FM-12","99999","V020","180,1,N,0020,1","22000,1,9,N","018000,1,N,1","+0262,1","+0173,1","10128,1","06,0000,9,1",,,,,,"01,1,+01110,9,08,9",,,"01,99,1,01,1,02,1,01250,1,00,1,00,1",,"09,9",,,,"99999,9,10124,1","7,1,012,1,+012,1",,,"SYN100AAXX  17211 76458 32668 11802 10262 20173 30124 40128 57012 81200 92040 333 31/// 56100 58012 81837;","Q01  00002PRCP06"
"76458099999","2003-03-18T00:00:00","4","23.2","-106.4166666","4.0","COLONIA JUAN CARRASCO MAZATLAN SIN., MX","FM-12","99999","V020","250,1,N,0020,1","22000,1,9,N","010000,1,N,1","+0243,1","+0186,1","10115,1","06,0000,9,1","24,0000,9,1",,,,,"02,1,+01500,9,06,9",,,"03,99,1,03,1,02,1,00800,1,00,1,00,1",,"01,9",,"120,M,+0265,1","180,N,+0180,1","99999,9,10111,1","7,1,013,1,+013,1",,,"SYN130AAXX  18001 76458 32560 32502 10243 20186 30111 40115 57013 83200 92340 333 10265 20180 30/// 50461 56100 58013 70000 82650 81856;","Q01  00002PRCP06"
"76458099999","2003-03-18T03:00:00","4","23.2","-106.4166666","4.0","COLONIA JUAN CARRASCO MAZATLAN SIN., MX","FM-12","99999","V020","240,1,N,0020,1","22000,1,9,N","008000,1,N,1","+0298,1","+0179,1","10118,1","06,0000,9,1",,,,,,"01,1,+00480,9,08,9",,,"01,99,1,01,1,01,1,00450,1,99,9,99,9",,"01,9",,,,"99999,9,10114,1","3,1,003,1,+005,1",,,"SYN094AAXX  18030 76458 32458 12402 10298 20179 30114 40118 53003 811// 90245 333 30/// 58005 81816;","Q01  00002PRCP06"
"76458099999","2003-03-18T15:00:00","4","23.2","-106.4166666","4.0","COLONIA JUAN CARRASCO MAZATLAN SIN., MX","FM-12","99999","V020","020,1,N,0020,1","03600,1,C,N","012000,1,N,1","+0198,1","+0136,1","10134,1","06,0000,9,1",,,,,,"02,1,+00780,9,08,9",,,"07,99,1,03,1,02,1,00800,1,06,1,00,1",,"01,9",,,,"99999,9,10129,1","2,1,016,1,+002,1",,,"SYN106AAXX  18151 76458 32562 70202 10198 20136 30129 40134 52016 83260 91445 333 30/// 565/0 58002 82826 84358;","Q01  00002PRCP06"
"76458099999","2003-03-18T18:00:00","4","23.2","-106.4166666","4.0","COLONIA JUAN CARRASCO MAZATLAN SIN., MX","FM-12","99999","V020","280,1,N,0030,1","03600,1,C,N","015000,1,N,1","+0216,1","+0128,1","10142,1","06,0000,9,1",,,,,,"03,1,+01080,9,06,9",,,"07,99,1,03,1,04,1,01250,1,07,1,00,1",,"01,9",,"120,M,+0230,1","240,N,+0156,1","99999,9,10137,1","1,1,008,1,+001,1",,,"SYN118AAXX  18181 76458 32665 72803 10216 20128 30137 40142 51008 83470 91748 333 10230 20156 30/// 566// 58001 83636 84358;","Q01  00002PRCP06"
"76458099999","2003-03-18T21:00:00","4","23.2","-106.4166666","4.0","COLONIA JUAN CARRASCO MAZATLAN SIN., MX","FM-12","99999","V020","280,1,N,0030,1","22000,1,9,N","018000,1,N,1","+0233,1","+0138,1","10122,1","06,0000,9,1",,,,,,"01,1,+01200,9,06,9",,,"03,99,1,03,1,02,1,01250,1,00,1,00,1",,"01,9",,,,"99999,9,10118,1","7,1,020,1,-006,1",,,"SYN106AAXX  18211 76458 32668 32803 10233 20138 30118 40122 57020 83200 92040 333 30/// 56100 59006 81640 82857;","Q01  00002PRCP06"
"76458099999","2003-03-19T00:00:00","4","23.2","-106.4166666","4.0","COLONIA JUAN CARRASCO MAZATLAN SIN., MX","FM-12","99999","V020","300,1,N,0050,1","22000,1,9,N","020000,1,N,1","+0224,1","+0116,1","10110,1","06,0000,9,1","24,0000,9,1",,,,,,,,"01,99,1,01,1,02,1,01250,1,00,1,00,1",,"01,9",,"120,M,+0244,1","180,N,+0156,1","99999,9,10106,1","6,1,012,1,-005,1",,,"SYN124AAXX  19001 76458 32670 13005 10224 20116 30106 40110 56012 81200 92340 333 10244 20156 30/// 50471 56100 59005 70000 81845;","Q01  00002PRCP06"
"76458099999","2003-03-19T21:00:00","4","23.2","-106.4166666","4.0","COLONIA JUAN CARRASCO MAZATLAN SIN., MX","FM-12","99999","V020","290,1,N,0050,1","22000,1,9,N","020000,1,N,1","+0230,1","+0104,1","10139,1","06,0000,9,1",,,,,,"01,1,+01800,9,08,9",,,"01,99,1,01,1,02,1,01250,1,00,1,00,1",,"01,9",,,,"99999,9,10134,1","7,1,037,1,+017,1",,,"SYN100AAXX  19211 76458 32670 12905 10230 20104 30134 40139 57037 81200 92050 333 30/// 56100 58017 81856;","Q01  00002PRCP06"
"76458099999","2003-03-20T00:00:00","4","23.2","-106.4166666","4.0","COLONIA JUAN CARRASCO MAZATLAN SIN., MX","FM-12","99999","V020","280,1,N,0040,1","22000,1,9,N","020000,1,N,1","+0219,1","+0103,1","10129,1","06,0000,9,1","24,0000,9,1",,,,,"00,1,+99999,9,99,9",,,"00,99,1,00,1,00,1,99999,9,00,1,00,1",,"01,9",,"120,M,+0240,1","180,N,+0132,1","99999,9,10124,1","7,1,010,1,+018,1",,,"SYN106AAXX  20001 76458 32970 02804 10219 20103 30124 40129 57010 92340 333 10240 20132 30/// 50541 58018 70000;","Q01  00002PRCP06Q02  00002PRCP24"
"76458099999","2003-03-20T03:00:00","4","23.2","-106.4166666","4.0","COLONIA JUAN CARRASCO MAZATLAN SIN., MX","FM-12","99999","V020","320,1,N,0040,1","22000,1,9,N","008000,1,N,1","+0202,1","+0108,1","10136,1","06,0000,9,1",,,,,,"00,1,+99999,9,99,9",,,"00,99,1,00,1,00,1,99999,9,00,1,00,1",,"01,9",,,,"99999,9,10132,1","2,1,008,1,+021,1",,,"SYN082AAXX  20031 76458 32958 03204 10202 20108 30132 40136 52008 90235 333 30/// 58021;","Q01  00002PRCP06"
"76458099999","2003-03-20T15:00:00","4","23.2","-106.4166666","4.0","COLONIA JUAN CARRASCO MAZATLAN SIN., MX","FM-12","99999","V020","300,1,N,0020,1","22000,1,9,N","018000,1,N,1","+0166,1","+0068,1","10157,1","06,0000,9,1",,,,,,"00,1,+99999,9,99,9",,,"00,99,1,00,1,00,1,99999,9,00,1,00,1",,"01,9",,,,"99999,9,10153,1","2,1,017,1,+016,1",,,"SYN082AAXX  20151 76458 32968 03002 10166 20068 30153 40157 52017 91440 333 30/// 58016;","Q01  00002PRCP06"
"76458099999","2003-03-20T18:00:00","4","23.2","-106.4166666","4.0","COLONIA JUAN CARRASCO MAZATLAN SIN., MX","FM-12","99999","V020","260,1,N,0030,1","22000,1,9,N","020000,1,N,1","+0218,1","+0102,1","10165,1","06,0000,9,1",,,,,,"00,1,+99999,9,99,9",,,"00,99,1,00,1,00,1,99999,9,00,1,00,1",,"01,9",,"120,M,+0240,1","240,N,+0116,1","99999,9,10161,1","1,1,008,1,+020,1",,,"SYN094AAXX  20181 76458 32970 02603 10218 20102 30161 40165 51008 91748 333 10240 20116 30/// 58020;","Q01  00002PRCP06"
"76458099999","2003-03-20T21:00:00","4","23.2","-106.4166666","4.0","COLONIA JUAN CARRASCO MAZATLAN SIN., MX","FM-12","99999","V020","300,1,N,0040,1","22000,1,9,N","020000,1,N,1","+0221,1","+0129,1","10143,1","06,0000,9,1",,,,,,"00,1,+99999,9,99,9",,,"00,99,1,00,1,00,1,99999,9,00,1,00,1",,"01,9",,,,"99999,9,10138,1","7,1,023,1,+004,1",,,"SYN082AAXX  20211 76458 32970 03004 10221 20129 30138 40143 57023 92047 333 30/// 58004;","Q01  00002PRCP06"
"76458099999","2003-03-21T03:00:00","4","23.2","-106.4166666","4.0","COLONIA JUAN CARRASCO MAZATLAN SIN., MX","FM-12","99999","V020","320,1,N,0030,1","22000,1,9,N","008000,1,N,1","+0204,1","+0134,1","10131,1","06,0000,9,1",,,,,,"00,1,+99999,9,99,9",,,"00,99,1,00,1,00,1,99999,9,00,1,00,1",,"01,9",,,,"99999,9,10126,1","5,1,002,1,-006,1",,,"SYN082AAXX  21031 76458 32958 03203 10204 20134 30126 40131 55002 90245 333 30/// 59006;","Q01  00002PRCP06"
"76458099999","2003-03-21T15:00:00","4","23.2","-106.4166666","4.0","COLONIA JUAN CARRASCO MAZATLAN SIN., MX","FM-12","99999","V020","350,1,N,0010,1","22000,1,9,N","015000,1,N,1","+0187,1","+0083,1","10138,1","06,0000,9,1",,,,,,"00,1,+99999,9,99,9",,,"00,99,1,00,1,00,1,99999,9,00,1,00,1",,"01,9",,,,"99999,9,10134,1","2,1,009,1,-019,1",,,"SYN082AAXX  21151 76458 32965 03501 10187 20083 30134 40138 52009 91448 333 30/// 59019;","Q01  00002PRCP06"
"76458099999","2003-03-21T18:00:00","4","23.2","-106.4166666","4.0","COLONIA JUAN CARRASCO MAZATLAN SIN., MX","FM-12","99999","V020","280,1,N,0030,1","22000,1,9,N","020000,1,N,1","+0216,1","+0104,1","10144,1","06,0000,9,1",,,,,,"00,1,+99999,9,99,9",,,"00,99,1,00,1,00,1,99999,9,00,1,00,1",,"01,9",,"120,M,+0242,1","240,N,+0128,1","99999,9,10139,1","1,1,005,1,-022,1",,,"SYN094AAXX  21181 76458 32970 02803 10216 20104 30139 40144 51005 91748 333 10242 20128 30/// 59022;","Q01  00002PRCP06"
"76458099999","2003-03-22T03:00:00","4","23.2","-106.4166666","4.0","COLONIA JUAN CARRASCO MAZATLAN SIN., MX","FM-12","99999","V020","310,1,N,0020,1","22000,1,9,N","010000,1,N,1","+0207,1","+0135,1","10120,1","06,0000,9,1",,,,,,"00,1,+99999,9,99,9",,,"00,99,1,00,1,00,1,99999,9,00,1,00,1",,"01,9",,,,"99999,9,10116,1","2,1,010,1,-010,1",,,"SYN082AAXX  22031 76458 32960 03102 10207 20135 30116 40120 52010 90245 333 30/// 59010;","Q01  00002PRCP06"
"76458099999","2003-03-22T15:00:00","4","23.2","-106.4166666","4.0","COLONIA JUAN CARRASCO MAZATLAN SIN., MX","FM-12","99999","V020","100,1,N,0020,1","22000,1,9,N","010000,1,N,1","+0186,1","+0121,1","10141,1","06,0000,9,1",,,,,,"00,1,+99999,9,99,9",,,"00,99,1,00,1,00,1,99999,9,00,1,00,1",,"01,9",,,,"99999,9,10136,1","2,1,015,1,+002,1",,,"SYN082AAXX  22151 76458 32960 01002 10186 20121 30136 40141 52015 91450 333 30/// 58002;","Q01  00002PRCP06"
"76458099999","2003-03-22T18:00:00","4","23.2","-106.4166666","4.0","COLONIA JUAN CARRASCO MAZATLAN SIN., MX","FM-12","99999","V020","160,1,N,0020,1","22000,1,9,N","020000,1,N,1","+0232,1","+0151,1","10143,1","06,0000,9,1",,,,,,"01,1,+06000,9,00,9",,,"01,99,1,00,1,00,1,99999,9,00,1,02,1",,"01,9",,"120,M,+0241,1","240,N,+0119,1","99999,9,10138,1","1,1,002,1,-001,1",,,"SYN112AAXX  22181 76458 32970 11602 10232 20151 30138 40143 51002 80002 91748 333 10241 20119 30/// 5600/ 59001 81070;","Q01  00002PRCP06"
"76458099999","2003-03-22T21:00:00","4","23.2","-106.4166666","4.0","COLONIA JUAN CARRASCO MAZATLAN SIN., MX","FM-12","99999","V020","240,1,N,0020,1","22000,1,9,N","018000,1,N,1","+0228,1","+0156,1","10132,1","06,0000,9,1",,,,,,"01,1,+06000,9,00,9",,,"01,99,1,00,1,00,1,99999,9,00,1,01,1",,"01,9",,,,"99999,9,10127,1","7,1,011,1,+999,9",,,"SYN100AAXX  22211 76458 32968 12402 10228 20156 30127 40132 57011 80001 92045 333 30/// 56//9 58/// 81070;","Q01  00002PRCP06"
"76458099999","2003-03-23T00:00:00","4","23.2","-106.4166666","4.0","COLONIA JUAN CARRASCO MAZATLAN SIN., MX","FM-12","99999","V020","280,1,N,0020,1","22000,1,9,N","018000,1,N,1","+0226,1","+0156,1","10125,1","06,0000,9,1","24,0000,9,1",,,,,,,,"01,99,1,00,1,00,1,99999,9,00,1,01,1",,"01,9",,"120,M,+0256,1","180,N,+0119,1","99999,9,10121,1","5,1,006,1,+999,9",,,"SYN124AAXX  23001 76458 32968 12802 10226 20156 30121 40125 55006 80001 92350 333 10256 20119 30/// 50421 56//9 58/// 70000 81070;","Q01  00002PRCP06"
"76458099999","2003-03-23T03:00:00","4","23.2","-106.4166666","4.0","COLONIA JUAN CARRASCO MAZATLAN SIN., MX","FM-12","99999","V020","300,1,N,0010,1","22000,1,9,N","008000,1,N,1","+0204,1","+0174,1","10132,1","06,0000,9,1",,,,,,"00,1,+99999,9,99,9",,,"00,99,1,00,1,00,1,99999,9,00,1,00,1",,"01,9",,,,"99999,9,10128,1","3,1,007,1,+011,1",,,"SYN082AAXX  23030 76458 32958 03001 10204 20174 30128 40132 53007 90235 333 30/// 58011;","Q01  00002PRCP06"
"76458099999","2003-03-23T06:00:00","4","23.2","-106.4166666","4.0","COLONIA JUAN CARRASCO MAZATLAN SIN., MX","FM-12","99999","V020","330,1,N,0020,1","22000,1,9,N","009000,1,N,1","+0192,1","+0174,1","10146,1","06,0000,9,1",,,,,,"00,1,+99999,9,99,9",,,"00,99,1,00,1,00,1,99999,9,00,1,00,1","0624,9","01,9",,"240,M,+0256,1","240,N,+0119,1","99999,9,10142,1","2,1,015,1,+999,9",,,"SYN106AAXX  23060 76458 32959 03302 10192 20174 30142 40146 52015 90530 333 10256 20119 30/// 55104 21604 58020;","Q01  00002PRCP06"
"76458099999","2003-03-23T12:00:00","4","23.2","-106.4166666","4.0","COLONIA JUAN CARRASCO MAZATLAN SIN., MX","FM-12","99999","V020","120,1,N,0020,1","00060,1,9,N","000800,1,N,1","+0168,1","+0162,1","10143,1","06,0000,9,1","24,0000,9,1",,,"4,1,06,1","4,1,06,1","09,1,+99999,9,99,9",,,"09,99,1,09,1,99,9,99999,9,99,9,99,9",,"01,9","999,+0130,9","999,M,+0256,1","120,N,+0142,1","99999,9,10139,1","5,1,010,1,+017,1","43,1",,"SYN112AAXX  23121 76458 31/08 91202 10168 20162 30139 40143 55010 74344 89/// 91135 333 10256 20142 30013 58017 70000;","Q01  00002PRCP06Q02  00002PRCP24"
"76458099999","2003-03-23T15:00:00","4","23.2","-106.4166666","4.0","COLONIA JUAN CARRASCO MAZATLAN SIN., MX","FM-12","99999","V020","060,1,N,0020,1","22000,1,9,N","010000,1,N,1","+0190,1","+0160,1","10158,1","06,0000,9,1",,,,,,"02,1,+01800,9,03,9",,,"03,99,1,02,1,99,9,99999,9,03,1,01,1",,"01,9",,,,"99999,9,10153,1","2,1,014,1,+017,1",,,"SYN100AAXX  23151 76458 31960 30602 10190 20160 30153 40158 52014 82/31 91440 333 30/// 58017 82356 81070;","Q01  00002PRCP06"
"76458099999","2003-03-23T21:00:00","4","23.2","-106.4166666","4.0","COLONIA JUAN CARRASCO MAZATLAN SIN., MX","FM-12","99999","V020","240,1,N,0020,1","22000,1,9,N","020000,1,N,1","+0230,1","+0176,1","10144,1","06,0000,9,1",,,,,,"04,1,+06600,9,00,9",,,"04,99,1,00,1,00,1,99999,9,00,1,06,1",,"01,9",,,,"99999,9,10140,1","7,1,014,1,+013,1",,,"SYN100AAXX  23211 76458 32970 42402 10230 20176 30140 40144 57014 80006 92055 333 30/// 56009 58013 84072;","Q01  00002PRCP06"
"76458099999","2003-03-24T00:00:00","4","23.2","-106.4166666","4.0","COLONIA JUAN CARRASCO MAZATLAN SIN., MX","FM-12","99999","V020","250,1,N,0020,1","22000,1,9,N","020000,1,N,1","+0226,1","+0168,1","10139,1","06,0000,9,1",,,,,,,,,"04,99,1,00,1,00,1,99999,9,00,1,06,1",,"01,9",,"120,M,+0260,1","180,N,+0142,1","99999,9,10134,1","7,1,003,1,+013,1",,,"SYN118AAXX  24001 76458 32970 42502 10226 20168 30134 40139 57003 80006 92335 333 10260 20142 30/// 53031 56009 58013 84072;","Q01  00002PRCP06"
"76458099999","2003-03-24T03:00:00","4","23.2","-106.4166666","4.0","COLONIA JUAN CARRASCO MAZATLAN SIN., MX","FM-12","99999","V020","240,1,N,0020,1","22000,1,9,N","010000,1,N,1","+0211,1","+0180,1","10146,1","06,0000,9,1",,,,,,"00,1,+99999,9,99,9",,,"00,99,1,00,1,00,1,99999,9,00,1,00,1",,"01,9",,,,"99999,9,10142,1","2,1,007,1,-040,1",,,"SYN082AAXX  24031 76458 32960 02402 10211 20180 30142 40146 52007 90250 333 30/// 59040;","Q01  00002PRCP06"
"76458099999","2003-03-24T15:00:00","4","23.2","-106.4166666","4.0","COLONIA JUAN CARRASCO MAZATLAN SIN., MX","FM-12","99999","V020","350,1,N,0020,1","22000,1,9,N","002000,1,N,1","+0190,1","+0181,1","10162,1","06,0000,9,1",,,,"4,1,03,1","0,1,03,1","00,1,+99999,9,99,9",,,"00,99,1,00,1,00,1,99999,9,00,1,00,1",,"01,9",,,,"99999,9,10157,1","2,1,018,1,+003,1","44,1",,"SYN088AAXX  24151 76458 31920 03502 10190 20181 30157 40162 52018 74440 91450 333 30/// 58003;","Q01  00002PRCP06"
"76458099999","2003-03-24T21:00:00","4","23.2","-106.4166666","4.0","COLONIA JUAN CARRASCO MAZATLAN SIN., MX","FM-12","99999","V020","250,1,N,0020,1","07800,1,9,N","018000,1,N,1","+0228,1","+0185,1","10149,1","06,0000,9,1",,,,,,"07,1,+07800,9,02,9",,,"07,99,1,00,1,00,1,99999,9,00,1,07,1",,"01,9",,,,"99999,9,10145,1","7,1,010,1,-007,1",,,"SYN100AAXX  24211 76458 32968 72502 10228 20185 30145 40149 57010 80007 92035 333 30/// 56009 59007 87276;","Q01  00002PRCP06"
"76458099999","2003-03-25T00:00:00","4","23.2","-106.4166666","4.0","COLONIA JUAN CARRASCO MAZATLAN SIN., MX","FM-12","99999","V020","260,1,N,0020,1","99999,9,9,N","020000,1,N,1","+0223,1","+0181,1","10137,1","06,0000,9,1","24,0000,9,1",,,,,"04,1,+03300,9,03,9",,,"06,99,1,04,1,00,1,99999,9,01,1,06,1",,"01,9",,"120,M,+0253,1","180,N,+0151,1","99999,9,10133,1","5,1,016,1,-001,1",,,"SYN130AAXX  25001 76458 32970 62602 10223 20181 30133 40137 55016 84016 92340 333 10253 20151 30/// 50261 56099 59001 70000 84361 82079;","Q01  00002PRCP06"
"76458099999","2003-03-25T03:00:00","4","23.2","-106.4166666","4.0","COLONIA JUAN CARRASCO MAZATLAN SIN., MX","FM-12","99999","V020","300,1,N,0020,1","99999,9,9,N","008000,1,N,1","+0214,1","+0184,1","10149,1","06,0000,9,1",,,,,,"01,1,+00360,9,08,9",,,"06,99,1,01,1,01,1,00450,1,99,9,01,1",,"03,9",,,,"99999,9,10144,1","2,1,011,1,+002,1",,,"SYN106AAXX  25031 76458 32458 63002 10214 20184 30144 40149 52011 811/1 90235 333 36/// 56/// 58002 81812 85070;","Q01  00002PRCP06"
"76458099999","2003-03-25T18:00:00","4","23.2","-106.4166666","4.0","COLONIA JUAN CARRASCO MAZATLAN SIN., MX","FM-12","99999","V020","280,1,N,0030,1","06000,1,9,N","018000,1,N,1","+0216,1","+0177,1","10161,1","06,0000,9,1",,,,,,"06,1,+06000,9,02,9",,,"06,99,1,00,1,00,1,99999,9,00,1,07,1",,"01,9",,"120,M,+0240,1","240,N,+0158,1","99999,9,10157,1","1,1,005,1,+003,1",,,"SYN112AAXX  25181 76458 32968 62803 10216 20177 30157 40161 51005 80007 91740 333 10240 20158 30/// 5600/ 58003 86270;","Q01  00002PRCP06"
"76458099999","2003-03-25T21:00:00","4","23.2","-106.4166666","4.0","COLONIA JUAN CARRASCO MAZATLAN SIN., MX","FM-12","99999","V020","270,1,N,0020,1","08700,1,9,N","020000,1,N,1","+0228,1","+0182,1","10147,1","06,0000,9,1",,,,,,"06,1,+08700,9,00,9",,,"06,99,1,00,1,00,1,99999,9,00,1,04,1",,"01,9",,,,"99999,9,10142,1","7,1,015,1,-003,1",,,"SYN100AAXX  25211 76458 32970 62702 10228 20182 30142 40147 57015 80004 92045 333 30/// 56009 59003 86079;","Q01  00002PRCP06"
"76458099999","2003-03-26T00:00:00","4","23.2","-106.4166666","4.0","COLONIA JUAN CARRASCO MAZATLAN SIN., MX","FM-12","99999","V020","280,1,N,0030,1","22000,1,9,N","020000,1,N,1","+0226,1","+0181,1","10125,1","06,0000,9,1","24,0000,9,1",,,,,,,,"04,99,1,00,1,00,1,99999,9,00,1,04,1",,"01,9",,"120,M,+0254,1","180,N,+0158,1","99999,9,10120,1","5,1,021,1,-002,1",,,"SYN124AAXX  26000 76458 32970 42803 10226 20181 30120 40125 55021 80004 92340 333 10254 20158 30/// 50391 56009 59002 70000 84079;","Q01  00002PRCP06"
"76458099999","2003-03-26T03:00:00","4","23.2","-106.4166666","4.0","COLONIA JUAN CARRASCO MAZATLAN SIN., MX","FM-12","99999","V020","300,1,N,0020,1","22000,1,9,N","010000,1,N,1","+0213,1","+0181,1","10127,1","06,0000,9,1",,,,,,"00,1,+99999,9,99,9",,,"00,99,1,00,1,00,1,99999,9,00,1,00,1",,"01,9",,,,"99999,9,10123,1","3,1,003,1,-021,1",,,"SYN082AAXX  26031 76458 32960 03002 10213 20181 30123 40127 53003 90245 333 30/// 59021;","Q01  00002PRCP06"
"76458099999","2003-03-26T15:00:00","4","23.2","-106.4166666","4.0","COLONIA JUAN CARRASCO MAZATLAN SIN., MX","FM-12","99999","V020","120,1,N,0020,1","22000,1,9,N","018000,1,N,1","+0183,1","+0146,1","10133,1","06,0000,9,1",,,,,,"00,1,+99999,9,99,9",,,"00,99,1,00,1,00,1,99999,9,00,1,00,1",,"01,9",,,,"99999,9,10128,1","0,1,013,1,-024,1",,,"SYN082AAXX  26151 76458 32968 01202 10183 20146 30128 40133 50013 91445 333 30/// 59024;","Q01  00002PRCP06"
"76458099999","2003-03-26T18:00:00","4","23.2","-106.4166666","4.0","COLONIA JUAN CARRASCO MAZATLAN SIN., MX","FM-12","99999","V020","240,1,N,0020,1","22000,1,9,N","020000,1,N,1","+0220,1","+0172,1","10133,1","06,0000,9,1",,,,,,"02,1,+06000,9,02,9",,,"02,99,1,00,1,00,1,99999,9,00,1,05,1",,"01,9",,"120,M,+0250,1","240,N,+0146,1","99999,9,10128,1","4,1,000,1,-029,1",,,"SYN112AAXX  26181 76458 32970 22402 10220 20172 30128 40133 54000 80005 91745 333 10250 20146 30/// 5600/ 59029 82270;","Q01  00002PRCP06"
"76458099999","2003-03-26T21:00:00","4","23.2","-106.4166666","4.0","COLONIA JUAN CARRASCO MAZATLAN SIN., MX","FM-12","99999","V020","260,1,N,0020,1","22000,1,9,N","020000,1,N,1","+0236,1","+0181,1","10108,1","06,0000,9,1",,,,,,"03,1,+08700,9,00,9",,,"03,99,1,00,1,00,1,99999,9,00,1,05,1",,"01,9",,,,"99999,9,10103,1","7,1,025,1,-039,1",,,"SYN100AAXX  26211 76458 32970 32602 10236 20181 30103 40108 57025 80005 92050 333 30/// 56009 59039 83079;","Q01  00002PRCP06"
"76458099999","2003-03-27T00:00:00","4","23.2","-106.4166666","4.0","COLONIA JUAN CARRASCO MAZATLAN SIN., MX","FM-12","99999","V020","270,1,N,0020,1","22000,1,9,N","020000,1,N,1","+0236,1","+0166,1","10096,1","06,0000,9,1","24,0000,9,1",,,,,"02,1,+08700,9,00,9",,,"02,99,1,00,1,00,1,99999,9,00,1,05,1",,"01,9",,"120,M,+0255,1","180,N,+0146,1","99999,9,10092,1","7,1,011,1,-028,1",,,"SYN118AAXX  27001 76458 32970 22702 10236 20166 30092 40096 57011 80005 92330 333 10255 20146 30/// 50481 59028 70000 82079;","Q01  00002PRCP06"
"76458099999","2003-03-27T03:00:00","4","23.2","-106.4166666","4.0","COLONIA JUAN CARRASCO MAZATLAN SIN., MX","FM-12","99999","V020","300,1,N,0020,1","22000,1,9,N","008000,1,N,1","+0212,1","+0189,1","10109,1","06,0000,9,1",,,,,,"00,1,+99999,9,99,9",,,"00,99,1,00,1,00,1,99999,9,00,1,00,1",,"01,9",,,,"99999,9,10105,1","2,1,013,1,-018,1",,,"SYN082AAXX  27031 76458 32958 03002 10212 20189 30105 40109 52013 90230 333 30/// 59018;","Q01  00002PRCP06"
"76458099999","2003-03-27T15:00:00","4","23.2","-106.4166666","4.0","COLONIA JUAN CARRASCO MAZATLAN SIN., MX","FM-12","99999","V020","999,9,C,0000,1","22000,1,9,N","008000,1,N,1","+0200,1","+0182,1","10123,1","06,0000,9,1",,,,"4,1,03,1","4,1,03,1","00,1,+99999,9,99,9",,,"00,99,1,00,1,00,1,99999,9,00,1,00,1",,"01,9",,,,"99999,9,10118,1","2,1,014,1,-010,1","42,1",,"SYN088AAXX  27151 76458 31958 00000 10200 20182 30118 40123 52014 74244 91445 333 30/// 59010;","Q01  00002PRCP06"
"76458099999","2003-03-28T00:00:00","4","23.2","-106.4166666","4.0","COLONIA JUAN CARRASCO MAZATLAN SIN., MX","FM-12","99999","V020","250,1,N,0020,1","22000,1,9,N","020000,1,N,1","+0241,1","+0186,1","10112,1","06,0000,9,1","24,0000,9,1",,,,,,,,"01,99,1,00,1,00,1,99999,9,00,1,05,1",,"01,9",,"120,M,+0270,1","180,N,+0160,1","99999,9,10107,1","7,1,008,1,+015,1",,,"SYN124AAXX  28001 76458 32970 12502 10241 20186 30107 40112 57008 80005 92335 333 10270 20160 30/// 50411 56009 58015 70000 81079;","Q01  00002PRCP06"
"76458099999","2003-03-29T00:00:00","4","23.2","-106.4166666","4.0","COLONIA JUAN CARRASCO MAZATLAN SIN., MX","FM-12","99999","V020","250,1,N,0020,1","22000,1,9,N","020000,1,N,1","+0240,1","+0196,1","10110,1","06,0000,9,1","24,0000,9,1",,,,,"01,1,+06600,9,00,9",,,"01,99,1,00,1,00,1,99999,9,00,1,01,1",,"01,9",,"120,M,+0271,1","180,N,+0160,1","99999,9,10106,1","7,1,018,1,-001,1",,,"SYN118AAXX  29001 76458 32970 12502 10240 20196 30106 40110 57018 80001 92345 333 10271 20160 30/// 56//9 59001 70000 81072;","Q01  00002PRCP06"
"76458099999","2003-03-29T06:00:00","4","23.2","-106.4166666","4.0","COLONIA JUAN CARRASCO MAZATLAN SIN., MX","FM-12","99999","V020","360,1,N,0020,1","22000,1,9,N","008000,1,N,1","+0210,1","+0186,1","10144,1","06,0000,9,1",,,,,,"00,1,+99999,9,99,9",,,"00,99,1,00,1,00,1,99999,9,00,1,00,1","0630,9","01,9",,"240,M,+0260,1","240,N,+0160,1","99999,9,10139,1","2,1,009,1,+999,9",,,"SYN106AAXX  29061 76458 32958 03602 10210 20186 30139 40144 52009 90530 333 10260 20160 30/// 55105 21841 58017;","Q01  00002PRCP06"
"76458099999","2003-03-29T15:00:00","4","23.2","-106.4166666","4.0","COLONIA JUAN CARRASCO MAZATLAN SIN., MX","FM-12","99999","V020","350,1,N,0020,1","06000,1,9,N","012000,1,N,1","+0212,1","+0182,1","10157,1","06,0000,9,1",,,,,,"07,1,+06000,9,02,9",,,"07,99,1,00,1,00,1,99999,9,00,1,06,1",,"01,9",,,,"99999,9,99999,9","9,9,999,9,+021,1",,,"SYN100AAXX  29151 76458 32962 73502 10212 20182 38115 40157 5//// 80006 91455 333 30/// 5600/ 58021 87270;","Q01  00002PRCP06Q02 081153APOSP "
"76458099999","2003-03-29T18:00:00","4","23.2","-106.4166666","4.0","COLONIA JUAN CARRASCO MAZATLAN SIN., MX","FM-12","99999","V020","270,1,N,0030,1","06000,1,9,N","015000,1,N,1","+0236,1","+0179,1","10158,1","06,0000,9,1",,,,,,"07,1,+06000,9,02,9",,,"07,99,1,00,1,00,1,99999,9,00,1,06,1",,"01,9",,"120,M,+0251,1","240,N,+0165,1","99999,9,10153,2","0,1,000,1,+022,1",,,"SYN112AAXX  29181 76458 32965 72703 10236 20179 30153 40158 50000 80006 91748 333 10251 20165 30/// 5600/ 58022 87270;","Q01+101533APOSP Q02  00002PRCP06"
"76458099999","2003-03-29T21:00:00","4","23.2","-106.4166666","4.0","COLONIA JUAN CARRASCO MAZATLAN SIN., MX","FM-12","99999","V020","280,1,N,0030,1","05400,1,9,N","018000,1,N,1","+0245,1","+0189,1","10145,1","06,0000,9,1",,,,,,"07,1,+05400,9,02,9",,,"07,99,1,00,1,00,1,99999,9,00,1,07,1",,"01,9",,,,"99999,9,10140,1","7,1,013,1,+016,1",,,"SYN100AAXX  29211 76458 32968 72803 10245 20189 30140 40145 57013 80007 92045 333 30/// 56//9 58016 87268;","Q01  00002PRCP06"
"76458099999","2003-03-30T00:00:00","4","23.2","-106.4166666","4.0","COLONIA JUAN CARRASCO MAZATLAN SIN., MX","FM-12","99999","V020","280,1,N,0020,1","99999,9,9,N","018000,1,N,1","+0238,1","+0190,1","10127,1","06,0000,9,1","24,0000,9,1",,,,,,,,"07,99,1,00,1,00,1,99999,9,00,1,08,1",,"01,9",,"120,M,+0256,1","180,N,+0165,1","99999,9,10123,1","7,1,017,1,+017,1",,,"SYN124AAXX  30000 76458 32968 72802 10238 20190 30123 40127 57017 80008 92345 333 10256 20165 30/// 50451 56//9 58017 70000 87268;","Q01  00002PRCP06"
"76458099999","2003-03-30T18:00:00","4","23.2","-106.4166666","4.0","COLONIA JUAN CARRASCO MAZATLAN SIN., MX","FM-12","99999","V020","200,1,N,0020,1","06000,1,9,N","010000,1,N,1","+0284,1","+0164,1","10155,1","06,0000,9,1",,,,,,"07,1,+06000,9,02,9",,,"07,99,1,00,1,99,9,99999,9,99,9,07,1",,"01,9",,"120,M,+0305,1","240,N,+0180,1","99999,9,10150,1","1,1,011,1,-003,1",,,"SYN106AAXX  30181 76458 32960 72002 10284 20164 30150 40155 51011 80//7 91730 333 10305 20180 30/// 59003 87270;","Q01  00002PRCP06"
"76458099999","2003-03-31T00:00:00","4","23.2","-106.4166666","4.0","COLONIA JUAN CARRASCO MAZATLAN SIN., MX","FM-12","99999","V020","280,1,N,0020,1","99999,9,9,N","020000,1,N,1","+0262,1","+0169,1","10120,1","06,0000,9,1",,,,,,,,,"07,99,1,00,1,00,1,99999,9,00,1,08,1",,"01,9",,"120,M,+0274,1","180,N,+0180,1","99999,9,10117,1","7,1,011,1,-008,1",,,"SYN118AAXX  31001 76458 32970 72802 10262 20169 30117 40120 57011 80008 92338 333 10274 20180 30/// 53661 56009 59008 87272;","Q01  00002PRCP06"
"76458099999","2003-03-31T03:00:00","4","23.2","-106.4166666","4.0","COLONIA JUAN CARRASCO MAZATLAN SIN., MX","FM-12","99999","V020","330,1,N,0020,1","05400,1,9,N","010000,1,N,1","+0248,1","+0151,1","10129,1","06,0000,9,1",,,,,,"06,1,+05400,9,02,9",,,"06,99,1,00,1,00,1,99999,9,00,1,08,1",,"01,9",,,,"99999,9,10124,1","2,1,012,1,-009,1",,,"SYN100AAXX  31031 76458 32960 63302 10248 20151 30124 40129 52012 80008 90245 333 30/// 56//9 59009 86268;","Q01  00002PRCP06"
"76458099999","2003-03-31T18:00:00","4","23.2","-106.4166666","4.0","COLONIA JUAN CARRASCO MAZATLAN SIN., MX","FM-12","99999","V020","160,1,N,0020,1","09000,1,C,N","018000,1,N,1","+0272,1","+0203,1","10154,1","06,0000,9,1",,,,,,"01,1,+00840,9,08,9","02,1,+02400,9,03,9",,"05,99,1,01,1,02,1,00800,1,03,1,02,1",,"01,9",,"120,M,+0295,1","240,N,+0182,1","99999,9,10149,1","0,1,003,1,+001,1",,,"SYN124AAXX  31181 76458 32568 51602 10272 20203 30149 40154 50003 81232 91745 333 10295 20182 30/// 565// 58001 81828 82358 82070;","Q01  00002PRCP06"
"76458099999","2003-03-31T21:00:00","4","23.2","-106.4166666","4.0","COLONIA JUAN CARRASCO MAZATLAN SIN., MX","FM-12","99999","V020","180,1,N,0030,1","99999,9,9,N","016000,1,N,1","+0301,1","+0141,1","10139,1","06,0000,9,1",,,,,,"03,1,+03300,9,03,9",,,"05,99,1,03,1,00,1,99999,9,03,1,05,1",,"01,9",,,,"99999,9,10134,1","7,1,015,1,+016,1",,,"SYN106AAXX  31211 76458 32966 51803 10301 20141 30134 40139 57015 83035 92055 333 30/// 56099 58016 83361 82079;","Q01  00002PRCP06"
"76458099999","2003-04-01T03:00:00","4","23.2","-106.4166666","4.0","COLONIA JUAN CARRASCO MAZATLAN SIN., MX","FM-12","99999","V020","310,1,N,0020,1","22000,1,9,N","008000,1,N,1","+0260,1","+0146,1","10134,1","06,0000,9,1",,,,,,"00,1,+99999,9,99,9",,,"00,99,1,00,1,00,1,99999,9,00,1,00,1",,"01,9",,,,"99999,9,10129,1","2,1,009,1,+005,1",,,"SYN082AAXX  01031 76458 32958 03102 10260 20146 30129 40134 52009 90245 333 30/// 58005;","Q01  00002PRCP06"
"76458099999","2003-04-02T09:00:00","4","23.2","-106.4166666","4.0","COLONIA JUAN CARRASCO MAZATLAN SIN., MX","FM-12","99999","V020","200,1,N,0020,1","22000,1,9,N","010000,1,N,1","+0240,1","+0178,1","10128,1","06,0000,9,1",,,,,,"02,1,+08700,9,00,9",,,"02,99,1,00,1,00,1,99999,9,00,1,02,1",,"01,9",,,,"99999,9,10124,1","8,1,001,1,-014,1",,,"SYN100AAXX  02091 76458 32960 22002 10240 20178 30124 40128 58001 80002 90840 333 30/// 56009 59014 82079;","Q01  00002PRCP06"
"76458099999","2003-04-02T15:00:00","4","23.2","-106.4166666","4.0","COLONIA JUAN CARRASCO MAZATLAN SIN., MX","FM-12","99999","V020","270,1,N,0020,1","02700,1,9,N","020000,1,N,1","+0236,1","+0186,1","10142,1","06,0000,9,1",,,,,,"04,1,+00630,9,06,9","01,1,+02700,9,03,9",,"06,99,1,04,1,04,1,00800,1,03,1,02,1",,"01,9",,,,"99999,9,10138,1","2,1,016,1,-007,1",,,"SYN112AAXX  02151 76458 32570 62702 10236 20186 30138 40142 52016 84432 91440 333 30/// 56499 59007 84621 81359 81079;","Q01  00002PRCP06"
"76458099999","2003-04-02T21:00:00","4","23.2","-106.4166666","4.0","COLONIA JUAN CARRASCO MAZATLAN SIN., MX","FM-12","99999","V020","280,1,N,0040,1","99999,9,9,N","018000,1,N,1","+0284,1","+0159,1","10126,1","06,0000,9,1",,,,,,"02,1,+01500,9,06,9","02,1,+04200,9,03,9",,"05,99,1,02,1,04,1,99999,9,03,1,01,1",,"01,9",,,,"99999,9,10121,1","7,1,021,1,-006,1",,,"SYN112AAXX  02211 76458 32968 52804 10284 20159 30121 40126 57021 82431 92045 333 30/// 56699 59006 82650 82364 81070;","Q01  00002PRCP06"
"76458099999","2003-04-03T03:00:00","4","23.2","-106.4166666","4.0","COLONIA JUAN CARRASCO MAZATLAN SIN., MX","FM-12","99999","V020","310,1,N,0030,1","22000,1,9,N","010000,1,N,1","+0242,1","+0183,1","10121,1","06,0000,9,1",,,,,,"01,1,+02400,9,03,9",,,"01,99,1,99,9,00,1,99999,9,05,1,00,1",,"01,9",,,,"99999,9,10116,1","2,1,013,1,+003,1",,,"SYN100AAXX  03031 76458 32960 13103 10242 20183 30116 40121 52013 80050 90238 333 30/// 56090 58003 81358;","Q01+000002SCOTLCQ02  00002PRCP06"
"76458099999","2003-04-03T15:00:00","4","23.2","-106.4166666","4.0","COLONIA JUAN CARRASCO MAZATLAN SIN., MX","FM-12","99999","V020","210,1,N,0020,1","22000,1,9,N","014000,1,N,1","+0254,1","+0179,1","10143,1","06,0000,9,1",,,,,,"01,1,+00840,9,08,9",,,"02,99,1,01,1,02,1,00800,1,03,1,00,1",,"01,9",,,,"99999,9,10139,1","2,1,009,1,+001,1",,,"SYN106AAXX  03151 76458 32564 22102 10254 20179 30139 40143 52009 81230 91445 333 30/// 56690 58001 81828 81360;","Q01  00002PRCP06"
"76458099999","2003-04-04T06:00:00","4","23.2","-106.4166666","4.0","COLONIA JUAN CARRASCO MAZATLAN SIN., MX","FM-12","99999","V020","310,1,N,0020,1","22000,1,9,N","010000,1,N,1","+0234,1","+0139,1","10130,1","06,0000,9,1",,,,,,"00,1,+99999,9,99,9",,,"00,99,1,00,1,00,1,99999,9,00,1,00,1","0642,9","01,9",,"240,M,+0307,1","240,N,+0197,1","99999,9,10125,1","2,1,013,1,+999,9",,,"SYN106AAXX  04061 76458 32960 03102 10234 20139 30125 40130 52013 90535 333 10307 20197 30/// 55107 21284 58001;","Q01  00002PRCP06"
"76458099999","2003-04-04T09:00:00","4","23.2","-106.4166666","4.0","COLONIA JUAN CARRASCO MAZATLAN SIN., MX","FM-12","99999","V020","130,1,N,0020,1","22000,1,9,N","008000,1,N,1","+0228,1","+0177,1","10131,1","06,0000,9,1",,,,,,"02,1,+01800,9,03,9",,,"02,99,1,02,1,99,9,02250,1,03,1,99,9",,"01,9",,,,"99999,9,10127,1","1,1,003,1,+003,1",,,"SYN094AAXX  04091 76458 32858 21302 10228 20177 30127 40131 51003 82/3/ 90830 333 30/// 58003 82356;","Q01  00002PRCP06"
"76458099999","2003-04-04T15:00:00","4","23.2","-106.4166666","4.0","COLONIA JUAN CARRASCO MAZATLAN SIN., MX","FM-12","99999","V020","330,1,N,0020,1","06000,1,9,N","012000,1,N,1","+0210,1","+0143,1","10130,1","06,0000,9,1",,,,,,"07,1,+06000,9,00,9",,,"07,99,1,00,1,00,1,99999,9,00,1,02,1",,"01,9",,,,"99999,9,10126,1","2,1,013,1,-013,1",,,"SYN100AAXX  04151 76458 32962 73302 10210 20143 30126 40130 52013 80002 91448 333 30/// 5600/ 59013 87070;","Q01  00002PRCP06"
"76458099999","2003-04-04T21:00:00","4","23.2","-106.4166666","4.0","COLONIA JUAN CARRASCO MAZATLAN SIN., MX","FM-12","99999","V020","280,1,N,0040,1","05400,1,9,N","020000,1,N,1","+0253,1","+0153,1","10119,1","06,0000,9,1",,,,,,"07,1,+05400,9,02,9",,,"07,99,1,00,1,00,1,99999,9,00,1,08,1",,"01,9",,,,"99999,9,10114,1","7,1,019,1,-010,1",,,"SYN100AAXX  04211 76458 32970 72804 10253 20153 30114 40119 57019 80008 92050 333 30/// 56//9 59010 87268;","Q01  00002PRCP06"
"76458099999","2003-04-05T00:00:00","4","23.2","-106.4166666","4.0","COLONIA JUAN CARRASCO MAZATLAN SIN., MX","FM-12","99999","V020","310,1,N,0040,1","09000,1,9,N","020000,1,N,1","+0235,1","+0160,1","10099,1","06,0000,9,1","24,0000,9,1",,,,,"03,1,+03600,9,03,9",,,"06,99,1,03,1,00,1,02250,1,03,1,08,1",,"01,9",,"120,M,+0272,1","180,N,+0171,1","99999,9,10095,1","7,1,019,1,-018,1",,,"SYN130AAXX  05001 76458 32870 63104 10235 20160 30095 40099 57019 83038 92345 333 10272 20171 30/// 50671 56/99 59018 70000 83362 83268;","Q01  00002PRCP06"
"76458099999","2003-04-05T03:00:00","4","23.2","-106.4166666","4.0","COLONIA JUAN CARRASCO MAZATLAN SIN., MX","FM-12","99999","V020","310,1,N,0010,1","22000,1,9,N","010000,1,N,1","+0222,1","+0143,1","10099,1","06,0000,9,1",,,,,,"00,1,+99999,9,99,9",,,"00,99,1,00,1,00,1,99999,9,00,1,00,1",,"01,9",,,,"99999,9,10094,1","7,1,001,1,-018,1",,,"SYN082AAXX  05031 76458 32960 03101 10222 20143 30094 40099 57001 90235 333 30/// 59018;","Q01  00002PRCP06"
"76458099999","2003-04-05T12:00:00","4","23.2","-106.4166666","4.0","COLONIA JUAN CARRASCO MAZATLAN SIN., MX","FM-12","99999","V020","120,1,N,0020,1","22000,1,9,N","008000,1,N,1","+0180,1","+9999,9","10106,1","06,0000,9,1","24,0000,9,1",,,,,"01,1,+06000,9,00,9",,,"01,99,1,00,1,99,9,99999,9,99,9,06,1",,"01,9","999,+0160,9","999,M,+0272,1","120,N,+0167,1","99999,9,10101,1","8,1,004,1,-002,1",,,"SYN112AAXX  05121 76458 32958 11202 10180 20182 30101 40106 58004 80//6 91130 333 10272 20167 30016 59002 70000 81070;","Q01  00002PRCP06"
"76458099999","2003-04-05T18:00:00","4","23.2","-106.4166666","4.0","COLONIA JUAN CARRASCO MAZATLAN SIN., MX","FM-12","99999","V020","180,1,N,0020,1","22000,1,9,N","015000,1,N,1","+0240,1","+0177,1","10128,1","06,0000,9,1",,,,,,"01,1,+02400,9,03,9",,,"04,99,1,01,1,03,1,99999,9,99,9,06,1",,"01,9",,"120,M,+0259,1","240,N,+0162,1","99999,9,10123,1","0,1,007,1,-010,1",,,"SYN118AAXX  05181 76458 32965 41802 10240 20177 30123 40128 50007 81306 91742 333 10259 20162 30/// 560// 59010 81358 83070;","Q01+000002SCOMCGQ02  00002PRCP06"
"76458099999","2003-04-05T21:00:00","4","23.2","-106.4166666","4.0","COLONIA JUAN CARRASCO MAZATLAN SIN., MX","FM-12","99999","V020","280,1,N,0040,1","22000,1,9,N","018000,1,N,1","+0236,1","+0159,1","10122,1","06,0000,9,1",,,,,,"04,1,+06000,9,00,9",,,"04,99,1,00,1,00,1,99999,9,00,1,01,1",,"01,9",,,,"99999,9,10117,1","7,1,006,1,+003,1",,,"SYN100AAXX  05211 76458 32968 42804 10236 20159 30117 40122 57006 80001 92045 333 30/// 56//9 58003 84070;","Q01  00002PRCP06"
"76458099999","2003-04-06T00:00:00","4","23.2","-106.4166666","4.0","COLONIA JUAN CARRASCO MAZATLAN SIN., MX","FM-12","99999","V020","290,1,N,0020,1","04200,1,C,N","018000,1,N,1","+0234,1","+0157,1","10111,1","06,0000,9,1","24,0000,9,1",,,,,"05,1,+04200,9,03,9",,,"06,99,1,05,1,00,1,02250,1,03,1,01,1",,"01,9",,"120,M,+0276,1","180,N,+0162,1","99999,9,10107,1","7,1,010,1,+012,1",,,"SYN130AAXX  06001 76458 32868 62902 10234 20157 30107 40111 57010 85031 92345 333 10276 20162 30/// 50511 56/99 58012 70000 85364 81070;","Q01  00002PRCP06"
"76458099999","2003-04-06T03:00:00","4","23.2","-106.4166666","4.0","COLONIA JUAN CARRASCO MAZATLAN SIN., MX","FM-12","99999","V020","310,1,N,0020,1","22000,1,9,N","016000,1,N,1","+0218,1","+0135,1","10118,1","06,0000,9,1",,,,,,"04,1,+02700,9,03,9",,,"04,99,1,04,1,00,1,99999,9,03,1,00,1",,"01,9",,,,"99999,9,10114,1","2,1,007,1,+020,1",,,"SYN100AAXX  06031 76458 32966 43102 10218 20135 30114 40118 52007 84030 90242 333 30/// 56090 58020 84359;","Q01  00002PRCP06"
"76458099999","2003-04-06T09:00:00","4","23.2","-106.4166666","4.0","COLONIA JUAN CARRASCO MAZATLAN SIN., MX","FM-12","99999","V020","360,1,N,0020,1","22000,1,9,N","008000,1,N,1","+0186,1","+0182,1","10121,1","06,0000,9,1",,,,,,,,,"02,99,1,00,1,99,9,99999,9,99,9,01,1",,"01,9",,,,"99999,9,10117,1","6,1,003,1,+012,1",,,"SYN088AAXX  06091 76458 32958 23602 10186 20182 30117 40121 56003 80//1 90840 333 30/// 58012;","Q01  00002PRCP06"
"76458099999","2003-04-06T15:00:00","4","23.2","-106.4166666","4.0","COLONIA JUAN CARRASCO MAZATLAN SIN., MX","FM-12","99999","V020","999,9,C,0000,1","08700,1,9,N","016000,1,N,1","+0199,1","+0133,1","10124,1","06,0000,9,1",,,,,,"06,1,+08700,9,00,9",,,"06,99,1,00,1,00,1,99999,9,00,1,06,1",,"01,9",,,,"99999,9,10119,1","2,1,003,1,+003,1",,,"SYN100AAXX  06151 76458 32966 60000 10199 20133 30119 40124 52003 80006 91445 333 30/// 56009 58003 86079;","Q01  00002PRCP06"
"76458099999","2003-04-06T18:00:00","4","23.2","-106.4166666","4.0","COLONIA JUAN CARRASCO MAZATLAN SIN., MX","FM-12","99999","V020","280,1,N,0020,1","09000,1,C,N","016000,1,N,1","+0222,1","+0143,1","10128,1","06,0000,9,1",,,,,,"02,1,+04200,9,03,9",,,"07,99,1,02,1,00,1,02250,1,03,1,08,1",,"01,9",,"120,M,+0247,1","240,N,+0155,1","99999,9,10124,1","0,1,005,1,+001,1",,,"SYN118AAXX  06181 76458 32866 72802 10222 20143 30124 40128 50005 82038 91750 333 10247 20155 30/// 56/99 58001 82364 85268;","Q01  00002PRCP06"
"76458099999","2003-04-06T21:00:00","4","23.2","-106.4166666","4.0","COLONIA JUAN CARRASCO MAZATLAN SIN., MX","FM-12","99999","V020","270,1,N,0020,1","09000,1,C,N","018000,1,N,1","+0220,1","+0144,1","10112,1","06,0000,9,1",,,,,,"01,1,+03600,9,03,9","03,1,+04200,9,04,9",,"07,99,1,03,1,00,1,02250,1,02,1,08,1",,"01,9",,,,"99999,9,10108,1","7,1,016,1,-009,1",,,"SYN112AAXX  06211 76458 32868 72702 10220 20144 30108 40112 57016 83028 92050 333 30/// 56/99 59009 83464 81362 83268;","Q01  00002PRCP06"
"76458099999","2003-04-07T00:00:00","4","23.2","-106.4166666","4.0","COLONIA JUAN CARRASCO MAZATLAN SIN., MX","FM-12","99999","V020","300,1,N,0020,1","99999,9,9,N","015000,1,N,1","+0220,1","+0144,1","10099,1","06,0000,9,1",,,,,,,,,"07,99,1,00,1,00,1,99999,9,00,1,08,1",,"01,9",,"120,M,+0248,1","180,N,+0155,1","99999,9,10095,1","7,1,013,1,-012,1",,,"SYN118AAXX  07001 76458 32965 73002 10220 20144 30095 40099 57013 80008 92345 333 10248 20155 30/// 53220 56009 59012 87272;","Q01  00002PRCP06"
"76458099999","2003-04-07T03:00:00","4","23.2","-106.4166666","4.0","COLONIA JUAN CARRASCO MAZATLAN SIN., MX","FM-12","99999","V020","300,1,N,0010,1","22000,1,9,N","010000,1,N,1","+0200,1","+0153,1","10111,1","06,0000,9,1",,,,,,"04,1,+06600,9,02,9",,,"04,99,1,00,1,00,1,99999,9,00,1,08,1",,"01,9",,,,"99999,9,10106,1","2,1,007,1,-008,1",,,"SYN100AAXX  07031 76458 32960 43001 10200 20153 30106 40111 52007 80008 90235 333 30/// 56009 59008 84272;","Q01  00002PRCP06"
"76458099999","2003-04-07T06:00:00","4","23.2","-106.4166666","4.0","COLONIA JUAN CARRASCO MAZATLAN SIN., MX","FM-12","99999","V020","340,1,N,0010,1","22000,1,9,N","008000,1,N,1","+0178,1","+0143,1","10110,1","06,0000,9,1",,,,,,"00,1,+99999,9,99,9",,,"00,99,1,00,1,00,1,99999,9,00,1,00,1","0180,9","01,9",,"240,M,+0248,1","240,N,+0155,1","99999,9,10105,1","0,1,001,1,+999,9",,,"SYN106AAXX  07061 76458 32958 03401 10178 20143 30105 40110 50001 90540 333 10248 20155 30/// 55030 21431 59015;","Q01  00002PRCP06"
"76458099999","2003-04-07T15:00:00","4","23.2","-106.4166666","4.0","COLONIA JUAN CARRASCO MAZATLAN SIN., MX","FM-12","99999","V020","110,1,N,0010,1","02400,1,9,N","013000,1,N,1","+0186,1","+0123,1","10117,1","06,0000,9,1",,,,,,"07,1,+02400,9,03,9",,,"07,99,1,07,1,00,1,99999,9,06,1,99,9",,"01,9",,,,"99999,9,10112,1","2,1,009,1,-007,1",,,"SYN094AAXX  07151 76458 32963 71101 10186 20123 30112 40117 52009 8706/ 91455 333 30/// 59007 87358;","Q01  00002PRCP06"
"76458099999","2003-04-08T00:00:00","4","23.2","-106.4166666","4.0","COLONIA JUAN CARRASCO MAZATLAN SIN., MX","FM-12","99999","V020","310,1,N,0020,1","99999,9,9,N","018000,1,N,1","+0220,1","+0144,1","10106,1","06,0000,9,1",,,,,,"02,1,+02400,9,03,9",,,"05,99,1,99,9,00,1,99999,9,03,1,06,1",,"01,9",,"120,M,+0251,1","180,N,+0152,1","99999,9,10101,1","7,1,020,1,+999,9",,,"SYN118AAXX  08001 76458 32968 53102 10220 20144 30101 40106 57020 80036 92350 333 10251 20152 30/// 51691 56099 82358 83072;","Q01+000002SCOTLCQ02  00002PRCP06"
"76458099999","2003-04-08T09:00:00","4","23.2","-106.4166666","4.0","COLONIA JUAN CARRASCO MAZATLAN SIN., MX","FM-12","99999","V020","320,1,N,0010,1","22000,1,9,N","008000,1,N,1","+0178,1","+0160,1","10119,1","06,0000,9,1",,,,,,"00,1,+99999,9,99,9",,,"00,99,1,00,1,00,1,99999,9,00,1,00,1",,"01,9",,,,"99999,9,10115,1","8,1,007,1,+019,1",,,"SYN082AAXX  08091 76458 32958 03201 10178 20160 30115 40119 58007 90840 333 30/// 58019;","Q01  00002PRCP06"
"76458099999","2003-04-08T15:00:00","4","23.2","-106.4166666","4.0","COLONIA JUAN CARRASCO MAZATLAN SIN., MX","FM-12","99999","V020","310,1,N,0020,1","22000,1,9,N","015000,1,N,1","+0194,1","+0144,1","10128,1","06,0000,9,1",,,,,,,,,"03,99,1,99,9,99,9,99999,9,99,9,99,9",,"01,9",,,,"99999,9,10124,1","9,9,999,9,+012,1",,,"SYN100AAXX  08151 76458 32965 33102 10194 20144 30124 40128 41010 80002 91448 333 30/// 5600/ 58012 83070;","Q01  00002PRCP06"
"76458099999","2003-04-08T18:00:00","4","23.2","-106.4166666","4.0","COLONIA JUAN CARRASCO MAZATLAN SIN., MX","FM-12","99999","V020","260,1,N,0020,1","22000,1,9,N","018000,1,N,1","+0219,1","+0154,1","10131,1","06,0000,9,1",,,,,,"02,1,+06000,9,00,9",,,"02,99,1,00,1,00,1,99999,9,00,1,04,1",,"01,9",,"120,M,+0240,1","240,N,+0140,1","99999,9,10127,1","2,1,003,1,+008,1",,,"SYN112AAXX  08181 76458 32968 22602 10219 20154 30127 40131 52003 80004 91748 333 10240 20140 30/// 56//9 58008 82070;","Q01  00002PRCP06"
"76458099999","2003-04-08T21:00:00","4","23.2","-106.4166666","4.0","COLONIA JUAN CARRASCO MAZATLAN SIN., MX","FM-12","99999","V020","290,1,N,0030,1","22000,1,9,N","018000,1,N,1","+0228,1","+0162,1","10118,1","06,0000,9,1",,,,,,"01,1,+06000,9,00,9",,,"01,99,1,00,1,00,1,99999,9,00,1,01,1",,"01,9",,,,"99999,9,10114,1","7,1,013,1,-007,1",,,"SYN100AAXX  08211 76458 32968 12903 10228 20162 30114 40118 57013 80001 92045 333 30/// 56//9 59007 81070;","Q01  00002PRCP06"
"76458099999","2003-04-09T00:00:00","4","23.2","-106.4166666","4.0","COLONIA JUAN CARRASCO MAZATLAN SIN., MX","FM-12","99999","V020","300,1,N,0020,1","22000,1,9,N","020000,1,N,1","+0230,1","+0176,1","10100,1","06,0000,9,1","24,0000,9,1",,,,,,,,"01,99,1,99,9,00,1,99999,9,03,1,00,1",,"01,9",,"120,M,+0253,1","180,N,+0140,1","99999,9,10094,1","7,1,020,1,-007,1",,,"SYN124AAXX  09001 76458 32970 13002 10230 20176 30094 40100 57020 80030 92359 333 10253 20140 30/// 53811 56090 59007 70000 81358;","Q01+000002SCOTLCQ02  00002PRCP06"
"76458099999","2003-04-09T03:00:00","4","23.2","-106.4166666","4.0","COLONIA JUAN CARRASCO MAZATLAN SIN., MX","FM-12","99999","V020","300,1,N,0010,1","22000,1,9,N","010000,1,N,1","+0204,1","+0167,1","10108,1","06,0000,9,1",,,,,,"01,1,+02400,9,03,9",,,"01,99,1,99,9,00,1,99999,9,03,1,00,1",,"01,9",,,,"99999,9,10104,1","2,1,010,1,-005,1",,,"SYN100AAXX  09031 76458 32960 13001 10204 20167 30104 40108 52010 80030 90245 333 30/// 56090 59005 81358;","Q01+000002SCOTLCQ02  00002PRCP06"
"76458099999","2003-04-09T09:00:00","4","23.2","-106.4166666","4.0","COLONIA JUAN CARRASCO MAZATLAN SIN., MX","FM-12","99999","V020","350,1,N,0010,1","22000,1,9,N","015000,1,N,1","+0180,1","+0164,1","10099,1","06,0000,9,1",,,,,,"00,1,+99999,9,99,9",,,"00,99,1,00,1,00,1,99999,9,00,1,00,1",,"01,9",,,,"99999,9,10095,1","7,1,014,1,-020,1",,,"SYN082AAXX  09090 76458 32965 03501 10180 20164 30095 40099 57014 90845 333 30/// 59020;","Q01  00002PRCP06"
"76458099999","2003-04-09T12:00:00","4","23.2","-106.4166666","4.0","COLONIA JUAN CARRASCO MAZATLAN SIN., MX","FM-12","99999","V020","110,1,N,0020,1","22000,1,9,N","015000,1,N,1","+0174,1","+0139,1","10098,1","06,0000,9,1","24,0000,9,1",,,,,"00,1,+99999,9,99,9",,,"00,99,1,00,1,00,1,99999,9,00,1,00,1",,"01,9","999,+0140,9","999,M,+0253,1","120,N,+0152,1","99999,9,10097,1","4,1,000,1,-017,1",,,"SYN100AAXX  09121 76458 32965 01102 10174 20139 30097 40098 54003 91144 333 10253 20152 30014 59017 70000;","Q01  00002PRCP06Q02  00002PRCP24"
"76458099999","2003-04-10T00:00:00","4","23.2","-106.4166666","4.0","COLONIA JUAN CARRASCO MAZATLAN SIN., MX","FM-12","99999","V020","270,1,N,0020,1","22000,1,9,N","015000,1,N,1","+0222,1","+0177,1","10099,1","06,0000,9,1","24,0000,9,1",,,,,,,,"04,99,1,99,9,00,1,99999,9,03,1,00,1",,"01,9",,"120,M,+0271,1","180,N,+0152,1","99999,9,10094,1","7,1,013,1,-001,1",,,"SYN124AAXX  10001 76458 32965 42702 10222 20177 30094 40099 57013 80030 92358 333 10271 20152 30/// 52701 56090 59001 70000 84358;","Q01+000002SCOTLCQ02  00002PRCP06"
"76458099999","2003-04-10T03:00:00","4","23.2","-106.4166666","4.0","COLONIA JUAN CARRASCO MAZATLAN SIN., MX","FM-12","99999","V020","120,1,N,0010,1","22000,1,9,N","010000,1,N,1","+0214,1","+0190,1","10120,1","06,0000,9,1",,,,,,"00,1,+99999,9,99,9",,,"00,99,1,00,1,00,1,99999,9,00,1,00,1",,"01,9",,,,"99999,9,10116,1","2,1,021,1,+012,1",,,"SYN082AAXX  10031 76458 32960 01201 10214 20190 30116 40120 52021 90235 333 30/// 58012;","Q01  00002PRCP06"
"76458099999","2003-04-10T09:00:00","4","23.2","-106.4166666","4.0","COLONIA JUAN CARRASCO MAZATLAN SIN., MX","FM-12","99999","V020","340,1,N,0020,1","99999,9,9,N","008000,1,N,1","+0202,1","+0172,1","10133,1","06,0000,9,1",,,,,,"03,1,+01800,9,03,9",,,"07,99,1,03,1,99,9,02250,1,03,1,06,1",,"01,9",,,,"99999,9,10129,1","8,1,012,1,+034,1",,,"SYN100AAXX  10091 76458 32858 73402 10202 20172 30129 40133 58012 83/36 90840 333 30/// 58034 83356 84070;","Q01  00002PRCP06"
"76458099999","2003-04-10T12:00:00","4","23.2","-106.4166666","4.0","COLONIA JUAN CARRASCO MAZATLAN SIN., MX","FM-12","99999","V020","320,1,N,0020,1","00420,1,9,N","012000,1,N,1","+0202,1","+0169,1","10132,1","06,0000,9,1","24,0000,9,1",,,,,"07,1,+00420,9,06,9",,,"07,99,1,07,1,04,1,00450,1,00,1,00,1",,"01,9","999,+0180,9","999,M,+0271,1","120,N,+0183,1","99999,9,10127,1","8,1,002,1,+034,1",,,"SYN118AAXX  10121 76458 32462 73202 10202 20169 30127 40132 58002 87400 91200 333 10271 20183 30018 56900 58034 70000 87614;","Q01  00002PRCP06"
"76458099999","2003-04-10T15:00:00","4","23.2","-106.4166666","4.0","COLONIA JUAN CARRASCO MAZATLAN SIN., MX","FM-12","99999","V020","240,1,N,0020,1","03600,1,C,N","000800,1,N,1","+0222,1","+0164,1","10145,1","06,0000,9,1",,,,"4,1,03,1","4,1,03,1","01,1,+00720,9,06,9",,,"07,99,1,01,1,04,1,00800,1,05,1,00,1",,"01,9",,,,"99999,9,10140,1","2,1,013,1,+029,1","40,1",,"SYN112AAXX  10151 76458 31508 72402 10222 20164 30140 40145 52013 74044 81450 91450 333 30/// 56550 58029 81624 86356;","Q01  00002PRCP06"
"76458099999","2003-04-10T21:00:00","4","23.2","-106.4166666","4.0","COLONIA JUAN CARRASCO MAZATLAN SIN., MX","FM-12","99999","V020","280,1,N,0040,1","22000,1,C,N","018000,1,N,1","+0251,1","+0175,1","10130,1","06,0000,9,1",,,,,,"02,1,+03600,9,03,9",,,"06,99,1,02,1,00,1,02250,1,04,1,06,1",,"01,9",,,,"99999,9,10125,1","7,1,012,1,+018,1",,,"SYN106AAXX  10211 76458 32868 62804 10251 20175 30125 40130 57012 82046 92048 333 30/// 56/99 58018 82362 84070;","Q01  00002PRCP06"
"76458099999","2003-04-11T03:00:00","4","23.2","-106.4166666","4.0","COLONIA JUAN CARRASCO MAZATLAN SIN., MX","FM-12","99999","V020","320,1,N,0020,1","22000,1,9,N","016000,1,N,1","+0231,1","+0182,1","10124,1","06,0000,9,1",,,,,,"00,1,+99999,9,99,9",,,"00,99,1,00,1,00,1,99999,9,00,1,00,1",,"01,9",,,,"99999,9,10119,1","2,1,010,1,-012,1",,,"SYN082AAXX  11031 76458 32966 03202 10231 20182 30119 40124 52010 90250 333 30/// 59012;","Q01  00002PRCP06"
"76458099999","2003-04-11T12:00:00","4","23.2","-106.4166666","4.0","COLONIA JUAN CARRASCO MAZATLAN SIN., MX","FM-12","99999","V020","350,1,N,0020,1","22000,1,9,N","008000,1,N,1","+0203,1","+0168,1","10127,1","06,0000,9,1",,,,,,"03,1,+06000,9,00,9",,,"03,99,1,00,1,00,1,99999,9,00,1,02,1",,"01,9","999,+0160,9","999,M,+0282,1","120,N,+0172,1","99999,9,10122,1","5,1,004,1,-005,1",,,"SYN112AAXX  11121 76458 32958 33502 10203 20168 30122 40127 55004 80002 91235 333 10282 20172 30016 5600/ 59005 83070;","Q01  00002PRCP06"
"76458099999","2003-04-11T15:00:00","4","23.2","-106.4166666","4.0","COLONIA JUAN CARRASCO MAZATLAN SIN., MX","FM-12","99999","V020","250,1,N,0020,1","06000,1,9,N","010000,1,N,1","+0220,1","+0158,1","10140,1","06,0000,9,1",,,,,,"05,1,+06000,9,00,9",,,"05,99,1,00,1,00,1,99999,9,00,1,02,1",,"01,9",,,,"99999,9,10135,1","1,1,013,1,-005,1",,,"SYN100AAXX  11151 76458 32960 52502 10220 20158 30135 40140 51013 80002 91448 333 30/// 5600/ 59005 85070;","Q01  00002PRCP06"
"76458099999","2003-04-11T21:00:00","4","23.2","-106.4166666","4.0","COLONIA JUAN CARRASCO MAZATLAN SIN., MX","FM-12","99999","V020","270,1,N,0020,1","09000,1,C,N","018000,1,N,1","+0243,1","+0174,1","10131,1","06,0000,9,1",,,,,,"01,1,+03600,9,03,9",,,"07,99,1,01,1,00,1,02250,1,03,1,08,1",,"01,9",,,,"99999,9,10127,1","7,1,014,1,+002,1",,,"SYN106AAXX  11211 76458 32868 72702 10243 20174 30127 40131 57014 81038 92050 333 30/// 56/99 58002 81362 86268;","Q01  00002PRCP06"
"76458099999","2003-04-12T00:00:00","4","23.2","-106.4166666","4.0","COLONIA JUAN CARRASCO MAZATLAN SIN., MX","FM-12","99999","V020","300,1,N,0010,1","22000,1,9,N","018000,1,N,1","+0262,1","+0151,1","10103,1","06,0000,9,1",,,,,,,,,"04,99,1,00,1,00,1,99999,9,00,1,06,1",,"01,9",,"120,M,+0278,1","180,N,+0172,1","99999,9,10097,1","7,1,030,1,-010,1",,,"SYN118AAXX  12001 76458 32968 43001 10262 20151 30097 40103 57030 80006 92350 333 10278 20172 30/// 53671 56009 59010 84072;","Q01  00002PRCP06"
"76458099999","2003-04-12T03:00:00","4","23.2","-106.4166666","4.0","COLONIA JUAN CARRASCO MAZATLAN SIN., MX","FM-12","99999","V020","030,1,N,0020,1","22000,1,9,N","010000,1,N,1","+0232,1","+0138,1","10116,1","06,0000,9,1",,,,,,,,,"01,99,1,99,9,99,9,99999,9,99,9,99,9",,"01,9",,,,"99999,9,10111,1","2,1,014,1,+001,1",,,"SYN082AAXX  12031 76458 32960 10302 10232 20138 30111 40116 52014 90235 333 30/// 58001;","Q01  00002PRCP06"
"76458099999","2003-04-12T06:00:00","4","23.2","-106.4166666","4.0","COLONIA JUAN CARRASCO MAZATLAN SIN., MX","FM-12","99999","V020","320,1,N,0020,1","22000,1,9,N","008000,1,N,1","+0204,1","+0151,1","10127,1","06,0000,9,1",,,,,,"00,1,+99999,9,99,9",,,"00,99,1,00,1,00,1,99999,9,00,1,00,1","0450,9","01,9",,"240,M,+0278,1","240,N,+0172,1","99999,9,10122,1","2,1,011,1,+999,9",,,"SYN106AAXX  12061 76458 32958 03202 10204 20151 30122 40127 52011 90540 333 10278 20172 30/// 55075 21462 59006;","Q01  00002PRCP06"
"76458099999","2003-04-12T15:00:00","4","23.2","-106.4166666","4.0","COLONIA JUAN CARRASCO MAZATLAN SIN., MX","FM-12","99999","V020","120,1,N,0020,1","22000,1,9,N","015000,1,N,1","+0216,1","+0164,1","10141,1","06,0000,9,1",,,,,,"00,1,+99999,9,99,9",,,"00,99,1,00,1,00,1,99999,9,00,1,00,1",,"01,9",,,,"99999,9,10136,1","1,1,012,1,+000,1",,,"SYN082AAXX  12151 76458 32965 01202 10216 20164 30136 40141 51012 91448 333 30/// 58000;","Q01  00002PRCP06"
"76458099999","2003-04-12T18:00:00","4","23.2","-106.4166666","4.0","COLONIA JUAN CARRASCO MAZATLAN SIN., MX","FM-12","99999","V020","240,1,N,0020,1","22000,1,9,N","018000,1,N,1","+0245,1","+0172,1","10141,1","06,0000,9,1",,,,,,"00,1,+99999,9,99,9",,,"00,99,1,00,1,00,1,99999,9,00,1,00,1",,"01,9",,"120,M,+0275,1","240,N,+0151,1","99999,9,10137,1","0,1,001,1,-004,1",,,"SYN094AAXX  12181 76458 32968 02402 10245 20172 30137 40141 50001 91747 333 10275 20151 30/// 59004;","Q01  00002PRCP06"
"76458099999","2003-04-12T21:00:00","4","23.2","-106.4166666","4.0","COLONIA JUAN CARRASCO MAZATLAN SIN., MX","FM-12","99999","V020","250,1,N,0020,1","22000,1,9,N","018000,1,N,1","+0244,1","+0192,1","10127,1","06,0000,9,1",,,,,,"00,1,+99999,9,99,9",,,"00,99,1,00,1,00,1,99999,9,00,1,00,1",,"01,9",,,,"99999,9,10123,1","7,1,014,1,-004,1",,,"SYN082AAXX  12211 76458 32968 02502 10244 20192 30123 40127 57014 92050 333 30/// 59004;","Q01  00002PRCP06"
"76458099999","2003-04-13T00:00:00","4","23.2","-106.4166666","4.0","COLONIA JUAN CARRASCO MAZATLAN SIN., MX","FM-12","99999","V020","200,1,N,0030,1","22000,1,9,N","020000,1,N,1","+0257,1","+0147,1","10114,1","06,0000,9,1","24,0000,9,1",,,,,"00,1,+99999,9,99,9",,,"00,99,1,00,1,00,1,99999,9,00,1,00,1",,"01,9",,"120,M,+0280,1","180,N,+0151,1","99999,9,10110,1","2,1,013,1,+012,1",,,"SYN106AAXX  13001 76458 32970 02003 10257 20147 30110 40114 52013 92355 333 10280 20151 30/// 50411 58012 70000;","Q01  00002PRCP06Q02  00002PRCP24"
"76458099999","2003-04-13T03:00:00","4","23.2","-106.4166666","4.0","COLONIA JUAN CARRASCO MAZATLAN SIN., MX","FM-12","99999","V020","280,1,N,0020,1","22000,1,9,N","016000,1,N,1","+0227,1","+0180,1","10128,1","06,0000,9,1",,,,,,"00,1,+99999,9,99,9",,,"00,99,1,00,1,00,1,99999,9,00,1,00,1",,"01,9",,,,"99999,9,10124,1","1,1,014,1,+012,1",,,"SYN082AAXX  13031 76458 32966 02802 10227 20180 30124 40128 51014 90240 333 30/// 58012;","Q01  00002PRCP06"
"76458099999","2003-04-13T06:00:00","4","23.2","-106.4166666","4.0","COLONIA JUAN CARRASCO MAZATLAN SIN., MX","FM-12","99999","V020","280,1,N,0020,1","22000,1,9,N","008000,1,N,1","+0216,1","+0167,1","10145,1","06,0000,9,1",,,,,,"00,1,+99999,9,99,9",,,"00,99,1,00,1,00,1,99999,9,00,1,00,1","0648,9","01,9",,"240,M,+0280,1","240,N,+0151,1","99999,9,10140,1","0,1,016,1,+999,9",,,"SYN106AAXX  13061 76458 32958 02802 10216 20167 30140 40145 50016 90540 333 10280 20151 30/// 55108 21927 58018;","Q01  00002PRCP06"
"76458099999","2003-04-13T09:00:00","4","23.2","-106.4166666","4.0","COLONIA JUAN CARRASCO MAZATLAN SIN., MX","FM-12","99999","V020","360,1,N,0010,1","22000,1,9,N","008000,1,N,1","+0196,1","+0162,1","10141,1","06,0000,9,1",,,,,,"01,1,+06000,9,00,9",,,"01,99,1,00,1,99,9,99999,9,99,9,01,1",,"01,9",,,,"99999,9,10137,1","8,1,003,1,+021,1",,,"SYN094AAXX  13091 76458 32958 13601 10196 20162 30137 40141 58003 80//1 90840 333 30/// 58021 81070;","Q01  00002PRCP06"
"76458099999","2003-04-13T15:00:00","4","23.2","-106.4166666","4.0","COLONIA JUAN CARRASCO MAZATLAN SIN., MX","FM-12","99999","V020","130,1,N,0020,1","22000,1,9,N","015000,1,N,1","+0218,1","+0162,1","10155,1","06,0000,9,1",,,,,,"04,1,+06000,9,00,9",,,"04,99,1,00,1,00,1,99999,9,00,1,02,1",,"01,9",,,,"99999,9,10150,1","2,1,013,1,+014,1",,,"SYN100AAXX  13151 76458 32965 41302 10218 20162 30150 40155 52013 80002 91448 333 30/// 5600/ 58014 84070;","Q01  00002PRCP06"
"76458099999","2003-04-13T18:00:00","4","23.2","-106.4166666","4.0","COLONIA JUAN CARRASCO MAZATLAN SIN., MX","FM-12","99999","V020","160,1,N,0020,1","22000,1,9,N","018000,1,N,1","+0260,1","+0138,1","10158,1","06,0000,9,1",,,,,,"04,1,+06000,9,00,9",,,"04,99,1,00,1,00,1,99999,9,00,1,01,1",,"01,9",,"120,M,+0280,1","240,N,+0158,1","99999,9,10153,1","2,1,003,1,+016,1",,,"SYN112AAXX  13181 76458 32968 41602 10260 20138 30153 40158 52003 80001 91748 333 10280 20158 30/// 56//9 58016 84070;","Q01  00002PRCP06"
"76458099999","2003-04-13T21:00:00","4","23.2","-106.4166666","4.0","COLONIA JUAN CARRASCO MAZATLAN SIN., MX","FM-12","99999","V020","210,1,N,0020,1","22000,1,9,N","020000,1,N,1","+0256,1","+0187,1","10151,1","06,0000,9,1",,,,,,"01,1,+06000,9,00,9",,,"01,99,1,00,1,00,1,99999,9,00,1,01,1",,"01,9",,,,"99999,9,10147,1","7,1,006,1,+024,1",,,"SYN100AAXX  13211 76458 32970 12102 10256 20187 30147 40151 57006 80001 92048 333 30/// 56//9 58024 81070;","Q01  00002PRCP06"
"76458099999","2003-04-14T06:00:00","4","23.2","-106.4166666","4.0","COLONIA JUAN CARRASCO MAZATLAN SIN., MX","FM-12","99999","V020","120,1,N,0020,1","22000,1,9,N","008000,1,N,1","+0214,1","+0199,1","10170,1","06,0000,9,1",,,,,,"00,1,+99999,9,99,9",,,"00,99,1,00,1,00,1,99999,9,00,1,00,1","0654,9","01,9",,"240,N,+0158,1",,"99999,9,10166,1",,,,"SYN106AAXX  14061 76458 32958 01202 10214 20199 30166 40170 5/// 90540 333 1 0270 20158 30/// 55109 21865 59026;","Q01  00002PRCP06"
"76458099999","2003-04-14T09:00:00","4","23.2","-106.4166666","4.0","COLONIA JUAN CARRASCO MAZATLAN SIN., MX","FM-12","99999","V020","360,1,N,0010,1","22000,1,9,N","008000,1,N,1","+0200,1","+0183,1","10166,1","06,0000,9,1",,,,,,"00,1,+99999,9,99,9",,,"00,99,1,00,1,00,1,99999,9,00,1,00,1",,"01,9",,,,"99999,9,10162,1","8,1,004,1,+025,1",,,"SYN082AAXX  14091 76458 32958 03601 10200 20183 30162 40166 58004 90840 333 30/// 58025;","Q01  00002PRCP06"
"76458099999","2003-04-14T15:00:00","4","23.2","-106.4166666","4.0","COLONIA JUAN CARRASCO MAZATLAN SIN., MX","FM-12","99999","V020","999,9,C,0000,1","22000,1,9,N","018000,1,N,1","+0235,1","+0152,1","10172,1","06,0000,9,1",,,,,,"01,1,+08700,9,00,9",,,"01,99,1,00,1,00,1,99999,9,00,1,01,1",,"01,9",,,,"99999,9,10167,1","2,1,010,1,+017,1",,,"SYN100AAXX  14151 76458 32968 10000 10235 20152 30167 40172 52010 80001 91450 333 30/// 56009 58017 81079;","Q01  00002PRCP06"
"76458099999","2003-04-14T21:00:00","4","23.2","-106.4166666","4.0","COLONIA JUAN CARRASCO MAZATLAN SIN., MX","FM-12","99999","V020","240,1,N,0020,1","22000,1,9,N","018000,1,N,1","+0258,1","+0157,1","10166,1","06,0000,9,1",,,,,,"02,1,+06000,9,00,9",,,"02,99,1,00,1,00,1,99999,9,00,1,05,1",,"01,9",,,,"99999,9,10162,1","5,1,008,1,+015,1",,,"SYN100AAXX  14211 76458 32668 22402 10258 20157 30162 40166 55008 80005 92050 333 30/// 56//0 58015 82070;","Q01+012502SCOLCBQ02  00002PRCP06"
"76458099999","2003-04-15T03:00:00","4","23.2","-106.4166666","4.0","COLONIA JUAN CARRASCO MAZATLAN SIN., MX","FM-12","99999","V020","250,1,N,0010,1","22000,1,9,N","010000,1,N,1","+0234,1","+0177,1","10157,1","06,0000,9,1",,,,,,"00,1,+99999,9,99,9",,,"00,99,1,00,1,00,1,99999,9,00,1,00,1",,"01,9",,,,"99999,9,10152,1","2,1,013,1,-003,1",,,"SYN082AAXX  15031 76458 32960 02501 10234 20177 30152 40157 52013 90255 333 30/// 59003;","Q01  00002PRCP06"
"76458099999","2003-04-15T06:00:00","4","23.2","-106.4166666","4.0","COLONIA JUAN CARRASCO MAZATLAN SIN., MX","FM-12","99999","V020","100,1,N,0020,1","22000,1,9,N","008000,1,N,1","+0224,1","+0198,1","10172,1","06,0000,9,1",,,,,,"00,1,+99999,9,99,9",,,"00,99,1,00,1,00,1,99999,9,00,1,00,1","0660,9","01,9",,"240,M,+0294,1","240,N,+0149,1","99999,9,10167,1","2,1,015,1,+999,9",,,"SYN106AAXX  15061 76458 32958 01002 10224 20198 30167 40172 52015 90540 333 10294 20149 30/// 55110 21671 58002;","Q01  00002PRCP06"
"76458099999","2003-04-15T09:00:00","4","23.2","-106.4166666","4.0","COLONIA JUAN CARRASCO MAZATLAN SIN., MX","FM-12","99999","V020","130,1,N,0010,1","22000,1,9,N","008000,1,N,1","+0214,1","+0194,1","10161,1","06,0000,9,1",,,,,,"00,1,+99999,9,99,9",,,"00,99,1,00,1,00,1,99999,9,00,1,00,1",,"01,9",,,,,,,,"SYN082AAXX  15091 76458 32958 01301 10214 20194 40161 40165 58006 90840 333 30/// 59001;","Q01  00002PRCP06"
"76458099999","2003-04-15T15:00:00","4","23.2","-106.4166666","4.0","COLONIA JUAN CARRASCO MAZATLAN SIN., MX","FM-12","99999","V020","150,1,N,0010,1","22000,1,9,N","012000,1,N,1","+0236,1","+0185,1","10168,1","06,0000,9,1",,,,,,"01,1,+06000,9,00,9",,,"01,99,1,00,1,00,1,99999,9,00,1,02,1",,"01,9",,,,"99999,9,10164,1","1,1,004,1,-003,1",,,"SYN100AAXX  15151 76458 32962 11501 10236 20185 30164 40168 51004 80002 91450 333 30/// 5600/ 59003 81070;","Q01  00002PRCP06"
"76458099999","2003-04-15T18:00:00","4","23.2","-106.4166666","4.0","COLONIA JUAN CARRASCO MAZATLAN SIN., MX","FM-12","99999","V020","250,1,N,0030,1","22000,1,9,N","014000,1,N,1","+0256,1","+0201,1","99999,9","06,0000,9,1",,,,,,,,,"01,99,1,99,9,99,9,00800,1,99,9,99,9",,,,,,,,,,"SYN042AAXX  15181 76458 32564 12503 10256 20201;","Q01  00002PRCP06"
"76458099999","2003-04-15T21:00:00","4","23.2","-106.4166666","4.0","COLONIA JUAN CARRASCO MAZATLAN SIN., MX","FM-12","99999","V020","260,1,N,0030,1","22000,1,9,N","018000,1,N,1","+0260,1","+0207,1","10167,1","06,0000,9,1",,,,,,"02,1,+06000,9,00,9",,,"02,99,1,00,1,00,1,99999,9,00,1,05,1",,"01,9",,,,"99999,9,10162,1","8,1,002,1,+001,1",,,"SYN100AAXX  15211 76458 32568 22603 10260 20207 30162 40167 58002 80005 92050 333 30/// 56//0 58001 82070;","Q01+008002SCOLCBQ02  00002PRCP06"
"76458099999","2003-04-16T00:00:00","4","23.2","-106.4166666","4.0","COLONIA JUAN CARRASCO MAZATLAN SIN., MX","FM-12","99999","V020","300,1,N,0020,1","22000,1,9,N","020000,1,N,1","+0256,1","+0198,1","10117,1","06,0000,9,1","24,0000,9,1",,,,,,,,"03,99,1,00,1,00,1,99999,9,00,1,06,1",,"01,9",,"120,M,+0281,1","180,N,+0177,1","99999,9,10112,1","7,1,050,1,-027,1",,,"SYN124AAXX  16001 76458 32970 33002 10256 20198 30112 40117 57050 80006 92355 333 10281 20177 30/// 53891 56009 59027 70000 83072;","Q01  00002PRCP06"
"76458099999","2003-04-16T03:00:00","4","23.2","-106.4166666","4.0","COLONIA JUAN CARRASCO MAZATLAN SIN., MX","FM-12","99999","V020","300,1,N,0030,1","22000,1,9,N","010000,1,N,1","+0232,1","+0191,1","10124,1","06,0000,9,1",,,,,,"00,1,+99999,9,99,9",,,"00,99,1,00,1,00,1,99999,9,00,1,00,1",,"01,9",,,,"99999,9,10119,1","2,1,007,1,-027,1",,,"SYN082AAXX  16031 76458 32960 03003 10232 20191 30119 40124 52007 90239 333 30/// 59027;","Q01  00002PRCP06"
"76458099999","2003-04-16T06:00:00","4","23.2","-106.4166666","4.0","COLONIA JUAN CARRASCO MAZATLAN SIN., MX","FM-12","99999","V020","300,1,N,0020,1","22000,1,9,N","010000,1,N,1","+0226,1","+0183,1","10135,1","06,0000,9,1",,,,,,,,,"04,99,1,00,1,00,1,99999,9,00,1,04,1","0660,9","01,9",,"240,M,+0281,1","240,N,+0177,1","99999,9,10130,1","2,1,011,1,-037,1",,,"SYN124AAXX  16061 76458 32960 43002 10226 20183 30130 40135 52011 80004 90545 333 10281 20177 30/// 55110 21292 56009 59037 84079;","Q01  00002PRCP06"
"76458099999","2003-04-16T09:00:00","4","23.2","-106.4166666","4.0","COLONIA JUAN CARRASCO MAZATLAN SIN., MX","FM-12","99999","V020","330,1,N,0020,1","08700,1,9,N","010000,1,N,1","+0217,1","+0192,1","10130,1","06,0000,9,1",,,,,,"06,1,+08700,9,00,9",,,"06,99,1,00,1,00,1,99999,9,00,1,04,1",,"01,9",,,,"99999,9,10126,1","7,1,004,1,-035,1",,,"SYN100AAXX  16091 76458 32960 63302 10217 20192 30126 40130 57004 86004 90840 333 30/// 56009 59035 86079;","Q01+000062SCOTLCQ02  00002PRCP06"
"76458099999","2003-04-16T12:00:00","4","23.2","-106.4166666","4.0","COLONIA JUAN CARRASCO MAZATLAN SIN., MX","FM-12","99999","V020","310,1,N,0030,1","22000,1,9,N","010000,1,N,1","+0206,1","+0185,1","10132,1","06,0000,9,1","24,0000,9,1",,,,,"02,1,+02400,9,03,9",,,"04,99,1,02,1,00,1,99999,9,03,1,02,1",,"01,9","999,+0180,9","999,M,+0281,1","120,N,+0188,1","99999,9,10127,1","5,1,002,1,-023,1",,,"SYN124AAXX  16121 76458 32960 43103 10206 20185 30127 40132 55002 82032 91145 333 10281 20188 30018 56069 59023 70000 82358 82079;","Q01  00002PRCP06"
"76458099999","2003-04-16T15:00:00","4","23.2","-106.4166666","4.0","COLONIA JUAN CARRASCO MAZATLAN SIN., MX","FM-12","99999","V020","060,1,N,0010,1","22000,1,9,N","013000,1,N,1","+0234,1","+0160,1","10143,1","06,0000,9,1",,,,,,"04,1,+06000,9,00,9",,,"04,99,1,00,1,00,1,99999,9,00,1,04,1",,"01,9",,,,"99999,9,10138,1","1,1,011,1,-026,1",,,"SYN100AAXX  16151 76458 32963 40601 10234 20160 30138 40143 51011 80004 91448 333 30/// 5600/ 59026 84070;","Q01  00002PRCP06"
"76458099999","2003-04-16T18:00:00","4","23.2","-106.4166666","4.0","COLONIA JUAN CARRASCO MAZATLAN SIN., MX","FM-12","99999","V020","240,1,N,0030,1","22000,1,9,N","018000,1,N,1","+0248,1","+0176,1","10152,1","06,0000,9,1",,,,,,"04,1,+06000,9,00,9",,,"04,99,1,00,1,00,1,99999,9,00,1,02,1",,"01,9",,"120,M,+0276,1","240,N,+0187,1","99999,9,10141,1","0,1,003,1,-023,1",,,"SYN112AAXX  16181 76458 32968 42403 10248 20176 30141 40152 50003 80002 91748 333 10276 20187 30/// 5600/ 59023 84070;","Q01  00002PRCP06"
"76458099999","2003-04-16T21:00:00","4","23.2","-106.4166666","4.0","COLONIA JUAN CARRASCO MAZATLAN SIN., MX","FM-12","99999","V020","270,1,N,0030,1","08700,1,9,N","020000,1,N,1","+0250,1","+0181,1","10127,1","06,0000,9,1",,,,,,"05,1,+08700,9,00,9",,,"05,99,1,00,1,00,1,99999,9,00,1,04,1",,"01,9",,,,"99999,9,10122,1","7,1,018,1,-040,1",,,"SYN100AAXX  16211 76458 32970 52703 10250 20181 30122 40127 57018 80004 92048 333 30/// 56009 59040 85079;","Q01  00002PRCP06"
"76458099999","2003-04-17T06:00:00","4","23.2","-106.4166666","4.0","COLONIA JUAN CARRASCO MAZATLAN SIN., MX","FM-12","99999","V020","330,1,N,0020,1","22000,1,9,N","008000,1,N,1","+0216,1","+0177,1","10142,1","06,0000,9,1",,,,,,"00,1,+99999,9,99,9",,,"00,99,1,00,1,00,1,99999,9,00,1,00,1","0642,9","01,9",,"240,M,+0278,1","240,N,+0187,1","99999,9,10138,1","2,1,020,1,+999,9",,,"SYN106AAXX  17061 76458 32958 03302 10216 20177 30138 40142 52020 90540 333 10278 20187 30/// 55107 21772 58008;","Q01  00002PRCP06"
"76458099999","2003-04-17T12:00:00","4","23.2","-106.4166666","4.0","COLONIA JUAN CARRASCO MAZATLAN SIN., MX","FM-12","99999","V020","350,1,N,0020,1","08700,1,9,N","010000,1,N,1","+0190,1","+0169,1","10131,1","06,0000,9,1","24,0000,9,1",,,,,"07,1,+08700,9,00,9",,,"07,99,1,00,1,00,1,99999,9,00,1,04,1",,"01,9","999,+0160,9","999,M,+0278,1","120,N,+0170,1","99999,9,10126,1","0,1,002,1,-001,1",,,"SYN118AAXX  17121 76458 32960 73502 10190 20169 30126 40131 50002 80004 91200 333 10278 20170 30016 56009 59001 70000 87079;","Q01  00002PRCP06"
"76458099999","2003-04-17T15:00:00","4","23.2","-106.4166666","4.0","COLONIA JUAN CARRASCO MAZATLAN SIN., MX","FM-12","99999","V020","330,1,N,0020,1","08700,1,9,N","012000,1,N,1","+0213,1","+0159,1","10134,1","06,0000,9,1",,,,"4,1,03,1","4,1,03,1","06,1,+08700,9,00,9",,,"06,99,1,00,1,00,1,99999,9,00,1,06,1",,"01,9",,,,"99999,9,10129,1","0,1,003,1,-009,1","05,1",,"SYN106AAXX  17151 76458 31962 63302 10213 20159 30129 40134 50003 70544 80006 91445 333 30/// 56009 59009 86079;","Q01  00002PRCP06"
"76458099999","2003-04-17T18:00:00","4","23.2","-106.4166666","4.0","COLONIA JUAN CARRASCO MAZATLAN SIN., MX","FM-12","99999","V020","210,1,N,0030,1","06000,1,9,N","018000,1,N,1","+0254,1","+0163,1","10128,1","06,0000,9,1",,,,,,"06,1,+06000,9,02,9",,,"06,99,1,00,1,00,1,99999,9,00,1,06,1",,"01,9",,"120,M,+0287,1","240,N,+0169,1","99999,9,10123,1","7,1,006,1,-018,1",,,"SYN112AAXX  17181 76458 32668 62103 10254 20163 30123 40128 57006 80006 91750 333 10287 20169 30/// 56//0 59018 86270;","Q01+012502SCOLCBQ02  00002PRCP06"
"76458099999","2003-04-17T21:00:00","4","23.2","-106.4166666","4.0","COLONIA JUAN CARRASCO MAZATLAN SIN., MX","FM-12","99999","V020","270,1,N,0030,1","22000,1,9,N","020000,1,N,1","+0255,1","+0186,1","10113,1","06,0000,9,1",,,,,,"04,1,+06000,9,02,9",,,"04,99,1,00,1,00,1,99999,9,00,1,07,1",,"01,9",,,,"99999,9,10109,1","7,1,014,1,-013,1",,,"SYN100AAXX  17211 76458 32570 42703 10255 20186 30109 40113 57014 80007 92050 333 30/// 56//0 59013 84270;","Q01+008002SCOLCBQ02  00002PRCP06"
"76458099999","2003-04-18T00:00:00","4","23.2","-106.4166666","4.0","COLONIA JUAN CARRASCO MAZATLAN SIN., MX","FM-12","99999","V020","300,1,N,0030,1","99999,9,9,N","020000,1,N,1","+0245,1","+0143,1","10098,1","06,0000,9,1",,,,,,"03,1,+02400,9,03,9",,,"06,99,1,99,9,00,1,99999,9,03,1,06,1",,"01,9",,"120,M,+0286,1","180,N,+0168,1","99999,9,10093,1","7,1,016,1,-011,1",,,"SYN124AAXX  18001 76458 32970 63003 10245 20143 30093 40098 57016 80036 92355 333 10286 20168 30/// 55691 56099 59011 83358 83072;","Q01+000002SCOTLCQ02  00002PRCP06"
"76458099999","2003-04-18T03:00:00","4","23.2","-106.4166666","4.0","COLONIA JUAN CARRASCO MAZATLAN SIN., MX","FM-12","99999","V020","300,1,N,0020,1","22000,1,9,N","010000,1,N,1","+0225,1","+0155,1","10098,1","06,0000,9,1",,,,,,"01,1,+02400,9,03,9",,,"01,99,1,99,9,00,1,99999,9,03,1,00,1",,"01,9",,,,"99999,9,10094,1","7,1,001,1,-024,1",,,"SYN100AAXX  18031 76458 32960 13002 10225 20155 30094 40098 57001 80030 90235 333 30/// 56090 59024 81358;","Q01+000002SCOTLCQ02  00002PRCP06"
"76458099999","2003-04-18T06:00:00","4","23.2","-106.4166666","4.0","COLONIA JUAN CARRASCO MAZATLAN SIN., MX","FM-12","99999","V020","360,1,N,0020,1","22000,1,9,N","008000,1,N,1","+0212,1","+0169,1","10108,1","06,0000,9,1",,,,,,,,,"03,99,1,00,1,99,9,99999,9,99,9,06,1","0522,9","01,9",,"240,M,+0286,1","240,N,+0168,1","99999,9,10103,1","2,1,009,1,-035,1",,,"SYN118AAXX  18061 76458 32958 33602 10212 20169 30103 40108 52009 80//6 90540 333 10286 20168 30/// 55087 21772 59035 83070;","Q01  00002PRCP06"
"76458099999","2003-04-18T09:00:00","4","23.2","-106.4166666","4.0","COLONIA JUAN CARRASCO MAZATLAN SIN., MX","FM-12","99999","V020","140,1,N,0020,1","06000,1,9,N","008000,1,N,1","+0202,1","+0159,1","10105,1","06,0000,9,1",,,,,,"07,1,+06000,9,00,9",,,"07,99,1,00,1,00,1,99999,9,00,1,06,1",,"01,9",,,,"99999,9,10100,1","8,1,003,1,-025,1",,,"SYN094AAXX  18091 76458 32958 71402 10202 20159 30100 40105 58003 80006 90840 333 30/// 59025 87070;","Q01  00002PRCP06"
"76458099999","2003-04-18T15:00:00","4","23.2","-106.4166666","4.0","COLONIA JUAN CARRASCO MAZATLAN SIN., MX","FM-12","99999","V020","130,1,N,0020,1","99999,9,9,N","012000,1,N,1","+0240,1","+0162,1","10105,1","06,0000,9,1",,,,,,"03,1,+02400,9,03,9",,,"06,99,1,03,1,00,1,99999,9,03,1,06,1",,"01,9",,,,"99999,9,10100,1","1,1,008,1,-029,1",,,"SYN106AAXX  18151 76458 32962 61302 10240 20162 30100 40105 51008 83036 91445 333 30/// 560// 59029 83358 83270;","Q01  00002PRCP06"
"76458099999","2003-04-18T18:00:00","4","23.2","-106.4166666","4.0","COLONIA JUAN CARRASCO MAZATLAN SIN., MX","FM-12","99999","V020","270,1,N,0030,1","02400,1,9,N","016000,1,N,1","+0240,1","+0179,1","10115,1","06,0000,9,1",,,,,,"05,1,+02400,9,03,9",,,"07,99,1,05,1,00,1,00800,1,06,1,07,1",,"01,9",,"120,M,+0270,1","240,N,+0175,1","99999,9,10111,1","2,1,011,1,-012,1",,,"SYN118AAXX  18181 76458 32566 72703 10240 20179 30111 40115 52011 85067 91750 333 10270 20175 30/// 56/00 59012 85358 82270;","Q01  00002PRCP06"
"76458099999","2003-04-18T21:00:00","4","23.2","-106.4166666","4.0","COLONIA JUAN CARRASCO MAZATLAN SIN., MX","FM-12","99999","V020","280,1,N,0030,1","99999,9,9,N","020000,1,N,1","+0254,1","+0165,1","10116,1","06,0000,9,1",,,,,,"04,1,+02400,9,03,9",,,"06,99,1,03,1,00,1,01250,1,05,1,02,1",,"01,9",,,,"99999,9,10112,1","3,1,001,1,+003,1",,,"SYN106AAXX  18211 76458 32670 62803 10254 20165 30112 40116 53001 83052 92050 333 30/// 56/00 58003 84358 82070;","Q01  00002PRCP06"
"76458099999","2003-04-19T06:00:00","4","23.2","-106.4166666","4.0","COLONIA JUAN CARRASCO MAZATLAN SIN., MX","FM-12","99999","V020","360,1,N,0020,1","22000,1,9,N","008000,1,N,1","+0216,1","+0161,1","10136,1","06,0000,9,1",,,,,,"02,1,+01800,9,03,9",,,"04,99,1,02,1,99,9,02250,1,03,1,06,1","0240,9","01,9",,"240,M,+0272,1","240,N,+0171,1","99999,9,10131,1","2,1,016,1,+028,1",,,"SYN124AAXX  19061 76458 32858 43602 10216 20161 30131 40136 52016 82/36 90545 333 10272 20171 30/// 55040 21385 58028 82356 82070;","Q01  00002PRCP06"
"76458099999","2003-04-19T09:00:00","4","23.2","-106.4166666","4.0","COLONIA JUAN CARRASCO MAZATLAN SIN., MX","FM-12","99999","V020","360,1,N,0010,1","99999,9,9,N","008000,1,N,1","+0214,1","+0168,1","10124,1","06,0000,9,1",,,,,,"04,1,+01800,9,04,9",,,"06,99,1,03,1,99,9,02250,1,05,1,06,1",,"01,9",,,,"99999,9,10119,1","7,1,012,1,+019,1",,,"SYN100AAXX  19091 76458 32858 63601 10214 20168 30119 40124 57012 83/56 90840 333 30/// 58019 84456 83070;","Q01  00002PRCP06"
"76458099999","2003-04-19T15:00:00","4","23.2","-106.4166666","4.0","COLONIA JUAN CARRASCO MAZATLAN SIN., MX","FM-12","99999","V020","330,1,N,0020,1","02400,1,9,N","012000,1,N,1","+0218,1","+0162,1","10119,1","06,0000,9,1",,,,,,"05,1,+02400,9,03,9",,,"07,99,1,05,1,00,1,99999,9,03,1,06,1",,"01,9",,,,"99999,9,10114,1","1,1,001,1,+014,1",,,"SYN106AAXX  19151 76458 32962 73302 10218 20162 30114 40119 51001 85036 91448 333 30/// 560// 58014 85358 82070;","Q01  00002PRCP06"
"76458099999","2003-04-19T18:00:00","4","23.2","-106.4166666","4.0","COLONIA JUAN CARRASCO MAZATLAN SIN., MX","FM-12","99999","V020","270,1,N,0020,1","99999,9,9,N","013000,1,N,1","+0242,1","+0173,1","10129,1","06,0000,9,1",,,,,,"02,1,+02400,9,03,9",,,"07,99,1,02,1,00,1,00800,1,05,1,07,1",,"01,9",,"120,M,+0269,1","240,N,+0183,1","99999,9,10124,1","2,1,014,1,+013,1",,,"SYN118AAXX  19181 76458 32563 72702 10242 20173 30124 40129 52014 82057 91750 333 10269 20183 30/// 56/00 58013 82358 85270;","Q01  00002PRCP06"
"76458099999","2003-04-19T21:00:00","4","23.2","-106.4166666","4.0","COLONIA JUAN CARRASCO MAZATLAN SIN., MX","FM-12","99999","V020","290,1,N,0020,1","06000,1,9,N","018000,1,N,1","+0250,1","+0152,1","10120,1","06,0000,9,1",,,,,,"07,1,+06000,9,02,9",,,"07,99,1,00,1,00,1,99999,9,00,1,08,1",,"01,9",,,,"99999,9,10116,1","8,1,008,1,+004,1",,,"SYN100AAXX  19211 76458 32668 72902 10250 20152 30116 40120 58008 80008 92050 333 30/// 56//0 58004 87270;","Q01+012502SCOLCBQ02  00002PRCP06"
"76458099999","2003-04-20T09:00:00","4","23.2","-106.4166666","4.0","COLONIA JUAN CARRASCO MAZATLAN SIN., MX","FM-12","99999","V020","330,1,N,0010,1","08700,1,9,N","010000,1,N,1","+0204,1","+0157,1","10113,1","06,0000,9,1",,,,,,"05,1,+08700,9,00,9",,,"05,99,1,00,1,00,1,99999,9,00,1,06,1",,"01,9",,,,"99999,9,10109,1","8,1,005,1,-010,1",,,"SYN100AAXX  20091 76458 32960 53301 10204 20157 30109 40113 58005 80006 90840 333 30/// 56009 59010 85079;","Q01  00002PRCP06"
"76458099999","2003-04-20T12:00:00","4","23.2","-106.4166666","4.0","COLONIA JUAN CARRASCO MAZATLAN SIN., MX","FM-12","99999","V020","320,1,N,0020,1","99999,9,9,N","010000,1,N,1","+0192,1","+0138,1","10108,1","06,0000,9,1","24,0000,9,1",,,,,"04,1,+05700,9,01,9",,,"07,99,1,00,1,00,1,99999,9,00,1,09,1",,"01,9","999,+0170,9","999,M,+0268,1","120,N,+0173,1","99999,9,10134,1","7,1,005,1,-011,1",,,"SYN124AAXX  20121 76458 32960 73202 10192 20138 30134 40108 57005 80009 91150 333 10268 20173 30017 56009 59011 70000 84169 83079;","Q01  00002PRCP06"
"76458099999","2003-04-20T15:00:00","4","23.2","-106.4166666","4.0","COLONIA JUAN CARRASCO MAZATLAN SIN., MX","FM-12","99999","V020","280,1,N,0020,1","02400,1,9,N","014000,1,N,1","+0217,1","+0171,1","10121,1","06,0000,9,1",,,,"4,1,03,1","2,1,03,1","05,1,+02400,9,03,9",,,"07,99,1,05,1,00,1,99999,9,03,1,05,1",,"01,9",,,,"99999,9,10116,1","2,1,012,1,+002,1","05,1",,"SYN112AAXX  20151 76458 31964 72802 10217 20171 30116 40121 52012 70542 85035 91450 333 30/// 56099 58002 85358 82079;","Q01  00002PRCP06"
"76458099999","2003-04-20T21:00:00","4","23.2","-106.4166666","4.0","COLONIA JUAN CARRASCO MAZATLAN SIN., MX","FM-12","99999","V020","290,1,N,0020,1","99999,9,9,N","018000,1,N,1","+0236,1","+0165,1","10120,1","06,0000,9,1",,,,,,"02,1,+02400,9,03,9",,,"06,99,1,02,1,00,1,00800,1,06,1,08,1",,"01,9",,,,"99999,9,10116,1","7,1,013,1,+000,1",,,"SYN106AAXX  20211 76458 32568 62902 10236 20165 30116 40120 57013 82068 92050 333 30/// 56/00 58000 82358 84270;","Q01  00002PRCP06"
"76458099999","2003-04-21T00:00:00","4","23.2","-106.4166666","4.0","COLONIA JUAN CARRASCO MAZATLAN SIN., MX","FM-12","99999","V020","300,1,N,0020,1","99999,9,9,N","018000,1,N,1","+0235,1","+0167,1","10100,1","06,0000,9,1",,,,,,"03,1,+02400,9,03,9",,,"06,99,1,99,9,00,1,99999,9,03,1,08,1",,"01,9",,"120,M,+0271,1","180,N,+0169,1","99999,9,10095,1","7,1,020,1,-006,1",,,"SYN124AAXX  21001 76458 32968 63002 10235 20167 30095 40100 57020 80038 92350 333 10271 20169 30/// 53291 56099 59006 83358 83272;","Q01+000002SCOTLCQ02  00002PRCP06"
"76458099999","2003-04-21T06:00:00","4","23.2","-106.4166666","4.0","COLONIA JUAN CARRASCO MAZATLAN SIN., MX","FM-12","99999","V020","360,1,N,0010,1","22000,1,9,N","008000,1,N,1","+0206,1","+0160,1","10114,1","06,0000,9,1",,,,,,"00,1,+99999,9,99,9",,,"00,99,1,00,1,00,1,99999,9,00,1,00,1","0204,9","01,9",,"240,M,+0271,1","240,N,+0162,1","99999,9,10110,1","2,1,008,1,+999,9",,,"SYN106AAXX  21061 76458 32958 03601 10206 20160 30110 40114 52008 90540 333 10271 20162 30/// 55034 21044 59003;","Q01  00002PRCP06"
"76458099999","2003-04-21T09:00:00","4","23.2","-106.4166666","4.0","COLONIA JUAN CARRASCO MAZATLAN SIN., MX","FM-12","99999","V020","340,1,N,0010,1","22000,1,9,N","008000,1,N,1","+0184,1","+0140,1","10105,1","06,0000,9,1",,,,,,"00,1,+99999,9,99,9",,,"00,99,1,00,1,00,1,99999,9,00,1,00,1",,"01,9",,,,"99999,9,10101,1","7,1,009,1,-008,1",,,"SYN082AAXX  21091 76458 32958 03401 10184 20140 30101 40105 57009 90840 333 30/// 59008;","Q01  00002PRCP06"
"76458099999","2003-04-21T12:00:00","4","23.2","-106.4166666","4.0","COLONIA JUAN CARRASCO MAZATLAN SIN., MX","FM-12","99999","V020","999,9,C,0000,1","22000,1,9,N","010000,1,N,1","+0166,1","+0138,1","10108,1","06,0000,9,1","24,0000,9,1",,,,,"01,1,+02400,9,03,9",,,"02,99,1,01,1,00,1,99999,9,03,1,01,1",,"01,9","999,+0130,9","999,M,+0271,1","120,N,+0145,1","99999,9,10103,1","4,1,000,1,+000,1",,,"SYN124AAXX  21121 76458 32960 20000 10166 20138 30103 40108 54003 81031 91200 333 10271 20145 30013 56099 59000 70000 81358 81079;","Q01  00002PRCP06"
"76458099999","2003-04-21T15:00:00","4","23.2","-106.4166666","4.0","COLONIA JUAN CARRASCO MAZATLAN SIN., MX","FM-12","99999","V020","999,9,C,0000,1","22000,1,9,N","012000,1,N,1","+0220,1","+0141,1","10116,1","06,0000,9,1",,,,"4,1,03,1","4,1,03,1","02,1,+02700,9,03,9",,,"03,99,1,02,1,00,1,99999,9,03,1,01,1",,"01,9",,,,"99999,9,10112,1","2,1,008,1,-004,1","05,1",,"SYN112AAXX  21151 76458 31962 30000 10220 20141 30112 40116 52008 70544 82031 91441 333 30/// 56099 59004 82359 81070;","Q01  00002PRCP06"
"76458099999","2003-04-21T21:00:00","4","23.2","-106.4166666","4.0","COLONIA JUAN CARRASCO MAZATLAN SIN., MX","FM-12","99999","V020","260,1,N,0030,1","22000,1,9,N","018000,1,N,1","+0256,1","+0182,1","10113,1","06,0000,9,1",,,,,,"01,1,+02400,9,03,9",,,"01,99,1,01,1,00,1,00800,1,05,1,99,9",,"01,9",,,,"99999,9,10108,1","8,1,007,1,-008,1",,,"SYN100AAXX  21211 76458 32568 12603 10256 20182 30108 40113 58007 8105/ 92050 333 30/// 56/0/ 59008 81358;","Q01  00002PRCP06"
"76458099999","2003-04-22T00:00:00","4","23.2","-106.4166666","4.0","COLONIA JUAN CARRASCO MAZATLAN SIN., MX","FM-12","99999","V020","270,1,N,0020,1","22000,1,9,N","018000,1,N,1","+0244,1","+0183,1","10104,1","06,0000,9,1",,,,,,"00,1,+99999,9,99,9",,,"00,99,1,00,1,00,1,99999,9,00,1,00,1",,"01,9",,"120,M,+0274,1","180,N,+0145,1","99999,9,10099,1","7,1,009,1,+004,1",,,"SYN100AAXX  22001 76458 32968 02702 10244 20183 30099 40104 57009 92355 333 10274 20145 30/// 54941 58004;","Q01  00002PRCP06"
"76458099999","2003-04-22T06:00:00","4","23.2","-106.4166666","4.0","COLONIA JUAN CARRASCO MAZATLAN SIN., MX","FM-12","99999","V020","270,1,N,0010,1","22000,1,9,N","008000,1,N,1","+0214,1","+0191,1","10124,1","06,0000,9,1",,,,,,"00,1,+99999,9,99,9",,,"00,99,1,00,1,00,1,99999,9,00,1,00,1","0666,9","01,9",,"240,M,+0274,1","240,N,+0145,1","99999,9,10119,1","2,1,014,1,+999,9",,,"SYN106AAXX  22061 76458 32958 02701 10214 20191 30119 40124 52014 90540 333 10274 20145 30/// 55111 28010 58019;","Q01  00002PRCP06"
"76458099999","2003-04-22T15:00:00","4","23.2","-106.4166666","4.0","COLONIA JUAN CARRASCO MAZATLAN SIN., MX","FM-12","99999","V020","999,9,C,0000,1","22000,1,9,N","010000,1,N,1","+0221,1","+0166,1","10123,1","06,0000,9,1",,,,"4,1,03,1","4,1,03,1","00,1,+99999,9,99,9",,,"00,99,1,00,1,00,1,99999,9,00,1,00,1",,"01,9",,,,"99999,9,10118,1","2,1,015,1,+006,1","05,1",,"SYN088AAXX  22151 76458 31960 00000 10221 20166 30118 40123 52015 70544 91445 333 30/// 58006;","Q01  00002PRCP06"
"76458099999","2003-04-22T18:00:00","4","23.2","-106.4166666","4.0","COLONIA JUAN CARRASCO MAZATLAN SIN., MX","FM-12","99999","V020","240,1,N,0030,1","22000,1,9,N","010000,1,N,1","+0224,1","+0191,1","10133,1","06,0000,9,1",,,,"4,1,06,1","4,1,06,1","00,1,+99999,9,99,9",,,"00,99,1,00,1,00,1,99999,9,00,1,00,1",,"01,9",,"120,M,+0265,1","240,N,+0162,1","99999,9,10128,1","2,1,010,1,+013,1","01,1",,"SYN100AAXX  22181 76458 32060 02403 10224 20191 30128 40133 52010 70144 91750 333 10265 20162 30/// 58013;","Q01  00002PRCP06"
"76458099999","2003-04-22T21:00:00","4","23.2","-106.4166666","4.0","COLONIA JUAN CARRASCO MAZATLAN SIN., MX","FM-12","99999","V020","210,1,N,0020,1","02400,1,9,N","016000,1,N,1","+0256,1","+0197,1","10131,1","06,0000,9,1",,,,,,"01,1,+00720,9,08,9","05,1,+02400,9,03,9",,"07,99,1,01,1,02,1,00800,1,02,1,05,1",,"01,9",,,,"99999,9,10126,1","8,1,002,1,+018,1",,,"SYN112AAXX  22211 76458 32566 72102 10256 20197 30126 40131 58002 81225 92050 333 30/// 56000 58018 81824 85358 81070;","Q01  00002PRCP06"
"76458099999","2003-04-23T00:00:00","4","23.2","-106.4166666","4.0","COLONIA JUAN CARRASCO MAZATLAN SIN., MX","FM-12","99999","V020","260,1,N,0010,1","22000,1,9,N","006000,1,N,1","+0242,1","+0196,1","10107,1","06,0000,9,1","24,0000,9,1",,,,,,,,"04,99,1,99,9,00,1,99999,9,03,1,00,1",,"01,9",,"120,M,+0280,1","180,N,+0162,1","99999,9,10102,1","7,1,024,1,+002,1",,,"SYN124AAXX  23001 76458 32956 42601 10242 20196 30102 40107 57024 80030 92340 333 10280 20162 30/// 54161 56090 58002 70000 84358;","Q01+000002SCOTLCQ02  00002PRCP06"
"76458099999","2003-04-23T03:00:00","4","23.2","-106.4166666","4.0","COLONIA JUAN CARRASCO MAZATLAN SIN., MX","FM-12","99999","V020","280,1,N,0010,1","22000,1,9,N","010000,1,N,1","+0225,1","+0197,1","10112,1","06,0000,9,1",,,,,,"01,1,+02400,9,03,9",,,"01,99,1,99,9,00,1,99999,9,03,1,00,1",,"01,9",,,,"99999,9,10107,1","2,1,005,1,+002,1",,,"SYN100AAXX  23031 76458 32960 12801 10225 20197 30107 40112 52005 80030 90235 333 30/// 56090 58002 81358;","Q01+000002SCOTLCQ02  00002PRCP06"
"76458099999","2003-04-23T06:00:00","4","23.2","-106.4166666","4.0","COLONIA JUAN CARRASCO MAZATLAN SIN., MX","FM-12","99999","V020","999,9,C,0000,1","22000,1,9,N","010000,1,N,1","+0220,1","+0197,1","10116,1","06,0000,9,1",,,,,,"00,1,+99999,9,99,9",,,"00,99,1,00,1,00,1,99999,9,00,1,00,1","0540,9","01,9",,"240,M,+0277,1","240,N,+0162,1","99999,9,10111,1","0,1,004,1,+999,9",,,"SYN106AAXX  23061 76458 32960 00000 10220 20197 30111 40116 50004 90550 333 10277 20162 30/// 55090 20967 59008;","Q01  00002PRCP06"
"76458099999","2003-04-23T12:00:00","4","23.2","-106.4166666","4.0","COLONIA JUAN CARRASCO MAZATLAN SIN., MX","FM-12","99999","V020","999,9,C,0000,1","00060,1,9,N","000600,1,N,1","+0202,1","+0197,1","10107,1","06,0000,9,1","24,0000,9,1",,,"4,1,06,1","4,1,06,1","09,1,+99999,9,99,9",,,"09,99,1,09,1,99,9,99999,9,99,9,99,9",,"01,9","999,+0170,9","999,M,+0277,1","120,N,+0180,1","99999,9,10103,1","5,1,000,1,+000,1","46,1",,"SYN112AAXX  23121 76458 31/06 90000 10202 20197 30103 40107 55000 74644 89/// 91145 333 10277 20180 30017 59000 70000;","Q01  00002PRCP06Q02  00002PRCP24"
"76458099999","2003-04-23T15:00:00","4","23.2","-106.4166666","4.0","COLONIA JUAN CARRASCO MAZATLAN SIN., MX","FM-12","99999","V020","060,1,N,0010,1","22000,1,9,N","006000,1,N,1","+0222,1","+0196,1","10119,1","06,0000,9,1",,,,"4,1,03,1","0,1,03,1","02,1,+00330,9,08,9",,,"02,99,1,02,1,02,1,00250,1,00,1,00,1",,"01,9",,,,"99999,9,10114,1","2,1,016,1,-008,1","10,1",,"SYN106AAXX  23151 76458 32356 20601 10222 20196 30114 40119 52016 71040 82200 91448 333 30/// 56/00 59008 82811;","Q01  00002PRCP06"
"76458099999","2003-04-23T18:00:00","4","23.2","-106.4166666","4.0","COLONIA JUAN CARRASCO MAZATLAN SIN., MX","FM-12","99999","V020","240,1,N,0020,1","22000,1,9,N","015000,1,N,1","+0246,1","+0192,1","10130,1","06,0000,9,1",,,,,,"02,1,+06000,9,00,9",,,"02,99,1,00,1,00,1,99999,9,00,1,05,1",,"01,9",,"120,M,+0271,1","240,N,+0172,1","99999,9,10126,1","1,1,012,1,-003,1",,,"SYN112AAXX  23181 76458 32965 22402 10246 20192 30126 40130 51012 80005 91755 333 10271 20172 30/// 5600/ 59003 82070;","Q01  00002PRCP06"
"76458099999","2003-04-23T21:00:00","4","23.2","-106.4166666","4.0","COLONIA JUAN CARRASCO MAZATLAN SIN., MX","FM-12","99999","V020","260,1,N,0020,1","22000,1,9,N","018000,1,N,1","+0246,1","+0187,1","10122,1","06,0000,9,1",,,,,,"01,1,+08700,9,00,9",,,"01,99,1,00,1,00,1,99999,9,00,1,01,1",,"01,9",,,,"99999,9,10117,1","7,1,008,1,-009,1",,,"SYN100AAXX  23211 76458 32968 12602 10246 20187 30117 40122 57008 80001 92050 333 30/// 56009 59009 81079;","Q01  00002PRCP06"
"76458099999","2003-04-24T00:00:00","4","23.2","-106.4166666","4.0","COLONIA JUAN CARRASCO MAZATLAN SIN., MX","FM-12","99999","V020","240,1,N,0020,1","22000,1,9,N","018000,1,N,1","+0250,1","+0189,1","10110,1","06,0000,9,1",,,,,,"01,1,+06600,9,00,9",,,"01,99,1,00,1,00,1,99999,9,00,1,06,1",,"01,9",,"120,M,+0278,1","180,N,+0172,1","99999,9,10105,1","7,1,012,1,+999,9",,,"SYN112AAXX  24001 76458 32968 12402 10250 20189 30105 40110 57012 80006 92355 333 10278 20172 30/// 53511 56009 81072;","Q01  00002PRCP06"
"76458099999","2003-04-24T03:00:00","4","23.2","-106.4166666","4.0","COLONIA JUAN CARRASCO MAZATLAN SIN., MX","FM-12","99999","V020","280,1,N,0010,1","22000,1,9,N","010000,1,N,1","+0226,1","+0194,1","10121,1","06,0000,9,1",,,,,,"01,1,+02400,9,03,9",,,"01,99,1,99,9,00,1,99999,9,03,1,00,1",,"01,9",,,,"99999,9,10116,1","2,1,011,1,+009,1",,,"SYN100AAXX  24031 76458 32960 12801 10226 20194 30116 40121 52011 80030 90235 333 30/// 56090 58009 81358;","Q01+000002SCOTLCQ02  00002PRCP06"
"76458099999","2003-04-24T06:00:00","4","23.2","-106.4166666","4.0","COLONIA JUAN CARRASCO MAZATLAN SIN., MX","FM-12","99999","V020","360,1,N,0010,1","22000,1,9,N","008000,1,N,1","+0216,1","+0186,1","10132,1","06,0000,9,1",,,,,,,,,"02,99,1,02,1,06,1,00450,1,99,9,99,9","0612,9","01,9",,"240,M,+0278,1","240,N,+0172,1","99999,9,10127,1","2,1,011,1,+016,1",,,"SYN118AAXX  24061 76458 32458 23601 10216 20186 30127 40132 52011 826// 90540 333 10278 20172 30/// 55102 22012 58016 82712;","Q01  00002PRCP06"
"76458099999","2003-04-24T09:00:00","4","23.2","-106.4166666","4.0","COLONIA JUAN CARRASCO MAZATLAN SIN., MX","FM-12","99999","V020","360,1,N,0020,1","06000,1,9,N","008000,1,N,1","+0202,1","+0185,1","10128,1","06,0000,9,1",,,,,,"05,1,+06000,9,00,9",,,"05,99,1,00,1,99,9,99999,9,99,9,06,1",,"01,9",,,,"99999,9,10123,1","8,1,004,1,+020,1",,,"SYN094AAXX  24091 76458 32958 53602 10202 20185 30123 40128 58004 80//6 90845 333 30/// 58020 85070;","Q01  00002PRCP06"
"76458099999","2003-04-24T15:00:00","4","23.2","-106.4166666","4.0","COLONIA JUAN CARRASCO MAZATLAN SIN., MX","FM-12","99999","V020","140,1,N,0030,1","22000,1,9,N","004000,1,N,1","+0220,1","+0191,1","10136,1","06,0000,9,1",,,,"4,1,03,1","4,1,03,1","03,1,+00360,9,06,9",,,"07,99,1,03,1,04,1,00450,1,00,1,04,1",,"01,9",,,,"99999,9,10131,1","2,1,013,1,+014,1","05,1",,"SYN106AAXX  24151 76458 31440 71403 10220 20191 30131 40136 52013 70544 83404 91455 333 30/// 58014 83612 74079;","Q01  00002PRCP06"
"76458099999","2003-04-24T18:00:00","4","23.2","-106.4166666","4.0","COLONIA JUAN CARRASCO MAZATLAN SIN., MX","FM-12","99999","V020","190,1,N,0020,1","22000,1,9,N","010000,1,N,1","+0255,1","+0192,1","10142,1","06,0000,9,1",,,,,,"04,1,+06000,9,02,9",,,"04,99,1,00,1,00,1,99999,9,00,1,08,1",,"01,9",,"120,M,+0273,1","240,N,+0173,1","99999,9,10137,1","0,1,006,1,+012,1",,,"SYN112AAXX  24181 76458 32560 41902 10255 20192 30137 40142 50006 80008 91750 333 10273 20173 30/// 56//0 58012 84270;","Q01+008002SCOLCBQ02  00002PRCP06"
"76458099999","2003-04-25T21:00:00","4","23.2","-106.4166666","4.0","COLONIA JUAN CARRASCO MAZATLAN SIN., MX","FM-12","99999","V020","260,1,N,0020,1","22000,1,9,N","018000,1,N,1","+0254,1","+0193,1","10117,1","06,0000,9,1",,,,,,"01,1,+06000,9,00,9",,,"01,99,1,00,1,00,1,99999,9,00,1,05,1",,"01,9",,,,"99999,9,10113,1","5,1,013,1,-020,1",,,"SYN100AAXX  25211 76458 32568 12602 10254 20193 30113 40117 55013 80005 92050 333 30/// 56//0 59020 81070;","Q01+008002SCOLCBQ02  00002PRCP06"
"76458099999","2003-04-26T03:00:00","4","23.2","-106.4166666","4.0","COLONIA JUAN CARRASCO MAZATLAN SIN., MX","FM-12","99999","V020","280,1,N,0010,1","22000,1,9,N","010000,1,N,1","+0232,1","+0202,1","10117,1","06,0000,9,1",,,,,,"00,1,+99999,9,99,9",,,"00,99,1,00,1,00,1,99999,9,00,1,00,1",,"01,9",,,,"99999,9,10112,1","2,1,004,1,-002,1",,,"SYN082AAXX  26031 76458 32960 02801 10232 20202 30112 40117 52004 90235 333 30/// 59002;","Q01  00002PRCP06"
"76458099999","2003-04-26T06:00:00","4","23.2","-106.4166666","4.0","COLONIA JUAN CARRASCO MAZATLAN SIN., MX","FM-12","99999","V020","320,1,N,0020,1","22000,1,9,N","008000,1,N,1","+0222,1","+0184,1","10114,1","06,0000,9,1",,,,,,"00,1,+99999,9,99,9",,,"00,99,1,00,1,00,1,99999,9,00,1,00,1","0648,9","01,9",,"240,M,+0276,1","240,N,+0170,1","99999,9,10110,1",,,,"SYN106AAXX  26061 76458 32958 03202 10222 20184 30110 40114 5//// 90540 333 10276 20170 30/// 55108 21849 59014;","Q01  00002PRCP06"
"76458099999","2003-04-26T09:00:00","4","23.2","-106.4166666","4.0","COLONIA JUAN CARRASCO MAZATLAN SIN., MX","FM-12","99999","V020","340,1,N,0010,1","22000,1,9,N","008000,1,N,1","+0204,1","+0189,1","10108,1","06,0000,9,1",,,,,,"00,1,+99999,9,99,9",,,"00,99,1,00,1,00,1,99999,9,00,1,00,1",,"01,9",,,,"99999,9,10103,1","7,1,007,1,-013,1",,,"SYN082AAXX  26091 76458 32958 03401 10204 20189 30103 40108 57007 90845 333 30/// 59013;","Q01  00002PRCP06"
"76458099999","2003-04-26T15:00:00","4","23.2","-106.4166666","4.0","COLONIA JUAN CARRASCO MAZATLAN SIN., MX","FM-12","99999","V020","040,1,N,0010,1","06000,1,9,N","013000,1,N,1","+0228,1","+0183,1","10114,1","06,0000,9,1",,,,,,"06,1,+06000,9,00,9",,,"06,99,1,00,1,00,1,99999,9,00,1,02,1",,"01,9",,,,"99999,9,10110,1","2,1,011,1,-022,1",,,"SYN100AAXX  26151 76458 32963 60401 10228 20183 30110 40114 52011 80002 91443 333 30/// 5600/ 59022 86070;","Q01  00002PRCP06"
"76458099999","2003-04-26T18:00:00","4","23.2","-106.4166666","4.0","COLONIA JUAN CARRASCO MAZATLAN SIN., MX","FM-12","99999","V020","220,1,N,0020,1","99999,9,9,N","015000,1,N,1","+0256,1","+0175,1","10121,1","06,0000,9,1",,,,,,"01,1,+00990,9,08,9",,,"05,99,1,01,1,99,9,01250,1,00,1,02,1",,"01,9",,"120,M,+0280,1","240,N,+0180,1","99999,9,10117,1","1,1,007,1,-009,1",,,"SYN118AAXX  26181 76458 32665 52202 10256 20175 30117 40121 51007 81002 91748 333 10280 20180 30/// 5640/ 59009 81833 84070;","Q01+000002SCOLCGQ02  00002PRCP06"
"76458099999","2003-04-27T00:00:00","4","23.2","-106.4166666","4.0","COLONIA JUAN CARRASCO MAZATLAN SIN., MX","FM-12","99999","V020","270,1,N,0010,1","99999,9,9,N","018000,1,N,1","+0254,1","+0190,1","10106,1","06,0000,9,1",,,,,,"01,1,+00810,9,06,9",,,"06,99,1,01,1,05,1,00800,1,99,9,06,1",,"01,9",,"120,M,+0285,1","180,N,+0180,1","99999,9,10101,1",,,,"SYN124AAXX  27001 76458 32568 62701 10254 20190 30101 40106 5//// 815/6 92340 333 10285 20180 30/// 50441 58/// 58/// 81627 85070;","Q01  00002PRCP06"
"76458099999","2003-04-27T06:00:00","4","23.2","-106.4166666","4.0","COLONIA JUAN CARRASCO MAZATLAN SIN., MX","FM-12","99999","V020","010,1,N,0020,1","22000,1,9,N","012000,1,N,1","+0226,1","+0191,1","10131,1","06,0000,9,1",,,,,,,,,"04,99,1,04,1,03,1,00450,1,00,1,00,1","0522,9","01,9",,"240,M,+0284,1","240,N,+0180,1","99999,9,10126,1","2,1,012,1,+016,1",,,"SYN124AAXX  27061 76458 32462 40102 10226 20191 30126 40131 52012 84300 90600 333 10284 20180 30/// 55087 21075 56400 58016 84615;","Q01  00002PRCP06"
"76458099999","2003-04-27T09:00:00","4","23.2","-106.4166666","4.0","COLONIA JUAN CARRASCO MAZATLAN SIN., MX","FM-12","99999","V020","999,9,C,0000,1","00450,1,9,N","012000,1,N,1","+0228,1","+0193,1","10120,1","06,0000,9,1",,,,,,"08,1,+00450,9,07,9",,,"08,99,1,08,1,07,1,00450,1,00,1,00,1",,"01,9",,,,"99999,9,10115,1","7,1,011,1,+012,1",,,"SYN100AAXX  27091 76458 32462 80000 10228 20193 30115 40120 57011 88700 90850 333 30/// 56400 58012 88715;","Q01  00002PRCP06"
"76458099999","2003-04-27T12:00:00","4","23.2","-106.4166666","4.0","COLONIA JUAN CARRASCO MAZATLAN SIN., MX","FM-12","99999","V020","999,9,C,0000,1","00450,1,9,N","012000,1,N,1","+0229,1","+0190,1","10118,1","06,0000,9,1","24,0000,9,1",,,,,"08,1,+00450,9,07,9",,,"08,99,1,08,1,07,1,00450,1,00,1,00,1",,"01,9","999,+0210,9","999,M,+0285,1","120,N,+0210,1","99999,9,10113,1","7,1,002,1,+015,1",,,"SYN118AAXX  27121 76458 32462 80000 10229 20190 30113 40118 57002 88700 91150 333 10285 20210 30021 56400 58015 70000 88715;","Q01  00002PRCP06"
"76458099999","2003-04-27T15:00:00","4","23.2","-106.4166666","4.0","COLONIA JUAN CARRASCO MAZATLAN SIN., MX","FM-12","99999","V020","030,1,N,0020,1","00570,1,9,N","014000,1,N,1","+0238,1","+0192,1","10131,1","06,0000,9,1",,,,,,"08,1,+00570,9,07,9",,,"08,99,1,08,1,07,1,00450,1,00,1,00,1",,"01,9",,,,"99999,9,10127,1","2,1,014,1,+017,1",,,"SYN100AAXX  27151 76458 32464 80302 10238 20192 30127 40131 52014 88700 91450 333 30/// 56400 58017 88719;","Q01  00002PRCP06"
"76458099999","2003-04-28T00:00:00","4","23.2","-106.4166666","4.0","COLONIA JUAN CARRASCO MAZATLAN SIN., MX","FM-12","99999","V020","250,1,N,0020,1","00750,1,9,N","015000,1,N,1","+0252,1","+0194,1","10084,1","06,0000,9,1","24,0000,9,1",,,,,,,,"07,99,1,07,1,05,1,00800,1,00,1,00,1",,"01,9",,"120,M,+0280,1","180,N,+0203,1","99999,9,10079,1","4,1,000,1,-019,1",,,"SYN124AAXX  28001 76458 32565 72502 10252 20194 30079 40084 54000 87500 92350 333 10280 20203 30/// 53411 56900 59019 70000 87624;","Q01  00002PRCP06"
"76458099999","2003-04-28T15:00:00","4","23.2","-106.4166666","4.0","COLONIA JUAN CARRASCO MAZATLAN SIN., MX","FM-12","99999","V020","120,1,N,0010,1","03600,1,C,N","012000,1,N,1","+0238,1","+0202,1","10122,1","06,0000,9,1",,,,,,"03,1,+01350,9,06,9",,,"07,99,1,03,1,06,1,00450,1,03,1,99,9",,"01,9",,,,"99999,9,10118,1","1,1,010,1,-009,1",,,"SYN106AAXX  28151 76458 32462 71201 10238 20202 30118 40122 51010 8363/ 91450 333 30/// 563/0 59009 83645 84358;","Q01  00002PRCP06"
"76458099999","2003-04-28T18:00:00","4","23.2","-106.4166666","4.0","COLONIA JUAN CARRASCO MAZATLAN SIN., MX","FM-12","99999","V020","240,1,N,0020,1","99999,9,9,N","016000,1,N,1","+0249,1","+0202,1","10131,1","06,0000,9,1",,,,,,"04,1,+02400,9,03,9",,,"07,99,1,04,1,00,1,99999,9,07,1,08,1",,"01,9",,"120,M,+0281,1","240,N,+0188,1","99999,9,10127,1","2,1,009,1,+999,9",,,"SYN112AAXX  28181 76458 32966 72402 10249 20202 30127 40131 52009 84078 91750 333 10281 20188 30/// 56099 84358 83276;","Q01  00002PRCP06"
"76458099999","2003-04-28T21:00:00","4","23.2","-106.4166666","4.0","COLONIA JUAN CARRASCO MAZATLAN SIN., MX","FM-12","99999","V020","270,1,N,0020,1","02400,1,9,N","017000,1,N,1","+0245,1","+0202,1","10124,1","06,0000,9,1",,,,,,"07,1,+02400,9,03,9",,,"07,99,1,07,1,00,1,02250,1,03,1,00,1",,"01,9",,,,"99999,9,10120,1","7,1,007,1,+999,9",,,"SYN094AAXX  28211 76458 32867 72702 10245 20202 30120 40124 57007 87030 92050 333 30/// 56090 87358;","Q01  00002PRCP06"
"76458099999","2003-04-29T00:00:00","4","23.2","-106.4166666","4.0","COLONIA JUAN CARRASCO MAZATLAN SIN., MX","FM-12","99999","V020","270,1,N,0010,1","99999,9,9,N","015000,1,N,1","+0244,1","+0198,1","10109,1","06,0000,9,1",,,,,,,,,"06,99,1,99,9,00,1,99999,9,03,1,00,1",,"01,9",,"120,M,+0282,1","180,N,+0188,1","99999,9,10104,1","7,1,016,1,+025,1",,,"SYN118AAXX  29001 76458 32965 62701 10244 20198 30104 40109 57016 80030 92355 333 10282 20188 30/// 53051 56090 58025 86358;","Q01+000002SCOTLCQ02  00002PRCP06"
"76458099999","2003-04-29T15:00:00","4","23.2","-106.4166666","4.0","COLONIA JUAN CARRASCO MAZATLAN SIN., MX","FM-12","99999","V020","130,1,N,0020,1","00480,1,9,N","012000,1,N,1","+0240,1","+0202,1","10134,1","06,0000,9,1",,,,,,"07,1,+00480,9,06,9",,,"07,99,1,07,1,05,1,00450,1,00,1,00,1",,"01,9",,,,"99999,9,10129,1","2,1,008,1,+011,1",,,"SYN100AAXX  29151 76458 32462 71302 10240 20202 30129 40134 52008 87500 91448 333 30/// 56400 58011 87616;","Q01  00002PRCP06"
"76458099999","2003-04-29T18:00:00","4","23.2","-106.4166666","4.0","COLONIA JUAN CARRASCO MAZATLAN SIN., MX","FM-12","99999","V020","220,1,N,0030,1","05400,1,9,N","018000,1,N,1","+0250,1","+0206,1","10140,1","06,0000,9,1",,,,,,"07,1,+05400,9,02,9",,,"07,99,1,00,1,00,1,99999,9,00,1,07,1",,"01,9",,"120,M,+0275,1","240,N,+0198,1","99999,9,10136,1","2,1,007,1,+009,1",,,"SYN112AAXX  29181 76458 32968 72203 10250 20206 30136 40140 52007 80007 91745 333 10275 20198 30/// 56//9 58009 87268;","Q01  00002PRCP06"
"76458099999","2003-04-29T21:00:00","4","23.2","-106.4166666","4.0","COLONIA JUAN CARRASCO MAZATLAN SIN., MX","FM-12","99999","V020","270,1,N,0020,1","04200,1,9,N","018000,1,N,1","+0254,1","+0206,1","10128,1","06,0000,9,1",,,,,,"06,1,+04200,9,04,9",,,"08,99,1,99,9,00,1,02250,1,02,1,00,1",,"01,9",,,,"99999,9,10124,1","7,1,012,1,+004,1",,,"SYN106AAXX  29211 76458 32868 82702 10254 20206 30124 40128 57012 86020 92047 333 30/// 56/9/ 58004 86464 82362;","Q01+000062SCOTLCQ02  00002PRCP06"
"76458099999","2003-04-30T00:00:00","4","23.2","-106.4166666","4.0","COLONIA JUAN CARRASCO MAZATLAN SIN., MX","FM-12","99999","V020","250,1,N,0020,1","99999,9,9,N","008000,1,N,1","+0240,1","+0196,1","10097,1","06,0000,9,1",,,,,,,,,"07,99,1,99,9,00,1,99999,9,02,1,00,1",,"01,9",,"120,M,+0280,1","180,N,+0198,1","99999,9,10092,1","7,1,031,1,-012,1",,,"SYN118AAXX  30001 76458 32958 72502 10240 20196 30092 40097 57031 80020 92345 333 10280 20198 30/// 52741 56090 59012 87458;","Q01+000002SCOTLCQ02  00002PRCP06"
"76458099999","2003-04-30T03:00:00","4","23.2","-106.4166666","4.0","COLONIA JUAN CARRASCO MAZATLAN SIN., MX","FM-12","99999","V020","270,1,N,0020,1","02400,1,9,N","010000,1,N,1","+0236,1","+0201,1","10102,1","06,0000,9,1",,,,,,"06,1,+02400,9,03,9",,,"06,99,1,99,9,00,1,99999,9,05,1,00,1",,"01,9",,,,"99999,9,10098,1","2,1,006,1,-020,1",,,"SYN100AAXX  30031 76458 32960 62702 10236 20201 30098 40102 52006 80050 90235 333 30/// 56090 59020 86358;","Q01+000002SCOTLCQ02  00002PRCP06"
"76458099999","2003-04-30T06:00:00","4","23.2","-106.4166666","4.0","COLONIA JUAN CARRASCO MAZATLAN SIN., MX","FM-12","99999","V020","320,1,N,0020,1","03600,1,9,N","012000,1,N,1","+0233,1","+0204,1","10105,1","06,0000,9,1",,,,,,"01,1,+00360,9,06,9",,,"06,99,1,01,1,04,1,00450,1,03,1,00,1","0078,9","01,9",,"240,M,+0280,1","240,N,+0198,1","99999,9,10100,1","0,1,002,1,-023,1",,,"SYN130AAXX  30061 76458 32462 63202 10233 20204 30100 40105 50002 81430 90550 333 10280 20198 30/// 55013 20743 56790 59023 81612 85358;","Q01  00002PRCP06"
"76458099999","2003-04-30T09:00:00","4","23.2","-106.4166666","4.0","COLONIA JUAN CARRASCO MAZATLAN SIN., MX","FM-12","99999","V020","340,1,N,0020,1","22000,1,9,N","012000,1,N,1","+0219,1","+0202,1","10098,1","06,0000,9,1",,,,,,"00,1,+99999,9,99,9",,,"00,99,1,00,1,00,1,99999,9,00,1,00,1",,"01,9",,,,,"8,1,006,1,-032,1",,,"SYN076AAXX  30091 76458 32962 03402 10219 20202 40098 58006 90850 333 30/// 59032;","Q01  00002PRCP06"
"76458099999","2003-04-30T15:00:00","4","23.2","-106.4166666","4.0","COLONIA JUAN CARRASCO MAZATLAN SIN., MX","FM-12","99999","V020","180,1,N,0020,1","08700,1,9,N","008000,1,N,1","+0245,1","+0202,1","10108,1","06,0000,9,1",,,,,,"05,1,+08700,9,00,9",,,"05,99,1,00,1,00,1,99999,9,00,1,03,1",,"01,9",,,,"99999,9,10103,1","2,1,013,1,-026,1",,,"SYN100AAXX  30151 76458 32958 51802 10245 20202 30103 40108 52013 80003 91440 333 30/// 56009 59026 85079;","Q01  00002PRCP06"
"76458099999","2003-04-30T18:00:00","4","23.2","-106.4166666","4.0","COLONIA JUAN CARRASCO MAZATLAN SIN., MX","FM-12","99999","V020","240,1,N,0020,1","22000,1,9,N","015000,1,N,1","+0261,1","+0212,1","10115,1","06,0000,9,1",,,,,,"01,1,+06000,9,00,9",,,"01,99,1,00,1,00,1,99999,9,00,1,06,1",,"01,9",,"120,M,+0284,1","240,N,+0188,1","99999,9,10110,1","0,1,007,1,-026,1",,,"SYN112AAXX  30181 76458 32965 12402 10261 20212 30110 40115 50007 80006 91748 333 10284 20188 30/// 56//9 59026 81070;","Q01  00002PRCP06"
"76458099999","2003-04-30T21:00:00","4","23.2","-106.4166666","4.0","COLONIA JUAN CARRASCO MAZATLAN SIN., MX","FM-12","99999","V020","290,1,N,0040,1","22000,1,9,N","018000,1,N,1","+0266,1","+0212,1","10103,1","06,0000,9,1",,,,,,"03,1,+06000,9,01,9",,,"03,99,1,00,1,00,1,99999,9,00,1,09,1",,"01,9",,,,"99999,9,10099,1","7,1,011,1,-025,1",,,"SYN100AAXX  30211 76458 32968 32904 10266 20212 30099 40103 57011 80009 92050 333 30/// 56//9 59025 83170;","Q01  00002PRCP06"
"76458099999","2003-05-01T00:00:00","4","23.2","-106.4166666","4.0","COLONIA JUAN CARRASCO MAZATLAN SIN., MX","FM-12","99999","V020","270,1,N,0030,1","22000,1,9,N","018000,1,N,1","+0257,1","+0207,1","10078,1","06,0000,9,1",,,,,,,,,"03,99,1,00,1,00,1,99999,9,00,1,06,1","0726,9","01,9",,"120,M,+0285,1","180,N,+0188,1","99999,9,10074,1","7,1,025,1,-018,1",,,"SYN118AAXX  01001 76458 32968 32703 10257 20207 30074 40078 57025 80006 92350 333 10285 20188 30/// 55121 56009 59018 83072;","Q01  00002PRCP06"
"76458099999","2003-05-01T06:00:00","4","23.2","-106.4166666","4.0","COLONIA JUAN CARRASCO MAZATLAN SIN., MX","FM-12","99999","V020","300,1,N,0020,1","22000,1,9,N","008000,1,N,1","+0232,1","+0210,1","10112,1","06,0000,9,1",,,,,,"00,1,+99999,9,99,9",,,"00,99,1,00,1,00,1,99999,9,00,1,00,1","0636,9","01,9",,"240,M,+0285,1","240,N,+0188,1","99999,9,10108,1","2,1,026,1,+999,9",,,"SYN106AAXX  01061 76458 32958 03002 10232 20210 30108 40112 52026 90540 333 10285 20188 30/// 55106 21563 58008;","Q01  00002PRCP06"
"76458099999","2003-05-01T15:00:00","4","23.2","-106.4166666","4.0","COLONIA JUAN CARRASCO MAZATLAN SIN., MX","FM-12","99999","V020","180,1,N,0020,1","22000,1,9,N","008000,1,N,1","+0252,1","+0207,1","10140,1","06,0000,9,1",,,,,,"04,1,+00570,9,08,9",,,"04,99,1,04,1,02,1,00450,1,00,1,00,1",,"01,9",,,,"99999,9,10134,1","2,1,015,1,+031,1",,,"SYN100AAXX  01151 76458 32458 41802 10252 20207 30134 40140 52015 84200 91450 333 30/// 56300 58031 84819;","Q01  00002PRCP06"
"76458099999","2003-05-01T18:00:00","4","23.2","-106.4166666","4.0","COLONIA JUAN CARRASCO MAZATLAN SIN., MX","FM-12","99999","V020","210,1,N,0020,1","22000,1,9,N","015000,1,N,1","+0271,1","+0209,1","10143,1","06,0000,9,1",,,,,,"01,1,+06000,9,00,9",,,"01,99,1,00,1,00,1,99999,9,00,1,01,1",,"01,9",,"120,M,+0292,1","240,N,+0206,1","99999,9,10138,1","0,1,004,1,+028,1",,,"SYN112AAXX  01181 76458 32965 12102 10271 20209 30138 40143 50004 80001 91747 333 10292 20206 30/// 56//9 58028 81070;","Q01  00002PRCP06"
"76458099999","2003-05-01T21:00:00","4","23.2","-106.4166666","4.0","COLONIA JUAN CARRASCO MAZATLAN SIN., MX","FM-12","99999","V020","220,1,N,0020,1","22000,1,9,N","018000,1,N,1","+0274,1","+0218,1","10134,1","06,0000,9,1",,,,,,"01,1,+06000,9,00,9",,,"01,99,1,00,1,00,1,99999,9,00,1,06,1",,"01,9",,,,"99999,9,10130,1","7,1,008,1,+031,1",,,"SYN100AAXX  01211 76458 32968 12202 10274 20218 30130 40134 57008 80006 92047 333 30/// 56//9 58031 81070;","Q01  00002PRCP06"
"76458099999","2003-05-02T00:00:00","4","23.2","-106.4166666","4.0","COLONIA JUAN CARRASCO MAZATLAN SIN., MX","FM-12","99999","V020","250,1,N,0030,1","22000,1,9,N","018000,1,N,1","+0264,1","+0217,1","10121,1","06,0000,9,1","24,0000,9,1",,,,,"02,1,+06000,9,00,9",,,"02,99,1,00,1,99,9,99999,9,99,9,06,1",,"01,9",,"120,M,+0300,1","180,N,+0206,1","99999,9,10117,1","7,1,013,1,+044,1",,,"SYN112AAXX  02001 76458 32968 22503 10264 20217 30117 40121 57013 80//6 92340 333 10300 20206 30/// 58044 70000 82070;","Q01  00002PRCP06"
"76458099999","2003-05-02T03:00:00","4","23.2","-106.4166666","4.0","COLONIA JUAN CARRASCO MAZATLAN SIN., MX","FM-12","99999","V020","330,1,N,0020,1","22000,1,9,N","008000,1,N,1","+0242,1","+0214,1","10128,1","06,0000,9,1",,,,,,"00,1,+99999,9,99,9",,,"00,99,1,00,1,00,1,99999,9,00,1,00,1",,"01,9",,,,"99999,9,10125,1","2,1,008,1,+043,1",,,"SYN082AAXX  02031 76458 32958 03302 10242 20214 30125 40128 52008 90240 333 30/// 58043;","Q01  00002PRCP06"
"76458099999","2003-05-02T15:00:00","4","23.2","-106.4166666","4.0","COLONIA JUAN CARRASCO MAZATLAN SIN., MX","FM-12","99999","V020","250,1,N,0020,1","22000,1,9,N","013000,1,N,1","+0246,1","+0172,1","10120,1","06,0000,9,1",,,,,,"02,1,+06000,9,00,9",,,"02,99,1,00,1,00,1,99999,9,00,1,02,1",,"01,9",,,,"99999,9,10116,1","1,1,009,1,-018,1",,,"SYN100AAXX  02151 76458 32963 22502 10246 20172 30116 40120 51009 80002 91445 333 30/// 5600/ 59018 82070;","Q01  00002PRCP06"
"76458099999","2003-05-02T18:00:00","4","23.2","-106.4166666","4.0","COLONIA JUAN CARRASCO MAZATLAN SIN., MX","FM-12","99999","V020","270,1,N,0030,1","22000,1,9,N","018000,1,N,1","+0277,1","+0189,1","10122,1","06,0000,9,1",,,,,,"01,1,+06000,9,00,9",,,"01,99,1,00,1,00,1,99999,9,00,1,01,1",,"01,9",,"120,M,+0292,1","240,N,+0178,1","99999,9,10117,1","0,1,001,1,-021,1",,,"SYN112AAXX  02181 76458 32968 12703 10277 20189 30117 40122 50001 80001 91748 333 10292 20178 30/// 56//9 59021 81070;","Q01  00002PRCP06"
"76458099999","2003-05-02T21:00:00","4","23.2","-106.4166666","4.0","COLONIA JUAN CARRASCO MAZATLAN SIN., MX","FM-12","99999","V020","270,1,N,0030,1","22000,1,9,N","018000,1,N,1","+0280,1","+0191,1","10109,1","06,0000,9,1",,,,,,"01,1,+06000,9,00,9",,,"01,99,1,00,1,00,1,99999,9,00,1,04,1",,"01,9",,,,"99999,9,10105,1","7,1,012,1,-025,1",,,"SYN100AAXX  02211 76458 32968 12703 10280 20191 30105 40109 57012 80004 92045 333 30/// 56//9 59025 81070;","Q01  00002PRCP06"
"76458099999","2003-05-03T00:00:00","4","23.2","-106.4166666","4.0","COLONIA JUAN CARRASCO MAZATLAN SIN., MX","FM-12","99999","V020","280,1,N,0050,1","22000,1,9,N","018000,1,N,1","+0276,1","+0175,1","10096,1","06,0000,9,1","24,0000,9,1",,,,,"02,1,+01800,9,03,9",,,"03,99,1,02,1,99,9,02250,1,03,1,02,1",,"01,9",,"120,M,+0285,1","180,N,+0178,1","99999,9,10092,1","7,1,013,1,-025,1",,,"SYN118AAXX  03001 76458 32868 32805 10276 20175 30092 40096 57013 82/32 92340 333 10285 20178 30/// 59025 70000 82356 81070;","Q01  00002PRCP06"
"76458099999","2003-05-03T03:00:00","4","23.2","-106.4166666","4.0","COLONIA JUAN CARRASCO MAZATLAN SIN., MX","FM-12","99999","V020","300,1,N,0020,1","22000,1,9,N","008000,1,N,1","+0258,1","+0147,1","10108,1","06,0000,9,1",,,,,,"01,1,+06000,9,00,9",,,"01,99,1,00,1,99,9,99999,9,99,9,01,1",,"01,9",,,,"99999,9,10104,1","2,1,012,1,-021,1",,,"SYN094AAXX  03031 76458 32958 13002 10258 20147 30104 40108 52012 80//1 90240 333 30/// 59021 81070;","Q01  00002PRCP06"
"76458099999","2003-05-03T06:00:00","4","23.2","-106.4166666","4.0","COLONIA JUAN CARRASCO MAZATLAN SIN., MX","FM-12","99999","V020","300,1,N,0010,1","22000,1,9,N","008000,1,N,1","+0238,1","+0175,1","10122,1","06,0000,9,1",,,"9999,9,9,999999,9,9",,,"00,1,+99999,9,99,9",,,"00,99,1,00,1,00,1,99999,9,00,1,00,1",,"17,9",,"240,M,+0285,1","240,N,+0178,1","99999,9,10117,1","2,1,013,1,+999,9",,,"SYN106AAXX  03061 76458 32958 03001 10238 20175 30117 40122 52013 90555 333 10285 20178 30/// 40101 21563 58007;","Q01  00002PRCP06Q02  01012SNDP  "
"76458099999","2003-05-03T15:00:00","4","23.2","-106.4166666","4.0","COLONIA JUAN CARRASCO MAZATLAN SIN., MX","FM-12","99999","V020","120,1,N,0030,1","22000,1,9,N","015000,1,N,1","+0250,1","+0175,1","10120,1","06,0000,9,1",,,,,,"01,1,+06000,9,01,9",,,"01,99,1,00,1,00,1,99999,9,00,1,09,1",,"01,9",,,,"99999,9,10115,1","2,1,011,1,-001,1",,,"SYN100AAXX  03151 76458 32965 11203 10250 20175 30115 40120 52011 80009 91448 333 30/// 5600/ 59001 81170;","Q01  00002PRCP06"
"76458099999","2003-05-03T18:00:00","4","23.2","-106.4166666","4.0","COLONIA JUAN CARRASCO MAZATLAN SIN., MX","FM-12","99999","V020","170,1,N,0020,1","22000,1,9,N","018000,1,N,1","+0270,1","+0213,1","10126,1","06,0000,9,1",,,,,,"01,1,+02700,9,03,9",,,"01,99,1,01,1,00,1,99999,9,03,1,00,1",,"01,9",,"120,M,+0287,1","240,N,+0171,1","99999,9,10121,1","2,1,006,1,+004,1",,,"SYN112AAXX  03181 76458 32968 11702 10270 20213 30121 40126 52006 81030 91755 333 10287 20171 30/// 56010 58004 81359;","Q01  00002PRCP06"
"76458099999","2003-05-03T21:00:00","4","23.2","-106.4166666","4.0","COLONIA JUAN CARRASCO MAZATLAN SIN., MX","FM-12","99999","V020","240,1,N,0020,1","22000,1,9,N","020000,1,N,1","+0271,1","+0218,1","10111,1","06,0000,9,1",,,,,,"01,1,+08700,9,00,9",,,"01,99,1,00,1,00,1,99999,9,00,1,03,1",,"01,9",,,,"99999,9,10106,1","7,1,015,1,+001,1",,,"SYN100AAXX  03211 76458 32970 12402 10271 20218 30106 40111 57015 80003 92058 333 30/// 56009 58001 81079;","Q01  00002PRCP06"
"76458099999","2003-05-04T00:00:00","4","23.2","-106.4166666","4.0","COLONIA JUAN CARRASCO MAZATLAN SIN., MX","FM-12","99999","V020","270,1,N,0020,1","22000,1,9,N","020000,1,N,1","+0273,1","+0203,1","10099,1","06,0000,9,1","24,0000,9,1",,,,,"01,1,+06000,9,00,9",,,"01,99,1,00,1,00,1,99999,9,00,1,06,1",,"01,9",,"120,M,+0305,1","180,N,+0171,1","99999,9,10094,1","7,1,012,1,+002,1",,,"SYN118AAXX  04001 76458 32970 12702 10273 20203 30094 40099 57012 80006 92350 333 10305 20171 30/// 56//9 58002 70000 81070;","Q01  00002PRCP06"
"76458099999","2003-05-04T03:00:00","4","23.2","-106.4166666","4.0","COLONIA JUAN CARRASCO MAZATLAN SIN., MX","FM-12","99999","V020","999,9,C,0000,1","22000,1,9,N","010000,1,N,1","+0255,1","+0186,1","10103,1","06,0000,9,1",,,,,,"00,1,+99999,9,99,9",,,"00,99,1,00,1,00,1,99999,9,00,1,00,1",,"01,9",,,,"99999,9,10099,1","2,1,008,1,-006,1",,,"SYN082AAXX  04031 76458 32960 00000 10255 20186 30099 40103 52008 90248 333 30/// 59006;","Q01  00002PRCP06"
"76458099999","2003-05-04T15:00:00","4","23.2","-106.4166666","4.0","COLONIA JUAN CARRASCO MAZATLAN SIN., MX","FM-12","99999","V020","150,1,N,0020,1","08700,1,9,N","012000,1,N,1","+0257,1","+0199,1","10108,1","06,0000,9,1",,,,,,"06,1,+08700,9,00,9",,,"06,99,1,00,1,00,1,99999,9,00,1,04,1",,"01,9",,,,"99999,9,10103,1","2,1,005,1,-012,1",,,"SYN100AAXX  04150 76458 32962 61502 10257 20199 30103 40108 52005 80004 91458 333 30/// 56009 59012 86079;","Q01  00002PRCP06"
"76458099999","2003-05-04T18:00:00","4","23.2","-106.4166666","4.0","COLONIA JUAN CARRASCO MAZATLAN SIN., MX","FM-12","99999","V020","180,1,N,0020,1","22000,1,9,N","015000,1,N,1","+0282,1","+0176,1","10104,1","06,0000,9,1",,,,,,"02,1,+06000,9,00,9",,,"02,99,1,00,1,00,1,99999,9,00,1,06,1",,"01,9",,"120,M,+0298,1","240,N,+0189,1","99999,9,10100,1","7,1,003,1,-021,1",,,"SYN112AAXX  04181 76458 32965 21802 10282 20176 30100 40104 57003 80006 91748 333 10298 20189 30/// 56//9 59021 82070;","Q01  00002PRCP06"
"76458099999","2003-05-04T21:00:00","4","23.2","-106.4166666","4.0","COLONIA JUAN CARRASCO MAZATLAN SIN., MX","FM-12","99999","V020","260,1,N,0020,1","22000,1,9,N","018000,1,N,1","+0269,1","+0213,1","10091,1","06,0000,9,1",,,,,,"01,1,+06000,9,00,9",,,"01,99,1,00,1,00,1,99999,9,00,1,01,1",,"01,9",,,,"99999,9,10087,1","7,1,013,1,-019,1",,,"SYN100AAXX  04211 76458 32968 12602 10269 20213 30087 40091 57013 80001 92048 333 30/// 56//9 59019 81070;","Q01  00002PRCP06"
"76458099999","2003-05-05T00:00:00","4","23.2","-106.4166666","4.0","COLONIA JUAN CARRASCO MAZATLAN SIN., MX","FM-12","99999","V020","270,1,N,0010,1","22000,1,9,N","018000,1,N,1","+0270,1","+0182,1","10079,1","06,0000,9,1","24,0000,9,1",,,,,"01,1,+06000,9,00,9",,,"02,99,1,00,1,99,9,99999,9,99,9,01,1",,"01,9",,"120,M,+0305,1","180,N,+0189,1","99999,9,10075,1","7,1,012,1,-019,1",,,"SYN112AAXX  05001 76458 32968 22701 10270 20182 30075 40079 57012 80//1 92340 333 10305 20189 30/// 59019 70000 81070;","Q01  00002PRCP06"
"76458099999","2003-05-05T03:00:00","4","23.2","-106.4166666","4.0","COLONIA JUAN CARRASCO MAZATLAN SIN., MX","FM-12","99999","V020","300,1,N,0020,1","22000,1,9,N","008000,1,N,1","+0256,1","+0186,1","10093,1","06,0000,9,1",,,,,,"00,1,+99999,9,99,9",,,"00,99,1,00,1,00,1,99999,9,00,1,00,1",,"01,9",,,,"99999,9,10088,1","2,1,013,1,-010,1",,,"SYN082AAXX  05031 76458 32958 03002 10256 20186 30088 40093 52013 90240 333 30/// 59010;","Q01  00002PRCP06"
"76458099999","2003-05-05T15:00:00","4","23.2","-106.4166666","4.0","COLONIA JUAN CARRASCO MAZATLAN SIN., MX","FM-12","99999","V020","130,1,N,0020,1","22000,1,9,N","012000,1,N,1","+0254,1","+0199,1","10102,1","06,0000,9,1",,,,,,"02,1,+06000,9,02,9",,,"02,99,1,00,1,00,1,99999,9,00,1,05,1",,"01,9",,,,"99999,9,10097,1","1,1,005,1,-007,1",,,"SYN100AAXX  05151 76458 32962 21302 10254 20199 30097 40102 51005 80005 91448 333 30/// 5600/ 59007 82270;","Q01  00002PRCP06"
"76458099999","2003-05-05T18:00:00","4","23.2","-106.4166666","4.0","COLONIA JUAN CARRASCO MAZATLAN SIN., MX","FM-12","99999","V020","210,1,N,0020,1","22000,1,9,N","015000,1,N,1","+0268,1","+0210,1","10102,1","06,0000,9,1",,,,,,"02,1,+08700,9,00,9",,,"02,99,1,00,1,00,1,99999,9,00,1,02,1",,"01,9",,"120,M,+0300,1","240,N,+0192,1","99999,9,10098,1","4,1,000,1,-003,1",,,"SYN112AAXX  05181 76458 32965 22102 10268 20210 30098 40102 54001 80002 91755 333 10300 20192 30/// 56009 59003 82079;","Q01  00002PRCP06"
"76458099999","2003-05-05T21:00:00","4","23.2","-106.4166666","4.0","COLONIA JUAN CARRASCO MAZATLAN SIN., MX","FM-12","99999","V020","270,1,N,0020,1","99999,9,9,N","015000,1,N,1","+0269,1","+0188,1","10089,1","06,0000,9,1",,,,,,"01,1,+02700,9,03,9",,,"06,99,1,01,1,00,1,99999,9,03,1,04,1",,"01,9",,,,"99999,9,10084,1","7,1,013,1,-003,1",,,"SYN106AAXX  05211 76458 32965 62702 10269 20188 30084 40089 57013 81034 92055 333 30/// 56059 59003 81359 85074;","Q01  00002PRCP06"
"76458099999","2003-05-06T03:00:00","4","23.2","-106.4166666","4.0","COLONIA JUAN CARRASCO MAZATLAN SIN., MX","FM-12","99999","V020","300,1,N,0020,1","22000,1,9,N","008000,1,N,1","+0246,1","+0181,1","10087,1","06,0000,9,1",,,,,,"00,1,+99999,9,99,9",,,"00,99,1,00,1,00,1,99999,9,00,1,00,1",,"01,9",,,,"99999,9,10083,1","2,1,008,1,-005,1",,,"SYN082AAXX  06031 76458 32958 03002 10246 20181 30083 40087 52008 90240 333 30/// 59005;","Q01  00002PRCP06"
"76458099999","2003-05-06T09:00:00","4","23.2","-106.4166666","4.0","COLONIA JUAN CARRASCO MAZATLAN SIN., MX","FM-12","99999","V020","999,9,C,0000,1","22000,1,9,N","008000,1,N,1","+0218,1","+0176,1","10097,1","06,0000,9,1",,,,,,"00,1,+99999,9,99,9",,,"00,99,1,00,1,00,1,99999,9,00,1,00,1",,"01,9",,,,"99999,9,10092,1","7,1,009,1,-003,1",,,"SYN082AAXX  06091 76458 32958 00000 10218 20176 30092 40097 57009 90535 333 30/// 59003;","Q01  00002PRCP06"
"76458099999","2003-05-06T15:00:00","4","23.2","-106.4166666","4.0","COLONIA JUAN CARRASCO MAZATLAN SIN., MX","FM-12","99999","V020","120,1,N,0020,1","22000,1,9,N","013000,1,N,1","+0243,1","+0174,1","10115,1","06,0000,9,1",,,,,,"01,1,+06000,9,00,9",,,"01,99,1,00,1,00,1,99999,9,00,1,01,1",,"01,9",,,,"99999,9,10111,1","1,1,013,1,+014,1",,,"SYN100AAXX  06151 76458 32963 11202 10243 20174 30111 40115 51013 80001 91448 333 30/// 5600/ 58014 81070;","Q01  00002PRCP06"
"76458099999","2003-05-06T18:00:00","4","23.2","-106.4166666","4.0","COLONIA JUAN CARRASCO MAZATLAN SIN., MX","FM-12","99999","V020","180,1,N,0020,1","22000,1,9,N","015000,1,N,1","+0265,1","+0184,1","10123,1","06,0000,9,1",,,,,,"01,1,+08700,9,00,9",,,"01,99,1,00,1,00,1,99999,9,00,1,01,1",,"01,9",,"120,M,+0284,1","240,N,+0178,1","99999,9,10119,1","2,1,008,1,+021,1",,,"SYN112AAXX  06181 76458 32965 11802 10265 20184 30119 40123 52008 80001 91750 333 10284 20178 30/// 56009 58021 81079;","Q01  00002PRCP06"
"76458099999","2003-05-06T21:00:00","4","23.2","-106.4166666","4.0","COLONIA JUAN CARRASCO MAZATLAN SIN., MX","FM-12","99999","V020","270,1,N,0010,1","22000,1,9,N","018000,1,N,1","+0264,1","+0189,1","10115,1","06,0000,9,1",,,,,,"01,1,+08700,9,00,9",,,"01,99,1,00,1,00,1,99999,9,00,1,01,1",,"01,9",,,,"99999,9,10110,1","7,1,008,1,+025,1",,,"SYN100AAXX  06211 76458 32968 12701 10264 20189 30110 40115 57008 80001 92055 333 30/// 56009 58025 81079;","Q01  00002PRCP06"
"76458099999","2003-05-07T00:00:00","4","23.2","-106.4166666","4.0","COLONIA JUAN CARRASCO MAZATLAN SIN., MX","FM-12","99999","V020","300,1,N,0020,1","22000,1,9,N","018000,1,N,1","+0266,1","+0153,1","99999,9","06,0000,9,1","24,0000,9,1",,,,,,,,"01,99,1,00,1,00,1,99999,9,00,1,01,1",,"01,9",,"120,M,+0286,1","180,N,+0178,1","99999,9,10101,1","7,1,010,1,+026,1",,,"SYN118AAXX  07001 76458 32968 13002 10266 20153 30101 57010 80001 92350 333 10286 20178 30/// 50481 56//9 58026 70000 81070;","Q01  00002PRCP06"
"76458099999","2003-05-07T03:00:00","4","23.2","-106.4166666","4.0","COLONIA JUAN CARRASCO MAZATLAN SIN., MX","FM-12","99999","V020","290,1,N,0020,1","22000,1,9,N","010000,1,N,1","+0246,1","+0168,1","10109,1","06,0000,9,1",,,,,,"00,1,+99999,9,99,9",,,"00,99,1,00,1,00,1,99999,9,00,1,00,1",,"01,9",,,,"99999,9,10105,1","2,1,004,1,+022,1",,,"SYN082AAXX  07031 76458 32960 02902 10246 20168 30105 40109 52004 90247 333 30/// 58022;","Q01  00002PRCP06"
"76458099999","2003-05-07T09:00:00","4","23.2","-106.4166666","4.0","COLONIA JUAN CARRASCO MAZATLAN SIN., MX","FM-12","99999","V020","999,9,C,0000,1","22000,1,9,N","008000,1,N,1","+0204,1","+0154,1","10100,1","06,0000,9,1",,,,,,"00,1,+99999,9,99,9",,,"00,99,1,00,1,00,1,99999,9,00,1,00,1",,"01,9",,,,"99999,9,10095,1","2,1,008,1,+003,1",,,"SYN082AAXX  07091 76458 32958 00000 10204 20154 30095 40100 52008 90845 333 30/// 58003;","Q01  00002PRCP06"
"76458099999","2003-05-07T15:00:00","4","23.2","-106.4166666","4.0","COLONIA JUAN CARRASCO MAZATLAN SIN., MX","FM-12","99999","V020","300,1,N,0020,1","22000,1,9,N","018000,1,N,1","+0238,1","+0151,1","10118,1","06,0000,9,1",,,,,,"01,1,+08700,9,00,9",,,"01,99,1,00,1,00,1,99999,9,00,1,01,1",,"01,9",,,,"99999,9,10114,1","2,1,011,1,+003,1",,,"SYN100AAXX  07151 76458 32968 13002 10238 20151 30114 40118 52011 80001 91450 333 30/// 56009 58003 81079;","Q01  00002PRCP06"
"76458099999","2003-05-07T18:00:00","4","23.2","-106.4166666","4.0","COLONIA JUAN CARRASCO MAZATLAN SIN., MX","FM-12","99999","V020","270,1,N,0020,1","22000,1,9,N","020000,1,N,1","+0255,1","+0170,1","10123,1","06,0000,9,1",,,,,,"00,1,+99999,9,99,9",,,"00,99,1,00,1,00,1,99999,9,00,1,00,1",,"01,9",,"120,M,+0281,1","240,N,+0166,1","99999,9,10118,1","0,1,004,1,-001,1",,,"SYN094AAXX  07181 76458 32970 02702 10255 20170 30118 40123 50004 91745 333 10281 20166 30/// 59001;","Q01  00002PRCP06"
"76458099999","2003-05-07T21:00:00","4","23.2","-106.4166666","4.0","COLONIA JUAN CARRASCO MAZATLAN SIN., MX","FM-12","99999","V020","250,1,N,0020,1","22000,1,9,N","020000,1,N,1","+0264,1","+0179,1","10115,1","06,0000,9,1",,,,,,"01,1,+06000,9,00,9",,,"01,99,1,00,1,00,1,99999,9,00,1,06,1",,"01,9",,,,"99999,9,10111,1","7,1,007,1,+001,1",,,"SYN100AAXX  07211 76458 32970 12502 10264 20179 30111 40115 57007 80006 92047 333 30/// 56//9 58001 81070;","Q01  00002PRCP06"
"76458099999","2003-05-08T00:00:00","4","23.2","-106.4166666","4.0","COLONIA JUAN CARRASCO MAZATLAN SIN., MX","FM-12","99999","V020","270,1,N,0020,1","22000,1,9,N","020000,1,N,1","+0272,1","+0162,1","10108,1","06,0000,9,1",,,,,,"00,1,+99999,9,99,9",,,"00,99,1,00,1,00,1,99999,9,00,1,00,1",,"01,9",,"120,M,+0290,1","180,N,+0166,1","99999,9,10104,1","7,1,007,1,+003,1",,,"SYN094AAXX  08001 76458 32970 02702 10272 20162 30104 40108 57007 92345 333 10290 20166 30/// 58003;","Q01  00002PRCP06"
"76458099999","2003-05-08T03:00:00","4","23.2","-106.4166666","4.0","COLONIA JUAN CARRASCO MAZATLAN SIN., MX","FM-12","99999","V020","300,1,N,0020,1","22000,1,9,N","008000,1,N,1","+0246,1","+0178,1","10118,1","06,0000,9,1",,,,,,"00,1,+99999,9,99,9",,,"00,99,1,00,1,00,1,99999,9,00,1,00,1",,"01,9",,,,"99999,9,10113,1","2,1,009,1,+008,1",,,"SYN082AAXX  08031 76458 32958 03002 10246 20178 30113 40118 52009 90240 333 30/// 58008;","Q01  00002PRCP06"
"76458099999","2003-05-08T12:00:00","4","23.2","-106.4166666","4.0","COLONIA JUAN CARRASCO MAZATLAN SIN., MX","FM-12","99999","V020","320,1,N,0010,1","22000,1,9,N","012000,1,N,1","+0202,1","+0140,1","10110,1","06,0000,9,1","24,0000,9,1",,,,,"00,1,+99999,9,99,9",,,"00,99,1,00,1,00,1,99999,9,00,1,00,1",,"01,9","999,+0160,9","999,M,+0287,1","120,N,+0174,1","99999,9,10106,1","0,1,005,1,+004,1",,,"SYN100AAXX  08121 76458 32962 03201 10202 20140 30106 40110 50005 91155 333 10287 20174 30016 58004 70000;","Q01  00002PRCP06Q02  00002PRCP24"
"76458099999","2003-05-08T18:00:00","4","23.2","-106.4166666","4.0","COLONIA JUAN CARRASCO MAZATLAN SIN., MX","FM-12","99999","V020","240,1,N,0020,1","22000,1,9,N","018000,1,N,1","+0266,1","+0197,1","10123,1","06,0000,9,1",,,,,,"00,1,+99999,9,99,9",,,"00,99,1,00,1,00,1,99999,9,00,1,00,1",,"01,9",,"120,M,+0280,1","240,N,+0174,1","99999,9,10118,1","8,1,001,1,+000,1",,,"SYN094AAXX  08181 76458 32968 02402 10266 20197 30118 40123 58001 91745 333 10280 20174 30/// 58000;","Q01  00002PRCP06"
"76458099999","2003-05-08T21:00:00","4","23.2","-106.4166666","4.0","COLONIA JUAN CARRASCO MAZATLAN SIN., MX","FM-12","99999","V020","250,1,N,0020,1","22000,1,9,N","020000,1,N,1","+0268,1","+0174,1","10114,1","06,0000,9,1",,,,,,"00,1,+99999,9,99,9",,,"00,99,1,00,1,00,1,99999,9,00,1,00,1",,"01,9",,,,"99999,9,10109,1","7,1,009,1,-002,1",,,"SYN082AAXX  08211 76458 32970 02502 10268 20174 30109 40114 57009 92045 333 30/// 59002;","Q01  00002PRCP06"
"76458099999","2003-05-09T00:00:00","4","23.2","-106.4166666","4.0","COLONIA JUAN CARRASCO MAZATLAN SIN., MX","FM-12","99999","V020","300,1,N,0030,1","22000,1,9,N","020000,1,N,1","+0268,1","+0207,1","10100,1","06,0000,9,1","24,0000,9,1",,,,,"00,1,+99999,9,99,9",,,"00,99,1,00,1,00,1,99999,9,00,1,00,1",,"01,9",,"120,M,+0290,1","180,N,+0174,1","99999,9,10096,1","7,1,013,1,-008,1",,,"SYN106AAXX  09001 76458 32970 03003 10268 20207 30096 40100 57013 92340 333 10290 20174 30/// 50631 59008 70000;","Q01  00002PRCP06Q02  00002PRCP24"
"76458099999","2003-05-09T03:00:00","4","23.2","-106.4166666","4.0","COLONIA JUAN CARRASCO MAZATLAN SIN., MX","FM-12","99999","V020","360,1,N,0020,1","22000,1,9,N","008000,1,N,1","+0246,1","+0184,1","10105,1","06,0000,9,1",,,,,,"00,1,+99999,9,99,9",,,"00,99,1,00,1,00,1,99999,9,00,1,00,1",,"01,9",,,,"99999,9,10101,1","3,1,005,1,-012,1",,,"SYN082AAXX  09031 76458 32958 03602 10246 20184 30101 40105 53005 90245 333 30/// 59012;","Q01  00002PRCP06"
"76458099999","2003-05-09T15:00:00","4","23.2","-106.4166666","4.0","COLONIA JUAN CARRASCO MAZATLAN SIN., MX","FM-12","99999","V020","190,1,N,0010,1","22000,1,9,N","013000,1,N,1","+0234,1","+0177,1","10134,1","06,0000,9,1",,,,,,"01,1,+06000,9,00,9",,,"01,99,1,00,1,00,1,99999,9,00,1,02,1",,"01,9",,,,"99999,9,10130,1","2,1,018,1,+011,1",,,"SYN100AAXX  09151 76458 32963 11901 10234 20177 30130 40134 52018 80002 91445 333 30/// 5600/ 58011 81070;","Q01  00002PRCP06"
"76458099999","2003-05-09T21:00:00","4","23.2","-106.4166666","4.0","COLONIA JUAN CARRASCO MAZATLAN SIN., MX","FM-12","99999","V020","260,1,N,0020,1","22000,1,9,N","020000,1,N,1","+0274,1","+0190,1","10125,1","06,0000,9,1",,,,,,"02,1,+06000,9,00,9",,,"02,99,1,00,1,00,1,99999,9,00,1,06,1",,"01,9",,,,"99999,9,10121,1","7,1,016,1,+012,1",,,"SYN100AAXX  09211 76458 32970 22602 10274 20190 30121 40125 57016 80006 92045 333 30/// 56//9 58012 82070;","Q01  00002PRCP06"
"76458099999","2003-05-10T00:00:00","4","23.2","-106.4166666","4.0","COLONIA JUAN CARRASCO MAZATLAN SIN., MX","FM-12","99999","V020","250,1,N,0020,1","22000,1,9,N","018000,1,N,1","+0264,1","+0198,1","10103,1","06,0000,9,1","24,0000,9,1",,,,,,,,"04,99,1,99,9,99,9,99999,9,99,9,99,9",,"01,9",,"120,M,+0287,1","180,N,+0180,1","99999,9,10099,1","7,1,022,1,+003,1",,,"SYN106AAXX  10001 76458 32968 42502 10264 20198 30099 40103 57022 92340 333 10287 20180 30/// 50601 58003 70000;","Q01  00002PRCP06Q02  00002PRCP24"
"76458099999","2003-05-10T03:00:00","4","23.2","-106.4166666","4.0","COLONIA JUAN CARRASCO MAZATLAN SIN., MX","FM-12","99999","V020","300,1,N,0010,1","22000,1,9,N","008000,1,N,1","+0248,1","+0190,1","10107,1","06,0000,9,1",,,,,,,,,"01,99,1,99,9,99,9,99999,9,99,9,99,9",,"01,9",,,,"99999,9,10103,1","3,1,004,1,+002,1",,,"SYN082AAXX  10031 76458 32958 13001 10248 20190 30103 40107 53004 90240 333 30/// 58002;","Q01  00002PRCP06"
"76458099999","2003-05-10T15:00:00","4","23.2","-106.4166666","4.0","COLONIA JUAN CARRASCO MAZATLAN SIN., MX","FM-12","99999","V020","100,1,N,0020,1","22000,1,9,N","012000,1,N,1","+0236,1","+0173,1","10124,1","06,0000,9,1",,,,,,"01,1,+06000,9,00,9",,,"01,99,1,00,1,00,1,99999,9,00,1,01,1",,"01,9",,,,"99999,9,10119,1","2,1,022,1,-011,1",,,"SYN100AAXX  10151 76458 32962 11002 10236 20173 30119 40124 52022 80001 91445 333 30/// 5600/ 59011 81070;","Q01  00002PRCP06"
"76458099999","2003-05-10T21:00:00","4","23.2","-106.4166666","4.0","COLONIA JUAN CARRASCO MAZATLAN SIN., MX","FM-12","99999","V020","260,1,N,0010,1","22000,1,9,N","018000,1,N,1","+0269,1","+0183,1","10117,1","06,0000,9,1",,,,,,"00,1,+99999,9,99,9",,,"00,99,1,00,1,00,1,99999,9,00,1,00,1",,"01,9",,,,"99999,9,10113,1","7,1,011,1,-008,1",,,"SYN082AAXX  10211 76458 32968 02601 10269 20183 30113 40117 57011 92045 333 30/// 59008;","Q01  00002PRCP06"
"76458099999","2003-05-11T00:00:00","4","23.2","-106.4166666","4.0","COLONIA JUAN CARRASCO MAZATLAN SIN., MX","FM-12","99999","V020","280,1,N,0010,1","22000,1,9,N","020000,1,N,1","+0266,1","+0167,1","10108,1","06,0000,9,1","24,0000,9,1",,,,,,,,"03,99,1,99,9,99,9,99999,9,99,9,99,9",,"01,9",,"120,M,+0280,1","180,N,+0180,1","99999,9,10103,1","7,1,010,1,+004,1",,,"SYN106AAXX  11001 76458 32970 32801 10266 20167 30103 40108 57010 92350 333 10280 20180 30/// 50671 58004 70000;","Q01  00002PRCP06Q02  00002PRCP24"
"76458099999","2003-05-11T03:00:00","4","23.2","-106.4166666","4.0","COLONIA JUAN CARRASCO MAZATLAN SIN., MX","FM-12","99999","V020","300,1,N,0010,1","22000,1,9,N","008000,1,N,1","+0248,1","+0173,1","10114,1","06,0000,9,1",,,,,,"00,1,+99999,9,99,9",,,"00,99,1,00,1,00,1,99999,9,00,1,00,1",,"01,9",,,,"99999,9,10109,1","3,1,006,1,+006,1",,,"SYN082AAXX  11031 76458 32958 03001 10248 20173 30109 40114 53006 90240 333 30/// 58006;","Q01  00002PRCP06"
"76458099999","2003-05-11T18:00:00","4","23.2","-106.4166666","4.0","COLONIA JUAN CARRASCO MAZATLAN SIN., MX","FM-12","99999","V020","250,1,N,0020,1","22000,1,9,N","020000,1,N,1","+0258,1","+0198,1","10125,1","06,0000,9,1",,,,,,"00,1,+99999,9,99,9",,,"00,99,1,00,1,00,1,99999,9,00,1,00,1",,"01,9",,"120,M,+0272,1",,"99999,9,10120,1","9,9,999,9,-004,1",,,"SYN094AAXX  11181 76458 32970 02502 10258 20198 30120 40125 5//// 91750 333 10272 20/// 30/// 59004;","Q01  00002PRCP06"
"76458099999","2003-05-11T21:00:00","4","23.2","-106.4166666","4.0","COLONIA JUAN CARRASCO MAZATLAN SIN., MX","FM-12","99999","V020","270,1,N,0020,1","06000,1,9,N","020000,1,N,1","+0269,1","+0193,1","10112,1","06,0000,9,1",,,,,,"06,1,+06000,9,00,9",,,"06,99,1,00,1,00,1,99999,9,00,1,04,1",,"01,9",,,,"99999,9,10108,1","7,1,012,1,-005,1",,,"SYN100AAXX  11211 76458 32970 62702 10269 20193 30108 40112 57012 80004 92048 333 30/// 56//9 59005 86070;","Q01  00002PRCP06"
"76458099999","2003-05-12T03:00:00","4","23.2","-106.4166666","4.0","COLONIA JUAN CARRASCO MAZATLAN SIN., MX","FM-12","99999","V020","300,1,N,0020,1","22000,1,9,N","008000,1,N,1","+0246,1","+0177,1","10111,1","06,0000,9,1",,,,,,"00,1,+99999,9,99,9",,,"00,99,1,00,1,00,1,99999,9,00,1,00,1",,"01,9",,,,"99999,9,10106,1","2,1,009,1,-003,1",,,"SYN082AAXX  12031 76458 32958 03002 10246 20177 30106 40111 52009 90240 333 30/// 59003;","Q01  00002PRCP06"
"76458099999","2003-05-12T12:00:00","4","23.2","-106.4166666","4.0","COLONIA JUAN CARRASCO MAZATLAN SIN., MX","FM-12","99999","V020","999,9,C,0000,1","22000,1,9,N","012000,1,N,1","+0209,1","+0178,1","10116,1","06,0000,9,1","24,0000,9,1",,,,,"00,1,+99999,9,99,9",,,"00,99,1,00,1,00,1,99999,9,00,1,00,1",,"01,9","999,+0180,9","999,M,+0275,1","120,N,+0190,1","99999,9,10111,1","7,1,003,1,+999,9",,,"SYN100AAXX  12121 76458 32962 00000 10209 20178 30111 40116 57003 91148 333 10275 20190 30018 58/// 70000;","Q01  00002PRCP06Q02  00002PRCP24"
"76458099999","2003-05-12T15:00:00","4","23.2","-106.4166666","4.0","COLONIA JUAN CARRASCO MAZATLAN SIN., MX","FM-12","99999","V020","110,1,N,0010,1","22000,1,9,N","013000,1,N,1","+0244,1","+0178,1","10126,1","06,0000,9,1",,,,,,"04,1,+02400,9,03,9",,,"04,99,1,04,1,00,1,99999,9,03,1,00,1",,"01,9",,,,"99999,9,10122,1","2,1,011,1,+999,9",,,"SYN100AAXX  12151 76458 32963 41101 10244 20178 30122 40126 52011 84030 91450 333 30/// 560/0 58/// 84358;","Q01  00002PRCP06"
"76458099999","2003-05-12T18:00:00","4","23.2","-106.4166666","4.0","COLONIA JUAN CARRASCO MAZATLAN SIN., MX","FM-12","99999","V020","240,1,N,0020,1","22000,1,9,N","015000,1,N,1","+0266,1","+0196,1","10131,1","06,0000,9,1",,,,,,"01,1,+06000,9,00,9",,,"01,99,1,00,1,00,1,99999,9,00,1,01,1",,"01,9",,"120,M,+0285,1","240,N,+0187,1","99999,9,10126,1","0,1,004,1,+006,1",,,"SYN112AAXX  12181 76458 32965 12402 10266 20196 30126 40131 50004 80001 91745 333 10285 20187 30/// 5600/ 58006 81070;","Q01  00002PRCP06"
"76458099999","2003-05-13T00:00:00","4","23.2","-106.4166666","4.0","COLONIA JUAN CARRASCO MAZATLAN SIN., MX","FM-12","99999","V020","280,1,N,0020,1","22000,1,9,N","020000,1,N,1","+0268,1","+0196,1","10105,1","06,0000,9,1","24,0000,9,1",,,,,"00,1,+99999,9,99,9",,,"00,99,1,00,1,00,1,99999,9,00,1,00,1",,"01,9",,"120,M,+0275,1","180,N,+0187,1","99999,9,10101,1","9,9,999,9,+004,1",,,"SYN106AAXX  13001 76458 32970 02802 10268 20196 30101 40105 5//// 92340 333 10275 20187 30/// 50711 58004 70000;","Q01  00002PRCP06Q02  00002PRCP24"
"76458099999","2003-05-13T03:00:00","4","23.2","-106.4166666","4.0","COLONIA JUAN CARRASCO MAZATLAN SIN., MX","FM-12","99999","V020","290,1,N,0010,1","22000,1,9,N","008000,1,N,1","+0248,1","+0199,1","10109,1","06,0000,9,1",,,,,,"00,1,+99999,9,99,9",,,"00,99,1,00,1,00,1,99999,9,00,1,00,1",,"01,9",,,,"99999,9,10104,1","3,1,003,1,-002,1",,,"SYN082AAXX  13031 76458 32958 02901 10248 20199 30104 40109 53003 90240 333 30/// 59002;","Q01  00002PRCP06"
"76458099999","2003-05-13T06:00:00","4","23.2","-106.4166666","4.0","COLONIA JUAN CARRASCO MAZATLAN SIN., MX","FM-12","99999","V020","220,1,N,0020,1","22000,1,9,N","012000,1,N,1","+0240,1","+0206,1","10115,1","06,0000,9,1",,,,,,,,,"01,99,1,01,1,00,1,99999,9,03,1,00,1","0546,9","01,9",,"240,M,+0275,1","240,N,+0187,1","99999,9,10110,1","2,1,006,1,-004,1",,,"SYN124AAXX  13061 76458 32962 12202 10240 20206 30110 40115 52006 81030 90550 333 10275 20187 30/// 55091 21292 56030 59004 81359;","Q01  00002PRCP06"
"76458099999","2003-05-13T09:00:00","4","23.2","-106.4166666","4.0","COLONIA JUAN CARRASCO MAZATLAN SIN., MX","FM-12","99999","V020","999,9,C,0000,1","22000,1,9,N","012000,1,N,1","+0299,1","+0202,1","10113,1","06,0000,9,1",,,,,,"00,1,+99999,9,99,9",,,"00,99,1,00,1,00,1,99999,9,00,1,00,1",,"01,9",,,,"99999,9,10109,1","8,1,002,1,-005,1",,,"SYN082AAXX  13091 76458 32962 00000 10299 20202 30109 40113 58002 90840 333 30/// 59005;","Q01  00002PRCP06"
"76458099999","2003-05-13T15:00:00","4","23.2","-106.4166666","4.0","COLONIA JUAN CARRASCO MAZATLAN SIN., MX","FM-12","99999","V020","340,1,N,0020,1","22000,1,9,N","012000,1,N,1","+0250,1","+0210,1","10127,1","06,0000,9,1",,,,,,"00,1,+99999,9,99,9",,,"00,99,1,00,1,00,1,99999,9,00,1,00,1",,"01,9",,,,"99999,9,10123,1","2,1,012,1,+001,1",,,"SYN082AAXX  13151 76458 32962 03402 10250 20210 30123 40127 52012 91448 333 30/// 58001;","Q01  00002PRCP06"
"76458099999","2003-05-13T18:00:00","4","23.2","-106.4166666","4.0","COLONIA JUAN CARRASCO MAZATLAN SIN., MX","FM-12","99999","V020","240,1,N,0020,1","22000,1,9,N","015000,1,N,1","+0260,1","+0209,1","10130,1","06,0000,9,1",,,,,,"00,1,+99999,9,99,9",,,"00,99,1,00,1,00,1,99999,9,00,1,00,1",,"01,9",,"120,M,+0280,1","240,N,+0197,1","99999,9,10125,1","1,1,002,1,-001,1",,,"SYN094AAXX  13181 76458 32965 02402 10260 20209 30125 40130 51002 91748 333 10280 20197 30/// 59001;","Q01  00002PRCP06"
"76458099999","2003-05-14T00:00:00","4","23.2","-106.4166666","4.0","COLONIA JUAN CARRASCO MAZATLAN SIN., MX","FM-12","99999","V020","280,1,N,0010,1","22000,1,9,N","020000,1,N,1","+0276,1","+0206,1","10103,1","06,0000,9,1","24,0000,9,1",,,,,"00,1,+99999,9,99,9",,,"00,99,1,00,1,00,1,99999,9,00,1,00,1",,"01,9",,"120,M,+0305,1","180,N,+0197,1","99999,9,10098,1","9,9,999,9,-003,1",,,"SYN106AAXX  14001 76458 32970 02801 10276 20206 30098 40103 5//// 92348 333 10305 20197 30/// 50501 59003 70000;","Q01  00002PRCP06Q02  00002PRCP24"
"76458099999","2003-05-14T03:00:00","4","23.2","-106.4166666","4.0","COLONIA JUAN CARRASCO MAZATLAN SIN., MX","FM-12","99999","V020","330,1,N,0010,1","22000,1,9,N","010000,1,N,1","+0256,1","+0206,1","10109,1","06,0000,9,1",,,,,,"00,1,+99999,9,99,9",,,"00,99,1,00,1,00,1,99999,9,00,1,00,1",,"01,9",,,,"99999,9,10105,1","2,1,007,1,+001,1",,,"SYN082AAXX  14031 76458 32960 03301 10256 20206 30105 40109 52007 90250 333 30/// 58001;","Q01  00002PRCP06"
"76458099999","2003-05-14T09:00:00","4","23.2","-106.4166666","4.0","COLONIA JUAN CARRASCO MAZATLAN SIN., MX","FM-12","99999","V020","999,9,C,0000,1","22000,1,9,N","010000,1,N,1","+0232,1","+0206,1","10112,1","06,0000,9,1",,,,,,"00,1,+99999,9,99,9",,,"00,99,1,00,1,00,1,99999,9,00,1,00,1",,"01,9",,,,"99999,9,10108,1","7,1,004,1,+000,1",,,"SYN082AAXX  14091 76458 32960 00000 10232 20206 30108 40112 57004 90845 333 30/// 59000;","Q01  00002PRCP06"
"76458099999","2003-05-14T12:00:00","4","23.2","-106.4166666","4.0","COLONIA JUAN CARRASCO MAZATLAN SIN., MX","FM-12","99999","V020","130,1,N,0020,1","22000,1,9,N","010000,1,N,1","+0222,1","+0208,1","10112,1","06,0000,9,1","24,0000,9,1",,,,,"00,1,+99999,9,99,9",,,"00,99,1,00,1,00,1,99999,9,00,1,00,1",,"01,9","999,+0190,9","999,M,+0305,1","120,N,+0201,1","99999,9,10108,1","4,1,000,1,-003,1",,,"SYN100AAXX  14121 76458 32960 01302 10222 20208 30108 40112 54000 91140 333 10305 20201 30019 59003 70000;","Q01  00002PRCP06Q02  00002PRCP24"
"76458099999","2003-05-14T15:00:00","4","23.2","-106.4166666","4.0","COLONIA JUAN CARRASCO MAZATLAN SIN., MX","FM-12","99999","V020","130,1,N,0020,1","22000,1,9,N","013000,1,N,1","+0249,1","+0213,1","10120,1","06,0000,9,1",,,,,,"00,1,+99999,9,99,9",,,"00,99,1,00,1,00,1,99999,9,00,1,00,1",,"01,9",,,,"99999,9,10116,1","1,1,008,1,-007,1",,,"SYN082AAXX  14151 76458 32963 01302 10249 20213 30116 40120 51008 91448 333 30/// 59007;","Q01  00002PRCP06"
"76458099999","2003-05-14T18:00:00","4","23.2","-106.4166666","4.0","COLONIA JUAN CARRASCO MAZATLAN SIN., MX","FM-12","99999","V020","270,1,N,0030,1","22000,1,9,N","018000,1,N,1","+0276,1","+0194,1","10119,1","06,0000,9,1",,,,,,"00,1,+99999,9,99,9",,,"00,99,1,00,1,00,1,99999,9,00,1,00,1",,"01,9",,"120,M,+0294,1","240,N,+0201,1","99999,9,10115,1","8,1,001,1,-010,1",,,"SYN094AAXX  14181 76458 32968 02703 10276 20194 30115 40119 58001 91747 333 10294 20201 30/// 59010;","Q01  00002PRCP06"
"76458099999","2003-05-14T21:00:00","4","23.2","-106.4166666","4.0","COLONIA JUAN CARRASCO MAZATLAN SIN., MX","FM-12","99999","V020","240,1,N,0020,1","22000,1,9,N","020000,1,N,1","+0277,1","+0219,1","10103,1","06,0000,9,1",,,,,,"00,1,+99999,9,99,9",,,"00,99,1,00,1,00,1,99999,9,00,1,00,1",,"01,9",,,,"99999,9,10098,1","7,1,017,1,-016,1",,,"SYN082AAXX  14211 76458 32970 02402 10277 20219 30098 40103 57017 92048 333 30/// 59016;","Q01  00002PRCP06"
"76458099999","2003-05-15T00:00:00","4","23.2","-106.4166666","4.0","COLONIA JUAN CARRASCO MAZATLAN SIN., MX","FM-12","99999","V020","240,1,N,0010,1","22000,1,9,N","020000,1,N,1","+0274,1","+0212,1","10112,1","06,0000,9,1","24,0000,9,1",,,,,"00,1,+99999,9,99,9",,,"00,99,1,00,1,00,1,99999,9,00,1,00,1",,"01,9",,"120,M,+0285,1","180,N,+0201,1","99999,9,10108,1","3,1,010,1,+010,1",,,"SYN100AAXX  15001 76458 32970 02401 10274 20212 30108 40112 53010 92340 333 10285 20201 30/// 58010 70000;","Q01  00002PRCP06Q02  00002PRCP24"
"76458099999","2003-05-15T06:00:00","4","23.2","-106.4166666","4.0","COLONIA JUAN CARRASCO MAZATLAN SIN., MX","FM-12","99999","V020","999,9,C,0000,1","22000,1,9,N","012000,1,N,1","+0240,1","+0220,1","10106,1","06,0000,9,1",,,,,,,,,"01,99,1,01,1,04,1,00250,1,00,1,00,1","0636,9","01,9",,"240,M,+0285,1","240,N,+0201,1","99999,9,10101,1","2,1,014,1,-011,1",,,"SYN124AAXX  15061 76458 32362 10000 10240 20220 30101 40106 52014 81400 90550 333 10285 20201 30/// 55106 21354 56600 59011 81610;","Q01  00002PRCP06"
"76458099999","2003-05-15T12:00:00","4","23.2","-106.4166666","4.0","COLONIA JUAN CARRASCO MAZATLAN SIN., MX","FM-12","99999","V020","120,1,N,0010,1","22000,1,9,N","012000,1,N,1","+0232,1","+0215,1","10105,1","06,0000,9,1","24,0000,9,1",,,,,"03,1,+02400,9,03,9",,,"03,99,1,03,1,00,1,02250,1,03,1,00,1",,"01,9","999,+0210,9","999,M,+0285,1","120,N,+0212,1","99999,9,10100,1","4,1,000,1,-008,1",,,"SYN118AAXX  15121 76458 32862 31201 10232 20215 30100 40105 54000 83030 91144 333 10285 20212 30021 56020 59008 70000 83358;","Q01  00002PRCP06"
"76458099999","2003-05-15T15:00:00","4","23.2","-106.4166666","4.0","COLONIA JUAN CARRASCO MAZATLAN SIN., MX","FM-12","99999","V020","100,1,N,0020,1","22000,1,9,N","013000,1,N,1","+0260,1","+0212,1","10106,1","06,0000,9,1",,,,,,"01,1,+02400,9,03,9",,,"01,99,1,01,1,00,1,99999,9,03,1,00,1",,"01,9",,,,"99999,9,10102,1","1,1,002,1,-014,1",,,"SYN100AAXX  15151 76458 32963 11002 10260 20212 30102 40106 51002 81030 91448 333 30/// 560/0 59014 81358;","Q01  00002PRCP06"
"76458099999","2003-05-15T18:00:00","4","23.2","-106.4166666","4.0","COLONIA JUAN CARRASCO MAZATLAN SIN., MX","FM-12","99999","V020","180,1,N,0010,1","22000,1,9,N","018000,1,N,1","+0281,1","+0213,1","10115,1","06,0000,9,1",,,,,,"00,1,+99999,9,99,9",,,"00,99,1,00,1,00,1,99999,9,00,1,00,1",,"01,9",,"120,M,+0294,1","240,N,+0212,1","99999,9,10110,1","0,1,009,1,-005,1",,,"SYN094AAXX  15181 76458 32968 01801 10281 20213 30110 40115 50009 91748 333 10294 20212 30/// 59005;","Q01  00002PRCP06"
"76458099999","2003-05-15T21:00:00","4","23.2","-106.4166666","4.0","COLONIA JUAN CARRASCO MAZATLAN SIN., MX","FM-12","99999","V020","270,1,N,0010,1","22000,1,9,N","020000,1,N,1","+0277,1","+0223,1","99999,9","06,0000,9,1",,,,,,"00,1,+99999,9,99,9",,,"00,99,1,00,1,00,1,99999,9,00,1,00,1",,,,,,,,,,"SYN042AAXX  15211 76458 32970 02701 10277 20223;","Q01  00002PRCP06"
"76458099999","2003-05-16T00:00:00","4","23.2","-106.4166666","4.0","COLONIA JUAN CARRASCO MAZATLAN SIN., MX","FM-12","99999","V020","240,1,N,0010,1","22000,1,9,N","020000,1,N,1","+0272,1","+0225,1","10078,1","06,0000,9,1",,,,,,"00,1,+99999,9,99,9",,,"00,99,1,00,1,00,1,99999,9,00,1,00,1",,"01,9",,"120,M,+0285,1","180,N,+0212,1","99999,9,10073,1","7,1,022,1,-004,1",,,"SYN105AAXX  16001 76458 32970 02401 10272 20225 30073 40078 57022 92340 333 10285 20212 30/// 50551 59004 7000;","Q01  00002PRCP06"
"76458099999","2003-05-16T03:00:00","4","23.2","-106.4166666","4.0","COLONIA JUAN CARRASCO MAZATLAN SIN., MX","FM-12","99999","V020","270,1,N,0010,1","22000,1,9,N","008000,1,N,1","+0254,1","+0126,1","10087,1","06,0000,9,1",,,,,,"01,1,+00330,9,08,9",,,"01,99,1,01,1,01,1,99999,9,99,9,99,9",,"01,9",,,,"99999,9,10083,1","2,1,010,1,-004,1",,,"SYN094AAXX  16031 76458 32958 12701 10254 20126 30083 40087 52010 811// 90240 333 30/// 59004 81811;","Q01  00002PRCP06"
"76458099999","2003-05-16T09:00:00","4","23.2","-106.4166666","4.0","COLONIA JUAN CARRASCO MAZATLAN SIN., MX","FM-12","99999","V020","110,1,N,0010,1","22000,1,9,N","012000,1,N,1","+0238,1","+0224,1","10099,1","06,0000,9,1",,,,,,"04,1,+00150,9,07,9",,,"04,99,1,04,1,06,1,00150,1,00,1,00,1",,"01,9",,,,"99999,9,10094,1","7,1,003,1,-005,1",,,"SYN094AAXX  16091 76458 32262 41101 10238 20224 30094 40099 57003 84600 90847 333 30/// 59005 84705;","Q01  00002PRCP06"
"76458099999","2003-05-16T12:00:00","4","23.2","-106.4166666","4.0","COLONIA JUAN CARRASCO MAZATLAN SIN., MX","FM-12","99999","V020","110,1,N,0020,1","22000,1,9,N","012000,1,N,1","+0232,1","+0222,1","10102,1","06,0000,9,1","24,0000,9,1",,,,,"01,1,+00120,9,08,9",,,"01,99,1,01,1,01,1,00150,1,00,1,00,1",,"01,9","999,+0210,9","999,M,+0285,1","120,N,+0212,1","99999,9,10097,1","3,1,003,1,-003,1",,,"SYN118AAXX  16121 76458 32262 11102 10232 20222 30097 40102 53003 81100 91140 333 10285 20212 30021 56300 59003 70000 81804;","Q01  00002PRCP06"
"76458099999","2003-05-16T15:00:00","4","23.2","-106.4166666","4.0","COLONIA JUAN CARRASCO MAZATLAN SIN., MX","FM-12","99999","V020","120,1,N,0020,1","22000,1,9,N","012000,1,N,1","+0260,1","+0221,1","10111,1","06,0000,9,1",,,,,,"01,1,+00480,9,08,9",,,"01,99,1,01,1,01,1,00450,1,00,1,00,1",,"01,9",,,,"99999,9,10107,1","2,1,010,1,+005,1",,,"SYN100AAXX  16151 76458 32462 11202 10260 20221 30107 40111 52010 81100 91448 333 30/// 56400 58005 81816;","Q01  00002PRCP06"
"76458099999","2003-05-16T18:00:00","4","23.2","-106.4166666","4.0","COLONIA JUAN CARRASCO MAZATLAN SIN., MX","FM-12","99999","V020","180,1,N,0020,1","22000,1,9,N","018000,1,N,1","+0283,1","+0212,1","10111,1","06,0000,9,1",,,,,,"00,1,+99999,9,99,9",,,"00,99,1,00,1,00,1,99999,9,00,1,00,1",,"01,9",,"120,M,+0296,1","240,N,+0212,1","99999,9,10106,1","8,1,001,1,+999,9",,,"SYN094AAXX  16181 76458 32968 01802 10283 20212 30106 40111 58001 91748 333 10296 20212 30/// 56004;","Q01  00002PRCP06"
"76458099999","2003-05-16T21:00:00","4","23.2","-106.4166666","4.0","COLONIA JUAN CARRASCO MAZATLAN SIN., MX","FM-12","99999","V020","250,1,N,0020,1","22000,1,9,N","020000,1,N,1","+0284,1","+0225,1","10102,1","06,0000,9,1",,,,,,"00,1,+99999,9,99,9",,,"00,99,1,00,1,00,1,99999,9,00,1,00,1",,"01,9",,,,"99999,9,10097,1","7,1,009,1,+002,1",,,"SYN082AAXX  16211 76458 32970 02502 10284 20225 30097 40102 57009 92045 333 30/// 58002;","Q01  00002PRCP06"
"76458099999","2003-05-17T00:00:00","4","23.2","-106.4166666","4.0","COLONIA JUAN CARRASCO MAZATLAN SIN., MX","FM-12","99999","V020","250,1,N,0020,1","22000,1,9,N","020000,1,N,1","+0274,1","+0221,1","10087,1","06,0000,9,1","24,0000,9,1",,,,,"00,1,+99999,9,99,9",,,"00,99,1,00,1,00,1,99999,9,00,1,00,1",,"01,9",,"120,M,+0287,1","180,N,+0112,1","99999,9,10082,1","7,1,015,1,+009,1",,,"SYN106AAXX  17001 76458 32970 02502 10274 20221 30082 40087 57015 92340 333 10287 20112 30/// 50501 58009 70000;","Q01  00002PRCP06Q02  00002PRCP24"
"76458099999","2003-05-17T03:00:00","4","23.2","-106.4166666","4.0","COLONIA JUAN CARRASCO MAZATLAN SIN., MX","FM-12","99999","V020","270,1,N,0020,1","22000,1,9,N","008000,1,N,1","+0254,1","+0221,1","10096,1","06,0000,9,1",,,,,,"00,1,+99999,9,99,9",,,"00,99,1,00,1,00,1,99999,9,00,1,00,1",,"01,9",,,,"99999,9,10091,1","2,1,009,1,+008,1",,,"SYN082AAXX  17031 76458 32958 02702 10254 20221 30091 40096 52009 90240 333 30/// 58008;","Q01  00002PRCP06"
"76458099999","2003-05-17T06:00:00","4","23.2","-106.4166666","4.0","COLONIA JUAN CARRASCO MAZATLAN SIN., MX","FM-12","99999","V020","300,1,N,0010,1","22000,1,9,N","008000,1,N,1","+0250,1","+0220,1","10108,1","06,0000,9,1",,,,,,"00,1,+99999,9,99,9",,,"00,99,1,00,1,00,1,99999,9,00,1,00,1","0624,9","01,9",,"240,M,+0287,1","240,N,+0212,1","99999,9,10104,1","2,1,013,1,+999,9",,,"SYN106AAXX  17060 76458 32958 03001 10250 20220 30104 40108 52013 90550 333 10287 20212 30/// 55104 21409 58006;","Q01  00002PRCP06"
"76458099999","2003-05-17T09:00:00","4","23.2","-106.4166666","4.0","COLONIA JUAN CARRASCO MAZATLAN SIN., MX","FM-12","99999","V020","300,1,N,0010,1","22000,1,9,N","008000,1,N,1","+0242,1","+0224,1","10108,1","06,0000,9,1",,,,,,"02,1,+02400,9,03,9",,,"02,99,1,99,9,00,1,99999,9,03,1,00,1",,"01,9",,,,"99999,9,10103,1","4,1,000,1,+009,1",,,"SYN100AAXX  17091 76458 32958 23001 10242 20224 30103 40108 54001 80030 90850 333 30/// 56090 58009 82358;","Q01+000002SCOTLCQ02  00002PRCP06"
"76458099999","2003-05-17T15:00:00","4","23.2","-106.4166666","4.0","COLONIA JUAN CARRASCO MAZATLAN SIN., MX","FM-12","99999","V020","090,1,N,0020,1","22000,1,9,N","012000,1,N,1","+0258,1","+0221,1","10123,1","06,0000,9,1",,,,,,"01,1,+00480,9,08,9",,,"03,99,1,01,1,01,1,00450,1,03,1,00,1",,"01,9",,,,"99999,9,10119,1","2,1,011,1,+012,1",,,"SYN106AAXX  17151 76458 32462 30902 10258 20221 30119 40123 52011 81130 91450 333 30/// 563/0 58012 81816 82358;","Q01  00002PRCP06"
"76458099999","2003-05-17T18:00:00","4","23.2","-106.4166666","4.0","COLONIA JUAN CARRASCO MAZATLAN SIN., MX","FM-12","99999","V020","160,1,N,0030,1","22000,1,9,N","015000,1,N,1","+0286,1","+0201,1","10120,1","06,0000,9,1",,,,,,"01,1,+02400,9,03,9",,,"01,99,1,01,1,00,1,99999,9,03,1,00,1",,"01,9",,"120,M,+0302,1","240,N,+0210,1","99999,9,10116,1","8,1,003,1,+010,1",,,"SYN112AAXX  17181 76458 32965 11603 10286 20201 30116 40120 58003 81030 91750 333 10302 20210 30/// 560/0 58010 81358;","Q01  00002PRCP06"
"76458099999","2003-05-18T00:00:00","4","23.2","-106.4166666","4.0","COLONIA JUAN CARRASCO MAZATLAN SIN., MX","FM-12","99999","V020","250,1,N,0020,1","22000,1,9,N","020000,1,N,1","+0276,1","+0223,1","10099,1","06,0000,9,1","24,0000,9,1",,,,,"00,1,+99999,9,99,9",,,"00,99,1,00,1,00,1,99999,9,00,1,00,1",,"01,9",,"120,M,+0312,1","180,N,+0210,1","99999,9,10095,1","9,9,999,9,+013,1",,,"SYN106AAXX  18001 76458 32970 02502 10276 20223 30095 40099 5//// 92350 333 10312 20210 30/// 50551 58013 70000;","Q01  00002PRCP06Q02  00002PRCP24"
"76458099999","2003-05-18T03:00:00","4","23.2","-106.4166666","4.0","COLONIA JUAN CARRASCO MAZATLAN SIN., MX","FM-12","99999","V020","260,1,N,0020,1","22000,1,9,N","010000,1,N,1","+0258,1","+0225,1","10107,1","06,0000,9,1",,,,,,"00,1,+99999,9,99,9",,,"00,99,1,00,1,00,1,99999,9,00,1,00,1",,"01,9",,,,"99999,9,10102,1","2,1,007,1,+011,1",,,"SYN082AAXX  18031 76458 32960 02602 10258 20225 30102 40107 52007 90250 333 30/// 58011;","Q01  00002PRCP06"
"76458099999","2003-05-18T06:00:00","4","23.2","-106.4166666","4.0","COLONIA JUAN CARRASCO MAZATLAN SIN., MX","FM-12","99999","V020","360,1,N,0010,1","22000,1,9,N","010000,1,N,1","+0248,1","+0226,1","10113,1","06,0000,9,1",,,,,,"00,1,+99999,9,99,9",,,"00,99,1,00,1,00,1,99999,9,00,1,00,1","0600,9","01,9",,"240,M,+0312,1","240,N,+0210,1","99999,9,10109,1","0,1,006,1,+999,9",,,"SYN106AAXX  18061 76458 32960 03601 10248 20226 30109 40113 50006 90545 333 10312 20210 30/// 55100 21331 58005;","Q01  00002PRCP06"
"76458099999","2003-05-18T09:00:00","4","23.2","-106.4166666","4.0","COLONIA JUAN CARRASCO MAZATLAN SIN., MX","FM-12","99999","V020","999,9,C,0000,1","22000,1,9,N","010000,1,N,1","+0240,1","+0221,1","10112,1","06,0000,9,1",,,,,,"02,1,+00240,9,06,9",,,"02,99,1,02,1,04,1,00250,1,00,1,00,1",,"01,9",,,,"99999,9,10108,1","4,1,000,1,+005,1",,,"SYN100AAXX  18091 76458 32360 20000 10240 20221 30108 40112 54001 82400 90850 333 30/// 56200 58005 82608;","Q01  00002PRCP06"
"76458099999","2003-05-18T12:00:00","4","23.2","-106.4166666","4.0","COLONIA JUAN CARRASCO MAZATLAN SIN., MX","FM-12","99999","V020","340,1,N,0020,1","00210,1,9,N","010000,1,N,1","+0232,1","+0215,1","10116,1","06,0000,9,1","24,0000,9,1",,,,,"07,1,+00210,9,06,9",,,"07,99,1,07,1,04,1,00800,1,00,1,00,1",,"01,9","999,+0200,9","999,M,+0312,1","120,N,+0210,1","99999,9,10112,1","2,1,004,1,+004,1",,,"SYN118AAXX  18121 76458 32560 73402 10232 20215 30112 40116 52004 87400 91145 333 10312 20210 30020 56600 58004 70000 87607;","Q01  00002PRCP06"
"76458099999","2003-05-18T15:00:00","4","23.2","-106.4166666","4.0","COLONIA JUAN CARRASCO MAZATLAN SIN., MX","FM-12","99999","V020","100,1,N,0020,1","22000,1,9,N","012000,1,N,1","+0256,1","+0227,1","10123,1","06,0000,9,1",,,,"4,1,03,1","4,1,03,1","00,1,+99999,9,99,9",,,"00,99,1,00,1,00,1,99999,9,00,1,00,1",,"01,9",,,,"99999,9,10119,1","2,1,007,1,+000,1","05,1",,"SYN088AAXX  18151 76458 31962 01002 10256 20227 30119 40123 52007 70544 91450 333 30/// 58000;","Q01  00002PRCP06"
"76458099999","2003-05-18T18:00:00","4","23.2","-106.4166666","4.0","COLONIA JUAN CARRASCO MAZATLAN SIN., MX","FM-12","99999","V020","210,1,N,0030,1","22000,1,9,N","018000,1,N,1","+0290,1","+0200,1","10123,1","06,0000,9,1",,,,,,"00,1,+99999,9,99,9",,,"00,99,1,00,1,00,1,99999,9,00,1,00,1",,"01,9",,"120,M,+0310,1","240,N,+0206,1","99999,9,10119,1","5,1,000,1,+004,1",,,"SYN094AAXX  18181 76458 32968 02103 10290 20200 30119 40123 55000 91748 333 10310 20206 30/// 58004;","Q01  00002PRCP06"
"76458099999","2003-05-19T09:00:00","4","23.2","-106.4166666","4.0","COLONIA JUAN CARRASCO MAZATLAN SIN., MX","FM-12","99999","V020","150,1,N,0010,1","22000,1,9,N","008000,1,N,1","+0249,1","+0215,1","99999,9","06,0000,9,1",,,,,,,,,"03,99,1,99,9,99,9,99999,9,99,9,99,9",,"01,9",,,,,"9,9,999,9,-005,1",,,"SYN101AAXX  19091 76458 32958 31501 10249 20215 3 30103 40108 52003 8340 90850 333 30/// 56900 59005 83614;","Q01  00002PRCP06"
"76458099999","2003-05-19T15:00:00","4","23.2","-106.4166666","4.0","COLONIA JUAN CARRASCO MAZATLAN SIN., MX","FM-12","99999","V020","140,1,N,0020,1","22000,1,9,N","012000,1,N,1","+0265,1","+0222,1","10125,1","06,0000,9,1",,,,,,"01,1,+00540,9,08,9",,,"01,99,1,01,1,01,1,00450,1,00,1,00,1",,"01,9",,,,"99999,9,10121,1","2,1,014,1,+002,1",,,"SYN100AAXX  19151 76458 32462 11402 10265 20222 30121 40125 52014 81100 91450 333 30/// 56400 58002 81818;","Q01  00002PRCP06"
"76458099999","2003-05-19T18:00:00","4","23.2","-106.4166666","4.0","COLONIA JUAN CARRASCO MAZATLAN SIN., MX","FM-12","99999","V020","180,1,N,0020,1","22000,1,9,N","018000,1,N,1","+0289,1","+0205,1","10126,1","06,0000,9,1",,,,,,"00,1,+99999,9,99,9",,,"00,99,1,00,1,00,1,99999,9,00,1,00,1",,"01,9",,"120,M,+0310,1","240,N,+0220,1","99999,9,10122,1","0,1,001,1,+003,1",,,"SYN094AAXX  19181 76458 32968 01802 10289 20205 30122 40126 50001 91750 333 10310 20220 30/// 58003;","Q01  00002PRCP06"
"76458099999","2003-05-19T21:00:00","4","23.2","-106.4166666","4.0","COLONIA JUAN CARRASCO MAZATLAN SIN., MX","FM-12","99999","V020","250,1,N,0030,1","22000,1,9,N","018000,1,N,1","+0290,1","+0219,1","10109,1","06,0000,9,1",,,,,,"00,1,+99999,9,99,9",,,"00,99,1,00,1,00,1,99999,9,00,1,00,1",,"01,9",,,,"99999,9,10104,1","7,1,017,1,-002,1",,,"SYN082AAXX  1911  76458 32968 02503 10290 20219 30104 40109 57017 92050 333 30/// 59002;","Q01  00002PRCP06"
"76458099999","2003-05-20T00:00:00","4","23.2","-106.4166666","4.0","COLONIA JUAN CARRASCO MAZATLAN SIN., MX","FM-12","99999","V020","270,1,N,0020,1","22000,1,9,N","008000,1,N,1","+0284,1","+0228,1","10099,1","06,0000,9,1","24,0000,9,1",,,,,,,,"02,99,1,99,9,04,1,00800,1,00,1,00,1",,"01,9",,"120,M,+0317,1","180,N,+0220,1","99999,9,10094,1","6,1,010,1,+999,9",,,"SYN124AAXX  20001 76458 32558 22702 10284 20228 30094 40099 56010 81400 92350 333 10317 20220 30/// 50521 56500 58/// 70000 81624;","Q01+000012SCOTLCQ02  00002PRCP06"
"76458099999","2003-05-20T03:00:00","4","23.2","-106.4166666","4.0","COLONIA JUAN CARRASCO MAZATLAN SIN., MX","FM-12","99999","V020","280,1,N,0020,1","22000,1,9,N","014000,1,N,1","+0264,1","+0221,1","10107,1","06,0000,9,1",,,,,,"01,1,+00540,9,06,9",,,"01,99,1,01,1,04,1,00450,1,00,1,00,1",,"01,9",,,,"99999,9,10102,1","2,1,008,1,+999,9",,,"SYN100AAXX  20031 76458 32464 12802 10264 20221 30102 40107 52008 81400 90245 333 30/// 56600 58/// 81618;","Q01  00002PRCP06"
"76458099999","2003-05-20T06:00:00","4","23.2","-106.4166666","4.0","COLONIA JUAN CARRASCO MAZATLAN SIN., MX","FM-12","99999","V020","210,1,N,0010,1","22000,1,9,N","008000,1,N,1","+0256,1","+0221,1","10110,1","06,0000,9,1",,,,,,"00,1,+99999,9,99,9",,,"00,99,1,00,1,00,1,99999,9,00,1,00,1","0606,9","01,9",,"240,M,+0317,1","240,N,+0220,1","99999,9,10105,1","2,1,003,1,+999,9",,,"SYN106AAXX  20061 76458 32958 02101 10256 20221 30105 40110 52003 90545 333 10317 20220 30/// 55101 21263 58005;","Q01  00002PRCP06"
"76458099999","2003-05-20T15:00:00","4","23.2","-106.4166666","4.0","COLONIA JUAN CARRASCO MAZATLAN SIN., MX","FM-12","99999","V020","100,1,N,0020,1","22000,1,9,N","013000,1,N,1","+0274,1","+0233,1","10129,1","06,0000,9,1",,,,,,"01,1,+00510,9,08,9",,,"01,99,1,01,1,02,1,00450,1,00,1,00,1",,"01,9",,,,"99999,9,10124,1","2,1,012,1,+003,1",,,"SYN100AAXX  20151 76458 32463 11002 10274 20233 30124 40129 52012 81200 91450 333 30/// 56400 58003 81817;","Q01  00002PRCP06"
"76458099999","2003-05-20T18:00:00","4","23.2","-106.4166666","4.0","COLONIA JUAN CARRASCO MAZATLAN SIN., MX","FM-12","99999","V020","180,1,N,0020,1","22000,1,9,N","015000,1,N,1","+0286,1","+0225,1","10129,1","06,0000,9,1",,,,,,"00,1,+99999,9,99,9",,,"00,99,1,00,1,00,1,99999,9,00,1,00,1",,"01,9",,"120,M,+0305,1","240,N,+0237,1","99999,9,10124,1","4,1,000,1,+002,1",,,"SYN094AAXX  20181 76458 32965 01802 10286 20225 30124 40129 54000 91740 333 10305 20237 30/// 58002;","Q01  00002PRCP06"
"76458099999","2003-05-20T21:00:00","4","23.2","-106.4166666","4.0","COLONIA JUAN CARRASCO MAZATLAN SIN., MX","FM-12","99999","V020","240,1,N,0020,1","22000,1,9,N","018000,1,N,1","+0295,1","+9999,9","10111,1","06,0000,9,1",,,,,,"00,1,+99999,9,99,9",,,"00,99,1,00,1,00,1,99999,9,00,1,00,1",,"01,9",,,,"99999,9,10107,1","7,1,017,1,+003,1",,,"SYN076AAXX  20211 76458 32968 02402 10295 30107 40111 57017 92058 333 30/// 58003;","Q01  00002PRCP06"
"76458099999","2003-05-21T00:00:00","4","23.2","-106.4166666","4.0","COLONIA JUAN CARRASCO MAZATLAN SIN., MX","FM-12","99999","V020","270,1,N,0020,1","22000,1,9,N","018000,1,N,1","+0278,1","+0225,1","10097,1","06,0000,9,1","24,0000,9,1",,,,,"00,1,+99999,9,99,9",,,"00,99,1,00,1,00,1,99999,9,00,1,00,1",,"01,9",,"120,M,+0314,1","180,N,+0237,1","99999,9,10093,1","7,1,014,1,-001,1",,,"SYN106AAXX  21001 76458 32968 02702 10278 20225 30093 40097 57014 92348 333 10314 20237 30/// 50571 59001 70000;","Q01  00002PRCP06Q02  00002PRCP24"
"76458099999","2003-05-21T03:00:00","4","23.2","-106.4166666","4.0","COLONIA JUAN CARRASCO MAZATLAN SIN., MX","FM-12","99999","V020","240,1,N,0020,1","22000,1,9,N","010000,1,N,1","+0264,1","+0225,1","10101,1","06,0000,9,1",,,,,,"02,1,+03600,9,03,9",,,"02,99,1,02,1,00,1,02250,1,03,1,00,1",,"01,9",,,,"99999,9,10096,1","2,1,003,1,-006,1",,,"SYN100AAXX  21031 76458 32860 22402 10264 20225 30096 40101 52003 82030 90245 333 30/// 56/9/ 59006 82362;","Q01  00002PRCP06"
"76458099999","2003-05-21T06:00:00","4","23.2","-106.4166666","4.0","COLONIA JUAN CARRASCO MAZATLAN SIN., MX","FM-12","99999","V020","160,1,N,0010,1","22000,1,9,N","008000,1,N,1","+0260,1","+0221,1","10116,1","06,0000,9,1",,,,,,,,,"03,99,1,03,1,05,1,00450,1,00,1,00,1",,"01,9",,"240,M,+0314,1","240,N,+0237,1","99999,9,10111,1","2,1,015,1,+006,1",,,"SYN124AAXX  21061 76458 32458 31601 10260 20221 30111 40116 52015 83500 90552 333 10314 20237 30/// 55/00 21270 56100 58006 83616;","Q01  00002PRCP06"
"76458099999","2003-05-21T15:00:00","4","23.2","-106.4166666","4.0","COLONIA JUAN CARRASCO MAZATLAN SIN., MX","FM-12","99999","V020","120,1,N,0020,1","22000,1,9,N","013000,1,N,1","+0273,1","+0212,1","10131,1","06,0000,9,1",,,,,,"03,1,+02400,9,03,9",,,"03,99,1,03,1,00,1,99999,9,03,1,00,1",,"01,9",,,,"99999,9,10126,1","1,1,009,1,+002,1",,,"SYN100AAXX  21151 76458 32963 31202 10273 20212 30126 40131 51009 83030 91450 333 30/// 560/0 58002 83358;","Q01  00002PRCP06"
"76458099999","2003-05-22T00:00:00","4","23.2","-106.4166666","4.0","COLONIA JUAN CARRASCO MAZATLAN SIN., MX","FM-12","99999","V020","250,1,N,0020,1","22000,1,9,N","018000,1,N,1","+0282,1","+0233,1","10107,1","06,0000,9,1","24,0000,9,1",,,,,,,,"02,99,1,02,1,04,1,00800,1,00,1,00,1",,"01,9",,"120,M,+0320,1","180,N,+0242,1","99999,9,10103,1","7,1,010,1,+010,1",,,"SYN124AAXX  22001 76458 32568 22502 10282 20233 30103 40107 57010 82400 92357 333 10320 20242 30/// 50531 55600 58010 70000 82620;","Q01  00002PRCP06"
"76458099999","2003-05-22T03:00:00","4","23.2","-106.4166666","4.0","COLONIA JUAN CARRASCO MAZATLAN SIN., MX","FM-12","99999","V020","230,1,N,0020,1","22000,1,9,N","010000,1,N,1","+0265,1","+0228,1","10118,1","06,0000,9,1",,,,,,"01,1,+00450,9,06,9",,,"01,99,1,01,1,04,1,00450,1,00,1,00,1",,"01,9",,,,"99999,9,10113,1","3,1,010,1,+017,1",,,"SYN100AAXX  22031 76458 32460 12302 10265 20228 30113 40118 53010 81400 90248 333 0/6// 30/// 58017 81615;","Q01  00002PRCP06"
"76458099999","2003-05-22T06:00:00","4","23.2","-106.4166666","4.0","COLONIA JUAN CARRASCO MAZATLAN SIN., MX","FM-12","99999","V020","160,1,N,0010,1","22000,1,9,N","008000,1,N,1","+0260,1","+0233,1","10125,1","06,0000,9,1",,,,,,"00,1,+99999,9,99,9",,,"00,99,1,00,1,00,1,99999,9,00,1,00,1","0540,9","01,9",,"240,M,+0320,1","240,N,+0242,1","99999,9,10121,1","2,1,008,1,+999,9",,,"SYN106AAXX  22061 76458 32958 01601 10260 20233 30121 40125 52008 90542 333 10320 20242 30/// 55090 21319 58010;","Q01  00002PRCP06"
"76458099999","2003-05-22T09:00:00","4","23.2","-106.4166666","4.0","COLONIA JUAN CARRASCO MAZATLAN SIN., MX","FM-12","99999","V020","070,1,N,0010,1","22000,1,9,N","008000,1,N,1","+0254,1","+0220,1","10124,1","06,0000,9,1",,,,,,"03,1,+02400,9,03,9",,,"03,99,1,99,9,00,1,99999,9,03,1,00,1",,"01,9",,,,"99999,9,10120,1","4,1,000,1,+008,1",,,"SYN100AAXX  22091 76458 32958 30701 10254 20220 30120 40124 54001 80030 90835 333 30/// 56090 58008 83358;","Q01+000002SCOTLCQ02  00002PRCP06"
"76458099999","2003-05-22T15:00:00","4","23.2","-106.4166666","4.0","COLONIA JUAN CARRASCO MAZATLAN SIN., MX","FM-12","99999","V020","150,1,N,0010,1","22000,1,9,N","013000,1,N,1","+0283,1","+0223,1","10130,1","06,0000,9,1",,,,,,"00,1,+99999,9,99,9",,,"00,99,1,00,1,00,1,99999,9,00,1,00,1",,"01,9",,,,"99999,9,10126,1","1,1,004,1,+000,1",,,"SYN082AAXX  22151 76458 32963 01501 10283 20223 30126 40130 51004 91445 333 30/// 58000;","Q01  00002PRCP06"
"76458099999","2003-05-22T18:00:00","4","23.2","-106.4166666","4.0","COLONIA JUAN CARRASCO MAZATLAN SIN., MX","FM-12","99999","V020","240,1,N,0030,1","22000,1,9,N","018000,1,N,1","+0292,1","+0226,1","99999,9","06,0000,9,1",,,,,,,,,"01,99,1,99,9,99,9,99999,9,99,9,99,9",,"01,9",,"120,M,+0308,1","240,N,+0249,1",,"9,9,999,9,-003,1",,,"SYN113AAXX  22181 76458 32968 12403 10292 20226 3 30120 4012 57005 80002 91800 333 10308 20249 30/// 56009 59003 81079;","Q01  00002PRCP06"
"76458099999","2003-05-22T21:00:00","4","23.2","-106.4166666","4.0","COLONIA JUAN CARRASCO MAZATLAN SIN., MX","FM-12","99999","V020","240,1,N,0020,1","22000,1,9,N","018000,1,N,1","+0300,1","+0206,1","10107,1","06,0000,9,1",,,,,,"01,1,+01170,9,09,9",,,"01,99,1,01,1,09,1,01250,1,00,1,00,1",,"01,9",,,,"99999,9,10103,1","7,1,017,1,-010,1",,,"SYN100AAXX  22211 76458 32668 12402 10300 20206 30103 40107 57017 81900 92058 333 30/// 56100 59010 81939;","Q01  00002PRCP06"
"76458099999","2003-05-23T00:00:00","4","23.2","-106.4166666","4.0","COLONIA JUAN CARRASCO MAZATLAN SIN., MX","FM-12","99999","V020","270,1,N,0020,1","22000,1,9,N","018000,1,N,1","+0290,1","+0228,1","10099,1","06,0000,9,1","24,0000,9,1",,,,,,,,"01,99,1,01,1,03,1,00800,1,00,1,00,1",,"01,9",,"120,M,+0318,1","180,N,+0249,1","99999,9,10095,1","5,1,008,1,-008,1",,,"SYN130AAXX  23001 76458 32568 12702 10290 20228 30095 40099 55008 81300 82348 333 0/1// 10318 20249 30/// 50581 57916 59008 70000 81926;","Q01  00002PRCP06"
"76458099999","2003-05-23T15:00:00","4","23.2","-106.4166666","4.0","COLONIA JUAN CARRASCO MAZATLAN SIN., MX","FM-12","99999","V020","120,1,N,0020,1","02400,1,9,N","013000,1,N,1","+0273,1","+0227,1","10132,1","06,0000,9,1",,,,,,"05,1,+02400,9,03,9",,,"05,99,1,05,1,00,1,99999,9,03,1,00,1",,"01,9",,,,"99999,9,10127,1","1,1,012,1,+001,1",,,"SYN100AAXX  23151 76458 32963 51202 10273 20227 30127 40132 51012 85030 91440 333 30/// 560/0 58001 85358;","Q01  00002PRCP06"
"76458099999","2003-05-23T18:00:00","4","23.2","-106.4166666","4.0","COLONIA JUAN CARRASCO MAZATLAN SIN., MX","FM-12","99999","V020","180,1,N,0020,1","22000,1,9,N","015000,1,N,1","+0293,1","+0219,1","10130,1","06,0000,9,1",,,,,,"03,1,+06000,9,00,9",,,"03,99,1,00,1,00,1,99999,9,00,1,02,1",,"01,9",,"120,M,+0312,1","240,N,+0250,1","99999,9,10125,1","6,1,002,1,+005,1",,,"SYN112AAXX  23181 76458 32965 31802 10293 20219 30125 40130 56002 80002 91750 333 10312 20250 30/// 5600/ 58005 83070;","Q01  00002PRCP06"
"76458099999","2003-05-24T03:00:00","4","23.2","-106.4166666","4.0","COLONIA JUAN CARRASCO MAZATLAN SIN., MX","FM-12","99999","V020","330,1,N,0020,1","22000,1,9,N","010000,1,N,1","+0269,1","+0223,1","10101,1","06,0000,9,1",,,,,,"00,1,+99999,9,99,9",,,"00,99,1,00,1,00,1,99999,9,00,1,00,1",,"01,9",,,,"99999,9,10097,1","2,1,006,1,-012,1",,,"SYN082AAXX  24031 76458 32960 03302 10269 20223 30097 40101 52006 90248 333 30/// 59012;","Q01  00002PRCP06"
"76458099999","2003-05-24T09:00:00","4","23.2","-106.4166666","4.0","COLONIA JUAN CARRASCO MAZATLAN SIN., MX","FM-12","99999","V020","090,1,N,0010,1","22000,1,9,N","008000,1,N,1","+0254,1","+0220,1","10101,1","06,0000,9,1",,,,,,"00,1,+99999,9,99,9",,,"00,99,1,00,1,00,1,99999,9,00,1,00,1",,"01,9",,,,"99999,9,10096,1","7,1,010,1,-019,1",,,"SYN082AAXX  24091 76458 32958 00901 10254 20220 30096 40101 57010 90848 333 30/// 59019;","Q01  00002PRCP06"
"76458099999","2003-05-24T15:00:00","4","23.2","-106.4166666","4.0","COLONIA JUAN CARRASCO MAZATLAN SIN., MX","FM-12","99999","V020","150,1,N,0030,1","22000,1,9,N","013000,1,N,1","+0276,1","+0223,1","10120,1","06,0000,9,1",,,,,,"01,1,+00660,9,08,9",,,"02,99,1,01,1,02,1,00800,1,00,1,06,1",,"01,9",,,,"99999,9,10115,1","2,1,016,1,-012,1",,,"SYN106AAXX  24151 76458 32563 21503 10276 20223 30115 40120 52016 81206 91450 333 30/// 5630/ 59012 81822 81070;","Q01  00002PRCP06"
"76458099999","2003-05-24T18:00:00","4","23.2","-106.4166666","4.0","COLONIA JUAN CARRASCO MAZATLAN SIN., MX","FM-12","99999","V020","170,1,N,0020,1","22000,1,9,N","015000,1,N,1","+0292,1","+0222,1","10124,1","06,0000,9,1",,,,,,"02,1,+06000,9,00,9",,,"02,99,1,00,1,00,1,99999,9,00,1,05,1",,"01,9",,"120,M,+0307,1","240,N,+0240,1","99999,9,10119,1","1,1,004,1,-006,1",,,"SYN112AAXX  24181 76458 32965 21702 10292 20222 30119 40124 51004 80005 91750 333 10307 20240 30/// 5600/ 59006 82070;","Q01  00002PRCP06"
"76458099999","2003-05-24T21:00:00","4","23.2","-106.4166666","4.0","COLONIA JUAN CARRASCO MAZATLAN SIN., MX","FM-12","99999","V020","180,1,N,0020,1","22000,1,9,N","018000,1,N,1","+0293,1","+0222,1","10113,1","06,0000,9,1",,,,,,"01,1,+08700,9,00,9",,,"01,99,1,00,1,00,1,99999,9,00,1,01,1",,"01,9",,,,"99999,9,10109,1","7,1,011,1,+999,9",,,"SYN100AAXX  24211 76458 32968 11802 10293 20222 30109 40113 57011 80001 92058 333 30/// 56009 58/// 81079;","Q01  00002PRCP06"
"76458099999","2003-05-25T03:00:00","4","23.2","-106.4166666","4.0","COLONIA JUAN CARRASCO MAZATLAN SIN., MX","FM-12","99999","V020","190,1,N,0020,1","22000,1,9,N","010000,1,N,1","+0265,1","+0223,1","10107,1","06,0000,9,1",,,,,,"00,1,+99999,9,99,9",,,"00,99,1,00,1,00,1,99999,9,00,1,00,1",,"01,9",,,,"99999,9,10103,1","3,1,003,1,+006,1",,,"SYN082AAXX  25031 76458 32960 01902 10265 20223 30103 40107 53003 90245 333 30/// 58006;","Q01  00002PRCP06"
"76458099999","2003-05-25T09:00:00","4","23.2","-106.4166666","4.0","COLONIA JUAN CARRASCO MAZATLAN SIN., MX","FM-12","99999","V020","999,9,C,0000,1","22000,1,9,N","010000,1,N,1","+0250,1","+0228,1","10108,1","06,0000,9,1",,,,,,"00,1,+99999,9,99,9",,,"00,99,1,00,1,00,1,99999,9,00,1,00,1",,"01,9",,,,"99999,9,10104,1","7,1,012,1,+007,1",,,"SYN082AAXX  25091 76458 32960 00000 10250 20228 30104 40108 57012 90850 333 30/// 58007;","Q01  00002PRCP06"
"76458099999","2003-05-25T15:00:00","4","23.2","-106.4166666","4.0","COLONIA JUAN CARRASCO MAZATLAN SIN., MX","FM-12","99999","V020","130,1,N,0020,1","22000,1,C,N","012000,1,N,1","+0274,1","+0224,1","10118,1","06,0000,9,1",,,,,,"01,1,+00630,9,06,9",,,"05,99,1,01,1,04,1,00800,1,00,1,06,1",,"01,9",,,,"99999,9,10114,1","0,1,009,1,-001,1",,,"SYN106AAXX  25151 76458 32562 51302 10274 20224 30114 40118 50009 81406 91500 333 30/// 56309 59001 81621 84070;","Q01  00002PRCP06"
"76458099999","2003-05-26T00:00:00","4","23.2","-106.4166666","4.0","COLONIA JUAN CARRASCO MAZATLAN SIN., MX","FM-12","99999","V020","240,1,N,0010,1","22000,1,9,N","020000,1,N,1","+0284,1","+0221,1","10093,1","06,0000,9,1","24,0000,9,1",,,,,,,,"02,99,1,00,1,00,1,99999,9,00,1,08,1",,"01,9",,"120,M,+0312,1","180,N,+0232,1","99999,9,10089,1","9,9,999,9,-011,1",,,"SYN124AAXX  26001 76458 32970 22401 10284 20221 30089 40093 5//// 80008 92348 333 10312 20232 30/// 50491 56//9 59011 70000 82268;","Q01  00002PRCP06"
"76458099999","2003-05-26T03:00:00","4","23.2","-106.4166666","4.0","COLONIA JUAN CARRASCO MAZATLAN SIN., MX","FM-12","99999","V020","230,1,N,0020,1","22000,1,9,N","010000,1,N,1","+0259,1","+0223,1","10101,1","06,0000,9,1",,,,,,"01,1,+00450,9,06,9",,,"01,99,1,01,1,04,1,00450,1,00,1,00,1",,"01,9",,,,"99999,9,10097,1","2,1,008,1,-006,1",,,"SYN100AAXX  26031 76458 32460 12302 10259 20223 30097 40101 52008 81400 90245 333 30/// 566// 59006 81615;","Q01  00002PRCP06"
"76458099999","2003-05-26T15:00:00","4","23.2","-106.4166666","4.0","COLONIA JUAN CARRASCO MAZATLAN SIN., MX","FM-12","99999","V020","120,1,N,0030,1","22000,1,9,N","013000,1,N,1","+0270,1","+0219,1","10119,1","06,0000,9,1",,,,,,"01,1,+00630,9,08,9",,,"01,99,1,01,1,02,1,00800,1,00,1,00,1",,"01,9",,,,"99999,9,10115,1","1,1,007,1,+001,1",,,"SYN100AAXX  26151 76458 32563 11203 10270 20219 30115 40119 51007 81200 91445 333 30/// 56300 58001 81821;","Q01  00002PRCP06"
"76458099999","2003-05-26T18:00:00","4","23.2","-106.4166666","4.0","COLONIA JUAN CARRASCO MAZATLAN SIN., MX","FM-12","99999","V020","180,1,N,0030,1","22000,1,9,N","015000,1,N,1","+0287,1","+0221,1","10117,1","06,0000,9,1",,,,,,"01,1,+00810,9,08,9",,,"01,99,1,01,1,02,1,00800,1,00,1,00,1",,"01,9",,"120,M,+0307,1","240,N,+0232,1","99999,9,10113,1","6,1,002,1,+999,9",,,"SYN112AAXX  26181 76458 32565 11803 10287 20221 30113 40117 56002 81200 91750 333 10307 20232 30/// 56300 58/// 81827;","Q01  00002PRCP06"
"76458099999","2003-05-26T21:00:00","4","23.2","-106.4166666","4.0","COLONIA JUAN CARRASCO MAZATLAN SIN., MX","FM-12","99999","V020","210,1,N,0050,1","22000,1,9,N","018000,1,N,1","+0298,1","+0228,1","10109,1","06,0000,9,1",,,,,,"02,1,+00870,9,06,9",,,"02,99,1,02,1,04,1,00800,1,00,1,00,1",,"01,9",,,,"99999,9,10104,1","7,1,008,1,+999,9",,,"SYN100AAXX  26211 76458 32568 22105 10298 20228 30104 40109 57008 82400 92050 333 30/// 56300 58/// 82629;","Q01  00002PRCP06"
"76458099999","2003-05-27T00:00:00","4","23.2","-106.4166666","4.0","COLONIA JUAN CARRASCO MAZATLAN SIN., MX","FM-12","99999","V020","250,1,N,0020,1","22000,1,9,N","018000,1,N,1","+0280,1","+0222,1","10094,1","06,0000,9,1","24,0000,9,1",,,,,,,,"01,99,1,01,1,02,1,00800,1,00,1,00,1",,"01,9",,"120,M,+0315,1","180,N,+0232,1","99999,9,10090,1","7,1,014,1,+001,1",,,"SYN124AAXX  27001 76458 32568 12502 10280 20222 30090 40094 57014 81200 92357 333 10315 20232 30/// 50581 56100 58001 70000 81824;","Q01  00002PRCP06"
"76458099999","2003-05-27T03:00:00","4","23.2","-106.4166666","4.0","COLONIA JUAN CARRASCO MAZATLAN SIN., MX","FM-12","99999","V020","320,1,N,0010,1","22000,1,9,N","012000,1,N,1","+0255,1","+0217,1","10103,1","06,0000,9,1",,,,,,"01,1,+00480,9,06,9",,,"01,99,1,01,1,04,1,00450,1,00,1,00,1",,"01,9",,,,"99999,9,10098,1","2,1,008,1,+002,1",,,"SYN100AAXX  27031 76458 32462 13201 10255 20217 30098 40103 52008 81400 90248 333 30/// 56300 58002 81616;","Q01  00002PRCP06"
"76458099999","2003-05-27T15:00:00","4","23.2","-106.4166666","4.0","COLONIA JUAN CARRASCO MAZATLAN SIN., MX","FM-12","99999","V020","120,1,N,0030,1","99999,9,9,N","012000,1,N,1","+0266,1","+0217,1","99999,9","06,0000,9,1",,,,,,,,,"06,99,1,99,9,99,9,00800,1,99,9,99,9",,"01,9",,,,,"9,9,999,9,-004,1",,,"SYN101AAXX  27151 76458 32562 61203 10266 20217 3 3011 40116 51008 86200 91450 333 30/// 56300 59004 86820;","Q01  00002PRCP06"
"76458099999","2003-05-27T18:00:00","4","23.2","-106.4166666","4.0","COLONIA JUAN CARRASCO MAZATLAN SIN., MX","FM-12","99999","V020","180,1,N,0020,1","22000,1,9,N","020000,1,N,1","+0285,1","+0207,1","10117,1","06,0000,9,1",,,,,,"01,1,+00960,9,08,9",,,"01,99,1,01,1,02,1,00800,1,00,1,00,1",,"01,9",,"120,M,+0302,1","240,N,+0228,1","99999,9,10112,1","1,1,001,1,-001,1",,,"SYN112AAXX  27181 76458 32570 11802 10285 20207 30112 40117 51001 81200 91750 333 10302 20228 30/// 56300 59001 81832;","Q01  00002PRCP06"
"76458099999","2003-05-27T21:00:00","4","23.2","-106.4166666","4.0","COLONIA JUAN CARRASCO MAZATLAN SIN., MX","FM-12","99999","V020","240,1,N,0020,1","22000,1,9,N","020000,1,N,1","+0288,1","+0214,1","10108,1","06,0000,9,1",,,,,,"00,1,+99999,9,99,9",,,"00,99,1,00,1,00,1,99999,9,00,1,00,1",,"01,9",,,,"99999,9,10103,1","7,1,009,1,-001,1",,,"SYN082AAXX  27211 76458 32970 02402 10288 20214 30103 40108 57009 92050 333 30/// 59001;","Q01  00002PRCP06"
"76458099999","2003-05-28T00:00:00","4","23.2","-106.4166666","4.0","COLONIA JUAN CARRASCO MAZATLAN SIN., MX","FM-12","99999","V020","270,1,N,0010,1","22000,1,9,N","020000,1,N,1","+0283,1","+0216,1","10100,1","06,0000,9,1","24,0000,9,1",,,,,,,,"01,99,1,01,1,03,1,00800,1,00,1,00,1",,"01,9",,"120,M,+0309,1","180,N,+0228,1","99999,9,10096,1","5,1,007,1,+006,1",,,"SYN124AAXX  28001 76458 32570 12701 10283 20216 30096 40100 55007 81300 92350 333 10309 20228 30/// 50511 561// 58006 70000 81928;","Q01  00002PRCP06"
"76458099999","2003-05-28T09:00:00","4","23.2","-106.4166666","4.0","COLONIA JUAN CARRASCO MAZATLAN SIN., MX","FM-12","99999","V020","170,1,N,0010,1","00480,1,9,N","008000,1,N,1","+0256,1","+0218,1","10126,1","06,0000,9,1",,,,,,"07,1,+00480,9,06,9",,,"07,99,1,07,1,05,1,00450,1,00,1,00,1",,"01,9",,,,"99999,9,10121,1","7,1,004,1,+022,1",,,"SYN100AAXX  28090 76458 32458 71701 10256 20218 30121 40126 57004 87500 90835 333 0/800 30/// 58022 87616;","Q01  00002PRCP06"
"76458099999","2003-05-28T15:00:00","4","23.2","-106.4166666","4.0","COLONIA JUAN CARRASCO MAZATLAN SIN., MX","FM-12","99999","V020","090,1,N,0010,1","22000,1,9,N","012000,1,N,1","+0270,1","+0218,1","10128,1","06,0000,9,1",,,,,,"02,1,+00660,9,06,9",,,"02,99,1,02,1,04,1,00800,1,00,1,00,1",,"01,9",,,,"99999,9,10124,1","1,1,006,1,+013,1",,,"SYN100AAXX  28151 76458 32562 20901 10270 20218 30124 40128 51006 82400 91455 333 30/// 56300 58013 82622;","Q01  00002PRCP06"
"76458099999","2003-05-28T18:00:00","4","23.2","-106.4166666","4.0","COLONIA JUAN CARRASCO MAZATLAN SIN., MX","FM-12","99999","V020","210,1,N,0020,1","22000,1,9,N","012000,1,N,1","+0288,1","+0220,1","10126,1","06,0000,9,1",,,,,,"00,1,+99999,9,99,9",,,"00,99,1,00,1,00,1,99999,9,00,1,00,1",,"01,9",,"120,M,+0313,1","240,N,+0251,1","99999,9,10122,1","7,1,002,1,+010,1",,,"SYN094AAXX  28181 76458 32962 02102 10288 20220 30122 40126 57002 91755 333 10313 20251 30/// 58010;","Q01  00002PRCP06"
"76458099999","2003-05-29T00:00:00","4","23.2","-106.4166666","4.0","COLONIA JUAN CARRASCO MAZATLAN SIN., MX","FM-12","99999","V020","240,1,N,0020,1","22000,1,9,N","018000,1,N,1","+0284,1","+0221,1","10110,1","06,0000,9,1","24,0000,9,1",,,,,,,,"01,99,1,01,1,01,1,00800,1,00,1,00,1",,"01,9",,"120,M,+0312,1","180,N,+0251,1","99999,9,10106,1","7,1,008,1,+010,1",,,"SYN124AAXX  29001 76458 32568 12402 10284 20221 30106 40110 57008 81100 92350 333 10312 20251 30/// 50551 565// 58010 70000 81826;","Q01  00002PRCP06"
"76458099999","2003-05-29T03:00:00","4","23.2","-106.4166666","4.0","COLONIA JUAN CARRASCO MAZATLAN SIN., MX","FM-12","99999","V020","240,1,N,0020,1","22000,1,9,N","010000,1,N,1","+0258,1","+0216,1","10124,1","06,0000,9,1",,,,,,"01,1,+00510,9,08,9",,,"01,99,1,01,1,01,1,00450,1,00,1,00,1",,"01,9",,,,"99999,9,10120,1","3,1,014,1,+007,1",,,"SYN100AAXX  29031 76458 32460 12402 10258 20216 30120 40124 53014 81100 90245 333 30/// 566// 58007 81817;","Q01  00002PRCP06"
"76458099999","2003-05-29T15:00:00","4","23.2","-106.4166666","4.0","COLONIA JUAN CARRASCO MAZATLAN SIN., MX","FM-12","99999","V020","170,1,N,0020,1","22000,1,9,N","012000,1,N,1","+0260,1","+0221,1","10139,1","06,0000,9,1",,,,,,"01,1,+00480,9,08,9",,,"01,99,1,01,1,02,1,00450,1,00,1,00,1",,"01,9",,,,"99999,9,10134,1","1,1,007,1,+010,1",,,"SYN100AAXX  29151 76458 32462 11702 10260 20221 30134 40139 51007 81200 91450 333 30/// 56300 58010 81816;","Q01  00002PRCP06"
"76458099999","2003-05-29T18:00:00","4","23.2","-106.4166666","4.0","COLONIA JUAN CARRASCO MAZATLAN SIN., MX","FM-12","99999","V020","240,1,N,0020,1","22000,1,9,N","015000,1,N,1","+0276,1","+0206,1","10133,1","06,0000,9,1",,,,,,"00,1,+99999,9,99,9",,,"00,99,1,00,1,00,1,99999,9,00,1,00,1",,"01,9",,"120,M,+0292,1","240,N,+0235,1","99999,9,10129,1","7,1,005,1,+007,1",,,"SYN094AAXX  29181 76458 32965 02402 10276 20206 30129 40133 57005 91750 333 10292 20235 30/// 58007;","Q01  00002PRCP06"
"76458099999","2003-05-29T21:00:00","4","23.2","-106.4166666","4.0","COLONIA JUAN CARRASCO MAZATLAN SIN., MX","FM-12","99999","V020","270,1,N,0030,1","22000,1,9,N","020000,1,N,1","+0285,1","+0204,1","10117,1","06,0000,9,1",,,,,,"01,1,+01020,9,09,9",,,"01,99,1,01,1,03,1,01250,1,00,1,00,1",,"01,9",,,,"99999,9,10113,1","7,1,016,1,-009,1",,,"SYN100AAXX  29211 76458 32670 12703 10285 20204 30113 40117 57016 81300 92050 333 30/// 56100 59009 81934;","Q01  00002PRCP06"
"76458099999","2003-05-30T00:00:00","4","23.2","-106.4166666","4.0","COLONIA JUAN CARRASCO MAZATLAN SIN., MX","FM-12","99999","V020","280,1,N,0030,1","22000,1,9,N","020000,1,N,1","+0284,1","+0213,1","10100,1","06,0000,9,1","24,0000,9,1",,,,,,,,"01,99,1,01,1,03,1,00800,1,00,1,00,1",,"01,9",,"120,M,+0304,1","180,N,+0135,1","99999,9,10095,1","7,1,018,1,-011,1",,,"SYN124AAXX  30000 76458 32570 12803 10284 20213 30095 40100 57018 81300 92348 333 10304 20135 30/// 50611 561// 59011 70000 81930;","Q01  00002PRCP06"
"76458099999","2003-05-30T03:00:00","4","23.2","-106.4166666","4.0","COLONIA JUAN CARRASCO MAZATLAN SIN., MX","FM-12","99999","V020","280,1,N,0020,1","22000,1,9,N","010000,1,N,1","+0264,1","+0221,1","10103,1","06,0000,9,1",,,,"0,1,03,1","0,1,03,1","01,1,+00540,9,09,9",,,"01,99,1,01,1,09,1,00800,1,00,1,00,1",,"01,9",,,,"99999,9,10098,1","3,1,003,1,-022,1","13,1",,"SYN106AAXX  30031 76458 31560 12802 10264 20221 30098 40103 53003 71300 81900 90248 333 30/// 561// 59022 81918;","Q01  00002PRCP06"
"76458099999","2003-05-30T09:00:00","4","23.2","-106.4166666","4.0","COLONIA JUAN CARRASCO MAZATLAN SIN., MX","FM-12","99999","V020","130,1,N,0010,1","22000,1,9,N","008000,1,N,1","+0248,1","+0214,1","10119,1","06,0000,9,1",,,,,,"00,1,+99999,9,99,9",,,"00,99,1,00,1,00,1,99999,9,00,1,00,1",,"01,9",,,,"99999,9,10115,1","4,1,000,1,-010,1",,,"SYN082AAXX  30091 76458 32958 01301 10248 20214 30115 40119 54000 90835 333 30/// 59010;","Q01  00002PRCP06"
"76458099999","2003-05-30T15:00:00","4","23.2","-106.4166666","4.0","COLONIA JUAN CARRASCO MAZATLAN SIN., MX","FM-12","99999","V020","250,1,N,0010,1","22000,1,9,N","012000,1,N,1","+0266,1","+0218,1","10116,1","06,0000,9,1",,,,,,"01,1,+00600,9,08,9",,,"01,99,1,01,1,02,1,00800,1,00,1,00,1",,"01,9",,,,"99999,9,10112,1","4,1,000,1,-022,1",,,"SYN100AAXX  30151 76458 32562 12501 10266 20218 30112 40116 54000 81200 91445 333 30/// 56300 59022 81820;","Q01  00002PRCP06"
"76458099999","2003-05-30T18:00:00","4","23.2","-106.4166666","4.0","COLONIA JUAN CARRASCO MAZATLAN SIN., MX","FM-12","99999","V020","230,1,N,0030,1","22000,1,9,N","015000,1,N,1","+0282,1","+0219,1","10113,1","06,0000,9,1",,,,,,"00,1,+99999,9,99,9",,,"00,99,1,00,1,00,1,99999,9,00,1,00,1",,"01,9",,"120,M,+0299,1","240,N,+0215,1","99999,9,10109,1","6,1,003,1,-020,1",,,"SYN094AAXX  30181 76458 32965 02303 10282 20219 30109 40113 56003 91745 333 10299 20215 30/// 59020;","Q01  00002PRCP06"
"76458099999","2003-05-31T00:00:00","4","23.2","-106.4166666","4.0","COLONIA JUAN CARRASCO MAZATLAN SIN., MX","FM-12","99999","V020","270,1,N,0020,1","22000,1,9,N","020000,1,N,1","+0290,1","+0228,1","10091,1","06,0000,9,1","24,0000,9,1",,,,,"00,1,+99999,9,99,9",,,"00,99,1,00,1,00,1,99999,9,00,1,00,1",,"01,9",,"120,M,+0310,1","180,N,+0215,1","99999,9,10086,1","9,9,999,9,-009,1",,,"SYN106AAXX  31001 76458 32970 02702 10290 20228 30086 40091 5//// 92350 333 10310 20215 30/// 50601 59009 70000;","Q01  00002PRCP06Q02  00002PRCP24"
"76458099999","2003-05-31T03:00:00","4","23.2","-106.4166666","4.0","COLONIA JUAN CARRASCO MAZATLAN SIN., MX","FM-12","99999","V020","320,1,N,0020,1","22000,1,9,N","010000,1,N,1","+0272,1","+0225,1","10095,1","06,0000,9,1",,,,,,"00,1,+99999,9,99,9",,,"00,99,1,00,1,00,1,99999,9,00,1,00,1",,"01,9",,,,"99999,9,10091,1","3,1,005,1,-007,1",,,"SYN082AAXX  31031 76458 32960 03202 10272 20225 30091 40095 53005 90248 333 30/// 59007;","Q01  00002PRCP06"
"76458099999","2003-05-31T15:00:00","4","23.2","-106.4166666","4.0","COLONIA JUAN CARRASCO MAZATLAN SIN., MX","FM-12","99999","V020","020,1,N,0010,1","22000,1,9,N","012000,1,N,1","+0266,1","+0227,1","10110,1","06,0000,9,1",,,,,,"03,1,+00300,9,08,9",,,"03,99,1,03,1,02,1,00450,1,00,1,00,1",,"01,9",,,,"99999,9,10106,1","1,1,004,1,-006,1",,,"SYN100AAXX  31151 76458 32462 30201 10266 20227 30106 40110 51004 83200 91450 333 30/// 56400 59006 83810;","Q01  00002PRCP06"
"76458099999","2003-05-31T21:00:00","4","23.2","-106.4166666","4.0","COLONIA JUAN CARRASCO MAZATLAN SIN., MX","FM-12","99999","V020","250,1,N,0030,1","08700,1,9,N","018000,1,N,1","+0298,1","+0231,1","10097,1","06,0000,9,1",,,,,,"07,1,+08700,9,00,9",,,"07,99,1,00,1,00,1,99999,9,00,1,04,1",,"01,9",,,,"99999,9,10092,1","7,1,009,1,+999,9",,,"SYN100AAXX  31211 76458 32968 72503 10298 20231 30092 40097 57009 80004 92050 333 30/// 56009 58/// 87079;","Q01  00002PRCP06"
"76458099999","2003-06-01T00:00:00","4","23.2","-106.4166666","4.0","COLONIA JUAN CARRASCO MAZATLAN SIN., MX","FM-12","99999","V020","280,1,N,0020,1","99999,9,9,N","018000,1,N,1","+0292,1","+0228,1","10082,1","06,0000,9,1","24,0000,9,1",,,,,,,,"06,99,1,00,1,00,1,99999,9,00,1,06,1",,"01,9",,"120,M,+0315,1","180,N,+0226,1","99999,9,10078,1","6,1,014,1,+008,1",,,"SYN124AAXX  01001 76458 32968 62802 10292 20228 30078 40082 56014 80006 92345 333 10315 20226 30/// 50471 56//9 58008 70000 86070;","Q01  00002PRCP06"
"76458099999","2003-06-01T03:00:00","4","23.2","-106.4166666","4.0","COLONIA JUAN CARRASCO MAZATLAN SIN., MX","FM-12","99999","V020","310,1,N,0020,1","22000,1,9,N","010000,1,N,1","+0270,1","+0236,1","10087,1","06,0000,9,1",,,,,,"01,1,+00480,9,08,9",,,"01,99,1,01,1,01,1,00450,1,00,1,00,1",,"01,9",,,,"99999,9,10083,1","2,1,005,1,-008,1",,,"SYN100AAXX  01031 76458 32460 13102 10270 20236 30083 40087 52005 81100 90245 333 30/// 566// 59008 81816;","Q01  00002PRCP06"
"76458099999","2003-06-01T15:00:00","4","23.2","-106.4166666","4.0","COLONIA JUAN CARRASCO MAZATLAN SIN., MX","FM-12","99999","V020","110,1,N,0010,1","22000,1,9,N","015000,1,N,1","+0256,1","+0225,1","10103,1","06,0000,9,1",,,,,,"01,1,+02400,9,03,9",,,"01,99,1,99,9,00,1,99999,9,03,1,00,1",,"01,9",,,,"99999,9,10097,1","2,1,007,1,-007,1",,,"SYN100AAXX  01151 76458 32965 11101 10256 20225 30097 40103 52007 80030 91450 333 0/090 30/// 59007 81358;","Q01+000002SCOTLCQ02  00002PRCP06"
"76458099999","2003-06-01T18:00:00","4","23.2","-106.4166666","4.0","COLONIA JUAN CARRASCO MAZATLAN SIN., MX","FM-12","99999","V020","220,1,N,0020,1","22000,1,9,N","015000,1,N,1","+0286,1","+0222,1","10106,1","06,0000,9,1",,,,,,"00,1,+99999,9,99,9",,,"00,99,1,00,1,00,1,99999,9,00,1,00,1",,"01,9",,"120,M,+0305,1","240,N,+0210,1","99999,9,10102,1","3,1,003,1,+001,1",,,"SYN094AAXX  01181 76458 32965 02202 10286 20222 30102 40106 53003 91745 333 10305 20210 30/// 58001;","Q01  00002PRCP06"
"76458099999","2003-06-01T21:00:00","4","23.2","-106.4166666","4.0","COLONIA JUAN CARRASCO MAZATLAN SIN., MX","FM-12","99999","V020","270,1,N,0020,1","22000,1,9,N","015000,1,N,1","+0296,1","+0224,1","10097,1","06,0000,9,1",,,,,,"01,1,+00900,9,08,9",,,"01,99,1,01,1,01,1,00800,1,99,9,99,9",,"01,9",,,,"99999,9,10093,1","7,1,009,1,+001,1",,,"SYN094AAXX  01211 76458 32565 12702 10296 20224 30093 40097 57009 811// 92040 333 30/// 58001 81830;","Q01  00002PRCP06"
"76458099999","2003-06-02T00:00:00","4","23.2","-106.4166666","4.0","COLONIA JUAN CARRASCO MAZATLAN SIN., MX","FM-12","99999","V020","270,1,N,0010,1","22000,1,9,N","015000,1,N,1","+0282,1","+0221,1","10086,1","06,0000,9,1","24,0000,9,1",,,,,"01,1,+01800,9,03,9",,,"01,99,1,01,1,99,9,99999,9,03,1,99,9",,"01,9",,"120,M,+0310,1","180,N,+0210,1","99999,9,10081,1","7,1,012,1,+003,1",,,"SYN112AAXX  02001 76458 32965 12701 10282 20221 30081 40086 57012 81/3/ 92340 333 10310 20210 30/// 58003 70000 81356;","Q01  00002PRCP06"
"76458099999","2003-06-02T03:00:00","4","23.2","-106.4166666","4.0","COLONIA JUAN CARRASCO MAZATLAN SIN., MX","FM-12","99999","V020","280,1,N,0020,1","22000,1,9,N","012000,1,N,1","+0264,1","+0217,1","10088,1","06,0000,9,1",,,,,,"01,1,+02700,9,03,9",,,"01,99,1,01,1,00,1,99999,9,03,1,00,1",,"01,9",,,,"99999,9,10083,1","0,1,002,1,+000,1",,,"SYN100AAXX  02031 76458 32962 12802 10264 20217 30083 40088 50002 81030 90245 333 03090 30/// 59000 81359;","Q01  00002PRCP06"
"76458099999","2003-06-02T15:00:00","4","23.2","-106.4166666","4.0","COLONIA JUAN CARRASCO MAZATLAN SIN., MX","FM-12","99999","V020","120,1,N,0030,1","22000,1,9,N","018000,1,N,1","+0271,1","+0217,1","10117,1","06,0000,9,1",,,,,,"01,1,+00690,9,08,9",,,"03,99,1,01,1,02,1,00800,1,03,1,00,1",,"01,9",,,,"99999,9,10113,1","2,1,008,1,+014,1",,,"SYN112AAXX  02151 76458 32568 31203 10271 20217 30113 40117 52008 81230 91450 333 02350 30/// 57836 58014 81823 82359;","Q01  00002PRCP06"
"76458099999","2003-06-02T18:00:00","4","23.2","-106.4166666","4.0","COLONIA JUAN CARRASCO MAZATLAN SIN., MX","FM-12","99999","V020","170,1,N,0020,1","22000,1,9,N","016000,1,N,1","+0294,1","+0225,1","10117,1","06,0000,9,1",,,,,,"03,1,+00870,9,08,9",,,"04,99,1,03,1,02,1,00800,1,03,1,00,1",,"01,9",,,,"99999,9,10113,1","4,1,000,1,+011,1",,,"SYN112AAXX  02181 76458 32566 41702 10294 20225 30113 40117 54000 83230 91740 333 01330 30/// 57831 58011 83829 81359;","Q01  00002PRCP06"
"76458099999","2003-06-02T21:00:00","4","23.2","-106.4166666","4.0","COLONIA JUAN CARRASCO MAZATLAN SIN., MX","FM-12","99999","V020","180,1,N,0030,1","22000,1,9,N","018000,1,N,1","+0294,1","+0213,1","10105,1","06,0000,9,1",,,,,,"01,1,+01020,9,08,9",,,"03,99,1,01,1,02,1,01250,1,05,1,00,1",,"01,9",,,,"99999,9,10100,1","7,1,013,1,+007,1",,,"SYN112AAXX  02211 76458 32668 31803 10294 20213 30100 40105 57013 81250 92050 333 0/3// 30/// 57831 58007 81834 82358;","Q01  00002PRCP06"
"76458099999","2003-06-03T00:00:00","4","23.2","-106.4166666","4.0","COLONIA JUAN CARRASCO MAZATLAN SIN., MX","FM-12","99999","V020","210,1,N,0020,1","22000,1,9,N","008000,1,N,1","+0272,1","+0203,1","10090,1","06,0000,9,1","24,0000,9,1",,,,,"00,1,+99999,9,99,9",,,"00,99,1,00,1,00,1,99999,9,00,1,00,1",,"01,9",,"120,M,+0313,1","180,N,+0231,1","99999,9,10085,1","7,1,015,1,+004,1",,,"SYN100AAXX  03001 76458 32958 02102 10272 20203 30085 40090 57015 92345 333 10313 20231 30/// 58004 70000;","Q01  00002PRCP06Q02  00002PRCP24"
"76458099999","2003-06-03T03:00:00","4","23.2","-106.4166666","4.0","COLONIA JUAN CARRASCO MAZATLAN SIN., MX","FM-12","99999","V020","180,1,N,0020,1","22000,1,9,N","008000,1,N,1","+0260,1","+0212,1","10096,1","06,0000,9,1",,,,,,"01,1,+01800,9,03,9",,,"01,99,1,01,1,99,9,99999,9,03,1,99,9",,"01,9",,,,"99999,9,10092,1","3,1,007,1,+009,1",,,"SYN094AAXX  03031 76458 32958 11802 10260 20212 30092 40096 53007 81/3/ 90245 333 30/// 58009 81356;","Q01  00002PRCP06"
"76458099999","2003-06-03T15:00:00","4","23.2","-106.4166666","4.0","COLONIA JUAN CARRASCO MAZATLAN SIN., MX","FM-12","99999","V020","120,1,N,0010,1","02400,1,9,N","014000,1,N,1","+0262,1","+0212,1","10113,1","06,0000,2,1",,,,"2,1,03,1","2,1,03,1","07,1,+02400,9,03,9",,,"07,99,1,07,1,00,1,02250,1,07,1,00,1",,"01,9",,,,"99999,9,10109,1","0,1,004,1,-004,1","50,1",,"SYN106AAXX  03151 76458 31864 71201 10262 20212 30109 40113 50004 75022 87070 91455 333 0/090 30/// 59004 87358;",
"76458099999","2003-06-04T00:00:00","4","23.2","-106.4166666","4.0","COLONIA JUAN CARRASCO MAZATLAN SIN., MX","FM-12","99999","V020","260,1,N,0020,1","22000,1,9,N","015000,1,N,1","+0282,1","+0213,1","10074,1","06,0000,9,1",,,,,,"01,1,+02400,9,03,9",,,"01,99,1,99,9,00,1,99999,9,03,1,00,1",,"01,9",,"120,M,+0310,1","180,N,+0248,1","99999,9,10070,1","7,1,024,1,-015,1",,,"SYN112AAXX  04001 76458 32965 12602 10282 20213 30070 40074 57024 80030 92340 333 0/090 10310 20248 30/// 59015 81358;","Q01+000002SCOTLCQ02  00002PRCP06"
"76458099999","2003-06-04T03:00:00","4","23.2","-106.4166666","4.0","COLONIA JUAN CARRASCO MAZATLAN SIN., MX","FM-12","99999","V020","260,1,N,0010,1","22000,1,9,N","008000,1,N,1","+0260,1","+0212,1","10081,1","06,0000,9,1",,,,,,"02,1,+02400,9,03,9",,,"02,99,1,99,9,00,1,99999,9,03,1,00,1",,"01,9",,,,"99999,9,10076,1","2,1,006,1,-016,1",,,"SYN100AAXX  04031 76458 32958 22601 10260 20212 30076 40081 52006 80030 90255 333 0/090 30/// 59016 82358;","Q01+000002SCOTLCQ02  00002PRCP06"
"76458099999","2003-06-04T09:00:00","4","23.2","-106.4166666","4.0","COLONIA JUAN CARRASCO MAZATLAN SIN., MX","FM-12","99999","V020","160,1,N,0010,1","22000,1,9,N","008000,1,N,1","+0255,1","+0218,1","10088,1","06,0000,9,1",,,,,,"01,1,+06000,9,00,9",,,"01,99,1,00,1,00,1,99999,9,00,1,06,1",,"01,9",,,,"99999,9,10083,1","7,1,006,1,-022,1",,,"SYN100AAXX  04091 76458 32958 11601 10255 20218 30083 40088 57006 80006 90850 333 30/// 56//9 59022 81070;","Q01  00002PRCP06"
"76458099999","2003-06-04T12:00:00","4","23.2","-106.4166666","4.0","COLONIA JUAN CARRASCO MAZATLAN SIN., MX","FM-12","99999","V020","999,9,C,0000,1","00420,1,9,N","008000,1,N,1","+0252,1","+0218,1","10083,1","06,0000,9,1","24,0000,9,1",,,,,"07,1,+00420,9,06,9",,,"07,99,1,07,1,05,1,00450,1,00,1,00,1",,"01,9","999,+0230,9","999,M,+0310,1","120,N,+0242,1","99999,9,10079,1","2,1,004,1,-026,1",,,"SYN112AAXX  04121 76458 32458 70000 10252 20218 30079 40083 52004 87500 91240 333 10310 20242 30023 59026 70000 87614;","Q01  00002PRCP06"
"76458099999","2003-06-04T15:00:00","4","23.2","-106.4166666","4.0","COLONIA JUAN CARRASCO MAZATLAN SIN., MX","FM-12","99999","V020","120,1,N,0010,1","22000,1,9,N","018000,1,N,1","+0265,1","+0219,1","10092,1","06,0000,9,1",,,,,,"02,1,+00570,9,08,9",,,"04,99,1,02,1,02,1,00450,1,03,1,00,1",,"01,9",,,,"99999,9,10088,1","2,1,010,1,-020,1",,,"SYN106AAXX  04151 76458 32468 41201 10265 20219 30088 40092 52010 82230 91451 333 0/990 30/// 59020 82819 82358;","Q01  00002PRCP06"
"76458099999","2003-06-04T18:00:00","4","23.2","-106.4166666","4.0","COLONIA JUAN CARRASCO MAZATLAN SIN., MX","FM-12","99999","V020","190,1,N,0020,1","22000,1,9,N","014000,1,N,1","+0290,1","+0210,1","10090,1","06,0000,9,1",,,,,,"01,1,+01020,9,08,9",,,"01,99,1,01,1,02,1,01250,1,00,1,00,1",,"01,9",,"120,M,+0305,1","240,N,+0242,1","99999,9,10086,1","4,1,000,1,-024,1",,,"SYN118AAXX  04181 76458 32664 11902 10290 20210 30086 40090 54001 81200 91800 333 02100 10305 20242 30/// 57815 59024 81834;","Q01  00002PRCP06"
"76458099999","2003-06-04T21:00:00","4","23.2","-106.4166666","4.0","COLONIA JUAN CARRASCO MAZATLAN SIN., MX","FM-12","99999","V020","250,1,N,0020,1","22000,1,9,N","020000,1,N,1","+0294,1","+0219,1","10079,1","06,0000,9,1",,,,,,"00,1,+99999,9,99,9",,,"00,99,1,00,1,00,1,99999,9,00,1,00,1",,"01,9",,,,"99999,9,10075,1","7,1,011,1,-020,1",,,"SYN082AAXX  04211 76458 32970 02502 10294 20219 30075 40079 57011 92050 333 30/// 59020;","Q01  00002PRCP06"
"76458099999","2003-06-05T00:00:00","4","23.2","-106.4166666","4.0","COLONIA JUAN CARRASCO MAZATLAN SIN., MX","FM-12","99999","V020","240,1,N,0020,1","22000,1,9,N","020000,1,N,1","+0288,1","+0210,1","10040,1","06,0000,9,1","24,0000,9,1",,,,,"00,1,+99999,9,99,9",,,"00,99,1,00,1,00,1,99999,9,00,1,00,1",,"01,9",,"120,M,+0315,1","180,N,+0242,1","99999,9,10036,1","7,1,039,1,-034,1",,,"SYN100AAXX  05001 76458 32970 02402 10288 20210 30036 40040 57039 92340 333 10315 20242 30/// 59034 70000;","Q01  00002PRCP06Q02  00002PRCP24"
"76458099999","2003-06-05T03:00:00","4","23.2","-106.4166666","4.0","COLONIA JUAN CARRASCO MAZATLAN SIN., MX","FM-12","99999","V020","210,1,N,0020,1","22000,1,9,N","008000,1,N,1","+0270,1","+0218,1","10082,1","06,0000,9,1",,,,,,"00,1,+99999,9,99,9",,,"00,99,1,00,1,00,1,99999,9,00,1,00,1",,"01,9",,,,"99999,9,10077,1","2,1,041,1,+001,1",,,"SYN082AAXX  05031 76458 32958 02102 10270 20218 30077 40082 52041 90240 333 30/// 58001;","Q01  00002PRCP06"
"76458099999","2003-06-05T15:00:00","4","23.2","-106.4166666","4.0","COLONIA JUAN CARRASCO MAZATLAN SIN., MX","FM-12","99999","V020","130,1,N,0020,1","22000,1,9,N","015000,1,N,1","+0268,1","+0221,1","10111,1","06,0000,9,1",,,,,,"02,1,+00570,9,06,9",,,"03,99,1,03,1,05,1,00450,1,00,1,00,1",,"01,9",,,,"99999,9,10106,1","2,1,010,1,+018,1",,,"SYN100AAXX  05151 76458 32465 31302 10268 20221 30106 40111 52010 83500 91450 333 0/300 30/// 58018 82619;","Q01  00002PRCP06"
"76458099999","2003-06-05T18:00:00","4","23.2","-106.4166666","4.0","COLONIA JUAN CARRASCO MAZATLAN SIN., MX","FM-12","99999","V020","180,1,N,0020,1","22000,1,9,N","016000,1,N,1","+0287,1","+0216,1","10110,1","06,0000,9,1",,,,,,"01,1,+00870,9,08,9",,,"01,99,1,01,1,01,1,00800,1,00,1,00,1",,"01,9",,"120,M,+0308,1","240,N,+0257,1","99999,9,10106,1","7,1,001,1,+020,1",,,"SYN118AAXX  05181 76458 32566 11802 10287 20216 30106 40110 57000 81100 91755 333 01100 10308 20257 30/// 57819 58020 81829;","Q01+000072APCTENQ02+000002APC3  Q03  00002PRCP06"
"76458099999","2003-06-05T21:00:00","4","23.2","-106.4166666","4.0","COLONIA JUAN CARRASCO MAZATLAN SIN., MX","FM-12","99999","V020","240,1,N,0020,1","22000,1,9,N","016000,1,N,1","+0289,1","+0218,1","10100,1","06,0000,9,1",,,,,,"01,1,+00870,9,09,9",,,"01,99,1,01,1,03,1,00800,1,00,1,00,1",,"01,9",,,,"99999,9,10096,1","7,1,010,1,+021,1",,,"SYN106AAXX  05211 76458 32566 12402 10289 20218 30096 40100 57010 81300 92100 333 04100 30/// 57915 58021 81929;","Q01  00002PRCP06"
"76458099999","2003-06-06T00:00:00","4","23.2","-106.4166666","4.0","COLONIA JUAN CARRASCO MAZATLAN SIN., MX","FM-12","99999","V020","230,1,N,0020,1","22000,1,9,N","016000,1,N,1","+0272,1","+0213,1","10091,1","06,0000,9,1","24,0000,9,1",,,,,"00,1,+99999,9,99,9",,,"00,99,1,00,1,00,1,99999,9,00,1,00,1",,"01,9",,"120,M,+0310,1","180,N,+0254,1","99999,9,10086,1","7,1,010,1,+024,1",,,"SYN100AAXX  06001 76458 32966 02302 10272 20213 30086 40091 57010 92340 333 10310 20254 30/// 58024 70000;","Q01  00002PRCP06Q02  00002PRCP24"
"76458099999","2003-06-06T03:00:00","4","23.2","-106.4166666","4.0","COLONIA JUAN CARRASCO MAZATLAN SIN., MX","FM-12","99999","V020","240,1,N,0020,1","22000,1,9,N","008000,1,N,1","+0262,1","+0218,1","10096,1","06,0000,9,1",,,,,,"00,1,+99999,9,99,9",,,"00,99,1,00,1,00,1,99999,9,00,1,00,1",,"01,9",,,,"99999,9,10092,1","2,1,006,1,+015,1",,,"SYN082AAXX  06031 76458 32958 02402 10262 20218 30092 40096 52006 90240 333 30/// 58015;","Q01  00002PRCP06"
"76458099999","2003-06-06T06:00:00","4","23.2","-106.4166666","4.0","COLONIA JUAN CARRASCO MAZATLAN SIN., MX","FM-12","99999","V020","210,1,N,0010,1","22000,1,9,N","008000,1,N,1","+0258,1","+0219,1","10104,1","06,0000,9,1",,,,,,,,,"01,99,1,01,1,04,1,00450,1,00,1,00,1","0642,9","01,9",,"240,M,+0310,1","240,N,+0254,1","99999,9,10099,1","0,1,007,1,+006,1",,,"SYN124AAXX  06061 76458 32458 12101 10258 20219 30099 40104 50007 81400 90548 333 10310 20254 30/// 55107 21455 566// 58006 81616;","Q01  00002PRCP06"
"76458099999","2003-06-06T15:00:00","4","23.2","-106.4166666","4.0","COLONIA JUAN CARRASCO MAZATLAN SIN., MX","FM-12","99999","V020","090,1,N,0020,1","22000,1,9,N","016000,1,N,1","+0262,1","+0215,1","10107,1","06,0000,9,1",,,,,,"03,1,+00570,9,06,9",,,"03,99,1,03,1,04,1,00450,1,00,1,00,1",,"01,9",,,,"99999,9,10103,1","0,1,003,1,+004,1",,,"SYN100AAXX  06151 76458 32466 30902 10262 20215 30103 40107 50003 83400 91450 333 04/// 30/// 58004 83619;","Q01  00002PRCP06"
"76458099999","2003-06-06T18:00:00","4","23.2","-106.4166666","4.0","COLONIA JUAN CARRASCO MAZATLAN SIN., MX","FM-12","99999","V020","180,1,N,0030,1","22000,1,9,N","018000,1,N,1","+0285,1","+0213,1","10102,1","06,0000,9,1",,,,,,"01,1,+00900,9,06,9",,,"01,99,1,01,1,04,1,00800,1,00,1,00,1",,"01,9",,"120,M,+0304,1","240,N,+0230,1","99999,9,10098,1","8,1,005,1,+008,1",,,"SYN118AAXX  06181 76458 32568 11803 10285 20213 30098 40102 58005 81400 91750 333 0//// 10304 20230 30/// 56651 58008 81630;","Q01  00002PRCP06"
"76458099999","2003-06-06T21:00:00","4","23.2","-106.4166666","4.0","COLONIA JUAN CARRASCO MAZATLAN SIN., MX","FM-12","99999","V020","180,1,N,0020,1","22000,1,9,N","018000,1,N,1","+0289,1","+0218,1","10094,1","06,0000,9,1",,,,,,"00,1,+99999,9,99,9",,,"00,99,1,00,1,00,1,99999,9,00,1,00,1",,"01,9",,,,"99999,9,10090,1","7,1,008,1,-006,1",,,"SYN082AAXX  06211 76458 32968 01802 10289 20218 30090 40094 57008 92050 333 30/// 59006;","Q01  00002PRCP06"
"76458099999","2003-06-07T03:00:00","4","23.2","-106.4166666","4.0","COLONIA JUAN CARRASCO MAZATLAN SIN., MX","FM-12","99999","V020","300,1,N,0020,1","22000,1,9,N","008000,1,N,1","+0268,1","+0219,1","10089,1","06,0000,9,1",,,,,,"00,1,+99999,9,99,9",,,"00,99,1,00,1,00,1,99999,9,00,1,00,1",,"01,9",,,,"99999,9,10084,1","2,1,007,1,-008,1",,,"SYN082AAXX  07031 76458 32958 03002 10268 20219 30084 40089 52007 90240 333 30/// 59008;","Q01  00002PRCP06"
"76458099999","2003-06-07T06:00:00","4","23.2","-106.4166666","4.0","COLONIA JUAN CARRASCO MAZATLAN SIN., MX","FM-12","99999","V020","340,1,N,0020,1","22000,1,9,N","008000,1,N,1","+0265,1","+0216,1","10096,1","06,0000,9,1",,,,,,"00,1,+99999,9,99,9",,,"00,99,1,00,1,00,1,99999,9,00,1,00,1","0696,9","01,9",,"240,M,+0310,1","240,N,+0230,1","99999,9,10092,1","2,1,008,1,+999,9",,,"SYN106AAXX  07061 76458 32958 03402 10265 20216 30092 40096 52008 90545 333 10310 20230 30/// 55116 21540 59007;","Q01  00002PRCP06"
"76458099999","2003-06-07T09:00:00","4","23.2","-106.4166666","4.0","COLONIA JUAN CARRASCO MAZATLAN SIN., MX","FM-12","99999","V020","340,1,N,0020,1","22000,1,9,N","008000,1,N,1","+0250,1","+0207,1","10093,1","06,0000,9,1",,,,,,"00,1,+99999,9,99,9",,,"00,99,1,00,1,00,1,99999,9,00,1,00,1",,"01,9",,,,"99999,9,10088,1","8,1,004,1,+007,1",,,"SYN082AAXX  07091 76458 32958 03402 10250 20207 30088 40093 58004 90847 333 30/// 58007;","Q01  00002PRCP06"
"76458099999","2003-06-07T15:00:00","4","23.2","-106.4166666","4.0","COLONIA JUAN CARRASCO MAZATLAN SIN., MX","FM-12","99999","V020","300,1,N,0030,1","22000,1,9,N","018000,1,N,1","+0270,1","+0209,1","10092,1","06,0000,9,1",,,,"4,1,03,1","4,1,03,1","00,1,+99999,9,99,9",,,"00,99,1,00,1,00,1,99999,9,00,1,00,1",,"01,9",,,,"99999,9,10088,1","4,1,000,1,-015,1","00,1",,"SYN088AAXX  07151 76458 31968 03003 10270 20209 30088 40092 54001 70044 91458 333 30/// 59015;","Q01  00002PRCP06"
"76458099999","2003-06-07T18:00:00","4","23.2","-106.4166666","4.0","COLONIA JUAN CARRASCO MAZATLAN SIN., MX","FM-12","99999","V020","270,1,N,0030,1","22000,1,9,N","018000,1,N,1","+0292,1","+0218,1","10088,1","06,0000,9,1",,,,,,"00,1,+99999,9,99,9",,,"00,99,1,00,1,00,1,99999,9,00,1,00,1",,"01,9",,"120,M,+0302,1","240,N,+0227,1","99999,9,10084,1","7,1,004,1,-020,1",,,"SYN094AAXX  07181 76458 32968 02703 10292 20218 30084 40088 57004 91758 333 10302 20227 30/// 59020;","Q01  00002PRCP06"
"76458099999","2003-06-07T21:00:00","4","23.2","-106.4166666","4.0","COLONIA JUAN CARRASCO MAZATLAN SIN., MX","FM-12","99999","V020","260,1,N,0020,1","22000,1,9,N","020000,1,N,1","+0302,1","+0224,1","10082,1","06,0000,9,1",,,,,,"00,1,+99999,9,99,9",,,"00,99,1,00,1,00,1,99999,9,00,1,00,1",,"01,9",,,,"99999,9,10078,1","7,1,006,1,-012,1",,,"SYN082AAXX  07211 76458 32070 02602 10302 20224 30078 40082 57006 92050 333 30/// 59012;","Q01  00002PRCP06"
"76458099999","2003-06-08T00:00:00","4","23.2","-106.4166666","4.0","COLONIA JUAN CARRASCO MAZATLAN SIN., MX","FM-12","99999","V020","270,1,N,0020,1","22000,1,9,N","020000,1,N,1","+0292,1","+0214,1","10073,1","06,0000,9,1","24,0000,9,1",,,,,"00,1,+99999,9,99,9",,,"00,99,1,00,1,00,1,99999,9,00,1,00,1",,"01,9",,"120,M,+0315,1","180,N,+0227,1","99999,9,10068,1","5,1,010,1,-009,1",,,"SYN106AAXX  08001 76458 32970 02702 10292 20214 30068 40073 55010 92340 333 10315 20227 30/// 50621 59009 70000;","Q01  00002PRCP06Q02  00002PRCP24"
"76458099999","2003-06-08T03:00:00","4","23.2","-106.4166666","4.0","COLONIA JUAN CARRASCO MAZATLAN SIN., MX","FM-12","99999","V020","300,1,N,0010,1","22000,1,9,N","008000,1,N,1","+0272,1","+0225,1","10082,1","06,0000,9,1",,,,,,"00,1,+99999,9,99,9",,,"00,99,1,00,1,00,1,99999,9,00,1,00,1",,"01,9",,,,"99999,9,10077,1","2,1,009,1,-007,1",,,"SYN082AAXX  08031 76458 32958 03001 10272 20225 30077 40082 52009 90240 333 30/// 59007;","Q01  00002PRCP06"
"76458099999","2003-06-08T06:00:00","4","23.2","-106.4166666","4.0","COLONIA JUAN CARRASCO MAZATLAN SIN., MX","FM-12","99999","V020","340,1,N,0010,1","22000,1,9,N","008000,1,N,1","+0263,1","+0227,1","10088,1","06,0000,9,1",,,,,,,,,"01,99,1,01,1,04,1,00450,1,00,1,00,1","0714,9","01,9",,"240,M,+0315,1","240,N,+0227,1","99999,9,10083,1","0,1,006,1,-009,1",,,"SYN124AAXX  08060 76458 32458 13401 10263 20227 30083 40088 50006 81400 90547 333 10315 20227 30/// 55119 21478 566// 59009 81615;","Q01  00002PRCP06"
"76458099999","2003-06-08T09:00:00","4","23.2","-106.4166666","4.0","COLONIA JUAN CARRASCO MAZATLAN SIN., MX","FM-12","99999","V020","999,9,C,0000,1","22000,1,9,N","008000,1,N,1","+0253,1","+0225,1","10083,1","06,0000,9,1",,,,,,"01,1,+00360,9,06,9",,,"01,99,1,01,1,04,1,00250,1,00,1,00,1",,"01,9",,,,"99999,9,10079,1","6,1,004,1,-009,1",,,"SYN100AAXX  08091 76458 32358 10000 10253 20225 30079 40083 56004 81400 90847 333 30/// 566// 59009 81612;","Q01  00002PRCP06"
"76458099999","2003-06-08T15:00:00","4","23.2","-106.4166666","4.0","COLONIA JUAN CARRASCO MAZATLAN SIN., MX","FM-12","99999","V020","090,1,N,0010,1","22000,1,9,N","018000,1,N,1","+0274,1","+0227,1","10103,1","06,0000,9,1",,,,,,"03,1,+00570,9,08,9",,,"03,99,1,03,1,02,1,00450,1,00,1,00,1",,"01,9",,,,"99999,9,10099,1","2,1,018,1,+010,1",,,"SYN100AAXX  08151 76458 32468 30901 10274 20227 30099 40103 52018 83200 91451 333 0/900 30/// 58010 83819;","Q01  00002PRCP06"
"76458099999","2003-06-08T18:00:00","4","23.2","-106.4166666","4.0","COLONIA JUAN CARRASCO MAZATLAN SIN., MX","FM-12","99999","V020","210,1,N,0030,1","22000,1,9,N","018000,1,N,1","+0295,1","+0222,1","10109,1","06,0000,9,1",,,,,,"01,1,+00900,9,06,9",,,"01,99,1,01,1,03,1,00800,1,00,1,00,1",,"01,9",,"120,M,+0310,1","240,N,+0240,1","99999,9,10104,1","2,1,005,1,+021,1",,,"SYN112AAXX  08181 76458 32568 12103 10295 20222 30104 40109 52005 81300 91750 333 0/300 10310 20240 30/// 58021 81630;","Q01  00002PRCP06"
"76458099999","2003-06-08T21:00:00","4","23.2","-106.4166666","4.0","COLONIA JUAN CARRASCO MAZATLAN SIN., MX","FM-12","99999","V020","240,1,N,0020,1","22000,1,9,N","018000,1,N,1","+0285,1","+0217,1","10101,1","06,0000,9,1",,,,,,"00,1,+99999,9,99,9",,,"00,99,1,00,1,00,1,99999,9,00,1,00,1",,"01,9",,,,"99999,9,10096,1","5,1,008,1,+018,1",,,"SYN082AAXX  08211 76458 32068 02402 10285 20217 30096 40101 55008 92050 333 30/// 58018;","Q01  00002PRCP06"
"76458099999","2003-06-09T00:00:00","4","23.2","-106.4166666","4.0","COLONIA JUAN CARRASCO MAZATLAN SIN., MX","FM-12","99999","V020","270,1,N,0020,1","22000,1,9,N","020000,1,N,1","+0288,1","+0183,1","10088,1","06,0000,9,1","24,0000,9,1",,,,,"00,1,+99999,9,99,9",,,"00,99,1,00,1,00,1,99999,9,00,1,00,1",,"01,9",,"120,M,+0310,1","180,N,+0240,1","99999,9,10084,1","5,1,012,1,+016,1",,,"SYN106AAXX  09001 76458 32970 02702 10288 20183 30084 40088 55012 92340 333 10310 20240 30/// 50461 58016 70000;","Q01  00002PRCP06Q02  00002PRCP24"
"76458099999","2003-06-09T03:00:00","4","23.2","-106.4166666","4.0","COLONIA JUAN CARRASCO MAZATLAN SIN., MX","FM-12","99999","V020","260,1,N,0020,1","22000,1,9,N","008000,1,N,1","+0268,1","+0202,1","10099,1","06,0000,9,1",,,,,,"00,1,+99999,9,99,9",,,"00,99,1,00,1,00,1,99999,9,00,1,00,1",,"01,9",,,,"99999,9,10094,1","2,1,010,1,+017,1",,,"SYN082AAXX  09031 76458 32958 02602 10268 20202 30094 40099 52010 90240 333 30/// 58017;","Q01  00002PRCP06"
"76458099999","2003-06-09T06:00:00","4","23.2","-106.4166666","4.0","COLONIA JUAN CARRASCO MAZATLAN SIN., MX","FM-12","99999","V020","999,9,C,0000,1","22000,1,9,N","008000,1,N,1","+0262,1","+0202,1","10106,1","06,0000,9,1",,,,,,"00,1,+99999,9,99,9",,,"00,99,1,00,1,00,1,99999,9,00,1,00,1","0630,9","01,9",,"240,M,+0310,1","240,N,+0240,1","99999,9,10102,1","0,1,008,1,+999,9",,,"SYN106AAXX  09061 76458 32958 00000 10262 20202 30102 40106 50008 90548 333 10310 20240 30/// 55105 21385 58019;","Q01  00002PRCP06"
"76458099999","2003-06-09T12:00:00","4","23.2","-106.4166666","4.0","COLONIA JUAN CARRASCO MAZATLAN SIN., MX","FM-12","99999","V020","330,1,N,0020,1","22000,1,9,N","012000,1,N,1","+0245,1","+0200,1","10107,1","06,0000,9,1","24,0000,9,1",,,,,"01,1,+02700,9,03,9",,,"01,99,1,01,1,00,1,99999,9,03,1,00,1",,"01,9","999,+0210,9","999,M,+0318,1","120,N,+0237,1","99999,9,10102,1","0,1,003,1,+021,1",,,"SYN118AAXX  09121 76458 32962 13302 10245 20200 30102 40107 50003 81030 91200 333 0/090 10318 20237 30021 58021 70000 81359;","Q01  00002PRCP06"
"76458099999","2003-06-09T18:00:00","4","23.2","-106.4166666","4.0","COLONIA JUAN CARRASCO MAZATLAN SIN., MX","FM-12","99999","V020","260,1,N,0020,1","22000,1,9,N","015000,1,N,1","+0288,1","+0212,1","10119,1","06,0000,9,1",,,,,,"01,1,+02400,9,03,9",,,"01,99,1,99,9,00,1,00800,1,05,1,99,9",,"01,9",,"120,M,+0307,1","240,N,+0237,1","99999,9,10114,1","3,1,001,1,+010,1",,,"SYN106AAXX  09181 76458 32565 12602 10288 20212 30114 40119 53001 8/05/ 91750 333 10307 20237 30/// 58010 81358;","Q01  00002PRCP06"
"76458099999","2003-06-09T21:00:00","4","23.2","-106.4166666","4.0","COLONIA JUAN CARRASCO MAZATLAN SIN., MX","FM-12","99999","V020","250,1,N,0030,1","22000,1,9,N","014000,1,N,1","+0288,1","+0221,1","10113,1","06,0000,9,1",,,,,,"00,1,+99999,9,99,9",,,"00,99,1,00,1,00,1,99999,9,00,1,00,1",,"01,9",,,,"99999,9,10108,1","5,1,006,1,+012,1",,,"SYN082AAXX  09211 76458 32064 02503 10288 20221 30108 40113 55006 92050 333 30/// 58012;","Q01  00002PRCP06"
"76458099999","2003-06-10T00:00:00","4","23.2","-106.4166666","4.0","COLONIA JUAN CARRASCO MAZATLAN SIN., MX","FM-12","99999","V020","270,1,N,0020,1","22000,1,9,N","014000,1,N,1","+0284,1","+0223,1","10100,1","06,0000,9,1","24,0000,9,1",,,,,"01,1,+00750,9,08,9",,,"01,99,1,01,1,01,1,99999,9,99,9,99,9",,"01,9",,"120,M,+0310,1","180,N,+0237,1","99999,9,10095,1","7,1,013,1,+011,1",,,"SYN118AAXX  10001 76458 32964 12702 10284 20223 30095 40100 57013 811// 92340 333 10310 20237 30/// 50601 58011 70000 81825;","Q01  00002PRCP06"
"76458099999","2003-06-10T03:00:00","4","23.2","-106.4166666","4.0","COLONIA JUAN CARRASCO MAZATLAN SIN., MX","FM-12","99999","V020","320,1,N,0020,1","00540,1,9,N","008000,1,N,1","+0266,1","+0224,1","10115,1","06,0000,9,1",,,,,,"05,1,+00540,9,06,9",,,"05,99,1,05,1,05,1,00800,1,99,9,99,9",,"01,9",,,,"99999,9,10110,1","2,1,015,1,+015,1",,,"SYN094AAXX  10031 76458 32558 53202 10266 20224 30110 40115 52015 855// 90240 333 30/// 58015 85618;","Q01  00002PRCP06"
"76458099999","2003-06-10T15:00:00","4","23.2","-106.4166666","4.0","COLONIA JUAN CARRASCO MAZATLAN SIN., MX","FM-12","99999","V020","300,1,N,0020,1","02100,1,9,N","008000,1,N,1","+0266,1","+0233,1","10137,1","06,0000,9,1",,,,"4,1,03,1","4,1,03,1","06,1,+02100,9,03,9",,,"06,99,1,06,1,00,1,02250,1,05,1,00,1",,"01,9",,,,"99999,9,10132,1","2,1,007,1,+020,1","05,1",,"SYN106AAXX  10151 76458 31858 63002 10266 20233 30132 40137 52007 70544 86050 91450 333 0/200 30/// 58020 86357;","Q01  00002PRCP06"
"76458099999","2003-06-11T00:00:00","4","23.2","-106.4166666","4.0","COLONIA JUAN CARRASCO MAZATLAN SIN., MX","FM-12","99999","V020","260,1,N,0030,1","22000,1,9,N","008000,1,N,1","+0286,1","+0231,1","10095,1","06,0000,9,1",,,,,,"02,1,+00690,9,08,9",,,"02,99,1,02,1,01,1,00800,1,00,1,00,1",,"01,9",,"120,M,+0320,1","180,N,+0246,1","99999,9,10094,1","4,1,000,1,-001,1",,,"SYN118AAXX  11001 76458 32558 22603 10286 20231 30094 40095 54000 82100 92350 333 0/100 10320 20246 30/// 54181 59001 82823;","Q01  00002PRCP06"
"76458099999","2003-06-11T03:00:00","4","23.2","-106.4166666","4.0","COLONIA JUAN CARRASCO MAZATLAN SIN., MX","FM-12","99999","V020","270,1,N,0020,1","22000,1,9,N","008000,1,N,1","+0268,1","+0230,1","10112,1","06,0000,9,1",,,,,,"04,1,+00480,9,06,9",,,"04,99,1,04,1,05,1,00450,1,00,1,00,1",,"01,9",,,,"99999,9,10107,1","2,1,013,1,-003,1",,,"SYN100AAXX  11031 76458 32458 42702 10268 20230 30107 40112 52013 84500 90235 333 0/100 30/// 59003 84616;","Q01  00002PRCP06"
"76458099999","2003-06-11T06:00:00","4","23.2","-106.4166666","4.0","COLONIA JUAN CARRASCO MAZATLAN SIN., MX","FM-12","99999","V020","280,1,N,0010,1","00420,1,9,N","008000,1,N,1","+0267,1","+0228,1","10125,1","06,0000,9,1",,,,,,,,,"06,99,1,06,1,04,1,00450,1,00,1,00,1","0522,9","01,9",,"240,M,+0320,1","240,N,+0246,1","99999,9,10121,1","2,1,014,1,-003,1",,,"SYN124AAXX  11061 76458 32458 62801 10267 20228 30121 40125 52014 86400 90548 333 10320 20246 30/// 55087 21400 566// 59003 84616;","Q01  00002PRCP06"
"76458099999","2003-06-11T09:00:00","4","23.2","-106.4166666","4.0","COLONIA JUAN CARRASCO MAZATLAN SIN., MX","FM-12","99999","V020","260,1,N,0020,1","00450,1,9,N","008000,1,N,1","+0266,1","+0229,1","10123,1","06,0000,9,1",,,,,,"07,1,+00450,9,06,9",,,"07,99,1,07,1,04,1,00450,1,00,1,00,1",,"01,9",,,,"99999,9,10118,1","7,1,003,1,-007,1",,,"SYN100AAXX  11091 76458 32458 72602 10266 20229 30118 40123 57003 87400 90847 333 30/// 566// 59007 87615;","Q01  00002PRCP06"
"76458099999","2003-06-11T15:00:00","4","23.2","-106.4166666","4.0","COLONIA JUAN CARRASCO MAZATLAN SIN., MX","FM-12","99999","V020","270,1,N,0020,1","00510,1,9,N","012000,1,N,1","+0270,1","+0229,1","10132,1","06,0000,9,1",,,,,,"05,1,+00510,9,06,9",,,"05,99,1,05,1,05,1,00450,1,00,1,00,1",,"01,9",,,,"99999,9,10127,1","2,1,006,1,-004,1",,,"SYN100AAXX  11151 76458 32462 52702 10270 20229 30127 40132 52006 85500 91445 333 0/300 30/// 59004 85617;","Q01  00002PRCP06"
"76458099999","2003-06-11T18:00:00","4","23.2","-106.4166666","4.0","COLONIA JUAN CARRASCO MAZATLAN SIN., MX","FM-12","99999","V020","250,1,N,0020,1","22000,1,9,N","018000,1,N,1","+0300,1","+0227,1","10128,1","06,0000,9,1",,,,,,"01,1,+00900,9,08,9",,,"04,99,1,01,1,01,1,00800,1,00,1,01,1",,"01,9",,"120,M,+0310,1","240,N,+0252,1","99999,9,10123,1","7,1,004,1,-004,1",,,"SYN124AAXX  11181 76458 32568 42502 10300 20227 30123 40128 57004 81101 91755 333 01109 10310 20252 30/// 57816 59004 81830 83079;","Q01  00002PRCP06"
"76458099999","2003-06-11T21:00:00","4","23.2","-106.4166666","4.0","COLONIA JUAN CARRASCO MAZATLAN SIN., MX","FM-12","99999","V020","270,1,N,0020,1","22000,1,9,N","020000,1,N,1","+0303,1","+0231,1","10113,1","06,0000,9,1",,,,,,"01,1,+00900,9,09,9",,,"03,99,1,01,1,03,1,00800,1,05,1,00,1",,"01,9",,,,"99999,9,10109,1","7,1,015,1,+999,9",,,"SYN112AAXX  11211 76458 32570 32702 10303 20231 30109 40113 57015 81350 92055 333 04120 30/// 57927 58/// 81930 82358;","Q01  00002PRCP06"
"76458099999","2003-06-12T00:00:00","4","23.2","-106.4166666","4.0","COLONIA JUAN CARRASCO MAZATLAN SIN., MX","FM-12","99999","V020","250,1,N,0030,1","22000,1,9,N","020000,1,N,1","+0286,1","+0231,1","10093,1","06,0000,9,1","24,0000,9,1",,,,,"01,1,+00690,9,09,9",,,"01,99,1,01,1,09,1,00800,1,99,9,99,9",,"01,9",,"120,M,+0318,1","180,N,+0252,1","99999,9,10089,1","7,1,010,1,-005,1",,,"SYN118AAXX  12001 76458 32570 12503 10286 20231 30089 40093 57010 819// 92345 333 10318 20252 30/// 50421 59005 70000 81923;","Q01  00002PRCP06"
"76458099999","2003-06-12T03:00:00","4","23.2","-106.4166666","4.0","COLONIA JUAN CARRASCO MAZATLAN SIN., MX","FM-12","99999","V020","270,1,N,0020,1","22000,1,9,N","008000,1,N,1","+0268,1","+0235,1","10104,1","06,0000,9,1",,,,,,"02,1,+00420,9,06,9",,,"04,99,1,02,1,05,1,00450,1,03,1,99,9",,"01,9",,,,"99999,9,10099,1","2,1,010,1,-008,1",,,"SYN100AAXX  12031 76458 32458 42702 10268 20235 30099 40104 52010 8253/ 90240 333 30/// 59008 82614 82356;","Q01  00002PRCP06"
"76458099999","2003-06-12T06:00:00","4","23.2","-106.4166666","4.0","COLONIA JUAN CARRASCO MAZATLAN SIN., MX","FM-12","99999","V020","270,1,N,0010,1","00420,1,9,N","008000,1,N,1","+0269,1","+0235,1","10106,1","06,0000,9,1",,,,,,,,,"05,99,1,05,1,04,1,00450,1,00,1,00,1","0576,9","01,9",,"240,M,+0318,1","240,N,+0252,1","99999,9,10102,1","3,1,003,1,-019,1",,,"SYN124AAXX  12061 76458 32458 52701 10269 20235 30102 40106 53003 85400 90548 333 10318 20252 30/// 55096 21424 566// 59019 85614;","Q01  00002PRCP06"
"76458099999","2003-06-12T15:00:00","4","23.2","-106.4166666","4.0","COLONIA JUAN CARRASCO MAZATLAN SIN., MX","FM-12","99999","V020","999,9,C,0000,1","22000,1,9,N","015000,1,N,1","+0268,1","+0232,1","99999,9",,,,,,,,,,"03,99,1,99,9,99,9,00250,1,99,9,99,9",,,,,,,,,,"SYN096AAXX  12151 76458 21365 30000 10268 20232 0/090 30/// 30111 40116 52014 59016 83500 83615 91442;",
"76458099999","2003-06-12T21:00:00","4","23.2","-106.4166666","4.0","COLONIA JUAN CARRASCO MAZATLAN SIN., MX","FM-12","99999","V020","240,1,N,0020,1","22000,1,9,N","016000,1,N,1","+0294,1","+0232,1","10097,1","06,0000,9,1",,,,,,"01,1,+00780,9,09,9",,,"01,99,1,01,1,03,1,00800,1,00,1,00,1",,"01,9",,,,"99999,9,10092,1","7,1,014,1,-016,1",,,"SYN106AAXX  12211 76458 32566 12402 10294 20232 30092 40097 57014 81300 92055 333 04100 30/// 57916 59016 81926;","Q01  00002PRCP06"
"76458099999","2003-06-13T00:00:00","4","23.2","-106.4166666","4.0","COLONIA JUAN CARRASCO MAZATLAN SIN., MX","FM-12","99999","V020","250,1,N,0010,1","22000,1,9,N","020000,1,N,1","+0290,1","+0233,1","10087,1","06,0000,9,1","24,0000,9,1",,,,,,,,"01,99,1,01,1,09,1,01250,1,99,9,99,9",,"01,9",,"120,M,+0315,1","180,N,+0255,1","99999,9,10083,1","6,1,009,1,-006,1",,,"SYN124AAXX  13001 76458 32670 12501 10290 20233 30083 40087 56009 819// 82345 92345 333 10315 20255 30/// 50721 59006 70000 81924;","Q01  00002PRCP06"
"76458099999","2003-06-13T03:00:00","4","23.2","-106.4166666","4.0","COLONIA JUAN CARRASCO MAZATLAN SIN., MX","FM-12","99999","V020","260,1,N,0020,1","22000,1,9,N","008000,1,N,1","+0268,1","+0226,1","10094,1","06,0000,9,1",,,,,,"00,1,+99999,9,99,9",,,"00,99,1,00,1,00,1,99999,9,00,1,00,1",,"01,9",,,,"99999,9,10090,1","2,1,007,1,-009,1",,,"SYN082AAXX  13031 76458 32958 02602 10268 20226 30090 40094 52007 90240 333 30/// 59009;","Q01  00002PRCP06"
"76458099999","2003-06-13T09:00:00","4","23.2","-106.4166666","4.0","COLONIA JUAN CARRASCO MAZATLAN SIN., MX","FM-12","99999","V020","340,1,N,0020,1","00390,1,9,N","008000,1,N,1","+0265,1","+0233,1","10092,1","06,0000,9,1",,,,,,"06,1,+00390,9,06,9",,,"06,99,1,06,1,04,1,00450,1,00,1,00,1",,"01,9",,,,"99999,9,10087,1","7,1,010,1,-013,1",,,"SYN100AAXX  13091 76458 32458 63402 10265 20233 30087 40092 57010 86400 90845 333 30/// 566// 59013 86613;","Q01  00002PRCP06"
"76458099999","2003-06-13T15:00:00","4","23.2","-106.4166666","4.0","COLONIA JUAN CARRASCO MAZATLAN SIN., MX","FM-12","99999","V020","260,1,N,0020,1","22000,1,9,N","016000,1,N,1","+0274,1","+0230,1","10099,1","06,0000,9,1",,,,,,"02,1,+00570,9,06,9",,,"02,99,1,01,1,04,1,00450,1,00,1,00,1",,"01,9",,,,"99999,9,10092,1","8,1,006,1,-019,1",,,"SYN100AAXX  13151 76458 32466 22602 10274 20230 30092 40099 58006 81400 91450 333 0/6// 30/// 59019 82619;","Q01  00002PRCP06"
"76458099999","2003-06-13T18:00:00","4","23.2","-106.4166666","4.0","COLONIA JUAN CARRASCO MAZATLAN SIN., MX","FM-12","99999","V020","220,1,N,0020,1","22000,1,9,N","018000,1,N,1","+0304,1","+0233,1","10106,1","06,0000,9,1",,,,,,"02,1,+00900,9,08,9",,,"02,99,1,02,1,02,1,00800,1,00,1,00,1",,"01,9",,"120,M,+0320,1","240,N,+0257,1","99999,9,10102,1","2,1,010,1,-005,1",,,"SYN106AAXX  13181 76458 32568 22202 10304 20233 30102 40106 52010 82200 91746 333 10320 20257 30/// 59005 82830;","Q01  00002PRCP06"
"76458099999","2003-06-13T21:00:00","4","23.2","-106.4166666","4.0","COLONIA JUAN CARRASCO MAZATLAN SIN., MX","FM-12","99999","V020","250,1,N,0030,1","22000,1,9,N","018000,1,N,1","+0296,1","+0234,1","10092,1","06,0000,9,1",,,,,,"00,1,+99999,9,99,9",,,"00,99,1,00,1,00,1,99999,9,00,1,00,1",,"01,9",,,,"99999,9,10087,1","7,1,015,1,-005,1",,,"SYN082AAXX  13211 76458 32968 02503 10296 20234 30087 40092 57015 92056 333 30/// 59005;","Q01  00002PRCP06"
"76458099999","2003-06-14T00:00:00","4","23.2","-106.4166666","4.0","COLONIA JUAN CARRASCO MAZATLAN SIN., MX","FM-12","99999","V020","270,1,N,0020,1","22000,1,9,N","008000,1,N,1","+0294,1","+0228,1","10080,1","06,0000,9,1","24,0000,9,1",,,,,"00,1,+99999,9,99,9",,,"00,99,1,00,1,00,1,99999,9,00,1,00,1",,"01,9",,"120,M,+0320,1","180,N,+0257,1","99999,9,10076,1","5,1,011,1,-006,1",,,"SYN106AAXX  14001 76458 32958 02702 10294 20228 30076 40080 55011 92345 333 10320 20257 30/// 50631 59006 70000;","Q01  00002PRCP06Q02  00002PRCP24"
"76458099999","2003-06-14T03:00:00","4","23.2","-106.4166666","4.0","COLONIA JUAN CARRASCO MAZATLAN SIN., MX","FM-12","99999","V020","240,1,N,0020,1","22000,1,9,N","008000,1,N,1","+0276,1","+0235,1","10094,1","06,0000,9,1",,,,,,"01,1,+01800,9,03,9",,,"01,99,1,01,1,99,9,99999,9,03,1,99,9",,"01,9",,,,"99999,9,10090,1","2,1,014,1,+000,1",,,"SYN094AAXX  14031 76458 32958 12402 10276 20235 30090 40094 52014 81/3/ 90240 333 30/// 58000 81356;","Q01  00002PRCP06"
"76458099999","2003-06-14T15:00:00","4","23.2","-106.4166666","4.0","COLONIA JUAN CARRASCO MAZATLAN SIN., MX","FM-12","99999","V020","240,1,N,0020,1","22000,1,9,N","016000,1,N,1","+0286,1","+0243,1","10099,1","06,0000,9,1",,,,,,"03,1,+00540,9,06,9",,,"03,99,1,03,1,04,1,00450,1,00,1,00,1",,"01,9",,,,"99999,9,10094,1","8,1,002,1,+002,1",,,"SYN106AAXX  14151 76458 32466 32402 10286 20243 30094 40099 58002 83400 91450 333 0/7// 30/// 57671 58002 83618;","Q01  00002PRCP06"
"76458099999","2003-06-14T21:00:00","4","23.2","-106.4166666","4.0","COLONIA JUAN CARRASCO MAZATLAN SIN., MX","FM-12","99999","V020","240,1,N,0020,1","22000,1,9,N","020000,1,N,1","+0301,1","+0237,1","10096,1","06,0000,9,1",,,,,,"01,1,+00810,9,09,9",,,"01,99,1,01,1,03,1,00800,1,00,1,00,1",,"01,9",,,,"99999,9,10092,1","7,1,009,1,+004,1",,,"SYN106AAXX  14211 76458 32570 12402 10301 20237 30092 40096 57009 81300 92050 333 04100 30/// 57915 58004 81927;","Q01  00002PRCP06"
"76458099999","2003-06-15T03:00:00","4","23.2","-106.4166666","4.0","COLONIA JUAN CARRASCO MAZATLAN SIN., MX","FM-12","99999","V020","250,1,N,0020,1","99999,9,9,N","008000,1,N,1","+0280,1","+0237,1","10099,1","06,0000,9,1",,,,,,"01,1,+01800,9,03,9",,,"05,99,1,05,1,99,9,02250,1,03,1,99,9",,"01,9",,,,"99999,9,10095,1","2,1,016,1,+005,1",,,"SYN094AAXX  15031 76458 32858 52502 10280 20237 30095 40099 52016 85/3/ 90240 333 30/// 58005 81356;","Q01  00002PRCP06"
"76458099999","2003-06-15T18:00:00","4","23.2","-106.4166666","4.0","COLONIA JUAN CARRASCO MAZATLAN SIN., MX","FM-12","99999","V020","210,1,N,0020,1","22000,1,9,N","020000,1,N,1","+9999,9","+9999,9","99999,9","06,0000,9,1",,,,,,,,,"01,99,1,99,9,99,9,00800,1,99,9,99,9",,"01,9",,"120,M,+0319,1","240,N,+0255,1",,"9,9,999,9,+019,1",,,"SYN117AAXX  15181 76458 32570 12102 1002 20229 30119 40124 5//// 81200 91800 333 04100 10319 20255 30/// 57813 58019 81830;","Q01  00002PRCP06"
"76458099999","2003-06-15T21:00:00","4","23.2","-106.4166666","4.0","COLONIA JUAN CARRASCO MAZATLAN SIN., MX","FM-12","99999","V020","240,1,N,0020,1","22000,1,9,N","020000,1,N,1","+0304,1","+0234,1","10116,1","06,0000,9,1",,,,,,"01,1,+00870,9,08,9",,,"01,99,1,01,1,02,1,00800,1,00,1,00,1",,"01,9",,,,"99999,9,10112,1","5,1,007,1,+020,1",,,"SYN106AAXX  15211 76458 32570 12402 10304 20234 30112 40116 55007 81200 92050 333 0/1// 30/// 57811 58020 81829;","Q01  00002PRCP06"
"76458099999","2003-06-16T00:00:00","4","23.2","-106.4166666","4.0","COLONIA JUAN CARRASCO MAZATLAN SIN., MX","FM-12","99999","V020","280,1,N,0050,1","22000,1,9,N","020000,1,N,1","+0298,1","+0227,1","10078,1","06,0000,9,1","24,0000,9,1",,,,,"01,1,+01800,9,03,9",,,"02,99,1,01,1,99,9,02250,1,03,1,99,9",,"01,9",,"120,M,+0325,1","180,N,+0255,1","99999,9,10074,1","7,1,038,1,-005,1",,,"SYN118AAXX  16001 76458 32870 22805 10298 20227 30074 40078 57038 81/3/ 92340 333 10325 20255 30/// 50671 59005 70000 81356;","Q01  00002PRCP06"
"76458099999","2003-06-16T03:00:00","4","23.2","-106.4166666","4.0","COLONIA JUAN CARRASCO MAZATLAN SIN., MX","FM-12","99999","V020","270,1,N,0030,1","22000,1,9,N","008000,1,N,1","+0284,1","+0238,1","10093,1","06,0000,9,1",,,,,,"01,1,+01800,9,03,9",,,"01,99,1,01,1,99,9,02250,1,03,1,99,9",,"01,9",,,,"99999,9,10088,1","2,1,014,1,-007,1",,,"SYN094AAXX  16031 76458 32858 12703 10284 20238 30088 40093 52014 81/3/ 90240 333 30/// 59007 81356;","Q01  00002PRCP06"
"76458099999","2003-06-16T12:00:00","4","23.2","-106.4166666","4.0","COLONIA JUAN CARRASCO MAZATLAN SIN., MX","FM-12","99999","V020","150,1,N,0020,1","22000,1,9,N","008000,1,N,1","+0270,1","+0240,1","10105,1","06,0000,9,1","24,0000,9,1",,,,,"04,1,+00360,9,06,9",,,"04,99,1,04,1,05,1,00450,1,00,1,00,1",,"01,9","999,+0350,9","999,M,+0325,1","120,N,+0260,1","99999,9,10101,1","3,1,004,1,+999,9",,,"SYN118AAXX  16121 76458 32458 41502 10270 20240 30101 40105 53004 84500 91245 333 0/500 10325 20260 30035 58/// 70000 84612;","Q01  00002PRCP06"
"76458099999","2003-06-16T15:00:00","4","23.2","-106.4166666","4.0","COLONIA JUAN CARRASCO MAZATLAN SIN., MX","FM-12","99999","V020","270,1,N,0020,1","22000,1,9,N","013000,1,N,1","+0284,1","+0241,1","10104,1","06,0000,9,1",,,,,,"01,1,+00540,9,08,9",,,"01,99,1,01,1,01,1,00450,1,00,1,00,1",,"01,9",,,,"99999,9,10100,1","4,1,000,1,+999,9",,,"SYN100AAXX  16151 76458 32463 12702 10284 20241 30100 40104 54000 81100 91455 333 00400 30/// 58/// 81818;","Q01  00002PRCP06"
"76458099999","2003-06-16T18:00:00","4","23.2","-106.4166666","4.0","COLONIA JUAN CARRASCO MAZATLAN SIN., MX","FM-12","99999","V020","270,1,N,0030,1","22000,1,9,N","015000,1,N,1","+0300,1","+0243,1","10102,1","06,0000,9,1",,,,,,"01,1,+00720,9,09,9",,,"01,99,1,01,1,03,1,00800,1,00,1,00,1",,"01,9",,"120,M,+0320,1","240,N,+0260,1","99999,9,10098,1","3,1,002,1,-021,1",,,"SYN118AAXX  16181 76458 32565 12703 10300 20243 30098 40102 53002 81300 91750 333 04100 10320 20260 30/// 57914 59021 81924;","Q01  00002PRCP06"
"76458099999","2003-06-16T21:00:00","4","23.2","-106.4166666","4.0","COLONIA JUAN CARRASCO MAZATLAN SIN., MX","FM-12","99999","V020","270,1,N,0020,1","22000,1,9,N","020000,1,N,1","+0315,1","+0231,1","10091,1","06,0000,9,1",,,,,,"01,1,+01050,9,09,9",,,"02,99,1,01,1,09,1,01250,1,03,1,00,1",,"01,9",,,,"99999,9,10087,1","7,1,011,1,-025,1",,,"SYN112AAXX  16211 76458 32670 22702 10315 20231 30087 40091 57011 81930 92100 333 07110 30/// 57912 59025 81935 81359;","Q01  00002PRCP06"
"76458099999","2003-06-17T03:00:00","4","23.2","-106.4166666","4.0","COLONIA JUAN CARRASCO MAZATLAN SIN., MX","FM-12","99999","V020","270,1,N,0020,1","22000,1,9,N","008000,1,N,1","+0282,1","+0236,1","10085,1","06,0000,9,1",,,,,,"01,1,+01800,9,03,9",,,"01,99,1,01,1,99,9,02250,1,03,1,99,9",,"01,9",,,,"99999,9,10081,1","2,1,008,1,-007,1",,,"SYN094AAXX  17031 76458 32858 12702 10282 20236 30081 40085 52008 81/3/ 90240 333 30/// 59007 81356;","Q01  00002PRCP06"
"76458099999","2003-06-17T09:00:00","4","23.2","-106.4166666","4.0","COLONIA JUAN CARRASCO MAZATLAN SIN., MX","FM-12","99999","V020","160,1,N,0010,1","22000,1,9,N","008000,1,N,1","+0268,1","+0239,1","10089,1","06,0000,9,1",,,,,,"00,1,+99999,9,99,9",,,"00,99,1,00,1,00,1,99999,9,00,1,00,1",,"01,9",,,,"99999,9,10085,1","7,1,014,1,-019,1",,,"SYN082AAXX  17091 76458 32958 01601 10268 20239 30085 40089 57014 90835 333 30/// 59019;","Q01  00002PRCP06"
"76458099999","2003-06-17T18:00:00","4","23.2","-106.4166666","4.0","COLONIA JUAN CARRASCO MAZATLAN SIN., MX","FM-12","99999","V020","180,1,N,0020,1","22000,1,9,N","015000,1,N,1","+0304,1","+0222,1","10099,1","06,0000,9,1",,,,,,"00,1,+99999,9,99,9",,,"00,99,1,00,1,00,1,99999,9,00,1,00,1",,"01,9",,"120,M,+0318,1","240,N,+0250,1","99999,9,10094,1",,,,"SYN093AAXX  17181 76458 32965 01802 10304 20222 30094 4009 54000 91750 333 10318 20250 30/// 59004;","Q01+999990APOSLPQ02  00002PRCP06"
"76458099999","2003-06-18T00:00:00","4","23.2","-106.4166666","4.0","COLONIA JUAN CARRASCO MAZATLAN SIN., MX","FM-12","99999","V020","260,1,N,0020,1","22000,1,9,N","018000,1,N,1","+0294,1","+0229,1","10061,1","06,0000,9,1",,,,,,"01,1,+02400,9,03,9",,,"01,99,1,01,1,00,1,99999,9,03,1,00,1",,"01,9",,"120,M,+0326,1","180,N,+0250,1","99999,9,10056,1","7,1,007,1,-017,1",,,"SYN118AAXX  18001 76458 32968 12602 10294 20229 30056 40061 57007 81030 92350 333 0/090 10326 20250 30/// 54561 59017 81358;","Q01  00002PRCP06"
"76458099999","2003-06-18T03:00:00","4","23.2","-106.4166666","4.0","COLONIA JUAN CARRASCO MAZATLAN SIN., MX","FM-12","99999","V020","280,1,N,0010,1","22000,1,9,N","008000,1,N,1","+0276,1","+0215,1","10070,1","06,0000,9,1",,,,,,"04,1,+02400,9,03,9",,,"04,99,1,04,1,00,1,99999,9,05,1,00,1",,"01,9",,,,"99999,9,10066,1","2,1,010,1,-015,1",,,"SYN100AAXX  18031 76458 32958 42801 10276 20215 30066 40070 52010 84050 90235 333 0/090 30/// 59015 84358;","Q01  00002PRCP06"
"76458099999","2003-06-18T06:00:00","4","23.2","-106.4166666","4.0","COLONIA JUAN CARRASCO MAZATLAN SIN., MX","FM-12","99999","V020","170,1,N,0020,1","03600,1,9,N","008000,1,N,1","+0274,1","+0259,1","10090,1","06,0000,9,1",,,,,,"01,1,+00570,9,08,9",,,"05,99,1,01,1,01,1,00450,1,03,1,00,1","0672,9","01,9",,"240,M,+0326,1","240,N,+0250,1","99999,9,10086,1","2,1,020,1,-013,1",,,"SYN130AAXX  18061 76458 32458 51702 10274 20259 30086 40090 52020 81130 90248 333 10326 20250 30/// 55112 21346 5669/ 59013 81819 84364;","Q01  00002PRCP06"
"76458099999","2003-06-18T09:00:00","4","23.2","-106.4166666","4.0","COLONIA JUAN CARRASCO MAZATLAN SIN., MX","FM-12","99999","V020","120,1,N,0020,1","00480,1,9,N","008000,1,N,1","+0268,1","+0229,1","10088,1","06,0000,9,1",,,,,,"06,1,+00480,9,06,9",,,"06,99,1,06,1,04,1,00450,1,00,1,00,1",,"01,9",,,,"99999,9,10084,1","7,1,002,1,-001,1",,,"SYN100AAXX  18091 76458 32458 61202 10268 20229 30084 40088 57002 86400 90848 333 30/// 566// 59001 86616;","Q01  00002PRCP06"
"76458099999","2003-06-18T15:00:00","4","23.2","-106.4166666","4.0","COLONIA JUAN CARRASCO MAZATLAN SIN., MX","FM-12","99999","V020","100,1,N,0020,1","22000,1,9,N","013000,1,N,1","+0283,1","+0217,1","10089,1","06,0000,9,1",,,,,,"02,1,+02400,9,03,9",,,"02,99,1,02,1,00,1,99999,9,06,1,00,1",,"01,9",,,,"99999,9,10084,1","1,1,001,1,-011,1",,,"SYN100AAXX  18151 76458 32963 21002 10283 20217 30084 40089 51001 82060 91450 333 0/0/0 30/// 59011 82358;","Q01  00002PRCP06"
"76458099999","2003-06-18T18:00:00","4","23.2","-106.4166666","4.0","COLONIA JUAN CARRASCO MAZATLAN SIN., MX","FM-12","99999","V020","150,1,N,0020,1","22000,1,9,N","018000,1,N,1","+0302,1","+0229,1","10087,1","06,0000,9,1",,,,,,"00,1,+99999,9,99,9",,,"00,99,1,00,1,00,1,99999,9,00,1,00,1",,"01,9",,"120,M,+0320,1","240,N,+0249,1","99999,9,10082,1","7,1,002,1,-012,1",,,"SYN094AAXX  18181 76458 32968 01502 10302 20229 30082 40087 57002 91745 333 10320 20249 30/// 59012;","Q01  00002PRCP06"
"76458099999","2003-06-18T21:00:00","4","23.2","-106.4166666","4.0","COLONIA JUAN CARRASCO MAZATLAN SIN., MX","FM-12","99999","V020","210,1,N,0020,1","22000,1,9,N","018000,1,N,1","+0300,1","+0236,1","10069,1","06,0000,9,1",,,,,,"01,1,+00810,9,08,9",,,"01,99,1,01,1,02,1,00800,1,00,1,00,1",,"01,9",,,,"99999,9,10064,1","7,1,018,1,-004,1",,,"SYN100AAXX  18211 76458 32568 12102 10300 20236 30064 40069 57018 81200 92050 333 0/100 30/// 59004 81827;","Q01  00002PRCP06"
"76458099999","2003-06-19T00:00:00","4","23.2","-106.4166666","4.0","COLONIA JUAN CARRASCO MAZATLAN SIN., MX","FM-12","99999","V020","210,1,N,0020,1","22000,1,9,N","018000,1,N,1","+0288,1","+0227,1","10065,1","06,0000,9,1","24,0000,9,1",,,,,"01,1,+00780,9,08,9",,,"01,99,1,01,1,02,1,00800,1,99,9,99,9",,"01,9",,"120,M,+0326,1","180,N,+0249,1","99999,9,10061,1","5,1,003,1,+005,1",,,"SYN118AAXX  19001 76458 32568 12102 10288 20227 30061 40065 55003 812// 92345 333 10326 20249 30/// 50511 58005 70000 81826;","Q01  00002PRCP06"
"76458099999","2003-06-19T03:00:00","4","23.2","-106.4166666","4.0","COLONIA JUAN CARRASCO MAZATLAN SIN., MX","FM-12","99999","V020","200,1,N,0030,1","22000,1,9,N","008000,1,N,1","+0272,1","+0198,1","10079,1","06,0000,9,1",,,,,,"01,1,+01800,9,03,9",,,"01,99,1,01,1,99,9,02250,1,03,1,99,9",,"01,9",,,,"99999,9,10074,1","2,1,013,1,+008,1",,,"SYN094AAXX  19031 76458 32858 12003 10272 20198 30074 40079 52013 81/3/ 90240 333 30/// 58008 81356;","Q01  00002PRCP06"
"76458099999","2003-06-19T06:00:00","4","23.2","-106.4166666","4.0","COLONIA JUAN CARRASCO MAZATLAN SIN., MX","FM-12","99999","V020","150,1,N,0020,1","22000,1,9,N","008000,1,N,1","+0265,1","+0221,1","10091,1","06,0000,9,1",,,,,,"00,1,+99999,9,99,9",,,"00,99,1,00,1,00,1,99999,9,00,1,00,1","0690,9","01,9",,"240,M,+0326,1","240,N,+0249,1","99999,9,10087,1","2,1,013,1,+999,9",,,"SYN106AAXX  19061 76458 32958 01502 10265 20221 30087 40091 52013 90545 333 10326 20249 30/// 55115 21493 58001;","Q01  00002PRCP06"
"76458099999","2003-06-19T12:00:00","4","23.2","-106.4166666","4.0","COLONIA JUAN CARRASCO MAZATLAN SIN., MX","FM-12","99999","V020","100,1,N,0020,1","22000,1,9,N","008000,1,N,1","+0257,1","+0216,1","10082,1","06,0000,9,1","24,0000,9,1",,,,,"01,1,+00510,9,06,9",,,"01,99,1,01,1,05,1,00450,1,00,1,00,1",,"01,9","999,+0230,9","999,M,+0326,1","120,N,+0244,1","99999,9,10082,1","1,1,003,1,+999,9",,,"SYN112AAXX  19121 76458 32458 11002 10257 20216 30082 40082 51003 81500 91240 333 0/600 10326 20244 30023 70000 81617;","Q01  00002PRCP06"
"76458099999","2003-06-19T15:00:00","4","23.2","-106.4166666","4.0","COLONIA JUAN CARRASCO MAZATLAN SIN., MX","FM-12","99999","V020","120,1,N,0020,1","22000,1,9,N","013000,1,N,1","+0284,1","+0221,1","10092,1","06,0000,9,1",,,,,,"01,1,+00780,9,08,9",,,"01,99,1,01,1,02,1,00800,1,00,1,00,1",,"01,9",,,,"99999,9,10087,1","1,1,005,1,+003,1",,,"SYN106AAXX  19151 76458 32563 11202 10284 20221 30087 40092 51005 81200 91450 333 01400 30/// 57868 58003 81826;","Q01  00002PRCP06"
"76458099999","2003-06-19T21:00:00","4","23.2","-106.4166666","4.0","COLONIA JUAN CARRASCO MAZATLAN SIN., MX","FM-12","99999","V020","240,1,N,0020,1","22000,1,9,N","018000,1,N,1","+0298,1","+0227,1","10078,1","06,0000,9,1",,,,,,"00,1,+99999,9,99,9",,,"00,99,1,00,1,00,1,99999,9,00,1,00,1",,"01,9",,,,"99999,9,10074,1","7,1,013,1,+012,1",,,"SYN082AAXX  19211 76458 32968 02402 10298 20227 30074 40078 57013 92055 333 30/// 58012;","Q01  00002PRCP06"
"76458099999","2003-06-20T00:00:00","4","23.2","-106.4166666","4.0","COLONIA JUAN CARRASCO MAZATLAN SIN., MX","FM-12","99999","V020","240,1,N,0010,1","22000,1,9,N","018000,1,N,1","+0286,1","+0216,1","10075,1","06,0000,9,1","24,0000,9,1",,,,,"01,1,+00870,9,09,9",,,"01,99,1,01,1,09,1,00800,1,99,9,99,9",,"01,9",,"120,M,+0327,1","180,N,+0244,1","99999,9,10070,1","6,1,004,1,+009,1",,,"SYN118AAXX  20001 76458 32568 12401 10286 20216 30070 40075 56004 819// 92340 333 10327 20244 30/// 50741 58009 70000 81929;","Q01  00002PRCP06"
"76458099999","2003-06-20T03:00:00","4","23.2","-106.4166666","4.0","COLONIA JUAN CARRASCO MAZATLAN SIN., MX","FM-12","99999","V020","160,1,N,0020,1","22000,1,9,N","008000,1,N,1","+0266,1","+0215,1","10089,1","06,0000,9,1",,,,,,"00,1,+99999,9,99,9",,,"00,99,1,00,1,00,1,99999,9,00,1,00,1",,"01,9",,,,"99999,9,10085,1","2,1,015,1,+011,1",,,"SYN082AAXX  20031 76458 32958 01602 10266 20215 30085 40089 52015 90240 333 30/// 58011;","Q01  00002PRCP06"
"76458099999","2003-06-20T06:00:00","4","23.2","-106.4166666","4.0","COLONIA JUAN CARRASCO MAZATLAN SIN., MX","FM-12","99999","V020","170,1,N,0020,1","22000,1,9,N","008000,1,N,1","+0266,1","+0218,1","10096,1","06,0000,9,1",,,,,,"00,1,+99999,9,99,9",,,"00,99,1,00,1,00,1,99999,9,00,1,00,1","0696,9","01,9",,"240,M,+0327,1","240,N,+0244,1","99999,9,10091,1","2,1,006,1,+999,9",,,"SYN106AAXX  20061 76458 32958 01702 10266 20218 30091 40096 52006 90545 333 10327 20244 30/// 55116 21462 58004;","Q01  00002PRCP06"
"76458099999","2003-06-20T09:00:00","4","23.2","-106.4166666","4.0","COLONIA JUAN CARRASCO MAZATLAN SIN., MX","FM-12","99999","V020","120,1,N,0020,1","22000,1,9,N","008000,1,N,1","+0263,1","+0221,1","10096,1","06,0000,9,1",,,,,,"01,1,+00510,9,06,9",,,"01,99,1,01,1,04,1,00450,1,00,1,00,1",,"01,9",,,,"99999,9,10092,1","0,1,001,1,+013,1",,,"SYN100AAXX  20091 76458 32458 11202 10263 20221 30092 40096 50001 81400 90847 333 30/// 566// 58013 81617;","Q01  00002PRCP06"
"76458099999","2003-06-20T15:00:00","4","23.2","-106.4166666","4.0","COLONIA JUAN CARRASCO MAZATLAN SIN., MX","FM-12","99999","V020","090,1,N,0010,1","22000,1,9,N","012000,1,N,1","+0284,1","+0223,1","10103,1","06,0000,9,1",,,,,,"00,1,+99999,9,99,9",,,"00,99,1,00,1,00,1,99999,9,00,1,00,1",,"01,9",,,,"99999,9,10099,1","2,1,008,1,+012,1",,,"SYN082AAXX  20151 76458 32962 00901 10284 20223 30099 40103 52008 91447 333 30/// 58012;","Q01  00002PRCP06"
"76458099999","2003-06-20T18:00:00","4","23.2","-106.4166666","4.0","COLONIA JUAN CARRASCO MAZATLAN SIN., MX","FM-12","99999","V020","200,1,N,0030,1","22000,1,9,N","015000,1,N,1","+0301,1","+0243,1","10099,1","06,0000,9,1",,,,,,"00,1,+99999,9,99,9",,,"00,99,1,00,1,00,1,99999,9,00,1,00,1",,"01,9",,"120,M,+0311,1","240,N,+0242,1","99999,9,10094,1","8,1,008,1,+033,1",,,"SYN094AAXX  20181 76458 32565 02003 10301 20243 30094 40099 58008 91745 333 10311 20242 30/// 58033;","Q01  00002PRCP06"
"76458099999","2003-06-20T21:00:00","4","23.2","-106.4166666","4.0","COLONIA JUAN CARRASCO MAZATLAN SIN., MX","FM-12","99999","V020","200,1,N,0030,1","22000,1,9,N","015000,1,N,1","+0314,1","+0246,1","10087,1","06,0000,9,1",,,,,,"00,1,+99999,9,99,9",,,"00,99,1,00,1,00,1,99999,9,00,1,00,1",,"01,9",,,,"99999,9,10082,1","9,9,999,9,+001,1",,,"SYN082AAXX  20211 76458 32565 02003 10314 20246 30082 40087 5//// 92050 333 30/// 58001;","Q01  00002PRCP06"
"76458099999","2003-06-21T00:00:00","4","23.2","-106.4166666","4.0","COLONIA JUAN CARRASCO MAZATLAN SIN., MX","FM-12","99999","V020","260,1,N,0020,1","22000,1,9,N","015000,1,N,1","+0202,2","+9999,9","10076,1","06,0000,9,1","24,0000,9,1",,,,,"01,1,+00930,9,09,9",,,"01,99,1,01,1,09,1,00800,1,99,9,99,9",,"01,9",,"120,M,+0328,1","180,N,+9999,9","99999,9,10071,1","9,9,999,9,+001,1",,,"SYN118AAXX  21001 76458 32565 12602 10202 20217 30071 40076 5//// 819// 92345 333 10328 20242 30/// 50541 58001 70000 81931;","Q01  00002PRCP06Q02 +02422ATMN  "
"76458099999","2003-06-21T03:00:00","4","23.2","-106.4166666","4.0","COLONIA JUAN CARRASCO MAZATLAN SIN., MX","FM-12","99999","V020","280,1,N,0030,1","22000,1,9,N","008000,1,N,1","+0272,1","+0217,1","10089,1","06,0000,9,1",,,,"0,1,03,1","0,1,03,1","01,1,+00690,9,09,9",,,"01,99,1,01,1,09,1,00800,1,99,9,99,9",,"01,9",,,,"99999,9,10085,1","1,1,014,1,+000,1","13,1",,"SYN100AAXX  21031 76458 31558 12803 10272 20217 30085 40089 51014 71300 819// 90240 333 30/// 58000 81923;","Q01  00002PRCP06"
"76458099999","2003-06-21T06:00:00","4","23.2","-106.4166666","4.0","COLONIA JUAN CARRASCO MAZATLAN SIN., MX","FM-12","99999","V020","150,1,N,0010,1","22000,1,9,N","008000,1,N,1","+0271,1","+0207,1","10102,1","06,0000,9,1",,,,,,"00,1,+99999,9,99,9",,,"00,99,1,00,1,00,1,99999,9,00,1,00,1","0702,9","01,9",,"240,M,+0328,1","240,N,+0242,1","99999,9,10098,1","1,1,013,1,+999,9",,,"SYN106AAXX  21061 76458 32958 01501 10271 20207 30098 40102 51013 90547 333 10328 20242 30/// 55117 21416 58007;","Q01  00002PRCP06"
"76458099999","2003-06-21T18:00:00","4","23.2","-106.4166666","4.0","COLONIA JUAN CARRASCO MAZATLAN SIN., MX","FM-12","99999","V020","180,1,N,0020,1","22000,1,9,N","018000,1,N,1","+0313,1","+0210,1","10107,1","06,0000,9,1",,,,,,"01,1,+02400,9,03,9",,,"02,99,1,01,1,00,1,99999,9,03,1,05,1",,"01,9",,"120,M,+0329,1","240,N,+0250,1","99999,9,10103,1","1,1,001,1,+012,1",,,"SYN118AAXX  21181 76458 32968 21802 10313 20210 30103 40107 51001 81035 91750 333 0/0// 10329 20250 30/// 58012 81358 81070;","Q01  00002PRCP06"
"76458099999","2003-06-21T21:00:00","4","23.2","-106.4166666","4.0","COLONIA JUAN CARRASCO MAZATLAN SIN., MX","FM-12","99999","V020","240,1,N,0020,1","22000,1,9,N","020000,1,N,1","+0294,1","+0219,1","10098,1","06,0000,9,1",,,,,,"01,1,+00930,9,02,9",,,"02,99,1,01,1,02,1,00800,1,99,9,01,1",,"01,9",,,,"99999,9,10094,1","7,1,009,1,+012,1",,,"SYN100AAXX  21211 76458 32570 22402 10294 20219 30094 40098 57009 812/1 92050 333 30/// 58012 81231 81356;","Q01  00002PRCP06"
"76458099999","2003-06-22T00:00:00","4","23.2","-106.4166666","4.0","COLONIA JUAN CARRASCO MAZATLAN SIN., MX","FM-12","99999","V020","240,1,N,0020,1","22000,1,9,N","020000,1,N,1","+0286,1","+0170,1","10088,1","06,0000,9,1","24,0000,9,1",,,,,"01,1,+01440,9,09,9",,,"01,99,1,01,1,09,1,01250,1,99,9,99,9",,"01,9",,"120,M,+0330,1","180,N,+0250,1","99999,9,10083,1","7,1,011,1,+012,1",,,"SYN118AAXX  22001 76458 32670 12402 10286 20170 30083 40088 57011 819// 92340 333 10330 20250 30/// 50571 58012 70000 81948;","Q01  00002PRCP06"
"76458099999","2003-06-22T03:00:00","4","23.2","-106.4166666","4.0","COLONIA JUAN CARRASCO MAZATLAN SIN., MX","FM-12","99999","V020","999,9,C,0000,1","22000,1,9,N","012000,1,N,1","+0274,1","+0215,1","10092,1","06,0000,9,1",,,,,,"01,1,+00870,9,08,9",,,"03,99,1,01,1,02,1,00800,1,00,1,01,1",,"01,9",,,,"99999,9,10089,1","9,9,999,9,+007,1",,,"SYN106AAXX  22031 76458 32562 30000 10274 20215 30089 40092 5//// 81201 90250 333 30/// 560/0 58007 81829 82270;","Q01  00002PRCP06"
"76458099999","2003-06-22T09:00:00","4","23.2","-106.4166666","4.0","COLONIA JUAN CARRASCO MAZATLAN SIN., MX","FM-12","99999","V020","140,1,N,0010,1","04200,1,9,N","010000,1,N,1","+0266,1","+0202,1","10100,1","06,0000,9,1",,,,"9,1,03,1","0,1,03,1","06,1,+04200,9,03,9",,,"06,99,1,06,1,00,1,02250,1,03,1,00,1",,"01,9",,,,"99999,9,10096,1","8,1,003,1,+003,1","02,1",,"SYN106AAXX  22091 76458 31860 61401 10266 20202 30096 40100 58003 70290 86030 90848 333 30/// 56/9/ 58003 86364;","Q01  00002PRCP06"
"76458099999","2003-06-23T00:00:00","4","23.2","-106.4166666","4.0","COLONIA JUAN CARRASCO MAZATLAN SIN., MX","FM-12","99999","V020","210,1,N,0040,1","22000,1,9,N","008000,1,N,1","+0280,1","+0222,1","10070,1","06,0000,9,1","24,0000,9,1",,,,,"01,1,+00720,9,08,9",,,"02,99,1,01,1,02,1,99999,9,99,9,01,1",,"01,9",,"120,M,+0330,1","180,N,+0250,1","99999,9,10066,1","7,1,009,1,-017,1",,,"SYN124AAXX  23001 76458 32958 22104 10280 20222 30066 40070 57009 812/1 92340 333 10330 20250 30/// 50551 59017 70000 81824 81070;","Q01  00002PRCP06"
"76458099999","2003-06-23T03:00:00","4","23.2","-106.4166666","4.0","COLONIA JUAN CARRASCO MAZATLAN SIN., MX","FM-12","99999","V020","210,1,N,0020,1","05400,1,9,N","010000,1,N,1","+0272,1","+0194,1","10075,1","06,0000,9,1",,,,,,"07,1,+05400,9,02,9",,,"07,99,1,00,1,00,1,99999,9,00,1,08,1",,"01,9",,,,"99999,9,10070,1","2,1,004,1,+999,9",,,"SYN100AAXX  23031 76458 32960 72102 10272 20194 30070 40075 52004 80008 90245 333 30/// 56//9 58/// 87268;","Q01  00002PRCP06"
"76458099999","2003-06-23T06:00:00","4","23.2","-106.4166666","4.0","COLONIA JUAN CARRASCO MAZATLAN SIN., MX","FM-12","99999","V020","140,1,N,0020,1","22000,1,9,N","010000,1,N,1","+0269,1","+0201,1","10087,1","06,0000,9,1",,,,,,,,,"03,99,1,00,1,00,1,99999,9,00,1,06,1","0498,9","01,9",,"240,M,+0330,1","240,N,+0250,1","99999,9,10082,1","2,1,012,1,-017,1",,,"SYN124AAXX  23061 76458 32960 31402 10269 20201 30082 40087 52012 80006 90540 333 10330 20250 30/// 55083 21284 56//9 59017 82070;","Q01  00002PRCP06"
"76458099999","2003-06-23T15:00:00","4","23.2","-106.4166666","4.0","COLONIA JUAN CARRASCO MAZATLAN SIN., MX","FM-12","99999","V020","120,1,N,0020,1","99999,9,9,N","013000,1,N,1","+0274,1","+0211,1","99999,9","06,0000,9,1",,,,,,,,,"07,99,1,99,9,99,9,00800,1,99,9,99,9",,"01,9",,,,,"9,9,999,9,-006,1",,,"SYN101AAXX  23151 76458 32563 71202 10274 202115 30082 40086 51009 875// 91450 333 0/300 30/// 59006 87424;","Q01  00002PRCP06"
"76458099999","2003-06-23T18:00:00","4","23.2","-106.4166666","4.0","COLONIA JUAN CARRASCO MAZATLAN SIN., MX","FM-12","99999","V020","180,1,N,0020,1","03600,1,C,N","015000,1,N,1","+0302,1","+0226,1","10082,1","06,0000,9,1",,,,,,"02,1,+00930,9,08,9","02,1,+02400,9,03,9",,"05,99,1,02,1,01,1,00800,1,03,1,05,1",,"01,9",,"120,M,+0320,1","240,N,+0253,1","99999,9,10078,1","6,1,004,1,+009,1",,,"SYN124AAXX  23181 76458 32565 51802 10302 20226 30078 40082 56004 82135 91758 333 0/3// 10320 20253 30/// 58009 82831 82358 81070;","Q01  00002PRCP06"
"76458099999","2003-06-24T00:00:00","4","23.2","-106.4166666","4.0","COLONIA JUAN CARRASCO MAZATLAN SIN., MX","FM-12","99999","V020","210,1,N,0030,1","22000,1,9,N","015000,1,N,1","+0284,1","+0229,1","10073,1","06,0000,9,1","24,0000,9,1",,,,,"02,1,+00690,9,08,9",,,"04,99,1,02,1,01,1,01250,1,03,1,99,9",,"01,9",,"120,M,+0320,1","180,N,+0253,1","99999,9,10068,1","7,1,999,9,+004,1",,,"SYN124AAXX  24001 76458 32665 42103 10284 20229 30068 40073 57/// 8213/ 92350 333 10320 20253 30/// 50551 58004 70000 82823 82356;","Q01  00002PRCP06"
"76458099999","2003-06-24T03:00:00","4","23.2","-106.4166666","4.0","COLONIA JUAN CARRASCO MAZATLAN SIN., MX","FM-12","99999","V020","180,1,N,0020,1","01800,1,9,N","008000,1,N,1","+0270,1","+0223,1","10083,1","06,0000,9,1",,,,,,"06,1,+01800,9,03,9",,,"06,99,1,06,1,99,9,02250,1,03,1,99,9",,"01,9",,,,"99999,9,10078,1","2,1,010,1,+008,1",,,"SYN094AAXX  24031 76458 32858 61802 10270 20223 30078 40083 52010 86/3/ 90240 333 30/// 58008 86356;","Q01  00002PRCP06"
"76458099999","2003-06-24T06:00:00","4","23.2","-106.4166666","4.0","COLONIA JUAN CARRASCO MAZATLAN SIN., MX","FM-12","99999","V020","180,1,N,0010,1","22000,1,9,N","008000,1,N,1","+0270,1","+0224,1","10092,1","06,0000,9,1",,,,,,,,,"03,99,1,99,9,00,1,99999,9,03,1,00,1","0420,9","01,9",,"240,M,+0320,1","240,N,+0253,1","99999,9,10088,1","7,1,010,1,+006,1",,,"SYN124AAXX  24061 76458 32958 31801 10270 20224 30088 40092 57010 80030 90550 333 0/090 10320 20253 30/// 55070 28164 58006 83358;","Q01+000002SCOTLCQ02  00002PRCP06"
"76458099999","2003-06-24T09:00:00","4","23.2","-106.4166666","4.0","COLONIA JUAN CARRASCO MAZATLAN SIN., MX","FM-12","99999","V020","170,1,N,0010,1","22000,1,9,N","008000,1,N,1","+0266,1","+0229,1","10083,1","06,0000,9,1",,,,,,"03,1,+00450,9,08,9",,,"03,99,1,03,1,02,1,00450,1,00,1,00,1",,"01,9",,,,"99999,9,10078,1","7,1,010,1,-002,1",,,"SYN100AAXX  24091 76458 32458 31701 10266 20229 30078 40083 57010 83200 90855 333 0/600 30/// 59002 83815;","Q01  00002PRCP06"
"76458099999","2003-06-24T12:00:00","4","23.2","-106.4166666","4.0","COLONIA JUAN CARRASCO MAZATLAN SIN., MX","FM-12","99999","V020","070,1,N,0010,1","22000,1,9,N","008000,1,N,1","+0264,1","+0219,1","10086,1","06,0000,9,1","24,0000,9,1",,,,,"03,1,+00570,9,06,9",,,"03,99,1,03,1,05,1,00450,1,00,1,00,1",,"01,9","999,+0240,9","999,M,+0320,1","120,N,+0250,1","99999,9,10080,1","3,1,002,1,+007,1",,,"SYN118AAXX  24121 76458 32458 30701 10264 20219 30080 40086 53002 83500 91220 333 0/300 10320 20250 30024 58007 70000 83619;","Q01  00002PRCP06"
"76458099999","2003-06-24T15:00:00","4","23.2","-106.4166666","4.0","COLONIA JUAN CARRASCO MAZATLAN SIN., MX","FM-12","99999","V020","080,1,N,0020,1","09000,1,C,N","013000,1,N,1","+0280,1","+0232,1","10093,1","06,0000,9,1",,,,,,"02,1,+00600,9,06,9","01,1,+02400,9,03,9",,"06,99,1,02,1,05,1,00450,1,03,1,06,1",,"01,9",,,,"99999,9,10088,1","1,1,008,1,+006,1",,,"SYN112AAXX  24151 76458 32463 60802 10280 20232 30088 40093 51008 82536 91445 333 0/3// 30/// 58006 82620 81358 83270;","Q01  00002PRCP06"
"76458099999","2003-06-24T21:00:00","4","23.2","-106.4166666","4.0","COLONIA JUAN CARRASCO MAZATLAN SIN., MX","FM-12","99999","V020","240,1,N,0040,1","09000,1,C,N","018000,1,N,1","+0295,1","+0238,1","10084,1","06,0000,9,1",,,,,,"01,1,+00720,9,08,9","01,1,+04200,9,03,9",,"05,99,1,01,1,01,1,00800,1,03,1,08,1",,"01,9",,,,"99999,9,10079,1","7,1,005,1,+999,9",,,"SYN112AAXX  24211 76458 32568 52404 10295 20238 30079 40084 57005 81138 92045 333 30/// 56199 58/// 81824 81364 83268;","Q01  00002PRCP06"
"76458099999","2003-06-25T00:00:00","4","23.2","-106.4166666","4.0","COLONIA JUAN CARRASCO MAZATLAN SIN., MX","FM-12","99999","V020","260,1,N,0030,1","22000,1,9,N","008000,1,N,1","+0290,1","+0234,1","10079,1","06,0000,9,1",,,,,,,,,"02,99,1,99,9,00,1,99999,9,03,1,00,1",,"01,9",,"120,M,+0320,1","180,N,+0250,1","99999,9,10074,1","7,1,005,1,+006,1",,,"SYN112AAXX  25001 76458 32958 22603 10290 20234 30074 40079 57005 80030 92351 333 0/090 10320 20250 30/// 58006 92358;","Q01+000002SCOTLCQ02  00002PRCP06"
"76458099999","2003-06-25T03:00:00","4","23.2","-106.4166666","4.0","COLONIA JUAN CARRASCO MAZATLAN SIN., MX","FM-12","99999","V020","270,1,N,0030,1","22000,1,9,N","008000,1,N,1","+0274,1","+0229,1","10083,1","06,0000,9,1",,,,,,"01,1,+02400,9,05,9",,,"02,99,1,99,9,00,1,99999,9,03,1,06,1",,"01,9",,,,"99999,9,10078,1","2,1,005,1,-001,1",,,"SYN106AAXX  25031 76458 32958 22703 10274 20229 30078 40083 52005 80036 90235 333 0/099 30/// 59001 81558 81072;","Q01+000002SCOTLCQ02  00002PRCP06"
"76458099999","2003-06-25T15:00:00","4","23.2","-106.4166666","4.0","COLONIA JUAN CARRASCO MAZATLAN SIN., MX","FM-12","99999","V020","160,1,N,0020,1","03600,1,C,N","013000,1,N,1","+0288,1","+0239,1","10119,1","06,0000,9,1",,,,,,"02,1,+00600,9,08,9",,,"07,99,1,02,1,01,1,00800,1,03,1,99,9",,"01,9",,,,"99999,9,10115,1","1,1,009,1,+027,1",,,"SYN106AAXX  25151 76458 32563 71602 10288 20239 30115 40119 51009 8213/ 91450 333 0/3/0 30/// 58027 82820 85358;","Q01  00002PRCP06"
"76458099999","2003-06-25T18:00:00","4","23.2","-106.4166666","4.0","COLONIA JUAN CARRASCO MAZATLAN SIN., MX","FM-12","99999","V020","220,1,N,0030,1","99999,9,9,N","015000,1,N,1","+0298,1","+0227,1","10109,1","06,0000,9,1",,,,,,"02,1,+00900,9,08,9",,,"06,99,1,02,1,99,9,01250,1,00,1,08,1",,"01,9",,"120,M,+0335,1","240,N,+0248,1","99999,9,10105,1","7,1,010,1,+021,1",,,"SYN118AAXX  25181 76458 32665 62203 10298 20227 30105 40109 57010 82008 91755 333 0/309 10335 20248 30/// 58021 82830 84272;","Q01  00002PRCP06"
"76458099999","2003-06-25T21:00:00","4","23.2","-106.4166666","4.0","COLONIA JUAN CARRASCO MAZATLAN SIN., MX","FM-12","99999","V020","260,1,N,0030,1","06600,1,9,N","015000,1,N,1","+0310,1","+0233,1","10081,1","06,0000,9,1",,,,,,"06,1,+06600,9,02,9",,,"06,99,1,00,1,00,1,99999,9,00,1,08,1",,"01,9",,,,"99999,9,10077,1","7,1,028,1,-002,1",,,"SYN100AAXX  25211 76458 32965 62603 10310 20233 30077 40081 57028 80008 92050 333 0/009 30/// 59002 86272;","Q01  00002PRCP06"
"76458099999","2003-06-26T00:00:00","4","23.2","-106.4166666","4.0","COLONIA JUAN CARRASCO MAZATLAN SIN., MX","FM-12","99999","V020","270,1,N,0040,1","99999,9,9,N","015000,1,N,1","+0296,1","+0236,1","10080,1","06,0000,9,1","24,0000,9,1",,,,,"01,1,+00750,9,08,9",,,"07,99,1,01,1,02,1,00800,1,99,9,06,1",,"01,9",,"120,M,+0330,1","180,N,+0248,1","99999,9,10075,1","5,1,002,1,+001,1",,,"SYN124AAXX  26001 76458 32565 72704 10296 20236 30075 40080 55002 812/6 92340 333 10330 20248 30/// 50341 58001 70000 81825 86070;","Q01  00002PRCP06"
"76458099999","2003-06-26T03:00:00","4","23.2","-106.4166666","4.0","COLONIA JUAN CARRASCO MAZATLAN SIN., MX","FM-12","99999","V020","270,1,N,0050,1","22000,1,9,N","008000,1,N,1","+0284,1","+0229,1","10102,1","06,0000,9,1",,,,,,"01,1,+00690,9,06,9",,,"02,99,1,01,1,04,1,00800,1,03,1,99,9",,"01,9",,,,"99999,9,10098,1","2,1,023,1,+020,1",,,"SYN100AAXX  26031 76458 32558 22705 10284 20229 30098 40102 52023 8143/ 90240 333 30/// 58020 81623 81356;","Q01  00002PRCP06"
"76458099999","2003-06-26T09:00:00","4","23.2","-106.4166666","4.0","COLONIA JUAN CARRASCO MAZATLAN SIN., MX","FM-12","99999","V020","360,1,N,0010,1","00480,1,9,N","008000,1,N,1","+0277,1","+0238,1","10116,1","06,0000,9,1",,,,,,"07,1,+00480,9,06,9",,,"07,99,1,07,1,04,1,00450,1,00,1,00,1",,"01,9",,,,"99999,9,10112,1","2,1,001,1,+999,9",,,"SYN100AAXX  26091 76458 32458 73601 10277 20238 30112 40116 52001 87400 90848 333 30/// 566// 58/// 87616;","Q01  00002PRCP06"
"76458099999","2003-06-26T15:00:00","4","23.2","-106.4166666","4.0","COLONIA JUAN CARRASCO MAZATLAN SIN., MX","FM-12","99999","V020","270,1,N,0020,1","22000,1,9,N","013000,1,N,1","+0288,1","+0239,1","10120,1","06,0000,9,1",,,,,,"01,1,+00600,9,08,9",,,"03,99,1,01,1,01,1,00800,1,00,1,02,1",,"01,9",,,,"99999,9,10116,1","1,1,002,1,+001,1",,,"SYN106AAXX  26151 76458 32563 32702 10288 20239 30116 40120 51002 81102 91445 333 0/40/ 30/// 58001 81820 82070;","Q01  00002PRCP06"
"76458099999","2003-06-26T18:00:00","4","23.2","-106.4166666","4.0","COLONIA JUAN CARRASCO MAZATLAN SIN., MX","FM-12","99999","V020","260,1,N,0030,1","22000,1,9,N","015000,1,N,1","+0300,1","+0240,1","10111,1","06,0000,9,1",,,,,,"01,1,+00750,9,08,9",,,"03,99,1,01,1,02,1,00800,1,00,1,06,1",,"01,9",,"120,M,+0325,1","240,N,+0260,1","99999,9,10107,1","7,1,008,1,+002,1",,,"SYN118AAXX  26181 76458 32565 32603 10300 20240 30107 40111 57008 81206 91752 333 0/709 10325 20260 30/// 58002 81825 82072;","Q01  00002PRCP06"
"76458099999","2003-06-26T21:00:00","4","23.2","-106.4166666","4.0","COLONIA JUAN CARRASCO MAZATLAN SIN., MX","FM-12","99999","V020","270,1,N,0030,1","22000,1,9,N","015000,1,N,1","+0303,1","+0244,1","10092,1","06,0000,9,1",,,,,,"03,1,+06600,9,00,9",,,"03,99,1,00,1,00,1,99999,9,00,1,06,1",,"01,9",,,,"99999,9,10087,1","7,1,020,1,+010,1",,,"SYN100AAXX  26211 76458 32965 32703 10303 20244 30087 40092 57020 80006 92050 333 0/009 30/// 58010 83072;","Q01  00002PRCP06"
"76458099999","2003-06-27T00:00:00","4","23.2","-106.4166666","4.0","COLONIA JUAN CARRASCO MAZATLAN SIN., MX","FM-12","99999","V020","270,1,N,0030,1","09000,1,C,N","015000,1,N,1","+0292,1","+0244,1","10086,1","06,0000,9,1","24,0000,9,1",,,,,"02,1,+00600,9,06,9","01,1,+01800,9,03,9",,"06,99,1,02,1,05,1,00800,1,03,1,06,1",,"01,9",,"120,M,+0325,1","180,N,+0260,1","99999,9,10082,1","5,1,005,1,+007,1",,,"SYN130AAXX  27001 76458 32565 62703 10292 20244 30082 40086 55005 82536 92345 333 10325 20260 30/// 50661 58007 70000 82620 81356 83070;","Q01  00002PRCP06"
"76458099999","2003-06-27T03:00:00","4","23.2","-106.4166666","4.0","COLONIA JUAN CARRASCO MAZATLAN SIN., MX","FM-12","99999","V020","290,1,N,0020,1","22000,1,9,N","008000,1,N,1","+0280,1","+0245,1","10091,1","06,0000,9,1",,,,"0,1,03,1","0,1,03,1","01,1,+00450,9,06,9","01,1,+00600,9,09,9",,"03,99,1,02,1,09,1,00450,1,99,9,09,1",,"01,9",,,,"99999,9,10086,1","1,1,004,1,-012,1","13,1",,"SYN112AAXX  27031 76458 31458 32902 10280 20245 30086 40091 51004 71300 829/9 90240 333 30/// 59012 81920 81615 81170;","Q01  00002PRCP06"
"76458099999","2003-06-27T06:00:00","4","23.2","-106.4166666","4.0","COLONIA JUAN CARRASCO MAZATLAN SIN., MX","FM-12","99999","V020","250,1,N,0020,1","22000,1,9,N","008000,1,N,1","+0277,1","+0242,1","10109,1","06,0000,9,1",,,,"9,1,06,1","9,1,06,1",,,,"04,99,1,04,1,04,1,00450,1,00,1,00,1",,"01,9",,"240,M,+0325,1","240,N,+0260,1","99999,9,10104,1","2,1,018,1,-007,1","01,1",,"SYN124AAXX  27061 76458 31458 42502 10277 20242 30104 40109 52018 70199 84400 90548 333 10325 20260 30/// 21253 566// 59007 84615;","Q01  00002PRCP06"
"76458099999","2003-06-27T09:00:00","4","23.2","-106.4166666","4.0","COLONIA JUAN CARRASCO MAZATLAN SIN., MX","FM-12","99999","V020","210,1,N,0010,1","00390,1,9,N","008000,1,N,1","+0274,1","+0243,1","10104,1","06,0000,9,1",,,,,,"07,1,+00390,9,06,9",,,"07,99,1,07,1,04,1,00250,1,00,1,00,1",,"01,9",,,,"99999,9,10100,1","6,1,004,1,-012,1",,,"SYN100AAXX  27091 76458 32358 72101 10274 20243 30100 40104 56004 87400 90845 333 30/// 566// 59012 87613;","Q01  00002PRCP06"
"76458099999","2003-06-27T15:00:00","4","23.2","-106.4166666","4.0","COLONIA JUAN CARRASCO MAZATLAN SIN., MX","FM-12","99999","V020","210,1,N,0020,1","00510,1,9,N","012000,1,N,1","+0276,1","+0236,1","10099,1","06,0000,9,1",,,,,,"06,1,+00510,9,05,9",,,"08,99,1,06,1,05,1,00450,1,00,1,06,1",,"01,9",,,,"99999,9,10095,1","1,1,003,1,-021,1",,,"SYN106AAXX  27151 76458 32462 82102 10276 20236 30095 40099 51003 86506 91445 333 0/40/ 30/// 59021 86517 82270;","Q01  00002PRCP06"
"76458099999","2003-06-27T18:00:00","4","23.2","-106.4166666","4.0","COLONIA JUAN CARRASCO MAZATLAN SIN., MX","FM-12","99999","V020","250,1,N,0020,1","22000,1,9,N","015000,1,N,1","+0308,1","+0240,1","10104,1","06,0000,9,1",,,,,,"03,1,+00840,9,08,9",,,"03,99,1,03,1,02,1,00800,1,00,1,00,1",,"01,9",,"120,M,+0326,1","240,N,+0255,1","99999,9,10099,1","2,1,004,1,-008,1",,,"SYN112AAXX  27181 76458 32565 32502 10308 20240 30099 40104 52004 83200 91750 333 0/300 10326 20255 30/// 59008 83828;","Q01  00002PRCP06"
"76458099999","2003-06-27T21:00:00","4","23.2","-106.4166666","4.0","COLONIA JUAN CARRASCO MAZATLAN SIN., MX","FM-12","99999","V020","260,1,N,0020,1","22000,1,9,N","015000,1,N,1","+0302,1","+0231,1","10084,1","06,0000,9,1",,,,,,"01,1,+00900,9,08,9",,,"01,99,1,01,1,02,1,00800,1,00,1,00,1",,"01,9",,,,"99999,9,10079,1","7,1,021,1,-007,1",,,"SYN100AAXX  27211 76458 32565 12602 10302 20231 30079 40084 57021 81200 92050 333 0/100 30/// 59007 81830;","Q01  00002PRCP06"
"76458099999","2003-06-28T00:00:00","4","23.2","-106.4166666","4.0","COLONIA JUAN CARRASCO MAZATLAN SIN., MX","FM-12","99999","V020","240,1,N,0040,1","99999,9,9,N","015000,1,N,1","+0294,1","+0228,1","10076,1","06,0000,9,1","24,0000,9,1",,,,,"04,1,+02400,9,04,9",,,"05,99,1,04,1,99,9,00800,1,02,1,06,1",,"01,9",,"120,M,+0327,1","180,N,+0255,1","99999,9,10071,1","7,1,008,1,-011,1",,,"SYN124AAXX  28001 76458 32565 52404 10294 20228 30071 40076 57008 84/26 92345 333 10327 20255 30/// 50631 59011 70000 84458 81070;","Q01  00002PRCP06"
"76458099999","2003-06-28T03:00:00","4","23.2","-106.4166666","4.0","COLONIA JUAN CARRASCO MAZATLAN SIN., MX","FM-12","99999","V020","270,1,N,0020,1","03600,1,C,N","008000,1,N,1","+0284,1","+0235,1","10093,1","06,0000,9,1",,,,,,"01,1,+00600,9,06,9",,,"07,99,1,02,1,05,1,00800,1,02,1,99,9",,"01,9",,,,"99999,9,10088,1","2,1,017,1,+002,1",,,"SYN100AAXX  28031 76458 32558 72702 10284 20235 30088 40093 52017 8252/ 90240 333 30/// 58002 81620 85458;","Q01  00002PRCP06"
"76458099999","2003-06-28T06:00:00","4","23.2","-106.4166666","4.0","COLONIA JUAN CARRASCO MAZATLAN SIN., MX","FM-12","99999","V020","160,1,N,0020,1","03600,1,9,N","008000,1,N,1","+0283,1","+0244,1","10102,1","06,0000,9,1",,,,,,"04,1,+00480,9,06,9",,,"06,99,1,04,1,04,1,00450,1,03,1,00,1","0414,9","01,9",,"240,M,+0327,1","240,N,+0255,1","99999,9,10098,1","0,1,010,1,-006,1",,,"SYN130AAXX  28061 76458 32458 61602 10283 20244 30098 40102 50010 84430 90550 333 10327 20255 30/// 55069 21106 5669/ 59006 84616 82364;","Q01  00002PRCP06"
"76458099999","2003-06-28T15:00:00","4","23.2","-106.4166666","4.0","COLONIA JUAN CARRASCO MAZATLAN SIN., MX","FM-12","99999","V020","180,1,N,0020,1","99999,9,9,N","013000,1,N,1","+0282,1","+0235,1","10107,1","06,0000,9,1",,,,,,"03,1,+00570,9,08,9",,,"07,99,1,03,1,02,1,99999,9,03,1,99,9",,"01,9",,,,"99999,9,10103,1","2,1,010,1,+008,1",,,"SYN112AAXX  28151 76458 32963 71802 10282 20235 30103 40107 52010 8323/ 91450 333 0/3/0 30/// 57832 58008 83819 84358;","Q01  00002PRCP06"
"76458099999","2003-06-28T21:00:00","4","23.2","-106.4166666","4.0","COLONIA JUAN CARRASCO MAZATLAN SIN., MX","FM-12","99999","V020","250,1,N,0020,1","99999,9,9,N","015000,1,N,1","+0296,1","+0233,1","10106,1","06,0000,9,1",,,,,,"04,1,+02400,9,04,9",,,"05,99,1,05,1,99,9,02250,1,02,1,99,9",,"01,9",,,,"99999,9,10102,1","7,1,007,1,+023,1",,,"SYN100AAXX  28211 76458 32865 52502 10296 20233 30102 40106 57007 85/2/ 92045 333 30/// 58023 84458 81356;","Q01  00002PRCP06"
"76458099999","2003-06-29T00:00:00","4","23.2","-106.4166666","4.0","COLONIA JUAN CARRASCO MAZATLAN SIN., MX","FM-12","99999","V020","210,1,N,0030,1","03600,1,C,N","015000,1,N,1","+0284,1","+0220,1","10094,1","06,0000,9,1","24,0000,9,1",,,,,"01,1,+00810,9,08,9",,,"07,99,1,01,1,02,1,00800,1,03,1,99,9",,"01,9",,"120,M,+0325,1","180,N,+0262,1","99999,9,10090,1","7,1,012,1,+999,9",,,"SYN118AAXX  29001 76458 32565 72103 10284 20220 30090 40094 57012 8123/ 92340 333 10325 20262 30/// 50519 70000 81827 86356;","Q01  00002PRCP06"
"76458099999","2003-06-29T03:00:00","4","23.2","-106.4166666","4.0","COLONIA JUAN CARRASCO MAZATLAN SIN., MX","FM-12","99999","V020","220,1,N,0020,1","09000,1,C,N","010000,1,N,1","+0279,1","+0194,1","10110,1","06,0000,9,1",,,,,,"04,1,+03600,9,03,9",,,"06,99,1,04,1,00,1,02250,1,03,1,08,1",,"01,9",,,,"99999,9,10105,1","2,1,015,1,+017,1",,,"SYN106AAXX  29031 76458 32860 62202 10279 20194 30105 40110 52015 84038 90248 333 30/// 56/99 58017 84362 82268;","Q01  00002PRCP06"
"76458099999","2003-06-29T15:00:00","4","23.2","-106.4166666","4.0","COLONIA JUAN CARRASCO MAZATLAN SIN., MX","FM-12","99999","V020","180,1,N,0010,1","22000,1,9,N","012000,1,N,1","+0286,1","+0216,1","10120,1","06,0000,9,1",,,,,,"03,1,+02400,9,03,9",,,"03,99,1,99,9,00,1,99999,9,03,1,00,1",,"01,9",,,,"99999,9,10116,1","2,1,003,1,+013,1",,,"SYN100AAXX  29151 76458 32962 31801 10286 20216 30116 40120 52003 80030 91455 333 0/090 30/// 58013 83358;","Q01+000002SCOTLCQ02  00002PRCP06"
"76458099999","2003-06-29T18:00:00","4","23.2","-106.4166666","4.0","COLONIA JUAN CARRASCO MAZATLAN SIN., MX","FM-12","99999","V020","180,1,N,0020,1","22000,1,9,N","018000,1,N,1","+0310,1","+0209,1","10135,1","06,0000,9,1",,,,,,"01,1,+01260,9,08,9",,,"01,99,1,01,1,02,1,01250,1,99,9,99,9",,"01,9",,"120,M,+0327,1","240,N,+0255,1","99999,9,10131,1","2,1,015,1,+022,1",,,"SYN106AAXX  29181 76458 32668 11802 10310 20209 30131 40135 52015 812// 91740 333 10327 20255 30/// 58022 81842;","Q01  00002PRCP06"
"76458099999","2003-06-29T21:00:00","4","23.2","-106.4166666","4.0","COLONIA JUAN CARRASCO MAZATLAN SIN., MX","FM-12","99999","V020","240,1,N,0030,1","22000,1,9,N","018000,1,N,1","+0296,1","+0207,1","10123,1","06,0000,9,1",,,,,,"01,1,+01110,9,09,9",,,"01,99,1,01,1,09,1,01250,1,99,9,99,9",,"01,9",,,,"99999,9,10119,1","7,1,012,1,+017,1",,,"SYN094AAXX  29211 76458 32668 12403 10296 20207 30119 40123 57012 819// 92040 333 30/// 58017 81937;","Q01  00002PRCP06"
"76458099999","2003-06-30T00:00:00","4","23.2","-106.4166666","4.0","COLONIA JUAN CARRASCO MAZATLAN SIN., MX","FM-12","99999","V020","270,1,N,0030,1","22000,1,9,N","018000,1,N,1","+0292,1","+0210,1","10111,1","06,0000,9,1","24,0000,9,1",,,,,"01,1,+01020,9,08,9",,,"02,99,1,01,1,02,1,01250,1,99,9,06,1",,"01,9",,"120,M,+0333,1","180,N,+0255,1","99999,9,10107,1","7,1,012,1,+017,1",,,"SYN124AAXX  30001 76458 32668 22703 10292 20210 30107 40111 57012 812/6 92340 333 10333 20255 30/// 50331 58017 70000 81834 81070;","Q01  00002PRCP06"
"76458099999","2003-06-30T06:00:00","4","23.2","-106.4166666","4.0","COLONIA JUAN CARRASCO MAZATLAN SIN., MX","FM-12","99999","V020","999,9,C,0000,1","00750,1,9,N","010000,1,N,1","+0274,1","+0210,1","10141,1","06,0000,9,1",,,,,,,,,"06,99,1,06,1,04,1,00800,1,00,1,00,1","0672,9","01,9",,"240,M,+0333,1",,"99999,9,10137,1","2,1,019,1,+019,1",,,"SYN124AAXX  30061 76458 32560 60000 10274 20210 30137 40141 52019 86400 90547 333 10333 20/// 30/// 55112 21300 566// 58019 86627;","Q01  00002PRCP06"
"76458099999","2003-06-30T15:00:00","4","23.2","-106.4166666","4.0","COLONIA JUAN CARRASCO MAZATLAN SIN., MX","FM-12","99999","V020","140,1,N,0020,1","22000,1,9,N","013000,1,N,1","+0288,1","+0219,1","10138,1","06,0000,9,1",,,,,,"03,1,+02400,9,03,9",,,"03,99,1,03,1,00,1,99999,9,03,1,00,1",,"01,9",,,,"99999,9,10133,1","1,1,006,1,+017,1",,,"SYN100AAXX  30151 76458 32963 31402 10288 20219 30133 40138 51006 83030 91448 333 0/0/0 30/// 58017 83358;","Q01  00002PRCP06"
"76458099999","2003-06-30T18:00:00","4","23.2","-106.4166666","4.0","COLONIA JUAN CARRASCO MAZATLAN SIN., MX","FM-12","99999","V020","210,1,N,0010,1","22000,1,9,N","018000,1,N,1","+0302,1","+0226,1","10136,1","06,0000,9,1",,,,,,"01,1,+00960,9,08,9",,,"01,99,1,01,1,02,1,00800,1,00,1,00,1",,"01,9",,"120,M,+0330,1","240,N,+0255,1","99999,9,10132,1","7,1,001,1,+001,1",,,"SYN112AAXX  30181 76458 32568 12101 10302 20226 30132 40136 57001 81200 91759 333 0/300 10330 20255 30/// 58001 81832;","Q01  00002PRCP06"
"76458099999","2003-06-30T21:00:00","4","23.2","-106.4166666","4.0","COLONIA JUAN CARRASCO MAZATLAN SIN., MX","FM-12","99999","V020","250,1,N,0030,1","22000,1,9,N","018000,1,N,1","+0308,1","+0222,1","10124,1","06,0000,9,1",,,,,,"01,1,+01080,9,08,9",,,"01,99,1,01,1,02,1,01250,1,00,1,00,1",,"01,9",,,,"99999,9,10119,1","7,1,013,1,-001,1",,,"SYN100AAXX  30211 76458 32668 12503 10308 20222 30119 40124 57013 81200 92045 333 0/100 30/// 59001 81836;","Q01  00002PRCP06"
"76458099999","2003-07-01T03:00:00","4","23.2","-106.4166666","4.0","COLONIA JUAN CARRASCO MAZATLAN SIN., MX","FM-12","99999","V020","300,1,N,0020,1","01800,1,9,N","008000,1,N,1","+0280,1","+0219,1","10138,1","06,0000,9,1",,,,,,"06,1,+01800,9,03,9",,,"06,99,1,06,1,99,9,02250,1,03,1,99,9",,"01,9",,,,"99999,9,10134,1","2,1,016,1,+016,1",,,"SYN094AAXX  01031 76458 32858 63002 10280 20219 30134 40138 52016 86/3/ 90245 333 30/// 58016 86356;","Q01  00002PRCP06"
"76458099999","2003-07-01T15:00:00","4","23.2","-106.4166666","4.0","COLONIA JUAN CARRASCO MAZATLAN SIN., MX","FM-12","99999","V020","270,1,N,0020,1","22000,1,9,N","012000,1,N,1","+0291,1","+0224,1","10148,1","06,0000,9,1",,,,,,"04,1,+02400,9,03,9",,,"04,99,1,04,1,00,1,99999,9,03,1,00,1",,"01,9",,,,"99999,9,10143,1","1,1,001,1,+010,1",,,"SYN100AAXX  01151 76458 32962 42702 10291 20224 30143 40148 51001 84030 91450 333 0/0/0 30/// 58010 84358;","Q01  00002PRCP06"
"76458099999","2003-07-01T18:00:00","4","23.2","-106.4166666","4.0","COLONIA JUAN CARRASCO MAZATLAN SIN., MX","FM-12","99999","V020","250,1,N,0040,1","22000,1,9,N","018000,1,N,1","+0306,1","+0232,1","10140,1","06,0000,9,1",,,,,,"01,1,+00930,9,08,9",,,"02,99,1,01,1,02,1,00800,1,00,1,02,1",,"01,9",,"120,M,+0325,1","240,N,+0260,1","99999,9,10136,1","8,1,007,1,+004,1",,,"SYN124AAXX  01181 76458 32568 22504 10306 20232 30136 40140 58007 81202 91755 333 0/30/ 10325 20260 30/// 57837 58004 81831 81070;","Q01  00002PRCP06"
"76458099999","2003-07-01T21:00:00","4","23.2","-106.4166666","4.0","COLONIA JUAN CARRASCO MAZATLAN SIN., MX","FM-12","99999","V020","250,1,N,0050,1","22000,1,9,N","020000,1,N,1","+0312,1","+9999,9","10119,1","06,0000,9,1",,,,,,"01,1,+00930,9,08,9",,,"03,99,1,01,1,02,1,00800,1,00,1,02,1",,"01,9",,,,"99999,9,10114,1","7,1,020,1,+999,9",,,"SYN118AAXX  01211 76458 32570 32505 10312 2//// 30114 40119 57020 81202 92045 333 0/30/ 30/// 57837 58/// 59/// 81831 82070;","Q01  00002PRCP06"
"76458099999","2003-07-02T00:00:00","4","23.2","-106.4166666","4.0","COLONIA JUAN CARRASCO MAZATLAN SIN., MX","FM-12","99999","V020","250,1,N,0020,1","22000,1,9,N","020000,1,N,1","+0305,1","+0232,1","10109,1","06,0000,9,1","24,0000,9,1",,,,,"01,1,+00900,9,09,9",,,"02,99,1,01,1,03,1,00800,1,00,1,01,1",,"01,9",,"120,M,+0318,1","180,N,+0260,1","99999,9,10104,1","9,9,999,9,-014,1",,,"SYN136AAXX  02001 76458 32570 22502 10305 20232 30104 40109 5//// 81301 92347 333 001/9 10318 20260 30/// 50671 57916 59014 70000 81930 81070;","Q01  00002PRCP06"
"76458099999","2003-07-02T03:00:00","4","23.2","-106.4166666","4.0","COLONIA JUAN CARRASCO MAZATLAN SIN., MX","FM-12","99999","V020","310,1,N,0020,1","22000,1,9,N","010000,1,N,1","+0289,1","+0229,1","10116,1","06,0000,9,1",,,,"0,1,03,1","0,1,03,1","01,1,+00750,9,09,9",,,"02,99,1,01,1,09,1,00800,1,00,1,06,1",,"01,9",,,,"99999,9,10112,1","2,1,008,1,-012,1","29,1",,"SYN118AAXX  02031 76458 31560 23102 10289 20229 30112 40116 52008 72900 81906 90247 333 002/9 30/// 57925 59012 81925 81070;","Q01  00002PRCP06"
"76458099999","2003-07-02T09:00:00","4","23.2","-106.4166666","4.0","COLONIA JUAN CARRASCO MAZATLAN SIN., MX","FM-12","99999","V020","270,1,N,0020,1","22000,1,9,N","010000,1,N,1","+0282,1","+0233,1","10121,1","06,0000,9,1",,,,,,"02,1,+02700,9,03,9",,,"02,99,1,02,1,00,1,99999,9,03,1,00,1",,"01,9",,,,"99999,9,10116,1","7,1,007,1,+999,9",,,"SYN100AAXX  02091 76458 32960 22702 10282 20233 30116 40121 57007 82030 90850 333 0/090 30/// 58/// 82359;","Q01  00002PRCP06"
"76458099999","2003-07-02T18:00:00","4","23.2","-106.4166666","4.0","COLONIA JUAN CARRASCO MAZATLAN SIN., MX","FM-12","99999","V020","260,1,N,0030,1","22000,1,9,N","018000,1,N,1","+0316,1","+0245,1","10125,1","06,0000,9,1",,,,,,"01,1,+00900,9,08,9",,,"01,99,1,01,1,02,1,00800,1,00,1,00,1",,"01,9",,"120,M,+0320,1","240,N,+0260,1","99999,9,10120,1","5,1,002,1,-016,1",,,"SYN118AAXX  02181 76458 32568 12603 10316 20245 30120 40125 55002 81200 91745 333 001// 10320 20260 30/// 57816 59016 81830;","Q01  00002PRCP06"
"76458099999","2003-07-02T21:00:00","4","23.2","-106.4166666","4.0","COLONIA JUAN CARRASCO MAZATLAN SIN., MX","FM-12","99999","V020","260,1,N,0030,1","22000,1,9,N","020000,1,N,1","+0312,1","+0240,1","10119,1","06,0000,9,1",,,,,,"01,1,+00900,9,09,9",,,"01,99,1,01,1,03,1,00800,1,00,1,00,1",,"01,9",,,,"99999,9,10115,1","7,1,005,1,-002,1",,,"SYN100AAXX  02211 76458 32570 12603 10312 20240 30115 40119 57005 81300 92050 333 0/100 30/// 59002 81930;","Q01  00002PRCP06"
"76458099999","2003-07-03T03:00:00","4","23.2","-106.4166666","4.0","COLONIA JUAN CARRASCO MAZATLAN SIN., MX","FM-12","99999","V020","280,1,N,0020,1","22000,1,9,N","018000,1,N,1","+0289,1","+0223,1","10106,1","06,0000,9,1",,,,,,"01,1,+02700,9,03,9",,,"03,99,1,01,1,00,1,99999,9,03,1,06,1",,"01,9",,,,"99999,9,10101,1","2,1,007,1,-011,1",,,"SYN106AAXX  03031 76458 32968 32802 10289 20223 30101 40106 52007 81036 90250 333 0/099 30/// 59011 81359 82079;","Q01  00002PRCP06"
"76458099999","2003-07-03T06:00:00","4","23.2","-106.4166666","4.0","COLONIA JUAN CARRASCO MAZATLAN SIN., MX","FM-12","99999","V020","280,1,N,0020,1","22000,1,9,N","008000,1,N,1","+0282,1","+0241,1","10115,1","06,0000,9,1",,,,,,"00,1,+99999,9,99,9",,,"00,99,1,00,1,00,1,99999,9,00,1,00,1",,"01,9",,"240,M,+0330,1","240,N,+0260,1","99999,9,10111,1","2,1,010,1,+999,9",,,"SYN100AAXX  03061 76458 32958 02802 10282 20241 30111 40115 52010 90540 333 10330 20260 30/// 21663 59012;","Q01  00002PRCP06"
"76458099999","2003-07-03T09:00:00","4","23.2","-106.4166666","4.0","COLONIA JUAN CARRASCO MAZATLAN SIN., MX","FM-12","99999","V020","300,1,N,0020,1","22000,1,9,N","008000,1,N,1","+0278,1","+0240,1","10103,1","06,0000,2,1",,,,"1,1,03,1","2,1,03,1","01,1,+00480,9,08,9",,,"01,99,1,01,1,01,1,00450,1,99,9,99,9",,,,,,"99999,9,10099,1","9,9,999,9,-002,1","50,1",,"SYN088AAXX  03091 76458 32458 13002 10278 20240 30099 40103 75012 811// 90840 333 59002 81816;",
"76458099999","2003-07-03T12:00:00","4","23.2","-106.4166666","4.0","COLONIA JUAN CARRASCO MAZATLAN SIN., MX","FM-12","99999","V020","999,9,C,0000,1","22000,1,9,N","008000,1,N,1","+0270,1","+0240,1","10101,1","06,0000,2,1","24,0000,9,1",,,,,"01,1,+00360,9,08,9",,,"01,99,1,01,1,02,1,00450,1,00,1,00,1",,"01,9","999,+0250,9","999,M,+0330,1","120,N,+0260,1","99999,9,10097,1","7,1,002,1,+010,1",,,"SYN118AAXX  03121 76458 32458 10000 10270 20240 30097 40101 57002 81200 91155 333 0/600 10330 20260 30025 58010 70000 81812;",
"76458099999","2003-07-03T15:00:00","4","23.2","-106.4166666","4.0","COLONIA JUAN CARRASCO MAZATLAN SIN., MX","FM-12","99999","V020","240,1,N,0020,1","22000,1,9,N","015000,1,N,1","+0286,1","+0241,1","10107,1","06,0000,2,1",,,,,,"01,1,+00570,9,08,9",,,"03,99,1,01,1,02,1,00450,1,00,1,00,1",,"01,9",,,,"99999,9,10103,1","2,1,007,1,+019,1",,,"SYN100AAXX  03151 76458 32465 32402 10286 20241 30103 40107 52007 81200 91455 333 0/500 30/// 58019 81819;",
"76458099999","2003-07-03T18:00:00","4","23.2","-106.4166666","4.0","COLONIA JUAN CARRASCO MAZATLAN SIN., MX","FM-12","99999","V020","210,1,N,0020,1","22000,1,9,N","018000,1,N,1","+0303,1","+0244,1","10109,1","06,0000,9,1",,,,,,"01,1,+00780,9,08,9",,,"01,99,1,01,1,02,1,00800,1,00,1,00,1",,"01,9",,"120,M,+0323,1","240,N,+0260,1","99999,9,10105,1","0,1,002,1,-015,1",,,"SYN118AAXX  03181 76458 32568 12102 10303 20244 30105 40109 50002 81200 91747 333 0/5// 10323 20260 30/// 57859 59015 81826;","Q01  00002PRCP06"
"76458099999","2003-07-03T21:00:00","4","23.2","-106.4166666","4.0","COLONIA JUAN CARRASCO MAZATLAN SIN., MX","FM-12","99999","V020","240,1,N,0020,1","22000,1,9,N","020000,1,N,1","+0303,1","+0234,1","10098,1","06,0000,9,1",,,,,,"01,1,+00870,9,09,9",,,"01,99,1,01,1,03,1,00800,1,00,1,00,1",,"01,9",,,,"99999,9,10093,1","7,1,012,1,-022,1",,,"SYN106AAXX  03211 76458 32570 12402 10303 20234 30093 40098 57012 81300 92047 333 001// 30/// 57912 59022 81929;","Q01  00002PRCP06"
"76458099999","2003-07-04T00:00:00","4","23.2","-106.4166666","4.0","COLONIA JUAN CARRASCO MAZATLAN SIN., MX","FM-12","99999","V020","270,1,N,0020,1","22000,1,9,N","020000,1,N,1","+0302,1","+0235,1","10085,1","06,0000,9,1","24,0000,9,1",,,,,"01,1,+00840,9,09,9",,,"03,99,1,01,1,09,1,00800,1,03,1,03,1",,"01,9",,"120,M,+0330,1","180,N,+0260,1","99999,9,10080,1","7,1,013,1,-014,1",,,"SYN136AAXX  04001 76458 32570 32702 10302 20235 30080 40085 57013 81933 92358 333 07111 10330 20260 30/// 50641 57913 59014 70000 81928 81359;","Q01  00002PRCP06"
"76458099999","2003-07-04T03:00:00","4","23.2","-106.4166666","4.0","COLONIA JUAN CARRASCO MAZATLAN SIN., MX","FM-12","99999","V020","280,1,N,0020,1","22000,1,9,N","018000,1,N,1","+0282,1","+0239,1","10097,1","06,0000,9,1",,,,,,"03,1,+01800,9,03,9",,,"03,99,1,03,1,00,1,02250,1,05,1,00,1",,"01,9",,,,"99999,9,10092,1","2,1,012,1,-009,1",,,"SYN100AAXX  04031 76458 32868 32802 10282 20239 30092 40097 52012 83050 90255 333 0/010 30/// 59009 83356;","Q01  00002PRCP06"
"76458099999","2003-07-04T15:00:00","4","23.2","-106.4166666","4.0","COLONIA JUAN CARRASCO MAZATLAN SIN., MX","FM-12","99999","V020","150,1,N,0020,1","00660,1,9,N","015000,1,N,1","+0287,1","+0233,1","10119,1","06,0000,9,1",,,,,,"05,1,+00660,9,08,9",,,"05,99,1,05,1,02,1,00800,1,00,1,00,1",,"01,9",,,,"99999,9,10115,1","1,1,004,1,+012,1",,,"SYN106AAXX  04151 76458 32565 51502 10287 20233 30115 40119 51004 85200 91450 333 0/300 30/// 57834 58012 85822;","Q01  00002PRCP06"
"76458099999","2003-07-04T18:00:00","4","23.2","-106.4166666","4.0","COLONIA JUAN CARRASCO MAZATLAN SIN., MX","FM-12","99999","V020","180,1,N,0030,1","22000,1,9,N","018000,1,N,1","+0314,1","+0235,1","10125,1","06,0000,9,1",,,,,,"03,1,+00990,9,08,9",,,"03,99,1,03,1,02,1,02250,1,00,1,00,1",,"01,9",,"120,M,+0328,1","240,N,+0262,1","99999,9,10121,1","7,1,006,1,+016,1",,,"SYN112AAXX  04181 76458 32868 31803 10314 20235 30121 40125 57006 83200 91755 333 0/100 10328 20262 30/// 58016 83833;","Q01  00002PRCP06"
"76458099999","2003-07-04T21:00:00","4","23.2","-106.4166666","4.0","COLONIA JUAN CARRASCO MAZATLAN SIN., MX","FM-12","99999","V020","190,1,N,0030,1","22000,1,9,N","018000,1,N,1","+0312,1","+0236,1","10115,1","06,0000,9,1",,,,,,"02,1,+00960,9,08,9",,,"02,99,1,01,1,02,1,00800,1,00,1,00,1",,"01,9",,,,"99999,9,10111,1","7,1,010,1,+018,1",,,"SYN100AAXX  04211 76458 32568 21903 10312 20236 30111 40115 57010 81200 92055 333 0/100 30/// 58018 82832;","Q01  00002PRCP06"
"76458099999","2003-07-05T00:00:00","4","23.2","-106.4166666","4.0","COLONIA JUAN CARRASCO MAZATLAN SIN., MX","FM-12","99999","V020","250,1,N,0020,1","22000,1,9,N","018000,1,N,1","+0304,1","+0234,1","10103,1","06,0000,9,1","24,0000,9,1",,,,,,,,"04,99,1,04,1,01,1,00800,1,00,1,00,1",,"01,9",,"120,M,+0333,1","180,N,+0263,1","99999,9,10099,1","7,1,012,1,+019,1",,,"SYN130AAXX  05001 76458 32568 42502 10304 20234 30099 40103 57012 84100 92347 333 0/5// 10333 20263 30/// 50641 57859 58019 70000 84829;","Q01  00002PRCP06"
"76458099999","2003-07-05T03:00:00","4","23.2","-106.4166666","4.0","COLONIA JUAN CARRASCO MAZATLAN SIN., MX","FM-12","99999","V020","270,1,N,0030,1","22000,1,9,N","010000,1,N,1","+0281,1","+0235,1","10113,1","06,0000,9,1",,,,,,"01,1,+00570,9,08,9",,,"01,99,1,01,1,01,1,00450,1,00,1,00,1",,"01,9",,,,"99999,9,10108,1","1,1,009,1,+016,1",,,"SYN106AAXX  05030 76458 32460 12703 10281 20235 30108 40113 51009 81100 90245 333 0/6// 30/// 57869 58016 81819;","Q01  00002PRCP06"
"76458099999","2003-07-05T09:00:00","4","23.2","-106.4166666","4.0","COLONIA JUAN CARRASCO MAZATLAN SIN., MX","FM-12","99999","V020","150,1,N,0030,1","22000,1,9,N","008000,1,N,1","+0276,1","+0235,1","10126,1","06,0000,9,1",,,,,,"01,1,+00510,9,08,9",,,"03,99,1,01,1,01,1,00450,1,03,1,99,9",,"01,9",,,,"99999,9,10122,1","8,1,003,1,+011,1",,,"SYN094AAXX  05091 76458 32458 31503 10276 20235 30122 40126 58003 8113/ 90840 333 30/// 58011 81817;","Q01  00002PRCP06"
"76458099999","2003-07-05T21:00:00","4","23.2","-106.4166666","4.0","COLONIA JUAN CARRASCO MAZATLAN SIN., MX","FM-12","99999","V020","210,1,N,0030,1","22000,1,9,N","020000,1,N,1","+0309,1","+0232,1","10129,1","06,0000,9,1",,,,,,"01,1,+00960,9,09,9",,,"02,99,1,01,1,03,1,00800,1,03,1,00,1",,"01,9",,,,"99999,9,10114,1","7,1,016,1,+003,1",,,"SYN112AAXX  05211 76458 32570 22103 10309 20232 30114 40129 57016 81330 92050 333 04190 30/// 57914 58003 81932 81359;","Q01  00002PRCP06"
"76458099999","2003-07-06T00:00:00","4","23.2","-106.4166666","4.0","COLONIA JUAN CARRASCO MAZATLAN SIN., MX","FM-12","99999","V020","200,1,N,0020,1","22000,1,9,N","020000,1,N,1","+0295,1","+0235,1","10105,1","06,0000,9,1","24,0045,9,1",,,,,,,,"04,99,1,04,1,01,1,00800,1,00,1,00,1",,"01,9",,"120,M,+0329,1","180,N,+0260,1","99999,9,10101,1","7,1,013,1,+002,1",,,"SYN130AAXX  06001 76458 32570 42002 10295 20235 30101 40105 57013 84100 92345 333 0/5// 10329 20260 30/// 50531 57859 58002 70045 84825;","Q01  00002PRCP06"
"76458099999","2003-07-06T03:00:00","4","23.2","-106.4166666","4.0","COLONIA JUAN CARRASCO MAZATLAN SIN., MX","FM-12","99999","V020","260,1,N,0020,1","22000,1,9,N","010000,1,N,1","+0274,1","+0233,1","10108,1","06,0000,9,1",,,,,,"03,1,+00510,9,08,9",,,"03,99,1,03,1,01,1,00450,1,00,1,00,1",,"01,9",,,,"99999,9,10104,1","3,1,003,1,-004,1",,,"SYN106AAXX  06031 76458 32460 32602 10274 20233 30104 40108 53003 83100 90245 333 0/5// 30/// 57859 59004 83817;","Q01  00002PRCP06"
"76458099999","2003-07-06T15:00:00","4","23.2","-106.4166666","4.0","COLONIA JUAN CARRASCO MAZATLAN SIN., MX","FM-12","99999","V020","999,9,C,0000,1","22000,1,9,N","015000,1,N,1","+0284,1","+0225,1","10123,1","06,0000,9,1",,,,,,"03,1,+00750,9,08,9",,,"03,99,1,03,1,01,1,00800,1,00,1,00,1",,"01,9",,,,"99999,9,10119,1","2,1,003,1,-013,1",,,"SYN106AAXX  06151 76458 32565 30000 10284 20225 30119 40123 52003 83100 91445 333 0/2// 30/// 57829 59013 83825;","Q01  00002PRCP06"
"76458099999","2003-07-06T18:00:00","4","23.2","-106.4166666","4.0","COLONIA JUAN CARRASCO MAZATLAN SIN., MX","FM-12","99999","V020","180,1,N,0020,1","22000,1,9,N","018000,1,N,1","+0304,1","+0218,1","10120,1","06,0000,9,1",,,,,,"01,1,+01050,9,08,9",,,"03,99,1,01,1,02,1,01250,1,03,1,00,1",,"01,9",,"120,M,+0325,1","240,N,+0251,1","99999,9,10116,1","7,1,003,1,-015,1",,,"SYN118AAXX  06181 76458 32668 31802 10304 20218 30116 40120 57003 81230 91755 333 0/190 10325 20251 30/// 59015 81835 82358;","Q01  00002PRCP06"
"76458099999","2003-07-06T21:00:00","4","23.2","-106.4166666","4.0","COLONIA JUAN CARRASCO MAZATLAN SIN., MX","FM-12","99999","V020","220,1,N,0030,1","22000,1,9,N","018000,1,N,1","+0310,1","+0228,1","10101,1","06,0000,9,1",,,,,,"01,1,+01020,9,08,9",,,"01,99,1,01,1,02,1,01250,1,00,1,00,1",,"01,9",,,,"99999,9,10097,1","7,1,019,1,-017,1",,,"SYN100AAXX  06211 76458 32668 12203 10310 20228 30097 40101 57019 81200 92055 333 0/100 30/// 59017 81834;","Q01  00002PRCP06"
"76458099999","2003-07-07T00:00:00","4","23.2","-106.4166666","4.0","COLONIA JUAN CARRASCO MAZATLAN SIN., MX","FM-12","99999","V020","240,1,N,0020,1","22000,1,9,N","018000,1,N,1","+0200,2","+9999,9","10090,1","06,0000,9,1","24,0000,9,1",,,,,"01,1,+01170,9,09,9",,,"01,99,1,01,1,09,1,01250,1,99,9,99,9",,"01,9",,"120,M,+0325,1","180,N,+9999,9","99999,9,10085,1","7,1,012,1,-016,1",,,"SYN124AAXX  07001 76458 32668 12402 10200 20207 30085 40090 57012 819// 92340 333 0/3// 10325 20251 30/// 57934 59016 70000 81939;","Q01  00002PRCP06Q02 +02512ATMN  "
"76458099999","2003-07-07T03:00:00","4","23.2","-106.4166666","4.0","COLONIA JUAN CARRASCO MAZATLAN SIN., MX","FM-12","99999","V020","240,1,N,0030,1","99999,9,9,N","008000,1,N,1","+0276,1","+0220,1","99999,9","06,0000,9,1",,,,,,,,,"05,99,1,99,9,99,9,02250,1,99,9,99,9",,"01,9",,,,,"9,9,999,9,-009,1",,,"SYN095AAXX  07031 76458 32858 52403 10276 20220 3 30095 40100 5210 85/3/ 90240 333 30/// 59009 85356;","Q01  00002PRCP06"
"76458099999","2003-07-07T06:00:00","4","23.2","-106.4166666","4.0","COLONIA JUAN CARRASCO MAZATLAN SIN., MX","FM-12","99999","V020","200,1,N,0020,1","03600,1,9,N","010000,1,N,1","+0272,1","+0230,1","10111,1","06,0000,9,1",,,,,,"02,1,+00540,9,06,9",,,"07,99,1,02,1,04,1,00450,1,03,1,00,1","0648,9","01,9",,"240,M,+0325,1","240,N,+0251,1","99999,9,10107,1","2,1,011,1,-015,1",,,"SYN130AAXX  07060 76458 32460 72002 10272 20230 30107 40111 52011 82430 90555 333 0/990 10325 20251 30/// 55108 21447 59015 82618 85359;","Q01  00002PRCP06"
"76458099999","2003-07-07T09:00:00","4","23.2","-106.4166666","4.0","COLONIA JUAN CARRASCO MAZATLAN SIN., MX","FM-12","99999","V020","160,1,N,0020,1","22000,1,9,N","010000,1,N,1","+0272,1","+0230,1","10103,1","06,0000,9,1",,,,,,"03,1,+00540,9,06,9",,,"03,99,1,03,1,04,1,00450,1,00,1,00,1",,"01,9",,,,"99999,9,10099,1","8,1,008,1,-016,1",,,"SYN100AAXX  07091 76458 32460 31602 10272 20230 30099 40103 58008 83400 90850 333 0/400 30/// 59016 83618;","Q01  00002PRCP06"
"76458099999","2003-07-07T15:00:00","4","23.2","-106.4166666","4.0","COLONIA JUAN CARRASCO MAZATLAN SIN., MX","FM-12","99999","V020","120,1,N,0020,1","22000,1,9,N","015000,1,N,1","+0292,1","+0292,1","10104,1","06,0000,9,1",,,,,,"03,1,+00750,9,08,9",,,"03,99,1,03,1,02,1,00800,1,00,1,00,1",,"01,9",,,,"99999,9,10100,1","3,1,003,1,-019,1",,,"SYN106AAXX  07151 76458 32565 31202 10292 20292 30100 40104 53003 83200 91445 333 0/30/ 30/// 57865 59019 83825;","Q01  00002PRCP06"
"76458099999","2003-07-07T18:00:00","4","23.2","-106.4166666","4.0","COLONIA JUAN CARRASCO MAZATLAN SIN., MX","FM-12","99999","V020","180,1,N,0030,1","22000,1,9,N","018000,1,N,1","+0304,1","+0227,1","10106,1","06,0000,9,1",,,,,,"02,1,+00960,9,08,9",,,"03,99,1,02,1,02,1,00800,1,03,1,00,1",,"01,9",,"120,M,+0322,1","240,N,+0258,1","99999,9,10101,1","4,1,000,1,-015,1",,,"SYN118AAXX  07181 76458 32568 31803 10304 20227 30101 40106 54000 82230 91745 333 0/190 10322 20258 30/// 59015 82832 81358;","Q01  00002PRCP06"
"76458099999","2003-07-08T03:00:00","4","23.2","-106.4166666","4.0","COLONIA JUAN CARRASCO MAZATLAN SIN., MX","FM-12","99999","V020","270,1,N,0020,1","02400,1,9,N","016000,1,N,1","+0274,1","+0232,1","10105,1","06,0000,9,1",,,,,,"05,1,+02400,9,03,9",,,"05,99,1,05,1,00,1,02250,1,05,1,00,1",,"01,9",,,,"99999,9,10100,1","2,1,018,1,+005,1",,,"SYN100AAXX  08031 76458 32866 52702 10274 20232 30100 40105 52018 85050 90250 333 0/010 30/// 58005 85358;","Q01  00002PRCP06"
"76458099999","2003-07-08T15:00:00","4","23.2","-106.4166666","4.0","COLONIA JUAN CARRASCO MAZATLAN SIN., MX","FM-12","99999","V020","090,1,N,0020,1","22000,1,9,N","015000,1,N,1","+0288,1","+0233,1","10124,1","06,0000,9,1",,,,,,"03,1,+00660,9,08,9",,,"04,99,1,03,1,02,1,00800,1,00,1,06,1",,"01,9",,,,"99999,9,10120,1","1,1,008,1,+010,1",,,"SYN112AAXX  08151 76458 32565 40902 10288 20233 30120 40124 51008 83206 91450 333 0/30/ 30/// 57835 58010 83822 81270;","Q01  00002PRCP06"
"76458099999","2003-07-08T18:00:00","4","23.2","-106.4166666","4.0","COLONIA JUAN CARRASCO MAZATLAN SIN., MX","FM-12","99999","V020","170,1,N,0020,1","22000,1,9,N","018000,1,N,1","+0304,1","+0227,1","10131,1","06,0000,9,1",,,,,,"03,1,+00960,9,08,9",,,"03,99,1,03,1,02,1,00800,1,00,1,00,1",,"01,9",,"120,M,+0328,1","240,N,+0263,1","99999,9,10126,1","2,1,007,1,+025,1",,,"SYN112AAXX  08181 76458 32568 31702 10304 20227 30126 40131 52007 83200 91745 333 0/300 10328 20263 30/// 58025 83832;","Q01  00002PRCP06"
"76458099999","2003-07-08T21:00:00","4","23.2","-106.4166666","4.0","COLONIA JUAN CARRASCO MAZATLAN SIN., MX","FM-12","99999","V020","210,1,N,0030,1","22000,1,9,N","018000,1,N,1","+0303,1","+0234,1","10115,1","06,0000,9,1",,,,,,"01,1,+00870,9,09,9",,,"02,99,1,01,1,03,1,00800,1,00,1,06,1",,"01,9",,,,"99999,9,10110,1","7,1,016,1,+023,1",,,"SYN106AAXX  08211 76458 32568 22103 10303 20234 30110 40115 57016 81306 92055 333 0/109 30/// 58023 81929 81072;","Q01  00002PRCP06"
"76458099999","2003-07-09T06:00:00","4","23.2","-106.4166666","4.0","COLONIA JUAN CARRASCO MAZATLAN SIN., MX","FM-12","99999","V020","150,1,N,0020,1","02100,1,9,N","010000,1,N,1","+0280,1","+0234,1","10138,1","06,0000,9,1",,,,,,,,,"07,99,1,07,1,00,1,02250,1,05,1,00,1","0462,9","01,9",,"240,M,+0328,1","240,N,+0263,1","99999,9,10134,1","2,1,021,1,+017,1",,,"SYN124AAXX  09061 76458 32860 71502 10280 20234 30134 40138 52021 87050 90600 333 0/090 10328 20263 30/// 55077 20820 58017 87356;","Q01  00002PRCP06"
"76458099999","2003-07-09T12:00:00","4","23.2","-106.4166666","4.0","COLONIA JUAN CARRASCO MAZATLAN SIN., MX","FM-12","99999","V020","180,1,N,0030,1","00570,1,9,N","010000,1,N,1","+0280,1","+0235,1","10131,1","06,0000,9,1","24,0000,9,1",,,,,"07,1,+00570,9,06,9",,,"07,99,1,07,1,05,1,00450,1,00,1,00,1",,"01,9","999,+0260,9","999,M,+0328,1","120,N,+0278,1","99999,9,10126,1","4,1,000,1,+013,1",,,"SYN118AAXX  09121 76458 32460 71803 10280 20235 30126 40131 54001 87500 91200 333 0/300 10328 20278 30026 58013 70000 87619;","Q01  00002PRCP06"
"76458099999","2003-07-09T15:00:00","4","23.2","-106.4166666","4.0","COLONIA JUAN CARRASCO MAZATLAN SIN., MX","FM-12","99999","V020","150,1,N,0020,1","09000,1,C,N","012000,1,N,1","+0283,1","+0231,1","10140,1","06,0000,9,1",,,,,,"01,1,+00660,9,09,9","03,1,+02400,9,03,9",,"06,99,1,01,1,03,1,00450,1,03,1,06,1",,"01,9",,,,"99999,9,10135,1","2,1,009,1,+015,1",,,"SYN112AAXX  09151 76458 32462 61502 10283 20231 30135 40140 52009 81336 91451 333 0/599 30/// 58015 81922 83358 82070;","Q01  00002PRCP06"
"76458099999","2003-07-09T18:00:00","4","23.2","-106.4166666","4.0","COLONIA JUAN CARRASCO MAZATLAN SIN., MX","FM-12","99999","V020","180,1,N,0030,1","22000,1,9,N","018000,1,N,1","+0307,1","+0242,1","10131,1","06,0000,9,1",,,,,,"01,1,+00810,9,09,9",,,"04,99,1,01,1,03,1,00800,1,00,1,06,1",,"01,9",,"120,M,+0327,1","240,N,+0275,1","99999,9,10126,1","7,1,008,1,+001,1",,,"SYN124AAXX  09181 76458 32568 41803 10307 20242 30126 40131 57008 81306 91747 333 005/9 10327 20275 30/// 57954 58001 81927 83070;","Q01  00002PRCP06"
"76458099999","2003-07-09T21:00:00","4","23.2","-106.4166666","4.0","COLONIA JUAN CARRASCO MAZATLAN SIN., MX","FM-12","99999","V020","270,1,N,0030,1","22000,1,9,N","018000,1,N,1","+0298,1","+0244,1","10122,1","06,0000,9,1",,,,,,"02,1,+00660,9,09,9","01,1,+03600,9,03,9",,"04,99,1,02,1,03,1,00800,1,03,1,08,1",,"01,9",,,,"99999,9,10117,1","7,1,010,1,+007,1",,,"SYN118AAXX  09211 76458 32568 42703 10298 20244 30117 40122 57010 82338 92045 333 01199 30/// 57914 58007 82922 81362 81268;","Q01  00002PRCP06"
"76458099999","2003-07-10T00:00:00","4","23.2","-106.4166666","4.0","COLONIA JUAN CARRASCO MAZATLAN SIN., MX","FM-12","99999","V020","260,1,N,0020,1","00540,1,C,N","018000,1,N,1","+0280,1","+0237,1","10119,1","06,0000,9,1","24,0000,9,1",,,,,"05,1,+00540,9,08,9",,,"07,99,1,05,1,02,1,00450,1,02,1,00,1",,"01,9",,"120,M,+0332,1","180,N,+0275,1","99999,9,10115,1","5,1,002,1,+010,1",,,"SYN136AAXX  10001 76458 32468 72602 10280 20237 30115 40119 55002 85220 90000 333 01590 10332 20275 30/// 50641 57851 58010 70000 85818 82461;","Q01  00002PRCP06"
"76458099999","2003-07-10T03:00:00","4","23.2","-106.4166666","4.0","COLONIA JUAN CARRASCO MAZATLAN SIN., MX","FM-12","99999","V020","330,1,N,0020,1","01800,1,9,N","016000,1,N,1","+0282,1","+0240,1","10128,1","06,0000,9,1",,,,,,"07,1,+01800,9,03,9",,,"07,99,1,07,1,00,1,02250,1,05,1,00,1",,"01,9",,,,"99999,9,10123,1","2,1,008,1,+011,1",,,"SYN100AAXX  10031 76458 32866 73302 10282 20240 30123 40128 52008 87050 90250 333 0/090 30/// 58011 87356;","Q01  00002PRCP06"
"76458099999","2003-07-10T15:00:00","4","23.2","-106.4166666","4.0","COLONIA JUAN CARRASCO MAZATLAN SIN., MX","FM-12","99999","V020","340,1,N,0010,1","03600,1,C,N","012000,1,N,1","+0280,1","+0234,1","10132,1","06,0000,9,1",,,,,,"03,1,+00570,9,06,9",,,"07,99,1,03,1,05,1,00450,1,03,1,00,1",,"01,9",,,,"99999,9,10127,1","2,1,015,1,-008,1",,,"SYN106AAXX  10151 76458 32462 73401 10280 20234 30127 40132 52015 83530 91450 333 0/990 30/// 59008 83619 84358;","Q01  00002PRCP06"
"76458099999","2003-07-10T18:00:00","4","23.2","-106.4166666","4.0","COLONIA JUAN CARRASCO MAZATLAN SIN., MX","FM-12","99999","V020","270,1,N,0020,1","03600,1,9,N","018000,1,N,1","+0299,1","+0250,1","10135,1","03,0000,9,1","06,9999,9,9",,,"5,1,06,1","5,1,06,1","01,1,+00600,9,08,9",,,"07,99,1,01,1,01,1,00800,1,03,1,00,1",,"01,9",,"120,M,+0312,1","240,N,+0268,1","99999,9,10131,1","0,1,004,1,+004,1","02,1",,"SYN136AAXX  10181 76458 01568 72702 10299 20250 30131 40135 50004 69901 70255 81130 91748 333 0/69/ 10312 20268 30/// 57869 58004 69907 81820;","Q01  00002PRCP03"
"76458099999","2003-07-11T00:00:00","4","23.2","-106.4166666","4.0","COLONIA JUAN CARRASCO MAZATLAN SIN., MX","FM-12","99999","V020","200,1,N,0030,1","03600,1,C,N","018000,1,N,1","+0308,1","+0243,1","10019,1","06,0000,9,1","24,0000,9,1",,,,,"01,1,+00810,9,09,9","02,1,+02700,9,03,9",,"07,99,1,01,1,03,1,00800,1,03,1,08,1",,"01,9",,"120,M,+0336,1","180,N,+0268,1","99999,9,10095,1","7,1,021,1,-022,1",,,"SYN136AAXX  11001 76458 32568 72003 10308 20243 30095 40019 57021 81338 92350 333 04199 10336 20268 30/// 57913 59022 79999 81927 82359 84276;","Q01  00002PRCP06Q02  00002PRCP24"
"76458099999","2003-07-11T03:00:00","4","23.2","-106.4166666","4.0","COLONIA JUAN CARRASCO MAZATLAN SIN., MX","FM-12","99999","V020","300,1,N,0030,1","99999,9,9,N","016000,1,N,1","+0294,1","+0243,1","10110,1","06,0000,9,1",,,,,,"03,1,+03300,9,03,9",,,"05,99,1,03,1,00,1,99999,9,03,1,02,1",,"01,9",,,,"99999,9,10105,1","2,1,011,1,-018,1",,,"SYN106AAXX  11031 76458 32966 53003 10294 20243 30105 40110 52011 83032 90258 333 0/099 30/// 59018 83361 82079;","Q01  00002PRCP06"
"76458099999","2003-07-11T06:00:00","4","23.2","-106.4166666","4.0","COLONIA JUAN CARRASCO MAZATLAN SIN., MX","FM-12","99999","V020","300,1,N,0030,1","22000,1,9,N","008000,1,N,1","+0290,1","+0270,1","10124,1","06,0000,9,1",,,,,,,,,"04,99,1,99,9,99,9,02250,1,99,9,99,9","0012,9","01,9",,"240,M,+0336,1","240,N,+0268,1","99999,9,10119,1","0,1,014,1,-015,1",,,"SYN112AAXX  11061 76458 32858 43003 10290 20270 30119 50123 52014 84/3/ 90530 333 10336 20268 30/// 55002 59015 84356;","Q01+999990APOSLPQ02+001232APC3  Q03  00002PRCP06"
"76458099999","2003-07-11T09:00:00","4","23.2","-106.4166666","4.0","COLONIA JUAN CARRASCO MAZATLAN SIN., MX","FM-12","99999","V020","330,1,N,0020,1","02400,1,9,N","008000,1,N,1","+0282,1","+0236,1","10118,1","06,0000,9,1",,,,,,"08,1,+02400,9,04,9",,,"08,99,1,08,1,99,9,02250,1,02,1,99,9",,"01,9",,,,"99999,9,10114,1","8,1,005,1,-007,1",,,"SYN094AAXX  11091 76458 32858 83302 10282 20236 30114 40118 58005 88/2/ 90840 333 30/// 59007 88458;","Q01  00002PRCP06"
"76458099999","2003-07-11T15:00:00","4","23.2","-106.4166666","4.0","COLONIA JUAN CARRASCO MAZATLAN SIN., MX","FM-12","99999","V020","100,1,N,0030,1","22000,1,9,N","015000,1,N,1","+0304,1","+0244,1","10135,1","06,0000,9,1",,,,,,"02,1,+00750,9,08,9",,,"03,99,1,02,1,02,1,00800,1,03,1,00,1",,"01,9",,,,"99999,9,10131,1","1,1,016,1,+004,1",,,"SYN112AAXX  11151 76458 32565 31003 10304 20244 30131 40135 51016 82230 91445 333 0/30/ 30/// 57835 58004 82825 81358;","Q01  00002PRCP06"
"76458099999","2003-07-12T03:00:00","4","23.2","-106.4166666","4.0","COLONIA JUAN CARRASCO MAZATLAN SIN., MX","FM-12","99999","V020","320,1,N,0020,1","99999,9,9,N","010000,1,N,1","+0295,1","+0255,1","10125,1","06,0000,9,1",,,,,,"02,1,+00510,9,06,9",,,"06,99,1,02,1,04,1,99999,9,00,1,08,1",,"01,9",,,,"99999,9,10121,1","2,1,012,1,+016,1",,,"SYN112AAXX  12031 76458 32960 63202 10295 20255 30121 40125 52012 82408 90245 333 0/6/9 30/// 57669 58016 82617 84268;","Q01  00002PRCP06"
"76458099999","2003-07-12T15:00:00","4","23.2","-106.4166666","4.0","COLONIA JUAN CARRASCO MAZATLAN SIN., MX","FM-12","99999","V020","280,1,N,0020,1","22000,1,9,N","015000,1,N,1","+0296,1","+0239,1","10145,1","06,0000,9,1",,,,,,"02,1,+00720,9,08,9",,,"02,99,1,02,1,02,1,00800,1,00,1,00,1",,"01,9",,,,"99999,9,10140,1","2,1,012,1,+009,1",,,"SYN106AAXX  12151 76458 32565 22802 10296 20239 30140 40145 52012 82200 91445 333 0/3// 30/// 57833 58009 82824;","Q01  00002PRCP06"
"76458099999","2003-07-12T21:00:00","4","23.2","-106.4166666","4.0","COLONIA JUAN CARRASCO MAZATLAN SIN., MX","FM-12","99999","V020","250,1,N,0040,1","22000,1,9,N","018000,1,N,1","+0318,1","+0232,1","10131,1","06,0000,9,1",,,,,,"01,1,+01080,9,09,9",,,"01,99,1,01,1,03,1,01250,1,00,1,00,1",,"01,9",,,,"99999,9,10127,1","7,1,013,1,+012,1",,,"SYN106AAXX  12211 76458 32668 12504 10318 20232 30127 40131 57013 81300 92045 333 001// 30/// 57916 58012 81936;","Q01  00002PRCP06"
"76458099999","2003-07-13T00:00:00","4","23.2","-106.4166666","4.0","COLONIA JUAN CARRASCO MAZATLAN SIN., MX","FM-12","99999","V020","270,1,N,0030,1","22000,1,9,N","018000,1,N,1","+0300,1","+0229,1","10124,1","06,0000,9,1","24,0000,9,1",,,,,"01,1,+00900,9,09,9","03,1,+01800,9,03,9",,"03,99,1,01,1,03,1,00800,1,05,1,00,1",,"01,9",,"120,M,+0337,1","180,N,+0267,1","99999,9,10120,1","6,1,007,1,+999,9",,,"SYN136AAXX  13001 76458 32568 32703 10300 20229 30120 40124 56007 81350 92350 333 04210 10337 20267 30/// 50701 57923 70000 81930 83356 82461;","Q01  00002PRCP06"
"76458099999","2003-07-13T03:00:00","4","23.2","-106.4166666","4.0","COLONIA JUAN CARRASCO MAZATLAN SIN., MX","FM-12","99999","V020","300,1,N,0020,1","22000,1,9,N","006000,1,N,1","+0292,1","+0229,1","10128,1","06,0000,9,1",,,,,,"02,1,+01800,9,03,9",,,"04,99,1,02,1,00,1,99999,9,03,1,01,1",,"01,9",,,,"99999,9,10124,1","2,1,005,1,+004,1",,,"SYN106AAXX  13031 76458 32956 43002 10292 20229 30124 40128 52005 82031 90250 333 0/019 30/// 58004 82356 81070;","Q01  00002PRCP06"
"76458099999","2003-07-13T09:00:00","4","23.2","-106.4166666","4.0","COLONIA JUAN CARRASCO MAZATLAN SIN., MX","FM-12","99999","V020","999,9,C,0000,1","99999,9,9,N","008000,1,N,1","+0286,1","+0234,1","10138,1","06,0000,9,1",,,,,,"01,1,+01800,9,03,9",,,"06,99,1,01,1,99,9,02250,1,03,1,02,1",,"01,9",,,,"99999,9,10133,1","8,1,008,1,+005,1",,,"SYN100AAXX  13091 76458 32858 60000 10286 20234 30133 40138 58008 81/32 90840 333 30/// 58005 81356 85070;","Q01  00002PRCP06"
"76458099999","2003-07-13T12:00:00","4","23.2","-106.4166666","4.0","COLONIA JUAN CARRASCO MAZATLAN SIN., MX","FM-12","99999","V020","190,1,N,0030,1","22000,1,9,N","005000,1,N,1","+0270,1","+0238,1","10137,1","06,0000,9,1","24,0000,9,1",,,,,"02,1,+01800,9,03,9",,,"03,99,1,02,1,03,1,99999,9,99,9,01,1",,"01,9",,"999,M,+0337,1","120,N,+0267,1","99999,9,10132,1","2,1,001,1,+004,1",,,"SYN124AAXX  13121 76458 32950 31903 10270 20238 30132 40137 52001 82301 91140 333 0/201 10337 20267 30/// 58004 70000 82356 81070;","Q01+000002SCOMCGQ02  00002PRCP06"
"76458099999","2003-07-13T15:00:00","4","23.2","-106.4166666","4.0","COLONIA JUAN CARRASCO MAZATLAN SIN., MX","FM-12","99999","V020","210,1,N,0020,1","22000,1,9,N","018000,1,N,1","+0302,1","+0243,1","10135,1","06,0000,9,1",,,,,,"01,1,+00750,9,08,9",,,"02,99,1,01,1,02,1,00800,1,03,1,00,1",,"01,9",,,,"99999,9,10131,1","7,1,002,1,-009,1",,,"SYN112AAXX  13151 76458 32568 22102 10302 20243 30131 40135 57002 81230 91445 333 0049/ 30/// 57849 59009 81825 81358;","Q01  00002PRCP06"
"76458099999","2003-07-13T18:00:00","4","23.2","-106.4166666","4.0","COLONIA JUAN CARRASCO MAZATLAN SIN., MX","FM-12","99999","V020","230,1,N,0010,1","22000,1,9,N","018000,1,N,1","+0320,1","+0245,1","10124,1","06,0000,9,1",,,,,,,,,"02,99,1,99,9,99,9,00800,1,99,9,99,9",,,,,,"99999,9,10119,1",,,,"SYN056AAXX  13181 76458 32568 22301 10320 20245 30119 40124 5;","Q01  00002PRCP06"
"76458099999","2003-07-13T21:00:00","4","23.2","-106.4166666","4.0","COLONIA JUAN CARRASCO MAZATLAN SIN., MX","FM-12","99999","V020","230,1,N,0030,1","22000,1,9,N","018000,1,N,1","+0318,1","+0232,1","10107,1","06,0000,9,1",,,,,,"01,1,+01020,9,09,9",,,"02,99,1,01,1,03,1,01250,1,00,1,06,1",,"01,9",,,,"99999,9,10103,1","7,1,016,1,-024,1",,,"SYN106AAXX  13211 76458 32668 22303 10318 20232 30103 40107 57016 81306 92045 333 0/109 30/// 59024 81934 81072;","Q01  00002PRCP06"
"76458099999","2003-07-14T00:00:00","4","23.2","-106.4166666","4.0","COLONIA JUAN CARRASCO MAZATLAN SIN., MX","FM-12","99999","V020","270,1,N,0020,1","01800,1,9,N","018000,1,N,1","+0317,1","+0249,1","10106,1","06,0000,9,1","24,0000,9,1",,,,,"06,1,+01800,9,03,9",,,"06,99,1,06,1,00,1,02250,1,05,1,00,1",,"01,9",,"120,M,+0343,1","180,N,+0270,1","99999,9,10101,1","5,1,002,1,-019,1",,,"SYN124AAXX  14001 76458 32868 62702 10317 20249 30101 40106 55002 86050 92358 333 0/010 10343 20270 30/// 50671 59019 70000 86356;","Q01  00002PRCP06"
"76458099999","2003-07-14T03:00:00","4","23.2","-106.4166666","4.0","COLONIA JUAN CARRASCO MAZATLAN SIN., MX","FM-12","99999","V020","330,1,N,0020,1","00480,1,9,N","012000,1,N,1","+0296,1","+0256,1","10116,1","06,0005,9,1",,,,"5,1,03,1","2,1,03,1","07,1,+00480,9,06,9",,,"99,99,9,07,1,05,1,00450,1,00,1,00,1",,"01,9",,,,"99999,9,10112,1","1,1,011,1,-013,1","51,1",,"SYN112AAXX  14031 76458 01462 63302 10296 20256 30112 40116 51011 69951 75152 87500 90250 333 0/200 30/// 59013 87616;","Q01+000062SCOTCV"
"76458099999","2003-07-14T15:00:00","4","23.2","-106.4166666","4.0","COLONIA JUAN CARRASCO MAZATLAN SIN., MX","FM-12","99999","V020","170,1,N,0010,1","22000,1,9,N","015000,1,N,1","+0295,1","+0239,1","10117,1","06,0000,9,1",,,,,,"01,1,+02400,9,03,9",,,"01,99,1,99,9,00,1,99999,9,02,1,00,1",,"01,9",,,,"99999,9,10112,1","2,1,007,1,-019,1",,,"SYN094AAXX  14151 76458 32965 11701 10295 20239 30112 40117 52007 80020 91445 333 30/// 59019 81358;","Q01+000002SCOTLCQ02  00002PRCP06"
"76458099999","2003-07-14T18:00:00","4","23.2","-106.4166666","4.0","COLONIA JUAN CARRASCO MAZATLAN SIN., MX","FM-12","99999","V020","280,1,N,0060,1","22000,1,9,N","020000,1,N,1","+0302,1","+0239,1","10113,1","06,0000,9,1",,,,,,"01,1,+06000,9,00,9",,,"03,99,1,00,1,00,1,99999,9,00,1,01,1",,"01,9",,"120,M,+0343,1","240,N,+0270,1","99999,9,10109,1","7,1,003,1,-009,1",,,"SYN118AAXX  14181 76458 32970 32806 10302 20239 30109 40113 57003 80001 91750 333 0///1 10343 20270 30/// 56009 59009 81070;","Q01  00002PRCP06"
"76458099999","2003-07-14T21:00:00","4","23.2","-106.4166666","4.0","COLONIA JUAN CARRASCO MAZATLAN SIN., MX","FM-12","99999","V020","210,1,N,0020,1","22000,1,9,N","020000,1,N,1","+0316,1","+0263,1","10100,1","06,0000,9,1",,,,,,,,,"03,99,1,99,9,04,1,00800,1,00,1,00,1",,"01,9",,,,"99999,9,10095,1","7,1,007,1,+999,9",,,"SYN100AAXX  14211 76458 32570 32102 10316 20263 30095 40100 57007 84400 92055 333 0410/ 30/// 574// 847//;","Q01+000042SCOTLCQ02  00002PRCP06"
"76458099999","2003-07-15T00:00:00","4","23.2","-106.4166666","4.0","COLONIA JUAN CARRASCO MAZATLAN SIN., MX","FM-12","99999","V020","270,1,N,0030,1","02400,1,9,N","018000,1,N,1","+0315,1","+0258,1","10093,1","06,0000,9,1","24,0012,9,1",,,,,"06,1,+02400,9,03,9",,,"07,99,1,06,1,00,1,02250,1,05,1,01,1",,"01,9",,"120,M,+0345,1","180,N,+0275,1","99999,9,10089,1","7,1,007,1,-012,1",,,"SYN130AAXX  15001 76458 32868 72703 10315 20258 30089 40093 57007 86051 92350 333 0/019 10345 20275 30/// 50491 59012 70012 86358 81079;","Q01  00002PRCP06"
"76458099999","2003-07-15T03:00:00","4","23.2","-106.4166666","4.0","COLONIA JUAN CARRASCO MAZATLAN SIN., MX","FM-12","99999","V020","190,1,N,0010,1","03600,1,C,N","016000,1,N,1","+0301,1","+0246,1","10101,1","03,9999,9,9",,,,,,"02,1,+00690,9,06,9",,,"07,99,1,02,1,04,1,00800,1,05,1,00,1",,"01,9",,,,"99999,9,10097,1","2,1,008,1,-015,1",,,"SYN112AAXX  15031 76458 21566 71901 10301 20246 30097 40101 52008 82450 90250 333 0/110 30/// 59015 69907 82623 85356;","Q01  99992PRCP03"
"76458099999","2003-07-15T06:00:00","4","23.2","-106.4166666","4.0","COLONIA JUAN CARRASCO MAZATLAN SIN., MX","FM-12","99999","V020","190,1,N,0010,1","99999,9,9,N","008000,1,N,1","+0296,1","+0253,1","10120,1","06,0000,9,1",,,,,,,,,"07,99,1,07,1,99,9,02250,1,03,1,99,9","0528,9","01,9",,"240,M,+0345,1","240,N,+0275,1","99999,9,10116,1","2,1,019,1,+015,1",,,"SYN118AAXX  15061 76458 32858 71901 10296 20253 30116 40120 52019 87/3/ 90540 333 10345 20275 30/// 55088 2//// 58015 87356;","Q01  00002PRCP06"
"76458099999","2003-07-15T09:00:00","4","23.2","-106.4166666","4.0","COLONIA JUAN CARRASCO MAZATLAN SIN., MX","FM-12","99999","V020","120,1,N,0010,1","03600,1,C,N","008000,1,N,1","+0292,1","+0255,1","10112,1","06,0000,9,1",,,,,,"03,1,+00450,9,06,9",,,"07,99,1,03,1,05,1,00450,1,03,1,99,9",,"01,9",,,,"99999,9,10108,1","7,1,008,1,+004,1",,,"SYN112AAXX  15091 76458 32458 71201 10292 20255 30108 40112 57008 8353/ 90840 333 0/59/ 30/// 57650 58004 83615 84356;","Q01  00002PRCP06"
"76458099999","2003-07-15T15:00:00","4","23.2","-106.4166666","4.0","COLONIA JUAN CARRASCO MAZATLAN SIN., MX","FM-12","99999","V020","999,9,C,0000,1","22000,1,9,N","012000,1,N,1","+0311,1","+0241,1","10111,1","06,0000,9,1",,,,,,"01,1,+00870,9,08,9",,,"01,99,1,01,1,02,1,00800,1,00,1,00,1",,"01,9",,,,"99999,9,10107,1","2,1,003,1,-005,1",,,"SYN100AAXX  15151 76458 32562 10000 10311 20241 30107 40111 52003 81200 91458 333 0/100 30/// 59005 81829;","Q01  00002PRCP06"
"76458099999","2003-07-15T18:00:00","4","23.2","-106.4166666","4.0","COLONIA JUAN CARRASCO MAZATLAN SIN., MX","FM-12","99999","V020","170,1,N,0040,1","22000,1,9,N","018000,1,N,1","+0325,1","+0250,1","10106,1","06,0000,9,1",,,,,,"01,1,+00930,9,08,9",,,"01,99,1,01,1,02,1,00800,1,00,1,00,1",,"01,9",,"120,M,+0348,1","240,N,+0278,1","99999,9,10102,1","7,1,005,1,-007,1",,,"SYN118AAXX  15181 76458 32568 11704 10325 20250 30102 40106 57005 81200 91747 333 001// 10348 20278 30/// 57816 59007 81831;","Q01  00002PRCP06"
"76458099999","2003-07-16T00:00:00","4","23.2","-106.4166666","4.0","COLONIA JUAN CARRASCO MAZATLAN SIN., MX","FM-12","99999","V020","060,1,N,0040,1","00690,1,C,N","016000,1,N,1","+0266,1","+0211,1","10103,1","06,0000,9,1","24,9999,9,9",,,,,"06,1,+00690,9,06,9",,,"07,99,1,01,1,09,1,00800,1,00,1,00,1",,"01,9",,"120,M,+0350,1","180,N,+9999,9","99999,9,10099,1","3,1,010,1,-010,1",,,"SYN136AAXX  16001 76458 32566 70604 10266 20211 30099 40103 53010 81900 92350 333 07800 10350 20278 30/// 50641 57981 59010 79999 86623 81929;","Q01  00002PRCP06Q02  99992PRCP24Q03 +02782ATMN  "
"76458099999","2003-07-16T03:00:00","4","23.2","-106.4166666","4.0","COLONIA JUAN CARRASCO MAZATLAN SIN., MX","FM-12","99999","V020","120,1,N,0030,1","02100,1,C,N","014000,1,N,1","+0266,1","+0206,1","10097,1","06,0000,9,1",,,,,,"03,1,+01800,9,03,9",,,"07,99,1,07,1,00,1,02250,1,05,1,00,1",,"01,9",,,,"99999,9,10093,1","5,1,006,1,-004,1",,,"SYN106AAXX  16031 76458 32864 71203 10266 20206 30093 40097 55006 87050 90250 333 0/010 30/// 59004 83356 84461;","Q01  00002PRCP06"
"76458099999","2003-07-16T15:00:00","4","23.2","-106.4166666","4.0","COLONIA JUAN CARRASCO MAZATLAN SIN., MX","FM-12","99999","V020","280,1,N,0020,1","22000,1,9,N","015000,1,N,1","+0286,1","+0222,1","10108,1","06,0000,9,1",,,,,,"01,1,+02400,9,03,9",,,"01,99,1,99,9,00,1,99999,9,03,1,00,1",,"01,9",,,,"99999,9,10103,1","2,1,011,1,-004,1",,,"SYN100AAXX  16151 76458 32965 12802 10286 20222 30103 40108 52011 80030 91455 333 0/090 30/// 59004 81358;","Q01+000002SCOTLCQ02  00002PRCP06"
"76458099999","2003-07-16T18:00:00","4","23.2","-106.4166666","4.0","COLONIA JUAN CARRASCO MAZATLAN SIN., MX","FM-12","99999","V020","250,1,N,0030,1","22000,1,9,N","018000,1,N,1","+0310,1","+0243,1","10109,1","06,0000,9,1",,,,,,"01,1,+00840,9,08,9",,,"01,99,1,01,1,02,1,00800,1,00,1,00,1",,"01,9",,"120,M,+0327,1","240,N,+0245,1","99999,9,10104,1","0,1,001,1,+002,1",,,"SYN118AAXX  16181 76458 32568 12503 10310 20243 30104 40109 50001 81200 91747 333 007// 10327 20245 30/// 57876 58002 81828;","Q01  00002PRCP06"
"76458099999","2003-07-16T21:00:00","4","23.2","-106.4166666","4.0","COLONIA JUAN CARRASCO MAZATLAN SIN., MX","FM-12","99999","V020","260,1,N,0030,1","22000,1,9,N","020000,1,N,1","+0316,1","+0245,1","10103,1","06,0000,9,1",,,,,,"01,1,+00900,9,08,9",,,"01,99,1,01,1,02,1,00800,1,00,1,00,1",,"01,9",,,,"99999,9,10099,1","7,1,005,1,+010,1",,,"SYN106AAXX  16211 76458 32570 12603 10316 20245 30099 40103 57005 81200 92045 333 0/1// 30/// 57819 58010 81830;","Q01  00002PRCP06"
"76458099999","2003-07-17T00:00:00","4","23.2","-106.4166666","4.0","COLONIA JUAN CARRASCO MAZATLAN SIN., MX","FM-12","99999","V020","260,1,N,0030,1","22000,1,9,N","020000,1,N,1","+0314,1","+0250,1","10090,1","06,0000,9,1",,,,,,,,,"02,99,1,02,1,09,1,00800,1,00,1,00,1",,"01,9",,"120,M,+0340,1","180,N,+0245,1","99999,9,10085,1","0,1,014,1,-014,1",,,"SYN124AAXX  17001 76458 32570 22603 10314 20250 30085 40090 50014 82900 92355 333 07100 10340 20245 30/// 50611 57912 59014 82927;","Q01  00002PRCP06"
"76458099999","2003-07-17T06:00:00","4","23.2","-106.4166666","4.0","COLONIA JUAN CARRASCO MAZATLAN SIN., MX","FM-12","99999","V020","240,1,N,0010,1","22000,1,9,N","008000,1,N,1","+0290,1","+0250,1","10136,1","06,0000,9,1",,,,,,"01,1,+00510,9,08,9",,,"04,99,1,01,1,01,1,00450,1,03,1,99,9","0708,9","01,9",,"240,M,+0340,1","240,N,+0245,1","99999,9,10131,1","2,1,032,1,+999,9",,,"SYN136AAXX  17061 76458 32458 42401 10290 20250 30131 40136 52032 8113/ 90540 333 0059/ 10340 20245 30/// 55118 21671 57/50 58/// 81817 83356;","Q01  00002PRCP06"
"76458099999","2003-07-17T12:00:00","4","23.2","-106.4166666","4.0","COLONIA JUAN CARRASCO MAZATLAN SIN., MX","FM-12","99999","V020","350,1,N,0020,1","22000,1,9,N","008000,1,N,1","+0278,1","+0247,1","10129,1","06,0000,9,1","24,0000,9,1",,,,,"02,1,+02400,9,03,9",,,"04,99,1,02,1,00,1,99999,9,03,1,08,1",,"01,9","999,+0260,9","999,M,+0340,1","120,N,+0269,1","99999,9,10124,1","3,1,001,1,+032,1",,,"SYN124AAXX  17121 76458 32958 43502 10278 20247 30124 40129 53001 82038 91240 333 0//00 10340 20269 30026 58032 70000 82358 82270;","Q01  00002PRCP06"
"76458099999","2003-07-17T15:00:00","4","23.2","-106.4166666","4.0","COLONIA JUAN CARRASCO MAZATLAN SIN., MX","FM-12","99999","V020","330,1,N,0030,1","02400,1,9,N","013000,1,N,1","+0302,1","+0247,1","10140,1","06,0000,9,1",,,,,,"01,1,+00690,9,08,9","04,1,+02400,9,03,9",,"06,99,1,01,1,02,1,00800,1,03,1,08,1",,"01,9",,,,"99999,9,10136,1","2,1,012,1,+033,1",,,"SYN118AAXX  17151 76458 32563 63303 10302 20247 30136 40140 52012 81238 91450 333 0/400 30/// 57857 58033 81823 84358 81270;","Q01  00002PRCP06"
"76458099999","2003-07-17T18:00:00","4","23.2","-106.4166666","4.0","COLONIA JUAN CARRASCO MAZATLAN SIN., MX","FM-12","99999","V020","250,1,N,0020,1","03600,1,C,N","018000,1,N,1","+0306,1","+0244,1","10147,1","06,0000,9,1",,,,,,"01,1,+00780,9,08,9","02,1,+03600,9,03,9",,"08,99,1,01,1,01,1,00800,1,02,1,00,1",,"01,9",,"120,M,+0327,1","240,N,+0269,1","99999,9,10142,1","2,1,007,1,+038,1",,,"SYN130AAXX  17181 76458 32568 82502 10306 20244 30142 40147 52007 81120 91747 333 0019/ 10327 20269 30/// 57819 58038 81826 82362 85464;","Q01  00002PRCP06"
"76458099999","2003-07-17T21:00:00","4","23.2","-106.4166666","4.0","COLONIA JUAN CARRASCO MAZATLAN SIN., MX","FM-12","99999","V020","240,1,N,0040,1","05400,1,9,N","018000,1,N,1","+0310,1","+0235,1","10137,1","06,0000,9,1",,,,,,"06,1,+05400,9,00,9",,,"06,99,1,00,1,00,1,99999,9,00,1,06,1",,"01,9",,,,"99999,9,10143,1","7,1,009,1,+043,1",,,"SYN106AAXX  17211 76458 32968 62404 10310 20235 30143 40137 57009 80006 92050 333 00/9/ 30/// 57//9 58043 86068;","Q01  00002PRCP06"
"76458099999","2003-07-18T15:00:00","4","23.2","-106.4166666","4.0","COLONIA JUAN CARRASCO MAZATLAN SIN., MX","FM-12","99999","V020","330,1,N,0020,1","02400,1,9,N","015000,1,N,1","+0264,1","+0237,1","10156,1","06,0000,9,1",,,,,,"06,1,+02400,9,03,9",,,"08,99,1,06,1,00,1,99999,9,03,1,08,1",,"01,9",,,,"99999,9,10152,1","4,1,000,1,+016,1",,,"SYN106AAXX  18151 76458 32965 83302 10264 20237 30152 40156 54000 86038 91450 333 0//00 30/// 58016 86358 82270;","Q01  00002PRCP06"
"76458099999","2003-07-19T00:00:00","4","23.2","-106.4166666","4.0","COLONIA JUAN CARRASCO MAZATLAN SIN., MX","FM-12","99999","V020","280,1,N,0030,1","22000,1,9,N","018000,1,N,1","+0302,1","+0247,1","10107,1","06,0000,9,1",,,,,,"03,1,+00690,9,02,9",,,"03,99,1,03,1,02,1,00800,1,03,1,00,1",,"01,9",,"120,M,+0338,1","180,N,+0245,1","99999,9,10103,1","7,1,019,1,-004,1",,,"SYN118AAXX  19001 76458 32568 32803 10302 20247 30103 40107 57019 83230 92355 333 0/190 10338 20245 30/// 59004 83223 83358;","Q01  00002PRCP06"
"76458099999","2003-07-19T03:00:00","4","23.2","-106.4166666","4.0","COLONIA JUAN CARRASCO MAZATLAN SIN., MX","FM-12","99999","V020","340,1,N,0020,1","99999,9,9,N","008000,1,N,1","+0290,1","+0244,1","10143,1","06,0000,9,1",,,,,,"04,1,+02400,9,03,9",,,"07,99,1,99,9,05,1,99999,9,99,9,06,1",,"01,9",,,,"99999,9,10139,1","2,1,013,1,-013,1",,,"SYN106AAXX  19031 76458 32958 73402 10290 20244 30139 40143 52013 80506 90255 333 0/099 30/// 59013 84358 83072;","Q01+000002SCOTLCQ02+000002SCOMCGQ03  00002PRCP06"
"76458099999","2003-07-19T06:00:00","4","23.2","-106.4166666","4.0","COLONIA JUAN CARRASCO MAZATLAN SIN., MX","FM-12","99999","V020","320,1,N,0020,1","99999,9,9,N","008000,1,N,1","+0282,1","+0233,1","10154,1","06,0000,9,1",,,,,,,,,"06,99,1,06,1,99,9,02250,1,03,1,99,9","0228,9","01,9",,"240,M,+0328,1","240,N,+0245,1","99999,9,10150,1","2,1,011,1,-012,1",,,"SYN118AAXX  19061 76458 32858 63202 10282 20233 30150 40154 52011 86/3/ 90540 333 10328 20245 30/// 55038 21199 59012 86356;","Q01  00002PRCP06"
"76458099999","2003-07-19T15:00:00","4","23.2","-106.4166666","4.0","COLONIA JUAN CARRASCO MAZATLAN SIN., MX","FM-12","99999","V020","130,1,N,0020,1","22000,1,9,N","015000,1,N,1","+0294,1","+0242,1","10146,1","06,0000,9,1",,,,,,"01,1,+00660,9,08,9",,,"02,99,1,01,1,02,1,00800,1,00,1,08,1",,"01,9",,,,"99999,9,10142,1","3,1,010,1,-010,1",,,"SYN112AAXX  19151 76458 32565 21302 10294 20242 30142 40146 53010 81208 91445 333 0/4/0 30/// 57846 59010 81822 81270;","Q01  00002PRCP06"
"76458099999","2003-07-19T18:00:00","4","23.2","-106.4166666","4.0","COLONIA JUAN CARRASCO MAZATLAN SIN., MX","FM-12","99999","V020","240,1,N,0040,1","22000,1,9,N","020000,1,N,1","+0308,1","+0250,1","10139,1","06,0000,9,1",,,,,,"02,1,+00750,9,08,9",,,"02,99,1,02,1,08,1,00800,1,00,1,00,1",,"01,9",,"120,M,+0328,1","240,N,+0245,1","99999,9,10134,1","7,1,007,1,+010,1",,,"SYN118AAXX  19181 76458 32570 22404 10308 20250 30134 40139 57007 82800 91755 333 0/2/0 10328 20245 30/// 57156 58010 82825;","Q01  00002PRCP06"
"76458099999","2003-07-19T21:00:00","4","23.2","-106.4166666","4.0","COLONIA JUAN CARRASCO MAZATLAN SIN., MX","FM-12","99999","V020","240,1,N,0030,1","22000,1,9,N","020000,1,N,1","+0318,1","+0240,1","10131,1","06,0000,9,1",,,,,,"01,1,+00750,9,08,9",,,"02,99,1,01,1,08,1,00800,1,00,1,00,1",,"01,9",,,,"99999,9,10127,1","7,1,009,1,-008,1",,,"SYN106AAXX  19211 76458 32570 22403 10318 20240 30127 40131 57009 81800 92050 333 0/9// 30/// 57900 59008 81825;","Q01  00002PRCP06"
"76458099999","2003-07-20T03:00:00","4","23.2","-106.4166666","4.0","COLONIA JUAN CARRASCO MAZATLAN SIN., MX","FM-12","99999","V020","330,1,N,0020,1","99999,9,9,N","018000,1,N,1","+0271,1","+0221,1","10153,1","03,0020,9,1",,,,,,"03,1,+02400,9,03,9",,,"07,99,1,99,9,99,9,02250,1,99,9,99,9",,"09,9",,,,"99999,9,10131,1",,,,"SYN119AAXX  20031 76458 21868 73302 10271 20221 30131 401535 55003 70252 87050 90240 333 0/090 31/// 50908 60027 83358 84461;",
"76458099999","2003-07-21T00:00:00","4","23.2","-106.4166666","4.0","COLONIA JUAN CARRASCO MAZATLAN SIN., MX","FM-12","99999","V020","240,1,N,0040,1","22000,1,9,N","018000,1,N,1","+0312,1","+0251,1","10120,1","06,0000,9,1","24,0024,9,1",,,,,"01,1,+00690,9,08,9",,,"04,99,1,01,1,02,1,00800,1,99,9,06,1",,"01,9",,"120,M,+0340,1","180,N,+0252,1","99999,9,10116,1","7,1,019,1,-012,1",,,"SYN130AAXX  21001 76458 32568 42404 10312 20251 30116 40120 57019 812/6 92340 333 0/1/9 10340 20252 30/// 5791/ 59012 70024 81823 83070;","Q01  00002PRCP06"
"76458099999","2003-07-21T03:00:00","4","23.2","-106.4166666","4.0","COLONIA JUAN CARRASCO MAZATLAN SIN., MX","FM-12","99999","V020","230,1,N,0010,1","22000,1,9,N","008000,1,N,1","+0288,1","+0239,1","10134,1","06,0000,9,1",,,,,,"01,1,+00600,9,09,9","02,1,+02400,9,04,9",,"04,99,1,01,1,09,1,00800,1,02,1,01,1",,"01,9",,,,"99999,9,10130,1","2,1,014,1,-001,1",,,"SYN118AAXX  21031 76458 32558 42301 10288 20239 30130 40134 52014 81921 90240 333 092// 30/// 57920 59001 81920 82458 81070;","Q01  00002PRCP06"
"76458099999","2003-07-21T06:00:00","4","23.2","-106.4166666","4.0","COLONIA JUAN CARRASCO MAZATLAN SIN., MX","FM-12","99999","V020","330,1,N,0010,1","03600,1,9,N","010000,1,N,1","+0290,1","+0213,1","10136,1","06,0000,9,1",,,,,,"01,1,+00960,9,06,9",,,"06,99,1,01,1,04,1,00800,1,03,1,00,1","0576,9","01,9",,"240,M,+0340,1","240,N,+0252,1","99999,9,10132,1","0,1,002,1,-011,1",,,"SYN130AAXX  21061 76458 32560 63301 10290 20213 30132 40136 50002 81430 90600 333 0/990 10340 20252 30/// 55096 21014 59011 81632 85358;","Q01  00002PRCP06"
"76458099999","2003-07-21T09:00:00","4","23.2","-106.4166666","4.0","COLONIA JUAN CARRASCO MAZATLAN SIN., MX","FM-12","99999","V020","330,1,N,0010,1","22000,1,9,N","010000,1,N,1","+0274,1","+0218,1","10131,1","06,0000,9,1",,,,,,"03,1,+02400,9,03,9",,,"03,99,1,03,1,00,1,99999,9,03,1,00,1",,"01,9",,,,"99999,9,10127,1","8,1,005,1,-002,1",,,"SYN100AAXX  21091 76458 32960 33301 10274 20218 30127 40131 58005 83030 90850 333 0/090 30/// 59002 83358;","Q01  00002PRCP06"
"76458099999","2003-07-21T15:00:00","4","23.2","-106.4166666","4.0","COLONIA JUAN CARRASCO MAZATLAN SIN., MX","FM-12","99999","V020","360,1,N,0020,1","22000,1,9,N","015000,1,N,1","+0293,1","+0219,1","10133,1","06,0000,9,1",,,,,,"01,1,+02400,9,03,9",,,"02,99,1,01,1,00,1,99999,9,99,9,02,1",,"01,9",,,,"99999,9,10128,1","1,1,001,1,+999,9",,,"SYN100AAXX  21151 76458 32965 23602 10293 20219 30128 40133 51001 81002 91440 333 0/0// 30/// 81358 81070;","Q01+000002SCOMCGQ02  00002PRCP06"
"76458099999","2003-07-21T21:00:00","4","23.2","-106.4166666","4.0","COLONIA JUAN CARRASCO MAZATLAN SIN., MX","FM-12","99999","V020","240,1,N,0030,1","22000,1,9,N","020000,1,N,1","+0326,1","+0255,1","10106,1","06,0000,9,1",,,,,,"01,1,+00750,9,08,9",,,"01,99,1,01,1,08,1,00800,1,00,1,00,1",,"01,9",,,,"99999,9,10102,1","7,1,032,1,-032,1",,,"SYN100AAXX  21211 76458 32570 12403 10326 20255 30102 40106 57032 81800 92045 333 0/1// 30/// 59032 81825;","Q01  00002PRCP06"
"76458099999","2003-07-22T09:00:00","4","23.2","-106.4166666","4.0","COLONIA JUAN CARRASCO MAZATLAN SIN., MX","FM-12","99999","V020","360,1,N,0010,1","22000,1,9,N","010000,1,N,1","+0288,1","+0256,1","10117,1","06,0000,9,1",,,,,,"00,1,+99999,9,99,9",,,"00,99,1,00,1,00,1,99999,9,00,1,00,1",,"01,9",,,,"99999,9,10112,1","7,1,005,1,-015,1",,,"SYN082AAXX  22091 76458 32960 03601 10288 20256 30112 40117 57005 90900 333 30/// 59015;","Q01  00002PRCP06"
"76458099999","2003-07-23T00:00:00","4","23.2","-106.4166666","4.0","COLONIA JUAN CARRASCO MAZATLAN SIN., MX","FM-12","99999","V020","270,1,N,0020,1","22000,1,9,N","020000,1,N,1","+0321,1","+0263,1","10097,1","06,0000,9,1","24,0000,9,1",,,,,"01,1,+00750,9,09,9",,,"05,99,1,01,1,03,1,00800,1,00,1,04,1",,"01,9",,"120,M,+0343,1","180,N,+0272,1","99999,9,10093,1","5,1,024,1,-002,1",,,"SYN136AAXX  23001 76458 32570 52702 10321 20263 30093 40097 55024 81304 92350 333 07109 10343 20272 30/// 50641 57912 59002 70000 81925 84079;","Q01  00002PRCP06"
"76458099999","2003-07-23T12:00:00","4","23.2","-106.4166666","4.0","COLONIA JUAN CARRASCO MAZATLAN SIN., MX","FM-12","99999","V020","300,1,N,0010,1","22000,1,9,N","008000,1,N,1","+0300,1","+0261,1","10110,1","06,0000,9,1","24,0000,9,1",,,,,"04,1,+00480,9,06,9",,,"04,99,1,04,1,05,1,00450,1,00,1,00,1",,"01,9","999,+0280,9","999,M,+0343,1","120,N,+0296,1","99999,9,10105,1","2,1,002,1,-010,1",,,"SYN118AAXX  23121 76458 32458 43001 10300 20261 30105 40110 52002 84500 91150 333 0/300 10343 20296 30028 59010 70000 84616;","Q01  00002PRCP06"
"76458099999","2003-07-23T15:00:00","4","23.2","-106.4166666","4.0","COLONIA JUAN CARRASCO MAZATLAN SIN., MX","FM-12","99999","V020","310,1,N,0020,1","03600,1,C,N","013000,1,N,1","+0303,1","+0265,1","10121,1","06,0000,9,1",,,,,,"02,1,+00480,9,08,9",,,"06,99,1,02,1,02,1,00450,1,03,1,99,9",,"01,9",,,,"99999,9,10117,1","2,1,012,1,-010,1",,,"SYN112AAXX  23151 76458 32463 63102 10303 20265 30117 40121 52012 8223/ 91450 333 0/30/ 30/// 57853 59010 82816 84358;","Q01  00002PRCP06"
"76458099999","2003-07-23T21:00:00","4","23.2","-106.4166666","4.0","COLONIA JUAN CARRASCO MAZATLAN SIN., MX","FM-12","99999","V020","160,1,N,0040,1","00930,1,9,N","015000,1,N,1","+0312,1","+0237,1","10130,1","06,0000,9,1",,,,,,"07,1,+00930,9,06,9",,,"07,99,1,07,1,05,1,00800,1,00,1,00,1",,"01,9",,,,"99999,9,10125,1","2,1,003,1,+009,1",,,"SYN100AAXX  23211 76458 32565 71604 10312 20237 30125 40130 52003 87500 92050 333 0/300 30/// 58009 87631;","Q01  00002PRCP06"
"76458099999","2003-07-24T03:00:00","4","23.2","-106.4166666","4.0","COLONIA JUAN CARRASCO MAZATLAN SIN., MX","FM-12","99999","V020","090,1,N,0020,1","03600,1,9,N","016000,1,N,1","+0266,1","+0230,1","10112,1","03,0180,9,1",,,,"5,1,03,1","5,1,03,1","07,1,+03600,9,04,9",,,"07,99,1,07,1,00,1,99999,9,02,1,00,1",,"09,9",,,,"99999,9,10108,1","5,1,018,1,+007,1","02,1",,"SYN112AAXX  24031 76458 21966 70902 10266 20230 30108 40112 55018 70255 87020 90255 333 0/090 31/// 58007 60187 87462;",
"76458099999","2003-07-24T15:00:00","4","23.2","-106.4166666","4.0","COLONIA JUAN CARRASCO MAZATLAN SIN., MX","FM-12","99999","V020","090,1,N,0010,1","22000,1,9,N","015000,1,N,1","+0294,1","+0240,1","10137,1","06,0000,9,1",,,,,,"01,1,+02400,9,03,9",,,"01,99,1,01,1,00,1,99999,9,03,1,00,1",,"01,9",,,,"99999,9,10132,1","2,1,017,1,+015,1",,,"SYN100AAXX  24151 76458 32965 10901 10294 20240 30132 40137 52017 81030 91451 333 0/090 30/// 58015 81358;","Q01  00002PRCP06"
"76458099999","2003-07-24T18:00:00","4","23.2","-106.4166666","4.0","COLONIA JUAN CARRASCO MAZATLAN SIN., MX","FM-12","99999","V020","180,1,N,0030,1","22000,1,9,N","008000,1,N,1","+0318,1","+0240,1","10132,1","06,0000,9,1",,,,,,"02,1,+00750,9,08,9",,,"02,99,1,02,1,01,1,00800,1,00,1,00,1",,"01,9",,"120,M,+0352,1","240,N,+0290,1","99999,9,10128,1","7,1,004,1,+006,1",,,"SYN112AAXX  24181 76458 32558 21803 10318 20240 30128 40132 57004 82100 91750 333 0/1// 10352 20290 30/// 58006 82825;","Q01  00002PRCP06"
"76458099999","2003-07-24T21:00:00","4","23.2","-106.4166666","4.0","COLONIA JUAN CARRASCO MAZATLAN SIN., MX","FM-12","99999","V020","240,1,N,0030,1","22000,1,9,N","020000,1,N,1","+0320,1","+0250,1","10120,1","06,0000,9,1",,,,,,"02,1,+00750,9,08,9",,,"02,99,1,02,1,02,1,00800,1,00,1,01,1",,"01,9",,,,"99999,9,10116,1","7,1,004,1,-013,1",,,"SYN106AAXX  24211 76458 32570 22403 10320 20250 30116 40120 57004 82201 92050 333 0/1// 30/// 59013 82825 81070;","Q01  00002PRCP06"
"76458099999","2003-07-25T15:00:00","4","23.2","-106.4166666","4.0","COLONIA JUAN CARRASCO MAZATLAN SIN., MX","FM-12","99999","V020","330,1,N,0020,1","22000,1,9,N","015000,1,N,1","+0286,1","+0229,1","10125,1","06,0000,9,1",,,,,,"01,1,+00720,9,08,9",,,"02,99,1,01,1,02,1,00800,1,00,1,02,1",,"01,9",,,,"99999,9,10121,1","3,1,007,1,-012,1",,,"SYN112AAXX  25151 76458 32565 23302 10286 20229 30121 40125 53007 81202 91450 333 0/4/0 30/// 57845 59012 81824 81070;","Q01  00002PRCP06"
"76458099999","2003-07-25T18:00:00","4","23.2","-106.4166666","4.0","COLONIA JUAN CARRASCO MAZATLAN SIN., MX","FM-12","99999","V020","240,1,N,0030,1","22000,1,9,N","020000,1,N,1","+0314,1","+0236,1","10131,1","06,0000,9,1",,,,,,"02,1,+00750,9,08,9",,,"03,99,1,02,1,02,1,01250,1,03,1,99,9",,"01,9",,"120,M,+0346,1","240,N,+0256,1","99999,9,10128,1","2,1,005,1,+999,9",,,"SYN118AAXX  25181 76458 32670 32403 10314 20236 30128 40131 52005 8223/ 91755 333 0/13/ 10346 20256 30/// 58/// 82825 81357;","Q01  00002PRCP06"
"76458099999","2003-07-26T00:00:00","4","23.2","-106.4166666","4.0","COLONIA JUAN CARRASCO MAZATLAN SIN., MX","FM-12","99999","V020","300,1,N,0020,1","03600,1,9,N","015000,1,N,1","+0302,1","+0248,1","10114,1","06,0000,9,1","24,0000,9,1",,,,,"02,1,+00660,9,08,9",,,"06,99,1,02,1,02,1,00800,1,05,1,00,1",,"01,9",,"120,M,+0348,1","180,N,+0250,1","99999,9,10109,1","7,1,008,1,+009,1",,,"SYN124AAXX  26001 76458 32565 63002 10302 20248 30109 40114 57008 82250 92350 333 0/990 10348 20250 30/// 58009 70000 82822 84622;","Q01  00002PRCP06"
"76458099999","2003-07-26T15:00:00","4","23.2","-106.4166666","4.0","COLONIA JUAN CARRASCO MAZATLAN SIN., MX","FM-12","99999","V020","350,1,N,0010,1","02400,1,9,N","015000,1,N,1","+0287,1","+0219,1","10135,1","06,0000,9,1",,,,,,"05,1,+02400,9,03,9",,,"07,99,1,05,1,00,1,99999,9,03,1,05,1",,"01,9",,,,"99999,9,10130,1","1,1,013,1,+009,1",,,"SYN106AAXX  26151 76458 32965 73501 10287 20219 30130 40135 51013 85035 91450 333 0//00 30/// 58009 85358 82270;","Q01  00002PRCP06"
"76458099999","2003-07-26T18:00:00","4","23.2","-106.4166666","4.0","COLONIA JUAN CARRASCO MAZATLAN SIN., MX","FM-12","99999","V020","240,1,N,0030,1","99999,9,9,N","020000,1,N,1","+0314,1","+0237,1","10142,1","06,0000,9,1",,,,,,"01,1,+00750,9,08,9","02,1,+02400,9,03,9",,"05,99,1,02,1,99,9,99999,9,03,1,05,1",,"01,9",,"120,M,+0348,1","240,N,+0250,1","99999,9,10137,1","2,1,007,1,+009,1",,,"SYN124AAXX  26181 76458 32970 52403 10314 20237 30137 40142 52007 82035 91750 333 0//00 10348 20250 30/// 58009 81825 82358 82070;","Q01+000002SCOLCGQ02  00002PRCP06"
"76458099999","2003-07-26T21:00:00","4","23.2","-106.4166666","4.0","COLONIA JUAN CARRASCO MAZATLAN SIN., MX","FM-12","99999","V020","240,1,N,0030,1","22000,1,9,N","020000,1,N,1","+0320,1","+0245,1","10121,1","06,0000,9,1",,,,,,"03,1,+01050,9,08,9",,,"03,99,1,03,1,05,1,00800,1,03,1,99,9",,"01,9",,,,"99999,9,10117,1","7,1,011,1,-001,1",,,"SYN106AAXX  26211 76458 32570 32403 10320 20245 30117 40121 57011 8353/ 92050 333 0/13/ 30/// 59001 83835 81358;","Q01  00002PRCP06"
"76458099999","2003-07-27T00:00:00","4","23.2","-106.4166666","4.0","COLONIA JUAN CARRASCO MAZATLAN SIN., MX","FM-12","99999","V020","290,1,N,0030,1","22000,1,9,N","020000,1,N,1","+0319,1","+0245,1","10126,1","06,0000,9,1","24,0000,9,1",,,,,"02,1,+00930,9,09,9",,,"03,99,1,02,1,09,1,00800,1,00,1,01,1",,"01,9",,"120,M,+0342,1","180,N,+0253,1","99999,9,10121,1","7,1,009,1,+012,1",,,"SYN136AAXX  27001 76458 32570 32903 10319 20245 30121 40126 57009 82901 92350 333 07209 10342 20253 30/// 50661 57920 58012 70000 82931 81079;","Q01  00002PRCP06"
"76458099999","2003-07-27T15:00:00","4","23.2","-106.4166666","4.0","COLONIA JUAN CARRASCO MAZATLAN SIN., MX","FM-12","99999","V020","999,9,C,0000,1","22000,1,9,N","015000,1,N,1","+0293,1","+0219,1","10147,1","06,0000,9,1",,,,,,"02,1,+06600,9,00,9",,,"02,99,1,00,1,00,1,99999,9,00,1,06,1",,"01,9",,,,"99999,9,10143,1","2,1,012,1,+013,1",,,"SYN100AAXX  27151 76458 32965 20000 10293 20219 30143 40147 52012 80006 91450 333 0/009 30/// 58013 82072;","Q01  00002PRCP06"
"76458099999","2003-07-27T18:00:00","4","23.2","-106.4166666","4.0","COLONIA JUAN CARRASCO MAZATLAN SIN., MX","FM-12","99999","V020","240,1,N,0040,1","22000,1,9,N","020000,1,N,1","+0312,1","+0248,1","10145,1","06,0000,9,1",,,,,,"02,1,+00750,9,08,9",,,"03,99,1,02,1,05,1,00800,1,00,1,01,1",,"01,9",,"120,M,+0342,1","240,N,+0253,1","99999,9,10141,1","7,1,001,1,+004,1",,,"SYN118AAXX  27181 76458 32570 32404 10312 20248 30141 40145 57001 82501 91750 333 0/1/9 10342 20253 30/// 58004 82825 81071;","Q01  00002PRCP06"
"76458099999","2003-07-27T21:00:00","4","23.2","-106.4166666","4.0","COLONIA JUAN CARRASCO MAZATLAN SIN., MX","FM-12","99999","V020","240,1,N,0030,1","22000,1,9,N","020000,1,N,1","+0320,1","+0254,1","10137,1","06,0000,9,1",,,,,,"02,1,+00750,9,08,9",,,"03,99,1,02,1,05,1,99999,9,00,1,01,1",,"01,9",,,,"99999,9,10133,1","7,1,004,1,+003,1",,,"SYN106AAXX  27211 76458 32970 32403 10320 20254 30133 40137 57004 82501 92050 333 0/1// 30/// 58003 82825 81070;","Q01  00002PRCP06"
"76458099999","2003-07-28T00:00:00","4","23.2","-106.4166666","4.0","COLONIA JUAN CARRASCO MAZATLAN SIN., MX","FM-12","99999","V020","270,1,N,0030,1","00720,1,9,N","018000,1,N,1","+0310,1","+0252,1","10125,1","06,0000,9,1","24,0000,9,1",,,,,"06,1,+00720,9,08,9",,,"07,99,1,07,1,03,1,00800,1,00,1,00,1",,"01,9",,"120,M,+0340,1","180,N,+0258,1","99999,9,10120,1","5,1,013,1,-001,1",,,"SYN130AAXX  28001 76458 32568 72703 10310 20252 30120 40125 55013 87300 92358 333 04100 10340 20258 30/// 50671 59001 70000 86824 81940;","Q01  00002PRCP06"
"76458099999","2003-07-28T03:00:00","4","23.2","-106.4166666","4.0","COLONIA JUAN CARRASCO MAZATLAN SIN., MX","FM-12","99999","V020","320,1,N,0020,1","22000,1,9,N","016000,1,N,1","+0295,1","+0243,1","10135,1","06,0000,9,1",,,,,,"03,1,+00660,9,06,9",,,"04,99,1,04,1,09,1,00800,1,00,1,00,1",,"01,9",,,,"99999,9,10131,1","2,1,010,1,+000,1",,,"SYN112AAXX  28031 76458 32566 43202 10295 20243 30131 40135 52010 84900 90250 333 07300 30/// 57933 59000 83622 81938;","Q01  00002PRCP06"
"76458099999","2003-07-28T21:00:00","4","23.2","-106.4166666","4.0","COLONIA JUAN CARRASCO MAZATLAN SIN., MX","FM-12","99999","V020","240,1,N,0040,1","22000,1,9,N","020000,1,N,1","+0318,1","+0268,1","10130,1","06,0000,9,1",,,,,,"01,1,+01050,9,08,9",,,"01,99,1,01,1,08,1,00800,1,00,1,00,1",,"01,9",,,,"99999,9,10126,1","6,1,008,1,-007,1",,,"SYN100AAXX  28211 76458 32570 12404 10318 20268 30126 40130 56008 81800 92050 333 0/1// 30/// 59007 81835;","Q01  00002PRCP06"
"76458099999","2003-07-29T00:00:00","4","23.2","-106.4166666","4.0","COLONIA JUAN CARRASCO MAZATLAN SIN., MX","FM-12","99999","V020","270,1,N,0050,1","22000,1,9,N","020000,1,N,1","+0312,1","+0245,1","10112,1","06,0000,9,1","24,0000,9,1",,,,,"01,1,+99999,9,09,9",,,"01,99,1,01,1,03,1,00800,1,99,9,99,9",,"01,9",,"120,M,+0340,1","180,N,+0256,1","99999,9,10108,1","7,1,018,1,-013,1",,,"SYN129AAXX  29001 76458 32570 12705 10312 20245 30108 40112 57018 813// 92340 333 0/1// 10340 20256 30/// 50671 57913 59013 70000 8198;","Q01  00002PRCP06"
"76458099999","2003-07-29T06:00:00","4","23.2","-106.4166666","4.0","COLONIA JUAN CARRASCO MAZATLAN SIN., MX","FM-12","99999","V020","250,1,N,0020,1","00630,1,C,N","010000,1,N,1","+0295,1","+0246,1","10148,1","06,0000,9,1",,,,,,"06,1,+00630,9,08,9",,,"07,99,1,07,1,09,1,00800,1,00,1,00,1","0684,9","01,9",,"240,M,+0340,1","240,N,+0256,1","99999,9,10144,1","2,1,016,1,+000,1",,,"SYN136AAXX  29060 76458 32560 72502 10295 20246 30144 40148 52016 87900 90550 333 07400 10340 20256 30/// 55114 21215 57945 58000 86821 81933;","Q01  00002PRCP06"
"76458099999","2003-07-29T09:00:00","4","23.2","-106.4166666","4.0","COLONIA JUAN CARRASCO MAZATLAN SIN., MX","FM-12","99999","V020","360,1,N,0020,1","22000,1,9,N","016000,1,N,1","+0254,1","+0233,1","10145,1","03,0190,9,1",,,,"8,1,03,1","2,1,03,1","02,1,+00270,9,06,9",,,"04,99,1,04,1,09,1,00250,1,00,1,00,1",,"11,9",,,,"99999,9,10141,1","8,1,003,1,-004,1","01,1",,"SYN124AAXX  29091 76458 21366 43602 10254 20233 30141 40145 58003 70182 84900 90850 333 09700 32/// 57971 59004 60197 82609 82924;",
"76458099999","2003-07-29T15:00:00","4","23.2","-106.4166666","4.0","COLONIA JUAN CARRASCO MAZATLAN SIN., MX","FM-12","99999","V020","350,1,N,0020,1","22000,1,9,N","018000,1,N,1","+0278,1","+0225,1","10141,1","06,0000,9,1",,,,,,"01,1,+00660,9,09,9",,,"02,99,1,01,1,03,1,00800,1,00,1,01,1",,"01,9",,,,"99999,9,10136,1","1,1,007,1,-006,1",,,"SYN112AAXX  29151 76458 32568 23502 10278 20225 30136 40141 51007 81301 91440 333 0/4/0 30/// 57943 59006 81922 81070;","Q01  00002PRCP06"
"76458099999","2003-07-29T18:00:00","4","23.2","-106.4166666","4.0","COLONIA JUAN CARRASCO MAZATLAN SIN., MX","FM-12","99999","V020","240,1,N,0030,1","22000,1,9,N","020000,1,N,1","+0312,1","+0237,1","10139,1","06,0000,9,1",,,,,,"01,1,+00750,9,08,9",,,"03,99,1,01,1,05,1,99999,9,00,1,01,1",,"01,9",,"120,M,+0340,1","240,N,+0256,1","99999,9,10135,1","6,1,001,1,-001,1",,,"SYN118AAXX  29181 76458 32970 32403 10312 20237 30135 40139 56001 81501 91750 333 0/1/0 10340 20256 30/// 59001 81825 82070;","Q01  00002PRCP06"
"76458099999","2003-07-29T21:00:00","4","23.2","-106.4166666","4.0","COLONIA JUAN CARRASCO MAZATLAN SIN., MX","FM-12","99999","V020","240,1,N,0030,1","02100,1,9,N","020000,1,N,1","+0316,1","+0231,1","10128,1","06,0000,9,1",,,,,,"02,1,+00750,9,08,9","03,1,+02100,9,03,9",,"06,99,1,02,1,05,1,00800,1,03,1,01,1",,"01,9",,,,"99999,9,10124,1","6,1,014,1,-006,1",,,"SYN112AAXX  29211 76458 32570 62403 10316 20231 30124 40128 56014 82531 92050 333 0/130 30/// 59006 82825 83357 81070;","Q01  00002PRCP06"
"76458099999","2003-07-30T00:00:00","4","23.2","-106.4166666","4.0","COLONIA JUAN CARRASCO MAZATLAN SIN., MX","FM-12","99999","V020","250,1,N,0020,1","03600,1,9,N","020000,1,N,1","+0304,1","+0248,1","10114,1","06,0000,9,1","24,0186,9,1",,,,,"02,1,+00690,9,06,9",,,"07,99,1,03,1,03,1,00800,1,05,1,00,1",,"01,9",,"120,M,+0335,1","180,N,+0240,1","99999,9,10109,1","7,1,015,1,+002,1",,,"SYN136AAXX  30001 76458 32570 72502 10304 20248 30109 40114 57015 83350 92350 333 04490 10335 20240 30/// 50581 57945 58002 70186 82623 81930;","Q01  00002PRCP06"
"76458099999","2003-07-30T03:00:00","4","23.2","-106.4166666","4.0","COLONIA JUAN CARRASCO MAZATLAN SIN., MX","FM-12","99999","V020","270,1,N,0020,1","22000,1,9,N","016000,1,N,1","+0294,1","+0237,1","10124,1","06,0000,9,1",,,,,,"02,1,+00720,9,09,9",,,"04,99,1,02,1,09,1,00800,1,05,1,00,1",,"01,9",,,,"99999,9,10120,1","2,1,010,1,-008,1",,,"SYN112AAXX  30031 76458 32566 42702 10294 20237 30120 40124 52010 82950 90250 333 07190 30/// 57911 59008 82924 82359;","Q01  00002PRCP06"
"76458099999","2003-07-30T09:00:00","4","23.2","-106.4166666","4.0","COLONIA JUAN CARRASCO MAZATLAN SIN., MX","FM-12","99999","V020","999,9,C,0000,1","22000,1,9,N","008000,1,N,1","+0274,1","+0212,1","10140,1","06,0000,9,1",,,,,,"03,1,+02400,9,05,9",,,"03,99,1,99,9,00,1,99999,9,05,1,00,1",,"01,9",,,,"99999,9,10136,1","0,1,003,1,-003,1",,,"SYN100AAXX  30091 76458 32958 30000 10274 20212 30136 40140 50003 80050 90856 333 0/090 30/// 59003 83558;","Q01+000002SCOTLCQ02  00002PRCP06"
"76458099999","2003-07-30T15:00:00","4","23.2","-106.4166666","4.0","COLONIA JUAN CARRASCO MAZATLAN SIN., MX","FM-12","99999","V020","120,1,N,0010,1","09000,1,C,N","015000,1,N,1","+0290,1","+0226,1","10140,1","06,0000,9,1",,,,,,"01,1,+00780,9,08,9","03,1,+02400,9,03,9",,"05,99,1,01,1,02,1,01250,1,03,1,02,1",,"01,9",,,,"99999,9,10135,1","1,1,008,1,-001,1",,,"SYN118AAXX  30151 76458 32665 51201 10290 20226 30135 40140 51008 81232 91445 333 0/500 30/// 57854 59001 81826 83358 81070;","Q01  00002PRCP06"
"76458099999","2003-07-30T21:00:00","4","23.2","-106.4166666","4.0","COLONIA JUAN CARRASCO MAZATLAN SIN., MX","FM-12","99999","V020","260,1,N,0030,1","03600,1,C,N","020000,1,N,1","+0314,1","+0250,1","10131,1","06,0000,9,1",,,,,,"02,1,+00810,9,08,9",,,"07,99,1,02,1,02,1,00800,1,03,1,00,1",,"01,9",,,,"99999,9,10127,1","7,1,017,1,+003,1",,,"SYN106AAXX  30211 76458 32570 72603 10314 20250 30127 40131 57017 82230 92055 333 0/590 30/// 58003 82827 85358;","Q01  00002PRCP06"
"76458099999","2003-07-31T00:00:00","4","23.2","-106.4166666","4.0","COLONIA JUAN CARRASCO MAZATLAN SIN., MX","FM-12","99999","V020","260,1,N,0040,1","22000,1,9,N","020000,1,N,1","+0341,1","+0239,1","10125,1","06,0000,9,1","24,0000,9,1",,,,,"01,1,+00930,9,09,9",,,"04,99,1,01,1,09,1,00800,1,99,9,09,1",,"01,9",,"120,M,+0338,1","180,N,+0260,1","99999,9,10120,1","7,1,007,1,+011,1",,,"SYN130AAXX  31001 76458 32570 42604 10341 20239 30120 40125 57007 819/9 92340 333 0/2/9 10338 20260 30/// 50581 58011 70000 81931 83070;","Q01  00002PRCP06"
"76458099999","2003-07-31T15:00:00","4","23.2","-106.4166666","4.0","COLONIA JUAN CARRASCO MAZATLAN SIN., MX","FM-12","99999","V020","070,1,N,0020,1","22000,1,9,N","018000,1,N,1","+0290,1","+0236,1","10141,1","06,0000,9,1",,,,,,"01,1,+00660,9,02,9","01,1,+02400,9,03,9",,"04,99,1,01,1,02,1,00800,1,03,1,06,1",,"01,9",,,,"99999,9,10136,1","2,1,005,1,+001,1",,,"SYN112AAXX  31151 76458 32568 40702 10290 20236 30136 40141 52005 81236 91450 333 0/399 30/// 58001 81222 81358 82072;","Q01  00002PRCP06"
"76458099999","2003-07-31T18:00:00","4","23.2","-106.4166666","4.0","COLONIA JUAN CARRASCO MAZATLAN SIN., MX","FM-12","99999","V020","240,1,N,0030,1","22000,1,9,N","020000,1,N,1","+0312,1","+0247,1","10142,1","06,0000,9,1",,,,,,"02,1,+00810,9,08,9",,,"04,99,1,02,1,02,1,00800,1,00,1,02,1",,"01,9",,"120,M,+0330,1","240,N,+0261,1","99999,9,10137,1","4,1,000,1,-006,1",,,"SYN124AAXX  31181 76458 32570 42403 10312 20247 30137 40142 54001 82202 91750 333 04109 10330 20261 30/// 57811 59006 82827 82079;","Q01  00002PRCP06"
"76458099999","2003-07-31T21:00:00","4","23.2","-106.4166666","4.0","COLONIA JUAN CARRASCO MAZATLAN SIN., MX","FM-12","99999","V020","240,1,N,0030,1","22000,1,9,N","020000,1,N,1","+0326,1","+0245,1","10133,1","06,0000,9,1",,,,,,"02,1,+01020,9,09,9",,,"03,99,1,02,1,09,1,01250,1,00,1,02,1",,"01,9",,,,"99999,9,10129,1","7,1,008,1,+002,1",,,"SYN112AAXX  31211 76458 32670 32403 10326 20245 30129 40133 57008 82902 92050 333 07109 30/// 57911 58002 82934 81079;","Q01  00002PRCP06"
"76458099999","2003-08-01T00:00:00","4","23.2","-106.4166666","4.0","COLONIA JUAN CARRASCO MAZATLAN SIN., MX","FM-12","99999","V020","260,1,N,0030,1","09000,1,9,N","020000,1,N,1","+0314,1","+0247,1","10132,1","06,0000,9,1",,,,,,"01,1,+00600,9,08,9","01,1,+00840,9,09,9",,"05,99,1,01,1,03,1,00800,1,02,1,01,1",,"01,9",,"120,M,+0340,1","180,N,+0261,1","99999,9,10128,1","0,1,001,1,+008,1",,,"SYN136AAXX  01001 76458 32570 52603 10314 20247 30128 40132 50001 81321 92340 333 0/299 10340 20261 30/// 50511 57921 58008 81928 81820 81070;","Q01  00002PRCP06"
"76458099999","2003-08-01T03:00:00","4","23.2","-106.4166666","4.0","COLONIA JUAN CARRASCO MAZATLAN SIN., MX","FM-12","99999","V020","030,1,N,0060,1","00300,1,9,N","008000,1,N,1","+0260,1","+0238,1","10150,1","02,0079,9,1",,,,"0,1,03,1","0,1,03,1","08,1,+00300,9,09,9",,,"08,99,1,08,1,09,1,00150,1,99,9,99,9",,"11,9",,,,"99999,9,10145,1","2,1,018,1,+010,1","21,1",,"SYN118AAXX  01031 76458 11258 80306 10260 20238 30145 40150 52018 60086 72100 889// 90250 333 0/9// 32/// 57990 58010 88910;",
"76458099999","2003-08-01T12:00:00","4","23.2","-106.4166666","4.0","COLONIA JUAN CARRASCO MAZATLAN SIN., MX","FM-12","99999","V020","999,9,C,0000,1","22000,1,9,N","010000,1,N,1","+0272,1","+0238,1","10150,1","06,0000,9,1",,,,"0,1,06,1","0,1,06,1",,,,"03,99,1,99,9,09,1,00450,1,00,1,00,1",,,,,,"99999,9,10146,1",,"17,1",,"SYN072AAXX  01121 76458 31460 30000 10272 20238 30146 40150 5//// 71700 81900;","Q01+000012SCOTLCQ02  00002PRCP06"
"76458099999","2003-08-01T15:00:00","4","23.2","-106.4166666","4.0","COLONIA JUAN CARRASCO MAZATLAN SIN., MX","FM-12","99999","V020","999,9,C,0000,1","03600,1,9,N","018000,1,N,1","+0276,1","+0249,1","10156,1","06,0000,9,1",,,,,,"01,1,+00330,9,09,9","02,1,+00360,9,06,9",,"07,99,1,01,1,03,1,00250,1,03,1,00,1",,"01,9",,,,"99999,9,10152,1","1,1,006,1,+016,1",,,"SYN118AAXX  01151 76458 32368 70000 10276 20249 30152 40156 51006 81330 91447 333 0059/ 30/// 57959 58016 81911 82612 84362;","Q01  00002PRCP06"
"76458099999","2003-08-01T18:00:00","4","23.2","-106.4166666","4.0","COLONIA JUAN CARRASCO MAZATLAN SIN., MX","FM-12","99999","V020","190,1,N,0020,1","03600,1,C,N","018000,1,N,1","+0302,1","+0247,1","10151,1","06,0000,9,1",,,,,,"01,1,+00690,9,08,9",,,"05,99,1,01,1,02,1,00800,1,05,1,00,1",,"01,9",,"120,M,+0317,1","240,N,+0254,1","99999,9,10146,1","7,1,006,1,+008,1",,,"SYN118AAXX  01181 76458 32568 51902 10302 20247 30146 40151 57006 81250 91759 333 0/690 10317 20254 30/// 58008 81823 85358;","Q01  00002PRCP06"
"76458099999","2003-08-01T21:00:00","4","23.2","-106.4166666","4.0","COLONIA JUAN CARRASCO MAZATLAN SIN., MX","FM-12","99999","V020","260,1,N,0030,1","22000,1,9,N","020000,1,N,1","+0312,1","+0247,1","10135,1","06,0000,9,1",,,,,,"02,1,+00810,9,09,9",,,"03,99,1,02,1,03,1,00800,1,05,1,00,1",,"01,9",,,,"99999,9,10131,1","7,1,015,1,+002,1",,,"SYN106AAXX  01211 76458 32570 32603 10312 20247 30131 40135 57015 82350 92050 333 0/190 30/// 58002 82927 81358;","Q01  00002PRCP06"
"76458099999","2003-08-02T00:00:00","4","23.2","-106.4166666","4.0","COLONIA JUAN CARRASCO MAZATLAN SIN., MX","FM-12","99999","V020","290,1,N,0040,1","22000,1,9,N","018000,1,N,1","+0210,1","+9999,9","10125,1","06,0000,9,1",,,,,,"02,1,+00750,9,08,9","02,1,+01050,9,08,9",,"05,99,1,04,1,05,1,00800,1,00,1,01,1",,"01,9",,"120,M,+0340,1","180,N,+9999,9","99999,9,10121,1","6,1,005,1,+999,9",,,"SYN130AAXX  02001 76458 32568 52904 10210 20240 30121 40125 56005 84501 92350 333 0/1// 10340 20254 30/// 59991 58/// 82825 82835 81070;","Q01  00002PRCP06Q02 +02542ATMN  "
"76458099999","2003-08-02T03:00:00","4","23.2","-106.4166666","4.0","COLONIA JUAN CARRASCO MAZATLAN SIN., MX","FM-12","99999","V020","290,1,N,0030,1","22000,1,9,N","015000,1,N,1","+0296,1","+0248,1","10121,1","06,0000,9,1",,,,,,"02,1,+01050,9,08,9","02,1,+02100,9,03,9",,"03,99,1,03,1,05,1,00800,1,03,1,01,1",,"01,9",,,,"99999,9,10117,1","6,1,004,1,-032,1",,,"SYN112AAXX  02031 76458 32565 32903 10296 20248 30117 40121 56004 83531 90250 333 0/1// 30/// 59032 82835 82357 81070;","Q01  00002PRCP06"
"76458099999","2003-08-02T12:00:00","4","23.2","-106.4166666","4.0","COLONIA JUAN CARRASCO MAZATLAN SIN., MX","FM-12","99999","V020","999,9,C,0000,1","03600,1,9,N","008000,1,N,1","+0277,1","+0248,1","10127,1","06,0000,9,1",,,,"0,1,06,1","0,1,06,1",,,,"07,99,1,01,1,09,1,00250,1,02,1,00,1",,,,,,"99999,9,10123,1","5,1,005,1,+999,9","17,1",,"SYN072AAXX  02121 76458 31358 70000 10277 20248 30123 40127 55005 71700 81920;","Q01  00002PRCP06"
"76458099999","2003-08-02T15:00:00","4","23.2","-106.4166666","4.0","COLONIA JUAN CARRASCO MAZATLAN SIN., MX","FM-12","99999","V020","999,9,C,0000,1","00510,1,9,N","018000,1,N,1","+0294,1","+0252,1","10133,1","06,0000,9,1",,,,"9,1,03,1","0,1,03,1","07,1,+00510,9,08,9",,,"07,99,1,07,1,02,1,00450,1,00,1,00,1",,"01,9",,,,"99999,9,10128,1","2,1,005,1,-024,1","03,1",,"SYN112AAXX  02151 76458 31468 70000 10294 20252 30128 40133 52005 70390 87200 91447 333 006// 30/// 57869 59024 87817;","Q01  00002PRCP06"
"76458099999","2003-08-02T18:00:00","4","23.2","-106.4166666","4.0","COLONIA JUAN CARRASCO MAZATLAN SIN., MX","FM-12","99999","V020","240,1,N,0040,1","01050,1,9,N","018000,1,N,1","+0314,1","+0250,1","10128,1","06,0000,9,1",,,,,,"05,1,+01050,9,08,9",,,"05,99,1,05,1,05,1,00800,1,99,9,99,9",,"01,9",,"120,M,+0340,1","240,N,+0254,1","99999,9,10124,1","7,1,004,1,-022,1",,,"SYN112AAXX  02181 76458 32568 52404 10314 20250 30124 40128 57004 855// 91750 333 0/1// 10340 20254 30/// 59022 85835;","Q01  00002PRCP06"
"76458099999","2003-08-03T00:00:00","4","23.2","-106.4166666","4.0","COLONIA JUAN CARRASCO MAZATLAN SIN., MX","FM-12","99999","V020","270,1,N,0020,1","99999,9,9,N","018000,1,N,1","+0304,1","+0256,1","10113,1","02,0000,2,1",,,,"9,1,06,1","9,1,06,1",,,,"07,99,1,99,9,99,9,00800,1,99,9,99,9",,,,,,"99999,9,10117,1","5,1,001,1,+999,9","20,1",,"SYN072AAXX  03001 76458 11568 72702 10304 20256 30117 40113 55001 69906 72099;",
"76458099999","2003-08-03T03:00:00","4","23.2","-106.4166666","4.0","COLONIA JUAN CARRASCO MAZATLAN SIN., MX","FM-12","99999","V020","360,1,N,0020,1","03600,1,9,N","008000,1,N,1","+0272,1","+0248,1","10124,1","03,0010,9,1",,,,"5,1,03,1","5,1,03,1","01,1,+00300,9,08,9","01,1,+00660,9,09,9",,"08,99,1,02,1,09,1,00250,1,01,1,99,9",,"09,9",,,,"99999,9,10119,1","3,1,002,1,+002,1","13,1",,"SYN130AAXX  03031 76458 11358 83602 10272 20248 30119 40124 53002 60017 71355 8291/ 90240 333 0/49/ 31/// 57940 58002 81922 81810 86458;",
"76458099999","2003-08-03T12:00:00","4","23.2","-106.4166666","4.0","COLONIA JUAN CARRASCO MAZATLAN SIN., MX","FM-12","99999","V020","100,1,N,0020,1","03600,1,9,N","010000,1,N,1","+0267,1","+0241,1","10141,1","06,0000,9,1",,,,"9,1,06,1","9,1,06,1",,,,"08,99,1,04,1,09,1,00250,1,02,1,99,9",,,,,,"99999,9,10137,1","3,1,004,1,+999,9","17,1",,"SYN072AAXX  03121 76458 31360 81002 10267 20241 30137 40141 53004 71799 8492/;","Q01  00002PRCP06"
"76458099999","2003-08-03T15:00:00","4","23.2","-106.4166666","4.0","COLONIA JUAN CARRASCO MAZATLAN SIN., MX","FM-12","99999","V020","060,1,N,0020,1","99999,9,9,N","015000,1,N,1","+0265,1","+0236,1","10133,1","06,0000,9,1",,,,"2,1,03,1","9,1,03,1","04,1,+03600,9,04,9",,,"07,99,1,99,9,00,1,02250,1,02,1,00,1",,"01,9",,,,"99999,9,10128,1","8,1,009,1,+000,1","01,1",,"SYN118AAXX  03151 76458 31865 70602 10265 20236 30128 40133 58009 70129 84020 91447 333 0//9/ 30/// 57399 58000 84462 83364;","Q01+000042SCOTLCQ02  00002PRCP06"
"76458099999","2003-08-03T18:00:00","4","23.2","-106.4166666","4.0","COLONIA JUAN CARRASCO MAZATLAN SIN., MX","FM-12","99999","V020","180,1,N,0030,1","99999,9,9,N","020000,1,N,1","+0306,1","+0238,1","10136,1","06,0000,9,1",,,,,,"02,1,+00750,9,08,9","02,1,+02100,9,03,9",,"05,99,1,02,1,05,1,99999,9,03,1,01,1",,"01,9",,"120,M,+0350,1","240,N,+0266,1","99999,9,10132,1","2,1,004,1,+004,1",,,"SYN124AAXX  03181 76458 32970 51803 10306 20238 30132 40136 52004 82531 91750 333 0/139 10350 20266 30/// 58004 82825 82357 81070;","Q01  00002PRCP06"
"76458099999","2003-08-03T21:00:00","4","23.2","-106.4166666","4.0","COLONIA JUAN CARRASCO MAZATLAN SIN., MX","FM-12","99999","V020","270,1,N,0030,1","99999,9,9,N","020000,1,N,1","+0314,1","+0236,1","10135,1","06,0000,9,1",,,,,,"03,1,+01050,9,08,9","01,1,+05100,9,03,9",,"06,99,1,03,1,05,1,99999,9,03,1,01,1",,"01,9",,,,"99999,9,10130,1","6,1,002,1,+015,1",,,"SYN112AAXX  03211 76458 32970 62703 10314 20236 30130 40135 56002 83531 92050 333 0/231 30/// 58015 83835 81367 82070;","Q01  00002PRCP06"
"76458099999","2003-08-04T00:00:00","4","23.2","-106.4166666","4.0","COLONIA JUAN CARRASCO MAZATLAN SIN., MX","FM-12","99999","V020","270,1,N,0020,1","22000,1,9,N","020000,1,N,1","+0308,1","+0234,1","10118,1","06,0000,9,1","24,0014,9,1",,,,,"01,1,+00930,9,08,9",,,"04,99,1,01,1,02,1,00800,1,99,9,01,1",,"01,9",,"120,M,+0338,1","180,N,+0252,1","99999,9,10113,1","7,1,018,1,-004,1",,,"SYN130AAXX  04001 76458 32570 42702 10308 20234 30113 40118 57018 812/1 92340 333 0119/ 10338 20252 30/// 57887 59004 70014 81831 83070;","Q01  00002PRCP06"
"76458099999","2003-08-04T03:00:00","4","23.2","-106.4166666","4.0","COLONIA JUAN CARRASCO MAZATLAN SIN., MX","FM-12","99999","V020","270,1,N,0020,1","22000,1,9,N","008000,1,N,1","+0290,1","+0245,1","10123,1","06,0000,9,1",,,,,,"01,1,+01800,9,03,9",,,"01,99,1,01,1,99,9,02250,1,03,1,99,9",,"01,9",,,,"99999,9,10119,1","3,1,006,1,+000,1",,,"SYN094AAXX  04031 76458 32858 12702 10290 20245 30119 40123 53006 81/3/ 90240 333 30/// 58000 81356;","Q01  00002PRCP06"
"76458099999","2003-08-04T09:00:00","4","23.2","-106.4166666","4.0","COLONIA JUAN CARRASCO MAZATLAN SIN., MX","FM-12","99999","V020","320,1,N,0020,1","22000,1,9,N","010000,1,N,1","+0260,1","+0235,1","10128,1","03,0010,9,1",,,,"6,1,03,1","1,1,03,1","01,1,+00300,9,06,9",,,"01,99,1,01,1,04,1,00450,1,00,1,00,1",,"09,9",,,,"99999,9,10124,1","7,1,009,1,-007,1","01,1",,"SYN112AAXX  04091 76458 21460 13202 10260 20235 30124 40128 57009 70161 81400 90840 333 0/900 31/// 59007 60017 81610;",
"76458099999","2003-08-04T15:00:00","4","23.2","-106.4166666","4.0","COLONIA JUAN CARRASCO MAZATLAN SIN., MX","FM-12","99999","V020","999,9,C,0000,1","04200,1,9,N","015000,1,N,1","+0282,1","+0255,1","10126,1","06,0000,9,1",,,,,,"06,1,+04200,9,03,9",,,"06,99,1,06,1,00,1,02250,1,03,1,00,1",,"01,9",,,,"99999,9,10122,1","6,1,001,1,-006,1",,,"SYN106AAXX  04151 76458 32865 60000 10282 20255 30122 40126 56001 86030 91450 333 0//9/ 30/// 57399 59006 86364;","Q01  00002PRCP06"
"76458099999","2003-08-04T21:00:00","4","23.2","-106.4166666","4.0","COLONIA JUAN CARRASCO MAZATLAN SIN., MX","FM-12","99999","V020","270,1,N,0040,1","22000,1,9,N","010000,1,N,1","+0316,1","+0261,1","10118,1","06,0000,9,1",,,,,,"04,1,+00750,9,08,9",,,"04,99,1,04,1,05,1,00800,1,00,1,00,1",,"01,9",,,,"99999,9,10114,1","6,1,003,1,-012,1",,,"SYN100AAXX  04211 76458 32560 42704 10316 20261 30114 40118 56003 84500 92050 333 0/1// 30/// 59012 84825;","Q01  00002PRCP06"
"76458099999","2003-08-05T00:00:00","4","23.2","-106.4166666","4.0","COLONIA JUAN CARRASCO MAZATLAN SIN., MX","FM-12","99999","V020","250,1,N,0040,1","03600,1,9,N","020000,1,N,1","+0302,1","+0257,1","10104,1","06,0000,9,1","24,0014,9,1",,,,,"01,1,+00570,9,06,9","02,1,+00720,9,09,9",,"06,99,1,03,1,09,1,00800,1,02,1,99,9",,"01,9",,"120,M,+0340,1","180,N,+0251,1","99999,9,10100,1","7,1,014,1,+999,9",,,"SYN130AAXX  05001 76458 32570 62504 10302 20257 30100 40104 57014 8392/ 92340 333 0/99/ 10340 20251 30/// 57990 70014 82924 81619 83458;","Q01  00002PRCP06"
"76458099999","2003-08-05T06:00:00","4","23.2","-106.4166666","4.0","COLONIA JUAN CARRASCO MAZATLAN SIN., MX","FM-12","99999","V020","210,1,N,0020,1","22000,1,9,N","010000,1,N,1","+0276,1","+0238,1","10129,1","06,9999,9,9",,,,"5,1,06,1","5,1,06,1","01,1,+00480,9,09,9",,,"04,99,1,01,1,09,1,00450,1,02,1,00,1","0480,9","01,9",,"240,M,+0340,1","240,N,+0251,1","99999,9,10124,1","3,1,012,1,-009,1","01,1",,"SYN148AAXX  05061 76458 11460 42102 10276 20238 30124 40129 53012 69921 70155 81920 90550 333 07300 10340 20251 30/// 55080 21068 57939 59009 81916 83461;",
"76458099999","2003-08-05T09:00:00","4","23.2","-106.4166666","4.0","COLONIA JUAN CARRASCO MAZATLAN SIN., MX","FM-12","99999","V020","130,1,N,0030,1","00510,1,9,N","010000,1,N,1","+0256,1","+0216,1","10137,1","06,0000,9,1",,,,,,"06,1,+00510,9,06,9",,,"08,99,1,08,1,09,1,00450,1,00,1,00,1",,"01,9",,,,"99999,9,10133,1","3,1,008,1,+009,1",,,"SYN112AAXX  05091 76458 32460 81303 10256 20216 30133 40137 53008 88900 90840 333 07300 30/// 57932 58009 86617 82934;","Q01  00002PRCP06"
"76458099999","2003-08-05T15:00:00","4","23.2","-106.4166666","4.0","COLONIA JUAN CARRASCO MAZATLAN SIN., MX","FM-12","99999","V020","350,1,N,0020,1","99999,9,9,N","015000,1,N,1","+0268,1","+0226,1","10105,1","06,0000,9,1",,,,,,"04,1,+02400,9,03,9",,,"05,99,1,99,9,02,1,99999,9,99,9,06,1",,"01,9",,,,"99999,9,10101,1","4,1,000,1,-021,1",,,"SYN106AAXX  05151 76458 32965 53502 10268 20226 30101 40105 54000 80206 91450 333 0/099 30/// 59021 84358 81072;","Q01+000002SCOTLCQ02+000002SCOMCGQ03  00002PRCP06"
"76458099999","2003-08-05T21:00:00","4","23.2","-106.4166666","4.0","COLONIA JUAN CARRASCO MAZATLAN SIN., MX","FM-12","99999","V020","240,1,N,0030,1","22000,1,C,N","020000,1,N,1","+0310,1","+0237,1","10115,1","06,0000,9,1",,,,,,"02,1,+00750,9,08,9",,,"06,99,1,02,1,05,1,00800,1,00,1,01,1",,"01,9",,,,"99999,9,10110,1","6,1,006,1,-004,1",,,"SYN106AAXX  05211 76458 32570 62403 10310 20237 30110 40115 56006 82501 92050 333 0/1/0 30/// 59004 82825 84070;","Q01  00002PRCP06"
"76458099999","2003-08-06T12:00:00","4","23.2","-106.4166666","4.0","COLONIA JUAN CARRASCO MAZATLAN SIN., MX","FM-12","99999","V020","360,1,N,0020,1","01020,1,9,N","012000,1,N,1","+0270,1","+0243,1","10116,1","06,0000,9,1","24,0000,9,1",,,,,"07,1,+01020,9,09,9",,,"07,99,1,07,1,09,1,00800,1,00,1,00,1",,"01,9","999,+0260,9","999,M,+0335,1","120,N,+0230,1","99999,9,10112,1","6,1,001,1,+012,1",,,"SYN124AAXX  06121 76458 32562 73602 10270 20243 30112 40116 56001 87900 91150 333 07100 10335 20230 30026 57916 58012 70000 87934;","Q01  00002PRCP06"
"76458099999","2003-08-06T15:00:00","4","23.2","-106.4166666","4.0","COLONIA JUAN CARRASCO MAZATLAN SIN., MX","FM-12","99999","V020","340,1,N,0010,1","99999,9,9,N","020000,1,N,1","+0278,1","+0251,1","10121,1","06,0000,9,1",,,,,,"02,1,+00750,9,08,9","03,1,+02100,9,03,9",,"06,99,1,01,1,05,1,99999,9,03,1,01,1",,"01,9",,,,"99999,9,10116,1","2,1,004,1,+007,1",,,"SYN112AAXX  06151 76458 32970 63401 10278 20251 30116 40121 52004 81531 91450 333 01/// 30/// 58007 82825 83357 81070;","Q01  00002PRCP06"
"76458099999","2003-08-06T18:00:00","4","23.2","-106.4166666","4.0","COLONIA JUAN CARRASCO MAZATLAN SIN., MX","FM-12","99999","V020","180,1,N,0010,1","03600,1,9,N","020000,1,N,1","+0307,1","+0246,1","10123,1","06,0000,9,1",,,,,,"07,1,+03600,9,03,9",,,"07,99,1,07,1,00,1,02250,1,05,1,00,1",,"01,9",,"120,M,+0336,1","240,N,+0255,1","99999,9,10119,1","2,1,002,1,+003,1",,,"SYN118AAXX  06181 76458 32870 71801 10307 20246 30119 40123 52002 87050 91748 333 0//9/ 10336 20255 30/// 57399 58003 87362;","Q01  00002PRCP06"
"76458099999","2003-08-06T21:00:00","4","23.2","-106.4166666","4.0","COLONIA JUAN CARRASCO MAZATLAN SIN., MX","FM-12","99999","V020","210,1,N,0030,1","22000,1,9,N","020000,1,N,1","+0323,1","+0248,1","10117,1","06,0000,9,1",,,,,,"01,1,+00930,9,08,9",,,"04,99,1,01,1,02,1,00800,1,03,1,00,1",,"01,9",,,,"99999,9,10113,1","7,1,006,1,+002,1",,,"SYN112AAXX  06211 76458 32570 42103 10323 20248 30113 40117 57006 81230 92047 333 0069/ 30/// 57869 58002 81831 83362;","Q01  00002PRCP06"
"76458099999","2003-08-07T00:00:00","4","23.2","-106.4166666","4.0","COLONIA JUAN CARRASCO MAZATLAN SIN., MX","FM-12","99999","V020","250,1,N,0020,1","03600,1,9,N","020000,1,N,1","+0308,1","+0251,1","10108,1","06,0000,9,1","24,0000,9,1",,,,,"01,1,+00720,9,08,9",,,"05,99,1,01,1,02,1,00800,1,03,1,00,1",,"01,9",,"120,M,+0340,1","180,N,+0255,1","99999,9,10104,1","7,1,009,1,+999,9",,,"SYN136AAXX  07001 76458 32570 52502 10308 20251 30104 40108 57009 81230 92355 333 04190 10340 20255 30/// 5//// 57816 58/// 70000 81824 84358;","Q01  00002PRCP06"
"76458099999","2003-08-07T03:00:00","4","23.2","-106.4166666","4.0","COLONIA JUAN CARRASCO MAZATLAN SIN., MX","FM-12","99999","V020","270,1,N,0020,1","22000,1,9,N","016000,1,N,1","+0301,1","+0239,1","10110,1","06,0000,9,1",,,,,,"00,1,+99999,9,99,9",,,"00,99,1,00,1,00,1,99999,9,00,1,00,1",,"01,9",,,,"99999,9,10105,1","3,1,002,1,+999,9",,,"SYN082AAXX  07031 76458 32966 02702 10301 20239 30105 40110 53002 90250 333 30/// 58///;","Q01  00002PRCP06"
"76458099999","2003-08-07T15:00:00","4","23.2","-106.4166666","4.0","COLONIA JUAN CARRASCO MAZATLAN SIN., MX","FM-12","99999","V020","999,9,C,0000,1","09000,1,C,N","018000,1,N,1","+0282,1","+0234,1","10126,1","06,0000,9,1",,,,,,"02,1,+03600,9,03,9",,,"06,99,1,02,1,00,1,02250,1,03,1,08,1",,"01,9",,,,"99999,9,10122,1","2,1,008,1,+005,1",,,"SYN112AAXX  07151 76458 32868 60000 10282 20234 30122 40126 52008 82038 91448 333 0//99 30/// 57399 58005 82362 84268;","Q01  00002PRCP06"
"76458099999","2003-08-07T21:00:00","4","23.2","-106.4166666","4.0","COLONIA JUAN CARRASCO MAZATLAN SIN., MX","FM-12","99999","V020","270,1,N,0030,1","03600,1,9,N","020000,1,N,1","+0310,1","+0243,1","10119,1","06,0000,9,1",,,,,,"02,1,+00450,9,08,9","02,1,+00750,9,08,9",,"06,99,1,03,1,05,1,01250,1,03,1,99,9",,"01,9",,,,"99999,9,10114,1","6,1,006,1,+999,9",,,"SYN112AAXX  07211 76458 32670 62703 10310 20243 30114 40119 56006 8353/ 92050 333 0/29/ 30/// 57920 82825 82815 82358;","Q01  00002PRCP06"
"76458099999","2003-08-08T00:00:00","4","23.2","-106.4166666","4.0","COLONIA JUAN CARRASCO MAZATLAN SIN., MX","FM-12","99999","V020","240,1,N,0040,1","22000,1,9,N","020000,1,N,1","+0312,1","+0251,1","10100,1","06,0000,9,1","24,0000,9,1",,,,,"01,1,+00750,9,08,9",,,"03,99,1,01,1,02,1,00800,1,99,9,06,1",,"01,9",,"120,M,+0338,1","180,N,+0262,1","99999,9,10096,1","7,1,019,1,+008,1",,,"SYN130AAXX  08001 76458 32570 32404 10312 20251 30096 40100 57019 812/6 92355 333 011/9 10338 20262 30/// 57815 58008 70000 81825 82070;","Q01  00002PRCP06"
"76458099999","2003-08-08T03:00:00","4","23.2","-106.4166666","4.0","COLONIA JUAN CARRASCO MAZATLAN SIN., MX","FM-12","99999","V020","290,1,N,0030,1","22000,1,9,N","008000,1,N,1","+0302,1","+0260,1","10115,1","06,0000,9,1",,,,,,"01,1,+01800,9,03,9",,,"01,99,1,01,1,99,9,02250,1,03,1,99,9",,"01,9",,,,"99999,9,10111,1","2,1,015,1,+006,1",,,"SYN094AAXX  08031 76458 32858 12903 10302 20260 30111 40115 52015 81/3/ 90240 333 30/// 58006 81356;","Q01  00002PRCP06"
"76458099999","2003-08-08T12:00:00","4","23.2","-106.4166666","4.0","COLONIA JUAN CARRASCO MAZATLAN SIN., MX","FM-12","99999","V020","340,1,N,0020,1","22000,1,9,N","012000,1,N,1","+0278,1","+0247,1","10118,1","06,0000,9,1","24,0000,9,1",,,,,"00,1,+99999,9,99,9",,,"00,99,1,00,1,00,1,99999,9,00,1,00,1",,"01,9","999,+0260,9","999,M,+0338,1","120,N,+0270,1","99999,9,10114,1","7,1,001,1,+000,1",,,"SYN100AAXX  08121 76458 32962 03402 10278 20247 30114 40118 57001 91148 333 10338 20270 30026 58000 70000;","Q01  00002PRCP06Q02  00002PRCP24"
"76458099999","2003-08-08T15:00:00","4","23.2","-106.4166666","4.0","COLONIA JUAN CARRASCO MAZATLAN SIN., MX","FM-12","99999","V020","999,9,C,0000,1","22000,1,9,N","018000,1,N,1","+0292,1","+0251,1","10126,1","06,0000,9,1",,,,,,"01,1,+00510,9,08,9","01,1,+03600,9,03,9",,"03,99,1,01,1,02,1,00450,1,03,1,01,1",,"01,9",,,,"99999,9,10122,1","2,1,008,1,+000,1",,,"SYN118AAXX  08151 76458 32468 30000 10292 20251 30122 40126 52008 81231 91447 333 00899 30/// 57886 58000 81817 81362 81068;","Q01  00002PRCP06"
"76458099999","2003-08-08T18:00:00","4","23.2","-106.4166666","4.0","COLONIA JUAN CARRASCO MAZATLAN SIN., MX","FM-12","99999","V020","240,1,N,0030,1","22000,1,9,N","010000,1,N,1","+0314,1","+0242,1","10128,1","06,0000,9,1",,,,,,"02,1,+00750,9,08,9",,,"03,99,1,02,1,05,1,99999,9,00,1,01,1",,"01,9",,"120,M,+0338,1","240,N,+0262,1","99999,9,10124,1","2,1,003,1,-001,1",,,"SYN112AAXX  08181 76458 32960 32403 10314 20242 30124 40128 52003 82501 91750 333 10338 20262 30/// 59001 82825 81070;","Q01  00002PRCP06"
"76458099999","2003-08-08T21:00:00","4","23.2","-106.4166666","4.0","COLONIA JUAN CARRASCO MAZATLAN SIN., MX","FM-12","99999","V020","270,1,N,0030,1","22000,1,9,N","020000,1,N,1","+0320,1","+0259,1","10120,1","06,0000,9,1",,,,,,"02,1,+00750,9,08,9",,,"04,99,1,02,1,05,1,99999,9,00,1,01,1",,"01,9",,,,"99999,9,10115,1","6,1,009,1,-001,1",,,"SYN100AAXX  08211 76458 32970 42703 10320 20259 30115 40120 56009 82501 92050 333 30/// 59001 82825 82070;","Q01  00002PRCP06"
"76458099999","2003-08-09T03:00:00","4","23.2","-106.4166666","4.0","COLONIA JUAN CARRASCO MAZATLAN SIN., MX","FM-12","99999","V020","300,1,N,0040,1","22000,1,9,N","008000,1,N,1","+0306,1","+0232,1","10119,1","06,0000,9,1",,,,"0,1,03,1","0,1,03,1","02,1,+00930,9,09,9",,,"02,99,1,02,1,02,1,00800,1,09,1,99,9",,"01,9",,,,"99999,9,10114,1","1,1,008,1,+003,1","13,1",,"SYN112AAXX  09031 76458 31558 23004 10306 20232 30114 40119 51008 71300 8229/ 90240 333 0/1// 30/// 57910 58003 82931;","Q01  00002PRCP06"
"76458099999","2003-08-09T12:00:00","4","23.2","-106.4166666","4.0","COLONIA JUAN CARRASCO MAZATLAN SIN., MX","FM-12","99999","V020","999,9,C,0000,1","22000,1,9,N","010000,1,N,1","+0288,1","+0242,1","10116,1","06,0000,9,1","24,0000,9,1",,,,,"02,1,+00570,9,06,9",,,"02,99,1,02,1,04,1,00450,1,00,1,00,1",,"01,9","999,+0270,9","999,M,+0340,1","120,N,+0280,1","99999,9,10111,1","9,9,999,9,-003,1",,,"SYN124AAXX  09121 76458 32460 20000 10288 20242 30111 40116 5//// 82400 91148 333 0/6// 10340 20280 30027 57669 59003 70000 82619;","Q01  00002PRCP06"
"76458099999","2003-08-09T15:00:00","4","23.2","-106.4166666","4.0","COLONIA JUAN CARRASCO MAZATLAN SIN., MX","FM-12","99999","V020","999,9,C,0000,1","00780,1,9,N","018000,1,N,1","+0305,1","+0243,1","10129,1","06,0000,9,1",,,,,,"07,1,+00780,9,06,9",,,"07,99,1,07,1,04,1,00800,1,00,1,00,1",,"01,9",,,,"99999,9,10124,1","2,1,013,1,+002,1",,,"SYN106AAXX  09151 76458 32568 70000 10305 20243 30124 40129 52013 87400 91447 333 0/6// 30/// 57669 58002 87626;","Q01  00002PRCP06"
"76458099999","2003-08-09T18:00:00","4","23.2","-106.4166666","4.0","COLONIA JUAN CARRASCO MAZATLAN SIN., MX","FM-12","99999","V020","240,1,N,0030,1","22000,1,9,N","020000,1,N,1","+0312,1","+0251,1","10136,1","06,0000,9,1",,,,,,"02,1,+00750,9,08,9",,,"02,99,1,02,1,05,1,00800,1,00,1,00,1",,"01,9",,"120,M,+0340,1","240,N,+0265,1","99999,9,10132,1","2,1,008,1,+008,1",,,"SYN112AAXX  09181 76458 32570 22403 10312 20251 30132 40136 52008 82500 91750 333 0/1// 10340 20265 30/// 58008 82825;","Q01  00002PRCP06"
"76458099999","2003-08-09T21:00:00","4","23.2","-106.4166666","4.0","COLONIA JUAN CARRASCO MAZATLAN SIN., MX","FM-12","99999","V020","240,1,N,0030,1","22000,1,9,N","020000,1,N,1","+0326,1","+0249,1","10124,1","06,0000,9,1",,,,,,"02,1,+00750,9,08,9",,,"02,99,1,02,1,05,1,00800,1,00,1,00,1",,"01,9",,,,"99999,9,10119,1","6,1,013,1,+009,1",,,"SYN100AAXX  09211 76458 32570 22403 10326 20249 30119 40124 56013 82500 92050 333 0/1// 30/// 58009 82825;","Q01  00002PRCP06"
"76458099999","2003-08-10T00:00:00","4","23.2","-106.4166666","4.0","COLONIA JUAN CARRASCO MAZATLAN SIN., MX","FM-12","99999","V020","270,1,N,0040,1","22000,1,9,N","020000,1,N,1","+0316,1","+0246,1","10120,1","06,0000,9,1","24,0000,9,1",,,,,"01,1,+00870,9,09,9",,,"04,99,1,01,1,03,1,00800,1,02,1,99,9",,"01,9",,"120,M,+0345,1","180,N,+0277,1","99999,9,10115,1","8,1,005,1,+009,1",,,"SYN136AAXX  10001 76458 32570 42704 10316 20246 30115 40120 58005 8132/ 92340 333 0/89/ 10345 20277 30/// 50611 57983 58009 70000 81929 83458;","Q01  00002PRCP06"
"76458099999","2003-08-10T12:00:00","4","23.2","-106.4166666","4.0","COLONIA JUAN CARRASCO MAZATLAN SIN., MX","FM-12","99999","V020","999,9,C,0000,1","00510,1,9,N","012000,1,N,1","+0283,1","+0241,1","10133,1","06,0000,9,1","24,0000,9,1",,,,,"05,1,+00510,9,06,9",,,"05,99,1,05,1,04,1,00450,1,00,1,00,1",,"01,9","999,+0270,9","999,M,+0345,1","120,N,+0274,1","99999,9,10128,1","0,1,000,1,+017,1",,,"SYN124AAXX  10121 76458 32462 50000 10283 20241 30128 40133 50000 85400 91148 333 0/6// 10345 20274 30027 57669 58017 79999 85617;","Q01  00002PRCP06Q02  00002PRCP24"
"76458099999","2003-08-10T15:00:00","4","23.2","-106.4166666","4.0","COLONIA JUAN CARRASCO MAZATLAN SIN., MX","FM-12","99999","V020","999,9,C,0000,1","00600,1,9,N","018000,1,N,1","+0292,1","+0245,1","10145,1","06,0000,9,1",,,,,,"06,1,+00600,9,06,9",,,"06,99,1,06,1,04,1,00450,1,00,1,00,1",,"01,9",,,,"99999,9,10140,1","2,1,012,1,+016,1",,,"SYN106AAXX  10151 76458 32468 60000 10292 20245 30140 40145 52012 86400 91447 333 0/6// 30/// 57669 58016 86620;","Q01  00002PRCP06"
"76458099999","2003-08-10T21:00:00","4","23.2","-106.4166666","4.0","COLONIA JUAN CARRASCO MAZATLAN SIN., MX","FM-12","99999","V020","270,1,N,0040,1","22000,1,9,N","020000,1,N,1","+0320,1","+0242,1","10126,1","06,0000,9,1",,,,,,"02,1,+00750,9,08,9",,,"04,99,1,02,1,05,1,99999,9,00,1,01,1",,"01,9",,,,"99999,9,10122,1","6,1,021,1,+003,1",,,"SYN106AAXX  10211 76458 32970 42704 10320 20242 30122 40126 56021 82501 92050 333 0//// 30/// 58003 82825 82070;","Q01  00002PRCP06"
"76458099999","2003-08-11T00:00:00","4","23.2","-106.4166666","4.0","COLONIA JUAN CARRASCO MAZATLAN SIN., MX","FM-12","99999","V020","300,1,N,0040,1","22000,1,9,N","020000,1,N,1","+0304,1","+0234,1","10101,1","06,0000,9,1","24,0000,9,1",,,,,,,,"01,99,1,01,1,02,1,00800,1,99,9,99,9",,"01,9",,"120,M,+0345,1","180,N,+0274,1","99999,9,10097,1","7,1,025,1,-018,1",,,"SYN130AAXX  11001 76458 32570 13004 10304 20234 30097 40101 57025 812// 92340 333 011// 10345 20274 30/// 50651 57813 59018 70000 81829;","Q01  00002PRCP06"
"76458099999","2003-08-11T03:00:00","4","23.2","-106.4166666","4.0","COLONIA JUAN CARRASCO MAZATLAN SIN., MX","FM-12","99999","V020","300,1,N,0040,1","22000,1,9,N","008000,1,N,1","+0306,1","+0244,1","10106,1","06,0000,9,1",,,,,,"01,1,+00780,9,09,9",,,"01,99,1,01,1,09,1,00800,1,99,9,99,9",,"01,9",,,,"99999,9,10101,1","2,1,004,1,-013,1",,,"SYN106AAXX  11031 76458 32558 13004 10306 20244 30101 40106 52004 819// 90240 333 0/3// 30/// 57933 59013 81926;","Q01  00002PRCP06"
"76458099999","2003-08-11T12:00:00","4","23.2","-106.4166666","4.0","COLONIA JUAN CARRASCO MAZATLAN SIN., MX","FM-12","99999","V020","360,1,N,0020,1","00540,1,9,N","012000,1,N,1","+0295,1","+0252,1","10113,1","06,0000,9,1","24,0000,9,1",,,,,"07,1,+00540,9,06,9",,,"07,99,1,07,1,05,1,00450,1,00,1,00,1",,"01,9","999,+0270,9","999,M,+0345,1","120,N,+0285,1","99999,9,10108,1","6,1,006,1,-020,1",,,"SYN118AAXX  11121 76458 32462 73602 10295 20252 30108 40113 56006 87500 91420 333 0/6// 10345 20285 30027 59020 70000 87618;","Q01  00002PRCP06"
"76458099999","2003-08-11T15:00:00","4","23.2","-106.4166666","4.0","COLONIA JUAN CARRASCO MAZATLAN SIN., MX","FM-12","99999","V020","230,1,N,0020,1","00240,1,9,N","012000,1,N,1","+0280,1","+0263,1","10118,1","01,0030,9,1",,,,"5,1,03,1","2,1,03,1","07,1,+00240,9,06,9",,,"08,99,1,08,1,08,1,00250,1,00,1,00,1",,"11,9",,,,"99999,9,10114,1","1,1,006,1,-026,1","29,1",,"SYN124AAXX  11151 76458 11362 82302 10280 20263 30114 40118 51006 72952 88800 91455 333 0/5// 32/// 57950 59026 60035 87608 81912;",
"76458099999","2003-08-11T18:00:00","4","23.2","-106.4166666","4.0","COLONIA JUAN CARRASCO MAZATLAN SIN., MX","FM-12","99999","V020","120,1,N,0020,1","03600,1,C,N","015000,1,N,1","+0302,1","+0260,1","10130,1","06,0061,9,1",,,,,,"02,1,+00750,9,08,9",,,"05,99,1,02,1,05,1,00800,1,03,1,99,9",,"09,9",,"120,M,+0345,1","240,N,+0274,1","99999,9,10125,1","2,1,011,1,-018,1",,,"SYN118AAXX  11181 76458 12565 51202 10302 20260 30125 40130 52011 60061 8253/ 91750 333 10345 20274 31/// 59018 82825 83358;",
"76458099999","2003-08-11T21:00:00","4","23.2","-106.4166666","4.0","COLONIA JUAN CARRASCO MAZATLAN SIN., MX","FM-12","99999","V020","180,1,N,0030,1","22000,1,9,N","020000,1,N,1","+0318,1","+0254,1","99999,9","06,0000,9,1",,,,,,"01,1,+00750,9,08,9","02,1,+01050,9,08,9",,"03,99,1,03,1,05,1,99999,9,00,1,01,1",,"01,9",,,,"99999,9,10116,1","7,1,005,1,-006,1",,,"SYN106AAXX  11211 76458 32970 31803 10318 20254 30116 40220 57005 83501 92050 333 30/// 59006 81825 82835 81070;","Q01+102203APOSLPQ02  00002PRCP06Q03 102203APOSLP"
"76458099999","2003-08-12T00:00:00","4","23.2","-106.4166666","4.0","COLONIA JUAN CARRASCO MAZATLAN SIN., MX","FM-12","99999","V020","160,1,N,0020,1","99999,9,9,N","020000,1,N,1","+0306,1","+0253,1","10103,2","06,0000,9,1","24,0056,9,1",,,,,"01,1,+00660,9,08,9",,,"06,99,1,01,1,02,1,00800,1,99,9,06,1",,"09,9",,"120,M,+0345,1","180,N,+0285,1","99999,9,10099,1","5,1,017,1,+002,1",,,"SYN136AAXX  12001 76458 32570 61602 10306 20253 30099 40103 55017 812/6 92345 333 011/9 10345 20285 31/// 50571 57814 58002 70056 81822 85070;","Q01+101033APOSLPQ02  00002PRCP06"
"76458099999","2003-08-12T09:00:00","4","23.2","-106.4166666","4.0","COLONIA JUAN CARRASCO MAZATLAN SIN., MX","FM-12","99999","V020","030,1,N,0020,1","03600,1,C,N","012000,1,N,1","+0290,1","+0257,1","10113,1","06,0000,9,1",,,,,,"02,1,+00420,9,06,9",,,"07,99,1,02,1,04,1,00450,1,05,1,00,1",,"01,9",,,,"99999,9,10108,1","7,1,010,1,-006,1",,,"SYN106AAXX  12091 76458 32462 70302 10290 20257 30108 40113 57010 82450 90858 333 0/390 30/// 59006 82614 85358;","Q01  00002PRCP06"
"76458099999","2003-08-12T15:00:00","4","23.2","-106.4166666","4.0","COLONIA JUAN CARRASCO MAZATLAN SIN., MX","FM-12","99999","V020","120,1,N,0020,1","22000,1,9,N","015000,1,N,1","+0304,1","+0250,1","10113,1","06,0000,9,1",,,,,,"02,1,+00660,9,09,9",,,"03,99,1,02,1,09,1,00800,1,03,1,00,1",,"01,9",,,,"99999,9,10109,1","2,1,007,1,-005,1",,,"SYN112AAXX  12151 76458 32565 31202 10304 20250 30109 40113 52007 82930 91450 333 0/00/ 30/// 57942 59005 82922 81358;","Q01  00002PRCP06"
"76458099999","2003-08-12T21:00:00","4","23.2","-106.4166666","4.0","COLONIA JUAN CARRASCO MAZATLAN SIN., MX","FM-12","99999","V020","240,1,N,0030,1","22000,1,9,N","020000,1,N,1","+0322,1","+0259,1","10106,1","06,0000,9,1",,,,,,"02,1,+00750,9,08,9",,,"04,99,1,02,1,02,1,99999,9,00,1,01,1",,"01,9",,,,"99999,9,10102,1","6,1,007,1,-014,1",,,"SYN106AAXX  12211 76458 32970 42403 10322 20259 30102 40106 56007 82201 92050 333 0/1/9 30/// 59014 82825 82070;","Q01  00002PRCP06"
"76458099999","2003-08-13T00:00:00","4","23.2","-106.4166666","4.0","COLONIA JUAN CARRASCO MAZATLAN SIN., MX","FM-12","99999","V020","250,1,N,0020,1","03600,1,9,N","020000,1,N,1","+0320,1","+0245,1","10101,1","06,0000,9,1","24,9999,9,9",,,,,"02,1,+00930,9,08,9",,,"07,99,1,02,1,02,1,00800,1,03,1,08,1",,"01,9",,"120,M,+0350,1","180,N,+0278,1","99999,9,10097,1","5,1,005,1,-002,1",,,"SYN136AAXX  13001 76458 32570 72502 10320 20245 30097 40101 55005 82238 92348 333 00199 10350 20278 30/// 50441 57816 59002 79999 82831 82362;","Q01  00002PRCP06Q02  99992PRCP24"
"76458099999","2003-08-13T03:00:00","4","23.2","-106.4166666","4.0","COLONIA JUAN CARRASCO MAZATLAN SIN., MX","FM-12","99999","V020","210,1,N,0020,1","22000,1,9,N","010000,1,N,1","+0301,1","+0249,1","10101,1","06,0000,9,1",,,,,,"02,1,+06600,9,06,9",,,"02,99,1,02,1,04,1,00800,1,00,1,00,1",,"01,9",,,,"99999,9,10097,1","4,1,000,1,+000,1",,,"SYN106AAXX  13031 76458 32560 22102 10301 20249 30097 40101 54000 82400 90245 333 0/6// 30/// 57669 58000 82672;","Q01  00002PRCP06"
"76458099999","2003-08-13T06:00:00","4","23.2","-106.4166666","4.0","COLONIA JUAN CARRASCO MAZATLAN SIN., MX","FM-12","99999","V020","160,1,N,0020,1","00750,1,9,N","010000,1,N,1","+0298,1","+0246,1","10126,1","06,0000,9,1",,,,,,,,,"07,99,1,07,1,04,1,00800,1,00,1,00,1","0564,9","01,9",,"240,M,+0350,1","240,N,+0278,1","99999,9,10121,1","2,1,024,1,+002,1",,,"SYN124AAXX  13061 76458 32560 71602 10298 20246 30121 40126 52024 87400 90558 333 0/900 10350 20278 30/// 55094 21161 58002 87622;","Q01  00002PRCP06"
"76458099999","2003-08-13T09:00:00","4","23.2","-106.4166666","4.0","COLONIA JUAN CARRASCO MAZATLAN SIN., MX","FM-12","99999","V020","230,1,N,0010,1","22000,1,9,N","010000,1,N,1","+0296,1","+0252,1","10120,1","06,0000,9,1",,,,,,"02,1,+00540,9,06,9",,,"03,99,1,02,1,04,1,00450,1,03,1,00,1",,"01,9",,,,"99999,9,10116,1","7,1,005,1,+008,1",,,"SYN106AAXX  13091 76458 32460 32301 10296 20252 30116 40120 57005 82430 90858 333 0/290 30/// 58008 82618 81359;","Q01  00002PRCP06"
"76458099999","2003-08-13T12:00:00","4","23.2","-106.4166666","4.0","COLONIA JUAN CARRASCO MAZATLAN SIN., MX","FM-12","99999","V020","350,1,N,0010,1","22000,1,9,N","010000,1,N,1","+0283,1","+0252,1","10112,1","06,0000,9,1","24,0000,9,1",,,,,"01,1,+02400,9,03,9",,,"01,99,1,01,1,00,1,99999,9,03,1,00,1",,"01,9","999,+0260,9","999,M,+0350,1","120,N,+0270,1","99999,9,10107,1","5,1,009,1,+005,1",,,"SYN118AAXX  13121 76458 32960 13501 10283 20252 30107 40112 55009 81030 91220 333 0//0/ 10350 20270 30026 58005 70000 81358;","Q01  00002PRCP06"
"76458099999","2003-08-13T15:00:00","4","23.2","-106.4166666","4.0","COLONIA JUAN CARRASCO MAZATLAN SIN., MX","FM-12","99999","V020","180,1,N,0020,1","22000,1,9,N","015000,1,N,1","+0300,1","+0236,1","10117,1","06,0000,9,1",,,,,,"01,1,+00780,9,08,9",,,"03,99,1,01,1,01,1,00800,1,05,1,00,1",,"01,9",,,,"99999,9,10112,1","1,1,005,1,+003,1",,,"SYN106AAXX  13151 76458 32565 31802 10300 20236 30112 40117 51005 81150 91448 333 0/00/ 30/// 58003 81826 82358;","Q01  00002PRCP06"
"76458099999","2003-08-13T18:00:00","4","23.2","-106.4166666","4.0","COLONIA JUAN CARRASCO MAZATLAN SIN., MX","FM-12","99999","V020","240,1,N,0030,1","03600,1,9,N","020000,1,N,1","+0319,1","+0232,1","10122,1","06,0000,9,1",,,,,,"01,1,+01080,9,08,9",,,"07,99,1,01,1,02,1,01250,1,03,1,00,1",,"01,9",,"120,M,+0345,1","240,N,+0270,1","99999,9,10117,1","2,1,005,1,+008,1",,,"SYN124AAXX  13181 76458 32670 72403 10319 20232 30117 40122 52005 81230 91745 333 0/19/ 10345 20270 30/// 57819 58008 81836 86362;","Q01  00002PRCP06"
"76458099999","2003-08-13T21:00:00","4","23.2","-106.4166666","4.0","COLONIA JUAN CARRASCO MAZATLAN SIN., MX","FM-12","99999","V020","240,1,N,0030,1","22000,1,9,N","020000,1,N,1","+0326,1","+0215,1","10108,1","06,0000,9,1",,,,,,"01,1,+01380,9,08,9",,,"01,99,1,01,1,01,1,01750,1,00,1,00,1",,"01,9",,,,"99999,9,10104,1","7,1,013,1,+002,1",,,"SYN106AAXX  13211 76458 32770 12403 10326 20215 30104 40108 57013 81100 92048 333 0/1// 30/// 57816 58002 81846;","Q01  00002PRCP06"
"76458099999","2003-08-14T00:00:00","4","23.2","-106.4166666","4.0","COLONIA JUAN CARRASCO MAZATLAN SIN., MX","FM-12","99999","V020","240,1,N,0030,1","22000,1,9,N","020000,1,N,1","+0320,1","+0233,1","10092,1","06,0000,9,1","24,0000,9,1",,,,,,,,"01,99,1,01,1,02,1,01250,1,99,9,99,9",,"01,9",,"120,M,+0348,1","180,N,+0270,1","99999,9,10088,1","7,1,016,1,-010,1",,,"SYN130AAXX  14001 76458 32670 12403 10320 20233 30088 40092 57016 812// 92345 333 011// 10348 20270 30/// 50481 57817 59010 70000 81836;","Q01  00002PRCP06"
"76458099999","2003-08-14T06:00:00","4","23.2","-106.4166666","4.0","COLONIA JUAN CARRASCO MAZATLAN SIN., MX","FM-12","99999","V020","180,1,N,0010,1","99999,9,9,N","012000,1,N,1","+0300,1","+0232,1","10121,1","06,0000,9,1",,,,,,,,,"06,99,1,06,1,00,1,99999,9,01,1,00,1","0570,9","01,9",,"240,M,+0348,1","240,N,+0270,1","99999,9,10117,1","0,1,020,1,-004,1",,,"SYN124AAXX  14061 76458 32962 61801 10300 20232 30117 40121 50020 86010 90555 333 0/090 10348 20270 30/// 55095 21161 59004 86461;","Q01  00002PRCP06"
"76458099999","2003-08-14T12:00:00","4","23.2","-106.4166666","4.0","COLONIA JUAN CARRASCO MAZATLAN SIN., MX","FM-12","99999","V020","110,1,N,0030,1","03600,1,C,N","012000,1,N,1","+0288,1","+0236,1","10123,1","06,0000,9,1","24,0000,9,1",,,,,"01,1,+00660,9,06,9","02,1,+03600,9,04,9",,"07,99,1,01,1,04,1,00800,1,02,1,08,1",,"01,9","999,+0270,9","999,M,+0348,1","120,N,+0279,1","99999,9,10119,1","3,1,003,1,+012,1",,,"SYN136AAXX  14121 76458 32562 71103 10288 20236 30119 40123 53003 81428 91147 333 0/599 10348 20279 30027 57659 58012 70000 81622 82462 84268;","Q01  00002PRCP06"
"76458099999","2003-08-14T15:00:00","4","23.2","-106.4166666","4.0","COLONIA JUAN CARRASCO MAZATLAN SIN., MX","FM-12","99999","V020","100,1,N,0020,1","03600,1,9,N","018000,1,N,1","+0295,1","+0232,1","10130,1","06,0000,9,1",,,,,,"06,1,+03600,9,03,9",,,"07,99,1,06,1,00,1,02250,1,03,1,06,1",,"01,9",,,,"99999,9,10126,1","0,1,007,1,+014,1",,,"SYN112AAXX  14151 76458 32868 71002 10295 20232 30126 40130 50007 86036 91445 333 0//99 30/// 57399 58014 86362 81068;","Q01  00002PRCP06"
"76458099999","2003-08-14T18:00:00","4","23.2","-106.4166666","4.0","COLONIA JUAN CARRASCO MAZATLAN SIN., MX","FM-12","99999","V020","160,1,N,0030,1","22000,1,9,N","020000,1,N,1","+0322,1","+0232,1","10137,1","06,0000,9,1",,,,,,"01,1,+01110,9,08,9",,,"01,99,1,01,1,01,1,01250,1,00,1,00,1",,"01,9",,"120,M,+0342,1","240,N,+0279,1","99999,9,10133,1","1,1,007,1,+016,1",,,"SYN112AAXX  14181 76458 32670 11603 10322 20232 30133 40137 51007 81100 91755 333 0/3// 10342 20279 30/// 58016 81837;","Q01  00002PRCP06"
"76458099999","2003-08-14T21:00:00","4","23.2","-106.4166666","4.0","COLONIA JUAN CARRASCO MAZATLAN SIN., MX","FM-12","99999","V020","180,1,N,0040,1","22000,1,9,N","020000,1,N,1","+0238,1","+0236,1","10127,1","06,0000,9,1",,,,,,"02,1,+01110,9,08,9",,,"02,99,1,02,1,02,1,01250,1,00,1,00,1",,"01,9",,,,"99999,9,10118,1","6,1,014,1,+014,1",,,"SYN100AAXX  14211 76458 32670 21804 10238 20236 30118 40127 56014 82200 92050 333 0/3// 30/// 58014 82837;","Q01  00002PRCP06"
"76458099999","2003-08-15T00:00:00","4","23.2","-106.4166666","4.0","COLONIA JUAN CARRASCO MAZATLAN SIN., MX","FM-12","99999","V020","240,1,N,0030,1","22000,1,9,N","020000,1,N,1","+0324,1","+0253,1","10110,1","06,0000,9,1","24,0000,9,1",,,,,"01,1,+00900,9,09,9",,,"04,99,1,01,1,09,1,00800,1,02,1,99,9",,"01,9",,"120,M,+0350,1","180,N,+0279,1","99999,9,10106,1","6,1,012,1,+018,1",,,"SYN136AAXX  15001 76458 32570 42403 10324 20253 30106 40110 56012 8192/ 92345 333 0/29/ 10350 20279 30/// 50541 57923 58018 70000 81930 83458;","Q01  00002PRCP06"
"76458099999","2003-08-15T06:00:00","4","23.2","-106.4166666","4.0","COLONIA JUAN CARRASCO MAZATLAN SIN., MX","FM-12","99999","V020","120,1,N,0020,1","22000,1,9,N","012000,1,N,1","+0284,1","+0219,1","10137,1","06,0000,9,1",,,,,,"01,1,+00810,9,09,9",,,"02,99,1,01,1,09,1,00800,1,03,1,00,1","0576,9","01,9",,"240,M,+0350,1","240,N,+0279,1","99999,9,10132,1","3,1,004,1,+015,1",,,"SYN136AAXX  15061 76458 32562 21202 10284 20219 30132 40137 53004 81930 90555 333 07330 10350 20279 30/// 55096 21145 57939 58015 81927 81359;","Q01  00002PRCP06"
"76458099999","2003-08-15T15:00:00","4","23.2","-106.4166666","4.0","COLONIA JUAN CARRASCO MAZATLAN SIN., MX","FM-12","99999","V020","350,1,N,0020,1","22000,1,9,N","015000,1,N,1","+0298,1","+0226,1","10148,1","06,0000,9,1",,,,,,"02,1,+02400,9,03,9",,,"03,99,1,02,1,00,1,99999,9,03,1,05,1",,"01,9",,,,"99999,9,10144,1","1,1,009,1,+018,1",,,"SYN106AAXX  15151 76458 32965 33502 10298 20226 30144 40148 51009 82035 91450 333 0//00 30/// 58018 82358 81270;","Q01  00002PRCP06"
"76458099999","2003-08-15T21:00:00","4","23.2","-106.4166666","4.0","COLONIA JUAN CARRASCO MAZATLAN SIN., MX","FM-12","99999","V020","210,1,N,0030,1","22000,1,9,N","020000,1,N,1","+0326,1","+0252,1","10145,1","06,0000,9,1",,,,,,"03,1,+01050,9,08,9",,,"04,99,1,02,1,02,1,00800,1,03,1,99,9",,"01,9",,,,"99999,9,10140,1","6,1,009,1,+022,1",,,"SYN100AAXX  15211 76458 32570 42103 10326 20252 30140 40145 56009 8223/ 92050 333 30/// 58022 83835 82358;","Q01  00002PRCP06"
"76458099999","2003-08-16T06:00:00","4","23.2","-106.4166666","4.0","COLONIA JUAN CARRASCO MAZATLAN SIN., MX","FM-12","99999","V020","090,1,N,0060,1","00750,1,9,N","012000,1,N,1","+0304,1","+0250,1","10164,1","06,0000,9,1",,,,,,"04,1,+00660,9,06,9",,,"05,99,1,05,1,09,1,00800,1,00,1,00,1","0672,9","01,9",,"240,M,+0350,1","240,N,+0270,1","99999,9,10159,1","2,1,023,1,+027,1",,,"SYN136AAXX  16061 76458 32562 50906 10304 20250 30159 40164 52023 85900 90548 333 07200 10350 20270 30/// 55112 21184 57923 58027 84622 81934;","Q01  00002PRCP06"
"76458099999","2003-08-16T09:00:00","4","23.2","-106.4166666","4.0","COLONIA JUAN CARRASCO MAZATLAN SIN., MX","FM-12","99999","V020","150,1,N,0020,1","03600,1,C,N","010000,1,N,1","+0266,1","+0240,1","10147,1","03,0030,9,1",,,,"5,1,03,1","5,1,03,1","03,1,+00330,9,06,9",,,"08,99,1,03,1,04,1,00450,1,02,1,00,1",,"09,9",,,,"99999,9,10143,1","6,1,016,1,+010,1","02,1",,"SYN118AAXX  16091 76458 21460 81502 10266 20240 30143 40147 56016 70255 83420 90844 333 0/990 31/// 58010 60037 83611 85461;",
"76458099999","2003-08-16T15:00:00","4","23.2","-106.4166666","4.0","COLONIA JUAN CARRASCO MAZATLAN SIN., MX","FM-12","99999","V020","010,1,N,0020,1","03600,1,C,N","015000,1,N,1","+0278,1","+0143,1","10140,1","06,0000,9,1",,,,,,"01,1,+00450,9,09,9",,,"06,99,1,01,1,09,1,00450,1,03,1,00,1",,"01,9",,,,"99999,9,10135,1","5,1,001,1,-009,1",,,"SYN112AAXX  16151 76458 32465 60102 10278 20143 30135 40140 55001 81930 91450 333 0/50/ 30/// 57954 59009 81915 85358;","Q01  00002PRCP06"
"76458099999","2003-08-16T18:00:00","4","23.2","-106.4166666","4.0","COLONIA JUAN CARRASCO MAZATLAN SIN., MX","FM-12","99999","V020","240,1,N,0040,1","22000,1,9,N","020000,1,N,1","+0317,1","+0233,1","10135,1","06,0000,9,1",,,,,,"01,1,+00750,9,08,9",,,"04,99,1,01,1,05,1,01250,1,03,1,99,9",,"01,9",,"120,M,+0350,1","240,N,+0270,1","99999,9,10130,1","6,1,005,1,-019,1",,,"SYN118AAXX  16180 76458 32670 42404 10317 20233 30130 40135 56005 8153/ 91750 333 0815/ 10350 20270 30/// 59019 81825 83358;","Q01  00002PRCP06"
"76458099999","2003-08-16T21:00:00","4","23.2","-106.4166666","4.0","COLONIA JUAN CARRASCO MAZATLAN SIN., MX","FM-12","99999","V020","240,1,N,0040,1","22000,1,9,N","020000,1,N,1","+0324,1","+0255,1","10120,1","06,0000,9,1",,,,,,"02,1,+00750,9,08,9",,,"03,99,1,02,1,02,1,99999,9,00,1,01,1",,"01,9",,,,"99999,9,10115,1","6,1,005,1,-025,1",,,"SYN106AAXX  16211 76458 32970 32404 10324 20255 30115 40120 56005 82201 92050 333 0/1/0 30/// 59025 82825 81070;","Q01  00002PRCP06"
"76458099999","2003-08-17T00:00:00","4","23.2","-106.4166666","4.0","COLONIA JUAN CARRASCO MAZATLAN SIN., MX","FM-12","99999","V020","270,1,N,0040,1","09000,1,9,N","020000,1,N,1","+0312,1","+0259,1","10097,1","06,0000,9,1","24,0026,9,1",,,,,"07,1,+09000,9,06,9",,,"07,99,1,03,1,05,1,00800,1,03,1,06,1",,"01,9",,"120,M,+0345,1","180,N,+0253,1","99999,9,10093,1","7,1,023,1,-028,1",,,"SYN136AAXX  17001 76458 32570 72704 10312 20259 30093 40097 57023 83536 92340 333 0/899 10345 20253 30/// 50681 87680 59028 70026 83622 82356;","Q01  00002PRCP06"
"76458099999","2003-08-17T03:00:00","4","23.2","-106.4166666","4.0","COLONIA JUAN CARRASCO MAZATLAN SIN., MX","FM-12","99999","V020","300,1,N,0030,1","99999,9,9,N","008000,1,N,1","+0300,1","+0252,1","10109,1","06,0000,9,1",,,,"0,1,03,1","0,1,03,1","02,1,+00600,9,08,9","02,1,+00900,9,09,9",,"07,99,1,04,1,09,1,00800,1,99,9,06,1",,"01,9",,,,"99999,9,10105,1","2,1,012,1,-032,1","13,1",,"SYN124AAXX  17031 76458 31558 73003 10300 20252 30105 40109 52012 71300 849/6 90240 333 0/1/9 30/// 57910 59032 82930 82820 82070;","Q01  00002PRCP06"
"76458099999","2003-08-17T06:00:00","4","23.2","-106.4166666","4.0","COLONIA JUAN CARRASCO MAZATLAN SIN., MX","FM-12","99999","V020","330,1,N,0010,1","22000,1,9,N","010000,1,N,1","+0289,1","+0232,1","10119,1","06,0000,9,1",,,,,,,,,"03,99,1,03,1,04,1,00800,1,00,1,00,1","0426,9","01,9",,"240,M,+0345,1","240,N,+0253,1","99999,9,10115,1","0,1,010,1,-045,1",,,"SYN124AAXX  17061 76458 32560 33301 10289 20232 30115 40119 50010 83400 90550 333 0/900 10345 20253 30/// 55071 21060 59045 83624;","Q01  00002PRCP06"
"76458099999","2003-08-17T12:00:00","4","23.2","-106.4166666","4.0","COLONIA JUAN CARRASCO MAZATLAN SIN., MX","FM-12","99999","V020","060,1,N,0020,1","09000,1,9,N","008000,1,N,1","+0276,1","+0235,1","10103,1","06,0000,9,1",,,,"0,1,06,1","0,1,06,1",,,,"06,99,1,02,1,09,1,00800,1,03,1,06,1",,,,,,"99999,9,10099,1","3,1,004,1,+999,9","13,1",,"SYN072AAXX  17121 76458 31558 60602 10276 20235 30099 40103 53004 71300 82936;","Q01  00002PRCP06"
"76458099999","2003-08-17T15:00:00","4","23.2","-106.4166666","4.0","COLONIA JUAN CARRASCO MAZATLAN SIN., MX","FM-12","99999","V020","210,1,N,0040,1","00300,1,9,N","008000,1,N,1","+0266,1","+0242,1","10113,1","06,0000,2,1",,,,"9,1,03,1","9,1,03,1","06,1,+00300,9,06,9",,,"08,99,1,08,1,05,1,00250,1,99,9,99,9",,"09,9",,,,"99999,9,10107,1","2,1,010,1,-026,1","20,1",,"SYN118AAXX  17151 76458 31358 82104 10266 20242 30107 40113 52010 72099 885// 91445 333 0/5// 31/// 57650 59026 86610 82930;",
"76458099999","2003-08-17T18:00:00","4","23.2","-106.4166666","4.0","COLONIA JUAN CARRASCO MAZATLAN SIN., MX","FM-12","99999","V020","030,1,N,0020,1","00750,1,9,N","018000,1,N,1","+0284,1","+0236,1","10116,1","24,0160,9,1",,,,,,,,,"08,99,1,08,1,05,1,00800,1,00,1,00,1",,,,,,"99999,9,10112,1","2,1,004,1,+999,9",,,"SYN072AAXX  17181 76458 11568 80302 10284 20236 30112 40116 52004 60164 88500;",
"76458099999","2003-08-17T21:00:00","4","23.2","-106.4166666","4.0","COLONIA JUAN CARRASCO MAZATLAN SIN., MX","FM-12","99999","V020","210,1,N,0030,1","99999,9,9,N","020000,1,N,1","+0305,1","+0252,1","10108,1","06,0000,2,1",,,,,,"01,1,+00600,9,08,9","02,1,+01050,9,08,9","01,1,+02400,9,03,9","06,99,1,03,1,05,1,99999,9,03,1,01,1",,"01,9",,,,"99999,9,10104,1","7,1,008,1,-011,1",,,"SYN112AAXX  17211 76458 32970 62103 10305 20252 30104 40108 57008 83531 92050 333 30/// 59011 81820 82835 81358 82070;",
"76458099999","2003-08-18T00:00:00","4","23.2","-106.4166666","4.0","COLONIA JUAN CARRASCO MAZATLAN SIN., MX","FM-12","99999","V020","190,1,N,0020,1","03600,1,9,N","018000,1,N,1","+0304,1","+0239,1","10095,1","06,0000,9,1",,,,,,"02,1,+00810,9,08,9",,,"06,99,1,02,1,02,1,00800,1,05,1,00,1",,"01,9",,"120,M,+0325,1","180,N,+0268,1","99999,9,10091,1","7,1,013,1,-002,1",,,"SYN118AAXX  18001 76458 32568 61902 10304 20239 30091 40095 57013 82250 92359 333 0/190 10325 20268 30/// 59002 82827 84500;","Q01  00002PRCP06"
"76458099999","2003-08-18T21:00:00","4","23.2","-106.4166666","4.0","COLONIA JUAN CARRASCO MAZATLAN SIN., MX","FM-12","99999","V020","270,1,N,0040,1","99999,9,9,N","020000,1,N,1","+0304,1","+0239,1","10149,1","06,0000,9,1",,,,,,"01,1,+00840,9,08,9","04,1,+02100,9,03,9",,"06,99,1,01,1,08,1,99999,9,03,1,01,1",,"09,9",,,,"99999,9,10145,1","7,1,004,1,+012,1",,,"SYN112AAXX  18211 76458 32970 62704 10304 20239 30145 40149 57004 81831 92045 333 31/// 579// 58012 81828 84357 81070;","Q01  00002PRCP06"
"76458099999","2003-08-19T00:00:00","4","23.2","-106.4166666","4.0","COLONIA JUAN CARRASCO MAZATLAN SIN., MX","FM-12","99999","V020","180,1,N,0050,1","09000,1,9,N","020000,1,N,1","+0318,1","+0240,1","10120,1","06,0000,9,1","24,0031,9,1",,,,,"01,1,+00900,9,08,9","01,1,+00960,9,09,9",,"05,99,1,02,1,09,1,00800,1,02,1,06,1",,"01,9",,"120,M,+0333,1","180,N,+0248,1","99999,9,10116,1","0,1,001,1,+025,1",,,"SYN136AAXX  19001 76458 32570 51805 10318 20240 30116 40120 50001 82926 92340 333 0/899 10333 20248 30/// 57912 58025 70031 81932 81830 82458;","Q01  00002PRCP06"
"76458099999","2003-08-19T09:00:00","4","23.2","-106.4166666","4.0","COLONIA JUAN CARRASCO MAZATLAN SIN., MX","FM-12","99999","V020","060,1,N,0010,1","02700,1,9,N","012000,1,N,1","+0262,1","+0236,1","10145,1","03,0020,9,2","06,0000,9,2",,,"5,1,03,1","2,1,03,1","05,1,+02700,9,03,9",,,"05,99,1,05,1,00,1,99999,9,03,1,00,1",,"09,9",,,,"99999,9,10141,1","8,1,005,1,-017,1","01,1",,"SYN112AAXX  19091 76458 31962 50601 10262 20236 30141 40145 58005 70152 85030 90850 333 0/090 31/// 59017 60027 85359;","Q01  00002PRCP06"
"76458099999","2003-08-19T12:00:00","4","23.2","-106.4166666","4.0","COLONIA JUAN CARRASCO MAZATLAN SIN., MX","FM-12","99999","V020","999,9,C,0000,1","22000,1,9,N","012000,1,N,1","+0259,1","+0230,1","10146,1","06,0000,9,1","24,0023,9,1",,,,,"00,1,+99999,9,99,9",,,"00,99,1,00,1,00,1,99999,9,00,1,00,1",,"01,9","999,+0240,9","999,M,+0333,1","120,N,+0248,1","99999,9,10141,1","3,1,001,1,+999,9",,,"SYN100AAXX  19121 76458 32962 00000 10259 20230 30141 40146 53001 91148 333 10333 20248 30024 58/// 70022;","Q01  00002PRCP06"
"76458099999","2003-08-19T15:00:00","4","23.2","-106.4166666","4.0","COLONIA JUAN CARRASCO MAZATLAN SIN., MX","FM-12","99999","V020","999,9,C,0000,1","22000,1,9,N","020000,1,N,1","+0283,1","+0229,1","10150,1","06,0000,9,1",,,,,,"01,1,+00660,9,08,9",,,"02,99,1,01,1,01,1,00800,1,00,1,06,1",,"01,9",,,,"99999,9,10146,1","2,1,005,1,+021,1",,,"SYN112AAXX  19151 76458 32570 20000 10283 20229 30146 40150 52005 81106 91440 333 0/9/9 30/// 57899 58021 81822 81070;","Q01  00002PRCP06"
"76458099999","2003-08-19T18:00:00","4","23.2","-106.4166666","4.0","COLONIA JUAN CARRASCO MAZATLAN SIN., MX","FM-12","99999","V020","220,1,N,0020,1","22000,1,9,N","020000,1,N,1","+0314,1","+0233,1","10153,1","06,0000,9,1",,,,,,"02,1,+01020,9,08,9",,,"03,99,1,99,9,02,1,00800,1,00,1,06,1",,"01,9",,"120,M,+0338,1","240,N,+0243,1","99999,9,10148,1","4,1,000,1,+016,1",,,"SYN118AAXX  19181 76458 32570 32202 10314 20233 30148 40153 54001 80206 91747 333 0/109 10338 20243 30/// 58016 82834 81072;","Q01+000002SCOTLCQ02  00002PRCP06"
"76458099999","2003-08-19T21:00:00","4","23.2","-106.4166666","4.0","COLONIA JUAN CARRASCO MAZATLAN SIN., MX","FM-12","99999","V020","270,1,N,0030,1","22000,1,9,N","020000,1,N,1","+0320,1","+0242,1","10129,1","06,0000,9,1",,,,,,"02,1,+00960,9,08,9",,,"02,99,1,02,1,02,1,00800,1,00,1,00,1",,"01,9",,,,"99999,9,10124,1","7,1,023,1,+007,1",,,"SYN100AAXX  19211 76458 32570 22703 10320 20242 30124 40129 57023 82200 92052 333 0/100 30/// 58007 82832;","Q01  00002PRCP06"
"76458099999","2003-08-20T00:00:00","4","23.2","-106.4166666","4.0","COLONIA JUAN CARRASCO MAZATLAN SIN., MX","FM-12","99999","V020","270,1,N,0040,1","22000,1,9,N","020000,1,N,1","+0316,1","+0237,1","10125,1","06,0000,9,1","24,0000,9,1",,,,,"01,1,+00600,9,08,9",,,"04,99,1,01,1,05,1,99999,9,00,1,03,1",,"01,9",,"120,M,+0340,1","180,N,+0243,1","99999,9,10121,1","6,1,003,1,+005,1",,,"SYN130AAXX  20001 76458 32970 42704 10316 20237 30121 40125 56003 81503 92350 333 0/3/0 10340 20243 30/// 57952 58005 70000 81820 83070;","Q01  00002PRCP06"
"76458099999","2003-08-20T03:00:00","4","23.2","-106.4166666","4.0","COLONIA JUAN CARRASCO MAZATLAN SIN., MX","FM-12","99999","V020","270,1,N,0030,1","22000,1,9,N","012000,1,N,1","+0301,1","+0234,1","10128,1","06,0000,9,1",,,,,,"01,1,+00600,9,08,9","01,1,+02400,9,03,9",,"04,99,1,01,1,05,1,99999,9,03,1,03,1",,"01,9",,,,"99999,9,10124,1","2,1,003,1,-008,1",,,"SYN118AAXX  20031 76458 32962 42703 10301 20234 30124 40128 52003 81533 90250 333 0/300 30/// 57951 59008 81820 81358 82070;","Q01  00002PRCP06"
"76458099999","2003-08-20T09:00:00","4","23.2","-106.4166666","4.0","COLONIA JUAN CARRASCO MAZATLAN SIN., MX","FM-12","99999","V020","030,1,N,0010,1","01020,1,9,N","012000,1,N,1","+0285,1","+0243,1","10132,1","06,0000,9,1",,,,,,"02,1,+00510,9,06,9","03,1,+01020,9,09,9",,"06,99,1,05,1,09,1,00450,1,06,1,00,1",,"01,9",,,,"99999,9,10128,1","8,1,005,1,-013,1",,,"SYN118AAXX  20091 76458 32462 60301 10285 20243 30128 40132 58005 85960 90848 333 07290 30/// 57923 59013 82617 83934 81351;","Q01  00002PRCP06"
"76458099999","2003-08-20T12:00:00","4","23.2","-106.4166666","4.0","COLONIA JUAN CARRASCO MAZATLAN SIN., MX","FM-12","99999","V020","310,1,N,0020,1","03600,1,9,N","008000,1,N,1","+0233,1","+0219,1","10140,1","02,0160,9,1","06,0160,9,2","24,0155,9,2",,"9,1,06,1","6,1,06,1",,,,"08,99,1,02,1,09,1,00150,1,02,1,99,9",,"11,9","999,+0210,9","999,M,+0340,1","120,N,+0221,1","99999,9,10136,1","1,1,008,1,-005,1","61,1",,"SYN136AAXX  20121 76458 01258 83102 10233 20219 30136 40140 51008 60161 76196 8292/ 91250 333 0/30/ 10340 20221 32021 57930 59005 60166 70155;",
"76458099999","2003-08-20T15:00:00","4","23.2","-106.4166666","4.0","COLONIA JUAN CARRASCO MAZATLAN SIN., MX","FM-12","99999","V020","360,1,N,0030,1","99999,9,9,N","015000,1,N,1","+0240,1","+0223,1","10140,1","03,0020,9,1",,,,"6,1,03,1","5,1,03,1","02,1,+02400,9,03,9",,,"07,99,1,05,1,00,1,99999,9,02,1,99,9",,"09,9",,,,"99999,9,10136,1","4,1,000,1,-010,1","20,1",,"SYN118AAXX  20151 76458 11965 73603 10240 20223 30136 40140 54000 72065 8502/ 91450 333 0//0/ 31/// 59010 60027 82358 85465;",
"76458099999","2003-08-20T18:00:00","4","23.2","-106.4166666","4.0","COLONIA JUAN CARRASCO MAZATLAN SIN., MX","FM-12","99999","V020","350,1,N,0020,1","22000,1,9,N","020000,1,N,1","+0290,1","+0227,1","10145,1","06,0000,2,1",,,,,,"03,1,+02400,9,03,9",,,"04,99,1,99,9,00,1,99999,9,03,1,06,1",,"01,9",,"120,M,+0311,1","240,N,+0221,1","99999,9,10141,1","2,1,005,1,-005,1",,,"SYN118AAXX  20181 76458 32970 43502 10290 20227 30141 40145 52005 80036 91755 333 0/099 10311 20221 30/// 59005 83358 81072;","Q01+000002SCOTLC"
"76458099999","2003-08-20T21:00:00","4","23.2","-106.4166666","4.0","COLONIA JUAN CARRASCO MAZATLAN SIN., MX","FM-12","99999","V020","250,1,N,0020,1","09000,1,C,N","020000,1,N,1","+0300,1","+0229,1","10137,1","06,0000,2,1",,,,,,"01,1,+00900,9,08,9","03,1,+02400,9,03,9",,"05,99,1,01,1,02,1,00800,1,03,1,06,1",,"01,9",,,,"99999,9,10132,1","7,1,009,1,+008,1",,,"SYN112AAXX  20211 76458 32570 52502 10300 20229 30132 40137 57009 81236 92050 333 0/199 30/// 58008 81830 83358 81072;",
"76458099999","2003-08-21T00:00:00","4","23.2","-106.4166666","4.0","COLONIA JUAN CARRASCO MAZATLAN SIN., MX","FM-12","99999","V020","250,1,N,0020,1","22000,1,9,N","020000,1,N,1","+0325,1","+0235,1","10123,1","06,0000,9,1","24,0174,9,1",,,,,"01,1,+00870,9,09,9",,,"03,99,1,01,1,03,1,99999,9,00,1,08,1",,"01,9",,"120,M,+0325,1","180,N,+0221,1","99999,9,10118,1","5,1,014,1,-003,1",,,"SYN136AAXX  21001 76458 32970 32502 10325 20235 30118 40123 55014 81308 92345 333 001/9 10325 20221 30/// 5//// 57916 59003 70174 81929 82268;","Q01  00002PRCP06"
"76458099999","2003-08-21T03:00:00","4","23.2","-106.4166666","4.0","COLONIA JUAN CARRASCO MAZATLAN SIN., MX","FM-12","99999","V020","300,1,N,0020,1","22000,1,9,N","010000,1,N,1","+0291,1","+0231,1","10138,1","06,0000,9,1",,,,,,"00,1,+99999,9,99,9",,,"00,99,1,00,1,00,1,99999,9,00,1,00,1",,"01,9",,,,"99999,9,10134,1","2,1,016,1,+010,1",,,"SYN082AAXX  21031 76458 32960 03002 10291 20231 30134 40138 52016 90245 333 30/// 58010;","Q01  00002PRCP06"
"76458099999","2003-08-21T06:00:00","4","23.2","-106.4166666","4.0","COLONIA JUAN CARRASCO MAZATLAN SIN., MX","FM-12","99999","V020","090,1,N,0010,1","22000,1,9,N","010000,1,N,1","+0284,1","+0242,1","10149,1","06,0000,9,1",,,,,,,,,"03,99,1,03,1,04,1,00450,1,00,1,00,1","0306,9","01,9",,"240,M,+0325,1","240,N,+0221,1","99999,9,10145,1","1,1,011,1,+012,1",,,"SYN124AAXX  21061 76458 32460 30901 10284 20242 30145 40149 51011 83400 90555 333 0/200 10325 20221 30/// 55051 20905 58012 83617;","Q01  00002PRCP06"
"76458099999","2003-08-21T09:00:00","4","23.2","-106.4166666","4.0","COLONIA JUAN CARRASCO MAZATLAN SIN., MX","FM-12","99999","V020","999,9,C,0000,1","22000,1,9,N","010000,1,N,1","+0274,1","+0239,1","10141,1","06,0000,9,1",,,,,,"01,1,+00420,9,06,9","01,1,+01020,9,09,9",,"03,99,1,02,1,09,1,00450,1,03,1,00,1",,"01,9",,,,"99999,9,10136,1","7,1,008,1,+009,1",,,"SYN118AAXX  21091 76458 32460 30000 10274 20239 30136 40141 57008 82930 90840 333 07790 30/// 57973 58009 81614 81934 81359;","Q01  00002PRCP06"
"76458099999","2003-08-21T12:00:00","4","23.2","-106.4166666","4.0","COLONIA JUAN CARRASCO MAZATLAN SIN., MX","FM-12","99999","V020","360,1,N,0020,1","00330,1,9,N","010000,1,N,1","+0272,1","+0245,1","10134,1","06,0000,9,1","24,0019,9,1",,,,,"06,1,+00330,9,06,9",,,"06,99,1,06,1,04,1,00450,1,00,1,00,1",,"01,9","999,+0250,9","999,M,+0325,1","120,N,+0261,1","99999,9,10129,1","7,1,007,1,-007,1",,,"SYN124AAXX  21121 76458 32460 63602 10272 20245 30129 40134 57007 86400 91150 333 0/8// 10325 20261 30025 57689 59007 70019 86611;","Q01  00002PRCP06"
"76458099999","2003-08-21T15:00:00","4","23.2","-106.4166666","4.0","COLONIA JUAN CARRASCO MAZATLAN SIN., MX","FM-12","99999","V020","360,1,N,0020,1","09000,1,C,N","018000,1,N,1","+0287,1","+0246,1","10140,1","06,0000,9,1",,,,,,"02,1,+00510,9,08,9","01,1,+03600,9,03,9",,"05,99,1,02,1,02,1,00450,1,03,1,08,1",,"01,9",,,,"99999,9,10136,1","2,1,007,1,+000,1",,,"SYN118AAXX  21151 76458 32468 53602 10287 20246 30136 40140 52007 82238 91448 333 00699 30/// 57864 58000 82817 81362 82268;","Q01  00002PRCP06"
"76458099999","2003-08-21T21:00:00","4","23.2","-106.4166666","4.0","COLONIA JUAN CARRASCO MAZATLAN SIN., MX","FM-12","99999","V020","210,1,N,0030,1","00720,1,C,N","015000,1,N,1","+0292,1","+0254,1","10127,1","01,0009,9,1",,,,,,"02,1,+00570,9,06,9","02,1,+00600,9,09,9","01,1,+00720,9,08,9","07,99,1,04,1,09,1,00450,1,03,1,01,1",,"09,9",,,,"99999,9,10123,1","8,1,009,1,-009,1","20,1",,"SYN136AAXX  21211 76458 11465 72103 10292 20254 30123 40127 58009 720// 84931 92050 333 0/670 31/// 57867 59009 69995 82619 81824 82920 82357;",
"76458099999","2003-08-22T00:00:00","4","23.2","-106.4166666","4.0","COLONIA JUAN CARRASCO MAZATLAN SIN., MX","FM-12","99999","V020","999,9,C,0000,1","99999,9,9,N","015000,1,N,1","+0292,1","+0247,1","10106,1","06,0000,2,1",,,,,,"02,1,+00420,9,08,9",,,"07,99,1,99,9,99,9,00450,1,99,9,99,9",,"01,9",,"120,M,+0325,1","180,N,+0257,1","99999,9,10101,1","9,9,999,9,-012,1",,,"SYN118AAXX  22001 76458 32465 70000 10292 20247 40106 40111 57017 82250 92350 333 0/190 10325 20257 30/// 59012 82814 85358;","Q01+999990APOSP "
"76458099999","2003-08-22T03:00:00","4","23.2","-106.4166666","4.0","COLONIA JUAN CARRASCO MAZATLAN SIN., MX","FM-12","99999","V020","350,1,N,0010,1","00300,1,9,N","008000,1,N,1","+0275,1","+0252,1","10124,1","06,0000,2,1",,,,"5,1,03,1","5,1,03,1","08,1,+00300,9,06,9",,,"08,99,1,08,1,05,1,00250,1,00,1,00,1",,"01,9",,,,"99999,9,10119,1","2,1,014,1,-014,1","52,1",,"SYN106AAXX  22031 76458 32358 83501 10275 20252 30119 40124 52014 75255 88500 90245 333 0/900 30/// 59014 88610;",
"76458099999","2003-08-22T09:00:00","4","23.2","-106.4166666","4.0","COLONIA JUAN CARRASCO MAZATLAN SIN., MX","FM-12","99999","V020","150,1,N,0020,1","03300,1,9,N","012000,1,N,1","+0265,1","+0246,1","10116,1","06,0000,2,1",,,,,,"08,1,+03300,9,04,9",,,"08,99,1,08,1,00,1,99999,9,02,1,00,1",,"01,9",,,,"99999,9,10112,1","7,1,011,1,-024,1",,,"SYN100AAXX  22091 76458 32962 81502 10265 20246 30112 40116 57011 88020 90850 333 0/090 30/// 59024 88461;",
"76458099999","2003-08-22T15:00:00","4","23.2","-106.4166666","4.0","COLONIA JUAN CARRASCO MAZATLAN SIN., MX","FM-12","99999","V020","999,9,C,0000,1","02400,1,9,N","015000,1,N,1","+0277,1","+0243,1","10117,1","06,0000,9,1",,,,,,"02,1,+00420,9,09,9","03,1,+02400,9,03,9",,"06,99,1,02,1,09,1,00450,1,03,1,02,1",,"01,9",,,,"99999,9,10113,1","1,1,004,1,-023,1",,,"SYN118AAXX  22151 76458 32465 60000 10277 20243 30113 40117 51004 82932 91448 333 0/500 30/// 57952 59023 82914 83358 81070;","Q01  00002PRCP06"
"76458099999","2003-08-22T18:00:00","4","23.2","-106.4166666","4.0","COLONIA JUAN CARRASCO MAZATLAN SIN., MX","FM-12","99999","V020","150,1,N,0020,1","22000,1,9,N","020000,1,N,1","+0310,1","+0245,1","10120,1","06,0000,9,1",,,,,,"03,1,+00600,9,08,9",,,"04,99,1,03,1,05,1,99999,9,00,1,01,1",,"01,9",,"120,M,+0325,1","240,N,+0254,1","99999,9,10116,1","2,1,004,1,-016,1",,,"SYN124AAXX  22181 76458 32970 41502 10310 20245 30116 40120 52004 83501 91750 333 0/3// 10325 20254 30/// 57900 59016 83820 81070;","Q01  00002PRCP06"
"76458099999","2003-08-22T21:00:00","4","23.2","-106.4166666","4.0","COLONIA JUAN CARRASCO MAZATLAN SIN., MX","FM-12","99999","V020","210,1,N,0030,1","09000,1,C,N","020000,1,N,1","+0310,1","+0240,1","10102,1","06,0000,9,1",,,,,,"01,1,+00600,9,08,9","02,1,+00720,9,09,9",,"05,99,1,04,1,09,1,00450,1,00,1,03,1",,"01,9",,,,"99999,9,10097,1","7,1,014,1,-026,1",,,"SYN118AAXX  22211 76458 32470 52103 10310 20240 30097 40102 57014 84903 92050 333 0/1/0 30/// 57800 59026 81820 82924 82070;","Q01  00002PRCP06"
"76458099999","2003-08-23T00:00:00","4","23.2","-106.4166666","4.0","COLONIA JUAN CARRASCO MAZATLAN SIN., MX","FM-12","99999","V020","999,9,C,0000,1","99999,9,9,N","018000,1,N,1","+0300,1","+0229,1","99999,9","06,0000,9,1",,,,,,,,,"07,99,1,99,9,99,9,00800,1,99,9,99,9",,,,,,,,,,"SYN126AAXX  23001 76458 32568 70000 10300 20229 0/199 10340 20250 30/// 30136 40141 52038 52871 58030 81072 82358 84556 84630 92355;","Q01  00002PRCP06"
"76458099999","2003-08-23T03:00:00","4","23.2","-106.4166666","4.0","COLONIA JUAN CARRASCO MAZATLAN SIN., MX","FM-12","99999","V020","040,1,N,0020,1","00240,1,9,N","008000,1,N,1","+0264,1","+0145,1","10107,1","06,0051,9,1",,,,"6,1,03,1","6,1,03,1","05,1,+00240,9,06,9",,,"08,99,1,05,1,05,1,00250,1,02,1,00,1",,"09,9",,,,"99999,9,10102,1","2,1,002,1,-017,1","52,1",,"SYN118AAXX  23031 76458 31358 80402 10264 20145 30102 40107 52002 60051 75266 85520 90255 333 0/990 31/// 59017 85608 83458;",
"76458099999","2003-08-23T18:00:00","4","23.2","-106.4166666","4.0","COLONIA JUAN CARRASCO MAZATLAN SIN., MX","FM-12","99999","V020","150,1,N,0030,1","03600,1,9,N","020000,1,N,1","+0292,1","+0233,1","10132,1","06,0000,9,1",,,,,,"03,1,+00750,9,08,9","02,1,+03600,9,03,9",,"08,99,1,02,1,02,1,00800,1,03,1,08,1",,"01,9",,"120,M,+0300,1","240,N,+0232,1","99999,9,10127,1","2,1,018,1,+011,1",,,"SYN130AAXX  23181 76458 32570 81503 10292 20233 30127 40132 52018 82238 91748 333 00399 10300 20232 30/// 57839 58011 83825 82362 83268;","Q01  00002PRCP06"
"76458099999","2003-08-23T21:00:00","4","23.2","-106.4166666","4.0","COLONIA JUAN CARRASCO MAZATLAN SIN., MX","FM-12","99999","V020","140,1,N,0020,1","03600,1,9,N","020000,1,N,1","+0256,1","+0223,1","10126,1","03,0030,9,1",,,,"5,1,03,1","6,1,03,1","03,1,+00420,9,06,9",,,"08,99,1,03,1,05,1,00450,1,02,1,00,1",,"09,9",,,,"99999,9,10122,1","7,1,005,1,+024,1","50,1",,"SYN124AAXX  23211 76458 21470 81402 10256 20223 30122 40126 57005 75056 83520 92047 333 0/49/ 31/// 57649 58024 60037 83614 85462;",
"76458099999","2003-08-24T00:00:00","4","23.2","-106.4166666","4.0","COLONIA JUAN CARRASCO MAZATLAN SIN., MX","FM-12","99999","V020","120,1,N,0030,1","03600,1,9,N","018000,1,N,1","+0268,1","+0238,1","10110,1","01,0000,2,1",,,,,,,,,"07,99,1,03,1,04,1,00450,1,02,1,01,1",,,,,,"99999,9,10106,1","6,1,015,1,+999,9",,,"SYN072AAXX  24001 76458 11468 71203 10268 20238 30106 40110 56015 69905 83421;",
"76458099999","2003-08-24T03:00:00","4","23.2","-106.4166666","4.0","COLONIA JUAN CARRASCO MAZATLAN SIN., MX","FM-12","99999","V020","090,1,N,0030,1","02100,1,9,N","012000,1,N,1","+0272,1","+0237,1","10123,1","06,0000,2,1",,,,,,"02,1,+00600,9,08,9","02,1,+00720,9,09,9","02,1,+02100,9,03,9","08,99,1,04,1,05,1,00450,1,02,1,00,1",,"09,9",,,,"99999,9,10118,1","2,1,013,1,-018,1",,,"SYN118AAXX  24031 76458 31462 80903 10272 20237 30118 40123 52013 84520 90250 333 0/560 31/// 59018 82820 82924 82357 82562;",
"76458099999","2003-08-24T09:00:00","4","23.2","-106.4166666","4.0","COLONIA JUAN CARRASCO MAZATLAN SIN., MX","FM-12","99999","V020","090,1,N,0020,1","03600,1,C,N","010000,1,N,1","+0260,1","+0246,1","10126,1","03,0006,9,1",,,,"5,1,03,1","5,1,03,1","01,1,+00180,9,06,9",,,"07,99,1,01,1,04,1,00150,1,02,1,00,1",,"09,9",,,,"99999,9,10122,1","8,1,001,1,+028,1","50,1",,"SYN118AAXX  24091 76458 21260 70902 10260 20246 30122 40126 58001 75055 81420 90850 333 0/390 31/// 58028 69967 81606 86461;",
"76458099999","2003-08-24T12:00:00","4","23.2","-106.4166666","4.0","COLONIA JUAN CARRASCO MAZATLAN SIN., MX","FM-12","99999","V020","110,1,N,0020,1","00420,1,9,N","010000,1,N,1","+0263,1","+0233,1","10119,1","03,0000,2,1","06,0005,9,1","24,0043,9,1",,"2,1,06,1","2,1,06,1",,,,"08,99,1,08,1,05,1,00450,1,00,1,00,1",,"09,9","999,+0240,9","999,M,+0307,1","120,N,+0249,1","99999,9,10114,1","5,1,008,1,+021,1","50,1",,"SYN136AAXX  24121 76458 01460 81102 10263 20233 30114 40119 55008 69961 75022 88500 91150 333 0/3// 10307 20249 31024 57639 58021 69907 70043;",
"76458099999","2003-08-24T15:00:00","4","23.2","-106.4166666","4.0","COLONIA JUAN CARRASCO MAZATLAN SIN., MX","FM-12","99999","V020","090,1,N,0020,1","03600,1,9,N","018000,1,N,1","+0262,1","+0236,1","10131,1","03,0003,9,1",,,,"5,1,03,1","5,1,03,1","01,1,+00330,9,08,9",,,"08,99,1,01,1,02,1,00250,1,02,1,00,1",,"09,9",,,,"99999,9,10126,1","2,1,012,1,+017,1","02,1",,"SYN124AAXX  24151 76458 21368 80902 10262 20236 30126 40131 52012 70255 81220 91445 333 0/49/ 31/// 57849 58017 69937 81811 87462;",
"76458099999","2003-08-24T18:00:00","4","23.2","-106.4166666","4.0","COLONIA JUAN CARRASCO MAZATLAN SIN., MX","FM-12","99999","V020","090,1,N,0030,1","03600,1,9,N","018000,1,N,1","+0292,1","+0235,1","10128,1",,,,,,,"02,1,+00600,9,08,9","01,1,+02100,9,03,9",,"08,99,1,01,1,05,1,00450,1,03,1,00,1",,"01,9",,"120,M,+0307,1","240,N,+0232,1","99999,9,10131,1","2,1,005,1,+004,1",,,"SYN124AAXX  24181 76458 21468 80903 10292 20235 30131 40128 52005 81530 91750 333 0/8// 10307 20232 30/// 58004 82820 81357 85462;",
"76458099999","2003-08-25T00:00:00","4","23.2","-106.4166666","4.0","COLONIA JUAN CARRASCO MAZATLAN SIN., MX","FM-12","99999","V020","170,1,N,0020,1","03600,1,C,N","020000,1,N,1","+0300,1","+0244,1","10116,1","06,0000,9,1",,,,,,"04,1,+00720,9,08,9",,,"07,99,1,04,1,02,1,00800,1,02,1,00,1",,"01,9",,"120,M,+0318,1","180,N,+0249,1","99999,9,10111,1","7,1,012,1,+005,1",,,"SYN124AAXX  25001 76458 32570 71702 10300 20244 30111 40116 57012 84220 92355 333 0/490 10318 20249 30/// 5//// 58005 84824 83458;","Q01  00002PRCP06"
"76458099999","2003-08-25T03:00:00","4","23.2","-106.4166666","4.0","COLONIA JUAN CARRASCO MAZATLAN SIN., MX","FM-12","99999","V020","170,1,N,0020,1","03600,1,C,N","008000,1,N,1","+0284,1","+0240,1","10122,1","06,0000,9,1",,,,,,"04,1,+00540,9,08,9",,,"08,99,1,04,1,02,1,00450,1,05,1,00,1",,"01,9",,,,"99999,9,10118,1","2,1,007,1,-001,1",,,"SYN106AAXX  25031 76458 32458 81702 10284 20240 30118 40122 52007 84250 90240 333 0/790 30/// 59001 84818 84358;","Q01  00002PRCP06"
"76458099999","2003-08-25T06:00:00","4","23.2","-106.4166666","4.0","COLONIA JUAN CARRASCO MAZATLAN SIN., MX","FM-12","99999","V020","100,1,N,0020,1","22000,1,9,N","012000,1,N,1","+0268,1","+0252,1","10137,1","06,0180,9,1",,,,"6,1,06,1","2,1,06,1",,,,"03,99,1,03,1,04,1,00250,1,00,1,00,1","0000,9","11,9",,"240,M,+0314,1","240,N,+0249,1","99999,9,10133,1","2,1,015,1,+010,1","01,1",,"SYN136AAXX  25061 76458 11362 31002 10268 20252 30133 40137 52015 60181 70162 83400 90553 333 0/400 10314 20249 32/// 55000 20364 58010 83607;",
"76458099999","2003-08-25T09:00:00","4","23.2","-106.4166666","4.0","COLONIA JUAN CARRASCO MAZATLAN SIN., MX","FM-12","99999","V020","060,1,N,0010,1","03600,1,C,N","012000,1,N,1","+0264,1","+0245,1","10130,1","06,0000,9,1",,,,,,"01,1,+00330,9,06,9",,,"07,99,1,01,1,04,1,00250,1,05,1,00,1",,"11,9",,,,"99999,9,10125,1","7,1,007,1,+003,1",,,"SYN106AAXX  25091 76458 32362 70601 10264 20245 30125 40130 57007 81450 90850 333 0/490 32/// 58003 81611 86358;","Q01  00002PRCP06"
"76458099999","2003-08-25T12:00:00","4","23.2","-106.4166666","4.0","COLONIA JUAN CARRASCO MAZATLAN SIN., MX","FM-12","99999","V020","999,9,C,0000,1","00180,1,9,N","008000,1,N,1","+0254,1","+0240,1","10132,1","06,0000,9,1",,,,,,"07,1,+00180,9,06,9",,,"07,99,1,07,1,05,1,00800,1,00,1,00,1",,"01,9",,"999,M,+0318,1","120,N,+0248,1","99999,9,10127,1","2,1,003,1,+013,1",,,"SYN112AAXX  25121 76458 32558 70000 10254 20240 30127 40132 52003 87500 91200 333 0/900 10318 20248 30/// 58013 87606;","Q01  00002PRCP06"
"76458099999","2003-08-25T15:00:00","4","23.2","-106.4166666","4.0","COLONIA JUAN CARRASCO MAZATLAN SIN., MX","FM-12","99999","V020","999,9,C,0000,1","09000,1,C,N","018000,1,N,1","+0264,1","+0247,1","10131,1","06,0000,9,1",,,,,,"02,1,+00210,9,08,9","02,1,+02400,9,03,9",,"05,99,1,02,1,02,1,00250,1,02,1,06,1",,"01,9",,,,"99999,9,10126,1","2,1,009,1,-001,1",,,"SYN112AAXX  25151 76458 32368 50000 10264 20247 30126 40131 52009 82226 91445 333 0/599 30/// 59001 82807 82358 81072;","Q01  00002PRCP06"
"76458099999","2003-08-25T18:00:00","4","23.2","-106.4166666","4.0","COLONIA JUAN CARRASCO MAZATLAN SIN., MX","FM-12","99999","V020","150,1,N,0030,1","22000,1,9,N","020000,1,N,1","+0314,1","+0253,1","10135,1","06,0000,9,1",,,,,,"02,1,+00600,9,08,9","01,1,+03600,9,04,9",,"04,99,1,02,1,05,1,99999,9,04,1,01,1",,"01,9",,"120,M,+0318,1","240,N,+0249,1","99999,9,10131,1","6,1,005,1,+999,9",,,"SYN124AAXX  25181 76458 32970 41503 10314 20253 30131 40135 56005 82541 91750 333 0/5// 10318 20249 30/// 58/// 82820 81462 81070;","Q01  00002PRCP06"
"76458099999","2003-08-25T21:00:00","4","23.2","-106.4166666","4.0","COLONIA JUAN CARRASCO MAZATLAN SIN., MX","FM-12","99999","V020","150,1,N,0030,1","03600,1,9,N","020000,1,N,1","+0308,1","+0255,1","10123,1","06,0000,9,1",,,,,,"04,1,+00600,9,08,9","02,1,+03600,9,04,9",,"07,99,1,04,1,05,1,99999,9,04,1,01,1",,"01,9",,,,"99999,9,10129,1","7,1,012,1,-004,1",,,"SYN112AAXX  25211 76458 32970 71503 10308 20255 30129 40123 57012 84541 92050 333 0/5// 30/// 59004 84820 82462 81070;","Q01  00002PRCP06"
"76458099999","2003-08-26T12:00:00","4","23.2","-106.4166666","4.0","COLONIA JUAN CARRASCO MAZATLAN SIN., MX","FM-12","99999","V020","330,1,N,0010,1","22000,1,9,N","014000,1,N,1","+0262,1","+0244,1","10125,1","06,0000,9,1","24,0000,9,1",,,,,"00,1,+99999,9,99,9",,,"00,99,1,00,1,00,1,99999,9,00,1,00,1",,"01,9","999,+0240,9","999,M,+0330,1","120,N,+0250,1","99999,9,10120,1","5,1,001,1,+003,1",,,"SYN100AAXX  26121 76458 32964 03301 10262 20244 30120 40125 55001 91148 333 10330 20250 30024 58003 70000;","Q01  00002PRCP06Q02  00002PRCP24"
"76458099999","2003-08-26T15:00:00","4","23.2","-106.4166666","4.0","COLONIA JUAN CARRASCO MAZATLAN SIN., MX","FM-12","99999","V020","020,1,N,0010,1","22000,1,C,N","018000,1,N,1","+0287,1","+0248,1","10136,1","06,0000,9,1",,,,,,"01,1,+00480,9,08,9",,,"05,99,1,01,1,01,1,00450,1,00,1,08,1",,"01,9",,,,"99999,9,10131,1","2,1,011,1,+005,1",,,"SYN112AAXX  26151 76458 32468 50201 10287 20248 30131 40136 52011 81108 91447 333 0/4/9 30/// 57849 58005 81816 84268;","Q01  00002PRCP06"
"76458099999","2003-08-26T21:00:00","4","23.2","-106.4166666","4.0","COLONIA JUAN CARRASCO MAZATLAN SIN., MX","FM-12","99999","V020","270,1,N,0030,1","99999,9,9,N","020000,1,N,1","+0314,1","+0242,1","10133,1","06,0000,9,1",,,,,,"02,1,+00600,9,08,9","01,1,+00720,9,09,9",,"06,99,1,03,1,05,1,99999,9,00,1,01,1",,"01,9",,,,"99999,9,10128,1","6,1,006,1,-012,1",,,"SYN112AAXX  26211 76458 32970 62703 10314 20242 30128 40133 56006 83501 92050 333 0/1// 30/// 59012 82820 81924 83070;","Q01  00002PRCP06"
"76458099999","2003-08-27T00:00:00","4","23.2","-106.4166666","4.0","COLONIA JUAN CARRASCO MAZATLAN SIN., MX","FM-12","99999","V020","260,1,N,0020,1","22000,1,9,N","020000,1,N,1","+0310,1","+0237,1","10116,1","06,0000,9,1","24,0000,9,1",,,,,"04,1,+06600,9,00,9",,,"04,99,1,00,1,00,1,99999,9,00,1,06,1",,"01,9",,"120,M,+0335,1","180,N,+0249,1","99999,9,10111,1","7,1,018,1,-003,1",,,"SYN118AAXX  27001 76458 32970 42602 10310 20237 30111 40116 57018 80006 92359 333 0/009 10335 20249 30/// 59003 70000 84072;","Q01  00002PRCP06"
"76458099999","2003-08-27T03:00:00","4","23.2","-106.4166666","4.0","COLONIA JUAN CARRASCO MAZATLAN SIN., MX","FM-12","99999","V020","280,1,N,0020,1","02400,1,9,N","008000,1,N,1","+0298,1","+0232,1","10127,1","06,0000,9,1",,,,,,"05,1,+02400,9,03,9",,,"05,99,1,99,9,00,1,99999,9,03,1,00,1",,"01,9",,,,"99999,9,10122,1","2,1,010,1,-003,1",,,"SYN100AAXX  27031 76458 32958 52802 10298 20232 30122 40127 52010 80030 90243 333 0/090 30/// 59003 85358;","Q01+000002SCOTLCQ02  00002PRCP06"
"76458099999","2003-08-27T06:00:00","4","23.2","-106.4166666","4.0","COLONIA JUAN CARRASCO MAZATLAN SIN., MX","FM-12","99999","V020","340,1,N,0020,1","22000,1,9,N","010000,1,N,1","+0279,1","+0247,1","10126,1","06,0000,9,1",,,,,,,,,"01,99,1,01,1,04,1,00450,1,00,1,00,1","0648,9","01,9",,"240,M,+0331,1","240,N,+0249,1","99999,9,10122,1","0,1,000,1,-005,1",,,"SYN124AAXX  27061 76458 32460 13402 10279 20247 30122 40126 50000 81400 90600 333 0/400 10331 20249 30/// 55108 21114 59005 81613;","Q01  00002PRCP06"
"76458099999","2003-08-27T09:00:00","4","23.2","-106.4166666","4.0","COLONIA JUAN CARRASCO MAZATLAN SIN., MX","FM-12","99999","V020","340,1,N,0020,1","22000,1,9,N","010000,1,N,1","+0270,1","+0241,1","10127,1","06,0000,9,1",,,,,,"02,1,+00360,9,06,9",,,"02,99,1,02,1,04,1,00450,1,00,1,00,1",,"01,9",,,,"99999,9,10123,1","2,1,001,1,+002,1",,,"SYN100AAXX  27091 76458 32460 23402 10270 20241 30123 40127 52001 82400 90850 333 0/900 30/// 58002 82612;","Q01  00002PRCP06"
"76458099999","2003-08-27T12:00:00","4","23.2","-106.4166666","4.0","COLONIA JUAN CARRASCO MAZATLAN SIN., MX","FM-12","99999","V020","360,1,N,0020,1","22000,1,9,N","010000,1,N,1","+0262,1","+0234,1","10128,1","06,0000,9,1","24,0000,9,1",,,,,"00,1,+99999,9,99,9",,,"00,99,1,00,1,00,1,99999,9,00,1,00,1",,"01,9","999,+0240,9","999,M,+0331,1","120,N,+0250,1","99999,9,10123,1","4,1,000,1,+000,1",,,"SYN100AAXX  27121 76458 32960 03602 10262 20234 30123 40128 54000 91150 333 10331 20250 30024 58000 70000;","Q01  00002PRCP06Q02  00002PRCP24"
"76458099999","2003-08-27T15:00:00","4","23.2","-106.4166666","4.0","COLONIA JUAN CARRASCO MAZATLAN SIN., MX","FM-12","99999","V020","340,1,N,0020,1","22000,1,C,N","018000,1,N,1","+0286,1","+0233,1","10136,1","06,0000,9,1",,,,,,"01,1,+03600,9,03,9",,,"05,99,1,01,1,00,1,02250,1,03,1,08,1",,"01,9",,,,"99999,9,10132,1","3,1,009,1,+001,1",,,"SYN112AAXX  27151 76458 32868 53402 10286 20233 30132 40136 53009 81038 91448 333 0//99 30/// 57399 58001 81362 84268;","Q01  00002PRCP06"
"76458099999","2003-08-27T18:00:00","4","23.2","-106.4166666","4.0","COLONIA JUAN CARRASCO MAZATLAN SIN., MX","FM-12","99999","V020","280,1,N,0030,1","22000,1,9,N","020000,1,N,1","+0302,1","+0246,1","10131,1","06,0000,9,1",,,,,,"01,1,+00690,9,08,9",,,"03,99,1,01,1,01,1,00800,1,00,1,06,1",,"01,9",,"120,M,+0328,1","240,N,+0248,1","99999,9,10126,1","7,1,006,1,-011,1",,,"SYN118AAXX  27181 76458 32570 32803 10302 20246 30126 40131 57006 81106 91745 333 0/109 10328 20248 30/// 59011 81823 82072;","Q01  00002PRCP06"
"76458099999","2003-08-27T21:00:00","4","23.2","-106.4166666","4.0","COLONIA JUAN CARRASCO MAZATLAN SIN., MX","FM-12","99999","V020","270,1,N,0030,1","22000,1,9,N","020000,1,N,1","+0312,1","+0254,1","10114,1","06,0000,9,1",,,,,,"02,1,+00720,9,08,9",,,"03,99,1,01,1,01,1,00800,1,00,1,06,1",,"01,9",,,,"99999,9,10109,1","7,1,017,1,-019,1",,,"SYN106AAXX  27211 76458 32570 32703 10312 20254 30109 40114 57017 81106 92045 333 0/109 30/// 59019 82824 81072;","Q01  00002PRCP06"
"76458099999","2003-08-28T00:00:00","4","23.2","-106.4166666","4.0","COLONIA JUAN CARRASCO MAZATLAN SIN., MX","FM-12","99999","V020","270,1,N,0050,1","22000,1,9,N","020000,1,N,1","+0310,1","+0234,1","10104,1","06,0000,9,1","24,0000,9,1",,,,,"01,1,+00960,9,09,9",,,"02,99,1,01,1,09,1,99999,9,99,9,01,1",,"01,9",,"120,M,+0330,1","180,N,+0248,1","99999,9,10100,1","5,1,009,1,-011,1",,,"SYN130AAXX  28001 76458 32970 22705 10310 20234 30100 40104 55009 819/1 92345 333 0/1/9 10330 20248 30/// 57913 59011 70000 81932 81070;","Q01  00002PRCP06"
"76458099999","2003-08-28T03:00:00","4","23.2","-106.4166666","4.0","COLONIA JUAN CARRASCO MAZATLAN SIN., MX","FM-12","99999","V020","300,1,N,0020,1","22000,1,9,N","008000,1,N,1","+0294,1","+0245,1","10108,1","06,0000,9,1",,,,,,"00,1,+99999,9,99,9",,,"00,99,1,00,1,00,1,99999,9,00,1,00,1",,"01,9",,,,"99999,9,10104,1","3,1,004,1,-018,1",,,"SYN082AAXX  28031 76458 32958 03002 10294 20245 30104 40108 53004 90240 333 30/// 59018;","Q01  00002PRCP06"
"76458099999","2003-08-28T09:00:00","4","23.2","-106.4166666","4.0","COLONIA JUAN CARRASCO MAZATLAN SIN., MX","FM-12","99999","V020","350,1,N,0020,1","22000,1,9,N","012000,1,N,1","+0276,1","+0241,1","10117,1","06,0000,9,1",,,,,,"00,1,+99999,9,99,9",,,"00,99,1,00,1,00,1,99999,9,00,1,00,1",,"01,9",,,,"99999,9,10113,1","7,1,004,1,-010,1",,,"SYN082AAXX  28091 76458 32962 03502 10276 20241 30113 40117 57004 90850 333 30/// 59010;","Q01  00002PRCP06"
"76458099999","2003-08-28T12:00:00","4","23.2","-106.4166666","4.0","COLONIA JUAN CARRASCO MAZATLAN SIN., MX","FM-12","99999","V020","999,9,C,0000,1","22000,1,9,N","012000,1,N,1","+0272,1","+0237,1","10115,1","06,0000,9,1","24,0000,9,1",,,,,"00,1,+99999,9,99,9",,,"00,99,1,00,1,00,1,99999,9,00,1,00,1",,"01,9","999,+0250,9","999,M,+0330,1","120,N,+0260,1","99999,9,10111,1","7,1,002,1,-012,1",,,"SYN100AAXX  28121 76458 32962 00000 10272 20237 30111 40115 57002 91150 333 10330 20260 30025 59012 70000;","Q01  00002PRCP06Q02  00002PRCP24"
"76458099999","2003-08-28T15:00:00","4","23.2","-106.4166666","4.0","COLONIA JUAN CARRASCO MAZATLAN SIN., MX","FM-12","99999","V020","999,9,C,0000,1","22000,1,9,N","018000,1,N,1","+0288,1","+0242,1","10123,1","06,0000,9,1",,,,,,"01,1,+03600,9,03,9",,,"01,99,1,01,1,00,1,02250,1,03,1,00,1",,"01,9",,,,"99999,9,10118,1","2,1,007,1,-014,1",,,"SYN106AAXX  28151 76458 32868 10000 10288 20242 30118 40123 52007 81030 91447 333 0//9/ 30/// 57399 59014 81362;","Q01  00002PRCP06"
"76458099999","2003-08-28T18:00:00","4","23.2","-106.4166666","4.0","COLONIA JUAN CARRASCO MAZATLAN SIN., MX","FM-12","99999","V020","270,1,N,0030,1","22000,1,9,N","020000,1,N,1","+0314,1","+0247,1","10124,1","06,0000,9,1",,,,,,"02,1,+00840,9,08,9",,,"02,99,1,02,1,02,1,00800,1,00,1,00,1",,"01,9",,"120,M,+0330,1","240,N,+0259,1","99999,9,10119,1","4,1,000,1,-007,1",,,"SYN112AAXX  28181 76458 32570 22703 10314 20247 30119 40124 54001 82200 91752 333 0/100 10330 20259 30/// 59007 82828;","Q01  00002PRCP06"
"76458099999","2003-08-28T21:00:00","4","23.2","-106.4166666","4.0","COLONIA JUAN CARRASCO MAZATLAN SIN., MX","FM-12","99999","V020","260,1,N,0030,1","22000,1,9,N","020000,1,N,1","+0322,1","+0253,1","10105,1","06,0000,9,1",,,,,,"02,1,+00840,9,08,9",,,"02,99,1,02,1,02,1,00800,1,00,1,00,1",,"01,9",,,,"99999,9,10100,1","7,1,019,1,-009,1",,,"SYN100AAXX  28211 76458 32570 22603 10322 20253 30100 40105 57019 82200 92050 333 0/100 30/// 59009 82828;","Q01  00002PRCP06"
"76458099999","2003-08-29T00:00:00","4","23.2","-106.4166666","4.0","COLONIA JUAN CARRASCO MAZATLAN SIN., MX","FM-12","99999","V020","330,1,N,0040,1","03600,1,C,N","020000,1,N,1","+0304,1","+0215,1","10097,1","06,0000,9,1","24,0000,9,1",,,,,"01,1,+01110,9,06,9",,,"06,99,1,01,1,04,1,02250,1,02,1,99,9",,"01,9",,"120,M,+0340,1","180,N,+0259,1","99999,9,10093,1","5,1,007,1,-007,1",,,"SYN130AAXX  29001 76458 32870 63304 10304 20215 30093 40097 55007 8142/ 92340 333 0079/ 10340 20259 30/// 57670 59007 70000 81637 85458;","Q01  00002PRCP06"
"76458099999","2003-08-29T03:00:00","4","23.2","-106.4166666","4.0","COLONIA JUAN CARRASCO MAZATLAN SIN., MX","FM-12","99999","V020","360,1,N,0020,1","06000,1,9,N","008000,1,N,1","+0280,1","+0214,1","10098,1","06,0000,9,1",,,,,,"06,1,+06000,9,00,9",,,"06,99,1,00,1,99,9,99999,9,99,9,02,1",,"01,9",,,,"99999,9,10094,1","0,1,001,1,-010,1",,,"SYN094AAXX  29031 76458 32958 63602 10280 20214 30094 40098 50001 80//2 90240 333 30/// 59010 86070;","Q01  00002PRCP06"
"76458099999","2003-08-29T09:00:00","4","23.2","-106.4166666","4.0","COLONIA JUAN CARRASCO MAZATLAN SIN., MX","FM-12","99999","V020","340,1,N,0020,1","22000,1,9,N","012000,1,N,1","+0264,1","+0228,1","10110,1","06,0000,9,1",,,,,,"00,1,+99999,9,99,9",,,"00,99,1,00,1,00,1,99999,9,00,1,00,1",,"01,9",,,,"99999,9,10105,1","7,1,002,1,-007,1",,,"SYN082AAXX  29091 76458 32962 03402 10264 20228 30105 40110 57002 90858 333 30/// 59007;","Q01  00002PRCP06"
"76458099999","2003-08-29T12:00:00","4","23.2","-106.4166666","4.0","COLONIA JUAN CARRASCO MAZATLAN SIN., MX","FM-12","99999","V020","999,9,C,0000,1","22000,1,9,N","012000,1,N,1","+0263,1","+0228,1","10105,1","06,0000,9,1","24,0000,9,1",,,,,"00,1,+99999,9,99,9",,,"00,99,1,00,1,00,1,99999,9,00,1,00,1",,"01,9","999,+0240,9","999,M,+0340,1","120,N,+0251,1","99999,9,10101,1","7,1,004,1,-010,1",,,"SYN100AAXX  29121 76458 32962 00000 10263 20228 30101 40105 57004 91150 333 10340 20251 30024 59010 70000;","Q01  00002PRCP06Q02  00002PRCP24"
"76458099999","2003-08-29T18:00:00","4","23.2","-106.4166666","4.0","COLONIA JUAN CARRASCO MAZATLAN SIN., MX","FM-12","99999","V020","250,1,N,0020,1","22000,1,9,N","020000,1,N,1","+0310,1","+0237,1","10111,1","06,0000,9,1",,,,,,"01,1,+00900,9,08,9",,,"01,99,1,01,1,02,1,00800,1,00,1,00,1",,"01,9",,"120,M,+0334,1","240,N,+0249,1","99999,9,10106,1","4,1,000,1,-013,1",,,"SYN112AAXX  29181 76458 32570 12502 10310 20237 30106 40111 54000 81200 91745 333 0/100 10334 20249 30/// 59013 81830;","Q01  00002PRCP06"
"76458099999","2003-08-29T21:00:00","4","23.2","-106.4166666","4.0","COLONIA JUAN CARRASCO MAZATLAN SIN., MX","FM-12","99999","V020","260,1,N,0030,1","22000,1,9,N","020000,1,N,1","+0320,1","+0248,1","10102,1","06,0000,9,1",,,,,,"01,1,+00900,9,08,9",,,"01,99,1,01,1,02,1,00800,1,00,1,00,1",,"01,9",,,,"99999,9,10097,1","7,1,009,1,-003,1",,,"SYN100AAXX  29211 76458 32570 12603 10320 20248 30097 40102 57009 81200 92042 333 0/100 300// 59003 81830;","Q01  00002PRCP06"
"76458099999","2003-08-30T00:00:00","4","23.2","-106.4166666","4.0","COLONIA JUAN CARRASCO MAZATLAN SIN., MX","FM-12","99999","V020","270,1,N,0030,1","22000,1,9,N","020000,1,N,1","+0312,1","+0257,1","10094,1","06,0000,9,1","24,0000,9,1",,,,,,,,"02,99,1,02,1,09,1,00800,1,99,9,99,9",,"01,9",,"120,M,+0340,1","180,N,+0249,1","99999,9,10090,1","5,1,007,1,-003,1",,,"SYN130AAXX  30001 76458 32570 22703 10312 20257 30090 40094 55007 829// 92345 333 0/1// 10340 20249 30/// 50611 57911 59003 70000 81923;","Q01  00002PRCP06"
"76458099999","2003-08-30T03:00:00","4","23.2","-106.4166666","4.0","COLONIA JUAN CARRASCO MAZATLAN SIN., MX","FM-12","99999","V020","280,1,N,0020,1","03600,1,C,N","008000,1,N,1","+0302,1","+0254,1","10110,1","06,0000,9,1",,,,"0,1,03,1","0,1,03,1","03,1,+00600,9,08,9","01,1,+00900,9,09,9",,"06,99,1,03,1,02,1,00800,1,03,1,99,9",,"01,9",,,,"99999,9,10105,1","2,1,015,1,+011,1","13,1",,"SYN124AAXX  30031 76458 31558 62802 10302 20254 30105 40110 52015 71300 8323/ 90240 333 0/59/ 30/// 57890 58011 83820 81930 82356;","Q01  00002PRCP06"
"76458099999","2003-08-30T12:00:00","4","23.2","-106.4166666","4.0","COLONIA JUAN CARRASCO MAZATLAN SIN., MX","FM-12","99999","V020","090,1,N,0020,1","22000,1,9,N","008000,1,N,1","+0268,1","+0237,1","10102,1","06,0000,9,1","24,0005,9,1",,,,,"00,1,+99999,9,99,9",,,"00,99,1,00,1,00,1,99999,9,00,1,00,1",,"01,9","999,+0250,9","999,M,+0340,1","120,N,+0259,1","99999,9,10098,1","7,1,003,1,-003,1",,,"SYN100AAXX  30121 76458 32958 00902 10268 20237 30098 40102 57003 91150 333 10340 20259 30025 59003 70004;","Q01  00002PRCP06"
"76458099999","2003-08-30T18:00:00","4","23.2","-106.4166666","4.0","COLONIA JUAN CARRASCO MAZATLAN SIN., MX","FM-12","99999","V020","250,1,N,0030,1","22000,1,9,N","020000,1,N,1","+0312,1","+0249,1","10102,1","06,0000,9,1",,,,,,"01,1,+00780,9,08,9",,,"02,99,1,01,1,02,1,00800,1,03,1,00,1",,"01,9",,"120,M,+0334,1","240,N,+0259,1","99999,9,10097,1","7,1,006,1,-009,1",,,"SYN124AAXX  30181 76458 32570 22503 10312 20249 30097 40102 57006 81230 91748 333 04190 10334 20259 30/// 57812 59009 81826 81361;","Q01  00002PRCP06"
"76458099999","2003-08-30T21:00:00","4","23.2","-106.4166666","4.0","COLONIA JUAN CARRASCO MAZATLAN SIN., MX","FM-12","99999","V020","270,1,N,0040,1","03600,1,C,N","020000,1,N,1","+0324,1","+0272,1","10089,1","06,0000,9,1",,,,,,"02,1,+00780,9,06,9","01,1,+01080,9,09,9",,"05,99,1,03,1,09,1,00800,1,03,1,00,1",,"01,9",,,,"99999,9,10085,1","7,1,012,1,-013,1",,,"SYN118AAXX  30211 76458 32570 52704 10324 20272 30085 40089 57012 83930 92050 333 07110 30/// 57912 59013 82626 81936 82359;","Q01  00002PRCP06"
"76458099999","2003-08-31T00:00:00","4","23.2","-106.4166666","4.0","COLONIA JUAN CARRASCO MAZATLAN SIN., MX","FM-12","99999","V020","270,1,N,0030,1","00600,1,9,N","020000,1,N,1","+0316,1","+0266,1","10080,1","06,0000,9,1",,,,,,"07,1,+00600,9,08,9",,,"07,99,1,07,1,05,1,00800,1,00,1,00,1",,"01,9",,"120,M,+0345,1","180,N,+0270,1","99999,9,10076,1","6,1,008,1,-014,1",,,"SYN118AAXX  31001 76458 32570 72703 10316 20266 30076 40080 56008 87500 92350 333 0/7// 10345 20270 30/// 50421 59014 87820;","Q01  00002PRCP06"
"76458099999","2003-08-31T03:00:00","4","23.2","-106.4166666","4.0","COLONIA JUAN CARRASCO MAZATLAN SIN., MX","FM-12","99999","V020","300,1,N,0030,1","03600,1,C,N","015000,1,N,1","+0300,1","+0260,1","10088,1","06,0000,9,1",,,,,,"04,1,+00600,9,08,9",,,"06,99,1,04,1,05,1,01250,1,03,1,99,9",,"01,9",,,,"99999,9,10084,1","2,1,012,1,-021,1",,,"SYN106AAXX  31031 76458 32665 63003 10300 20260 30084 40088 52012 8453/ 90250 333 0/850 30/// 59021 84820 82357;","Q01  00002PRCP06"
"76458099999","2003-08-31T06:00:00","4","23.2","-106.4166666","4.0","COLONIA JUAN CARRASCO MAZATLAN SIN., MX","FM-12","99999","V020","360,1,N,0020,1","00210,1,9,N","008000,1,N,1","+0292,1","+0262,1","10099,1","06,0000,9,1",,,,"0,1,06,1","0,1,06,1",,,,"06,99,1,06,1,05,1,00250,1,99,9,99,9",,,,,,"99999,9,10095,1","2,1,011,1,+999,9","13,1",,"SYN072AAXX  31061 76458 31358 63602 10292 20262 30095 40099 52011 71300 865//;","Q01  00002PRCP06"
"76458099999","2003-08-31T15:00:00","4","23.2","-106.4166666","4.0","COLONIA JUAN CARRASCO MAZATLAN SIN., MX","FM-12","99999","V020","999,9,C,0000,1","22000,1,9,N","018000,1,N,1","+0301,1","+0257,1","10085,1","06,0000,9,1",,,,,,"01,1,+00540,9,08,9",,,"02,99,1,01,1,01,1,00450,1,03,1,00,1",,"01,9",,,,"99999,9,10081,1","7,1,002,1,-022,1",,,"SYN106AAXX  31151 76458 32468 20000 10301 20257 30081 40085 57002 81130 91448 333 30/// 57869 59022 81818 81362;","Q01  00002PRCP06"
"76458099999","2003-08-31T18:00:00","4","23.2","-106.4166666","4.0","COLONIA JUAN CARRASCO MAZATLAN SIN., MX","FM-12","99999","V020","260,1,N,0020,1","03600,1,C,N","020000,1,N,1","+0315,1","+0262,1","10089,1","06,0000,9,1",,,,,,"02,1,+00990,9,08,9",,,"06,99,1,02,1,02,1,00800,1,03,1,00,1",,"01,9",,"120,M,+0338,1","240,N,+0278,1","99999,9,10084,1","2,1,006,1,-010,1",,,"SYN118AAXX  31181 76458 32570 62602 10315 20262 30084 40089 52006 82230 91756 333 0/190 10338 20278 30/// 59010 82833 84358;","Q01  00002PRCP06"
"76458099999","2003-08-31T21:00:00","4","23.2","-106.4166666","4.0","COLONIA JUAN CARRASCO MAZATLAN SIN., MX","FM-12","99999","V020","240,1,N,0030,1","03600,1,C,N","020000,1,N,1","+0314,1","+0264,1","10087,1","06,0000,9,1",,,,,,"04,1,+00600,9,08,9",,,"06,99,1,04,1,05,1,00250,1,03,1,99,9",,"01,9",,,,"99999,9,10082,1","6,1,004,1,-002,1",,,"SYN106AAXX  31211 76458 32370 62403 10314 20264 30082 40087 56004 8453/ 92050 333 0/2// 30/// 59002 84820 82357;","Q01  00002PRCP06"
"76458099999","2003-09-01T00:00:00","4","23.2","-106.4166666","4.0","COLONIA JUAN CARRASCO MAZATLAN SIN., MX","FM-12","99999","V020","240,1,N,0030,1","22000,1,9,N","020000,1,N,1","+0308,1","+0258,1","10074,1","06,0000,9,1","24,0000,9,1",,,,,"04,1,+00600,9,08,9",,,"04,99,1,04,1,05,1,00800,1,00,1,00,1",,"01,9",,"120,M,+0340,1","180,N,+0278,1","99999,9,10069,1","6,1,013,1,+007,1",,,"SYN118AAXX  01001 76458 32570 42403 10308 20258 30069 40074 56013 84500 92350 333 0/3// 10340 20278 30/// 58007 70000 84820;","Q01  00002PRCP06"
"76458099999","2003-09-01T03:00:00","4","23.2","-106.4166666","4.0","COLONIA JUAN CARRASCO MAZATLAN SIN., MX","FM-12","99999","V020","270,1,N,0020,1","22000,1,9,N","012000,1,N,1","+0300,1","+0248,1","10084,1","06,0000,9,1",,,,,,"02,1,+00600,9,08,9","01,1,+01050,9,08,9",,"04,99,1,03,1,05,1,99999,9,00,1,01,1",,"01,9",,,,"99999,9,10080,1","2,1,011,1,-004,1",,,"SYN112AAXX  01031 76458 31962 42702 10300 20248 30080 40084 52011 83501 90250 333 0/3// 30/// 59004 82820 81835 81070;","Q01  00002PRCP06"
"76458099999","2003-09-01T09:00:00","4","23.2","-106.4166666","4.0","COLONIA JUAN CARRASCO MAZATLAN SIN., MX","FM-12","99999","V020","060,1,N,0020,1","22000,1,9,N","008000,1,N,1","+0268,1","+0235,1","10099,1","03,0005,9,1",,,,"5,1,03,1","2,1,03,1","01,1,+00420,9,06,9",,,"03,99,1,01,1,04,1,00450,1,03,1,00,1",,"09,9",,,,"99999,9,10095,1","0,1,001,1,+001,1","01,1",,"SYN118AAXX  01091 76458 21458 30602 10268 20235 30095 40099 50001 70152 81430 90840 333 0/990 31/// 58001 69957 81614 82359;",
"76458099999","2003-09-01T15:00:00","4","23.2","-106.4166666","4.0","COLONIA JUAN CARRASCO MAZATLAN SIN., MX","FM-12","99999","V020","110,1,N,0010,1","22000,1,9,N","018000,1,N,1","+0282,1","+0237,1","10106,1","06,0000,9,1",,,,,,"02,1,+00600,9,06,9",,,"03,99,1,02,1,05,1,00800,1,03,1,00,1",,"01,9",,,,"99999,9,10101,1","2,1,023,1,+020,1",,,"SYN106AAXX  01151 76458 32568 31101 10282 20237 30101 40106 52023 82530 91245 333 0/190 30/// 58020 82620 81358;","Q01  00002PRCP06"
"76458099999","2003-09-01T21:00:00","4","23.2","-106.4166666","4.0","COLONIA JUAN CARRASCO MAZATLAN SIN., MX","FM-12","99999","V020","180,1,N,0020,1","22000,1,C,N","020000,1,N,1","+0324,1","+0257,1","10096,1","06,0000,9,1",,,,,,"02,1,+00840,9,08,9",,,"05,99,1,02,1,02,1,00800,1,00,1,06,1",,"01,9",,,,"99999,9,10092,1","7,1,008,1,+009,1",,,"SYN112AAXX  01211 76458 32570 51802 10324 20257 30092 40096 57008 82206 92055 333 04109 30/// 57811 58009 82828 83079;","Q01  00002PRCP06"
"76458099999","2003-09-02T03:00:00","4","23.2","-106.4166666","4.0","COLONIA JUAN CARRASCO MAZATLAN SIN., MX","FM-12","99999","V020","330,1,N,0030,1","22000,1,9,N","015000,1,N,1","+0299,1","+0248,1","10087,1","06,0000,9,1",,,,,,"02,1,+00600,9,08,9","01,1,+02100,9,03,9",,"04,99,1,02,1,02,1,99999,9,03,1,01,1",,"01,9",,,,"99999,9,10083,1","2,1,001,1,+003,1",,,"SYN112AAXX  02031 76458 32965 43303 10299 20248 30083 40087 52001 82231 90250 333 0/3// 30/// 58003 82820 81357 81070;","Q01  00002PRCP06"
"76458099999","2003-09-02T21:00:00","4","23.2","-106.4166666","4.0","COLONIA JUAN CARRASCO MAZATLAN SIN., MX","FM-12","99999","V020","270,1,N,0030,1","09000,1,C,N","018000,1,N,1","+0317,1","+0255,1","10079,1","06,0000,9,1",,,,,,"01,1,+00780,9,08,9",,,"07,99,1,01,1,02,1,00800,1,00,1,08,1",,"01,9",,,,"99999,9,10074,1","7,1,023,1,-018,1",,,"SYN112AAXX  02211 76458 32568 72703 10317 20255 30074 40079 57023 81208 92047 333 001/9 30/// 57819 59018 81826 86268;","Q01  00002PRCP06"
"76458099999","2003-09-03T00:00:00","4","23.2","-106.4166666","4.0","COLONIA JUAN CARRASCO MAZATLAN SIN., MX","FM-12","99999","V020","270,1,N,0030,1","22000,1,9,N","018000,1,N,1","+0312,1","+0249,1","10067,1","06,0000,9,1",,,,,,"04,1,+06600,9,02,9",,,"04,99,1,00,1,00,1,99999,9,00,1,06,1",,"01,9",,"120,M,+0345,1","180,N,+0250,1","99999,9,10062,1","7,1,012,1,-021,1",,,"SYN112AAXX  03001 76458 32968 42703 10312 20249 30062 40067 57012 80006 92355 333 0/009 10345 20250 30/// 59021 84272;","Q01  00002PRCP06"
"76458099999","2003-09-03T03:00:00","4","23.2","-106.4166666","4.0","COLONIA JUAN CARRASCO MAZATLAN SIN., MX","FM-12","99999","V020","250,1,N,0020,1","22000,1,9,N","008000,1,N,1","+0296,1","+0248,1","10083,1","06,0000,9,1",,,,,,"03,1,+02400,9,03,9",,,"04,99,1,99,9,00,1,99999,9,05,1,06,1",,"01,9",,,,"99999,9,10078,1","2,1,016,1,-005,1",,,"SYN106AAXX  03031 76458 32958 42502 10296 20248 30078 40083 52016 80056 90240 333 0/099 30/// 59005 83358 81072;","Q01+000002SCOTLCQ02  00002PRCP06"
"76458099999","2003-09-03T09:00:00","4","23.2","-106.4166666","4.0","COLONIA JUAN CARRASCO MAZATLAN SIN., MX","FM-12","99999","V020","330,1,N,0020,1","00300,1,9,N","008000,1,N,1","+0245,1","+0229,1","10109,1","03,0130,9,1",,,,"6,1,03,1","5,1,03,1","08,1,+00300,9,05,9",,,"08,99,1,08,1,00,1,00250,1,07,1,00,1",,"11,9",,,,"99999,9,10105,1","8,1,010,1,+019,1","51,1",,"SYN112AAXX  03091 76458 21358 83302 10245 20229 30105 40109 58010 75165 88070 90845 333 0/090 32/// 58019 60137 88510;",
"76458099999","2003-09-03T12:00:00","4","23.2","-106.4166666","4.0","COLONIA JUAN CARRASCO MAZATLAN SIN., MX","FM-12","99999","V020","999,9,C,0000,1","02100,1,9,N","008000,1,N,1","+0248,1","+0230,1","10108,1","06,0140,9,1",,,,,,,,,"08,99,1,08,1,00,1,02250,1,07,1,00,1",,,,,,"99999,9,10104,1","8,1,001,1,+999,9",,,"SYN072AAXX  03121 76458 11858 80000 10248 20230 30104 40108 58001 60141 88070;",
"76458099999","2003-09-03T15:00:00","4","23.2","-106.4166666","4.0","COLONIA JUAN CARRASCO MAZATLAN SIN., MX","FM-12","99999","V020","030,1,N,0020,1","99999,9,9,N","020000,1,N,1","+0264,1","+0238,1","10130,1","06,0000,2,1",,,,,,"04,1,+02400,9,03,9",,,"08,99,1,08,1,00,1,99999,9,07,1,00,1",,"11,9",,,,"99999,9,10126,1","2,1,022,1,+999,9",,,"SYN106AAXX  03151 76458 32970 80302 10264 20238 30126 40130 52022 88070 91445 333 0/090 32/// 58/// 84358 84461;",
"76458099999","2003-09-03T18:00:00","4","23.2","-106.4166666","4.0","COLONIA JUAN CARRASCO MAZATLAN SIN., MX","FM-12","99999","V020","090,1,N,0020,1","03600,1,C,N","020000,1,N,1","+0314,1","+0242,1","10130,1","06,0000,9,1",,,,,,"01,1,+00900,9,08,9","02,1,+03600,9,03,9",,"06,99,1,01,1,01,1,00800,1,03,1,08,1",,"01,9",,"120,M,+0324,1","240,N,+0231,1","99999,9,10126,1","0,1,000,1,+029,1",,,"SYN130AAXX  03180 76458 32570 60902 10314 20242 30126 40130 50000 81138 91748 333 0/199 10324 20231 30/// 57816 58029 81830 82362 83268;","Q01  00002PRCP06"
"76458099999","2003-09-03T21:00:00","4","23.2","-106.4166666","4.0","COLONIA JUAN CARRASCO MAZATLAN SIN., MX","FM-12","99999","V020","150,1,N,0030,1","22000,1,C,N","020000,1,N,1","+0323,1","+0222,1","10117,1","06,0000,9,1",,,,,,"01,1,+01260,9,08,9",,,"05,99,1,01,1,02,1,01750,1,00,1,04,1",,"01,9",,,,"99999,9,10113,1","7,1,013,1,+039,1",,,"SYN112AAXX  03211 76458 32770 51503 10323 20222 30113 40117 57013 81204 92047 333 006/9 30/// 57866 58039 81842 84070;","Q01  00002PRCP06"
"76458099999","2003-09-04T15:00:00","4","23.2","-106.4166666","4.0","COLONIA JUAN CARRASCO MAZATLAN SIN., MX","FM-12","99999","V020","090,1,N,0010,1","03600,1,C,N","010000,1,N,1","+0274,1","+0246,1","10138,1","06,0000,9,1",,,,,,"03,1,+00600,9,08,9","01,1,+00720,9,09,9",,"07,99,1,02,1,05,1,00250,1,03,1,99,9",,"01,9",,,,"99999,9,10134,1","2,1,011,1,+009,1",,,"SYN118AAXX  04151 76458 32360 70901 10274 20246 30134 40138 52011 8253/ 91450 333 0/39/ 30/// 57930 58009 83820 81924 83358;","Q01  00002PRCP06"
"76458099999","2003-09-04T18:00:00","4","23.2","-106.4166666","4.0","COLONIA JUAN CARRASCO MAZATLAN SIN., MX","FM-12","99999","V020","160,1,N,0040,1","03600,1,C,N","018000,1,N,1","+0309,1","+0246,1","10146,1","06,0000,9,1",,,,,,"03,1,+00780,9,08,9",,,"05,99,1,03,1,02,1,00800,1,03,1,00,1",,"01,9",,"120,M,+0348,1","240,N,+0265,1","99999,9,10141,1","0,1,007,1,+015,1",,,"SYN124AAXX  04181 76458 32568 51604 10309 20246 30141 40146 50007 83230 91755 333 04190 10348 20265 30/// 57811 58015 83826 82359;","Q01  00002PRCP06"
"76458099999","2003-09-04T21:00:00","4","23.2","-106.4166666","4.0","COLONIA JUAN CARRASCO MAZATLAN SIN., MX","FM-12","99999","V020","220,1,N,0020,1","09000,1,C,N","018000,1,N,1","+0304,1","+0248,1","10134,1","01,9999,2,9",,,,"2,1,03,1","2,1,03,1","03,1,+00690,9,08,9","03,1,+00720,9,06,9",,"07,99,1,03,1,02,1,01250,1,00,1,08,1",,"01,9",,,,"99999,9,10130,1","7,1,011,1,+017,1","50,1",,"SYN130AAXX  04211 76458 21668 72202 10304 20248 30130 40134 57011 75022 83208 92045 333 001/9 30/// 57819 58017 69905 83823 83624 81268;",
"76458099999","2003-09-05T00:00:00","4","23.2","-106.4166666","4.0","COLONIA JUAN CARRASCO MAZATLAN SIN., MX","FM-12","99999","V020","270,1,N,0020,1","02400,1,9,N","018000,1,N,1","+0293,1","+0246,1","10127,1","06,0000,2,1",,,,,,"04,1,+00570,9,08,9","02,1,+02400,9,03,9",,"07,99,1,04,1,02,1,00450,1,05,1,06,1",,"01,9",,"120,M,+0350,1","180,N,+0265,1","99999,9,10122,1","7,1,008,1,-021,1",,,"SYN130AAXX  05001 76458 32468 72702 10293 20246 30122 40127 57008 84256 92342 333 0/699 10350 20265 30/// 52801 59021 84819 82358 81072;",
"76458099999","2003-09-05T15:00:00","4","23.2","-106.4166666","4.0","COLONIA JUAN CARRASCO MAZATLAN SIN., MX","FM-12","99999","V020","120,1,N,0020,1","03600,1,C,N","018000,1,N,1","+0270,1","+0239,1","10148,1","06,0000,9,1",,,,,,"03,1,+00600,9,08,9","01,1,+00720,9,04,9",,"07,99,1,04,1,05,1,00250,1,03,1,00,1",,"01,9",,,,"99999,9,10144,1","2,1,013,1,+008,1",,,"SYN118AAXX  05151 76458 31368 71202 10270 20239 30144 40148 52013 84530 91450 333 0/300 30/// 57930 58008 83820 81424 83358;","Q01  00002PRCP06"
"76458099999","2003-09-05T18:00:00","4","23.2","-106.4166666","4.0","COLONIA JUAN CARRASCO MAZATLAN SIN., MX","FM-12","99999","V020","220,1,N,0020,1","04200,1,9,N","018000,1,N,1","+0294,1","+0240,1","10152,1","06,0000,9,1",,,,,,"03,1,+00660,9,08,9","03,1,+04200,9,03,9",,"07,99,1,03,1,02,1,00800,1,03,1,08,1",,"01,9",,"120,M,+0347,1","240,N,+0260,1","99999,9,10147,1","0,1,002,1,+006,1",,,"SYN130AAXX  05181 76458 32568 72202 10294 20240 30147 40152 50002 83238 91750 333 00199 10347 20260 30/// 57819 58006 83822 83364 81268;","Q01  00002PRCP06"
"76458099999","2003-09-05T21:00:00","4","23.2","-106.4166666","4.0","COLONIA JUAN CARRASCO MAZATLAN SIN., MX","FM-12","99999","V020","240,1,N,0030,1","03600,1,C,N","018000,1,N,1","+0306,1","+0246,1","10132,1","06,0000,9,1",,,,,,"02,1,+00750,9,06,9",,,"05,99,1,02,1,04,1,00800,1,03,1,00,1",,"01,9",,,,"99999,9,10127,1","7,1,020,1,-003,1",,,"SYN112AAXX  05211 76458 32568 52403 10306 20246 30127 40132 57020 82430 92047 333 0/69/ 30/// 57669 59003 82625 83364;","Q01  00002PRCP06"
"76458099999","2003-09-06T00:00:00","4","23.2","-106.4166666","4.0","COLONIA JUAN CARRASCO MAZATLAN SIN., MX","FM-12","99999","V020","290,1,N,0030,1","09000,1,C,N","018000,1,N,1","+0306,1","+0246,1","10113,1","06,0000,9,1",,,,,,"02,1,+00750,9,08,9","02,1,+02400,9,03,9",,"05,99,1,02,1,02,1,00800,1,03,1,06,1",,"01,9",,"180,N,+0260,1",,"99999,9,10108,1","7,1,018,1,-014,1",,,"SYN124AAXX  06001 76458 32568 52903 10306 20246 30108 40113 57018 82236 92350 333 0/199 19359 20260 30/// 59014 82825 82358 81072;","Q01  00002PRCP06"
"76458099999","2003-09-06T03:00:00","4","23.2","-106.4166666","4.0","COLONIA JUAN CARRASCO MAZATLAN SIN., MX","FM-12","99999","V020","290,1,N,0020,1","22000,1,9,N","008000,1,N,1","+0290,1","+0236,1","10130,1","06,0000,9,1",,,,,,"02,1,+00690,9,08,9",,,"04,99,1,02,1,02,1,00800,1,03,1,00,1",,"01,9",,,,"99999,9,10126,1","2,1,018,1,-006,1",,,"SYN106AAXX  06031 76458 32558 42902 10290 20236 30126 40130 52018 82230 90245 333 0/390 30/// 59006 82823 82358;","Q01  00002PRCP06"
"76458099999","2003-09-06T21:00:00","4","23.2","-106.4166666","4.0","COLONIA JUAN CARRASCO MAZATLAN SIN., MX","FM-12","99999","V020","220,1,N,0030,1","22000,1,9,N","020000,1,N,1","+0300,1","+0242,1","10130,1","06,0000,9,1",,,,,,"01,1,+00720,9,09,9",,,"04,99,1,01,1,03,1,00800,1,00,1,08,1",,"01,9",,,,"99999,9,10125,1","7,1,015,1,-002,1",,,"SYN112AAXX  06211 76458 32570 42203 10300 20242 30125 40130 57015 81308 92048 333 001/9 30/// 57916 59002 81924 83268;","Q01  00002PRCP06"
"76458099999","2003-09-07T00:00:00","4","23.2","-106.4166666","4.0","COLONIA JUAN CARRASCO MAZATLAN SIN., MX","FM-12","99999","V020","240,1,N,0020,1","03600,1,9,N","020000,1,N,1","+0290,1","+0245,1","10118,1","06,0000,9,1","24,0390,9,1",,,,,"02,1,+00570,9,08,9",,,"07,99,1,03,1,09,1,00450,1,06,1,06,1",,"09,9",,"120,M,+0315,1","180,N,+0260,1","99999,9,10114,1","5,1,011,1,+006,1",,,"SYN136AAXX  07001 76458 32470 72402 10290 20245 30114 40118 55011 83966 92355 333 03199 10315 20260 31/// 5//// 57712 58006 70390 82819 81934;","Q01  00002PRCP06"
"76458099999","2003-09-07T03:00:00","4","23.2","-106.4166666","4.0","COLONIA JUAN CARRASCO MAZATLAN SIN., MX","FM-12","99999","V020","240,1,N,0020,1","00540,1,9,N","016000,1,N,1","+0288,1","+0246,1","10126,1","06,0000,9,1",,,,,,"06,1,+00540,9,06,9",,,"07,99,1,07,1,09,1,00450,1,00,1,00,1",,"09,9",,,,"99999,9,10122,1","2,1,008,1,-003,1",,,"SYN112AAXX  07031 76458 32466 72402 10288 20246 30122 40126 52008 87900 90255 333 07100 31/// 57912 59003 86618 81934;","Q01  00002PRCP06"
"76458099999","2003-09-07T12:00:00","4","23.2","-106.4166666","4.0","COLONIA JUAN CARRASCO MAZATLAN SIN., MX","FM-12","99999","V020","999,9,C,0000,1","03600,1,C,N","008000,1,N,1","+0246,1","+0232,1","10123,1","24,0019,9,1",,,,,,"02,1,+00600,9,08,9","01,1,+00720,9,09,9",,"06,99,1,03,1,05,1,00450,1,02,1,00,1",,"09,9",,"999,M,+0315,1","120,N,+9999,9","99999,9,10129,1","2,1,008,1,-002,1",,,"SYN130AAXX  07121 76458 21458 60000 10246 20232 30129 40123 52008 83520 91150 333 0/5// 10315 20260 31/// 59002 70019 82820 81924 83458;","Q01 +02602ATMN  "
"76458099999","2003-09-07T15:00:00","4","23.2","-106.4166666","4.0","COLONIA JUAN CARRASCO MAZATLAN SIN., MX","FM-12","99999","V020","090,1,N,0030,1","03600,1,C,N","020000,1,N,1","+0269,1","+0248,1","10136,1","06,0000,9,1",,,,,,"02,1,+00600,9,08,9",,,"06,99,1,02,1,05,1,00450,1,03,1,00,1",,"01,9",,,,"99999,9,10131,1","3,1,002,1,-004,1",,,"SYN106AAXX  07151 76458 31470 60903 10269 20248 30131 40136 53002 82530 91450 333 0/2// 30/// 59004 82820 84356;","Q01  00002PRCP06"
"76458099999","2003-09-07T18:00:00","4","23.2","-106.4166666","4.0","COLONIA JUAN CARRASCO MAZATLAN SIN., MX","FM-12","99999","V020","180,1,N,0030,1","99999,9,9,N","020000,1,N,1","+0308,1","+0246,1","10135,1","06,0000,9,1",,,,,,"04,1,+00780,9,08,9",,,"07,99,1,04,1,02,1,00800,1,00,1,00,1",,"01,9",,"120,M,+0320,1","240,N,+0235,1","99999,9,10130,1","8,1,002,1,-010,1",,,"SYN124AAXX  07181 76458 32570 71803 10308 20246 30130 40135 58002 84200 91750 333 006// 10320 20235 30/// 57869 59010 84826 83627;","Q01  00002PRCP06"
"76458099999","2003-09-07T21:00:00","4","23.2","-106.4166666","4.0","COLONIA JUAN CARRASCO MAZATLAN SIN., MX","FM-12","99999","V020","200,1,N,0020,1","22000,1,9,N","020000,1,N,1","+0307,1","+0249,1","10122,1","06,0000,9,1",,,,,,"01,1,+00720,9,09,9",,,"02,99,1,01,1,03,1,00800,1,00,1,00,1",,"01,9",,,,"99999,9,10117,1","7,1,013,1,-008,1",,,"SYN112AAXX  07211 76458 32570 22002 10307 20249 30117 40122 57013 81300 92045 333 002// 30/// 57921 59008 81924 81825;","Q01  00002PRCP06"
"76458099999","2003-09-08T00:00:00","4","23.2","-106.4166666","4.0","COLONIA JUAN CARRASCO MAZATLAN SIN., MX","FM-12","99999","V020","260,1,N,0020,1","22000,1,9,N","020000,1,N,1","+0308,1","+0243,1","10102,1","06,0000,9,1",,,,,,"02,1,+00810,9,08,9",,,"02,99,1,02,1,02,1,00800,1,00,1,00,1",,"01,9",,"120,M,+0330,1","180,N,+0235,1","99999,9,10097,1","7,1,020,1,-015,1",,,"SYN118AAXX  08001 76458 32570 22602 10308 20243 30097 40102 57020 82200 92355 333 0/100 10330 20235 30/// 51861 59015 82827;","Q01  00002PRCP06"
"76458099999","2003-09-08T03:00:00","4","23.2","-106.4166666","4.0","COLONIA JUAN CARRASCO MAZATLAN SIN., MX","FM-12","99999","V020","290,1,N,0010,1","22000,1,9,N","008000,1,N,1","+0288,1","+0236,1","10111,1","06,0000,9,1",,,,,,"01,1,+00660,9,08,9",,,"01,99,1,01,1,02,1,00800,1,00,1,00,1",,"01,9",,,,"99999,9,10106,1","2,1,009,1,-016,1",,,"SYN100AAXX  08031 76458 32558 12901 10288 20236 30106 40111 52009 81200 90235 333 0/900 30/// 59016 81822;","Q01  00002PRCP06"
"76458099999","2003-09-08T15:00:00","4","23.2","-106.4166666","4.0","COLONIA JUAN CARRASCO MAZATLAN SIN., MX","FM-12","99999","V020","090,1,N,0010,1","09000,1,C,N","015000,1,N,1","+0270,1","+0239,1","10124,1","06,0000,9,1",,,,,,"02,1,+00390,9,06,9","02,1,+02400,9,03,9",,"05,99,1,02,1,05,1,00450,1,03,1,06,1",,"01,9",,,,"99999,9,10119,1","4,1,000,1,+999,9",,,"SYN106AAXX  08151 76458 32465 50901 10270 20239 30119 40124 54000 82536 91448 333 0/499 30/// 82613 82358 81072;","Q01  00002PRCP06"
"76458099999","2003-09-09T00:00:00","4","23.2","-106.4166666","4.0","COLONIA JUAN CARRASCO MAZATLAN SIN., MX","FM-12","99999","V020","210,1,N,0030,1","22000,1,9,N","020000,1,N,1","+0304,1","+0236,1","10109,1","06,0000,9,1",,,,,,"02,1,+00600,9,08,9","01,1,+02100,9,03,9",,"04,99,1,02,1,05,1,99999,9,03,1,01,1",,"01,9",,"120,M,+0327,1","180,N,+0238,1","99999,9,10104,1","4,1,000,1,+007,1",,,"SYN124AAXX  09001 76458 32970 42103 10304 20236 30104 40109 54/// 82531 92350 333 0/3// 10327 20238 30/// 58007 82820 81357 81070;","Q01  00002PRCP06"
"76458099999","2003-09-09T03:00:00","4","23.2","-106.4166666","4.0","COLONIA JUAN CARRASCO MAZATLAN SIN., MX","FM-12","99999","V020","210,1,N,0010,1","22000,1,9,N","015000,1,N,1","+0284,1","+0235,1","10111,1",,,,,,,"02,1,+00600,9,08,9",,,"04,99,1,04,1,05,1,00450,1,00,1,00,1",,"01,9",,,,"99999,9,10107,1","3,1,007,1,+001,1",,,"SYN106AAXX  09031 76458 21465 42101 10284 20235 30107 40111 53007 84500 90250 333 0/3// 30/// 58001 82820 82824;",
"76458099999","2003-09-09T21:00:00","4","23.2","-106.4166666","4.0","COLONIA JUAN CARRASCO MAZATLAN SIN., MX","FM-12","99999","V020","210,1,N,0040,1","99999,9,9,N","010000,1,N,1","+0310,1","+0248,1","10115,1","06,0000,9,1",,,,,,"02,1,+00540,9,08,9","02,1,+04200,9,09,9",,"05,99,1,04,1,08,1,99999,9,00,1,01,1",,"01,9",,,,"99999,9,10110,1","6,1,023,1,+999,9",,,"SYN112AAXX  09211 76458 32960 52104 10310 20248 30110 40115 56023 84801 92050 333 0/3// 30/// 58/// 82818 82964 81070;","Q01  00002PRCP06"
"76458099999","2003-09-10T18:00:00","4","23.2","-106.4166666","4.0","COLONIA JUAN CARRASCO MAZATLAN SIN., MX","FM-12","99999","V020","150,1,N,0030,1","22000,1,9,N","018000,1,N,1","+0313,1","+0242,1","10131,1","06,0000,9,1",,,,,,"03,1,+00600,9,08,9",,,"03,99,1,03,1,02,1,00800,1,00,1,00,1",,"01,9",,"120,M,+0330,1","240,N,+0257,1","99999,9,10127,1","0,1,000,1,-007,1",,,"SYN118AAXX  10181 76458 32568 31503 10313 20242 30127 40131 50000 83200 91748 333 008// 10330 20257 30/// 57889 59007 83820;","Q01  00002PRCP06"
"76458099999","2003-09-10T21:00:00","4","23.2","-106.4166666","4.0","COLONIA JUAN CARRASCO MAZATLAN SIN., MX","FM-12","99999","V020","270,1,N,0030,1","22000,1,9,N","020000,1,N,1","+0315,1","+0246,1","10118,1","06,0000,9,1",,,,,,"01,1,+00870,9,09,9",,,"01,99,1,01,1,03,1,00800,1,00,1,00,1",,"01,9",,,,"99999,9,10114,1","7,1,013,1,-001,1",,,"SYN106AAXX  10211 76458 32570 12703 10315 20246 30114 40118 57013 81300 92040 333 001// 30/// 57915 59001 81929;","Q01  00002PRCP06"
"76458099999","2003-09-11T00:00:00","4","23.2","-106.4166666","4.0","COLONIA JUAN CARRASCO MAZATLAN SIN., MX","FM-12","99999","V020","270,1,N,0020,1","22000,1,9,N","020000,1,N,1","+0312,1","+0245,1","10103,1","06,0000,9,1","24,0000,9,1",,,,,"02,1,+00810,9,08,9",,,"02,99,1,02,1,02,1,00800,1,00,1,00,1",,"01,9",,"120,M,+0335,1","180,N,+0257,1","99999,9,10098,1","2,1,015,1,-002,1",,,"SYN124AAXX  11001 76458 32570 22702 10312 20245 30098 40103 52015 82200 92345 333 02100 10335 20257 30/// 5//// 59002 70000 82827;","Q01  00002PRCP06"
"76458099999","2003-09-12T21:00:00","4","23.2","-106.4166666","4.0","COLONIA JUAN CARRASCO MAZATLAN SIN., MX","FM-12","99999","V020","270,1,N,0040,1","22000,1,9,N","020000,1,N,1","+0309,1","+0256,1","10098,1","06,0000,9,1",,,,,,"02,1,+00600,9,08,9",,,"03,99,1,02,1,05,1,99999,9,00,1,01,1",,"01,9",,,,"99999,9,10091,1","1,1,014,1,-063,1",,,"SYN106AAXX  12211 76458 32970 32704 10309 20256 30091 40098 51014 82501 92050 333 0/3// 30/// 59063 82820 81070;","Q01  00002PRCP06"
"76458099999","2003-09-13T00:00:00","4","23.2","-106.4166666","4.0","COLONIA JUAN CARRASCO MAZATLAN SIN., MX","FM-12","99999","V020","270,1,N,0020,1","22000,1,9,N","020000,1,N,1","+0310,1","+0257,1","10066,1","06,0000,9,1","24,0000,9,1",,,,,"02,1,+00660,9,08,9",,,"02,99,1,02,1,02,1,00800,1,00,1,00,1",,"01,9",,"120,M,+0331,1","180,N,+0252,1","99999,9,10062,1","7,1,029,1,-030,1",,,"SYN118AAXX  13000 76458 32570 22702 10310 20257 30062 40066 57029 82200 92343 333 0/100 10331 20252 30/// 59030 70000 82822;","Q01  00002PRCP06"
"76458099999","2003-09-13T21:00:00","4","23.2","-106.4166666","4.0","COLONIA JUAN CARRASCO MAZATLAN SIN., MX","FM-12","99999","V020","270,1,N,0030,1","22000,1,9,N","020000,1,N,1","+0319,1","+0252,1","10088,1","06,0000,9,1",,,,,,"03,1,+00540,9,08,9",,,"03,99,1,03,1,05,1,00800,1,00,1,00,1",,"01,9",,,,"99999,9,10084,1","6,1,016,1,-007,1",,,"SYN106AAXX  13211 76458 32570 32703 10319 20252 30084 40088 56016 83500 92050 333 0/1// 30/// 57862 59007 83818;","Q01  00002PRCP06"
"76458099999","2003-09-14T00:00:00","4","23.2","-106.4166666","4.0","COLONIA JUAN CARRASCO MAZATLAN SIN., MX","FM-12","99999","V020","270,1,N,0020,1","22000,1,9,N","020000,1,N,1","+0314,1","+0259,1","10069,1","06,0000,9,1","24,0061,9,1",,,,,,,,"01,99,1,01,1,02,1,00800,1,00,1,00,1",,"01,9",,"120,M,+0336,1","180,N,+0258,1","99999,9,10065,1","7,1,019,1,+003,1",,,"SYN130AAXX  14001 76458 32570 12702 10314 20259 30065 40069 57019 81200 92358 333 04100 10336 20258 30/// 50061 57818 58003 70061 81823;","Q01  00002PRCP06"
"76458099999","2003-09-14T15:00:00","4","23.2","-106.4166666","4.0","COLONIA JUAN CARRASCO MAZATLAN SIN., MX","FM-12","99999","V020","360,1,N,0020,1","02400,1,9,N","020000,1,N,1","+0260,1","+0232,1","10120,1","06,0000,9,1",,,,,,"05,1,+02400,9,03,9",,,"07,99,1,05,1,00,1,99999,9,05,1,02,1",,"09,9",,,,"99999,9,10115,1","3,1,007,1,+027,1",,,"SYN106AAXX  14151 76458 32970 73602 10260 20232 30115 40120 53007 85052 91450 333 0/099 31/// 58027 85358 82079;","Q01  00002PRCP06"
"76458099999","2003-09-14T18:00:00","4","23.2","-106.4166666","4.0","COLONIA JUAN CARRASCO MAZATLAN SIN., MX","FM-12","99999","V020","210,1,N,0030,1","99999,9,9,N","020000,1,N,1","+0317,1","+0243,1","10110,1","06,0000,9,1",,,,,,"02,1,+00540,9,08,9","02,1,+02400,9,03,9",,"07,99,1,02,1,05,1,99999,9,03,1,01,1",,"01,9",,"120,M,+0336,1","240,N,+0258,1","99999,9,10105,1","7,1,010,1,+005,1",,,"SYN130AAXX  14181 76458 32970 72103 10317 20243 30105 40110 57010 82531 91750 333 015// 10336 20258 30/// 57552 58005 82818 82358 83070;","Q01  00002PRCP06"
"76458099999","2003-09-14T21:00:00","4","23.2","-106.4166666","4.0","COLONIA JUAN CARRASCO MAZATLAN SIN., MX","FM-12","99999","V020","250,1,N,0030,1","99999,9,9,N","020000,1,N,1","+0314,1","+0247,1","10108,1","06,0000,9,1",,,,,,"02,1,+00540,9,08,9","01,1,+02400,9,03,9",,"06,99,1,02,1,05,1,99999,9,03,1,01,1",,"01,9",,,,"99999,9,10104,1","6,1,001,1,+020,1",,,"SYN118AAXX  14210 76458 32970 62503 10314 20247 30104 40108 56001 82531 92050 333 0/5// 30/// 57552 58020 82818 81358 81370;","Q01  00002PRCP06"
"76458099999","2003-09-15T21:00:00","4","23.2","-106.4166666","4.0","COLONIA JUAN CARRASCO MAZATLAN SIN., MX","FM-12","99999","V020","280,1,N,0060,1","09000,1,C,N","020000,1,N,1","+0316,1","+0255,1","10102,1","06,0000,9,1",,,,,,"01,1,+00750,9,08,9","01,1,+01020,9,09,9","02,1,+02700,9,03,9","05,99,1,02,1,09,1,00800,1,03,1,01,1",,"01,9",,,,"99999,9,10097,1","7,1,015,1,-007,1",,,"SYN124AAXX  15211 76458 32570 52806 10316 20255 30097 40102 57015 82931 92040 333 07199 30/// 57913 59007 81825 81934 82359 81079;","Q01  00002PRCP06"
"76458099999","2003-09-16T15:00:00","4","23.2","-106.4166666","4.0","COLONIA JUAN CARRASCO MAZATLAN SIN., MX","FM-12","99999","V020","340,1,N,0010,1","03600,1,C,N","020000,1,N,1","+0282,1","+0243,1","10105,1","06,0000,9,1",,,,,,"02,1,+00480,9,06,9",,,"07,99,1,02,1,05,1,00450,1,05,1,00,1",,"01,9",,,,"99999,9,10101,1","2,1,008,1,-014,1",,,"SYN106AAXX  16151 76458 32470 73401 10282 20243 30101 40105 52008 82550 91440 333 0/490 30/// 59014 82616 85357;","Q01  00002PRCP06"
"76458099999","2003-09-16T21:00:00","4","23.2","-106.4166666","4.0","COLONIA JUAN CARRASCO MAZATLAN SIN., MX","FM-12","99999","V020","280,1,N,0040,1","22000,1,9,N","020000,1,N,1","+0322,1","+0266,1","10089,1","06,0000,9,1",,,,,,"01,1,+00690,9,08,9",,,"03,99,1,01,1,01,1,00800,1,00,1,01,1",,"01,9",,,,"99999,9,10085,1","7,1,014,1,-012,1",,,"SYN112AAXX  16211 76458 32570 32804 10322 20266 30085 40089 57014 81101 92045 333 0/5/9 30/// 57855 59012 81823 82070;","Q01  00002PRCP06"
"76458099999","2003-09-17T21:00:00","4","23.2","-106.4166666","4.0","COLONIA JUAN CARRASCO MAZATLAN SIN., MX","FM-12","99999","V020","230,1,N,0020,1","09000,1,C,N","020000,1,N,1","+0304,1","+0239,1","10081,1","03,9999,9,9",,,,"5,1,03,1","0,1,03,1","04,1,+03600,9,03,9","01,1,+03600,9,04,9",,"06,99,1,04,1,00,1,02250,1,03,1,08,1",,"01,9",,,,"99999,9,10076,1","7,1,016,1,-009,1","02,1",,"SYN130AAXX  17211 76458 21870 62302 10304 20239 30076 40081 57016 70250 84038 92048 333 0//99 30/// 57399 59009 69907 84362 81462 81268;","Q01  99992PRCP03"
"76458099999","2003-09-18T00:00:00","4","23.2","-106.4166666","4.0","COLONIA JUAN CARRASCO MAZATLAN SIN., MX","FM-12","99999","V020","270,1,N,0020,1","03600,1,C,N","020000,1,N,1","+0305,1","+0249,1","10063,1","06,0000,9,1","24,0000,9,1",,,,,"01,1,+00690,9,08,9",,,"05,99,1,01,1,02,1,00800,1,05,1,00,1",,"01,9",,"120,M,+0321,1","180,N,+0231,1","99999,9,10059,1","7,1,017,1,-009,1",,,"SYN124AAXX  18001 76458 32570 52702 10305 20249 30059 40063 57017 81250 92355 333 02190 10321 20231 30/// 59009 70000 81823 84358;","Q01  00002PRCP06"
"76458099999","2003-09-18T12:00:00","4","23.2","-106.4166666","4.0","COLONIA JUAN CARRASCO MAZATLAN SIN., MX","FM-12","99999","V020","999,9,C,0000,1","22000,1,9,N","008000,1,N,1","+0270,1","+0251,1","10077,1","06,0000,9,1",,,,"0,1,06,1","0,1,06,1",,,,"03,99,1,01,1,09,1,00250,1,00,1,08,1",,,,,,"99999,9,10073,1","7,1,008,1,+999,9","13,1",,"SYN072AAXX  18121 76458 31358 30000 10270 20251 30073 40077 57008 71300 81908;","Q01  00002PRCP06"
"76458099999","2003-09-18T15:00:00","4","23.2","-106.4166666","4.0","COLONIA JUAN CARRASCO MAZATLAN SIN., MX","FM-12","99999","V020","999,9,C,0000,1","02400,1,9,N","012000,1,N,1","+0284,1","+0259,1","10089,1","06,0000,9,1",,,,,,"02,1,+00330,9,08,9","03,1,+02400,9,03,9",,"07,99,1,02,1,02,1,00450,1,05,1,00,1",,"01,9",,,,"99999,9,10085,1","2,1,012,1,-011,1",,,"SYN118AAXX  18151 76458 32462 70000 10284 20259 30085 40089 52012 82250 91458 333 04590 30/// 57856 59011 82811 83358 82461;","Q01  00002PRCP06"
"76458099999","2003-09-18T18:00:00","4","23.2","-106.4166666","4.0","COLONIA JUAN CARRASCO MAZATLAN SIN., MX","FM-12","99999","V020","060,1,N,0010,1","02400,1,9,N","012000,1,N,1","+0273,1","+0240,1","10089,1",,,,,,,"01,1,+00540,9,08,9","02,1,+00720,9,09,9","04,1,+02400,9,04,9","08,99,1,03,1,05,1,00800,1,03,1,01,1",,"09,9",,"120,M,+0320,1","240,N,+0231,1","99999,9,10085,1","2,1,001,1,-007,1",,,"SYN130AAXX  18181 76458 21562 80601 10273 20240 30085 40089 52001 83531 91750 333 0/3// 10320 20231 31/// 59007 81818 82924 84458 81070;",
"76458099999","2003-09-18T21:00:00","4","23.2","-106.4166666","4.0","COLONIA JUAN CARRASCO MAZATLAN SIN., MX","FM-12","99999","V020","240,1,N,0030,1","03600,1,C,N","018000,1,N,1","+0301,1","+0247,1","10081,1","06,0000,9,1",,,,,,"04,1,+01020,9,09,9",,,"08,99,1,04,1,09,1,00450,1,04,1,99,9",,"01,9",,,,"99999,9,10076,1","6,1,009,1,+999,9",,,"SYN106AAXX  18211 76458 32468 82403 10301 20247 30076 40081 56009 8494/ 92050 333 0/8// 30/// 58/// 84934 84458;","Q01  00002PRCP06"
"76458099999","2003-09-19T03:00:00","4","23.2","-106.4166666","4.0","COLONIA JUAN CARRASCO MAZATLAN SIN., MX","FM-12","99999","V020","280,1,N,0010,1","22000,1,9,N","008000,1,N,1","+0296,1","+0256,1","10061,1","06,0000,9,1",,,,,,"03,1,+02400,9,03,9",,,"03,99,1,99,9,00,1,99999,9,09,1,00,1",,"01,9",,,,"99999,9,10061,1","2,1,004,1,-010,1",,,"SYN100AAXX  19031 76458 32958 32801 10296 20256 30061 40061 52004 80090 90255 333 0/090 30/// 59010 83358;","Q01+000002SCOTLCQ02  00002PRCP06"
"76458099999","2003-09-19T06:00:00","4","23.2","-106.4166666","4.0","COLONIA JUAN CARRASCO MAZATLAN SIN., MX","FM-12","99999","V020","330,1,N,0020,1","22000,1,9,N","008000,1,N,1","+0288,1","+0248,1","10076,1","06,0000,9,1",,,,,,"01,1,+01800,9,03,9",,,"01,99,1,01,1,99,9,02250,1,03,1,99,9",,"01,9",,"240,M,+0325,1","240,N,+0256,1","99999,9,10071,1","0,1,010,1,-006,1",,,"SYN106AAXX  19061 76458 32858 13302 10288 20248 30071 40076 50010 81/3/ 90540 333 10325 20256 30/// 59006 81356;","Q01  00002PRCP06"
"76458099999","2003-09-19T09:00:00","4","23.2","-106.4166666","4.0","COLONIA JUAN CARRASCO MAZATLAN SIN., MX","FM-12","99999","V020","999,9,C,0000,1","03600,1,C,N","008000,1,N,1","+0276,1","+0246,1","10069,1","06,0000,9,1",,,,,,"02,1,+00360,9,08,9",,,"07,99,1,02,1,01,1,00250,1,03,1,99,9",,"01,9",,,,"99999,9,10065,1","7,1,006,1,-016,1",,,"SYN112AAXX  19091 76458 32358 70000 10276 20246 30065 40069 57006 8213/ 90840 333 0079/ 30/// 57870 59016 82812 85356;","Q01  00002PRCP06"
"76458099999","2003-09-19T12:00:00","4","23.2","-106.4166666","4.0","COLONIA JUAN CARRASCO MAZATLAN SIN., MX","FM-12","99999","V020","130,1,N,0060,1","99999,9,9,N","008000,1,N,1","+0279,1","+0251,1","10073,1","06,0000,9,1",,,,"9,1,06,1","9,1,06,1",,,,"08,99,1,03,1,09,1,00450,1,99,9,99,9",,,,,,"99999,9,10069,1","3,1,004,1,+999,9","17,1",,"SYN072AAXX  19121 76458 31458 81306 10279 20251 30069 40073 53004 71799 839//;","Q01  00002PRCP06"
"76458099999","2003-09-19T21:00:00","4","23.2","-106.4166666","4.0","COLONIA JUAN CARRASCO MAZATLAN SIN., MX","FM-12","99999","V020","300,1,N,0030,1","02100,1,9,N","018000,1,N,1","+0296,1","+0250,1","10057,1","06,0000,9,1",,,,,,"01,1,+00540,9,08,9","05,1,+02100,9,03,9",,"07,99,1,01,1,05,1,00150,1,03,1,00,1",,"01,9",,,,"99999,9,10052,1","7,1,023,1,-024,1",,,"SYN112AAXX  19211 76458 32268 73003 10296 20250 30052 40057 57023 81530 92050 333 0/2// 30/// 59024 81818 85357 81258;","Q01  00002PRCP06"
"76458099999","2003-09-20T12:00:00","4","23.2","-106.4166666","4.0","COLONIA JUAN CARRASCO MAZATLAN SIN., MX","FM-12","99999","V020","340,1,N,0020,1","05400,1,9,N","008000,1,N,1","+0268,1","+0246,1","10063,1","06,0000,9,1","24,0000,9,1",,,,,"05,1,+05400,9,02,9",,,"05,99,1,00,1,00,1,99999,9,00,1,08,1",,"01,9","999,+0240,9","999,M,+0320,1","120,N,+0246,1","99999,9,10058,1","7,1,012,1,-011,1",,,"SYN124AAXX  20121 76458 32958 53402 10268 20246 30058 40063 57012 80008 91150 333 0///9 10320 20246 30024 57299 59011 79999 85268;","Q01  00002PRCP06Q02  00002PRCP24"
"76458099999","2003-09-20T15:00:00","4","23.2","-106.4166666","4.0","COLONIA JUAN CARRASCO MAZATLAN SIN., MX","FM-12","99999","V020","999,9,C,0000,1","03600,1,9,N","018000,1,N,1","+0275,1","+0257,1","10066,1","06,0000,9,1",,,,,,"05,1,+03600,9,04,9",,,"08,99,1,99,9,00,1,02250,1,02,1,00,1",,"01,9",,,,"99999,9,10061,1","2,1,003,1,-012,1",,,"SYN112AAXX  20151 76458 32868 80000 10275 20257 30061 40066 52003 85020 91447 333 0//9/ 30/// 57499 59012 85462 83363;","Q01+000052SCOTLCQ02  00002PRCP06"
"76458099999","2003-09-20T18:00:00","4","23.2","-106.4166666","4.0","COLONIA JUAN CARRASCO MAZATLAN SIN., MX","FM-12","99999","V020","180,1,N,0030,1","03600,1,C,N","018000,1,N,1","+0305,1","+0263,1","10070,1","06,0000,9,1",,,,,,"01,1,+00720,9,09,9",,,"05,99,1,01,1,09,1,00450,1,02,1,00,1",,"01,9",,"120,M,+0320,1","240,N,+0246,1","99999,9,10066,1","2,1,005,1,-009,1",,,"SYN118AAXX  20181 76458 32468 51803 10305 20263 30066 40070 52005 81920 91750 333 0/6// 10320 20246 30/// 59009 81924 84258;","Q01  00002PRCP06"
"76458099999","2003-09-21T00:00:00","4","23.2","-106.4166666","4.0","COLONIA JUAN CARRASCO MAZATLAN SIN., MX","FM-12","99999","V020","250,1,N,0030,1","03600,1,C,N","020000,1,N,1","+0306,1","+0247,1","10048,1","06,0000,9,1","24,0000,9,1",,,,,"01,1,+00750,9,08,9",,,"07,99,1,01,1,02,1,00800,1,03,1,00,1",,"01,9",,"120,M,+0332,1","180,N,+0246,1","99999,9,10044,1","7,1,012,1,+999,9",,,"SYN130AAXX  21001 76458 32570 72503 10306 20247 30044 40048 57012 81230 92350 333 02190 10332 20246 30/// 5//// 57825 79999 81825 86358;","Q01  00002PRCP06Q02  00002PRCP24"
"76458099999","2003-09-21T15:00:00","4","23.2","-106.4166666","4.0","COLONIA JUAN CARRASCO MAZATLAN SIN., MX","FM-12","99999","V020","360,1,N,0020,1","03600,1,C,N","016000,1,N,1","+0246,1","+0235,1","10072,1","03,0110,9,1",,,,"5,1,03,1","6,1,03,1","05,1,+03600,9,04,9",,,"08,99,1,99,9,00,1,02250,1,02,1,00,1",,"11,9",,,,"99999,9,10067,1","1,1,006,1,+999,9","50,1",,"SYN123AAXX  21151 76458 21866 83602 10246 20235 30067 40072 51006 75056 85020 91445 333 0//9/ 32/// 57499 8005 60117 85462 83364;","Q01+000052SCOTLC"
"76458099999","2003-09-21T21:00:00","4","23.2","-106.4166666","4.0","COLONIA JUAN CARRASCO MAZATLAN SIN., MX","FM-12","99999","V020","020,1,N,0020,1","00150,1,9,N","015000,1,N,1","+0256,1","+0245,1","10077,1","12,0099,9,1",,,,"6,1,03,1","6,1,03,1","08,1,+00150,9,06,9",,,"08,99,1,08,1,08,1,00150,1,99,9,99,9",,"11,9",,,,"99999,9,10073,1","2,1,010,1,+017,1","21,1",,"SYN112AAXX  21211 76458 21265 80202 10256 20245 30073 40077 52010 60102 72166 888// 92050 333 0/9// 32/// 58017 88605;",
"76458099999","2003-09-22T00:00:00","4","23.2","-106.4166666","4.0","COLONIA JUAN CARRASCO MAZATLAN SIN., MX","FM-12","99999","V020","030,1,N,0010,1","00210,1,9,N","002100,1,N,1","+0257,1","+0241,1","10067,1","06,0130,9,1","24,0526,9,1",,,"6,1,06,1","6,1,06,1","08,1,+00210,9,06,9",,,"08,99,1,08,1,05,1,00025,1,00,1,00,1",,"11,9",,"120,M,+0290,1","180,N,+0230,1","99999,9,10063,1","7,1,010,1,+019,1","55,1",,"SYN136AAXX  22001 76458 21021 80301 10257 20241 30063 40067 57010 60031 75566 88500 92355 333 02900 10290 20230 32/// 58019 60131 70526 88607;",
"76458099999","2003-09-22T03:00:00","4","23.2","-106.4166666","4.0","COLONIA JUAN CARRASCO MAZATLAN SIN., MX","FM-12","99999","V020","060,1,N,0030,1","00360,1,9,N","999999,9,N,1","+0260,1","+0232,1","10073,1","06,0000,2,1",,,,,,"05,1,+00360,9,06,9",,,"08,99,1,05,1,05,1,00450,1,02,1,00,1",,"11,9",,,,"99999,9,10069,1","2,1,006,1,+009,1",,,"SYN106AAXX  22031 76458 32452 80603 10260 20232 30069 40073 52006 85520 90250 333 02990 32/// 58009 85612 83352;",
"76458099999","2003-09-22T12:00:00","4","23.2","-106.4166666","4.0","COLONIA JUAN CARRASCO MAZATLAN SIN., MX","FM-12","99999","V020","120,1,N,0030,1","03600,1,9,N","008000,1,N,1","+0208,1","+9999,9","10071,1","06,0000,9,1","24,0000,9,1",,,,,"02,1,+00720,9,09,9",,,"08,99,1,02,1,05,1,00250,1,03,1,00,1",,"09,9",,"120,N,+9999,9",,"99999,9,10066,1","2,1,002,1,+005,1",,,"SYN130AAXX  22121 76458 32358 81203 10208 20235 30066 40071 52002 82530 91150 333 0/4// 20290 20230 31/// 57942 58005 70000 82924 86357;","Q01  00002PRCP06Q02 +02902ATMN  "
"76458099999","2003-09-22T18:00:00","4","23.2","-106.4166666","4.0","COLONIA JUAN CARRASCO MAZATLAN SIN., MX","FM-12","99999","V020","120,1,N,0060,1","00210,1,9,N","000300,1,N,1","+0260,1","+0244,1","10116,1","03,0079,9,1",,,,"5,1,06,1","5,1,06,1","07,1,+00210,9,06,9",,,"07,99,1,07,1,05,1,00250,1,00,1,00,1",,"11,9",,"120,M,+0298,1","240,N,+0244,1","99999,9,10111,1","2,1,018,1,+045,1","65,1",,"SYN124AAXX  22181 76458 11303 71206 10260 20244 30111 40116 52018 60087 76555 87500 91742 333 0/200 10298 20244 32/// 58045 87607;",
"76458099999","2003-09-22T21:00:00","4","23.2","-106.4166666","4.0","COLONIA JUAN CARRASCO MAZATLAN SIN., MX","FM-12","99999","V020","110,1,N,0030,1","00390,1,9,N","018000,1,N,1","+0283,1","+0252,1","10112,1","03,0170,9,1",,,,"6,1,03,1","6,1,03,1","05,1,+00390,9,06,9",,,"07,99,1,05,1,05,1,00450,1,05,1,00,1",,"11,9",,,,"99999,9,10108,1","8,1,003,1,+035,1","02,1",,"SYN118AAXX  22211 76458 21468 71103 10283 20252 30108 40112 58003 70266 85550 92055 333 0/490 32/// 58035 60177 85613 82358;",
"76458099999","2003-09-23T00:00:00","4","23.2","-106.4166666","4.0","COLONIA JUAN CARRASCO MAZATLAN SIN., MX","FM-12","99999","V020","180,1,N,0030,1","22000,1,9,N","018000,1,N,1","+0295,1","+0250,1","10106,1","06,0000,2,1","24,0174,9,1",,,,,"04,1,+00570,9,08,9",,,"99,99,9,99,9,99,9,99999,9,00,1,00,1",,"01,9",,"120,M,+0310,1","180,N,+0244,1","99999,9,10102,1","7,1,008,1,+999,9",,,"SYN130AAXX  23001 76458 32468 01803 10295 20250 30102 40106 57008 84230 92348 333 02190 10310 20244 30/// 59999 58039 70174 84819 82358;","Q01+000002SCOTCVQ02+000002SCOTLCQ03+000002SCOLCG"
"76458099999","2003-09-23T03:00:00","4","23.2","-106.4166666","4.0","COLONIA JUAN CARRASCO MAZATLAN SIN., MX","FM-12","99999","V020","030,1,N,0020,1","22000,1,9,N","008000,1,N,1","+0270,1","+0231,1","10121,1","06,0000,9,1",,,,,,"03,1,+02400,9,03,9",,,"03,99,1,99,9,00,1,99999,9,03,1,00,1",,"01,9",,,,"99999,9,10117,1","2,1,015,1,+048,1",,,"SYN100AAXX  23031 76458 32958 30302 10270 20231 30117 40121 52015 80030 90255 333 0/090 30/// 58048 83358;","Q01+000002SCOTLCQ02  00002PRCP06"
"76458099999","2003-09-23T06:00:00","4","23.2","-106.4166666","4.0","COLONIA JUAN CARRASCO MAZATLAN SIN., MX","FM-12","99999","V020","090,1,N,0020,1","22000,1,9,N","008000,1,N,1","+0256,1","+0242,1","10140,1","02,0899,9,1",,,,,,,,,"01,99,1,01,1,01,1,00150,1,99,9,99,9",,,,,,"99999,9,10136,1","2,1,019,1,+999,9",,,"SYN072AAXX  23061 76458 12258 10902 10256 20242 30136 40140 52019 60906 811//;",
"76458099999","2003-09-23T09:00:00","4","23.2","-106.4166666","4.0","COLONIA JUAN CARRASCO MAZATLAN SIN., MX","FM-12","99999","V020","090,1,N,0010,1","06000,1,9,N","008000,1,N,1","+0254,1","+0240,1","10135,1","06,0000,9,1",,,,,,"06,1,+06000,9,00,9",,,"06,99,1,00,1,99,9,99999,9,99,9,06,1",,"09,9",,,,"99999,9,10131,1","7,1,005,1,+067,1",,,"SYN094AAXX  23091 76458 32958 60901 10254 20240 30131 40135 57005 80//6 90840 333 31/// 58067 86070;","Q01  00002PRCP06"
"76458099999","2003-09-23T15:00:00","4","23.2","-106.4166666","4.0","COLONIA JUAN CARRASCO MAZATLAN SIN., MX","FM-12","99999","V020","090,1,N,0010,1","09000,1,C,N","020000,1,N,1","+0276,1","+0245,1","10142,1","06,0000,9,1",,,,,,"01,1,+00390,9,08,9","02,1,+02400,9,03,9",,"05,99,1,01,1,02,1,00450,1,05,1,02,1",,"09,9",,,,"99999,9,10138,1","2,1,009,1,+044,1",,,"SYN118AAXX  23151 76458 32470 50901 10276 20245 30138 40142 52009 81252 91450 333 04699 31/// 57867 58044 81813 82358 82079;","Q01  00002PRCP06"
"76458099999","2003-09-23T21:00:00","4","23.2","-106.4166666","4.0","COLONIA JUAN CARRASCO MAZATLAN SIN., MX","FM-12","99999","V020","240,1,N,0020,1","22000,1,9,N","020000,1,N,1","+0308,1","+0249,1","10128,1","06,0000,9,1",,,,,,"01,1,+00750,9,08,9",,,"01,99,1,01,1,01,1,00800,1,00,1,00,1",,"01,9",,,,"99999,9,10124,1","7,1,018,1,+016,1",,,"SYN106AAXX  23211 76458 32570 12402 10308 20249 30124 40128 57018 81100 92045 333 0/1// 30/// 57819 58016 81825;","Q01  00002PRCP06"
"76458099999","2003-09-24T00:00:00","4","23.2","-106.4166666","4.0","COLONIA JUAN CARRASCO MAZATLAN SIN., MX","FM-12","99999","V020","270,1,N,0020,1","22000,1,9,N","020000,1,N,1","+0302,1","+0241,1","10106,1","06,0000,9,1","24,0089,9,1",,,,,"02,1,+00750,9,08,9",,,"02,99,1,02,1,02,1,00800,1,00,1,00,1",,"01,9",,"120,M,+0335,1","180,N,+0244,1","99999,9,10102,1","7,1,022,1,+001,1",,,"SYN124AAXX  24001 76458 32570 22702 10302 20241 30102 40106 57022 82200 92345 333 02100 10335 20244 30/// 5//// 58001 70089 82825;","Q01  00002PRCP06"
"76458099999","2003-09-24T03:00:00","4","23.2","-106.4166666","4.0","COLONIA JUAN CARRASCO MAZATLAN SIN., MX","FM-12","99999","V020","300,1,N,0020,1","22000,1,9,N","008000,1,N,1","+0283,1","+0240,1","10121,1","06,0000,9,1",,,,,,"02,1,+00540,9,08,9",,,"99,99,9,01,1,02,1,00450,1,00,1,00,1",,"01,9",,,,"99999,9,10117,1","2,1,015,1,-001,1",,,"SYN100AAXX  24031 76458 32458 13002 10283 20240 30117 40121 52015 81200 90250 333 02100 30/// 59001 82818;","Q01+000012SCOTCVQ02  00002PRCP06"
"76458099999","2003-09-24T09:00:00","4","23.2","-106.4166666","4.0","COLONIA JUAN CARRASCO MAZATLAN SIN., MX","FM-12","99999","V020","330,1,N,0020,1","22000,1,9,N","008000,1,N,1","+0254,1","+0238,1","10128,1","06,0000,9,1",,,,,,"01,1,+00540,9,08,9",,,"01,99,1,01,1,02,1,00450,1,00,1,00,1",,"01,9",,,,"99999,9,10123,1","6,1,008,1,-007,1",,,"SYN100AAXX  24091 76458 32458 13302 10254 20238 30123 40128 56008 81200 90850 333 0/3// 30/// 59007 81818;","Q01  00002PRCP06"
"76458099999","2003-09-24T12:00:00","4","23.2","-106.4166666","4.0","COLONIA JUAN CARRASCO MAZATLAN SIN., MX","FM-12","99999","V020","330,1,N,0020,1","22000,1,9,N","008000,1,N,1","+0253,1","+0232,1","10123,1","06,0000,9,1","24,0000,9,1",,,,,"02,1,+05400,9,02,9",,,"02,99,1,00,1,00,1,99999,9,00,1,05,1",,"01,9","999,+0230,9","999,M,+0335,1","120,N,+0240,1","99999,9,10119,1","7,1,005,1,-010,1",,,"SYN124AAXX  24121 76458 32958 23302 10253 20232 30119 40123 57005 80005 91148 333 0///9 10335 20240 30023 57299 59010 70000 82268;","Q01  00002PRCP06"
"76458099999","2003-09-24T15:00:00","4","23.2","-106.4166666","4.0","COLONIA JUAN CARRASCO MAZATLAN SIN., MX","FM-12","99999","V020","330,1,N,0020,1","03600,1,C,N","018000,1,N,1","+0269,1","+0232,1","10128,1","06,0000,9,1",,,,,,"01,1,+00450,9,08,9","01,1,+05100,9,03,9",,"07,99,1,01,1,01,1,00450,1,03,1,08,1",,"01,9",,,,"99999,9,10124,1","2,1,005,1,-014,1",,,"SYN118AAXX  24151 76458 32468 73302 10269 20232 30124 40128 52005 81138 91445 333 0/599 30/// 57859 59014 81815 81367 85268;","Q01  00002PRCP06"
"76458099999","2003-09-24T21:00:00","4","23.2","-106.4166666","4.0","COLONIA JUAN CARRASCO MAZATLAN SIN., MX","FM-12","99999","V020","290,1,N,0030,1","22000,1,9,N","020000,1,N,1","+0304,1","+0238,1","10105,1","06,0000,9,1",,,,,,"01,1,+00840,9,08,9","01,1,+01020,9,09,9",,"03,99,1,02,1,03,1,00800,1,00,1,02,1",,"01,9",,,,"99999,9,10101,1","7,1,021,1,-023,1",,,"SYN118AAXX  24211 76458 32570 32903 10304 20238 30101 40105 57021 82302 92054 333 04109 30/// 57915 59023 81828 81934 81079;","Q01  00002PRCP06"
"76458099999","2003-09-25T00:00:00","4","23.2","-106.4166666","4.0","COLONIA JUAN CARRASCO MAZATLAN SIN., MX","FM-12","99999","V020","280,1,N,0020,1","22000,1,9,N","020000,1,N,1","+0302,1","+0241,1","10090,1","06,0000,9,1","24,0000,9,1",,,,,"01,1,+00750,9,08,9",,,"01,99,1,01,1,02,1,00800,1,00,1,00,1",,"01,9",,"120,M,+0326,1","180,N,+0239,1","99999,9,10086,1","7,1,015,1,-016,1",,,"SYN124AAXX  25001 76458 32570 12802 10302 20241 30086 40090 57015 81200 92351 333 02100 10326 20239 30/// 54431 59016 70000 81825;","Q01  00002PRCP06"
"76458099999","2003-09-25T03:00:00","4","23.2","-106.4166666","4.0","COLONIA JUAN CARRASCO MAZATLAN SIN., MX","FM-12","99999","V020","300,1,N,0020,1","22000,1,9,N","008000,1,N,1","+0286,1","+0244,1","10099,1","06,0000,9,1",,,,,,"03,1,+00510,9,08,9",,,"03,99,1,03,1,02,1,00450,1,00,1,00,1",,"01,9",,,,"99999,9,10095,1","2,1,009,1,-021,1",,,"SYN100AAXX  25031 76458 32458 33002 10286 20244 30095 40099 52009 83200 90253 333 02300 30/// 59021 83817;","Q01  00002PRCP06"
"76458099999","2003-09-25T06:00:00","4","23.2","-106.4166666","4.0","COLONIA JUAN CARRASCO MAZATLAN SIN., MX","FM-12","99999","V020","999,9,C,0000,1","22000,1,9,N","008000,1,N,1","+0276,1","+0244,1","10115,1","06,0000,9,1",,,,,,"01,1,+06000,9,00,9",,,"01,99,1,00,1,99,9,99999,9,99,9,06,1","0594,9","01,9",,"240,M,+0326,1","240,N,+0239,1","99999,9,10111,1","2,1,016,1,-020,1",,,"SYN112AAXX  25061 76458 32958 10000 10276 20244 30111 40115 52016 80//6 90540 333 10326 20239 30/// 55099 59020 81070;","Q01  00002PRCP06"
"76458099999","2003-09-25T15:00:00","4","23.2","-106.4166666","4.0","COLONIA JUAN CARRASCO MAZATLAN SIN., MX","FM-12","99999","V020","120,1,N,0020,1","22000,1,9,N","016000,1,N,1","+0282,1","+0248,1","99999,9","06,0000,9,1",,,,,,,,,"01,99,1,99,9,99,9,99999,9,99,9,99,9",,,,,,,,,,"SYN096AAXX  25151 76458 32966 11202 10282 20248 0/009 30/// 30108 40112 52011 59016 80001 81079 91453;","Q01  00002PRCP06"
"76458099999","2003-09-25T18:00:00","4","23.2","-106.4166666","4.0","COLONIA JUAN CARRASCO MAZATLAN SIN., MX","FM-12","99999","V020","270,1,N,0030,1","22000,1,9,N","010000,1,N,1","+0302,1","+0246,1","10114,1","06,0000,9,1",,,,,,"02,1,+00540,9,08,9",,,"04,99,1,04,1,05,1,99999,9,00,1,00,1",,"01,9",,"120,M,+0326,1","240,N,+0239,1","99999,9,10109,1","2,1,001,1,-012,1",,,"SYN124AAXX  25181 76458 32960 42703 10302 20246 30109 40114 52001 84500 91750 333 0/600 10326 20239 30/// 57962 59012 82818 82934;","Q01  00002PRCP06"
"76458099999","2003-09-25T21:00:00","4","23.2","-106.4166666","4.0","COLONIA JUAN CARRASCO MAZATLAN SIN., MX","FM-12","99999","V020","270,1,N,0040,1","22000,1,9,N","020000,1,N,1","+0306,1","+0255,1","10099,1","06,0000,9,1",,,,,,"02,1,+00540,9,08,9",,,"04,99,1,04,1,05,1,00450,1,00,1,00,1",,"01,9",,,,"99999,9,10095,1","6,1,014,1,+000,1",,,"SYN112AAXX  25211 76458 32470 42704 10306 20255 30095 40099 56014 84500 92050 333 0/8// 30/// 57962 58000 82818 82434;","Q01  00002PRCP06"
"76458099999","2003-09-26T00:00:00","4","23.2","-106.4166666","4.0","COLONIA JUAN CARRASCO MAZATLAN SIN., MX","FM-12","99999","V020","280,1,N,0020,1","22000,1,9,N","020000,1,N,1","+0310,1","+0257,1","10075,1","06,0000,9,1","24,0000,9,1",,,,,"03,1,+00660,9,08,9",,,"03,99,1,03,1,02,1,00800,1,00,1,00,1","0366,9","01,9",,"120,M,+0330,1","180,N,+0250,1","99999,9,10071,1","7,1,024,1,-015,1",,,"SYN124AAXX  26001 76458 32570 32802 10310 20257 30071 40075 57024 83200 92345 333 02300 10330 20250 30/// 55061 59015 70000 83822;","Q01  00002PRCP06"
"76458099999","2003-09-26T03:00:00","4","23.2","-106.4166666","4.0","COLONIA JUAN CARRASCO MAZATLAN SIN., MX","FM-12","99999","V020","300,1,N,0020,1","22000,1,9,N","008000,1,N,1","+0294,1","+0259,1","10088,1","06,0000,9,1",,,,,,"04,1,+00510,9,08,9",,,"04,99,1,04,1,02,1,00450,1,00,1,00,1",,"01,9",,,,"99999,9,10084,1","2,1,009,1,-011,1",,,"SYN100AAXX  26031 76458 32458 43002 10294 20259 30084 40088 52009 84200 90245 333 02300 30/// 59011 84817;","Q01  00002PRCP06"
"76458099999","2003-09-26T09:00:00","4","23.2","-106.4166666","4.0","COLONIA JUAN CARRASCO MAZATLAN SIN., MX","FM-12","99999","V020","360,1,N,0020,1","22000,1,9,N","008000,1,N,1","+0276,1","+0252,1","10088,1","06,0000,9,1",,,,,,"02,1,+00300,9,08,9",,,"02,99,1,02,1,02,1,00450,1,99,9,99,9",,"01,9",,,,"99999,9,10084,1","7,1,006,1,-018,1",,,"SYN106AAXX  26091 76458 32458 23602 10276 20252 30084 40088 57006 822// 90840 333 0/5// 30/// 57850 59018 82810;","Q01  00002PRCP06"
"76458099999","2003-09-26T12:00:00","4","23.2","-106.4166666","4.0","COLONIA JUAN CARRASCO MAZATLAN SIN., MX","FM-12","99999","V020","999,9,C,0000,1","22000,1,9,N","008000,1,N,1","+0280,1","+0248,1","10087,1","06,0000,9,1","24,0000,9,1",,,,,,,,"02,99,1,02,1,04,1,00450,1,00,1,00,1",,"01,9",,"999,M,+0330,1","120,N,+0263,1","99999,9,10083,1","5,1,001,1,-014,1",,,"SYN130AAXX  26121 76458 32458 20000 10280 20248 30083 40087 55001 82400 91148 333 0/6// 10330 20263 30/// 30025 57669 59014 70000 82613;","Q01  00002PRCP06"
"76458099999","2003-09-26T15:00:00","4","23.2","-106.4166666","4.0","COLONIA JUAN CARRASCO MAZATLAN SIN., MX","FM-12","99999","V020","360,1,N,0040,1","22000,1,9,N","018000,1,N,1","+0290,1","+0245,1","10097,1","06,0000,9,1",,,,,,"01,1,+00570,9,08,9",,,"01,99,1,01,1,02,1,00450,1,00,1,00,1",,"01,9",,,,"99999,9,10093,1","2,1,010,1,-015,1",,,"SYN106AAXX  26151 76458 32468 13604 10290 20245 30093 40097 52010 81200 91448 333 0/5// 30/// 57856 59015 81819;","Q01  00002PRCP06"
"76458099999","2003-09-26T21:00:00","4","23.2","-106.4166666","4.0","COLONIA JUAN CARRASCO MAZATLAN SIN., MX","FM-12","99999","V020","240,1,N,0030,1","22000,1,9,N","020000,1,N,1","+0311,1","+0252,1","10091,1","06,0000,9,1",,,,,,"03,1,+00540,9,08,9",,,"03,99,1,03,1,02,1,00250,1,00,1,00,1",,"01,9",,,,"99999,9,10087,1","7,1,009,1,-008,1",,,"SYN106AAXX  26211 76458 32370 32403 10311 20252 30087 40091 57009 83200 92050 333 0/1// 30/// 57816 59008 83818;","Q01  00002PRCP06"
"76458099999","2003-09-27T00:00:00","4","23.2","-106.4166666","4.0","COLONIA JUAN CARRASCO MAZATLAN SIN., MX","FM-12","99999","V020","280,1,N,0020,1","22000,1,9,N","020000,1,N,1","+0308,1","+0246,1","10075,1","06,0000,9,1",,,,,,"03,1,+00720,9,08,9",,,"03,99,1,03,1,02,1,00800,1,00,1,00,1",,"01,9",,"120,M,+0333,1","180,N,+0261,1","99999,9,10071,1","7,1,016,1,-001,1",,,"SYN118AAXX  27001 76458 32570 32802 10308 20246 30071 40075 57016 83200 92355 333 02100 10333 20261 30/// 55321 59001 83824;","Q01  00002PRCP06"
"76458099999","2003-09-27T03:00:00","4","23.2","-106.4166666","4.0","COLONIA JUAN CARRASCO MAZATLAN SIN., MX","FM-12","99999","V020","320,1,N,0010,1","22000,1,9,N","008000,1,N,1","+0286,1","+0244,1","10086,1","06,0000,9,1",,,,,,"01,1,+00720,9,08,9",,,"01,99,1,01,1,02,1,00450,1,00,1,00,1",,"01,9",,,,"99999,9,10082,1","2,1,011,1,-002,1",,,"SYN100AAXX  27031 76458 32458 13201 10286 20244 30082 40086 52011 81200 90230 333 02300 30/// 59002 81824;","Q01  00002PRCP06"
"76458099999","2003-09-27T12:00:00","4","23.2","-106.4166666","4.0","COLONIA JUAN CARRASCO MAZATLAN SIN., MX","FM-12","99999","V020","999,9,C,0000,1","22000,1,9,N","008000,1,N,1","+0260,1","+0234,1","10090,1","06,0000,9,1",,,,,,"00,1,+99999,9,99,9",,,"00,99,1,00,1,00,1,99999,9,00,1,00,1",,"01,9",,"999,M,+0333,1","120,N,+0245,1","99999,9,10086,1","5,1,001,1,+003,1",,,"SYN106AAXX  27121 76458 32958 00000 10260 20234 30086 40090 55001 91150 333 10333 20245 30/// 30023 58003 70000;","Q01  00002PRCP06"
"76458099999","2003-09-27T15:00:00","4","23.2","-106.4166666","4.0","COLONIA JUAN CARRASCO MAZATLAN SIN., MX","FM-12","99999","V020","999,9,C,0000,1","22000,1,9,N","018000,1,N,1","+0280,1","+0242,1","10101,1","06,0000,9,1",,,,,,"01,1,+00300,9,08,9","01,1,+03600,9,03,9",,"03,99,1,01,1,02,1,00450,1,03,1,06,1",,"01,9",,,,"99999,9,10097,1","2,1,011,1,+004,1",,,"SYN118AAXX  27151 76458 32468 30000 10280 20242 30097 40101 52011 81236 91445 333 0/599 30/// 57859 58004 81810 81362 81068;","Q01  00002PRCP06"
"76458099999","2003-09-27T18:00:00","4","23.2","-106.4166666","4.0","COLONIA JUAN CARRASCO MAZATLAN SIN., MX","FM-12","99999","V020","270,1,N,0030,1","22000,1,9,N","020000,1,N,1","+0309,1","+0224,1","10107,1","06,0000,9,1",,,,,,"02,1,+00540,9,08,9",,,"03,99,1,03,1,02,1,00450,1,00,1,00,1",,"01,9",,"120,M,+0333,1","240,N,+0261,1","99999,9,10103,1","2,1,007,1,+007,1",,,"SYN124AAXX  27181 76458 32470 32703 10309 20224 30103 40107 52007 83200 91750 333 0/2// 10333 20261 30/// 57819 58007 82818 81934;","Q01  00002PRCP06"
"76458099999","2003-09-27T21:00:00","4","23.2","-106.4166666","4.0","COLONIA JUAN CARRASCO MAZATLAN SIN., MX","FM-12","99999","V020","270,1,N,0040,1","22000,1,9,N","020000,1,N,1","+0310,1","+0257,1","10094,1","06,0000,9,1",,,,,,"03,1,+00840,9,08,9",,,"03,99,1,03,1,02,1,00450,1,00,1,00,1",,"01,9",,,,"99999,9,10089,1","6,1,014,1,+007,1",,,"SYN106AAXX  27211 76458 32470 32704 10310 20257 30089 40094 56014 83200 92050 333 0/4// 30/// 57847 58007 83828;","Q01  00002PRCP06"
"76458099999","2003-09-28T00:00:00","4","23.2","-106.4166666","4.0","COLONIA JUAN CARRASCO MAZATLAN SIN., MX","FM-12","99999","V020","270,1,N,0030,1","22000,1,9,N","020000,1,N,1","+0302,1","+0246,1","10083,1","06,0000,9,1","24,0000,9,1",,,,,"03,1,+00690,9,08,9",,,"03,99,1,03,1,01,1,00800,1,00,1,00,1",,"01,9",,"120,M,+0335,1","180,N,+0244,1","99999,9,10079,1","5,1,010,1,+008,1",,,"SYN125AAXX  28001 76458 32570 32703 10302 20246 30079 40083 55010 83100 92350 333 02700 10335 20244 30/// 5068/ 58008 70000 838230;","Q01  00002PRCP06"
"76458099999","2003-09-28T03:00:00","4","23.2","-106.4166666","4.0","COLONIA JUAN CARRASCO MAZATLAN SIN., MX","FM-12","99999","V020","330,1,N,0020,1","00510,1,9,N","016000,1,N,1","+0294,1","+0254,1","10092,1","06,0000,9,1",,,,,,"07,1,+00510,9,08,9",,,"07,99,1,07,1,02,1,00450,1,00,1,00,1",,"01,9",,,,"99999,9,10088,1","2,1,008,1,+005,1",,,"SYN106AAXX  28031 76458 32466 73302 10294 20254 30088 40092 52008 87200 90258 333 02600 30/// 57861 58005 87817;","Q01  00002PRCP06"
"76458099999","2003-09-28T12:00:00","4","23.2","-106.4166666","4.0","COLONIA JUAN CARRASCO MAZATLAN SIN., MX","FM-12","99999","V020","360,1,N,0020,1","22000,1,9,N","008000,1,N,1","+0267,1","+0237,1","10092,1","06,0000,9,1",,,,,,"00,1,+99999,9,99,9",,,"00,99,1,00,1,00,1,99999,9,00,1,00,1",,"01,9",,"999,M,+0335,1","120,N,+0256,1","99999,9,10088,1","7,1,002,1,-002,1",,,"SYN106AAXX  28121 76458 32958 03602 10267 20237 30088 40092 57002 91150 333 10335 20256 30/// 30024 59002 70000;","Q01  00002PRCP06"
"76458099999","2003-09-28T15:00:00","4","23.2","-106.4166666","4.0","COLONIA JUAN CARRASCO MAZATLAN SIN., MX","FM-12","99999","V020","999,9,C,0000,1","22000,1,9,N","018000,1,N,1","+0288,1","+0227,1","10100,1","06,0000,9,1",,,,,,"01,1,+00750,9,09,9",,,"03,99,1,01,1,03,1,00800,1,03,1,00,1",,"01,9",,,,"99999,9,10096,1","2,1,008,1,-001,1",,,"SYN106AAXX  28151 76458 32568 30000 10288 20227 30096 40100 52008 81330 91450 333 04590 30/// 57953 59001 81925;","Q01  00002PRCP06"
"76458099999","2003-09-28T18:00:00","4","23.2","-106.4166666","4.0","COLONIA JUAN CARRASCO MAZATLAN SIN., MX","FM-12","99999","V020","240,1,N,0030,1","22000,1,9,N","020000,1,N,1","+0309,1","+0248,1","10090,1","06,0000,9,1",,,,,,"01,1,+00540,9,08,9","01,1,+00720,9,04,9",,"03,99,1,02,1,04,1,00250,1,03,1,00,1",,"01,9",,"120,M,+0335,1","240,N,+0244,1","99999,9,10085,1","7,1,010,1,-018,1",,,"SYN130AAXX  28181 76458 32370 32403 10309 20248 30085 40090 57010 82430 91750 333 0/800 10335 20244 30/// 5648/ 59018 81818 81424 81357;","Q01  00002PRCP06"
"76458099999","2003-09-29T12:00:00","4","23.2","-106.4166666","4.0","COLONIA JUAN CARRASCO MAZATLAN SIN., MX","FM-12","99999","V020","090,1,N,0020,1","22000,1,9,N","020000,1,N,1","+0266,1","+0239,1","10082,1","06,0000,9,1",,,,,,"02,1,+06000,9,00,9",,,"02,99,1,00,1,00,1,99999,9,00,1,01,1",,"01,9",,"999,M,+0345,1","120,N,+0250,1","99999,9,10078,1","2,1,012,1,-005,1",,,"SYN106AAXX  29121 76458 32970 20902 10266 20239 30078 40082 52012 82001 91150 333 10345 20250 30/// 59005 82070;","Q01+000022SCOTLCQ02  00002PRCP06"
"76458099999","2003-09-29T21:00:00","4","23.2","-106.4166666","4.0","COLONIA JUAN CARRASCO MAZATLAN SIN., MX","FM-12","99999","V020","240,1,N,0030,1","22000,1,9,N","018000,1,N,1","+0318,1","+0278,1","10085,1","06,0000,9,1",,,,,,"01,1,+00630,9,09,9",,,"03,99,1,01,1,03,1,00800,1,03,1,00,1",,"01,9",,,,"99999,9,10080,1","7,1,011,1,+005,1",,,"SYN112AAXX  29211 76458 32568 32403 10318 20278 30080 40085 57011 81330 92058 333 04190 30/// 57913 58005 81921 82361;","Q01  00002PRCP06"
"76458099999","2003-09-30T18:00:00","4","23.2","-106.4166666","4.0","COLONIA JUAN CARRASCO MAZATLAN SIN., MX","FM-12","99999","V020","150,1,N,0020,1","04200,1,9,N","020000,1,N,1","+0341,1","+0208,1","10112,1","06,0000,9,1",,,,,,"06,1,+04200,9,03,9",,,"06,99,1,06,1,00,1,02250,1,03,1,00,1",,"01,9",,"120,M,+0366,1","240,N,+0269,1","99999,9,10107,1","0,1,001,1,+015,1",,,"SYN118AAXX  30181 76458 32870 61502 10341 20208 30107 40112 50001 86030 91748 333 0//9/ 10366 20269 30/// 57399 58015 86364;","Q01  00002PRCP06"
"76458099999","2003-09-30T21:00:00","4","23.2","-106.4166666","4.0","COLONIA JUAN CARRASCO MAZATLAN SIN., MX","FM-12","99999","V020","180,1,N,0030,1","04200,1,9,N","020000,1,N,1","+0324,1","+0254,1","10098,1","06,0000,9,1",,,,,,"07,1,+04200,9,03,9",,,"07,99,1,07,1,00,1,02250,1,03,1,00,1",,"01,9",,,,"99999,9,10094,1","7,1,013,1,+014,1",,,"SYN106AAXX  30211 76458 32870 71803 10324 20254 30094 40098 57013 87030 92047 333 0//9/ 30/// 57399 58014 87364;","Q01  00002PRCP06"
"76458099999","2003-10-01T06:00:00","4","23.2","-106.4166666","4.0","COLONIA JUAN CARRASCO MAZATLAN SIN., MX","FM-12","99999","V020","030,1,N,0010,1","22000,1,9,N","008000,1,N,1","+0284,1","+0249,1","10110,1","06,0000,9,1",,,,,,"01,1,+02100,9,03,9",,,"01,99,1,01,1,00,1,00250,1,03,1,00,1",,"01,9",,"240,M,+0345,1","240,N,+0269,1","99999,9,10105,1","4,1,000,1,+019,1",,,"SYN106AAXX  01061 76458 32358 10301 10284 20249 30105 40110 54/// 81030 90550 333 10345 20269 30/// 58019 81357;","Q01  00002PRCP06"
"76458099999","2003-10-01T09:00:00","4","23.2","-106.4166666","4.0","COLONIA JUAN CARRASCO MAZATLAN SIN., MX","FM-12","99999","V020","999,9,C,0000,1","22000,1,9,N","008000,1,N,1","+0280,1","+0239,1","10110,1","06,0000,9,1",,,,,,"02,1,+02100,9,03,9",,,"02,99,1,02,1,00,1,00250,1,03,1,00,1",,"01,9",,,,"99999,9,10105,1","4,1,000,1,+015,1",,,"SYN094AAXX  01091 76458 32358 20000 10280 20239 30105 40110 54/// 82030 90850 333 30/// 58015 82357;","Q01  00002PRCP06"
"76458099999","2003-10-01T12:00:00","4","23.2","-106.4166666","4.0","COLONIA JUAN CARRASCO MAZATLAN SIN., MX","FM-12","99999","V020","020,1,N,0010,1","22000,1,9,N","014000,1,N,1","+0271,1","+0244,1","10103,1","06,0000,9,1","24,0002,9,1",,,,,"02,1,+03300,9,03,9",,,"02,99,1,02,1,00,1,99999,9,03,1,00,1",,"01,9","999,+0250,9","999,M,+0365,1","120,N,+0259,1","99999,9,10099,1","5,1,007,1,+013,1",,,"SYN118AAXX  01121 76458 32964 20201 10271 20244 30099 40103 55007 82030 91153 333 0/090 10365 20259 30025 58013 70002 82361;","Q01  00002PRCP06"
"76458099999","2003-10-01T15:00:00","4","23.2","-106.4166666","4.0","COLONIA JUAN CARRASCO MAZATLAN SIN., MX","FM-12","99999","V020","090,1,N,0020,1","01800,1,9,N","012000,1,N,1","+0277,1","+0242,1","10117,1","06,0000,9,1",,,,,,"06,1,+01800,9,03,9",,,"06,99,1,06,1,00,1,02250,1,05,1,00,1",,"01,9",,,,"99999,9,10112,1","2,1,013,1,+005,1",,,"SYN100AAXX  01151 76458 32862 60902 10277 20242 30112 40117 52013 86050 91458 333 0/090 30/// 58005 86356;","Q01  00002PRCP06"
"76458099999","2003-10-01T18:00:00","4","23.2","-106.4166666","4.0","COLONIA JUAN CARRASCO MAZATLAN SIN., MX","FM-12","99999","V020","150,1,N,0030,1","22000,1,9,N","010000,1,N,1","+0313,1","+0267,1","10118,1","06,0000,9,1",,,,,,"03,1,+00570,9,08,9",,,"04,99,1,03,1,02,1,00450,1,03,1,00,1",,"01,9",,"120,M,+0323,1","240,N,+0256,1","99999,9,10113,1","0,1,001,1,+006,1",,,"SYN124AAXX  01181 76458 32460 41503 10313 20267 30113 40118 50001 83230 91750 333 0029/ 10323 20256 30/// 57829 58006 83819 81364;","Q01  00002PRCP06"
"76458099999","2003-10-01T21:00:00","4","23.2","-106.4166666","4.0","COLONIA JUAN CARRASCO MAZATLAN SIN., MX","FM-12","99999","V020","240,1,N,0030,1","22000,1,9,N","018000,1,N,1","+0323,1","+0254,1","10103,1","06,0000,9,1",,,,,,"01,1,+00870,9,08,9",,,"04,99,1,01,1,01,1,00800,1,03,1,00,1",,"01,9",,,,"99999,9,10098,1","7,1,015,1,+004,1",,,"SYN112AAXX  01211 76458 32568 42403 10323 20254 30098 40103 57015 81130 92047 333 0/19/ 30/// 57819 58004 81829 83362;","Q01  00002PRCP06"
"76458099999","2003-10-02T00:00:00","4","23.2","-106.4166666","4.0","COLONIA JUAN CARRASCO MAZATLAN SIN., MX","FM-12","99999","V020","270,1,N,0030,1","22000,1,9,N","018000,1,N,1","+0312,1","+0257,1","10096,1","06,0000,9,1","24,0000,9,1",,,,,"01,1,+00690,9,08,9","01,1,+01800,9,03,9",,"03,99,1,01,1,02,1,00800,1,03,1,09,1",,"01,9",,"120,M,+0340,1","180,N,+0256,1","99999,9,10091,1","5,1,007,1,+999,9",,,"SYN130AAXX  02001 76458 32568 32703 10312 20257 30091 40096 55007 81239 92345 333 10340 20256 30/// 56599 558// 70000 81823 81356 81170;","Q01  00002PRCP06"
"76458099999","2003-10-02T03:00:00","4","23.2","-106.4166666","4.0","COLONIA JUAN CARRASCO MAZATLAN SIN., MX","FM-12","99999","V020","270,1,N,0020,1","03600,1,C,N","008000,1,N,1","+0292,1","+0262,1","10100,1","06,0000,9,1",,,,,,"01,1,+00420,9,08,9",,,"06,99,1,01,1,01,1,00450,1,03,1,99,9",,"01,9",,,,"99999,9,10096,1","3,1,005,1,+999,9",,,"SYN106AAXX  02031 76458 32458 62702 10292 20262 30096 40100 53005 8113/ 90245 333 30/// 566// 58/// 81814 85356;","Q01  00002PRCP06"
"76458099999","2003-10-02T12:00:00","4","23.2","-106.4166666","4.0","COLONIA JUAN CARRASCO MAZATLAN SIN., MX","FM-12","99999","V020","350,1,N,0010,1","22000,1,9,N","012000,1,N,1","+0270,1","+0257,1","10091,1","06,0000,9,1","24,0000,9,1",,,,,"00,1,+99999,9,99,9",,,"00,99,1,00,1,00,1,99999,9,00,1,00,1",,"01,9","999,+0250,9","999,M,+0340,1","120,N,+0258,1","99999,9,10087,1","0,1,000,1,-012,1",,,"SYN100AAXX  02121 76458 32962 03501 10270 20257 30087 40091 50000 91145 333 10340 20258 30025 59012 70000;","Q01  00002PRCP06Q02  00002PRCP24"
"76458099999","2003-10-02T15:00:00","4","23.2","-106.4166666","4.0","COLONIA JUAN CARRASCO MAZATLAN SIN., MX","FM-12","99999","V020","999,9,C,0000,1","22000,1,9,N","008000,1,N,1","+0285,1","+0258,1","10095,1","06,0000,9,1",,,,"4,1,03,1","4,1,03,1","02,1,+04200,9,03,9",,,"02,99,1,02,1,00,1,02250,1,03,1,00,1",,"01,9",,,,"99999,9,10091,1","2,1,004,1,-011,1","05,1",,"SYN112AAXX  02151 76458 31858 20000 10285 20258 30091 40095 52004 70544 82030 91448 333 0//9/ 30/// 57399 59011 82364;","Q01  00002PRCP06"
"76458099999","2003-10-02T18:00:00","4","23.2","-106.4166666","4.0","COLONIA JUAN CARRASCO MAZATLAN SIN., MX","FM-12","99999","V020","240,1,N,0030,1","22000,1,9,N","008000,1,N,1","+0314,1","+0270,1","10106,1","06,0000,9,1",,,,,,"01,1,+00540,9,08,9",,,"01,99,1,01,1,05,1,02250,1,00,1,00,1",,"01,9",,"120,M,+0340,1","240,N,+0256,1","99999,9,10101,1","2,1,011,1,-005,1",,,"SYN118AAXX  02181 76458 32858 12403 10314 20270 30101 40106 52011 81500 91750 333 0/600 10340 20256 30/// 57867 59005 81818;","Q01  00002PRCP06"
"76458099999","2003-10-02T21:00:00","4","23.2","-106.4166666","4.0","COLONIA JUAN CARRASCO MAZATLAN SIN., MX","FM-12","99999","V020","240,1,N,0030,1","22000,1,9,N","020000,1,N,1","+0314,1","+0256,1","10084,1","06,0000,9,1",,,,,,"02,1,+00600,9,08,9",,,"03,99,1,02,1,05,1,00800,1,00,1,00,1",,"01,9",,,,"99999,9,10080,1","6,1,021,1,-014,1",,,"SYN106AAXX  02211 76458 32570 32403 10314 20256 30080 40084 56021 82500 92050 333 0/2// 30/// 57826 59014 82820;","Q01  00002PRCP06"
"76458099999","2003-10-03T00:00:00","4","23.2","-106.4166666","4.0","COLONIA JUAN CARRASCO MAZATLAN SIN., MX","FM-12","99999","V020","270,1,N,0030,1","22000,1,9,N","008000,1,N,1","+0306,1","+0253,1","10075,1","06,0000,9,1","24,0000,9,1",,,,,"00,1,+99999,9,99,9",,,"00,99,1,00,1,00,1,99999,9,00,1,00,1",,"01,9",,"120,M,+0335,1","180,N,+0257,1","99999,9,10070,1","6,1,010,1,-021,1",,,"SYN100AAXX  03001 76458 32958 02703 10306 20253 30070 40075 56010 92340 333 10335 20257 30/// 59021 70000;","Q01  00002PRCP06Q02  00002PRCP24"
"76458099999","2003-10-03T03:00:00","4","23.2","-106.4166666","4.0","COLONIA JUAN CARRASCO MAZATLAN SIN., MX","FM-12","99999","V020","360,1,N,0010,1","22000,1,9,N","008000,1,N,1","+0292,1","+0255,1","10085,1","06,0000,9,1",,,,,,"00,1,+99999,9,99,9",,,"00,99,1,00,1,00,1,99999,9,00,1,00,1",,"01,9",,,,"99999,9,10080,1","2,1,010,1,-016,1",,,"SYN082AAXX  03031 76458 32958 03601 10292 20255 30080 40085 52010 90240 333 30/// 59016;","Q01  00002PRCP06"
"76458099999","2003-10-03T12:00:00","4","23.2","-106.4166666","4.0","COLONIA JUAN CARRASCO MAZATLAN SIN., MX","FM-12","99999","V020","999,9,C,0000,1","22000,1,9,N","008000,1,N,1","+0266,1","+0250,1","10087,1","06,0000,9,1",,,,,,"00,1,+99999,9,99,9",,,"00,99,1,00,1,00,1,99999,9,00,1,00,1",,"01,9",,"999,M,+0335,1","120,N,+0250,1","99999,9,10082,1","3,1,004,1,-005,1",,,"SYN106AAXX  03121 76458 32958 00000 10266 20250 30082 40087 53004 91150 333 10335 20250 30/// 30023 59005 70000;","Q01  00002PRCP06"
"76458099999","2003-10-03T15:00:00","4","23.2","-106.4166666","4.0","COLONIA JUAN CARRASCO MAZATLAN SIN., MX","FM-12","99999","V020","340,1,N,0010,1","22000,1,9,N","999999,9,N,1","+0275,1","+0250,1","10096,1","06,0000,9,1",,,,"4,1,03,1","4,1,03,1","01,1,+00300,9,08,9",,,"01,99,1,01,1,01,1,00250,1,00,1,00,1",,"01,9",,,,"99999,9,10092,1","2,1,010,1,+001,1","05,1",,"SYN112AAXX  03151 76458 31355 13401 10275 20250 30092 40096 52010 70544 81100 91445 333 0/5// 30/// 57859 58001 81810;","Q01  00002PRCP06"
"76458099999","2003-10-03T21:00:00","4","23.2","-106.4166666","4.0","COLONIA JUAN CARRASCO MAZATLAN SIN., MX","FM-12","99999","V020","240,1,N,0030,1","22000,1,9,N","020000,1,N,1","+0318,1","+0243,1","10077,1","06,0000,9,1",,,,,,"01,1,+00540,9,08,9",,,"02,99,1,01,1,05,1,99999,9,00,1,01,1",,"01,9",,,,"99999,9,10073,1","6,1,015,1,-007,1",,,"SYN112AAXX  03211 76458 32970 22403 10318 20243 30073 40077 56015 81501 92050 333 0/2/9 30/// 57827 59007 81818 81070;","Q01  00002PRCP06"
"76458099999","2003-10-04T00:00:00","4","23.2","-106.4166666","4.0","COLONIA JUAN CARRASCO MAZATLAN SIN., MX","FM-12","99999","V020","280,1,N,0040,1","22000,1,9,N","020000,1,N,1","+0312,1","+0236,1","10066,1","06,0000,9,1","24,0000,9,1",,,,,"00,1,+99999,9,99,9",,,"00,99,1,00,1,00,1,99999,9,00,1,00,1",,"01,9",,"120,M,+0340,1","180,N,+0250,1","99999,9,10061,1","7,1,012,1,-009,1",,,"SYN106AAXX  04001 76458 32970 02804 10312 20236 30061 40066 57012 92340 333 10340 20250 30/// 50511 59009 70000;","Q01  00002PRCP06Q02  00002PRCP24"
"76458099999","2003-10-04T18:00:00","4","23.2","-106.4166666","4.0","COLONIA JUAN CARRASCO MAZATLAN SIN., MX","FM-12","99999","V020","270,1,N,0020,1","22000,1,9,N","018000,1,N,1","+0313,1","+0234,1","10097,1","06,0000,9,1",,,,,,"01,1,+00390,9,08,9",,,"02,99,1,01,1,01,1,00800,1,00,1,06,1",,"01,9",,"120,M,+0333,1","240,N,+0243,1","99999,9,10092,1","9,9,999,9,+004,1",,,"SYN124AAXX  04181 76458 32568 22702 10313 20234 30092 40097 5//// 81106 91745 333 0/1/9 10333 20243 30/// 57819 58004 81813 81070;","Q01  00002PRCP06"
"76458099999","2003-10-04T21:00:00","4","23.2","-106.4166666","4.0","COLONIA JUAN CARRASCO MAZATLAN SIN., MX","FM-12","99999","V020","280,1,N,0030,1","09000,1,C,N","018000,1,N,1","+0319,1","+0240,1","10085,1","06,0000,9,1",,,,,,"01,1,+00990,9,08,9",,,"08,99,1,01,1,02,1,00800,1,00,1,06,1",,"01,9",,,,"99999,9,10081,1","7,1,011,1,+008,1",,,"SYN112AAXX  04211 76458 32568 82803 10319 20240 30081 40085 57011 81206 92045 333 0/1/9 30/// 57819 58008 81833 83070;","Q01  00002PRCP06"
"76458099999","2003-10-05T00:00:00","4","23.2","-106.4166666","4.0","COLONIA JUAN CARRASCO MAZATLAN SIN., MX","FM-12","99999","V020","290,1,N,0060,1","22000,1,9,N","018000,1,N,1","+0310,1","+0240,1","10075,1","06,0000,9,1",,,,,,"01,1,+00540,9,08,9",,,"03,99,1,02,1,05,1,99999,9,00,1,01,1",,"01,9",,"120,M,+0340,1","180,N,+0243,1","99999,9,10070,1","6,1,010,1,+009,1",,,"SYN118AAXX  05001 76458 32968 32906 10310 20240 30070 40075 56010 82501 92350 333 0/1// 10340 20243 30/// 58009 81818 82070;","Q01  00002PRCP06"
"76458099999","2003-10-05T03:00:00","4","23.2","-106.4166666","4.0","COLONIA JUAN CARRASCO MAZATLAN SIN., MX","FM-12","99999","V020","300,1,N,0030,1","22000,1,9,N","008000,1,N,1","+0300,1","+0246,1","10085,1","06,0000,9,1",,,,,,"00,1,+99999,9,99,9",,,"00,99,1,00,1,00,1,99999,9,00,1,00,1",,"01,9",,,,"99999,9,10080,1","3,1,009,1,+005,1",,,"SYN082AAXX  05031 76458 32958 03003 10300 20246 30080 40085 53009 90240 333 30/// 58005;","Q01  00002PRCP06"
"76458099999","2003-10-05T12:00:00","4","23.2","-106.4166666","4.0","COLONIA JUAN CARRASCO MAZATLAN SIN., MX","FM-12","99999","V020","350,1,N,0010,1","22000,1,9,N","012000,1,N,1","+0270,1","+0243,1","10082,1","06,0000,9,1","24,0000,9,1",,,,,"01,1,+00330,9,06,9",,,"01,99,1,01,1,04,1,00450,1,00,1,00,1",,"01,9","999,+0240,9","999,M,+0335,1","120,N,+0255,1","99999,9,10077,1","5,1,006,1,+999,9",,,"SYN118AAXX  05121 76458 32462 13501 10270 20243 30077 40082 55006 81400 91150 333 0/700 10335 20255 30024 58/// 70000 81611;","Q01  00002PRCP06"
"76458099999","2003-10-05T15:00:00","4","23.2","-106.4166666","4.0","COLONIA JUAN CARRASCO MAZATLAN SIN., MX","FM-12","99999","V020","999,9,C,0000,1","22000,1,9,N","018000,1,N,1","+0290,1","+0243,1","10095,1","06,0000,9,1",,,,,,"01,1,+06000,9,00,9",,,"01,99,1,00,1,00,1,99999,9,00,1,06,1",,"01,9",,,,"99999,9,10091,1","2,1,014,1,+999,9",,,"SYN106AAXX  05151 76458 32968 10000 10290 20243 30091 40095 52014 80006 91448 333 0///9 30/// 57099 58/// 81070;","Q01  00002PRCP06"
"76458099999","2003-10-05T18:00:00","4","23.2","-106.4166666","4.0","COLONIA JUAN CARRASCO MAZATLAN SIN., MX","FM-12","99999","V020","270,1,N,0060,1","22000,1,9,N","010000,1,N,1","+0310,1","+0238,1","10095,1","06,0000,9,1",,,,,,"01,1,+00540,9,08,9",,,"03,99,1,01,1,05,1,99999,9,00,1,06,1",,"01,9",,"120,M,+0340,1","240,N,+0243,1","99999,9,10091,1","4,1,000,1,-001,1",,,"SYN124AAXX  05181 76458 32960 32706 10310 20238 30091 40095 54/// 81506 91750 333 0/1/9 10340 20243 30/// 57817 59001 81818 82070;","Q01  00002PRCP06"
"76458099999","2003-10-05T21:00:00","4","23.2","-106.4166666","4.0","COLONIA JUAN CARRASCO MAZATLAN SIN., MX","FM-12","99999","V020","270,1,N,0040,1","22000,1,9,N","010000,1,N,1","+9999,9","+9999,9","10074,1","06,0000,9,1",,,,,,"01,1,+00540,9,08,9",,,"04,99,1,99,9,99,9,99999,9,99,9,99,9",,"01,9",,,,"99999,9,10069,1","9,9,999,9,-011,1",,,"SYN112AAXX  05211 76458 32960 42704 20256 30069 40074 40319 56022 81506 92050 333 0/1/9 30/// 56817 59011 81818 83070;","Q01  00002PRCP06"
"76458099999","2003-10-06T03:00:00","4","23.2","-106.4166666","4.0","COLONIA JUAN CARRASCO MAZATLAN SIN., MX","FM-12","99999","V020","300,1,N,0040,1","00420,1,9,N","008000,1,N,1","+0300,1","+0266,1","10085,1","06,0000,9,1",,,,,,"07,1,+00420,9,06,9",,,"07,99,1,07,1,05,1,00450,1,99,9,99,9",,"01,9",,,,"99999,9,10080,1","2,1,016,1,+000,1",,,"SYN100AAXX  06031 76458 32458 73004 10300 20266 30080 40085 52016 875// 90240 333 30/// 566// 58000 87614;","Q01  00002PRCP06"
"76458099999","2003-10-06T12:00:00","4","23.2","-106.4166666","4.0","COLONIA JUAN CARRASCO MAZATLAN SIN., MX","FM-12","99999","V020","999,9,C,0000,1","22000,1,9,N","012000,1,N,1","+0270,1","+0257,1","10075,1","06,0201,9,1",,,,,,,,,"04,99,1,04,1,05,1,00150,1,00,1,00,1",,,,,,"99999,9,10070,1","3,1,001,1,+999,9",,,"SYN072AAXX  06121 76458 11262 40000 10270 20257 30070 40075 53001 60201 84500;",
"76458099999","2003-10-06T15:00:00","4","23.2","-106.4166666","4.0","COLONIA JUAN CARRASCO MAZATLAN SIN., MX","FM-12","99999","V020","999,9,C,0000,1","00210,1,9,N","012000,1,N,1","+0280,1","+0263,1","10080,1","06,0000,9,1",,,,"4,1,03,1","4,1,03,1","06,1,+00210,9,06,9",,,"07,99,1,07,1,02,1,00250,1,00,1,00,1",,"09,9",,,,"99999,9,10075,1","2,1,005,1,-015,1","05,1",,"SYN118AAXX  06151 76458 31362 70000 10280 20263 30075 40080 52005 70544 87200 91445 333 04400 31/// 57844 59015 86607 81823;","Q01  00002PRCP06"
"76458099999","2003-10-06T18:00:00","4","23.2","-106.4166666","4.0","COLONIA JUAN CARRASCO MAZATLAN SIN., MX","FM-12","99999","V020","290,1,N,0030,1","03600,1,C,N","020000,1,N,1","+0307,1","+0268,1","10083,1","06,0000,9,1",,,,,,"03,1,+00720,9,08,9",,,"06,99,1,03,1,05,1,00250,1,03,1,00,1",,"01,9",,"120,M,+0338,1","240,N,+0254,1","99999,9,10079,1","2,1,004,1,-012,1",,,"SYN124AAXX  06181 76458 32370 62903 10307 20268 30079 40083 52004 83530 91750 333 0/3// 10338 20254 30/// 57837 59012 83824 83357;","Q01  00002PRCP06"
"76458099999","2003-10-06T21:00:00","4","23.2","-106.4166666","4.0","COLONIA JUAN CARRASCO MAZATLAN SIN., MX","FM-12","99999","V020","270,1,N,0040,1","00720,1,9,N","020000,1,N,1","+0311,1","+0264,1","10068,1","06,0000,9,1",,,,,,"06,1,+00720,9,08,9",,,"07,99,1,06,1,05,1,00250,1,03,1,00,1",,"01,9",,,,"99999,9,10064,1","6,1,015,1,-003,1",,,"SYN112AAXX  06211 76458 32370 72704 10311 20264 30064 40068 56015 86530 92050 333 0/6// 30/// 57837 59003 86824 81357;","Q01  00002PRCP06"
"76458099999","2003-10-07T00:00:00","4","23.2","-106.4166666","4.0","COLONIA JUAN CARRASCO MAZATLAN SIN., MX","FM-12","99999","V020","280,1,N,0040,1","00660,1,C,N","020000,1,N,1","+0298,1","+0253,1","10057,1","06,0000,9,1","24,0110,9,1",,,,,"04,1,+00570,9,06,9","01,1,+00660,9,08,9",,"06,99,1,04,1,05,1,00450,1,99,9,06,1",,"01,9",,"120,M,+0330,1","180,N,+0245,1","99999,9,10052,1","7,1,012,1,-012,1",,,"SYN130AAXX  07001 76458 32470 62804 10298 20253 30052 40057 57012 845/6 92350 333 10330 20245 30/// 565/9 59012 70110 84619 81822 81070;","Q01  00002PRCP06"
"76458099999","2003-10-07T03:00:00","4","23.2","-106.4166666","4.0","COLONIA JUAN CARRASCO MAZATLAN SIN., MX","FM-12","99999","V020","360,1,N,0020,1","22000,1,9,N","008000,1,N,1","+0278,1","+0220,1","10064,1","06,0000,9,1",,,,,,"02,1,+01800,9,03,9",,,"02,99,1,02,1,99,9,02250,1,03,1,99,9",,"01,9",,,,"99999,9,10059,1","1,1,007,1,-021,1",,,"SYN094AAXX  07031 76458 32858 23602 10278 20220 30059 40064 51007 82/3/ 90240 333 30/// 59021 82356;","Q01  00002PRCP06"
"76458099999","2003-10-07T12:00:00","4","23.2","-106.4166666","4.0","COLONIA JUAN CARRASCO MAZATLAN SIN., MX","FM-12","99999","V020","340,1,N,0010,1","22000,1,9,N","012000,1,N,1","+0257,1","+0234,1","10053,1","06,0000,9,1","24,0000,9,1",,,,,"01,1,+00300,9,09,9",,,"03,99,1,01,1,09,1,00250,1,03,1,00,1",,"01,9","999,+0230,9","999,M,+0330,1","120,N,+0244,1","99999,9,10048,1","5,1,001,1,-022,1",,,"SYN130AAXX  07121 76458 32362 33401 10257 20234 30048 40053 55001 81930 91156 333 07390 10330 20244 30023 57937 59022 70000 81910 82361;","Q01  00002PRCP06"
"76458099999","2003-10-07T15:00:00","4","23.2","-106.4166666","4.0","COLONIA JUAN CARRASCO MAZATLAN SIN., MX","FM-12","99999","V020","050,1,N,0010,1","02400,1,9,N","018000,1,N,1","+0270,1","+0240,1","10060,1","03,0009,9,1",,,,"5,1,03,1","2,1,03,1","07,1,+02400,9,03,9",,,"07,99,1,07,1,00,1,02250,1,05,1,00,1",,"01,9",,,,"99999,9,10056,1","2,1,004,1,-020,1","50,1",,"SYN112AAXX  07151 76458 21868 70501 10270 20240 30056 40060 52004 75052 87050 91458 333 0/090 30/// 59020 69997 87358;",
"76458099999","2003-10-07T18:00:00","4","23.2","-106.4166666","4.0","COLONIA JUAN CARRASCO MAZATLAN SIN., MX","FM-12","99999","V020","999,9,C,0000,1","03600,1,9,N","018000,1,N,1","+0304,1","+0236,1","10061,1","03,0000,2,1","06,9999,9,9",,,"5,1,06,1","5,1,06,1","01,1,+00840,9,08,9",,,"07,99,1,01,1,01,1,00800,1,03,1,00,1",,"01,9",,"120,M,+0312,1","240,N,+0244,1","99999,9,10057,1","0,1,001,1,-022,1","02,1",,"SYN136AAXX  07181 76458 01568 70000 10304 20236 30057 40061 50001 69901 70255 81130 91747 333 0/99/ 10312 20244 30/// 57899 59022 69907 81828;",
"76458099999","2003-10-07T21:00:00","4","23.2","-106.4166666","4.0","COLONIA JUAN CARRASCO MAZATLAN SIN., MX","FM-12","99999","V020","200,1,N,0010,1","99999,9,9,N","012000,1,N,1","+0250,1","+0231,1","10059,1","03,0100,9,1",,,,"6,1,03,1","5,1,03,1","01,1,+00240,9,09,9",,,"08,99,1,01,1,09,1,00150,1,00,1,00,1",,"09,9",,,,"99999,9,10055,1","7,1,002,1,-009,1","50,1",,"SYN124AAXX  07211 76458 21262 82001 10250 20231 30055 40059 57002 75065 81900 92050 333 007// 31/// 57979 59009 60107 81908 87609;",
"76458099999","2003-10-08T00:00:00","4","23.2","-106.4166666","4.0","COLONIA JUAN CARRASCO MAZATLAN SIN., MX","FM-12","99999","V020","110,1,N,0030,1","99999,9,9,N","015000,1,N,1","+0270,1","+0240,1","10050,1","06,0119,9,1",,,,"6,1,06,1","6,1,06,1",,,,"07,99,1,99,9,99,9,00250,1,99,9,99,9",,,,,,"99999,9,10046,1","5,1,009,1,+999,9","00,1",,"SYN072AAXX  08001 76458 11365 71103 10270 20240 30046 40050 55009 60121 70066;",
"76458099999","2003-10-08T03:00:00","4","23.2","-106.4166666","4.0","COLONIA JUAN CARRASCO MAZATLAN SIN., MX","FM-12","99999","V020","120,1,N,0020,1","99999,9,9,N","008000,1,N,1","+0262,1","+0241,1","10063,1","06,0000,2,1",,,,,,"04,1,+00270,9,06,9",,,"07,99,1,04,1,05,1,00250,1,99,9,06,1",,"09,9",,,,"99999,9,10054,1","2,1,013,1,+000,1",,,"SYN106AAXX  08031 76458 32358 71202 10262 20241 30054 40063 52013 845/6 90240 333 31/// 565/9 58000 84609 83070;",
"76458099999","2003-10-08T15:00:00","4","23.2","-106.4166666","4.0","COLONIA JUAN CARRASCO MAZATLAN SIN., MX","FM-12","99999","V020","090,1,N,0060,1","00240,1,9,N","006000,1,N,1","+0240,1","+0226,1","10082,1","03,0020,9,1",,,,"6,1,03,1","5,1,03,1","08,1,+00240,9,06,9",,,"08,99,1,08,1,05,1,00150,1,00,1,00,1",,"11,9",,,,"99999,9,10077,1","2,1,009,1,+021,1","51,1",,"SYN112AAXX  08150 76458 21256 80906 10240 20226 30077 40082 52009 75165 88500 91448 333 0/3// 32/// 58021 60027 88608;",
"76458099999","2003-10-08T18:00:00","4","23.2","-106.4166666","4.0","COLONIA JUAN CARRASCO MAZATLAN SIN., MX","FM-12","99999","V020","100,1,N,0050,1","22000,1,9,N","018000,1,N,1","+0300,1","+0219,1","10078,1","03,0000,2,1","06,0020,9,1",,,"2,1,06,1","5,1,06,1","01,1,+01020,9,08,9",,,"03,99,1,01,1,01,1,01250,1,03,1,06,1",,"01,9",,"120,M,+0306,1","240,N,+0224,1","99999,9,10074,1","5,1,003,1,+017,1","01,1",,"SYN136AAXX  08181 76458 01668 31005 10300 20219 30074 40078 55003 69927 70125 81136 91748 333 0/499 10306 20224 30/// 57846 58017 60021 81834;",
"76458099999","2003-10-08T21:00:00","4","23.2","-106.4166666","4.0","COLONIA JUAN CARRASCO MAZATLAN SIN., MX","FM-12","99999","V020","130,1,N,0080,1","00780,1,9,N","018000,1,N,1","+0290,1","+0228,1","10058,1","06,0000,2,1",,,,"2,1,03,1","2,1,03,1","08,1,+00780,9,06,9",,,"08,99,1,08,1,04,1,00800,1,00,1,00,1",,"01,9",,,,"99999,9,10054,1","7,1,020,1,-001,1","02,1",,"SYN112AAXX  08211 76458 31568 81308 10290 20228 30054 40058 57020 70222 88400 92050 333 0/3// 30/// 57639 59001 88626;",
"76458099999","2003-10-09T09:00:00","4","23.2","-106.4166666","4.0","COLONIA JUAN CARRASCO MAZATLAN SIN., MX","FM-12","99999","V020","110,1,N,0030,1","00150,1,9,N","008000,1,N,1","+0242,1","+0231,1","10091,1","06,0000,9,1",,,,,,"08,1,+00150,9,06,9",,,"08,99,1,08,1,04,1,00150,1,00,1,00,1",,"11,9",,,,"99999,9,10087,1","2,1,010,1,+022,1",,,"SYN100AAXX  09091 76458 32258 81103 10242 20231 30087 40091 52010 88400 90845 333 02800 32/// 58022 88605;","Q01  00002PRCP06"
"76458099999","2003-10-09T15:00:00","4","23.2","-106.4166666","4.0","COLONIA JUAN CARRASCO MAZATLAN SIN., MX","FM-12","99999","V020","120,1,N,0020,1","03600,1,C,N","015000,1,N,1","+0240,1","+0222,1","10099,1","06,0000,9,1",,,,,,"01,1,+00240,9,08,9",,,"06,99,1,01,1,02,1,00250,1,03,1,00,1",,"11,9",,,,"99999,9,10095,1","2,1,008,1,+018,1",,,"SYN106AAXX  09151 76458 32365 61202 10240 20222 30095 40099 52008 81230 91450 333 0/60/ 32/// 58018 81808 85358;","Q01  00002PRCP06"
"76458099999","2003-10-09T18:00:00","4","23.2","-106.4166666","4.0","COLONIA JUAN CARRASCO MAZATLAN SIN., MX","FM-12","99999","V020","140,1,N,0030,1","04200,1,9,N","020000,1,N,1","+0288,1","+0231,1","10104,1","06,0000,9,1",,,,,,"06,1,+04200,9,03,9",,,"06,99,1,06,1,00,1,02250,1,03,1,00,1",,"01,9",,"120,M,+0296,1","240,N,+0215,1","99999,9,10100,1","2,1,005,1,+026,1",,,"SYN118AAXX  09181 76458 32870 61403 10288 20231 30100 40104 52005 86030 91747 333 0//9/ 10296 20215 30/// 57399 58026 86364;","Q01  00002PRCP06"
"76458099999","2003-10-09T21:00:00","4","23.2","-106.4166666","4.0","COLONIA JUAN CARRASCO MAZATLAN SIN., MX","FM-12","99999","V020","240,1,N,0030,1","22000,1,9,N","020000,1,N,1","+0301,1","+0234,1","10092,1","06,0000,9,1",,,,,,"03,1,+00840,9,08,9",,,"04,99,1,03,1,02,1,00800,1,03,1,00,1",,"01,9",,,,"99999,9,10088,1","7,1,012,1,+034,1",,,"SYN112AAXX  09211 76458 32570 42403 10301 20234 30088 40092 57012 83230 92048 333 0069/ 30/// 57869 58034 83828 81364;","Q01  00002PRCP06"
"76458099999","2003-10-10T00:00:00","4","23.2","-106.4166666","4.0","COLONIA JUAN CARRASCO MAZATLAN SIN., MX","FM-12","99999","V020","280,1,N,0030,1","22000,1,9,N","020000,1,N,1","+0288,1","+0224,1","10080,1","06,0000,9,1","24,0949,9,1",,,,,"01,1,+00900,9,09,9","01,1,+01110,9,08,9",,"03,99,1,02,1,09,1,00800,1,03,1,99,9",,"09,9",,"120,M,+0317,1","180,N,+0251,1","99999,9,10075,1","6,1,012,1,+031,1",,,"SYN130AAXX  10001 76458 32570 32803 10288 20224 30075 40080 56012 8293/ 92345 333 10317 20251 31/// 5689/ 58031 70949 81930 81837 81356;","Q01  00002PRCP06"
"76458099999","2003-10-10T03:00:00","4","23.2","-106.4166666","4.0","COLONIA JUAN CARRASCO MAZATLAN SIN., MX","FM-12","99999","V020","340,1,N,0020,1","22000,1,9,N","008000,1,N,1","+0268,1","+0232,1","10086,1","06,0000,9,1",,,,,,"00,1,+99999,9,99,9",,,"00,99,1,00,1,00,1,99999,9,00,1,00,1",,"09,9",,,,"99999,9,10081,1","3,1,005,1,+024,1",,,"SYN082AAXX  10031 76458 32958 03402 10268 20232 30081 40086 53005 90240 333 31/// 58024;","Q01  00002PRCP06"
"76458099999","2003-10-10T15:00:00","4","23.2","-106.4166666","4.0","COLONIA JUAN CARRASCO MAZATLAN SIN., MX","FM-12","99999","V020","360,1,N,0020,1","03600,1,C,N","015000,1,N,1","+0262,1","+0226,1","10078,1","06,0000,9,1",,,,,,"03,1,+00450,9,08,9",,,"06,99,1,03,1,02,1,00450,1,03,1,00,1",,"01,9",,,,"99999,9,10073,1","1,1,009,1,+025,1",,,"SYN112AAXX  10151 76458 32465 63602 10262 20226 30073 40078 51009 83230 91450 333 0/6/0 30/// 57863 58025 83815 83358;","Q01  00002PRCP06"
"76458099999","2003-10-10T18:00:00","4","23.2","-106.4166666","4.0","COLONIA JUAN CARRASCO MAZATLAN SIN., MX","FM-12","99999","V020","270,1,N,0040,1","03600,1,C,N","020000,1,N,1","+0285,1","+0224,1","10083,1","06,0000,9,1",,,,,,"03,1,+00750,9,08,9",,,"07,99,1,03,1,01,1,00800,1,03,1,00,1",,"01,9",,"120,M,+0305,1","240,N,+0232,1","99999,9,10079,1","2,1,006,1,-021,1",,,"SYN124AAXX  10181 76458 32570 72704 10285 20224 30079 40083 52006 83130 91750 333 0073/ 10305 20232 30/// 57879 59021 83825 84364;","Q01  00002PRCP06"
"76458099999","2003-10-11T00:00:00","4","23.2","-106.4166666","4.0","COLONIA JUAN CARRASCO MAZATLAN SIN., MX","FM-12","99999","V020","270,1,N,0030,1","22000,1,9,N","020000,1,N,1","+0282,1","+0218,1","10060,1","06,0000,9,1","24,0000,9,1",,,,,"01,1,+00810,9,08,9",,,"02,99,1,01,1,02,1,00800,1,03,1,99,9",,"01,9",,"120,M,+0312,1","180,N,+0232,1","99999,9,10055,1","7,1,010,1,-021,1",,,"SYN136AAXX  11001 76458 32570 22703 10282 20218 30055 40060 57010 8123/ 92340 333 0/19/ 10312 20232 30/// 5619/ 57817 59021 70000 81827 81356;","Q01  00002PRCP06"
"76458099999","2003-10-11T03:00:00","4","23.2","-106.4166666","4.0","COLONIA JUAN CARRASCO MAZATLAN SIN., MX","FM-12","99999","V020","330,1,N,0010,1","22000,1,9,N","008000,1,N,1","+0276,1","+0217,1","10068,1","06,0000,9,1",,,,,,,,,"02,99,1,99,9,99,9,99999,9,99,9,99,9",,"01,9",,,,"99999,9,10064,1","2,1,009,1,-017,1",,,"SYN082AAXX  11031 76458 32958 23301 10276 20217 30064 40068 52009 90240 333 30/// 59017;","Q01  00002PRCP06"
"76458099999","2003-10-11T15:00:00","4","23.2","-106.4166666","4.0","COLONIA JUAN CARRASCO MAZATLAN SIN., MX","FM-12","99999","V020","300,1,N,0020,1","22000,1,9,N","020000,1,N,1","+0267,1","+0221,1","10084,1","06,0000,9,1",,,,,,"01,1,+00570,9,08,9",,,"03,99,1,01,1,02,1,00450,1,03,1,00,1",,"01,9",,,,"99999,9,10080,1","2,1,013,1,+007,1",,,"SYN112AAXX  11151 76458 32470 33002 10267 20221 30080 40084 52013 81230 91450 333 0/6/0 30/// 57864 58007 81819 82352;","Q01  00002PRCP06"
"76458099999","2003-10-12T00:00:00","4","23.2","-106.4166666","4.0","COLONIA JUAN CARRASCO MAZATLAN SIN., MX","FM-12","99999","V020","260,1,N,0030,1","03600,1,C,N","020000,1,N,1","+0288,1","+0216,1","10082,1","06,0000,9,1","24,0000,9,1",,,,,"03,1,+00900,9,06,9",,,"07,99,1,03,1,05,1,00800,1,06,1,99,9",,"01,9",,"120,M,+0320,1","180,N,+0232,1","99999,9,10078,1","5,1,000,1,+023,1",,,"SYN130AAXX  12001 76458 32570 72603 10288 20216 30078 40082 55000 8356/ 92340 333 0/19/ 10320 20232 30/// 57610 58023 70000 83630 84356;","Q01  00002PRCP06"
"76458099999","2003-10-12T03:00:00","4","23.2","-106.4166666","4.0","COLONIA JUAN CARRASCO MAZATLAN SIN., MX","FM-12","99999","V020","300,1,N,0030,1","01800,1,9,N","008000,1,N,1","+0280,1","+0213,1","10100,1","06,0000,9,1",,,,,,"06,1,+01800,9,03,9",,,"06,99,1,06,1,99,9,02250,1,06,1,99,9",,,,,,"99999,9,10095,1","1,1,017,1,+031,1",,,"SYN088AAXX  12031 76458 32858 63003 10280 20213 30095 40100 51017 86/6/ 90240 333 58031 86356;","Q01  00002PRCP06"
"76458099999","2003-10-12T12:00:00","4","23.2","-106.4166666","4.0","COLONIA JUAN CARRASCO MAZATLAN SIN., MX","FM-12","99999","V020","360,1,N,0010,1","22000,1,9,N","008000,1,N,1","+0246,1","+0212,1","10108,1","06,0000,9,1","24,0005,9,1",,,,,"01,1,+00420,9,08,9",,,"01,99,1,01,1,02,1,00450,1,99,9,99,9",,"01,9","999,+0220,9","999,M,+0320,1","120,N,+0234,1","99999,9,10104,1","9,9,999,9,+037,1",,,"SYN124AAXX  12121 76458 32458 13601 10246 20212 30104 40108 5//// 812// 91140 333 0/5// 10320 20234 30022 57854 58037 70005 81814;","Q01  00002PRCP06"
"76458099999","2003-10-12T15:00:00","4","23.2","-106.4166666","4.0","COLONIA JUAN CARRASCO MAZATLAN SIN., MX","FM-12","99999","V020","999,9,C,0000,1","22000,1,9,N","020000,1,N,1","+0254,1","+0218,1","10119,1","06,0000,9,1",,,,,,"01,1,+00450,9,08,9",,,"03,99,1,01,1,02,1,00450,1,03,1,99,9",,"01,9",,,,"99999,9,10115,1","2,1,011,1,+035,1",,,"SYN112AAXX  12151 76458 32470 30000 10254 20218 30115 40119 52011 8123/ 91440 333 0/59/ 30/// 57854 58035 81815 82356;","Q01  00002PRCP06"
"76458099999","2003-10-12T18:00:00","4","23.2","-106.4166666","4.0","COLONIA JUAN CARRASCO MAZATLAN SIN., MX","FM-12","99999","V020","270,1,N,0030,1","22000,1,9,N","020000,1,N,1","+0295,1","+0216,1","10119,1","06,0000,9,1",,,,,,"01,1,+04200,9,03,9",,,"02,99,1,01,1,00,1,02250,1,03,1,06,1",,"01,9",,"120,M,+0313,1","240,N,+0229,1","99999,9,10115,1","0,1,001,1,+029,1",,,"SYN124AAXX  12181 76458 32870 22703 10295 20216 30115 40119 50001 81036 91747 333 0//99 10313 20229 30/// 57399 58029 81364 81070;","Q01  00002PRCP06"
"76458099999","2003-10-12T21:00:00","4","23.2","-106.4166666","4.0","COLONIA JUAN CARRASCO MAZATLAN SIN., MX","FM-12","99999","V020","250,1,N,0030,1","22000,1,9,N","020000,1,N,1","+0295,1","+0228,1","10102,1","06,0000,9,1",,,,,,"01,1,+00840,9,08,9","01,1,+03600,9,03,9",,"03,99,1,01,1,01,1,00800,1,03,1,06,1",,"01,9",,,,"99999,9,10098,1","7,1,017,1,+020,1",,,"SYN118AAXX  12211 76458 32570 32503 10295 20228 30098 40102 57017 81136 92047 333 0/199 30/// 57819 58020 81828 81362 81070;","Q01  00002PRCP06"
"76458099999","2003-10-13T00:00:00","4","23.2","-106.4166666","4.0","COLONIA JUAN CARRASCO MAZATLAN SIN., MX","FM-12","99999","V020","270,1,N,0030,1","22000,1,9,N","020000,1,N,1","+0296,1","+0247,1","10101,1","06,0000,9,1","24,0000,9,1",,,,,"01,1,+00540,9,08,9",,,"04,99,1,01,1,05,1,99999,9,00,1,01,1",,"01,9",,"120,M,+0320,1","180,N,+0229,1","99999,9,10096,1","6,1,001,1,+019,1",,,"SYN130AAXX  13001 76458 32970 42703 10296 20247 30096 40101 56001 81501 92330 333 0/7// 10320 20229 30/// 57827 58019 70000 81818 83070;","Q01  00002PRCP06"
"76458099999","2003-10-13T03:00:00","4","23.2","-106.4166666","4.0","COLONIA JUAN CARRASCO MAZATLAN SIN., MX","FM-12","99999","V020","290,1,N,0030,1","22000,1,9,N","020000,1,N,1","+0282,1","+0227,1","10111,1","06,0000,9,1",,,,,,"01,1,+00540,9,08,9",,,"02,99,1,01,1,05,1,99999,9,00,1,01,1",,"01,9",,,,"99999,9,10105,1","2,1,011,1,+012,1",,,"SYN100AAXX  13031 76458 32970 22903 10282 20227 30105 40111 52011 81501 90250 333 30/// 58012 81818 81070;","Q01  00002PRCP06"
"76458099999","2003-10-13T15:00:00","4","23.2","-106.4166666","4.0","COLONIA JUAN CARRASCO MAZATLAN SIN., MX","FM-12","99999","V020","350,1,N,0010,1","22000,1,9,N","020000,1,N,1","+0268,1","+0222,1","10125,1","06,0000,9,1",,,,,,"01,1,+00570,9,08,9","01,1,+03300,9,03,9",,"03,99,1,01,1,02,1,00450,1,03,1,02,1",,"01,9",,,,"99999,9,10120,1","2,1,011,1,+999,9",,,"SYN118AAXX  13151 76458 32470 33501 10268 20222 30120 40125 52011 81232 91458 333 04599 30/// 57855 58/// 81819 81361 81079;","Q01  00002PRCP06"
"76458099999","2003-10-13T21:00:00","4","23.2","-106.4166666","4.0","COLONIA JUAN CARRASCO MAZATLAN SIN., MX","FM-12","99999","V020","270,1,N,0030,1","99999,9,9,N","020000,1,N,1","+0301,1","+0231,1","10120,1","06,0000,9,1",,,,,,"02,1,+00600,9,08,9","02,1,+02400,9,03,9",,"05,99,1,02,1,05,1,99999,9,03,1,01,1",,"01,9",,,,"99999,9,10115,1","6,1,008,1,+018,1",,,"SYN112AAXX  13211 76458 32970 52703 10301 20231 30115 40120 56008 82531 92050 333 0/8// 30/// 58018 82820 82358 81070;","Q01  00002PRCP06"
"76458099999","2003-10-14T00:00:00","4","23.2","-106.4166666","4.0","COLONIA JUAN CARRASCO MAZATLAN SIN., MX","FM-12","99999","V020","270,1,N,0050,1","22000,1,9,N","020000,1,N,1","+0396,1","+0236,1","10110,1","06,0000,9,1","24,0000,9,1",,,,,"01,1,+00750,9,08,9",,,"02,99,1,01,1,02,1,00800,1,99,9,04,1",,"01,9",,"120,M,+9999,9","180,N,+0238,1","99999,9,10105,1","6,1,011,1,+008,1",,,"SYN136AAXX  14001 76458 32570 22705 10396 20236 30105 40110 56011 812/4 92340 333 011/9 10325 20238 30/// 50601 57815 58008 70000 81825 81070;","Q01  00002PRCP06Q02 +03252ATMX  "
"76458099999","2003-10-14T03:00:00","4","23.2","-106.4166666","4.0","COLONIA JUAN CARRASCO MAZATLAN SIN., MX","FM-12","99999","V020","300,1,N,0030,1","22000,1,9,N","008000,1,N,1","+0284,2","+0241,1","10137,1","06,0000,9,1",,,,,,"01,1,+00540,9,08,9",,,"01,99,1,01,1,01,1,00450,1,99,9,99,9",,"01,9",,,,"99999,9,10133,1","2,1,028,1,+025,1",,,"SYN106AAXX  14031 76458 32458 13003 10284 20241 30133 40137 52028 811// 90240 333 007// 30/// 57870 58025 81818;","Q01+002843ATOT  Q02  00002PRCP06"
"76458099999","2003-10-14T15:00:00","4","23.2","-106.4166666","4.0","COLONIA JUAN CARRASCO MAZATLAN SIN., MX","FM-12","99999","V020","350,1,N,0020,1","22000,1,9,N","015000,1,N,1","+0262,1","+0236,1","10129,1","06,0000,9,1",,,,,,"01,1,+00330,9,08,9",,,"02,99,1,01,1,02,1,00450,1,00,1,04,1",,"01,9",,,,"99999,9,10125,1","1,1,009,1,+005,1",,,"SYN112AAXX  14151 76458 32465 23502 10262 20236 30125 40129 51009 81204 91440 333 0/4/0 30/// 57848 58005 81811 81070;","Q01  00002PRCP06"
"76458099999","2003-10-15T03:00:00","4","23.2","-106.4166666","4.0","COLONIA JUAN CARRASCO MAZATLAN SIN., MX","FM-12","99999","V020","290,1,N,0040,1","22000,1,9,N","008000,1,N,1","+0290,1","+0250,1","10111,1","06,0000,9,1",,,,,,"02,1,+00600,9,09,9","01,1,+02400,9,03,9",,"04,99,1,02,1,09,1,99999,9,03,1,01,1",,"01,9",,,,"99999,9,10107,1","6,1,012,1,-025,1",,,"SYN118AAXX  15031 76458 32958 42904 10290 20250 30107 40111 56012 82931 90250 333 0/1/9 30/// 57922 59025 82920 81358 81070;","Q01  00002PRCP06"
"76458099999","2003-10-15T15:00:00","4","23.2","-106.4166666","4.0","COLONIA JUAN CARRASCO MAZATLAN SIN., MX","FM-12","99999","V020","060,1,N,0010,1","22000,1,9,N","018000,1,N,1","+0272,1","+0230,1","10129,1","06,0000,9,1",,,,,,"01,1,+02400,9,03,9",,,"02,99,1,01,1,00,1,99999,9,03,1,02,1",,"01,9",,,,"99999,9,10125,1","1,1,004,1,+999,9",,,"SYN106AAXX  15151 76458 32968 20601 10272 20230 30125 40129 51004 81032 91450 333 0//00 30/// 58/// 81358 81070;","Q01  00002PRCP06"
"76458099999","2003-10-15T18:00:00","4","23.2","-106.4166666","4.0","COLONIA JUAN CARRASCO MAZATLAN SIN., MX","FM-12","99999","V020","270,1,N,0030,1","22000,1,9,N","020000,1,N,1","+0307,1","+0232,1","10130,1","06,0000,9,1",,,,,,"01,1,+00930,9,08,9",,,"02,99,1,01,1,01,1,00800,1,00,1,08,1",,"01,9",,"120,M,+0325,1","240,N,+0241,1","99999,9,10125,1","0,1,000,1,+001,1",,,"SYN124AAXX  15181 76458 32570 22703 10307 20232 30125 40130 50000 81108 91748 333 0/1/9 10325 20241 30/// 57816 58001 81831 81268;","Q01  00002PRCP06"
"76458099999","2003-10-15T21:00:00","4","23.2","-106.4166666","4.0","COLONIA JUAN CARRASCO MAZATLAN SIN., MX","FM-12","99999","V020","280,1,N,0040,1","22000,1,9,N","020000,1,N,1","+0311,1","+0233,1","10112,1","06,0000,9,1",,,,,,"01,1,+00960,9,09,9",,,"04,99,1,01,1,03,1,00800,1,00,1,07,1",,"01,9",,,,"99999,9,10108,1","7,1,017,1,+006,1",,,"SYN112AAXX  15211 76458 32570 42804 10311 20233 30108 40112 57017 81307 92045 333 001/9 30/// 57914 58006 81932 83268;","Q01  00002PRCP06"
"76458099999","2003-10-16T00:00:00","4","23.2","-106.4166666","4.0","COLONIA JUAN CARRASCO MAZATLAN SIN., MX","FM-12","99999","V020","280,1,N,0040,1","03600,1,C,N","020000,1,N,1","+0312,1","+0242,1","10109,1","06,0000,9,1","24,0000,9,1",,,,,"01,1,+00870,9,09,9",,,"05,99,1,01,1,09,1,00800,1,02,1,99,9",,"01,9",,"120,M,+0328,1","180,N,+0241,1","99999,9,10105,1","5,1,003,1,+010,1",,,"SYN136AAXX  16001 76458 32570 52804 10312 20242 30105 40109 55003 8192/ 92341 333 0/89/ 10328 20241 30/// 50541 57913 58010 70000 81929 84458;","Q01  00002PRCP06"
"76458099999","2003-10-16T03:00:00","4","23.2","-106.4166666","4.0","COLONIA JUAN CARRASCO MAZATLAN SIN., MX","FM-12","99999","V020","310,1,N,0030,1","22000,1,9,N","008000,1,N,1","+0292,1","+0250,1","10122,1","06,0000,9,1",,,,,,"04,1,+06000,9,00,9",,,"04,99,1,00,1,99,9,99999,9,99,9,06,1",,"01,9",,,,"99999,9,10117,1","2,1,013,1,+010,1",,,"SYN094AAXX  16031 76458 32958 43103 10292 20250 30117 40122 52112 80//6 90240 333 30/// 58010 84070;","Q01+001122APC3  Q02  00002PRCP06"
"76458099999","2003-10-16T06:00:00","4","23.2","-106.4166666","4.0","COLONIA JUAN CARRASCO MAZATLAN SIN., MX","FM-12","99999","V020","330,1,N,0020,1","22000,1,9,N","012000,1,N,1","+0280,1","+0231,1","10126,1","06,0000,9,1",,,,,,,,,"01,99,1,00,1,00,1,99999,9,00,1,01,1","0588,9","01,9",,"240,M,+0328,1","240,N,+0241,1","99999,9,10122,1","0,1,005,1,+005,1",,,"SYN124AAXX  16061 76458 32962 13302 10280 20231 30122 40126 50005 80001 90550 333 0/009 10328 20241 30/// 55098 20960 58005 81079;","Q01  00002PRCP06"
"76458099999","2003-10-16T12:00:00","4","23.2","-106.4166666","4.0","COLONIA JUAN CARRASCO MAZATLAN SIN., MX","FM-12","99999","V020","330,1,N,0020,1","22000,1,9,N","012000,1,N,1","+0255,1","+0237,1","10130,1","06,0000,9,1","24,0000,9,1",,,,,"01,1,+01020,9,08,9",,,"01,99,1,01,1,09,1,00800,1,00,1,00,1",,"01,9",,"999,M,+0328,1","120,N,+0241,1","99999,9,10125,1","2,1,002,1,+013,1",,,"SYN118AAXX  16121 76458 32562 13302 10255 20237 30125 40130 52002 81900 91150 333 0/3// 10328 20241 30/// 58013 70000 81834;","Q01  00002PRCP06"
"76458099999","2003-10-16T15:00:00","4","23.2","-106.4166666","4.0","COLONIA JUAN CARRASCO MAZATLAN SIN., MX","FM-12","99999","V020","360,1,N,0020,1","22000,1,9,N","020000,1,N,1","+0265,1","+0243,1","10138,1","06,0000,9,1",,,,,,"01,1,+00600,9,08,9",,,"03,99,1,01,1,05,1,99999,9,00,1,01,1",,"01,9",,,,"99999,9,10133,1","2,1,008,1,+009,1",,,"SYN112AAXX  16151 76458 32970 33602 10265 20243 30133 40138 52008 81501 91450 333 0/2/9 30/// 57827 58009 81820 82070;","Q01  00002PRCP06"
"76458099999","2003-10-16T18:00:00","4","23.2","-106.4166666","4.0","COLONIA JUAN CARRASCO MAZATLAN SIN., MX","FM-12","99999","V020","240,1,N,0030,1","22000,1,9,N","020000,1,N,1","+0302,1","+0241,1","10145,1","06,0000,9,1",,,,,,"01,1,+00750,9,08,9",,,"02,99,1,01,1,01,1,00800,1,00,1,06,1",,"01,9",,"120,M,+0319,1","240,N,+0238,1","99999,9,10141,1","0,1,007,1,+016,1",,,"SYN124AAXX  16181 76458 32570 22403 10302 20241 30141 40145 50007 81106 91745 333 0/1/9 10319 20238 30/// 57819 58016 81825 81070;","Q01  00002PRCP06"
"76458099999","2003-10-16T21:00:00","4","23.2","-106.4166666","4.0","COLONIA JUAN CARRASCO MAZATLAN SIN., MX","FM-12","99999","V020","270,1,N,0030,1","22000,1,9,N","020000,1,N,1","+0315,1","+0232,1","10123,1","06,0000,9,1",,,,,,"01,1,+01050,9,08,9",,,"02,99,1,01,1,02,1,01250,1,00,1,06,1",,"01,9",,,,"99999,9,10118,1","7,1,023,1,+010,1",,,"SYN112AAXX  16211 76458 32670 22703 10315 20232 30118 40123 57023 81206 92045 333 0/1/9 30/// 57816 58010 81835 81070;","Q01  00002PRCP06"
"76458099999","2003-10-17T00:00:00","4","23.2","-106.4166666","4.0","COLONIA JUAN CARRASCO MAZATLAN SIN., MX","FM-12","99999","V020","310,1,N,0050,1","22000,1,9,N","020000,1,N,1","+0306,1","+0244,1","10118,1","06,0000,9,1","24,0000,9,1",,,,,"01,1,+00780,9,09,9",,,"03,99,1,01,1,09,1,00800,1,99,9,04,1",,"01,9",,"120,M,+0330,1","180,N,+0238,1","99999,9,10113,1","6,1,005,1,-004,1",,,"SYN136AAXX  17001 76458 32570 33105 10306 20244 30113 40118 56005 819/4 92340 333 0/1/9 10330 20238 30/// 50411 57912 59004 70000 81926 82070;","Q01  00002PRCP06"
"76458099999","2003-10-17T03:00:00","4","23.2","-106.4166666","4.0","COLONIA JUAN CARRASCO MAZATLAN SIN., MX","FM-12","99999","V020","300,1,N,0030,1","22000,1,9,N","008000,1,N,1","+0292,1","+0247,1","10129,1","06,0000,9,1",,,,,,"00,1,+99999,9,99,9",,,"00,99,1,00,1,00,1,99999,9,00,1,00,1",,"01,9",,,,"99999,9,10124,1","2,1,010,1,+007,1",,,"SYN082AAXX  17031 76458 32958 03003 10292 20247 30124 40129 52010 90245 333 30/// 58007;","Q01  00002PRCP06"
"76458099999","2003-10-17T09:00:00","4","23.2","-106.4166666","4.0","COLONIA JUAN CARRASCO MAZATLAN SIN., MX","FM-12","99999","V020","330,1,N,0020,1","22000,1,9,N","012000,1,N,1","+0279,1","+0241,1","10124,1","06,0000,9,1",,,,,,"04,1,+08700,9,00,9",,,"04,99,1,00,1,00,1,99999,9,00,1,04,1",,"01,9",,,,"99999,9,10120,1","7,1,002,1,-004,1",,,"SYN100AAXX  17091 76458 32962 43302 10279 20241 30120 40124 57002 80004 90846 333 0/009 30/// 59004 84079;","Q01  00002PRCP06"
"76458099999","2003-10-17T15:00:00","4","23.2","-106.4166666","4.0","COLONIA JUAN CARRASCO MAZATLAN SIN., MX","FM-12","99999","V020","020,1,N,0010,1","22000,1,9,N","018000,1,N,1","+0280,1","+0245,1","10129,1","06,0000,9,1",,,,,,"01,1,+02400,9,03,9",,,"01,99,1,01,1,00,1,99999,9,03,1,00,1",,"01,9",,,,"99999,9,10124,1","1,1,008,1,-010,1",,,"SYN100AAXX  17151 76458 32968 10201 10280 20245 30124 40129 51008 81030 91450 333 0//0/ 30/// 59010 81358;","Q01  00002PRCP06"
"76458099999","2003-10-17T18:00:00","4","23.2","-106.4166666","4.0","COLONIA JUAN CARRASCO MAZATLAN SIN., MX","FM-12","99999","V020","270,1,N,0030,1","22000,1,9,N","020000,1,N,1","+0306,1","+0256,1","10124,1","06,0000,9,1",,,,,,"01,1,+00630,9,08,9",,,"01,99,1,01,1,01,1,00800,1,00,1,00,1",,"01,9",,"120,M,+0324,1","240,N,+0247,1","99999,9,10119,1","7,1,005,1,-022,1",,,"SYN118AAXX  17181 76458 32570 12703 10306 20256 30119 40124 57005 81100 91745 333 0/6// 10324 20247 30/// 57869 59022 81821;","Q01  00002PRCP06"
"76458099999","2003-10-17T21:00:00","4","23.2","-106.4166666","4.0","COLONIA JUAN CARRASCO MAZATLAN SIN., MX","FM-12","99999","V020","270,1,N,0040,1","22000,1,9,N","020000,1,N,1","+0309,1","+0239,1","10101,1","06,0000,9,1",,,,,,"00,1,+99999,9,99,9",,,"00,99,1,00,1,00,1,99999,9,00,1,00,1",,"01,9",,,,"99999,9,10097,1","7,1,022,1,-021,1",,,"SYN082AAXX  17211 76458 32970 02704 10309 20239 30097 40101 57022 92047 333 30/// 59021;","Q01  00002PRCP06"
"76458099999","2003-10-18T00:00:00","4","23.2","-106.4166666","4.0","COLONIA JUAN CARRASCO MAZATLAN SIN., MX","FM-12","99999","V020","300,1,N,0030,1","22000,1,9,N","020000,1,N,1","+0302,1","+0251,1","10095,1","06,0000,9,1",,,,,,"01,1,+02100,9,03,9",,,"01,99,1,01,1,00,1,00250,1,03,1,01,1",,"01,9",,"120,M,+0330,1","180,N,+0247,1","99999,9,10091,1","6,1,001,1,-022,1",,,"SYN106AAXX  18001 76458 32370 13003 10302 20251 30091 40095 56001 81031 92350 333 10330 20247 30/// 59022 81357;","Q01  00002PRCP06"
"76458099999","2003-10-18T03:00:00","4","23.2","-106.4166666","4.0","COLONIA JUAN CARRASCO MAZATLAN SIN., MX","FM-12","99999","V020","300,1,N,0040,1","22000,1,9,N","015000,1,N,1","+0295,1","+0258,1","10103,1","06,0000,9,1",,,,,,"00,1,+99999,9,99,9",,,"00,99,1,00,1,00,1,99999,9,00,1,00,1",,"01,9",,,,"99999,9,10099,1","2,1,008,1,-025,1",,,"SYN082AAXX  18031 76458 32965 03004 10295 20258 30099 40103 52008 90250 333 30/// 59025;","Q01  00002PRCP06"
"76458099999","2003-10-18T12:00:00","4","23.2","-106.4166666","4.0","COLONIA JUAN CARRASCO MAZATLAN SIN., MX","FM-12","99999","V020","120,1,N,0020,1","00150,1,C,N","012000,1,N,1","+0274,1","+0261,1","10109,1","06,0000,9,1","24,0000,9,1",,,,,"05,1,+00150,9,07,9",,,"06,99,1,05,1,06,1,00150,1,03,1,00,1",,"01,9",,"999,M,+0330,1","120,N,+0260,1","99999,9,10105,1","5,1,001,1,-011,1",,,"SYN130AAXX  18121 76458 32262 61202 10274 20261 30105 40109 55001 85630 91145 333 0/390 10330 20260 30/// 30025 59011 70000 85705 81360;","Q01  00002PRCP06"
"76458099999","2003-10-18T15:00:00","4","23.2","-106.4166666","4.0","COLONIA JUAN CARRASCO MAZATLAN SIN., MX","FM-12","99999","V020","130,1,N,0020,1","00270,1,9,N","002000,1,N,1","+0289,1","+0267,1","10123,1","06,0000,9,1",,,,"4,1,03,1","4,1,03,1","05,1,+00270,9,07,9",,,"06,99,1,05,1,06,1,00250,1,03,1,00,1",,"01,9",,,,"99999,9,10119,1","2,1,013,1,-005,1","42,1",,"SYN112AAXX  18151 76458 31320 61302 10289 20267 30119 40123 52013 74244 85630 91450 333 0/490 30/// 59005 85709 81359;","Q01  00002PRCP06"
"76458099999","2003-10-18T18:00:00","4","23.2","-106.4166666","4.0","COLONIA JUAN CARRASCO MAZATLAN SIN., MX","FM-12","99999","V020","190,1,N,0020,1","22000,1,9,N","010000,1,N,1","+0313,1","+0255,1","10124,1","06,0000,9,1",,,,,,"01,1,+00720,9,08,9",,,"01,99,1,01,1,01,1,00800,1,00,1,00,1",,"01,9",,"120,M,+0330,1","240,N,+0260,1","99999,9,10119,1","0,1,000,1,+000,1",,,"SYN118AAXX  18181 76458 32560 11902 10313 20255 30119 40124 50000 81100 91748 333 0/3// 10330 20260 30/// 57839 58000 81824;","Q01  00002PRCP06"
"76458099999","2003-10-18T21:00:00","4","23.2","-106.4166666","4.0","COLONIA JUAN CARRASCO MAZATLAN SIN., MX","FM-12","99999","V020","260,1,N,0040,1","22000,1,9,N","018000,1,N,1","+0319,1","+0268,1","10100,1","06,0000,9,1",,,,,,"01,1,+00630,9,08,9",,,"01,99,1,01,1,01,1,00800,1,00,1,00,1",,"01,9",,,,"99999,9,10096,1","7,1,023,1,-001,1",,,"SYN106AAXX  18211 76458 32568 12604 10319 20268 30096 40100 57023 81100 92045 333 0/1// 30/// 57819 59001 81821;","Q01  00002PRCP06"
"76458099999","2003-10-19T00:00:00","4","23.2","-106.4166666","4.0","COLONIA JUAN CARRASCO MAZATLAN SIN., MX","FM-12","99999","V020","330,1,N,0040,1","22000,1,9,N","018000,1,N,1","+0314,1","+0264,1","10100,1","06,0000,9,1","24,0000,9,1",,,,,"01,1,+00630,9,09,9",,,"01,99,1,01,1,09,1,00800,1,99,9,99,9",,"01,9",,"120,M,+0340,1","180,N,+0260,1","99999,9,10096,1","5,1,000,1,+005,1",,,"SYN118AAXX  19001 76458 32568 13304 10314 20264 30096 40100 55000 819// 92340 333 10340 20260 30/// 57983 58005 70000 81921;","Q01  00002PRCP06"
"76458099999","2003-10-19T03:00:00","4","23.2","-106.4166666","4.0","COLONIA JUAN CARRASCO MAZATLAN SIN., MX","FM-12","99999","V020","310,1,N,0030,1","22000,1,9,N","008000,1,N,1","+0298,1","+0264,1","10107,1","06,0000,9,1",,,,,,"00,1,+99999,9,99,9",,,"00,99,1,00,1,00,1,99999,9,00,1,00,1",,"01,9",,,,"99999,9,10103,1","2,1,007,1,+004,1",,,"SYN082AAXX  19031 76458 32958 03103 10298 20264 30103 40107 52007 90240 333 30/// 58004;","Q01  00002PRCP06"
"76458099999","2003-10-19T09:00:00","4","23.2","-106.4166666","4.0","COLONIA JUAN CARRASCO MAZATLAN SIN., MX","FM-12","99999","V020","030,1,N,0020,1","01020,1,9,N","008000,1,N,1","+0274,1","+0253,1","10110,1","00,0010,9,2","24,0000,9,2",,,,,"08,1,+01020,9,09,9",,,"08,99,1,08,1,09,1,99999,9,00,1,00,1",,"09,9",,,,"99999,9,10105,1","2,1,006,1,+002,1",,,"SYN106AAXX  19091 76458 21958 80302 10274 20253 30105 40110 52006 60010 88900 90850 333 31/// 58002 79999 88934;","Q01  00002PRCP24"
"76458099999","2003-10-19T12:00:00","4","23.2","-106.4166666","4.0","COLONIA JUAN CARRASCO MAZATLAN SIN., MX","FM-12","99999","V020","999,9,C,0000,1","00420,1,9,N","008000,1,N,1","+0270,1","+0238,1","10106,1","06,0020,9,1",,,,"6,1,06,1","5,1,06,1",,,,"07,99,1,07,1,09,1,00450,1,00,1,00,1",,"09,9",,"999,M,+0340,1","120,N,+0257,1","99999,9,10101,1","0,1,004,1,-003,1","02,1",,"SYN136AAXX  19121 76458 11458 70000 10270 20238 30101 40106 50004 60021 70265 87900 91145 333 07300 10340 20257 31/// 30025 57932 59003 70020;",
"76458099999","2003-10-19T15:00:00","4","23.2","-106.4166666","4.0","COLONIA JUAN CARRASCO MAZATLAN SIN., MX","FM-12","99999","V020","360,1,N,0020,1","22000,1,9,N","020000,1,N,1","+0275,1","+0247,1","10117,1","03,0010,9,1",,,,"1,1,03,1","6,1,03,1","01,1,+00360,9,04,9",,,"04,99,1,01,1,04,1,00450,1,03,1,00,1",,"09,9",,,,"99999,9,10113,1","2,1,012,1,-006,1","05,1",,"SYN124AAXX  19151 76458 21470 43602 10275 20247 30113 40117 52012 70516 81430 91450 333 0/39/ 31/// 57639 59006 60017 81412 83362;",
"76458099999","2003-10-19T21:00:00","4","23.2","-106.4166666","4.0","COLONIA JUAN CARRASCO MAZATLAN SIN., MX","FM-12","99999","V020","210,1,N,0030,1","22000,1,9,N","020000,1,N,1","+0318,1","+0263,1","10097,1","06,0000,9,1",,,,,,"01,1,+00600,9,08,9","01,1,+01020,9,09,9",,"04,99,1,02,1,09,1,00250,1,03,1,00,1",,"01,9",,,,"99999,9,10093,1","6,1,023,1,-003,1",,,"SYN118AAXX  19211 76458 32370 42103 10318 20263 30093 40097 56023 82930 92050 333 0/9// 30/// 57927 59003 81820 81934 82357;","Q01  00002PRCP06"
"76458099999","2003-10-20T03:00:00","4","23.2","-106.4166666","4.0","COLONIA JUAN CARRASCO MAZATLAN SIN., MX","FM-12","99999","V020","360,1,N,0030,1","22000,1,9,N","008000,1,N,1","+0290,1","+0268,1","10107,1","06,0000,9,1",,,,,,"00,1,+99999,9,99,9",,,"00,99,1,00,1,00,1,99999,9,00,1,00,1",,"01,9",,,,"99999,9,10103,1","2,1,017,1,+000,1",,,"SYN082AAXX  20031 76458 31958 03603 10290 20268 30103 40107 52017 90240 333 30/// 58000;","Q01  00002PRCP06"
"76458099999","2003-10-20T12:00:00","4","23.2","-106.4166666","4.0","COLONIA JUAN CARRASCO MAZATLAN SIN., MX","FM-12","99999","V020","120,1,N,0020,1","22000,1,9,N","012000,1,N,1","+0270,1","+0241,1","10117,1","06,0000,9,1","24,0000,9,1",,,,,"00,1,+99999,9,99,9",,,"00,99,1,00,1,00,1,99999,9,00,1,00,1",,"01,9",,"999,M,+0335,1","120,N,+0250,1","99999,9,10113,1","3,1,008,1,+011,1",,,"SYN100AAXX  20121 76458 32962 01202 10270 20241 30113 40117 53008 91145 333 10335 20250 30/// 58011 70000;","Q01  00002PRCP06Q02  00002PRCP24"
"76458099999","2003-10-20T15:00:00","4","23.2","-106.4166666","4.0","COLONIA JUAN CARRASCO MAZATLAN SIN., MX","FM-12","99999","V020","090,1,N,0030,1","22000,1,9,N","014000,1,N,1","+0284,1","+0252,1","10140,1","06,0000,9,1",,,,"4,1,03,1","4,1,03,1","01,1,+00420,9,08,9",,,"01,99,1,01,1,02,1,00450,1,00,1,00,1",,"01,9",,,,"99999,9,10135,1","2,1,023,1,+022,1","05,1",,"SYN112AAXX  20151 76458 31464 10903 10284 20252 30135 40140 52023 70544 81200 91445 333 02100 30/// 57817 58022 81814;","Q01  00002PRCP06"
"76458099999","2003-10-20T18:00:00","4","23.2","-106.4166666","4.0","COLONIA JUAN CARRASCO MAZATLAN SIN., MX","FM-12","99999","V020","150,1,N,0040,1","22000,1,9,N","008000,1,N,1","+0307,1","+0227,1","10139,1","06,0000,9,1",,,,"4,1,06,1","4,1,06,1",,,,"03,99,1,01,1,08,1,00250,1,03,1,00,1",,,,,,"99999,9,10134,1","7,1,001,1,+999,9","05,1",,"SYN072AAXX  20181 76458 31358 31504 10307 20227 30134 40139 57001 70544 81830;","Q01  00002PRCP06"
"76458099999","2003-10-20T21:00:00","4","23.2","-106.4166666","4.0","COLONIA JUAN CARRASCO MAZATLAN SIN., MX","FM-12","99999","V020","240,1,N,0030,1","99999,9,9,N","018000,1,N,1","+0314,1","+0220,1","10124,1","06,0000,9,1",,,,"4,1,03,1","4,1,03,1","02,1,+01020,9,09,9","02,1,+02100,9,03,9",,"05,99,1,02,1,09,1,99999,9,03,1,01,1",,"01,9",,,,"99999,9,10119,1","6,1,011,1,+026,1","05,1",,"SYN124AAXX  20211 76458 31968 52403 10314 20220 30119 40124 56011 70544 82931 92050 333 0/8// 30/// 57817 58026 82934 82357 81070;","Q01  00002PRCP06"
"76458099999","2003-10-21T03:00:00","4","23.2","-106.4166666","4.0","COLONIA JUAN CARRASCO MAZATLAN SIN., MX","FM-12","99999","V020","300,1,N,0020,1","22000,1,9,N","008000,1,N,1","+0292,1","+0255,1","10119,1","06,0000,9,1",,,,,,"01,1,+01800,9,03,9",,,"01,99,1,01,1,99,9,02250,1,03,1,99,9",,"01,9",,,,"99999,9,10115,1","2,1,012,1,+012,1",,,"SYN094AAXX  21031 76458 32858 13002 10292 20255 30115 40119 52012 81/3/ 90240 333 30/// 58012 81356;","Q01  00002PRCP06"
"76458099999","2003-10-21T12:00:00","4","23.2","-106.4166666","4.0","COLONIA JUAN CARRASCO MAZATLAN SIN., MX","FM-12","99999","V020","070,1,N,0010,1","22000,1,9,N","008000,1,N,1","+0255,1","+0234,1","10124,1","06,0000,9,1","24,0005,9,1",,,,,"00,1,+99999,9,99,9",,,"00,99,1,00,1,00,1,99999,9,00,1,00,1",,"01,9","999,+0220,9","999,M,+0340,1","120,N,+0241,1","99999,9,10120,1","3,1,006,1,+007,1",,,"SYN100AAXX  21121 76458 32958 00701 10255 20234 30120 40124 53006 91145 333 10340 20241 30022 58007 70005;","Q01  00002PRCP06"
"76458099999","2003-10-21T15:00:00","4","23.2","-106.4166666","4.0","COLONIA JUAN CARRASCO MAZATLAN SIN., MX","FM-12","99999","V020","100,1,N,0030,1","22000,1,9,N","012000,1,N,1","+0270,1","+0239,1","10139,1","06,0000,9,1",,,,,,"01,1,+00390,9,08,9",,,"02,99,1,01,1,02,1,00450,1,03,1,00,1",,"01,9",,,,"99999,9,10134,1","2,1,014,1,-001,1",,,"SYN112AAXX  21151 76458 32462 21003 10270 20239 30134 40139 52014 81230 91450 333 04410 30/// 57848 59001 81813 81358;","Q01  00002PRCP06"
"76458099999","2003-10-21T18:00:00","4","23.2","-106.4166666","4.0","COLONIA JUAN CARRASCO MAZATLAN SIN., MX","FM-12","99999","V020","180,1,N,0020,1","22000,1,9,N","015000,1,N,1","+0300,1","+0248,1","10139,1","06,0000,9,1",,,,,,"03,1,+00660,9,08,9",,,"03,99,1,03,1,01,1,00800,1,00,1,00,1",,"01,9",,"120,M,+0319,1","240,N,+0234,1","99999,9,10134,1","0,1,000,1,-001,1",,,"SYN118AAXX  21181 76458 32565 31802 10300 20248 30134 40139 50000 83100 91748 333 0/5// 10319 20234 30/// 57859 59001 83822;","Q01  00002PRCP06"
"76458099999","2003-10-21T21:00:00","4","23.2","-106.4166666","4.0","COLONIA JUAN CARRASCO MAZATLAN SIN., MX","FM-12","99999","V020","270,1,N,0030,1","22000,1,9,N","018000,1,N,1","+0305,1","+0259,1","10118,1","06,0000,9,1",,,,,,"01,1,+00570,9,08,9",,,"02,99,1,01,1,01,1,00800,1,03,1,00,1",,"01,9",,,,"99999,9,10114,1","7,1,020,1,-006,1",,,"SYN112AAXX  21211 76458 32568 22703 10305 20259 30114 40118 57020 81130 92045 333 0/69/ 30/// 57869 59006 81819 81364;","Q01  00002PRCP06"
"76458099999","2003-10-22T00:00:00","4","23.2","-106.4166666","4.0","COLONIA JUAN CARRASCO MAZATLAN SIN., MX","FM-12","99999","V020","270,1,N,0030,1","99999,9,9,N","018000,1,N,1","+0298,1","+0250,1","10116,1","06,0000,9,1","24,0000,9,1",,,,,"01,1,+01020,9,08,9","03,1,+02100,9,03,9",,"05,99,1,01,1,09,1,99999,9,03,1,01,1",,"01,9",,"120,M,+0330,1","180,N,+0240,1","99999,9,10112,1","6,1,002,1,+009,1",,,"SYN136AAXX  22001 76458 32968 52703 10298 20250 30112 40116 56002 81931 92350 333 0/8/0 10330 20240 30/// 57820 58009 70000 81834 83357 81070;","Q01  00002PRCP06"
"76458099999","2003-10-22T12:00:00","4","23.2","-106.4166666","4.0","COLONIA JUAN CARRASCO MAZATLAN SIN., MX","FM-12","99999","V020","999,9,C,0000,1","22000,1,9,N","008000,1,N,1","+0246,1","+0234,1","10121,1","06,0000,9,1","24,0000,9,1",,,,,"00,1,+99999,9,99,9",,,"00,99,1,00,1,00,1,99999,9,00,1,00,1",,"01,9","999,+0220,9","999,M,+0330,1","120,N,+0230,1","99999,9,10116,1","3,1,002,1,-004,1",,,"SYN100AAXX  22121 76458 32958 00000 10246 20234 30116 40121 53002 91145 333 10330 20230 30022 59004 70000;","Q01  00002PRCP06Q02  00002PRCP24"
"76458099999","2003-10-22T15:00:00","4","23.2","-106.4166666","4.0","COLONIA JUAN CARRASCO MAZATLAN SIN., MX","FM-12","99999","V020","120,1,N,0020,1","22000,1,9,N","008000,1,N,1","+0265,1","+0243,1","10128,1","06,0000,9,1",,,,"4,1,03,1","4,1,03,1","00,1,+99999,9,99,9",,,"00,99,1,00,1,00,1,99999,9,00,1,00,1",,"01,9",,,,"99999,9,10123,1","2,1,007,1,-011,1","05,1",,"SYN088AAXX  22151 76458 31958 01202 10265 20243 30123 40128 52007 70544 91448 333 30/// 59011;","Q01  00002PRCP06"
"76458099999","2003-10-22T18:00:00","4","23.2","-106.4166666","4.0","COLONIA JUAN CARRASCO MAZATLAN SIN., MX","FM-12","99999","V020","210,1,N,0020,1","22000,1,9,N","015000,1,N,1","+0304,1","+0245,1","10125,1","06,0000,9,1",,,,"4,1,06,1","4,1,06,1",,,,"02,99,1,02,1,01,1,00800,1,00,1,00,1",,,,,,"99999,9,10120,1","8,1,003,1,+999,9","05,1",,"SYN072AAXX  22181 76458 31565 22102 10304 20245 30120 40125 58003 70544 82100;","Q01  00002PRCP06"
"76458099999","2003-10-23T00:00:00","4","23.2","-106.4166666","4.0","COLONIA JUAN CARRASCO MAZATLAN SIN., MX","FM-12","99999","V020","270,1,N,0030,1","22000,1,9,N","020000,1,N,1","+0302,1","+0240,1","10104,1","06,0000,9,1","24,0000,9,1",,,,,"00,1,+99999,9,99,9",,,"00,99,1,00,1,00,1,99999,9,00,1,00,1",,"01,9",,"120,M,+0325,1","180,N,+0230,1","99999,9,10100,1","6,1,004,1,-002,1",,,"SYN106AAXX  23001 76458 32970 02703 10302 20240 30100 40104 56004 92345 333 10325 20230 30/// 50401 59002 70000;","Q01  00002PRCP06Q02  00002PRCP24"
"76458099999","2003-10-23T03:00:00","4","23.2","-106.4166666","4.0","COLONIA JUAN CARRASCO MAZATLAN SIN., MX","FM-12","99999","V020","360,1,N,0020,1","22000,1,9,N","008000,1,N,1","+0280,1","+0242,1","10111,1","06,0000,9,1",,,,,,"00,1,+99999,9,99,9",,,"00,99,1,00,1,00,1,99999,9,00,1,00,1",,"01,9",,,,"99999,9,10107,1","2,1,007,1,-012,1",,,"SYN082AAXX  23031 76458 32958 03602 10280 20242 30107 40111 52007 90240 333 30/// 59012;","Q01  00002PRCP06"
"76458099999","2003-10-23T12:00:00","4","23.2","-106.4166666","4.0","COLONIA JUAN CARRASCO MAZATLAN SIN., MX","FM-12","99999","V020","999,9,C,0000,1","22000,1,9,N","008000,1,N,1","+0251,1","+0235,1","10112,1","06,0000,9,1",,,,,,"00,1,+99999,9,99,9",,,"00,99,1,00,1,00,1,99999,9,00,1,00,1",,"01,9",,"999,M,+0325,1","120,N,+0237,1","99999,9,10108,1","5,1,002,1,-009,1",,,"SYN106AAXX  23121 76458 32958 00000 10251 20235 30108 40112 55002 91155 333 10325 20237 30/// 30022 59009 70000;","Q01  00002PRCP06"
"76458099999","2003-10-23T15:00:00","4","23.2","-106.4166666","4.0","COLONIA JUAN CARRASCO MAZATLAN SIN., MX","FM-12","99999","V020","120,1,N,0020,1","22000,1,9,N","008000,1,N,1","+0273,1","+0240,1","10120,1","06,0000,9,1",,,,,,"01,1,+08700,9,00,9",,,"01,99,1,00,1,00,1,99999,9,00,1,01,1",,"01,9",,,,"99999,9,10116,1","2,1,008,1,-007,1",,,"SYN100AAXX  23151 76458 32958 11202 10273 20240 30116 40120 52008 80001 91454 333 0/009 30/// 59007 81079;","Q01  00002PRCP06"
"76458099999","2003-10-23T18:00:00","4","23.2","-106.4166666","4.0","COLONIA JUAN CARRASCO MAZATLAN SIN., MX","FM-12","99999","V020","240,1,N,0020,1","22000,1,9,N","012000,1,N,1","+0307,1","+0235,1","10120,1","06,0000,9,1",,,,"4,1,06,1","4,1,06,1",,,,"03,99,1,03,1,01,1,00800,1,00,1,00,1",,,,,,"99999,9,10116,1","0,1,000,1,+999,9","05,1",,"SYN072AAXX  23181 76458 31562 32402 10307 20235 30116 40120 50000 70544 83100;","Q01  00002PRCP06"
"76458099999","2003-10-23T21:00:00","4","23.2","-106.4166666","4.0","COLONIA JUAN CARRASCO MAZATLAN SIN., MX","FM-12","99999","V020","240,1,N,0030,1","03600,1,C,N","018000,1,N,1","+0297,1","+0255,1","10103,1","06,0000,9,1",,,,"4,1,03,1","4,1,03,1","01,1,+00600,9,08,9",,,"05,99,1,01,1,05,1,00250,1,03,1,00,1",,"01,9",,,,"99999,9,10099,1","6,1,016,1,-001,1","05,1",,"SYN118AAXX  23211 76458 31368 52403 10297 20255 30099 40103 56016 70544 81530 92050 333 0/2// 30/// 57825 59001 81820 83357;","Q01  00002PRCP06"
"76458099999","2003-10-24T00:00:00","4","23.2","-106.4166666","4.0","COLONIA JUAN CARRASCO MAZATLAN SIN., MX","FM-12","99999","V020","270,1,N,0030,1","09000,1,9,N","018000,1,N,1","+0292,1","+0241,1","10099,1","06,0000,9,1","24,0000,9,1",,,,,"02,1,+00630,9,06,9",,,"05,99,1,02,1,05,1,00800,1,03,1,02,1",,"01,9",,"120,M,+0330,1","180,N,+0235,1","99999,9,10095,1","5,1,004,1,-005,1",,,"SYN136AAXX  24001 76458 32568 52703 10292 20241 30095 40099 55004 82532 92340 333 0/199 10330 20235 30/// 50251 57610 59005 70000 82621 81356;","Q01  00002PRCP06"
"76458099999","2003-10-24T03:00:00","4","23.2","-106.4166666","4.0","COLONIA JUAN CARRASCO MAZATLAN SIN., MX","FM-12","99999","V020","270,1,N,0020,1","99999,9,9,N","008000,1,N,1","+0284,1","+0238,1","10112,1","06,0000,9,1",,,,,,"03,1,+02400,9,03,9",,,"06,99,1,03,1,99,9,02250,1,03,1,02,1",,"01,9",,,,"99999,9,10108,1","2,1,013,1,+001,1",,,"SYN100AAXX  24031 76458 32858 62702 10284 20238 30108 40112 52013 83/32 90240 333 30/// 58001 83358 83070;","Q01  00002PRCP06"
"76458099999","2003-10-24T12:00:00","4","23.2","-106.4166666","4.0","COLONIA JUAN CARRASCO MAZATLAN SIN., MX","FM-12","99999","V020","330,1,N,0010,1","22000,1,9,N","008000,1,N,1","+0252,1","+0236,1","10120,1","06,0000,9,1","24,0000,9,1",,,,,"01,1,+02400,9,03,9",,,"01,99,1,01,1,00,1,00250,1,03,1,00,1",,"01,9",,"999,M,+0325,1","120,N,+0230,1","99999,9,10115,1","2,1,008,1,+008,1",,,"SYN112AAXX  24121 76458 32358 13301 10252 20236 30115 40120 52008 81030 91150 333 10325 20230 30/// 58008 70000 81358;","Q01  00002PRCP06"
"76458099999","2003-10-24T15:00:00","4","23.2","-106.4166666","4.0","COLONIA JUAN CARRASCO MAZATLAN SIN., MX","FM-12","99999","V020","999,9,C,0000,1","22000,1,9,N","018000,1,N,1","+0260,1","+0233,1","10126,1","06,0000,9,1",,,,"4,1,03,1","4,1,03,1","02,1,+02100,9,03,9",,,"03,99,1,02,1,00,1,99999,9,03,1,01,1",,"01,9",,,,"99999,9,10122,1","2,1,007,1,+007,1","05,1",,"SYN106AAXX  24151 76458 31968 30000 10260 20233 30122 40126 52007 70544 82031 91450 333 30/// 58007 82357 81070;","Q01  00002PRCP06"
"76458099999","2003-10-24T18:00:00","4","23.2","-106.4166666","4.0","COLONIA JUAN CARRASCO MAZATLAN SIN., MX","FM-12","99999","V020","210,1,N,0030,1","22000,1,9,N","012000,1,N,1","+0313,1","+0239,1","10129,1","06,0000,9,1",,,,"4,1,06,1","4,1,06,1",,,,"04,99,1,01,1,04,1,00800,1,03,1,00,1",,,,,,"99999,9,10124,1","0,1,002,1,+999,9","05,1",,"SYN072AAXX  24181 76458 31562 42103 10313 20239 30124 40129 50002 70544 81430;","Q01  00002PRCP06"
"76458099999","2003-10-24T21:00:00","4","23.2","-106.4166666","4.0","COLONIA JUAN CARRASCO MAZATLAN SIN., MX","FM-12","99999","V020","220,1,N,0030,1","03600,1,C,N","015000,1,N,1","+0301,1","+0240,1","10119,1","06,0000,9,1",,,,,,"01,1,+00750,9,08,9",,,"06,99,1,01,1,01,1,00800,1,03,1,00,1",,"01,9",,,,"99999,9,10114,1","7,1,010,1,+015,1",,,"SYN112AAXX  24211 76458 32565 62203 10301 20240 30114 40119 57010 81130 92040 333 0/19/ 30/// 57819 58015 81825 85364;","Q01  00002PRCP06"
"76458099999","2003-10-25T00:00:00","4","23.2","-106.4166666","4.0","COLONIA JUAN CARRASCO MAZATLAN SIN., MX","FM-12","99999","V020","240,1,N,0020,1","22000,1,9,N","018000,1,N,1","+0294,1","+0228,1","10114,1","06,0000,9,1","24,0000,9,1",,,,,,,,"02,99,1,00,1,99,9,99999,9,99,9,09,1",,"01,9",,"120,M,+0330,1","180,N,+0215,1","99999,9,10110,1","6,1,004,1,+015,1",,,"SYN124AAXX  25001 76458 32968 22402 10294 20228 30110 40114 56004 80//9 82340 92340 333 10330 20215 30/// 50371 58015 70000 82170;","Q01  00002PRCP06"
"76458099999","2003-10-25T03:00:00","4","23.2","-106.4166666","4.0","COLONIA JUAN CARRASCO MAZATLAN SIN., MX","FM-12","99999","V020","270,1,N,0020,1","22000,1,9,N","008000,1,N,1","+0286,1","+0234,1","10134,1","06,0000,9,1",,,,,,"02,1,+06000,9,00,9",,,"02,99,1,00,1,99,9,99999,9,99,9,02,1",,"01,9",,,,"99999,9,10130,1","2,1,020,1,+022,1",,,"SYN094AAXX  25031 76458 32958 22702 10286 20234 30130 40134 52020 80//2 90240 333 30/// 58022 82070;","Q01  00002PRCP06"
"76458099999","2003-10-25T18:00:00","4","23.2","-106.4166666","4.0","COLONIA JUAN CARRASCO MAZATLAN SIN., MX","FM-12","99999","V020","240,1,N,0020,1","99999,9,9,N","007000,1,N,1","+0287,1","+0242,1","10145,1","06,0000,9,1",,,,"4,1,06,1","1,1,06,1",,,,"08,99,1,99,9,00,1,99999,9,06,1,00,1",,,,,,"99999,9,10141,1","0,1,007,1,+999,9","05,1",,"SYN072AAXX  25181 76458 31957 82402 10287 20242 30141 40145 50007 70541 87060;","Q01+000072SCOTLCQ02  00002PRCP06"
"76458099999","2003-10-25T21:00:00","4","23.2","-106.4166666","4.0","COLONIA JUAN CARRASCO MAZATLAN SIN., MX","FM-12","99999","V020","270,1,N,0030,1","22000,1,9,N","025000,1,N,1","+0292,1","+0247,1","10132,1","06,0000,9,1",,,,,,"08,1,+03600,9,04,9",,,"99,99,9,08,1,00,1,02250,1,02,1,00,1",,"01,9",,,,"99999,9,10128,1","7,1,012,1,+014,1",,,"SYN100AAXX  25211 76458 32875 42703 10292 20247 30128 40132 57012 88020 92048 333 0//9/ 30/// 58014 88462;","Q01+000042SCOTCVQ02  00002PRCP06"
"76458099999","2003-10-26T00:00:00","4","23.2","-106.4166666","4.0","COLONIA JUAN CARRASCO MAZATLAN SIN., MX","FM-12","99999","V020","330,1,N,0030,1","03600,1,9,N","008000,1,N,1","+0280,1","+0248,1","10131,1","06,0000,9,1","24,0000,9,1",,,,,"08,1,+03600,9,04,9",,,"08,99,1,08,1,00,1,02250,1,02,1,00,1",,"01,9",,"120,M,+0302,1","180,N,+0241,1","99999,9,10127,1","6,1,001,1,+018,1",,,"SYN118AAXX  26001 76458 32858 83303 10280 20248 30127 40131 56201 88020 92350 333 0//9/ 10302 20241 30/// 58018 70000 88462;","Q01+002012APC3  Q02  00002PRCP06"
"76458099999","2003-10-26T03:00:00","4","23.2","-106.4166666","4.0","COLONIA JUAN CARRASCO MAZATLAN SIN., MX","FM-12","99999","V020","330,1,N,0020,1","03600,1,9,N","008000,1,N,1","+0276,1","+0241,1","10138,1","06,0000,9,1",,,,,,"08,1,+03600,9,04,9",,,"08,99,1,08,1,00,1,02250,1,02,1,00,1",,"01,9",,,,"99999,9,10133,1","2,1,006,1,+003,1",,,"SYN094AAXX  26031 76458 32858 83302 10276 20241 30133 40138 52006 88020 90250 333 30/// 58003 88462;","Q01  00002PRCP06"
"76458099999","2003-10-26T12:00:00","4","23.2","-106.4166666","4.0","COLONIA JUAN CARRASCO MAZATLAN SIN., MX","FM-12","99999","V020","360,1,N,0020,1","03600,1,C,N","008000,1,N,1","+0254,1","+0229,1","10124,1","06,0000,9,1","24,0000,9,1",,,,,"03,1,+00300,9,06,9",,,"07,99,1,03,1,05,1,00250,1,02,1,99,9",,"01,9","999,+0240,9","999,M,+0302,1","120,N,+0242,1","99999,9,10120,1","7,1,010,1,-006,1",,,"SYN124AAXX  26121 76458 32358 73602 10254 20229 30120 40124 57010 8352/ 91140 333 0/69/ 10302 20242 30024 59006 70000 83610 84458;","Q01  00002PRCP06"
"76458099999","2003-10-26T15:00:00","4","23.2","-106.4166666","4.0","COLONIA JUAN CARRASCO MAZATLAN SIN., MX","FM-12","99999","V020","999,9,C,0000,1","02400,1,9,N","014000,1,N,1","+0254,1","+0221,1","10132,1","06,0000,9,1",,,,,,"07,1,+02400,9,03,9",,,"07,99,1,07,1,00,1,99999,9,05,1,00,1",,"01,9",,,,"99999,9,10128,1","2,1,008,1,-007,1",,,"SYN100AAXX  26151 76458 32964 70000 10254 20221 30128 40132 52008 87050 91444 333 0/090 30/// 59007 87358;","Q01  00002PRCP06"
"76458099999","2003-10-26T18:00:00","4","23.2","-106.4166666","4.0","COLONIA JUAN CARRASCO MAZATLAN SIN., MX","FM-12","99999","V020","260,1,N,0020,1","04200,1,9,N","015000,1,N,1","+0291,1","+0203,1","10132,1","06,0000,9,1",,,,,,"07,1,+04200,9,04,9",,,"08,99,1,99,9,00,1,02250,1,02,1,00,1",,"01,9",,"120,M,+0300,1","240,N,+0238,1","99999,9,10128,1","0,1,000,1,-012,1",,,"SYN118AAXX  26181 76458 32865 82602 10291 20203 30128 40132 50000 87020 91745 333 10300 20238 30/// 56/9/ 59012 87464 81362;","Q01+000072SCOTLCQ02  00002PRCP06"
"76458099999","2003-10-26T21:00:00","4","23.2","-106.4166666","4.0","COLONIA JUAN CARRASCO MAZATLAN SIN., MX","FM-12","99999","V020","270,1,N,0030,1","99999,9,9,N","008000,1,N,1","+0292,1","+0201,1","10128,1","06,0000,9,1",,,,,,"02,1,+02100,9,03,9",,,"08,99,1,08,1,00,1,00250,1,03,1,00,1",,"01,9",,,,"99999,9,10113,1","6,1,014,1,-015,1",,,"SYN100AAXX  26211 76458 32358 82703 10292 20201 30113 40128 56014 88030 92058 333 30/// 59015 82357 86662;","Q01  00002PRCP06"
"76458099999","2003-10-27T00:00:00","4","23.2","-106.4166666","4.0","COLONIA JUAN CARRASCO MAZATLAN SIN., MX","FM-12","99999","V020","300,1,N,0040,1","99999,9,9,N","008000,1,N,1","+0286,1","+0219,1","10109,1","06,0000,9,1",,,,,,"04,1,+02100,9,03,9",,,"08,99,1,08,1,00,1,99999,9,03,1,01,1",,"01,9",,"120,M,+0315,1","180,N,+0238,1","99999,9,10104,1","6,1,009,1,+028,1",,,"SYN112AAXX  27001 76458 32958 83004 10286 20219 30104 40109 56009 88031 92350 333 10315 20238 30/// 58028 84357 84070;","Q01  00002PRCP06"
"76458099999","2003-10-27T03:00:00","4","23.2","-106.4166666","4.0","COLONIA JUAN CARRASCO MAZATLAN SIN., MX","FM-12","99999","V020","330,1,N,0020,1","22000,1,9,N","008000,1,N,1","+0262,1","+0212,1","10118,1","06,0000,9,1",,,,,,"00,1,+99999,9,99,9",,,"00,99,1,00,1,00,1,99999,9,00,1,00,1",,"01,9",,,,"99999,9,10114,1","3,1,009,1,-020,1",,,"SYN082AAXX  27031 76458 32958 03302 10262 20212 30114 40118 53009 90240 333 30/// 59020;","Q01  00002PRCP06"
"76458099999","2003-10-27T12:00:00","4","23.2","-106.4166666","4.0","COLONIA JUAN CARRASCO MAZATLAN SIN., MX","FM-12","99999","V020","999,9,C,0000,1","22000,1,9,N","008000,1,N,1","+0214,1","+0184,1","10105,1","06,0000,9,1",,,,,,"00,1,+99999,9,99,9",,,"00,99,1,00,1,00,1,99999,9,00,1,00,1",,"01,9","999,+0180,9","999,M,+0315,1","120,N,+0194,1","99999,9,10101,1","7,1,007,1,-018,1",,,"SYN094AAXX  27121 76458 32958 00000 10214 20184 30101 40105 57007 91145 333 10315 20194 30018 59018;","Q01  00002PRCP06"
"76458099999","2003-10-27T15:00:00","4","23.2","-106.4166666","4.0","COLONIA JUAN CARRASCO MAZATLAN SIN., MX","FM-12","99999","V020","360,1,N,0030,1","22000,1,9,N","020000,1,N,1","+0229,1","+0164,1","10122,1","06,0000,9,1",,,,,,"02,1,+08700,9,00,9",,,"02,99,1,00,1,00,1,99999,9,00,1,01,1",,"01,9",,,,"99999,9,10117,1","2,1,016,1,-010,1",,,"SYN100AAXX  27151 76458 32970 23603 10229 20164 30117 40122 52016 80001 91450 333 0/009 30/// 59010 82079;","Q01  00002PRCP06"
"76458099999","2003-10-27T21:00:00","4","23.2","-106.4166666","4.0","COLONIA JUAN CARRASCO MAZATLAN SIN., MX","FM-12","99999","V020","240,1,N,0030,1","22000,1,9,N","010000,1,N,1","+0292,1","+0201,1","10098,1","06,0000,9,1",,,,,,"01,1,+00600,9,08,9",,,"03,99,1,01,1,05,1,99999,9,00,1,01,1",,"01,9",,,,"99999,9,10094,1","6,1,028,1,-001,1",,,"SYN106AAXX  27211 76458 32960 32403 10292 20201 30094 40098 56028 81501 92050 333 0/1/9 30/// 59001 81820 82070;","Q01  00002PRCP06"
"76458099999","2003-10-28T00:00:00","4","23.2","-106.4166666","4.0","COLONIA JUAN CARRASCO MAZATLAN SIN., MX","FM-12","99999","V020","270,1,N,0030,1","22000,1,9,N","020000,1,N,1","+0290,1","+0168,1","10090,1","06,0000,9,1",,,,,,"01,1,+00600,9,08,9",,,"03,99,1,01,1,05,1,99999,9,00,1,01,1",,"01,9",,"120,M,+0318,1","180,N,+0190,1","99999,9,10085,1","6,1,009,1,-019,1",,,"SYN112AAXX  28001 76458 32970 32703 10290 20168 30085 40090 56009 81501 92350 333 10318 20190 30/// 59019 81820 83070;","Q01  00002PRCP06"
"76458099999","2003-10-28T03:00:00","4","23.2","-106.4166666","4.0","COLONIA JUAN CARRASCO MAZATLAN SIN., MX","FM-12","99999","V020","360,1,N,0010,1","22000,1,9,N","008000,1,N,1","+0250,1","+0175,1","10106,1","06,0000,9,1",,,,,,"00,1,+99999,9,99,9",,,"00,99,1,00,1,00,1,99999,9,00,1,00,1",,"01,9",,,,"99999,9,10101,1","2,1,016,1,-013,1",,,"SYN082AAXX  28031 76458 32958 03601 10250 20175 30101 40106 52016 90240 333 30/// 59013;","Q01  00002PRCP06"
"76458099999","2003-10-28T12:00:00","4","23.2","-106.4166666","4.0","COLONIA JUAN CARRASCO MAZATLAN SIN., MX","FM-12","99999","V020","360,1,N,0010,1","22000,1,9,N","008000,1,N,1","+0216,1","+0163,1","10097,1","06,0000,9,1",,,,,,"00,1,+99999,9,99,9",,,"00,99,1,00,1,00,1,99999,9,00,1,00,1",,"01,9","999,+0190,9","999,M,+0318,1","120,N,+0200,1","99999,9,10092,1","7,1,005,1,-009,1",,,"SYN094AAXX  28121 76458 32958 03601 10216 20163 30092 40097 57005 91140 333 10318 20200 30019 59009;","Q01  00002PRCP06"
"76458099999","2003-10-28T15:00:00","4","23.2","-106.4166666","4.0","COLONIA JUAN CARRASCO MAZATLAN SIN., MX","FM-12","99999","V020","999,9,C,0000,1","22000,1,9,N","008000,1,N,1","+0242,1","+0166,1","10112,1","06,0000,9,1",,,,,,"00,1,+99999,9,99,9",,,"00,99,1,00,1,00,1,99999,9,00,1,00,1",,"01,9",,,,"99999,9,10108,1","2,1,016,1,-009,1",,,"SYN082AAXX  28151 76458 32958 00000 10242 20166 30108 40112 52016 91455 333 30/// 59009;","Q01  00002PRCP06"
"76458099999","2003-10-28T21:00:00","4","23.2","-106.4166666","4.0","COLONIA JUAN CARRASCO MAZATLAN SIN., MX","FM-12","99999","V020","240,1,N,0030,1","22000,1,9,N","018000,1,N,1","+0290,1","+0203,1","10098,1","06,0000,9,1",,,,,,"00,1,+99999,9,99,9",,,"00,99,1,00,1,00,1,99999,9,00,1,00,1",,"01,9",,,,"99999,9,10093,1","7,1,017,1,-001,1",,,"SYN082AAXX  28211 76458 32968 02403 10290 20203 30093 40098 57017 92050 333 30/// 59001;","Q01  00002PRCP06"
"76458099999","2003-10-29T00:00:00","4","23.2","-106.4166666","4.0","COLONIA JUAN CARRASCO MAZATLAN SIN., MX","FM-12","99999","V020","270,1,N,0020,1","22000,1,9,N","020000,1,N,1","+0282,1","+0193,1","10099,1","06,0000,9,1","24,0000,9,1",,,,,"00,1,+99999,9,99,9",,,"00,99,1,00,1,00,1,99999,9,00,1,00,1",,"01,9",,"120,M,+0309,1","180,N,+0192,1","99999,9,10094,1","2,1,001,1,+009,1",,,"SYN106AAXX  29001 76458 32970 02702 10282 20193 30094 40099 52001 92347 333 10309 20192 30/// 50441 58009 70000;","Q01  00002PRCP06Q02  00002PRCP24"
"76458099999","2003-10-29T03:00:00","4","23.2","-106.4166666","4.0","COLONIA JUAN CARRASCO MAZATLAN SIN., MX","FM-12","99999","V020","340,1,N,0010,1","22000,1,9,N","012000,1,N,1","+0262,1","+0196,1","10107,1","06,0000,9,1",,,,,,"00,1,+99999,9,99,9",,,"00,99,1,00,1,00,1,99999,9,00,1,00,1",,"01,9",,,,"99999,9,10102,1","2,1,008,1,+001,1",,,"SYN082AAXX  29031 76458 32962 03401 10262 20196 30102 40107 52008 90250 333 30/// 58001;","Q01  00002PRCP06"
"76458099999","2003-10-29T12:00:00","4","23.2","-106.4166666","4.0","COLONIA JUAN CARRASCO MAZATLAN SIN., MX","FM-12","99999","V020","999,9,C,0000,1","22000,1,9,N","008000,1,N,1","+0220,1","+0191,1","10111,1","06,0000,9,1",,,,,,"00,1,+99999,9,99,9",,,"00,99,1,00,1,00,1,99999,9,00,1,00,1",,"01,9","999,+0190,9","999,M,+0309,1","120,N,+0200,1","99999,9,10106,1","7,1,002,1,+014,1",,,"SYN094AAXX  29121 76458 32958 00000 10220 20191 30106 40111 57002 91130 333 10309 20200 30019 58014;","Q01  00002PRCP06"
"76458099999","2003-10-29T21:00:00","4","23.2","-106.4166666","4.0","COLONIA JUAN CARRASCO MAZATLAN SIN., MX","FM-12","99999","V020","220,1,N,0030,1","22000,1,9,N","018000,1,N,1","+0288,1","+0202,1","10114,1","06,0000,9,1",,,,,,"01,1,+01080,9,08,9",,,"01,99,1,01,1,02,1,01250,1,00,1,00,1",,"01,9",,,,"99999,9,10110,1","7,1,017,1,+017,1",,,"SYN100AAXX  29211 76458 32668 12203 10288 20202 30110 40114 57017 81200 92045 333 30/// 561// 58017 81836;","Q01  00002PRCP06"
"76458099999","2003-10-30T00:00:00","4","23.2","-106.4166666","4.0","COLONIA JUAN CARRASCO MAZATLAN SIN., MX","FM-12","99999","V020","230,1,N,0020,1","22000,1,9,N","018000,1,N,1","+0277,1","+0206,1","10107,1","06,0000,9,1","24,0000,9,1",,,,,"00,1,+99999,9,99,9",,,"00,99,1,00,1,00,1,99999,9,00,1,00,1",,"01,9",,"120,M,+0313,1","180,N,+0194,1","99999,9,10102,1","7,1,008,1,+008,1",,,"SYN106AAXX  30001 76458 32968 02302 10277 20206 30102 40107 57008 92345 333 10313 20194 30/// 50291 58008 70000;","Q01  00002PRCP06Q02  00002PRCP24"
"76458099999","2003-10-30T03:00:00","4","23.2","-106.4166666","4.0","COLONIA JUAN CARRASCO MAZATLAN SIN., MX","FM-12","99999","V020","360,1,N,0010,1","22000,1,9,N","008000,1,N,1","+0262,1","+0196,1","10112,1","06,0000,9,1",,,,,,"00,1,+99999,9,99,9",,,"00,99,1,00,1,00,1,99999,9,00,1,00,1",,"01,9",,,,"99999,9,10108,1","3,1,006,1,+005,1",,,"SYN082AAXX  30031 76458 32958 03601 10262 20196 30108 40112 53006 90240 333 30/// 58005;","Q01  00002PRCP06"
"76458099999","2003-10-30T12:00:00","4","23.2","-106.4166666","4.0","COLONIA JUAN CARRASCO MAZATLAN SIN., MX","FM-12","99999","V020","030,1,N,0010,1","22000,1,9,N","008000,1,N,1","+0220,1","+0187,1","10117,1","06,0000,9,1",,,,,,"00,1,+99999,9,99,9",,,"00,99,1,00,1,00,1,99999,9,00,1,00,1",,"01,9","999,+0190,9","999,M,+0313,1","120,N,+0200,1","99999,9,10112,1","4,1,000,1,+006,1",,,"SYN094AAXX  30121 76458 32958 00301 10220 20187 30112 40117 54000 94458 333 10313 20200 30019 58006;","Q01  00002PRCP06"
"76458099999","2003-10-30T15:00:00","4","23.2","-106.4166666","4.0","COLONIA JUAN CARRASCO MAZATLAN SIN., MX","FM-12","99999","V020","030,1,N,0030,1","22000,1,9,N","018000,1,N,1","+0235,1","+0188,1","10133,1","06,0000,9,1",,,,,,"00,1,+99999,9,99,9",,,"00,99,1,00,1,00,1,99999,9,00,1,00,1",,"01,9",,,,"99999,9,10128,1","2,1,016,1,+003,1",,,"SYN082AAXX  30151 76458 32968 00303 10235 20188 30128 40133 52016 91456 333 30/// 58003;","Q01  00002PRCP06"
"76458099999","2003-10-30T18:00:00","4","23.2","-106.4166666","4.0","COLONIA JUAN CARRASCO MAZATLAN SIN., MX","FM-12","99999","V020","180,1,N,0030,1","22000,1,9,N","016000,1,N,1","+0288,1","+0192,1","10136,1","06,0000,9,1",,,,,,"01,1,+01200,9,08,9",,,"02,99,1,01,1,01,1,01250,1,03,1,00,1",,"01,9",,"120,M,+0305,1","240,N,+0195,1","99999,9,10131,1","0,1,003,1,+004,1",,,"SYN118AAXX  30181 76458 32666 21803 10288 20192 30131 40136 50003 81130 91750 333 01990 10305 20195 30/// 58004 81840 81361;","Q01  00002PRCP06"
"76458099999","2003-10-30T21:00:00","4","23.2","-106.4166666","4.0","COLONIA JUAN CARRASCO MAZATLAN SIN., MX","FM-12","99999","V020","280,1,N,0030,1","22000,1,9,N","016000,1,N,1","+0300,1","+0171,1","10120,1","06,0000,9,1",,,,,,"01,1,+00600,9,08,9",,,"03,99,1,01,1,05,1,00250,1,03,1,00,1",,"01,9",,,,"99999,9,10116,1","6,1,015,1,+007,1",,,"SYN100AAXX  30211 76458 32366 32803 10300 20171 30116 40120 56015 81530 92050 333 30/// 58007 81820 82357;","Q01  00002PRCP06"
"76458099999","2003-10-31T00:00:00","4","23.2","-106.4166666","4.0","COLONIA JUAN CARRASCO MAZATLAN SIN., MX","FM-12","99999","V020","270,1,N,0030,1","22000,1,9,N","018000,1,N,1","+0283,1","+0176,1","10116,1","06,0000,9,1","24,0000,9,1",,,,,,,,"01,99,1,01,1,00,1,02250,1,03,1,00,1",,"01,9",,"120,M,+0314,1","180,N,+0195,1","99999,9,10111,1","7,1,005,1,+009,1",,,"SYN124AAXX  31001 76458 32868 12703 10283 20176 30111 40116 57005 81030 92345 333 10314 20195 30/// 50411 56/9/ 58009 70000 81364;","Q01  00002PRCP06"
"76458099999","2003-10-31T03:00:00","4","23.2","-106.4166666","4.0","COLONIA JUAN CARRASCO MAZATLAN SIN., MX","FM-12","99999","V020","030,1,N,0010,1","22000,1,9,N","008000,1,N,1","+0264,1","+0185,1","10124,1","06,0000,9,1",,,,,,"00,1,+99999,9,99,9",,,"00,99,1,00,1,00,1,99999,9,00,1,00,1",,"01,9",,,,"99999,9,10120,1","2,1,009,1,+012,1",,,"SYN082AAXX  31031 76458 32958 00301 10264 20185 30120 40124 52009 90240 333 30/// 58012;","Q01  00002PRCP06"
"76458099999","2003-10-31T12:00:00","4","23.2","-106.4166666","4.0","COLONIA JUAN CARRASCO MAZATLAN SIN., MX","FM-12","99999","V020","999,9,C,0000,1","22000,1,9,N","008000,1,N,1","+0211,1","+0180,1","10128,1","06,0000,9,1",,,,,,"00,1,+99999,9,99,9",,,"00,99,1,00,1,00,1,99999,9,00,1,00,1",,"01,9","999,+0190,9","999,M,+0314,1","120,N,+0200,1","99999,9,10124,1","2,1,003,1,+012,1",,,"SYN094AAXX  31121 76458 32958 00000 10211 20180 30124 40128 52003 91130 333 10314 20200 30019 58012;","Q01  00002PRCP06"
"76458099999","2003-10-31T18:00:00","4","23.2","-106.4166666","4.0","COLONIA JUAN CARRASCO MAZATLAN SIN., MX","FM-12","99999","V020","240,1,N,0030,1","22000,1,9,N","016000,1,N,1","+0290,1","+0183,1","10135,1","06,0000,9,1",,,,,,"00,1,+99999,9,99,9",,,"00,99,1,00,1,00,1,99999,9,00,1,00,1",,"01,9",,"120,M,+0315,1","240,N,+0191,1","99999,9,10130,1","0,1,000,1,-001,1",,,"SYN094AAXX  31181 76458 32966 02403 10290 20183 30130 40135 50000 91745 333 10315 20191 30/// 59001;","Q01  00002PRCP06"
"76458099999","2003-10-31T21:00:00","4","23.2","-106.4166666","4.0","COLONIA JUAN CARRASCO MAZATLAN SIN., MX","FM-12","99999","V020","270,1,N,0040,1","22000,1,9,N","018000,1,N,1","+0295,1","+0198,1","10111,1","06,0000,9,1",,,,,,"01,1,+06000,9,00,9",,,"01,99,1,00,1,00,1,99999,9,00,1,06,1",,"01,9",,,,"99999,9,10107,1","7,1,023,1,-009,1",,,"SYN100AAXX  31211 76458 32968 12704 10295 20198 30107 40111 57023 80006 92050 333 30/// 56//9 59009 81070;","Q01  00002PRCP06"
"76458099999","2003-11-01T00:00:00","4","23.2","-106.4166666","4.0","COLONIA JUAN CARRASCO MAZATLAN SIN., MX","FM-12","99999","V020","280,1,N,0030,1","22000,1,9,N","020000,1,N,1","+0286,1","+0189,1","10109,1","06,0000,9,1","24,0000,9,1",,,,,,,,"01,99,1,00,1,00,1,99999,9,00,1,01,1",,"01,9",,"120,M,+0316,1","180,N,+0191,1","99999,9,10104,1","5,1,003,1,-007,1",,,"SYN124AAXX  01001 76458 32970 12803 10286 20189 30104 40109 55003 80001 92345 333 10316 20191 30/// 50451 56//9 59007 70000 81070;","Q01  00002PRCP06"
"76458099999","2003-11-01T03:00:00","4","23.2","-106.4166666","4.0","COLONIA JUAN CARRASCO MAZATLAN SIN., MX","FM-12","99999","V020","340,1,N,0020,1","22000,1,9,N","010000,1,N,1","+0260,1","+0203,1","10117,1","06,0000,9,1",,,,,,"01,1,+06000,9,00,9",,,"01,99,1,00,1,00,1,99999,9,00,1,01,1",,"01,9",,,,"99999,9,10113,1","2,1,009,1,-006,1",,,"SYN094AAXX  01031 76458 32960 13402 10260 20203 30113 40117 52009 80001 90250 333 30/// 59006 81070;","Q01  00002PRCP06"
"76458099999","2003-11-01T06:00:00","4","23.2","-106.4166666","4.0","COLONIA JUAN CARRASCO MAZATLAN SIN., MX","FM-12","99999","V020","340,1,N,0020,1","22000,1,9,N","008000,1,N,1","+0240,1","+0196,1","10124,1","06,0000,9,1",,,,,,"00,1,+99999,9,99,9",,,"00,99,1,00,1,00,1,99999,9,00,1,00,1",,"01,9",,"240,M,+0316,1","240,N,+0191,1","99999,9,10119,1","2,1,014,1,+008,1",,,"SYN094AAXX  01061 76458 32958 03402 10240 20196 30119 40124 52014 90535 333 10316 20191 30/// 58008;","Q01  00002PRCP06"
"76458099999","2003-11-01T12:00:00","4","23.2","-106.4166666","4.0","COLONIA JUAN CARRASCO MAZATLAN SIN., MX","FM-12","99999","V020","999,9,C,0000,1","22000,1,9,N","008000,1,N,1","+0210,1","+0180,1","10112,1","06,0000,9,1","24,0000,9,1",,,,,"00,1,+99999,9,99,9",,,"00,99,1,00,1,00,1,99999,9,00,1,00,1",,"01,9","999,+0190,9","999,M,+0316,1","120,N,+0200,1","99999,9,10109,1","7,1,005,1,-015,1",,,"SYN100AAXX  01121 76458 32958 00000 10210 20180 30109 40112 57005 91130 333 10316 20200 30019 59015 70000;","Q01  00002PRCP06Q02  00002PRCP24"
"76458099999","2003-11-01T15:00:00","4","23.2","-106.4166666","4.0","COLONIA JUAN CARRASCO MAZATLAN SIN., MX","FM-12","99999","V020","999,9,C,0000,1","22000,1,9,N","015000,1,N,1","+0240,1","+0190,1","10131,1","06,0000,9,1",,,,,,"01,1,+06000,9,00,9",,,"01,99,1,00,1,00,1,99999,9,00,1,02,1",,"01,9",,,,"99999,9,10127,1","2,1,018,1,-003,1",,,"SYN100AAXX  01151 76458 32965 10000 10240 20190 30127 40131 52018 80002 91450 333 0///0 30/// 59003 81070;","Q01  00002PRCP06"
"76458099999","2003-11-01T18:00:00","4","23.2","-106.4166666","4.0","COLONIA JUAN CARRASCO MAZATLAN SIN., MX","FM-12","99999","V020","240,1,N,0030,1","22000,1,9,N","020000,1,N,1","+0277,1","+0191,1","10134,1","06,0000,9,1",,,,,,"00,1,+99999,9,99,9",,,"00,99,1,00,1,00,1,99999,9,00,1,00,1",,"01,9",,"120,M,+0301,1","240,N,+0190,1","99999,9,10129,1","0,1,003,1,-001,1",,,"SYN094AAXX  01181 76458 32970 02403 10277 20191 30129 40134 50003 91745 333 10301 20190 30/// 59001;","Q01  00002PRCP06"
"76458099999","2003-11-01T21:00:00","4","23.2","-106.4166666","4.0","COLONIA JUAN CARRASCO MAZATLAN SIN., MX","FM-12","99999","V020","270,1,N,0040,1","22000,1,9,N","020000,1,N,1","+0296,1","+0173,1","10110,1","06,0000,9,1",,,,,,"01,1,+01500,9,08,9",,,"01,99,1,01,1,02,1,01750,1,00,1,00,1",,"01,9",,,,"99999,9,10106,1","2,1,023,1,+001,1",,,"SYN106AAXX  01211 76458 32770 12704 10296 20173 30106 40110 52023 81200 92050 333 02100 30/// 57819 58001 81850;","Q01  00002PRCP06"
"76458099999","2003-11-02T00:00:00","4","23.2","-106.4166666","4.0","COLONIA JUAN CARRASCO MAZATLAN SIN., MX","FM-12","99999","V020","280,1,N,0030,1","22000,1,9,N","020000,1,N,1","+0290,1","+0168,1","10102,1","06,0000,9,1","24,0000,9,1",,,,,"01,1,+08700,9,00,9",,,"01,99,1,00,1,00,1,99999,9,00,1,01,1",,"01,9",,"120,M,+0315,1","180,N,+0190,1","99999,9,10098,1","2,1,008,1,-007,1",,,"SYN124AAXX  02001 76458 32970 12803 10290 20168 30098 40102 52008 80001 92350 333 0/009 10315 20190 30/// 50461 59007 70000 81079;","Q01  00002PRCP06"
"76458099999","2003-11-02T03:00:00","4","23.2","-106.4166666","4.0","COLONIA JUAN CARRASCO MAZATLAN SIN., MX","FM-12","99999","V020","340,1,N,0020,1","22000,1,9,N","012000,1,N,1","+0266,1","+0194,1","10111,1","06,0000,9,1",,,,,,"00,1,+99999,9,99,9",,,"00,99,1,00,1,00,1,99999,9,00,1,00,1",,"01,9",,,,"99999,9,10106,1","2,1,009,1,-007,1",,,"SYN082AAXX  02031 76458 32962 03402 10266 20194 30106 40111 52009 90250 333 30/// 59007;","Q01  00002PRCP06"
"76458099999","2003-11-02T06:00:00","4","23.2","-106.4166666","4.0","COLONIA JUAN CARRASCO MAZATLAN SIN., MX","FM-12","99999","V020","340,1,N,0010,1","22000,1,9,N","008000,1,N,1","+0246,1","+0171,1","10119,1","06,0000,9,1",,,,,,"00,1,+99999,9,99,9",,,"00,99,1,00,1,00,1,99999,9,00,1,00,1",,"01,9",,"240,M,+0315,1","240,N,+0190,1","99999,9,10114,1","2,1,008,1,-005,1",,,"SYN094AAXX  02061 76458 32958 03401 10246 20171 30114 40119 52008 90535 333 10315 20190 30/// 59005;","Q01  00002PRCP06"
"76458099999","2003-11-02T15:00:00","4","23.2","-106.4166666","4.0","COLONIA JUAN CARRASCO MAZATLAN SIN., MX","FM-12","99999","V020","999,9,C,0000,1","22000,1,9,N","020000,1,N,1","+0234,1","+0174,1","10130,1","06,0000,9,1",,,,,,"00,1,+99999,9,99,9",,,"00,99,1,00,1,00,1,99999,9,00,1,00,1",,"01,9",,,,"99999,9,10126,1","2,1,016,1,+000,1",,,"SYN082AAXX  02151 76458 32970 00000 10234 20174 30126 40130 52016 91440 333 30/// 58000;","Q01  00002PRCP06"
"76458099999","2003-11-02T18:00:00","4","23.2","-106.4166666","4.0","COLONIA JUAN CARRASCO MAZATLAN SIN., MX","FM-12","99999","V020","240,1,N,0030,1","22000,1,9,N","020000,1,N,1","+0284,1","+0179,1","10114,1","06,0000,9,1",,,,,,"00,1,+99999,9,99,9",,,"00,99,1,00,1,00,1,99999,9,00,1,00,1",,"01,9",,"120,M,+0310,1","240,N,+0192,1","99999,9,10136,1","1,1,010,1,+007,1",,,"SYN094AAXX  02181 76458 32970 02403 10284 20179 30136 40114 51010 91735 333 10310 20192 30/// 58007;","Q01  00002PRCP06"
"76458099999","2003-11-02T21:00:00","4","23.2","-106.4166666","4.0","COLONIA JUAN CARRASCO MAZATLAN SIN., MX","FM-12","99999","V020","270,1,N,0030,1","22000,1,9,N","020000,1,N,1","+0297,1","+0180,1","10122,1","06,0000,9,1",,,,,,"01,1,+00540,9,08,9",,,"01,99,1,01,1,05,1,00800,1,00,1,00,1",,"01,9",,,,"99999,9,10117,1","6,1,016,1,+012,1",,,"SYN094AAXX  02211 76458 32570 12703 10297 20180 30117 40122 56016 81500 92050 333 30/// 58012 81818;","Q01  00002PRCP06"
"76458099999","2003-11-03T00:00:00","4","23.2","-106.4166666","4.0","COLONIA JUAN CARRASCO MAZATLAN SIN., MX","FM-12","99999","V020","270,1,N,0030,1","22000,1,9,N","020000,1,N,1","+0288,1","+0206,1","10111,1","06,0000,9,1","24,0000,9,1",,,,,"01,1,+00540,9,08,9",,,"01,99,1,01,1,05,1,00800,1,00,1,00,1",,"01,9",,"120,M,+0315,1","180,N,+0192,1","99999,9,10107,1","6,1,010,1,+010,1",,,"SYN112AAXX  03001 76458 32570 12703 10288 20206 30107 40111 56010 81500 92350 333 10315 20192 30/// 58010 70000 81818;","Q01  00002PRCP06"
"76458099999","2003-11-03T03:00:00","4","23.2","-106.4166666","4.0","COLONIA JUAN CARRASCO MAZATLAN SIN., MX","FM-12","99999","V020","330,1,N,0020,1","22000,1,9,N","016000,1,N,1","+0264,1","+0211,1","10113,1","06,0000,9,1",,,,,,"00,1,+99999,9,99,9",,,"00,99,1,00,1,00,1,99999,9,00,1,00,1",,"01,9",,,,"99999,9,10109,1","0,1,002,1,+002,1",,,"SYN082AAXX  03031 76458 32966 03302 10264 20211 30109 40113 50002 90250 333 30/// 58002;","Q01  00002PRCP06"
"76458099999","2003-11-03T06:00:00","4","23.2","-106.4166666","4.0","COLONIA JUAN CARRASCO MAZATLAN SIN., MX","FM-12","99999","V020","340,1,N,0020,1","22000,1,9,N","016000,1,N,1","+0248,1","+0199,1","10125,1","06,0000,9,1",,,,,,"00,1,+99999,9,99,9",,,"00,99,1,00,1,00,1,99999,9,00,1,00,1","0588,9","01,9",,"240,M,+0315,1","240,N,+0192,1","99999,9,10120,1","2,1,011,1,+999,9",,,"SYN106AAXX  03061 76458 32966 03402 10248 20199 30120 40125 52011 90540 333 10315 20192 30/// 55098 20828 58006;","Q01  00002PRCP06"
"76458099999","2003-11-03T12:00:00","4","23.2","-106.4166666","4.0","COLONIA JUAN CARRASCO MAZATLAN SIN., MX","FM-12","99999","V020","999,9,C,0000,1","22000,1,9,N","008000,1,N,1","+0221,1","+0185,1","10115,1","06,0000,9,1","24,0000,9,1",,,,,"00,1,+99999,9,99,9",,,"00,99,1,00,1,00,1,99999,9,00,1,00,1",,"01,9","999,+0200,9","999,M,+0315,1","120,N,+0210,1","99999,9,10111,1","7,1,006,1,+001,1",,,"SYN100AAXX  03121 76458 32958 00000 10221 20185 30111 40115 57006 91130 333 10315 20210 30020 58001 70000;","Q01  00002PRCP06Q02  00002PRCP24"
"76458099999","2003-11-03T15:00:00","4","23.2","-106.4166666","4.0","COLONIA JUAN CARRASCO MAZATLAN SIN., MX","FM-12","99999","V020","999,9,C,0000,1","22000,1,9,N","020000,1,N,1","+0260,1","+0213,1","10127,1","06,0000,9,1",,,,,,"00,1,+99999,9,99,9",,,"00,99,1,00,1,00,1,99999,9,00,1,00,1",,"01,9",,,,"99999,9,10123,1","2,1,012,1,+999,9",,,"SYN082AAXX  03151 76458 32970 00000 10260 20213 30123 40127 52012 91450 333 30/// 59903;","Q01  00002PRCP06"
"76458099999","2003-11-03T18:00:00","4","23.2","-106.4166666","4.0","COLONIA JUAN CARRASCO MAZATLAN SIN., MX","FM-12","99999","V020","270,1,N,0040,1","22000,1,9,N","020000,1,N,1","+0272,1","+0206,1","10133,1","06,0000,9,1",,,,,,"00,1,+99999,9,99,9",,,"00,99,1,00,1,00,1,99999,9,00,1,00,1",,"01,9",,"120,M,+0315,1","240,N,+0200,1","99999,9,10129,1","2,1,007,1,-006,1",,,"SYN094AAXX  03181 76458 32970 02704 10272 20206 30129 40133 52007 91750 333 10315 20200 30/// 59006;","Q01  00002PRCP06"
"76458099999","2003-11-03T21:00:00","4","23.2","-106.4166666","4.0","COLONIA JUAN CARRASCO MAZATLAN SIN., MX","FM-12","99999","V020","270,1,N,0040,1","22000,1,9,N","020000,1,N,1","+0289,1","+0212,1","10106,1","06,0000,9,1",,,,,,"01,1,+00960,9,08,9",,,"01,99,1,01,1,02,1,00800,1,00,1,00,1",,"01,9",,,,"99999,9,10101,1","7,1,021,1,-016,1",,,"SYN106AAXX  03211 76458 32570 12704 10289 20212 30101 40106 57021 81200 92053 333 02100 30/// 57818 59016 81832;","Q01  00002PRCP06"
"76458099999","2003-11-04T03:00:00","4","23.2","-106.4166666","4.0","COLONIA JUAN CARRASCO MAZATLAN SIN., MX","FM-12","99999","V020","300,1,N,0040,1","22000,1,9,N","008000,1,N,1","+0272,1","+0222,1","10107,1","06,0000,9,1",,,,,,"00,1,+99999,9,99,9",,,"00,99,1,00,1,00,1,99999,9,00,1,00,1",,"01,9",,,,"99999,9,10102,1","2,1,999,9,+003,1",,,"SYN082AAXX  04031 76458 32958 03004 10272 20222 30102 40107 52/// 90240 333 30/// 58003;","Q01  00002PRCP06"
"76458099999","2003-11-04T06:00:00","4","23.2","-106.4166666","4.0","COLONIA JUAN CARRASCO MAZATLAN SIN., MX","FM-12","99999","V020","999,9,C,0000,1","22000,1,9,N","008000,1,N,1","+0252,1","+0220,1","10118,1","06,0000,9,1",,,,,,"00,1,+99999,9,99,9",,,"00,99,1,00,1,00,1,99999,9,00,1,00,1","0588,9","01,9",,"240,M,+0310,1","240,N,+0200,1","99999,9,10113,1","2,1,011,1,+999,9",,,"SYN112AAXX  04061 76458 32958 00000 10252 20220 30113 40118 52011 90540 333 10310 20200 30/// 30/// 55098 20998 59007;","Q01  00002PRCP06"
"76458099999","2003-11-04T12:00:00","4","23.2","-106.4166666","4.0","COLONIA JUAN CARRASCO MAZATLAN SIN., MX","FM-12","99999","V020","999,9,C,0000,1","22000,1,9,N","008000,1,N,1","+0228,1","+0208,1","10107,1","06,0000,9,1","24,0000,9,1",,,,,"00,1,+99999,9,99,9",,,"00,99,1,00,1,00,1,99999,9,00,1,00,1",,"01,9","999,+0200,9","999,M,+0310,1","120,N,+0210,1","99999,9,10103,1","4,1,000,1,-008,1",,,"SYN100AAXX  04121 76458 32958 00000 10228 20208 30103 40107 54000 91130 333 10310 20210 30020 59008 70000;","Q01  00002PRCP06Q02  00002PRCP24"
"76458099999","2003-11-04T15:00:00","4","23.2","-106.4166666","4.0","COLONIA JUAN CARRASCO MAZATLAN SIN., MX","FM-12","99999","V020","020,1,N,9999,9","22000,1,9,N","000100,1,N,1","+9999,9","+9999,9","10123,1",,,,,,,,,,"01,99,1,99,9,99,9,00025,1,99,9,99,9",,"01,9",,,,"99999,9,10119,1","2,1,016,1,-004,1",,,"SYN076AAXX  04151 76458 01001 10251 20214 30119 40123 52016 91450 333 30/// 59004;","Q01+005103WOSPD "
"76458099999","2003-11-04T18:00:00","4","23.2","-106.4166666","4.0","COLONIA JUAN CARRASCO MAZATLAN SIN., MX","FM-12","99999","V020","210,1,N,0020,1","22000,1,9,N","015000,1,N,1","+0284,1","+0217,1","10121,1","06,0000,9,1",,,,,,"00,1,+99999,9,99,9",,,"00,99,1,00,1,00,1,99999,9,00,1,00,1",,,,"120,M,+0307,1","240,N,+0205,1","99999,9,10116,1","8,1,003,1,+999,9",,,"SYN094AAXX  04181 76458 32965 02102 10284 20217 30116 40121 58003 91745 333 10307 20205 20/// 59013;","Q01  00002PRCP06"
"76458099999","2003-11-04T21:00:00","4","23.2","-106.4166666","4.0","COLONIA JUAN CARRASCO MAZATLAN SIN., MX","FM-12","99999","V020","260,1,N,0030,1","22000,1,9,N","016000,1,N,1","+0288,1","+0221,1","10101,1","06,0000,9,1",,,,,,"01,1,+00840,9,08,9",,,"02,99,1,01,1,01,1,00800,1,00,1,01,1",,"01,9",,,,"99999,9,10096,1","7,1,020,1,-005,1",,,"SYN106AAXX  04211 76458 32566 22603 10288 20221 30096 40101 57020 81101 92050 333 01109 30/// 59005 81828 81079;","Q01  00002PRCP06"
"76458099999","2003-11-05T00:00:00","4","23.2","-106.4166666","4.0","COLONIA JUAN CARRASCO MAZATLAN SIN., MX","FM-12","99999","V020","280,1,N,0030,1","22000,1,9,N","020000,1,N,1","+0279,1","+0250,1","10097,1","06,0000,9,1","24,0000,9,1",,,,,"01,1,+00870,9,08,9",,,"02,99,1,01,1,02,1,00800,1,00,1,01,1",,"01,9",,"120,M,+0309,1","180,N,+0205,1","99999,9,10093,1","6,1,004,1,+000,1",,,"SYN136AAXX  05001 76458 32570 22803 10279 20250 30093 40097 56004 81201 92350 333 02109 10309 20205 30/// 50391 57817 59000 70000 81829 81079;","Q01  00002PRCP06"
"76458099999","2003-11-05T12:00:00","4","23.2","-106.4166666","4.0","COLONIA JUAN CARRASCO MAZATLAN SIN., MX","FM-12","99999","V020","999,9,C,0000,1","22000,1,9,N","008000,1,N,1","+0216,1","+0193,1","10117,1","06,0000,9,1","24,0000,9,1",,,,,"00,1,+99999,9,99,9",,,"00,99,1,00,1,00,1,99999,9,00,1,00,1",,"01,9","999,+0190,9","999,M,+0309,1","120,N,+0200,1","99999,9,10112,1","2,1,004,1,+009,1",,,"SYN100AAXX  05121 76458 32958 00000 10216 20193 30112 40117 52004 91130 333 10309 20200 30019 58009 70000;","Q01  00002PRCP06Q02  00002PRCP24"
"76458099999","2003-11-05T15:00:00","4","23.2","-106.4166666","4.0","COLONIA JUAN CARRASCO MAZATLAN SIN., MX","FM-12","99999","V020","100,1,N,0020,1","22000,1,9,N","012000,1,N,1","+0243,1","+0210,1","10131,1","06,0000,9,1",,,,,,,,,"01,99,1,00,1,00,1,99999,9,00,1,06,1",,,,,,"99999,9,10126,1","2,1,014,1,+007,1",,,"SYN099AAXX  05151 76458 32962 11002 10243 20210 30126 40131 52014 80006 91448 333 30// 56//9 58007 81070;","Q01  00002PRCP06"
"76458099999","2003-11-05T18:00:00","4","23.2","-106.4166666","4.0","COLONIA JUAN CARRASCO MAZATLAN SIN., MX","FM-12","99999","V020","240,1,N,0020,1","05400,1,9,N","015000,1,N,1","+0289,1","+0191,1","10139,1","06,0000,9,1",,,,,,"06,1,+05400,9,02,9",,,"06,99,1,00,1,00,1,99999,9,00,1,06,1",,"01,9",,"120,M,+0306,1","240,N,+0196,1","99999,9,10135,1","2,1,009,1,+016,1",,,"SYN112AAXX  05181 76458 32965 62402 10289 20191 30135 40139 52009 80006 91745 333 10306 20196 30/// 56//9 58016 86268;","Q01  00002PRCP06"
"76458099999","2003-11-05T21:00:00","4","23.2","-106.4166666","4.0","COLONIA JUAN CARRASCO MAZATLAN SIN., MX","FM-12","99999","V020","280,1,N,0030,1","22000,1,C,N","017000,1,N,1","+0284,1","+0216,1","10124,1","06,0000,9,1",,,,,,"01,1,+00840,9,08,9",,,"07,99,1,01,1,01,1,00800,1,00,1,04,1",,"01,9",,,,"99999,9,10119,1","7,1,015,1,+023,1",,,"SYN106AAXX  05211 76458 32567 72803 10284 20216 30119 40124 57015 81104 92050 333 01109 30/// 58023 81828 86079;","Q01  00002PRCP06"
"76458099999","2003-11-06T00:00:00","4","23.2","-106.4166666","4.0","COLONIA JUAN CARRASCO MAZATLAN SIN., MX","FM-12","99999","V020","320,1,N,0030,1","22000,1,9,N","020000,1,N,1","+0278,1","+0194,1","10114,1","06,0000,9,1","24,0000,9,1",,,,,"04,1,+08700,9,00,9",,,"04,99,1,00,1,00,1,99999,9,00,1,04,1",,"01,9",,"120,M,+0310,1","180,N,+0196,1","99999,9,10109,1","6,1,010,1,+017,1",,,"SYN124AAXX  06001 76458 32970 43203 10278 20194 30109 40114 56010 80004 92350 333 0/009 10310 20196 30/// 50401 58017 70000 84079;","Q01  00002PRCP06"
"76458099999","2003-11-06T03:00:00","4","23.2","-106.4166666","4.0","COLONIA JUAN CARRASCO MAZATLAN SIN., MX","FM-12","99999","V020","360,1,N,0020,1","22000,1,9,N","008000,1,N,1","+0258,1","+0194,1","10117,1","06,0000,9,1",,,,,,"01,1,+06000,9,00,9",,,"01,99,1,00,1,99,9,99999,9,99,9,01,1",,"01,9",,,,"99999,9,10113,1","3,1,007,1,+011,1",,,"SYN094AAXX  06031 76458 32958 13602 10258 20194 30113 40117 53007 80//1 90240 333 30/// 58011 81070;","Q01  00002PRCP06"
"76458099999","2003-11-06T12:00:00","4","23.2","-106.4166666","4.0","COLONIA JUAN CARRASCO MAZATLAN SIN., MX","FM-12","99999","V020","999,9,C,0000,1","22000,1,9,N","008000,1,N,1","+0216,1","+0180,1","10113,1","06,0000,9,1","24,0000,9,1",,,,,"00,1,+99999,9,99,9",,,"00,99,1,00,1,00,1,99999,9,00,1,00,1",,"01,9","999,+0190,9","999,M,+0310,1","120,N,+0200,1","99999,9,10107,1","4,1,000,1,-005,1",,,"SYN100AAXX  06121 76458 32958 00000 10216 20180 30107 40113 54001 91130 333 10310 20200 30019 59005 70000;","Q01  00002PRCP06Q02  00002PRCP24"
"76458099999","2003-11-06T15:00:00","4","23.2","-106.4166666","4.0","COLONIA JUAN CARRASCO MAZATLAN SIN., MX","FM-12","99999","V020","120,1,N,0020,1","22000,1,9,N","012000,1,N,1","+0239,1","+0203,1","10134,1","06,0000,9,1",,,,,,"01,1,+06000,9,00,9",,,"01,99,1,00,1,00,1,99999,9,00,1,06,1",,"01,9",,,,"99999,9,10130,1","2,1,023,1,+004,1",,,"SYN100AAXX  06151 76458 32962 11202 10239 20203 30130 40134 52023 80006 91448 333 30/// 56//9 58004 81070;","Q01  00002PRCP06"
"76458099999","2003-11-06T18:00:00","4","23.2","-106.4166666","4.0","COLONIA JUAN CARRASCO MAZATLAN SIN., MX","FM-12","99999","V020","160,1,N,0020,1","22000,1,9,N","018000,1,N,1","+0287,1","+0203,1","10141,1","06,0000,9,1",,,,,,"01,1,+06000,9,00,9",,,"01,99,1,00,1,00,1,99999,9,00,1,06,1",,"01,9",,"120,M,+0300,1","240,N,+0193,1","99999,9,10137,1","0,1,007,1,+002,1",,,"SYN112AAXX  06181 76458 32968 11602 10287 20203 30137 40141 50007 80006 91748 333 10300 20193 30/// 56//9 58002 81070;","Q01  00002PRCP06"
"76458099999","2003-11-06T21:00:00","4","23.2","-106.4166666","4.0","COLONIA JUAN CARRASCO MAZATLAN SIN., MX","FM-12","99999","V020","240,1,N,0030,1","22000,1,9,N","020000,1,N,1","+0298,1","+0223,1","10124,1","06,0000,9,1",,,,"4,1,03,1","4,1,03,1","01,1,+00600,9,08,9",,,"02,99,1,01,1,05,1,99999,9,00,1,01,1",,"01,9",,,,"99999,9,10120,1","6,1,017,1,+000,1","05,1",,"SYN106AAXX  06211 76458 31970 22403 10298 20223 30120 40124 56017 70544 81501 92050 333 30/// 58000 81820 81070;","Q01  00002PRCP06"
"76458099999","2003-11-07T00:00:00","4","23.2","-106.4166666","4.0","COLONIA JUAN CARRASCO MAZATLAN SIN., MX","FM-12","99999","V020","320,1,N,0030,1","08700,1,9,N","018000,1,N,1","+0276,1","+0202,1","10122,1","06,0000,9,1","24,0000,9,1",,,,,"05,1,+08700,9,00,9",,,"05,99,1,00,1,00,1,99999,9,00,1,04,1",,"01,9",,"120,M,+0315,1","180,N,+0193,1","99999,9,10117,1","4,1,000,1,+008,1",,,"SYN124AAXX  07001 76458 32968 53203 10276 20202 30117 40122 54003 80004 92355 333 0/009 10315 20193 30/// 50341 58008 70000 85079;","Q01  00002PRCP06"
"76458099999","2003-11-07T06:00:00","4","23.2","-106.4166666","4.0","COLONIA JUAN CARRASCO MAZATLAN SIN., MX","FM-12","99999","V020","999,9,C,0000,1","22000,1,9,N","008000,1,N,1","+0242,1","+0202,1","10139,1","06,0000,9,1",,,,,,"00,1,+99999,9,99,9",,,"00,99,1,00,1,00,1,99999,9,00,1,00,1","0510,9","01,9",,"240,M,+0315,1","240,N,+0193,1","99999,9,10135,1","1,1,007,1,+999,9",,,"SYN106AAXX  07061 76458 32958 00000 10242 20202 30135 40139 51007 90535 333 10315 20193 30/// 55085 21029 58017;","Q01  00002PRCP06"
"76458099999","2003-11-07T15:00:00","4","23.2","-106.4166666","4.0","COLONIA JUAN CARRASCO MAZATLAN SIN., MX","FM-12","99999","V020","070,1,N,0010,1","22000,1,9,N","018000,1,N,1","+0253,1","+0210,1","10139,1","06,0000,9,1",,,,,,"01,1,+06000,9,00,9",,,"01,99,1,00,1,00,1,99999,9,00,1,02,1",,"01,9",,,,"99999,9,10134,1","2,1,009,1,+004,1",,,"SYN094AAXX  07151 76458 32968 10701 10253 20210 30134 40139 52009 80002 91450 333 30/// 58004 81070;","Q01  00002PRCP06"
"76458099999","2003-11-07T21:00:00","4","23.2","-106.4166666","4.0","COLONIA JUAN CARRASCO MAZATLAN SIN., MX","FM-12","99999","V020","180,1,N,0020,1","22000,1,9,N","018000,1,N,1","+0300,1","+0213,1","10124,1","06,0000,9,1",,,,,,"01,1,+01080,9,08,9",,,"01,99,1,01,1,01,1,01250,1,00,1,00,1",,"01,9",,,,"99999,9,10120,1","7,1,014,1,+000,1",,,"SYN106AAXX  07211 76458 32668 11802 10300 20213 30120 40124 57014 81100 92045 333 001// 30/// 57819 58000 81836;","Q01  00002PRCP06"
"76458099999","2003-11-08T00:00:00","4","23.2","-106.4166666","4.0","COLONIA JUAN CARRASCO MAZATLAN SIN., MX","FM-12","99999","V020","280,1,N,0020,1","22000,1,9,N","018000,1,N,1","+0281,1","+0226,1","10125,1","06,0000,9,1","24,0000,9,1",,,,,"00,1,+99999,9,99,9",,,"00,99,1,00,1,00,1,99999,9,00,1,00,1",,"01,9",,"120,M,+0322,1","180,N,+0200,1","99999,9,10120,1","5,1,000,1,+003,1",,,"SYN106AAXX  08001 76458 32968 02802 10281 20226 30120 40125 55000 92345 333 10322 20200 30/// 50391 58003 70000;","Q01  00002PRCP06Q02  00002PRCP24"
"76458099999","2003-11-08T03:00:00","4","23.2","-106.4166666","4.0","COLONIA JUAN CARRASCO MAZATLAN SIN., MX","FM-12","99999","V020","320,1,N,0020,1","22000,1,9,N","008000,1,N,1","+0262,1","+0205,1","10132,1","06,0000,9,1",,,,,,"00,1,+99999,9,99,9",,,"00,99,1,00,1,00,1,99999,9,00,1,00,1",,,,,,"99999,9,10127,1",,,,"SYN082AAXX  08031 76458 32958 03202 10262 20205 30127 40132 5008 90245 333 3 0/// 58000;","Q01  00002PRCP06"
"76458099999","2003-11-08T06:00:00","4","23.2","-106.4166666","4.0","COLONIA JUAN CARRASCO MAZATLAN SIN., MX","FM-12","99999","V020","330,1,N,0010,1","22000,1,9,N","008000,1,N,1","+0248,1","+0180,1","10136,1","06,0000,9,1",,,,,,"00,1,+99999,9,99,9",,,"00,99,1,00,1,00,1,99999,9,00,1,00,1","0546,9","01,9",,"240,M,+0322,1","240,N,+0200,1","99999,9,10132,1","1,1,004,1,+999,9",,,"SYN106AAXX  08061 76458 32958 03301 10248 20180 30132 40136 51004 90535 333 10322 20200 30/// 55091 20959 59003;","Q01  00002PRCP06"
"76458099999","2003-11-08T15:00:00","4","23.2","-106.4166666","4.0","COLONIA JUAN CARRASCO MAZATLAN SIN., MX","FM-12","99999","V020","100,1,N,0020,1","22000,1,9,N","010000,1,N,1","+0265,1","+0233,1","10140,1","06,0000,9,1",,,,,,"03,1,+02400,9,03,9",,,"03,99,1,99,9,00,1,99999,9,03,1,00,1",,"01,9",,,,"99999,9,10135,1","2,1,010,1,+001,1",,,"SYN100AAXX  08151 76458 32960 31002 10265 20233 30135 40140 52010 80030 91450 333 0//0/ 30/// 58001 83358;","Q01+000002SCOTLCQ02  00002PRCP06"
"76458099999","2003-11-08T18:00:00","4","23.2","-106.4166666","4.0","COLONIA JUAN CARRASCO MAZATLAN SIN., MX","FM-12","99999","V020","240,1,N,0020,1","22000,1,9,N","015000,1,N,1","+0284,1","+0232,1","10141,1","06,0000,9,1",,,,,,"01,1,+02400,9,03,9",,,"01,99,1,99,9,00,1,99999,9,03,1,00,1",,"01,9",,"120,M,+0307,1","240,N,+0213,1","99999,9,10136,1","0,1,001,1,+002,1",,,"SYN112AAXX  08181 76458 32965 12402 10284 20232 30136 40141 50001 80030 91750 333 0//0/ 10307 20213 30/// 58002 81358;","Q01+000002SCOTLCQ02  00002PRCP06"
"76458099999","2003-11-08T21:00:00","4","23.2","-106.4166666","4.0","COLONIA JUAN CARRASCO MAZATLAN SIN., MX","FM-12","99999","V020","250,1,N,0030,1","22000,1,9,N","016000,1,N,1","+0286,1","+0221,1","10122,1","06,0000,9,1",,,,"4,1,03,1","0,1,03,1","01,1,+06900,9,01,9",,,"01,99,1,00,1,00,1,99999,9,00,1,09,1",,"01,9",,,,"99999,9,10117,1","7,1,019,1,-003,1","05,1",,"SYN106AAXX  08211 76458 31966 12503 10286 20221 30117 40122 57019 70540 80009 92050 333 0/009 30/// 59003 81173;","Q01  00002PRCP06"
"76458099999","2003-11-09T00:00:00","4","23.2","-106.4166666","4.0","COLONIA JUAN CARRASCO MAZATLAN SIN., MX","FM-12","99999","V020","320,1,N,0030,1","22000,1,9,N","020000,1,N,1","+0285,1","+0206,1","10118,1","06,0000,9,1","24,0000,9,1",,,,,"01,1,+06900,9,01,9",,,"01,99,1,00,1,00,1,99999,9,00,1,09,1",,"01,9",,"120,M,+0310,1","180,N,+0213,1","99999,9,10114,1","2,1,003,1,-006,1",,,"SYN124AAXX  09001 76458 32970 13203 10285 20206 30114 40118 52003 80009 92350 333 0/009 10310 20213 30/// 50391 59006 70000 81173;","Q01  00002PRCP06"
"76458099999","2003-11-09T03:00:00","4","23.2","-106.4166666","4.0","COLONIA JUAN CARRASCO MAZATLAN SIN., MX","FM-12","99999","V020","320,1,N,0040,1","22000,1,9,N","008000,1,N,1","+0270,1","+0212,1","10129,1","06,0000,9,1",,,,,,"00,1,+99999,9,99,9",,,"00,99,1,00,1,00,1,99999,9,00,1,00,1",,"01,9",,,,"99999,9,10125,1","2,1,011,1,-003,1",,,"SYN082AAXX  09031 76458 32958 03204 10270 20212 30125 40129 52011 90240 333 30/// 59003;","Q01  00002PRCP06"
"76458099999","2003-11-09T06:00:00","4","23.2","-106.4166666","4.0","COLONIA JUAN CARRASCO MAZATLAN SIN., MX","FM-12","99999","V020","999,9,C,0000,1","22000,1,9,N","008000,1,N,1","+0250,1","+0213,1","10142,1","06,0000,9,1",,,,,,"00,1,+99999,9,99,9",,,"00,99,1,00,1,00,1,99999,9,00,1,00,1","0552,9","01,9",,"240,M,+0310,1","240,N,+0213,1","99999,9,10137,1","2,1,012,1,+999,9",,,"SYN106AAXX  09061 76458 32958 00000 10250 20213 30137 40142 52012 90535 333 10310 20213 30/// 55092 21176 58005;","Q01  00002PRCP06"
"76458099999","2003-11-09T12:00:00","4","23.2","-106.4166666","4.0","COLONIA JUAN CARRASCO MAZATLAN SIN., MX","FM-12","99999","V020","310,1,N,0010,1","22000,1,9,N","008000,1,N,1","+0231,1","+0205,1","10135,1","06,0000,9,1",,,,,,"00,1,+99999,9,99,9",,,"00,99,1,00,1,00,1,99999,9,00,1,00,1",,"01,9",,"999,M,+0310,1","120,N,+0211,1","99999,9,10130,1","2,1,001,1,+999,9",,,"SYN106AAXX  09121 76458 32958 03101 10231 20205 30130 40135 52001 91145 333 10310 20211 30/// 30192 58/// 70000;","Q01  00002PRCP06"
"76458099999","2003-11-09T15:00:00","4","23.2","-106.4166666","4.0","COLONIA JUAN CARRASCO MAZATLAN SIN., MX","FM-12","99999","V020","999,9,C,0000,1","22000,1,9,N","014000,1,N,1","+0253,1","+0213,1","10145,1","06,0000,9,1",,,,,,"00,1,+99999,9,99,9",,,"00,99,1,00,1,00,1,99999,9,00,1,00,1",,"01,9",,,,"99999,9,10140,1","2,1,008,1,-005,1",,,"SYN082AAXX  09151 76458 32964 00000 10253 20213 30140 40145 52008 91450 333 30/// 59005;","Q01  00002PRCP06"
"76458099999","2003-11-09T18:00:00","4","23.2","-106.4166666","4.0","COLONIA JUAN CARRASCO MAZATLAN SIN., MX","FM-12","99999","V020","180,1,N,0010,1","22000,1,9,N","010000,1,N,1","+0295,1","+0229,1","10145,1","06,0000,9,1",,,,"4,1,06,1","4,1,06,1","00,1,+99999,9,99,9",,,"00,99,1,00,1,00,1,99999,9,00,1,00,1",,"01,9",,"120,M,+0325,1","240,N,+0211,1","99999,9,10141,1","0,1,001,1,+005,1","05,1",,"SYN100AAXX  09181 76458 31960 01801 10295 20229 30141 40145 50001 70544 91750 333 10325 20211 30/// 58005;","Q01  00002PRCP06"
"76458099999","2003-11-09T21:00:00","4","23.2","-106.4166666","4.0","COLONIA JUAN CARRASCO MAZATLAN SIN., MX","FM-12","99999","V020","250,1,N,0030,1","22000,1,9,N","015000,1,N,1","+0298,1","+0237,1","10122,1","06,0000,9,1",,,,,,"00,1,+99999,9,99,9",,,"00,99,1,00,1,00,1,99999,9,00,1,00,1",,"01,9",,,,"99999,9,10118,1","7,1,023,1,+001,1",,,"SYN082AAXX  09211 76458 32965 02503 10298 20237 30118 40122 57023 92048 333 30/// 58001;","Q01  00002PRCP06"
"76458099999","2003-11-10T00:00:00","4","23.2","-106.4166666","4.0","COLONIA JUAN CARRASCO MAZATLAN SIN., MX","FM-12","99999","V020","280,1,N,0030,1","22000,1,9,N","018000,1,N,1","+0287,1","+0225,1","10111,1","06,0000,9,1","24,0000,9,1",,,,,,,,"01,99,1,00,1,00,1,99999,9,00,1,01,1",,"01,9",,"120,M,+0326,1","180,N,+0211,1","99999,9,10107,1","7,1,011,1,-007,1",,,"SYN124AAXX  10001 76458 32968 12803 10287 20225 30107 40111 57011 80001 92345 333 10326 20211 30/// 50241 56//9 59007 70000 81070;","Q01  00002PRCP06"
"76458099999","2003-11-10T03:00:00","4","23.2","-106.4166666","4.0","COLONIA JUAN CARRASCO MAZATLAN SIN., MX","FM-12","99999","V020","310,1,N,0030,1","22000,1,9,N","008000,1,N,1","+0268,1","+0226,1","10118,1","06,0000,9,1",,,,,,"00,1,+99999,9,99,9",,,"00,99,1,00,1,00,1,99999,9,00,1,00,1",,"01,9",,,,"99999,9,10114,1","2,1,007,1,-011,1",,,"SYN082AAXX  10031 76458 32958 03103 10268 20226 30114 40118 52007 90240 333 30/// 59011;","Q01  00002PRCP06"
"76458099999","2003-11-10T12:00:00","4","23.2","-106.4166666","4.0","COLONIA JUAN CARRASCO MAZATLAN SIN., MX","FM-12","99999","V020","010,1,N,0350,1","22000,1,9,N","008000,1,N,1","+0228,1","+0202,1","10115,1","06,0000,9,1",,,,,,"00,1,+99999,9,99,9",,,"00,99,1,00,1,00,1,99999,9,00,1,00,1",,"01,9","999,+0200,9","999,M,+0326,1","120,N,+0210,1","99999,9,10110,1","7,1,002,1,-020,1",,,"SYN094AAXX  10121 76458 32958 00135 10228 20202 30110 40115 57002 91135 333 10326 20210 30020 59020;","Q01  00002PRCP06"
"76458099999","2003-11-10T15:00:00","4","23.2","-106.4166666","4.0","COLONIA JUAN CARRASCO MAZATLAN SIN., MX","FM-12","99999","V020","120,1,N,0020,1","22000,1,9,N","012000,1,N,1","+0258,1","+0227,1","10135,1","06,0000,9,1",,,,,,"00,1,+99999,9,99,9",,,"00,99,1,00,1,00,1,99999,9,00,1,00,1",,"01,9",,,,"99999,9,10131,1","2,1,021,1,-009,1",,,"SYN082AAXX  10151 76458 32962 01202 10258 20227 30131 40135 52021 91450 333 30/// 59009;","Q01  00002PRCP06"
"76458099999","2003-11-10T18:00:00","4","23.2","-106.4166666","4.0","COLONIA JUAN CARRASCO MAZATLAN SIN., MX","FM-12","99999","V020","180,1,N,0010,1","22000,1,9,N","015000,1,N,1","+0312,1","+0236,1","10137,1","06,0000,9,1",,,,,,"00,1,+99999,9,99,9",,,"00,99,1,00,1,00,1,99999,9,00,1,00,1",,"01,9",,"120,M,+0332,1","240,N,+0209,1","99999,9,10132,1","0,1,001,1,-009,1",,,"SYN094AAXX  10181 76458 32965 01801 10312 20236 30132 40137 50001 91750 333 10332 20209 30/// 59009;","Q01  00002PRCP06"
"76458099999","2003-11-10T21:00:00","4","23.2","-106.4166666","4.0","COLONIA JUAN CARRASCO MAZATLAN SIN., MX","FM-12","99999","V020","270,1,N,0030,1","22000,1,9,N","010000,1,N,1","+0306,1","+0238,1","10116,1","06,0000,9,1",,,,"4,1,03,1","4,1,03,1","00,1,+99999,9,99,9",,,"00,99,1,00,1,00,1,99999,9,00,1,00,1",,"01,9",,,,"99999,9,10112,1","7,1,020,1,-006,1","05,1",,"SYN088AAXX  10211 76458 31960 02703 10306 20238 30112 40116 57020 70544 92058 333 30/// 59006;","Q01  00002PRCP06"
"76458099999","2003-11-11T00:00:00","4","23.2","-106.4166666","4.0","COLONIA JUAN CARRASCO MAZATLAN SIN., MX","FM-12","99999","V020","270,1,N,0030,1","22000,1,9,N","014000,1,N,1","+0294,1","+0243,1","10113,1","06,0000,9,1","24,0000,9,1",,,"4,1,06,1","4,1,06,1","00,1,+99999,9,99,9",,,"00,99,1,00,1,00,1,99999,9,00,1,00,1",,"01,9",,"120,M,+0332,1","180,N,+0209,1","99999,9,10109,1","6,1,003,1,+002,1","05,1",,"SYN112AAXX  11001 76458 31964 02703 10294 20243 30109 40113 56003 70544 92348 333 10332 20209 30/// 50491 58002 70000;","Q01  00002PRCP06Q02  00002PRCP24"
"76458099999","2003-11-11T03:00:00","4","23.2","-106.4166666","4.0","COLONIA JUAN CARRASCO MAZATLAN SIN., MX","FM-12","99999","V020","330,1,N,0020,1","22000,1,9,N","008000,1,N,1","+0272,1","+0237,1","10127,1","06,0000,9,1",,,,,,"00,1,+99999,9,99,9",,,"00,99,1,00,1,00,1,99999,9,00,1,00,1",,"01,9",,,,"99999,9,10123,1","2,1,014,1,+009,1",,,"SYN082AAXX  11031 76458 32958 03302 10272 20237 30123 40127 52014 90240 333 30/// 58009;","Q01  00002PRCP06"
"76458099999","2003-11-11T12:00:00","4","23.2","-106.4166666","4.0","COLONIA JUAN CARRASCO MAZATLAN SIN., MX","FM-12","99999","V020","999,9,C,0000,1","22000,1,9,N","008000,1,N,1","+0234,1","+0196,1","10117,1","06,0000,9,1",,,,,,"00,1,+99999,9,99,9",,,"00,99,1,00,1,00,1,99999,9,00,1,00,1",,"01,9","999,+0200,9","999,M,+0332,1","120,N,+0210,1","99999,9,10112,1","4,1,000,1,+002,1",,,"SYN094AAXX  11121 76458 32958 00000 10234 20196 30112 40117 54001 91130 333 10332 20210 30020 58002;","Q01  00002PRCP06"
"76458099999","2003-11-11T15:00:00","4","23.2","-106.4166666","4.0","COLONIA JUAN CARRASCO MAZATLAN SIN., MX","FM-12","99999","V020","330,1,N,0010,1","22000,1,9,N","013000,1,N,1","+0260,1","+0202,1","10129,1","06,0000,9,1",,,,,,"00,1,+99999,9,99,9",,,"00,99,1,00,1,00,1,99999,9,00,1,00,1",,"01,9",,,,"99999,9,10124,1","1,1,012,1,-007,1",,,"SYN082AAXX  11151 76458 32963 03301 10260 20202 30124 40129 51012 91450 333 30/// 59007;","Q01  00002PRCP06"
"76458099999","2003-11-11T18:00:00","4","23.2","-106.4166666","4.0","COLONIA JUAN CARRASCO MAZATLAN SIN., MX","FM-12","99999","V020","250,1,N,0010,1","22000,1,9,N","018000,1,N,1","+0316,1","+0202,1","10126,1","06,0000,9,1",,,,,,"00,1,+99999,9,99,9",,,"00,99,1,00,1,00,1,99999,9,00,1,00,1",,"01,9",,"120,M,+0342,1","240,N,+0210,1","99999,9,10122,1","0,1,002,1,-011,1",,,"SYN094AAXX  11181 76458 32968 02501 10316 20202 30122 40126 50002 91750 333 10342 20210 30/// 59011;","Q01  00002PRCP06"
"76458099999","2003-11-11T21:00:00","4","23.2","-106.4166666","4.0","COLONIA JUAN CARRASCO MAZATLAN SIN., MX","FM-12","99999","V020","240,1,N,0020,1","22000,1,9,N","016000,1,N,1","+0309,1","+0230,1","10106,1","06,0000,9,1",,,,,,"01,1,+00990,9,08,9",,,"01,99,1,01,1,02,1,00800,1,00,1,00,1",,"01,9",,,,"99999,9,10102,1","7,1,020,1,-010,1",,,"SYN106AAXX  11211 76458 32566 12402 10309 20230 30102 40106 57020 81200 92050 333 02100 30/// 57818 59010 81833;","Q01  00002PRCP06"
"76458099999","2003-11-12T00:00:00","4","23.2","-106.4166666","4.0","COLONIA JUAN CARRASCO MAZATLAN SIN., MX","FM-12","99999","V020","300,1,N,0030,1","22000,1,9,N","018000,1,N,1","+0294,1","+0231,1","10097,1","06,0000,9,1","24,0000,9,1",,,,,"00,1,+99999,9,99,9",,,"00,99,1,00,1,00,1,99999,9,00,1,00,1",,"01,9",,"120,M,+0355,1","180,N,+0210,1","99999,9,10092,1","6,1,009,1,-016,1",,,"SYN106AAXX  12001 76458 32968 03003 10294 20231 30092 40097 56009 92350 333 10355 20210 30/// 50381 59016 70000;","Q01  00002PRCP06Q02  00002PRCP24"
"76458099999","2003-11-12T03:00:00","4","23.2","-106.4166666","4.0","COLONIA JUAN CARRASCO MAZATLAN SIN., MX","FM-12","99999","V020","320,1,N,0030,1","22000,1,9,N","010000,1,N,1","+0272,1","+0230,1","10104,1","06,0000,9,1",,,,,,"00,1,+99999,9,99,9",,,"00,99,1,00,1,00,1,99999,9,00,1,00,1",,"01,9",,,,"99999,9,10099,1","2,1,007,1,-024,1",,,"SYN082AAXX  12031 76458 32960 03203 10272 20230 30099 40104 52007 90248 333 30/// 59024;","Q01  00002PRCP06"
"76458099999","2003-11-12T12:00:00","4","23.2","-106.4166666","4.0","COLONIA JUAN CARRASCO MAZATLAN SIN., MX","FM-12","99999","V020","999,9,C,0000,1","22000,1,9,N","008000,1,N,1","+0236,1","+0201,1","10096,1","06,0000,9,1","24,0000,9,1",,,,,"00,1,+99999,9,99,9",,,"00,99,1,00,1,00,1,99999,9,00,1,00,1",,"01,9","999,+0200,9","999,M,+0355,1","120,N,+0210,1","99999,9,10092,1","7,1,004,1,-020,1",,,"SYN100AAXX  12121 76458 32958 00000 10236 20201 30092 40096 57004 91135 333 10355 20210 30020 59020 70000;","Q01  00002PRCP06Q02  00002PRCP24"
"76458099999","2003-11-12T15:00:00","4","23.2","-106.4166666","4.0","COLONIA JUAN CARRASCO MAZATLAN SIN., MX","FM-12","99999","V020","060,1,N,0010,1","22000,1,9,N","010000,1,N,1","+0251,1","+0207,1","10114,1","06,0000,9,1",,,,"4,1,03,1","4,1,03,1","00,1,+99999,9,99,9",,,"00,99,1,00,1,00,1,99999,9,00,1,00,1",,"01,9",,,,"99999,9,10109,1","2,1,017,1,-015,1","05,1",,"SYN088AAXX  12151 76458 31960 00601 10251 20207 30109 40114 52017 70544 91455 333 30/// 59015;","Q01  00002PRCP06"
"76458099999","2003-11-12T18:00:00","4","23.2","-106.4166666","4.0","COLONIA JUAN CARRASCO MAZATLAN SIN., MX","FM-12","99999","V020","150,1,N,0020,1","22000,1,9,N","017000,1,N,1","+0311,1","+0215,1","10112,1","06,0000,9,1",,,,"4,1,06,1","4,1,06,1","00,1,+99999,9,99,9",,,"00,99,1,00,1,00,1,99999,9,00,1,00,1",,"01,9",,"120,M,+0328,1","240,N,+0207,1","99999,9,10107,1","8,1,002,1,-014,1","05,1",,"SYN100AAXX  12181 76458 31967 01502 10311 20215 30107 40112 58002 70544 91750 333 10328 20207 30/// 59014;","Q01  00002PRCP06"
"76458099999","2003-11-12T21:00:00","4","23.2","-106.4166666","4.0","COLONIA JUAN CARRASCO MAZATLAN SIN., MX","FM-12","99999","V020","210,1,N,0020,1","22000,1,9,N","015000,1,N,1","+0286,1","+0236,1","10097,1","06,0000,9,1",,,,,,"00,1,+99999,9,99,9",,,"00,99,1,00,1,00,1,99999,9,00,1,00,1",,"01,9",,,,"99999,9,10093,1","7,1,014,1,-009,1",,,"SYN082AAXX  12211 76458 32965 02102 10286 20236 30093 40097 57014 92048 333 30/// 59009;","Q01  00002PRCP06"
"76458099999","2003-11-13T00:00:00","4","23.2","-106.4166666","4.0","COLONIA JUAN CARRASCO MAZATLAN SIN., MX","FM-12","99999","V020","280,1,N,0020,1","22000,1,9,N","018000,1,N,1","+0285,1","+0232,1","10095,1","06,0000,9,1","24,0000,9,1",,,,,"00,1,+99999,9,99,9",,,"00,99,1,00,1,00,1,99999,9,00,1,00,1",,"01,9",,"120,M,+0330,1","180,N,+0207,1","99999,9,10090,1","5,1,003,1,-002,1",,,"SYN106AAXX  13001 76458 32968 02802 10285 20232 30090 40095 55003 92347 333 10330 20207 30/// 50341 59002 70000;","Q01  00002PRCP06Q02  00002PRCP24"
"76458099999","2003-11-13T03:00:00","4","23.2","-106.4166666","4.0","COLONIA JUAN CARRASCO MAZATLAN SIN., MX","FM-12","99999","V020","330,1,N,0010,1","22000,1,9,N","008000,1,N,1","+0266,1","+0227,1","10110,1","06,0000,9,1",,,,,,"00,1,+99999,9,99,9",,,"00,99,1,00,1,00,1,99999,9,00,1,00,1",,"01,9",,,,"99999,9,10105,1","2,1,015,1,+006,1",,,"SYN082AAXX  13031 76458 32958 03301 10266 20227 30105 40110 52015 90240 333 30/// 58006;","Q01  00002PRCP06"
"76458099999","2003-11-13T09:00:00","4","23.2","-106.4166666","4.0","COLONIA JUAN CARRASCO MAZATLAN SIN., MX","FM-12","99999","V020","300,1,N,0010,1","22000,1,9,N","008000,1,N,1","+0244,1","+0224,1","10116,1","06,0000,9,1",,,,,,"03,1,+02400,9,03,9",,,"03,99,1,99,9,00,1,99999,9,03,1,00,1",,"01,9",,,,"99999,9,10112,1","7,1,002,1,+016,1",,,"SYN100AAXX  13091 76458 32958 33001 10244 20224 30112 40116 57002 80030 90850 333 30/// 56090 58016 83358;","Q01+000002SCOTLCQ02  00002PRCP06"
"76458099999","2003-11-13T12:00:00","4","23.2","-106.4166666","4.0","COLONIA JUAN CARRASCO MAZATLAN SIN., MX","FM-12","99999","V020","130,1,N,0010,1","22000,1,9,N","008000,1,N,1","+0242,1","+0222,1","10122,1","06,0000,9,1","24,0000,9,1",,,,,"03,1,+02400,9,03,9",,,"03,99,1,99,9,00,1,99999,9,03,1,00,1",,"01,9","999,+0210,9","999,M,+0330,1","120,N,+0220,1","99999,9,10117,1","2,1,005,1,+025,1",,,"SYN118AAXX  13121 76458 32958 31301 10242 20222 30117 40122 52005 80030 91139 333 10330 20220 30021 56090 58025 70000 83358;","Q01+000002SCOTLCQ02  00002PRCP06"
"76458099999","2003-11-13T15:00:00","4","23.2","-106.4166666","4.0","COLONIA JUAN CARRASCO MAZATLAN SIN., MX","FM-12","99999","V020","080,1,N,0020,1","22000,1,9,N","999999,9,N,1","+0252,1","+0243,1","10141,1","06,0000,9,1",,,,"4,1,03,1","4,1,03,1","00,1,+99999,9,99,9",,,"00,99,1,00,1,00,1,99999,9,00,1,00,1",,"01,9",,,,"99999,9,10136,1","2,1,019,1,+027,1","42,1",,"SYN088AAXX  13151 76458 31952 00802 10252 20243 30136 40141 52019 74344 91442 333 30/// 58027;","Q01+000432PRSWM1Q02  00002PRCP06"
"76458099999","2003-11-13T18:00:00","4","23.2","-106.4166666","4.0","COLONIA JUAN CARRASCO MAZATLAN SIN., MX","FM-12","99999","V020","150,1,N,0020,1","22000,1,9,N","012000,1,N,1","+0295,1","+0244,1","10141,1","06,0000,9,1",,,,,,"01,1,+00630,9,08,9",,,"01,99,1,01,1,01,1,01250,1,00,1,00,1",,"01,9",,"120,M,+0308,1","240,N,+0222,1","99999,9,10136,1","0,1,000,1,+029,1",,,"SYN112AAXX  13181 76458 32662 11502 10295 20244 30136 40141 50000 81100 91745 333 10308 20222 30/// 564// 58029 81821;","Q01  00002PRCP06"
"76458099999","2003-11-13T21:00:00","4","23.2","-106.4166666","4.0","COLONIA JUAN CARRASCO MAZATLAN SIN., MX","FM-12","99999","V020","240,1,N,0030,1","22000,1,9,N","018000,1,N,1","+0293,1","+0243,1","10122,1","06,0000,9,1",,,,,,"01,1,+00630,9,08,9",,,"01,99,1,01,1,02,1,00800,1,00,1,00,1",,"01,9",,,,"99999,9,10117,1","7,1,019,1,+024,1",,,"SYN106AAXX  13211 76458 32568 12403 10293 20243 30117 40122 57019 81200 92050 333 04100 30/// 57817 58024 81821;","Q01  00002PRCP06"
"76458099999","2003-11-14T03:00:00","4","23.2","-106.4166666","4.0","COLONIA JUAN CARRASCO MAZATLAN SIN., MX","FM-12","99999","V020","360,1,N,0020,1","22000,1,9,N","008000,1,N,1","+0268,1","+0238,1","10120,1","06,0000,9,1",,,,,,"00,1,+99999,9,99,9",,,"00,99,1,00,1,00,1,99999,9,00,1,00,1",,"01,9",,,,"99999,9,10115,1","2,1,007,1,+010,1",,,"SYN082AAXX  14031 76458 32958 03602 10268 20238 30115 40120 52007 90240 333 30/// 58010;","Q01  00002PRCP06"
"76458099999","2003-11-14T06:00:00","4","23.2","-106.4166666","4.0","COLONIA JUAN CARRASCO MAZATLAN SIN., MX","FM-12","99999","V020","350,1,N,0010,1","22000,1,9,N","008000,1,N,1","+0254,1","+0232,1","10128,1","06,0000,9,1",,,,,,"00,1,+99999,9,99,9",,,"00,99,1,00,1,00,1,99999,9,00,1,00,1","0492,9","01,9",,"240,M,+0320,1","240,N,+0222,1","99999,9,10124,1","2,1,009,1,+999,9",,,"SYN106AAXX  14061 76458 32958 03501 10254 20232 30124 40128 52009 90535 333 10320 20222 30/// 55082 21184 58010;","Q01  00002PRCP06"
"76458099999","2003-11-14T09:00:00","4","23.2","-106.4166666","4.0","COLONIA JUAN CARRASCO MAZATLAN SIN., MX","FM-12","99999","V020","999,9,C,0000,1","22000,1,9,N","008000,1,N,1","+0242,1","+0228,1","10118,1","06,0000,9,1",,,,,,"00,1,+99999,9,99,9",,,"00,99,1,00,1,00,1,99999,9,00,1,00,1",,"01,9",,,,"99999,9,10113,1","7,1,011,1,+001,1",,,"SYN082AAXX  14091 76458 32958 00000 10242 20228 30113 40118 57011 90840 333 30/// 58001;","Q01  00002PRCP06"
"76458099999","2003-11-14T12:00:00","4","23.2","-106.4166666","4.0","COLONIA JUAN CARRASCO MAZATLAN SIN., MX","FM-12","99999","V020","090,1,N,0020,1","22000,1,9,N","008000,1,N,1","+0240,1","+0226,1","10129,1","06,0000,9,1",,,,,,"00,1,+99999,9,99,9",,,"00,99,1,00,1,00,1,99999,9,00,1,00,1",,"01,9","999,+0210,9","120,N,+0220,1",,"99999,9,10125,1","2,1,012,1,+999,9",,,"SYN093AAXX  14121 76458 32958 00902 10240 20226 30125 40129 52012 91130 333 1320 20220 30021 58008;","Q01  00002PRCP06"
"76458099999","2003-11-14T15:00:00","4","23.2","-106.4166666","4.0","COLONIA JUAN CARRASCO MAZATLAN SIN., MX","FM-12","99999","V020","120,1,N,0010,1","22000,1,9,N","003000,1,N,1","+0262,1","+0243,1","10146,1","06,0000,9,1",,,,"4,1,03,1","0,1,03,1","00,1,+99999,9,99,9",,,"00,99,1,00,1,00,1,99999,9,00,1,00,1",,"01,9",,,,"99999,9,10141,1","2,1,011,1,+004,1","44,1",,"SYN088AAXX  14151 76458 31930 01201 10262 20243 30141 40146 52011 74440 91450 333 30/// 58004;","Q01  00002PRCP06"
"76458099999","2003-11-14T21:00:00","4","23.2","-106.4166666","4.0","COLONIA JUAN CARRASCO MAZATLAN SIN., MX","FM-12","99999","V020","260,1,N,0040,1","22000,1,9,N","015000,1,N,1","+0296,1","+0246,1","10124,1","06,0000,9,1",,,,,,"01,1,+00630,9,08,9",,,"01,99,1,01,1,01,1,00800,1,00,1,00,1",,"01,9",,,,"99999,9,10120,1","7,1,016,1,+003,1",,,"SYN100AAXX  14211 76458 32565 12604 10296 20246 30120 40124 57016 81100 92048 333 30/// 561// 58003 81821;","Q01  00002PRCP06"
"76458099999","2003-11-15T00:00:00","4","23.2","-106.4166666","4.0","COLONIA JUAN CARRASCO MAZATLAN SIN., MX","FM-12","99999","V020","300,1,N,0030,1","22000,1,9,N","015000,1,N,1","+0276,1","+0231,1","10123,1","06,0000,9,1","24,0000,9,1",,,,,,,,"04,99,1,00,1,00,1,99999,9,00,1,08,1",,"01,9",,"120,M,+0325,1","180,N,+0224,1","99999,9,10119,1","7,1,001,1,+011,1",,,"SYN124AAXX  15001 76458 32965 43003 10276 20231 30119 40123 57001 80008 92345 333 10325 20224 30/// 50231 56//9 58011 70000 84268;","Q01  00002PRCP06"
"76458099999","2003-11-15T03:00:00","4","23.2","-106.4166666","4.0","COLONIA JUAN CARRASCO MAZATLAN SIN., MX","FM-12","99999","V020","330,1,N,0020,1","22000,1,9,N","008000,1,N,1","+0272,1","+0222,1","10132,1","06,0000,9,1",,,,,,"00,1,+99999,9,99,9",,,"00,99,1,00,1,00,1,99999,9,00,1,00,1",,"01,9",,,,"99999,9,10128,1","2,1,009,1,+013,1",,,"SYN082AAXX  15031 76458 32958 03302 10272 20222 30128 40132 52009 90240 333 30/// 58013;","Q01  00002PRCP06"
"76458099999","2003-11-15T06:00:00","4","23.2","-106.4166666","4.0","COLONIA JUAN CARRASCO MAZATLAN SIN., MX","FM-12","99999","V020","330,1,N,0010,1","22000,1,9,N","008000,1,N,1","+0256,1","+0225,1","10140,1","06,0000,9,1",,,,,,"00,1,+99999,9,99,9",,,"00,99,1,00,1,00,1,99999,9,00,1,00,1","1062,9","01,9",,"240,M,+0325,1","240,N,+0224,1","99999,9,10136,1","2,1,008,1,+999,9",,,"SYN106AAXX  15061 76458 32958 03301 10256 20225 30136 40140 52008 90535 333 10325 20224 30/// 55177 20952 58012;","Q01  00002PRCP06"
"76458099999","2003-11-15T15:00:00","4","23.2","-106.4166666","4.0","COLONIA JUAN CARRASCO MAZATLAN SIN., MX","FM-12","99999","V020","030,1,N,0010,1","22000,1,9,N","003000,1,N,1","+0270,1","+0244,1","10134,1","06,0000,9,1",,,,"4,1,03,1","1,1,03,1","00,1,+99999,9,99,9",,,"00,99,1,00,1,00,1,99999,9,00,1,00,1",,"01,9",,,,"99999,9,10129,1","2,1,012,1,-012,1","44,1",,"SYN088AAXX  15151 76458 31930 00301 10270 20244 30129 40134 52012 74441 91455 333 30/// 59012;","Q01  00002PRCP06"
"76458099999","2003-11-15T18:00:00","4","23.2","-106.4166666","4.0","COLONIA JUAN CARRASCO MAZATLAN SIN., MX","FM-12","99999","V020","270,1,N,0030,1","22000,1,9,N","005000,1,N,1","+0282,1","+0235,1","10135,1","06,0000,9,1",,,,"4,1,06,1","1,1,06,1",,,,"04,99,1,04,1,00,1,99999,9,03,1,00,1",,,,,,"99999,9,10130,1","0,1,001,1,+999,9","10,1",,"SYN072AAXX  15181 76458 31950 42703 10282 20235 30130 40135 50001 71041 84030;","Q01  00002PRCP06"
"76458099999","2003-11-15T21:00:00","4","23.2","-106.4166666","4.0","COLONIA JUAN CARRASCO MAZATLAN SIN., MX","FM-12","99999","V020","280,1,N,0020,1","03600,1,9,N","012000,1,N,1","+0283,1","+0233,1","10119,1","06,0000,9,1",,,,,,"05,1,+03600,9,03,9",,,"08,99,1,99,9,00,1,02250,1,03,1,00,1",,"01,9",,,,"99999,9,10114,1","7,1,016,1,-006,1",,,"SYN106AAXX  15211 76458 32862 82802 10283 20233 30114 40119 57016 85030 92047 333 30/// 56/9/ 59006 85362 83462;","Q01+000052SCOTLCQ02  00002PRCP06"
"76458099999","2003-11-16T00:00:00","4","23.2","-106.4166666","4.0","COLONIA JUAN CARRASCO MAZATLAN SIN., MX","FM-12","99999","V020","290,1,N,0030,1","99999,9,9,N","015000,1,N,1","+0279,1","+0231,1","10112,1","06,0000,9,1","24,0000,9,1",,,,,,,,"08,99,1,99,9,00,1,02250,1,03,1,00,1",,"01,9",,"120,M,+0309,1","180,N,+0225,1","99999,9,10107,1","5,1,007,1,-012,1",,,"SYN124AAXX  16001 76458 32865 82903 10279 20231 30107 40112 55007 83030 92348 333 10309 20225 30/// 50161 56/9/ 59012 70000 83364;","Q01+000032SCOTLCQ02  00002PRCP06"
"76458099999","2003-11-16T03:00:00","4","23.2","-106.4166666","4.0","COLONIA JUAN CARRASCO MAZATLAN SIN., MX","FM-12","99999","V020","360,1,N,0030,1","22000,1,9,N","008000,1,N,1","+0266,1","+0227,1","10124,1","06,0000,9,1",,,,,,"03,1,+06000,9,00,9",,,"03,99,1,00,1,99,9,99999,9,99,9,06,1",,"01,9",,,,"99999,9,10120,1","2,1,013,1,+008,1",,,"SYN094AAXX  16031 76458 32958 33603 10266 20227 30120 40124 52013 80//6 90240 333 30/// 58008 83070;","Q01  00002PRCP06"
"76458099999","2003-11-16T12:00:00","4","23.2","-106.4166666","4.0","COLONIA JUAN CARRASCO MAZATLAN SIN., MX","FM-12","99999","V020","350,1,N,0010,1","99999,9,9,N","010000,1,N,1","+0226,1","+0206,1","10124,1","06,0000,9,1","24,0000,9,1",,,,,,,,"06,99,1,06,1,00,1,99999,9,03,1,00,1",,"01,9",,"999,M,+0309,1","120,N,+0208,1","99999,9,10120,1","4,1,000,1,+003,1",,,"SYN124AAXX  16121 76458 32960 63501 10226 20206 30120 40124 54000 86030 91145 333 0/050 10309 20208 30/// 30019 58003 70000 86358;","Q01  00002PRCP06"
"76458099999","2003-11-16T15:00:00","4","23.2","-106.4166666","4.0","COLONIA JUAN CARRASCO MAZATLAN SIN., MX","FM-12","99999","V020","999,9,C,0010,1","99999,9,9,N","014000,1,N,1","+0230,1","+0207,1","10139,1","06,0000,9,1",,,,"4,1,03,1","2,1,03,1","02,1,+99999,9,03,9",,,"07,99,1,07,1,00,1,99999,9,07,1,00,1",,"01,9",,,,"99999,9,10134,1","2,1,014,1,+005,1","05,1",,"SYN112AAXX  16151 76458 31964 70001 10230 20207 30134 40139 52014 70542 87070 91448 333 0/090 30/// 58005 82351 85460;","Q01  00002PRCP06"
"76458099999","2003-11-16T18:00:00","4","23.2","-106.4166666","4.0","COLONIA JUAN CARRASCO MAZATLAN SIN., MX","FM-12","99999","V020","150,1,N,0010,1","99999,9,9,N","012000,1,N,1","+0286,1","+0237,1","10139,1","06,0000,9,1",,,,"4,1,06,1","4,1,06,1",,,,"07,99,1,05,1,00,1,99999,9,03,1,02,1",,,,,,"99999,9,10134,1","0,1,000,1,+999,9","05,1",,"SYN072AAXX  16181 76458 31962 71501 10286 20237 30134 40139 50000 70544 85032;","Q01  00002PRCP06"
"76458099999","2003-11-16T21:00:00","4","23.2","-106.4166666","4.0","COLONIA JUAN CARRASCO MAZATLAN SIN., MX","FM-12","99999","V020","240,1,N,0020,1","05400,1,9,N","012000,1,N,1","+0282,1","+0229,1","10123,1","06,0000,9,1",,,,,,"08,1,+05400,9,02,9",,,"08,99,1,00,1,00,1,99999,9,00,1,08,1",,"01,9",,,,"99999,9,10119,1","7,1,015,1,+005,1",,,"SYN100AAXX  16211 76458 32962 82402 10282 20229 30119 40123 57015 80008 92045 333 30/// 56//9 58005 88268;","Q01  00002PRCP06"
"76458099999","2003-11-17T00:00:00","4","23.2","-106.4166666","4.0","COLONIA JUAN CARRASCO MAZATLAN SIN., MX","FM-12","99999","V020","280,1,N,0010,1","02100,1,9,N","018000,1,N,1","+0279,1","+0164,1","10117,1","06,0000,9,1","24,0000,9,1",,,,,,,,"08,99,1,08,1,00,1,02250,1,02,1,00,1",,"01,9",,"120,M,+0302,1","180,N,+0206,1","99999,9,10112,1","5,1,007,1,+005,1",,,"SYN124AAXX  17001 76458 32868 82801 10279 20164 30112 40117 55007 88020 92345 333 10302 20206 30/// 50271 56/9/ 58005 70000 88462;","Q01  00002PRCP06"
"76458099999","2003-11-17T03:00:00","4","23.2","-106.4166666","4.0","COLONIA JUAN CARRASCO MAZATLAN SIN., MX","FM-12","99999","V020","320,1,N,0020,1","99999,9,9,N","008000,1,N,1","+0264,1","+0143,1","10127,1","06,0000,9,1",,,,,,"04,1,+01380,9,04,9",,,"07,99,1,04,1,99,9,02250,1,02,1,02,1",,"01,9",,,,"99999,9,10122,1","2,1,010,1,+002,1",,,"SYN100AAXX  17031 76458 32858 73202 10264 20143 30122 40127 52010 84/22 90240 333 30/// 58002 84446 83070;","Q01  00002PRCP06"
"76458099999","2003-11-17T06:00:00","4","23.2","-106.4166666","4.0","COLONIA JUAN CARRASCO MAZATLAN SIN., MX","FM-12","99999","V020","330,1,N,0010,1","22000,1,9,N","008000,1,N,1","+0236,1","+0145,1","10136,1","06,0000,9,1",,,,,,"00,1,+99999,9,99,9",,,"00,99,1,00,1,00,1,99999,9,00,1,00,1","0210,9","01,9",,"240,M,+0302,1","240,N,+0206,1","99999,9,10132,1","2,1,010,1,+999,9",,,"SYN106AAXX  17061 76458 32958 03301 10236 20145 30132 40136 52010 90535 333 10302 20206 30/// 55035 20874 58008;","Q01  00002PRCP06"
"76458099999","2003-11-17T12:00:00","4","23.2","-106.4166666","4.0","COLONIA JUAN CARRASCO MAZATLAN SIN., MX","FM-12","99999","V020","020,1,N,0010,1","02400,1,9,N","008000,1,N,1","+0230,1","+0163,1","10117,1","06,0000,9,1","24,0000,9,1",,,,,"07,1,+02400,9,03,9",,,"07,99,1,07,1,00,1,99999,9,03,1,00,1",,"01,9","999,+0200,9","999,M,+0302,1","120,N,+0210,1","99999,9,10112,1","7,1,007,1,+008,1",,,"SYN118AAXX  17121 76458 32958 70201 10230 20163 30112 40117 57007 87030 91135 333 10302 20210 30020 56090 58008 70000 87358;","Q01  00002PRCP06"
"76458099999","2003-11-17T15:00:00","4","23.2","-106.4166666","4.0","COLONIA JUAN CARRASCO MAZATLAN SIN., MX","FM-12","99999","V020","300,1,N,0010,1","02400,1,9,N","012000,1,N,1","+0231,1","+0188,1","10126,1","06,0000,9,1",,,,,,"05,1,+02400,9,03,9",,,"07,99,1,05,1,00,1,99999,9,03,1,06,1",,"01,9",,,,"99999,9,10122,1","1,1,010,1,-012,1",,,"SYN106AAXX  17151 76458 32962 73001 10231 20188 30122 40126 51010 85036 91450 333 0//00 30/// 59012 85358 82270;","Q01  00002PRCP06"
"76458099999","2003-11-17T18:00:00","4","23.2","-106.4166666","4.0","COLONIA JUAN CARRASCO MAZATLAN SIN., MX","FM-12","99999","V020","120,1,N,0010,1","99999,9,9,N","015000,1,N,1","+0278,1","+0207,1","10136,1","06,0000,9,1",,,,,,"04,1,+02400,9,03,9",,,"06,99,1,04,1,00,1,99999,9,08,1,08,1",,"01,9",,"120,M,+0290,1","240,N,+0206,1","99999,9,10131,1","1,1,009,1,-003,1",,,"SYN118AAXX  17181 76458 32965 61201 10278 20207 30131 40136 51009 84088 91750 333 0//00 10290 20206 30/// 59003 84358 82270;","Q01  00002PRCP06"
"76458099999","2003-11-17T21:00:00","4","23.2","-106.4166666","4.0","COLONIA JUAN CARRASCO MAZATLAN SIN., MX","FM-12","99999","V020","280,1,N,0030,1","03600,1,9,N","020000,1,N,1","+0275,1","+0207,1","10124,1","06,0000,9,1",,,,,,"01,1,+00840,9,08,9",,,"07,99,1,01,1,02,1,02250,1,05,1,00,1",,"01,9",,,,"99999,9,10119,1","7,1,012,1,+001,1",,,"SYN112AAXX  17211 76458 32870 72803 10275 20207 30119 40124 57012 81250 92050 333 04160 30/// 57818 58001 81828 86355;","Q01  00002PRCP06"
"76458099999","2003-11-18T00:00:00","4","23.2","-106.4166666","4.0","COLONIA JUAN CARRASCO MAZATLAN SIN., MX","FM-12","99999","V020","320,1,N,0040,1","03600,1,9,N","020000,1,N,1","+0263,1","+0189,1","10124,1","06,0000,9,1","24,9999,9,9",,,,,"01,1,+00930,9,08,9",,,"06,99,1,01,1,02,1,00800,1,03,1,01,1",,"01,9",,"120,M,+0300,1","180,N,+0206,1","99999,9,10120,1","4,1,000,1,+007,1",,,"SYN136AAXX  18001 76458 32570 63204 10263 20189 30120 40124 54000 81231 92356 333 04169 10300 20206 30/// 50361 57816 58007 79999 81831 84358;","Q01  00002PRCP06Q02  99992PRCP24"
"76458099999","2003-11-18T03:00:00","4","23.2","-106.4166666","4.0","COLONIA JUAN CARRASCO MAZATLAN SIN., MX","FM-12","99999","V020","360,1,N,0030,1","22000,1,9,N","008000,1,N,1","+0238,1","+0188,1","10135,1","06,0000,9,1",,,,,,"00,1,+99999,9,99,9",,,"00,99,1,00,1,00,1,99999,9,00,1,00,1",,"01,9",,,,"99999,9,10131,1","2,1,011,1,+009,1",,,"SYN082AAXX  18031 76458 32958 03603 10238 20188 30131 40135 52011 90240 333 30/// 58009;","Q01  00002PRCP06"
"76458099999","2003-11-18T06:00:00","4","23.2","-106.4166666","4.0","COLONIA JUAN CARRASCO MAZATLAN SIN., MX","FM-12","99999","V020","330,1,N,0020,1","22000,1,9,N","008000,1,N,1","+0220,1","+0181,1","10144,1","06,0000,9,1",,,,,,"00,1,+99999,9,99,9",,,"00,99,1,00,1,00,1,99999,9,00,1,00,1","0192,9","01,9",,"240,M,+0300,1","240,N,+0206,1","99999,9,10139,1","2,1,008,1,+999,9",,,"SYN106AAXX  18061 76458 32958 03302 10220 20181 30139 40144 52008 90535 333 10300 20206 30/// 55032 20882 58007;","Q01  00002PRCP06"
"76458099999","2003-11-18T09:00:00","4","23.2","-106.4166666","4.0","COLONIA JUAN CARRASCO MAZATLAN SIN., MX","FM-12","99999","V020","350,1,N,0020,1","22000,1,9,N","008000,1,N,1","+0208,1","+0165,1","10134,1","06,0000,9,1",,,,,,"00,1,+99999,9,99,9",,,"00,99,1,00,1,00,1,99999,9,00,1,00,1",,"01,9",,,,"99999,9,10130,1","7,1,009,1,-011,1",,,"SYN082AAXX  18091 76458 32958 03502 10208 20165 30130 40134 57009 90843 333 30/// 59011;","Q01  00002PRCP06"
"76458099999","2003-11-18T12:00:00","4","23.2","-106.4166666","4.0","COLONIA JUAN CARRASCO MAZATLAN SIN., MX","FM-12","99999","V020","340,1,N,0010,1","22000,1,9,N","008000,1,N,1","+0200,1","+0170,1","10124,1","06,0000,9,1",,,,,,"00,1,+99999,9,99,9",,,"00,99,1,00,1,00,1,99999,9,00,1,00,1",,"01,9","999,+0180,9","999,M,+0300,1","120,N,+0190,1","99999,9,10119,1","7,1,011,1,+007,1",,,"SYN094AAXX  18121 76458 32958 03401 10200 20170 30119 40124 57011 91135 333 10300 20190 30018 58007;","Q01  00002PRCP06"
"76458099999","2003-11-18T15:00:00","4","23.2","-106.4166666","4.0","COLONIA JUAN CARRASCO MAZATLAN SIN., MX","FM-12","99999","V020","350,1,N,0010,1","06000,1,9,N","015000,1,N,1","+0217,1","+0175,1","10139,1","06,0000,9,1",,,,,,"06,1,+06000,9,00,9",,,"06,99,1,00,1,00,1,99999,9,00,1,01,1",,"01,9",,,,"99999,9,10134,1","2,1,015,1,+013,1",,,"SYN100AAXX  18151 76458 32965 63501 10217 20175 30134 40139 52015 80001 91448 333 30/// 56//9 58013 86070;","Q01  00002PRCP06"
"76458099999","2003-11-18T18:00:00","4","23.2","-106.4166666","4.0","COLONIA JUAN CARRASCO MAZATLAN SIN., MX","FM-12","99999","V020","250,1,N,0020,1","22000,1,9,N","015000,1,N,1","+0274,1","+0180,1","10136,1","06,0000,9,1",,,,,,"03,1,+05400,9,02,9",,,"03,99,1,00,1,00,1,99999,9,00,1,08,1",,"01,9",,"120,M,+0294,1","240,N,+0180,1","99999,9,10132,1","8,1,002,1,+001,1",,,"SYN112AAXX  18181 76458 32965 32502 10274 20180 30132 40136 58002 80008 91755 333 10294 20180 30/// 56//9 58001 83268;","Q01  00002PRCP06"
"76458099999","2003-11-18T21:00:00","4","23.2","-106.4166666","4.0","COLONIA JUAN CARRASCO MAZATLAN SIN., MX","FM-12","99999","V020","270,1,N,0030,1","08700,1,9,N","020000,1,N,1","+0270,1","+0195,1","10117,1","06,0000,9,1",,,,,,"07,1,+08700,9,00,9",,,"07,99,1,00,1,00,1,99999,9,00,1,04,1",,"01,9",,,,"99999,9,10112,1","7,1,020,1,-007,1",,,"SYN100AAXX  18211 76458 32970 72703 10270 20195 30112 40117 57020 80004 92050 333 0/009 30/// 59007 87079;","Q01  00002PRCP06"
"76458099999","2003-11-19T00:00:00","4","23.2","-106.4166666","4.0","COLONIA JUAN CARRASCO MAZATLAN SIN., MX","FM-12","99999","V020","300,1,N,0030,1","99999,9,9,N","020000,1,N,1","+0258,1","+0196,1","10116,1","06,0000,9,1","24,0000,9,1",,,,,"04,1,+03300,9,04,9",,,"07,99,1,04,1,00,1,99999,9,02,1,04,1",,"01,9",,"120,M,+0295,1","180,N,+0180,1","99999,9,10112,1","5,1,000,1,-008,1",,,"SYN130AAXX  19001 76458 32970 73003 10258 20196 30112 40116 55000 84024 92350 333 0/099 10295 20180 30/// 50341 59008 70000 84461 83079;","Q01  00002PRCP06"
"76458099999","2003-11-19T03:00:00","4","23.2","-106.4166666","4.0","COLONIA JUAN CARRASCO MAZATLAN SIN., MX","FM-12","99999","V020","290,1,N,0020,1","22000,1,9,N","008000,1,N,1","+0242,1","+0186,1","10126,1","06,0000,9,1",,,,,,,,,"03,99,1,00,1,00,1,99999,9,00,1,06,1","0480,9","01,9",,,,"99999,9,10122,1","2,1,010,1,-008,1",,,"SYN106AAXX  19031 76458 32958 32902 10242 20186 30122 40126 52010 80006 90255 333 30/// 55080 56009 59008 83072;","Q01  00002PRCP06"
"76458099999","2003-11-19T06:00:00","4","23.2","-106.4166666","4.0","COLONIA JUAN CARRASCO MAZATLAN SIN., MX","FM-12","99999","V020","350,1,N,0010,1","22000,1,9,N","008000,1,N,1","+0228,1","+0171,1","10130,1","06,0000,9,1",,,,,,"00,1,+99999,9,99,9",,,"00,99,1,00,1,00,1,99999,9,00,1,00,1","0480,9","01,9",,"240,M,+0295,1","240,N,+0180,1","99999,9,10125,1","7,1,003,1,+999,9",,,"SYN106AAXX  19061 76458 32958 03501 10228 20171 30125 40130 57003 90535 333 10295 20180 30/// 55080 20828 59014;","Q01  00002PRCP06"
"76458099999","2003-11-19T15:00:00","4","23.2","-106.4166666","4.0","COLONIA JUAN CARRASCO MAZATLAN SIN., MX","FM-12","99999","V020","999,9,C,0000,1","09000,1,C,N","015000,1,N,1","+0239,1","+0163,1","10135,1","06,0000,9,1",,,,,,"01,1,+03600,9,03,9",,,"07,99,1,01,1,00,1,02250,1,03,1,08,1",,"01,9",,,,"99999,9,10130,1","2,1,006,1,-004,1",,,"SYN106AAXX  19151 76458 32865 70000 10239 20163 30130 40135 52006 81038 91447 333 30/// 56/99 59004 81362 86268;","Q01  00002PRCP06"
"76458099999","2003-11-19T18:00:00","4","23.2","-106.4166666","4.0","COLONIA JUAN CARRASCO MAZATLAN SIN., MX","FM-12","99999","V020","220,1,N,0030,1","04200,1,9,N","015000,1,N,1","+0284,1","+0170,1","10138,1","06,0000,9,1",,,,,,"06,1,+04200,9,03,9",,,"06,99,1,06,1,00,1,02250,1,03,1,00,1",,"01,9",,"120,M,+0310,1","240,N,+0194,1","99999,9,10134,1","0,1,004,1,+002,1",,,"SYN112AAXX  19181 76458 32865 62203 10284 20170 30134 40138 50004 86030 91745 333 10310 20194 30/// 56/9/ 58002 86364;","Q01  00002PRCP06"
"76458099999","2003-11-19T21:00:00","4","23.2","-106.4166666","4.0","COLONIA JUAN CARRASCO MAZATLAN SIN., MX","FM-12","99999","V020","280,1,N,0030,1","22000,1,9,N","020000,1,N,1","+0275,1","+0198,1","10121,1","06,0000,9,1",,,,,,"03,1,+02400,9,03,9",,,"04,99,1,03,1,00,1,99999,9,03,1,01,1",,"01,9",,,,"99999,9,10117,1","7,1,017,1,+004,1",,,"SYN106AAXX  19211 76458 32970 42803 10275 20198 30117 40121 57017 83031 92050 333 0/009 30/// 58004 83358 81079;","Q01  00002PRCP06"
"76458099999","2003-11-20T00:00:00","4","23.2","-106.4166666","4.0","COLONIA JUAN CARRASCO MAZATLAN SIN., MX","FM-12","99999","V020","300,1,N,0020,1","02400,1,9,N","020000,1,N,1","+0264,1","+0183,1","10119,1","06,0000,9,1","24,0000,9,1",,,,,"05,1,+02400,9,03,9",,,"06,99,1,05,1,00,1,99999,9,03,1,02,1",,"01,9",,"120,M,+0310,1","180,N,+0194,1","99999,9,10115,1","5,1,002,1,+003,1",,,"SYN130AAXX  20001 76458 32970 63002 10264 20183 30115 40119 55002 85032 92350 333 0/609 10310 20194 30/// 50231 58003 70000 85358 81079;","Q01  00002PRCP06"
"76458099999","2003-11-20T03:00:00","4","23.2","-106.4166666","4.0","COLONIA JUAN CARRASCO MAZATLAN SIN., MX","FM-12","99999","V020","350,1,N,0010,1","22000,1,9,N","008000,1,N,1","+0244,1","+0182,1","10135,1","06,0000,9,1",,,,,,"00,1,+99999,9,99,9",,,"00,99,1,00,1,00,1,99999,9,00,1,00,1",,"01,9",,,,"99999,9,10131,1","2,1,016,1,+009,1",,,"SYN082AAXX  20031 76458 32958 03501 10244 20182 30131 40135 52016 90240 333 30/// 58009;","Q01  00002PRCP06"
"76458099999","2003-11-20T06:00:00","4","23.2","-106.4166666","4.0","COLONIA JUAN CARRASCO MAZATLAN SIN., MX","FM-12","99999","V020","999,9,C,0000,1","22000,1,9,N","008000,1,N,1","+0224,1","+0163,1","10135,1","06,0000,9,1",,,,,,"00,1,+99999,9,99,9",,,"00,99,1,00,1,00,1,99999,9,00,1,00,1","0498,9","01,9",,"240,M,+0310,1","240,N,+0194,1","99999,9,10130,1","0,1,001,1,+999,9",,,"SYN106AAXX  20061 76458 32958 00000 10224 20163 30130 40135 50001 90535 333 10310 20194 30/// 55083 21191 58005;","Q01  00002PRCP06"
"76458099999","2003-11-20T15:00:00","4","23.2","-106.4166666","4.0","COLONIA JUAN CARRASCO MAZATLAN SIN., MX","FM-12","99999","V020","999,9,C,0000,1","22000,1,9,N","015000,1,N,1","+0223,1","+0180,1","10133,1","06,0000,9,1",,,,,,"00,1,+99999,9,99,9",,,"00,99,1,00,1,00,1,99999,9,00,1,00,1",,"01,9",,,,"99999,9,10128,1","2,1,014,1,-002,1",,,"SYN082AAXX  20151 76458 32965 00000 10223 20180 30128 40133 52014 91448 333 30/// 59002;","Q01  00002PRCP06"
"76458099999","2003-11-20T18:00:00","4","23.2","-106.4166666","4.0","COLONIA JUAN CARRASCO MAZATLAN SIN., MX","FM-12","99999","V020","270,1,N,0020,1","22000,1,9,N","018000,1,N,1","+0278,1","+0205,1","10134,1","06,0000,9,1",,,,,,"00,1,+99999,9,99,9",,,"00,99,1,00,1,00,1,99999,9,00,1,00,1",,"01,9",,"120,M,+0290,1",,"99999,9,10129,1","0,1,001,1,-005,1",,,"SYN088AAXX  20181 76458 32968 02702 10278 20205 30129 40134 50001 91745 333 10290 30/// 59005;","Q01  00002PRCP06"
"76458099999","2003-11-20T21:00:00","4","23.2","-106.4166666","4.0","COLONIA JUAN CARRASCO MAZATLAN SIN., MX","FM-12","99999","V020","270,1,N,0020,1","22000,1,9,N","020000,1,N,1","+0284,1","+0180,1","10111,1","06,0000,9,1",,,,,,"00,1,+99999,9,99,9",,,"00,99,1,00,1,00,1,99999,9,00,1,00,1",,"01,9",,,,"99999,9,10106,1","7,1,023,1,-010,1",,,"SYN082AAXX  20211 76458 32970 02702 10284 20180 30106 40111 57023 92050 333 30/// 59010;","Q01  00002PRCP06"
"76458099999","2003-11-21T00:00:00","4","23.2","-106.4166666","4.0","COLONIA JUAN CARRASCO MAZATLAN SIN., MX","FM-12","99999","V020","300,1,N,0020,1","22000,1,9,N","020000,1,N,1","+0271,1","+0198,1","10104,1","06,0000,9,1","24,0000,9,1",,,,,"00,1,+99999,9,99,9",,,"00,99,1,00,1,00,1,99999,9,00,1,00,1",,"01,9",,"120,M,+0301,1","180,N,+0183,1","99999,9,10100,1","6,1,006,1,-015,1",,,"SYN106AAXX  21001 76458 32970 03002 10271 20198 30100 40104 56006 92350 333 10301 20183 30/// 50361 59015 70000;","Q01  00002PRCP06Q02  00002PRCP24"
"76458099999","2003-11-21T03:00:00","4","23.2","-106.4166666","4.0","COLONIA JUAN CARRASCO MAZATLAN SIN., MX","FM-12","99999","V020","360,1,N,0020,1","22000,1,9,N","008000,1,N,1","+0248,1","+0214,1","10114,1","06,0000,9,1",,,,,,"00,1,+99999,9,99,9",,,"00,99,1,00,1,00,1,99999,9,00,1,00,1",,"01,9",,,,"99999,9,10109,1","2,1,009,1,-022,1",,,"SYN082AAXX  21031 76458 32958 03602 10248 20214 30109 40114 52009 90240 333 30/// 59022;","Q01  00002PRCP06"
"76458099999","2003-11-21T06:00:00","4","23.2","-106.4166666","4.0","COLONIA JUAN CARRASCO MAZATLAN SIN., MX","FM-12","99999","V020","350,1,N,0010,1","22000,1,9,N","008000,1,N,1","+0238,1","+0182,1","10119,1","06,0000,9,1",,,,,,"00,1,+99999,9,99,9",,,"00,99,1,00,1,00,1,99999,9,00,1,00,1","0558,9","01,9",,"240,M,+0301,1","240,N,+0183,1","99999,9,10115,1","2,1,006,1,+999,9",,,"SYN106AAXX  21061 76458 32958 03501 10238 20182 30115 40119 52006 90535 333 10301 20183 30/// 55093 21037 59015;","Q01  00002PRCP06"
"76458099999","2003-11-21T09:00:00","4","23.2","-106.4166666","4.0","COLONIA JUAN CARRASCO MAZATLAN SIN., MX","FM-12","99999","V020","999,9,C,0000,1","22000,1,9,N","008000,1,N,1","+0216,1","+0177,1","10109,1","06,0000,9,1",,,,,,"00,1,+99999,9,99,9",,,"00,99,1,00,1,00,1,99999,9,00,1,00,1",,"01,9",,,,"99999,9,10104,1","7,1,011,1,-014,1",,,"SYN082AAXX  21091 76458 32958 00000 10216 20177 30104 40109 57011 90838 333 30/// 59014;","Q01  00002PRCP06"
"76458099999","2003-11-21T12:00:00","4","23.2","-106.4166666","4.0","COLONIA JUAN CARRASCO MAZATLAN SIN., MX","FM-12","99999","V020","030,1,N,0010,1","22000,1,9,N","008000,1,N,1","+0201,1","+0170,1","10109,1","06,0000,9,1","24,0000,9,1",,,,,"00,1,+99999,9,99,9",,,"00,99,1,00,1,00,1,99999,9,00,1,00,1",,"01,9","999,+0180,9","999,M,+0301,1","120,N,+0190,1","99999,9,10108,1","2,1,004,1,-006,1",,,"SYN100AAXX  21121 76458 32958 00301 10201 20170 30108 40109 52004 91138 333 10301 20190 30018 59006 70000;","Q01  00002PRCP06Q02  00002PRCP24"
"76458099999","2003-11-21T15:00:00","4","23.2","-106.4166666","4.0","COLONIA JUAN CARRASCO MAZATLAN SIN., MX","FM-12","99999","V020","999,9,C,0000,1","22000,1,9,N","015000,1,N,1","+0230,1","+0189,1","10126,1","06,0000,9,1",,,,"0,1,03,1","0,1,03,1","00,1,+99999,9,99,9",,,"00,99,1,00,1,00,1,99999,9,00,1,00,1",,"01,9",,,,"99999,9,10121,1","2,1,013,1,-007,1","05,1",,"SYN088AAXX  21151 76458 31965 00000 10230 20189 30121 40126 52013 70500 91448 333 30/// 59007;","Q01  00002PRCP06"
"76458099999","2003-11-21T18:00:00","4","23.2","-106.4166666","4.0","COLONIA JUAN CARRASCO MAZATLAN SIN., MX","FM-12","99999","V020","240,1,N,0020,1","22000,1,9,N","015000,1,N,1","+0283,1","+0161,1","10134,1","06,0000,9,1",,,,,,"00,1,+99999,9,99,9",,,"00,99,1,00,1,00,1,99999,9,00,1,00,1",,"01,9",,"120,M,+0301,1","240,N,+0183,1","99999,9,10130,1","0,1,009,1,+001,1",,,"SYN094AAXX  21181 76458 32965 02402 10283 20161 30130 40134 50009 91747 333 10301 20183 30/// 58001;","Q01  00002PRCP06"
"76458099999","2003-11-21T21:00:00","4","23.2","-106.4166666","4.0","COLONIA JUAN CARRASCO MAZATLAN SIN., MX","FM-12","99999","V020","270,1,N,0020,1","22000,1,9,N","015000,1,N,1","+0272,1","+0213,1","10112,1","06,0000,9,1",,,,,,"00,1,+99999,9,99,9",,,"00,99,1,00,1,00,1,99999,9,00,1,00,1",,"01,9",,,,"99999,9,10108,1","7,1,022,1,+002,1",,,"SYN082AAXX  21211 76458 32965 02702 10272 20213 30108 40112 57022 92041 333 30/// 58002;","Q01  00002PRCP06"
"76458099999","2003-11-22T00:00:00","4","23.2","-106.4166666","4.0","COLONIA JUAN CARRASCO MAZATLAN SIN., MX","FM-12","99999","V020","280,1,N,0020,1","22000,1,9,N","018000,1,N,1","+0270,1","+0217,1","10096,1","06,0000,9,1","24,0000,9,1",,,,,"00,1,+99999,9,99,9",,,"00,99,1,00,1,00,1,99999,9,00,1,00,1",,"01,9",,"120,M,+0305,1","180,N,+0183,1","99999,9,10092,1","7,1,016,1,-008,1",,,"SYN106AAXX  22001 76458 32968 02802 10270 20217 30092 40096 57016 92340 333 10305 20183 30/// 50281 59008 70000;","Q01  00002PRCP06Q02  00002PRCP24"
"76458099999","2003-11-22T03:00:00","4","23.2","-106.4166666","4.0","COLONIA JUAN CARRASCO MAZATLAN SIN., MX","FM-12","99999","V020","330,1,N,0020,1","22000,1,9,N","008000,1,N,1","+0250,1","+0205,1","10114,1","06,0000,9,1",,,,,,"00,1,+99999,9,99,9",,,"00,99,1,00,1,00,1,99999,9,00,1,00,1",,"01,9",,,,"99999,9,10109,1","2,1,017,1,+000,1",,,"SYN082AAXX  22031 76458 32958 03302 10250 20205 30109 40114 52017 90240 333 30/// 58000;","Q01  00002PRCP06"
"76458099999","2003-11-22T06:00:00","4","23.2","-106.4166666","4.0","COLONIA JUAN CARRASCO MAZATLAN SIN., MX","FM-12","99999","V020","999,9,C,0000,1","22000,1,9,N","008000,1,N,1","+0234,1","+0203,1","10123,1","06,0000,9,1",,,,,,"00,1,+99999,9,99,9",,,"00,99,1,00,1,00,1,99999,9,00,1,00,1","0582,9","01,9",,"240,M,+0305,1","240,N,+0183,1","99999,9,10119,1","6,1,010,1,+999,9",,,"SYN106AAXX  22061 76458 32958 00000 10234 20203 30119 40123 56010 90535 333 10305 20183 30/// 55097 21083 58004;","Q01  00002PRCP06"
"76458099999","2003-11-22T15:00:00","4","23.2","-106.4166666","4.0","COLONIA JUAN CARRASCO MAZATLAN SIN., MX","FM-12","99999","V020","999,9,C,0000,1","22000,1,9,N","012000,1,N,1","+0223,1","+0187,1","10123,1","06,0000,9,1",,,,"0,1,03,1","0,1,03,1","00,1,+99999,9,99,9",,,"00,99,1,00,1,00,1,99999,9,00,1,00,1",,"01,9",,,,"99999,9,10119,1","2,1,009,1,-002,1","05,1",,"SYN088AAXX  22151 76458 31962 00000 10223 20187 30119 40123 52009 70500 91446 333 30/// 59002;","Q01  00002PRCP06"
"76458099999","2003-11-22T21:00:00","4","23.2","-106.4166666","4.0","COLONIA JUAN CARRASCO MAZATLAN SIN., MX","FM-12","99999","V020","270,1,N,0020,1","22000,1,9,N","018000,1,N,1","+0273,1","+0216,1","10104,1","06,0000,9,1",,,,,,"00,1,+99999,9,99,9",,,"00,99,1,00,1,00,1,99999,9,00,1,00,1",,"01,9",,,,"99999,9,10100,1","7,1,023,1,-008,1",,,"SYN082AAXX  22211 76458 32968 02702 10273 20216 30100 40104 57023 92050 333 30/// 59008;","Q01  00002PRCP06"
"76458099999","2003-11-23T00:00:00","4","23.2","-106.4166666","4.0","COLONIA JUAN CARRASCO MAZATLAN SIN., MX","FM-12","99999","V020","250,1,N,0020,1","22000,1,9,N","020000,1,N,1","+0262,1","+0199,1","10104,1","06,0000,9,1","24,0000,9,1",,,,,"00,1,+99999,9,99,9",,,"00,99,1,00,1,00,1,99999,9,00,1,00,1",,"01,9",,"120,M,+0295,1","180,N,+0178,1","99999,9,10100,1","4,1,000,1,+008,1",,,"SYN106AAXX  23001 76458 32970 02502 10262 20199 30100 40104 54000 92350 333 10295 20178 30/// 5//// 58008 70000;","Q01  00002PRCP06Q02  00002PRCP24"
"76458099999","2003-11-23T03:00:00","4","23.2","-106.4166666","4.0","COLONIA JUAN CARRASCO MAZATLAN SIN., MX","FM-12","99999","V020","220,1,N,0010,1","22000,1,9,N","008000,1,N,1","+0248,1","+0203,1","10114,1","06,0000,9,1",,,,,,"00,1,+99999,9,99,9",,,"00,99,1,00,1,00,1,99999,9,00,1,00,1",,"01,9",,,,"99999,9,10109,1","3,1,009,1,+000,1",,,"SYN082AAXX  23031 76458 32958 02201 10248 20203 30109 40114 53009 90240 333 30/// 58000;","Q01  00002PRCP06"
"76458099999","2003-11-23T15:00:00","4","23.2","-106.4166666","4.0","COLONIA JUAN CARRASCO MAZATLAN SIN., MX","FM-12","99999","V020","310,1,N,0010,1","00360,1,9,N","018000,1,N,1","+0241,1","+0211,1","10144,1","06,0000,9,1",,,,,,"07,1,+00360,9,06,9",,,"07,99,1,07,1,04,1,00450,1,00,1,00,1",,"01,9",,,,"99999,9,10140,1","2,1,020,1,+021,1",,,"SYN100AAXX  23151 76458 32468 73101 10241 20211 30140 40144 52020 87400 91447 333 30/// 566// 58021 87612;","Q01  00002PRCP06"
"76458099999","2003-11-23T18:00:00","4","23.2","-106.4166666","4.0","COLONIA JUAN CARRASCO MAZATLAN SIN., MX","FM-12","99999","V020","150,1,N,0030,1","22000,1,9,N","018000,1,N,1","+0282,1","+0193,1","10149,1","06,0000,9,1",,,,,,"01,1,+01110,9,08,9",,,"01,99,1,01,1,01,1,01250,1,00,1,00,1",,"01,9",,"120,M,+0295,1","240,N,+0200,1","99999,9,10144,1","0,1,004,1,+021,1",,,"SYN112AAXX  23181 76458 32668 11503 10282 20193 30144 40149 50004 81100 91748 333 10295 20200 30/// 562// 58021 81837;","Q01  00002PRCP06"
"76458099999","2003-11-23T21:00:00","4","23.2","-106.4166666","4.0","COLONIA JUAN CARRASCO MAZATLAN SIN., MX","FM-12","99999","V020","240,1,N,0030,1","22000,1,9,N","018000,1,N,1","+0280,1","+0207,1","10127,1","06,0000,9,1",,,,,,"01,1,+00900,9,08,9",,,"01,99,1,01,1,02,1,00800,1,99,9,99,9",,"01,9",,,,"99999,9,10122,1","7,1,022,1,+027,1",,,"SYN100AAXX  23211 76458 32568 12403 10280 20207 30122 40127 57022 812// 92040 333 30/// 561// 58027 81830;","Q01  00002PRCP06"
"76458099999","2003-11-24T00:00:00","4","23.2","-106.4166666","4.0","COLONIA JUAN CARRASCO MAZATLAN SIN., MX","FM-12","99999","V020","270,1,N,0020,1","22000,1,9,N","008000,1,N,1","+0270,1","+0198,1","10117,1","06,0000,9,1","24,0000,9,1",,,,,"01,1,+06000,9,00,9",,,"01,99,1,00,1,99,9,99999,9,99,9,06,1",,"01,9",,"120,M,+0300,1","180,N,+0200,1","99999,9,10113,1","7,1,009,1,+013,1",,,"SYN112AAXX  24001 76458 32958 12702 10270 20198 30113 40117 57009 80//6 92335 333 10300 20200 30/// 58013 70000 81070;","Q01  00002PRCP06"
"76458099999","2003-11-24T03:00:00","4","23.2","-106.4166666","4.0","COLONIA JUAN CARRASCO MAZATLAN SIN., MX","FM-12","99999","V020","330,1,N,0020,1","22000,1,9,N","016000,1,N,1","+0240,1","+0207,1","10123,1","06,0000,9,1",,,,,,"00,1,+99999,9,99,9",,,"00,99,1,00,1,00,1,99999,9,00,1,00,1",,"01,9",,,,"99999,9,10119,1","2,1,006,1,+009,1",,,"SYN082AAXX  24031 76458 32966 03302 10240 20207 30119 40123 52006 90250 333 30/// 58009;","Q01  00002PRCP06"
"76458099999","2003-11-24T06:00:00","4","23.2","-106.4166666","4.0","COLONIA JUAN CARRASCO MAZATLAN SIN., MX","FM-12","99999","V020","330,1,N,0020,1","22000,1,9,N","016000,1,N,1","+0229,1","+0196,1","10126,1","06,0000,9,1",,,,,,"00,1,+99999,9,99,9",,,"00,99,1,00,1,00,1,99999,9,00,1,00,1","0516,9","01,9",,"240,M,+0300,1","240,N,+0200,1","99999,9,10121,1","2,1,003,1,+999,9",,,"SYN106AAXX  24061 76458 32966 03302 10229 20196 30121 40126 52003 90535 333 10300 20200 30/// 55086 20712 59001;","Q01  00002PRCP06"
"76458099999","2003-11-24T12:00:00","4","23.2","-106.4166666","4.0","COLONIA JUAN CARRASCO MAZATLAN SIN., MX","FM-12","99999","V020","999,9,C,0000,1","22000,1,9,N","008000,1,N,1","+0204,1","+0183,1","10118,1","06,0000,9,1","24,0000,9,1",,,,,"00,1,+99999,9,99,9",,,"00,99,1,00,1,00,1,99999,9,00,1,00,1",,"01,9","999,+0180,9","999,M,+0300,1","120,N,+0190,1","99999,9,10114,1","4,1,000,1,+999,9",,,"SYN100AAXX  24121 76458 32958 00000 10204 20183 30114 40118 54000 91135 333 10300 20190 30018 58/// 70000;","Q01  00002PRCP06Q02  00002PRCP24"
"76458099999","2003-11-24T15:00:00","4","23.2","-106.4166666","4.0","COLONIA JUAN CARRASCO MAZATLAN SIN., MX","FM-12","99999","V020","999,9,C,0000,1","22000,1,9,N","018000,1,N,1","+0218,1","+0181,1","10133,1","06,0000,9,1",,,,,,"01,1,+00450,9,08,9",,,"01,99,1,01,1,02,1,00450,1,00,1,00,1",,"01,9",,,,"99999,9,10128,1","2,1,015,1,-011,1",,,"SYN100AAXX  24151 76458 32468 10000 10218 20181 30128 40133 52015 81200 91445 333 30/// 57859 59011 81815;","Q01  00002PRCP06"
"76458099999","2003-11-24T18:00:00","4","23.2","-106.4166666","4.0","COLONIA JUAN CARRASCO MAZATLAN SIN., MX","FM-12","99999","V020","270,1,N,0020,1","22000,1,9,N","014000,1,N,1","+0260,1","+0203,1","10137,1","06,0000,9,1",,,,,,"01,1,+00690,9,08,9",,,"01,99,1,01,1,02,1,99999,9,00,1,00,1",,"01,9",,"120,M,+0285,1","240,N,+0180,1","99999,9,10133,1","0,1,004,1,-012,1",,,"SYN118AAXX  24181 76458 32964 12702 10260 20203 30133 40137 50004 81200 91750 333 04100 10285 20180 30/// 57813 59012 81823;","Q01  00002PRCP06"
"76458099999","2003-11-24T21:00:00","4","23.2","-106.4166666","4.0","COLONIA JUAN CARRASCO MAZATLAN SIN., MX","FM-12","99999","V020","270,1,N,0020,1","22000,1,9,N","018000,1,N,1","+0266,1","+0214,1","10109,1","06,0000,9,1",,,,,,"01,1,+00660,9,08,9",,,"01,99,1,01,1,01,1,99999,9,00,1,00,1",,"01,9",,,,"99999,9,10105,1","7,1,028,1,-017,1",,,"SYN100AAXX  24211 76458 32968 12702 10266 20214 30105 40109 57028 81100 92050 333 30/// 56100 59017 81822;","Q01  00002PRCP06"
"76458099999","2003-11-25T00:00:00","4","23.2","-106.4166666","4.0","COLONIA JUAN CARRASCO MAZATLAN SIN., MX","FM-12","99999","V020","280,1,N,0030,1","22000,1,9,N","018000,1,N,1","+0260,1","+0203,1","10096,1","06,0000,9,1","24,0000,9,1",,,,,"00,1,+99999,9,99,9",,,"00,99,1,00,1,00,1,99999,9,00,1,00,1",,"01,9",,"120,M,+0288,1","180,N,+0180,1","99999,9,10092,1","7,1,013,1,-021,1",,,"SYN106AAXX  25001 76458 32968 02803 10260 20203 30092 40096 57013 92340 333 10288 20180 30/// 50171 59021 70000;","Q01  00002PRCP06Q02  00002PRCP24"
"76458099999","2003-11-25T03:00:00","4","23.2","-106.4166666","4.0","COLONIA JUAN CARRASCO MAZATLAN SIN., MX","FM-12","99999","V020","340,1,N,0020,1","22000,1,9,N","008000,1,N,1","+0236,1","+0195,1","10115,1","06,0000,9,1",,,,,,"00,1,+99999,9,99,9",,,"00,99,1,00,1,00,1,99999,9,00,1,00,1",,"01,9",,,,"99999,9,10111,1","2,1,019,1,-008,1",,,"SYN082AAXX  25031 76458 32958 03402 10236 20195 30111 40115 52019 90240 333 30/// 59008;","Q01  00002PRCP06"
"76458099999","2003-11-25T15:00:00","4","23.2","-106.4166666","4.0","COLONIA JUAN CARRASCO MAZATLAN SIN., MX","FM-12","99999","V020","999,9,C,0000,1","00420,1,9,N","015000,1,N,1","+0230,1","+0197,1","10135,1","06,0000,9,1",,,,,,"07,1,+00420,9,06,9",,,"07,99,1,07,1,04,1,00450,1,00,1,00,1",,"01,9",,,,"99999,9,10130,1","2,1,010,1,+002,1",,,"SYN100AAXX  25151 76458 32465 70000 10230 20197 30130 40135 52010 87400 91445 333 30/// 563// 58002 87614;","Q01  00002PRCP06"
"76458099999","2003-11-25T18:00:00","4","23.2","-106.4166666","4.0","COLONIA JUAN CARRASCO MAZATLAN SIN., MX","FM-12","99999","V020","200,1,N,0020,1","22000,1,C,N","015000,1,N,1","+0273,1","+0201,1","10139,1","06,0000,9,1",,,,,,"02,1,+00900,9,08,9",,,"05,99,1,02,1,01,1,00800,1,00,1,08,1",,"01,9",,"120,M,+0287,1","240,N,+0194,1","99999,9,10135,1","0,1,005,1,+002,1",,,"SYN118AAXX  25181 76458 32565 52002 10273 20201 30135 40139 50005 82108 91747 333 10287 20194 30/// 563/9 58002 82830 83268;","Q01  00002PRCP06"
"76458099999","2003-11-25T21:00:00","4","23.2","-106.4166666","4.0","COLONIA JUAN CARRASCO MAZATLAN SIN., MX","FM-12","99999","V020","240,1,N,0030,1","22000,1,C,N","018000,1,N,1","+0274,1","+0206,1","10121,1","06,0000,9,1",,,,,,"01,1,+00840,9,08,9",,,"06,99,1,01,1,01,1,00800,1,00,1,04,1",,"01,9",,,,"99999,9,10117,1","7,1,018,1,+012,1",,,"SYN106AAXX  25211 76458 32568 62403 10274 20206 30117 40121 57018 81104 92046 333 0/109 30/// 58012 81828 85079;","Q01  00002PRCP06"
"76458099999","2003-11-26T00:00:00","4","23.2","-106.4166666","4.0","COLONIA JUAN CARRASCO MAZATLAN SIN., MX","FM-12","99999","V020","250,1,N,0020,1","08700,1,9,N","020000,1,N,1","+0258,1","+0204,1","10112,1","06,0000,9,1","24,0000,9,1",,,,,"05,1,+08700,9,00,9",,,"05,99,1,00,1,00,1,99999,9,00,1,04,1",,"01,9",,"120,M,+0300,1","180,N,+0194,1","99999,9,10108,1","7,1,009,1,+016,1",,,"SYN124AAXX  26001 76458 32970 52502 10258 20204 30108 40112 57009 80004 92346 333 0/009 10300 20194 30/// 50321 58016 70000 85079;","Q01  00002PRCP06"
"76458099999","2003-11-26T03:00:00","4","23.2","-106.4166666","4.0","COLONIA JUAN CARRASCO MAZATLAN SIN., MX","FM-12","99999","V020","280,1,N,0010,1","22000,1,9,N","008000,1,N,1","+0240,1","+0199,1","10117,1","06,0000,9,1",,,,,,"00,1,+99999,9,99,9",,,"00,99,1,00,1,00,1,99999,9,00,1,00,1",,"01,9",,,,"99999,9,10112,1","2,1,005,1,+001,1",,,"SYN082AAXX  26031 76458 32958 02801 10240 20199 30112 40117 52005 90248 333 30/// 58001;","Q01  00002PRCP06"
"76458099999","2003-11-26T06:00:00","4","23.2","-106.4166666","4.0","COLONIA JUAN CARRASCO MAZATLAN SIN., MX","FM-12","99999","V020","340,1,N,0010,1","22000,1,9,N","008000,1,N,1","+0230,1","+0186,1","10123,1","06,0000,9,1",,,,,,"00,1,+99999,9,99,9",,,"00,99,1,00,1,00,1,99999,9,00,1,00,1","0420,9","01,9",,"240,M,+0300,1","240,N,+0194,1","99999,9,10119,1","2,1,007,1,+999,9",,,"SYN106AAXX  26061 76458 32958 03401 10230 20186 30119 40123 52007 90535 333 10300 20194 30/// 55070 29130 59001;","Q01  00002PRCP06"
"76458099999","2003-11-26T15:00:00","4","23.2","-106.4166666","4.0","COLONIA JUAN CARRASCO MAZATLAN SIN., MX","FM-12","99999","V020","360,1,N,0010,1","00450,1,9,N","015000,1,N,1","+0234,1","+0197,1","10141,1","06,0000,9,1",,,,,,"07,1,+00450,9,06,9",,,"07,99,1,07,1,04,1,00450,1,00,1,00,1",,"01,9",,,,"99999,9,10137,1","2,1,012,1,+007,1",,,"SYN100AAXX  26151 76458 32465 73601 10234 20197 30137 40141 52012 87400 91448 333 30/// 564// 58007 87615;","Q01  00002PRCP06"
"76458099999","2003-11-27T00:00:00","4","23.2","-106.4166666","4.0","COLONIA JUAN CARRASCO MAZATLAN SIN., MX","FM-12","99999","V020","300,1,N,0030,1","22000,1,9,N","020000,1,N,1","+0262,1","+0199,1","10118,1","06,0000,9,1","24,0000,9,1",,,,,"01,1,+08700,9,00,9",,,"01,99,1,00,1,00,1,99999,9,00,1,01,1",,"01,9",,"120,M,+0302,1","180,N,+0200,1","99999,9,10114,1","5,1,005,1,+006,1",,,"SYN124AAXX  27001 76458 32970 13003 10262 20199 30114 40118 55005 80001 92350 333 0/009 10302 20200 30/// 50331 58006 70000 81079;","Q01  00002PRCP06"
"76458099999","2003-11-27T03:00:00","4","23.2","-106.4166666","4.0","COLONIA JUAN CARRASCO MAZATLAN SIN., MX","FM-12","99999","V020","340,1,N,0020,1","22000,1,9,N","008000,1,N,1","+0242,1","+0198,1","10128,1","06,0000,9,1",,,,,,"00,1,+99999,9,99,9",,,"00,99,1,00,1,00,1,99999,9,00,1,00,1",,"01,9",,,,"99999,9,10124,1","2,1,011,1,+012,1",,,"SYN082AAXX  27031 76458 32958 03402 10242 20198 30124 40128 52011 90240 333 30/// 58012;","Q01  00002PRCP06"
"76458099999","2003-11-27T06:00:00","4","23.2","-106.4166666","4.0","COLONIA JUAN CARRASCO MAZATLAN SIN., MX","FM-12","99999","V020","350,1,N,0010,1","22000,1,9,N","008000,1,N,1","+0230,1","+0189,1","10139,1","06,0000,9,1",,,,,,"00,1,+99999,9,99,9",,,"00,99,1,00,1,00,1,99999,9,00,1,00,1","0432,9","01,9",,"240,M,+0302,1","240,N,+0200,1","99999,9,10135,1","2,1,011,1,+999,9",,,"SYN106AAXX  27061 76458 32958 03501 10230 20189 30135 40139 52011 90235 333 10302 20200 30/// 55072 21052 58016;","Q01  00002PRCP06"
"76458099999","2003-11-27T12:00:00","4","23.2","-106.4166666","4.0","COLONIA JUAN CARRASCO MAZATLAN SIN., MX","FM-12","99999","V020","340,1,N,0010,1","22000,1,9,N","008000,1,N,1","+0214,1","+0178,1","10132,1","06,0000,9,1","24,0000,9,1",,,,,"00,1,+99999,9,99,9",,,"00,99,1,00,1,00,1,99999,9,00,1,00,1",,"01,9","999,+0180,9","999,M,+0302,1","120,N,+0190,1","99999,9,10128,1","4,1,000,1,+999,9",,,"SYN100AAXX  27121 76458 32958 03401 10214 20178 30128 40132 54000 91135 333 10302 20190 30018 58/// 70000;","Q01  00002PRCP06Q02  00002PRCP24"
"76458099999","2003-11-27T15:00:00","4","23.2","-106.4166666","4.0","COLONIA JUAN CARRASCO MAZATLAN SIN., MX","FM-12","99999","V020","360,1,N,0020,1","00450,1,9,N","018000,1,N,1","+0224,1","+0189,1","10157,1","06,0000,9,1",,,,"0,1,03,1","0,1,03,1","07,1,+00450,9,06,9",,,"07,99,1,99,9,99,9,00450,1,99,9,99,9",,"01,9",,,,"99999,9,10153,1","2,1,025,1,+017,1","40,1",,"SYN100AAXX  27151 76458 32468 73602 10224 20189 30153 40157 52025 74000 91447 333 30/// 564// 58017 87615;","Q01  00002PRCP06"
"76458099999","2003-11-27T18:00:00","4","23.2","-106.4166666","4.0","COLONIA JUAN CARRASCO MAZATLAN SIN., MX","FM-12","99999","V020","270,1,N,0030,1","22000,1,9,N","018000,1,N,1","+0269,1","+0193,1","10165,1","06,0000,9,1",,,,,,"04,1,+04200,9,03,9",,,"04,99,1,04,1,00,1,02250,1,03,1,00,1",,"01,9",,"120,M,+0284,1","240,N,+0190,1","99999,9,10160,1","0,1,007,1,+021,1",,,"SYN112AAXX  27181 76458 32868 42703 10269 20193 30160 40165 50007 84030 91747 333 10284 20190 30/// 56/9/ 58021 84364;","Q01  00002PRCP06"
"76458099999","2003-11-27T21:00:00","4","23.2","-106.4166666","4.0","COLONIA JUAN CARRASCO MAZATLAN SIN., MX","FM-12","99999","V020","270,1,N,0020,1","99999,9,9,N","020000,1,N,1","+0270,1","+0209,1","10139,1","06,0000,9,1",,,,,,"04,1,+02700,9,03,9",,,"06,99,1,04,1,00,1,99999,9,03,1,09,1",,"01,9",,,,"99999,9,10135,1","7,1,025,1,+016,1",,,"SYN106AAXX  27211 76458 32970 62702 10270 20209 30135 40139 57025 84039 92050 333 0/099 30/// 58016 84359 82173;","Q01  00002PRCP06"
"76458099999","2003-11-28T00:00:00","4","23.2","-106.4166666","4.0","COLONIA JUAN CARRASCO MAZATLAN SIN., MX","FM-12","99999","V020","300,1,N,0030,1","22000,1,9,N","020000,1,N,1","+0258,1","+0199,1","10141,1","06,0000,9,1","24,0000,9,1",,,,,"02,1,+02400,9,03,9",,,"02,99,1,02,1,00,1,99999,9,03,1,00,1",,"01,9",,"120,M,+0295,1","180,N,+0190,1","99999,9,10137,1","4,1,000,1,+023,1",,,"SYN124AAXX  28001 76458 32970 23003 10258 20199 30137 40141 54002 82030 92350 333 0/090 10295 20190 30/// 50311 58023 70000 82358;","Q01  00002PRCP06"
"76458099999","2003-11-28T03:00:00","4","23.2","-106.4166666","4.0","COLONIA JUAN CARRASCO MAZATLAN SIN., MX","FM-12","99999","V020","340,1,N,0040,1","22000,1,9,N","008000,1,N,1","+0238,1","+0200,1","10151,1","06,0000,9,1",,,,,,"00,1,+99999,9,99,9",,,"00,99,1,00,1,00,1,99999,9,00,1,00,1",,"01,9",,,,"99999,9,10146,1","3,1,009,1,+022,1",,,"SYN082AAXX  28031 76458 32958 03404 10238 20200 30146 40151 53009 90240 333 30/// 58022;","Q01  00002PRCP06"
"76458099999","2003-11-28T12:00:00","4","23.2","-106.4166666","4.0","COLONIA JUAN CARRASCO MAZATLAN SIN., MX","FM-12","99999","V020","999,9,C,0000,1","22000,1,9,N","008000,1,N,1","+0196,1","+0178,1","10130,1","06,0000,9,1","24,0000,9,1",,,,,"00,1,+99999,9,99,9",,,"00,99,1,00,1,00,1,99999,9,00,1,00,1",,"01,9","999,+0170,9","999,M,+0295,1","120,N,+0180,1","99999,9,10126,1","7,1,007,1,-002,1",,,"SYN100AAXX  28121 76458 32958 00000 10196 20178 30126 40130 57007 91135 333 10295 20180 30017 59002 70000;","Q01  00002PRCP06Q02  00002PRCP24"
"76458099999","2003-11-28T15:00:00","4","23.2","-106.4166666","4.0","COLONIA JUAN CARRASCO MAZATLAN SIN., MX","FM-12","99999","V020","999,9,C,0000,1","22000,1,9,N","018000,1,N,1","+0209,1","+0184,1","99999,9","06,0000,9,1",,,,,,"00,1,+99999,9,99,9",,,"00,99,1,00,1,00,1,99999,9,00,1,00,1",,"01,9",,,,,,,,"SYN083AAXX  28151 76458 32968 00000 10209 20184 301 43 40147 52017 91445 333 30/// 58010;","Q01  00002PRCP06"
"76458099999","2003-11-28T18:00:00","4","23.2","-106.4166666","4.0","COLONIA JUAN CARRASCO MAZATLAN SIN., MX","FM-12","99999","V020","160,1,N,0020,1","22000,1,9,N","015000,1,N,1","+0273,1","+0207,1","10156,1","06,0000,9,1",,,,,,"00,1,+99999,9,99,9",,,"00,99,1,00,1,00,1,99999,9,00,1,00,1",,"01,9",,"120,M,+0292,1","240,N,+0174,1","99999,9,10151,1","0,1,008,1,-009,1",,,"SYN094AAXX  28181 76458 32965 01602 10273 20207 30151 40156 50008 91745 333 10292 20174 30/// 59009;","Q01  00002PRCP06"
"76458099999","2003-11-28T21:00:00","4","23.2","-106.4166666","4.0","COLONIA JUAN CARRASCO MAZATLAN SIN., MX","FM-12","99999","V020","250,1,N,0030,1","22000,1,9,N","020000,1,N,1","+0273,1","+0207,1","10134,1","06,0000,9,1",,,,,,"00,1,+99999,9,99,9",,,"00,99,1,00,1,00,1,99999,9,00,1,00,1",,"01,9",,,,"99999,9,10128,1","7,1,023,1,+007,1",,,"SYN082AAXX  28211 76458 32970 02503 10273 20207 30128 40134 57023 92045 333 30/// 58007;","Q01  00002PRCP06"
"76458099999","2003-11-29T00:00:00","4","23.2","-106.4166666","4.0","COLONIA JUAN CARRASCO MAZATLAN SIN., MX","FM-12","99999","V020","320,1,N,0030,1","22000,1,9,N","020000,1,N,1","+0270,1","+0198,1","10129,1","06,0000,9,1",,,,,,"00,1,+99999,9,99,9",,,"00,99,1,00,1,00,1,99999,9,00,1,00,1",,"01,9",,"120,M,+0304,1","180,N,+0174,1","99999,9,10124,1","7,1,003,1,+013,1",,,"SYN100AAXX  29001 76458 32970 03203 10270 20198 30124 40129 57003 92348 333 10304 20174 30/// 52581 58013;","Q01  00002PRCP06"
"76458099999","2003-11-29T03:00:00","4","23.2","-106.4166666","4.0","COLONIA JUAN CARRASCO MAZATLAN SIN., MX","FM-12","99999","V020","320,1,N,0020,1","22000,1,9,N","008000,1,N,1","+0246,1","+0194,1","10140,1","06,0000,9,1",,,,,,"00,1,+99999,9,99,9",,,"00,99,1,00,1,00,1,99999,9,00,1,00,1",,"01,9",,,,"99999,9,10136,1","2,1,012,1,-010,1",,,"SYN082AAXX  29031 76458 32958 03202 10246 20194 30136 40140 52012 90245 333 30/// 59010;","Q01  00002PRCP06"
"76458099999","2003-11-29T06:00:00","4","23.2","-106.4166666","4.0","COLONIA JUAN CARRASCO MAZATLAN SIN., MX","FM-12","99999","V020","340,1,N,0020,1","22000,1,9,N","008000,1,N,1","+0228,1","+0181,1","10143,1","06,0000,9,1",,,,,,"00,1,+99999,9,99,9",,,"00,99,1,00,1,00,1,99999,9,00,1,00,1","0516,9","01,9",,"240,M,+0304,1","240,N,+0174,1","99999,9,10139,1","1,1,003,1,+999,9",,,"SYN106AAXX  29061 76458 32958 03402 10228 20181 30139 40143 51003 90535 333 10304 20174 30/// 55086 2//// 59011;","Q01  00002PRCP06"
"76458099999","2003-11-29T15:00:00","4","23.2","-106.4166666","4.0","COLONIA JUAN CARRASCO MAZATLAN SIN., MX","FM-12","99999","V020","999,9,C,0000,1","22000,1,9,N","018000,1,N,1","+0228,1","+0150,1","10147,1","06,0000,9,1",,,,,,"00,1,+99999,9,99,9",,,"00,99,1,00,1,00,1,99999,9,00,1,00,1",,"01,9",,,,"99999,9,10143,1","2,1,013,1,+000,1",,,"SYN082AAXX  29151 76458 32968 00000 10228 20150 30143 40147 52013 91448 333 30/// 58000;","Q01  00002PRCP06"
"76458099999","2003-11-29T21:00:00","4","23.2","-106.4166666","4.0","COLONIA JUAN CARRASCO MAZATLAN SIN., MX","FM-12","99999","V020","270,1,N,0030,1","22000,1,9,N","018000,1,N,1","+0285,1","+0224,1","10130,1","06,0000,9,1",,,,,,"01,1,+00750,9,08,9",,,"01,99,1,01,1,01,1,00800,1,00,1,00,1",,"01,9",,,,"99999,9,10125,1","7,1,022,1,-002,1",,,"SYN100AAXX  29211 76458 32568 12703 10285 20224 30125 40130 57022 81100 92045 333 01100 30/// 59002 81825;","Q01  00002PRCP06"
"76458099999","2003-11-30T00:00:00","4","23.2","-106.4166666","4.0","COLONIA JUAN CARRASCO MAZATLAN SIN., MX","FM-12","99999","V020","270,1,N,0020,1","22000,1,9,N","020000,1,N,1","+0275,1","+0210,1","10126,1","06,0000,9,1","24,0000,9,1",,,,,"00,1,+99999,9,99,9",,,"00,99,1,00,1,00,1,99999,9,00,1,00,1",,"01,9",,"120,M,+0325,1","180,N,+0176,1","99999,9,10121,1","7,1,004,1,-003,1",,,"SYN106AAXX  30001 76458 32970 02702 10275 20210 30121 40126 57004 92358 333 10325 20176 30/// 50361 59003 70000;","Q01  00002PRCP06Q02  00002PRCP24"
"76458099999","2003-11-30T03:00:00","4","23.2","-106.4166666","4.0","COLONIA JUAN CARRASCO MAZATLAN SIN., MX","FM-12","99999","V020","330,1,N,0020,1","22000,1,9,N","008000,1,N,1","+0248,1","+0214,1","10140,1","06,0000,9,1",,,,,,"00,1,+99999,9,99,9",,,"00,99,1,00,1,00,1,99999,9,00,1,00,1",,"01,9",,,,"99999,9,10136,1","2,1,015,1,+000,1",,,"SYN082AAXX  30031 76458 32958 03302 10248 20214 30136 40140 52015 90245 333 30/// 58000;","Q01  00002PRCP06"
"76458099999","2003-11-30T15:00:00","4","23.2","-106.4166666","4.0","COLONIA JUAN CARRASCO MAZATLAN SIN., MX","FM-12","99999","V020","999,9,C,0000,1","22000,1,9,N","015000,1,N,1","+0217,1","+0162,1","10153,1","06,0000,9,1",,,,,,"00,1,+99999,9,99,9",,,"00,99,1,00,1,00,1,99999,9,00,1,00,1",,"01,9",,,,"99999,9,10149,1","2,1,009,1,+006,1",,,"SYN082AAXX  30151 76458 32965 00000 10217 20162 30149 40153 52009 91445 333 30/// 58006;","Q01  00002PRCP06"
"76458099999","2003-11-30T18:00:00","4","23.2","-106.4166666","4.0","COLONIA JUAN CARRASCO MAZATLAN SIN., MX","FM-12","99999","V020","230,1,N,0020,1","22000,1,9,N","018000,1,N,1","+0275,1","+0178,1","10158,1","06,0000,9,1",,,,,,"00,1,+99999,9,99,9",,,"00,99,1,00,1,00,1,99999,9,00,1,00,1",,"01,9",,"120,M,+0297,1","240,N,+0175,1","99999,9,10153,1","0,1,004,1,+006,1",,,"SYN094AAXX  30181 76458 32968 02302 10275 20178 30153 40158 50004 91748 333 10297 20175 30/// 58006;","Q01  00002PRCP06"
"76458099999","2003-11-30T21:00:00","4","23.2","-106.4166666","4.0","COLONIA JUAN CARRASCO MAZATLAN SIN., MX","FM-12","99999","V020","260,1,N,0040,1","22000,1,9,N","020000,1,N,1","+0286,1","+0189,1","10133,1","06,0000,9,1",,,,,,"00,1,+99999,9,99,9",,,"00,99,1,00,1,00,1,99999,9,00,1,00,1",,"01,9",,,,"99999,9,10129,1","7,1,024,1,-007,1",,,"SYN082AAXX  30211 76458 32970 02604 10286 20189 30129 40133 57024 92040 333 30/// 59007;","Q01  00002PRCP06"
"76458099999","2003-12-01T03:00:00","4","23.2","-106.4166666","4.0","COLONIA JUAN CARRASCO MAZATLAN SIN., MX","FM-12","99999","V020","320,1,N,0020,1","22000,1,9,N","016000,1,N,1","+0250,1","+0205,1","10143,1","06,0000,9,1",,,,,,"00,1,+99999,9,99,9",,,"00,99,1,00,1,00,1,99999,9,00,1,00,1",,"01,9",,,,"99999,9,10139,1","2,1,013,1,+003,1",,,"SYN082AAXX  01031 76458 32966 03202 10250 20205 30139 40143 52013 90248 333 30/// 58003;","Q01  00002PRCP06"
"76458099999","2003-12-01T12:00:00","4","23.2","-106.4166666","4.0","COLONIA JUAN CARRASCO MAZATLAN SIN., MX","FM-12","99999","V020","340,1,N,0010,1","22000,1,9,N","008000,1,N,1","+0198,1","+0154,1","10140,1","06,0000,9,1","24,0000,9,1",,,,,"00,1,+99999,9,99,9",,,"00,99,1,00,1,00,1,99999,9,00,1,00,1",,"01,9","999,+0170,9","999,M,+0305,1","120,N,+0180,1","99999,9,10136,1","7,1,003,1,+999,9",,,"SYN100AAXX  01121 76458 32958 03401 10198 20154 30136 40140 57003 91148 333 10305 20180 30017 58/// 70000;","Q01  00002PRCP06Q02  00002PRCP24"
"76458099999","2003-12-01T15:00:00","4","23.2","-106.4166666","4.0","COLONIA JUAN CARRASCO MAZATLAN SIN., MX","FM-12","99999","V020","999,9,C,0000,1","22000,1,9,N","012000,1,N,1","+0204,1","+0169,1","10159,1","06,0000,9,1",,,,,,"00,1,+99999,9,99,9",,,"00,99,1,00,1,00,1,99999,9,00,1,00,1",,"01,9",,,,"99999,9,10155,1","2,1,019,1,+006,1",,,"SYN082AAXX  01151 76458 32962 00000 10204 20169 30155 40159 52019 91445 333 30/// 58006;","Q01  00002PRCP06"
"76458099999","2003-12-01T18:00:00","4","23.2","-106.4166666","4.0","COLONIA JUAN CARRASCO MAZATLAN SIN., MX","FM-12","99999","V020","120,1,N,0010,1","22000,1,9,N","018000,1,N,1","+0272,1","+0153,1","99999,9","06,0000,9,1",,,,,,"00,1,+99999,9,99,9",,,"00,99,1,00,1,00,1,99999,9,00,1,00,1",,"01,9",,"120,M,+0295,1","240,N,+0165,1",,,,,"SYN094AAXX  01181 76458 32968 01201 10272 20153 20156 40160 54001 91742 333 10295 20165 30/// 58003;","Q01  00002PRCP06"
"76458099999","2003-12-01T21:00:00","4","23.2","-106.4166666","4.0","COLONIA JUAN CARRASCO MAZATLAN SIN., MX","FM-12","99999","V020","280,1,N,0040,1","22000,1,9,N","020000,1,N,1","+0270,1","+0201,1","10138,1","06,0000,9,1",,,,,,"01,1,+08700,9,00,9",,,"01,99,1,00,1,00,1,99999,9,00,1,01,1",,"01,9",,,,"99999,9,10134,1","7,1,022,1,+005,1",,,"SYN100AAXX  01211 76458 32970 12804 10270 20201 30134 40138 57022 80001 92050 333 0/009 30/// 58005 81079;","Q01  00002PRCP06"
"76458099999","2003-12-02T00:00:00","4","23.2","-106.4166666","4.0","COLONIA JUAN CARRASCO MAZATLAN SIN., MX","FM-12","99999","V020","320,1,N,0030,1","22000,1,9,N","020000,1,N,1","+0265,1","+0174,1","10130,1","06,0000,9,1","24,0000,9,1",,,,,"02,1,+08700,9,00,9",,,"02,99,1,00,1,00,1,99999,9,00,1,02,1",,"01,9",,"120,M,+0290,1","180,N,+0165,1","99999,9,10126,1","6,1,008,1,+000,1",,,"SYN124AAXX  02001 76458 32970 23203 10265 20174 30126 40130 56008 80002 92350 333 0/009 10290 20165 30/// 50391 58000 70000 82079;","Q01  00002PRCP06"
"76458099999","2003-12-02T03:00:00","4","23.2","-106.4166666","4.0","COLONIA JUAN CARRASCO MAZATLAN SIN., MX","FM-12","99999","V020","360,1,N,0020,1","22000,1,9,N","008000,1,N,1","+0238,1","+0197,1","10142,1","06,0000,9,1",,,,,,"00,1,+99999,9,99,9",,,"00,99,1,00,1,00,1,99999,9,00,1,00,1",,"01,9",,,,"99999,9,10137,1","2,1,011,1,+000,1",,,"SYN082AAXX  02031 76458 32958 03602 10238 20197 30137 40142 52011 90240 333 30/// 58000;","Q01  00002PRCP06"
"76458099999","2003-12-02T06:00:00","4","23.2","-106.4166666","4.0","COLONIA JUAN CARRASCO MAZATLAN SIN., MX","FM-12","99999","V020","300,1,N,0020,1","22000,1,9,N","008000,1,N,1","+0218,1","+0182,1","10149,1","06,0000,9,1",,,,,,"00,1,+99999,9,99,9",,,"00,99,1,00,1,00,1,99999,9,00,1,00,1","0552,9","01,9",,"240,M,+0290,1","240,N,+0165,1","99999,9,10144,1","3,1,007,1,+999,9",,,"SYN106AAXX  02061 76458 32958 03002 10218 20182 30144 40149 53007 90535 333 10290 20165 30/// 55092 20998 58005;","Q01  00002PRCP06"
"76458099999","2003-12-02T15:00:00","4","23.2","-106.4166666","4.0","COLONIA JUAN CARRASCO MAZATLAN SIN., MX","FM-12","99999","V020","999,9,C,0000,1","22000,1,9,N","012000,1,N,1","+0222,1","+0190,1","10158,1","06,0000,9,1",,,,,,"00,1,+99999,9,99,9",,,"00,99,1,00,1,00,1,99999,9,00,1,00,1",,"01,9",,,,"99999,9,10153,1","4,1,000,1,+002,1",,,"SYN082AAXX  02151 76458 32962 00000 10222 20190 30153 40158 54000 91452 333 30/// 58002;","Q01  00002PRCP06"
"76458099999","2003-12-02T18:00:00","4","23.2","-106.4166666","4.0","COLONIA JUAN CARRASCO MAZATLAN SIN., MX","FM-12","99999","V020","150,1,N,0020,1","22000,1,9,N","018000,1,N,1","+0300,1","+0184,1","10161,1","06,0000,9,1",,,,,,"00,1,+99999,9,99,9",,,"00,99,1,00,1,00,1,99999,9,00,1,00,1",,"01,9",,"120,M,+0309,1","240,N,+0171,1","99999,9,10156,1","2,1,003,1,+001,1",,,"SYN094AAXX  02181 76458 32968 01502 10300 20184 30156 40161 52003 91755 333 10309 20171 30/// 58001;","Q01  00002PRCP06"
"76458099999","2003-12-02T21:00:00","4","23.2","-106.4166666","4.0","COLONIA JUAN CARRASCO MAZATLAN SIN., MX","FM-12","99999","V020","250,1,N,0030,1","22000,1,9,N","018000,1,N,1","+0274,1","+0197,1","10130,1","06,0000,9,1",,,,,,"00,1,+99999,9,99,9",,,"00,99,1,00,1,00,1,99999,9,00,1,00,1",,"01,9",,,,"99999,9,10126,1","7,1,030,1,-008,1",,,"SYN082AAXX  02211 76458 32968 02503 10274 20197 30126 40130 57030 92048 333 30/// 59008;","Q01  00002PRCP06"
"76458099999","2003-12-03T00:00:00","4","23.2","-106.4166666","4.0","COLONIA JUAN CARRASCO MAZATLAN SIN., MX","FM-12","99999","V020","310,1,N,0040,1","22000,1,9,N","018000,1,N,1","+0271,1","+0212,1","10130,1","06,0000,9,1","24,0000,9,1",,,,,"00,1,+99999,9,99,9",,,"00,99,1,00,1,00,1,99999,9,00,1,00,1",,"01,9",,"120,M,+0319,1","180,N,+0171,1","99999,9,10125,1","0,1,000,1,-001,1",,,"SYN106AAXX  03001 76458 32968 03104 10271 20212 30125 40130 50000 92345 333 10319 20171 30/// 50241 59001 70000;","Q01  00002PRCP06Q02  00002PRCP24"
"76458099999","2003-12-03T06:00:00","4","23.2","-106.4166666","4.0","COLONIA JUAN CARRASCO MAZATLAN SIN., MX","FM-12","99999","V020","999,9,C,0000,1","22000,1,9,N","008000,1,N,1","+0220,1","+0203,1","10150,1","06,0000,9,1",,,,,,"00,1,+99999,9,99,9",,,"00,99,1,00,1,00,1,99999,9,00,1,00,1","0522,9","01,9",,"240,M,+0319,1","240,N,+0171,1","99999,9,10145,1","2,1,008,1,+999,9",,,"SYN106AAXX  03061 76458 32958 00000 10220 20203 30145 40150 52008 90535 333 10319 20171 30/// 55087 20944 58001;","Q01  00002PRCP06"
"76458099999","2003-12-03T15:00:00","4","23.2","-106.4166666","4.0","COLONIA JUAN CARRASCO MAZATLAN SIN., MX","FM-12","99999","V020","340,1,N,0010,1","22000,1,9,N","010000,1,N,1","+0228,1","+0186,1","10134,1","06,0000,9,1",,,,"4,1,03,1","0,1,03,1","00,1,+99999,9,99,9",,,"00,99,1,00,1,00,1,99999,9,00,1,00,1",,"01,9",,,,"99999,9,10129,1","1,1,001,1,-024,1","05,1",,"SYN088AAXX  03151 76458 31960 03401 10228 20186 30129 40134 51001 70540 91450 333 30/// 59024;","Q01  00002PRCP06"
"76458099999","2003-12-03T18:00:00","4","23.2","-106.4166666","4.0","COLONIA JUAN CARRASCO MAZATLAN SIN., MX","FM-12","99999","V020","160,1,N,0030,1","22000,1,9,N","015000,1,N,1","+0276,1","+0217,1","10148,1","06,0000,9,1",,,,,,"01,1,+00750,9,08,9",,,"01,99,1,01,1,01,1,00800,1,00,1,00,1",,"01,9",,"120,M,+0295,1","240,N,+0185,1","99999,9,10143,1","0,1,001,1,-013,1",,,"SYN112AAXX  03181 76458 32565 11603 10276 20217 30143 40148 50001 81100 91750 333 10295 20185 30/// 563// 59013 81825;","Q01  00002PRCP06"
"76458099999","2003-12-03T21:00:00","4","23.2","-106.4166666","4.0","COLONIA JUAN CARRASCO MAZATLAN SIN., MX","FM-12","99999","V020","200,1,N,0020,1","22000,1,9,N","018000,1,N,1","+0281,1","+0218,1","10123,1","06,0000,9,1",,,,,,"01,1,+06000,9,00,9",,,"01,99,1,00,1,00,1,99999,9,00,1,01,1",,"01,9",,,,"99999,9,10119,1","7,1,024,1,-012,1",,,"SYN100AAXX  03211 76458 32968 12002 10281 20218 30119 40123 57024 80001 92048 333 30/// 56//9 59012 81070;","Q01  00002PRCP06"
"76458099999","2003-12-04T00:00:00","4","23.2","-106.4166666","4.0","COLONIA JUAN CARRASCO MAZATLAN SIN., MX","FM-12","99999","V020","270,1,N,0020,1","22000,1,9,N","018000,1,N,1","+0264,1","+0224,1","10119,1","06,0000,9,1","24,0000,9,1",,,,,,,,"02,99,1,00,1,00,1,99999,9,00,1,01,1",,"01,9",,"120,M,+0301,1","180,N,+0185,1","99999,9,10115,1","5,1,004,1,-010,1",,,"SYN124AAXX  04001 76458 32968 22702 10264 20224 30115 40119 55004 80001 92345 333 10301 20185 30/// 50271 56//9 59010 70000 82070;","Q01  00002PRCP06"
"76458099999","2003-12-04T03:00:00","4","23.2","-106.4166666","4.0","COLONIA JUAN CARRASCO MAZATLAN SIN., MX","FM-12","99999","V020","330,1,N,0020,1","22000,1,9,N","008000,1,N,1","+0246,1","+0224,1","10132,1","06,0000,9,1",,,,,,"02,1,+00240,9,06,9",,,"02,99,1,02,1,05,1,00250,1,99,9,99,9",,"01,9",,,,"99999,9,10128,1","2,1,014,1,-009,1",,,"SYN100AAXX  04031 76458 32358 23302 10246 20224 30128 40132 52014 825// 90240 333 30/// 566// 59009 82608;","Q01  00002PRCP06"
"76458099999","2003-12-04T15:00:00","4","23.2","-106.4166666","4.0","COLONIA JUAN CARRASCO MAZATLAN SIN., MX","FM-12","99999","V020","080,1,N,0030,1","22000,1,9,N","010000,1,N,1","+0236,1","+0216,1","10146,1","06,0000,9,1",,,,"4,1,03,1","0,1,03,1","00,1,+99999,9,99,9",,,"00,99,1,00,1,00,1,99999,9,00,1,00,1",,"01,9",,,,"99999,9,10142,1","2,1,017,1,+000,1","05,1",,"SYN088AAXX  04151 76458 31960 00803 10236 20216 30142 40146 52017 70540 91450 333 30/// 58000;","Q01  00002PRCP06"
"76458099999","2003-12-04T18:00:00","4","23.2","-106.4166666","4.0","COLONIA JUAN CARRASCO MAZATLAN SIN., MX","FM-12","99999","V020","190,1,N,0020,1","22000,1,9,N","015000,1,N,1","+0273,1","+0201,1","10157,1","06,0000,9,1",,,,,,"01,1,+00900,9,08,9",,,"01,99,1,01,1,01,1,00800,1,00,1,00,1",,"01,9",,"120,M,+0290,1","240,N,+0202,1","99999,9,10152,1","2,1,010,1,+009,1",,,"SYN112AAXX  04181 76458 32565 11902 10273 20201 30152 40157 52010 81100 91750 333 10290 20202 30/// 563// 58009 81830;","Q01  00002PRCP06"
"76458099999","2003-12-04T21:00:00","4","23.2","-106.4166666","4.0","COLONIA JUAN CARRASCO MAZATLAN SIN., MX","FM-12","99999","V020","250,1,N,0020,1","22000,1,9,N","018000,1,N,1","+0269,1","+0219,1","10130,1","06,0000,9,1",,,,,,"01,1,+00630,9,08,9",,,"01,99,1,01,1,01,1,00800,1,00,1,00,1",,"01,9",,,,"99999,9,10126,1","7,1,026,1,+007,1",,,"SYN100AAXX  04211 76458 32568 12502 10269 20219 30126 40130 57026 81100 92045 333 30/// 563// 58007 81821;","Q01  00002PRCP06"
"76458099999","2003-12-05T00:00:00","4","23.2","-106.4166666","4.0","COLONIA JUAN CARRASCO MAZATLAN SIN., MX","FM-12","99999","V020","240,1,N,0020,1","22000,1,9,N","018000,1,N,1","+0260,1","+0197,1","10123,1","06,0000,9,1","24,0000,9,1",,,,,"01,1,+04200,9,03,9",,,"03,99,1,99,9,00,1,99999,9,03,1,00,1",,"01,9",,"120,M,+0295,1","180,N,+0202,1","99999,9,10119,1","5,1,007,1,+004,1",,,"SYN118AAXX  05001 76458 32968 32402 10260 20197 30119 40123 55007 81030 92340 333 10295 20202 30/// 50251 58004 70000 81364;","Q01+000012SCOTLCQ02  00002PRCP06"
"76458099999","2003-12-05T03:00:00","4","23.2","-106.4166666","4.0","COLONIA JUAN CARRASCO MAZATLAN SIN., MX","FM-12","99999","V020","300,1,N,0020,1","22000,1,9,N","008000,1,N,1","+0246,1","+0200,1","10133,1","06,0000,9,1",,,,,,"01,1,+00450,9,08,9",,,"01,99,1,01,1,01,1,00450,1,99,9,99,9",,"01,9",,,,"99999,9,10128,1","3,1,009,1,+000,1",,,"SYN100AAXX  05031 76458 32458 13002 10246 20200 30128 40133 53009 811// 90240 333 30/// 567// 58000 81815;","Q01  00002PRCP06"
"76458099999","2003-12-05T06:00:00","4","23.2","-106.4166666","4.0","COLONIA JUAN CARRASCO MAZATLAN SIN., MX","FM-12","99999","V020","360,1,N,0020,1","22000,1,9,N","008000,1,N,1","+0226,1","+9999,9","10140,1","06,0000,9,1",,,,,,"00,1,+99999,9,99,9",,,"00,99,1,00,1,00,1,99999,9,00,1,00,1","0498,9","01,9",,"240,M,+0295,1","240,N,+0202,1","99999,9,10136,1","2,1,008,1,+999,9",,,"SYN106AAXX  05061 76458 32958 03602 10226 20006 30136 40140 52008 90535 333 10295 20202 30/// 55083 20959 58001;","Q01+000063ATOD  Q02  00002PRCP06"
"76458099999","2003-12-05T09:00:00","4","23.2","-106.4166666","4.0","COLONIA JUAN CARRASCO MAZATLAN SIN., MX","FM-12","99999","V020","999,9,C,0000,1","22000,1,9,N","008000,1,N,1","+0220,1","+0203,1","10128,1","06,0000,9,1",,,,,,"00,1,+99999,9,99,9",,,"00,99,1,00,1,00,1,99999,9,00,1,00,1",,"01,9",,,,"99999,9,10123,1","7,1,013,1,-004,1",,,"SYN082AAXX  05091 76458 32958 00000 10220 20203 30123 40128 57013 90835 333 30/// 59004;","Q01  00002PRCP06"
"76458099999","2003-12-05T12:00:00","4","23.2","-106.4166666","4.0","COLONIA JUAN CARRASCO MAZATLAN SIN., MX","FM-12","99999","V020","999,9,C,0000,1","22000,1,9,N","008000,1,N,1","+0210,1","+0195,1","10134,1","06,0000,9,1",,,,,,"00,1,+99999,9,99,9",,,"00,99,1,00,1,00,1,99999,9,00,1,00,1",,"01,9","999,+0180,9","999,M,+0295,1","120,N,+0190,1","99999,9,10130,1","2,1,007,1,+005,1",,,"SYN094AAXX  05121 76458 32958 00000 10210 20195 30130 40134 52007 91155 333 10295 20190 30018 58005;","Q01  00002PRCP06"
"76458099999","2003-12-05T15:00:00","4","23.2","-106.4166666","4.0","COLONIA JUAN CARRASCO MAZATLAN SIN., MX","FM-12","99999","V020","120,1,N,0010,1","22000,1,9,N","004000,1,N,1","+0222,1","+0205,1","10150,1","06,0000,9,1",,,,"4,1,03,1","0,1,03,1","00,1,+99999,9,99,9",,,"00,99,1,00,1,00,1,99999,9,00,1,00,1",,"01,9",,,,"99999,9,10145,1","1,1,015,1,+003,1","10,1",,"SYN088AAXX  05151 76458 31940 01201 10222 20205 30145 40150 51015 71040 91450 333 30/// 58003;","Q01  00002PRCP06"
"76458099999","2003-12-05T18:00:00","4","23.2","-106.4166666","4.0","COLONIA JUAN CARRASCO MAZATLAN SIN., MX","FM-12","99999","V020","210,1,N,0020,1","22000,1,9,N","010000,1,N,1","+0258,1","+0213,1","10152,1","06,0000,9,1",,,,,,"02,1,+00570,9,08,9",,,"02,99,1,02,1,02,1,00450,1,00,1,00,1",,"01,9",,"120,M,+0280,1","240,N,+0190,1","99999,9,10148,1","5,1,003,1,-004,1",,,"SYN112AAXX  05181 76458 32460 22102 10258 20213 30148 40152 55003 82200 91750 333 10280 20190 30/// 564// 59004 82819;","Q01  00002PRCP06"
"76458099999","2003-12-05T21:00:00","4","23.2","-106.4166666","4.0","COLONIA JUAN CARRASCO MAZATLAN SIN., MX","FM-12","99999","V020","270,1,N,0030,1","22000,1,9,N","012000,1,N,1","+0262,1","+0213,1","10137,1","06,0000,9,1",,,,"4,1,03,1","4,1,03,1","01,1,+00600,9,08,9",,,"01,99,1,01,1,01,1,00800,1,00,1,00,1",,"01,9",,,,"99999,9,10132,1","7,1,015,1,+006,1","05,1",,"SYN106AAXX  05211 76458 31562 12703 10262 20213 30132 40137 57015 70544 81100 92045 333 30/// 566// 58006 81820;","Q01  00002PRCP06"
"76458099999","2003-12-06T00:00:00","4","23.2","-106.4166666","4.0","COLONIA JUAN CARRASCO MAZATLAN SIN., MX","FM-12","99999","V020","300,1,N,0040,1","22000,1,9,N","015000,1,N,1","+0252,1","+0207,1","10130,1","06,0000,9,1","24,0000,9,1",,,,,,,,"02,99,1,02,1,01,1,00450,1,00,1,00,1",,"01,9",,"120,M,+0329,1","180,N,+0190,1","99999,9,10125,1","5,1,007,1,+006,1",,,"SYN124AAXX  06001 76458 32465 23004 10252 20207 30125 40130 55007 82100 92345 333 10329 20190 30/// 50261 566// 58006 70000 82819;","Q01  00002PRCP06"
"76458099999","2003-12-06T03:00:00","4","23.2","-106.4166666","4.0","COLONIA JUAN CARRASCO MAZATLAN SIN., MX","FM-12","99999","V020","360,1,N,0020,1","22000,1,9,N","008000,1,N,1","+0240,1","+0203,1","10142,1","06,0000,9,1",,,,,,"00,1,+99999,9,99,9",,,"00,99,1,00,1,00,1,99999,9,00,1,00,1",,"01,9",,,,"99999,9,10137,1","2,1,012,1,+009,1",,,"SYN082AAXX  06031 76458 32958 03602 10240 20203 30137 40142 52012 90240 333 30/// 58009;","Q01  00002PRCP06"
"76458099999","2003-12-06T06:00:00","4","23.2","-106.4166666","4.0","COLONIA JUAN CARRASCO MAZATLAN SIN., MX","FM-12","99999","V020","350,1,N,0030,1","22000,1,9,N","008000,1,N,1","+0232,1","+0203,1","10149,1","06,0000,9,1",,,,,,"00,1,+99999,9,99,9",,,"00,99,1,00,1,00,1,99999,9,00,1,00,1","0468,9","01,9",,"240,M,+0329,1","240,N,+0190,1","99999,9,10145,1","2,1,008,1,+999,9",,,"SYN106AAXX  06061 76458 32958 03503 10232 20203 30145 40149 52008 90535 333 10329 20190 30/// 55078 20913 58009;","Q01  00002PRCP06"
"76458099999","2003-12-06T15:00:00","4","23.2","-106.4166666","4.0","COLONIA JUAN CARRASCO MAZATLAN SIN., MX","FM-12","99999","V020","330,1,N,0020,1","02400,1,9,N","010000,1,N,1","+0216,1","+0195,1","10162,1","06,0000,9,1",,,,"4,1,03,1","1,1,03,1","06,1,+02400,9,03,9",,,"06,99,1,06,1,00,1,99999,9,07,1,00,1",,"01,9",,,,"99999,9,10157,1","1,1,007,1,+012,1","10,1",,"SYN106AAXX  06151 76458 31960 63302 10216 20195 30157 40162 51007 71041 86070 91450 333 30/// 56/0/ 58012 86358;","Q01  00002PRCP06"
"76458099999","2003-12-06T21:00:00","4","23.2","-106.4166666","4.0","COLONIA JUAN CARRASCO MAZATLAN SIN., MX","FM-12","99999","V020","250,1,N,0030,1","22000,1,9,N","015000,1,N,1","+0269,1","+0208,1","10141,1","06,0000,9,1",,,,,,"00,1,+99999,9,99,9",,,"00,99,1,00,1,00,1,99999,9,00,1,00,1",,"01,9",,,,"99999,9,10136,1","7,1,022,1,+004,1",,,"SYN082AAXX  06211 76458 32965 02503 10269 20208 30136 40141 57022 92045 333 30/// 58004;","Q01  00002PRCP06"
"76458099999","2003-12-07T00:00:00","4","23.2","-106.4166666","4.0","COLONIA JUAN CARRASCO MAZATLAN SIN., MX","FM-12","99999","V020","300,1,N,0030,1","22000,1,9,N","018000,1,N,1","+0259,1","+0202,1","10140,1","06,0000,9,1","24,0000,9,1",,,,,"00,1,+99999,9,99,9",,,"00,99,1,00,1,00,1,99999,9,00,1,00,1",,"01,9",,"120,M,+0287,1","180,N,+0187,1","99999,9,10136,1","5,1,000,1,+011,1",,,"SYN106AAXX  07001 76458 32968 03003 10259 20202 30136 40140 55000 92340 333 10287 20187 30/// 50271 58011 70000;","Q01  00002PRCP06Q02  00002PRCP24"
"76458099999","2003-12-07T03:00:00","4","23.2","-106.4166666","4.0","COLONIA JUAN CARRASCO MAZATLAN SIN., MX","FM-12","99999","V020","320,1,N,0030,1","22000,1,9,N","008000,1,N,1","+0238,1","+0207,1","10154,1","06,0000,9,1",,,,,,"00,1,+99999,9,99,9",,,"00,99,1,00,1,00,1,99999,9,00,1,00,1",,"01,9",,,,"99999,9,10149,1","2,1,013,1,+012,1",,,"SYN082AAXX  07031 76458 32958 03203 10238 20207 30149 40154 52013 90240 333 30/// 58012;","Q01  00002PRCP06"
"76458099999","2003-12-07T15:00:00","4","23.2","-106.4166666","4.0","COLONIA JUAN CARRASCO MAZATLAN SIN., MX","FM-12","99999","V020","999,9,C,0000,1","22000,1,9,N","015000,1,N,1","+0203,1","+0180,1","10162,1","06,0000,9,1",,,,,,"02,1,+06000,9,00,9",,,"02,99,1,00,1,00,1,99999,9,00,1,04,1",,"01,9",,,,"99999,9,10158,1","2,1,012,1,+001,1",,,"SYN100AAXX  07151 76458 32965 20000 10203 20180 30158 40162 52012 80004 91445 333 30/// 56//9 58001 82070;","Q01  00002PRCP06"
"76458099999","2003-12-08T15:00:00","4","23.2","-106.4166666","4.0","COLONIA JUAN CARRASCO MAZATLAN SIN., MX","FM-12","99999","V020","070,1,N,0010,1","22000,1,9,N","010000,1,N,1","+0216,1","+0183,1","10150,1","06,0000,9,1",,,,,,"02,1,+06000,9,00,9",,,"02,99,1,00,1,00,1,99999,9,00,1,02,1",,"01,9",,,,"99999,9,10146,1","2,1,999,9,-012,1",,,"SYN100AAXX  08151 76458 32960 20701 10216 20183 30146 40150 52/// 80002 91450 333 30/// 56//0 59012 82070;","Q01  00002PRCP06"
"76458099999","2003-12-08T18:00:00","4","23.2","-106.4166666","4.0","COLONIA JUAN CARRASCO MAZATLAN SIN., MX","FM-12","99999","V020","180,1,N,0020,1","22000,1,9,N","015000,1,N,1","+0264,1","+0168,1","10153,1","06,0000,9,1",,,,,,"02,1,+06000,9,00,9",,,"02,99,1,00,1,00,1,99999,9,00,1,02,1",,"01,9",,"120,M,+0277,1","240,N,+0166,1","99999,9,10148,1","0,1,002,1,-012,1",,,"SYN112AAXX  08181 76458 32965 21802 10264 20168 30148 40153 50002 80002 91755 333 10277 20166 30/// 56//0 59012 82070;","Q01  00002PRCP06"
"76458099999","2003-12-08T21:00:00","4","23.2","-106.4166666","4.0","COLONIA JUAN CARRASCO MAZATLAN SIN., MX","FM-12","99999","V020","270,1,N,0030,1","22000,1,9,N","018000,1,N,1","+0260,1","+0197,1","10132,1","06,0000,9,1",,,,,,"02,1,+06600,9,00,9",,,"02,99,1,00,1,00,1,99999,9,00,1,06,1",,"01,9",,,,"99999,9,10128,1","7,1,020,1,+001,1",,,"SYN100AAXX  08211 76458 32968 22703 10260 20197 30128 40132 57020 80006 92048 333 30/// 56009 58001 82072;","Q01  00002PRCP06"
"76458099999","2003-12-09T00:00:00","4","23.2","-106.4166666","4.0","COLONIA JUAN CARRASCO MAZATLAN SIN., MX","FM-12","99999","V020","290,1,N,0030,1","22000,1,9,N","020000,1,N,1","+0246,1","+0194,1","10126,1","06,0000,9,1",,,,,,"02,1,+02400,9,03,9",,,"04,99,1,99,9,00,1,99999,9,03,1,06,1",,"01,9",,"120,M,+0285,1","180,N,+0166,1","99999,9,10121,1","7,1,007,1,+001,1",,,"SYN124AAXX  09001 76458 32970 42903 10246 20194 30121 40126 57007 80036 92342 333 10285 20166 30/// 50221 56099 58001 82358 82072;","Q01  00002PRCP06"
"76458099999","2003-12-09T03:00:00","4","23.2","-106.4166666","4.0","COLONIA JUAN CARRASCO MAZATLAN SIN., MX","FM-12","99999","V020","360,1,N,0030,1","22000,1,9,N","008000,1,N,1","+0230,1","+0196,1","10139,1","06,0000,9,1",,,,,,"01,1,+00420,9,08,9",,,"01,99,1,01,1,01,1,00250,1,99,9,99,9",,"01,9",,,,"99999,9,10134,1","2,1,013,1,-002,1",,,"SYN100AAXX  09031 76458 32358 13603 10230 20196 30134 40139 52013 811// 90240 333 30/// 567// 59002 81814;","Q01  00002PRCP06"
"76458099999","2003-12-09T06:00:00","4","23.2","-106.4166666","4.0","COLONIA JUAN CARRASCO MAZATLAN SIN., MX","FM-12","99999","V020","999,9,C,0000,1","22000,1,9,N","008000,1,N,1","+0214,1","+0203,1","10145,1","06,0000,9,1",,,,,,"00,1,+99999,9,99,9",,,"00,99,1,00,1,00,1,99999,9,00,1,00,1","0480,9","01,9",,"240,M,+0285,1","240,N,+0166,1","99999,9,10141,1","2,1,007,1,+999,9",,,"SYN106AAXX  09061 76458 32958 00000 10214 20203 30141 40145 52007 90535 333 10285 20166 30/// 55080 21114 59002;","Q01  00002PRCP06"
"76458099999","2003-12-09T18:00:00","4","23.2","-106.4166666","4.0","COLONIA JUAN CARRASCO MAZATLAN SIN., MX","FM-12","99999","V020","230,1,N,0020,1","22000,1,9,N","015000,1,N,1","+0250,1","+0183,1","10161,1","06,0000,9,1",,,,,,"01,1,+00840,9,08,9",,,"01,99,1,99,9,02,1,00800,1,00,1,00,1",,"01,9",,"120,M,+0273,1","240,N,+0171,1","99999,9,10156,1","1,1,011,1,+008,1",,,"SYN112AAXX  09181 76458 32565 12302 10250 20183 30156 40161 51011 82200 91755 333 10273 20171 30/// 563// 58008 81828;","Q01  00002PRCP06"
"76458099999","2003-12-09T21:00:00","4","23.2","-106.4166666","4.0","COLONIA JUAN CARRASCO MAZATLAN SIN., MX","FM-12","99999","V020","260,1,N,0030,1","22000,1,9,N","018000,1,N,1","+0265,1","+0186,1","10139,1","06,0000,9,1",,,,,,"01,1,+00990,9,08,9",,,"01,99,1,01,1,01,1,00800,1,00,1,00,1",,"01,9",,,,"99999,9,10135,1","7,1,021,1,+007,1",,,"SYN100AAXX  09211 76458 32568 12603 10265 20186 30135 40139 57021 81100 92045 333 30/// 561// 58007 81833;","Q01  00002PRCP06"
"76458099999","2003-12-10T00:00:00","4","23.2","-106.4166666","4.0","COLONIA JUAN CARRASCO MAZATLAN SIN., MX","FM-12","99999","V020","280,1,N,0030,1","22000,1,9,N","018000,1,N,1","+0251,1","+0168,1","10129,1","06,0000,9,1","24,0000,9,1",,,,,"00,1,+99999,9,99,9",,,"00,99,1,00,1,00,1,99999,9,00,1,00,1",,"01,9",,"120,M,+0283,1","180,N,+0171,1","99999,9,10125,1","5,1,010,1,+004,1",,,"SYN113AAXX  10001 76458 32968 02803 10251 20168 30125 40129 55010 92345 333 10283 20171 30/// 50301 58004 700000 76556;","Q01  00002PRCP06Q02  00002PRCP24"
"76458099999","2003-12-10T03:00:00","4","23.2","-106.4166666","4.0","COLONIA JUAN CARRASCO MAZATLAN SIN., MX","FM-12","99999","V020","320,1,N,0030,1","22000,1,9,N","008000,1,N,1","+0222,1","+0171,1","10142,1","06,0000,9,1",,,,,,"00,1,+99999,9,99,9",,,"00,99,1,00,1,00,1,99999,9,00,1,00,1",,"01,9",,,,"99999,9,10138,1","2,1,013,1,+004,1",,,"SYN082AAXX  10031 76458 32958 03203 10222 20171 30138 40142 52013 90248 333 30/// 58004;","Q01  00002PRCP06"
"76458099999","2003-12-10T06:00:00","4","23.2","-106.4166666","4.0","COLONIA JUAN CARRASCO MAZATLAN SIN., MX","FM-12","99999","V020","320,1,N,0020,1","22000,1,9,N","008000,1,N,1","+0208,1","+0152,1","10152,1","06,0000,9,1",,,,,,,,,"04,99,1,00,1,00,1,99999,9,00,1,06,1","0498,9","01,9",,"240,M,+0283,1","240,N,+0171,1","99999,9,10147,1","2,1,009,1,+006,1",,,"SYN124AAXX  10061 76458 32958 43202 10208 20152 30147 40152 52009 80006 90545 333 10283 20171 30/// 55083 28124 56009 58006 84072;","Q01  00002PRCP06"
"76458099999","2003-12-10T15:00:00","4","23.2","-106.4166666","4.0","COLONIA JUAN CARRASCO MAZATLAN SIN., MX","FM-12","99999","V020","320,1,N,0010,1","22000,1,9,N","013000,1,N,1","+0182,1","+0143,1","10154,1","06,0000,9,1",,,,,,"02,1,+02400,9,03,9",,,"04,99,1,02,1,00,1,99999,9,03,1,02,1",,"01,9",,,,"99999,9,10149,1","9,9,999,9,+004,1",,,"SYN106AAXX  10151 76458 32963 43201 10182 20143 30149 40154 5//// 82032 91450 333 30/// 56/00 58004 82358 82070;","Q01  00002PRCP06"
"76458099999","2003-12-10T21:00:00","4","23.2","-106.4166666","4.0","COLONIA JUAN CARRASCO MAZATLAN SIN., MX","FM-12","99999","V020","280,1,N,0030,1","04200,1,9,N","018000,1,N,1","+0243,1","+0176,1","10131,1","06,0000,9,1",,,,,,"06,1,+04200,9,03,9",,,"06,99,1,06,1,00,1,02250,1,03,1,00,1",,"01,9",,,,"99999,9,10127,1","7,1,024,1,-008,1",,,"SYN100AAXX  10211 76458 32868 62803 10243 20176 30127 40131 57024 86030 92045 333 30/// 56/9/ 59008 86364;","Q01  00002PRCP06"
"76458099999","2003-12-11T00:00:00","4","23.2","-106.4166666","4.0","COLONIA JUAN CARRASCO MAZATLAN SIN., MX","FM-12","99999","V020","300,1,N,0020,1","03600,1,C,N","018000,1,N,1","+0233,1","+0173,1","10135,1","06,0000,9,1","24,0000,9,1",,,,,"05,1,+03600,9,04,9",,,"08,99,1,99,9,00,1,02250,1,02,1,00,1",,"01,9",,"120,M,+0263,1","180,N,+0150,1","99999,9,10130,1","2,1,003,1,+005,1",,,"SYN130AAXX  11001 76458 32868 83002 10233 20173 30130 40135 52003 85020 92340 333 10263 20150 30/// 50351 56/9/ 58005 70000 85462 83364;","Q01+000052SCOTLCQ02  00002PRCP06"
"76458099999","2003-12-11T03:00:00","4","23.2","-106.4166666","4.0","COLONIA JUAN CARRASCO MAZATLAN SIN., MX","FM-12","99999","V020","340,1,N,0010,1","99999,9,9,N","008000,1,N,1","+0218,1","+0170,1","99999,9","06,0000,9,1",,,,,,,,,"08,99,1,99,9,99,9,99999,9,99,9,99,9",,,,,,,,,,"SYN090AAXX  11031 76458 32958 83401 10218 20170 30/// 30137 40141 52007 59001 88/2/ 88458 90240;","Q01  00002PRCP06"
"76458099999","2003-12-11T06:00:00","4","23.2","-106.4166666","4.0","COLONIA JUAN CARRASCO MAZATLAN SIN., MX","FM-12","99999","V020","320,1,N,0010,1","99999,9,9,N","008000,1,N,1","+0218,1","+0170,1","10145,1","06,0000,9,1",,,,,,,,,"07,99,1,07,1,99,9,99999,9,02,1,99,9","0348,9","01,9",,"240,M,+0263,1","240,N,+0150,1","99999,9,10141,1","0,1,004,1,-006,1",,,"SYN118AAXX  11061 76458 32958 73201 10218 20170 30141 40145 50004 87/2/ 90535 333 10263 20150 30/// 55058 20967 59006 87458;","Q01  00002PRCP06"
"76458099999","2003-12-11T12:00:00","4","23.2","-106.4166666","4.0","COLONIA JUAN CARRASCO MAZATLAN SIN., MX","FM-12","99999","V020","060,1,N,0010,1","02400,1,9,N","008000,1,N,1","+0198,1","+0158,1","10131,1","06,0000,9,1",,,,,,"07,1,+02400,9,03,9",,,"07,99,1,99,9,00,1,99999,9,05,1,00,1",,"01,9","999,+0170,9","999,M,+0263,1","120,N,+0180,1","99999,9,10127,1","7,1,002,1,+999,9",,,"SYN112AAXX  11121 76458 32958 70601 10198 20158 30127 40131 57002 80050 91138 333 10263 20180 30017 56090 58/// 87358;","Q01+000002SCOTLCQ02  00002PRCP06"
"76458099999","2003-12-11T15:00:00","4","23.2","-106.4166666","4.0","COLONIA JUAN CARRASCO MAZATLAN SIN., MX","FM-12","99999","V020","020,1,N,0010,1","99999,9,9,N","010000,1,N,1","+0202,1","+0167,1","10142,1","06,0000,9,1",,,,,,"02,1,+02400,9,03,9",,,"06,99,1,02,1,00,1,99999,9,03,1,08,1",,"01,9",,,,"99999,9,10137,1","2,1,010,1,-012,1",,,"SYN106AAXX  11151 76458 32960 60201 10202 20167 30137 40142 52010 82038 91450 333 30/// 56/00 59012 82358 84270;","Q01  00002PRCP06"
"76458099999","2003-12-11T18:00:00","4","23.2","-106.4166666","4.0","COLONIA JUAN CARRASCO MAZATLAN SIN., MX","FM-12","99999","V020","260,1,N,0030,1","02400,1,9,N","015000,1,N,1","+0242,1","+0179,1","10150,1","06,0000,9,1",,,,,,"06,1,+02400,9,03,9",,,"06,99,1,06,1,00,1,99999,9,03,1,00,1",,"01,9",,"120,M,+0268,1","240,N,+0176,1","99999,9,10145,1","1,1,008,1,-006,1",,,"SYN112AAXX  11181 76458 32965 62603 10242 20179 30145 40150 51008 86030 91745 333 10268 20176 30/// 56/0/ 59006 86358;","Q01  00002PRCP06"
"76458099999","2003-12-11T21:00:00","4","23.2","-106.4166666","4.0","COLONIA JUAN CARRASCO MAZATLAN SIN., MX","FM-12","99999","V020","240,1,N,0030,1","04200,1,9,N","018000,1,N,1","+0247,1","+0196,1","10137,1","06,0000,9,1",,,,,,"06,1,+04200,9,03,9",,,"06,99,1,06,1,00,1,02250,1,03,1,00,1",,"01,9",,,,"99999,9,10133,1","7,1,012,1,+006,1",,,"SYN100AAXX  11211 76458 32868 62403 10247 20196 30133 40137 57012 86030 92045 333 30/// 56/9/ 58006 86364;","Q01  00002PRCP06"
"76458099999","2003-12-12T00:00:00","4","23.2","-106.4166666","4.0","COLONIA JUAN CARRASCO MAZATLAN SIN., MX","FM-12","99999","V020","300,1,N,0030,1","02100,1,9,N","018000,1,N,1","+0240,1","+0175,1","10136,1","06,0000,9,1","24,0000,9,1",,,,,,,,"07,99,1,07,1,00,1,02250,1,03,1,00,1",,"01,9",,"120,M,+0275,1","180,N,+0176,1","99999,9,10132,1","5,1,001,1,+002,1",,,"SYN124AAXX  12001 76458 32868 73003 10240 20175 30132 40136 55001 87030 92345 333 10275 20176 30/// 50231 56/9/ 58002 70000 87364;","Q01  00002PRCP06"
"76458099999","2003-12-12T03:00:00","4","23.2","-106.4166666","4.0","COLONIA JUAN CARRASCO MAZATLAN SIN., MX","FM-12","99999","V020","340,1,N,0020,1","22000,1,9,N","008000,1,N,1","+0226,1","+0175,1","10147,1","06,0000,9,1",,,,,,"01,1,+01800,9,03,9",,,"01,99,1,99,9,99,9,02250,1,99,9,99,9",,"01,9",,,,"99999,9,10142,1","3,1,010,1,+005,1",,,"SYN088AAXX  12031 76458 32858 13402 10226 20175 30142 40147 53010 90240 333 30/// 58005 81356;","Q01  00002PRCP06"
"76458099999","2003-12-12T06:00:00","4","23.2","-106.4166666","4.0","COLONIA JUAN CARRASCO MAZATLAN SIN., MX","FM-12","99999","V020","360,1,N,0010,1","22000,1,9,N","008000,1,N,1","+0206,1","+0166,1","10154,1","06,0000,9,1",,,,,,"00,1,+99999,9,99,9",,,"00,99,1,00,1,00,1,99999,9,00,1,00,1","0384,9","01,9",,"240,M,+0275,1","240,N,+0176,1","99999,9,10149,1","2,1,007,1,+999,9",,,"SYN106AAXX  12061 76458 32958 03601 10206 20166 30149 40154 52007 90535 333 10275 20176 30/// 55064 20905 58008;","Q01  00002PRCP06"
"76458099999","2003-12-12T12:00:00","4","23.2","-106.4166666","4.0","COLONIA JUAN CARRASCO MAZATLAN SIN., MX","FM-12","99999","V020","320,1,N,0010,1","22000,1,9,N","008000,1,N,1","+0182,1","+0150,1","10137,1","06,0000,9,1",,,,,,"00,1,+99999,9,99,9",,,"00,99,1,00,1,00,1,99999,9,00,1,00,1",,"01,9","999,+0160,9","999,M,+0275,1","120,N,+0170,1","99999,9,10133,1","4,1,000,1,+006,1",,,"SYN094AAXX  12121 76458 32958 03201 10182 20150 30133 40137 54000 91150 333 10275 20170 30016 58006;","Q01  00002PRCP06"
"76458099999","2003-12-12T15:00:00","4","23.2","-106.4166666","4.0","COLONIA JUAN CARRASCO MAZATLAN SIN., MX","FM-12","99999","V020","320,1,N,0010,1","06000,1,9,N","013000,1,N,1","+0196,1","+0148,1","10154,1","06,0000,9,1",,,,,,"05,1,+06000,9,02,9",,,"05,99,1,00,1,00,1,99999,9,00,1,08,1",,"01,9",,,,"99999,9,10149,1","2,1,016,1,+012,1",,,"SYN100AAXX  12151 76458 32963 53201 10196 20148 30149 40154 52016 80008 91450 333 30/// 5600/ 58012 85270;","Q01  00002PRCP06"
"76458099999","2003-12-12T18:00:00","4","23.2","-106.4166666","4.0","COLONIA JUAN CARRASCO MAZATLAN SIN., MX","FM-12","99999","V020","300,1,N,0030,1","06000,1,9,N","020000,1,N,1","+0239,1","+0116,1","10161,1","06,0000,9,1",,,,,,"07,1,+06000,9,02,9",,,"07,99,1,00,1,00,1,99999,9,00,1,08,1",,"01,9",,"120,M,+0252,1","240,N,+0159,1","99999,9,10157,1","1,1,008,1,+012,1",,,"SYN112AAXX  12181 76458 32970 73003 10239 20116 30157 40161 51008 80008 91750 333 10252 20159 30/// 56//0 58012 87270;","Q01  00002PRCP06"
"76458099999","2003-12-12T21:00:00","4","23.2","-106.4166666","4.0","COLONIA JUAN CARRASCO MAZATLAN SIN., MX","FM-12","99999","V020","240,1,N,0020,1","09000,1,C,N","020000,1,N,1","+0245,1","+0104,1","10140,1","06,0000,9,1",,,,,,"01,1,+04200,9,03,9",,,"08,99,1,01,1,00,1,02250,1,03,1,08,1",,"01,9",,,,"99999,9,10135,1","7,1,021,1,+002,1",,,"SYN106AAXX  12211 76458 32870 82402 10245 20104 30135 40140 57021 81038 92045 333 30/// 56/99 58002 81364 87268;","Q01  00002PRCP06"
"76458099999","2003-12-13T00:00:00","4","23.2","-106.4166666","4.0","COLONIA JUAN CARRASCO MAZATLAN SIN., MX","FM-12","99999","V020","310,1,N,0030,1","09000,1,9,N","020000,1,N,1","+0234,1","+0130,1","10137,1","06,0000,9,1","24,0000,9,1",,,,,"01,1,+04200,9,03,9",,,"08,99,1,01,1,00,1,02250,1,03,1,08,1",,"01,9",,"120,M,+0260,1","180,N,+0159,1","99999,9,10133,1","7,1,002,1,+001,1",,,"SYN130AAXX  13001 76458 32870 83103 10234 20130 30133 40137 57002 81038 92345 333 10260 20159 30/// 50281 56/99 58001 70000 81364 87268;","Q01  00002PRCP06"
"76458099999","2003-12-13T03:00:00","4","23.2","-106.4166666","4.0","COLONIA JUAN CARRASCO MAZATLAN SIN., MX","FM-12","99999","V020","330,1,N,0030,1","22000,1,9,N","008000,1,N,1","+0210,1","+0140,1","10154,1","06,0000,9,1",,,,,,"02,1,+06000,9,00,9",,,"02,99,1,00,1,99,9,99999,9,99,9,01,1",,"01,9",,,,"99999,9,10150,1","2,1,017,1,+008,1",,,"SYN094AAXX  13031 76458 32958 23303 10210 20140 30150 40154 52017 80//1 90240 333 30/// 58008 82070;","Q01  00002PRCP06"
"76458099999","2003-12-13T06:00:00","4","23.2","-106.4166666","4.0","COLONIA JUAN CARRASCO MAZATLAN SIN., MX","FM-12","99999","V020","340,1,N,0020,1","22000,1,9,N","008000,1,N,1","+0198,1","+0140,1","10162,1","06,0000,9,1",,,,,,,,,"04,99,1,99,9,99,9,99999,9,99,9,99,9","0282,9","01,9",,"240,M,+0360,1","240,N,+0159,1","99999,9,10157,1","1,1,007,1,+008,1",,,"SYN112AAXX  13061 76458 32958 43402 10198 20140 30157 40162 51007 90535 333 10360 20159 30/// 55047 20936 58008 84356;","Q01  00002PRCP06"
"76458099999","2003-12-13T09:00:00","4","23.2","-106.4166666","4.0","COLONIA JUAN CARRASCO MAZATLAN SIN., MX","FM-12","99999","V020","999,9,C,0000,1","22000,1,9,N","008000,1,N,1","+0180,1","+0131,1","10147,1","06,0000,9,1",,,,,,"01,1,+06600,9,00,9",,,"01,99,1,00,1,00,1,99999,9,00,1,06,1",,"01,9",,,,"99999,9,10143,1","7,1,014,1,+010,1",,,"SYN094AAXX  13091 76458 32958 10000 10180 20131 30143 40147 57014 80006 90859 333 30/// 58010 81072;","Q01  00002PRCP06"
"76458099999","2003-12-13T15:00:00","4","23.2","-106.4166666","4.0","COLONIA JUAN CARRASCO MAZATLAN SIN., MX","FM-12","99999","V020","330,1,N,0010,1","99999,9,9,N","012000,1,N,1","+0178,1","+0129,1","10164,1","06,0000,9,1",,,,,,"01,1,+02400,9,03,9",,,"07,99,1,01,1,00,1,99999,9,03,1,08,1",,"01,9",,,,"99999,9,10159,1","2,1,016,1,+010,1",,,"SYN106AAXX  13151 76458 32962 73301 10178 20129 30159 40164 52016 81038 91450 333 30/// 56/00 58010 81358 86270;","Q01  00002PRCP06"
"76458099999","2003-12-13T18:00:00","4","23.2","-106.4166666","4.0","COLONIA JUAN CARRASCO MAZATLAN SIN., MX","FM-12","99999","V020","290,1,N,0030,1","06000,1,9,N","018000,1,N,1","+0230,1","+0141,1","10166,1","06,0000,9,1",,,,,,"06,1,+06000,9,02,9",,,"06,99,1,00,1,00,1,99999,9,00,1,06,1",,"01,9",,"120,M,+0245,1","240,N,+0153,1","99999,9,10161,1","0,1,002,1,+004,1",,,"SYN112AAXX  13181 76458 32968 62903 10230 20141 30161 40166 50002 80006 91750 333 10245 20153 30/// 56//0 58004 86270;","Q01  00002PRCP06"
"76458099999","2003-12-13T21:00:00","4","23.2","-106.4166666","4.0","COLONIA JUAN CARRASCO MAZATLAN SIN., MX","FM-12","99999","V020","270,1,N,0030,1","22000,1,9,N","018000,1,N,1","+0245,1","+0161,1","10141,1","06,0000,9,1",,,,,,"02,1,+05400,9,02,9",,,"02,99,1,00,1,00,1,99999,9,00,1,08,1",,"01,9",,,,"99999,9,10136,1","7,1,025,1,+001,1",,,"SYN100AAXX  13211 76458 32968 22703 10245 20161 30136 40141 57025 80008 92047 333 30/// 56//9 58001 82268;","Q01  00002PRCP06"
"76458099999","2003-12-14T00:00:00","4","23.2","-106.4166666","4.0","COLONIA JUAN CARRASCO MAZATLAN SIN., MX","FM-12","99999","V020","320,1,N,0020,1","22000,1,9,N","020000,1,N,1","+0243,1","+0165,1","10129,1","06,0000,9,1","24,0000,9,1",,,,,,,,"01,99,1,00,1,00,1,99999,9,00,1,01,1",,"01,9",,"120,M,+0263,1","180,N,+0152,1","99999,9,10125,1","7,1,011,1,-008,1",,,"SYN124AAXX  14001 76458 32970 13202 10243 20165 30125 40129 57011 80001 92345 333 10263 20152 30/// 50241 56//9 59008 70000 81070;","Q01  00002PRCP06"
"76458099999","2003-12-14T03:00:00","4","23.2","-106.4166666","4.0","COLONIA JUAN CARRASCO MAZATLAN SIN., MX","FM-12","99999","V020","360,1,N,0030,1","22000,1,9,N","008000,1,N,1","+0214,1","+0174,1","10147,1","06,0000,9,1",,,,,,"00,1,+99999,9,99,9",,,"00,99,1,00,1,00,1,99999,9,00,1,00,1",,"01,9",,,,"99999,9,10142,1","2,1,017,1,-008,1",,,"SYN082AAXX  14031 76458 32958 03603 10214 20174 30142 40147 52017 90240 333 30/// 59008;","Q01  00002PRCP06"
"76458099999","2003-12-14T06:00:00","4","23.2","-106.4166666","4.0","COLONIA JUAN CARRASCO MAZATLAN SIN., MX","FM-12","99999","V020","330,1,N,0020,1","22000,1,9,N","008000,1,N,1","+0198,1","+0151,1","10151,1","06,0000,9,1",,,,,,"00,1,+99999,9,99,9",,,"00,99,1,00,1,00,1,99999,9,00,1,00,1","0342,9","01,9",,"240,M,+0263,1","240,N,+0152,1","99999,9,10146,1","3,1,004,1,+999,9",,,"SYN106AAXX  14061 76458 32958 03302 10198 20151 30146 40151 53004 90535 333 10263 20152 30/// 55057 20959 59013;","Q01  00002PRCP06"
"76458099999","2003-12-14T15:00:00","4","23.2","-106.4166666","4.0","COLONIA JUAN CARRASCO MAZATLAN SIN., MX","FM-12","99999","V020","999,9,C,0000,1","22000,1,9,N","015000,1,N,1","+0166,1","+0132,1","10153,1","06,0000,9,1",,,,,,"00,1,+99999,9,99,9",,,"00,99,1,00,1,00,1,99999,9,00,1,00,1",,"01,9",,,,"99999,9,10149,1","2,1,010,1,-010,1",,,"SYN082AAXX  14151 76458 32965 00000 10166 20132 30149 40153 52010 91445 333 30/// 59010;","Q01  00002PRCP06"
"76458099999","2003-12-14T18:00:00","4","23.2","-106.4166666","4.0","COLONIA JUAN CARRASCO MAZATLAN SIN., MX","FM-12","99999","V020","120,1,N,0020,1","22000,1,9,N","018000,1,N,1","+0263,1","+0147,1","10156,1","06,0000,9,1",,,,,,"00,1,+99999,9,99,9",,,"00,99,1,00,1,00,1,99999,9,00,1,00,1",,"01,9",,"120,M,+0265,1","240,N,+0126,1","99999,9,10152,1","0,1,003,1,-009,1",,,"SYN094AAXX  14181 76458 32968 01202 10263 20147 30152 40156 50003 91740 333 10265 20126 30/// 59009;","Q01  00002PRCP06"
"76458099999","2003-12-15T00:00:00","4","23.2","-106.4166666","4.0","COLONIA JUAN CARRASCO MAZATLAN SIN., MX","FM-12","99999","V020","270,1,N,0010,1","22000,1,9,N","020000,1,N,1","+0264,1","+0178,1","10113,1","06,0000,9,1",,,,,,"00,1,+99999,9,99,9",,,"00,99,1,00,1,00,1,99999,9,00,1,00,1",,"01,9",,"120,M,+0288,1","180,N,+0126,1","99999,9,10108,1","7,1,016,1,-017,1",,,"SYN100AAXX  15001 76458 32970 02701 10264 20178 30108 40113 57016 92335 333 10288 20126 30/// 50241 59017;","Q01  00002PRCP06"
"76458099999","2003-12-15T03:00:00","4","23.2","-106.4166666","4.0","COLONIA JUAN CARRASCO MAZATLAN SIN., MX","FM-12","99999","V020","330,1,N,0020,1","22000,1,9,N","008000,1,N,1","+0204,1","+0168,1","10134,1","06,0000,9,1",,,,,,"00,1,+99999,9,99,9",,,"00,99,1,00,1,00,1,99999,9,00,1,00,1",,"01,9",,,,"99999,9,10129,1","1,1,021,1,-013,1",,,"SYN082AAXX  15031 76458 32958 03302 10204 20168 30129 40134 51021 90240 333 30/// 59013;","Q01  00002PRCP06"
"76458099999","2003-12-15T06:00:00","4","23.2","-106.4166666","4.0","COLONIA JUAN CARRASCO MAZATLAN SIN., MX","FM-12","99999","V020","350,1,N,0010,1","22000,1,9,N","008000,1,N,1","+0180,1","+0128,1","10138,1","06,0000,9,1",,,,,,"00,1,+99999,9,99,9",,,"00,99,1,00,1,00,1,99999,9,00,1,00,1","0558,9","01,9",,"240,M,+0285,1","240,N,+0126,1","99999,9,10134,1","2,1,005,1,+999,9",,,"SYN106AAXX  15061 76458 32958 03501 10180 20128 30134 40138 52005 90535 333 10285 20126 30/// 55093 21083 59012;","Q01  00002PRCP06"
"76458099999","2003-12-15T15:00:00","4","23.2","-106.4166666","4.0","COLONIA JUAN CARRASCO MAZATLAN SIN., MX","FM-12","99999","V020","999,9,C,0000,1","06000,1,9,N","012000,1,N,1","+0178,1","+0118,1","10156,1","06,0000,9,1",,,,,,"06,1,+06000,9,02,9",,,"06,99,1,00,1,00,1,99999,9,00,1,06,1",,"01,9",,,,"99999,9,10151,1","9,9,999,9,+002,1",,,"SYN100AAXX  15151 76458 32962 60000 10178 20118 30151 40156 5//// 80006 91450 333 30/// 56//0 58002 86270;","Q01  00002PRCP06"
"76458099999","2003-12-15T21:00:00","4","23.2","-106.4166666","4.0","COLONIA JUAN CARRASCO MAZATLAN SIN., MX","FM-12","99999","V020","180,1,N,0010,1","06600,1,9,N","018000,1,N,1","+0266,1","+0156,1","10129,1","06,0000,9,1",,,,,,"05,1,+06600,9,02,9",,,"05,99,1,00,1,00,1,99999,9,00,1,08,1",,"01,9",,,,"99999,9,10124,1","7,1,024,1,-001,1",,,"SYN100AAXX  15211 76458 32968 51801 10266 20156 30124 40129 57024 80008 92050 333 30/// 56009 59001 85272;","Q01  00002PRCP06"
"76458099999","2003-12-16T00:00:00","4","23.2","-106.4166666","4.0","COLONIA JUAN CARRASCO MAZATLAN SIN., MX","FM-12","99999","V020","250,1,N,0020,1","22000,1,9,N","018000,1,N,1","+0242,1","+0193,1","10128,1","06,0000,9,1",,,,,,,,,"02,99,1,00,1,00,1,99999,9,00,1,06,1",,"01,9",,"120,M,+0288,1","180,N,+0116,1","99999,9,10123,1","4,1,000,1,+015,1",,,"SYN118AAXX  16001 76458 32968 22502 10242 20193 30123 40128 54001 80006 92335 333 10288 20116 30/// 50211 56009 58015 82072;","Q01  00002PRCP06"
"76458099999","2003-12-16T03:00:00","4","23.2","-106.4166666","4.0","COLONIA JUAN CARRASCO MAZATLAN SIN., MX","FM-12","99999","V020","320,1,N,0010,1","22000,1,9,N","008000,1,N,1","+0204,1","+0171,1","10141,1","06,0000,9,1",,,,,,"00,1,+99999,9,99,9",,,"00,99,1,00,1,00,1,99999,9,00,1,00,1",,"01,9",,,,"99999,9,10137,1","2,1,013,1,+008,1",,,"SYN082AAXX  16031 76458 32958 03201 10204 20171 30137 40141 52071 90240 333 30/// 58008;","Q01+000712APC3  Q02  00002PRCP06"
"76458099999","2003-12-16T06:00:00","4","23.2","-106.4166666","4.0","COLONIA JUAN CARRASCO MAZATLAN SIN., MX","FM-12","99999","V020","320,1,N,0010,1","22000,1,9,N","008000,1,N,1","+0180,1","+0134,1","10150,1","06,0000,9,1",,,,,,"00,1,+99999,9,99,9",,,"00,99,1,00,1,00,1,99999,9,00,1,00,1","0438,9","01,9",,"240,M,+0280,1","240,N,+0116,1","99999,9,10145,1","2,1,008,1,+999,9",,,"SYN106AAXX  16061 76458 32958 03201 10180 20134 30145 40150 52008 90535 333 10280 20116 30/// 55073 21052 58011;","Q01  00002PRCP06"
"76458099999","2003-12-16T15:00:00","4","23.2","-106.4166666","4.0","COLONIA JUAN CARRASCO MAZATLAN SIN., MX","FM-12","99999","V020","330,1,N,0010,1","06000,1,9,N","012000,1,N,1","+0166,1","+0087,1","10159,1","06,0000,9,1",,,,,,"06,1,+06000,9,02,9",,,"06,99,1,00,1,00,1,99999,9,00,1,06,1",,"01,9",,,,"99999,9,10154,1","9,9,999,9,+003,1",,,"SYN100AAXX  16151 76458 32962 63301 10166 20087 30154 40159 5//// 80006 91450 333 30/// 56//0 58003 86270;","Q01  00002PRCP06"
"76458099999","2003-12-16T18:00:00","4","23.2","-106.4166666","4.0","COLONIA JUAN CARRASCO MAZATLAN SIN., MX","FM-12","99999","V020","250,1,N,0020,1","06000,1,9,N","015000,1,N,1","+0236,1","+0083,1","10165,1","06,0000,9,1",,,,,,"06,1,+06000,9,02,9",,,"06,99,1,00,1,00,1,99999,9,00,1,06,1",,"01,9",,"120,M,+0260,1","240,N,+0111,1","99999,9,10161,1","1,1,007,1,+008,1",,,"SYN112AAXX  16181 76458 32965 62502 10236 20083 30161 40165 51007 80006 91745 333 10260 20111 30/// 56//0 58008 86270;","Q01  00002PRCP06"
"76458099999","2003-12-16T21:00:00","4","23.2","-106.4166666","4.0","COLONIA JUAN CARRASCO MAZATLAN SIN., MX","FM-12","99999","V020","270,1,N,0010,1","06600,1,9,N","015000,1,N,1","+0250,1","+0136,1","10143,1","06,0000,9,1",,,,,,"06,1,+06600,9,02,9",,,"06,99,1,00,1,00,1,99999,9,00,1,08,1",,"01,9",,,,"99999,9,10138,1","7,1,023,1,+014,1",,,"SYN100AAXX  16211 76458 32965 62701 10250 20136 30138 40143 57023 80008 92047 333 30/// 56009 58014 86272;","Q01  00002PRCP06"
"76458099999","2003-12-17T00:00:00","4","23.2","-106.4166666","4.0","COLONIA JUAN CARRASCO MAZATLAN SIN., MX","FM-12","99999","V020","300,1,N,0020,1","99999,9,9,N","015000,1,N,1","+0226,1","+0155,1","10131,1","06,0000,9,1",,,,,,,,,"07,99,1,00,1,00,1,99999,9,00,1,08,1",,"01,9",,"120,M,+0275,1","180,N,+0111,1","99999,9,10126,1","7,1,012,1,+003,1",,,"SYN118AAXX  17001 76458 32965 73002 10226 20155 30126 40131 57012 80008 92340 333 10275 20111 30/// 50191 56009 58003 87272;","Q01  00002PRCP06"
"76458099999","2003-12-17T03:00:00","4","23.2","-106.4166666","4.0","COLONIA JUAN CARRASCO MAZATLAN SIN., MX","FM-12","99999","V020","300,1,N,0020,1","22000,1,9,N","010000,1,N,1","+0201,1","+0162,1","10142,1","06,0000,9,1",,,,,,"01,1,+05400,9,02,9",,,"01,99,1,00,1,00,1,99999,9,00,1,08,1",,"01,9",,,,"99999,9,10138,1","2,1,011,1,+001,1",,,"SYN100AAXX  17031 76458 32960 13002 10201 20162 30138 40142 52011 80008 90245 333 30/// 56//9 58001 81268;","Q01  00002PRCP06"
"76458099999","2003-12-17T06:00:00","4","23.2","-106.4166666","4.0","COLONIA JUAN CARRASCO MAZATLAN SIN., MX","FM-12","99999","V020","320,1,N,0020,1","22000,1,9,N","010000,1,N,1","+0184,1","+0124,1","10146,1","06,0000,9,1",,,,,,"00,1,+99999,9,99,9",,,"00,99,1,00,1,00,1,99999,9,00,1,00,1","0342,9","01,9",,"240,M,+0270,1","240,N,+0111,1","99999,9,10141,1","2,1,003,1,+999,9",,,"SYN106AAXX  17061 76458 32960 03202 10184 20124 30141 40146 52003 90540 333 10270 20111 30/// 55057 20805 59004;","Q01  00002PRCP06"
"76458099999","2003-12-17T15:00:00","4","23.2","-106.4166666","4.0","COLONIA JUAN CARRASCO MAZATLAN SIN., MX","FM-12","99999","V020","999,9,C,0000,1","22000,1,9,N","012000,1,N,1","+0174,1","+0089,1","10156,1","06,0000,9,1",,,,,,"00,1,+99999,9,99,9",,,"00,99,1,00,1,00,1,99999,9,00,1,00,1",,"01,9",,,,"99999,9,10151,1","9,9,999,9,-003,1",,,"SYN082AAXX  17151 76458 32962 00000 10174 20089 30151 40156 5//// 91448 333 30/// 59003;","Q01  00002PRCP06"
"76458099999","2003-12-17T18:00:00","4","23.2","-106.4166666","4.0","COLONIA JUAN CARRASCO MAZATLAN SIN., MX","FM-12","99999","V020","240,1,N,0010,1","22000,1,9,N","013000,1,N,1","+0258,1","+0083,1","10165,1","06,0000,9,1",,,,,,"00,1,+99999,9,99,9",,,"00,99,1,00,1,00,1,99999,9,00,1,00,1",,"01,9",,"120,M,+0285,1","240,N,+0130,1","99999,9,10160,1","1,1,009,1,-001,1",,,"SYN094AAXX  17181 76458 32963 02401 10258 20083 30160 40165 51009 91745 333 10285 20130 30/// 59001;","Q01  00002PRCP06"
"76458099999","2003-12-17T21:00:00","4","23.2","-106.4166666","4.0","COLONIA JUAN CARRASCO MAZATLAN SIN., MX","FM-12","99999","V020","280,1,N,0020,1","22000,1,9,N","018000,1,N,1","+0253,1","+0142,1","10143,1","06,0000,9,1",,,,,,"00,1,+99999,9,99,9",,,"00,99,1,00,1,00,1,99999,9,00,1,00,1",,"01,9",,,,"99999,9,10138,1","7,1,022,1,+000,1",,,"SYN082AAXX  17211 76458 32968 02802 10253 20142 30138 40143 57022 92047 333 30/// 58000;","Q01  00002PRCP06"
"76458099999","2003-12-18T00:00:00","4","23.2","-106.4166666","4.0","COLONIA JUAN CARRASCO MAZATLAN SIN., MX","FM-12","99999","V020","310,1,N,0020,1","22000,1,9,N","018000,1,N,1","+0233,1","+0151,1","10140,1","06,0000,9,1","24,0000,9,1",,,,,,,,"01,99,1,00,1,00,1,99999,9,00,1,01,1",,"01,9",,"120,M,+0284,1","180,N,+0130,1","99999,9,10135,1","5,1,003,1,+009,1",,,"SYN124AAXX  18001 76458 32968 13102 10233 20151 30135 40140 55003 80001 92348 333 10284 20130 30/// 50361 56//9 58009 70000 81070;","Q01  00002PRCP06"
"76458099999","2003-12-18T03:00:00","4","23.2","-106.4166666","4.0","COLONIA JUAN CARRASCO MAZATLAN SIN., MX","FM-12","99999","V020","330,1,N,0020,1","22000,1,9,N","016000,1,N,1","+0204,1","+0157,1","10151,1","06,0000,9,1",,,,,,"00,1,+99999,9,99,9",,,"00,99,1,00,1,00,1,99999,9,00,1,00,1",,"01,9",,,,"99999,9,10146,1","2,1,011,1,+009,1",,,"SYN082AAXX  18031 76458 32966 03302 10204 20157 30146 40151 52011 90257 333 30/// 58009;","Q01  00002PRCP06"
"76458099999","2003-12-18T09:00:00","4","23.2","-106.4166666","4.0","COLONIA JUAN CARRASCO MAZATLAN SIN., MX","FM-12","99999","V020","330,1,N,0010,1","22000,1,9,N","008000,1,N,1","+0168,1","+0090,1","10151,1","06,0000,9,1",,,,,,"00,1,+99999,9,99,9",,,"00,99,1,00,1,00,1,99999,9,00,1,00,1",,"01,9",,,,"99999,9,10147,1","4,1,000,1,+999,9",,,"SYN082AAXX  18091 76458 32958 03301 10168 20090 30147 40151 54001 90840 333 30/// 58///;","Q01  00002PRCP06"
"76458099999","2003-12-18T12:00:00","4","23.2","-106.4166666","4.0","COLONIA JUAN CARRASCO MAZATLAN SIN., MX","FM-12","99999","V020","999,9,C,0000,1","22000,1,9,N","008000,1,N,1","+0154,1","+0082,1","10141,1","06,0000,9,1","24,0000,9,1",,,,,"00,1,+99999,9,99,9",,,"00,99,1,00,1,00,1,99999,9,00,1,00,1",,"01,9","999,+0100,9","999,M,+0284,1","120,N,+0131,1","99999,9,10137,1","8,1,010,1,+999,9",,,"SYN100AAXX  18121 76458 32958 00000 10154 20082 30137 40141 58010 91135 333 10284 20131 30010 58/// 70000;","Q01  00002PRCP06Q02  00002PRCP24"
"76458099999","2003-12-18T15:00:00","4","23.2","-106.4166666","4.0","COLONIA JUAN CARRASCO MAZATLAN SIN., MX","FM-12","99999","V020","999,9,C,0000,1","22000,1,9,N","012000,1,N,1","+0174,1","+0071,1","10154,1","06,0000,9,1",,,,,,"00,1,+99999,9,99,9",,,"00,99,1,00,1,00,1,99999,9,00,1,00,1",,"01,9",,,,"99999,9,10150,1","9,9,999,9,-001,1",,,"SYN082AAXX  18151 76458 32962 00000 10174 20071 30150 40154 5//// 91450 333 30/// 59001;","Q01  00002PRCP06"
"76458099999","2003-12-18T18:00:00","4","23.2","-106.4166666","4.0","COLONIA JUAN CARRASCO MAZATLAN SIN., MX","FM-12","99999","V020","270,1,N,0020,1","22000,1,9,N","015000,1,N,1","+0236,1","+0143,1","10163,1","06,0000,9,1",,,,,,"00,1,+99999,9,99,9",,,"00,99,1,00,1,00,1,99999,9,00,1,00,1",,"01,9",,"120,M,+0260,1","240,N,+0129,1","99999,9,10158,1","0,1,003,1,-002,1",,,"SYN094AAXX  18181 76458 32965 02702 10236 20143 30158 40163 50003 91750 333 10260 20129 30/// 59002;","Q01  00002PRCP06"
"76458099999","2003-12-18T21:00:00","4","23.2","-106.4166666","4.0","COLONIA JUAN CARRASCO MAZATLAN SIN., MX","FM-12","99999","V020","270,1,N,0030,1","22000,1,9,N","015000,1,N,1","+0255,1","+0152,1","10141,1","06,0000,9,1",,,,,,"00,1,+99999,9,99,9",,,"00,99,1,00,1,00,1,99999,9,00,1,00,1",,"01,9",,,,"99999,9,10136,1","7,1,022,1,-002,1",,,"SYN082AAXX  18211 76458 32965 02703 10255 20152 30136 40141 57022 92048 333 30/// 59002;","Q01  00002PRCP06"
"76458099999","2003-12-19T00:00:00","4","23.2","-106.4166666","4.0","COLONIA JUAN CARRASCO MAZATLAN SIN., MX","FM-12","99999","V020","300,1,N,0030,1","22000,1,9,N","018000,1,N,1","+0236,1","+0163,1","10140,1","06,0000,9,1","24,0000,9,1",,,,,"00,1,+99999,9,99,9",,,"00,99,1,00,1,00,1,99999,9,00,1,00,1",,"01,9",,"120,M,+0273,1","180,N,+0129,1","99999,9,10136,1","0,1,000,1,+001,1",,,"SYN106AAXX  19001 76458 32968 03003 10236 20163 30136 40140 50000 92340 333 10273 20129 30/// 50361 58001 70000;","Q01  00002PRCP06Q02  00002PRCP24"
"76458099999","2003-12-19T03:00:00","4","23.2","-106.4166666","4.0","COLONIA JUAN CARRASCO MAZATLAN SIN., MX","FM-12","99999","V020","350,1,N,0010,1","22000,1,9,N","016000,1,N,1","+0201,1","+0169,1","10150,1","06,0000,9,1",,,,,,"00,1,+99999,9,99,9",,,"00,99,1,00,1,00,1,99999,9,00,1,00,1",,"01,9",,,,"99999,9,10145,1","2,1,009,1,-001,1",,,"SYN082AAXX  19031 76458 32966 03501 10201 20169 30145 40150 52009 90240 333 30/// 59001;","Q01  00002PRCP06"
"76458099999","2003-12-19T09:00:00","4","23.2","-106.4166666","4.0","COLONIA JUAN CARRASCO MAZATLAN SIN., MX","FM-12","99999","V020","999,9,C,0000,1","22000,1,9,N","008000,1,N,1","+0168,1","+0142,1","10158,1","06,0000,9,1",,,,,,"00,1,+99999,9,99,9",,,"00,99,1,00,1,00,1,99999,9,00,1,00,1",,,,,,"99999,9,10154,1","3,1,003,1,+007,1",,,"SYN076AAXX  19091 76458 32958 00000 10168 20142 30154 40158 53003 90840 333 58007;","Q01  00002PRCP06"
"76458099999","2003-12-19T12:00:00","4","23.2","-106.4166666","4.0","COLONIA JUAN CARRASCO MAZATLAN SIN., MX","FM-12","99999","V020","999,9,C,0000,1","22000,1,9,N","008000,1,N,1","+0154,1","+0120,1","10161,1","06,0000,9,1","24,0000,9,1",,,,,"00,1,+99999,9,99,9",,,"00,99,1,00,1,00,1,99999,9,00,1,00,1",,"01,9","999,+0120,9","999,M,+0273,1","120,N,+0135,1","99999,9,10156,1","3,1,002,1,+019,1",,,"SYN100AAXX  19121 76458 32958 00000 10154 20120 30156 40161 53002 91135 333 10273 20135 30012 58019 70000;","Q01  00002PRCP06Q02  00002PRCP24"
"76458099999","2003-12-19T15:00:00","4","23.2","-106.4166666","4.0","COLONIA JUAN CARRASCO MAZATLAN SIN., MX","FM-12","99999","V020","999,9,C,0000,1","22000,1,9,N","013000,1,N,1","+0170,1","+0137,1","10178,1","06,0000,9,1",,,,,,"00,1,+99999,9,99,9",,,"00,99,1,00,1,00,1,99999,9,00,1,00,1",,"01,9",,,,"99999,9,10173,1","2,1,017,1,+007,1",,,"SYN082AAXX  19151 76458 32963 00000 10170 20137 30173 40178 52017 91450 333 30/// 58007;","Q01  00002PRCP06"
"76458099999","2003-12-20T00:00:00","4","23.2","-106.4166666","4.0","COLONIA JUAN CARRASCO MAZATLAN SIN., MX","FM-12","99999","V020","280,1,N,0020,1","22000,1,9,N","008000,1,N,1","+0246,1","+0187,1","10138,1","06,0000,9,1","24,0000,9,1",,,,,"00,1,+99999,9,99,9",,,"00,99,1,00,1,00,1,99999,9,00,1,00,1",,"01,9",,"120,M,+0305,1","180,N,+0123,1","99999,9,10134,1","5,1,003,1,-002,1",,,"SYN106AAXX  20001 76458 32958 02802 10246 20187 30134 40138 55003 92340 333 10305 20123 30/// 50361 59002 70000;","Q01  00002PRCP06Q02  00002PRCP24"
"76458099999","2003-12-20T03:00:00","4","23.2","-106.4166666","4.0","COLONIA JUAN CARRASCO MAZATLAN SIN., MX","FM-12","99999","V020","330,1,N,0020,1","22000,1,9,N","010000,1,N,1","+0214,1","+0182,1","10157,1","06,0000,9,1",,,,,,"00,1,+99999,9,99,9",,,"00,99,1,00,1,00,1,99999,9,00,1,00,1",,"01,9",,,,"99999,9,10152,1","2,1,018,1,+007,1",,,"SYN082AAXX  20031 76458 32960 03302 10214 20182 30152 40157 52018 90250 333 30/// 58007;","Q01  00002PRCP06"
"76458099999","2003-12-20T15:00:00","4","23.2","-106.4166666","4.0","COLONIA JUAN CARRASCO MAZATLAN SIN., MX","FM-12","99999","V020","999,9,C,0000,1","22000,1,9,N","012000,1,N,1","+0195,1","+0135,1","10151,1","06,0000,9,1",,,,,,"02,1,+06000,9,02,9",,,"02,99,1,00,1,00,1,99999,9,00,1,02,1",,"01,9",,,,"99999,9,10146,1","9,9,999,9,-027,1",,,"SYN100AAXX  20151 76458 32962 20000 10195 20135 30146 40151 5//// 80002 91450 333 30/// 56//0 59027 82270;","Q01  00002PRCP06"
"76458099999","2003-12-20T21:00:00","4","23.2","-106.4166666","4.0","COLONIA JUAN CARRASCO MAZATLAN SIN., MX","FM-12","99999","V020","250,1,N,0030,1","05400,1,9,N","012000,1,N,1","+0251,1","+0202,1","10145,1","06,0000,9,1",,,,,,"07,1,+05400,9,02,9",,,"07,99,1,00,1,00,1,99999,9,00,1,07,1",,"01,9",,,,"99999,9,10140,1","7,1,013,1,+003,1",,,"SYN100AAXX  20211 76458 32962 72503 10251 20202 30140 40145 57013 80007 92045 333 30/// 56//9 58003 87268;","Q01  00002PRCP06"
"76458099999","2003-12-21T00:00:00","4","23.2","-106.4166666","4.0","COLONIA JUAN CARRASCO MAZATLAN SIN., MX","FM-12","99999","V020","270,1,N,0030,1","09000,1,9,N","015000,1,N,1","+0251,1","+0147,1","10140,1","06,0000,9,1","24,0000,9,1",,,,,"01,1,+04200,9,03,9",,,"07,99,1,01,1,00,1,02250,1,03,1,08,1",,"01,9",,"120,M,+0288,1","180,N,+0130,1","99999,9,10136,1","7,1,004,1,+002,1",,,"SYN130AAXX  21001 76458 32865 72703 10251 20147 30136 40140 57004 81038 92345 333 10288 20130 30/// 50231 56/99 58002 70000 81364 86268;","Q01  00002PRCP06"
"76458099999","2003-12-21T03:00:00","4","23.2","-106.4166666","4.0","COLONIA JUAN CARRASCO MAZATLAN SIN., MX","FM-12","99999","V020","999,9,C,0000,1","22000,1,9,N","016000,1,N,1","+0207,1","+0194,1","10149,1","06,0000,9,1",,,,,,"00,1,+99999,9,99,9",,,"00,99,1,00,1,00,1,99999,9,00,1,00,1",,"01,9",,,,"99999,9,10145,1","2,1,009,1,-003,1",,,"SYN082AAXX  21031 76458 32966 00000 10207 20194 30145 40149 52009 90254 333 30/// 59003;","Q01  00002PRCP06"
"76458099999","2003-12-21T06:00:00","4","23.2","-106.4166666","4.0","COLONIA JUAN CARRASCO MAZATLAN SIN., MX","FM-12","99999","V020","130,1,N,0010,1","22000,1,9,N","016000,1,N,1","+0185,1","+0165,1","10153,1","06,0000,9,1",,,,,,"00,1,+99999,9,99,9",,,"00,99,1,00,1,00,1,99999,9,00,1,00,1","0252,9","01,9",,"240,M,+0288,1","240,N,+0130,1","99999,9,10148,1","1,1,004,1,+999,9",,,"SYN106AAXX  21061 76458 32966 01301 10185 20165 30148 40153 51004 90550 333 10288 20130 30/// 55042 20495 59008;","Q01  00002PRCP06"
"76458099999","2003-12-21T09:00:00","4","23.2","-106.4166666","4.0","COLONIA JUAN CARRASCO MAZATLAN SIN., MX","FM-12","99999","V020","999,9,C,0000,1","22000,1,9,N","016000,1,N,1","+0161,1","+0135,1","10151,1","06,0000,9,1",,,,,,"00,1,+99999,9,99,9",,,"00,99,1,00,1,00,1,99999,9,00,1,00,1",,"01,9",,,,"99999,9,10147,1","4,1,000,1,+999,9",,,"SYN082AAXX  21091 76458 32966 00000 10161 20135 30147 40151 54002 90850 333 30/// 58///;","Q01  00002PRCP06"
"76458099999","2003-12-21T12:00:00","4","23.2","-106.4166666","4.0","COLONIA JUAN CARRASCO MAZATLAN SIN., MX","FM-12","99999","V020","999,9,C,0000,1","22000,1,9,N","016000,1,N,1","+0148,1","+0130,1","10155,1","06,0000,9,1",,,,,,"00,1,+99999,9,99,9",,,"00,99,1,00,1,00,1,99999,9,00,1,00,1",,"01,9",,"999,M,+0288,1","120,N,+0128,1","99999,9,10151,1","2,1,004,1,+999,9",,,"SYN106AAXX  21121 76458 32966 00000 10148 20130 30151 40155 52004 91144 333 10288 20128 30/// 30011 58/// 70000;","Q01  00002PRCP06"
"76458099999","2003-12-21T15:00:00","4","23.2","-106.4166666","4.0","COLONIA JUAN CARRASCO MAZATLAN SIN., MX","FM-12","99999","V020","999,9,C,0000,1","22000,1,9,N","015000,1,N,1","+0173,1","+0118,1","10167,1","06,0000,9,1",,,,,,"00,1,+99999,9,99,9",,,"00,99,1,00,1,00,1,99999,9,00,1,00,1",,"01,9",,,,"99999,9,10162,1","3,1,011,1,+016,1",,,"SYN082AAXX  21151 76458 32965 00000 10173 20118 30162 40167 53011 91445 333 30/// 58016;","Q01  00002PRCP06"
"76458099999","2003-12-21T18:00:00","4","23.2","-106.4166666","4.0","COLONIA JUAN CARRASCO MAZATLAN SIN., MX","FM-12","99999","V020","170,1,N,0030,1","22000,1,9,N","018000,1,N,1","+0249,1","+0186,1","10173,1","06,0000,9,1",,,,,,"00,1,+99999,9,99,9",,,"00,99,1,00,1,00,1,99999,9,00,1,00,1",,"01,9",,"120,M,+0265,1","240,N,+0125,1","99999,9,10169,1","0,1,007,1,+016,1",,,"SYN094AAXX  21181 76458 32968 01703 10249 20186 30169 40173 50007 91745 333 10265 20125 30/// 58016;","Q01  00002PRCP06"
"76458099999","2003-12-21T21:00:00","4","23.2","-106.4166666","4.0","COLONIA JUAN CARRASCO MAZATLAN SIN., MX","FM-12","99999","V020","240,1,N,0020,1","22000,1,9,N","018000,1,N,1","+0260,1","+0200,1","10147,1","06,0000,9,1",,,,,,"00,1,+99999,9,99,9",,,"00,99,1,00,1,00,1,99999,9,00,1,00,1",,"01,9",,,,"99999,9,10142,1","7,1,027,1,+006,1",,,"SYN082AAXX  21211 76458 32968 02402 10260 20200 30142 40147 57027 92040 333 30/// 58006;","Q01  00002PRCP06"
"76458099999","2003-12-22T00:00:00","4","23.2","-106.4166666","4.0","COLONIA JUAN CARRASCO MAZATLAN SIN., MX","FM-12","99999","V020","270,1,N,0020,1","22000,1,9,N","008000,1,N,1","+0246,1","+0206,1","10142,1","06,0000,9,1","24,0000,9,1",,,,,"00,1,+99999,9,99,9",,,"00,99,1,00,1,00,1,99999,9,00,1,00,1",,"01,9",,"120,M,+0280,1","180,N,+0125,1","99999,9,10137,1","5,1,004,1,+002,1",,,"SYN106AAXX  22001 76458 32958 02702 10246 20206 30137 40142 55004 92340 333 10280 20125 30/// 50231 58002 70000;","Q01  00002PRCP06Q02  00002PRCP24"
"76458099999","2003-12-22T03:00:00","4","23.2","-106.4166666","4.0","COLONIA JUAN CARRASCO MAZATLAN SIN., MX","FM-12","99999","V020","340,1,N,0020,1","22000,1,9,N","016000,1,N,1","+0221,1","+0199,1","10151,1","06,0000,9,1",,,,,,"02,1,+00270,9,06,9",,,"02,99,1,02,1,04,1,00250,1,00,1,00,1",,"01,9",,,,"99999,9,10146,1","2,1,008,1,+001,1",,,"SYN094AAXX  22031 76458 32366 23402 10221 20199 30146 40151 52008 82400 90250 333 30/// 58001 82609;","Q01  00002PRCP06"
"76458099999","2003-12-22T15:00:00","4","23.2","-106.4166666","4.0","COLONIA JUAN CARRASCO MAZATLAN SIN., MX","FM-12","99999","V020","999,9,C,0000,1","00030,1,9,N","000200,1,N,1","+0186,1","+0181,1","10159,1","06,0000,9,1",,,,"4,1,03,1","0,1,03,1","09,1,+99999,9,99,9",,,"09,99,1,09,1,99,9,99999,9,99,9,99,9",,"01,9",,,,"99999,9,10154,1","9,9,999,9,-008,1","05,1",,"SYN094AAXX  22151 76458 31902 90000 10186 20181 30154 40159 5//// 70540 89000 91450 333 30/// 59008;","Q01  00002PRCP06"
"76458099999","2003-12-22T18:00:00","4","23.2","-106.4166666","4.0","COLONIA JUAN CARRASCO MAZATLAN SIN., MX","FM-12","99999","V020","270,1,N,0040,1","22000,1,9,N","012000,1,N,1","+0226,1","+0181,1","10158,1","06,0000,9,1",,,,,,"01,1,+00540,9,08,9",,,"01,99,1,01,1,01,1,00800,1,00,1,00,1",,"01,9",,"120,M,+0247,1","240,N,+0158,1","99999,9,10153,1","0,1,001,1,+016,1",,,"SYN112AAXX  22181 76458 32562 12704 10226 20181 30153 40158 50001 81100 91750 333 10247 20158 30/// 563// 58016 81818;","Q01  00002PRCP06"
"76458099999","2003-12-22T21:00:00","4","23.2","-106.4166666","4.0","COLONIA JUAN CARRASCO MAZATLAN SIN., MX","FM-12","99999","V020","250,1,N,0030,1","22000,1,9,N","015000,1,N,1","+0246,1","+0189,1","10127,1","06,0000,9,1",,,,,,"00,1,+99999,9,99,9",,,"00,99,1,00,1,00,1,99999,9,00,1,00,1",,"01,9",,,,"99999,9,10123,1","0,1,030,1,-019,1",,,"SYN082AAXX  22211 76458 32965 02503 10246 20189 30123 40127 50030 92045 333 30/// 59019;","Q01  00002PRCP06"
"76458099999","2003-12-23T00:00:00","4","23.2","-106.4166666","4.0","COLONIA JUAN CARRASCO MAZATLAN SIN., MX","FM-12","99999","V020","300,1,N,0040,1","22000,1,9,N","020000,1,N,1","+0236,1","+0166,1","10115,1","06,0000,9,1","24,0000,9,1",,,,,"00,1,+99999,9,99,9",,,"00,99,1,00,1,00,1,99999,9,00,1,00,1",,"01,9",,"120,M,+0265,1","180,N,+0158,1","99999,9,10111,1","7,1,012,1,-027,1",,,"SYN106AAXX  23001 76458 32970 03004 10236 20166 30111 40115 57012 92355 333 10265 20158 30/// 50291 59027 70000;","Q01  00002PRCP06Q02  00002PRCP24"
"76458099999","2003-12-23T03:00:00","4","23.2","-106.4166666","4.0","COLONIA JUAN CARRASCO MAZATLAN SIN., MX","FM-12","99999","V020","320,1,N,0020,1","22000,1,9,N","008000,1,N,1","+0220,1","+0181,1","10117,1","06,0000,9,1",,,,,,"00,1,+99999,9,99,9",,,"00,99,1,00,1,00,1,99999,9,00,1,00,1",,"01,9",,,,"99999,9,10113,1","2,1,002,1,-033,1",,,"SYN082AAXX  23031 76458 32958 03202 10220 20181 30113 40117 52002 90240 333 30/// 59033;","Q01  00002PRCP06"
"76458099999","2003-12-23T15:00:00","4","23.2","-106.4166666","4.0","COLONIA JUAN CARRASCO MAZATLAN SIN., MX","FM-12","99999","V020","130,1,N,0010,1","22000,1,9,N","010000,1,N,1","+0184,1","+0162,1","10138,1","06,0000,9,1",,,,,,"02,1,+06000,9,00,9",,,"02,99,1,00,1,00,1,99999,9,00,1,02,1",,"01,9",,,,"99999,9,10134,1","9,9,999,9,+020,1",,,"SYN100AAXX  23151 76458 32960 21301 10184 20162 30134 40138 5//// 80002 91450 333 30/// 56//0 58020 82070;","Q01  00002PRCP06"
"76458099999","2003-12-23T18:00:00","4","23.2","-106.4166666","4.0","COLONIA JUAN CARRASCO MAZATLAN SIN., MX","FM-12","99999","V020","270,1,N,0010,1","22000,1,9,N","015000,1,N,1","+0234,1","+0167,1","10138,1","06,0000,9,1",,,,,,"01,1,+06000,9,02,9",,,"01,99,1,00,1,00,1,99999,9,00,1,08,1",,"01,9",,"120,M,+0258,1","240,N,+0131,1","99999,9,10133,1","0,1,001,1,-020,1",,,"SYN112AAXX  23181 76458 32965 12701 10234 20167 30133 40138 50001 80008 91748 333 10258 20131 30/// 56//0 59020 81270;","Q01  00002PRCP06"
"76458099999","2003-12-23T21:00:00","4","23.2","-106.4166666","4.0","COLONIA JUAN CARRASCO MAZATLAN SIN., MX","FM-12","99999","V020","220,1,N,0030,1","22000,1,9,N","015000,1,N,1","+0239,1","+0165,1","10111,1","06,0000,9,1",,,,,,"01,1,+06000,9,00,9",,,"01,99,1,00,1,00,1,99999,9,00,1,06,1",,"01,9",,,,"99999,9,10106,1","7,1,027,1,-017,1",,,"SYN100AAXX  23211 76458 32965 12203 10239 20165 30106 40111 57027 80006 92048 333 30/// 56//9 59017 81070;","Q01  00002PRCP06"
"76458099999","2003-12-24T00:00:00","4","23.2","-106.4166666","4.0","COLONIA JUAN CARRASCO MAZATLAN SIN., MX","FM-12","99999","V020","280,1,N,0030,1","22000,1,9,N","018000,1,N,1","+0231,1","+0171,1","10105,1","06,0000,9,1","24,0000,9,1",,,,,,,,"02,99,1,00,1,00,1,99999,9,00,1,06,1",,"01,9",,"120,M,+0262,1","180,N,+0131,1","99999,9,10100,1","0,1,006,1,-011,1",,,"SYN124AAXX  24001 76458 32968 22803 10231 20171 30100 40105 50006 80006 92345 333 10262 20131 30/// 50271 56//9 59011 70000 82070;","Q01  00002PRCP06"
"76458099999","2003-12-24T03:00:00","4","23.2","-106.4166666","4.0","COLONIA JUAN CARRASCO MAZATLAN SIN., MX","FM-12","99999","V020","300,1,N,0020,1","22000,1,9,N","008000,1,N,1","+0216,1","+0180,1","10121,1","06,0000,9,1",,,,,,"03,1,+06000,9,00,9",,,"03,99,1,00,1,99,9,99999,9,99,9,01,1",,"01,9",,,,"99999,9,10116,1","2,1,016,1,+003,1",,,"SYN094AAXX  24031 76458 32958 33002 10216 20180 30116 40121 52016 80//1 90245 333 30/// 58003 83070;","Q01  00002PRCP06"
"76458099999","2003-12-24T15:00:00","4","23.2","-106.4166666","4.0","COLONIA JUAN CARRASCO MAZATLAN SIN., MX","FM-12","99999","V020","180,1,N,0010,1","99999,9,9,N","008000,1,N,1","+0204,1","+0166,1","10140,1","06,0000,9,1",,,,,,"02,1,+02400,9,03,9",,,"07,99,1,02,1,00,1,99999,9,03,1,08,1",,"01,9",,,,"99999,9,10135,1","9,9,999,9,+001,1",,,"SYN106AAXX  24151 76458 32958 71801 10204 20166 30135 40140 5//// 82038 91448 333 30/// 56/00 58001 82358 85270;","Q01  00002PRCP06"
"76458099999","2003-12-24T21:00:00","4","23.2","-106.4166666","4.0","COLONIA JUAN CARRASCO MAZATLAN SIN., MX","FM-12","99999","V020","150,1,N,0020,1","04200,1,9,N","015000,1,N,1","+0253,1","+0182,1","10120,1","06,0000,9,1",,,,,,"07,1,+04200,9,04,9",,,"08,99,1,99,9,00,1,02250,1,02,1,00,1",,"01,9",,,,"99999,9,10115,1","7,1,024,1,+009,1",,,"SYN106AAXX  24211 76458 32865 81502 10253 20182 30115 40120 57024 87020 92045 333 30/// 56/9/ 58009 87464 81362;","Q01+000072SCOTLCQ02  00002PRCP06"
"76458099999","2003-12-25T00:00:00","4","23.2","-106.4166666","4.0","COLONIA JUAN CARRASCO MAZATLAN SIN., MX","FM-12","99999","V020","300,1,N,0030,1","22000,1,9,N","015000,1,N,1","+0238,1","+0172,1","10125,1","06,0000,9,1","24,0000,9,1",,,,,"03,1,+04200,9,03,9",,,"05,99,1,03,1,00,1,02250,1,03,1,08,1",,"01,9",,"120,M,+0261,1","180,N,+0160,1","99999,9,10120,1","1,1,005,1,+020,1",,,"SYN130AAXX  25001 76458 32865 53003 10238 20172 30120 40125 51005 83038 92345 333 10261 20160 30/// 50171 56/99 58020 70000 83364 82268;","Q01  00002PRCP06"
"76458099999","2003-12-25T03:00:00","4","23.2","-106.4166666","4.0","COLONIA JUAN CARRASCO MAZATLAN SIN., MX","FM-12","99999","V020","320,1,N,0030,1","22000,1,9,N","015000,1,N,1","+0219,1","+0168,1","10139,1","06,0000,9,1",,,,,,"00,1,+99999,9,99,9",,,"00,99,1,00,1,00,1,99999,9,00,1,00,1",,"01,9",,,,"99999,9,10135,1","2,1,014,1,+018,1",,,"SYN082AAXX  25031 76458 32965 03203 10219 20168 30135 40139 52014 90240 333 30/// 58018;","Q01  00002PRCP06"
"76458099999","2003-12-25T06:00:00","4","23.2","-106.4166666","4.0","COLONIA JUAN CARRASCO MAZATLAN SIN., MX","FM-12","99999","V020","320,1,N,0010,1","22000,1,9,N","015000,1,N,1","+0188,1","+0143,1","10142,1","06,0000,9,1",,,,,,"00,1,+99999,9,99,9",,,"00,99,1,00,1,00,1,99999,9,00,1,00,1","0042,9","01,9",,"240,M,+0261,1","240,N,+0160,1","99999,9,10137,1","0,1,003,1,+999,9",,,"SYN106AAXX  25061 76458 32965 03201 10188 20143 30137 40142 50003 90550 333 10261 20160 30/// 55007 20456 58010;","Q01  00002PRCP06"
"76458099999","2003-12-25T09:00:00","4","23.2","-106.4166666","4.0","COLONIA JUAN CARRASCO MAZATLAN SIN., MX","FM-12","99999","V020","330,1,N,0010,1","22000,1,9,N","015000,1,N,1","+0167,1","+0140,1","10141,1","06,0000,9,1",,,,,,"00,1,+99999,9,99,9",,,"00,99,1,00,1,00,1,99999,9,00,1,00,1",,"01,9",,,,"99999,9,10137,1","1,1,001,1,+999,9",,,"SYN082AAXX  25091 76458 32965 03301 10167 20140 30137 40141 51001 90850 333 30/// 58///;","Q01  00002PRCP06"
"76458099999","2003-12-25T12:00:00","4","23.2","-106.4166666","4.0","COLONIA JUAN CARRASCO MAZATLAN SIN., MX","FM-12","99999","V020","999,9,C,0000,1","22000,1,9,N","015000,1,N,1","+0169,1","+0152,1","10143,1","06,0000,9,1",,,,,,"00,1,+99999,9,99,9",,,"00,99,1,00,1,00,1,99999,9,00,1,00,1",,"01,9",,"999,M,+0261,1","120,N,+0146,1","99999,9,10139,1","2,1,002,1,+999,9",,,"SYN106AAXX  25121 76458 32965 00000 10169 20152 30139 40143 52002 91140 333 10261 20146 30/// 30013 58/// 70000;","Q01  00002PRCP06"
"76458099999","2003-12-25T15:00:00","4","23.2","-106.4166666","4.0","COLONIA JUAN CARRASCO MAZATLAN SIN., MX","FM-12","99999","V020","999,9,C,0000,1","22000,1,9,N","015000,1,N,1","+0180,1","+0138,1","10160,1","06,0000,9,1",,,,,,"00,1,+99999,9,99,9",,,"00,99,1,00,1,00,1,99999,9,00,1,00,1",,"01,9",,,,"99999,9,10155,1","2,1,016,1,+020,1",,,"SYN082AAXX  25150 76458 32965 00000 10180 20138 30155 40160 52016 91445 333 30/// 58020;","Q01  00002PRCP06"
"76458099999","2003-12-25T18:00:00","4","23.2","-106.4166666","4.0","COLONIA JUAN CARRASCO MAZATLAN SIN., MX","FM-12","99999","V020","250,1,N,0030,1","22000,1,9,N","014000,1,N,1","+0232,1","+0168,1","10166,1","06,0000,9,1",,,,,,"00,1,+99999,9,99,9",,,"00,99,1,00,1,00,1,99999,9,00,1,00,1",,"01,9",,"120,M,+0252,1","240,N,+0140,1","99999,9,10161,1","0,1,006,1,+022,1",,,"SYN094AAXX  25181 76458 32964 02503 10232 20168 30161 40166 50006 91740 333 10252 20140 30/// 58022;","Q01  00002PRCP06"
"76458099999","2003-12-25T21:00:00","4","23.2","-106.4166666","4.0","COLONIA JUAN CARRASCO MAZATLAN SIN., MX","FM-12","99999","V020","240,1,N,0040,1","22000,1,9,N","018000,1,N,1","+0241,1","+0173,1","10141,1","06,0000,9,1",,,,,,"00,1,+99999,9,99,9",,,"00,99,1,00,1,00,1,99999,9,00,1,00,1",,"01,9",,,,"99999,9,10136,1","7,1,025,1,+021,1",,,"SYN082AAXX  25211 76458 32968 02404 10241 20173 30136 40141 57025 92048 333 30/// 58021;","Q01  00002PRCP06"
"76458099999","2003-12-26T00:00:00","4","23.2","-106.4166666","4.0","COLONIA JUAN CARRASCO MAZATLAN SIN., MX","FM-12","99999","V020","310,1,N,0030,1","22000,1,9,N","018000,1,N,1","+0243,1","+0165,1","10140,1","06,0000,9,1","24,0000,9,1",,,,,"00,1,+99999,9,99,9",,,"00,99,1,00,1,00,1,99999,9,00,1,00,1",,"01,9",,"120,M,+0266,1","180,N,+0140,1","99999,9,10135,1","7,1,001,1,+015,1",,,"SYN106AAXX  26001 76458 32968 03103 10243 20165 30135 40140 57001 92345 333 10266 20140 30/// 50231 58015 70000;","Q01  00002PRCP06Q02  00002PRCP24"
"76458099999","2003-12-26T06:00:00","4","23.2","-106.4166666","4.0","COLONIA JUAN CARRASCO MAZATLAN SIN., MX","FM-12","99999","V020","330,1,N,0010,1","22000,1,9,N","008000,1,N,1","+0192,1","+0155,1","10158,1","06,0000,9,1",,,,,,"00,1,+99999,9,99,9",,,"00,99,1,00,1,00,1,99999,9,00,1,00,1","0546,9","01,9",,"240,M,+0266,1","240,N,+0140,1","99999,9,10153,1","2,1,008,1,+999,9",,,"SYN106AAXX  26061 76458 32958 03301 10192 20155 30153 40158 52008 90540 333 10266 20140 30/// 55091 20975 58016;","Q01  00002PRCP06"
"76458099999","2003-12-26T12:00:00","4","23.2","-106.4166666","4.0","COLONIA JUAN CARRASCO MAZATLAN SIN., MX","FM-12","99999","V020","300,1,N,0010,1","22000,1,9,N","008000,1,N,1","+0162,1","+0122,1","10160,1","06,0000,9,1","24,0000,9,1",,,,,"00,1,+99999,9,99,9",,,"00,99,1,00,1,00,1,99999,9,00,1,00,1",,"01,9","999,+0120,9","999,M,+0266,1","120,N,+0144,1","99999,9,10155,1","6,1,002,1,+016,1",,,"SYN100AAXX  26121 76458 32958 03001 10162 20122 30155 40160 56002 91135 333 10266 20144 30012 58016 70000;","Q01  00002PRCP06Q02  00002PRCP24"
"76458099999","2003-12-26T15:00:00","4","23.2","-106.4166666","4.0","COLONIA JUAN CARRASCO MAZATLAN SIN., MX","FM-12","99999","V020","999,9,C,0000,1","22000,1,9,N","015000,1,N,1","+0184,1","+0112,1","10173,1","06,0000,9,1",,,,,,"00,1,+99999,9,99,9",,,"00,99,1,00,1,00,1,99999,9,00,1,00,1",,"01,9",,,,"99999,9,10168,1","2,1,013,1,+003,1",,,"SYN082AAXX  26151 76458 32965 00000 10184 20112 30168 40173 52013 91445 333 30/// 58003;","Q01  00002PRCP06"
"76458099999","2003-12-26T18:00:00","4","23.2","-106.4166666","4.0","COLONIA JUAN CARRASCO MAZATLAN SIN., MX","FM-12","99999","V020","260,1,N,0020,1","22000,1,9,N","015000,1,N,1","+0242,1","+0152,1","10179,1","06,0000,9,1",,,,,,"00,1,+99999,9,99,9",,,"00,99,1,00,1,00,1,99999,9,00,1,00,1",,"01,9",,"120,M,+0272,1","240,N,+0132,1","99999,9,10175,1","0,1,007,1,+014,1",,,"SYN094AAXX  26181 76458 32965 02602 10242 20152 30175 40179 50007 91748 333 10272 20132 30/// 58014;","Q01  00002PRCP06"
"76458099999","2003-12-26T21:00:00","4","23.2","-106.4166666","4.0","COLONIA JUAN CARRASCO MAZATLAN SIN., MX","FM-12","99999","V020","210,1,N,0030,1","22000,1,9,N","015000,1,N,1","+0254,1","+0167,1","10162,1","06,0000,9,1",,,,,,"00,1,+99999,9,99,9",,,"00,99,1,00,1,00,1,99999,9,00,1,00,1",,"01,9",,,,"99999,9,10158,1","7,1,016,1,+022,1",,,"SYN082AAXX  26211 76458 32965 02103 10254 20167 30158 40162 57016 92045 333 30/// 58022;","Q01  00002PRCP06"
"76458099999","2003-12-27T00:00:00","4","23.2","-106.4166666","4.0","COLONIA JUAN CARRASCO MAZATLAN SIN., MX","FM-12","99999","V020","290,1,N,0020,1","22000,1,9,N","018000,1,N,1","+0247,1","+0181,1","10155,1","06,0000,9,1","24,0000,9,1",,,,,"00,1,+99999,9,99,9",,,"00,99,1,00,1,00,1,99999,9,00,1,00,1",,"01,9",,"120,M,+0278,1","180,N,+0132,1","99999,9,10151,1","7,1,007,1,+016,1",,,"SYN106AAXX  27001 76458 32968 02902 10247 20181 30151 40155 57007 92348 333 10278 20132 30/// 50271 58016 70000;","Q01  00002PRCP06Q02  00002PRCP24"
"76458099999","2003-12-27T03:00:00","4","23.2","-106.4166666","4.0","COLONIA JUAN CARRASCO MAZATLAN SIN., MX","FM-12","99999","V020","340,1,N,0010,1","22000,1,9,N","008000,1,N,1","+0216,1","+0177,1","10157,1","06,0000,9,1",,,,,,"00,1,+99999,9,99,9",,,"00,99,1,00,1,00,1,99999,9,00,1,00,1",,"01,9",,,,"99999,9,10153,1","3,1,002,1,+008,1",,,"SYN082AAXX  27031 76458 32958 03401 10216 20177 30153 40157 53002 90240 333 30/// 58008;","Q01  00002PRCP06"
"76458099999","2003-12-27T06:00:00","4","23.2","-106.4166666","4.0","COLONIA JUAN CARRASCO MAZATLAN SIN., MX","FM-12","99999","V020","330,1,N,0030,1","22000,1,9,N","008000,1,N,1","+0208,1","+0155,1","10164,1","06,0000,9,1",,,,,,"00,1,+99999,9,99,9",,,"00,99,1,00,1,00,1,99999,9,00,1,00,1","0540,9","01,9",,"240,M,+0278,1","240,N,+0132,1","99999,9,10160,1","1,1,007,1,+999,9",,,"SYN106AAXX  27061 76458 32958 03303 10208 20155 30160 40164 51007 90530 333 10278 20132 30/// 55090 21029 58007;","Q01  00002PRCP06"
"76458099999","2003-12-27T15:00:00","4","23.2","-106.4166666","4.0","COLONIA JUAN CARRASCO MAZATLAN SIN., MX","FM-12","99999","V020","999,9,C,0000,1","22000,1,9,N","015000,1,N,1","+0174,1","+0097,1","10172,1","06,0000,9,1",,,,,,"02,1,+02400,9,03,9",,,"02,99,1,02,1,00,1,99999,9,03,1,00,1",,"01,9",,,,"99999,9,10167,1","9,9,999,9,-001,1",,,"SYN100AAXX  27151 76458 32965 20000 10174 20097 30167 40172 5//// 82030 91448 333 30/// 56//0 59001 82358;","Q01  00002PRCP06"
"76458099999","2003-12-27T18:00:00","4","23.2","-106.4166666","4.0","COLONIA JUAN CARRASCO MAZATLAN SIN., MX","FM-12","99999","V020","270,1,N,0030,1","22000,1,9,N","018000,1,N,1","+0232,1","+0109,1","10168,1","06,0000,9,1",,,,,,"01,1,+02400,9,03,9",,,"01,99,1,01,1,00,1,99999,9,03,1,00,1",,"01,9",,"120,M,+0250,1","240,N,+0123,1","99999,9,10164,1","8,1,003,1,+011,1",,,"SYN112AAXX  27181 76458 32968 12703 10232 20109 30164 40168 58003 81030 91745 333 10250 20123 30/// 56//0 58011 81358;","Q01  00002PRCP06"
"76458099999","2003-12-27T21:00:00","4","23.2","-106.4166666","4.0","COLONIA JUAN CARRASCO MAZATLAN SIN., MX","FM-12","99999","V020","300,1,N,0060,1","22000,1,9,N","020000,1,N,1","+0238,1","+0160,1","10149,1","06,0000,9,1",,,,,,"01,1,+04200,9,03,9",,,"01,99,1,01,1,00,1,02250,1,03,1,00,1",,"01,9",,,,"99999,9,10144,1","7,1,020,1,-014,1",,,"SYN100AAXX  27211 76458 32870 13006 10238 20160 30144 40149 57020 81030 92045 333 30/// 56/9/ 59014 81364;","Q01  00002PRCP06"
"76458099999","2003-12-28T00:00:00","4","23.2","-106.4166666","4.0","COLONIA JUAN CARRASCO MAZATLAN SIN., MX","FM-12","99999","V020","300,1,N,0050,1","22000,1,9,N","020000,1,N,1","+0230,1","+0152,1","10143,1","06,0000,9,1","24,0000,9,1",,,,,"00,1,+99999,9,99,9",,,"00,99,1,00,1,00,1,99999,9,00,1,00,1",,"01,9",,"120,M,+0251,1","180,N,+0123,1","99999,9,10138,1","7,1,006,1,-013,1",,,"SYN106AAXX  28001 76458 32970 03005 10230 20152 30138 40143 57006 92345 333 10251 20123 30/// 50331 59013 70000;","Q01  00002PRCP06Q02  00002PRCP24"
"76458099999","2003-12-28T03:00:00","4","23.2","-106.4166666","4.0","COLONIA JUAN CARRASCO MAZATLAN SIN., MX","FM-12","99999","V020","320,1,N,0030,1","22000,1,9,N","016000,1,N,1","+0205,1","+0167,1","10149,1","06,0000,9,1",,,,,,"00,1,+99999,9,99,9",,,"00,99,1,00,1,00,1,99999,9,00,1,00,1",,"01,9",,,,"99999,9,10145,1","2,1,007,1,-008,1",,,"SYN082AAXX  28031 76458 32966 03203 10205 20167 30145 40149 52007 90250 333 30/// 59008;","Q01  00002PRCP06"
"76458099999","2003-12-28T09:00:00","4","23.2","-106.4166666","4.0","COLONIA JUAN CARRASCO MAZATLAN SIN., MX","FM-12","99999","V020","330,1,N,0020,1","22000,1,9,N","016000,1,N,1","+0165,1","+0089,1","10147,1","06,0000,9,1",,,,,,"00,1,+99999,9,99,9",,,"00,99,1,00,1,00,1,99999,9,00,1,00,1",,"01,9",,,,"99999,9,10143,1","5,1,000,1,+999,9",,,"SYN082AAXX  28091 76458 32966 03302 10165 20089 30143 40147 55000 90850 333 30/// 58///;","Q01  00002PRCP06"
"76458099999","2003-12-28T12:00:00","4","23.2","-106.4166666","4.0","COLONIA JUAN CARRASCO MAZATLAN SIN., MX","FM-12","99999","V020","330,1,N,0040,1","22000,1,9,N","016000,1,N,1","+0152,1","+0077,1","10143,1","06,0000,9,1",,,,,,"00,1,+99999,9,99,9",,,"00,99,1,00,1,00,1,99999,9,00,1,00,1",,"01,9",,"999,M,+0251,1","120,N,+0130,1","99999,9,10138,1","7,1,005,1,+999,9",,,"SYN106AAXX  28121 76458 32966 03304 10152 20077 30138 40143 57005 91140 333 10251 20130 30/// 30012 58/// 70000;","Q01  00002PRCP06"
"76458099999","2003-12-28T15:00:00","4","23.2","-106.4166666","4.0","COLONIA JUAN CARRASCO MAZATLAN SIN., MX","FM-12","99999","V020","320,1,N,0020,1","22000,1,9,N","012000,1,N,1","+0148,1","+0074,1","10155,1","06,0000,9,1",,,,,,"01,1,+04200,9,03,9",,,"01,99,1,01,1,00,1,02250,1,03,1,00,1",,"01,9",,,,"99999,9,10151,1","2,1,013,1,-016,1",,,"SYN100AAXX  28151 76458 32862 13202 10148 20074 30151 40155 52013 81030 91445 333 30/// 56/9/ 59016 81364;","Q01  00002PRCP06"
"76458099999","2003-12-28T18:00:00","4","23.2","-106.4166666","4.0","COLONIA JUAN CARRASCO MAZATLAN SIN., MX","FM-12","99999","V020","300,1,N,0050,1","22000,1,9,N","018000,1,N,1","+0199,1","+0079,1","10160,1","06,0000,9,1",,,,,,"01,1,+04200,9,03,9",,,"01,99,1,01,1,00,1,02250,1,03,1,00,1",,"01,9",,"120,M,+0220,1","240,N,+0117,1","99999,9,10156,1","0,1,005,1,-008,1",,,"SYN112AAXX  28181 76458 32868 13005 10199 20079 30156 40160 50005 81030 91745 333 10220 20117 30/// 56/9/ 59008 81364;","Q01  00002PRCP06"
"76458099999","2003-12-28T21:00:00","4","23.2","-106.4166666","4.0","COLONIA JUAN CARRASCO MAZATLAN SIN., MX","FM-12","99999","V020","300,1,N,0070,1","22000,1,9,N","018000,1,N,1","+0212,1","+0096,1","10137,1","06,0000,9,1",,,,,,"02,1,+01800,9,04,9",,,"04,99,1,04,1,99,9,02250,1,08,1,99,9",,"01,9",,,,"99999,9,10132,1","7,1,024,1,-012,1",,,"SYN094AAXX  28211 76458 32868 43007 10212 20096 30132 40137 57024 84/8/ 92040 333 30/// 59012 82456;","Q01  00002PRCP06"
"76458099999","2003-12-29T00:00:00","4","23.2","-106.4166666","4.0","COLONIA JUAN CARRASCO MAZATLAN SIN., MX","FM-12","99999","V020","310,1,N,0060,1","22000,1,9,N","018000,1,N,1","+0202,1","+0108,1","10139,1","06,0000,9,1","24,0000,9,1",,,,,"04,1,+01800,9,03,9",,,"04,99,1,99,9,99,9,02250,1,99,9,99,9",,"01,9",,"120,M,+0233,1","180,N,+0117,1","99999,9,10135,1","3,1,004,1,-003,1",,,"SYN112AAXX  29001 76458 32868 43106 10202 20108 30135 40139 53004 92340 333 10233 20117 30/// 50331 59003 70000 84356;","Q01  00002PRCP06"
"76458099999","2003-12-29T03:00:00","4","23.2","-106.4166666","4.0","COLONIA JUAN CARRASCO MAZATLAN SIN., MX","FM-12","99999","V020","320,1,N,0060,1","22000,1,9,N","016000,1,N,1","+0180,1","+0105,1","10152,1","06,0000,9,1",,,,,,"00,1,+99999,9,99,9",,,"00,99,1,00,1,00,1,99999,9,00,1,00,1",,"01,9",,,,"99999,9,10147,1","2,1,012,1,+002,1",,,"SYN082AAXX  29031 76458 32966 03206 10180 20105 30147 40152 52012 90250 333 30/// 58002;","Q01  00002PRCP06"
"76458099999","2003-12-29T06:00:00","4","23.2","-106.4166666","4.0","COLONIA JUAN CARRASCO MAZATLAN SIN., MX","FM-12","99999","V020","330,1,N,0020,1","22000,1,9,N","016000,1,N,1","+0158,1","+0069,1","10152,1","06,0000,9,1",,,,,,"00,1,+99999,9,99,9",,,"00,99,1,00,1,00,1,99999,9,00,1,00,1","0450,9","01,9",,"240,M,+0233,1","240,N,+0117,1","99999,9,10147,1","4,1,000,1,+999,9",,,"SYN106AAXX  29061 76458 32966 03302 10158 20069 30147 40152 54000 90540 333 10233 20117 30/// 55075 20627 58005;","Q01  00002PRCP06"
"76458099999","2003-12-29T15:00:00","4","23.2","-106.4166666","4.0","COLONIA JUAN CARRASCO MAZATLAN SIN., MX","FM-12","99999","V020","999,9,C,0000,1","22000,1,9,N","015000,1,N,1","+0162,1","+0107,1","10149,1","06,0000,9,1",,,,,,"00,1,+99999,9,99,9",,,"00,99,1,00,1,00,1,99999,9,00,1,00,1",,"01,9",,,,"99999,9,10145,1","9,9,999,9,-006,1",,,"SYN082AAXX  29151 76458 32965 00000 10162 20107 30145 40149 5//// 91445 333 30/// 59006;","Q01  00002PRCP06"
"76458099999","2003-12-29T21:00:00","4","23.2","-106.4166666","4.0","COLONIA JUAN CARRASCO MAZATLAN SIN., MX","FM-12","99999","V020","270,1,N,0030,1","22000,1,9,N","020000,1,N,1","+0228,1","+0114,1","10122,1","06,0000,9,1",,,,,,"00,1,+99999,9,99,9",,,"00,99,1,00,1,00,1,99999,9,00,1,00,1",,"01,9",,,,"99999,9,10118,1","7,1,032,1,-014,1",,,"SYN082AAXX  29211 76458 32970 02703 10228 20114 30118 40122 57032 92045 333 30/// 59014;","Q01  00002PRCP06"
"76458099999","2003-12-30T00:00:00","4","23.2","-106.4166666","4.0","COLONIA JUAN CARRASCO MAZATLAN SIN., MX","FM-12","99999","V020","320,1,N,0030,1","22000,1,9,N","020000,1,N,1","+0208,1","+0125,1","10118,1","06,0000,9,1","24,0000,9,1",,,,,"00,1,+99999,9,99,9",,,"00,99,1,00,1,00,1,99999,9,00,1,00,1",,"01,9",,"120,M,+0245,1","180,N,+0105,1","99999,9,10113,1","4,1,000,1,-021,1",,,"SYN106AAXX  30001 76458 32970 03203 10208 20125 30113 40118 54004 92350 333 10245 20105 30/// 50321 59021 70000;","Q01  00002PRCP06Q02  00002PRCP24"
"76458099999","2003-12-30T03:00:00","4","23.2","-106.4166666","4.0","COLONIA JUAN CARRASCO MAZATLAN SIN., MX","FM-12","99999","V020","330,1,N,0020,1","22000,1,9,N","008000,1,N,1","+0182,1","+0133,1","10119,1","06,0000,9,1",,,,,,"00,1,+99999,9,99,9",,,"00,99,1,00,1,00,1,99999,9,00,1,00,1",,"01,9",,,,"99999,9,10115,1","5,1,002,1,-032,1",,,"SYN082AAXX  30031 76458 32958 03302 10182 20133 30115 40119 55002 90240 333 30/// 59032;","Q01  00002PRCP06"
"76458099999","2003-12-30T15:00:00","4","23.2","-106.4166666","4.0","COLONIA JUAN CARRASCO MAZATLAN SIN., MX","FM-12","99999","V020","999,9,C,0000,1","22000,1,9,N","012000,1,N,1","+0158,1","+0110,1","10135,1","06,0000,9,1",,,,,,"02,1,+06000,9,00,9",,,"02,99,1,00,1,00,1,99999,9,00,1,04,1",,"01,9",,,,"99999,9,10130,1","9,9,999,9,-015,1",,,"SYN100AAXX  30151 76458 32962 20000 10158 20110 30130 40135 5//// 80004 91448 333 30/// 56//0 59015 82070;","Q01  00002PRCP06"
"76458099999","2003-12-30T18:00:00","4","23.2","-106.4166666","4.0","COLONIA JUAN CARRASCO MAZATLAN SIN., MX","FM-12","99999","V020","150,1,N,0030,1","22000,1,9,N","018000,1,N,1","+0242,1","+0168,1","10147,1","06,0000,9,1",,,,,,"00,1,+99999,9,99,9",,,"00,99,1,00,1,00,1,99999,9,00,1,00,1",,"01,9",,"120,M,+0252,1","240,N,+0102,1","99999,9,10142,1","0,1,012,1,+999,9",,,"SYN100AAXX  30181 76458 32968 01503 10242 20168 30142 40147 50012 50012 91745 333 10252 20102 30/// 59008;","Q01  00002PRCP06"
"76458099999","2003-12-30T21:00:00","4","23.2","-106.4166666","4.0","COLONIA JUAN CARRASCO MAZATLAN SIN., MX","FM-12","99999","V020","240,1,N,0030,1","22000,1,9,N","020000,1,N,1","+0233,1","+0173,1","10125,1","06,0000,9,1",,,,,,"01,1,+06000,9,00,9",,,"01,99,1,00,1,00,1,99999,9,00,1,06,1",,"01,9",,,,"99999,9,10120,1","7,1,022,1,+002,1",,,"SYN100AAXX  30211 76458 32970 12403 10233 20173 30120 40125 57022 81006 92048 333 30/// 56//9 58002 81070;","Q01  00002PRCP06"
"76458099999","2003-12-31T00:00:00","4","23.2","-106.4166666","4.0","COLONIA JUAN CARRASCO MAZATLAN SIN., MX","FM-12","99999","V020","300,1,N,0020,1","99999,9,9,N","020000,1,N,1","+0230,1","+0168,1","10128,1","06,0000,9,1","24,0000,9,1",,,,,,,,"06,99,1,00,1,00,1,99999,9,00,1,07,1",,"01,9",,"120,M,+0274,1","180,N,+0102,1","99999,9,10123,1","2,1,003,1,+010,1",,,"SYN124AAXX  31001 76458 32970 63002 10230 20168 30123 40128 52003 80007 92345 333 10274 20102 30/// 50241 56//9 58010 70000 86268;","Q01  00002PRCP06"
"76458099999","2003-12-31T03:00:00","4","23.2","-106.4166666","4.0","COLONIA JUAN CARRASCO MAZATLAN SIN., MX","FM-12","99999","V020","999,9,C,0000,1","06000,1,9,N","008000,1,N,1","+0204,1","+0174,1","10139,1","06,0000,9,1",,,,,,"06,1,+06000,9,02,9",,,"06,99,1,00,1,99,9,99999,9,99,9,07,1",,"01,9",,,,"99999,9,10134,1","2,1,011,1,+020,1",,,"SYN094AAXX  31031 76458 32958 60000 10204 20174 30134 40139 52011 80//7 90240 333 30/// 58020 86270;","Q01  00002PRCP06"
"76458099999","2003-12-31T15:00:00","4","23.2","-106.4166666","4.0","COLONIA JUAN CARRASCO MAZATLAN SIN., MX","FM-12","99999","V020","999,9,C,0000,1","99999,9,9,N","010000,1,N,1","+0200,1","+0163,1","10157,1","06,0000,9,1",,,,,,"01,1,+02400,9,03,9",,,"05,99,1,01,1,00,1,99999,9,03,1,04,1",,"01,9",,,,"99999,9,10152,1","9,9,999,9,+032,1",,,"SYN106AAXX  31151 76458 32960 50000 10200 20163 30152 40157 5//// 81034 91448 333 30/// 56/00 58032 81358 84070;","Q01  00002PRCP06"
"76458099999","2003-12-31T18:00:00","4","23.2","-106.4166666","4.0","COLONIA JUAN CARRASCO MAZATLAN SIN., MX","FM-12","99999","V020","280,1,N,0010,1","06000,1,9,N","013000,1,N,1","+0250,1","+0178,1","10170,1","06,0000,9,1",,,,,,"06,1,+06000,9,02,9",,,"06,99,1,00,1,00,1,99999,9,00,1,06,1",,"01,9",,"120,M,+0282,1","240,N,+0165,1","99999,9,10166,1","1,1,014,1,+024,1",,,"SYN112AAXX  31181 76458 32963 62801 10250 20178 30166 40170 51014 80006 91748 333 10282 20165 30/// 56//0 58024 86270;","Q01  00002PRCP06"
"76458099999","2003-12-31T21:00:00","4","23.2","-106.4166666","4.0","COLONIA JUAN CARRASCO MAZATLAN SIN., MX","FM-12","99999","V020","210,1,N,0020,1","09000,1,C,N","018000,1,N,1","+0271,1","+0182,1","10143,1","06,0000,9,1",,,,,,"01,1,+01110,9,08,9",,,"07,99,1,01,1,02,1,01250,1,00,1,07,1",,"01,9",,,,"99999,9,10138,1","7,1,028,1,+018,1",,,"SYN106AAXX  31211 76458 32668 72102 10271 20182 30138 40143 57028 81207 92048 333 30/// 561/9 58018 81837 86268;","Q01  00002PRCP06"
