"STATION","DATE","SOURCE","LATITUDE","LONGITUDE","ELEVATION","NAME","REPORT_TYPE","CALL_SIGN","QUALITY_CONTROL","WND","CIG","VIS","TMP","DEW","SLP","AA1","AA2","AY1","AY2","GA1","GA2","GA3","GA4","GF1","GJ1","IA1","IA2","KA1","KA2","MA1","MD1","MW1","OA1","REM","EQD"
"76373099999","2001-01-02T03:00:00","4","25.35","-105.75","1967.0","TEPEHUANES DGO., MX","FM-12","99999","V020","999,9,C,0000,1","02400,1,9,N","000200,1,N,1","+0124,1","+0047,1","99999,9","99,0000,9,1",,,,"08,1,+02400,9,01,9",,,,"08,99,1,08,1,00,1,01750,1,01,1,99,9",,"01,9",,,,"99999,9,08221,1","2,1,014,1,+999,9",,,"SYN100AAXX  02031 76373 32702 80000 10124 20047 38221 4//// 52014 8801/ 90246 333 30/// 5606/ 58/// 88458;","Q01  00002PRCP99"
"76373099999","2001-01-02T15:00:00","4","25.35","-105.75","1967.0","TEPEHUANES DGO., MX","FM-12","99999","V020","999,9,C,0000,1","02400,1,9,N","060000,1,N,1","+0022,1","+0002,1","10256,1","99,0000,9,1",,,,"08,1,+02400,9,01,9",,,,"08,99,1,08,1,00,1,01750,1,01,1,00,1",,"01,9",,,,"99999,9,08251,1","2,1,016,1,+999,9",,,"SYN100AAXX  02151 76373 32786 80000 10022 20002 38251 40256 52016 88010 91445 333 30/// 56060 58/// 88458;","Q01  00002PRCP99"
"76373099999","2001-01-02T18:00:00","4","25.35","-105.75","1967.0","TEPEHUANES DGO., MX","FM-12","99999","V020","150,1,N,0010,1","06000,1,9,N","070000,1,N,1","+0124,1","+0052,1","10254,1","99,0000,9,1",,,,"01,1,+03000,9,03,9","08,1,+06000,9,02,9",,,"08,99,1,01,1,00,1,01750,1,03,1,07,1",,"01,9",,"120,M,+0202,1","240,N,+0002,1","99999,9,08256,1","2,1,005,1,+012,1",,,"SYN124AAXX  02181 76373 32788 81501 10124 20052 38256 40254 52005 81037 91740 333 10202 20002 30/// 56066 58012 81360 88270 99020;","Q01  00002PRCP99"
"76373099999","2001-01-02T21:00:00","4","25.35","-105.75","1967.0","TEPEHUANES DGO., MX","FM-12","99999","V020","180,1,N,0020,1","06000,1,9,N","070000,1,N,1","+0200,1","+0086,1","10212,1","99,0000,9,1",,,,"01,1,+00300,9,08,9","01,1,+03000,9,03,9","08,1,+06000,9,02,9",,"08,99,1,01,1,01,1,00450,1,03,1,07,1",,"01,9",,,,"99999,9,08222,1","6,1,034,1,+019,1",,,"SYN118AAXX  02211 76373 32488 81802 10200 20086 38222 40212 56034 81137 92040 333 30/// 56666 58019 81810 81360 88270 99020;","Q01  00002PRCP99"
"76373099999","2001-01-03T00:00:00","4","25.35","-105.75","1967.0","TEPEHUANES DGO., MX","FM-12","99999","V020","130,1,N,0020,1","09000,1,9,N","070000,1,N,1","+0188,1","+0082,1","10200,1","24,0000,9,1",,,,"03,1,+02400,9,03,9",,,,"08,99,1,03,1,00,1,01750,1,03,1,09,1",,"01,9",,"120,M,+0216,1","180,N,+0002,1","99999,9,08219,1","5,1,003,1,+012,1",,,"SYN130AAXX  03001 76373 32788 81302 10188 20082 38219 40200 55003 83039 92337 333 10216 20002 30/// 50120 56066 58012 70000 83358 83170;","Q01  00002PRCP99Q02  00003PRCP99"
"76373099999","2001-01-03T03:00:00","4","25.35","-105.75","1967.0","TEPEHUANES DGO., MX","FM-12","99999","V020","350,1,N,0030,1","02400,1,9,N","000200,1,N,1","+0148,1","+0063,1","10239,1","99,0000,9,1",,,,"08,1,+02400,9,01,9",,,,"08,99,1,08,1,00,1,01750,1,01,1,99,9",,"01,9",,,,"99999,9,99999,9","2,1,032,1,+030,1",,,"SYN100AAXX  03031 76373 32702 83503 10148 20063 30251 40239 52032 8801/ 90255 333 30/// 5606/ 58030 88458;","Q01+102513APOSP Q02  00002PRCP99Q03 102513APOSP "
"76373099999","2001-01-03T12:00:00","4","25.35","-105.75","1967.0","TEPEHUANES DGO., MX","FM-12","99999","V020","270,1,N,0010,1","00300,1,9,N","000200,1,N,1","+0078,1","+0060,1","10263,1","06,0003,9,1","24,0003,9,1","5,1,06,1","5,1,06,1","08,1,+00300,9,06,9",,,,"08,99,1,08,1,07,1,00250,1,99,9,99,9",,"09,9","999,+0070,9","999,M,+0216,1","120,N,+0068,1","99999,9,08277,1","2,1,003,1,+042,1","51,1",,"SYN136AAXX  03121 76373 /1302 82701 10078 20060 38277 40263 52003 69931 75155 887// 91240 333 10216 20068 31007 56/// 58042 69931 70003 88710;",
"76373099999","2001-01-03T18:00:00","4","25.35","-105.75","1967.0","TEPEHUANES DGO., MX","FM-12","99999","V020","100,1,N,0020,1","00300,1,9,N","040000,1,N,1","+0112,1","+0058,1","10298,1","03,0007,9,1",,"5,1,06,1","5,1,06,1","05,1,+00300,9,06,9",,,,"08,99,1,05,1,06,1,00250,1,07,1,99,9",,"09,9",,"120,M,+0216,1","240,N,+0064,1","99999,9,08305,1","8,1,006,1,+049,1","02,1",,"SYN130AAXX  03181 76373 11382 81002 10112 20058 38305 40298 58006 69907 70255 8567/ 91745 333 10216 20064 31/// 5622/ 58049 85610 87460;",
"76373099999","2001-01-03T21:00:00","4","25.35","-105.75","1967.0","TEPEHUANES DGO., MX","FM-12","99999","V020","130,1,N,0010,1","03600,1,C,N","070000,1,N,1","+0156,1","+0075,1","10260,1","99,0000,2,1",,,,"01,1,+00300,9,08,9","01,1,+02400,9,03,9",,,"08,99,1,01,1,01,1,00250,1,03,1,09,1",,"01,9",,,,"99999,9,08274,1","7,1,031,1,+999,9",,,"SYN106AAXX  03211 76373 32388 81301 10156 20075 38274 40260 57031 81139 92048 333 30/// 56222 81810 81358 87170;",
"76373099999","2001-01-04T00:00:00","4","25.35","-105.75","1967.0","TEPEHUANES DGO., MX","FM-12","99999","V020","120,1,N,0030,1","00300,1,C,N","070000,1,N,1","+0141,1","+0072,1","10266,1","24,0006,9,1","99,0000,2,1",,,"06,1,+00300,9,07,9",,,,"08,99,1,06,1,06,1,00250,1,01,1,99,9",,"01,9",,"120,M,+0173,1","180,N,+0064,1","99999,9,08272,1","5,1,002,1,+053,1",,,"SYN130AAXX  04001 76373 32388 81203 10141 20072 38272 40266 55002 8661/ 92350 333 10173 20064 30/// 50210 5622/ 58053 70006 86710 82458;",
"76373099999","2001-01-04T12:00:00","4","25.35","-105.75","1967.0","TEPEHUANES DGO., MX","FM-12","99999","V020","999,9,C,0000,1","22000,1,9,N","000200,1,N,1","+0021,1","+0009,1","10291,1","24,0000,2,1",,,,,,,,"02,99,1,99,9,99,9,99999,9,99,9,99,9",,"01,9","999,-0010,9","999,M,+0173,1","120,N,+0010,1","99999,9,08286,1","7,1,012,1,+009,1",,,"SYN112AAXX  04121 76373 32/02 20000 10021 20009 38286 40291 57012 8//// 91146 333 10173 20010 30101 56/// 58009 70000;",
"76373099999","2001-01-04T15:00:00","4","25.35","-105.75","1967.0","TEPEHUANES DGO., MX","FM-12","99999","V020","999,9,C,0000,1","09000,1,C,N","018000,1,N,1","+0032,1","+0011,1","10311,1","99,0000,9,1",,"4,1,03,1","4,1,03,1","02,1,+03000,9,03,9",,,,"08,99,1,02,1,00,1,01750,1,03,1,08,1",,"01,9",,,,"99999,9,08295,1","1,1,009,1,-004,1","05,1",,"SYN112AAXX  04151 76373 31768 80000 10032 20011 38295 40311 51009 70544 82038 91440 333 30/// 56066 59004 82360 87270;","Q01  00002PRCP99"
"76373099999","2001-01-04T18:00:00","4","25.35","-105.75","1967.0","TEPEHUANES DGO., MX","FM-12","99999","V020","120,1,N,0020,1","09000,1,C,N","060000,1,N,1","+0132,1","+0052,1","10292,1","99,0000,9,1",,,,"01,1,+00300,9,08,9",,,,"08,99,1,01,1,01,1,00250,1,00,1,08,1",,"01,9",,"120,M,+0173,1","240,N,+0004,1","99999,9,08222,2","8,1,013,1,-023,1",,,"SYN118AAXX  04181 76373 32386 81202 10132 20052 38222 40292 58013 81108 91742 333 10173 20004 30/// 56606 59023 81810 87270;","Q01+082223APOSP Q02  00002PRCP99"
"76373099999","2001-01-04T21:00:00","4","25.35","-105.75","1967.0","TEPEHUANES DGO., MX","FM-12","99999","V020","130,1,N,0050,1","22000,1,9,N","070000,1,N,1","+0182,1","+0070,1","10234,1","99,0000,9,1",,,,"01,1,+00300,9,08,9",,,,"03,99,1,01,1,01,1,00450,1,03,1,00,1",,"01,9",,,,"99999,9,08247,1","6,1,035,1,-027,1",,,"SYN106AAXX  04211 76373 32488 31305 10182 20070 38247 40234 56035 81130 92040 333 30/// 56660 59027 81810 82360;","Q01  00002PRCP99"
"76373099999","2001-01-05T00:00:00","4","25.35","-105.75","1967.0","TEPEHUANES DGO., MX","FM-12","99999","V020","150,1,N,0020,1","03600,1,9,N","070000,1,N,1","+0200,1","+0088,1","10216,1","24,0000,9,1",,,,"02,1,+00360,9,08,9",,,,"05,99,1,02,1,01,1,00450,1,06,1,00,1",,"01,9",,"120,M,+0220,1","180,N,+0004,1","99999,9,08239,1","7,1,008,1,-033,1",,,"SYN130AAXX  05001 76373 32488 51502 10200 20088 38239 40216 57008 82160 92340 333 10220 20004 30/// 50380 56660 59033 70000 82812 83360;","Q01  00002PRCP99Q02  00003PRCP99"
"76373099999","2001-01-05T15:00:00","4","25.35","-105.75","1967.0","TEPEHUANES DGO., MX","FM-12","99999","V020","999,9,C,0000,1","22000,1,9,N","060000,1,N,1","+0040,1","+0015,1","10253,1","99,0000,9,1",,,,"04,1,+06000,9,01,9",,,,"04,99,1,00,1,00,1,99999,9,00,1,04,1",,"01,9",,,,"99999,9,08269,1","9,9,999,9,-026,1",,,"SYN100AAXX  05151 76373 32986 40000 10040 20015 38269 40253 5//// 80004 91436 333 30/// 56006 59026 84070;","Q01  00002PRCP99"
"76373099999","2001-01-05T18:00:00","4","25.35","-105.75","1967.0","TEPEHUANES DGO., MX","FM-12","99999","V020","140,1,N,0010,1","06000,1,9,N","070000,1,N,1","+0154,1","+0064,1","10240,1","99,0000,9,1",,,,"07,1,+06000,9,02,9",,,,"07,99,1,00,1,00,1,99999,9,00,1,07,1",,"01,9",,"120,M,+0220,1","240,N,+0020,1","99999,9,08265,1","2,1,004,1,-022,1",,,"SYN118AAXX  05181 76373 32988 71401 10154 20064 38265 40240 52004 80007 91740 333 10220 20020 30/// 57006 59022 87270 99020;","Q01  00002PRCP99"
"76373099999","2001-01-05T21:00:00","4","25.35","-105.75","1967.0","TEPEHUANES DGO., MX","FM-12","99999","V020","170,1,N,0020,1","22000,1,9,N","070000,1,N,1","+0234,1","+0102,1","10184,1","99,0000,9,1",,,,"01,1,+00300,9,08,9",,,,"03,99,1,01,1,01,1,00450,1,00,1,02,1",,"01,9",,,,"99999,9,08226,1","6,1,039,1,-021,1",,,"SYN106AAXX  05211 76373 32488 31702 10234 20102 38226 40184 56039 81102 92040 333 30/// 56606 59021 81810 82070;","Q01  00002PRCP99"
"76373099999","2001-01-06T00:00:00","4","25.35","-105.75","1967.0","TEPEHUANES DGO., MX","FM-12","99999","V020","170,1,N,0030,1","22000,1,9,N","060000,1,N,1","+0214,1","+0139,1","10170,1","24,0000,9,1",,,,,,,,"01,99,1,01,1,02,1,00250,1,00,1,00,1",,"01,9",,"120,M,+0256,1","180,N,+0020,1","99999,9,08215,1","6,1,011,1,-024,1",,,"SYN124AAXX  06001 76373 32386 11703 10214 20139 38215 40170 56011 81200 92350 333 10256 20020 30/// 50380 56600 59024 70000 81820;","Q01  00002PRCP99Q02  00003PRCP99"
"76373099999","2001-01-06T18:00:00","4","25.35","-105.75","1967.0","TEPEHUANES DGO., MX","FM-12","99999","V020","040,1,N,0010,1","00600,1,9,N","070000,1,N,1","+0154,1","+0070,1","10197,1","99,0000,9,1",,,,"06,1,+00600,9,08,9",,,,"08,99,1,06,1,02,1,01250,1,06,1,00,1",,"01,9",,"120,M,+0256,1","240,N,+0012,1","99999,9,08230,1","7,1,005,1,-350,1",,,"SYN118AAXX  06181 76373 32688 80401 10154 20070 38230 40197 57005 86260 91755 333 10256 20012 30/// 56660 59350 86820 82360;","Q01  00002PRCP99"
"76373099999","2001-01-07T00:00:00","4","25.35","-105.75","1967.0","TEPEHUANES DGO., MX","FM-12","99999","V020","300,1,N,0040,1","03000,1,9,N","070000,1,N,1","+0194,1","+0100,1","10162,1","24,0000,9,1",,,,"04,1,+00600,9,09,9","01,1,+03000,9,03,9",,,"06,99,1,04,1,03,1,00250,1,06,1,04,1",,"01,9",,"120,M,+0238,1","180,N,+0012,1","99999,9,08189,1","2,1,002,1,-026,1",,,"SYN130AAXX  07001 76373 32388 63004 10194 20100 38189 40162 52002 84364 92345 333 10238 20012 30/// 56666 59026 70000 84920 81360 81080;",
"76373099999","2001-01-07T15:00:00","4","25.35","-105.75","1967.0","TEPEHUANES DGO., MX","FM-12","99999","V020","999,9,C,0000,1","22000,1,9,N","070000,1,N,1","+0050,1","+0021,1","10178,1","99,0000,9,1",,,,"00,1,+99999,9,99,9",,,,"00,99,1,00,1,00,1,99999,9,00,1,00,1",,"01,9",,,,"99999,9,08208,1","9,9,999,9,-027,1",,,"SYN082AAXX  07151 76373 32988 00000 10050 20021 38208 40178 5//// 91440 333 30/// 59027;","Q01  00002PRCP99"
"76373099999","2001-01-07T18:00:00","4","25.35","-105.75","1967.0","TEPEHUANES DGO., MX","FM-12","99999","V020","300,1,N,0060,1","22000,1,9,N","070000,1,N,1","+0176,2","+0137,2","10158,1","99,0000,9,1",,,,"03,1,+09000,9,01,9",,,,"03,99,1,00,1,00,1,99999,9,00,1,05,1",,"01,9",,"120,M,+0238,1","240,N,+0020,1","99999,9,08205,1","7,1,003,1,-025,1",,,"SYN112AAXX  07181 76373 32988 33006 10176 20137 38205 40158 57003 80005 91750 333 10238 20020 30/// 56006 59025 83080;","Q01+001763ATOT  Q02+001373ATOD  Q03  00002PRCP99"
"76373099999","2001-01-08T15:00:00","4","25.35","-105.75","1967.0","TEPEHUANES DGO., MX","FM-12","99999","V020","999,9,C,0000,1","09000,1,9,N","060000,1,N,1","+0024,1","-0020,1","10205,1","99,0000,9,1",,,,"08,1,+09000,9,01,9",,,,"08,99,1,99,9,99,9,99999,9,99,9,99,9",,"01,9",,,,"99999,9,08217,1","9,9,999,9,+009,1",,,"SYN094AAXX  08151 76373 32986 80000 10024 21020 38217 40205 5//// 91445 333 30/// 56006 58009 88080;","Q01  00002PRCP99"
"76373099999","2001-01-08T18:00:00","4","25.35","-105.75","1967.0","TEPEHUANES DGO., MX","FM-12","99999","V020","090,1,N,0030,1","06000,1,9,N","070000,1,N,1","+0130,1","+0027,1","10192,1","99,0000,9,1",,,,"08,1,+06000,9,02,9",,,,"08,99,1,00,1,00,1,99999,9,00,1,07,1",,"01,9",,"120,M,+0232,1","240,N,+0002,1","99999,9,08213,1","8,1,004,1,-008,1",,,"SYN118AAXX  08181 76373 32988 80903 10130 20027 38213 40192 58004 80007 91740 333 10232 20002 30/// 56006 59008 88270 99020;","Q01  00002PRCP99"
"76373099999","2001-01-08T21:00:00","4","25.35","-105.75","1967.0","TEPEHUANES DGO., MX","FM-12","99999","V020","150,1,N,0040,1","06000,1,9,N","070000,1,N,1","+0170,1","+0071,1","10162,1","99,0000,9,1",,,,"08,1,+06000,9,02,9",,,,"08,99,1,00,1,00,1,99999,9,00,1,07,1",,"01,9",,,,"99999,9,08182,1","6,1,031,1,+003,1",,,"SYN106AAXX  08211 76373 32988 81504 10170 20071 38182 40162 56031 80007 92040 333 30/// 56006 58003 88270 99020;","Q01  00002PRCP99"
"76373099999","2001-01-09T00:00:00","4","25.35","-105.75","1967.0","TEPEHUANES DGO., MX","FM-12","99999","V020","150,1,N,0020,1","09000,1,9,N","070000,1,N,1","+0168,1","+0079,1","10135,1","24,0000,9,1",,,,"01,1,+02400,9,03,9",,,,"07,99,1,01,1,00,1,01750,1,03,1,07,1",,"01,9",,"120,M,+0192,1","180,N,+0002,1","99999,9,08167,1","7,1,015,1,-013,1",,,"SYN130AAXX  09001 76373 32788 71502 10168 20079 38167 40135 57015 81037 92350 333 10192 20002 30/// 50160 56066 59013 70000 81358 86230;","Q01  00002PRCP99Q02  00003PRCP99"
"76373099999","2001-01-09T15:00:00","4","25.35","-105.75","1967.0","TEPEHUANES DGO., MX","FM-12","99999","V020","999,9,C,0000,1","22000,1,9,N","060000,1,N,1","+0030,1","-0008,1","10180,1","99,0000,9,1",,,,"01,1,+02400,9,03,9",,,,"03,99,1,01,1,00,1,01750,1,06,1,04,1",,"01,9",,,,"99999,9,08190,1","2,1,005,1,-027,1",,,"SYN106AAXX  09151 76373 32786 30000 10030 21008 38190 40180 52005 81064 91447 333 30/// 56066 59027 81358 82070;","Q01  00002PRCP99"
"76373099999","2001-01-09T18:00:00","4","25.35","-105.75","1967.0","TEPEHUANES DGO., MX","FM-12","99999","V020","060,1,N,0020,1","03000,1,9,N","070000,1,N,1","+0150,1","+0031,1","10174,1","99,0000,9,1",,,,"05,1,+03000,9,03,9",,,,"07,99,1,03,1,00,1,01750,1,03,1,02,1",,"01,9",,"120,M,+0192,1","240,N,+0004,1","99999,9,08182,1","6,1,008,1,-031,1",,,"SYN118AAXX  09181 76373 32788 70602 10150 20031 38182 40174 56008 83032 91735 333 10192 20004 30/// 56055 59031 85360 82070;","Q01  00002PRCP99"
"76373099999","2001-01-09T21:00:00","4","25.35","-105.75","1967.0","TEPEHUANES DGO., MX","FM-12","99999","V020","180,1,N,0060,1","03600,1,C,N","070000,1,N,1","+0209,1","+0058,1","10124,1","99,0000,9,1",,,,"01,1,+00300,9,08,9",,,,"05,99,1,01,1,01,1,00450,1,03,1,00,1",,"01,9",,,,"99999,9,08151,1","7,1,031,1,-031,1",,,"SYN106AAXX  09211 76373 32488 51806 10209 20058 38151 40124 57031 81130 92050 333 30/// 56550 59031 81810 84358;","Q01  00002PRCP99"
"76373099999","2001-01-10T03:00:00","4","25.35","-105.75","1967.0","TEPEHUANES DGO., MX","FM-12","99999","V020","140,1,N,0010,1","22000,1,9,N","000200,1,N,1","+0101,1","+0031,1","10124,1","99,0000,9,1",,,,"02,1,+00300,9,02,9",,,,"02,99,1,02,1,01,1,00450,1,00,1,00,1",,"01,9",,,,"99999,9,08151,1","0,1,000,1,-038,1",,,"SYN100AAXX  10031 76373 32402 21401 10101 20031 38151 40124 50000 82100 90247 333 30/// 56500 59038 82810;","Q01  00002PRCP99"
"76373099999","2001-01-10T12:00:00","4","25.35","-105.75","1967.0","TEPEHUANES DGO., MX","FM-12","99999","V020","310,1,N,0010,1","00300,1,9,N","000200,1,N,1","+0070,1","+0043,1","10135,1","06,0004,9,1","24,0005,9,1","5,1,06,1","5,1,06,1","08,1,+00300,9,06,9",,,,"08,99,1,08,1,07,1,00450,1,99,9,99,9",,"09,9","999,+0050,9","999,M,+0226,1","120,N,+0058,1","99999,9,08167,1","2,1,003,1,-018,1","50,1",,"SYN136AAXX  10121 76373 /1402 83101 10070 20043 38167 40135 52003 69947 75055 887// 91147 333 10226 20058 31005 565// 59018 69941 70005 88710;",
"76373099999","2001-01-10T18:00:00","4","25.35","-105.75","1967.0","TEPEHUANES DGO., MX","FM-12","99999","V020","270,1,N,0020,1","22000,1,9,N","070000,1,N,1","+0148,1","+0034,1","10177,1","99,0000,2,1",,,,"01,1,+00300,9,02,9",,,,"01,99,1,01,1,01,1,00450,1,00,1,00,1",,"09,9",,"120,M,+0226,1","240,N,+0052,1","99999,9,08194,1","0,1,008,1,+012,1",,,"SYN112AAXX  10181 76373 32488 12702 10148 20034 38194 40177 50008 81100 91746 333 10226 20052 31/// 56500 58012 81810;",
"76373099999","2001-01-10T21:00:00","4","25.35","-105.75","1967.0","TEPEHUANES DGO., MX","FM-12","99999","V020","280,1,N,0090,1","22000,1,9,N","070000,1,N,1","+0172,1","+0021,1","10153,1","99,0000,2,1",,,,"00,1,+99999,9,99,9",,,,"00,99,1,00,1,00,1,99999,9,00,1,00,1",,"01,9",,,,"99999,9,08181,1","6,1,013,1,+030,1",,,"SYN082AAXX  10211 76373 32988 02809 10172 20021 38181 40153 56013 92035 333 30/// 58030;",
"76373099999","2001-01-11T00:00:00","4","25.35","-105.75","1967.0","TEPEHUANES DGO., MX","FM-12","99999","V020","270,1,N,0030,1","22000,1,9,N","070000,1,N,1","+0153,1","+0038,1","10164,1","24,0010,9,1",,,,"00,1,+99999,9,99,9",,,,"00,99,1,00,1,00,1,99999,9,00,1,00,1",,"01,9",,"120,M,+0184,1","180,N,+0052,1","99999,9,08190,1","2,1,009,1,+039,1",,,"SYN106AAXX  11001 76373 32988 02703 10153 20038 38190 40164 52009 92345 333 10184 20052 30/// 50450 58039 70009;",
"76373099999","2001-01-11T03:00:00","4","25.35","-105.75","1967.0","TEPEHUANES DGO., MX","FM-12","99999","V020","310,1,N,0020,1","22000,1,9,N","000200,1,N,1","+0083,1","+0000,1","10198,1","99,0000,9,1",,,,"00,1,+99999,9,99,9",,,,"00,99,1,00,1,00,1,99999,9,00,1,00,1",,"01,9",,,,"99999,9,08211,1","2,1,021,1,-060,1",,,"SYN082AAXX  11031 76373 32902 03102 10083 20000 38211 40198 52021 90238 333 30/// 59060;","Q01  00002PRCP99"
"76373099999","2001-01-11T15:00:00","4","25.35","-105.75","1967.0","TEPEHUANES DGO., MX","FM-12","99999","V020","280,1,N,0020,1","22000,1,9,N","060000,1,N,1","-0024,1","-0035,1","10269,1","99,0000,9,1",,,,"00,1,+99999,9,99,9",,,,"00,99,1,00,1,00,1,99999,9,00,1,00,1",,"01,9",,,,"99999,9,08248,1","9,9,999,9,+062,1",,,"SYN082AAXX  11151 76373 32986 02802 11024 21035 38248 40269 5//// 91433 333 30/// 58062;","Q01  00002PRCP99"
"76373099999","2001-01-11T18:00:00","4","25.35","-105.75","1967.0","TEPEHUANES DGO., MX","FM-12","99999","V020","040,1,N,0010,1","22000,1,9,N","070000,1,N,1","+0100,1","-0003,1","10262,1","99,0000,9,1",,,,"04,1,+06000,9,01,9",,,,"04,99,1,00,1,00,1,99999,9,00,1,04,1",,"01,9",,"120,M,+0184,1","240,N,-0058,1","99999,9,08243,1","8,1,005,1,+049,1",,,"SYN112AAXX  11181 76373 32988 40401 10100 21003 38243 40262 58005 80004 91750 333 10184 21058 30/// 56006 58049 84070;","Q01  00002PRCP99"
"76373099999","2001-01-11T21:00:00","4","25.35","-105.75","1967.0","TEPEHUANES DGO., MX","FM-12","99999","V020","180,1,N,0010,1","06000,1,9,N","070000,1,N,1","+0212,2","+0049,1","10221,1","99,0000,9,1",,,,"08,1,+06000,9,02,9",,,,"08,99,1,00,1,00,1,99999,9,00,1,08,1",,"01,9",,,,"99999,9,08210,1","6,1,033,1,+029,1",,,"SYN106AAXX  11211 76373 32988 81801 10212 20049 38210 40221 56033 80008 92042 333 30/// 56006 58029 88270 99020;","Q01  00002PRCP99"
"76373099999","2001-01-12T00:00:00","4","25.35","-105.75","1967.0","TEPEHUANES DGO., MX","FM-12","99999","V020","270,1,N,0030,1","06000,1,C,N","070000,1,N,1","+0212,1","+0038,1","10191,1","24,0000,9,1",,,,"08,1,+06000,9,02,9",,,,"08,99,1,00,1,00,1,99999,9,00,1,07,1",,"01,9",,"120,M,+0238,1","180,N,-0058,1","99999,9,08199,1","7,1,011,1,+009,1",,,"SYN130AAXX  12001 76373 32988 82703 10212 20038 38199 40191 57011 80007 92340 333 10238 21058 30/// 50300 56006 58009 70000 88270 99013;","Q01  00002PRCP99Q02  00003PRCP99"
"76373099999","2001-01-12T15:00:00","4","25.35","-105.75","1967.0","TEPEHUANES DGO., MX","FM-12","99999","V020","330,1,N,0010,1","03000,1,9,N","070000,1,N,1","+0008,1","-0058,1","10206,1","99,0000,9,1",,,,"05,1,+03000,9,03,9",,,,"06,99,1,05,1,00,1,01750,1,03,1,02,1",,"01,9",,,,"99999,9,08224,1","9,9,999,9,-024,1",,,"SYN106AAXX  12151 76373 32788 63301 10008 21058 38224 40206 5//// 85032 91438 333 30/// 56055 59024 85360 81070;","Q01  00002PRCP99"
"76373099999","2001-01-12T18:00:00","4","25.35","-105.75","1967.0","TEPEHUANES DGO., MX","FM-12","99999","V020","120,1,N,0010,1","03000,1,9,N","070000,1,N,1","+0144,1","+0008,1","10201,1","99,0000,9,1",,,,"05,1,+03000,9,03,9",,,,"07,99,1,05,1,00,1,01750,1,06,1,02,1",,"01,9",,"120,M,+0238,1","240,N,-0022,1","99999,9,08220,1","8,1,004,1,-023,1",,,"SYN118AAXX  12181 76373 32788 71201 10144 20008 38220 40201 58004 85062 91740 333 10238 21022 30/// 56055 59023 85360 82070;","Q01  00002PRCP99"
"76373099999","2001-01-12T21:00:00","4","25.35","-105.75","1967.0","TEPEHUANES DGO., MX","FM-12","99999","V020","210,1,N,0060,1","09000,1,C,N","070000,1,N,1","+0178,1","+0042,1","10181,1","99,0000,9,1",,,,"04,1,+03000,9,03,9",,,,"08,99,1,04,1,00,1,01750,1,06,1,08,1",,"01,9",,,,"99999,9,08204,1","6,1,016,1,-006,1",,,"SYN106AAXX  12211 76373 32788 82106 10178 20042 38204 40181 56016 84068 92035 333 30/// 56055 59006 84360 88270;","Q01  00002PRCP99"
"76373099999","2001-01-15T00:00:00","4","25.35","-105.75","1967.0","TEPEHUANES DGO., MX","FM-12","99999","V020","200,1,N,0030,1","01200,1,9,N","070000,1,N,1","+0166,1","+0078,1","99999,9","24,0000,9,1",,,,,,,,"08,99,1,08,1,00,1,01250,1,06,1,00,1",,"01,9",,"120,M,+0176,1","180,N,+0018,1","99999,9,08207,1","2,1,002,1,+999,9",,,"SYN124AAXX  15001 76373 32688 82003 10166 20078 38207 4//// 52002 88060 92340 333 10176 20018 30/// 50200 56060 58/// 70000 88360;","Q01  00002PRCP99Q02  00003PRCP99"
"76373099999","2001-01-15T12:00:00","4","25.35","-105.75","1967.0","TEPEHUANES DGO., MX","FM-12","99999","V020","999,9,C,0000,1","03000,1,9,N","010000,1,N,1","+0082,1","+0025,1","10182,1","24,0000,9,1",,,,"08,1,+03000,9,07,9",,,,"08,99,1,08,1,00,1,01250,1,06,1,00,1",,"01,9","999,-0030,9","999,M,+0176,1","120,N,+0056,1","99999,9,08211,1",,,,"SYN118AAXX  15121 76373 32660 80000 10082 20025 38211 40182 5//// 88060 91210 333 10176 20056 30103 56060 58/// 70000 88360;",
"76373099999","2001-01-15T18:00:00","4","25.35","-105.75","1967.0","TEPEHUANES DGO., MX","FM-12","99999","V020","300,1,N,0010,1","03600,1,C,N","070000,1,N,1","+0180,1","+0083,1","10164,1","99,0000,9,1",,,,"01,1,+00300,9,08,9",,,,"05,99,1,01,1,01,1,00450,1,03,1,00,1",,"01,9",,"120,M,+0186,1","240,N,+0046,1","99999,9,08210,1","8,1,009,1,-002,1",,,"SYN118AAXX  15181 76373 32488 53001 10180 20083 38210 40164 58009 81130 91735 333 10186 20046 30/// 56550 59002 81810 84360;","Q01  00002PRCP99"
"76373099999","2001-01-15T21:00:00","4","25.35","-105.75","1967.0","TEPEHUANES DGO., MX","FM-12","99999","V020","270,1,N,0070,1","03600,1,C,N","070000,1,N,1","+0194,1","+0104,1","10161,1","99,0000,9,1",,,,"03,1,+00300,9,08,9",,,,"08,99,1,03,1,01,1,00250,1,06,1,00,1",,"01,9",,,,"99999,9,08194,1","7,1,016,1,-011,1",,,"SYN106AAXX  15211 76373 32388 82707 10194 20104 38194 40161 57016 83160 92040 333 30/// 56550 59011 83810 85360;","Q01  00002PRCP99"
"76373099999","2001-01-16T00:00:00","4","25.35","-105.75","1967.0","TEPEHUANES DGO., MX","FM-12","99999","V020","210,1,N,0030,1","02400,1,C,N","070000,1,N,1","+0177,1","+0058,1","10143,1","24,0000,9,1",,,,"02,1,+00300,9,06,9","03,1,+02400,9,03,9",,,"06,99,1,02,1,04,1,00450,1,03,1,05,1",,"01,9",,"120,M,+0224,1","180,N,+0046,1","99999,9,08193,1","5,1,001,1,-014,1",,,"SYN136AAXX  16001 76373 32488 62103 10177 20058 38193 40143 55001 82435 92335 333 10224 20046 30/// 50160 56555 59014 70000 82610 83358 81070;","Q01  00002PRCP99Q02  00003PRCP99"
"76373099999","2001-01-16T12:00:00","4","25.35","-105.75","1967.0","TEPEHUANES DGO., MX","FM-12","99999","V020","999,9,C,0000,1","22000,1,9,N","000200,1,N,1","+0034,1","+0008,1","10147,1","24,0000,9,1",,,,"00,1,+99999,9,99,9",,,,"00,99,1,00,1,00,1,99999,9,00,1,00,1",,"01,9","999,-0010,9","999,M,+0224,1","120,N,+0022,1","99999,9,08183,1","7,1,002,1,-028,1",,,"SYN100AAXX  16121 76373 32902 00000 10034 20008 38183 40147 57002 91138 333 10224 20022 30101 59028 70000;","Q01  00002PRCP24"
"76373099999","2001-01-16T15:00:00","4","25.35","-105.75","1967.0","TEPEHUANES DGO., MX","FM-12","99999","V020","999,9,C,0000,1","22000,1,9,N","060000,1,N,1","+0045,1","+0032,1","10159,1","99,0000,9,1",,,,"01,1,+02400,9,07,9",,,,"01,99,1,01,1,99,9,01750,1,04,1,00,1",,"01,9",,,,"99999,9,08186,1","2,1,003,1,-033,1",,,"SYN100AAXX  16151 76373 32786 10000 10045 20032 38186 40159 52003 81040 91446 333 30/// 56060 59033 81358;","Q01  00002PRCP99Q02    003SCOLCG"
"76373099999","2001-01-16T18:00:00","4","25.35","-105.75","1967.0","TEPEHUANES DGO., MX","FM-12","99999","V020","280,1,N,0070,1","22000,1,9,N","070000,1,N,1","+0190,1","+0051,1","10144,1","99,0000,9,1",,,,"01,1,+00300,9,08,9",,,,"02,99,1,01,1,01,1,00450,1,00,1,02,1",,"01,9",,"120,M,+0224,1","240,N,+0005,1","99999,9,08187,1","6,1,001,1,-023,1",,,"SYN118AAXX  16181 76373 32488 22807 10190 20051 38187 40144 56001 81102 91740 333 10224 20005 30/// 56606 59023 81810 81070;","Q01  00002PRCP99"
"76373099999","2001-01-16T21:00:00","4","25.35","-105.75","1967.0","TEPEHUANES DGO., MX","FM-12","99999","V020","260,1,N,0080,1","22000,1,C,N","070000,1,N,1","+0202,1","+0063,1","10143,1","99,0000,9,1",,,,"02,1,+00300,9,08,9",,,,"07,99,1,02,1,01,1,00450,1,00,1,04,1",,"01,9",,,,"99999,9,08173,1","6,1,014,1,-021,1",,,"SYN106AAXX  16211 76373 32488 72608 10202 20063 38173 40143 56014 82104 92035 333 30/// 56505 59021 82810 85070;","Q01  00002PRCP99"
"76373099999","2001-01-17T00:00:00","4","25.35","-105.75","1967.0","TEPEHUANES DGO., MX","FM-12","99999","V020","240,1,N,0050,1","99999,9,9,N","070000,1,N,1","+0161,1","+0073,1","10133,1","24,0000,9,1",,,,,,,,"06,99,1,00,1,00,1,99999,9,00,1,08,1",,"01,9",,"120,M,+0218,1","180,N,+0005,1","99999,9,08172,1","5,1,001,1,-021,1",,,"SYN124AAXX  17001 76373 32988 62405 10161 20073 38172 40133 55001 80008 92352 333 10218 20005 30/// 50430 56006 59021 70000 86270;","Q01  00002PRCP99Q02  00003PRCP99"
"76373099999","2001-01-17T15:00:00","4","25.35","-105.75","1967.0","TEPEHUANES DGO., MX","FM-12","99999","V020","999,9,C,0000,1","22000,1,9,N","060000,1,N,1","-0006,1","-0027,1","10186,1","99,0000,9,1",,,,"01,1,+06000,9,01,9",,,,"01,99,1,00,1,00,1,99999,9,00,1,05,1",,"01,9",,,,"99999,9,08188,1","2,1,004,1,+002,1",,,"SYN100AAXX  17151 76373 32986 10000 11006 21027 38188 40186 52004 80005 91440 333 30/// 56006 58002 81070;","Q01  00002PRCP99"
"76373099999","2001-01-17T18:00:00","4","25.35","-105.75","1967.0","TEPEHUANES DGO., MX","FM-12","99999","V020","210,1,N,0060,1","22000,1,9,N","070000,1,N,1","+0170,2","+0103,2","10164,1","99,0000,9,1",,,,"01,1,+06000,9,01,9",,,,"01,99,1,00,1,00,1,99999,9,00,1,05,1",,"01,9",,"120,M,+0218,1","240,N,-0030,1","99999,9,08184,1","8,1,004,1,-003,1",,,"SYN112AAXX  17181 76373 32988 12106 10170 20103 38184 40164 58004 80005 91735 333 10218 21030 30/// 56006 59003 81070;","Q01+001703ATOT  Q02  00002PRCP99"
"76373099999","2001-01-17T21:00:00","4","25.35","-105.75","1967.0","TEPEHUANES DGO., MX","FM-12","99999","V020","200,1,N,0060,1","22000,1,C,N","070000,1,N,1","+0186,1","+0014,1","10149,1","99,0000,9,1",,,,"01,1,+03000,9,03,9",,,,"06,99,1,01,1,00,1,01750,1,03,1,04,1",,"01,9",,,,"99999,9,08158,1","6,1,026,1,-015,1",,,"SYN106AAXX  17211 76373 32788 62006 10186 20014 38158 40149 56026 81034 92038 333 30/// 56066 59015 81360 85070;","Q01  00002PRCP99"
"76373099999","2001-01-18T00:00:00","4","25.35","-105.75","1967.0","TEPEHUANES DGO., MX","FM-12","99999","V020","240,1,N,0030,1","22000,1,9,N","070000,1,N,1","+0158,1","+0050,1","10126,1","24,0000,9,1",,,,,,,,"03,99,1,00,1,00,1,99999,9,00,1,08,1",,"01,9",,"120,M,+0213,1","180,N,-0030,1","99999,9,08153,1","7,1,005,1,-019,1",,,"SYN124AAXX  18001 76373 32988 32403 10158 20050 38153 40126 57005 80008 92346 333 10213 21030 30/// 50500 56006 59019 70000 83270;","Q01  00002PRCP99Q02  00003PRCP99"
"76373099999","2001-01-18T15:00:00","4","25.35","-105.75","1967.0","TEPEHUANES DGO., MX","FM-12","99999","V020","240,1,N,0070,1","22000,1,9,N","030000,1,N,1","+0062,1","+0001,1","10109,1","01,9999,2,9",,"2,1,03,1","2,1,03,1","04,1,+00300,9,05,9",,,,"04,99,1,04,1,04,1,00250,1,00,1,00,1",,"01,9",,,,"99999,9,08146,1","8,1,052,2,-042,1","50,1",,"SYN112AAXX  18151 76373 21380 42407 10062 20001 38146 40109 58052 75022 84400 91442 333 30/// 56300 59042 69905 84610;","Q01+000522APC3  "
"76373099999","2001-01-18T18:00:00","4","25.35","-105.75","1967.0","TEPEHUANES DGO., MX","FM-12","99999","V020","330,1,N,0080,1","09000,1,C,N","020000,1,N,1","+0072,1","+0023,1","10114,1","02,0007,9,1",,"5,1,06,1","5,1,06,1","06,1,+99999,9,01,9",,,,"08,99,1,08,1,07,1,00250,1,00,1,00,1",,"01,9",,"120,M,+0213,1","240,N,-0010,1","99999,9,08150,1","2,1,004,1,-034,1","50,1",,"SYN123AAXX  18181 76373 11370 83308 10072 20023 38150 40114 52004 69906 75055 88700 91738 333 10213 21010 30/// 56300 59034 8610;",
"76373099999","2001-01-18T21:00:00","4","25.35","-105.75","1967.0","TEPEHUANES DGO., MX","FM-12","99999","V020","210,1,N,0080,1","00300,1,9,N","070000,1,N,1","+0090,1","-0012,1","10130,1","03,0007,9,1",,"5,1,03,1","2,1,03,1","06,1,+00300,9,05,9",,,,"06,99,1,06,1,06,1,00250,1,00,1,00,1",,"01,9",,,,"99999,9,08143,1","7,1,007,1,-015,1","16,1",,"SYN112AAXX  18211 76373 11388 62108 10090 21012 38143 40130 57007 69907 71652 86600 92042 333 30/// 56300 59015 86610;",
"76373099999","2001-01-19T00:00:00","4","25.35","-105.75","1967.0","TEPEHUANES DGO., MX","FM-12","99999","V020","210,1,N,0040,1","22000,1,9,N","070000,1,N,1","+0082,1","-0012,1","10144,1","24,0000,2,1",,,,,,,,"04,99,1,04,1,01,1,00450,1,00,1,00,1",,"01,9",,"120,M,+0122,1","180,N,+0032,1","99999,9,08155,1","1,1,012,1,+002,1",,,"SYN124AAXX  19001 76373 32488 42104 10082 21012 38155 40144 51012 84100 92337 333 10122 20032 30/// 50250 56600 58002 79999 84810;",
"76373099999","2001-01-19T15:00:00","4","25.35","-105.75","1967.0","TEPEHUANES DGO., MX","FM-12","99999","V020","110,1,N,0010,1","22000,1,9,N","060000,1,N,1","-0008,1","-0070,1","10282,1","99,0000,9,1",,,,"00,1,+99999,9,99,9",,,,"00,99,1,00,1,00,1,99999,9,00,1,00,1",,"01,9",,,,"99999,9,08239,1","9,9,999,9,+093,1",,,"SYN082AAXX  19151 76373 32986 01101 11008 21070 38239 40282 5//// 91440 333 30/// 58093;","Q01  00002PRCP99"
"76373099999","2001-01-19T18:00:00","4","25.35","-105.75","1967.0","TEPEHUANES DGO., MX","FM-12","99999","V020","120,1,N,0030,1","22000,1,9,N","070000,1,N,1","+0050,1","-0053,1","10293,1","99,0000,9,1",,,,"01,1,+00300,9,02,9",,,,"01,99,1,01,1,01,1,00250,1,00,1,00,1",,"01,9",,"120,M,+0122,1","240,N,-0034,1","99999,9,08248,1","2,1,009,1,+098,1",,,"SYN112AAXX  19181 76373 32388 11203 10050 21053 38248 40293 52009 81100 91738 333 10122 21034 30/// 56200 58098 81810;","Q01  00002PRCP99"
"76373099999","2001-01-19T21:00:00","4","25.35","-105.75","1967.0","TEPEHUANES DGO., MX","FM-12","99999","V020","140,1,N,0060,1","22000,1,9,N","070000,1,N,1","+0082,1","-0052,1","10251,1","99,0000,9,1",,,,"00,1,+99999,9,99,9",,,,"00,99,1,00,1,00,1,99999,9,00,1,00,1",,"01,9",,,,"99999,9,08214,1","6,1,034,1,+071,1",,,"SYN082AAXX  19211 76373 32988 01406 10082 21052 38214 40251 56034 92040 333 30/// 58071;","Q01  00002PRCP99"
"76373099999","2001-01-20T00:00:00","4","25.35","-105.75","1967.0","TEPEHUANES DGO., MX","FM-12","99999","V020","130,1,N,0040,1","22000,1,9,N","070000,1,N,1","+0082,1","-0044,1","10239,1","24,0000,9,1",,,,"00,1,+99999,9,99,9",,,,"00,99,1,00,1,00,1,99999,9,00,1,00,1",,"01,9",,"120,M,+0108,1","180,N,-0034,1","99999,9,08211,1","7,1,003,1,+056,1",,,"SYN106AAXX  20001 76373 32988 01304 10082 21044 38211 40239 57003 92350 333 10108 21034 30/// 50460 58056 70000;","Q01  00002PRCP24"
"76373099999","2001-01-20T03:00:00","4","25.35","-105.75","1967.0","TEPEHUANES DGO., MX","FM-12","99999","V020","999,9,C,0000,1","22000,1,9,N","000200,1,N,1","+0032,1","-0047,1","10282,1","99,0000,9,1",,,,"00,1,+99999,9,99,9",,,,"00,99,1,00,1,00,1,99999,9,00,1,00,1",,"01,9",,,,"99999,9,08232,1","2,1,021,1,+999,9",,,"SYN082AAXX  20031 76373 32902 00000 10032 21047 38232 40282 52021 90234 333 30/// 58///;","Q01  00002PRCP99"
"76373099999","2001-01-21T03:00:00","4","25.35","-105.75","1967.0","TEPEHUANES DGO., MX","FM-12","99999","V020","999,9,C,0000,1","09000,1,9,N","010000,1,N,1","+0112,1","-0008,1","10123,1","99,0000,9,1",,,,"08,1,+09000,9,01,9",,,,"08,99,1,00,1,00,1,99999,9,00,1,06,1",,"01,9",,,,"99999,9,08230,1","2,1,030,1,-002,1",,,"SYN100AAXX  21031 76373 32960 80000 10112 21008 38230 40123 52030 80006 90230 333 30/// 56006 59002 88080;","Q01  00002PRCP99"
"76373099999","2001-01-21T15:00:00","4","25.35","-105.75","1967.0","TEPEHUANES DGO., MX","FM-12","99999","V020","999,9,C,0000,1","22000,1,9,N","070000,1,N,1","+0002,1","-0076,1","10289,1","99,0000,9,1",,,,"02,1,+03000,9,07,9",,,,"02,99,1,02,1,00,1,00250,1,03,1,00,1",,"01,9",,,,"99999,9,08278,1","9,9,999,9,+048,1",,,"SYN100AAXX  21151 76373 32388 20000 10002 21076 38278 40289 5//// 82030 91445 333 30/// 56060 58048 82360;","Q01  00002PRCP99"
"76373099999","2001-01-21T18:00:00","4","25.35","-105.75","1967.0","TEPEHUANES DGO., MX","FM-12","99999","V020","110,1,N,0030,1","22000,1,9,N","070000,1,N,1","+0142,1","+0005,1","10282,1","99,0000,9,1",,,,"00,1,+99999,9,99,9",,,,"00,99,1,00,1,00,1,99999,9,00,1,00,1",,"01,9",,"120,M,+0232,1","240,N,-0040,1","99999,9,08285,1","7,1,007,1,+071,1",,,"SYN094AAXX  21181 76373 32988 01103 10142 20005 38285 40282 57007 91750 333 10232 21040 30/// 58071;","Q01  00002PRCP99"
"76373099999","2001-01-21T21:00:00","4","25.35","-105.75","1967.0","TEPEHUANES DGO., MX","FM-12","99999","V020","120,1,N,0040,1","22000,1,9,N","070000,1,N,1","+0166,1","+0049,1","10180,2","99,0000,9,1",,,,"03,1,+09000,9,01,9",,,,"03,99,1,00,1,00,1,99999,9,00,1,06,1",,"01,9",,,,"99999,9,08190,2","7,1,009,1,-007,1",,,"SYN100AAXX  21211 76373 32988 31204 10166 20049 38190 40180 57009 80006 92050 333 30/// 56006 59007 83080;","Q01+081903APOSP Q02+101803APOSLPQ03  00002PRCP99"
"76373099999","2001-01-22T00:00:00","4","25.35","-105.75","1967.0","TEPEHUANES DGO., MX","FM-12","99999","V020","140,1,N,0040,1","99999,9,9,N","070000,1,N,1","+0152,1","+0065,1","10235,1","24,0000,9,1",,,,,,,,"06,99,1,00,1,00,1,99999,9,00,1,06,1",,"01,9",,"120,M,+0196,1","180,N,-0040,1","99999,9,08241,1","7,1,015,1,+041,1",,,"SYN124AAXX  22001 76373 32988 61404 10152 20065 38241 40235 57015 80006 92330 333 10196 21040 30/// 50370 56006 58041 70000 86080;","Q01  00002PRCP99Q02  00003PRCP99"
"76373099999","2001-01-22T15:00:00","4","25.35","-105.75","1967.0","TEPEHUANES DGO., MX","FM-12","99999","V020","999,9,C,0000,1","22000,1,9,N","070000,1,N,1","+0000,1","-0069,1","10279,1","99,0000,9,1",,,,"00,1,+99999,9,99,9",,,,"00,99,1,00,1,00,1,99999,9,00,1,00,1",,"01,9",,,,"99999,9,08263,1","9,9,999,9,-015,1",,,"SYN082AAXX  22151 76373 32988 00000 10000 21069 38263 40279 5//// 91450 333 30/// 59015;","Q01  00002PRCP99"
"76373099999","2001-01-22T18:00:00","4","25.35","-105.75","1967.0","TEPEHUANES DGO., MX","FM-12","99999","V020","110,1,N,0020,1","22000,1,9,N","070000,1,N,1","+0106,1","-0016,1","10290,1","99,0000,9,1",,,,"01,1,+03000,9,07,9",,,,"01,99,1,01,1,00,1,01750,1,03,1,00,1",,"01,9",,"120,M,+0196,1","240,N,-0038,1","99999,9,08272,1","2,1,009,1,-013,1",,,"SYN112AAXX  22181 76373 32788 11102 10106 21016 38272 40290 52009 81030 91745 333 10196 21038 30/// 56060 59013 81360;","Q01  00002PRCP99"
"76373099999","2001-01-22T21:00:00","4","25.35","-105.75","1967.0","TEPEHUANES DGO., MX","FM-12","99999","V020","120,1,N,0040,1","06000,1,9,N","070000,1,N,1","+0184,1","+0020,1","10224,2","99,0000,9,1",,,,"02,1,+03000,9,03,9","06,1,+06000,9,02,9",,,"08,99,1,02,1,00,1,01750,1,03,1,07,1",,"01,9",,,,"99999,9,08219,1","4,1,000,1,-037,1",,,"SYN112AAXX  22211 76373 32788 81204 10184 20020 38219 40224 56053 82037 92050 333 30/// 56066 59037 82360 86270 99020;","Q01+102243APOSLPQ02+000062APCTENQ03+000532APC3  Q04  00002PRCP99"
"76373099999","2001-01-23T12:00:00","4","25.35","-105.75","1967.0","TEPEHUANES DGO., MX","FM-12","99999","V020","999,9,C,0000,1","22000,1,9,N","000200,1,N,1","+0001,1","+9999,9","10222,1","24,0000,9,1",,,,"00,1,+99999,9,99,9",,,,"00,99,1,00,1,00,1,99999,9,00,1,00,1",,"01,9","999,-0030,9","999,M,+0228,1","120,N,-0010,1","99999,9,08224,1","7,1,002,1,+999,9",,,"SYN100AAXX  23121 76373 32002 00000 10001 20135 38224 40222 57002 91140 333 10228 21010 30103 58/// 70000;","Q01  00002PRCP24"
"76373099999","2001-01-23T15:00:00","4","25.35","-105.75","1967.0","TEPEHUANES DGO., MX","FM-12","99999","V020","999,9,C,0000,1","22000,1,9,N","060000,1,N,1","+0000,1","-0025,1","10244,1","99,0000,9,1",,,,"01,1,+02400,9,07,9",,,,"01,99,1,01,1,99,9,01750,1,04,1,00,1",,"01,9",,,,"99999,9,08235,1","2,1,011,1,-028,1",,,"SYN100AAXX  23151 76373 32786 10000 10000 21025 38235 40244 52011 81040 91445 333 30/// 56060 59028 81358;","Q01  00002PRCP99Q02    003SCOLCG"
"76373099999","2001-01-23T18:00:00","4","25.35","-105.75","1967.0","TEPEHUANES DGO., MX","FM-12","99999","V020","090,1,N,0010,1","22000,1,9,N","070000,1,N,1","+0162,2","+0064,1","10211,1","99,0000,9,1",,,,"01,1,+03000,9,07,9",,,,"01,99,1,01,1,00,1,01750,1,03,1,00,1",,"01,9",,"120,M,+0228,1","240,N,-0022,1","99999,9,08228,1","6,1,007,1,-044,1",,,"SYN112AAXX  23181 76373 32788 10901 10162 20064 38228 40211 56007 81030 91740 333 10228 21022 30/// 56060 59044 81360;","Q01+001623ATOT  Q02  00002PRCP99"
"76373099999","2001-01-23T21:00:00","4","25.35","-105.75","1967.0","TEPEHUANES DGO., MX","FM-12","99999","V020","260,1,N,0060,1","22000,1,9,N","070000,1,N,1","+0234,1","+0063,1","10182,1","99,0000,9,1",,,,"01,1,+06000,9,01,9",,,,"01,99,1,00,1,00,1,99999,9,00,1,05,1",,"01,9",,,,"99999,9,08198,1","7,1,030,1,-021,1",,,"SYN100AAXX  23211 76373 32988 12606 10234 20063 38198 40182 57030 80005 92038 333 30/// 56006 59021 81070;","Q01  00002PRCP99"
"76373099999","2001-01-24T00:00:00","4","25.35","-105.75","1967.0","TEPEHUANES DGO., MX","FM-12","99999","V020","290,1,N,0050,1","22000,1,9,N","070000,1,N,1","+0206,1","+0083,1","10157,1","24,0000,9,1",,,,"00,1,+99999,9,99,9",,,,"00,99,1,00,1,00,1,99999,9,00,1,00,1",,"01,9",,"120,M,+0248,1","180,N,-0022,1","99999,9,08191,1","6,1,007,1,-024,1",,,"SYN106AAXX  24001 76373 32988 02905 10206 20083 38191 40157 56007 92344 333 10248 21022 30/// 50360 59024 70000;","Q01  00002PRCP24"
"76373099999","2001-01-24T03:00:00","4","25.35","-105.75","1967.0","TEPEHUANES DGO., MX","FM-12","99999","V020","290,1,N,0040,1","22000,1,9,N","000200,1,N,1","+0128,1","+0043,1","10192,1","99,0000,9,1",,,,"00,1,+99999,9,99,9",,,,"00,99,1,00,1,00,1,99999,9,00,1,00,1",,"01,9",,,,"99999,9,08206,1","2,1,015,1,-023,1",,,"SYN082AAXX  24031 76373 32902 02904 10128 20043 38206 40192 52015 90257 333 30/// 59023;","Q01  00002PRCP99"
"76373099999","2001-01-24T06:00:00","4","25.35","-105.75","1967.0","TEPEHUANES DGO., MX","FM-12","99999","V020","999,9,C,0000,1","22000,1,9,N","000200,1,N,1","+0070,1","-0004,1","10217,1","99,0000,9,1",,,,"00,1,+99999,9,99,9",,,,"00,99,1,00,1,00,1,99999,9,00,1,00,1","0588,9","01,9",,"240,M,+0248,1","240,N,-0022,1","99999,9,08233,1","2,1,027,1,+999,9",,,"SYN100AAXX  24061 76373 32902 00000 10070 21004 38233 40217 52027 90540 333 10248 21022 30/// 55098 58///;","Q01  00002PRCP99"
"76373099999","2001-01-24T12:00:00","4","25.35","-105.75","1967.0","TEPEHUANES DGO., MX","FM-12","99999","V020","999,9,C,0000,1","22000,1,9,N","000200,1,N,1","-0006,1","-0029,1","10230,1","24,0000,9,1",,,,"00,1,+99999,9,99,9",,,,"00,99,1,00,1,00,1,99999,9,00,1,00,1",,"01,9","999,-0050,9","999,M,+0248,1","120,N,-0014,1","99999,9,08237,1","2,1,005,1,-013,1",,,"SYN100AAXX  24121 76373 32902 00000 11006 21029 38237 40230 52005 91157 333 10248 21014 30105 59013 70000;","Q01  00002PRCP24"
"76373099999","2001-01-24T15:00:00","4","25.35","-105.75","1967.0","TEPEHUANES DGO., MX","FM-12","99999","V020","999,9,C,0000,1","22000,1,9,N","060000,1,N,1","+0018,1","-0024,1","10251,1","99,0000,9,1",,,,"01,1,+06000,9,01,9",,,,"01,99,1,00,1,00,1,99999,9,00,1,05,1",,"01,9",,,,"99999,9,08254,1","2,1,017,1,+019,1",,,"SYN100AAXX  24151 76373 32986 10000 10018 21024 38254 40251 52017 80005 91450 333 30/// 56006 58019 81070;","Q01  00002PRCP99"
"76373099999","2001-01-24T18:00:00","4","25.35","-105.75","1967.0","TEPEHUANES DGO., MX","FM-12","99999","V020","140,1,N,0020,1","06000,1,9,N","070000,1,N,1","+0134,1","+0027,1","10256,1","99,0000,9,1",,,,"05,1,+06000,9,01,9",,,,"05,99,1,00,1,00,1,99999,9,00,1,04,1",,"01,9",,"120,M,+0248,1","240,N,-0030,1","99999,9,08258,1","2,1,004,1,+030,1",,,"SYN112AAXX  24181 76373 32988 51402 10134 20027 38258 40256 52004 80004 91742 333 10248 21030 30/// 56006 58030 85070;","Q01  00002PRCP99"
"76373099999","2001-01-24T21:00:00","4","25.35","-105.75","1967.0","TEPEHUANES DGO., MX","FM-12","99999","V020","120,1,N,0030,1","22000,1,9,N","070000,1,N,1","+0201,1","+0064,1","10206,1","99,0000,9,1",,,,"01,1,+02400,9,03,9",,,,"04,99,1,01,1,00,1,01750,1,06,1,09,1",,"01,9",,,,"99999,9,08217,1","7,1,041,1,+019,1",,,"SYN106AAXX  24211 76373 32788 41203 10201 20064 38217 40206 57041 81069 92050 333 30/// 56066 58019 81358 83170;","Q01  00002PRCP99"
"76373099999","2001-01-25T03:00:00","4","25.35","-105.75","1967.0","TEPEHUANES DGO., MX","FM-12","99999","V020","290,1,N,0020,1","22000,1,9,N","000200,1,N,1","+0137,1","+0007,1","10210,1","99,0000,9,1",,,,"00,1,+99999,9,99,9",,,,"00,99,1,00,1,00,1,99999,9,00,1,00,1",,"01,9",,,,"99999,9,08221,1","2,1,015,1,+015,1",,,"SYN082AAXX  25031 76373 32902 02902 10137 20007 38221 40210 52015 90245 333 30/// 58015;","Q01  00002PRCP99"
"76373099999","2001-01-25T12:00:00","4","25.35","-105.75","1967.0","TEPEHUANES DGO., MX","FM-12","99999","V020","999,9,C,0000,1","22000,1,9,N","000200,1,N,1","+0038,1","-0026,1","10220,1","24,0000,9,1",,,,,,,,"02,99,1,99,9,99,9,99999,9,99,9,99,9",,"01,9","999,-0010,9","999,M,+0232,1","120,N,+0026,1","99999,9,08235,1","4,1,000,1,-002,1",,,"SYN112AAXX  25121 76373 32/02 20000 10038 21026 38235 40220 54000 8//// 91140 333 10232 20026 30101 56/// 59002 70000;","Q01  00002PRCP24"
"76373099999","2001-01-25T15:00:00","4","25.35","-105.75","1967.0","TEPEHUANES DGO., MX","FM-12","99999","V020","999,9,C,0000,1","09000,1,C,N","070000,1,N,1","+0040,1","-0026,1","10238,1","99,0000,9,1",,,,"02,1,+03000,9,03,9",,,,"08,99,1,02,1,00,1,01750,1,03,1,08,1",,"01,9",,,,"99999,9,08250,1","1,1,015,1,-004,1",,,"SYN106AAXX  25151 76373 32788 80000 10040 21026 38250 40238 51015 82038 91440 333 30/// 56066 59004 82360 87270;","Q01  00002PRCP99"
"76373099999","2001-01-25T18:00:00","4","25.35","-105.75","1967.0","TEPEHUANES DGO., MX","FM-12","99999","V020","120,1,N,0020,1","06000,1,9,N","070000,1,N,1","+0150,1","+0031,1","10225,1","99,0000,9,1",,,,"07,1,+06000,9,08,9",,,,"07,99,1,99,9,00,1,99999,9,00,1,08,1",,"01,9",,"120,M,+0232,1","240,N,+0018,1","99999,9,08246,1","8,1,004,1,-012,1",,,"SYN112AAXX  25181 76373 32988 71202 10150 20031 38246 40225 58004 80008 91740 333 10232 20018 30/// 56006 59012 87270;","Q01+000002SCOTLCQ02  00002PRCP99"
"76373099999","2001-01-25T21:00:00","4","25.35","-105.75","1967.0","TEPEHUANES DGO., MX","FM-12","99999","V020","220,1,N,0050,1","06000,1,9,N","070000,1,N,1","+0226,1","+0074,1","10175,1","99,0000,9,1",,,,"08,1,+06000,9,08,9",,,,"08,99,1,99,9,00,1,99999,9,00,1,08,1",,"01,9",,,,"99999,9,08206,1","6,1,040,1,-011,1",,,"SYN100AAXX  25211 76373 32988 82205 10226 20074 38206 40175 56040 80008 92040 333 30/// 56006 59011 88270;","Q01+000002SCOTLCQ02  00002PRCP99"
"76373099999","2001-01-26T00:00:00","4","25.35","-105.75","1967.0","TEPEHUANES DGO., MX","FM-12","99999","V020","230,1,N,0050,1","99999,9,9,N","070000,1,N,1","+0216,1","+0077,1","10173,1","24,0000,9,1",,,,,,,,"06,99,1,00,1,00,1,99999,9,00,1,08,1",,"01,9",,"120,M,+0236,1","180,N,+0018,1","99999,9,08211,1","2,1,005,1,+005,1",,,"SYN124AAXX  26001 76373 32988 62305 10216 20077 38211 40173 52005 80008 92338 333 10236 20018 30/// 50430 56006 58005 70000 86270;","Q01  00002PRCP99Q02  00003PRCP99"
"76373099999","2001-01-26T15:00:00","4","25.35","-105.75","1967.0","TEPEHUANES DGO., MX","FM-12","99999","V020","999,9,C,0000,1","22000,1,C,N","060000,1,N,1","+0060,1","-0003,1","10199,1","99,0000,9,1",,,,"03,1,+03000,9,03,9",,,,"06,99,1,03,1,00,1,01750,1,03,1,06,1",,"01,9",,,,"99999,9,08232,1","9,9,999,9,-018,1",,,"SYN106AAXX  26151 76373 32786 60000 10060 21003 38232 40199 5//// 83036 91440 333 30/// 56066 59018 83360 83070;","Q01  00002PRCP99"
"76373099999","2001-01-26T18:00:00","4","25.35","-105.75","1967.0","TEPEHUANES DGO., MX","FM-12","99999","V020","120,1,N,0030,1","06000,1,9,N","070000,1,N,1","+0140,1","+0046,1","10186,1","99,0000,9,1",,,,"06,1,+06000,9,08,9",,,,"06,99,1,99,9,00,1,99999,9,00,1,08,1",,"01,9",,"120,M,+0236,1","240,N,+0036,1","99999,9,08228,1","8,1,004,1,-018,1",,,"SYN112AAXX  26181 76373 32988 61203 10140 20046 38228 40186 58004 80008 91738 333 10236 20036 30/// 56003 59018 86270;","Q01+000002SCOTLCQ02  00002PRCP99"
"76373099999","2001-01-26T21:00:00","4","25.35","-105.75","1967.0","TEPEHUANES DGO., MX","FM-12","99999","V020","120,1,N,0040,1","09000,1,C,N","070000,1,N,1","+0210,1","+0056,1","10137,1","99,0000,9,1",,,,"03,1,+03000,9,03,9",,,,"07,99,1,03,1,00,1,01750,1,03,1,06,1",,"01,9",,,,"99999,9,08182,1","6,1,046,1,-024,1",,,"SYN106AAXX  26211 76373 32788 71204 10210 20056 38182 40137 56046 83036 92040 333 30/// 56033 59024 83360 84070;","Q01  00002PRCP99"
"76373099999","2001-01-28T18:00:00","4","25.35","-105.75","1967.0","TEPEHUANES DGO., MX","FM-12","99999","V020","260,1,N,0120,1","22000,1,9,N","070000,1,N,1","+0166,1","+0074,1","10144,1","99,0000,9,1",,,,"00,1,+99999,9,99,9",,,,"00,99,1,00,1,00,1,99999,9,00,1,00,1",,"01,9",,"120,M,+0184,1","240,N,+0066,1","99999,9,08187,1","7,1,015,1,+010,1",,,"SYN094AAXX  28181 76373 32988 02612 10166 20074 38187 40144 57015 91750 333 10184 20066 30/// 58010;","Q01  00002PRCP99"
"76373099999","2001-01-28T21:00:00","4","25.35","-105.75","1967.0","TEPEHUANES DGO., MX","FM-12","99999","V020","260,1,N,0140,1","22000,1,9,N","070000,1,N,1","+0184,1","+0085,1","10115,1","99,0000,9,1",,,,"00,1,+99999,9,99,9",,,,"00,99,1,00,1,00,1,99999,9,00,1,00,1",,"01,9",,,,"99999,9,08164,1","7,1,023,1,+014,1",,,"SYN082AAXX  28211 76373 32988 02614 10184 20085 38164 40115 57023 92045 333 30/// 58014;","Q01  00002PRCP99"
"76373099999","2001-01-29T03:00:00","4","25.35","-105.75","1967.0","TEPEHUANES DGO., MX","FM-12","99999","V020","330,1,N,0010,1","22000,1,9,N","010000,1,N,1","+0102,1","+0037,1","10170,1","99,0000,9,1",,,,"00,1,+99999,9,99,9",,,,"00,99,1,00,1,00,1,99999,9,00,1,00,1",,"01,9",,,,"99999,9,08195,1","2,1,026,1,+011,1",,,"SYN082AAXX  29031 76373 32960 03301 10102 20037 38195 40170 52026 90240 333 30/// 58011;","Q01  00002PRCP99"
"76373099999","2001-01-29T18:00:00","4","25.35","-105.75","1967.0","TEPEHUANES DGO., MX","FM-12","99999","V020","270,1,N,0010,1","06000,1,9,N","070000,1,N,1","+0136,1","+0000,1","10191,1","99,0000,9,1",,,,"07,1,+06000,9,02,9",,,,"07,99,1,00,1,00,1,99999,9,00,1,07,1",,"01,9",,"120,M,+0194,1","240,N,+0032,1","99999,9,08212,1","2,1,004,1,+025,1",,,"SYN118AAXX  29181 76373 32988 72701 10136 20000 38212 40191 52004 80007 91740 333 10194 20032 30/// 56006 58025 87270 99020;","Q01  00002PRCP99"
"76373099999","2001-01-29T21:00:00","4","25.35","-105.75","1967.0","TEPEHUANES DGO., MX","FM-12","99999","V020","320,1,N,0030,1","06000,1,9,N","070000,1,N,1","+0200,1","+0009,1","10149,1","99,0000,9,1",,,,"08,1,+06000,9,02,9",,,,"08,99,1,00,1,00,1,99999,9,00,1,07,1",,"01,9",,,,"99999,9,08178,1","6,1,034,1,+014,1",,,"SYN106AAXX  29211 76373 32988 83203 10200 20009 38178 40149 56034 80007 92046 333 30/// 56006 58014 88270 99020;","Q01  00002PRCP99"
"76373099999","2001-01-30T00:00:00","4","25.35","-105.75","1967.0","TEPEHUANES DGO., MX","FM-12","99999","V020","250,1,N,0030,1","09000,1,9,N","070000,1,N,1","+0189,1","+0022,1","10131,1","24,0000,9,1",,,,"01,1,+02400,9,03,9",,,,"08,99,1,01,1,00,1,01750,1,04,1,08,1",,"01,9",,"120,M,+0230,1","180,N,+0032,1","99999,9,08170,1","5,1,008,1,+001,1",,,"SYN130AAXX  30001 76373 32788 82503 10189 20022 38170 40131 55008 81048 92347 333 10230 20032 30/// 50380 56066 58001 70000 81358 87270;","Q01  00002PRCP99Q02  00003PRCP99"
"76373099999","2001-01-30T03:00:00","4","25.35","-105.75","1967.0","TEPEHUANES DGO., MX","FM-12","99999","V020","999,9,C,0000,1","22000,1,9,N","000200,1,N,1","+0118,1","-0020,1","10166,1","99,0000,9,1",,,,"03,1,+06000,9,08,9",,,,"03,99,1,99,9,00,1,99999,9,00,1,08,1",,"01,9",,,,"99999,9,08192,1","2,1,022,1,-003,1",,,"SYN100AAXX  30031 76373 32902 30000 10118 21020 38192 40166 52022 80008 90238 333 30/// 56006 59003 83270;","Q01+000002SCOTLCQ02  00002PRCP99"
"76373099999","2001-01-30T12:00:00","4","25.35","-105.75","1967.0","TEPEHUANES DGO., MX","FM-12","99999","V020","999,9,C,0000,1","22000,1,9,N","000200,1,N,1","+0006,1","-0054,1","10165,1","24,0000,9,1",,,,"00,1,+99999,9,99,9",,,,"00,99,1,00,1,00,1,99999,9,00,1,00,1",,"01,9","999,-0040,9","999,M,+0230,1","120,N,-0004,1","99999,9,08184,1","7,1,003,1,+999,9",,,"SYN100AAXX  30121 76373 32902 00000 10006 21054 38184 40165 57003 91132 333 10230 21004 30104 58/// 70000;","Q01  00002PRCP24"
"76373099999","2001-01-30T15:00:00","4","25.35","-105.75","1967.0","TEPEHUANES DGO., MX","FM-12","99999","V020","300,1,N,0010,1","22000,1,9,N","060000,1,N,1","+0009,1","-0018,1","10190,1","99,0000,9,1",,,,"01,1,+02400,9,03,9",,,,"02,99,1,01,1,00,1,01750,1,06,1,08,1",,"01,9",,,,"99999,9,08198,1","2,1,014,1,-010,1",,,"SYN106AAXX  30151 76373 32786 23001 10009 21018 38198 40190 52014 81068 91450 333 30/// 56066 59010 81358 81270;","Q01  00002PRCP99"
"76373099999","2001-01-30T18:00:00","4","25.35","-105.75","1967.0","TEPEHUANES DGO., MX","FM-12","99999","V020","330,1,N,0020,1","22000,1,9,N","070000,1,N,1","+0164,1","-0016,1","10169,1","99,0000,9,1",,,,"01,1,+06000,9,01,9",,,,"01,99,1,00,1,00,1,99999,9,00,1,05,1",,"01,9",,"120,M,+0230,1","240,N,-0030,1","99999,9,08189,1","8,1,009,1,-023,1",,,"SYN112AAXX  30181 76373 32988 13302 10164 21016 38189 40169 58009 80005 91740 333 10230 21030 30/// 56006 59023 81070;","Q01  00002PRCP99"
"76373099999","2001-01-30T21:00:00","4","25.35","-105.75","1967.0","TEPEHUANES DGO., MX","FM-12","99999","V020","280,1,N,0080,1","22000,1,9,N","070000,1,N,1","+0228,1","+0023,1","10129,1","99,0000,9,1",,,,"01,1,+06000,9,01,9",,,,"01,99,1,00,1,00,1,99999,9,00,1,05,1",,"01,9",,,,"99999,9,08155,1","7,1,034,1,-023,1",,,"SYN100AAXX  30211 76373 32988 12808 10228 20023 38155 40129 57034 80005 92040 333 30/// 56006 59023 81070;","Q01  00002PRCP99"
"76373099999","2001-01-31T00:00:00","4","25.35","-105.75","1967.0","TEPEHUANES DGO., MX","FM-12","99999","V020","280,1,N,0040,1","22000,1,9,N","070000,1,N,1","+0195,1","+0028,1","10127,1","24,0000,9,1",,,,"02,1,+02400,9,03,9",,,,"03,99,1,02,1,00,1,01750,1,06,1,05,1",,"01,9",,"120,M,+0252,1","180,N,-0030,1","99999,9,08160,1","2,1,005,1,-010,1",,,"SYN130AAXX  31001 76373 32788 32804 10195 20028 38160 40127 52005 82065 92355 333 10252 21030 30/// 50530 56066 59010 70000 82358 81070;","Q01  00002PRCP99Q02  00003PRCP99"
"76373099999","2001-01-31T03:00:00","4","25.35","-105.75","1967.0","TEPEHUANES DGO., MX","FM-12","99999","V020","220,1,N,0010,1","22000,1,9,N","000200,1,N,1","+0140,1","+0003,1","10158,1","99,0000,9,1",,,,"02,1,+02400,9,07,9",,,,"02,99,1,02,1,99,9,01750,1,06,1,00,1",,"01,9",,,,"99999,9,08179,1","2,1,019,1,-013,1",,,"SYN100AAXX  31031 76373 32702 22201 10140 20003 38179 40158 52019 82060 90235 333 30/// 56060 59013 82358;","Q01  00002PRCP99Q02    003SCOLCG"
"76373099999","2001-01-31T12:00:00","4","25.35","-105.75","1967.0","TEPEHUANES DGO., MX","FM-12","99999","V020","310,1,N,0020,1","22000,1,9,N","000200,1,N,1","+0020,1","-0057,1","10156,1","24,0000,9,1",,,,"00,1,+99999,9,99,9",,,,"00,99,1,00,1,00,1,99999,9,00,1,00,1",,"01,9","999,-0020,9","999,M,+0252,1","120,N,+0008,1","99999,9,08190,1","2,1,002,1,+006,1",,,"SYN100AAXX  31121 76373 32902 03102 10020 21057 38190 40156 52002 91140 333 10252 20008 30102 58006 70000;","Q01  00002PRCP24"
"76373099999","2001-01-31T15:00:00","4","25.35","-105.75","1967.0","TEPEHUANES DGO., MX","FM-12","99999","V020","300,1,N,0020,1","06000,1,9,N","060000,1,N,1","+0020,1","-0042,1","10179,1","99,0000,9,1",,,,"08,1,+06000,9,08,9",,,,"08,99,1,99,9,00,1,99999,9,00,1,07,1",,"01,9",,,,"99999,9,08202,1","2,1,012,1,+004,1",,,"SYN100AAXX  31151 76373 32986 83002 10020 21042 38202 40179 52012 80007 91445 333 30/// 56006 58004 88270;","Q01+000002SCOTLCQ02  00002PRCP99"
"76373099999","2001-01-31T18:00:00","4","25.35","-105.75","1967.0","TEPEHUANES DGO., MX","FM-12","99999","V020","050,1,N,0010,1","06000,1,9,N","070000,1,N,1","+0148,1","+0002,1","10171,1","99,0000,9,1",,,,"08,1,+06000,9,02,9",,,,"08,99,1,00,1,00,1,99999,9,00,1,07,1",,"01,9",,"120,M,+0252,1","240,N,-0006,1","99999,9,08196,1","8,1,006,1,+007,1",,,"SYN118AAXX  31181 76373 32988 80501 10148 20002 38196 40171 58006 80007 91735 333 10252 21006 30/// 56006 58007 88270 99020;","Q01  00002PRCP99"
"76373099999","2001-01-31T21:00:00","4","25.35","-105.75","1967.0","TEPEHUANES DGO., MX","FM-12","99999","V020","270,1,N,0090,1","03000,1,9,N","070000,1,N,1","+0200,1","+0041,1","10146,1","99,0000,9,1",,,,"08,1,+03000,9,02,9",,,,"08,99,1,08,1,07,1,01750,1,00,1,99,9",,"01,9",,,,"99999,9,08169,1","6,1,027,1,+014,1",,,"SYN100AAXX  31211 76373 32788 82709 10200 20041 38169 40146 56027 88700 92050 333 30/// 56060 58014 88560;","Q01+000002SCOHCGQ02  00002PRCP99"
"76373099999","2001-02-01T00:00:00","4","25.35","-105.75","1967.0","TEPEHUANES DGO., MX","FM-12","99999","V020","270,1,N,0020,1","09000,1,9,N","070000,1,N,1","+0170,1","+0033,1","10154,1","24,0000,9,1",,,,"02,1,+02400,9,03,9",,,,"08,99,1,02,1,00,1,01750,1,04,1,08,1",,"01,9",,"120,M,+0222,1","180,N,-0006,1","99999,9,08182,1","3,1,013,1,+022,1",,,"SYN130AAXX  01001 76373 32788 82702 10170 20033 38182 40154 53013 82048 92300 333 10222 21006 30/// 50510 56066 58022 70000 82358 86270;","Q01  00002PRCP99Q02  00003PRCP99"
"76373099999","2001-02-01T18:00:00","4","25.35","-105.75","1967.0","TEPEHUANES DGO., MX","FM-12","99999","V020","250,1,N,0070,1","22000,1,9,N","070000,1,N,1","+0188,1","+0026,1","10144,1","99,0000,9,1",,,,"02,1,+00300,9,02,9",,,,"02,99,1,02,1,01,1,00250,1,00,1,00,1",,"01,9",,"120,M,+0222,1","240,N,+0008,1","99999,9,08185,1","2,1,005,1,-011,1",,,"SYN112AAXX  01180 76373 32388 22507 10188 20026 38185 40144 52005 82100 91745 333 10222 20008 30/// 56500 59011 82810;","Q01  00002PRCP99"
"76373099999","2001-02-01T21:00:00","4","25.35","-105.75","1967.0","TEPEHUANES DGO., MX","FM-12","99999","V020","220,1,N,0080,1","22000,1,9,N","070000,1,N,1","+0204,1","+0061,1","10139,1","99,0000,9,1",,,,"01,1,+00300,9,02,9",,,,"01,99,1,01,1,01,1,00250,1,00,1,00,1",,"01,9",,,,"99999,9,08165,1","7,1,020,1,-004,1",,,"SYN100AAXX  01211 76373 32388 12208 10204 20061 38165 40139 57020 81100 92040 333 30/// 56600 59004 81810;","Q01  00002PRCP99"
"76373099999","2001-02-02T00:00:00","4","25.35","-105.75","1967.0","TEPEHUANES DGO., MX","FM-12","99999","V020","280,1,N,0060,1","22000,1,9,N","070000,1,N,1","+0182,1","+0091,1","10086,1","24,0000,9,1",,,,"01,1,+00300,9,08,9",,,,"02,99,1,01,1,01,1,00250,1,00,1,05,1",,"01,9",,"120,M,+0220,1","180,N,+0008,1","99999,9,08177,1","7,1,012,1,-005,1",,,"SYN130AAXX  02001 76373 32388 22806 10182 20091 38177 40086 57012 81105 92340 333 10220 20008 30/// 50570 56606 59005 70000 81810 81070;","Q01  00002PRCP99Q02  00003PRCP99"
"76373099999","2001-02-02T15:00:00","4","25.35","-105.75","1967.0","TEPEHUANES DGO., MX","FM-12","99999","V020","340,1,N,0040,1","00360,1,9,N","070000,1,N,1","+0060,1","-0008,1","10219,1","99,0000,9,1",,,,"07,1,+00360,9,02,9",,,,"07,99,1,07,1,01,1,99999,9,00,1,00,1",,"01,9",,,,"99999,9,08252,1","9,9,999,9,+072,1",,,"SYN100AAXX  02151 76373 32988 73404 10060 21008 38252 40219 5//// 87100 91445 333 30/// 56300 58072 87812;","Q01  00002PRCP99"
"76373099999","2001-02-02T18:00:00","4","25.35","-105.75","1967.0","TEPEHUANES DGO., MX","FM-12","99999","V020","150,1,N,0030,1","22000,1,9,N","070000,1,N,1","+0112,1","+0009,1","10226,1","99,0000,9,1",,,,"01,1,+00360,9,08,9",,,,"03,99,1,01,1,01,1,00450,1,03,1,00,1",,"01,9",,"120,M,+0220,1","240,N,+0030,1","99999,9,08254,1","2,1,002,1,+069,1",,,"SYN118AAXX  02181 76373 32488 31503 10112 20009 38254 40226 52002 81130 91750 333 10220 20030 30/// 56220 58069 81812 82360;","Q01  00002PRCP99"
"76373099999","2001-02-02T21:00:00","4","25.35","-105.75","1967.0","TEPEHUANES DGO., MX","FM-12","99999","V020","160,1,N,0060,1","22000,1,9,N","070000,1,N,1","+0132,1","+0035,1","10228,1","99,0000,9,1",,,,"02,1,+00300,9,08,9",,,,"04,99,1,02,1,01,1,00450,1,03,1,00,1",,"01,9",,,,"99999,9,08225,1","8,1,029,1,+060,1",,,"SYN106AAXX  02211 76373 32488 41606 10132 20035 38225 40228 58029 82130 92050 333 30/// 56220 58060 82810 82360;","Q01  00002PRCP99"
"76373099999","2001-02-05T18:00:00","4","25.35","-105.75","1967.0","TEPEHUANES DGO., MX","FM-12","99999","V020","120,1,N,0020,1","22000,1,9,N","070000,1,N,1","+0126,1","-0024,1","10245,1","99,0000,9,1",,,,"00,1,+99999,9,99,9",,,,"00,99,1,00,1,00,1,99999,9,00,1,00,1",,"01,9",,"120,M,+0220,1","240,N,-0056,1","99999,9,08269,1",,,,"SYN094AAXX  05181 76373 32988 01202 10126 21024 38269 40245 5//// 91750 333 10220 21056 30/// 58///;","Q01  00002PRCP99"
"76373099999","2001-02-06T00:00:00","4","25.35","-105.75","1967.0","TEPEHUANES DGO., MX","FM-12","99999","V020","150,1,N,0030,1","22000,1,9,N","070000,1,N,1","+0223,1","+0024,1","10116,2","24,0000,9,1",,,,"00,1,+99999,9,99,9",,,,"00,99,1,00,1,00,1,99999,9,00,1,00,1",,"01,9",,"120,M,+0234,1","180,N,-0056,1","99999,9,08199,1","7,1,027,1,+999,9",,,"SYN106AAXX  06001 76373 32988 01503 10223 20024 38199 40116 57027 92340 333 10234 21056 30/// 50340 58/// 70000;","Q01+101163APOSLPQ02  00002PRCP24"
"76373099999","2001-02-06T03:00:00","4","25.35","-105.75","1967.0","TEPEHUANES DGO., MX","FM-12","99999","V020","999,9,C,0000,1","22000,1,9,N","000200,1,N,1","+0124,1","-0017,1","10116,1","99,0000,9,1",,,,"00,1,+99999,9,99,9",,,,"00,99,1,00,1,00,1,99999,9,00,1,00,1",,"01,9",,,,"99999,9,08215,1","2,1,016,1,+999,9",,,"SYN082AAXX  06031 76373 32902 00000 10124 21017 38215 40116 52016 90245 333 30/// 58///;","Q01  00002PRCP99"
"76373099999","2001-02-06T12:00:00","4","25.35","-105.75","1967.0","TEPEHUANES DGO., MX","FM-12","99999","V020","999,9,C,0000,1","22000,1,9,N","000200,1,N,1","-0012,1","-0078,1","10195,1","24,0000,9,1",,,,"01,1,+06000,9,01,9",,,,"01,99,1,00,1,00,1,99999,9,00,1,04,1",,"01,9","999,-0050,9","999,M,+0234,1","120,N,-0024,1","99999,9,08219,1","7,1,001,1,+999,9",,,"SYN118AAXX  06121 76373 32902 10000 11012 21078 38219 40195 57001 80004 91140 333 10234 21024 30105 56066 58/// 70000 81070;",
"76373099999","2001-02-06T15:00:00","4","25.35","-105.75","1967.0","TEPEHUANES DGO., MX","FM-12","99999","V020","999,9,C,0000,1","22000,1,9,N","060000,1,N,1","-0006,1","-0056,1","10242,1","99,0000,9,1",,,,"00,1,+99999,9,99,9",,,,"00,99,1,00,1,00,1,99999,9,00,1,00,1",,"01,9",,,,"99999,9,08232,1","2,1,013,1,+999,9",,,"SYN082AAXX  06151 76373 32986 00000 11006 21056 38232 40242 52013 91440 333 30/// 58///;","Q01  00002PRCP99"
"76373099999","2001-02-06T21:00:00","4","25.35","-105.75","1967.0","TEPEHUANES DGO., MX","FM-12","99999","V020","300,1,N,0010,1","22000,1,9,N","070000,1,N,1","+0245,2","+0049,1","10148,1","99,0000,9,1",,,,"00,1,+99999,9,99,9",,,,"00,99,1,00,1,00,1,99999,9,00,1,00,1",,"01,9",,,,"99999,9,08186,1","7,1,027,1,-040,1",,,"SYN082AAXX  06211 76373 32988 03001 10245 20049 38186 40148 57027 92043 333 30/// 59040;","Q01+002453ATOT  Q02  00002PRCP99"
"76373099999","2001-02-07T00:00:00","4","25.35","-105.75","1967.0","TEPEHUANES DGO., MX","FM-12","99999","V020","270,1,N,0020,1","22000,1,9,N","060000,1,N,1","+0228,1","+0072,1","10097,1","24,0000,9,1",,,,"00,1,+99999,9,99,9",,,,"00,99,1,00,1,00,1,99999,9,00,1,00,1",,"01,9",,"120,M,+0267,1","180,N,-0038,1","99999,9,08180,1","7,1,006,1,-019,1",,,"SYN106AAXX  07001 76373 32986 02702 10228 20072 38180 40097 57006 92340 333 10267 21038 30/// 50600 59019 70000;","Q01  00002PRCP24"
"76373099999","2001-02-07T03:00:00","4","25.35","-105.75","1967.0","TEPEHUANES DGO., MX","FM-12","99999","V020","270,1,N,0010,1","22000,1,9,N","000200,1,N,1","+0151,1","+0004,1","10083,1","99,0000,9,1",,,,"00,1,+99999,9,99,9",,,,"00,99,1,00,1,00,1,99999,9,00,1,00,1",,"01,9",,,,"99999,9,08198,1","2,1,018,1,-017,1",,,"SYN082AAXX  07031 76373 32902 02701 10151 20004 38198 40083 52018 90235 333 30/// 59017;","Q01  00002PRCP99"
"76373099999","2001-02-07T12:00:00","4","25.35","-105.75","1967.0","TEPEHUANES DGO., MX","FM-12","99999","V020","300,1,N,0010,1","06000,1,9,N","060000,1,N,1","+0016,1","-0051,1","10151,1","24,0000,9,1",,,,"07,1,+06000,9,01,9",,,,"07,99,1,00,1,00,1,99999,9,00,1,04,1",,"01,9","999,-0020,9","999,M,+0267,1","120,N,+0004,1","99999,9,08199,1","7,1,002,1,-020,1",,,"SYN118AAXX  07121 76373 32986 73001 10016 21051 38199 40151 57002 80004 91145 333 10267 20004 30102 56006 59020 70000 87070;",
"76373099999","2001-02-07T21:00:00","4","25.35","-105.75","1967.0","TEPEHUANES DGO., MX","FM-12","99999","V020","250,1,N,0070,1","22000,1,9,N","070000,1,N,1","+0220,1","+0066,1","10141,1","99,0000,9,1",,,,"03,1,+00360,9,02,9",,,,"03,99,1,03,1,01,1,00450,1,00,1,00,1",,"01,9",,,,"99999,9,08181,1","6,1,020,1,-005,1",,,"SYN100AAXX  07211 76373 32488 32507 10220 20066 38181 40141 56020 83100 92045 333 30/// 56600 59005 83812;","Q01  00002PRCP99"
"76373099999","2001-02-08T00:00:00","4","25.35","-105.75","1967.0","TEPEHUANES DGO., MX","FM-12","99999","V020","260,1,N,0040,1","22000,1,9,N","070000,1,N,1","+0194,1","+0081,1","10095,1","24,0000,9,1",,,,"02,1,+00300,9,08,9",,,,"04,99,1,02,1,01,1,00450,1,00,1,09,1",,"01,9",,"120,M,+0241,1","180,N,-0012,1","99999,9,08178,1","5,1,003,1,-002,1",,,"SYN130AAXX  08001 76373 32488 42604 10194 20081 38178 40095 55003 82109 92347 333 10241 21012 30/// 50420 56606 59002 70000 82810 82170;","Q01  00002PRCP99Q02  00003PRCP99"
"76373099999","2001-02-08T03:00:00","4","25.35","-105.75","1967.0","TEPEHUANES DGO., MX","FM-12","99999","V020","999,9,C,0000,1","22000,1,9,N","000200,1,N,1","+0142,1","+0033,1","10081,1","99,0000,9,1",,,,"01,1,+02400,9,03,9",,,,"03,99,1,01,1,00,1,01750,1,04,1,08,1",,"01,9",,,,"99999,9,08186,1","0,1,009,1,-012,1",,,"SYN106AAXX  08031 76373 32702 30000 10142 20033 38186 40081 50009 81048 90240 333 30/// 56066 59012 81358 82170;","Q01  00002PRCP99"
"76373099999","2001-02-08T12:00:00","4","25.35","-105.75","1967.0","TEPEHUANES DGO., MX","FM-12","99999","V020","290,1,N,0010,1","09000,1,C,N","000200,1,N,1","+0082,1","+0025,1","10106,1","24,0000,9,1",,,,"02,1,+00300,9,08,9",,,,"05,99,1,02,1,01,1,00450,1,00,1,05,1",,"01,9","999,+0010,9","999,M,+0241,1","120,N,+0042,1","99999,9,08171,1","7,1,005,1,-028,1",,,"SYN124AAXX  08121 76373 32402 52901 10082 20025 38171 40106 57005 82105 91140 333 10241 20042 30001 56606 59028 70000 82810 83070;",
"76373099999","2001-02-08T15:00:00","4","25.35","-105.75","1967.0","TEPEHUANES DGO., MX","FM-12","99999","V020","330,1,N,0040,1","09000,1,C,N","070000,1,N,1","+0120,1","+0036,1","10127,1","99,0000,9,1",,,,"02,1,+00360,9,08,9",,,,"05,99,1,02,1,01,1,00450,1,00,1,02,1",,"01,9",,,,"99999,9,08182,1","2,1,011,1,-022,1",,,"SYN106AAXX  08151 76373 32488 53304 10120 20036 38182 40127 52011 82102 91445 333 30/// 56202 59022 82812 83070;","Q01  00002PRCP99"
"76373099999","2001-02-08T18:00:00","4","25.35","-105.75","1967.0","TEPEHUANES DGO., MX","FM-12","99999","V020","240,1,N,0080,1","22000,1,9,N","070000,1,N,1","+0192,1","+0071,1","10113,1","99,0000,9,1",,,,"02,1,+00360,9,08,9",,,,"04,99,1,02,1,01,1,00450,1,00,1,05,1",,"01,9",,"120,M,+0241,1","240,N,+0044,1","99999,9,08179,1","7,1,003,1,-022,1",,,"SYN118AAXX  08181 76373 32488 42408 10192 20071 38179 40113 57003 82105 91743 333 10241 20044 30/// 56303 59022 82812 82070;","Q01  00002PRCP99"
"76373099999","2001-02-08T21:00:00","4","25.35","-105.75","1967.0","TEPEHUANES DGO., MX","FM-12","99999","V020","260,1,N,0090,1","03600,1,C,N","070000,1,N,1","+0190,1","+0073,1","10090,1","03,0007,9,1",,"5,1,03,1","2,1,03,1","03,1,+00360,9,06,9","01,1,+03000,9,03,9",,,"06,99,1,03,1,07,1,00450,1,03,1,04,1",,"01,9",,,,"99999,9,08176,1","8,1,003,1,-005,1","50,1",,"SYN124AAXX  08211 76373 11488 62609 10190 20073 38176 40090 58003 69907 75052 83734 92040 333 30/// 56333 59005 83612 81360 82070;",
"76373099999","2001-02-09T00:00:00","4","25.35","-105.75","1967.0","TEPEHUANES DGO., MX","FM-12","99999","V020","300,1,N,0020,1","00210,1,9,N","020000,1,N,1","+0120,1","+0078,1","10102,1","03,0010,9,1","06,0010,9,1","5,1,06,1","5,1,06,1",,,,,"08,99,1,08,1,07,1,00250,1,00,1,00,1",,"09,9",,"120,M,+0218,1","180,N,+0044,1","99999,9,08192,1","2,1,016,1,+014,1","58,1",,"SYN136AAXX  09001 76373 /1370 83002 10120 20078 38192 40102 52016 60017 75855 88700 92345 333 10218 20044 31/// 50570 56500 58014 60011 70014;",
"76373099999","2001-02-09T15:00:00","4","25.35","-105.75","1967.0","TEPEHUANES DGO., MX","FM-12","99999","V020","270,1,N,0010,1","03000,1,9,N","070000,1,N,1","+0046,1","-0025,1","10199,1","15,0010,9,1",,,,"07,1,+03000,9,07,9",,,,"07,99,1,07,1,00,1,01750,1,05,1,00,1",,"09,9",,,,"99999,9,08215,1","9,9,999,9,+033,1",,,"SYN112AAXX  09151 76373 /2788 72701 10046 21025 38215 40199 5//// 60019 87050 91442 333 31/// 56060 58033 60019 87360;",
"76373099999","2001-02-09T18:00:00","4","25.35","-105.75","1967.0","TEPEHUANES DGO., MX","FM-12","99999","V020","280,1,N,0010,1","03000,1,9,N","070000,1,N,1","+0122,1","+0022,1","10195,1","99,0000,9,1",,,,"08,1,+03000,9,01,9",,,,"08,99,1,08,1,00,1,01750,1,07,1,99,9",,"01,9",,"120,M,+0218,1","240,N,+0010,1","99999,9,08218,1","2,1,003,1,+039,1",,,"SYN112AAXX  09181 76373 32788 82801 10122 20022 38218 40195 52003 88070 91750 333 10218 20010 30/// 56030 58039 88460;","Q01+000002SCOHCGQ02  00002PRCP99"
"76373099999","2001-02-09T21:00:00","4","25.35","-105.75","1967.0","TEPEHUANES DGO., MX","FM-12","99999","V020","120,1,N,0010,1","09000,1,C,N","018000,1,N,1","+0180,1","+0020,1","10151,1","99,0000,9,1",,,,"02,1,+03000,9,03,9",,,,"08,99,1,02,1,00,1,01750,1,03,1,08,1",,"01,9",,,,"99999,9,08194,1","6,1,024,1,+018,1",,,"SYN106AAXX  09211 76373 32768 81201 10180 20020 38194 40151 56024 82038 92042 333 30/// 56033 58018 82360 86270;","Q01  00002PRCP99"
"76373099999","2001-02-12T15:00:00","4","25.35","-105.75","1967.0","TEPEHUANES DGO., MX","FM-12","99999","V020","999,9,C,0000,1","03000,1,9,N","070000,1,N,1","+0092,1","+0020,1","10181,1","99,0000,9,1",,,,"06,1,+03000,9,03,9",,,,"08,99,1,06,1,00,1,01750,1,03,1,02,1",,"01,9",,,,"99999,9,08232,1",,,,"SYN106AAXX  12151 76373 32788 80000 10092 20020 38232 40181 5//// 86032 91445 333 30/// 56055 58/// 86360 82070;","Q01  00002PRCP99"
"76373099999","2001-02-12T18:00:00","4","25.35","-105.75","1967.0","TEPEHUANES DGO., MX","FM-12","99999","V020","999,9,C,0000,1","06000,1,9,N","070000,1,N,1","+0184,1","+0077,1","10167,1","99,0000,9,1",,,,"01,1,+03000,9,03,9","08,1,+06000,9,02,9",,,"08,99,1,01,1,00,1,01250,1,03,1,07,1",,"01,9",,"120,M,+0260,1","240,N,+0060,1","99999,9,08224,1","6,1,008,1,+999,9",,,"SYN124AAXX  12181 76373 32688 80000 10184 20077 38224 40167 56008 81037 91740 333 10260 20060 30/// 56055 58/// 81360 88270 99020;","Q01  00002PRCP99"
"76373099999","2001-02-12T21:00:00","4","25.35","-105.75","1967.0","TEPEHUANES DGO., MX","FM-12","99999","V020","210,1,N,0050,1","22000,1,C,N","070000,1,N,1","+0252,1","+0125,1","10109,1","99,0000,9,1",,,,"01,1,+00360,9,08,9",,,,"06,99,1,01,1,01,1,00450,1,00,1,06,1",,"01,9",,,,"99999,9,08192,1","6,1,032,1,+999,9",,,"SYN106AAXX  12211 76373 32488 62105 10252 20125 38192 40109 56032 81106 92045 333 30/// 56303 58/// 81812 85070;","Q01  00002PRCP99"
"76373099999","2001-02-13T00:00:00","4","25.35","-105.75","1967.0","TEPEHUANES DGO., MX","FM-12","99999","V020","230,1,N,0050,1","03600,1,9,N","070000,1,N,1","+0232,1","+0071,1","10083,1","24,0000,9,1",,,,"01,1,+00300,9,08,9","01,1,+02400,9,03,9",,,"06,99,1,01,1,01,1,00450,1,04,1,01,1",,"01,9",,"120,M,+0278,1","180,N,+0060,1","99999,9,08193,1","3,1,001,1,+999,9",,,"SYN136AAXX  13001 76373 32488 62305 10232 20071 38193 40083 53001 81141 92343 333 10278 20060 30/// 50390 56666 58/// 70000 81810 81358 84070;","Q01  00002PRCP99Q02  00003PRCP99"
"76373099999","2001-02-13T03:00:00","4","25.35","-105.75","1967.0","TEPEHUANES DGO., MX","FM-12","99999","V020","999,9,C,0000,1","22000,1,9,N","000200,1,N,1","+0161,1","+0061,1","10090,1","99,0000,9,1",,,,"00,1,+99999,9,99,9",,,,"00,99,1,00,1,00,1,99999,9,00,1,00,1",,"01,9",,,,"99999,9,08212,1","2,1,019,1,+999,9",,,"SYN082AAXX  13031 76373 32902 00000 10161 20061 38212 40090 52019 90238 333 30/// 58///;","Q01  00002PRCP99"
"76373099999","2001-02-13T12:00:00","4","25.35","-105.75","1967.0","TEPEHUANES DGO., MX","FM-12","99999","V020","999,9,C,0000,1","22000,1,9,N","000200,1,N,1","+0045,1","+0013,1","10155,1","24,0000,9,1",,,,"03,1,+06000,9,08,9",,,,"03,99,1,99,9,00,1,99999,9,00,1,07,1",,"01,9",,"999,M,+0278,1","120,N,+0034,1","99999,9,08212,1","2,1,001,1,+999,9",,,"SYN118AAXX  13121 76373 32902 30000 10045 20013 38212 40155 52001 80007 91140 333 10278 20034 30/// 56005 58/// 70000 83270;","Q01+000002SCOTLC"
"76373099999","2001-02-13T15:00:00","4","25.35","-105.75","1967.0","TEPEHUANES DGO., MX","FM-12","99999","V020","999,9,C,0000,1","09000,1,C,N","060000,1,N,1","+0046,1","+0022,1","10144,1","99,0000,9,1",,,,"01,1,+02400,9,03,9",,,,"08,99,1,01,1,00,1,01750,1,04,1,05,1",,"01,9",,,,"99999,9,08227,1","2,1,015,1,-006,1",,,"SYN106AAXX  13151 76373 32786 80000 10046 20022 38227 40144 52015 81045 91444 333 30/// 56055 59006 81358 87070;","Q01  00002PRCP99"
"76373099999","2001-02-13T18:00:00","4","25.35","-105.75","1967.0","TEPEHUANES DGO., MX","FM-12","99999","V020","090,1,N,0020,1","06000,1,9,N","070000,1,N,1","+0190,1","+0071,1","10198,1","99,0000,9,1",,,,"01,1,+00360,9,08,9","08,1,+06000,9,02,9",,,"08,99,1,01,1,01,1,00450,1,00,1,07,1",,"01,9",,"120,M,+0278,1","240,N,+0020,1","99999,9,08225,1","7,1,002,1,-001,1",,,"SYN124AAXX  13181 76373 32488 80902 10190 20071 38225 40198 57002 81107 91740 333 10278 20020 30/// 56303 59001 81812 88270 99020;","Q01  00002PRCP99"
"76373099999","2001-02-13T21:00:00","4","25.35","-105.75","1967.0","TEPEHUANES DGO., MX","FM-12","99999","V020","280,1,N,0080,1","09000,1,C,N","070000,1,N,1","+0220,1","+0083,1","10134,1","99,0000,9,1",,,,"03,1,+00360,9,08,9",,,,"08,99,1,03,1,01,1,00450,1,00,1,06,1",,"01,9",,,,"99999,9,08204,1","6,1,021,1,+012,1",,,"SYN106AAXX  13211 76373 32488 82808 10220 20083 38204 40134 56021 83106 92040 333 30/// 56303 58012 83812 85070;","Q01  00002PRCP99"
"76373099999","2001-02-14T00:00:00","4","25.35","-105.75","1967.0","TEPEHUANES DGO., MX","FM-12","99999","V020","240,1,N,0040,1","09000,1,9,N","070000,1,N,1","+0216,1","+0075,1","10113,1","24,0000,9,1",,,,"02,1,+00300,9,08,9",,,,"05,99,1,01,1,01,1,00450,1,00,1,05,1",,"01,9",,"120,M,+0259,1","180,N,+0020,1","99999,9,08206,1","3,1,004,1,+013,1",,,"SYN130AAXX  14001 76373 32488 52404 10216 20075 38206 40113 53004 81105 92345 333 10259 20020 30/// 50570 56505 58013 70000 82810 83070;","Q01  00002PRCP99Q02  00003PRCP99"
"76373099999","2001-02-14T03:00:00","4","25.35","-105.75","1967.0","TEPEHUANES DGO., MX","FM-12","99999","V020","230,1,N,0020,1","22000,1,9,N","000200,1,N,1","+0147,1","+0052,1","10113,1","99,0000,9,1",,,,"00,1,+99999,9,99,9",,,,"00,99,1,00,1,00,1,99999,9,00,1,00,1",,"01,9",,,,"99999,9,08225,1","2,1,019,1,+013,1",,,"SYN082AAXX  14031 76373 32902 02302 10147 20052 38225 40113 52019 90244 333 30/// 58013;","Q01  00002PRCP99"
"76373099999","2001-02-14T15:00:00","4","25.35","-105.75","1967.0","TEPEHUANES DGO., MX","FM-12","99999","V020","999,9,C,0000,1","06000,1,9,N","060000,1,N,1","+0064,1","+0038,1","10181,1","99,0000,9,1",,,,"07,1,+06000,9,08,9",,,,"07,99,1,99,9,00,1,99999,9,00,1,07,1",,"01,9",,,,"99999,9,08219,1","2,1,008,1,-007,1",,,"SYN100AAXX  14151 76373 32986 70000 10064 20038 38219 40181 52008 80007 91438 333 30/// 56005 59007 87270;","Q01+000002SCOTLCQ02  00002PRCP99"
"76373099999","2001-02-14T18:00:00","4","25.35","-105.75","1967.0","TEPEHUANES DGO., MX","FM-12","99999","V020","300,1,N,0010,1","06000,1,9,N","070000,1,N,1","+0188,1","+0073,1","10160,1","99,0000,9,1",,,,"01,1,+00360,9,08,9","08,1,+06000,9,02,9",,,"08,99,1,01,1,01,1,00450,1,00,1,07,1",,"01,9",,"120,M,+0259,1","240,N,+0038,1","99999,9,08209,1","8,1,010,1,-016,1",,,"SYN124AAXX  14181 76373 32488 83001 10188 20073 38209 40160 58010 81107 91748 333 10259 20038 30/// 56303 59016 81812 88270 99020;","Q01  00002PRCP99"
"76373099999","2001-02-14T21:00:00","4","25.35","-105.75","1967.0","TEPEHUANES DGO., MX","FM-12","99999","V020","210,1,N,0050,1","22000,1,9,N","070000,1,N,1","+0245,1","+0087,1","10148,1","99,0000,9,1",,,,"01,1,+00300,9,08,9",,,,"04,99,1,01,1,01,1,00450,1,00,1,03,1",,"01,9",,,,"99999,9,08181,1","7,1,028,1,-021,1",,,"SYN106AAXX  14211 76373 32488 42105 10245 20087 38181 40148 57028 81103 92040 333 30/// 56505 59021 81810 83070;","Q01  00002PRCP99"
"76373099999","2001-02-15T00:00:00","4","25.35","-105.75","1967.0","TEPEHUANES DGO., MX","FM-12","99999","V020","210,1,N,0050,1","22000,1,9,N","070000,1,N,1","+0215,1","+0106,1","10067,2","24,0000,9,1",,,,"01,1,+00300,9,08,9",,,,"03,99,1,01,1,01,1,00450,1,00,1,06,1",,"01,9",,"120,M,+0256,1","180,N,+0038,1","99999,9,08175,1","7,1,006,1,-031,1",,,"SYN130AAXX  15001 76373 32488 32105 10215 20106 38175 40067 57006 81106 92340 333 10256 20038 30/// 50530 56505 59031 70000 81810 82070;","Q01+100673APOSLPQ02  00002PRCP99Q03  00003PRCP99"
"76373099999","2001-02-15T12:00:00","4","25.35","-105.75","1967.0","TEPEHUANES DGO., MX","FM-12","99999","V020","999,9,C,0000,1","22000,1,9,N","000200,1,N,1","+0038,1","+0008,1","10127,1","24,0000,9,1",,,,"00,1,+99999,9,99,9",,,,"00,99,1,00,1,00,1,99999,9,00,1,00,1",,"01,9","999,+0010,9","999,M,+0256,1","120,N,+0026,1","99999,9,08180,1","7,1,005,1,-031,1",,,"SYN100AAXX  15121 76373 32902 00000 10038 20008 38180 40127 57005 91140 333 10256 20026 30001 59031 70000;","Q01  00002PRCP24"
"76373099999","2001-02-15T15:00:00","4","25.35","-105.75","1967.0","TEPEHUANES DGO., MX","FM-12","99999","V020","999,9,C,0000,1","22000,1,9,N","070000,1,N,1","+0056,1","+0005,1","10155,1","99,0000,9,1",,,,"01,1,+00360,9,02,9",,,,"01,99,1,01,1,01,1,00450,1,00,1,00,1",,"01,9",,,,"99999,9,08186,1","3,1,006,1,-033,1",,,"SYN100AAXX  15151 76373 32488 10000 10056 20005 38186 40155 53006 81100 91440 333 30/// 56500 59033 81812;","Q01  00002PRCP99"
"76373099999","2001-02-15T18:00:00","4","25.35","-105.75","1967.0","TEPEHUANES DGO., MX","FM-12","99999","V020","250,1,N,0050,1","22000,1,9,N","070000,1,N,1","+0198,1","+0070,1","10132,1","99,0000,9,1",,,,"01,1,+00360,9,08,9",,,,"04,99,1,99,9,99,9,00450,1,99,9,99,9",,"01,9",,"120,M,+0256,1","240,N,+0018,1","99999,9,08178,1","8,1,008,1,-031,1",,,"SYN112AAXX  15181 76373 32488 42505 10198 20070 38178 40132 58008 91740 333 10256 20018 30/// 56330 59031 81812 83360;","Q01  00002PRCP99"
"76373099999","2001-02-15T21:00:00","4","25.35","-105.75","1967.0","TEPEHUANES DGO., MX","FM-12","99999","V020","240,1,N,0090,1","22000,1,9,N","070000,1,N,1","+0210,1","+0078,1","10093,1","99,0000,9,1",,,,"01,1,+00360,9,08,9",,,,"02,99,1,01,1,01,1,00450,1,03,1,00,1",,"01,9",,,,"99999,9,08165,1","7,1,013,1,-016,1",,,"SYN106AAXX  15211 76373 32488 22409 10210 20078 38165 40093 57013 81130 92050 333 30/// 56550 59016 81812 81360;","Q01  00002PRCP99"
"76373099999","2001-02-16T00:00:00","4","25.35","-105.75","1967.0","TEPEHUANES DGO., MX","FM-12","99999","V020","240,1,N,0060,1","22000,1,9,N","070000,1,N,1","+0184,1","+0055,1","10060,1","24,0000,9,1",,,,,,,,"01,99,1,01,1,01,1,00450,1,00,1,00,1",,"01,9",,"120,M,+0234,1","180,N,+0018,1","99999,9,08162,1","7,1,003,1,-013,1",,,"SYN124AAXX  16001 76373 32488 12406 10184 20055 38162 40060 57003 81100 92340 333 10234 20018 30/// 50600 56300 59013 70000 81812;","Q01  00002PRCP99Q02  00003PRCP99"
"76373099999","2001-02-16T15:00:00","4","25.35","-105.75","1967.0","TEPEHUANES DGO., MX","FM-12","99999","V020","999,9,C,0000,1","22000,1,9,N","060000,1,N,1","+0010,1","-0055,1","10235,1","99,0000,9,1",,,,"00,1,+99999,9,99,9",,,,"00,99,1,00,1,00,1,99999,9,00,1,00,1",,"01,9",,,,"99999,9,08234,1","9,9,999,9,+048,1",,,"SYN082AAXX  16151 76373 32986 00000 10010 21055 38234 40235 5//// 91440 333 30/// 58048;","Q01  00002PRCP99"
"76373099999","2001-02-16T18:00:00","4","25.35","-105.75","1967.0","TEPEHUANES DGO., MX","FM-12","99999","V020","090,1,N,0020,1","22000,1,9,N","070000,1,N,1","+0138,1","-0006,1","10235,1","99,0000,9,1",,,,"00,1,+99999,9,99,9",,,,"00,99,1,00,1,00,1,99999,9,00,1,00,1",,"01,9",,"240,N,-0040,1",,"99999,9,08237,1","2,1,003,1,+059,1",,,"SYN094AAXX  16180 76373 32988 00902 10138 21006 38237 40235 52003 91740 333 19234 21040 30/// 58059;","Q01  00002PRCP99"
"76373099999","2001-02-16T21:00:00","4","25.35","-105.75","1967.0","TEPEHUANES DGO., MX","FM-12","99999","V020","120,1,N,0050,1","22000,1,9,N","070000,1,N,1","+0190,1","+0026,1","10179,1","99,0000,9,1",,,,"00,1,+99999,9,99,9",,,,"00,99,1,00,1,00,1,99999,9,00,1,00,1",,"01,9",,,,"99999,9,08210,1","6,1,027,1,+045,1",,,"SYN082AAXX  16211 76373 32988 01205 10190 20026 38210 40179 56027 92040 333 30/// 58045;","Q01  00002PRCP99"
"76373099999","2001-02-19T18:00:00","4","25.35","-105.75","1967.0","TEPEHUANES DGO., MX","FM-12","99999","V020","120,1,N,0030,1","22000,1,C,N","070000,1,N,1","+0184,1","+0031,1","10216,1","99,0000,9,1",,,,"01,1,+03000,9,03,9",,,,"06,99,1,01,1,00,1,01250,1,03,1,06,1",,"01,9",,"120,M,+0290,1","240,N,+0018,1","99999,9,08249,1","7,1,005,1,+999,9",,,"SYN118AAXX  19181 76373 32688 61203 10184 20031 38249 40216 57005 81036 91740 333 10290 20018 30/// 56055 58/// 81360 85070;","Q01  00002PRCP99"
"76373099999","2001-02-19T21:00:00","4","25.35","-105.75","1967.0","TEPEHUANES DGO., MX","FM-12","99999","V020","250,1,N,0050,1","03600,1,C,N","070000,1,N,1","+0258,1","+0109,1","10144,2","99,0000,9,1",,,,"02,1,+00360,9,08,9","01,1,+03000,9,03,9",,,"08,99,1,02,1,01,1,00450,1,03,1,04,1",,"01,9",,,,"99999,9,08216,1","6,1,033,1,+999,9",,,"SYN112AAXX  19211 76373 32488 82505 10258 20109 38216 40144 56033 82134 92040 333 30/// 56555 58/// 82812 81360 85070;","Q01+101443APOSLPQ02  00002PRCP99"
"76373099999","2001-02-20T12:00:00","4","25.35","-105.75","1967.0","TEPEHUANES DGO., MX","FM-12","99999","V020","999,9,C,0000,1","22000,1,9,N","000200,1,N,1","+0094,1","+0006,1","10160,1","24,0000,9,1",,,,"00,1,+99999,9,99,9",,,,"00,99,1,00,1,00,1,99999,9,00,1,00,1",,"01,9","999,+0050,9","999,M,+0295,1","120,N,+0080,1","99999,9,08240,1","2,1,003,1,+999,9",,,"SYN100AAXX  20121 76373 32902 00000 10094 20006 38240 40160 52003 91140 333 10295 20080 30005 58/// 70000;","Q01  00002PRCP24"
"76373099999","2001-02-20T15:00:00","4","25.35","-105.75","1967.0","TEPEHUANES DGO., MX","FM-12","99999","V020","999,9,C,0000,1","02400,1,9,N","060000,1,N,1","+0092,1","+0018,1","10202,1","99,0000,9,1",,,,"05,1,+02400,9,03,9",,,,"06,99,1,05,1,00,1,01750,1,06,1,05,1",,"01,9",,,,"99999,9,08257,1","2,1,016,1,+002,1",,,"SYN106AAXX  20151 76373 32786 60000 10092 20018 38257 40202 52016 85065 91445 333 30/// 56055 58002 85358 81070;","Q01  00002PRCP99"
"76373099999","2001-02-20T18:00:00","4","25.35","-105.75","1967.0","TEPEHUANES DGO., MX","FM-12","99999","V020","090,1,N,0020,1","22000,1,9,N","070000,1,N,1","+0204,1","+0061,1","10203,1","99,0000,9,1",,,,"01,1,+00360,9,08,9","01,1,+03000,9,03,9",,,"03,99,1,01,1,01,1,00450,1,03,1,06,1",,"01,9",,"120,M,+0295,1","240,N,+0062,1","99999,9,08258,1","2,1,001,1,+009,1",,,"SYN124AAXX  20181 76373 32488 30902 10204 20061 38258 40203 52001 81136 91740 333 10295 20062 30/// 56555 58009 81812 81360 81070;","Q01  00002PRCP99"
"76373099999","2001-02-20T21:00:00","4","25.35","-105.75","1967.0","TEPEHUANES DGO., MX","FM-12","99999","V020","270,1,N,0030,1","03000,1,C,N","070000,1,N,1","+0254,1","+0108,1","10141,2","99,0000,9,1",,,,"04,1,+00360,9,08,9","02,1,+03000,9,03,9",,,"08,99,1,04,1,01,1,00450,1,03,1,06,1",,,,,,"99999,9,08225,1","6,1,033,1,+009,1",,,"SYN111AAXX  20211 76373 32488 82703 10254 20108 38225 40141 56033 84136 92042 333 0/// 56555 58009 84812 82360 82070;","Q01+101413APOSLPQ02  00002PRCP99"
"76373099999","2001-02-21T00:00:00","4","25.35","-105.75","1967.0","TEPEHUANES DGO., MX","FM-12","99999","V020","290,1,N,0040,1","03600,1,9,N","070000,1,N,1","+0232,1","+0088,1","10111,1","24,0000,9,1",,,,"01,1,+00300,9,08,9",,,,"07,99,1,01,1,01,1,00450,1,07,1,00,1",,"01,9",,"120,M,+0284,1","180,N,+0062,1","99999,9,08220,1","8,1,005,1,+010,1",,,"SYN130AAXX  21001 76373 32488 72904 10232 20088 38220 40111 58005 81170 92350 333 10284 20062 30/// 50450 56550 58010 70000 81810 86358;","Q01  00002PRCP99Q02  00003PRCP99"
"76373099999","2001-02-21T12:00:00","4","25.35","-105.75","1967.0","TEPEHUANES DGO., MX","FM-12","99999","V020","999,9,C,0000,1","22000,1,9,N","000200,1,N,1","+0109,1","+0026,1","10151,1","24,0000,9,1",,,,,,,,"04,99,1,99,9,99,9,99999,9,99,9,99,9",,"01,9","999,+0090,9","999,M,+0284,1","120,N,+0098,1","99999,9,08235,1","7,1,002,1,-005,1",,,"SYN112AAXX  21121 76373 32/02 40000 10109 20026 38235 40151 57002 8//// 91140 333 10284 20098 30009 56/// 59005 70000;","Q01  00002PRCP24"
"76373099999","2001-02-21T18:00:00","4","25.35","-105.75","1967.0","TEPEHUANES DGO., MX","FM-12","99999","V020","110,1,N,0010,1","03600,1,C,N","070000,1,N,1","+0210,1","+0074,1","10177,1","99,0000,9,1",,,,"01,1,+00360,9,08,9","01,1,+03000,9,03,9",,,"08,99,1,01,1,01,1,00450,1,03,1,08,1",,"01,9",,"120,M,+0284,1","240,N,+0088,1","99999,9,08242,1","7,1,005,1,-016,1",,,"SYN124AAXX  21181 76373 32488 81101 10210 20074 38242 40177 57005 81138 91740 333 10284 20088 30/// 56555 59016 81812 81360 87270;","Q01  00002PRCP99"
"76373099999","2001-02-21T21:00:00","4","25.35","-105.75","1967.0","TEPEHUANES DGO., MX","FM-12","99999","V020","120,1,N,0020,1","00300,1,9,N","070000,1,N,1","+0241,1","+0074,1","10111,1","99,0000,9,1",,,,"05,1,+00300,9,06,9",,,,"08,99,1,05,1,04,1,00450,1,02,1,00,1",,"01,9",,,,"99999,9,08209,1","7,1,035,1,-016,1",,,"SYN106AAXX  21211 76373 32488 81202 10241 20074 38209 40111 57035 85420 92038 333 30/// 56550 59016 85610 83458;","Q01  00002PRCP99"
"76373099999","2001-02-22T00:00:00","4","25.35","-105.75","1967.0","TEPEHUANES DGO., MX","FM-12","99999","V020","350,1,N,0050,1","03600,1,9,N","070000,1,N,1","+0216,1","+0096,1","10069,1","02,9999,9,9",,"5,1,06,1","2,1,06,1",,,,,"08,99,1,01,1,04,1,00450,1,02,1,99,9",,"01,9",,"120,M,+0263,1","180,N,+0088,1","99999,9,08206,1","5,1,003,1,-014,1","01,1",,"SYN136AAXX  22001 76373 /1488 83505 10216 20096 38206 40069 55003 69906 70152 8142/ 92338 333 10263 20088 30/// 50420 5655/ 59014 69906 79999;","Q01  99992PRCP02"
"76373099999","2001-02-22T03:00:00","4","25.35","-105.75","1967.0","TEPEHUANES DGO., MX","FM-12","99999","V020","270,1,N,0020,1","00300,1,9,N","000200,1,N,1","+0178,1","+0071,1","10095,1","99,0000,9,1",,,,"07,1,+00300,9,05,9",,,,"07,99,1,07,1,04,1,00450,1,99,9,99,9",,"01,9",,,,"99999,9,08220,1","2,1,014,1,-019,1",,,"SYN100AAXX  22031 76373 32402 72702 10178 20071 38220 40095 52014 874// 90247 333 30/// 565// 59019 87610;","Q01  00002PRCP99"
"76373099999","2001-02-22T15:00:00","4","25.35","-105.75","1967.0","TEPEHUANES DGO., MX","FM-12","99999","V020","999,9,C,0000,1","22000,1,9,N","070000,1,N,1","+0082,1","+0018,1","10181,1","99,0000,9,1",,,,"01,1,+03000,9,07,9",,,,"01,99,1,01,1,00,1,01750,1,03,1,00,1",,"01,9",,,,"99999,9,08226,1","1,1,014,1,-021,1",,,"SYN100AAXX  22151 76373 32788 10000 10082 20018 38226 40181 51014 81030 91440 333 30/// 56060 59021 81360;","Q01  00002PRCP99"
"76373099999","2001-02-22T18:00:00","4","25.35","-105.75","1967.0","TEPEHUANES DGO., MX","FM-12","99999","V020","120,1,N,0030,1","22000,1,9,N","070000,1,N,1","+0204,1","+0070,1","10164,1","99,0000,9,1",,,,"01,1,+03000,9,07,9",,,,"01,99,1,01,1,00,1,01750,1,03,1,00,1",,"01,9",,"120,M,+0263,1","240,N,+0034,1","99999,9,08218,1","6,1,008,1,-024,1",,,"SYN112AAXX  22181 76373 32788 11203 10204 20070 38218 40164 56008 81030 91740 333 10263 20034 30/// 56060 59024 81360;","Q01  00002PRCP99"
"76373099999","2001-02-22T21:00:00","4","25.35","-105.75","1967.0","TEPEHUANES DGO., MX","FM-12","99999","V020","210,1,N,0080,1","22000,1,9,N","070000,1,N,1","+0272,1","+0083,1","10086,2","99,0000,9,1",,,,"04,1,+00360,9,02,9",,,,"04,99,1,04,1,01,1,00450,1,00,1,00,1",,"01,9",,,,"99999,9,08175,1","6,1,043,1,-034,1",,,"SYN100AAXX  22211 76373 32488 42108 10272 20083 38175 40086 56043 84100 92045 333 30/// 56500 59034 84812;","Q01+100863APOSLPQ02  00002PRCP99"
"76373099999","2001-02-23T15:00:00","4","25.35","-105.75","1967.0","TEPEHUANES DGO., MX","FM-12","99999","V020","330,1,N,0010,1","06000,1,9,N","070000,1,N,1","+0060,1","-0013,1","10141,1","99,0000,9,1",,,,"06,1,+06000,9,08,9",,,,"06,99,1,99,9,00,1,99999,9,00,1,08,1",,"01,9",,,,"99999,9,08183,1","9,9,999,9,-043,1",,,"SYN100AAXX  23151 76373 32988 63301 10060 21013 38183 40141 5//// 80008 91442 333 30/// 56006 59043 86270;","Q01+000002SCOTLCQ02  00002PRCP99"
"76373099999","2001-02-23T18:00:00","4","25.35","-105.75","1967.0","TEPEHUANES DGO., MX","FM-12","99999","V020","250,1,N,0100,1","09000,1,C,N","070000,1,N,1","+0204,2","+0042,1","10134,1","99,0000,9,1",,,,"02,1,+03000,9,03,9",,,,"08,99,1,02,1,00,1,01750,1,04,1,08,1",,"01,9",,"120,M,+0290,1","240,N,+0022,1","99999,9,08132,1","7,1,001,1,-036,1",,,"SYN118AAXX  23181 76373 32788 82510 10204 20042 38132 40134 57001 82048 91740 333 10290 20022 30/// 56055 59036 82360 87270;","Q01  00002PRCP99"
"76373099999","2001-02-23T21:00:00","4","25.35","-105.75","1967.0","TEPEHUANES DGO., MX","FM-12","99999","V020","220,1,N,0100,1","06000,1,9,N","070000,1,N,1","+0162,1","+0034,1","10102,1","99,0000,9,1",,,,"01,1,+00360,9,08,9","01,1,+03000,9,03,9","08,1,+06000,9,02,9",,"08,99,1,01,1,01,1,00450,1,03,1,07,1",,"01,9",,,,"99999,9,08168,1","6,1,014,1,-007,1",,,"SYN118AAXX  23211 76373 32488 82210 10162 20034 38168 40102 56014 81137 92040 333 30/// 56333 59007 81812 81360 88270 99020;","Q01  00002PRCP99"
"76373099999","2001-02-26T15:00:00","4","25.35","-105.75","1967.0","TEPEHUANES DGO., MX","FM-12","99999","V020","999,9,C,0000,1","06000,1,9,N","070000,1,N,1","+0046,1","-0007,1","10214,1","99,0000,9,1",,,,"07,1,+06000,9,02,9",,,,"07,99,1,00,1,00,1,99999,9,00,1,07,1",,"01,9",,,,"99999,9,08233,1",,,,"SYN106AAXX  26151 76373 32988 70000 10046 21007 38233 40214 5//// 80007 91440 333 30/// 56006 58/// 87270 99020;","Q01  00002PRCP99"
"76373099999","2001-02-26T18:00:00","4","25.35","-105.75","1967.0","TEPEHUANES DGO., MX","FM-12","99999","V020","300,1,N,0010,1","06000,1,9,N","070000,1,N,1","+0184,1","+0077,1","10199,1","99,0000,9,1",,,,"07,1,+06000,9,02,9",,,,"07,99,1,00,1,00,1,99999,9,00,1,07,1",,"01,9",,"120,M,+0248,1","240,N,+0004,1","99999,9,08223,1","6,1,010,1,+999,9",,,"SYN118AAXX  26181 76373 32988 73001 10184 20077 38223 40199 56010 80007 91740 333 10248 20004 30/// 56006 58/// 87270 99020;","Q01  00002PRCP99"
"76373099999","2001-02-26T21:00:00","4","25.35","-105.75","1967.0","TEPEHUANES DGO., MX","FM-12","99999","V020","210,1,N,0040,1","22000,1,9,N","070000,1,N,1","+0244,1","+0137,1","10130,1","99,0000,9,1",,,,"02,1,+06000,9,01,9",,,,"02,99,1,00,1,00,1,99999,9,00,1,05,1",,"01,9",,,,"99999,9,08193,1","7,1,030,1,+999,9",,,"SYN100AAXX  26211 76373 32988 22104 10244 20137 38193 40130 57030 80005 92040 333 30/// 56006 58/// 82070;","Q01  00002PRCP99"
"76373099999","2001-02-27T00:00:00","4","25.35","-105.75","1967.0","TEPEHUANES DGO., MX","FM-12","99999","V020","270,1,N,0040,1","22000,1,9,N","070000,1,N,1","+0220,1","+0087,1","10097,1","24,0000,9,1",,,,,,,,"02,99,1,00,1,00,1,99999,9,00,1,09,1",,"01,9",,"120,M,+0263,1","180,N,+0004,1","99999,9,08193,1","5,1,000,1,+999,9",,,"SYN124AAXX  27001 76373 32988 22704 10220 20087 38193 40097 55000 80009 92337 333 10263 20004 30/// 50450 56005 58/// 70000 82070;","Q01  00002PRCP99Q02  00003PRCP99"
"76373099999","2001-02-27T12:00:00","4","25.35","-105.75","1967.0","TEPEHUANES DGO., MX","FM-12","99999","V020","999,9,C,0000,1","22000,1,9,N","000200,1,N,1","+0016,1","-0035,1","10167,1","24,0000,9,1",,,,"00,1,+99999,9,99,9",,,,"00,99,1,00,1,00,1,99999,9,00,1,00,1",,"01,9","999,-0020,9","999,M,+0263,1","120,N,+0004,1","99999,9,08212,1","2,1,003,1,+999,9",,,"SYN100AAXX  27121 76373 32902 00000 10016 21035 38212 40167 52003 91143 333 10263 20004 30102 58/// 70000;","Q01  00002PRCP24"
"76373099999","2001-02-27T18:00:00","4","25.35","-105.75","1967.0","TEPEHUANES DGO., MX","FM-12","99999","V020","210,1,N,0030,1","22000,1,9,N","070000,1,N,1","+0180,1","+0031,1","10202,1","99,0000,9,1",,,,"03,1,+00360,9,08,9",,,,"04,99,1,03,1,01,1,00450,1,00,1,02,1",,"01,9",,"120,M,+0263,1","240,N,-0008,1","99999,9,08220,1","8,1,003,1,-003,1",,,"SYN118AAXX  27181 76373 32488 42103 10180 20031 38220 40202 58003 83102 91740 333 10263 21008 30/// 56606 59003 83812 81070;","Q01  00002PRCP99"
"76373099999","2001-02-27T21:00:00","4","25.35","-105.75","1967.0","TEPEHUANES DGO., MX","FM-12","99999","V020","230,1,N,0060,1","09000,1,C,N","070000,1,N,1","+0218,1","+0080,1","10151,1","99,0000,9,1",,,,"04,1,+00360,9,08,9",,,,"06,99,1,04,1,01,1,00450,1,00,1,02,1",,"01,9",,,,"99999,9,08201,1","6,1,019,1,+008,1",,,"SYN106AAXX  27211 76373 32488 62306 10218 20080 38201 40151 56019 84102 92044 333 30/// 56606 58008 84812 82070;","Q01  00002PRCP99"
"76373099999","2001-02-28T03:00:00","4","25.35","-105.75","1967.0","TEPEHUANES DGO., MX","FM-12","99999","V020","180,1,N,0010,1","22000,1,9,N","000200,1,N,1","+0136,1","+0057,1","10106,1","02,9999,9,9",,"5,1,03,1","2,1,03,1","03,1,+00300,9,02,9",,,,"03,99,1,03,1,01,1,00450,1,00,1,00,1",,"01,9",,,,"99999,9,08211,1","2,1,021,1,+999,9","01,1",,"SYN106AAXX  28031 76373 21402 31801 10136 20057 38211 40106 52021 70152 83100 90242 333 30/// 56600 69906 83810;","Q01  99992PRCP02"
"76373099999","2001-02-28T15:00:00","4","25.35","-105.75","1967.0","TEPEHUANES DGO., MX","FM-12","99999","V020","150,1,N,0010,1","09000,1,C,N","060000,1,N,1","+0101,1","+0043,1","10153,1","99,0000,9,1",,,,"04,1,+00300,9,06,9",,,,"05,99,1,04,1,04,1,00450,1,00,1,05,1",,"01,9",,,,"99999,9,08199,1","2,1,008,1,-024,1",,,"SYN106AAXX  28151 76373 32486 51501 10101 20043 38199 40153 52008 84405 91450 333 30/// 56606 59024 84610 81070;","Q01  00002PRCP99"
"76373099999","2001-02-28T21:00:00","4","25.35","-105.75","1967.0","TEPEHUANES DGO., MX","FM-12","99999","V020","270,1,N,0040,1","22000,1,C,N","070000,1,N,1","+0208,1","+0073,1","10097,1","99,0000,9,1",,,,"03,1,+00300,9,08,9",,,,"06,99,1,03,1,01,1,00450,1,00,1,04,1",,"01,9",,,,"99999,9,08184,1","7,1,018,1,-017,1",,,"SYN106AAXX  28211 76373 32488 62704 10208 20073 38184 40097 57018 83104 92044 333 30/// 56606 59017 83810 83070;","Q01  00002PRCP99"
"76373099999","2001-03-01T00:00:00","4","25.35","-105.75","1967.0","TEPEHUANES DGO., MX","FM-12","99999","V020","280,1,N,0030,1","09000,1,9,N","070000,1,N,1","+0184,1","+0086,1","10072,1","99,0000,9,1",,,,,,,,"06,99,1,02,1,01,1,00450,1,00,1,05,1",,,,,,"99999,9,08180,1","8,1,004,1,+999,9",,,"SYN129AAXX  01001 76373 32488 62803 10184 20086 38180 40072 58004 82105 92343 33 10227 20063 30/// 50600 57606 59015 70000 82810 84070;","Q01  00002PRCP99"
"76373099999","2001-03-01T03:00:00","4","25.35","-105.75","1967.0","TEPEHUANES DGO., MX","FM-12","99999","V020","240,1,N,0010,1","99999,9,9,N","000200,1,N,1","+0137,1","+0039,1","10079,1","99,0000,9,1",,,,,,,,"07,99,1,99,9,99,9,99999,9,99,9,99,9",,"01,9",,,,"99999,9,08191,1","2,1,011,1,-020,1",,,"SYN094AAXX  01031 76373 32/02 72401 10137 20039 38191 40079 52011 8//// 90247 333 30/// 56/// 59020;","Q01  00002PRCP99"
"76373099999","2001-03-01T15:00:00","4","25.35","-105.75","1967.0","TEPEHUANES DGO., MX","FM-12","99999","V020","120,1,N,0010,1","09000,1,C,N","070000,1,N,1","+0052,1","-0011,1","10139,1","99,0000,9,1",,,,"03,1,+03000,9,03,9",,,,"08,99,1,03,1,00,1,01250,1,06,1,08,1",,"01,9",,,,"99999,9,08174,1","9,9,999,9,-025,1",,,"SYN106AAXX  01151 76373 32688 81201 10052 21011 38174 40139 5//// 83068 91440 333 30/// 56505 59025 83360 87270;","Q01  00002PRCP99"
"76373099999","2001-03-01T18:00:00","4","25.35","-105.75","1967.0","TEPEHUANES DGO., MX","FM-12","99999","V020","280,1,N,0030,1","03000,1,9,N","070000,1,N,1","+0148,1","+0041,1","10125,1","99,0000,9,1",,,,"05,1,+03000,9,03,9",,,,"08,99,1,05,1,00,1,01250,1,06,1,08,1",,"01,9",,"120,M,+0227,1","240,N,+0030,1","99999,9,08165,1","6,1,009,1,-037,1",,,"SYN118AAXX  01181 76373 32688 82803 10148 20041 38165 40125 56009 85068 91753 333 10227 20030 30/// 56055 59037 85360 86270;","Q01  00002PRCP99"
"76373099999","2001-03-01T21:00:00","4","25.35","-105.75","1967.0","TEPEHUANES DGO., MX","FM-12","99999","V020","290,1,N,0050,1","00300,1,9,N","018000,1,N,1","+0110,1","+0047,1","10109,1","03,0010,9,1",,"6,1,03,1","5,1,03,1","08,1,+00300,9,05,9",,,,"08,99,1,08,1,07,1,00250,1,99,9,99,9",,"09,9",,,,"99999,9,08158,1","6,1,007,1,-026,1","50,1",,"SYN112AAXX  01211 76373 11368 82905 10110 20047 38158 40109 56007 60017 75065 887// 92040 333 31/// 56600 59026 88610;",
"76373099999","2001-03-02T00:00:00","4","25.35","-105.75","1967.0","TEPEHUANES DGO., MX","FM-12","99999","V020","120,1,N,0010,1","00210,1,9,N","008000,1,N,1","+0092,1","+0061,1","10134,1","02,0020,9,2","03,0010,9,2","6,1,06,1","5,1,06,1",,,,,"08,99,1,08,1,07,1,00250,1,99,9,99,9",,"09,9",,"120,M,+0158,1","180,N,+0030,1","99999,9,08157,1","7,1,001,1,-027,1","51,1",,"SYN136AAXX  02001 76373 /1358 81201 10092 20061 38157 40134 57001 60017 75165 887// 92340 333 10158 20030 31/// 50220 56600 59027 60026 70022;",
"76373099999","2001-03-02T15:00:00","4","25.35","-105.75","1967.0","TEPEHUANES DGO., MX","FM-12","99999","V020","999,9,C,0000,1","09000,1,C,N","060000,1,N,1","+0050,1","+0030,1","10099,1","15,0070,9,1",,,,"02,1,+00300,9,07,9",,,,"08,99,1,02,1,06,1,00250,1,00,1,08,1",,"09,9",,,,"99999,9,08128,1","9,9,999,9,-046,1",,,"SYN118AAXX  02151 76373 /2386 80000 10050 20030 38128 40099 5//// 60079 82608 91436 333 31/// 56303 59046 60079 82710 88270;",
"76373099999","2001-03-02T18:00:00","4","25.35","-105.75","1967.0","TEPEHUANES DGO., MX","FM-12","99999","V020","330,1,N,0020,1","00300,1,9,N","026000,1,N,1","+0090,1","+0032,1","10079,1","02,0002,9,1",,"5,1,06,1","5,1,06,1","06,1,+00300,9,06,9",,,,"08,99,1,06,1,07,1,00250,1,00,1,02,1",,"09,9",,"120,M,+0158,1","240,N,+0020,1","99999,9,08114,1","6,1,014,1,-051,1","50,1",,"SYN130AAXX  02181 76373 21376 83302 10090 20032 38114 40079 56014 75055 86702 91742 333 10158 20020 31/// 56303 59051 69926 86610 82070;",
"76373099999","2001-03-02T21:00:00","4","25.35","-105.75","1967.0","TEPEHUANES DGO., MX","FM-12","99999","V020","320,1,N,0080,1","00300,1,9,N","010000,1,N,1","+0078,1","+0051,1","10055,1","03,0030,9,1",,"6,1,03,1","5,1,03,1","08,1,+00300,9,05,9",,,,"08,99,1,08,1,07,1,00250,1,99,9,99,9",,"09,9",,,,"99999,9,08101,1","7,1,013,1,-057,1","58,1",,"SYN112AAXX  02211 76373 11360 83208 10078 20051 38101 40055 57013 60037 75865 887// 92040 333 31/// 56600 59057 88610;",
"76373099999","2001-03-05T15:00:00","4","25.35","-105.75","1967.0","TEPEHUANES DGO., MX","FM-12","99999","V020","320,1,N,0020,1","22000,1,9,N","060000,1,N,1","+0260,1","-0029,1","10159,1","99,0000,9,1",,,,"02,1,+06000,9,01,9",,,,"02,99,1,00,1,00,1,99999,9,00,1,02,1",,"01,9",,,,"99999,9,08257,1",,,,"SYN100AAXX  05151 76373 32986 23202 10260 21029 38257 40159 5//// 80002 91440 333 30/// 56006 58/// 82070;","Q01  00002PRCP99"
"76373099999","2001-03-05T18:00:00","4","25.35","-105.75","1967.0","TEPEHUANES DGO., MX","FM-12","99999","V020","120,1,N,0060,1","22000,1,9,N","070000,1,N,1","+0160,1","+0015,1","10247,2","99,0000,9,1",,,,"03,1,+06000,9,01,9",,,,"03,99,1,00,1,00,1,99999,9,00,1,02,1",,"01,9",,"120,M,+0204,1","240,N,-0022,1","99999,9,08252,1","7,1,005,1,+999,9",,,"SYN112AAXX  05181 76373 32988 31206 10160 20015 38252 40247 57005 80002 91740 333 10204 21022 30/// 56006 58/// 83070;","Q01+102473APOSLPQ02  00002PRCP99"
"76373099999","2001-03-05T21:00:00","4","25.35","-105.75","1967.0","TEPEHUANES DGO., MX","FM-12","99999","V020","130,1,N,0060,1","06000,1,9,N","070000,1,N,1","+0206,1","+0052,1","10177,1","99,0000,9,1",,,,"02,1,+00360,9,08,9","08,1,+06000,9,02,9",,,"08,99,1,02,1,01,1,00450,1,00,1,07,1",,"01,9",,,,"99999,9,08217,1","6,1,035,1,+999,9",,,"SYN112AAXX  05211 76373 32488 81306 10206 20052 38217 40177 56035 82107 92040 333 30/// 56303 58/// 82812 88270 99020;","Q01  00002PRCP99"
"76373099999","2001-03-06T00:00:00","4","25.35","-105.75","1967.0","TEPEHUANES DGO., MX","FM-12","99999","V020","120,1,N,0040,1","09000,1,9,N","070000,1,N,1","+0222,1","+0046,1","10118,1","24,0000,9,1",,,,"02,1,+00360,9,08,9","01,1,+06000,9,01,9",,,"08,99,1,02,1,01,1,00450,1,00,1,07,1",,"01,9",,"120,M,+0244,1","180,N,-0022,1","99999,9,08200,1","7,1,017,1,+999,9",,,"SYN136AAXX  06001 76373 32488 81204 10222 20046 38200 40118 57017 82107 92340 333 10244 21022 30/// 50420 56303 58/// 70000 82812 81170 88270;","Q01  00002PRCP99Q02  00003PRCP99"
"76373099999","2001-03-06T03:00:00","4","25.35","-105.75","1967.0","TEPEHUANES DGO., MX","FM-12","99999","V020","330,1,N,0010,1","22000,1,9,N","000200,1,N,1","+0168,1","+0065,1","10109,1","99,0000,9,1",,,,"01,1,+00270,9,01,9",,,,"03,99,1,01,1,01,1,00450,1,00,1,09,1",,"01,9",,,,"99999,9,08217,1","2,1,017,1,+999,9",,,"SYN106AAXX  06031 76373 32402 33301 10168 20065 38217 40109 52017 81109 90240 333 30/// 56505 58/// 81810 82170;","Q01  00002PRCP99"
"76373099999","2001-03-06T06:00:00","4","25.35","-105.75","1967.0","TEPEHUANES DGO., MX","FM-12","99999","V020","300,1,N,0010,1","99999,9,9,N","000200,1,N,1","+0143,1","+0037,1","10134,1","99,0000,9,1",,,,,,,,"06,99,1,00,1,00,1,99999,9,00,1,09,1","0642,9","01,9",,"240,M,+0244,1","240,N,-0022,1","99999,9,08240,1","2,1,023,1,+999,9",,,"SYN118AAXX  06061 76373 32902 63001 10143 20037 38240 40134 52023 80009 90540 333 10244 21022 30/// 55107 56005 58/// 86170;","Q01  00002PRCP99"
"76373099999","2001-03-06T15:00:00","4","25.35","-105.75","1967.0","TEPEHUANES DGO., MX","FM-12","99999","V020","320,1,N,0010,1","02400,1,9,N","060000,1,N,1","+0068,1","+0016,1","10191,1","99,0000,9,1",,,,"08,1,+02400,9,07,9",,,,"08,99,1,08,1,99,9,01750,1,07,1,99,9",,"01,9",,,,"99999,9,08237,1","2,1,004,1,-020,1",,,"SYN100AAXX  06151 76373 32786 83201 10068 20016 38237 40191 52004 8807/ 91438 333 30/// 5605/ 59020 88358;","Q01  00002PRCP99Q02    003SCOLCG"
"76373099999","2001-03-06T18:00:00","4","25.35","-105.75","1967.0","TEPEHUANES DGO., MX","FM-12","99999","V020","280,1,N,0010,1","03000,1,9,N","070000,1,N,1","+0142,1","+0020,1","10200,1","99,0000,9,1",,,,"08,1,+03000,9,01,9",,,,"08,99,1,08,1,00,1,01750,1,07,1,99,9",,"01,9",,"120,M,+0244,1","240,N,+0048,1","99999,9,08241,1","1,1,004,1,-011,1",,,"SYN112AAXX  06181 76373 32788 82801 10142 20020 38241 40200 51004 8807/ 91740 333 10244 20048 30/// 56050 59011 88460;","Q01  00002PRCP99"
"76373099999","2001-03-06T21:00:00","4","25.35","-105.75","1967.0","TEPEHUANES DGO., MX","FM-12","99999","V020","340,1,N,0020,1","09000,1,C,N","070000,1,N,1","+0213,1","+0031,1","10151,1","99,0000,9,1",,,,"01,1,+02400,9,03,9",,,,"08,99,1,01,1,00,1,01750,1,07,1,07,1",,"01,9",,,,"99999,9,08211,1","7,1,030,1,-006,1",,,"SYN106AAXX  06211 76373 32788 83402 10213 20031 38211 40151 57030 81077 92038 333 30/// 56055 59006 81358 87270;","Q01  00002PRCP99"
"76373099999","2001-03-07T00:00:00","4","25.35","-105.75","1967.0","TEPEHUANES DGO., MX","FM-12","99999","V020","360,1,N,0030,1","01500,1,9,N","070000,1,N,1","+0196,1","+0059,1","10130,1","24,0000,9,1",,,,,,,,"08,99,1,08,1,00,1,01750,1,01,1,99,9",,"01,9",,"120,M,+0238,1","180,N,+0048,1","99999,9,08213,1","2,1,002,1,+013,1",,,"SYN124AAXX  07001 76373 32788 83603 10196 20059 38213 40130 52002 8801/ 92338 333 10238 20048 30/// 50600 56050 58013 70000 88458;","Q01  00002PRCP99Q02  00003PRCP99"
"76373099999","2001-03-07T06:00:00","4","25.35","-105.75","1967.0","TEPEHUANES DGO., MX","FM-12","99999","V020","350,1,N,0010,1","99999,9,9,N","000200,1,N,1","+0102,1","-0022,1","10148,1","99,0000,9,1",,,,,,,,"06,99,1,00,1,00,1,99999,9,00,1,07,1","0282,9","01,9",,"240,M,+0238,1","240,N,+0048,1","99999,9,08242,1","2,1,021,1,+002,1",,,"SYN118AAXX  07061 76373 32902 63501 10102 21022 38242 40148 52021 80007 90535 333 10238 20048 30/// 55047 56005 58002 86270;","Q01  00002PRCP99"
"76373099999","2001-03-07T12:00:00","4","25.35","-105.75","1967.0","TEPEHUANES DGO., MX","FM-12","99999","V020","999,9,C,0000,1","22000,1,9,N","000200,1,N,1","+0018,1","-0065,1","10191,1","24,0000,9,1",,,,"02,1,+06000,9,01,9",,,,"02,99,1,00,1,00,1,99999,9,00,1,06,1",,"01,9","999,-0020,9","999,M,+0238,1","120,N,+0006,1","99999,9,08231,1","2,1,001,1,-002,1",,,"SYN118AAXX  07121 76373 32902 20000 10018 21065 38231 40191 52001 80006 91143 333 10238 20006 30102 56005 59002 70000 82070;",
"76373099999","2001-03-07T15:00:00","4","25.35","-105.75","1967.0","TEPEHUANES DGO., MX","FM-12","99999","V020","330,1,N,0010,1","22000,1,9,N","060000,1,N,1","+0032,1","-0014,1","99999,9","99,0000,9,1",,,,"02,1,+06000,9,01,9",,,,"02,99,1,00,1,00,1,99999,9,00,1,05,1",,"01,9",,,,"99999,9,08243,1","2,1,012,1,+006,1",,,"SYN100AAXX  07151 76373 32986 23301 10032 21014 38243 40023 52012 80005 91438 333 30/// 56005 58006 82070;","Q01+100233APOSLPQ02  00002PRCP99"
"76373099999","2001-03-07T18:00:00","4","25.35","-105.75","1967.0","TEPEHUANES DGO., MX","FM-12","99999","V020","090,1,N,0020,1","06000,1,9,N","070000,1,N,1","+0180,1","+0010,1","10214,1","99,0000,9,1",,,,"07,1,+06000,9,02,9",,,,"07,99,1,00,1,00,1,99999,9,00,1,07,1",,"01,9",,"120,M,+0238,1","240,N,-0008,1","99999,9,08230,1","6,1,013,1,-011,1",,,"SYN118AAXX  07181 76373 32988 70902 10180 20010 38230 40214 56013 80007 91740 333 10238 21008 30/// 56006 59011 87270 99020;","Q01  00002PRCP99"
"76373099999","2001-03-07T21:00:00","4","25.35","-105.75","1967.0","TEPEHUANES DGO., MX","FM-12","99999","V020","260,1,N,0060,1","22000,1,9,N","070000,1,N,1","+0250,1","+0077,1","10144,1","99,0000,9,1",,,,"03,1,+06000,9,01,9",,,,"03,99,1,00,1,00,1,99999,9,00,1,05,1",,"01,9",,,,"99999,9,08200,1","7,1,030,1,-011,1",,,"SYN100AAXX  07211 76373 32988 32606 10250 20077 38200 40144 57030 80005 92056 333 30/// 56006 59011 83070;","Q01  00002PRCP99"
"76373099999","2001-03-08T00:00:00","4","25.35","-105.75","1967.0","TEPEHUANES DGO., MX","FM-12","99999","V020","240,1,N,0050,1","22000,1,9,N","070000,1,N,1","+0228,1","+0060,1","10097,1","24,0000,9,1",,,,,,,,"01,99,1,00,1,00,1,99999,9,00,1,05,1",,"01,9",,"120,M,+0262,1","180,N,-0008,1","99999,9,08195,1","6,1,005,1,-018,1",,,"SYN124AAXX  08001 76373 32988 12405 10228 20060 38195 40097 56005 80005 92338 333 10262 21008 30/// 50500 56006 59018 70000 81070;","Q01  00002PRCP99Q02  00003PRCP99"
"76373099999","2001-03-08T12:00:00","4","25.35","-105.75","1967.0","TEPEHUANES DGO., MX","FM-12","99999","V020","999,9,C,0000,1","22000,1,9,N","000200,1,N,1","+0023,1","-0018,1","10148,1","24,0000,9,1",,,,"01,1,+06000,9,08,9",,,,"01,99,1,99,9,00,1,99999,9,00,1,08,1",,"01,9","999,-0020,9","999,M,+0262,1","120,N,+0010,1","99999,9,08198,1","7,1,001,1,-033,1",,,"SYN118AAXX  08121 76373 32902 10000 10023 21018 38198 40148 57001 80008 91145 333 10262 20010 30102 56006 59033 70000 81270;","Q01+000002SCOTLC"
"76373099999","2001-03-08T15:00:00","4","25.35","-105.75","1967.0","TEPEHUANES DGO., MX","FM-12","99999","V020","999,9,C,0000,1","22000,1,9,N","070000,1,N,1","+0036,1","-0023,1","10186,1","99,0000,9,1",,,,"02,1,+06000,9,01,9",,,,"02,99,1,00,1,00,1,99999,9,00,1,06,1",,"01,9",,,,"99999,9,08211,1","1,1,013,1,-032,1",,,"SYN100AAXX  08151 76373 32988 20000 10036 21023 38211 40186 51013 80006 91440 333 30/// 56005 59032 82070;","Q01  00002PRCP99"
"76373099999","2001-03-08T21:00:00","4","25.35","-105.75","1967.0","TEPEHUANES DGO., MX","FM-12","99999","V020","280,1,N,0070,1","06000,1,9,N","070000,1,N,1","+0212,1","+0062,1","10118,1","99,0000,9,1",,,,"03,1,+03000,9,04,9","07,1,+06000,9,02,9",,,"08,99,1,03,1,00,1,01750,1,02,1,07,1",,"01,9",,,,"99999,9,08185,1","6,1,019,1,-015,1",,,"SYN112AAXX  08211 76373 32788 82807 10212 20062 38185 40118 56019 83027 92040 333 30/// 56066 59015 83460 87270 99020;","Q01  00002PRCP99"
"76373099999","2001-03-09T00:00:00","4","25.35","-105.75","1967.0","TEPEHUANES DGO., MX","FM-12","99999","V020","280,1,N,0080,1","99999,9,9,N","070000,1,N,1","+0220,1","+0025,1","10074,1","24,0000,9,1",,,,,,,,"08,99,1,00,1,00,1,99999,9,00,1,08,1",,"01,9",,"120,M,+0248,1","180,N,+0000,1","99999,9,08178,1","6,1,007,1,-017,1",,,"SYN124AAXX  09001 76373 32988 82808 10220 20025 38178 40074 56007 80008 92342 333 10248 20000 30/// 50630 56006 59017 70000 87270;","Q01  00002PRCP99Q02  00003PRCP99"
"76373099999","2001-03-09T15:00:00","4","25.35","-105.75","1967.0","TEPEHUANES DGO., MX","FM-12","99999","V020","320,1,N,0010,1","06000,1,9,N","070000,1,N,1","+0042,1","-0050,1","10207,1","99,0000,9,1",,,,"07,1,+06000,9,08,9",,,,"07,99,1,99,9,00,1,99999,9,00,1,08,1",,"01,9",,,,"99999,9,08228,1","9,9,999,9,+017,1",,,"SYN100AAXX  09151 76373 32988 73201 10042 21050 38228 40207 5//// 80008 91440 333 30/// 56006 58017 87270;","Q01+000002SCOTLCQ02  00002PRCP99"
"76373099999","2001-03-09T21:00:00","4","25.35","-105.75","1967.0","TEPEHUANES DGO., MX","FM-12","99999","V020","030,1,N,0030,1","22000,1,9,N","070000,1,N,1","+0230,1","+0110,1","10111,1","99,0000,9,1",,,,"03,1,+06000,9,01,9",,,,"03,99,1,00,1,00,1,99999,9,00,1,02,1",,"01,9",,,,"99999,9,08175,1","6,1,039,1,-010,1",,,"SYN100AAXX  09211 76373 32988 30303 10230 20110 38175 40111 56039 80002 92040 333 30/// 56006 59010 83070;","Q01  00002PRCP99"
"76373099999","2001-03-10T00:00:00","4","25.35","-105.75","1967.0","TEPEHUANES DGO., MX","FM-12","99999","V020","240,1,N,0070,1","06000,1,C,N","070000,1,N,1","+0238,1","+0111,1","10072,1","24,0000,9,1",,,,"08,1,+06000,9,02,9",,,,"08,99,1,00,1,00,1,99999,9,00,1,07,1",,"01,9",,"120,M,+0278,1","180,N,-0007,1","99999,9,08173,1","4,1,000,1,-005,1",,,"SYN130AAXX  10001 76373 32988 82407 10238 20111 38173 40072 54000 80007 92340 333 10278 21007 30/// 50670 56006 59005 70000 88270 99020;","Q01  00002PRCP99Q02  00003PRCP99"
"76373099999","2001-03-12T15:00:00","4","25.35","-105.75","1967.0","TEPEHUANES DGO., MX","FM-12","99999","V020","030,1,N,0010,1","06000,1,9,N","070000,1,N,1","+0048,1","-0040,1","10172,1","99,0000,9,1",,,,"08,1,+06000,9,08,9",,,,"08,99,1,99,9,00,1,99999,9,00,1,08,1",,"01,9",,,,"99999,9,08191,1",,,,"SYN100AAXX  12151 76373 32988 80301 10048 21040 38191 40172 5//// 80008 91440 333 30/// 56006 58/// 88270;","Q01+000002SCOTLCQ02  00002PRCP99"
"76373099999","2001-03-12T18:00:00","4","25.35","-105.75","1967.0","TEPEHUANES DGO., MX","FM-12","99999","V020","040,1,N,0020,1","22000,1,9,N","070000,1,N,1","+0176,1","+0007,1","10153,1","99,0000,9,1",,,,"02,1,+06000,9,01,9",,,,"02,99,1,00,1,00,1,99999,9,00,1,05,1",,"01,9",,"120,M,+0198,1","240,N,-0004,1","99999,9,08186,1","6,1,005,1,+999,9",,,"SYN112AAXX  12181 76373 32988 20402 10176 20007 38186 40153 56005 82005 91740 333 10198 21004 30/// 56006 58/// 82070;","Q01+000022SCOTLCQ02  00002PRCP99"
"76373099999","2001-03-12T21:00:00","4","25.35","-105.75","1967.0","TEPEHUANES DGO., MX","FM-12","99999","V020","270,1,N,0080,1","06000,1,9,N","070000,1,N,1","+0220,1","+0047,1","10109,1","99,0000,9,1",,,,"07,1,+06000,9,08,9",,,,"07,99,1,99,9,00,1,99999,9,00,1,08,1",,"01,9",,,,"99999,9,08173,1","6,1,013,1,+999,9",,,"SYN100AAXX  12211 76373 32988 72708 10220 20047 38173 40109 56013 80008 92045 333 30/// 56006 58/// 87270;","Q01+000002SCOTLCQ02  00002PRCP99"
"76373099999","2001-03-13T00:00:00","4","25.35","-105.75","1967.0","TEPEHUANES DGO., MX","FM-12","99999","V020","260,1,N,0050,1","09000,1,9,N","070000,1,N,1","+0190,1","+0020,1","10086,1","99,0000,9,1",,,,"01,1,+02400,9,03,9",,,,"06,99,1,01,1,00,1,01750,1,07,1,08,1",,"01,9",,"120,M,+0239,1","180,N,-0004,1","99999,9,08179,1","8,1,006,1,+999,9",,,"SYN124AAXX  13001 76373 32788 62605 10190 20020 38179 40086 58006 81078 92337 333 10239 21004 30/// 50550 56066 58/// 81358 85270;","Q01  00002PRCP99"
"76373099999","2001-03-13T12:00:00","4","25.35","-105.75","1967.0","TEPEHUANES DGO., MX","FM-12","99999","V020","030,1,N,0010,1","22000,1,9,N","000200,1,N,1","+0062,1","-0041,1","10148,1","24,0000,9,1",,,,"01,1,+02400,9,03,9",,,,"03,99,1,01,1,00,1,01750,1,03,1,05,1",,"01,9","999,+0020,9","999,M,+0239,1","120,N,+0038,1","99999,9,08196,1","7,1,007,1,+999,9",,,"SYN124AAXX  13120 76373 32702 30301 10062 21041 38196 40148 57007 81035 91137 333 10239 20038 30002 56066 58/// 70000 81358 82070;",
"76373099999","2001-03-13T15:00:00","4","25.35","-105.75","1967.0","TEPEHUANES DGO., MX","FM-12","99999","V020","040,1,N,0010,1","22000,1,9,N","060000,1,N,1","+0089,1","-0008,1","10177,1","99,0000,9,1",,,,"03,1,+02400,9,03,9",,,,"04,99,1,03,1,00,1,01750,1,06,1,05,1",,"01,9",,,,"99999,9,08206,1","2,1,010,1,-015,1",,,"SYN106AAXX  13151 76373 32786 40401 10089 21008 38206 40177 52010 83065 91438 333 30/// 56066 59015 83358 81070;","Q01  00002PRCP99"
"76373099999","2001-03-13T18:00:00","4","25.35","-105.75","1967.0","TEPEHUANES DGO., MX","FM-12","99999","V020","220,1,N,0050,1","03600,1,C,N","070000,1,N,1","+0208,2","+0111,2","10158,1","99,0000,9,1",,,,"02,1,+00300,9,08,9","01,1,+02400,9,04,9",,,"06,99,1,02,1,01,1,00450,1,02,1,05,1",,"01,9",,"120,M,+0239,1","240,N,+0028,1","99999,9,08203,1","5,1,003,1,+017,1",,,"SYN124AAXX  13181 76373 32488 62205 10208 20111 38203 40158 55003 82125 91745 333 10239 20028 30/// 56666 58017 82810 81458 83070;","Q01  00002PRCP99"
"76373099999","2001-03-13T21:00:00","4","25.35","-105.75","1967.0","TEPEHUANES DGO., MX","FM-12","99999","V020","240,1,N,0070,1","00300,1,9,N","070000,1,N,1","+0194,1","+0081,1","10125,1","99,0000,9,1",,,,"05,1,+00300,9,08,9",,,,"08,99,1,05,1,01,1,00450,1,02,1,00,1",,"01,9",,,,"99999,9,08197,1","6,1,006,1,+024,1",,,"SYN106AAXX  13211 76373 32488 82407 10194 20081 38197 40125 56006 85120 92040 333 30/// 56330 58024 85810 83460;","Q01  00002PRCP99"
"76373099999","2001-03-14T00:00:00","4","25.35","-105.75","1967.0","TEPEHUANES DGO., MX","FM-12","99999","V020","260,1,N,0030,1","02400,1,C,N","070000,1,N,1","+0181,1","+0066,1","10090,1","24,0000,9,1",,,,"02,1,+00300,9,06,9","04,1,+02400,9,04,9",,,"08,99,1,02,1,04,1,00450,1,01,1,05,1",,"01,9",,"120,M,+0230,1","180,N,+0028,1","99999,9,08188,1","8,1,009,1,+009,1",,,"SYN136AAXX  14001 76373 32488 82603 10181 20066 38188 40090 58009 82415 92340 333 10230 20028 30/// 50570 56555 58009 70000 82610 84458 82070;","Q01  00002PRCP99Q02  00003PRCP99"
"76373099999","2001-03-14T03:00:00","4","25.35","-105.75","1967.0","TEPEHUANES DGO., MX","FM-12","99999","V020","310,1,N,0010,1","22000,1,9,N","000200,1,N,1","+0148,1","+0054,1","10062,1","99,0000,9,1",,,,,,,,"03,99,1,99,9,99,9,99999,9,99,9,99,9",,"01,9",,,,"99999,9,08178,1","5,1,010,1,-022,1",,,"SYN094AAXX  14031 76373 32/02 33101 10148 20054 38178 40062 55010 8//// 90245 333 30/// 56/// 59022;","Q01  00002PRCP99"
"76373099999","2001-03-14T06:00:00","4","25.35","-105.75","1967.0","TEPEHUANES DGO., MX","FM-12","99999","V020","220,1,N,0020,1","22000,1,9,N","000200,1,N,1","+0153,1","+0043,1","10053,1","99,0000,9,1",,,,,,,,"02,99,1,02,1,00,1,01750,1,03,1,00,1","0534,9","01,9",,"240,M,+0230,1","240,N,+0028,1","99999,9,08167,1","7,1,011,1,-044,1",,,"SYN118AAXX  14061 76373 32702 22202 10153 20043 38167 40053 57011 82030 90540 333 10230 20028 30/// 55089 56050 59044 82358;","Q01  00002PRCP99"
"76373099999","2001-03-14T12:00:00","4","25.35","-105.75","1967.0","TEPEHUANES DGO., MX","FM-12","99999","V020","270,1,N,0050,1","02400,1,9,N","000200,1,N,1","+0121,1","+0053,1","10062,1","24,0000,9,1",,,,"01,1,+00300,9,08,9","04,1,+02400,9,04,9",,,"08,99,1,01,1,01,1,00450,1,01,1,07,1",,"01,9","999,+0100,9","999,M,+0230,1","120,N,+0108,1","99999,9,08153,1","2,1,007,1,-043,1",,,"SYN130AAXX  14121 76373 32402 82705 10121 20053 38153 40062 52007 81117 91145 333 10230 20108 30010 56555 59043 70000 81810 84458 83270;",
"76373099999","2001-03-14T15:00:00","4","25.35","-105.75","1967.0","TEPEHUANES DGO., MX","FM-12","99999","V020","300,1,N,0030,1","22000,1,C,N","060000,1,N,1","+0110,1","-0008,1","10101,1","99,0000,9,1",,,,"03,1,+02400,9,04,9",,,,"06,99,1,03,1,00,1,01750,1,01,1,04,1",,"01,9",,,,"99999,9,08181,1","2,1,028,1,-025,1",,,"SYN106AAXX  14151 76373 32786 63003 10110 21008 38181 40101 52028 83014 91437 333 30/// 56066 59025 83458 83070;","Q01  00002PRCP99"
"76373099999","2001-03-14T21:00:00","4","25.35","-105.75","1967.0","TEPEHUANES DGO., MX","FM-12","99999","V020","280,1,N,0060,1","22000,1,9,N","070000,1,N,1","+0220,1","+0074,1","10067,1","99,0000,9,1",,,,"03,1,+06000,9,01,9",,,,"03,99,1,00,1,00,1,99999,9,00,1,06,1",,"01,9",,,,"99999,9,08162,1","6,1,026,1,-035,1",,,"SYN100AAXX  14211 76373 32988 32806 10220 20074 38162 40067 56026 80006 92040 333 30/// 56006 59035 83070;","Q01  00002PRCP99"
"76373099999","2001-03-15T00:00:00","4","25.35","-105.75","1967.0","TEPEHUANES DGO., MX","FM-12","99999","V020","270,1,N,0030,1","22000,1,9,N","070000,1,N,1","+0220,1","+0015,1","10046,1","24,0000,9,1",,,,,,,,"03,99,1,00,1,00,1,99999,9,00,1,06,1",,"01,9",,"120,M,+0235,1","180,N,+0096,1","99999,9,08159,1","5,1,003,1,-029,1",,,"SYN124AAXX  15001 76373 32988 32703 10220 20015 38159 40046 55003 80006 92338 333 10235 20096 30/// 50500 56006 59029 70000 83070;","Q01  00002PRCP99Q02  00003PRCP99"
"76373099999","2001-03-15T06:00:00","4","25.35","-105.75","1967.0","TEPEHUANES DGO., MX","FM-12","99999","V020","999,9,C,0000,1","22000,1,9,N","000200,1,N,1","+0166,1","-0047,1","10074,1","99,0000,9,1",,,,"00,1,+99999,9,99,9",,,,"00,99,1,00,1,00,1,99999,9,00,1,00,1","0600,9","01,9",,"240,M,+0225,1","240,N,+0096,1","99999,9,08180,1","2,1,006,1,+012,1",,,"SYN100AAXX  15061 76373 32902 00000 10166 21047 38180 40074 52006 90546 333 10225 20096 30/// 55100 58012;","Q01  00002PRCP99"
"76373099999","2001-03-15T12:00:00","4","25.35","-105.75","1967.0","TEPEHUANES DGO., MX","FM-12","99999","V020","999,9,C,0000,1","22000,1,9,N","000200,1,N,1","+0000,1","-0076,1","10132,1","24,0000,9,1",,,,"00,1,+99999,9,99,9",,,,"00,99,1,00,1,00,1,99999,9,00,1,00,1",,"01,9","999,-0050,9","999,M,+0235,1","120,N,-0010,1","99999,9,08170,1","2,1,002,1,+018,1",,,"SYN100AAXX  15121 76373 32902 00000 10000 21076 38170 40132 52002 91138 333 10235 21010 30105 58018 70000;","Q01  00002PRCP24"
"76373099999","2001-03-15T15:00:00","4","25.35","-105.75","1967.0","TEPEHUANES DGO., MX","FM-12","99999","V020","330,1,N,0020,1","22000,1,9,N","070000,1,N,1","+0046,1","-0078,1","10184,1","99,0000,9,1",,,,"00,1,+99999,9,99,9",,,,"00,99,1,00,1,00,1,99999,9,00,1,00,1",,"01,9",,,,"99999,9,08190,1","1,1,020,1,+009,1",,,"SYN082AAXX  15151 76373 32988 03302 10046 21078 38190 40184 51020 91448 333 30/// 58009;","Q01  00002PRCP99"
"76373099999","2001-03-15T18:00:00","4","25.35","-105.75","1967.0","TEPEHUANES DGO., MX","FM-12","99999","V020","150,1,N,0030,1","22000,1,9,N","070000,1,N,1","+0160,1","-0012,1","10165,1","99,0000,9,1",,,,"00,1,+99999,9,99,9",,,,"00,99,1,00,1,00,1,99999,9,00,1,00,1",,"01,9",,"120,M,+0235,1","240,N,-0026,1","99999,9,08181,1","8,1,009,1,-007,1",,,"SYN094AAXX  15181 76373 32988 01503 10160 21012 38181 40165 58009 91750 333 10235 21026 30/// 59007;","Q01  00002PRCP99"
"76373099999","2001-03-15T21:00:00","4","25.35","-105.75","1967.0","TEPEHUANES DGO., MX","FM-12","99999","V020","150,1,N,0040,1","22000,1,9,N","070000,1,N,1","+0220,1","+0015,1","10095,2","99,0000,9,1",,,,"03,1,+06000,9,01,9",,,,"03,99,1,00,1,00,1,99999,9,00,1,08,1",,"01,9",,,,"99999,9,08150,1","6,1,031,1,-038,1",,,"SYN100AAXX  15211 76373 32988 31504 10220 20015 38150 40095 56031 80008 92040 333 30/// 56006 59038 83070;","Q01+100953APOSLPQ02  00002PRCP99"
"76373099999","2001-03-16T15:00:00","4","25.35","-105.75","1967.0","TEPEHUANES DGO., MX","FM-12","99999","V020","070,1,N,0010,1","22000,1,9,N","070000,1,N,1","+0052,1","-0038,1","10151,1","99,0000,9,1",,,,"01,1,+06000,9,01,9",,,,"01,99,1,00,1,00,1,99999,9,00,1,01,1",,"01,9",,,,"99999,9,08180,1","9,9,999,9,-010,1",,,"SYN100AAXX  16151 76373 32988 10701 10052 21038 38180 40151 5//// 80001 91440 333 30/// 56006 59010 81070;","Q01  00002PRCP99"
"76373099999","2001-03-16T21:00:00","4","25.35","-105.75","1967.0","TEPEHUANES DGO., MX","FM-12","99999","V020","240,1,N,0070,1","03000,1,9,N","070000,1,N,1","+0220,1","+0025,1","10067,2","99,0000,9,1",,,,"07,1,+03000,9,03,9",,,,"08,99,1,07,1,00,1,01250,1,03,1,02,1",,"01,9",,,,"99999,9,08136,1","6,1,024,1,-014,1",,,"SYN106AAXX  16211 76373 32688 82407 10220 20025 38136 40067 56024 87032 92042 333 30/// 56066 59014 87360 82070;","Q01+100673APOSLPQ02  00002PRCP99"
"76373099999","2001-03-19T15:00:00","4","25.35","-105.75","1967.0","TEPEHUANES DGO., MX","FM-12","99999","V020","070,1,N,0010,1","22000,1,9,N","060000,1,N,1","+0068,1","-0015,1","10216,1","99,0000,9,1",,,,"00,1,+99999,9,99,9",,,,"00,99,1,00,1,00,1,99999,9,00,1,00,1",,"01,9",,,,"99999,9,08236,1",,,,"SYN082AAXX  19151 76373 32986 00701 10068 21015 38236 40216 5//// 91440 333 30/// 58///;","Q01  00002PRCP99"
"76373099999","2001-03-19T18:00:00","4","25.35","-105.75","1967.0","TEPEHUANES DGO., MX","FM-12","99999","V020","060,1,N,0020,1","22000,1,9,N","070000,1,N,1","+0170,1","+0063,1","10207,1","99,0000,9,1",,,,"00,1,+99999,9,99,9",,,,"00,99,1,00,1,00,1,99999,9,00,1,00,1",,"01,9",,"120,M,+0260,1","240,N,+0004,1","99999,9,08233,1","8,1,003,1,+999,9",,,"SYN094AAXX  19181 76373 32988 00602 10170 20063 38233 40207 58003 91740 333 10260 20004 30/// 58///;","Q01  00002PRCP99"
"76373099999","2001-03-20T00:00:00","4","25.35","-105.75","1967.0","TEPEHUANES DGO., MX","FM-12","99999","V020","160,1,N,0050,1","22000,1,9,N","070000,1,N,1","+0223,1","-0015,1","10109,2","24,0000,9,1",,,,"00,1,+99999,9,99,9",,,,"00,99,1,00,1,00,1,99999,9,00,1,00,1",,"01,9",,"120,M,+0245,1",,"99999,9,08199,1","5,1,010,1,+999,9",,,"SYN100AAXX  20001 76373 32988 01605 10223 21015 38199 40109 55010 92345 333 10245 30/// 50420 58/// 70000;","Q01+101093APOSLPQ02  00002PRCP24"
"76373099999","2001-03-20T03:00:00","4","25.35","-105.75","1967.0","TEPEHUANES DGO., MX","FM-12","99999","V020","160,1,N,0010,1","22000,1,9,N","000200,1,N,1","+0164,1","-0006,1","10102,1","99,0000,9,1",,,,"00,1,+99999,9,99,9",,,,"00,99,1,00,1,00,1,99999,9,00,1,00,1",,"01,9",,,,"99999,9,08213,1","2,1,014,1,+999,9",,,"SYN082AAXX  20031 76373 32902 01601 10164 21006 38213 40102 52014 90258 333 30/// 58///;","Q01  00002PRCP99"
"76373099999","2001-03-20T12:00:00","4","25.35","-105.75","1967.0","TEPEHUANES DGO., MX","FM-12","99999","V020","350,1,N,0010,1","22000,1,9,N","000200,1,N,1","+0028,1","-0057,1","10134,1","24,0000,9,1",,,,"00,1,+99999,9,99,9",,,,"00,99,1,00,1,00,1,99999,9,00,1,00,1",,"01,9","999,-0020,9","999,M,+0245,1","120,N,+0016,1","99999,9,08241,1","2,1,006,1,+999,9",,,"SYN100AAXX  20121 76373 32902 03501 10028 21057 38241 40134 52006 91145 333 10245 20016 30102 58/// 70000;","Q01  00002PRCP24"
"76373099999","2001-03-20T21:00:00","4","25.35","-105.75","1967.0","TEPEHUANES DGO., MX","FM-12","99999","V020","110,1,N,0040,1","22000,1,9,N","070000,1,N,1","+0244,1","+0060,1","10146,1","99,0000,9,1",,,,"00,1,+99999,9,99,9",,,,"00,99,1,00,1,00,1,99999,9,00,1,00,1",,"01,9",,,,"99999,9,08209,1","6,1,035,1,+000,1",,,"SYN082AAXX  20211 76373 32988 01104 10244 20060 38209 40146 56035 92050 333 30/// 58000;","Q01  00002PRCP99"
"76373099999","2001-03-21T00:00:00","4","25.35","-105.75","1967.0","TEPEHUANES DGO., MX","FM-12","99999","V020","140,1,N,0040,1","22000,1,9,N","070000,1,N,1","+0254,1","+0066,1","10086,2","24,0000,9,1",,,,,,,,"02,99,1,02,1,01,1,00450,1,00,1,00,1",,"01,9",,"120,M,+0286,1","180,N,+0002,1","99999,9,08193,1","7,1,016,1,-006,1",,,"SYN124AAXX  21001 76373 32488 21404 10254 20066 38193 40086 57016 82100 92345 333 10286 20002 30/// 50780 56600 59006 70000 82810;","Q01+100863APOSLPQ02  00002PRCP99Q03  00003PRCP99"
"76373099999","2001-03-21T12:00:00","4","25.35","-105.75","1967.0","TEPEHUANES DGO., MX","FM-12","99999","V020","999,9,C,0000,1","22000,1,9,N","000200,1,N,1","+0058,1","-0030,1","10174,1","24,0000,9,1",,,,"00,1,+99999,9,99,9",,,,"00,99,1,00,1,00,1,99999,9,00,1,00,1",,"01,9","999,+0020,9","999,M,+0286,1","120,N,+0046,1","99999,9,08241,1","2,1,016,1,+000,1",,,"SYN100AAXX  21121 76373 32902 00000 10058 21030 38241 40174 52016 91137 333 10286 20046 30002 58000 70000;","Q01  00002PRCP24"
"76373099999","2001-03-21T15:00:00","4","25.35","-105.75","1967.0","TEPEHUANES DGO., MX","FM-12","99999","V020","320,1,N,0010,1","22000,1,9,N","060000,1,N,1","+0092,1","+0001,1","10219,1","99,0000,9,1",,,,"00,1,+99999,9,99,9",,,,"00,99,1,00,1,00,1,99999,9,00,1,00,1",,"01,9",,,,"99999,9,08255,1","2,1,014,1,+000,1",,,"SYN082AAXX  21151 76373 32986 03201 10092 20001 38255 40219 52014 91443 333 30/// 58000;","Q01  00002PRCP99"
"76373099999","2001-03-21T18:00:00","4","25.35","-105.75","1967.0","TEPEHUANES DGO., MX","FM-12","99999","V020","110,1,N,0010,1","22000,1,9,N","070000,1,N,1","+0216,2","+0082,1","10200,1","99,0000,9,1",,,,"00,1,+99999,9,99,9",,,,"00,99,1,00,1,00,1,99999,9,00,1,00,1",,"01,9",,"120,M,+0286,1","240,N,+0033,1","99999,9,08240,1","6,1,011,1,+000,1",,,"SYN094AAXX  21181 76373 32988 01101 10216 20082 38240 40200 56011 91736 333 10286 20033 30/// 58000;","Q01+002163ATOT  Q02  00002PRCP99"
"76373099999","2001-03-21T21:00:00","4","25.35","-105.75","1967.0","TEPEHUANES DGO., MX","FM-12","99999","V020","230,1,N,0010,1","22000,1,9,N","070000,1,N,1","+0286,1","+0071,1","10116,1","99,0000,9,1",,,,"01,1,+00300,9,08,9",,,,"02,99,1,01,1,01,1,00450,1,00,1,05,1",,"01,9",,,,"99999,9,08203,1","7,1,041,1,-006,1",,,"SYN106AAXX  21211 76373 32488 22301 10286 20071 38203 40116 57041 81105 92038 333 30/// 56606 59006 81810 81070;","Q01  00002PRCP99"
"76373099999","2001-03-22T00:00:00","4","25.35","-105.75","1967.0","TEPEHUANES DGO., MX","FM-12","99999","V020","270,1,N,0040,1","22000,1,9,N","070000,1,N,1","+0272,1","+0053,1","10079,1","24,0000,9,1",,,,"01,1,+00300,9,08,9",,,,"03,99,1,01,1,01,1,00450,1,00,1,05,1",,"01,9",,"120,M,+0306,1","180,N,+0033,1","99999,9,08199,1","5,1,004,1,+006,1",,,"SYN130AAXX  22001 76373 32488 32704 10272 20053 38199 40079 55004 81105 92337 333 10306 20033 30/// 50630 56606 58006 70000 81810 82070;","Q01  00002PRCP99Q02  00003PRCP99"
"76373099999","2001-03-22T03:00:00","4","25.35","-105.75","1967.0","TEPEHUANES DGO., MX","FM-12","99999","V020","240,1,N,0010,1","22000,1,9,N","000200,1,N,1","+0188,1","+0061,1","10081,1","99,0000,9,1",,,,"04,1,+06000,9,01,9",,,,"04,99,1,00,1,00,1,99999,9,00,1,04,1",,"01,9",,,,"99999,9,08226,1","2,1,027,1,+009,1",,,"SYN100AAXX  22031 76373 32902 42401 10188 20061 38226 40081 52027 80004 90238 333 30/// 56006 58009 84070;","Q01  00002PRCP99"
"76373099999","2001-03-22T12:00:00","4","25.35","-105.75","1967.0","TEPEHUANES DGO., MX","FM-12","99999","V020","999,9,C,0000,1","22000,1,9,N","000200,1,N,1","+0052,1","-0017,1","10214,1","24,0000,9,1",,,,"00,1,+99999,9,99,9",,,,"00,99,1,00,1,00,1,99999,9,00,1,00,1",,"01,9","999,+0010,9","999,M,+0306,1","120,N,+0040,1","99999,9,08238,1","5,1,001,1,-004,1",,,"SYN100AAXX  22121 76373 32902 00000 10052 21017 38238 40214 55001 91140 333 10306 20040 30001 59004 70000;","Q01  00002PRCP24"
"76373099999","2001-03-22T15:00:00","4","25.35","-105.75","1967.0","TEPEHUANES DGO., MX","FM-12","99999","V020","330,1,N,0010,1","22000,1,9,N","060000,1,N,1","+0084,1","-0020,1","10209,1","99,0000,9,1",,,,"00,1,+99999,9,99,9",,,,"00,99,1,00,1,00,1,99999,9,00,1,00,1",,"01,9",,,,"99999,9,08247,1","1,1,009,1,-008,1",,,"SYN082AAXX  22151 76373 32986 03301 10084 21020 38247 40209 51009 91440 333 30/// 59008;","Q01  00002PRCP99"
"76373099999","2001-03-22T21:00:00","4","25.35","-105.75","1967.0","TEPEHUANES DGO., MX","FM-12","99999","V020","270,1,N,0030,1","22000,1,9,N","070000,1,N,1","+0260,2","+0070,1","10132,1","99,0000,9,1",,,,"00,1,+99999,9,99,9",,,,"00,99,1,00,1,00,1,99999,9,00,1,00,1",,"01,9",,,,"99999,9,08212,1","7,1,021,1,+009,1",,,"SYN082AAXX  22211 76373 32988 02703 10260 20070 38212 40132 57021 92046 333 30/// 58009;","Q01+002603ATOT  Q02  00002PRCP99"
"76373099999","2001-03-23T15:00:00","4","25.35","-105.75","1967.0","TEPEHUANES DGO., MX","FM-12","99999","V020","320,1,N,0020,1","22000,1,9,N","060000,1,N,1","+0090,1","-0015,1","10179,1","99,0000,9,1",,,,"00,1,+99999,9,99,9",,,,"00,99,1,00,1,00,1,99999,9,00,1,00,1",,"01,9",,,,"99999,9,08225,1","9,9,999,9,-022,1",,,"SYN082AAXX  23151 76373 32986 03202 10090 21015 38225 40179 5//// 91440 333 30/// 59022;","Q01  00002PRCP99"
"76373099999","2001-03-23T18:00:00","4","25.35","-105.75","1967.0","TEPEHUANES DGO., MX","FM-12","99999","V020","100,1,N,0020,1","22000,1,9,N","070000,1,N,1","+0220,1","+0042,1","10148,1","99,0000,9,1",,,,"00,1,+99999,9,99,9",,,,"00,99,1,00,1,00,1,99999,9,00,1,00,1",,"01,9",,"120,M,+0292,1","240,N,+0026,1","99999,9,08208,1","6,1,017,1,-025,1",,,"SYN094AAXX  23181 76373 32988 01002 10220 20042 38208 40148 56017 91740 333 10292 20026 30/// 59025;","Q01  00002PRCP99"
"76373099999","2001-03-23T21:00:00","4","25.35","-105.75","1967.0","TEPEHUANES DGO., MX","FM-12","99999","V020","120,1,N,0030,1","22000,1,9,N","070000,1,N,1","+0272,1","+0100,1","10076,2","99,0000,9,1",,,,"01,1,+00360,9,02,9",,,,"01,99,1,01,1,01,1,00450,1,00,1,00,1",,"01,9",,,,"99999,9,08172,1","6,1,036,1,-040,1",,,"SYN100AAXX  23211 76373 32488 11203 10272 20100 38172 40076 56036 81100 92040 333 30/// 56600 59040 81812;","Q01+100763APOSLPQ02  00002PRCP99"
"76373099999","2001-03-26T15:00:00","4","25.35","-105.75","1967.0","TEPEHUANES DGO., MX","FM-12","99999","V020","999,9,C,0000,1","22000,1,9,N","060000,1,N,1","+0094,1","+0023,1","10183,1","99,0000,9,1",,,,"00,1,+99999,9,99,9",,,,"00,99,1,00,1,00,1,99999,9,00,1,00,1",,"01,9",,,,"99999,9,08221,1",,,,"SYN082AAXX  26151 76373 32986 00000 10094 20023 38221 40183 5//// 91440 333 30/// 58///;","Q01  00002PRCP99"
"76373099999","2001-03-26T18:00:00","4","25.35","-105.75","1967.0","TEPEHUANES DGO., MX","FM-12","99999","V020","120,1,N,0020,1","22000,1,9,N","070000,1,N,1","+0218,1","+0119,1","10160,1","99,0000,9,1",,,,"00,1,+99999,9,99,9",,,,"00,99,1,00,1,00,1,99999,9,00,1,00,1",,"01,9",,"120,M,+0247,1","240,N,+0032,1","99999,9,08213,1","7,1,008,1,+999,9",,,"SYN094AAXX  26181 76373 32988 01202 10218 20119 38213 40160 57008 91740 333 10247 20032 30/// 58///;","Q01  00002PRCP99"
"76373099999","2001-03-26T21:00:00","4","25.35","-105.75","1967.0","TEPEHUANES DGO., MX","FM-12","99999","V020","090,1,N,0020,1","22000,1,9,N","070000,1,N,1","+0258,1","+0084,1","10088,1","99,0000,9,1",,,,"02,1,+00360,9,02,9",,,,"02,99,1,02,1,01,1,00450,1,00,1,00,1",,"01,9",,,,"99999,9,08178,1","6,1,035,1,+999,9",,,"SYN100AAXX  26211 76373 32488 20902 10258 20084 38178 40088 56035 82100 92040 333 30/// 56600 58/// 82812;","Q01  00002PRCP99"
"76373099999","2001-03-27T00:00:00","4","25.35","-105.75","1967.0","TEPEHUANES DGO., MX","FM-12","99999","V020","280,1,N,0040,1","22000,1,9,N","070000,1,N,1","+0263,1","+0058,1","10086,1","24,0000,9,1",,,,,,,,"01,99,1,01,1,01,1,00450,1,00,1,00,1",,"01,9",,"120,M,+0298,1","180,N,+0032,1","99999,9,08166,1","5,1,012,1,+999,9",,,"SYN124AAXX  27001 76373 32488 12804 10263 20058 38166 40086 55012 81100 92345 333 10298 20032 30/// 50570 56600 58/// 70000 81810;","Q01  00002PRCP99Q02  00003PRCP99"
"76373099999","2001-03-27T15:00:00","4","25.35","-105.75","1967.0","TEPEHUANES DGO., MX","FM-12","99999","V020","320,1,N,0010,1","22000,1,9,N","060000,1,N,1","+0079,1","+0007,1","10160,1","99,0000,9,1",,,,"04,1,+06000,9,01,9",,,,"04,99,1,00,1,00,1,99999,9,00,1,04,1",,"01,9",,,,"99999,9,08211,1","2,1,011,1,-010,1",,,"SYN100AAXX  27151 76373 32986 43201 10079 20007 38211 40160 52011 80004 91440 333 30/// 56006 59010 84070;","Q01  00002PRCP99"
"76373099999","2001-03-27T21:00:00","4","25.35","-105.75","1967.0","TEPEHUANES DGO., MX","FM-12","99999","V020","300,1,N,0070,1","22000,1,9,N","070000,1,N,1","+0255,2","+0070,1","10083,1","99,0000,9,1",,,,"01,1,+00300,9,02,9",,,,"01,99,1,01,1,01,1,00450,1,00,1,00,1",,"01,9",,,,"99999,9,08169,1","7,1,023,1,-009,1",,,"SYN100AAXX  27211 76373 32488 13007 10255 20070 38169 40083 57023 81100 92035 333 30/// 56600 59009 81810;","Q01  00002PRCP99"
"76373099999","2001-03-28T00:00:00","4","25.35","-105.75","1967.0","TEPEHUANES DGO., MX","FM-12","99999","V020","280,1,N,0050,1","22000,1,9,N","070000,1,N,1","+0233,1","+0065,1","10102,1","24,0000,9,1",,,,,,,,"01,99,1,00,1,00,1,99999,9,00,1,05,1",,"01,9",,"120,M,+0269,1","180,N,+0022,1","99999,9,08170,1","3,1,001,1,+004,1",,,"SYN124AAXX  28001 76373 32988 12805 10233 20065 38170 40102 53001 80005 92340 333 10269 20022 30/// 50920 56006 58004 70000 81070;","Q01  00002PRCP99Q02  00003PRCP99"
"76373099999","2001-03-28T03:00:00","4","25.35","-105.75","1967.0","TEPEHUANES DGO., MX","FM-12","99999","V020","260,1,N,0020,1","22000,1,9,N","000200,1,N,1","+0152,1","+0029,1","10060,1","99,0000,9,1",,,,"00,1,+99999,9,99,9",,,,"00,99,1,00,1,00,1,99999,9,00,1,00,1",,"01,9",,,,"99999,9,08193,1","2,1,023,1,+000,1",,,"SYN082AAXX  28031 76373 32902 02602 10152 20029 38193 40060 52023 90255 333 30/// 58000;","Q01  00002PRCP99"
"76373099999","2001-03-28T12:00:00","4","25.35","-105.75","1967.0","TEPEHUANES DGO., MX","FM-12","99999","V020","999,9,C,0000,1","22000,1,9,N","000200,1,N,1","+0028,1","-0027,1","10132,1","24,0000,9,1",,,,"00,1,+99999,9,99,9",,,,"00,99,1,00,1,00,1,99999,9,00,1,00,1",,"01,9","999,-0010,9","999,M,+0279,1","120,N,+0014,1","99999,9,08187,1","2,1,006,1,-013,1",,,"SYN100AAXX  28121 76373 32902 00000 10028 21027 38187 40132 52006 91140 333 10279 20014 30101 59013 70000;","Q01  00002PRCP24"
"76373099999","2001-03-28T15:00:00","4","25.35","-105.75","1967.0","TEPEHUANES DGO., MX","FM-12","99999","V020","999,9,C,0000,1","22000,1,9,N","060000,1,N,1","+0079,1","-0004,1","10165,1","99,0000,9,1",,,,"00,1,+99999,9,99,9",,,,"00,99,1,00,1,00,1,99999,9,00,1,00,1",,"01,9",,,,"99999,9,08195,1","0,1,008,1,-016,1",,,"SYN082AAXX  28151 76373 32986 00000 10079 21004 38195 40165 50008 91445 333 30/// 59016;","Q01  00002PRCP99"
"76373099999","2001-03-28T18:00:00","4","25.35","-105.75","1967.0","TEPEHUANES DGO., MX","FM-12","99999","V020","290,1,N,0070,1","22000,1,9,N","070000,1,N,1","+0190,1","+0026,1","10137,1","99,0000,9,1",,,,"01,1,+00300,9,02,9",,,,"01,99,1,01,1,01,1,00450,1,00,1,00,1",,"01,9",,"120,M,+0269,1","240,N,+0002,1","99999,9,08180,1","6,1,015,1,-012,1",,,"SYN112AAXX  28181 76373 32488 12907 10190 20026 38180 40137 56015 81100 91745 333 10269 20002 30/// 56600 59012 81810;","Q01  00002PRCP99"
"76373099999","2001-03-28T21:00:00","4","25.35","-105.75","1967.0","TEPEHUANES DGO., MX","FM-12","99999","V020","260,1,N,0060,1","22000,1,9,N","070000,1,N,1","+0222,1","+0059,1","99999,9","99,0000,9,1",,,,"00,1,+99999,9,99,9",,,,"00,99,1,00,1,00,1,99999,9,00,1,00,1",,"01,9",,,,,,,,"SYN081AAXX  28211 76373 32988 02606 10222 20059 3815 40074 56030 92040 333 30/// 59019;","Q01  00002PRCP99"
"76373099999","2001-03-29T00:00:00","4","25.35","-105.75","1967.0","TEPEHUANES DGO., MX","FM-12","99999","V020","280,1,N,0050,1","22000,1,9,N","070000,1,N,1","+0209,1","+0087,1","10051,1","24,0000,9,1",,,,,,,,"01,99,1,00,1,00,1,99999,9,00,1,05,1",,"01,9",,"120,M,+0242,1","180,N,+0002,1","99999,9,08147,1","5,1,003,1,-023,1",,,"SYN124AAXX  29001 76373 32988 12805 10209 20087 38147 40051 55003 80005 92353 333 10242 20002 30/// 50930 56006 59023 70000 81070;","Q01  00002PRCP99Q02  00003PRCP99"
"76373099999","2001-03-29T03:00:00","4","25.35","-105.75","1967.0","TEPEHUANES DGO., MX","FM-12","99999","V020","250,1,N,0020,1","22000,1,9,N","000200,1,N,1","+0146,1","+0042,1","10037,1","99,0000,9,1",,,,"00,1,+99999,9,99,9",,,,"00,99,1,00,1,00,1,99999,9,00,1,00,1",,"01,9",,,,"99999,9,08163,1","2,1,016,1,-030,1",,,"SYN082AAXX  29031 76373 32902 02502 10146 20042 38163 40037 52016 90245 333 30/// 59030;","Q01  00002PRCP99"
"76373099999","2001-03-29T15:00:00","4","25.35","-105.75","1967.0","TEPEHUANES DGO., MX","FM-12","99999","V020","310,1,N,0020,1","22000,1,9,N","060000,1,N,1","+0080,1","+0000,1","10155,1","99,0000,9,1",,,,"00,1,+99999,9,99,9",,,,"00,99,1,00,1,00,1,99999,9,00,1,00,1",,"01,9",,,,"99999,9,08188,1","9,9,999,9,-007,1",,,"SYN082AAXX  29151 76373 32986 03102 10080 20000 38188 40155 5//// 91435 333 30/// 59007;","Q01  00002PRCP99"
"76373099999","2001-03-29T18:00:00","4","25.35","-105.75","1967.0","TEPEHUANES DGO., MX","FM-12","99999","V020","110,1,N,0020,1","22000,1,9,N","070000,1,N,1","+0180,1","+0039,1","10134,1","99,0000,9,1",,,,"00,1,+99999,9,99,9",,,,"00,99,1,00,1,00,1,99999,9,00,1,00,1",,"01,9",,"120,M,+0242,1","240,N,+0020,1","99999,9,08179,1","6,1,009,1,-001,1",,,"SYN094AAXX  29181 76373 32988 01102 10180 20039 38179 40134 56009 91736 333 10242 20020 30/// 59001;","Q01  00002PRCP99"
"76373099999","2001-03-29T21:00:00","4","25.35","-105.75","1967.0","TEPEHUANES DGO., MX","FM-12","99999","V020","310,1,N,0070,1","22000,1,9,N","070000,1,N,1","+0270,1","+0084,1","10058,2","99,0000,9,1",,,,"00,1,+99999,9,99,9",,,,"00,99,1,00,1,00,1,99999,9,00,1,00,1",,"01,9",,,,"99999,9,08140,1","6,1,039,1,-010,1",,,"SYN082AAXX  29211 76373 32988 03107 10270 20084 38140 40058 56039 92037 333 30/// 59010;","Q01+100583APOSLPQ02  00002PRCP99"
"76373099999","2001-03-30T15:00:00","4","25.35","-105.75","1967.0","TEPEHUANES DGO., MX","FM-12","99999","V020","060,1,N,0010,1","22000,1,9,N","060000,1,N,1","+0092,1","+0030,1","10146,1","99,0000,9,1",,,,"04,1,+06000,9,01,9",,,,"04,99,1,00,1,00,1,99999,9,00,1,04,1",,"01,9",,,,"99999,9,08187,1","9,9,999,9,-001,1",,,"SYN100AAXX  30151 76373 32986 40601 10092 20030 38187 40146 5//// 80004 91440 333 30/// 56006 59001 84070;","Q01  00002PRCP99"
"76373099999","2001-03-30T21:00:00","4","25.35","-105.75","1967.0","TEPEHUANES DGO., MX","FM-12","99999","V020","280,1,N,0070,1","22000,1,9,N","070000,1,N,1","+0254,1","+0123,1","10062,2","99,0000,9,1",,,,"00,1,+99999,9,99,9",,,,"00,99,1,00,1,00,1,99999,9,00,1,00,1",,"01,9",,,,"99999,9,08156,1","6,1,021,1,+016,1",,,"SYN082AAXX  30211 76373 32988 02807 10254 20123 38156 40062 56021 92045 333 30/// 58016;","Q01+100623APOSLPQ02  00002PRCP99"
"76373099999","2001-04-02T15:00:00","4","25.35","-105.75","1967.0","TEPEHUANES DGO., MX","FM-12","99999","V020","320,1,N,0020,1","22000,1,9,N","060000,1,N,1","+0112,1","-0011,1","10139,1","99,0000,9,1",,,,"00,1,+99999,9,99,9",,,,"00,99,1,00,1,00,1,99999,9,00,1,00,1",,"01,9",,,,"99999,9,08194,1",,,,"SYN082AAXX  02151 76373 32986 03202 10112 21011 38194 40139 5//// 91450 333 30/// 58///;","Q01  00002PRCP99"
"76373099999","2001-04-02T21:00:00","4","25.35","-105.75","1967.0","TEPEHUANES DGO., MX","FM-12","99999","V020","240,1,N,0060,1","06000,1,9,N","070000,1,N,1","+0304,2","+0106,1","10042,1","99,0000,9,1",,,,"08,1,+06000,9,02,9",,,,"08,99,1,00,1,00,1,99999,9,00,1,07,1",,"01,9",,,,"99999,9,08156,1","6,1,021,1,+999,9",,,"SYN106AAXX  02211 76373 32988 82406 10304 20106 38156 40042 56021 80007 92042 333 30/// 56006 58/// 88270 99020;","Q01  00002PRCP99"
"76373099999","2001-04-03T00:00:00","4","25.35","-105.75","1967.0","TEPEHUANES DGO., MX","FM-12","99999","V020","250,1,N,0050,1","99999,9,9,N","070000,1,N,1","+0277,1","+0055,1","10012,1","24,0000,9,1",,,,"01,1,+02400,9,03,9",,,,"06,99,1,01,1,00,1,99999,9,04,1,07,1",,"01,9",,"120,M,+0328,1","180,N,+0032,1","99999,9,08171,1","3,1,005,1,+999,9",,,"SYN130AAXX  03001 76373 32988 62505 10277 20055 38171 40012 53005 81047 92345 333 10328 20032 30/// 50570 56066 58/// 70000 81358 85270;","Q01  00002PRCP99Q02  00003PRCP99"
"76373099999","2001-04-03T03:00:00","4","25.35","-105.75","1967.0","TEPEHUANES DGO., MX","FM-12","99999","V020","240,1,N,0030,1","22000,1,9,N","000200,1,N,1","+0188,1","+0051,1","10028,1","99,0000,9,1",,,,,,,,"02,99,1,99,9,99,9,99999,9,99,9,99,9",,"01,9",,,,"99999,9,08189,1","2,1,028,1,+999,9",,,"SYN094AAXX  03031 76373 32/02 22403 10188 20051 38189 40028 52028 8//// 90255 333 30/// 56/// 58///;","Q01  00002PRCP99"
"76373099999","2001-04-03T12:00:00","4","25.35","-105.75","1967.0","TEPEHUANES DGO., MX","FM-12","99999","V020","350,1,N,0010,1","22000,1,9,N","000200,1,N,1","+0060,1","-0016,1","10125,1","24,0000,9,1",,,,"00,1,+99999,9,99,9",,,,"00,99,1,00,1,00,1,99999,9,00,1,00,1",,"01,9","999,+0010,9","999,M,+0328,1","120,N,+0048,1","99999,9,08202,1","2,1,006,1,+999,9",,,"SYN100AAXX  03121 76373 32902 03501 10060 21016 38202 40125 52006 91137 333 10328 20048 30001 58/// 70000;","Q01  00002PRCP24"
"76373099999","2001-04-03T15:00:00","4","25.35","-105.75","1967.0","TEPEHUANES DGO., MX","FM-12","99999","V020","999,9,C,0000,1","22000,1,9,N","060000,1,N,1","+0103,1","+0004,1","10167,1","99,0000,9,1",,,,"01,1,+02400,9,07,9",,,,"01,99,1,01,1,99,9,02250,1,03,1,00,1",,"01,9",,,,"99999,9,08216,1","2,1,014,1,+022,1",,,"SYN100AAXX  03151 76373 32886 10000 10103 20004 38216 40167 52014 81030 91437 333 30/// 56060 58022 81358;","Q01  00002PRCP99Q02    003SCOLCG"
"76373099999","2001-04-04T15:00:00","4","25.35","-105.75","1967.0","TEPEHUANES DGO., MX","FM-12","99999","V020","310,1,N,0010,1","06000,1,9,N","060000,1,N,1","+0088,1","-0026,1","10198,1","99,0000,9,1",,,,"07,1,+06000,9,08,9",,,,"07,99,1,99,9,00,1,99999,9,00,1,07,1",,"01,9",,,,"99999,9,08235,1","2,1,009,1,+023,1",,,"SYN100AAXX  04151 76373 32986 73101 10088 21026 38235 40198 52009 80007 91438 333 30/// 56006 58023 87270;","Q01+000002SCOTLCQ02  00002PRCP99"
"76373099999","2001-04-04T21:00:00","4","25.35","-105.75","1967.0","TEPEHUANES DGO., MX","FM-12","99999","V020","280,1,N,0040,1","22000,1,9,N","070000,1,N,1","+0325,2","+0121,1","10095,1","99,0000,9,1",,,,"02,1,+06000,9,08,9",,,,"02,99,1,99,9,00,1,99999,9,00,1,08,1",,"01,9",,,,,"7,1,027,1,-002,1",,,"SYN100AAXX  04211 76373 32988 22804 10325 20121 38991 40095 57027 80008 92045 333 30/// 56006 59002 82270;","Q01+000002SCOTLCQ02+089913APOSP Q03  00002PRCP99"
"76373099999","2001-04-05T00:00:00","4","25.35","-105.75","1967.0","TEPEHUANES DGO., MX","FM-12","99999","V020","280,1,N,0050,1","22000,1,9,N","070000,1,N,1","+0308,1","+0127,1","10039,1","24,0000,9,1",,,,,,,,"02,99,1,00,1,00,1,99999,9,00,1,04,1",,"01,9",,"120,M,+0339,1","180,N,+0034,1","99999,9,08183,1","6,1,008,1,-008,1",,,"SYN124AAXX  05001 76373 32988 22805 10308 20127 38183 40039 56008 80004 92338 333 10339 20034 30/// 50990 56006 59008 70000 82070;","Q01  00002PRCP99Q02  00003PRCP99"
"76373099999","2001-04-05T03:00:00","4","25.35","-105.75","1967.0","TEPEHUANES DGO., MX","FM-12","99999","V020","270,1,N,0030,1","06000,1,9,N","000200,1,N,1","+0220,1","+0061,1","10032,1","99,0000,9,1",,,,"06,1,+06000,9,08,9",,,,"06,99,1,99,9,00,1,99999,9,00,1,07,1",,"01,9",,,,"99999,9,08203,1","2,1,020,1,-008,1",,,"SYN100AAXX  05031 76373 32902 62703 10220 20061 38203 40032 52020 80007 90237 333 30/// 56006 59008 86270;","Q01+000002SCOTLCQ02  00002PRCP99"
"76373099999","2001-04-05T15:00:00","4","25.35","-105.75","1967.0","TEPEHUANES DGO., MX","FM-12","99999","V020","320,1,N,0020,1","06000,1,9,N","060000,1,N,1","+0116,1","-0017,1","10172,1","99,0000,9,1",,,,"08,1,+06000,9,08,9",,,,"08,99,1,99,9,00,1,99999,9,00,1,08,1",,"01,9",,,,"99999,9,08233,1","1,1,014,1,-002,1",,,"SYN100AAXX  05151 76373 32986 83202 10116 21017 38233 40172 51014 80008 91440 333 30/// 56006 59002 88270;","Q01+000002SCOTLCQ02  00002PRCP99"
"76373099999","2001-04-05T21:00:00","4","25.35","-105.75","1967.0","TEPEHUANES DGO., MX","FM-12","99999","V020","120,1,N,0020,1","06000,1,9,N","070000,1,N,1","+0304,2","+0172,2","10083,2","99,0000,9,1",,,,"02,1,+03000,9,03,9","08,1,+06000,9,02,9",,,"08,99,1,02,1,00,1,01750,1,04,1,07,1",,"01,9",,,,"99999,9,08185,1","6,1,037,1,-006,1",,,"SYN112AAXX  05211 76373 32788 81202 10304 20172 38185 40083 56037 82047 92048 333 30/// 56066 59006 82360 88270 99020;","Q01+003043ATOT  Q02+001723ATOD  Q03+100833APOSLPQ04  00002PRCP99"
"76373099999","2001-04-06T15:00:00","4","25.35","-105.75","1967.0","TEPEHUANES DGO., MX","FM-12","99999","V020","340,1,N,0010,1","22000,1,9,N","060000,1,N,1","+0152,1","+0088,1","10118,1","99,0000,9,1",,,,"02,1,+06000,9,01,9",,,,"02,99,1,00,1,00,1,99999,9,00,1,05,1",,"01,9",,,,"99999,9,08213,1","9,9,999,9,-020,1",,,"SYN100AAXX  06151 76373 32986 23401 10152 20088 38213 40118 5//// 80005 91440 333 30/// 56006 59020 82070;","Q01  00002PRCP99"
"76373099999","2001-04-06T18:00:00","4","25.35","-105.75","1967.0","TEPEHUANES DGO., MX","FM-12","99999","V020","270,1,N,0080,1","22000,1,9,N","070000,1,N,1","+0250,1","+0147,1","10111,1","99,0000,9,1",,,,"04,1,+06000,9,01,9",,,,"04,99,1,00,1,00,1,99999,9,00,1,04,1",,"01,9",,"120,M,+0332,1","240,N,+0094,1","99999,9,08209,1","8,1,004,1,-013,1",,,"SYN112AAXX  06181 76373 32988 42708 10250 20147 38209 40111 58004 80004 91740 333 10332 20094 30/// 56006 59013 84070;","Q01  00002PRCP99"
"76373099999","2001-04-06T21:00:00","4","25.35","-105.75","1967.0","TEPEHUANES DGO., MX","FM-12","99999","V020","280,1,N,0070,1","06000,1,9,N","070000,1,N,1","+0282,1","+0145,1","10067,1","99,0000,9,1",,,,"05,1,+06000,9,01,9",,,,"05,99,1,00,1,00,1,99999,9,00,1,05,1",,"01,9",,,,"99999,9,08188,1","6,1,021,1,+003,1",,,"SYN100AAXX  06211 76373 32988 52807 10282 20145 38188 40067 56021 80005 92040 333 30/// 56006 58003 85070;","Q01  00002PRCP99"
"76373099999","2001-04-09T15:00:00","4","25.35","-105.75","1967.0","TEPEHUANES DGO., MX","FM-12","99999","V020","320,1,N,0010,1","22000,1,9,N","060000,1,N,1","+0134,1","+0020,1","10169,1","99,0000,9,1",,,,"01,1,+06000,9,01,9",,,,"01,99,1,00,1,00,1,99999,9,00,1,05,1",,"01,9",,,,"99999,9,08221,1",,,,"SYN100AAXX  09151 76373 32986 13201 10134 20020 38221 40169 5//// 80005 91440 333 30/// 56006 58/// 81070;","Q01  00002PRCP99"
"76373099999","2001-04-10T00:00:00","4","25.35","-105.75","1967.0","TEPEHUANES DGO., MX","FM-12","99999","V020","270,1,N,0050,1","22000,1,9,N","070000,1,N,1","+0281,1","+0074,1","10032,1","24,0000,9,1",,,,,,,,"03,99,1,00,1,00,1,99999,9,00,1,09,1",,"01,9",,"120,M,+0316,1","180,N,+0058,1","99999,9,08179,1","5,1,001,1,+999,9",,,"SYN124AAXX  10001 76373 32988 32705 10281 20074 38179 40032 55001 80009 92350 333 10316 20058 30/// 50690 56006 58/// 70000 83170;","Q01  00002PRCP99Q02  00003PRCP99"
"76373099999","2001-04-10T06:00:00","4","25.35","-105.75","1967.0","TEPEHUANES DGO., MX","FM-12","99999","V020","270,1,N,0020,1","22000,1,9,N","000200,1,N,1","+0176,1","+0070,1","10051,1","99,0000,9,1",,,,,,,,"02,99,1,00,1,00,1,99999,9,00,1,08,1","0684,9","01,9",,"240,M,+0316,1","240,N,+0058,1","99999,9,08203,1","0,1,009,1,+999,9",,,"SYN118AAXX  10060 76373 32902 22702 10176 20070 38203 40051 50009 80008 90537 333 10316 20058 30/// 55114 56006 58/// 82170;","Q01  00002PRCP99"
"76373099999","2001-04-10T15:00:00","4","25.35","-105.75","1967.0","TEPEHUANES DGO., MX","FM-12","99999","V020","999,9,C,0000,1","22000,1,9,N","060000,1,N,1","+0128,1","+0032,1","10116,1","99,0000,9,1",,,,"01,1,+06000,9,01,9",,,,"01,99,1,00,1,00,1,99999,9,00,1,05,1",,"01,9",,,,"99999,9,08186,1","2,1,005,1,-035,1",,,"SYN100AAXX  10151 76373 32986 10000 10128 20032 38186 40116 52005 80005 91436 333 30/// 56006 59035 81070;","Q01  00002PRCP99"
"76373099999","2001-04-10T18:00:00","4","25.35","-105.75","1967.0","TEPEHUANES DGO., MX","FM-12","99999","V020","210,1,N,0070,1","22000,1,9,N","070000,1,N,1","+0250,2","+0086,1","10102,1","99,0000,9,1",,,,"02,1,+06000,9,01,9",,,,"02,99,1,00,1,00,1,99999,9,00,1,05,1",,"01,9",,"120,M,+0316,1","240,N,+0059,1","99999,9,08181,1","6,1,005,1,-025,1",,,"SYN112AAXX  10181 76373 32988 22107 10250 20086 38181 40102 56005 80005 91750 333 10316 20059 30/// 56006 59025 82070;","Q01  00002PRCP99"
"76373099999","2001-04-11T00:00:00","4","25.35","-105.75","1967.0","TEPEHUANES DGO., MX","FM-12","99999","V020","230,1,N,0050,1","99999,9,9,N","070000,1,N,1","+0240,1","+0094,1","10025,1","24,0000,9,1",,,,,,,,"07,99,1,00,1,00,1,99999,9,00,1,03,1",,"01,9",,"120,M,+0292,1","180,N,+0059,1","99999,9,08165,1","3,1,001,1,-014,1",,,"SYN124AAXX  11001 76373 32988 72305 10240 20094 38165 40025 53001 80003 92340 333 10292 20059 30/// 51000 56006 59014 70000 87070;","Q01  00002PRCP99Q02  00003PRCP99"
"76373099999","2001-04-11T03:00:00","4","25.35","-105.75","1967.0","TEPEHUANES DGO., MX","FM-12","99999","V020","310,1,N,0030,1","22000,1,9,N","000200,1,N,1","+0183,1","+0003,1","10021,1","99,0000,9,1",,,,"00,1,+99999,9,99,9",,,,"00,99,1,00,1,00,1,99999,9,00,1,00,1",,"01,9",,,,"99999,9,08175,1","2,1,010,1,-019,1",,,"SYN082AAXX  11030 76373 32902 03103 10183 20003 38175 40021 52010 90255 333 30/// 59019;","Q01  00002PRCP99"
"76373099999","2001-04-11T06:00:00","4","25.35","-105.75","1967.0","TEPEHUANES DGO., MX","FM-12","99999","V020","240,1,N,0030,1","22000,1,9,N","000200,1,N,1","+0158,1","+0040,1","10037,1","99,0000,9,1",,,,,,,,"02,99,1,00,1,00,1,99999,9,00,1,03,1","0696,9","01,9",,"240,M,+0292,1","240,N,+0059,1","99999,9,08181,1","2,1,006,1,-022,1",,,"SYN118AAXX  11061 76373 32902 22403 10158 20040 38181 40037 52006 80003 92350 333 10292 20059 30/// 55116 56006 59022 82070;","Q01  00002PRCP99"
"76373099999","2001-04-11T15:00:00","4","25.35","-105.75","1967.0","TEPEHUANES DGO., MX","FM-12","99999","V020","999,9,C,0000,1","06000,1,9,N","060000,1,N,1","+0120,1","+0000,1","10100,1","99,0000,9,1",,,,"05,1,+06000,9,08,9",,,,"05,99,1,99,9,00,1,99999,9,00,1,07,1",,"01,9",,,,"99999,9,08183,1","2,1,014,1,-003,1",,,"SYN100AAXX  11151 76373 32986 50000 10120 20000 38183 40100 52014 80007 91445 333 30/// 56006 59003 85270;","Q01+000002SCOTLCQ02  00002PRCP99"
"76373099999","2001-04-11T18:00:00","4","25.35","-105.75","1967.0","TEPEHUANES DGO., MX","FM-12","99999","V020","280,1,N,0070,1","22000,1,9,N","070000,1,N,1","+0242,1","+0035,1","10083,1","99,0000,9,1",,,,"07,1,+06000,9,08,9",,,,"99,99,9,99,9,00,1,99999,9,00,1,08,1",,"01,9",,"120,M,+0290,1","240,N,+0073,1","99999,9,08174,1","6,1,005,1,-007,1",,,"SYN112AAXX  11181 76373 32988 12807 10242 20035 38174 40083 56005 80008 91740 333 10290 20073 30/// 56006 59007 87270;","Q01+000012SCOTCVQ02+000002SCOTLCQ03  00002PRCP99"
"76373099999","2001-04-11T21:00:00","4","25.35","-105.75","1967.0","TEPEHUANES DGO., MX","FM-12","99999","V020","270,1,N,0050,1","06000,1,9,N","070000,1,N,1","+0264,1","+0085,1","10051,1","99,0000,9,1",,,,"07,1,+06000,9,08,9",,,,"07,99,1,99,9,00,1,99999,9,00,1,07,1",,"01,9",,,,"99999,9,08164,1","1,1,010,1,+000,1",,,"SYN100AAXX  11211 76373 32988 72705 10264 20085 38164 40051 51010 80007 92037 333 30/// 56006 58000 87270;","Q01+000002SCOTLCQ02  00002PRCP99"
"76373099999","2001-04-12T15:00:00","4","25.35","-105.75","1967.0","TEPEHUANES DGO., MX","FM-12","99999","V020","270,1,N,0010,1","06000,1,9,N","060000,1,N,1","+0114,1","-0014,1","10134,1","99,0000,9,1",,,,"07,1,+06000,9,08,9",,,,"99,99,9,99,9,00,1,99999,9,00,1,08,1",,"01,9",,,,"99999,9,08208,1","9,9,999,9,+025,1",,,"SYN100AAXX  12151 76373 32986 62701 10114 21014 38208 40134 5//// 80008 91440 333 30/// 56006 58025 87270;","Q01+000062SCOTCVQ02+000002SCOTLCQ03  00002PRCP99"
"76373099999","2001-04-12T18:00:00","4","25.35","-105.75","1967.0","TEPEHUANES DGO., MX","FM-12","99999","V020","060,1,N,0010,1","06000,1,9,N","070000,1,N,1","+0232,1","+0078,1","10111,1","99,0000,9,1",,,,"05,1,+06000,9,01,9",,,,"05,99,1,00,1,00,1,99999,9,00,1,05,1",,"01,9",,"120,M,+0280,1","240,N,+0048,1","99999,9,08198,1","6,1,010,1,+024,1",,,"SYN112AAXX  12181 76373 32988 50601 10232 20078 38198 40111 56010 80005 91740 333 10280 20048 30/// 56006 58024 85070;","Q01  00002PRCP99"
"76373099999","2001-04-12T21:00:00","4","25.35","-105.75","1967.0","TEPEHUANES DGO., MX","FM-12","99999","V020","200,1,N,0060,1","06000,1,9,N","070000,1,N,1","+0286,1","+0113,1","10074,1","99,0000,9,1",,,,"07,1,+06000,9,08,9",,,,"07,99,1,99,9,00,1,99999,9,00,1,08,1",,"01,9",,,,"99999,9,08185,1","7,1,013,1,+021,1",,,"SYN100AAXX  12211 76373 32988 72006 10286 20113 38185 40074 57013 80008 92040 333 30/// 56006 58021 87270;","Q01+000002SCOTLCQ02  00002PRCP99"
"76373099999","2001-04-13T15:00:00","4","25.35","-105.75","1967.0","TEPEHUANES DGO., MX","FM-12","99999","V020","270,1,N,0020,1","06000,1,9,N","060000,1,N,1","+0130,1","-0012,1","10155,1","99,0000,9,1",,,,"08,1,+06000,9,02,9",,,,"08,99,1,00,1,00,1,99999,9,00,1,07,1",,"01,9",,,,"99999,9,08222,1","9,9,999,9,+014,1",,,"SYN106AAXX  13151 76373 32986 82702 10130 21012 38222 40155 5//// 80007 91435 333 30/// 56006 58014 88270 99020;","Q01  00002PRCP99"
"76373099999","2001-04-13T21:00:00","4","25.35","-105.75","1967.0","TEPEHUANES DGO., MX","FM-12","99999","V020","270,1,N,0070,1","06000,1,9,N","070000,1,N,1","+0310,2","+0179,2","10074,2","99,0000,9,1",,,,"08,1,+06000,9,02,9",,,,"08,99,1,00,1,00,1,99999,9,00,1,07,1",,"01,9",,,,"99999,9,08189,1","7,1,024,1,+004,1",,,"SYN106AAXX  13211 76373 32988 82707 10310 20179 38189 40074 57024 80007 92032 333 30/// 56006 58004 88270 99020;","Q01+003103ATOT  Q02+001793ATOD  Q03+100743APOSLPQ04  00002PRCP99"
"76373099999","2001-04-16T15:00:00","4","25.35","-105.75","1967.0","TEPEHUANES DGO., MX","FM-12","99999","V020","270,1,N,0010,1","22000,1,9,N","060000,1,N,1","+0152,1","+0014,1","10137,1","99,0000,9,1",,,,"00,1,+99999,9,99,9",,,,"00,99,1,00,1,00,1,99999,9,00,1,00,1",,"01,9",,,,"99999,9,08226,1",,,,"SYN082AAXX  16151 76373 32986 02701 10152 20014 38226 40137 5//// 91440 333 30/// 58///;","Q01  00002PRCP99"
"76373099999","2001-04-16T21:00:00","4","25.35","-105.75","1967.0","TEPEHUANES DGO., MX","FM-12","99999","V020","120,1,N,0040,1","22000,1,9,N","070000,1,N,1","+0322,2","+0111,1","10057,1","99,0000,9,1",,,,"00,1,+99999,9,99,9",,,,"00,99,1,00,1,00,1,99999,9,00,1,00,1",,"01,9",,,,"99999,9,08187,1","6,1,031,1,+999,9",,,"SYN082AAXX  16211 76373 32988 01204 10322 20111 38187 40057 56031 92040 333 30/// 58///;","Q01  00002PRCP99"
"76373099999","2001-04-17T03:00:00","4","25.35","-105.75","1967.0","TEPEHUANES DGO., MX","FM-12","99999","V020","260,1,N,0030,1","22000,1,9,N","000200,1,N,1","+0253,1","+0091,1","10018,1","99,0000,9,1",,,,"00,1,+99999,9,99,9",,,,"00,99,1,00,1,00,1,99999,9,00,1,00,1",,"01,9",,,,"99999,9,08202,1","2,1,033,1,+999,9",,,"SYN082AAXX  17031 76373 32902 02603 10253 20091 38202 40018 52033 90242 333 30/// 58///;","Q01  00002PRCP99"
"76373099999","2001-04-17T15:00:00","4","25.35","-105.75","1967.0","TEPEHUANES DGO., MX","FM-12","99999","V020","010,1,N,0010,1","22000,1,9,N","070000,1,N,1","+0152,1","+0044,1","10146,1","99,0000,9,1",,,,"02,1,+06000,9,01,9",,,,"02,99,1,00,1,00,1,99999,9,00,1,05,1",,"01,9",,,,"99999,9,08231,1","2,1,013,1,+005,1",,,"SYN100AAXX  17151 76373 32988 20101 10152 20044 38231 40146 52013 80005 91443 333 30/// 56006 58005 82070;","Q01  00002PRCP99"
"76373099999","2001-04-18T00:00:00","4","25.35","-105.75","1967.0","TEPEHUANES DGO., MX","FM-12","99999","V020","090,1,N,0030,1","09000,1,9,N","070000,1,N,1","+0336,1","+0165,1","10016,1","24,0000,9,1",,,,"03,1,+00300,9,09,9",,,,"05,99,1,03,1,03,1,00450,1,00,1,05,1",,"01,9",,"120,M,+0368,1","180,N,+0084,1","99999,9,08184,1","0,1,030,1,+015,1",,,"SYN130AAXX  18001 76373 32488 50903 10336 20165 38184 40016 50030 83305 92345 333 10368 20084 30/// 50960 56606 58015 70000 83910 82070;","Q01  00002PRCP99Q02  00003PRCP99"
"76373099999","2001-04-18T03:00:00","4","25.35","-105.75","1967.0","TEPEHUANES DGO., MX","FM-12","99999","V020","220,1,N,0050,1","22000,1,9,N","000200,1,N,1","+0245,1","+0106,1","10032,1","99,0000,9,1",,"9,1,03,1","9,1,03,1","03,1,+00300,9,09,9",,,,"03,99,1,03,1,09,1,00450,1,00,1,00,1",,"01,9",,,,"99999,9,08217,1","2,1,033,1,+015,1","16,1",,"SYN106AAXX  18031 76373 31402 32205 10245 20106 38217 40032 52033 71699 83900 90240 333 30/// 56600 58015 83910;","Q01  00002PRCP99"
"76373099999","2001-04-18T12:00:00","4","25.35","-105.75","1967.0","TEPEHUANES DGO., MX","FM-12","99999","V020","999,9,C,0000,1","22000,1,9,N","000200,1,N,1","+0143,1","+0070,1","10093,1","24,0000,9,1",,,,"02,1,+06000,9,01,9",,,,"02,99,1,00,1,00,1,99999,9,00,1,05,1",,"01,9","999,+0110,9","999,M,+0368,1","120,N,+0132,1","99999,9,08231,1","2,1,006,1,+014,1",,,"SYN118AAXX  18121 76373 32902 20000 10143 20070 38231 40093 52006 80005 91145 333 10368 20132 30011 57006 58014 70000 82070;",
"76373099999","2001-04-18T15:00:00","4","25.35","-105.75","1967.0","TEPEHUANES DGO., MX","FM-12","99999","V020","999,9,C,0000,1","22000,1,9,N","028000,1,N,1","+0176,1","+0097,1","10146,1","99,0000,9,1",,"4,1,03,1","4,1,03,1","01,1,+06000,9,01,9",,,,"01,99,1,00,1,00,1,99999,9,00,1,05,1",,"01,9",,,,"99999,9,08241,1","0,1,010,1,+010,1","05,1",,"SYN106AAXX  18151 76373 31978 10000 10176 20097 38241 40146 50010 70544 80005 91445 333 30/// 56006 58010 81070;","Q01  00002PRCP99"
"76373099999","2001-04-19T00:00:00","4","25.35","-105.75","1967.0","TEPEHUANES DGO., MX","FM-12","99999","V020","270,1,N,0040,1","99999,9,9,N","004800,1,N,1","+0311,1","+0144,1","10039,1","02,0007,9,1",,,,,,,,"07,99,1,99,9,99,9,00075,1,99,9,99,9",,,,,,"99999,9,08198,1","7,1,009,1,+999,9",,,"SYN072AAXX  19001 76373 3/148 72704 10311 20144 38198 40039 57009 69906 71659;",
"76373099999","2001-04-19T18:00:00","4","25.35","-105.75","1967.0","TEPEHUANES DGO., MX","FM-12","99999","V020","150,1,N,0020,1","09000,1,C,N","070000,1,N,1","+0274,1","+0124,1","10132,1","99,0000,9,1",,,,"01,1,+00300,9,09,9",,,,"08,99,1,01,1,03,1,00250,1,00,1,08,1",,"01,9",,"120,M,+0310,1","240,N,+0092,1","99999,9,08219,1","8,1,011,1,-007,1",,,"SYN118AAXX  19181 76373 32388 81502 10274 20124 38219 40132 58011 81308 91746 333 10310 20092 30/// 56606 59007 81910 86270;","Q01  00002PRCP99"
"76373099999","2001-04-20T15:00:00","4","25.35","-105.75","1967.0","TEPEHUANES DGO., MX","FM-12","99999","V020","320,1,N,0010,1","22000,1,9,N","050000,1,N,1","+0140,1","+0078,1","10165,1","18,0051,9,1",,"4,1,03,1","4,1,03,1","00,1,+99999,9,99,9",,,,"00,99,1,00,1,00,1,99999,9,00,1,00,1",,"09,9",,,,"99999,9,08233,1","9,9,999,9,+003,1","05,1",,"SYN100AAXX  20151 76373 /1984 03201 10140 20078 38233 40165 5//// 60053 70544 91440 333 31/// 58003 60053;",
"76373099999","2001-04-20T21:00:00","4","25.35","-105.75","1967.0","TEPEHUANES DGO., MX","FM-12","99999","V020","210,1,N,0040,1","22000,1,9,N","070000,1,N,1","+0324,2","+0149,1","10069,2","99,0000,9,1",,,,"02,1,+00300,9,08,9",,,,"03,99,1,02,1,01,1,00450,1,00,1,05,1",,"01,9",,,,"99999,9,08191,1","6,1,028,1,-002,1",,,"SYN106AAXX  20211 76373 32488 32104 10324 20149 38191 40069 56028 82105 92046 333 30/// 56505 59002 82810 81070;","Q01+003243ATOT  Q02+100693APOSLPQ03  00002PRCP99"
"76373099999","2001-04-23T15:00:00","4","25.35","-105.75","1967.0","TEPEHUANES DGO., MX","FM-12","99999","V020","060,1,N,0020,1","22000,1,9,N","060000,1,N,1","+0128,1","+0014,1","10162,1","99,0000,9,1",,,,"01,1,+06000,9,01,9",,,,"01,99,1,00,1,00,1,99999,9,00,1,05,1",,"01,9",,,,"99999,9,08235,1",,,,"SYN100AAXX  23151 76373 32986 10602 10128 20014 38235 40162 5//// 80005 91440 333 30/// 56003 58/// 81070;","Q01  00002PRCP99"
"76373099999","2001-04-23T18:00:00","4","25.35","-105.75","1967.0","TEPEHUANES DGO., MX","FM-12","99999","V020","110,1,N,0040,1","22000,1,9,N","070000,1,N,1","+0238,1","+0054,1","10144,1","99,0000,9,1",,,,"00,1,+99999,9,99,9",,,,"00,99,1,00,1,00,1,99999,9,00,1,00,1",,"01,9",,"120,M,+0258,1","240,N,+0052,1","99999,9,08225,1","6,1,010,1,+999,9",,,"SYN094AAXX  23181 76373 32988 01104 10238 20054 38225 40144 56010 91740 333 10258 20052 30/// 58///;","Q01  00002PRCP99"
"76373099999","2001-04-24T00:00:00","4","25.35","-105.75","1967.0","TEPEHUANES DGO., MX","FM-12","99999","V020","120,1,N,0030,1","22000,1,9,N","070000,1,N,1","+0291,1","+0079,1","10037,2","24,0000,9,1",,,,,,,,"01,99,1,01,1,01,1,00450,1,00,1,00,1",,"01,9",,"120,M,+0308,1","180,N,+0052,1","99999,9,08177,1","7,1,020,1,+999,9",,,"SYN124AAXX  24001 76373 32488 11203 10291 20079 38177 40037 57020 81100 92343 333 10308 20052 30/// 50690 56600 58/// 70000 81810;","Q01+100373APOSLPQ02  00002PRCP99Q03  00003PRCP99"
"76373099999","2001-04-24T12:00:00","4","25.35","-105.75","1967.0","TEPEHUANES DGO., MX","FM-12","99999","V020","999,9,C,0000,1","22000,1,9,N","000500,1,N,1","+0068,1","-0032,1","10130,1","24,0000,9,1",,,,"00,1,+99999,9,99,9",,,,"00,99,1,00,1,00,1,99999,9,00,1,00,1",,"01,9","999,+0020,9","999,M,+0308,1","120,N,+0056,1","99999,9,08220,1","2,1,003,1,+999,9",,,"SYN100AAXX  24121 76373 32905 00000 10068 21032 38220 40130 52003 91143 333 10308 20056 30002 56/// 70000;","Q01  00002PRCP24"
"76373099999","2001-04-24T15:00:00","4","25.35","-105.75","1967.0","TEPEHUANES DGO., MX","FM-12","99999","V020","080,1,N,0010,1","09000,1,9,N","070000,1,N,1","+0125,1","+0023,1","10172,1","99,0000,9,1",,,,,,,,"05,99,1,04,1,00,1,01750,1,03,1,02,1",,"01,9",,,,"99999,9,08231,1","2,1,011,1,-005,1",,,"SYN105AAXX  24151 76373 32788 50801 10125 20023 38231 40172 52011 84032 91445 333 30/// 56066 59005 8435 81070;","Q01  00002PRCP99"
"76373099999","2001-04-24T18:00:00","4","25.35","-105.75","1967.0","TEPEHUANES DGO., MX","FM-12","99999","V020","100,1,N,0040,1","09000,1,C,N","070000,1,N,1","+0230,1","+0080,1","10169,1","99,0000,9,1",,,,"01,1,+03000,9,03,9",,,,"08,99,1,01,1,00,1,01750,1,03,1,08,1",,"01,9",,"120,M,+0252,1","240,N,+0046,1","99999,9,08229,1","8,1,002,1,+004,1",,,"SYN118AAXX  24181 76373 32788 81004 10230 20080 38229 40169 58002 81038 91747 333 10252 20046 30/// 56066 58004 81360 88270;","Q01  00002PRCP99"
"76373099999","2001-04-24T21:00:00","4","25.35","-105.75","1967.0","TEPEHUANES DGO., MX","FM-12","99999","V020","120,1,N,0060,1","09000,1,C,N","070000,1,N,1","+0280,1","+0124,1","10109,1","99,0000,9,1",,,,"02,1,+00300,9,09,9",,,,"08,99,1,02,1,03,1,00450,1,00,1,08,1",,"01,9",,,,"99999,9,08202,1","6,1,027,1,+005,1",,,"SYN106AAXX  24211 76373 32488 81206 10280 20124 38202 40109 56027 82308 92040 333 30/// 56606 58005 82910 86270;","Q01  00002PRCP99"
"76373099999","2001-04-25T00:00:00","4","25.35","-105.75","1967.0","TEPEHUANES DGO., MX","FM-12","99999","V020","160,1,N,0020,1","00300,1,C,N","070000,1,N,1","+0254,1","+0097,1","10062,1","24,0000,9,1",,,,"05,1,+00300,9,09,9","01,1,+02400,9,04,9",,,"07,99,1,05,1,03,1,00450,1,01,1,05,1",,"01,9",,"120,M,+0303,1","180,N,+0046,1","99999,9,08192,1","5,1,010,1,-015,1",,,"SYN136AAXX  25000 76373 32488 71602 10254 20097 38192 40062 55010 85315 92337 333 10303 20046 30/// 50840 56666 59015 70000 85910 81458 81070;","Q01  00002PRCP99Q02  00003PRCP99"
"76373099999","2001-04-25T03:00:00","4","25.35","-105.75","1967.0","TEPEHUANES DGO., MX","FM-12","99999","V020","290,1,N,0030,1","22000,1,9,N","000800,1,N,1","+0208,1","+0085,1","10060,1","99,0000,9,1",,,,"01,1,+00300,9,09,9",,,,"02,99,1,01,1,03,1,00450,1,03,1,00,1",,"01,9",,,,"99999,9,08208,1","2,1,016,1,-009,1",,,"SYN106AAXX  25031 76373 32408 22903 10208 20085 38208 40060 52016 81330 90234 333 30/// 56660 59009 81910 81358;","Q01  00002PRCP99"
"76373099999","2001-04-25T12:00:00","4","25.35","-105.75","1967.0","TEPEHUANES DGO., MX","FM-12","99999","V020","999,9,C,0000,1","22000,1,9,N","000800,1,N,1","+0138,1","+0080,1","10130,1","24,0000,9,1",,,,"02,1,+00300,9,02,9",,,,"02,99,1,99,9,01,1,00450,1,00,1,00,1",,"01,9","999,+0100,9","999,M,+0303,1","120,N,+0128,1","99999,9,08232,1","2,1,004,1,-012,1",,,"SYN118AAXX  25121 76373 32408 20000 10138 20080 38232 40130 52004 81100 91146 333 10303 20128 30010 56600 59012 70000 82810;","Q01+000012SCOTLC"
"76373099999","2001-04-25T15:00:00","4","25.35","-105.75","1967.0","TEPEHUANES DGO., MX","FM-12","99999","V020","280,1,N,0030,1","22000,1,9,N","060000,1,N,1","+0168,1","+0092,1","10155,1","99,0000,9,1",,,,"01,1,+00300,9,02,9",,,,"01,99,1,01,1,01,1,00450,1,00,1,00,1",,"01,9",,,,"99999,9,08240,1","2,1,008,1,+009,1",,,"SYN100AAXX  25151 76373 32486 12803 10168 20092 38240 40155 52008 81100 91438 333 30/// 56600 58009 81810;","Q01  00002PRCP99"
"76373099999","2001-04-25T21:00:00","4","25.35","-105.75","1967.0","TEPEHUANES DGO., MX","FM-12","99999","V020","240,1,N,0040,1","22000,1,9,N","070000,1,N,1","+0306,1","+0158,1","10062,1","99,0000,9,1",,,,"03,1,+00300,9,02,9",,,,"03,99,1,03,1,02,1,00450,1,00,1,00,1",,"01,9",,,,"99999,9,08192,1","7,1,029,1,-010,1",,,"SYN100AAXX  25211 76373 32488 32404 10306 20158 38192 40062 57029 83200 92038 333 30/// 56600 59010 83810;","Q01  00002PRCP99"
"76373099999","2001-04-26T00:00:00","4","25.35","-105.75","1967.0","TEPEHUANES DGO., MX","FM-12","99999","V020","280,1,N,0040,1","22000,1,9,N","070000,1,N,1","+0278,1","+0123,1","10039,1","24,0000,9,1",,,,,,,,"02,99,1,02,1,02,1,00450,1,00,1,00,1",,"01,9",,"120,M,+0320,1","180,N,+0114,1","99999,9,08194,1","0,1,002,1,+002,1",,,"SYN124AAXX  26001 76373 32488 22804 10278 20123 38194 40039 50002 82200 92350 333 10320 20114 30/// 50820 56600 58002 70000 82810;","Q01  00002PRCP99Q02  00003PRCP99"
"76373099999","2001-04-26T03:00:00","4","25.35","-105.75","1967.0","TEPEHUANES DGO., MX","FM-12","99999","V020","330,1,N,0040,1","22000,1,9,N","000800,1,N,1","+0200,1","+0125,1","10070,1","99,0000,9,1",,,,"01,1,+00300,9,09,9",,,,"01,99,1,01,1,03,1,00450,1,00,1,00,1",,"01,9",,,,"99999,9,08220,1","2,1,026,1,+012,1",,,"SYN100AAXX  26031 76373 32408 13304 10200 20125 38220 40070 52026 81300 90240 333 30/// 56600 58012 81910;","Q01  00002PRCP99"
"76373099999","2001-04-26T15:00:00","4","25.35","-105.75","1967.0","TEPEHUANES DGO., MX","FM-12","99999","V020","090,1,N,0010,1","03600,1,C,N","060000,1,N,1","+0146,1","+0085,1","10172,1","99,0000,9,1",,,,"01,1,+00300,9,08,9",,,,"05,99,1,01,1,01,1,00450,1,03,1,00,1",,"01,9",,,,"99999,9,08248,1","9,9,999,9,+008,1",,,"SYN106AAXX  26151 76373 32486 50901 10146 20085 38248 40172 5//// 81130 91440 333 30/// 56220 58008 81810 84360;","Q01  00002PRCP99"
"76373099999","2001-04-26T21:00:00","4","25.35","-105.75","1967.0","TEPEHUANES DGO., MX","FM-12","99999","V020","210,1,N,0070,1","99999,9,9,N","070000,1,N,1","+0260,1","+0124,1","10086,1","99,0000,9,1",,,,"04,1,+00300,9,08,9",,,,"05,99,1,04,1,02,1,00450,1,00,1,00,1",,"01,9",,,,"99999,9,08197,1","7,1,030,1,+005,1",,,"SYN106AAXX  26211 76373 32488 52107 10260 20124 38197 40086 57030 84200 92047 333 30/// 56600 58005 84810 81910;","Q01  00002PRCP99"
"76373099999","2001-04-27T00:00:00","4","25.35","-105.75","1967.0","TEPEHUANES DGO., MX","FM-12","99999","V020","270,1,N,0050,1","22000,1,9,N","070000,1,N,1","+0268,1","+0132,1","10046,1","24,0000,9,1",,,,"04,1,+00300,9,02,9",,,,"04,99,1,04,1,02,1,00450,1,00,1,00,1",,"01,9",,"120,M,+0298,1","180,N,+0094,1","99999,9,08184,1","6,1,013,1,-010,1",,,"SYN118AAXX  27001 76373 32488 42705 10268 20132 38184 40046 56013 84200 92350 333 10298 20094 30/// 56600 59010 70000 84810;",
"76373099999","2001-04-27T15:00:00","4","25.35","-105.75","1967.0","TEPEHUANES DGO., MX","FM-12","99999","V020","300,1,N,0010,1","22000,1,9,N","060000,1,N,1","+0142,1","+0060,1","10141,1","99,0000,9,1",,,,"00,1,+99999,9,99,9",,,,"00,99,1,00,1,00,1,99999,9,00,1,00,1",,"01,9",,,,"99999,9,08231,1","9,9,999,9,-017,1",,,"SYN082AAXX  27151 76373 32986 03001 10142 20060 38231 40141 5//// 91440 333 30/// 59017;","Q01  00002PRCP99"
"76373099999","2001-04-27T21:00:00","4","25.35","-105.75","1967.0","TEPEHUANES DGO., MX","FM-12","99999","V020","060,1,N,0030,1","99999,9,9,N","070000,1,N,1","+0250,1","+0130,1","10074,1","99,0000,9,1",,,,"03,1,+00300,9,09,9",,,,"07,99,1,04,1,02,1,00450,1,00,1,00,1",,"01,9",,,,"99999,9,08189,1","6,1,025,1,+008,1",,,"SYN106AAXX  27211 76373 32488 70603 10250 20130 38189 40074 56025 84200 92040 333 30/// 56700 58008 83910 84810;","Q01  00002PRCP99"
"76373099999","2001-04-30T15:00:00","4","25.35","-105.75","1967.0","TEPEHUANES DGO., MX","FM-12","99999","V020","040,1,N,0010,1","03000,1,9,N","060000,1,N,1","+0154,1","+0079,1","10175,1","99,0000,9,1",,,,"07,1,+03000,9,08,9",,,,"07,99,1,99,9,00,1,99999,9,00,1,08,1",,"01,9",,,,"99999,9,08244,1",,,,"SYN100AAXX  30151 76373 32986 70401 10154 20079 38244 40175 5//// 80008 91440 333 30/// 56006 58/// 87260;","Q01+000002SCOTLCQ02  00002PRCP99"
"76373099999","2001-04-30T18:00:00","4","25.35","-105.75","1967.0","TEPEHUANES DGO., MX","FM-12","99999","V020","150,1,N,0040,1","06000,1,9,N","070000,1,N,1","+0248,1","+0128,1","10146,1","99,0000,9,1",,,,"07,1,+06000,9,08,9",,,,"07,99,1,99,9,00,1,99999,9,00,1,08,1",,"01,9",,"120,M,+0265,1","240,N,+0058,1","99999,9,08233,1","6,1,011,1,+999,9",,,"SYN112AAXX  30181 76373 32988 71504 10248 20128 38233 40146 56011 80008 91740 333 10265 20058 30/// 56006 58/// 87270;","Q01+000002SCOTLCQ02  00002PRCP99"
"76373099999","2001-04-30T21:00:00","4","25.35","-105.75","1967.0","TEPEHUANES DGO., MX","FM-12","99999","V020","100,1,N,0040,1","03600,1,C,N","070000,1,N,1","+0286,1","+0123,1","10093,1","99,0000,9,1",,,,"01,1,+00300,9,08,9","01,1,+03000,9,03,9",,,"08,99,1,01,1,01,1,00450,1,03,1,08,1",,"01,9",,,,"99999,9,08207,1","6,1,026,1,+999,9",,,"SYN112AAXX  30211 76373 32488 81004 10286 20123 38207 40093 56026 81138 92046 333 30/// 56666 58/// 81810 81360 88270;","Q01  00002PRCP99"
"76373099999","2001-05-01T00:00:00","4","25.35","-105.75","1967.0","TEPEHUANES DGO., MX","FM-12","99999","V020","270,1,N,0020,1","09000,1,9,N","060000,1,N,1","+0285,1","+0085,1","10039,1","24,0000,9,1",,,,"01,1,+02400,9,03,9",,,,"08,99,1,01,1,00,1,01750,1,03,1,07,1",,"01,9",,"120,M,+0310,1","180,N,+0058,1","99999,9,08186,1","7,1,021,1,+999,9",,,"SYN130AAXX  01001 76373 32786 82702 10285 20085 38186 40039 57021 81037 92340 333 10310 20058 30/// 51290 56066 58/// 70000 81358 87270;","Q01  00002PRCP99Q02  00003PRCP99"
"76373099999","2001-05-01T03:00:00","4","25.35","-105.75","1967.0","TEPEHUANES DGO., MX","FM-12","99999","V020","300,1,N,0020,1","22000,1,9,N","000800,1,N,1","+0214,1","+0077,1","10058,1","99,0000,9,1",,,,"01,1,+02400,9,03,9",,,,"04,99,1,01,1,00,1,01750,1,03,1,07,1",,"01,9",,,,"99999,9,08213,1","2,1,027,1,+999,9",,,"SYN106AAXX  01031 76373 32708 43002 10214 20077 38213 40058 52027 81037 90240 333 30/// 56066 58/// 81358 83270;","Q01  00002PRCP99"
"76373099999","2001-05-01T12:00:00","4","25.35","-105.75","1967.0","TEPEHUANES DGO., MX","FM-12","99999","V020","999,9,C,0000,1","09000,1,C,N","000800,1,N,1","+0120,1","+0019,1","10116,1","24,0000,9,1",,,,"02,1,+02400,9,03,9",,,,"08,99,1,02,1,00,1,01750,1,03,1,05,1",,"01,9","999,+0080,9","999,M,+0310,1","120,N,+0108,1","99999,9,08127,1","2,1,005,1,+999,9",,,"SYN124AAXX  01121 76373 32708 80000 10120 20019 38127 40116 52005 82035 91143 333 10310 20108 30008 56066 58/// 70000 82358 86070;",
"76373099999","2001-05-01T18:00:00","4","25.35","-105.75","1967.0","TEPEHUANES DGO., MX","FM-12","99999","V020","110,1,N,0030,1","03600,1,C,N","070000,1,N,1","+0244,1","+0083,1","10127,1","99,0000,9,1",,,,"01,1,+00300,9,09,9","02,1,+03000,9,03,9",,,"08,99,1,01,1,03,1,00450,1,03,1,08,1",,"01,9",,"120,M,+0260,1","240,N,+0106,1","99999,9,08219,2","6,1,006,1,-014,1",,,"SYN124AAXX  01181 76373 32488 81103 10244 20083 38219 40127 56006 81338 91740 333 10260 20106 30/// 56666 59014 81910 82360 86270;","Q01+082193APOSP Q02  00002PRCP99"
"76373099999","2001-05-01T21:00:00","4","25.35","-105.75","1967.0","TEPEHUANES DGO., MX","FM-12","99999","V020","120,1,N,0020,1","09000,1,C,N","070000,1,N,1","+0296,1","+0104,1","10067,1","99,0000,9,1",,,,"03,1,+00300,9,06,9",,,,"05,99,1,03,1,04,1,00450,1,00,1,05,1",,"01,9",,,,"99999,9,08187,1","7,1,032,1,-020,1",,,"SYN106AAXX  01211 76373 32488 51202 10296 20104 38187 40067 57032 83405 92035 333 30/// 57606 59020 83610 82070;","Q01  00002PRCP99"
"76373099999","2001-05-02T00:00:00","4","25.35","-105.75","1967.0","TEPEHUANES DGO., MX","FM-12","99999","V020","240,1,N,0020,1","03600,1,9,N","070000,1,N,1","+0263,1","+0139,1","10028,1","24,0000,9,1",,,,"03,1,+02400,9,07,9",,,,"08,99,1,03,1,06,1,00450,1,01,1,99,9",,"01,9",,"120,M,+0313,1","180,N,+0106,1","99999,9,08177,1","7,1,010,1,-009,1",,,"SYN130AAXX  02001 76373 32488 82402 10263 20139 38177 40028 57010 8361/ 92350 333 10313 20106 30/// 50820 5666/ 59009 70000 83758 85470;","Q01  00002PRCP99Q02  00003PRCP99"
"76373099999","2001-05-02T15:00:00","4","25.35","-105.75","1967.0","TEPEHUANES DGO., MX","FM-12","99999","V020","999,9,C,0000,1","02400,1,9,N","060000,1,N,1","+0168,1","+0081,1","10102,1","99,0000,9,1",,,,"07,1,+02400,9,07,9",,,,"07,99,1,07,1,99,9,01750,1,03,1,00,1",,"01,9",,,,"99999,9,08200,1","2,1,014,1,-025,1",,,"SYN100AAXX  02151 76373 32786 70000 10168 20081 38200 40102 52014 87030 91440 333 30/// 56060 59025 87358;","Q01  00002PRCP99Q02    003SCOLCG"
"76373099999","2001-05-02T21:00:00","4","25.35","-105.75","1967.0","TEPEHUANES DGO., MX","FM-12","99999","V020","290,1,N,0060,1","03600,1,C,N","070000,1,N,1","+0238,1","+0091,1","10062,1","99,0000,9,1",,,,"04,1,+00300,9,06,9",,,,"08,99,1,04,1,06,1,00450,1,07,1,00,1",,"01,9",,,,"99999,9,08184,1","7,1,005,1,-003,1",,,"SYN106AAXX  02211 76373 32488 82906 10238 20091 38184 40062 57005 84670 92040 333 30/// 56660 59003 84610 84460;","Q01  00002PRCP99"
"76373099999","2001-05-03T00:00:00","4","25.35","-105.75","1967.0","TEPEHUANES DGO., MX","FM-12","99999","V020","270,1,N,0040,1","09000,1,9,N","070000,1,N,1","+0248,1","+0145,1","10028,1","24,0000,9,1",,,,"03,1,+02400,9,03,9",,,,"06,99,1,03,1,00,1,01750,1,03,1,05,1",,"01,9",,"120,M,+0273,1","180,N,+0120,1","99999,9,08171,1","7,1,013,1,-006,1",,,"SYN130AAXX  03001 76373 32788 62704 10248 20145 38171 40028 57013 83035 92345 333 10273 20120 30/// 51230 56066 59006 70000 83358 83070;","Q01  00002PRCP99Q02  00003PRCP99"
"76373099999","2001-05-03T03:00:00","4","25.35","-105.75","1967.0","TEPEHUANES DGO., MX","FM-12","99999","V020","240,1,N,0030,1","99999,9,9,N","000800,1,N,1","+0196,1","+0088,1","10048,1","99,0000,9,1",,,,"02,1,+02400,9,03,9",,,,"07,99,1,99,9,99,9,01750,1,99,9,99,9",,"01,9",,,,"99999,9,08195,1","2,1,024,1,+004,1",,,"SYN100AAXX  03031 76373 32708 72403 10196 20088 38195 40048 52024 90250 333 30/// 56066 58004 82358 85270;","Q01  00002PRCP99"
"76373099999","2001-05-03T18:00:00","4","25.35","-105.75","1967.0","TEPEHUANES DGO., MX","FM-12","99999","V020","240,1,N,0040,1","00300,1,9,N","070000,1,N,1","+0166,1","+0083,1","10151,1","12,0005,9,1",,"5,1,06,1","5,1,06,1","08,1,+00300,9,05,9",,,,"08,99,1,08,1,07,1,00450,1,00,1,00,1",,"09,9",,"120,M,+0188,1","240,N,+0112,1","99999,9,08228,1","1,1,023,1,+039,1","58,1",,"SYN124AAXX  03181 76373 11488 82404 10166 20083 38228 40151 51023 69942 75855 88700 91740 333 10188 20112 31/// 56600 58039 88610;",
"76373099999","2001-05-03T21:00:00","4","25.35","-105.75","1967.0","TEPEHUANES DGO., MX","FM-12","99999","V020","320,1,N,0020,1","00300,1,9,N","008000,1,N,1","+0120,1","+0085,1","10162,1","03,0040,9,1",,"6,1,03,1","5,1,03,1","08,1,+00300,9,05,9",,,,"08,99,1,08,1,07,1,00250,1,99,9,99,9",,"09,9",,,,"99999,9,08227,1","7,1,001,1,+043,1","59,1",,"SYN118AAXX  03211 76373 /1358 83202 10120 20085 38227 40162 57001 60047 75965 887// 92040 333 31/// 56600 58043 60047 88610;",
"76373099999","2001-05-04T15:00:00","4","25.35","-105.75","1967.0","TEPEHUANES DGO., MX","FM-12","99999","V020","290,1,N,0050,1","22000,1,9,N","060000,1,N,1","+0160,1","+0094,1","10144,1","18,0008,9,1",,,,"04,1,+00300,9,02,9",,,,"04,99,1,04,1,02,1,00450,1,00,1,00,1",,"09,9",,,,"99999,9,08212,1","9,9,999,9,-016,1",,,"SYN112AAXX  04151 76373 /2486 42905 10160 20094 38212 40144 5//// 69983 84200 91440 333 31/// 56600 59016 69983 84810;",
"76373099999","2001-05-04T18:00:00","4","25.35","-105.75","1967.0","TEPEHUANES DGO., MX","FM-12","99999","V020","230,1,N,0060,1","22000,1,9,N","070000,1,N,1","+0220,1","+0108,1","10120,1","99,0000,9,1",,,,"02,1,+00300,9,08,9",,,,"03,99,1,02,1,01,1,00450,1,00,1,05,1",,"01,9",,"120,M,+0232,1","240,N,+0108,1","99999,9,08204,1","6,1,008,1,-024,1",,,"SYN118AAXX  04181 76373 32488 32306 10220 20108 38204 40120 56008 82105 91740 333 10232 20108 30/// 56606 59024 82810 81070;","Q01  00002PRCP99"
"76373099999","2001-05-04T21:00:00","4","25.35","-105.75","1967.0","TEPEHUANES DGO., MX","FM-12","99999","V020","250,1,N,0060,1","22000,1,9,N","070000,1,N,1","+0238,1","+0129,1","10081,1","99,0000,9,1",,,,"02,1,+00300,9,02,9",,,,"02,99,1,02,1,01,1,00450,1,00,1,00,1",,"01,9",,,,"99999,9,08189,1","6,1,015,1,-038,1",,,"SYN100AAXX  04211 76373 32488 22506 10238 20129 38189 40081 56015 82100 92040 333 30/// 56600 59038 82810;","Q01  00002PRCP99"
"76373099999","2001-05-07T15:00:00","4","25.35","-105.75","1967.0","TEPEHUANES DGO., MX","FM-12","99999","V020","330,1,N,0010,1","22000,1,9,N","060000,1,N,1","+0142,1","+0024,1","10144,1","99,0000,9,1",,,,"00,1,+99999,9,99,9",,,,"00,99,1,00,1,00,1,99999,9,00,1,00,1",,"01,9",,,,"99999,9,08229,1",,,,"SYN082AAXX  07151 76373 32986 03301 10142 20024 38229 40144 5//// 91436 333 30/// 58///;","Q01  00002PRCP99"
"76373099999","2001-05-07T18:00:00","4","25.35","-105.75","1967.0","TEPEHUANES DGO., MX","FM-12","99999","V020","120,1,N,0040,1","22000,1,9,N","070000,1,N,1","+0266,1","+0113,1","10139,1","99,0000,9,1",,,,"00,1,+99999,9,99,9",,,,"00,99,1,00,1,00,1,99999,9,00,1,00,1",,"01,9",,"120,M,+0284,1","240,N,+0068,1","99999,9,08229,1","4,1,000,1,+999,9",,,"SYN094AAXX  07181 76373 32988 01204 10266 20113 38229 40139 54000 91740 333 10284 20068 30/// 58///;","Q01  00002PRCP99"
"76373099999","2001-05-07T21:00:00","4","25.35","-105.75","1967.0","TEPEHUANES DGO., MX","FM-12","99999","V020","130,1,N,0040,1","22000,1,9,N","070000,1,N,1","+0286,1","+0123,1","10099,1","99,0000,9,1",,,,,,,,"04,99,1,99,9,03,1,00450,1,00,1,00,1",,"01,9",,,,"99999,9,08212,1","6,1,017,1,+999,9",,,"SYN094AAXX  07211 76373 32488 41304 10286 20123 38212 40099 56017 83300 92040 333 30/// 56600 58///;","Q01+000032SCOTLCQ02  00002PRCP99"
"76373099999","2001-05-08T00:00:00","4","25.35","-105.75","1967.0","TEPEHUANES DGO., MX","FM-12","99999","V020","140,1,N,0030,1","22000,1,9,N","070000,1,N,1","+0256,1","+0097,1","10074,1","03,9999,9,9",,"6,1,06,1","1,1,06,1",,,,,"04,99,1,01,1,03,1,00450,1,02,1,00,1",,"01,9",,"120,M,+0325,1","180,N,+0068,1","99999,9,08212,1","0,1,000,1,+999,9","01,1",,"SYN136AAXX  08001 76373 /1488 41403 10256 20097 38212 40074 50000 69907 70161 81320 92345 333 10325 20068 30/// 50710 56660 58/// 69907 79999;","Q01  99992PRCP03"
"76373099999","2001-05-08T12:00:00","4","25.35","-105.75","1967.0","TEPEHUANES DGO., MX","FM-12","99999","V020","999,9,C,0000,1","22000,1,9,N","000800,1,N,1","+0081,1","-0002,1","10158,1","24,0007,9,1",,,,"00,1,+99999,9,99,9",,,,"00,99,1,00,1,00,1,99999,9,00,1,00,1",,"01,9","999,+0040,9","999,M,+0325,1","120,N,+0068,1","99999,9,08243,1","2,1,008,1,+999,9",,,"SYN100AAXX  08121 76373 32908 00000 10081 21002 38243 40158 52008 91142 333 10325 20068 30004 58/// 79999;",
"76373099999","2001-05-08T15:00:00","4","25.35","-105.75","1967.0","TEPEHUANES DGO., MX","FM-12","99999","V020","310,1,N,0010,1","22000,1,9,N","060000,1,N,1","+0150,1","+0042,1","10188,1","99,0000,9,1",,,,"00,1,+99999,9,99,9",,,,"00,99,1,00,1,00,1,99999,9,00,1,00,1",,"01,9",,,,"99999,9,08251,1","2,1,008,1,+021,1",,,"SYN082AAXX  08151 76373 32986 03101 10150 20042 38251 40188 52008 91440 333 30/// 58021;","Q01  00002PRCP99"
"76373099999","2001-05-08T21:00:00","4","25.35","-105.75","1967.0","TEPEHUANES DGO., MX","FM-12","99999","V020","090,1,N,0060,1","22000,1,9,N","070000,1,N,1","+0260,1","+0092,1","10123,1","99,0000,9,1",,,,"02,1,+00300,9,08,9",,,,"04,99,1,02,1,03,1,00450,1,00,1,00,1",,"01,9",,,,"99999,9,08223,1","7,1,020,1,+011,1",,,"SYN106AAXX  08211 76373 32488 40906 10260 20092 38223 40123 57020 82300 92040 333 30/// 56600 58011 82810 82910;","Q01  00002PRCP99"
"76373099999","2001-05-09T00:00:00","4","25.35","-105.75","1967.0","TEPEHUANES DGO., MX","FM-12","99999","V020","050,1,N,0040,1","22000,1,9,N","070000,1,N,1","+0273,1","+0118,1","10060,1","24,0000,9,1",,,,,,,,"03,99,1,03,1,01,1,00450,1,00,1,00,1",,"01,9",,"120,M,+0308,1","180,N,+0064,1","99999,9,08201,1","7,1,022,1,-011,1",,,"SYN124AAXX  09000 76373 32488 30504 10273 20118 38201 40060 57022 83100 92340 333 10308 20064 30/// 50870 56600 59011 70000 83810;","Q01  00002PRCP99Q02  00003PRCP99"
"76373099999","2001-05-09T03:00:00","4","25.35","-105.75","1967.0","TEPEHUANES DGO., MX","FM-12","99999","V020","120,1,N,0010,1","22000,1,9,N","000800,1,N,1","+0223,1","+0085,1","10055,1","99,0000,9,1",,,,"01,1,+02400,9,07,9",,,,"01,99,1,01,1,99,9,01750,1,03,1,00,1",,"01,9",,,,"99999,9,08214,1","2,1,013,1,-008,1",,,"SYN100AAXX  09031 76373 32708 11201 10223 20085 38214 40055 52013 81030 90237 333 30/// 56060 59008 81358;","Q01  00002PRCP99Q02    003SCOLCG"
"76373099999","2001-05-09T12:00:00","4","25.35","-105.75","1967.0","TEPEHUANES DGO., MX","FM-12","99999","V020","999,9,C,0000,1","22000,1,9,N","000800,1,N,1","+0111,1","+0010,1","10137,1","24,0000,9,1",,,,"00,1,+99999,9,99,9",,,,"00,99,1,00,1,00,1,99999,9,00,1,00,1",,"01,9","999,+0060,9","999,M,+0308,1","120,N,+0098,1","99999,9,08236,1","2,1,005,1,-007,1",,,"SYN100AAXX  09121 76373 32908 00000 10111 20010 38236 40137 52005 91145 333 10308 20098 30006 59007 70000;","Q01  00002PRCP24"
"76373099999","2001-05-09T15:00:00","4","25.35","-105.75","1967.0","TEPEHUANES DGO., MX","FM-12","99999","V020","220,1,N,0010,1","22000,1,9,N","060000,1,N,1","+0164,1","+0065,1","10158,1","99,0000,9,1",,,,"00,1,+99999,9,99,9",,,,"00,99,1,00,1,00,1,99999,9,00,1,00,1",,"01,9",,,,"99999,9,08241,1","2,1,005,1,-010,1",,,"SYN082AAXX  09151 76373 32986 02201 10164 20065 38241 40158 52005 91440 333 30/// 59010;","Q01  00002PRCP99"
"76373099999","2001-05-09T18:00:00","4","25.35","-105.75","1967.0","TEPEHUANES DGO., MX","FM-12","99999","V020","110,1,N,0030,1","22000,1,9,N","070000,1,N,1","+0244,1","+0095,1","10141,1","99,0000,9,1",,,,"02,1,+00300,9,09,9",,,,"02,99,1,02,1,03,1,00450,1,00,1,00,1",,"01,9",,"120,M,+0264,1","240,N,+0090,1","99999,9,08231,1","6,1,010,1,-012,1",,,"SYN112AAXX  09181 76373 32488 21103 10244 20095 38231 40141 56010 82300 91740 333 10264 20090 30/// 56600 59012 82910;","Q01  00002PRCP99"
"76373099999","2001-05-09T21:00:00","4","25.35","-105.75","1967.0","TEPEHUANES DGO., MX","FM-12","99999","V020","040,1,N,0040,1","00300,1,9,N","070000,1,N,1","+0251,1","+0081,1","10093,1","99,0000,9,1",,"2,1,03,1","2,1,03,1","06,1,+00300,9,09,9",,,,"06,99,1,06,1,09,1,00450,1,00,1,00,1",,"01,9",,,,"99999,9,08206,1","7,1,025,1,-017,1","16,1",,"SYN106AAXX  09211 76373 31488 60404 10251 20081 38206 40093 57025 71622 86900 92040 333 30/// 56600 59017 86910;","Q01  00002PRCP99"
"76373099999","2001-05-10T00:00:00","4","25.35","-105.75","1967.0","TEPEHUANES DGO., MX","FM-12","99999","V020","030,1,N,0020,1","22000,1,9,N","070000,1,N,1","+0229,1","+0083,1","10076,1","03,9999,9,9",,"5,1,06,1","5,1,06,1",,,,,"04,99,1,02,1,03,1,00450,1,00,1,05,1",,"01,9",,"120,M,+0297,1","180,N,+0090,1","99999,9,08206,1","7,1,017,1,+005,1","01,1",,"SYN135AAXX  10001 76373 /1488 4030210229 20083 38206 40076 52000 69907 70155 82305 92342 333 10297 20090 30/// 50790 56606 58005 69907 79999;","Q01+000022APCTENQ02+000002APC3  Q03  99992PRCP03"
"76373099999","2001-05-10T12:00:00","4","25.35","-105.75","1967.0","TEPEHUANES DGO., MX","FM-12","99999","V020","999,9,C,0000,1","22000,1,9,N","000800,1,N,1","+0094,1","+0033,1","10141,1","24,0007,9,1",,,,"00,1,+99999,9,99,9",,,,"00,99,1,00,1,00,1,99999,9,00,1,00,1",,"01,9","999,+0050,9","999,M,+0297,1","120,N,+0078,1","99999,9,08224,1","4,1,000,1,-012,1",,,"SYN100AAXX  10121 76373 32908 00000 10094 20033 38224 40141 54000 91136 333 10297 20078 30005 59012 79999;",
"76373099999","2001-05-10T15:00:00","4","25.35","-105.75","1967.0","TEPEHUANES DGO., MX","FM-12","99999","V020","300,1,N,0010,1","22000,1,9,N","070000,1,N,1","+0148,1","+0076,1","10167,1","99,0000,9,1",,,,"01,1,+03000,9,07,9",,,,"01,99,1,01,1,00,1,01750,1,03,1,00,1",,"01,9",,,,"99999,9,08234,1","2,1,010,1,-007,1",,,"SYN100AAXX  10151 76373 32788 13001 10148 20076 38234 40167 52010 81030 91435 333 30/// 56060 59007 81360;","Q01  00002PRCP99"
"76373099999","2001-05-10T18:00:00","4","25.35","-105.75","1967.0","TEPEHUANES DGO., MX","FM-12","99999","V020","090,1,N,0030,1","22000,1,9,N","070000,1,N,1","+0244,1","+0103,1","10139,1","99,0000,9,1",,,,"01,1,+00300,9,08,9",,,,"02,99,1,02,1,03,1,00450,1,00,1,00,1",,"01,9",,"120,M,+0264,1","240,N,+0070,1","99999,9,08219,1","6,1,015,1,-012,1",,,"SYN118AAXX  10181 76373 32488 20903 10244 20103 38219 40139 56015 82300 91738 333 10264 20070 30/// 56600 59012 81810 81910;","Q01  00002PRCP99"
"76373099999","2001-05-11T15:00:00","4","25.35","-105.75","1967.0","TEPEHUANES DGO., MX","FM-12","99999","V020","310,1,N,0010,1","22000,1,9,N","070000,1,N,1","+0152,1","+0068,1","10158,1","18,0007,9,1",,,,"00,1,+99999,9,99,9",,,,"00,99,1,00,1,00,1,99999,9,00,1,00,1",,"01,9",,,,"99999,9,08228,1","9,9,999,9,-003,1",,,"SYN094AAXX  11151 76373 /2988 03101 10152 20068 38228 40158 5//// 69903 91440 333 30/// 59003 69903;",
"76373099999","2001-05-11T18:00:00","4","25.35","-105.75","1967.0","TEPEHUANES DGO., MX","FM-12","99999","V020","100,1,N,0030,1","22000,1,9,N","070000,1,N,1","+0240,1","+0098,1","10132,1","99,0000,9,1",,,,"03,1,+00300,9,09,9",,,,"03,99,1,03,1,03,1,00450,1,00,1,00,1",,"01,9",,"120,M,+0264,1","240,N,+0076,1","99999,9,08218,1","6,1,010,1,-001,1",,,"SYN112AAXX  11181 76373 32488 31003 10240 20098 38218 40132 56010 83300 91735 333 10264 20076 30/// 56600 59001 83910;","Q01  00002PRCP99"
"76373099999","2001-05-11T21:00:00","4","25.35","-105.75","1967.0","TEPEHUANES DGO., MX","FM-12","99999","V020","060,1,N,0030,1","22000,1,9,N","070000,1,N,1","+0276,1","+0107,1","10074,1","99,0000,9,1",,,,"04,1,+00300,9,09,9",,,,"04,99,1,04,1,03,1,00450,1,00,1,00,1",,"01,9",,,,"99999,9,08190,1","6,1,028,1,+999,9",,,"SYN100AAXX  11211 76373 32488 40603 10276 20107 38190 40074 56028 84300 92040 333 30/// 56600 58/// 84910;","Q01  00002PRCP99"
"76373099999","2001-05-14T15:00:00","4","25.35","-105.75","1967.0","TEPEHUANES DGO., MX","FM-12","99999","V020","300,1,N,0010,1","22000,1,9,N","070000,1,N,1","+0138,1","+0071,1","10207,1","24,0051,9,1",,,,"00,1,+99999,9,99,9",,,,"00,99,1,00,1,00,1,99999,9,00,1,00,1",,"09,9",,,,"99999,9,08260,1",,,,"SYN094AAXX  14151 76373 /2988 03001 10138 20071 38260 40207 5//// 60054 91440 333 31/// 58/// 60054;",
"76373099999","2001-05-14T18:00:00","4","25.35","-105.75","1967.0","TEPEHUANES DGO., MX","FM-12","99999","V020","110,1,N,0030,1","22000,1,9,N","070000,1,N,1","+0224,1","+0112,1","10179,1","99,0000,9,1",,,,,,,,"02,99,1,02,1,03,1,00450,1,00,1,00,1",,"01,9",,"120,M,+0242,1","240,N,+0062,1","99999,9,08249,1","6,1,011,1,+999,9",,,"SYN117AAXX  14181 76373 32488 21103 10224 20112 38249 40179 56011 82300 91740 333 10242 20062 30/// 56600 58/// 8291 94092;","Q01  00002PRCP99"
"76373099999","2001-05-14T21:00:00","4","25.35","-105.75","1967.0","TEPEHUANES DGO., MX","FM-12","99999","V020","260,1,N,0030,1","00300,1,9,N","070000,1,N,1","+0264,1","+0169,1","10125,1","99,0000,9,1",,,,"05,1,+00300,9,09,9",,,,"07,99,1,05,1,03,1,00450,1,03,1,00,1",,"01,9",,,,"99999,9,08224,1","6,1,025,1,+999,9",,,"SYN106AAXX  14211 76373 32488 72603 10264 20169 38224 40125 56025 85330 92046 333 30/// 56660 58/// 85910 82360;","Q01  00002PRCP99"
"76373099999","2001-05-15T15:00:00","4","25.35","-105.75","1967.0","TEPEHUANES DGO., MX","FM-12","99999","V020","300,1,N,0010,1","22000,1,9,N","060000,1,N,1","+0136,1","+0082,1","10212,1","99,0000,9,1",,,,"02,1,+06000,9,08,9",,,,"02,99,1,99,9,00,1,99999,9,00,1,08,1",,"09,9",,,,"99999,9,08253,1","0,1,000,1,-007,1",,,"SYN100AAXX  15151 76373 32986 23001 10136 20082 38253 40212 50000 80008 91445 333 31/// 56006 59007 82270;","Q01+000002SCOTLCQ02  00002PRCP99"
"76373099999","2001-05-15T21:00:00","4","25.35","-105.75","1967.0","TEPEHUANES DGO., MX","FM-12","99999","V020","070,1,N,0030,1","06000,1,9,N","070000,1,N,1","+0278,1","+0113,1","10118,1","99,0000,9,1",,,,"02,1,+00300,9,09,9","01,1,+00300,9,08,9","06,1,+06000,9,02,9",,"08,99,1,02,1,03,1,00450,1,00,1,08,1",,"01,9",,,,"99999,9,08215,1","6,1,026,1,-009,1",,,"SYN118AAXX  15211 76373 32488 80703 10278 20113 38215 40118 56026 82308 92040 333 30/// 56666 59009 82910 81810 86270 94092;","Q01  00002PRCP99"
"76373099999","2001-05-16T00:00:00","4","25.35","-105.75","1967.0","TEPEHUANES DGO., MX","FM-12","99999","V020","300,1,N,0070,1","00300,1,C,N","070000,1,N,1","+0219,1","+0100,1","10083,1","24,0000,9,1",,"2,1,06,1","2,1,06,1","07,1,+00300,9,07,9",,,,"08,99,1,07,1,06,1,00450,1,01,1,99,9",,"01,9",,"120,M,+0318,1","180,N,+0072,1","99999,9,08213,1","5,1,003,1,-025,1","16,1",,"SYN136AAXX  16001 76373 31488 83007 10219 20100 38213 40083 55003 71622 8761/ 92346 333 10318 20072 30/// 50380 5666/ 59025 79999 87710 81458;","Q01  00002PRCP24"
"76373099999","2001-05-16T12:00:00","4","25.35","-105.75","1967.0","TEPEHUANES DGO., MX","FM-12","99999","V020","310,1,N,0010,1","06000,1,9,N","000800,1,N,1","+0101,1","+0031,1","10144,1","24,0000,9,1",,,,"05,1,+06000,9,01,9",,,,"05,99,1,00,1,00,1,99999,9,00,1,04,1",,"01,9","999,+0060,9","999,M,+0318,1","120,N,+0076,1","99999,9,08222,1","2,1,002,1,-031,1",,,"SYN118AAXX  16121 76373 32908 53101 10101 20031 38222 40144 52002 80004 91137 333 10318 20076 30006 56006 59031 70000 85070;",
"76373099999","2001-05-16T18:00:00","4","25.35","-105.75","1967.0","TEPEHUANES DGO., MX","FM-12","99999","V020","150,1,N,0020,1","06000,1,9,N","070000,1,N,1","+0230,1","+0087,1","10179,1","99,0000,9,1",,,,"01,1,+00300,9,08,9","08,1,+06000,9,02,9",,,"08,99,1,01,1,01,1,00450,1,00,1,07,1",,"01,9",,"120,M,+0252,1","240,N,+0072,1","99999,9,08241,1","7,1,012,1,-008,1",,,"SYN124AAXX  15181 76373 32488 81502 10230 20087 38241 40179 57012 81107 91742 333 10252 20072 30/// 56606 59008 81810 88270 99020;","Q01  00002PRCP99"
"76373099999","2001-05-17T03:00:00","4","25.35","-105.75","1967.0","TEPEHUANES DGO., MX","FM-12","99999","V020","300,1,N,0040,1","00300,1,9,N","000800,1,N,1","+0220,1","+0132,1","10042,1","99,0000,9,1",,,,"08,1,+00300,9,09,9",,,,"99,99,9,08,1,09,1,00450,1,99,9,99,9",,"01,9",,,,"99999,9,08206,1","2,1,027,1,-022,1",,,"SYN100AAXX  17031 76373 32408 73004 10220 20132 38206 40042 52027 889// 90250 333 30/// 566// 59022 88910;","Q01+000072SCOTCVQ02  00002PRCP99"
"76373099999","2001-05-17T12:00:00","4","25.35","-105.75","1967.0","TEPEHUANES DGO., MX","FM-12","99999","V020","999,9,C,0000,1","06000,1,9,N","000800,1,N,1","+0118,1","+0057,1","10097,1","24,0000,9,1",,,,"05,1,+06000,9,08,9",,,,"05,99,1,99,9,00,1,99999,9,00,1,07,1",,"01,9","999,+0080,9","999,M,+0313,1","120,N,+0108,1","99999,9,08205,1","2,1,004,1,-017,1",,,"SYN118AAXX  17121 76373 32908 50000 10118 20057 38205 40097 52004 80007 91136 333 10313 20108 30008 56006 59017 70000 85270;","Q01+000002SCOTLC"
"76373099999","2001-05-17T15:00:00","4","25.35","-105.75","1967.0","TEPEHUANES DGO., MX","FM-12","99999","V020","999,9,C,0000,1","06000,1,9,N","070000,1,N,1","+0172,1","+0074,1","10129,1","99,0000,9,1",,,,"08,1,+06000,9,02,9",,,,"08,99,1,00,1,00,1,99999,9,00,1,07,1",,"01,9",,,,"99999,9,08217,1","7,1,016,1,-013,1",,,"SYN106AAXX  17151 76373 32988 80000 10172 20074 38217 40129 57016 80007 91448 333 30/// 56006 59013 88270 99020;","Q01  00002PRCP99"
"76373099999","2001-05-17T21:00:00","4","25.35","-105.75","1967.0","TEPEHUANES DGO., MX","FM-12","99999","V020","120,1,N,0020,1","03000,1,9,N","070000,1,N,1","+0278,1","+0125,1","10072,1","99,0000,9,1",,,,"08,1,+03000,9,01,9",,,,"08,99,1,08,1,00,1,01750,1,07,1,99,9",,"01,9",,,,"99999,9,08194,1","7,1,015,1,+026,1",,,"SYN100AAXX  17211 76373 32788 81202 10278 20125 38194 40072 57015 88070 92040 333 30/// 56060 58026 88460;","Q01+000002SCOHCGQ02  00002PRCP99"
"76373099999","2001-05-18T15:00:00","4","25.35","-105.75","1967.0","TEPEHUANES DGO., MX","FM-12","99999","V020","330,1,N,0020,1","09000,1,C,N","060000,1,N,1","+0192,1","+0091,1","10123,1","99,0000,9,1",,,,"03,1,+03000,9,03,9",,,,"08,99,1,03,1,00,1,01750,1,03,1,08,1",,"01,9",,,,"99999,9,08225,1","9,9,999,9,+008,1",,,"SYN106AAXX  18151 76373 32786 83302 10192 20091 38225 40123 5//// 83038 91440 333 30/// 56066 58008 83360 86270;","Q01  00002PRCP99"
"76373099999","2001-05-18T18:00:00","4","25.35","-105.75","1967.0","TEPEHUANES DGO., MX","FM-12","99999","V020","060,1,N,0020,1","03000,1,9,N","070000,1,N,1","+0282,1","+0162,1","10092,1","99,0000,9,1",,,,"02,1,+00300,9,08,9","04,1,+03000,9,03,9",,,"08,99,1,02,1,01,1,00450,1,03,1,06,1",,"01,9",,"120,M,+0292,1","240,N,+0140,1","99999,9,08209,1","6,1,016,1,+000,1",,,"SYN124AAXX  18181 76373 32488 80602 10282 20162 38209 40092 56016 82136 91740 333 10292 20140 30/// 56666 58000 82810 84360 83070;","Q01  00002PRCP99"
"76373099999","2001-05-18T21:00:00","4","25.35","-105.75","1967.0","TEPEHUANES DGO., MX","FM-12","99999","V020","240,1,N,0040,1","00300,1,9,N","070000,1,N,1","+0298,1","+0188,1","10051,1","99,0000,9,1",,,,"05,1,+00300,9,08,9","02,1,+03000,9,03,9",,,"08,99,1,05,1,02,1,00450,1,03,1,06,1",,"01,9",,,,"99999,9,08194,1","6,1,015,1,+000,1",,,"SYN112AAXX  18211 76373 32488 82404 10298 20188 38194 40051 56015 85236 92040 333 30/// 56676 58000 85810 82360 82070;","Q01  00002PRCP99"
"76373099999","2001-05-21T15:00:00","4","25.35","-105.75","1967.0","TEPEHUANES DGO., MX","FM-12","99999","V020","330,1,N,0010,1","22000,1,9,N","070000,1,N,1","+0150,1","+0041,1","10113,1","99,0000,9,1",,,,"01,1,+06000,9,01,9",,,,"01,99,1,00,1,00,1,99999,9,00,1,05,1",,"01,9",,,,"99999,9,08206,1",,,,"SYN100AAXX  21151 76373 32988 13301 10150 20041 38206 40113 5//// 80005 91435 333 30/// 56006 58/// 81070;","Q01  00002PRCP99"
"76373099999","2001-05-21T21:00:00","4","25.35","-105.75","1967.0","TEPEHUANES DGO., MX","FM-12","99999","V020","060,1,N,0020,1","22000,1,9,N","070000,1,N,1","+0268,1","+0084,1","10053,1","99,0000,9,1",,,,"01,1,+00300,9,02,9",,,,"01,99,1,01,1,01,1,00450,1,00,1,00,1",,"01,9",,,,"99999,9,08174,1","7,1,025,1,+999,9",,,"SYN100AAXX  21211 76373 32488 10602 10268 20084 38174 40053 57025 81100 92040 333 30/// 56600 58/// 81810;","Q01  00002PRCP99"
"76373099999","2001-05-22T00:00:00","4","25.35","-105.75","1967.0","TEPEHUANES DGO., MX","FM-12","99999","V020","280,1,N,0030,1","22000,1,9,N","070000,1,N,1","+0306,1","+0144,1","10009,1","24,0000,9,1",,,,,,,,"01,99,1,01,1,01,1,00450,1,00,1,00,1",,"01,9",,"120,M,+0328,1","180,N,+0060,1","99999,9,08163,1","7,1,011,1,+999,9",,,"SYN124AAXX  22001 76373 32488 12803 10306 20144 38163 40009 57011 81100 92342 333 10328 20060 30/// 50650 56600 58/// 70000 81810;","Q01  00002PRCP99Q02  00003PRCP99"
"76373099999","2001-05-22T18:00:00","4","25.35","-105.75","1967.0","TEPEHUANES DGO., MX","FM-12","99999","V020","120,1,N,0030,1","22000,1,9,N","070000,1,N,1","+0250,1","+0099,1","10125,1","99,0000,9,1",,,,"01,1,+00300,9,02,9",,,,"01,99,1,01,1,01,1,00450,1,00,1,00,1",,"01,9",,"120,M,+0274,1","240,N,+0076,1","99999,9,08210,1","8,1,007,1,+011,1",,,"SYN111AAXX  22181 76373 32488 11203 10250 20099 38210 40125 5800781100 91740 333 10274 20076 30/// 56600 58011 81810;","Q01  00002PRCP99"
"76373099999","2001-05-22T21:00:00","4","25.35","-105.75","1967.0","TEPEHUANES DGO., MX","FM-12","99999","V020","090,1,N,0040,1","22000,1,9,N","070000,1,N,1","+0290,1","+0141,1","10069,1","99,0000,9,1",,,,"01,1,+00300,9,08,9","02,1,+00300,9,03,9",,,"03,99,1,02,1,03,1,00450,1,00,1,00,1",,"01,9",,,,"99999,9,08185,1","6,1,025,1,+011,1",,,"SYN112AAXX  22210 76373 32488 30904 10290 20141 38185 40069 56025 82300 92040 333 30/// 56600 58011 81810 82310 84092;","Q01  00002PRCP99"
"76373099999","2001-05-23T00:00:00","4","25.35","-105.75","1967.0","TEPEHUANES DGO., MX","FM-12","99999","V020","310,1,N,0020,1","22000,1,9,N","070000,1,N,1","+0316,1","+0088,1","10005,2","24,0000,9,1",,,,,,,,"04,99,1,04,1,03,1,00450,1,00,1,00,1",,"01,9",,"120,M,+0331,1","180,N,+0076,1","99999,9,08154,1","2,1,021,1,+001,1",,,"SYN124AAXX  23001 76373 32488 43102 10316 20088 38154 40005 52021 84300 92340 333 10331 20076 30/// 50750 56600 58001 70000 84910;","Q01+100053APOSLPQ02  00002PRCP99Q03  00003PRCP99"
"76373099999","2001-05-23T12:00:00","4","25.35","-105.75","1967.0","TEPEHUANES DGO., MX","FM-12","99999","V020","310,1,N,0010,1","22000,1,9,N","000800,1,N,1","+0108,1","+0042,1","10134,1","24,0007,9,1",,,,"00,1,+99999,9,99,9",,,,"00,99,1,00,1,00,1,99999,9,00,1,00,1",,"01,9","999,+0060,9","999,M,+0331,1","120,N,+0096,1","99999,9,08222,1","2,1,003,1,+016,1",,,"SYN100AAXX  23121 76373 32908 03101 10108 20042 38222 40134 52003 91140 333 10331 20096 30006 58016 79999;",
"76373099999","2001-05-23T15:00:00","4","25.35","-105.75","1967.0","TEPEHUANES DGO., MX","FM-12","99999","V020","310,1,N,0010,1","22000,1,9,N","060000,1,N,1","+0168,1","+0066,1","10153,1","99,0000,9,1",,,,"00,1,+99999,9,99,9",,,,"00,99,1,00,1,00,1,99999,9,00,1,00,1",,"01,9",,,,"99999,9,08227,1","2,1,005,1,+010,1",,,"SYN082AAXX  23151 76373 32986 03101 10168 20066 38227 40153 52005 91443 333 30/// 58010;","Q01  00002PRCP99"
"76373099999","2001-05-23T21:00:00","4","25.35","-105.75","1967.0","TEPEHUANES DGO., MX","FM-12","99999","V020","150,1,N,0030,1","00300,1,9,N","070000,1,N,1","+0311,1","+0082,1","10065,1","99,0000,9,1",,,,"05,1,+00300,9,09,9",,,,"05,99,1,05,1,03,1,00450,1,00,1,00,1",,"01,9",,,,"99999,9,08190,1","7,1,028,1,+005,1",,,"SYN100AAXX  23211 76373 32488 51503 10311 20082 38190 40065 57028 85300 92035 333 30/// 56600 58005 85910;","Q01  00002PRCP99"
"76373099999","2001-05-24T00:00:00","4","25.35","-105.75","1967.0","TEPEHUANES DGO., MX","FM-12","99999","V020","300,1,N,0040,1","00420,1,9,N","070000,1,N,1","+0223,1","+0083,1","10046,1","03,9999,9,9",,"5,1,06,1","2,1,06,1",,,,,"08,99,1,07,1,06,1,00450,1,02,1,99,9",,"01,9",,"120,M,+0323,1","180,N,+0092,1","99999,9,08195,1","2,1,005,1,+031,1","15,1",,"SYN136AAXX  24001 76373 /1488 83004 10223 20083 38195 40046 52005 69907 71552 8762/ 92350 333 10323 20092 30/// 50910 5666/ 58031 69907 79999;","Q01  99992PRCP03"
"76373099999","2001-05-24T03:00:00","4","25.35","-105.75","1967.0","TEPEHUANES DGO., MX","FM-12","99999","V020","220,1,N,0020,1","22000,1,9,N","000800,1,N,1","+0141,1","+0063,1","10051,1","99,0000,9,1",,,,"00,1,+99999,9,99,9",,,,"00,99,1,00,1,00,1,99999,9,00,1,00,1",,"01,9",,,,"99999,9,08209,1","2,1,014,1,-010,1",,,"SYN082AAXX  24031 76373 32908 02202 10141 20063 38209 40051 52014 90247 333 30/// 59010;","Q01  00002PRCP99"
"76373099999","2001-05-24T21:00:00","4","25.35","-105.75","1967.0","TEPEHUANES DGO., MX","FM-12","99999","V020","280,1,N,0040,1","00300,1,9,N","070000,1,N,1","+0266,1","+0079,1","10090,1","03,0002,9,1",,"9,1,03,1","5,1,03,1","05,1,+00300,9,09,9",,,,"07,99,1,05,1,03,1,00450,1,00,1,00,1",,"01,9",,,,"99999,9,08209,1","6,1,012,1,+019,1","16,1",,"SYN124AAXX  24211 76373 /1488 72804 10266 20079 38209 40090 56012 69927 71695 85300 92040 333 30/// 56600 58019 69927 85910 82810;",
"76373099999","2001-05-25T15:00:00","4","25.35","-105.75","1967.0","TEPEHUANES DGO., MX","FM-12","99999","V020","330,1,N,0020,1","22000,1,9,N","070000,1,N,1","+0168,1","+0068,1","10158,1","99,0000,9,1",,,,"00,1,+99999,9,99,9",,,,"00,99,1,00,1,00,1,99999,9,00,1,00,1",,"01,9",,,,"99999,9,08234,1","9,9,999,9,-033,1",,,"SYN082AAXX  25151 76373 32988 03302 10168 20068 38234 40158 5//// 91440 333 30/// 59033;","Q01  00002PRCP99"
"76373099999","2001-05-25T18:00:00","4","25.35","-105.75","1967.0","TEPEHUANES DGO., MX","FM-12","99999","V020","150,1,N,0040,1","22000,1,9,N","070000,1,N,1","+0284,1","+0118,1","10127,1","99,0000,9,1",,,,"03,1,+00300,9,02,9",,,,"03,99,1,03,1,01,1,00450,1,00,1,00,1",,"01,9",,"120,M,+0310,1","240,N,+0080,1","99999,9,08219,1","6,1,015,1,-002,1",,,"SYN112AAXX  25181 76373 32488 31504 10284 20118 38219 40127 56015 83100 91740 333 10310 20080 30/// 56600 59002 83810;","Q01  00002PRCP99"
"76373099999","2001-05-25T21:00:00","4","25.35","-105.75","1967.0","TEPEHUANES DGO., MX","FM-12","99999","V020","240,1,N,0020,1","00300,1,9,N","070000,1,N,1","+0322,1","+0138,1","10069,1","99,0000,9,1",,,,"05,1,+00300,9,02,9",,,,"05,99,1,05,1,01,1,00450,1,00,1,00,1",,"01,9",,,,"99999,9,10201,2","6,1,018,1,+008,1",,,"SYN100AAXX  25211 76373 32488 52402 10322 20138 30201 40069 56018 85100 92040 333 30/// 56600 58008 85810;","Q01+102013APOSP Q02  00002PRCP99"
"76373099999","2001-05-28T15:00:00","4","25.35","-105.75","1967.0","TEPEHUANES DGO., MX","FM-12","99999","V020","999,9,C,0000,1","22000,1,9,N","070000,1,N,1","+0204,1","+0102,1","10066,1","99,0000,9,1",,,,"00,1,+99999,9,99,9",,,,"00,99,1,00,1,00,1,99999,9,00,1,00,1",,"01,9",,,,"99999,9,08196,1",,,,"SYN082AAXX  28151 76373 32988 00000 10204 20102 38196 40066 5//// 91440 333 30/// 58///;","Q01  00002PRCP99"
"76373099999","2001-05-28T18:00:00","4","25.35","-105.75","1967.0","TEPEHUANES DGO., MX","FM-12","99999","V020","060,1,N,0020,1","22000,1,C,N","070000,1,N,1","+0302,1","+0138,1","10046,1","99,0000,9,1",,,,"02,1,+00300,9,08,9",,,,"06,99,1,02,1,01,1,00450,1,00,1,06,1",,"01,9",,"120,M,+0328,1","240,N,+0137,1","99999,9,08184,1","6,1,012,1,+999,9",,,"SYN118AAXX  28181 76373 32488 60602 10302 20138 38184 40046 56012 82106 91740 333 10328 20137 30/// 56606 58/// 82810 84070;","Q01  00002PRCP99"
"76373099999","2001-05-28T21:00:00","4","25.35","-105.75","1967.0","TEPEHUANES DGO., MX","FM-12","99999","V020","120,1,N,0040,1","06000,1,9,N","070000,1,N,1","+0338,1","+0137,1","10000,1","99,0000,9,1",,,,"02,1,+00300,9,08,9","08,1,+06000,9,02,9",,,"08,99,1,02,1,01,1,00450,1,00,1,07,1",,"01,9",,,,"99999,9,08162,1","6,1,022,1,+999,9",,,"SYN112AAXX  28211 76373 32488 81204 10338 20137 38162 40000 56022 82107 92040 333 30/// 56606 58/// 82810 88270 99020;","Q01  00002PRCP99"
"76373099999","2001-05-29T18:00:00","4","25.35","-105.75","1967.0","TEPEHUANES DGO., MX","FM-12","99999","V020","120,1,N,0030,1","22000,1,9,N","070000,1,N,1","+0294,1","+0139,1","10069,1","99,0000,9,1",,,,"01,1,+00300,9,02,9",,,,"01,99,1,01,1,01,1,00450,1,00,1,00,1",,"01,9",,"120,M,+0322,1","240,N,+0118,1","99999,9,08195,1","6,1,008,1,+011,1",,,"SYN112AAXX  29181 76373 32488 11203 10294 20139 38195 40069 56008 81100 91740 333 10322 20118 30/// 56600 58011 81810;","Q01  00002PRCP99"
"76373099999","2001-05-29T21:00:00","4","25.35","-105.75","1967.0","TEPEHUANES DGO., MX","FM-12","99999","V020","090,1,N,0030,1","22000,1,9,N","070000,1,N,1","+0334,1","+0124,1","10012,1","99,0000,9,1",,,,"04,1,+00300,9,02,9",,,,"04,99,1,04,1,01,1,00450,1,00,1,00,1",,"01,9",,,,"99999,9,08168,1","6,1,027,1,+006,1",,,"SYN100AAXX  29211 76373 32488 40903 10334 20124 38168 40012 56027 84100 92040 333 30/// 56500 58006 84810;","Q01  00002PRCP99"
"76373099999","2001-05-30T03:00:00","4","25.35","-105.75","1967.0","TEPEHUANES DGO., MX","FM-12","99999","V020","310,1,N,0040,1","22000,1,9,N","000800,1,N,1","+0258,1","+0125,1","09986,1","99,0000,9,1",,,,"01,1,+02400,9,07,9",,,,"01,99,1,01,1,99,9,01750,1,06,1,00,1",,"01,9",,,,"99999,9,08184,1","2,1,028,1,-015,1",,,"SYN100AAXX  30031 76373 32708 13104 10258 20125 38184 49986 52028 81060 90256 333 30/// 56060 59015 81358;","Q01  00002PRCP99Q02    003SCOLCG"
"76373099999","2001-05-30T15:00:00","4","25.35","-105.75","1967.0","TEPEHUANES DGO., MX","FM-12","99999","V020","360,1,N,0010,1","22000,1,9,N","060000,1,N,1","+0206,1","+0109,1","10104,1","99,0000,9,1",,,,"01,1,+06000,9,01,9",,,,"01,99,1,00,1,00,1,99999,9,00,1,05,1",,"01,9",,,,"99999,9,08215,1","2,1,010,1,+012,1",,,"SYN100AAXX  30151 76373 32986 13601 10206 20109 38215 40104 52010 80005 91446 333 30/// 56006 58012 81070;","Q01  00002PRCP99"
"76373099999","2001-05-30T18:00:00","4","25.35","-105.75","1967.0","TEPEHUANES DGO., MX","FM-12","99999","V020","120,1,N,0030,1","22000,1,9,N","070000,1,N,1","+0290,1","+0102,1","10066,1","99,0000,9,1",,,,"00,1,+99999,9,99,9",,,,"00,99,1,00,1,00,1,99999,9,00,1,00,1",,"01,9",,"120,M,+0320,1","240,N,+0136,1","99999,9,08201,1","6,1,014,1,+006,1",,,"SYN094AAXX  30181 76373 32988 01203 10290 20102 38201 40066 56014 91740 333 10320 20136 30/// 58006;","Q01  00002PRCP99"
"76373099999","2001-05-30T21:00:00","4","25.35","-105.75","1967.0","TEPEHUANES DGO., MX","FM-12","99999","V020","160,1,N,0020,1","22000,1,9,N","070000,1,N,1","+0344,1","+0118,1","10028,1","99,0000,9,1",,,,"01,1,+00300,9,02,9",,,,"01,99,1,01,1,01,1,00450,1,00,1,00,1",,"01,9",,,,"99999,9,08183,1","7,1,018,1,+015,1",,,"SYN100AAXX  30211 76373 32488 11602 10344 20118 38183 40028 57018 81100 92036 333 30/// 56600 58015 81810;","Q01  00002PRCP99"
"76373099999","2001-05-31T00:00:00","4","25.35","-105.75","1967.0","TEPEHUANES DGO., MX","FM-12","99999","V020","160,1,N,0030,1","22000,1,9,N","070000,1,N,1","+0327,1","+0160,1","09979,1","24,0000,9,1",,,,"02,1,+00300,9,06,9",,,,"05,99,1,02,1,04,1,00450,1,00,1,08,1",,"01,9",,"120,M,+0366,1","180,N,+0136,1","99999,9,08167,1","5,1,016,1,+011,1",,,"SYN130AAXX  31001 76373 32488 51603 10327 20160 38167 49979 55016 82408 92340 333 10366 20136 30/// 50950 56606 58011 79999 82610 83270;","Q01  00002PRCP24"
"76373099999","2001-05-31T12:00:00","4","25.35","-105.75","1967.0","TEPEHUANES DGO., MX","FM-12","99999","V020","999,9,C,0000,1","22000,1,9,N","000800,1,N,1","+0128,1","+0025,1","10074,1","24,0000,9,1",,,,"01,1,+02400,9,07,9",,,,"01,99,1,01,1,99,9,01750,1,03,1,00,1",,"01,9","999,+0090,9","999,M,+0364,1","120,N,+0116,1","99999,9,08205,1","2,1,003,1,+000,1",,,"SYN118AAXX  31121 76373 32708 10000 10128 20025 38205 40074 52003 81030 91137 333 10364 20116 30009 56060 58000 70000 81358;","Q01    003SCOLCG"
"76373099999","2001-05-31T15:00:00","4","25.35","-105.75","1967.0","TEPEHUANES DGO., MX","FM-12","99999","V020","090,1,N,0010,1","22000,1,9,N","070000,1,N,1","+0200,1","+0075,1","10102,1","99,0000,9,1",,,,"01,1,+03000,9,07,9",,,,"01,99,1,01,1,00,1,01750,1,03,1,00,1",,"01,9",,,,"99999,9,08212,1","2,1,007,1,-003,1",,,"SYN100AAXX  31151 76373 32788 10901 10200 20075 38212 40102 52007 81030 91440 333 30/// 56060 59003 81360;","Q01  00002PRCP99"
"76373099999","2001-05-31T18:00:00","4","25.35","-105.75","1967.0","TEPEHUANES DGO., MX","FM-12","99999","V020","090,1,N,0030,1","22000,1,9,N","070000,1,N,1","+0308,1","+0142,1","10079,1","99,0000,9,1",,,,"02,1,+00300,9,02,9",,,,"02,99,1,02,1,01,1,00450,1,00,1,00,1",,"01,9",,"120,M,+0328,1","240,N,+0108,1","99999,9,08197,1","6,1,015,1,-004,1",,,"SYN112AAXX  31181 76373 32488 20903 10308 20142 38197 40079 56015 82100 91746 333 10328 20108 30/// 56600 59004 82810;","Q01  00002PRCP99"
"76373099999","2001-05-31T21:00:00","4","25.35","-105.75","1967.0","TEPEHUANES DGO., MX","FM-12","99999","V020","140,1,N,0030,1","00300,1,C,N","070000,1,N,1","+0332,1","+0159,1","10028,1","99,0000,9,1",,,,"03,1,+00300,9,09,9","02,1,+00300,9,08,9","01,1,+03000,9,03,9",,"06,99,1,03,1,03,1,00450,1,03,1,00,1",,"01,9",,,,"99999,9,08176,1","6,1,021,1,-007,1",,,"SYN118AAXX  31211 76373 32488 61403 10332 20159 38176 40028 56021 83330 92036 333 30/// 56660 59007 83910 82810 81360 94092;","Q01  00002PRCP99"
"76373099999","2001-06-01T15:00:00","4","25.35","-105.75","1967.0","TEPEHUANES DGO., MX","FM-12","99999","V020","330,1,N,0010,1","03000,1,9,N","070000,1,N,1","+0174,1","+0080,1","10134,1","99,0000,9,1",,,,"06,1,+03000,9,07,9",,,,"06,99,1,06,1,00,1,01750,1,03,1,00,1",,"01,9",,,,"99999,9,08233,1","9,9,999,9,+021,1",,,"SYN100AAXX  01151 76373 32788 63301 10174 20080 38233 40134 5//// 86030 91440 333 30/// 56060 58021 86360;","Q01  00002PRCP99"
"76373099999","2001-06-04T15:00:00","4","25.35","-105.75","1967.0","TEPEHUANES DGO., MX","FM-12","99999","V020","330,1,N,0010,1","22000,1,9,N","070000,1,N,1","+0186,1","+0088,1","10069,1","99,0000,9,1",,,,"03,1,+03000,9,07,9",,,,"03,99,1,03,1,00,1,01750,1,03,1,00,1","0360,9","01,9",,,,"99999,9,08186,1",,,,"SYN100AAXX  04151 76373 32788 33301 10186 20088 38186 40069 5//// 83030 91440 333 30/// 55060 58/// 83360;","Q01  00002PRCP99"
"76373099999","2001-06-04T18:00:00","4","25.35","-105.75","1967.0","TEPEHUANES DGO., MX","FM-12","99999","V020","090,1,N,0030,1","22000,1,9,N","070000,1,N,1","+0288,1","+0107,1","10046,1","99,0000,9,1",,,,"01,1,+00300,9,09,9","01,1,+00300,9,08,9",,,"03,99,1,01,1,03,1,00450,1,03,1,00,1",,"01,9",,"120,M,+0308,1","240,N,+0126,1","99999,9,08176,1","6,1,010,1,+999,9",,,"SYN124AAXX  04181 76373 32488 30903 10288 20107 38176 40046 56010 81330 91740 333 10308 20126 30/// 56550 58/// 81810 81910 81360;","Q01  00002PRCP99"
"76373099999","2001-06-04T21:00:00","4","25.35","-105.75","1967.0","TEPEHUANES DGO., MX","FM-12","99999","V020","270,1,N,0070,1","22000,1,9,N","070000,1,N,1","+0306,1","+0132,1","09998,1","99,0000,9,1",,,,"02,1,+00300,9,09,9","02,1,+00300,9,08,9",,,"04,99,1,02,1,03,1,00450,1,00,1,00,1",,"01,9",,,,"99999,9,08153,1","6,1,023,1,+999,9",,,"SYN112AAXX  04210 76373 32488 42707 10306 20132 38153 49998 56023 82300 92040 333 30/// 56600 58/// 82910 82810 94092;","Q01  00002PRCP99"
"76373099999","2001-06-05T00:00:00","4","25.35","-105.75","1967.0","TEPEHUANES DGO., MX","FM-12","99999","V020","350,1,N,0050,1","00300,1,C,N","070000,1,N,1","+0286,1","+0110,1","09963,1","24,0000,9,1",,,,"05,1,+00300,9,09,9",,,,"07,99,1,05,1,09,1,00450,1,03,1,00,1",,"01,9",,"120,M,+0348,1","180,N,+0226,1","99999,9,08143,1","5,1,010,1,+999,9",,,"SYN130AAXX  05001 76373 32488 73505 10286 20110 38143 49963 55010 85930 92344 333 10348 20226 30/// 50560 56670 58/// 79999 85910 82358;","Q01  00002PRCP24"
"76373099999","2001-06-05T03:00:00","4","25.35","-105.75","1967.0","TEPEHUANES DGO., MX","FM-12","99999","V020","310,1,N,0010,1","22000,1,9,N","000800,1,N,1","+0192,1","+0120,1","10000,1","03,0010,9,1",,"0,1,03,1","5,1,03,1","02,1,+00300,9,09,9","01,1,+02400,9,03,9",,,"04,99,1,02,1,09,1,00450,1,06,1,04,1",,"09,9",,,,"99999,9,08177,1","2,1,034,1,+999,9","15,1",,"SYN124AAXX  05031 76373 11408 43101 10192 20120 38177 40000 52034 60017 71575 82964 90250 333 31/// 56666 58/// 82910 81358 81070;","Q01+000072PSTWM1"
"76373099999","2001-06-05T15:00:00","4","25.35","-105.75","1967.0","TEPEHUANES DGO., MX","FM-12","99999","V020","290,1,N,0030,1","22000,1,9,N","060000,1,N,1","+0196,1","+0124,1","10102,1","99,0000,9,1",,,,"01,1,+00300,9,02,9",,,,"01,99,1,01,1,01,1,00450,1,00,1,00,1",,"01,9",,,,"99999,9,08199,1","2,1,005,1,+013,1",,,"SYN100AAXX  05151 76373 32486 12903 10196 20124 38199 40102 52005 81100 91445 333 30/// 56600 58013 81810;","Q01  00002PRCP99"
"76373099999","2001-06-05T18:00:00","4","25.35","-105.75","1967.0","TEPEHUANES DGO., MX","FM-12","99999","V020","260,1,N,0030,1","22000,1,9,N","070000,1,N,1","+0290,1","+0114,1","10099,1","99,0000,9,1",,,,"02,1,+00300,9,09,9",,,,"02,99,1,02,1,03,1,00450,1,00,1,00,1",,"01,9",,"120,M,+0302,1","240,N,+0122,1","99999,9,08193,1","6,1,006,1,+017,1",,,"SYN112AAXX  05181 76373 32488 22603 10290 20114 38193 40099 56006 82300 91740 333 10302 20122 30/// 56600 58017 82910;","Q01  00002PRCP99"
"76373099999","2001-06-05T21:00:00","4","25.35","-105.75","1967.0","TEPEHUANES DGO., MX","FM-12","99999","V020","120,1,N,0030,1","22000,1,9,N","070000,1,N,1","+0316,1","+0114,1","10044,1","99,0000,9,1",,,,"01,1,+00300,9,09,9","02,1,+00300,9,08,9",,,"04,99,1,02,1,01,1,00450,1,03,1,00,1",,"01,9",,,,"99999,9,08170,1","6,1,023,1,+017,1",,,"SYN112AAXX  05211 76373 32488 41203 10316 20114 38170 40044 56023 82130 92040 333 30/// 56660 58017 82810 81910 81360;","Q01  00002PRCP99"
"76373099999","2001-06-06T03:00:00","4","25.35","-105.75","1967.0","TEPEHUANES DGO., MX","FM-12","99999","V020","300,1,N,0010,1","00300,1,9,N","000800,1,N,1","+0232,1","+0085,1","10002,1","99,0000,9,1",,,,"06,1,+00300,9,07,9",,,,"08,99,1,06,1,06,1,00450,1,02,1,00,1",,"01,9",,,,"99999,9,08182,1","2,1,021,1,+005,1",,,"SYN106AAXX  06031 76373 32408 83001 10232 20085 38182 40002 52021 86620 90245 333 30/// 56660 58005 86710 82458;","Q01  00002PRCP99"
"76373099999","2001-06-06T12:00:00","4","25.35","-105.75","1967.0","TEPEHUANES DGO., MX","FM-12","99999","V020","999,9,C,0000,1","22000,1,9,N","000800,1,N,1","+0130,1","+0067,1","10088,1","24,0007,9,1",,,,"00,1,+99999,9,99,9",,,,"00,99,1,00,1,00,1,99999,9,00,1,00,1",,"01,9","999,+0090,9","999,M,+0358,1","120,N,+0118,1","99999,9,08203,1","2,1,003,1,+009,1",,,"SYN100AAXX  06121 76373 32908 00000 10130 20067 38203 40088 52003 91138 333 10358 20118 30009 58009 79999;",
"76373099999","2001-06-06T15:00:00","4","25.35","-105.75","1967.0","TEPEHUANES DGO., MX","FM-12","99999","V020","110,1,N,0010,1","22000,1,9,N","060000,1,N,1","+0191,1","+0103,1","10118,1","99,0000,9,1",,,,"00,1,+99999,9,99,9",,,,"00,99,1,00,1,00,1,99999,9,00,1,00,1",,"01,9",,,,"99999,9,08216,1","2,1,013,1,+017,1",,,"SYN082AAXX  06151 76373 32986 01101 10191 20103 38216 40118 52013 91440 333 30/// 58017;","Q01  00002PRCP99"
"76373099999","2001-06-06T21:00:00","4","25.35","-105.75","1967.0","TEPEHUANES DGO., MX","FM-12","99999","V020","120,1,N,0010,1","22000,1,9,N","070000,1,N,1","+0335,1","+0112,1","10046,1","99,0000,9,1",,,,"04,1,+00300,9,09,9",,,,"04,99,1,04,1,03,1,00450,1,00,1,00,1",,"01,9",,,,"99999,9,08188,1","7,1,018,1,+018,1",,,"SYN100AAXX  06211 76373 32488 41201 10335 20112 38188 40046 57018 84300 92036 333 30/// 56600 58018 84910;","Q01  00002PRCP99"
"76373099999","2001-06-07T00:00:00","4","25.35","-105.75","1967.0","TEPEHUANES DGO., MX","FM-12","99999","V020","120,1,N,0040,1","00300,1,C,N","070000,1,N,1","+0303,1","+0109,1","10000,1","24,0000,9,1",,,,"07,1,+00300,9,09,9",,,,"08,99,1,07,1,03,1,00450,1,01,1,00,1",,"01,9",,"120,M,+0356,1","180,N,+0112,1","99999,9,08165,1","5,1,013,1,+014,1",,,"SYN130AAXX  07001 76373 32488 81204 10303 20109 38165 40000 55013 87310 92344 333 10356 20112 30/// 50870 56660 58014 79999 87910 81458;","Q01  00002PRCP24"
"76373099999","2001-06-07T12:00:00","4","25.35","-105.75","1967.0","TEPEHUANES DGO., MX","FM-12","99999","V020","270,1,N,0010,1","22000,1,9,N","000800,1,N,1","+0130,1","+0059,1","10097,1","24,0003,9,1",,,,"00,1,+99999,9,99,9",,,,"00,99,1,00,1,00,1,99999,9,00,1,00,1",,"01,9","999,+0090,9","999,M,+0356,1","120,N,+0120,1","99999,9,08207,1","0,1,000,1,+004,1",,,"SYN100AAXX  07121 76373 32908 02701 10130 20059 38207 40097 50000 91137 333 10356 20120 30009 58004 70003;",
"76373099999","2001-06-07T15:00:00","4","25.35","-105.75","1967.0","TEPEHUANES DGO., MX","FM-12","99999","V020","300,1,N,0020,1","22000,1,9,N","070000,1,N,1","+0198,1","+0065,1","10123,1","99,0000,9,1",,,,"00,1,+99999,9,99,9",,,,"00,99,1,00,1,00,1,99999,9,00,1,00,1",,"01,9",,,,"99999,9,08217,1","1,1,010,1,+001,1",,,"SYN082AAXX  07151 76373 32988 03002 10198 20065 38217 40123 51010 91440 333 30/// 58001;","Q01  00002PRCP99"
"76373099999","2001-06-07T21:00:00","4","25.35","-105.75","1967.0","TEPEHUANES DGO., MX","FM-12","99999","V020","150,1,N,0070,1","22000,1,9,N","070000,1,N,1","+0336,1","+0179,1","10055,1","99,0000,9,1",,,,"03,1,+00300,9,08,9",,,,"04,99,1,03,1,02,1,00450,1,00,1,00,1",,"01,9",,,,"99999,9,08184,1","6,1,023,1,+009,1",,,"SYN106AAXX  07211 76373 32488 41507 10336 20179 38184 40055 56023 83200 92046 333 30/// 56200 58009 83810 81910;","Q01  00002PRCP99"
"76373099999","2001-06-08T15:00:00","4","25.35","-105.75","1967.0","TEPEHUANES DGO., MX","FM-12","99999","V020","060,1,N,0010,1","22000,1,9,N","070000,1,N,1","+0202,1","+0108,1","10106,1","99,0000,9,1",,,,"01,1,+03000,9,07,9",,,,"01,99,1,01,1,00,1,01750,1,03,1,00,1",,"01,9",,,,"99999,9,08219,1","9,9,999,9,+002,1",,,"SYN100AAXX  08151 76373 32788 10601 10202 20108 38219 40106 5//// 81030 91440 333 30/// 56070 58002 81360;","Q01  00002PRCP99"
"76373099999","2001-06-08T18:00:00","4","25.35","-105.75","1967.0","TEPEHUANES DGO., MX","FM-12","99999","V020","150,1,N,0040,1","22000,1,9,N","070000,1,N,1","+0290,1","+0158,1","10090,1","99,0000,9,1",,,,"02,1,+00300,9,08,9",,,,"03,99,1,02,1,01,1,00450,1,00,1,00,1",,"01,9",,"120,M,+0310,1","240,N,+0122,1","99999,9,08211,1","6,1,008,1,-004,1",,,"SYN118AAXX  08181 76373 32488 31504 10290 20158 38211 40090 56008 82100 91742 333 10310 20122 30/// 56700 59004 82810 82910;","Q01  00002PRCP99"
"76373099999","2001-06-08T21:00:00","4","25.35","-105.75","1967.0","TEPEHUANES DGO., MX","FM-12","99999","V020","090,1,N,0040,1","99999,9,9,N","070000,1,N,1","+0296,1","+0179,1","10034,1","02,9999,2,9",,"5,1,03,1","5,1,03,1","04,1,+00300,9,08,9",,,,"06,99,1,04,1,07,1,00450,1,00,1,00,1",,"01,9",,,,"99999,9,08179,1","6,1,032,1,-027,1","50,1",,"SYN124AAXX  08211 76373 /1488 60904 10296 20179 38179 40034 56032 69906 75055 84700 92050 333 30/// 56700 59027 69906 84810 82910;",
"76373099999","2001-06-11T18:00:00","4","25.35","-105.75","1967.0","TEPEHUANES DGO., MX","FM-12","99999","V020","120,1,N,0020,1","22000,1,9,N","070000,1,N,1","+0298,1","+0137,1","10079,1","99,0000,9,1",,,,"02,1,+00300,9,09,9",,,,"03,99,1,02,1,03,1,00450,1,03,1,00,1",,"01,9",,"120,M,+0322,1","240,N,+0150,1","99999,9,08209,1","6,1,014,1,+999,9",,,"SYN118AAXX  11181 76373 32488 31202 10298 20137 38209 40079 56014 82330 91748 333 10322 20150 30/// 56770 58/// 82910 81360;","Q01  00002PRCP99"
"76373099999","2001-06-11T21:00:00","4","25.35","-105.75","1967.0","TEPEHUANES DGO., MX","FM-12","99999","V020","280,1,N,0070,1","99999,9,9,N","070000,1,N,1","+0282,1","+0112,1","10051,1","99,0000,9,1",,,,"04,1,+00300,9,06,9",,,,"07,99,1,04,1,06,1,00450,1,00,1,00,1",,"01,9",,,,"99999,9,08199,1","2,1,010,1,+999,9",,,"SYN106AAXX  11211 76373 32488 72807 10282 20112 38199 40051 52010 84600 92035 333 30/// 56700 58/// 84610 83910;","Q01  00002PRCP99"
"76373099999","2001-06-12T03:00:00","4","25.35","-105.75","1967.0","TEPEHUANES DGO., MX","FM-12","99999","V020","999,9,C,0000,1","22000,1,9,N","000800,1,N,1","+0230,1","+0141,1","10035,1","99,0000,9,1",,,,"03,1,+02400,9,02,9",,,,"03,99,1,03,1,00,1,01750,1,03,1,00,1",,"01,9",,,,"99999,9,08207,1","2,1,006,1,+999,9",,,"SYN100AAXX  12031 76373 32708 30000 10230 20141 38207 40035 52006 83030 90250 333 30/// 56070 58/// 83558;","Q01  00002PRCP99"
"76373099999","2001-06-12T12:00:00","4","25.35","-105.75","1967.0","TEPEHUANES DGO., MX","FM-12","99999","V020","300,1,N,0020,1","22000,1,9,N","000800,1,N,1","+0145,1","+0082,1","10090,1","24,0000,9,1",,,,"02,1,+02400,9,07,9",,,,"02,99,1,02,1,99,9,01750,1,03,1,00,1",,"01,9","999,+0110,9","999,M,+0346,1","120,N,+0134,1","99999,9,08208,1","2,1,001,1,+999,9",,,"SYN118AAXX  12121 76373 32708 23002 10145 20082 38208 40090 52001 82030 91140 333 10346 20134 30011 56060 58/// 70000 82358;","Q01    003SCOLCG"
"76373099999","2001-06-12T15:00:00","4","25.35","-105.75","1967.0","TEPEHUANES DGO., MX","FM-12","99999","V020","320,1,N,0020,1","22000,1,9,N","060000,1,N,1","+0220,1","+0107,1","10104,1","99,0000,9,1",,,,"02,1,+02400,9,07,9",,,,"02,99,1,01,1,99,9,01750,1,07,1,00,1",,"01,9",,,,"99999,9,08210,1","0,1,002,1,-013,1",,,"SYN100AAXX  12151 76373 32786 23202 10220 20107 38210 40104 50002 81070 91448 333 30/// 56060 59013 82358;","Q01  00002PRCP99Q02    003SCOLCG"
"76373099999","2001-06-12T18:00:00","4","25.35","-105.75","1967.0","TEPEHUANES DGO., MX","FM-12","99999","V020","300,1,N,0050,1","22000,1,9,N","070000,1,N,1","+0300,1","+0108,1","10072,1","99,0000,9,1",,,,"01,1,+00300,9,02,9",,,,"01,99,1,01,1,01,1,00450,1,00,1,00,1",,"01,9",,"120,M,+0322,1","240,N,+0128,1","99999,9,08194,1","6,1,016,1,-015,1",,,"SYN112AAXX  12181 76373 32488 13005 10300 20108 38194 40072 56016 81100 91740 333 10322 20128 30/// 56200 59015 81810;","Q01  00002PRCP99"
"76373099999","2001-06-12T21:00:00","4","25.35","-105.75","1967.0","TEPEHUANES DGO., MX","FM-12","99999","V020","240,1,N,0060,1","22000,1,9,N","070000,1,N,1","+0326,1","+0148,1","10023,1","99,0000,9,1",,,,"02,1,+00300,9,02,9",,,,"02,99,1,02,1,01,1,00450,1,00,1,00,1",,"01,9",,,,"99999,9,08176,1","6,1,018,1,-023,1",,,"SYN100AAXX  12211 76373 32488 22406 10326 20148 38176 40023 56018 82100 91442 333 30/// 56600 59023 82810;","Q01  00002PRCP99"
"76373099999","2001-06-13T12:00:00","4","25.35","-105.75","1967.0","TEPEHUANES DGO., MX","FM-12","99999","V020","300,1,N,0020,1","22000,1,9,N","000800,1,N,1","+0147,1","+0098,1","10072,1","24,0000,9,1",,,,"01,1,+00300,9,02,9",,,,"01,99,1,01,1,01,1,00450,1,00,1,00,1",,"01,9","999,+0100,9","999,M,+0346,1","120,N,+0136,1","99999,9,08192,1","2,1,004,1,-016,1",,,"SYN118AAXX  13121 76373 32408 13002 10147 20098 38192 40072 52004 81100 91143 333 10346 20136 30010 56600 59016 70000 81810;",
"76373099999","2001-06-13T15:00:00","4","25.35","-105.75","1967.0","TEPEHUANES DGO., MX","FM-12","99999","V020","270,1,N,0020,1","22000,1,9,N","060000,1,N,1","+0207,1","+0108,1","10074,1","99,0000,9,1",,,,"01,1,+00300,9,02,9",,,,"01,99,1,01,1,01,1,00450,1,00,1,00,1",,"01,9",,,,"99999,9,08199,1","0,1,007,1,-011,1",,,"SYN100AAXX  13151 76373 32486 12702 10207 20108 38199 40074 50007 81100 91440 333 30/// 56500 59011 81810;","Q01  00002PRCP99"
"76373099999","2001-06-13T18:00:00","4","25.35","-105.75","1967.0","TEPEHUANES DGO., MX","FM-12","99999","V020","360,1,N,0020,1","22000,1,9,N","070000,1,N,1","+0286,1","+0076,1","10058,1","99,0000,9,1",,,,"01,1,+00300,9,02,9",,,,"01,99,1,01,1,01,1,00450,1,00,1,00,1",,"01,9",,"120,M,+0298,1","240,N,+0132,1","99999,9,08181,1","7,1,018,1,-013,1",,,"SYN112AAXX  13181 76373 32488 13602 10286 20076 38181 40058 57018 81100 91746 333 10298 20132 30/// 56500 59013 81810;","Q01  00002PRCP99"
"76373099999","2001-06-13T21:00:00","4","25.35","-105.75","1967.0","TEPEHUANES DGO., MX","FM-12","99999","V020","250,1,N,0030,1","22000,1,9,N","070000,1,N,1","+0317,1","+0096,1","10016,1","99,0000,9,1",,,,"01,1,+00300,9,02,9",,,,"01,99,1,01,1,01,1,00450,1,00,1,00,1",,"01,9",,,,"99999,9,08167,1","7,1,014,1,-009,1",,,"SYN100AAXX  13211 76373 32488 12503 10317 20096 38167 40016 57014 81100 92040 333 30/// 56500 59009 81810;","Q01  00002PRCP99"
"76373099999","2001-06-14T00:00:00","4","25.35","-105.75","1967.0","TEPEHUANES DGO., MX","FM-12","99999","V020","240,1,N,0050,1","22000,1,9,N","070000,1,N,1","+0302,1","+0121,1","09979,1","24,0000,9,1",,,,,,,,"01,99,1,01,1,01,1,00450,1,00,1,00,1",,"01,9",,"120,M,+0335,1","180,N,+0132,1","99999,9,08157,1","7,1,015,1,-014,1",,,"SYN124AAXX  14001 76373 32488 12405 10302 20121 38157 49979 57015 81100 92340 333 10335 20132 30/// 50230 56500 59014 70000 81810;","Q01  00002PRCP99Q02  00003PRCP99"
"76373099999","2001-06-14T12:00:00","4","25.35","-105.75","1967.0","TEPEHUANES DGO., MX","FM-12","99999","V020","999,9,C,0000,1","22000,1,9,N","000800,1,N,1","+0132,1","+0077,1","10072,1","24,0000,9,1",,,,"00,1,+99999,9,99,9",,,,"00,99,1,00,1,00,1,99999,9,00,1,00,1",,"01,9","999,+0080,9","999,M,+0335,1","120,N,+0120,1","99999,9,08195,1","2,1,009,1,+003,1",,,"SYN100AAXX  14121 76373 32908 00000 10132 20077 38195 40072 52009 91140 333 10335 20120 30008 58003 70000;","Q01  00002PRCP24"
"76373099999","2001-06-14T15:00:00","4","25.35","-105.75","1967.0","TEPEHUANES DGO., MX","FM-12","99999","V020","040,1,N,0010,1","22000,1,9,N","060000,1,N,1","+0187,1","+0076,1","10106,1","99,0000,9,1",,,,"00,1,+99999,9,99,9",,,,"00,99,1,00,1,00,1,99999,9,00,1,00,1",,"01,9",,,,"99999,9,08208,1","2,1,013,1,+009,1",,,"SYN082AAXX  14151 76373 32486 00401 10187 20076 38208 40106 52013 91450 333 30/// 58009;","Q01  00002PRCP99"
"76373099999","2001-06-14T21:00:00","4","25.35","-105.75","1967.0","TEPEHUANES DGO., MX","FM-12","99999","V020","060,1,N,0020,1","22000,1,9,N","070000,1,N,1","+0310,1","+0114,1","10037,1","99,0000,9,1",,,,"02,1,+00300,9,02,9",,,,"02,99,1,02,1,01,1,00450,1,00,1,00,1",,"01,9",,,,"99999,9,08179,1","6,1,020,1,+020,1",,,"SYN100AAXX  14211 76373 32488 20602 10310 20114 38179 40037 56020 82100 92038 333 30/// 56300 58020 82810;","Q01  00002PRCP99"
"76373099999","2001-06-15T15:00:00","4","25.35","-105.75","1967.0","TEPEHUANES DGO., MX","FM-12","99999","V020","320,1,N,0010,1","22000,1,9,N","070000,1,N,1","+0190,1","+0085,1","10102,1","99,0000,9,1",,,,"00,1,+99999,9,99,9",,,,"00,99,1,00,1,00,1,99999,9,00,1,00,1",,"01,9",,,,"99999,9,08220,1","9,9,999,9,-012,1",,,"SYN082AAXX  15151 76373 32988 03201 10190 20085 38220 40102 5//// 91440 333 30/// 59012;","Q01  00002PRCP99"
"76373099999","2001-06-15T18:00:00","4","25.35","-105.75","1967.0","TEPEHUANES DGO., MX","FM-12","99999","V020","120,1,N,0030,1","22000,1,9,N","070000,1,N,1","+0290,1","+0141,1","10093,1","99,0000,9,1",,,,"02,1,+00300,9,08,9",,,,"03,99,1,02,1,01,1,00450,1,00,1,00,1",,"01,9",,"120,M,+0312,1","240,N,+0120,1","99999,9,08216,1","8,1,004,1,+019,1",,,"SYN118AAXX  15181 76373 32488 31203 10290 20141 38216 40093 58004 82100 91740 333 10312 20120 30/// 56200 58019 82810 81910;","Q01  00002PRCP99"
"76373099999","2001-06-15T21:00:00","4","25.35","-105.75","1967.0","TEPEHUANES DGO., MX","FM-12","99999","V020","140,1,N,0060,1","00300,1,C,N","070000,1,N,1","+0288,1","+0130,1","10053,1","99,0000,9,1",,,,"02,1,+00300,9,09,9","03,1,+00300,9,08,9",,,"06,99,1,03,1,01,1,00450,1,03,1,00,1",,"01,9",,,,"99999,9,08194,1","6,1,022,1,+017,1",,,"SYN112AAXX  15211 76373 32488 61406 10288 20130 38194 40053 56022 83130 92040 333 30/// 56220 58017 83810 82910 81360;","Q01  00002PRCP99"
"76373099999","2001-06-18T15:00:00","4","25.35","-105.75","1967.0","TEPEHUANES DGO., MX","FM-12","99999","V020","100,1,N,0010,1","03000,1,9,N","070000,1,N,1","+0202,1","+0108,1","10125,1","99,0000,9,1",,,,"06,1,+03000,9,07,9",,,,"06,99,1,06,1,00,1,01750,1,03,1,00,1",,"01,9",,,,"99999,9,08240,1",,,,"SYN100AAXX  18151 76373 32788 61001 10202 20108 38240 40125 5//// 86030 91540 333 30/// 56020 58/// 86360;","Q01  00002PRCP99"
"76373099999","2001-06-18T21:00:00","4","25.35","-105.75","1967.0","TEPEHUANES DGO., MX","FM-12","99999","V020","090,1,N,0060,1","03600,1,C,N","070000,1,N,1","+0270,1","+0106,1","10065,1","99,0000,9,1",,,,"02,1,+00300,9,09,9","04,1,+00300,9,08,9",,,"07,99,1,04,1,02,1,00450,1,03,1,00,1",,"01,9",,,,"99999,9,08197,1","6,1,035,1,+999,9",,,"SYN112AAXX  18211 76373 32488 70906 10270 20106 38197 40065 56035 84230 92040 333 30/// 56220 58/// 84810 82910 81360;","Q01  00002PRCP99"
"76373099999","2001-06-19T15:00:00","4","25.35","-105.75","1967.0","TEPEHUANES DGO., MX","FM-12","99999","V020","090,1,N,0010,1","22000,1,9,N","070000,1,N,1","+0196,1","+0107,1","10127,1","99,0000,9,1",,,,"00,1,+99999,9,99,9",,,,"00,99,1,00,1,00,1,99999,9,00,1,00,1",,"01,9",,,,"99999,9,08235,1","9,9,999,9,+003,1",,,"SYN082AAXX  19151 76373 32988 00901 10196 20107 38235 40127 5//// 91440 333 30/// 58003;","Q01  00002PRCP99"
"76373099999","2001-06-19T18:00:00","4","25.35","-105.75","1967.0","TEPEHUANES DGO., MX","FM-12","99999","V020","150,1,N,0020,1","22000,1,9,N","070000,1,N,1","+0270,1","+0114,1","10109,1","99,0000,9,1",,,,"02,1,+00300,9,09,9",,,,"03,99,1,02,1,03,1,00450,1,03,1,00,1",,"01,9",,"120,M,+0290,1","240,N,+0130,1","99999,9,08225,1","6,1,010,1,-007,1",,,"SYN118AAXX  19181 76373 32488 31502 10270 20114 38225 40109 56010 82330 91740 333 10290 20130 30/// 56220 59007 82910 81360;","Q01  00002PRCP99"
"76373099999","2001-06-19T21:00:00","4","25.35","-105.75","1967.0","TEPEHUANES DGO., MX","FM-12","99999","V020","120,1,N,0040,1","22000,1,9,N","070000,1,N,1","+0310,1","+0130,1","10060,1","99,0000,9,1",,,,"02,1,+00300,9,08,9",,,,"03,99,1,02,1,01,1,00450,1,00,1,00,1",,"01,9",,,,"99999,9,08200,1","6,1,025,1,+003,1",,,"SYN106AAXX  19211 76373 32488 31204 10310 20130 38200 40060 56025 82100 92040 333 30/// 56200 58003 82810 81910;","Q01  00002PRCP99"
"76373099999","2001-06-20T15:00:00","4","25.35","-105.75","1967.0","TEPEHUANES DGO., MX","FM-12","99999","V020","300,1,N,0020,1","22000,1,9,N","070000,1,N,1","+0182,1","+0112,1","10139,1","15,0020,9,1",,,,"02,1,+03000,9,07,9",,,,"02,99,1,02,1,00,1,01750,1,03,1,00,1",,"01,9",,,,"99999,9,08249,1","9,9,999,9,+014,1",,,"SYN112AAXX  20151 76373 /2788 23002 10182 20112 38249 40139 5//// 60029 82030 91440 333 30/// 56020 58014 60029 82360;",
"76373099999","2001-06-20T21:00:00","4","25.35","-105.75","1967.0","TEPEHUANES DGO., MX","FM-12","99999","V020","160,1,N,0060,1","00300,1,9,N","070000,1,N,1","+0278,1","+0140,1","10093,1","01,9999,2,9",,"9,1,03,1","9,1,03,1","06,1,+00300,9,09,9",,,,"08,99,1,06,1,09,1,00450,1,00,1,00,1",,"09,9",,,,"99999,9,08224,1","7,1,012,1,+024,1","29,1",,"SYN124AAXX  20211 76373 /1488 81606 10278 20140 38224 40093 57012 69905 72999 86900 92040 333 31/// 56200 58024 69905 86910 82810;",
"76373099999","2001-06-21T15:00:00","4","25.35","-105.75","1967.0","TEPEHUANES DGO., MX","FM-12","99999","V020","310,1,N,0010,1","22000,1,9,N","070000,1,N,1","+0180,1","+0124,1","10160,1","18,0040,9,1",,,,"01,1,+03000,9,03,9",,,,"03,99,1,01,1,00,1,01750,1,03,1,02,1",,"09,9",,,,"99999,9,08260,1","9,9,999,9,+011,1",,,"SYN118AAXX  21151 76373 /2788 33101 10180 20124 38260 40160 5//// 60043 81032 91440 333 31/// 56022 58011 60043 81360 82070;",
"76373099999","2001-06-21T18:00:00","4","25.35","-105.75","1967.0","TEPEHUANES DGO., MX","FM-12","99999","V020","120,1,N,0020,1","22000,1,9,N","070000,1,N,1","+0264,1","+0150,1","10141,1","99,0000,9,1",,,,"02,1,+00300,9,09,9",,,,"04,99,1,02,1,03,1,00450,1,00,1,02,1",,"01,9",,"120,M,+0290,1","240,N,+0130,1","99999,9,08250,1","6,1,010,1,+014,1",,,"SYN118AAXX  21181 76373 32488 41202 10264 20150 38250 40141 56010 82302 91740 333 10290 20130 30/// 56202 58014 82910 82060;","Q01  00002PRCP99"
"76373099999","2001-06-21T21:00:00","4","25.35","-105.75","1967.0","TEPEHUANES DGO., MX","FM-12","99999","V020","120,1,N,0070,1","00300,1,9,N","070000,1,N,1","+0240,1","+0149,1","10118,1","99,0000,9,1",,,,"07,1,+00300,9,05,9",,,,"07,99,1,07,1,06,1,00450,1,00,1,00,1",,"01,9",,,,"99999,9,08238,1","6,1,012,1,+014,1",,,"SYN100AAXX  21211 76373 32488 71207 10240 20149 38238 40118 56012 87600 92040 333 30/// 56200 58014 87610;","Q01  00002PRCP99"
"76373099999","2001-06-22T15:00:00","4","25.35","-105.75","1967.0","TEPEHUANES DGO., MX","FM-12","99999","V020","999,9,C,0000,1","22000,1,9,N","070000,1,N,1","+0180,1","+0120,1","10162,1","18,0003,9,1",,,,"03,1,+03000,9,07,9",,,,"03,99,1,03,1,00,1,01750,1,03,1,00,1",,"01,9",,,,"99999,9,08255,1","9,9,999,9,-005,1",,,"SYN112AAXX  22151 76373 /2788 30000 10180 20120 38255 40162 5//// 69933 83030 91440 333 30/// 56220 59005 69933 83360;",
"76373099999","2001-06-22T18:00:00","4","25.35","-105.75","1967.0","TEPEHUANES DGO., MX","FM-12","99999","V020","120,1,N,0030,1","03600,1,C,N","070000,1,N,1","+0260,1","+0145,1","10139,1","99,0000,9,1",,,,"01,1,+00300,9,09,9","01,1,+00300,9,08,9","01,1,+03000,9,03,9",,"07,99,1,01,1,03,1,00450,1,03,1,06,1",,"01,9",,"120,M,+0280,1","240,N,+0128,1","99999,9,08244,1","6,1,011,1,-006,1",,,"SYN130AAXX  22181 76373 32488 71203 10260 20145 38244 40139 56011 81336 91740 333 10280 20128 30/// 56222 59006 81910 81810 81360 84070;","Q01  00002PRCP99"
"76373099999","2001-06-25T15:00:00","4","25.35","-105.75","1967.0","TEPEHUANES DGO., MX","FM-12","99999","V020","280,1,N,0010,1","03000,1,9,N","070000,1,N,1","+0204,1","+0128,1","10125,1","99,0000,9,1",,,,"06,1,+03000,9,07,9",,,,"06,99,1,06,1,00,1,01750,1,03,1,00,1",,"01,9",,,,"99999,9,08234,1",,,,"SYN100AAXX  25151 76373 32788 62801 10204 20128 38234 40125 5//// 86030 91440 333 30/// 56010 58/// 86360;","Q01  00002PRCP99"
"76373099999","2001-06-25T21:00:00","4","25.35","-105.75","1967.0","TEPEHUANES DGO., MX","FM-12","99999","V020","100,1,N,0050,1","99999,9,9,N","070000,1,N,1","+0314,1","+0131,1","10048,1","99,0000,9,1",,,,"03,1,+00300,9,09,9",,,,"06,99,1,03,1,03,1,00450,1,00,1,00,1",,"01,9",,,,"99999,9,08196,1","6,1,023,1,+999,9",,,"SYN106AAXX  25211 76373 32488 61005 10314 20131 38196 40048 56023 83300 92036 333 30/// 56200 58/// 83910 83810;","Q01  00002PRCP99"
"76373099999","2001-06-26T03:00:00","4","25.35","-105.75","1967.0","TEPEHUANES DGO., MX","FM-12","99999","V020","120,1,N,0020,1","00300,1,9,N","000800,1,N,1","+0208,1","+0133,1","10065,1","03,9999,2,9",,"2,1,03,1","2,1,03,1","08,1,+00300,9,05,9",,,,"08,99,1,08,1,04,1,00450,1,00,1,00,1",,"09,9",,,,"99999,9,08225,1","2,1,021,1,+999,9","50,1",,"SYN112AAXX  26031 76373 21408 81202 10208 20133 38225 40065 52021 75022 88400 90238 333 31/// 56200 58/// 69907 88610;",
"76373099999","2001-06-26T21:00:00","4","25.35","-105.75","1967.0","TEPEHUANES DGO., MX","FM-12","99999","V020","320,1,N,0010,1","03600,1,C,N","070000,1,N,1","+0220,1","+0139,1","10107,1","03,0010,9,1",,"9,1,03,1","5,1,03,1","03,1,+00300,9,09,9",,,,"08,99,1,03,1,03,1,00450,1,07,1,00,1",,"09,9",,,,"99999,9,08225,1","6,1,016,1,+029,1","15,1",,"SYN118AAXX  26211 76373 11488 83201 10220 20139 38225 40107 56016 60017 71595 83370 92045 333 31/// 56660 58029 83910 86360;",
"76373099999","2001-06-27T00:00:00","4","25.35","-105.75","1967.0","TEPEHUANES DGO., MX","FM-12","99999","V020","270,1,N,0010,1","00420,1,9,N","030000,1,N,1","+0145,1","+0119,1","10125,1","03,0110,9,1","06,0119,9,1","9,1,06,1","6,1,06,1",,,,,"08,99,1,08,1,07,1,00450,1,99,9,99,9",,"11,9",,"120,M,+0282,1","180,N,+0146,1","99999,9,08242,1","3,1,017,1,+038,1","63,1",,"SYN136AAXX  27001 76373 /1480 82701 10145 20119 38242 40125 53017 60121 76396 887// 92346 333 10282 20146 32/// 50420 562// 58038 60117 70127;",
"76373099999","2001-06-27T03:00:00","4","25.35","-105.75","1967.0","TEPEHUANES DGO., MX","FM-12","99999","V020","140,1,N,0010,1","03600,1,C,N","000800,1,N,1","+0148,1","+0136,1","10139,1","03,0010,9,1",,"6,1,03,1","5,1,03,1","02,1,+00300,9,06,9",,,,"08,99,1,02,1,04,1,00450,1,01,1,99,9",,"09,9",,,,"99999,9,08250,1","3,1,008,1,+025,1","01,1",,"SYN118AAXX  27031 76373 21408 81401 10148 20136 38250 40139 53008 70165 8241/ 90244 333 31/// 5622/ 58025 60017 82610 86458;",
"76373099999","2001-06-28T00:00:00","4","25.35","-105.75","1967.0","TEPEHUANES DGO., MX","FM-12","99999","V020","350,1,N,0010,1","09000,1,9,N","070000,1,N,1","+0227,1","+0138,1","10090,1","24,0034,9,1","99,0000,9,1",,,"02,1,+00300,9,09,9","01,1,+02400,9,03,9",,,"05,99,1,02,1,03,1,00450,1,06,1,03,1",,"01,9",,"120,M,+0290,1","180,N,+0138,1","99999,9,08223,1","7,1,012,1,+019,1",,,"SYN136AAXX  28001 76373 32488 53501 10227 20138 38223 40090 57012 82363 92346 333 10290 20138 30/// 50470 56222 58019 70034 82910 81358 82070;","Q01  00002PRCP99"
"76373099999","2001-06-28T21:00:00","4","25.35","-105.75","1967.0","TEPEHUANES DGO., MX","FM-12","99999","V020","140,1,N,0040,1","22000,1,9,N","070000,1,N,1","+0288,1","+0123,1","10102,1","99,0000,9,1",,,,"03,1,+00300,9,08,9",,,,"04,99,1,03,1,01,1,00450,1,00,1,00,1",,"01,9",,,,"99999,9,08226,1","6,1,021,1,-009,1",,,"SYN106AAXX  28211 76373 32488 41404 10288 20123 38226 40102 56021 83100 92035 333 30/// 56200 59009 83810 81910;","Q01  00002PRCP99"
"76373099999","2001-06-29T15:00:00","4","25.35","-105.75","1967.0","TEPEHUANES DGO., MX","FM-12","99999","V020","330,1,N,0020,1","09000,1,C,N","070000,1,N,1","+0196,1","+0111,1","10132,1","99,0000,9,1",,,,"01,1,+00300,9,08,9",,,,"08,99,1,01,1,01,1,00450,1,00,1,08,1",,"01,9",,,,"99999,9,08244,1","9,9,999,9,+016,1",,,"SYN106AAXX  29151 76373 32488 83302 10196 20111 38244 40132 5//// 81108 91448 333 30/// 56101 58016 81810 87270;","Q01  00002PRCP99"
"76373099999","2001-06-29T18:00:00","4","25.35","-105.75","1967.0","TEPEHUANES DGO., MX","FM-12","99999","V020","120,1,N,0040,1","06000,1,9,N","070000,1,N,1","+0278,1","+0164,1","10109,1","99,0000,9,1",,,,"01,1,+00300,9,09,9","01,1,+00300,9,08,9","08,1,+06000,9,02,9",,"08,99,1,01,1,03,1,00450,1,00,1,07,1",,"01,9",,"120,M,+0300,1","240,N,+0132,1","99999,9,08228,1","6,1,016,1,-019,1",,,"SYN130AAXX  29181 76373 32488 81204 10278 20164 38228 40109 56016 81307 91740 333 10300 20132 30/// 56202 59019 81810 81910 88270 99020;","Q01  00002PRCP99"
"76373099999","2001-06-29T21:00:00","4","25.35","-105.75","1967.0","TEPEHUANES DGO., MX","FM-12","99999","V020","130,1,N,0060,1","06000,1,9,N","070000,1,N,1","+0310,1","+0186,1","10062,1","99,0000,9,1",,,,"02,1,+00300,9,01,9","07,1,+06000,9,02,9",,,"08,99,1,02,1,01,1,00450,1,00,1,07,1",,"01,9",,,,"99999,9,08204,1","6,1,024,1,-022,1",,,"SYN112AAXX  29211 76373 32488 81306 10310 20186 38204 40062 56024 82107 92035 333 30/// 56202 59022 82110 87270 99020;","Q01  00002PRCP99"
"76373099999","2001-07-02T15:00:00","4","25.35","-105.75","1967.0","TEPEHUANES DGO., MX","FM-12","99999","V020","999,9,9,9999,9","03000,1,9,N","070000,1,N,1","+0190,1","+0104,1","10083,1","99,0000,9,1",,,,"01,1,+00300,9,08,9","05,1,+03000,9,03,9",,,"07,99,1,01,1,01,1,00450,1,03,1,02,1",,"01,9",,,,"99999,9,08205,1",,,,"SYN112AAXX  02151 76373 32488 75001 10190 20104 38205 40083 5//// 81132 91440 333 30/// 56111 58/// 81810 85360 81070;","Q01  00002PRCP99"
"76373099999","2001-07-02T18:00:00","4","25.35","-105.75","1967.0","TEPEHUANES DGO., MX","FM-12","99999","V020","100,1,N,0010,1","99999,9,9,N","070000,1,N,1","+0264,1","+0126,1","10088,1","99,0000,9,1",,,,"04,1,+00300,9,08,9",,,,"06,99,1,04,1,02,1,00450,1,00,1,00,1",,"01,9",,"120,M,+0288,1","240,N,+0142,1","99999,9,08210,1","2,1,005,1,+999,9",,,"SYN118AAXX  02181 76373 32488 61001 10264 20126 38210 40088 52005 84200 91740 333 10288 20142 30/// 56200 58/// 84810 82910;","Q01  00002PRCP99"
"76373099999","2001-07-02T21:00:00","4","25.35","-105.75","1967.0","TEPEHUANES DGO., MX","FM-12","99999","V020","030,1,N,0030,1","00300,1,9,N","070000,1,N,1","+0284,1","+0125,1","10048,1","99,0000,9,1",,,,"06,1,+00300,9,02,9",,,,"06,99,1,06,1,02,1,00450,1,00,1,00,1",,"01,9",,,,"99999,9,08189,1","6,1,021,1,+999,9",,,"SYN100AAXX  02211 76373 32488 60303 10284 20125 38189 40048 56021 86200 92040 333 30/// 56200 58/// 86810;","Q01  00002PRCP99"
"76373099999","2001-07-03T00:00:00","4","25.35","-105.75","1967.0","TEPEHUANES DGO., MX","FM-12","99999","V020","070,1,N,0040,1","00300,1,9,N","070000,1,N,1","+0274,1","+0104,1","10018,1","24,0000,9,1",,,,"06,1,+00300,9,05,9",,,,"06,99,1,06,1,04,1,00450,1,00,1,00,1",,"01,9",,"120,M,+0318,1","180,N,+0142,1","99999,9,08179,1","7,1,010,1,+999,9",,,"SYN118AAXX  03001 76373 32488 60704 10274 20104 38179 40018 57010 86400 92345 333 10318 20142 30/// 56100 58/// 70000 86610;",
"76373099999","2001-07-03T03:00:00","4","25.35","-105.75","1967.0","TEPEHUANES DGO., MX","FM-12","99999","V020","300,1,N,0010,1","00300,1,9,N","000800,1,N,1","+0222,1","+0110,1","10039,1","99,0000,9,1",,,,"07,1,+00300,9,05,9",,,,"07,99,1,07,1,04,1,00450,1,00,1,00,1",,"01,9",,,,"99999,9,08205,1","2,1,026,1,+999,9",,,"SYN100AAXX  03031 76373 32408 73001 10222 20110 38205 40039 52026 87400 90250 333 30/// 56100 58/// 87610;","Q01  00002PRCP99"
"76373099999","2001-07-03T15:00:00","4","25.35","-105.75","1967.0","TEPEHUANES DGO., MX","FM-12","99999","V020","090,1,N,0010,1","00300,1,9,N","060000,1,N,1","+0201,1","+0127,1","10124,1","99,0000,9,1",,,,"05,1,+00300,9,06,9",,,,"07,99,1,05,1,04,1,00450,1,03,1,00,1",,"01,9",,,,"99999,9,08231,1","2,1,016,1,+999,9",,,"SYN106AAXX  03151 76373 32486 70901 10201 20127 38231 40124 52016 85430 91440 333 30/// 56220 56034 85610 82358;","Q01  00002PRCP99"
"76373099999","2001-07-03T21:00:00","4","25.35","-105.75","1967.0","TEPEHUANES DGO., MX","FM-12","99999","V020","130,1,N,0060,1","06000,1,9,N","070000,1,N,1","+0264,1","+0118,1","10083,1","99,0000,9,1",,,,"02,1,+00300,9,08,9","01,1,+03000,9,03,9","08,1,+06000,9,02,9",,"08,99,1,02,1,02,1,00450,1,03,1,07,1",,"01,9",,,,"99999,9,08214,1","6,1,014,1,+025,1",,,"SYN118AAXX  03211 76373 32488 81306 10264 20118 38214 40083 56014 82237 92042 333 30/// 56222 58025 82810 81360 88270 99020;","Q01  00002PRCP99"
"76373099999","2001-07-04T00:00:00","4","25.35","-105.75","1967.0","TEPEHUANES DGO., MX","FM-12","99999","V020","180,1,N,0030,1","00420,1,9,N","060000,1,N,1","+0181,1","+0139,1","10102,1","03,0010,9,1",,"6,1,06,1","5,1,06,1",,,,,"08,99,1,08,1,04,1,00450,1,00,1,00,1",,"11,9",,"120,M,+0286,1","180,N,+0170,1","99999,9,08228,1","2,1,014,1,+031,1","50,1",,"SYN136AAXX  04001 76373 /1486 81803 10181 20139 38228 40102 52014 60017 75065 88400 92350 333 10286 20170 32/// 50580 56200 58031 60017 70014;",
"76373099999","2001-07-04T03:00:00","4","25.35","-105.75","1967.0","TEPEHUANES DGO., MX","FM-12","99999","V020","330,1,N,0010,1","00300,1,9,N","000800,1,N,1","+0171,1","+0146,1","10111,1","99,0000,2,1",,,,"06,1,+00300,9,06,9",,,,"08,99,1,06,1,04,1,00450,1,01,1,99,9",,"09,9",,,,"99999,9,08235,1","2,1,007,1,+030,1",,,"SYN106AAXX  04031 76373 32408 83301 10171 20146 38235 40111 52007 8641/ 90245 333 31/// 5622/ 58030 86610 82458;",
"76373099999","2001-07-04T12:00:00","4","25.35","-105.75","1967.0","TEPEHUANES DGO., MX","FM-12","99999","V020","270,1,N,0020,1","00300,1,9,N","000800,1,N,1","+0162,1","+0147,1","10151,1","24,0014,9,1",,,,"08,1,+00300,9,06,9",,,,"08,99,1,08,1,06,1,00450,1,99,9,99,9",,"09,9","999,+0150,9","999,M,+0286,1","120,N,+0148,1","99999,9,08243,1","2,1,004,1,+020,1",,,"SYN118AAXX  04121 76373 32408 82702 10162 20147 38243 40151 52004 886// 91140 333 10286 20148 31015 562// 58020 70014 88710;",
"76373099999","2001-07-04T15:00:00","4","25.35","-105.75","1967.0","TEPEHUANES DGO., MX","FM-12","99999","V020","300,1,N,0020,1","03600,1,C,N","060000,1,N,1","+0185,1","+0144,1","10160,1","99,0000,9,1",,,,"03,1,+00300,9,07,9",,,,"08,99,1,03,1,07,1,00450,1,05,1,00,1",,"01,9",,,,"99999,9,08250,1","2,1,007,1,+019,1",,,"SYN106AAXX  04151 76373 32486 83002 10185 20144 38250 40160 52007 83750 91440 333 30/// 56220 58019 83710 85358;","Q01  00002PRCP99"
"76373099999","2001-07-04T21:00:00","4","25.35","-105.75","1967.0","TEPEHUANES DGO., MX","FM-12","99999","V020","130,1,N,0040,1","02400,1,9,N","070000,1,N,1","+0266,1","+0132,1","10116,1","99,0000,9,1",,,,"03,1,+00300,9,06,9","02,1,+02400,9,03,9",,,"06,99,1,03,1,04,1,00450,1,03,1,04,1",,"01,9",,,,"99999,9,08232,1","7,1,017,1,+018,1",,,"SYN112AAXX  04211 76373 32488 61304 10266 20132 38232 40116 57017 83434 92038 333 30/// 56222 58018 83610 82358 81070;","Q01  00002PRCP99"
"76373099999","2001-07-05T03:00:00","4","25.35","-105.75","1967.0","TEPEHUANES DGO., MX","FM-12","99999","V020","290,1,N,0020,1","00300,1,9,N","000800,1,N,1","+0160,1","+0145,1","10106,1","03,0150,9,1",,"6,1,03,1","6,1,03,1","08,1,+00300,9,06,9",,,,"08,99,1,08,1,07,1,00450,1,99,9,99,9",,"11,9",,,,"99999,9,08241,1","2,1,020,1,+006,1","60,1",,"SYN112AAXX  05031 76373 21408 82902 10160 20145 38241 40106 52020 76066 887// 90240 333 32/// 562// 58006 60157 88710;",
"76373099999","2001-07-05T15:00:00","4","25.35","-105.75","1967.0","TEPEHUANES DGO., MX","FM-12","99999","V020","170,1,N,0010,1","00300,1,9,N","010000,1,N,1","+0176,1","+0150,1","10169,1","12,0200,9,1",,"9,1,03,1","6,1,03,1","05,1,+00300,9,06,9",,,,"08,99,1,05,1,06,1,00250,1,03,1,00,1",,"09,9",,,,"99999,9,08254,1","9,9,999,9,+004,1","16,1",,"SYN124AAXX  05151 76373 /1360 81701 10176 20150 38254 40169 5//// 60202 71696 85630 91440 333 31/// 56220 58004 60202 85610 83370;",
"76373099999","2001-07-05T21:00:00","4","25.35","-105.75","1967.0","TEPEHUANES DGO., MX","FM-12","99999","V020","120,1,N,0040,1","00300,1,9,N","070000,1,N,1","+0246,1","+0128,1","10118,1","99,0000,9,1",,,,"06,1,+00300,9,06,9",,,,"08,99,1,06,1,06,1,00450,1,03,1,00,1",,"01,9",,,,"99999,9,08229,1","6,1,021,1,-032,1",,,"SYN106AAXX  05211 76373 32488 81204 10246 20128 38229 40118 56021 86630 92035 333 30/// 56220 59032 86610 82360;","Q01  00002PRCP99"
"76373099999","2001-07-06T00:00:00","4","25.35","-105.75","1967.0","TEPEHUANES DGO., MX","FM-12","99999","V020","300,1,N,0030,1","00300,1,9,N","070000,1,N,1","+0186,1","+0159,1","10111,1","03,0060,9,1","24,0217,9,1","6,1,06,1","5,1,06,1","05,1,+00300,9,05,9",,,,"08,99,1,05,1,07,1,00250,1,04,1,00,1",,"09,9",,"120,M,+0270,1","180,N,+0144,1","99999,9,08226,1","7,1,003,1,+005,1","50,1",,"SYN136AAXX  06001 76373 /1388 83003 10186 20159 38226 40111 57003 60067 75065 85740 92340 333 10270 20144 31/// 56220 58005 60067 70217 85610;",
"76373099999","2001-07-06T15:00:00","4","25.35","-105.75","1967.0","TEPEHUANES DGO., MX","FM-12","99999","V020","999,9,C,0000,1","00300,1,9,N","010000,1,N,1","+0174,1","+0156,1","10165,1","15,0070,9,1",,"6,1,03,1","5,1,03,1","08,1,+00300,9,05,9",,,,"08,99,1,08,1,07,1,00250,1,99,9,99,9",,"09,9",,,,"99999,9,08254,1","9,9,999,9,+000,1","50,1",,"SYN118AAXX  06151 76373 /1360 80000 10174 20156 38254 40165 5//// 60079 75065 887// 91435 333 31/// 56200 58000 60079 88610;",
"76373099999","2001-07-06T18:00:00","4","25.35","-105.75","1967.0","TEPEHUANES DGO., MX","FM-12","99999","V020","300,1,N,0020,1","03600,1,C,N","060000,1,N,1","+0222,1","+0148,1","10164,1","03,0006,9,1",,"5,1,06,1","5,1,06,1","03,1,+00300,9,06,9",,,,"08,99,1,03,1,06,1,00250,1,07,1,00,1",,"09,9",,"120,M,+0222,1","240,N,+0156,1",,"4,1,000,1,+004,1","20,1",,"SYN130AAXX  06181 76373 21386 83002 10222 20148 30254 40164 54000 72055 83670 91736 333 10222 20156 31/// 56220 58004 69967 83610 87460;","Q01+102543APOSP "
"76373099999","2001-07-06T21:00:00","4","25.35","-105.75","1967.0","TEPEHUANES DGO., MX","FM-12","99999","V020","300,1,N,0020,1","03000,1,9,N","070000,1,N,1","+0254,1","+0149,1","10116,1","99,0000,2,1",,,,"02,1,+00300,9,09,9","02,1,+00300,9,08,9","01,1,+03000,9,03,9",,"07,99,1,02,1,03,1,00450,1,03,1,06,1",,"09,9",,,,"99999,9,08231,1","6,1,023,1,+002,1",,,"SYN118AAXX  06211 76373 32488 73002 10254 20149 38231 40116 56023 82336 92040 333 31/// 56222 58002 82910 82810 81360 82070;",
"76373099999","2001-07-09T15:00:00","4","25.35","-105.75","1967.0","TEPEHUANES DGO., MX","FM-12","99999","V020","999,9,C,0000,1","03000,1,9,N","070000,1,N,1","+0170,1","+0140,1","10158,1","18,0150,9,1",,,,"08,1,+03000,9,01,9",,,,"08,99,1,08,1,00,1,01750,1,07,1,99,9",,"09,9",,,,"99999,9,08248,1",,,,"SYN112AAXX  09151 76373 /2788 80000 10170 20140 38248 40158 5//// 60153 88070 91438 333 31/// 56030 58/// 60153 88460;","Q01+000002SCOHCG"
"76373099999","2001-07-09T21:00:00","4","25.35","-105.75","1967.0","TEPEHUANES DGO., MX","FM-12","99999","V020","300,1,N,0070,1","00300,1,9,N","070000,1,N,1","+0252,1","+0143,1","10106,1","99,0000,9,1",,"9,1,03,1","9,1,03,1","07,1,+00300,9,09,9",,,,"07,99,1,07,1,09,1,00450,1,00,1,00,1",,"01,9",,,,"99999,9,08225,1","6,1,014,1,+999,9","17,1",,"SYN106AAXX  09211 76373 31488 73007 10252 20143 38225 40106 56014 71799 87900 92040 333 30/// 56200 58/// 87910;","Q01  00002PRCP99"
"76373099999","2001-07-10T21:00:00","4","25.35","-105.75","1967.0","TEPEHUANES DGO., MX","FM-12","99999","V020","130,1,N,0030,1","00300,1,9,N","018000,1,N,1","+0264,1","+0132,1","10065,1","99,0000,9,1",,"9,1,03,1","9,1,03,1","06,1,+00300,9,09,9",,,,"06,99,1,06,1,09,1,00450,1,00,1,00,1",,"01,9",,,,"99999,9,08200,1","6,1,022,1,-025,1","29,1",,"SYN106AAXX  10211 76373 31468 61303 10264 20132 38200 40065 56022 72999 86900 92042 333 30/// 56200 59025 86910;","Q01  00002PRCP99"
"76373099999","2001-07-11T15:00:00","4","25.35","-105.75","1967.0","TEPEHUANES DGO., MX","FM-12","99999","V020","270,1,N,0010,1","22000,1,9,N","070000,1,N,1","+0190,1","+0166,1","10102,1","15,0040,9,1",,,,"01,1,+03000,9,07,9",,,,"01,99,1,01,1,00,1,01750,1,03,1,00,1",,"09,9",,,,"99999,9,08226,1","9,9,999,9,-007,1",,,"SYN112AAXX  11151 76373 /2788 12701 10190 20166 38226 40102 5//// 60049 81030 91450 333 31/// 56020 59007 60049 81360;",
"76373099999","2001-07-11T18:00:00","4","25.35","-105.75","1967.0","TEPEHUANES DGO., MX","FM-12","99999","V020","090,1,N,0020,1","22000,1,9,N","070000,1,N,1","+0250,1","+0137,1","10083,1","99,0000,9,1",,,,"01,1,+00300,9,08,9",,,,"03,99,1,01,1,01,1,00450,1,00,1,02,1",,"09,9",,"120,M,+0268,1","240,N,+0166,1","99999,9,08210,1","6,1,016,1,-012,1",,,"SYN118AAXX  11181 76373 32488 30902 10250 20137 38210 40083 56016 81102 91740 333 10268 20166 31/// 56202 59012 81810 82070;","Q01  00002PRCP99"
"76373099999","2001-07-11T21:00:00","4","25.35","-105.75","1967.0","TEPEHUANES DGO., MX","FM-12","99999","V020","140,1,N,0070,1","22000,1,9,N","070000,1,N,1","+0290,1","+0145,1","10048,1","99,0000,9,1",,,,"01,1,+00300,9,09,9","01,1,+00300,9,08,9",,,"04,99,1,01,1,03,1,00450,1,00,1,02,1",,"01,9",,,,"99999,9,08193,1","6,1,017,1,-007,1",,,"SYN112AAXX  11211 76373 32488 41407 10290 20145 38193 40048 56017 81302 92037 333 30/// 56202 59007 81810 81910 82070;","Q01  00002PRCP99"
"76373099999","2001-07-12T15:00:00","4","25.35","-105.75","1967.0","TEPEHUANES DGO., MX","FM-12","99999","V020","060,1,N,0010,1","22000,1,9,N","070000,1,N,1","+0190,1","+0131,1","10116,1","99,0000,9,1",,,,"01,1,+06000,9,01,9",,,,"01,99,1,00,1,00,1,99999,9,00,1,02,1",,"01,9",,,,"99999,9,08233,1","9,9,999,9,+007,1",,,"SYN100AAXX  12151 76373 32988 10601 10190 20131 38233 40116 5//// 80002 91448 333 30/// 56002 58007 81070;","Q01  00002PRCP99"
"76373099999","2001-07-12T18:00:00","4","25.35","-105.75","1967.0","TEPEHUANES DGO., MX","FM-12","99999","V020","160,1,N,0030,1","22000,1,9,N","070000,1,N,1","+0264,1","+0126,1","10099,1","99,0000,9,1",,,,"01,1,+00300,9,08,9",,,,"02,99,1,01,1,01,1,00450,1,00,1,02,1",,"01,9",,"120,M,+0298,1","240,N,+0130,1","99999,9,08224,1","6,1,009,1,+014,1",,,"SYN118AAXX  12181 76373 32488 21603 10264 20126 38224 40099 56009 81102 91740 333 10298 20130 30/// 56202 58014 81810 81070;","Q01  00002PRCP99"
"76373099999","2001-07-12T21:00:00","4","25.35","-105.75","1967.0","TEPEHUANES DGO., MX","FM-12","99999","V020","120,1,N,0060,1","22000,1,9,N","070000,1,N,1","+0308,1","+0146,1","10064,1","99,0000,9,1",,,,"03,1,+00300,9,02,9",,,,"03,99,1,03,1,01,1,00450,1,00,1,00,1",,"01,9",,,,"99999,9,08208,1","6,1,016,1,+015,1",,,"SYN100AAXX  12211 76373 32488 31206 10308 20146 38208 40064 56016 83100 92040 333 30/// 56200 58015 83810;","Q01  00002PRCP99"
"76373099999","2001-07-13T18:00:00","4","25.35","-105.75","1967.0","TEPEHUANES DGO., MX","FM-12","99999","V020","150,1,N,0030,1","22000,1,9,N","070000,1,N,1","+0272,1","+0186,1","10125,1","99,0000,9,1",,,,"01,1,+06000,9,01,9",,,,"02,99,1,01,1,01,1,00450,1,00,1,02,1",,"01,9",,"120,M,+0298,1","240,N,+0122,1","99999,9,08232,1","6,1,006,1,+008,1",,,"SYN106AAXX  13181 76373 32488 21503 10272 20186 38232 40125 56006 81102 91740 333 10298 20122 30/// 58008 81070;","Q01  00002PRCP99"
"76373099999","2001-07-16T15:00:00","4","25.35","-105.75","1967.0","TEPEHUANES DGO., MX","FM-12","99999","V020","260,1,N,0010,1","09000,1,C,N","070000,1,N,1","+0180,1","+0136,1","10141,1","15,0260,9,1",,,,"04,1,+03000,9,03,9",,,,"06,99,1,04,1,03,1,01750,1,99,9,02,1",,"09,9",,,,"99999,9,08225,1",,,,"SYN118AAXX  16151 76373 /2788 62601 10180 20136 38225 40141 5//// 60259 84302 91445 333 31/// 56022 58/// 60269 84360 82070;","Q01+000002SCOMCG"
"76373099999","2001-07-16T18:00:00","4","25.35","-105.75","1967.0","TEPEHUANES DGO., MX","FM-12","99999","V020","070,1,N,0010,1","22000,1,9,N","070000,1,N,1","+0252,1","+0146,1","10111,1","99,0000,9,1",,,,"01,1,+00300,9,08,9","01,1,+03000,9,03,9",,,"03,99,1,01,1,01,1,00450,1,03,1,02,1",,"09,9",,"120,M,+0272,1","240,N,+0140,1","99999,9,08218,1","6,1,007,1,+999,9",,,"SYN124AAXX  16181 76373 32488 30701 10252 20146 38218 40111 56007 81132 91740 333 10272 20140 31/// 56222 58/// 81810 81360 81070;","Q01  00002PRCP99"
"76373099999","2001-07-16T21:00:00","4","25.35","-105.75","1967.0","TEPEHUANES DGO., MX","FM-12","99999","V020","140,1,N,0040,1","03600,1,C,N","070000,1,N,1","+0294,1","+0144,1","10057,1","99,0000,9,1",,,,"02,1,+00300,9,09,9","02,1,+00300,9,08,9",,,"06,99,1,02,1,03,1,00450,1,03,1,00,1",,"01,9",,,,"99999,9,08193,1","6,1,025,1,+999,9",,,"SYN112AAXX  16211 76373 32488 61404 10294 20144 38193 40057 56025 82330 92040 333 30/// 56220 58/// 82810 82910 82360;","Q01  00002PRCP99"
"76373099999","2001-07-17T15:00:00","4","25.35","-105.75","1967.0","TEPEHUANES DGO., MX","FM-12","99999","V020","300,1,N,0010,1","22000,1,9,N","070000,1,N,1","+0200,1","+0156,1","10113,1","99,0000,9,1",,,,"03,1,+03000,9,03,9",,,,"04,99,1,03,1,00,1,01750,1,03,1,02,1",,"01,9",,,,"99999,9,08241,1","9,9,999,9,+016,1",,,"SYN106AAXX  17151 76373 32788 43001 10200 20156 38241 40113 5//// 83032 91440 333 30/// 56022 58016 83360 81070;","Q01  00002PRCP99"
"76373099999","2001-07-17T18:00:00","4","25.35","-105.75","1967.0","TEPEHUANES DGO., MX","FM-12","99999","V020","120,1,N,0010,1","03000,1,9,N","070000,1,N,1","+0270,1","+0142,1","10111,1","99,0000,9,1",,,,"02,1,+00300,9,09,9","01,1,+00300,9,08,9","02,1,+03000,9,03,9",,"06,99,1,02,1,03,1,00450,1,03,1,02,1",,"01,9",,"120,M,+0280,1","240,N,+0160,1","99999,9,08240,1","6,1,001,1,+022,1",,,"SYN130AAXX  17181 76373 32488 61201 10270 20142 38240 40111 56001 82332 91740 333 10280 20160 30/// 56222 58022 82910 81810 82360 81070;","Q01  00002PRCP99"
"76373099999","2001-07-18T15:00:00","4","25.35","-105.75","1967.0","TEPEHUANES DGO., MX","FM-12","99999","V020","060,1,N,0010,1","09000,1,C,N","070000,1,N,1","+0186,1","+0141,1","10130,1","15,0010,9,1",,,,"03,1,+03000,9,03,9",,,,"06,99,1,03,1,00,1,01750,1,03,1,02,1",,"09,9",,,,"99999,9,08246,1","9,9,999,9,+005,1",,,"SYN118AAXX  18151 76373 /2788 60601 10186 20141 38246 40130 5//// 60019 83032 91436 333 31/// 56022 58005 60019 83360 83070;",
"76373099999","2001-07-18T18:00:00","4","25.35","-105.75","1967.0","TEPEHUANES DGO., MX","FM-12","99999","V020","160,1,N,0010,1","22000,1,9,N","070000,1,N,1","+0242,1","+0141,1","10106,1","99,0000,9,1",,,,"01,1,+00300,9,08,9","02,1,+03000,9,03,9",,,"04,99,1,01,1,01,1,00450,1,03,1,02,1",,"01,9",,"120,M,+0252,1","240,N,+0150,1","99999,9,08228,1","6,1,018,1,-012,1",,,"SYN124AAXX  18181 76373 32488 41601 10242 20141 38228 40106 56018 81132 91735 333 10252 20150 30/// 56222 59012 81810 82360 81070;","Q01  00002PRCP99"
"76373099999","2001-07-18T21:00:00","4","25.35","-105.75","1967.0","TEPEHUANES DGO., MX","FM-12","99999","V020","120,1,N,0040,1","22000,1,9,N","070000,1,N,1","+0282,1","+0149,1","10074,1","99,0000,9,1",,,,"02,1,+00300,9,09,9",,,,"03,99,1,02,1,03,1,00450,1,03,1,00,1",,"01,9",,,,"99999,9,08210,1","6,1,018,1,-006,1",,,"SYN106AAXX  18211 76373 32488 31204 10282 20149 38210 40074 56018 82330 92040 333 30/// 56220 59006 82910 81360;","Q01  00002PRCP99"
"76373099999","2001-07-19T18:00:00","4","25.35","-105.75","1967.0","TEPEHUANES DGO., MX","FM-12","99999","V020","120,1,N,0020,1","03600,1,C,N","070000,1,N,1","+0234,1","+0146,1","10116,1","99,0000,9,1",,,,"01,1,+00300,9,08,9","02,1,+03000,9,03,9",,,"08,99,1,01,1,01,1,00450,1,03,1,08,1",,"01,9",,"120,M,+0256,1","240,N,+0148,1","99999,9,08233,1","2,1,009,1,+005,1",,,"SYN124AAXX  19181 76373 32488 81202 10234 20146 38233 40116 52009 81138 91740 333 10256 20148 30/// 56222 58005 81810 82360 86270;","Q01  00002PRCP99"
"76373099999","2001-07-20T15:00:00","4","25.35","-105.75","1967.0","TEPEHUANES DGO., MX","FM-12","99999","V020","310,1,N,0010,1","03000,1,9,N","070000,1,N,1","+0180,1","+9999,9","10139,1","15,0050,9,1",,"5,1,03,1","5,1,03,1","02,1,+00300,9,06,9","03,1,+03000,9,03,9",,,"08,99,1,02,1,06,1,00250,1,03,1,04,1",,"09,9",,,,"99999,9,08246,1","9,9,999,9,+004,1","20,1",,"SYN124AAXX  20151 76373 /1388 83101 10180 38246 40139 5//// 60059 72055 82634 91442 333 31/// 56222 58004 60059 82610 83360 83070;",
"76373099999","2001-07-20T21:00:00","4","25.35","-105.75","1967.0","TEPEHUANES DGO., MX","FM-12","99999","V020","120,1,N,0040,1","22000,1,9,N","070000,1,N,1","+0278,1","+0136,1","10079,1","99,0000,2,1",,,,"99,9,+00990,9,03,9",,,,"04,99,1,03,1,03,1,00450,1,03,1,00,1",,"01,9",,,,"99999,9,08209,1","6,1,022,1,+005,1",,,"SYN106AAXX  20211 76373 32488 41204 10278 20136 38209 40079 56022 83330 92038 333 30/// 56220 58005 83910 81360;",
"76373099999","2001-07-23T15:00:00","4","25.35","-105.75","1967.0","TEPEHUANES DGO., MX","FM-12","99999","V020","330,1,N,0010,1","22000,1,9,N","070000,1,N,1","+0188,1","+0129,1","10095,1","99,0000,9,1",,,,"00,1,+99999,9,99,9",,,,"00,99,1,00,1,00,1,99999,9,00,1,00,1",,"01,9",,,,"99999,9,08217,1",,,,"SYN082AAXX  23151 76373 32988 03301 10188 20129 38217 40095 5//// 91440 333 30/// 58///;","Q01  00002PRCP99"
"76373099999","2001-07-23T18:00:00","4","25.35","-105.75","1967.0","TEPEHUANES DGO., MX","FM-12","99999","V020","120,1,N,0030,1","22000,1,9,N","070000,1,N,1","+0268,1","+0135,1","10095,1","99,0000,9,1",,,,"02,1,+00300,9,02,9",,,,"02,99,1,02,1,01,1,00450,1,00,1,00,1",,"01,9",,"120,M,+0290,1","240,N,+0128,1","99999,9,08205,1","6,1,012,1,+999,9",,,"SYN112AAXX  23181 76373 32488 21203 10268 20135 38205 40095 56012 82100 91740 333 10290 20128 30/// 56200 58/// 82810;","Q01  00002PRCP99"
"76373099999","2001-07-23T21:00:00","4","25.35","-105.75","1967.0","TEPEHUANES DGO., MX","FM-12","99999","V020","120,1,N,0060,1","22000,1,9,N","070000,1,N,1","+0308,1","+0150,1","10037,1","99,0000,9,1",,,,"02,1,+00300,9,08,9",,,,"04,99,1,02,1,03,1,00450,1,00,1,00,1",,"01,9",,,,,"6,1,021,1,+999,9",,,"SYN106AAXX  23211 76373 32488 41206 10308 20150 38284 40037 56021 82300 92040 333 30/// 56200 58/// 82810 82910;","Q01+082843APOSP Q02  00002PRCP99"
"76373099999","2001-07-24T03:00:00","4","25.35","-105.75","1967.0","TEPEHUANES DGO., MX","FM-12","99999","V020","300,1,N,0040,1","00300,1,9,N","000800,1,N,1","+0225,1","+0158,1","10014,1","03,9999,9,9",,"5,1,03,1","2,1,03,1","06,1,+00300,9,06,9",,,,"06,99,1,06,1,04,1,00450,1,03,1,00,1",,"01,9",,,,"99999,9,08184,1","2,1,007,1,+999,9","02,1",,"SYN118AAXX  24031 76373 21408 63004 10225 20158 38184 40014 52007 70252 86430 90240 333 30/// 56220 58/// 69907 86610 81358;","Q01  99992PRCP03"
"76373099999","2001-07-24T15:00:00","4","25.35","-105.75","1967.0","TEPEHUANES DGO., MX","FM-12","99999","V020","350,1,N,0010,1","22000,1,9,N","070000,1,N,1","+0189,1","+0139,1","10113,1","99,0000,9,1",,,,"00,1,+99999,9,99,9",,,,"00,99,1,00,1,00,1,99999,9,00,1,00,1",,"01,9",,,,"99999,9,08215,1","2,1,004,1,-003,1",,,"SYN082AAXX  24150 76373 32988 03501 10189 20139 38215 40113 52004 91450 333 30/// 59003;","Q01  00002PRCP99"
"76373099999","2001-07-24T21:00:00","4","25.35","-105.75","1967.0","TEPEHUANES DGO., MX","FM-12","99999","V020","210,1,N,0020,1","22000,1,9,N","070000,1,N,1","+0292,1","+0150,1","10053,1","99,0000,9,1",,"9,1,03,1","9,1,03,1","03,1,+00300,9,09,9",,,,"04,99,1,03,1,09,1,00450,1,00,1,00,1",,"01,9",,,,"99999,9,08185,1","0,1,022,1,+001,1","17,1",,"SYN112AAXX  24211 76373 31488 42102 10292 20150 38185 40053 50022 71799 83900 92042 333 30/// 56100 58001 83910 81810;","Q01  00002PRCP99"
"76373099999","2001-07-25T00:00:00","4","25.35","-105.75","1967.0","TEPEHUANES DGO., MX","FM-12","99999","V020","270,1,N,0030,1","22000,1,9,N","070000,1,N,1","+0240,1","+0160,1","10058,1","03,0020,9,1",,"6,1,06,1","1,1,06,1",,,,,"03,99,1,02,1,03,1,00450,1,03,1,00,1",,"09,9",,"120,M,+0328,1","180,N,+0126,1","99999,9,08173,1","7,1,012,1,-004,1","01,1",,"SYN136AAXX  25001 76373 /1488 32703 10240 20160 38173 40058 57012 60027 70161 82330 92350 333 10328 20126 31/// 50560 56220 59004 60027 70020;",
"76373099999","2001-07-25T03:00:00","4","25.35","-105.75","1967.0","TEPEHUANES DGO., MX","FM-12","99999","V020","300,1,N,0030,1","00300,1,9,N","000800,1,N,1","+0210,1","+0135,1","10046,1","99,0000,9,1",,,,"05,1,+00300,9,05,9",,,,"05,99,1,05,1,04,1,00450,1,00,1,00,1",,"01,9",,,,"99999,9,08198,1","2,1,025,1,+014,1",,,"SYN100AAXX  25031 76373 32408 53003 10210 20135 38198 40046 52025 85400 90245 333 30/// 56200 58014 85610;","Q01  00002PRCP99"
"76373099999","2001-07-25T12:00:00","4","25.35","-105.75","1967.0","TEPEHUANES DGO., MX","FM-12","99999","V020","290,1,N,0020,1","22000,1,9,N","000800,1,N,1","+0148,1","+0132,1","10095,1","24,0020,9,1",,,,"00,1,+99999,9,99,9",,,,"00,99,1,00,1,00,1,99999,9,00,1,00,1",,"09,9","999,+0120,9","999,M,+0328,1","120,N,+0134,1","99999,9,08205,1","7,1,002,1,-006,1",,,"SYN100AAXX  25121 76373 32908 02902 10148 20132 38205 40095 57002 91138 333 10328 20134 31012 59006 70020;",
"76373099999","2001-07-25T15:00:00","4","25.35","-105.75","1967.0","TEPEHUANES DGO., MX","FM-12","99999","V020","300,1,N,0020,1","22000,1,9,N","070000,1,N,1","+0171,1","+0146,1","10113,1","99,0000,9,1",,,,"02,1,+02400,9,07,9",,,,"02,99,1,02,1,99,9,01750,1,03,1,00,1",,"01,9",,,,"99999,9,08210,1","2,1,005,1,-005,1",,,"SYN100AAXX  25151 76373 32788 23002 10171 20146 38210 40113 52005 82030 91440 333 30/// 56020 59005 82358;","Q01  00002PRCP99Q02    003SCOLCG"
"76373099999","2001-07-25T18:00:00","4","25.35","-105.75","1967.0","TEPEHUANES DGO., MX","FM-12","99999","V020","120,1,N,0020,1","22000,1,9,N","070000,1,N,1","+0252,1","+0139,1","10097,1","99,0000,9,1",,,,"01,1,+00300,9,09,9","02,1,+00300,9,08,9",,,"04,99,1,02,1,01,1,00450,1,03,1,00,1",,"01,9",,"120,M,+0268,1","240,N,+0128,1","99999,9,08203,1","6,1,007,1,-004,1",,,"SYN124AAXX  25181 76373 32488 41202 10252 20139 38203 40097 56007 82130 91735 333 10268 20128 30/// 56220 59004 82810 81910 81360;","Q01  00002PRCP99"
"76373099999","2001-07-26T00:00:00","4","25.35","-105.75","1967.0","TEPEHUANES DGO., MX","FM-12","99999","V020","340,1,N,0030,1","00420,1,9,N","070000,1,N,1","+0155,1","+0147,1","10065,1","03,0160,9,1","06,0160,9,1","6,1,06,1","6,1,06,1",,,,,"08,99,1,07,1,04,1,00450,1,03,1,00,1",,"09,9",,"120,M,+0301,1","180,N,+0128,1","99999,9,08196,1","3,1,015,1,+023,1","16,1",,"SYN136AAXX  26001 76373 /1488 83403 10155 20147 38196 40065 53015 60167 71666 87430 92347 333 10301 20128 31/// 50490 56220 58023 60161 70157;",
"76373099999","2001-07-26T12:00:00","4","25.35","-105.75","1967.0","TEPEHUANES DGO., MX","FM-12","99999","V020","190,1,N,0010,1","22000,1,9,N","000800,1,N,1","+0134,1","+0125,1","10125,1","24,0157,9,1",,,,"00,1,+99999,9,99,9",,,,"00,99,1,00,1,00,1,99999,9,00,1,00,1",,"09,9","999,+0120,9","999,M,+0307,1","120,N,+0122,1","99999,9,08212,1","2,1,004,1,+007,1",,,"SYN100AAXX  26121 76373 32908 01901 10134 20125 38212 40125 52004 91137 333 10307 20122 31012 58007 70157;",
"76373099999","2001-07-26T15:00:00","4","25.35","-105.75","1967.0","TEPEHUANES DGO., MX","FM-12","99999","V020","310,1,N,0010,1","22000,1,9,N","070000,1,N,1","+0164,1","+0138,1","10132,1","99,0000,9,1",,,,"02,1,+03000,9,07,9",,,,"02,99,1,02,1,00,1,01750,1,03,1,00,1",,"09,9",,,,"99999,9,08216,1","2,1,004,1,+006,1",,,"SYN100AAXX  26151 76373 32788 23101 10164 20138 38216 40132 52004 82030 91440 333 31/// 56020 58006 82360;","Q01  00002PRCP99"
"76373099999","2001-07-26T18:00:00","4","25.35","-105.75","1967.0","TEPEHUANES DGO., MX","FM-12","99999","V020","060,1,N,0010,1","22000,1,9,N","070000,1,N,1","+0242,1","+0151,1","10111,1","99,0000,9,1",,,,"02,1,+00300,9,09,9","01,1,+03000,9,03,9",,,"03,99,1,02,1,06,1,00450,1,03,1,00,1",,"01,9",,"120,M,+0258,1","240,N,+0118,1","99999,9,08208,1","6,1,008,1,+005,1",,,"SYN124AAXX  26181 76373 32488 30601 10242 20151 38208 40111 56008 82630 91743 333 10258 20118 30/// 56220 58005 82910 81360 94092;","Q01  00002PRCP99"
"76373099999","2001-07-27T15:00:00","4","25.35","-105.75","1967.0","TEPEHUANES DGO., MX","FM-12","99999","V020","110,1,N,0010,1","03600,1,C,N","020000,1,N,1","+0192,1","+0172,1","10123,1","15,0010,9,1",,,,"02,1,+00300,9,06,9",,,,"06,99,1,02,1,06,1,00250,1,03,1,00,1",,"09,9",,,,"99999,9,08232,1","9,9,999,9,+016,1",,,"SYN118AAXX  27151 76373 31370 61101 10192 20172 38232 40123 5//// 60019 82630 91436 333 31/// 56220 58016 60019 82610 84360;",
"76373099999","2001-07-27T18:00:00","4","25.35","-105.75","1967.0","TEPEHUANES DGO., MX","FM-12","99999","V020","130,1,N,0030,1","00300,1,9,N","060000,1,N,1","+0228,1","+0173,1","10123,1","99,0000,9,1",,,,"06,1,+00300,9,06,9",,,,"08,99,1,06,1,06,1,00250,1,03,1,00,1",,"01,9",,"120,M,+0242,1","240,N,+0160,1","99999,9,08232,1","4,1,000,1,+024,1",,,"SYN118AAXX  27181 76373 32386 81303 10228 20173 38232 40123 54000 86630 91740 333 10242 20160 30/// 56220 58024 86610 82360;","Q01  00002PRCP99"
"76373099999","2001-07-27T21:00:00","4","25.35","-105.75","1967.0","TEPEHUANES DGO., MX","FM-12","99999","V020","120,1,N,0040,1","03600,1,C,N","070000,1,N,1","+0232,1","+0187,1","10095,1","01,9999,2,9",,"6,1,03,1","6,1,03,1","01,1,+00300,9,09,9","03,1,+00300,9,06,9",,,"08,99,1,03,1,06,1,00450,1,07,1,00,1",,"01,9",,,,"99999,9,08216,1","6,1,016,1,+028,1","16,1",,"SYN130AAXX  27211 76373 /1488 81204 10232 20187 38216 40095 56016 69905 71666 83670 92045 333 30/// 56220 58028 69905 83610 81910 85460;",
"76373099999","2001-07-30T15:00:00","4","25.35","-105.75","1967.0","TEPEHUANES DGO., MX","FM-12","99999","V020","300,1,N,0040,1","00300,1,9,N","010000,1,N,1","+0164,1","+0151,1","10137,1","15,0050,9,1",,,,"08,1,+00300,9,06,9",,,,"08,99,1,08,1,06,1,00250,1,99,9,99,9",,"09,9",,,,"99999,9,08243,1",,,,"SYN112AAXX  30151 76373 /2360 83004 10164 20151 38243 40137 5//// 60059 886// 91440 333 31/// 56600 58/// 60059 88710;",
"76373099999","2001-07-30T18:00:00","4","25.35","-105.75","1967.0","TEPEHUANES DGO., MX","FM-12","99999","V020","330,1,N,0020,1","03600,1,C,N","070000,1,N,1","+0234,1","+0152,1","10123,1","99,0000,9,1",,,,"01,1,+00300,9,08,9","01,1,+03000,9,03,9",,,"08,99,1,01,1,01,1,00450,1,03,1,08,1",,"09,9",,"120,M,+0246,1","240,N,+0146,1","99999,9,08236,1","6,1,007,1,+999,9",,,"SYN124AAXX  30181 76373 32488 83302 10234 20152 38236 40123 56007 81138 91740 333 10246 20146 31/// 56222 58/// 81810 81360 87270;","Q01  00002PRCP99"
"76373099999","2001-07-30T21:00:00","4","25.35","-105.75","1967.0","TEPEHUANES DGO., MX","FM-12","99999","V020","330,1,N,0070,1","00300,1,9,N","070000,1,N,1","+0256,1","+0161,1","10079,1","99,0000,9,1",,"9,1,03,1","9,1,03,1","05,1,+00300,9,09,9","01,1,+03000,9,03,9",,,"08,99,1,05,1,09,1,00450,1,03,1,02,1",,"01,9",,,,"99999,9,08208,1","6,1,028,1,+999,9","17,1",,"SYN118AAXX  30211 76373 31488 83307 10256 20161 38208 40079 56028 71799 85932 92036 333 30/// 56222 58/// 85910 81360 82070;","Q01  00002PRCP99"
"76373099999","2001-07-31T00:00:00","4","25.35","-105.75","1967.0","TEPEHUANES DGO., MX","FM-12","99999","V020","210,1,N,0030,1","00300,1,9,N","070000,1,N,1","+0254,1","+0149,1","10046,1","02,0007,9,1","24,0050,9,1","9,1,06,1","5,1,06,1","05,1,+00300,9,09,9",,,,"08,99,1,05,1,09,1,00450,1,03,1,00,1",,"01,9",,"120,M,+0292,1","180,N,+0146,1","99999,9,08190,1","6,1,018,1,+999,9","17,1",,"SYN136AAXX  31001 76373 11488 82103 10254 20149 38190 40046 56018 69906 71795 85930 92340 333 10292 20146 30/// 56220 58/// 70050 85910 82810;",
"76373099999","2001-07-31T03:00:00","4","25.35","-105.75","1967.0","TEPEHUANES DGO., MX","FM-12","99999","V020","100,1,N,0020,1","00300,1,9,N","008000,1,N,1","+0174,1","+0159,1","10088,1","03,0070,9,1",,"9,1,03,1","5,1,03,1","08,1,+00300,9,09,9",,,,"08,99,1,08,1,09,1,00450,1,00,1,00,1",,"09,9",,,,"99999,9,08222,1","1,1,032,1,+999,9","29,1",,"SYN118AAXX  31031 76373 /1458 81002 10174 20159 38222 40088 51032 60077 72995 88900 90240 333 31/// 56200 58/// 60077 88910;",
"76373099999","2001-07-31T15:00:00","4","25.35","-105.75","1967.0","TEPEHUANES DGO., MX","FM-12","99999","V020","150,1,N,0010,1","09000,1,C,N","070000,1,N,1","+0172,1","+0144,1","10141,1","12,0010,9,1",,,,"01,1,+00300,9,06,9",,,,"07,99,1,01,1,04,1,00250,1,00,1,08,1",,"09,9",,,,"99999,9,08233,1","9,9,999,9,-010,1",,,"SYN118AAXX  31151 76373 /2388 71501 10172 20144 38233 40141 5//// 60012 81408 91440 333 31/// 56202 59010 60012 81610 86270;",
"76373099999","2001-07-31T21:00:00","4","25.35","-105.75","1967.0","TEPEHUANES DGO., MX","FM-12","99999","V020","270,1,N,0040,1","00300,1,9,N","070000,1,N,1","+0212,1","+0139,1","10106,1","03,9999,9,9",,"9,1,03,1","5,1,03,1","05,1,+00300,9,08,9",,,,"08,99,1,05,1,07,1,00450,1,00,1,00,1",,"09,9",,,,"99999,9,08219,1","6,1,013,1,+011,1","29,1",,"SYN118AAXX  31211 76373 21488 82704 10212 20139 38219 40106 56013 72995 85700 92036 333 31/// 56200 58011 69907 85810 83910;","Q01  99992PRCP03"
"76373099999","2001-08-01T00:00:00","4","25.35","-105.75","1967.0","TEPEHUANES DGO., MX","FM-12","99999","V020","230,1,N,0010,1","00210,1,9,N","030000,1,N,1","+0182,1","+0164,1","10109,1","03,0020,9,1",,"9,1,06,1","5,1,06,1",,,,,"08,99,1,06,1,06,1,00250,1,03,1,00,1",,"09,9",,"120,M,+0256,1","180,N,+0140,1","99999,9,08228,1","1,1,009,1,+038,1","16,1",,"SYN136AAXX  01001 76373 /1380 82301 10182 20164 38228 40109 51009 60027 71695 86630 92343 333 10256 20140 31/// 50550 56330 58038 60027 70096;",
"76373099999","2001-08-01T15:00:00","4","25.35","-105.75","1967.0","TEPEHUANES DGO., MX","FM-12","99999","V020","060,1,N,0010,1","00300,1,9,N","000400,1,N,1","+0170,1","+0138,1","10197,1","15,0010,9,1",,,,"06,1,+00300,9,05,9",,,,"06,99,1,06,1,06,1,00250,1,00,1,00,1",,"09,9",,,,"99999,9,08268,1","9,9,999,9,+035,1",,,"SYN112AAXX  01151 76373 /2304 60601 10170 20138 38268 40197 5//// 60019 86600 91440 333 31/// 56900 58035 60019 86610;",
"76373099999","2001-08-01T18:00:00","4","25.35","-105.75","1967.0","TEPEHUANES DGO., MX","FM-12","99999","V020","090,1,N,0020,1","22000,1,9,N","070000,1,N,1","+0222,1","+0154,1","10181,1","99,0000,9,1",,,,"01,1,+00300,9,09,9","01,1,+00300,9,08,9",,,"03,99,1,01,1,03,1,00450,1,03,1,00,1",,"09,9",,"120,M,+0238,1","240,N,+0120,1","99999,9,08264,1","6,1,004,1,+032,1",,,"SYN124AAXX  01181 76373 32488 30902 10222 20154 38264 40181 56004 81330 91737 333 10238 20120 31/// 56220 58032 81910 81810 81360;","Q01  00002PRCP99"
"76373099999","2001-08-01T21:00:00","4","25.35","-105.75","1967.0","TEPEHUANES DGO., MX","FM-12","99999","V020","120,1,N,0060,1","22000,1,9,N","070000,1,N,1","+0268,1","+0145,1","10141,1","99,0000,9,1",,,,"02,1,+00300,9,09,9",,,,"03,99,1,02,1,03,1,00450,1,03,1,00,1",,"01,9",,,,"99999,9,08241,1","6,1,023,1,+022,1",,,"SYN106AAXX  01211 76373 32488 31206 10268 20145 38241 40141 56023 82330 92040 333 30/// 56220 58022 82910 81360;","Q01  00002PRCP99"
"76373099999","2001-08-05T00:00:00","4","25.35","-105.75","1967.0","TEPEHUANES DGO., MX","FM-12","99999","V020","130,1,N,0040,1","00600,1,9,N","030000,1,N,1","+0240,1","+0136,1","99999,9","24,0028,9,1",,,,"08,1,+00600,9,09,9",,,,"08,99,1,08,1,03,1,00250,1,00,1,00,1",,"01,9",,"120,M,+0294,1","180,N,+0118,1","99999,9,08200,1","6,1,007,1,+999,9",,,"SYN112AAXX  05001 76373 32380 81304 10240 20136 38200 4//// 56007 88300 92340 333 10294 20118 30/// 58/// 70028 88920;",
"76373099999","2001-08-05T03:00:00","4","25.35","-105.75","1967.0","TEPEHUANES DGO., MX","FM-12","99999","V020","140,1,N,0020,1","00600,1,9,N","010000,1,N,1","+0220,1","+0135,1","99999,9","99,0000,9,1",,,,"06,1,+00600,9,09,9",,,,"07,99,1,06,1,03,1,00250,1,06,1,00,1",,"01,9",,,,"99999,9,08210,1","2,1,001,1,+999,9",,,"SYN106AAXX  05031 76373 32360 71402 10220 20135 38210 4//// 52001 86360 90230 333 30/// 56600 58/// 86920 81360;","Q01  00002PRCP99"
"76373099999","2001-08-05T06:00:00","4","25.35","-105.75","1967.0","TEPEHUANES DGO., MX","FM-12","99999","V020","200,1,N,0010,1","03600,1,C,N","010000,1,N,1","+0188,1","+0133,1","99999,9","99,0000,9,1",,,,"02,1,+00600,9,09,9",,,,"08,99,1,02,1,03,1,00250,1,06,1,00,1",,"01,9",,"240,M,+0294,1","240,N,+0118,1","99999,9,08232,1","2,1,023,1,+999,9",,,"SYN118AAXX  05061 76373 32360 82001 10188 20133 38232 4//// 52023 82360 90530 333 10294 20118 30/// 56660 58/// 82920 86360;","Q01  00002PRCP99"
"76373099999","2001-08-05T15:00:00","4","25.35","-105.75","1967.0","TEPEHUANES DGO., MX","FM-12","99999","V020","280,1,N,0020,1","22000,1,9,N","070000,1,N,1","+0196,1","+0148,1","99999,9","99,0000,9,1",,,,"01,1,+03000,9,07,9",,,,"01,99,1,01,1,00,1,00250,1,06,1,00,1",,"01,9",,,,"99999,9,08242,1","2,1,001,1,+999,9",,,"SYN100AAXX  05151 76373 32388 12802 10196 20148 38242 4//// 52001 81060 91440 333 30/// 56060 58/// 81360;","Q01  00002PRCP99"
"76373099999","2001-08-05T21:00:00","4","25.35","-105.75","1967.0","TEPEHUANES DGO., MX","FM-12","99999","V020","220,1,N,0040,1","03600,1,C,N","070000,1,N,1","+0260,1","+0152,1","99999,9","99,0000,9,1",,,,"04,1,+00600,9,09,9",,,,"07,99,1,04,1,03,1,00250,1,06,1,00,1",,"01,9",,,,"99999,9,08224,1","7,1,017,1,+017,1",,,"SYN106AAXX  05211 76373 32388 72204 10260 20152 38224 4//// 57017 84360 92040 333 30/// 56770 58017 84920 83360;","Q01  00002PRCP99"
"76373099999","2001-08-06T00:00:00","4","25.35","-105.75","1967.0","TEPEHUANES DGO., MX","FM-12","99999","V020","070,1,N,0020,1","00210,1,9,N","070000,1,N,1","+0260,1","+0172,1","99999,9","99,0000,9,1",,,,,,,,"05,99,1,05,1,03,1,00250,1,06,1,00,1",,"01,9",,"120,M,+0300,1","180,N,+0138,1","99999,9,08218,1","7,1,006,1,+013,1",,,"SYN118AAXX  06001 76373 32388 50702 10260 20172 38218 4//// 57006 85360 92338 333 10300 20138 30/// 50390 56770 58013 85360;","Q01  00002PRCP99"
"76373099999","2001-08-06T03:00:00","4","25.35","-105.75","1967.0","TEPEHUANES DGO., MX","FM-12","99999","V020","280,1,N,0020,1","22000,1,9,N","010000,1,N,1","+0198,1","+0147,1","99999,9","99,0000,9,1",,,,"01,1,+00600,9,09,9",,,,"04,99,1,01,1,03,1,00250,1,06,1,00,1",,"01,9",,,,"99999,9,08225,1","2,1,007,1,+016,1",,,"SYN106AAXX  06031 76373 32360 42802 10198 20147 38225 4//// 52007 81360 90245 333 30/// 56770 58016 81920 83360;","Q01  00002PRCP99"
"76373099999","2001-08-06T15:00:00","4","25.35","-105.75","1967.0","TEPEHUANES DGO., MX","FM-12","99999","V020","300,1,N,0010,1","00600,1,9,N","060000,1,N,1","+0162,1","+0144,1","99999,9","99,0000,9,1",,,,"06,1,+00600,9,07,9",,,,"08,99,1,06,1,06,1,00250,1,06,1,00,1",,"01,9",,,,"99999,9,08252,1","2,1,003,1,+001,1",,,"SYN106AAXX  06151 76373 32386 83001 10162 20144 38252 4//// 52003 86660 91430 333 30/// 56660 58001 86720 82360;","Q01  00002PRCP99"
"76373099999","2001-08-06T18:00:00","4","25.35","-105.75","1967.0","TEPEHUANES DGO., MX","FM-12","99999","V020","070,1,N,0010,1","03600,1,C,N","070000,1,N,1","+0248,1","+0159,1","10158,1","99,0000,9,1",,,,"01,1,+00300,9,09,9","03,1,+00300,9,08,9",,,"06,99,1,03,1,02,1,00450,1,03,1,00,1",,"01,9",,"120,M,+0264,1","240,N,+0136,1","99999,9,08254,1","2,1,002,1,+013,1",,,"SYN124AAXX  06181 76373 32488 60701 10248 20159 38254 40158 52002 83230 91740 333 10264 20136 30/// 56110 58013 83810 81910 82360;","Q01  00002PRCP99"
"76373099999","2001-08-06T21:00:00","4","25.35","-105.75","1967.0","TEPEHUANES DGO., MX","FM-12","99999","V020","090,1,N,0040,1","22000,1,9,N","070000,1,N,1","+0284,1","+0168,1","10123,1","99,0000,9,1",,,,"04,1,+00300,9,02,9",,,,"04,99,1,04,1,01,1,00450,1,00,1,00,1",,"01,9",,,,"99999,9,08240,1","6,1,014,1,+016,1",,,"SYN100AAXX  06211 76373 32488 40904 10284 20168 38240 40123 56014 84100 92038 333 30/// 56100 58016 84810;","Q01  00002PRCP99"
"76373099999","2001-08-07T03:00:00","4","25.35","-105.75","1967.0","TEPEHUANES DGO., MX","FM-12","99999","V020","290,1,N,0010,1","22000,1,9,N","000800,1,N,1","+0225,1","+0083,1","10076,1","99,0000,9,1",,,,"00,1,+99999,9,99,9",,,,"00,99,1,00,1,00,1,99999,9,00,1,00,1",,"01,9",,,,"99999,9,08232,1","3,1,008,1,+008,1",,,"SYN082AAXX  07031 76373 32908 02901 10225 20083 38232 40076 53008 90255 333 30/// 58008;","Q01  00002PRCP99"
"76373099999","2001-08-07T12:00:00","4","25.35","-105.75","1967.0","TEPEHUANES DGO., MX","FM-12","99999","V020","999,9,C,0000,1","22000,1,9,N","000800,1,N,1","+0124,1","+0091,1","10132,1","24,0007,9,1",,,,"00,1,+99999,9,99,9",,,,"00,99,1,00,1,00,1,99999,9,00,1,00,1",,"01,9","999,+0080,9","999,M,+0306,1","120,N,+0082,1","99999,9,08242,1","7,1,007,1,-007,1",,,"SYN100AAXX  07121 76373 32908 00000 10124 20091 38242 40132 57007 91136 333 10306 20082 30008 59007 79999;",
"76373099999","2001-08-07T15:00:00","4","25.35","-105.75","1967.0","TEPEHUANES DGO., MX","FM-12","99999","V020","270,1,N,0010,1","22000,1,9,N","070000,1,N,1","+0170,1","+0111,1","10174,1","99,0000,9,1",,,,"01,1,+00300,9,02,9",,,,"01,99,1,01,1,01,1,00450,1,00,1,00,1",,"01,9",,,,"99999,9,08255,1","2,1,013,1,+003,1",,,"SYN100AAXX  07151 76373 32488 12701 10170 20111 38255 40174 52013 81100 91440 333 30/// 56200 58003 81810;","Q01  00002PRCP99"
"76373099999","2001-08-08T00:00:00","4","25.35","-105.75","1967.0","TEPEHUANES DGO., MX","FM-12","99999","V020","320,1,N,0010,1","22000,1,9,N","070000,1,N,1","+0281,1","+0114,1","99999,9","24,0000,9,1",,,,"03,1,+00300,9,08,9",,,,"04,99,1,99,9,99,9,00450,1,99,9,99,9",,"01,9",,"120,M,+0308,1","180,N,+0100,1","99999,9,08218,1","9,9,999,9,-007,1",,,"SYN129AAXX  08001 76373 32488 43201 10281 20114 38218 4007 57015 83105 92340 333 10308 20100 30/// 50440 56202 59007 70000 83810 81070;","Q01  00002PRCP99Q02  00003PRCP99"
"76373099999","2001-08-08T18:00:00","4","25.35","-105.75","1967.0","TEPEHUANES DGO., MX","FM-12","99999","V020","120,1,N,0030,1","22000,1,9,N","070000,1,N,1","+0275,1","+0106,1","10146,1","99,0000,9,1",,,,"02,1,+00300,9,09,9",,,,"03,99,1,02,1,03,1,00450,1,00,1,05,1",,"01,9",,"120,M,+0286,1","240,N,+0122,1","99999,9,08244,1","7,1,008,1,-008,1",,,"SYN118AAXX  08181 76373 32488 31203 10275 20106 38244 40146 57008 82305 91748 333 10286 20122 30/// 56202 59008 82910 81070;","Q01  00002PRCP99"
"76373099999","2001-08-08T21:00:00","4","25.35","-105.75","1967.0","TEPEHUANES DGO., MX","FM-12","99999","V020","070,1,N,0010,1","22000,1,9,N","070000,1,N,1","+0313,1","+0098,1","10095,1","99,0000,9,1",,,,"03,1,+00300,9,09,9",,,,"03,99,1,03,1,03,1,00450,1,00,1,00,1",,"01,9",,,,"99999,9,08222,1","7,1,022,1,-011,1",,,"SYN100AAXX  08211 76373 32488 30701 10313 20098 38222 40095 57022 83300 92040 333 30/// 56200 59011 83910;","Q01  00002PRCP99"
"76373099999","2001-08-09T03:00:00","4","25.35","-105.75","1967.0","TEPEHUANES DGO., MX","FM-12","99999","V020","120,1,N,0020,1","03600,1,C,N","008000,1,N,1","+0220,1","+0125,1","10051,1","99,0000,9,1",,,,"01,1,+00300,9,08,9",,,,"05,99,1,01,1,01,1,00450,1,03,1,00,1",,"01,9",,,,"99999,9,08218,1","1,1,012,1,-004,1",,,"SYN106AAXX  09030 76373 32458 51202 10220 20125 38218 40051 51012 81130 90240 333 30/// 56880 59004 81810 84360;","Q01  00002PRCP99"
"76373099999","2001-08-09T15:00:00","4","25.35","-105.75","1967.0","TEPEHUANES DGO., MX","FM-12","99999","V020","270,1,N,0020,1","03600,1,C,N","020000,1,N,1","+0170,1","+0145,1","10158,1","09,0190,9,1",,"9,1,03,1","5,1,03,1","02,1,+00300,9,06,9",,,,"08,99,1,02,1,06,1,00250,1,03,1,00,1",,"09,9",,,,"99999,9,08252,1","9,9,999,9,+000,1","20,1",,"SYN124AAXX  09151 76373 /1370 82702 10170 20145 38252 40158 5//// 60198 72095 82630 91443 333 31/// 56110 58000 60198 82610 87360;",
"76373099999","2001-08-09T18:00:00","4","25.35","-105.75","1967.0","TEPEHUANES DGO., MX","FM-12","99999","V020","180,1,N,0010,1","03600,1,C,N","070000,1,N,1","+0220,1","+0143,1","10143,1","99,0000,2,1",,,,"01,1,+00300,9,08,9",,,,"08,99,1,01,1,01,1,00250,1,07,1,00,1",,"09,9",,"120,M,+0232,1","240,N,+0142,1","99999,9,08244,1","7,1,008,1,+000,1",,,"SYN118AAXX  09181 76373 32388 81801 10220 20143 38244 40143 57008 81170 91740 333 10232 20142 31/// 56220 58000 81810 88460;",
"76373099999","2001-08-09T21:00:00","4","25.35","-105.75","1967.0","TEPEHUANES DGO., MX","FM-12","99999","V020","110,1,N,0040,1","03000,1,9,N","070000,1,N,1","+0244,1","+0154,1","10109,1","99,0000,2,1",,,,"04,1,+00300,9,08,9","03,1,+03000,9,04,9",,,"08,99,1,04,1,06,1,00450,1,04,1,00,1",,"09,9",,,,"99999,9,08224,1","6,1,021,1,+002,1",,,"SYN112AAXX  09211 76373 32488 81104 10244 20154 38224 40109 56021 84640 92040 333 31/// 56220 58002 84810 83460 82360;",
"76373099999","2001-08-10T00:00:00","4","25.35","-105.75","1967.0","TEPEHUANES DGO., MX","FM-12","99999","V020","310,1,N,0020,1","03600,1,9,N","070000,1,N,1","+0230,1","+0153,1","10083,1","03,0010,9,1",,"5,1,06,1","5,1,06,1",,,,,"08,99,1,01,1,03,1,00450,1,03,1,02,1",,"09,9",,"120,M,+0264,1","180,N,+0142,1","99999,9,08210,1","6,1,014,1,+004,1","20,1",,"SYN136AAXX  10001 76373 /1488 83102 10230 20153 38210 40083 56014 60017 72055 81332 92340 333 10264 20142 31/// 50690 56222 58004 60017 70194;",
"76373099999","2001-08-10T03:00:00","4","25.35","-105.75","1967.0","TEPEHUANES DGO., MX","FM-12","99999","V020","090,1,N,0030,1","00900,1,9,N","000000,1,N,1","+0194,1","+0165,1","10090,1","03,0010,9,1",,"5,1,03,1","5,1,03,1","06,1,+00900,9,09,9",,,,"06,99,1,06,1,09,1,00250,1,03,1,00,1",,"09,9",,,,"99999,9,08221,1","2,1,011,1,+003,1","03,1",,"SYN112AAXX  10031 76373 32300 60903 10194 20165 38221 40090 52011 69997 70355 86930 92035 333 31/// 56220 58003 86930;",
"76373099999","2001-08-10T15:00:00","4","25.35","-105.75","1967.0","TEPEHUANES DGO., MX","FM-12","99999","V020","300,1,N,0020,1","03600,1,C,N","020000,1,N,1","+9999,9","+9999,9","10167,1","12,0050,9,1",,,,"02,1,+00300,9,06,9","02,1,+03000,9,03,9",,,"08,99,1,02,1,06,1,00250,1,03,1,04,1",,"09,9",,,,"99999,9,08254,1","9,9,999,9,+002,1",,,"SYN118AAXX  10151 76373 /2370 83002 20145 38254 40167 5//// 60052 82634 91442 333 31/// 56222 58002 60052 82610 82360 84070;",
"76373099999","2001-08-10T18:00:00","4","25.35","-105.75","1967.0","TEPEHUANES DGO., MX","FM-12","99999","V020","120,1,N,0010,1","03600,1,C,N","070000,1,N,1","+0194,1","+0146,1","10165,1","99,0000,9,1",,,,"03,1,+00300,9,06,9",,,,"08,99,1,03,1,04,1,00250,1,07,1,00,1",,"09,9",,"120,M,+0208,1","240,N,+0132,1","99999,9,08254,1","4,1,000,1,+009,1",,,"SYN118AAXX  10181 76373 32388 81201 10194 20146 38254 40165 54000 83470 91740 333 10208 20132 31/// 56220 58009 83610 85470;","Q01  00002PRCP99"
"76373099999","2001-08-10T21:00:00","4","25.35","-105.75","1967.0","TEPEHUANES DGO., MX","FM-12","99999","V020","120,1,N,0020,1","03600,1,C,N","070000,1,N,1","+0254,1","+0159,1","10118,1","03,9999,2,9",,"5,1,03,1","5,1,03,1","02,1,+00300,9,09,9","02,1,+03000,9,03,9",,,"08,99,1,02,1,03,1,00450,1,03,1,02,1",,"09,9",,,,"99999,9,08225,1","6,1,029,1,+001,1","20,1",,"SYN130AAXX  10211 76373 /1488 81202 10254 20159 38225 40118 56029 69907 72055 82332 92038 333 31/// 56222 58001 69907 82910 82360 86070;",
"76373099999","2001-08-11T00:00:00","4","25.35","-105.75","1967.0","TEPEHUANES DGO., MX","FM-12","99999","V020","070,1,N,0110,1","00600,1,9,N","060000,1,N,1","+0254,1","+0145,1","10099,1","24,0065,9,1",,,,"08,1,+00600,9,09,9",,,,"08,99,1,08,1,09,1,00250,1,00,1,00,1",,"01,9",,"120,M,+0294,1","180,N,+0132,1","99999,9,08197,1","4,1,000,1,+013,1",,,"SYN124AAXX  11001 76373 32386 80711 10254 20145 38197 40099 54000 88900 92340 333 10294 20132 30/// 56200 58013 60604 70065 88920;",
"76373099999","2001-08-11T18:00:00","4","25.35","-105.75","1967.0","TEPEHUANES DGO., MX","FM-12","99999","V020","090,1,N,0020,1","22000,1,9,N","070000,1,N,1","+0260,1","+0159,1","10144,1","99,0000,9,1",,,,"03,1,+00300,9,09,9",,,,"04,99,1,03,1,03,1,00250,1,00,1,05,1",,"01,9",,"120,M,+0274,1","240,N,+0124,1","99999,9,08242,1","2,1,005,1,-012,1",,,"SYN118AAXX  11181 76373 32388 40902 10260 20159 38242 40144 52005 83305 91736 333 10274 20124 30/// 56206 59012 83910 81070;","Q01  00002PRCP99"
"76373099999","2001-08-12T03:00:00","4","25.35","-105.75","1967.0","TEPEHUANES DGO., MX","FM-12","99999","V020","330,1,N,0040,1","00300,1,9,N","000000,1,N,1","+0176,1","+0146,1","10090,1","03,0050,9,1",,"6,1,03,1","5,1,03,1","08,1,+00300,9,09,9",,,,"08,99,1,08,1,09,1,00250,1,99,9,99,9",,"09,9",,,,"99999,9,08238,1","2,1,040,1,+009,1","50,1",,"SYN112AAXX  12031 76373 21300 83304 10176 20146 38238 40090 52040 75065 889// 90240 333 31/// 562// 58009 60057 88910;",
"76373099999","2001-08-12T21:00:00","4","25.35","-105.75","1967.0","TEPEHUANES DGO., MX","FM-12","99999","V020","140,1,N,0070,1","00600,1,9,N","070000,1,N,1","+0262,1","+0133,1","10125,1","99,0000,9,1",,,,"06,1,+00600,9,09,9","01,1,+03000,9,03,9",,,"08,99,1,06,1,03,1,00250,1,06,1,06,1",,"01,9",,,,"99999,9,08235,1","6,1,015,1,+026,1",,,"SYN112AAXX  12211 76373 32388 81407 10262 20133 38235 40125 56015 86366 92035 333 30/// 56666 58026 86920 81360 81080;","Q01  00002PRCP99"
"76373099999","2001-08-13T15:00:00","4","25.35","-105.75","1967.0","TEPEHUANES DGO., MX","FM-12","99999","V020","999,9,C,0000,1","03600,1,C,N","020000,1,N,1","+0174,1","+0153,1","10179,1","09,0040,9,1",,"6,1,03,1","5,1,03,1","04,1,+00300,9,06,9",,,,"08,99,1,04,1,04,1,00250,1,03,1,00,1",,"09,9",,,,"99999,9,08267,1","9,9,999,9,+011,1","20,1",,"SYN124AAXX  13151 76373 /1370 80000 10174 20153 38267 40179 5//// 60048 72065 84430 91438 333 31/// 56220 58011 60048 84610 84360;",
"76373099999","2001-08-13T18:00:00","4","25.35","-105.75","1967.0","TEPEHUANES DGO., MX","FM-12","99999","V020","160,1,N,0020,1","06000,1,9,N","070000,1,N,1","+0222,1","+0158,1","10169,1","99,0000,2,1",,,,"01,1,+00300,9,09,9","01,1,+00300,9,08,9","01,1,+03000,9,03,9","07,1,+06000,9,02,9","08,99,1,01,1,03,1,00450,1,03,1,07,1",,"09,9",,"120,M,+0242,1","240,N,+0142,1","99999,9,08263,1","2,1,004,1,+013,1",,,"SYN136AAXX  13181 76373 32488 81602 10222 20158 38263 40169 52004 81337 91740 333 10242 20142 31/// 56222 58013 81910 81810 81360 87270 99020;",
"76373099999","2001-08-13T21:00:00","4","25.35","-105.75","1967.0","TEPEHUANES DGO., MX","FM-12","99999","V020","150,1,N,0060,1","09000,1,C,N","070000,1,N,1","+0260,1","+0152,1","10127,1","99,0000,2,1",,,,"01,1,+00300,9,09,9","02,1,+00300,9,08,9",,,"08,99,1,02,1,02,1,00450,1,00,1,08,1",,"09,9",,,,"99999,9,08240,1","6,1,023,1,+005,1",,,"SYN112AAXX  13211 76373 32488 81506 10260 20152 38240 40127 56023 82208 92040 333 31/// 56202 58005 82810 81910 86270;",
"76373099999","2001-08-14T03:00:00","4","25.35","-105.75","1967.0","TEPEHUANES DGO., MX","FM-12","99999","V020","280,1,N,0030,1","22000,1,9,N","000800,1,N,1","+0204,1","+0137,1","10086,1","99,0000,2,1",,,,"00,1,+99999,9,99,9",,,,"00,99,1,00,1,00,1,99999,9,00,1,00,1",,"01,9",,,,"99999,9,08230,1","2,1,002,1,+999,9",,,"SYN082AAXX  14031 76373 32908 02803 10204 20137 38230 40086 52002 90257 333 30/// 58///;",
"76373099999","2001-08-14T15:00:00","4","25.35","-105.75","1967.0","TEPEHUANES DGO., MX","FM-12","99999","V020","999,9,C,0000,1","06000,1,9,N","070000,1,N,1","+0171,1","+0134,1","10167,1","99,0000,9,1",,,,"06,1,+06000,9,01,9",,,,"06,99,1,00,1,00,1,99999,9,00,1,05,1",,"01,9",,,,"99999,9,08248,1","2,1,008,1,-019,1",,,"SYN100AAXX  14151 76373 32988 60000 10171 20134 38248 40167 52008 80005 91443 333 30/// 56002 59019 86070;","Q01  00002PRCP99"
"76373099999","2001-08-14T18:00:00","4","25.35","-105.75","1967.0","TEPEHUANES DGO., MX","FM-12","99999","V020","060,1,N,0010,1","09000,1,C,N","070000,1,N,1","+0252,1","+0143,1","10151,1","99,0000,9,1",,,,"02,1,+00300,9,08,9",,,,"05,99,1,02,1,01,1,00450,1,00,1,02,1",,"01,9",,"120,M,+0270,1","240,N,+0112,1","99999,9,08241,1","6,1,007,1,-022,1",,,"SYN118AAXX  14181 76373 32488 50601 10252 20143 38241 40151 56007 82102 91740 333 10270 20112 30/// 56202 59022 82810 83070;","Q01  00002PRCP99"
"76373099999","2001-08-14T21:00:00","4","25.35","-105.75","1967.0","TEPEHUANES DGO., MX","FM-12","99999","V020","130,1,N,0060,1","22000,1,9,N","070000,1,N,1","+0286,1","+0128,1","10102,1","99,0000,9,1",,,,"02,1,+00300,9,09,9",,,,"03,99,1,02,1,03,1,00450,1,00,1,00,1",,"01,9",,,,"99999,9,08219,1","6,1,022,1,-021,1",,,"SYN106AAXX  14211 76373 32488 31306 10286 20128 38219 40102 56022 82300 92040 333 30/// 56200 59021 82910 81810;","Q01  00002PRCP99"
"76373099999","2001-08-15T00:00:00","4","25.35","-105.75","1967.0","TEPEHUANES DGO., MX","FM-12","99999","V020","130,1,N,0020,1","22000,1,9,N","070000,1,N,1","+0224,1","+0110,1","10048,1","24,0000,9,1",,,,"02,1,+00300,9,08,9",,,,"03,99,1,02,1,01,1,00450,1,00,1,05,1",,"01,9",,"120,M,+0314,1","180,N,+0112,1","99999,9,08245,1","7,1,021,1,-030,1",,,"SYN130AAXX  15001 76373 32488 31302 10224 20110 38245 40048 57021 82105 92346 333 10314 20112 30/// 50560 56202 59030 70000 82810 81070;","Q01  00002PRCP99Q02  00003PRCP99"
"76373099999","2001-08-15T12:00:00","4","25.35","-105.75","1967.0","TEPEHUANES DGO., MX","FM-12","99999","V020","999,9,C,0000,1","02400,1,9,N","000800,1,N,1","+0158,1","+0136,1","10104,1","24,0000,9,1",,,,"07,1,+02400,9,07,9",,,,"07,99,1,07,1,99,9,01750,1,07,1,00,1",,"01,9","999,+0120,9","999,M,+0314,1","120,N,+0144,1","99999,9,08216,1","2,1,003,1,-024,1",,,"SYN118AAXX  15121 76373 32708 70000 10158 20136 38216 40104 52003 87070 91140 333 10314 20144 30012 56020 59024 70000 87358;","Q01    003SCOLCG"
"76373099999","2001-08-15T15:00:00","4","25.35","-105.75","1967.0","TEPEHUANES DGO., MX","FM-12","99999","V020","270,1,N,0020,1","22000,1,9,N","070000,1,N,1","+0204,1","+0145,1","10127,1","99,0000,9,1",,,,"01,1,+02400,9,03,9",,,,"03,99,1,01,1,00,1,01750,1,03,1,05,1",,"01,9",,,,"99999,9,08230,1","2,1,014,1,-018,1",,,"SYN106AAXX  15151 76373 32788 32702 10204 20145 38230 40127 52014 81035 91445 333 30/// 56022 59018 81358 82070;","Q01  00002PRCP99"
"76373099999","2001-08-15T21:00:00","4","25.35","-105.75","1967.0","TEPEHUANES DGO., MX","FM-12","99999","V020","120,1,N,0050,1","22000,1,9,N","070000,1,N,1","+0313,1","+0099,1","10074,1","99,0000,9,1",,,,"03,1,+00300,9,09,9",,,,"04,99,1,03,1,03,1,00450,1,00,1,04,1",,"01,9",,,,"99999,9,08214,1","7,1,011,1,+004,1",,,"SYN106AAXX  15211 76373 32488 41205 10313 20099 38214 40074 57011 83304 92040 333 30/// 56202 58004 83910 81070;","Q01  00002PRCP99"
"76373099999","2001-08-16T15:00:00","4","25.35","-105.75","1967.0","TEPEHUANES DGO., MX","FM-12","99999","V020","310,1,N,0010,1","22000,1,9,N","070000,1,N,1","+0202,1","+0142,1","10129,1","99,0000,9,1",,,,"01,1,+06000,9,01,9",,,,"01,99,1,00,1,00,1,99999,9,00,1,02,1",,"01,9",,,,"99999,9,08237,1","3,1,014,1,+007,1",,,"SYN100AAXX  16151 76373 32988 13101 10202 20142 38237 40129 53014 80002 91440 333 30/// 56002 58007 81070;","Q01  00002PRCP99"
"76373099999","2001-08-16T18:00:00","4","25.35","-105.75","1967.0","TEPEHUANES DGO., MX","FM-12","99999","V020","300,1,N,0080,1","09000,1,C,N","070000,1,N,1","+0268,1","+0141,1","10129,1","99,0000,9,1",,,,"04,1,+00300,9,08,9",,,,"05,99,1,04,1,01,1,00450,1,00,1,02,1",,"01,9",,"120,M,+0290,1","240,N,+0140,1","99999,9,08241,1","7,1,004,1,+016,1",,,"SYN118AAXX  16181 76373 32488 53008 10268 20141 38241 40129 57004 84102 91737 333 10290 20140 30/// 56202 58016 84810 81070;","Q01  00002PRCP99"
"76373099999","2001-08-16T21:00:00","4","25.35","-105.75","1967.0","TEPEHUANES DGO., MX","FM-12","99999","V020","090,1,N,0050,1","99999,9,9,N","070000,1,N,1","+0292,1","+0125,1","10081,1","99,0000,9,1",,,,"03,1,+00300,9,08,9",,,,"05,99,1,03,1,01,1,00450,1,00,1,00,1",,"01,9",,,,"99999,9,08216,1","6,1,025,1,+002,1",,,"SYN106AAXX  16211 76373 32488 50905 10292 20125 38216 40081 56025 83100 92040 333 30/// 56200 58002 83810 82910;","Q01  00002PRCP99"
"76373099999","2001-08-17T15:00:00","4","25.35","-105.75","1967.0","TEPEHUANES DGO., MX","FM-12","99999","V020","300,1,N,0010,1","03600,1,C,N","070000,1,N,1","+0180,1","+0140,1","10174,1","99,0000,9,1",,,,"01,1,+00300,9,06,9",,,,"08,99,1,01,1,04,1,00250,1,07,1,00,1",,"01,9",,,,"99999,9,08262,1","9,9,999,9,+025,1",,,"SYN106AAXX  17151 76373 32388 83001 10180 20140 38262 40174 5//// 81470 91440 333 30/// 56220 58025 81610 88460;","Q01  00002PRCP99"
"76373099999","2001-08-17T18:00:00","4","25.35","-105.75","1967.0","TEPEHUANES DGO., MX","FM-12","99999","V020","110,1,N,0050,1","09000,1,C,N","070000,1,N,1","+0244,1","+0137,1","10160,1","99,0000,9,1",,,,"04,1,+00300,9,08,9",,,,"08,99,1,04,1,01,1,00450,1,00,1,08,1",,"01,9",,"120,M,+0264,1","240,N,+0132,1","99999,9,08258,1","6,1,004,1,+017,1",,,"SYN118AAXX  17181 76373 32488 81105 10244 20137 38258 40160 56004 84108 91740 333 10264 20132 30/// 56202 58017 84810 86270;","Q01  00002PRCP99"
"76373099999","2001-08-17T21:00:00","4","25.35","-105.75","1967.0","TEPEHUANES DGO., MX","FM-12","99999","V020","120,1,N,0060,1","09000,1,C,N","070000,1,N,1","+0274,1","+0152,1","10113,1","99,0000,9,1",,,,"02,1,+00300,9,09,9","01,1,+00300,9,08,9",,,"08,99,1,02,1,03,1,00450,1,00,1,08,1",,"01,9",,,,"99999,9,08233,1","6,1,025,1,+017,1",,,"SYN112AAXX  17211 76373 32488 81206 10274 20152 38233 40113 56025 82308 92040 333 30/// 56202 58017 82910 81810 87270;","Q01  00002PRCP99"
"76373099999","2001-08-18T00:00:00","4","25.35","-105.75","1967.0","TEPEHUANES DGO., MX","FM-12","99999","V020","130,1,N,0030,1","09000,1,9,N","060000,1,N,1","+0262,1","+0130,1","10081,1","24,0004,9,1","99,0000,9,1",,,"04,1,+00600,9,09,9",,,,"08,99,1,04,1,03,1,00250,1,00,1,08,1",,"01,9",,"120,M,+0298,1","180,N,+0132,1","99999,9,08219,1","6,1,014,1,-006,1",,,"SYN130AAXX  18001 76373 32386 81303 10262 20130 38219 40081 56014 84308 92340 333 10298 20132 30/// 50500 56202 59006 70004 84920 84280;","Q01  00002PRCP99"
"76373099999","2001-08-18T03:00:00","4","25.35","-105.75","1967.0","TEPEHUANES DGO., MX","FM-12","99999","V020","210,1,N,0010,1","00600,1,9,N","010000,1,N,1","+0186,1","+0143,1","10132,1","99,0000,9,1",,,,"08,1,+00600,9,09,9",,,,"08,99,1,08,1,09,1,00250,1,00,1,00,1",,"01,9",,,,"99999,9,08256,1","2,1,037,1,+012,1",,,"SYN100AAXX  18031 76373 32360 82101 10186 20143 38256 40132 52037 88900 90245 333 30/// 56200 58012 88920;","Q01  00002PRCP99"
"76373099999","2001-08-18T15:00:00","4","25.35","-105.75","1967.0","TEPEHUANES DGO., MX","FM-12","99999","V020","999,9,C,0000,1","09000,1,9,N","040000,1,N,1","+0152,1","+0149,1","10191,1","99,0000,9,1",,,,"03,1,+03000,9,03,9",,,,"08,99,1,02,1,00,1,01250,1,03,1,07,1",,"01,9",,,,"99999,9,08262,1","9,9,999,9,+000,1",,,"SYN106AAXX  18151 76373 32682 80000 10152 20149 38262 40191 5//// 82037 91435 333 30/// 56022 58000 83360 85280;","Q01  00002PRCP99"
"76373099999","2001-08-18T21:00:00","4","25.35","-105.75","1967.0","TEPEHUANES DGO., MX","FM-12","99999","V020","190,1,N,0040,1","00600,1,9,N","070000,1,N,1","+0250,1","+0144,1","10148,1","02,0007,9,1",,"5,1,03,1","5,1,03,1","05,1,+00600,9,09,9","02,1,+03000,9,03,9",,,"08,99,1,05,1,09,1,00250,1,06,1,06,1",,"01,9",,,,"99999,9,08234,1","6,1,020,1,+001,1","16,1",,"SYN124AAXX  18211 76373 11388 81904 10250 20144 38234 40148 56020 69906 71655 85966 92045 333 30/// 56522 58001 85920 82360 83080;",
"76373099999","2001-08-19T00:00:00","4","25.35","-105.75","1967.0","TEPEHUANES DGO., MX","FM-12","99999","V020","150,1,N,0030,1","03600,1,9,N","030000,1,N,1","+0234,1","+0131,1","10097,1","24,0006,9,1","99,0000,9,1",,,"04,1,+00600,9,09,9",,,,"08,99,1,04,1,03,1,00250,1,06,1,00,1",,"01,9",,"120,M,+0298,1","180,N,+0118,1","99999,9,08224,1","2,1,001,1,+005,1",,,"SYN130AAXX  19001 76373 32380 81503 10234 20131 38224 40097 52001 84360 92345 333 10298 20118 30/// 50430 56550 58005 70006 84920 84360;","Q01  00002PRCP99"
"76373099999","2001-08-19T03:00:00","4","25.35","-105.75","1967.0","TEPEHUANES DGO., MX","FM-12","99999","V020","270,1,N,0020,1","03000,1,9,N","010000,1,N,1","+0204,1","+0124,1","10104,1","99,0000,9,1",,,,"08,1,+03000,9,07,9",,,,"08,99,1,08,1,00,1,00250,1,06,1,00,1",,"01,9",,,,"99999,9,08238,1","2,1,014,1,-018,1",,,"SYN100AAXX  19031 76373 32360 82702 10204 20124 38238 40104 52014 88060 90250 333 30/// 56020 59018 88360;","Q01  00002PRCP99"
"76373099999","2001-08-19T18:00:00","4","25.35","-105.75","1967.0","TEPEHUANES DGO., MX","FM-12","99999","V020","140,1,N,0040,1","22000,1,9,N","060000,1,N,1","+0260,1","+0145,1","10146,1","99,0000,9,1",,,,"02,1,+00600,9,08,9",,,,"03,99,1,02,1,02,1,00250,1,00,1,06,1",,"01,9",,"120,M,+0272,1","240,N,+0108,1","99999,9,08239,1","6,1,011,1,+015,1",,,"SYN118AAXX  19181 76373 32386 31404 10260 20145 38239 40146 56011 82206 91745 333 10272 20108 30/// 56606 58015 82820 81080;","Q01  00002PRCP99"
"76373099999","2001-08-20T15:00:00","4","25.35","-105.75","1967.0","TEPEHUANES DGO., MX","FM-12","99999","V020","060,1,N,0010,1","03000,1,9,N","070000,1,N,1","+0186,1","+0146,1","10139,1","99,0000,9,1",,,,"06,1,+03000,9,03,9",,,,"07,99,1,06,1,00,1,01750,1,03,1,02,1",,"01,9",,,,"99999,9,08238,1","9,9,999,9,-012,1",,,"SYN106AAXX  20151 76373 32788 70601 10186 20146 38238 40139 5//// 86032 91435 333 30/// 57022 59012 86360 81070;","Q01  00002PRCP99"
"76373099999","2001-08-20T18:00:00","4","25.35","-105.75","1967.0","TEPEHUANES DGO., MX","FM-12","99999","V020","180,1,N,0020,1","22000,1,9,N","070000,1,N,1","+0250,1","+0137,1","10129,1","99,0000,9,1",,,,"01,1,+00300,9,09,9","01,1,+00300,9,08,9",,,"04,99,1,01,1,03,1,00450,1,00,1,02,1",,"01,9",,"120,M,+0268,1","240,N,+0142,1","99999,9,08236,1","8,1,002,1,-003,1",,,"SYN124AAXX  20181 76373 32488 41802 10250 20137 38236 40129 58002 81302 91740 333 10268 20142 30/// 56202 59003 81910 81810 82070;","Q01  00002PRCP99"
"76373099999","2001-08-20T21:00:00","4","25.35","-105.75","1967.0","TEPEHUANES DGO., MX","FM-12","99999","V020","060,1,N,0030,1","03600,1,C,N","070000,1,N,1","+0292,1","+0125,1","10079,1","99,0000,9,1",,,,"02,1,+00300,9,09,9","01,1,+00300,9,08,9","01,1,+03000,9,03,9",,"06,99,1,02,1,03,1,00450,1,03,1,02,1",,"01,9",,,,"99999,9,08211,1","6,1,025,1,+001,1",,,"SYN118AAXX  20211 76373 32488 60603 10292 20125 38211 40079 56025 82332 92040 333 30/// 56666 58001 82910 81810 81360 82070;","Q01  00002PRCP99"
"76373099999","2001-08-21T00:00:00","4","25.35","-105.75","1967.0","TEPEHUANES DGO., MX","FM-12","99999","V020","100,1,N,0030,1","00420,1,9,N","070000,1,N,1","+0164,2","+0161,1","10076,1","03,0300,9,1","06,0300,9,1","8,1,06,1","6,1,06,1",,,,,"08,99,1,08,1,09,1,00450,1,99,9,99,9",,"11,9",,"120,M,+0330,1","180,N,+0142,1","99999,9,08215,1","3,1,004,1,+010,1","51,1",,"SYN136AAXX  21001 76373 /1488 81003 10164 20161 38215 40076 53004 60301 75186 889// 92346 333 10330 20142 32/// 50360 561// 58010 60307 70300;",
"76373099999","2001-08-21T03:00:00","4","25.35","-105.75","1967.0","TEPEHUANES DGO., MX","FM-12","99999","V020","270,1,N,0020,1","99999,9,9,N","000800,1,N,1","+0174,1","+0164,1","10097,1","03,0005,9,1",,"6,1,03,1","5,1,03,1",,,,,"08,99,1,99,9,99,9,99999,9,99,9,99,9",,"09,9",,,,"99999,9,08230,1","2,1,017,1,+999,9","00,1",,"SYN106AAXX  21031 76373 21/08 82702 10174 20164 38230 40097 52017 70065 8//// 90255 333 31/// 56/// 58/// 69957;",
"76373099999","2001-08-21T15:00:00","4","25.35","-105.75","1967.0","TEPEHUANES DGO., MX","FM-12","99999","V020","300,1,N,0010,1","22000,1,9,N","070000,1,N,1","+0182,1","+0149,1","10151,1","99,0000,9,1",,,,"01,1,+00300,9,08,9",,,,"02,99,1,01,1,01,1,00450,1,00,1,04,1",,"09,9",,,,"99999,9,08240,1","2,1,003,1,+002,1",,,"SYN106AAXX  21151 76373 32488 23001 10182 20149 38240 40151 52003 81104 91450 333 31/// 56202 58002 81810 81070;","Q01  00002PRCP99"
"76373099999","2001-08-21T18:00:00","4","25.35","-105.75","1967.0","TEPEHUANES DGO., MX","FM-12","99999","V020","100,1,N,0030,1","22000,1,9,N","070000,1,N,1","+0250,1","+0150,1","10132,1","99,0000,9,1",,,,"01,1,+00300,9,09,9",,,,"02,99,1,01,1,03,1,00450,1,00,1,00,1",,"09,9",,"120,M,+0270,1","240,N,+0132,1","99999,9,08235,1","6,1,005,1,+001,1",,,"SYN118AAXX  21181 76373 32488 21003 10250 20150 38235 40132 56005 81300 91746 333 10270 20132 31/// 56600 58001 81910 81810;","Q01  00002PRCP99"
"76373099999","2001-08-22T12:00:00","4","25.35","-105.75","1967.0","TEPEHUANES DGO., MX","FM-12","99999","V020","240,1,N,0010,1","22000,1,9,N","000800,1,N,1","+0146,1","+0124,1","10139,1","24,0000,9,1",,,,"01,1,+02400,9,07,9",,,,"01,99,1,01,1,99,9,01750,1,03,1,00,1",,"01,9","999,+0110,9","999,M,+0310,1","120,N,+0132,1","99999,9,08238,1","2,1,002,1,+001,1",,,"SYN118AAXX  22121 76373 32708 12401 10146 20124 38238 40139 52002 81030 91148 333 10310 20132 30011 56070 58001 70000 81358;","Q01    003SCOLCG"
"76373099999","2001-08-22T15:00:00","4","25.35","-105.75","1967.0","TEPEHUANES DGO., MX","FM-12","99999","V020","300,1,N,0010,1","22000,1,9,N","070000,1,N,1","+0161,1","+0134,1","10132,1","99,0000,9,1",,,,"02,1,+02400,9,07,9",,,,"02,99,1,02,1,99,9,01750,1,03,1,00,1",,"01,9",,,,"99999,9,08249,1","2,1,011,1,+009,1",,,"SYN100AAXX  22151 76373 32788 23001 10161 20134 38249 40132 52011 82030 91448 333 30/// 56060 58009 82358;","Q01  00002PRCP99Q02    003SCOLCG"
"76373099999","2001-08-22T18:00:00","4","25.35","-105.75","1967.0","TEPEHUANES DGO., MX","FM-12","99999","V020","120,1,N,0010,1","22000,1,9,N","070000,1,N,1","+0252,1","+0133,1","10141,1","99,0000,9,1",,,,,,,,"02,99,1,99,9,03,1,00450,1,00,1,00,1",,"01,9",,"120,M,+0264,1","240,N,+0122,1","99999,9,08240,1","7,1,009,1,+999,9",,,"SYN111AAXX  22181 76373 32488 21201 10252 20133 38240 40141 57009 81300 91738 333 10264 20122 30/// 56600 5805 82910;","Q01+000012SCOTLCQ02  00002PRCP99"
"76373099999","2001-08-22T21:00:00","4","25.35","-105.75","1967.0","TEPEHUANES DGO., MX","FM-12","99999","V020","110,1,N,0020,1","09000,1,C,N","070000,1,N,1","+0287,1","+0135,1","10097,1","99,0000,9,1",,,,"03,1,+00300,9,09,9",,,,"05,99,1,03,1,09,1,00450,1,00,1,03,1",,"01,9",,,,"99999,9,08221,1","7,1,019,1,+010,1",,,"SYN106AAXX  22211 76373 32488 51102 10287 20135 38221 40097 57019 83903 92040 333 30/// 56606 58010 83910 82070;","Q01  00002PRCP99"
"76373099999","2001-08-23T00:00:00","4","25.35","-105.75","1967.0","TEPEHUANES DGO., MX","FM-12","99999","V020","150,1,N,0010,1","09000,1,9,N","070000,1,N,1","+0246,1","+0158,1","10069,1","24,0000,9,1",,,,"02,1,+00300,9,06,9","03,1,+02400,9,03,9",,,"06,99,1,02,1,04,1,00450,1,03,1,03,1",,"01,9",,"120,M,+0308,1","180,N,+0122,1","99999,9,08210,1","7,1,011,1,-002,1",,,"SYN136AAXX  23001 76373 32488 61501 10246 20158 38210 40069 57011 82433 92348 333 10308 20122 30/// 50410 56666 59002 70000 82610 83358 81070;","Q01  00002PRCP99Q02  00003PRCP99"
"76373099999","2001-08-23T03:00:00","4","25.35","-105.75","1967.0","TEPEHUANES DGO., MX","FM-12","99999","V020","270,1,N,0030,1","99999,9,9,N","000800,1,N,1","+0186,1","+0137,1","10081,1","99,0000,9,1",,,,,,,,"08,99,1,99,9,99,9,99999,9,99,9,99,9",,"01,9",,,,"99999,9,08227,1","2,1,017,1,+002,1",,,"SYN094AAXX  23031 76373 32/08 82703 10186 20137 38227 40081 52017 8//// 90240 333 30/// 56/// 58002;","Q01  00002PRCP99"
"76373099999","2001-08-23T15:00:00","4","25.35","-105.75","1967.0","TEPEHUANES DGO., MX","FM-12","99999","V020","030,1,N,0010,1","22000,1,C,N","070000,1,N,1","+0170,1","+0140,1","10160,1","99,0000,9,1",,,,"01,1,+03000,9,03,9",,,,"06,99,1,01,1,00,1,01750,1,03,1,04,1",,"01,9",,,,"99999,9,08244,1","9,9,999,9,-005,1",,,"SYN106AAXX  23151 76373 32788 60301 10170 20140 38244 40160 5//// 81034 91435 333 30/// 56022 59005 81360 85070;","Q01  00002PRCP99"
"76373099999","2001-08-23T18:00:00","4","25.35","-105.75","1967.0","TEPEHUANES DGO., MX","FM-12","99999","V020","100,1,N,0010,1","09000,1,C,N","070000,1,N,1","+0254,1","+0152,1","10132,1","99,0000,9,1",,,,"01,1,+00300,9,09,9","02,1,+00300,9,08,9",,,"05,99,1,02,1,01,1,00450,1,00,1,02,1",,"01,9",,"120,M,+0274,1","240,N,+0120,1","99999,9,08233,1","6,1,011,1,-007,1",,,"SYN124AAXX  23181 76373 32488 51001 10254 20152 38233 40132 56011 82102 91735 333 10274 20120 30/// 56202 59007 82810 81910 82070;","Q01  00002PRCP99"
"76373099999","2001-08-24T15:00:00","4","25.35","-105.75","1967.0","TEPEHUANES DGO., MX","FM-12","99999","V020","330,1,N,0010,1","22000,1,9,N","070000,1,N,1","+0184,1","+0177,1","10139,1","99,0000,9,1",,,,"00,1,+99999,9,99,9",,,,"00,99,1,00,1,00,1,99999,9,00,1,00,1",,"09,9",,,,"99999,9,08230,1","9,9,999,9,-014,1",,,"SYN082AAXX  24151 76373 32988 03301 10184 20177 38230 40139 5//// 91435 333 31/// 59014;","Q01  00002PRCP99"
"76373099999","2001-08-24T18:00:00","4","25.35","-105.75","1967.0","TEPEHUANES DGO., MX","FM-12","99999","V020","060,1,N,0010,1","22000,1,9,N","070000,1,N,1","+0270,1","+0155,1","10113,1","99,0000,9,1",,,,"02,1,+00300,9,02,9",,,,"02,99,1,02,1,01,1,00450,1,00,1,00,1",,"01,9",,"120,M,+0280,1","240,N,+0128,1","99999,9,08222,1","8,1,008,1,-011,1",,,"SYN112AAXX  24181 76373 32488 20601 10270 20155 38222 40113 58008 82100 91740 333 10280 20128 30/// 56200 59011 82810;","Q01  00002PRCP99"
"76373099999","2001-08-24T21:00:00","4","25.35","-105.75","1967.0","TEPEHUANES DGO., MX","FM-12","99999","V020","080,1,N,0030,1","99999,9,9,N","070000,1,N,1","+0288,1","+0173,1","10067,1","99,0000,9,1",,,,"04,1,+00300,9,08,9",,,,"05,99,1,04,1,01,1,00450,1,00,1,00,1",,"01,9",,,,"99999,9,08201,1","6,1,021,1,-016,1",,,"SYN106AAXX  24211 76373 32488 50803 10288 20173 38201 40067 56021 84100 92040 333 30/// 56200 59016 84810 81910;","Q01  00002PRCP99"
"76373099999","2001-08-25T00:00:00","4","25.35","-105.75","1967.0","TEPEHUANES DGO., MX","FM-12","99999","V020","090,1,N,0040,1","03000,1,C,N","070000,1,N,1","+0280,1","+0150,1","10018,1","24,0017,9,1","99,0000,9,1",,,"02,1,+00600,9,08,9","04,1,+03000,9,05,9",,,"08,99,1,02,1,01,1,00250,1,02,1,06,1",,"01,9",,"120,M,+0324,1","180,N,+0128,1","99999,9,08190,1","6,1,011,1,-018,1",,,"SYN136AAXX  25001 76373 32388 80904 10280 20150 38190 40018 56011 82126 92340 333 10324 20128 30/// 50740 56222 59018 70017 82820 84560 82080;","Q01  00002PRCP99"
"76373099999","2001-08-25T18:00:00","4","25.35","-105.75","1967.0","TEPEHUANES DGO., MX","FM-12","99999","V020","130,1,N,0070,1","09000,1,9,N","070000,1,N,1","+0280,1","+0192,1","10097,1","99,0000,9,1",,,,"08,1,+09000,9,01,9",,,,"08,99,1,00,1,00,1,99999,9,00,1,04,1",,"01,9",,"120,M,+0290,1","240,N,+0128,1","99999,9,08210,1","6,1,003,1,-012,1",,,"SYN112AAXX  25181 76373 32988 81307 10280 20192 38210 40097 56003 80004 91740 333 10290 20128 30/// 56002 59012 88080;","Q01  00002PRCP99"
"76373099999","2001-08-25T21:00:00","4","25.35","-105.75","1967.0","TEPEHUANES DGO., MX","FM-12","99999","V020","060,1,N,0060,1","22000,1,C,N","070000,1,N,1","+0300,1","+0130,1","10069,1","99,0000,9,1",,,,"03,1,+00600,9,08,9",,,,"08,99,1,03,1,01,1,00250,1,00,1,04,1",,"01,9",,,,"99999,9,08195,1","6,1,015,1,+005,1",,,"SYN106AAXX  25211 76373 32388 80606 10300 20130 38195 40069 56015 83104 92045 333 30/// 56202 58005 83820 88080;","Q01  00002PRCP99"
"76373099999","2001-08-26T00:00:00","4","25.35","-105.75","1967.0","TEPEHUANES DGO., MX","FM-12","99999","V020","080,1,N,0040,1","22000,1,C,N","070000,1,N,1","+0298,1","+0164,1","10018,1","24,0000,9,1",,,,"03,1,+00600,9,08,9",,,,"08,99,1,03,1,01,1,00250,1,00,1,04,1",,"01,9",,"120,M,+0326,1","180,N,+0128,1","99999,9,08180,1","6,1,015,1,+001,1",,,"SYN130AAXX  26001 76373 32388 80804 10298 20164 38180 40018 56015 83104 92340 333 10326 20128 30/// 50670 56202 58001 70000 83820 85080;","Q01  00002PRCP99Q02  00003PRCP99"
"76373099999","2001-08-26T15:00:00","4","25.35","-105.75","1967.0","TEPEHUANES DGO., MX","FM-12","99999","V020","060,1,N,0010,1","09000,1,9,N","070000,1,N,1","+0180,1","+0114,1","10113,1","99,0000,9,1",,,,"08,1,+09000,9,01,9",,,,"08,99,1,00,1,00,1,99999,9,00,1,04,1",,"01,9",,,,"99999,9,08219,1","9,9,999,9,-011,1",,,"SYN100AAXX  26151 76373 32988 80601 10180 20114 38219 40113 5//// 80004 91430 333 30/// 56002 59011 88080;","Q01  00002PRCP99"
"76373099999","2001-08-26T21:00:00","4","25.35","-105.75","1967.0","TEPEHUANES DGO., MX","FM-12","99999","V020","140,1,N,0060,1","00600,1,9,N","070000,1,N,1","+0290,1","+0200,1","10088,1","99,0000,9,1",,,,"08,1,+00600,9,09,9",,,,"08,99,1,08,1,03,1,00250,1,00,1,00,1",,"01,9",,,,"99999,9,08200,1","6,1,020,1,+001,1",,,"SYN094AAXX  26211 76373 32388 81406 10290 20200 38200 40088 56020 88300 92040 333 30/// 58001 88920;","Q01  00002PRCP99"
"76373099999","2001-08-27T00:00:00","4","25.35","-105.75","1967.0","TEPEHUANES DGO., MX","FM-12","99999","V020","290,1,N,0010,1","03600,1,9,N","070000,1,N,1","+0224,1","+0151,1","10044,1","02,9999,9,9",,"9,1,06,1","5,1,06,1",,,,,"07,99,1,01,1,03,1,00450,1,03,1,02,1",,"01,9",,"120,M,+0326,1","180,N,+0114,1","99999,9,08195,1","7,1,005,1,+015,1","29,1",,"SYN136AAXX  27001 76373 /1488 72901 10224 20151 38195 40044 57005 69906 72995 81332 92340 333 10326 20114 30/// 50460 56222 58015 69906 79999;","Q01  99992PRCP02"
"76373099999","2001-08-27T15:00:00","4","25.35","-105.75","1967.0","TEPEHUANES DGO., MX","FM-12","99999","V020","290,1,N,0010,1","09000,1,C,N","070000,1,N,1","+0174,1","+0133,1","10129,1","09,0010,9,1",,,,"04,1,+03000,9,03,9",,,,"08,99,1,04,1,00,1,01750,1,03,1,08,1",,"09,9",,,,"99999,9,08229,1","9,9,999,9,+010,1",,,"SYN118AAXX  27151 76373 /2788 82901 10174 20133 38229 40129 5//// 60018 84038 91446 333 31/// 56011 58010 60018 84360 87270;",
"76373099999","2001-08-28T03:00:00","4","25.35","-105.75","1967.0","TEPEHUANES DGO., MX","FM-12","99999","V020","999,9,C,0000,1","00300,1,9,N","000800,1,N,1","+0174,1","+0146,1","10083,1","03,0020,9,1",,"6,1,03,1","5,1,03,1","08,1,+00300,9,05,9",,,,"08,99,1,08,1,04,1,00450,1,99,9,99,9",,"09,9",,,,"99999,9,08212,1","2,1,018,1,+999,9","03,1",,"SYN112AAXX  28031 76373 11408 80000 10174 20146 38212 40083 52018 70365 884// 90250 333 31/// 561// 58/// 60027 88610;",
"76373099999","2001-08-28T12:00:00","4","25.35","-105.75","1967.0","TEPEHUANES DGO., MX","FM-12","99999","V020","999,9,C,0000,1","00300,1,9,N","000800,1,N,1","+0144,1","+0141,1","10113,1","24,0084,9,1",,,,"08,1,+00300,9,06,9",,,,"08,99,1,08,1,06,1,00450,1,99,9,99,9",,"09,9","999,+0120,9","999,M,+0270,1","120,N,+0130,1","99999,9,08205,1","4,1,000,1,+999,9",,,"SYN118AAXX  28121 76373 32408 80000 10144 20141 38205 40113 54000 886// 91145 333 10270 20130 31012 561// 58/// 70084 88710;",
"76373099999","2001-08-28T18:00:00","4","25.35","-105.75","1967.0","TEPEHUANES DGO., MX","FM-12","99999","V020","360,1,N,0010,1","00300,1,9,N","060000,1,N,1","+0211,1","+0144,1","10118,1","99,0000,9,1",,,,"06,1,+00300,9,07,9",,,,"08,99,1,06,1,06,1,00450,1,02,1,00,1",,"09,9",,"120,M,+0222,1","240,N,+0130,1","99999,9,08213,1","0,1,000,1,-007,1",,,"SYN118AAXX  28181 76373 32486 83601 10211 20144 38213 40118 50000 86620 91740 333 10222 20130 31/// 56220 59007 86710 82458;","Q01  00002PRCP99"
"76373099999","2001-08-29T00:00:00","4","25.35","-105.75","1967.0","TEPEHUANES DGO., MX","FM-12","99999","V020","140,1,N,0040,1","00300,1,C,N","070000,1,N,1","+0196,1","+0147,1","10070,1","24,0017,9,1","99,0000,9,1",,,"07,1,+00300,9,07,9",,,,"08,99,1,07,1,07,1,00450,1,03,1,00,1",,"01,9",,"120,M,+0268,1","180,N,+0130,1","99999,9,08186,1","5,1,000,1,-008,1",,,"SYN130AAXX  29001 76373 32488 81404 10196 20147 38186 40070 55000 87730 92345 333 10268 20130 30/// 50310 56220 59008 70017 87710 81358;","Q01  00002PRCP99"
"76373099999","2001-08-29T12:00:00","4","25.35","-105.75","1967.0","TEPEHUANES DGO., MX","FM-12","99999","V020","240,1,N,0010,1","00300,1,9,N","000800,1,N,1","+0158,1","+0145,1","10093,1","06,0050,9,1","24,0065,9,1","6,1,06,1","5,1,06,1","08,1,+00300,9,06,9",,,,"08,99,1,08,1,07,1,00450,1,99,9,99,9",,"11,9","999,+0140,9","999,M,+0268,1","120,N,+0152,1","99999,9,08196,1","7,1,003,1,-009,1","61,1",,"SYN136AAXX  29121 76373 /1408 82401 10158 20145 38196 40093 57003 60068 76165 887// 91140 333 10268 20152 32014 56/// 59009 60051 70065 88710;",
"76373099999","2001-08-29T21:00:00","4","25.35","-105.75","1967.0","TEPEHUANES DGO., MX","FM-12","99999","V020","240,1,N,0030,1","09000,1,C,N","070000,1,N,1","+0243,1","+0140,1","10076,1","99,0000,2,1",,,,"02,1,+00300,9,08,9",,,,"08,99,1,02,1,01,1,00450,1,00,1,08,1",,"09,9",,,,"99999,9,08195,1","7,1,018,1,+009,1",,,"SYN106AAXX  29211 76373 32488 82403 10243 20140 38195 40076 57018 82108 92038 333 31/// 56707 58009 82810 86170;",
"76373099999","2001-08-30T00:00:00","4","25.35","-105.75","1967.0","TEPEHUANES DGO., MX","FM-12","99999","V020","210,1,N,0080,1","03600,1,9,N","060000,1,N,1","+0234,1","+0135,1","10053,1","24,0085,9,1","99,0000,2,1",,,"04,1,+00600,9,09,9",,,,"08,99,1,04,1,03,1,00250,1,06,1,00,1",,"01,9",,"120,M,+0266,1","180,N,+0150,1","99999,9,08184,1","6,1,011,1,-002,1",,,"SYN130AAXX  30001 76373 32386 82108 10234 20135 38184 40053 56011 84360 92335 333 10266 20150 30/// 50480 56770 59002 70085 84920 84360;",
"76373099999","2001-08-31T00:00:00","4","25.35","-105.75","1967.0","TEPEHUANES DGO., MX","FM-12","99999","V020","330,1,N,0060,1","00600,1,C,N","030000,1,N,1","+0208,1","+0170,1","10053,1","24,0000,9,1",,,,"06,1,+00600,9,09,9",,,,"08,99,1,06,1,09,1,00250,1,06,1,00,1",,"01,9",,"120,M,+0288,1","180,N,+0140,1","99999,9,08189,1","6,1,001,1,+005,1",,,"SYN130AAXX  31001 76373 32380 83306 10208 20170 38189 40053 56001 86960 92348 333 10288 20140 30/// 50470 56660 58005 70000 86920 82360;","Q01  00002PRCP99Q02  00003PRCP99"
"76373099999","2001-08-31T15:00:00","4","25.35","-105.75","1967.0","TEPEHUANES DGO., MX","FM-12","99999","V020","280,1,N,0020,1","22000,1,9,N","070000,1,N,1","+0174,1","+0149,1","10123,1","09,0040,9,1",,,,"01,1,+00300,9,08,9",,,,"02,99,1,01,1,01,1,00450,1,00,1,02,1",,"09,9",,,,"99999,9,08214,1","9,9,999,9,+006,1",,,"SYN118AAXX  31151 76373 /3488 22802 10174 20149 38214 40123 5//// 60048 81102 91435 333 31/// 56606 58006 60048 81810 81070;",
"76373099999","2001-08-31T18:00:00","4","25.35","-105.75","1967.0","TEPEHUANES DGO., MX","FM-12","99999","V020","090,1,N,0010,1","06000,1,9,N","070000,1,N,1","+0254,1","+0162,1","10106,1","99,0000,9,1",,,,"03,1,+00300,9,09,9","03,1,+06000,9,00,9",,,"06,99,1,03,1,03,1,00450,1,00,1,02,1",,"09,9",,"120,M,+0270,1","240,N,+0128,1","99999,9,08210,1","7,1,004,1,+006,1",,,"SYN124AAXX  31181 76373 32488 60901 10254 20162 38210 40106 57004 83302 91742 333 10270 20128 31/// 56101 58006 83910 83070 94092;","Q01  00002PRCP99"
"76373099999","2001-08-31T21:00:00","4","25.35","-105.75","1967.0","TEPEHUANES DGO., MX","FM-12","99999","V020","280,1,N,0010,1","00300,1,C,N","070000,1,N,1","+0280,1","+0142,1","10065,1","99,0000,9,1",,,,"04,1,+00300,9,09,9","01,1,+00300,9,08,9",,,"06,99,1,04,1,03,1,00450,1,00,1,02,1",,"01,9",,,,,"6,1,017,1,-005,1",,,"SYN112AAXX  31211 76373 32488 62801 10280 20142 30193 40065 56017 84302 92036 333 30/// 56707 59005 84910 81810 81070;","Q01+101933APOSP Q02  00002PRCP99"
"76373099999","2001-09-01T00:00:00","4","25.35","-105.75","1967.0","TEPEHUANES DGO., MX","FM-12","99999","V020","130,1,N,0020,1","03000,1,C,N","070000,1,N,1","+0278,1","+0183,1","10025,1","24,0037,9,1","99,0000,9,1",,,"04,1,+00600,9,08,9","02,1,+03000,9,03,9",,,"08,99,1,04,1,02,1,00250,1,03,1,04,1",,"01,9",,"120,M,+0318,1","180,N,+0128,1","99999,9,08178,1","6,1,015,1,-011,1",,,"SYN136AAXX  01001 76373 32388 81302 10278 20183 38178 40025 56015 84234 92345 333 10318 20128 30/// 50450 56777 59011 70037 84820 82360 84080;","Q01  00002PRCP99"
"76373099999","2001-09-01T03:00:00","4","25.35","-105.75","1967.0","TEPEHUANES DGO., MX","FM-12","99999","V020","290,1,N,0020,1","03600,1,C,N","010000,1,N,1","+0232,1","+0129,1","10029,1","99,0000,9,1",,,,"02,1,+00600,9,09,9",,,,"08,99,1,02,1,03,1,00250,1,09,1,00,1",,"01,9",,,,"99999,9,08194,1","2,1,016,1,+010,1",,,"SYN106AAXX  01031 76373 32360 82902 10232 20129 38194 40029 52016 82390 90240 333 30/// 56770 58010 82920 86360;","Q01  00002PRCP99"
"76373099999","2001-09-01T15:00:00","4","25.35","-105.75","1967.0","TEPEHUANES DGO., MX","FM-12","99999","V020","140,1,N,0010,1","09000,1,9,N","060000,1,N,1","+0170,1","+0132,1","10041,1","99,0000,9,1",,,,"04,1,+03000,9,04,9",,,,"08,99,1,04,1,00,1,01250,1,01,1,04,1",,"01,9",,,,"99999,9,08222,1","9,9,999,9,+008,1",,,"SYN106AAXX  01151 76373 32686 81401 10170 20132 38222 40041 5//// 84014 91445 333 30/// 56077 58008 84460 84080;","Q01  00002PRCP99"
"76373099999","2001-09-01T21:00:00","4","25.35","-105.75","1967.0","TEPEHUANES DGO., MX","FM-12","99999","V020","160,1,N,0040,1","00600,1,9,N","070000,1,N,1","+0284,1","+0125,1","10046,1","99,0000,9,1",,,,"07,1,+00600,9,09,9",,,,"07,99,1,07,1,03,1,00250,1,00,1,00,1",,"01,9",,,,"99999,9,08179,1","7,1,035,1,-014,1",,,"SYN100AAXX  01211 76373 32388 71604 10284 20125 38179 40046 57035 87300 92045 333 30/// 56700 59014 87920;","Q01  00002PRCP99"
"76373099999","2001-09-03T15:00:00","4","25.35","-105.75","1967.0","TEPEHUANES DGO., MX","FM-12","99999","V020","070,1,N,0010,1","22000,1,9,N","070000,1,N,1","+0170,1","+0116,1","10137,1","99,0000,9,1",,,,"02,1,+06000,9,01,9",,,,"02,99,1,00,1,00,1,99999,9,00,1,05,1",,"01,9",,,,"99999,9,08225,1",,,,"SYN100AAXX  03151 76373 32988 20701 10170 20116 38225 40137 5//// 80005 91435 333 30/// 56002 58/// 82070;","Q01  00002PRCP99"
"76373099999","2001-09-03T21:00:00","4","25.35","-105.75","1967.0","TEPEHUANES DGO., MX","FM-12","99999","V020","060,1,N,0030,1","22000,1,9,N","070000,1,N,1","+0290,1","+0145,1","10067,1","99,0000,9,1",,,,"04,1,+00300,9,02,9",,,,"04,99,1,04,1,01,1,00450,1,00,1,00,1",,"01,9",,,,"99999,9,08196,1","6,1,019,1,+999,9",,,"SYN100AAXX  03211 76373 32488 40603 10290 20145 38196 40067 56019 84100 92040 333 30/// 56100 58/// 84810;","Q01  00002PRCP99"
"76373099999","2001-09-04T12:00:00","4","25.35","-105.75","1967.0","TEPEHUANES DGO., MX","FM-12","99999","V020","070,1,N,0010,1","22000,1,9,N","000800,1,N,1","+0130,1","+0101,1","10102,1","24,0000,9,1",,,,"01,1,+00300,9,08,9",,,,"04,99,1,01,1,01,1,00450,1,00,1,07,1",,"01,9","999,+0090,9","999,M,+0324,1","120,N,+0116,1","99999,9,08211,1","4,1,000,1,+999,9",,,"SYN124AAXX  04121 76373 32408 40701 10130 20101 38211 40102 54000 81107 91145 333 10324 20116 30009 56707 58/// 70000 81810 83270;",
"76373099999","2001-09-04T15:00:00","4","25.35","-105.75","1967.0","TEPEHUANES DGO., MX","FM-12","99999","V020","300,1,N,0010,1","09000,1,C,N","070000,1,N,1","+0191,1","+0123,1","10125,1","99,0000,9,1",,,,"01,1,+00300,9,08,9",,,,"06,99,1,01,1,01,1,00450,1,00,1,07,1",,"01,9",,,,"99999,9,08219,1","2,1,008,1,-006,1",,,"SYN106AAXX  04151 76373 32488 63001 10191 20123 38219 40125 52008 81107 91445 333 30/// 56101 59006 81810 85270;","Q01  00002PRCP99"
"76373099999","2001-09-04T21:00:00","4","25.35","-105.75","1967.0","TEPEHUANES DGO., MX","FM-12","99999","V020","310,1,N,0070,1","00300,1,C,N","070000,1,N,1","+0288,1","+0107,1","10064,1","99,0000,9,1",,,,"03,1,+00300,9,09,9","02,1,+00300,9,08,9",,,"06,99,1,03,1,03,1,00450,1,03,1,00,1",,"01,9",,,,"99999,9,08196,1","6,1,018,1,+000,1",,,"SYN112AAXX  04211 76373 32488 63107 10288 20107 38196 40064 56018 83330 92040 333 30/// 56770 58000 83910 82810 81360;","Q01  00002PRCP99"
"76373099999","2001-09-05T00:00:00","4","25.35","-105.75","1967.0","TEPEHUANES DGO., MX","FM-12","99999","V020","180,1,N,0030,1","22000,1,9,N","070000,1,N,1","+0270,1","+0125,1","10025,1","03,0020,9,1",,"5,1,06,1","6,1,06,1",,,,,"04,99,1,03,1,04,1,00450,1,03,1,00,1",,"09,9",,"120,M,+0332,1","180,N,+0108,1","99999,9,08182,1","7,1,014,1,-003,1","01,1",,"SYN136AAXX  05001 76373 /1488 41803 10270 20125 38182 40025 57014 60027 70156 83430 92345 333 10332 20108 31/// 50350 56110 59003 60027 70017;",
"76373099999","2001-09-05T03:00:00","4","25.35","-105.75","1967.0","TEPEHUANES DGO., MX","FM-12","99999","V020","280,1,N,0020,1","22000,1,9,N","000800,1,N,1","+0216,1","+0113,1","10044,1","99,0000,9,1",,,,"01,1,+00300,9,05,9",,,,"01,99,1,01,1,04,1,00450,1,00,1,00,1",,"01,9",,,,"99999,9,08208,1","2,1,026,1,+010,1",,,"SYN100AAXX  05031 76373 32408 12802 10216 20113 38208 40044 52026 81400 90240 333 30/// 56100 58010 81610;","Q01  00002PRCP99"
"76373099999","2001-09-05T12:00:00","4","25.35","-105.75","1967.0","TEPEHUANES DGO., MX","FM-12","99999","V020","160,1,N,0010,1","22000,1,9,N","000800,1,N,1","+0134,1","+0109,1","10120,1","24,0017,9,1",,,,"01,1,+02400,9,03,9",,,,"02,99,1,01,1,00,1,00450,1,03,1,08,1",,"01,9","999,+0100,9","999,M,+0332,1","120,N,+0116,1","99999,9,08224,1","2,1,002,1,+013,1",,,"SYN124AAXX  05121 76373 32408 21601 10134 20109 38224 40120 52002 81038 91146 333 10332 20116 30010 56011 58013 70017 81358 81170;",
"76373099999","2001-09-05T15:00:00","4","25.35","-105.75","1967.0","TEPEHUANES DGO., MX","FM-12","99999","V020","330,1,N,0010,1","22000,1,9,N","070000,1,N,1","+0173,1","+0132,1","10146,1","99,0000,9,1",,,,"01,1,+02400,9,07,9",,,,"01,99,1,01,1,99,9,01750,1,03,1,00,1",,"01,9",,,,"99999,9,08232,1","0,1,008,1,+013,1",,,"SYN100AAXX  05151 76373 32788 13301 10173 20132 38232 40146 50008 81030 91445 333 30/// 56010 58013 81358;","Q01  00002PRCP99Q02    003SCOLCG"
"76373099999","2001-09-05T21:00:00","4","25.35","-105.75","1967.0","TEPEHUANES DGO., MX","FM-12","99999","V020","300,1,N,0030,1","99999,9,9,N","070000,1,N,1","+0288,1","+0126,1","10079,1","02,0007,9,1",,"5,1,03,1","5,1,03,1","03,1,+00300,9,08,9",,,,"05,99,1,03,1,02,1,00450,1,00,1,00,1",,"01,9",,,,"99999,9,08205,1","6,1,024,1,+009,1","20,1",,"SYN118AAXX  05211 76373 11488 53003 10288 20126 38205 40079 56024 69906 72055 83200 92040 333 30/// 56100 58009 83810 82910;",
"76373099999","2001-09-06T00:00:00","4","25.35","-105.75","1967.0","TEPEHUANES DGO., MX","FM-12","99999","V020","120,1,N,0030,1","03600,1,9,N","070000,1,N,1","+0274,1","+0120,1","10042,1","03,9999,2,9","24,9999,2,9","5,1,06,1","5,1,06,1",,,,,"05,99,1,02,1,03,1,00450,1,03,1,00,1",,"01,9",,"120,M,+0322,1","180,N,+0114,1","99999,9,08195,1","6,1,010,1,+013,1","16,1",,"SYN136AAXX  06001 76373 21488 51203 10274 20120 38195 40042 56010 71655 82330 92338 333 10322 20114 30/// 50580 56770 58013 69907 79999 82910;",
"76373099999","2001-09-06T15:00:00","4","25.35","-105.75","1967.0","TEPEHUANES DGO., MX","FM-12","99999","V020","330,1,N,0020,1","22000,1,9,N","070000,1,N,1","+0174,1","+0124,1","10161,1","99,0000,9,1",,,,"04,1,+06000,9,01,9",,,,"04,99,1,00,1,00,1,99999,9,00,1,02,1",,"01,9",,,,"99999,9,08249,1","9,9,999,9,+017,1",,,"SYN100AAXX  06151 76373 32988 43302 10174 20124 38249 40161 5//// 80002 91437 333 30/// 56100 58017 84070;","Q01  00002PRCP99"
"76373099999","2001-09-06T18:00:00","4","25.35","-105.75","1967.0","TEPEHUANES DGO., MX","FM-12","99999","V020","090,1,N,0020,1","22000,1,9,N","070000,1,N,1","+0270,1","+0137,1","10141,1","99,0000,9,1",,,,"02,1,+00300,9,02,9",,,,"02,99,1,02,1,01,1,00450,1,00,1,00,1",,"01,9",,"120,M,+0282,1","240,N,+0104,1","99999,9,08232,1","6,1,017,1,+003,1",,,"SYN112AAXX  06181 76373 32488 20902 10270 20137 38232 40141 56017 82100 91740 333 10282 20104 30/// 56100 58003 82810;","Q01  00002PRCP99"
"76373099999","2001-09-06T21:00:00","4","25.35","-105.75","1967.0","TEPEHUANES DGO., MX","FM-12","99999","V020","150,1,N,0050,1","22000,1,9,N","070000,1,N,1","+0310,1","+0164,1","10086,1","99,0000,9,1",,,,"02,1,+00300,9,08,9",,,,"03,99,1,02,1,01,1,00450,1,00,1,00,1",,"01,9",,,,"99999,9,08209,1","6,1,023,1,+004,1",,,"SYN106AAXX  06211 76373 32488 31505 10310 20164 38209 40086 56023 82100 92040 333 30/// 56200 58004 82810 81910;","Q01  00002PRCP99"
"76373099999","2001-09-07T00:00:00","4","25.35","-105.75","1967.0","TEPEHUANES DGO., MX","FM-12","99999","V020","110,1,N,0030,1","22000,1,9,N","070000,1,N,1","+0306,1","+0171,1","10039,1","24,0000,9,1",,,,"03,1,+00300,9,08,9",,,,"04,99,1,03,1,01,1,00450,1,03,1,00,1",,"01,9",,"120,M,+0342,1","180,N,+0104,1","99999,9,08193,1","6,1,016,1,-002,1",,,"SYN130AAXX  07001 76373 32488 41103 10306 20171 38193 40039 56016 83130 92340 333 10342 20104 30/// 50690 56220 59002 70000 83810 81360;","Q01  00002PRCP99Q02  00003PRCP99"
"76373099999","2001-09-07T15:00:00","4","25.35","-105.75","1967.0","TEPEHUANES DGO., MX","FM-12","99999","V020","300,1,N,0010,1","22000,1,9,N","070000,1,N,1","+0184,1","+0151,1","10123,1","99,0000,9,1",,,,"00,1,+99999,9,99,9",,,,"00,99,1,00,1,00,1,99999,9,00,1,00,1",,"01,9",,,,"99999,9,08224,1","9,9,999,9,-025,1",,,"SYN082AAXX  07151 76373 32988 03001 10184 20151 38224 40123 5//// 91438 333 30/// 59025;","Q01  00002PRCP99"
"76373099999","2001-09-07T18:00:00","4","25.35","-105.75","1967.0","TEPEHUANES DGO., MX","FM-12","99999","V020","120,1,N,0020,1","22000,1,9,N","070000,1,N,1","+0260,1","+0186,1","10099,1","99,0000,9,1",,,,"02,1,+00300,9,09,9",,,,"03,99,1,02,1,03,1,00450,1,00,1,00,1",,"01,9",,"120,M,+0286,1","240,N,+0122,1","99999,9,08212,1","6,1,012,1,-020,1",,,"SYN118AAXX  07181 76373 32488 31202 10260 20186 38212 40099 56012 82300 91738 333 10286 20122 30/// 56500 59020 82910 81810;","Q01  00002PRCP99"
"76373099999","2001-09-07T21:00:00","4","25.35","-105.75","1967.0","TEPEHUANES DGO., MX","FM-12","99999","V020","060,1,N,0030,1","22000,1,9,N","070000,1,N,1","+0308,1","+0227,1","10042,1","99,0000,9,1",,,,"02,1,+00300,9,09,9","01,1,+00300,9,08,9",,,"04,99,1,02,1,03,1,00450,1,03,1,00,1",,"01,9",,,,"99999,9,08183,1","6,1,029,1,-026,1",,,"SYN112AAXX  07211 76373 32488 40603 10308 20227 38183 40042 56029 82330 92040 333 30/// 56770 59026 82910 81810 81360;","Q01  00002PRCP99"
"76373099999","2001-09-08T00:00:00","4","25.35","-105.75","1967.0","TEPEHUANES DGO., MX","FM-12","99999","V020","280,1,N,0070,1","00210,1,9,N","030000,1,N,1","+0210,1","+0127,1","10035,1","02,0050,9,1","18,0051,9,1","5,1,06,1","5,1,06,1",,,,,"08,99,1,08,1,09,1,00250,1,00,1,00,1",,"09,9",,"120,M,+0338,1","180,N,+0122,1","99999,9,08181,1","6,1,002,1,-010,1","50,1",,"SYN136AAXX  08001 76373 /1380 82807 10210 20127 38181 40035 56002 60053 75055 88900 92345 333 10338 20122 31/// 50600 56700 59010 60056 70005;",
"76373099999","2001-09-08T21:00:00","4","25.35","-105.75","1967.0","TEPEHUANES DGO., MX","FM-12","99999","V020","020,1,N,0040,1","00600,1,9,N","070000,1,N,1","+0258,1","+0140,1","10053,1","99,0000,9,1",,,,"08,1,+00600,9,09,9",,,,"08,99,1,08,1,09,1,00250,1,00,1,00,1",,"01,9",,,,"99999,9,08176,1","6,1,023,1,-005,1",,,"SYN100AAXX  08211 76373 32388 80204 10258 20140 38176 40053 56023 88900 92040 333 30/// 56700 59005 88920;","Q01  00002PRCP99"
"76373099999","2001-09-09T00:00:00","4","25.35","-105.75","1967.0","TEPEHUANES DGO., MX","FM-12","99999","V020","200,1,N,0010,1","03600,1,9,N","040000,1,N,1","+0164,1","+0139,1","10058,1","03,0010,9,1","12,0020,9,1","5,1,06,1","5,1,06,1",,,,,"08,99,1,03,1,09,1,00250,1,02,1,00,1",,"09,9",,"120,M,+0304,1","180,N,+0119,1","99999,9,08184,1","2,1,008,1,+003,1","50,1",,"SYN136AAXX  09001 76373 /1382 82001 10164 20139 38184 40058 52008 60017 75055 83920 92330 333 10304 20119 31/// 50500 56770 58003 60022 70023;",
"76373099999","2001-09-09T03:00:00","4","25.35","-105.75","1967.0","TEPEHUANES DGO., MX","FM-12","99999","V020","999,9,C,0000,1","03600,1,9,N","010000,1,N,1","+0150,1","+0131,1","10081,1","99,0000,2,1",,,,"04,1,+00600,9,09,9",,,,"07,99,1,04,1,09,1,00250,1,02,1,00,1",,"09,9",,,,"99999,9,08197,1","2,1,013,1,-006,1",,,"SYN106AAXX  09031 76373 32360 70000 10150 20131 38197 40081 52013 84920 90230 333 31/// 56760 59006 84920 8356/;",
"76373099999","2001-09-09T15:00:00","4","25.35","-105.75","1967.0","TEPEHUANES DGO., MX","FM-12","99999","V020","310,1,N,0010,1","22000,1,9,N","060000,1,N,1","+0148,1","+0119,1","10146,1","99,0000,9,1",,,,"00,1,+99999,9,99,9",,,,"00,99,1,00,1,00,1,99999,9,00,1,00,1",,"01,9",,,,"99999,9,08212,1","2,1,013,1,+011,1",,,"SYN082AAXX  09151 76373 32986 03101 10148 20119 38212 40146 52013 91440 333 30/// 58011;","Q01  00002PRCP99"
"76373099999","2001-09-09T21:00:00","4","25.35","-105.75","1967.0","TEPEHUANES DGO., MX","FM-12","99999","V020","090,1,N,0030,1","00015,1,9,N","018000,1,N,1","+0276,1","+0116,1","10072,1","99,0000,9,1",,,,"09,1,+00015,9,08,9",,,,"09,99,1,09,1,03,1,00250,1,00,1,00,1",,"01,9",,,,"99999,9,08187,1","6,1,017,1,+011,1",,,"SYN100AAXX  09211 76373 32368 80903 10276 20116 38187 40072 56017 88300 92045 333 30/// 56700 58011 89200;","Q01+000082SCOTCVQ02+000082SCOTLCQ03  00002PRCP99"
"76373099999","2001-09-10T15:00:00","4","25.35","-105.75","1967.0","TEPEHUANES DGO., MX","FM-12","99999","V020","999,9,C,0000,1","00300,1,9,N","010000,1,N,1","+0172,1","+0154,1","10141,1","09,0060,9,1",,,,"08,1,+00300,9,05,9",,,,"08,99,1,08,1,06,1,00250,1,00,1,00,1",,"09,9",,,,"99999,9,08240,1","9,9,999,9,+028,1",,,"SYN112AAXX  10151 76373 /2360 80000 10172 20154 38240 40141 5//// 60068 88600 91438 333 31/// 56200 58028 60068 88610;",
"76373099999","2001-09-10T18:00:00","4","25.35","-105.75","1967.0","TEPEHUANES DGO., MX","FM-12","99999","V020","120,1,N,0010,1","00300,1,9,N","070000,1,N,1","+0200,1","+0156,1","10144,1","02,9999,2,9",,"5,1,06,1","5,1,06,1","08,1,+00300,9,05,9",,,,"08,99,1,08,1,06,1,00250,1,00,1,00,1",,"09,9",,"120,M,+0202,1","240,N,+0142,1","99999,9,08240,1","4,1,000,1,+036,1","20,1",,"SYN124AAXX  10181 76373 21388 81201 10200 20156 38240 40144 54000 72055 88600 91738 333 10202 20142 31/// 56200 58036 69906 88610;",
"76373099999","2001-09-10T21:00:00","4","25.35","-105.75","1967.0","TEPEHUANES DGO., MX","FM-12","99999","V020","120,1,N,0040,1","00300,1,9,N","070000,1,N,1","+0224,1","+0147,1","10116,1","02,0007,9,1",,"5,1,03,1","5,1,03,1","06,1,+00300,9,06,9",,,,"08,99,1,06,1,06,1,00450,1,07,1,00,1",,"09,9",,,,"99999,9,08223,1","6,1,017,1,+036,1","20,1",,"SYN118AAXX  10211 76373 11488 81204 10224 20147 38223 40116 56017 69906 72055 86670 92040 333 31/// 56220 58036 86610 82360;",
"76373099999","2001-09-11T00:00:00","4","25.35","-105.75","1967.0","TEPEHUANES DGO., MX","FM-12","99999","V020","150,1,N,0030,1","00420,1,9,N","070000,1,N,1","+0201,1","+0154,1","10100,1","02,0007,9,1","03,9999,2,9","5,1,06,1","5,1,06,1",,,,,"08,99,1,06,1,04,1,00450,1,03,1,00,1",,,,"120,M,+0252,1","180,N,+0142,1","99999,9,08218,1","5,1,005,1,+036,1","50,1",,"SYN135AAXX  11001 76373 /1488 81503 10201 20154 38218 40100 55005 69906 75055 86430 92340 333 10252 20142 30// 50240 56330 58036 69907 70060;",
"76373099999","2001-09-11T03:00:00","4","25.35","-105.75","1967.0","TEPEHUANES DGO., MX","FM-12","99999","V020","999,9,C,0000,1","00300,1,9,N","000800,1,N,1","+0181,1","+0158,1","10116,1","03,9999,2,9",,"5,1,03,1","5,1,03,1","08,1,+00300,9,05,9",,,,"08,99,1,08,1,04,1,00450,1,00,1,00,1",,"09,9",,,,"99999,9,08235,1","2,1,017,1,+999,9","50,1",,"SYN112AAXX  11031 76373 21408 80000 10181 20158 38235 40116 52017 75055 88400 90238 333 31/// 56300 58/// 69907 88610;",
"76373099999","2001-09-11T21:00:00","4","25.35","-105.75","1967.0","TEPEHUANES DGO., MX","FM-12","99999","V020","130,1,N,0040,1","00300,1,9,N","070000,1,N,1","+0255,1","+0141,1","10097,1","99,0000,9,1",,,,"05,1,+00300,9,06,9",,,,"07,99,1,05,1,04,1,00450,1,03,1,00,1",,"01,9",,,,"99999,9,08216,1","7,1,021,1,-007,1",,,"SYN106AAXX  11211 76373 32488 71304 10255 20141 38216 40097 57021 85430 92040 333 30/// 56330 59007 85610 82358;","Q01  00002PRCP99"
"76373099999","2001-09-12T00:00:00","4","25.35","-105.75","1967.0","TEPEHUANES DGO., MX","FM-12","99999","V020","150,1,N,0040,1","00420,1,9,N","070000,1,N,1","+0228,1","+0150,1","10076,1","01,9999,2,9","24,0010,9,1","5,1,06,1","5,1,06,1",,,,,"08,99,1,08,1,07,1,00450,1,00,1,00,1",,"09,9",,"120,M,+0268,1","180,N,+0152,1","99999,9,08209,1","5,1,007,1,-009,1","50,1",,"SYN136AAXX  12001 76373 21488 81504 10228 20150 38209 40076 55007 75055 88700 92340 333 10268 20152 31/// 50480 56300 59009 69905 70010 88710;",
"76373099999","2001-09-12T03:00:00","4","25.35","-105.75","1967.0","TEPEHUANES DGO., MX","FM-12","99999","V020","999,9,C,0000,1","22000,1,9,N","000800,1,N,1","+0185,1","+0156,1","10083,1","99,0000,2,1",,,,"02,1,+00300,9,05,9",,,,"02,99,1,02,1,04,1,00450,1,00,1,00,1",,"01,9",,,,"99999,9,08217,1","2,1,008,1,-018,1",,,"SYN100AAXX  12031 76373 32408 20000 10185 20156 38217 40083 52008 82400 90242 333 30/// 56300 59018 82610;",
"76373099999","2001-09-12T12:00:00","4","25.35","-105.75","1967.0","TEPEHUANES DGO., MX","FM-12","99999","V020","340,1,N,0010,1","00300,1,9,N","000800,1,N,1","+0158,1","+0147,1","10116,1","03,0005,9,1","24,0005,9,1","5,1,06,1","5,1,06,1","07,1,+00300,9,06,9",,,,"07,99,1,07,1,07,1,00450,1,00,1,00,1",,"09,9","999,+0130,9","999,M,+0268,1","120,N,+0144,1","99999,9,08217,1","2,1,007,1,-013,1","01,1",,"SYN130AAXX  12121 76373 21408 73401 10158 20147 38217 40116 52007 70155 87700 91140 333 10268 20144 31013 56300 59013 69957 70005 87710;",
"76373099999","2001-09-12T15:00:00","4","25.35","-105.75","1967.0","TEPEHUANES DGO., MX","FM-12","99999","V020","150,1,N,0040,1","03600,1,C,N","070000,1,N,1","+0203,1","+0148,1","10125,1","99,0000,9,1",,,,"02,1,+00300,9,08,9","01,1,+02400,9,03,9",,,"08,99,1,02,1,01,1,00450,1,03,1,07,1",,"01,9",,,,"99999,9,08223,1","2,1,006,1,-015,1",,,"SYN112AAXX  12151 76373 32488 81504 10203 20148 38223 40125 52006 82137 91445 333 30/// 56333 59015 82810 81358 85270;","Q01  00002PRCP99"
"76373099999","2001-09-12T18:00:00","4","25.35","-105.75","1967.0","TEPEHUANES DGO., MX","FM-12","99999","V020","120,1,N,0040,1","00300,1,9,N","070000,1,N,1","+0219,1","+0130,1","10132,1","99,0000,9,1",,,,"06,1,+00300,9,07,9","01,1,+02400,9,03,9",,,"08,99,1,06,1,06,1,00450,1,03,1,05,1",,"01,9",,"120,M,+0236,1","240,N,+0140,1","99999,9,08234,1","2,1,011,1,-003,1",,,"SYN124AAXX  12181 76373 32488 81204 10219 20130 38234 40132 52011 86635 91740 333 10236 20140 30/// 56333 59003 86710 81358 81070;","Q01  00002PRCP99"
"76373099999","2001-09-13T03:00:00","4","25.35","-105.75","1967.0","TEPEHUANES DGO., MX","FM-12","99999","V020","999,9,C,0000,1","00300,1,9,N","000800,1,N,1","+0200,1","+0144,1","10072,1","99,0000,9,1",,,,"07,1,+00300,9,05,9",,,,"07,99,1,07,1,04,1,00450,1,00,1,00,1",,"01,9",,,,"99999,9,08211,1","2,1,009,1,-005,1",,,"SYN100AAXX  13031 76373 32408 70000 10200 20144 38211 40072 52009 87400 90240 333 30/// 57300 59005 87610;","Q01  00002PRCP99"
"76373099999","2001-09-13T21:00:00","4","25.35","-105.75","1967.0","TEPEHUANES DGO., MX","FM-12","99999","V020","090,1,N,0040,1","06000,1,9,N","070000,1,N,1","+0274,1","+0145,1","10079,1","99,0000,9,1",,,,"02,1,+00300,9,09,9","01,1,+00300,9,08,9","08,1,+06000,9,02,9",,"08,99,1,02,1,03,1,00450,1,00,1,07,1",,"01,9",,,,"99999,9,08206,1","6,1,027,1,-009,1",,,"SYN118AAXX  13211 76373 32488 80904 10274 20145 38206 40079 56027 82307 92037 333 30/// 56202 59009 82910 81810 88270 99020;","Q01  00002PRCP99"
"76373099999","2001-09-14T15:00:00","4","25.35","-105.75","1967.0","TEPEHUANES DGO., MX","FM-12","99999","V020","310,1,N,0010,1","22000,1,9,N","070000,1,N,1","+0154,1","+0129,1","10160,1","99,0000,9,1",,,,"03,1,+06000,9,01,9",,,,"03,99,1,00,1,00,1,99999,9,00,1,02,1",,"09,9",,,,"99999,9,08237,1","9,9,999,9,-003,1",,,"SYN100AAXX  14151 76373 32988 33101 10154 20129 38237 40160 5//// 80002 91436 333 31/// 56002 59003 83070;","Q01  00002PRCP99"
"76373099999","2001-09-14T18:00:00","4","25.35","-105.75","1967.0","TEPEHUANES DGO., MX","FM-12","99999","V020","120,1,N,0030,1","22000,1,9,N","070000,1,N,1","+0248,1","+0155,1","10137,1","99,0000,9,1",,,,"02,1,+00300,9,09,9",,,,"03,99,1,02,1,03,1,00450,1,00,1,00,1",,"01,9",,"120,M,+0304,1","240,N,+0108,1","99999,9,08229,1","6,1,008,1,-004,1",,,"SYN118AAXX  14181 76373 32488 31203 10248 20155 38229 40137 56008 82300 91738 333 10304 20108 30/// 56200 59004 82910 81810;","Q01  00002PRCP99"
"76373099999","2001-09-15T03:00:00","4","25.35","-105.75","1967.0","TEPEHUANES DGO., MX","FM-12","99999","V020","999,9,C,0000,1","22000,1,9,N","010000,1,N,1","+0194,1","+0130,1","10044,1","99,0000,9,1",,,,"01,1,+00600,9,09,9",,,,"03,99,1,01,1,09,1,00250,1,06,1,00,1",,"01,9",,,,"99999,9,08198,1","2,1,015,1,-017,1",,,"SYN106AAXX  15031 76373 32360 30000 10194 20130 38198 40044 52015 81960 90255 333 30/// 56220 59017 81920 82360;","Q01  00002PRCP99"
"76373099999","2001-09-15T15:00:00","4","25.35","-105.75","1967.0","TEPEHUANES DGO., MX","FM-12","99999","V020","300,1,N,0020,1","22000,1,9,N","060000,1,N,1","+0164,1","+0123,1","10148,1","99,0000,9,1",,,,"03,1,+09000,9,01,9",,,,"03,99,1,00,1,00,1,99999,9,00,1,04,1",,"01,9",,,,"99999,9,08228,1","2,1,003,1,-009,1",,,"SYN100AAXX  15151 76373 32986 33002 10164 20123 38228 40148 52003 80004 91450 333 30/// 56002 59009 83080;","Q01  00002PRCP99"
"76373099999","2001-09-15T18:00:00","4","25.35","-105.75","1967.0","TEPEHUANES DGO., MX","FM-12","99999","V020","070,1,N,0010,1","22000,1,9,N","070000,1,N,1","+0266,1","+0132,1","10127,1","99,0000,9,1",,,,"01,1,+00600,9,08,9",,,,"02,99,1,01,1,01,1,00250,1,00,1,02,1",,"01,9",,"120,M,+0278,1","240,N,+0102,1","99999,9,08222,1","6,1,006,1,-007,1",,,"SYN118AAXX  15181 76373 32388 20701 10266 20132 38222 40127 56006 81102 91745 333 10278 20102 30/// 56202 59007 81820 81080;","Q01  00002PRCP99"
"76373099999","2001-09-16T03:00:00","4","25.35","-105.75","1967.0","TEPEHUANES DGO., MX","FM-12","99999","V020","250,1,N,0020,1","22000,1,9,N","010000,1,N,1","+0232,1","+0146,1","10039,1","24,2921,9,1",,,,,,,,"02,99,1,02,1,03,1,00250,1,00,1,00,1",,"01,9",,,,"99999,9,08207,1","2,1,018,1,+027,1",,,"SYN100AAXX  16031 76373 32360 22502 10232 20146 38207 40039 52018 82300 90230 333 30/// 56200 58027 72920;",
"76373099999","2001-09-16T15:00:00","4","25.35","-105.75","1967.0","TEPEHUANES DGO., MX","FM-12","99999","V020","999,9,C,0000,1","22000,1,9,N","070000,1,N,1","+0178,1","+0134,1","10134,1","99,0000,9,1",,,,"01,1,+03000,9,03,9",,,,"02,99,1,01,1,00,1,01250,1,03,1,04,1",,"01,9",,,,"99999,9,08226,1","2,1,007,1,-002,1",,,"SYN106AAXX  16151 76373 32688 20000 10178 20134 38226 40134 52007 81034 91430 333 30/// 56202 59002 81360 81080;","Q01  00002PRCP99"
"76373099999","2001-09-16T18:00:00","4","25.35","-105.75","1967.0","TEPEHUANES DGO., MX","FM-12","99999","V020","120,1,N,0060,1","03000,1,9,N","070000,1,N,1","+0276,1","+0162,1","10113,1","99,0000,9,1",,,,"04,1,+00600,9,08,9","01,1,+03000,9,03,9",,,"07,99,1,04,1,02,1,00250,1,03,1,04,1",,"01,9",,"120,M,+0292,1","240,N,+0116,1","99999,9,08215,1","6,1,011,1,-007,1",,,"SYN124AAXX  16181 76373 32388 71206 10276 20162 38215 40113 56011 84234 91755 333 10292 20116 30/// 56222 59007 84820 81360 82080;","Q01  00002PRCP99"
"76373099999","2001-09-17T15:00:00","4","25.35","-105.75","1967.0","TEPEHUANES DGO., MX","FM-12","99999","V020","280,1,N,0020,1","22000,1,9,N","060000,1,N,1","+0174,1","+0149,1","10137,1","12,0030,9,1",,,,"03,1,+06000,9,01,9",,,,"03,99,1,00,1,00,1,99999,9,00,1,02,1",,"09,9",,,,"99999,9,08239,1","9,9,999,9,+013,1",,,"SYN112AAXX  17151 76373 /2986 32802 10174 20149 38239 40137 5//// 60032 80002 91440 333 31/// 56001 58013 60032 83070;",
"76373099999","2001-09-17T18:00:00","4","25.35","-105.75","1967.0","TEPEHUANES DGO., MX","FM-12","99999","V020","090,1,N,0010,1","22000,1,9,N","070000,1,N,1","+0270,1","+0164,1","10113,1","99,0000,9,1",,,,"02,1,+00300,9,09,9","01,1,+03000,9,03,9",,,"04,99,1,02,1,03,1,00450,1,03,1,02,1",,"01,9",,"120,M,+0282,1","240,N,+0120,1","99999,9,08222,1","6,1,017,1,+007,1",,,"SYN124AAXX  17181 76373 32488 40901 10270 20164 38222 40113 56017 82332 91748 333 10282 20120 30/// 56222 58007 82910 81360 81070;","Q01  00002PRCP99"
"76373099999","2001-09-17T21:00:00","4","25.35","-105.75","1967.0","TEPEHUANES DGO., MX","FM-12","99999","V020","090,1,N,0020,1","22000,1,9,N","070000,1,N,1","+0300,1","+0174,1","10060,1","99,0000,9,1",,,,"03,1,+00300,9,09,9",,,,"04,99,1,03,1,03,1,00450,1,03,1,00,1",,"01,9",,,,"99999,9,08194,1","6,1,028,1,+999,9",,,"SYN106AAXX  17211 76373 32488 40902 10300 20174 38194 40060 56028 83330 92040 333 30/// 56220 58/// 83910 81360;","Q01  00002PRCP99"
"76373099999","2001-09-18T00:00:00","4","25.35","-105.75","1967.0","TEPEHUANES DGO., MX","FM-12","99999","V020","120,1,N,0010,1","03600,1,9,N","070000,1,N,1","+0277,1","+0142,1","10032,1","24,0028,9,1","99,0000,9,1",,,"04,1,+00300,9,06,9",,,,"06,99,1,04,1,04,1,00450,1,03,1,00,1",,"01,9",,"120,M,+0338,1","180,N,+0120,1","99999,9,08190,1","5,1,004,1,+999,9",,,"SYN130AAXX  18001 76373 32488 61201 10277 20142 38190 40032 55004 84430 92340 333 10338 20120 30/// 50420 56220 58/// 70028 84610 82358;","Q01  00002PRCP99"
"76373099999","2001-09-18T12:00:00","4","25.35","-105.75","1967.0","TEPEHUANES DGO., MX","FM-12","99999","V020","270,1,N,0010,1","22000,1,9,N","000800,1,N,1","+0128,1","+0116,1","10109,1","24,0038,9,1",,,,"00,1,+99999,9,99,9",,,,"00,99,1,00,1,00,1,99999,9,00,1,00,1",,"09,9","999,+0100,9","999,M,+0338,1","120,N,+0116,1","99999,9,08213,1","2,1,004,1,+999,9",,,"SYN100AAXX  18121 76373 32908 02701 10128 20116 38213 40109 52004 91140 333 10338 20116 31010 58/// 70038;",
"76373099999","2001-09-18T15:00:00","4","25.35","-105.75","1967.0","TEPEHUANES DGO., MX","FM-12","99999","V020","310,1,N,0010,1","22000,1,9,N","070000,1,N,1","+0164,1","+0134,1","10137,1","99,0000,9,1",,,,"00,1,+99999,9,99,9",,,,"00,99,1,00,1,00,1,99999,9,00,1,00,1",,"01,9",,,,"99999,9,08222,1","2,1,009,1,-012,1",,,"SYN082AAXX  18151 76373 32988 03101 10164 20134 38222 40137 52009 91440 333 30/// 59012;","Q01  00002PRCP99"
"76373099999","2001-09-18T21:00:00","4","25.35","-105.75","1967.0","TEPEHUANES DGO., MX","FM-12","99999","V020","090,1,N,0040,1","22000,1,9,N","070000,1,N,1","+0318,1","+0137,1","10058,1","99,0000,9,1",,,,"02,1,+00300,9,09,9",,,,"04,99,1,02,1,03,1,00450,1,00,1,00,1",,"01,9",,,,"99999,9,08187,1","6,1,026,1,-007,1",,,"SYN106AAXX  18211 76373 32488 40904 10318 20137 38187 40058 56026 82300 92037 333 30/// 56100 59007 82910 82810;","Q01  00002PRCP99"
"76373099999","2001-09-19T00:00:00","4","25.35","-105.75","1967.0","TEPEHUANES DGO., MX","FM-12","99999","V020","120,1,N,0030,1","00300,1,C,N","070000,1,N,1","+0286,1","+0112,1","10007,1","24,0010,9,1","99,0000,9,1",,,"06,1,+00300,9,06,9",,,,"07,99,1,06,1,04,1,00450,1,00,1,05,1",,"01,9",,"120,M,+0338,1","180,N,+0106,1","99999,9,08171,1","5,1,016,1,-019,1",,,"SYN130AAXX  19001 76373 32488 71203 10286 20112 38171 40007 55016 86405 92338 333 10338 20106 30/// 50510 56101 59019 70010 86610 81070;","Q01  00002PRCP99"
"76373099999","2001-09-19T12:00:00","4","25.35","-105.75","1967.0","TEPEHUANES DGO., MX","FM-12","99999","V020","999,9,C,0000,1","22000,1,9,N","000200,1,N,1","+0167,1","+0117,1","10097,1","24,0000,9,1",,,,,,,,"04,99,1,99,9,99,9,99999,9,99,9,99,9",,"01,9","999,+0130,9","999,M,+0338,1","120,N,+0154,1","99999,9,08217,1","2,1,006,1,+004,1",,,"SYN112AAXX  19121 76373 32/02 40000 10167 20117 38217 40097 52006 8//// 91140 333 10338 20154 30013 56/// 58004 70000;","Q01  00002PRCP24"
"76373099999","2001-09-19T15:00:00","4","25.35","-105.75","1967.0","TEPEHUANES DGO., MX","FM-12","99999","V020","300,1,N,0010,1","22000,1,9,N","070000,1,N,1","+0191,1","+0126,1","10113,1","99,0000,9,1",,,,"01,1,+02400,9,03,9",,,,"02,99,1,01,1,00,1,01750,1,03,1,05,1",,"01,9",,,,"99999,9,08229,1","2,1,002,1,-003,1",,,"SYN106AAXX  19151 76373 32788 23001 10191 20126 38229 40113 52002 81035 91445 333 30/// 56011 59003 81358 81070;","Q01  00002PRCP99"
"76373099999","2001-09-19T18:00:00","4","25.35","-105.75","1967.0","TEPEHUANES DGO., MX","FM-12","99999","V020","150,1,N,0020,1","22000,1,9,N","070000,1,N,1","+0282,1","+0122,1","10100,1","99,0000,9,1",,,,"01,1,+00300,9,02,9",,,,"01,99,1,01,1,01,1,00450,1,00,1,00,1",,"01,9",,"120,M,+0298,1","240,N,+0148,1","99999,9,08217,1","8,1,002,1,+004,1",,,"SYN112AAXX  19181 76373 32488 11502 10282 20122 38217 40100 58002 81100 91740 333 10298 20148 30/// 56100 58004 81810;","Q01  00002PRCP99"
"76373099999","2001-09-19T21:00:00","4","25.35","-105.75","1967.0","TEPEHUANES DGO., MX","FM-12","99999","V020","120,1,N,0030,1","22000,1,9,N","070000,1,N,1","+0320,1","+0108,1","10046,1","99,0000,9,1",,,,"03,1,+00300,9,02,9",,,,"03,99,1,03,1,01,1,00450,1,00,1,00,1",,"01,9",,,,"99999,9,08191,1","7,1,026,1,+004,1",,,"SYN100AAXX  19211 76373 32488 31203 10320 20108 38191 40046 57026 83100 92050 333 30/// 56200 58004 83810;","Q01  00002PRCP99"
"76373099999","2001-09-20T03:00:00","4","25.35","-105.75","1967.0","TEPEHUANES DGO., MX","FM-12","99999","V020","300,1,N,0030,1","99999,9,9,N","000800,1,N,1","+0208,1","+0125,1","10030,1","99,0000,9,1",,,,,,,,"08,99,1,99,9,99,9,99999,9,99,9,99,9",,"01,9",,,,"99999,9,08202,1","2,1,017,1,+005,1",,,"SYN094AAXX  20031 76373 32/08 83003 10208 20125 38202 40030 52017 8//// 90240 333 30/// 56/// 58005;","Q01  00002PRCP99"
"76373099999","2001-09-20T15:00:00","4","25.35","-105.75","1967.0","TEPEHUANES DGO., MX","FM-12","99999","V020","090,1,N,0010,1","22000,1,9,N","070000,1,N,1","+0172,1","+0122,1","10144,1","99,0000,9,1",,,,"02,1,+03000,9,03,9",,,,"03,99,1,02,1,00,1,01750,1,03,1,02,1",,"01,9",,,,"99999,9,08239,1","9,9,999,9,+020,1",,,"SYN106AAXX  20151 76373 32788 30901 10172 20122 38239 40144 5//// 82032 91436 333 30/// 56066 58020 82360 81070;","Q01  00002PRCP99"
"76373099999","2001-09-20T21:00:00","4","25.35","-105.75","1967.0","TEPEHUANES DGO., MX","FM-12","99999","V020","270,1,N,0020,1","22000,1,9,N","070000,1,N,1","+0310,1","+0137,1","10069,1","99,0000,9,1",,,,"04,1,+00300,9,02,9",,,,"04,99,1,04,1,01,1,00450,1,00,1,00,1",,"01,9",,,,"99999,9,08202,1","6,1,027,1,+010,1",,,"SYN100AAXX  20211 76373 32488 42702 10310 20137 38202 40069 56027 84100 92038 333 30/// 56200 58010 84810;","Q01  00002PRCP99"
"76373099999","2001-09-21T00:00:00","4","25.35","-105.75","1967.0","TEPEHUANES DGO., MX","FM-12","99999","V020","090,1,N,0020,1","09000,1,9,N","070000,1,N,1","+0288,1","+0159,1","10034,1","24,0000,9,1",,,,"04,1,+00300,9,08,9",,,,"05,99,1,04,1,01,1,00450,1,00,1,02,1",,"01,9",,"120,M,+0324,1","180,N,+0104,1","99999,9,08194,1","7,1,008,1,+009,1",,,"SYN130AAXX  21001 76373 32488 50902 10288 20159 38194 40034 57008 84102 92338 333 10324 20104 30/// 50480 56202 58009 70000 84810 81070;","Q01  00002PRCP99Q02  00003PRCP99"
"76373099999","2001-09-21T03:00:00","4","25.35","-105.75","1967.0","TEPEHUANES DGO., MX","FM-12","99999","V020","140,1,N,0010,1","22000,1,9,N","000000,1,N,1","+0228,1","+0105,1","10120,2","99,0000,9,1",,,,"02,1,+00300,9,02,9",,,,"02,99,1,02,1,02,1,00250,1,00,1,00,1",,"01,9",,,,"99999,9,08210,1","2,1,016,1,+007,1",,,"SYN100AAXX  21031 76373 32300 21401 10228 20105 38210 40120 52016 82200 90240 333 30/// 56200 58007 82810;","Q01+101203APOSLPQ02  00002PRCP99"
"76373099999","2001-09-21T15:00:00","4","25.35","-105.75","1967.0","TEPEHUANES DGO., MX","FM-12","99999","V020","270,1,N,0010,1","22000,1,9,N","070000,1,N,1","+0160,1","+0086,1","10153,1","99,0000,9,1",,,,"01,1,+00300,9,02,9",,,,"01,99,1,01,1,01,1,00450,1,00,1,00,1",,"01,9",,,,"99999,9,08238,1","9,9,999,9,-001,1",,,"SYN100AAXX  21151 76373 32488 12701 10160 20086 38238 40153 5//// 81100 91435 333 30/// 56200 59001 81810;","Q01  00002PRCP99"
"76373099999","2001-09-21T18:00:00","4","25.35","-105.75","1967.0","TEPEHUANES DGO., MX","FM-12","99999","V020","180,1,N,0020,1","22000,1,9,N","070000,1,N,1","+0264,1","+0129,1","10137,1","99,0000,9,1",,,,"02,1,+00300,9,08,9",,,,"03,99,1,02,1,01,1,00450,1,03,1,00,1",,"01,9",,"120,M,+0280,1","240,N,+0096,1","99999,9,08229,1","6,1,009,1,+000,1",,,"SYN118AAXX  21181 76373 32488 31802 10264 20129 38229 40137 56009 82130 91738 333 10280 20096 30/// 56220 58000 82810 81360;","Q01  00002PRCP99"
"76373099999","2001-09-21T21:00:00","4","25.35","-105.75","1967.0","TEPEHUANES DGO., MX","FM-12","99999","V020","090,1,N,0040,1","00300,1,9,N","070000,1,N,1","+0300,1","+0177,1","10083,1","99,0000,9,1",,,,"05,1,+00300,9,02,9",,,,"05,99,1,05,1,02,1,00450,1,00,1,00,1",,"01,9",,,,"99999,9,08204,1","6,1,025,1,+002,1",,,"SYN100AAXX  21211 76373 32488 50904 10300 20177 38204 40083 56025 85200 92040 333 30/// 56100 58002 85810;","Q01  00002PRCP99"
"76373099999","2001-09-22T00:00:00","4","25.35","-105.75","1967.0","TEPEHUANES DGO., MX","FM-12","99999","V020","050,1,N,0060,1","00210,1,9,N","070000,1,N,1","+0276,1","+0098,1","10053,1","24,0000,9,1",,,,,,,,"08,99,1,08,1,02,1,00250,1,00,1,00,1",,"01,9",,"120,M,+0328,1","180,N,+0096,1","99999,9,08197,1","2,1,007,1,+003,1",,,"SYN124AAXX  22001 76373 32388 80506 10276 20098 38197 40053 52007 88200 92335 333 10328 20096 30/// 50690 56100 58003 70000 88810;","Q01  00002PRCP99Q02  00003PRCP99"
"76373099999","2001-09-22T03:00:00","4","25.35","-105.75","1967.0","TEPEHUANES DGO., MX","FM-12","99999","V020","260,1,N,0030,1","00300,1,9,N","000000,1,N,1","+0216,1","+0138,1","10053,1","99,0000,9,1",,,,"08,1,+00300,9,09,9",,,,"08,99,1,08,1,03,1,00250,1,00,1,00,1",,"01,9",,,,"99999,9,08211,1","2,1,004,1,+001,1",,,"SYN100AAXX  22031 76373 32300 82603 10216 20138 38211 40053 52004 88300 90250 333 30/// 56100 58001 88910;","Q01  00002PRCP99"
"76373099999","2001-09-22T15:00:00","4","25.35","-105.75","1967.0","TEPEHUANES DGO., MX","FM-12","99999","V020","080,1,N,0010,1","09000,1,C,N","070000,1,N,1","+0200,1","+0146,1","10144,1","99,0000,9,1",,,,"01,1,+03000,9,03,9",,,,"07,99,1,01,1,00,1,01750,1,03,1,05,1",,"01,9",,,,"99999,9,08230,1","9,9,999,9,-008,1",,,"SYN106AAXX  22151 76373 32788 70801 10200 20146 38230 40144 5//// 81035 91435 333 30/// 56022 59008 81360 86070;","Q01  00002PRCP99"
"76373099999","2001-09-22T18:00:00","4","25.35","-105.75","1967.0","TEPEHUANES DGO., MX","FM-12","99999","V020","110,1,N,0010,1","09000,1,C,N","070000,1,N,1","+0246,1","+0175,1","10118,1","99,0000,9,1",,,,"02,1,+00300,9,08,9",,,,"08,99,1,02,1,02,1,00250,1,00,1,05,1",,"01,9",,"120,M,+0272,1","240,N,+0125,1","99999,9,08224,1","7,1,006,1,-005,1",,,"SYN118AAXX  22181 76373 32388 81101 10246 20175 38224 40118 57006 82205 91734 333 10272 20125 30/// 56202 59005 82810 86070;","Q01  00002PRCP99"
"76373099999","2001-09-22T21:00:00","4","25.35","-105.75","1967.0","TEPEHUANES DGO., MX","FM-12","99999","V020","100,1,N,0030,1","00300,1,9,N","070000,1,N,1","+0266,1","+0161,1","10069,1","99,0000,9,1",,,,"06,1,+00300,9,08,9",,,,"08,99,1,06,1,02,1,00250,1,00,1,05,1",,"01,9",,,,"99999,9,08198,1","7,1,026,1,-006,1",,,"SYN106AAXX  22211 76373 32388 81003 10266 20161 38198 40069 57026 86205 92038 333 30/// 56202 59006 86810 82070;","Q01  00002PRCP99"
"76373099999","2001-09-23T15:00:00","4","25.35","-105.75","1967.0","TEPEHUANES DGO., MX","FM-12","99999","V020","330,1,N,0010,1","22000,1,9,N","070000,1,N,1","+0154,1","+0102,1","10139,1","99,0000,9,1",,,,"01,1,+00300,9,02,9",,,,"01,99,1,01,1,02,1,00250,1,00,1,00,1",,"01,9",,,,"99999,9,08220,1","9,9,999,9,-010,1",,,"SYN100AAXX  23151 76373 32388 13301 10154 20102 38220 40139 5//// 81200 91435 333 30/// 56200 59010 81810;","Q01  00002PRCP99"
"76373099999","2001-09-23T21:00:00","4","25.35","-105.75","1967.0","TEPEHUANES DGO., MX","FM-12","99999","V020","060,1,N,0040,1","00300,1,9,N","070000,1,N,1","+0268,1","+0155,1","10093,1","99,0000,9,1",,,,"06,1,+00300,9,09,9",,,,"06,99,1,06,1,03,1,00250,1,00,1,00,1",,"01,9",,,,"99999,9,08205,1","7,1,008,1,+007,1",,,"SYN100AAXX  23211 76373 32388 60604 10268 20155 38205 40093 57008 86300 91735 333 30/// 56200 58007 86910;","Q01  00002PRCP99"
"76373099999","2001-09-24T15:00:00","4","25.35","-105.75","1967.0","TEPEHUANES DGO., MX","FM-12","99999","V020","290,1,N,0020,1","00300,1,9,N","070000,1,N,1","+0174,1","+0107,1","10130,1","99,0000,9,1",,,,"07,1,+00300,9,02,9",,,,"07,99,1,07,1,02,1,00450,1,00,1,00,1",,"01,9",,,,"99999,9,08229,1","9,9,999,9,+009,1",,,"SYN100AAXX  24151 76373 32488 72902 10174 20107 38229 40130 5//// 87200 91438 333 30/// 56200 58009 87810;","Q01  00002PRCP99"
"76373099999","2001-09-24T18:00:00","4","25.35","-105.75","1967.0","TEPEHUANES DGO., MX","FM-12","99999","V020","120,1,N,0040,1","00300,1,9,N","070000,1,N,1","+0202,1","+0132,1","10141,1","03,9999,2,9",,"5,1,06,1","5,1,06,1","08,1,+00300,9,05,9",,,,"08,99,1,08,1,06,1,00450,1,00,1,00,1",,"01,9",,"120,M,+0214,1","240,N,+0136,1","99999,9,08237,1","7,1,008,1,+016,1","20,1",,"SYN124AAXX  24181 76373 21488 81204 10202 20132 38237 40141 57008 72055 88600 91742 333 10214 20136 30/// 56200 58016 69907 88610;",
"76373099999","2001-09-24T21:00:00","4","25.35","-105.75","1967.0","TEPEHUANES DGO., MX","FM-12","99999","V020","090,1,N,0040,1","00300,1,9,N","070000,1,N,1","+0216,1","+0131,1","10111,1","99,0000,2,1",,,,"07,1,+00300,9,05,9",,,,"07,99,1,07,1,06,1,00450,1,00,1,00,1",,"01,9",,,,"99999,9,08217,1","6,1,020,1,+012,1",,,"SYN100AAXX  24211 76373 32488 70904 10216 20131 38217 40111 56020 87600 92040 333 30/// 56200 58012 87610;",
"76373099999","2001-09-25T03:00:00","4","25.35","-105.75","1967.0","TEPEHUANES DGO., MX","FM-12","99999","V020","090,1,N,0020,1","00300,1,9,N","000800,1,N,1","+0184,1","+0096,1","10109,1","99,0000,2,1",,,,"08,1,+00300,9,05,9",,,,"08,99,1,08,1,04,1,00450,1,00,1,00,1",,"01,9",,,,"99999,9,08227,1","2,1,016,1,+999,9",,,"SYN100AAXX  25031 76373 32408 80902 10184 20096 38227 40109 52016 88400 90257 333 30/// 56200 58/// 88610;",
"76373099999","2001-09-25T15:00:00","4","25.35","-105.75","1967.0","TEPEHUANES DGO., MX","FM-12","99999","V020","120,1,N,0020,1","03600,1,C,N","070000,1,N,1","+0172,1","+0106,1","10148,1","99,0000,9,1",,,,"03,1,+00300,9,06,9",,,,"05,99,1,03,1,04,1,00450,1,03,1,00,1",,"01,9",,,,"99999,9,08233,1","2,1,008,1,+004,1",,,"SYN106AAXX  25151 76373 32488 51202 10172 20106 38233 40148 52008 83430 91445 333 30/// 56220 58004 83610 82358;","Q01  00002PRCP99"
"76373099999","2001-09-25T21:00:00","4","25.35","-105.75","1967.0","TEPEHUANES DGO., MX","FM-12","99999","V020","150,1,N,0060,1","22000,1,9,N","070000,1,N,1","+0252,1","+0160,1","10088,1","99,0000,9,1",,,,"03,1,+00300,9,02,9",,,,"03,99,1,03,1,01,1,00450,1,00,1,00,1",,"01,9",,,,"99999,9,08203,1","6,1,030,1,+999,9",,,"SYN100AAXX  25211 76373 32488 31506 10252 20160 38203 40088 56030 83100 92038 333 30/// 56200 58914 83810;","Q01  00002PRCP99"
"76373099999","2001-09-26T00:00:00","4","25.35","-105.75","1967.0","TEPEHUANES DGO., MX","FM-12","99999","V020","120,1,N,0040,1","00300,1,C,N","070000,1,N,1","+0234,1","+0102,1","10062,1","24,0000,9,1",,,,"05,1,+00300,9,07,9",,,,"07,99,1,05,1,04,1,00450,1,03,1,00,1",,"01,9",,"120,M,+0280,1","180,N,+0120,1","99999,9,08197,1","5,1,006,1,-014,1",,,"SYN130AAXX  26001 76373 32488 71204 10234 20102 38197 40062 55006 85430 92340 333 10280 20120 30/// 50500 56220 59014 70000 85710 82358;","Q01  00002PRCP99Q02  00003PRCP99"
"76373099999","2001-09-26T03:00:00","4","25.35","-105.75","1967.0","TEPEHUANES DGO., MX","FM-12","99999","V020","130,1,N,0030,1","00300,1,9,N","000800,1,N,1","+0202,1","+0091,1","10074,1","99,0000,9,1",,,,"07,1,+00300,9,06,9",,,,"07,99,1,07,1,04,1,00450,1,00,1,00,1",,"01,9",,,,"99999,9,08214,1","2,1,017,1,-013,1",,,"SYN100AAXX  26031 76373 32408 71303 10202 20091 38214 40074 52017 87400 90240 333 30/// 56200 59013 87710;","Q01  00002PRCP99"
"76373099999","2001-09-26T21:00:00","4","25.35","-105.75","1967.0","TEPEHUANES DGO., MX","FM-12","99999","V020","120,1,N,0030,1","00300,1,9,N","070000,1,N,1","+0227,1","+0108,1","10109,1","99,0000,9,1",,,,"08,1,+00300,9,06,9",,,,"08,99,1,08,1,06,1,00450,1,00,1,00,1",,"01,9",,,,"99999,9,08215,1","7,1,013,1,-012,1",,,"SYN100AAXX  26211 76373 32488 81203 10227 20108 38215 40109 57013 88600 92043 333 30/// 56330 59012 88710;","Q01  00002PRCP99"
"76373099999","2001-09-27T03:00:00","4","25.35","-105.75","1967.0","TEPEHUANES DGO., MX","FM-12","99999","V020","120,1,N,0020,1","00300,1,9,N","000800,1,N,1","+0176,1","+0123,1","10093,1","99,0000,9,1",,,,"08,1,+00300,9,06,9",,,,"08,99,1,08,1,06,1,00450,1,00,1,00,1",,"01,9",,,,"99999,9,08224,1","2,1,014,1,+010,1",,,"SYN100AAXX  27031 76373 32408 81202 10176 20123 38224 40093 52014 88600 90250 333 30/// 56500 58010 88710;","Q01  00002PRCP99"
"76373099999","2001-09-27T15:00:00","4","25.35","-105.75","1967.0","TEPEHUANES DGO., MX","FM-12","99999","V020","999,9,C,0000,1","00300,1,9,N","010000,1,N,1","+0162,1","+0144,1","10141,1","12,0010,9,1",,"5,1,03,1","5,1,03,1","08,1,+00300,9,05,9",,,,"08,99,1,08,1,07,1,00250,1,00,1,00,1",,"09,9",,,,"99999,9,08231,1","9,9,999,9,-002,1","51,1",,"SYN112AAXX  27151 76373 11360 80000 10162 20144 38231 40141 5//// 60012 75155 88700 91436 333 31/// 56200 59002 88610;",
"76373099999","2001-09-27T21:00:00","4","25.35","-105.75","1967.0","TEPEHUANES DGO., MX","FM-12","99999","V020","130,1,N,0030,1","00300,1,9,N","030000,1,N,1","+0192,1","+0141,1","10123,1","03,0007,9,1",,"5,1,03,1","5,1,03,1","08,1,+00300,9,05,9",,,,"08,99,1,08,1,07,1,00250,1,00,1,00,1",,"09,9",,,,"99999,9,08220,1","6,1,015,1,-008,1","50,1",,"SYN112AAXX  27211 76373 11380 81303 10192 20141 38220 40123 56015 69907 75055 88700 92038 333 31/// 56200 59008 88610;",
"76373099999","2001-09-28T00:00:00","4","25.35","-105.75","1967.0","TEPEHUANES DGO., MX","FM-12","99999","V020","140,1,N,0030,1","00210,1,9,N","070000,1,N,1","+0200,1","+0140,1","10099,1","03,9999,2,9","24,0023,9,1","5,1,06,1","5,1,06,1",,,,,"08,99,1,08,1,06,1,00250,1,00,1,00,1",,"09,9",,"120,M,+0216,1","180,N,+0184,1","99999,9,08209,1","7,1,011,1,-001,1","16,1",,"SYN136AAXX  28001 76373 21388 81403 10200 20140 38209 40099 57011 71655 88600 92340 333 10216 20184 31/// 50170 56200 59001 69907 70023 88610;",
"76373099999","2001-09-28T15:00:00","4","25.35","-105.75","1967.0","TEPEHUANES DGO., MX","FM-12","99999","V020","999,9,C,0000,1","00300,1,9,N","030000,1,N,1","+0164,1","+0139,1","10125,1","99,0000,9,1",,,,"08,1,+00300,9,05,9",,,,"08,99,1,08,1,06,1,00250,1,00,1,00,1",,"01,9",,,,"99999,9,08216,1","9,9,999,9,-015,1",,,"SYN100AAXX  28151 76373 32380 80000 10164 20139 38216 40125 5//// 88600 91435 333 30/// 56200 59015 88610;","Q01  00002PRCP99"
"76373099999","2001-09-28T18:00:00","4","25.35","-105.75","1967.0","TEPEHUANES DGO., MX","FM-12","99999","V020","150,1,N,0040,1","00300,1,9,N","070000,1,N,1","+0210,1","+0137,1","10111,1","99,0000,9,1",,,,"08,1,+00300,9,05,9",,,,"08,99,1,08,1,06,1,00250,1,00,1,00,1",,"01,9",,"120,M,+0226,1","240,N,+0136,1","99999,9,08209,1","7,1,007,1,-026,1",,,"SYN112AAXX  28181 76373 32388 81504 10210 20137 38209 40111 57007 88600 91740 333 10226 20136 30/// 56200 59026 88610;","Q01  00002PRCP99"
"76373099999","2001-09-29T00:00:00","4","25.35","-105.75","1967.0","TEPEHUANES DGO., MX","FM-12","99999","V020","150,1,N,0020,1","00300,1,C,N","070000,1,N,1","+0222,1","+0124,1","10053,1","24,0039,9,1","99,0000,9,1",,,"06,1,+00300,9,06,9",,,,"08,99,1,06,1,04,1,00250,1,06,1,00,1",,"01,9",,"120,M,+0264,1","180,N,+0136,1","99999,9,08176,1","6,1,014,1,-033,1",,,"SYN130AAXX  29001 76373 32388 81502 10222 20124 38176 40053 56014 86460 92348 333 10264 20136 30/// 50400 56220 59033 70039 86610 82360;","Q01  00002PRCP99"
"76373099999","2001-09-29T18:00:00","4","25.35","-105.75","1967.0","TEPEHUANES DGO., MX","FM-12","99999","V020","140,1,N,0060,1","03000,1,9,N","070000,1,N,1","+0226,1","+0095,1","10111,1","99,0000,9,1",,,,"06,1,+03000,9,03,9",,,,"08,99,1,06,1,00,1,01250,1,06,1,08,1",,"01,9",,"120,M,+0260,1","240,N,+0115,1","99999,9,08202,1","4,1,000,1,-007,1",,,"SYN118AAXX  29181 76373 32688 81406 10226 20095 38202 40111 54000 86068 91730 333 10260 20115 30/// 56022 59007 86360 82280;","Q01  00002PRCP99"
"76373099999","2001-09-30T00:00:00","4","25.35","-105.75","1967.0","TEPEHUANES DGO., MX","FM-12","99999","V020","999,9,C,0000,1","01200,1,9,N","040000,1,N,1","+0170,1","+0123,1","10078,1","02,0003,9,1",,"5,1,06,1","5,1,06,1",,,,,"08,99,1,08,1,00,1,01250,1,06,1,00,1",,"09,9",,"120,M,+0278,1","180,N,+0115,1","99999,9,08194,1","2,1,003,1,+018,1","20,1",,"SYN136AAXX  30001 76373 /1682 80000 10170 20123 38194 40078 52003 69936 72055 88060 92340 333 10278 20115 31/// 50360 56020 58018 69936 70004;",
"76373099999","2001-09-30T15:00:00","4","25.35","-105.75","1967.0","TEPEHUANES DGO., MX","FM-12","99999","V020","999,9,C,0000,1","00600,1,9,N","060000,1,N,1","+0132,1","+0105,1","10162,1","12,0005,9,1",,"5,1,03,1","5,1,03,1","08,1,+00600,9,06,9",,,,"08,99,1,08,1,07,1,00250,1,00,1,00,1",,"09,9",,,,"99999,9,08228,1","9,9,999,9,+026,1","20,1",,"SYN112AAXX  30151 76373 11386 80000 10132 20105 38228 40162 5//// 69942 72055 88700 91440 333 31/// 56200 58026 88720;",
"76373099999","2001-09-30T18:00:00","4","25.35","-105.75","1967.0","TEPEHUANES DGO., MX","FM-12","99999","V020","120,1,N,0090,1","03600,1,C,N","070000,1,N,1","+0224,1","+0104,1","10151,1","99,0000,2,1",,,,"04,1,+00600,9,07,9",,,,"08,99,1,04,1,07,1,00250,1,03,1,00,1",,"01,9",,"120,M,+0260,1","240,N,+0115,1","99999,9,08227,1","6,1,001,1,+025,1",,,"SYN118AAXX  30181 76373 32388 81209 10224 20104 38227 40151 56001 84730 91748 333 10260 20115 30/// 56220 58025 84720 84360;",
"76373099999","2001-09-30T21:00:00","4","25.35","-105.75","1967.0","TEPEHUANES DGO., MX","FM-12","99999","V020","110,1,N,0060,1","03000,1,9,N","070000,1,N,1","+0244,1","+0115,1","10078,2","99,0000,2,1",,,,"03,1,+00600,9,09,9","03,1,+03000,9,03,9",,,"07,99,1,03,1,03,1,00250,1,03,1,08,1",,"01,9",,,,"99999,9,08182,1","6,1,045,1,-009,1",,,"SYN112AAXX  30211 76373 32388 71106 10244 20115 38182 40078 56045 83338 92040 333 30/// 56222 59009 83920 83360 81080;","Q01+100783APOSLP"
"76373099999","2001-10-01T15:00:00","4","25.35","-105.75","1967.0","TEPEHUANES DGO., MX","FM-12","99999","V020","300,1,N,0010,1","22000,1,9,N","070000,1,N,1","+0148,1","+0083,1","10172,1","99,0000,9,1",,,,"01,1,+03000,9,07,9",,,,"01,99,1,01,1,00,1,01750,1,03,1,00,1",,"01,9",,,,"99999,9,08238,1","9,9,999,9,+010,1",,,"SYN100AAXX  01151 76373 32788 13001 10148 20083 38238 40172 5//// 81030 91440 333 30/// 56020 58010 81360;","Q01  00002PRCP99"
"76373099999","2001-10-01T18:00:00","4","25.35","-105.75","1967.0","TEPEHUANES DGO., MX","FM-12","99999","V020","130,1,N,0050,1","22000,1,9,N","070000,1,N,1","+0240,1","+0128,1","10153,1","99,0000,9,1",,,,"02,1,+00300,9,02,9",,,,"02,99,1,02,1,01,1,00450,1,00,1,00,1",,"01,9",,"120,M,+0262,1","240,N,+0094,1","99999,9,08232,1","6,1,006,1,+005,1",,,"SYN112AAXX  01181 76373 32488 21305 10240 20128 38232 40153 56006 82100 91748 333 10262 20094 30/// 56200 58005 82810;","Q01  00002PRCP99"
"76373099999","2001-10-01T21:00:00","4","25.35","-105.75","1967.0","TEPEHUANES DGO., MX","FM-12","99999","V020","120,1,N,0020,1","22000,1,9,N","070000,1,N,1","+0292,1","+0178,1","10086,2","99,0000,9,1",,,,"02,1,+00300,9,09,9",,,,"04,99,1,02,1,03,1,00450,1,00,1,00,1",,"01,9",,,,"99999,9,08196,1","6,1,036,1,+014,1",,,"SYN106AAXX  01211 76373 32488 41202 10292 20178 38196 40086 56036 82300 92040 333 30/// 56200 58014 82910 82810;","Q01+100863APOSLPQ02  00002PRCP99"
"76373099999","2001-10-02T12:00:00","4","25.35","-105.75","1967.0","TEPEHUANES DGO., MX","FM-12","99999","V020","999,9,C,0000,1","22000,1,9,N","000800,1,N,1","+0102,1","+0067,1","10127,1","24,0000,9,1",,,,"01,1,+02400,9,07,9",,,,"01,99,1,01,1,99,9,01750,1,06,1,00,1",,"01,9","999,+0060,9","999,M,+0304,1","120,N,+0086,1","99999,9,08221,1","2,1,002,1,+999,9",,,"SYN118AAXX  02121 76373 32708 10000 10102 20067 38221 40127 52002 81060 91140 333 10304 20086 30006 56050 58/// 70000 81358;","Q01    003SCOLCG"
"76373099999","2001-10-02T15:00:00","4","25.35","-105.75","1967.0","TEPEHUANES DGO., MX","FM-12","99999","V020","310,1,N,0010,1","22000,1,9,N","070000,1,N,1","+0130,1","+0083,1","10055,2","99,0000,9,1",,,,,,,,"01,99,1,01,1,01,1,00450,1,00,1,00,1",,"01,9",,,,"99999,9,08225,1","2,1,004,1,-013,1",,,"SYN094AAXX  02151 76373 32488 13101 10130 20083 38225 40055 52004 81100 91443 333 30/// 56500 59013;","Q01+100553APOSLPQ02  00002PRCP99"
"76373099999","2001-10-02T21:00:00","4","25.35","-105.75","1967.0","TEPEHUANES DGO., MX","FM-12","99999","V020","240,1,N,0020,1","00300,1,9,N","070000,1,N,1","+0268,1","+0091,1","10076,1","99,0000,9,1",,,,"05,1,+00300,9,09,9",,,,"05,99,1,05,1,03,1,00450,1,00,1,00,1",,"01,9",,,,"99999,9,08186,1","7,1,026,1,-010,1",,,"SYN100AAXX  02211 76373 32488 52402 10268 20091 38186 40076 57026 85300 92040 333 30/// 56500 59010 85910;","Q01  00002PRCP99"
"76373099999","2001-10-03T00:00:00","4","25.35","-105.75","1967.0","TEPEHUANES DGO., MX","FM-12","99999","V020","240,1,N,0040,1","99999,9,9,N","070000,1,N,1","+0236,1","+0096,1","10051,1","24,0000,9,1",,,,,,,,"07,99,1,99,9,06,1,00450,1,00,1,00,1",,"01,9",,"120,M,+0304,1","180,N,+0072,1","99999,9,08186,1","5,1,000,1,-001,1",,,"SYN124AAXX  03001 76373 32488 72404 10236 20096 38186 40051 55000 88600 92340 333 10304 20072 30/// 50680 56500 59001 70000 88710;","Q01+000082SCOTLCQ02  00002PRCP99Q03  00003PRCP99"
"76373099999","2001-10-03T12:00:00","4","25.35","-105.75","1967.0","TEPEHUANES DGO., MX","FM-12","99999","V020","270,1,N,0010,1","22000,1,9,N","000800,1,N,1","+0071,1","+0037,1","10165,1","24,0000,9,1",,,,"04,1,+02400,9,07,9",,,,"04,99,1,04,1,99,9,01750,1,06,1,00,1",,"01,9","999,+0030,9","999,M,+0304,1","120,N,+0054,1","99999,9,08230,1","2,1,004,1,+009,1",,,"SYN118AAXX  03121 76373 32708 42701 10071 20037 38230 40165 52004 84060 91146 333 10304 20054 30003 56050 58009 70000 84358;","Q01    003SCOLCG"
"76373099999","2001-10-03T15:00:00","4","25.35","-105.75","1967.0","TEPEHUANES DGO., MX","FM-12","99999","V020","270,1,N,0010,1","22000,1,9,N","070000,1,N,1","+0118,1","+0059,1","10193,1","99,0000,9,1",,,,"03,1,+02400,9,07,9",,,,"03,99,1,03,1,99,9,01750,1,03,1,00,1",,"01,9",,,,"99999,9,08239,1","2,1,009,1,+014,1",,,"SYN100AAXX  03151 76373 32788 32701 10118 20059 38239 40193 52009 83030 91440 333 30/// 56050 58014 83358;","Q01  00002PRCP99Q02    003SCOLCG"
"76373099999","2001-10-03T18:00:00","4","25.35","-105.75","1967.0","TEPEHUANES DGO., MX","FM-12","99999","V020","290,1,N,0020,1","22000,1,9,N","070000,1,N,1","+0226,1","+0087,1","10174,1","99,0000,9,1",,,,"02,1,+00300,9,08,9",,,,"04,99,1,02,1,01,1,00450,1,03,1,00,1",,"01,9",,"120,M,+0234,1","240,N,+0048,1","99999,9,08231,1","6,1,008,1,+019,1",,,"SYN118AAXX  03181 76373 32488 42902 10226 20087 38231 40174 56008 82130 91735 333 10234 20048 30/// 56550 58019 82810 82360;","Q01  00002PRCP99"
"76373099999","2001-10-04T03:00:00","4","25.35","-105.75","1967.0","TEPEHUANES DGO., MX","FM-12","99999","V020","310,1,N,0010,1","02400,1,9,N","000800,1,N,1","+0140,1","+0124,1","10116,1","99,0000,9,1",,,,"06,1,+02400,9,07,9",,,,"06,99,1,06,1,99,9,01750,1,06,1,00,1",,"09,9",,,,"99999,9,08222,1","2,1,038,1,+005,1",,,"SYN100AAXX  04031 76373 32708 63101 10140 20124 38222 40116 52038 86060 90250 333 31/// 56050 58005 86358;","Q01  00002PRCP99Q02    003SCOLCG"
"76373099999","2001-10-04T15:00:00","4","25.35","-105.75","1967.0","TEPEHUANES DGO., MX","FM-12","99999","V020","320,1,N,0020,1","22000,1,9,N","070000,1,N,1","+0120,1","+0082,1","10179,1","99,0000,9,1",,,,"01,1,+03000,9,07,9",,,,"01,99,1,01,1,00,1,01750,1,03,1,00,1",,"09,9",,,,"99999,9,08227,1","9,9,999,9,-012,1",,,"SYN100AAXX  04151 76373 32788 13202 10120 20082 38227 40179 5//// 81030 91438 333 31/// 56050 59012 81360;","Q01  00002PRCP99"
"76373099999","2001-10-05T00:00:00","4","25.35","-105.75","1967.0","TEPEHUANES DGO., MX","FM-12","99999","V020","150,1,N,0030,1","22000,1,9,N","070000,1,N,1","+0174,1","+0124,1","10086,1","03,0002,9,1","24,0002,9,1","5,1,06,1","5,1,06,1",,,,,"04,99,1,03,1,02,1,00450,1,03,1,00,1",,"01,9",,"120,M,+0256,1","180,N,+0060,1","99999,9,08189,1","6,1,005,1,+005,1","20,1",,"SYN136AAXX  05001 76373 21488 41503 10174 20124 38189 40086 56005 72055 83230 92355 333 10256 20060 30/// 50330 56550 58005 69927 70002 83810;",
"76373099999","2001-10-05T15:00:00","4","25.35","-105.75","1967.0","TEPEHUANES DGO., MX","FM-12","99999","V020","300,1,N,0010,1","22000,1,9,N","070000,1,N,1","+0136,1","+0103,1","10160,1","15,0008,9,1",,,,"02,1,+00300,9,08,9",,,,"03,99,1,02,1,01,1,00450,1,03,1,00,1",,"09,9",,,,"99999,9,08226,1","9,9,999,9,-001,1",,,"SYN118AAXX  05151 76373 /2488 33001 10136 20103 38226 40160 5//// 69989 82130 91437 333 31/// 56550 59001 69989 82810 81360;",
"76373099999","2001-10-05T21:00:00","4","25.35","-105.75","1967.0","TEPEHUANES DGO., MX","FM-12","99999","V020","300,1,N,0020,1","99999,9,9,N","070000,1,N,1","+0178,1","+0129,1","99999,9","03,0007,9,1",,,,,,,,"06,99,1,99,9,99,9,00450,1,99,9,99,9",,"09,9",,,,"99999,9,08213,1","9,9,999,9,+019,1",,,"SYN117AAXX  05211 76373 /1488 63002 10178 20129 38213 4012 56012 69977 71665 86700 92040 333 31/// 56500 58019 69977 86610;",
"76373099999","2001-10-06T18:00:00","4","25.35","-105.75","1967.0","TEPEHUANES DGO., MX","FM-12","99999","V020","120,1,N,0040,1","22000,1,9,N","070000,1,N,1","+0204,1","+0061,1","10153,1","99,0000,9,1",,,,"00,1,+99999,9,99,9",,,,"00,99,1,00,1,00,1,99999,9,00,1,00,1",,"01,9",,"120,M,+0224,1","240,N,+0040,1","99999,9,08231,1","6,1,015,1,+006,1",,,"SYN094AAXX  06181 76373 32988 01204 10204 20061 38231 40153 56015 91740 333 10224 20040 30/// 58006;","Q01  00002PRCP99"
"76373099999","2001-10-07T00:00:00","4","25.35","-105.75","1967.0","TEPEHUANES DGO., MX","FM-12","99999","V020","250,1,N,0060,1","22000,1,9,N","070000,1,N,1","+0242,1","+0075,1","10088,1","24,0000,9,1",,,,"00,1,+99999,9,99,9",,,,"00,99,1,00,1,00,1,99999,9,00,1,00,1",,"01,9",,"120,M,+0292,1","180,N,+0040,1","99999,9,08210,1","2,1,001,1,+999,9",,,"SYN106AAXX  07001 76373 32988 02506 10242 20075 38210 40088 52001 92350 333 10292 20040 30/// 50600 58/// 70000;","Q01  00002PRCP24"
"76373099999","2001-10-07T03:00:00","4","25.35","-105.75","1967.0","TEPEHUANES DGO., MX","FM-12","99999","V020","240,1,N,0030,1","22000,1,9,N","010000,1,N,1","+0148,1","+0051,1","10102,1","99,0000,9,1",,,,"00,1,+99999,9,99,9",,,,"00,99,1,00,1,00,1,99999,9,00,1,00,1",,"01,9",,,,"99999,9,08229,1","2,1,019,1,+999,9",,,"SYN082AAXX  07031 76373 32960 02403 10148 20051 38229 40102 52019 90250 333 30/// 58///;","Q01  00002PRCP99"
"76373099999","2001-10-07T15:00:00","4","25.35","-105.75","1967.0","TEPEHUANES DGO., MX","FM-12","99999","V020","300,1,N,0020,1","22000,1,9,N","070000,1,N,1","+0104,1","+0056,1","10223,1","99,0000,9,1",,,,"00,1,+99999,9,99,9",,,,"00,99,1,00,1,00,1,99999,9,00,1,00,1",,"01,9",,,,"99999,9,08253,1","9,9,999,9,+007,1",,,"SYN082AAXX  07151 76373 32988 03002 10104 20056 38253 40223 5//// 91440 333 30/// 58007;","Q01  00002PRCP99"
"76373099999","2001-10-08T15:00:00","4","25.35","-105.75","1967.0","TEPEHUANES DGO., MX","FM-12","99999","V020","310,1,N,0020,1","06000,1,9,N","070000,1,N,1","+0112,1","+0081,1","10207,1","99,0000,9,1",,,,"08,1,+06000,9,02,9",,,,"08,99,1,00,1,00,1,99999,9,00,1,07,1",,"01,9",,,,"99999,9,08258,1","9,9,999,9,+005,1",,,"SYN106AAXX  08151 76373 32988 83102 10112 20081 38258 40207 5//// 80007 91438 333 30/// 56005 58005 88270 99020;","Q01  00002PRCP99"
"76373099999","2001-10-08T21:00:00","4","25.35","-105.75","1967.0","TEPEHUANES DGO., MX","FM-12","99999","V020","060,1,N,0020,1","06000,1,9,N","070000,1,N,1","+0272,1","+0160,1","10134,1","99,0000,9,1",,,,"01,1,+00300,9,08,9","08,1,+06000,9,02,9",,,"08,99,1,01,1,01,1,00450,1,00,1,07,1",,"01,9",,,,"99999,9,08220,1","6,1,028,1,-002,1",,,"SYN112AAXX  08211 76373 32488 80602 10272 20160 38220 40134 56028 81107 92040 333 30/// 56505 59002 81810 88270 99020;","Q01  00002PRCP99"
"76373099999","2001-10-09T12:00:00","4","25.35","-105.75","1967.0","TEPEHUANES DGO., MX","FM-12","99999","V020","290,1,N,0010,1","06000,1,9,N","000800,1,N,1","+0090,1","+0053,1","10153,1","24,0000,9,1",,,,"08,1,+06000,9,08,9",,,,"08,99,1,99,9,00,1,99999,9,00,1,07,1",,"01,9","999,+0020,9","999,M,+0300,1","120,N,+0076,1","99999,9,08232,1","2,1,001,1,+999,9",,,"SYN118AAXX  09121 76373 32908 82901 10090 20053 38232 40153 52001 80007 91148 333 10300 20076 30002 56005 58/// 70000 88270;","Q01+000002SCOTLC"
"76373099999","2001-10-09T15:00:00","4","25.35","-105.75","1967.0","TEPEHUANES DGO., MX","FM-12","99999","V020","300,1,N,0010,1","02400,1,9,N","070000,1,N,1","+0108,1","+0071,1","10184,1","99,0000,9,1",,,,"08,1,+02400,9,01,9",,,,"08,99,1,08,1,00,1,02250,1,01,1,00,1",,"01,9",,,,"99999,9,08238,1","2,1,007,1,+021,1",,,"SYN100AAXX  09151 76373 32888 83001 10108 20071 38238 40184 52007 88010 91445 333 30/// 56050 58021 88458;","Q01  00002PRCP99"
"76373099999","2001-10-09T18:00:00","4","25.35","-105.75","1967.0","TEPEHUANES DGO., MX","FM-12","99999","V020","060,1,N,0010,1","06000,1,9,N","070000,1,N,1","+0202,1","+0084,1","10172,1","99,0000,9,1",,,,"08,1,+06000,9,02,9",,,,"08,99,1,00,1,00,1,99999,9,00,1,07,1",,"01,9",,"120,M,+0210,1","240,N,+0076,1","99999,9,08234,1","8,1,004,1,-014,1",,,"SYN118AAXX  09181 76373 32988 80601 10202 20084 38234 40172 58004 80007 91747 333 10210 20076 30/// 56005 59014 88270 99020;","Q01  00002PRCP99"
"76373099999","2001-10-10T00:00:00","4","25.35","-105.75","1967.0","TEPEHUANES DGO., MX","FM-12","99999","V020","300,1,N,0040,1","22000,1,9,N","070000,1,N,1","+9999,9","+9999,9","10086,1","24,0000,9,1",,,,"01,1,+00300,9,08,9","02,1,+02400,9,03,9",,,"05,99,1,01,1,01,1,00450,1,04,1,09,1",,"01,9",,"120,M,+0276,1","180,N,+0076,1","99999,9,08206,1","7,1,001,1,-014,1",,,"SYN130AAXX  10001 76373 32488 53004 20091 38206 40086 57001 81149 92345 333 10276 20076 30/// 50490 56555 59014 70000 81810 82358 82170;","Q01  00002PRCP99Q02  00003PRCP99"
"76373099999","2001-10-10T03:00:00","4","25.35","-105.75","1967.0","TEPEHUANES DGO., MX","FM-12","99999","V020","310,1,N,0020,1","99999,9,9,N","000800,1,N,1","+0188,1","+0082,1","10086,1","99,0000,9,1",,,,,,,,"08,99,1,99,9,99,9,99999,9,99,9,99,9",,"01,9",,,,"99999,9,08221,1","2,1,015,1,-013,1",,,"SYN094AAXX  10031 76373 32/08 83102 10188 20082 38221 40086 52015 8//// 90247 333 30/// 56/// 59013;","Q01  00002PRCP99"
"76373099999","2001-10-10T12:00:00","4","25.35","-105.75","1967.0","TEPEHUANES DGO., MX","FM-12","99999","V020","030,1,N,0010,1","22000,1,9,N","000800,1,N,1","+0080,1","+0042,1","10153,1","24,0000,9,1",,,,"02,1,+02400,9,07,9",,,,"02,99,1,02,1,99,9,01750,1,06,1,00,1",,"01,9","999,+0040,9","999,M,+0276,1","120,N,+0062,1","99999,9,08225,1","2,1,001,1,-007,1",,,"SYN118AAXX  10121 76373 32708 20301 10080 20042 38225 40153 52001 82060 91142 333 10276 20062 30004 56050 59007 70000 82358;","Q01    003SCOLCG"
"76373099999","2001-10-10T15:00:00","4","25.35","-105.75","1967.0","TEPEHUANES DGO., MX","FM-12","99999","V020","320,1,N,0020,1","22000,1,9,N","070000,1,N,1","+0115,1","+0064,1","10183,1","99,0000,9,1",,,,"01,1,+02400,9,07,9",,,,"01,99,1,01,1,99,9,02250,1,03,1,00,1",,"01,9",,,,"99999,9,08234,1","2,1,009,1,-003,1",,,"SYN100AAXX  10151 76373 32888 13202 10115 20064 38234 40183 52009 81030 91440 333 30/// 56050 59003 81358;","Q01  00002PRCP99Q02    003SCOLCG"
"76373099999","2001-10-11T00:00:00","4","25.35","-105.75","1967.0","TEPEHUANES DGO., MX","FM-12","99999","V020","270,1,N,0040,1","22000,1,9,N","070000,1,N,1","+0272,1","+0136,1","10046,1","24,0000,9,1",,,,,,,,"02,99,1,02,1,01,1,00450,1,00,1,00,1",,"01,9",,"120,M,+0322,1","180,N,+0054,1","99999,9,08188,1","6,1,005,1,-018,1",,,"SYN124AAXX  11001 76373 32488 22704 10272 20136 38188 40046 56005 82100 92338 333 10322 20054 30/// 50310 56500 59018 70000 82810;","Q01  00002PRCP99Q02  00003PRCP99"
"76373099999","2001-10-11T15:00:00","4","25.35","-105.75","1967.0","TEPEHUANES DGO., MX","FM-12","99999","V020","030,1,N,0020,1","22000,1,9,N","070000,1,N,1","+0124,1","+0064,1","10174,1","99,0000,9,1",,,,"00,1,+99999,9,99,9",,,,"00,99,1,00,1,00,1,99999,9,00,1,00,1",,"01,9",,,,"99999,9,08232,1","9,9,999,9,-002,1",,,"SYN082AAXX  11151 76373 32988 00302 10124 20064 38232 40174 5//// 91438 333 30/// 59002;","Q01  00002PRCP99"
"76373099999","2001-10-11T18:00:00","4","25.35","-105.75","1967.0","TEPEHUANES DGO., MX","FM-12","99999","V020","150,1,N,0020,1","22000,1,9,N","070000,1,N,1","+0254,1","+0088,1","10153,1","99,0000,9,1",,,,"00,1,+99999,9,99,9",,,,"00,99,1,00,1,00,1,99999,9,00,1,00,1",,"01,9",,"120,M,+0270,1","240,N,+0052,1","99999,9,08222,1","0,1,010,1,-004,1",,,"SYN094AAXX  11181 76373 32988 01502 10254 20088 38222 40153 50010 91740 333 10270 20052 30/// 59004;","Q01  00002PRCP99"
"76373099999","2001-10-11T21:00:00","4","25.35","-105.75","1967.0","TEPEHUANES DGO., MX","FM-12","99999","V020","300,1,N,0070,1","22000,1,9,N","070000,1,N,1","+0284,1","+0114,1","10086,1","99,0000,9,1",,,,"02,1,+00300,9,02,9",,,,"02,99,1,02,1,01,1,00450,1,00,1,00,1",,"01,9",,,,"99999,9,08192,1","6,1,030,1,-001,1",,,"SYN100AAXX  11211 76373 32488 23007 10284 20114 38192 40086 56030 82100 92040 333 30/// 56500 59001 82810;","Q01  00002PRCP99"
"76373099999","2001-10-12T00:00:00","4","25.35","-105.75","1967.0","TEPEHUANES DGO., MX","FM-12","99999","V020","290,1,N,0060,1","22000,1,9,N","070000,1,N,1","+0268,1","+0141,1","10046,1","24,0000,9,1",,,,,,,,"01,99,1,01,1,01,1,00450,1,00,1,00,1",,"01,9",,"120,M,+0305,1","180,N,+0052,1","99999,9,08186,1","6,1,006,1,-002,1",,,"SYN124AAXX  12001 76373 32488 12906 10268 20141 38186 40046 56006 81100 92340 333 10305 20052 30/// 50550 56600 59002 70000 81810;","Q01  00002PRCP99Q02  00003PRCP99"
"76373099999","2001-10-12T15:00:00","4","25.35","-105.75","1967.0","TEPEHUANES DGO., MX","FM-12","99999","V020","280,1,N,0020,1","22000,1,9,N","070000,1,N,1","+0100,1","+0035,1","10169,1","99,0000,9,1",,,,"02,1,+06000,9,01,9",,,,"02,99,1,00,1,00,1,99999,9,00,1,02,1",,"01,9",,,,"99999,9,08215,1","9,9,999,9,-017,1",,,"SYN100AAXX  12151 76373 32988 22802 10100 20035 38215 40169 5//// 80002 91435 333 30/// 56006 59017 82070;","Q01  00002PRCP99"
"76373099999","2001-10-12T21:00:00","4","25.35","-105.75","1967.0","TEPEHUANES DGO., MX","FM-12","99999","V020","300,1,N,0070,1","22000,1,9,N","070000,1,N,1","+0274,2","+0176,1","10072,1","99,0000,9,1",,,,"00,1,+99999,9,99,9",,,,"00,99,1,00,1,00,1,99999,9,00,1,00,1",,"01,9",,,,"99999,9,08172,1","6,1,027,1,-020,1",,,"SYN082AAXX  12211 76373 32988 03007 10274 20176 38172 40072 56027 92040 333 30/// 59020;","Q01  00002PRCP99"
"76373099999","2001-10-13T03:00:00","4","25.35","-105.75","1967.0","TEPEHUANES DGO., MX","FM-12","99999","V020","270,1,N,0020,1","22000,1,9,N","010000,1,N,1","+0168,1","+0060,1","10041,1","99,0000,9,1",,,,"00,1,+99999,9,99,9",,,,"00,99,1,00,1,00,1,99999,9,00,1,00,1",,"01,9",,,,"99999,9,08187,1","2,1,020,1,-021,1",,,"SYN082AAXX  13031 76373 32960 02702 10168 20060 38187 40041 52020 90250 333 30/// 59021;","Q01  00002PRCP99"
"76373099999","2001-10-13T09:00:00","4","25.35","-105.75","1967.0","TEPEHUANES DGO., MX","FM-12","99999","V020","999,9,C,0000,1","22000,1,9,N","030000,1,N,1","+0183,1","+0170,1","10067,1","99,0000,9,1",,,,"02,1,+00480,9,07,9",,,,"02,99,1,02,1,06,1,00450,1,00,1,00,1",,"01,9",,,,"99999,9,08721,2","9,9,999,9,-030,1",,"4,99,0010,1","SYN112AAXX  13091 76373 32480 20000 10183 20170 38721 40067 5//// 82600 90845 333 30/// 56200 59030 82716 91101 91531;","Q01  00002PRCP99"
"76373099999","2001-10-14T00:00:00","4","25.35","-105.75","1967.0","TEPEHUANES DGO., MX","FM-12","99999","V020","270,1,N,0030,1","22000,1,9,N","070000,1,N,1","+0278,1","+0097,1","10014,1","24,0000,9,1",,,,"00,1,+99999,9,99,9",,,,"00,99,1,00,1,00,1,99999,9,00,1,00,1",,"01,9",,"120,M,+0316,1","180,N,+0036,1","99999,9,08152,1","2,1,008,1,-015,1",,,"SYN106AAXX  14001 76373 32988 02703 10278 20097 38152 40014 52008 92330 333 10316 20036 30/// 50450 59015 70000;","Q01  00002PRCP24"
"76373099999","2001-10-14T15:00:00","4","25.35","-105.75","1967.0","TEPEHUANES DGO., MX","FM-12","99999","V020","999,9,C,0000,1","22000,1,9,N","070000,1,N,1","+0092,1","+0030,1","10146,1","99,0000,9,1",,,,"00,1,+99999,9,99,9",,,,"00,99,1,00,1,00,1,99999,9,00,1,00,1",,"01,9",,,,"99999,9,08220,1","9,9,999,9,+022,1",,,"SYN082AAXX  14151 76373 32988 00000 10092 20030 38220 40146 5//// 91450 333 30/// 58022;","Q01  00002PRCP99"
"76373099999","2001-10-15T15:00:00","4","25.35","-105.75","1967.0","TEPEHUANES DGO., MX","FM-12","99999","V020","340,1,N,0010,1","22000,1,9,N","070000,1,N,1","+0110,1","+0038,1","10186,1","99,0000,9,1",,,,"00,1,+99999,9,99,9",,,,"00,99,1,00,1,00,1,99999,9,00,1,00,1",,"01,9",,,,"99999,9,08242,1","9,9,999,9,+022,1",,,"SYN082AAXX  15151 76373 32988 03401 10110 20038 38242 40186 5//// 91738 333 30/// 58022;","Q01  00002PRCP99"
"76373099999","2001-10-15T21:00:00","4","25.35","-105.75","1967.0","TEPEHUANES DGO., MX","FM-12","99999","V020","100,1,N,0050,1","22000,1,9,N","070000,1,N,1","+0296,2","+0038,1","10118,1","99,0000,9,1",,,,"00,1,+99999,9,99,9",,,,"00,99,1,00,1,00,1,99999,9,00,1,00,1",,"01,9",,,,"99999,9,08212,1","6,1,025,1,+035,1",,,"SYN082AAXX  15211 76373 32988 01005 10296 20038 38212 40118 56025 92042 333 30/// 58035;","Q01  00002PRCP99"
"76373099999","2001-10-16T00:00:00","4","25.35","-105.75","1967.0","TEPEHUANES DGO., MX","FM-12","99999","V020","060,1,N,0040,1","22000,1,9,N","070000,1,N,1","+0286,1","+0096,1","10076,1","99,0000,9,1",,,,"00,1,+99999,9,99,9",,,,"00,99,1,00,1,00,1,99999,9,00,1,00,1",,"01,9",,"120,M,+0324,1","180,N,+0040,1","99999,9,08209,1","7,1,003,1,+039,1",,,"SYN094AAXX  16001 76373 32988 00604 10286 20096 38209 40076 57003 92342 333 10324 20040 30/// 58039;","Q01  00002PRCP99"
"76373099999","2001-10-16T03:00:00","4","25.35","-105.75","1967.0","TEPEHUANES DGO., MX","FM-12","99999","V020","060,1,N,0060,1","22000,1,9,N","000800,1,N,1","+0233,1","+0077,1","10079,1","99,0000,9,1",,,,"00,1,+99999,9,99,9",,,,"00,99,1,00,1,00,1,99999,9,00,1,00,1",,"01,9",,,,"99999,9,99999,9","2,1,019,1,+999,9",,,"SYN082AAXX  16031 76373 32908 00606 10233 20077 36228 40079 52019 90240 333 30/// 58///;","Q01+062283APOSP Q02  00002PRCP99Q03 062283APOSP "
"76373099999","2001-10-16T15:00:00","4","25.35","-105.75","1967.0","TEPEHUANES DGO., MX","FM-12","99999","V020","999,9,C,0000,1","22000,1,9,N","070000,1,N,1","+0127,1","+0042,1","10235,1","99,0000,9,1",,,,"00,1,+99999,9,99,9",,,,"00,99,1,00,1,00,1,99999,9,00,1,00,1",,"01,9",,,,"99999,9,08286,1","2,1,019,1,+044,1",,,"SYN082AAXX  16151 76373 32988 00000 10127 20042 38286 40235 52019 91450 333 30/// 58044;","Q01  00002PRCP99"
"76373099999","2001-10-16T18:00:00","4","25.35","-105.75","1967.0","TEPEHUANES DGO., MX","FM-12","99999","V020","120,1,N,0040,1","22000,1,9,N","070000,1,N,1","+0232,1","+0083,1","10226,1","99,0000,9,1",,,,"00,1,+99999,9,99,9",,,,"00,99,1,00,1,00,1,99999,9,00,1,00,1",,"01,9",,"120,M,+0252,1","240,N,+0046,1","99999,9,08281,1","6,1,005,1,+044,1",,,"SYN094AAXX  16181 76373 32988 01204 10232 20083 38281 40226 56005 91740 333 10252 20046 30/// 58044;","Q01  00002PRCP99"
"76373099999","2001-10-17T00:00:00","4","25.35","-105.75","1967.0","TEPEHUANES DGO., MX","FM-12","99999","V020","100,1,N,0030,1","22000,1,9,N","070000,1,N,1","+0252,1","+0092,1","10123,2","24,0000,9,1",,,,,,,,"01,99,1,01,1,01,1,00450,1,00,1,00,1",,"01,9",,"120,M,+0287,1","180,N,+0046,1","99999,9,08244,1","8,1,001,1,+035,1",,,"SYN124AAXX  17001 76373 32488 11003 10252 20092 38244 40123 58001 81100 92345 333 10287 20046 30/// 50660 56200 58035 70000 81810;","Q01+101233APOSLPQ02  00002PRCP99Q03  00003PRCP99"
"76373099999","2001-10-17T15:00:00","4","25.35","-105.75","1967.0","TEPEHUANES DGO., MX","FM-12","99999","V020","330,1,N,0010,1","22000,1,9,N","060000,1,N,1","+0104,1","+0045,1","10242,1","99,0000,9,1",,,,"00,1,+99999,9,99,9",,,,"00,99,1,00,1,00,1,99999,9,00,1,00,1",,"01,9",,,,"99999,9,08277,1","2,1,005,1,-009,1",,,"SYN082AAXX  17151 76373 32986 03301 10104 20045 38277 40242 52005 91445 333 30/// 59009;","Q01  00002PRCP99"
"76373099999","2001-10-18T00:00:00","4","25.35","-105.75","1967.0","TEPEHUANES DGO., MX","FM-12","99999","V020","140,1,N,0030,1","22000,1,9,N","070000,1,N,1","+0257,1","+0102,1","99999,9","24,0000,9,1",,,,"00,1,+99999,9,99,9",,,,"00,99,1,00,1,00,1,99999,9,00,1,00,1",,"01,9",,"120,M,+0296,1","180,N,+0042,1","99999,9,08219,1","7,1,006,1,-025,1",,,"SYN106AAXX  18001 76373 32988 01403 10257 20102 38219 40010 57006 92340 333 10296 20042 30/// 50560 59025 70000;","Q01  00002PRCP24Q02 100103APOSLP"
"76373099999","2001-10-18T03:00:00","4","25.35","-105.75","1967.0","TEPEHUANES DGO., MX","FM-12","99999","V020","120,1,N,0020,1","22000,1,9,N","000800,1,N,1","+0164,1","+0016,1","10097,2","99,0000,9,1",,,,"00,1,+99999,9,99,9",,,,"00,99,1,00,1,00,1,99999,9,00,1,00,1",,"01,9",,,,"99999,9,08233,1","2,1,014,1,-030,1",,,"SYN082AAXX  18031 76373 32908 01202 10164 20016 38233 40097 52014 90250 333 30/// 59030;","Q01+100973APOSLPQ02  00002PRCP99"
"76373099999","2001-10-18T15:00:00","4","25.35","-105.75","1967.0","TEPEHUANES DGO., MX","FM-12","99999","V020","050,1,N,0010,1","22000,1,9,N","070000,1,N,1","+0098,1","+0009,1","10235,1","99,0000,9,1",,,,"00,1,+99999,9,99,9",,,,"00,99,1,00,1,00,1,99999,9,00,1,00,1",,"01,9",,,,"99999,9,08259,1","9,9,999,9,-018,1",,,"SYN082AAXX  18151 76373 32988 00501 10098 20009 38259 40235 5//// 91435 333 30/// 59018;","Q01  00002PRCP99"
"76373099999","2001-10-18T21:00:00","4","25.35","-105.75","1967.0","TEPEHUANES DGO., MX","FM-12","99999","V020","060,1,N,0020,1","22000,1,9,N","070000,1,N,1","+0272,2","+0136,1","10130,1","99,0000,9,1",,,,"00,1,+99999,9,99,9",,,,"00,99,1,00,1,00,1,99999,9,00,1,00,1",,"01,9",,,,"99999,9,08212,1","6,1,033,1,-013,1",,,"SYN082AAXX  18211 76373 32988 00602 10272 20136 38212 40130 56033 92035 333 30/// 59013;","Q01  00002PRCP99"
"76373099999","2001-10-19T00:00:00","4","25.35","-105.75","1967.0","TEPEHUANES DGO., MX","FM-12","99999","V020","120,1,N,0040,1","22000,1,9,N","070000,1,N,1","+0264,1","+0140,1","10079,1","24,0000,9,1",,,,"00,1,+99999,9,99,9",,,,"00,99,1,00,1,00,1,99999,9,00,1,00,1",,"01,9",,"120,M,+0302,1","180,N,+0019,1","99999,9,08201,1","7,1,011,1,-018,1",,,"SYN106AAXX  19001 76373 32988 01204 10264 20140 38201 40079 57011 92340 333 10302 20019 30/// 50410 59018 70000;","Q01  00002PRCP24"
"76373099999","2001-10-19T15:00:00","4","25.35","-105.75","1967.0","TEPEHUANES DGO., MX","FM-12","99999","V020","999,9,C,0000,1","22000,1,9,N","070000,1,N,1","+0096,1","+0020,1","10205,1","99,0000,9,1",,,,"00,1,+99999,9,99,9",,,,"00,99,1,00,1,00,1,99999,9,00,1,00,1",,"01,9",,,,"99999,9,08238,1","9,9,999,9,-007,1",,,"SYN082AAXX  19151 76373 32988 00000 10096 20020 38238 40205 5//// 91435 333 30/// 59007;","Q01  00002PRCP99"
"76373099999","2001-10-19T18:00:00","4","25.35","-105.75","1967.0","TEPEHUANES DGO., MX","FM-12","99999","V020","120,1,N,0020,1","22000,1,9,N","070000,1,N,1","+0236,2","+0119,1","10216,1","99,0000,9,1",,,,"00,1,+99999,9,99,9",,,,"00,99,1,00,1,00,1,99999,9,00,1,00,1",,"01,9",,"120,M,+0248,1","240,N,+0020,1","99999,9,08225,1","6,1,013,1,-020,1",,,"SYN094AAXX  19181 76373 32988 01202 10236 20119 38225 40216 56013 91736 333 10248 20020 30/// 59020;","Q01+002363ATOT  Q02  00002PRCP99"
"76373099999","2001-10-21T03:00:00","4","25.35","-105.75","1967.0","TEPEHUANES DGO., MX","FM-12","99999","V020","999,9,C,0000,1","22000,1,9,N","010000,1,N,1","+0198,1","+0119,1","10086,1","99,0000,9,1",,,,"00,1,+99999,9,99,9",,,,"00,99,1,00,1,00,1,99999,9,00,1,00,1",,"01,9",,,,"99999,9,08205,1","2,1,019,1,+999,9",,,"SYN082AAXX  21031 76373 32960 00000 10198 20119 38205 40086 52019 90240 333 30/// 58///;","Q01  00002PRCP99"
"76373099999","2001-10-22T15:00:00","4","25.35","-105.75","1967.0","TEPEHUANES DGO., MX","FM-12","99999","V020","310,1,N,0020,1","22000,1,9,N","070000,1,N,1","+0120,1","+0063,1","10174,1","99,0000,9,1",,,,"00,1,+99999,9,99,9",,,,"00,99,1,00,1,00,1,99999,9,00,1,00,1",,"01,9",,,,"99999,9,08232,1","9,9,999,9,-004,1",,,"SYN082AAXX  22151 76373 32988 03102 10120 20063 38232 40174 5//// 91440 333 30/// 59004;","Q01  00002PRCP99"
"76373099999","2001-10-22T21:00:00","4","25.35","-105.75","1967.0","TEPEHUANES DGO., MX","FM-12","99999","V020","330,1,N,0030,1","22000,1,9,N","070000,1,N,1","+0296,2","+0134,1","10081,2","99,0000,9,1",,,,"00,1,+99999,9,99,9",,,,"00,99,1,00,1,00,1,99999,9,00,1,00,1",,"01,9",,,,"99999,9,08182,1","6,1,039,1,-010,1",,,"SYN082AAXX  22211 76373 32988 03303 10296 20134 38182 40081 56039 92038 333 30/// 59010;","Q01+002963ATOT  Q02+100813APOSLPQ03  00002PRCP99"
"76373099999","2001-10-23T15:00:00","4","25.35","-105.75","1967.0","TEPEHUANES DGO., MX","FM-12","99999","V020","260,1,N,0020,1","22000,1,9,N","070000,1,N,1","+0122,1","+0061,1","10153,1","99,0000,9,1",,,,"03,1,+06000,9,01,9",,,,"03,99,1,00,1,00,1,99999,9,00,1,01,1",,"01,9",,,,"99999,9,08216,1","2,1,008,1,-016,1",,,"SYN100AAXX  23151 76373 32988 32602 10122 20061 38216 40153 52008 83001 91450 333 30/// 56006 59016 83070;","Q01+000032SCOTLCQ02  00002PRCP99"
"76373099999","2001-10-23T21:00:00","4","25.35","-105.75","1967.0","TEPEHUANES DGO., MX","FM-12","99999","V020","290,1,N,0040,1","22000,1,9,N","070000,1,N,1","+0280,1","+0119,1","10065,2","99,0000,9,1",,,,"02,1,+06000,9,01,9",,,,"02,99,1,00,1,00,1,99999,9,00,1,01,1",,"01,9",,,,"99999,9,08172,1","7,1,032,1,-010,1",,,"SYN100AAXX  23211 76373 32988 22904 10280 20119 38172 40065 57032 82001 92040 333 30/// 56006 59010 82070;","Q01+000022SCOTLCQ02+100653APOSLPQ03  00002PRCP99"
"76373099999","2001-10-24T12:00:00","4","25.35","-105.75","1967.0","TEPEHUANES DGO., MX","FM-12","99999","V020","300,1,N,0010,1","22000,1,9,N","000800,1,N,1","+0075,1","+0050,1","10127,1","24,0000,9,1",,,,"00,1,+99999,9,99,9",,,,"00,99,1,00,1,00,1,99999,9,00,1,00,1",,"01,9","999,+0030,9","999,M,+0292,1","120,N,+0060,1","99999,9,08202,1","2,1,006,1,-006,1",,,"SYN100AAXX  24121 76373 32908 03001 10075 20050 38202 40127 52006 91145 333 10292 20060 30003 59006 70000;","Q01  00002PRCP24"
"76373099999","2001-10-24T15:00:00","4","25.35","-105.75","1967.0","TEPEHUANES DGO., MX","FM-12","99999","V020","320,1,N,0010,1","22000,1,9,N","070000,1,N,1","+0108,1","+0075,1","10177,1","99,0000,9,1",,,,"01,1,+06000,9,01,9",,,,"01,99,1,00,1,00,1,99999,9,00,1,05,1",,"01,9",,,,"99999,9,08217,1","2,1,015,1,+001,1",,,"SYN100AAXX  24151 76373 32988 13201 10108 20075 38217 40177 52015 81005 91445 333 30/// 56006 58001 81070;","Q01+000012SCOTLCQ02  00002PRCP99"
"76373099999","2001-10-24T18:00:00","4","25.35","-105.75","1967.0","TEPEHUANES DGO., MX","FM-12","99999","V020","270,1,N,0020,1","22000,1,9,N","070000,1,N,1","+0222,1","+0090,1","10148,1","99,0000,9,1",,,,"02,1,+06000,9,01,9",,,,"02,99,1,00,1,00,1,99999,9,00,1,02,1",,"01,9",,"120,M,+0240,1","240,N,+0054,1","99999,9,08210,1","6,1,007,1,+006,1",,,"SYN112AAXX  24181 76373 32988 22702 10222 20090 38210 40148 56007 80002 91740 333 10240 20054 30/// 56003 58006 82070;","Q01  00002PRCP99"
"76373099999","2001-10-25T00:00:00","4","25.35","-105.75","1967.0","TEPEHUANES DGO., MX","FM-12","99999","V020","110,1,N,0020,1","09000,1,9,N","070000,1,N,1","+0260,1","+0108,1","10048,2","24,0000,9,1",,,,"01,1,+00300,9,08,9","01,1,+02400,9,03,9",,,"06,99,1,01,1,01,1,00450,1,06,1,03,1",,"01,9",,"120,M,+0298,1","180,N,+0054,1","99999,9,08180,1","2,1,001,1,+010,1",,,"SYN136AAXX  25001 76373 32488 61102 10260 20108 38180 40048 52001 81163 92350 333 10298 20054 30/// 50430 56666 58010 70000 81810 81358 84070;","Q01+100483APOSLPQ02  00002PRCP99Q03  00003PRCP99"
"76373099999","2001-10-25T03:00:00","4","25.35","-105.75","1967.0","TEPEHUANES DGO., MX","FM-12","99999","V020","270,1,N,0030,1","22000,1,9,N","000800,1,N,1","+0196,1","+0088,1","10053,1","99,0000,9,1",,,,"00,1,+99999,9,99,9",,,,"00,99,1,00,1,00,1,99999,9,00,1,00,1",,"01,9",,,,"99999,9,08201,1","2,1,021,1,+008,1",,,"SYN082AAXX  25031 76373 32908 02703 10196 20088 38201 40053 52021 90250 333 30/// 58008;","Q01  00002PRCP99"
"76373099999","2001-10-25T15:00:00","4","25.35","-105.75","1967.0","TEPEHUANES DGO., MX","FM-12","99999","V020","300,1,N,0010,1","22000,1,9,N","070000,1,N,1","+0108,1","+0022,1","10205,1","99,0000,9,1",,,,"00,1,+99999,9,99,9",,,,"00,99,1,00,1,00,1,99999,9,00,1,00,1",,"01,9",,,,"99999,9,08249,1","9,9,999,9,+032,1",,,"SYN082AAXX  25151 76373 32988 03001 10108 20022 38249 40205 5//// 91435 333 30/// 58032;","Q01  00002PRCP99"
"76373099999","2001-10-25T18:00:00","4","25.35","-105.75","1967.0","TEPEHUANES DGO., MX","FM-12","99999","V020","090,1,N,0010,1","22000,1,9,N","070000,1,N,1","+0230,1","+0120,1","10188,1","99,0000,9,1",,,,"00,1,+99999,9,99,9",,,,"00,99,1,00,1,00,1,99999,9,00,1,00,1",,"01,9",,"120,M,+0250,1","240,N,+0048,1","99999,9,08245,1","6,1,004,1,+035,1",,,"SYN094AAXX  25181 76373 32988 00901 10230 20120 38245 40188 56004 91742 333 10250 20048 30/// 58035;","Q01  00002PRCP99"
"76373099999","2001-10-25T21:00:00","4","25.35","-105.75","1967.0","TEPEHUANES DGO., MX","FM-12","99999","V020","130,1,N,0060,1","22000,1,9,N","070000,1,N,1","+0282,1","+0155,1","10120,1","99,0000,9,1",,,,"02,1,+00300,9,02,9",,,,"02,99,1,02,1,01,1,00450,1,00,1,00,1",,"01,9",,,,"99999,9,08211,1","7,1,034,1,+001,1",,,"SYN100AAXX  25211 76373 32488 21306 10282 20155 38211 40120 57034 82100 92040 333 30/// 56300 58001 82810;","Q01  00002PRCP99"
"76373099999","2001-10-26T00:00:00","4","25.35","-105.75","1967.0","TEPEHUANES DGO., MX","FM-12","99999","V020","090,1,N,0010,1","00300,1,C,N","070000,1,N,1","+0254,1","+0156,1","10083,1","24,0000,9,1",,,,"05,1,+00300,9,08,9",,,,"06,99,1,05,1,02,1,00450,1,03,1,00,1",,"01,9",,"120,M,+0299,1","180,N,+0048,1","99999,9,08209,1","2,1,001,1,+029,1",,,"SYN130AAXX  26001 76373 32488 60901 10254 20156 38209 40083 52001 85230 92336 333 10299 20048 30/// 50570 56330 58029 70000 85810 81360;","Q01  00002PRCP99Q02  00003PRCP99"
"76373099999","2001-10-26T15:00:00","4","25.35","-105.75","1967.0","TEPEHUANES DGO., MX","FM-12","99999","V020","999,9,C,0000,1","22000,1,9,N","070000,1,N,1","+0138,1","+0079,1","10202,1","12,9999,9,9",,,,"02,1,+03000,9,07,9",,,,"02,99,1,02,1,00,1,01750,1,06,1,00,1",,"01,9",,,,"99999,9,08277,1","9,9,999,9,+028,1",,,"SYN112AAXX  26151 76373 /2788 20000 10138 20079 38277 40202 5//// 69902 82060 91436 333 30/// 56030 58028 69902 82360;","Q01  99992PRCP12"
"76373099999","2001-10-26T18:00:00","4","25.35","-105.75","1967.0","TEPEHUANES DGO., MX","FM-12","99999","V020","120,1,N,0060,1","22000,1,9,N","070000,1,N,1","+0230,1","+0156,1","10198,1","99,0000,9,1",,,,"01,1,+00300,9,08,9",,,,"04,99,1,01,1,01,1,00450,1,03,1,00,1",,"01,9",,"120,M,+0258,1","240,N,+0084,1","99999,9,08274,1","7,1,003,1,+029,1",,,"SYN118AAXX  26181 76373 32488 41206 10230 20156 38274 40198 57003 81130 91736 333 10258 20084 30/// 56330 58029 81810 83370;","Q01  00002PRCP99"
"76373099999","2001-10-26T21:00:00","4","25.35","-105.75","1967.0","TEPEHUANES DGO., MX","FM-12","99999","V020","120,1,N,0050,1","22000,1,9,N","070000,1,N,1","+0274,1","+0206,1","10146,1","99,0000,9,1",,,,"02,1,+00300,9,09,9","01,1,+00300,9,08,9",,,"04,99,1,02,1,03,1,00450,1,03,1,00,1",,"01,9",,,,"99999,9,08241,1","6,1,033,1,+030,1",,,"SYN112AAXX  26211 76373 32488 41205 10274 20206 38241 40146 56033 82330 92040 333 30/// 56330 58030 81810 82910 81360;","Q01  00002PRCP99"
"76373099999","2001-10-28T00:00:00","4","25.35","-105.75","1967.0","TEPEHUANES DGO., MX","FM-12","99999","V020","120,1,N,0040,1","22000,1,9,N","070000,1,N,1","+0218,1","+0113,1","10146,1","24,0037,9,1",,"5,1,06,1","5,1,06,1","03,1,+00600,9,02,9",,,,"03,99,1,03,1,02,1,00250,1,00,1,00,1",,"01,9",,"120,M,+0278,1","180,N,+0080,1","99999,9,08246,1","6,1,036,1,+070,1","20,1",,"SYN130AAXX  28001 76373 /1388 31204 10218 20113 38246 40146 56036 69997 72055 83200 92350 333 10278 20080 30/// 58070 60044 70037 83820;",
"76373099999","2001-10-28T21:00:00","4","25.35","-105.75","1967.0","TEPEHUANES DGO., MX","FM-12","99999","V020","210,1,N,0040,1","22000,1,9,N","070000,1,N,1","+0260,1","+0127,1","10184,1","99,0000,9,1",,,,"01,1,+00600,9,02,9",,,,"01,99,1,01,1,02,1,00250,1,00,1,00,1",,"01,9",,,,"99999,9,08256,1","6,1,028,1,+004,1",,,"SYN100AAXX  28211 76373 32388 12104 10260 20127 38256 40184 56028 81200 92040 333 30/// 56300 58004 81820;","Q01  00002PRCP99"
"76373099999","2001-10-29T00:00:00","4","25.35","-105.75","1967.0","TEPEHUANES DGO., MX","FM-12","99999","V020","080,1,N,0040,1","22000,1,9,N","070000,1,N,1","+0248,1","+0105,1","10118,2","24,0000,9,1",,,,,,,,"01,99,1,01,1,02,1,00250,1,00,1,00,1",,"01,9",,"120,M,+0284,1","180,N,+0050,1","99999,9,08240,1","6,1,011,1,-006,1",,,"SYN124AAXX  29001 76373 32388 10804 10248 20105 38240 40118 56011 81200 92345 333 10284 20050 30/// 50400 56300 59006 70000 81820;","Q01+101183APOSLPQ02  00002PRCP99Q03  00003PRCP99"
"76373099999","2001-10-29T15:00:00","4","25.35","-105.75","1967.0","TEPEHUANES DGO., MX","FM-12","99999","V020","999,9,C,0000,1","22000,1,9,N","070000,1,N,1","+0084,1","+0028,1","10273,1","99,0000,9,1",,,,"00,1,+99999,9,99,9",,,,"00,99,1,00,1,00,1,99999,9,00,1,00,1",,"01,9",,,,"99999,9,08297,1","9,9,999,9,+010,1",,,"SYN082AAXX  29151 76373 32988 00000 10084 20028 38297 40273 5//// 91140 333 30/// 58010;","Q01  00002PRCP99"
"76373099999","2001-10-29T21:00:00","4","25.35","-105.75","1967.0","TEPEHUANES DGO., MX","FM-12","99999","V020","150,1,N,0060,1","22000,1,9,N","070000,1,N,1","+0262,2","+0137,1","10184,2","99,0000,9,1",,,,"00,1,+99999,9,99,9",,,,"00,99,1,00,1,00,1,99999,9,00,1,00,1",,"01,9",,,,"99999,9,08262,1","6,1,030,1,+006,1",,,"SYN082AAXX  29211 76373 32988 01506 10262 20137 38262 40184 56030 92038 333 30/// 58006;","Q01+002623ATOT  Q02+101843APOSLPQ03  00002PRCP99"
"76373099999","2001-10-30T12:00:00","4","25.35","-105.75","1967.0","TEPEHUANES DGO., MX","FM-12","99999","V020","999,9,C,0000,1","22000,1,9,N","000800,1,N,1","+0038,1","-0005,1","10240,1","24,0000,9,1",,,,"00,1,+99999,9,99,9",,,,"00,99,1,00,1,00,1,99999,9,00,1,00,1",,"01,9","999,-0010,9","999,M,+0278,1","120,N,+0020,1","99999,9,08277,1","2,1,004,1,+999,9",,,"SYN100AAXX  30121 76373 32908 00000 10038 21005 38277 40240 52004 91145 333 10278 20020 30101 58/// 70000;","Q01  00002PRCP24"
"76373099999","2001-10-30T15:00:00","4","25.35","-105.75","1967.0","TEPEHUANES DGO., MX","FM-12","99999","V020","060,1,N,0010,1","22000,1,9,N","060000,1,N,1","+0080,1","+0020,1","10278,1","99,0000,9,1",,,,"00,1,+99999,9,99,9",,,,"00,99,1,00,1,00,1,99999,9,00,1,00,1",,"01,9",,,,"99999,9,08287,1","2,1,010,1,-007,1",,,"SYN082AAXX  30151 76373 32986 00601 10080 20020 38287 40278 52010 91453 333 30/// 59007;","Q01  00002PRCP99"
"76373099999","2001-10-30T21:00:00","4","25.35","-105.75","1967.0","TEPEHUANES DGO., MX","FM-12","99999","V020","150,1,N,0030,1","22000,1,9,N","070000,1,N,1","+0250,2","+0082,1","10181,1","99,0000,9,1",,,,"00,1,+99999,9,99,9",,,,"00,99,1,00,1,00,1,99999,9,00,1,00,1",,"01,9",,,,"99999,9,08241,1","7,1,038,1,-021,1",,,"SYN082AAXX  30211 76373 32988 01503 10250 20082 38241 40181 57038 92058 333 30/// 59021;","Q01  00002PRCP99"
"76373099999","2001-10-31T12:00:00","4","25.35","-105.75","1967.0","TEPEHUANES DGO., MX","FM-12","99999","V020","999,9,C,0000,1","22000,1,9,N","000800,1,N,1","+0020,1","-0024,1","10216,1","24,0000,9,1",,,,"00,1,+99999,9,99,9",,,,"00,99,1,00,1,00,1,99999,9,00,1,00,1",,"01,9","999,-0020,9","999,M,+0266,1","120,N,+0002,1","99999,9,08253,1","2,1,003,1,-024,1",,,"SYN100AAXX  31121 76373 32908 00000 10020 21024 38253 40216 52003 91150 333 10266 20002 30102 59024 70000;","Q01  00002PRCP24"
"76373099999","2001-10-31T21:00:00","4","25.35","-105.75","1967.0","TEPEHUANES DGO., MX","FM-12","99999","V020","150,1,N,0020,1","22000,1,9,N","070000,1,N,1","+0273,1","+0085,1","10134,1","99,0000,9,1",,,,"01,1,+06000,9,01,9",,,,"01,99,1,00,1,00,1,99999,9,00,1,04,1",,"01,9",,,,"99999,9,08201,1","7,1,043,1,-040,1",,,"SYN100AAXX  31211 76373 32988 11502 10273 20085 38201 40134 57043 81004 92045 333 30/// 56006 59040 81070;","Q01+000012SCOTLCQ02  00002PRCP99"
"76373099999","2001-11-01T03:00:00","4","25.35","-105.75","1967.0","TEPEHUANES DGO., MX","FM-12","99999","V020","240,1,N,0020,1","22000,1,9,N","000800,1,N,1","+0175,1","+0063,1","10083,1","99,0000,9,1",,,,"00,1,+99999,9,99,9",,,,"00,99,1,00,1,00,1,99999,9,00,1,00,1",,"01,9",,,,"99999,9,08217,1","2,1,023,1,-033,1",,,"SYN082AAXX  01031 76373 32908 02402 10175 20063 38217 40083 52023 90247 333 30/// 59033;","Q01  00002PRCP99"
"76373099999","2001-11-01T18:00:00","4","25.35","-105.75","1967.0","TEPEHUANES DGO., MX","FM-12","99999","V020","100,1,N,0030,1","22000,1,9,N","070000,1,N,1","+0220,1","+0094,1","10155,1","99,0000,9,1",,,,"01,1,+00300,9,08,9",,,,"02,99,1,01,1,01,1,00450,1,00,1,02,1",,"01,9",,"120,M,+0232,1","240,N,+0040,1","99999,9,08228,1","6,1,010,1,-046,1",,,"SYN118AAXX  01181 76373 32488 21003 10220 20094 38228 40155 56010 81102 91740 333 10232 20040 30/// 56505 59046 81810 81070;","Q01  00002PRCP99"
"76373099999","2001-11-01T21:00:00","4","25.35","-105.75","1967.0","TEPEHUANES DGO., MX","FM-12","99999","V020","270,1,N,0010,1","22000,1,9,N","070000,1,N,1","+0268,1","+0119,1","10092,2","99,0000,9,1",,,,"01,1,+00300,9,08,9",,,,"03,99,1,01,1,01,1,00450,1,00,1,02,1",,"01,9",,,,"99999,9,08191,1","6,1,037,1,-050,1",,,"SYN106AAXX  01211 76373 32488 32701 10268 20119 38191 40092 56037 81102 92040 333 30/// 58505 59050 81810 82360;","Q01+100923APOSLPQ02  00002PRCP99"
"76373099999","2001-11-02T00:00:00","4","25.35","-105.75","1967.0","TEPEHUANES DGO., MX","FM-12","99999","V020","130,1,N,0010,1","22000,1,9,N","070000,1,N,1","+0244,1","+0106,1","10046,2","24,0000,9,1",,,,"02,1,+03000,9,03,9",,,,"04,99,1,04,1,00,1,01750,1,03,1,02,1",,"01,9",,"120,M,+0294,1","180,N,+0040,1","99999,9,08181,1","7,1,010,1,-013,1",,,"SYN130AAXX  02001 76373 32788 41301 10244 20106 38181 40046 57010 84032 92338 333 10294 20040 30/// 50370 56055 59013 70000 82360 82070;","Q01+100463APOSLPQ02  00002PRCP99Q03  00003PRCP99"
"76373099999","2001-11-02T15:00:00","4","25.35","-105.75","1967.0","TEPEHUANES DGO., MX","FM-12","99999","V020","330,1,N,0010,1","22000,1,9,N","070000,1,N,1","+0102,1","+0049,1","10179,1","99,0000,9,1",,,,"02,1,+06000,9,01,9",,,,"02,99,1,00,1,00,1,99999,9,00,1,02,1",,"01,9",,,,"99999,9,08234,1","9,9,999,9,-004,1",,,"SYN100AAXX  02151 76373 32988 23301 10102 20049 38234 40179 5//// 80002 91438 333 30/// 56006 59004 82070;","Q01  00002PRCP99"
"76373099999","2001-11-02T18:00:00","4","25.35","-105.75","1967.0","TEPEHUANES DGO., MX","FM-12","99999","V020","180,1,N,0030,1","22000,1,9,N","070000,1,N,1","+0220,1","+0099,1","10167,1","99,0000,9,1",,,,"01,1,+00300,9,02,9",,,,"01,99,1,01,1,01,1,00450,1,00,1,00,1",,"01,9",,"120,M,+0232,1","240,N,+0042,1","99999,9,08229,1","8,1,005,1,+001,1",,,"SYN112AAXX  02181 76373 32488 11803 10220 20099 38229 40167 58005 81100 91737 333 10232 20042 30/// 56600 58001 81810;","Q01  00002PRCP99"
"76373099999","2001-11-02T21:00:00","4","25.35","-105.75","1967.0","TEPEHUANES DGO., MX","FM-12","99999","V020","110,1,N,0040,1","22000,1,9,N","070000,1,N,1","+0268,1","+0107,1","10106,2","99,0000,9,1",,,,"01,1,+00300,9,08,9",,,,"03,99,1,01,1,01,1,00450,1,00,1,02,1",,"01,9",,,,"99999,9,08199,1","6,1,030,1,+008,1",,,"SYN106AAXX  02211 76373 32488 31104 10268 20107 38199 40106 56030 81102 92040 333 30/// 56606 58008 81810 82070;","Q01+101063APOSLPQ02  00002PRCP99"
"76373099999","2001-11-05T15:00:00","4","25.35","-105.75","1967.0","TEPEHUANES DGO., MX","FM-12","99999","V020","999,9,C,0000,1","22000,1,9,N","070000,1,N,1","+0080,1","+0033,1","10223,1","99,0000,9,1",,,,"03,1,+03000,9,07,9",,,,"03,99,1,03,1,00,1,01750,1,03,1,00,1",,"01,9",,,,"99999,9,08254,1","9,9,999,9,-017,1",,,"SYN100AAXX  05151 76373 32788 30000 10080 20033 38254 40223 5//// 83030 91438 333 30/// 56050 59017 83360;","Q01  00002PRCP99"
"76373099999","2001-11-05T18:00:00","4","25.35","-105.75","1967.0","TEPEHUANES DGO., MX","FM-12","99999","V020","150,1,N,0030,1","22000,1,9,N","070000,1,N,1","+0192,1","+0098,1","10202,1","99,0000,9,1",,,,"01,1,+00300,9,08,9",,,,"04,99,1,01,1,01,1,00450,1,03,1,00,1",,"01,9",,"120,M,+0210,1","240,N,+0030,1","99999,9,08243,1","6,1,011,1,-019,1",,,"SYN118AAXX  05181 76373 32488 41503 10192 20098 38243 40202 56011 81130 91742 333 10210 20030 30/// 58550 59019 81810 83360;","Q01  00002PRCP99"
"76373099999","2001-11-05T21:00:00","4","25.35","-105.75","1967.0","TEPEHUANES DGO., MX","FM-12","99999","V020","320,1,N,0020,1","22000,1,9,N","070000,1,N,1","+0226,1","+0115,1","10148,1","99,0000,9,1",,,,"02,1,+00300,9,08,9",,,,"03,99,1,02,1,01,1,00450,1,03,1,00,1",,"01,9",,,,"99999,9,08209,1","6,1,034,1,-031,1",,,"SYN106AAXX  05211 76373 32488 33202 10226 20115 38209 40148 56034 82130 92040 333 30/// 56550 59031 82810 81360;","Q01  00002PRCP99"
"76373099999","2001-11-06T03:00:00","4","25.35","-105.75","1967.0","TEPEHUANES DGO., MX","FM-12","99999","V020","270,1,N,0020,1","22000,1,9,N","000800,1,N,1","+0146,1","+0039,1","10109,1","99,0000,9,1",,,,"00,1,+99999,9,99,9",,,,"00,99,1,00,1,00,1,99999,9,00,1,00,1",,"01,9",,,,"99999,9,08217,1","2,1,006,1,-029,1",,,"SYN082AAXX  06031 76373 32908 02702 10146 20039 38217 40109 52006 90240 333 30/// 59029;","Q01  00002PRCP99"
"76373099999","2001-11-06T12:00:00","4","25.35","-105.75","1967.0","TEPEHUANES DGO., MX","FM-12","99999","V020","999,9,C,0000,1","22000,1,9,N","000800,1,N,1","+0048,1","+0016,1","10188,1","24,0000,9,1",,,,"04,1,+02400,9,07,9",,,,"04,99,1,04,1,99,9,01750,1,06,1,00,1",,"01,9","999,+0010,9","999,M,+0256,1","120,N,+0032,1","99999,9,08232,1","2,1,002,1,+999,9",,,"SYN118AAXX  06121 76373 32708 40000 10048 20016 38232 40188 52002 84060 91145 333 10256 20032 30001 56050 58/// 70000 84358;","Q01    003SCOLCG"
"76373099999","2001-11-06T15:00:00","4","25.35","-105.75","1967.0","TEPEHUANES DGO., MX","FM-12","99999","V020","310,1,N,0010,1","22000,1,9,N","060000,1,N,1","+0078,1","+0047,1","10226,1","99,0000,9,1",,,,"01,1,+00300,9,06,9",,,,"03,99,1,01,1,04,1,00450,1,06,1,00,1",,"01,9",,,,"99999,9,08249,1","2,1,017,1,-005,1",,,"SYN106AAXX  06151 76373 32486 33101 10078 20047 38249 40226 52017 81460 91445 333 30/// 56550 59005 81610 82358;","Q01  00002PRCP99"
"76373099999","2001-11-06T18:00:00","4","25.35","-105.75","1967.0","TEPEHUANES DGO., MX","FM-12","99999","V020","120,1,N,0020,1","22000,1,9,N","070000,1,N,1","+0184,1","+0050,1","10209,1","99,0000,9,1",,,,"02,1,+00300,9,08,9",,,,"04,99,1,02,1,01,1,00450,1,03,1,00,1",,"01,9",,"120,M,+0206,1","240,N,+0030,1","99999,9,08245,1","8,1,004,1,+002,1",,,"SYN118AAXX  06181 76373 32488 41202 10184 20050 38245 40209 58004 82130 91740 333 10206 20030 30/// 56550 58002 82810 82360;","Q01  00002PRCP99"
"76373099999","2001-11-06T21:00:00","4","25.35","-105.75","1967.0","TEPEHUANES DGO., MX","FM-12","99999","V020","310,1,N,0010,1","00300,1,9,N","070000,1,N,1","+0248,1","+0091,1","10151,1","99,0000,9,1",,,,"05,1,+00300,9,02,9",,,,"05,99,1,05,1,01,1,00450,1,00,1,00,1",,"01,9",,,,"99999,9,08218,1","7,1,027,1,-008,1",,,"SYN100AAXX  06211 76373 32488 53101 10248 20091 38218 40151 57027 85100 92045 333 30/// 56500 59008 85810;","Q01  00002PRCP99"
"76373099999","2001-11-07T00:00:00","4","25.35","-105.75","1967.0","TEPEHUANES DGO., MX","FM-12","99999","V020","270,1,N,0050,1","22000,1,9,N","070000,1,N,1","+0235,1","+0089,1","10116,1","24,0000,9,1",,,,,,,,"04,99,1,99,9,01,1,00450,1,00,1,00,1",,"01,9",,"120,M,+0264,1","180,N,+0030,1","99999,9,08219,1","2,1,001,1,+999,9",,,"SYN124AAXX  07001 76373 32488 42705 10235 20089 38219 40116 52001 83100 92340 333 10264 20030 30/// 50170 56500 58/// 70000 84810;","Q01+000032SCOTLCQ02  00002PRCP99Q03  00003PRCP99"
"76373099999","2001-11-07T18:00:00","4","25.35","-105.75","1967.0","TEPEHUANES DGO., MX","FM-12","99999","V020","300,1,N,0010,1","22000,1,9,N","070000,1,N,1","+0210,1","+0062,1","10231,1","99,0000,9,1",,,,"00,1,+99999,9,99,9",,,,"00,99,1,00,1,00,1,99999,9,00,1,00,1",,"01,9",,"120,M,+0224,1","240,N,+0016,1","99999,9,08263,1","7,1,008,1,+018,1",,,"SYN094AAXX  07181 76373 32988 03001 10210 20062 38263 40231 57008 91738 333 10224 20016 30/// 58018;","Q01  00002PRCP99"
"76373099999","2001-11-08T00:00:00","4","25.35","-105.75","1967.0","TEPEHUANES DGO., MX","FM-12","99999","V020","120,1,N,0010,1","22000,1,9,N","070000,1,N,1","+0252,1","+0008,1","10116,2","24,0000,9,1",,,,"01,1,+00300,9,08,9",,,,"03,99,1,01,1,01,1,00450,1,00,1,05,1",,"01,9",,"120,M,+0278,1","180,N,+0016,1","99999,9,08226,1","7,1,006,1,-007,1",,,"SYN130AAXX  08001 76373 32488 31201 10252 20008 38226 40116 57006 81105 92340 333 10278 20016 30/// 50420 57505 59007 70000 81810 82070;","Q01+101163APOSLPQ02  00002PRCP99Q03  00003PRCP99"
"76373099999","2001-11-08T12:00:00","4","25.35","-105.75","1967.0","TEPEHUANES DGO., MX","FM-12","99999","V020","270,1,N,0010,1","22000,1,9,N","000800,1,N,1","+0050,1","+0005,1","10219,1","24,0000,9,1",,,,"00,1,+99999,9,99,9",,,,"00,99,1,00,1,00,1,99999,9,00,1,00,1",,"01,9","999,+0010,9","999,M,+0278,1","120,N,+0032,1","99999,9,08265,1","2,1,004,1,+007,1",,,"SYN100AAXX  08121 76373 32908 02701 10050 20005 38265 40219 52004 91144 333 10278 20032 30001 58007 70000;","Q01  00002PRCP24"
"76373099999","2001-11-08T15:00:00","4","25.35","-105.75","1967.0","TEPEHUANES DGO., MX","FM-12","99999","V020","999,9,C,0000,1","22000,1,9,N","070000,1,N,1","+0080,1","+0005,1","10259,1","99,0000,9,1",,,,"01,1,+06000,9,01,9",,,,"01,99,1,00,1,00,1,99999,9,00,1,05,1",,"01,9",,,,"99999,9,08279,1","1,1,014,1,+008,1",,,"SYN100AAXX  08151 76373 32988 10000 10080 20005 38279 40259 51014 80005 91440 333 30/// 56006 58008 81070;","Q01  00002PRCP99"
"76373099999","2001-11-08T18:00:00","4","25.35","-105.75","1967.0","TEPEHUANES DGO., MX","FM-12","99999","V020","120,1,N,0020,1","22000,1,9,N","070000,1,N,1","+0206,1","+0050,1","10242,1","99,0000,9,1",,,,"00,1,+99999,9,99,9",,,,"00,99,1,00,1,00,1,99999,9,00,1,00,1",,"01,9",,"120,M,+0220,1","240,N,+0020,1","99999,9,08270,1","6,1,009,1,+007,1",,,"SYN094AAXX  08181 76373 32988 01202 10206 20050 38270 40242 56009 91738 333 10220 20020 30/// 58007;","Q01  00002PRCP99"
"76373099999","2001-11-08T21:00:00","4","25.35","-105.75","1967.0","TEPEHUANES DGO., MX","FM-12","99999","V020","130,1,N,0040,1","22000,1,9,N","070000,1,N,1","+0258,1","+0122,1","10167,1","99,0000,9,1",,,,"01,1,+00300,9,02,9",,,,"01,99,1,01,1,01,1,00450,1,00,1,00,1",,"01,9",,,,"99999,9,08234,1","6,1,036,1,+002,1",,,"SYN100AAXX  08211 76373 32488 11304 10258 20122 38234 40167 56036 81100 92040 333 30/// 56600 58002 81810;","Q01  00002PRCP99"
"76373099999","2001-11-09T00:00:00","4","25.35","-105.75","1967.0","TEPEHUANES DGO., MX","FM-12","99999","V020","100,1,N,0040,1","22000,1,9,N","070000,1,N,1","+0244,1","+0095,1","10130,1","24,0000,9,1",,,,"01,1,+00300,9,08,9",,,,"02,99,1,01,1,01,1,00450,1,03,1,00,1",,"01,9",,"120,M,+0284,1","180,N,+0020,1","99999,9,08232,1","7,1,002,1,+006,1",,,"SYN130AAXX  09001 76373 32488 21004 10244 20095 38232 40130 57002 81130 92336 333 10284 20020 30/// 50380 56550 58006 70000 81810 81360;","Q01  00002PRCP99Q02  00003PRCP99"
"76373099999","2001-11-09T03:00:00","4","25.35","-105.75","1967.0","TEPEHUANES DGO., MX","FM-12","99999","V020","270,1,N,0030,1","99999,9,9,N","010000,1,N,1","+0186,1","+0023,1","10120,1","99,0000,9,1",,,,,,,,,,"01,9",,,,"99999,9,08244,1","2,1,009,1,-007,1",,,"SYN088AAXX  09031 76373 32360 /2703 10186 20023 38244 40120 52009 8//// 90230 333 30/// 59007;","Q01  00002PRCP99"
"76373099999","2001-11-09T15:00:00","4","25.35","-105.75","1967.0","TEPEHUANES DGO., MX","FM-12","99999","V020","999,9,C,0000,1","22000,1,9,N","070000,1,N,1","+0080,1","+0010,1","10261,1","99,0000,9,1",,,,"00,1,+99999,9,99,9",,,,"00,99,1,00,1,00,1,99999,9,00,1,00,1",,"01,9",,,,"99999,9,08293,1","9,9,999,9,+014,1",,,"SYN082AAXX  09151 76373 32988 00000 10080 20010 38293 40261 5//// 91438 333 30/// 58014;","Q01  00002PRCP99"
"76373099999","2001-11-09T18:00:00","4","25.35","-105.75","1967.0","TEPEHUANES DGO., MX","FM-12","99999","V020","120,1,N,0050,1","22000,1,9,N","070000,1,N,1","+0214,1","+0095,1","10247,1","99,0000,9,1",,,,"02,1,+06000,9,01,9",,,,"02,99,1,00,1,00,1,99999,9,00,1,02,1",,"01,9",,"120,M,+0228,1","240,N,+0024,1","99999,9,08285,1","6,1,008,1,+015,1",,,"SYN112AAXX  09181 76373 32988 21205 10214 20095 38285 40247 56008 80002 91738 333 10228 20024 30/// 56006 58015 82070;","Q01  00002PRCP99"
"76373099999","2001-11-09T21:00:00","4","25.35","-105.75","1967.0","TEPEHUANES DGO., MX","FM-12","99999","V020","120,1,N,0060,1","09000,1,C,N","070000,1,N,1","+0248,1","+0116,1","10186,1","99,0000,9,1",,,,"01,1,+00300,9,08,9",,,,"06,99,1,01,1,01,1,00450,1,00,1,08,1",,"01,9",,,,"99999,9,08254,1","6,1,031,1,+020,1",,,"SYN106AAXX  09211 76373 32488 61206 10248 20116 38254 40186 56031 81108 92040 333 30/// 56606 58020 81810 85270;","Q01  00002PRCP99"
"76373099999","2001-11-10T00:00:00","4","25.35","-105.75","1967.0","TEPEHUANES DGO., MX","FM-12","99999","V020","130,1,N,0030,1","99999,9,9,N","040000,1,N,1","+0222,1","+0106,1","10155,1","24,0000,9,1",,,,,,,,"06,99,1,00,1,00,1,99999,9,00,1,04,1",,"01,9",,"120,M,+0268,1","180,N,+0024,1","99999,9,08250,1","6,1,004,1,+018,1",,,"SYN124AAXX  10001 76373 32382 61303 10222 20106 38250 40155 56004 80004 92350 333 10268 20024 30/// 50600 56006 58018 70000 86083;","Q01+002502SCOLCBQ02  00002PRCP99Q03  00003PRCP99"
"76373099999","2001-11-11T03:00:00","4","25.35","-105.75","1967.0","TEPEHUANES DGO., MX","FM-12","99999","V020","999,9,C,0000,1","22000,1,C,N","010000,1,N,1","+0178,1","+0089,1","10137,1","99,0000,9,1",,,,"01,1,+00600,9,08,9",,,,"08,99,1,01,1,02,1,00250,1,00,1,04,1",,"01,9",,,,"99999,9,08239,1","2,1,021,1,-027,1",,,"SYN106AAXX  11031 76373 32360 80000 10178 20089 38239 40137 52021 81204 90248 333 30/// 56606 59027 81820 87080;","Q01  00002PRCP99"
"76373099999","2001-11-11T18:00:00","4","25.35","-105.75","1967.0","TEPEHUANES DGO., MX","FM-12","99999","V020","050,1,N,0010,1","03000,1,9,N","070000,1,N,1","+0186,1","+0088,1","10169,1","99,0000,9,1",,,,"08,1,+03000,9,07,9",,,,"08,99,1,08,1,00,1,01250,1,03,1,00,1",,"01,9",,"120,M,+0200,1","240,N,+0074,1","99999,9,08249,1","6,1,007,1,-013,1",,,"SYN112AAXX  11181 76373 32688 80501 10186 20088 38249 40169 56007 88030 91730 333 10200 20074 30/// 56060 59013 88360;","Q01  00002PRCP99"
"76373099999","2001-11-11T21:00:00","4","25.35","-105.75","1967.0","TEPEHUANES DGO., MX","FM-12","99999","V020","140,1,N,0020,1","03600,1,C,N","070000,1,N,1","+0236,1","+0104,1","10118,1","99,0000,9,1",,,,"03,1,+00600,9,08,9",,,,"08,99,1,03,1,02,1,00250,1,03,1,00,1",,"01,9",,,,"99999,9,08219,1","6,1,030,1,-003,1",,,"SYN106AAXX  11211 76373 32388 81402 10236 20104 38219 40118 56030 83230 92045 333 30/// 56606 59003 83820 85080;","Q01  00002PRCP99"
"76373099999","2001-11-12T00:00:00","4","25.35","-105.75","1967.0","TEPEHUANES DGO., MX","FM-12","99999","V020","230,1,N,0060,1","03600,1,C,N","070000,1,N,1","+0218,1","+0100,1","10102,1","24,0000,9,1",,,,"04,1,+00600,9,09,9",,,,"08,99,1,04,1,03,1,00250,1,06,1,00,1",,"01,9",,"120,M,+0256,1","180,N,+0074,1","99999,9,08213,1","6,1,006,1,-005,1",,,"SYN124AAXX  12001 76373 32388 82306 10218 20100 38213 40102 56006 84360 92345 333 10256 20074 30/// 50400 59005 70000 84920 84360;",
"76373099999","2001-11-12T15:00:00","4","25.35","-105.75","1967.0","TEPEHUANES DGO., MX","FM-12","99999","V020","999,9,C,0000,1","22000,1,9,N","070000,1,N,1","+0080,1","+0023,1","10226,1","99,0000,9,1",,,,"00,1,+99999,9,99,9",,,,"00,99,1,00,1,00,1,99999,9,00,1,00,1",,"01,9",,,,"99999,9,08262,1","9,9,999,9,+006,1",,,"SYN082AAXX  12151 76373 32988 00000 10080 20023 38262 40226 5//// 91438 333 30/// 58006;","Q01  00002PRCP99"
"76373099999","2001-11-12T18:00:00","4","25.35","-105.75","1967.0","TEPEHUANES DGO., MX","FM-12","99999","V020","120,1,N,0030,1","22000,1,9,N","070000,1,N,1","+0200,1","+0051,1","10219,1","99,0000,9,1",,,,"02,1,+00300,9,02,9",,,,"02,99,1,02,1,01,1,00450,1,00,1,00,1",,"01,9",,"120,M,+0212,1","240,N,+0018,1","99999,9,08260,1","7,1,002,1,+011,1",,,"SYN112AAXX  12181 76373 32488 21203 10200 20051 38260 40219 57002 82100 91740 333 10212 20018 30/// 56300 58011 82810;","Q01  00002PRCP99"
"76373099999","2001-11-12T21:00:00","4","25.35","-105.75","1967.0","TEPEHUANES DGO., MX","FM-12","99999","V020","180,1,N,0020,1","22000,1,9,N","070000,1,N,1","+0264,1","+0106,1","10151,1","99,0000,9,1",,,,"02,1,+00300,9,02,9",,,,"02,99,1,02,1,01,1,00450,1,00,1,00,1",,"01,9",,,,"99999,9,08224,1","6,1,036,1,+005,1",,,"SYN100AAXX  12211 76373 32488 21802 10264 20106 38224 40151 56036 82100 92040 333 30/// 56300 58005 82810;","Q01  00002PRCP99"
"76373099999","2001-11-13T00:00:00","4","25.35","-105.75","1967.0","TEPEHUANES DGO., MX","FM-12","99999","V020","150,1,N,0030,1","22000,1,9,N","070000,1,N,1","+0224,1","+0088,1","10106,1","24,0000,9,1",,,,"02,1,+00300,9,08,9",,,,"03,99,1,02,1,01,1,00450,1,03,1,00,1",,"01,9",,"120,M,+0280,1","180,N,+0018,1","99999,9,08212,1","6,1,012,1,-001,1",,,"SYN130AAXX  13001 76373 32488 31503 10224 20088 38212 40106 56012 82130 92345 333 10280 20018 30/// 50130 56660 59001 70000 82810 81370;","Q01  00002PRCP99Q02  00003PRCP99"
"76373099999","2001-11-13T18:00:00","4","25.35","-105.75","1967.0","TEPEHUANES DGO., MX","FM-12","99999","V020","030,1,N,0010,1","03000,1,9,N","070000,1,N,1","+0158,1","+0069,1","10197,1","99,0000,9,1",,,,"08,1,+03000,9,07,9",,,,"08,99,1,08,1,00,1,01750,1,07,1,00,1",,"01,9",,"120,M,+0166,1","240,N,+0054,1","99999,9,08250,1","7,1,002,1,-010,1",,,"SYN112AAXX  13181 76373 32788 80301 10158 20069 38250 40197 57002 88070 91747 333 10166 20054 30/// 56050 59010 88360;","Q01  00002PRCP99"
"76373099999","2001-11-13T21:00:00","4","25.35","-105.75","1967.0","TEPEHUANES DGO., MX","FM-12","99999","V020","030,1,N,0010,1","03600,1,C,N","070000,1,N,1","+0208,1","+0056,1","10148,1","99,0000,9,1",,,,"02,1,+00300,9,08,9",,,,"08,99,1,02,1,01,1,00450,1,07,1,00,1",,"01,9",,,,"99999,9,08219,1","6,1,031,1,-005,1",,,"SYN106AAXX  13211 76373 32488 80301 10208 20056 38219 40148 56031 82170 92042 333 30/// 56550 59005 82810 88460;","Q01  00002PRCP99"
"76373099999","2001-11-14T00:00:00","4","25.35","-105.75","1967.0","TEPEHUANES DGO., MX","FM-12","99999","V020","240,1,N,0060,1","99999,9,9,N","070000,1,N,1","+0210,1","+0051,1","10118,1","24,0000,9,1",,,,"01,1,+00600,9,08,9","04,1,+03000,9,03,9",,,"07,99,1,99,9,02,1,00250,1,06,1,06,1",,"01,9",,"120,M,+0228,1","180,N,+0054,1","99999,9,08197,1","6,1,022,1,-015,1",,,"SYN136AAXX  14001 76373 32388 72406 10210 20051 38197 40118 56022 80266 92330 333 10228 20054 30/// 50200 56555 59015 79999 81820 84360 82080;","Q01+000002SCOTLCQ02  00002PRCP24"
"76373099999","2001-11-14T15:00:00","4","25.35","-105.75","1967.0","TEPEHUANES DGO., MX","FM-12","99999","V020","300,1,N,0010,1","22000,1,9,N","070000,1,N,1","+0062,1","+0022,1","10172,1","99,0000,9,1",,,,"00,1,+99999,9,99,9",,,,"00,99,1,00,1,00,1,99999,9,00,1,00,1",,"01,9",,,,"99999,9,08204,1","9,9,999,9,-048,1",,,"SYN082AAXX  14151 76373 32988 03001 10062 20022 38204 40172 5//// 91440 333 30/// 59048;","Q01  00002PRCP99"
"76373099999","2001-11-14T18:00:00","4","25.35","-105.75","1967.0","TEPEHUANES DGO., MX","FM-12","99999","V020","250,1,N,0060,1","22000,1,9,N","070000,1,N,1","+0214,1","-0008,1","10144,1","99,0000,9,1",,,,"00,1,+99999,9,99,9",,,,"00,99,1,00,1,00,1,99999,9,00,1,00,1",,"01,9",,"120,M,+0220,1","240,N,+0001,1","99999,9,08189,1","6,1,015,1,-061,1",,,"SYN094AAXX  14181 76373 32988 02506 10214 21008 38189 40144 56015 91740 333 10220 20001 30/// 59061;","Q01  00002PRCP99"
"76373099999","2001-11-14T21:00:00","4","25.35","-105.75","1967.0","TEPEHUANES DGO., MX","FM-12","99999","V020","230,1,N,0060,1","22000,1,9,N","070000,1,N,1","+0230,1","+0037,1","10095,1","99,0000,9,1",,,,"00,1,+99999,9,99,9",,,,"00,99,1,00,1,00,1,99999,9,00,1,00,1",,"01,9",,,,"99999,9,08170,1","6,1,019,1,-049,1",,,"SYN082AAXX  14211 76373 32988 02306 10230 20037 38170 40095 56019 92040 333 30/// 59049;","Q01  00002PRCP99"
"76373099999","2001-11-15T00:00:00","4","25.35","-105.75","1967.0","TEPEHUANES DGO., MX","FM-12","99999","V020","260,1,N,0040,1","22000,1,9,N","070000,1,N,1","+0178,1","+0033,1","10074,1","24,0000,9,1",,,,"00,1,+99999,9,99,9",,,,"00,99,1,00,1,00,1,99999,9,00,1,00,1",,"01,9",,"120,M,+0244,1","180,N,+0001,1","99999,9,08173,1","6,1,003,1,-024,1",,,"SYN106AAXX  15001 76373 32988 02604 10178 20033 38173 40074 56003 92345 333 10244 20001 30/// 50500 59024 70000;","Q01  00002PRCP24"
"76373099999","2001-11-15T15:00:00","4","25.35","-105.75","1967.0","TEPEHUANES DGO., MX","FM-12","99999","V020","280,1,N,0010,1","22000,1,9,N","070000,1,N,1","+0060,1","+0004,1","10183,1","99,0000,9,1",,,,"01,1,+03000,9,07,9",,,,"01,99,1,01,1,00,1,01750,1,03,1,00,1",,"01,9",,,,"99999,9,08209,1","9,9,999,9,+005,1",,,"SYN100AAXX  15151 76373 32788 12801 10060 20004 38209 40183 5//// 81030 91440 333 30/// 56030 58005 81360;","Q01  00002PRCP99"
"76373099999","2001-11-15T18:00:00","4","25.35","-105.75","1967.0","TEPEHUANES DGO., MX","FM-12","99999","V020","150,1,N,0020,1","22000,1,9,N","070000,1,N,1","+0182,1","+0013,1","10158,1","99,0000,9,1",,,,"02,1,+00300,9,08,9",,,,"03,99,1,02,1,01,1,00450,1,00,1,02,1",,"01,9",,"120,M,+0190,1","240,N,-0006,1","99999,9,08197,1","6,1,012,1,+008,1",,,"SYN118AAXX  15181 76373 32488 31502 10182 20013 38197 40158 56012 82102 91740 333 10190 21006 30/// 56505 58008 82810 81070;","Q01  00002PRCP99"
"76373099999","2001-11-15T21:00:00","4","25.35","-105.75","1967.0","TEPEHUANES DGO., MX","FM-12","99999","V020","250,1,N,0060,1","22000,1,9,N","070000,1,N,1","+0226,1","+0056,1","10106,1","99,0000,9,1",,,,"02,1,+00300,9,02,9",,,,"02,99,1,02,1,01,1,00450,1,00,1,00,1",,"01,9",,,,"99999,9,08177,1","6,1,020,1,+007,1",,,"SYN100AAXX  15211 76373 32488 22506 10226 20056 38177 40106 56020 82100 92040 333 30/// 56600 58007 82810;","Q01  00002PRCP99"
"76373099999","2001-11-16T03:00:00","4","25.35","-105.75","1967.0","TEPEHUANES DGO., MX","FM-12","99999","V020","270,1,N,0030,1","22000,1,9,N","010000,1,N,1","+0124,1","+0014,1","10090,1","99,0000,9,1",,,,"00,1,+99999,9,99,9",,,,"00,99,1,00,1,00,1,99999,9,00,1,00,1",,"01,9",,,,"99999,9,08196,1","2,1,020,1,+017,1",,,"SYN082AAXX  16031 76373 32960 02703 10124 20014 38196 40090 52020 90250 333 30/// 58017;","Q01  00002PRCP99"
"76373099999","2001-11-16T15:00:00","4","25.35","-105.75","1967.0","TEPEHUANES DGO., MX","FM-12","99999","V020","330,1,N,0010,1","22000,1,9,N","070000,1,N,1","+0052,1","+0005,1","10215,1","99,0000,9,1",,,,"00,1,+99999,9,99,9",,,,"00,99,1,00,1,00,1,99999,9,00,1,00,1",,"01,9",,,,"99999,9,08234,1","9,9,999,9,+025,1",,,"SYN082AAXX  16151 76373 32988 03301 10052 20005 38234 40215 5//// 91436 333 30/// 58025;","Q01  00002PRCP99"
"76373099999","2001-11-16T18:00:00","4","25.35","-105.75","1967.0","TEPEHUANES DGO., MX","FM-12","99999","V020","120,1,N,0020,1","22000,1,9,N","070000,1,N,1","+0160,1","+0040,1","10205,1","99,0000,9,1",,,,"00,1,+99999,9,99,9",,,,"00,99,1,00,1,00,1,99999,9,00,1,00,1",,"01,9",,"120,M,+0176,1","240,N,-0006,1","99999,9,08229,1","6,1,005,1,+032,1",,,"SYN094AAXX  16181 76373 32988 01202 10160 20040 38229 40205 56005 91740 333 10176 21006 30/// 58032;","Q01  00002PRCP99"
"76373099999","2001-11-16T21:00:00","4","25.35","-105.75","1967.0","TEPEHUANES DGO., MX","FM-12","99999","V020","270,1,N,0020,1","22000,1,9,N","070000,1,N,1","+0232,1","+0024,1","10151,1","99,0000,9,1",,,,"00,1,+99999,9,99,9",,,,"00,99,1,00,1,00,1,99999,9,00,1,00,1",,"01,9",,,,"99999,9,08194,1","6,1,035,1,+017,1",,,"SYN082AAXX  16211 76373 32988 02702 10232 20024 38194 40151 56035 92035 333 30/// 58017;","Q01  00002PRCP99"
"76373099999","2001-11-20T00:00:00","4","25.35","-105.75","1967.0","TEPEHUANES DGO., MX","FM-12","99999","V020","240,1,N,0030,1","00300,1,9,N","070000,1,N,1","+0214,1","+0075,1","99999,9","24,0000,9,1",,,,"06,1,+00300,9,06,9",,,,"07,99,1,06,1,04,1,00450,1,00,1,05,1",,"01,9",,"120,M,+0273,1",,"99999,9,08209,1","2,1,006,1,+999,9",,,"SYN118AAXX  20001 76373 32488 72403 10214 20075 38209 4//// 52006 86405 92345 333 10273 30/// 56606 58/// 70000 86610 81070;",
"76373099999","2001-11-20T03:00:00","4","25.35","-105.75","1967.0","TEPEHUANES DGO., MX","FM-12","99999","V020","270,1,N,0010,1","22000,1,9,N","000800,1,N,1","+0158,1","+0047,1","99999,9","99,0000,9,1",,,,"03,1,+00300,9,05,9",,,,"03,99,1,03,1,04,1,00450,1,00,1,00,1",,"01,9",,,,"99999,9,08229,1","2,1,020,1,+999,9",,,"SYN100AAXX  20031 76373 32408 32701 10158 20047 38229 4//// 52020 83400 90248 333 30/// 56600 58/// 83610;","Q01  00002PRCP99"
"76373099999","2001-11-20T12:00:00","4","25.35","-105.75","1967.0","TEPEHUANES DGO., MX","FM-12","99999","V020","360,1,N,0020,1","00300,1,9,N","000800,1,N,1","+0118,1","+0059,1","10167,1","24,0000,9,1",,,,"08,1,+00300,9,06,9",,,,"08,99,1,08,1,06,1,00450,1,00,1,00,1",,"01,9","999,+0040,9","999,M,+0273,1","120,N,+0080,1","99999,9,08234,1","4,1,000,1,+999,9",,,"SYN118AAXX  20121 76373 32408 83602 10118 20059 38234 40167 54000 88600 91147 333 10273 20080 30004 57600 58/// 70000 88710;",
"76373099999","2001-11-20T18:00:00","4","25.35","-105.75","1967.0","TEPEHUANES DGO., MX","FM-12","99999","V020","120,1,N,0020,1","22000,1,9,N","070000,1,N,1","+0172,1","+0071,1","10177,1","99,0000,9,1",,,,"04,1,+00300,9,02,9",,,,"04,99,1,04,1,01,1,00450,1,00,1,00,1",,"01,9",,"120,M,+0188,1","240,N,+0080,1","99999,9,08235,1","8,1,010,1,+999,9",,,"SYN112AAXX  20181 76373 32488 41202 10172 20071 38235 40177 58010 84100 91750 333 10188 20080 30/// 56200 58/// 84810;","Q01  00002PRCP99"
"76373099999","2001-11-20T21:00:00","4","25.35","-105.75","1967.0","TEPEHUANES DGO., MX","FM-12","99999","V020","150,1,N,0030,1","22000,1,9,N","070000,1,N,1","+0207,1","+0074,1","10113,1","99,0000,9,1",,,,"03,1,+00300,9,02,9",,,,"03,99,1,03,1,01,1,00450,1,00,1,00,1",,"01,9",,,,"99999,9,08197,1","7,1,038,1,-008,1",,,"SYN100AAXX  20211 76373 32488 31503 10207 20074 38197 40113 57038 83100 92050 333 30/// 56500 59008 83810;","Q01  00002PRCP99"
"76373099999","2001-11-21T00:00:00","4","25.35","-105.75","1967.0","TEPEHUANES DGO., MX","FM-12","99999","V020","120,1,N,0020,1","22000,1,9,N","070000,1,N,1","+0186,1","+0056,1","10090,1","24,0000,9,1",,,,,,,,"03,99,1,03,1,04,1,00450,1,00,1,00,1",,"01,9",,"120,M,+0221,1","180,N,+0080,1","99999,9,08192,1","5,1,005,1,-017,1",,,"SYN124AAXX  21001 76373 32488 31202 10186 20056 38192 40090 55005 83400 92345 333 10221 20080 30/// 50300 56500 59017 70000 83610;","Q01  00002PRCP99Q02  00003PRCP99"
"76373099999","2001-11-21T03:00:00","4","25.35","-105.75","1967.0","TEPEHUANES DGO., MX","FM-12","99999","V020","330,1,N,0040,1","22000,1,9,N","000800,1,N,1","+0123,1","+0056,1","10116,1","99,0000,9,1",,,,"00,1,+99999,9,99,9",,,,"00,99,1,00,1,00,1,99999,9,00,1,00,1",,"01,9",,,,"99999,9,08217,1","2,1,025,1,+012,1",,,"SYN082AAXX  21031 76373 32908 03304 10123 20056 38217 40116 52025 90257 333 30/// 58012;","Q01  00002PRCP99"
"76373099999","2001-11-21T12:00:00","4","25.35","-105.75","1967.0","TEPEHUANES DGO., MX","FM-12","99999","V020","999,9,C,0000,1","22000,1,9,N","000800,1,N,1","+0023,1","+0001,1","10177,1","24,0000,9,1",,,,"00,1,+99999,9,99,9",,,,"00,99,1,00,1,00,1,99999,9,00,1,00,1",,"01,9","999,-0020,9","999,M,+0221,1","120,N,+0006,1","99999,9,08212,1","2,1,001,1,-022,1",,,"SYN100AAXX  21121 76373 32908 00000 10023 20001 38212 40177 52001 91140 333 10221 20006 30102 59022 70000;","Q01  00002PRCP24"
"76373099999","2001-11-21T15:00:00","4","25.35","-105.75","1967.0","TEPEHUANES DGO., MX","FM-12","99999","V020","999,9,C,0000,1","02400,1,9,N","060000,1,N,1","+0046,1","+0019,1","10207,1","99,0000,9,1",,,,"05,1,+02400,9,07,9",,,,"05,99,1,05,1,99,9,01750,1,07,1,00,1",,"01,9",,,,"99999,9,08218,1","2,1,006,1,-027,1",,,"SYN100AAXX  21151 76373 32786 50000 10046 20019 38218 40207 52006 85070 91450 333 30/// 56030 59027 85358;","Q01  00002PRCP99Q02    003SCOLCG"
"76373099999","2001-11-21T18:00:00","4","25.35","-105.75","1967.0","TEPEHUANES DGO., MX","FM-12","99999","V020","120,1,N,0010,1","22000,1,9,N","070000,1,N,1","+0161,1","+0028,1","10186,1","99,0000,9,1",,,,"03,1,+00300,9,02,9",,,,"99,99,9,01,1,01,1,00450,1,00,1,00,1",,"01,9",,"120,M,+0172,1","240,N,-0008,1","99999,9,08205,1","7,1,013,1,-030,1",,,"SYN112AAXX  21181 76373 32488 11201 10161 20028 38205 40186 57013 81100 91746 333 10172 21008 30/// 56300 59030 83810;","Q01+000012SCOTCVQ02  00002PRCP99"
"76373099999","2001-11-21T21:00:00","4","25.35","-105.75","1967.0","TEPEHUANES DGO., MX","FM-12","99999","V020","300,1,N,0040,1","22000,1,9,N","070000,1,N,1","+0218,1","-0036,1","10113,1","99,0000,9,1",,,,"02,1,+00300,9,02,9",,,,"02,99,1,02,1,01,1,00450,1,00,1,00,1",,"01,9",,,,"99999,9,08169,1","7,1,036,1,-028,1",,,"SYN100AAXX  21211 76373 32488 23004 10218 21036 38169 40113 57036 82100 92050 333 30/// 56500 59028 82810;","Q01  00002PRCP99"
"76373099999","2001-11-22T03:00:00","4","25.35","-105.75","1967.0","TEPEHUANES DGO., MX","FM-12","99999","V020","270,1,N,0020,1","22000,1,9,N","000800,1,N,1","+0130,1","+0022,1","10093,1","99,0000,9,1",,,,"01,1,+02400,9,07,9",,,,"01,99,1,01,1,99,9,01750,1,03,1,00,1",,"01,9",,,,"99999,9,08195,1","2,1,018,1,-022,1",,,"SYN100AAXX  22031 76373 32708 12702 10130 20022 38195 40093 52018 81030 90247 333 30/// 56060 59022 81358;","Q01  00002PRCP99Q02    003SCOLCG"
"76373099999","2001-11-22T06:00:00","4","25.35","-105.75","1967.0","TEPEHUANES DGO., MX","FM-12","99999","V020","999,9,C,0000,1","22000,1,9,N","000800,1,N,1","+0076,1","+0008,1","10106,1","99,0000,9,1",,,,"00,1,+99999,9,99,9",,,,"00,99,1,00,1,00,1,99999,9,00,1,00,1","0564,9","01,9",,"240,M,+0232,1","240,N,-0008,1","99999,9,08203,1","2,1,008,1,+999,9",,,"SYN100AAXX  22061 76373 32908 00000 10076 20008 38203 40106 52008 90547 333 10232 21008 30/// 55094 58///;","Q01  00002PRCP99"
"76373099999","2001-11-22T18:00:00","4","25.35","-105.75","1967.0","TEPEHUANES DGO., MX","FM-12","99999","V020","100,1,N,0040,1","22000,1,9,N","060000,1,N,1","+0166,1","+0035,1","10155,1","99,0000,9,1",,,,"00,1,+99999,9,99,9",,,,"00,99,1,00,1,00,1,99999,9,00,1,00,1",,"01,9",,"120,M,+0186,1","240,N,+0004,1","99999,9,08200,1","6,1,017,1,-014,1",,,"SYN094AAXX  22181 76373 32986 01004 10166 20035 38200 40155 56017 91750 333 10186 20004 30/// 59014;","Q01  00002PRCP99"
"76373099999","2001-11-23T00:00:00","4","25.35","-105.75","1967.0","TEPEHUANES DGO., MX","FM-12","99999","V020","280,1,N,0040,1","22000,1,9,N","070000,1,N,1","+0190,1","+0008,1","10081,1","24,0000,9,1",,,,"00,1,+99999,9,99,9",,,,"00,99,1,00,1,00,1,99999,9,00,1,00,1",,"01,9",,"120,M,+0244,1","180,N,+0004,1","99999,9,08173,1","2,1,011,1,-004,1",,,"SYN106AAXX  23001 76373 32988 02804 10190 20008 38173 40081 52011 92335 333 10244 20004 30/// 50350 59004 70000;","Q01  00002PRCP24"
"76373099999","2001-11-23T03:00:00","4","25.35","-105.75","1967.0","TEPEHUANES DGO., MX","FM-12","99999","V020","999,9,C,0000,1","22000,1,9,N","010000,1,N,1","+0140,1","+0046,1","10106,1","99,0000,9,1",,,,"00,1,+99999,9,99,9",,,,"00,99,1,00,1,00,1,99999,9,00,1,00,1",,"01,9",,,,"99999,9,08193,1","2,1,020,1,-002,1",,,"SYN082AAXX  23031 76373 32960 00000 10140 20046 38193 40106 52020 90300 333 30/// 59002;","Q01  00002PRCP99"
"76373099999","2001-11-23T15:00:00","4","25.35","-105.75","1967.0","TEPEHUANES DGO., MX","FM-12","99999","V020","999,9,C,0000,1","03000,1,9,N","060000,1,N,1","+0062,1","+0029,1","10137,1","99,0000,9,1",,,,"08,1,+03000,9,02,9",,,,"08,99,1,08,1,00,1,01250,1,02,1,99,9",,"01,9",,,,"99999,9,08189,1","9,9,999,9,-028,1",,,"SYN100AAXX  23151 76373 32686 80000 10062 20029 38189 40137 5//// 88020 91450 333 30/// 56070 59028 88560;","Q01+000002SCOHCGQ02  00002PRCP99"
"76373099999","2001-11-24T00:00:00","4","25.35","-105.75","1967.0","TEPEHUANES DGO., MX","FM-12","99999","V020","280,1,N,0070,1","99999,9,9,N","070000,1,N,1","+0172,1","+0038,1","10060,1","24,0000,9,1",,,,,,,,"08,99,1,00,1,00,1,99999,9,00,1,04,1",,"01,9",,"120,M,+0238,1","180,N,+0018,1","99999,9,08160,1","2,1,001,1,-013,1",,,"SYN124AAXX  24001 76373 32988 82807 10172 20038 38160 40060 52001 80004 92340 333 10238 20018 30/// 50440 56006 59013 70000 88080;","Q01  00002PRCP99Q02  00003PRCP99"
"76373099999","2001-11-26T21:00:00","4","25.35","-105.75","1967.0","TEPEHUANES DGO., MX","FM-12","99999","V020","270,1,N,0040,1","09000,1,9,N","070000,1,N,1","+0228,1","+0089,1","10086,1","99,0000,9,1",,,,"08,1,+09000,9,01,9",,,,"08,99,1,00,1,00,1,99999,9,00,1,06,1",,"01,9",,,,"99999,9,08164,1","6,1,028,1,+999,9",,,"SYN100AAXX  26211 76373 32988 82704 10228 20089 38164 40086 56028 80006 92050 333 30/// 56006 58/// 88080;","Q01  00002PRCP99"
"76373099999","2001-11-27T00:00:00","4","25.35","-105.75","1967.0","TEPEHUANES DGO., MX","FM-12","99999","V020","210,1,N,0020,1","22000,1,9,N","070000,1,N,1","+0205,1","+0064,1","10072,1","24,0000,9,1",,,,"03,1,+02400,9,03,9",,,,"03,99,1,03,1,00,1,01750,1,07,1,01,1",,"01,9",,"120,M,+0256,1","180,N,-0036,1","99999,9,08166,1","2,1,002,1,+999,9",,,"SYN124AAXX  27001 76373 32788 32102 10205 20064 38166 40072 52002 83071 92340 333 10256 21036 30/// 56055 58/// 70000 83358 81070;",
"76373099999","2001-11-27T03:00:00","4","25.35","-105.75","1967.0","TEPEHUANES DGO., MX","FM-12","99999","V020","300,1,N,0020,1","22000,1,9,N","000800,1,N,1","+0125,1","+0018,1","10074,1","99,0000,9,1",,,,"01,1,+02400,9,07,9",,,,"01,99,1,01,1,99,9,01750,1,04,1,00,1",,"01,9",,,,"99999,9,08186,1","2,1,020,1,+999,9",,,"SYN100AAXX  27031 76373 32708 13002 10125 20018 38186 40074 52020 81040 90250 333 30/// 56050 58/// 81358;","Q01  00002PRCP99Q02    003SCOLCG"
"76373099999","2001-11-27T06:00:00","4","25.35","-105.75","1967.0","TEPEHUANES DGO., MX","FM-12","99999","V020","060,1,N,0010,1","22000,1,9,N","000800,1,N,1","+0077,1","-0018,1","10079,1","99,0000,9,1",,,,"00,1,+99999,9,99,9",,,,"00,99,1,00,1,00,1,99999,9,00,1,00,1","0528,9","01,9",,"240,M,+0256,1","240,N,-0036,1","99999,9,08184,1","7,1,002,1,+999,9",,,"SYN100AAXX  27061 76373 32908 00601 10077 21018 38184 40079 57002 90540 333 10256 21036 30/// 55088 58///;","Q01  00002PRCP99"
"76373099999","2001-11-27T15:00:00","4","25.35","-105.75","1967.0","TEPEHUANES DGO., MX","FM-12","99999","V020","120,1,N,0010,1","22000,1,9,N","028000,1,N,1","+0026,1","-0005,1","10155,1","99,0000,9,1",,,,"01,1,+00300,9,08,9",,,,"03,99,1,01,1,01,1,00450,1,00,1,09,1",,"01,9",,,,"99999,9,08171,1","2,1,005,1,-042,1",,,"SYN106AAXX  27151 76373 32478 31201 10026 21005 38171 40155 52005 81109 91445 333 30/// 56505 59042 81810 82170;","Q01  00002PRCP99"
"76373099999","2001-11-27T18:00:00","4","25.35","-105.75","1967.0","TEPEHUANES DGO., MX","FM-12","99999","V020","210,1,N,0050,1","22000,1,9,N","070000,1,N,1","+0187,2","+0003,1","10132,1","99,0000,9,1",,,,"01,1,+06000,9,01,9",,,,"01,99,1,00,1,00,1,99999,9,00,1,05,1",,"01,9",,"120,M,+0198,1","240,N,-0018,1","99999,9,08159,1","7,1,012,1,-033,1",,,"SYN112AAXX  27181 76373 32988 12105 10187 20003 38159 40132 57012 80005 91750 333 10198 21018 30/// 56005 59033 81070;","Q01+001873ATOT  Q02  00002PRCP99"
"76373099999","2001-11-28T00:00:00","4","25.35","-105.75","1967.0","TEPEHUANES DGO., MX","FM-12","99999","V020","300,1,N,0030,1","00420,1,9,N","070000,1,N,1","+0148,1","+0039,1","10053,1","24,0000,9,1",,,,,,,,"07,99,1,07,1,06,1,00450,1,00,1,00,1",,"01,9",,"120,M,+0214,1","180,N,-0018,1","99999,9,08141,1","2,1,007,1,-025,1",,,"SYN124AAXX  28001 76373 32488 73003 10148 20039 38141 40053 52007 87600 92354 333 10214 21018 30/// 53060 56500 59025 70000 87710;","Q01  00002PRCP99Q02  00003PRCP99"
"76373099999","2001-11-28T03:00:00","4","25.35","-105.75","1967.0","TEPEHUANES DGO., MX","FM-12","99999","V020","270,1,N,0010,1","00300,1,9,N","000800,1,N,1","+0137,1","+0047,1","10028,1","99,0000,9,1",,,,"07,1,+00300,9,05,9",,,,"07,99,1,07,1,04,1,00450,1,00,1,00,1",,"01,9",,,,"99999,9,08140,1","7,1,001,1,-046,1",,,"SYN100AAXX  28031 76373 32408 72701 10137 20047 38140 40028 57001 87400 90245 333 30/// 56500 59046 87610;","Q01  00002PRCP99"
"76373099999","2001-11-28T06:00:00","4","25.35","-105.75","1967.0","TEPEHUANES DGO., MX","FM-12","99999","V020","300,1,N,0020,1","00420,1,9,N","000800,1,N,1","+0133,1","+0039,1","10037,1","99,0000,9,1",,,,,,,,"08,99,1,08,1,04,1,00450,1,00,1,00,1","0516,9","01,9",,"240,M,+0214,1","240,N,-0018,1","99999,9,08144,1","2,1,004,1,-040,1",,,"SYN118AAXX  28061 76373 32408 83002 10133 20039 38144 40037 52004 88400 90537 333 10214 21018 30/// 55086 57500 59040 88610;","Q01  00002PRCP99"
"76373099999","2001-11-28T15:00:00","4","25.35","-105.75","1967.0","TEPEHUANES DGO., MX","FM-12","99999","V020","270,1,N,0030,1","00300,1,9,N","070000,1,N,1","+0114,1","+0039,1","10067,1","99,0000,9,1",,,,"07,1,+00300,9,05,9",,,,"07,99,1,07,1,04,1,00450,1,00,1,00,1",,"01,9",,,,"99999,9,08146,1","2,1,022,1,-025,1",,,"SYN100AAXX  28151 76373 32488 72703 10114 20039 38146 40067 52022 87400 91445 333 30/// 56500 59025 87610;","Q01  00002PRCP99"
"76373099999","2001-11-28T18:00:00","4","25.35","-105.75","1967.0","TEPEHUANES DGO., MX","FM-12","99999","V020","240,1,N,0050,1","00300,1,9,N","070000,1,N,1","+0150,1","+0026,1","10083,1","99,0000,9,1",,,,"05,1,+00300,9,07,9",,,,"07,99,1,05,1,06,1,00450,1,00,1,04,1",,"01,9",,"120,M,+0158,1","240,N,+0042,1","99999,9,08150,1","2,1,005,1,-009,1",,,"SYN118AAXX  28181 76373 32488 72405 10150 20026 38150 40083 52005 85604 91747 333 10158 20042 30/// 56505 59009 85710 82070;","Q01  00002PRCP99"
"76373099999","2001-11-28T21:00:00","4","25.35","-105.75","1967.0","TEPEHUANES DGO., MX","FM-12","99999","V020","270,1,N,0040,1","00300,1,9,N","070000,1,N,1","+0165,1","+0020,1","10048,1","99,0000,9,1",,,,"06,1,+00300,9,06,9",,,,"06,99,1,06,1,07,1,00450,1,00,1,00,1",,"01,9",,,,"99999,9,08136,1","7,1,014,1,+002,1",,,"SYN100AAXX  28211 76373 32488 62704 10165 20020 38136 40048 57014 86700 92055 333 30/// 56500 58002 86710;","Q01  00002PRCP99"
"76373099999","2001-11-29T03:00:00","4","25.35","-105.75","1967.0","TEPEHUANES DGO., MX","FM-12","99999","V020","270,1,N,0030,1","00300,1,9,N","000800,1,N,1","+0125,1","+0024,1","10076,1","99,0000,9,1",,,,"08,1,+00300,9,06,9",,,,"08,99,1,08,1,07,1,00450,1,00,1,00,1",,"01,9",,,,"99999,9,08167,1","2,1,018,1,+027,1",,,"SYN100AAXX  29031 76373 32408 82703 10125 20024 38167 40076 52018 88700 90250 333 30/// 56500 58027 88710;","Q01  00002PRCP99"
"76373099999","2001-11-29T06:00:00","4","25.35","-105.75","1967.0","TEPEHUANES DGO., MX","FM-12","99999","V020","120,1,N,0050,1","00420,1,9,N","000800,1,N,1","+0070,1","-0033,1","10106,1","99,0000,9,1",,,,,,,,"07,99,1,07,1,07,1,00450,1,00,1,00,1","0402,9","01,9",,"240,M,+0188,1","240,N,+0042,1","99999,9,08187,1","2,1,020,1,+043,1",,,"SYN118AAXX  29061 76373 32408 71205 10070 21033 38187 40106 52020 87700 90540 333 10188 20042 30/// 55067 56500 58043 87710;","Q01  00002PRCP99"
"76373099999","2001-11-30T15:00:00","4","25.35","-105.75","1967.0","TEPEHUANES DGO., MX","FM-12","99999","V020","330,1,N,0010,1","22000,1,9,N","060000,1,N,1","+0026,1","-0005,1","10207,1","99,0000,9,1",,,,"00,1,+99999,9,99,9",,,,"00,99,1,00,1,00,1,99999,9,00,1,00,1",,"01,9",,,,"99999,9,08212,1","9,9,999,9,+022,1",,,"SYN082AAXX  30151 76373 32986 03301 10026 21005 38212 40207 5//// 91450 333 30/// 58022;","Q01  00002PRCP99"
"76373099999","2001-12-01T00:00:00","4","25.35","-105.75","1967.0","TEPEHUANES DGO., MX","FM-12","99999","V020","240,1,N,0060,1","22000,1,9,N","070000,1,N,1","+0176,1","+0033,1","10097,1","24,0000,9,1",,,,,,,,"03,99,1,00,1,00,1,99999,9,00,1,04,1",,"01,9",,"120,M,+0230,1","180,N,-0028,1","99999,9,08183,1","6,1,003,1,-007,1",,,"SYN124AAXX  01001 76373 32988 32406 10176 20033 38183 40097 56003 80004 92355 333 10230 21028 30/// 50600 56006 59007 70000 83080;","Q01  00002PRCP99Q02  00003PRCP99"
"76373099999","2001-12-01T15:00:00","4","25.35","-105.75","1967.0","TEPEHUANES DGO., MX","FM-12","99999","V020","320,1,N,0020,1","22000,1,9,N","070000,1,N,1","+0044,1","+0009,1","10188,1","99,0000,9,1",,,,"02,1,+03000,9,07,9",,,,"02,99,1,02,1,00,1,01250,1,06,1,00,1",,"01,9",,,,"99999,9,08225,1","9,9,999,9,+013,1",,,"SYN100AAXX  01151 76373 32688 23202 10044 20009 38225 40188 5//// 82060 91450 333 30/// 56060 58013 82360;","Q01  00002PRCP99"
"76373099999","2001-12-01T18:00:00","4","25.35","-105.75","1967.0","TEPEHUANES DGO., MX","FM-12","99999","V020","330,1,N,0010,1","22000,1,9,N","070000,1,N,1","+0158,1","+0052,1","10167,1","99,0000,9,1",,,,"00,1,+99999,9,99,9",,,,"00,99,1,00,1,00,1,99999,9,00,1,00,1",,"01,9",,"120,M,+0170,1","240,N,-0016,1","99999,9,08217,1","6,1,008,1,+011,1",,,"SYN094AAXX  01181 76373 32988 03301 10158 20052 38217 40167 56008 91745 333 10170 21016 30/// 58011;","Q01  00002PRCP99"
"76373099999","2001-12-01T21:00:00","4","25.35","-105.75","1967.0","TEPEHUANES DGO., MX","FM-12","99999","V020","010,1,N,0010,1","22000,1,9,N","070000,1,N,1","+0212,1","+0067,1","10153,1","99,0000,9,1",,,,"01,1,+00600,9,02,9",,,,"01,99,1,01,1,00,1,00250,1,00,1,00,1",,"01,9",,,,"99999,9,08201,1","6,1,016,1,+015,1",,,"SYN100AAXX  01211 76373 32388 10101 10212 20067 38201 40153 56016 81000 92050 333 30/// 56600 58015 81820;","Q01  00002PRCP99"
"76373099999","2001-12-03T15:00:00","4","25.35","-105.75","1967.0","TEPEHUANES DGO., MX","FM-12","99999","V020","999,9,C,0000,1","22000,1,9,N","070000,1,N,1","+0030,1","-0019,1","10238,1","99,0000,9,1",,,,"00,1,+99999,9,99,9",,,,"00,99,1,00,1,00,1,99999,9,00,1,00,1",,"01,9",,,,"99999,9,08245,1",,,,"SYN082AAXX  03151 76373 32988 00000 10030 21019 38245 40238 5//// 91438 333 30/// 58///;","Q01  00002PRCP99"
"76373099999","2001-12-03T18:00:00","4","25.35","-105.75","1967.0","TEPEHUANES DGO., MX","FM-12","99999","V020","180,1,N,0020,1","22000,1,9,N","070000,1,N,1","+0168,1","+0006,1","10214,1","99,0000,9,1",,,,"00,1,+99999,9,99,9",,,,"00,99,1,00,1,00,1,99999,9,00,1,00,1",,"01,9",,"120,M,+0184,1","240,N,-0010,1","99999,9,08231,1","6,1,014,1,+999,9",,,"SYN094AAXX  03181 76373 32988 01802 10168 20006 38231 40214 56014 91740 333 10184 21010 30/// 58///;","Q01  00002PRCP99"
"76373099999","2001-12-03T21:00:00","4","25.35","-105.75","1967.0","TEPEHUANES DGO., MX","FM-12","99999","V020","060,1,N,9999,9","22000,1,9,N","070000,1,N,1","+0256,1","+0086,1","10139,1","99,0000,9,1",,,,"01,1,+00300,9,08,9",,,,"02,99,1,01,1,01,1,00450,1,00,1,02,1",,,,,,"99999,9,08197,1","6,1,034,1,+999,9",,,"SYN100AAXX  03211 76373 32488 20629 10256 20086 38197 40139 56034 81102 92040 333 56505 58/// 81810 81070;","Q01+002903WOSPD Q02  00002PRCP99Q030002903WOSPD "
"76373099999","2001-12-04T03:00:00","4","25.35","-105.75","1967.0","TEPEHUANES DGO., MX","FM-12","99999","V020","330,1,N,0020,1","22000,1,9,N","000800,1,N,1","+0158,1","+0012,1","10097,1","99,0000,9,1",,,,,,,,"02,99,1,99,9,99,9,99999,9,99,9,99,9",,"01,9",,,,"99999,9,08214,1","2,1,017,1,+999,9",,,"SYN094AAXX  04031 76373 32/08 23302 10158 20012 38214 40097 52017 8//// 90240 333 30/// 56/// 58///;","Q01  00002PRCP99"
"76373099999","2001-12-04T06:00:00","4","25.35","-105.75","1967.0","TEPEHUANES DGO., MX","FM-12","99999","V020","999,9,C,0000,1","99999,9,9,N","000800,1,N,1","+9999,9","+9999,9","99999,9","99,0000,9,1",,,,,,,,"07,99,1,99,9,99,9,01750,1,99,9,99,9","0582,9","01,9",,"240,M,+0268,1","240,N,-0010,1",,,,,"SYN117AAXX  04061 76373 32708 70000 1018 21001 38220 40104 52003 87070 90545 333 10268 21010 30/// 55097 56050 58/// 87358;","Q01  00002PRCP99"
"76373099999","2001-12-04T18:00:00","4","25.35","-105.75","1967.0","TEPEHUANES DGO., MX","FM-12","99999","V020","060,1,N,0020,1","22000,1,9,N","070000,1,N,1","+0206,1","+0034,1","10174,1","99,0000,9,1",,,,"03,1,+03000,9,03,9",,,,"04,99,1,03,1,00,1,01750,1,03,1,02,1",,"01,9",,"120,M,+0214,1","240,N,+0026,1","99999,9,08216,1","6,1,005,1,-015,1",,,"SYN118AAXX  04181 76373 32788 40602 10206 20034 38216 40174 56005 83032 91740 333 10214 20026 30/// 56055 59015 83360 81070;","Q01  00002PRCP99"
"76373099999","2001-12-04T21:00:00","4","25.35","-105.75","1967.0","TEPEHUANES DGO., MX","FM-12","99999","V020","270,1,N,0060,1","03000,1,9,N","070000,1,N,1","+0236,1","+0037,1","10125,1","99,0000,9,1",,,,"01,1,+00300,9,08,9","04,1,+03000,9,03,9",,,"07,99,1,01,1,01,1,00450,1,03,1,02,1",,"01,9",,,,"99999,9,08197,1","7,1,019,1,+000,1",,,"SYN112AAXX  04211 76373 32488 72706 10236 20037 38197 40125 57019 81132 92036 333 30/// 56555 58000 81810 84360 82070;","Q01  00002PRCP99"
"76373099999","2001-12-05T00:00:00","4","25.35","-105.75","1967.0","TEPEHUANES DGO., MX","FM-12","99999","V020","190,1,N,0020,1","09000,1,9,N","070000,1,N,1","+0206,1","+0027,1","10100,1","24,0000,9,1",,,,"03,1,+02400,9,03,9",,,,"07,99,1,03,1,00,1,01750,1,07,1,09,1",,"01,9",,"120,M,+0256,1","180,N,+0026,1","99999,9,08201,1","2,1,004,1,+004,1",,,"SYN130AAXX  05001 76373 32788 71902 10206 20027 38201 40100 52004 83079 92340 333 10256 20026 30/// 50410 56055 58004 70000 83358 84170;","Q01  00002PRCP99Q02  00003PRCP99"
"76373099999","2001-12-05T06:00:00","4","25.35","-105.75","1967.0","TEPEHUANES DGO., MX","FM-12","99999","V020","270,1,N,0020,1","22000,1,9,N","000800,1,N,1","+0124,1","+0032,1","10106,1","99,0000,9,1",,,,,,,,"04,99,1,04,1,00,1,01750,1,03,1,00,1","0450,9","01,9",,"240,M,+0256,1","240,N,+0026,1","99999,9,08221,1","2,1,009,1,+001,1",,,"SYN118AAXX  05061 76373 32708 42702 10124 20032 38221 40106 52009 84030 90540 333 10256 20026 30/// 55075 56050 58001 84358;","Q01  00002PRCP99"
"76373099999","2001-12-05T15:00:00","4","25.35","-105.75","1967.0","TEPEHUANES DGO., MX","FM-12","99999","V020","300,1,N,0010,1","22000,1,C,N","070000,1,N,1","+0080,1","+0049,1","10212,1","99,0000,9,1",,,,"03,1,+02400,9,03,9",,,,"05,99,1,03,1,00,1,01750,1,03,1,04,1",,"01,9",,,,"99999,9,08244,1","2,1,018,1,+022,1",,,"SYN106AAXX  05151 76373 32788 53001 10080 20049 38244 40212 52018 83034 91445 333 30/// 56055 58022 83358 82070;","Q01  00002PRCP99"
"76373099999","2001-12-05T18:00:00","4","25.35","-105.75","1967.0","TEPEHUANES DGO., MX","FM-12","99999","V020","300,1,N,0010,1","03600,1,C,N","070000,1,N,1","+0184,1","+0081,1","10205,1","99,0000,9,1",,,,"01,1,+00300,9,08,9",,,,"08,99,1,01,1,01,1,00450,1,02,1,00,1",,"01,9",,"120,M,+0198,1","240,N,+0036,1","99999,9,08241,1","7,1,003,1,+025,1",,,"SYN118AAXX  05181 76373 32488 83001 10184 20081 38241 40205 57003 81120 91742 333 10198 20036 30/// 56550 58025 81810 88460;","Q01  00002PRCP99"
"76373099999","2001-12-06T00:00:00","4","25.35","-105.75","1967.0","TEPEHUANES DGO., MX","FM-12","99999","V020","340,1,N,0010,1","01500,1,9,N","070000,1,N,1","+0200,1","+0065,1","10125,2","24,0000,9,1",,,,,,,,"08,99,1,08,1,00,1,01750,1,01,1,00,1",,"01,9",,"120,M,+0212,1","180,N,+0036,1","99999,9,08215,1","7,1,002,1,+014,1",,,"SYN124AAXX  06001 76373 32788 83401 10200 20065 38215 40125 57002 88010 92340 333 10212 20036 30/// 50200 56050 58014 70000 88458;","Q01+101253APOSLPQ02  00002PRCP99Q03  00003PRCP99"
"76373099999","2001-12-06T15:00:00","4","25.35","-105.75","1967.0","TEPEHUANES DGO., MX","FM-12","99999","V020","999,9,C,0000,1","03000,1,9,N","070000,1,N,1","+0088,1","+0046,1","10209,1","99,0000,9,1",,,,"08,1,+03000,9,01,9",,,,"08,99,1,08,1,00,1,01750,1,07,1,99,9",,"01,9",,,,"99999,9,08255,1","1,1,012,1,+011,1",,,"SYN100AAXX  06151 76373 32788 80000 10088 20046 38255 40209 51012 88070 91440 333 30/// 56050 58011 88460;","Q01+000002SCOHCGQ02  00002PRCP99"
"76373099999","2001-12-06T18:00:00","4","25.35","-105.75","1967.0","TEPEHUANES DGO., MX","FM-12","99999","V020","060,1,N,0010,1","06000,1,9,N","070000,1,N,1","+0154,1","+0064,1","10209,1","99,0000,9,1",,,,"08,1,+06000,9,02,9",,,,"08,99,1,00,1,00,1,99999,9,00,1,07,1",,"01,9",,"120,M,+0210,1","240,N,+0060,1","99999,9,08256,1","2,1,001,1,+015,1",,,"SYN118AAXX  06181 76373 32988 80601 10154 20064 38256 40209 52001 80007 91740 333 10210 20060 30/// 56005 58015 88270 99020;","Q01  00002PRCP99"
"76373099999","2001-12-06T21:00:00","4","25.35","-105.75","1967.0","TEPEHUANES DGO., MX","FM-12","99999","V020","120,1,N,0050,1","03000,1,9,N","070000,1,N,1","+0216,1","+0065,1","10144,1","99,0000,9,1",,,,"02,1,+00300,9,08,9","04,1,+03000,9,03,9",,,"08,99,1,02,1,01,1,00450,1,03,1,02,1",,"01,9",,,,,"6,1,039,1,+000,1",,,"SYN112AAXX  06211 76373 32488 81205 10216 20065 38317 40144 56039 82132 92038 333 30/// 56555 58000 82810 84360 82070;","Q01+083173APOSP Q02  00002PRCP99"
"76373099999","2001-12-07T00:00:00","4","25.35","-105.75","1967.0","TEPEHUANES DGO., MX","FM-12","99999","V020","120,1,N,0020,1","03600,1,9,N","070000,1,N,1","+0210,1","+0074,1","10123,1","24,0000,9,1",,,,"02,1,+00300,9,08,9",,,,"08,99,1,02,1,01,1,00450,1,07,1,00,1",,"01,9",,"120,M,+0240,1","180,N,+0060,1","99999,9,08213,1","7,1,004,1,-002,1",,,"SYN130AAXX  07001 76373 32488 81202 10210 20074 38213 40123 57004 82170 92340 333 10240 20060 30/// 50260 56550 59002 79999 82810 87360;","Q01  00002PRCP24"
"76373099999","2001-12-07T15:00:00","4","25.35","-105.75","1967.0","TEPEHUANES DGO., MX","FM-12","99999","V020","999,9,C,0000,1","03000,1,9,N","070000,1,N,1","+0104,1","+0040,1","10158,1","99,0000,9,1",,,,"08,1,+03000,9,07,9",,,,"08,99,1,08,1,00,1,01750,1,07,1,00,1",,"01,9",,,,"99999,9,08228,1","9,9,999,9,-027,1",,,"SYN100AAXX  07151 76373 32788 80000 10104 20040 38228 40158 5//// 88070 91438 333 30/// 56050 59027 88360;","Q01  00002PRCP99"
"76373099999","2001-12-07T18:00:00","4","25.35","-105.75","1967.0","TEPEHUANES DGO., MX","FM-12","99999","V020","999,9,C,0000,1","03000,1,9,N","070000,1,N,1","+0170,1","+0049,1","10165,1","99,0000,9,1",,,,"08,1,+03000,9,07,9",,,,"08,99,1,08,1,00,1,01750,1,06,1,00,1",,"01,9",,"120,M,+0172,1","240,N,+0082,1","99999,9,08230,1","2,1,002,1,-026,1",,,"SYN112AAXX  07181 76373 32788 80000 10170 20049 38230 40165 52002 88060 91738 333 10172 20082 30/// 56050 59026 88360;","Q01  00002PRCP99"
"76373099999","2001-12-07T21:00:00","4","25.35","-105.75","1967.0","TEPEHUANES DGO., MX","FM-12","99999","V020","330,1,N,0040,1","03600,1,C,N","070000,1,N,1","+0186,1","+0053,1","10125,1","99,0000,9,1",,,,"01,1,+00300,9,08,9",,,,"08,99,1,01,1,01,1,00450,1,07,1,00,1",,"01,9",,,,"99999,9,08204,1","6,1,026,1,-013,1",,,"SYN106AAXX  07211 76373 32488 83304 10186 20053 38204 40125 56026 81170 92039 333 30/// 56550 59013 81810 88360;","Q01  00002PRCP99"
"76373099999","2001-12-08T00:00:00","4","25.35","-105.75","1967.0","TEPEHUANES DGO., MX","FM-12","99999","V020","310,1,N,0010,1","01200,1,9,N","040000,1,N,1","+0174,1","+0068,1","10111,1","02,0009,9,1",,"5,1,06,1","5,1,06,1",,,,,"08,99,1,08,1,00,1,01250,1,07,1,00,1",,"01,9",,"120,M,+0204,1","180,N,+0082,1","99999,9,08194,1","6,1,010,1,-019,1","20,1",,"SYN136AAXX  08001 76373 /1682 83101 10174 20068 38194 40111 56010 69996 72055 88070 92335 333 10204 20082 30/// 50320 56050 59019 69996 79999;",
"76373099999","2001-12-09T00:00:00","4","25.35","-105.75","1967.0","TEPEHUANES DGO., MX","FM-12","99999","V020","170,1,N,0040,1","00210,1,9,N","030000,1,N,1","+0120,1","+0078,1","10104,1","06,0030,9,1","18,0041,9,1","5,1,06,1","6,1,06,1",,,,,"08,99,1,08,1,09,1,00250,1,00,1,00,1",,"09,9",,"120,M,+0188,1","180,N,+0090,1","99999,9,08190,1","2,1,003,1,-004,1","20,1",,"SYN136AAXX  09001 76373 /1380 81704 10120 20078 38190 40104 52003 60043 72056 88900 92345 333 10188 20090 31/// 50100 56600 59004 60031 70069;",
"76373099999","2001-12-09T18:00:00","4","25.35","-105.75","1967.0","TEPEHUANES DGO., MX","FM-12","99999","V020","150,1,N,0010,1","00600,1,9,N","030000,1,N,1","+0088,1","+0020,1","10195,1","99,0000,9,1",,,,"08,1,+00600,9,06,9",,,,"08,99,1,08,1,06,1,00250,1,00,1,00,1",,"09,9",,"120,M,+0098,1","240,N,+0038,1","99999,9,08216,1","6,1,003,1,+011,1",,,"SYN112AAXX  09181 76373 32380 81501 10088 20020 38216 40195 56003 88600 91753 333 10098 20038 31/// 56600 58011 88720;","Q01  00002PRCP99"
"76373099999","2001-12-10T00:00:00","4","25.35","-105.75","1967.0","TEPEHUANES DGO., MX","FM-12","99999","V020","170,1,N,0060,1","99999,9,9,N","030000,1,N,1","+0118,1","+0040,1","10162,1","24,0028,9,1","99,0000,9,1",,,,,,,"08,99,1,00,1,00,1,99999,9,00,1,04,1",,"01,9",,"120,M,+0156,1","180,N,+0038,1","99999,9,08179,1","6,1,001,1,-011,1",,,"SYN124AAXX  10001 76373 32980 81706 10118 20040 38179 40162 56001 80004 90000 333 10156 20038 30/// 50200 56006 59011 70028 88080;","Q01  00002PRCP99"
"76373099999","2001-12-10T15:00:00","4","25.35","-105.75","1967.0","TEPEHUANES DGO., MX","FM-12","99999","V020","300,1,N,0010,1","00300,1,9,N","008000,1,N,1","+0054,1","+0025,1","10177,1","99,0000,9,1",,,,"08,1,+00300,9,06,9",,,,"08,99,1,08,1,06,1,00250,1,00,1,00,1",,"09,9",,,,"99999,9,08204,1","9,9,999,9,+015,1",,,"SYN100AAXX  10151 76373 32358 83001 10054 20025 38204 40177 5//// 88600 91440 333 31/// 56/00 58015 88710;","Q01  00002PRCP99"
"76373099999","2001-12-10T18:00:00","4","25.35","-105.75","1967.0","TEPEHUANES DGO., MX","FM-12","99999","V020","090,1,N,0010,1","00300,1,9,N","040000,1,N,1","+0078,1","+0030,1","10172,1","99,0000,9,1",,,,"07,1,+00300,9,05,9",,,,"07,99,1,07,1,06,1,00250,1,00,1,00,1",,"01,9",,"120,M,+0090,1","240,N,+0008,1","99999,9,08197,1","6,1,007,1,+019,1",,,"SYN112AAXX  10181 76373 32382 70901 10078 20030 38197 40172 56007 87600 91738 333 10090 20008 30/// 56500 58019 87610;","Q01  00002PRCP99"
"76373099999","2001-12-10T21:00:00","4","25.35","-105.75","1967.0","TEPEHUANES DGO., MX","FM-12","99999","V020","210,1,N,0070,1","22000,1,9,N","070000,1,N,1","+0204,2","+0051,1","10109,2","99,0000,9,1",,,,"02,1,+00300,9,08,9",,,,"04,99,1,02,1,01,1,00450,1,03,1,00,1",,"01,9",,,,"99999,9,08162,1","7,1,035,1,+054,1",,,"SYN106AAXX  10211 76373 32488 42107 10204 20051 38162 40109 57035 82130 92038 333 30/// 56550 58054 82810 82360;","Q01+002043ATOT  Q02+101093APOSLPQ03  00002PRCP99"
"76373099999","2001-12-11T06:00:00","4","25.35","-105.75","1967.0","TEPEHUANES DGO., MX","FM-12","99999","V020","270,1,N,0020,1","00420,1,9,N","000800,1,N,1","+0108,1","+0040,1","10102,1","99,0000,9,1",,,,,,,,"08,99,1,08,1,06,1,00450,1,00,1,00,1","0360,9","01,9",,"240,M,+0222,1","240,N,+0008,1","99999,9,08187,1","7,1,003,1,+999,9",,,"SYN118AAXX  11061 76373 32408 82702 10108 20040 38187 40102 57003 88600 90540 333 10222 20008 30/// 55060 57500 58/// 88710;","Q01  00002PRCP99"
"76373099999","2001-12-11T12:00:00","4","25.35","-105.75","1967.0","TEPEHUANES DGO., MX","FM-12","99999","V020","190,1,N,0010,1","00300,1,9,N","000800,1,N,1","+0086,1","+0051,1","10104,1","24,0000,9,1",,,,"08,1,+00300,9,06,9",,,,"08,99,1,08,1,06,1,00450,1,00,1,00,1",,"01,9","999,+0060,9","999,M,+0222,1","120,N,+0078,1","99999,9,08168,1","2,1,001,1,+999,9",,,"SYN118AAXX  11121 76373 32408 81901 10086 20051 38168 40104 52001 88600 91145 333 10222 20078 30006 56500 58/// 70000 88710;",
"76373099999","2001-12-11T18:00:00","4","25.35","-105.75","1967.0","TEPEHUANES DGO., MX","FM-12","99999","V020","270,1,N,0050,1","00300,1,9,N","030000,1,N,1","+0120,1","+0042,1","10132,1","03,0002,9,1",,"5,1,06,1","5,1,06,1","08,1,+00300,9,05,9",,,,"08,99,1,02,1,07,1,00250,1,99,9,99,9",,"09,9",,"120,M,+0130,1","240,N,+0072,1","99999,9,08188,1","6,1,014,1,-009,1","50,1",,"SYN124AAXX  11181 76373 21380 82705 10120 20042 38188 40132 56014 75055 827// 91740 333 10130 20072 31/// 566// 59009 69927 88610;",
"76373099999","2001-12-11T21:00:00","4","25.35","-105.75","1967.0","TEPEHUANES DGO., MX","FM-12","99999","V020","180,1,N,0010,1","00300,1,9,N","030000,1,N,1","+0094,1","+0049,1","10134,1","03,0010,9,1",,"6,1,03,1","5,1,03,1","08,1,+00300,9,05,9",,,,"08,99,1,08,1,07,1,00250,1,99,9,99,9",,"09,9",,,,"99999,9,08188,1","5,1,000,1,+026,1",,,"SYN112AAXX  11211 76373 11380 81801 10094 20049 38188 40134 55000 60017 75665 887// 92042 333 31/// 565// 58026 88610;","Q01+000562PRSWM1"
"76373099999","2001-12-12T00:00:00","4","25.35","-105.75","1967.0","TEPEHUANES DGO., MX","FM-12","99999","V020","150,1,N,0010,1","03600,1,9,N","070000,1,N,1","+0106,1","+0050,1","10120,1","24,0016,9,1","99,0000,2,1",,,"03,1,+00300,9,07,9",,,,"08,99,1,03,1,06,1,00450,1,01,1,00,1",,"09,9",,"120,M,+0131,1","180,N,+0072,1","99999,9,08178,1","7,1,010,1,+999,9",,,"SYN130AAXX  12001 76373 32488 81501 10106 20050 38178 40120 57010 83610 92350 333 10131 20072 31/// 50010 56550 58/// 70016 83710 85458;",
"76373099999","2001-12-12T03:00:00","4","25.35","-105.75","1967.0","TEPEHUANES DGO., MX","FM-12","99999","V020","180,1,N,0010,1","22000,1,9,N","000800,1,N,1","+0073,1","+0048,1","10141,1","99,0000,2,1",,,,,,,,"02,99,1,99,9,99,9,99999,9,99,9,99,9",,"09,9",,,,"99999,9,08194,1","2,1,016,1,+004,1",,,"SYN094AAXX  12031 76373 32/08 21801 10073 20048 38194 40141 52016 8//// 90250 333 31/// 56/// 58004;",
"76373099999","2001-12-12T15:00:00","4","25.35","-105.75","1967.0","TEPEHUANES DGO., MX","FM-12","99999","V020","999,9,C,0000,1","03600,1,C,N","060000,1,N,1","+0073,1","+0017,1","10193,1","99,0000,9,1",,,,"02,1,+00300,9,07,9",,,,"08,99,1,02,1,06,1,00450,1,01,1,00,1",,"09,9",,,,"99999,9,08219,1","2,1,020,1,+045,1",,,"SYN106AAXX  12151 76373 32486 80000 10073 20017 38219 40193 52020 82610 91447 333 31/// 56550 58045 82710 86458;","Q01  00002PRCP99"
"76373099999","2001-12-12T18:00:00","4","25.35","-105.75","1967.0","TEPEHUANES DGO., MX","FM-12","99999","V020","310,1,N,0020,1","06000,1,9,N","070000,1,N,1","+0134,1","+0008,1","10181,1","99,0000,9,1",,,,"07,1,+06000,9,02,9",,,,"07,99,1,00,1,00,1,99999,9,00,1,09,1",,"09,9",,"120,M,+0132,1","240,N,+0032,1","99999,9,08219,1","0,1,000,1,+031,1",,,"SYN118AAXX  12181 76373 32988 73102 10134 20008 38219 40181 50000 80009 91742 333 10132 20032 31/// 56005 58031 87270 99020;","Q01  00002PRCP99"
"76373099999","2001-12-12T21:00:00","4","25.35","-105.75","1967.0","TEPEHUANES DGO., MX","FM-12","99999","V020","220,1,N,0040,1","06000,1,9,N","070000,1,N,1","+0161,1","-0056,1","10134,1","99,0000,9,1",,,,"07,1,+06000,9,08,9",,,,"07,99,1,99,9,00,1,99999,9,00,1,07,1",,"01,9",,,,"99999,9,08195,1","7,1,024,1,+007,1",,,"SYN100AAXX  12211 76373 32988 72204 10161 21056 38195 40134 57024 80007 92045 333 30/// 56005 58007 87270;","Q01+000002SCOTLCQ02  00002PRCP99"
"76373099999","2001-12-13T03:00:00","4","25.35","-105.75","1967.0","TEPEHUANES DGO., MX","FM-12","99999","V020","260,1,N,0010,1","22000,1,9,N","000800,1,N,1","+0094,1","-0042,1","10132,1","99,0000,9,1",,,,,,,,"02,99,1,99,9,99,9,99999,9,99,9,99,9",,"01,9",,,,"99999,9,08205,1","2,1,005,1,+011,1",,,"SYN094AAXX  13031 76373 32/08 22601 10094 21042 38205 40132 52005 8//// 90240 333 30/// 56/// 58011;","Q01  00002PRCP99"
"76373099999","2001-12-13T15:00:00","4","25.35","-105.75","1967.0","TEPEHUANES DGO., MX","FM-12","99999","V020","320,1,N,0020,1","22000,1,9,N","070000,1,N,1","+0072,1","-0052,1","10184,1","99,0000,9,1",,,,"00,1,+99999,9,99,9",,,,"00,99,1,00,1,00,1,99999,9,00,1,00,1",,"01,9",,,,"99999,9,08205,1","1,1,010,1,-014,1",,,"SYN082AAXX  13151 76373 32988 03202 10072 21052 38205 40184 51010 91438 333 30/// 59014;","Q01  00002PRCP99"
"76373099999","2001-12-13T18:00:00","4","25.35","-105.75","1967.0","TEPEHUANES DGO., MX","FM-12","99999","V020","060,1,N,0010,1","22000,1,9,N","070000,1,N,1","+0150,1","-0039,1","10169,1","99,0000,9,1",,,,"00,1,+99999,9,99,9",,,,"00,99,1,00,1,00,1,99999,9,00,1,00,1",,"01,9",,"120,M,+0162,1","240,N,-0010,1","99999,9,08204,1","6,1,001,1,-015,1",,,"SYN094AAXX  13181 76373 32988 00601 10150 21039 38204 40169 56001 91735 333 10162 21010 30/// 59015;","Q01  00002PRCP99"
"76373099999","2001-12-13T21:00:00","4","25.35","-105.75","1967.0","TEPEHUANES DGO., MX","FM-12","99999","V020","290,1,N,0060,1","22000,1,9,N","070000,1,N,1","+0210,1","-0015,1","10123,1","99,0000,9,1",,,,"00,1,+99999,9,99,9",,,,"00,99,1,00,1,00,1,99999,9,00,1,00,1",,"01,9",,,,"99999,9,08173,1","7,1,031,1,-022,1",,,"SYN082AAXX  13211 76373 32988 02906 10210 21015 38173 40123 57031 92050 333 30/// 59022;","Q01  00002PRCP99"
"76373099999","2001-12-14T00:00:00","4","25.35","-105.75","1967.0","TEPEHUANES DGO., MX","FM-12","99999","V020","250,1,N,0030,1","22000,1,9,N","070000,1,N,1","+0180,1","-0012,1","10097,1","24,0000,9,1",,,,"00,1,+99999,9,99,9",,,,"00,99,1,00,1,00,1,99999,9,00,1,00,1",,"01,9",,"120,M,+0220,1","180,N,+9999,9","99999,9,08173,1","4,1,000,1,-028,1",,,"SYN106AAXX  14001 76373 32988 02503 10180 21012 38173 40097 54000 92040 333 10220 20210 30/// 50320 59028 70000;","Q01  00002PRCP24Q02 +02102ATMN  "
"76373099999","2001-12-14T15:00:00","4","25.35","-105.75","1967.0","TEPEHUANES DGO., MX","FM-12","99999","V020","999,9,C,0000,1","06000,1,9,N","070000,1,N,1","-0022,1","-0026,1","10221,1","99,0000,9,1",,,,"08,1,+06000,9,02,9",,,,"08,99,1,00,1,00,1,99999,9,00,1,07,1",,"01,9",,,,"99999,9,08200,1","9,9,999,9,-005,1",,,"SYN106AAXX  14151 76373 32988 80000 11022 21026 38200 40221 5//// 80007 91440 333 30/// 56006 59005 88270 99020;","Q01  00002PRCP99"
"76373099999","2001-12-14T18:00:00","4","25.35","-105.75","1967.0","TEPEHUANES DGO., MX","FM-12","99999","V020","300,1,N,0010,1","06000,1,9,N","070000,1,N,1","+0092,1","-0052,1","10205,1","99,0000,9,1",,,,"07,1,+06000,9,08,9",,,,"07,99,1,99,9,00,1,99999,9,00,1,08,1",,"01,9",,"120,M,+0108,1","240,N,-0062,1","99999,9,08186,1","6,1,014,1,-018,1",,,"SYN112AAXX  14181 76373 32988 73001 10092 21052 38186 40205 56014 80008 91738 333 10108 21062 30/// 56006 59018 87270;","Q01+000002SCOTLCQ02  00002PRCP99"
"76373099999","2001-12-14T21:00:00","4","25.35","-105.75","1967.0","TEPEHUANES DGO., MX","FM-12","99999","V020","150,1,N,0030,1","06000,1,9,N","070000,1,N,1","+0184,1","-0008,1","10118,2","99,0000,9,1",,,,"06,1,+06000,9,08,9",,,,"06,99,1,99,9,00,1,99999,9,00,1,08,1",,"01,9",,,,"99999,9,08141,1","6,1,045,1,+032,1",,,"SYN100AAXX  14211 76373 32988 61503 10184 21008 38141 40118 56045 80008 92035 333 30/// 56006 58032 86270;","Q01+000002SCOTLCQ02+101183APOSLPQ03  00002PRCP99"
"76373099999","2001-12-15T06:00:00","4","25.35","-105.75","1967.0","TEPEHUANES DGO., MX","FM-12","99999","V020","999,9,C,0000,1","22000,1,9,N","010000,1,N,1","+0046,1","-0017,1","10104,1","99,0000,9,1",,,,"04,1,+09000,9,08,9",,,,"04,99,1,00,1,00,1,99999,9,00,1,08,1",,"01,9",,"240,M,+0224,1","240,N,-0062,1","99999,9,08176,1","2,1,017,1,+999,9",,,"SYN112AAXX  15061 76373 32960 40000 10046 21017 38176 40104 52017 80008 90535 333 10224 21062 30/// 56006 58/// 84280;","Q01  00002PRCP99"
"76373099999","2001-12-17T15:00:00","4","25.35","-105.75","1967.0","TEPEHUANES DGO., MX","FM-12","99999","V020","999,9,C,0000,1","09000,1,C,N","070000,1,N,1","-0008,1","-0031,1","10271,1","99,0000,9,1",,,,"03,1,+03000,9,05,9",,,,"08,99,1,03,1,00,1,01750,1,02,1,08,1",,"01,9",,,,"99999,9,08254,1","9,9,999,9,+064,1",,,"SYN106AAXX  17151 76373 32788 80000 11008 21031 38254 40271 5//// 83028 91440 333 30/// 56066 58064 83560 86270;","Q01  00002PRCP99"
"76373099999","2001-12-17T18:00:00","4","25.35","-105.75","1967.0","TEPEHUANES DGO., MX","FM-12","99999","V020","090,1,N,0010,1","06000,1,9,N","070000,1,N,1","+0096,1","-0021,1","10268,1","99,0000,9,1",,,,"08,1,+06000,9,02,9",,,,"08,99,1,00,1,00,1,99999,9,00,1,07,1",,"01,9",,"120,M,+0110,1","240,N,-0038,1","99999,9,08250,1","7,1,004,1,+071,1",,,"SYN118AAXX  17181 76373 32988 80901 10096 21021 38250 40268 57004 80007 91735 333 10110 21038 30/// 56006 58071 88270 99020;","Q01  00002PRCP99"
"76373099999","2001-12-18T03:00:00","4","25.35","-105.75","1967.0","TEPEHUANES DGO., MX","FM-12","99999","V020","999,9,C,0000,1","22000,1,9,N","000800,1,N,1","+0075,1","-0023,1","10179,1","99,0000,9,1",,,,"00,1,+99999,9,99,9",,,,"00,99,1,00,1,00,1,99999,9,00,1,00,1",,"01,9",,,,"99999,9,08226,1","2,1,005,1,+002,1",,,"SYN082AAXX  18031 76373 32908 00000 10075 21023 38226 40179 52005 90245 333 30/// 58002;","Q01  00002PRCP99"
"76373099999","2001-12-18T06:00:00","4","25.35","-105.75","1967.0","TEPEHUANES DGO., MX","FM-12","99999","V020","999,9,C,0000,1","22000,1,9,N","000800,1,N,1","+0026,1","-0034,1","10198,1","99,0000,9,1",,,,"00,1,+99999,9,99,9",,,,"00,99,1,00,1,00,1,99999,9,00,1,00,1","0420,9","01,9",,"240,M,+0172,1","240,N,-0038,1","99999,9,08236,1","2,1,010,1,+999,9",,,"SYN100AAXX  18061 76373 32908 00000 10026 21034 38236 40198 52010 90542 333 10172 21038 30/// 55070 58///;","Q01  00002PRCP99"
"76373099999","2001-12-18T18:00:00","4","25.35","-105.75","1967.0","TEPEHUANES DGO., MX","FM-12","99999","V020","080,1,N,0010,1","22000,1,9,N","070000,1,N,1","+0132,1","-0042,1","10235,1","99,0000,9,1",,,,"02,1,+02400,9,07,9",,,,"02,99,1,02,1,99,9,01750,1,03,1,00,1",,"01,9",,"120,M,+0148,1","240,N,-0044,1","99999,9,08218,1","8,1,011,1,-032,1",,,"SYN112AAXX  18181 76373 32788 20801 10132 21042 38218 40235 58011 82030 91745 333 10148 21044 30/// 56050 59032 82358;","Q01  00002PRCP99Q02    003SCOLCG"
"76373099999","2001-12-18T21:00:00","4","25.35","-105.75","1967.0","TEPEHUANES DGO., MX","FM-12","99999","V020","310,1,N,0040,1","02400,1,9,N","070000,1,N,1","+0238,1","-0004,1","10148,1","99,0000,9,1",,,,"06,1,+02400,9,07,9",,,,"06,99,1,06,1,99,9,01750,1,03,1,00,1",,"01,9",,,,"99999,9,08181,1","7,1,038,1,-040,1",,,"SYN100AAXX  18211 76373 32788 63104 10238 21004 38181 40148 57038 86030 91440 333 30/// 56050 59040 86358;","Q01  00002PRCP99Q02    003SCOLCG"
"76373099999","2001-12-19T00:00:00","4","25.35","-105.75","1967.0","TEPEHUANES DGO., MX","FM-12","99999","V020","300,1,N,0040,1","09000,1,9,N","028000,1,N,1","+0216,1","+0008,1","10109,1","24,0000,9,1",,,,"04,1,+02400,9,03,9",,,,"07,99,1,04,1,00,1,00250,1,03,1,09,1",,"01,9",,"120,M,+0253,1","180,N,-0044,1","99999,9,08185,1","2,1,004,1,+999,9",,,"SYN130AAXX  19001 76373 32378 73004 10216 20008 38185 40109 52004 84039 92347 333 10253 21044 30/// 50170 56055 58/// 70000 84358 83170;","Q01  00002PRCP99Q02  00003PRCP99"
"76373099999","2001-12-19T12:00:00","4","25.35","-105.75","1967.0","TEPEHUANES DGO., MX","FM-12","99999","V020","999,9,C,0000,1","22000,1,9,N","000800,1,N,1","+0018,1","-0070,1","10207,1","24,0000,9,1",,,,,,,,"02,99,1,99,9,99,9,99999,9,99,9,99,9",,"01,9","999,-0010,9","999,M,+0253,1","120,N,+0002,1","99999,9,08237,1","2,1,003,1,+016,1",,,"SYN112AAXX  19121 76373 32/08 20000 10018 21070 38237 40207 52003 8//// 91140 333 10253 20002 30101 56/// 58016 70000;","Q01  00002PRCP24"
"76373099999","2001-12-19T15:00:00","4","25.35","-105.75","1967.0","TEPEHUANES DGO., MX","FM-12","99999","V020","999,9,C,0000,1","22000,1,9,N","070000,1,N,1","+0028,1","-0036,1","10259,1","99,0000,9,1",,,,"02,1,+02400,9,07,9",,,,"02,99,1,02,1,99,9,01750,1,03,1,00,1",,"01,9",,,,"99999,9,08255,1","2,1,018,1,+025,1",,,"SYN100AAXX  19151 76373 32788 20000 10028 21036 38255 40259 52018 82030 91445 333 30/// 56050 58025 82358;","Q01  00002PRCP99Q02    003SCOLCG"
"76373099999","2001-12-19T21:00:00","4","25.35","-105.75","1967.0","TEPEHUANES DGO., MX","FM-12","99999","V020","130,1,N,0040,1","22000,1,9,N","070000,1,N,1","+0182,1","-0054,1","10193,1","99,0000,9,1",,,,"02,1,+06000,9,07,9",,,,"02,99,1,02,1,00,1,01750,1,06,1,00,1",,"01,9",,,,"99999,9,08224,1","7,1,016,1,+043,1",,,"SYN100AAXX  19211 76373 32788 21304 10182 21054 38224 40193 57016 82060 92040 333 30/// 56050 58043 82370;","Q01  00002PRCP99"
"76373099999","2001-12-20T00:00:00","4","25.35","-105.75","1967.0","TEPEHUANES DGO., MX","FM-12","99999","V020","140,1,N,0030,1","01500,1,9,N","070000,1,N,1","+0166,1","-0039,1","10158,1","24,0000,9,1",,,,,,,,"06,99,1,06,1,00,1,01750,1,06,1,00,1",,"01,9",,"120,M,+0202,1","180,N,-0008,1","99999,9,08219,1","7,1,005,1,+034,1",,,"SYN124AAXX  20001 76373 32788 61403 10166 21039 38219 40158 57005 86060 92350 333 10202 21008 30/// 50350 56050 58034 70000 86358;","Q01  00002PRCP99Q02  00003PRCP99"
"76373099999","2001-12-20T15:00:00","4","25.35","-105.75","1967.0","TEPEHUANES DGO., MX","FM-12","99999","V020","999,9,C,0000,1","22000,1,9,N","070000,1,N,1","+0012,1","-0053,1","10271,1","99,0000,9,1",,,,"01,1,+03000,9,07,9",,,,"01,99,1,01,1,00,1,01750,1,03,1,00,1",,"01,9",,,,,"9,9,999,9,+008,1",,,"SYN100AAXX  20151 76373 32788 10000 10012 21053 32263 40271 5//// 81030 91436 333 30/// 56050 58008 81360;","Q01+022631APOSP Q02  00002PRCP99"
"76373099999","2001-12-20T18:00:00","4","25.35","-105.75","1967.0","TEPEHUANES DGO., MX","FM-12","99999","V020","170,1,N,0010,1","22000,1,9,N","070000,1,N,1","+0138,1","-0024,1","10268,1","99,0000,9,1",,,,"01,1,+03000,9,07,9",,,,"01,99,1,01,1,00,1,01750,1,03,1,00,1",,"01,9",,"120,M,+0160,1","240,N,-0028,1","99999,9,08272,1","7,1,001,1,+022,1",,,"SYN112AAXX  20181 76373 32788 11701 10138 21024 38272 40268 57001 81030 91740 333 10160 21028 30/// 56050 58022 81360;","Q01  00002PRCP99"
"76373099999","2001-12-20T21:00:00","4","25.35","-105.75","1967.0","TEPEHUANES DGO., MX","FM-12","99999","V020","120,1,N,0030,1","22000,1,9,N","070000,1,N,1","+0204,1","+0035,1","10191,1","99,0000,9,1",,,,"03,1,+00300,9,02,9",,,,"03,99,1,03,1,01,1,00250,1,00,1,00,1",,"01,9",,,,"99999,9,08226,1","6,1,036,1,+002,1",,,"SYN100AAXX  20211 76373 32388 31203 10204 20035 38226 40191 56036 83100 92040 333 30/// 56500 58002 83810;","Q01  00002PRCP99"
"76373099999","2001-12-21T00:00:00","4","25.35","-105.75","1967.0","TEPEHUANES DGO., MX","FM-12","99999","V020","220,1,N,0060,1","22000,1,9,N","070000,1,N,1","+0210,1","+0007,1","10165,1","24,0000,9,1",,,,,,,,"02,99,1,02,1,01,1,00250,1,00,1,00,1",,"01,9",,"120,M,+0240,1","180,N,-0028,1","99999,9,08227,1","7,1,001,1,+009,1",,,"SYN124AAXX  21001 76373 32388 22206 10210 20007 38227 40165 57001 82100 92335 333 10240 21028 30/// 50420 56500 58009 70000 82810;","Q01  00002PRCP99Q02  00003PRCP99"
"76373099999","2001-12-21T15:00:00","4","25.35","-105.75","1967.0","TEPEHUANES DGO., MX","FM-12","99999","V020","999,9,C,0000,1","22000,1,9,N","070000,1,N,1","+0020,1","-0021,1","10245,1","99,0000,9,1",,,,"00,1,+99999,9,99,9",,,,"00,99,1,00,1,00,1,99999,9,00,1,00,1",,"01,9",,,,"99999,9,08245,1","9,9,999,9,-018,1",,,"SYN082AAXX  21151 76373 32988 00000 10020 21021 38245 40245 5//// 91438 333 30/// 59018;","Q01  00002PRCP99"
"76373099999","2001-12-21T21:00:00","4","25.35","-105.75","1967.0","TEPEHUANES DGO., MX","FM-12","99999","V020","260,1,N,0070,1","00300,1,9,N","070000,1,N,1","+0230,2","+0057,1","10164,1","99,0000,9,1",,,,"05,1,+00300,9,02,9",,,,"05,99,1,05,1,01,1,00250,1,00,1,00,1",,"01,9",,,,"99999,9,08210,1","6,1,026,1,-016,1",,,"SYN100AAXX  21211 76373 32388 52607 10230 20057 38210 40164 56026 85100 92040 333 30/// 56500 59016 85810;","Q01  00002PRCP99"
"76373099999","2001-12-22T00:00:00","4","25.35","-105.75","1967.0","TEPEHUANES DGO., MX","FM-12","99999","V020","240,1,N,0060,1","22000,1,9,N","070000,1,N,1","+0186,1","+0029,1","10151,1","24,0000,9,1",,,,"00,1,+99999,9,99,9",,,,"00,99,1,00,1,00,1,99999,9,00,1,00,1",,"01,9",,"120,M,+0248,1","180,N,-0022,1","99999,9,08201,1","6,1,009,1,-026,1",,,"SYN106AAXX  22001 76373 32388 02406 10186 20029 38201 40151 56009 92350 333 10248 21022 30/// 50330 59026 70000;","Q01  00002PRCP24"
"76373099999","2001-12-22T18:00:00","4","25.35","-105.75","1967.0","TEPEHUANES DGO., MX","FM-12","99999","V020","340,1,N,0010,1","09000,1,9,N","070000,1,N,1","+0176,1","-0015,1","10195,1","99,0000,9,1",,,,"08,1,+09000,9,01,9",,,,"08,99,1,00,1,00,1,99999,9,00,1,06,1",,"01,9",,"120,M,+0190,1","240,N,-0028,1","99999,9,08226,1","2,1,004,1,-010,1",,,"SYN112AAXX  22181 76373 32988 83401 10176 21015 38226 40195 52004 80006 91755 333 10190 21028 30/// 56006 59010 88080;","Q01  00002PRCP99"
"76373099999","2001-12-23T03:00:00","4","25.35","-105.75","1967.0","TEPEHUANES DGO., MX","FM-12","99999","V020","300,1,N,0040,1","22000,1,9,N","010000,1,N,1","+0092,1","-0052,1","10158,1","99,0000,9,1",,,,"04,1,+09000,9,08,9",,,,"04,99,1,00,1,00,1,99999,9,00,1,07,1",,"01,9",,,,"99999,9,08217,1","2,1,019,1,-001,1",,,"SYN100AAXX  23031 76373 32960 43004 10092 21052 38217 40158 52019 80007 90250 333 30/// 56006 59001 84280;","Q01  00002PRCP99"
"76373099999","2001-12-24T00:00:00","4","25.35","-105.75","1967.0","TEPEHUANES DGO., MX","FM-12","99999","V020","130,1,N,0030,1","99999,9,9,N","070000,1,N,1","+0176,1","-0015,1","10116,1","24,0000,9,1",,,,,,,,"06,99,1,00,1,00,1,99999,9,00,1,06,1",,"01,9",,"120,M,+0214,1","180,N,-0030,1","99999,9,08190,1","6,1,014,1,-008,1",,,"SYN124AAXX  24001 76373 32988 61303 10176 21015 38190 40116 56014 80006 92330 333 10214 21030 30/// 50300 56006 59008 70000 86280;","Q01  00002PRCP99Q02  00003PRCP99"
"76373099999","2001-12-24T15:00:00","4","25.35","-105.75","1967.0","TEPEHUANES DGO., MX","FM-12","99999","V020","330,1,N,0010,1","22000,1,9,N","070000,1,N,1","-0020,1","-0044,1","10240,1","99,0000,9,1",,,,"04,1,+06000,9,01,9",,,,"04,99,1,00,1,00,1,99999,9,00,1,02,1",,"01,9",,,,"99999,9,08220,1","9,9,999,9,-016,1",,,"SYN100AAXX  24151 76373 32988 43301 11020 21044 38220 40240 5//// 80002 91440 333 30/// 56006 59016 84070;","Q01  00002PRCP99"
"76373099999","2001-12-24T18:00:00","4","25.35","-105.75","1967.0","TEPEHUANES DGO., MX","FM-12","99999","V020","140,1,N,0030,1","22000,1,9,N","070000,1,N,1","+0120,1","-0092,1","10221,1","99,0000,9,1",,,,"01,1,+03000,9,03,9",,,,"03,99,1,01,1,00,1,01750,1,03,1,02,1",,"01,9",,"120,M,+0134,1","240,N,-0062,1","99999,9,08208,1","6,1,012,1,-024,1",,,"SYN118AAXX  24181 76373 32788 31403 10120 21092 38208 40221 56012 81032 91740 333 10134 21062 30/// 56055 59024 81360 82070;","Q01  00002PRCP99"
"76373099999","2001-12-24T21:00:00","4","25.35","-105.75","1967.0","TEPEHUANES DGO., MX","FM-12","99999","V020","250,1,N,0060,1","22000,1,9,N","070000,1,N,1","+0210,1","-0002,1","10148,1","99,0000,9,1",,,,"01,1,+06000,9,01,9",,,,"01,99,1,00,1,00,1,99999,9,00,1,05,1",,"01,9",,,,"99999,9,08174,1","6,1,034,1,-030,1",,,"SYN100AAXX  24211 76373 32988 12506 10210 21002 38174 40148 56034 80005 92046 333 30/// 56006 59030 81070;","Q01  00002PRCP99"
"76373099999","2001-12-25T00:00:00","4","25.35","-105.75","1967.0","TEPEHUANES DGO., MX","FM-12","99999","V020","280,1,N,0060,1","22000,1,9,N","070000,1,N,1","+0180,1","-0032,1","10113,1","24,0000,9,1",,,,"00,1,+99999,9,99,9",,,,"00,99,1,00,1,00,1,99999,9,00,1,00,1",,"01,9",,"120,M,+0228,1","180,N,-0062,1","99999,9,08171,1","7,1,003,1,-019,1",,,"SYN106AAXX  25001 76373 32988 02806 10180 21032 38171 40113 57003 92340 333 10228 21062 30/// 50570 59019 70000;","Q01  00002PRCP24"
"76373099999","2001-12-25T18:00:00","4","25.35","-105.75","1967.0","TEPEHUANES DGO., MX","FM-12","99999","V020","120,1,N,0020,1","22000,1,9,N","070000,1,N,1","+0084,1","-0041,1","10252,1","99,0000,9,1",,,,"00,1,+99999,9,99,9",,,,"00,99,1,00,1,00,1,99999,9,00,1,00,1",,"01,9",,"120,M,+0094,1","240,N,-0068,1","99999,9,08233,1","6,1,008,1,+025,1",,,"SYN094AAXX  25181 76373 32988 01202 10084 21041 38233 40252 56008 91746 333 10094 21068 30/// 58025;","Q01  00002PRCP99"
"76373099999","2001-12-26T00:00:00","4","25.35","-105.75","1967.0","TEPEHUANES DGO., MX","FM-12","99999","V020","140,1,N,0030,1","22000,1,9,N","070000,1,N,1","+0117,1","-0089,1","10174,1","24,0000,9,1",,,,,,,,"02,99,1,00,1,00,1,99999,9,00,1,09,1",,"01,9",,"120,M,+0138,1","180,N,-0068,1","99999,9,08198,1","4,1,000,1,+027,1",,,"SYN124AAXX  26000 76373 32988 21403 10117 21089 38198 40174 54000 82009 92345 333 10138 21068 30/// 50150 56006 58027 70000 82170;","Q01+000022SCOTLCQ02  00002PRCP99Q03  00003PRCP99"
"76373099999","2001-12-26T12:00:00","4","25.35","-105.75","1967.0","TEPEHUANES DGO., MX","FM-12","99999","V020","999,9,C,0000,1","22000,1,9,N","000800,1,N,1","-0065,1","-0089,1","10252,1","24,0000,9,1",,,,"00,1,+99999,9,99,9",,,,"00,99,1,00,1,00,1,99999,9,00,1,00,1",,"01,9","999,-0110,9","999,M,+0138,1","120,N,-0084,1","99999,9,08223,1","2,1,004,1,+999,9",,,"SYN100AAXX  26121 76373 32908 00000 11065 21089 38223 40252 52004 91145 333 10138 21084 30111 58/// 70000;","Q01  00002PRCP24"
"76373099999","2001-12-26T15:00:00","4","25.35","-105.75","1967.0","TEPEHUANES DGO., MX","FM-12","99999","V020","999,9,C,0000,1","22000,1,9,N","060000,1,N,1","-0056,1","-0079,1","10261,1","99,0000,9,1",,,,"00,1,+99999,9,99,9",,,,"00,99,1,00,1,00,1,99999,9,00,1,00,1",,"01,9",,,,"99999,9,08237,1","2,1,014,1,-007,1",,,"SYN082AAXX  26151 76373 32986 00000 11056 21079 38237 40261 52014 91447 333 30/// 59007;","Q01  00002PRCP99"
"76373099999","2001-12-26T18:00:00","4","25.35","-105.75","1967.0","TEPEHUANES DGO., MX","FM-12","99999","V020","030,1,N,0010,1","22000,1,9,N","070000,1,N,1","+0072,1","-0110,1","10240,1","99,0000,9,1",,,,"00,1,+99999,9,99,9",,,,"00,99,1,00,1,00,1,99999,9,00,1,00,1",,"01,9",,"120,M,+0088,1","240,N,-0096,1","99999,9,08229,1","7,1,008,1,-004,1",,,"SYN094AAXX  26181 76373 32988 00301 10072 21110 38229 40240 57008 91747 333 10088 21096 30/// 59004;","Q01  00002PRCP99"
"76373099999","2001-12-26T21:00:00","4","25.35","-105.75","1967.0","TEPEHUANES DGO., MX","FM-12","99999","V020","140,1,N,0030,1","22000,1,9,N","070000,1,N,1","+0141,1","-0067,1","10200,1","99,0000,9,1",,,,"01,1,+06000,9,01,9",,,,"01,99,1,00,1,00,1,99999,9,00,1,05,1",,"01,9",,,,"99999,9,08184,1","7,1,045,1,-014,1",,,"SYN100AAXX  26211 76373 32988 11403 10141 21067 38184 40200 57045 80005 92044 333 30/// 56006 59014 81070;","Q01  00002PRCP99"
"76373099999","2001-12-27T00:00:00","4","25.35","-105.75","1967.0","TEPEHUANES DGO., MX","FM-12","99999","V020","130,1,N,0030,1","22000,1,9,N","070000,1,N,1","+0136,1","-0072,1","10155,1","24,0000,9,1",,,,"00,1,+99999,9,99,9",,,,"00,99,1,00,1,00,1,99999,9,00,1,00,1",,"01,9",,"120,M,+0158,1","180,N,-0096,1","99999,9,08191,1","2,1,007,1,-007,1",,,"SYN106AAXX  27001 76373 32988 01303 10136 21072 38191 40155 52007 92340 333 10158 21096 30/// 50240 59007 70000;","Q01  00002PRCP24"
"76373099999","2001-12-27T03:00:00","4","25.35","-105.75","1967.0","TEPEHUANES DGO., MX","FM-12","99999","V020","360,1,N,0010,1","22000,1,9,N","000800,1,N,1","+0059,1","-0068,1","10155,1","99,0000,9,1",,,,"00,1,+99999,9,99,9",,,,"00,99,1,00,1,00,1,99999,9,00,1,00,1",,"01,9",,,,"99999,9,08203,1","2,1,012,1,-008,1",,,"SYN082AAXX  27031 76373 32908 03601 10059 21068 38203 40155 52012 90245 333 30/// 59008;","Q01  00002PRCP99"
"76373099999","2001-12-27T06:00:00","4","25.35","-105.75","1967.0","TEPEHUANES DGO., MX","FM-12","99999","V020","999,9,C,0000,1","22000,1,9,N","000800,1,N,1","-0006,1","-0092,1","10174,1","99,0000,9,1",,,,"00,1,+99999,9,99,9",,,,"00,99,1,00,1,00,1,99999,9,00,1,00,1","0588,9","01,9",,"240,M,+0158,1","240,N,-0096,1","99999,9,08215,1","2,1,012,1,+999,9",,,"SYN100AAXX  27061 76373 32908 00000 11006 21092 38215 40174 52012 90545 333 10158 21096 30/// 55098 58///;","Q01  00002PRCP99"
"76373099999","2001-12-27T15:00:00","4","25.35","-105.75","1967.0","TEPEHUANES DGO., MX","FM-12","99999","V020","999,9,C,0000,1","22000,1,9,N","070000,1,N,1","-0061,1","-0085,1","10221,1","99,0000,9,1",,,,"00,1,+99999,9,99,9",,,,"00,99,1,00,1,00,1,99999,9,00,1,00,1",,"01,9",,,,"99999,9,08220,1","2,1,010,1,-017,1",,,"SYN082AAXX  27151 76373 32988 00000 11061 21085 38220 40221 52010 91445 333 30/// 59017;","Q01  00002PRCP99"
"76373099999","2001-12-27T18:00:00","4","25.35","-105.75","1967.0","TEPEHUANES DGO., MX","FM-12","99999","V020","180,1,N,0010,1","22000,1,9,N","070000,1,N,1","+0084,1","-0110,1","10212,1","99,0000,9,1",,,,"00,1,+99999,9,99,9",,,,"00,99,1,00,1,00,1,99999,9,00,1,00,1",,"01,9",,"120,M,+0098,1","240,N,-0102,1","99999,9,08208,1","7,1,012,1,-021,1",,,"SYN094AAXX  27181 76373 32988 01801 10084 21110 38208 40212 57012 91745 333 10098 21102 30/// 59021;","Q01  00002PRCP99"
"76373099999","2001-12-27T21:00:00","4","25.35","-105.75","1967.0","TEPEHUANES DGO., MX","FM-12","99999","V020","130,1,N,0030,1","22000,1,9,N","070000,1,N,1","+0182,1","-0054,1","10151,1","99,0000,9,1",,,,"00,1,+99999,9,99,9",,,,"00,99,1,00,1,00,1,99999,9,00,1,00,1",,"01,9",,,,"99999,9,08166,1","6,1,042,1,-018,1",,,"SYN082AAXX  27211 76373 32988 01303 10182 21054 38166 40151 56042 92036 333 30/// 59018;","Q01  00002PRCP99"
"76373099999","2001-12-28T03:00:00","4","25.35","-105.75","1967.0","TEPEHUANES DGO., MX","FM-12","99999","V020","250,1,N,0020,1","22000,1,9,N","010000,1,N,1","+0108,1","-0045,1","10118,1","99,0000,9,1",,,,"00,1,+99999,9,99,9",,,,"00,99,1,00,1,00,1,99999,9,00,1,00,1",,"01,9",,,,"99999,9,08188,1","2,1,015,1,-015,1",,,"SYN082AAXX  28030 76373 32960 02502 10108 21045 38188 40118 52015 90235 333 30/// 59015;","Q01  00002PRCP99"
"76373099999","2001-12-28T15:00:00","4","25.35","-105.75","1967.0","TEPEHUANES DGO., MX","FM-12","99999","V020","999,9,C,0000,1","22000,1,9,N","070000,1,N,1","-0024,1","-0062,1","10245,1","99,0000,9,1",,,,"02,1,+06000,9,01,9",,,,"02,99,1,00,1,00,1,99999,9,00,1,05,1",,"01,9",,,,"99999,9,08220,1","9,9,999,9,+000,1",,,"SYN100AAXX  28151 76373 32988 20000 11024 21062 38220 40245 5//// 80005 91438 333 30/// 56006 58000 82070;","Q01  00002PRCP99"
"76373099999","2001-12-28T18:00:00","4","25.35","-105.75","1967.0","TEPEHUANES DGO., MX","FM-12","99999","V020","120,1,N,0020,1","22000,1,9,N","070000,1,N,1","+0106,1","-0114,1","10228,1","99,0000,9,1",,,,"03,1,+06000,9,01,9",,,,"03,99,1,00,1,00,1,99999,9,00,1,06,1",,"01,9",,"120,M,+0122,1","240,N,-0070,1","99999,9,08211,1","6,1,009,1,+003,1",,,"SYN112AAXX  28181 76373 32988 31202 10106 21114 38211 40228 56009 80006 91740 333 10122 21070 30/// 56006 58003 83070;","Q01  00002PRCP99"
"76373099999","2001-12-28T21:00:00","4","25.35","-105.75","1967.0","TEPEHUANES DGO., MX","FM-12","99999","V020","280,1,N,0060,1","06000,1,9,N","070000,1,N,1","+0212,1","+0011,2","10151,2","99,0000,9,1",,,,"05,1,+06000,9,01,9",,,,"05,99,1,00,1,00,1,99999,9,00,1,04,1",,"01,9",,,,"99999,9,08172,1","6,1,039,1,+006,1",,,"SYN100AAXX  28211 76373 32988 52806 10212 20011 38172 40151 56039 80004 92048 333 30/// 56006 58006 85070;","Q01+000113ATOD  Q02+101513APOSLPQ03  00002PRCP99"
"76373099999","2001-12-29T15:00:00","4","25.35","-105.75","1967.0","TEPEHUANES DGO., MX","FM-12","99999","V020","999,9,C,0000,1","22000,1,9,N","070000,1,N,1","-0012,1","-0047,1","10261,1","99,0000,9,1",,,,"00,1,+99999,9,99,9",,,,"00,99,1,00,1,00,1,99999,9,00,1,00,1",,"01,9",,,,"99999,9,08253,1","9,9,999,9,+033,1",,,"SYN082AAXX  29151 76373 32988 00000 11012 21047 38253 40261 5//// 91450 333 30/// 58033;","Q01  00002PRCP99"
"76373099999","2001-12-29T18:00:00","4","25.35","-105.75","1967.0","TEPEHUANES DGO., MX","FM-12","99999","V020","140,1,N,0010,1","22000,1,9,N","070000,1,N,1","+0110,1","-0056,1","10249,1","99,0000,9,1",,,,"00,1,+99999,9,99,9",,,,"00,99,1,00,1,00,1,99999,9,00,1,00,1",,"01,9",,"120,M,+0128,1","240,N,-0070,1","99999,9,08254,1","6,1,001,1,+043,1",,,"SYN094AAXX  29181 76373 32988 01401 10110 21056 38254 40249 56001 91735 333 10128 21070 30/// 58043;","Q01  00002PRCP99"
"76373099999","2001-12-29T21:00:00","4","25.35","-105.75","1967.0","TEPEHUANES DGO., MX","FM-12","99999","V020","130,1,N,0020,1","22000,1,9,N","070000,1,N,1","+0200,1","-0034,1","10167,2","99,0000,9,1",,,,"00,1,+99999,9,99,9",,,,"00,99,1,00,1,00,1,99999,9,00,1,00,1",,"01,9",,,,"99999,9,08204,1","6,1,050,1,+032,1",,,"SYN082AAXX  29211 76373 32988 01302 10200 21034 38204 40167 56050 92035 333 30/// 58032;","Q01+101673APOSLPQ02  00002PRCP99"
"76373099999","2001-12-30T15:00:00","4","25.35","-105.75","1967.0","TEPEHUANES DGO., MX","FM-12","99999","V020","999,9,C,0000,1","09000,1,9,N","070000,1,N,1","+0006,1","-0063,1","10228,1","99,0000,9,1",,,,"08,1,+09000,9,01,9",,,,"08,99,1,00,1,00,1,99999,9,00,1,04,1",,"01,9",,,,"99999,9,08225,1","9,9,999,9,-028,1",,,"SYN100AAXX  30151 76373 32988 80000 10006 21063 38225 40228 5//// 80004 91450 333 30/// 56006 59028 88080;","Q01  00002PRCP99"
"76373099999","2001-12-31T15:00:00","4","25.35","-105.75","1967.0","TEPEHUANES DGO., MX","FM-12","99999","V020","999,9,C,0000,1","22000,1,9,N","070000,1,N,1","-0010,1","-0051,1","10230,1","99,0000,9,1",,,,"00,1,+99999,9,99,9",,,,"00,99,1,00,1,00,1,99999,9,00,1,00,1",,"01,9",,,,"99999,9,08228,1","9,9,999,9,+003,1",,,"SYN082AAXX  31151 76373 32988 00000 11010 21051 38228 40230 5//// 91442 333 30/// 58003;","Q01  00002PRCP99"
"76373099999","2001-12-31T21:00:00","4","25.35","-105.75","1967.0","TEPEHUANES DGO., MX","FM-12","99999","V020","240,1,N,0060,1","06000,1,9,N","070000,1,N,1","+0224,2","-0032,1","10132,2","99,0000,9,1",,,,"08,1,+06000,9,02,9",,,,"08,99,1,00,1,00,1,99999,9,00,1,07,1",,"01,9",,,,"99999,9,08172,1","6,1,035,1,-035,1",,,"SYN106AAXX  31211 76373 32988 82406 10224 21032 38172 40132 56035 80007 92040 333 30/// 56006 59035 88270 99020;","Q01+002243ATOT  Q02+101323APOSLPQ03  00002PRCP99"
