"STATION","DATE","SOURCE","LATITUDE","LONGITUDE","ELEVATION","NAME","REPORT_TYPE","CALL_SIGN","QUALITY_CONTROL","WND","CIG","VIS","TMP","DEW","SLP","AA1","AA2","AA3","AY1","AY2","GA1","GA2","GA3","GF1","GJ1","IA1","IA2","KA1","KA2","MA1","MD1","MW1","REM","EQD"
"76458099999","2005-01-01T06:00:00","4","23.2","-106.4166666","4.0","COLONIA JUAN CARRASCO MAZATLAN SIN., MX","FM-12","99999","V020","340,1,N,0010,1","22000,1,9,N","008000,1,N,1","+0212,1","+0182,1","10152,1","06,0000,9,1",,,,,"00,1,+99999,9,99,9",,,"00,99,1,00,1,00,1,99999,9,00,1,00,1","0516,9","01,9",,"240,M,+0284,1","240,N,+0172,1","99999,9,10147,1","2,1,009,1,+999,9",,"SYN106AAXX  01061 76458 32958 03401 10212 20182 30147 40152 52009 90538 333 10284 20172 30/// 55086 2//// 58015;","Q01  00002PRCP06"
"76458099999","2005-01-01T12:00:00","4","23.2","-106.4166666","4.0","COLONIA JUAN CARRASCO MAZATLAN SIN., MX","FM-12","99999","V020","020,1,N,0010,1","22000,1,9,N","008000,1,N,1","+0186,1","+0168,1","10144,1","06,0000,9,1","24,0000,9,1",,,,"03,1,+01800,1,03,1",,,"03,99,1,03,1,99,9,02250,1,03,1,99,9",,"01,9","999,+0154,1","240,M,+0284,1",,"99999,9,10140,1","6,1,008,1,+010,1",,"SYN112AAXX  01121 76458 32858 30201 10186 20168 30140 40144 56008 83/3/ 91130 333 10284 2//// 30154 58010 70000 83356;","Q01  00002PRCP06"
"76458099999","2005-01-02T03:00:00","4","23.2","-106.4166666","4.0","COLONIA JUAN CARRASCO MAZATLAN SIN., MX","FM-12","99999","V020","330,1,N,0010,1","22000,1,9,N","010000,1,N,1","+0225,1","+0205,1","10144,1","06,0000,9,1",,,,,"04,1,+05400,1,00,1",,,"04,99,1,00,1,00,1,99999,9,00,1,06,1",,"01,9",,,,"99999,9,10139,1","3,1,001,1,+001,1",,"SYN100AAXX  02031 76458 32960 43301 10225 20205 30139 40144 53001 80006 90245 333 30/// 56//9 58001 84068;","Q01  00002PRCP06"
"76458099999","2005-01-02T06:00:00","4","23.2","-106.4166666","4.0","COLONIA JUAN CARRASCO MAZATLAN SIN., MX","FM-12","99999","V020","350,1,N,0020,1","22000,1,9,N","010000,1,N,1","+0212,1","+0196,1","10155,1","06,0000,9,1",,,,,"00,1,+99999,9,99,9",,,"00,99,1,00,1,00,1,99999,9,00,1,00,1",,"01,9",,"240,M,+0227,1",,"99999,9,10151,1","2,1,012,1,+004,1",,"SYN094AAXX  02061 76458 32960 03502 10212 20196 30151 40155 52012 90540 333 10227 20/// 30/// 58004;","Q01  00002PRCP06"
"76458099999","2005-01-02T09:00:00","4","23.2","-106.4166666","4.0","COLONIA JUAN CARRASCO MAZATLAN SIN., MX","FM-12","99999","V020","140,1,N,0010,1","22000,1,9,N","010000,1,N,1","+0196,1","+0188,1","10155,1","06,0000,9,1",,,,,"00,1,+99999,9,99,9",,,"00,99,1,00,1,00,1,99999,9,00,1,00,1",,"01,9",,,,"99999,9,10151,1","0,1,000,1,+003,1",,"SYN082AAXX  02091 76458 32960 01401 10196 20188 30151 40155 50000 90854 333 30/// 58003;","Q01  00002PRCP06"
"76458099999","2005-01-03T03:00:00","4","23.2","-106.4166666","4.0","COLONIA JUAN CARRASCO MAZATLAN SIN., MX","FM-12","99999","V020","330,1,N,0020,1","22000,1,9,N","010000,1,N,1","+0232,1","+0213,1","10158,1","06,0000,9,1",,,,,"01,1,+03600,1,03,1",,,"01,99,1,01,1,00,1,02250,1,03,1,00,1",,"01,9",,,,"99999,9,10154,1","3,1,007,1,+015,1",,"SYN100AAXX  03031 76458 32860 13302 10232 20213 30154 40158 53007 81030 90245 333 30/// 56/9/ 58015 81362;","Q01  00002PRCP06"
"76458099999","2005-01-03T06:00:00","4","23.2","-106.4166666","4.0","COLONIA JUAN CARRASCO MAZATLAN SIN., MX","FM-12","99999","V020","320,1,N,0010,1","02100,1,9,N","010000,1,N,1","+0220,1","+0205,1","10165,1","06,0000,9,1",,,,,,,,"07,99,1,07,1,00,1,02250,1,03,1,00,1","0366,9","01,9",,"240,M,+0290,1","240,N,+0190,1","99999,9,10161,1","2,1,007,1,+010,1",,"SYN118AAXX  03061 76458 32860 73201 10220 20205 30161 40165 52007 87030 90540 333 10290 20190 30/// 55061 56/9/ 58010 87362;","Q01  00002PRCP06"
"76458099999","2005-01-03T09:00:00","4","23.2","-106.4166666","4.0","COLONIA JUAN CARRASCO MAZATLAN SIN., MX","FM-12","99999","V020","330,1,N,0010,1","22000,1,9,N","008000,1,N,1","+0210,1","+0195,1","10162,1","06,0000,9,1",,,,,"00,1,+99999,9,99,9",,,"00,99,1,00,1,00,1,99999,9,00,1,00,1",,"01,9",,,,"99999,9,10157,1","7,1,004,1,+006,1",,"SYN082AAXX  03091 76458 32958 03301 10210 20195 30157 40162 57004 90855 333 30/// 58006;","Q01  00002PRCP06"
"76458099999","2005-01-03T12:00:00","4","23.2","-106.4166666","4.0","COLONIA JUAN CARRASCO MAZATLAN SIN., MX","FM-12","99999","V020","999,9,C,0000,1","22000,1,9,N","008000,1,N,1","+0198,1","+0186,1","10158,1","06,0000,9,1","24,0000,9,1",,,,"00,1,+99999,9,99,9",,,"00,99,1,00,1,00,1,99999,9,00,1,00,1",,"01,9","999,+0180,1","120,N,+0190,1","240,M,+0290,1","99999,9,10153,1","7,1,005,1,-001,1",,"SYN100AAXX  03121 76458 32958 00000 10198 20186 30153 40158 57005 91132 333 10290 20190 30180 59001 70000;","Q01  00002PRCP06Q02  00002PRCP24"
"76458099999","2005-01-03T15:00:00","4","23.2","-106.4166666","4.0","COLONIA JUAN CARRASCO MAZATLAN SIN., MX","FM-12","99999","V020","120,1,N,0020,1","99999,9,9,N","012000,1,N,1","+0204,1","+0193,1","10168,1","06,0000,9,1",,,"4,1,03,1","4,1,03,1","03,1,+02700,1,03,1",,,"07,99,1,03,1,00,1,99999,9,03,1,07,1",,"01,9",,,,"99999,9,10164,1","9,9,999,9,-009,1","05,1","SYN106AAXX  03151 76458 31962 71202 10204 20193 30164 40168 5//// 70544 83037 91450 333 30/// 59009 83359 84276;","Q01  00002PRCP06"
"76458099999","2005-01-04T03:00:00","4","23.2","-106.4166666","4.0","COLONIA JUAN CARRASCO MAZATLAN SIN., MX","FM-12","99999","V020","340,1,N,0020,1","99999,9,9,N","010000,1,N,1","+0230,1","+0211,1","10154,1","06,0000,9,1",,,,,"03,1,+01800,1,03,1",,,"07,99,1,03,1,00,1,99999,9,05,1,06,1",,"01,9",,,,"99999,9,10150,1","2,1,014,1,-004,1",,"SYN106AAXX  04031 76458 32960 73402 10230 20211 30150 40154 52014 83056 90248 333 30/// 56/00 59004 83356 84070;","Q01  00002PRCP06"
"76458099999","2005-01-04T15:00:00","4","23.2","-106.4166666","4.0","COLONIA JUAN CARRASCO MAZATLAN SIN., MX","FM-12","99999","V020","010,1,N,0010,1","22000,1,9,N","016000,1,N,1","+0200,1","+0167,1","10164,1","06,0000,9,1",,,,,"00,1,+99999,9,99,9",,,"00,99,1,00,1,00,1,99999,9,00,1,00,1",,"01,9",,,,"99999,9,10160,1","2,1,017,1,-004,1",,"SYN082AAXX  04151 76458 32966 00101 10200 20167 30160 40164 52017 91456 333 30/// 59004;","Q01  00002PRCP06"
"76458099999","2005-01-04T18:00:00","4","23.2","-106.4166666","4.0","COLONIA JUAN CARRASCO MAZATLAN SIN., MX","FM-12","99999","V020","270,1,N,0030,1","22000,1,9,N","020000,1,N,1","+0266,1","+0160,1","10168,1","06,0000,9,1",,,,,"01,1,+02700,1,03,1",,,"03,99,1,01,1,00,1,99999,9,03,1,05,1",,"01,9",,"120,M,+0297,1","240,N,+0170,1","99999,9,10163,1","0,1,003,1,-005,1",,"SYN118AAXX  04181 76458 32970 32703 10266 20160 30163 40168 50003 81035 91750 333 10297 20170 30/// 56089 59005 81359 82079;","Q01  00002PRCP06"
"76458099999","2005-01-04T21:00:00","4","23.2","-106.4166666","4.0","COLONIA JUAN CARRASCO MAZATLAN SIN., MX","FM-12","99999","V020","270,1,N,0030,1","22000,1,9,N","020000,1,N,1","+0260,1","+0220,1","10144,1","06,0000,9,1",,,,,"01,1,+00660,1,08,1","01,1,+01800,1,03,1",,"04,99,1,01,1,03,1,00800,1,05,1,06,1",,"01,9",,,,"99999,9,10140,1","7,1,023,1,-010,1",,"SYN118AAXX  04211 76458 32570 42703 10260 20220 30140 40144 57023 81356 92045 333 30/// 56100 57817 59010 81822 81356 82070;","Q01  00002PRCP06"
"76458099999","2005-01-05T00:00:00","4","23.2","-106.4166666","4.0","COLONIA JUAN CARRASCO MAZATLAN SIN., MX","FM-12","99999","V020","270,1,N,0040,1","22000,1,9,N","020000,1,N,1","+0264,1","+0173,1","10134,1","06,0000,9,1","24,0000,9,1",,,,,,,"01,99,1,01,1,02,1,01250,1,00,1,00,1",,"01,9",,"120,M,+0298,1","180,N,+0170,1","99999,9,10129,1","7,1,011,1,-011,1",,"SYN130AAXX  05001 76458 32670 12704 10264 20173 30129 40134 57011 81200 92345 333 10298 20170 30/// 50241 567// 57177 59011 70000 81822;","Q01  00002PRCP06"
"76458099999","2005-01-05T03:00:00","4","23.2","-106.4166666","4.0","COLONIA JUAN CARRASCO MAZATLAN SIN., MX","FM-12","99999","V020","320,1,N,0030,1","22000,1,9,N","010000,1,N,1","+0239,1","+0185,1","10144,1","06,0000,9,1",,,,,"00,1,+99999,9,99,9",,,"00,99,1,00,1,00,1,99999,9,00,1,00,1",,"01,9",,,,"99999,9,10140,1","2,1,011,1,-010,1",,"SYN082AAXX  05031 76458 32960 03203 10239 20185 30140 40144 52011 90245 333 30/// 59010;","Q01  00002PRCP06"
"76458099999","2005-01-05T09:00:00","4","23.2","-106.4166666","4.0","COLONIA JUAN CARRASCO MAZATLAN SIN., MX","FM-12","99999","V020","330,1,N,0010,1","22000,1,9,N","010000,1,N,1","+0205,1","+0173,1","10138,1","06,0000,9,1",,,,,"00,1,+99999,9,99,9",,,"00,99,1,00,1,00,1,99999,9,00,1,00,1",,"01,9",,,,"99999,9,10133,1","7,1,011,1,-019,1",,"SYN082AAXX  05091 76458 32960 03301 10205 20173 30133 40138 57011 90859 333 30/// 59019;","Q01  00002PRCP06"
"76458099999","2005-01-05T12:00:00","4","23.2","-106.4166666","4.0","COLONIA JUAN CARRASCO MAZATLAN SIN., MX","FM-12","99999","V020","330,1,N,0010,1","22000,1,9,N","010000,1,N,1","+0194,1","+0150,1","10140,1","06,0000,9,1","24,0000,9,1",,,,"00,1,+99999,9,99,9",,,"00,99,1,00,1,00,1,99999,9,00,1,00,1",,"01,9","999,+0180,1","120,N,+0190,1","240,M,+0295,1","99999,9,10136,1","2,1,003,1,-007,1",,"SYN100AAXX  05121 76458 32960 03301 10194 20150 30136 40140 52003 91132 333 10295 20190 30180 59007 70000;","Q01  00002PRCP06Q02  00002PRCP24"
"76458099999","2005-01-05T15:00:00","4","23.2","-106.4166666","4.0","COLONIA JUAN CARRASCO MAZATLAN SIN., MX","FM-12","99999","V020","270,1,N,0030,1","22000,1,9,N","014000,1,N,1","+0192,1","+0144,1","10149,1","06,0000,9,1",,,,,"03,1,+06000,1,00,1",,,"03,99,1,00,1,00,1,99999,9,00,1,06,1",,"01,9",,,,"99999,9,10145,1","2,1,009,1,-015,1",,"SYN100AAXX  05151 76458 32964 32703 10192 20144 30145 40149 52009 80006 91448 333 30/// 56//0 59015 83070;","Q01  00002PRCP06"
"76458099999","2005-01-05T21:00:00","4","23.2","-106.4166666","4.0","COLONIA JUAN CARRASCO MAZATLAN SIN., MX","FM-12","99999","V020","300,1,N,0040,1","22000,1,9,N","020000,1,N,1","+0259,1","+0199,1","10129,1","06,0000,9,1",,,,,"00,1,+99999,9,99,9",,,"00,99,1,00,1,00,1,99999,9,00,1,00,1",,"01,9",,,,"99999,9,10124,1","7,1,013,1,-016,1",,"SYN082AAXX  05211 76458 32970 03004 10259 20199 30124 40129 57013 92045 333 30/// 59016;","Q01  00002PRCP06"
"76458099999","2005-01-06T00:00:00","4","23.2","-106.4166666","4.0","COLONIA JUAN CARRASCO MAZATLAN SIN., MX","FM-12","99999","V020","300,1,N,0060,1","22000,1,9,N","020000,1,N,1","+0247,1","+0196,1","10116,1","06,0000,9,1","24,0000,9,1",,,,"00,1,+99999,9,99,9",,,"00,99,1,00,1,00,1,99999,9,00,1,00,1",,"01,9",,"120,M,+0275,1","180,N,+0181,1","99999,9,10111,1","7,1,013,1,-028,1",,"SYN106AAXX  06001 76458 32970 03006 10247 20196 30111 40116 57013 92345 333 10275 20181 30/// 50421 59028 70000;","Q01  00002PRCP06Q02  00002PRCP24"
"76458099999","2005-01-06T03:00:00","4","23.2","-106.4166666","4.0","COLONIA JUAN CARRASCO MAZATLAN SIN., MX","FM-12","99999","V020","320,1,N,0060,1","22000,1,9,N","008000,1,N,1","+0228,1","+0193,1","10125,1","06,0000,9,1",,,,,"03,1,+06000,1,00,1",,,"03,99,1,00,1,99,9,99999,9,99,9,01,1",,"01,9",,,,"99999,9,10120,1","2,1,009,1,-020,1",,"SYN094AAXX  06031 76458 32958 33206 10228 20193 30120 40125 52009 80//1 90235 333 30/// 59020 83070;","Q01  00002PRCP06"
"76458099999","2005-01-06T06:00:00","4","23.2","-106.4166666","4.0","COLONIA JUAN CARRASCO MAZATLAN SIN., MX","FM-12","99999","V020","320,1,N,0050,1","22000,1,9,N","008000,1,N,1","+0218,1","+0176,1","10133,1","06,0000,9,1",,,,,,,,"02,99,1,00,1,99,9,99999,9,99,9,01,1","0552,9","01,9",,"240,M,+0275,1","240,N,+0181,1","99999,9,10129,1","2,1,009,1,-015,1",,"SYN118AAXX  06061 76458 32958 23205 10218 20176 30129 40133 52009 80//1 90530 333 10275 20181 30/// 55092 2//// 59015 82070;","Q01  00002PRCP06"
"76458099999","2005-01-06T12:00:00","4","23.2","-106.4166666","4.0","COLONIA JUAN CARRASCO MAZATLAN SIN., MX","FM-12","99999","V020","320,1,N,0010,1","22000,1,9,N","008000,1,N,1","+0182,1","+0157,1","10112,1","06,0000,9,1","24,0000,9,1",,,,"00,1,+99999,9,99,9",,,"00,99,1,00,1,00,1,99999,9,00,1,00,1",,"01,9","999,+0170,1","120,N,+0180,1","240,M,+0275,1","99999,9,10108,1","7,1,012,1,-028,1",,"SYN100AAXX  06121 76458 32958 03201 10182 20157 30108 40112 57012 91138 333 10275 20180 30170 59028 70000;","Q01  00002PRCP06Q02  00002PRCP24"
"76458099999","2005-01-06T15:00:00","4","23.2","-106.4166666","4.0","COLONIA JUAN CARRASCO MAZATLAN SIN., MX","FM-12","99999","V020","300,1,N,0020,1","08700,1,9,N","016000,1,N,1","+0183,1","+0150,1","10125,1","06,0000,9,1",,,,,"07,1,+08700,1,00,1",,,"07,99,1,00,1,00,1,99999,9,00,1,04,1",,"01,9",,,,"99999,9,10120,1","2,1,012,1,-024,1",,"SYN100AAXX  06151 76458 32966 73002 10183 20150 30120 40125 52012 80004 91450 333 30/// 56009 59024 87079;","Q01  00002PRCP06"
"76458099999","2005-01-06T18:00:00","4","23.2","-106.4166666","4.0","COLONIA JUAN CARRASCO MAZATLAN SIN., MX","FM-12","99999","V020","270,1,N,0030,1","08700,1,9,N","010000,1,N,1","+0221,1","+0170,1","10127,1","06,0000,9,1",,,,,"07,1,+08700,1,00,1",,,"07,99,1,00,1,00,1,99999,9,00,1,04,1",,"01,9",,"120,M,+0243,1","240,N,+0163,1","99999,9,10123,1","0,1,003,1,-031,1",,"SYN112AAXX  06181 76458 32960 72703 10221 20170 30123 40127 50003 80004 91756 333 10243 20163 30/// 56009 59031 87079;","Q01  00002PRCP06"
"76458099999","2005-01-07T00:00:00","4","23.2","-106.4166666","4.0","COLONIA JUAN CARRASCO MAZATLAN SIN., MX","FM-12","99999","V020","290,1,N,0040,1","99999,9,9,N","018000,1,N,1","+0233,1","+0178,1","99999,9","06,0000,9,1","24,0000,9,1",,,,,,,"05,99,1,00,1,00,1,99999,9,00,1,06,1",,"01,9",,"120,M,+0251,1","180,N,+0163,1","99999,9,10097,1","6,1,008,1,-014,1",,"SYN124AAXX  07001 76458 32968 52904 10233 20178 30097 40402 56008 80006 92345 333 10251 20163 30/// 50271 56//9 59014 70000 85068;","Q01  00002PRCP06Q02 104023APOSLP"
"76458099999","2005-01-07T12:00:00","4","23.2","-106.4166666","4.0","COLONIA JUAN CARRASCO MAZATLAN SIN., MX","FM-12","99999","V020","280,1,N,0010,1","22000,1,9,N","008000,1,N,1","+0184,1","+0156,1","10107,1","06,0000,9,1","24,0000,9,1",,,,"03,1,+02400,1,03,1",,,"03,99,1,03,1,00,1,99999,9,03,1,00,1",,"01,9","999,+0165,1","120,N,+0178,1","240,M,+0251,1","99999,9,10103,1","7,1,004,1,-006,1",,"SYN118AAXX  07121 76458 32958 32801 10184 20156 30103 40107 57004 83030 91142 333 10251 20178 30165 56090 59006 70000 83358;","Q01  00002PRCP06"
"76458099999","2005-01-07T15:00:00","4","23.2","-106.4166666","4.0","COLONIA JUAN CARRASCO MAZATLAN SIN., MX","FM-12","99999","V020","340,1,N,0020,1","22000,1,9,N","015000,1,N,1","+0179,1","+0158,1","10128,1","06,0000,9,1",,,,,"02,1,+01800,1,03,1",,,"02,99,1,02,1,00,1,99999,9,05,1,00,1",,"01,9",,,,"99999,9,10123,1","2,1,020,1,+003,1",,"SYN100AAXX  07151 76458 32965 23402 10179 20158 30123 40128 52020 82050 91448 333 30/// 56/0/ 58003 82356;","Q01  00002PRCP06"
"76458099999","2005-01-07T18:00:00","4","23.2","-106.4166666","4.0","COLONIA JUAN CARRASCO MAZATLAN SIN., MX","FM-12","99999","V020","180,1,N,0040,1","22000,1,9,N","020000,1,N,1","+0250,1","+0184,1","10148,1","06,0000,9,1",,,,,"02,1,+06000,1,00,1",,,"02,99,1,00,1,00,1,99999,9,00,1,09,1",,"01,9",,"120,M,+0251,1","240,N,+0167,1","99999,9,10143,1","2,1,020,1,+020,1",,"SYN112AAXX  07181 76458 32970 21804 10250 20184 30143 40148 52020 80009 91748 333 10251 20167 30/// 56//0 58020 82070;","Q01  00002PRCP06"
"76458099999","2005-01-07T21:00:00","4","23.2","-106.4166666","4.0","COLONIA JUAN CARRASCO MAZATLAN SIN., MX","FM-12","99999","V020","250,1,N,0030,1","22000,1,9,N","016000,1,N,1","+0248,1","+0189,1","10133,1","06,0000,9,1",,,,,"00,1,+99999,9,99,9",,,"00,99,1,00,1,00,1,99999,9,00,1,00,1",,"01,9",,,,"99999,9,10128,1","7,1,015,1,+023,1",,"SYN082AAXX  07211 76458 32966 02503 10248 20189 30128 40133 57015 92045 333 30/// 58023;","Q01  00002PRCP06"
"76458099999","2005-01-08T00:00:00","4","23.2","-106.4166666","4.0","COLONIA JUAN CARRASCO MAZATLAN SIN., MX","FM-12","99999","V020","300,1,N,0030,1","22000,1,9,N","018000,1,N,1","+0237,1","+0185,1","10135,1","06,0000,9,1","24,0000,9,1",,,,"00,1,+99999,9,99,9",,,"00,99,1,00,1,00,1,99999,9,00,1,00,1",,"01,9",,"120,M,+0270,1","180,N,+0167,1","99999,9,10130,1","2,1,002,1,+033,1",,"SYN106AAXX  08001 76458 32968 03003 10237 20185 30130 40135 52002 92345 333 10270 20167 30/// 50251 58033 70000;","Q01  00002PRCP06Q02  00002PRCP24"
"76458099999","2005-01-08T12:00:00","4","23.2","-106.4166666","4.0","COLONIA JUAN CARRASCO MAZATLAN SIN., MX","FM-12","99999","V020","999,9,C,0000,1","22000,1,9,N","008000,1,N,1","+0174,1","+0156,1","10131,1","06,0000,9,1","24,0000,9,1",,,,"00,1,+99999,9,99,9",,,"00,99,1,00,1,00,1,99999,9,00,1,00,1",,"01,9","999,+0160,1","120,N,+0170,1","240,M,+0270,1","99999,9,10127,1","7,1,009,1,+024,1",,"SYN100AAXX  08121 76458 32958 00000 10174 20156 30127 40131 57009 91134 333 10270 20170 30160 58024 70000;","Q01  00002PRCP06Q02  00002PRCP24"
"76458099999","2005-01-08T18:00:00","4","23.2","-106.4166666","4.0","COLONIA JUAN CARRASCO MAZATLAN SIN., MX","FM-12","99999","V020","340,1,N,0040,1","22000,1,9,N","020000,1,N,1","+0243,1","+0182,1","10167,1","06,0000,9,1",,,,,"00,1,+99999,9,99,9",,,"00,99,1,00,1,00,1,99999,9,00,1,00,1",,"01,9",,"120,M,+0270,1","240,N,+0161,1","99999,9,10162,1","1,1,012,1,+019,1",,"SYN094AAXX  08181 76458 32970 03404 10243 20182 30162 40167 51012 91748 333 10270 20161 30/// 58019;","Q01  00002PRCP06"
"76458099999","2005-01-09T06:00:00","4","23.2","-106.4166666","4.0","COLONIA JUAN CARRASCO MAZATLAN SIN., MX","FM-12","99999","V020","320,1,N,0020,1","22000,1,9,N","010000,1,N,1","+0205,1","+0178,1","10158,1","06,0000,9,1",,,,,"00,1,+99999,9,99,9",,,"00,99,1,00,1,00,1,99999,9,00,1,00,1","0516,9","01,9",,"240,M,+0270,1","240,N,+0161,1","99999,9,10154,1","2,1,008,1,+004,1",,"SYN100AAXX  09061 76458 32960 03202 10205 20178 30154 40158 52008 90540 333 10270 20161 30/// 55086 58004;","Q01  00002PRCP06"
"76458099999","2005-01-09T09:00:00","4","23.2","-106.4166666","4.0","COLONIA JUAN CARRASCO MAZATLAN SIN., MX","FM-12","99999","V020","100,1,N,0010,1","22000,1,9,N","012000,1,N,1","+0192,1","+0174,1","10154,1","06,0000,9,1",,,,,"00,1,+99999,9,99,9",,,"00,99,1,00,1,00,1,99999,9,00,1,00,1",,"01,9",,,,"99999,9,10150,1","7,1,004,1,+014,1",,"SYN082AAXX  09091 76458 32962 01001 10192 20174 30150 40154 57004 90855 333 30/// 58014;","Q01  00002PRCP06"
"76458099999","2005-01-09T12:00:00","4","23.2","-106.4166666","4.0","COLONIA JUAN CARRASCO MAZATLAN SIN., MX","FM-12","99999","V020","999,9,C,0000,1","22000,1,9,N","012000,1,N,1","+0179,1","+0166,1","10157,1","06,0000,9,1","24,0000,9,1",,,,"00,1,+99999,9,99,9",,,"00,99,1,00,1,00,1,99999,9,00,1,00,1",,"01,9","999,+0144,1","120,N,+0172,1","240,M,+0270,1","99999,9,10152,1","3,1,002,1,+025,1",,"SYN100AAXX  09121 76458 32962 00000 10179 20166 30152 40157 53002 91158 333 10270 20172 30144 58025 70000;","Q01  00002PRCP06Q02  00002PRCP24"
"76458099999","2005-01-09T18:00:00","4","23.2","-106.4166666","4.0","COLONIA JUAN CARRASCO MAZATLAN SIN., MX","FM-12","99999","V020","160,1,N,0030,1","06000,1,9,N","020000,1,N,1","+0245,1","+0217,1","10180,1","06,0000,9,1",,,,,"05,1,+06000,1,00,1",,,"05,99,1,00,1,00,1,99999,9,00,1,06,1",,"01,9",,"120,M,+0270,1","240,N,+0160,1","99999,9,10175,1","2,1,012,1,+013,1",,"SYN106AAXX  09181 76458 32970 51603 10245 20217 30175 40180 52012 80006 91745 333 10270 20160 30/// 58013 85070;","Q01  00002PRCP06"
"76458099999","2005-01-09T21:00:00","4","23.2","-106.4166666","4.0","COLONIA JUAN CARRASCO MAZATLAN SIN., MX","FM-12","99999","V020","250,1,N,0030,1","06000,1,9,N","020000,1,N,1","+0246,1","+0203,1","10165,1","06,0000,9,1",,,,,"05,1,+06000,1,00,1",,,"05,99,1,00,1,99,9,99999,9,99,9,01,1",,"01,9",,,,"99999,9,10161,1","7,1,014,1,+021,1",,"SYN094AAXX  09211 76458 32970 52503 10246 20203 30161 40165 57014 80//1 92040 333 30/// 58021 85070;","Q01  00002PRCP06"
"76458099999","2005-01-10T18:00:00","4","23.2","-106.4166666","4.0","COLONIA JUAN CARRASCO MAZATLAN SIN., MX","FM-12","99999","V020","120,1,N,0020,1","03600,1,9,N","014000,1,N,1","+0248,1","+0193,1","10163,1","06,0000,9,1",,,,,"07,1,+03600,1,04,1",,,"07,99,1,07,1,00,1,99999,9,01,1,00,1",,"01,9",,"120,M,+0260,1","240,N,+0183,1","99999,9,10158,1","0,1,001,1,-017,1",,"SYN112AAXX  10181 76458 32964 71202 10248 20193 30158 40163 50001 87010 91740 333 10260 20183 30/// 56090 59017 87462;","Q01  00002PRCP06"
"76458099999","2005-01-10T21:00:00","4","23.2","-106.4166666","4.0","COLONIA JUAN CARRASCO MAZATLAN SIN., MX","FM-12","99999","V020","270,1,N,0030,1","06000,1,9,N","016000,1,N,1","+0254,1","+0118,1","10130,1","06,0000,9,1",,,,,"06,1,+06000,1,00,1",,,"06,99,1,00,1,99,9,99999,9,99,9,01,1",,,,,,"99999,9,10126,1","7,1,032,1,-035,1",,"SYN088AAXX  10211 76458 32966 62703 10254 20118 30126 40130 57032 80//1 92045 333 59035 86070;","Q01  00002PRCP06"
"76458099999","2005-01-11T06:00:00","4","23.2","-106.4166666","4.0","COLONIA JUAN CARRASCO MAZATLAN SIN., MX","FM-12","99999","V020","340,1,N,0030,1","22000,1,9,N","008000,1,N,1","+0205,1","+0185,1","10132,1","06,0000,9,1",,,,,,,,"04,99,1,00,1,00,1,99999,9,00,1,06,1","0234,9","01,9",,"240,M,+0270,1","240,N,+0183,1","99999,9,10127,1","2,1,003,1,-034,1",,"SYN124AAXX  11061 76458 32958 43403 10205 20185 30127 40132 52003 80006 90540 333 10270 20183 30/// 55039 2//// 56//0 59034 84070;","Q01  00002PRCP06"
"76458099999","2005-01-11T09:00:00","4","23.2","-106.4166666","4.0","COLONIA JUAN CARRASCO MAZATLAN SIN., MX","FM-12","99999","V020","320,1,N,0010,1","22000,1,9,N","008000,1,N,1","+0196,1","+0175,1","10128,1","06,0000,9,1",,,,,"00,1,+99999,9,99,9",,,"00,99,1,00,1,00,1,99999,9,00,1,00,1",,"01,9",,,,"99999,9,10124,1","7,1,004,1,-032,1",,"SYN082AAXX  11091 76458 32958 03201 10196 20175 30124 40128 57004 90855 333 30/// 59032;","Q01  00002PRCP06"
"76458099999","2005-01-11T15:00:00","4","23.2","-106.4166666","4.0","COLONIA JUAN CARRASCO MAZATLAN SIN., MX","FM-12","99999","V020","340,1,N,0020,1","22000,1,9,N","014000,1,N,1","+0182,1","+0161,1","10132,1","06,0000,9,1",,,,,"00,1,+99999,9,99,9",,,"00,99,1,00,1,00,1,99999,9,00,1,00,1",,"01,9",,,,"99999,9,10127,1","2,1,015,1,-030,1",,"SYN082AAXX  11151 76458 32964 03402 10182 20161 30127 40132 52015 91448 333 30/// 59030;","Q01  00002PRCP06"
"76458099999","2005-01-11T18:00:00","4","23.2","-106.4166666","4.0","COLONIA JUAN CARRASCO MAZATLAN SIN., MX","FM-12","99999","V020","130,1,N,0020,1","22000,1,9,N","012000,1,N,1","+0270,1","+0195,1","10130,1","06,0000,9,1",,,,,"01,1,+08700,1,00,1",,,"01,99,1,00,1,00,1,99999,9,00,1,05,1",,"01,9",,"120,M,+0283,1","240,N,+0164,1","99999,9,10126,1","8,1,001,1,-032,1",,"SYN112AAXX  11181 76458 32962 11302 10270 20195 30126 40130 58001 80005 91750 333 10283 20164 30/// 56009 59032 81079;","Q01  00002PRCP06"
"76458099999","2005-01-12T00:00:00","4","23.2","-106.4166666","4.0","COLONIA JUAN CARRASCO MAZATLAN SIN., MX","FM-12","99999","V020","270,1,N,0040,1","22000,1,9,N","020000,1,N,1","+0250,1","+0200,1","10099,1","06,0000,9,1","24,0000,9,1",,,,,,,"02,99,1,00,1,00,1,99999,9,00,1,06,1",,"01,9",,"120,M,+0295,1","180,N,+0164,1","99999,9,10094,1","7,1,011,1,-029,1",,"SYN124AAXX  12001 76458 32970 22704 10250 20200 30094 40099 57011 80006 92348 333 10295 20164 30/// 50211 56//0 59029 70000 82070;","Q01  00002PRCP06"
"76458099999","2005-01-12T03:00:00","4","23.2","-106.4166666","4.0","COLONIA JUAN CARRASCO MAZATLAN SIN., MX","FM-12","99999","V020","350,1,N,0010,1","22000,1,9,N","010000,1,N,1","+0224,1","+0200,1","10112,1","06,0000,9,1",,,,,"00,1,+99999,9,99,9",,,"00,99,1,00,1,00,1,99999,9,00,1,00,1",,"01,9",,,,"99999,9,10107,1","2,1,013,1,-017,1",,"SYN082AAXX  12031 76458 32960 03501 10224 20200 30107 40112 52013 90245 333 30/// 59017;","Q01  00002PRCP06"
"76458099999","2005-01-12T06:00:00","4","23.2","-106.4166666","4.0","COLONIA JUAN CARRASCO MAZATLAN SIN., MX","FM-12","99999","V020","999,9,C,0000,1","22000,1,9,N","010000,1,N,1","+0205,1","+0192,1","10113,1","06,0000,9,1",,,,,"00,1,+99999,9,99,9",,,"00,99,1,00,1,00,1,99999,9,00,1,00,1","0540,9","01,9",,"240,M,+0291,1","240,N,+0164,1","99999,9,10109,1","2,1,002,1,-018,1",,"SYN100AAXX  12061 76458 32960 00000 10205 20192 30109 40113 52002 90545 333 10291 20164 30/// 55090 59018;","Q01  00002PRCP06"
"76458099999","2005-01-12T12:00:00","4","23.2","-106.4166666","4.0","COLONIA JUAN CARRASCO MAZATLAN SIN., MX","FM-12","99999","V020","090,1,N,0020,1","22000,1,9,N","010000,1,N,1","+0182,1","+0173,1","10110,1","06,0000,9,1","24,0000,9,1",,,,"00,1,+99999,9,99,9",,,"00,99,1,00,1,00,1,99999,9,00,1,00,1",,"01,9","999,+0164,1","120,N,+0178,1","240,M,+0279,1","99999,9,10105,1","7,1,011,1,-007,1",,"SYN100AAXX  12121 76458 32960 00902 10182 20173 30105 40110 57011 91139 333 10279 20178 30164 59007 70000;","Q01  00002PRCP06Q02  00002PRCP24"
"76458099999","2005-01-13T03:00:00","4","23.2","-106.4166666","4.0","COLONIA JUAN CARRASCO MAZATLAN SIN., MX","FM-12","99999","V020","360,1,N,0020,1","22000,1,9,N","008000,1,N,1","+0218,1","+0176,1","10124,1","06,0000,9,1",,,,,"00,1,+99999,9,99,9",,,"00,99,1,00,1,00,1,99999,9,00,1,00,1",,"01,9",,,,"99999,9,10119,1","3,1,003,1,+012,1",,"SYN082AAXX  13031 76458 32958 03602 10218 20176 30119 40124 53003 90235 333 30/// 58012;","Q01  00002PRCP06"
"76458099999","2005-01-13T06:00:00","4","23.2","-106.4166666","4.0","COLONIA JUAN CARRASCO MAZATLAN SIN., MX","FM-12","99999","V020","310,1,N,0030,1","22000,1,9,N","008000,1,N,1","+0196,1","+0152,1","10131,1","06,0000,9,1",,,,,"00,1,+99999,9,99,9",,,"00,99,1,00,1,00,1,99999,9,00,1,00,1","0432,9","01,9",,"240,M,+0271,1","240,N,+0175,1","99999,9,10126,1","2,1,007,1,+999,9",,"SYN106AAXX  13061 76458 32958 03103 10196 20152 30126 40131 52007 90530 333 10271 20175 30/// 55072 2//// 58017;","Q01  00002PRCP06"
"76458099999","2005-01-13T12:00:00","4","23.2","-106.4166666","4.0","COLONIA JUAN CARRASCO MAZATLAN SIN., MX","FM-12","99999","V020","320,1,N,0020,1","22000,1,9,N","008000,1,N,1","+0170,1","+0141,1","10127,1","06,0000,9,1","24,0000,9,1",,,,"02,1,+02400,1,03,1",,,"02,99,1,02,1,00,1,99999,9,05,1,00,1",,"01,9","999,+0152,1","120,N,+0165,1","240,M,+0271,1","99999,9,10123,1","4,1,000,1,+018,1",,"SYN118AAXX  13121 76458 32958 23202 10170 20141 30123 40127 54001 82050 91132 333 10271 20165 30152 56090 58018 70000 82358;","Q01  00002PRCP06"
"76458099999","2005-01-13T18:00:00","4","23.2","-106.4166666","4.0","COLONIA JUAN CARRASCO MAZATLAN SIN., MX","FM-12","99999","V020","250,1,N,0010,1","22000,1,9,N","016000,1,N,1","+0231,1","+0179,1","10155,1","06,0000,9,1",,,,,"01,1,+00660,1,08,1",,,"01,99,1,01,1,02,1,00800,1,00,1,00,1",,"01,9",,"120,M,+0250,1","240,N,+0159,1","99999,9,10150,1","0,1,008,1,+015,1",,"SYN112AAXX  13181 76458 32566 12501 10231 20179 30150 40155 50008 81200 91750 333 10250 20159 30/// 56300 58015 81822;","Q01  00002PRCP06"
"76458099999","2005-01-14T03:00:00","4","23.2","-106.4166666","4.0","COLONIA JUAN CARRASCO MAZATLAN SIN., MX","FM-12","99999","V020","330,1,N,0020,1","22000,1,9,N","008000,1,N,1","+0216,1","+0171,1","10141,1","06,0000,9,1",,,,,"00,1,+99999,9,99,9",,,"00,99,1,00,1,00,1,99999,9,00,1,00,1",,"01,9",,,,"99999,9,10136,1","2,1,010,1,+018,1",,"SYN082AAXX  14031 76458 32958 03302 10216 20171 31037 40141 52010 90235 333 30/// 58018;","Q01  00002PRCP06"
"76458099999","2005-01-14T06:00:00","4","23.2","-106.4166666","4.0","COLONIA JUAN CARRASCO MAZATLAN SIN., MX","FM-12","99999","V020","310,1,N,0010,1","22000,1,9,N","008000,1,N,1","+0196,1","+0159,1","10154,1","06,0000,9,1",,,,,"00,1,+99999,9,99,9",,,"00,99,1,00,1,00,1,99999,9,00,1,00,1","0558,9","01,9",,"240,M,+0261,1","240,N,+0159,1","99999,9,10149,1","2,1,012,1,+999,9",,"SYN106AAXX  14061 76458 32958 03101 10196 20159 30149 40154 52012 90530 333 10261 20159 30/// 55093 2//// 58023;","Q01  00002PRCP06"
"76458099999","2005-01-14T09:00:00","4","23.2","-106.4166666","4.0","COLONIA JUAN CARRASCO MAZATLAN SIN., MX","FM-12","99999","V020","999,9,C,0000,1","22000,1,9,N","008000,1,N,1","+0184,1","+0156,1","10150,1","06,0000,9,1",,,,,"00,1,+99999,9,99,9",,,"00,99,1,00,1,00,1,99999,9,00,1,00,1",,"01,9",,,,"99999,9,10145,1","7,1,004,1,-023,1",,"SYN082AAXX  14091 76458 32958 00000 10184 20156 30145 40150 57004 90855 333 30/// 59023;","Q01  00002PRCP06"
"76458099999","2005-01-14T18:00:00","4","23.2","-106.4166666","4.0","COLONIA JUAN CARRASCO MAZATLAN SIN., MX","FM-12","99999","V020","260,1,N,0020,1","99999,9,9,N","020000,1,N,1","+0253,1","+0165,1","10177,1","06,0000,9,1",,,,,"04,1,+01800,1,03,1",,,"06,99,1,04,1,00,1,99999,9,05,1,06,1",,"01,9",,"120,M,+0265,1","240,N,+0152,1","99999,9,10172,1","2,1,012,1,+022,1",,"SYN118AAXX  14181 76458 32970 62602 10253 20165 30172 40177 52012 84056 91748 333 10265 20152 30/// 56/00 58022 84356 82070;","Q01  00002PRCP06"
"76458099999","2005-01-14T21:00:00","4","23.2","-106.4166666","4.0","COLONIA JUAN CARRASCO MAZATLAN SIN., MX","FM-12","99999","V020","270,1,N,0040,1","22000,1,9,N","018000,1,N,1","+0250,1","+0173,1","10155,1","06,0000,9,1",,,,,"01,1,+03600,1,03,1",,,"02,99,1,01,1,00,1,02250,1,03,1,06,1",,"01,9",,,,"99999,9,10151,1","7,1,021,1,+023,1",,"SYN106AAXX  14211 76458 32868 22704 10250 20173 30151 40155 57021 81036 92045 333 30/// 56/99 58023 81362 81070;","Q01  00002PRCP06"
"76458099999","2005-01-15T03:00:00","4","23.2","-106.4166666","4.0","COLONIA JUAN CARRASCO MAZATLAN SIN., MX","FM-12","99999","V020","310,1,N,0020,1","22000,1,9,N","008000,1,N,1","+0220,1","+0178,1","10173,1","06,0000,9,1",,,,,"00,1,+99999,9,99,9",,,"00,99,1,00,1,00,1,99999,9,00,1,00,1",,"01,9",,,,"99999,9,10169,1","2,1,024,1,+032,1",,"SYN082AAXX  15031 76458 32958 03102 10220 20178 30169 40173 52024 90535 333 30/// 58032;","Q01  00002PRCP06"
"76458099999","2005-01-15T06:00:00","4","23.2","-106.4166666","4.0","COLONIA JUAN CARRASCO MAZATLAN SIN., MX","FM-12","99999","V020","999,9,C,0000,1","22000,1,9,N","008000,1,N,1","+0190,1","+0169,1","10185,1","06,0000,9,1",,,,,"00,1,+99999,9,99,9",,,"00,99,1,00,1,00,1,99999,9,00,1,00,1","0492,9","01,9",,"240,M,+0270,1","240,N,+0152,1","99999,9,10181,1","2,1,012,1,+999,9",,"SYN106AAXX  15061 76458 32958 00000 10190 20169 30181 40185 52012 90530 333 10270 20152 30/// 55082 2//// 58032;","Q01  00002PRCP06"
"76458099999","2005-01-15T15:00:00","4","23.2","-106.4166666","4.0","COLONIA JUAN CARRASCO MAZATLAN SIN., MX","FM-12","99999","V020","340,1,N,0020,1","22000,1,9,N","010000,1,N,1","+0180,1","+0164,1","10190,1","06,0000,9,1",,,,,"03,1,+01800,1,03,1",,,"04,99,1,03,1,00,1,99999,9,05,1,06,1",,"01,9",,,,"99999,9,10185,1","2,1,006,1,+025,1",,"SYN106AAXX  15151 76458 32960 43402 10180 20164 30185 40190 52006 83056 91448 333 30/// 56/00 58025 83356 81070;","Q01  00002PRCP06"
"76458099999","2005-01-15T18:00:00","4","23.2","-106.4166666","4.0","COLONIA JUAN CARRASCO MAZATLAN SIN., MX","FM-12","99999","V020","250,1,N,0020,1","00660,1,C,N","016000,1,N,1","+0235,1","+0186,1","10209,1","06,0000,9,1",,,,,"05,1,+00660,1,08,1",,,"07,99,1,05,1,02,1,00800,1,05,1,00,1",,"01,9",,"120,M,+0253,1","240,N,+0154,1","99999,9,10204,1","2,1,019,1,+032,1",,"SYN124AAXX  15181 76458 32566 72502 10235 20186 30204 40209 52019 85250 91745 333 10253 20154 30/// 5670/ 57875 58032 85822 82356;","Q01  00002PRCP06"
"76458099999","2005-01-16T06:00:00","4","23.2","-106.4166666","4.0","COLONIA JUAN CARRASCO MAZATLAN SIN., MX","FM-12","99999","V020","330,1,N,0020,1","22000,1,9,N","010000,1,N,1","+0191,1","+0165,1","10174,1","06,0000,9,1",,,,,,,,"01,99,1,01,1,00,1,02250,1,03,1,00,1","0354,9","01,9",,"240,M,+0260,1","240,N,+0154,1","99999,9,10169,1","3,1,002,1,+012,1",,"SYN118AAXX  16061 76458 32860 13302 10191 20165 30169 40174 53002 81030 90540 333 10260 20154 30/// 55059 56/6/ 58012 81362;","Q01  00002PRCP06"
"76458099999","2005-01-16T09:00:00","4","23.2","-106.4166666","4.0","COLONIA JUAN CARRASCO MAZATLAN SIN., MX","FM-12","99999","V020","999,9,C,0000,1","22000,1,9,N","010000,1,N,1","+0182,1","+0157,1","10157,1","06,0000,9,1",,,,,"00,1,+99999,9,99,9",,,"00,99,1,00,1,00,1,99999,9,00,1,00,1",,,,,,"99999,9,10159,1",,,"SYN080AAXX  16091 76458 32960 00000 10182 20157 30159 40157010 90853 333 30/ // 59014;","Q01  00002PRCP06"
"76458099999","2005-01-16T12:00:00","4","23.2","-106.4166666","4.0","COLONIA JUAN CARRASCO MAZATLAN SIN., MX","FM-12","99999","V020","999,9,C,0000,1","22000,1,9,N","010000,1,N,1","+0170,1","+0154,1","10161,1","06,0000,9,1","24,0000,9,1",,,,"00,1,+99999,9,99,9",,,"00,99,1,00,1,00,1,99999,9,00,1,00,1",,"01,9","999,+0132,1","120,N,+0164,1","240,M,+0260,1","99999,9,10156,1","7,1,002,1,-015,1",,"SYN100AAXX  16121 76458 32960 00000 10170 20154 30156 40161 57002 91148 333 10260 20164 30132 59015 70000;","Q01  00002PRCP06Q02  00002PRCP24"
"76458099999","2005-01-16T15:00:00","4","23.2","-106.4166666","4.0","COLONIA JUAN CARRASCO MAZATLAN SIN., MX","FM-12","99999","V020","110,1,N,0010,1","22000,1,9,N","006000,1,N,1","+0175,1","+0165,1","10169,1","06,0000,9,1",,,,,"02,1,+06000,1,00,1",,,"02,99,1,00,1,00,1,99999,9,00,1,06,1",,"01,9",,,,"99999,9,10165,1","2,1,009,1,-020,1",,"SYN100AAXX  16151 76458 32956 21101 10175 20165 30165 40169 52009 80006 91448 333 30/// 56//0 59020 82070;","Q01  00002PRCP06"
"76458099999","2005-01-16T18:00:00","4","23.2","-106.4166666","4.0","COLONIA JUAN CARRASCO MAZATLAN SIN., MX","FM-12","99999","V020","150,1,N,0020,1","22000,1,9,N","020000,1,N,1","+9999,9","+9999,9","99999,9","06,0000,9,1",,,,,,,,"02,99,1,99,9,99,9,99999,9,99,9,99,9",,"01,9",,"120,M,+0251,1","240,N,+0162,1",,"9,9,999,9,-023,1",,"SYN111AAXX  16181 76458 32970 21502 1240 20181 30181 40185 52016 80006 91745 333 10251 20162 30/// 56//0 59023 82070;","Q01  00002PRCP06"
"76458099999","2005-01-16T21:00:00","4","23.2","-106.4166666","4.0","COLONIA JUAN CARRASCO MAZATLAN SIN., MX","FM-12","99999","V020","250,1,N,0040,1","22000,1,9,N","020000,1,N,1","+0246,1","+0200,1","10148,1","06,0000,9,1",,,,,"00,1,+99999,9,99,9",,,"00,99,1,00,1,00,1,99999,9,00,1,00,1",,"01,9",,,,"99999,9,10143,1","7,1,038,1,-035,1",,"SYN082AAXX  16211 76458 32970 02504 10246 20200 30143 40148 57038 92035 333 30/// 59035;","Q01  00002PRCP06"
"76458099999","2005-01-17T00:00:00","4","23.2","-106.4166666","4.0","COLONIA JUAN CARRASCO MAZATLAN SIN., MX","FM-12","99999","V020","300,1,N,0030,1","22000,1,9,N","020000,1,N,1","+0246,1","+0200,1","10143,1","06,0000,9,1","24,0000,9,1",,,,"00,1,+99999,9,99,9",,,"00,99,1,00,1,00,1,99999,9,00,1,00,1",,"01,9",,"120,M,+0275,1","180,N,+0162,1","99999,9,10139,1","6,1,004,1,-027,1",,"SYN106AAXX  17001 76458 32970 03003 10246 20200 30139 40143 56004 92330 333 10275 20162 30/// 50201 59027 70000;","Q01  00002PRCP06Q02  00002PRCP24"
"76458099999","2005-01-17T06:00:00","4","23.2","-106.4166666","4.0","COLONIA JUAN CARRASCO MAZATLAN SIN., MX","FM-12","99999","V020","999,9,C,0000,1","22000,1,9,N","010000,1,N,1","+0205,1","+0189,1","10161,1","06,0000,9,1",,,,,"00,1,+99999,9,99,9",,,"00,99,1,00,1,00,1,99999,9,00,1,00,1","0498,9","01,9",,"240,M,+0275,1","240,N,+0162,1","99999,9,10157,1","2,1,014,1,-012,1",,"SYN100AAXX  17061 76458 32960 00000 10205 20189 30157 40161 52014 90545 333 10275 20162 30/// 55083 59012;","Q01  00002PRCP06"
"76458099999","2005-01-17T09:00:00","4","23.2","-106.4166666","4.0","COLONIA JUAN CARRASCO MAZATLAN SIN., MX","FM-12","99999","V020","130,1,N,0010,1","22000,1,9,N","010000,1,N,1","+0200,1","+0178,1","10165,1","06,0000,9,1",,,,,"00,1,+99999,9,99,9",,,"00,99,1,00,1,00,1,99999,9,00,1,00,1",,"01,9",,,,"99999,9,10160,1","2,1,003,1,+001,1",,"SYN082AAXX  17091 76458 32960 01301 10200 20178 30160 40165 52003 90848 333 30/// 58001;","Q01  00002PRCP06"
"76458099999","2005-01-17T12:00:00","4","23.2","-106.4166666","4.0","COLONIA JUAN CARRASCO MAZATLAN SIN., MX","FM-12","99999","V020","120,1,N,0010,1","22000,1,9,N","010000,1,N,1","+0188,1","+0179,1","10161,1","06,0000,9,1","24,0000,9,1",,,,"00,1,+99999,9,99,9",,,"00,99,1,00,1,00,1,99999,9,00,1,00,1",,"01,9","999,+0171,1","120,N,+0180,1","240,M,+0275,1","99999,9,10156,1","7,1,002,1,-001,1",,"SYN100AAXX  17121 76458 32960 01201 10188 20179 30156 40161 57002 91138 333 10275 20180 30171 59001 70000;","Q01  00002PRCP06Q02  00002PRCP24"
"76458099999","2005-01-17T18:00:00","4","23.2","-106.4166666","4.0","COLONIA JUAN CARRASCO MAZATLAN SIN., MX","FM-12","99999","V020","270,1,N,0030,1","22000,1,9,N","016000,1,N,1","+0245,1","+0208,1","10177,1","06,0000,9,1",,,"4,1,06,1","4,1,06,1","01,1,+08700,1,00,1",,,"02,99,1,00,1,00,1,99999,9,00,1,02,1",,"01,9",,"120,M,+0262,1","240,N,+0175,1","99999,9,10173,1","2,1,007,1,-007,1","05,1","SYN118AAXX  17181 76458 31966 22703 10245 20208 30173 40177 52007 70544 80002 91756 333 10262 20175 30/// 56009 59007 81079;","Q01  00002PRCP06"
"76458099999","2005-01-17T21:00:00","4","23.2","-106.4166666","4.0","COLONIA JUAN CARRASCO MAZATLAN SIN., MX","FM-12","99999","V020","270,1,N,0030,1","06000,1,9,N","016000,1,N,1","+0244,1","+0216,1","10161,1","06,0000,9,1",,,,,"07,1,+06000,1,02,1",,,"07,99,1,00,1,99,9,99999,9,99,9,07,1",,"01,9",,,,"99999,9,10156,1","7,1,017,1,+999,9",,"SYN088AAXX  17211 76458 32966 72703 10244 20216 30156 40161 57017 80//7 92050 333 30/// 87270;","Q01  00002PRCP06"
"76458099999","2005-01-18T00:00:00","4","23.2","-106.4166666","4.0","COLONIA JUAN CARRASCO MAZATLAN SIN., MX","FM-12","99999","V020","280,1,N,0040,1","06000,1,9,N","016000,1,N,1","+0236,1","+0201,1","10156,1","06,0000,9,1","24,0000,9,1",,,,"07,1,+06000,1,02,1",,,"07,99,1,00,1,99,9,99999,9,99,9,07,1",,"01,9",,"120,M,+0265,1","180,N,+0175,1","99999,9,10151,1","7,1,005,1,+012,1",,"SYN118AAXX  18001 76458 32966 72804 10236 20201 30151 40156 57005 80//7 92340 333 10265 20175 30/// 50251 58012 70000 87270;","Q01  00002PRCP06"
"76458099999","2005-01-18T09:00:00","4","23.2","-106.4166666","4.0","COLONIA JUAN CARRASCO MAZATLAN SIN., MX","FM-12","99999","V020","999,9,C,0000,1","22000,1,9,N","008000,1,N,1","+0200,1","+0188,1","10155,1","06,0000,9,1",,,,,"00,1,+99999,9,99,9",,,"00,99,1,00,1,00,1,99999,9,00,1,00,1",,"01,9",,,,"99999,9,10150,1","7,1,005,1,-008,1",,"SYN082AAXX  18091 76458 32958 00000 10200 20188 30150 40155 57005 90855 333 30/// 59008;","Q01  00002PRCP06"
"76458099999","2005-01-18T12:00:00","4","23.2","-106.4166666","4.0","COLONIA JUAN CARRASCO MAZATLAN SIN., MX","FM-12","99999","V020","999,9,C,0000,1","22000,1,9,N","008000,1,N,1","+0198,1","+0183,1","10151,1","06,0000,9,1","24,0000,9,1",,,,"00,1,+99999,9,99,9",,,"00,99,1,00,1,00,1,99999,9,00,1,00,1",,"01,9","999,+0172,1","120,N,+0184,1","240,M,+0265,1","99999,9,10146,1","2,1,002,1,-010,1",,"SYN100AAXX  18121 76458 32958 00000 10198 20183 30146 40151 52002 91150 333 10265 20184 30172 59010 70000;","Q01  00002PRCP06Q02  00002PRCP24"
"76458099999","2005-01-19T03:00:00","4","23.2","-106.4166666","4.0","COLONIA JUAN CARRASCO MAZATLAN SIN., MX","FM-12","99999","V020","350,1,N,0020,1","22000,1,9,N","010000,1,N,1","+0222,1","+0196,1","10161,1","06,0000,9,1",,,,,"03,1,+05400,1,02,1",,,"03,99,1,00,1,00,1,99999,9,00,1,08,1",,"01,9",,,,"99999,9,10157,1","2,1,008,1,+007,1",,"SYN100AAXX  19031 76458 32960 33502 10222 20196 30157 40161 52008 80008 90245 333 30/// 56//9 58007 83268;","Q01  00002PRCP06"
"76458099999","2005-01-19T06:00:00","4","23.2","-106.4166666","4.0","COLONIA JUAN CARRASCO MAZATLAN SIN., MX","FM-12","99999","V020","330,1,N,0020,1","22000,1,9,N","010000,1,N,1","+0209,1","+0184,1","10161,1","06,0000,9,1",,,,,"03,1,+05400,1,01,1",,,"03,99,1,00,1,00,1,99999,9,00,1,09,1",,"01,9","999,+0157,1","240,M,+0270,1","240,N,+0162,1","99999,9,10157,1","0,1,000,1,+002,1",,"SYN112AAXX  19061 76458 32960 33302 10209 20184 30157 40161 50000 80009 90540 333 10270 20162 30/// 56//9 58002 83168;","Q01  00002PRCP06"
"76458099999","2005-01-19T12:00:00","4","23.2","-106.4166666","4.0","COLONIA JUAN CARRASCO MAZATLAN SIN., MX","FM-12","99999","V020","999,9,C,0000,1","22000,1,9,N","010000,1,N,1","+0198,1","+0183,1","10152,1","06,0000,9,1","24,0000,9,1",,,,"04,1,+02400,1,02,1",,,"04,99,1,00,1,00,1,99999,9,00,1,08,1",,"01,9","999,+0184,1","120,N,+0196,1","240,M,+0270,1","99999,9,10148,1","7,1,004,1,+002,1",,"SYN118AAXX  19121 76458 32960 40000 10198 20183 30148 40152 57004 80008 91135 333 10270 20196 30184 56009 58002 70000 84258;","Q01  00002PRCP06"
"76458099999","2005-01-19T21:00:00","4","23.2","-106.4166666","4.0","COLONIA JUAN CARRASCO MAZATLAN SIN., MX","FM-12","99999","V020","270,1,N,0030,1","99999,9,9,N","010000,1,N,1","+0250,1","+0213,1","10165,1","06,0000,9,1",,,,,"03,1,+99999,9,04,1",,,"07,99,1,07,1,00,1,99999,9,05,1,00,1",,"01,9",,,,"99999,9,10160,1","7,1,009,1,+004,1",,"SYN106AAXX  19211 76458 32960 72703 10250 20213 30160 40165 57009 87050 92045 333 30/// 56/0/ 58004 83452 84356;","Q01  00002PRCP06"
"76458099999","2005-01-20T00:00:00","4","23.2","-106.4166666","4.0","COLONIA JUAN CARRASCO MAZATLAN SIN., MX","FM-12","99999","V020","340,1,N,0030,1","99999,9,9,N","010000,1,N,1","+0247,1","+0196,1","10160,1","06,0000,9,1","24,0000,9,1",,,,,,,"08,99,1,08,1,00,1,99999,9,05,1,00,1",,"01,9",,"120,M,+0278,1","180,N,+0170,1","99999,9,10155,1","7,1,005,1,+010,1",,"SYN124AAXX  20001 76458 32960 83403 10247 20196 30155 40160 57005 88050 92345 333 10278 20170 30/// 56/0/ 50081 58010 70000 88356;","Q01  00002PRCP06"
"76458099999","2005-01-20T03:00:00","4","23.2","-106.4166666","4.0","COLONIA JUAN CARRASCO MAZATLAN SIN., MX","FM-12","99999","V020","320,1,N,0030,1","05400,1,9,N","010000,1,N,1","+0237,1","+0207,1","10161,1","06,0000,9,1",,,,,"06,1,+05400,1,02,1",,,"06,99,1,00,1,00,1,99999,9,00,1,08,1",,"01,9",,,,"99999,9,10157,1","2,1,002,1,+000,1",,"SYN100AAXX  20031 76458 32960 63203 10237 20207 30157 40161 52002 80008 90245 333 30/// 56//9 58000 86268;","Q01  00002PRCP06"
"76458099999","2005-01-20T21:00:00","4","23.2","-106.4166666","4.0","COLONIA JUAN CARRASCO MAZATLAN SIN., MX","FM-12","99999","V020","280,1,N,0050,1","02700,1,9,N","018000,1,N,1","+0245,1","+0188,1","10155,1","06,0000,9,1",,,"4,1,03,1","2,1,03,1","07,1,+02700,1,03,1",,,"07,99,1,07,1,00,1,99999,9,03,1,00,1",,"01,9",,,,"99999,9,10151,1","7,1,026,1,-010,1","03,1","SYN106AAXX  20211 76458 31968 72805 10245 20188 30151 40155 57026 70342 87030 92058 333 30/// 56090 59010 87359;","Q01  00002PRCP06"
"76458099999","2005-01-21T00:00:00","4","23.2","-106.4166666","4.0","COLONIA JUAN CARRASCO MAZATLAN SIN., MX","FM-12","99999","V020","270,1,N,0050,1","99999,9,9,N","020000,1,N,1","+0245,1","+0185,1","10152,1","06,0000,9,1","24,9999,9,9",,,,,,,"07,99,1,07,1,00,1,99999,9,05,1,00,1",,"01,9",,"120,M,+0279,1","180,N,+0194,1","99999,9,10147,1","5,1,002,1,-008,1",,"SYN124AAXX  21001 76458 32970 72705 10245 20185 30147 40152 55002 87050 92340 333 10279 20194 30/// 50341 56090 59008 79999 87359;","Q01  00002PRCP06Q02  99992PRCP24"
"76458099999","2005-01-21T03:00:00","4","23.2","-106.4166666","4.0","COLONIA JUAN CARRASCO MAZATLAN SIN., MX","FM-12","99999","V020","330,1,N,0030,1","22000,1,9,N","010000,1,N,1","+0231,1","+0194,1","10156,1","06,0000,9,1",,,,,"04,1,+05400,1,02,1",,,"04,99,1,00,1,00,1,99999,9,00,1,07,1",,"01,9",,,,"99999,9,10151,1","3,1,004,1,-006,1",,"SYN100AAXX  21031 76458 32960 43303 10231 20194 30151 40156 53004 80007 90245 333 30/// 56//9 59006 84268;","Q01  00002PRCP06"
"76458099999","2005-01-21T06:00:00","4","23.2","-106.4166666","4.0","COLONIA JUAN CARRASCO MAZATLAN SIN., MX","FM-12","99999","V020","270,1,N,0020,1","03600,1,9,N","010000,1,N,1","+0222,1","+0182,1","10152,1","03,9999,9,9","06,9999,9,9",,"5,1,06,1","0,1,06,1","01,1,+00510,1,06,1","03,1,+03600,1,03,1",,"07,99,1,01,1,04,1,00450,1,03,1,08,1","0168,9","01,9",,"240,M,+0279,1","240,N,+0194,1","99999,9,10148,1","8,1,003,1,-006,1","03,1","SYN148AAXX  21061 76458 01460 72702 10222 20182 30148 40152 58003 69901 70350 81438 90545 333 10279 20194 30/// 55028 56599 59006 69907 81617 83362 83268;","Q01  99992PRCP03"
"76458099999","2005-01-21T09:00:00","4","23.2","-106.4166666","4.0","COLONIA JUAN CARRASCO MAZATLAN SIN., MX","FM-12","99999","V020","340,1,N,0030,1","02400,1,9,N","010000,1,N,1","+0230,1","+0191,1","10152,1","06,0000,9,1",,,,,"07,1,+02400,1,03,1",,,"07,99,1,99,9,00,1,99999,9,05,1,00,1",,"01,9",,,,"99999,9,10148,1","4,1,000,1,-005,1",,"SYN100AAXX  21091 76458 32960 73403 10230 20191 30148 40152 54000 80050 90858 333 30/// 56090 59005 87358;","Q01  00002PRCP06"
"76458099999","2005-01-21T18:00:00","4","23.2","-106.4166666","4.0","COLONIA JUAN CARRASCO MAZATLAN SIN., MX","FM-12","99999","V020","140,1,N,0020,1","02400,1,9,N","018000,1,N,1","+0258,1","+0178,1","10170,1","06,0000,9,1",,,,,"05,1,+02400,1,03,1",,,"05,99,1,05,1,00,1,99999,9,03,1,00,1",,"01,9",,"120,M,+0280,1","240,N,+0204,1","99999,9,10166,1","0,1,007,1,-011,1",,"SYN112AAXX  21181 76458 32968 51402 10258 20178 30166 40170 50007 85030 91750 333 10280 20204 30/// 56/0/ 59011 85358;","Q01  00002PRCP06"
"76458099999","2005-01-21T21:00:00","4","23.2","-106.4166666","4.0","COLONIA JUAN CARRASCO MAZATLAN SIN., MX","FM-12","99999","V020","240,1,N,0030,1","03600,1,9,N","019000,1,N,1","+0253,1","+0200,1","10150,1","06,0000,9,1",,,,,"02,1,+00660,1,08,1",,,"06,99,1,02,1,02,1,00800,1,05,1,00,1",,"01,9",,,,"99999,9,10145,1","7,1,020,1,-006,1",,"SYN112AAXX  21211 76458 32569 62403 10253 20200 30145 40150 57020 82250 92045 333 30/// 5610/ 57815 59006 82822 84356;","Q01  00002PRCP06"
"76458099999","2005-01-22T12:00:00","4","23.2","-106.4166666","4.0","COLONIA JUAN CARRASCO MAZATLAN SIN., MX","FM-12","99999","V020","330,1,N,0010,1","22000,1,9,N","010000,1,N,1","+0197,1","+0173,1","10145,1","06,0000,9,1","24,0000,9,1",,,,"00,1,+99999,9,99,9",,,"00,99,1,00,1,00,1,99999,9,00,1,00,1",,"01,9","999,+0182,1","120,N,+0190,1","240,M,+0288,1","99999,9,10141,1","7,1,005,1,-013,1",,"SYN100AAXX  22121 76458 32960 03301 10197 20173 30141 40145 57005 91132 333 10288 20190 30182 59013 70000;","Q01  00002PRCP06Q02  00002PRCP24"
"76458099999","2005-01-22T18:00:00","4","23.2","-106.4166666","4.0","COLONIA JUAN CARRASCO MAZATLAN SIN., MX","FM-12","99999","V020","280,1,N,0010,1","02400,1,9,N","018000,1,N,1","+0244,1","+0178,1","10170,1","06,0000,9,1",,,,,"06,1,+02400,1,03,1",,,"06,99,1,06,1,00,1,99999,9,03,1,00,1",,"01,9",,"120,M,+0256,1","240,N,+0182,1","99999,9,10165,1","1,1,010,1,-001,1",,"SYN112AAXX  22181 76458 32968 62801 10244 20178 30165 40170 51010 86030 91748 333 10256 20182 30/// 56/0/ 59001 86358;","Q01  00002PRCP06"
"76458099999","2005-01-22T21:00:00","4","23.2","-106.4166666","4.0","COLONIA JUAN CARRASCO MAZATLAN SIN., MX","FM-12","99999","V020","300,1,N,0050,1","02400,1,9,N","020000,1,N,1","+0247,1","+0190,1","10152,1","06,0000,9,1",,,,,"07,1,+02400,1,03,1",,,"07,99,1,07,1,00,1,02250,1,05,1,00,1",,"01,9",,,,"99999,9,10147,1","7,1,018,1,+002,1",,"SYN100AAXX  22211 76458 32870 73005 10247 20190 30147 40152 57018 87050 92050 333 30/// 56040 58002 87358;","Q01  00002PRCP06"
"76458099999","2005-01-23T00:00:00","4","23.2","-106.4166666","4.0","COLONIA JUAN CARRASCO MAZATLAN SIN., MX","FM-12","99999","V020","270,1,N,0020,1","02700,1,C,N","020000,1,N,1","+0250,1","+0203,1","10141,1","06,0000,9,1","24,0000,9,1",,,,"05,1,+02700,1,03,1",,,"07,99,1,05,1,00,1,02250,1,05,1,02,1",,"01,9",,"120,M,+0285,1","180,N,+0182,1","99999,9,10136,1","7,1,011,1,-002,1",,"SYN130AAXX  23001 76458 32870 72702 10250 20203 30136 40141 57011 85052 92350 333 10285 20182 30/// 50311 56059 59002 70000 85359 82079;","Q01  00002PRCP06"
"76458099999","2005-01-23T06:00:00","4","23.2","-106.4166666","4.0","COLONIA JUAN CARRASCO MAZATLAN SIN., MX","FM-12","99999","V020","320,1,N,0020,1","09000,1,C,N","010000,1,N,1","+0224,1","+0156,1","10151,1","06,0000,9,1",,,,,"03,1,+03600,1,03,1",,,"07,99,1,03,1,00,1,02250,1,03,1,08,1",,"01,9",,"240,M,+0285,1","240,N,+0182,1","99999,9,10147,1","2,1,005,1,-011,1",,"SYN118AAXX  23061 76458 32860 73202 10224 20156 30147 40151 52005 83038 90545 333 10285 20182 30/// 56/99 59011 83362 84268;","Q01  00002PRCP06"
"76458099999","2005-01-23T09:00:00","4","23.2","-106.4166666","4.0","COLONIA JUAN CARRASCO MAZATLAN SIN., MX","FM-12","99999","V020","340,1,N,0010,1","99999,9,9,N","010000,1,N,1","+0212,1","+0155,1","10147,1","06,0000,9,1",,,,,"03,1,+01800,1,03,1",,,"07,99,1,03,1,00,1,99999,9,05,1,06,1",,"01,9",,,,"99999,9,10143,1","6,1,004,1,-003,1",,"SYN106AAXX  23091 76458 32960 73401 10212 20155 30143 40147 56004 83056 90845 333 30/// 56/00 59003 83356 84268;","Q01  00002PRCP06"
"76458099999","2005-01-23T12:00:00","4","23.2","-106.4166666","4.0","COLONIA JUAN CARRASCO MAZATLAN SIN., MX","FM-12","99999","V020","340,1,N,0020,1","03600,1,9,N","010000,1,N,1","+0203,1","+0158,1","10144,1","06,0000,9,1","24,0000,9,1",,,,"02,1,+00660,1,06,1","03,1,+99999,9,03,1",,"08,99,1,02,1,02,1,00800,1,05,1,06,1",,"01,9","999,+0182,1","120,N,+0200,1","240,M,+0285,1","99999,9,10140,1","6,1,003,1,+003,1",,"SYN136AAXX  23121 76458 32560 83402 10203 20158 30140 40144 56003 82256 91148 333 10285 20200 30182 56600 57666 58003 70000 82622 83354 83268;","Q01  00002PRCP06"
"76458099999","2005-01-23T18:00:00","4","23.2","-106.4166666","4.0","COLONIA JUAN CARRASCO MAZATLAN SIN., MX","FM-12","99999","V020","340,1,N,0030,1","01800,1,C,N","016000,1,N,1","+0233,1","+0184,1","10168,1","06,0000,9,1","12,9999,9,9",,"5,1,06,1","0,1,06,1","02,1,+00660,1,06,1","04,1,+01800,1,03,1",,"08,99,1,02,1,02,1,00800,1,05,1,06,1",,"01,9",,"120,M,+0285,1","240,N,+0200,1","99999,9,10163,1","2,1,019,1,-002,1","03,1","SYN142AAXX  23181 76458 31566 83403 10233 20184 30163 40168 52019 70350 82256 91745 333 10285 20200 30/// 56500 57656 59002 69902 82622 84356 82266;","Q01  00002PRCP06Q02  99992PRCP12"
"76458099999","2005-01-24T06:00:00","4","23.2","-106.4166666","4.0","COLONIA JUAN CARRASCO MAZATLAN SIN., MX","FM-12","99999","V020","999,9,C,0000,1","22000,1,9,N","010000,1,N,1","+0216,1","+0171,1","10172,1","06,0000,9,1",,,,,,,,"04,99,1,04,1,00,1,02250,1,03,1,00,1","0204,9","01,9",,"240,M,+0295,1","240,N,+0180,1","99999,9,10167,1","2,1,016,1,+020,1",,"SYN118AAXX  24061 76458 32860 40000 10216 20171 30167 40172 52016 84030 90540 333 10295 20180 30/// 55034 56/9/ 58020 84362;","Q01  00002PRCP06"
"76458099999","2005-01-24T21:00:00","4","23.2","-106.4166666","4.0","COLONIA JUAN CARRASCO MAZATLAN SIN., MX","FM-12","99999","V020","260,1,N,0040,1","22000,1,9,N","020000,1,N,1","+0268,1","+0199,1","10181,1","06,0000,9,1",,,,,"02,1,+00870,1,08,1",,,"02,99,1,02,1,02,1,00800,1,00,1,00,1",,"01,9",,,,"99999,9,10177,1","7,1,020,1,+031,1",,"SYN100AAXX  24211 76458 32570 22604 10268 20199 30177 40181 57020 82200 92050 333 30/// 56100 58031 82829;","Q01  00002PRCP06"
"76458099999","2005-01-25T00:00:00","4","23.2","-106.4166666","4.0","COLONIA JUAN CARRASCO MAZATLAN SIN., MX","FM-12","99999","V020","330,1,N,0040,1","22000,1,9,N","020000,1,N,1","+0260,1","+0195,1","10173,1","06,0000,9,1","24,0000,9,1",,,,"01,1,+01170,1,03,1",,,"03,99,1,01,1,03,1,00800,1,03,1,09,1",,"01,9","999,+0168,1","120,M,+0305,1","180,N,+0210,1","99999,9,10168,1","6,1,008,1,+026,1",,"SYN136AAXX  25001 76458 32570 33304 10260 20195 30168 40173 56008 81339 92355 333 10305 20210 30/// 50341 56159 58026 70000 81927 81359 81169;","Q01  00002PRCP06"
"76458099999","2005-01-25T06:00:00","4","23.2","-106.4166666","4.0","COLONIA JUAN CARRASCO MAZATLAN SIN., MX","FM-12","99999","V020","340,1,N,0020,1","22000,1,9,N","008000,1,N,1","+0221,1","+0166,1","10174,1","06,0000,9,1",,,,,"00,1,+99999,9,99,9",,,"00,99,1,00,1,00,1,99999,9,00,1,00,1","0462,9","01,9",,"240,M,+0305,1","240,N,+0210,1","99999,9,10170,1","0,1,001,1,+999,9",,"SYN106AAXX  25061 76458 32958 03402 10221 20166 30170 40174 50001 90545 333 10305 20210 30/// 55077 2//// 58003;","Q01  00002PRCP06"
"76458099999","2005-01-25T09:00:00","4","23.2","-106.4166666","4.0","COLONIA JUAN CARRASCO MAZATLAN SIN., MX","FM-12","99999","V020","999,9,C,0000,1","22000,1,9,N","008000,1,N,1","+0210,1","+0170,1","10164,1","06,0000,9,1",,,,,"00,1,+99999,9,99,9",,,"00,99,1,00,1,00,1,99999,9,00,1,00,1",,"01,9",,,,"99999,9,10159,1","7,1,011,1,-001,1",,"SYN082AAXX  25091 76458 32958 00000 10210 20170 30159 40164 57011 90850 333 30/// 59001;","Q01  00002PRCP06"
"76458099999","2005-01-25T15:00:00","4","23.2","-106.4166666","4.0","COLONIA JUAN CARRASCO MAZATLAN SIN., MX","FM-12","99999","V020","999,9,C,0000,1","22000,1,9,N","018000,1,N,1","+0213,1","+0182,1","10172,1","06,0000,9,1",,,,,"01,1,+08700,1,00,1",,,"01,99,1,00,1,00,1,99999,9,00,1,01,1",,"01,9",,,,"99999,9,10168,1","2,1,015,1,-022,1",,"SYN100AAXX  25151 76458 32968 10000 10213 20182 30168 40172 52015 80001 91450 333 30/// 56009 59022 81079;","Q01  00002PRCP06"
"76458099999","2005-01-26T03:00:00","4","23.2","-106.4166666","4.0","COLONIA JUAN CARRASCO MAZATLAN SIN., MX","FM-12","99999","V020","270,1,N,0030,1","22000,1,9,N","010000,1,N,1","+0238,1","+0203,1","10138,1","06,0000,9,1",,,,,"01,1,+03600,1,03,1",,,"01,99,1,01,1,00,1,02250,1,03,1,00,1",,"01,9",,,,"99999,9,10134,1","2,1,010,1,-035,1",,"SYN100AAXX  26031 76458 32860 12703 10238 20203 30134 40138 52010 81030 90245 333 30/// 56/9/ 59035 81362;","Q01  00002PRCP06"
"76458099999","2005-01-26T06:00:00","4","23.2","-106.4166666","4.0","COLONIA JUAN CARRASCO MAZATLAN SIN., MX","FM-12","99999","V020","999,9,C,0000,1","03600,1,C,N","010000,1,N,1","+0229,1","+0199,1","10142,1","06,0000,9,1",,,,,"05,1,+03600,1,03,1",,,"06,99,1,05,1,00,1,02250,1,03,1,06,1","0522,9","01,9",,"240,M,+0296,1","240,N,+0190,1","99999,9,10137,1","1,1,003,1,-033,1",,"SYN124AAXX  26061 76458 32860 60000 10229 20199 30137 40142 51003 85036 90545 333 10296 20190 30/// 55087 56/99 59033 85362 81068;","Q01  00002PRCP06"
"76458099999","2005-01-26T09:00:00","4","23.2","-106.4166666","4.0","COLONIA JUAN CARRASCO MAZATLAN SIN., MX","FM-12","99999","V020","300,1,N,0010,1","22000,1,9,N","010000,1,N,1","+0220,1","+0193,1","10138,1","06,0000,9,1",,,,,"02,1,+06600,1,00,1",,,"02,99,1,00,1,00,1,99999,9,00,1,06,1",,"01,9",,,,"99999,9,10133,1","7,1,004,1,-028,1",,"SYN100AAXX  26091 76458 32960 23001 10220 20193 30133 40138 57004 80006 90850 333 30/// 56009 59028 82072;","Q01  00002PRCP06"
"76458099999","2005-01-26T18:00:00","4","23.2","-106.4166666","4.0","COLONIA JUAN CARRASCO MAZATLAN SIN., MX","FM-12","99999","V020","270,1,N,0040,1","03600,1,C,N","016000,1,N,1","+0239,1","+0200,1","10174,1","06,9999,9,9",,,"5,1,06,1","2,1,06,1","02,1,+00480,1,08,1","02,1,+02400,1,03,1",,"08,99,1,02,1,01,1,00450,1,02,1,00,1",,"01,9",,"120,M,+0250,1","240,N,+0208,1","99999,9,10170,1","2,1,020,1,+007,1","02,1","SYN136AAXX  26181 76458 11466 82704 10239 20200 30170 40174 52020 69901 70252 82120 91740 333 10250 20208 30/// 56690 58007 82816 82358 84461;",
"76458099999","2005-01-27T03:00:00","4","23.2","-106.4166666","4.0","COLONIA JUAN CARRASCO MAZATLAN SIN., MX","FM-12","99999","V020","070,1,N,0010,1","03300,1,9,N","016000,1,N,1","+0220,1","+0186,1","10162,1","03,0010,9,1",,,"5,1,03,1","5,1,03,1","08,1,+03300,1,04,1",,,"08,99,1,08,1,00,1,99999,9,02,1,00,1",,"09,9",,,,"99999,9,10158,1","2,1,018,1,+024,1","50,1","SYN112AAXX  27031 76458 21966 80701 10220 20186 30158 40162 52018 75055 88020 90250 333 31/// 56090 58024 60017 88461;",
"76458099999","2005-01-27T06:00:00","4","23.2","-106.4166666","4.0","COLONIA JUAN CARRASCO MAZATLAN SIN., MX","FM-12","99999","V020","090,1,N,0020,1","03600,1,9,N","012000,1,N,1","+0211,1","+0180,1","10165,1","06,0010,9,1",,,,,"04,1,+00390,1,07,1",,,"07,99,1,04,1,07,1,00450,1,03,1,00,1","0000,9","09,9",,"240,M,+0251,1","240,N,+0208,1","99999,9,10162,1","2,1,004,1,+025,1",,"SYN136AAXX  27061 76458 12462 70902 10211 20180 30162 40165 52004 60011 84730 90550 333 10251 20208 31/// 55000 2//// 56560 58025 84713 83358;",
"76458099999","2005-01-27T09:00:00","4","23.2","-106.4166666","4.0","COLONIA JUAN CARRASCO MAZATLAN SIN., MX","FM-12","99999","V020","320,1,N,0020,1","22000,1,9,N","010000,1,N,1","+0194,1","+0172,1","10148,1","06,0000,2,1",,,,,"02,1,+06600,1,00,1",,,"02,99,1,00,1,00,1,99999,9,00,1,06,1",,"01,9",,,,"99999,9,10143,1","7,1,019,1,+011,1",,"SYN100AAXX  27091 76458 32960 23202 10194 20172 30143 40148 57019 80006 90848 333 30/// 56009 58011 82072;",
"76458099999","2005-01-27T12:00:00","4","23.2","-106.4166666","4.0","COLONIA JUAN CARRASCO MAZATLAN SIN., MX","FM-12","99999","V020","330,1,N,0020,1","22000,1,9,N","010000,1,N,1","+0182,1","+0164,1","10146,1","06,0000,9,1","24,0010,9,1",,,,"00,1,+99999,9,99,9",,,"00,99,1,00,1,00,1,99999,9,00,1,00,1",,"01,9","999,+0165,1","120,N,+0178,1","240,M,+0251,1","99999,9,10141,1","6,1,004,1,+009,1",,"SYN100AAXX  27121 76458 32960 03302 10182 20164 30141 40146 56004 91132 333 10251 20178 30165 58009 70011;","Q01  00002PRCP06"
"76458099999","2005-01-27T21:00:00","4","23.2","-106.4166666","4.0","COLONIA JUAN CARRASCO MAZATLAN SIN., MX","FM-12","99999","V020","280,1,N,0060,1","22000,1,9,N","025000,1,N,1","+0255,1","+0208,1","10143,1","06,0000,9,1",,,,,"01,1,+00600,1,08,1",,,"01,99,1,01,1,01,1,00450,1,00,1,00,1",,"01,9",,,,"99999,9,99999,9","7,1,022,1,-027,1",,"SYN100AAXX  27211 76458 32475 12806 10255 20208 30439 40143 57022 81100 92045 333 30/// 56800 59027 81820;","Q01  00002PRCP06Q02 104393APOSP "
"76458099999","2005-01-28T03:00:00","4","23.2","-106.4166666","4.0","COLONIA JUAN CARRASCO MAZATLAN SIN., MX","FM-12","99999","V020","320,1,N,0030,1","22000,1,9,N","010000,1,N,1","+0234,1","+0200,1","10144,1","06,0000,9,1",,,,,"00,1,+99999,9,99,9",,,"00,99,1,00,1,00,1,99999,9,00,1,00,1",,"01,9",,,,"99999,9,10139,1","3,1,008,1,-019,1",,"SYN082AAXX  28031 76458 32960 03203 10234 20200 30139 40144 53008 90245 333 30/// 59019;","Q01  00002PRCP06"
"76458099999","2005-01-28T06:00:00","4","23.2","-106.4166666","4.0","COLONIA JUAN CARRASCO MAZATLAN SIN., MX","FM-12","99999","V020","310,1,N,0030,1","22000,1,9,N","010000,1,N,1","+0215,1","+0172,1","10151,1","06,0000,9,1",,,,,"00,1,+99999,9,99,9",,,"00,99,1,00,1,00,1,99999,9,00,1,00,1","0564,9","01,9",,"240,M,+0274,1","240,N,+0174,1","99999,9,10147,1","2,1,008,1,-015,1",,"SYN100AAXX  28061 76458 32960 03103 10215 20172 30147 40151 52008 90545 333 10274 20174 30/// 55094 59015;","Q01  00002PRCP06"
"76458099999","2005-01-28T09:00:00","4","23.2","-106.4166666","4.0","COLONIA JUAN CARRASCO MAZATLAN SIN., MX","FM-12","99999","V020","330,1,N,0020,1","22000,1,9,N","010000,1,N,1","+0196,1","+0159,1","10140,1","06,0000,9,1",,,,,"00,1,+99999,9,99,9",,,"00,99,1,00,1,00,1,99999,9,00,1,00,1",,"01,9",,,,"99999,9,10136,1","7,1,011,1,-009,1",,"SYN082AAXX  28091 76458 32960 03302 10196 20159 30136 40140 57011 90855 333 30/// 59009;","Q01  00002PRCP06"
"76458099999","2005-01-28T15:00:00","4","23.2","-106.4166666","4.0","COLONIA JUAN CARRASCO MAZATLAN SIN., MX","FM-12","99999","V020","330,1,N,0020,1","22000,1,9,N","015000,1,N,1","+0190,1","+0155,1","10146,1","06,0000,9,1",,,,,"00,1,+99999,9,99,9",,,"00,99,1,00,1,00,1,99999,9,00,1,00,1",,"01,9",,,,"99999,9,10141,1","1,1,016,1,-009,1",,"SYN082AAXX  28151 76458 32965 03302 10190 20155 30141 40146 51016 91448 333 30/// 59009;","Q01  00002PRCP06"
"76458099999","2005-01-28T21:00:00","4","23.2","-106.4166666","4.0","COLONIA JUAN CARRASCO MAZATLAN SIN., MX","FM-12","99999","V020","250,1,N,0050,1","22000,1,9,N","025000,1,N,1","+0251,1","+0206,1","10127,1","06,0000,9,1",,,,,"00,1,+99999,9,99,9",,,"00,99,1,00,1,00,1,99999,9,00,1,00,1",,"01,9",,,,"99999,9,10123,1","7,1,015,1,-016,1",,"SYN082AAXX  28211 76458 32975 02505 10251 20206 30123 40127 57015 92045 333 30/// 59016;","Q01  00002PRCP06"
"76458099999","2005-01-29T00:00:00","4","23.2","-106.4166666","4.0","COLONIA JUAN CARRASCO MAZATLAN SIN., MX","FM-12","99999","V020","310,1,N,0050,1","22000,1,9,N","020000,1,N,1","+0247,1","+0196,1","10125,1","06,0000,9,1","24,0000,9,1",,,,"00,1,+99999,9,99,9",,,"00,99,1,00,1,00,1,99999,9,00,1,00,1",,"01,9",,"120,M,+0250,1","180,N,+0162,1","99999,9,10120,1","6,1,003,1,-011,1",,"SYN106AAXX  29001 76458 32970 03105 10247 20196 30120 40125 56003 92345 333 10250 20162 30/// 50261 59011 70000;","Q01  00002PRCP06Q02  00002PRCP24"
"76458099999","2005-01-29T03:00:00","4","23.2","-106.4166666","4.0","COLONIA JUAN CARRASCO MAZATLAN SIN., MX","FM-12","99999","V020","320,1,N,0030,1","22000,1,9,N","010000,1,N,1","+0225,1","+0191,1","10136,1","06,0000,9,1",,,,,"00,1,+99999,9,99,9",,,"00,99,1,00,1,00,1,99999,9,00,1,00,1",,"01,9",,,,"99999,9,10132,1","2,1,012,1,-007,1",,"SYN082AAXX  29031 76458 32960 03203 10225 20191 30132 40136 52012 90247 333 30/// 59007;","Q01  00002PRCP06"
"76458099999","2005-01-29T06:00:00","4","23.2","-106.4166666","4.0","COLONIA JUAN CARRASCO MAZATLAN SIN., MX","FM-12","99999","V020","330,1,N,0020,1","22000,1,9,N","010000,1,N,1","+0205,1","+0186,1","10145,1","06,0000,9,1",,,,,"00,1,+99999,9,99,9",,,"00,99,1,00,1,00,1,99999,9,00,1,00,1","0588,9","01,9",,"240,M,+0250,1","240,N,+0162,1","99999,9,10140,1","2,1,008,1,-007,1",,"SYN100AAXX  29061 76458 32960 03302 10205 20186 30140 40145 52008 90540 333 10250 20162 30/// 55098 59007;","Q01  00002PRCP06"
"76458099999","2005-01-29T12:00:00","4","23.2","-106.4166666","4.0","COLONIA JUAN CARRASCO MAZATLAN SIN., MX","FM-12","99999","V020","999,9,C,0000,1","22000,1,9,N","010000,1,N,1","+0168,1","+0159,1","10131,1","06,0000,9,1","24,0000,9,1",,,,"00,1,+99999,9,99,9",,,"00,99,1,00,1,00,1,99999,9,00,1,00,1",,"01,9","999,+0154,1","120,N,+0165,1","240,M,+0250,1","99999,9,10127,1","7,1,008,1,+002,1",,"SYN100AAXX  29121 76458 32960 00000 10168 20159 30127 40131 57008 91132 333 10250 20165 30154 58002 70000;","Q01  00002PRCP06Q02  00002PRCP24"
"76458099999","2005-01-29T21:00:00","4","23.2","-106.4166666","4.0","COLONIA JUAN CARRASCO MAZATLAN SIN., MX","FM-12","99999","V020","200,1,N,0030,1","22000,1,9,N","020000,1,N,1","+0263,1","+0200,1","10133,1","06,0000,9,1",,,,,"02,1,+06000,1,00,1",,,"02,99,1,00,1,00,1,99999,9,00,1,06,1",,"01,9",,,,"99999,9,10128,1","7,1,021,1,+005,1",,"SYN100AAXX  29211 76458 32970 22003 10263 20200 30128 40133 57021 80006 92048 333 30/// 56//0 58005 82070;","Q01  00002PRCP06"
"76458099999","2005-01-30T06:00:00","4","23.2","-106.4166666","4.0","COLONIA JUAN CARRASCO MAZATLAN SIN., MX","FM-12","99999","V020","999,9,C,0000,1","22000,1,9,N","010000,1,N,1","+0191,1","+0170,1","10136,1","06,0000,9,1",,,,,"00,1,+99999,9,99,9",,,"00,99,1,00,1,00,1,99999,9,00,1,00,1","0570,9","01,9",,"240,M,+0275,1","240,N,+0155,1","99999,9,10131,1","0,1,000,1,-009,1",,"SYN100AAXX  30061 76458 32960 00000 10191 20170 30131 40136 50000 90540 333 10275 20155 30/// 55095 59009;","Q01  00002PRCP06"
"76458099999","2005-01-30T09:00:00","4","23.2","-106.4166666","4.0","COLONIA JUAN CARRASCO MAZATLAN SIN., MX","FM-12","99999","V020","070,1,N,0010,1","22000,1,9,N","010000,1,N,1","+0178,1","+0156,1","10126,1","06,0000,9,1",,,,,"02,1,+08700,1,00,1",,,"02,99,1,00,1,00,1,99999,9,00,1,02,1",,"01,9",,,,"99999,9,10121,1","7,1,010,1,-014,1",,"SYN100AAXX  30091 76458 32960 20701 10178 20156 30121 40126 57010 80002 90850 333 30/// 56009 59014 82079;","Q01  00002PRCP06"
"76458099999","2005-01-30T15:00:00","4","23.2","-106.4166666","4.0","COLONIA JUAN CARRASCO MAZATLAN SIN., MX","FM-12","99999","V020","030,1,N,0010,1","22000,1,9,N","020000,1,N,1","+0182,1","+0135,1","10125,1","06,0000,9,1",,,,,"01,1,+02700,1,03,1",,,"02,99,1,01,1,00,1,99999,9,03,1,02,1",,"01,9",,,,"99999,9,10120,1","2,1,011,1,-021,1",,"SYN106AAXX  30151 76458 32970 20301 10182 20135 30120 40125 52011 81032 91450 333 30/// 56099 59021 81359 81079;","Q01  00002PRCP06"
"76458099999","2005-01-30T18:00:00","4","23.2","-106.4166666","4.0","COLONIA JUAN CARRASCO MAZATLAN SIN., MX","FM-12","99999","V020","250,1,N,0030,1","22000,1,9,N","020000,1,N,1","+0249,1","+0151,1","10131,1","06,0000,9,1",,,,,"02,1,+08700,1,00,1",,,"02,99,1,00,1,00,1,99999,9,00,1,02,1",,"01,9",,"120,M,+0270,1","240,N,+0153,1","99999,9,10127,1","0,1,007,1,-022,1",,"SYN112AAXX  30181 76458 32970 22503 10249 20151 30127 40131 50007 80002 91750 333 10270 20153 30/// 56005 59022 82079;","Q01  00002PRCP06"
"76458099999","2005-01-30T21:00:00","4","23.2","-106.4166666","4.0","COLONIA JUAN CARRASCO MAZATLAN SIN., MX","FM-12","99999","V020","260,1,N,0040,1","22000,1,9,N","020000,1,N,1","+0252,1","+0184,1","10116,1","06,0000,9,1",,,,,"04,1,+06000,1,00,1",,,"04,99,1,00,1,00,1,99999,9,00,1,06,1",,"01,9",,,,"99999,9,10112,1","7,1,015,1,-016,1",,"SYN100AAXX  30211 76458 32970 42604 10252 20184 30112 40116 57015 80006 92048 333 30/// 56//0 59016 84070;","Q01  00002PRCP06"
"76458099999","2005-01-31T06:00:00","4","23.2","-106.4166666","4.0","COLONIA JUAN CARRASCO MAZATLAN SIN., MX","FM-12","99999","V020","999,9,C,0000,1","22000,1,9,N","010000,1,N,1","+0209,1","+0173,1","10126,1","06,0000,9,1",,,,,"00,1,+99999,9,99,9",,,"00,99,1,00,1,00,1,99999,9,00,1,00,1",,"01,9",,"240,M,+0277,1","240,N,+0153,1","99999,9,10122,1","2,1,009,1,+083,1",,"SYN100AAXX  31061 76458 32960 00000 10209 20173 30122 40126 52009 90540 333 10277 20153 30/// 58083 59009;","Q01  00002PRCP06"
"76458099999","2005-01-31T09:00:00","4","23.2","-106.4166666","4.0","COLONIA JUAN CARRASCO MAZATLAN SIN., MX","FM-12","99999","V020","090,1,N,0010,1","22000,1,9,N","010000,1,N,1","+0200,1","+0182,1","10121,1","06,0000,9,1",,,,,"03,1,+02400,1,03,1",,,"03,99,1,99,9,00,1,99999,9,03,1,00,1",,"01,9",,,,"99999,9,10167,1","4,1,000,1,-004,1",,"SYN100AAXX  31091 76458 32960 30901 10200 20182 30167 40121 54001 80030 90850 333 30/// 56090 59004 83358;","Q01  00002PRCP06"
"76458099999","2005-01-31T15:00:00","4","23.2","-106.4166666","4.0","COLONIA JUAN CARRASCO MAZATLAN SIN., MX","FM-12","99999","V020","999,9,C,0000,1","99999,9,9,N","010000,1,N,1","+0200,1","+0163,1","10115,1","06,0000,9,1",,,"4,1,03,1","1,1,03,1","04,1,+02400,1,03,1",,,"07,99,1,04,1,00,1,99999,9,05,1,06,1",,"01,9",,,,"99999,9,10111,1","2,1,007,1,-009,1","05,1","SYN112AAXX  31151 76458 32960 70000 10200 20163 30111 40115 52007 70541 84056 91448 333 30/// 560// 59009 84358 83270;","Q01  00002PRCP06"
"76458099999","2005-01-31T18:00:00","4","23.2","-106.4166666","4.0","COLONIA JUAN CARRASCO MAZATLAN SIN., MX","FM-12","99999","V020","250,1,N,0020,1","02400,1,9,N","015000,1,N,1","+0236,1","+0183,1","10122,1","06,0000,9,1",,,,,"05,1,+02400,1,03,1",,,"07,99,1,05,1,00,1,99999,9,03,1,06,1",,"01,9",,"120,M,+0248,1","240,N,+0180,1","99999,9,10117,1","1,1,006,1,-010,1",,"SYN112AAXX  31181 76458 32965 72502 10236 20183 30117 40122 51006 85036 91748 333 10248 20180 30/// 59010 85358 82270;","Q01  00002PRCP06"
"76458099999","2005-02-01T06:00:00","4","23.2","-106.4166666","4.0","COLONIA JUAN CARRASCO MAZATLAN SIN., MX","FM-12","99999","V020","340,1,N,0030,1","99999,9,9,N","010000,1,N,1","+0203,1","+0156,1","10139,1","06,0000,9,1",,,,,,,,"06,99,1,06,1,00,1,99999,9,05,1,00,1","0060,9","01,9",,"240,M,+0259,1","240,N,+0180,1","99999,9,10134,1","2,1,011,1,+012,1",,"SYN124AAXX  01061 76458 32960 63403 10203 20156 30134 40139 52011 86050 90545 333 10259 20180 30/// 55010 2//// 56/0/ 58012 86354;","Q01  00002PRCP06"
"76458099999","2005-02-01T09:00:00","4","23.2","-106.4166666","4.0","COLONIA JUAN CARRASCO MAZATLAN SIN., MX","FM-12","99999","V020","330,1,N,0010,1","22000,1,9,N","010000,1,N,1","+0190,1","+0147,1","10131,1","06,0000,9,1","24,2357,9,1",,,,,,,"02,99,1,99,9,00,1,99999,9,05,1,00,1",,"01,9",,,,"99999,9,10127,1","7,1,007,1,+015,1",,"SYN100AAXX  01091 76458 32960 23301 10190 20147 30127 40131 57007 80050 90850 333 30/// 56090 58015 72358;","Q01  00002PRCP06"
"76458099999","2005-02-01T18:00:00","4","23.2","-106.4166666","4.0","COLONIA JUAN CARRASCO MAZATLAN SIN., MX","FM-12","99999","V020","270,1,N,0030,1","06600,1,9,N","015000,1,N,1","+0214,1","+0127,1","10153,1","06,0000,9,1",,,,,"05,1,+06600,1,02,1",,,"05,99,1,00,1,00,1,99999,9,00,1,08,1",,"01,9",,"120,M,+0228,1","240,N,+0150,1","99999,9,10148,1","2,1,011,1,+031,1",,"SYN112AAXX  01181 76458 32965 52703 10214 20127 30148 40153 52011 80008 91742 333 10228 20150 30/// 56009 58031 85272;","Q01  00002PRCP06"
"76458099999","2005-02-02T00:00:00","4","23.2","-106.4166666","4.0","COLONIA JUAN CARRASCO MAZATLAN SIN., MX","FM-12","99999","V020","300,1,N,0040,1","09000,1,9,N","020000,1,N,1","+0226,1","+0090,1","10123,1","06,0000,9,1","24,0000,9,1",,,,"01,1,+01470,1,08,1","01,1,+02400,1,03,1",,"05,99,1,01,1,02,1,01750,1,03,1,04,1",,"01,9",,"120,M,+0251,1","180,N,+0150,1","99999,9,10118,1","4,1,000,1,+008,1",,"SYN136AAXX  02001 76458 32770 53004 10226 20090 30118 40123 54001 81234 92340 333 10251 20150 30/// 50341 56149 58008 70000 81849 81358 83079;","Q01  00002PRCP06"
"76458099999","2005-02-02T09:00:00","4","23.2","-106.4166666","4.0","COLONIA JUAN CARRASCO MAZATLAN SIN., MX","FM-12","99999","V020","320,1,N,0020,1","05400,1,9,N","010000,1,N,1","+0181,1","+0118,1","10128,1","06,0000,9,1",,,,,"07,1,+05400,1,02,1",,,"07,99,1,00,1,00,1,99999,9,00,1,08,1",,"01,9",,,,"99999,9,10124,1","8,1,004,1,-003,1",,"SYN100AAXX  02091 76458 32960 73202 10181 20118 30124 40128 58004 80008 90845 333 30/// 56//9 59003 87268;","Q01  00002PRCP06"
"76458099999","2005-02-02T12:00:00","4","23.2","-106.4166666","4.0","COLONIA JUAN CARRASCO MAZATLAN SIN., MX","FM-12","99999","V020","340,1,N,0020,1","05400,1,9,N","010000,1,N,1","+0175,1","+0123,1","10127,1","06,0000,9,1","24,0000,9,1",,,,"07,1,+05400,1,02,1",,,"07,99,1,00,1,00,1,99999,9,00,1,08,1",,"01,9","999,+0156,1","120,N,+0169,1","240,M,+0260,1","99999,9,10122,1","7,1,002,1,-002,1",,"SYN118AAXX  02121 76458 32960 73402 10175 20123 30122 40127 57002 80008 91140 333 10260 20169 30156 56//9 59002 70000 87268;","Q01  00002PRCP06"
"76458099999","2005-02-02T18:00:00","4","23.2","-106.4166666","4.0","COLONIA JUAN CARRASCO MAZATLAN SIN., MX","FM-12","99999","V020","260,1,N,0030,1","99999,9,9,N","015000,1,N,1","+0220,1","+0155,1","10142,1","06,0000,9,1",,,,,"04,1,+02400,1,03,1",,,"06,99,1,99,9,00,1,99999,9,03,1,08,1",,"01,9",,"120,M,+0235,1","240,N,+0160,1","99999,9,10137,1","2,1,010,1,-011,1",,"SYN118AAXX  02181 76458 32965 62603 10220 20155 30137 40142 52010 80038 91752 333 10235 20160 30/// 56099 59011 84358 82272;","Q01  00002PRCP06"
"76458099999","2005-02-03T03:00:00","4","23.2","-106.4166666","4.0","COLONIA JUAN CARRASCO MAZATLAN SIN., MX","FM-12","99999","V020","310,1,N,0030,1","02400,1,9,N","008000,1,N,1","+0206,1","+0135,1","10147,1","06,0000,9,1",,,,,"08,1,+02400,1,04,1",,,"08,99,1,08,1,99,9,02250,1,02,1,99,9",,"01,9",,,,"99999,9,10142,1","3,1,014,1,+999,9",,"SYN094AAXX  03031 76458 32858 83103 10206 20135 30142 40147 53014 88/2/ 90235 333 30/// 58/// 88458;","Q01  00002PRCP06"
"76458099999","2005-02-03T06:00:00","4","23.2","-106.4166666","4.0","COLONIA JUAN CARRASCO MAZATLAN SIN., MX","FM-12","99999","V020","290,1,N,0010,1","99999,9,9,N","008000,1,N,1","+0194,1","+0130,1","10148,1","06,0000,9,1",,,,,,,,"08,99,1,08,1,99,9,02250,1,02,1,99,9","0138,9","01,9",,"240,M,+0250,1","240,N,+0160,1","99999,9,10144,1","0,1,002,1,+999,9",,"SYN118AAXX  03061 76458 32858 82901 10194 20130 30144 40148 50002 88/2/ 90530 333 10250 20160 30/// 55023 2//// 58/// 88458;","Q01  00002PRCP06"
"76458099999","2005-02-03T09:00:00","4","23.2","-106.4166666","4.0","COLONIA JUAN CARRASCO MAZATLAN SIN., MX","FM-12","99999","V020","999,9,C,0000,1","03600,1,9,N","008000,1,N,1","+0193,1","+0143,1","10148,1","06,0000,9,1",,,,,"07,1,+03600,1,04,1",,,"07,99,1,07,1,00,1,02250,1,02,1,00,1",,"01,9",,,,"99999,9,10143,1","7,1,001,1,+019,1",,"SYN100AAXX  03091 76458 32858 70000 10193 20143 30143 40148 57001 87020 90847 333 30/// 56/9/ 58019 87462;","Q01  00002PRCP06"
"76458099999","2005-02-03T12:00:00","4","23.2","-106.4166666","4.0","COLONIA JUAN CARRASCO MAZATLAN SIN., MX","FM-12","99999","V020","270,1,N,0020,1","00690,1,9,N","008000,1,N,1","+0193,1","+0137,1","10128,1","06,0000,9,1","24,0000,9,1",,,,"05,1,+00690,1,06,1",,,"07,99,1,05,1,04,1,00800,1,03,1,00,1",,"01,9","999,+0169,1","120,N,+0184,1","240,M,+0250,1","99999,9,10123,1","5,1,020,1,+001,1",,"SYN124AAXX  03121 76458 32558 72702 10193 20137 30123 40128 55020 85430 91140 333 10250 20184 30169 5659/ 58001 79999 85623 82462;","Q01  00002PRCP06Q02  00002PRCP24"
"76458099999","2005-02-04T12:00:00","4","23.2","-106.4166666","4.0","COLONIA JUAN CARRASCO MAZATLAN SIN., MX","FM-12","99999","V020","010,1,N,0020,1","00510,1,9,N","008000,1,N,1","+0210,1","+0169,1","10142,1","03,0005,9,1","06,0009,9,1","24,0009,9,1","9,1,06,1","5,1,06,1","05,1,+00510,1,06,1",,,"06,99,1,06,1,04,1,00450,1,06,1,00,1",,"01,9","999,+0183,1","120,N,+0190,1","240,M,+0266,1","99999,9,10138,1","5,1,009,1,+015,1","17,1","SYN142AAXX  04121 76458 01458 60102 10210 20169 30138 40142 55009 69957 71795 86460 91145 333 10266 20190 30183 565// 58015 69991 70009 85617 81817;",
"76458099999","2005-02-04T18:00:00","4","23.2","-106.4166666","4.0","COLONIA JUAN CARRASCO MAZATLAN SIN., MX","FM-12","99999","V020","120,1,N,0040,1","03600,1,C,N","015000,1,N,1","+0220,1","+0181,1","10172,1","06,0000,9,1",,,,,"02,1,+00480,1,02,1","02,1,+00480,1,06,1",,"07,99,1,04,1,02,1,00450,1,05,1,00,1",,"01,9",,"120,M,+0228,1","240,N,+0188,1","99999,9,10168,1","2,1,011,1,+026,1",,"SYN124AAXX  04181 76458 32465 71204 10220 20181 30168 40172 52011 84250 91749 333 10228 20188 30/// 56590 58026 82216 82616 83358;","Q01  00002PRCP06"
"76458099999","2005-02-05T03:00:00","4","23.2","-106.4166666","4.0","COLONIA JUAN CARRASCO MAZATLAN SIN., MX","FM-12","99999","V020","130,1,N,0050,1","03600,1,C,N","008000,1,N,1","+0230,1","+0167,1","10147,1","06,0000,9,1",,,,,"03,1,+00840,1,06,1",,,"08,99,1,03,1,05,1,00800,1,02,1,99,9",,"01,9",,,,"99999,9,10142,1","2,1,010,1,-002,1",,"SYN106AAXX  05031 76458 32558 81305 10230 20167 30142 40147 52010 8352/ 90235 333 30/// 5619/ 59002 83628 85458;","Q01  00002PRCP06"
"76458099999","2005-02-05T09:00:00","4","23.2","-106.4166666","4.0","COLONIA JUAN CARRASCO MAZATLAN SIN., MX","FM-12","99999","V020","110,1,N,0030,1","00750,1,9,N","008000,1,N,1","+0211,1","+0152,1","10135,1","06,0000,9,1",,,,,"05,1,+00750,1,06,1",,,"08,99,1,05,1,04,1,00800,1,02,1,00,1",,"01,9",,,,"99999,9,10130,1","7,1,022,1,-017,1",,"SYN106AAXX  05091 76458 32558 81103 10211 20152 30130 40135 57022 85420 90847 333 30/// 5659/ 59017 85625 83462;","Q01  00002PRCP06"
"76458099999","2005-02-05T15:00:00","4","23.2","-106.4166666","4.0","COLONIA JUAN CARRASCO MAZATLAN SIN., MX","FM-12","99999","V020","120,1,N,0030,1","02400,1,9,N","016000,1,N,1","+0198,1","+0164,1","10129,1","02,9999,9,9",,,"4,1,03,1","2,1,03,1","08,1,+02400,1,03,1",,,"08,99,1,08,1,00,1,99999,9,06,1,00,1",,"01,9",,,,"99999,9,10125,1","5,1,005,1,-033,1","04,1","SYN112AAXX  05151 76458 21966 81203 10198 20164 30125 40129 55005 70442 88060 91448 333 30/// 56/5/ 59033 69906 88358;","Q01  99992PRCP02"
"76458099999","2005-02-05T21:00:00","4","23.2","-106.4166666","4.0","COLONIA JUAN CARRASCO MAZATLAN SIN., MX","FM-12","99999","V020","260,1,N,0060,1","00750,1,9,N","014000,1,N,1","+0192,1","+0175,1","10126,1","03,0550,9,1",,,"4,1,03,1","2,1,03,1",,,,"08,99,1,08,1,02,1,00800,1,00,1,00,1",,"09,9",,,,"99999,9,10121,1","4,1,000,1,-034,1","50,1","SYN124AAXX  05211 76458 01564 82606 10192 20175 30121 40126 54000 60557 75042 88200 92048 333 31/// 565// 57654 59034 60557 88622;",
"76458099999","2005-02-06T00:00:00","4","23.2","-106.4166666","4.0","COLONIA JUAN CARRASCO MAZATLAN SIN., MX","FM-12","99999","V020","340,1,N,0050,1","03600,1,9,N","016000,1,N,1","+0197,1","+0174,1","10130,1","06,0090,9,1","24,0092,9,1",,"4,1,06,1","2,1,06,1","04,1,+00660,1,06,1",,,"08,99,1,04,1,02,1,00450,1,05,1,99,9",,"09,9",,"120,M,+0227,1","180,N,+0196,1","99999,9,10125,1","1,1,004,1,-007,1","50,1","SYN148AAXX  06001 76458 21466 83405 10197 20174 30125 40130 51004 75042 8425/ 92345 333 10227 20196 31/// 5//// 56501 57655 59007 60091 70092 84622 84454;",
"76458099999","2005-02-06T03:00:00","4","23.2","-106.4166666","4.0","COLONIA JUAN CARRASCO MAZATLAN SIN., MX","FM-12","99999","V020","360,1,N,0030,1","00210,1,9,N","008000,1,N,1","+0172,1","+0156,1","10110,1","03,0061,9,1",,,"6,1,03,1","6,1,03,1","08,1,+00210,1,06,1",,,"08,99,1,08,1,05,1,00150,1,99,9,99,9",,"11,9",,,,"99999,9,10155,1","2,1,013,1,+013,1","20,1","SYN112AAXX  06031 76458 11258 83603 10172 20156 30155 40110 52013 60067 72066 885// 90245 333 32/// 565// 58013 88607;",
"76458099999","2005-02-06T06:00:00","4","23.2","-106.4166666","4.0","COLONIA JUAN CARRASCO MAZATLAN SIN., MX","FM-12","99999","V020","100,1,N,0030,1","99999,9,9,N","008000,1,N,1","+0162,1","+0129,1","10160,1",,,,,,,,,"06,99,1,00,1,99,9,99999,9,99,9,06,1",,"09,9",,"240,M,+0227,1","240,N,+9999,9","99999,9,10155,1","0,1,000,1,+003,1",,"SYN118AAXX  06061 76458 32958 61003 10162 20129 30155 40160 50000 80//6 90530 333 10227 20196 31/// 55/// 2//// 58003 86070;","Q01  00002PRCP06Q02 +01962ATMN  "
"76458099999","2005-02-06T09:00:00","4","23.2","-106.4166666","4.0","COLONIA JUAN CARRASCO MAZATLAN SIN., MX","FM-12","99999","V020","120,1,N,0030,1","22000,1,9,N","008000,1,N,1","+0163,1","+0144,1","10144,1","06,0000,2,1",,,,,"02,1,+03600,1,03,1",,,"02,99,1,02,1,00,1,02250,1,03,1,00,1",,"01,9",,,,"99999,9,10140,1","7,1,015,1,+010,1",,"SYN100AAXX  06091 76458 32858 21203 10163 20144 30140 40144 57015 82030 90848 333 30/// 56/9/ 58010 82362;",
"76458099999","2005-02-06T12:00:00","4","23.2","-106.4166666","4.0","COLONIA JUAN CARRASCO MAZATLAN SIN., MX","FM-12","99999","V020","010,1,N,0020,1","22000,1,9,N","008000,1,N,1","+0168,1","+0150,1","10151,1","06,0000,9,1","24,0156,9,1",,,,"07,1,+00270,1,06,1",,,"99,99,9,07,1,04,1,00250,1,00,1,00,1",,"01,9","999,+0142,1","120,N,+0150,1","240,M,+0227,1","99999,9,10147,1","2,1,007,1,+017,1",,"SYN118AAXX  06121 76458 32358 30102 10168 20150 30147 40151 52007 87400 91145 333 10227 20150 30142 565// 58017 70156 87609;","Q01  00002PRCP06"
"76458099999","2005-02-06T15:00:00","4","23.2","-106.4166666","4.0","COLONIA JUAN CARRASCO MAZATLAN SIN., MX","FM-12","99999","V020","999,9,C,0000,1","99999,9,9,N","010000,1,N,1","+0178,1","+0160,1","10168,1","06,0000,9,1",,,,,"03,1,+02400,1,03,1",,,"05,99,1,03,1,00,1,99999,9,06,1,03,1",,"01,9",,,,"99999,9,10163,1","2,1,017,1,+039,1",,"SYN106AAXX  06151 76458 32960 50000 10178 20160 30163 40168 52017 83063 91452 333 30/// 56099 58039 83358 82072;","Q01  00002PRCP06"
"76458099999","2005-02-06T18:00:00","4","23.2","-106.4166666","4.0","COLONIA JUAN CARRASCO MAZATLAN SIN., MX","FM-12","99999","V020","270,1,N,0010,1","22000,1,9,N","020000,1,N,1","+0230,1","+0173,1","10182,1","06,0000,9,1",,,,,"01,1,+02400,1,03,1",,,"03,99,1,01,1,00,1,99999,9,03,1,06,1",,"01,9",,"120,M,+0249,1","240,N,+0148,1","99999,9,10177,1","2,1,018,1,+056,1",,"SYN118AAXX  06181 76458 32970 32701 10230 20173 30177 40182 52018 81036 91750 333 10249 20148 30/// 56099 58056 81358 82070;","Q01  00002PRCP06"
"76458099999","2005-02-06T21:00:00","4","23.2","-106.4166666","4.0","COLONIA JUAN CARRASCO MAZATLAN SIN., MX","FM-12","99999","V020","300,1,N,0040,1","22000,1,9,N","020000,1,N,1","+0192,1","+0177,1","10158,1","06,0000,9,1",,,,,"02,1,+99999,9,03,1",,,"04,99,1,02,1,00,1,99999,9,05,1,06,1",,"01,9",,,,"99999,9,10153,1","7,1,024,1,+032,1",,"SYN106AAXX  06211 76458 32970 43004 10192 20177 30153 40158 57024 82056 92048 333 30/// 56/00 58032 82354 82070;","Q01  00002PRCP06"
"76458099999","2005-02-07T12:00:00","4","23.2","-106.4166666","4.0","COLONIA JUAN CARRASCO MAZATLAN SIN., MX","FM-12","99999","V020","320,1,N,0020,1","22000,1,9,N","008000,1,N,1","+0158,1","+0135,1","10157,1","06,0000,9,1","24,0000,9,1",,,,"00,1,+99999,9,99,9",,,"00,99,1,00,1,00,1,99999,9,00,1,00,1",,"01,9","999,+0120,1","120,N,+0150,1","240,M,+0255,1","99999,9,10153,1","7,1,011,1,+006,1",,"SYN100AAXX  07121 76458 32958 03202 10158 20135 30153 40157 57011 91140 333 10255 20150 30120 58006 70000;","Q01  00002PRCP06Q02  00002PRCP24"
"76458099999","2005-02-07T15:00:00","4","23.2","-106.4166666","4.0","COLONIA JUAN CARRASCO MAZATLAN SIN., MX","FM-12","99999","V020","330,1,N,0020,1","06000,1,9,N","015000,1,N,1","+0172,1","+0139,1","10157,1","06,0000,9,1",,,,,"06,1,+06000,1,00,1",,,"06,99,1,00,1,00,1,99999,9,00,1,08,1",,"01,9",,,,"99999,9,10153,1","4,1,000,1,-006,1",,"SYN100AAXX  07151 76458 32965 63302 10172 20139 30153 40157 54000 80008 91448 333 30/// 56//0 59006 86070;","Q01  00002PRCP06"
"76458099999","2005-02-07T18:00:00","4","23.2","-106.4166666","4.0","COLONIA JUAN CARRASCO MAZATLAN SIN., MX","FM-12","99999","V020","260,1,N,0020,1","06000,1,9,N","020000,1,N,1","+0230,1","+0156,1","10161,1","06,0000,9,1",,,,,"06,1,+06000,1,02,1",,,"06,99,1,00,1,00,1,99999,9,00,1,08,1",,"01,9",,"120,M,+0247,1","240,N,+0164,1","99999,9,10157,1","1,1,004,1,-020,1",,"SYN112AAXX  07181 76458 32970 62602 10230 20156 30157 40161 51004 80008 91748 333 10247 20164 30/// 56//0 59020 86270;","Q01  00002PRCP06"
"76458099999","2005-02-07T21:00:00","4","23.2","-106.4166666","4.0","COLONIA JUAN CARRASCO MAZATLAN SIN., MX","FM-12","99999","V020","270,1,N,0040,1","05400,1,9,N","020000,1,N,1","+0231,1","+0172,1","10133,1","06,0000,9,1",,,,,"06,1,+05400,1,02,1",,,"06,99,1,00,1,00,1,99999,9,00,1,06,1",,"01,9",,,,"99999,9,10128,1","7,1,029,1,-025,1",,"SYN100AAXX  07211 76458 32970 62704 10231 20172 30128 40133 57029 80006 92045 333 30/// 56//0 59025 86268;","Q01  00002PRCP06"
"76458099999","2005-02-08T00:00:00","4","23.2","-106.4166666","4.0","COLONIA JUAN CARRASCO MAZATLAN SIN., MX","FM-12","99999","V020","300,1,N,0040,1","99999,9,9,N","020000,1,N,1","+0225,1","+0174,1","10118,1","06,0000,9,1","24,0000,9,1",,,,,,,"06,99,1,00,1,00,1,99999,9,00,1,06,1",,"01,9",,"120,M,+0259,1","180,N,+0164,1","99999,9,10113,1","7,1,015,1,-032,1",,"SYN124AAXX  08001 76458 32970 63004 10225 20174 30113 40118 57015 80006 92345 333 10259 20164 30/// 50241 56//0 59032 70000 86268;","Q01  00002PRCP06"
"76458099999","2005-02-08T06:00:00","4","23.2","-106.4166666","4.0","COLONIA JUAN CARRASCO MAZATLAN SIN., MX","FM-12","99999","V020","300,1,N,0020,1","22000,1,9,N","008000,1,N,1","+0206,1","+0179,1","10137,1","06,0000,9,1",,,,,"00,1,+99999,9,99,9",,,"00,99,1,00,1,00,1,99999,9,00,1,00,1","0180,9","01,9",,"240,M,+0259,1","240,N,+0164,1","99999,9,10133,1","2,1,015,1,+999,9",,"SYN106AAXX  08061 76458 32958 03002 10206 20179 30133 40137 52015 90530 333 10259 20164 30/// 55030 2//// 59034;","Q01  00002PRCP06"
"76458099999","2005-02-08T12:00:00","4","23.2","-106.4166666","4.0","COLONIA JUAN CARRASCO MAZATLAN SIN., MX","FM-12","99999","V020","320,1,N,0010,1","22000,1,9,N","008000,1,N,1","+0174,1","+0152,1","10118,1","06,0000,9,1","24,0000,9,1",,,,"00,1,+99999,9,99,9",,,"00,99,1,00,1,00,1,99999,9,00,1,00,1",,"01,9","999,+0158,1","120,N,+0170,1","240,M,+0259,1","99999,9,10114,1","7,1,010,1,-039,1",,"SYN100AAXX  08121 76458 32958 03201 10174 20152 30114 40118 57010 91138 333 10259 20170 30158 59039 70000;","Q01  00002PRCP06Q02  00002PRCP24"
"76458099999","2005-02-08T15:00:00","4","23.2","-106.4166666","4.0","COLONIA JUAN CARRASCO MAZATLAN SIN., MX","FM-12","99999","V020","280,1,N,0020,1","99999,9,9,N","014000,1,N,1","+0188,1","+0138,1","10134,1","06,0000,9,1",,,,,"03,1,+02400,1,03,1",,,"07,99,1,03,1,00,1,99999,9,03,1,08,1",,"01,9",,,,"99999,9,10130,1","2,1,016,1,-023,1",,"SYN106AAXX  08151 76458 32964 72802 10188 20138 30130 40134 52016 83038 91448 333 30/// 56/00 59023 83358 84270;","Q01  00002PRCP06"
"76458099999","2005-02-08T18:00:00","4","23.2","-106.4166666","4.0","COLONIA JUAN CARRASCO MAZATLAN SIN., MX","FM-12","99999","V020","260,1,N,0040,1","02400,1,9,N","020000,1,N,1","+0230,1","+0163,1","10145,1","06,0000,9,1",,,,,"05,1,+02400,1,03,1",,,"07,99,1,05,1,00,1,99999,9,03,1,08,1",,"01,9",,"120,M,+0260,1","240,N,+0164,1","99999,9,10140,1","1,1,010,1,+999,9",,"SYN112AAXX  08181 76458 32970 72604 10230 20163 30140 40145 51010 85038 91748 333 10260 20164 30/// 56/00 85358 82270;","Q01  00002PRCP06"
"76458099999","2005-02-08T21:00:00","4","23.2","-106.4166666","4.0","COLONIA JUAN CARRASCO MAZATLAN SIN., MX","FM-12","99999","V020","270,1,N,0040,1","99999,9,9,N","020000,1,N,1","+0237,1","+0164,1","10132,1","06,0000,9,1",,,,,,,,"07,99,1,05,1,00,1,99999,9,05,1,06,1",,"01,9",,,,"99999,9,10128,1","6,1,012,1,+000,1",,"SYN106AAXX  08211 76458 32970 72704 10237 20164 30128 40132 56012 85056 92048 333 30/// 56/00 58000 58356 82268;","Q01  00002PRCP06"
"76458099999","2005-02-09T03:00:00","4","23.2","-106.4166666","4.0","COLONIA JUAN CARRASCO MAZATLAN SIN., MX","FM-12","99999","V020","310,1,N,0030,1","22000,1,9,N","010000,1,N,1","+0220,1","+0163,1","10126,1","06,0000,9,1",,,,,"04,1,+02400,1,03,1",,,"04,99,1,04,1,00,1,99999,9,03,1,00,1",,"01,9",,,,"99999,9,10122,1","2,1,012,1,+004,1",,"SYN094AAXX  09031 76458 32960 43103 10220 20163 30122 40126 52012 84030 90250 333 30/// 58004 84358;","Q01  00002PRCP06"
"76458099999","2005-02-09T06:00:00","4","23.2","-106.4166666","4.0","COLONIA JUAN CARRASCO MAZATLAN SIN., MX","FM-12","99999","V020","330,1,N,0020,1","22000,1,9,N","010000,1,N,1","+0210,1","+0156,1","10137,1","06,0000,9,1",,,,,"00,1,+99999,9,99,9",,,"00,99,1,00,1,00,1,99999,9,00,1,00,1","0120,9","01,9",,"240,M,+0260,1","240,N,+0164,1","99999,9,10133,1","2,1,011,1,-001,1",,"SYN100AAXX  09061 76458 32960 03302 10210 20156 30133 40137 52011 90538 333 10260 20164 30/// 55020 59001;","Q01  00002PRCP06"
"76458099999","2005-02-09T15:00:00","4","23.2","-106.4166666","4.0","COLONIA JUAN CARRASCO MAZATLAN SIN., MX","FM-12","99999","V020","320,1,N,0020,1","99999,9,9,N","015000,1,N,1","+0190,1","+0156,1","10126,1","06,0000,9,1",,,,,"02,1,+02400,1,03,1",,,"07,99,1,02,1,00,1,99999,9,03,1,08,1",,"01,9",,,,"99999,9,10122,1","2,1,022,1,-006,1",,"SYN106AAXX  09151 76458 32965 73202 10190 20156 30122 40126 52022 82038 91450 333 30/// 56099 59006 82358 85272;","Q01  00002PRCP06"
"76458099999","2005-02-09T18:00:00","4","23.2","-106.4166666","4.0","COLONIA JUAN CARRASCO MAZATLAN SIN., MX","FM-12","99999","V020","120,1,N,0020,1","22000,1,9,N","020000,1,N,1","+0246,1","+0169,1","10122,1","06,0000,9,1",,,,,"02,1,+02400,1,03,1",,,"04,99,1,02,1,00,1,99999,9,03,1,08,1",,"01,9",,"120,M,+0260,1","240,N,+0170,1","99999,9,10117,1","7,1,005,1,-023,1",,"SYN118AAXX  09181 76458 32970 41202 10246 20169 30117 40122 57005 82038 91740 333 10260 20170 30/// 56099 59023 82358 82272;","Q01  00002PRCP06"
"76458099999","2005-02-10T00:00:00","4","23.2","-106.4166666","4.0","COLONIA JUAN CARRASCO MAZATLAN SIN., MX","FM-12","99999","V020","300,1,N,0040,1","99999,9,9,N","020000,1,N,1","+0241,1","+0165,1","10102,1","06,0000,9,1","24,0000,9,1",,,,"04,1,+01800,1,03,1",,,"06,99,1,04,1,00,1,99999,9,05,1,06,1",,"01,9",,"120,M,+0292,1","180,N,+0170,1","99999,9,10098,1","6,1,006,1,-012,1",,"SYN130AAXX  10001 76458 32970 63004 10241 20165 30098 40102 56006 84056 92348 333 10292 20170 30/// 50271 56/00 59012 70000 84356 82270;","Q01  00002PRCP06"
"76458099999","2005-02-10T06:00:00","4","23.2","-106.4166666","4.0","COLONIA JUAN CARRASCO MAZATLAN SIN., MX","FM-12","99999","V020","060,1,N,0010,1","22000,1,9,N","008000,1,N,1","+0202,1","+0187,1","10127,1","06,0000,9,1",,,,,"00,1,+99999,9,99,9",,,"00,99,1,00,1,00,1,99999,9,00,1,00,1","0288,9","01,9",,"240,M,+0292,1","240,N,+0170,1","99999,9,10122,1","2,1,011,1,+999,9",,"SYN106AAXX  10061 76458 32958 00601 10202 20187 30122 40127 52011 90530 333 10292 20170 30/// 55048 2//// 59011;","Q01  00002PRCP06"
"76458099999","2005-02-10T18:00:00","4","23.2","-106.4166666","4.0","COLONIA JUAN CARRASCO MAZATLAN SIN., MX","FM-12","99999","V020","160,1,N,0030,1","99999,9,9,N","020000,1,N,1","+0255,1","+0205,1","10147,1","06,0000,9,1",,,,,"03,1,+01800,1,03,1",,,"05,99,1,03,1,00,1,99999,9,05,1,06,1",,"01,9",,"120,M,+0273,1","240,N,+0182,1","99999,9,10142,1","2,1,018,1,+025,1",,"SYN118AAXX  10181 76458 32970 51603 10255 20205 30142 40147 52018 83056 91748 333 10273 20182 30/// 56/00 58025 83356 82270;","Q01  00002PRCP06"
"76458099999","2005-02-10T21:00:00","4","23.2","-106.4166666","4.0","COLONIA JUAN CARRASCO MAZATLAN SIN., MX","FM-12","99999","V020","160,1,N,0040,1","22000,1,9,N","020000,1,N,1","+0262,1","+0205,1","10122,1","06,0000,9,1",,,,,"02,1,+02400,1,03,1",,,"03,99,1,02,1,03,1,99999,9,99,9,08,1",,"01,9",,,,"99999,9,10117,1","7,1,025,1,-013,1",,"SYN106AAXX  10211 76458 32970 31604 10262 20205 30117 40122 57025 82308 92045 333 30/// 56099 59013 82358 81272;","Q01  00002PRCP06"
"76458099999","2005-02-11T06:00:00","4","23.2","-106.4166666","4.0","COLONIA JUAN CARRASCO MAZATLAN SIN., MX","FM-12","99999","V020","210,1,N,0010,1","22000,1,9,N","008000,1,N,1","+0230,1","+0196,1","10162,1","06,0000,9,1",,,,,,,,"02,99,1,00,1,99,9,99999,9,99,9,02,1","0552,9","01,9",,"240,M,+0290,1","240,N,+0182,1","99999,9,10158,1","2,1,017,1,+999,9",,"SYN112AAXX  11061 76458 32958 22101 10230 20196 30158 40162 52017 80//2 90530 333 10290 20182 30/// 55092 2//// 58036;","Q01  00002PRCP06"
"76458099999","2005-02-11T09:00:00","4","23.2","-106.4166666","4.0","COLONIA JUAN CARRASCO MAZATLAN SIN., MX","FM-12","99999","V020","999,9,C,0000,1","22000,1,9,N","008000,1,N,1","+0221,1","+0196,1","10155,1","06,0000,9,1",,,,,"00,1,+99999,9,99,9",,,"00,99,1,00,1,00,1,99999,9,00,1,00,1",,"01,9",,,,"99999,9,10151,1","7,1,007,1,+038,1",,"SYN082AAXX  11091 76458 32958 00000 10221 20196 30151 40155 57007 90845 333 30/// 58038;","Q01  00002PRCP06"
"76458099999","2005-02-11T15:00:00","4","23.2","-106.4166666","4.0","COLONIA JUAN CARRASCO MAZATLAN SIN., MX","FM-12","99999","V020","320,1,N,0010,1","22000,1,9,N","012000,1,N,1","+0220,1","+0194,1","10157,1","06,0000,9,1",,,,,"03,1,+02400,1,03,1",,,"03,99,1,03,1,00,1,99999,9,05,1,00,1",,"01,9",,,,"99999,9,10153,1","2,1,010,1,+029,1",,"SYN100AAXX  11151 76458 32962 33201 10220 20194 30153 40157 52010 83050 91448 333 30/// 56090 58029 83358;","Q01  00002PRCP06"
"76458099999","2005-02-11T21:00:00","4","23.2","-106.4166666","4.0","COLONIA JUAN CARRASCO MAZATLAN SIN., MX","FM-12","99999","V020","200,1,N,0040,1","99999,9,9,N","020000,1,N,1","+0263,1","+0215,1","10139,1","06,0000,9,1",,,,,"03,1,+01800,1,03,1",,,"06,99,1,03,1,00,1,99999,9,05,1,06,1",,"01,9",,,,"99999,9,10134,1","7,1,028,1,+017,1",,"SYN106AAXX  11211 76458 32970 62004 10263 20215 30134 40139 57028 83056 92048 333 30/// 56/00 58017 83356 83268;","Q01  00002PRCP06"
"76458099999","2005-02-12T03:00:00","4","23.2","-106.4166666","4.0","COLONIA JUAN CARRASCO MAZATLAN SIN., MX","FM-12","99999","V020","090,1,N,0020,1","99999,9,9,N","008000,1,N,1","+0244,1","+0213,1","10165,1","06,0000,9,1",,,,,"01,1,+01800,1,03,1",,,"06,99,1,01,1,99,9,02250,1,03,1,06,1",,"01,9",,,,"99999,9,10161,1","2,1,030,1,+020,1",,"SYN100AAXX  12031 76458 32858 60902 10244 20213 30161 40165 52030 81/36 90235 333 30/// 58020 81356 85070;","Q01  00002PRCP06"
"76458099999","2005-02-12T06:00:00","4","23.2","-106.4166666","4.0","COLONIA JUAN CARRASCO MAZATLAN SIN., MX","FM-12","99999","V020","120,1,N,0020,1","03600,1,9,N","008000,1,N,1","+0238,1","+0200,1","10179,1","06,0000,9,1",,,,,"02,1,+00480,1,08,1",,,"07,99,1,02,1,01,1,00450,1,06,1,99,9","0198,9","01,9",,"240,M,+0286,1","240,N,+0207,1","99999,9,10175,1","2,1,013,1,+017,1",,"SYN130AAXX  12061 76458 32458 71202 10238 20200 30175 40179 52013 8216/ 90530 333 10286 20207 30/// 55033 2//// 5669/ 58017 82816 85356;","Q01  00002PRCP06"
"76458099999","2005-02-12T09:00:00","4","23.2","-106.4166666","4.0","COLONIA JUAN CARRASCO MAZATLAN SIN., MX","FM-12","99999","V020","280,1,N,0050,1","00330,1,9,N","008000,1,N,1","+0222,1","+0196,1","10170,1","06,0000,9,1",,,,,"07,1,+00330,1,06,1",,,"07,99,1,07,1,04,1,00450,1,00,1,00,1",,"01,9",,,,"99999,9,10166,1","5,1,009,1,+015,1",,"SYN100AAXX  12091 76458 32458 72805 10222 20196 30166 40170 55009 87400 90845 333 30/// 566// 58015 87611;","Q01  00002PRCP06"
"76458099999","2005-02-12T15:00:00","4","23.2","-106.4166666","4.0","COLONIA JUAN CARRASCO MAZATLAN SIN., MX","FM-12","99999","V020","310,1,N,0010,1","02400,1,9,N","013000,1,N,1","+0210,1","+0189,1","10181,1","01,9999,2,9",,,"4,1,03,1","2,1,03,1","08,1,+02400,1,03,1",,,"08,99,1,08,1,00,1,99999,9,06,1,00,1",,"01,9",,,,"99999,9,10176,1","2,1,005,1,+023,1","20,1","SYN112AAXX  12151 76458 21963 83101 10210 20189 30176 40181 52005 72042 88060 91448 333 30/// 56/0/ 58023 69905 88358;",
"76458099999","2005-02-12T18:00:00","4","23.2","-106.4166666","4.0","COLONIA JUAN CARRASCO MAZATLAN SIN., MX","FM-12","99999","V020","330,1,N,0020,1","02400,1,9,N","020000,1,N,1","+0230,1","+0207,1","10190,1","01,0002,9,1","06,9999,9,9",,"5,1,06,1","2,1,06,1","08,1,+02400,1,03,1",,,"08,99,1,08,1,00,1,99999,9,06,1,00,1",,"09,9",,"120,M,+0236,1","240,N,+0184,1","99999,9,10185,1","1,1,009,1,+022,1","20,1","SYN130AAXX  12181 76458 01970 83302 10230 20207 30185 40190 51009 69921 72052 88060 91740 333 10236 20184 31/// 56/0/ 58022 69925 88358;",
"76458099999","2005-02-13T00:00:00","4","23.2","-106.4166666","4.0","COLONIA JUAN CARRASCO MAZATLAN SIN., MX","FM-12","99999","V020","300,1,N,0040,1","03600,1,9,N","020000,1,N,1","+0244,1","+0200,1","10160,1","06,0008,9,1","24,0008,9,1",,"5,1,06,1","2,1,06,1","02,1,+00660,1,08,1",,,"06,99,1,02,1,02,1,00800,1,05,1,00,1",,"09,9",,"120,M,+0255,1","180,N,+0184,1","99999,9,10156,1","7,1,015,1,+026,1","20,1","SYN154AAXX  13001 76458 01570 63004 10244 20200 30156 40160 57015 69981 72052 82250 92349 333 10255 20184 31/// 50261 5610/ 57815 58026 69981 70008 82822 84356;",
"76458099999","2005-02-13T03:00:00","4","23.2","-106.4166666","4.0","COLONIA JUAN CARRASCO MAZATLAN SIN., MX","FM-12","99999","V020","310,1,N,0020,1","22000,1,9,N","008000,1,N,1","+0218,1","+0188,1","10173,1","06,0000,2,1",,,,,"02,1,+01800,1,03,1",,,"02,99,1,02,1,99,9,02250,1,03,1,99,9",,"01,9",,,,"99999,9,10169,1","2,1,013,1,+008,1",,"SYN094AAXX  13031 76458 32858 23102 10218 20188 30169 40173 52013 82/3/ 90240 333 30/// 58008 82356;",
"76458099999","2005-02-13T09:00:00","4","23.2","-106.4166666","4.0","COLONIA JUAN CARRASCO MAZATLAN SIN., MX","FM-12","99999","V020","330,1,N,0020,1","22000,1,9,N","008000,1,N,1","+0185,1","+0165,1","10174,1","06,0000,9,1",,,,,"00,1,+99999,9,99,9",,,"00,99,1,00,1,00,1,99999,9,00,1,00,1",,"01,9",,,,"99999,9,10169,1","7,1,008,1,+003,1",,"SYN082AAXX  13091 76458 32958 03302 10185 20165 30169 40174 57008 90845 333 30/// 58003;","Q01  00002PRCP06"
"76458099999","2005-02-13T12:00:00","4","23.2","-106.4166666","4.0","COLONIA JUAN CARRASCO MAZATLAN SIN., MX","FM-12","99999","V020","330,1,N,0020,1","22000,1,9,N","008000,1,N,1","+0175,1","+0159,1","10165,1","06,0000,9,1","24,0008,9,1",,,,"00,1,+99999,9,99,9",,,"00,99,1,00,1,00,1,99999,9,00,1,00,1",,"01,9","999,+0144,1","120,N,+0169,1","240,M,+0255,1","99999,9,10160,1","7,1,009,1,-011,1",,"SYN100AAXX  13121 76458 32958 03302 10175 20159 30160 40165 57009 91140 333 10255 20169 30144 59011 70008;","Q01  00002PRCP06"
"76458099999","2005-02-13T15:00:00","4","23.2","-106.4166666","4.0","COLONIA JUAN CARRASCO MAZATLAN SIN., MX","FM-12","99999","V020","320,1,N,0020,1","22000,1,9,N","015000,1,N,1","+0194,1","+0168,1","10174,1","06,0000,9,1",,,,,"00,1,+99999,9,99,9",,,"00,99,1,00,1,00,1,99999,9,00,1,00,1",,"01,9",,,,"99999,9,10169,1","2,1,009,1,+999,9",,"SYN081AAXX  13151 76458 32965 03202 10194 20168 30169 40174 52009 91458 333 30/// 5906;","Q01  00002PRCP06"
"76458099999","2005-02-13T18:00:00","4","23.2","-106.4166666","4.0","COLONIA JUAN CARRASCO MAZATLAN SIN., MX","FM-12","99999","V020","270,1,N,0020,1","22000,1,9,N","020000,1,N,1","+0234,1","+0193,1","10176,1","06,0000,9,1",,,,,"00,1,+99999,9,99,9",,,"00,99,1,00,1,00,1,99999,9,00,1,00,1",,"01,9",,"120,M,+0257,1","240,N,+0163,1","99999,9,10172,1","2,1,005,1,-013,1",,"SYN094AAXX  13181 76458 32970 02702 10234 20193 30172 40176 52005 91750 333 10257 20163 30/// 59013;","Q01  00002PRCP06"
"76458099999","2005-02-13T21:00:00","4","23.2","-106.4166666","4.0","COLONIA JUAN CARRASCO MAZATLAN SIN., MX","FM-12","99999","V020","270,1,N,0040,1","22000,1,9,N","020000,1,N,1","+0250,1","+0174,1","10153,1","06,0000,9,1",,,,,,,,"01,99,1,01,1,02,1,00800,1,00,1,00,1",,"01,9",,,,"99999,9,10148,1","7,1,024,1,-023,1",,"SYN106AAXX  13211 76458 32570 12704 10250 20174 30148 40153 57024 81200 92048 333 30/// 561// 57816 59023 81822;","Q01  00002PRCP06"
"76458099999","2005-02-14T00:00:00","4","23.2","-106.4166666","4.0","COLONIA JUAN CARRASCO MAZATLAN SIN., MX","FM-12","99999","V020","270,1,N,0040,1","22000,1,9,N","020000,1,N,1","+0240,1","+0192,1","10134,1","06,0000,9,1","24,0000,9,1",,,,,,,"01,99,1,01,1,02,1,00800,1,00,1,00,1",,"01,9",,"120,M,+0267,1","180,N,+0163,1","99999,9,10130,1","7,1,018,1,-026,1",,"SYN130AAXX  14001 76458 32570 12704 10240 20192 30130 40134 57018 81200 92345 333 10267 20163 30/// 50281 561// 57816 59026 70000 81822;","Q01  00002PRCP06"
"76458099999","2005-02-14T06:00:00","4","23.2","-106.4166666","4.0","COLONIA JUAN CARRASCO MAZATLAN SIN., MX","FM-12","99999","V020","300,1,N,0030,1","22000,1,9,N","008000,1,N,1","+0210,1","+0174,1","10158,1","06,0000,9,1",,,,,"00,1,+99999,9,99,9",,,"00,99,1,00,1,00,1,99999,9,00,1,00,1","0570,9","01,9",,"240,M,+0267,1","240,N,+0163,1","99999,9,10154,1","0,1,003,1,+999,9",,"SYN106AAXX  14061 76458 32958 03003 10210 20174 30154 40158 50003 90558 333 10267 20163 30/// 55095 2//// 59023;","Q01  00002PRCP06"
"76458099999","2005-02-14T09:00:00","4","23.2","-106.4166666","4.0","COLONIA JUAN CARRASCO MAZATLAN SIN., MX","FM-12","99999","V020","340,1,N,0020,1","22000,1,9,N","008000,1,N,1","+0188,1","+0168,1","10150,1","06,0000,9,1",,,,,"00,1,+99999,9,99,9",,,"00,99,1,00,1,00,1,99999,9,00,1,00,1",,"01,9",,,,"99999,9,10145,1","7,1,009,1,-024,1",,"SYN082AAXX  14091 76458 32958 03402 10188 20168 30145 40150 57009 90847 333 30/// 59024;","Q01  00002PRCP06"
"76458099999","2005-02-14T12:00:00","4","23.2","-106.4166666","4.0","COLONIA JUAN CARRASCO MAZATLAN SIN., MX","FM-12","99999","V020","340,1,N,0020,1","22000,1,9,N","008000,1,N,1","+0176,1","+0157,1","10144,1","06,0000,9,1","24,0000,9,1",,,,"00,1,+99999,9,99,9",,,"00,99,1,00,1,00,1,99999,9,00,1,00,1",,"01,9","999,+0138,1","120,N,+0170,1","240,M,+0267,1","99999,9,10139,1","7,1,006,1,-021,1",,"SYN100AAXX  14121 76458 32958 03402 10176 20157 30139 40144 57006 91140 333 10267 20170 30138 59021 70000;","Q01  00002PRCP06Q02  00002PRCP24"
"76458099999","2005-02-14T18:00:00","4","23.2","-106.4166666","4.0","COLONIA JUAN CARRASCO MAZATLAN SIN., MX","FM-12","99999","V020","240,1,N,0020,1","22000,1,9,N","025000,1,N,1","+0244,1","+0158,1","10154,1","06,0000,9,1",,,,,"00,1,+99999,9,99,9",,,"00,99,1,00,1,00,1,99999,9,00,1,00,1",,"01,9",,"120,M,+0265,1","240,N,+0163,1","99999,9,10150,1","1,1,003,1,-022,1",,"SYN094AAXX  14181 76458 32975 02402 10244 20158 30150 40154 51003 91748 333 10265 20163 30/// 59022;","Q01  00002PRCP06"
"76458099999","2005-02-14T21:00:00","4","23.2","-106.4166666","4.0","COLONIA JUAN CARRASCO MAZATLAN SIN., MX","FM-12","99999","V020","240,1,N,0040,1","22000,1,9,N","024000,1,N,1","+0249,1","+0185,1","10135,1","06,0000,9,1",,,,,"00,1,+99999,9,99,9",,,"00,99,1,00,1,00,1,99999,9,00,1,00,1",,"01,9",,,,"99999,9,10130,1","7,1,019,1,-018,1",,"SYN082AAXX  14211 76458 32974 02404 10249 20185 30130 40135 57019 92048 333 30/// 59018;","Q01  00002PRCP06"
"76458099999","2005-02-15T00:00:00","4","23.2","-106.4166666","4.0","COLONIA JUAN CARRASCO MAZATLAN SIN., MX","FM-12","99999","V020","270,1,N,0040,1","22000,1,9,N","020000,1,N,1","+0246,1","+0186,1","10126,1","06,0000,9,1","24,0000,9,1",,,,"00,1,+99999,9,99,9",,,"00,99,1,00,1,00,1,99999,9,00,1,00,1",,"01,9",,"120,M,+0270,1","180,N,+0163,1","99999,9,10121,1","7,1,009,1,-009,1",,"SYN106AAXX  15001 76458 32970 02704 10246 20186 30121 40126 57009 92345 333 10270 20163 30/// 50281 59009 70000;","Q01  00002PRCP06Q02  00002PRCP24"
"76458099999","2005-02-15T03:00:00","4","23.2","-106.4166666","4.0","COLONIA JUAN CARRASCO MAZATLAN SIN., MX","FM-12","99999","V020","300,1,N,0030,1","22000,1,9,N","008000,1,N,1","+0224,1","+0198,1","10136,1","06,0000,9,1",,,,,"00,1,+99999,9,99,9",,,"00,99,1,00,1,00,1,99999,9,00,1,00,1",,"01,9",,,,"99999,9,10131,1","2,1,010,1,-020,1",,"SYN082AAXX  15031 76458 32958 03003 10224 20198 30131 40136 52010 90235 333 30/// 59020;","Q01  00002PRCP06"
"76458099999","2005-02-15T06:00:00","4","23.2","-106.4166666","4.0","COLONIA JUAN CARRASCO MAZATLAN SIN., MX","FM-12","99999","V020","330,1,N,0020,1","22000,1,9,N","008000,1,N,1","+0210,1","+0193,1","10149,1","06,0000,9,1",,,,,"00,1,+99999,9,99,9",,,"00,99,1,00,1,00,1,99999,9,00,1,00,1","0582,9","01,9",,"240,M,+0270,1","240,N,+0163,1","99999,9,10145,1","2,1,014,1,+999,9",,"SYN106AAXX  15061 76458 32958 03302 10210 20193 30145 40149 52014 90530 333 10270 20163 30/// 55097 2//// 59009;","Q01  00002PRCP06"
"76458099999","2005-02-15T12:00:00","4","23.2","-106.4166666","4.0","COLONIA JUAN CARRASCO MAZATLAN SIN., MX","FM-12","99999","V020","330,1,N,0010,1","22000,1,9,N","008000,1,N,1","+0186,1","+0171,1","10134,1","06,0000,9,1",,,,,"00,1,+99999,9,99,9",,,"00,99,1,00,1,00,1,99999,9,00,1,00,1",,"01,9","999,+0171,1","120,N,+0180,1","240,M,+0270,1","99999,9,10129,1","7,1,005,1,-010,1",,"SYN094AAXX  15121 76458 32958 03301 10186 20171 30129 40134 57005 91132 333 10270 20180 30171 59010;","Q01  00002PRCP06"
"76458099999","2005-02-15T15:00:00","4","23.2","-106.4166666","4.0","COLONIA JUAN CARRASCO MAZATLAN SIN., MX","FM-12","99999","V020","330,1,N,0020,1","22000,1,9,N","015000,1,N,1","+0196,1","+0168,1","10156,1","06,0000,9,1",,,,,"00,1,+99999,9,99,9",,,"00,99,1,00,1,00,1,99999,9,00,1,00,1",,"01,9",,,,"99999,9,10151,1","2,1,012,1,+004,1",,"SYN082AAXX  15151 76458 32965 03302 10196 20168 30151 40156 52012 91450 333 30/// 58004;","Q01  00002PRCP06"
"76458099999","2005-02-15T21:00:00","4","23.2","-106.4166666","4.0","COLONIA JUAN CARRASCO MAZATLAN SIN., MX","FM-12","99999","V020","270,1,N,0040,1","22000,1,9,N","020000,1,N,1","+0247,1","+0206,1","10149,1","06,0000,9,1",,,,,"00,1,+99999,9,99,9",,,"00,99,1,00,1,00,1,99999,9,00,1,00,1",,"01,9",,,,"99999,9,10144,1","7,1,017,1,+014,1",,"SYN082AAXX  15211 76458 32970 02704 10247 20206 30144 40149 57017 92048 333 30/// 58014;","Q01  00002PRCP06"
"76458099999","2005-02-16T00:00:00","4","23.2","-106.4166666","4.0","COLONIA JUAN CARRASCO MAZATLAN SIN., MX","FM-12","99999","V020","270,1,N,0040,1","22000,1,9,N","020000,1,N,1","+0249,1","+0204,1","10122,1","06,0000,9,1","24,0000,9,1",,,,"00,1,+99999,9,99,9",,,"00,99,1,00,1,00,1,99999,9,00,1,00,1",,"01,9",,"120,M,+0277,1","180,N,+0167,1","99999,9,10118,1","7,1,026,1,-003,1",,"SYN106AAXX  16001 76458 32970 02704 10249 20204 30118 40122 57026 92345 333 10277 20167 30/// 50441 59003 70000;","Q01  00002PRCP06Q02  00002PRCP24"
"76458099999","2005-02-16T03:00:00","4","23.2","-106.4166666","4.0","COLONIA JUAN CARRASCO MAZATLAN SIN., MX","FM-12","99999","V020","310,1,N,0020,1","22000,1,9,N","010000,1,N,1","+0224,1","+0201,1","10144,1","06,0000,9,1",,,,,"00,1,+99999,9,99,9",,,"00,99,1,00,1,00,1,99999,9,00,1,00,1",,"01,9",,,,"99999,9,10139,1","2,1,021,1,+008,1",,"SYN082AAXX  16031 76458 32960 03102 10224 20201 30139 40144 52021 90240 333 30/// 58008;","Q01  00002PRCP06"
"76458099999","2005-02-16T06:00:00","4","23.2","-106.4166666","4.0","COLONIA JUAN CARRASCO MAZATLAN SIN., MX","FM-12","99999","V020","310,1,N,0010,1","22000,1,9,N","010000,1,N,1","+0212,1","+0196,1","10152,1","06,0000,9,1",,,,,"00,1,+99999,9,99,9",,,"00,99,1,00,1,00,1,99999,9,00,1,00,1",,"01,9",,"240,M,+0277,1","240,N,+0167,1","99999,9,10147,1","2,1,008,1,+002,1",,"SYN094AAXX  16061 76458 32960 03101 10212 20196 30147 40152 52008 90532 333 10277 20167 30/// 58002;","Q01  00002PRCP06"
"76458099999","2005-02-16T09:00:00","4","23.2","-106.4166666","4.0","COLONIA JUAN CARRASCO MAZATLAN SIN., MX","FM-12","99999","V020","340,1,N,0020,1","22000,1,9,N","010000,1,N,1","+0192,1","+0183,1","10145,1","06,0000,9,1",,,,,"00,1,+99999,9,99,9",,,"00,99,1,00,1,00,1,99999,9,00,1,00,1",,"01,9",,,,"99999,9,10141,1","7,1,006,1,+008,1",,"SYN082AAXX  16091 76458 32960 03402 10192 20183 30141 40145 57006 90845 333 30/// 58008;","Q01  00002PRCP06"
"76458099999","2005-02-16T12:00:00","4","23.2","-106.4166666","4.0","COLONIA JUAN CARRASCO MAZATLAN SIN., MX","FM-12","99999","V020","350,1,N,0020,1","22000,1,9,N","010000,1,N,1","+0184,1","+0176,1","10137,1","06,0000,9,1","24,0000,9,1",,,,"00,1,+99999,9,99,9",,,"00,99,1,00,1,00,1,99999,9,00,1,00,1",,"01,9","999,+0138,1","120,N,+0179,1","240,M,+0277,1","99999,9,10132,1","6,1,009,1,+003,1",,"SYN100AAXX  16121 76458 32960 03502 10184 20176 30132 40137 56009 91140 333 10277 20179 30138 58003 70000;","Q01  00002PRCP06Q02  00002PRCP24"
"76458099999","2005-02-16T15:00:00","4","23.2","-106.4166666","4.0","COLONIA JUAN CARRASCO MAZATLAN SIN., MX","FM-12","99999","V020","040,1,N,0020,1","22000,1,9,N","013000,1,N,1","+0192,1","+0174,1","10141,1","06,0000,9,1",,,,,"00,1,+99999,9,99,9",,,"00,99,1,00,1,00,1,99999,9,00,1,00,1",,"01,9",,,,"99999,9,10136,1","1,1,004,1,-015,1",,"SYN082AAXX  16151 76458 32963 00402 10192 20174 30136 40141 51004 91448 333 30/// 59015;","Q01  00002PRCP06"
"76458099999","2005-02-16T18:00:00","4","23.2","-106.4166666","4.0","COLONIA JUAN CARRASCO MAZATLAN SIN., MX","FM-12","99999","V020","160,1,N,0030,1","22000,1,9,N","020000,1,N,1","+0238,1","+0178,1","10141,1","06,0000,9,1",,,,,"00,1,+99999,9,99,9",,,"00,99,1,00,1,00,1,99999,9,00,1,00,1",,"01,9",,"120,M,+0260,1","240,N,+0167,1","99999,9,10137,1","0,1,001,1,-024,1",,"SYN094AAXX  16181 76458 32970 01603 10238 20178 30137 40141 50001 91748 333 10260 20167 30/// 59024;","Q01  00002PRCP06"
"76458099999","2005-02-16T21:00:00","4","23.2","-106.4166666","4.0","COLONIA JUAN CARRASCO MAZATLAN SIN., MX","FM-12","99999","V020","220,1,N,0030,1","22000,1,9,N","020000,1,N,1","+0248,1","+0199,1","10108,1","06,0000,9,1",,,,,"00,1,+99999,9,99,9",,,"00,99,1,00,1,00,1,99999,9,00,1,00,1",,"01,9",,,,"99999,9,10103,1","7,1,034,1,-041,1",,"SYN082AAXX  16211 76458 32970 02203 10248 20199 30103 40108 57034 92040 333 30/// 59041;","Q01  00002PRCP06"
"76458099999","2005-02-17T00:00:00","4","23.2","-106.4166666","4.0","COLONIA JUAN CARRASCO MAZATLAN SIN., MX","FM-12","99999","V020","290,1,N,0030,1","22000,1,9,N","020000,1,N,1","+0246,1","+0112,1","10102,1","06,0000,9,1","24,0000,9,1",,,,"00,1,+99999,9,99,9",,,"00,99,1,00,1,00,1,99999,9,00,1,00,1",,"01,9",,"120,M,+0278,1","180,N,+0167,1","99999,9,10098,1","7,1,005,1,+999,9",,"SYN106AAXX  17001 76458 32970 02903 10246 20112 30098 40102 57005 92342 333 10278 20167 30/// 5//// 52961 70000;","Q01  00002PRCP06Q02  00002PRCP24"
"76458099999","2005-02-17T03:00:00","4","23.2","-106.4166666","4.0","COLONIA JUAN CARRASCO MAZATLAN SIN., MX","FM-12","99999","V020","330,1,N,0030,1","22000,1,9,N","008000,1,N,1","+0220,1","+0194,1","10119,1","06,0000,9,1",,,,,"00,1,+99999,9,99,9",,,"00,99,1,00,1,00,1,99999,9,00,1,00,1",,"01,9",,,,"99999,9,10114,1","2,1,016,1,-025,1",,"SYN082AAXX  17031 76458 32958 03303 10220 20194 30114 40119 52016 90235 333 30/// 59025;","Q01  00002PRCP06"
"76458099999","2005-02-17T06:00:00","4","23.2","-106.4166666","4.0","COLONIA JUAN CARRASCO MAZATLAN SIN., MX","FM-12","99999","V020","330,1,N,0020,1","22000,1,9,N","008000,1,N,1","+0206,1","+0188,1","10128,1","06,0000,9,1",,,,,"00,1,+99999,9,99,9",,,"00,99,1,00,1,00,1,99999,9,00,1,00,1","0576,9","01,9",,"240,M,+0278,1","240,N,+0167,1","99999,9,10123,1","2,1,009,1,+999,9",,"SYN106AAXX  17061 76458 32958 03302 10206 20188 30123 40128 52009 90530 333 10278 20167 30/// 55096 2//// 59024;","Q01  00002PRCP06"
"76458099999","2005-02-17T09:00:00","4","23.2","-106.4166666","4.0","COLONIA JUAN CARRASCO MAZATLAN SIN., MX","FM-12","99999","V020","350,1,N,0020,1","22000,1,9,N","008000,1,N,1","+0188,1","+0170,1","10120,1","06,0000,9,1",,,,,"00,1,+99999,9,99,9",,,"00,99,1,00,1,00,1,99999,9,00,1,00,1",,"01,9",,,,"99999,9,10116,1","7,1,007,1,-025,1",,"SYN082AAXX  17091 76458 32958 03502 10188 20170 30116 40120 57007 90845 333 30/// 59025;","Q01  00002PRCP06"
"76458099999","2005-02-17T12:00:00","4","23.2","-106.4166666","4.0","COLONIA JUAN CARRASCO MAZATLAN SIN., MX","FM-12","99999","V020","110,1,N,0020,1","22000,1,9,N","008000,1,N,1","+0183,1","+0171,1","10116,1","06,0000,9,1","24,0000,9,1",,,,"00,1,+99999,9,99,9",,,"00,99,1,00,1,00,1,99999,9,00,1,00,1",,"01,9","999,+0138,1","120,N,+0160,1","240,M,+0278,1","99999,9,10111,1","7,1,005,1,-011,1",,"SYN100AAXX  17121 76458 32958 01102 10183 20171 30111 40116 57005 91140 333 10278 20160 30138 59011 70000;","Q01  00002PRCP06Q02  00002PRCP24"
"76458099999","2005-02-17T15:00:00","4","23.2","-106.4166666","4.0","COLONIA JUAN CARRASCO MAZATLAN SIN., MX","FM-12","99999","V020","180,1,N,0010,1","22000,1,9,N","015000,1,N,1","+0190,1","+0173,1","10127,1","06,0000,9,1",,,,,"00,1,+99999,9,99,9",,,"00,99,1,00,1,00,1,99999,9,00,1,00,1",,"01,9",,,,"99999,9,10122,1","2,1,011,1,-014,1",,"SYN082AAXX  17151 76458 32965 01801 10190 20173 30122 40127 52011 91440 333 30/// 59014;","Q01  00002PRCP06"
"76458099999","2005-02-17T18:00:00","4","23.2","-106.4166666","4.0","COLONIA JUAN CARRASCO MAZATLAN SIN., MX","FM-12","99999","V020","180,1,N,0030,1","22000,1,9,N","020000,1,N,1","+0250,1","+0207,1","10136,1","06,0000,9,1",,,,,"00,1,+99999,9,99,9",,,"00,99,1,00,1,00,1,99999,9,00,1,00,1",,"01,9",,"120,M,+0261,1","240,N,+0157,1","99999,9,10131,1","2,1,009,1,-006,1",,"SYN094AAXX  17181 76458 32970 01803 10250 20207 30131 40136 52009 91745 333 10261 20157 30/// 59006;","Q01  00002PRCP06"
"76458099999","2005-02-17T21:00:00","4","23.2","-106.4166666","4.0","COLONIA JUAN CARRASCO MAZATLAN SIN., MX","FM-12","99999","V020","270,1,N,0040,1","22000,1,9,N","020000,1,N,1","+0244,1","+0199,1","10121,1","06,0000,9,1",,,,,"01,1,+00570,1,08,1",,,"01,99,1,01,1,01,1,00450,1,00,1,00,1",,"01,9",,,,"99999,9,10116,1","7,1,015,1,+013,1",,"SYN100AAXX  17211 76458 32470 12704 10244 20199 30116 40121 57015 81100 92050 333 30/// 56800 58013 81819;","Q01  00002PRCP06"
"76458099999","2005-02-18T00:00:00","4","23.2","-106.4166666","4.0","COLONIA JUAN CARRASCO MAZATLAN SIN., MX","FM-12","99999","V020","270,1,N,0030,1","22000,1,9,N","026000,1,N,1","+0240,1","+0192,1","10115,1","06,0000,9,1","24,0000,9,1",,,,,,,"01,99,1,01,1,01,1,00800,1,00,1,00,1",,"01,9",,"120,M,+0271,1","180,N,+0157,1","99999,9,10110,1","5,1,006,1,+012,1",,"SYN124AAXX  18001 76458 32576 12703 10240 20192 30110 40115 55006 81100 92350 333 10271 20157 30/// 50421 56800 58012 70000 81820;","Q01  00002PRCP06"
"76458099999","2005-02-18T06:00:00","4","23.2","-106.4166666","4.0","COLONIA JUAN CARRASCO MAZATLAN SIN., MX","FM-12","99999","V020","320,1,N,0020,1","22000,1,9,N","008000,1,N,1","+0206,1","+0185,1","10137,1","06,0000,9,1",,,,,"00,1,+99999,9,99,9",,,"00,99,1,00,1,00,1,99999,9,00,1,00,1","0582,9","01,9",,"240,M,+0271,1","240,N,+0157,1","99999,9,10132,1","1,1,007,1,+999,9",,"SYN106AAXX  18061 76458 32958 03202 10206 20185 30132 40137 51007 90530 333 10271 20157 30/// 55097 2//// 58009;","Q01  00002PRCP06"
"76458099999","2005-02-18T09:00:00","4","23.2","-106.4166666","4.0","COLONIA JUAN CARRASCO MAZATLAN SIN., MX","FM-12","99999","V020","999,9,C,0000,1","22000,1,9,N","008000,1,N,1","+0186,1","+0169,1","10133,1","06,0000,9,1",,,,,"00,1,+99999,9,99,9",,,"00,99,1,00,1,00,1,99999,9,00,1,00,1",,"01,9",,,,"99999,9,10129,1","7,1,003,1,+013,1",,"SYN082AAXX  18091 76458 32958 00000 10186 20169 30129 40133 57003 90845 333 30/// 58013;","Q01  00002PRCP06"
"76458099999","2005-02-18T12:00:00","4","23.2","-106.4166666","4.0","COLONIA JUAN CARRASCO MAZATLAN SIN., MX","FM-12","99999","V020","330,1,N,0030,1","22000,1,9,N","008000,1,N,1","+0180,1","+0156,1","10125,1","06,0000,9,1","24,0000,9,1",,,,"00,1,+99999,9,99,9",,,"00,99,1,00,1,00,1,99999,9,00,1,00,1",,"01,9","999,+0138,1","120,N,+0174,1","240,M,+0271,1","99999,9,10121,1","7,1,008,1,+010,1",,"SYN100AAXX  18121 76458 32958 03303 10180 20156 30121 40125 57008 91140 333 10271 20174 30138 58010 70000;","Q01  00002PRCP06Q02  00002PRCP24"
"76458099999","2005-02-19T00:00:00","4","23.2","-106.4166666","4.0","COLONIA JUAN CARRASCO MAZATLAN SIN., MX","FM-12","99999","V020","270,1,N,0050,1","22000,1,9,N","020000,1,N,1","+0240,1","+0199,1","10132,1","06,0000,9,1","24,0000,9,1",,,,"00,1,+99999,9,99,9",,,"00,99,1,00,1,00,1,99999,9,00,1,00,1",,"01,9",,"120,M,+0270,1","180,N,+0168,1","99999,9,10127,1","6,1,007,1,+017,1",,"SYN106AAXX  19001 76458 32970 02705 10240 20199 30127 40132 56007 92348 333 10270 20168 30/// 50231 58017 70000;","Q01  00002PRCP06Q02  00002PRCP24"
"76458099999","2005-02-19T06:00:00","4","23.2","-106.4166666","4.0","COLONIA JUAN CARRASCO MAZATLAN SIN., MX","FM-12","99999","V020","330,1,N,0020,1","22000,1,9,N","008000,1,N,1","+0204,1","+0187,1","10160,1","06,0000,9,1",,,,,,,,"04,99,1,00,1,99,9,99999,9,99,9,02,1","0606,9","01,9",,"240,M,+0270,1","240,N,+0168,1","99999,9,10155,1","2,1,010,1,+022,1",,"SYN118AAXX  19061 76458 32958 43302 10204 20187 30155 40160 52010 80//2 90530 333 10270 20168 30/// 55101 2//// 58022 84070;","Q01  00002PRCP06"
"76458099999","2005-02-19T12:00:00","4","23.2","-106.4166666","4.0","COLONIA JUAN CARRASCO MAZATLAN SIN., MX","FM-12","99999","V020","090,1,N,0030,1","22000,1,9,N","008000,1,N,1","+0200,1","+0183,1","10134,1","06,0000,9,1","24,0000,9,1",,,,"00,1,+99999,9,99,9",,,"00,99,1,00,1,00,1,99999,9,00,1,00,1",,"01,9","999,+0154,1","120,N,+0182,1","240,M,+0270,1","99999,9,10129,1","7,1,016,1,+008,1",,"SYN100AAXX  19121 76458 32958 00903 10200 20183 30129 40134 57016 91140 333 10270 20182 30154 58008 70000;","Q01  00002PRCP06Q02  00002PRCP24"
"76458099999","2005-02-19T18:00:00","4","23.2","-106.4166666","4.0","COLONIA JUAN CARRASCO MAZATLAN SIN., MX","FM-12","99999","V020","360,1,N,0020,1","05400,1,9,N","020000,1,N,1","+0245,1","+0181,1","10163,1","06,0000,9,1",,,,,"06,1,+05400,1,02,1",,,"06,99,1,00,1,00,1,99999,9,00,1,06,1",,"01,9",,"120,M,+0260,1","240,N,+0182,1","99999,9,10158,1","1,1,009,1,+007,1",,"SYN112AAXX  19181 76458 32970 63602 10245 20181 30158 40163 51009 80006 91748 333 10260 20182 30/// 56//0 58007 86268;","Q01  00002PRCP06"
"76458099999","2005-02-19T21:00:00","4","23.2","-106.4166666","4.0","COLONIA JUAN CARRASCO MAZATLAN SIN., MX","FM-12","99999","V020","270,1,N,0040,1","02700,1,9,N","018000,1,N,1","+0254,1","+0204,1","10149,1","06,0000,9,1",,,,,"06,1,+02700,1,03,1",,,"06,99,1,06,1,00,1,99999,9,03,1,00,1",,"01,9",,,,"99999,9,10144,1","7,1,013,1,+011,1",,"SYN100AAXX  19211 76458 32968 62704 10254 20204 30144 40149 57013 86030 92058 333 30/// 56050 58011 86359;","Q01  00002PRCP06"
"76458099999","2005-02-20T00:00:00","4","23.2","-106.4166666","4.0","COLONIA JUAN CARRASCO MAZATLAN SIN., MX","FM-12","99999","V020","290,1,N,0030,1","02100,1,9,N","020000,1,N,1","+0244,1","+0198,1","10138,1","06,0000,9,1","24,0000,9,1",,,,,,,"07,99,1,07,1,00,1,02250,1,05,1,00,1",,"01,9",,"120,M,+0275,1","180,N,+0182,1","99999,9,10134,1","5,1,011,1,+007,1",,"SYN124AAXX  20001 76458 32870 72903 10244 20198 30134 40138 55011 87050 92340 333 10275 20182 30/// 50341 56050 58007 70000 87356;","Q01  00002PRCP06"
"76458099999","2005-02-20T03:00:00","4","23.2","-106.4166666","4.0","COLONIA JUAN CARRASCO MAZATLAN SIN., MX","FM-12","99999","V020","320,1,N,0030,1","01800,1,9,N","008000,1,N,1","+0234,1","+0197,1","10146,1","06,0000,9,1",,,,,"07,1,+01800,1,03,1",,,"07,99,1,07,1,99,9,02250,1,03,1,99,9",,"01,9",,,,"99999,9,10141,1","2,1,007,1,-004,1",,"SYN094AAXX  20031 76458 32858 73203 10234 20197 30141 40146 52007 87/3/ 90235 333 30/// 59004 87356;","Q01  00002PRCP06"
"76458099999","2005-02-20T06:00:00","4","23.2","-106.4166666","4.0","COLONIA JUAN CARRASCO MAZATLAN SIN., MX","FM-12","99999","V020","330,1,N,0020,1","99999,9,9,N","008000,1,N,1","+0222,1","+0187,1","10153,1","06,0000,9,1",,,,,,,,"07,99,1,07,1,99,9,02250,1,03,1,99,9","0228,9","01,9",,"240,M,+0275,1","240,N,+0182,1","99999,9,10149,1","2,1,008,1,-006,1",,"SYN118AAXX  20061 76458 32858 73302 10222 20187 30149 40153 52008 87/3/ 90530 333 10275 20182 30/// 55038 2//// 59006 87356;","Q01  00002PRCP06"
"76458099999","2005-02-20T18:00:00","4","23.2","-106.4166666","4.0","COLONIA JUAN CARRASCO MAZATLAN SIN., MX","FM-12","99999","V020","210,1,N,0030,1","02100,1,9,N","020000,1,N,1","+0258,1","+0191,1","10167,1","06,0000,9,1",,,,,"05,1,+02100,1,03,1",,,"05,99,1,05,1,00,1,99999,9,05,1,00,1",,"01,9",,"120,M,+0286,1","240,N,+0185,1","99999,9,10162,1","2,1,005,1,+004,1",,"SYN112AAXX  20181 76458 32970 52103 10258 20191 30162 40167 52005 85050 91750 333 10286 20185 30/// 56090 58004 85357;","Q01  00002PRCP06"
"76458099999","2005-02-21T03:00:00","4","23.2","-106.4166666","4.0","COLONIA JUAN CARRASCO MAZATLAN SIN., MX","FM-12","99999","V020","290,1,N,0030,1","22000,1,9,N","008000,1,N,1","+0232,1","+0215,1","10149,1","06,0000,9,1",,,,,"04,1,+06000,1,02,1",,,"04,99,1,00,1,99,9,99999,9,99,9,07,1",,"01,9",,,,"99999,9,10144,1","2,1,008,1,+003,1",,"SYN094AAXX  21031 76458 32958 42903 10232 20215 30144 40149 52008 80//7 90235 333 30/// 58003 84270;","Q01  00002PRCP06"
"76458099999","2005-02-21T06:00:00","4","23.2","-106.4166666","4.0","COLONIA JUAN CARRASCO MAZATLAN SIN., MX","FM-12","99999","V020","320,1,N,0020,1","99999,9,9,N","008000,1,N,1","+0216,1","+0189,1","10153,1","06,0000,9,1",,,,,,,,"08,99,1,00,1,99,9,99999,9,99,9,07,1","0096,9","01,9",,"240,M,+0283,1","240,N,+0182,1","99999,9,10149,1","0,1,005,1,+999,9",,"SYN112AAXX  21061 76458 32958 83202 10216 20189 30149 40153 50005 80//7 90530 333 10283 20182 30/// 55016 2//// 58000;","Q01  00002PRCP06"
"76458099999","2005-02-21T09:00:00","4","23.2","-106.4166666","4.0","COLONIA JUAN CARRASCO MAZATLAN SIN., MX","FM-12","99999","V020","999,9,C,0000,1","03600,1,9,N","008000,1,N,1","+0203,1","+0187,1","10143,1","06,0000,9,1",,,,,"08,1,+03600,1,04,1",,,"08,99,1,08,1,00,1,02250,1,02,1,00,1",,"01,9",,,,"99999,9,10139,1","7,1,010,1,-005,1",,"SYN100AAXX  21091 76458 32858 80000 10203 20187 30139 40143 57010 88020 90845 333 30/// 56/9/ 59005 88462;","Q01  00002PRCP06"
"76458099999","2005-02-21T12:00:00","4","23.2","-106.4166666","4.0","COLONIA JUAN CARRASCO MAZATLAN SIN., MX","FM-12","99999","V020","999,9,C,0000,1","09000,1,C,N","008000,1,N,1","+0195,1","+0177,1","10132,1","06,0000,9,1","24,0000,9,1",,,,"02,1,+03600,1,04,1",,,"07,99,1,02,1,00,1,02250,1,02,1,08,1",,"01,9","999,+0163,1","120,N,+0190,1","240,M,+0283,1","99999,9,10128,1","7,1,011,1,+018,1",,"SYN124AAXX  21121 76458 32858 70000 10195 20177 30128 40132 57011 82028 91140 333 10283 20190 30163 56/99 58018 70000 82462 85268;","Q01  00002PRCP06"
"76458099999","2005-02-21T18:00:00","4","23.2","-106.4166666","4.0","COLONIA JUAN CARRASCO MAZATLAN SIN., MX","FM-12","99999","V020","360,1,N,0020,1","99999,9,9,N","020000,1,N,1","+0250,1","+0178,1","10141,1","06,0000,9,1",,,,,"03,1,+01800,1,03,1",,,"06,99,1,03,1,00,1,99999,9,05,1,06,1",,"01,9",,"120,M,+0260,1","240,N,+0180,1","99999,9,10137,1","6,1,001,1,-025,1",,"SYN118AAXX  21181 76458 32970 63602 10250 20178 30137 40141 56001 83056 91748 333 10260 20180 30/// 56/00 59025 83356 83268;","Q01  00002PRCP06"
"76458099999","2005-02-21T21:00:00","4","23.2","-106.4166666","4.0","COLONIA JUAN CARRASCO MAZATLAN SIN., MX","FM-12","99999","V020","270,1,N,0030,1","02400,1,9,N","020000,1,N,1","+0254,1","+0203,1","10128,1","06,0000,9,1",,,,,"07,1,+02400,1,03,1",,,"07,99,1,07,1,00,1,99999,9,03,1,00,1",,"01,9",,,,"99999,9,10123,1","7,1,013,1,-034,1",,"SYN100AAXX  21211 76458 32970 72703 10254 20203 30123 40128 57013 87030 92058 333 30/// 56050 59034 87358;","Q01  00002PRCP06"
"76458099999","2005-02-22T00:00:00","4","23.2","-106.4166666","4.0","COLONIA JUAN CARRASCO MAZATLAN SIN., MX","FM-12","99999","V020","280,1,N,0030,1","99999,9,9,N","026000,1,N,1","+0249,1","+0202,1","10122,1","06,0000,9,1","24,0000,9,1",,,,,,,"07,99,1,07,1,00,1,99999,9,07,1,00,1",,"01,9",,"120,M,+0292,1","180,N,+0180,1","99999,9,10117,1","5,1,006,1,-019,1",,"SYN124AAXX  22001 76458 32976 72803 10249 20202 30117 40122 55006 87070 92350 333 10292 20180 30/// 50241 56050 59019 70000 87358;","Q01  00002PRCP06"
"76458099999","2005-02-22T03:00:00","4","23.2","-106.4166666","4.0","COLONIA JUAN CARRASCO MAZATLAN SIN., MX","FM-12","99999","V020","270,1,N,0030,1","03600,1,C,N","008000,1,N,1","+0240,1","+0199,1","10144,1","06,0000,9,1",,,,,"03,1,+00510,1,08,1",,,"08,99,1,03,1,02,1,00450,1,02,1,99,9",,"01,9",,,,"99999,9,10139,1","2,1,022,1,-005,1",,"SYN106AAXX  22031 76458 32458 82703 10240 20199 30139 40144 52022 8322/ 90235 333 30/// 5669/ 59005 83817 85458;","Q01  00002PRCP06"
"76458099999","2005-02-22T06:00:00","4","23.2","-106.4166666","4.0","COLONIA JUAN CARRASCO MAZATLAN SIN., MX","FM-12","99999","V020","360,1,N,0030,1","99999,9,9,N","008000,1,N,1","+0238,1","+0185,1","10138,1","06,0000,9,1",,,,,,,,"08,99,1,08,1,99,9,02250,1,02,1,99,9","0258,9","01,9",,"240,M,+0292,1","240,N,+0180,1","99999,9,10134,1","8,1,005,1,-015,1",,"SYN118AAXX  22061 76458 32858 83603 10238 20185 30134 40138 58005 88/2/ 90530 333 10292 20180 30/// 55043 2//// 59015 88458;","Q01  00002PRCP06"
"76458099999","2005-02-22T12:00:00","4","23.2","-106.4166666","4.0","COLONIA JUAN CARRASCO MAZATLAN SIN., MX","FM-12","99999","V020","090,1,N,0020,1","02400,1,9,N","008000,1,N,1","+0220,1","+0185,1","10112,1","06,0000,9,1","24,0000,9,1",,,,"07,1,+02400,1,03,1",,,"07,99,1,07,1,00,1,99999,9,07,1,00,1",,"01,9","999,+0206,1","120,N,+0215,1","240,M,+0292,1","99999,9,10108,1","7,1,013,1,-019,1",,"SYN118AAXX  22121 76458 32958 70902 10220 20185 30108 40112 57013 87070 91140 333 10292 20215 30206 56090 59019 70000 87358;","Q01  00002PRCP06"
"76458099999","2005-02-22T15:00:00","4","23.2","-106.4166666","4.0","COLONIA JUAN CARRASCO MAZATLAN SIN., MX","FM-12","99999","V020","360,1,N,0010,1","99999,9,9,N","014000,1,N,1","+0225,1","+0194,1","10133,1","06,0000,9,1",,,,,"04,1,+01800,1,04,1",,,"07,99,1,04,1,00,1,99999,9,05,1,06,1",,"01,9",,,,"99999,9,10128,1","2,1,021,1,-008,1",,"SYN106AAXX  22151 76458 32964 73601 10225 20194 30128 40133 52021 84056 91450 333 30/// 56/00 59008 84456 83268;","Q01  00002PRCP06"
"76458099999","2005-02-22T21:00:00","4","23.2","-106.4166666","4.0","COLONIA JUAN CARRASCO MAZATLAN SIN., MX","FM-12","99999","V020","260,1,N,0030,1","00420,1,9,N","016000,1,N,1","+0240,1","+0207,1","10134,1","06,0000,9,1",,,"4,1,03,1","4,1,03,1","07,1,+00420,1,08,1",,,"07,99,1,07,1,07,1,00450,1,00,1,00,1",,"01,9",,,,"99999,9,10130,1","7,1,011,1,+006,1","05,1","SYN106AAXX  22211 76458 31466 72603 10240 20207 30130 40134 57011 70544 87700 92050 333 30/// 56500 58006 87814;","Q01  00002PRCP06"
"76458099999","2005-02-23T00:00:00","4","23.2","-106.4166666","4.0","COLONIA JUAN CARRASCO MAZATLAN SIN., MX","FM-12","99999","V020","270,1,N,0030,1","03600,1,9,N","016000,1,N,1","+0247,1","+0201,1","10118,1","06,0000,9,1","24,9999,9,9",,"4,1,06,1","4,1,06,1","03,1,+00570,1,08,1",,,"06,99,1,03,1,07,1,00450,1,05,1,00,1",,"01,9",,"120,M,+0270,1","180,N,+0215,1","99999,9,10113,1","7,1,016,1,-004,1","05,1","SYN136AAXX  23001 76458 31466 62703 10247 20201 30113 40118 57016 70544 83750 92350 333 10270 20215 30/// 50151 56550 59004 79999 83819 83358;","Q01  00002PRCP06Q02  99992PRCP24"
"76458099999","2005-02-23T03:00:00","4","23.2","-106.4166666","4.0","COLONIA JUAN CARRASCO MAZATLAN SIN., MX","FM-12","99999","V020","300,1,N,0220,1","22000,1,9,N","010000,1,N,1","+0230,1","+0189,1","10121,1","06,0000,9,1",,,,,"00,1,+99999,9,99,9",,,"00,99,1,00,1,00,1,99999,9,00,1,00,1",,"01,9",,,,"99999,9,10116,1","2,1,003,1,-023,1",,"SYN082AAXX  23031 76458 32960 03022 10230 20189 30116 40121 52003 90235 333 30/// 59023;","Q01  00002PRCP06"
"76458099999","2005-02-23T09:00:00","4","23.2","-106.4166666","4.0","COLONIA JUAN CARRASCO MAZATLAN SIN., MX","FM-12","99999","V020","270,1,N,0030,1","22000,1,9,N","010000,1,N,1","+0205,1","+0169,1","10119,1","06,0000,9,1",,,,,"00,1,+99999,9,99,9",,,"00,99,1,00,1,00,1,99999,9,00,1,00,1",,"01,9",,,,"99999,9,10115,1","7,1,006,1,-006,1",,"SYN082AAXX  23091 76458 32960 02703 10205 20169 30115 40119 57006 90845 333 30/// 59006;","Q01  00002PRCP06"
"76458099999","2005-02-23T12:00:00","4","23.2","-106.4166666","4.0","COLONIA JUAN CARRASCO MAZATLAN SIN., MX","FM-12","99999","V020","120,1,N,0020,1","22000,1,9,N","010000,1,N,1","+0184,1","+0164,1","10115,1","06,0000,9,1","24,0000,9,1",,,,"00,1,+99999,9,99,9",,,"00,99,1,00,1,00,1,99999,9,00,1,00,1",,"01,9","999,+0139,1","120,N,+0179,1","240,M,+0270,1","99999,9,10111,1","8,1,004,1,+003,1",,"SYN100AAXX  23121 76458 32960 01202 10184 20164 30111 40115 58004 91140 333 10270 20179 30139 58003 70000;","Q01  00002PRCP06Q02  00002PRCP24"
"76458099999","2005-02-23T15:00:00","4","23.2","-106.4166666","4.0","COLONIA JUAN CARRASCO MAZATLAN SIN., MX","FM-12","99999","V020","090,1,N,0010,1","22000,1,9,N","020000,1,N,1","+0210,1","+0164,1","10133,1","06,0000,9,1",,,,,"04,1,+02400,1,03,1",,,"04,99,1,04,1,00,1,99999,9,05,1,00,1",,"01,9",,,,"99999,9,10128,1","2,1,017,1,+000,1",,"SYN100AAXX  23151 76458 32970 40901 10210 20164 30128 40133 52017 84050 91448 333 30/// 56/0/ 58000 84358;","Q01  00002PRCP06"
"76458099999","2005-02-23T21:00:00","4","23.2","-106.4166666","4.0","COLONIA JUAN CARRASCO MAZATLAN SIN., MX","FM-12","99999","V020","300,1,N,0060,1","00870,1,9,N","016000,1,N,1","+0255,1","+0186,1","10119,1","06,0000,9,1",,,,,"05,1,+00870,1,08,1","01,1,+02400,1,03,1",,"07,99,1,05,1,07,1,00800,1,03,1,05,1",,"01,9",,,,"99999,9,10115,1","7,1,017,1,-015,1",,"SYN112AAXX  23211 76458 32566 73006 10255 20186 30115 40119 57017 85735 92050 333 30/// 56799 59015 85829 81358 81079;","Q01  00002PRCP06"
"76458099999","2005-02-24T00:00:00","4","23.2","-106.4166666","4.0","COLONIA JUAN CARRASCO MAZATLAN SIN., MX","FM-12","99999","V020","330,1,N,0070,1","02700,1,C,N","020000,1,N,1","+0305,1","+0128,1","10101,1","06,0000,9,1","24,0000,9,1",,,,"01,1,+01200,1,08,1","04,1,+02700,1,03,1",,"06,99,1,01,1,02,1,02250,1,06,1,05,1",,"01,9",,"120,M,+0342,1","180,N,+0172,1","99999,9,10097,1","7,1,018,1,-016,1",,"SYN136AAXX  24001 76458 32870 63307 10305 20128 30097 40101 57018 81265 92350 333 10342 20172 30/// 50241 56169 59016 70000 81840 84359 81079;","Q01  00002PRCP06"
"76458099999","2005-02-24T09:00:00","4","23.2","-106.4166666","4.0","COLONIA JUAN CARRASCO MAZATLAN SIN., MX","FM-12","99999","V020","120,1,N,0030,1","00300,1,9,N","008000,1,N,1","+0233,1","+0110,1","10119,1","03,0000,2,1",,,"5,1,03,1","5,1,03,1","07,1,+00300,1,08,1",,,"07,99,1,07,1,02,1,00250,1,00,1,00,1",,"09,9",,,,"99999,9,10114,1","2,1,004,1,-001,1","50,1","SYN112AAXX  24091 76458 11358 71203 10233 20110 30114 40119 52004 69917 75055 87200 90847 333 31/// 566// 59001 87810;",
"76458099999","2005-02-24T12:00:00","4","23.2","-106.4166666","4.0","COLONIA JUAN CARRASCO MAZATLAN SIN., MX","FM-12","99999","V020","090,1,N,0020,1","00330,1,9,N","008000,1,N,1","+0223,1","+0197,1","10117,1","06,0001,9,1","24,0001,9,1",,,,"07,1,+00330,1,06,1",,,"07,99,1,07,1,04,1,00450,1,00,1,00,1",,"01,9","999,+0200,1","120,N,+0222,1","240,M,+0342,1","99999,9,10112,1","8,1,002,1,+001,1",,"SYN124AAXX  24121 76458 22458 70902 10223 20197 30112 40117 58002 87400 91140 333 10342 20222 30200 566// 58001 69911 70001 87611;",
"76458099999","2005-02-24T18:00:00","4","23.2","-106.4166666","4.0","COLONIA JUAN CARRASCO MAZATLAN SIN., MX","FM-12","99999","V020","240,1,N,0020,1","22000,1,9,N","020000,1,N,1","+0261,1","+0193,1","10131,1","06,0000,9,1",,,,,"02,1,+00840,1,06,1",,,"02,99,1,02,1,04,1,00800,1,00,1,00,1",,"01,9",,"120,M,+0283,1","240,N,+0210,1","99999,9,10127,1","2,1,013,1,-005,1",,"SYN112AAXX  24181 76458 32570 22402 10261 20193 30127 40131 52013 82400 91745 333 10283 20210 30/// 56100 59005 82628;","Q01  00002PRCP06"
"76458099999","2005-02-24T21:00:00","4","23.2","-106.4166666","4.0","COLONIA JUAN CARRASCO MAZATLAN SIN., MX","FM-12","99999","V020","270,1,N,0060,1","22000,1,9,N","020000,1,N,1","+0246,1","+0189,1","10117,1","06,0000,9,1",,,,,"02,1,+00720,1,08,1","01,1,+02700,1,03,1",,"04,99,1,02,1,02,1,00800,1,03,1,05,1",,"01,9",,,,"99999,9,10113,1","7,1,014,1,-002,1",,"SYN112AAXX  24211 76458 32570 42706 10246 20189 30113 40117 57014 82235 92050 333 30/// 56169 59002 82824 81359 81079;","Q01  00002PRCP06"
"76458099999","2005-02-25T00:00:00","4","23.2","-106.4166666","4.0","COLONIA JUAN CARRASCO MAZATLAN SIN., MX","FM-12","99999","V020","300,1,N,0060,1","09000,1,9,N","020000,1,N,1","+0241,1","+0167,1","10107,1","06,0000,9,1","24,9999,2,9",,,,"01,1,+00930,1,08,1","01,1,+01380,1,09,1",,"05,99,1,02,1,03,1,00800,1,03,1,06,1",,"01,9",,"120,M,+0281,1","180,N,+0210,1","99999,9,10103,1","7,1,010,1,+006,1",,"SYN136AAXX  25001 76458 32570 53006 10241 20167 30103 40107 57010 82336 92350 333 10281 20210 30/// 50471 56169 58006 79999 81831 81946 81359;","Q01  00002PRCP06"
"76458099999","2005-02-25T03:00:00","4","23.2","-106.4166666","4.0","COLONIA JUAN CARRASCO MAZATLAN SIN., MX","FM-12","99999","V020","300,1,N,0040,1","99999,9,9,N","008000,1,N,1","+0226,1","+0188,1","10116,1","06,0000,9,1",,,,,"03,1,+00480,1,08,1",,,"07,99,1,03,1,02,1,00450,1,99,9,06,1",,"01,9",,,,"99999,9,10111,1","2,1,008,1,+002,1",,"SYN106AAXX  25031 76458 32458 73004 10226 20188 30111 40116 52008 832/6 90240 333 30/// 566/9 58002 83816 84070;","Q01  00002PRCP06"
"76458099999","2005-02-25T06:00:00","4","23.2","-106.4166666","4.0","COLONIA JUAN CARRASCO MAZATLAN SIN., MX","FM-12","99999","V020","310,1,N,0030,1","99999,9,9,N","008000,1,N,1","+0218,1","+0173,1","10125,1","06,0000,9,1",,,,,"01,1,+00570,1,06,1",,,"07,99,1,01,1,04,1,00800,1,99,9,07,1","0558,9","01,9",,"240,M,+0281,1","240,N,+0210,1","99999,9,10121,1","0,1,010,1,+999,9",,"SYN118AAXX  25061 76458 32558 73103 10218 20173 30121 40125 50010 814/7 90535 333 10281 20210 30/// 55093 2//// 81619 86270;","Q01  00002PRCP06"
"76458099999","2005-02-25T09:00:00","4","23.2","-106.4166666","4.0","COLONIA JUAN CARRASCO MAZATLAN SIN., MX","FM-12","99999","V020","290,1,N,0020,1","09000,1,C,N","008000,1,N,1","+0214,1","+0176,1","10123,1","06,0000,9,1",,,,,"04,1,+00480,1,06,1",,,"07,99,1,04,1,04,1,00450,1,00,1,08,1",,"01,9",,,,"99999,9,10118,1","7,1,003,1,+004,1",,"SYN106AAXX  25091 76458 32458 72902 10214 20176 30118 40123 57003 84408 90847 333 30/// 566/9 58004 84616 83268;","Q01  00002PRCP06"
"76458099999","2005-02-25T12:00:00","4","23.2","-106.4166666","4.0","COLONIA JUAN CARRASCO MAZATLAN SIN., MX","FM-12","99999","V020","290,1,N,0020,1","00420,1,9,N","008000,1,N,1","+0208,1","+0175,1","10120,1","06,0000,9,1","24,0000,9,1",,,,"06,1,+00420,1,06,1",,,"08,99,1,06,1,04,1,00450,1,00,1,08,1",,"01,9","999,+0190,1","120,N,+0201,1","240,M,+0281,1","99999,9,10115,1","5,1,003,1,+003,1",,"SYN124AAXX  25121 76458 32458 82902 10208 20175 30115 40120 55003 86408 91140 333 10281 20201 30190 565/9 58003 70000 86614 82268;","Q01  00002PRCP06"
"76458099999","2005-02-25T18:00:00","4","23.2","-106.4166666","4.0","COLONIA JUAN CARRASCO MAZATLAN SIN., MX","FM-12","99999","V020","330,1,N,0020,1","00690,1,C,N","018000,1,N,1","+0214,1","+0178,1","10147,1","06,9999,9,9",,,,,"06,1,+00690,1,06,1",,,"08,99,1,06,1,02,1,00450,1,00,1,05,1",,"01,9",,"120,M,+0233,1","240,N,+0200,1","99999,9,10142,1","7,1,013,1,+015,1",,"SYN130AAXX  25181 76458 12468 83302 10214 20178 30142 40147 57013 69901 86205 91748 333 10233 20200 30/// 565/0 57655 58015 86623 82266;",
"76458099999","2005-02-25T21:00:00","4","23.2","-106.4166666","4.0","COLONIA JUAN CARRASCO MAZATLAN SIN., MX","FM-12","99999","V020","060,1,N,0020,1","00420,1,9,N","015000,1,N,1","+0210,1","+0178,1","10133,1","06,0000,9,1",,,,,"06,1,+00420,1,06,1",,,"08,99,1,06,1,05,1,00450,1,00,1,05,1",,"01,9",,,,"99999,9,10129,1","7,1,013,1,+016,1",,"SYN106AAXX  25211 76458 32465 80602 10210 20178 30129 40133 57013 86505 92050 333 30/// 56509 58016 86614 82272;","Q01  00002PRCP06"
"76458099999","2005-02-26T00:00:00","4","23.2","-106.4166666","4.0","COLONIA JUAN CARRASCO MAZATLAN SIN., MX","FM-12","99999","V020","120,1,N,0020,1","00450,1,C,N","015000,1,N,1","+0204,1","+0168,1","10120,1","06,0000,9,1","24,0000,9,1",,,,"06,1,+00450,1,06,1",,,"08,99,1,06,1,05,1,00450,1,00,1,05,1",,"01,9",,"120,M,+0231,1","180,N,+0200,1","99999,9,10116,1","7,1,013,1,+013,1",,"SYN130AAXX  26001 76458 32465 81202 10204 20168 30116 40120 57013 86505 92338 333 10231 20200 30/// 52301 56509 58013 70000 86615 82272;","Q01  00002PRCP06"
"76458099999","2005-02-26T03:00:00","4","23.2","-106.4166666","4.0","COLONIA JUAN CARRASCO MAZATLAN SIN., MX","FM-12","99999","V020","120,1,N,0030,1","00180,1,9,N","008000,1,N,1","+0194,1","+0181,1","10138,1","06,0020,9,1",,,"5,1,03,1","5,1,03,1","05,1,+00180,1,05,1",,,"08,99,1,05,1,05,1,00150,1,02,1,99,9",,"09,9",,,,"99999,9,10133,1","2,1,017,1,+022,1","20,1","SYN118AAXX  26031 76458 11258 81203 10194 20181 30133 40138 52017 60021 72055 8552/ 90240 333 31/// 5649/ 58022 85506 83458;",
"76458099999","2005-02-26T09:00:00","4","23.2","-106.4166666","4.0","COLONIA JUAN CARRASCO MAZATLAN SIN., MX","FM-12","99999","V020","110,1,N,0030,1","03600,1,9,N","008000,1,N,1","+0185,1","+0175,1","10137,1","03,0061,9,1",,,"6,1,03,1","6,1,03,1","04,1,+00120,1,07,1",,,"08,99,1,04,1,06,1,00150,1,05,1,00,1",,"09,9",,,,"99999,9,10132,1","8,1,006,1,+014,1","50,1","SYN118AAXX  26091 76458 11258 81103 10185 20175 30132 40137 58006 60067 75066 84650 90850 333 31/// 5629/ 58014 84704 84462;",
"76458099999","2005-02-26T15:00:00","4","23.2","-106.4166666","4.0","COLONIA JUAN CARRASCO MAZATLAN SIN., MX","FM-12","99999","V020","330,1,N,0030,1","03600,1,9,N","016000,1,N,1","+0182,1","+0165,1","10145,1","03,0040,9,1",,,"5,1,03,1","2,1,03,1","04,1,+00660,1,06,1",,,"07,99,1,04,1,02,1,00450,1,05,1,00,1",,"09,9",,,,"99999,9,10140,1","2,1,014,1,+011,1","05,1","SYN124AAXX  26151 76458 11466 73303 10182 20165 30140 40145 52014 70552 84250 91448 333 31/// 5650/ 57656 58011 60047 84622 83456;",
"76458099999","2005-02-26T18:00:00","4","23.2","-106.4166666","4.0","COLONIA JUAN CARRASCO MAZATLAN SIN., MX","FM-12","99999","V020","110,1,N,0030,1","03600,1,9,N","020000,1,N,1","+0222,1","+0182,1","10159,1","06,0041,9,1",,,,,"03,1,+00660,1,08,1",,,"05,99,1,03,1,02,1,00800,1,05,1,00,1",,"09,9",,"120,M,+0235,1","240,N,+0166,1","99999,9,10154,1","7,1,014,1,+012,1",,"SYN130AAXX  26181 76458 12570 51103 10222 20182 30154 40159 57014 60041 83250 91748 333 10235 20166 31/// 5650/ 57855 58012 83822 82356;",
"76458099999","2005-02-27T00:00:00","4","23.2","-106.4166666","4.0","COLONIA JUAN CARRASCO MAZATLAN SIN., MX","FM-12","99999","V020","210,1,N,0030,1","22000,1,9,N","020000,1,N,1","+0234,1","+0163,1","10133,1","06,0000,9,1","24,0121,9,1",,,,"01,1,+00870,1,08,1",,,"02,99,1,01,1,02,1,00800,1,00,1,05,1",,"01,9",,"120,M,+0255,1","180,N,+0182,1","99999,9,10129,1","7,1,009,1,+013,1",,"SYN130AAXX  27001 76458 32570 22103 10234 20163 30129 40133 57009 81205 92350 333 10255 20182 30/// 50351 56109 58013 70121 81829 81079;","Q01  00002PRCP06"
"76458099999","2005-02-27T06:00:00","4","23.2","-106.4166666","4.0","COLONIA JUAN CARRASCO MAZATLAN SIN., MX","FM-12","99999","V020","030,1,N,0020,1","00300,1,9,N","008000,1,N,1","+0202,1","+0178,1","10112,1","02,0000,9,1",,,,,"05,1,+00300,1,08,1",,,"05,99,1,05,1,02,1,00250,1,99,9,99,9","0516,9","01,9",,"240,M,+0255,1","240,N,+0182,1","99999,9,10157,1","2,1,012,1,+019,1",,"SYN118AAXX  27061 76458 12358 50302 10202 20178 30157 40112 52012 69906 852// 90530 333 10255 20182 30/// 55086 58019 85810;","Q01  00002PRCP02"
"76458099999","2005-02-27T12:00:00","4","23.2","-106.4166666","4.0","COLONIA JUAN CARRASCO MAZATLAN SIN., MX","FM-12","99999","V020","999,9,C,0000,1","22000,1,9,N","008000,1,N,1","+0173,1","+0155,1","10146,1","06,0000,9,1","24,0041,9,1",,,,"00,1,+99999,9,99,9",,,"00,99,1,00,1,00,1,99999,9,00,1,00,1",,"01,9","999,+0144,1","120,N,+0166,1","240,M,+0255,1","99999,9,10142,1","6,1,013,1,+017,1",,"SYN100AAXX  27121 76458 32958 00000 10173 20155 30142 40146 56013 91140 333 10255 20166 30144 58017 70040;","Q01  00002PRCP06"
"76458099999","2005-02-27T15:00:00","4","23.2","-106.4166666","4.0","COLONIA JUAN CARRASCO MAZATLAN SIN., MX","FM-12","99999","V020","330,1,N,0030,1","22000,1,9,N","018000,1,N,1","+0177,1","+0156,1","10166,1","06,0000,9,1",,,,,"01,1,+00660,1,08,1",,,"02,99,1,01,1,02,1,00800,1,00,1,06,1",,"01,9",,,,"99999,9,10162,1","2,1,020,1,+022,1",,"SYN112AAXX  27151 76458 32568 23303 10177 20156 30162 40166 52020 81206 91448 333 30/// 564/0 57846 58022 81822 81070;","Q01  00002PRCP06"
"76458099999","2005-02-27T18:00:00","4","23.2","-106.4166666","4.0","COLONIA JUAN CARRASCO MAZATLAN SIN., MX","FM-12","99999","V020","250,1,N,0030,1","22000,1,9,N","020000,1,N,1","+0228,1","+0187,1","10162,1","06,0000,9,1",,,,,"02,1,+00510,1,08,1",,,"02,99,1,02,1,02,1,00450,1,00,1,00,1",,"01,9",,"120,M,+0251,1","240,N,+0163,1","99999,9,10157,1","7,1,005,1,+003,1",,"SYN112AAXX  27181 76458 32470 22503 10228 20187 30157 40162 57005 82200 91745 333 10251 20163 30/// 56600 58003 82817;","Q01  00002PRCP06"
"76458099999","2005-02-27T21:00:00","4","23.2","-106.4166666","4.0","COLONIA JUAN CARRASCO MAZATLAN SIN., MX","FM-12","99999","V020","250,1,N,0040,1","22000,1,9,N","020000,1,N,1","+0230,1","+0168,1","10149,1","06,0000,9,1",,,,,"01,1,+00780,1,08,1",,,"03,99,1,01,1,02,1,00800,1,99,9,02,1",,"01,9",,,,"99999,9,10145,1","7,1,012,1,+007,1",,"SYN100AAXX  27211 76458 32570 32504 10230 20168 30145 40149 57012 812/2 92040 333 30/// 58007 81826 82070;","Q01  00002PRCP06"
"76458099999","2005-02-28T00:00:00","4","23.2","-106.4166666","4.0","COLONIA JUAN CARRASCO MAZATLAN SIN., MX","FM-12","99999","V020","280,1,N,0060,1","22000,1,9,N","020000,1,N,1","+0228,1","+0157,1","10148,1","06,0000,9,1","24,0000,9,1",,,,"01,1,+00900,1,08,1",,,"03,99,1,01,1,02,1,00800,1,99,9,06,1",,"01,9",,"120,M,+0250,1","180,N,+0163,1","99999,9,10144,1","5,1,001,1,+015,1",,"SYN124AAXX  28001 76458 32570 32806 10228 20157 30144 40148 55001 812/6 92340 333 10250 20163 30/// 50341 58015 70000 81830 82070;","Q01  00002PRCP06"
"76458099999","2005-02-28T03:00:00","4","23.2","-106.4166666","4.0","COLONIA JUAN CARRASCO MAZATLAN SIN., MX","FM-12","99999","V020","310,1,N,0040,1","22000,1,9,N","016000,1,N,1","+0205,1","+0156,1","10162,1","06,0000,9,1",,,,,"00,1,+99999,9,99,9",,,"00,99,1,00,1,00,1,99999,9,00,1,00,1",,"01,9",,,,"99999,9,10157,1","2,1,013,1,+012,1",,"SYN082AAXX  28031 76458 32966 03104 10205 20156 30157 40162 52013 90250 333 30/// 58012;","Q01  00002PRCP06"
"76458099999","2005-02-28T06:00:00","4","23.2","-106.4166666","4.0","COLONIA JUAN CARRASCO MAZATLAN SIN., MX","FM-12","99999","V020","030,1,N,0020,1","22000,1,9,N","016000,1,N,1","+0186,1","+0151,1","10166,1","06,0000,9,1",,,,,"00,1,+99999,9,99,9",,,"00,99,1,00,1,00,1,99999,9,00,1,00,1","0594,9","01,9",,"240,M,+0250,1","240,N,+0163,1","99999,9,10161,1","4,1,000,1,+999,9",,"SYN106AAXX  28061 76458 32966 00302 10186 20151 30161 40166 54004 90540 333 10250 20163 30/// 55099 2//// 58004;","Q01  00002PRCP06"
"76458099999","2005-02-28T09:00:00","4","23.2","-106.4166666","4.0","COLONIA JUAN CARRASCO MAZATLAN SIN., MX","FM-12","99999","V020","999,9,C,0000,1","22000,1,9,N","010000,1,N,1","+0170,1","+0146,1","10158,1","06,0000,9,1",,,,,"00,1,+99999,9,99,9",,,"00,99,1,00,1,00,1,99999,9,00,1,00,1",,"01,9",,,,"99999,9,10153,1","7,1,008,1,-002,1",,"SYN082AAXX  28091 76458 32960 00000 10170 20146 30153 40158 57008 90845 333 30/// 59002;","Q01  00002PRCP06"
"76458099999","2005-02-28T12:00:00","4","23.2","-106.4166666","4.0","COLONIA JUAN CARRASCO MAZATLAN SIN., MX","FM-12","99999","V020","999,9,C,0000,1","22000,1,9,N","010000,1,N,1","+0166,1","+0137,1","10155,1","06,0000,9,1","24,0000,9,1",,,,"00,1,+99999,9,99,9",,,"00,99,1,00,1,00,1,99999,9,00,1,00,1",,"01,9","999,+0123,1","120,N,+0156,1","240,M,+0250,1","99999,9,10150,1","7,1,003,1,+008,1",,"SYN100AAXX  28121 76458 32960 00000 10166 20137 30150 40155 57003 91140 333 10250 20156 30123 58008 70000;","Q01  00002PRCP06Q02  00002PRCP24"
"76458099999","2005-02-28T18:00:00","4","23.2","-106.4166666","4.0","COLONIA JUAN CARRASCO MAZATLAN SIN., MX","FM-12","99999","V020","220,1,N,0030,1","22000,1,9,N","020000,1,N,1","+0235,1","+0164,1","10159,1","06,0000,9,1",,,,,"03,1,+01800,1,03,1",,,"04,99,1,03,1,00,1,99999,9,05,1,06,1",,"01,9",,"120,M,+0250,1","240,N,+0147,1","99999,9,10155,1","6,1,004,1,+016,1",,"SYN118AAXX  28181 76458 32970 42203 10235 20164 30155 40159 56004 83056 91748 333 10250 20147 30/// 56/00 58016 83356 81070;","Q01  00002PRCP06"
"76458099999","2005-02-28T21:00:00","4","23.2","-106.4166666","4.0","COLONIA JUAN CARRASCO MAZATLAN SIN., MX","FM-12","99999","V020","270,1,N,0040,1","22000,1,9,N","026000,1,N,1","+0247,1","+0171,1","10133,1","06,0000,9,1",,,,,"01,1,+00960,1,08,1",,,"03,99,1,01,1,01,1,00800,1,00,1,03,1",,"01,9",,,,"99999,9,10129,1","7,1,026,1,-016,1",,"SYN106AAXX  28211 76458 32576 32704 10247 20171 30129 40133 57026 81103 92050 333 30/// 56109 59016 81832 82079;","Q01  00002PRCP06"
"76458099999","2005-03-01T00:00:00","4","23.2","-106.4166666","4.0","COLONIA JUAN CARRASCO MAZATLAN SIN., MX","FM-12","99999","V020","300,1,N,0040,1","22000,1,9,N","026000,1,N,1","+0232,1","+0167,1","10121,1","06,0000,9,1","24,0000,9,1",,,,"01,1,+00810,1,08,1","01,1,+02400,1,03,1",,"03,99,1,01,1,01,1,00800,1,03,1,05,1",,"01,9",,"120,M,+0260,1","180,N,+0147,1","99999,9,10117,1","7,1,012,1,-027,1",,"SYN136AAXX  01001 76458 32576 33004 10232 20167 30117 40121 57012 81135 92350 333 10260 20147 30/// 50421 56169 59027 70000 81827 81358 81079;","Q01  00002PRCP06"
"76458099999","2005-03-01T03:00:00","4","23.2","-106.4166666","4.0","COLONIA JUAN CARRASCO MAZATLAN SIN., MX","FM-12","99999","V020","300,1,N,0050,1","22000,1,9,N","008000,1,N,1","+0214,1","+0168,1","10129,1","06,0000,9,1",,,,,"00,1,+99999,9,99,9",,,"00,99,1,00,1,00,1,99999,9,00,1,00,1",,"01,9",,,,"99999,9,10125,1","2,1,008,1,-032,1",,"SYN082AAXX  01031 76458 32958 03005 10214 20168 30125 40129 52008 90230 333 30/// 59032;","Q01  00002PRCP06"
"76458099999","2005-03-01T06:00:00","4","23.2","-106.4166666","4.0","COLONIA JUAN CARRASCO MAZATLAN SIN., MX","FM-12","99999","V020","320,1,N,0020,1","22000,1,9,N","008000,1,N,1","+0200,1","+0169,1","10140,1","06,0000,9,1",,,,,"00,1,+99999,9,99,9",,,"00,99,1,00,1,00,1,99999,9,00,1,00,1","0618,9","01,9",,"240,M,+0260,1","240,N,+0147,1","99999,9,10136,1","2,1,011,1,+999,9",,"SYN106AAXX  01061 76458 32958 03202 10200 20169 30136 40140 52011 90530 333 10260 20147 30/// 55103 2//// 59025;","Q01  00002PRCP06"
"76458099999","2005-03-01T09:00:00","4","23.2","-106.4166666","4.0","COLONIA JUAN CARRASCO MAZATLAN SIN., MX","FM-12","99999","V020","320,1,N,0020,1","22000,1,9,N","010000,1,N,1","+0190,1","+0162,1","10141,1","06,0000,9,1",,,,,"03,1,+02400,1,03,1",,,"03,99,1,03,1,00,1,99999,9,03,1,00,1",,"01,9",,,,"99999,9,10136,1","7,1,002,1,-017,1",,"SYN094AAXX  01091 76458 32960 33202 10190 20162 30136 40141 57002 83030 90848 333 30/// 59017 83358;","Q01  00002PRCP06"
"76458099999","2005-03-01T12:00:00","4","23.2","-106.4166666","4.0","COLONIA JUAN CARRASCO MAZATLAN SIN., MX","FM-12","99999","V020","999,9,C,0000,1","22000,1,9,N","008000,1,N,1","+0172,1","+0143,1","10130,1","06,0000,9,1",,,,,"02,1,+02400,1,03,1",,,"02,99,1,02,1,00,1,99999,9,03,1,00,1",,"01,9","999,+0134,1","120,N,+0145,1","240,M,+0260,1","99999,9,10126,1","4,1,000,1,-024,1",,"SYN112AAXX  01121 76458 32958 20000 10172 20143 30126 40130 54000 82030 91158 333 10260 20145 30134 56090 59024 82358;","Q01  00002PRCP06"
"76458099999","2005-03-01T15:00:00","4","23.2","-106.4166666","4.0","COLONIA JUAN CARRASCO MAZATLAN SIN., MX","FM-12","99999","V020","090,1,N,0010,1","22000,1,9,N","015000,1,N,1","+0185,1","+0162,1","10150,1","06,0000,9,1",,,,,"02,1,+02400,1,03,1",,,"02,99,1,02,1,00,1,99999,9,03,1,00,1",,"01,9",,,,"99999,9,10146,1","2,1,016,1,-013,1",,"SYN100AAXX  01151 76458 32965 20901 10185 20162 30146 40150 52016 82030 91450 333 30/// 56090 59013 82358;","Q01  00002PRCP06"
"76458099999","2005-03-01T18:00:00","4","23.2","-106.4166666","4.0","COLONIA JUAN CARRASCO MAZATLAN SIN., MX","FM-12","99999","V020","180,1,N,0020,1","22000,1,9,N","020000,1,N,1","+0240,1","+0167,1","10151,1","06,0000,9,1",,,,,"01,1,+02400,1,03,1",,,"01,99,1,01,1,00,1,99999,9,03,1,00,1",,"01,9",,"120,M,+0259,1","240,N,+0160,1","99999,9,10146,1","4,1,000,1,-009,1",,"SYN112AAXX  01181 76458 32970 11802 10240 20167 30146 40151 54001 81030 91738 333 10259 20160 30/// 56090 59009 81358;","Q01  00002PRCP06"
"76458099999","2005-03-01T21:00:00","4","23.2","-106.4166666","4.0","COLONIA JUAN CARRASCO MAZATLAN SIN., MX","FM-12","99999","V020","240,1,N,0040,1","22000,1,9,N","020000,1,N,1","+0233,1","+0181,1","10120,1","06,0000,9,1",,,,,"02,1,+01800,1,03,1",,,"04,99,1,02,1,00,1,99999,9,05,1,06,1",,"01,9",,,,"99999,9,10116,1","7,1,030,1,-013,1",,"SYN106AAXX  01211 76458 32970 42404 10233 20181 30116 40120 57030 82056 92048 333 30/// 56/00 59013 82356 82070;","Q01  00002PRCP06"
"76458099999","2005-03-02T00:00:00","4","23.2","-106.4166666","4.0","COLONIA JUAN CARRASCO MAZATLAN SIN., MX","FM-12","99999","V020","270,1,N,0040,1","22000,1,9,N","020000,1,N,1","+0229,1","+0187,1","10112,1","06,0000,9,1","24,0000,9,1",,,,"02,1,+01800,1,03,1",,,"04,99,1,02,1,00,1,99999,9,05,1,06,1",,"01,9",,"120,M,+0260,1","180,N,+0160,1","99999,9,10107,1","7,1,009,1,-010,1",,"SYN136AAXX  02001 76458 32970 42704 10229 20187 30107 40112 57009 82056 92348 333 10260 20160 30/// 50321 2//// 56/00 59010 70000 82356 82070;","Q01  00002PRCP06"
"76458099999","2005-03-02T03:00:00","4","23.2","-106.4166666","4.0","COLONIA JUAN CARRASCO MAZATLAN SIN., MX","FM-12","99999","V020","300,1,N,0050,1","99999,9,9,N","008000,1,N,1","+0214,1","+0172,1","10136,1","06,0000,9,1",,,,,"04,1,+01800,1,03,1",,,"07,99,1,07,1,99,9,02250,1,06,1,99,9",,"01,9",,,,"99999,9,10132,1","2,1,025,1,+007,1",,"SYN100AAXX  02031 76458 32858 73005 10214 20172 30132 40136 52025 87/6/ 90235 333 30/// 58007 84356 83458;","Q01  00002PRCP06"
"76458099999","2005-03-02T06:00:00","4","23.2","-106.4166666","4.0","COLONIA JUAN CARRASCO MAZATLAN SIN., MX","FM-12","99999","V020","320,1,N,0020,1","99999,9,9,N","008000,1,N,1","+0208,1","+0165,1","10155,1","06,0000,9,1",,,,,,,,"08,99,1,08,1,99,9,02250,1,02,1,99,9","0528,9","01,9",,"240,M,+0260,1","240,N,+0160,1","99999,9,10150,1","2,1,018,1,+014,1",,"SYN118AAXX  02061 76458 32858 83202 10208 20165 30150 40155 52018 88/2/ 90530 333 10260 20160 30/// 55088 2//// 58014 88458;","Q01  00002PRCP06"
"76458099999","2005-03-02T09:00:00","4","23.2","-106.4166666","4.0","COLONIA JUAN CARRASCO MAZATLAN SIN., MX","FM-12","99999","V020","330,1,N,0020,1","09000,1,C,N","008000,1,N,1","+0199,1","+0167,1","10143,1","06,0000,9,1",,,,,"04,1,+03600,1,04,1",,,"08,99,1,04,1,00,1,02250,1,02,1,08,1",,"01,9",,,,"99999,9,10138,1","7,1,012,1,+008,1",,"SYN106AAXX  02091 76458 32858 83302 10199 20167 30138 40143 57012 84028 90845 333 30/// 56/99 58008 84462 84268;","Q01  00002PRCP06"
"76458099999","2005-03-02T12:00:00","4","23.2","-106.4166666","4.0","COLONIA JUAN CARRASCO MAZATLAN SIN., MX","FM-12","99999","V020","300,1,N,0020,1","03600,1,9,N","008000,1,N,1","+0196,1","+0159,1","10130,1","06,0000,9,1","24,0000,9,1",,,,"04,1,+00450,1,06,1",,,"07,99,1,04,1,04,1,00450,1,02,1,00,1",,"01,9","999,+0180,1","120,N,+0191,1","240,M,+0260,1","99999,9,10126,1","7,1,012,1,-004,1",,"SYN124AAXX  02121 76458 32458 73002 10196 20159 30126 40130 57012 84420 91140 333 10260 20191 30180 5669/ 59004 70000 84615 83462;","Q01  00002PRCP06"
"76458099999","2005-03-02T15:00:00","4","23.2","-106.4166666","4.0","COLONIA JUAN CARRASCO MAZATLAN SIN., MX","FM-12","99999","V020","210,1,N,0020,1","02400,1,9,N","012000,1,N,1","+0200,1","+0156,1","10155,1","06,0000,9,1",,,,,"07,1,+02400,1,03,1",,,"07,99,1,07,1,00,1,99999,9,02,1,00,1",,"01,9",,,,"99999,9,10150,1","7,1,024,1,-004,1",,"SYN100AAXX  02151 76458 32962 72102 10200 20156 30150 40155 57024 87020 91445 333 30/// 56090 59004 87358;","Q01  00002PRCP06"
"76458099999","2005-03-02T18:00:00","4","23.2","-106.4166666","4.0","COLONIA JUAN CARRASCO MAZATLAN SIN., MX","FM-12","99999","V020","310,1,N,0030,1","03600,1,C,N","012000,1,N,1","+0212,1","+0189,1","10162,1","06,0000,9,1",,,,,"04,1,+00960,1,00,1",,,"07,99,1,04,1,05,1,00250,1,02,1,00,1",,"01,9",,"120,M,+0220,1","240,N,+0190,1","99999,9,10157,1","2,1,007,1,+011,1",,"SYN118AAXX  02181 76458 32362 73103 10212 20189 30157 40162 52007 84520 91738 333 10220 20190 30/// 56690 58011 84032 83658;","Q01  00002PRCP06"
"76458099999","2005-03-03T00:00:00","4","23.2","-106.4166666","4.0","COLONIA JUAN CARRASCO MAZATLAN SIN., MX","FM-12","99999","V020","020,1,N,0020,1","03600,1,9,N","020000,1,N,1","+0233,1","+0125,1","10144,1","06,9999,9,9","24,9999,9,9",,,,"03,1,+01350,1,06,1","02,1,+03600,1,03,1",,"07,99,1,03,1,04,1,01250,1,03,1,00,1",,"01,9",,"120,M,+0241,1","180,N,+0190,1","99999,9,10139,1","5,1,011,1,+032,1",,"SYN142AAXX  03001 76458 32670 70202 10233 20125 30139 40144 55011 69901 83430 92345 333 10241 20190 30/// 50261 5669/ 58032 79999 83645 82362 82464;","Q01  99992PRCP24"
"76458099999","2005-03-03T03:00:00","4","23.2","-106.4166666","4.0","COLONIA JUAN CARRASCO MAZATLAN SIN., MX","FM-12","99999","V020","360,1,N,0010,1","02400,1,9,N","008000,1,N,1","+0206,1","+0135,1","10151,1","06,0000,9,1",,,,,"08,1,+02400,1,04,1",,,"08,99,1,08,1,99,9,02250,1,02,1,99,9",,"01,9",,,,"99999,9,10146,1","2,1,014,1,+021,1",,"SYN094AAXX  03031 76458 32858 83601 10206 20135 30146 40151 52014 88/2/ 90235 333 30/// 58021 88458;","Q01  00002PRCP06"
"76458099999","2005-03-03T06:00:00","4","23.2","-106.4166666","4.0","COLONIA JUAN CARRASCO MAZATLAN SIN., MX","FM-12","99999","V020","300,1,N,0030,1","22000,1,9,N","008000,1,N,1","+0194,1","+0170,1","10166,1","06,0000,9,1",,,,,"00,1,+99999,9,99,9",,,"00,99,1,00,1,00,1,99999,9,00,1,00,1",,"01,9",,"240,M,+0241,1","240,N,+0190,1","99999,9,10161,1","3,1,008,1,+999,9",,"SYN106AAXX  03061 76458 32958 03003 10194 20170 30161 40166 53008 90530 333 10241 20190 30/// 55/// 2//// 58011;","Q01  00002PRCP06"
"76458099999","2005-03-03T09:00:00","4","23.2","-106.4166666","4.0","COLONIA JUAN CARRASCO MAZATLAN SIN., MX","FM-12","99999","V020","330,1,N,0020,1","06000,1,9,N","008000,1,N,1","+0180,1","+0155,1","10162,1","06,0000,9,1",,,,,"07,1,+06000,1,00,1",,,"07,99,1,00,1,99,9,99999,9,99,9,06,1",,"01,9",,,,"99999,9,10157,1","8,1,004,1,+019,1",,"SYN094AAXX  03091 76458 32958 73302 10180 20155 30157 40162 58004 80//6 90830 333 30/// 58019 87070;","Q01  00002PRCP06"
"76458099999","2005-03-03T12:00:00","4","23.2","-106.4166666","4.0","COLONIA JUAN CARRASCO MAZATLAN SIN., MX","FM-12","99999","V020","330,1,N,0010,1","22000,1,9,N","008000,1,N,1","+0168,1","+0146,1","10157,1","06,0000,9,1","24,0000,9,1",,,,"04,1,+06000,1,00,1",,,"04,99,1,00,1,99,9,99999,9,99,9,06,1",,"01,9","999,+0135,1","120,N,+0160,1","240,M,+0241,1","99999,9,10152,1","6,1,005,1,+026,1",,"SYN112AAXX  03121 76458 32958 43301 10168 20146 30152 40157 56005 80//6 91130 333 10241 20160 30135 58026 70000 84070;","Q01  00002PRCP06"
"76458099999","2005-03-03T15:00:00","4","23.2","-106.4166666","4.0","COLONIA JUAN CARRASCO MAZATLAN SIN., MX","FM-12","99999","V020","210,1,N,0020,1","22000,1,9,N","015000,1,N,1","+0169,1","+0128,1","10163,1","06,0000,9,1",,,,,"02,1,+06000,1,00,1",,,"03,99,1,00,1,00,1,99999,9,00,1,06,1",,"01,9",,,,"99999,9,10158,1","2,1,006,1,+008,1",,"SYN100AAXX  03151 76458 32965 32102 10169 20128 30158 40163 52006 80006 91443 333 30/// 56009 58008 82070;","Q01  00002PRCP06"
"76458099999","2005-03-03T21:00:00","4","23.2","-106.4166666","4.0","COLONIA JUAN CARRASCO MAZATLAN SIN., MX","FM-12","99999","V020","260,1,N,0030,1","22000,1,9,N","020000,1,N,1","+0238,1","+0172,1","10153,1","06,0000,9,1",,,,,"03,1,+06000,1,00,1",,,"03,99,1,00,1,00,1,99999,9,00,1,01,1",,"01,9",,,,"99999,9,10148,1","7,1,018,1,-002,1",,"SYN100AAXX  03211 76458 32970 32603 10238 20172 30148 40153 57018 80001 92047 333 30/// 56//9 59002 83070;","Q01  00002PRCP06"
"76458099999","2005-03-04T06:00:00","4","23.2","-106.4166666","4.0","COLONIA JUAN CARRASCO MAZATLAN SIN., MX","FM-12","99999","V020","320,1,N,0030,1","22000,1,9,N","016000,1,N,1","+0194,1","+0126,1","10143,1","06,0000,9,1",,,,,"00,1,+99999,9,99,9",,,"00,99,1,00,1,00,1,99999,9,00,1,00,1","0630,9","01,9",,"240,M,+0270,1","240,N,+0150,1","99999,9,10138,1","4,1,000,1,+999,9",,"SYN106AAXX  04061 76458 32966 03203 10194 20126 30138 40143 54001 90550 333 10270 20150 30/// 55105 2//// 59023;","Q01  00002PRCP06"
"76458099999","2005-03-04T09:00:00","4","23.2","-106.4166666","4.0","COLONIA JUAN CARRASCO MAZATLAN SIN., MX","FM-12","99999","V020","330,1,N,0030,1","00720,1,9,N","016000,1,N,1","+0187,1","+0130,1","10136,1","06,0000,9,1",,,,,"07,1,+00720,1,08,1",,,"07,99,1,07,1,07,1,00800,1,00,1,00,1",,"01,9",,,,"99999,9,10132,1","7,1,006,1,-025,1",,"SYN100AAXX  04091 76458 32566 73303 10187 20130 30132 40136 57006 87700 90850 333 30/// 56900 59025 87824;","Q01  00002PRCP06"
"76458099999","2005-03-04T12:00:00","4","23.2","-106.4166666","4.0","COLONIA JUAN CARRASCO MAZATLAN SIN., MX","FM-12","99999","V020","330,1,N,0010,1","03300,1,9,N","016000,1,N,1","+0175,1","+0123,1","10136,1","06,0000,9,1","24,0000,9,1",,,,"05,1,+03300,1,04,1",,,"05,99,1,05,1,00,1,99999,9,01,1,00,1",,"01,9","999,+0135,1","120,N,+0170,1","240,M,+0270,1","99999,9,10131,1","5,1,001,1,-011,1",,"SYN118AAXX  04121 76458 32966 53301 10175 20123 30131 40136 55001 85010 91146 333 10270 20170 30135 56090 59011 70000 85461;","Q01  00002PRCP06"
"76458099999","2005-03-04T15:00:00","4","23.2","-106.4166666","4.0","COLONIA JUAN CARRASCO MAZATLAN SIN., MX","FM-12","99999","V020","090,1,N,0030,1","02400,1,9,N","015000,1,N,1","+0190,1","+0135,1","10150,1","06,0000,9,1",,,,,"05,1,+02400,1,03,1",,,"05,99,1,05,1,00,1,99999,9,02,1,00,1",,"01,9",,,,"99999,9,10146,1","2,1,015,1,-012,1",,"SYN100AAXX  04151 76458 32965 50903 10190 20135 30146 40150 52015 85020 91445 333 30/// 56090 59012 85358;","Q01  00002PRCP06"
"76458099999","2005-03-04T18:00:00","4","23.2","-106.4166666","4.0","COLONIA JUAN CARRASCO MAZATLAN SIN., MX","FM-12","99999","V020","150,1,N,0030,1","02400,1,9,N","020000,1,N,1","+0230,1","+0176,1","10158,1","06,0000,9,1",,,,,"07,1,+02400,1,03,1",,,"07,99,1,07,1,00,1,99999,9,05,1,00,1",,"01,9",,"120,M,+0246,1","240,N,+0170,1","99999,9,10153,1","2,1,006,1,-013,1",,"SYN112AAXX  04181 76458 32970 71503 10230 20176 30153 40158 52006 87050 91738 333 10246 20170 30/// 56090 59013 87358;","Q01  00002PRCP06"
"76458099999","2005-03-04T21:00:00","4","23.2","-106.4166666","4.0","COLONIA JUAN CARRASCO MAZATLAN SIN., MX","FM-12","99999","V020","240,1,N,0030,1","01800,1,9,N","020000,1,N,1","+0230,1","+0181,1","10140,1","06,0000,9,1",,,,,"07,1,+01800,1,03,1",,,"07,99,1,07,1,00,1,99999,9,05,1,00,1",,"01,9",,,,"99999,9,10135,1","7,1,018,1,-013,1",,"SYN100AAXX  04211 76458 32970 72403 10230 20181 30135 40140 57018 87050 92048 333 30/// 56/0/ 59013 87356;","Q01  00002PRCP06"
"76458099999","2005-03-05T03:00:00","4","23.2","-106.4166666","4.0","COLONIA JUAN CARRASCO MAZATLAN SIN., MX","FM-12","99999","V020","280,1,N,0020,1","03600,1,9,N","010000,1,N,1","+0214,1","+0164,1","10165,1","06,0000,9,1",,,,,"04,1,+00630,1,06,1",,,"07,99,1,04,1,04,1,00800,1,02,1,00,1",,"01,9",,,,"99999,9,10161,1","2,1,024,1,+021,1",,"SYN106AAXX  05031 76458 32560 72802 10214 20164 30161 40165 52024 84420 90245 333 30/// 5669/ 58021 84621 83462;","Q01  00002PRCP06"
"76458099999","2005-03-05T09:00:00","4","23.2","-106.4166666","4.0","COLONIA JUAN CARRASCO MAZATLAN SIN., MX","FM-12","99999","V020","030,1,N,0010,1","03300,1,9,N","010000,1,N,1","+0202,1","+0163,1","10163,1","06,0000,9,1",,,,,"08,1,+03300,1,04,1",,,"08,99,1,08,1,00,1,99999,9,02,1,00,1",,"01,9",,,,"99999,9,10159,1","7,1,009,1,+027,1",,"SYN094AAXX  05091 76458 32960 80301 10202 20163 30159 40163 57009 88020 90854 333 30/// 58027 88461;","Q01  00002PRCP06"
"76458099999","2005-03-05T12:00:00","4","23.2","-106.4166666","4.0","COLONIA JUAN CARRASCO MAZATLAN SIN., MX","FM-12","99999","V020","999,9,C,0000,1","03300,1,9,N","010000,1,N,1","+0194,1","+0160,1","10163,1","06,0000,9,1","24,0000,9,1",,,,"08,1,+03300,1,04,1",,,"08,99,1,08,1,00,1,99999,9,02,1,00,1",,"01,9","999,+0178,1","120,N,+0191,1","240,M,+0255,1","99999,9,10159,1","0,1,000,1,+028,1",,"SYN118AAXX  05121 76458 32960 80000 10194 20160 30159 40163 50000 88020 91150 333 10255 20191 30178 56090 58028 70000 88461;","Q01  00002PRCP06"
"76458099999","2005-03-05T15:00:00","4","23.2","-106.4166666","4.0","COLONIA JUAN CARRASCO MAZATLAN SIN., MX","FM-12","99999","V020","999,9,C,0000,1","03600,1,9,N","012000,1,N,1","+0200,1","+0159,1","10174,1","06,0000,9,1",,,,,"08,1,+03600,1,04,1",,,"08,99,1,08,1,00,1,02250,1,02,1,00,1",,"01,9",,,,"99999,9,10169,1","2,1,010,1,+023,1",,"SYN100AAXX  05151 76458 32862 80000 10200 20159 30169 40174 52010 88020 91445 333 30/// 56/9/ 58023 88462;","Q01  00002PRCP06"
"76458099999","2005-03-05T18:00:00","4","23.2","-106.4166666","4.0","COLONIA JUAN CARRASCO MAZATLAN SIN., MX","FM-12","99999","V020","250,1,N,0010,1","03600,1,9,N","015000,1,N,1","+0222,1","+0169,1","10183,1","06,0000,9,1",,,,,"08,1,+03600,1,04,1",,,"08,99,1,08,1,00,1,02250,1,02,1,00,1",,"01,9",,"120,M,+0230,1","240,N,+0189,1","99999,9,10178,1","2,1,009,1,+023,1",,"SYN112AAXX  05181 76458 32865 82501 10222 20169 30178 40183 52009 88020 91740 333 10230 20189 30/// 56/9/ 58023 88462;","Q01  00002PRCP06"
"76458099999","2005-03-05T21:00:00","4","23.2","-106.4166666","4.0","COLONIA JUAN CARRASCO MAZATLAN SIN., MX","FM-12","99999","V020","240,1,N,0040,1","01800,1,C,N","020000,1,N,1","+0228,1","+0166,1","10159,1","06,0000,9,1",,,,,"05,1,+01800,1,03,1",,,"07,99,1,99,9,99,9,99999,9,99,9,99,9",,"01,9",,,,"99999,9,10154,1","5,1,024,1,+019,1",,"SYN106AAXX  05211 76458 32970 72404 10228 20166 30154 40159 55056 57024 92048 333 30/// 56/00 58019 85356 82268;","Q01  00002PRCP06"
"76458099999","2005-03-06T00:00:00","4","23.2","-106.4166666","4.0","COLONIA JUAN CARRASCO MAZATLAN SIN., MX","FM-12","99999","V020","290,1,N,0040,1","99999,9,9,N","020000,1,N,1","+0220,1","+0147,1","10152,1","06,0000,9,1","24,0000,9,1",,,,"04,1,+99999,9,04,1",,,"07,99,1,04,1,00,1,99999,9,05,1,06,1",,"01,9",,"120,M,+0242,1","180,N,+0189,1","99999,9,10148,1","6,1,006,1,+031,1",,"SYN130AAXX  06001 76458 32970 72904 10220 20147 30148 40152 56006 84056 92348 333 10242 20189 30/// 50101 56/00 58031 70000 84454 83266;","Q01  00002PRCP06"
"76458099999","2005-03-06T03:00:00","4","23.2","-106.4166666","4.0","COLONIA JUAN CARRASCO MAZATLAN SIN., MX","FM-12","99999","V020","290,1,N,0020,1","06000,1,9,N","008000,1,N,1","+0212,1","+0149,1","10159,1","06,0000,9,1",,,,,"07,1,+06000,1,00,1",,,"07,99,1,00,1,99,9,99999,9,99,9,06,1",,"01,9",,,,"99999,9,10154,1","1,1,006,1,-007,1",,"SYN094AAXX  06031 76458 32958 72902 10212 20149 30154 40159 51006 80//6 90240 333 30/// 59007 87070;","Q01  00002PRCP06"
"76458099999","2005-03-06T06:00:00","4","23.2","-106.4166666","4.0","COLONIA JUAN CARRASCO MAZATLAN SIN., MX","FM-12","99999","V020","320,1,N,0020,1","99999,9,9,N","008000,1,N,1","+0200,1","+0164,1","10168,1","06,0000,9,1",,,,,,,,"08,99,1,08,1,99,9,02250,1,02,1,99,9","0012,9","01,9",,"240,M,+0242,1","240,N,+0189,1","99999,9,10164,1","0,1,010,1,-004,1",,"SYN118AAXX  06061 76458 32858 83202 10200 20164 30164 40168 50010 88/2/ 90530 333 10242 20189 30/// 55002 2//// 59004 88458;","Q01  00002PRCP06"
"76458099999","2005-03-06T09:00:00","4","23.2","-106.4166666","4.0","COLONIA JUAN CARRASCO MAZATLAN SIN., MX","FM-12","99999","V020","320,1,N,0020,1","22000,1,9,N","008000,1,N,1","+0184,1","+0156,1","10157,1","06,0000,9,1",,,,,"02,1,+06000,1,00,1",,,"02,99,1,00,1,99,9,99999,9,99,9,02,1",,"01,9",,,,"99999,9,10152,1","8,1,012,1,-007,1",,"SYN094AAXX  06091 76458 32958 23202 10184 20156 30152 40157 58012 80//2 90835 333 30/// 59007 82070;","Q01  00002PRCP06"
"76458099999","2005-03-06T12:00:00","4","23.2","-106.4166666","4.0","COLONIA JUAN CARRASCO MAZATLAN SIN., MX","FM-12","99999","V020","300,1,N,0010,1","22000,1,9,N","008000,1,N,1","+0168,1","+0142,1","10150,1","06,0000,9,1","24,0000,9,1",,,,"00,1,+99999,9,99,9",,,"00,99,1,00,1,00,1,99999,9,00,1,00,1",,"01,9","999,+0125,1","120,N,+0160,1","240,M,+0242,1","99999,9,10146,1","5,1,006,1,-013,1",,"SYN100AAXX  06121 76458 32958 03001 10168 20142 30146 40150 55006 91130 333 10242 20160 30125 59013 70000;","Q01  00002PRCP06Q02  00002PRCP24"
"76458099999","2005-03-06T15:00:00","4","23.2","-106.4166666","4.0","COLONIA JUAN CARRASCO MAZATLAN SIN., MX","FM-12","99999","V020","330,1,N,0020,1","22000,1,9,N","016000,1,N,1","+0184,1","+0146,1","10163,1","06,0000,9,1",,,,,"01,1,+03600,1,03,1",,,"01,99,1,01,1,00,1,02250,1,03,1,00,1",,"01,9",,,,"99999,9,10158,1","2,1,012,1,-011,1",,"SYN100AAXX  06151 76458 32866 13302 10184 20146 30158 40163 52012 81030 91445 333 30/// 56/9/ 59011 81362;","Q01  00002PRCP06"
"76458099999","2005-03-06T18:00:00","4","23.2","-106.4166666","4.0","COLONIA JUAN CARRASCO MAZATLAN SIN., MX","FM-12","99999","V020","270,1,N,0030,1","22000,1,9,N","020000,1,N,1","+0226,1","+0178,1","10173,1","06,0000,9,1",,,,,"00,1,+99999,9,99,9",,,"00,99,1,00,1,00,1,99999,9,00,1,00,1",,"01,9",,"120,M,+0243,1","240,N,+0151,1","99999,9,10168,1","2,1,010,1,-010,1",,"SYN094AAXX  06181 76458 32970 02703 10226 20178 30168 40173 52010 91740 333 10243 20151 30/// 59010;","Q01  00002PRCP06"
"76458099999","2005-03-06T21:00:00","4","23.2","-106.4166666","4.0","COLONIA JUAN CARRASCO MAZATLAN SIN., MX","FM-12","99999","V020","270,1,N,0040,1","22000,1,9,N","010000,1,N,1","+0233,1","+0168,1","10155,1","06,0000,9,1",,,,,,,,"01,99,1,01,1,02,1,00800,1,00,1,00,1",,"01,9",,,,"99999,9,10150,1","6,1,018,1,-004,1",,"SYN106AAXX  06211 76458 32560 12704 10233 20168 30150 40155 56018 81200 92048 333 30/// 561// 57817 59004 81822;","Q01  00002PRCP06"
"76458099999","2005-03-07T03:00:00","4","23.2","-106.4166666","4.0","COLONIA JUAN CARRASCO MAZATLAN SIN., MX","FM-12","99999","V020","300,1,N,0020,1","22000,1,9,N","016000,1,N,1","+0205,1","+0172,1","10149,1","06,0000,9,1",,,,,"00,1,+99999,9,99,9",,,"00,99,1,00,1,00,1,99999,9,00,1,00,1",,"01,9",,,,"99999,9,10145,1","2,1,009,1,-009,1",,"SYN082AAXX  07031 76458 32966 03002 10205 20172 30145 40149 52009 90256 333 30/// 59009;","Q01  00002PRCP06"
"76458099999","2005-03-07T06:00:00","4","23.2","-106.4166666","4.0","COLONIA JUAN CARRASCO MAZATLAN SIN., MX","FM-12","99999","V020","330,1,N,0020,1","22000,1,9,N","016000,1,N,1","+0187,1","+0166,1","10159,1","06,0000,9,1",,,,,"00,1,+99999,9,99,9",,,"00,99,1,00,1,00,1,99999,9,00,1,00,1","0630,9","01,9",,"240,M,+0251,1","240,N,+0151,1","99999,9,10155,1","2,1,010,1,+999,9",,"SYN106AAXX  07061 76458 32966 03302 10187 20166 30155 40159 52010 90552 333 10251 20151 30/// 55105 2//// 59009;","Q01  00002PRCP06"
"76458099999","2005-03-07T09:00:00","4","23.2","-106.4166666","4.0","COLONIA JUAN CARRASCO MAZATLAN SIN., MX","FM-12","99999","V020","330,1,N,0020,1","22000,1,9,N","016000,1,N,1","+0164,1","+0144,1","10152,1","06,0000,9,1",,,,,"00,1,+99999,9,99,9",,,"00,99,1,00,1,00,1,99999,9,00,1,00,1",,"01,9",,,,"99999,9,10147,1","7,1,008,1,-005,1",,"SYN082AAXX  07091 76458 32966 03302 10164 20144 30147 40152 57008 90850 333 30/// 59005;","Q01  00002PRCP06"
"76458099999","2005-03-07T12:00:00","4","23.2","-106.4166666","4.0","COLONIA JUAN CARRASCO MAZATLAN SIN., MX","FM-12","99999","V020","999,9,C,0000,1","22000,1,9,N","016000,1,N,1","+0150,1","+0131,1","10151,1","06,0000,9,1","24,0000,9,1",,,,"00,1,+99999,9,99,9",,,"00,99,1,00,1,00,1,99999,9,00,1,00,1",,"01,9","999,+0090,1","120,N,+0137,1","240,M,+0251,1","99999,9,10146,1","5,1,001,1,+001,1",,"SYN100AAXX  07121 76458 32966 00000 10150 20131 30146 40151 55001 91156 333 10251 20137 30090 58001 70000;","Q01  00002PRCP06Q02  00002PRCP24"
"76458099999","2005-03-07T15:00:00","4","23.2","-106.4166666","4.0","COLONIA JUAN CARRASCO MAZATLAN SIN., MX","FM-12","99999","V020","999,9,C,0000,1","22000,1,9,N","018000,1,N,1","+0168,1","+0135,1","10167,1","06,0000,9,1",,,,,"00,1,+99999,9,99,9",,,"00,99,1,00,1,00,1,99999,9,00,1,00,1",,"01,9",,,,"99999,9,10162,1","2,1,016,1,+004,1",,"SYN082AAXX  07151 76458 32968 00000 10168 20135 30162 40167 52016 91448 333 30/// 58004;","Q01  00002PRCP06"
"76458099999","2005-03-07T18:00:00","4","23.2","-106.4166666","4.0","COLONIA JUAN CARRASCO MAZATLAN SIN., MX","FM-12","99999","V020","270,1,N,0020,1","22000,1,9,N","020000,1,N,1","+0220,1","+0158,1","10175,1","06,0000,9,1",,,,,"00,1,+99999,9,99,9",,,"00,99,1,00,1,00,1,99999,9,00,1,00,1",,"01,9",,"120,M,+0241,1","240,N,+0131,1","99999,9,10171,1","2,1,009,1,+003,1",,"SYN094AAXX  07181 76458 32970 02702 10220 20158 30171 40175 52009 91743 333 10241 20131 30/// 58003;","Q01  00002PRCP06"
"76458099999","2005-03-07T21:00:00","4","23.2","-106.4166666","4.0","COLONIA JUAN CARRASCO MAZATLAN SIN., MX","FM-12","99999","V020","270,1,N,0050,1","22000,1,9,N","020000,1,N,1","+0229,1","+0154,1","10148,1","06,0000,9,1",,,,,"00,1,+99999,9,99,9",,,"00,99,1,00,1,00,1,99999,9,00,1,00,1",,"01,9",,,,"99999,9,10144,1","7,1,026,1,-006,1",,"SYN082AAXX  07211 76458 32970 02705 10229 20154 30144 40148 57026 92048 333 30/// 59006;","Q01  00002PRCP06"
"76458099999","2005-03-08T03:00:00","4","23.2","-106.4166666","4.0","COLONIA JUAN CARRASCO MAZATLAN SIN., MX","FM-12","99999","V020","330,1,N,0020,1","22000,1,9,N","008000,1,N,1","+0202,1","+0142,1","10153,1","06,0000,9,1",,,,,"02,1,+06000,1,00,1",,,"99,99,9,00,1,00,1,99999,9,00,1,99,9",,"01,9",,,,"99999,9,10149,1","2,1,015,1,+004,1",,"SYN094AAXX  08031 76458 32958 03302 10202 20142 30149 40153 52015 80//1 90230 333 30/// 58004 82070;","Q01  00002PRCP06"
"76458099999","2005-03-08T06:00:00","4","23.2","-106.4166666","4.0","COLONIA JUAN CARRASCO MAZATLAN SIN., MX","FM-12","99999","V020","360,1,N,0020,1","22000,1,9,N","008000,1,N,1","+0192,1","+0142,1","10161,1","06,0000,9,1",,,,,,,,"02,99,1,00,1,99,9,99999,9,99,9,02,1","0642,9","01,9",,"240,M,+0250,1","240,N,+0131,1","99999,9,10156,1","1,1,007,1,+001,1",,"SYN118AAXX  08061 76458 32958 23602 10192 20142 30156 40161 51007 80//2 90530 333 10250 20131 30/// 55107 2//// 58001 82070;","Q01  00002PRCP06"
"76458099999","2005-03-08T09:00:00","4","23.2","-106.4166666","4.0","COLONIA JUAN CARRASCO MAZATLAN SIN., MX","FM-12","99999","V020","060,1,N,0010,1","22000,1,9,N","010000,1,N,1","+0177,1","+0151,1","10154,1","06,0000,9,1",,,,,"00,1,+99999,9,99,9",,,"00,99,1,00,1,00,1,99999,9,00,1,00,1",,"01,9",,,,"99999,9,10150,1","7,1,006,1,+003,1",,"SYN082AAXX  08091 76458 32960 00601 10177 20151 30150 40154 57006 90850 333 30/// 58003;","Q01  00002PRCP06"
"76458099999","2005-03-08T12:00:00","4","23.2","-106.4166666","4.0","COLONIA JUAN CARRASCO MAZATLAN SIN., MX","FM-12","99999","V020","999,9,C,0000,1","22000,1,9,N","010000,1,N,1","+0158,1","+0119,1","10146,1","06,0000,9,1","24,0000,9,1",,,,"00,1,+99999,9,99,9",,,"00,99,1,00,1,00,1,99999,9,00,1,00,1",,"01,9","999,+0116,1","120,N,+0150,1","240,M,+0250,1","99999,9,10142,1","5,1,008,1,-005,1",,"SYN100AAXX  08121 76458 32960 00000 10158 20119 30142 40146 55008 91150 333 10250 20150 30116 59005 70000;","Q01  00002PRCP06Q02  00002PRCP24"
"76458099999","2005-03-08T15:00:00","4","23.2","-106.4166666","4.0","COLONIA JUAN CARRASCO MAZATLAN SIN., MX","FM-12","99999","V020","250,1,N,0030,1","02400,1,9,N","015000,1,N,1","+0192,1","+0135,1","10162,1","06,0000,9,1",,,,,"05,1,+02400,1,03,1",,,"05,99,1,05,1,00,1,99999,9,05,1,00,1",,"01,9",,,,"99999,9,10158,1","2,1,016,1,-004,1",,"SYN094AAXX  08151 76458 32965 52503 10192 20135 30158 40162 52016 85050 91448 333 30/// 59004 85358;","Q01  00002PRCP06"
"76458099999","2005-03-08T18:00:00","4","23.2","-106.4166666","4.0","COLONIA JUAN CARRASCO MAZATLAN SIN., MX","FM-12","99999","V020","350,1,N,0030,1","22000,1,9,N","020000,1,N,1","+0218,1","+0142,1","10171,1","06,0000,9,1",,,,,"02,1,+00960,1,08,1",,,"02,99,1,02,1,02,1,00800,1,00,1,00,1",,"01,9",,"120,M,+0230,1","240,N,+0150,1","99999,9,10166,1","2,1,008,1,-005,1",,"SYN112AAXX  08181 76458 32570 23503 10218 20142 30166 40171 52008 82200 91745 333 10230 20150 30/// 56100 59005 82832;","Q01  00002PRCP06"
"76458099999","2005-03-08T21:00:00","4","23.2","-106.4166666","4.0","COLONIA JUAN CARRASCO MAZATLAN SIN., MX","FM-12","99999","V020","240,1,N,0040,1","22000,1,9,N","020000,1,N,1","+0235,1","+0153,1","10144,1","06,0000,9,1",,,,,"02,1,+00660,1,08,1",,,"03,99,1,02,1,02,1,01250,1,05,1,00,1",,"01,9",,,,"99999,9,10139,1","7,1,027,1,-005,1",,"SYN112AAXX  08211 76458 32670 32404 10235 20153 30139 40144 57027 82250 92048 333 30/// 5610/ 57815 59005 82822 81356;","Q01  00002PRCP06"
"76458099999","2005-03-09T00:00:00","4","23.2","-106.4166666","4.0","COLONIA JUAN CARRASCO MAZATLAN SIN., MX","FM-12","99999","V020","310,1,N,0060,1","22000,1,9,N","020000,1,N,1","+0221,1","+0144,1","10145,1","06,0000,9,1","24,0002,9,1",,,,"01,1,+00660,1,08,1",,,"02,99,1,01,1,02,1,00800,1,05,1,00,1",,"01,9",,"120,M,+0260,1","180,N,+0150,1","99999,9,10141,1","6,1,002,1,+005,1",,"SYN136AAXX  09001 76458 32570 23106 10221 20144 30141 40145 56002 81250 92348 333 10260 20150 30/// 50271 5610/ 57815 58005 70002 81822 81356;","Q01  00002PRCP06"
"76458099999","2005-03-09T03:00:00","4","23.2","-106.4166666","4.0","COLONIA JUAN CARRASCO MAZATLAN SIN., MX","FM-12","99999","V020","330,1,N,0020,1","22000,1,9,N","008000,1,N,1","+0200,1","+0133,1","10155,1","06,0000,9,1",,,,,"00,1,+99999,9,99,9",,,"00,99,1,00,1,00,1,99999,9,00,1,00,1",,"01,9",,,,"99999,9,10150,1","2,1,009,1,+001,1",,"SYN082AAXX  09031 76458 32958 03302 10200 20133 30150 40155 52009 90230 333 30/// 58001;","Q01  00002PRCP06"
"76458099999","2005-03-09T06:00:00","4","23.2","-106.4166666","4.0","COLONIA JUAN CARRASCO MAZATLAN SIN., MX","FM-12","99999","V020","320,1,N,0030,1","22000,1,9,N","008000,1,N,1","+0184,1","+0136,1","10166,1","06,0000,9,1",,,,,"00,1,+99999,9,99,9",,,"00,99,1,00,1,00,1,99999,9,00,1,00,1","0522,9","01,9",,"240,M,+0260,1","240,N,+0150,1","99999,9,10162,1","2,1,012,1,+999,9",,"SYN106AAXX  09061 76458 32958 03203 10184 20136 30162 40166 52012 90530 333 10260 20150 30/// 55087 2//// 58006;","Q01  00002PRCP06"
"76458099999","2005-03-09T09:00:00","4","23.2","-106.4166666","4.0","COLONIA JUAN CARRASCO MAZATLAN SIN., MX","FM-12","99999","V020","320,1,N,0020,1","22000,1,9,N","008000,1,N,1","+0172,1","+0130,1","10159,1","06,0000,9,1",,,,,"00,1,+99999,9,99,9",,,"00,99,1,00,1,00,1,99999,9,00,1,00,1",,"01,9",,,,"99999,9,10155,1","7,1,007,1,+005,1",,"SYN082AAXX  09091 76458 32958 03202 10172 20130 30155 40159 57007 90845 333 30/// 58005;","Q01  00002PRCP06"
"76458099999","2005-03-09T15:00:00","4","23.2","-106.4166666","4.0","COLONIA JUAN CARRASCO MAZATLAN SIN., MX","FM-12","99999","V020","350,1,N,0010,1","22000,1,9,N","015000,1,N,1","+0172,1","+0130,1","10150,1","06,0000,9,1",,,,,"00,1,+99999,9,99,9",,,"00,99,1,00,1,00,1,99999,9,00,1,00,1",,"01,9",,,,"99999,9,10145,1","4,1,000,1,-013,1",,"SYN082AAXX  09151 76458 32965 03501 10172 20130 30145 40150 54000 91448 333 30/// 59013;","Q01  00002PRCP06"
"76458099999","2005-03-09T18:00:00","4","23.2","-106.4166666","4.0","COLONIA JUAN CARRASCO MAZATLAN SIN., MX","FM-12","99999","V020","160,1,N,0020,1","22000,1,9,N","020000,1,N,1","+0224,1","+0145,1","10151,1","06,0000,9,1",,,,,"01,1,+06600,1,00,1",,,"01,99,1,00,1,00,1,99999,9,00,1,06,1",,"01,9",,"120,M,+0240,1","240,N,+0130,1","99999,9,10147,1","4,1,000,1,-019,1",,"SYN112AAXX  09181 76458 32970 11602 10224 20145 30147 40151 54002 80006 91740 333 10240 20130 30/// 56009 59019 81072;","Q01  00002PRCP06"
"76458099999","2005-03-09T21:00:00","4","23.2","-106.4166666","4.0","COLONIA JUAN CARRASCO MAZATLAN SIN., MX","FM-12","99999","V020","260,1,N,0040,1","22000,1,9,N","020000,1,N,1","+0229,1","+0168,1","10126,1","06,0000,9,1",,,,,"00,1,+99999,9,99,9",,,"00,99,1,00,1,00,1,99999,9,00,1,00,1",,"01,9",,,,"99999,9,10122,1","7,1,025,1,-017,1",,"SYN082AAXX  09211 76458 32970 02604 10229 20168 30122 40126 57025 92045 333 30/// 59017;","Q01  00002PRCP06"
"76458099999","2005-03-10T06:00:00","4","23.2","-106.4166666","4.0","COLONIA JUAN CARRASCO MAZATLAN SIN., MX","FM-12","99999","V020","290,1,N,0040,1","22000,1,9,N","008000,1,N,1","+0204,1","+0174,1","10109,1","06,0000,9,1",,,,,"00,1,+99999,9,99,9",,,"00,99,1,00,1,00,1,99999,9,00,1,00,1","0612,9","01,9",,"240,M,+0250,1","240,N,+0130,1","99999,9,10105,1","4,1,000,1,+999,9",,"SYN106AAXX  10061 76458 32958 02904 10204 20174 30105 40109 54001 90530 333 10250 20130 30/// 55102 2//// 59057;","Q01  00002PRCP06"
"76458099999","2005-03-10T09:00:00","4","23.2","-106.4166666","4.0","COLONIA JUAN CARRASCO MAZATLAN SIN., MX","FM-12","99999","V020","090,1,N,0020,1","22000,1,9,N","008000,1,N,1","+0182,1","+0154,1","10104,1","06,0000,9,1",,,,,"00,1,+99999,9,99,9",,,"00,99,1,00,1,00,1,99999,9,00,1,00,1",,"01,9",,,,"99999,9,10100,1","7,1,005,1,-055,1",,"SYN082AAXX  10091 76458 32958 00902 10182 20154 30100 40104 57005 90830 333 30/// 59055;","Q01  00002PRCP06"
"76458099999","2005-03-10T12:00:00","4","23.2","-106.4166666","4.0","COLONIA JUAN CARRASCO MAZATLAN SIN., MX","FM-12","99999","V020","090,1,N,0040,1","22000,1,9,N","008000,1,N,1","+0188,1","+0170,1","10097,1","06,0000,9,1","24,0000,9,1",,,,"00,1,+99999,9,99,9",,,"00,99,1,00,1,00,1,99999,9,00,1,00,1",,"01,9","999,+0130,1","120,N,+0170,1","240,M,+0250,1","99999,9,10092,1","7,1,008,1,-053,1",,"SYN100AAXX  10121 76458 32958 00904 10188 20170 30092 40097 57008 91130 333 10250 20170 30130 59053 70000;","Q01  00002PRCP06Q02  00002PRCP24"
"76458099999","2005-03-10T15:00:00","4","23.2","-106.4166666","4.0","COLONIA JUAN CARRASCO MAZATLAN SIN., MX","FM-12","99999","V020","100,1,N,0030,1","00300,1,9,N","012000,1,N,1","+0200,1","+0176,1","10113,1","06,0000,9,1",,,,,"05,1,+00300,1,06,1",,,"08,99,1,05,1,08,1,00450,1,02,1,00,1",,"01,9",,,,"99999,9,10108,1","2,1,016,1,-037,1",,"SYN106AAXX  10151 76458 32462 81003 10200 20176 30108 40113 52016 85820 91449 333 30/// 56790 59037 85610 83358;","Q01  00002PRCP06"
"76458099999","2005-03-10T18:00:00","4","23.2","-106.4166666","4.0","COLONIA JUAN CARRASCO MAZATLAN SIN., MX","FM-12","99999","V020","150,1,N,0040,1","22000,1,9,N","020000,1,N,1","+0242,1","+0180,1","10128,1","06,0000,9,1",,,,,"02,1,+00780,1,06,1",,,"02,99,1,02,1,04,1,00800,1,00,1,00,1",,"01,9",,"120,M,+0255,1","240,N,+0170,1","99999,9,10123,1","2,1,015,1,-024,1",,"SYN112AAXX  10181 76458 32570 21504 10242 20180 30123 40128 52015 82400 91745 333 10255 20170 30/// 56700 59024 82626;","Q01  00002PRCP06"
"76458099999","2005-03-10T21:00:00","4","23.2","-106.4166666","4.0","COLONIA JUAN CARRASCO MAZATLAN SIN., MX","FM-12","99999","V020","130,1,N,0030,1","05400,1,9,N","018000,1,N,1","+0245,1","+0188,1","10112,1","06,0000,9,1",,,,,"07,1,+05400,1,00,1",,,"07,99,1,00,1,00,1,99999,9,00,1,06,1",,"01,9",,,,"99999,9,10108,1","7,1,015,1,-014,1",,"SYN100AAXX  10211 76458 32968 71303 10245 20188 30108 40112 57015 80006 92045 333 30/// 56//9 59014 87068;","Q01  00002PRCP06"
"76458099999","2005-03-11T03:00:00","4","23.2","-106.4166666","4.0","COLONIA JUAN CARRASCO MAZATLAN SIN., MX","FM-12","99999","V020","120,1,N,0020,1","22000,1,C,N","012000,1,N,1","+0216,1","+0188,1","10128,1","06,0000,9,1",,,,,"01,1,+00360,1,06,1",,,"05,99,1,01,1,04,1,00450,1,00,1,04,1",,"01,9",,,,"99999,9,10123,1","2,1,021,1,+020,1",,"SYN106AAXX  11031 76458 32462 51202 10216 20188 30123 40128 52021 81404 90258 333 30/// 56209 58020 81612 84079;","Q01  00002PRCP06"
"76458099999","2005-03-11T06:00:00","4","23.2","-106.4166666","4.0","COLONIA JUAN CARRASCO MAZATLAN SIN., MX","FM-12","99999","V020","090,1,N,0020,1","22000,1,9,N","012000,1,N,1","+0204,1","+0184,1","10135,1","06,0000,9,1",,,,,,,,"03,99,1,00,1,00,1,99999,9,00,1,06,1","0468,9","01,9",,"240,M,+0258,1","240,N,+0170,1","99999,9,10130,1","3,1,007,1,+025,1",,"SYN124AAXX  11061 76458 32962 30902 10204 20184 30130 40135 53007 80006 90552 333 10258 20170 30/// 55078 2//// 56009 58025 83079;","Q01  00002PRCP06"
"76458099999","2005-03-11T18:00:00","4","23.2","-106.4166666","4.0","COLONIA JUAN CARRASCO MAZATLAN SIN., MX","FM-12","99999","V020","160,1,N,0030,1","22000,1,9,N","020000,1,N,1","+0246,1","+0174,1","10161,1","06,0000,9,1",,,,,"00,1,+99999,9,99,9",,,"00,99,1,00,1,00,1,99999,9,00,1,00,1",,"01,9",,"120,M,+0270,1","240,N,+0145,1","99999,9,10157,1","2,1,004,1,+034,1",,"SYN094AAXX  11181 76458 32970 01603 10246 20174 30157 40161 52004 91746 333 10270 20145 30/// 58034;","Q01  00002PRCP06"
"76458099999","2005-03-11T21:00:00","4","23.2","-106.4166666","4.0","COLONIA JUAN CARRASCO MAZATLAN SIN., MX","FM-12","99999","V020","180,1,N,0040,1","22000,1,9,N","020000,1,N,1","+0257,1","+0175,1","10144,1","06,0000,9,1",,,,,"00,1,+99999,9,99,9",,,"00,99,1,00,1,00,1,99999,9,00,1,00,1",,"01,9",,,,"99999,9,10139,1","7,1,018,1,+031,1",,"SYN082AAXX  11211 76458 32970 01804 10257 20175 30139 40144 57018 92048 333 30/// 58031;","Q01  00002PRCP06"
"76458099999","2005-03-12T00:00:00","4","23.2","-106.4166666","4.0","COLONIA JUAN CARRASCO MAZATLAN SIN., MX","FM-12","99999","V020","240,1,N,0040,1","22000,1,9,N","020000,1,N,1","+0241,1","+0198,1","10128,1","06,0000,9,1","24,0000,9,1",,,,"00,1,+99999,9,99,9",,,"00,99,1,00,1,00,1,99999,9,00,1,00,1",,"01,9",,"120,M,+0277,1","180,N,+0187,1","99999,9,10123,1","7,1,016,1,+021,1",,"SYN106AAXX  12001 76458 32970 02404 10241 20198 30123 40128 57016 92340 333 10277 20187 30/// 50711 58021 70000;","Q01  00002PRCP06Q02  00002PRCP24"
"76458099999","2005-03-12T03:00:00","4","23.2","-106.4166666","4.0","COLONIA JUAN CARRASCO MAZATLAN SIN., MX","FM-12","99999","V020","300,1,N,0030,1","22000,1,9,N","010000,1,N,1","+0221,1","+0190,1","10137,1","06,0000,9,1",,,,,"03,1,+00390,1,06,1",,,"03,99,1,03,1,04,1,00450,1,00,1,00,1",,"01,9",,,,"99999,9,10132,1","2,1,009,1,+009,1",,"SYN100AAXX  12031 76458 32460 33003 10221 20190 30132 40137 52009 83400 90245 333 30/// 566// 58009 83613;","Q01  00002PRCP06"
"76458099999","2005-03-12T06:00:00","4","23.2","-106.4166666","4.0","COLONIA JUAN CARRASCO MAZATLAN SIN., MX","FM-12","99999","V020","290,1,N,0020,1","22000,1,9,N","010000,1,N,1","+0212,1","+0185,1","10148,1","06,0000,9,1",,,,,"00,1,+99999,9,99,9",,,"00,99,1,00,1,00,1,99999,9,00,1,00,1","0642,9","01,9",,"240,M,+0277,1","240,N,+0187,1","99999,9,10144,1","2,1,013,1,+014,1",,"SYN100AAXX  12061 76458 32960 02902 10212 20185 30144 40148 52013 90540 333 10277 20187 30/// 55107 58014;","Q01  00002PRCP06"
"76458099999","2005-03-12T12:00:00","4","23.2","-106.4166666","4.0","COLONIA JUAN CARRASCO MAZATLAN SIN., MX","FM-12","99999","V020","330,1,N,0020,1","22000,1,9,N","010000,1,N,1","+0190,1","+0180,1","10147,1","06,0000,9,1","24,0000,9,1",,,,"01,1,+00120,1,06,1",,,"01,99,1,01,1,04,1,00150,1,00,1,00,1",,"01,9","999,+0150,1","120,N,+0187,1",,"99999,9,10142,1","5,1,000,1,+010,1",,"SYN118AAXX  12121 76458 32260 13302 10190 20180 30142 40147 55000 81400 91150 333 1//// 20187 30150 56000 58010 70000 81604;","Q01  00002PRCP06"
"76458099999","2005-03-12T15:00:00","4","23.2","-106.4166666","4.0","COLONIA JUAN CARRASCO MAZATLAN SIN., MX","FM-12","99999","V020","999,9,C,0000,1","00180,1,9,N","006000,1,N,1","+0196,1","+0181,1","10166,1","06,0000,9,1",,,,,"05,1,+00180,1,06,1",,,"05,99,1,05,1,04,1,00150,1,00,1,00,1",,"01,9",,,,"99999,9,10161,1","2,1,019,1,+008,1",,"SYN100AAXX  12151 76458 31256 50000 10196 20181 30161 40166 52019 85400 91445 333 30/// 566// 58008 85606;","Q01  00002PRCP06"
"76458099999","2005-03-12T18:00:00","4","23.2","-106.4166666","4.0","COLONIA JUAN CARRASCO MAZATLAN SIN., MX","FM-12","99999","V020","240,1,N,0020,1","22000,1,9,N","018000,1,N,1","+0228,1","+0187,1","10172,1","06,0000,9,1",,,,,"01,1,+00510,1,08,1",,,"04,99,1,01,1,01,1,00450,1,00,1,08,1",,"01,9",,"120,M,+0251,1","240,N,+0171,1","99999,9,10168,1","2,1,007,1,+011,1",,"SYN118AAXX  12181 76458 32468 42402 10228 20187 30168 40172 52007 81108 91745 333 10251 20171 30/// 566/9 58011 81817 83268;","Q01  00002PRCP06"
"76458099999","2005-03-12T21:00:00","4","23.2","-106.4166666","4.0","COLONIA JUAN CARRASCO MAZATLAN SIN., MX","FM-12","99999","V020","240,1,N,0040,1","22000,1,9,N","020000,1,N,1","+0239,1","+0202,1","10160,1","06,0000,9,1",,,,,"01,1,+00660,1,08,1",,,"04,99,1,01,1,02,1,00450,1,00,1,06,1",,"01,9",,,,"99999,9,10155,1","7,1,013,1,+016,1",,"SYN112AAXX  12211 76458 32470 42404 10239 20202 30155 40160 57013 81206 92048 333 30/// 556/0 57865 58016 81822 83268;","Q01  00002PRCP06"
"76458099999","2005-03-13T00:00:00","4","23.2","-106.4166666","4.0","COLONIA JUAN CARRASCO MAZATLAN SIN., MX","FM-12","99999","V020","270,1,N,0040,1","22000,1,9,N","020000,1,N,1","+0238,1","+0190,1","10145,1","06,0000,9,1","24,0000,9,1",,,,"01,1,+00660,1,08,1",,,"02,99,1,01,1,02,1,00800,1,05,1,00,1",,"01,9",,"120,M,+0260,1","180,N,+0171,1","99999,9,10140,1","7,1,015,1,+017,1",,"SYN136AAXX  13001 76458 32570 22704 10238 20190 30140 40145 57015 81250 92348 333 10260 20171 30/// 50421 5610/ 57815 58017 70000 81822 81356;","Q01  00002PRCP06"
"76458099999","2005-03-13T06:00:00","4","23.2","-106.4166666","4.0","COLONIA JUAN CARRASCO MAZATLAN SIN., MX","FM-12","99999","V020","320,1,N,0020,1","22000,1,9,N","008000,1,N,1","+0206,1","+0185,1","10160,1","06,0000,9,1",,,,,"00,1,+99999,9,99,9",,,"00,99,1,00,1,00,1,99999,9,00,1,00,1","0576,9","01,9",,"240,M,+0260,1","240,N,+0171,1","99999,9,10155,1","3,1,005,1,+999,9",,"SYN106AAXX  13061 76458 32958 03202 10206 20185 30155 40160 53005 90530 333 10260 20171 30/// 55096 2//// 58011;","Q01  00002PRCP06"
"76458099999","2005-03-13T09:00:00","4","23.2","-106.4166666","4.0","COLONIA JUAN CARRASCO MAZATLAN SIN., MX","FM-12","99999","V020","330,1,N,0020,1","22000,1,9,N","008000,1,N,1","+0198,1","+0181,1","10159,1","06,0000,9,1",,,,,"00,1,+99999,9,99,9",,,"00,99,1,00,1,00,1,99999,9,00,1,00,1",,"01,9",,,,"99999,9,10154,1","4,1,000,1,+012,1",,"SYN082AAXX  13091 76458 32958 03302 10198 20181 30154 40159 54001 90830 333 30/// 58012;","Q01  00002PRCP06"
"76458099999","2005-03-13T12:00:00","4","23.2","-106.4166666","4.0","COLONIA JUAN CARRASCO MAZATLAN SIN., MX","FM-12","99999","V020","330,1,N,0020,1","22000,1,9,N","008000,1,N,1","+0194,1","+9999,9","10149,1","06,0000,9,1","24,0000,9,1",,,,"01,1,+00180,1,07,1",,,"01,99,1,01,1,06,1,00150,1,99,9,99,9",,"01,9","999,+0175,1","120,N,+0186,1","240,M,+0260,1","99999,9,10145,1","7,1,009,1,+003,1",,"SYN118AAXX  13121 76458 32258 13302 10194 20479 30145 40149 57009 816// 91130 333 10260 20186 30175 564// 58003 70000 81706;","Q01  00002PRCP06"
"76458099999","2005-03-13T15:00:00","4","23.2","-106.4166666","4.0","COLONIA JUAN CARRASCO MAZATLAN SIN., MX","FM-12","99999","V020","320,1,N,0020,1","99999,9,9,N","015000,1,N,1","+0190,1","+0172,1","10158,1","06,0000,9,1",,,,,"04,1,+02400,1,03,1",,,"06,99,1,04,1,00,1,99999,9,02,1,06,1",,"01,9",,,,"99999,9,10153,1","2,1,008,1,-008,1",,"SYN106AAXX  13151 76458 32965 63202 10190 20172 30153 40158 52008 84026 91455 333 30/// 56099 59008 84358 82072;","Q01  00002PRCP06"
"76458099999","2005-03-13T18:00:00","4","23.2","-106.4166666","4.0","COLONIA JUAN CARRASCO MAZATLAN SIN., MX","FM-12","99999","V020","240,1,N,0030,1","05400,1,9,N","018000,1,N,1","+0230,1","+0191,1","10160,1","06,0000,9,1",,,,,"05,1,+05400,1,00,1",,,"05,99,1,00,1,00,1,99999,9,00,1,06,1",,"01,9",,"120,M,+0248,1","240,N,+0175,1","99999,9,10156,1","2,1,003,1,-015,1",,"SYN112AAXX  13181 76458 32968 52403 10230 20191 30156 40160 52003 80006 91745 333 10248 20175 30/// 56//9 59015 85068;","Q01  00002PRCP06"
"76458099999","2005-03-13T21:00:00","4","23.2","-106.4166666","4.0","COLONIA JUAN CARRASCO MAZATLAN SIN., MX","FM-12","99999","V020","270,1,N,0040,1","99999,9,9,N","020000,1,N,1","+0231,1","+0190,1","10141,1","06,0000,9,1",,,,,"01,1,+01800,1,03,1",,,"05,99,1,01,1,00,1,99999,9,05,1,06,1",,"01,9",,,,"99999,9,10137,1","7,1,019,1,-018,1",,"SYN106AAXX  13211 76458 32970 52704 10231 20190 30137 40141 57019 81056 92048 333 30/// 56/00 59018 81356 84070;","Q01  00002PRCP06"
"76458099999","2005-03-14T00:00:00","4","23.2","-106.4166666","4.0","COLONIA JUAN CARRASCO MAZATLAN SIN., MX","FM-12","99999","V020","270,1,N,0030,1","22000,1,9,N","020000,1,N,1","+0239,1","+0185,1","10128,1","06,0000,9,1","24,0000,9,1",,,,,,,"02,99,1,00,1,00,1,99999,9,00,1,06,1",,"01,9",,"120,M,+0259,1","180,N,+0175,1","99999,9,10124,1","6,1,013,1,-016,1",,"SYN124AAXX  14001 76458 32970 22703 10239 20185 30124 40128 56013 80006 92345 333 10259 20175 30/// 50251 56//0 59016 70000 82070;","Q01  00002PRCP06"
"76458099999","2005-03-14T03:00:00","4","23.2","-106.4166666","4.0","COLONIA JUAN CARRASCO MAZATLAN SIN., MX","FM-12","99999","V020","330,1,N,0020,1","22000,1,9,N","016000,1,N,1","+0217,1","+0185,1","10137,1","06,0000,9,1",,,,,"01,1,+00390,1,06,1",,,"01,99,1,01,1,04,1,00450,1,00,1,00,1",,"01,9",,,,"99999,9,10133,1","2,1,009,1,-017,1",,"SYN100AAXX  14031 76458 32466 13302 10217 20185 30133 40137 52009 81400 90258 333 30/// 56600 59017 81613;","Q01  00002PRCP06"
"76458099999","2005-03-14T06:00:00","4","23.2","-106.4166666","4.0","COLONIA JUAN CARRASCO MAZATLAN SIN., MX","FM-12","99999","V020","300,1,N,0020,1","22000,1,9,N","012000,1,N,1","+0208,1","+0183,1","10141,1","06,0000,9,1",,,,,"00,1,+99999,9,99,9",,,"00,99,1,00,1,00,1,99999,9,00,1,00,1","0588,9","01,9",,"240,M,+0259,1","240,N,+0175,1","99999,9,10137,1","0,1,004,1,+999,9",,"SYN106AAXX  14061 76458 32962 03002 10208 20183 30137 40141 50004 90550 333 10259 20175 30/// 55098 2//// 59019;","Q01  00002PRCP06"
"76458099999","2005-03-14T09:00:00","4","23.2","-106.4166666","4.0","COLONIA JUAN CARRASCO MAZATLAN SIN., MX","FM-12","99999","V020","999,9,C,0010,1","00240,1,9,N","012000,1,N,1","+0196,1","+0178,1","10137,1","06,0000,9,1",,,,,"06,1,+00240,1,06,1",,,"06,99,1,06,1,04,1,00250,1,00,1,00,1",,"01,9",,,,"99999,9,10133,1","6,1,004,1,-021,1",,"SYN100AAXX  14091 76458 32362 60001 10196 20178 30133 40137 56004 86400 90846 333 30/// 56600 59021 86608;","Q01  00002PRCP06"
"76458099999","2005-03-14T12:00:00","4","23.2","-106.4166666","4.0","COLONIA JUAN CARRASCO MAZATLAN SIN., MX","FM-12","99999","V020","120,1,N,0020,1","00150,1,9,N","010000,1,N,1","+0194,1","+0186,1","10133,1","06,0000,9,1","24,0000,9,1",,,,"07,1,+00150,1,06,1",,,"07,99,1,07,1,04,1,00150,1,00,1,00,1",,"01,9","999,+0156,1","120,N,+0188,1","240,M,+0259,1","99999,9,10129,1","7,1,004,1,-016,1",,"SYN118AAXX  14121 76458 32260 71202 10194 20186 30129 40133 57004 87400 91156 333 10259 20188 30156 56600 59016 70000 87605;","Q01  00002PRCP06"
"76458099999","2005-03-14T15:00:00","4","23.2","-106.4166666","4.0","COLONIA JUAN CARRASCO MAZATLAN SIN., MX","FM-12","99999","V020","090,1,N,0020,1","00210,1,9,N","012000,1,N,1","+0204,1","+0187,1","10136,1","06,0000,9,1",,,,,"07,1,+00210,1,06,1",,,"07,99,1,07,1,05,1,00450,1,00,1,00,1",,"01,9",,,,"99999,9,10132,1","2,1,004,1,-022,1",,"SYN100AAXX  14151 76458 32462 70902 10204 20187 30132 40136 52004 87500 91455 333 30/// 56600 59022 87607;","Q01  00002PRCP06"
"76458099999","2005-03-14T18:00:00","4","23.2","-106.4166666","4.0","COLONIA JUAN CARRASCO MAZATLAN SIN., MX","FM-12","99999","V020","160,1,N,0030,1","22000,1,9,N","020000,1,N,1","+0250,1","+0179,1","10132,1","06,0000,9,1",,,,,"02,1,+00870,1,08,1",,,"02,99,1,02,1,02,1,00800,1,00,1,00,1",,"01,9",,"120,M,+0269,1","240,N,+0185,1","99999,9,10127,1","7,1,005,1,-029,1",,"SYN112AAXX  14181 76458 32570 21603 10250 20179 30127 40132 57005 82200 91755 333 10269 20185 30/// 56700 59029 82829;","Q01  00002PRCP06"
"76458099999","2005-03-14T21:00:00","4","23.2","-106.4166666","4.0","COLONIA JUAN CARRASCO MAZATLAN SIN., MX","FM-12","99999","V020","240,1,N,0040,1","22000,1,9,N","020000,1,N,1","+0244,1","+0181,1","10113,1","06,0000,9,1",,,,,"02,1,+00660,1,08,1",,,"05,99,1,02,1,02,1,00800,1,00,1,06,1",,"01,9",,,,"99999,9,10108,1","7,1,019,1,-029,1",,"SYN112AAXX  14211 76458 32570 52404 10244 20181 30108 40113 57019 82206 92045 333 30/// 565/0 57855 59029 82822 83270;","Q01  00002PRCP06"
"76458099999","2005-03-15T00:00:00","4","23.2","-106.4166666","4.0","COLONIA JUAN CARRASCO MAZATLAN SIN., MX","FM-12","99999","V020","240,1,N,0040,1","22000,1,9,N","020000,1,N,1","+0237,1","+0166,1","10100,1","06,0000,9,1","24,0000,9,1",,,,"01,1,+00660,1,08,1",,,"04,99,1,01,1,02,1,00800,1,05,1,00,1",,"01,9",,"120,M,+0273,1","180,N,+0185,1","99999,9,10096,1","7,1,012,1,-028,1",,"SYN136AAXX  15001 76458 32570 42404 10237 20166 30096 40100 57012 81250 92348 333 10273 20185 30/// 50411 5610/ 57816 59028 70000 81822 83356;","Q01  00002PRCP06"
"76458099999","2005-03-15T09:00:00","4","23.2","-106.4166666","4.0","COLONIA JUAN CARRASCO MAZATLAN SIN., MX","FM-12","99999","V020","180,1,N,0020,1","00660,1,9,N","008000,1,N,1","+0214,1","+0160,1","10108,1","06,0000,9,1",,,,,"08,1,+00660,1,08,1",,,"08,99,1,08,1,07,1,00800,1,00,1,00,1",,"01,9",,,,"99999,9,10103,1","7,1,014,1,-029,1",,"SYN100AAXX  15091 76458 32558 81802 10214 20160 30103 40108 57014 88700 90850 333 30/// 56400 59029 88822;","Q01  00002PRCP06"
"76458099999","2005-03-15T12:00:00","4","23.2","-106.4166666","4.0","COLONIA JUAN CARRASCO MAZATLAN SIN., MX","FM-12","99999","V020","180,1,N,0030,1","00720,1,9,N","008000,1,N,1","+0213,1","+0156,1","10105,1","06,0000,9,1","24,0000,9,1",,,,"08,1,+00720,1,08,1",,,"08,99,1,08,1,07,1,00800,1,00,1,00,1",,"01,9","999,+0200,1","120,N,+0211,1","240,M,+0273,1","99999,9,10101,1","6,1,002,1,-028,1",,"SYN118AAXX  15121 76458 32558 81803 10213 20156 30101 40105 56002 88700 91150 333 10273 20211 30200 56400 59028 70000 88824;","Q01  00002PRCP06"
"76458099999","2005-03-15T15:00:00","4","23.2","-106.4166666","4.0","COLONIA JUAN CARRASCO MAZATLAN SIN., MX","FM-12","99999","V020","230,1,N,0040,1","00750,1,9,N","014000,1,N,1","+0209,1","+0172,1","10126,1","06,0000,9,1",,,,,,,,"08,99,1,08,1,02,1,00800,1,00,1,00,1",,"01,9",,,,"99999,9,10121,1","2,1,020,1,-015,1",,"SYN106AAXX  15151 76458 32564 82304 10209 20172 30121 40126 52020 88200 91448 333 30/// 564// 57844 59015 88822;","Q01  00002PRCP06"
"76458099999","2005-03-15T18:00:00","4","23.2","-106.4166666","4.0","COLONIA JUAN CARRASCO MAZATLAN SIN., MX","FM-12","99999","V020","200,1,N,0040,1","03600,1,9,N","020000,1,N,1","+0231,1","+0139,1","10137,1","06,0000,9,1",,,,,"02,1,+00660,1,08,1",,,"05,99,1,02,1,02,1,01250,1,05,1,00,1",,"01,9",,"120,M,+0243,1","240,N,+0208,1","99999,9,10133,1","7,1,012,1,+006,1",,"SYN124AAXX  15181 76458 32670 52004 10231 20139 30133 40137 57012 82250 91748 333 10243 20208 30/// 5640/ 57846 58006 82822 83356;","Q01  00002PRCP06"
"76458099999","2005-03-15T21:00:00","4","23.2","-106.4166666","4.0","COLONIA JUAN CARRASCO MAZATLAN SIN., MX","FM-12","99999","V020","150,1,N,0030,1","22000,1,9,N","020000,1,N,1","+0238,1","+0127,1","10125,1","06,0000,9,1",,,,,"01,1,+01380,1,08,1",,,"01,99,1,01,1,01,1,01250,1,00,1,00,1",,"01,9",,,,"99999,9,10121,1","7,1,012,1,-015,1",,"SYN100AAXX  15211 76458 32670 11503 10238 20127 30121 40125 57012 81100 92050 333 30/// 56100 59015 81846;","Q01  00002PRCP06"
"76458099999","2005-03-16T03:00:00","4","23.2","-106.4166666","4.0","COLONIA JUAN CARRASCO MAZATLAN SIN., MX","FM-12","99999","V020","220,1,N,0020,1","22000,1,9,N","010000,1,N,1","+0202,1","+0155,1","10116,1","06,0000,9,1",,,,,"02,1,+00570,1,08,1",,,"02,99,1,02,1,02,1,00450,1,00,1,00,1",,"01,9",,,,"99999,9,10112,1","2,1,004,1,-009,1",,"SYN100AAXX  16031 76458 32460 22202 10202 20155 30112 40116 52004 82200 90245 333 30/// 56400 59009 82819;","Q01  00002PRCP06"
"76458099999","2005-03-16T06:00:00","4","23.2","-106.4166666","4.0","COLONIA JUAN CARRASCO MAZATLAN SIN., MX","FM-12","99999","V020","260,1,N,0020,1","22000,1,9,N","010000,1,N,1","+0200,1","+0156,1","10128,1","06,0000,9,1",,,,,,,,"03,99,1,03,1,02,1,00450,1,00,1,00,1","0540,9","01,9",,"240,M,+0258,1","240,N,+0200,1","99999,9,10124,1","2,1,012,1,+006,1",,"SYN118AAXX  16061 76458 32460 32602 10200 20156 30124 40128 52012 83200 90532 333 10258 20200 30/// 55090 56400 58006 83818;","Q01  00002PRCP06"
"76458099999","2005-03-16T12:00:00","4","23.2","-106.4166666","4.0","COLONIA JUAN CARRASCO MAZATLAN SIN., MX","FM-12","99999","V020","999,9,C,0000,1","22000,1,9,N","010000,1,N,1","+0175,1","+0151,1","10127,1","06,0000,9,1","24,0000,9,1",,,,"00,1,+99999,9,99,9",,,"00,99,1,00,1,00,1,99999,9,00,1,00,1",,"01,9","999,+0130,1","120,N,+0169,1","240,M,+0258,1","99999,9,10123,1","5,1,001,1,+026,1",,"SYN100AAXX  16121 76458 32960 00000 10175 20151 30123 40127 55001 91140 333 10258 20169 30130 58026 70000;","Q01  00002PRCP06Q02  00002PRCP24"
"76458099999","2005-03-16T15:00:00","4","23.2","-106.4166666","4.0","COLONIA JUAN CARRASCO MAZATLAN SIN., MX","FM-12","99999","V020","999,9,C,0000,1","22000,1,9,N","020000,1,N,1","+0190,1","+0153,1","10140,1","06,0000,9,1",,,,,"01,1,+00450,1,08,1",,,"03,99,1,01,1,02,1,00450,1,03,1,00,1",,"01,9",,,,"99999,9,10135,1","2,1,012,1,+014,1",,"SYN106AAXX  16151 76458 32470 30000 10190 20153 30135 40140 52012 81230 91446 333 30/// 56620 58014 81815 82358;","Q01  00002PRCP06"
"76458099999","2005-03-16T18:00:00","4","23.2","-106.4166666","4.0","COLONIA JUAN CARRASCO MAZATLAN SIN., MX","FM-12","99999","V020","230,1,N,0020,1","22000,1,9,N","020000,1,N,1","+0224,1","+0158,1","10142,1","06,0000,9,1",,,,,"01,1,+00810,1,08,1",,,"02,99,1,01,1,02,1,00800,1,03,1,00,1",,"01,9",,"120,M,+0248,1","240,N,+0161,1","99999,9,10137,1","4,1,000,1,+004,1",,"SYN118AAXX  16181 76458 32570 22302 10224 20158 30137 40142 54002 81230 91746 333 10248 20161 30/// 56340 58004 81827 81358;","Q01  00002PRCP06"
"76458099999","2005-03-16T21:00:00","4","23.2","-106.4166666","4.0","COLONIA JUAN CARRASCO MAZATLAN SIN., MX","FM-12","99999","V020","240,1,N,0020,1","22000,1,9,N","020000,1,N,1","+0234,1","+0151,1","10132,1","06,0000,9,1",,,,,"01,1,+01050,1,08,1",,,"01,99,1,01,1,02,1,01250,1,00,1,00,1",,"01,9",,,,"99999,9,10127,1","7,1,010,1,+006,1",,"SYN100AAXX  16211 76458 32670 12402 10234 20151 30127 40132 57010 81200 92045 333 30/// 561// 58006 81835;","Q01  00002PRCP06"
"76458099999","2005-03-17T00:00:00","4","23.2","-106.4166666","4.0","COLONIA JUAN CARRASCO MAZATLAN SIN., MX","FM-12","99999","V020","270,1,N,0030,1","22000,1,9,N","020000,1,N,1","+0232,1","+0167,1","10126,1","06,0000,9,1","24,0000,9,1",,,,,,,"01,99,1,01,1,01,1,00800,1,00,1,00,1",,"01,9",,"120,M,+0252,1","180,N,+0161,1","99999,9,10122,1","7,1,005,1,+015,1",,"SYN124AAXX  17001 76458 32570 12703 10232 20167 30122 40126 57005 81100 92345 333 10252 20161 30/// 50421 566// 58015 70000 81827;","Q01  00002PRCP06"
"76458099999","2005-03-17T03:00:00","4","23.2","-106.4166666","4.0","COLONIA JUAN CARRASCO MAZATLAN SIN., MX","FM-12","99999","V020","320,1,N,0020,1","22000,1,9,N","010000,1,N,1","+0210,1","+0164,1","10132,1","06,0000,9,1",,,,,"00,1,+99999,9,99,9",,,"00,99,1,00,1,00,1,99999,9,00,1,00,1",,"01,9",,,,"99999,9,10127,1","2,1,005,1,+015,1",,"SYN082AAXX  17031 76458 32960 03202 10210 20164 30127 40132 52005 90245 333 30/// 58015;","Q01  00002PRCP06"
"76458099999","2005-03-17T06:00:00","4","23.2","-106.4166666","4.0","COLONIA JUAN CARRASCO MAZATLAN SIN., MX","FM-12","99999","V020","310,1,N,0010,1","22000,1,9,N","010000,1,N,1","+0196,1","+0149,1","10141,1","06,0000,9,1",,,,,"00,1,+99999,9,99,9",,,"00,99,1,00,1,00,1,99999,9,00,1,00,1","0630,9","01,9",,"240,M,+0252,1","240,N,+0161,1","99999,9,10137,1","2,1,010,1,+013,1",,"SYN100AAXX  17061 76458 32960 03101 10196 20149 30137 40141 52010 90532 333 10252 20161 30/// 55105 58013;","Q01  00002PRCP06"
"76458099999","2005-03-17T12:00:00","4","23.2","-106.4166666","4.0","COLONIA JUAN CARRASCO MAZATLAN SIN., MX","FM-12","99999","V020","999,9,C,0000,1","22000,1,9,N","008000,1,N,1","+0164,1","+0135,1","10148,1","06,0000,9,1","24,0000,9,1",,,,"00,1,+99999,9,99,9",,,"00,99,1,00,1,00,1,99999,9,00,1,00,1",,"01,9","999,+0115,1","120,N,+0158,1","240,M,+0252,1","99999,9,10143,1","6,1,002,1,+020,1",,"SYN100AAXX  17121 76458 32958 00000 10164 20135 30143 40148 56002 91130 333 10252 20158 30115 58020 70000;","Q01  00002PRCP06Q02  00002PRCP24"
"76458099999","2005-03-17T18:00:00","4","23.2","-106.4166666","4.0","COLONIA JUAN CARRASCO MAZATLAN SIN., MX","FM-12","99999","V020","160,1,N,0030,1","22000,1,9,N","020000,1,N,1","+0235,1","+0158,1","10160,1","06,0000,9,1",,,,,"01,1,+00960,1,08,1",,,"01,99,1,01,1,01,1,00800,1,00,1,00,1",,"01,9",,"120,M,+0250,1","240,N,+0150,1","99999,9,10156,1","7,1,005,1,+019,1",,"SYN112AAXX  17181 76458 32570 11603 10235 20158 30156 40160 57005 81100 91750 333 10250 20150 30/// 56700 58019 81832;","Q01  00002PRCP06"
"76458099999","2005-03-17T21:00:00","4","23.2","-106.4166666","4.0","COLONIA JUAN CARRASCO MAZATLAN SIN., MX","FM-12","99999","V020","260,1,N,0040,1","22000,1,9,N","020000,1,N,1","+0235,1","+0175,1","10145,1","06,0000,9,1",,,,,"01,1,+00750,1,08,1",,,"01,99,1,01,1,01,1,00800,1,00,1,00,1",,"01,9",,,,"99999,9,10140,1","7,1,016,1,+013,1",,"SYN100AAXX  17211 76458 32570 12604 10235 20175 30140 40145 57016 81100 92045 333 30/// 561// 58013 81825;","Q01  00002PRCP06"
"76458099999","2005-03-18T00:00:00","4","23.2","-106.4166666","4.0","COLONIA JUAN CARRASCO MAZATLAN SIN., MX","FM-12","99999","V020","290,1,N,0030,1","22000,1,9,N","020000,1,N,1","+0227,1","+0156,1","10130,1","06,0000,9,1","24,0000,9,1",,,,"00,1,+99999,9,99,9",,,"00,99,1,00,1,00,1,99999,9,00,1,00,1",,"01,9",,"120,M,+0256,1","180,N,+0150,1","99999,9,10126,1","6,1,014,1,+004,1",,"SYN106AAXX  18001 76458 32970 02903 10227 20156 30126 40130 56014 92345 333 10256 20150 30/// 50481 58004 70000;","Q01  00002PRCP06Q02  00002PRCP24"
"76458099999","2005-03-18T03:00:00","4","23.2","-106.4166666","4.0","COLONIA JUAN CARRASCO MAZATLAN SIN., MX","FM-12","99999","V020","280,1,N,0030,1","22000,1,9,N","010000,1,N,1","+0210,1","+0167,1","10132,1","06,0000,9,1",,,,,"00,1,+99999,9,99,9",,,"00,99,1,00,1,00,1,99999,9,00,1,00,1",,"01,9",,,,"99999,9,10127,1","4,1,000,1,-001,1",,"SYN082AAXX  18031 76458 32960 02803 10210 20167 30127 40132 54001 90242 333 30/// 59001;","Q01  00002PRCP06"
"76458099999","2005-03-18T06:00:00","4","23.2","-106.4166666","4.0","COLONIA JUAN CARRASCO MAZATLAN SIN., MX","FM-12","99999","V020","310,1,N,0020,1","22000,1,9,N","010000,1,N,1","+0200,1","+0159,1","10141,1","06,0000,9,1",,,,,"00,1,+99999,9,99,9",,,"00,99,1,00,1,00,1,99999,9,00,1,00,1","0630,9","01,9",,"240,M,+0256,1","240,N,+0150,1","99999,9,10137,1","2,1,010,1,-001,1",,"SYN100AAXX  18061 76458 32960 03102 10200 20159 30137 40141 52010 90532 333 10256 20150 30/// 55105 59001;","Q01  00002PRCP06"
"76458099999","2005-03-18T09:00:00","4","23.2","-106.4166666","4.0","COLONIA JUAN CARRASCO MAZATLAN SIN., MX","FM-12","99999","V020","999,9,C,0000,1","22000,1,9,N","008000,1,N,1","+0172,1","+0133,1","10134,1","06,0000,9,1",,,,,"00,1,+99999,9,99,9",,,"00,99,1,00,1,00,1,99999,9,00,1,00,1",,"01,9",,,,"99999,9,10130,1","8,1,007,1,-015,1",,"SYN082AAXX  18091 76458 32958 00000 10172 20133 30130 40134 58007 90830 333 30/// 59015;","Q01  00002PRCP06"
"76458099999","2005-03-18T15:00:00","4","23.2","-106.4166666","4.0","COLONIA JUAN CARRASCO MAZATLAN SIN., MX","FM-12","99999","V020","100,1,N,0020,1","22000,1,9,N","015000,1,N,1","+0192,1","+0125,1","10151,1","06,0000,9,1",,,,,"00,1,+99999,9,99,9",,,"00,99,1,00,1,00,1,99999,9,00,1,00,1",,"01,9",,,,"99999,9,10147,1","2,1,028,1,-013,1",,"SYN082AAXX  18151 76458 32965 01002 10192 20125 30147 40151 52028 91448 333 30/// 59013;","Q01  00002PRCP06"
"76458099999","2005-03-18T18:00:00","4","23.2","-106.4166666","4.0","COLONIA JUAN CARRASCO MAZATLAN SIN., MX","FM-12","99999","V020","160,1,N,0020,1","22000,1,9,N","020000,1,N,1","+0245,1","+0170,1","10152,1","06,0000,9,1",,,,,"00,1,+99999,9,99,9",,,"00,99,1,00,1,00,1,99999,9,00,1,00,1",,"01,9",,"120,M,+0256,1","240,N,+0148,1","99999,9,10148,1","4,1,000,1,-008,1",,"SYN094AAXX  18181 76458 32970 01602 10245 20170 30148 40152 54002 91745 333 10256 20148 30/// 59008;","Q01  00002PRCP06"
"76458099999","2005-03-18T21:00:00","4","23.2","-106.4166666","4.0","COLONIA JUAN CARRASCO MAZATLAN SIN., MX","FM-12","99999","V020","250,1,N,0030,1","22000,1,9,N","002000,1,N,1","+0249,1","+0177,1","10132,1","06,0000,9,1",,,,,"04,1,+06000,1,00,1",,,"04,99,1,00,1,00,1,99999,9,00,1,06,1",,"01,9",,,,"99999,9,10128,1","9,9,999,9,-012,1",,"SYN100AAXX  18211 76458 32920 42503 10249 20177 30128 40132 5//// 80006 92048 333 30/// 56//0 59012 84070;","Q01  00002PRCP06"
"76458099999","2005-03-19T00:00:00","4","23.2","-106.4166666","4.0","COLONIA JUAN CARRASCO MAZATLAN SIN., MX","FM-12","99999","V020","270,1,N,0030,1","22000,1,9,N","020000,1,N,1","+0241,1","+0172,1","10120,1","06,0000,9,1","24,0000,9,1",,,,"04,1,+01800,1,03,1",,,"04,99,1,04,1,00,1,99999,9,05,1,00,1",,"01,9",,"120,M,+0276,1","180,N,+0148,1","99999,9,10115,1","7,1,012,1,-011,1",,"SYN118AAXX  19001 76458 32970 42703 10241 20172 30115 40120 57012 84050 92348 333 10276 20148 30/// 50301 59011 70000 84356;","Q01  00002PRCP06"
"76458099999","2005-03-19T09:00:00","4","23.2","-106.4166666","4.0","COLONIA JUAN CARRASCO MAZATLAN SIN., MX","FM-12","99999","V020","999,9,C,0000,1","22000,1,9,N","008000,1,N,1","+0174,1","+0146,1","10146,1","06,0000,9,1",,,,,"00,1,+99999,9,99,9",,,"00,99,1,00,1,00,1,99999,9,00,1,00,1",,"01,9",,,,"99999,9,10142,1","4,1,000,1,+012,1",,"SYN082AAXX  19091 76458 32958 00000 10174 20146 30142 40146 54/// 90830 333 30/// 58012;","Q01  00002PRCP06"
"76458099999","2005-03-19T12:00:00","4","23.2","-106.4166666","4.0","COLONIA JUAN CARRASCO MAZATLAN SIN., MX","FM-12","99999","V020","999,9,C,0000,1","22000,1,9,N","008000,1,N,1","+0160,1","+0141,1","10134,1","06,0000,9,1","24,0000,9,1",,,,"00,1,+99999,9,99,9",,,"00,99,1,00,1,00,1,99999,9,00,1,00,1",,"01,9","999,+0100,1","120,N,+0150,1","240,M,+0276,1","99999,9,10130,1","6,1,012,1,+011,1",,"SYN100AAXX  19121 76458 32958 00000 10160 20141 30130 40134 56012 91130 333 10276 20150 30100 58011 70000;","Q01  00002PRCP06Q02  00002PRCP24"
"76458099999","2005-03-19T15:00:00","4","23.2","-106.4166666","4.0","COLONIA JUAN CARRASCO MAZATLAN SIN., MX","FM-12","99999","V020","999,9,C,0000,1","22000,1,9,N","020000,1,N,1","+0196,1","+0154,1","10151,1","06,0000,9,1",,,,,"00,1,+99999,9,99,9",,,"00,99,1,00,1,00,1,99999,9,00,1,00,1",,"01,9",,,,"99999,9,10147,1","2,1,017,1,+999,9",,"SYN082AAXX  19151 76458 32970 00000 10196 20154 30147 40151 52017 91450 333 30/// 58///;","Q01  00002PRCP06"
"76458099999","2005-03-19T18:00:00","4","23.2","-106.4166666","4.0","COLONIA JUAN CARRASCO MAZATLAN SIN., MX","FM-12","99999","V020","240,1,N,0020,1","22000,1,9,N","020000,1,N,1","+0235,1","+0178,1","10154,1","06,0000,9,1",,,,,"01,1,+08700,1,00,1",,,"01,99,1,00,1,00,1,99999,9,00,1,06,1",,"01,9",,"120,M,+0250,1","240,N,+0146,1","99999,9,10151,1",,,"SYN112AAXX  19181 76458 32970 12402 10235 20178 30151 40154 5//// 80006 91750 333 10250 20146 30/// 56009 58/// 81079;","Q01  00002PRCP06"
"76458099999","2005-03-19T21:00:00","4","23.2","-106.4166666","4.0","COLONIA JUAN CARRASCO MAZATLAN SIN., MX","FM-12","99999","V020","270,1,N,0040,1","22000,1,9,N","020000,1,N,1","+0245,1","+0174,1","99999,9","06,0000,9,1",,,,,"02,1,+06000,1,00,1",,,"02,99,1,00,1,00,1,99999,9,00,1,01,1",,"01,9",,,,,,,"SYN100AAXX  19211 76458 32970 22704 10245 20174 3//// 4//// 5//// 80001 92048 333 30/// 56//0 58/// 82070;","Q01  00002PRCP06"
"76458099999","2005-03-20T00:00:00","4","23.2","-106.4166666","4.0","COLONIA JUAN CARRASCO MAZATLAN SIN., MX","FM-12","99999","V020","270,1,N,0040,1","22000,1,9,N","020000,1,N,1","+0241,1","+0158,1","99999,9","06,0000,9,1","24,0000,9,1",,,,,,,"01,99,1,00,1,00,1,99999,9,00,1,01,1",,"01,9",,"120,M,+0267,1","180,N,+0146,1",,,,"SYN124AAXX  20001 76458 32970 12704 10241 20158 3//// 4//// 5//// 80001 92348 333 10267 20146 30/// 50551 56//0 58/// 70000 81070;","Q01  00002PRCP06"
"76458099999","2005-03-20T09:00:00","4","23.2","-106.4166666","4.0","COLONIA JUAN CARRASCO MAZATLAN SIN., MX","FM-12","99999","V020","999,9,C,0000,1","22000,1,9,N","008000,1,N,1","+0178,1","+0139,1","99999,9","06,0000,9,1",,,,,"00,1,+99999,9,99,9",,,"00,99,1,00,1,00,1,99999,9,00,1,00,1",,,,,,,,,"SYN078AAXX  20091 76458 32958 00000 10178 20139 30/// 30132 40137 57/// 59010 90830;","Q01  00002PRCP06"
"76458099999","2005-03-20T12:00:00","4","23.2","-106.4166666","4.0","COLONIA JUAN CARRASCO MAZATLAN SIN., MX","FM-12","99999","V020","999,9,C,0000,1","22000,1,9,N","008000,1,N,1","+0170,1","+0135,1","10130,1","06,0000,9,1","24,0000,9,1",,,,"00,1,+99999,9,99,9",,,"00,99,1,00,1,00,1,99999,9,00,1,00,1",,"01,9","999,+0120,1","120,N,+0168,1","240,M,+0267,1","99999,9,10125,1","6,1,007,1,-005,1",,"SYN100AAXX  20121 76458 32958 00000 10170 20135 30125 40130 56007 91130 333 10267 20168 30120 59005 70000;","Q01  00002PRCP06Q02  00002PRCP24"
"76458099999","2005-03-20T15:00:00","4","23.2","-106.4166666","4.0","COLONIA JUAN CARRASCO MAZATLAN SIN., MX","FM-12","99999","V020","999,9,C,0000,1","22000,1,9,N","020000,1,N,1","+0202,1","+0127,1","10145,1","06,0000,9,1",,,,,"00,1,+99999,9,99,9",,,"00,99,1,00,1,00,1,99999,9,00,1,00,1",,"01,9",,,,"99999,9,10140,1","9,9,999,9,-011,1",,"SYN082AAXX  20151 76458 32970 00000 10202 20127 30140 40145 5//// 91450 333 30/// 59011;","Q01  00002PRCP06"
"76458099999","2005-03-20T18:00:00","4","23.2","-106.4166666","4.0","COLONIA JUAN CARRASCO MAZATLAN SIN., MX","FM-12","99999","V020","260,1,N,0010,1","22000,1,9,N","016000,1,N,1","+0244,1","+0176,1","10148,1","06,0000,9,1",,,,,"00,1,+99999,9,99,9",,,"00,99,1,00,1,00,1,99999,9,00,1,00,1",,"01,9",,"120,M,+0260,1","240,N,+0150,1","99999,9,10143,1","1,1,003,1,-012,1",,"SYN094AAXX  20181 76458 32966 02601 10244 20176 30143 40148 51003 91756 333 10260 20150 30/// 59012;","Q01  00002PRCP06"
"76458099999","2005-03-20T21:00:00","4","23.2","-106.4166666","4.0","COLONIA JUAN CARRASCO MAZATLAN SIN., MX","FM-12","99999","V020","270,1,N,0040,1","22000,1,9,N","020000,1,N,1","+0241,1","+0158,1","10135,1","06,0000,9,1",,,,,"00,1,+99999,9,99,9",,,"00,99,1,00,1,00,1,99999,9,00,1,00,1",,"01,9",,,,"99999,9,10130,1","7,1,013,1,-005,1",,"SYN082AAXX  20211 76458 32970 02704 10241 20158 30130 40135 57013 92048 333 30/// 59005;","Q01  00002PRCP06"
"76458099999","2005-03-21T00:00:00","4","23.2","-106.4166666","4.0","COLONIA JUAN CARRASCO MAZATLAN SIN., MX","FM-12","99999","V020","300,1,N,0040,1","22000,1,9,N","020000,1,N,1","+0247,1","+0166,1","10120,1","06,0000,9,1","24,0000,9,1",,,,"00,1,+99999,9,99,9",,,"00,99,1,00,1,00,1,99999,9,00,1,00,1",,"01,9",,"120,M,+0272,1","180,N,+0150,1","99999,9,10116,1","7,1,014,1,-008,1",,"SYN106AAXX  21001 76458 32970 03004 10247 20166 30116 40120 57014 92348 333 10272 20150 30/// 50351 59008 70000;","Q01  00002PRCP06Q02  00002PRCP24"
"76458099999","2005-03-21T06:00:00","4","23.2","-106.4166666","4.0","COLONIA JUAN CARRASCO MAZATLAN SIN., MX","FM-12","99999","V020","310,1,N,0020,1","22000,1,9,N","010000,1,N,1","+0210,1","+0158,1","10138,1","06,0000,9,1",,,,,"00,1,+99999,9,99,9",,,"00,99,1,00,1,00,1,99999,9,00,1,00,1","0630,9","01,9",,"240,M,+0272,1","240,N,+0150,1","99999,9,10133,1","2,1,007,1,+999,9",,"SYN100AAXX  21061 76458 32960 03102 10210 20158 30133 40138 52007 90532 333 10272 20150 30/// 55105 59///;","Q01  00002PRCP06"
"76458099999","2005-03-21T09:00:00","4","23.2","-106.4166666","4.0","COLONIA JUAN CARRASCO MAZATLAN SIN., MX","FM-12","99999","V020","999,9,C,0000,1","22000,1,9,N","008000,1,N,1","+0198,1","+0151,1","10129,1","06,0000,9,1",,,,,"00,1,+99999,9,99,9",,,"00,99,1,00,1,00,1,99999,9,00,1,00,1",,"01,9",,,,"99999,9,10125,1","6,1,008,1,-007,1",,"SYN082AAXX  21091 76458 32958 00000 10198 20151 30125 40129 56008 90830 333 30/// 59007;","Q01  00002PRCP06"
"76458099999","2005-03-21T12:00:00","4","23.2","-106.4166666","4.0","COLONIA JUAN CARRASCO MAZATLAN SIN., MX","FM-12","99999","V020","999,9,C,0000,1","22000,1,9,N","008000,1,N,1","+0168,1","+0135,1","10121,1","06,0000,9,1","24,0000,9,1",,,,"00,1,+99999,9,99,9",,,"00,99,1,00,1,00,1,99999,9,00,1,00,1",,"01,9","999,+0114,1","120,N,+0162,1","240,M,+0272,1","99999,9,10116,1","7,1,006,1,-009,1",,"SYN100AAXX  21121 76458 32958 00000 10168 20135 30116 40121 57006 91130 333 10272 20162 30114 59009 70000;","Q01  00002PRCP06Q02  00002PRCP24"
"76458099999","2005-03-21T15:00:00","4","23.2","-106.4166666","4.0","COLONIA JUAN CARRASCO MAZATLAN SIN., MX","FM-12","99999","V020","120,1,N,0010,1","22000,1,9,N","020000,1,N,1","+0197,1","+0145,1","10136,1","06,0000,9,1",,,,,"01,1,+08700,1,00,1",,,"01,99,1,00,1,00,1,99999,9,00,1,01,1",,"01,9",,,,"99999,9,10131,1","2,1,015,1,-009,1",,"SYN100AAXX  21151 76458 32970 11201 10197 20145 30131 40136 52015 80001 91450 333 30/// 56009 59009 81079;","Q01  00002PRCP06"
"76458099999","2005-03-21T18:00:00","4","23.2","-106.4166666","4.0","COLONIA JUAN CARRASCO MAZATLAN SIN., MX","FM-12","99999","V020","240,1,N,0020,1","22000,1,9,N","018000,1,N,1","+0230,1","+0170,1","10140,1","06,0000,9,1",,,,,"02,1,+08700,1,00,1",,,"02,99,1,00,1,00,1,99999,9,00,1,05,1",,"01,9",,"120,M,+0270,1","240,N,+0152,1","99999,9,10135,1","0,1,004,1,-008,1",,"SYN112AAXX  21181 76458 32968 22402 10230 20170 30135 40140 50004 80005 91756 333 10270 20152 30/// 56009 59008 82079;","Q01  00002PRCP06"
"76458099999","2005-03-21T21:00:00","4","23.2","-106.4166666","4.0","COLONIA JUAN CARRASCO MAZATLAN SIN., MX","FM-12","99999","V020","280,1,N,0040,1","22000,1,9,N","020000,1,N,1","+0242,1","+0165,1","10113,1","06,0000,9,1",,,,,"02,1,+01800,1,09,1",,,"03,99,1,02,1,99,9,99999,9,05,1,01,1",,"01,9",,,,"99999,9,10108,1","7,1,027,1,-022,1",,"SYN106AAXX  21211 76458 32970 32804 10242 20165 30108 40113 57027 82051 92048 333 30/// 56/00 59022 82956 81070;","Q01  00002PRCP06"
"76458099999","2005-03-22T00:00:00","4","23.2","-106.4166666","4.0","COLONIA JUAN CARRASCO MAZATLAN SIN., MX","FM-12","99999","V020","310,1,N,0050,1","22000,1,9,N","020000,1,N,1","+0245,1","+0170,1","10101,1","06,0000,9,1","24,0000,9,1",,,,"01,1,+01800,1,03,1",,,"03,99,1,01,1,00,1,99999,9,05,1,01,1",,"01,9",,"120,M,+0272,1","180,N,+0152,1","99999,9,10096,1","7,1,012,1,-020,1",,"SYN130AAXX  22001 76458 32970 33105 10245 20170 30096 40101 57012 81051 92348 333 10272 20152 30/// 50441 56/00 59020 70000 81356 81070;","Q01  00002PRCP06"
"76458099999","2005-03-22T03:00:00","4","23.2","-106.4166666","4.0","COLONIA JUAN CARRASCO MAZATLAN SIN., MX","FM-12","99999","V020","310,1,N,0030,1","22000,1,9,N","010000,1,N,1","+0216,1","+0164,1","10106,1","06,0000,9,1",,,,,"00,1,+99999,9,99,9",,,"00,99,1,00,1,00,1,99999,9,00,1,00,1",,"01,9",,,,"99999,9,10101,1","2,1,005,1,-025,1",,"SYN082AAXX  22031 76458 32960 03103 10216 20164 30101 40106 52005 90240 333 30/// 59025;","Q01  00002PRCP06"
"76458099999","2005-03-22T18:00:00","4","23.2","-106.4166666","4.0","COLONIA JUAN CARRASCO MAZATLAN SIN., MX","FM-12","99999","V020","260,1,N,0030,1","22000,1,9,N","012000,1,N,1","+0227,1","+0165,1","10113,1","06,0000,9,1",,,,,"00,1,+99999,9,99,9",,,"00,99,1,00,1,00,1,99999,9,00,1,00,1",,"01,9",,"120,M,+0250,1","240,N,+0158,1","99999,9,10109,1","0,1,002,1,-026,1",,"SYN094AAXX  22181 76458 32962 02603 10227 20165 30109 40113 50002 91750 333 10250 20158 30/// 59026;","Q01  00002PRCP06"
"76458099999","2005-03-23T00:00:00","4","23.2","-106.4166666","4.0","COLONIA JUAN CARRASCO MAZATLAN SIN., MX","FM-12","99999","V020","300,1,N,0050,1","22000,1,9,N","020000,1,N,1","+0245,1","+0165,1","10082,1","06,0000,9,1","24,0000,9,1",,,,"00,1,+99999,9,99,9",,,"00,99,1,00,1,00,1,99999,9,00,1,00,1",,"01,9",,"120,M,+0265,1","180,N,+0158,1","99999,9,10078,1","7,1,018,1,-018,1",,"SYN106AAXX  23001 76458 32970 03005 10245 20165 30078 40082 57018 92345 333 10265 20158 30/// 50481 59018 70000;","Q01  00002PRCP06Q02  00002PRCP24"
"76458099999","2005-03-23T03:00:00","4","23.2","-106.4166666","4.0","COLONIA JUAN CARRASCO MAZATLAN SIN., MX","FM-12","99999","V020","310,1,N,0020,1","22000,1,9,N","010000,1,N,1","+0212,1","+0166,1","10095,1","06,0000,9,1",,,,,"00,1,+99999,9,99,9",,,"00,99,1,00,1,00,1,99999,9,00,1,00,1",,"01,9",,,,"99999,9,10090,1","2,1,012,1,-011,1",,"SYN082AAXX  23031 76458 32960 03102 10212 20166 30090 40095 52012 90245 333 30/// 59011;","Q01  00002PRCP06"
"76458099999","2005-03-23T06:00:00","4","23.2","-106.4166666","4.0","COLONIA JUAN CARRASCO MAZATLAN SIN., MX","FM-12","99999","V020","310,1,N,0010,1","22000,1,9,N","010000,1,N,1","+0202,1","+0169,1","10102,1","06,0000,9,1",,,,,"00,1,+99999,9,99,9",,,"00,99,1,00,1,00,1,99999,9,00,1,00,1","0630,9","01,9",,"240,M,+0265,1","240,N,+0158,1","99999,9,10098,1","2,1,008,1,-010,1",,"SYN100AAXX  23061 76458 32960 03101 10202 20169 30098 40102 52008 90532 333 10265 20158 30/// 55105 59010;","Q01  00002PRCP06"
"76458099999","2005-03-23T15:00:00","4","23.2","-106.4166666","4.0","COLONIA JUAN CARRASCO MAZATLAN SIN., MX","FM-12","99999","V020","120,1,N,0020,1","22000,1,9,N","010000,1,N,1","+0216,1","+0174,1","10139,1","06,0000,9,1",,,,,"04,1,+00540,1,06,1",,,"04,99,1,04,1,05,1,00800,1,99,9,99,9",,"01,9",,,,"99999,9,10134,1","2,1,999,9,+027,1",,"SYN100AAXX  23151 76458 32560 41202 10216 20174 30134 40139 52/// 845// 91440 333 30/// 563// 58027 84618;","Q01  00002PRCP06"
"76458099999","2005-03-23T21:00:00","4","23.2","-106.4166666","4.0","COLONIA JUAN CARRASCO MAZATLAN SIN., MX","FM-12","99999","V020","180,1,N,0030,1","22000,1,9,N","020000,1,N,1","+0247,1","+0174,1","10135,1","06,0000,9,1",,,,,"03,1,+06000,1,00,1",,,"03,99,1,00,1,00,1,99999,9,00,1,01,1",,"01,9",,,,"99999,9,10131,1","7,1,019,1,-035,1",,"SYN100AAXX  23211 76458 32970 31803 10247 20174 30131 40135 57019 80001 92048 333 30/// 56//0 59035 83070;","Q01  00002PRCP06"
"76458099999","2005-03-24T03:00:00","4","23.2","-106.4166666","4.0","COLONIA JUAN CARRASCO MAZATLAN SIN., MX","FM-12","99999","V020","999,9,C,0000,1","22000,1,9,N","010000,1,N,1","+0214,1","+0178,1","10139,1","06,0000,9,1",,,,,"00,1,+99999,9,99,9",,,"00,99,1,00,1,00,1,99999,9,00,1,00,1",,"01,9",,,,"99999,9,10134,1","2,1,007,1,+044,1",,"SYN082AAXX  24031 76458 32960 00000 10214 20178 30134 40139 52007 90245 333 30/// 58044;","Q01  00002PRCP06"
"76458099999","2005-03-24T06:00:00","4","23.2","-106.4166666","4.0","COLONIA JUAN CARRASCO MAZATLAN SIN., MX","FM-12","99999","V020","999,9,C,0000,1","22000,1,9,N","010000,1,N,1","+0205,1","+0180,1","10152,1","06,0000,9,1",,,,,"00,1,+99999,9,99,9",,,"00,99,1,00,1,00,1,99999,9,00,1,00,1","0642,9","01,9",,"240,M,+0270,1","240,N,+0167,1","99999,9,10148,1","2,1,014,1,+050,1",,"SYN100AAXX  24061 76458 32960 00000 10205 20180 30148 40152 52014 90532 333 10270 20167 30/// 55107 58050;","Q01  00002PRCP06"
"76458099999","2005-03-24T12:00:00","4","23.2","-106.4166666","4.0","COLONIA JUAN CARRASCO MAZATLAN SIN., MX","FM-12","99999","V020","999,9,C,0000,1","22000,1,9,N","010000,1,N,1","+0175,1","+0161,1","10143,1","06,0000,9,1","24,0000,9,1",,,,"00,1,+99999,9,99,9",,,"00,99,1,00,1,00,1,99999,9,00,1,00,1",,"01,9","999,+0134,1","120,N,+0170,1","240,M,+0270,1","99999,9,10139,1","6,1,002,1,+999,9",,"SYN100AAXX  24121 76458 32960 00000 10175 20161 30139 40143 56002 91140 333 10270 20170 30134 58/// 70000;","Q01  00002PRCP06Q02  00002PRCP24"
"76458099999","2005-03-24T15:00:00","4","23.2","-106.4166666","4.0","COLONIA JUAN CARRASCO MAZATLAN SIN., MX","FM-12","99999","V020","999,9,C,0000,1","22000,1,9,N","010000,1,N,1","+0184,1","+0175,1","10159,1","06,0000,9,1",,,"4,1,03,1","4,1,03,1","03,1,+06000,1,00,1",,,"03,99,1,00,1,00,1,99999,9,00,1,01,1",,"01,9",,,,"99999,9,10155,1","2,1,016,1,+021,1","05,1","SYN100AAXX  24151 76458 31960 30000 10184 20175 30155 40159 52016 70544 80001 91440 333 30/// 58021 83070;","Q01  00002PRCP06"
"76458099999","2005-03-24T18:00:00","4","23.2","-106.4166666","4.0","COLONIA JUAN CARRASCO MAZATLAN SIN., MX","FM-12","99999","V020","240,1,N,0010,1","22000,1,9,N","016000,1,N,1","+0244,1","+0201,1","10162,1","06,0000,9,1",,,"4,1,06,1","4,1,06,1","01,1,+06000,1,00,1",,,"01,99,1,00,1,00,1,99999,9,00,1,01,1",,"01,9",,"120,M,+0260,1","240,N,+0168,1","99999,9,10157,1","0,1,002,1,+009,1","05,1","SYN112AAXX  24181 76458 31966 12401 10244 20201 30157 40162 50002 70544 80001 91740 333 10260 20168 30/// 58009 81070;","Q01  00002PRCP06"
"76458099999","2005-03-24T21:00:00","4","23.2","-106.4166666","4.0","COLONIA JUAN CARRASCO MAZATLAN SIN., MX","FM-12","99999","V020","260,1,N,0030,1","22000,1,9,N","018000,1,N,1","+0240,1","+0182,1","10137,1","06,0000,9,1",,,,,"01,1,+06000,1,00,1",,,"01,99,1,00,1,00,1,99999,9,00,1,01,1",,"01,9",,,,"99999,9,10133,1","7,1,024,1,+002,1",,"SYN100AAXX  24211 76458 32968 12603 10240 20182 30133 40137 57024 80001 92048 333 30/// 56//0 58002 81070;","Q01  00002PRCP06"
"76458099999","2005-03-25T00:00:00","4","23.2","-106.4166666","4.0","COLONIA JUAN CARRASCO MAZATLAN SIN., MX","FM-12","99999","V020","270,1,N,0040,1","22000,1,9,N","020000,1,N,1","+0235,1","+0183,1","10125,1","06,0000,9,1","24,0000,9,1",,,,"01,1,+01800,1,03,1",,,"03,99,1,01,1,00,1,99999,9,05,1,01,1",,"01,9",,"120,M,+0268,1","180,N,+0168,1","99999,9,10121,1","7,1,012,1,-006,1",,"SYN130AAXX  25001 76458 32970 32704 10235 20183 30121 40125 57012 81051 92348 333 10268 20168 30/// 50431 56/00 59006 70000 81356 82070;","Q01  00002PRCP06"
"76458099999","2005-03-25T06:00:00","4","23.2","-106.4166666","4.0","COLONIA JUAN CARRASCO MAZATLAN SIN., MX","FM-12","99999","V020","320,1,N,0010,1","22000,1,9,N","010000,1,N,1","+0190,1","+0146,1","10151,1","06,0000,9,1",,,,,,,,"02,99,1,00,1,00,1,99999,9,00,1,06,1","0618,9","01,9",,"240,M,+0268,1","240,N,+0168,1","99999,9,10146,1","2,1,014,1,-002,1",,"SYN118AAXX  25061 76458 32960 23201 10190 20146 30146 40151 52014 82006 90532 333 10268 20168 30/// 55103 56009 59002 82072;","Q01  00002PRCP06"
"76458099999","2005-03-25T09:00:00","4","23.2","-106.4166666","4.0","COLONIA JUAN CARRASCO MAZATLAN SIN., MX","FM-12","99999","V020","999,9,C,0000,1","07800,1,9,N","010000,1,N,1","+0180,1","+0141,1","10146,1","06,0000,9,1",,,,,"07,1,+07800,1,02,1",,,"07,99,1,00,1,00,1,99999,9,00,1,07,1",,"01,9",,,,"99999,9,10141,1","7,1,025,1,+001,1",,"SYN100AAXX  25091 76458 32960 70000 10180 20141 30141 40146 57025 80007 90848 333 30/// 56009 58001 87276;","Q01  00002PRCP06"
"76458099999","2005-03-25T12:00:00","4","23.2","-106.4166666","4.0","COLONIA JUAN CARRASCO MAZATLAN SIN., MX","FM-12","99999","V020","999,9,C,0000,1","07800,1,9,N","010000,1,N,1","+0179,1","+0159,1","10145,1","06,0000,9,1","24,0000,9,1",,,,"07,1,+07800,1,02,1",,,"07,99,1,00,1,00,1,99999,9,00,1,07,1",,"01,9","999,+0119,1","120,N,+0163,1","240,M,+0278,1","99999,9,10140,1","4,1,000,1,+001,1",,"SYN118AAXX  25121 76458 32960 70000 10179 20159 30140 40145 54001 80007 91154 333 10278 20163 30119 56009 58001 70000 87276;","Q01  00002PRCP06"
"76458099999","2005-03-25T15:00:00","4","23.2","-106.4166666","4.0","COLONIA JUAN CARRASCO MAZATLAN SIN., MX","FM-12","99999","V020","999,9,C,0000,1","02700,1,9,N","016000,1,N,1","+0190,1","+0156,1","10157,1","06,0000,9,1",,,,,"07,1,+02700,1,04,1",,,"07,99,1,07,1,00,1,02250,1,02,1,99,9",,"01,9",,,,"99999,9,10152,1","2,1,012,1,-003,1",,"SYN094AAXX  25151 76458 32866 70000 10190 20156 30152 40157 52012 8702/ 91440 333 30/// 59003 87459;","Q01  00002PRCP06"
"76458099999","2005-03-25T18:00:00","4","23.2","-106.4166666","4.0","COLONIA JUAN CARRASCO MAZATLAN SIN., MX","FM-12","99999","V020","240,1,N,0020,1","22000,1,9,N","016000,1,N,1","+0234,1","+0178,1","10164,1","06,0000,9,1",,,,,"04,1,+06000,1,02,1",,,"04,99,1,00,1,00,1,99999,9,00,1,08,1",,"01,9",,"120,M,+0252,1","240,N,+0165,1","99999,9,10160,1","0,1,008,1,+003,1",,"SYN106AAXX  25181 76458 32966 42402 10234 20178 30160 40164 50008 80008 91740 333 10252 20165 30/// 58003 84270;","Q01  00002PRCP06"
"76458099999","2005-03-26T00:00:00","4","23.2","-106.4166666","4.0","COLONIA JUAN CARRASCO MAZATLAN SIN., MX","FM-12","99999","V020","270,1,N,0040,1","22000,1,9,N","020000,1,N,1","+0235,1","+0153,1","10126,1","06,0000,9,1","24,0000,9,1",,,,,,,"03,99,1,00,1,00,1,99999,9,00,1,02,1",,"01,9",,"120,M,+0275,1","180,N,+0165,1","99999,9,10122,1","7,1,017,1,+001,1",,"SYN124AAXX  26001 76458 32970 32704 10235 20153 30122 40126 57017 80002 92348 333 10275 20165 30/// 50401 56//0 58001 70000 83070;","Q01  00002PRCP06"
"76458099999","2005-03-26T15:00:00","4","23.2","-106.4166666","4.0","COLONIA JUAN CARRASCO MAZATLAN SIN., MX","FM-12","99999","V020","999,9,C,0000,1","06000,1,9,N","020000,1,N,1","+0186,1","+0112,1","10142,1","06,0000,9,1",,,,,"06,1,+06000,1,00,1",,,"06,99,1,00,1,00,1,99999,9,00,1,06,1",,"01,9",,,,"99999,9,10138,1","2,1,999,9,-014,1",,"SYN094AAXX  26151 76458 32970 60000 10186 20112 30138 40142 52/// 80006 91440 333 30/// 59014 86070;","Q01  00002PRCP06"
"76458099999","2005-03-26T18:00:00","4","23.2","-106.4166666","4.0","COLONIA JUAN CARRASCO MAZATLAN SIN., MX","FM-12","99999","V020","270,1,N,0050,1","06000,1,9,N","020000,1,N,1","+0232,1","+0152,1","10140,1","06,0000,9,1",,,,,"06,1,+06000,1,00,1",,,"06,99,1,00,1,00,1,99999,9,00,1,02,1",,"01,9",,"120,M,+0250,1","240,N,+0152,1","99999,9,10136,1","4,1,000,1,-024,1",,"SYN106AAXX  26181 76458 32970 62705 10232 20152 30136 40140 54002 80002 91740 333 10250 20152 30/// 59024 86070;","Q01  00002PRCP06"
"76458099999","2005-03-26T21:00:00","4","23.2","-106.4166666","4.0","COLONIA JUAN CARRASCO MAZATLAN SIN., MX","FM-12","99999","V020","300,1,N,0040,1","06000,1,9,N","020000,1,N,1","+0243,1","+0154,1","10127,1","06,0000,9,1",,,,,"05,1,+06000,1,00,1",,,"05,99,1,00,1,00,1,99999,9,00,1,01,1",,"01,9",,,,"99999,9,10122,1","7,1,014,1,+000,1",,"SYN100AAXX  26211 76458 32970 53004 10243 20154 30122 40127 57014 80001 92048 333 30/// 56//0 58000 85070;","Q01  00002PRCP06"
"76458099999","2005-03-27T09:00:00","4","23.2","-106.4166666","4.0","COLONIA JUAN CARRASCO MAZATLAN SIN., MX","FM-12","99999","V020","320,1,N,0020,1","22000,1,9,N","012000,1,N,1","+0183,1","+0143,1","10117,1","06,0000,9,1",,,,,"02,1,+08700,1,00,1",,,"02,99,1,00,1,00,1,99999,9,00,1,02,1",,"01,9",,,,"99999,9,10113,1",,,"SYN100AAXX  27091 76458 32962 23202 10183 20143 30113 40117 5//// 80002 90848 333 30/// 56009 58/// 82079;","Q01  00002PRCP06"
"76458099999","2005-03-27T12:00:00","4","23.2","-106.4166666","4.0","COLONIA JUAN CARRASCO MAZATLAN SIN., MX","FM-12","99999","V020","999,9,C,0000,1","08700,1,9,N","012000,1,N,1","+0167,1","+0134,1","10109,1","06,0000,9,1","24,0000,9,1",,,,"07,1,+08700,1,00,1",,,"07,99,1,00,1,00,1,99999,9,00,1,04,1",,"01,9","999,+0117,1","120,N,+0160,1","240,M,+0267,1","99999,9,10104,1","7,1,008,1,+999,9",,"SYN118AAXX  27121 76458 32962 70000 10167 20134 30104 40109 57008 80004 91150 333 10267 20160 30117 56009 58/// 70000 87079;","Q01  00002PRCP06"
"76458099999","2005-03-27T15:00:00","4","23.2","-106.4166666","4.0","COLONIA JUAN CARRASCO MAZATLAN SIN., MX","FM-12","99999","V020","999,9,C,0000,1","22000,1,9,N","020000,1,N,1","+0178,1","+0130,1","10120,1","06,0000,9,1",,,,,"03,1,+06000,1,00,1",,,"03,99,1,00,1,99,9,99999,9,99,9,01,1",,"01,9",,,,"99999,9,10115,1","2,1,011,1,-023,1",,"SYN094AAXX  27151 76458 32970 30000 10178 20130 30115 40120 52011 80//1 91430 333 30/// 59023 83070;","Q01  00002PRCP06"
"76458099999","2005-03-27T18:00:00","4","23.2","-106.4166666","4.0","COLONIA JUAN CARRASCO MAZATLAN SIN., MX","FM-12","99999","V020","260,1,N,0030,1","22000,1,9,N","020000,1,N,1","+0220,1","+0162,1","10119,1","06,0000,9,1",,,,,"01,1,+06000,1,00,1",,,"01,99,1,00,1,99,9,99999,9,99,9,01,1",,"01,9",,"120,M,+0245,1","240,N,+0152,1","99999,9,10144,1","4,1,000,1,-022,1",,"SYN106AAXX  27181 76458 32970 12603 10220 20162 30144 40119 54001 80//1 91730 333 10245 20152 30/// 59022 81070;","Q01  00002PRCP06"
"76458099999","2005-03-28T09:00:00","4","23.2","-106.4166666","4.0","COLONIA JUAN CARRASCO MAZATLAN SIN., MX","FM-12","99999","V020","999,9,C,0000,1","22000,1,9,N","010000,1,N,1","+0170,1","+0154,1","10112,1","06,0000,9,1",,,,,"00,1,+99999,9,99,9",,,"00,99,1,00,1,00,1,99999,9,00,1,00,1",,"01,9",,,,"99999,9,10108,1","4,1,000,1,+999,9",,"SYN082AAXX  28091 76458 32960 00000 10170 20154 30108 40112 54000 90848 333 30/// 59///;","Q01  00002PRCP06"
"76458099999","2005-03-28T12:00:00","4","23.2","-106.4166666","4.0","COLONIA JUAN CARRASCO MAZATLAN SIN., MX","FM-12","99999","V020","120,1,N,0010,1","22000,1,9,N","010000,1,N,1","+0168,1","+0145,1","10106,1","06,0000,9,1","24,0000,9,1",,,,"03,1,+06600,1,00,1",,,"03,99,1,00,1,00,1,99999,9,00,1,06,1",,"01,9","999,+0148,1","120,N,+0160,1","240,M,+0258,1","99999,9,10102,1","7,1,006,1,-002,1",,"SYN118AAXX  28121 76458 32960 31201 10168 20145 30102 40106 57006 80006 91140 333 10258 20160 30148 56009 59002 70000 83072;","Q01  00002PRCP06"
"76458099999","2005-03-28T15:00:00","4","23.2","-106.4166666","4.0","COLONIA JUAN CARRASCO MAZATLAN SIN., MX","FM-12","99999","V020","120,1,N,0010,1","22000,1,9,N","010000,1,N,1","+0198,1","+0165,1","10127,1","06,0000,9,1",,,"4,1,03,1","4,1,03,1","00,1,+99999,9,99,9",,,"00,99,1,00,1,00,1,99999,9,00,1,00,1",,"01,9",,,,"99999,9,10123,1","2,1,021,1,+008,1","05,1","SYN088AAXX  28151 76458 31960 01201 10198 20165 30123 40127 52021 70544 91440 333 30/// 58008;","Q01  00002PRCP06"
"76458099999","2005-03-28T18:00:00","4","23.2","-106.4166666","4.0","COLONIA JUAN CARRASCO MAZATLAN SIN., MX","FM-12","99999","V020","150,1,N,0020,1","22000,1,9,N","014000,1,N,1","+0240,1","+0184,1","10133,1","06,0000,9,1",,,"4,1,06,1","4,1,06,1","00,1,+99999,9,99,9",,,"00,99,1,00,1,00,1,99999,9,00,1,00,1",,"01,9",,"120,M,+0255,1","240,N,+0156,1","99999,9,10129,1","1,1,006,1,+015,1","05,1","SYN100AAXX  28181 76458 31964 01502 10240 20184 30129 40133 51006 70544 91740 333 10255 20156 30/// 58015;","Q01  00002PRCP06"
"76458099999","2005-03-28T21:00:00","4","23.2","-106.4166666","4.0","COLONIA JUAN CARRASCO MAZATLAN SIN., MX","FM-12","99999","V020","240,1,N,0020,1","22000,1,9,N","020000,1,N,1","+0252,1","+0217,1","10117,1","06,0000,9,1",,,,,"00,1,+99999,9,99,9",,,"00,99,1,00,1,00,1,99999,9,00,1,00,1",,"01,9",,,,"99999,9,10112,1","7,1,017,1,+999,9",,"SYN082AAXX  28211 76458 32970 02402 10252 20217 30112 40117 57017 92048 333 30/// 58///;","Q01  00002PRCP06"
"76458099999","2005-03-29T00:00:00","4","23.2","-106.4166666","4.0","COLONIA JUAN CARRASCO MAZATLAN SIN., MX","FM-12","99999","V020","300,1,N,0030,1","22000,1,9,N","020000,1,N,1","+0241,1","+0182,1","10104,1","06,0000,9,1","24,0000,9,1",,,,,,,"01,99,1,00,1,00,1,99999,9,00,1,01,1",,"01,9",,"120,M,+0275,1","180,N,+0156,1","99999,9,10099,1","7,1,013,1,+999,9",,"SYN124AAXX  29001 76458 32970 13003 10241 20182 30099 40104 57013 80001 92348 333 10275 20156 30/// 50301 56//0 70000 58/// 81070;","Q01  00002PRCP06"
"76458099999","2005-03-29T06:00:00","4","23.2","-106.4166666","4.0","COLONIA JUAN CARRASCO MAZATLAN SIN., MX","FM-12","99999","V020","999,9,C,0000,1","22000,1,9,N","012000,1,N,1","+0192,1","+0176,1","10136,1","06,0000,9,1",,,,,"00,1,+99999,9,99,9",,,"00,99,1,00,1,00,1,99999,9,00,1,00,1","0624,9","01,9",,"240,M,+0275,1","240,N,+0156,1","99999,9,10132,1","2,1,016,1,+999,9",,"SYN106AAXX  29061 76458 32962 00000 10192 20176 30132 40136 52016 90540 333 10275 20156 30/// 55104 2//// 58///;","Q01  00002PRCP06"
"76458099999","2005-03-29T09:00:00","4","23.2","-106.4166666","4.0","COLONIA JUAN CARRASCO MAZATLAN SIN., MX","FM-12","99999","V020","999,9,C,0000,1","22000,1,9,N","010000,1,N,1","+0118,1","+9999,9","10136,1","06,0000,9,1",,,,,"00,1,+99999,9,99,9",,,"00,99,1,00,1,00,1,99999,9,00,1,00,1",,"01,9",,,,"99999,9,10132,1","4,1,000,1,+024,1",,"SYN082AAXX  29091 76458 32960 00000 10118 20167 30132 40136 54000 90856 333 30/// 58024;","Q01  00002PRCP06"
"76458099999","2005-03-29T12:00:00","4","23.2","-106.4166666","4.0","COLONIA JUAN CARRASCO MAZATLAN SIN., MX","FM-12","99999","V020","999,9,C,0000,1","22000,1,9,N","010000,1,N,1","+0170,1","+0160,1","10126,1","06,0000,9,1","24,0000,9,1",,,,"02,1,+06600,1,00,1",,,"02,99,1,00,1,00,1,99999,9,00,1,06,1",,"01,9","999,+0150,1","120,N,+0162,1","240,M,+0275,1","99999,9,10122,1","7,1,010,1,+020,1",,"SYN118AAXX  29121 76458 32960 20000 10170 20160 30122 40126 57010 80006 91132 333 10275 20162 30150 56009 58020 70000 82072;","Q01  00002PRCP06"
"76458099999","2005-03-29T15:00:00","4","23.2","-106.4166666","4.0","COLONIA JUAN CARRASCO MAZATLAN SIN., MX","FM-12","99999","V020","250,1,N,0010,1","22000,1,9,N","000800,1,N,1","+0178,1","+0170,1","10145,1","06,0000,9,1",,,"4,1,03,1","4,1,03,1","00,1,+99999,9,99,9",,,"00,99,1,00,1,00,1,99999,9,00,1,00,1",,"01,9",,,,"99999,9,10140,1","2,1,019,1,+018,1","42,1","SYN088AAXX  29151 76458 31908 02501 10178 20170 30140 40145 52019 74244 91447 333 30/// 58018;","Q01  00002PRCP06"
"76458099999","2005-03-29T18:00:00","4","23.2","-106.4166666","4.0","COLONIA JUAN CARRASCO MAZATLAN SIN., MX","FM-12","99999","V020","180,1,N,0010,1","00750,1,9,N","012000,1,N,1","+0238,1","+0178,1","10144,1","06,0000,9,1",,,"4,1,06,1","4,1,06,1","06,1,+00750,1,06,1",,,"06,99,1,06,1,04,1,00800,1,00,1,00,1",,"01,9",,"120,M,+0263,1","240,N,+0163,1","99999,9,10139,1","4,1,000,1,+010,1","05,1","SYN118AAXX  29181 76458 31562 61801 10238 20178 30139 40144 54001 70544 86400 91746 333 10263 20163 30/// 56600 58010 86625;","Q01  00002PRCP06"
"76458099999","2005-03-30T00:00:00","4","23.2","-106.4166666","4.0","COLONIA JUAN CARRASCO MAZATLAN SIN., MX","FM-12","99999","V020","270,1,N,0020,1","22000,1,9,N","026000,1,N,1","+0237,1","+0189,1","10125,1","06,0000,9,1","24,0000,9,1",,,,"01,1,+05700,1,01,1",,,"03,99,1,00,1,00,1,99999,9,00,1,09,1",,"01,9",,"120,M,+0275,1","180,N,+0163,1","99999,9,10121,1","5,1,006,1,+021,1",,"SYN130AAXX  30001 76458 32976 32702 10237 20189 30121 40125 55006 80009 92350 333 10275 20163 30/// 50451 56006 58021 70000 81169 82079;","Q01  00002PRCP06"
"76458099999","2005-03-30T03:00:00","4","23.2","-106.4166666","4.0","COLONIA JUAN CARRASCO MAZATLAN SIN., MX","FM-12","99999","V020","300,1,N,0040,1","22000,1,9,N","010000,1,N,1","+0201,1","+0157,1","10134,1","06,0000,9,1",,,,,"02,1,+06000,1,00,1",,,"02,99,1,00,1,00,1,99999,9,00,1,01,1",,"01,9",,,,"99999,9,10130,1","2,1,009,1,+014,1",,"SYN100AAXX  30031 76458 32960 23004 10201 20157 30130 40134 52009 80001 90248 333 30/// 56//0 58014 82070;","Q01  00002PRCP06"
"76458099999","2005-03-30T06:00:00","4","23.2","-106.4166666","4.0","COLONIA JUAN CARRASCO MAZATLAN SIN., MX","FM-12","99999","V020","340,1,N,0010,1","22000,1,9,N","008000,1,N,1","+0200,1","+0153,1","10137,1","06,0000,9,1",,,,,"00,1,+99999,9,99,9",,,"00,99,1,00,1,00,1,99999,9,00,1,00,1","0570,9","01,9",,"240,M,+0275,1","240,N,+0163,1","99999,9,10133,1","0,1,003,1,+999,9",,"SYN106AAXX  30061 76458 32958 03401 10200 20153 30133 40137 50003 90548 333 10275 20163 30/// 55095 2//// 58001;","Q01  00002PRCP06"
"76458099999","2005-03-30T12:00:00","4","23.2","-106.4166666","4.0","COLONIA JUAN CARRASCO MAZATLAN SIN., MX","FM-12","99999","V020","999,9,C,0000,1","22000,1,9,N","008000,1,N,1","+0151,1","+0130,1","10126,1","06,0000,9,1",,,,,"00,1,+99999,9,99,9",,,"00,99,1,00,1,00,1,99999,9,00,1,00,1",,"01,9","999,+0138,1","120,N,+0145,1","240,M,+0275,1","99999,9,10177,1","7,1,008,1,+001,1",,"SYN094AAXX  30121 76458 32958 00000 10151 20130 30177 40126 57008 91158 333 10275 20145 30138 58001;","Q01  00002PRCP06"
"76458099999","2005-03-30T18:00:00","4","23.2","-106.4166666","4.0","COLONIA JUAN CARRASCO MAZATLAN SIN., MX","FM-12","99999","V020","240,1,N,0020,1","22000,1,9,N","020000,1,N,1","+0222,1","+0158,1","10145,1","06,0000,9,1",,,,,"00,1,+99999,9,99,9",,,"00,99,1,00,1,00,1,99999,9,00,1,00,1",,"01,9",,"120,M,+0238,1","240,N,+0140,1","99999,9,10141,1","4,1,000,1,+002,1",,"SYN094AAXX  30181 76458 32970 02402 10222 20158 30141 40145 54003 91740 333 10238 20140 30/// 58002;","Q01  00002PRCP06"
"76458099999","2005-03-30T21:00:00","4","23.2","-106.4166666","4.0","COLONIA JUAN CARRASCO MAZATLAN SIN., MX","FM-12","99999","V020","300,1,N,0040,1","22000,1,9,N","020000,1,N,1","+0240,1","+0164,1","10121,1","06,0000,9,1",,,,,"00,1,+99999,9,99,9",,,"00,99,1,00,1,00,1,99999,9,00,1,00,1",,"01,9",,,,"99999,9,10117,1","7,1,024,1,-010,1",,"SYN082AAXX  30211 76458 32970 03004 10240 20164 30117 40121 57024 92048 333 30/// 59010;","Q01  00002PRCP06"
"76458099999","2005-03-31T00:00:00","4","23.2","-106.4166666","4.0","COLONIA JUAN CARRASCO MAZATLAN SIN., MX","FM-12","99999","V020","300,1,N,0040,1","22000,1,9,N","020000,1,N,1","+0240,1","+0118,1","10111,1","06,0000,9,1","24,0000,9,1",,,,"00,1,+99999,9,99,9",,,"00,99,1,00,1,00,1,99999,9,00,1,00,1",,"01,9",,"120,M,+0262,1","180,N,+0140,1","99999,9,10106,1","7,1,011,1,-015,1",,"SYN106AAXX  31001 76458 32970 03004 10240 20118 30106 40111 57011 92348 333 10262 20140 30/// 50461 59015 70000;","Q01  00002PRCP06Q02  00002PRCP24"
"76458099999","2005-03-31T03:00:00","4","23.2","-106.4166666","4.0","COLONIA JUAN CARRASCO MAZATLAN SIN., MX","FM-12","99999","V020","310,1,N,0020,1","22000,1,9,N","016000,1,N,1","+0212,1","+0146,1","10123,1","06,0000,9,1",,,,,"00,1,+99999,9,99,9",,,"00,99,1,00,1,00,1,99999,9,00,1,00,1",,"01,9",,,,"99999,9,10118,1","2,1,012,1,-012,1",,"SYN082AAXX  31031 76458 32966 03102 10212 20146 30118 40123 52012 90250 333 30/// 59012;","Q01  00002PRCP06"
"76458099999","2005-03-31T06:00:00","4","23.2","-106.4166666","4.0","COLONIA JUAN CARRASCO MAZATLAN SIN., MX","FM-12","99999","V020","999,9,C,0000,1","22000,1,9,N","016000,1,N,1","+0186,1","+0158,1","10130,1","06,0000,9,1",,,,,"00,1,+99999,9,99,9",,,"00,99,1,00,1,00,1,99999,9,00,1,00,1","0660,9","01,9",,"240,M,+0262,1","240,N,+0140,1","99999,9,10125,1","2,1,007,1,+999,9",,"SYN106AAXX  31061 76458 32966 00000 10186 20158 30125 40130 52007 90550 333 10262 20140 30/// 55110 2//// 59008;","Q01  00002PRCP06"
"76458099999","2005-03-31T12:00:00","4","23.2","-106.4166666","4.0","COLONIA JUAN CARRASCO MAZATLAN SIN., MX","FM-12","99999","V020","999,9,C,0000,1","22000,1,9,N","010000,1,N,1","+0154,1","+0125,1","10117,1","06,0000,9,1","24,0000,9,1",,,,"00,1,+99999,9,99,9",,,"00,99,1,00,1,00,1,99999,9,00,1,00,1",,"01,9","999,+0141,1","120,N,+0150,1","240,M,+0262,1","99999,9,10113,1","7,1,002,1,-009,1",,"SYN100AAXX  31121 76458 32960 00000 10154 20125 30113 40117 57002 91132 333 10262 20150 30141 59009 70000;","Q01  00002PRCP06Q02  00002PRCP24"
"76458099999","2005-03-31T18:00:00","4","23.2","-106.4166666","4.0","COLONIA JUAN CARRASCO MAZATLAN SIN., MX","FM-12","99999","V020","270,1,N,0030,1","22000,1,9,N","020000,1,N,1","+0224,1","+0153,1","10136,1","06,0000,9,1",,,,,"00,1,+99999,9,99,9",,,"00,99,1,00,1,00,1,99999,9,00,1,00,1",,"01,9",,"120,M,+0245,1","240,N,+0130,1","99999,9,10131,1","1,1,004,1,-010,1",,"SYN094AAXX  31181 76458 32970 02703 10224 20153 30131 40136 51004 91740 333 10245 20130 30/// 59010;","Q01  00002PRCP06"
"76458099999","2005-03-31T21:00:00","4","23.2","-106.4166666","4.0","COLONIA JUAN CARRASCO MAZATLAN SIN., MX","FM-12","99999","V020","270,1,N,0030,1","22000,1,9,N","020000,1,N,1","+0242,1","+0180,1","10122,1","06,0000,9,1",,,,,"00,1,+99999,9,99,9",,,"00,99,1,00,1,00,1,99999,9,00,1,00,1",,"01,9",,,,"99999,9,10117,1","7,1,014,1,-001,1",,"SYN082AAXX  31211 76458 32970 02703 10242 20180 30117 40122 57014 92040 333 30/// 59001;","Q01  00002PRCP06"
"76458099999","2005-04-01T03:00:00","4","23.2","-106.4166666","4.0","COLONIA JUAN CARRASCO MAZATLAN SIN., MX","FM-12","99999","V020","300,1,N,0030,1","22000,1,9,N","016000,1,N,1","+0210,1","+0170,1","10117,1","06,0000,9,1",,,,,"00,1,+99999,9,99,9",,,"00,99,1,00,1,00,1,99999,9,00,1,00,1",,"01,9",,,,"99999,9,10113,1","2,1,011,1,-005,1",,"SYN082AAXX  01031 76458 32966 03003 10210 20170 30113 40117 52011 90254 333 30/// 59005;","Q01  00002PRCP06"
"76458099999","2005-04-01T06:00:00","4","23.2","-106.4166666","4.0","COLONIA JUAN CARRASCO MAZATLAN SIN., MX","FM-12","99999","V020","320,1,N,0010,1","22000,1,9,N","012000,1,N,1","+0200,1","+0175,1","10123,1","06,0000,9,1",,,,,"00,1,+99999,9,99,9",,,"00,99,1,00,1,00,1,99999,9,00,1,00,1","0624,9","01,9",,"240,M,+0264,1","240,N,+0130,1","99999,9,10118,1","2,1,005,1,+999,9",,"SYN106AAXX  01061 76458 32962 03201 10200 20175 30118 40123 52005 90546 333 10264 20130 30/// 55104 2//// 59007;","Q01  00002PRCP06"
"76458099999","2005-04-01T18:00:00","4","23.2","-106.4166666","4.0","COLONIA JUAN CARRASCO MAZATLAN SIN., MX","FM-12","99999","V020","250,1,N,0020,1","22000,1,9,N","016000,1,N,1","+0229,1","+0162,1","10128,1","06,0000,9,1",,,,,"00,1,+99999,9,99,9",,,"00,99,1,00,1,00,1,99999,9,00,1,00,1",,"01,9",,"120,M,+0250,1","240,N,+0153,1","99999,9,10124,1","4,1,000,1,-017,1",,"SYN094AAXX  01181 76458 32966 02502 10229 20162 30124 40128 54001 91750 333 10250 20153 30/// 59017;","Q01  00002PRCP06"
"76458099999","2005-04-01T21:00:00","4","23.2","-106.4166666","4.0","COLONIA JUAN CARRASCO MAZATLAN SIN., MX","FM-12","99999","V020","270,1,N,0030,1","22000,1,9,N","020000,1,N,1","+0240,1","+0184,1","10112,1","06,0000,9,1",,,,,"00,1,+99999,9,99,9",,,"00,99,1,00,1,00,1,99999,9,00,1,00,1",,"01,9",,,,"99999,9,10108,1","7,1,016,1,-009,1",,"SYN082AAXX  01211 76458 32970 02703 10240 20184 30108 40112 57016 92040 333 30/// 59009;","Q01  00002PRCP06"
"76458099999","2005-04-02T03:00:00","4","23.2","-106.4166666","4.0","COLONIA JUAN CARRASCO MAZATLAN SIN., MX","FM-12","99999","V020","300,1,N,0040,1","22000,1,9,N","008000,1,N,1","+0213,1","+0167,1","10104,1","06,0000,9,1",,,,,"00,1,+99999,9,99,9",,,"00,99,1,00,1,00,1,99999,9,00,1,00,1",,"01,9",,,,"99999,9,10100,1","2,1,011,1,-018,1",,"SYN082AAXX  02031 76458 32958 03004 10213 20167 30100 40104 52011 90245 333 30/// 59018;","Q01  00002PRCP06"
"76458099999","2005-04-02T18:00:00","4","23.2","-106.4166666","4.0","COLONIA JUAN CARRASCO MAZATLAN SIN., MX","FM-12","99999","V020","999,9,C,0000,1","22000,1,9,N","010000,1,N,1","+0264,1","+0195,1","10132,1","06,0000,9,1",,,"4,1,06,1","4,1,06,1","01,1,+06000,1,00,1",,,"01,99,1,00,1,00,1,99999,9,00,1,01,1",,"01,9",,"120,M,+0285,1","240,N,+0180,1","99999,9,10128,1","0,1,002,1,+004,1","05,1","SYN112AAXX  02181 76458 31960 10000 10264 20195 30128 40132 50002 70544 80001 91745 333 10285 20180 30/// 58004 81070;","Q01  00002PRCP06"
"76458099999","2005-04-03T09:00:00","4","23.2","-106.4166666","4.0","COLONIA JUAN CARRASCO MAZATLAN SIN., MX","FM-12","99999","V020","999,9,C,0000,1","22000,1,9,N","008000,1,N,1","+0195,1","+0182,1","10139,1","06,0000,9,1",,,,,"00,1,+99999,9,99,9",,,"00,99,1,00,1,00,1,99999,9,00,1,00,1",,"01,9",,,,"99999,9,10134,1","7,1,009,1,+999,9",,"SYN082AAXX  03091 76458 32958 00000 10195 20182 30134 40139 57009 90840 333 30/// 58///;","Q01  00002PRCP06"
"76458099999","2005-04-03T12:00:00","4","23.2","-106.4166666","4.0","COLONIA JUAN CARRASCO MAZATLAN SIN., MX","FM-12","99999","V020","999,9,C,0000,1","22000,1,9,N","999999,9,N,1","+0196,1","+0193,1","10141,1","06,0000,9,1","24,0000,9,1",,"4,1,06,1","4,1,06,1","00,1,+99999,9,99,9",,,"00,99,1,00,1,00,1,99999,9,00,1,00,1",,"01,9","999,+0193,1","120,N,+0196,1","240,M,+0287,1","99999,9,10137,1","3,1,003,1,+999,9","05,1","SYN106AAXX  03121 76458 31954 00000 10196 20193 30137 40141 53003 70544 91140 333 10287 20196 30193 58/// 70000;","Q01  00002PRCP06Q02  00002PRCP24"
"76458099999","2005-04-03T15:00:00","4","23.2","-106.4166666","4.0","COLONIA JUAN CARRASCO MAZATLAN SIN., MX","FM-12","99999","V020","999,9,C,0000,1","22000,1,9,N","000500,1,N,1","+0240,1","+0158,1","10151,1","06,0000,9,1",,,"4,1,03,1","4,1,03,1","00,1,+99999,9,99,9",,,"00,99,1,00,1,00,1,99999,9,00,1,00,1",,"01,9",,,,"99999,9,10147,1","2,1,010,1,+021,1","05,1","SYN088AAXX  03151 76458 31905 00000 10240 20158 30147 40151 52010 70544 91445 333 30/// 58021;","Q01  00002PRCP06"
"76458099999","2005-04-03T21:00:00","4","23.2","-106.4166666","4.0","COLONIA JUAN CARRASCO MAZATLAN SIN., MX","FM-12","99999","V020","240,1,N,0030,1","22000,1,9,N","014000,1,N,1","+0243,1","+0189,1","10135,1","06,0000,9,1",,,"4,1,03,1","4,1,03,1","04,1,+08700,1,00,1",,,"04,99,1,00,1,00,1,99999,9,00,1,04,1",,"01,9",,,,"99999,9,10131,1","7,1,015,1,+014,1","05,1","SYN106AAXX  03211 76458 31964 42403 10243 20189 30131 40135 57015 70544 80004 92050 333 30/// 56009 58014 84079;","Q01  00002PRCP06"
"76458099999","2005-04-04T00:00:00","4","23.2","-106.4166666","4.0","COLONIA JUAN CARRASCO MAZATLAN SIN., MX","FM-12","99999","V020","270,1,N,0040,1","99999,9,9,N","020000,1,N,1","+0255,1","+0173,1","10118,1","06,0000,9,1","24,0000,9,1",,,,,,,"06,99,1,00,1,00,1,99999,9,00,1,01,1",,"01,9",,"120,M,+0275,1","180,N,+0189,1","99999,9,10113,1","7,1,017,1,-031,1",,"SYN124AAXX  04001 76458 32970 62704 10255 20173 30113 40118 57017 80001 92345 333 10275 20189 30/// 50721 56//0 59031 70000 86070;","Q01  00002PRCP06"
"76458099999","2005-04-04T03:00:00","4","23.2","-106.4166666","4.0","COLONIA JUAN CARRASCO MAZATLAN SIN., MX","FM-12","99999","V020","310,1,N,0040,1","05400,1,9,N","008000,1,N,1","+0223,1","+0194,1","10133,1","06,0000,9,1",,,,,"05,1,+05400,1,02,1",,,"05,99,1,00,1,00,1,99999,9,00,1,01,1",,"01,9",,,,"99999,9,10129,1","2,1,016,1,-001,1",,"SYN100AAXX  04031 76458 32958 53104 10223 20194 30129 40133 52016 80001 90248 333 30/// 56//0 59001 85268;","Q01  00002PRCP06"
"76458099999","2005-04-04T09:00:00","4","23.2","-106.4166666","4.0","COLONIA JUAN CARRASCO MAZATLAN SIN., MX","FM-12","99999","V020","120,1,N,0020,1","22000,1,9,N","008000,1,N,1","+0198,1","+0180,1","10136,1","06,0000,9,1",,,,,"00,1,+99999,9,99,9",,,"00,99,1,00,1,00,1,99999,9,00,1,00,1",,"01,9",,,,"99999,9,10132,1","7,1,010,1,-002,1",,"SYN082AAXX  04091 76458 32958 01202 10198 20180 30132 40136 57010 90858 333 30/// 59002;","Q01  00002PRCP06"
"76458099999","2005-04-04T12:00:00","4","23.2","-106.4166666","4.0","COLONIA JUAN CARRASCO MAZATLAN SIN., MX","FM-12","99999","V020","090,1,N,0020,1","22000,1,9,N","008000,1,N,1","+0186,1","+0151,1","10138,1","06,0000,9,1","24,0000,9,1",,,,"02,1,+01800,1,03,1",,,"02,99,1,02,1,99,9,99999,9,03,1,99,9",,"01,9","999,+0167,1","120,N,+0180,1","240,M,+0275,1","99999,9,10133,1","5,1,001,1,-004,1",,"SYN112AAXX  04121 76458 32958 20902 10186 20151 30133 40138 55001 82/3/ 91140 333 10275 20180 30167 59004 70000 82356;","Q01  00002PRCP06"
"76458099999","2005-04-04T15:00:00","4","23.2","-106.4166666","4.0","COLONIA JUAN CARRASCO MAZATLAN SIN., MX","FM-12","99999","V020","090,1,N,0020,1","22000,1,9,N","000400,1,N,1","+0192,1","+0177,1","10162,1","06,0000,9,1",,,"4,1,03,1","4,1,03,1","00,1,+99999,9,99,9",,,"00,99,1,00,1,00,1,99999,9,00,1,00,1",,"01,9",,,,"99999,9,10157,1","2,1,032,1,+010,1","05,1","SYN088AAXX  04151 76458 31904 00902 10192 20177 30157 40162 52032 70544 91445 333 30/// 58010;","Q01  00002PRCP06"
"76458099999","2005-04-04T18:00:00","4","23.2","-106.4166666","4.0","COLONIA JUAN CARRASCO MAZATLAN SIN., MX","FM-12","99999","V020","240,1,N,0030,1","22000,1,9,N","018000,1,N,1","+0250,1","+0220,1","10149,1","06,0000,9,1",,,,,"04,1,+08700,1,00,1",,,"04,99,1,00,1,00,1,99999,9,00,1,04,1",,"01,9",,"120,M,+0285,1","240,N,+0168,1","99999,9,10144,1","0,1,013,1,-002,1",,"SYN106AAXX  04181 76458 32968 42403 10250 20220 30144 40149 50013 80004 91800 333 10285 20168 30/// 59002 84079;","Q01  00002PRCP06"
"76458099999","2005-04-05T00:00:00","4","23.2","-106.4166666","4.0","COLONIA JUAN CARRASCO MAZATLAN SIN., MX","FM-12","99999","V020","280,1,N,0040,1","99999,9,9,N","020000,1,N,1","+0253,1","+0176,1","10115,1","06,0000,9,1","24,0000,9,1",,,,,,,"05,99,1,00,1,00,1,99999,9,00,1,01,1",,"01,9",,"120,M,+0287,1","180,N,+0184,1","99999,9,10110,1","7,1,016,1,-003,1",,"SYN124AAXX  05001 76458 32970 52804 10253 20176 30110 40115 57016 80001 92348 333 10287 20184 30/// 50481 56//0 59003 70000 85070;","Q01  00002PRCP06"
"76458099999","2005-04-05T03:00:00","4","23.2","-106.4166666","4.0","COLONIA JUAN CARRASCO MAZATLAN SIN., MX","FM-12","99999","V020","320,1,N,0030,1","05400,1,9,N","010000,1,N,1","+0231,1","+0185,1","10129,1","06,0000,9,1",,,,,"05,1,+05400,1,02,1",,,"05,99,1,00,1,00,1,99999,9,00,1,01,1",,"01,9",,,,"99999,9,10124,1","2,1,014,1,-005,1",,"SYN100AAXX  05031 76458 32960 53203 10231 20185 30124 40129 52014 80001 90245 333 30/// 56//0 59005 85268;","Q01  00002PRCP06"
"76458099999","2005-04-05T06:00:00","4","23.2","-106.4166666","4.0","COLONIA JUAN CARRASCO MAZATLAN SIN., MX","FM-12","99999","V020","310,1,N,0020,1","22000,1,9,N","018000,1,N,1","+0218,1","+0149,1","10136,1","06,0000,9,1",,,,,"00,1,+99999,9,99,9",,,"00,99,1,00,1,00,1,99999,9,00,1,00,1",,"01,9",,"240,M,+0287,1","240,N,+0184,1","99999,9,10131,1","2,1,007,1,-011,1",,"SYN100AAXX  05061 76458 32968 03102 10218 20149 30131 40136 52007 90552 333 10287 20184 30/// 55/// 59011;","Q01  00002PRCP06"
"76458099999","2005-04-05T15:00:00","4","23.2","-106.4166666","4.0","COLONIA JUAN CARRASCO MAZATLAN SIN., MX","FM-12","99999","V020","999,9,C,0000,1","22000,1,9,N","018000,1,N,1","+0216,1","+0127,1","10144,1","06,0000,9,1",,,,,"01,1,+05400,1,00,1",,,"01,99,1,00,1,00,1,99999,9,00,1,01,1",,"01,9",,,,"99999,9,10140,1","2,1,013,1,-017,1",,"SYN100AAXX  05151 76458 32968 10000 10216 20127 30140 40144 52013 80001 91445 333 30/// 56//9 59017 81068;","Q01  00002PRCP06"
"76458099999","2005-04-05T21:00:00","4","23.2","-106.4166666","4.0","COLONIA JUAN CARRASCO MAZATLAN SIN., MX","FM-12","99999","V020","270,1,N,0040,1","22000,1,9,N","020000,1,N,1","+0272,1","+0163,1","10118,1","06,0000,9,1",,,,,"01,1,+06000,1,00,1",,,"01,99,1,00,1,99,9,99999,9,99,9,01,1",,"01,9",,,,"99999,9,10113,1","7,1,022,1,-013,1",,"SYN094AAXX  05211 76458 32970 12704 10272 20163 30113 40118 57022 80//1 92040 333 30/// 59013 81070;","Q01  00002PRCP06"
"76458099999","2005-04-06T00:00:00","4","23.2","-106.4166666","4.0","COLONIA JUAN CARRASCO MAZATLAN SIN., MX","FM-12","99999","V020","270,1,N,0040,1","22000,1,9,N","020000,1,N,1","+0255,1","+0163,1","10106,1","06,0000,9,1","24,0000,9,1",,,,"00,1,+99999,9,99,9",,,"00,99,1,00,1,00,1,99999,9,00,1,00,1",,"01,9",,"120,M,+0290,1","180,N,+0160,1","99999,9,10101,1","7,1,012,1,-012,1",,"SYN106AAXX  06001 76458 32970 02704 10255 20163 30101 40106 57012 92348 333 10290 20160 30/// 50571 59012 70000;","Q01  00002PRCP06Q02  00002PRCP24"
"76458099999","2005-04-06T03:00:00","4","23.2","-106.4166666","4.0","COLONIA JUAN CARRASCO MAZATLAN SIN., MX","FM-12","99999","V020","290,1,N,0020,1","22000,1,9,N","008000,1,N,1","+0229,1","+0167,1","10109,1","06,0000,9,1",,,,,"00,1,+99999,9,99,9",,,"00,99,1,00,1,00,1,99999,9,00,1,00,1",,"01,9",,,,"99999,9,10104,1","0,1,003,1,-020,1",,"SYN082AAXX  06031 76458 32958 02902 10229 20167 30104 40109 50003 90248 333 30/// 59020;","Q01  00002PRCP06"
"76458099999","2005-04-06T06:00:00","4","23.2","-106.4166666","4.0","COLONIA JUAN CARRASCO MAZATLAN SIN., MX","FM-12","99999","V020","300,1,N,0020,1","22000,1,9,N","008000,1,N,1","+0210,1","+0180,1","10116,1","06,0000,9,1",,,,,"00,1,+99999,9,99,9",,,"00,99,1,00,1,00,1,99999,9,00,1,00,1","0630,9","01,9",,"240,M,+0290,1","240,N,+0160,1","99999,9,10111,1","2,1,007,1,-020,1",,"SYN100AAXX  06061 76458 32958 03002 10210 20180 30111 40116 52007 90558 333 10290 20160 30/// 55105 59020;","Q01  00002PRCP06"
"76458099999","2005-04-06T09:00:00","4","23.2","-106.4166666","4.0","COLONIA JUAN CARRASCO MAZATLAN SIN., MX","FM-12","99999","V020","330,1,N,0020,1","22000,1,9,N","008000,1,N,1","+0192,1","+0171,1","10104,1","06,0000,9,1",,,,,"00,1,+99999,9,99,9",,,"00,99,1,00,1,00,1,99999,9,00,1,00,1",,"01,9",,,,"99999,9,10100,1","7,1,012,1,-022,1",,"SYN082AAXX  06091 76458 32958 03302 10192 20171 30100 40104 57012 90858 333 30/// 59022;","Q01  00002PRCP06"
"76458099999","2005-04-06T12:00:00","4","23.2","-106.4166666","4.0","COLONIA JUAN CARRASCO MAZATLAN SIN., MX","FM-12","99999","V020","300,1,N,0010,1","22000,1,9,N","008000,1,N,1","+0184,1","+0152,1","10106,1","06,0000,9,1","24,0000,9,1",,,,"00,1,+99999,9,99,9",,,"00,99,1,00,1,00,1,99999,9,00,1,00,1",,"01,9","999,+0135,1","120,N,+0174,1","240,M,+0290,1","99999,9,10102,1","3,1,004,1,-025,1",,"SYN100AAXX  06121 76458 32958 03001 10184 20152 30102 40106 53004 91148 333 10290 20174 30135 59025 70000;","Q01  00002PRCP06Q02  00002PRCP24"
"76458099999","2005-04-06T15:00:00","4","23.2","-106.4166666","4.0","COLONIA JUAN CARRASCO MAZATLAN SIN., MX","FM-12","99999","V020","240,1,N,0010,1","22000,1,9,N","014000,1,N,1","+0209,1","+0141,1","10117,1","06,0000,9,1",,,,,"00,1,+99999,9,99,9",,,"00,99,1,00,1,00,1,99999,9,00,1,00,1",,"01,9",,,,"99999,9,10113,1","2,1,011,1,-027,1",,"SYN082AAXX  06151 76458 32964 02401 10209 20141 30113 40117 52011 91445 333 30/// 59027;","Q01  00002PRCP06"
"76458099999","2005-04-06T18:00:00","4","23.2","-106.4166666","4.0","COLONIA JUAN CARRASCO MAZATLAN SIN., MX","FM-12","99999","V020","240,1,N,0040,1","22000,1,9,N","016000,1,N,1","+0241,1","+0165,1","10121,1","06,0000,9,1",,,,,"00,1,+99999,9,99,9",,,"00,99,1,00,1,00,1,99999,9,00,1,00,1",,"01,9",,"120,M,+0275,1","240,N,+0170,1","99999,9,10116,1","2,1,004,1,-018,1",,"SYN094AAXX  06181 76458 32966 02404 10241 20165 30116 40121 52004 91750 333 10275 20170 30/// 59018;","Q01  00002PRCP06"
"76458099999","2005-04-06T21:00:00","4","23.2","-106.4166666","4.0","COLONIA JUAN CARRASCO MAZATLAN SIN., MX","FM-12","99999","V020","270,1,N,0030,1","22000,1,9,N","020000,1,N,1","+0236,1","+0176,1","10110,1","06,0000,9,1",,,,,"01,1,+08700,1,00,1",,,"01,99,1,00,1,00,1,99999,9,00,1,01,1",,"01,9",,,,"99999,9,10105,1","7,1,011,1,-008,1",,"SYN100AAXX  06211 76458 32970 12703 10236 20176 30105 40110 57011 80001 92048 333 30/// 56009 59008 81079;","Q01  00002PRCP06"
"76458099999","2005-04-07T03:00:00","4","23.2","-106.4166666","4.0","COLONIA JUAN CARRASCO MAZATLAN SIN., MX","FM-12","99999","V020","300,1,N,0030,1","22000,1,9,N","010000,1,N,1","+0215,1","+0177,1","10105,1","06,0000,9,1",,,,,"03,1,+06000,1,00,1",,,"03,99,1,00,1,00,1,99999,9,00,1,01,1",,"01,9",,,,"99999,9,10101,1","1,1,010,1,-003,1",,"SYN100AAXX  07031 76458 32960 33003 10215 20177 30101 40105 51010 80001 90248 333 30/// 56//0 59003 83070;","Q01  00002PRCP06"
"76458099999","2005-04-07T06:00:00","4","23.2","-106.4166666","4.0","COLONIA JUAN CARRASCO MAZATLAN SIN., MX","FM-12","99999","V020","300,1,N,0010,1","22000,1,9,N","008000,1,N,1","+0202,1","+0186,1","10127,1","06,0000,9,1",,,,,"00,1,+99999,9,99,9",,,"00,99,1,00,1,00,1,99999,9,00,1,00,1","0630,9","01,9",,"240,M,+0277,1","240,N,+0170,1","99999,9,10122,1","2,1,003,1,+011,1",,"SYN100AAXX  07061 76458 32958 03001 10202 20186 30122 40127 52003 90559 333 10277 20170 30/// 55105 58011;","Q01  00002PRCP06"
"76458099999","2005-04-07T12:00:00","4","23.2","-106.4166666","4.0","COLONIA JUAN CARRASCO MAZATLAN SIN., MX","FM-12","99999","V020","120,1,N,0020,1","00180,1,9,N","008000,1,N,1","+0198,1","+0183,1","10119,1","06,0000,9,1","24,0000,9,1",,,,"05,1,+00180,1,07,1",,,"05,99,1,05,1,06,1,00025,1,99,9,99,9",,"01,9","999,+0180,1","120,N,+0188,1","240,M,+0277,1","99999,9,10114,1","5,1,001,1,+012,1",,"SYN112AAXX  07121 76458 32058 51202 10198 20183 30114 40119 55001 856// 91140 333 10277 20188 30180 58012 70000 85706;","Q01  00002PRCP06"
"76458099999","2005-04-07T15:00:00","4","23.2","-106.4166666","4.0","COLONIA JUAN CARRASCO MAZATLAN SIN., MX","FM-12","99999","V020","060,1,N,0040,1","22000,1,9,N","008000,1,N,1","+0216,1","+0186,1","10130,1","06,0000,9,1",,,"4,1,03,1","4,1,03,1","01,1,+00390,1,06,1",,,"01,99,1,01,1,04,1,00250,1,00,1,00,1",,"01,9",,,,"99999,9,10125,1","2,1,011,1,+012,1","05,1","SYN106AAXX  07151 76458 31358 10604 10216 20186 30125 40130 52011 70544 81400 91440 333 30/// 566// 58012 81613;","Q01  00002PRCP06"
"76458099999","2005-04-07T21:00:00","4","23.2","-106.4166666","4.0","COLONIA JUAN CARRASCO MAZATLAN SIN., MX","FM-12","99999","V020","210,1,N,0030,1","22000,1,9,N","018000,1,N,1","+0256,1","+0185,1","10116,1","06,0000,9,1",,,,,"04,1,+08700,1,00,1",,,"04,99,1,00,1,00,1,99999,9,00,1,04,1",,"01,9",,,,"99999,9,10112,1","7,1,013,1,+007,1",,"SYN100AAXX  07211 76458 32968 42103 10256 20185 30112 40116 57013 80004 92050 333 30/// 56009 58007 84079;","Q01  00002PRCP06"
"76458099999","2005-04-08T00:00:00","4","23.2","-106.4166666","4.0","COLONIA JUAN CARRASCO MAZATLAN SIN., MX","FM-12","99999","V020","190,1,N,0030,1","22000,1,9,N","018000,1,N,1","+0245,1","+0193,1","10114,1","06,0000,9,1","24,0000,9,1",,,,,,,"03,99,1,00,1,00,1,99999,9,00,1,06,1",,"01,9",,"120,M,+0280,1","180,N,+0188,1","99999,9,10109,1","7,1,003,1,+018,1",,"SYN124AAXX  08001 76458 32968 31903 10245 20193 30109 40114 57003 80006 92345 333 10280 20188 30/// 50441 56//9 58018 70000 83068;","Q01  00002PRCP06"
"76458099999","2005-04-08T09:00:00","4","23.2","-106.4166666","4.0","COLONIA JUAN CARRASCO MAZATLAN SIN., MX","FM-12","99999","V020","120,1,N,0020,1","22000,1,9,N","010000,1,N,1","+0204,1","+0193,1","10121,1","06,0000,9,1",,,,,"00,1,+99999,9,99,9",,,"00,99,1,00,1,00,1,99999,9,00,1,00,1",,"01,9",,,,"99999,9,10117,1","7,1,017,1,+002,1",,"SYN082AAXX  08091 76458 32960 01202 10204 20193 30117 40121 57017 90859 333 30/// 58002;","Q01  00002PRCP06"
"76458099999","2005-04-08T12:00:00","4","23.2","-106.4166666","4.0","COLONIA JUAN CARRASCO MAZATLAN SIN., MX","FM-12","99999","V020","330,1,N,0020,1","22000,1,9,N","008000,1,N,1","+0190,1","+0181,1","10123,1","06,0000,9,1","24,0000,9,1",,,,"00,1,+99999,9,99,9",,,"00,99,1,00,1,00,1,99999,9,00,1,00,1",,"01,9","999,+0158,1","120,N,+0188,1","240,M,+0280,1","99999,9,10119,1","3,1,002,1,+005,1",,"SYN100AAXX  08121 76458 32958 03302 10190 20181 30119 40123 53002 91150 333 10280 20188 30158 58005 70000;","Q01  00002PRCP06Q02  00002PRCP24"
"76458099999","2005-04-08T18:00:00","4","23.2","-106.4166666","4.0","COLONIA JUAN CARRASCO MAZATLAN SIN., MX","FM-12","99999","V020","180,1,N,0030,1","22000,1,9,N","010000,1,N,1","+0274,1","+0169,1","10129,1","06,0000,9,1",,,,,"04,1,+06600,1,00,1",,,"04,99,1,00,1,00,1,99999,9,00,1,06,1",,"01,9",,"120,M,+0294,1","240,N,+0186,1","99999,9,10124,1","7,1,008,1,-001,1",,"SYN112AAXX  08181 76458 32960 41803 10274 20169 30124 40129 57008 80006 91746 333 10294 20186 30/// 56009 59001 84072;","Q01  00002PRCP06"
"76458099999","2005-04-09T03:00:00","4","23.2","-106.4166666","4.0","COLONIA JUAN CARRASCO MAZATLAN SIN., MX","FM-12","99999","V020","300,1,N,0030,1","05400,1,9,N","010000,1,N,1","+0225,1","+0183,1","10107,1","06,0000,9,1",,,,,"05,1,+05400,1,02,1",,,"05,99,1,00,1,00,1,99999,9,00,1,01,1",,"01,9",,,,"99999,9,10102,1","2,1,016,1,-021,1",,"SYN100AAXX  09031 76458 32960 53003 10225 20183 30102 40107 52016 80001 90245 333 30/// 56//0 59021 85268;","Q01  00002PRCP06"
"76458099999","2005-04-09T09:00:00","4","23.2","-106.4166666","4.0","COLONIA JUAN CARRASCO MAZATLAN SIN., MX","FM-12","99999","V020","999,9,C,0000,1","22000,1,9,N","008000,1,N,1","+0196,1","+0175,1","10115,1","06,0000,9,1",,,,,"00,1,+99999,9,99,9",,,"00,99,1,00,1,00,1,99999,9,00,1,00,1",,"01,9",,,,"99999,9,10111,1","7,1,002,1,-006,1",,"SYN082AAXX  09091 76458 32958 00000 10196 20175 30111 40115 57002 90845 333 30/// 59006;","Q01  00002PRCP06"
"76458099999","2005-04-09T12:00:00","4","23.2","-106.4166666","4.0","COLONIA JUAN CARRASCO MAZATLAN SIN., MX","FM-12","99999","V020","060,1,N,0020,1","22000,1,9,N","008000,1,N,1","+0190,1","+0175,1","10112,1","06,0000,9,1","24,0000,9,1",,,,"00,1,+99999,9,99,9",,,"00,99,1,00,1,00,1,99999,9,00,1,00,1",,"01,9","999,+0150,1","120,N,+0184,1","240,M,+0295,1","99999,9,10108,1","8,1,003,1,-011,1",,"SYN100AAXX  09121 76458 32958 00602 10190 20175 30108 40112 58003 91140 333 10295 20184 30150 59011 70000;","Q01  00002PRCP06Q02  00002PRCP24"
"76458099999","2005-04-09T18:00:00","4","23.2","-106.4166666","4.0","COLONIA JUAN CARRASCO MAZATLAN SIN., MX","FM-12","99999","V020","180,1,N,0030,1","09000,1,C,N","014000,1,N,1","+0266,1","+0149,1","10123,1","06,0000,9,1",,,,,"04,1,+03600,1,03,1",,,"07,99,1,04,1,00,1,02250,1,03,1,07,1",,"01,9",,"120,M,+0285,1","240,N,+0180,1","99999,9,10118,1","0,1,000,1,-006,1",,"SYN118AAXX  09181 76458 32864 71803 10266 20149 30118 40123 50000 84037 91745 333 10285 20180 30/// 56/99 59006 84362 83268;","Q01  00002PRCP06"
"76458099999","2005-04-10T03:00:00","4","23.2","-106.4166666","4.0","COLONIA JUAN CARRASCO MAZATLAN SIN., MX","FM-12","99999","V020","270,1,N,0030,1","02400,1,9,N","010000,1,N,1","+0225,1","+0183,1","10101,1","06,0000,9,1",,,,,"06,1,+02400,1,03,1",,,"06,99,1,06,1,00,1,99999,9,06,1,00,1",,"01,9",,,,"99999,9,10097,1","1,1,012,1,-005,1",,"SYN100AAXX  10031 76458 32960 62703 10225 20183 30097 40101 51012 86060 90248 333 30/// 56//0 59005 86358;","Q01  00002PRCP06"
"76458099999","2005-04-10T06:00:00","4","23.2","-106.4166666","4.0","COLONIA JUAN CARRASCO MAZATLAN SIN., MX","FM-12","99999","V020","120,1,N,0030,1","22000,1,9,N","008000,1,N,1","+0200,1","+0185,1","10102,1","06,0000,9,1",,,,,"00,1,+99999,9,99,9",,,"00,99,1,00,1,00,1,99999,9,00,1,00,1","0516,9","01,9",,"240,M,+0290,1","240,N,+0180,1","99999,9,10097,1","0,1,000,1,+999,9",,"SYN106AAXX  10061 76458 32958 01203 10200 20185 30097 40102 50000 90553 333 10290 20180 30/// 55086 2//// 59016;","Q01  00002PRCP06"
"76458099999","2005-04-10T12:00:00","4","23.2","-106.4166666","4.0","COLONIA JUAN CARRASCO MAZATLAN SIN., MX","FM-12","99999","V020","030,1,N,0010,1","22000,1,9,N","008000,1,N,1","+0192,1","+0180,1","10099,1","06,0000,9,1","24,0000,9,1",,,,"00,1,+99999,9,99,9",,,"00,99,1,00,1,00,1,99999,9,00,1,00,1",,"01,9","999,+0150,1","120,N,+0184,1","240,M,+0290,1","99999,9,10095,1","5,1,002,1,-013,1",,"SYN100AAXX  10121 76458 32958 00301 10192 20180 30095 40099 55002 91140 333 10290 20184 30150 59013 70000;","Q01  00002PRCP06Q02  00002PRCP24"
"76458099999","2005-04-10T15:00:00","4","23.2","-106.4166666","4.0","COLONIA JUAN CARRASCO MAZATLAN SIN., MX","FM-12","99999","V020","120,1,N,0020,1","22000,1,9,N","014000,1,N,1","+0207,1","+0187,1","10115,1","06,0000,9,1",,,,,"02,1,+00240,1,06,1",,,"03,99,1,03,1,04,1,00250,1,00,1,00,1",,"01,9",,,,"99999,9,10110,1","2,1,015,1,-008,1",,"SYN100AAXX  10151 76458 32364 31202 10207 20187 30110 40115 52015 83400 91445 333 30/// 563// 59008 82608;","Q01  00002PRCP06"
"76458099999","2005-04-10T18:00:00","4","23.2","-106.4166666","4.0","COLONIA JUAN CARRASCO MAZATLAN SIN., MX","FM-12","99999","V020","200,1,N,0040,1","22000,1,9,N","018000,1,N,1","+0246,1","+0187,1","10117,1","06,0000,9,1",,,,,"01,1,+02400,1,03,1",,,"01,99,1,01,1,00,1,99999,9,03,1,00,1",,"01,9",,"120,M,+0289,1","240,N,+0182,1","99999,9,10112,1","0,1,002,1,-006,1",,"SYN112AAXX  10181 76458 32968 12004 10246 20187 30112 40117 50002 81030 91755 333 10289 20182 30/// 56030 59006 81358;","Q01  00002PRCP06"
"76458099999","2005-04-10T21:00:00","4","23.2","-106.4166666","4.0","COLONIA JUAN CARRASCO MAZATLAN SIN., MX","FM-12","99999","V020","240,1,N,0040,1","22000,1,9,N","020000,1,N,1","+0252,1","+0199,1","10108,1","06,0000,9,1",,,,,"01,1,+00660,1,08,1",,,"02,99,1,01,1,01,1,00800,1,03,1,00,1",,"01,9",,,,"99999,9,10104,1","7,1,009,1,+005,1",,"SYN106AAXX  10211 76458 32570 22404 10252 20199 30104 40108 57009 81130 92050 333 30/// 56630 58005 81822 81358;","Q01  00002PRCP06"
"76458099999","2005-04-11T00:00:00","4","23.2","-106.4166666","4.0","COLONIA JUAN CARRASCO MAZATLAN SIN., MX","FM-12","99999","V020","300,1,N,0040,1","22000,1,9,N","020000,1,N,1","+0245,1","+0202,1","10092,1","06,0000,9,1","24,0000,9,1",,,,"01,1,+00660,1,08,1",,,"02,99,1,01,1,02,1,00450,1,05,1,00,1",,"01,9",,"120,M,+0290,1","180,N,+0182,1","99999,9,10087,1","7,1,021,1,+002,1",,"SYN136AAXX  11001 76458 32470 23004 10245 20202 30087 40092 57021 81250 92348 333 10290 20182 30/// 50451 5663/ 57867 58002 70000 81822 81356;","Q01  00002PRCP06"
"76458099999","2005-04-11T09:00:00","4","23.2","-106.4166666","4.0","COLONIA JUAN CARRASCO MAZATLAN SIN., MX","FM-12","99999","V020","320,1,N,0030,1","22000,1,9,N","008000,1,N,1","+0182,1","+0135,1","10105,1","06,0000,9,1",,,,,"00,1,+99999,9,99,9",,,"00,99,1,00,1,00,1,99999,9,00,1,00,1",,"01,9",,,,"99999,9,10101,1","7,1,006,1,+004,1",,"SYN082AAXX  11091 76458 32958 03203 10182 20135 30101 40105 57006 90857 333 30/// 58004;","Q01  00002PRCP06"
"76458099999","2005-04-11T12:00:00","4","23.2","-106.4166666","4.0","COLONIA JUAN CARRASCO MAZATLAN SIN., MX","FM-12","99999","V020","310,1,N,0020,1","22000,1,9,N","008000,1,N,1","+0170,1","+0131,1","10104,1","06,0000,9,1","24,0000,9,1",,,,"00,1,+99999,9,99,9",,,"00,99,1,00,1,00,1,99999,9,00,1,00,1",,"01,9","999,+0120,1","120,N,+0160,1","240,M,+0290,1","99999,9,10099,1","5,1,002,1,+004,1",,"SYN100AAXX  11121 76458 32958 03102 10170 20131 30099 40104 55002 91140 333 10290 20160 30120 58004 70000;","Q01  00002PRCP06Q02  00002PRCP24"
"76458099999","2005-04-11T15:00:00","4","23.2","-106.4166666","4.0","COLONIA JUAN CARRASCO MAZATLAN SIN., MX","FM-12","99999","V020","360,1,N,0010,1","22000,1,9,N","010000,1,N,1","+0200,1","+0150,1","10102,1","06,0000,9,1",,,"0,1,03,1","0,1,03,1","00,1,+99999,9,99,9",,,"00,99,1,00,1,00,1,99999,9,00,1,00,1",,"01,9",,,,"99999,9,10097,1","8,1,002,1,-012,1","05,1","SYN088AAXX  11151 76458 31960 03601 10200 20150 30097 40102 58002 70500 91490 333 30/// 59012;","Q01  00002PRCP06"
"76458099999","2005-04-11T18:00:00","4","23.2","-106.4166666","4.0","COLONIA JUAN CARRASCO MAZATLAN SIN., MX","FM-12","99999","V020","270,1,N,0070,1","22000,1,9,N","020000,1,N,1","+0236,1","+0163,1","10110,1","06,0000,9,1",,,,,"00,1,+99999,9,99,9",,,"00,99,1,00,1,00,1,99999,9,00,1,00,1",,"01,9",,"120,M,+0253,1",,"99999,9,10105,1","7,1,008,1,-007,1",,"SYN094AAXX  11181 76458 32970 02707 10236 20163 30105 40110 57008 91750 333 10253 20/// 30/// 59007;","Q01  00002PRCP06"
"76458099999","2005-04-11T21:00:00","4","23.2","-106.4166666","4.0","COLONIA JUAN CARRASCO MAZATLAN SIN., MX","FM-12","99999","V020","270,1,N,0040,1","22000,1,9,N","020000,1,N,1","+0246,1","+0178,1","10100,1","06,0000,9,1",,,,,"00,1,+99999,9,99,9",,,"00,99,1,00,1,00,1,99999,9,00,1,00,1",,"01,9",,,,"99999,9,10095,1","7,1,010,1,-009,1",,"SYN082AAXX  11211 76458 32970 02704 10246 20178 30095 40100 57010 92050 333 30/// 59009;","Q01  00002PRCP06"
"76458099999","2005-04-12T00:00:00","4","23.2","-106.4166666","4.0","COLONIA JUAN CARRASCO MAZATLAN SIN., MX","FM-12","99999","V020","320,1,N,0050,1","22000,1,9,N","010000,1,N,1","+0240,1","+0140,1","10086,1","06,0000,9,1","24,0000,9,1",,,,"00,1,+99999,9,99,9",,,"00,99,1,00,1,00,1,99999,9,00,1,00,1",,"01,9",,"120,M,+0265,1","180,N,+0193,1","99999,9,10082,1","7,1,013,1,-005,1",,"SYN106AAXX  12001 76458 32960 03205 10240 20140 30082 40086 57013 92348 333 10265 20193 30/// 50451 59005 70000;","Q01  00002PRCP06Q02  00002PRCP24"
"76458099999","2005-04-12T12:00:00","4","23.2","-106.4166666","4.0","COLONIA JUAN CARRASCO MAZATLAN SIN., MX","FM-12","99999","V020","360,1,N,0010,1","22000,1,9,N","008000,1,N,1","+0165,1","+0146,1","10098,1","06,0000,9,1","24,0000,9,1",,,,"00,1,+99999,9,99,9",,,"00,99,1,00,1,00,1,99999,9,00,1,00,1",,"01,9","999,+0115,1","120,N,+0158,1","240,M,+0265,1","99999,9,10094,1","3,1,005,1,-005,1",,"SYN100AAXX  12121 76458 32958 03601 10165 20146 30094 40098 53005 91148 333 10265 20158 30115 59005 70000;","Q01  00002PRCP06Q02  00002PRCP24"
"76458099999","2005-04-12T15:00:00","4","23.2","-106.4166666","4.0","COLONIA JUAN CARRASCO MAZATLAN SIN., MX","FM-12","99999","V020","360,1,N,0020,1","22000,1,9,N","016000,1,N,1","+0198,1","+0151,1","10104,1","06,0000,9,1",,,,,"00,1,+99999,9,99,9",,,"00,99,1,00,1,00,1,99999,9,00,1,00,1",,"01,9",,,,"99999,9,10099,1","2,1,005,1,+002,1",,"SYN082AAXX  12151 76458 32966 03602 10198 20151 30099 40104 52005 91445 333 30/// 58002;","Q01  00002PRCP06"
"76458099999","2005-04-12T18:00:00","4","23.2","-106.4166666","4.0","COLONIA JUAN CARRASCO MAZATLAN SIN., MX","FM-12","99999","V020","260,1,N,0040,1","22000,1,9,N","020000,1,N,1","+0234,1","+0174,1","10109,1","06,0000,9,1",,,,,"00,1,+99999,9,99,9",,,"00,99,1,00,1,00,1,99999,9,00,1,00,1",,"01,9",,"120,M,+0250,1","240,N,+0150,1","99999,9,10105,1","1,1,006,1,-001,1",,"SYN094AAXX  12181 76458 32970 02604 10234 20174 30105 40109 51006 91750 333 10250 20150 30/// 59001;","Q01  00002PRCP06"
"76458099999","2005-04-12T21:00:00","4","23.2","-106.4166666","4.0","COLONIA JUAN CARRASCO MAZATLAN SIN., MX","FM-12","99999","V020","270,1,N,0040,1","22000,1,9,N","020000,1,N,1","+0244,1","+0176,1","10089,1","06,0000,9,1",,,,,"01,1,+08700,1,00,1",,,"01,99,1,00,1,00,1,99999,9,00,1,01,1",,"01,9",,,,"99999,9,10084,1","7,1,020,1,-011,1",,"SYN100AAXX  12211 76458 32970 12704 10244 20176 30084 40089 57020 80001 92046 333 30/// 56009 59011 81079;","Q01  00002PRCP06"
"76458099999","2005-04-13T00:00:00","4","23.2","-106.4166666","4.0","COLONIA JUAN CARRASCO MAZATLAN SIN., MX","FM-12","99999","V020","020,1,N,9999,9","22000,1,9,N","020000,1,N,1","+9999,9","+9999,9","10074,1","06,0000,9,1","24,0000,9,1",,,,,,,"01,99,1,00,1,00,1,99999,9,00,1,01,1",,"01,9",,"120,M,+0270,1","180,N,+0150,1","99999,9,10070,1","7,1,014,1,-012,1",,"SYN118AAXX  13001 76458 32970 10247 20172 30070 40074 57014 80001 92348 333 10270 20150 30/// 50481 56//0 59012 70000 81070;","Q01  00002PRCP06Q020004703WOSPD "
"76458099999","2005-04-13T06:00:00","4","23.2","-106.4166666","4.0","COLONIA JUAN CARRASCO MAZATLAN SIN., MX","FM-12","99999","V020","999,9,C,0000,1","22000,1,9,N","008000,1,N,1","+0188,1","+0171,1","10106,1","06,0000,9,1",,,,,"00,1,+99999,9,99,9",,,"00,99,1,00,1,00,1,99999,9,00,1,00,1","0660,9","01,9",,"240,M,+0270,1","240,N,+0150,1","99999,9,10101,1","2,1,012,1,+008,1",,"SYN100AAXX  13061 76458 32958 00000 10188 20171 30101 40106 52012 90558 333 10270 20150 30/// 55110 58008;","Q01  00002PRCP06"
"76458099999","2005-04-13T09:00:00","4","23.2","-106.4166666","4.0","COLONIA JUAN CARRASCO MAZATLAN SIN., MX","FM-12","99999","V020","060,1,N,0010,1","22000,1,9,N","008000,1,N,1","+0180,1","+0162,1","10097,1","06,0000,9,1",,,,,"00,1,+99999,9,99,9",,,"00,99,1,00,1,00,1,99999,9,00,1,00,1",,"01,9",,,,"99999,9,10093,1","7,1,008,1,+004,1",,"SYN082AAXX  13091 76458 32958 00601 10180 20162 30093 40097 57008 90858 333 30/// 58004;","Q01  00002PRCP06"
"76458099999","2005-04-13T12:00:00","4","23.2","-106.4166666","4.0","COLONIA JUAN CARRASCO MAZATLAN SIN., MX","FM-12","99999","V020","330,1,N,0020,1","22000,1,9,N","008000,1,N,1","+0159,1","+0138,1","10104,1","06,0000,9,1","24,0000,9,1",,,,"00,1,+99999,9,99,9",,,"00,99,1,00,1,00,1,99999,9,00,1,00,1",,"01,9","999,+0113,1","120,N,+0150,1","240,M,+0270,1","99999,9,10099,1","3,1,006,1,+005,1",,"SYN100AAXX  13121 76458 32958 03302 10159 20138 30099 40104 53006 91145 333 10270 20150 30113 58005 70000;","Q01  00002PRCP06Q02  00002PRCP24"
"76458099999","2005-04-13T15:00:00","4","23.2","-106.4166666","4.0","COLONIA JUAN CARRASCO MAZATLAN SIN., MX","FM-12","99999","V020","270,1,N,0020,1","22000,1,9,N","016000,1,N,1","+0198,1","+0167,1","10112,1","06,0000,9,1",,,,,"04,1,+05400,1,00,1",,,"04,99,1,00,1,00,1,99999,9,00,1,06,1",,"01,9",,,,"99999,9,10106,1","2,1,007,1,+007,1",,"SYN100AAXX  13151 76458 32966 42702 10198 20167 30106 40112 52007 80006 91445 333 30/// 56//9 58007 84068;","Q01  00002PRCP06"
"76458099999","2005-04-13T21:00:00","4","23.2","-106.4166666","4.0","COLONIA JUAN CARRASCO MAZATLAN SIN., MX","FM-12","99999","V020","250,1,N,0040,1","22000,1,9,N","020000,1,N,1","+0251,1","+0190,1","10101,1","06,0000,9,1",,,,,"03,1,+08700,1,00,1",,,"03,99,1,00,1,00,1,99999,9,00,1,04,1",,"01,9",,,,"99999,9,10096,1","7,1,009,1,+012,1",,"SYN100AAXX  13211 76458 32970 32504 10251 20190 30096 40101 57009 80004 92050 333 30/// 56009 58012 83079;","Q01  00002PRCP06"
"76458099999","2005-04-14T00:00:00","4","23.2","-106.4166666","4.0","COLONIA JUAN CARRASCO MAZATLAN SIN., MX","FM-12","99999","V020","290,1,N,0020,1","99999,9,9,N","020000,1,N,1","+0252,1","+0139,1","10094,1","06,0000,9,1","24,0000,9,1",,,,,,,"06,99,1,00,1,00,1,99999,9,00,1,01,1",,"01,9",,"120,M,+0272,1","180,N,+0149,1","99999,9,10089,1","6,1,007,1,+019,1",,"SYN124AAXX  14001 76458 32970 62902 10252 20139 30089 40094 56007 80001 92348 333 10272 20149 30/// 50591 56//0 58019 70000 86070;","Q01  00002PRCP06"
"76458099999","2005-04-14T03:00:00","4","23.2","-106.4166666","4.0","COLONIA JUAN CARRASCO MAZATLAN SIN., MX","FM-12","99999","V020","340,1,N,0020,1","99999,9,9,N","010000,1,N,1","+0225,1","+0158,1","10106,1","06,0000,9,1",,,,,,,,"05,99,1,00,1,00,1,99999,9,00,1,01,1",,"01,9",,,,"99999,9,10102,1","2,1,013,1,+013,1",,"SYN100AAXX  14031 76458 32960 53402 10225 20158 30102 40106 52013 80001 90245 333 30/// 56//0 58013 55070;","Q01  00002PRCP06"
"76458099999","2005-04-14T12:00:00","4","23.2","-106.4166666","4.0","COLONIA JUAN CARRASCO MAZATLAN SIN., MX","FM-12","99999","V020","030,1,N,0010,1","22000,1,9,N","008000,1,N,1","+0178,1","+0160,1","10114,1","06,0000,9,1","24,0000,9,1",,,,"00,1,+99999,9,99,9",,,"00,99,1,00,1,00,1,99999,9,00,1,00,1",,"01,9","999,+0130,1","120,N,+0170,1","240,M,+0272,1","99999,9,10109,1","3,1,002,1,+010,1",,"SYN100AAXX  14121 76458 32958 00301 10178 20160 30109 40114 53002 91140 333 10272 20170 30130 58010 70000;","Q01  00002PRCP06Q02  00002PRCP24"
"76458099999","2005-04-14T15:00:00","4","23.2","-106.4166666","4.0","COLONIA JUAN CARRASCO MAZATLAN SIN., MX","FM-12","99999","V020","320,1,N,0020,1","22000,1,9,N","010000,1,N,1","+0208,1","+0159,1","10137,1","06,0000,9,1",,,,,"03,1,+06000,1,00,1",,,"03,99,1,00,1,99,9,99999,9,99,9,02,1",,"01,9",,,,"99999,9,10109,1","4,1,000,1,+003,1",,"SYN094AAXX  14151 76458 31960 33202 10208 20159 30109 40137 54000 80//2 91440 333 30/// 58003 83070;","Q01  00002PRCP06"
"76458099999","2005-04-14T18:00:00","4","23.2","-106.4166666","4.0","COLONIA JUAN CARRASCO MAZATLAN SIN., MX","FM-12","99999","V020","240,1,N,0040,1","08700,1,9,N","020000,1,N,1","+0231,1","+0185,1","10113,1","06,0000,9,1",,,"4,1,06,1","4,1,06,1","07,1,+08700,1,00,1",,,"07,99,1,00,1,00,1,99999,9,00,1,04,1",,"01,9",,"120,M,+0262,1","240,N,+0168,1","99999,9,10109,1","0,1,000,1,+004,1","03,1","SYN118AAXX  14181 76458 31970 72404 10231 20185 30109 40113 50000 70344 80004 91748 333 10262 20168 30/// 56009 58004 87079;","Q01  00002PRCP06"
"76458099999","2005-04-14T21:00:00","4","23.2","-106.4166666","4.0","COLONIA JUAN CARRASCO MAZATLAN SIN., MX","FM-12","99999","V020","240,1,N,0030,1","08700,1,9,N","020000,1,N,1","+0244,1","+0155,1","10101,1","06,0000,9,1",,,,,"07,1,+08700,1,00,1",,,"07,99,1,00,1,00,1,99999,9,00,1,04,1",,"01,9",,,,"99999,9,10096,1","7,1,012,1,+000,1",,"SYN100AAXX  14211 76458 32970 72403 10244 20155 30096 40101 57012 80004 92040 333 30/// 56009 58000 87079;","Q01  00002PRCP06"
"76458099999","2005-04-15T03:00:00","4","23.2","-106.4166666","4.0","COLONIA JUAN CARRASCO MAZATLAN SIN., MX","FM-12","99999","V020","270,1,N,0030,1","22000,1,9,N","010000,1,N,1","+0228,1","+0193,1","10103,1","06,0000,9,1",,,,,"00,1,+99999,9,99,9",,,"00,99,1,00,1,00,1,99999,9,00,1,00,1",,"01,9",,,,"99999,9,10098,1","2,1,013,1,-003,1",,"SYN082AAXX  15031 76458 32960 02703 10228 20193 30098 40103 52013 90245 333 30/// 59003;","Q01  00002PRCP06"
"76458099999","2005-04-15T06:00:00","4","23.2","-106.4166666","4.0","COLONIA JUAN CARRASCO MAZATLAN SIN., MX","FM-12","99999","V020","340,1,N,0010,1","22000,1,9,N","010000,1,N,1","+0216,1","+0188,1","10111,1","06,0000,9,1",,,,,"02,1,+06600,1,00,1",,,"02,99,1,00,1,00,1,99999,9,00,1,06,1","0552,9","01,9",,"240,M,+0278,1","240,N,+0168,1","99999,9,10106,1","2,1,007,1,+009,1",,"SYN112AAXX  15061 76458 32960 23401 10216 20188 30106 40111 52007 82006 90558 333 10278 20168 30/// 55092 58009 82072;","Q01  00002PRCP06"
"76458099999","2005-04-15T12:00:00","4","23.2","-106.4166666","4.0","COLONIA JUAN CARRASCO MAZATLAN SIN., MX","FM-12","99999","V020","320,1,N,0020,1","22000,1,9,N","010000,1,N,1","+0194,1","+0163,1","10102,1","06,0000,9,1","24,0000,9,1",,,,"01,1,+01800,1,03,1",,,"01,99,1,01,1,99,9,02250,1,03,1,99,9",,"01,9","999,+0152,1","120,N,+0190,1","240,M,+0278,1","99999,9,10098,1","5,1,000,1,-011,1",,"SYN118AAXX  15121 76458 32860 13202 10194 20163 30098 40102 55000 81/3/ 91440 333 10278 20190 30152 56/9/ 59011 70000 81356;","Q01  00002PRCP06"
"76458099999","2005-04-15T15:00:00","4","23.2","-106.4166666","4.0","COLONIA JUAN CARRASCO MAZATLAN SIN., MX","FM-12","99999","V020","360,1,N,0020,1","22000,1,9,N","016000,1,N,1","+0230,1","+0182,1","10117,1","06,0000,9,1",,,,,"01,1,+02400,1,03,1",,,"02,99,1,01,1,00,1,02250,1,03,1,03,1",,"01,9",,,,"99999,9,10112,1","2,1,014,1,+013,1",,"SYN106AAXX  15151 76458 32866 23602 10230 20182 30112 40117 52014 81033 91440 333 30/// 56/99 58013 81358 81070;","Q01  00002PRCP06"
"76458099999","2005-04-15T21:00:00","4","23.2","-106.4166666","4.0","COLONIA JUAN CARRASCO MAZATLAN SIN., MX","FM-12","99999","V020","240,1,N,0030,1","22000,1,9,N","020000,1,N,1","+0260,1","+0209,1","10107,1","06,0000,9,1",,,,,"02,1,+02400,1,03,1",,,"02,99,1,02,1,00,1,99999,9,03,1,00,1",,"01,9",,,,"99999,9,10103,1","7,1,010,1,+007,1",,"SYN100AAXX  15211 76458 32970 22403 10260 20209 30103 40107 57010 82030 92050 333 30/// 56090 58007 82358;","Q01  00002PRCP06"
"76458099999","2005-04-16T06:00:00","4","23.2","-106.4166666","4.0","COLONIA JUAN CARRASCO MAZATLAN SIN., MX","FM-12","99999","V020","999,9,C,0000,1","22000,1,9,N","008000,1,N,1","+0220,1","+0207,1","10113,1","06,0000,9,1",,,,,"01,1,+03600,1,03,1",,,"01,99,1,01,1,00,1,02250,1,03,1,00,1",,"01,9",,"240,M,+0301,1","240,N,+0188,1","99999,9,10109,1","0,1,009,1,+004,1",,"SYN112AAXX  16061 76458 32858 10000 10220 20207 30109 40113 50009 81030 90545 333 10301 20188 30/// 56/9/ 58004 81362;","Q01  00002PRCP06"
"76458099999","2005-04-16T09:00:00","4","23.2","-106.4166666","4.0","COLONIA JUAN CARRASCO MAZATLAN SIN., MX","FM-12","99999","V020","999,9,C,0000,1","22000,1,9,N","008000,1,N,1","+0209,1","+0196,1","10112,1","06,0000,9,1",,,,,"02,1,+00150,1,06,1",,,"02,99,1,02,1,04,1,00150,1,00,1,00,1",,"01,9",,,,"99999,9,10107,1","8,1,002,1,+009,1",,"SYN100AAXX  16091 76458 32258 20000 10209 20196 30107 40112 58002 82400 90845 333 30/// 566// 58009 82605;","Q01  00002PRCP06"
"76458099999","2005-04-16T12:00:00","4","23.2","-106.4166666","4.0","COLONIA JUAN CARRASCO MAZATLAN SIN., MX","FM-12","99999","V020","350,1,N,0010,1","22000,1,9,N","008000,1,N,1","+0216,1","+0177,1","10115,1","06,0000,9,1","24,0000,9,1",,,,"04,1,+01800,1,03,1",,,"04,99,1,04,1,99,9,02250,1,03,1,99,9",,"01,9","999,+0165,1","120,N,+0196,1","240,M,+0301,1","99999,9,10110,1","1,1,003,1,+012,1",,"SYN112AAXX  16121 76458 32858 43501 10216 20177 30110 40115 51003 84/3/ 91140 333 10301 20196 30165 58012 70000 84356;","Q01  00002PRCP06"
"76458099999","2005-04-16T18:00:00","4","23.2","-106.4166666","4.0","COLONIA JUAN CARRASCO MAZATLAN SIN., MX","FM-12","99999","V020","210,1,N,0030,1","05400,1,9,N","020000,1,N,1","+0250,1","+0200,1","10142,1","06,0000,9,1",,,,,"07,1,+05400,1,02,1",,,"07,99,1,00,1,00,1,99999,9,00,1,01,1",,"01,9",,"120,M,+0275,1","240,N,+0192,1","99999,9,10138,1","1,1,009,1,+025,1",,"SYN112AAXX  16181 76458 32970 72103 10250 20200 30138 40142 51009 80001 91748 333 10275 20192 30/// 56//0 58025 87268;","Q01  00002PRCP06"
"76458099999","2005-04-16T21:00:00","4","23.2","-106.4166666","4.0","COLONIA JUAN CARRASCO MAZATLAN SIN., MX","FM-12","99999","V020","260,1,N,0030,1","02400,1,9,N","025000,1,N,1","+0256,1","+0201,1","10125,1","06,0000,9,1",,,,,"07,1,+02400,1,02,1",,,"07,99,1,00,1,00,1,99999,9,00,1,01,1",,"01,9",,,,"99999,9,10121,1","7,1,018,1,+029,1",,"SYN100AAXX  16211 76458 32975 72603 10256 20201 30121 40125 57018 80001 92048 333 30/// 56//0 58029 87258;","Q01  00002PRCP06"
"76458099999","2005-04-17T03:00:00","4","23.2","-106.4166666","4.0","COLONIA JUAN CARRASCO MAZATLAN SIN., MX","FM-12","99999","V020","330,1,N,0020,1","22000,1,9,N","010000,1,N,1","+0234,1","+0200,1","10127,1","06,0000,9,1",,,,,"01,1,+05400,1,02,1",,,"01,99,1,00,1,00,1,99999,9,00,1,07,1",,"01,9",,,,"99999,9,10123,1","2,1,009,1,+023,1",,"SYN100AAXX  17031 76458 32960 13302 10234 20200 30123 40127 52009 80007 90245 333 30/// 56//9 58023 81268;","Q01  00002PRCP06"
"76458099999","2005-04-17T09:00:00","4","23.2","-106.4166666","4.0","COLONIA JUAN CARRASCO MAZATLAN SIN., MX","FM-12","99999","V020","010,1,N,0010,1","22000,1,9,N","010000,1,N,1","+0198,1","+0175,1","10135,1","06,0000,9,1",,,,,"01,1,+00300,1,06,1",,,"01,99,1,01,1,04,1,00250,1,00,1,00,1",,"01,9",,,,"99999,9,10130,1","7,1,006,1,+023,1",,"SYN100AAXX  17091 76458 32360 10101 10198 20175 30130 40135 57006 81400 90900 333 30/// 56000 58023 81610;","Q01  00002PRCP06"
"76458099999","2005-04-17T12:00:00","4","23.2","-106.4166666","4.0","COLONIA JUAN CARRASCO MAZATLAN SIN., MX","FM-12","99999","V020","130,1,N,0020,1","01800,1,9,N","010000,1,N,1","+0202,1","+0153,1","10128,1","06,0000,9,1","24,0000,9,1",,,,"06,1,+01800,1,03,1",,,"06,99,1,06,1,99,9,02250,1,03,1,99,9",,"01,9","999,+0145,1","120,N,+0190,1","240,M,+0278,1","99999,9,10124,1","7,1,006,1,+014,1",,"SYN112AAXX  17121 76458 32860 61302 10202 20153 30124 40128 57006 86/3/ 91140 333 10278 20190 30145 58014 70000 86356;","Q01  00002PRCP06"
"76458099999","2005-04-17T15:00:00","4","23.2","-106.4166666","4.0","COLONIA JUAN CARRASCO MAZATLAN SIN., MX","FM-12","99999","V020","270,1,N,0020,1","22000,1,C,N","012000,1,N,1","+0226,1","+0167,1","10144,1","06,0000,9,1",,,,,"04,1,+03600,1,03,1",,,"05,99,1,04,1,00,1,02250,1,03,1,08,1",,"01,9",,,,"99999,9,10139,1","2,1,015,1,+010,1",,"SYN106AAXX  17151 76458 32862 52702 10226 20167 30139 40144 52015 84038 91445 333 30/// 56/99 58010 84362 81268;","Q01  00002PRCP06"
"76458099999","2005-04-17T18:00:00","4","23.2","-106.4166666","4.0","COLONIA JUAN CARRASCO MAZATLAN SIN., MX","FM-12","99999","V020","260,1,N,0030,1","07800,1,9,N","020000,1,N,1","+0278,1","+0126,1","10141,1","06,0000,9,1",,,,,"07,1,+07800,1,02,1",,,"07,99,1,00,1,00,1,99999,9,00,1,07,1",,"01,9",,"120,M,+0293,1","240,N,+0190,1","99999,9,10137,1","8,1,003,1,-001,1",,"SYN112AAXX  17181 76458 32970 72603 10278 20126 30137 40141 58003 80007 91755 333 10293 20190 30/// 56009 59001 87276;","Q01  00002PRCP06"
"76458099999","2005-04-17T21:00:00","4","23.2","-106.4166666","4.0","COLONIA JUAN CARRASCO MAZATLAN SIN., MX","FM-12","99999","V020","270,1,N,0030,1","22000,1,9,N","020000,1,N,1","+0294,1","+0102,1","10126,1","06,0000,9,1",,,,,"02,1,+02400,1,03,1",,,"03,99,1,01,1,00,1,99999,9,03,1,03,1",,"01,9",,,,"99999,9,10121,1","7,1,016,1,+000,1",,"SYN106AAXX  17211 76458 32970 32703 10294 20102 30121 40126 57016 81033 92050 333 30/// 56099 58000 82358 81079;","Q01  00002PRCP06"
"76458099999","2005-04-18T03:00:00","4","23.2","-106.4166666","4.0","COLONIA JUAN CARRASCO MAZATLAN SIN., MX","FM-12","99999","V020","310,1,N,0030,1","22000,1,9,N","010000,1,N,1","+0245,1","+0170,1","10114,1","06,0000,9,1",,,,,"03,1,+06000,1,00,1",,,"03,99,1,00,1,00,1,99999,9,00,1,01,1",,"01,9",,,,"99999,9,10109,1","0,1,009,1,-014,1",,"SYN100AAXX  18031 76458 32960 33103 10245 20170 30109 40114 50009 80001 90248 333 30/// 56//0 59014 83070;","Q01  00002PRCP06"
"76458099999","2005-04-18T06:00:00","4","23.2","-106.4166666","4.0","COLONIA JUAN CARRASCO MAZATLAN SIN., MX","FM-12","99999","V020","320,1,N,0030,1","22000,1,9,N","008000,1,N,1","+0234,1","+0174,1","10126,1","06,0000,9,1",,,,,"00,1,+99999,9,99,9",,,"00,99,1,00,1,00,1,99999,9,00,1,00,1",,"01,9",,"240,M,+0314,1","240,N,+0190,1","99999,9,10122,1","2,1,013,1,-014,1",,"SYN100AAXX  18061 76458 32958 03203 10234 20174 30122 40126 52013 90548 333 10314 20190 30/// 55900 59014;","Q01  00002PRCP06"
"76458099999","2005-04-18T15:00:00","4","23.2","-106.4166666","4.0","COLONIA JUAN CARRASCO MAZATLAN SIN., MX","FM-12","99999","V020","130,1,N,0020,1","02400,1,9,N","016000,1,N,1","+0224,1","+0177,1","10135,1","06,0000,9,1",,,"4,1,03,1","4,1,03,1","07,1,+02400,1,04,1",,,"07,99,1,07,1,99,9,02250,1,02,1,99,9",,"01,9",,,,"99999,9,10130,1","2,1,016,1,-009,1","05,1","SYN100AAXX  18151 76458 31866 71302 10224 20177 30130 40135 52016 70544 87/2/ 91440 333 30/// 59009 87458;","Q01  00002PRCP06"
"76458099999","2005-04-18T18:00:00","4","23.2","-106.4166666","4.0","COLONIA JUAN CARRASCO MAZATLAN SIN., MX","FM-12","99999","V020","240,1,N,0030,1","99999,9,9,N","020000,1,N,1","+0256,1","+0212,1","10142,1","06,0000,9,1",,,,,"01,1,+02400,1,03,1",,,"07,99,1,01,1,00,1,99999,9,03,1,07,1",,"01,9",,"120,M,+0285,1","240,N,+0206,1","99999,9,10137,1","0,1,007,1,+000,1",,"SYN118AAXX  18181 76458 32970 72403 10256 20212 30137 40142 50007 81037 91750 333 10285 20206 30/// 56099 58000 81358 86276;","Q01  00002PRCP06"
"76458099999","2005-04-19T12:00:00","4","23.2","-106.4166666","4.0","COLONIA JUAN CARRASCO MAZATLAN SIN., MX","FM-12","99999","V020","060,1,N,0010,1","22000,1,9,N","008000,1,N,1","+0208,1","+0203,1","10121,1","06,0000,9,1","24,0000,9,1",,,,"00,1,+99999,9,99,9",,,"00,99,1,00,1,00,1,99999,9,00,1,00,1",,"01,9","999,+0175,1","120,N,+0200,1","240,M,+0290,1","99999,9,10117,1","3,1,003,1,+003,1",,"SYN100AAXX  19121 76458 32958 00601 10208 20203 30117 40121 53003 91140 333 10290 20200 30175 58003 70000;","Q01  00002PRCP06Q02  00002PRCP24"
"76458099999","2005-04-19T15:00:00","4","23.2","-106.4166666","4.0","COLONIA JUAN CARRASCO MAZATLAN SIN., MX","FM-12","99999","V020","120,1,N,0010,1","22000,1,9,N","010000,1,N,1","+0242,1","+0193,1","10136,1","06,0000,9,1",,,"4,1,03,1","4,1,03,1","00,1,+99999,9,99,9",,,"00,99,1,00,1,00,1,99999,9,00,1,00,1",,"01,9",,,,"99999,9,10131,1","2,1,015,1,+999,9","05,1","SYN087AAXX  19151 76458 31960 01201 10242 20193 30131 40136 52015 70544 91440 333 30/// 5801;","Q01  00002PRCP06"
"76458099999","2005-04-19T18:00:00","4","23.2","-106.4166666","4.0","COLONIA JUAN CARRASCO MAZATLAN SIN., MX","FM-12","99999","V020","250,1,N,0030,1","22000,1,9,N","018000,1,N,1","+0270,1","+0167,1","10141,1","06,0000,9,1",,,,,"02,1,+06000,1,00,1",,,"02,99,1,00,1,00,1,99999,9,00,1,06,1",,"01,9",,"120,M,+0295,1","240,N,+0198,1","99999,9,10136,1","0,1,005,1,-001,1",,"SYN112AAXX  19181 76458 32968 22503 10270 20167 30136 40141 50005 80006 91747 333 10295 20198 30/// 56//9 59001 82070;","Q01  00002PRCP06"
"76458099999","2005-04-20T09:00:00","4","23.2","-106.4166666","4.0","COLONIA JUAN CARRASCO MAZATLAN SIN., MX","FM-12","99999","V020","060,1,N,0020,1","22000,1,9,N","008000,1,N,1","+0226,1","+0195,1","10110,1","06,0000,9,1",,,,,"03,1,+02400,1,03,1",,,"03,99,1,03,1,00,1,99999,9,03,1,00,1",,"01,9",,,,"99999,9,10105,1","7,1,011,1,-009,1",,"SYN100AAXX  20091 76458 32958 30602 10226 20195 30105 40110 57011 83030 90850 333 30/// 56060 59009 83358;","Q01  00002PRCP06"
"76458099999","2005-04-21T00:00:00","4","23.2","-106.4166666","4.0","COLONIA JUAN CARRASCO MAZATLAN SIN., MX","FM-12","99999","V020","300,1,N,0050,1","99999,9,9,N","020000,1,N,1","+0275,1","+0166,1","10097,1","06,0000,9,1","24,0000,9,1",,,,,,,"05,99,1,05,1,00,1,99999,9,05,1,00,1",,"01,9",,"120,M,+0300,1","180,N,+0209,1","99999,9,10092,1","6,1,012,1,-019,1",,"SYN124AAXX  21001 76458 32970 53005 10275 20166 30092 40097 56012 85050 92348 333 10300 20209 30/// 50441 56//0 59019 70000 85356;","Q01  00002PRCP06"
"76458099999","2005-04-21T12:00:00","4","23.2","-106.4166666","4.0","COLONIA JUAN CARRASCO MAZATLAN SIN., MX","FM-12","99999","V020","150,1,N,0050,1","22000,1,9,N","008000,1,N,1","+0214,1","+0184,1","10105,1","06,0000,9,1","24,0000,9,1",,,,"02,1,+06000,1,01,1",,,"02,99,1,00,1,99,9,99999,9,99,9,09,1",,"01,9","999,+0190,1","120,N,+0208,1","240,M,+0300,1","99999,9,10100,1","5,1,002,1,-010,1",,"SYN112AAXX  21121 76458 32958 21505 10214 20184 30100 40105 55002 80//9 91140 333 10300 20208 30190 59010 70000 82170;","Q01  00002PRCP06"
"76458099999","2005-04-21T15:00:00","4","23.2","-106.4166666","4.0","COLONIA JUAN CARRASCO MAZATLAN SIN., MX","FM-12","99999","V020","999,9,C,0000,1","03600,1,9,N","016000,1,N,1","+0239,1","+0185,1","10111,1","06,0000,9,1",,,,,"06,1,+03600,1,03,1",,,"06,99,1,06,1,00,1,02250,1,03,1,00,1",,"01,9",,,,"99999,9,10106,1","1,1,006,1,-012,1",,"SYN100AAXX  21151 76458 32866 60000 10239 20185 30106 40111 51006 86030 91445 333 30/// 56/9/ 59012 86362;","Q01  00002PRCP06"
"76458099999","2005-04-21T18:00:00","4","23.2","-106.4166666","4.0","COLONIA JUAN CARRASCO MAZATLAN SIN., MX","FM-12","99999","V020","240,1,N,0030,1","99999,9,9,N","016000,1,N,1","+0254,1","+0211,1","10110,1","06,0000,9,1",,,,,"03,1,+02400,1,03,1",,,"05,99,1,03,1,00,1,99999,9,03,1,05,1",,"01,9",,"120,M,+0280,1","240,N,+0207,1","99999,9,10105,1","4,1,000,1,-033,1",,"SYN118AAXX  21181 76458 32966 52403 10254 20211 30105 40110 54001 83035 91440 333 10280 20207 30/// 56099 59033 83358 82079;","Q01  00002PRCP06"
"76458099999","2005-04-21T21:00:00","4","23.2","-106.4166666","4.0","COLONIA JUAN CARRASCO MAZATLAN SIN., MX","FM-12","99999","V020","270,1,N,0040,1","22000,1,9,N","020000,1,N,1","+0266,1","+0215,1","10099,1","06,0000,9,1",,,,,"01,1,+02700,1,03,1",,,"04,99,1,01,1,00,1,99999,9,03,1,02,1",,"01,9",,,,"99999,9,10095,1","7,1,011,1,-009,1",,"SYN106AAXX  21211 76458 32970 42704 10266 20215 30095 40099 57011 81032 92050 333 30/// 56099 59009 81359 83079;","Q01  00002PRCP06"
"76458099999","2005-04-22T00:00:00","4","23.2","-106.4166666","4.0","COLONIA JUAN CARRASCO MAZATLAN SIN., MX","FM-12","99999","V020","200,1,N,0020,1","99999,9,9,N","020000,1,N,1","+0272,1","+0217,1","10089,1","06,0000,9,1","24,0000,9,1",,,,"01,1,+02400,1,03,1",,,"05,99,1,01,1,00,1,99999,9,05,1,01,1",,"01,9",,"120,M,+0287,1","180,N,+0207,1","99999,9,10084,1","6,1,011,1,-008,1",,"SYN130AAXX  22001 76458 32970 52002 10272 20217 30084 40089 56011 81051 92348 333 10287 20207 30/// 50431 56/00 59008 70000 81358 84070;","Q01  00002PRCP06"
"76458099999","2005-04-22T03:00:00","4","23.2","-106.4166666","4.0","COLONIA JUAN CARRASCO MAZATLAN SIN., MX","FM-12","99999","V020","140,1,N,0020,1","22000,1,9,N","010000,1,N,1","+0245,1","+0205,1","10104,1","06,0000,9,1",,,,,"01,1,+02400,1,03,1",,,"04,99,1,01,1,06,1,99999,9,05,1,01,1",,"01,9",,,,"99999,9,10100,1","2,1,016,1,-005,1",,"SYN106AAXX  22031 76458 32960 41402 10245 20205 30100 40104 52016 81651 90248 333 30/// 56/00 59005 81358 83070;","Q01  00002PRCP06"
"76458099999","2005-04-22T12:00:00","4","23.2","-106.4166666","4.0","COLONIA JUAN CARRASCO MAZATLAN SIN., MX","FM-12","99999","V020","090,1,N,0020,1","22000,1,9,N","008000,1,N,1","+0222,1","+0208,1","10122,1","06,0000,9,1","24,0000,9,1",,,,"00,1,+99999,9,99,9",,,"00,99,1,00,1,00,1,99999,9,00,1,00,1",,"01,9","999,+0198,1","120,N,+0218,1","240,M,+0287,1","99999,9,10118,1","3,1,005,1,+018,1",,"SYN100AAXX  22121 76458 32958 00902 10222 20208 30118 40122 53005 91140 333 10287 20218 30198 58018 70000;","Q01  00002PRCP06Q02  00002PRCP24"
"76458099999","2005-04-22T15:00:00","4","23.2","-106.4166666","4.0","COLONIA JUAN CARRASCO MAZATLAN SIN., MX","FM-12","99999","V020","120,1,N,0020,1","22000,1,9,N","010000,1,N,1","+0244,1","+0213,1","10126,1","06,0000,9,1",,,"4,1,03,1","4,1,03,1","02,1,+02400,1,03,1",,,"03,99,1,02,1,00,1,99999,9,03,1,06,1",,"01,9",,,,"99999,9,10121,1","1,1,003,1,+015,1","05,1","SYN106AAXX  22151 76458 31960 31202 10244 20213 30121 40126 51003 70544 82036 91440 333 30/// 58015 82358 81070;","Q01  00002PRCP06"
"76458099999","2005-04-22T18:00:00","4","23.2","-106.4166666","4.0","COLONIA JUAN CARRASCO MAZATLAN SIN., MX","FM-12","99999","V020","160,1,N,0030,1","22000,1,9,N","015000,1,N,1","+0270,1","+0220,1","10130,1","06,0000,9,1",,,,,"04,1,+06600,1,00,1",,,"04,99,1,00,1,00,1,99999,9,00,1,06,1",,"01,9",,"120,M,+0290,1","240,N,+0218,1","99999,9,10125,1","2,1,004,1,+020,1",,"SYN112AAXX  22181 76458 32965 41603 10270 20220 30125 40130 52004 80006 91755 333 10290 20218 30/// 56009 58020 84072;","Q01  00002PRCP06"
"76458099999","2005-04-22T21:00:00","4","23.2","-106.4166666","4.0","COLONIA JUAN CARRASCO MAZATLAN SIN., MX","FM-12","99999","V020","180,1,N,0030,1","22000,1,9,N","020000,1,N,1","+0274,1","+0217,1","10104,1","06,0000,9,1",,,,,"02,1,+06600,1,00,1",,,"02,99,1,00,1,00,1,99999,9,00,1,06,1",,"01,9",,,,"99999,9,10100,1","7,1,025,1,+005,1",,"SYN100AAXX  22211 76458 32970 21803 10274 20217 30100 40104 57025 82006 92052 333 30/// 56009 58005 82072;","Q01  00002PRCP06"
"76458099999","2005-04-23T00:00:00","4","23.2","-106.4166666","4.0","COLONIA JUAN CARRASCO MAZATLAN SIN., MX","FM-12","99999","V020","240,1,N,0030,1","22000,1,9,N","020000,1,N,1","+0260,1","+0216,1","10096,1","06,0000,9,1","24,0000,9,1",,,,"02,1,+06000,1,00,1",,,"02,99,1,00,1,00,1,99999,9,00,1,01,1",,"01,9",,"120,M,+0299,1","180,N,+0218,1","99999,9,10092,1","6,1,008,1,+008,1",,"SYN118AAXX  23001 76458 32970 22403 10260 20216 30092 40096 56008 80001 92350 333 10299 20218 30/// 56//0 58008 70000 82070;","Q01  00002PRCP06"
"76458099999","2005-04-23T09:00:00","4","23.2","-106.4166666","4.0","COLONIA JUAN CARRASCO MAZATLAN SIN., MX","FM-12","99999","V020","120,1,N,0020,1","22000,1,9,N","008000,1,N,1","+0222,1","+0202,1","10102,1","06,0000,9,1",,,,,"03,1,+05400,1,02,1",,,"99,99,9,00,1,00,1,99999,9,00,1,99,9",,"01,9",,,,"99999,9,10097,1","7,1,008,1,-016,1",,"SYN100AAXX  23091 76458 32958 01202 10222 20202 30097 40102 57008 80007 90845 333 30/// 56//9 59016 83268;","Q01  00002PRCP06"
"76458099999","2005-04-23T12:00:00","4","23.2","-106.4166666","4.0","COLONIA JUAN CARRASCO MAZATLAN SIN., MX","FM-12","99999","V020","120,1,N,0020,1","22000,1,9,N","008000,1,N,1","+0228,1","+0214,1","10108,1","06,0000,9,1","24,0000,9,1",,,,"04,1,+00180,1,07,1",,,"04,99,1,04,1,06,1,00075,1,99,9,99,9",,"01,9","999,+0187,1","120,N,+0218,1","240,M,+0299,1","99999,9,10103,1","3,1,006,1,-015,1",,"SYN118AAXX  23121 76458 32158 41202 10228 20214 30103 40108 53006 846// 91140 333 10299 20218 30187 563// 59015 70000 84706;","Q01  00002PRCP06"
"76458099999","2005-04-23T15:00:00","4","23.2","-106.4166666","4.0","COLONIA JUAN CARRASCO MAZATLAN SIN., MX","FM-12","99999","V020","120,1,N,0020,1","22000,1,C,N","018000,1,N,1","+0244,1","+0213,1","10119,1","06,0000,9,1",,,,,"02,1,+00360,1,08,1",,,"06,99,1,02,1,02,1,00150,1,00,1,06,1",,"01,9",,,,"99999,9,10115,1","2,1,012,1,-006,1",,"SYN100AAXX  23151 76458 32268 61202 10244 20213 30115 40119 52012 82206 91440 333 30/// 59006 82812 84070;","Q01  00002PRCP06"
"76458099999","2005-04-23T18:00:00","4","23.2","-106.4166666","4.0","COLONIA JUAN CARRASCO MAZATLAN SIN., MX","FM-12","99999","V020","170,1,N,0040,1","22000,1,9,N","015000,1,N,1","+0275,1","+0206,1","10126,1","06,0000,9,1",,,,,"01,1,+03600,1,03,1",,,"01,99,1,01,1,00,1,02250,1,03,1,00,1",,"01,9",,"120,M,+0288,1","240,N,+0218,1","99999,9,10121,1","0,1,006,1,-005,1",,"SYN112AAXX  23181 76458 32865 11704 10275 20206 30121 40126 50006 81030 91745 333 10288 20218 30/// 56/9/ 59005 81362;","Q01  00002PRCP06"
"76458099999","2005-04-23T21:00:00","4","23.2","-106.4166666","4.0","COLONIA JUAN CARRASCO MAZATLAN SIN., MX","FM-12","99999","V020","160,1,N,0040,1","22000,1,9,N","018000,1,N,1","+0270,1","+0214,1","10115,1","06,0000,9,1",,,,,"01,1,+06000,1,00,1",,,"01,99,1,00,1,00,1,99999,9,00,1,03,1",,"01,9",,,,"99999,9,10111,1","7,1,010,1,+011,1",,"SYN100AAXX  23211 76458 32968 11604 10270 20214 30111 40115 57010 80003 92045 333 30/// 56//9 58011 81070;","Q01  00002PRCP06"
"76458099999","2005-04-24T00:00:00","4","23.2","-106.4166666","4.0","COLONIA JUAN CARRASCO MAZATLAN SIN., MX","FM-12","99999","V020","210,1,N,0040,1","22000,1,9,N","020000,1,N,1","+0261,1","+0210,1","10102,1","06,0000,9,1","24,0000,9,1",,,,,,,"02,99,1,00,1,00,1,99999,9,00,1,03,1",,"01,9",,"120,M,+0290,1","180,N,+0218,1","99999,9,10097,1","7,1,012,1,+005,1",,"SYN124AAXX  24001 76458 32970 22104 10261 20210 30097 40102 57012 80003 92348 333 10290 20218 30/// 50471 56//0 58005 70000 82070;","Q01  00002PRCP06"
"76458099999","2005-04-24T03:00:00","4","23.2","-106.4166666","4.0","COLONIA JUAN CARRASCO MAZATLAN SIN., MX","FM-12","99999","V020","130,1,N,0030,1","22000,1,9,N","010000,1,N,1","+0242,1","+0213,1","10111,1","06,0000,9,1",,,,,"02,1,+06000,1,00,1",,,"02,99,1,00,1,00,1,99999,9,00,1,03,1",,"01,9",,,,"99999,9,10106,1","1,1,009,1,+001,1",,"SYN100AAXX  24031 76458 32960 21303 10242 20213 30106 40111 51009 80003 90248 333 30/// 56//0 58001 82070;","Q01  00002PRCP06"
"76458099999","2005-04-24T06:00:00","4","23.2","-106.4166666","4.0","COLONIA JUAN CARRASCO MAZATLAN SIN., MX","FM-12","99999","V020","110,1,N,0020,1","22000,1,9,N","008000,1,N,1","+0239,1","+0217,1","10119,1","06,0000,9,1",,,,,,,,"03,99,1,03,1,00,1,99999,9,03,1,00,1","0624,9","01,9",,"240,M,+0290,1","240,N,+0218,1","99999,9,10114,1","0,1,008,1,+010,1",,"SYN124AAXX  24061 76458 32958 31102 10239 20217 30114 40119 50008 83030 90550 333 10290 20218 30/// 55104 2//// 56050 58010 83358;","Q01  00002PRCP06"
"76458099999","2005-04-24T09:00:00","4","23.2","-106.4166666","4.0","COLONIA JUAN CARRASCO MAZATLAN SIN., MX","FM-12","99999","V020","120,1,N,0020,1","22000,1,9,N","008000,1,N,1","+0231,1","+0215,1","10115,1","06,0000,9,1",,,,,"02,1,+02400,1,03,1",,,"02,99,1,02,1,00,1,99999,9,03,1,00,1",,"01,9",,,,"99999,9,10110,1","7,1,004,1,-013,1",,"SYN100AAXX  24091 76458 32958 21202 10231 20215 30110 40115 57004 82030 90840 333 30/// 56050 59013 82358;","Q01  00002PRCP06"
"76458099999","2005-04-24T12:00:00","4","23.2","-106.4166666","4.0","COLONIA JUAN CARRASCO MAZATLAN SIN., MX","FM-12","99999","V020","090,1,N,0020,1","01800,1,9,N","008000,1,N,1","+0234,1","+0217,1","10126,1","06,0000,9,1","24,0000,9,1",,,,"07,1,+01800,1,03,1",,,"07,99,1,07,1,99,9,02250,1,03,1,99,9",,"01,9","999,+0213,1","120,N,+0230,1","240,M,+0290,1","99999,9,10121,1","2,1,011,1,+018,1",,"SYN112AAXX  24121 76458 32858 70902 10234 20217 30121 40126 52011 87/3/ 91140 333 10290 20230 30213 58018 70000 87356;","Q01  00002PRCP06"
"76458099999","2005-04-24T15:00:00","4","23.2","-106.4166666","4.0","COLONIA JUAN CARRASCO MAZATLAN SIN., MX","FM-12","99999","V020","120,1,N,0030,1","22000,1,9,N","010000,1,N,1","+0256,1","+0214,1","10145,1","06,0000,9,1",,,"4,1,03,1","4,1,03,1","01,1,+00480,1,08,1",,,"02,99,1,01,1,01,1,00800,1,03,1,00,1",,"01,9",,,,"99999,9,10141,1","0,1,020,1,+026,1","05,1","SYN112AAXX  24151 76458 32560 21203 10256 20214 30141 40145 50020 70544 81130 91440 333 30/// 5639/ 58026 81816 81356;","Q01  00002PRCP06"
"76458099999","2005-04-25T00:00:00","4","23.2","-106.4166666","4.0","COLONIA JUAN CARRASCO MAZATLAN SIN., MX","FM-12","99999","V020","270,1,N,0030,1","22000,1,9,N","020000,1,N,1","+0266,1","+0218,1","10110,1","06,0000,9,1","24,0000,9,1",,,,"01,1,+00600,1,08,1",,,"02,99,1,01,1,01,1,00800,1,06,1,00,1",,"01,9",,"120,M,+0300,1","180,N,+0230,1","99999,9,10105,1","7,1,014,1,+008,1",,"SYN130AAXX  25001 76458 32570 22703 10266 20218 30105 40110 57014 81160 92348 333 10300 20230 30/// 5///1 5649/ 58008 70000 81820 81362;","Q01  00002PRCP06"
"76458099999","2005-04-25T12:00:00","4","23.2","-106.4166666","4.0","COLONIA JUAN CARRASCO MAZATLAN SIN., MX","FM-12","99999","V020","240,1,N,0010,1","22000,1,9,N","008000,1,N,1","+0220,1","+0203,1","10114,1","06,0000,9,1","24,0000,9,1",,,,"03,1,+06000,1,00,1",,,"03,99,1,00,1,99,9,99999,9,99,9,07,1",,"01,9","999,+0186,1","120,N,+0216,1","240,M,+0300,1","99999,9,10110,1","9,9,999,9,-011,1",,"SYN112AAXX  25121 76458 32958 32401 10220 20203 30110 40114 5//// 80//7 91140 333 10300 20216 30186 59011 70000 83070;","Q01  00002PRCP06"
"76458099999","2005-04-25T15:00:00","4","23.2","-106.4166666","4.0","COLONIA JUAN CARRASCO MAZATLAN SIN., MX","FM-12","99999","V020","060,1,N,0010,1","22000,1,9,N","008000,1,N,1","+0238,1","+0215,1","10126,1","06,0000,9,1",,,"4,1,03,1","4,1,03,1","01,1,+00300,1,08,1",,,"01,99,1,01,1,01,1,00150,1,99,9,99,9",,"01,9",,,,"99999,9,10121,1","2,1,011,1,-020,1","05,1","SYN106AAXX  25151 76458 31258 10601 10238 20215 30121 40126 52011 70544 811// 91440 333 30/// 564// 59020 81810;","Q01  00002PRCP06"
"76458099999","2005-04-25T18:00:00","4","23.2","-106.4166666","4.0","COLONIA JUAN CARRASCO MAZATLAN SIN., MX","FM-12","99999","V020","230,1,N,0030,1","22000,1,9,N","014000,1,N,1","+0272,1","+0225,1","10132,1","06,0000,9,1",,,,,"01,1,+00600,1,08,1",,,"03,99,1,01,1,03,1,00450,1,00,1,02,1",,"01,9",,"120,M,+0288,1","240,N,+0220,1","99999,9,10128,1","0,1,006,1,-009,1",,"SYN118AAXX  25181 76458 31464 32303 10272 20225 30128 40132 50006 81302 91758 333 10288 20220 30/// 56509 59009 81820 82079;","Q01  00002PRCP06"
"76458099999","2005-04-26T00:00:00","4","23.2","-106.4166666","4.0","COLONIA JUAN CARRASCO MAZATLAN SIN., MX","FM-12","99999","V020","270,1,N,0050,1","22000,1,9,N","020000,1,N,1","+0267,1","+0200,1","10106,1","06,0000,9,1","24,0000,9,1",,,,"03,1,+01800,1,03,1",,,"04,99,1,03,1,00,1,99999,9,05,1,03,1",,"01,9",,"120,M,+0290,1","180,N,+0209,1","99999,9,10101,1","6,1,011,1,-004,1",,"SYN130AAXX  26001 76458 32970 42705 10267 20200 30101 40106 56011 83053 92348 333 10290 20209 30/// 50361 56/00 59004 70000 83356 81070;","Q01  00002PRCP06"
"76458099999","2005-04-26T12:00:00","4","23.2","-106.4166666","4.0","COLONIA JUAN CARRASCO MAZATLAN SIN., MX","FM-12","99999","V020","999,9,C,0000,1","22000,1,9,N","008000,1,N,1","+0196,1","+0127,1","10116,1","06,0000,9,1","24,0000,9,1",,,,"01,1,+03600,1,03,1",,,"01,99,1,01,1,00,1,02250,1,03,1,00,1",,"01,9","999,+0180,1","120,N,+0190,1","240,M,+0290,1","99999,9,10111,1","2,1,004,1,+001,1",,"SYN118AAXX  26121 76458 32858 10000 10196 20127 30111 40116 52004 81030 91150 333 10290 20190 30180 56/9/ 58001 70000 81362;","Q01  00002PRCP06"
"76458099999","2005-04-26T18:00:00","4","23.2","-106.4166666","4.0","COLONIA JUAN CARRASCO MAZATLAN SIN., MX","FM-12","99999","V020","240,1,N,0030,1","22000,1,9,N","026000,1,N,1","+0264,1","+0173,1","10139,1","06,0000,9,1",,,,,"02,1,+08700,1,00,1",,,"02,99,1,00,1,00,1,99999,9,00,1,02,1",,"01,9",,"120,M,+0284,1","240,N,+0189,1","99999,9,10134,1","0,1,006,1,+006,1",,"SYN112AAXX  26181 76458 32976 22403 10264 20173 30134 40139 50006 80002 91755 333 10284 20189 30/// 56009 58006 82079;","Q01  00002PRCP06"
"76458099999","2005-04-27T00:00:00","4","23.2","-106.4166666","4.0","COLONIA JUAN CARRASCO MAZATLAN SIN., MX","FM-12","99999","V020","300,1,N,0040,1","99999,9,9,N","020000,1,N,1","+0260,1","+0152,1","10120,1","06,0000,9,1","24,0000,9,1",,,,,,,"07,99,1,07,1,00,1,99999,9,05,1,00,1",,"01,9",,"120,M,+0295,1","180,N,+0189,1","99999,9,10116,1","1,1,007,1,+015,1",,"SYN124AAXX  27001 76458 32970 73004 10260 20152 30116 40120 51007 87050 92348 333 10295 20189 30/// 50741 56/0/ 58015 70000 87070;","Q01  00002PRCP06"
"76458099999","2005-04-27T03:00:00","4","23.2","-106.4166666","4.0","COLONIA JUAN CARRASCO MAZATLAN SIN., MX","FM-12","99999","V020","330,1,N,0020,1","22000,1,9,N","010000,1,N,1","+0237,1","+0154,1","10139,1","06,0000,9,1",,,,,"04,1,+06000,1,00,1",,,"04,99,1,00,1,00,1,99999,9,00,1,01,1",,"01,9",,,,"99999,9,10135,1","2,1,019,1,+030,1",,"SYN100AAXX  27031 76458 32960 43302 10237 20154 30135 40139 52019 80001 90245 333 30/// 56//0 58030 84070;","Q01  00002PRCP06"
"76458099999","2005-04-27T06:00:00","4","23.2","-106.4166666","4.0","COLONIA JUAN CARRASCO MAZATLAN SIN., MX","FM-12","99999","V020","360,1,N,0010,1","22000,1,9,N","008000,1,N,1","+0210,1","+0161,1","10152,1","06,0000,9,1",,,,,,,,"01,99,1,00,1,00,1,99999,9,00,1,06,1","0678,9","01,9",,"240,M,+0295,1","240,N,+0189,1","99999,9,10147,1","2,1,012,1,+026,1",,"SYN118AAXX  27061 76458 32958 13601 10210 20161 30147 40152 52012 81006 90558 333 10295 20189 30/// 55113 56009 58026 81072;","Q01  00002PRCP06"
"76458099999","2005-04-27T09:00:00","4","23.2","-106.4166666","4.0","COLONIA JUAN CARRASCO MAZATLAN SIN., MX","FM-12","99999","V020","999,9,C,0000,1","22000,1,9,N","008000,1,N,1","+0190,1","+0113,1","10141,1","06,0000,9,1",,,,,"00,1,+99999,9,99,9",,,"00,99,1,00,1,00,1,99999,9,00,1,00,1",,"01,9",,,,"99999,9,10137,1","7,1,010,1,+030,1",,"SYN082AAXX  27091 76458 32958 00000 10190 20113 30137 40141 57010 90858 333 30/// 58030;","Q01  00002PRCP06"
"76458099999","2005-04-27T12:00:00","4","23.2","-106.4166666","4.0","COLONIA JUAN CARRASCO MAZATLAN SIN., MX","FM-12","99999","V020","300,1,N,0020,1","22000,1,9,N","008000,1,N,1","+0178,1","+0082,1","10159,1","06,0000,9,1","24,0000,9,1",,,,"02,1,+06000,1,00,1",,,"02,99,1,00,1,99,9,99999,9,99,9,06,1",,"01,9","999,+0115,1","120,N,+0181,1","240,M,+0295,1","99999,9,10155,1","3,1,018,1,+044,1",,"SYN112AAXX  27121 76458 32958 23002 10178 20082 30155 40159 53018 80//6 91140 333 10295 20181 30115 58044 70000 82070;","Q01  00002PRCP06"
"76458099999","2005-04-27T15:00:00","4","23.2","-106.4166666","4.0","COLONIA JUAN CARRASCO MAZATLAN SIN., MX","FM-12","99999","V020","999,9,C,0000,1","22000,1,9,N","012000,1,N,1","+0332,2","+0069,1","10152,1","06,0000,9,1",,,,,"01,1,+03600,1,03,1",,,"02,99,1,01,1,00,1,02250,1,03,1,06,1",,"01,9",,,,"99999,9,10148,1","2,1,007,1,+020,1",,"SYN106AAXX  27151 76458 32862 20000 10332 20069 30148 40152 52007 81036 91448 333 30/// 56/99 58020 81362 81068;","Q01  00002PRCP06"
"76458099999","2005-04-27T18:00:00","4","23.2","-106.4166666","4.0","COLONIA JUAN CARRASCO MAZATLAN SIN., MX","FM-12","99999","V020","270,1,N,0040,1","99999,9,9,N","026000,1,N,1","+0254,1","+0180,1","10156,1","06,0000,9,1",,,,,"01,1,+02400,1,03,1",,,"07,99,1,01,1,00,1,99999,9,03,1,04,1",,"01,9",,"120,M,+0293,1","240,N,+0160,1","99999,9,10152,1","2,1,004,1,+017,1",,"SYN118AAXX  27181 76458 32976 72704 10254 20180 30152 40156 52004 81034 91750 333 10293 20160 30/// 56089 58017 81358 86079;","Q01  00002PRCP06"
"76458099999","2005-04-27T21:00:00","4","23.2","-106.4166666","4.0","COLONIA JUAN CARRASCO MAZATLAN SIN., MX","FM-12","99999","V020","270,1,N,0050,1","99999,9,9,N","026000,1,N,1","+0268,1","+0174,1","10146,1","06,0000,9,1",,,,,"01,1,+02400,1,03,1",,,"07,99,1,01,1,00,1,99999,9,03,1,04,1",,"01,9",,,,"99999,9,10141,1","7,1,011,1,+018,1",,"SYN106AAXX  27211 76458 32976 72705 10268 20174 30141 40146 57011 81034 92050 333 30/// 56099 58018 81358 86079;","Q01  00002PRCP06"
"76458099999","2005-04-28T00:00:00","4","23.2","-106.4166666","4.0","COLONIA JUAN CARRASCO MAZATLAN SIN., MX","FM-12","99999","V020","300,1,N,0030,1","99999,9,9,N","020000,1,N,1","+0262,1","+0170,1","10131,1","06,0000,9,1","24,0000,9,1",,,,"01,1,+01800,1,03,1",,,"05,99,1,01,1,00,1,99999,9,05,1,01,1",,"01,9",,"120,M,+0296,1","180,N,+0160,1","99999,9,10126,1","7,1,015,1,+010,1",,"SYN130AAXX  28001 76458 32970 53003 10262 20170 30126 40131 57015 81051 92348 333 10296 20160 30/// 50961 56/00 58010 70000 81356 84070;","Q01  00002PRCP06"
"76458099999","2005-04-28T03:00:00","4","23.2","-106.4166666","4.0","COLONIA JUAN CARRASCO MAZATLAN SIN., MX","FM-12","99999","V020","310,1,N,0030,1","05400,1,9,N","010000,1,N,1","+0235,1","+0170,1","10144,1","06,0000,9,1",,,,,"05,1,+05400,1,02,1",,,"05,99,1,00,1,00,1,99999,9,00,1,03,1",,"01,9",,,,"99999,9,10140,1","2,1,014,1,+005,1",,"SYN100AAXX  28031 76458 32960 53103 10235 20170 30140 40144 52014 80003 90245 333 30/// 56//0 58005 85268;","Q01  00002PRCP06"
"76458099999","2005-04-28T06:00:00","4","23.2","-106.4166666","4.0","COLONIA JUAN CARRASCO MAZATLAN SIN., MX","FM-12","99999","V020","330,1,N,0020,1","22000,1,9,N","008000,1,N,1","+0216,1","+0168,1","10151,1","06,0000,9,1",,,,,"00,1,+99999,9,99,9",,,"00,99,1,00,1,00,1,99999,9,00,1,00,1","0702,9","01,9",,"240,M,+0296,1","240,N,+0160,1","99999,9,10147,1","2,1,007,1,-001,1",,"SYN100AAXX  28061 76458 32958 03302 10216 20168 30147 40151 52007 90558 333 10296 20160 30/// 55117 59001;","Q01  00002PRCP06"
"76458099999","2005-04-28T09:00:00","4","23.2","-106.4166666","4.0","COLONIA JUAN CARRASCO MAZATLAN SIN., MX","FM-12","99999","V020","330,1,N,0020,1","22000,1,9,N","008000,1,N,1","+0200,1","+0160,1","10139,1","06,0000,9,1",,,,,"00,1,+99999,9,99,9",,,"00,99,1,00,1,00,1,99999,9,00,1,00,1",,"01,9",,,,"99999,9,10134,1","7,1,013,1,-003,1",,"SYN082AAXX  28091 76458 32958 03302 10200 20160 30134 40139 57013 90856 333 30/// 59003;","Q01  00002PRCP06"
"76458099999","2005-04-28T12:00:00","4","23.2","-106.4166666","4.0","COLONIA JUAN CARRASCO MAZATLAN SIN., MX","FM-12","99999","V020","330,1,N,0010,1","06000,1,9,N","008000,1,N,1","+0196,1","+0138,1","10139,1","06,0000,9,1","24,0000,9,1",,,,"07,1,+06000,1,00,1",,,"07,99,1,00,1,99,9,99999,9,99,9,06,1",,"01,9","999,+0155,1","120,N,+0190,1","240,M,+0296,1","99999,9,10134,1","5,1,000,1,-007,1",,"SYN112AAXX  28121 76458 32958 73301 10196 20138 30134 40139 55000 80//6 91140 333 10296 20190 30155 59007 70000 87070;","Q01  00002PRCP06"
"76458099999","2005-04-28T18:00:00","4","23.2","-106.4166666","4.0","COLONIA JUAN CARRASCO MAZATLAN SIN., MX","FM-12","99999","V020","250,1,N,0040,1","99999,9,9,N","020000,1,N,1","+0257,1","+0205,1","10159,1","06,0000,9,1",,,,,"02,1,+02400,1,03,1",,,"07,99,1,02,1,00,1,99999,9,03,1,04,1",,"01,9",,"120,M,+0272,1","240,N,+0188,1","99999,9,10153,1","1,1,013,1,+002,1",,"SYN118AAXX  28181 76458 32970 72504 10257 20205 30153 40159 51013 82034 91750 333 10272 20188 30/// 56099 58002 82358 85079;","Q01  00002PRCP06"
"76458099999","2005-04-28T21:00:00","4","23.2","-106.4166666","4.0","COLONIA JUAN CARRASCO MAZATLAN SIN., MX","FM-12","99999","V020","250,1,N,0040,1","99999,9,9,N","020000,1,N,1","+0264,1","+0189,1","10146,1","06,0000,9,1",,,,,"01,1,+02400,1,03,1",,,"07,99,1,01,1,00,1,99999,9,03,1,04,1",,"01,9",,,,"99999,9,10141,1","7,1,012,1,+000,1",,"SYN106AAXX  28211 76458 32970 72504 10264 20189 30141 40146 57012 81034 92050 333 30/// 56099 58000 81358 86079;","Q01  00002PRCP06"
"76458099999","2005-04-29T00:00:00","4","23.2","-106.4166666","4.0","COLONIA JUAN CARRASCO MAZATLAN SIN., MX","FM-12","99999","V020","270,1,N,0030,1","99999,9,9,N","020000,1,N,1","+0256,1","+0169,1","10137,1","06,0000,9,1","24,0000,9,1",,,,,,,"07,99,1,00,1,00,1,99999,9,00,1,03,1",,"01,9",,"120,M,+0290,1","180,N,+0188,1","99999,9,10133,1","7,1,008,1,+007,1",,"SYN124AAXX  29001 76458 32970 72703 10256 20169 30133 40137 57008 80003 92345 333 10290 20188 30/// 50401 56//9 58007 70000 87068;","Q01  00002PRCP06"
"76458099999","2005-04-29T06:00:00","4","23.2","-106.4166666","4.0","COLONIA JUAN CARRASCO MAZATLAN SIN., MX","FM-12","99999","V020","330,1,N,0020,1","22000,1,9,N","010000,1,N,1","+0218,1","+0188,1","10152,1","06,0000,9,1",,,,,"00,1,+99999,9,99,9",,,"00,99,1,00,1,00,1,99999,9,00,1,00,1","0630,9","01,9",,"240,M,+0290,1","240,N,+0188,1","99999,9,10147,1","2,1,009,1,-001,1",,"SYN100AAXX  29061 76458 32960 03302 10218 20188 30147 40152 52009 90557 333 10290 20188 30/// 55105 59001;","Q01  00002PRCP06"
"76458099999","2005-04-29T12:00:00","4","23.2","-106.4166666","4.0","COLONIA JUAN CARRASCO MAZATLAN SIN., MX","FM-12","99999","V020","120,1,N,0020,1","22000,1,9,N","010000,1,N,1","+0186,1","+0161,1","10136,1","06,0000,9,1","24,0000,9,1",,,,"00,1,+99999,9,99,9",,,"00,99,1,00,1,00,1,99999,9,00,1,00,1",,"01,9","999,+0160,1","120,N,+0180,1","240,M,+0290,1","99999,9,10132,1","5,1,000,1,-002,1",,"SYN100AAXX  29121 76458 32960 01202 10186 20161 30132 40136 55000 91140 333 10290 20180 30160 59002 70000;","Q01  00002PRCP06Q02  00002PRCP24"
"76458099999","2005-04-29T15:00:00","4","23.2","-106.4166666","4.0","COLONIA JUAN CARRASCO MAZATLAN SIN., MX","FM-12","99999","V020","360,1,N,0020,1","22000,1,9,N","016000,1,N,1","+0224,1","+0167,1","10160,1","06,0000,9,1",,,,,"01,1,+06000,1,01,1",,,"01,99,1,00,1,99,9,99999,9,99,9,09,1",,"01,9",,,,"99999,9,10155,1","2,1,023,1,+014,1",,"SYN100AAXX  29151 76458 32966 13602 10224 20167 30155 40160 52023 80//9 91440 333 30/// 56//9 58014 81170;","Q01  00002PRCP06"
"76458099999","2005-04-29T18:00:00","4","23.2","-106.4166666","4.0","COLONIA JUAN CARRASCO MAZATLAN SIN., MX","FM-12","99999","V020","250,1,N,0030,1","22000,1,9,N","020000,1,N,1","+0250,1","+0162,1","10143,1","06,0000,9,1",,,,,"00,1,+99999,9,99,9",,,"00,99,1,00,1,00,1,99999,9,00,1,00,1",,"01,9",,"120,M,+0279,1","240,N,+0178,1","99999,9,10138,1","7,1,017,1,-015,1",,"SYN094AAXX  29181 76458 32970 02503 10250 20162 30138 40143 57017 91750 333 10279 20178 30/// 59015;","Q01  00002PRCP06"
"76458099999","2005-04-29T21:00:00","4","23.2","-106.4166666","4.0","COLONIA JUAN CARRASCO MAZATLAN SIN., MX","FM-12","99999","V020","270,1,N,0040,1","22000,1,9,N","020000,1,N,1","+0265,1","+0184,1","10126,1","06,0000,9,1",,,,,"00,1,+99999,9,99,9",,,"00,99,1,00,1,00,1,99999,9,00,1,00,1",,"01,9",,,,"99999,9,10121,1","7,1,017,1,-020,1",,"SYN082AAXX  29211 76458 32970 02704 10265 20184 30121 40126 57017 92045 333 30/// 59020;","Q01  00002PRCP06"
"76458099999","2005-04-30T00:00:00","4","23.2","-106.4166666","4.0","COLONIA JUAN CARRASCO MAZATLAN SIN., MX","FM-12","99999","V020","300,1,N,0070,1","22000,1,9,N","020000,1,N,1","+0265,1","+0150,1","10109,1","06,0000,9,1","24,0000,9,1",,,,,,,"03,99,1,00,1,00,1,99999,9,00,1,03,1",,"01,9",,"120,M,+0287,1","180,N,+0178,1","99999,9,10105,1","7,1,016,1,-028,1",,"SYN124AAXX  30001 76458 32970 33007 10265 20150 30105 40109 57016 80003 92345 333 10287 20178 30/// 50551 56//0 59028 70000 83070;","Q01  00002PRCP06"
"76458099999","2005-04-30T03:00:00","4","23.2","-106.4166666","4.0","COLONIA JUAN CARRASCO MAZATLAN SIN., MX","FM-12","99999","V020","310,1,N,0050,1","22000,1,9,N","010000,1,N,1","+0235,1","+0172,1","10122,1","06,0000,9,1",,,,,"02,1,+06000,1,00,1",,,"02,99,1,00,1,00,1,99999,9,00,1,01,1",,"01,9",,,,"99999,9,10117,1","2,1,012,1,-021,1",,"SYN100AAXX  30031 76458 32960 23105 10235 20172 30117 40122 52012 80001 90245 333 30/// 56//0 59021 82070;","Q01  00002PRCP06"
"76458099999","2005-04-30T09:00:00","4","23.2","-106.4166666","4.0","COLONIA JUAN CARRASCO MAZATLAN SIN., MX","FM-12","99999","V020","290,1,N,0020,1","22000,1,9,N","008000,1,N,1","+0204,1","+0163,1","10123,1","06,0000,9,1",,,,,"01,1,+05400,1,00,1",,,"01,99,1,00,1,00,1,99999,9,00,1,06,1",,"01,9",,,,"99999,9,10118,1","7,1,009,1,-014,1",,"SYN100AAXX  30091 76458 32958 12902 10204 20163 30118 40123 57009 80006 90845 333 30/// 56//9 59014 81068;","Q01  00002PRCP06"
"76458099999","2005-04-30T12:00:00","4","23.2","-106.4166666","4.0","COLONIA JUAN CARRASCO MAZATLAN SIN., MX","FM-12","99999","V020","300,1,N,0020,1","22000,1,9,N","010000,1,N,1","+0182,1","+0124,1","10123,1","06,0000,9,1","24,0000,9,1",,,,"02,1,+06000,1,00,1",,,"02,99,1,00,1,00,1,99999,9,00,1,01,1",,,,"120,N,+0173,1","240,M,+0287,1","99999,9,10119,1","0,1,001,1,-013,1",,"SYN112AAXX  30121 76458 32960 23002 10182 20124 30119 40123 50001 80001 91148 333 10287 20173 56//0 59013 70000 82070;","Q01  00002PRCP06"
"76458099999","2005-04-30T15:00:00","4","23.2","-106.4166666","4.0","COLONIA JUAN CARRASCO MAZATLAN SIN., MX","FM-12","99999","V020","330,1,N,0010,1","22000,1,9,N","020000,1,N,1","+0231,1","+0120,1","10139,1","06,0000,9,1",,,,,"02,1,+06000,1,00,1",,,"02,99,1,00,1,00,1,99999,9,00,1,01,1",,"01,9",,,,"99999,9,10134,1","2,1,015,1,-021,1",,"SYN100AAXX  30151 76458 32970 23301 10231 20120 30134 40139 52015 80001 91448 333 30/// 56//0 59021 82070;","Q01  00002PRCP06"
"76458099999","2005-04-30T18:00:00","4","23.2","-106.4166666","4.0","COLONIA JUAN CARRASCO MAZATLAN SIN., MX","FM-12","99999","V020","250,1,N,0030,1","22000,1,9,N","006000,1,N,1","+0243,1","+0154,1","10131,1","06,0000,9,1",,,,,"00,1,+99999,9,99,9",,,"00,99,1,00,1,00,1,99999,9,00,1,00,1",,"01,9",,"120,M,+0272,1","240,N,+0170,1","99999,9,10127,1","8,1,007,1,-011,1",,"SYN094AAXX  30181 76458 32956 02503 10243 20154 30127 40131 58007 91745 333 10272 20170 30/// 59011;","Q01  00002PRCP06"
"76458099999","2005-04-30T21:00:00","4","23.2","-106.4166666","4.0","COLONIA JUAN CARRASCO MAZATLAN SIN., MX","FM-12","99999","V020","280,1,N,0050,1","22000,1,9,N","020000,1,N,1","+0259,1","+0163,1","10120,1","06,0000,9,1",,,,,"00,1,+99999,9,99,9",,,"00,99,1,00,1,00,1,99999,9,00,1,00,1",,"01,9",,,,"99999,9,10116,1","7,1,011,1,-005,1",,"SYN082AAXX  30211 76458 32970 02805 10259 20163 30116 40120 57011 92045 333 30/// 59005;","Q01  00002PRCP06"
"76458099999","2005-05-01T00:00:00","4","23.2","-106.4166666","4.0","COLONIA JUAN CARRASCO MAZATLAN SIN., MX","FM-12","99999","V020","280,1,N,0050,1","22000,1,9,N","020000,1,N,1","+0248,1","+0183,1","10112,1","06,0000,9,1","24,0000,9,1",,,,"00,1,+99999,9,99,9",,,"00,99,1,00,1,00,1,99999,9,00,1,00,1",,"01,9",,"120,M,+0280,1","180,N,+0170,1","99999,9,10107,1","7,1,009,1,+002,1",,"SYN100AAXX  01001 76458 32970 02805 10248 20183 30107 40112 57009 92340 333 10280 20170 30/// 58002 70000;","Q01  00002PRCP06Q02  00002PRCP24"
"76458099999","2005-05-01T03:00:00","4","23.2","-106.4166666","4.0","COLONIA JUAN CARRASCO MAZATLAN SIN., MX","FM-12","99999","V020","300,1,N,0030,1","22000,1,9,N","008000,1,N,1","+0224,1","+0183,1","10122,1","06,0000,9,1",,,,,"00,1,+99999,9,99,9",,,"00,99,1,00,1,00,1,99999,9,00,1,00,1",,"01,9",,,,"99999,9,10179,2","2,1,011,1,+001,1",,"SYN082AAXX  01031 76458 32958 03003 10224 20183 30179 40122 52011 90240 333 30/// 58001;","Q01  00002PRCP06"
"76458099999","2005-05-01T06:00:00","4","23.2","-106.4166666","4.0","COLONIA JUAN CARRASCO MAZATLAN SIN., MX","FM-12","99999","V020","330,1,N,0020,1","22000,1,9,N","008000,1,N,1","+0207,1","+0176,1","10132,1","06,0000,9,1",,,,,"00,1,+99999,9,99,9",,,"00,99,1,00,1,00,1,99999,9,00,1,00,1","0720,9","01,9",,"240,M,+0280,1","240,N,+0170,1","99999,9,10127,1","0,1,009,1,+999,9",,"SYN106AAXX  01061 76458 32958 03302 10207 20176 30127 40132 50009 90556 333 10280 20170 30/// 55120 2//// 59000;","Q01  00002PRCP06"
"76458099999","2005-05-01T09:00:00","4","23.2","-106.4166666","4.0","COLONIA JUAN CARRASCO MAZATLAN SIN., MX","FM-12","99999","V020","030,1,N,0010,1","22000,1,9,N","008000,1,N,1","+0194,1","+0170,1","10130,1","06,0000,9,1",,,,,"00,1,+99999,9,99,9",,,"00,99,1,00,1,00,1,99999,9,00,1,00,1",,"01,9",,,,"99999,9,10126,1","4,1,000,1,+008,1",,"SYN082AAXX  01091 76458 32958 00301 10194 20170 30126 40130 54001 90846 333 30/// 58008;","Q01  00002PRCP06"
"76458099999","2005-05-01T12:00:00","4","23.2","-106.4166666","4.0","COLONIA JUAN CARRASCO MAZATLAN SIN., MX","FM-12","99999","V020","999,9,C,0000,1","22000,1,9,N","008000,1,N,1","+0181,1","+0167,1","10133,1","06,0000,9,1","24,0000,9,1",,,,"00,1,+99999,9,99,9",,,"00,99,1,00,1,00,1,99999,9,00,1,00,1",,"01,9","999,+0120,1","120,N,+0172,1","240,M,+0280,1","99999,9,10130,1","3,1,004,1,+011,1",,"SYN100AAXX  01121 76458 32958 00900 10181 20167 30130 40133 53004 91150 333 10280 20172 30120 58011 70000;","Q01  00002PRCP06Q02  00002PRCP24"
"76458099999","2005-05-01T15:00:00","4","23.2","-106.4166666","4.0","COLONIA JUAN CARRASCO MAZATLAN SIN., MX","FM-12","99999","V020","030,1,N,0020,1","22000,1,9,N","016000,1,N,1","+0218,1","+0173,1","10145,1","06,0000,9,1",,,"4,1,03,1","0,1,03,1","00,1,+99999,9,99,9",,,"00,99,1,00,1,00,1,99999,9,00,1,00,1",,"01,9",,,,"99999,9,10141,1","2,1,011,1,+007,1","05,1","SYN088AAXX  01151 76458 31966 00302 10218 20173 30141 40145 52011 70540 91440 333 30/// 58007;","Q01  00002PRCP06"
"76458099999","2005-05-01T18:00:00","4","23.2","-106.4166666","4.0","COLONIA JUAN CARRASCO MAZATLAN SIN., MX","FM-12","99999","V020","250,1,N,0030,1","22000,1,9,N","015000,1,N,1","+0245,1","+0185,1","10147,1","06,0000,9,1",,,,,"00,1,+99999,9,99,9",,,"00,99,1,00,1,00,1,99999,9,00,1,00,1",,"01,9",,"120,M,+0269,1","240,N,+0170,1","99999,9,10142,1","0,1,001,1,+019,1",,"SYN094AAXX  01181 76458 32965 02503 10245 20185 30142 40147 50001 91745 333 10269 20170 30/// 58019;","Q01  00002PRCP06"
"76458099999","2005-05-01T21:00:00","4","23.2","-106.4166666","4.0","COLONIA JUAN CARRASCO MAZATLAN SIN., MX","FM-12","99999","V020","250,1,N,0040,1","22000,1,9,N","020000,1,N,1","+0251,1","+0191,1","10136,1","06,0000,9,1",,,,,"00,1,+99999,9,99,9",,,"00,99,1,00,1,00,1,99999,9,00,1,00,1",,"01,9",,,,"99999,9,10131,1","7,1,011,1,+015,1",,"SYN082AAXX  01211 76458 32970 02504 10251 20191 30131 40136 57011 92045 333 30/// 58015;","Q01  00002PRCP06"
"76458099999","2005-05-02T03:00:00","4","23.2","-106.4166666","4.0","COLONIA JUAN CARRASCO MAZATLAN SIN., MX","FM-12","99999","V020","300,1,N,0020,1","22000,1,9,N","010000,1,N,1","+0228,1","+0167,1","10136,1","06,0000,9,1",,,,,"00,1,+99999,9,99,9",,,"00,99,1,00,1,00,1,99999,9,00,1,00,1",,"01,9",,,,"99999,9,10131,1","4,1,000,1,+014,1",,"SYN082AAXX  02031 76458 32960 03002 10228 20167 30131 40136 54000 90255 333 30/// 58014;","Q01  00002PRCP06"
"76458099999","2005-05-02T06:00:00","4","23.2","-106.4166666","4.0","COLONIA JUAN CARRASCO MAZATLAN SIN., MX","FM-12","99999","V020","330,1,N,0020,1","22000,1,9,N","010000,1,N,1","+0217,1","+0185,1","10145,1","06,0000,9,1",,,,,"00,1,+99999,9,99,9",,,"00,99,1,00,1,00,1,99999,9,00,1,00,1","0684,9","01,9",,"240,M,+0284,1","240,N,+0190,1","99999,9,10141,1","1,1,010,1,+999,9",,"SYN106AAXX  02061 76458 32960 03302 10217 20185 30141 40145 51010 90548 333 10284 20190 30/// 55114 2//// 58014;","Q01  00002PRCP06"
"76458099999","2005-05-02T12:00:00","4","23.2","-106.4166666","4.0","COLONIA JUAN CARRASCO MAZATLAN SIN., MX","FM-12","99999","V020","340,1,N,0020,1","22000,1,9,N","012000,1,N,1","+0187,1","+0164,1","10136,1","06,0000,9,1","24,0000,9,1",,,,"00,1,+99999,9,99,9",,,"00,99,1,00,1,00,1,99999,9,00,1,00,1",,"01,9","999,+0110,1","120,N,+0180,1","240,M,+0284,1","99999,9,10132,1","3,1,003,1,+002,1",,"SYN100AAXX  02121 76458 32962 03402 10187 20164 30132 40136 53003 91200 333 10284 20180 30110 58002 70000;","Q01  00002PRCP06Q02  00002PRCP24"
"76458099999","2005-05-02T15:00:00","4","23.2","-106.4166666","4.0","COLONIA JUAN CARRASCO MAZATLAN SIN., MX","FM-12","99999","V020","270,1,N,0020,1","22000,1,9,N","020000,1,N,1","+0224,1","+0171,1","10145,1","06,0000,9,1",,,,,"00,1,+99999,9,99,9",,,"00,99,1,00,1,00,1,99999,9,00,1,00,1",,"01,9",,,,"99999,9,10140,1","2,1,008,1,+000,1",,"SYN082AAXX  02151 76458 32970 02702 10224 20171 30140 40145 52008 91450 333 30/// 59000;","Q01  00002PRCP06"
"76458099999","2005-05-02T18:00:00","4","23.2","-106.4166666","4.0","COLONIA JUAN CARRASCO MAZATLAN SIN., MX","FM-12","99999","V020","240,1,N,0030,1","22000,1,9,N","020000,1,N,1","+0250,1","+0189,1","10151,1","06,0000,9,1",,,,,"00,1,+99999,9,99,9",,,"00,99,1,00,1,00,1,99999,9,00,1,00,1",,"01,9",,"120,M,+0266,1","240,N,+0178,1","99999,9,10147,1","2,1,007,1,+005,1",,"SYN094AAXX  02181 76458 32970 02403 10250 20189 30147 40151 52007 91756 333 10266 20178 30/// 58005;","Q01  00002PRCP06"
"76458099999","2005-05-03T00:00:00","4","23.2","-106.4166666","4.0","COLONIA JUAN CARRASCO MAZATLAN SIN., MX","FM-12","99999","V020","270,1,N,0030,1","22000,1,9,N","020000,1,N,1","+0254,1","+0184,1","10141,1","06,0000,9,1","24,0000,9,1",,,,"00,1,+99999,9,99,9",,,"00,99,1,00,1,00,1,99999,9,00,1,00,1",,"01,9",,"120,M,+0290,1","180,N,+0178,1","99999,9,10137,1","3,1,002,1,+001,1",,"SYN106AAXX  03001 76458 32970 02703 10254 20184 30137 40141 53002 92340 333 10290 20178 30/// 50461 58001 70000;","Q01  00002PRCP06Q02  00002PRCP24"
"76458099999","2005-05-03T03:00:00","4","23.2","-106.4166666","4.0","COLONIA JUAN CARRASCO MAZATLAN SIN., MX","FM-12","99999","V020","260,1,N,0040,1","22000,1,9,N","010000,1,N,1","+0240,1","+0178,1","10142,1","06,0000,9,1",,,,,"00,1,+99999,9,99,9",,,"00,99,1,00,1,00,1,99999,9,00,1,00,1",,"01,9",,,,"99999,9,10137,1","7,1,032,1,+013,1",,"SYN082AAXX  03031 76458 32960 02604 10240 20178 30137 40142 57032 90240 333 30/// 58013;","Q01  00002PRCP06"
"76458099999","2005-05-03T06:00:00","4","23.2","-106.4166666","4.0","COLONIA JUAN CARRASCO MAZATLAN SIN., MX","FM-12","99999","V020","360,1,N,0020,1","22000,1,9,N","008000,1,N,1","+0215,1","+0176,1","10142,1","06,0000,9,1",,,,,"00,1,+99999,9,99,9",,,"00,99,1,00,1,00,1,99999,9,00,1,00,1","0696,9","01,9",,"240,M,+0290,1","240,N,+0178,1","99999,9,10138,1","2,1,010,1,+999,9",,"SYN106AAXX  03061 76458 32958 03602 10215 20176 30138 40142 52010 90548 333 10290 20178 30/// 55116 2//// 59003;","Q01  00002PRCP06"
"76458099999","2005-05-03T09:00:00","4","23.2","-106.4166666","4.0","COLONIA JUAN CARRASCO MAZATLAN SIN., MX","FM-12","99999","V020","070,1,N,0010,1","22000,1,9,N","008000,1,N,1","+0200,1","+0187,1","10133,1","06,0000,9,1",,,,,"00,1,+99999,9,99,9",,,"00,99,1,00,1,00,1,99999,9,00,1,00,1",,"01,9",,,,"99999,9,10129,1","4,1,000,1,+000,1",,"SYN082AAXX  03091 76458 32958 00701 10200 20187 30129 40133 54001 90848 333 30/// 58000;","Q01  00002PRCP06"
"76458099999","2005-05-03T18:00:00","4","23.2","-106.4166666","4.0","COLONIA JUAN CARRASCO MAZATLAN SIN., MX","FM-12","99999","V020","240,1,N,0030,1","22000,1,9,N","020000,1,N,1","+0256,1","+0172,1","10148,1","06,0000,9,1",,,,,"00,1,+99999,9,99,9",,,"00,99,1,00,1,00,1,99999,9,00,1,00,1",,"01,9",,"120,M,+0281,1","240,N,+0169,1","99999,9,10144,1","0,1,000,1,-003,1",,"SYN094AAXX  03181 76458 32970 02403 10256 20172 30144 40148 50000 91745 333 10281 20169 30/// 59003;","Q01  00002PRCP06"
"76458099999","2005-05-03T21:00:00","4","23.2","-106.4166666","4.0","COLONIA JUAN CARRASCO MAZATLAN SIN., MX","FM-12","99999","V020","190,1,N,0040,1","22000,1,9,N","020000,1,N,1","+0261,1","+0163,1","10134,1","06,0000,9,1",,,,,"00,1,+99999,9,99,9",,,"00,99,1,00,1,00,1,99999,9,00,1,00,1",,"01,9",,,,"99999,9,10130,1","7,1,014,1,-005,1",,"SYN082AAXX  03211 76458 32970 01904 10261 20163 30130 40134 57014 92045 333 30/// 59005;","Q01  00002PRCP06"
"76458099999","2005-05-04T00:00:00","4","23.2","-106.4166666","4.0","COLONIA JUAN CARRASCO MAZATLAN SIN., MX","FM-12","99999","V020","250,1,N,0030,1","22000,1,9,N","020000,1,N,1","+0262,1","+0196,1","10124,1","06,0000,9,1",,,,,"00,1,+99999,9,99,9",,,"00,99,1,00,1,00,1,99999,9,00,1,00,1","0294,9","01,9",,"120,M,+0291,1","180,N,+0169,1","99999,9,10118,1","7,1,016,1,-017,1",,"SYN100AAXX  04001 76458 32970 02503 10262 20196 30118 40124 57016 92358 333 10291 20169 30/// 55049 59017;","Q01  00002PRCP06"
"76458099999","2005-05-04T12:00:00","4","23.2","-106.4166666","4.0","COLONIA JUAN CARRASCO MAZATLAN SIN., MX","FM-12","99999","V020","999,9,C,0000,1","22000,1,9,N","012000,1,N,1","+0183,1","+0163,1","10132,1","06,0000,9,1","24,0000,9,1",,,,"00,1,+99999,9,99,9",,,"00,99,1,00,1,00,1,99999,9,00,1,00,1",,"01,9","999,+0130,1","120,N,+0178,1","240,M,+0291,1","99999,9,10128,1","5,1,002,1,+001,1",,"SYN100AAXX  04121 76458 32962 00000 10183 20163 30128 40132 55002 91156 333 10291 20178 30130 58001 70000;","Q01  00002PRCP06Q02  00002PRCP24"
"76458099999","2005-05-04T15:00:00","4","23.2","-106.4166666","4.0","COLONIA JUAN CARRASCO MAZATLAN SIN., MX","FM-12","99999","V020","120,1,N,0010,1","22000,1,9,N","012000,1,N,1","+0230,1","+0186,1","10143,1","06,0000,9,1",,,,,"00,1,+99999,9,99,9",,,"00,99,1,00,1,00,1,99999,9,00,1,00,1",,"01,9",,,,"99999,9,10139,1","2,1,011,1,-005,1",,"SYN082AAXX  04151 76458 32962 01201 10230 20186 30139 40143 52011 91450 333 30/// 59005;","Q01  00002PRCP06"
"76458099999","2005-05-04T18:00:00","4","23.2","-106.4166666","4.0","COLONIA JUAN CARRASCO MAZATLAN SIN., MX","FM-12","99999","V020","240,1,N,0030,1","22000,1,9,N","018000,1,N,1","+0240,1","+0192,1","10146,1","06,0000,9,1",,,,,"00,1,+99999,9,99,9",,,"00,99,1,00,1,00,1,99999,9,00,1,00,1",,"01,9",,"120,M,+0270,1","240,N,+0175,1","99999,9,10141,1","2,1,002,1,-003,1",,"SYN094AAXX  04181 76458 32968 02403 10240 20192 30141 40146 52002 91747 333 10270 20175 30/// 59003;","Q01  00002PRCP06"
"76458099999","2005-05-05T03:00:00","4","23.2","-106.4166666","4.0","COLONIA JUAN CARRASCO MAZATLAN SIN., MX","FM-12","99999","V020","290,1,N,0020,1","22000,1,9,N","010000,1,N,1","+0232,1","+0200,1","10125,1","06,0000,9,1",,,,,"00,1,+99999,9,99,9",,,"00,99,1,00,1,00,1,99999,9,00,1,00,1",,"01,9",,,,"99999,9,10120,1","4,1,000,1,-007,1",,"SYN082AAXX  05031 76458 32960 02902 10232 20200 30120 40125 54001 90240 333 30/// 59007;","Q01  00002PRCP06"
"76458099999","2005-05-05T06:00:00","4","23.2","-106.4166666","4.0","COLONIA JUAN CARRASCO MAZATLAN SIN., MX","FM-12","99999","V020","300,1,N,0020,1","22000,1,9,N","008000,1,N,1","+0222,1","+0205,1","10140,1","06,0000,9,1",,,,,,,,"01,99,1,01,1,00,1,99999,9,05,1,00,1","0672,9","01,9",,"240,M,+0285,1","240,N,+0175,1","99999,9,10135,1","2,1,015,1,-010,1",,"SYN124AAXX  05061 76458 32958 13002 10222 20205 30135 40140 52015 81050 90548 333 10285 20175 30/// 55112 2//// 56/0/ 59010 81358;","Q01  00002PRCP06"
"76458099999","2005-05-05T09:00:00","4","23.2","-106.4166666","4.0","COLONIA JUAN CARRASCO MAZATLAN SIN., MX","FM-12","99999","V020","110,1,N,0020,1","22000,1,9,N","008000,1,N,1","+0213,1","+0196,1","10137,1","06,0000,9,1",,,,,"01,1,+01800,1,03,1",,,"01,99,1,01,1,00,1,99999,9,05,1,00,1",,"01,9",,,,"99999,9,10133,1","0,1,002,1,+003,1",,"SYN100AAXX  05091 76458 32958 11102 10213 20196 30133 40137 50002 81050 90848 333 30/// 56/0/ 58003 81356;","Q01  00002PRCP06"
"76458099999","2005-05-05T15:00:00","4","23.2","-106.4166666","4.0","COLONIA JUAN CARRASCO MAZATLAN SIN., MX","FM-12","99999","V020","150,1,N,0010,1","00060,1,9,N","000800,1,N,1","+0199,1","+0190,1","10149,1","06,0000,9,1",,,"4,1,03,1","4,1,03,1","09,1,+99999,9,99,9",,,"09,99,1,09,1,99,9,99999,9,99,9,99,9",,"01,9",,,,"99999,9,10145,1","2,1,013,1,+006,1","43,1","SYN094AAXX  05151 76458 31508 91501 10199 20190 30145 40149 52013 74344 89/// 91448 333 30/// 58006;","Q01  00002PRCP06"
"76458099999","2005-05-05T18:00:00","4","23.2","-106.4166666","4.0","COLONIA JUAN CARRASCO MAZATLAN SIN., MX","FM-12","99999","V020","250,1,N,0030,1","22000,1,9,N","016000,1,N,1","+0254,1","+0184,1","10148,1","06,0000,9,1",,,"4,1,06,1","4,1,06,1","01,1,+05400,1,00,1",,,"01,99,1,00,1,00,1,99999,9,00,1,06,1",,"01,9",,"120,M,+0275,1","240,N,+0170,1","99999,9,10144,1","8,1,001,1,+003,1","02,1","SYN118AAXX  05181 76458 31966 12503 10254 20184 30144 40148 58001 70244 80006 91745 333 10275 20170 30/// 56//9 58003 81068;","Q01  00002PRCP06"
"76458099999","2005-05-06T03:00:00","4","23.2","-106.4166666","4.0","COLONIA JUAN CARRASCO MAZATLAN SIN., MX","FM-12","99999","V020","290,1,N,0010,1","22000,1,9,N","020000,1,N,1","+0234,1","+0187,1","10150,1","06,0000,9,1",,,,,"00,1,+99999,9,99,9",,,"00,99,1,00,1,00,1,99999,9,00,1,00,1",,"01,9",,,,"99999,9,10145,1","8,1,018,1,+013,1",,"SYN082AAXX  06031 76458 32970 02901 10234 20187 30145 40150 58018 90250 333 30/// 58013;","Q01  00002PRCP06"
"76458099999","2005-05-06T12:00:00","4","23.2","-106.4166666","4.0","COLONIA JUAN CARRASCO MAZATLAN SIN., MX","FM-12","99999","V020","340,1,N,0010,1","22000,1,9,N","010000,1,N,1","+0192,1","+0187,1","10140,1","06,0000,9,1","24,0000,9,1",,,,"03,1,+00270,1,08,1",,,"03,99,1,03,1,01,1,00150,1,00,1,00,1",,"01,9","999,+0156,1","120,N,+0168,1","240,M,+0275,1","99999,9,10136,1","4,1,000,1,+004,1",,"SYN118AAXX  06121 76458 32260 33401 10192 20187 30136 40140 54002 83100 91145 333 10275 20168 30156 56700 58004 70000 83809;","Q01  00002PRCP06"
"76458099999","2005-05-06T15:00:00","4","23.2","-106.4166666","4.0","COLONIA JUAN CARRASCO MAZATLAN SIN., MX","FM-12","99999","V020","360,1,N,0020,1","22000,1,9,N","015000,1,N,1","+0220,1","+0190,1","10152,1","06,0000,9,1",,,,,"04,1,+00150,1,00,1",,,"04,99,1,00,1,00,1,99999,9,00,1,06,1",,"01,9",,,,"99999,9,10147,1","2,1,010,1,+002,1",,"SYN100AAXX  06151 76458 32965 43602 10220 20190 30147 40152 52010 80006 91441 333 30/// 56009 58002 84092;","Q01  00002PRCP06"
"76458099999","2005-05-06T18:00:00","4","23.2","-106.4166666","4.0","COLONIA JUAN CARRASCO MAZATLAN SIN., MX","FM-12","99999","V020","210,1,N,0030,1","05400,1,9,N","018000,1,N,1","+0250,1","+0203,1","10151,1","06,0000,9,1",,,,,"05,1,+05400,1,00,1",,,"05,99,1,00,1,00,1,99999,9,00,1,01,1",,"01,9",,"120,M,+0276,1","240,N,+0165,1","99999,9,10146,1","8,1,001,1,+002,1",,"SYN112AAXX  06181 76458 32968 52103 10250 20203 30146 40151 58001 80001 91745 333 10276 20165 30/// 56//9 58002 85068;","Q01  00002PRCP06"
"76458099999","2005-05-06T21:00:00","4","23.2","-106.4166666","4.0","COLONIA JUAN CARRASCO MAZATLAN SIN., MX","FM-12","99999","V020","270,1,N,0040,1","22000,1,9,N","018000,1,N,1","+0257,1","+0207,1","10140,1","06,0000,9,1",,,,,"04,1,+05400,1,00,1",,,"04,99,1,00,1,00,1,99999,9,00,1,01,1",,"01,9",,,,"99999,9,10136,1","7,1,010,1,+001,1",,"SYN094AAXX  06211 76458 32968 42704 10257 20207 30136 40140 57010 80001 92045 333 30/// 58001 84068;","Q01  00002PRCP06"
"76458099999","2005-05-07T00:00:00","4","23.2","-106.4166666","4.0","COLONIA JUAN CARRASCO MAZATLAN SIN., MX","FM-12","99999","V020","260,1,N,0010,1","22000,1,9,N","020000,1,N,1","+0260,1","+0222,1","10140,1","06,0000,9,1","24,0000,9,1",,,,"00,1,+99999,9,99,9",,,"00,99,1,00,1,00,1,99999,9,00,1,00,1",,"01,9",,"120,M,+0290,1","180,N,+0165,1","99999,9,10135,1","4,1,000,1,+008,1",,"SYN106AAXX  07001 76458 32970 02601 10260 20222 30135 40140 54000 92350 333 10290 20165 30/// 50481 58008 70000;","Q01  00002PRCP06Q02  00002PRCP24"
"76458099999","2005-05-07T03:00:00","4","23.2","-106.4166666","4.0","COLONIA JUAN CARRASCO MAZATLAN SIN., MX","FM-12","99999","V020","260,1,N,0020,1","22000,1,9,N","010000,1,N,1","+0234,1","+0200,1","10141,1","06,0000,9,1",,,,,"00,1,+99999,9,99,9",,,"00,99,1,00,1,00,1,99999,9,00,1,00,1",,"01,9",,,,"99999,9,10138,1","2,1,001,1,-009,1",,"SYN082AAXX  07031 76458 32960 02602 10234 20200 30138 40141 52001 90250 333 30/// 59009;","Q01  00002PRCP06"
"76458099999","2005-05-07T06:00:00","4","23.2","-106.4166666","4.0","COLONIA JUAN CARRASCO MAZATLAN SIN., MX","FM-12","99999","V020","310,1,N,0020,1","22000,1,9,N","010000,1,N,1","+0221,1","+0202,1","10142,1","06,0000,9,1",,,,,"00,1,+99999,9,99,9",,,"00,99,1,00,1,00,1,99999,9,00,1,00,1","0630,9","01,9",,"240,M,+0290,1","240,N,+0165,1","99999,9,10138,1",,,"SYN106AAXX  07061 76458 32960 03102 10221 20202 30138 40142 5//// 90548 333 10290 20165 30/// 55105 2//// 59008;","Q01  00002PRCP06"
"76458099999","2005-05-07T12:00:00","4","23.2","-106.4166666","4.0","COLONIA JUAN CARRASCO MAZATLAN SIN., MX","FM-12","99999","V020","030,1,N,0020,1","22000,1,9,N","000100,1,N,1","+0190,1","+0181,1","10129,1","06,0000,9,1","24,0000,9,1",,"4,1,06,1","0,1,06,1","00,1,+99999,9,99,9",,,"00,99,1,00,1,00,1,99999,9,00,1,00,1",,"01,9","999,+0149,1","120,N,+0160,1","240,M,+0290,1","99999,9,10124,1","7,1,008,1,-013,1","05,1","SYN106AAXX  07121 76458 31901 00302 10190 20181 30124 40129 57008 70540 91148 333 10290 20160 30149 59013 70000;","Q01  00002PRCP06Q02  00002PRCP24"
"76458099999","2005-05-07T21:00:00","4","23.2","-106.4166666","4.0","COLONIA JUAN CARRASCO MAZATLAN SIN., MX","FM-12","99999","V020","270,1,N,0030,1","22000,1,9,N","020000,1,N,1","+0272,1","+0211,1","10132,1","06,0000,9,1",,,,,"01,1,+08700,1,00,1",,,"01,99,1,00,1,00,1,99999,9,00,1,05,1",,"01,9",,,,"99999,9,10128,1","2,1,012,1,-008,1",,"SYN100AAXX  07211 76458 32970 12703 10272 20211 30128 40132 52012 80005 92050 333 30/// 56003 59008 81079;","Q01  00002PRCP06"
"76458099999","2005-05-08T00:00:00","4","23.2","-106.4166666","4.0","COLONIA JUAN CARRASCO MAZATLAN SIN., MX","FM-12","99999","V020","290,1,N,0020,1","22000,1,9,N","020000,1,N,1","+0200,1","+9999,9","10130,1","06,0000,9,1","24,0000,9,1",,,,"00,1,+99999,9,99,9",,,"00,99,1,00,1,00,1,99999,9,00,1,00,1",,"01,9",,"120,M,+0270,1","180,N,+0148,1","99999,9,10134,1","3,1,010,1,+001,1",,"SYN106AAXX  08001 76458 32970 02902 10200 20218 30134 40130 53010 92350 333 10270 20148 30/// 50261 58001 70000;","Q01  00002PRCP06Q02  00002PRCP24"
"76458099999","2005-05-08T09:00:00","4","23.2","-106.4166666","4.0","COLONIA JUAN CARRASCO MAZATLAN SIN., MX","FM-12","99999","V020","300,1,N,0020,1","22000,1,9,N","008000,1,N,1","+0220,1","+0204,1","10131,1","06,0000,9,1",,,,,"00,1,+99999,9,99,9",,,"00,99,1,00,1,00,1,99999,9,00,1,00,1",,"01,9",,,,"99999,9,10126,1","6,1,008,1,-006,1",,"SYN082AAXX  08091 76458 32958 03002 10220 20204 30126 40131 56008 90848 333 30/// 59006;","Q01  00002PRCP06"
"76458099999","2005-05-08T12:00:00","4","23.2","-106.4166666","4.0","COLONIA JUAN CARRASCO MAZATLAN SIN., MX","FM-12","99999","V020","330,1,N,0020,1","22000,1,9,N","016000,1,N,1","+0187,1","+0169,1","10128,1","06,0000,9,1","24,0000,9,1",,,,"00,1,+99999,9,99,9",,,"00,99,1,00,1,00,1,99999,9,00,1,00,1",,"01,9","999,+0144,1","120,N,+0150,1","240,M,+0290,1","99999,9,10123,1","5,1,003,1,-001,1",,"SYN100AAXX  08121 76458 32966 03302 10187 20169 30123 40128 55003 91158 333 10290 20150 30144 59001 70000;","Q01  00002PRCP06Q02  00002PRCP24"
"76458099999","2005-05-08T15:00:00","4","23.2","-106.4166666","4.0","COLONIA JUAN CARRASCO MAZATLAN SIN., MX","FM-12","99999","V020","150,1,N,0020,1","22000,1,9,N","020000,1,N,1","+0237,1","+0166,1","10140,1","06,0000,9,1",,,,,"00,1,+99999,9,99,9",,,"00,99,1,00,1,00,1,99999,9,00,1,00,1",,"01,9",,,,"99999,9,10135,1","2,1,012,1,-002,1",,"SYN082AAXX  08151 76458 32970 01502 10237 20166 30135 40140 52012 91458 333 30/// 59002;","Q01  00002PRCP06"
"76458099999","2005-05-08T18:00:00","4","23.2","-106.4166666","4.0","COLONIA JUAN CARRASCO MAZATLAN SIN., MX","FM-12","99999","V020","240,1,N,0030,1","22000,1,9,N","006000,1,N,1","+0267,1","+0187,1","10139,1","06,0000,9,1",,,,,"00,1,+99999,9,99,9",,,"00,99,1,00,1,00,1,99999,9,00,1,00,1",,"01,9",,"120,M,+0285,1","240,N,+0152,1","99999,9,10135,1","0,1,000,1,-005,1",,"SYN094AAXX  08181 76458 32956 02403 10267 20187 30135 40139 50000 91747 333 10285 20152 30/// 59005;","Q01  00002PRCP06"
"76458099999","2005-05-08T21:00:00","4","23.2","-106.4166666","4.0","COLONIA JUAN CARRASCO MAZATLAN SIN., MX","FM-12","99999","V020","270,1,N,0050,1","22000,1,9,N","020000,1,N,1","+0278,1","+0176,1","10129,1","06,0000,9,1",,,,,"00,1,+99999,9,99,9",,,"00,99,1,00,1,00,1,99999,9,00,1,00,1",,"01,9",,,,"99999,9,10125,1","7,1,010,1,-003,1",,"SYN082AAXX  08211 76458 32970 02705 10278 20176 30125 40129 57010 92045 333 30/// 59003;","Q01  00002PRCP06"
"76458099999","2005-05-09T03:00:00","4","23.2","-106.4166666","4.0","COLONIA JUAN CARRASCO MAZATLAN SIN., MX","FM-12","99999","V020","290,1,N,0020,1","22000,1,9,N","010000,1,N,1","+0244,1","+0195,1","10114,1","06,0000,9,1",,,,,"00,1,+99999,9,99,9",,,"00,99,1,00,1,00,1,99999,9,00,1,00,1",,"01,9",,,,"99999,9,10109,1","7,1,003,1,-026,1",,"SYN082AAXX  09031 76458 32960 02902 10244 20195 30109 40114 57003 90250 333 30/// 59026;","Q01  00002PRCP06"
"76458099999","2005-05-09T06:00:00","4","23.2","-106.4166666","4.0","COLONIA JUAN CARRASCO MAZATLAN SIN., MX","FM-12","99999","V020","320,1,N,0020,1","22000,1,9,N","010000,1,N,1","+0235,1","+0206,1","10123,1","06,0000,9,1",,,,,"00,1,+99999,9,99,9",,,"00,99,1,00,1,00,1,99999,9,00,1,00,1","0696,9","01,9",,"240,M,+0300,1","240,N,+0152,1","99999,9,10119,1","2,1,010,1,+999,9",,"SYN106AAXX  09061 76458 32960 03202 10235 20206 30119 40123 52010 90548 333 10300 20152 30/// 55116 2//// 59015;","Q01  00002PRCP06"
"76458099999","2005-05-09T09:00:00","4","23.2","-106.4166666","4.0","COLONIA JUAN CARRASCO MAZATLAN SIN., MX","FM-12","99999","V020","360,1,N,0010,1","22000,1,9,N","008000,1,N,1","+0217,1","+0192,1","10114,1","06,0000,9,1",,,,,"00,1,+99999,9,99,9",,,"00,99,1,00,1,00,1,99999,9,00,1,00,1",,"01,9",,,,"99999,9,10110,1","7,1,009,1,-016,1",,"SYN082AAXX  09091 76458 32958 03601 10217 20192 30110 40114 57009 90848 333 30/// 59016;","Q01  00002PRCP06"
"76458099999","2005-05-09T15:00:00","4","23.2","-106.4166666","4.0","COLONIA JUAN CARRASCO MAZATLAN SIN., MX","FM-12","99999","V020","090,1,N,0020,1","22000,1,9,N","016000,1,N,1","+0239,1","+0163,1","10122,1","06,0000,9,1",,,,,"00,1,+99999,9,99,9",,,"00,99,1,00,1,00,1,99999,9,00,1,00,1",,"01,9",,,,"99999,9,10118,1","2,1,003,1,-017,1",,"SYN082AAXX  09151 76458 32966 00902 10239 20163 30118 40122 52003 91455 333 30/// 59017;","Q01  00002PRCP06"
"76458099999","2005-05-09T18:00:00","4","23.2","-106.4166666","4.0","COLONIA JUAN CARRASCO MAZATLAN SIN., MX","FM-12","99999","V020","270,1,N,0030,1","22000,1,9,N","020000,1,N,1","+0265,1","+0202,1","10128,1","06,0000,9,1",,,,,"00,1,+99999,9,99,9",,,"00,99,1,00,1,00,1,99999,9,00,1,00,1",,"01,9",,"120,M,+0280,1","240,N,+0149,1","99999,9,10123,1","2,1,006,1,-012,1",,"SYN094AAXX  09181 76458 32970 02703 10265 20202 30123 40128 52006 91750 333 10280 20149 30/// 59012;","Q01  00002PRCP06"
"76458099999","2005-05-09T21:00:00","4","23.2","-106.4166666","4.0","COLONIA JUAN CARRASCO MAZATLAN SIN., MX","FM-12","99999","V020","280,1,N,0040,1","22000,1,9,N","020000,1,N,1","+0264,1","+0214,1","10112,1","06,0000,9,1",,,,,"00,1,+99999,9,99,9",,,"00,99,1,00,1,00,1,99999,9,00,1,00,1",,"01,9",,,,"99999,9,10107,1","7,1,016,1,-017,1",,"SYN082AAXX  09211 76458 32970 02804 10264 20214 30107 40112 57016 92048 333 30/// 59017;","Q01  00002PRCP06"
"76458099999","2005-05-10T00:00:00","4","23.2","-106.4166666","4.0","COLONIA JUAN CARRASCO MAZATLAN SIN., MX","FM-12","99999","V020","270,1,N,0020,1","22000,1,9,N","020000,1,N,1","+0268,1","+0193,1","10090,1","06,0000,9,1","24,0000,9,1",,,,"00,1,+99999,9,99,9",,,"00,99,1,00,1,00,1,99999,9,00,1,00,1",,"01,9",,"120,M,+0290,1","180,N,+0135,1","99999,9,10086,1","0,1,016,1,-026,1",,"SYN106AAXX  10001 76458 32970 02702 10268 20193 30086 40090 50016 92350 333 10290 20135 30/// 50581 59026 70000;","Q01  00002PRCP06Q02  00002PRCP24"
"76458099999","2005-05-10T03:00:00","4","23.2","-106.4166666","4.0","COLONIA JUAN CARRASCO MAZATLAN SIN., MX","FM-12","99999","V020","270,1,N,0020,1","22000,1,9,N","020000,1,N,1","+0244,1","+0182,1","10093,1","06,0000,9,1",,,,,"00,1,+99999,9,99,9",,,"00,99,1,00,1,00,1,99999,9,00,1,00,1",,"01,9",,,,"99999,9,10089,1","0,1,020,1,-060,1",,"SYN082AAXX  10031 76458 32970 02702 10244 20182 30089 40093 50020 90250 333 30/// 59060;","Q01  00002PRCP06"
"76458099999","2005-05-10T06:00:00","4","23.2","-106.4166666","4.0","COLONIA JUAN CARRASCO MAZATLAN SIN., MX","FM-12","99999","V020","330,1,N,0020,1","22000,1,9,N","010000,1,N,1","+0230,1","+0199,1","10100,1","06,0000,9,1",,,,,"00,1,+99999,9,99,9",,,"00,99,1,00,1,00,1,99999,9,00,1,00,1","0726,9","01,9",,"240,M,+0290,1","240,N,+0149,1","99999,9,10096,1","2,1,006,1,+999,9",,"SYN106AAXX  10061 76458 32960 03302 10230 20199 30096 40100 52006 90548 333 10290 20149 30/// 55121 2//// 59023;","Q01  00002PRCP06"
"76458099999","2005-05-10T09:00:00","4","23.2","-106.4166666","4.0","COLONIA JUAN CARRASCO MAZATLAN SIN., MX","FM-12","99999","V020","360,1,N,0010,1","22000,1,9,N","008000,1,N,1","+0220,1","+0191,1","10094,1","06,0000,9,1",,,,,"00,1,+99999,9,99,9",,,"00,99,1,00,1,00,1,99999,9,00,1,00,1",,"01,9",,,,"99999,9,10090,1","6,1,006,1,-020,1",,"SYN082AAXX  10091 76458 32958 03601 10220 20191 30090 40094 56006 90848 333 30/// 59020;","Q01  00002PRCP06"
"76458099999","2005-05-10T15:00:00","4","23.2","-106.4166666","4.0","COLONIA JUAN CARRASCO MAZATLAN SIN., MX","FM-12","99999","V020","310,1,N,0020,1","22000,1,9,N","020000,1,N,1","+0244,1","+0201,1","10104,1","06,0000,9,1",,,,,"01,1,+00540,1,08,1",,,"02,99,1,01,1,01,1,00450,1,00,1,02,1",,"01,9",,,,"99999,9,10099,1","2,1,011,1,-018,1",,"SYN106AAXX  10151 76458 32470 23102 10244 20201 30099 40104 52011 81102 91450 333 30/// 56608 59018 81818 81079;","Q01  00002PRCP06"
"76458099999","2005-05-10T18:00:00","4","23.2","-106.4166666","4.0","COLONIA JUAN CARRASCO MAZATLAN SIN., MX","FM-12","99999","V020","160,1,N,0030,1","22000,1,9,N","020000,1,N,1","+0271,1","+0199,1","10104,1","06,0000,9,1",,,,,"01,1,+06000,1,00,1",,,"01,99,1,00,1,00,1,99999,9,00,1,01,1",,"01,9",,"120,M,+0284,1","240,N,+0180,1","99999,9,10100,1","0,1,000,1,-021,1",,"SYN112AAXX  10181 76458 32970 11603 10271 20199 30100 40104 50000 80001 91745 333 10284 20180 30/// 56//9 59021 81070;","Q01  00002PRCP06"
"76458099999","2005-05-10T21:00:00","4","23.2","-106.4166666","4.0","COLONIA JUAN CARRASCO MAZATLAN SIN., MX","FM-12","99999","V020","240,1,N,0040,1","22000,1,9,N","020000,1,N,1","+0270,1","+0211,1","10096,1","06,0000,9,1",,,,,"00,1,+99999,9,99,9",,,"00,99,1,00,1,00,1,99999,9,00,1,00,1",,"01,9",,,,"99999,9,10092,1","7,1,008,1,-011,1",,"SYN082AAXX  10211 76458 32970 02404 10270 20211 30092 40096 57008 92045 333 30/// 59011;","Q01  00002PRCP06"
"76458099999","2005-05-11T03:00:00","4","23.2","-106.4166666","4.0","COLONIA JUAN CARRASCO MAZATLAN SIN., MX","FM-12","99999","V020","270,1,N,0020,1","22000,1,9,N","010000,1,N,1","+0242,1","+0204,1","10089,1","06,0000,9,1",,,,,"00,1,+99999,9,99,9",,,"00,99,1,00,1,00,1,99999,9,00,1,00,1",,"01,9",,,,"99999,9,10085,1","2,1,011,1,-004,1",,"SYN082AAXX  11031 76458 32960 02702 10242 20204 30085 40089 52011 90255 333 30/// 59004;","Q01  00002PRCP06"
"76458099999","2005-05-11T12:00:00","4","23.2","-106.4166666","4.0","COLONIA JUAN CARRASCO MAZATLAN SIN., MX","FM-12","99999","V020","330,1,N,0020,1","22000,1,9,N","012000,1,N,1","+0197,1","+0184,1","10086,1","06,0000,9,1","24,0000,9,1",,,,"00,1,+99999,9,99,9",,,"00,99,1,00,1,00,1,99999,9,00,1,00,1",,"01,9","999,+0160,1","120,N,+0192,1","240,M,+0295,1","99999,9,10082,1","8,1,013,1,-006,1",,"SYN100AAXX  11121 76458 32962 03302 10197 20184 30082 40086 58013 91158 333 10295 20192 30160 59006 70000;","Q01  00002PRCP06Q02  00002PRCP24"
"76458099999","2005-05-11T15:00:00","4","23.2","-106.4166666","4.0","COLONIA JUAN CARRASCO MAZATLAN SIN., MX","FM-12","99999","V020","290,1,N,0020,1","22000,1,9,N","020000,1,N,1","+0237,1","+0206,1","10096,1","06,0000,9,1",,,,,"01,1,+00480,1,08,1",,,"01,99,1,01,1,01,1,00450,1,00,1,00,1",,"01,9",,,,"99999,9,10091,1","2,1,011,1,-006,1",,"SYN100AAXX  11151 76458 32470 12902 10237 20206 30091 40096 52011 81100 91450 333 30/// 56200 59006 81816;","Q01  00002PRCP06"
"76458099999","2005-05-11T18:00:00","4","23.2","-106.4166666","4.0","COLONIA JUAN CARRASCO MAZATLAN SIN., MX","FM-12","99999","V020","260,1,N,0040,1","22000,1,9,N","018000,1,N,1","+0252,1","+0207,1","10093,1","06,0000,9,1",,,,,"00,1,+99999,9,99,9",,,"00,99,1,00,1,00,1,99999,9,00,1,00,1",,"01,9",,"120,M,+0272,1","240,N,+0191,1","99999,9,10088,1","7,1,005,1,-012,1",,"SYN094AAXX  11181 76458 32968 02604 10252 20207 30088 40093 57005 91745 333 10272 20191 30/// 59012;","Q01  00002PRCP06"
"76458099999","2005-05-11T21:00:00","4","23.2","-106.4166666","4.0","COLONIA JUAN CARRASCO MAZATLAN SIN., MX","FM-12","99999","V020","250,1,N,0030,1","22000,1,9,N","020000,1,N,1","+0263,1","+0217,1","10085,1","06,0000,9,1",,,,,"00,1,+99999,9,99,9",,,"00,99,1,00,1,00,1,99999,9,00,1,00,1",,"01,9",,,,"99999,9,10081,1","6,1,007,1,-011,1",,"SYN082AAXX  11211 76458 32970 02503 10263 20217 30081 40085 56007 92045 333 30/// 59011;","Q01  00002PRCP06"
"76458099999","2005-05-12T00:00:00","4","23.2","-106.4166666","4.0","COLONIA JUAN CARRASCO MAZATLAN SIN., MX","FM-12","99999","V020","270,1,N,0030,1","22000,1,9,N","020000,1,N,1","+0270,1","+0220,1","10068,1","06,0000,9,1","24,0000,9,1",,,,"00,1,+99999,9,99,9",,,"00,99,1,00,1,00,1,99999,9,00,1,00,1",,"01,9",,"120,M,+0290,1","180,N,+0191,1","99999,9,10063,1","7,1,017,1,-011,1",,"SYN106AAXX  12001 76458 32970 02703 10270 20220 30063 40068 57017 92359 333 10290 20191 30/// 54301 59011 70000;","Q01  00002PRCP06Q02  00002PRCP24"
"76458099999","2005-05-12T18:00:00","4","23.2","-106.4166666","4.0","COLONIA JUAN CARRASCO MAZATLAN SIN., MX","FM-12","99999","V020","210,1,N,0030,1","22000,1,9,N","999999,9,N,1","+0268,1","+0209,1","10116,1","06,0000,9,1",,,"4,1,06,1","4,1,06,1","00,1,+99999,9,99,9",,,"00,99,1,00,1,00,1,99999,9,00,1,00,1",,"01,9",,"120,M,+0299,1","240,N,+0209,1","99999,9,10112,1","0,1,001,1,+024,1","05,1","SYN100AAXX  12181 76458 31952 02103 10268 20209 30112 40116 50001 70544 91747 333 10299 20209 30/// 58024;","Q01  00002PRCP06"
"76458099999","2005-05-12T21:00:00","4","23.2","-106.4166666","4.0","COLONIA JUAN CARRASCO MAZATLAN SIN., MX","FM-12","99999","V020","240,1,N,0040,1","22000,1,9,N","018000,1,N,1","+0268,1","+0209,1","10105,1","06,0000,9,1",,,,,"00,1,+99999,9,99,9",,,"00,99,1,00,1,00,1,99999,9,00,1,00,1",,"01,9",,,,"99999,9,10101,1","7,1,011,1,+020,1",,"SYN082AAXX  12211 76458 32968 02404 10268 20209 30101 40105 57011 92045 333 30/// 58020;","Q01  00002PRCP06"
"76458099999","2005-05-13T03:00:00","4","23.2","-106.4166666","4.0","COLONIA JUAN CARRASCO MAZATLAN SIN., MX","FM-12","99999","V020","320,1,N,0050,1","22000,1,9,N","010000,1,N,1","+0252,1","+0181,1","10112,1","06,0000,9,1",,,,,"00,1,+99999,9,99,9",,,"00,99,1,00,1,00,1,99999,9,00,1,00,1",,"01,9",,,,"99999,9,10183,1","2,1,017,1,+032,1",,"SYN082AAXX  13031 76458 32960 03205 10252 20181 30183 40112 52017 90250 333 30/// 58032;","Q01  00002PRCP06"
"76458099999","2005-05-13T06:00:00","4","23.2","-106.4166666","4.0","COLONIA JUAN CARRASCO MAZATLAN SIN., MX","FM-12","99999","V020","320,1,N,0020,1","22000,1,9,N","010000,1,N,1","+0230,1","+0170,1","10111,1","06,0000,9,1",,,,,"00,1,+99999,9,99,9",,,"00,99,1,00,1,00,1,99999,9,00,1,00,1","0660,9","01,9",,"240,M,+0299,1","240,N,+0209,1","99999,9,10106,1","4,1,000,1,+006,1",,"SYN100AAXX  13061 76458 32960 03202 10230 20170 30106 40111 54002 90558 333 10299 20209 30/// 55110 58006;","Q01  00002PRCP06"
"76458099999","2005-05-13T12:00:00","4","23.2","-106.4166666","4.0","COLONIA JUAN CARRASCO MAZATLAN SIN., MX","FM-12","99999","V020","120,1,N,0020,1","22000,1,9,N","010000,1,N,1","+0210,1","+0184,1","10095,1","06,0000,9,1","24,0000,9,1",,,,"00,1,+99999,9,99,9",,,"00,99,1,00,1,00,1,99999,9,00,1,00,1",,"01,9","999,+0190,1","120,N,+0202,1","240,M,+0299,1","99999,9,10090,1","4,1,000,1,-006,1",,"SYN100AAXX  13121 76458 32960 01202 10210 20184 30090 40095 54002 91145 333 10299 20202 30190 59006 70000;","Q01  00002PRCP06Q02  00002PRCP24"
"76458099999","2005-05-13T15:00:00","4","23.2","-106.4166666","4.0","COLONIA JUAN CARRASCO MAZATLAN SIN., MX","FM-12","99999","V020","120,1,N,0010,1","22000,1,9,N","015000,1,N,1","+0238,1","+0190,1","10113,1","06,0000,9,1",,,,,"02,1,+06600,1,00,1",,,"02,99,1,00,1,00,1,99999,9,00,1,06,1",,"01,9",,,,"99999,9,10108,1","2,1,018,1,-003,1",,"SYN100AAXX  13151 76458 32965 21201 10238 20190 30108 40113 52018 80006 91448 333 30/// 56009 59003 82072;","Q01  00002PRCP06"
"76458099999","2005-05-13T18:00:00","4","23.2","-106.4166666","4.0","COLONIA JUAN CARRASCO MAZATLAN SIN., MX","FM-12","99999","V020","240,1,N,0030,1","22000,1,9,N","018000,1,N,1","+0267,1","+0220,1","10105,1","06,0000,9,1",,,,,"01,1,+05400,1,00,1",,,"01,99,1,00,1,00,1,99999,9,00,1,06,1",,"01,9",,"120,M,+0287,1","240,N,+0202,1","99999,9,10100,1","7,1,008,1,-012,1",,"SYN112AAXX  13181 76458 32968 12403 10267 20220 30100 40105 57008 80006 91745 333 10287 20202 30/// 56//9 59012 81068;","Q01  00002PRCP06"
"76458099999","2005-05-13T21:00:00","4","23.2","-106.4166666","4.0","COLONIA JUAN CARRASCO MAZATLAN SIN., MX","FM-12","99999","V020","250,1,N,0040,1","22000,1,9,N","020000,1,N,1","+0264,1","+0219,1","10097,1","06,0000,9,1",,,,,"03,1,+05400,1,00,1",,,"03,99,1,00,1,00,1,99999,9,00,1,06,1",,"01,9",,,,"99999,9,10092,1","7,1,008,1,-009,1",,"SYN100AAXX  13211 76458 32970 32504 10264 20219 30092 40097 57008 80006 92045 333 30/// 56//9 59009 83068;","Q01  00002PRCP06"
"76458099999","2005-05-14T00:00:00","4","23.2","-106.4166666","4.0","COLONIA JUAN CARRASCO MAZATLAN SIN., MX","FM-12","99999","V020","290,1,N,0010,1","22000,1,9,N","020000,1,N,1","+0272,1","+0203,1","10090,1","06,0000,9,1","24,0000,9,1",,,,"00,1,+99999,9,99,9",,,"00,99,1,00,1,00,1,99999,9,00,1,00,1",,"01,9",,"120,M,+0295,1","180,N,+0184,1","99999,9,10087,1","4,1,000,1,+020,1",,"SYN106AAXX  14001 76458 32970 02901 10272 20203 30087 40090 54060 92350 333 10295 20184 30/// 50571 58020 70000;","Q01  00002PRCP06Q02  00002PRCP24"
"76458099999","2005-05-14T09:00:00","4","23.2","-106.4166666","4.0","COLONIA JUAN CARRASCO MAZATLAN SIN., MX","FM-12","99999","V020","300,1,N,0020,1","22000,1,9,N","008000,1,N,1","+0215,1","+0192,1","10098,1","06,0000,9,1",,,,,"00,1,+99999,9,99,9",,,"00,99,1,00,1,00,1,99999,9,00,1,00,1",,"01,9",,,,"99999,9,10094,1","6,1,008,1,+999,9",,"SYN081AAXX  14091 76458 32958 03002 10215 20192 30094 40098 56008 90848 333 30/// 5002;","Q01  00002PRCP06"
"76458099999","2005-05-14T15:00:00","4","23.2","-106.4166666","4.0","COLONIA JUAN CARRASCO MAZATLAN SIN., MX","FM-12","99999","V020","340,1,N,0020,1","22000,1,9,N","012000,1,N,1","+0233,1","+0190,1","10114,1","06,0000,9,1",,,,,"03,1,+05400,1,00,1",,,"03,99,1,00,1,00,1,99999,9,00,1,06,1",,"01,9",,,,"99999,9,10109,1","2,1,013,1,+001,1",,"SYN100AAXX  14151 76458 32962 33402 10233 20190 30109 40114 52013 80006 91445 333 30/// 56//9 58001 83068;","Q01  00002PRCP06"
"76458099999","2005-05-14T18:00:00","4","23.2","-106.4166666","4.0","COLONIA JUAN CARRASCO MAZATLAN SIN., MX","FM-12","99999","V020","240,1,N,0030,1","08700,1,9,N","012000,1,N,1","+0272,1","+0201,1","10107,1","06,0000,9,1",,,,,"06,1,+08700,1,00,1",,,"06,99,1,00,1,00,1,99999,9,00,1,04,1",,"01,9",,"120,M,+0297,1","240,N,+0187,1","99999,9,10103,1","7,1,007,1,+002,1",,"SYN112AAXX  14181 76458 32962 62403 10272 20201 30103 40107 57007 80004 91758 333 10297 20187 30/// 56009 58002 86079;","Q01  00002PRCP06"
"76458099999","2005-05-14T21:00:00","4","23.2","-106.4166666","4.0","COLONIA JUAN CARRASCO MAZATLAN SIN., MX","FM-12","99999","V020","250,1,N,0040,1","07800,1,9,N","018000,1,N,1","+0269,1","+0215,1","10096,1","06,0000,9,1",,,,,"07,1,+07800,1,02,1",,,"07,99,1,00,1,00,1,99999,9,00,1,07,1",,"01,9",,,,"99999,9,10091,1","7,1,011,1,-001,1",,"SYN100AAXX  14211 76458 32968 72504 10269 20215 30091 40096 57011 80007 92050 333 30/// 56009 59001 87276;","Q01  00002PRCP06"
"76458099999","2005-05-15T00:00:00","4","23.2","-106.4166666","4.0","COLONIA JUAN CARRASCO MAZATLAN SIN., MX","FM-12","99999","V020","320,1,N,0020,1","22000,1,9,N","020000,1,N,1","+0274,1","+0206,1","10089,1","06,0000,9,1","24,0000,9,1",,,,"00,1,+99999,9,99,9",,,"00,99,1,00,1,00,1,99999,9,00,1,00,1",,"01,9",,"120,M,+0300,1","180,N,+0140,1","99999,9,10084,1","6,1,007,1,-023,1",,"SYN106AAXX  15001 76458 32970 03202 10274 20206 30084 40089 56090 92350 333 10300 20140 30/// 50351 59023 70000;","Q01  00002PRCP06Q02  00002PRCP24"
"76458099999","2005-05-15T03:00:00","4","23.2","-106.4166666","4.0","COLONIA JUAN CARRASCO MAZATLAN SIN., MX","FM-12","99999","V020","270,1,N,0010,1","22000,1,9,N","010000,1,N,1","+0250,1","+0221,1","10093,1","06,0000,9,1",,,,,"00,1,+99999,9,99,9",,,"00,99,1,00,1,00,1,99999,9,00,1,00,1",,"01,9",,,,"99999,9,10089,1","2,1,004,1,+000,1",,"SYN082AAXX  15031 76458 32960 02701 10250 20221 30089 40093 52053 90250 333 30/// 58000;","Q01  00002PRCP06"
"76458099999","2005-05-15T06:00:00","4","23.2","-106.4166666","4.0","COLONIA JUAN CARRASCO MAZATLAN SIN., MX","FM-12","99999","V020","330,1,N,0030,1","22000,1,9,N","010000,1,N,1","+0230,1","+0186,1","10103,1","06,0000,9,1",,,,,,,,"01,99,1,00,1,00,1,99999,9,00,1,01,1","0666,9","01,9",,"240,M,+0300,1","240,N,+0187,1","99999,9,10099,1","1,1,009,1,-003,1",,"SYN124AAXX  15061 76458 32960 13303 10230 20186 30099 40103 51009 80001 90548 333 10300 20187 30/// 55111 2//// 56//0 59003 81070;","Q01  00002PRCP06"
"76458099999","2005-05-15T09:00:00","4","23.2","-106.4166666","4.0","COLONIA JUAN CARRASCO MAZATLAN SIN., MX","FM-12","99999","V020","310,1,N,0020,1","22000,1,9,N","008000,1,N,1","+0213,1","+0165,1","10095,1","06,0000,9,1",,,,,"00,1,+99999,9,99,9",,,"00,99,1,00,1,00,1,99999,9,00,1,00,1",,"01,9",,,,"99999,9,10090,1","6,1,010,1,-008,1",,"SYN082AAXX  15091 76458 32958 03102 10213 20165 30090 40095 56010 90848 333 30/// 59008;","Q01  00002PRCP06"
"76458099999","2005-05-15T12:00:00","4","23.2","-106.4166666","4.0","COLONIA JUAN CARRASCO MAZATLAN SIN., MX","FM-12","99999","V020","999,9,C,0000,1","22000,1,9,N","008000,1,N,1","+0278,1","+0136,1","10096,1","06,0000,9,1","24,0000,9,1",,,,"00,1,+99999,9,99,9",,,"00,99,1,00,1,00,1,99999,9,00,1,00,1",,"01,9","999,+0114,1","120,N,+0166,1","240,M,+0300,1","99999,9,10092,1","3,1,002,1,-004,1",,"SYN100AAXX  15121 76458 32958 00000 10278 20136 30092 40096 53002 91148 333 10300 20166 30114 59004 70000;","Q01  00002PRCP06Q02  00002PRCP24"
"76458099999","2005-05-15T15:00:00","4","23.2","-106.4166666","4.0","COLONIA JUAN CARRASCO MAZATLAN SIN., MX","FM-12","99999","V020","300,1,N,0010,1","22000,1,9,N","012000,1,N,1","+0242,1","+0143,1","10104,1","06,0000,9,1",,,,,"01,1,+05400,1,00,1",,,"01,99,1,00,1,00,1,99999,9,00,1,01,1",,"01,9",,,,"99999,9,10100,1","2,1,008,1,-009,1",,"SYN100AAXX  15151 76458 32962 13001 10242 20143 30100 40104 52008 80001 91445 333 30/// 56//9 59009 81068;","Q01  00002PRCP06"
"76458099999","2005-05-15T21:00:00","4","23.2","-106.4166666","4.0","COLONIA JUAN CARRASCO MAZATLAN SIN., MX","FM-12","99999","V020","250,1,N,0040,1","22000,1,9,N","026000,1,N,1","+0272,1","+0192,1","10097,1","06,0000,9,1",,,,,"01,1,+00990,1,08,1",,,"02,99,1,01,1,02,1,01250,1,00,1,05,1",,"01,9",,,,"99999,9,10092,1","7,1,010,1,+001,1",,"SYN106AAXX  15211 76458 32676 22504 10272 20192 30092 40097 57010 81205 92050 333 30/// 56109 58001 81833 81079;","Q01  00002PRCP06"
"76458099999","2005-05-16T06:00:00","4","23.2","-106.4166666","4.0","COLONIA JUAN CARRASCO MAZATLAN SIN., MX","FM-12","99999","V020","340,1,N,0020,1","22000,1,9,N","010000,1,N,1","+0233,1","+0207,1","10107,1","06,0000,9,1",,,,,"00,1,+99999,9,99,9",,,"00,99,1,00,1,00,1,99999,9,00,1,00,1","0732,9","01,9",,"240,M,+0300,1","240,N,+0166,1","99999,9,10103,1","2,1,014,1,+999,9",,"SYN106AAXX  16061 76458 32960 03402 10233 20207 30103 40107 52014 90548 333 10300 20166 30/// 55122 2//// 58004;","Q01  00002PRCP06"
"76458099999","2005-05-16T09:00:00","4","23.2","-106.4166666","4.0","COLONIA JUAN CARRASCO MAZATLAN SIN., MX","FM-12","99999","V020","060,1,N,0020,1","22000,1,9,N","008000,1,N,1","+0218,1","+0205,1","10099,1","06,0000,9,1",,,,,"00,1,+99999,9,99,9",,,"00,99,1,00,1,00,1,99999,9,00,1,00,1",,"01,9",,,,"99999,9,10095,1","6,1,008,1,+005,1",,"SYN082AAXX  16091 76458 32958 00602 10218 20205 30095 40099 56008 90848 333 30/// 58005;","Q01  00002PRCP06"
"76458099999","2005-05-16T12:00:00","4","23.2","-106.4166666","4.0","COLONIA JUAN CARRASCO MAZATLAN SIN., MX","FM-12","99999","V020","120,1,N,0020,1","22000,1,9,N","012000,1,N,1","+0196,1","+0170,1","10095,1","06,0000,9,1","24,0000,9,1",,,,"00,1,+99999,9,99,9",,,"00,99,1,00,1,00,1,99999,9,00,1,00,1",,"01,9","999,+0132,1","120,N,+0162,1","240,M,+0302,1","99999,9,10092,1","5,1,003,1,+000,1",,"SYN100AAXX  16121 76458 32962 01202 10196 20170 30092 40095 55003 91155 333 10302 20162 30132 59000 70000;","Q01  00002PRCP06Q02  00002PRCP24"
"76458099999","2005-05-16T18:00:00","4","23.2","-106.4166666","4.0","COLONIA JUAN CARRASCO MAZATLAN SIN., MX","FM-12","99999","V020","210,1,N,0050,1","22000,1,9,N","020000,1,N,1","+0276,1","+0164,1","10109,1","06,0000,9,1",,,,,"00,1,+99999,9,99,9",,,"00,99,1,00,1,00,1,99999,9,00,1,00,1",,"01,9",,"120,M,+0299,1","240,N,+0162,1","99999,9,10105,1","7,1,006,1,-006,1",,"SYN094AAXX  16181 76458 32970 02105 10276 20164 30105 40109 57006 91755 333 10299 20162 30/// 59006;","Q01  00002PRCP06"
"76458099999","2005-05-16T21:00:00","4","23.2","-106.4166666","4.0","COLONIA JUAN CARRASCO MAZATLAN SIN., MX","FM-12","99999","V020","210,1,N,0020,1","22000,1,9,N","020000,1,N,1","+0278,1","+0213,1","99999,9","06,0000,9,1",,,,,"00,1,+99999,9,99,9",,,"00,99,1,00,1,00,1,99999,9,00,1,00,1",,"01,9",,,,"99999,9,10152,1","4,1,000,1,+099,1",,"SYN082AAXX  16211 76458 32970 02102 10278 20213 30152 40197 54003 92050 333 30/// 58099;","Q01  00002PRCP06Q02 101973APOSLP"
"76458099999","2005-05-17T00:00:00","4","23.2","-106.4166666","4.0","COLONIA JUAN CARRASCO MAZATLAN SIN., MX","FM-12","99999","V020","270,1,N,0030,1","22000,1,9,N","020000,1,N,1","+0264,1","+0221,1","10078,2","06,0000,9,1","24,0000,9,1",,,,"00,1,+99999,9,99,9",,,"00,99,1,00,1,00,1,99999,9,00,1,00,1",,"01,9",,"120,M,+0302,1","180,N,+0162,1","99999,9,10073,2","7,1,023,1,-021,1",,"SYN106AAXX  17001 76458 32970 02703 10264 20221 30073 40078 57023 92358 333 10302 20162 30/// 55711 59021 70000;","Q01  00002PRCP06Q02  00002PRCP24"
"76458099999","2005-05-17T03:00:00","4","23.2","-106.4166666","4.0","COLONIA JUAN CARRASCO MAZATLAN SIN., MX","FM-12","99999","V020","270,1,N,0020,1","22000,1,9,N","010000,1,N,1","+0240,1","+0209,1","10090,1","06,0000,9,1",,,,,"00,1,+99999,9,99,9",,,"00,99,1,00,1,00,1,99999,9,00,1,00,1",,"01,9",,,,"99999,9,10085,1","2,1,012,1,-004,1",,"SYN082AAXX  17031 76458 32960 02702 10240 20209 30085 40090 52012 90250 333 30/// 59004;","Q01  00002PRCP06"
"76458099999","2005-05-17T06:00:00","4","23.2","-106.4166666","4.0","COLONIA JUAN CARRASCO MAZATLAN SIN., MX","FM-12","99999","V020","180,1,N,0010,1","22000,1,9,N","010000,1,N,1","+0227,1","+0205,1","10100,1","06,0000,9,1",,,,,"00,1,+99999,9,99,9",,,"00,99,1,00,1,00,1,99999,9,00,1,00,1","0678,9","01,9",,"240,M,+0302,1","240,N,+0162,1","99999,9,10095,1","2,1,010,1,+999,9",,"SYN106AAXX  17061 76458 32960 01801 10227 20205 30095 40100 52010 90548 333 10302 20162 30/// 55113 2//// 59008;","Q01  00002PRCP06"
"76458099999","2005-05-17T09:00:00","4","23.2","-106.4166666","4.0","COLONIA JUAN CARRASCO MAZATLAN SIN., MX","FM-12","99999","V020","120,1,N,0030,1","22000,1,9,N","008000,1,N,1","+0223,1","+0209,1","10092,1","06,0000,9,1",,,,,"04,1,+01800,1,03,1",,,"04,99,1,04,1,00,1,99999,9,03,1,00,1",,"01,9",,,,"99999,9,10087,1","7,1,021,1,-021,1",,"SYN100AAXX  17091 76458 32958 41203 10223 20209 30087 40092 57021 84030 90848 333 30/// 56/07 59021 84356;","Q01  00002PRCP06"
"76458099999","2005-05-17T12:00:00","4","23.2","-106.4166666","4.0","COLONIA JUAN CARRASCO MAZATLAN SIN., MX","FM-12","99999","V020","090,1,N,0030,1","22000,1,9,N","012000,1,N,1","+0219,1","+0199,1","10094,1","06,0000,9,1","24,0000,9,1",,,,"00,1,+99999,9,99,9",,,"00,99,1,00,1,00,1,99999,9,00,1,00,1",,"01,9","999,+0172,1","120,N,+0213,1","240,M,+0300,1","99999,9,10090,1","0,1,002,1,-002,1",,"SYN100AAXX  17121 76458 32962 00903 10219 20199 30090 40094 50002 91150 333 10300 20213 30172 59002 70000;","Q01  00002PRCP06Q02  00002PRCP24"
"76458099999","2005-05-17T18:00:00","4","23.2","-106.4166666","4.0","COLONIA JUAN CARRASCO MAZATLAN SIN., MX","FM-12","99999","V020","180,1,N,0030,1","22000,1,9,N","018000,1,N,1","+0269,1","+0194,1","10111,1","06,0000,9,1",,,,,"00,1,+99999,9,99,9",,,"00,99,1,00,1,00,1,99999,9,00,1,00,1",,"01,9",,"120,M,+0285,1","240,N,+0213,1","99999,9,10105,1","8,1,008,1,+009,1",,"SYN094AAXX  17181 76458 32968 01803 10269 20194 30105 40111 58008 91748 333 10285 20213 30/// 58009;","Q01  00002PRCP06"
"76458099999","2005-05-17T21:00:00","4","23.2","-106.4166666","4.0","COLONIA JUAN CARRASCO MAZATLAN SIN., MX","FM-12","99999","V020","210,1,N,0040,1","22000,1,9,N","020000,1,N,1","+0268,1","+0196,1","10095,1","06,0000,9,1",,,,,"00,1,+99999,9,99,9",,,"00,99,1,00,1,00,1,99999,9,00,1,00,1",,"01,9",,,,"99999,9,10090,1","7,1,015,1,-002,1",,"SYN082AAXX  17211 76458 32970 02104 10268 20196 30090 40095 57015 92045 333 30/// 59002;","Q01  00002PRCP06"
"76458099999","2005-05-18T00:00:00","4","23.2","-106.4166666","4.0","COLONIA JUAN CARRASCO MAZATLAN SIN., MX","FM-12","99999","V020","260,1,N,0030,1","22000,1,9,N","020000,1,N,1","+0268,1","+0191,1","10084,1","06,0000,9,1",,,,,"00,1,+99999,9,99,9",,,"00,99,1,00,1,00,1,99999,9,00,1,00,1",,"01,9",,"120,M,+0298,1","180,N,+0213,1","99999,9,10079,1","7,1,011,1,+006,1",,"SYN100AAXX  18001 76458 32970 02603 10268 20191 30079 40084 57011 92348 333 10298 20213 30/// 53191 58006;","Q01  00002PRCP06"
"76458099999","2005-05-18T06:00:00","4","23.2","-106.4166666","4.0","COLONIA JUAN CARRASCO MAZATLAN SIN., MX","FM-12","99999","V020","240,1,N,0020,1","22000,1,9,N","010000,1,N,1","+0232,1","+0209,1","10107,1","06,0000,9,1",,,,,,,,"03,99,1,00,1,00,1,99999,9,00,1,01,1","0702,9","01,9",,"240,M,+0298,1","240,N,+0213,1","99999,9,10103,1","2,1,015,1,+008,1",,"SYN124AAXX  18061 76458 32960 32402 10232 20209 30103 40107 52015 80001 90548 333 10298 20213 30/// 55117 2//// 56//0 58008 83070;","Q01  00002PRCP06"
"76458099999","2005-05-18T12:00:00","4","23.2","-106.4166666","4.0","COLONIA JUAN CARRASCO MAZATLAN SIN., MX","FM-12","99999","V020","050,1,N,0020,1","22000,1,9,N","010000,1,N,1","+0214,1","+0197,1","10096,1","06,0000,9,1","24,0000,9,1",,,,"00,1,+99999,9,99,9",,,"00,99,1,00,1,00,1,99999,9,00,1,00,1",,"01,9","999,+0170,1","120,N,+0208,1","240,M,+0298,1","99999,9,10091,1","7,1,009,1,+001,1",,"SYN100AAXX  18121 76458 32960 00502 10214 20197 30091 40096 57009 91158 333 10298 20208 30170 58001 70000;","Q01  00002PRCP06Q02  00002PRCP24"
"76458099999","2005-05-18T15:00:00","4","23.2","-106.4166666","4.0","COLONIA JUAN CARRASCO MAZATLAN SIN., MX","FM-12","99999","V020","120,1,N,0030,1","22000,1,9,N","014000,1,N,1","+0244,1","+0207,1","10121,1","06,0000,9,1",,,,,"01,1,+00420,1,08,1",,,"01,99,1,01,1,01,1,00450,1,00,1,00,1",,"01,9",,,,"99999,9,10117,1","2,1,019,1,+009,1",,"SYN100AAXX  18151 76458 32464 11203 10244 20207 30117 40121 52019 81100 91440 333 30/// 565// 58009 81814;","Q01  00002PRCP06"
"76458099999","2005-05-18T18:00:00","4","23.2","-106.4166666","4.0","COLONIA JUAN CARRASCO MAZATLAN SIN., MX","FM-12","99999","V020","180,1,N,0030,1","22000,1,9,N","018000,1,N,1","+0258,1","+0186,1","10121,1","06,0000,9,1",,,,,"01,1,+06000,1,00,1",,,"01,99,1,00,1,00,1,99999,9,00,1,01,1",,"01,9",,"120,M,+0276,1","240,N,+0204,1","99999,9,10117,1","0,1,000,1,+011,1",,"SYN112AAXX  18181 76458 32968 11803 10258 20186 30117 40121 50000 80001 91747 333 10276 20204 30/// 56//9 58011 81070;","Q01  00002PRCP06"
"76458099999","2005-05-18T21:00:00","4","23.2","-106.4166666","4.0","COLONIA JUAN CARRASCO MAZATLAN SIN., MX","FM-12","99999","V020","210,1,N,0030,1","22000,1,9,N","020000,1,N,1","+0266,1","+0202,1","10106,1","06,0000,9,1",,,,,"00,1,+99999,9,99,9",,,"00,99,1,00,1,00,1,99999,9,00,1,00,1",,"01,9",,,,"99999,9,10102,1","7,1,015,1,+012,1",,"SYN082AAXX  18211 76458 32970 02103 10266 20202 30102 40106 57015 92045 333 30/// 58012;","Q01  00002PRCP06"
"76458099999","2005-05-19T00:00:00","4","23.2","-106.4166666","4.0","COLONIA JUAN CARRASCO MAZATLAN SIN., MX","FM-12","99999","V020","260,1,N,0030,1","22000,1,9,N","020000,1,N,1","+0264,1","+0205,1","10092,1","06,0000,9,1","24,0000,9,1",,,,"00,1,+99999,9,99,9",,,"00,99,1,00,1,00,1,99999,9,00,1,00,1",,"01,9",,"120,M,+0293,1","180,N,+0204,1","99999,9,10088,1","7,1,014,1,+011,1",,"SYN106AAXX  19001 76458 32970 02603 10264 20205 30088 40092 57014 92358 333 10293 20204 30/// 55581 58011 70000;","Q01  00002PRCP06Q02  00002PRCP24"
"76458099999","2005-05-19T06:00:00","4","23.2","-106.4166666","4.0","COLONIA JUAN CARRASCO MAZATLAN SIN., MX","FM-12","99999","V020","260,1,N,0020,1","22000,1,9,N","010000,1,N,1","+0231,1","+0201,1","10118,1","06,0000,9,1",,,,,"00,1,+99999,9,99,9",,,"00,99,1,00,1,00,1,99999,9,00,1,00,1","0702,9","01,9",,"240,M,+0293,1","240,N,+0204,1","99999,9,10113,1","2,1,014,1,+999,9",,"SYN106AAXX  19061 76458 32960 02602 10231 20201 30113 40118 52014 90548 333 10293 20204 30/// 55117 2//// 58010;","Q01  00002PRCP06"
"76458099999","2005-05-19T09:00:00","4","23.2","-106.4166666","4.0","COLONIA JUAN CARRASCO MAZATLAN SIN., MX","FM-12","99999","V020","030,1,N,0020,1","22000,1,9,N","008000,1,N,1","+0223,1","+0197,1","10110,1","06,0000,9,1",,,,,"03,1,+01800,1,03,1",,,"03,99,1,03,1,00,1,99999,9,03,1,00,1",,"01,9",,,,"99999,9,10106,1","7,1,029,1,+006,1",,"SYN100AAXX  19091 76458 32958 30302 10223 20197 30106 40110 57029 83030 90848 333 30/// 56/0/ 58006 83356;","Q01  00002PRCP06"
"76458099999","2005-05-19T12:00:00","4","23.2","-106.4166666","4.0","COLONIA JUAN CARRASCO MAZATLAN SIN., MX","FM-12","99999","V020","120,1,N,0020,1","22000,1,9,N","008000,1,N,1","+0216,1","+0199,1","10110,1","06,0000,9,1","24,0000,9,1",,,,"00,1,+99999,9,99,9",,,"00,99,1,00,1,00,1,99999,9,00,1,00,1",,"01,9","999,+0194,1","120,N,+0210,1","240,M,+0293,1","99999,9,10106,1","5,1,000,1,+008,1",,"SYN100AAXX  19121 76458 32958 01202 10216 20199 30106 40110 55000 91140 333 10293 20210 30194 58008 70000;","Q01  00002PRCP06Q02  00002PRCP24"
"76458099999","2005-05-19T15:00:00","4","23.2","-106.4166666","4.0","COLONIA JUAN CARRASCO MAZATLAN SIN., MX","FM-12","99999","V020","090,1,N,0030,1","22000,1,9,N","014000,1,N,1","+0240,1","+0206,1","10126,1","06,0000,9,1",,,,,"01,1,+00480,1,08,1",,,"01,99,1,01,1,01,1,00450,1,99,9,99,9",,"01,9",,,,"99999,9,10122,1","2,1,015,1,+004,1",,"SYN100AAXX  19151 76458 32464 10903 10240 20206 30122 40126 52015 811// 91440 333 30/// 565// 58004 81816;","Q01  00002PRCP06"
"76458099999","2005-05-19T18:00:00","4","23.2","-106.4166666","4.0","COLONIA JUAN CARRASCO MAZATLAN SIN., MX","FM-12","99999","V020","170,1,N,0030,1","22000,1,9,N","020000,1,N,1","+0261,1","+0198,1","10130,1","06,0000,9,1",,,,,"00,1,+99999,9,99,9",,,"00,99,1,00,1,00,1,99999,9,00,1,00,1",,"01,9",,"120,M,+0275,1","240,N,+0210,1","99999,9,10126,1","0,1,004,1,+009,1",,"SYN094AAXX  19181 76458 32970 01703 10261 20198 30126 40130 50004 91745 333 10275 20210 30/// 58009;","Q01  00002PRCP06"
"76458099999","2005-05-20T03:00:00","4","23.2","-106.4166666","4.0","COLONIA JUAN CARRASCO MAZATLAN SIN., MX","FM-12","99999","V020","260,1,N,0020,1","22000,1,9,N","010000,1,N,1","+0244,1","+0204,1","10100,1","06,0000,9,1",,,,,"00,1,+99999,9,99,9",,,"00,99,1,00,1,00,1,99999,9,00,1,00,1",,"01,9",,,,"99999,9,10096,1","7,1,011,1,-011,1",,"SYN082AAXX  20031 76458 32960 02602 10244 20204 30096 40100 57011 90255 333 30/// 59011;","Q01  00002PRCP06"
"76458099999","2005-05-20T06:00:00","4","23.2","-106.4166666","4.0","COLONIA JUAN CARRASCO MAZATLAN SIN., MX","FM-12","99999","V020","270,1,N,0020,1","22000,1,9,N","010000,1,N,1","+0238,1","+0203,1","10153,1","06,0000,9,1",,,,,"00,1,+99999,9,99,9",,,"00,99,1,00,1,00,1,99999,9,00,1,00,1","0348,9","01,9",,"240,M,+0296,1","240,N,+0192,1","99999,9,10109,1","2,1,005,1,+015,1",,"SYN100AAXX  20061 76458 32760 02702 10238 20203 30109 40153 52005 90550 333 10296 20192 30/// 55058 58015;","Q01  00002PRCP06"
"76458099999","2005-05-20T09:00:00","4","23.2","-106.4166666","4.0","COLONIA JUAN CARRASCO MAZATLAN SIN., MX","FM-12","99999","V020","260,1,N,0010,1","22000,1,9,N","010000,1,N,1","+0224,1","+0201,1","10110,1","06,0000,9,1",,,,,"00,1,+99999,9,99,9",,,"00,99,1,00,1,00,1,99999,9,00,1,00,1",,"01,9",,,,"99999,9,10165,1","6,1,004,1,-010,1",,"SYN082AAXX  20091 76458 32860 02601 10224 20201 30165 40110 56004 90945 333 30/// 59010;","Q01  00002PRCP06"
"76458099999","2005-05-20T12:00:00","4","23.2","-106.4166666","4.0","COLONIA JUAN CARRASCO MAZATLAN SIN., MX","FM-12","99999","V020","090,1,N,0010,1","22000,1,9,N","008000,1,N,1","+0216,1","+0201,1","10095,1","06,0000,9,1","24,0000,9,1",,,,"03,1,+00180,1,06,1",,,"03,99,1,03,1,05,1,00150,1,99,9,99,9",,"01,9","999,+0175,1","120,N,+0214,1","240,M,+0298,1","99999,9,10090,2","6,1,016,1,-016,1",,"SYN118AAXX  20121 76458 32258 30901 10216 20201 30090 40095 56016 835// 91140 333 10298 20214 30175 564// 59016 70000 83606;","Q01  00002PRCP06"
"76458099999","2005-05-20T15:00:00","4","23.2","-106.4166666","4.0","COLONIA JUAN CARRASCO MAZATLAN SIN., MX","FM-12","99999","V020","120,1,N,0020,1","22000,1,9,N","010000,1,N,1","+0244,1","+0213,1","10102,1","06,0000,9,1",,,,,"00,1,+99999,9,99,9",,,"00,99,1,00,1,00,1,99999,9,00,1,00,1",,"01,9",,,,"99999,9,10097,1","1,1,007,1,-025,1",,"SYN082AAXX  20151 76458 31960 01202 10244 20213 30097 40102 51007 91440 333 30/// 59025;","Q01  00002PRCP06"
"76458099999","2005-05-20T18:00:00","4","23.2","-106.4166666","4.0","COLONIA JUAN CARRASCO MAZATLAN SIN., MX","FM-12","99999","V020","170,1,N,0030,1","22000,1,9,N","018000,1,N,1","+0270,1","+0203,1","10103,1","06,0000,9,1",,,,,"01,1,+00840,1,08,1",,,"01,99,1,01,1,01,1,00800,1,00,1,00,1",,"01,9",,"120,M,+0295,1","240,N,+0214,1","99999,9,10099,1","0,1,002,1,-027,1",,"SYN112AAXX  20181 76458 32568 11703 10270 20203 30099 40103 50002 81100 91745 333 10295 20214 30/// 566// 59027 81828;","Q01  00002PRCP06"
"76458099999","2005-05-20T21:00:00","4","23.2","-106.4166666","4.0","COLONIA JUAN CARRASCO MAZATLAN SIN., MX","FM-12","99999","V020","180,1,N,0030,1","22000,1,9,N","020000,1,N,1","+0278,1","+9999,9","10091,1","06,0000,9,1",,,,,"00,1,+99999,9,99,9",,,"00,99,1,00,1,00,1,99999,9,00,1,00,1",,"01,9",,,,"99999,9,10087,1","7,1,012,1,-019,1",,"SYN076AAXX  20211 76458 32970 01803 10278 30087 40091 57012 92045 333 30/// 59019;","Q01  00002PRCP06"
"76458099999","2005-05-21T00:00:00","4","23.2","-106.4166666","4.0","COLONIA JUAN CARRASCO MAZATLAN SIN., MX","FM-12","99999","V020","240,1,N,0030,1","22000,1,9,N","020000,1,N,1","+0274,1","+0215,1","10085,1","06,0000,9,1","24,0000,9,1",,,,"00,1,+99999,9,99,9",,,"00,99,1,00,1,00,1,99999,9,00,1,00,1",,"01,9",,"120,M,+0304,1","180,N,+0214,1","99999,9,10081,1","7,1,006,1,-004,1",,"SYN106AAXX  21001 76458 32970 02403 10274 20215 30081 40085 57006 92358 333 10304 20214 30/// 55721 59004 70000;","Q01  00002PRCP06Q02  00002PRCP24"
"76458099999","2005-05-21T03:00:00","4","23.2","-106.4166666","4.0","COLONIA JUAN CARRASCO MAZATLAN SIN., MX","FM-12","99999","V020","240,1,N,0020,1","22000,1,9,N","010000,1,N,1","+0254,1","+0209,1","10101,1","06,0000,9,1",,,,,"00,1,+99999,9,99,9",,,"00,99,1,00,1,00,1,99999,9,00,1,00,1",,"01,9",,,,"99999,9,10097,1","2,1,016,1,+001,1",,"SYN082AAXX  21031 76458 32960 02402 10254 20209 30097 40101 52016 90252 333 30/// 58001;","Q01  00002PRCP06"
"76458099999","2005-05-21T06:00:00","4","23.2","-106.4166666","4.0","COLONIA JUAN CARRASCO MAZATLAN SIN., MX","FM-12","99999","V020","130,1,N,0030,1","22000,1,9,N","010000,1,N,1","+0253,1","+0213,1","10118,1","06,0000,9,1",,,,,,,,"02,99,1,00,1,00,1,99999,9,00,1,01,1","0684,9","01,9",,"240,M,+0304,1","240,N,+0214,1","99999,9,10113,1","2,1,016,1,+012,1",,"SYN124AAXX  21061 76458 32960 21303 10253 20213 30113 40118 52016 80001 90548 333 10304 20214 30/// 55114 2//// 56//0 58012 82070;","Q01  00002PRCP06"
"76458099999","2005-05-21T09:00:00","4","23.2","-106.4166666","4.0","COLONIA JUAN CARRASCO MAZATLAN SIN., MX","FM-12","99999","V020","100,1,N,0020,1","22000,1,9,N","008000,1,N,1","+0242,1","+0214,1","10112,1","06,0000,9,1",,,,,"00,1,+99999,9,99,9",,,"00,99,1,00,1,00,1,99999,9,00,1,00,1",,"01,9",,,,"99999,9,10108,1","6,1,005,1,+002,1",,"SYN082AAXX  21091 76458 32958 01002 10242 20214 30108 40112 56005 90848 333 30/// 58002;","Q01  00002PRCP06"
"76458099999","2005-05-21T12:00:00","4","23.2","-106.4166666","4.0","COLONIA JUAN CARRASCO MAZATLAN SIN., MX","FM-12","99999","V020","090,1,N,0020,1","00360,1,9,N","010000,1,N,1","+0238,1","+0209,1","10114,1","06,0000,9,1","24,0000,9,1",,,,"05,1,+00360,1,08,1",,,"05,99,1,05,1,01,1,00450,1,00,1,00,1",,"01,9","999,+0215,1","120,N,+0233,1","240,M,+0304,1","99999,9,10109,1","3,1,001,1,+019,1",,"SYN118AAXX  21121 76458 32460 50902 10238 20209 30109 40114 53001 85100 91150 333 10304 20233 30215 566// 58019 70000 85812;","Q01  00002PRCP06"
"76458099999","2005-05-21T15:00:00","4","23.2","-106.4166666","4.0","COLONIA JUAN CARRASCO MAZATLAN SIN., MX","FM-12","99999","V020","110,1,N,0030,1","22000,1,9,N","018000,1,N,1","+0262,1","+0214,1","10124,1","06,0000,9,1",,,,,"01,1,+00600,1,08,1",,,"01,99,1,01,1,01,1,00800,1,00,1,00,1",,"01,9",,,,"99999,9,10120,1","2,1,011,1,+023,1",,"SYN100AAXX  21151 76458 32568 11103 10262 20214 30120 40124 52011 81100 91445 333 30/// 566// 58023 81820;","Q01  00002PRCP06"
"76458099999","2005-05-21T18:00:00","4","23.2","-106.4166666","4.0","COLONIA JUAN CARRASCO MAZATLAN SIN., MX","FM-12","99999","V020","180,1,N,0040,1","22000,1,9,N","018000,1,N,1","+0276,1","+0220,1","10124,1","06,0000,9,1",,,,,"00,1,+99999,9,99,9",,,"00,99,1,00,1,00,1,99999,9,00,1,00,1",,"01,9",,"120,M,+0295,1","240,N,+0232,1","99999,9,10120,1","0,1,000,1,+021,1",,"SYN094AAXX  21181 76458 32968 01804 10276 20220 30120 40124 50000 91740 333 10295 20232 30/// 58021;","Q01  00002PRCP06"
"76458099999","2005-05-21T21:00:00","4","23.2","-106.4166666","4.0","COLONIA JUAN CARRASCO MAZATLAN SIN., MX","FM-12","99999","V020","180,1,N,0050,1","22000,1,9,N","008000,1,N,1","+0280,1","+0193,1","10108,1","06,0000,9,1",,,,,"00,1,+99999,9,99,9",,,"00,99,1,00,1,00,1,99999,9,00,1,00,1",,"01,9",,,,"99999,9,10103,1","7,1,016,1,+017,1",,"SYN082AAXX  21211 76458 32958 01805 10280 20193 30103 40108 57016 92040 333 30/// 58017;","Q01  00002PRCP06"
"76458099999","2005-05-22T03:00:00","4","23.2","-106.4166666","4.0","COLONIA JUAN CARRASCO MAZATLAN SIN., MX","FM-12","99999","V020","180,1,N,0010,1","22000,1,9,N","008000,1,N,1","+0248,1","+0205,1","10137,1","06,0000,9,1",,,,,"08,1,+00015,1,02,1",,,"99,99,9,02,1,00,1,99999,9,01,1,00,1",,"01,9",,,,"99999,9,10099,1","6,1,005,1,-024,1",,"SYN094AAXX  22031 76458 32958 31801 10248 20205 30099 40137 56005 82010 90250 333 30/// 59024 88200;","Q01  00002PRCP06"
"76458099999","2005-05-22T06:00:00","4","23.2","-106.4166666","4.0","COLONIA JUAN CARRASCO MAZATLAN SIN., MX","FM-12","99999","V020","240,1,N,0020,1","22000,1,9,N","010000,1,N,1","+0245,1","+0200,1","10119,1","06,0000,9,1",,,,,"00,1,+99999,9,99,9",,,"00,99,1,00,1,00,1,99999,9,00,1,00,1","0702,9","01,9",,"240,M,+0300,1","240,N,+0232,1","99999,9,10115,1","2,1,016,1,+999,9",,"SYN106AAXX  22061 76458 32960 02402 10245 20200 30115 40119 52016 90548 333 10300 20232 30/// 55117 2//// 58002;","Q01  00002PRCP06"
"76458099999","2005-05-22T09:00:00","4","23.2","-106.4166666","4.0","COLONIA JUAN CARRASCO MAZATLAN SIN., MX","FM-12","99999","V020","160,1,N,0020,1","22000,1,9,N","008000,1,N,1","+0245,1","+0220,1","10109,1","06,0000,9,1",,,,,,,,"02,99,1,02,1,00,1,99999,9,03,1,00,1",,"01,9",,,,"99999,9,10105,1","7,1,014,1,-003,1",,"SYN101AAXX  22091 76458 32958 21602 10245 20220 30105 40109 57014 82030 908489 333 30/// 56/0/ 59003 82356;","Q01  00002PRCP06"
"76458099999","2005-05-22T12:00:00","4","23.2","-106.4166666","4.0","COLONIA JUAN CARRASCO MAZATLAN SIN., MX","FM-12","99999","V020","090,1,N,0020,1","22000,1,9,N","008000,1,N,1","+0236,1","+0213,1","10112,1","06,0000,9,1","24,0000,9,1",,,,"01,1,+00300,1,08,1",,,"01,99,1,01,1,01,1,00075,1,99,9,99,9",,"01,9","999,+0210,1","120,N,+0220,1","240,M,+0300,1","99999,9,10108,1","3,1,003,1,-001,1",,"SYN118AAXX  22121 76458 32158 10902 10236 20213 30108 40112 53003 811// 91140 333 10300 20220 30210 565// 59001 70000 81810;","Q01  00002PRCP06"
"76458099999","2005-05-22T15:00:00","4","23.2","-106.4166666","4.0","COLONIA JUAN CARRASCO MAZATLAN SIN., MX","FM-12","99999","V020","150,1,N,0030,1","00600,1,9,N","012000,1,N,1","+0252,1","+0204,1","10131,1","06,0000,9,1",,,,,"08,1,+00600,1,06,1",,,"08,99,1,08,1,05,1,00800,1,99,9,99,9",,"01,9",,,,"99999,9,10127,1","2,1,019,1,+007,1",,"SYN100AAXX  22151 76458 31562 81503 10252 20204 30127 40131 52019 885// 91440 333 30/// 563// 58007 88620;","Q01  00002PRCP06"
"76458099999","2005-05-22T18:00:00","4","23.2","-106.4166666","4.0","COLONIA JUAN CARRASCO MAZATLAN SIN., MX","FM-12","99999","V020","180,1,N,0030,1","22000,1,9,N","018000,1,N,1","+0268,1","+0209,1","10134,1","06,0000,9,1",,,,,"02,1,+00780,1,06,1",,,"99,99,9,99,9,99,9,99999,9,00,1,00,1",,"01,9",,"120,M,+0280,1","240,N,+0220,1","99999,9,10129,1","0,1,003,1,+010,1",,"SYN118AAXX  22181 76458 32568 01803 10268 20209 30129 40134 50003 82420 91750 333 10280 20220 30/// 5669/ 58010 82626 86458;","Q01  00002PRCP06"
"76458099999","2005-05-22T21:00:00","4","23.2","-106.4166666","4.0","COLONIA JUAN CARRASCO MAZATLAN SIN., MX","FM-12","99999","V020","180,1,N,0030,1","00810,1,9,N","018000,1,N,1","+0273,1","+0207,1","10125,1","06,0000,9,1",,,,,"05,1,+00810,1,06,1","01,1,+03600,1,03,1",,"07,99,1,05,1,04,1,00800,1,03,1,08,1",,"01,9",,,,"99999,9,10121,1","7,1,009,1,+017,1",,"SYN112AAXX  22211 76458 32568 71803 10273 20207 30121 40125 57009 85438 92045 333 30/// 56699 58017 85627 81362 81068;","Q01  00002PRCP06"
"76458099999","2005-05-23T06:00:00","4","23.2","-106.4166666","4.0","COLONIA JUAN CARRASCO MAZATLAN SIN., MX","FM-12","99999","V020","210,1,N,0030,1","22000,1,9,N","010000,1,N,1","+0240,1","+0204,1","10128,1","06,0000,9,1",,,,,,,,"03,99,1,03,1,04,1,00450,1,00,1,00,1","0186,9","01,9",,"240,M,+0298,1","240,N,+0220,1","99999,9,10124,1","2,1,013,1,+009,1",,"SYN124AAXX  23061 76458 32460 32103 10240 20204 30124 40128 52013 83400 90548 333 10298 20220 30/// 55031 2//// 566// 58009 83620;","Q01  00002PRCP06"
"76458099999","2005-05-23T09:00:00","4","23.2","-106.4166666","4.0","COLONIA JUAN CARRASCO MAZATLAN SIN., MX","FM-12","99999","V020","200,1,N,0030,1","22000,1,9,N","008000,1,N,1","+0242,1","+0201,1","10122,1","06,0000,9,1",,,,,"03,1,+00660,1,06,1",,,"03,99,1,03,1,06,1,00450,1,00,1,00,1",,"01,9",,,,"99999,9,10117,1","6,1,007,1,+012,1",,"SYN100AAXX  23091 76458 32458 32003 10242 20201 30117 40122 56007 83600 90848 333 30/// 565// 58012 83622;","Q01  00002PRCP06"
"76458099999","2005-05-23T12:00:00","4","23.2","-106.4166666","4.0","COLONIA JUAN CARRASCO MAZATLAN SIN., MX","FM-12","99999","V020","120,1,N,0020,1","22000,1,9,N","008000,1,N,1","+0236,1","+0207,1","10116,1","06,0000,9,1","24,0000,9,1",,,,"00,1,+99999,9,99,9",,,"00,99,1,00,1,00,1,99999,9,00,1,00,1",,"01,9","999,+0200,1","120,N,+0232,1","240,M,+0298,1","99999,9,10112,1","5,1,005,1,+004,1",,"SYN100AAXX  23121 76458 32958 01202 10236 20207 30112 40116 55005 91140 333 10298 20232 30200 58004 70000;","Q01  00002PRCP06Q02  00002PRCP24"
"76458099999","2005-05-23T15:00:00","4","23.2","-106.4166666","4.0","COLONIA JUAN CARRASCO MAZATLAN SIN., MX","FM-12","99999","V020","130,1,N,0030,1","22000,1,9,N","010000,1,N,1","+0258,1","+0204,1","10128,1","06,0000,9,1",,,"4,1,03,1","4,1,03,1","01,1,+00630,1,08,1",,,"01,99,1,01,1,01,1,00800,1,99,9,99,9",,"01,9",,,,"99999,9,10124,1","2,1,012,1,-003,1","05,1","SYN106AAXX  23151 76458 31560 11303 10258 20204 30124 40128 52012 70544 811// 91440 333 30/// 565// 59003 81821;","Q01  00002PRCP06"
"76458099999","2005-05-23T18:00:00","4","23.2","-106.4166666","4.0","COLONIA JUAN CARRASCO MAZATLAN SIN., MX","FM-12","99999","V020","180,1,N,0030,1","22000,1,9,N","018000,1,N,1","+0282,1","+0213,1","10128,1","06,0000,9,1",,,,,"01,1,+00870,1,08,1",,,"01,99,1,01,1,01,1,00800,1,00,1,00,1",,"01,9",,"120,M,+0295,1","240,N,+0228,1","99999,9,10124,1","0,1,000,1,-006,1",,"SYN112AAXX  23181 76458 32568 11803 10282 20213 30124 40128 50000 81100 91750 333 10295 20228 30/// 56200 59006 81829;","Q01  00002PRCP06"
"76458099999","2005-05-23T21:00:00","4","23.2","-106.4166666","4.0","COLONIA JUAN CARRASCO MAZATLAN SIN., MX","FM-12","99999","V020","240,1,N,0040,1","22000,1,9,N","018000,1,N,1","+0284,1","+0216,1","10120,1","06,0000,9,1",,,,,"02,1,+00840,1,08,1",,,"02,99,1,02,1,01,1,00800,1,00,1,00,1",,"01,9",,,,"99999,9,10115,1","7,1,009,1,-006,1",,"SYN100AAXX  23211 76458 32568 22404 10284 20216 30115 40120 57009 82100 92045 333 30/// 56200 59006 82828;","Q01  00002PRCP06"
"76458099999","2005-05-24T00:00:00","4","23.2","-106.4166666","4.0","COLONIA JUAN CARRASCO MAZATLAN SIN., MX","FM-12","99999","V020","210,1,N,0030,1","22000,1,9,N","020000,1,N,1","+0268,1","+0215,1","10106,1","06,0000,9,1","24,0000,9,1",,,,,,,"02,99,1,02,1,02,1,00800,1,00,1,00,1",,"01,9",,"120,M,+0301,1","180,N,+0228,1","99999,9,10102,1","7,1,013,1,-001,1",,"SYN124AAXX  24001 76458 32570 22103 10268 20215 30102 40106 57013 82200 92355 333 10301 20228 30/// 55851 56300 59001 70000 82817;","Q01  00002PRCP06"
"76458099999","2005-05-24T06:00:00","4","23.2","-106.4166666","4.0","COLONIA JUAN CARRASCO MAZATLAN SIN., MX","FM-12","99999","V020","120,1,N,0030,1","22000,1,9,N","010000,1,N,1","+0248,1","+0206,1","10140,1","06,0000,9,1",,,,,,,,"03,99,1,03,1,02,1,00450,1,00,1,00,1","0690,9","01,9",,"240,M,+0301,1","240,N,+0228,1","99999,9,10136,1","2,1,017,1,+012,1",,"SYN124AAXX  24061 76458 32460 31203 10248 20206 30136 40140 52017 83200 90548 333 10301 20228 30/// 55115 2//// 563// 58012 83818;","Q01  00002PRCP06"
"76458099999","2005-05-24T12:00:00","4","23.2","-106.4166666","4.0","COLONIA JUAN CARRASCO MAZATLAN SIN., MX","FM-12","99999","V020","030,1,N,0020,1","22000,1,9,N","010000,1,N,1","+0234,1","+0204,1","10123,1","06,0000,9,1","24,0000,9,1",,,,"04,1,+00360,1,08,1",,,"04,99,1,04,1,01,1,00450,1,00,1,00,1",,"01,9","999,+0194,1","120,N,+0230,1","240,M,+0301,1","99999,9,10119,1","6,1,007,1,+007,1",,"SYN118AAXX  24121 76458 32460 40302 10234 20204 30119 40123 56007 84100 91150 333 10301 20230 30194 56300 58007 70000 84812;","Q01  00002PRCP06"
"76458099999","2005-05-24T15:00:00","4","23.2","-106.4166666","4.0","COLONIA JUAN CARRASCO MAZATLAN SIN., MX","FM-12","99999","V020","030,1,N,0010,1","00540,1,9,N","020000,1,N,1","+0250,1","+0206,1","10130,1","06,0000,9,1",,,,,"07,1,+00540,1,08,1",,,"07,99,1,07,1,02,1,00450,1,00,1,00,1",,"01,9",,,,"99999,9,10125,1","3,1,007,1,+002,1",,"SYN100AAXX  24151 76458 32470 70301 10250 20206 30125 40130 53007 87200 91440 333 30/// 56300 58002 87818;","Q01  00002PRCP06"
"76458099999","2005-05-24T18:00:00","4","23.2","-106.4166666","4.0","COLONIA JUAN CARRASCO MAZATLAN SIN., MX","FM-12","99999","V020","180,1,N,0030,1","00750,1,9,N","018000,1,N,1","+0271,1","+0210,1","10130,1","06,0000,9,1",,,,,"07,1,+00750,1,06,1",,,"07,99,1,07,1,04,1,00800,1,00,1,00,1",,"01,9",,"120,M,+0281,1","240,N,+0227,1","99999,9,10126,1","0,1,001,1,+002,1",,"SYN112AAXX  24181 76458 32568 71803 10271 20210 30126 40130 50001 87400 91745 333 10281 20227 30/// 563// 58002 87625;","Q01  00002PRCP06"
"76458099999","2005-05-24T21:00:00","4","23.2","-106.4166666","4.0","COLONIA JUAN CARRASCO MAZATLAN SIN., MX","FM-12","99999","V020","240,1,N,0040,1","22000,1,9,N","020000,1,N,1","+0275,1","+0227,1","10122,1","06,0000,9,1",,,,,"01,1,+00600,1,08,1",,,"01,99,1,01,1,01,1,00800,1,00,1,00,1",,"01,9",,,,"99999,9,10118,1","7,1,008,1,+003,1",,"SYN100AAXX  24211 76458 32570 12404 10275 20227 30118 40122 57008 81100 92045 333 30/// 563// 58003 81820;","Q01  00002PRCP06"
"76458099999","2005-05-25T06:00:00","4","23.2","-106.4166666","4.0","COLONIA JUAN CARRASCO MAZATLAN SIN., MX","FM-12","99999","V020","180,1,N,0020,1","22000,1,9,N","010000,1,N,1","+0245,1","+0204,1","10139,1","06,0000,9,1",,,,,,,,"02,99,1,02,1,02,1,00450,1,00,1,00,1","0426,9","01,9",,"240,M,+0302,1","240,N,+0227,1","99999,9,10135,1","2,1,013,1,-001,1",,"SYN124AAXX  25061 76458 32460 21802 10245 20204 30135 40139 52013 82200 90548 333 10302 20227 30/// 55071 2//// 563// 59001 82822;","Q01  00002PRCP06"
"76458099999","2005-05-25T09:00:00","4","23.2","-106.4166666","4.0","COLONIA JUAN CARRASCO MAZATLAN SIN., MX","FM-12","99999","V020","060,1,N,0020,1","22000,1,9,N","008000,1,N,1","+0244,1","+0210,1","10132,1","06,0000,9,1",,,,,"02,1,+00600,1,08,1",,,"02,99,1,02,1,02,1,00450,1,00,1,00,1",,"01,9",,,,"99999,9,10127,1","6,1,008,1,+001,1",,"SYN100AAXX  25091 76458 32458 20602 10244 20210 30127 40132 56008 82200 90848 333 30/// 565// 58001 82820;","Q01  00002PRCP06"
"76458099999","2005-05-25T12:00:00","4","23.2","-106.4166666","4.0","COLONIA JUAN CARRASCO MAZATLAN SIN., MX","FM-12","99999","V020","360,1,N,0010,1","22000,1,9,N","008000,1,N,1","+0236,1","+0204,1","10125,1","06,0000,9,1","24,0000,9,1",,,,"04,1,+01800,1,03,1",,,"04,99,1,04,1,99,9,02250,1,03,1,99,9",,"01,9","999,+0206,1","120,N,+0232,1","240,M,+0302,1","99999,9,10120,1","6,1,007,1,+001,1",,"SYN118AAXX  25121 76458 32858 43601 10236 20204 30120 40125 56007 84/3/ 91140 333 10302 20232 30206 56/9/ 58001 70000 84356;","Q01  00002PRCP06"
"76458099999","2005-05-25T15:00:00","4","23.2","-106.4166666","4.0","COLONIA JUAN CARRASCO MAZATLAN SIN., MX","FM-12","99999","V020","140,1,N,0010,1","00570,1,9,N","018000,1,N,1","+0252,1","+0212,1","10128,1","06,0000,9,1",,,,,"07,1,+00570,1,08,1",,,"07,99,1,07,1,07,1,00450,1,00,1,00,1",,"01,9",,,,"99999,9,10124,1","2,1,004,1,-002,1",,"SYN100AAXX  25151 76458 32468 71401 10252 20212 30124 40128 52004 87700 91450 333 30/// 56300 59002 87819;","Q01  00002PRCP06"
"76458099999","2005-05-25T18:00:00","4","23.2","-106.4166666","4.0","COLONIA JUAN CARRASCO MAZATLAN SIN., MX","FM-12","99999","V020","240,1,N,0030,1","22000,1,9,N","018000,1,N,1","+0268,1","+0207,1","10127,1","06,0000,9,1",,,,,"01,1,+00750,1,08,1",,,"02,99,1,01,1,01,1,00800,1,03,1,00,1",,"01,9",,"120,M,+0295,1","240,N,+0233,1","99999,9,10123,1","0,1,001,1,-003,1",,"SYN118AAXX  25181 76458 32568 22403 10268 20207 30123 40127 50001 81130 91747 333 10295 20233 30/// 5619/ 59003 81825 81362;","Q01  00002PRCP06"
"76458099999","2005-05-25T21:00:00","4","23.2","-106.4166666","4.0","COLONIA JUAN CARRASCO MAZATLAN SIN., MX","FM-12","99999","V020","240,1,N,0030,1","22000,1,9,N","020000,1,N,1","+0275,1","+0206,1","10113,1","06,0000,9,1",,,,,"01,1,+00870,1,08,1",,,"04,99,1,01,1,01,1,00800,1,03,1,00,1",,"01,9",,,,"99999,9,10108,1","7,1,015,1,-010,1",,"SYN106AAXX  25211 76458 32570 42403 10275 20206 30108 40113 57015 81130 92045 333 30/// 5639/ 59010 81829 83362;","Q01  00002PRCP06"
"76458099999","2005-05-26T00:00:00","4","23.2","-106.4166666","4.0","COLONIA JUAN CARRASCO MAZATLAN SIN., MX","FM-12","99999","V020","270,1,N,0030,1","22000,1,9,N","020000,1,N,1","+0290,1","+0214,1","10097,1","06,0000,9,1","24,0000,9,1",,,,,,,"01,99,1,01,1,00,1,99999,9,03,1,00,1",,"01,9",,"120,M,+0300,1","180,N,+0233,1","99999,9,10093,1","7,1,015,1,-013,1",,"SYN124AAXX  26001 76458 32970 12703 10290 20214 30093 40097 57015 81030 92355 333 10300 20233 30/// 55341 56090 59013 70000 81358;","Q01  00002PRCP06"
"76458099999","2005-05-26T06:00:00","4","23.2","-106.4166666","4.0","COLONIA JUAN CARRASCO MAZATLAN SIN., MX","FM-12","99999","V020","270,1,N,0020,1","22000,1,9,N","010000,1,N,1","+0246,1","+0220,1","10126,1","06,0000,9,1",,,,,"00,1,+99999,9,99,9",,,"00,99,1,00,1,00,1,99999,9,00,1,00,1","0534,9","01,9",,"240,M,+0300,1","240,N,+0233,1","99999,9,10121,1","1,1,008,1,+999,9",,"SYN106AAXX  26061 76458 32960 02702 10246 20220 30121 40126 51008 90548 333 10300 20233 30/// 55089 2//// 59014;","Q01  00002PRCP06"
"76458099999","2005-05-26T12:00:00","4","23.2","-106.4166666","4.0","COLONIA JUAN CARRASCO MAZATLAN SIN., MX","FM-12","99999","V020","060,1,N,0010,1","22000,1,9,N","008000,1,N,1","+0236,1","+0207,1","10118,1","06,0000,9,1","24,0000,9,1",,,,"03,1,+00360,1,08,1",,,"03,99,1,03,1,01,1,00250,1,99,9,99,9",,"01,9","999,+0210,1","120,N,+0232,1","240,M,+0300,1","99999,9,10113,1","5,1,000,1,-007,1",,"SYN118AAXX  26121 76458 32358 30601 10236 20207 30113 40118 55000 831// 91140 333 10300 20232 30210 565// 59007 70000 83812;","Q01  00002PRCP06"
"76458099999","2005-05-26T15:00:00","4","23.2","-106.4166666","4.0","COLONIA JUAN CARRASCO MAZATLAN SIN., MX","FM-12","99999","V020","150,1,N,0020,1","02400,1,9,N","010000,1,N,1","+0252,1","+0207,1","10122,1","06,0000,9,1",,,"4,1,03,1","4,1,03,1","05,1,+02400,1,04,1",,,"07,99,1,07,1,99,9,02250,1,02,1,99,9",,"01,9",,,,"99999,9,10117,1","3,1,004,1,-007,1","05,1","SYN112AAXX  26151 76458 31860 71502 10252 20207 30117 40122 53004 70544 87/2/ 91440 333 30/// 56/9/ 59007 85458 82356;","Q01  00002PRCP06"
"76458099999","2005-05-26T18:00:00","4","23.2","-106.4166666","4.0","COLONIA JUAN CARRASCO MAZATLAN SIN., MX","FM-12","99999","V020","240,1,N,0030,1","03600,1,9,N","015000,1,N,1","+0264,1","+0211,1","10121,1","06,0000,9,1",,,"4,1,06,1","4,1,06,1","03,1,+00660,1,06,1",,,"06,99,1,03,1,04,1,00800,1,02,1,00,1",,"01,9",,"120,M,+0285,1","240,N,+0232,1","99999,9,10116,1","8,1,001,1,-007,1","05,1","SYN124AAXX  26181 76458 31565 62403 10264 20211 30116 40121 58001 70544 83420 91750 333 10285 20232 30/// 5669/ 59007 83622 83462;","Q01  00002PRCP06"
"76458099999","2005-05-26T21:00:00","4","23.2","-106.4166666","4.0","COLONIA JUAN CARRASCO MAZATLAN SIN., MX","FM-12","99999","V020","240,1,N,0050,1","22000,1,9,N","018000,1,N,1","+0278,1","+0209,1","10105,1","06,0000,9,1",,,,,"02,1,+00870,1,08,1",,,"02,99,1,02,1,01,1,00800,1,00,1,00,1",,"01,9",,,,"99999,9,10101,1","7,1,015,1,-007,1",,"SYN100AAXX  26211 76458 32568 22405 10278 20209 30101 40105 57015 82100 92045 333 30/// 563// 59007 82829;","Q01  00002PRCP06"
"76458099999","2005-05-27T06:00:00","4","23.2","-106.4166666","4.0","COLONIA JUAN CARRASCO MAZATLAN SIN., MX","FM-12","99999","V020","210,1,N,0020,1","00420,1,9,N","010000,1,N,1","+0246,1","+0204,1","10122,1","06,0000,9,1",,,,,,,,"07,99,1,07,1,07,1,00450,1,00,1,00,1","0414,9","01,9",,"240,M,+0298,1","240,N,+0232,1","99999,9,10117,1","1,1,009,1,-004,1",,"SYN124AAXX  27061 76458 32460 72102 10246 20204 30117 40122 51009 87700 90550 333 10298 20232 30/// 55069 2//// 56300 59004 87817;","Q01  00002PRCP06"
"76458099999","2005-05-27T09:00:00","4","23.2","-106.4166666","4.0","COLONIA JUAN CARRASCO MAZATLAN SIN., MX","FM-12","99999","V020","240,1,N,0020,1","00540,1,9,N","010000,1,N,1","+0247,1","+0204,1","10114,1","06,0000,9,1",,,,,"08,1,+00540,1,08,1",,,"08,99,1,08,1,07,1,00450,1,00,1,00,1",,"01,9",,,,"99999,9,10109,1","7,1,008,1,-004,1",,"SYN100AAXX  27091 76458 32460 82402 10247 20204 30109 40114 57008 88700 90845 333 30/// 56300 59004 88818;","Q01  00002PRCP06"
"76458099999","2005-05-27T12:00:00","4","23.2","-106.4166666","4.0","COLONIA JUAN CARRASCO MAZATLAN SIN., MX","FM-12","99999","V020","030,1,N,0020,1","02400,1,9,N","008000,1,N,1","+0246,1","+0203,1","10108,1","06,0000,9,1","24,0000,9,1",,,,"08,1,+02400,1,04,1",,,"08,99,1,08,1,99,9,02250,1,02,1,99,9",,"01,9","999,+0230,1","120,N,+0242,1","240,M,+0298,1","99999,9,10104,1","6,1,005,1,-009,1",,"SYN118AAXX  27121 76458 32858 80302 10246 20203 30104 40108 56005 88/2/ 91140 333 10298 20242 30230 56/9/ 59009 70000 88458;","Q01  00002PRCP06"
"76458099999","2005-05-27T15:00:00","4","23.2","-106.4166666","4.0","COLONIA JUAN CARRASCO MAZATLAN SIN., MX","FM-12","99999","V020","030,1,N,0020,1","02700,1,9,N","008000,1,N,1","+0246,1","+0203,1","10115,1","06,0000,9,1",,,,,"08,1,+02700,1,04,1",,,"08,99,1,08,1,00,1,02250,1,02,1,99,9",,"01,9",,,,"99999,9,10111,1","2,1,007,1,-005,1",,"SYN100AAXX  27151 76458 32858 80302 10246 20203 30111 40115 52007 8802/ 91440 333 30/// 56/9/ 59005 88459;","Q01  00002PRCP06"
"76458099999","2005-05-27T18:00:00","4","23.2","-106.4166666","4.0","COLONIA JUAN CARRASCO MAZATLAN SIN., MX","FM-12","99999","V020","210,1,N,0030,1","22000,1,9,N","999999,9,N,1","+0268,1","+0210,1","10111,1","06,0000,9,1",,,"4,1,06,1","4,1,06,1","03,1,+05400,1,02,1",,,"03,99,1,00,1,00,1,99999,9,00,1,08,1",,"01,9",,"120,M,+0289,1","240,N,+0242,1","99999,9,10107,1","8,1,004,1,-009,1","05,1","SYN118AAXX  27181 76458 31954 32103 10268 20210 30107 40111 58004 70544 80008 91745 333 10289 20242 30/// 56//9 59009 83268;","Q01  00002PRCP06"
"76458099999","2005-05-27T21:00:00","4","23.2","-106.4166666","4.0","COLONIA JUAN CARRASCO MAZATLAN SIN., MX","FM-12","99999","V020","240,1,N,0030,1","22000,1,9,N","018000,1,N,1","+0277,1","+0206,1","10112,1","06,0000,9,1",,,,,"01,1,+00900,1,06,1",,,"01,99,1,01,1,04,1,00800,1,00,1,00,1",,"01,9",,,,"99999,9,10108,1","0,1,001,1,+007,1",,"SYN100AAXX  27211 76458 32568 12403 10277 20206 30108 40112 50001 81400 92045 333 30/// 563// 58007 81630;","Q01  00002PRCP06"
"76458099999","2005-05-28T06:00:00","4","23.2","-106.4166666","4.0","COLONIA JUAN CARRASCO MAZATLAN SIN., MX","FM-12","99999","V020","150,1,N,0030,1","22000,1,9,N","010000,1,N,1","+0250,1","+0203,1","10134,1","06,0000,9,1",,,,,,,,"03,99,1,03,1,02,1,00450,1,00,1,00,1","0378,9","01,9",,"240,M,+0302,1","240,N,+0242,1","99999,9,10132,1","2,1,011,1,+015,1",,"SYN124AAXX  28061 76458 32460 31503 10250 20203 30132 40134 52011 83200 90548 333 10302 20242 30/// 55063 2//// 56/// 58015 83822;","Q01  00002PRCP06"
"76458099999","2005-05-28T09:00:00","4","23.2","-106.4166666","4.0","COLONIA JUAN CARRASCO MAZATLAN SIN., MX","FM-12","99999","V020","190,1,N,0020,1","22000,1,9,N","008000,1,N,1","+0243,1","+0201,1","10128,1","06,0000,9,1",,,,,"01,1,+00660,1,08,1",,,"01,99,1,01,1,02,1,00800,1,00,1,00,1",,"01,9",,,,"99999,9,10123,1","7,1,013,1,+014,1",,"SYN100AAXX  28091 76458 32558 11902 10243 20201 30123 40128 57013 81200 90848 333 30/// 565// 58014 81822;","Q01  00002PRCP06"
"76458099999","2005-05-28T12:00:00","4","23.2","-106.4166666","4.0","COLONIA JUAN CARRASCO MAZATLAN SIN., MX","FM-12","99999","V020","070,1,N,0010,1","22000,1,9,N","008000,1,N,1","+0236,1","+0201,1","10122,1","06,0000,9,1","24,0000,9,1",,,,"00,1,+99999,9,99,9",,,"00,99,1,00,1,00,1,99999,9,00,1,00,1",,"01,9","999,+0186,1","120,N,+0228,1","240,M,+0302,1","99999,9,10117,1","8,1,006,1,+013,1",,"SYN100AAXX  28121 76458 32958 00701 10236 20201 30117 40122 58006 91140 333 10302 20228 30186 58013 70000;","Q01  00002PRCP06Q02  00002PRCP24"
"76458099999","2005-05-28T15:00:00","4","23.2","-106.4166666","4.0","COLONIA JUAN CARRASCO MAZATLAN SIN., MX","FM-12","99999","V020","120,1,N,0020,1","22000,1,9,N","014000,1,N,1","+0262,1","+0205,1","10127,1","06,0000,9,1",,,,,"01,1,+01800,1,03,1",,,"01,99,1,01,1,00,1,02250,1,03,1,99,9",,"01,9",,,,"99999,9,10123,1","3,1,006,1,+012,1",,"SYN100AAXX  28151 76458 32864 11202 10262 20205 30123 40127 53006 8103/ 91440 333 30/// 56/9/ 58012 81356;","Q01  00002PRCP06"
"76458099999","2005-05-28T18:00:00","4","23.2","-106.4166666","4.0","COLONIA JUAN CARRASCO MAZATLAN SIN., MX","FM-12","99999","V020","270,1,N,0040,1","22000,1,9,N","016000,1,N,1","+0270,1","+0236,1","10124,1","06,0000,9,1",,,,,"00,1,+99999,9,99,9",,,"00,99,1,00,1,00,1,99999,9,00,1,00,1",,"01,9",,"120,M,+0295,1","240,N,+0226,1","99999,9,10119,1","0,1,003,1,+012,1",,"SYN094AAXX  28181 76458 32966 02704 10270 20236 30119 40124 50003 91758 333 10295 20226 30/// 58012;","Q01  00002PRCP06"
"76458099999","2005-05-28T21:00:00","4","23.2","-106.4166666","4.0","COLONIA JUAN CARRASCO MAZATLAN SIN., MX","FM-12","99999","V020","240,1,N,0040,1","22000,1,9,N","018000,1,N,1","+0278,1","+0233,1","10116,1","06,0000,9,1",,,,,"01,1,+00570,1,09,1",,,"01,99,1,01,1,03,1,00450,1,00,1,00,1",,"01,9",,,,"99999,9,10112,1","7,1,008,1,+003,1",,"SYN100AAXX  28211 76458 32468 12404 10278 20233 30112 40116 57008 81300 92050 333 30/// 56100 58003 81919;","Q01  00002PRCP06"
"76458099999","2005-05-29T03:00:00","4","23.2","-106.4166666","4.0","COLONIA JUAN CARRASCO MAZATLAN SIN., MX","FM-12","99999","V020","310,1,N,0030,1","22000,1,9,N","010000,1,N,1","+0253,1","+0215,1","10110,1","06,0000,9,1",,,,,"00,1,+99999,9,99,9",,,"00,99,1,00,1,00,1,99999,9,00,1,00,1",,"01,9",,,,"99999,9,10106,1","3,1,003,1,-015,1",,"SYN082AAXX  29031 76458 32960 03103 10253 20215 30106 40110 53003 90245 333 30/// 59015;","Q01  00002PRCP06"
"76458099999","2005-05-29T06:00:00","4","23.2","-106.4166666","4.0","COLONIA JUAN CARRASCO MAZATLAN SIN., MX","FM-12","99999","V020","300,1,N,0020,1","22000,1,9,N","010000,1,N,1","+0248,1","+0211,1","10124,1","06,0000,9,1",,,,,"00,1,+99999,9,99,9",,,"00,99,1,00,1,00,1,99999,9,00,1,00,1","0690,9","01,9",,"240,M,+0300,1","240,N,+0226,1","99999,9,10120,1","2,1,014,1,+999,9",,"SYN106AAXX  29061 76458 32960 03002 10248 20211 30120 40124 52014 90548 333 10300 20226 30/// 55115 2//// 59012;","Q01  00002PRCP06"
"76458099999","2005-05-29T09:00:00","4","23.2","-106.4166666","4.0","COLONIA JUAN CARRASCO MAZATLAN SIN., MX","FM-12","99999","V020","120,1,N,0020,1","00540,1,9,N","008000,1,N,1","+0245,1","+0215,1","10119,1","06,0000,9,1",,,,,"06,1,+00540,1,08,1",,,"06,99,1,06,1,02,1,00450,1,00,1,00,1",,"01,9",,,,"99999,9,10115,1","6,1,005,1,-008,1",,"SYN100AAXX  29091 76458 32458 61202 10245 20215 30115 40119 56005 86200 90848 333 30/// 565// 59008 86818;","Q01  00002PRCP06"
"76458099999","2005-05-29T15:00:00","4","23.2","-106.4166666","4.0","COLONIA JUAN CARRASCO MAZATLAN SIN., MX","FM-12","99999","V020","270,1,N,0020,1","00360,1,9,N","010000,1,N,1","+0249,1","+0218,1","10133,1","06,0000,9,1",,,"4,1,03,1","4,1,03,1","07,1,+00360,1,07,1",,,"07,99,1,07,1,06,1,00450,1,00,1,00,1",,"01,9",,,,"99999,9,10128,1","2,1,015,1,+005,1","05,1","SYN106AAXX  29151 76458 31460 72702 10249 20218 30128 40133 52015 70544 87600 91450 333 30/// 56300 58005 87712;","Q01  00002PRCP06"
"76458099999","2005-05-29T18:00:00","4","23.2","-106.4166666","4.0","COLONIA JUAN CARRASCO MAZATLAN SIN., MX","FM-12","99999","V020","240,1,N,0040,1","22000,1,9,N","015000,1,N,1","+0280,1","+0219,1","10131,1","06,0000,9,1",,,,,"00,1,+99999,9,99,9",,,"00,99,1,00,1,00,1,99999,9,00,1,00,1",,"01,9",,"120,M,+0295,1","240,N,+0220,1","99999,9,10127,1","8,1,001,1,+008,1",,"SYN094AAXX  29181 76458 32965 02404 10280 20219 30127 40131 58001 91745 333 10295 20220 30/// 58008;","Q01  00002PRCP06"
"76458099999","2005-05-29T21:00:00","4","23.2","-106.4166666","4.0","COLONIA JUAN CARRASCO MAZATLAN SIN., MX","FM-12","99999","V020","240,1,N,0040,1","22000,1,9,N","018000,1,N,1","+0280,1","+0209,1","10118,1","06,0000,9,1",,,,,"00,1,+99999,9,99,9",,,"00,99,1,00,1,00,1,99999,9,00,1,00,1",,"01,9",,,,"99999,9,10114,1","7,1,013,1,+002,1",,"SYN082AAXX  29211 76458 32968 02404 10280 20209 30114 40118 57013 92045 333 30/// 58002;","Q01  00002PRCP06"
"76458099999","2005-05-30T00:00:00","4","23.2","-106.4166666","4.0","COLONIA JUAN CARRASCO MAZATLAN SIN., MX","FM-12","99999","V020","250,1,N,0030,1","22000,1,9,N","018000,1,N,1","+0276,1","+0225,1","10108,1","06,0000,9,1","24,0000,9,1",,,,"00,1,+99999,9,99,9",,,"00,99,1,00,1,00,1,99999,9,00,1,00,1",,"01,9",,"120,M,+0302,1","180,N,+0220,1","99999,9,10104,1","7,1,009,1,+001,1",,"SYN106AAXX  30001 76458 32968 02503 10276 20225 30104 40108 57009 92358 333 10302 20220 30/// 54641 58001 70000;","Q01  00002PRCP06Q02  00002PRCP24"
"76458099999","2005-05-30T06:00:00","4","23.2","-106.4166666","4.0","COLONIA JUAN CARRASCO MAZATLAN SIN., MX","FM-12","99999","V020","330,1,N,0020,1","22000,1,9,N","010000,1,N,1","+0256,1","+0216,1","10126,1","06,0000,9,1",,,,,"00,1,+99999,9,99,9",,,"00,99,1,00,1,00,1,99999,9,00,1,00,1","0504,9","01,9",,"240,M,+0302,1","240,N,+0220,1","99999,9,10121,1","2,1,014,1,+999,9",,"SYN106AAXX  30061 76458 32960 03302 10256 20216 30121 40126 52014 90548 333 10302 20220 30/// 55084 2//// 58001;","Q01  00002PRCP06"
"76458099999","2005-05-30T12:00:00","4","23.2","-106.4166666","4.0","COLONIA JUAN CARRASCO MAZATLAN SIN., MX","FM-12","99999","V020","010,1,N,0010,1","00210,1,9,N","008000,1,N,1","+0238,1","+0221,1","10116,1","06,0000,9,1","24,0000,9,1",,,,"06,1,+00210,1,08,1",,,"06,99,1,06,1,02,1,00150,1,99,9,99,9",,"01,9","999,+0212,1","120,N,+0234,1","240,M,+0302,1","99999,9,10112,1","4,1,000,1,-001,1",,"SYN118AAXX  30121 76458 32258 60101 10238 20221 30112 40116 54002 862// 91140 333 10302 20234 30212 565// 59001 70000 86807;","Q01  00002PRCP06"
"76458099999","2005-05-30T15:00:00","4","23.2","-106.4166666","4.0","COLONIA JUAN CARRASCO MAZATLAN SIN., MX","FM-12","99999","V020","030,1,N,0010,1","22000,1,9,N","008000,1,N,1","+0256,1","+0216,1","10120,1","06,0000,9,1",,,,,"00,1,+99999,9,99,9",,,"00,99,1,00,1,00,1,99999,9,00,1,00,1",,"01,9",,,,"99999,9,10116,1","0,1,003,1,-012,1",,"SYN082AAXX  30151 76458 32958 00301 10256 20216 30116 40120 50003 91440 333 30/// 59012;","Q01  00002PRCP06"
"76458099999","2005-05-30T18:00:00","4","23.2","-106.4166666","4.0","COLONIA JUAN CARRASCO MAZATLAN SIN., MX","FM-12","99999","V020","210,1,N,0030,1","22000,1,9,N","016000,1,N,1","+0270,1","+0219,1","10118,1","06,0000,9,1",,,"4,1,06,1","4,1,06,1","00,1,+99999,9,99,9",,,"00,99,1,00,1,00,1,99999,9,00,1,00,1",,"01,9",,"120,M,+0290,1","240,N,+0232,1","99999,9,10114,1","0,1,002,1,-013,1","05,1","SYN100AAXX  30181 76458 31966 02103 10270 20219 30114 40118 50002 70544 91750 333 10290 20232 30/// 59013;","Q01  00002PRCP06"
"76458099999","2005-05-30T21:00:00","4","23.2","-106.4166666","4.0","COLONIA JUAN CARRASCO MAZATLAN SIN., MX","FM-12","99999","V020","260,1,N,0040,1","22000,1,9,N","020000,1,N,1","+0281,1","+0223,1","10098,1","06,0000,9,1",,,,,"01,1,+08700,1,00,1",,,"01,99,1,00,1,00,1,99999,9,00,1,01,1",,"01,9",,,,"99999,9,10094,1","7,1,020,1,-020,1",,"SYN100AAXX  30211 76458 32970 12604 10281 20223 30094 40098 57020 80001 92050 333 30/// 56009 59020 81079;","Q01  00002PRCP06"
"76458099999","2005-05-31T03:00:00","4","23.2","-106.4166666","4.0","COLONIA JUAN CARRASCO MAZATLAN SIN., MX","FM-12","99999","V020","280,1,N,0020,1","22000,1,9,N","010000,1,N,1","+0260,1","+0224,1","10092,1","06,0000,9,1",,,,,"00,1,+99999,9,99,9",,,"00,99,1,00,1,00,1,99999,9,00,1,00,1",,"01,9",,,,"99999,9,10088,1","2,1,012,1,-019,1",,"SYN082AAXX  31031 76458 32960 02802 10260 20224 30088 40092 52012 90255 333 30/// 59019;","Q01  00002PRCP06"
"76458099999","2005-05-31T06:00:00","4","23.2","-106.4166666","4.0","COLONIA JUAN CARRASCO MAZATLAN SIN., MX","FM-12","99999","V020","330,1,N,0020,1","22000,1,9,N","010000,1,N,1","+0252,1","+0225,1","10111,1","06,0000,9,1",,,,,"00,1,+99999,9,99,9",,,"00,99,1,00,1,00,1,99999,9,00,1,00,1","0696,9","01,9",,"240,M,+0300,1","240,N,+0232,1","99999,9,10106,1","2,1,018,1,+999,9",,"SYN106AAXX  31061 76458 32960 03302 10252 20225 30106 40111 52018 90548 333 10300 20232 30/// 55116 2//// 59015;","Q01  00002PRCP06"
"76458099999","2005-05-31T09:00:00","4","23.2","-106.4166666","4.0","COLONIA JUAN CARRASCO MAZATLAN SIN., MX","FM-12","99999","V020","120,1,N,0020,1","22000,1,9,N","008000,1,N,1","+0246,1","+0216,1","10106,1","06,0000,9,1",,,,,"00,1,+99999,9,99,9",,,"00,99,1,00,1,00,1,99999,9,00,1,00,1",,"01,9",,,,"99999,9,10101,1","6,1,005,1,-013,1",,"SYN082AAXX  31091 76458 32958 01202 10246 20216 30101 40106 56005 90848 333 30/// 59013;","Q01  00002PRCP06"
"76458099999","2005-05-31T12:00:00","4","23.2","-106.4166666","4.0","COLONIA JUAN CARRASCO MAZATLAN SIN., MX","FM-12","99999","V020","120,1,N,0020,1","22000,1,9,N","010000,1,N,1","+0232,1","+0218,1","10103,1","06,0000,9,1","24,0000,9,1",,,,"00,1,+99999,9,99,9",,,"00,99,1,00,1,00,1,99999,9,00,1,00,1",,"01,9","999,+0193,1","120,N,+0228,1","240,M,+0302,1","99999,9,10099,1","5,1,003,1,-013,1",,"SYN100AAXX  31121 76458 32960 01202 10232 20218 30099 40103 55003 91150 333 10302 20228 30193 59013 70000;","Q01  00002PRCP06Q02  00002PRCP24"
"76458099999","2005-05-31T15:00:00","4","23.2","-106.4166666","4.0","COLONIA JUAN CARRASCO MAZATLAN SIN., MX","FM-12","99999","V020","150,1,N,0020,1","22000,1,9,N","014000,1,N,1","+0263,1","+0228,1","10118,1","06,0000,9,1",,,"4,1,03,1","4,1,03,1","04,1,+00450,1,08,1",,,"04,99,1,04,1,02,1,00450,1,00,1,00,1",,"01,9",,,,"99999,9,10113,1","2,1,014,1,-002,1","05,1","SYN106AAXX  31151 76458 31464 41502 10263 20228 30113 40118 52014 70544 84200 91450 333 30/// 56300 59002 84815;","Q01  00002PRCP06"
"76458099999","2005-05-31T18:00:00","4","23.2","-106.4166666","4.0","COLONIA JUAN CARRASCO MAZATLAN SIN., MX","FM-12","99999","V020","210,1,N,0030,1","22000,1,9,N","018000,1,N,1","+0283,1","+0213,1","10117,1","06,0000,9,1",,,,,"00,1,+99999,9,99,9",,,"00,99,1,00,1,00,1,99999,9,00,1,00,1",,"01,9",,"120,M,+0300,1","240,N,+0228,1","99999,9,10113,1","0,1,000,1,-001,1",,"SYN094AAXX  31181 76458 32968 02103 10283 20213 30113 40117 50000 91745 333 10300 20228 30/// 59001;","Q01  00002PRCP06"
"76458099999","2005-05-31T21:00:00","4","23.2","-106.4166666","4.0","COLONIA JUAN CARRASCO MAZATLAN SIN., MX","FM-12","99999","V020","240,1,N,0030,1","22000,1,9,N","020000,1,N,1","+0279,1","+0214,1","10104,1","06,0000,9,1",,,,,"00,1,+99999,9,99,9",,,"00,99,1,00,1,00,1,99999,9,00,1,00,1",,"01,9",,,,"99999,9,10100,1","7,1,013,1,+006,1",,"SYN082AAXX  31211 76458 32970 02403 10279 20214 30100 40104 57013 92048 333 30/// 58006;","Q01  00002PRCP06"
"76458099999","2005-06-01T00:00:00","4","23.2","-106.4166666","4.0","COLONIA JUAN CARRASCO MAZATLAN SIN., MX","FM-12","99999","V020","270,1,N,0030,1","22000,1,9,N","020000,1,N,1","+0280,1","+0221,1","10092,1","06,0000,9,1","24,0000,9,1",,,,"00,1,+99999,9,99,9",,,"00,99,1,00,1,00,1,99999,9,00,1,00,1",,"01,9",,"120,M,+0305,1","180,N,+0228,1","99999,9,10087,1","7,1,013,1,+011,1",,"SYN106AAXX  01001 76458 32970 02703 10280 20221 30087 40092 57013 92359 333 10305 20228 30/// 55261 58011 70000;","Q01  00002PRCP06Q02  00002PRCP24"
"76458099999","2005-06-01T03:00:00","4","23.2","-106.4166666","4.0","COLONIA JUAN CARRASCO MAZATLAN SIN., MX","FM-12","99999","V020","300,1,N,0020,1","22000,1,9,N","010000,1,N,1","+0260,1","+0224,1","10093,1","06,0000,9,1",,,,,"00,1,+99999,9,99,9",,,"00,99,1,00,1,00,1,99999,9,00,1,00,1",,"01,9",,,,"99999,9,10089,1","2,1,006,1,+001,1",,"SYN082AAXX  01031 76458 32960 03002 10260 20224 30089 40093 52006 90250 333 30/// 58001;","Q01  00002PRCP06"
"76458099999","2005-06-01T09:00:00","4","23.2","-106.4166666","4.0","COLONIA JUAN CARRASCO MAZATLAN SIN., MX","FM-12","99999","V020","210,1,N,0010,1","00600,1,9,N","008000,1,N,1","+0249,1","+0227,1","10087,1","06,0000,9,1",,,,,"05,1,+00600,1,08,1",,,"05,99,1,02,1,02,1,00450,1,00,1,00,1",,"01,9",,,,"99999,9,10083,1","7,1,017,1,-018,1",,"SYN100AAXX  01091 76458 32458 52101 10249 20227 30083 40087 57017 82200 90848 333 30/// 565// 59018 85820;","Q01  00002PRCP06"
"76458099999","2005-06-01T12:00:00","4","23.2","-106.4166666","4.0","COLONIA JUAN CARRASCO MAZATLAN SIN., MX","FM-12","99999","V020","150,1,N,0020,1","22000,1,9,N","008000,1,N,1","+0243,1","+0229,1","10090,1","06,0000,9,1","24,0000,9,1",,,,"02,1,+00510,1,08,1",,,"02,99,1,02,1,02,1,00150,1,00,1,00,1",,"01,9","999,+0205,1","120,N,+0240,1","240,M,+0305,1","99999,9,10086,1","1,1,003,1,-013,1",,"SYN124AAXX  01121 76458 32258 21502 10243 20229 30086 40090 51003 82200 91148 333 0/5// 10305 20240 30205 57855 59013 70000 82817;","Q01  00002PRCP06"
"76458099999","2005-06-01T15:00:00","4","23.2","-106.4166666","4.0","COLONIA JUAN CARRASCO MAZATLAN SIN., MX","FM-12","99999","V020","120,1,N,0020,1","22000,1,9,N","014000,1,N,1","+0266,1","+0230,1","10108,1","06,0000,9,1",,,,,"02,1,+00450,1,08,1",,,"02,99,1,02,1,02,1,00450,1,99,9,99,9",,"01,9",,,,"99999,9,10104,1","2,1,018,1,+009,1",,"SYN106AAXX  01151 76458 32464 21202 10266 20230 30104 40108 52018 822// 91440 333 005// 30/// 57850 58009 82815;","Q01  00002PRCP06"
"76458099999","2005-06-01T18:00:00","4","23.2","-106.4166666","4.0","COLONIA JUAN CARRASCO MAZATLAN SIN., MX","FM-12","99999","V020","180,1,N,0030,1","22000,1,9,N","014000,1,N,1","+0287,1","+0226,1","10109,1","06,0000,9,1",,,,,"00,1,+99999,9,99,9",,,"00,99,1,00,1,00,1,99999,9,00,1,00,1",,"01,9",,"120,M,+0302,1","240,N,+0232,1","99999,9,10105,1","4,1,000,1,-008,1",,"SYN094AAXX  01181 76458 31964 01803 10287 20226 30105 40109 54001 91750 333 10302 20232 30/// 59008;","Q01  00002PRCP06"
"76458099999","2005-06-01T21:00:00","4","23.2","-106.4166666","4.0","COLONIA JUAN CARRASCO MAZATLAN SIN., MX","FM-12","99999","V020","150,1,N,0030,1","22000,1,9,N","020000,1,N,1","+0298,1","+0227,1","10106,1","06,0000,9,1",,,,,"00,1,+99999,9,99,9",,,"00,99,1,00,1,00,1,99999,9,00,1,00,1",,"01,9",,,,"99999,9,10102,1","7,1,003,1,-002,1",,"SYN082AAXX  01211 76458 32970 01503 10298 20227 30102 40106 57003 92050 333 30/// 59002;","Q01  00002PRCP06"
"76458099999","2005-06-02T00:00:00","4","23.2","-106.4166666","4.0","COLONIA JUAN CARRASCO MAZATLAN SIN., MX","FM-12","99999","V020","210,1,N,0020,1","22000,1,9,N","020000,1,N,1","+0284,1","+0192,1","10099,1","06,0000,9,1","24,0000,9,1",,,,"00,1,+99999,9,99,9",,,"00,99,1,00,1,00,1,99999,9,00,1,00,1",,"01,9",,"120,M,+0309,1","180,N,+0232,1","99999,9,10094,1","7,1,008,1,+011,1",,"SYN106AAXX  02001 76458 32970 02102 10284 20192 30094 40099 57008 92345 333 10309 20232 30/// 50521 58011 70000;","Q01  00002PRCP06Q02  00002PRCP24"
"76458099999","2005-06-02T03:00:00","4","23.2","-106.4166666","4.0","COLONIA JUAN CARRASCO MAZATLAN SIN., MX","FM-12","99999","V020","210,1,N,0020,1","22000,1,9,N","010000,1,N,1","+0266,1","+0211,1","10102,1","06,0000,9,1",,,,,"00,1,+99999,9,99,9",,,"00,99,1,00,1,00,1,99999,9,00,1,00,1",,"01,9",,,,"99999,9,10098,1","2,1,004,1,+009,1",,"SYN082AAXX  02031 76458 32960 02102 10266 20211 30098 40102 52004 90247 333 30/// 58009;","Q01  00002PRCP06"
"76458099999","2005-06-02T06:00:00","4","23.2","-106.4166666","4.0","COLONIA JUAN CARRASCO MAZATLAN SIN., MX","FM-12","99999","V020","180,1,N,0020,1","22000,1,9,N","010000,1,N,1","+0258,1","+0218,1","10111,1","06,0000,9,1",,,,,"00,1,+99999,9,99,9",,,"00,99,1,00,1,00,1,99999,9,00,1,00,1","0690,9","01,9",,"240,M,+0309,1","240,N,+0232,1","99999,9,10106,1","2,1,011,1,+005,1",,"SYN100AAXX  02061 76458 32960 01802 10258 20218 30106 40111 52011 90558 333 10309 20232 30/// 55115 58005;","Q01  00002PRCP06"
"76458099999","2005-06-02T09:00:00","4","23.2","-106.4166666","4.0","COLONIA JUAN CARRASCO MAZATLAN SIN., MX","FM-12","99999","V020","180,1,N,0020,1","00360,1,9,N","010000,1,N,1","+0250,1","+0222,1","10097,1","06,0000,9,1",,,,,"05,1,+00360,1,06,1",,,"05,99,1,05,1,04,1,00450,1,00,1,00,1",,"01,9",,,,"99999,9,10092,1","7,1,014,1,+009,1",,"SYN100AAXX  02091 76458 32460 51802 10250 20222 30092 40097 57014 85400 90856 333 30/// 56700 58009 85612;","Q01  00002PRCP06"
"76458099999","2005-06-02T15:00:00","4","23.2","-106.4166666","4.0","COLONIA JUAN CARRASCO MAZATLAN SIN., MX","FM-12","99999","V020","180,1,N,0020,1","22000,1,9,N","014000,1,N,1","+0262,1","+0208,1","10115,1","06,0000,9,1",,,,,"01,1,+00660,1,08,1",,,"01,99,1,01,1,01,1,00800,1,99,9,99,9",,"01,9",,,,"99999,9,10110,1","2,1,017,1,+006,1",,"SYN106AAXX  02151 76458 32564 11802 10262 20208 30110 40115 52017 811// 91440 333 004// 30/// 57840 58006 81822;","Q01  00002PRCP06"
"76458099999","2005-06-02T18:00:00","4","23.2","-106.4166666","4.0","COLONIA JUAN CARRASCO MAZATLAN SIN., MX","FM-12","99999","V020","160,1,N,0040,1","22000,1,9,N","020000,1,N,1","+0286,1","+0225,1","10113,1","06,0000,9,1",,,"4,1,06,1","4,1,06,1","00,1,+99999,9,99,9",,,"00,99,1,00,1,00,1,99999,9,00,1,00,1",,"01,9",,"120,M,+0308,1","240,N,+0238,1","99999,9,10109,1","8,1,002,1,+004,1","02,1","SYN100AAXX  02181 76458 31970 01604 10286 20225 30109 40113 58002 70244 91755 333 10308 20238 30/// 58004;","Q01  00002PRCP06"
"76458099999","2005-06-03T00:00:00","4","23.2","-106.4166666","4.0","COLONIA JUAN CARRASCO MAZATLAN SIN., MX","FM-12","99999","V020","250,1,N,0020,1","22000,1,9,N","020000,1,N,1","+0276,1","+0214,1","10084,1","06,0000,9,1","24,0000,9,1",,,,"00,1,+99999,9,99,9",,,"00,99,1,00,1,00,1,99999,9,00,1,00,1",,"01,9",,"120,M,+0309,1","180,N,+0238,1","99999,9,10080,1","7,1,020,1,-014,1",,"SYN112AAXX  03001 76458 32970 02502 10276 20214 30080 40084 57020 92345 333 0//// 10309 20238 30/// 50511 59014 70000;","Q01  00002PRCP06Q02  00002PRCP24"
"76458099999","2005-06-03T12:00:00","4","23.2","-106.4166666","4.0","COLONIA JUAN CARRASCO MAZATLAN SIN., MX","FM-12","99999","V020","020,1,N,0010,1","22000,1,9,N","008000,1,N,1","+0216,1","+0201,1","10084,1","06,0000,9,1","24,0000,9,1",,,,"00,1,+99999,9,99,9",,,"00,99,1,00,1,00,1,99999,9,00,1,00,1",,"01,9","999,+0175,1","120,N,+0210,1","240,M,+0309,1","99999,9,10079,1","3,1,007,1,-014,1",,"SYN100AAXX  03121 76458 32958 00201 10216 20201 30079 40084 53007 91140 333 10309 20210 30175 59014 70000;","Q01  00002PRCP06Q02  00002PRCP24"
"76458099999","2005-06-03T15:00:00","4","23.2","-106.4166666","4.0","COLONIA JUAN CARRASCO MAZATLAN SIN., MX","FM-12","99999","V020","180,1,N,0020,1","22000,1,9,N","008000,1,N,1","+0254,1","+0215,1","10103,1","06,0000,9,1",,,"4,1,03,1","4,1,03,1","01,1,+00480,1,08,1",,,"01,99,1,01,1,01,1,00450,1,00,1,00,1",,"01,9",,,,"99999,9,10099,1","2,1,020,1,-011,1","05,1","SYN112AAXX  03151 76458 31458 11802 10254 20215 30099 40103 52020 70544 81100 91440 333 005// 30/// 57850 59011 81816;","Q01  00002PRCP06"
"76458099999","2005-06-03T18:00:00","4","23.2","-106.4166666","4.0","COLONIA JUAN CARRASCO MAZATLAN SIN., MX","FM-12","99999","V020","180,1,N,0020,1","22000,1,9,N","018000,1,N,1","+0274,1","+0209,1","10104,1","06,0000,9,1",,,,,"00,1,+99999,9,99,9",,,"00,99,1,00,1,00,1,99999,9,00,1,00,1",,"01,9",,"120,M,+0296,1","240,N,+0215,1","99999,9,10100,1","1,1,001,1,-009,1",,"SYN094AAXX  03181 76458 32968 01802 10274 20209 30100 40104 51001 91740 333 10296 20215 30/// 59009;","Q01  00002PRCP06"
"76458099999","2005-06-04T00:00:00","4","23.2","-106.4166666","4.0","COLONIA JUAN CARRASCO MAZATLAN SIN., MX","FM-12","99999","V020","240,1,N,0030,1","22000,1,9,N","020000,1,N,1","+0278,1","+0207,1","10080,1","06,0000,9,1","24,0000,9,1",,,,"03,1,+05400,1,00,1",,,"03,99,1,00,1,00,1,99999,9,00,1,03,1",,"01,9",,"120,M,+0304,1","180,N,+0215,1","99999,9,10075,1","8,1,013,1,-005,1",,"SYN124AAXX  04001 76458 32970 32403 10278 20207 30075 40080 58013 80003 92347 333 0///9 10304 20215 30/// 50551 59005 70000 83068;","Q01  00002PRCP06"
"76458099999","2005-06-04T03:00:00","4","23.2","-106.4166666","4.0","COLONIA JUAN CARRASCO MAZATLAN SIN., MX","FM-12","99999","V020","240,1,N,0020,1","22000,1,9,N","010000,1,N,1","+0252,1","+0212,1","10082,1","06,0000,9,1",,,,,"00,1,+99999,9,99,9",,,"00,99,1,00,1,00,1,99999,9,00,1,00,1",,"01,9",,,,"99999,9,10078,1","3,1,003,1,-003,1",,"SYN082AAXX  04031 76458 32960 02402 10252 20212 30078 40082 53003 90245 333 30/// 59003;","Q01  00002PRCP06"
"76458099999","2005-06-04T06:00:00","4","23.2","-106.4166666","4.0","COLONIA JUAN CARRASCO MAZATLAN SIN., MX","FM-12","99999","V020","030,1,N,0010,1","22000,1,9,N","010000,1,N,1","+0240,1","+0211,1","10087,1","06,0000,9,1",,,,,"00,1,+99999,9,99,9",,,"00,99,1,00,1,00,1,99999,9,00,1,00,1","0690,9","01,9",,"240,M,+0304,1","240,N,+0215,1","99999,9,10083,1","2,1,004,1,-002,1",,"SYN100AAXX  04061 76458 32960 00301 10240 20211 30083 40087 52004 90555 333 10304 20215 30/// 55115 59002;","Q01  00002PRCP06"
"76458099999","2005-06-04T09:00:00","4","23.2","-106.4166666","4.0","COLONIA JUAN CARRASCO MAZATLAN SIN., MX","FM-12","99999","V020","999,9,C,0000,1","22000,1,9,N","010000,1,N,1","+0232,1","+0206,1","10080,1","06,0000,9,1",,,,,"00,1,+99999,9,99,9",,,"00,99,1,00,1,00,1,99999,9,00,1,00,1",,"01,9",,,,"99999,9,10076,1","7,1,007,1,+004,1",,"SYN082AAXX  04091 76458 32960 00000 10232 20206 30076 40080 57007 90858 333 30/// 58004;","Q01  00002PRCP06"
"76458099999","2005-06-04T18:00:00","4","23.2","-106.4166666","4.0","COLONIA JUAN CARRASCO MAZATLAN SIN., MX","FM-12","99999","V020","130,1,N,0030,1","22000,1,9,N","020000,1,N,1","+0279,1","+0206,1","10106,1","06,0000,9,1",,,,,"01,1,+08700,1,00,1",,,"01,99,1,00,1,00,1,99999,9,00,1,01,1",,"01,9",,"120,M,+0295,1","240,N,+0208,1","99999,9,10102,1","0,1,002,1,+002,1",,"SYN112AAXX  04181 76458 32970 11303 10279 20206 30102 40106 50002 80001 91755 333 00009 10295 20208 30/// 58002 81079;","Q01  00002PRCP06"
"76458099999","2005-06-04T21:00:00","4","23.2","-106.4166666","4.0","COLONIA JUAN CARRASCO MAZATLAN SIN., MX","FM-12","99999","V020","150,1,N,0030,1","22000,1,9,N","020000,1,N,1","+0298,1","+0227,1","10106,1","06,0000,9,1",,,,,"00,1,+99999,9,99,9",,,"00,99,1,00,1,00,1,99999,9,00,1,00,1",,"01,9",,,,"99999,9,10102,1","7,1,003,1,-002,1",,"SYN082AAXX  04211 76458 32970 01503 10298 20227 30102 40106 57003 92050 333 30/// 59002;","Q01  00002PRCP06"
"76458099999","2005-06-05T00:00:00","4","23.2","-106.4166666","4.0","COLONIA JUAN CARRASCO MAZATLAN SIN., MX","FM-12","99999","V020","210,1,N,0020,1","22000,1,9,N","020000,1,N,1","+0280,1","+0214,1","10077,1","06,0000,9,1","24,0000,9,1",,,,"00,1,+99999,9,99,9",,,"00,99,1,00,1,00,1,99999,9,00,1,00,1",,"01,9",,"120,M,+0304,1","180,N,+0208,1","99999,9,10073,1","7,1,015,1,-002,1",,"SYN106AAXX  05001 76458 32970 02102 10280 20214 30073 40077 57015 92348 333 10304 20208 30/// 50551 59002 70000;","Q01  00002PRCP06Q02  00002PRCP24"
"76458099999","2005-06-05T18:00:00","4","23.2","-106.4166666","4.0","COLONIA JUAN CARRASCO MAZATLAN SIN., MX","FM-12","99999","V020","180,1,N,0030,1","22000,1,9,N","020000,1,N,1","+0273,1","+0205,1","10112,1","06,0000,9,1",,,,,"02,1,+00840,1,08,1",,,"03,99,1,02,1,01,1,00800,1,00,1,00,1",,"01,9",,"120,M,+9999,9","240,N,+0208,1","99999,9,10107,1","9,9,999,9,+006,1",,"SYN112AAXX  05181 76458 32570 31803 10273 20205 30107 40112 5//// 82100 91750 333 00300 10220 20208 30/// 58006 82828;","Q01  00002PRCP06Q02 +02202ATMX  "
"76458099999","2005-06-05T21:00:00","4","23.2","-106.4166666","4.0","COLONIA JUAN CARRASCO MAZATLAN SIN., MX","FM-12","99999","V020","210,1,N,0030,1","22000,1,9,N","020000,1,N,1","+0273,1","+0199,1","10103,1","06,0000,9,1",,,,,"00,1,+99999,9,99,9",,,"00,99,1,00,1,00,1,99999,9,00,1,00,1",,"01,9",,,,"99999,9,10098,1","7,1,009,1,+011,1",,"SYN082AAXX  05211 76458 32970 02103 10273 20199 30098 40103 57009 92050 333 30/// 58011;","Q01  00002PRCP06"
"76458099999","2005-06-06T00:00:00","4","23.2","-106.4166666","4.0","COLONIA JUAN CARRASCO MAZATLAN SIN., MX","FM-12","99999","V020","240,1,N,0040,1","22000,1,9,N","020000,1,N,1","+0268,1","+0205,1","10093,1","06,0000,9,1","24,0000,9,1",,,,"00,1,+99999,9,99,9",,,"00,99,1,00,1,00,1,99999,9,00,1,00,1",,"01,9",,"120,M,+0291,1","180,N,+0208,1","99999,9,10088,1","5,1,010,1,+013,1",,"SYN106AAXX  06001 76458 32970 02404 10268 20205 30088 40093 55010 92345 333 10291 20208 30/// 50521 58013 70000;","Q01  00002PRCP06Q02  00002PRCP24"
"76458099999","2005-06-06T03:00:00","4","23.2","-106.4166666","4.0","COLONIA JUAN CARRASCO MAZATLAN SIN., MX","FM-12","99999","V020","270,1,N,0020,1","22000,1,9,N","010000,1,N,1","+0247,1","+0206,1","10099,1","06,0000,9,1",,,,,"01,1,+00510,1,08,1",,,"01,99,1,01,1,01,1,00450,1,00,1,00,1",,"01,9",,,,"99999,9,10095,1","2,1,007,1,+017,1",,"SYN106AAXX  06031 76458 32460 12702 10247 20206 30095 40099 52007 81100 90245 333 0/6// 30/// 57869 58017 81817;","Q01  00002PRCP06"
"76458099999","2005-06-06T09:00:00","4","23.2","-106.4166666","4.0","COLONIA JUAN CARRASCO MAZATLAN SIN., MX","FM-12","99999","V020","330,1,N,0010,1","22000,1,9,N","010000,1,N,1","+0230,1","+0201,1","10087,1","06,0000,9,1",,,,,"00,1,+99999,9,99,9",,,"00,99,1,00,1,00,1,99999,9,00,1,00,1",,"01,9",,,,"99999,9,10082,1","7,1,014,1,+008,1",,"SYN082AAXX  06091 76458 32960 03301 10230 20201 30082 40087 57014 90852 333 30/// 58008;","Q01  00002PRCP06"
"76458099999","2005-06-06T12:00:00","4","23.2","-106.4166666","4.0","COLONIA JUAN CARRASCO MAZATLAN SIN., MX","FM-12","99999","V020","010,1,N,0010,1","22000,1,9,N","008000,1,N,1","+0218,1","+0195,1","10086,1","06,0000,9,1","24,0000,9,1",,,,"00,1,+99999,9,99,9",,,"00,99,1,00,1,00,1,99999,9,00,1,00,1",,"01,9","999,+0180,1","120,N,+0214,1","240,M,+0291,1","99999,9,10082,1","5,1,000,1,+999,9",,"SYN100AAXX  06121 76458 32958 00101 10218 20195 30082 40086 55000 91140 333 10291 20214 30180 58/// 70000;","Q01  00002PRCP06Q02  00002PRCP24"
"76458099999","2005-06-06T15:00:00","4","23.2","-106.4166666","4.0","COLONIA JUAN CARRASCO MAZATLAN SIN., MX","FM-12","99999","V020","310,1,N,0020,1","22000,1,9,N","010000,1,N,1","+0254,1","+0206,1","10106,1","06,0000,9,1",,,,,"04,1,+00600,1,08,1",,,"04,99,1,04,1,01,1,00800,1,99,9,99,9",,"01,9",,,,"99999,9,10102,1","2,1,020,1,+999,9",,"SYN106AAXX  06151 76458 32560 43102 10254 20206 30102 40106 52020 841// 91440 333 015// 30/// 57850 58/// 84820;","Q01  00002PRCP06"
"76458099999","2005-06-06T18:00:00","4","23.2","-106.4166666","4.0","COLONIA JUAN CARRASCO MAZATLAN SIN., MX","FM-12","99999","V020","180,1,N,0040,1","00900,1,9,N","014000,1,N,1","+0278,1","+0206,1","10113,1","06,0000,9,1",,,"4,1,06,1","4,1,06,1","06,1,+00900,1,08,1",,,"06,99,1,06,1,01,1,00800,1,00,1,00,1",,"01,9",,"120,M,+0295,1","240,N,+0212,1","99999,9,10108,1","0,1,006,1,+001,1","05,1","SYN118AAXX  06181 76458 31564 61804 10278 20206 30108 40113 50006 70544 86100 91750 333 01300 10295 20212 30/// 58001 86830;","Q01  00002PRCP06"
"76458099999","2005-06-06T21:00:00","4","23.2","-106.4166666","4.0","COLONIA JUAN CARRASCO MAZATLAN SIN., MX","FM-12","99999","V020","210,1,N,0030,1","00900,1,9,N","014000,1,N,1","+0276,1","+0205,1","10108,1","06,0000,9,1",,,"4,1,03,1","4,1,03,1","06,1,+00900,1,08,1",,,"06,99,1,06,1,01,1,00800,1,00,1,00,1",,"01,9",,,,"99999,9,10104,1","7,1,005,1,+005,1","05,1","SYN106AAXX  06211 76458 31564 62103 10276 20205 30104 40108 57005 70544 86100 92050 333 01400 30/// 58005 86830;","Q01  00002PRCP06"
"76458099999","2005-06-07T03:00:00","4","23.2","-106.4166666","4.0","COLONIA JUAN CARRASCO MAZATLAN SIN., MX","FM-12","99999","V020","270,1,N,0020,1","22000,1,9,N","020000,1,N,1","+0248,1","+0203,1","10156,1","06,0000,9,1",,,,,"00,1,+99999,9,99,9",,,"00,99,1,00,1,00,1,99999,9,00,1,00,1",,"01,9",,,,"99999,9,10112,1","2,1,010,1,+066,1",,"SYN082AAXX  07031 76458 32970 02702 10248 20203 30112 40156 52010 90250 333 30/// 58066;","Q01  00002PRCP06"
"76458099999","2005-06-07T06:00:00","4","23.2","-106.4166666","4.0","COLONIA JUAN CARRASCO MAZATLAN SIN., MX","FM-12","99999","V020","180,1,N,0020,1","22000,1,9,N","010000,1,N,1","+0244,1","+0207,1","10112,1","06,0000,9,1",,,,,"00,1,+99999,9,99,9",,,"00,99,1,00,1,00,1,99999,9,00,1,00,1","0558,9","01,9",,"240,M,+0295,1","240,N,+0212,1","99999,9,10108,1","2,1,007,1,+012,1",,"SYN100AAXX  07061 76458 32960 01802 10244 20207 30108 40112 52007 90555 333 10295 20212 30/// 55093 58012;","Q01  00002PRCP06"
"76458099999","2005-06-07T12:00:00","4","23.2","-106.4166666","4.0","COLONIA JUAN CARRASCO MAZATLAN SIN., MX","FM-12","99999","V020","060,1,N,0020,1","00420,1,9,N","008000,1,N,1","+0242,1","+0208,1","10102,1","06,0000,2,1","24,9999,9,9",,"0,1,06,1","0,1,06,1",,,,"07,99,1,07,1,05,1,00450,1,99,9,99,9",,"01,9","999,+0230,1","120,N,+0238,1","240,M,+0295,1","99999,9,10097,1","5,1,000,1,+015,1","20,1","SYN131AAXX  07121 76458 31458 70602 10242 20208 30097 40102 55000 72000 875/// 91140 333 0/5// 10295 20238 30230 57650 58015 70000 87614;","Q01  00002PRCP24"
"76458099999","2005-06-07T15:00:00","4","23.2","-106.4166666","4.0","COLONIA JUAN CARRASCO MAZATLAN SIN., MX","FM-12","99999","V020","060,1,N,0020,1","03600,1,C,N","014000,1,N,1","+0256,1","+0211,1","10111,1","06,0000,2,1",,,"4,1,03,1","4,1,03,1","03,1,+00570,1,06,1",,,"07,99,1,03,1,05,1,00800,1,02,1,99,9",,"01,9",,,,"99999,9,10107,1","3,1,010,1,+005,1","05,1","SYN118AAXX  07151 76458 31564 70602 10256 20211 30107 40111 53010 70544 8352/ 91440 333 0/59/ 30/// 57650 58005 83619 84458;",
"76458099999","2005-06-07T18:00:00","4","23.2","-106.4166666","4.0","COLONIA JUAN CARRASCO MAZATLAN SIN., MX","FM-12","99999","V020","250,1,N,0030,1","22000,1,9,N","016000,1,N,1","+0282,1","+0217,1","10108,1","06,0000,2,1",,,"4,1,06,1","4,1,06,1","01,1,+00810,1,08,1",,,"01,99,1,01,1,01,1,00800,1,00,1,00,1",,"01,9",,"120,M,+0300,1","240,N,+0238,1","99999,9,10104,1","7,1,003,1,-005,1","05,1","SYN118AAXX  07181 76458 31566 12503 10282 20217 30104 40108 57003 70544 81100 91755 333 01300 10300 20238 30/// 59005 81827;",
"76458099999","2005-06-08T00:00:00","4","23.2","-106.4166666","4.0","COLONIA JUAN CARRASCO MAZATLAN SIN., MX","FM-12","99999","V020","300,1,N,0040,1","22000,1,9,N","018000,1,N,1","+0282,1","+0217,1","10078,1","06,0000,9,1","24,0000,2,1",,,,"00,1,+99999,9,99,9",,,"00,99,1,00,1,00,1,99999,9,00,1,00,1",,"01,9",,"120,M,+0305,1","180,N,+0238,1","99999,9,10073,1","7,1,014,1,-025,1",,"SYN106AAXX  08001 76458 32968 03004 10282 20217 30073 40078 57014 92345 333 10305 20238 30/// 50791 59025 70000;","Q01  00002PRCP06"
"76458099999","2005-06-08T03:00:00","4","23.2","-106.4166666","4.0","COLONIA JUAN CARRASCO MAZATLAN SIN., MX","FM-12","99999","V020","270,1,N,0030,1","22000,1,9,N","010000,1,N,1","+0262,1","+0220,1","10083,1","06,0000,9,1",,,,,"01,1,+06000,1,08,1",,,"01,99,1,01,1,01,1,00450,1,00,1,00,1",,"01,9",,,,"99999,9,10079,1","2,1,006,1,-022,1",,"SYN106AAXX  08031 76458 32460 12703 10262 20220 30079 40083 52006 81100 90245 333 0/7// 30/// 57879 59022 81870;","Q01  00002PRCP06"
"76458099999","2005-06-08T09:00:00","4","23.2","-106.4166666","4.0","COLONIA JUAN CARRASCO MAZATLAN SIN., MX","FM-12","99999","V020","350,1,N,0020,1","00480,1,9,N","010000,1,N,1","+0260,1","+0224,1","10083,1","06,0000,9,1",,,,,"07,1,+00480,1,06,1",,,"07,99,1,07,1,04,1,00450,1,00,1,00,1",,"01,9",,,,"99999,9,10079,1","7,1,006,1,-018,1",,"SYN100AAXX  08091 76458 32460 73502 10260 20224 30079 40083 57006 87400 90858 333 0/7// 30/// 59018 87616;","Q01  00002PRCP06"
"76458099999","2005-06-08T12:00:00","4","23.2","-106.4166666","4.0","COLONIA JUAN CARRASCO MAZATLAN SIN., MX","FM-12","99999","V020","110,1,N,0010,1","00390,1,9,N","008000,1,N,1","+0256,1","+0224,1","10087,1","06,0000,9,1","24,0000,9,1",,,,"07,1,+00390,1,06,1",,,"07,99,1,07,1,05,1,00450,1,99,9,99,9",,"01,9","999,+0240,1","120,N,+0250,1","240,M,+0305,1","99999,9,10083,1","3,1,006,1,-014,1",,"SYN124AAXX  08121 76458 32458 71101 10256 20224 30083 40087 53006 875// 91140 333 0/7// 10305 20250 30240 57670 59014 70000 87613;","Q01  00002PRCP06"
"76458099999","2005-06-08T15:00:00","4","23.2","-106.4166666","4.0","COLONIA JUAN CARRASCO MAZATLAN SIN., MX","FM-12","99999","V020","180,1,N,0020,1","00420,1,9,N","008000,1,N,1","+0254,1","+0221,1","10109,1","03,0000,2,1",,,"5,1,03,1","5,1,03,1","08,1,+00420,1,06,1",,,"08,99,1,08,1,05,1,00450,1,99,9,99,9",,"01,9",,,,"99999,9,10104,1","2,1,021,1,-003,1","20,1","SYN118AAXX  08151 76458 11458 81802 10254 20221 30104 40109 52021 69907 72055 885// 91440 333 0/5// 30/// 57650 59003 88614;",
"76458099999","2005-06-08T18:00:00","4","23.2","-106.4166666","4.0","COLONIA JUAN CARRASCO MAZATLAN SIN., MX","FM-12","99999","V020","270,1,N,0030,1","01200,1,C,N","008000,1,N,1","+0270,1","+0155,1","10108,1","06,0000,2,1",,,"5,1,06,1","4,1,06,1","03,1,+01440,1,08,1",,,"06,99,1,05,1,07,1,01250,1,02,1,00,1",,"01,9",,"120,M,+0300,1","240,N,+0250,1","99999,9,10104,1","4,1,000,1,+000,1","05,1","SYN124AAXX  08181 76458 31658 62703 10270 20155 30104 40108 54001 70554 85720 91750 333 01590 10300 20250 30/// 58000 83848 83462;",
"76458099999","2005-06-08T21:00:00","4","23.2","-106.4166666","4.0","COLONIA JUAN CARRASCO MAZATLAN SIN., MX","FM-12","99999","V020","270,1,N,0030,1","22000,1,9,N","015000,1,N,1","+0292,1","+0228,1","10092,1","06,0000,2,1",,,"4,1,03,1","4,1,03,1","01,1,+00810,1,08,1",,,"01,99,1,01,1,01,1,00800,1,00,1,00,1",,"01,9",,,,"99999,9,10088,1","7,1,016,1,+001,1","05,1","SYN106AAXX  08211 76458 31565 12703 10292 20228 30088 40092 57016 70544 81100 92050 333 01500 30/// 58001 81827;",
"76458099999","2005-06-09T00:00:00","4","23.2","-106.4166666","4.0","COLONIA JUAN CARRASCO MAZATLAN SIN., MX","FM-12","99999","V020","270,1,N,0030,1","22000,1,9,N","015000,1,N,1","+0282,1","+0224,1","10075,1","06,0000,9,1","24,9999,2,9",,"4,1,06,1","4,1,06,1",,,,"01,99,1,01,1,01,1,00800,1,00,1,00,1",,"01,9",,"120,M,+0307,1","180,N,+0250,1","99999,9,10070,1","7,1,018,1,-003,1","02,1","SYN136AAXX  09001 76458 31565 12703 10282 20224 30070 40075 57018 70244 81100 92345 333 0/6// 10307 20250 30/// 50511 57869 59003 79999 81824;","Q01  00002PRCP06"
"76458099999","2005-06-09T03:00:00","4","23.2","-106.4166666","4.0","COLONIA JUAN CARRASCO MAZATLAN SIN., MX","FM-12","99999","V020","270,1,N,0030,1","22000,1,9,N","010000,1,N,1","+0268,1","+0221,1","10081,1","06,0000,9,1",,,,,"00,1,+99999,9,99,9",,,"00,99,1,00,1,00,1,99999,9,00,1,00,1",,"01,9",,,,"99999,9,10077,1","2,1,006,1,-002,1",,"SYN082AAXX  09031 76458 32960 02703 10268 20221 30077 40081 52006 90245 333 30/// 59002;","Q01  00002PRCP06"
"76458099999","2005-06-09T06:00:00","4","23.2","-106.4166666","4.0","COLONIA JUAN CARRASCO MAZATLAN SIN., MX","FM-12","99999","V020","270,1,N,0020,1","22000,1,9,N","010000,1,N,1","+0262,1","+0223,1","10086,1","06,0000,9,1",,,,,"02,1,+00480,1,08,1",,,"02,99,1,02,1,02,1,00450,1,00,1,00,1","0540,9","01,9",,"240,M,+0307,1","240,N,+0250,1","99999,9,10081,1","2,1,003,1,+004,1",,"SYN118AAXX  09061 76458 32460 22702 10262 20223 30081 40086 52003 82200 90558 333 0/2// 10307 20250 30/// 55090 58004 82816;","Q01  00002PRCP06"
"76458099999","2005-06-09T12:00:00","4","23.2","-106.4166666","4.0","COLONIA JUAN CARRASCO MAZATLAN SIN., MX","FM-12","99999","V020","360,1,N,0010,1","02400,1,9,N","008000,1,N,1","+0254,1","+0226,1","10072,1","06,0000,9,1","24,0000,9,1",,,,"08,1,+02400,1,04,1",,,"08,99,1,08,1,99,9,99999,9,02,1,99,9",,"01,9","999,+0225,1","120,N,+0250,1","240,M,+0307,1","99999,9,10068,1","6,1,004,1,-015,1",,"SYN112AAXX  09121 76458 32958 83601 10254 20226 30068 40072 56004 88/2/ 91140 333 10307 20250 30225 59015 70000 88458;","Q01  00002PRCP06"
"76458099999","2005-06-09T15:00:00","4","23.2","-106.4166666","4.0","COLONIA JUAN CARRASCO MAZATLAN SIN., MX","FM-12","99999","V020","120,1,N,0020,1","00360,1,9,N","008000,1,N,1","+0262,1","+0232,1","10092,1","06,0000,9,1",,,"4,1,03,1","4,1,03,1","08,1,+00360,1,08,1",,,"08,99,1,08,1,07,1,00450,1,00,1,00,1",,"01,9",,,,"99999,9,10088,1","2,1,020,1,-016,1","05,1","SYN106AAXX  09151 76458 31458 81202 10262 20232 30088 40092 52020 70544 88700 91450 333 0/900 30/// 59016 88812;","Q01  00002PRCP06"
"76458099999","2005-06-09T18:00:00","4","23.2","-106.4166666","4.0","COLONIA JUAN CARRASCO MAZATLAN SIN., MX","FM-12","99999","V020","120,1,N,0020,1","00390,1,9,N","020000,1,N,1","+0260,1","+0229,1","10093,1","06,0000,9,1",,,"4,1,06,1","4,1,06,1","08,1,+00390,1,08,1",,,"08,99,1,08,1,07,1,02250,1,00,1,00,1",,"01,9",,"120,M,+0275,1","240,N,+0250,1","99999,9,10089,1","6,1,020,1,-009,1","05,1","SYN118AAXX  09181 76458 32870 81202 10260 20229 30089 40093 56020 70544 88700 91750 333 0/900 10275 20250 30/// 59009 88813;","Q01  00002PRCP06"
"76458099999","2005-06-09T21:00:00","4","23.2","-106.4166666","4.0","COLONIA JUAN CARRASCO MAZATLAN SIN., MX","FM-12","99999","V020","180,1,N,0030,1","22000,1,9,N","010000,1,N,1","+0277,1","+0231,1","10074,1","06,0000,9,1",,,,,"00,1,+99999,9,99,9",,,"00,99,1,00,1,00,1,99999,9,00,1,00,1",,"01,9",,,,"99999,9,10092,1","7,1,018,1,+011,1",,"SYN082AAXX  09211 76458 32960 01803 10277 20231 30092 40074 57018 92050 333 30/// 58011;","Q01  00002PRCP06"
"76458099999","2005-06-10T15:00:00","4","23.2","-106.4166666","4.0","COLONIA JUAN CARRASCO MAZATLAN SIN., MX","FM-12","99999","V020","150,1,N,0020,1","22000,1,9,N","018000,1,N,1","+0270,1","+0229,1","10096,1","06,0000,9,1",,,,,"02,1,+00510,1,06,1",,,"04,99,1,02,1,05,1,00450,1,00,1,06,1",,"01,9",,,,"99999,9,10092,1","2,1,016,1,+004,1",,"SYN112AAXX  10151 76458 32468 41502 10270 20229 30092 40096 52016 82506 91440 333 0/4/9 30/// 57640 58004 82617 82070;","Q01  00002PRCP06"
"76458099999","2005-06-10T18:00:00","4","23.2","-106.4166666","4.0","COLONIA JUAN CARRASCO MAZATLAN SIN., MX","FM-12","99999","V020","190,1,N,0020,1","22000,1,9,N","020000,1,N,1","+0296,1","+0236,1","10111,1","06,0000,9,1",,,,,"03,1,+00600,1,08,1",,,"03,99,1,03,1,02,1,99999,9,00,1,00,1",,"01,9",,"120,M,+0310,1","240,N,+0250,1","99999,9,10106,1","3,1,006,1,+007,1",,"SYN112AAXX  10181 76458 32970 31902 10296 20236 30106 40111 53006 83200 91750 333 0/500 10310 20250 30/// 58007 83820;","Q01  00002PRCP06"
"76458099999","2005-06-11T00:00:00","4","23.2","-106.4166666","4.0","COLONIA JUAN CARRASCO MAZATLAN SIN., MX","FM-12","99999","V020","270,1,N,0030,1","22000,1,9,N","020000,1,N,1","+0275,1","+0230,1","10070,1","06,0000,9,1","24,0000,9,1",,,,"00,1,+99999,9,99,9",,,"00,99,1,00,1,00,1,99999,9,00,1,00,1",,"01,9",,"120,M,+0313,1","180,N,+0240,1","99999,9,10065,1","7,1,019,1,-003,1",,"SYN130AAXX  11001 76458 32470 02703 10275 20230 30065 40070 57019 82100 92345 333 0/6// 10313 20240 30/// 50441 57869 59003 70000 82819;","Q01  00002PRCP06"
"76458099999","2005-06-11T03:00:00","4","23.2","-106.4166666","4.0","COLONIA JUAN CARRASCO MAZATLAN SIN., MX","FM-12","99999","V020","270,1,N,0020,1","22000,1,9,N","010000,1,N,1","+0262,1","+0225,1","10069,1","06,0000,9,1",,,,,"02,1,+00450,1,08,1",,,"02,99,1,02,1,01,1,00450,1,00,1,00,1",,"01,9",,,,"99999,9,10065,1","0,1,000,1,-007,1",,"SYN106AAXX  11031 76458 32460 22702 10262 20225 30065 40069 50000 82100 90245 333 0/6// 30/// 57869 59007 82815;","Q01  00002PRCP06"
"76458099999","2005-06-11T06:00:00","4","23.2","-106.4166666","4.0","COLONIA JUAN CARRASCO MAZATLAN SIN., MX","FM-12","99999","V020","240,1,N,0020,1","22000,1,9,N","010000,1,N,1","+0257,1","+0224,1","10074,1","06,0000,9,1",,,,,"02,1,+00420,1,08,1",,,"02,99,1,02,1,02,1,00450,1,00,1,00,1","0480,9","01,9",,"240,M,+0313,1","240,N,+0240,1","99999,9,10069,1","2,1,005,1,-004,1",,"SYN118AAXX  11061 76458 32460 22402 10257 20224 30069 40074 52005 82200 90558 333 0/6// 10313 20240 30/// 55080 59004 82814;","Q01  00002PRCP06"
"76458099999","2005-06-11T09:00:00","4","23.2","-106.4166666","4.0","COLONIA JUAN CARRASCO MAZATLAN SIN., MX","FM-12","99999","V020","180,1,N,0020,1","00420,1,9,N","010000,1,N,1","+0256,1","+0224,1","10071,1","06,0000,9,1",,,,,"07,1,+00420,1,06,1",,,"07,99,1,07,1,04,1,00450,1,00,1,00,1",,"01,9",,,,"99999,9,10066,1","7,1,003,1,+005,1",,"SYN100AAXX  11091 76458 32460 71802 10256 20224 30066 40071 57003 87400 90855 333 0/7// 30/// 58005 87614;","Q01  00002PRCP06"
"76458099999","2005-06-11T15:00:00","4","23.2","-106.4166666","4.0","COLONIA JUAN CARRASCO MAZATLAN SIN., MX","FM-12","99999","V020","160,1,N,0040,1","00750,1,C,N","014000,1,N,1","+0266,1","+0224,1","10097,1","06,0000,9,1",,,,,"04,1,+00540,1,06,1",,,"06,99,1,06,1,05,1,00800,1,99,9,99,9",,"01,9",,,,"99999,9,10093,1","2,1,016,1,+001,1",,"SYN112AAXX  11151 76458 32564 61604 10266 20224 30093 40097 52016 865// 91440 333 0/5// 30/// 57650 58001 84618 82922;","Q01  00002PRCP06"
"76458099999","2005-06-11T21:00:00","4","23.2","-106.4166666","4.0","COLONIA JUAN CARRASCO MAZATLAN SIN., MX","FM-12","99999","V020","180,1,N,0040,1","22000,1,9,N","018000,1,N,1","+0285,1","+0215,1","10096,1","06,0000,9,1",,,,,"01,1,+00870,1,08,1",,,"01,99,1,01,1,01,1,00800,1,00,1,00,1",,"01,9",,,,"99999,9,10091,1","7,1,006,1,+007,1",,"SYN100AAXX  11211 76458 32568 11804 10285 20215 30091 40096 57006 81100 92050 333 01300 30/// 58007 81829;","Q01  00002PRCP06"
"76458099999","2005-06-12T00:00:00","4","23.2","-106.4166666","4.0","COLONIA JUAN CARRASCO MAZATLAN SIN., MX","FM-12","99999","V020","260,1,N,0030,1","22000,1,9,N","018000,1,N,1","+0279,1","+0208,1","10087,1","06,0000,9,1","24,0000,9,1",,,,"00,1,+99999,9,99,9",,,"00,99,1,00,1,00,1,99999,9,00,1,00,1",,"01,9",,"120,M,+0305,1","180,N,+0250,1","99999,9,10083,1","7,1,008,1,+018,1",,"SYN106AAXX  12001 76458 32968 02603 10279 20208 30083 40087 57008 92345 333 10305 20250 30/// 50581 58018 70000;","Q01  00002PRCP06Q02  00002PRCP24"
"76458099999","2005-06-12T03:00:00","4","23.2","-106.4166666","4.0","COLONIA JUAN CARRASCO MAZATLAN SIN., MX","FM-12","99999","V020","250,1,N,0020,1","22000,1,9,N","010000,1,N,1","+0255,1","+0208,1","10094,1","06,0000,9,1",,,,,"00,1,+99999,9,99,9",,,"00,99,1,00,1,00,1,99999,9,00,1,00,1",,"01,9",,,,"99999,9,10089,1","2,1,006,1,+024,1",,"SYN082AAXX  12031 76458 32960 02502 10255 20208 30089 40094 52006 90245 333 30/// 58024;","Q01  00002PRCP06"
"76458099999","2005-06-12T12:00:00","4","23.2","-106.4166666","4.0","COLONIA JUAN CARRASCO MAZATLAN SIN., MX","FM-12","99999","V020","150,1,N,0020,1","00510,1,9,N","008000,1,N,1","+0247,1","+0207,1","10099,1","06,0000,9,1","24,0000,9,1",,,,"07,1,+00510,1,06,1",,,"07,99,1,07,1,04,1,99999,9,00,1,00,1",,"01,9","999,+0023,1","120,N,+0245,1","240,M,+0305,1","99999,9,10094,1","9,9,999,9,+017,1",,"SYN124AAXX  12121 76458 32958 71502 10247 20207 30094 40099 5//// 87400 91147 333 0/7// 10305 20245 30023 57639 58017 70000 87617;","Q01  00002PRCP06"
"76458099999","2005-06-12T15:00:00","4","23.2","-106.4166666","4.0","COLONIA JUAN CARRASCO MAZATLAN SIN., MX","FM-12","99999","V020","210,1,N,0040,1","22000,1,9,N","020000,1,N,1","+0260,1","+0209,1","10117,1","06,0000,9,1",,,,,"07,1,+00630,1,08,1",,,"99,99,9,07,1,02,1,00800,1,00,1,00,1",,"01,9",,,,"99999,9,10113,1","2,1,019,1,+020,1",,"SYN106AAXX  12151 76458 32570 32104 10260 20209 30113 40117 52019 87200 91445 333 0/3// 30/// 57839 58020 87821;","Q01  00002PRCP06"
"76458099999","2005-06-12T18:00:00","4","23.2","-106.4166666","4.0","COLONIA JUAN CARRASCO MAZATLAN SIN., MX","FM-12","99999","V020","260,1,N,0020,1","22000,1,9,N","018000,1,N,1","+0266,1","+0220,1","10120,1","06,0000,9,1",,,,,"00,1,+99999,9,99,9",,,"00,99,1,00,1,00,1,99999,9,00,1,00,1",,"01,9",,"120,M,+0290,1","240,N,+0250,1","99999,9,10115,1","3,1,006,1,+018,1",,"SYN094AAXX  12181 76458 32968 02602 10266 20220 30115 40120 53006 91750 333 10290 20250 30/// 58018;","Q01  00002PRCP06"
"76458099999","2005-06-12T21:00:00","4","23.2","-106.4166666","4.0","COLONIA JUAN CARRASCO MAZATLAN SIN., MX","FM-12","99999","V020","270,1,N,0020,1","22000,1,9,N","020000,1,N,1","+0268,1","+0226,1","10124,1","06,0000,9,1",,,,,"00,1,+99999,9,99,9",,,"00,99,1,00,1,00,1,99999,9,00,1,00,1",,"01,9",,,,"99999,9,10119,1","6,1,032,1,+028,1",,"SYN082AAXX  12211 76458 32970 02702 10268 20226 30119 40124 56032 92050 333 30/// 58028;","Q01  00002PRCP06"
"76458099999","2005-06-13T00:00:00","4","23.2","-106.4166666","4.0","COLONIA JUAN CARRASCO MAZATLAN SIN., MX","FM-12","99999","V020","250,1,N,0040,1","22000,1,9,N","020000,1,N,1","+0261,1","+0204,1","10100,1","06,0000,9,1","24,0000,9,1",,,,"04,1,+00720,1,08,1",,,"04,99,1,04,1,01,1,00800,1,00,1,00,1",,"01,9",,"120,M,+0290,1","180,N,+0245,1","99999,9,10096,1","7,1,023,1,+013,1",,"SYN124AAXX  13001 76458 32570 42504 10261 20204 30096 40100 57023 84100 92350 333 01600 10290 20245 30/// 50611 58013 70000 84824;","Q01  00002PRCP06"
"76458099999","2005-06-13T03:00:00","4","23.2","-106.4166666","4.0","COLONIA JUAN CARRASCO MAZATLAN SIN., MX","FM-12","99999","V020","270,1,N,0020,1","22000,1,9,N","016000,1,N,1","+0239,1","+0195,1","10106,1","06,0000,9,1",,,,,"04,1,+00540,1,08,1",,,"04,99,1,04,1,01,1,00450,1,00,1,00,1",,"01,9",,,,"99999,9,10101,1","2,1,005,1,+012,1",,"SYN100AAXX  13031 76458 32466 42702 10239 20195 30101 40106 52005 84100 90250 333 01600 30/// 58012 84818;","Q01  00002PRCP06"
"76458099999","2005-06-13T06:00:00","4","23.2","-106.4166666","4.0","COLONIA JUAN CARRASCO MAZATLAN SIN., MX","FM-12","99999","V020","240,1,N,0020,1","22000,1,9,N","010000,1,N,1","+0236,1","+0195,1","10111,1","06,0000,9,1",,,,,"04,1,+00510,1,08,1",,,"04,99,1,04,1,02,1,00450,1,00,1,00,1","0660,9","01,9",,"240,M,+0290,1","240,N,+9999,9","99999,9,10106,1","2,1,005,1,+001,1",,"SYN118AAXX  13061 76458 32460 42402 10236 20195 30106 40111 52005 84200 90555 333 0/7// 10290 20245 30/// 55110 58001 84817;","Q01  00002PRCP06Q02 +02452ATMN  "
"76458099999","2005-06-13T12:00:00","4","23.2","-106.4166666","4.0","COLONIA JUAN CARRASCO MAZATLAN SIN., MX","FM-12","99999","V020","360,1,N,0020,1","00540,1,9,N","008000,1,N,1","+0236,1","+0192,1","10096,1","06,0000,9,1","24,0000,9,1",,,,"08,1,+00540,1,06,1",,,"08,99,1,08,1,05,1,00800,1,99,9,99,9",,"01,9","999,+0224,1","120,N,+0230,1","240,M,+0290,1","99999,9,10091,1","5,1,001,1,-003,1",,"SYN124AAXX  13121 76458 32558 83602 10236 20192 30091 40096 55001 885// 91140 333 0/7// 10290 20230 30224 57670 59003 70000 88618;","Q01  00002PRCP06"
"76458099999","2005-06-13T18:00:00","4","23.2","-106.4166666","4.0","COLONIA JUAN CARRASCO MAZATLAN SIN., MX","FM-12","99999","V020","250,1,N,0030,1","00600,1,9,N","008000,1,N,1","+0250,1","+0202,1","10106,1","06,0000,9,1",,,,,"08,1,+00600,1,08,1",,,"08,99,1,08,1,07,1,00800,1,00,1,00,1",,"01,9",,"120,M,+0258,1","240,N,+0230,1","99999,9,10101,1","0,1,004,1,-015,1",,"SYN112AAXX  13181 76458 32558 82503 10250 20202 30101 40106 50004 88700 91759 333 0/900 10258 20230 30/// 59015 88820;","Q01  00002PRCP06"
"76458099999","2005-06-13T21:00:00","4","23.2","-106.4166666","4.0","COLONIA JUAN CARRASCO MAZATLAN SIN., MX","FM-12","99999","V020","240,1,N,0030,1","00840,1,9,N","018000,1,N,1","+0266,1","+0200,1","10099,1","06,0000,9,1",,,"4,1,03,1","4,1,03,1","05,1,+00840,1,08,1",,,"05,99,1,99,9,99,9,00800,1,99,9,99,9",,"01,9",,,,"99999,9,10094,1","7,1,007,1,-025,1","01,1","SYN100AAXX  13211 76458 31568 52403 10266 20200 30094 40099 57007 70144 92050 333 02600 30/// 59025 85828;","Q01  00002PRCP06"
"76458099999","2005-06-14T00:00:00","4","23.2","-106.4166666","4.0","COLONIA JUAN CARRASCO MAZATLAN SIN., MX","FM-12","99999","V020","270,1,N,0020,1","22000,1,9,N","020000,1,N,1","+0264,1","+0189,1","10095,1","06,0000,9,1","24,0000,9,1",,,,"00,1,+99999,9,99,9",,,"00,99,1,00,1,00,1,99999,9,00,1,00,1",,"01,9",,"120,M,+0295,1","180,N,+0230,1","99999,9,10085,1","6,1,009,1,-001,1",,"SYN106AAXX  14001 76458 32970 02702 10264 20189 30085 40095 56009 92350 333 10295 20230 30/// 50691 59001 70000;","Q01  00002PRCP06Q02  00002PRCP24"
"76458099999","2005-06-14T03:00:00","4","23.2","-106.4166666","4.0","COLONIA JUAN CARRASCO MAZATLAN SIN., MX","FM-12","99999","V020","280,1,N,0020,1","22000,1,9,N","010000,1,N,1","+0244,1","+0192,1","10091,1","06,0000,9,1",,,,,"00,1,+99999,9,99,9",,,"00,99,1,00,1,00,1,99999,9,00,1,00,1",,"01,9",,,,"99999,9,10087,1","6,1,022,1,-013,1",,"SYN082AAXX  14031 76458 32860 02802 10244 20192 30087 40091 56022 90250 333 30/// 59013;","Q01  00002PRCP06"
"76458099999","2005-06-14T06:00:00","4","23.2","-106.4166666","4.0","COLONIA JUAN CARRASCO MAZATLAN SIN., MX","FM-12","99999","V020","230,1,N,0020,1","22000,1,9,N","010000,1,N,1","+0240,1","+0195,1","10096,1","06,0000,9,1",,,,,"04,1,+00570,1,08,1",,,"04,99,1,04,1,02,1,00450,1,00,1,00,1","0240,9","01,9",,"240,M,+0295,1","240,N,+0230,1","99999,9,10092,1","2,1,005,1,+014,1",,"SYN118AAXX  14061 76458 32460 42302 10240 20195 30092 40096 52005 84200 90558 333 0/4// 10295 20230 30/// 55040 58014 84819;","Q01  00002PRCP06"
"76458099999","2005-06-14T12:00:00","4","23.2","-106.4166666","4.0","COLONIA JUAN CARRASCO MAZATLAN SIN., MX","FM-12","99999","V020","180,1,N,0010,1","00510,1,9,N","008000,1,N,1","+0236,1","+0195,1","10090,1","06,0000,9,1","24,0000,9,1",,,,"08,1,+00510,1,06,1",,,"08,99,1,08,1,05,1,00800,1,99,9,99,9",,"01,9","999,+0226,1","120,N,+0230,1","240,M,+0295,1","99999,9,10086,1","3,1,005,1,-005,1",,"SYN124AAXX  14121 76458 32558 81801 10236 20195 30086 40090 53005 885// 91140 333 0/4// 10295 20230 30226 57640 59005 70000 88617;","Q01  00002PRCP06"
"76458099999","2005-06-14T15:00:00","4","23.2","-106.4166666","4.0","COLONIA JUAN CARRASCO MAZATLAN SIN., MX","FM-12","99999","V020","060,1,N,0020,1","00420,1,9,N","008000,1,N,1","+0234,1","+0200,1","10106,1","03,0000,2,1",,,"5,1,03,1","5,1,03,1","05,1,+00420,1,06,1",,,"08,99,1,05,1,05,1,00450,1,02,1,99,9",,"01,9",,,,"99999,9,10101,1","2,1,015,1,+004,1","20,1","SYN124AAXX  14151 76458 11458 80602 10234 20200 30101 40106 52015 69907 72055 8552/ 91440 333 0/49/ 30/// 57640 58004 85614 83458;",
"76458099999","2005-06-14T18:00:00","4","23.2","-106.4166666","4.0","COLONIA JUAN CARRASCO MAZATLAN SIN., MX","FM-12","99999","V020","180,1,N,0020,1","00840,1,9,N","008000,1,N,1","+0258,1","+0191,1","10111,1","06,0000,2,1",,,,,"08,1,+00840,1,06,1",,,"08,99,1,08,1,05,1,00800,1,99,9,99,9",,"01,9",,"120,M,+0258,1","240,N,+0230,1","99999,9,10106,1","1,1,005,1,+005,1",,"SYN118AAXX  14181 76458 32558 81802 10258 20191 30106 40111 51005 885// 91740 333 0/4// 10258 20230 30/// 57640 58005 88628;",
"76458099999","2005-06-14T21:00:00","4","23.2","-106.4166666","4.0","COLONIA JUAN CARRASCO MAZATLAN SIN., MX","FM-12","99999","V020","250,1,N,0040,1","00780,1,9,N","016000,1,N,1","+0266,1","+0203,1","10104,1","06,0000,2,1",,,"4,1,03,1","4,1,03,1","07,1,+00780,1,06,1",,,"07,99,1,07,1,04,1,00800,1,00,1,00,1",,"01,9",,,,"99999,9,10100,1","6,1,007,1,+006,1","05,1","SYN106AAXX  14211 76458 31566 72504 10266 20203 30100 40104 56007 70544 87400 92050 333 0/400 30/// 58006 87626;",
"76458099999","2005-06-15T00:00:00","4","23.2","-106.4166666","4.0","COLONIA JUAN CARRASCO MAZATLAN SIN., MX","FM-12","99999","V020","270,1,N,0040,1","22000,1,9,N","020000,1,N,1","+0258,1","+0204,1","10088,1","06,0000,9,1","24,9999,2,9",,,,"00,1,+99999,9,99,9",,,"00,99,1,00,1,00,1,99999,9,00,1,00,1",,"01,9",,"120,M,+0286,1","180,N,+0230,1","99999,9,10084,1","7,1,016,1,-001,1",,"SYN130AAXX  15001 76458 32570 02704 10258 20204 30084 40088 57016 82200 92345 333 0/6// 10286 20230 30/// 50441 57869 59001 79999 82822;","Q01  00002PRCP06"
"76458099999","2005-06-15T06:00:00","4","23.2","-106.4166666","4.0","COLONIA JUAN CARRASCO MAZATLAN SIN., MX","FM-12","99999","V020","200,1,N,0030,1","22000,1,9,N","005000,1,N,1","+0242,1","+0228,1","10090,1","06,0000,9,1",,,,,"00,1,+99999,9,99,9",,,"00,99,1,00,1,00,1,99999,9,00,1,00,1",,"01,9",,"240,M,+0370,1","240,N,+0192,1","99999,9,10047,1","1,1,010,1,+010,1",,"SYN094AAXX  15061 76458 32950 02003 10242 20228 30047 40090 51010 90550 333 10370 20192 30/// 58010;","Q01  00002PRCP06"
"76458099999","2005-06-15T12:00:00","4","23.2","-106.4166666","4.0","COLONIA JUAN CARRASCO MAZATLAN SIN., MX","FM-12","99999","V020","360,1,N,0020,1","00540,1,9,N","008000,1,N,1","+0244,1","+0201,1","10094,1","06,0000,9,1","24,0000,9,1",,,,"08,1,+00540,1,06,1",,,"08,99,1,08,1,05,1,00450,1,99,9,99,9",,"01,9","999,+0235,1","120,N,+0238,1","240,M,+0286,1","99999,9,10090,1","3,1,006,1,+004,1",,"SYN124AAXX  15121 76458 32458 83602 10244 20201 30090 40094 53006 885// 91140 333 0/5// 10286 20238 30235 57650 58004 70000 88618;","Q01  00002PRCP06"
"76458099999","2005-06-15T15:00:00","4","23.2","-106.4166666","4.0","COLONIA JUAN CARRASCO MAZATLAN SIN., MX","FM-12","99999","V020","240,1,N,0020,1","00450,1,9,N","014000,1,N,1","+0248,1","+0211,1","10110,1","06,0000,9,1",,,,,"08,1,+00450,1,06,1",,,"08,99,1,08,1,05,1,00450,1,99,9,99,9",,"01,9",,,,"99999,9,10105,1","2,1,015,1,+004,1",,"SYN106AAXX  15151 76458 32464 82402 10248 20211 30105 40110 52015 885// 91440 333 0/5// 30/// 57650 58004 88615;","Q01  00002PRCP06"
"76458099999","2005-06-15T18:00:00","4","23.2","-106.4166666","4.0","COLONIA JUAN CARRASCO MAZATLAN SIN., MX","FM-12","99999","V020","240,1,N,0030,1","00420,1,9,N","014000,1,N,1","+0248,1","+0214,1","10112,1","06,0000,9,1",,,,,"08,1,+00420,1,06,1",,,"08,99,1,08,1,05,1,00450,1,00,1,00,1",,"01,9",,"120,M,+0255,1","240,N,+0238,1","99999,9,10108,1","0,1,002,1,+001,1",,"SYN112AAXX  15181 76458 32464 82403 10248 20214 30108 40112 50002 88500 91755 333 0/900 10255 20238 30/// 58001 88614;","Q01  00002PRCP06"
"76458099999","2005-06-15T21:00:00","4","23.2","-106.4166666","4.0","COLONIA JUAN CARRASCO MAZATLAN SIN., MX","FM-12","99999","V020","240,1,N,0030,1","00570,1,9,N","018000,1,N,1","+0252,1","+0207,1","10106,1","06,0000,9,1",,,,,"08,1,+00570,1,08,1",,,"08,99,1,08,1,07,1,00450,1,00,1,00,1",,"01,9",,,,"99999,9,10101,1","8,1,007,1,+001,1",,"SYN100AAXX  15211 76458 32468 82403 10252 20207 30101 40106 58007 88700 92050 333 0/600 30/// 58001 88819;","Q01  00002PRCP06"
"76458099999","2005-06-16T00:00:00","4","23.2","-106.4166666","4.0","COLONIA JUAN CARRASCO MAZATLAN SIN., MX","FM-12","99999","V020","270,1,N,0020,1","03600,1,9,N","020000,1,N,1","+0247,1","+0198,1","10105,1","06,0000,9,1","24,0000,9,1",,,,"02,1,+00600,1,06,1",,,"08,99,1,02,1,04,1,00800,1,02,1,00,1",,"01,9",,"120,M,+0265,1","180,N,+0238,1","99999,9,10101,1","8,1,005,1,+019,1",,"SYN136AAXX  16001 76458 32570 82702 10247 20198 30101 40105 58005 82420 92345 333 0/69/ 10265 20238 30/// 50261 57669 58019 70000 82620 86464;","Q01  00002PRCP06"
"76458099999","2005-06-16T03:00:00","4","23.2","-106.4166666","4.0","COLONIA JUAN CARRASCO MAZATLAN SIN., MX","FM-12","99999","V020","240,1,N,0020,1","03600,1,9,N","010000,1,N,1","+0242,1","+0196,1","10112,1","06,0000,9,1",,,,,"08,1,+03600,1,04,1",,,"08,99,1,08,1,00,1,02250,1,02,1,00,1",,"01,9",,,,"99999,9,10108,1","2,1,007,1,+015,1",,"SYN106AAXX  16031 76458 32860 82402 10242 20196 30108 40112 52007 88020 90245 333 0//9/ 30/// 57499 58015 88462;","Q01  00002PRCP06"
"76458099999","2005-06-16T15:00:00","4","23.2","-106.4166666","4.0","COLONIA JUAN CARRASCO MAZATLAN SIN., MX","FM-12","99999","V020","330,1,N,0020,1","00540,1,9,N","014000,1,N,1","+0251,1","+0207,1","10123,1","06,0000,9,1",,,,,"07,1,+00540,1,06,1",,,"07,99,1,07,1,05,1,00450,1,99,9,99,9",,"01,9",,,,"99999,9,10118,1","2,1,012,1,+013,1",,"SYN106AAXX  16151 76458 32464 73302 10251 20207 30118 40123 52012 875// 91440 333 0/5// 30/// 57650 58013 87618;","Q01  00002PRCP06"
"76458099999","2005-06-16T18:00:00","4","23.2","-106.4166666","4.0","COLONIA JUAN CARRASCO MAZATLAN SIN., MX","FM-12","99999","V020","270,1,N,0040,1","22000,1,9,N","014000,1,N,1","+0268,1","+0215,1","10118,1","06,0000,9,1",,,,,"01,1,+00660,1,08,1",,,"01,99,1,01,1,01,1,00800,1,00,1,00,1",,"01,9",,"120,M,+0294,1","240,N,+0230,1","99999,9,10113,1","7,1,005,1,+005,1",,"SYN112AAXX  16181 76458 32564 12704 10268 20215 30113 40118 57005 81100 91756 333 01900 10294 20230 30/// 58005 81822;","Q01  00002PRCP06"
"76458099999","2005-06-16T21:00:00","4","23.2","-106.4166666","4.0","COLONIA JUAN CARRASCO MAZATLAN SIN., MX","FM-12","99999","V020","270,1,N,0040,1","22000,1,9,N","020000,1,N,1","+0268,1","+0215,1","10110,1","06,0000,9,1",,,,,"01,1,+00660,1,08,1",,,"01,99,1,01,1,01,1,00800,1,00,1,00,1",,"01,9",,,,"99999,9,10106,1","7,1,007,1,+000,1",,"SYN100AAXX  16211 76458 32570 12704 10268 20215 30106 40110 57007 81100 92050 333 01600 30/// 59000 81822;","Q01  00002PRCP06"
"76458099999","2005-06-17T03:00:00","4","23.2","-106.4166666","4.0","COLONIA JUAN CARRASCO MAZATLAN SIN., MX","FM-12","99999","V020","270,1,N,0020,1","22000,1,9,N","010000,1,N,1","+0247,1","+0209,1","10109,1","06,0000,9,1",,,,,"04,1,+00480,1,08,1",,,"04,99,1,04,1,01,1,00450,1,00,1,00,1",,"01,9",,,,"99999,9,10104,1","2,1,010,1,-004,1",,"SYN106AAXX  17031 76458 32460 42702 10247 20209 30104 40109 52010 84100 90245 333 0/6// 30/// 57869 59004 84816;","Q01  00002PRCP06"
"76458099999","2005-06-17T12:00:00","4","23.2","-106.4166666","4.0","COLONIA JUAN CARRASCO MAZATLAN SIN., MX","FM-12","99999","V020","170,1,N,0020,1","00510,1,9,N","008000,1,N,1","+0248,1","+0208,1","10103,1","06,0000,9,1","24,0000,9,1",,,,"07,1,+00510,1,08,1",,,"07,99,1,07,1,02,1,00450,1,99,9,99,9",,"01,9","999,+0234,1","120,N,+0240,1","240,M,+0293,1","99999,9,10099,1","9,9,999,9,-007,1",,"SYN124AAXX  17121 76458 32458 71702 10248 20208 30099 40103 5//// 872// 91140 333 0/5// 10293 20240 30234 57850 59007 70000 87817;","Q01  00002PRCP06"
"76458099999","2005-06-17T15:00:00","4","23.2","-106.4166666","4.0","COLONIA JUAN CARRASCO MAZATLAN SIN., MX","FM-12","99999","V020","140,1,N,0020,1","22000,1,9,N","016000,1,N,1","+0258,1","+0210,1","10114,1","06,0000,9,1",,,,,"01,1,+01800,1,03,1",,,"01,99,1,01,1,00,1,02250,1,03,1,99,9",,"01,9",,,,"99999,9,10109,1","3,1,010,1,-009,1",,"SYN094AAXX  17151 76458 32866 11402 10258 20210 30109 40114 53010 8103/ 91440 333 30/// 59009 81356;","Q01  00002PRCP06"
"76458099999","2005-06-17T18:00:00","4","23.2","-106.4166666","4.0","COLONIA JUAN CARRASCO MAZATLAN SIN., MX","FM-12","99999","V020","210,1,N,0040,1","22000,1,9,N","018000,1,N,1","+0284,1","+0240,1","10104,1","06,0000,9,1",,,,,"02,1,+00840,1,06,1",,,"02,99,1,02,1,05,1,99999,9,99,9,99,9",,"01,9",,"120,M,+0300,1","240,N,+0240,1","99999,9,10100,1","6,1,009,1,+002,1",,"SYN118AAXX  17181 76458 32968 22104 10284 20240 30100 40104 56009 825// 91750 333 0/4// 10300 20240 30/// 57640 58002 82628;","Q01  00002PRCP06"
"76458099999","2005-06-17T21:00:00","4","23.2","-106.4166666","4.0","COLONIA JUAN CARRASCO MAZATLAN SIN., MX","FM-12","99999","V020","220,1,N,0040,1","22000,1,9,N","018000,1,N,1","+0280,1","+0225,1","10094,1","06,0000,9,1",,,,,"01,1,+00660,1,08,1",,,"01,99,1,01,1,02,1,00800,1,99,9,99,9",,"01,9",,,,"99999,9,10090,1","7,1,010,1,-016,1",,"SYN106AAXX  17211 76458 32568 12204 10280 20225 30090 40094 57010 812// 92045 333 011// 30/// 57816 59016 81822;","Q01  00002PRCP06"
"76458099999","2005-06-18T03:00:00","4","23.2","-106.4166666","4.0","COLONIA JUAN CARRASCO MAZATLAN SIN., MX","FM-12","99999","V020","180,1,N,0020,1","00510,1,9,N","010000,1,N,1","+0252,1","+0212,1","10094,1","06,0000,9,1",,,,,"06,1,+00510,1,06,1",,,"06,99,1,06,1,04,1,00450,1,00,1,00,1",,"01,9",,,,"99999,9,10089,1","2,1,008,1,-015,1",,"SYN106AAXX  18031 76458 32460 61802 10252 20212 30089 40094 52008 86400 90247 333 0/5// 30/// 57659 59015 86617;","Q01  00002PRCP06"
"76458099999","2005-06-18T06:00:00","4","23.2","-106.4166666","4.0","COLONIA JUAN CARRASCO MAZATLAN SIN., MX","FM-12","99999","V020","210,1,N,0020,1","00510,1,9,N","010000,1,N,1","+0252,1","+0209,1","10108,1","06,0000,9,1",,,,,"07,1,+00510,1,06,1",,,"07,99,1,07,1,04,1,00450,1,00,1,00,1","0630,9","01,9",,"240,M,+0302,1","240,N,+0240,1","99999,9,10103,1","7,1,014,1,-009,1",,"SYN118AAXX  18061 76458 32460 72102 10252 20209 30103 40108 57014 87400 90558 333 0/5// 10302 20240 30/// 55105 59009 87617;","Q01  00002PRCP06"
"76458099999","2005-06-18T09:00:00","4","23.2","-106.4166666","4.0","COLONIA JUAN CARRASCO MAZATLAN SIN., MX","FM-12","99999","V020","130,1,N,0020,1","00510,1,9,N","010000,1,N,1","+0252,1","+0212,1","10100,1","06,0000,9,1",,,,,"07,1,+00510,1,06,1",,,"07,99,1,07,1,04,1,00450,1,00,1,00,1",,"01,9",,,,"99999,9,10096,1","7,1,007,1,-005,1",,"SYN100AAXX  18091 76458 32460 71302 10252 20212 30096 40100 57007 87400 90850 333 0/4// 30/// 59005 87617;","Q01  00002PRCP06"
"76458099999","2005-06-18T15:00:00","4","23.2","-106.4166666","4.0","COLONIA JUAN CARRASCO MAZATLAN SIN., MX","FM-12","99999","V020","160,1,N,0020,1","22000,1,9,N","016000,1,N,1","+0268,1","+0215,1","10102,1","06,0000,9,1",,,,,"04,1,+00660,1,08,1",,,"04,99,1,03,1,02,1,00800,1,00,1,00,1",,"01,9",,,,"99999,9,10098,1","1,1,005,1,-011,1",,"SYN106AAXX  18151 76458 32566 41602 10268 20215 30098 40102 51005 83200 91440 333 015// 30/// 57854 59011 84822;","Q01  00002PRCP06"
"76458099999","2005-06-18T21:00:00","4","23.2","-106.4166666","4.0","COLONIA JUAN CARRASCO MAZATLAN SIN., MX","FM-12","99999","V020","240,1,N,0050,1","22000,1,9,N","018000,1,N,1","+0284,1","+0223,1","10090,1","06,0000,9,1",,,,,"02,1,+00720,1,08,1",,,"02,99,1,02,1,02,1,00800,1,99,9,99,9",,"01,9",,,,"99999,9,10086,1","6,1,010,1,-004,1",,"SYN106AAXX  18211 76458 32568 22405 10284 20223 30086 40090 56010 822// 92045 333 0/1// 30/// 57816 59004 82824;","Q01  00002PRCP06"
"76458099999","2005-06-19T03:00:00","4","23.2","-106.4166666","4.0","COLONIA JUAN CARRASCO MAZATLAN SIN., MX","FM-12","99999","V020","250,1,N,0020,1","00480,1,9,N","010000,1,N,1","+0251,1","+0213,1","10097,1","06,0000,9,1",,,,,"07,1,+00480,1,06,1",,,"07,99,1,07,1,04,1,00450,1,00,1,00,1",,"01,9",,,,"99999,9,10093,1","2,1,010,1,+004,1",,"SYN106AAXX  19031 76458 32460 72502 10251 20213 30093 40097 52010 87400 90245 333 0/6// 30/// 57669 58004 87616;","Q01  00002PRCP06"
"76458099999","2005-06-19T06:00:00","4","23.2","-106.4166666","4.0","COLONIA JUAN CARRASCO MAZATLAN SIN., MX","FM-12","99999","V020","150,1,N,0020,1","00420,1,9,N","010000,1,N,1","+0250,1","+0212,1","10112,1","06,0000,9,1",,,,,,,,"08,99,1,08,1,05,1,00450,1,00,1,00,1","0594,9","01,9",,"240,M,+0300,1","240,N,+0245,1","99999,9,10108,1","2,1,015,1,+005,1",,"SYN124AAXX  19061 76458 32460 81502 10250 20212 30108 40112 52015 88500 90550 333 0/600 10300 20245 30/// 55099 2//// 58005 88816;","Q01  00002PRCP06"
"76458099999","2005-06-19T09:00:00","4","23.2","-106.4166666","4.0","COLONIA JUAN CARRASCO MAZATLAN SIN., MX","FM-12","99999","V020","150,1,N,0020,1","00450,1,9,N","010000,1,N,1","+0253,1","+0218,1","10104,1","06,0000,9,1",,,,,"08,1,+00450,1,08,1",,,"08,99,1,08,1,07,1,00450,1,00,1,00,1",,"01,9",,,,"99999,9,10099,1","7,1,008,1,+003,1",,"SYN100AAXX  19091 76458 32460 81502 10253 20218 30099 40104 57008 88700 90850 333 0/600 30/// 58003 88815;","Q01  00002PRCP06"
"76458099999","2005-06-19T12:00:00","4","23.2","-106.4166666","4.0","COLONIA JUAN CARRASCO MAZATLAN SIN., MX","FM-12","99999","V020","330,1,N,0020,1","00450,1,9,N","010000,1,N,1","+0253,1","+0218,1","10099,1","06,0000,9,1","24,0000,9,1",,,,"08,1,+00450,1,08,1",,,"08,99,1,08,1,07,1,00450,1,00,1,00,1",,"01,9","999,+0244,1","120,N,+0249,1","240,M,+0300,1","99999,9,10094,1","6,1,005,1,+001,1",,"SYN118AAXX  19121 76458 32460 83302 10253 20218 30094 40099 56005 88700 91150 333 0/600 10300 20249 30244 58001 70000 88815;","Q01  00002PRCP06"
"76458099999","2005-06-19T15:00:00","4","23.2","-106.4166666","4.0","COLONIA JUAN CARRASCO MAZATLAN SIN., MX","FM-12","99999","V020","330,1,N,0020,1","00390,1,9,N","006000,1,N,1","+0255,1","+0225,1","10110,1","06,9999,9,9",,,"5,1,03,1","4,1,03,1","08,1,+00390,1,08,1",,,"08,99,1,08,1,07,1,00450,1,00,1,00,1",,"01,9",,,,"99999,9,10106,1","2,1,012,1,+008,1","05,1","SYN112AAXX  19151 76458 21456 83302 10255 20225 30106 40110 52012 70554 88700 91450 333 0/600 30/// 58008 69901 88813;","Q01  99992PRCP06"
"76458099999","2005-06-19T18:00:00","4","23.2","-106.4166666","4.0","COLONIA JUAN CARRASCO MAZATLAN SIN., MX","FM-12","99999","V020","210,1,N,0030,1","00660,1,9,N","015000,1,N,1","+0272,1","+0243,1","10121,1","06,0000,9,1",,,,,"06,1,+00660,1,08,1",,,"06,99,1,06,1,07,1,00450,1,00,1,00,1",,"01,9",,"120,M,+0295,1","240,N,+0249,1","99999,9,10117,1","2,1,011,1,+017,1",,"SYN118AAXX  19181 76458 32465 62103 10272 20243 30117 40121 52011 86700 91745 333 0/600 10295 20249 30/// 57866 58017 86822;","Q01  00002PRCP06"
"76458099999","2005-06-20T00:00:00","4","23.2","-106.4166666","4.0","COLONIA JUAN CARRASCO MAZATLAN SIN., MX","FM-12","99999","V020","260,1,N,0030,1","00420,1,9,N","020000,1,N,1","+0266,1","+0221,1","10094,1","06,0000,9,1","24,9999,9,9",,,,,,,"08,99,1,08,1,04,1,00450,1,00,1,00,1",,"01,9",,"120,M,+0301,1","180,N,+0249,1","99999,9,10090,1","7,1,011,1,+007,1",,"SYN130AAXX  20001 76458 32470 82603 10266 20221 30090 40094 57011 88400 92345 333 0/6// 10301 20249 30/// 50391 57669 58007 79999 88619;","Q01  00002PRCP06Q02  99992PRCP24"
"76458099999","2005-06-20T03:00:00","4","23.2","-106.4166666","4.0","COLONIA JUAN CARRASCO MAZATLAN SIN., MX","FM-12","99999","V020","240,1,N,0030,1","04200,1,9,N","010000,1,N,1","+0252,1","+0216,1","10097,1","06,0000,9,1",,,,,"08,1,+04200,1,04,1",,,"08,99,1,08,1,00,1,02250,1,02,1,00,1",,"01,9",,,,"99999,9,10093,1","3,1,003,1,+000,1",,"SYN106AAXX  20031 76458 32860 82403 10252 20216 30093 40097 53003 88020 90245 333 0//9/ 30/// 57499 58000 88464;","Q01  00002PRCP06"
"76458099999","2005-06-20T09:00:00","4","23.2","-106.4166666","4.0","COLONIA JUAN CARRASCO MAZATLAN SIN., MX","FM-12","99999","V020","220,1,N,0020,1","02400,1,9,N","010000,1,N,1","+0244,1","+0213,1","10100,1","06,0000,9,1",,,,,"08,1,+02400,1,04,1",,,"08,99,1,08,1,00,1,99999,9,02,1,00,1",,"01,9",,,,"99999,9,10096,1","4,1,000,1,-003,1",,"SYN100AAXX  20091 76458 32960 82202 10244 20213 30096 40100 54002 88020 90850 333 0/090 30/// 59003 88458;","Q01  00002PRCP06"
"76458099999","2005-06-20T12:00:00","4","23.2","-106.4166666","4.0","COLONIA JUAN CARRASCO MAZATLAN SIN., MX","FM-12","99999","V020","180,1,N,0020,1","00240,1,9,N","008000,1,N,1","+0236,1","+0216,1","10107,1","01,0000,2,1","24,9999,9,9",,"0,1,06,1","0,1,06,1","08,1,+00240,1,06,1",,,"08,99,1,08,1,05,1,00250,1,99,9,99,9",,"01,9","999,+0230,1","120,N,+0232,1","240,M,+0301,1","99999,9,10103,1","3,1,007,1,+009,1","20,1","SYN136AAXX  20121 76458 11358 81802 10236 20216 30103 40107 53007 69905 72000 885// 91140 333 0/5// 10301 20232 30230 57650 58009 70000 88608;","Q01  00002PRCP24"
"76458099999","2005-06-20T18:00:00","4","23.2","-106.4166666","4.0","COLONIA JUAN CARRASCO MAZATLAN SIN., MX","FM-12","99999","V020","250,1,N,0040,1","22000,1,9,N","014000,1,N,1","+0270,1","+0223,1","10118,1","06,0000,2,1",,,,,"02,1,+00540,1,08,1",,,"02,99,1,02,1,02,1,00800,1,99,9,99,9",,"01,9",,"120,M,+0290,1","240,N,+0226,1","99999,9,10114,1","8,1,004,1,-003,1",,"SYN118AAXX  20181 76458 32564 22504 10270 20223 30114 40118 58004 822// 91740 333 018// 10290 20226 30/// 57880 59003 82818;",
"76458099999","2005-06-20T21:00:00","4","23.2","-106.4166666","4.0","COLONIA JUAN CARRASCO MAZATLAN SIN., MX","FM-12","99999","V020","270,1,N,0050,1","22000,1,9,N","020000,1,N,1","+0274,1","+0224,1","10100,1","06,0000,9,1",,,"4,1,03,1","0,1,03,1","01,1,+02700,1,03,1",,,"01,99,1,01,1,00,1,99999,9,03,1,00,1",,"01,9",,,,"99999,9,10095,1","7,1,018,1,-005,1","02,1","SYN106AAXX  20211 76458 31970 12705 10274 20224 30095 40100 57018 70240 81030 92050 333 0/090 30/// 59005 81359;","Q01  00002PRCP06"
"76458099999","2005-06-21T00:00:00","4","23.2","-106.4166666","4.0","COLONIA JUAN CARRASCO MAZATLAN SIN., MX","FM-12","99999","V020","240,1,N,0030,1","22000,1,9,N","020000,1,N,1","+0270,1","+0221,1","10087,1","06,0000,9,1","24,0000,9,1",,,,"03,1,+00660,1,08,1",,,"03,99,1,03,1,02,1,00150,1,00,1,00,1",,"01,9",,"120,M,+0300,1","180,N,+0226,1","99999,9,10082,1","6,1,018,1,+012,1",,"SYN124AAXX  21001 76458 32270 32403 10270 20221 30082 40087 56018 83200 92345 333 0/600 10300 20226 30/// 57867 58012 70000 83822;","Q01  00002PRCP06"
"76458099999","2005-06-21T03:00:00","4","23.2","-106.4166666","4.0","COLONIA JUAN CARRASCO MAZATLAN SIN., MX","FM-12","99999","V020","240,1,N,0020,1","22000,1,9,N","010000,1,N,1","+0255,1","+0226,1","10097,1","06,0000,9,1",,,,,"02,1,+02400,1,03,1",,,"02,99,1,02,1,00,1,99999,9,06,1,00,1",,"01,9",,,,"99999,9,10091,1","1,1,009,1,-002,1",,"SYN094AAXX  21031 76458 32960 22402 10255 20226 30091 40097 51009 82060 90245 333 30/// 59002 82358;","Q01  00002PRCP06"
"76458099999","2005-06-21T12:00:00","4","23.2","-106.4166666","4.0","COLONIA JUAN CARRASCO MAZATLAN SIN., MX","FM-12","99999","V020","999,9,C,0000,1","00660,1,9,N","010000,1,N,1","+0253,1","+0219,1","10102,1","06,0000,9,1","24,0000,9,1",,,,"06,1,+00660,1,06,1",,,"06,99,1,06,1,06,1,00450,1,00,1,00,1",,"01,9","999,+0226,1","120,N,+0243,1","240,M,+0300,1","99999,9,10097,1","9,9,999,9,-005,1",,"SYN124AAXX  21121 76458 32460 60000 10253 20219 30097 40102 5//// 86600 91145 333 0/600 10300 20243 30226 57667 59005 70000 86622;","Q01  00002PRCP06"
"76458099999","2005-06-21T15:00:00","4","23.2","-106.4166666","4.0","COLONIA JUAN CARRASCO MAZATLAN SIN., MX","FM-12","99999","V020","280,1,N,0020,1","22000,1,9,N","018000,1,N,1","+0263,1","+0228,1","10114,1","06,0000,9,1",,,,,"03,1,+00660,1,08,1",,,"03,99,1,03,1,02,1,00450,1,00,1,00,1",,"01,9",,,,"99999,9,10110,1","2,1,013,1,-008,1",,"SYN106AAXX  21151 76458 32468 32802 10263 20228 30110 40114 52013 83200 91445 333 0/600 30/// 57866 59008 83822;","Q01  00002PRCP06"
"76458099999","2005-06-21T21:00:00","4","23.2","-106.4166666","4.0","COLONIA JUAN CARRASCO MAZATLAN SIN., MX","FM-12","99999","V020","240,1,N,0030,1","22000,1,9,N","020000,1,N,1","+0287,1","+0230,1","10096,1","06,0000,9,1",,,"4,1,03,1","0,1,03,1","02,1,+00720,1,09,1",,,"02,99,1,02,1,09,1,00800,1,00,1,00,1",,"01,9",,,,"99999,9,10091,1","7,1,013,1,-004,1","03,1","SYN112AAXX  21211 76458 31570 22403 10287 20230 30091 40096 57013 70340 82900 92050 333 07100 30/// 57912 59004 82924;","Q01  00002PRCP06"
"76458099999","2005-06-22T00:00:00","4","23.2","-106.4166666","4.0","COLONIA JUAN CARRASCO MAZATLAN SIN., MX","FM-12","99999","V020","290,1,N,0040,1","22000,1,9,N","020000,1,N,1","+0285,1","+0233,1","10084,1","06,0000,9,1","24,0000,9,1",,,,,,,"01,99,1,01,1,03,1,00800,1,00,1,00,1",,"01,9",,"120,M,+0309,1","180,N,+0244,1","99999,9,10080,1","7,1,011,1,-009,1",,"SYN130AAXX  22001 76458 32570 12904 10285 20233 30080 40084 57011 81300 92345 333 0/1// 10309 20244 30/// 5///1 57919 59009 70000 81922;","Q01  00002PRCP06"
"76458099999","2005-06-22T03:00:00","4","23.2","-106.4166666","4.0","COLONIA JUAN CARRASCO MAZATLAN SIN., MX","FM-12","99999","V020","290,1,N,0020,1","22000,1,9,N","010000,1,N,1","+0268,1","+0229,1","10094,1","06,0000,9,1",,,,,"00,1,+99999,9,99,9",,,"00,99,1,00,1,00,1,99999,9,00,1,00,1",,"01,9",,,,"99999,9,10090,1","2,1,010,1,-001,1",,"SYN082AAXX  22031 76458 32960 02902 10268 20229 30090 40094 52010 90245 333 30/// 59001;","Q01  00002PRCP06"
"76458099999","2005-06-22T09:00:00","4","23.2","-106.4166666","4.0","COLONIA JUAN CARRASCO MAZATLAN SIN., MX","FM-12","99999","V020","120,1,N,0010,1","22000,1,9,N","010000,1,N,1","+0255,1","+0229,1","10107,1","06,0000,9,1",,,,,"02,1,+00330,1,08,1",,,"02,99,1,02,1,02,1,00450,1,00,1,00,1",,"01,9",,,,"99999,9,10102,1","7,1,005,1,+002,1",,"SYN100AAXX  22091 76458 32460 21201 10255 20229 30102 40107 57005 82200 90840 333 0/600 30/// 58002 82811;","Q01  00002PRCP06"
"76458099999","2005-06-22T12:00:00","4","23.2","-106.4166666","4.0","COLONIA JUAN CARRASCO MAZATLAN SIN., MX","FM-12","99999","V020","060,1,N,0010,1","22000,1,9,N","010000,1,N,1","+0255,1","+0223,1","10114,1","06,0000,9,1","24,0000,9,1",,,,"00,1,+99999,9,99,9",,,"00,99,1,00,1,00,1,99999,9,00,1,00,1",,"01,9","999,+0241,1","120,N,+0250,1","240,M,+0309,1","99999,9,10110,1","1,1,008,1,+013,1",,"SYN100AAXX  22121 76458 32460 00601 10255 20223 30110 40114 51008 91145 333 10309 20250 30241 58013 70000;","Q01  00002PRCP06Q02  00002PRCP24"
"76458099999","2005-06-22T15:00:00","4","23.2","-106.4166666","4.0","COLONIA JUAN CARRASCO MAZATLAN SIN., MX","FM-12","99999","V020","110,1,N,0020,1","22000,1,9,N","016000,1,N,1","+0283,1","+0237,1","10120,1","06,0000,9,1",,,,,"00,1,+99999,9,99,9",,,"00,99,1,00,1,00,1,99999,9,00,1,00,1",,"01,9",,,,"99999,9,10116,1","1,1,006,1,+006,1",,"SYN082AAXX  22151 76458 32966 01102 10283 20237 30116 40120 51006 91445 333 30/// 58006;","Q01  00002PRCP06"
"76458099999","2005-06-22T18:00:00","4","23.2","-106.4166666","4.0","COLONIA JUAN CARRASCO MAZATLAN SIN., MX","FM-12","99999","V020","240,1,N,0030,1","22000,1,9,N","018000,1,N,1","+0295,1","+0241,1","10113,1","06,0000,9,1",,,,,"00,1,+99999,9,99,9",,,"00,99,1,00,1,00,1,99999,9,00,1,00,1",,"01,9",,"120,M,+0321,1","240,N,+0250,1","99999,9,10108,1","7,1,007,1,+004,1",,"SYN094AAXX  22181 76458 32968 02403 10295 20241 30108 40113 57007 91756 333 10321 20250 30/// 58004;","Q01  00002PRCP06"
"76458099999","2005-06-22T21:00:00","4","23.2","-106.4166666","4.0","COLONIA JUAN CARRASCO MAZATLAN SIN., MX","FM-12","99999","V020","240,1,N,0040,1","22000,1,9,N","020000,1,N,1","+0298,1","+9999,9","10104,1","06,0000,9,1",,,,,"02,1,+00780,1,09,1",,,"03,99,1,99,9,99,9,00800,1,99,9,99,9",,"01,9",,,,"99999,9,10099,1",,,"SYN112AAXX  22211 76458 32570 32404 10298 30099 30235 40104 57009 82930 92050 333 07190 30/// 56912 56008 82926 81359;","Q01  00002PRCP06"
"76458099999","2005-06-23T00:00:00","4","23.2","-106.4166666","4.0","COLONIA JUAN CARRASCO MAZATLAN SIN., MX","FM-12","99999","V020","240,1,N,0030,1","00420,1,9,N","020000,1,N,1","+0284,1","+0242,1","10100,1","06,0000,9,1","24,0000,9,1",,,,,,,"07,99,1,07,1,02,1,00450,1,00,1,00,1",,"01,9",,"120,M,+0324,1","180,N,+0250,1","99999,9,10096,1","6,1,003,1,+016,1",,"SYN130AAXX  23001 76458 32470 72403 10284 20242 30096 40100 56003 87200 92347 333 0/6// 10324 20250 30/// 50601 57869 58016 70000 87817;","Q01  00002PRCP06"
"76458099999","2005-06-23T03:00:00","4","23.2","-106.4166666","4.0","COLONIA JUAN CARRASCO MAZATLAN SIN., MX","FM-12","99999","V020","300,1,N,0030,1","03600,1,C,N","010000,1,N,1","+0274,1","+0238,1","10124,1","06,0000,9,1",,,"0,1,03,1","0,1,03,1","01,1,+00450,1,09,1","01,1,+00480,1,06,1",,"07,99,1,02,1,09,1,00450,1,03,1,00,1",,"01,9",,,,"99999,9,10119,1","2,1,023,1,+029,1","13,1","SYN124AAXX  23031 76458 31460 73003 10274 20238 30119 40124 52023 71300 82930 90248 333 0/19/ 30/// 57919 58029 81915 81616 85364;","Q01  00002PRCP06"
"76458099999","2005-06-23T09:00:00","4","23.2","-106.4166666","4.0","COLONIA JUAN CARRASCO MAZATLAN SIN., MX","FM-12","99999","V020","350,1,N,0020,1","00390,1,9,N","010000,1,N,1","+0262,1","+0235,1","10121,1","06,0000,9,1",,,,,"07,1,+00390,1,06,1",,,"07,99,1,07,1,05,1,00450,1,00,1,00,1",,"01,9",,,,"99999,9,10116,1","7,1,011,1,+014,1",,"SYN100AAXX  23091 76458 32460 73502 10262 20235 30116 40121 57011 87500 90858 333 0/600 30/// 58014 87613;","Q01  00002PRCP06"
"76458099999","2005-06-23T12:00:00","4","23.2","-106.4166666","4.0","COLONIA JUAN CARRASCO MAZATLAN SIN., MX","FM-12","99999","V020","030,1,N,0020,1","99999,9,9,N","008000,1,N,1","+0264,1","+0222,1","10120,1","06,0000,9,1","24,0000,9,1",,,,"03,1,+01800,1,03,1",,,"05,99,1,03,1,99,9,02250,1,03,1,06,1",,"01,9","999,+0243,1","120,N,+0260,1","240,M,+0324,1","99999,9,10116,1","5,1,000,1,+006,1",,"SYN118AAXX  23121 76458 32858 50302 10264 20222 30116 40120 55000 83/36 91140 333 10324 20260 30243 58006 70000 83356 82070;","Q01  00002PRCP06"
"76458099999","2005-06-23T15:00:00","4","23.2","-106.4166666","4.0","COLONIA JUAN CARRASCO MAZATLAN SIN., MX","FM-12","99999","V020","360,1,N,0020,1","99999,9,9,N","018000,1,N,1","+0280,1","+0214,1","10129,1","06,0000,9,1",,,,,"04,1,+01800,1,03,1",,,"07,99,1,04,1,99,9,02250,1,03,1,08,1",,"01,9",,,,"99999,9,10125,1","3,1,009,1,+009,1",,"SYN100AAXX  23151 76458 32868 73602 10280 20214 30125 40129 53009 84/38 91440 333 30/// 58009 84356 83270;","Q01  00002PRCP06"
"76458099999","2005-06-23T18:00:00","4","23.2","-106.4166666","4.0","COLONIA JUAN CARRASCO MAZATLAN SIN., MX","FM-12","99999","V020","260,1,N,0030,1","02700,1,9,N","020000,1,N,1","+0308,1","+0226,1","10125,1","06,0000,9,1",,,,,"07,1,+02700,1,03,1",,,"07,99,1,07,1,00,1,99999,9,03,1,00,1",,"01,9",,"120,M,+0327,1","240,N,+0260,1","99999,9,10121,1","7,1,004,1,+012,1",,"SYN112AAXX  23181 76458 32970 72603 10308 20226 30121 40125 57004 87030 91750 333 0/090 10327 20260 30/// 58012 87359;","Q01  00002PRCP06"
"76458099999","2005-06-23T21:00:00","4","23.2","-106.4166666","4.0","COLONIA JUAN CARRASCO MAZATLAN SIN., MX","FM-12","99999","V020","270,1,N,0030,1","02100,1,9,N","020000,1,N,1","+0305,1","+0235,1","10110,1","06,0000,9,1",,,,,"07,1,+02100,1,03,1",,,"07,99,1,07,1,00,1,02250,1,05,1,00,1",,"01,9",,,,"99999,9,10106,1","7,1,015,1,+007,1",,"SYN100AAXX  23211 76458 32870 72703 10305 20235 30106 40110 57015 87050 92050 333 0/090 30/// 58007 87357;","Q01  00002PRCP06"
"76458099999","2005-06-24T03:00:00","4","23.2","-106.4166666","4.0","COLONIA JUAN CARRASCO MAZATLAN SIN., MX","FM-12","99999","V020","300,1,N,0030,1","03600,1,9,N","010000,1,N,1","+0282,1","+0236,1","10107,1","06,0000,9,1",,,,,"06,1,+03600,1,03,1",,,"06,99,1,06,1,00,1,02250,1,03,1,00,1",,"01,9",,,,"99999,9,10102,1","3,1,009,1,-017,1",,"SYN106AAXX  24031 76458 32860 63003 10282 20236 30102 40107 53009 86030 90245 333 0//9/ 30/// 57399 59017 86362;","Q01  00002PRCP06"
"76458099999","2005-06-24T06:00:00","4","23.2","-106.4166666","4.0","COLONIA JUAN CARRASCO MAZATLAN SIN., MX","FM-12","99999","V020","270,1,N,0020,1","22000,1,9,N","010000,1,N,1","+0276,1","+0241,1","10126,1","06,0000,9,1",,,,,"03,1,+00420,1,06,1",,,"03,99,1,03,1,04,1,00450,1,00,1,00,1","0180,9","01,9",,"240,M,+0339,1","240,N,+0260,1","99999,9,10122,1","2,1,020,1,+005,1",,"SYN118AAXX  24061 76458 32460 32702 10276 20241 30122 40126 52020 83400 90558 333 0/600 10339 20260 30/// 55030 58005 83614;","Q01  00002PRCP06"
"76458099999","2005-06-24T09:00:00","4","23.2","-106.4166666","4.0","COLONIA JUAN CARRASCO MAZATLAN SIN., MX","FM-12","99999","V020","240,1,N,0020,1","22000,1,9,N","010000,1,N,1","+0270,1","+0240,1","10117,1","06,0000,9,1",,,,,"03,1,+02400,1,03,1",,,"03,99,1,03,1,00,1,99999,9,03,1,00,1",,"01,9",,,,"99999,9,10113,1","7,1,010,1,-003,1",,"SYN100AAXX  24091 76458 32960 32402 10270 20240 30113 40117 57010 83030 90855 333 0/0/0 30/// 59003 83358;","Q01  00002PRCP06"
"76458099999","2005-06-24T12:00:00","4","23.2","-106.4166666","4.0","COLONIA JUAN CARRASCO MAZATLAN SIN., MX","FM-12","99999","V020","330,1,N,0020,1","22000,1,9,N","008000,1,N,1","+0268,1","+0226,1","10117,1","06,0000,9,1","24,0000,9,1",,,,"00,1,+99999,9,99,9",,,"00,99,1,00,1,00,1,99999,9,00,1,00,1",,"01,9","999,+0250,1","120,N,+0264,1","240,M,+0339,1","99999,9,10113,1","5,1,000,1,-003,1",,"SYN100AAXX  24121 76458 32958 03302 10268 20226 30113 40117 55000 91140 333 10339 20264 30250 59003 70000;","Q01  00002PRCP06Q02  00002PRCP24"
"76458099999","2005-06-24T15:00:00","4","23.2","-106.4166666","4.0","COLONIA JUAN CARRASCO MAZATLAN SIN., MX","FM-12","99999","V020","270,1,N,0030,1","22000,1,9,N","020000,1,N,1","+0290,1","+0230,1","10125,1","06,0000,9,1",,,,,"00,1,+99999,9,99,9",,,"00,99,1,00,1,00,1,99999,9,00,1,00,1",,"01,9",,,,"99999,9,10120,1","2,1,007,1,-005,1",,"SYN082AAXX  24151 76458 32970 02703 10290 20230 30120 40125 52007 91440 333 30/// 59005;","Q01  00002PRCP06"
"76458099999","2005-06-24T18:00:00","4","23.2","-106.4166666","4.0","COLONIA JUAN CARRASCO MAZATLAN SIN., MX","FM-12","99999","V020","250,1,N,0050,1","22000,1,9,N","020000,1,N,1","+0300,1","+0246,1","10124,1","06,0000,9,1",,,,,"00,1,+99999,9,99,9",,,"00,99,1,00,1,00,1,99999,9,00,1,00,1",,"01,9",,"120,M,+0315,1","240,N,+0260,1","99999,9,10119,1","0,1,001,1,-002,1",,"SYN094AAXX  24181 76458 32970 02505 10300 20246 30119 40124 50001 91745 333 10315 20260 30/// 59002;","Q01  00002PRCP06"
"76458099999","2005-06-24T21:00:00","4","23.2","-106.4166666","4.0","COLONIA JUAN CARRASCO MAZATLAN SIN., MX","FM-12","99999","V020","260,1,N,0050,1","22000,1,9,N","020000,1,N,1","+0301,1","+0260,1","10101,1","06,0000,9,1",,,,,"01,1,+00600,1,09,1",,,"01,99,1,01,1,03,1,00800,1,00,1,00,1",,"01,9",,,,"99999,9,10096,1","7,1,023,1,-010,1",,"SYN106AAXX  24211 76458 32570 12605 10301 20260 30096 40101 57023 81300 92050 333 0/100 30/// 57916 59010 81920;","Q01  00002PRCP06"
"76458099999","2005-06-25T00:00:00","4","23.2","-106.4166666","4.0","COLONIA JUAN CARRASCO MAZATLAN SIN., MX","FM-12","99999","V020","270,1,N,0040,1","22000,1,9,N","020000,1,N,1","+0299,1","+0243,1","10080,1","06,0000,9,1","24,0000,9,1",,,,,,,"01,99,1,01,1,03,1,00800,1,00,1,00,1",,"01,9",,"120,M,+0321,1","180,N,+0260,1","99999,9,10076,1","7,1,020,1,-017,1",,"SYN130AAXX  25001 76458 32570 12704 10299 20243 30076 40080 57020 81300 92345 333 0/1// 10321 20260 30/// 50461 57914 59017 70000 81923;","Q01  00002PRCP06"
"76458099999","2005-06-25T03:00:00","4","23.2","-106.4166666","4.0","COLONIA JUAN CARRASCO MAZATLAN SIN., MX","FM-12","99999","V020","300,1,N,0030,1","22000,1,9,N","010000,1,N,1","+0278,1","+0247,1","10088,1","06,0000,9,1",,,,,"01,1,+00390,1,08,1",,,"01,99,1,01,1,01,1,00450,1,00,1,00,1",,"01,9",,,,"99999,9,10084,1","2,1,008,1,-018,1",,"SYN106AAXX  25031 76458 32460 13003 10278 20247 30084 40088 52008 81100 90240 333 0/6// 30/// 57869 59018 81813;","Q01  00002PRCP06"
"76458099999","2005-06-25T15:00:00","4","23.2","-106.4166666","4.0","COLONIA JUAN CARRASCO MAZATLAN SIN., MX","FM-12","99999","V020","210,1,N,0020,1","22000,1,9,N","020000,1,N,1","+0274,1","+0236,1","10108,1","06,0000,9,1",,,,,"01,1,+00420,1,08,1",,,"01,99,1,01,1,01,1,00450,1,00,1,00,1",,"01,9",,,,"99999,9,10104,1","1,1,006,1,-016,1",,"SYN106AAXX  25151 76458 32470 12102 10274 20236 30104 40108 51006 81100 91440 333 008// 30/// 57880 59016 81814;","Q01  00002PRCP06"
"76458099999","2005-06-25T21:00:00","4","23.2","-106.4166666","4.0","COLONIA JUAN CARRASCO MAZATLAN SIN., MX","FM-12","99999","V020","240,1,N,0040,1","22000,1,9,N","020000,1,N,1","+0294,1","+0239,1","10076,1","06,0000,9,1",,,,,"00,1,+99999,9,99,9",,,"00,99,1,00,1,00,1,99999,9,00,1,00,1",,"01,9",,,,"99999,9,10072,1","7,1,019,1,-024,1",,"SYN082AAXX  25211 76458 32970 02404 10294 20239 30072 40076 57019 92045 333 30/// 59024;","Q01  00002PRCP06"
"76458099999","2005-06-26T00:00:00","4","23.2","-106.4166666","4.0","COLONIA JUAN CARRASCO MAZATLAN SIN., MX","FM-12","99999","V020","240,1,N,0030,1","22000,1,9,N","020000,1,N,1","+0289,1","+0238,1","10066,1","06,0000,9,1","24,0000,9,1",,,,"00,1,+99999,9,99,9",,,"00,99,1,00,1,00,1,99999,9,00,1,00,1",,"01,9",,"120,M,+0315,1","180,N,+0258,1","99999,9,10061,1","5,1,011,1,-015,1",,"SYN106AAXX  26001 76458 32970 02403 10289 20238 30061 40066 55011 92345 333 10315 20258 30/// 50641 59015 70000;","Q01  00002PRCP06Q02  00002PRCP24"
"76458099999","2005-06-26T06:00:00","4","23.2","-106.4166666","4.0","COLONIA JUAN CARRASCO MAZATLAN SIN., MX","FM-12","99999","V020","130,1,N,0020,1","22000,1,9,N","010000,1,N,1","+0262,1","+0234,1","10093,1","06,0000,9,1",,,,,"00,1,+99999,9,99,9",,,"00,99,1,00,1,00,1,99999,9,00,1,00,1","0714,9","01,9",,"240,M,+0315,1","240,N,+0258,1","99999,9,10089,1","2,1,021,1,+999,9",,"SYN106AAXX  26061 76458 32960 01302 10262 20234 30089 40093 52021 90555 333 10315 20258 30/// 55119 2//// 59010;","Q01  00002PRCP06"
"76458099999","2005-06-26T09:00:00","4","23.2","-106.4166666","4.0","COLONIA JUAN CARRASCO MAZATLAN SIN., MX","FM-12","99999","V020","110,1,N,0030,1","22000,1,9,N","010000,1,N,1","+0262,1","+0235,1","10093,1","06,0000,9,1",,,,,"03,1,+00330,1,08,1",,,"03,99,1,03,1,01,1,00450,1,00,1,00,1",,"01,9",,,,"99999,9,10089,1","0,1,000,1,-005,1",,"SYN100AAXX  26091 76458 32460 31103 10262 20235 30089 40093 50000 83100 90850 333 01300 30/// 59005 83811;","Q01  00002PRCP06"
"76458099999","2005-06-26T12:00:00","4","23.2","-106.4166666","4.0","COLONIA JUAN CARRASCO MAZATLAN SIN., MX","FM-12","99999","V020","090,1,N,0020,1","00330,1,9,N","010000,1,N,1","+0262,1","+0236,1","10096,1","06,0000,9,1","24,0000,9,1",,,,"07,1,+00330,1,08,1",,,"07,99,1,07,1,07,1,00450,1,00,1,00,1",,"01,9","999,+0252,1","120,N,+0257,1","240,M,+0315,1","99999,9,10091,1","3,1,002,1,-007,1",,"SYN118AAXX  26121 76458 32460 70902 10262 20236 30091 40096 53002 87700 91145 333 0/300 10315 20257 30252 59007 70000 87811;","Q01  00002PRCP06"
"76458099999","2005-06-26T15:00:00","4","23.2","-106.4166666","4.0","COLONIA JUAN CARRASCO MAZATLAN SIN., MX","FM-12","99999","V020","100,1,N,0030,1","03600,1,C,N","020000,1,N,1","+0278,1","+0240,1","10104,1","06,0000,9,1",,,,,"02,1,+00540,1,08,1",,,"05,99,1,02,1,02,1,00450,1,06,1,00,1",,"01,9",,,,"99999,9,10099,1","0,1,008,1,-016,1",,"SYN112AAXX  26151 76458 32470 51003 10278 20240 30099 40104 50008 82260 91450 333 04330 30/// 57835 59016 82818 83358;","Q01  00002PRCP06"
"76458099999","2005-06-26T18:00:00","4","23.2","-106.4166666","4.0","COLONIA JUAN CARRASCO MAZATLAN SIN., MX","FM-12","99999","V020","210,1,N,0050,1","22000,1,9,N","020000,1,N,1","+0300,1","+0245,1","10093,1","06,0000,9,1",,,,,"01,1,+00660,1,08,1",,,"01,99,1,01,1,02,1,00800,1,00,1,00,1",,"01,9",,"120,M,+0320,1","240,N,+0257,1","99999,9,10089,1","7,1,010,1,-002,1",,"SYN118AAXX  26181 76458 32570 12105 10300 20245 30089 40093 57010 81200 91745 333 0/100 10320 20257 30/// 57817 59002 81822;","Q01  00002PRCP06"
"76458099999","2005-06-26T21:00:00","4","23.2","-106.4166666","4.0","COLONIA JUAN CARRASCO MAZATLAN SIN., MX","FM-12","99999","V020","210,1,N,0050,1","22000,1,9,N","020000,1,N,1","+0292,1","+0244,1","10077,1","06,0000,9,1",,,,,"00,1,+99999,9,99,9",,,"00,99,1,00,1,00,1,99999,9,00,1,00,1",,"01,9",,,,"99999,9,10073,1","7,1,016,1,+001,1",,"SYN082AAXX  26211 76458 32970 02105 10292 20244 30073 40077 57016 92045 333 30/// 58001;","Q01  00002PRCP06"
"76458099999","2005-06-27T00:00:00","4","23.2","-106.4166666","4.0","COLONIA JUAN CARRASCO MAZATLAN SIN., MX","FM-12","99999","V020","260,1,N,0030,1","22000,1,9,N","020000,1,N,1","+0280,1","+0223,1","10072,1","06,0000,9,1","24,0000,9,1",,,,"00,1,+99999,9,99,9",,,"00,99,1,00,1,00,1,99999,9,00,1,00,1",,"01,9",,"120,M,+0319,1","180,N,+0257,1","99999,9,10068,1","7,1,004,1,+007,1",,"SYN106AAXX  27001 76458 32970 02603 10280 20223 30068 40072 57004 92345 333 10319 20257 30/// 50601 58007 70000;","Q01  00002PRCP06Q02  00002PRCP24"
"76458099999","2005-06-27T03:00:00","4","23.2","-106.4166666","4.0","COLONIA JUAN CARRASCO MAZATLAN SIN., MX","FM-12","99999","V020","250,1,N,0020,1","22000,1,9,N","010000,1,N,1","+0268,1","+0215,1","10080,1","06,0000,9,1",,,,,"00,1,+99999,9,99,9",,,"00,99,1,00,1,00,1,99999,9,00,1,00,1",,"01,9",,,,"99999,9,10076,1","2,1,008,1,+008,1",,"SYN082AAXX  27031 76458 32960 02502 10268 20215 30076 40080 52008 90245 333 30/// 58008;","Q01  00002PRCP06"
"76458099999","2005-06-27T09:00:00","4","23.2","-106.4166666","4.0","COLONIA JUAN CARRASCO MAZATLAN SIN., MX","FM-12","99999","V020","130,1,N,0010,1","22000,1,9,N","010000,1,N,1","+0258,1","+0200,1","10089,1","06,0000,9,1",,,,,"00,1,+99999,9,99,9",,,"00,99,1,00,1,00,1,99999,9,00,1,00,1",,"01,9",,,,"99999,9,10085,1","7,1,005,1,-004,1",,"SYN082AAXX  27091 76458 32960 01301 10258 20200 30085 40089 57005 90855 333 30/// 59004;","Q01  00002PRCP06"
"76458099999","2005-06-27T12:00:00","4","23.2","-106.4166666","4.0","COLONIA JUAN CARRASCO MAZATLAN SIN., MX","FM-12","99999","V020","090,1,N,0010,1","22000,1,9,N","008000,1,N,1","+0256,1","+0211,1","10097,1","06,0000,9,1","24,0000,9,1",,,,"00,1,+99999,9,99,9",,,"00,99,1,00,1,00,1,99999,9,00,1,00,1",,"01,9","999,+0237,1","120,N,+0252,1","240,M,+0319,1","99999,9,10093,1","3,1,008,1,+002,1",,"SYN100AAXX  27121 76458 32958 00901 10256 20211 30093 40097 53008 91140 333 10319 20252 30237 58002 70000;","Q01  00002PRCP06Q02  00002PRCP24"
"76458099999","2005-06-27T18:00:00","4","23.2","-106.4166666","4.0","COLONIA JUAN CARRASCO MAZATLAN SIN., MX","FM-12","99999","V020","190,1,N,0030,1","22000,1,9,N","014000,1,N,1","+0303,1","+0229,1","10099,1","06,0000,9,1",,,,,"01,1,+08700,1,00,1",,,"01,99,1,00,1,00,1,99999,9,00,1,01,1",,"01,9",,"120,M,+0318,1","240,N,+0250,1","99999,9,10095,1","7,1,006,1,+006,1",,"SYN112AAXX  27181 76458 32964 11903 10303 20229 30095 40099 57006 80001 91750 333 0/009 10318 20250 30/// 58006 81079;","Q01  00002PRCP06"
"76458099999","2005-06-28T03:00:00","4","23.2","-106.4166666","4.0","COLONIA JUAN CARRASCO MAZATLAN SIN., MX","FM-12","99999","V020","270,1,N,0040,1","22000,1,9,N","010000,1,N,1","+0275,1","+0218,1","10123,1","06,0000,9,1",,,,,"00,1,+99999,9,99,9",,,"00,99,1,00,1,00,1,99999,9,00,1,00,1",,"01,9",,,,"99999,9,10119,1","2,1,011,1,+043,1",,"SYN082AAXX  28031 76458 32960 02704 10275 20218 30119 40123 52011 90245 333 30/// 58043;","Q01  00002PRCP06"
"76458099999","2005-06-28T06:00:00","4","23.2","-106.4166666","4.0","COLONIA JUAN CARRASCO MAZATLAN SIN., MX","FM-12","99999","V020","180,1,N,0020,1","22000,1,9,N","010000,1,N,1","+0272,1","+0216,1","10094,1","06,0000,9,1",,,,,"00,1,+99999,9,99,9",,,"00,99,1,00,1,00,1,99999,9,00,1,00,1","0720,9","01,9",,"240,M,+0325,1","240,N,+0250,1","99999,9,10090,1","2,1,010,1,+002,1",,"SYN100AAXX  28061 76458 32960 01802 10272 20216 30090 40094 52010 90558 333 10325 20250 30/// 55120 58002;","Q01  00002PRCP06"
"76458099999","2005-06-28T09:00:00","4","23.2","-106.4166666","4.0","COLONIA JUAN CARRASCO MAZATLAN SIN., MX","FM-12","99999","V020","130,1,N,0020,1","22000,1,9,N","010000,1,N,1","+0264,1","+0207,1","10090,1","06,0000,9,1",,,,,"00,1,+99999,9,99,9",,,"00,99,1,00,1,00,1,99999,9,00,1,00,1",,"01,9",,,,"99999,9,10085,1","7,1,005,1,+001,1",,"SYN082AAXX  28091 76458 32960 01302 10264 20207 30085 40090 57005 90855 333 30/// 58001;","Q01  00002PRCP06"
"76458099999","2005-06-28T12:00:00","4","23.2","-106.4166666","4.0","COLONIA JUAN CARRASCO MAZATLAN SIN., MX","FM-12","99999","V020","090,1,N,0030,1","22000,1,9,N","010000,1,N,1","+0260,1","+0235,1","10094,1","06,0000,9,1","24,0000,9,1",,,,"00,1,+99999,9,99,9",,,"00,99,1,00,1,00,1,99999,9,00,1,00,1",,"01,9","999,+0245,1","120,N,+0256,1","240,M,+0325,1","99999,9,10090,1","2,1,005,1,-003,1",,"SYN100AAXX  28121 76458 32960 00903 10260 20235 30090 40094 52005 91145 333 10325 20256 30245 59003 70000;","Q01  00002PRCP06Q02  00002PRCP24"
"76458099999","2005-06-28T18:00:00","4","23.2","-106.4166666","4.0","COLONIA JUAN CARRASCO MAZATLAN SIN., MX","FM-12","99999","V020","180,1,N,0030,1","22000,1,9,N","020000,1,N,1","+0306,1","+0238,1","10097,1","06,0000,9,1",,,,,"01,1,+00840,1,08,1",,,"01,99,1,01,1,01,1,00800,1,00,1,00,1",,"01,9",,"120,M,+0324,1","240,N,+0256,1","99999,9,10092,1","8,1,008,1,-003,1",,"SYN112AAXX  28181 76458 32570 11803 10306 20238 30092 40097 58008 81100 91756 333 00900 10324 20256 30/// 59003 81828;","Q01  00002PRCP06"
"76458099999","2005-06-28T21:00:00","4","23.2","-106.4166666","4.0","COLONIA JUAN CARRASCO MAZATLAN SIN., MX","FM-12","99999","V020","240,1,N,0050,1","22000,1,9,N","020000,1,N,1","+0305,1","+0246,1","10079,1","06,0000,9,1",,,,,"01,1,+00750,1,08,1",,,"01,99,1,01,1,02,1,00800,1,00,1,00,1",,"01,9",,,,"99999,9,10075,1","7,1,017,1,-001,1",,"SYN106AAXX  28211 76458 32570 12405 10305 20246 30075 40079 57017 81200 92050 333 04100 30/// 57816 59001 81825;","Q01  00002PRCP06"
"76458099999","2005-06-29T00:00:00","4","23.2","-106.4166666","4.0","COLONIA JUAN CARRASCO MAZATLAN SIN., MX","FM-12","99999","V020","270,1,N,0030,1","22000,1,9,N","020000,1,N,1","+0291,1","+0244,1","10065,1","06,0000,9,1","24,0000,9,1",,,,,,,"01,99,1,01,1,00,1,02250,1,03,1,00,1",,"01,9",,"120,M,+0325,1","180,N,+0256,1","99999,9,10060,1","7,1,015,1,+005,1",,"SYN130AAXX  29001 76458 32870 12703 10291 20244 30060 40065 57015 81030 92345 333 0//9/ 10325 20256 30/// 50751 57399 58005 70000 81364;","Q01  00002PRCP06"
"76458099999","2005-06-29T12:00:00","4","23.2","-106.4166666","4.0","COLONIA JUAN CARRASCO MAZATLAN SIN., MX","FM-12","99999","V020","090,1,N,0020,1","22000,1,9,N","008000,1,N,1","+0264,1","+0228,1","10090,1","06,0000,9,1","24,0000,9,1",,,,"00,1,+99999,9,99,9",,,"00,99,1,00,1,00,1,99999,9,00,1,00,1",,"01,9","999,+0250,1","120,N,+0260,1","240,M,+0325,1","99999,9,10085,1","3,1,003,1,+999,9",,"SYN100AAXX  29121 76458 32958 00902 10264 20228 30085 40090 53003 91140 333 10325 20260 30250 56/// 70000;","Q01  00002PRCP06Q02  00002PRCP24"
"76458099999","2005-06-29T21:00:00","4","23.2","-106.4166666","4.0","COLONIA JUAN CARRASCO MAZATLAN SIN., MX","FM-12","99999","V020","240,1,N,0030,1","22000,1,9,N","020000,1,N,1","+0311,1","+0232,1","10077,1","06,0000,9,1",,,,,,,,"01,99,1,01,1,01,1,00800,1,00,1,00,1",,"01,9",,,,"99999,9,10072,1","7,1,019,1,+999,9",,"SYN106AAXX  29211 76458 32570 12403 10311 20232 30072 40077 57019 81100 92050 333 00100 30/// 57816 29002 81833;","Q01  00002PRCP06"
"76458099999","2005-06-30T00:00:00","4","23.2","-106.4166666","4.0","COLONIA JUAN CARRASCO MAZATLAN SIN., MX","FM-12","99999","V020","240,1,N,0030,1","22000,1,9,N","020000,1,N,1","+0303,1","+0232,1","10066,1","06,0000,9,1","24,0000,9,1",,,,"00,1,+99999,9,99,9",,,"00,99,1,00,1,00,1,99999,9,00,1,00,1",,"01,9",,"120,M,+0341,1","180,N,+0260,1","99999,9,10062,1","7,1,010,1,+002,1",,"SYN106AAXX  30001 76458 32970 02403 10303 20232 30062 40066 57010 92345 333 10341 20260 30/// 50541 58002 70000;","Q01  00002PRCP06Q02  00002PRCP24"
"76458099999","2005-06-30T03:00:00","4","23.2","-106.4166666","4.0","COLONIA JUAN CARRASCO MAZATLAN SIN., MX","FM-12","99999","V020","260,1,N,0030,1","22000,1,9,N","010000,1,N,1","+0285,1","+0233,1","10084,1","06,0000,9,1",,,,,"00,1,+99999,9,99,9",,,"00,99,1,00,1,00,1,99999,9,00,1,00,1",,"01,9",,,,"99999,9,10079,1","3,1,017,1,+007,1",,"SYN082AAXX  30031 76458 32960 02603 10285 20233 30079 40084 53017 90245 333 30/// 58007;","Q01  00002PRCP06"
"76458099999","2005-06-30T15:00:00","4","23.2","-106.4166666","4.0","COLONIA JUAN CARRASCO MAZATLAN SIN., MX","FM-12","99999","V020","060,1,N,0020,1","01800,1,9,N","020000,1,N,1","+0290,1","+0227,1","10117,1","06,0000,9,1",,,,,"07,1,+01800,1,03,1",,,"07,99,1,07,1,99,9,02250,1,07,1,99,9",,"01,9",,,,"99999,9,10112,1","2,1,013,1,+007,1",,"SYN094AAXX  30151 76458 32870 70602 10290 20227 30112 40117 52013 87/7/ 91440 333 30/// 58007 87356;","Q01  00002PRCP06"
"76458099999","2005-06-30T18:00:00","4","23.2","-106.4166666","4.0","COLONIA JUAN CARRASCO MAZATLAN SIN., MX","FM-12","99999","V020","270,1,N,0040,1","03000,1,9,N","020000,1,N,1","+0311,1","+0233,1","10099,1","06,0000,9,1",,,,,"07,1,+03000,1,03,1",,,"07,99,1,07,1,00,1,99999,9,05,1,00,1",,"01,9",,"120,M,+0330,1","240,N,+0270,1","99999,9,10095,1","7,1,018,1,+003,1",,"SYN112AAXX  30181 76458 32970 72704 10311 20233 30095 40099 57018 87050 91750 333 0/030 10330 20270 30/// 58003 87360;","Q01  00002PRCP06"
"76458099999","2005-06-30T21:00:00","4","23.2","-106.4166666","4.0","COLONIA JUAN CARRASCO MAZATLAN SIN., MX","FM-12","99999","V020","240,1,N,0030,1","03600,1,C,N","020000,1,N,1","+0306,1","+0247,1","10090,1","06,0000,9,1",,,,,"01,1,+00750,1,09,1",,,"07,99,1,01,1,03,1,00800,1,03,1,00,1",,"01,9",,,,"99999,9,10085,1","7,1,009,1,+013,1",,"SYN112AAXX  30211 76458 32570 72403 10306 20247 30085 40090 57009 81330 92050 333 04130 30/// 57914 58013 81925 86360;","Q01  00002PRCP06"
"76458099999","2005-07-01T00:00:00","4","23.2","-106.4166666","4.0","COLONIA JUAN CARRASCO MAZATLAN SIN., MX","FM-12","99999","V020","260,1,N,0040,1","22000,1,9,N","020000,1,N,1","+0305,1","+0247,1","10087,1","06,0000,9,1","24,0000,9,1",,,,"01,1,+00720,1,09,1",,,"03,99,1,01,1,03,1,00800,1,03,1,00,1",,"01,9",,"120,M,+0340,1","180,N,+0270,1","99999,9,10083,1","7,1,002,1,+021,1",,"SYN136AAXX  01001 76458 32570 32604 10305 20247 30083 40087 57002 81330 92345 333 0/19/ 10340 20270 30/// 50511 57912 58021 70000 81924 82364;","Q01  00002PRCP06"
"76458099999","2005-07-01T03:00:00","4","23.2","-106.4166666","4.0","COLONIA JUAN CARRASCO MAZATLAN SIN., MX","FM-12","99999","V020","290,1,N,0020,1","00480,1,9,N","010000,1,N,1","+0286,1","+0248,1","10110,1","06,0000,9,1",,,,,"06,1,+00480,1,06,1",,,"08,99,1,06,1,04,1,00450,1,00,1,08,1",,"01,9",,,,"99999,9,10105,1","2,1,022,1,+016,1",,"SYN112AAXX  01031 76458 32460 82902 10286 20248 30105 40110 52022 86408 90245 333 0/6/9 30/// 57669 58016 86616 82268;","Q01  00002PRCP06"
"76458099999","2005-07-01T12:00:00","4","23.2","-106.4166666","4.0","COLONIA JUAN CARRASCO MAZATLAN SIN., MX","FM-12","99999","V020","360,1,N,0020,1","00240,1,9,N","008000,1,N,1","+0268,1","+0249,1","10113,1","06,0005,9,2","24,0004,9,2",,,,"05,1,+00240,1,06,1",,,"07,99,1,07,1,05,1,00250,1,99,9,99,9",,"01,9","999,+0258,1","120,N,+0264,1","240,M,+0340,1","99999,9,10109,1","5,1,003,1,+010,1",,"SYN136AAXX  01121 76458 11358 73602 10268 20249 30109 40113 55003 69941 875// 91140 333 0/5// 10340 20264 30258 57650 58010 70004 85608 82920;",
"76458099999","2005-07-01T15:00:00","4","23.2","-106.4166666","4.0","COLONIA JUAN CARRASCO MAZATLAN SIN., MX","FM-12","99999","V020","180,1,N,0010,1","22000,1,9,N","020000,1,N,1","+0290,1","+0253,1","10126,1","06,0000,9,1",,,,,"03,1,+01800,1,03,1",,,"03,99,1,03,1,99,9,02250,1,03,1,99,9",,"01,9",,,,"99999,9,10122,1","2,1,013,1,+010,1",,"SYN094AAXX  01151 76458 32870 31801 10290 20253 30122 40126 52013 83/3/ 91440 333 30/// 58010 83356;","Q01  00002PRCP06"
"76458099999","2005-07-02T00:00:00","4","23.2","-106.4166666","4.0","COLONIA JUAN CARRASCO MAZATLAN SIN., MX","FM-12","99999","V020","240,1,N,0030,1","00420,1,9,N","015000,1,N,1","+0288,1","+0262,1","10112,1","06,0000,9,1","15,0010,9,2","24,0004,9,2","5,1,06,1","5,1,06,1",,,,"07,99,1,07,1,05,1,00450,1,00,1,00,1",,"01,9",,"120,M,+0337,1","180,N,+0260,1","99999,9,10108,1","7,1,020,1,+025,1","13,1","SYN142AAXX  02001 76458 32465 72403 10288 20262 30108 40112 57020 69999 71355 87500 92345 333 0/5// 10337 20260 30/// 50381 57696 58025 70004 87622;","Q01  00002PRCP06"
"76458099999","2005-07-02T03:00:00","4","23.2","-106.4166666","4.0","COLONIA JUAN CARRASCO MAZATLAN SIN., MX","FM-12","99999","V020","060,1,N,0030,1","00600,1,9,N","008000,1,N,1","+0280,1","+0260,1","10117,1","03,0041,9,1",,,"5,1,03,1","5,1,03,1","08,1,+00600,1,06,1",,,"08,99,1,08,1,05,1,00450,1,00,1,00,1",,"09,9",,,,"99999,9,10113,1","2,1,005,1,+008,1","13,1","SYN118AAXX  02031 76458 11458 80603 10280 20260 30113 40117 52005 60047 71355 88500 90245 333 0/900 31/// 57696 58008 88620;",
"76458099999","2005-07-02T06:00:00","4","23.2","-106.4166666","4.0","COLONIA JUAN CARRASCO MAZATLAN SIN., MX","FM-12","99999","V020","030,1,N,0020,1","00240,1,C,N","008000,1,N,1","+0269,1","+0249,1","10137,1","03,0050,9,1","06,0089,9,1",,"6,1,06,1","6,1,06,1","06,1,+00240,1,06,1",,,"08,99,1,06,1,04,1,00250,1,02,1,00,1","0408,9","09,9",,"240,M,+0337,1","240,N,+0260,1","99999,9,10133,1","1,1,020,1,+012,1","50,1","SYN148AAXX  02061 76458 01358 80302 10269 20249 30133 40137 51020 60091 75066 86420 90545 333 0/69/ 10337 20260 31/// 55068 57669 58012 60057 86608 82262;",
"76458099999","2005-07-02T09:00:00","4","23.2","-106.4166666","4.0","COLONIA JUAN CARRASCO MAZATLAN SIN., MX","FM-12","99999","V020","070,1,N,0020,1","00180,1,9,N","008000,1,N,1","+0259,1","+0244,1","10126,1","03,0040,9,1",,,"6,1,03,1","6,1,03,1","08,1,+00180,1,06,1",,,"08,99,1,08,1,05,1,00150,1,00,1,00,1",,"09,9",,,,"99999,9,10122,1","7,1,011,1,+010,1","50,1","SYN118AAXX  02091 76458 21258 80702 10259 20244 30122 40126 57011 75066 88500 90845 333 0/6// 31/// 57669 58010 60047 88606;",
"76458099999","2005-07-02T12:00:00","4","23.2","-106.4166666","4.0","COLONIA JUAN CARRASCO MAZATLAN SIN., MX","FM-12","99999","V020","060,1,N,0020,1","00600,1,9,N","008000,1,N,1","+0257,1","+0245,1","10127,1","24,0159,9,1",,,"6,1,06,1","6,1,06,1","08,1,+00600,1,06,1",,,"08,99,1,08,1,05,1,00150,1,00,1,00,1",,"01,9","999,+0250,1","120,N,+0252,1","240,M,+0337,1","99999,9,10123,1","6,1,001,1,+014,1","20,1","SYN130AAXX  02121 76458 11258 80602 10257 20245 30123 40127 56001 72066 88500 91135 333 0/6// 10337 20252 30250 57665 58014 70159 88620;",
"76458099999","2005-07-02T15:00:00","4","23.2","-106.4166666","4.0","COLONIA JUAN CARRASCO MAZATLAN SIN., MX","FM-12","99999","V020","090,1,N,0020,1","00630,1,9,N","010000,1,N,1","+0250,1","+0239,1","10140,1","02,0041,9,1",,,"6,1,03,1","6,1,03,1","08,1,+00630,1,06,1",,,"08,99,1,08,1,05,1,00150,1,99,9,99,9",,"11,9",,,,"99999,9,10136,1","2,1,013,1,+014,1","20,1","SYN118AAXX  02151 76458 11260 80902 10250 20239 30136 40140 52013 60046 72066 885// 91435 333 0/6// 32/// 57665 58014 88621;",
"76458099999","2005-07-02T18:00:00","4","23.2","-106.4166666","4.0","COLONIA JUAN CARRASCO MAZATLAN SIN., MX","FM-12","99999","V020","240,1,N,0020,1","00720,1,9,N","010000,1,N,1","+0282,1","+0255,1","10129,1","06,0000,2,1",,,,,"07,1,+00720,1,08,1",,,"07,99,1,02,1,99,9,01750,1,03,1,04,1",,"09,9",,"120,M,+0300,1","240,N,+0249,1","99999,9,10124,1","3,1,015,1,+024,1",,"SYN106AAXX  02181 76458 32760 72402 10282 20255 30124 40129 53015 82034 91800 333 10300 20249 31/// 58024 87824;",
"76458099999","2005-07-03T06:00:00","4","23.2","-106.4166666","4.0","COLONIA JUAN CARRASCO MAZATLAN SIN., MX","FM-12","99999","V020","300,1,N,0020,1","09000,1,9,N","010000,1,N,1","+0273,1","+0236,1","10121,1","06,0000,9,1",,,,,"01,1,+00450,1,06,1","03,1,+03000,1,03,1",,"06,99,1,01,1,04,1,00450,1,03,1,03,1","0216,9","01,9",,"240,M,+0311,1","240,N,+0249,1","99999,9,10117,1","2,1,014,1,-017,1",,"SYN136AAXX  03061 76458 32460 63002 10273 20236 30117 40121 52014 81433 90545 333 0/699 10311 20249 30/// 55036 57669 59017 81615 83360 82068;","Q01  00002PRCP06"
"76458099999","2005-07-03T09:00:00","4","23.2","-106.4166666","4.0","COLONIA JUAN CARRASCO MAZATLAN SIN., MX","FM-12","99999","V020","300,1,N,0020,1","03600,1,C,N","010000,1,N,1","+0277,1","+0246,1","10113,1","06,0000,9,1",,,,,"02,1,+00390,1,08,1",,,"06,99,1,02,1,01,1,00450,1,02,1,00,1",,"01,9",,,,"99999,9,10108,1","7,1,009,1,-014,1",,"SYN112AAXX  03091 76458 32460 63002 10277 20246 30108 40113 57009 82120 90845 333 0/69/ 30/// 57869 59014 82813 84464;","Q01  00002PRCP06"
"76458099999","2005-07-04T06:00:00","4","23.2","-106.4166666","4.0","COLONIA JUAN CARRASCO MAZATLAN SIN., MX","FM-12","99999","V020","050,1,N,0020,1","00450,1,C,N","010000,1,N,1","+0272,1","+0237,1","10119,1","03,0030,9,1","06,0030,9,1",,"6,1,06,1","0,1,06,1","06,1,+00450,1,06,1",,,"07,99,1,06,1,04,1,00450,1,06,1,00,1","0528,9","09,9",,"240,M,+0320,1","240,N,+0270,1","99999,9,10115,1","2,1,023,1,-002,1","50,1","SYN148AAXX  04061 76458 01460 70502 10272 20237 30115 40119 52023 60037 75060 86460 90545 333 0/6// 10320 20270 31/// 55088 57669 59002 60031 86615 81916;",
"76458099999","2005-07-04T09:00:00","4","23.2","-106.4166666","4.0","COLONIA JUAN CARRASCO MAZATLAN SIN., MX","FM-12","99999","V020","340,1,N,0010,1","22000,1,9,N","010000,1,N,1","+0275,1","+0247,1","10110,1",,,,,,"04,1,+00360,1,08,1",,,"04,99,1,04,1,01,1,00450,1,00,1,00,1",,"01,9",,,,"99999,9,10105,1","7,1,010,1,-003,1",,"SYN106AAXX  04091 76458 32460 43401 10275 20247 30105 40110 57010 84100 90845 333 0/2// 30/// 57829 59003 84812;","Q01  00002PRCP06"
"76458099999","2005-07-05T15:00:00","4","23.2","-106.4166666","4.0","COLONIA JUAN CARRASCO MAZATLAN SIN., MX","FM-12","99999","V020","150,1,N,0030,1","22000,1,9,N","020000,1,N,1","+0286,1","+0246,1","10126,1","06,0000,9,1",,,,,"02,1,+00510,1,03,1",,,"03,99,1,02,1,05,1,00450,1,03,1,99,9",,"01,9",,,,"99999,9,10122,1","2,1,013,1,+005,1",,"SYN112AAXX  05151 76458 32470 31503 10286 20246 30122 40126 52013 8253/ 91440 333 0/39/ 30/// 57630 58005 82317 81356;","Q01  00002PRCP06"
"76458099999","2005-07-06T03:00:00","4","23.2","-106.4166666","4.0","COLONIA JUAN CARRASCO MAZATLAN SIN., MX","FM-12","99999","V020","170,1,N,0030,1","22000,1,9,N","010000,1,N,1","+0283,1","+0240,1","10110,1","06,0000,9,1",,,,,"04,1,+00540,1,08,1",,,"04,99,1,04,1,02,1,00450,1,00,1,00,1",,"01,9",,,,"99999,9,10106,1","2,1,012,1,+010,1",,"SYN106AAXX  06031 76458 32460 41703 10283 20240 30106 40110 52012 84200 90245 333 0/4// 30/// 57849 58010 84818;","Q01  00002PRCP06"
"76458099999","2005-07-06T09:00:00","4","23.2","-106.4166666","4.0","COLONIA JUAN CARRASCO MAZATLAN SIN., MX","FM-12","99999","V020","150,1,N,0020,1","00450,1,9,N","010000,1,N,1","+0279,1","+0243,1","10121,1","06,0000,9,1",,,,,"08,1,+00450,1,08,1",,,"08,99,1,08,1,07,1,00450,1,00,1,00,1",,"01,9",,,,"99999,9,10117,1","8,1,006,1,+011,1",,"SYN100AAXX  06091 76458 32460 81502 10279 20243 30117 40121 58006 88700 90840 333 0/300 30/// 58011 88815;","Q01  00002PRCP06"
"76458099999","2005-07-06T12:00:00","4","23.2","-106.4166666","4.0","COLONIA JUAN CARRASCO MAZATLAN SIN., MX","FM-12","99999","V020","140,1,N,0040,1","03600,1,C,N","008000,1,N,1","+0278,1","+0237,1","10126,1","06,0000,9,1","24,0000,9,1",,,,"02,1,+00510,1,08,1",,,"07,99,1,02,1,02,1,00450,1,06,1,99,9",,"01,9","999,+0256,1","120,N,+0274,1","240,M,+0325,1","99999,9,10122,1","3,1,005,1,+013,1",,"SYN130AAXX  06121 76458 32458 71404 10278 20237 30122 40126 53005 8226/ 91140 333 0119/ 10325 20274 30256 57813 58013 70000 82817 85356;","Q01  00002PRCP06"
"76458099999","2005-07-06T15:00:00","4","23.2","-106.4166666","4.0","COLONIA JUAN CARRASCO MAZATLAN SIN., MX","FM-12","99999","V020","150,1,N,0020,1","22000,1,9,N","020000,1,N,1","+0290,1","+0241,1","10135,1","06,0000,9,1",,,,,"02,1,+00600,1,08,1","01,1,+01800,1,03,1",,"04,99,1,02,1,02,1,00800,1,03,1,09,1",,"01,9",,,,"99999,9,10131,1","1,1,009,1,+005,1",,"SYN118AAXX  06151 76458 32570 41502 10290 20241 30131 40135 51009 82239 91440 333 0/599 30/// 57850 58005 82820 81356 81170;","Q01  00002PRCP06"
"76458099999","2005-07-06T18:00:00","4","23.2","-106.4166666","4.0","COLONIA JUAN CARRASCO MAZATLAN SIN., MX","FM-12","99999","V020","180,1,N,0040,1","22000,1,9,N","020000,1,N,1","+0298,1","+0237,1","10135,1","06,0000,9,1",,,,,"02,1,+00600,1,08,1","01,1,+99999,9,03,1",,"04,99,1,04,1,02,1,00800,1,06,1,03,1",,"01,9",,"120,M,+0325,1","240,N,+0274,1","99999,9,10131,1","4,1,000,1,+007,1",,"SYN130AAXX  06181 76458 32570 41804 10298 20237 30131 40135 54000 84263 91745 333 0/699 10325 20274 30/// 57864 58007 82820 81354 81070;","Q01  00002PRCP06"
"76458099999","2005-07-06T21:00:00","4","23.2","-106.4166666","4.0","COLONIA JUAN CARRASCO MAZATLAN SIN., MX","FM-12","99999","V020","240,1,N,0040,1","22000,1,9,N","020000,1,N,1","+0310,1","+0226,1","10126,1","06,0000,9,1",,,,,"02,1,+00660,1,08,1",,,"04,99,1,04,1,02,1,00800,1,06,1,00,1",,"01,9",,,,"99999,9,10121,1","7,1,009,1,+023,1",,"SYN112AAXX  06211 76458 32570 42404 10310 20226 30121 40126 57009 84260 92045 333 0/19/ 30/// 57816 58023 82822 82356;","Q01  00002PRCP06"
"76458099999","2005-07-07T00:00:00","4","23.2","-106.4166666","4.0","COLONIA JUAN CARRASCO MAZATLAN SIN., MX","FM-12","99999","V020","240,1,N,0030,1","22000,1,9,N","020000,1,N,1","+0304,1","+0249,1","10109,1","06,0000,9,1","24,0000,9,1",,,,"01,1,+08700,1,00,1",,,"01,99,1,00,1,00,1,99999,9,00,1,02,1",,"01,9",,"120,M,+0328,1","180,N,+0274,1","99999,9,10104,1","7,1,018,1,+010,1",,"SYN124AAXX  07001 76458 32970 12403 10304 20249 30104 40109 57018 80002 92358 333 0/009 10328 20274 30/// 50651 58010 70000 81079;","Q01  00002PRCP06"
"76458099999","2005-07-07T03:00:00","4","23.2","-106.4166666","4.0","COLONIA JUAN CARRASCO MAZATLAN SIN., MX","FM-12","99999","V020","270,1,N,0030,1","22000,1,9,N","016000,1,N,1","+0288,1","+0242,1","10117,1","06,0000,9,1",,,,,"02,1,+02700,1,03,1",,,"02,99,1,02,1,00,1,02250,1,03,1,00,1",,"01,9",,,,"99999,9,10112,1","2,1,008,1,+006,1",,"SYN100AAXX  07031 76458 32866 22703 10288 20242 30112 40117 52008 82030 90250 333 0/030 30/// 58006 82359;","Q01  00002PRCP06"
"76458099999","2005-07-07T12:00:00","4","23.2","-106.4166666","4.0","COLONIA JUAN CARRASCO MAZATLAN SIN., MX","FM-12","99999","V020","220,1,N,0010,1","03600,1,C,N","008000,1,N,1","+0280,1","+0242,1","10127,1","06,0000,9,1","24,0000,9,1",,,,"03,1,+00480,1,08,1",,,"07,99,1,03,1,02,1,00450,1,03,1,99,9",,"01,9","999,+0255,1","120,N,+0276,1","240,M,+0328,1","99999,9,10123,1","3,1,003,1,+001,1",,"SYN130AAXX  07121 76458 32458 72201 10280 20242 30123 40127 53003 8323/ 91140 333 0/59/ 10328 20276 30255 57850 58001 70000 83816 84356;","Q01  00002PRCP06"
"76458099999","2005-07-07T15:00:00","4","23.2","-106.4166666","4.0","COLONIA JUAN CARRASCO MAZATLAN SIN., MX","FM-12","99999","V020","270,1,N,0020,1","03600,1,C,N","002000,1,N,1","+0276,1","+0234,1","10142,1","06,0003,9,1",,,"5,1,03,1","5,1,03,1","04,1,+00540,1,06,1",,,"08,99,1,04,1,05,1,00450,1,02,1,99,9",,"01,9",,,,"99999,9,10138,1","2,1,015,1,+003,1","20,1","SYN124AAXX  07151 76458 11420 82702 10276 20234 30138 40142 52015 69931 72055 8452/ 91435 333 0/59/ 30/// 57650 58003 84618 84458;",
"76458099999","2005-07-08T03:00:00","4","23.2","-106.4166666","4.0","COLONIA JUAN CARRASCO MAZATLAN SIN., MX","FM-12","99999","V020","220,1,N,0020,1","22000,1,9,N","016000,1,N,1","+0274,1","+0242,1","10125,1","06,0000,9,1",,,,,"03,1,+00390,1,08,1",,,"03,99,1,03,1,01,1,00450,1,00,1,00,1",,"09,9",,,,"99999,9,10121,1","3,1,011,1,+008,1",,"SYN100AAXX  08031 76458 32466 32202 10274 20242 30121 40125 53011 83100 90256 333 01500 31/// 58008 83813;","Q01  00002PRCP06"
"76458099999","2005-07-08T09:00:00","4","23.2","-106.4166666","4.0","COLONIA JUAN CARRASCO MAZATLAN SIN., MX","FM-12","99999","V020","270,1,N,0020,1","03600,1,9,N","012000,1,N,1","+0276,1","+0241,1","10126,1","06,0000,9,1",,,,,"03,1,+00450,1,06,1","02,1,+03600,1,04,1",,"07,99,1,03,1,04,1,00450,1,02,1,03,1",,"01,9",,,,"99999,9,10122,1","2,1,001,1,+002,1",,"SYN118AAXX  08091 76458 32462 72702 10276 20241 30122 40126 52001 83423 90845 333 0/699 30/// 57669 58002 83615 82462 82068;","Q01  00002PRCP06"
"76458099999","2005-07-08T15:00:00","4","23.2","-106.4166666","4.0","COLONIA JUAN CARRASCO MAZATLAN SIN., MX","FM-12","99999","V020","080,1,N,0020,1","01800,1,9,N","018000,1,N,1","+0266,1","+0239,1","10140,1","06,0000,9,1",,,,,"07,1,+01800,1,03,1",,,"07,99,1,07,1,99,9,02250,1,06,1,99,9",,"09,9",,,,"99999,9,10135,1","0,1,101,2,-007,1",,"SYN094AAXX  08151 76458 32868 70802 10266 20239 30135 40140 50101 87/6/ 91440 333 31/// 59007 87356;","Q01  00002PRCP06"
"76458099999","2005-07-09T06:00:00","4","23.2","-106.4166666","4.0","COLONIA JUAN CARRASCO MAZATLAN SIN., MX","FM-12","99999","V020","270,1,N,0020,1","22000,1,9,N","010000,1,N,1","+0282,1","+0237,1","10129,1","06,0000,9,1",,,"9,1,06,1","0,1,06,1","01,1,+00570,1,09,1",,,"03,99,1,03,1,09,1,00450,1,00,1,00,1","0480,9","01,9",,"240,M,+0325,1","240,N,+0256,1","99999,9,10125,1","0,1,013,1,+002,1","13,1","SYN136AAXX  09061 76458 31460 32702 10282 20237 30125 40129 50013 71390 83900 90547 333 0/3// 10325 20256 30/// 55080 57939 58002 81919 82620;","Q01  00002PRCP06"
"76458099999","2005-07-09T09:00:00","4","23.2","-106.4166666","4.0","COLONIA JUAN CARRASCO MAZATLAN SIN., MX","FM-12","99999","V020","270,1,N,0020,1","22000,1,9,N","010000,1,N,1","+0275,1","+0241,1","10122,1","06,0000,9,1",,,,,"03,1,+00420,1,08,1",,,"03,99,1,03,1,01,1,00450,1,00,1,00,1",,"01,9",,,,"99999,9,10117,1","7,1,008,1,-005,1",,"SYN106AAXX  09091 76458 32460 32702 10275 20241 30117 40122 57008 83100 90850 333 0/6// 30/// 57869 59005 83814;","Q01  00002PRCP06"
"76458099999","2005-07-09T15:00:00","4","23.2","-106.4166666","4.0","COLONIA JUAN CARRASCO MAZATLAN SIN., MX","FM-12","99999","V020","020,1,N,0010,1","22000,1,9,N","018000,1,N,1","+0284,1","+0245,1","10131,1","06,0000,9,1",,,,,"02,1,+00480,1,08,1",,,"04,99,1,02,1,02,1,00450,1,03,1,99,9",,"01,9",,,,"99999,9,10127,1","2,1,009,1,-013,1",,"SYN112AAXX  09151 76458 32468 40201 10284 20245 30127 40131 52009 8223/ 91140 333 0/59/ 30/// 57850 59013 82816 82356;","Q01  00002PRCP06"
"76458099999","2005-07-09T18:00:00","4","23.2","-106.4166666","4.0","COLONIA JUAN CARRASCO MAZATLAN SIN., MX","FM-12","99999","V020","210,1,N,0040,1","22000,1,9,N","020000,1,N,1","+0300,1","+0260,1","10126,1","06,0000,9,1",,,,,"04,1,+00660,1,08,1",,,"04,99,1,04,1,05,1,00800,1,00,1,00,1",,"01,9",,"120,M,+0320,1","240,N,+0260,1","99999,9,10122,1","6,1,005,1,-014,1",,"SYN118AAXX  09181 76458 32570 42104 10300 20260 30122 40126 56005 84500 91745 333 0/5// 10320 20260 30/// 57856 59014 84822;","Q01  00002PRCP06"
"76458099999","2005-07-10T03:00:00","4","23.2","-106.4166666","4.0","COLONIA JUAN CARRASCO MAZATLAN SIN., MX","FM-12","99999","V020","300,1,N,0040,1","02700,1,9,N","016000,1,N,1","+0281,1","+0244,1","10103,1",,,,,,"05,1,+02700,1,03,1",,,"05,99,1,05,1,00,1,99999,9,03,1,00,1",,"01,9",,,,"99999,9,10099,1","1,1,003,1,-013,1",,"SYN100AAXX  10031 76458 23966 53004 10281 20244 30099 40103 51003 85030 90246 333 0/020 30/// 59013 85359;",
"76458099999","2005-07-10T09:00:00","4","23.2","-106.4166666","4.0","COLONIA JUAN CARRASCO MAZATLAN SIN., MX","FM-12","99999","V020","320,1,N,0020,1","22000,1,9,N","012000,1,N,1","+0277,1","+0236,1","10108,1","06,0000,9,1",,,,,"02,1,+00510,1,08,1",,,"03,99,1,02,1,01,1,00450,1,03,1,00,1",,"01,9",,,,"99999,9,10103,1","7,1,003,1,-014,1",,"SYN106AAXX  10091 76458 32462 33202 10277 20236 30103 40108 57003 82130 90845 333 0/69/ 30/// 59014 82817 81362;","Q01  00002PRCP06"
"76458099999","2005-07-11T03:00:00","4","23.2","-106.4166666","4.0","COLONIA JUAN CARRASCO MAZATLAN SIN., MX","FM-12","99999","V020","210,1,N,0020,1","00510,1,9,N","016000,1,N,1","+0278,1","+0237,1","10108,1","06,0000,9,1",,,,,"05,1,+00510,1,08,1",,,"05,99,1,05,1,01,1,00450,1,00,1,00,1",,"01,9",,,,"99999,9,10103,1","3,1,017,1,+004,1",,"SYN100AAXX  11031 76458 32466 52102 10278 20237 30103 40108 53017 85100 90250 333 01500 30/// 58004 85817;","Q01  00002PRCP06"
"76458099999","2005-07-11T06:00:00","4","23.2","-106.4166666","4.0","COLONIA JUAN CARRASCO MAZATLAN SIN., MX","FM-12","99999","V020","240,1,N,0020,1","22000,1,9,N","012000,1,N,1","+0279,1","+0238,1","10116,1","06,0000,9,1",,,,,,,,"04,99,1,04,1,04,1,00450,1,00,1,00,1","0462,9","01,9",,"240,M,+0324,1","240,N,+0260,1","99999,9,10111,1","2,1,008,1,+005,1",,"SYN124AAXX  11061 76458 32462 42402 10279 20238 30111 40116 52008 84400 90545 333 0/6// 10324 20260 30/// 55077 57669 58005 84617;","Q01  00002PRCP06"
"76458099999","2005-07-11T09:00:00","4","23.2","-106.4166666","4.0","COLONIA JUAN CARRASCO MAZATLAN SIN., MX","FM-12","99999","V020","999,9,C,0000,1","00450,1,9,N","012000,1,N,1","+0273,1","+0236,1","10108,1","06,0000,9,1",,,,,"05,1,+00450,1,06,1",,,"05,99,1,05,1,04,1,00800,1,00,1,00,1",,"01,9",,,,"99999,9,10103,1","7,1,008,1,+000,1",,"SYN106AAXX  11091 76458 32562 50000 10273 20236 30103 40108 57008 85400 90845 333 0/6// 30/// 57669 58000 85615;","Q01  00002PRCP06"
"76458099999","2005-07-12T06:00:00","4","23.2","-106.4166666","4.0","COLONIA JUAN CARRASCO MAZATLAN SIN., MX","FM-12","99999","V020","120,1,N,0020,1","00420,1,9,N","010000,1,N,1","+0276,1","+0239,1","10120,1","06,0000,9,1",,,,,,,,"06,99,1,06,1,01,1,00450,1,00,1,00,1","0618,9","01,9",,"240,M,+0325,1","240,N,+0266,1","99999,9,10116,1","2,1,009,1,+004,1",,"SYN124AAXX  12061 76458 32460 61202 10276 20239 30116 40120 52009 86100 90530 333 01200 10325 20266 30/// 55103 2//// 58004 86815;","Q01  00002PRCP06"
"76458099999","2005-07-12T12:00:00","4","23.2","-106.4166666","4.0","COLONIA JUAN CARRASCO MAZATLAN SIN., MX","FM-12","99999","V020","240,1,N,0020,1","00390,1,9,N","008000,1,N,1","+0274,1","+0242,1","10118,1","06,0000,9,1","24,0000,9,1",,,,"08,1,+00390,1,06,1",,,"08,99,1,08,1,05,1,00450,1,99,9,99,9",,"01,9","999,+0252,1","120,N,+0268,1","240,M,+0325,1","99999,9,10114,1","3,1,004,1,+006,1",,"SYN124AAXX  12121 76458 32458 82402 10274 20242 30114 40118 53004 885// 91140 333 0/4// 10325 20268 30252 57640 58006 70000 88613;","Q01  00002PRCP06"
"76458099999","2005-07-12T15:00:00","4","23.2","-106.4166666","4.0","COLONIA JUAN CARRASCO MAZATLAN SIN., MX","FM-12","99999","V020","100,1,N,0010,1","00300,1,9,N","012000,1,N,1","+0270,1","+0246,1","10132,1","03,0008,9,1",,,"5,1,03,1","5,1,03,1","08,1,+00300,1,06,1",,,"08,99,1,08,1,05,1,00250,1,99,9,99,9",,"09,9",,,,"99999,9,10127,1","1,1,013,1,+013,1","20,1","SYN118AAXX  12151 76458 11362 81001 10270 20246 30127 40132 51013 69987 72055 885// 91440 333 0/5// 31/// 57650 58013 88610;",
"76458099999","2005-07-13T03:00:00","4","23.2","-106.4166666","4.0","COLONIA JUAN CARRASCO MAZATLAN SIN., MX","FM-12","99999","V020","260,1,N,0020,1","09000,1,C,N","010000,1,N,1","+0284,1","+0245,1","10121,1","06,0000,9,1",,,,,"01,1,+00480,1,08,1",,,"07,99,1,01,1,01,1,00800,1,00,1,08,1",,"01,9",,,,"99999,9,10116,1","2,1,018,1,+010,1",,"SYN112AAXX  13031 76458 32560 72602 10284 20245 30116 40121 52018 81108 90247 333 0/6/9 30/// 57869 58010 81816 86268;","Q01  00002PRCP06"
"76458099999","2005-07-13T06:00:00","4","23.2","-106.4166666","4.0","COLONIA JUAN CARRASCO MAZATLAN SIN., MX","FM-12","99999","V020","300,1,N,0030,1","00420,1,9,N","010000,1,N,1","+0284,1","+0248,1","10130,1","06,0000,9,1",,,,,,,,"07,99,1,07,1,07,1,00450,1,00,1,00,1","0444,9","01,9",,"240,M,+0325,1","240,N,+0268,1","99999,9,10126,1","0,1,009,1,+010,1",,"SYN124AAXX  13061 76458 32460 73003 10284 20248 30126 40130 50009 87700 90250 333 0/600 10325 20268 30/// 55074 2//// 58010 87815;","Q01  00002PRCP06"
"76458099999","2005-07-13T09:00:00","4","23.2","-106.4166666","4.0","COLONIA JUAN CARRASCO MAZATLAN SIN., MX","FM-12","99999","V020","240,1,N,0020,1","00450,1,9,N","010000,1,N,1","+0283,1","+0248,1","10114,1","06,0000,9,1",,,,,"07,1,+00450,1,08,1",,,"07,99,1,07,1,07,1,00450,1,00,1,00,1",,"01,9",,,,"99999,9,10110,1","7,1,016,1,+000,1",,"SYN100AAXX  13091 76458 32460 72402 10283 20248 30110 40114 57016 87700 90850 333 0/700 30/// 58000 87815;","Q01  00002PRCP06"
"76458099999","2005-07-13T18:00:00","4","23.2","-106.4166666","4.0","COLONIA JUAN CARRASCO MAZATLAN SIN., MX","FM-12","99999","V020","250,1,N,0050,1","02400,1,9,N","018000,1,N,1","+0298,1","+0264,1","10135,1","06,0000,9,1",,,,,"03,1,+00420,1,06,1","02,1,+02400,1,04,1",,"07,99,1,03,1,05,1,00450,1,02,1,01,1",,"09,9",,"120,M,+0320,1","240,N,+0274,1","99999,9,10131,1","3,1,004,1,+003,1",,"SYN130AAXX  13181 76458 32468 72505 10298 20264 30131 40135 53004 83521 91740 333 0/599 10320 20274 31/// 57650 58003 83614 82458 82070;","Q01  00002PRCP06"
"76458099999","2005-07-14T03:00:00","4","23.2","-106.4166666","4.0","COLONIA JUAN CARRASCO MAZATLAN SIN., MX","FM-12","99999","V020","270,1,N,0030,1","09000,1,9,N","010000,1,N,1","+0284,1","+0247,1","10111,1","06,0000,9,1",,,,,"01,1,+00450,1,08,1","03,1,+02700,1,03,1",,"06,99,1,01,1,01,1,00450,1,03,1,06,1",,"01,9",,,,"99999,9,10107,1","2,1,005,1,-009,1",,"SYN112AAXX  14031 76458 32460 62703 10284 20247 30107 40111 52005 81136 90240 333 01599 30/// 59009 81815 83359 92079;","Q01  00002PRCP06"
"76458099999","2005-07-14T09:00:00","4","23.2","-106.4166666","4.0","COLONIA JUAN CARRASCO MAZATLAN SIN., MX","FM-12","99999","V020","270,1,N,0020,1","00450,1,9,N","012000,1,N,1","+0280,1","+0245,1","10112,1","06,0000,9,1",,,,,"08,1,+00450,1,06,1",,,"08,99,1,08,1,04,1,00450,1,00,1,00,1",,"01,9",,,,"99999,9,10107,1","7,1,004,1,-003,1",,"SYN106AAXX  14091 76458 32462 82702 10280 20245 30107 40112 57004 88400 90845 333 0/6// 30/// 57669 59003 88615;","Q01  00002PRCP06"
"76458099999","2005-07-14T12:00:00","4","23.2","-106.4166666","4.0","COLONIA JUAN CARRASCO MAZATLAN SIN., MX","FM-12","99999","V020","290,1,N,0010,1","00390,1,9,N","008000,1,N,1","+0280,1","+0248,1","10110,1","06,0000,9,1","24,0033,9,1",,,,"05,1,+00390,1,06,1",,,"08,99,1,05,1,05,1,00450,1,02,1,99,9",,"01,9","999,+0268,1","120,N,+0276,1","240,M,+0323,1","99999,9,10106,1","6,1,001,1,-008,1",,"SYN130AAXX  14121 76458 32458 82901 10280 20248 30106 40110 56001 8552/ 91140 333 0/69/ 10323 20276 30268 57660 59008 70033 85613 83458;","Q01  00002PRCP06"
"76458099999","2005-07-14T15:00:00","4","23.2","-106.4166666","4.0","COLONIA JUAN CARRASCO MAZATLAN SIN., MX","FM-12","99999","V020","040,1,N,0020,1","00150,1,9,N","008000,1,N,1","+0266,1","+0255,1","10122,1","02,0160,9,1",,,"5,1,03,1","5,1,03,1","08,1,+00150,1,06,1",,,"08,99,1,08,1,05,1,00150,1,99,9,99,9",,"12,9",,,,"99999,9,10118,1","2,1,012,1,-014,1","21,1","SYN118AAXX  14151 76458 11258 80402 10266 20255 30118 40122 52012 60166 72155 885// 91450 333 0/6// 33/// 57660 59014 88605;",
"76458099999","2005-07-15T00:00:00","4","23.2","-106.4166666","4.0","COLONIA JUAN CARRASCO MAZATLAN SIN., MX","FM-12","99999","V020","260,1,N,0030,1","03600,1,C,N","020000,1,N,1","+0290,1","+0241,1","10093,1","06,0000,9,1","24,0243,9,1",,,,"02,1,+00630,1,08,1",,,"07,99,1,02,1,01,1,00800,1,03,1,00,1",,"09,9",,"120,M,+0305,1","180,N,+0262,1","99999,9,10089,1","7,1,026,1,-012,1",,"SYN130AAXX  15001 76458 32570 72603 10290 20241 30089 40093 57026 82130 92350 333 01890 10305 20262 31/// 50471 59012 70243 82821 85359;","Q01  00002PRCP06"
"76458099999","2005-07-15T09:00:00","4","23.2","-106.4166666","4.0","COLONIA JUAN CARRASCO MAZATLAN SIN., MX","FM-12","99999","V020","999,9,C,0000,1","00210,1,9,N","012000,1,N,1","+0262,1","+0244,1","10103,1","03,0040,9,1",,,"6,1,03,1","6,1,03,1","07,1,+00210,1,06,1",,,"07,99,1,07,1,04,1,00250,1,00,1,00,1",,"09,9",,,,"99999,9,10098,1","7,1,008,1,-009,1","02,1","SYN118AAXX  15091 76458 21362 70000 10262 20244 30098 40103 57008 70266 87400 90845 333 0/6// 31/// 57669 59009 60047 87607;",
"76458099999","2005-07-15T12:00:00","4","23.2","-106.4166666","4.0","COLONIA JUAN CARRASCO MAZATLAN SIN., MX","FM-12","99999","V020","030,1,N,0010,1","02400,1,9,N","008000,1,N,1","+0264,1","+0248,1","10105,1","24,0265,9,1",,,,,"08,1,+02400,1,04,1",,,"08,99,1,08,1,99,9,02250,1,02,1,99,9",,"01,9","999,+0250,1","120,N,+0260,1","240,M,+0305,1","99999,9,10101,1","3,1,003,1,+001,1",,"SYN112AAXX  15121 76458 32858 80301 10264 20248 30101 40105 53003 88/2/ 91140 333 10305 20260 30250 58001 70265 88458;","Q01  00002PRCP06Q02  00002PRCP06"
"76458099999","2005-07-15T15:00:00","4","23.2","-106.4166666","4.0","COLONIA JUAN CARRASCO MAZATLAN SIN., MX","FM-12","99999","V020","130,1,N,0010,1","01800,1,9,N","020000,1,N,1","+0280,1","+0245,1","10112,1","06,0000,9,1",,,,,"07,1,+01800,1,03,1",,,"07,99,1,07,1,99,9,02250,1,07,1,99,9",,"09,9",,,,"99999,9,10107,1","0,1,006,1,-015,1",,"SYN094AAXX  15151 76458 32870 71301 10280 20245 30107 40112 50006 87/7/ 91440 333 31/// 59015 87356;","Q01  00002PRCP06"
"76458099999","2005-07-15T18:00:00","4","23.2","-106.4166666","4.0","COLONIA JUAN CARRASCO MAZATLAN SIN., MX","FM-12","99999","V020","150,1,N,0030,1","00750,1,C,N","020000,1,N,1","+0290,1","+0241,1","10114,1","06,0000,9,1",,,,,"03,1,+00660,1,06,1",,,"08,99,1,99,9,02,1,00800,1,06,1,00,1",,"01,9",,"120,M,+0305,1","240,N,+0250,1","99999,9,10110,1","0,1,003,1,-021,1",,"SYN124AAXX  15181 76458 32570 81503 10290 20241 30110 40114 50003 88260 91740 333 0/69/ 10305 20250 30/// 57666 59021 83622 55452;","Q01  00002PRCP06"
"76458099999","2005-07-15T21:00:00","4","23.2","-106.4166666","4.0","COLONIA JUAN CARRASCO MAZATLAN SIN., MX","FM-12","99999","V020","280,1,N,0040,1","00750,1,C,N","020000,1,N,1","+0300,1","+0239,1","10097,1","06,0000,9,1",,,,,"03,1,+00600,1,06,1",,,"05,99,1,05,1,02,1,00800,1,06,1,00,1",,"01,9",,,,"99999,9,10092,1","7,1,018,1,-024,1",,"SYN112AAXX  15211 76458 32570 52804 10300 20239 30092 40097 57018 85260 92040 333 0/69/ 30/// 57665 59024 83620 82354;","Q01  00002PRCP06"
"76458099999","2005-07-16T06:00:00","4","23.2","-106.4166666","4.0","COLONIA JUAN CARRASCO MAZATLAN SIN., MX","FM-12","99999","V020","240,1,N,0020,1","22000,1,9,N","010000,1,N,1","+0280,1","+0238,1","10094,1","06,0000,9,1",,,,,"00,1,+99999,9,99,9",,,"00,99,1,00,1,00,1,99999,9,00,1,00,1","0222,9","01,9",,"240,M,+0319,1",,"99999,9,10089,1","9,9,999,9,-017,1",,"SYN100AAXX  16061 76458 32960 02402 10280 20238 30089 40094 5//// 90545 333 10319 2//// 30/// 55037 59017;","Q01  00002PRCP06"
"76458099999","2005-07-16T12:00:00","4","23.2","-106.4166666","4.0","COLONIA JUAN CARRASCO MAZATLAN SIN., MX","FM-12","99999","V020","330,1,N,0030,1","22000,1,9,N","008000,1,N,1","+0274,1","+0239,1","10093,1","06,0000,9,1","24,0000,9,1",,,,"01,1,+99999,9,04,1",,,"03,99,1,01,1,04,1,00450,1,03,1,99,9",,"01,9","999,+0260,1","120,N,+0270,1","240,M,+0319,1","99999,9,10089,1","4,1,000,1,-016,1",,"SYN136AAXX  16121 76458 32458 33303 10274 20239 30089 40093 54001 8143/ 91145 333 0069/ 10319 20270 20270 30260 57660 59016 70000 81615 82356;","Q01  00002PRCP06"
"76458099999","2005-07-16T15:00:00","4","23.2","-106.4166666","4.0","COLONIA JUAN CARRASCO MAZATLAN SIN., MX","FM-12","99999","V020","030,1,N,0010,1","03600,1,C,N","020000,1,N,1","+0290,1","+0241,1","10104,1","06,0000,9,1",,,,,"01,1,+00600,1,08,1",,,"06,99,1,01,1,02,1,00800,1,06,1,99,9",,"01,9",,,,"99999,9,10099,1","2,1,010,1,-012,1",,"SYN112AAXX  16151 76458 32570 60301 10290 20241 30099 40104 52010 8126/ 91440 333 0159/ 30/// 57854 59012 81820 85356;","Q01  00002PRCP06"
"76458099999","2005-07-16T18:00:00","4","23.2","-106.4166666","4.0","COLONIA JUAN CARRASCO MAZATLAN SIN., MX","FM-12","99999","V020","240,1,N,0040,1","22000,1,9,N","020000,1,N,1","+0305,1","+0271,1","10103,1","06,0000,9,1",,,,,"02,1,+00660,1,08,1",,,"03,99,1,03,1,02,1,00450,1,00,1,06,1",,"01,9",,"120,M,+0331,1","240,N,+0268,1","99999,9,10098,1","6,1,001,1,-012,1",,"SYN124AAXX  16181 76458 32470 32404 10305 20271 30098 40103 56001 83206 91740 333 0/59/ 10331 20268 30/// 57856 59012 82822 81070;","Q01  00002PRCP06"
"76458099999","2005-07-17T09:00:00","4","23.2","-106.4166666","4.0","COLONIA JUAN CARRASCO MAZATLAN SIN., MX","FM-12","99999","V020","300,1,N,0020,1","22000,1,9,N","010000,1,N,1","+0279,1","+0245,1","10093,1","06,0000,9,1",,,,,"03,1,+00420,1,08,1",,,"03,99,1,03,1,01,1,00450,1,00,1,00,1",,"01,9",,,,"99999,9,10088,1","7,1,010,1,+000,1",,"SYN106AAXX  17091 76458 32460 33002 10279 20245 30088 40093 57010 83100 90845 333 0/6// 30/// 57869 58000 83814;","Q01  00002PRCP06"
"76458099999","2005-07-17T18:00:00","4","23.2","-106.4166666","4.0","COLONIA JUAN CARRASCO MAZATLAN SIN., MX","FM-12","99999","V020","160,1,N,0040,1","00750,1,C,N","020000,1,N,1","+0307,1","+0249,1","10109,1","06,0000,9,1",,,,,"02,1,+00660,1,08,1",,,"05,99,1,05,1,02,1,00800,1,00,1,05,1",,"01,9",,"120,M,+0327,1","240,N,+0271,1","99999,9,10105,1","1,1,003,1,+007,1",,"SYN124AAXX  17181 76458 32570 51604 10307 20249 30105 40109 51003 85205 91740 333 0/3/9 10327 20271 30/// 57836 58007 82822 83070;","Q01  00002PRCP06"
"76458099999","2005-07-18T03:00:00","4","23.2","-106.4166666","4.0","COLONIA JUAN CARRASCO MAZATLAN SIN., MX","FM-12","99999","V020","180,1,N,0030,1","22000,1,9,N","010000,1,N,1","+0288,1","+0251,1","10083,1","06,0000,9,1",,,,,"03,1,+00450,1,08,1",,,"03,99,1,03,1,02,1,00450,1,00,1,00,1",,"01,9",,,,"99999,9,10079,1","2,1,015,1,+007,1",,"SYN100AAXX  18031 76458 32460 31803 10288 20251 30079 40083 52015 83200 90245 333 0/100 30/// 58007 83815;","Q01  00002PRCP06"
"76458099999","2005-07-18T12:00:00","4","23.2","-106.4166666","4.0","COLONIA JUAN CARRASCO MAZATLAN SIN., MX","FM-12","99999","V020","320,1,N,0020,1","22000,1,9,N","008000,1,N,1","+0280,1","+0251,1","10080,1","06,0000,9,1","24,0000,9,1",,,,"03,1,+00360,1,08,1",,,"03,99,1,03,1,02,1,00250,1,99,9,99,9",,"01,9","999,+0260,1","120,N,+0276,1","240,M,+0328,1","99999,9,10075,1","8,1,011,1,-020,1",,"SYN124AAXX  18121 76458 32358 33202 10280 20251 30075 40080 58011 832// 91140 333 0/5// 10328 20276 30260 57850 59020 70000 83812;","Q01  00002PRCP06"
"76458099999","2005-07-18T15:00:00","4","23.2","-106.4166666","4.0","COLONIA JUAN CARRASCO MAZATLAN SIN., MX","FM-12","99999","V020","120,1,N,0020,1","03600,1,C,N","018000,1,N,1","+0298,1","+0254,1","10084,1","06,0000,9,1",,,,,"03,1,+00540,1,08,1","01,1,+02700,1,03,1",,"06,99,1,03,1,02,1,00450,1,03,1,02,1",,"01,9",,,,"99999,9,10079,1","1,1,004,1,+022,1",,"SYN118AAXX  18151 76458 32468 61202 10298 20254 30079 40084 51004 83232 91450 333 0/399 30/// 57831 58022 83818 81359 82079;","Q01  00002PRCP06"
"76458099999","2005-07-18T18:00:00","4","23.2","-106.4166666","4.0","COLONIA JUAN CARRASCO MAZATLAN SIN., MX","FM-12","99999","V020","210,1,N,0040,1","22000,1,9,N","020000,1,N,1","+0308,1","+0265,1","10081,1","06,0000,9,1",,,,,"01,1,+00600,1,08,1",,,"03,99,1,03,1,02,1,00800,1,00,1,05,1",,"01,9",,"120,M,+0325,1","240,N,+0276,1","99999,9,10077,1","6,1,002,1,-028,1",,"SYN124AAXX  18181 76458 32570 32104 10308 20265 30077 40081 56002 83205 91740 333 0/3/9 10325 20276 30/// 57836 59028 81820 82070;","Q01  00002PRCP06"
"76458099999","2005-07-18T21:00:00","4","23.2","-106.4166666","4.0","COLONIA JUAN CARRASCO MAZATLAN SIN., MX","FM-12","99999","V020","240,1,N,0030,1","22000,1,9,N","020000,1,N,1","+0308,1","+0270,1","10061,1","06,0000,9,1",,,,,"01,1,+00660,1,09,1",,,"02,99,1,02,1,02,1,00800,1,00,1,05,1",,"01,9",,,,"99999,9,10056,1","7,1,021,1,-023,1",,"SYN112AAXX  18211 76458 32570 22403 10308 20270 30056 40061 57021 82205 92040 333 0/1/9 30/// 57915 59023 81922 81070;","Q01  00002PRCP06"
"76458099999","2005-07-19T00:00:00","4","23.2","-106.4166666","4.0","COLONIA JUAN CARRASCO MAZATLAN SIN., MX","FM-12","99999","V020","280,1,N,0040,1","22000,1,9,N","020000,1,N,1","+0310,1","+0257,1","10050,1","06,0000,9,1","24,0000,9,1",,,,"02,1,+00660,1,08,1",,,"02,99,1,02,1,03,1,00450,1,00,1,00,1",,"01,9",,"120,M,+0336,1","180,N,+0276,1","99999,9,10045,1","7,1,011,1,-019,1",,"SYN124AAXX  19001 76458 32470 22804 10310 20257 30045 40050 57011 82300 92352 333 0/100 10336 20276 30/// 55261 59019 70000 82822;","Q01  00002PRCP06"
"76458099999","2005-07-19T12:00:00","4","23.2","-106.4166666","4.0","COLONIA JUAN CARRASCO MAZATLAN SIN., MX","FM-12","99999","V020","270,1,N,0020,1","06000,1,9,N","008000,1,N,1","+0280,1","+0248,1","10077,1","06,0000,9,1","24,0000,9,1",,,,"06,1,+06000,1,00,1",,,"06,99,1,00,1,99,9,99999,9,99,9,06,1",,"01,9","999,+0265,1","120,N,+0276,1","240,M,+0336,1","99999,9,10073,1","7,1,011,1,-002,1",,"SYN112AAXX  19121 76458 32958 62702 10280 20248 30073 40077 57011 80//6 91140 333 10336 20276 30265 59002 70000 86070;","Q01  00002PRCP06"
"76458099999","2005-07-19T15:00:00","4","23.2","-106.4166666","4.0","COLONIA JUAN CARRASCO MAZATLAN SIN., MX","FM-12","99999","V020","150,1,N,0020,1","01800,1,9,N","020000,1,N,1","+0296,1","+0239,1","10088,1",,,,,,"06,1,+01800,1,03,1",,,"06,99,1,06,1,99,9,02250,1,06,1,99,9",,"01,9",,,,"99999,9,10083,1","1,1,010,1,+000,1",,"SYN094AAXX  19151 76458 32870 61502 10296 20239 30083 40088 51010 86/6/ 91440 333 30/// 58000 86356;",
"76458099999","2005-07-19T18:00:00","4","23.2","-106.4166666","4.0","COLONIA JUAN CARRASCO MAZATLAN SIN., MX","FM-12","99999","V020","180,1,N,0040,1","22000,1,9,N","018000,1,N,1","+0313,1","+0259,1","10095,1",,,,,,"02,1,+01800,1,03,1",,,"03,99,1,03,1,00,1,99999,9,06,1,05,1",,"01,9",,"120,M,+0335,1","240,N,+0276,1","99999,9,10091,1","6,1,008,1,+014,1",,"SYN112AAXX  19181 76458 32968 31804 10313 20259 30091 40095 56008 83065 91740 333 10335 20276 30/// 58014 82356 81070;",
"76458099999","2005-07-19T21:00:00","4","23.2","-106.4166666","4.0","COLONIA JUAN CARRASCO MAZATLAN SIN., MX","FM-12","99999","V020","240,1,N,0030,1","22000,1,9,N","020000,1,N,1","+0315,1","+0254,1","10086,1",,,,,,"02,1,+00660,1,08,1","01,1,+99999,9,03,1",,"04,99,1,04,1,02,1,00800,1,06,1,05,1",,"01,9",,,,"99999,9,10081,1","7,1,010,1,+025,1",,"SYN118AAXX  19211 76458 32570 42403 10315 20254 30081 40086 57010 84265 92040 333 0/199 30/// 57815 58025 82822 81354 81070;",
"76458099999","2005-07-20T00:00:00","4","23.2","-106.4166666","4.0","COLONIA JUAN CARRASCO MAZATLAN SIN., MX","FM-12","99999","V020","290,1,N,0040,1","22000,1,9,N","020000,1,N,1","+0314,1","+0247,1","10080,1","24,0000,9,1",,,,,"02,1,+00840,1,08,1",,,"03,99,1,02,1,02,1,00800,1,03,1,00,1",,"01,9",,"120,M,+0340,1","180,N,+0276,1","99999,9,10075,1","7,1,006,1,+030,1",,"SYN130AAXX  20001 76458 32570 32904 10314 20247 30075 40080 57006 82230 92342 333 0/190 10340 20276 30/// 56231 58030 70000 82828 81358;",
"76458099999","2005-07-20T03:00:00","4","23.2","-106.4166666","4.0","COLONIA JUAN CARRASCO MAZATLAN SIN., MX","FM-12","99999","V020","210,1,N,0020,1","03600,1,C,N","010000,1,N,1","+0304,1","+0236,1","10103,1",,,,,,"02,1,+00840,1,06,1",,,"06,99,1,02,1,04,1,00800,1,05,1,00,1",,"01,9",,,,"99999,9,10099,1","2,1,024,1,+027,1",,"SYN106AAXX  20031 76458 32560 62102 10304 20236 30099 40103 52024 82450 90240 333 0/290 30/// 58027 82628 84358;",
"76458099999","2005-07-20T06:00:00","4","23.2","-106.4166666","4.0","COLONIA JUAN CARRASCO MAZATLAN SIN., MX","FM-12","99999","V020","150,1,N,0030,1","00420,1,9,N","010000,1,N,1","+0298,1","+0253,1","10112,1",,,,,,,,,"07,99,1,07,1,07,1,00450,1,00,1,00,1","0522,9","01,9",,"240,M,+0340,1","240,N,+0276,1","99999,9,10108,1","2,1,009,1,+012,1",,"SYN124AAXX  20061 76458 32460 71503 10298 20253 30108 40112 52009 87700 90550 333 0/400 10340 20276 30/// 55087 2//// 58012 87819;",
"76458099999","2005-07-20T09:00:00","4","23.2","-106.4166666","4.0","COLONIA JUAN CARRASCO MAZATLAN SIN., MX","FM-12","99999","V020","050,1,N,0020,1","00300,1,9,N","010000,1,N,1","+0280,1","+0255,1","10110,1",,,,,,"07,1,+00300,1,08,1",,,"07,99,1,07,1,07,1,00450,1,00,1,00,1",,"01,9",,,,"99999,9,10105,1","8,1,003,1,+023,1",,"SYN100AAXX  20091 76458 32460 70502 10280 20255 30105 40110 58003 87700 90846 333 0/400 30/// 58023 87810;",
"76458099999","2005-07-20T15:00:00","4","23.2","-106.4166666","4.0","COLONIA JUAN CARRASCO MAZATLAN SIN., MX","FM-12","99999","V020","240,1,N,0020,1","00150,1,9,N","010000,1,N,1","+0262,1","+0250,1","10123,1","06,0300,9,1",,,,,"07,1,+00150,1,08,1",,,"08,99,1,08,1,09,1,00150,1,00,1,00,1",,"09,9",,,,"99999,9,10119,1","2,1,011,1,+035,1",,"SYN118AAXX  20151 76458 21260 82402 10262 20250 30119 40123 52011 88900 91450 333 07500 31/// 57950 58035 60301 87805 81934;",
"76458099999","2005-07-20T18:00:00","4","23.2","-106.4166666","4.0","COLONIA JUAN CARRASCO MAZATLAN SIN., MX","FM-12","99999","V020","360,1,N,0020,1","00420,1,C,N","020000,1,N,1","+0292,1","+0249,1","10121,1","06,0300,9,1",,,,,"04,1,+00600,1,08,1",,,"07,99,1,07,1,02,1,00450,1,05,1,00,1",,"09,9",,"120,M,+0317,1","240,N,+0253,1","99999,9,10116,1","6,1,003,1,+025,1",,"SYN130AAXX  20181 76458 21470 73602 10292 20249 30116 40121 56003 87250 91740 333 0/14/ 10317 20253 31/// 57855 58025 60301 84820 83450;",
"76458099999","2005-07-20T21:00:00","4","23.2","-106.4166666","4.0","COLONIA JUAN CARRASCO MAZATLAN SIN., MX","FM-12","99999","V020","240,1,N,0030,1","00750,1,C,N","020000,1,N,1","+0304,1","+0248,1","10105,1",,,,,,"03,1,+00600,1,08,1",,,"05,99,1,05,1,02,1,00800,1,05,1,00,1",,"09,9",,,,"99999,9,10100,1","7,1,016,1,+019,1",,"SYN112AAXX  20211 76458 32570 52403 10304 20248 30100 40105 57016 85250 92040 333 0/19/ 31/// 57815 58019 83820 82354;",
"76458099999","2005-07-21T03:00:00","4","23.2","-106.4166666","4.0","COLONIA JUAN CARRASCO MAZATLAN SIN., MX","FM-12","99999","V020","240,1,N,0020,1","22000,1,9,N","010000,1,N,1","+0286,1","+0248,1","10098,1",,,,,,"03,1,+00480,1,08,1",,,"03,99,1,03,1,02,1,00450,1,00,1,00,1",,"01,9",,,,"99999,9,10094,1","2,1,008,1,-005,1",,"SYN100AAXX  21031 76458 32460 32402 10286 20248 30094 40098 52008 83200 90240 333 0/200 30/// 59005 83816;",
"76458099999","2005-07-21T18:00:00","4","23.2","-106.4166666","4.0","COLONIA JUAN CARRASCO MAZATLAN SIN., MX","FM-12","99999","V020","270,1,N,0030,1","00450,1,9,N","018000,1,N,1","+0290,1","+0254,1","10109,1","03,0002,9,1","06,9999,9,9",,"5,1,06,1","5,1,06,1","07,1,+00450,1,08,1",,,"07,99,1,07,1,07,1,00450,1,00,1,00,1",,"09,9",,"120,M,+0301,1","240,N,+0270,1","99999,9,10104,1","0,1,005,1,-012,1","51,1","SYN130AAXX  21181 76458 01468 72703 10290 20254 30104 40109 50005 69921 75155 87700 91758 333 0/600 10301 20270 31/// 59012 69927 87815;",
"76458099999","2005-07-22T12:00:00","4","23.2","-106.4166666","4.0","COLONIA JUAN CARRASCO MAZATLAN SIN., MX","FM-12","99999","V020","090,1,N,0040,1","99999,9,9,N","008000,1,N,1","+0244,1","+0233,1","10132,1","06,0279,9,1",,,"6,1,06,1","6,1,06,1",,,,"08,99,1,99,9,99,9,02250,1,99,9,99,9",,,,,,"99999,9,10128,1",,"20,1","SYN072AAXX  22121 76458 11858 80904 10244 20233 30128 40132 5//// 60281 72066;",
"76458099999","2005-07-22T15:00:00","4","23.2","-106.4166666","4.0","COLONIA JUAN CARRASCO MAZATLAN SIN., MX","FM-12","99999","V020","330,1,N,0020,1","02400,1,9,N","020000,1,N,1","+0250,1","+0236,1","10135,1",,,,,,"01,1,+00180,1,08,1","04,1,+02400,1,04,1",,"07,99,1,01,1,02,1,00150,1,02,1,99,9",,"09,9",,,,"99999,9,10130,1","2,1,010,1,+026,1",,"SYN118AAXX  22151 76458 32270 73302 10250 20236 30130 40135 52010 8122/ 91440 333 0/49/ 31/// 57847 58026 81806 84458 82356;",
"76458099999","2005-07-22T18:00:00","4","23.2","-106.4166666","4.0","COLONIA JUAN CARRASCO MAZATLAN SIN., MX","FM-12","99999","V020","360,1,N,0010,1","00750,1,C,N","020000,1,N,1","+0279,1","+0240,1","10142,1",,,,,,"01,1,+00660,1,08,1",,,"07,99,1,07,1,02,1,00800,1,06,1,00,1",,"09,9",,"120,M,+0290,1","240,N,+0233,1","99999,9,10137,1","2,1,007,1,+033,1",,"SYN124AAXX  22181 76458 32570 73601 10279 20240 30137 40142 52007 87260 91740 333 0/89/ 10290 20233 31/// 57885 58033 81822 86450;",
"76458099999","2005-07-22T21:00:00","4","23.2","-106.4166666","4.0","COLONIA JUAN CARRASCO MAZATLAN SIN., MX","FM-12","99999","V020","260,1,N,0030,1","00750,1,C,N","020000,1,N,1","+0293,1","+0249,1","10129,1",,,,,,"01,1,+00660,1,08,1",,,"07,99,1,07,1,02,1,00800,1,05,1,00,1",,"09,9",,,,"99999,9,10124,1","7,1,013,1,+032,1",,"SYN112AAXX  22211 76458 32570 72603 10293 20249 30124 40129 57013 87250 92040 333 0/19/ 31/// 57815 58032 81822 86451;",
"76458099999","2005-07-23T15:00:00","4","23.2","-106.4166666","4.0","COLONIA JUAN CARRASCO MAZATLAN SIN., MX","FM-12","99999","V020","020,1,N,0010,1","02400,1,9,N","020000,1,N,1","+0250,1","+0207,1","10143,1",,,,,,"01,1,+00540,1,09,1","05,1,+02400,1,04,1",,"07,99,1,01,1,03,1,00450,1,02,1,99,9",,"09,9",,,,"99999,9,10139,1","3,1,003,1,+004,1",,"SYN118AAXX  23151 76458 32470 70201 10250 20207 30139 40143 53003 8132/ 91445 333 0/59/ 31/// 57963 58004 81918 85458 81356;",
"76458099999","2005-07-23T18:00:00","4","23.2","-106.4166666","4.0","COLONIA JUAN CARRASCO MAZATLAN SIN., MX","FM-12","99999","V020","270,1,N,0030,1","03600,1,9,N","020000,1,N,1","+0302,1","+0234,1","10142,1",,,,,,"01,1,+00660,1,08,1","02,1,+99999,9,03,1",,"05,99,1,01,1,07,1,00800,1,04,1,00,1",,"01,9",,"120,M,+0331,1","240,N,+0226,1","99999,9,10138,1","6,1,004,1,-003,1",,"SYN130AAXX  23181 76458 32570 52703 10302 20234 30138 40142 56004 81740 85265 333 0/899 10331 20226 30/// 57886 59003 81822 82354 82070;",
"76458099999","2005-07-24T03:00:00","4","23.2","-106.4166666","4.0","COLONIA JUAN CARRASCO MAZATLAN SIN., MX","FM-12","99999","V020","300,1,N,0030,1","22000,1,9,N","016000,1,N,1","+0287,1","+0251,1","10125,1",,,,,,"02,1,+08700,1,00,1",,,"02,99,1,00,1,00,1,99999,9,00,1,02,1",,"09,9",,,,"99999,9,10120,1","3,1,005,1,+006,1",,"SYN100AAXX  24031 76458 32966 23003 10287 20251 30120 40125 53005 80002 90246 333 0/009 31/// 58006 82079;",
"76458099999","2005-07-25T09:00:00","4","23.2","-106.4166666","4.0","COLONIA JUAN CARRASCO MAZATLAN SIN., MX","FM-12","99999","V020","250,1,N,0020,1","00660,1,9,N","010000,1,N,1","+0287,1","+0238,1","10110,1","01,0000,2,1",,,,,"06,1,+00660,1,06,1",,,"08,99,1,99,9,02,1,00800,1,06,1,00,1",,"01,9",,,,"99999,9,10106,1","7,1,012,1,-017,1",,"SYN112AAXX  25091 76458 22560 82502 10287 20238 30106 40110 57012 69905 88260 90840 333 0/69/ 30/// 59017 86622 82354;",
"76458099999","2005-07-25T12:00:00","4","23.2","-106.4166666","4.0","COLONIA JUAN CARRASCO MAZATLAN SIN., MX","FM-12","99999","V020","270,1,N,0020,1","00480,1,9,N","010000,1,N,1","+0285,1","+0246,1","10107,1","06,9999,9,9","24,0000,9,1",,"5,1,06,1","2,1,06,1","07,1,+00480,1,08,1",,,"08,99,1,08,1,09,1,00450,1,00,1,00,1",,"01,9","999,+0275,1","120,N,+0282,1","240,M,+0329,1","99999,9,10103,1","5,1,003,1,-019,1","02,1","SYN142AAXX  25121 76458 11460 82702 10285 20246 30103 40107 55003 69901 70252 88900 91150 333 07100 10329 20282 30275 57910 59019 79999 87816 81934;","Q01  00002PRCP24"
"76458099999","2005-07-25T15:00:00","4","23.2","-106.4166666","4.0","COLONIA JUAN CARRASCO MAZATLAN SIN., MX","FM-12","99999","V020","150,1,N,0010,1","00450,1,9,N","020000,1,N,1","+0291,1","+0254,1","10117,1",,,,,,"05,1,+00450,1,08,1",,,"07,99,1,05,1,02,1,00450,1,03,1,00,1",,"01,9",,,,"99999,9,10112,1","2,1,009,1,-013,1",,"SYN106AAXX  25151 76458 32470 71501 10291 20254 30112 40117 52009 85230 91450 333 0/790 30/// 59013 85815 82361;",
"76458099999","2005-07-26T03:00:00","4","23.2","-106.4166666","4.0","COLONIA JUAN CARRASCO MAZATLAN SIN., MX","FM-12","99999","V020","180,1,N,0020,1","00510,1,9,N","010000,1,N,1","+0292,1","+0252,1","10102,1",,,,,,"07,1,+00510,1,06,1",,,"07,99,1,07,1,05,1,00450,1,00,1,00,1",,"01,9",,,,"99999,9,10098,1","2,1,016,1,-005,1",,"SYN100AAXX  26031 76458 32460 71802 10292 20252 30098 40102 52016 87500 90245 333 0/600 30/// 59005 87617;",
"76458099999","2005-07-26T12:00:00","4","23.2","-106.4166666","4.0","COLONIA JUAN CARRASCO MAZATLAN SIN., MX","FM-12","99999","V020","090,1,N,0030,1","00150,1,9,N","008000,1,N,1","+0246,1","+0235,1","10118,1","02,0221,9,1","24,0221,9,1",,,,"08,1,+00150,1,06,1",,,"08,99,1,08,1,05,1,00150,1,99,9,99,9",,"01,9","999,+0234,1","120,N,+0240,1","240,M,+0335,1","99999,9,10114,1","4,1,000,1,+007,1",,"SYN124AAXX  26121 76458 12258 80903 10246 20235 30114 40118 54002 60226 885// 91140 333 10335 20240 30234 57660 58007 70221 88605;",
"76458099999","2005-07-26T18:00:00","4","23.2","-106.4166666","4.0","COLONIA JUAN CARRASCO MAZATLAN SIN., MX","FM-12","99999","V020","150,1,N,0030,1","02400,1,9,N","020000,1,N,1","+0276,1","+0246,1","10138,1","06,9999,9,9",,,"5,1,06,1","4,1,06,1","04,1,+00360,1,08,1","02,1,+02400,1,03,1",,"07,99,1,04,1,07,1,00450,1,05,1,00,1",,"09,9",,"120,M,+0330,1","240,N,+0242,1","99999,9,10134,1","0,1,013,1,+025,1","02,1","SYN136AAXX  26181 76458 21470 71503 10276 20246 30134 40138 50013 69921 70254 84750 91750 333 0/380 10330 20242 31/// 58025 84812 82358 81461;",
"76458099999","2005-07-26T21:00:00","4","23.2","-106.4166666","4.0","COLONIA JUAN CARRASCO MAZATLAN SIN., MX","FM-12","99999","V020","130,1,N,0030,1","00510,1,9,N","018000,1,N,1","+0280,1","+0239,1","10125,1",,,,,,"05,1,+00510,1,08,1",,,"08,99,1,05,1,07,1,00450,1,05,1,00,1",,"09,9",,,,"99999,9,10120,1","7,1,013,1,+027,1",,"SYN106AAXX  26211 76458 32468 81303 10280 20239 30120 40125 57013 85750 92050 333 0/390 31/// 58027 85817 83358;",
"76458099999","2005-07-27T00:00:00","4","23.2","-106.4166666","4.0","COLONIA JUAN CARRASCO MAZATLAN SIN., MX","FM-12","99999","V020","150,1,N,0030,1","00480,1,9,N","020000,1,N,1","+0280,1","+0241,1","10109,1","24,0223,9,1",,,,,"07,1,+00480,1,06,1",,,"07,99,1,07,1,05,1,00450,1,00,1,00,1",,"01,9",,"120,M,+0332,1","180,N,+0242,1","99999,9,10104,1","7,1,016,1,+022,1",,"SYN124AAXX  27001 76458 32470 71503 10280 20241 30104 40109 57016 87500 92345 333 0/900 10332 20242 30/// 5//// 58022 70223 87616;",
"76458099999","2005-07-27T03:00:00","4","23.2","-106.4166666","4.0","COLONIA JUAN CARRASCO MAZATLAN SIN., MX","FM-12","99999","V020","060,1,N,0010,1","00420,1,9,N","010000,1,N,1","+0272,1","+0240,1","10118,1",,,,,,"08,1,+00420,1,06,1",,,"08,99,1,08,1,05,1,00450,1,00,1,00,1",,"01,9",,,,"99999,9,10114,1","2,1,010,1,+016,1",,"SYN100AAXX  27031 76458 32460 80601 10272 20240 30114 40118 52010 88500 90248 333 0/300 30/// 58016 88614;",
"76458099999","2005-07-27T09:00:00","4","23.2","-106.4166666","4.0","COLONIA JUAN CARRASCO MAZATLAN SIN., MX","FM-12","99999","V020","360,1,N,0010,1","00600,1,9,N","008000,1,N,1","+0254,1","+0235,1","10119,1","06,0008,9,1",,,"5,1,03,1","5,1,03,1","08,1,+00600,1,06,1",,,"08,99,1,08,1,05,1,00250,1,00,1,00,1",,"09,9",,,,"99999,9,10114,1","7,1,012,1,+002,1","13,1","SYN112AAXX  27091 76458 11358 83601 10254 20235 30114 40119 57012 71355 88500 90840 333 0/3// 31/// 58002 69981 88620;",
"76458099999","2005-07-27T15:00:00","4","23.2","-106.4166666","4.0","COLONIA JUAN CARRASCO MAZATLAN SIN., MX","FM-12","99999","V020","120,1,N,0030,1","00210,1,9,N","018000,1,N,1","+0254,1","+0237,1","10127,1","03,0005,9,1",,,"5,1,03,1","5,1,03,1","05,1,+00210,1,06,1",,,"07,99,1,05,1,05,1,00250,1,05,1,00,1",,"09,9",,,,"99999,9,10122,1","2,1,007,1,-008,1","50,1","SYN118AAXX  27151 76458 21368 71203 10254 20237 30122 40127 52007 75055 85550 91446 333 0/490 31/// 59008 69957 85607 82358;",
"76458099999","2005-07-28T09:00:00","4","23.2","-106.4166666","4.0","COLONIA JUAN CARRASCO MAZATLAN SIN., MX","FM-12","99999","V020","300,1,N,0010,1","00210,1,C,N","008000,1,N,1","+0268,1","+0244,1","10114,1",,,,,,"02,1,+00660,1,08,1",,,"05,99,1,05,1,02,1,00250,1,05,1,00,1",,"01,9",,,,"99999,9,10109,1","6,1,007,1,-007,1",,"SYN112AAXX  28091 76458 32358 53001 10268 20244 30109 40114 56007 85250 90840 333 0/69/ 30/// 57866 59007 82822 83354;",
"76458099999","2005-07-28T12:00:00","4","23.2","-106.4166666","4.0","COLONIA JUAN CARRASCO MAZATLAN SIN., MX","FM-12","99999","V020","360,1,N,0010,1","22000,1,9,N","008000,1,N,1","+0256,1","+0247,1","10113,1","24,0005,9,1",,,,,"01,1,+06000,1,00,1",,,"01,99,1,00,1,99,9,99999,9,99,9,01,1",,"01,9","999,+0238,1","120,N,+0252,1","240,M,+0326,1","99999,9,10109,1","5,1,000,1,-011,1",,"SYN112AAXX  28121 76458 32958 13601 10256 20247 30109 40113 55000 80//1 91140 333 10326 20252 30238 59011 70005 81070;",
"76458099999","2005-07-28T15:00:00","4","23.2","-106.4166666","4.0","COLONIA JUAN CARRASCO MAZATLAN SIN., MX","FM-12","99999","V020","030,1,N,0010,1","22000,1,9,N","020000,1,N,1","+0284,1","+0232,1","10117,1",,,,,,"01,1,+06000,1,00,1",,,"01,99,1,00,1,99,9,99999,9,99,9,01,1",,"01,9",,,,"99999,9,10113,1","1,1,004,1,-014,1",,"SYN094AAXX  28151 76458 32970 10301 10284 20232 30113 40117 51004 80//1 91440 333 30/// 59014 81070;",
"76458099999","2005-07-28T21:00:00","4","23.2","-106.4166666","4.0","COLONIA JUAN CARRASCO MAZATLAN SIN., MX","FM-12","99999","V020","240,1,N,0020,1","22000,1,9,N","020000,1,N,1","+0310,1","+0248,1","10112,1",,,,,,"00,1,+99999,9,99,9",,,"00,99,1,00,1,00,1,99999,9,00,1,00,1",,"01,9",,,,"99999,9,10107,1","3,1,006,1,+003,1",,"SYN082AAXX  28211 76458 32970 02402 10310 20248 30107 40112 53006 92050 333 30/// 58003;",
"76458099999","2005-07-29T15:00:00","4","23.2","-106.4166666","4.0","COLONIA JUAN CARRASCO MAZATLAN SIN., MX","FM-12","99999","V020","360,1,N,0020,1","22000,1,9,N","020000,1,N,1","+0292,1","+0255,1","10133,1",,,,,,,,,"01,99,1,01,1,99,9,02250,1,03,1,99,9",,"01,9",,,,"99999,9,10129,1","2,1,008,1,+020,1",,"SYN088AAXX  29151 76458 32870 13602 10292 20255 30129 40133 52008 81/3/ 91440 333 30/// 58020;",
"76458099999","2005-07-29T21:00:00","4","23.2","-106.4166666","4.0","COLONIA JUAN CARRASCO MAZATLAN SIN., MX","FM-12","99999","V020","270,1,N,0040,1","22000,1,9,N","020000,1,N,1","+0314,1","+0264,1","10122,1",,,,,,"01,1,+00630,1,02,1",,,"01,99,1,01,1,02,1,00800,1,00,1,00,1",,"01,9",,,,"99999,9,10119,1","7,1,011,1,+009,1",,"SYN100AAXX  29211 76458 32570 12704 10314 20264 30119 40122 57011 81200 92042 333 0/100 30/// 58009 81221;",
"76458099999","2005-07-30T00:00:00","4","23.2","-106.4166666","4.0","COLONIA JUAN CARRASCO MAZATLAN SIN., MX","FM-12","99999","V020","300,1,N,0010,1","22000,1,9,N","030000,1,N,1","+0304,1","+0259,1","10116,1","24,0000,9,1",,,,,"01,1,+00630,1,02,1",,,"99,99,9,00,1,00,1,99999,9,00,1,00,1",,"01,9",,"120,M,+0340,1","180,N,+0260,1","99999,9,10112,1","3,1,005,1,+016,1",,"SYN118AAXX  30001 76458 32980 03001 10304 20259 30112 40116 53005 81200 92350 333 0/100 10340 20260 30/// 58016 70000 81221;",
"76458099999","2005-07-30T09:00:00","4","23.2","-106.4166666","4.0","COLONIA JUAN CARRASCO MAZATLAN SIN., MX","FM-12","99999","V020","300,1,N,0010,1","22000,1,9,N","008000,1,N,1","+0280,1","+0244,1","10129,1",,,,,,"02,1,+99999,9,03,1",,,"04,99,1,04,1,00,1,99999,9,05,1,06,1",,"01,9",,,,"99999,9,10124,1","7,1,011,1,+999,9",,"SYN106AAXX  30091 76458 32958 43001 10280 20244 30124 40129 57011 84056 90840 333 0//99 30/// 58/// 82354 82070;",
"76458099999","2005-07-30T12:00:00","4","23.2","-106.4166666","4.0","COLONIA JUAN CARRASCO MAZATLAN SIN., MX","FM-12","99999","V020","120,1,N,0020,1","99999,9,9,N","008000,1,N,1","+0276,1","+0246,1","10134,1","24,0000,9,1",,,,,"02,1,+01800,1,03,1",,,"06,99,1,02,1,99,9,02250,1,03,1,06,1",,"01,9","999,+0250,1","120,N,+0258,1","240,M,+0338,1","99999,9,10130,1","1,1,006,1,+005,1",,"SYN118AAXX  30121 76458 32858 61202 10276 20246 30130 40134 51006 82/36 91140 333 10338 20258 30250 58005 70000 82356 84070;",
"76458099999","2005-07-30T15:00:00","4","23.2","-106.4166666","4.0","COLONIA JUAN CARRASCO MAZATLAN SIN., MX","FM-12","99999","V020","360,1,N,0030,1","22000,1,9,N","018000,1,N,1","+0296,1","+0256,1","10138,1",,,,,,"02,1,+01800,1,03,1",,,"02,99,1,02,1,99,9,02250,1,03,1,99,9",,"01,9",,,,"99999,9,10134,1","1,1,004,1,+002,1",,"SYN094AAXX  30151 76458 32868 23603 10296 20256 30134 40138 51004 82/3/ 91450 333 30/// 58002 82356;",
"76458099999","2005-07-30T18:00:00","4","23.2","-106.4166666","4.0","COLONIA JUAN CARRASCO MAZATLAN SIN., MX","FM-12","99999","V020","270,1,N,0030,1","00750,1,C,N","020000,1,N,1","+0313,1","+0258,1","10139,1",,,,,,"02,1,+00660,1,08,1",,,"07,99,1,07,1,02,1,00800,1,00,1,06,1",,"01,9",,"120,M,+0333,1","240,N,+0258,1","99999,9,10135,1","1,1,001,1,+022,1",,"SYN124AAXX  30181 76458 32570 72703 10313 20258 30135 40139 51001 87206 91740 333 0/1/9 10333 20258 30/// 57815 58022 82822 80570;",
"76458099999","2005-07-30T21:00:00","4","23.2","-106.4166666","4.0","COLONIA JUAN CARRASCO MAZATLAN SIN., MX","FM-12","99999","V020","270,1,N,0040,1","00750,1,C,N","020000,1,N,1","+0325,1","+0265,1","10122,1",,,,,,"01,1,+00600,1,09,1","01,1,+00660,1,01,1","02,1,+99999,9,03,1","05,99,1,05,1,02,1,00800,1,05,1,06,1",,"01,9",,,,"99999,9,10118,1","7,1,017,1,+001,1",,"SYN124AAXX  30211 76458 32570 52704 10325 20265 30118 40122 57017 85256 92040 333 0/975 30/// 57975 58001 81920 81122 82354 81070;",
"76458099999","2005-07-31T00:00:00","4","23.2","-106.4166666","4.0","COLONIA JUAN CARRASCO MAZATLAN SIN., MX","FM-12","99999","V020","270,1,N,0040,1","03600,1,9,N","020000,1,N,1","+0310,1","+0266,1","10109,1","24,0000,9,1",,,,,"01,1,+00540,1,09,1","02,1,+02400,1,03,1","03,1,+03600,1,04,1","07,99,1,01,1,07,1,00450,1,03,1,05,1",,"01,9",,"120,M,+0343,1","180,N,+0258,1","99999,9,10105,1","7,1,013,1,-007,1",,"SYN148AAXX  31001 76458 32470 72704 10310 20266 30105 40109 57013 81735 92355 333 07229 10343 20258 30/// 50621 57925 59007 70000 81918 82358 83462 81079;",
"76458099999","2005-07-31T03:00:00","4","23.2","-106.4166666","4.0","COLONIA JUAN CARRASCO MAZATLAN SIN., MX","FM-12","99999","V020","280,1,N,0040,1","22000,1,9,N","016000,1,N,1","+0298,1","+0263,1","10114,1",,,,,,"00,1,+99999,9,99,9",,,"00,99,1,00,1,00,1,99999,9,00,1,00,1",,"01,9",,,,"99999,9,10109,1","3,1,004,1,-021,1",,"SYN082AAXX  31031 76458 32966 02804 10298 20263 30109 40114 53004 90250 333 30/// 59021;",
"76458099999","2005-07-31T06:00:00","4","23.2","-106.4166666","4.0","COLONIA JUAN CARRASCO MAZATLAN SIN., MX","FM-12","99999","V020","300,1,N,0010,1","22000,1,9,N","010000,1,N,1","+0291,1","+0261,1","10133,1",,,,,,"00,1,+99999,9,99,9",,,"00,99,1,00,1,00,1,99999,9,00,1,00,1","0516,9","01,9",,"240,M,+0343,1","240,N,+0258,1","99999,9,10129,1","2,1,008,1,+999,9",,"SYN106AAXX  31061 76458 32960 03001 10291 20261 30129 40133 52008 90550 333 10343 20258 30/// 55086 2//// 58005;",
"76458099999","2005-07-31T09:00:00","4","23.2","-106.4166666","4.0","COLONIA JUAN CARRASCO MAZATLAN SIN., MX","FM-12","99999","V020","320,1,N,0010,1","22000,1,9,N","020000,1,N,1","+0294,1","+0265,1","10131,1",,,,,,"00,1,+99999,9,99,9",,,"00,99,1,00,1,00,1,99999,9,00,1,00,1",,"01,9",,,,"99999,9,10127,1","2,1,009,1,-001,1",,"SYN082AAXX  31091 76458 32970 03201 10294 20265 30127 40131 52009 90950 333 30/// 59001;",
"76458099999","2005-07-31T15:00:00","4","23.2","-106.4166666","4.0","COLONIA JUAN CARRASCO MAZATLAN SIN., MX","FM-12","99999","V020","120,1,N,0010,1","22000,1,9,N","020000,1,N,1","+0294,1","+0268,1","10127,1",,,,,,"02,1,+06600,1,00,1",,,"02,99,1,00,1,00,1,99999,9,00,1,06,1",,"01,9",,,,"99999,9,10123,1","2,1,011,1,-011,1",,"SYN100AAXX  31151 76458 32970 21201 10294 20268 30123 40127 52011 80006 91448 333 0/009 30/// 59011 82072;",
"76458099999","2005-07-31T21:00:00","4","23.2","-106.4166666","4.0","COLONIA JUAN CARRASCO MAZATLAN SIN., MX","FM-12","99999","V020","240,1,N,0040,1","00420,1,C,N","020000,1,N,1","+0314,1","+0273,1","10114,1",,,,,,"02,1,+00660,1,08,1","02,1,+99999,9,03,1",,"06,99,1,06,1,02,1,00450,1,06,1,09,1",,"01,9",,,,"99999,9,10109,1","7,1,015,1,-009,1",,"SYN118AAXX  31211 76458 32470 62404 10314 20273 30109 40114 57015 86269 92040 333 0/199 30/// 57815 59009 82822 82354 82070;",
"76458099999","2005-08-01T00:00:00","4","23.2","-106.4166666","4.0","COLONIA JUAN CARRASCO MAZATLAN SIN., MX","FM-12","99999","V020","240,1,N,0020,1","22000,1,9,N","020000,1,N,1","+0302,1","+0271,1","10101,1","24,0000,9,1",,,,,"02,1,+00630,1,07,1","02,1,+00960,1,02,1",,"04,99,1,04,1,02,1,00800,1,00,1,07,1",,"01,9",,"120,M,+0340,1","180,N,+0268,1","99999,9,10097,1","3,1,012,1,-007,1",,"SYN142AAXX  01001 76458 32570 42402 10302 20271 30097 40101 53012 84207 92350 333 0/298 10340 20268 30/// 50212 57412 59007 70000 82721 82232 81060;",
"76458099999","2005-08-01T03:00:00","4","23.2","-106.4166666","4.0","COLONIA JUAN CARRASCO MAZATLAN SIN., MX","FM-12","99999","V020","330,1,N,0020,1","03600,1,C,N","016000,1,N,1","+0279,1","+0222,1","10116,1","03,0000,9,1",,,"5,1,03,1","5,1,03,1","02,1,+00720,1,09,1",,,"07,99,1,02,1,09,1,00800,1,02,1,00,1",,"01,9",,,,"99999,9,10112,1","2,1,014,1,+002,1","02,1","SYN124AAXX  01031 76458 21566 73302 10279 20222 30112 40116 52014 70255 82920 90250 333 07220 30/// 57924 58002 69907 82924 85461;","Q01  00002PRCP03"
"76458099999","2005-08-01T06:00:00","4","23.2","-106.4166666","4.0","COLONIA JUAN CARRASCO MAZATLAN SIN., MX","FM-12","99999","V020","050,1,N,0020,1","00750,1,9,N","012000,1,N,1","+0284,1","+0223,1","10131,1",,,,,,"06,1,+00750,1,06,1",,,"07,99,1,06,1,04,1,00800,1,00,1,03,1","0456,9","01,9",,"240,M,+0340,1","240,N,+0268,1","99999,9,10126,1","0,1,014,1,-003,1",,"SYN130AAXX  01061 76458 32562 70502 10284 20223 30126 40131 50014 86403 90547 333 0/6/9 10340 20268 30/// 55076 57669 59003 86625 81068;",
"76458099999","2005-08-01T09:00:00","4","23.2","-106.4166666","4.0","COLONIA JUAN CARRASCO MAZATLAN SIN., MX","FM-12","99999","V020","120,1,N,0020,1","03600,1,9,N","012000,1,N,1","+0284,1","+0241,1","10113,1",,,,,,"07,1,+03600,1,04,1",,,"07,99,1,07,1,00,1,02250,1,02,1,00,1",,"01,9",,,,"99999,9,10108,1","6,1,018,1,-003,1",,"SYN106AAXX  01091 76458 32862 71202 10284 20241 30108 40113 56018 87020 90845 333 0//9/ 30/// 57499 59003 87462;",
"76458099999","2005-08-01T12:00:00","4","23.2","-106.4166666","4.0","COLONIA JUAN CARRASCO MAZATLAN SIN., MX","FM-12","99999","V020","060,1,N,0020,1","01800,1,9,N","008000,1,N,1","+0276,1","+0223,1","10113,1","24,0000,9,1",,,,,"05,1,+01800,1,03,1",,,"07,99,1,05,1,01,1,02250,1,06,1,06,1",,"01,9","999,+0250,1","120,N,+0270,1","240,M,+0340,1","99999,9,10108,1","4,1,000,1,-004,1",,"SYN118AAXX  01121 76458 32858 70602 10276 20223 30108 40113 54000 85166 91140 333 10340 20270 30250 59004 70000 85356 82070;",
"76458099999","2005-08-01T15:00:00","4","23.2","-106.4166666","4.0","COLONIA JUAN CARRASCO MAZATLAN SIN., MX","FM-12","99999","V020","090,1,N,0030,1","00870,1,9,N","020000,1,N,1","+0292,1","+0223,1","10127,1",,,,,,"05,1,+00870,1,06,1",,,"06,99,1,05,1,05,1,00800,1,03,1,99,9",,"01,9",,,,"99999,9,10123,1","1,1,015,1,-004,1",,"SYN112AAXX  01151 76458 32570 60903 10292 20223 30123 40127 51015 8553/ 91440 333 0/59/ 30/// 57650 59004 85629 81356;",
"76458099999","2005-08-01T21:00:00","4","23.2","-106.4166666","4.0","COLONIA JUAN CARRASCO MAZATLAN SIN., MX","FM-12","99999","V020","210,1,N,0020,1","22000,1,9,N","010000,1,N,1","+0330,1","+0265,1","10114,1",,,,,,"00,1,+99999,9,99,9",,,"00,99,1,00,1,00,1,99999,9,00,1,00,1",,"01,9",,,,"99999,9,10110,1","4,1,000,1,+020,1",,"SYN082AAXX  01211 76458 32960 02102 10330 20265 30110 40114 54015 92050 333 30/// 58020;",
"76458099999","2005-08-02T09:00:00","4","23.2","-106.4166666","4.0","COLONIA JUAN CARRASCO MAZATLAN SIN., MX","FM-12","99999","V020","060,1,N,0030,1","22000,1,9,N","010000,1,N,1","+0240,1","+0224,1","10129,1",,,,,,"04,1,+00210,1,06,1",,,"04,99,1,04,1,05,1,99999,9,00,1,00,1",,"01,9",,,,"99999,9,10124,1","7,1,020,1,+016,1",,"SYN100AAXX  02091 76458 32960 40603 10240 20224 30124 40129 57020 84500 90858 333 0/600 30/// 58016 84607;",
"76458099999","2005-08-02T15:00:00","4","23.2","-106.4166666","4.0","COLONIA JUAN CARRASCO MAZATLAN SIN., MX","FM-12","99999","V020","360,1,N,0030,1","22000,1,9,N","020000,1,N,1","+0262,1","+0223,1","10143,1",,,,,,"04,1,+01800,1,03,1",,,"04,99,1,04,1,99,9,02250,1,03,1,99,9",,"09,9",,,,"99999,9,10138,1","3,1,009,1,+015,1",,"SYN094AAXX  02151 76458 32870 43603 10262 20223 30138 40143 53009 84/3/ 91440 333 31/// 58015 84356;",
"76458099999","2005-08-02T21:00:00","4","23.2","-106.4166666","4.0","COLONIA JUAN CARRASCO MAZATLAN SIN., MX","FM-12","99999","V020","240,1,N,0040,1","01200,1,C,N","020000,1,N,1","+0311,1","+0215,1","10130,1",,,,,,"01,1,+00660,1,09,1",,,"06,99,1,06,1,04,1,01250,1,06,1,00,1",,"01,9",,,,"99999,9,10126,1","7,1,021,1,+016,1",,"SYN112AAXX  02211 76458 32670 62404 10311 20215 30126 40130 57021 86460 92040 333 0/19/ 30/// 57915 58016 81922 95354;",
"76458099999","2005-08-03T00:00:00","4","23.2","-106.4166666","4.0","COLONIA JUAN CARRASCO MAZATLAN SIN., MX","FM-12","99999","V020","290,1,N,0030,1","09000,1,C,N","020000,1,N,1","+0306,1","+0232,1","10122,1","24,0107,9,1",,,,,"01,1,+00930,1,09,1",,,"06,99,1,01,1,03,1,00800,1,00,1,08,1",,"01,9",,"120,M,+0349,1","180,N,+0230,1","99999,9,10118,1","6,1,008,1,+020,1",,"SYN130AAXX  03001 76458 32570 62903 10306 20232 30118 40122 56008 81308 92345 333 0/1/9 10349 20230 30/// 57913 58020 70107 81931 85268;",
"76458099999","2005-08-03T03:00:00","4","23.2","-106.4166666","4.0","COLONIA JUAN CARRASCO MAZATLAN SIN., MX","FM-12","99999","V020","270,1,N,0020,1","22000,1,9,N","010000,1,N,1","+0291,1","+0239,1","10123,1",,,,,,"00,1,+99999,9,99,9",,,"00,99,1,00,1,00,1,99999,9,00,1,00,1",,"01,9",,,,"99999,9,10119,1","3,1,001,1,-019,1",,"SYN082AAXX  03031 76458 32960 02702 10291 20239 30119 40123 53001 90245 333 30/// 59019;",
"76458099999","2005-08-03T06:00:00","4","23.2","-106.4166666","4.0","COLONIA JUAN CARRASCO MAZATLAN SIN., MX","FM-12","99999","V020","310,1,N,0020,1","22000,1,9,N","010000,1,N,1","+0285,1","+0246,1","10131,1",,,,,,"00,1,+99999,9,99,9",,,"00,99,1,00,1,00,1,99999,9,00,1,00,1",,"01,9",,"240,M,+0349,1","240,N,+0230,1","99999,9,10127,1","2,1,008,1,-017,1",,"SYN094AAXX  03061 76458 32960 03102 10285 20246 30127 40131 52008 90542 333 10349 20230 30/// 59017;",
"76458099999","2005-08-03T15:00:00","4","23.2","-106.4166666","4.0","COLONIA JUAN CARRASCO MAZATLAN SIN., MX","FM-12","99999","V020","360,1,N,0020,1","99999,9,9,N","020000,1,N,1","+0284,1","+0243,1","10128,1",,,,,,"01,1,+00510,1,08,1",,,"05,99,1,01,1,02,1,00450,1,99,9,05,1",,"01,9",,,,"99999,9,10123,1","1,1,009,1,-015,1",,"SYN112AAXX  03151 76458 32470 53602 10284 20243 30123 40128 51009 812/5 91440 333 015/9 30/// 51856 59015 81817 84070;",
"76458099999","2005-08-03T18:00:00","4","23.2","-106.4166666","4.0","COLONIA JUAN CARRASCO MAZATLAN SIN., MX","FM-12","99999","V020","250,1,N,0040,1","00750,1,C,N","020000,1,N,1","+0308,1","+0256,1","10124,1",,,,,,"02,1,+00660,1,08,1","02,1,+01500,1,03,1",,"06,99,1,06,1,02,1,00800,1,06,1,05,1",,"01,9",,"120,M,+0338,1","240,N,+0250,1","99999,9,10120,1","1,1,003,1,-027,1",,"SYN130AAXX  03181 76458 32570 62504 10308 20256 30120 40124 51003 86265 91740 333 0/599 10338 20250 30/// 57855 59027 82822 82350 82070;",
"76458099999","2005-08-04T03:00:00","4","23.2","-106.4166666","4.0","COLONIA JUAN CARRASCO MAZATLAN SIN., MX","FM-12","99999","V020","270,1,N,0040,1","22000,1,9,N","010000,1,N,1","+0292,1","+0255,1","10114,1",,,,,,"00,1,+99999,9,99,9",,,"00,99,1,00,1,00,1,99999,9,00,1,00,1",,"01,9",,,,"99999,9,10109,1","0,1,008,1,-010,1",,"SYN082AAXX  04031 76458 32960 02704 10292 20255 30109 40114 50008 90245 333 30/// 59010;",
"76458099999","2005-08-04T12:00:00","4","23.2","-106.4166666","4.0","COLONIA JUAN CARRASCO MAZATLAN SIN., MX","FM-12","99999","V020","350,1,N,0020,1","22000,1,9,N","008000,1,N,1","+0250,1","+0220,1","10116,1","24,0000,9,1",,,,,"00,1,+99999,9,99,9",,,"00,99,1,00,1,00,1,99999,9,00,1,00,1",,"01,9","999,+0225,1","120,N,+0242,1","240,M,+0334,1","99999,9,10112,1","5,1,002,1,-002,1",,"SYN100AAXX  04121 76458 32958 03502 10250 20220 30112 40116 55002 91140 333 10334 20242 30225 59002 70000;","Q01  00002PRCP24"
"76458099999","2005-08-04T15:00:00","4","23.2","-106.4166666","4.0","COLONIA JUAN CARRASCO MAZATLAN SIN., MX","FM-12","99999","V020","120,1,N,0010,1","22000,1,9,N","020000,1,N,1","+0288,1","+0236,1","10116,1",,,,,,"01,1,+06000,1,00,1",,,"01,99,1,00,1,99,9,99999,9,99,9,01,1",,"01,9",,,,"99999,9,10111,1","0,1,001,1,-012,1",,"SYN094AAXX  04151 76458 32970 11201 10288 20236 30111 40116 50001 80//1 91440 333 30/// 59012 81070;",
"76458099999","2005-08-04T18:00:00","4","23.2","-106.4166666","4.0","COLONIA JUAN CARRASCO MAZATLAN SIN., MX","FM-12","99999","V020","270,1,N,0040,1","22000,1,9,N","020000,1,N,1","+0312,1","+0236,1","10115,1",,,,,,"00,1,+99999,9,99,9",,,"00,99,1,00,1,00,1,99999,9,00,1,00,1",,"01,9",,"120,M,+0328,1","240,N,+0242,1","99999,9,10110,1","8,1,001,1,-010,1",,"SYN094AAXX  04181 76458 32970 02704 10312 20236 30110 40115 58001 91747 333 10328 20242 30/// 59010;",
"76458099999","2005-08-04T21:00:00","4","23.2","-106.4166666","4.0","COLONIA JUAN CARRASCO MAZATLAN SIN., MX","FM-12","99999","V020","030,1,N,0130,1","22000,1,9,N","000300,1,N,1","+9999,9","+9999,9","10104,1",,,,,,"01,1,+00690,1,08,1",,,"01,99,1,01,1,02,1,00800,1,00,1,01,1",,"01,9",,,,"99999,9,10100,1","5,1,010,1,-009,1",,"SYN106AAXX  04211 76458 32503 10313 20258 30100 40104 55010 81201 92045 333 0/1/9 30/// 57819 59009 81823 81068;",
"76458099999","2005-08-05T15:00:00","4","23.2","-106.4166666","4.0","COLONIA JUAN CARRASCO MAZATLAN SIN., MX","FM-12","99999","V020","120,1,N,0020,1","22000,1,9,N","020000,1,N,1","+0294,1","+0263,1","10129,1",,,,,,"00,1,+99999,9,99,9",,,"00,99,1,00,1,00,1,99999,9,00,1,00,1",,"01,9",,,,"99999,9,10124,1","2,1,009,1,+013,1",,"SYN082AAXX  05151 76458 32970 01202 10294 20263 30124 40129 52009 91435 333 30/// 58013;",
"76458099999","2005-08-05T18:00:00","4","23.2","-106.4166666","4.0","COLONIA JUAN CARRASCO MAZATLAN SIN., MX","FM-12","99999","V020","240,1,N,0030,1","22000,1,9,N","020000,1,N,1","+0315,1","+9999,9","10122,1",,,,,,"02,1,+00660,1,08,1",,,"03,99,1,03,1,02,1,00800,1,00,1,09,1",,"01,9",,"120,M,+0340,1","240,N,+0266,1","99999,9,10118,1","6,1,006,1,+008,1",,"SYN124AAXX  05181 76458 32570 32403 10315 20337 30118 40122 56006 83209 91740 333 0/7/9 10340 20266 30/// 57876 58008 82822 81070;",
"76458099999","2005-08-05T21:00:00","4","23.2","-106.4166666","4.0","COLONIA JUAN CARRASCO MAZATLAN SIN., MX","FM-12","99999","V020","240,1,N,0030,1","22000,1,9,N","020000,1,N,1","+0323,1","+0271,1","10112,1",,,,,,"02,1,+00660,1,08,1",,,"04,99,1,04,1,02,1,00800,1,00,1,09,1",,"01,9",,,,"99999,9,10108,1","7,1,015,1,+008,1",,"SYN112AAXX  05211 76458 32570 42403 10323 20271 30108 40112 57015 84209 92045 333 0/1/9 30/// 57817 58008 82822 82070;",
"76458099999","2005-08-06T00:00:00","4","23.2","-106.4166666","4.0","COLONIA JUAN CARRASCO MAZATLAN SIN., MX","FM-12","99999","V020","230,1,N,0020,1","22000,1,9,N","020000,1,N,1","+0318,1","+0283,1","10100,1","24,0000,9,1",,,,,"02,1,+00630,1,06,1",,,"99,99,9,99,9,99,9,99999,9,00,1,00,1",,"01,9",,"120,M,+0340,1","180,N,+0226,1","99999,9,10096,1","3,1,011,1,-005,1",,"SYN136AAXX  06001 76458 32870 02302 10318 20283 30096 40100 53011 83223 92350 333 0/7/9 10340 20226 30/// 50862 57685 59005 70000 82621 81065;",
"76458099999","2005-08-06T03:00:00","4","23.2","-106.4166666","4.0","COLONIA JUAN CARRASCO MAZATLAN SIN., MX","FM-12","99999","V020","260,1,N,0020,1","22000,1,9,N","020000,1,N,1","+0300,1","+0272,1","10120,1",,,,,,"00,1,+99999,9,99,9",,,"00,99,1,00,1,00,1,99999,9,00,1,00,1",,"01,9",,,,"99999,9,10116,1","2,1,019,1,+019,1",,"SYN082AAXX  06031 76458 32970 02602 10300 20272 30116 40120 52019 90350 333 30/// 58019;",
"76458099999","2005-08-06T06:00:00","4","23.2","-106.4166666","4.0","COLONIA JUAN CARRASCO MAZATLAN SIN., MX","FM-12","99999","V020","180,1,N,0020,1","22000,1,9,N","010000,1,N,1","+0296,1","+0260,1","10134,1",,,,,,"03,1,+02400,1,03,1",,,"03,99,1,03,1,00,1,00450,1,05,1,00,1","0660,9","01,9",,"240,M,+0330,1","240,N,+0266,1","99999,9,10129,1","2,1,013,1,+009,1",,"SYN118AAXX  06061 76458 32460 31802 10296 20260 30129 40134 52013 83050 90558 333 0/090 10330 20266 30/// 55110 58009 83358;",
"76458099999","2005-08-06T09:00:00","4","23.2","-106.4166666","4.0","COLONIA JUAN CARRASCO MAZATLAN SIN., MX","FM-12","99999","V020","120,1,N,0010,1","22000,1,9,N","010000,1,N,1","+0286,1","+0265,1","10126,1",,,,,,"03,1,+00270,1,08,1",,,"03,99,1,03,1,02,1,00250,1,00,1,00,1",,"01,9",,,,"99999,9,10121,1","7,1,008,1,+009,1",,"SYN100AAXX  06091 76458 32360 31201 10286 20265 30121 40126 57008 83200 90858 333 0/300 30/// 58009 83809;",
"76458099999","2005-08-06T12:00:00","4","23.2","-106.4166666","4.0","COLONIA JUAN CARRASCO MAZATLAN SIN., MX","FM-12","99999","V020","360,1,N,0010,1","22000,1,9,N","008000,1,N,1","+0276,1","+0260,1","10122,1","24,0000,9,1",,,,,"00,1,+99999,9,99,9",,,"00,99,1,00,1,00,1,99999,9,00,1,00,1",,"01,9","999,+0260,1","120,N,+0264,1","240,M,+0330,1","99999,9,10118,1","5,1,003,1,+003,1",,"SYN100AAXX  06121 76458 32958 03601 10276 20260 30118 40122 55003 91145 333 10330 20264 30260 58003 70000;","Q01  00002PRCP24"
"76458099999","2005-08-06T15:00:00","4","23.2","-106.4166666","4.0","COLONIA JUAN CARRASCO MAZATLAN SIN., MX","FM-12","99999","V020","030,1,N,0010,1","22000,1,9,N","020000,1,N,1","+0298,1","+0264,1","10132,1",,,,,,"01,1,+00420,1,08,1",,,"01,99,1,01,1,02,1,00450,1,99,9,99,9",,"01,9",,,,"99999,9,10128,1","3,1,010,1,+004,1",,"SYN106AAXX  06151 76458 32470 10301 10298 20264 30128 40132 53010 812// 91440 333 051// 30/// 57813 58004 81814;",
"76458099999","2005-08-06T21:00:00","4","23.2","-106.4166666","4.0","COLONIA JUAN CARRASCO MAZATLAN SIN., MX","FM-12","99999","V020","240,1,N,0030,1","22000,1,9,N","020000,1,N,1","+0320,1","+0261,1","10108,1",,,,,,"02,1,+00660,1,08,1",,,"02,99,1,02,1,02,1,00800,1,00,1,00,1",,"01,9",,,,"99999,9,10104,1","7,1,017,1,-004,1",,"SYN106AAXX  06211 76458 32570 22403 10320 20261 30104 40108 57017 82200 92040 333 0/5// 30/// 57836 59004 82822;",
"76458099999","2005-08-07T06:00:00","4","23.2","-106.4166666","4.0","COLONIA JUAN CARRASCO MAZATLAN SIN., MX","FM-12","99999","V020","190,1,N,0020,1","22000,1,9,N","010000,1,N,1","+0278,1","+0226,1","10148,1",,,,,,"00,1,+99999,9,99,9",,,"00,99,1,00,1,00,1,99999,9,00,1,00,1","0210,9","01,9",,"240,M,+0340,1","240,N,+0264,1","99999,9,10143,1","3,1,028,1,+012,1",,"SYN100AAXX  07061 76458 32460 01902 10278 20226 30143 40148 53028 90550 333 10340 20264 30/// 55035 58012;",
"76458099999","2005-08-07T12:00:00","4","23.2","-106.4166666","4.0","COLONIA JUAN CARRASCO MAZATLAN SIN., MX","FM-12","99999","V020","360,1,N,0010,1","22000,1,9,N","008000,1,N,1","+0275,1","+0227,1","10123,1","24,0000,9,1",,,,,"07,1,+00660,1,09,1","02,1,+99999,9,03,1",,"99,99,9,04,1,03,1,00800,1,06,1,04,1",,"01,9","999,+0256,1","120,N,+0270,1","240,M,+0339,1","99999,9,10119,1","6,1,004,1,+001,1",,"SYN136AAXX  07121 76458 32558 43601 10275 20227 30119 40123 56004 84364 91140 333 0/799 10339 20270 30256 57975 58001 70000 87922 82354 81070;",
"76458099999","2005-08-07T15:00:00","4","23.2","-106.4166666","4.0","COLONIA JUAN CARRASCO MAZATLAN SIN., MX","FM-12","99999","V020","060,1,N,0020,1","00720,1,9,N","018000,1,N,1","+0285,1","+0236,1","10137,1",,,,,,"06,1,+00720,1,06,1",,,"08,99,1,99,9,02,1,00800,1,05,1,00,1",,"01,9",,,,"99999,9,10132,1","2,1,013,1,+004,1",,"SYN106AAXX  07151 76458 32568 80602 10285 20236 30132 40137 52013 88250 91440 333 0/69/ 30/// 58004 86624 82354;",
"76458099999","2005-08-07T18:00:00","4","23.2","-106.4166666","4.0","COLONIA JUAN CARRASCO MAZATLAN SIN., MX","FM-12","99999","V020","170,1,N,0020,1","03600,1,9,N","020000,1,N,1","+0311,1","+0239,1","10127,1",,,,,,"07,1,+03600,1,03,1",,,"07,99,1,07,1,00,1,02250,1,03,1,00,1",,"01,9",,"120,M,+0320,1","240,N,+0270,1","99999,9,10122,1","8,1,010,1,+001,1",,"SYN118AAXX  07181 76458 32870 71702 10311 20239 30122 40127 58010 87030 91745 333 0//9/ 10320 20270 30/// 57399 58001 87362;",
"76458099999","2005-08-07T21:00:00","4","23.2","-106.4166666","4.0","COLONIA JUAN CARRASCO MAZATLAN SIN., MX","FM-12","99999","V020","250,1,N,0040,1","22000,1,9,N","020000,1,N,1","+0325,1","+0249,1","10113,1",,,,,,"01,1,+00960,1,09,1",,,"02,99,1,01,1,03,1,00800,1,03,1,00,1",,"01,9",,,,"99999,9,10109,1","7,1,013,1,+005,1",,"SYN112AAXX  07211 76458 32570 22504 10325 20249 30109 40113 57013 81330 92047 333 0/19/ 30/// 57913 58005 81932 81362;",
"76458099999","2005-08-08T00:00:00","4","23.2","-106.4166666","4.0","COLONIA JUAN CARRASCO MAZATLAN SIN., MX","FM-12","99999","V020","360,1,N,0020,1","22000,1,9,N","018000,1,N,1","+0320,1","+0251,1","10115,1","24,0000,9,1",,,,,,,,"02,99,1,99,9,02,1,01250,1,01,1,00,1",,"01,9",,"120,M,+0350,1","180,N,+0270,1","99999,9,10110,1","2,1,010,1,+017,1",,"SYN124AAXX  08001 76458 32668 23602 10320 20251 30110 40115 52010 86210 92350 333 10350 20270 30/// 50142 57299 58017 70000 86460;",
"76458099999","2005-08-08T03:00:00","4","23.2","-106.4166666","4.0","COLONIA JUAN CARRASCO MAZATLAN SIN., MX","FM-12","99999","V020","320,1,N,0020,1","22000,1,9,N","010000,1,N,1","+0300,1","+0211,1","10112,1",,,,,,"00,1,+99999,9,99,9",,,"00,99,1,00,1,00,1,99999,9,00,1,00,1",,"01,9",,,,"99999,9,10108,1","3,1,002,1,-006,1",,"SYN082AAXX  08031 76458 32760 03202 10300 20211 30108 40112 53002 90250 333 30/// 59006;",
"76458099999","2005-08-08T09:00:00","4","23.2","-106.4166666","4.0","COLONIA JUAN CARRASCO MAZATLAN SIN., MX","FM-12","99999","V020","350,1,N,0010,1","22000,1,9,N","010000,1,N,1","+0274,1","+0236,1","10119,1",,,,,,"00,1,+99999,9,99,9",,,"00,99,1,00,1,00,1,99999,9,00,1,00,1",,"01,9",,,,"99999,9,10115,1","7,1,007,1,-007,1",,"SYN082AAXX  08091 76458 32960 03501 10274 20236 30115 40119 57007 90848 333 30/// 59007;",
"76458099999","2005-08-08T12:00:00","4","23.2","-106.4166666","4.0","COLONIA JUAN CARRASCO MAZATLAN SIN., MX","FM-12","99999","V020","999,9,C,0000,1","22000,1,9,N","008000,1,N,1","+0270,1","+0234,1","10121,1","24,0000,9,1",,,"9,1,06,1","9,1,06,1","03,1,+00450,1,09,1",,,"03,99,1,03,1,09,1,00450,1,99,9,99,9",,"01,9","999,+0245,1","120,N,+0266,1","240,M,+0320,1","99999,9,10116,1","5,1,001,1,-003,1","13,1","SYN130AAXX  08121 76458 31458 30000 10270 20234 30116 40121 55001 71399 839// 91140 333 0/6// 10320 20266 30245 57960 59003 70000 83915;",
"76458099999","2005-08-08T15:00:00","4","23.2","-106.4166666","4.0","COLONIA JUAN CARRASCO MAZATLAN SIN., MX","FM-12","99999","V020","030,1,N,0010,1","22000,1,9,N","020000,1,N,1","+0284,1","+0247,1","10130,1",,,,,,"02,1,+06000,1,02,1",,,"04,99,1,00,1,99,9,99999,9,99,9,08,1",,"01,9",,,,"99999,9,10126,1","2,1,010,1,-006,1",,"SYN100AAXX  08151 76458 32970 40301 10284 20247 30126 40130 52010 80//8 91440 333 30/// 59006 82270 82070;",
"76458099999","2005-08-08T18:00:00","4","23.2","-106.4166666","4.0","COLONIA JUAN CARRASCO MAZATLAN SIN., MX","FM-12","99999","V020","150,1,N,0040,1","00750,1,C,N","020000,1,N,1","+0317,1","+0252,1","10140,1",,,,,,"02,1,+00660,1,08,1","01,1,+99999,9,03,1",,"07,99,1,07,1,02,1,00800,1,05,1,04,1",,"01,9",,"120,M,+0336,1","240,N,+0262,1","99999,9,10136,1","2,1,010,1,+014,1",,"SYN130AAXX  08181 76458 32570 71504 10317 20252 30136 40140 52010 87254 91740 333 0/799 10336 20262 30/// 57875 58014 82822 81354 84070;",
"76458099999","2005-08-08T21:00:00","4","23.2","-106.4166666","4.0","COLONIA JUAN CARRASCO MAZATLAN SIN., MX","FM-12","99999","V020","150,1,N,0060,1","00660,1,9,N","020000,1,N,1","+0308,1","+0239,1","10133,1",,,,,,"06,1,+00660,1,06,1","01,1,+99999,9,03,1",,"08,99,1,99,9,05,1,00800,1,06,1,04,1",,"01,9",,,,"99999,9,10128,1","7,1,008,1,+019,1",,"SYN112AAXX  08211 76458 32570 81506 10308 20239 30128 40133 57008 88564 92045 333 0/699 30/// 58019 86622 81354 81070;",
"76458099999","2005-08-09T03:00:00","4","23.2","-106.4166666","4.0","COLONIA JUAN CARRASCO MAZATLAN SIN., MX","FM-12","99999","V020","320,1,N,0020,1","22000,1,9,N","017000,1,N,1","+0290,1","+0253,1","10129,1",,,,,,"00,1,+99999,9,99,9",,,"00,99,1,00,1,00,1,99999,9,00,1,00,1",,"01,9",,,,"99999,9,10125,1","2,1,007,1,+017,1",,"SYN082AAXX  09031 76458 32867 03202 10290 20253 30125 40129 52007 90250 333 30/// 58017;",
"76458099999","2005-08-09T12:00:00","4","23.2","-106.4166666","4.0","COLONIA JUAN CARRASCO MAZATLAN SIN., MX","FM-12","99999","V020","999,9,C,0000,1","22000,1,9,N","008000,1,N,1","+0270,1","+0238,1","10134,1","24,0000,9,1",,,,,"03,1,+01800,1,03,1",,,"03,99,1,03,1,99,9,02250,1,03,1,99,9",,"01,9","999,+0245,1","120,N,+0266,1","240,M,+0335,1","99999,9,10130,1","9,9,999,9,+014,1",,"SYN112AAXX  09121 76458 32858 30000 10270 20238 30130 40134 5//// 83/3/ 91140 333 10335 20266 30245 58014 70000 83356;",
"76458099999","2005-08-09T15:00:00","4","23.2","-106.4166666","4.0","COLONIA JUAN CARRASCO MAZATLAN SIN., MX","FM-12","99999","V020","360,1,N,0010,1","22000,1,9,N","020000,1,N,1","+0290,1","+0236,1","10141,1",,,,,,"01,1,+00690,1,08,1",,,"03,99,1,01,1,02,1,00800,1,03,1,99,9",,"01,9",,,,"99999,9,10136,1","1,1,006,1,+011,1",,"SYN100AAXX  09151 76458 32570 33601 10290 20236 30136 40141 51006 8123/ 91440 333 30/// 58011 81823 81356;",
"76458099999","2005-08-09T18:00:00","4","23.2","-106.4166666","4.0","COLONIA JUAN CARRASCO MAZATLAN SIN., MX","FM-12","99999","V020","240,1,N,0040,1","22000,1,9,N","020000,1,N,1","+0319,1","+0240,1","10147,1",,,,,,"01,1,+00660,1,08,1",,,"02,99,1,02,1,02,1,00800,1,05,1,00,1",,"01,9",,"120,M,+0342,1","240,N,+0260,1","99999,9,10142,1","2,1,006,1,+006,1",,"SYN124AAXX  09181 76458 32570 22404 10319 20240 30142 40147 52006 82250 91740 333 0/69/ 10342 20260 30/// 57865 58006 81822 81354;",
"76458099999","2005-08-10T00:00:00","4","23.2","-106.4166666","4.0","COLONIA JUAN CARRASCO MAZATLAN SIN., MX","FM-12","99999","V020","270,1,N,0040,1","22000,1,9,N","020000,1,N,1","+0322,1","+0254,1","10130,1","24,0000,9,1",,,,,"02,1,+00840,1,09,1",,,"03,99,1,02,1,03,1,00800,1,00,1,08,1",,"01,9",,"120,M,+0340,1","180,N,+0260,1","99999,9,10125,1","5,1,007,1,-003,1",,"SYN136AAXX  10001 76458 32570 32704 10322 20254 30125 40130 55007 82308 92345 333 021/9 10340 20260 30/// 50591 57911 59003 70000 82928 81268;",
"76458099999","2005-08-10T03:00:00","4","23.2","-106.4166666","4.0","COLONIA JUAN CARRASCO MAZATLAN SIN., MX","FM-12","99999","V020","270,1,N,0030,1","22000,1,9,N","010000,1,N,1","+0301,1","+0252,1","10136,1",,,,,,"03,1,+05400,1,00,1",,,"03,99,1,00,1,00,1,99999,9,00,1,06,1",,"01,9",,,,"99999,9,10132,1","2,1,006,1,+007,1",,"SYN106AAXX  10031 76458 32960 32703 10301 20252 30132 40136 52006 80006 90245 333 0///9 30/// 57099 58007 83068;",
"76458099999","2005-08-10T18:00:00","4","23.2","-106.4166666","4.0","COLONIA JUAN CARRASCO MAZATLAN SIN., MX","FM-12","99999","V020","250,1,N,0050,1","22000,1,9,N","020000,1,N,1","+0318,1","+0268,1","10140,1",,,,,,"01,1,+00660,1,08,1","01,1,+99999,9,01,1",,"02,99,1,02,1,02,1,00800,1,00,1,09,1",,"01,9",,"120,M,+0333,1","240,N,+0262,1","99999,9,10136,1","6,1,001,1,-006,1",,"SYN123AAXX  10181 76458 32570 22505 10318 20268 30136 40140 56001 82209 91740 333 0/1/9 10333 20262 30/// 57816 59006 81822 8117;",
"76458099999","2005-08-10T21:00:00","4","23.2","-106.4166666","4.0","COLONIA JUAN CARRASCO MAZATLAN SIN., MX","FM-12","99999","V020","240,1,N,0050,1","22000,1,9,N","020000,1,N,1","+0317,1","+0262,1","10124,1",,,,,,"01,1,+00660,1,09,1",,,"03,99,1,03,1,02,1,00800,1,00,1,09,1",,"01,9",,,,"99999,9,10120,1","7,1,016,1,-012,1",,"SYN112AAXX  10211 76458 32570 32405 10317 20262 30120 40124 57016 83209 92040 333 0/1/9 30/// 57915 59012 81922 82170;",
"76458099999","2005-08-11T15:00:00","4","23.2","-106.4166666","4.0","COLONIA JUAN CARRASCO MAZATLAN SIN., MX","FM-12","99999","V020","150,1,N,0010,1","01800,1,C,N","020000,1,N,1","+0282,1","+0227,1","10145,1",,,,,,"01,1,+00660,1,08,1","04,1,+01800,1,03,1",,"07,99,1,01,1,02,1,00800,1,03,1,06,1",,"01,9",,,,"99999,9,10140,1","1,1,024,1,+002,1",,"SYN118AAXX  11151 76458 32570 71501 10282 20227 30140 40145 51024 81236 91440 333 01599 30/// 57856 58002 81822 84356 82070;",
"76458099999","2005-08-11T21:00:00","4","23.2","-106.4166666","4.0","COLONIA JUAN CARRASCO MAZATLAN SIN., MX","FM-12","99999","V020","210,1,N,0030,1","03600,1,C,N","018000,1,N,1","+0326,1","+0259,1","10121,1",,,,"9,1,03,1","0,1,03,1","03,1,+00840,1,09,1","01,1,+03600,1,03,1",,"05,99,1,03,1,09,1,00800,1,03,1,01,1",,"01,9",,,,"99999,9,10117,1","7,1,023,1,-003,1","17,1","SYN124AAXX  11211 76458 31568 52103 10326 20259 30117 40121 57023 71790 83931 92047 333 07899 30/// 57981 59003 83928 81362 81068;",
"76458099999","2005-08-12T00:00:00","4","23.2","-106.4166666","4.0","COLONIA JUAN CARRASCO MAZATLAN SIN., MX","FM-12","99999","V020","200,1,N,0020,1","03600,1,C,N","018000,1,N,1","+0300,1","+0252,1","10110,1","24,0000,9,1",,,,,"03,1,+00780,1,08,1","01,1,+03600,1,02,1",,"06,99,1,03,1,08,1,01750,1,03,1,02,1",,"01,9",,"120,M,+0350,1","180,N,+0264,1","99999,9,10108,1","3,1,008,1,+000,1",,"SYN136AAXX  12001 76458 32768 62002 10300 20252 30108 40110 53008 7/790 83832 92350 333 10350 20264 30/// 57882 58000 70000 83826 81262 81067;",
"76458099999","2005-08-12T15:00:00","4","23.2","-106.4166666","4.0","COLONIA JUAN CARRASCO MAZATLAN SIN., MX","FM-12","99999","V020","030,1,N,0030,1","00600,1,9,N","010000,1,N,1","+0260,1","+0233,1","10140,1",,,,"0,1,03,1","0,1,03,1","02,1,+00330,1,06,1","04,1,+00600,1,09,1",,"07,99,1,06,1,09,1,00450,1,03,1,99,9",,"01,9",,,,"99999,9,10136,1","2,1,017,1,-004,1","17,1","SYN124AAXX  12151 76458 31460 70303 10260 20233 30136 40140 52017 71700 8693/ 91440 333 0/59/ 30/// 57951 59004 84920 82611 81356;",
"76458099999","2005-08-12T18:00:00","4","23.2","-106.4166666","4.0","COLONIA JUAN CARRASCO MAZATLAN SIN., MX","FM-12","99999","V020","260,1,N,0030,1","00420,1,C,N","016000,1,N,1","+0288,1","+0249,1","10144,1",,,,,,"04,1,+00660,1,06,1",,,"07,99,1,07,1,04,1,00450,1,06,1,00,1",,"01,9",,"120,M,+0316,1","240,N,+0254,1","99999,9,10139,1","1,1,003,1,-001,1",,"SYN118AAXX  12181 76458 32466 72603 10288 20249 30139 40144 51003 87460 91740 333 0/39/ 10316 20254 30/// 59001 84622 83354;",
"76458099999","2005-08-12T21:00:00","4","23.2","-106.4166666","4.0","COLONIA JUAN CARRASCO MAZATLAN SIN., MX","FM-12","99999","V020","160,1,N,0020,1","99999,9,9,N","020000,1,N,1","+0300,1","+0249,1","10134,1",,,,,,"04,1,+00630,1,03,1",,,"06,99,1,99,9,02,1,99999,9,06,1,00,1",,"01,9",,,,"99999,9,10129,1","7,1,010,1,+002,1",,"SYN106AAXX  12211 76458 32970 61602 10300 20249 30129 40134 53000 87260 92050 333 0/19/ 30/// 58002 84321 83055;",
"76458099999","2005-08-13T18:00:00","4","23.2","-106.4166666","4.0","COLONIA JUAN CARRASCO MAZATLAN SIN., MX","FM-12","99999","V020","160,1,N,0030,1","00750,1,C,N","020000,1,N,1","+0312,1","+0247,1","10119,1",,,,,,"01,1,+00660,1,08,1","02,1,+99999,9,03,1",,"05,99,1,05,1,02,1,00800,1,05,1,06,1",,"01,9",,"120,M,+0329,1","240,N,+0258,1","99999,9,10114,1","6,1,004,1,-025,1",,"SYN130AAXX  13181 76458 32570 51603 10312 20247 30114 40119 56004 85256 91740 333 0/199 10329 20258 30/// 57916 59025 81822 82354 82170;",
"76458099999","2005-08-14T03:00:00","4","23.2","-106.4166666","4.0","COLONIA JUAN CARRASCO MAZATLAN SIN., MX","FM-12","99999","V020","320,1,N,0020,1","22000,1,9,N","020000,1,N,1","+0396,1","+0245,1","10092,1",,,,,,"00,1,+99999,9,99,9",,,"00,99,1,00,1,00,1,99999,9,00,1,00,1",,"01,9",,,,"99999,9,10088,1","2,1,006,1,-003,1",,"SYN082AAXX  14031 76458 32970 03202 10396 20245 30088 40092 52006 90350 333 30/// 59003;",
"76458099999","2005-08-14T06:00:00","4","23.2","-106.4166666","4.0","COLONIA JUAN CARRASCO MAZATLAN SIN., MX","FM-12","99999","V020","250,1,N,0020,1","22000,1,9,N","008000,1,N,1","+0293,1","+0239,1","10101,1",,,,,,"00,1,+99999,9,99,9",,,"00,99,1,00,1,00,1,99999,9,00,1,00,1","0576,9","01,9",,"240,M,+0340,1","240,N,+0258,1","99999,9,10096,1","2,1,008,1,+999,9",,"SYN100AAXX  14061 76458 32958 02502 10293 20239 30096 40101 52008 90545 333 10340 20258 30/// 55096 58///;",
"76458099999","2005-08-14T09:00:00","4","23.2","-106.4166666","4.0","COLONIA JUAN CARRASCO MAZATLAN SIN., MX","FM-12","99999","V020","999,9,C,0000,1","22000,1,9,N","008000,1,N,1","+0278,1","+0247,1","10097,1",,,,,,"03,1,+05400,1,00,1",,,"03,99,1,00,1,00,1,99999,9,00,1,06,1",,"01,9",,,,"99999,9,10092,1","7,1,004,1,+999,9",,"SYN106AAXX  14091 76458 32958 30000 10278 20247 30092 40097 57004 80006 90848 333 0///9 30/// 57099 58/// 83068;",
"76458099999","2005-08-14T12:00:00","4","23.2","-106.4166666","4.0","COLONIA JUAN CARRASCO MAZATLAN SIN., MX","FM-12","99999","V020","999,9,C,0000,1","00420,1,C,N","008000,1,N,1","+0278,1","+0244,1","10094,1","24,0000,9,1",,,,,"03,1,+00720,1,06,1","01,1,+99999,9,03,1",,"07,99,1,07,1,05,1,00450,1,06,1,08,1",,"01,9","999,+0241,1","120,N,+0245,1","240,M,+0340,1","99999,9,10090,1","6,1,002,1,-021,1",,"SYN130AAXX  14121 76458 32458 70000 10278 20244 30090 40094 56002 87568 91140 333 0/699 10340 20245 30241 59021 70000 83624 81354 83270;",
"76458099999","2005-08-14T15:00:00","4","23.2","-106.4166666","4.0","COLONIA JUAN CARRASCO MAZATLAN SIN., MX","FM-12","99999","V020","090,1,N,0020,1","22000,1,9,N","020000,1,N,1","+0299,1","+0248,1","10106,1",,,,,,"01,1,+00660,1,09,1","02,1,+99999,9,03,1",,"04,99,1,04,1,03,1,00450,1,05,1,06,1",,"01,9",,,,"99999,9,10102,1","2,1,012,1,-016,1",,"SYN118AAXX  14151 76458 32470 40902 10299 20248 30102 40106 52012 84356 91440 333 0/499 30/// 57946 59016 81922 82354 81070;",
"76458099999","2005-08-14T18:00:00","4","23.2","-106.4166666","4.0","COLONIA JUAN CARRASCO MAZATLAN SIN., MX","FM-12","99999","V020","170,1,N,0030,1","22000,1,9,N","020000,1,N,1","+0322,1","+0250,1","10105,1",,,,,,"02,1,+00900,1,08,1",,,"02,99,1,02,1,02,1,00800,1,00,1,00,1",,"01,9",,"120,M,+0335,1","240,N,+0245,1","99999,9,10101,1","3,1,001,1,-013,1",,"SYN118AAXX  14181 76458 32570 21703 10322 20250 30101 40105 53001 82200 91745 333 0/1// 10335 20245 30/// 57812 59013 82830;",
"76458099999","2005-08-14T21:00:00","4","23.2","-106.4166666","4.0","COLONIA JUAN CARRASCO MAZATLAN SIN., MX","FM-12","99999","V020","210,1,N,0040,1","22000,1,9,N","020000,1,N,1","+0326,1","+0245,1","10096,1",,,,,,"01,1,+01020,1,09,1",,,"02,99,1,01,1,03,1,01250,1,00,1,01,1",,"01,9",,,,"99999,9,10092,1","7,1,009,1,+000,1",,"SYN112AAXX  14211 76458 32670 22104 10326 20245 30092 40096 57009 81301 92045 333 0/1/9 30/// 57912 58000 81934 81068;",
"76458099999","2005-08-15T09:00:00","4","23.2","-106.4166666","4.0","COLONIA JUAN CARRASCO MAZATLAN SIN., MX","FM-12","99999","V020","060,1,N,0020,1","22000,1,9,N","010000,1,N,1","+0282,1","+0247,1","10120,1",,,,,,"04,1,+00450,1,08,1",,,"04,99,1,04,1,02,1,00450,1,00,1,00,1",,"01,9",,,,"99999,9,10116,1","7,1,009,1,+024,1",,"SYN100AAXX  15091 76458 32460 40602 10282 20247 30116 40120 57009 84200 90858 333 0/100 30/// 58024 84815;",
"76458099999","2005-08-15T15:00:00","4","23.2","-106.4166666","4.0","COLONIA JUAN CARRASCO MAZATLAN SIN., MX","FM-12","99999","V020","120,1,N,0040,1","09000,1,C,N","020000,1,N,1","+0284,1","+0247,1","10128,1",,,,,,"01,1,+00450,1,08,1","03,1,+02400,1,04,1",,"05,99,1,01,1,02,1,00450,1,02,1,06,1",,"01,9",,,,"99999,9,10123,1","1,1,007,1,+022,1",,"SYN118AAXX  15151 76458 32470 51204 10284 20247 30123 40128 51007 81226 91440 333 0/699 30/// 57861 58022 81815 83458 81070;",
"76458099999","2005-08-15T21:00:00","4","23.2","-106.4166666","4.0","COLONIA JUAN CARRASCO MAZATLAN SIN., MX","FM-12","99999","V020","200,1,N,0030,1","22000,1,9,N","020000,1,N,1","+0320,1","+0254,1","10123,1",,,,,,"01,1,+00660,1,08,1","01,1,+99999,9,04,1",,"04,99,1,04,1,02,1,00800,1,05,1,06,1",,"01,9",,,,"99999,9,10118,1","6,1,008,1,+026,1",,"SYN118AAXX  15211 76458 32570 42003 10320 20254 31018 40123 56008 84256 92040 333 0/199 30/// 57816 58026 81822 81454 82170;",
"76458099999","2005-08-16T03:00:00","4","23.2","-106.4166666","4.0","COLONIA JUAN CARRASCO MAZATLAN SIN., MX","FM-12","99999","V020","300,1,N,0030,1","00600,1,9,N","010000,1,N,1","+0296,1","+0248,1","10120,1",,,,,,"05,1,+00600,1,08,1",,,"05,99,1,05,1,02,1,00800,1,00,1,00,1",,"01,9",,,,"99999,9,10116,1","2,1,009,1,+010,1",,"SYN100AAXX  16031 76458 32560 53003 10296 20248 30116 40120 52009 85200 90255 333 0/300 30/// 58010 85820;",
"76458099999","2005-08-16T09:00:00","4","23.2","-106.4166666","4.0","COLONIA JUAN CARRASCO MAZATLAN SIN., MX","FM-12","99999","V020","999,9,C,0000,1","00120,1,C,N","006000,1,N,1","+0236,1","+0223,1","10137,1","02,0370,9,1",,,"5,1,03,1","2,1,03,1","04,1,+00150,1,06,1",,,"08,99,1,08,1,09,1,00150,1,00,1,00,1",,"11,9",,,,"99999,9,10132,1","3,1,005,1,+016,1","53,1","SYN124AAXX  16091 76458 21256 80000 10236 20223 30132 40137 53005 75352 88900 90958 333 07600 32/// 57960 58016 60376 84605 84934;",
"76458099999","2005-08-16T12:00:00","4","23.2","-106.4166666","4.0","COLONIA JUAN CARRASCO MAZATLAN SIN., MX","FM-12","99999","V020","999,9,C,0000,1","00060,1,9,N","008000,1,N,1","+0240,1","+0235,1","10136,1","03,0130,9,1","06,0511,9,2","24,0506,9,2","6,1,06,1","6,1,06,1","08,1,+00060,1,06,1",,,"08,99,1,08,1,05,1,00075,1,99,9,99,9",,"01,9","999,+0220,1","120,N,+0226,1","240,M,+0348,1","99999,9,10131,1","7,1,001,1,+015,1","50,1","SYN142AAXX  16121 76458 01158 80000 10240 20235 30131 40136 57001 60511 75066 885// 91148 333 0/3// 10348 20226 30220 57639 58015 60137 70506 88602;",
"76458099999","2005-08-17T18:00:00","4","23.2","-106.4166666","4.0","COLONIA JUAN CARRASCO MAZATLAN SIN., MX","FM-12","99999","V020","210,1,N,0020,1","22000,1,9,N","020000,1,N,1","+0312,1","+0259,1","10122,1",,,,,,"04,1,+00600,1,08,1",,,"04,99,1,04,1,03,1,00800,1,00,1,00,1",,"01,9",,"120,M,+0335,1","240,N,+0261,1","99999,9,10117,1","1,1,006,1,-016,1",,"SYN118AAXX  17181 76458 32570 42102 10312 20259 30117 40122 51006 84300 91740 333 0/511 10335 20261 30/// 57855 59016 84820;",
"76458099999","2005-08-18T00:00:00","4","23.2","-106.4166666","4.0","COLONIA JUAN CARRASCO MAZATLAN SIN., MX","FM-12","99999","V020","270,1,N,0030,1","22000,1,9,N","020000,1,N,1","+0320,1","+0266,1","10083,1","24,0000,9,1",,,,,"02,1,+00750,1,08,1",,,"02,99,1,02,1,02,1,00800,1,00,1,00,1",,"01,9",,"120,M,+0342,1","180,N,+0261,1","99999,9,10078,1","7,1,018,1,-022,1",,"SYN124AAXX  18001 76458 32570 22703 10320 20266 30078 40083 57018 82200 92355 333 0/100 10342 20261 30/// 54811 59022 70000 82825;",
"76458099999","2005-08-18T03:00:00","4","23.2","-106.4166666","4.0","COLONIA JUAN CARRASCO MAZATLAN SIN., MX","FM-12","99999","V020","320,1,N,0030,1","22000,1,9,N","010000,1,N,1","+0300,1","+0260,1","10105,1",,,,,,"04,1,+00510,1,08,1",,,"04,99,1,04,1,02,1,00450,1,00,1,00,1",,"01,9",,,,"99999,9,10100,1","2,1,022,1,-011,1",,"SYN100AAXX  18031 76458 32460 43203 10300 20260 30100 40105 52022 84200 90258 333 0/300 30/// 59011 84817;",
"76458099999","2005-08-18T15:00:00","4","23.2","-106.4166666","4.0","COLONIA JUAN CARRASCO MAZATLAN SIN., MX","FM-12","99999","V020","120,1,N,0020,1","00390,1,9,N","020000,1,N,1","+0270,1","+0243,1","10110,1","01,0000,2,1",,,"5,1,03,1","9,1,03,1","06,1,+00390,1,05,1",,,"08,99,1,08,1,05,1,00450,1,99,9,99,9",,"01,9",,,,"99999,9,10106,1","2,1,015,1,-005,1","20,1","SYN124AAXX  18151 76458 11470 81202 10270 20243 30106 40110 52015 69905 72059 885// 91440 333 0/5// 30/// 57650 59005 86513 82920;",
"76458099999","2005-08-18T18:00:00","4","23.2","-106.4166666","4.0","COLONIA JUAN CARRASCO MAZATLAN SIN., MX","FM-12","99999","V020","330,1,N,0030,1","00180,1,9,N","010000,1,N,1","+0265,1","+0250,1","10116,1","03,0020,9,1","06,0030,9,1",,"6,1,06,1","5,1,06,1","08,1,+00180,1,06,1",,,"08,99,1,08,1,05,1,00150,1,99,9,99,9",,"09,9",,"120,M,+0295,1","240,N,+0260,1","99999,9,10111,1","0,1,005,1,-006,1","50,1","SYN136AAXX  18181 76458 01260 83303 10265 20250 30111 40116 50005 60027 75065 885// 91750 333 0/3// 10295 20260 31/// 57639 59006 60031 88606;",
"76458099999","2005-08-18T21:00:00","4","23.2","-106.4166666","4.0","COLONIA JUAN CARRASCO MAZATLAN SIN., MX","FM-12","99999","V020","320,1,N,0020,1","05400,1,9,N","015000,1,N,1","+0285,1","+0260,1","10087,1","03,0010,9,1",,,"5,1,03,1","6,1,03,1","07,1,+05400,1,02,1",,,"07,99,1,00,1,00,1,99999,9,00,1,08,1",,"09,9",,,,"99999,9,10083,1","7,1,029,1,-013,1","02,1","SYN118AAXX  18211 76458 21965 73202 10285 20260 30083 40087 57228 70256 80008 92047 333 0///9 31/// 57299 59013 60017 87268;",
"76458099999","2005-08-19T09:00:00","4","23.2","-106.4166666","4.0","COLONIA JUAN CARRASCO MAZATLAN SIN., MX","FM-12","99999","V020","060,1,N,0020,1","03600,1,C,N","010000,1,N,1","+0273,1","+0257,1","10093,1",,,,,,"02,1,+00210,1,08,1",,,"06,99,1,02,1,02,1,00250,1,03,1,00,1",,"09,9",,,,"99999,9,10089,1","4,1,000,1,-001,1",,"SYN112AAXX  19091 76458 32360 60602 10273 20257 30089 40093 54001 82230 90850 333 02590 31/// 57851 59001 82807 84358;",
"76458099999","2005-08-19T15:00:00","4","23.2","-106.4166666","4.0","COLONIA JUAN CARRASCO MAZATLAN SIN., MX","FM-12","99999","V020","030,1,N,0010,1","03600,1,C,N","010000,1,N,1","+0268,1","+0257,1","10112,1","03,0041,9,1",,,"5,1,03,1","5,1,03,1","02,1,+00120,1,08,1",,,"08,99,1,02,1,02,1,00150,1,02,1,99,9",,"11,9",,,,"99999,9,10107,1","3,1,009,1,+001,1",,"SYN124AAXX  19151 76458 11260 80301 10268 20257 30107 40112 53009 60047 72455 8222/ 91445 333 0/59/ 32/// 57856 58001 82804 86458;",
"76458099999","2005-08-19T18:00:00","4","23.2","-106.4166666","4.0","COLONIA JUAN CARRASCO MAZATLAN SIN., MX","FM-12","99999","V020","360,1,N,0020,1","99999,9,9,N","015000,1,N,1","+0282,1","+0270,1","10092,1",,,,,,,,,"07,99,1,01,1,07,1,99999,9,04,1,00,1",,"01,9",,"120,M,+0300,1","240,N,+0264,1","99999,9,10087,1","7,1,020,1,-424,1",,"SYN112AAXX  19181 76458 32965 73602 10282 20270 30087 40092 57020 81740 87020 333 0//9/ 10300 20264 30/// 59424 87454;",
"76458099999","2005-08-19T21:00:00","4","23.2","-106.4166666","4.0","COLONIA JUAN CARRASCO MAZATLAN SIN., MX","FM-12","99999","V020","250,1,N,0040,1","00420,1,C,N","020000,1,N,1","+0310,1","+0271,1","10081,1",,,,,,"01,1,+00660,1,08,1","02,1,+99999,9,03,1",,"06,99,1,06,1,03,1,00450,1,03,1,08,1",,"01,9",,,,"99999,9,10076,1","7,1,011,1,-007,1",,"SYN118AAXX  19211 76458 32470 62504 10310 20271 30076 40081 57011 86338 92040 333 0/399 30/// 57836 59007 81822 82354 83170;",
"76458099999","2005-08-20T00:00:00","4","23.2","-106.4166666","4.0","COLONIA JUAN CARRASCO MAZATLAN SIN., MX","FM-12","99999","V020","300,1,N,0040,1","22000,1,9,N","020000,1,N,1","+0316,1","+0258,1","10078,1","24,0052,9,1",,,,,"01,1,+02400,1,03,1",,,"03,99,1,99,9,00,1,99999,9,03,1,06,1",,"01,9",,"120,M,+0333,1","180,N,+0264,1","99999,9,10073,1","7,1,003,1,+011,1",,"SYN130AAXX  20001 76458 32970 33004 10316 20258 30073 40078 57003 80036 92348 333 0/099 10333 20264 30/// 5//// 58011 70052 81358 82072;",
"76458099999","2005-08-20T06:00:00","4","23.2","-106.4166666","4.0","COLONIA JUAN CARRASCO MAZATLAN SIN., MX","FM-12","99999","V020","300,1,N,0020,1","22000,1,9,N","010000,1,N,1","+0289,1","+0259,1","10099,1",,,,"9,1,06,1","9,1,06,1","01,1,+00360,1,09,1","01,1,+00390,1,06,1",,"03,99,1,02,1,09,1,00450,1,03,1,00,1","0324,9","01,9",,"240,M,+0333,1","240,N,+0260,1","99999,9,10095,1","2,1,022,1,+005,1","13,1","SYN148AAXX  20061 76458 31460 33002 10289 20259 30095 40099 52022 71399 82930 90547 333 0/79/ 10333 20260 30/// 55054 2//// 57979 58005 81912 81613 81362;",
"76458099999","2005-08-20T09:00:00","4","23.2","-106.4166666","4.0","COLONIA JUAN CARRASCO MAZATLAN SIN., MX","FM-12","99999","V020","120,1,N,0020,1","00240,1,9,N","010000,1,N,1","+0285,1","+0267,1","10093,1",,,,"9,1,03,1","9,1,03,1","02,1,+00210,1,09,1","04,1,+00240,1,06,1",,"07,99,1,06,1,09,1,00250,1,03,1,00,1",,"01,9",,,,"99999,9,10088,1","7,1,007,1,-001,1","13,1","SYN124AAXX  20091 76458 31360 71202 10285 20267 30088 40093 57007 71399 86930 90845 333 0/29/ 30/// 57929 59001 82907 84608 81364;",
"76458099999","2005-08-20T12:00:00","4","23.2","-106.4166666","4.0","COLONIA JUAN CARRASCO MAZATLAN SIN., MX","FM-12","99999","V020","360,1,N,0020,1","03600,1,9,N","008000,1,N,1","+0272,1","+0259,1","10085,1","02,0000,9,1",,,,,,,,"07,99,1,02,1,05,1,00150,1,03,1,06,1",,,,,,"99999,9,10080,1","6,1,008,1,+999,9",,"SYN072AAXX  20121 76458 12258 73602 10272 20259 30080 40085 56008 69906 82536;","Q01  00002PRCP02"
"76458099999","2005-08-20T15:00:00","4","23.2","-106.4166666","4.0","COLONIA JUAN CARRASCO MAZATLAN SIN., MX","FM-12","99999","V020","060,1,N,0030,1","22000,1,9,N","020000,1,N,1","+0286,1","+0251,1","10098,1",,,,,,"01,1,+00420,1,08,1",,,"01,99,1,01,1,02,1,00450,1,99,9,99,9",,"01,9",,,,"99999,9,10094,1","1,1,014,1,-013,1",,"SYN106AAXX  20151 76458 32470 10603 10286 20251 30094 40098 51014 812// 91445 333 015// 30/// 57858 59013 81814;",
"76458099999","2005-08-20T18:00:00","4","23.2","-106.4166666","4.0","COLONIA JUAN CARRASCO MAZATLAN SIN., MX","FM-12","99999","V020","240,1,N,0030,1","22000,1,9,N","020000,1,N,1","+0320,1","+0261,1","10091,1",,,,,,"01,1,+00660,1,08,1",,,"02,99,1,02,1,02,1,00800,1,00,1,09,1",,"01,9",,"120,M,+0347,1","240,N,+0264,1","99999,9,10087,1","6,1,007,1,+000,1",,"SYN124AAXX  20181 76458 32570 22403 10320 20261 30087 40091 56007 82209 91740 333 0/1/9 10347 20264 30/// 57816 58000 81822 81070;",
"76458099999","2005-08-21T03:00:00","4","23.2","-106.4166666","4.0","COLONIA JUAN CARRASCO MAZATLAN SIN., MX","FM-12","99999","V020","300,1,N,0040,1","22000,1,9,N","010000,1,N,1","+0307,1","+0274,1","10074,1",,,,,,"00,1,+99999,9,99,9",,,"00,99,1,00,1,00,1,99999,9,00,1,00,1",,"01,9",,,,"99999,9,10069,1","3,1,008,1,-005,1",,"SYN082AAXX  21031 76458 32960 03004 10307 20274 30069 40074 53008 90245 333 30/// 59005;",
"76458099999","2005-08-21T09:00:00","4","23.2","-106.4166666","4.0","COLONIA JUAN CARRASCO MAZATLAN SIN., MX","FM-12","99999","V020","060,1,N,0010,1","22000,1,9,N","010000,1,N,1","+0291,1","+0270,1","10070,1",,,,,,"01,1,+02700,1,03,1",,,"01,99,1,01,1,00,1,99999,9,03,1,00,1",,"01,9",,,,"99999,9,10066,1","7,1,008,1,-020,1",,"SYN100AAXX  21091 76458 32960 10601 10291 20270 30066 40070 57008 81030 90854 333 0/090 30/// 59020 81359;",
"76458099999","2005-08-21T12:00:00","4","23.2","-106.4166666","4.0","COLONIA JUAN CARRASCO MAZATLAN SIN., MX","FM-12","99999","V020","090,1,N,0020,1","02400,1,9,N","010000,1,N,1","+0286,1","+0273,1","10082,1","24,0000,9,1",,,,,"08,1,+02400,1,04,1",,,"08,99,1,08,1,99,9,02250,1,02,1,99,9",,"01,9","999,+0265,1","120,N,+0282,1","240,M,+0346,1","99999,9,10077,1","3,1,011,1,-003,1",,"SYN112AAXX  21121 76458 32860 80902 10286 20273 30077 40082 53011 88/2/ 91140 333 10346 20282 30265 59003 70000 88458;",
"76458099999","2005-08-21T15:00:00","4","23.2","-106.4166666","4.0","COLONIA JUAN CARRASCO MAZATLAN SIN., MX","FM-12","99999","V020","120,1,N,0020,1","00300,1,9,N","008000,1,N,1","+0307,1","+0283,1","10095,1",,,,"4,1,03,1","4,1,03,1","06,1,+00300,1,08,1",,,"06,99,1,06,1,02,1,00250,1,00,1,00,1",,"01,9",,,,"99999,9,10090,1","2,1,013,1,-004,1","05,1","SYN112AAXX  21151 76458 31358 61202 10307 20283 30090 40095 52013 70544 86200 91447 333 0/3// 30/// 57839 59004 86810;",
"76458099999","2005-08-21T18:00:00","4","23.2","-106.4166666","4.0","COLONIA JUAN CARRASCO MAZATLAN SIN., MX","FM-12","99999","V020","240,1,N,0020,1","22000,1,9,N","020000,1,N,1","+0331,1","+0285,1","10096,1",,,,,,"04,1,+00660,1,08,1",,,"04,99,1,04,1,02,1,00450,1,00,1,00,1",,"01,9",,"120,M,+0351,1","240,N,+0282,1","99999,9,10092,1","1,1,002,1,+005,1",,"SYN118AAXX  21181 76458 32470 42402 10331 20285 30092 40096 51002 84200 91740 333 0/3// 10351 20282 30/// 57836 58005 84822;",
"76458099999","2005-08-22T15:00:00","4","23.2","-106.4166666","4.0","COLONIA JUAN CARRASCO MAZATLAN SIN., MX","FM-12","99999","V020","330,1,N,0030,1","02400,1,9,N","020000,1,N,1","+0278,1","+0235,1","10098,1",,,,,,"04,1,+01800,1,03,1","02,1,+02400,1,04,1",,"07,99,1,06,1,99,9,00450,1,03,1,01,1",,"01,9",,,,"99999,9,10094,1","6,1,008,1,+004,1",,"SYN106AAXX  22151 76458 32470 73303 10278 20235 30094 40098 56008 86/31 91445 333 30/// 58004 84356 82458 81070;",
"76458099999","2005-08-22T18:00:00","4","23.2","-106.4166666","4.0","COLONIA JUAN CARRASCO MAZATLAN SIN., MX","FM-12","99999","V020","240,1,N,0030,1","03600,1,9,N","020000,1,N,1","+0310,1","+0241,1","10118,1",,,,,,"05,1,+99999,9,03,1",,,"07,99,1,07,1,00,1,99999,9,06,1,05,1",,"01,9",,"120,M,+0325,1","240,N,+0244,1","99999,9,10114,1","2,1,020,1,+022,1",,"SYN118AAXX  22181 76458 32970 72403 10310 20241 30114 40118 52520 87065 91740 333 0//99 10325 20244 30/// 58022 85354 82170;",
"76458099999","2005-08-22T21:00:00","4","23.2","-106.4166666","4.0","COLONIA JUAN CARRASCO MAZATLAN SIN., MX","FM-12","99999","V020","250,1,N,0040,1","99999,9,9,N","020000,1,N,1","+0312,1","+0257,1","10106,1",,,,,,"01,1,+00660,1,08,1","04,1,+99999,9,04,1",,"06,99,1,99,9,02,1,00800,1,06,1,05,1",,"01,9",,,,"99999,9,10101,1","7,1,013,1,+027,1",,"SYN118AAXX  22211 76458 32570 62504 10312 20257 30101 40106 57013 87265 92040 333 0/899 30/// 57886 58027 81822 84454 81070;",
"76458099999","2005-08-23T03:00:00","4","23.2","-106.4166666","4.0","COLONIA JUAN CARRASCO MAZATLAN SIN., MX","FM-12","99999","V020","260,1,N,0020,1","22000,1,9,N","010000,1,N,1","+0298,1","+0238,1","10106,1",,,,,,"02,1,+02400,1,03,1",,,"04,99,1,99,9,00,1,99999,9,03,1,06,1",,"01,9",,,,"99999,9,10102,1","2,1,015,1,+030,1",,"SYN106AAXX  23031 76458 32960 42602 10298 20238 30102 40106 52015 80036 90245 333 0/099 30/// 58030 82358 82072;",
"76458099999","2005-08-23T12:00:00","4","23.2","-106.4166666","4.0","COLONIA JUAN CARRASCO MAZATLAN SIN., MX","FM-12","99999","V020","340,1,N,0020,1","03600,1,9,N","010000,1,N,1","+0275,1","+0234,1","10108,1","24,0000,9,1",,,"1,1,06,1","9,1,06,1","02,1,+00510,1,09,1",,,"07,99,1,02,1,09,1,00450,1,03,1,00,1",,"01,9","999,+0260,1","120,N,+0270,1","240,M,+0337,1","99999,9,10103,1","5,1,002,1,+001,1","17,1","SYN142AAXX  23121 76458 31460 73402 10275 20234 30103 40108 55002 71719 82930 82930 91147 333 0/49/ 10337 20270 30260 57949 58001 70000 82917 85364;",
"76458099999","2005-08-23T15:00:00","4","23.2","-106.4166666","4.0","COLONIA JUAN CARRASCO MAZATLAN SIN., MX","FM-12","99999","V020","999,9,C,0000,1","22000,1,9,N","020000,1,N,1","+0285,1","+0249,1","10109,1",,,,,,"01,1,+00450,1,08,1","01,1,+04200,1,03,1",,"04,99,1,01,1,02,1,00450,1,03,1,08,1",,"01,9",,,,"99999,9,10104,1","2,1,001,1,+010,1",,"SYN118AAXX  23151 76458 32470 40000 10285 20249 30104 40109 52001 81238 91447 333 0/399 30/// 57839 58010 81815 81364 82268;",
"76458099999","2005-08-23T18:00:00","4","23.2","-106.4166666","4.0","COLONIA JUAN CARRASCO MAZATLAN SIN., MX","FM-12","99999","V020","210,1,N,0030,1","22000,1,9,N","020000,1,N,1","+0318,1","+0243,1","10112,1",,,,,,"01,1,+00600,1,09,1","02,1,+99999,9,03,1",,"04,99,1,04,1,03,1,00800,1,07,1,05,1",,"01,9",,"120,M,+0338,1","240,N,+0270,1","99999,9,10108,1","1,1,004,1,+010,1",,"SYN130AAXX  23181 76458 32570 42103 10318 20243 30108 40112 51004 84375 91740 333 0/599 10338 20270 30/// 57955 58010 81920 82354 81070;",
"76458099999","2005-08-23T21:00:00","4","23.2","-106.4166666","4.0","COLONIA JUAN CARRASCO MAZATLAN SIN., MX","FM-12","99999","V020","210,1,N,0030,1","22000,1,9,N","020000,1,N,1","+0321,1","+0240,1","10089,1",,,,,,"01,1,+00600,1,09,1","02,1,+99999,9,03,1",,"04,99,1,04,1,03,1,01250,1,06,1,05,1",,"01,9",,,,"99999,9,10084,1","7,1,024,1,-017,1",,"SYN118AAXX  23211 76458 32670 42103 10321 20240 30084 40089 57024 84365 92040 333 0/899 30/// 57985 59017 81920 82354 81070;",
"76458099999","2005-08-24T06:00:00","4","23.2","-106.4166666","4.0","COLONIA JUAN CARRASCO MAZATLAN SIN., MX","FM-12","99999","V020","270,1,N,0020,1","00420,1,9,N","010000,1,N,1","+0299,1","+0252,1","10095,1",,,,,,,,,"06,99,1,06,1,07,1,00450,1,00,1,00,1","0576,9","01,9",,"240,M,+0341,1","240,N,+0270,1","99999,9,10091,1","0,1,007,1,-015,1",,"SYN124AAXX  24061 76458 32460 62702 10299 20252 30091 40095 50007 86700 90558 333 0/600 10341 20270 30/// 55096 2//// 59015 86819;",
"76458099999","2005-08-24T12:00:00","4","23.2","-106.4166666","4.0","COLONIA JUAN CARRASCO MAZATLAN SIN., MX","FM-12","99999","V020","300,1,N,0020,1","22000,1,9,N","010000,1,N,1","+0282,1","+0253,1","10089,1","24,0003,9,1",,,"5,1,06,1","5,1,06,1","01,1,+00210,1,08,1",,,"04,99,1,03,1,01,1,00150,1,99,9,09,1",,"01,9","999,+0265,1","120,N,+0278,1","240,M,+0341,1","99999,9,10085,1","4,1,000,1,-018,1","00,1","SYN136AAXX  24121 76458 11260 43002 10282 20253 30085 40089 54002 70055 831/9 91140 333 0/7/9 10341 20278 30265 57870 59018 70003 81807 81170;",
"76458099999","2005-08-24T18:00:00","4","23.2","-106.4166666","4.0","COLONIA JUAN CARRASCO MAZATLAN SIN., MX","FM-12","99999","V020","240,1,N,0030,1","00420,1,C,N","020000,1,N,1","+0310,1","+0267,1","10090,1",,,,,,"02,1,+00600,1,08,1","01,1,+99999,9,03,1",,"05,99,1,05,1,02,1,00450,1,06,1,05,1",,"01,9",,"120,M,+0328,1","240,N,+0280,1","99999,9,10085,1","6,1,006,1,-023,1",,"SYN130AAXX  24181 76458 32470 52403 10310 20267 30085 40090 56006 85265 91740 333 0/599 10328 20280 30/// 57856 59023 82820 81354 82070;",
"76458099999","2005-08-25T00:00:00","4","23.2","-106.4166666","4.0","COLONIA JUAN CARRASCO MAZATLAN SIN., MX","FM-12","99999","V020","280,1,N,0030,1","22000,1,9,N","020000,1,N,1","+0322,1","+0260,1","10071,1","24,0003,9,1",,,,,"02,1,+00810,1,09,1",,,"04,99,1,02,1,09,1,00800,1,05,1,00,1",,"01,9",,"120,M,+9999,9","180,N,+0280,1","99999,9,10066,1","7,1,011,1,-006,1",,"SYN130AAXX  25001 76458 32570 42803 10322 20260 30066 40071 57011 82950 92350 333 0/190 10240 20280 30/// 55711 59006 70003 82927 82358;","Q01 +02402ATMX  "
"76458099999","2005-08-25T03:00:00","4","23.2","-106.4166666","4.0","COLONIA JUAN CARRASCO MAZATLAN SIN., MX","FM-12","99999","V020","290,1,N,0030,1","99999,9,9,N","010000,1,N,1","+0302,1","+0257,1","10086,1",,,,,,"04,1,+00570,1,08,1",,,"07,99,1,04,1,02,1,00450,1,00,1,00,1",,"01,9",,,,"99999,9,10081,1","2,1,015,1,-003,1",,"SYN106AAXX  25031 76458 32460 72903 10302 20257 30081 40086 52015 84200 90250 333 0/300 30/// 59003 84819 83619;",
"76458099999","2005-08-25T06:00:00","4","23.2","-106.4166666","4.0","COLONIA JUAN CARRASCO MAZATLAN SIN., MX","FM-12","99999","V020","300,1,N,0030,1","00420,1,9,N","010000,1,N,1","+0297,1","+0257,1","10091,1","06,0005,9,1",,,"5,1,06,1","2,1,06,1","04,1,+00510,1,08,1",,,"05,99,1,05,1,09,1,00450,1,00,1,00,1","0588,9","01,9",,"240,M,+0340,1","240,N,+0280,1","99999,9,10087,1","1,1,005,1,-004,1","01,1","SYN148AAXX  25061 76458 11460 53003 10297 20257 30087 40091 51005 69961 70152 85900 90600 333 07400 10340 20280 30/// 55098 2//// 57945 59004 84817 81936;",
"76458099999","2005-08-25T12:00:00","4","23.2","-106.4166666","4.0","COLONIA JUAN CARRASCO MAZATLAN SIN., MX","FM-12","99999","V020","180,1,N,0020,1","00060,1,9,N","008000,1,N,1","+0248,1","+0243,1","10104,1","03,0439,9,1","24,0442,9,1",,"8,1,06,1","8,1,06,1","04,1,+00060,1,09,1",,,"08,99,1,08,1,09,1,00075,1,99,9,99,9",,"01,9","999,+0230,1","120,N,+0234,1","240,M,+0340,1","99999,9,10099,1","1,1,015,1,+014,1","29,1","SYN142AAXX  25121 76458 11158 81802 10248 20243 30099 40104 51015 60447 72988 889// 91140 333 0/6// 10340 20234 30230 57660 58014 70442 84902 84602;",
"76458099999","2005-08-25T15:00:00","4","23.2","-106.4166666","4.0","COLONIA JUAN CARRASCO MAZATLAN SIN., MX","FM-12","99999","V020","360,1,N,0010,1","01800,1,C,N","010000,1,N,1","+0250,1","+0244,1","10121,1",,,,"2,1,03,1","5,1,03,1","04,1,+00060,1,06,1","03,1,+01800,1,03,1",,"08,99,1,04,1,05,1,00075,1,07,1,08,1",,"09,9",,,,"99999,9,10117,1","2,1,017,1,+025,1","05,1","SYN124AAXX  25151 76458 31160 83601 10250 20244 30117 40121 52017 70525 84578 91445 333 0/499 31/// 57640 58025 84602 83356 81270;",
"76458099999","2005-08-25T18:00:00","4","23.2","-106.4166666","4.0","COLONIA JUAN CARRASCO MAZATLAN SIN., MX","FM-12","99999","V020","340,1,N,0020,1","03600,1,9,N","020000,1,N,1","+0268,1","+0254,1","10111,1",,,,,,"01,1,+00180,1,08,1","04,1,+03600,1,04,1","02,1,+03600,1,03,1","08,99,1,01,1,01,1,00150,1,04,1,08,1",,"01,9",,"120,M,+0339,1","240,N,+0232,1","99999,9,10107,1","6,1,010,1,+022,1",,"SYN136AAXX  25181 76458 32270 83402 10268 20254 30107 40111 56010 81148 91750 333 0/599 10339 20232 30/// 57859 58022 81806 84462 82362 82368;",
"76458099999","2005-08-25T21:00:00","4","23.2","-106.4166666","4.0","COLONIA JUAN CARRASCO MAZATLAN SIN., MX","FM-12","99999","V020","230,1,N,0020,1","09000,1,9,N","018000,1,N,1","+0297,1","+0253,1","10119,1",,,,,,"01,1,+00120,1,06,1","03,1,+01260,1,02,1",,"06,99,1,02,1,03,1,01750,1,04,1,06,1",,"01,9",,,,"99999,9,10115,1","6,1,007,1,+036,1",,"SYN118AAXX  25211 76458 32768 62302 10297 20253 30115 40119 56007 82346 92050 333 0/499 30/// 57646 58036 81604 83242 81346;",
"76458099999","2005-08-26T03:00:00","4","23.2","-106.4166666","4.0","COLONIA JUAN CARRASCO MAZATLAN SIN., MX","FM-12","99999","V020","270,1,N,0020,1","03600,1,C,N","010000,1,N,1","+0292,1","+0250,1","10105,1",,,,,,"03,1,+00540,1,06,1",,,"05,99,1,03,1,04,1,00450,1,03,1,00,1",,"01,9",,,,"99999,9,10100,1","2,1,017,1,+019,1",,"SYN106AAXX  26031 76458 32460 52702 10292 20250 30100 40105 52017 83430 90250 333 0/790 30/// 58019 83618 82358;",
"76458099999","2005-08-26T12:00:00","4","23.2","-106.4166666","4.0","COLONIA JUAN CARRASCO MAZATLAN SIN., MX","FM-12","99999","V020","060,1,N,0010,1","02400,1,9,N","008000,1,N,1","+0242,1","+0226,1","10110,1","24,0271,9,1",,,,,"08,1,+02400,1,04,1",,,"08,99,1,08,1,99,9,02250,1,02,1,99,9",,"01,9","999,+0222,1","120,N,+0230,1","240,M,+0340,1","99999,9,10105,1","7,1,023,1,+006,1",,"SYN112AAXX  26121 76458 32858 80601 10242 20226 30105 40110 57023 88/2/ 91140 333 10340 20230 30222 58006 70271 88458;",
"76458099999","2005-08-27T09:00:00","4","23.2","-106.4166666","4.0","COLONIA JUAN CARRASCO MAZATLAN SIN., MX","FM-12","99999","V020","360,1,N,0010,1","22000,1,9,N","008000,1,N,1","+0278,1","+0243,1","10101,1",,,,,,"04,1,+00450,1,08,1",,,"04,99,1,04,1,02,1,00450,1,00,1,00,1",,"01,9",,,,"99999,9,10096,1","7,1,016,1,-032,1",,"SYN100AAXX  27091 76458 32458 43601 10278 20243 30096 40101 57016 84200 90858 333 0/300 30/// 59032 84815;",
"76458099999","2005-08-27T12:00:00","4","23.2","-106.4166666","4.0","COLONIA JUAN CARRASCO MAZATLAN SIN., MX","FM-12","99999","V020","999,9,C,0000,1","01800,1,9,N","008000,1,N,1","+0270,1","+0246,1","10112,1","24,0000,9,1",,,,,"06,1,+01800,1,03,1",,,"06,99,1,06,1,00,1,02250,1,03,1,00,1",,"01,9","999,+0258,1","120,N,+0264,1","240,M,+0336,1","99999,9,10107,1","3,1,011,1,-014,1",,"SYN112AAXX  27121 76458 32858 60000 10270 20246 30107 40112 53011 86030 91140 333 10336 20264 30258 59014 70000 86356;",
"76458099999","2005-08-27T15:00:00","4","23.2","-106.4166666","4.0","COLONIA JUAN CARRASCO MAZATLAN SIN., MX","FM-12","99999","V020","360,1,N,0020,1","22000,1,9,N","020000,1,N,1","+0284,1","+0252,1","10117,1",,,,,,"03,1,+01800,1,03,1",,,"03,99,1,03,1,00,1,00450,1,03,1,00,1",,"01,9",,,,"99999,9,10113,1","2,1,005,1,-017,1",,"SYN094AAXX  27151 76458 32470 33602 10284 20252 30113 40117 52005 83030 91440 333 30/// 59017 83356;",
"76458099999","2005-08-27T18:00:00","4","23.2","-106.4166666","4.0","COLONIA JUAN CARRASCO MAZATLAN SIN., MX","FM-12","99999","V020","270,1,N,0040,1","22000,1,9,N","020000,1,N,1","+0320,1","+0239,1","10113,1",,,,,,"01,1,+00780,1,08,1","01,1,+01800,1,03,1",,"04,99,1,01,1,02,1,01250,1,03,1,04,1",,"01,9",,"120,M,+0337,1","240,N,+0262,1","99999,9,10109,1","6,1,004,1,-017,1",,"SYN130AAXX  27181 76458 32670 42704 10320 20239 30109 40113 56004 81234 91745 333 0/899 10337 20262 30/// 57887 59017 81826 81356 82070;",
"76458099999","2005-08-28T09:00:00","4","23.2","-106.4166666","4.0","COLONIA JUAN CARRASCO MAZATLAN SIN., MX","FM-12","99999","V020","300,1,N,0020,1","22000,1,9,N","010000,1,N,1","+0285,1","+0258,1","10082,1","03,0006,9,1",,,"5,1,03,1","1,1,03,1","01,1,+00330,1,08,1",,,"01,99,1,01,1,01,1,00450,1,00,1,00,1",,"09,9",,,,"99999,9,10078,1","7,1,007,1,-018,1","01,1","SYN112AAXX  28091 76458 21460 13002 10285 20258 30078 40082 57007 70151 81100 90850 333 01700 31/// 59018 69967 81811;",
"76458099999","2005-08-29T09:00:00","4","23.2","-106.4166666","4.0","COLONIA JUAN CARRASCO MAZATLAN SIN., MX","FM-12","99999","V020","340,1,N,0020,1","00270,1,9,N","010000,1,N,1","+0281,1","+0258,1","10076,1",,,,,,"07,1,+00270,1,08,1",,,"08,99,1,08,1,09,1,00250,1,00,1,00,1",,"09,9",,,,"99999,9,10071,1","7,1,008,1,-007,1",,"SYN112AAXX  29091 76458 32360 83402 10281 20258 30071 40076 57008 88900 90850 333 07600 31/// 57961 59007 87809 81936;",
"76458099999","2005-08-29T12:00:00","4","23.2","-106.4166666","4.0","COLONIA JUAN CARRASCO MAZATLAN SIN., MX","FM-12","99999","V020","130,1,N,0020,1","22000,1,9,N","008000,1,N,1","+0278,1","+0260,1","10070,1","24,0006,9,1",,,,,"01,1,+00240,1,08,1",,,"01,99,1,01,1,01,1,00250,1,00,1,00,1",,"01,9","999,+0267,1","120,N,+0270,1","240,M,+0340,1","99999,9,10066,1","6,1,005,1,-008,1",,"SYN124AAXX  29121 76458 32358 11302 10278 20260 30066 40070 56005 81100 91140 333 006// 10340 20270 30267 57860 59008 70006 81808;",
"76458099999","2005-08-30T09:00:00","4","23.2","-106.4166666","4.0","COLONIA JUAN CARRASCO MAZATLAN SIN., MX","FM-12","99999","V020","030,1,N,0020,1","22000,1,9,N","010000,1,N,1","+0252,1","+0236,1","10097,1",,,,,,"04,1,+00210,1,08,1",,,"04,99,1,04,1,07,1,00150,1,00,1,00,1",,"01,9",,,,"99999,9,10092,1","0,1,003,1,+021,1",,"SYN094AAXX  30091 76458 32260 40302 10252 20236 40097 50003 84700 90850 333 0/500 30/// 58021 84807;",
"76458099999","2005-08-30T15:00:00","4","23.2","-106.4166666","4.0","COLONIA JUAN CARRASCO MAZATLAN SIN., MX","FM-12","99999","V020","090,1,N,0020,1","03600,1,9,N","020000,1,N,1","+0274,1","+0239,1","10105,1",,,,,,"02,1,+00450,1,09,1",,,"05,99,1,02,1,03,1,00450,1,03,1,00,1",,"01,9",,,,"99999,9,10101,1","2,1,013,1,+027,1",,"SYN112AAXX  30151 76458 32470 50902 10274 20239 30101 40105 52013 82330 91440 333 0/490 30/// 57942 58027 82915 83362;",
"76458099999","2005-08-30T21:00:00","4","23.2","-106.4166666","4.0","COLONIA JUAN CARRASCO MAZATLAN SIN., MX","FM-12","99999","V020","150,1,N,0040,1","12000,1,9,N","020000,1,N,1","+0305,1","+0257,1","10104,1",,,,,,"08,1,+12000,1,05,1",,,"99,99,9,05,1,03,1,00800,1,06,1,00,1",,"01,9",,,,"99999,9,10099,1","7,1,013,1,+036,1",,"SYN113AAXX  30211 76458 32570 71504 10305 20257 30099 40104 57013 85360 92045 333 0/590 30/// 57856 58036 885824 82354;",
"76458099999","2005-08-31T03:00:00","4","23.2","-106.4166666","4.0","COLONIA JUAN CARRASCO MAZATLAN SIN., MX","FM-12","99999","V020","200,1,N,0020,1","22000,1,9,N","010000,1,N,1","+0290,1","+0250,1","10107,1",,,,,,"03,1,+00510,1,08,1",,,"03,99,1,03,1,02,1,00450,1,00,1,00,1",,"01,9",,,,"99999,9,10103,1","2,1,012,1,+020,1",,"SYN100AAXX  31031 76458 32460 32002 10290 20250 30103 40107 52012 83200 90245 333 0/500 30/// 58020 83817;",
"76458099999","2005-08-31T06:00:00","4","23.2","-106.4166666","4.0","COLONIA JUAN CARRASCO MAZATLAN SIN., MX","FM-12","99999","V020","210,1,N,0020,1","00480,1,C,N","010000,1,N,1","+0290,1","+0251,1","10118,1",,,,,,"05,1,+00480,1,08,1",,,"06,99,1,99,9,99,9,00450,1,99,9,99,9","0348,9","01,9",,"240,M,+0332,1","240,N,+0247,1","99999,9,10114,1","1,1,011,1,+025,1",,"SYN130AAXX  31061 76458 32460 62102 10290 20251 30114 40118 51011 90550 333 07300 10332 20247 30/// 55058 2//// 57931 58025 85816 81936;",
"76458099999","2005-08-31T09:00:00","4","23.2","-106.4166666","4.0","COLONIA JUAN CARRASCO MAZATLAN SIN., MX","FM-12","99999","V020","060,1,N,0020,1","00210,1,9,N","008000,1,N,1","+0261,1","+0243,1","10115,1","03,0160,9,1",,,"6,1,03,1","5,1,03,1","05,1,+00210,1,08,1",,,"08,99,1,08,1,09,1,00250,1,00,1,00,1",,"11,9",,,,"99999,9,10111,1","0,1,003,1,+019,1","02,1","SYN124AAXX  31091 76458 21358 80602 10261 20243 30111 40115 50003 70265 88900 90850 333 07100 32/// 57911 58019 60167 85807 83936;",
"76458099999","2005-08-31T12:00:00","4","23.2","-106.4166666","4.0","COLONIA JUAN CARRASCO MAZATLAN SIN., MX","FM-12","99999","V020","330,1,N,0010,1","00120,1,9,N","010000,1,N,1","+0259,1","+0245,1","10109,1","01,0004,9,1","03,0005,9,1","24,0163,9,1","9,1,06,1","9,1,06,1",,,,"07,99,1,07,1,05,1,00150,1,00,1,00,1",,"01,9","999,+0247,1","120,N,+0251,1","240,M,+0320,1","99999,9,10105,1","7,1,006,1,+017,1","50,1","SYN136AAXX  31121 76458 01260 73301 10259 20245 30105 40109 57006 69947 75099 87500 91148 333 0/6// 10320 20251 30247 57669 58017 69945 70162;",
"76458099999","2005-08-31T15:00:00","4","23.2","-106.4166666","4.0","COLONIA JUAN CARRASCO MAZATLAN SIN., MX","FM-12","99999","V020","120,1,N,0030,1","09000,1,C,N","020000,1,N,1","+0276,1","+0246,1","10113,1",,,,,,"01,1,+00360,1,08,1","04,1,+01800,1,03,1",,"06,99,1,01,1,09,1,00450,1,03,1,06,1",,"09,9",,,,"99999,9,10107,1","1,1,004,1,+008,1",,"SYN118AAXX  31151 76458 32470 61203 10276 20246 30107 40113 51004 81936 91445 333 0/499 31/// 57844 58008 81812 84356 81070;",
"76458099999","2005-08-31T18:00:00","4","23.2","-106.4166666","4.0","COLONIA JUAN CARRASCO MAZATLAN SIN., MX","FM-12","99999","V020","150,1,N,0020,1","00600,1,9,N","020000,1,N,1","+0278,1","+0255,1","10117,1","01,0080,9,1",,,"9,1,06,1","1,1,06,1","07,1,+00600,1,06,1",,,"08,99,1,07,1,05,1,00250,1,06,1,00,1",,"11,9",,"120,M,+0298,1","240,N,+0251,1","99999,9,10113,1","1,1,004,1,+001,1","55,1","SYN136AAXX  31181 76458 01370 81502 10278 20255 30113 40117 51004 60085 75591 87560 91745 333 0/690 10298 20251 32/// 57665 58001 60085 87620;",
"76458099999","2005-09-01T09:00:00","4","23.2","-106.4166666","4.0","COLONIA JUAN CARRASCO MAZATLAN SIN., MX","FM-12","99999","V020","999,9,C,0000,1","00300,1,9,N","010000,1,N,1","+0273,1","+0249,1","10093,1",,,,,,"08,1,+00300,1,08,1",,,"08,99,1,08,1,07,1,00450,1,00,1,00,1",,"01,9",,,,"99999,9,10089,1","7,1,010,1,-022,1",,"SYN100AAXX  01091 76458 32460 80000 10273 20249 30089 40093 57010 88700 90840 333 0/400 30/// 59022 88810;",
"76458099999","2005-09-01T18:00:00","4","23.2","-106.4166666","4.0","COLONIA JUAN CARRASCO MAZATLAN SIN., MX","FM-12","99999","V020","090,1,N,0020,1","03600,1,9,N","015000,1,N,1","+0307,1","+0258,1","10103,1",,,,,,"02,1,+00600,1,08,1",,,"07,99,1,02,1,01,1,00800,1,03,1,00,1",,"01,9",,"120,M,+0324,1","240,N,+0264,1","99999,9,10099,1","0,1,000,1,-014,1",,"SYN124AAXX  01181 76458 32565 70902 10307 20258 30099 40103 50000 82130 91745 333 0/69/ 10324 20264 30/// 57869 59014 82820 85362;",
"76458099999","2005-09-01T21:00:00","4","23.2","-106.4166666","4.0","COLONIA JUAN CARRASCO MAZATLAN SIN., MX","FM-12","99999","V020","240,1,N,0040,1","22000,1,9,N","020000,1,N,1","+0306,1","+0256,1","10090,1",,,,,,"02,1,+00630,1,08,1",,,"04,99,1,02,1,01,1,00800,1,03,1,00,1",,"01,9",,,,"99999,9,10085,1","7,1,014,1,-014,1",,"SYN112AAXX  01211 76458 32570 42404 10306 20256 30085 40090 57014 82130 92045 333 0/69/ 30/// 57869 59014 82821 82362;",
"76458099999","2005-09-02T03:00:00","4","23.2","-106.4166666","4.0","COLONIA JUAN CARRASCO MAZATLAN SIN., MX","FM-12","99999","V020","240,1,N,0020,1","00540,1,9,N","018000,1,N,1","+0296,1","+0253,1","10089,1",,,,,,"07,1,+00540,1,08,1",,,"08,99,1,08,1,09,1,00450,1,00,1,00,1",,"01,9",,,,"99999,9,10084,1","2,1,015,1,-012,1",,"SYN112AAXX  02031 76458 32468 82402 10296 20253 30084 40089 52015 88900 90250 333 07300 30/// 57935 59012 87818 81936;",
"76458099999","2005-09-02T09:00:00","4","23.2","-106.4166666","4.0","COLONIA JUAN CARRASCO MAZATLAN SIN., MX","FM-12","99999","V020","230,1,N,0020,1","99999,9,9,N","010000,1,N,1","+0282,1","+0224,1","10135,1",,,,,,,,,"06,99,1,99,9,06,1,01750,1,00,1,00,1","0342,9","01,9",,"999,M,+0338,1","999,N,+0264,1","99999,9,10099,1","2,1,015,1,+000,1",,"SYN130AAXX  02091 76458 32760 62302 10282 20224 30099 40135 52015 87600 90550 333 0/500 10338 20264 30/// 55057 2//// 57660 58000 84635;",
"76458099999","2005-09-02T12:00:00","4","23.2","-106.4166666","4.0","COLONIA JUAN CARRASCO MAZATLAN SIN., MX","FM-12","99999","V020","180,1,N,0040,1","00270,1,9,N","008000,1,N,1","+0264,1","+0243,1","10102,1","01,0000,2,1","24,9999,9,9",,"5,1,06,1","5,1,06,1","07,1,+00270,1,06,1",,,"08,99,1,08,1,05,1,00250,1,00,1,00,1",,"01,9","999,+0253,1","120,N,+0258,1","240,M,+0338,1","99999,9,10098,1","3,1,003,1,+012,1","51,1","SYN136AAXX  02121 76458 11358 81804 10264 20243 30098 40102 53003 69905 75155 88500 91140 333 0/5// 10338 20258 30253 57650 58012 70000 87609;","Q01  00002PRCP24"
"76458099999","2005-09-02T18:00:00","4","23.2","-106.4166666","4.0","COLONIA JUAN CARRASCO MAZATLAN SIN., MX","FM-12","99999","V020","110,1,N,0020,1","00450,1,9,N","020000,1,N,1","+0287,1","+0251,1","10126,1",,,,,,"06,1,+00450,1,06,1",,,"08,99,1,06,1,04,1,00450,1,02,1,00,1",,"01,9",,"120,M,+0295,1","240,N,+0256,1","99999,9,10122,1","2,1,015,1,+023,1",,"SYN124AAXX  02181 76458 32470 81102 10287 20251 30122 40126 52015 86420 91745 333 0/69/ 10295 20256 30/// 57669 58023 86615 82462;",
"76458099999","2005-09-02T21:00:00","4","23.2","-106.4166666","4.0","COLONIA JUAN CARRASCO MAZATLAN SIN., MX","FM-12","99999","V020","180,1,N,0030,1","03600,1,C,N","020000,1,N,1","+0299,1","+0250,1","10112,1",,,,,,"02,1,+00600,1,08,1","02,1,+03600,1,03,1",,"06,99,1,02,1,02,1,00800,1,03,1,08,1",,"01,9",,,,"99999,9,10107,1","7,1,015,1,+022,1",,"SYN118AAXX  02211 76458 32570 61803 10299 20250 30107 40112 57015 82238 92045 333 0/199 30/// 57812 58022 82820 82362 82268;",
"76458099999","2005-09-03T12:00:00","4","23.2","-106.4166666","4.0","COLONIA JUAN CARRASCO MAZATLAN SIN., MX","FM-12","99999","V020","360,1,N,0020,1","22000,1,9,N","008000,1,N,1","+0270,1","+0248,1","10119,1","03,0000,9,1","24,0047,9,1",,"0,1,06,1","0,1,06,1","03,1,+00270,1,06,1",,,"03,99,1,03,1,05,1,00250,1,00,1,00,1",,"01,9","999,+0244,1","120,N,+0250,1","240,M,+0322,1","99999,9,10115,1","6,1,002,1,+017,1","02,1","SYN136AAXX  03121 76458 21358 33602 10270 20248 30115 40119 56002 70200 83500 91148 333 0/6// 10322 20250 30244 57669 58017 69907 70047 83609;","Q01  00002PRCP03"
"76458099999","2005-09-03T15:00:00","4","23.2","-106.4166666","4.0","COLONIA JUAN CARRASCO MAZATLAN SIN., MX","FM-12","99999","V020","999,9,C,0000,1","22000,1,9,N","018000,1,N,1","+0288,1","+0259,1","10128,1",,,,,,"04,1,+03600,1,03,1",,,"04,99,1,04,1,00,1,02250,1,03,1,00,1",,"01,9",,,,"99999,9,10124,1","2,1,009,1,+017,1",,"SYN106AAXX  03151 76458 32868 40000 10288 20259 30124 40128 52009 84030 91445 333 0//9/ 30/// 57399 58017 84362;",
"76458099999","2005-09-04T06:00:00","4","23.2","-106.4166666","4.0","COLONIA JUAN CARRASCO MAZATLAN SIN., MX","FM-12","99999","V020","180,1,N,0020,1","22000,1,9,N","010000,1,N,1","+0298,1","+0258,1","10125,1",,,,,,"00,1,+99999,9,99,9",,,"00,99,1,00,1,00,1,99999,9,00,1,00,1","0096,9","01,9",,"240,M,+0335,1","240,N,+0250,1","99999,9,10120,1","2,1,013,1,+999,9",,"SYN106AAXX  04061 76458 32860 01802 10298 20258 30120 40125 52013 90650 333 10335 20250 30/// 55016 2//// 58006;",
"76458099999","2005-09-04T09:00:00","4","23.2","-106.4166666","4.0","COLONIA JUAN CARRASCO MAZATLAN SIN., MX","FM-12","99999","V020","160,1,N,0020,1","22000,1,9,N","010000,1,N,1","+0280,1","+0245,1","10122,1",,,,,,"00,1,+99999,9,99,9",,,"00,99,1,00,1,00,1,99999,9,00,1,00,1",,"01,9",,,,"99999,9,10117,1","7,1,003,1,+002,1",,"SYN082AAXX  04091 76458 32760 01602 10280 20245 30117 40122 53000 90950 333 30/// 58002;",
"76458099999","2005-09-04T12:00:00","4","23.2","-106.4166666","4.0","COLONIA JUAN CARRASCO MAZATLAN SIN., MX","FM-12","99999","V020","330,1,N,0020,1","00270,1,9,N","010000,1,N,1","+0279,1","+0257,1","10119,1","24,0000,9,1",,,,,"07,1,+00270,1,08,1",,,"07,99,1,07,1,07,1,00250,1,00,1,00,1",,"01,9","999,+0260,1","120,N,+0270,1","240,M,+0337,1","99999,9,10115,1","5,1,002,1,+000,1",,"SYN118AAXX  04121 76458 32360 73302 10279 20257 30115 40119 55002 87700 91146 333 0/700 10337 20270 30260 59000 70000 87809;",
"76458099999","2005-09-04T15:00:00","4","23.2","-106.4166666","4.0","COLONIA JUAN CARRASCO MAZATLAN SIN., MX","FM-12","99999","V020","090,1,N,0030,1","00360,1,9,N","020000,1,N,1","+0281,1","+0253,1","10134,1",,,,,,"07,1,+00360,1,08,1",,,"07,99,1,07,1,07,1,00450,1,00,1,00,1",,"01,9",,,,"99999,9,10130,1","2,1,015,1,+006,1",,"SYN100AAXX  04151 76458 32470 70903 10281 20253 30130 40134 52015 87700 91446 333 0/700 30/// 58006 87812;",
"76458099999","2005-09-04T18:00:00","4","23.2","-106.4166666","4.0","COLONIA JUAN CARRASCO MAZATLAN SIN., MX","FM-12","99999","V020","240,1,N,0020,1","03600,1,9,N","020000,1,N,1","+0268,1","+0237,1","10137,1","03,0003,9,1","06,0003,9,1",,"9,1,06,1","5,1,06,1","03,1,+00390,1,09,1",,,"07,99,1,03,1,09,1,00450,1,03,1,08,1",,"01,9",,"120,M,+0290,1","240,N,+0260,1","99999,9,10133,1","0,1,003,1,+005,1","02,1","SYN136AAXX  04181 76458 01470 72402 10268 20237 30133 40137 50003 69931 70295 83938 91747 333 0/599 10290 20260 30/// 57950 58005 69937 83913;",
"76458099999","2005-09-04T21:00:00","4","23.2","-106.4166666","4.0","COLONIA JUAN CARRASCO MAZATLAN SIN., MX","FM-12","99999","V020","240,1,N,0020,1","09000,1,C,N","020000,1,N,1","+0292,1","+0255,1","10115,1",,,,,,"01,1,+00450,1,08,1",,,"07,99,1,01,1,02,1,00450,1,00,1,08,1",,"01,9",,,,"99999,9,10110,1","7,1,023,1,-017,1",,"SYN112AAXX  04211 76458 32470 72402 10292 20255 30110 40115 57023 81208 92045 333 0/1/9 30/// 57817 59017 81815 86268;",
"76458099999","2005-09-05T12:00:00","4","23.2","-106.4166666","4.0","COLONIA JUAN CARRASCO MAZATLAN SIN., MX","FM-12","99999","V020","330,1,N,0010,1","22000,1,9,N","008000,1,N,1","+0276,1","+0260,1","10105,1","24,0003,9,1",,,,,"01,1,+00600,1,09,1",,,"02,99,1,02,1,09,1,00150,1,00,1,00,1",,"01,9","999,+0260,1","120,N,+0264,1","240,M,+0320,1","99999,9,10100,1","5,1,011,1,-015,1",,"SYN130AAXX  05121 76458 31258 23301 10276 20260 30100 40105 55011 82900 91140 333 0/6// 10320 20264 30260 57962 59015 70003 81920 81807;",
"76458099999","2005-09-05T15:00:00","4","23.2","-106.4166666","4.0","COLONIA JUAN CARRASCO MAZATLAN SIN., MX","FM-12","99999","V020","090,1,N,0030,1","22000,1,9,N","020000,1,N,1","+0296,1","+0258,1","10123,1",,,,,,"02,1,+00450,1,09,1",,,"02,99,1,02,1,03,1,00450,1,00,1,00,1",,"01,9",,,,"99999,9,10119,1","2,1,019,1,-010,1",,"SYN106AAXX  05151 76458 32470 20903 10296 20258 30119 40123 52019 82300 91440 333 0/4// 30/// 57943 59010 82915;",
"76458099999","2005-09-05T18:00:00","4","23.2","-106.4166666","4.0","COLONIA JUAN CARRASCO MAZATLAN SIN., MX","FM-12","99999","V020","240,1,N,0030,1","22000,1,9,N","020000,1,N,1","+0310,1","+0271,1","10124,1",,,,,,"01,1,+00480,1,08,1",,,"01,99,1,01,1,02,1,00450,1,00,1,00,1",,"01,9",,"120,M,+0348,1","240,N,+0260,1","99999,9,10120,1","2,1,001,1,-006,1",,"SYN118AAXX  05181 76458 32470 12403 10310 20271 30120 40124 52001 81200 91750 333 0/7// 10348 20260 30/// 57871 59006 81816;",
"76458099999","2005-09-06T12:00:00","4","23.2","-106.4166666","4.0","COLONIA JUAN CARRASCO MAZATLAN SIN., MX","FM-12","99999","V020","180,1,N,0020,1","22000,1,9,N","008000,1,N,1","+0282,1","+0247,1","10106,1","24,0000,9,1",,,,,"00,1,+99999,9,99,9",,,"00,99,1,00,1,00,1,99999,9,00,1,00,1",,"01,9","999,+0250,1","120,N,+0262,1","240,M,+0320,1","99999,9,10102,1","3,1,002,1,+002,1",,"SYN100AAXX  06121 76458 32958 01802 10282 20247 30102 40106 53002 91140 333 10320 20262 30250 58002 70000;","Q01  00002PRCP24"
"76458099999","2005-09-06T18:00:00","4","23.2","-106.4166666","4.0","COLONIA JUAN CARRASCO MAZATLAN SIN., MX","FM-12","99999","V020","210,1,N,0030,1","22000,1,9,N","020000,1,N,1","+0316,1","+0258,1","10120,1",,,,,,"01,1,+00990,1,08,1",,,"01,99,1,01,1,02,1,00800,1,00,1,00,1",,"01,9",,"120,M,+0340,1","240,N,+0262,1","99999,9,10115,1","2,1,003,1,-005,1",,"SYN118AAXX  06181 76458 32570 12103 10316 20258 30115 40120 52003 81200 91745 333 0/1// 10340 20262 30/// 57816 59005 81833;",
"76458099999","2005-09-07T06:00:00","4","23.2","-106.4166666","4.0","COLONIA JUAN CARRASCO MAZATLAN SIN., MX","FM-12","99999","V020","300,1,N,0020,1","22000,1,9,N","010000,1,N,1","+0278,1","+0239,1","10107,1","06,0005,9,1",,,"5,1,06,1","0,1,06,1",,,,"01,99,1,01,1,00,1,99999,9,03,1,00,1","0564,9","01,9",,"240,M,+0343,1","240,N,+0262,1","99999,9,10103,1","0,1,000,1,-010,1","01,1","SYN136AAXX  07061 76458 11960 13002 10278 20239 30103 40107 50000 69941 70150 81030 90550 333 0/090 10343 20262 30/// 55094 2//// 59010 81358;",
"76458099999","2005-09-07T12:00:00","4","23.2","-106.4166666","4.0","COLONIA JUAN CARRASCO MAZATLAN SIN., MX","FM-12","99999","V020","090,1,N,0020,1","22000,1,9,N","010000,1,N,1","+0264,1","+0231,1","10105,1","24,0004,9,1",,,,,"02,1,+00420,1,08,1",,,"02,99,1,02,1,02,1,00450,1,00,1,00,1",,"01,9","999,+0243,1","120,N,+0260,1","240,M,+0343,1","99999,9,10101,1","6,1,001,1,-001,1",,"SYN124AAXX  07121 76458 32460 20902 10264 20231 30101 40105 56001 82200 91140 333 04700 10343 20260 30243 57871 59001 70004 82814;",
"76458099999","2005-09-07T18:00:00","4","23.2","-106.4166666","4.0","COLONIA JUAN CARRASCO MAZATLAN SIN., MX","FM-12","99999","V020","240,1,N,0030,1","22000,1,9,N","020000,1,N,1","+0323,1","+0256,1","10105,1",,,,,,"00,1,+99999,9,99,9",,,"00,99,1,00,1,00,1,99999,9,00,1,00,1",,"01,9",,"120,M,+0346,1","240,N,+0260,1","99999,9,10101,1","7,1,009,1,-014,1",,"SYN094AAXX  07181 76458 32970 02403 10323 20256 30101 40105 57009 91745 333 10346 20260 30/// 59014;",
"76458099999","2005-09-08T06:00:00","4","23.2","-106.4166666","4.0","COLONIA JUAN CARRASCO MAZATLAN SIN., MX","FM-12","99999","V020","270,1,N,0020,1","22000,1,9,N","010000,1,N,1","+0308,1","+0277,1","10102,1",,,,,,"00,1,+99999,9,99,9",,,"00,99,1,00,1,00,1,99999,9,00,1,00,1","0108,9","01,9",,"240,M,+0349,1","240,N,+0260,1","99999,9,10098,1","1,1,005,1,+004,1",,"SYN130AAXX  08061 76458 32860 02702 10308 20277 30098 40102 51005 83120 90650 333 0/290 10349 20260 30/// 55018 2//// 57514 58004 81613;",
"76458099999","2005-09-08T09:00:00","4","23.2","-106.4166666","4.0","COLONIA JUAN CARRASCO MAZATLAN SIN., MX","FM-12","99999","V020","180,1,N,0020,1","22000,1,9,N","017000,1,N,1","+0304,1","+0278,1","10099,1",,,,,,"02,1,+00690,1,01,1",,,"99,99,9,00,1,00,1,99999,9,00,1,00,1",,"01,9",,,,"99999,9,10094,1","2,1,004,1,-007,1",,"SYN088AAXX  08091 76458 32867 01802 10304 20278 30094 40099 52004 90850 333 30/// 59007 82123;",
"76458099999","2005-09-08T12:00:00","4","23.2","-106.4166666","4.0","COLONIA JUAN CARRASCO MAZATLAN SIN., MX","FM-12","99999","V020","240,1,N,0050,1","00210,1,C,N","008000,1,N,1","+0264,1","+0234,1","10114,1","01,0000,2,1","24,0000,9,1",,"5,1,06,1","5,1,06,1","03,1,+00600,1,09,1",,,"05,99,1,05,1,09,1,00250,1,00,1,00,1",,"01,9","999,+0240,1","120,N,+0258,1","240,M,+0350,1","99999,9,10107,1","3,1,012,1,+006,1","13,1","SYN136AAXX  08121 76458 31358 52405 10264 20234 30107 40114 53012 69905 71355 85900 91145 333 0/6// 10350 20258 30240 57960 58006 70000 83920;",
"76458099999","2005-09-08T15:00:00","4","23.2","-106.4166666","4.0","COLONIA JUAN CARRASCO MAZATLAN SIN., MX","FM-12","99999","V020","090,1,N,0050,1","22000,1,9,N","020000,1,N,1","+0280,1","+0234,1","10123,1",,,,,,"01,1,+00570,1,08,1",,,"01,99,1,01,1,02,1,00450,1,00,1,00,1",,"01,9",,,,"99999,9,10119,1","1,1,012,1,+009,1",,"SYN106AAXX  08151 76458 32470 10905 10280 20234 30119 40123 51012 81200 91445 333 0/5// 30/// 57858 58009 81819;",
"76458099999","2005-09-08T18:00:00","4","23.2","-106.4166666","4.0","COLONIA JUAN CARRASCO MAZATLAN SIN., MX","FM-12","99999","V020","120,1,N,0030,1","22000,1,9,N","020000,1,N,1","+0316,1","+0253,1","10127,1",,,,,,"01,1,+00780,1,08,1",,,"01,99,1,01,1,01,1,00800,1,00,1,00,1",,"01,9",,"120,M,+0330,1","240,N,+0256,1","99999,9,10122,1","0,1,003,1,+021,1",,"SYN118AAXX  08181 76458 32570 11203 10316 20253 30122 40127 50003 81100 91745 333 0/8// 10330 20256 30/// 57889 58021 81826;",
"76458099999","2005-09-09T03:00:00","4","23.2","-106.4166666","4.0","COLONIA JUAN CARRASCO MAZATLAN SIN., MX","FM-12","99999","V020","300,1,N,0040,1","00540,1,9,N","016000,1,N,1","+0305,1","+0263,1","10105,1",,,,,,"07,1,+00540,1,08,1",,,"07,99,1,07,1,07,1,00450,1,00,1,00,1",,"01,9",,,,"99999,9,10101,1","2,1,016,1,+023,1",,"SYN100AAXX  09031 76458 32466 73004 10305 20263 30101 40105 52016 87700 90250 333 0/700 30/// 58023 87818;",
"76458099999","2005-09-09T12:00:00","4","23.2","-106.4166666","4.0","COLONIA JUAN CARRASCO MAZATLAN SIN., MX","FM-12","99999","V020","030,1,N,0020,1","99999,9,9,N","008000,1,N,1","+0256,1","+0234,1","10120,1","06,0010,9,1",,,"5,1,06,1","5,1,06,1",,,,"07,99,1,99,9,99,9,99999,9,99,9,99,9",,,,,,"99999,9,10115,1","6,1,007,1,+999,9","00,1","SYN072AAXX  09121 76458 11958 70302 10256 20234 30115 40120 56007 60011 70055;",
"76458099999","2005-09-09T15:00:00","4","23.2","-106.4166666","4.0","COLONIA JUAN CARRASCO MAZATLAN SIN., MX","FM-12","99999","V020","120,1,N,0010,1","03600,1,C,N","020000,1,N,1","+0268,1","+0238,1","10127,1",,,,,,"01,1,+00360,1,08,1",,,"06,99,1,01,1,02,1,00450,1,03,1,00,1",,"01,9",,,,"99999,9,10123,1","2,1,008,1,+004,1",,"SYN112AAXX  09151 76458 32470 61201 10268 20238 30123 40127 52008 81230 91445 333 0/59/ 30/// 57858 58004 81812 85356;",
"76458099999","2005-09-09T18:00:00","4","23.2","-106.4166666","4.0","COLONIA JUAN CARRASCO MAZATLAN SIN., MX","FM-12","99999","V020","180,1,N,0020,1","04200,1,9,N","020000,1,N,1","+0312,1","+0232,1","10133,1",,,,,,"07,1,+04200,1,03,1",,,"07,99,1,07,1,00,1,02250,1,03,1,00,1",,"01,9",,"120,M,+0336,1","240,N,+0248,1","99999,9,10128,1","2,1,005,1,+019,1",,"SYN118AAXX  09181 76458 32870 71802 10312 20232 30128 40133 52005 87030 91745 333 0//9/ 10336 20248 30/// 57399 58019 87364;",
"76458099999","2005-09-09T21:00:00","4","23.2","-106.4166666","4.0","COLONIA JUAN CARRASCO MAZATLAN SIN., MX","FM-12","99999","V020","210,1,N,0040,1","03600,1,C,N","020000,1,N,1","+0329,1","+0239,1","10115,1",,,,,,"01,1,+01110,1,08,1",,,"06,99,1,01,1,02,1,01250,1,03,1,00,1",,"01,9",,,,"99999,9,10110,1","7,1,018,1,+017,1",,"SYN112AAXX  09211 76458 32670 62104 10329 20239 30110 40115 57018 81230 92045 333 0/19/ 30/// 57818 58017 81837 85364;",
"76458099999","2005-09-10T09:00:00","4","23.2","-106.4166666","4.0","COLONIA JUAN CARRASCO MAZATLAN SIN., MX","FM-12","99999","V020","180,1,N,0020,1","22000,1,9,N","006000,1,N,1","+0278,1","+0237,1","10126,1",,,,,,"00,1,+99999,9,99,9",,,"00,99,1,00,1,00,1,99999,9,00,1,00,1",,"01,9",,,,"99999,9,10128,1","3,1,001,1,-005,1",,"SYN082AAXX  10091 76458 32756 01802 10278 20237 30128 40126 53001 90850 333 30/// 59005;",
"76458099999","2005-09-10T12:00:00","4","23.2","-106.4166666","4.0","COLONIA JUAN CARRASCO MAZATLAN SIN., MX","FM-12","99999","V020","350,1,N,0020,1","22000,1,9,N","008000,1,N,1","+0260,1","+0227,1","10118,1","24,0000,9,1",,,,,"00,1,+99999,9,99,9",,,"00,99,1,00,1,00,1,99999,9,00,1,00,1",,"01,9","999,+0239,1","120,N,+0248,1","240,M,+0352,1","99999,9,10114,1","6,1,008,1,-001,1",,"SYN100AAXX  10121 76458 32958 03502 10260 20227 30114 40118 56008 91140 333 10352 20248 30239 59001 70000;","Q01  00002PRCP24"
"76458099999","2005-09-10T15:00:00","4","23.2","-106.4166666","4.0","COLONIA JUAN CARRASCO MAZATLAN SIN., MX","FM-12","99999","V020","030,1,N,0030,1","22000,1,9,N","020000,1,N,1","+0286,1","+0225,1","10128,1",,,,,,"01,1,+00750,1,08,1",,,"01,99,1,01,1,02,1,00800,1,00,1,00,1",,"01,9",,,,"99999,9,10123,1","3,1,010,1,+000,1",,"SYN106AAXX  10151 76458 32570 10303 10286 20225 30123 40128 53010 81200 91445 333 0/5// 30/// 57855 58000 81825;",
"76458099999","2005-09-10T18:00:00","4","23.2","-106.4166666","4.0","COLONIA JUAN CARRASCO MAZATLAN SIN., MX","FM-12","99999","V020","240,1,N,0030,1","22000,1,9,N","020000,1,N,1","+0319,1","+0251,1","10128,1",,,,,,"01,1,+00840,1,08,1",,,"01,99,1,01,1,01,1,01250,1,00,1,00,1",,"01,9",,"120,M,+0335,1","240,N,+0246,1","99999,9,10124,1","0,1,001,1,-004,1",,"SYN118AAXX  10181 76458 32670 12403 10319 20251 30124 40128 50001 81100 91745 333 0/2// 10335 20246 30/// 57820 59004 81828;",
"76458099999","2005-09-10T21:00:00","4","23.2","-106.4166666","4.0","COLONIA JUAN CARRASCO MAZATLAN SIN., MX","FM-12","99999","V020","270,1,N,0030,1","22000,1,9,N","020000,1,N,1","+0326,1","+0254,1","10105,1",,,,,,"01,1,+00900,1,08,1",,,"01,99,1,01,1,01,1,00800,1,00,1,00,1",,"01,9",,,,"99999,9,10101,1","7,1,023,1,-009,1",,"SYN106AAXX  10211 76458 32570 12703 10326 20254 30101 40105 57023 81100 92047 333 0/1// 30/// 57819 59009 81830;",
"76458099999","2005-09-11T09:00:00","4","23.2","-106.4166666","4.0","COLONIA JUAN CARRASCO MAZATLAN SIN., MX","FM-12","99999","V020","180,1,N,0020,1","22000,1,9,N","020000,1,N,1","+0286,1","+0251,1","10125,1",,,,,,"03,1,+00270,1,01,1",,,"99,99,9,00,1,00,1,99999,9,00,1,00,1",,"01,9",,,,"99999,9,10121,1","1,1,003,1,+000,1",,"SYN106AAXX  11091 76458 32970 01802 10286 20251 30121 40125 51003 83209 90850 333 0/106 30/// 57321 59000 83109;",
"76458099999","2005-09-12T06:00:00","4","23.2","-106.4166666","4.0","COLONIA JUAN CARRASCO MAZATLAN SIN., MX","FM-12","99999","V020","260,1,N,0020,1","22000,1,9,N","015000,1,N,1","+0296,1","+0262,1","10125,1",,,,,,,,,"02,99,1,99,9,03,1,01750,1,99,9,99,9","1086,9","01,9",,"240,M,+0345,1","240,N,+0257,1","99999,9,10121,1","2,1,008,1,+004,1",,"SYN124AAXX  12061 76458 32765 22602 10296 20262 30121 40125 52008 803// 90650 333 0/402 10345 20257 30/// 55181 2//// 58004 81614;",
"76458099999","2005-09-12T09:00:00","4","23.2","-106.4166666","4.0","COLONIA JUAN CARRASCO MAZATLAN SIN., MX","FM-12","99999","V020","999,9,C,0000,1","22000,1,9,N","020000,1,N,1","+0287,1","+0256,1","10125,1",,,,,,"00,1,+99999,9,99,9",,,"00,99,1,00,1,00,1,99999,9,00,1,00,1",,"01,9",,,,"99999,9,10120,1","4,1,000,1,+003,1",,"SYN082AAXX  12091 76458 32870 00000 10287 20256 30120 40125 53000 90850 333 30/// 58003;",
"76458099999","2005-09-12T12:00:00","4","23.2","-106.4166666","4.0","COLONIA JUAN CARRASCO MAZATLAN SIN., MX","FM-12","99999","V020","040,1,N,0010,1","22000,1,9,N","008000,1,N,1","+0282,1","+0253,1","10127,1","24,0000,9,1",,,,,"00,1,+99999,9,99,9",,,"00,99,1,00,1,00,1,99999,9,00,1,00,1",,"01,9","999,+0252,1","120,N,+0260,1","240,M,+0348,1","99999,9,10122,1","3,1,002,1,+003,1",,"SYN100AAXX  12121 76458 32958 00401 10282 20253 30122 40127 53002 91140 333 10348 20260 30252 58003 70000;","Q01  00002PRCP24"
"76458099999","2005-09-12T15:00:00","4","23.2","-106.4166666","4.0","COLONIA JUAN CARRASCO MAZATLAN SIN., MX","FM-12","99999","V020","360,1,N,0020,1","22000,1,9,N","020000,1,N,1","+0298,1","+0253,1","10129,1",,,,,,"01,1,+00540,1,08,1",,,"01,99,1,01,1,02,1,00450,1,00,1,00,1",,"01,9",,,,"99999,9,10124,1","0,1,002,1,-007,1",,"SYN106AAXX  12151 76458 32470 13602 10298 20253 30124 40129 50002 81200 91440 333 0/4// 30/// 57845 59007 81818;",
"76458099999","2005-09-12T18:00:00","4","23.2","-106.4166666","4.0","COLONIA JUAN CARRASCO MAZATLAN SIN., MX","FM-12","99999","V020","240,1,N,0040,1","22000,1,9,N","020000,1,N,1","+0318,1","+0260,1","10130,1",,,,,,"01,1,+00720,1,02,1",,,"01,99,1,01,1,02,1,00800,1,00,1,00,1",,"01,9",,"120,M,+0336,1","240,N,+0260,1","99999,9,10126,1","0,1,002,1,+007,1",,"SYN118AAXX  12181 76458 32570 12404 10318 20260 30126 40130 50002 81200 91745 333 0/1// 10336 20260 30/// 57215 58007 81224;",
"76458099999","2005-09-13T09:00:00","4","23.2","-106.4166666","4.0","COLONIA JUAN CARRASCO MAZATLAN SIN., MX","FM-12","99999","V020","180,1,N,0020,1","22000,1,9,N","018000,1,N,1","+0299,1","+0232,1","10119,1",,,,,,,,,"00,99,1,00,1,00,1,99999,9,00,1,00,1",,"01,9",,,,"99999,9,10116,1","2,1,006,1,-004,1",,"SYN100AAXX  13091 76458 32768 01802 10299 20232 30116 40119 52006 80281 90850 333 0/109 30/// 59004 80284;","Q01    003SCCGA1"
"76458099999","2005-09-13T15:00:00","4","23.2","-106.4166666","4.0","COLONIA JUAN CARRASCO MAZATLAN SIN., MX","FM-12","99999","V020","120,1,N,0030,1","22000,1,9,N","020000,1,N,1","+0286,1","+0240,1","10130,1",,,,,,"02,1,+00570,1,08,1",,,"02,99,1,02,1,02,1,00450,1,00,1,00,1",,"01,9",,,,"99999,9,10126,1","2,1,015,1,+002,1",,"SYN106AAXX  13151 76458 32470 21203 10286 20240 30126 40130 52015 82200 91445 333 0/5// 30/// 57254 58002 82819;",
"76458099999","2005-09-13T18:00:00","4","23.2","-106.4166666","4.0","COLONIA JUAN CARRASCO MAZATLAN SIN., MX","FM-12","99999","V020","150,1,N,0030,1","22000,1,9,N","020000,1,N,1","+0314,1","+0253,1","10137,1","03,0000,9,1",,,,,"03,1,+00750,1,08,1",,,"03,99,1,03,1,02,1,00800,1,00,1,00,1",,"01,9",,"120,M,+0326,1","240,N,+0250,1","99999,9,10133,1","9,9,999,9,+007,1",,"SYN118AAXX  13181 76458 32570 31503 10314 20253 30133 40137 60007 83200 91745 333 0/2// 10326 20250 30/// 57821 58007 83825;","Q01  00002PRCP03"
"76458099999","2005-09-13T21:00:00","4","23.2","-106.4166666","4.0","COLONIA JUAN CARRASCO MAZATLAN SIN., MX","FM-12","99999","V020","240,1,N,0030,1","22000,1,9,N","020000,1,N,1","+0312,1","+0252,1","10120,1",,,,,,"02,1,+00750,1,08,1",,,"03,99,1,02,1,02,1,00800,1,00,1,08,1",,"01,9",,,,"99999,9,10116,1","7,1,017,1,+011,1",,"SYN112AAXX  13211 76458 32570 32403 10312 20252 30116 40120 57017 82208 92045 333 0/8/9 30/// 57881 58011 82825 81268;",
"76458099999","2005-09-14T18:00:00","4","23.2","-106.4166666","4.0","COLONIA JUAN CARRASCO MAZATLAN SIN., MX","FM-12","99999","V020","240,1,N,0030,1","00720,1,9,N","020000,1,N,1","+0313,1","+0255,1","10128,1",,,,,,"05,1,+00720,1,08,1",,,"05,99,1,05,1,02,1,00800,1,00,1,00,1",,"01,9",,"120,M,+0335,1","240,N,+0275,1","99999,9,10124,1","2,1,005,1,-009,1",,"SYN118AAXX  14181 76458 32570 52403 10313 20255 30124 40128 52005 85200 91745 333 0/2// 10335 20275 30/// 57821 59009 85824;",
"76458099999","2005-09-14T21:00:00","4","23.2","-106.4166666","4.0","COLONIA JUAN CARRASCO MAZATLAN SIN., MX","FM-12","99999","V020","260,1,N,0040,1","09000,1,9,N","020000,1,N,1","+0329,1","+0255,1","10104,1",,,,,,"01,1,+00930,1,08,1",,,"06,99,1,01,1,01,1,00800,1,00,1,08,1",,"01,9",,,,"99999,9,10100,1","7,1,024,1,-016,1",,"SYN106AAXX  14211 76458 32570 62604 10329 20255 30100 40104 57024 81108 92046 333 0/1/9 30/// 57819 59016 81831;",
"76458099999","2005-09-15T12:00:00","4","23.2","-106.4166666","4.0","COLONIA JUAN CARRASCO MAZATLAN SIN., MX","FM-12","99999","V020","360,1,N,0020,1","09000,1,9,N","010000,1,N,1","+0275,1","+0258,1","10110,1","03,0002,9,1","06,9999,9,9","24,0003,9,1","9,1,06,1","9,1,06,1",,,,"06,99,1,01,1,09,1,00250,1,00,1,08,1",,"01,9","999,+0262,1","120,N,+0271,1","240,M,+0347,1","99999,9,10105,1","7,1,011,1,-005,1","17,1","SYN136AAXX  15121 76458 01360 63602 10275 20258 30105 40110 57011 69921 71799 81908 91150 333 0/7/9 10347 20271 30262 57979 59005 69927 70002;",
"76458099999","2005-09-15T15:00:00","4","23.2","-106.4166666","4.0","COLONIA JUAN CARRASCO MAZATLAN SIN., MX","FM-12","99999","V020","360,1,N,0010,1","22000,1,9,N","018000,1,N,1","+0292,1","+0252,1","10123,1",,,,,,"01,1,+00510,1,08,1","01,1,+03600,1,03,1",,"03,99,1,01,1,02,1,00450,1,03,1,03,1",,"01,9",,,,"99999,9,10119,1","2,1,014,1,+000,1",,"SYN118AAXX  15151 76458 32468 33601 10292 20252 30119 40123 52014 81233 91445 333 0/699 30/// 57869 58000 81817 81362 81068;",
"76458099999","2005-09-15T18:00:00","4","23.2","-106.4166666","4.0","COLONIA JUAN CARRASCO MAZATLAN SIN., MX","FM-12","99999","V020","130,1,N,0020,1","03600,1,9,N","020000,1,N,1","+0320,1","+0276,1","10126,1",,,,,,"03,1,+00540,1,08,1","02,1,+03600,1,03,1",,"06,99,1,03,1,02,1,00450,1,03,1,03,1",,"01,9",,"120,M,+0345,1","240,N,+0262,1","99999,9,10122,1","2,1,003,1,+008,1",,"SYN130AAXX  15181 76458 32470 61302 10320 20276 30122 40126 52003 83233 91750 333 0/799 10345 20262 30/// 57873 58008 83818 82362 81068;",
"76458099999","2005-09-15T21:00:00","4","23.2","-106.4166666","4.0","COLONIA JUAN CARRASCO MAZATLAN SIN., MX","FM-12","99999","V020","240,1,N,0020,1","03600,1,9,N","020000,1,N,1","+0324,1","+0264,1","10107,1",,,,,,"01,1,+00750,1,08,1",,,"05,99,1,01,1,02,1,00800,1,03,1,00,1",,"01,9",,,,"99999,9,10102,1","7,1,010,1,-006,1",,"SYN112AAXX  15211 76458 32570 52402 10324 20264 30102 40107 57010 81230 92045 333 0/8// 30/// 57883 59006 81825 84362;",
"76458099999","2005-09-16T00:00:00","4","23.2","-106.4166666","4.0","COLONIA JUAN CARRASCO MAZATLAN SIN., MX","FM-12","99999","V020","240,1,N,0020,1","03600,1,9,N","020000,1,N,1","+0318,1","+0280,1","10103,1","24,0000,9,1",,,,,"03,1,+00480,1,09,1",,,"08,99,1,03,1,09,1,00450,1,04,1,00,1",,"01,9",,"120,M,+0350,1","180,N,+0262,1","99999,9,10098,1","3,1,004,1,+012,1",,"SYN136AAXX  16001 76458 32470 82402 10318 20280 30098 40103 53004 83940 90550 333 07190 10350 20262 30/// 50441 57911 58012 70000 83916 85358;",
"76458099999","2005-09-16T03:00:00","4","23.2","-106.4166666","4.0","COLONIA JUAN CARRASCO MAZATLAN SIN., MX","FM-12","99999","V020","330,1,N,0010,1","03600,1,9,N","016000,1,N,1","+0305,1","+0271,1","10111,1","03,0000,9,1",,,"5,1,03,1","5,1,03,1","01,1,+00420,1,08,1","01,1,+01080,1,09,1","01,1,+02400,1,03,1","07,99,1,02,1,09,1,00450,1,03,1,00,1",,"01,9",,,,"99999,9,10107,1","2,1,008,1,+008,1","02,1","SYN136AAXX  16031 76458 21466 73301 10305 20271 30107 40111 52008 70255 82930 90245 333 07110 30/// 57911 58008 69907 81814 81936 81358 81462;","Q01  00002PRCP03"
"76458099999","2005-09-16T06:00:00","4","23.2","-106.4166666","4.0","COLONIA JUAN CARRASCO MAZATLAN SIN., MX","FM-12","99999","V020","360,1,N,0020,1","22000,1,9,N","015000,1,N,1","+0290,1","+0264,1","10120,1",,,,,,"01,1,+02400,1,03,1",,,"01,99,1,99,9,00,1,99999,9,03,1,00,1","0432,9","01,9",,"240,M,+0350,1","240,N,+0262,1","99999,9,10116,1","2,1,009,1,+010,1",,"SYN118AAXX  16061 76458 32965 13602 10290 20264 30116 40120 52009 80030 90540 333 0/090 10350 20262 30/// 55072 58010 81358;",
"76458099999","2005-09-16T12:00:00","4","23.2","-106.4166666","4.0","COLONIA JUAN CARRASCO MAZATLAN SIN., MX","FM-12","99999","V020","030,1,N,0010,1","00420,1,C,N","010000,1,N,1","+0278,1","+0249,1","10109,1","24,0002,9,1",,,"9,1,06,1","9,1,06,1","01,1,+00360,1,09,1",,,"06,99,1,05,1,09,1,00450,1,00,1,03,1",,"01,9","999,+0270,1","120,N,+0274,1","240,M,+0350,1","99999,9,10105,1","0,1,000,1,+000,1","13,1","SYN136AAXX  16121 76458 31460 60301 10278 20249 30105 40109 50000 71399 85903 91148 333 0/4/9 10350 20274 30270 57941 58000 70002 81912 84813;",
"76458099999","2005-09-16T15:00:00","4","23.2","-106.4166666","4.0","COLONIA JUAN CARRASCO MAZATLAN SIN., MX","FM-12","99999","V020","120,1,N,0020,1","09000,1,C,N","018000,1,N,1","+0290,1","+0247,1","10126,1",,,,,,"04,1,+03600,1,04,1",,,"07,99,1,04,1,00,1,02250,1,02,1,08,1",,"01,9",,,,"99999,9,10122,1","2,1,017,1,+003,1",,"SYN112AAXX  16151 76458 32868 71202 10290 20247 30122 40126 52017 84028 91445 333 0//99 30/// 57499 58003 84462 83268;",
"76458099999","2005-09-16T18:00:00","4","23.2","-106.4166666","4.0","COLONIA JUAN CARRASCO MAZATLAN SIN., MX","FM-12","99999","V020","230,1,N,0020,1","03600,1,C,N","020000,1,N,1","+0300,1","+0259,1","10138,1",,,,,,"05,1,+99999,9,03,1",,,"06,99,1,06,1,00,1,00800,1,03,1,04,1",,"01,9",,"120,M,+0324,1","240,N,+0276,1","99999,9,10134,1","2,1,030,1,+012,1",,"SYN124AAXX  16181 76458 32570 62302 10300 20259 30134 40138 52030 86034 91850 333 0//99 10324 20276 30/// 57387 58012 85351 84367;",
"76458099999","2005-09-16T21:00:00","4","23.2","-106.4166666","4.0","COLONIA JUAN CARRASCO MAZATLAN SIN., MX","FM-12","99999","V020","180,1,N,0020,1","22000,1,9,N","018000,1,N,1","+0328,1","+0265,1","10122,1",,,,,,"00,1,+99999,9,99,9",,,"00,99,1,00,1,00,1,99999,9,00,1,00,1",,"01,9",,,,"99999,9,10118,1","3,1,006,1,+005,1",,"SYN082AAXX  16211 76458 32868 01802 10328 20265 30118 40122 53006 92050 333 30/// 58005;",
"76458099999","2005-09-17T03:00:00","4","23.2","-106.4166666","4.0","COLONIA JUAN CARRASCO MAZATLAN SIN., MX","FM-12","99999","V020","300,1,N,0030,1","09000,1,C,N","010000,1,N,1","+0313,1","+0240,1","10121,1",,,,,,"01,1,+00720,1,08,1",,,"05,99,1,01,1,02,1,00800,1,00,1,09,1",,"01,9",,,,"99999,9,10116,1","1,1,009,1,+009,1",,"SYN112AAXX  17031 76458 32560 53003 10313 20240 30116 40121 51009 81209 90245 333 0/109 30/// 57810 58009 81824 83070;",
"76458099999","2005-09-17T06:00:00","4","23.2","-106.4166666","4.0","COLONIA JUAN CARRASCO MAZATLAN SIN., MX","FM-12","99999","V020","300,1,N,0020,1","22000,1,9,N","010000,1,N,1","+0300,1","+0244,1","10117,1",,,,,,"01,1,+06600,1,00,1",,,"01,99,1,00,1,00,1,99999,9,00,1,06,1","0300,9","01,9",,"240,M,+0350,1","240,N,+0272,1","99999,9,10113,1","4,1,000,1,-003,1",,"SYN118AAXX  17061 76458 32960 13002 10300 20244 30113 40117 54001 80006 90540 333 0/009 10350 20272 30/// 55050 59003 81072;",
"76458099999","2005-09-17T09:00:00","4","23.2","-106.4166666","4.0","COLONIA JUAN CARRASCO MAZATLAN SIN., MX","FM-12","99999","V020","030,1,N,0010,1","22000,1,9,N","010000,1,N,1","+0294,1","+0238,1","10112,1",,,,,,"04,1,+00690,1,08,1",,,"04,99,1,04,1,02,1,00800,1,00,1,00,1",,"01,9",,,,"99999,9,10108,1","7,1,005,1,-003,1",,"SYN100AAXX  17091 76458 32560 40301 10294 20238 30108 40112 57005 84200 90842 333 0/700 30/// 59003 84823;",
"76458099999","2005-09-17T12:00:00","4","23.2","-106.4166666","4.0","COLONIA JUAN CARRASCO MAZATLAN SIN., MX","FM-12","99999","V020","999,9,C,0000,1","22000,1,9,N","010000,1,N,1","+0282,1","+0244,1","10109,1","24,0000,9,1",,,,,"01,1,+03600,1,03,1",,,"02,99,1,01,1,00,1,02250,1,03,1,08,1",,"01,9","999,+0258,1","120,N,+0274,1","240,M,+0350,1","99999,9,10105,1","5,1,000,1,+000,1",,"SYN130AAXX  17121 76458 32860 20000 10282 20244 30105 40109 55000 81038 91148 333 0//99 10350 20274 30258 57399 58000 70000 81362 81268;",
"76458099999","2005-09-17T21:00:00","4","23.2","-106.4166666","4.0","COLONIA JUAN CARRASCO MAZATLAN SIN., MX","FM-12","99999","V020","210,1,N,0050,1","22000,1,9,N","020000,1,N,1","+0331,1","+0263,1","10112,1",,,,,,"01,1,+00870,1,09,1",,,"01,99,1,01,1,09,1,00800,1,00,1,00,1",,"01,9",,,,"99999,9,10107,1","7,1,019,1,-011,1",,"SYN106AAXX  17211 76458 32570 12105 10331 20263 30107 40112 57019 81900 92046 333 07100 30/// 57912 59011 81929;",
"76458099999","2005-09-18T00:00:00","4","23.2","-106.4166666","4.0","COLONIA JUAN CARRASCO MAZATLAN SIN., MX","FM-12","99999","V020","250,1,N,0030,1","09000,1,9,N","020000,1,N,1","+0323,1","+0267,1","10093,1","24,0000,9,1",,,,,"03,1,+00720,1,06,1",,,"06,99,1,03,1,02,1,00800,1,00,1,05,1",,"01,9",,"120,M,+0355,1","180,N,+0274,1","99999,9,10089,1","7,1,018,1,-013,1",,"SYN136AAXX  18001 76458 32570 62503 10323 20267 30089 40093 57018 83205 92345 333 0/509 10355 20274 30/// 50271 57654 59013 70000 83624 83070;",
"76458099999","2005-09-18T03:00:00","4","23.2","-106.4166666","4.0","COLONIA JUAN CARRASCO MAZATLAN SIN., MX","FM-12","99999","V020","240,1,N,0030,1","09000,1,C,N","010000,1,N,1","+0310,1","+0259,1","10106,1",,,,,,"03,1,+00720,1,06,1",,,"07,99,1,03,1,01,1,00800,1,00,1,05,1",,"01,9",,,,"99999,9,10101,1","2,1,012,1,-012,1",,"SYN112AAXX  18031 76458 32560 72403 10310 20259 30101 40106 52012 83105 90245 333 0/609 30/// 57660 59012 83624 84070;",
"76458099999","2005-09-18T06:00:00","4","23.2","-106.4166666","4.0","COLONIA JUAN CARRASCO MAZATLAN SIN., MX","FM-12","99999","V020","140,1,N,0020,1","22000,1,9,N","010000,1,N,1","+0308,1","+0258,1","10113,1",,,,,,"02,1,+00780,1,07,1","01,1,+99999,9,04,1",,"03,99,1,02,1,03,1,01750,1,00,1,04,1","0084,9","01,9",,"240,M,+0350,1","240,N,+0274,1","99999,9,10109,1","2,1,007,1,-004,1",,"SYN136AAXX  18061 76458 32760 31402 10308 20258 30109 40113 52007 82304 90550 333 0/6/9 10350 20274 30/// 55014 57682 59004 82726 81453 82057;",
"76458099999","2005-09-18T09:00:00","4","23.2","-106.4166666","4.0","COLONIA JUAN CARRASCO MAZATLAN SIN., MX","FM-12","99999","V020","150,1,N,0020,1","03600,1,9,N","018000,1,N,1","+0302,1","+0257,1","10111,1",,,,,,"02,1,+03600,1,07,1",,,"06,99,1,02,1,03,1,00450,1,02,1,00,1",,"01,9",,,,"99999,9,10168,1","1,1,001,1,+000,1",,"SYN112AAXX  18091 76458 32468 61502 10302 20257 30168 40111 51001 82320 90850 333 0/6// 30/// 57473 58000 82762 83251;",
"76458099999","2005-09-18T12:00:00","4","23.2","-106.4166666","4.0","COLONIA JUAN CARRASCO MAZATLAN SIN., MX","FM-12","99999","V020","999,9,C,0000,1","03600,1,9,N","008000,1,N,1","+0263,1","+0230,1","10106,1","03,9999,9,9","06,9999,9,9","24,0000,9,1","5,1,06,1","9,1,06,1",,,,"08,99,1,02,1,09,1,00450,1,02,1,00,1",,"01,9","999,+0249,1","120,N,+0256,1","240,M,+0345,1","99999,9,10102,2","8,1,005,1,-003,1","13,1","SYN136AAXX  18121 76458 01458 80000 10263 20230 30102 40106 58005 69901 71359 82920 91148 333 0/89/ 10345 20256 30249 57980 59003 69907 79999;","Q01  00002PRCP24Q02  99992PRCP03"
"76458099999","2005-09-18T18:00:00","4","23.2","-106.4166666","4.0","COLONIA JUAN CARRASCO MAZATLAN SIN., MX","FM-12","99999","V020","180,1,N,0020,1","03300,1,9,N","020000,1,N,1","+0306,1","+0256,1","10129,1","06,0005,9,1",,,"5,1,06,1","2,1,06,1","01,1,+00630,1,08,1","04,1,+03300,1,04,1",,"07,99,1,01,1,01,1,00800,1,01,1,02,1",,"01,9",,"120,M,+0330,1","240,N,+0256,1","99999,9,10125,1","0,1,000,1,-001,1","02,1","SYN136AAXX  18181 76458 11570 71802 10306 20256 30125 40129 50000 69951 70252 81112 91750 333 01199 10330 20256 30/// 59001 81821 84461 82079;",
"76458099999","2005-09-18T21:00:00","4","23.2","-106.4166666","4.0","COLONIA JUAN CARRASCO MAZATLAN SIN., MX","FM-12","99999","V020","340,1,N,0020,1","22000,1,9,N","020000,1,N,1","+0312,1","+0242,1","10112,1",,,,,,"02,1,+00360,1,07,1","03,1,+99999,9,04,1",,"99,99,9,02,1,01,1,01250,1,03,1,01,1",,"01,9",,,,"99999,9,10108,1","2,1,016,1,+009,1",,"SYN112AAXX  18211 76458 32670 23402 10312 20242 30108 40112 52016 82131 92050 333 0/199 30/// 58009 82712 83452 81865;",
"76458099999","2005-09-19T00:00:00","4","23.2","-106.4166666","4.0","COLONIA JUAN CARRASCO MAZATLAN SIN., MX","FM-12","99999","V020","250,1,N,0040,1","09000,1,9,N","020000,1,N,1","+0311,1","+0242,1","10094,1","24,0000,9,1",,,,,"01,1,+00720,1,08,1",,,"06,99,1,01,1,02,1,00800,1,00,1,08,1",,"01,9",,"120,M,+0337,1","180,N,+0256,1","99999,9,10090,1","7,1,018,1,+001,1",,"SYN136AAXX  19001 76458 32570 62504 10311 20242 30090 40094 57018 81208 92345 333 0/109 10337 20256 30/// 50351 57816 58001 70000 81824 85070;",
"76458099999","2005-09-19T03:00:00","4","23.2","-106.4166666","4.0","COLONIA JUAN CARRASCO MAZATLAN SIN., MX","FM-12","99999","V020","270,1,N,0030,1","09000,1,C,N","010000,1,N,1","+0300,1","+0251,1","10110,1",,,,,,"04,1,+00660,1,08,1",,,"07,99,1,04,1,02,1,00800,1,00,1,08,1",,"01,9",,,,"99999,9,10105,1","2,1,015,1,+004,1",,"SYN112AAXX  19031 76458 32560 72703 10300 20251 30105 40110 52015 84208 90245 333 0/709 30/// 57870 58004 84822 83070;",
"76458099999","2005-09-19T12:00:00","4","23.2","-106.4166666","4.0","COLONIA JUAN CARRASCO MAZATLAN SIN., MX","FM-12","99999","V020","030,1,N,0010,1","03600,1,C,N","008000,1,N,1","+0280,1","+0237,1","10121,1","24,0025,9,1",,,,,"03,1,+00540,1,06,1",,,"07,99,1,03,1,05,1,00450,1,06,1,99,9",,"01,9","999,+0265,1","120,N,+0276,1","240,M,+0337,1","99999,9,10116,1","3,1,004,1,+014,1",,"SYN130AAXX  19121 76458 32458 70301 10280 20237 30116 40121 53004 8356/ 91145 333 0/59/ 10337 20276 30265 57650 58014 70025 83618 84356;",
"76458099999","2005-09-19T15:00:00","4","23.2","-106.4166666","4.0","COLONIA JUAN CARRASCO MAZATLAN SIN., MX","FM-12","99999","V020","120,1,N,0010,1","03600,1,C,N","016000,1,N,1","+0296,1","+0253,1","10129,1",,,,,,"02,1,+00540,1,08,1","02,1,+02400,1,03,1",,"06,99,1,02,1,02,1,00450,1,03,1,02,1",,"01,9",,,,"99999,9,10125,1","2,1,009,1,+000,1",,"SYN118AAXX  19151 76458 32466 61201 10296 20253 30125 40129 52009 82232 91440 333 07699 30/// 57862 59000 82818 82358 82079;",
"76458099999","2005-09-19T18:00:00","4","23.2","-106.4166666","4.0","COLONIA JUAN CARRASCO MAZATLAN SIN., MX","FM-12","99999","V020","240,1,N,0040,1","22000,1,9,N","020000,1,N,1","+0322,1","+0253,1","10137,1",,,,,,"03,1,+00840,1,08,1",,,"04,99,1,03,1,02,1,00800,1,00,1,02,1",,"01,9",,"120,M,+0340,1","240,N,+0274,1","99999,9,10133,1","1,1,008,1,+033,1",,"SYN124AAXX  19181 76458 32570 42404 10322 20253 30133 40137 51008 83202 91750 333 0/1/9 10340 20274 30/// 57811 58033 83828 81070;",
"76458099999","2005-09-19T21:00:00","4","23.2","-106.4166666","4.0","COLONIA JUAN CARRASCO MAZATLAN SIN., MX","FM-12","99999","V020","240,1,N,0050,1","22000,1,9,N","020000,1,N,1","+0324,1","+0262,1","10127,1",,,,,,"02,1,+00750,1,08,1",,,"03,99,1,02,1,02,1,00800,1,00,1,02,1",,"01,9",,,,"99999,9,10122,1","7,1,011,1,+013,1",,"SYN112AAXX  19211 76458 32570 32405 10324 20262 30122 40127 57011 82202 92045 333 0/1/9 30/// 57812 58013 82825 81070;",
"76458099999","2005-09-20T09:00:00","4","23.2","-106.4166666","4.0","COLONIA JUAN CARRASCO MAZATLAN SIN., MX","FM-12","99999","V020","030,1,N,0020,1","22000,1,9,N","010000,1,N,1","+0280,1","+0239,1","10130,1",,,,,,"02,1,+06600,1,00,1",,,"02,99,1,00,1,00,1,99999,9,00,1,06,1",,"01,9",,,,"99999,9,10125,1","7,1,008,1,+012,1",,"SYN094AAXX  20091 76458 32960 20302 10280 20239 30125 40130 57008 80006 90850 333 30/// 58012 82072;",
"76458099999","2005-09-20T12:00:00","4","23.2","-106.4166666","4.0","COLONIA JUAN CARRASCO MAZATLAN SIN., MX","FM-12","99999","V020","240,1,N,0020,1","03600,1,9,N","010000,1,N,1","+0281,1","+0240,1","10128,1","24,0000,9,1",,,,,"05,1,+03600,1,04,1",,,"07,99,1,05,1,00,1,02250,1,02,1,08,1",,"01,9","999,+0258,1","120,N,+0267,1","240,M,+0348,1","99999,9,10123,1","7,1,002,1,+007,1",,"SYN130AAXX  20121 76458 32860 72402 10281 20240 30123 40128 57002 85028 91150 333 0//99 10348 20267 30258 57499 58007 70000 85462 82268;",
"76458099999","2005-09-20T15:00:00","4","23.2","-106.4166666","4.0","COLONIA JUAN CARRASCO MAZATLAN SIN., MX","FM-12","99999","V020","120,1,N,0030,1","03600,1,9,N","020000,1,N,1","+0288,1","+0250,1","10137,1",,,,,,"01,1,+00450,1,08,1",,,"07,99,1,01,1,02,1,00450,1,03,1,00,1",,"01,9",,,,"99999,9,10132,1","1,1,009,1,+007,1",,"SYN112AAXX  20151 76458 32470 71203 10288 20250 30132 40137 51009 81230 91445 333 0/49/ 30/// 57847 58007 81815 86362;",
"76458099999","2005-09-20T18:00:00","4","23.2","-106.4166666","4.0","COLONIA JUAN CARRASCO MAZATLAN SIN., MX","FM-12","99999","V020","250,1,N,0030,1","09000,1,C,N","020000,1,N,1","+0317,1","+0252,1","10136,1",,,,,,"01,1,+00810,1,08,1","01,1,+02400,1,03,1",,"06,99,1,01,1,01,1,00800,1,05,1,06,1",,"01,9",,"120,M,+0337,1","240,N,+0266,1","99999,9,10132,1","7,1,001,1,-001,1",,"SYN124AAXX  20181 76458 32570 62503 10317 20252 30132 40136 57001 81156 91748 333 01899 10337 20266 30/// 59001 81827 81358 84079;",
"76458099999","2005-09-20T21:00:00","4","23.2","-106.4166666","4.0","COLONIA JUAN CARRASCO MAZATLAN SIN., MX","FM-12","99999","V020","270,1,N,0040,1","22000,1,9,N","020000,1,N,1","+0326,1","+0266,1","10110,1",,,,,,"01,1,+00750,1,08,1","01,1,+02400,1,03,1",,"03,99,1,01,1,01,1,00800,1,03,1,02,1",,"01,9",,,,"99999,9,10105,1","7,1,026,1,-028,1",,"SYN112AAXX  20211 76458 32570 32704 10326 20266 30105 40110 57026 81132 92040 333 01199 30/// 59028 81825 81358 81079;",
"76458099999","2005-09-21T00:00:00","4","23.2","-106.4166666","4.0","COLONIA JUAN CARRASCO MAZATLAN SIN., MX","FM-12","99999","V020","300,1,N,0060,1","22000,1,9,N","020000,1,N,1","+0322,1","+0266,1","10099,1","24,0000,9,1",,,,,"01,1,+00720,1,08,1",,,"04,99,1,01,1,02,1,00800,1,03,1,09,1",,"01,9",,"120,M,+0350,1","180,N,+0266,1","99999,9,10094,1","7,1,012,1,-008,1",,"SYN136AAXX  21001 76458 32570 43006 10322 20266 30094 40099 57012 81239 92345 333 0/199 10350 20266 30/// 50631 57814 59008 70000 81824 81356;",
"76458099999","2005-09-21T03:00:00","4","23.2","-106.4166666","4.0","COLONIA JUAN CARRASCO MAZATLAN SIN., MX","FM-12","99999","V020","300,1,N,0050,1","22000,1,9,N","010000,1,N,1","+0310,1","+0263,1","10110,1",,,,,,"01,1,+01800,1,03,1",,,"03,99,1,01,1,00,1,99999,9,04,1,09,1",,"01,9",,,,"99999,9,10105,1","2,1,011,1,-007,1",,"SYN106AAXX  21031 76458 32960 33005 10310 20263 30105 40110 52011 81049 90245 333 0/099 30/// 59007 81356 82070;",
"76458099999","2005-09-21T06:00:00","4","23.2","-106.4166666","4.0","COLONIA JUAN CARRASCO MAZATLAN SIN., MX","FM-12","99999","V020","330,1,N,0020,1","22000,1,9,N","010000,1,N,1","+0302,1","+0257,1","10117,1",,,,,,"02,1,+02400,1,03,1",,,"02,99,1,99,9,00,1,99999,9,05,1,00,1",,"01,9",,"240,M,+0350,1","240,N,+0266,1","99999,9,10113,1","2,1,008,1,-020,1",,"SYN118AAXX  21061 76458 32960 23302 10302 20257 30113 40117 52008 80050 90542 333 0/090 10350 20266 30/// 55902 59020 82358;",
"76458099999","2005-09-21T15:00:00","4","23.2","-106.4166666","4.0","COLONIA JUAN CARRASCO MAZATLAN SIN., MX","FM-12","99999","V020","120,1,N,0020,1","22000,1,9,N","018000,1,N,1","+0296,1","+0259,1","99999,9",,,,,,,,,"01,99,1,99,9,99,9,00450,1,99,9,99,9",,,,,,,,,"SYN102AAXX  21151 76458 32468 11202 10296 20259 0/5// 30/// 30112 40117 52009 57857 59020 81200 81815 91445;",
"76458099999","2005-09-21T18:00:00","4","23.2","-106.4166666","4.0","COLONIA JUAN CARRASCO MAZATLAN SIN., MX","FM-12","99999","V020","210,1,N,0050,1","22000,1,9,N","020000,1,N,1","+0332,1","+0258,1","10112,1",,,,,,"01,1,+00900,1,08,1",,,"01,99,1,01,1,02,1,00800,1,00,1,00,1",,"01,9",,"120,M,+0352,1","240,N,+0275,1","99999,9,10107,1","6,1,005,1,-002,1",,"SYN118AAXX  21181 76458 32570 12105 10332 20258 30107 40112 56005 81200 91745 333 0/1// 10352 20275 30/// 57815 59002 81830;",
"76458099999","2005-09-21T21:00:00","4","23.2","-106.4166666","4.0","COLONIA JUAN CARRASCO MAZATLAN SIN., MX","FM-12","99999","V020","240,1,N,0040,1","22000,1,9,N","020000,1,N,1","+0333,1","+0260,1","10092,1",,,,,,"01,1,+00900,1,09,1",,,"01,99,1,01,1,03,1,00800,1,00,1,00,1",,"01,9","999,+0087,1",,,"99999,9,10087,1","7,1,020,1,-018,1",,"SYN106AAXX  21211 76458 32570 12404 10333 20260 30087 40092 57020 81300 92040 333 04100 30/// 57912 59018 81930;",
"76458099999","2005-09-22T06:00:00","4","23.2","-106.4166666","4.0","COLONIA JUAN CARRASCO MAZATLAN SIN., MX","FM-12","99999","V020","330,1,N,0020,1","22000,1,9,N","010000,1,N,1","+0302,1","+0271,1","10095,1",,,,,,"00,1,+99999,9,99,9",,,"00,99,1,00,1,00,1,99999,9,00,1,00,1","0612,9","01,9",,"240,M,+9999,9","240,N,+0275,1","99999,9,10091,1","2,1,007,1,-022,1",,"SYN100AAXX  22061 76458 32960 03302 10302 20271 30091 40095 52007 90541 333 10259 20275 30/// 55102 59022;","Q01 +02593ATMM  "
"76458099999","2005-09-22T09:00:00","4","23.2","-106.4166666","4.0","COLONIA JUAN CARRASCO MAZATLAN SIN., MX","FM-12","99999","V020","330,1,N,0010,1","22000,1,9,N","010000,1,N,1","+0294,1","+0263,1","10086,1",,,,,,"00,1,+99999,9,99,9",,,"00,99,1,00,1,00,1,99999,9,00,1,00,1",,"01,9",,,,"99999,9,10081,1","7,1,010,1,-020,1",,"SYN082AAXX  22091 76458 32960 03301 10294 20263 30081 40086 57010 90846 333 30/// 59020;",
"76458099999","2005-09-22T15:00:00","4","23.2","-106.4166666","4.0","COLONIA JUAN CARRASCO MAZATLAN SIN., MX","FM-12","99999","V020","120,1,N,0020,1","00420,1,9,N","018000,1,N,1","+0296,1","+0262,1","10095,1",,,,,,"05,1,+00420,1,06,1",,,"07,99,1,05,1,04,1,00450,1,03,1,00,1",,"01,9",,,,"99999,9,10091,1","2,1,010,1,-021,1",,"SYN112AAXX  22151 76458 32468 71202 10296 20262 30091 40095 52010 85430 91445 333 0/29/ 30/// 57621 59021 85614 82364;",
"76458099999","2005-09-22T18:00:00","4","23.2","-106.4166666","4.0","COLONIA JUAN CARRASCO MAZATLAN SIN., MX","FM-12","99999","V020","150,1,N,0030,1","22000,1,9,N","020000,1,N,1","+0320,1","+0265,1","10099,1",,,,,,"03,1,+00660,1,08,1",,,"03,99,1,03,1,02,1,00800,1,00,1,00,1",,"01,9",,"120,M,+0348,1","240,N,+0270,1","99999,9,10094,1","8,1,003,1,-003,1",,"SYN118AAXX  22181 76458 32570 31503 10320 20265 30094 40099 58003 83200 91745 333 0/1// 10348 20270 30/// 57811 59003 83822;",
"76458099999","2005-09-22T21:00:00","4","23.2","-106.4166666","4.0","COLONIA JUAN CARRASCO MAZATLAN SIN., MX","FM-12","99999","V020","240,1,N,0030,1","22000,1,9,N","020000,1,N,1","+0327,1","+0268,1","10074,1",,,,,,"02,1,+00750,1,08,1",,,"03,99,1,02,1,02,1,00800,1,00,1,02,1",,"01,9",,,,"99999,9,10069,1","7,1,025,1,-018,1",,"SYN112AAXX  22211 76458 32570 32403 10327 20268 30069 40074 57025 82202 92040 333 04109 30/// 57811 59018 82825 81079;",
"76458099999","2005-09-23T00:00:00","4","23.2","-106.4166666","4.0","COLONIA JUAN CARRASCO MAZATLAN SIN., MX","FM-12","99999","V020","270,1,N,0030,1","22000,1,9,N","020000,1,N,1","+0320,1","+0261,1","10061,1","24,0000,9,1",,,,,"01,1,+00750,1,08,1",,,"02,99,1,02,1,03,1,00800,1,00,1,00,1",,"01,9",,"120,M,+0357,1","180,N,+0270,1","99999,9,10057,1","7,1,012,1,-018,1",,"SYN136AAXX  23001 76458 32570 22703 10320 20261 30057 40061 57012 82300 92341 333 04100 10357 20270 30/// 50531 57912 59018 70000 81825 81936;",
"76458099999","2005-09-23T03:00:00","4","23.2","-106.4166666","4.0","COLONIA JUAN CARRASCO MAZATLAN SIN., MX","FM-12","99999","V020","250,1,N,0030,1","22000,1,9,N","020000,1,N,1","+0300,1","+0272,1","10136,2",,,,,,"02,1,+00450,1,06,1",,,"02,99,1,99,9,99,9,01750,1,99,9,99,9",,"01,9",,,,,"2,1,074,1,+048,1",,"SYN106AAXX  23031 76458 32770 22503 10300 20272 30138 40136 52074 90250 333 0/4/0 30/// 57613 58048 82615 82016;",
"76458099999","2005-09-23T06:00:00","4","23.2","-106.4166666","4.0","COLONIA JUAN CARRASCO MAZATLAN SIN., MX","FM-12","99999","V020","270,1,N,0020,1","22000,1,9,N","010000,1,N,1","+0308,1","+0249,1","10080,1",,,,,,"02,1,+00720,1,08,1",,,"02,99,1,02,1,02,1,00800,1,00,1,00,1","0630,9","01,9",,"240,M,+0357,1","240,N,+0270,1","99999,9,10076,1","2,1,011,1,-015,1",,"SYN118AAXX  23061 76458 32560 22702 10308 20249 30076 40080 52011 82200 90543 333 0/700 10357 20270 30/// 55105 59015 82824;",
"76458099999","2005-09-23T12:00:00","4","23.2","-106.4166666","4.0","COLONIA JUAN CARRASCO MAZATLAN SIN., MX","FM-12","99999","V020","140,1,N,0030,1","03600,1,9,N","010000,1,N,1","+0246,1","+0228,1","10081,1","03,0810,9,1","06,0810,9,1","24,0813,9,1","6,1,06,1","6,1,06,1",,,,"08,99,1,04,1,09,1,00250,1,02,1,00,1",,"01,9","999,+0235,1","120,N,+0240,1","240,M,+0357,1","99999,9,10077,1","2,1,006,1,-004,1","17,1","SYN136AAXX  23121 76458 01360 81403 10246 20228 30077 40081 52006 60811 71766 84920 91150 333 0/99/ 10357 20240 30235 57990 59004 60817 70814;",
"76458099999","2005-09-23T18:00:00","4","23.2","-106.4166666","4.0","COLONIA JUAN CARRASCO MAZATLAN SIN., MX","FM-12","99999","V020","210,1,N,0020,1","22000,1,9,N","020000,1,N,1","+0324,1","+0255,1","10089,1",,,,,,"02,1,+00840,1,08,1",,,"03,99,1,02,1,01,1,00800,1,00,1,02,1",,"01,9",,"120,M,+0342,1","240,N,+0240,1","99999,9,10084,1","5,1,004,1,+002,1",,"SYN124AAXX  23181 76458 32570 32102 10324 20255 30084 40089 55004 82102 91745 333 001/9 10342 20240 30/// 57810 58002 82828 81070;",
"76458099999","2005-09-23T21:00:00","4","23.2","-106.4166666","4.0","COLONIA JUAN CARRASCO MAZATLAN SIN., MX","FM-12","99999","V020","210,1,N,0020,1","22000,1,9,N","020000,1,N,1","+0324,1","+0264,1","10074,1",,,,,,"01,1,+00750,1,08,1",,,"02,99,1,01,1,02,1,00800,1,00,1,02,1",,"01,9",,,,"99999,9,10070,1","7,1,014,1,+001,1",,"SYN112AAXX  23211 76458 32570 22102 10324 20264 30070 40074 57014 81202 92045 333 0/2/9 30/// 57823 58001 81825 81070;",
"76458099999","2005-09-24T00:00:00","4","23.2","-106.4166666","4.0","COLONIA JUAN CARRASCO MAZATLAN SIN., MX","FM-12","99999","V020","240,1,N,0030,1","22000,1,9,N","020000,1,N,1","+0320,1","+0256,1","10061,1","24,0814,9,1",,,,,,,,"01,99,1,01,1,02,1,00800,1,00,1,00,1",,"01,9",,"120,M,+0348,1","180,N,+0240,1","99999,9,10057,1","7,1,013,1,+000,1",,"SYN130AAXX  24001 76458 32570 12403 10320 20256 30057 40061 57013 81200 92345 333 0/800 10348 20240 30/// 50291 57984 58000 70814 81922;",
"76458099999","2005-09-24T03:00:00","4","23.2","-106.4166666","4.0","COLONIA JUAN CARRASCO MAZATLAN SIN., MX","FM-12","99999","V020","340,1,N,0020,1","22000,1,9,N","010000,1,N,1","+0302,1","+0234,1","10074,1",,,,,,"03,1,+06000,1,00,1",,,"03,99,1,00,1,00,1,99999,9,00,1,09,1",,"01,9",,,,"99999,9,10070,1","2,1,013,1,-003,1",,"SYN100AAXX  24031 76458 32960 33402 10302 20234 30070 40074 52013 80009 90245 333 0/009 30/// 59003 83070;",
"76458099999","2005-09-24T06:00:00","4","23.2","-106.4166666","4.0","COLONIA JUAN CARRASCO MAZATLAN SIN., MX","FM-12","99999","V020","999,9,C,0000,1","22000,1,9,N","010000,1,N,1","+0288,1","+0247,1","10088,1",,,,,,"01,1,+06600,1,00,1",,,"01,99,1,00,1,00,1,99999,9,00,1,06,1","0510,9","01,9",,"240,M,+0348,1","240,N,+0240,1","99999,9,10083,1","2,1,004,1,+007,1",,"SYN118AAXX  24061 76458 32960 10000 10288 20247 30083 40088 52004 80006 90555 333 0/009 10348 20240 30/// 55085 58007 81072;",
"76458099999","2005-09-24T12:00:00","4","23.2","-106.4166666","4.0","COLONIA JUAN CARRASCO MAZATLAN SIN., MX","FM-12","99999","V020","999,9,C,0000,1","22000,1,9,N","010000,1,N,1","+0272,1","+0245,1","10086,1","24,0020,9,1",,,,,"03,1,+00330,1,06,1",,,"03,99,1,03,1,04,1,00450,1,00,1,00,1",,"01,9","999,+0251,1","120,N,+0263,1","240,M,+0348,1","99999,9,10082,1","5,1,000,1,+005,1",,"SYN124AAXX  24121 76458 32460 30000 10272 20245 30082 40086 55000 83400 91148 333 0/3// 10348 20263 30251 57630 58005 70020 83611;",
"76458099999","2005-09-24T15:00:00","4","23.2","-106.4166666","4.0","COLONIA JUAN CARRASCO MAZATLAN SIN., MX","FM-12","99999","V020","030,1,N,0020,1","22000,1,9,N","020000,1,N,1","+0297,1","+0256,1","10093,1",,,,,,"01,1,+00510,1,08,1",,,"02,99,1,01,1,02,1,00450,1,03,1,00,1",,"01,9",,,,"99999,9,10089,1","2,1,007,1,+001,1",,"SYN112AAXX  24151 76458 32470 20302 10297 20256 30089 40093 52007 81230 91445 333 0/5// 30/// 57852 58001 81817 81362;",
"76458099999","2005-09-24T18:00:00","4","23.2","-106.4166666","4.0","COLONIA JUAN CARRASCO MAZATLAN SIN., MX","FM-12","99999","V020","180,1,N,0030,1","22000,1,9,N","020000,1,N,1","+0316,1","+0252,1","10097,1",,,,,,"03,1,+00360,1,02,1",,,"03,99,1,02,1,03,1,02250,1,02,1,03,1",,"01,9",,"120,M,+0345,1","240,N,+0265,1","99999,9,10093,1","2,1,004,1,+008,1",,"SYN118AAXX  24181 76458 32870 31803 10316 20252 30093 40097 52004 82323 91850 333 0/3// 10345 20265 30/// 57420 58008 83212;",
"76458099999","2005-09-24T21:00:00","4","23.2","-106.4166666","4.0","COLONIA JUAN CARRASCO MAZATLAN SIN., MX","FM-12","99999","V020","020,1,N,0030,1","22000,1,9,N","020000,1,N,1","+0324,1","+0255,1","10086,1",,,,,,,,,"02,99,1,02,1,03,1,02250,1,00,1,00,1",,"01,9",,,,"99999,9,10082,1","7,1,001,1,+007,1",,"SYN100AAXX  24211 76458 32870 20203 10324 20255 30082 40086 57001 82300 92050 333 0/4// 30/// 58007 824//;",
"76458099999","2005-09-25T06:00:00","4","23.2","-106.4166666","4.0","COLONIA JUAN CARRASCO MAZATLAN SIN., MX","FM-12","99999","V020","240,1,N,0010,1","22000,1,9,N","010000,1,N,1","+0304,1","+0252,1","10103,1",,,,,,"01,1,+00660,1,06,1",,,"02,99,1,02,1,09,1,00800,1,00,1,00,1","0558,9","01,9",,"240,M,+0349,1","240,N,+0265,1","99999,9,10098,1","0,1,008,1,+016,1",,"SYN136AAXX  25061 76458 32560 22401 10304 20252 30098 40103 50008 82900 90545 333 07300 10349 20265 30/// 55093 2//// 57933 58016 81622 81936;",
"76458099999","2005-09-25T12:00:00","4","23.2","-106.4166666","4.0","COLONIA JUAN CARRASCO MAZATLAN SIN., MX","FM-12","99999","V020","030,1,N,0010,1","00450,1,9,N","010000,1,N,1","+0278,1","+0242,1","10099,1","06,9999,9,9","24,0000,2,1",,"5,1,06,1","2,1,06,1","07,1,+00450,1,08,1",,,"08,99,1,08,1,09,1,00450,1,00,1,00,1",,"01,9","999,+0267,1","120,N,+0278,1","240,M,+0349,1","99999,9,10095,1","1,1,004,1,+012,1","50,1","SYN136AAXX  25121 76458 11460 80301 10278 20242 30095 40099 51004 69901 75052 88900 91145 333 07600 10349 20278 30267 57961 58012 79999 87815;",
"76458099999","2005-09-25T15:00:00","4","23.2","-106.4166666","4.0","COLONIA JUAN CARRASCO MAZATLAN SIN., MX","FM-12","99999","V020","090,1,N,0020,1","00450,1,9,N","015000,1,N,1","+0282,1","+0247,1","10110,1",,,,,,"05,1,+00450,1,08,1",,,"07,99,1,05,1,02,1,00450,1,00,1,08,1",,"01,9",,,,"99999,9,10105,1","2,1,010,1,+016,1",,"SYN112AAXX  25151 76458 32465 70902 10282 20247 30105 40110 52010 85208 91448 333 0/5/9 30/// 57859 58016 85815 82268;",
"76458099999","2005-09-25T18:00:00","4","23.2","-106.4166666","4.0","COLONIA JUAN CARRASCO MAZATLAN SIN., MX","FM-12","99999","V020","080,1,N,0030,1","00420,1,9,N","020000,1,N,1","+0310,1","+0263,1","10113,1",,,,,,"06,1,+00420,1,07,1",,,"07,99,1,99,9,07,1,01750,1,00,1,00,1",,"01,9",,"120,M,+0329,1","240,N,+0265,1","99999,9,10109,1","2,1,004,1,+016,1",,"SYN124AAXX  25181 76458 32770 70803 10310 20263 30109 40113 52004 88700 91850 333 0/109 10329 20265 30/// 57642 58016 86714 82825;",
"76458099999","2005-09-26T00:00:00","4","23.2","-106.4166666","4.0","COLONIA JUAN CARRASCO MAZATLAN SIN., MX","FM-12","99999","V020","210,1,N,0030,1","03600,1,9,N","020000,1,N,1","+0316,1","+0249,1","10081,1","24,0000,9,1",,,,,"01,1,+00720,1,08,1",,,"05,99,1,01,1,02,1,00800,1,04,1,05,1",,"01,9",,"120,M,+0342,1","180,N,+0276,1","99999,9,10077,1","7,1,023,1,+008,1",,"SYN136AAXX  26001 76458 32570 52103 10316 20249 30077 40081 57023 81245 92345 333 0/199 10342 20276 30/// 50451 57816 58008 70000 81824 82356;",
"76458099999","2005-09-26T09:00:00","4","23.2","-106.4166666","4.0","COLONIA JUAN CARRASCO MAZATLAN SIN., MX","FM-12","99999","V020","120,1,N,0020,1","00300,1,9,N","010000,1,N,1","+0272,1","+0249,1","10109,1","06,0109,9,1",,,"6,1,03,1","6,1,03,1","08,1,+00300,1,06,1",,,"08,99,1,08,1,05,1,00250,1,00,1,00,1",,"09,9",,,,"99999,9,10104,1","4,1,000,1,+013,1","60,1","SYN112AAXX  26091 76458 11360 81202 10272 20249 30104 40109 54000 60111 76066 88500 90855 333 0/990 31/// 58013 88610;",
"76458099999","2005-09-26T12:00:00","4","23.2","-106.4166666","4.0","COLONIA JUAN CARRASCO MAZATLAN SIN., MX","FM-12","99999","V020","090,1,N,0010,1","09000,1,9,N","008000,1,N,1","+0262,1","+0248,1","10110,1","06,0140,9,2","24,0137,9,2",,"9,1,06,1","9,1,06,1",,,,"08,99,1,04,1,05,1,00150,1,00,1,06,1",,"01,9","999,+0253,1","120,N,+0256,1","240,M,+0342,1","99999,9,10106,1","3,1,006,1,+011,1","13,1","SYN136AAXX  26121 76458 01258 80901 10262 20248 30106 40110 53006 60141 71399 84506 91145 333 0/5/9 10342 20256 30253 57650 58011 60141 70136;",
"76458099999","2005-09-26T15:00:00","4","23.2","-106.4166666","4.0","COLONIA JUAN CARRASCO MAZATLAN SIN., MX","FM-12","99999","V020","090,1,N,0030,1","02400,1,9,N","020000,1,N,1","+0272,1","+0248,1","10125,1",,,,,,"01,1,+00300,1,08,1","01,1,+01800,1,03,1","04,1,+02400,1,04,1","08,99,1,01,1,02,1,00150,1,02,1,06,1",,"09,9",,,,"99999,9,10120,1","2,1,014,1,+015,1",,"SYN124AAXX  26151 76458 32270 80903 10272 20248 30120 40125 52014 81226 91445 333 0/599 31/// 57854 58015 81810 84458 81356 82070;",
"76458099999","2005-09-26T18:00:00","4","23.2","-106.4166666","4.0","COLONIA JUAN CARRASCO MAZATLAN SIN., MX","FM-12","99999","V020","150,1,N,0020,1","00450,1,9,N","020000,1,N,1","+0296,1","+0259,1","10128,1",,,,,,"07,1,+00450,1,08,1",,,"07,99,1,07,1,07,1,00150,1,00,1,00,1",,"09,9",,"120,M,+0313,1","240,N,+0254,1","99999,9,10124,1","0,1,004,1,+015,1",,"SYN118AAXX  26181 76458 32270 71502 10296 20259 30124 40128 50004 87700 91740 333 0/200 10313 20254 31/// 57821 58015 87815;",
"76458099999","2005-09-26T21:00:00","4","23.2","-106.4166666","4.0","COLONIA JUAN CARRASCO MAZATLAN SIN., MX","FM-12","99999","V020","240,1,N,0030,1","00360,1,9,N","020000,1,N,1","+0290,1","+0261,1","10116,1","03,0005,9,1",,,"5,1,03,1","2,1,03,1","07,1,+00360,1,08,1",,,"07,99,1,07,1,07,1,00450,1,00,1,00,1",,"09,9",,,,"99999,9,10112,1","7,1,012,1,+019,1","02,1","SYN118AAXX  26211 76458 21470 72403 10290 20261 30112 40116 57012 70252 87700 92038 333 0/5// 31/// 57851 58019 69957 87812;",
"76458099999","2005-09-27T00:00:00","4","23.2","-106.4166666","4.0","COLONIA JUAN CARRASCO MAZATLAN SIN., MX","FM-12","99999","V020","210,1,N,0020,1","00420,1,9,N","016000,1,N,1","+0286,1","+0259,1","10104,1","03,0249,9,2","24,0174,9,2",,"5,1,06,1","2,1,06,1",,,,"07,99,1,07,1,02,1,00450,1,00,1,00,1",,"09,9",,"120,M,+0328,1","180,N,+0254,1","99999,9,10100,1","7,1,012,1,+023,1","50,1","SYN142AAXX  27001 76458 11466 72102 10286 20259 30100 40104 57012 60257 75052 87200 92345 333 0/600 10328 20254 31/// 5//// 57864 58023 70174 87822;",
"76458099999","2005-09-27T03:00:00","4","23.2","-106.4166666","4.0","COLONIA JUAN CARRASCO MAZATLAN SIN., MX","FM-12","99999","V020","240,1,N,0030,1","00600,1,9,N","010000,1,N,1","+0294,1","+0254,1","10114,1",,,,,,"08,1,+00600,1,08,1",,,"08,99,1,08,1,02,1,00450,1,00,1,00,1",,"01,9",,,,"99999,9,10110,1","2,1,010,1,+014,1",,"SYN106AAXX  27031 76458 32460 82403 10294 20254 30110 40114 52010 88200 90245 333 0/600 30/// 57860 58014 88820;",
"76458099999","2005-09-27T12:00:00","4","23.2","-106.4166666","4.0","COLONIA JUAN CARRASCO MAZATLAN SIN., MX","FM-12","99999","V020","999,9,C,0000,1","22000,1,9,N","010000,1,N,1","+0272,1","+0258,1","10105,1","24,0030,9,1",,,,,"02,1,+03600,1,03,1",,,"02,99,1,02,1,00,1,02250,1,03,1,00,1",,"01,9","999,+0252,1","120,N,+0260,1","240,M,+0328,1","99999,9,10100,1","5,1,002,1,-006,1",,"SYN124AAXX  27121 76458 32860 20000 10272 20258 30100 40105 55002 82030 91150 333 0//9/ 10328 20260 30252 57399 59006 70030 82362;",
"76458099999","2005-09-27T18:00:00","4","23.2","-106.4166666","4.0","COLONIA JUAN CARRASCO MAZATLAN SIN., MX","FM-12","99999","V020","270,1,N,0040,1","22000,1,9,N","020000,1,N,1","+0322,1","+0273,1","10115,1",,,,,,"01,1,+00600,1,08,1",,,"01,99,1,01,1,01,1,00800,1,00,1,00,1",,"01,9",,"120,M,+0340,1","240,N,+0260,1","99999,9,10111,1","0,1,003,1,-012,1",,"SYN118AAXX  27181 76458 32570 12704 10322 20273 30111 40115 50003 81100 91745 333 001// 10340 20260 30/// 57810 59012 81820;",
"76458099999","2005-09-27T21:00:00","4","23.2","-106.4166666","4.0","COLONIA JUAN CARRASCO MAZATLAN SIN., MX","FM-12","99999","V020","280,1,N,0060,1","22000,1,9,N","020000,1,N,1","+0326,1","+0271,1","10090,1",,,,,,"01,1,+00690,1,08,1",,,"03,99,1,01,1,02,1,00800,1,00,1,02,1",,"01,9",,,,"99999,9,10085,1","7,1,025,1,-027,1",,"SYN112AAXX  27211 76458 32570 32806 10326 20271 30085 40090 57025 81202 92040 333 04109 30/// 57812 59027 81823 82079;",
"76458099999","2005-09-28T09:00:00","4","23.2","-106.4166666","4.0","COLONIA JUAN CARRASCO MAZATLAN SIN., MX","FM-12","99999","V020","330,1,N,0020,1","22000,1,9,N","010000,1,N,1","+0290,1","+0267,1","10086,1",,,,,,"02,1,+00270,1,08,1",,,"02,99,1,02,1,02,1,00250,1,00,1,00,1",,"01,9",,,,"99999,9,10082,1","7,1,004,1,-020,1",,"SYN100AAXX  28091 76458 32360 23302 10290 20267 30082 40086 57004 82200 90852 333 0/300 30/// 59020 82809;",
"76458099999","2005-09-28T12:00:00","4","23.2","-106.4166666","4.0","COLONIA JUAN CARRASCO MAZATLAN SIN., MX","FM-12","99999","V020","090,1,N,0020,1","05400,1,9,N","010000,1,N,1","+0288,1","+0271,1","10090,1","24,0000,9,1",,,"9,1,06,1","9,1,06,1","05,1,+05400,1,00,1",,,"05,99,1,00,1,00,1,99999,9,00,1,03,1",,"01,9","999,+0260,1","120,N,+0266,1","240,M,+0344,1","99999,9,10085,1","0,1,003,1,-015,1","01,1","SYN130AAXX  28121 76458 31960 50902 10288 20271 30085 40090 50003 70199 80003 91145 333 0///9 10344 20266 30260 57099 59015 70000 85068;",
"76458099999","2005-09-28T15:00:00","4","23.2","-106.4166666","4.0","COLONIA JUAN CARRASCO MAZATLAN SIN., MX","FM-12","99999","V020","030,1,N,0010,1","22000,1,9,N","016000,1,N,1","+0292,1","+0263,1","10097,1",,,,,,"01,1,+00360,1,08,1",,,"01,99,1,01,1,02,1,00450,1,00,1,00,1",,"01,9",,,,"99999,9,10092,1","2,1,007,1,-015,1",,"SYN106AAXX  28151 76458 32466 10301 10292 20263 30092 40097 52007 81200 91445 333 0/5// 30/// 57854 59015 81812;",
"76458099999","2005-09-28T18:00:00","4","23.2","-106.4166666","4.0","COLONIA JUAN CARRASCO MAZATLAN SIN., MX","FM-12","99999","V020","180,1,N,0030,1","22000,1,9,N","014000,1,N,1","+0324,1","+0271,1","10100,1",,,,,,"01,1,+00660,1,08,1",,,"01,99,1,01,1,02,1,00800,1,00,1,00,1",,"01,9",,"120,M,+0342,1","240,N,+0266,1","99999,9,10095,1","0,1,003,1,-015,1",,"SYN118AAXX  28181 76458 32564 11803 10324 20271 30095 40100 50003 81200 91740 333 04100 10342 20266 30/// 57811 59015 81822;",
"76458099999","2005-09-28T21:00:00","4","23.2","-106.4166666","4.0","COLONIA JUAN CARRASCO MAZATLAN SIN., MX","FM-12","99999","V020","240,1,N,0020,1","22000,1,9,N","018000,1,N,1","+0330,1","+0273,1","10087,1",,,,,,"02,1,+00720,1,08,1",,,"02,99,1,02,1,02,1,00800,1,00,1,00,1",,"01,9",,,,"99999,9,10083,1","7,1,012,1,-002,1",,"SYN106AAXX  28211 76458 32568 22402 10330 20273 30083 40087 57012 82200 92040 333 04100 30/// 57812 59002 82824;",
"76458099999","2005-09-29T03:00:00","4","23.2","-106.4166666","4.0","COLONIA JUAN CARRASCO MAZATLAN SIN., MX","FM-12","99999","V020","340,1,N,0020,1","22000,1,9,N","010000,1,N,1","+0310,1","+0273,1","10093,1",,,,,,"01,1,+00720,1,08,1","01,1,+01800,1,03,1",,"03,99,1,01,1,02,1,00450,1,06,1,09,1",,"01,9",,,,"99999,9,10088,1","2,1,020,1,-006,1",,"SYN118AAXX  29031 76458 32460 33402 10310 20273 30088 40093 52020 81269 90245 333 0/599 30/// 57850 59006 81824 81356 81070;",
"76458099999","2005-09-29T06:00:00","4","23.2","-106.4166666","4.0","COLONIA JUAN CARRASCO MAZATLAN SIN., MX","FM-12","99999","V020","999,9,C,0000,1","22000,1,9,N","010000,1,N,1","+0300,1","+0274,1","10104,1",,,,,,"02,1,+06600,1,00,1",,,"02,99,1,00,1,00,1,99999,9,00,1,06,1","0600,9","01,9",,"240,M,+0350,1","240,N,+0266,1","99999,9,10100,1","2,1,012,1,+014,1",,"SYN118AAXX  29061 76458 32960 20000 10300 20274 30100 40104 52012 80006 90538 333 0/009 10350 20266 30/// 55100 58014 82072;",
"76458099999","2005-09-29T12:00:00","4","23.2","-106.4166666","4.0","COLONIA JUAN CARRASCO MAZATLAN SIN., MX","FM-12","99999","V020","999,9,C,0000,1","99999,9,9,N","010000,1,N,1","+0273,1","+0245,1","10100,1","03,0010,9,1","06,0010,9,1","24,0014,9,1","9,1,06,1","9,1,06,1","03,1,+00360,1,09,1",,,"08,99,1,03,1,09,1,00450,1,00,1,00,1",,"01,9","999,+0247,1","120,N,+0270,1","240,M,+0350,1","99999,9,10096,1","5,1,000,1,+011,1","13,1","SYN148AAXX  29121 76458 01460 80000 10273 20245 30096 40100 55000 60011 71399 83900 91150 333 0/4// 10350 20270 30247 57949 58011 60017 70014 83912 85613;",
"76458099999","2005-09-29T18:00:00","4","23.2","-106.4166666","4.0","COLONIA JUAN CARRASCO MAZATLAN SIN., MX","FM-12","99999","V020","120,1,N,0020,1","02400,1,9,N","018000,1,N,1","+0298,1","+0253,1","10116,1","06,0010,9,1",,,"5,1,06,1","2,1,06,1","05,1,+02400,1,03,1",,,"08,99,1,08,1,00,1,02250,1,05,1,00,1",,"09,9",,"120,M,+0308,1","240,N,+0260,1","99999,9,10112,1","2,1,014,1,+016,1","02,1","SYN130AAXX  29181 76458 11868 81202 10298 20253 30112 40116 52014 60011 70252 88050 91740 333 0/050 10308 20260 31/// 58016 85358 83463;",
"76458099999","2005-09-29T21:00:00","4","23.2","-106.4166666","4.0","COLONIA JUAN CARRASCO MAZATLAN SIN., MX","FM-12","99999","V020","180,1,N,0030,1","03900,1,9,N","020000,1,N,1","+0318,1","+0254,1","10100,1","03,0000,9,1",,,"5,1,03,1","2,1,03,1","02,1,+00810,1,08,1","02,1,+02400,1,03,1","02,1,+03900,1,04,1","07,99,1,02,1,02,1,00800,1,03,1,02,1",,"09,9",,,,"99999,9,10096,1","7,1,016,1,+013,1","02,1","SYN136AAXX  29211 76458 21570 71803 10318 20254 30096 40100 57016 70252 82232 92040 333 04199 31/// 57811 58013 69907 82827 82358 82463 81079;","Q01  00002PRCP03"
"76458099999","2005-09-30T00:00:00","4","23.2","-106.4166666","4.0","COLONIA JUAN CARRASCO MAZATLAN SIN., MX","FM-12","99999","V020","210,1,N,0030,1","99999,9,9,N","020000,1,N,1","+0298,1","+0261,1","10098,1","24,0000,9,1",,,,,"04,1,+01410,1,02,1",,,"07,99,1,07,1,00,1,00800,1,04,1,00,1","0066,9","01,9",,"120,M,+0340,1","180,N,+0260,1","99999,9,10093,1","3,1,002,1,+025,1",,"SYN130AAXX  30001 76458 32570 72103 10298 20261 30093 40098 53002 87040 92350 333 0/040 10340 20260 30/// 55011 58025 70000 84247 82573;",
"76458099999","2005-09-30T03:00:00","4","23.2","-106.4166666","4.0","COLONIA JUAN CARRASCO MAZATLAN SIN., MX","FM-12","99999","V020","250,1,N,0030,1","00120,1,C,N","015000,1,N,1","+0296,1","+0254,1","10109,1",,,,,,"08,1,+00120,1,06,1","01,1,+01380,1,02,1",,"99,99,9,03,1,01,1,01250,1,04,1,02,1",,"01,9",,,,"99999,9,10096,1","1,1,003,1,+001,1",,"SYN112AAXX  30031 76458 32665 62503 10296 20254 30096 40109 51003 83142 90250 333 /0106 30/// 58001 88604 81246 83452;",
"76458099999","2005-09-30T06:00:00","4","23.2","-106.4166666","4.0","COLONIA JUAN CARRASCO MAZATLAN SIN., MX","FM-12","99999","V020","180,1,N,0030,1","22000,1,9,N","010000,1,N,1","+0302,1","+0248,1","10120,1",,,,,,"04,1,+00660,1,08,1",,,"04,99,1,04,1,02,1,00800,1,00,1,00,1","0060,9","01,9",,"240,M,+0308,1","240,N,+0260,1","99999,9,10116,1","2,1,019,1,+016,1",,"SYN118AAXX  30061 76458 32560 41803 10302 20248 30116 40120 52019 84200 90550 333 0/700 10308 20260 30/// 55010 58016 84822;",
"76458099999","2005-09-30T09:00:00","4","23.2","-106.4166666","4.0","COLONIA JUAN CARRASCO MAZATLAN SIN., MX","FM-12","99999","V020","210,1,N,0030,1","00690,1,9,N","010000,1,N,1","+0300,1","+0244,1","10098,1",,,,,,"05,1,+00690,1,08,1",,,"05,99,1,05,1,02,1,00800,1,00,1,00,1",,"01,9",,,,"99999,9,10093,1","7,1,016,1,-003,1",,"SYN094AAXX  30091 76458 32560 52103 10300 20244 40098 57016 85200 90855 333 0/100 30/// 59003 85823;",
"76458099999","2005-09-30T18:00:00","4","23.2","-106.4166666","4.0","COLONIA JUAN CARRASCO MAZATLAN SIN., MX","FM-12","99999","V020","120,1,N,0020,1","03600,1,C,N","020000,1,N,1","+0274,1","+0245,1","10112,1","03,0020,9,1","06,0500,9,1",,,,"01,1,+00360,1,08,1","01,1,+02400,1,03,1",,"07,99,1,01,1,02,1,00150,1,03,1,06,1",,"09,9",,"120,M,+0345,1","240,N,+0216,1","99999,9,10107,1","5,1,008,1,-005,1",,"SYN142AAXX  30181 76458 02270 71202 10274 20245 30107 40112 55008 60501 81236 91745 333 0/499 10345 20216 31/// 57848 59005 60027 81812 81358 85070;",
"76458099999","2005-10-01T09:00:00","4","23.2","-106.4166666","4.0","COLONIA JUAN CARRASCO MAZATLAN SIN., MX","FM-12","99999","V020","090,1,N,0020,1","22000,1,9,N","010000,1,N,1","+0276,1","+0252,1","10090,1",,,,,,"04,1,+00300,1,08,1",,,"04,99,1,04,1,02,1,00450,1,00,1,00,1",,"01,9",,,,"99999,9,10088,1","7,1,016,1,-005,1",,"SYN100AAXX  01091 76458 32460 40902 10276 20252 30088 40090 57016 84200 90852 333 0/300 30/// 59005 84810;",
"76458099999","2005-10-01T12:00:00","4","23.2","-106.4166666","4.0","COLONIA JUAN CARRASCO MAZATLAN SIN., MX","FM-12","99999","V020","060,1,N,0020,1","22000,1,9,N","999999,9,N,1","+0270,1","+0245,1","10086,1","24,0533,9,1",,,,,"01,1,+00720,1,09,1",,,"01,99,1,01,1,99,9,00450,1,00,1,00,1",,"01,9","999,+0243,1","120,N,+0267,1","240,M,+0320,1","99999,9,10081,1","6,1,006,1,-023,1",,"SYN124AAXX  01121 76458 32455 10602 10270 20245 30081 40086 56006 81000 91145 333 0/500 10320 20267 30243 57950 59023 70533 81924;",
"76458099999","2005-10-01T15:00:00","4","23.2","-106.4166666","4.0","COLONIA JUAN CARRASCO MAZATLAN SIN., MX","FM-12","99999","V020","090,1,N,0030,1","22000,1,9,N","020000,1,N,1","+0274,1","+0253,1","10098,1",,,,,,"02,1,+00720,1,08,1",,,"03,99,1,02,1,02,1,00250,1,00,1,04,1",,"01,9",,,,"99999,9,10094,1","2,1,013,1,-021,1",,"SYN112AAXX  01151 76458 32370 30903 10274 20253 30094 40098 52013 82204 91435 333 0/509 30/// 57855 59021 82824 81070;",
"76458099999","2005-10-01T18:00:00","4","23.2","-106.4166666","4.0","COLONIA JUAN CARRASCO MAZATLAN SIN., MX","FM-12","99999","V020","180,1,N,0030,1","22000,1,9,N","020000,1,N,1","+0315,1","+0250,1","10100,1",,,,,,"04,1,+00810,1,08,1",,,"04,99,1,04,1,02,1,00800,1,00,1,00,1",,"01,9",,"120,M,+0327,1","240,N,+0260,1","99999,9,10095,1","0,1,001,1,-012,1",,"SYN118AAXX  01181 76458 32570 41803 10315 20250 30095 40100 50001 84200 91745 333 0/6// 10327 20260 30/// 57869 59012 84827;",
"76458099999","2005-10-01T21:00:00","4","23.2","-106.4166666","4.0","COLONIA JUAN CARRASCO MAZATLAN SIN., MX","FM-12","99999","V020","210,1,N,0020,1","22000,1,9,N","020000,1,N,1","+0321,1","+0239,1","10084,1",,,,,,"01,1,+01020,1,08,1",,,"01,99,1,01,1,02,1,01250,1,00,1,00,1",,"01,9",,,,"99999,9,10080,1","7,1,015,1,-015,1",,"SYN106AAXX  01211 76458 32670 12102 10321 20239 30080 40084 57015 81200 92045 333 0/1// 30/// 57815 59015 81834;",
"76458099999","2005-10-02T00:00:00","4","23.2","-106.4166666","4.0","COLONIA JUAN CARRASCO MAZATLAN SIN., MX","FM-12","99999","V020","300,1,N,0030,1","22000,1,9,N","020000,1,N,1","+0308,1","+0243,1","10090,1","24,0000,9,1",,,,,,,,"02,99,1,99,9,03,1,01250,1,08,1,01,1","0234,9","01,9",,"120,M,+0330,1","180,N,+0216,1","99999,9,10085,1","2,1,006,1,-011,1",,"SYN136AAXX  02001 76458 32670 23003 10308 20243 30085 40090 52006 83381 92350 333 0/2// 10330 20216 30/// 55039 2//// 57659 59011 70000 83716;",
"76458099999","2005-10-02T03:00:00","4","23.2","-106.4166666","4.0","COLONIA JUAN CARRASCO MAZATLAN SIN., MX","FM-12","99999","V020","160,1,N,0030,1","22000,1,9,N","017000,1,N,1","+0292,1","+0241,1","10086,1",,,,,,,,,"02,99,1,99,9,99,9,02250,1,99,9,99,9",,"01,9",,,,"99999,9,10081,1","7,1,004,1,-018,1",,"SYN082AAXX  02031 76458 32867 21603 10292 20241 30081 40086 57004 90250 333 30/// 59018;",
"76458099999","2005-10-02T06:00:00","4","23.2","-106.4166666","4.0","COLONIA JUAN CARRASCO MAZATLAN SIN., MX","FM-12","99999","V020","180,1,N,0010,1","00750,1,9,N","008000,1,N,1","+0290,1","+0237,1","10088,1",,,,,,,,,"08,99,1,08,1,07,1,00800,1,00,1,00,1","0396,9","01,9",,"240,M,+0339,1","240,N,+0260,1","99999,9,10083,1","0,1,002,1,-020,1",,"SYN130AAXX  02061 76458 32558 81801 10290 20237 30083 40088 50002 88700 90540 333 0/900 10339 20260 30/// 55066 2//// 57891 59020 88822;",
"76458099999","2005-10-02T09:00:00","4","23.2","-106.4166666","4.0","COLONIA JUAN CARRASCO MAZATLAN SIN., MX","FM-12","99999","V020","350,1,N,0010,1","00390,1,9,N","008000,1,N,1","+0280,1","+0248,1","10084,1",,,,,,"07,1,+00390,1,08,1",,,"07,99,1,07,1,07,1,00450,1,00,1,00,1",,"01,9",,,,"99999,9,10079,1","8,1,004,1,-009,1",,"SYN106AAXX  02091 76458 32458 73501 10280 20248 30079 40084 58004 87700 90840 333 0/200 30/// 57821 59009 87813;",
"76458099999","2005-10-02T12:00:00","4","23.2","-106.4166666","4.0","COLONIA JUAN CARRASCO MAZATLAN SIN., MX","FM-12","99999","V020","020,1,N,0010,1","00300,1,9,N","008000,1,N,1","+0274,1","+0250,1","10084,1","24,0000,9,1",,,,,"08,1,+00300,1,08,1",,,"08,99,1,08,1,07,1,00450,1,00,1,00,1",,"01,9","999,+0250,1","120,N,+0270,1","240,M,+0339,1","99999,9,10080,1","4,1,000,1,-001,1",,"SYN124AAXX  02121 76458 32458 80201 10274 20250 30080 40084 54000 88700 91140 333 0/200 10339 20270 30250 57821 59001 70000 88810;",
"76458099999","2005-10-02T18:00:00","4","23.2","-106.4166666","4.0","COLONIA JUAN CARRASCO MAZATLAN SIN., MX","FM-12","99999","V020","180,1,N,0020,1","22000,1,9,N","020000,1,N,1","+0310,1","+0256,1","10096,1",,,,,,"04,1,+00660,1,08,1",,,"04,99,1,04,1,02,1,00800,1,00,1,00,1",,"01,9",,"120,M,+0329,1","240,N,+0270,1","99999,9,10091,1","0,1,003,1,-004,1",,"SYN118AAXX  02181 76458 32570 41802 10310 20256 30091 40096 50003 84200 91745 333 0/2// 10329 20270 30/// 57829 59004 84822;",
"76458099999","2005-10-02T21:00:00","4","23.2","-106.4166666","4.0","COLONIA JUAN CARRASCO MAZATLAN SIN., MX","FM-12","99999","V020","210,1,N,0030,1","22000,1,9,N","020000,1,N,1","+0316,1","+0251,1","10082,1",,,,,,"01,1,+00810,1,08,1",,,"01,99,1,01,1,01,1,00800,1,00,1,00,1",,"01,9",,,,"99999,9,10077,1","7,1,014,1,-003,1",,"SYN106AAXX  02211 76458 32570 12103 10316 20251 30077 40082 57014 81100 92045 333 0/4// 30/// 57849 59003 81827;",
"76458099999","2005-10-03T00:00:00","4","23.2","-106.4166666","4.0","COLONIA JUAN CARRASCO MAZATLAN SIN., MX","FM-12","99999","V020","310,1,N,0030,1","22000,1,9,N","020000,1,N,1","+0306,1","+0247,1","10088,1","24,0000,9,1",,,,,,,,"02,99,1,01,1,02,1,01250,1,00,1,02,1","0534,9","01,9",,"120,M,+0340,1","180,N,+0270,1","99999,9,10079,1","1,1,002,1,-006,1",,"SYN136AAXX  03001 76458 32670 23103 10306 20247 30079 40088 51002 81202 92350 333 0/5// 10340 20270 30/// 55089 2//// 57637 59006 70000 82736;",
"76458099999","2005-10-03T03:00:00","4","23.2","-106.4166666","4.0","COLONIA JUAN CARRASCO MAZATLAN SIN., MX","FM-12","99999","V020","290,1,N,0020,1","22000,1,9,N","015000,1,N,1","+0296,1","+0245,1","10088,1",,,,,,,,,"03,99,1,99,9,99,9,01250,1,99,9,99,9",,"01,9",,,,"99999,9,10083,1","2,1,004,1,+000,1",,"SYN094AAXX  03031 76458 32665 32902 10296 20245 30083 40088 52004 90250 333 0/3// 30/// 57427 58000;",
"76458099999","2005-10-03T06:00:00","4","23.2","-106.4166666","4.0","COLONIA JUAN CARRASCO MAZATLAN SIN., MX","FM-12","99999","V020","330,1,N,0010,1","22000,1,9,N","010000,1,N,1","+0292,1","+0247,1","10100,1",,,,,,"02,1,+00570,1,08,1",,,"02,99,1,02,1,02,1,00450,1,00,1,00,1","0540,9","01,9",,"240,M,+0339,1","240,N,+0270,1","99999,9,10096,1","2,1,017,1,+013,1",,"SYN118AAXX  03061 76458 32460 23301 10292 20247 30096 40100 52017 82200 90550 333 0/100 10339 20270 30/// 55090 58013 82819;",
"76458099999","2005-10-03T09:00:00","4","23.2","-106.4166666","4.0","COLONIA JUAN CARRASCO MAZATLAN SIN., MX","FM-12","99999","V020","360,1,N,0010,1","22000,1,9,N","010000,1,N,1","+0276,1","+0249,1","10096,1",,,,,,"04,1,+00570,1,08,1",,,"04,99,1,04,1,02,1,00450,1,00,1,00,1",,"01,9",,,,"99999,9,10092,1","7,1,004,1,+013,1",,"SYN100AAXX  03091 76458 32460 43601 10276 20249 30092 40096 57004 84200 90858 333 0/100 30/// 58013 84819;",
"76458099999","2005-10-03T12:00:00","4","23.2","-106.4166666","4.0","COLONIA JUAN CARRASCO MAZATLAN SIN., MX","FM-12","99999","V020","360,1,N,0010,1","22000,1,9,N","008000,1,N,1","+0266,1","+0244,1","10095,1",,,,,,"00,1,+99999,9,99,9",,,"00,99,1,00,1,00,1,99999,9,00,1,00,1",,"01,9","999,+0248,1","120,N,+0260,1","240,M,+0339,1","99999,9,10091,1","5,1,001,1,+011,1",,"SYN094AAXX  03121 76458 32958 03601 10266 20244 30091 40095 55001 91140 333 10339 20260 30248 58011;",
"76458099999","2005-10-03T15:00:00","4","23.2","-106.4166666","4.0","COLONIA JUAN CARRASCO MAZATLAN SIN., MX","FM-12","99999","V020","360,1,N,0020,1","22000,1,9,N","020000,1,N,1","+0284,1","+0249,1","10097,1",,,,,,"01,1,+00420,1,08,1",,,"01,99,1,01,1,02,1,00450,1,00,1,00,1",,"01,9",,,,"99999,9,10093,1","1,1,002,1,+004,1",,"SYN106AAXX  03151 76458 32470 13602 10284 20249 30093 40097 51002 81200 91445 333 0/5// 30/// 57854 58004 81814;",
"76458099999","2005-10-03T18:00:00","4","23.2","-106.4166666","4.0","COLONIA JUAN CARRASCO MAZATLAN SIN., MX","FM-12","99999","V020","240,1,N,0030,1","22000,1,9,N","020000,1,N,1","+0307,1","+0242,1","10099,1",,,,,,"02,1,+00810,1,08,1",,,"02,99,1,02,1,02,1,00800,1,00,1,00,1",,"01,9",,"120,M,+0329,1","240,N,+0260,1","99999,9,10095,1","0,1,002,1,+004,1",,"SYN118AAXX  03181 76458 32570 22403 10307 20242 30095 40099 50002 82200 91740 333 04100 10329 20260 30/// 57813 58004 82827;",
"76458099999","2005-10-03T21:00:00","4","23.2","-106.4166666","4.0","COLONIA JUAN CARRASCO MAZATLAN SIN., MX","FM-12","99999","V020","300,1,N,0040,1","22000,1,9,N","020000,1,N,1","+0313,1","+0246,1","10079,1",,,,,,"01,1,+00840,1,08,1",,,"01,99,1,01,1,01,1,00800,1,00,1,00,1",,"01,9",,,,"99999,9,10074,1","7,1,020,1,-003,1",,"SYN106AAXX  03211 76458 32570 13004 10313 20246 30074 40079 57020 81100 92040 333 00600 30/// 57865 59003 81828;",
"76458099999","2005-10-04T03:00:00","4","23.2","-106.4166666","4.0","COLONIA JUAN CARRASCO MAZATLAN SIN., MX","FM-12","99999","V020","200,1,N,0030,1","22000,1,9,N","015000,1,N,1","+0299,1","+0232,1","10079,1",,,,,,,,,"01,99,1,99,9,99,9,01750,1,99,9,99,9",,"01,9",,,,"99999,9,10074,1","1,1,003,1,-015,1",,"SYN088AAXX  04031 76458 32765 12003 10299 20232 30074 40079 51003 90250 333 0/500 30/// 59015;",
"76458099999","2005-10-04T06:00:00","4","23.2","-106.4166666","4.0","COLONIA JUAN CARRASCO MAZATLAN SIN., MX","FM-12","99999","V020","360,1,N,0020,1","22000,1,9,N","010000,1,N,1","+0282,1","+0239,1","10088,1",,,,,,"00,1,+99999,9,99,9",,,"00,99,1,00,1,00,1,99999,9,00,1,00,1","0600,9","01,9",,"240,M,+0337,1","240,N,+0260,1","99999,9,10084,1","2,1,010,1,-012,1",,"SYN100AAXX  04061 76458 32960 03602 10282 20239 30084 40088 52010 90550 333 10337 20260 30/// 55100 59012;",
"76458099999","2005-10-04T09:00:00","4","23.2","-106.4166666","4.0","COLONIA JUAN CARRASCO MAZATLAN SIN., MX","FM-12","99999","V020","330,1,N,0010,1","03600,1,C,N","010000,1,N,1","+0280,1","+0238,1","10081,1",,,,,,"02,1,+00540,1,08,1",,,"05,99,1,02,1,02,1,00450,1,03,1,00,1",,"01,9",,,,"99999,9,10077,1","7,1,007,1,-015,1",,"SYN106AAXX  04091 76458 32460 53301 10280 20238 30077 40081 57007 82230 90852 333 0/390 30/// 59015 82818 83358;",
"76458099999","2005-10-04T12:00:00","4","23.2","-106.4166666","4.0","COLONIA JUAN CARRASCO MAZATLAN SIN., MX","FM-12","99999","V020","330,1,N,0020,1","00450,1,9,N","008000,1,N,1","+0274,1","+0236,1","10084,1","24,0000,9,1",,,,,"06,1,+00450,1,08,1",,,"06,99,1,06,1,02,1,00450,1,00,1,00,1",,"01,9","999,+0262,1","120,N,+0270,1","240,M,+0337,1","99999,9,10079,1","5,1,001,1,-012,1",,"SYN124AAXX  04121 76458 32458 63302 10274 20236 30079 40084 55001 86200 91140 333 0/6// 10337 20270 30262 57860 59012 70000 86815;",
"76458099999","2005-10-04T18:00:00","4","23.2","-106.4166666","4.0","COLONIA JUAN CARRASCO MAZATLAN SIN., MX","FM-12","99999","V020","270,1,N,0040,1","22000,1,9,N","020000,1,N,1","+0312,1","+0254,1","10086,1",,,,,,"03,1,+00720,1,08,1",,,"03,99,1,03,1,02,1,00800,1,00,1,00,1",,"01,9",,"120,M,+0330,1","240,N,+0270,1","99999,9,10082,1","3,1,004,1,-013,1",,"SYN118AAXX  04181 76458 32570 32704 10312 20254 30082 40086 53004 83200 91745 333 0/7// 10330 20270 30/// 57874 59013 83824;",
"76458099999","2005-10-04T21:00:00","4","23.2","-106.4166666","4.0","COLONIA JUAN CARRASCO MAZATLAN SIN., MX","FM-12","99999","V020","270,1,N,0050,1","22000,1,9,N","020000,1,N,1","+0318,1","+0267,1","10060,1",,,,,,"01,1,+00630,1,08,1",,,"02,99,1,01,1,02,1,00800,1,00,1,06,1",,"01,9",,,,"99999,9,10055,1","7,1,027,1,-021,1",,"SYN112AAXX  04211 76458 32570 22705 10318 20267 30055 40060 57027 81206 92045 333 0/1/9 30/// 57818 59021 81821 81068;",
"76458099999","2005-10-05T00:00:00","4","23.2","-106.4166666","4.0","COLONIA JUAN CARRASCO MAZATLAN SIN., MX","FM-12","99999","V020","280,1,N,0040,1","22000,1,9,N","020000,1,N,1","+0312,1","+0252,1","10041,1","24,0000,9,1",,,,,"01,1,+00750,1,09,1",,,"03,99,1,01,1,03,1,00800,1,03,1,02,1",,"01,9",,"120,M,+0333,1","180,N,+0270,1","99999,9,10037,1","7,1,018,1,-034,1",,"SYN136AAXX  05001 76458 32570 32804 10312 20252 30037 40041 57018 81332 92340 333 04119 10333 20270 30/// 50481 57912 59034 70000 81925 81358;",
"76458099999","2005-10-05T03:00:00","4","23.2","-106.4166666","4.0","COLONIA JUAN CARRASCO MAZATLAN SIN., MX","FM-12","99999","V020","300,1,N,0040,1","22000,1,9,N","016000,1,N,1","+0302,1","+0253,1","10045,1",,,,,,"00,1,+99999,9,99,9",,,"00,99,1,00,1,00,1,99999,9,00,1,00,1",,"01,9",,,,"99999,9,10040,1","1,1,003,1,-034,1",,"SYN082AAXX  05031 76458 23966 03004 10302 20253 30040 40045 51003 90246 333 30/// 59034;",
"76458099999","2005-10-05T06:00:00","4","23.2","-106.4166666","4.0","COLONIA JUAN CARRASCO MAZATLAN SIN., MX","FM-12","99999","V020","330,1,N,0030,1","22000,1,9,N","010000,1,N,1","+0288,1","+0256,1","10047,1",,,,,,,,,"01,99,1,01,1,04,1,00450,1,00,1,00,1","0576,9","01,9",,"240,M,+0333,1","240,N,+0270,1","99999,9,10043,1","2,1,003,1,-041,1",,"SYN124AAXX  05061 76458 32460 13303 10288 20256 30043 40047 52003 81400 90542 333 0/100 10333 20270 30/// 55096 2//// 59041 81613;",
"76458099999","2005-10-05T15:00:00","4","23.2","-106.4166666","4.0","COLONIA JUAN CARRASCO MAZATLAN SIN., MX","FM-12","99999","V020","360,1,N,0020,1","06000,1,9,N","018000,1,N,1","+0282,1","+0247,1","10047,1",,,,,,"05,1,+06000,1,00,1",,,"05,99,1,00,1,00,1,99999,9,00,1,06,1",,"01,9",,,,"99999,9,10042,1","2,1,002,1,-043,1",,"SYN100AAXX  05151 76458 32968 53602 10282 20247 30042 40047 52002 85006 91445 333 0///9 30/// 59043 85070;",
"76458099999","2005-10-05T18:00:00","4","23.2","-106.4166666","4.0","COLONIA JUAN CARRASCO MAZATLAN SIN., MX","FM-12","99999","V020","270,1,N,0040,1","22000,1,9,N","018000,1,N,1","+0311,1","+0257,1","10050,1",,,,,,"01,1,+00660,1,08,1",,,"03,99,1,01,1,02,1,00800,1,00,1,05,1",,"01,9",,"120,M,+0327,1","240,N,+0263,1","99999,9,10046,1","2,1,004,1,-036,1",,"SYN124AAXX  05181 76458 32568 32704 10311 20257 30046 40050 52004 81205 91740 333 04109 10327 20263 30/// 57813 59036 81822 82079;",
"76458099999","2005-10-05T21:00:00","4","23.2","-106.4166666","4.0","COLONIA JUAN CARRASCO MAZATLAN SIN., MX","FM-12","99999","V020","270,1,N,0060,1","22000,1,9,N","020000,1,N,1","+0320,1","+0252,1","10035,1",,,,,,"01,1,+00840,1,09,1","01,1,+02400,1,03,1",,"04,99,1,01,1,03,1,00800,1,03,1,05,1",,"01,9",,,,"99999,9,10031,1","7,1,015,1,-025,1",,"SYN118AAXX  05211 76458 32570 42706 10320 20252 30031 40035 57015 81335 92046 333 04119 30/// 57913 59025 81928 81358 82079;",
"76458099999","2005-10-06T00:00:00","4","23.2","-106.4166666","4.0","COLONIA JUAN CARRASCO MAZATLAN SIN., MX","FM-12","99999","V020","160,1,N,0030,1","22000,1,9,N","020000,1,N,1","+0312,1","+0268,1","10037,1","24,0000,9,1",,,,,"02,1,+00480,1,08,1","01,1,+05100,1,04,1",,"02,99,1,01,1,02,1,01750,1,04,1,06,1",,"01,9",,"120,M,+0339,1","180,N,+0263,1","99999,9,10027,1","4,1,000,1,+000,1",,"SYN136AAXX  06001 76458 32770 21603 10312 20268 30027 40037 54003 81246 92350 333 03128 10339 20263 30/// 57824 59000 70000 82816 81467 83168;",
"76458099999","2005-10-07T00:00:00","4","23.2","-106.4166666","4.0","COLONIA JUAN CARRASCO MAZATLAN SIN., MX","FM-12","99999","V020","350,1,N,0030,1","03600,1,9,N","020000,1,N,1","+0318,1","+0271,1","10051,1","24,0000,9,1",,,,,,,,"06,99,1,03,1,02,1,01750,1,04,1,01,1","0150,9","01,9",,"120,M,+0341,1","180,N,+0263,1","99999,9,10046,1","2,1,007,1,+019,1",,"SYN136AAXX  07001 76458 32770 63503 10318 20271 30046 40051 52007 83241 92350 333 0/199 10341 20263 30/// 55025 2//// 57212 58019 70000 82631;",
"76458099999","2005-10-07T12:00:00","4","23.2","-106.4166666","4.0","COLONIA JUAN CARRASCO MAZATLAN SIN., MX","FM-12","99999","V020","110,1,N,0040,1","00120,1,9,N","008000,1,N,1","+0280,1","+0256,1","10075,1","01,0003,9,1","24,0003,9,1",,"0,1,06,1","0,1,06,1",,,,"08,99,1,08,1,05,1,00150,1,00,1,00,1",,"01,9","999,+0264,1","120,N,+0276,1","240,M,+0341,1","99999,9,10070,1","2,1,018,1,+032,1","13,1","SYN136AAXX  07121 76458 01258 81104 10280 20256 30070 40075 52018 69935 71300 88500 91140 333 0/4// 10341 20276 30264 57640 58032 69935 70003;",
"76458099999","2005-10-07T15:00:00","4","23.2","-106.4166666","4.0","COLONIA JUAN CARRASCO MAZATLAN SIN., MX","FM-12","99999","V020","300,1,N,0020,1","00600,1,C,N","016000,1,N,1","+0258,1","+0250,1","10092,1","03,0400,9,1",,,"6,1,03,1","9,1,03,1","03,1,+00090,1,06,1","02,1,+00600,1,09,1",,"08,99,1,03,1,05,1,00150,1,02,1,00,1",,"11,9",,,,"99999,9,10088,1","2,1,018,1,+035,1","17,1","SYN136AAXX  07151 76458 01266 83002 10258 20250 30088 40092 52018 60407 71769 83520 91450 333 0/59/ 32/// 57650 58035 60407 83603 82920 83458;",
"76458099999","2005-10-07T18:00:00","4","23.2","-106.4166666","4.0","COLONIA JUAN CARRASCO MAZATLAN SIN., MX","FM-12","99999","V020","110,1,N,0020,1","00420,1,9,N","018000,1,N,1","+0292,1","+0258,1","10098,1","03,9999,9,9","06,9999,9,9",,"2,1,06,1","5,1,06,1","07,1,+00420,1,06,1",,,"07,99,1,99,9,04,1,00450,1,00,1,00,1",,"09,9",,"120,M,+0305,1","240,N,+0248,1","99999,9,10093,1","2,1,005,1,+038,1","02,1","SYN136AAXX  07181 76458 01468 71102 10292 20258 30093 40098 52005 69901 70225 88400 91748 333 0/6// 10305 20248 31/// 57669 58038 69907 87614;","Q01  99992PRCP03"
"76458099999","2005-10-07T21:00:00","4","23.2","-106.4166666","4.0","COLONIA JUAN CARRASCO MAZATLAN SIN., MX","FM-12","99999","V020","190,1,N,0030,1","00540,1,9,N","018000,1,N,1","+0289,1","+0246,1","10082,1",,,,,,"07,1,+00540,1,06,1",,,"07,99,1,07,1,04,1,00450,1,00,1,00,1",,"09,9",,,,"99999,9,10078,1","7,1,015,1,+038,1",,"SYN106AAXX  07211 76458 32468 71903 10289 20246 30078 40082 57015 87400 92045 333 0/2// 31/// 57629 58038 87618;",
"76458099999","2005-10-08T09:00:00","4","23.2","-106.4166666","4.0","COLONIA JUAN CARRASCO MAZATLAN SIN., MX","FM-12","99999","V020","240,1,N,0030,1","01230,1,9,N","010000,1,N,1","+0288,1","+0185,1","10082,1",,,,,,"08,1,+01230,1,06,1",,,"08,99,1,08,1,05,1,01250,1,00,1,00,1",,"01,9",,,,"99999,9,10078,1","7,1,012,1,+026,1",,"SYN100AAXX  08091 76458 32660 82403 10288 20185 30078 40082 57012 88500 90858 333 0/300 30/// 58026 88641;",
"76458099999","2005-10-08T15:00:00","4","23.2","-106.4166666","4.0","COLONIA JUAN CARRASCO MAZATLAN SIN., MX","FM-12","99999","V020","070,1,N,0020,1","00090,1,9,N","008000,1,N,1","+0238,1","+0231,1","10105,1","03,0420,9,1",,,"9,1,03,1","6,1,03,1","08,1,+00090,1,06,1",,,"08,99,1,08,1,05,1,00075,1,00,1,00,1",,"11,9",,,,"99999,9,10101,1","2,1,017,1,+013,1","20,1","SYN118AAXX  08151 76458 21158 80702 10238 20231 30101 40105 52017 72096 88500 91445 333 0/5// 32/// 57640 58013 60427 88603;",
"76458099999","2005-10-08T21:00:00","4","23.2","-106.4166666","4.0","COLONIA JUAN CARRASCO MAZATLAN SIN., MX","FM-12","99999","V020","170,1,N,0030,1","00510,1,9,N","020000,1,N,1","+0276,1","+0235,1","10091,1",,,,,,"08,1,+00510,1,06,1",,,"08,99,1,08,1,04,1,00450,1,00,1,00,1",,"01,9",,,,"99999,9,10087,1","7,1,017,1,+009,1",,"SYN106AAXX  08211 76458 32470 81703 10276 20235 30087 40091 57017 88400 92045 333 0/6// 30/// 57669 58009 88617;",
"76458099999","2005-10-09T00:00:00","4","23.2","-106.4166666","4.0","COLONIA JUAN CARRASCO MAZATLAN SIN., MX","FM-12","99999","V020","040,1,N,0030,1","03600,1,9,N","020000,1,N,1","+0267,1","+0243,1","10090,1","24,0000,9,1",,,,,"04,1,+00060,1,05,1",,,"06,99,1,01,1,03,1,01750,1,01,1,00,1","0090,9","01,9",,"120,M,+0290,1","180,N,+0230,1","99999,9,10086,1","3,1,001,1,+002,1",,"SYN136AAXX  09001 76458 32770 60403 10267 20243 30086 40090 53001 81310 92350 333 0/560 10290 20230 30/// 55015 57658 58002 70000 84502 86372;",
"76458099999","2005-10-09T06:00:00","4","23.2","-106.4166666","4.0","COLONIA JUAN CARRASCO MAZATLAN SIN., MX","FM-12","99999","V020","080,1,N,0030,1","99999,9,9,N","008000,1,N,1","+0258,1","+0232,1","10098,1",,,,,,"03,1,+02400,1,03,1",,,"05,99,1,03,1,00,1,99999,9,03,1,04,1","0000,9","09,9",,"240,M,+0290,1","240,N,+0230,1","99999,9,10094,1","0,1,004,1,+004,1",,"SYN130AAXX  09061 76458 32958 50803 10258 20232 30094 40098 50004 83034 90545 333 0/049 10290 20230 31/// 55000 2//// 58004 83358 82079;",
"76458099999","2005-10-09T09:00:00","4","23.2","-106.4166666","4.0","COLONIA JUAN CARRASCO MAZATLAN SIN., MX","FM-12","99999","V020","080,1,N,9999,9","00420,1,9,N","008000,1,N,1","+0258,1","+0225,1","10092,1",,,,,,"07,1,+00420,1,08,1",,,"07,99,1,07,1,07,1,00450,1,00,1,00,1",,"09,9",,,,"99999,9,10088,1","7,1,006,1,+010,1",,"SYN106AAXX  09091 76458 32458 70840 10258 20225 30088 40092 57006 87700 90846 333 0/400 31/// 57840 58010 87814;",
"76458099999","2005-10-09T12:00:00","4","23.2","-106.4166666","4.0","COLONIA JUAN CARRASCO MAZATLAN SIN., MX","FM-12","99999","V020","120,1,N,0040,1","00330,1,9,N","008000,1,N,1","+0253,1","+0226,1","10090,1","06,9999,9,9","24,0454,9,1",,"5,1,06,1","5,1,06,1","08,1,+00330,1,08,1",,,"08,99,1,08,1,07,1,00450,1,00,1,00,1",,"01,9","999,+0240,1","120,N,+0246,1","240,M,+0290,1","99999,9,10086,1","5,1,002,1,+002,1","50,1","SYN136AAXX  09121 76458 11458 81204 10253 20226 30086 40090 55002 69921 75055 88700 91140 333 0/400 10290 20246 30240 57840 58002 70454 88811;",
"76458099999","2005-10-09T15:00:00","4","23.2","-106.4166666","4.0","COLONIA JUAN CARRASCO MAZATLAN SIN., MX","FM-12","99999","V020","080,1,N,0040,1","00450,1,9,N","020000,1,N,1","+0258,1","+0223,1","10099,1","03,0004,9,1",,,"5,1,03,1","5,1,03,1","05,1,+00450,1,08,1","01,1,+02400,1,03,1",,"07,99,1,05,1,07,1,00450,1,03,1,00,1",,"09,9",,,,"99999,9,10095,1","3,1,009,1,-006,1","02,1","SYN130AAXX  09151 76458 21470 70804 10258 20223 30095 40099 53009 70255 85730 91448 333 0/390 31/// 57830 59006 69947 85815 81358 81461;",
"76458099999","2005-10-09T18:00:00","4","23.2","-106.4166666","4.0","COLONIA JUAN CARRASCO MAZATLAN SIN., MX","FM-12","99999","V020","150,1,N,0020,1","00540,1,9,N","020000,1,N,1","+0284,1","+0240,1","10099,1",,,,,,"07,1,+00540,1,06,1",,,"07,99,1,07,1,04,1,00450,1,00,1,00,1",,"01,9",,"120,M,+0301,1","240,N,+0246,1","99999,9,10095,1","0,1,000,1,-009,1",,"SYN118AAXX  09181 76458 32470 71502 10284 20240 30095 40099 50000 87400 91745 333 0/3// 10301 20246 30/// 57639 59009 87618;",
"76458099999","2005-10-09T21:00:00","4","23.2","-106.4166666","4.0","COLONIA JUAN CARRASCO MAZATLAN SIN., MX","FM-12","99999","V020","110,1,N,0040,1","00330,1,9,N","018000,1,N,1","+0265,1","+0238,1","10093,1",,,,,,"08,1,+00330,1,06,1",,,"08,99,1,08,1,04,1,00450,1,00,1,00,1",,"01,9",,,,"99999,9,10089,1","7,1,006,1,+002,1",,"SYN106AAXX  09211 76458 32468 81104 10265 20238 30089 40093 57006 88400 92045 333 0/4// 30/// 57649 58002 88611;",
"76458099999","2005-10-10T03:00:00","4","23.2","-106.4166666","4.0","COLONIA JUAN CARRASCO MAZATLAN SIN., MX","FM-12","99999","V020","090,1,N,0030,1","00210,1,9,N","010000,1,N,1","+0246,1","+0234,1","10105,1","01,0020,9,1",,,,,"06,1,+00210,1,06,1",,,"08,99,1,06,1,05,1,00800,1,03,1,00,1",,"09,9",,,,"99999,9,10101,1","7,1,004,1,+012,1",,"SYN118AAXX  10031 76458 11560 80903 10246 20234 30101 40105 57004 86530 90255 333 0/79/ 31/// 57679 58012 60025 86607 82362;",
"76458099999","2005-10-10T09:00:00","4","23.2","-106.4166666","4.0","COLONIA JUAN CARRASCO MAZATLAN SIN., MX","FM-12","99999","V020","360,1,N,0010,1","00210,1,9,N","010000,1,N,1","+0246,1","+0236,1","10106,1",,,,,,"08,1,+00210,1,06,1",,,"08,99,1,08,1,05,1,00150,1,00,1,00,1",,"11,9",,,,"99999,9,10102,1","7,1,006,1,+014,1",,"SYN100AAXX  10091 76458 32260 83601 10246 20236 30102 40106 57006 88500 90855 333 0/900 32/// 58014 88607;",
"76458099999","2005-10-10T12:00:00","4","23.2","-106.4166666","4.0","COLONIA JUAN CARRASCO MAZATLAN SIN., MX","FM-12","99999","V020","210,1,N,0030,1","00750,1,9,N","008000,1,N,1","+0262,1","+0212,1","10111,1","06,0249,9,1",,,,,,,,"08,99,1,08,1,02,1,00800,1,00,1,00,1",,,,,,"99999,9,10107,1","3,1,004,1,+999,9",,"SYN072AAXX  10121 76458 12558 82103 10262 20212 30107 40111 53004 60251 88200;",
"76458099999","2005-10-10T15:00:00","4","23.2","-106.4166666","4.0","COLONIA JUAN CARRASCO MAZATLAN SIN., MX","FM-12","99999","V020","090,1,N,0040,1","00120,1,C,N","016000,1,N,1","+0240,1","+0226,1","10128,1","03,0040,9,1",,,"5,1,03,1","5,1,03,1","04,1,+00150,1,07,1",,,"07,99,1,07,1,05,1,00150,1,00,1,00,1",,"11,9",,,,"99999,9,10124,1","2,1,017,1,+029,1","20,1","SYN124AAXX  10151 76458 11266 70904 10240 20226 30124 40128 52017 72055 87500 91445 333 0/5// 32/// 57750 58029 60047 84705 83805;",
"76458099999","2005-10-10T18:00:00","4","23.2","-106.4166666","4.0","COLONIA JUAN CARRASCO MAZATLAN SIN., MX","FM-12","99999","V020","120,1,N,0040,1","00570,1,9,N","020000,1,N,1","+0278,1","+0231,1","10133,1","03,0300,9,1",,,"6,1,06,1","5,1,06,1","07,1,+00570,1,08,1",,,"07,99,1,07,1,02,1,00450,1,00,1,00,1",,"09,9",,"120,M,+0307,1","240,N,+0234,1","99999,9,10129,1","0,1,005,1,+034,1","02,1","SYN130AAXX  10181 76458 11470 71204 10278 20231 30129 40133 50005 60307 70265 87200 91740 333 0/300 10307 20234 31/// 57830 58034 87819;",
"76458099999","2005-10-10T21:00:00","4","23.2","-106.4166666","4.0","COLONIA JUAN CARRASCO MAZATLAN SIN., MX","FM-12","99999","V020","160,1,N,0040,1","22000,1,9,N","020000,1,N,1","+0292,1","+0212,1","10115,1",,,,,,"01,1,+00990,1,08,1","01,1,+02700,1,03,1",,"03,99,1,01,1,02,1,01250,1,03,1,01,1",,"09,9",,,,"99999,9,10111,1","7,1,018,1,+022,1",,"SYN118AAXX  10211 76458 32670 31604 10292 20212 30111 40115 57018 81231 92040 333 0/399 31/// 57831 58022 81833 81359 81079;",
"76458099999","2005-10-11T00:00:00","4","23.2","-106.4166666","4.0","COLONIA JUAN CARRASCO MAZATLAN SIN., MX","FM-12","99999","V020","140,1,N,0020,1","22000,1,9,N","020000,1,N,1","+0286,1","+0203,1","10106,1","24,0000,9,1",,,,,,,,"04,99,1,03,1,04,1,01750,1,00,1,03,1","1398,9","01,9",,"120,M,+0310,1","180,N,+0234,1","99999,9,10119,1","5,1,008,1,-003,1",,"SYN136AAXX  11001 76458 32770 41402 10286 20203 30119 40106 55008 83403 92350 333 0/400 10310 20234 30/// 55233 2//// 57620 59003 70000 86829;",
"76458099999","2005-10-11T12:00:00","4","23.2","-106.4166666","4.0","COLONIA JUAN CARRASCO MAZATLAN SIN., MX","FM-12","99999","V020","330,1,N,0030,1","00240,1,9,N","008000,1,N,1","+0246,1","+0228,1","10115,1","24,0036,9,1",,,,,"07,1,+00240,1,08,1",,,"07,99,1,07,1,02,1,00150,1,00,1,00,1",,"01,9","999,+0240,1","120,N,+0244,1","240,M,+0310,1","99999,9,10110,1","3,1,002,1,+003,1",,"SYN124AAXX  11121 76458 32258 73303 10246 20228 30110 40115 53002 87200 91140 333 0/6// 10310 20244 30240 57860 58003 70036 87808;",
"76458099999","2005-10-11T15:00:00","4","23.2","-106.4166666","4.0","COLONIA JUAN CARRASCO MAZATLAN SIN., MX","FM-12","99999","V020","330,1,N,0020,1","01800,1,9,N","020000,1,N,1","+0254,1","+0229,1","10121,1",,,,,,"07,1,+01800,1,03,1",,,"07,99,1,07,1,00,1,00450,1,05,1,00,1",,"01,9",,,,"99999,9,10116,1","2,1,006,1,-008,1",,"SYN094AAXX  11151 76458 32470 73302 10254 20229 30116 40121 52006 87050 91440 333 30/// 59008 87356;",
"76458099999","2005-10-11T18:00:00","4","23.2","-106.4166666","4.0","COLONIA JUAN CARRASCO MAZATLAN SIN., MX","FM-12","99999","V020","260,1,N,0040,1","22000,1,9,N","020000,1,N,1","+0280,1","+0229,1","10118,1",,,,,,"04,1,+00660,1,08,1",,,"04,99,1,04,1,02,1,00800,1,00,1,00,1",,"01,9",,"120,M,+0305,1","240,N,+0238,1","99999,9,10113,1","6,1,003,1,-016,1",,"SYN118AAXX  11181 76458 32570 42604 10280 20229 30113 40118 56003 84200 91750 333 0/6// 10305 20238 30/// 57869 59016 84822;",
"76458099999","2005-10-11T21:00:00","4","23.2","-106.4166666","4.0","COLONIA JUAN CARRASCO MAZATLAN SIN., MX","FM-12","99999","V020","270,1,N,0030,1","22000,1,9,N","020000,1,N,1","+0295,1","+0231,1","10096,1",,,,,,"01,1,+00810,1,08,1",,,"01,99,1,01,1,02,1,00800,1,00,1,00,1",,"01,9",,,,"99999,9,10092,1","7,1,011,1,-019,1",,"SYN106AAXX  11211 76458 32570 12703 10295 20231 30092 40096 57011 81200 92050 333 0/1// 30/// 57819 59019 81827;",
"76458099999","2005-10-12T00:00:00","4","23.2","-106.4166666","4.0","COLONIA JUAN CARRASCO MAZATLAN SIN., MX","FM-12","99999","V020","270,1,N,0030,1","22000,1,9,N","020000,1,N,1","+0291,1","+0235,1","10089,1","24,0000,9,1",,,,,"01,1,+00690,1,08,1",,,"01,99,1,01,1,01,1,00800,1,00,1,00,1",,"01,9",,"120,M,+0315,1","180,N,+0238,1","99999,9,10084,1","7,1,007,1,-017,1",,"SYN124AAXX  12001 76458 32570 12703 10291 20235 30084 40089 57007 81100 92340 333 01700 10315 20238 30/// 50301 59017 70000 81823;",
"76458099999","2005-10-12T06:00:00","4","23.2","-106.4166666","4.0","COLONIA JUAN CARRASCO MAZATLAN SIN., MX","FM-12","99999","V020","330,1,N,0020,1","00420,1,9,N","010000,1,N,1","+0267,1","+0232,1","10098,1",,,,,,,,,"05,99,1,05,1,02,1,00450,1,00,1,00,1","0408,9","01,9",,"240,M,+0315,1","240,N,+0238,1","99999,9,10093,1","7,1,002,1,-020,1",,"SYN124AAXX  12061 76458 32460 53302 10267 20232 30093 40098 57002 85200 90538 333 0/700 10315 20238 30/// 55068 2//// 59020 85814;",
"76458099999","2005-10-12T12:00:00","4","23.2","-106.4166666","4.0","COLONIA JUAN CARRASCO MAZATLAN SIN., MX","FM-12","99999","V020","999,9,C,0010,1","22000,1,9,N","010000,1,N,1","+0244,1","+0230,1","10091,1","24,0000,9,1",,,,,"01,1,+02700,1,03,1",,,"02,99,1,01,1,00,1,99999,9,03,1,01,1",,"01,9","999,+0223,1","120,N,+0238,1","240,M,+0315,1","99999,9,10087,1","5,1,001,1,-023,1",,"SYN124AAXX  12121 76458 32960 20001 10244 20230 30087 40091 55001 81031 91146 333 0/099 10315 20238 30223 59023 70000 81359 81079;",
"76458099999","2005-10-12T15:00:00","4","23.2","-106.4166666","4.0","COLONIA JUAN CARRASCO MAZATLAN SIN., MX","FM-12","99999","V020","090,1,N,0030,1","22000,1,9,N","020000,1,N,1","+0260,1","+0238,1","10101,1",,,,,,"01,1,+00270,1,08,1",,,"02,99,1,01,1,02,1,00250,1,05,1,00,1",,"01,9",,,,"99999,9,10096,1","2,1,009,1,-020,1",,"SYN112AAXX  12151 76458 32370 20903 10260 20238 30096 40010 52009 81250 91440 333 0/59/ 30/// 57850 59020 81809 81556;",
"76458099999","2005-10-12T18:00:00","4","23.2","-106.4166666","4.0","COLONIA JUAN CARRASCO MAZATLAN SIN., MX","FM-12","99999","V020","210,1,N,0020,1","22000,1,9,N","018000,1,N,1","+0295,1","+0234,1","10101,1",,,,,,"01,1,+00750,1,08,1",,,"01,99,1,01,1,02,1,00800,1,00,1,00,1",,"01,9",,"120,M,+0320,1","240,N,+0236,1","99999,9,10096,1","0,1,000,1,-017,1",,"SYN118AAXX  12181 76458 32568 12102 10295 20234 30096 40101 50000 81200 91745 333 0/1// 10320 20236 30/// 57811 59017 81825;",
"76458099999","2005-10-12T21:00:00","4","23.2","-106.4166666","4.0","COLONIA JUAN CARRASCO MAZATLAN SIN., MX","FM-12","99999","V020","240,1,N,0040,1","22000,1,9,N","020000,1,N,1","+0306,1","+0198,1","10084,1",,,,,,"01,1,+01350,1,08,1",,,"01,99,1,01,1,02,1,01250,1,00,1,00,1",,"01,9",,,,"99999,9,10079,1","7,1,017,1,-013,1",,"SYN106AAXX  12211 76458 32670 12404 10306 20198 30079 40084 57017 81200 92045 333 0/1// 30/// 57815 59013 81845;",
"76458099999","2005-10-13T00:00:00","4","23.2","-106.4166666","4.0","COLONIA JUAN CARRASCO MAZATLAN SIN., MX","FM-12","99999","V020","340,1,N,0020,1","22000,1,9,N","020000,1,N,1","+0306,1","+0207,1","10078,1","24,0000,9,5",,,,,,,,"02,99,1,99,9,99,9,02250,1,99,9,99,9","0108,9","01,9",,"120,M,+0330,1","180,N,+0236,1","99999,9,10074,1","6,1,005,1,-001,1",,"SYN112AAXX  13001 76458 32870 23402 10306 20207 30074 40078 56005 92350 333 10330 20236 30/// 55018 2//// 59001 70000;",
"76458099999","2005-10-13T03:00:00","4","23.2","-106.4166666","4.0","COLONIA JUAN CARRASCO MAZATLAN SIN., MX","FM-12","99999","V020","350,1,N,0020,1","22000,1,9,N","018000,1,N,1","+0286,1","+0228,1","10096,1",,,,,,"00,1,+99999,9,99,9",,,"00,99,1,00,1,00,1,99999,9,00,1,00,1",,"01,9",,,,"99999,9,10091,1","2,1,017,1,+000,1",,"SYN088AAXX  13031 76458 32668 03502 10286 20228 30091 40096 52017 90250 333 0/3// 30/// 59000;",
"76458099999","2005-10-13T15:00:00","4","23.2","-106.4166666","4.0","COLONIA JUAN CARRASCO MAZATLAN SIN., MX","FM-12","99999","V020","030,1,N,0010,1","22000,1,9,N","020000,1,N,1","+0260,1","+0227,1","10100,1",,,,,,"01,1,+01800,1,03,1",,,"01,99,1,01,1,00,1,00450,1,08,1,00,1",,"01,9",,,,"99999,9,10096,1","2,1,007,1,+000,1",,"SYN100AAXX  13151 76458 32470 10301 10260 20227 30096 40100 52007 81080 91445 333 0//9/ 30/// 58000 81356;",
"76458099999","2005-10-13T18:00:00","4","23.2","-106.4166666","4.0","COLONIA JUAN CARRASCO MAZATLAN SIN., MX","FM-12","99999","V020","150,1,N,0030,1","22000,1,9,N","020000,1,N,1","+0310,1","+0212,1","10103,1",,,,,,"01,1,+01800,1,03,1",,,"02,99,1,01,1,00,1,01250,1,03,1,09,1",,"01,9",,"120,M,+0330,1","240,N,+0232,1","99999,9,10099,1","2,1,003,1,+003,1",,"SYN118AAXX  13181 76458 32670 21503 10310 20212 30099 40103 52003 81039 91750 333 0//99 10330 20232 30/// 58003 81356 81170;",
"76458099999","2005-10-13T21:00:00","4","23.2","-106.4166666","4.0","COLONIA JUAN CARRASCO MAZATLAN SIN., MX","FM-12","99999","V020","270,1,N,0030,1","22000,1,9,N","020000,1,N,1","+0308,1","+0232,1","10093,1",,,,,,"01,1,+00960,1,08,1",,,"01,99,1,01,1,02,1,01250,1,00,1,00,1",,"01,9",,,,"99999,9,10089,1","7,1,010,1,+010,1",,"SYN106AAXX  13211 76458 32670 12703 10308 20232 30089 40093 57010 81200 92045 333 0/1// 30/// 57816 58010 81832;",
"76458099999","2005-10-14T00:00:00","4","23.2","-106.4166666","4.0","COLONIA JUAN CARRASCO MAZATLAN SIN., MX","FM-12","99999","V020","360,1,N,0030,1","22000,1,9,N","020000,1,N,1","+0302,1","+0234,1","10097,1","24,0000,9,1",,,,,,,,"02,99,1,02,1,03,1,01750,1,00,1,00,1","0156,9","01,9",,"120,M,+0332,1","180,N,+0232,1","99999,9,10083,1","6,1,005,1,+009,1",,"SYN130AAXX  14001 76458 32770 23603 10302 20234 30083 40097 56005 82300 92350 333 0/2// 10332 20232 30/// 55026 57624 58009 70000 82731;",
"76458099999","2005-10-14T03:00:00","4","23.2","-106.4166666","4.0","COLONIA JUAN CARRASCO MAZATLAN SIN., MX","FM-12","99999","V020","240,1,N,0030,1","22000,1,9,N","018000,1,N,1","+0284,1","+0223,1","10101,1",,,,,,,,,"03,99,1,99,9,99,9,00800,1,99,9,99,9",,"01,9",,,,"99999,9,10096,1","2,1,013,1,+007,1",,"SYN088AAXX  14031 76458 32568 32403 10284 20223 30096 40101 52013 90250 333 0/1// 30/// 58007;",
"76458099999","2005-10-14T06:00:00","4","23.2","-106.4166666","4.0","COLONIA JUAN CARRASCO MAZATLAN SIN., MX","FM-12","99999","V020","330,1,N,0020,1","99999,9,9,N","010000,1,N,1","+0280,1","+0210,1","10114,1",,,,,,"04,1,+02400,1,03,1",,,"06,99,1,04,1,00,1,99999,9,03,1,06,1","0600,9","01,9",,"240,M,+0332,1","240,N,+0232,1","99999,9,10110,1","2,1,013,1,+016,1",,"SYN124AAXX  14061 76458 32960 63302 10280 20210 30110 40114 52013 84036 90550 333 0/099 10332 20232 30/// 55100 58016 84358 82072;",
"76458099999","2005-10-14T09:00:00","4","23.2","-106.4166666","4.0","COLONIA JUAN CARRASCO MAZATLAN SIN., MX","FM-12","99999","V020","130,1,N,0010,1","22000,1,9,N","010000,1,N,1","+0262,1","+0229,1","10110,1",,,,,,"02,1,+02400,1,03,1",,,"02,99,1,02,1,00,1,99999,9,03,1,00,1",,"01,9",,,,"99999,9,10106,1","7,1,004,1,-023,1",,"SYN100AAXX  14091 76458 32960 21301 10262 20229 30106 40110 57004 82030 90845 333 0/090 30/// 59023 82358;",
"76458099999","2005-10-14T12:00:00","4","23.2","-106.4166666","4.0","COLONIA JUAN CARRASCO MAZATLAN SIN., MX","FM-12","99999","V020","360,1,N,0020,1","22000,1,9,N","008000,1,N,1","+0250,1","+0228,1","10112,1","24,0000,9,1",,,,,"04,1,+01800,1,03,1",,,"04,99,1,04,1,00,1,02250,1,03,1,00,1",,"01,9","999,+0230,1","120,N,+0244,1","240,M,+0332,1","99999,9,10108,1","3,1,002,1,+019,1",,"SYN112AAXX  14121 76458 32858 43602 10250 20228 30108 40112 53002 84030 91145 333 10332 20244 30230 58019 70000 84356;",
"76458099999","2005-10-14T15:00:00","4","23.2","-106.4166666","4.0","COLONIA JUAN CARRASCO MAZATLAN SIN., MX","FM-12","99999","V020","180,1,N,0010,1","22000,1,9,N","020000,1,N,1","+0270,1","+0234,1","10123,1",,,,,,"02,1,+01800,1,03,1",,,"02,99,1,02,1,00,1,00450,1,03,1,00,1",,"01,9",,,,"99999,9,10118,1","2,1,018,1,+022,1",,"SYN100AAXX  14151 76458 32470 21801 10270 20234 30118 40123 52018 82030 91445 333 0//9/ 30/// 58022 82356;",
"76458099999","2005-10-14T18:00:00","4","23.2","-106.4166666","4.0","COLONIA JUAN CARRASCO MAZATLAN SIN., MX","FM-12","99999","V020","240,1,N,0030,1","03600,1,C,N","020000,1,N,1","+0296,1","+0239,1","10131,1",,,,,,"01,1,+00690,1,08,1","01,1,+00720,1,06,1",,"07,99,1,02,1,01,1,00800,1,03,1,00,1",,"01,9",,"120,M,+0330,1","240,N,+0244,1","99999,9,10126,1","2,1,008,1,+027,1",,"SYN130AAXX  14181 76458 32570 72403 10296 20239 30126 40131 52008 82130 91745 333 0/19/ 10330 20244 30/// 57810 58027 81823 81624 85356;",
"76458099999","2005-10-14T21:00:00","4","23.2","-106.4166666","4.0","COLONIA JUAN CARRASCO MAZATLAN SIN., MX","FM-12","99999","V020","270,1,N,0040,1","22000,1,9,N","020000,1,N,1","+0307,1","+0217,1","10115,1",,,,,,"01,1,+01110,1,08,1",,,"02,99,1,01,1,02,1,01250,1,03,1,00,1",,"01,9",,,,"99999,9,10110,1","7,1,016,1,+026,1",,"SYN112AAXX  14211 76458 32670 22704 10307 20217 30110 40115 57016 81230 92045 333 0/19/ 30/// 57818 58026 81837 81358;",
"76458099999","2005-10-15T00:00:00","4","23.2","-106.4166666","4.0","COLONIA JUAN CARRASCO MAZATLAN SIN., MX","FM-12","99999","V020","360,1,N,0030,1","22000,1,9,N","020000,1,N,1","+0308,1","+0223,1","10110,1","24,0000,9,1",,,,,"01,1,+00270,1,01,1",,,"01,99,1,01,1,01,1,02250,1,02,1,00,1","0060,9","01,9",,"120,M,+0330,1","180,N,+0244,1","99999,9,10106,1","1,1,003,1,+023,1",,"SYN136AAXX  15001 76458 32870 13603 10308 20223 30106 40110 51003 81120 92350 333 0/17/ 10330 20244 30/// 55010 57620 58023 70000 81109 82513;",
"76458099999","2005-10-15T03:00:00","4","23.2","-106.4166666","4.0","COLONIA JUAN CARRASCO MAZATLAN SIN., MX","FM-12","99999","V020","350,1,N,0020,1","22000,1,9,N","018000,1,N,1","+0290,1","+0227,1","10116,1",,,,,,,,,"02,99,1,99,9,99,9,01750,1,99,9,99,9",,"01,9",,,,"99999,9,10112,1","2,1,006,1,+009,1",,"SYN088AAXX  15031 76458 32768 23502 10290 20227 30112 40116 52006 90250 333 0/1// 30/// 58009;",
"76458099999","2005-10-15T09:00:00","4","23.2","-106.4166666","4.0","COLONIA JUAN CARRASCO MAZATLAN SIN., MX","FM-12","99999","V020","330,1,N,0010,1","22000,1,9,N","010000,1,N,1","+0258,1","+0210,1","10120,1",,,,,,"00,1,+99999,9,99,9",,,"00,99,1,00,1,00,1,99999,9,00,1,00,1",,"01,9",,,,"99999,9,10115,1","7,1,008,1,+009,1",,"SYN082AAXX  15091 76458 32960 03301 10258 20210 30115 40120 57008 90848 333 30/// 58009;",
"76458099999","2005-10-15T12:00:00","4","23.2","-106.4166666","4.0","COLONIA JUAN CARRASCO MAZATLAN SIN., MX","FM-12","99999","V020","060,1,N,0010,1","01800,1,9,N","008000,1,N,1","+0246,1","+0221,1","10124,1","24,0000,9,1",,,,,"06,1,+01800,1,03,1",,,"06,99,1,06,1,00,1,02250,1,03,1,00,1",,"01,9","999,+0228,1","120,N,+0240,1","240,M,+0330,1","99999,9,10120,1","3,1,005,1,+012,1",,"SYN112AAXX  15121 76458 32858 60601 10246 20221 30120 40124 53005 86030 91140 333 10330 20240 30228 58012 70000 86356;",
"76458099999","2005-10-15T15:00:00","4","23.2","-106.4166666","4.0","COLONIA JUAN CARRASCO MAZATLAN SIN., MX","FM-12","99999","V020","090,1,N,0040,1","22000,1,9,N","020000,1,N,1","+0264,1","+0234,1","10143,1",,,,,,"01,1,+00360,1,08,1",,,"02,99,1,01,1,01,1,00250,1,03,1,00,1",,"01,9",,,,"99999,9,10138,1","2,1,018,1,+020,1",,"SYN106AAXX  15151 76458 32370 20904 10264 20234 30138 40143 52018 81130 91445 333 0069/ 30/// 58020 81812 81356;",
"76458099999","2005-10-15T18:00:00","4","23.2","-106.4166666","4.0","COLONIA JUAN CARRASCO MAZATLAN SIN., MX","FM-12","99999","V020","250,1,N,0020,1","22000,1,9,N","020000,1,N,1","+0299,1","+0225,1","10133,1",,,,,,"01,1,+03000,1,03,1",,,"01,99,1,01,1,00,1,02250,1,03,1,00,1",,"01,9",,"120,M,+0322,1","240,N,+0240,1","99999,9,10128,1","8,1,010,1,+002,1",,"SYN118AAXX  15181 76458 32870 12502 10299 20225 30128 40133 58010 81030 91745 333 0//9/ 10322 20240 30/// 57399 58002 81360;",
"76458099999","2005-10-15T21:00:00","4","23.2","-106.4166666","4.0","COLONIA JUAN CARRASCO MAZATLAN SIN., MX","FM-12","99999","V020","260,1,N,0030,1","22000,1,9,N","020000,1,N,1","+0306,1","+0207,1","10107,1",,,,,,"01,1,+01350,1,08,1",,,"01,99,1,01,1,02,1,01250,1,00,1,00,1",,"01,9",,,,"99999,9,10103,1","7,1,026,1,-007,1",,"SYN106AAXX  15211 76458 32670 12603 10306 20207 30103 40107 57026 81200 92050 333 0/1// 30/// 57815 59007 81845;",
"76458099999","2005-10-16T03:00:00","4","23.2","-106.4166666","4.0","COLONIA JUAN CARRASCO MAZATLAN SIN., MX","FM-12","99999","V020","320,1,N,0020,1","22000,1,9,N","018000,1,N,1","+0292,1","+0232,1","10102,1",,,,,,,,,"01,99,1,99,9,99,9,01750,1,99,9,99,9",,"01,9",,,,"99999,9,10097,1","2,1,004,1,-021,1",,"SYN082AAXX  16031 76458 32768 13202 10292 20232 30097 40102 52004 90250 333 30/// 59021;",
"76458099999","2005-10-16T09:00:00","4","23.2","-106.4166666","4.0","COLONIA JUAN CARRASCO MAZATLAN SIN., MX","FM-12","99999","V020","350,1,N,0010,1","22000,1,9,N","008000,1,N,1","+0258,1","+0230,1","10106,1",,,,,,"01,1,+02700,1,03,1",,,"02,99,1,01,1,00,1,99999,9,03,1,09,1",,"01,9",,,,"99999,9,10102,1","6,1,002,1,-013,1",,"SYN106AAXX  16091 76458 32958 23501 10258 20230 30102 40106 56002 81039 90840 333 0/099 30/// 59013 81359 81169;",
"76458099999","2005-10-16T12:00:00","4","23.2","-106.4166666","4.0","COLONIA JUAN CARRASCO MAZATLAN SIN., MX","FM-12","99999","V020","340,1,N,0010,1","22000,1,9,N","008000,1,N,1","+0247,1","+0226,1","10092,1","24,0000,9,1",,,,,"00,1,+99999,9,99,9",,,"00,99,1,00,1,00,1,99999,9,00,1,00,1",,"01,9","999,+0219,1","120,N,+0241,1","240,M,+0330,1","99999,9,10088,1","7,1,014,1,-032,1",,"SYN100AAXX  16121 76458 32958 03401 10247 20226 30088 40092 57014 91145 333 10330 20241 30219 59032 70000;","Q01  00002PRCP24"
"76458099999","2005-10-16T15:00:00","4","23.2","-106.4166666","4.0","COLONIA JUAN CARRASCO MAZATLAN SIN., MX","FM-12","99999","V020","060,1,N,0010,1","22000,1,9,N","018000,1,N,1","+0270,1","+0225,1","10112,1",,,,,,"01,1,+02400,1,03,1",,,"01,99,1,01,1,00,1,99999,9,03,1,00,1",,"01,9",,,,"99999,9,10107,1","2,1,019,1,-031,1",,"SYN100AAXX  16151 76458 32968 10601 10270 20225 30107 40112 52019 81030 91444 333 0/090 30/// 59031 81358;",
"76458099999","2005-10-16T18:00:00","4","23.2","-106.4166666","4.0","COLONIA JUAN CARRASCO MAZATLAN SIN., MX","FM-12","99999","V020","210,1,N,0020,1","22000,1,9,N","020000,1,N,1","+0306,1","+0244,1","10113,1",,,,,,"01,1,+00780,1,08,1",,,"02,99,1,01,1,01,1,00800,1,00,1,09,1",,"01,9",,"120,M,+0322,1","240,N,+0239,1","99999,9,10108,1","0,1,001,1,-020,1",,"SYN124AAXX  16181 76458 32570 22102 10306 20244 30108 40113 50001 81109 91745 333 0/5/9 10322 20239 30/// 57859 59020 81826 81970;",
"76458099999","2005-10-16T21:00:00","4","23.2","-106.4166666","4.0","COLONIA JUAN CARRASCO MAZATLAN SIN., MX","FM-12","99999","V020","240,1,N,0030,1","22000,1,9,N","020000,1,N,1","+0305,1","+0256,1","10091,1",,,,,,"01,1,+00600,1,08,1",,,"01,99,1,01,1,01,1,00800,1,00,1,00,1",,"01,9",,,,"99999,9,10087,1","7,1,021,1,-016,1",,"SYN106AAXX  16211 76458 32570 12403 10305 20256 30087 40091 57021 81100 92050 333 0/6// 30/// 57869 59016 81820;",
"76458099999","2005-10-17T00:00:00","4","23.2","-106.4166666","4.0","COLONIA JUAN CARRASCO MAZATLAN SIN., MX","FM-12","99999","V020","230,1,N,0030,1","22000,1,9,N","020000,1,N,1","+0303,1","+0236,1","10089,1","24,0000,9,1",,,,,,,,"01,99,1,01,1,02,1,01250,1,00,1,00,1","0078,9","01,9",,"120,M,+0325,1","180,N,+0239,1","99999,9,10082,1","6,1,004,1,-011,1",,"SYN130AAXX  17001 76458 32670 12303 10303 20236 30082 40089 56004 81200 92350 333 0/5// 10325 20239 30/// 55013 57679 59011 70000 81720;",
"76458099999","2005-10-17T03:00:00","4","23.2","-106.4166666","4.0","COLONIA JUAN CARRASCO MAZATLAN SIN., MX","FM-12","99999","V020","230,1,N,0020,1","22000,1,9,N","018000,1,N,1","+0287,1","+0231,1","10104,1",,,,,,,,,"02,99,1,99,9,99,9,00800,1,99,9,99,9",,"01,9",,,,"99999,9,10100,1","1,1,018,1,+001,1",,"SYN082AAXX  17031 76458 32568 22302 10287 20231 30100 40104 51018 90250 333 30/// 58001;",
"76458099999","2005-10-17T06:00:00","4","23.2","-106.4166666","4.0","COLONIA JUAN CARRASCO MAZATLAN SIN., MX","FM-12","99999","V020","310,1,N,0020,1","22000,1,9,N","010000,1,N,1","+0278,1","+0235,1","10116,1",,,,,,"01,1,+02400,1,03,1",,,"01,99,1,99,9,00,1,99999,9,03,1,00,1","0600,9","01,9",,"240,M,+0325,1","240,N,+0239,1","99999,9,10112,1","2,1,012,1,+008,1",,"SYN118AAXX  17061 76458 32960 13102 10278 20235 30112 40116 52012 80030 90555 333 0/090 10325 20239 30/// 55100 58008 81358;",
"76458099999","2005-10-17T09:00:00","4","23.2","-106.4166666","4.0","COLONIA JUAN CARRASCO MAZATLAN SIN., MX","FM-12","99999","V020","330,1,N,0020,1","22000,1,9,N","010000,1,N,1","+0268,1","+0229,1","10106,1",,,,,,"00,1,+99999,9,99,9",,,"00,99,1,00,1,00,1,99999,9,00,1,00,1",,"01,9",,,,"99999,9,10101,1","7,1,011,1,-001,1",,"SYN082AAXX  17091 76458 32960 03302 10268 20229 30101 40106 57011 90850 333 30/// 59001;",
"76458099999","2005-10-17T12:00:00","4","23.2","-106.4166666","4.0","COLONIA JUAN CARRASCO MAZATLAN SIN., MX","FM-12","99999","V020","330,1,N,0010,1","22000,1,9,N","010000,1,N,1","+0254,1","+0232,1","10108,1","24,0000,9,1",,,,,"00,1,+99999,9,99,9",,,"00,99,1,00,1,00,1,99999,9,00,1,00,1",,"01,9","999,+0222,1","120,N,+0233,1","240,M,+0325,1","99999,9,10103,1","5,1,002,1,+015,1",,"SYN100AAXX  17121 76458 32960 03301 10254 20232 30103 40108 55002 91140 333 10325 20233 30222 58015 70000;","Q01  00002PRCP24"
"76458099999","2005-10-17T18:00:00","4","23.2","-106.4166666","4.0","COLONIA JUAN CARRASCO MAZATLAN SIN., MX","FM-12","99999","V020","270,1,N,0030,1","22000,1,9,N","020000,1,N,1","+0298,1","+0242,1","10126,1",,,,,,"01,1,+00690,1,08,1",,,"01,99,1,01,1,02,1,00800,1,00,1,00,1",,"01,9",,"120,M,+0322,1","240,N,+0233,1","99999,9,10122,1","2,1,008,1,+014,1",,"SYN118AAXX  17181 76458 32570 12703 10298 20242 30122 40126 52008 81200 91745 333 0/1// 10322 20233 30/// 57815 58014 81823;",
"76458099999","2005-10-17T21:00:00","4","23.2","-106.4166666","4.0","COLONIA JUAN CARRASCO MAZATLAN SIN., MX","FM-12","99999","V020","300,1,N,0060,1","22000,1,9,N","020000,1,N,1","+0304,1","+0239,1","10103,1",,,,,,"01,1,+00810,1,08,1",,,"01,99,1,01,1,02,1,00800,1,00,1,00,1",,"01,9",,,,"99999,9,10099,1","7,1,023,1,+012,1",,"SYN106AAXX  17211 76458 32570 13006 10304 20239 30099 40103 57023 81200 92045 333 0/1// 30/// 57816 58012 81827;",
"76458099999","2005-10-18T06:00:00","4","23.2","-106.4166666","4.0","COLONIA JUAN CARRASCO MAZATLAN SIN., MX","FM-12","99999","V020","330,1,N,0030,1","22000,1,9,N","010000,1,N,1","+0274,1","+0236,1","10114,1",,,,,,"01,1,+02400,1,03,1",,,"01,99,1,99,9,00,1,99999,9,03,1,00,1","0600,9","01,9",,"240,M,+0327,1","240,N,+0233,1","99999,9,10110,1","2,1,004,1,-002,1",,"SYN118AAXX  18061 76458 32960 13303 10274 20236 30110 40114 52004 80030 90541 333 0/090 10327 20233 30/// 55100 59002 81358;",
"76458099999","2005-10-18T09:00:00","4","23.2","-106.4166666","4.0","COLONIA JUAN CARRASCO MAZATLAN SIN., MX","FM-12","99999","V020","320,1,N,0020,1","22000,1,9,N","010000,1,N,1","+0268,1","+0213,1","10103,1",,,,,,"00,1,+99999,9,99,9",,,"00,99,1,00,1,00,1,99999,9,00,1,00,1",,"01,9",,,,"99999,9,10098,1","7,1,012,1,-003,1",,"SYN082AAXX  18091 76458 32960 03202 10268 20213 30098 40103 57012 90855 333 30/// 59003;",
"76458099999","2005-10-18T12:00:00","4","23.2","-106.4166666","4.0","COLONIA JUAN CARRASCO MAZATLAN SIN., MX","FM-12","99999","V020","330,1,N,0010,1","22000,1,9,N","010000,1,N,1","+0252,1","+0226,1","10108,1","24,0000,9,1",,,,,"00,1,+99999,9,99,9",,,"00,99,1,00,1,00,1,99999,9,00,1,00,1",,"01,9","999,+0221,1","120,N,+0246,1","240,M,+0325,1","99999,9,10104,1","5,1,006,1,+000,1",,"SYN100AAXX  18121 76458 32960 03301 10252 20226 30104 40108 55006 91142 333 10325 20246 30221 58000 70000;","Q01  00002PRCP24"
"76458099999","2005-10-18T18:00:00","4","23.2","-106.4166666","4.0","COLONIA JUAN CARRASCO MAZATLAN SIN., MX","FM-12","99999","V020","240,1,N,0040,1","22000,1,9,N","020000,1,N,1","+0301,1","+0225,1","10116,1",,,,,,"01,1,+00960,1,08,1",,,"01,99,1,01,1,01,1,00800,1,00,1,00,1",,"01,9",,"120,M,+0325,1","240,N,+0243,1","99999,9,10112,1","8,1,001,1,-010,1",,"SYN118AAXX  18181 76458 32570 12404 10301 20225 30112 40116 58001 81100 91750 333 0/8// 10325 20243 30/// 57889 59010 81832;",
"76458099999","2005-10-18T21:00:00","4","23.2","-106.4166666","4.0","COLONIA JUAN CARRASCO MAZATLAN SIN., MX","FM-12","99999","V020","270,1,N,0050,1","22000,1,9,N","020000,1,N,1","+0307,1","+0235,1","10095,1",,,,,,"01,1,+00900,1,08,1",,,"01,99,1,01,1,01,1,00800,1,00,1,00,1",,"01,9",,,,"99999,9,10091,1","7,1,022,1,-008,1",,"SYN106AAXX  18211 76458 32570 12705 10307 20235 30091 40095 57022 81100 92045 333 0/1// 30/// 57819 59008 81830;",
"76458099999","2005-10-19T03:00:00","4","23.2","-106.4166666","4.0","COLONIA JUAN CARRASCO MAZATLAN SIN., MX","FM-12","99999","V020","320,1,N,0030,1","22000,1,9,N","010000,1,N,1","+0290,1","+0245,1","10102,1",,,,,,"00,1,+99999,9,99,9",,,"00,99,1,00,1,00,1,99999,9,00,1,00,1",,"01,9",,,,"99999,9,10098,1","2,1,012,1,-008,1",,"SYN082AAXX  19031 76458 32960 03203 10290 20245 30098 40102 52012 90245 333 30/// 59008;",
"76458099999","2005-10-19T12:00:00","4","23.2","-106.4166666","4.0","COLONIA JUAN CARRASCO MAZATLAN SIN., MX","FM-12","99999","V020","330,1,N,0010,1","22000,1,9,N","010000,1,N,1","+0251,1","+0226,1","10102,1","24,0000,9,1",,,,,"01,1,+02400,1,03,1",,,"01,99,1,01,1,00,1,99999,9,03,1,00,1",,"01,9","999,+0227,1","120,N,+0238,1","240,M,+0326,1","99999,9,10098,1","5,1,001,1,-005,1",,"SYN118AAXX  19121 76458 32960 13301 10251 20226 30098 40102 55001 81030 91143 333 0/0/0 10326 20238 30227 59005 70000 81358;",
"76458099999","2005-10-19T18:00:00","4","23.2","-106.4166666","4.0","COLONIA JUAN CARRASCO MAZATLAN SIN., MX","FM-12","99999","V020","180,1,N,0030,1","22000,1,9,N","020000,1,N,1","+0304,1","+0248,1","10115,1",,,,,,"01,1,+00690,1,08,1",,,"01,99,1,01,1,01,1,00800,1,00,1,00,1",,"01,9",,"120,M,+0320,1","240,N,+0239,1","99999,9,10111,1","5,1,000,1,-001,1",,"SYN118AAXX  19181 76458 32570 11803 10304 20248 30111 40115 55000 81100 91745 333 0/1// 10320 20239 30/// 57810 59001 81823;",
"76458099999","2005-10-19T21:00:00","4","23.2","-106.4166666","4.0","COLONIA JUAN CARRASCO MAZATLAN SIN., MX","FM-12","99999","V020","030,1,N,0020,1","22000,1,9,N","000300,1,N,1","+9999,9","+9999,9","10101,1",,,,,,,,,"01,99,1,99,9,99,9,00800,1,99,9,99,9",,"01,9",,,,"99999,9,10096,1","7,1,015,1,+005,1",,"SYN076AAXX  19211 76458 02503 10302 20239 30096 40101 57015 92045 333 30/// 58005;",
"76458099999","2005-10-20T09:00:00","4","23.2","-106.4166666","4.0","COLONIA JUAN CARRASCO MAZATLAN SIN., MX","FM-12","99999","V020","300,1,N,0020,1","22000,1,9,N","010000,1,N,1","+0270,1","+0229,1","10097,1",,,,,,"00,1,+99999,9,99,9",,,"00,99,1,00,1,00,1,99999,9,00,1,00,1",,"01,9",,,,"99999,9,10093,1","7,1,009,1,-004,1",,"SYN082AAXX  20091 76458 32960 03002 10270 20229 30093 40097 57009 90858 333 30/// 59004;",
"76458099999","2005-10-20T12:00:00","4","23.2","-106.4166666","4.0","COLONIA JUAN CARRASCO MAZATLAN SIN., MX","FM-12","99999","V020","350,1,N,0020,1","22000,1,9,N","010000,1,N,1","+0257,1","+0227,1","10100,1","24,0000,9,1",,,,,"00,1,+99999,9,99,9",,,"00,99,1,00,1,00,1,99999,9,00,1,00,1",,"01,9","999,+0214,1","120,N,+0231,1","240,M,+0330,1","99999,9,10095,1","3,1,003,1,-003,1",,"SYN100AAXX  20121 76458 32960 03502 10257 20227 30095 40100 53003 91140 333 10330 20231 30214 59003 70000;","Q01  00002PRCP24"
"76458099999","2005-10-20T18:00:00","4","23.2","-106.4166666","4.0","COLONIA JUAN CARRASCO MAZATLAN SIN., MX","FM-12","99999","V020","190,1,N,0030,1","22000,1,9,N","016000,1,N,1","+0302,1","+0219,1","10114,1",,,,,,"00,1,+99999,9,99,9",,,"00,99,1,00,1,00,1,99999,9,00,1,00,1",,"01,9",,"120,M,+0325,1","240,N,+0231,1","99999,9,10111,1","2,1,007,1,+000,1",,"SYN094AAXX  20181 76458 32966 01903 10302 20219 30111 40114 52007 91750 333 10325 20231 30/// 58000;",
"76458099999","2005-10-21T00:00:00","4","23.2","-106.4166666","4.0","COLONIA JUAN CARRASCO MAZATLAN SIN., MX","FM-12","99999","V020","280,1,N,0030,1","22000,1,9,N","020000,1,N,1","+0301,1","+0225,1","10092,1","24,0000,9,1",,,,,"00,1,+99999,9,99,9",,,"00,99,1,00,1,00,1,99999,9,00,1,00,1","0210,9","01,9",,"120,M,+0325,1","180,N,+0231,1","99999,9,10088,1","6,1,006,1,+000,1",,"SYN106AAXX  21001 76458 32870 02803 10301 20225 30088 40092 56006 92350 333 10325 20231 30/// 55035 59000 70000;","Q01  00002PRCP24"
"76458099999","2005-10-21T03:00:00","4","23.2","-106.4166666","4.0","COLONIA JUAN CARRASCO MAZATLAN SIN., MX","FM-12","99999","V020","270,1,N,0020,1","22000,1,9,N","018000,1,N,1","+0278,1","+0210,1","10098,1",,,,,,"00,1,+99999,9,99,9",,,"00,99,1,00,1,00,1,99999,9,00,1,00,1",,"01,9",,,,"99999,9,10094,1","3,1,006,1,-011,1",,"SYN082AAXX  21031 76458 32568 02702 10278 20210 30094 40098 53006 90250 333 30/// 59011;",
"76458099999","2005-10-21T06:00:00","4","23.2","-106.4166666","4.0","COLONIA JUAN CARRASCO MAZATLAN SIN., MX","FM-12","99999","V020","330,1,N,0020,1","22000,1,9,N","010000,1,N,1","+0268,1","+0222,1","10101,1",,,,,,"00,1,+99999,9,99,9",,,"00,99,1,00,1,00,1,99999,9,00,1,00,1","0600,9","01,9",,"240,M,+0325,1","240,N,+0231,1","99999,9,10097,1","2,1,003,1,-005,1",,"SYN100AAXX  21061 76458 32960 03302 10268 20222 30097 40101 52003 90540 333 10325 20231 30/// 55100 59005;",
"76458099999","2005-10-21T09:00:00","4","23.2","-106.4166666","4.0","COLONIA JUAN CARRASCO MAZATLAN SIN., MX","FM-12","99999","V020","320,1,N,0030,1","22000,1,9,N","010000,1,N,1","+0244,1","+0198,1","10099,1",,,,,,"00,1,+99999,9,99,9",,,"00,99,1,00,1,00,1,99999,9,00,1,00,1",,"01,9",,,,"99999,9,10094,1","7,1,003,1,+001,1",,"SYN082AAXX  21091 76458 32960 03203 10244 20198 30094 40099 57003 90858 333 30/// 58001;",
"76458099999","2005-10-21T18:00:00","4","23.2","-106.4166666","4.0","COLONIA JUAN CARRASCO MAZATLAN SIN., MX","FM-12","99999","V020","240,1,N,0030,1","22000,1,9,N","012000,1,N,1","+0286,1","+0202,1","10111,1",,,,,,"01,1,+01050,1,08,1",,,"01,99,1,01,1,01,1,01250,1,00,1,00,1",,"01,9",,"120,M,+0301,1","240,N,+0220,1","99999,9,10106,1","2,1,002,1,-005,1",,"SYN118AAXX  21181 76458 32662 12403 10286 20202 30106 40111 52002 81100 91750 333 0/1// 10301 20220 30/// 57819 59005 81835;",
"76458099999","2005-10-21T21:00:00","4","23.2","-106.4166666","4.0","COLONIA JUAN CARRASCO MAZATLAN SIN., MX","FM-12","99999","V020","270,1,N,0050,1","22000,1,9,N","015000,1,N,1","+0290,1","+0219,1","10090,1",,,,,,"00,1,+99999,9,99,9",,,"00,99,1,00,1,00,1,99999,9,00,1,00,1",,"01,9",,,,"99999,9,10085,1","7,1,021,1,-006,1",,"SYN082AAXX  21211 76458 32965 02705 10290 20219 30085 40090 57021 92050 333 30/// 59006;",
"76458099999","2005-10-22T00:00:00","4","23.2","-106.4166666","4.0","COLONIA JUAN CARRASCO MAZATLAN SIN., MX","FM-12","99999","V020","300,1,N,0050,1","22000,1,9,N","020000,1,N,1","+9999,9","+9999,9","10085,1","24,0000,9,1",,,,,,,,"01,99,1,01,1,02,1,00800,1,00,1,00,1",,"01,9",,"120,M,+0315,1","180,N,+0220,1","99999,9,10081,1","6,1,004,1,-007,1",,"SYN136AAXX  22001 76458 32570 13005 11285 20213 30081 40085 56004 81200 92345 333 0/200 10315 20220 30/// 50491 20220 57815 59007 70000 81824;","P01 -02853ATOT  "
"76458099999","2005-10-22T03:00:00","4","23.2","-106.4166666","4.0","COLONIA JUAN CARRASCO MAZATLAN SIN., MX","FM-12","99999","V020","310,1,N,0040,1","22000,1,9,N","010000,1,N,1","+0272,1","+0187,1","10099,1",,,,,,"00,1,+99999,9,99,9",,,"00,99,1,00,1,00,1,99999,9,00,1,00,1",,"01,9",,,,"99999,9,10095,1","2,1,014,1,+001,1",,"SYN082AAXX  22031 76458 32960 03104 10272 20187 30095 40099 52014 90245 333 30/// 58001;",
"76458099999","2005-10-22T06:00:00","4","23.2","-106.4166666","4.0","COLONIA JUAN CARRASCO MAZATLAN SIN., MX","FM-12","99999","V020","330,1,N,0030,1","22000,1,9,N","010000,1,N,1","+0260,1","+0177,1","10101,1",,,,,,"01,1,+02400,1,03,1",,,"01,99,1,01,1,00,1,99999,9,03,1,00,1","0600,9","01,9",,"240,M,+0315,1","240,N,+0220,1","99999,9,10097,1","2,1,002,1,-001,1",,"SYN118AAXX  22061 76458 32960 13303 10260 20177 30097 40101 52002 81030 90541 333 0/090 10315 20220 30/// 55100 59001 81358;",
"76458099999","2005-10-22T12:00:00","4","23.2","-106.4166666","4.0","COLONIA JUAN CARRASCO MAZATLAN SIN., MX","FM-12","99999","V020","330,1,N,0010,1","22000,1,9,N","008000,1,N,1","+0228,1","+0181,1","10098,1","24,0000,9,1",,,,,"00,1,+99999,9,99,9",,,"00,99,1,00,1,00,1,99999,9,00,1,00,1",,"01,9","999,+0184,1","120,N,+0218,1","240,M,+0315,1","99999,9,10093,1","5,1,001,1,-003,1",,"SYN100AAXX  22121 76458 32958 03301 10228 20181 30093 40098 55001 91140 333 10315 20218 30184 59003 70000;","Q01  00002PRCP24"
"76458099999","2005-10-22T15:00:00","4","23.2","-106.4166666","4.0","COLONIA JUAN CARRASCO MAZATLAN SIN., MX","FM-12","99999","V020","090,1,N,0010,1","22000,1,9,N","020000,1,N,1","+0246,1","+0200,1","10109,1",,,,,,"00,1,+99999,9,99,9",,,"00,99,1,00,1,00,1,99999,9,00,1,00,1",,"01,9",,,,"99999,9,10104,1","2,1,011,1,+000,1",,"SYN082AAXX  22151 76458 32970 00901 10246 20200 30104 40109 52011 91440 333 30/// 58000;",
"76458099999","2005-10-22T18:00:00","4","23.2","-106.4166666","4.0","COLONIA JUAN CARRASCO MAZATLAN SIN., MX","FM-12","99999","V020","240,1,N,0030,1","22000,1,9,N","016000,1,N,1","+0273,1","+0216,1","10107,1",,,,,,"00,1,+99999,9,99,9",,,"00,99,1,00,1,00,1,99999,9,00,1,00,1",,"01,9",,"120,M,+0305,1","240,N,+0212,1","99999,9,10103,1","8,1,001,1,-003,1",,"SYN094AAXX  22181 76458 32966 02403 10273 20216 30103 40107 58001 91745 333 10305 20212 30/// 59003;",
"76458099999","2005-10-22T21:00:00","4","23.2","-106.4166666","4.0","COLONIA JUAN CARRASCO MAZATLAN SIN., MX","FM-12","99999","V020","260,1,N,0040,1","22000,1,9,N","018000,1,N,1","+0286,1","+0222,1","10088,1",,,,,,"00,1,+99999,9,99,9",,,"00,99,1,00,1,00,1,99999,9,00,1,00,1",,"01,9",,,,"99999,9,10084,1","7,1,019,1,-001,1",,"SYN082AAXX  22211 76458 32968 02604 10286 20222 30084 40088 57019 92050 333 30/// 59001;",
"76458099999","2005-10-23T03:00:00","4","23.2","-106.4166666","4.0","COLONIA JUAN CARRASCO MAZATLAN SIN., MX","FM-12","99999","V020","330,1,N,0030,1","22000,1,9,N","010000,1,N,1","+0256,1","+0208,1","10092,1",,,,,,"00,1,+99999,9,99,9",,,"00,99,1,00,1,00,1,99999,9,00,1,00,1",,"01,9",,,,"99999,9,10088,1","2,1,015,1,-007,1",,"SYN082AAXX  23031 76458 32960 03303 10256 20208 30088 40092 52015 90245 333 30/// 59007;",
"76458099999","2005-10-23T06:00:00","4","23.2","-106.4166666","4.0","COLONIA JUAN CARRASCO MAZATLAN SIN., MX","FM-12","99999","V020","330,1,N,0020,1","22000,1,9,N","010000,1,N,1","+0242,1","+0173,1","10095,1",,,,,,"00,1,+99999,9,99,9",,,"00,99,1,00,1,00,1,99999,9,00,1,00,1","0612,9","01,9",,"240,M,+0305,1","240,N,+0212,1","99999,9,10090,1","0,1,003,1,+999,9",,"SYN106AAXX  23061 76458 32960 03302 10242 20173 30090 40095 50003 90545 333 10305 20212 30/// 55102 2//// 59006;",
"76458099999","2005-10-23T09:00:00","4","23.2","-106.4166666","4.0","COLONIA JUAN CARRASCO MAZATLAN SIN., MX","FM-12","99999","V020","330,1,N,0010,1","22000,1,9,N","010000,1,N,1","+0230,1","+0176,1","10091,1",,,,,,"00,1,+99999,9,99,9",,,"00,99,1,00,1,00,1,99999,9,00,1,00,1",,"01,9",,,,"99999,9,10087,1","7,1,004,1,-007,1",,"SYN082AAXX  23091 76458 32960 03301 10230 20176 30087 40091 57004 90840 333 30/// 59007;",
"76458099999","2005-10-23T12:00:00","4","23.2","-106.4166666","4.0","COLONIA JUAN CARRASCO MAZATLAN SIN., MX","FM-12","99999","V020","330,1,N,0010,1","22000,1,9,N","010000,1,N,1","+0218,1","+0179,1","10094,1","24,0000,9,1",,,,,"00,1,+99999,9,99,9",,,"00,99,1,00,1,00,1,99999,9,00,1,00,1",,"01,9","999,+0164,1","120,N,+0208,1","240,M,+0305,1","99999,9,10090,1","2,1,003,1,+004,1",,"SYN100AAXX  23121 76458 32960 03301 10218 20179 30090 40094 52003 91140 333 10305 20208 30164 58004 70000;","Q01  00002PRCP24"
"76458099999","2005-10-23T15:00:00","4","23.2","-106.4166666","4.0","COLONIA JUAN CARRASCO MAZATLAN SIN., MX","FM-12","99999","V020","150,1,N,0010,1","22000,1,9,N","012000,1,N,1","+0240,1","+0201,1","10110,1",,,,"0,1,03,1","0,1,03,1","00,1,+99999,9,99,9",,,"00,99,1,00,1,00,1,99999,9,00,1,00,1",,"01,9",,,,"99999,9,10105,1","2,1,016,1,+001,1","05,1","SYN088AAXX  23151 76458 31962 01501 10240 20201 30105 40110 52016 70500 91440 333 30/// 58001;",
"76458099999","2005-10-23T18:00:00","4","23.2","-106.4166666","4.0","COLONIA JUAN CARRASCO MAZATLAN SIN., MX","FM-12","99999","V020","250,1,N,0030,1","22000,1,9,N","018000,1,N,1","+0278,1","+0204,1","10114,1",,,,"4,1,06,1","4,1,06,1","00,1,+99999,9,99,9",,,"00,99,1,00,1,00,1,99999,9,00,1,00,1",,"01,9",,"120,M,+0303,1","240,N,+0204,1","99999,9,10109,1","0,1,004,1,+006,1","02,1","SYN100AAXX  23181 76458 31968 02503 10278 20204 30109 40114 50004 70244 91750 333 10303 20204 30/// 58006;",
"76458099999","2005-10-23T21:00:00","4","23.2","-106.4166666","4.0","COLONIA JUAN CARRASCO MAZATLAN SIN., MX","FM-12","99999","V020","240,1,N,0030,1","22000,1,9,N","020000,1,N,1","+0287,1","+0197,1","10101,1",,,,,,,,,"01,99,1,01,1,02,1,01250,1,00,1,00,1",,"01,9",,,,"99999,9,10097,1","7,1,012,1,+013,1",,"SYN094AAXX  23211 76458 32670 12403 10287 20197 30097 40101 57012 81200 92050 333 0/8// 30/// 58013;",
"76458099999","2005-10-24T00:00:00","4","23.2","-106.4166666","4.0","COLONIA JUAN CARRASCO MAZATLAN SIN., MX","FM-12","99999","V020","270,1,N,0030,1","22000,1,9,N","020000,1,N,1","+0282,1","+0209,1","99999,9","24,0000,9,5",,,,,"00,1,+99999,9,99,9",,,"00,99,1,00,1,00,1,99999,9,00,1,00,1",,"01,9",,"120,M,+0309,1","180,N,+0204,1",,"9,9,999,9,+020,1",,"SYN106AAXX  24001 76458 32970 02703 10282 20209 27004 30093 40097 92340 333 10309 20204 30/// 5//// 58020 70000;",
"76458099999","2005-10-24T15:00:00","4","23.2","-106.4166666","4.0","COLONIA JUAN CARRASCO MAZATLAN SIN., MX","FM-12","99999","V020","130,1,N,0010,1","22000,1,9,N","014000,1,N,1","+0244,1","+0204,1","10136,1",,,,"4,1,03,1","4,1,03,1","00,1,+99999,9,99,9",,,"00,99,1,00,1,00,1,99999,9,00,1,00,1",,"01,9",,,,"99999,9,10132,1","2,1,015,1,+026,1","05,1","SYN088AAXX  24151 76458 31964 01301 10244 20204 30132 40136 52015 70544 91445 333 30/// 58026;",
"76458099999","2005-10-24T18:00:00","4","23.2","-106.4166666","4.0","COLONIA JUAN CARRASCO MAZATLAN SIN., MX","FM-12","99999","V020","240,1,N,0030,1","22000,1,9,N","018000,1,N,1","+0274,1","+0219,1","10145,1",,,,,,"00,1,+99999,9,99,9",,,"00,99,1,00,1,00,1,99999,9,00,1,00,1",,"01,9",,"120,M,+0300,1","240,N,+0210,1","99999,9,10141,1","2,1,009,1,+032,1",,"SYN094AAXX  24181 76458 32968 02403 10274 20219 30141 40145 52009 91740 333 10300 20210 30/// 58032;",
"76458099999","2005-10-24T21:00:00","4","23.2","-106.4166666","4.0","COLONIA JUAN CARRASCO MAZATLAN SIN., MX","FM-12","99999","V020","240,1,N,0040,1","22000,1,9,N","020000,1,N,1","+0282,1","+0233,1","10129,1",,,,,,"00,1,+99999,9,99,9",,,"00,99,1,00,1,00,1,99999,9,00,1,00,1",,"01,9",,,,"99999,9,10125,1","7,1,016,1,+028,1",,"SYN082AAXX  24211 76458 32570 02404 10282 20233 30125 40129 57016 92045 333 30/// 58028;",
"76458099999","2005-10-25T00:00:00","4","23.2","-106.4166666","4.0","COLONIA JUAN CARRASCO MAZATLAN SIN., MX","FM-12","99999","V020","270,1,N,0030,1","22000,1,9,N","020000,1,N,1","+0278,1","+0228,1","10127,1","24,0000,9,1",,,,,"00,1,+99999,9,99,9",,,"00,99,1,00,1,00,1,99999,9,00,1,00,1",,"01,9",,"120,M,+0301,1","180,N,+0210,1","99999,9,10123,1","6,1,002,1,+030,1",,"SYN100AAXX  25001 76458 32970 02703 10278 20228 30123 40127 56002 92345 333 10301 20210 30/// 58030 70000;","Q01  00002PRCP24"
"76458099999","2005-10-25T03:00:00","4","23.2","-106.4166666","4.0","COLONIA JUAN CARRASCO MAZATLAN SIN., MX","FM-12","99999","V020","340,1,N,0020,1","22000,1,9,N","010000,1,N,1","+0258,1","+0217,1","10140,1",,,,,,"00,1,+99999,9,99,9",,,"00,99,1,00,1,00,1,99999,9,00,1,00,1",,"01,9",,,,"99999,9,10136,1","2,1,013,1,+027,1",,"SYN082AAXX  25031 76458 32960 03402 10258 20217 30136 40140 52013 90245 333 30/// 58027;",
"76458099999","2005-10-25T06:00:00","4","23.2","-106.4166666","4.0","COLONIA JUAN CARRASCO MAZATLAN SIN., MX","FM-12","99999","V020","320,1,N,0020,1","22000,1,9,N","010000,1,N,1","+0248,1","+0208,1","10152,1",,,,,,"00,1,+99999,9,99,9",,,"00,99,1,00,1,00,1,99999,9,00,1,00,1","0600,9","01,9",,"240,M,+0301,1","240,N,+0210,1","99999,9,10148,1","2,1,012,1,+029,1",,"SYN100AAXX  25061 76458 32960 03202 10248 20208 30148 40152 52012 90541 333 10301 20210 30/// 55100 58029;",
"76458099999","2005-10-25T09:00:00","4","23.2","-106.4166666","4.0","COLONIA JUAN CARRASCO MAZATLAN SIN., MX","FM-12","99999","V020","999,9,C,0000,1","22000,1,9,N","010000,1,N,1","+0230,1","+0208,1","10149,1",,,,,,"00,1,+99999,9,99,9",,,"00,99,1,00,1,00,1,99999,9,00,1,00,1",,"01,9",,,,"99999,9,10145,1","7,1,003,1,+036,1",,"SYN082AAXX  25091 76458 32960 00000 10230 20208 30145 40149 57003 90858 333 30/// 58036;",
"76458099999","2005-10-25T12:00:00","4","23.2","-106.4166666","4.0","COLONIA JUAN CARRASCO MAZATLAN SIN., MX","FM-12","99999","V020","999,9,C,0000,1","22000,1,9,N","010000,1,N,1","+0220,1","+0191,1","10152,1","24,0000,9,1",,,,,"00,1,+99999,9,99,9",,,"00,99,1,00,1,00,1,99999,9,00,1,00,1",,"01,9","999,+0166,1","120,N,+0200,1","240,M,+0301,1","99999,9,10147,1","3,1,003,1,+030,1",,"SYN100AAXX  25121 76458 32960 00000 10220 20191 30147 40152 53003 91142 333 10301 20200 30166 58030 70000;","Q01  00002PRCP24"
"76458099999","2005-10-25T15:00:00","4","23.2","-106.4166666","4.0","COLONIA JUAN CARRASCO MAZATLAN SIN., MX","FM-12","99999","V020","330,1,N,0010,1","22000,1,9,N","020000,1,N,1","+0234,1","+0197,1","10157,1",,,,,,"00,1,+99999,9,99,9",,,"00,99,1,00,1,00,1,99999,9,00,1,00,1",,"01,9",,,,"99999,9,10153,1","2,1,006,1,+021,1",,"SYN082AAXX  25151 76458 32470 03301 10234 20197 30153 40157 52006 91445 333 30/// 58021;",
"76458099999","2005-10-25T18:00:00","4","23.2","-106.4166666","4.0","COLONIA JUAN CARRASCO MAZATLAN SIN., MX","FM-12","99999","V020","230,1,N,0030,1","22000,1,9,N","020000,1,N,1","+0275,1","+0209,1","10167,1",,,,,,"00,1,+99999,9,99,9",,,"00,99,1,00,1,00,1,99999,9,00,1,00,1",,"01,9",,"120,M,+0298,1","240,N,+0200,1","99999,9,10162,1","0,1,009,1,+021,1",,"SYN094AAXX  25181 76458 32970 02303 10275 20209 30162 40167 50009 91750 333 10298 20200 30/// 58021;",
"76458099999","2005-10-25T21:00:00","4","23.2","-106.4166666","4.0","COLONIA JUAN CARRASCO MAZATLAN SIN., MX","FM-12","99999","V020","270,1,N,0040,1","22000,1,9,N","020000,1,N,1","+0282,1","+0218,1","10147,1",,,,,,"01,1,+00810,1,08,1",,,"01,99,1,01,1,02,1,00800,1,00,1,00,1",,"01,9",,,,"99999,9,10142,1","7,1,020,1,+017,1",,"SYN106AAXX  25211 76458 32570 12704 10282 20218 30142 40147 57020 81200 92045 333 0/8// 30/// 57889 58017 81827;",
"76458099999","2005-10-26T00:00:00","4","23.2","-106.4166666","4.0","COLONIA JUAN CARRASCO MAZATLAN SIN., MX","FM-12","99999","V020","270,1,N,0030,1","22000,1,9,N","020000,1,N,1","+0282,1","+0215,1","10137,1","24,0000,9,1",,,,,"00,1,+99999,9,99,9",,,"00,99,1,00,1,00,1,99999,9,00,1,00,1",,"01,9",,"120,M,+0300,1","180,N,+0200,1","99999,9,10133,1","7,1,009,1,+010,1",,"SYN106AAXX  26001 76458 32970 02703 10282 20215 30133 40137 57009 92345 333 10300 20200 30/// 50361 58010 70000;","Q01  00002PRCP24"
"76458099999","2005-10-26T03:00:00","4","23.2","-106.4166666","4.0","COLONIA JUAN CARRASCO MAZATLAN SIN., MX","FM-12","99999","V020","330,1,N,0030,1","22000,1,9,N","010000,1,N,1","+0264,1","+0221,1","10147,1",,,,,,"00,1,+99999,9,99,9",,,"00,99,1,00,1,00,1,99999,9,00,1,00,1",,"01,9",,,,"99999,9,10142,1","2,1,009,1,+006,1",,"SYN082AAXX  26031 76458 32960 03303 10264 20221 30142 40147 52009 90245 333 30/// 58006;",
"76458099999","2005-10-26T06:00:00","4","23.2","-106.4166666","4.0","COLONIA JUAN CARRASCO MAZATLAN SIN., MX","FM-12","99999","V020","999,9,C,0000,1","22000,1,9,N","010000,1,N,1","+0250,1","+0226,1","10147,1",,,,,,"01,1,+02400,1,03,1",,,"01,99,1,99,9,00,1,99999,9,03,1,00,1","0600,9","01,9",,"240,M,+0300,1","240,N,+0200,1","99999,9,10143,1","4,1,000,1,-005,1",,"SYN118AAXX  26061 76458 32960 10000 10250 20226 30143 40147 54001 80030 90540 333 0/090 10300 20200 30/// 55100 59005 81358;",
"76458099999","2005-10-26T09:00:00","4","23.2","-106.4166666","4.0","COLONIA JUAN CARRASCO MAZATLAN SIN., MX","FM-12","99999","V020","360,1,N,0020,1","22000,1,9,N","010000,1,N,1","+0230,1","+0130,1","10137,1",,,,,,"00,1,+99999,9,99,9",,,"00,99,1,00,1,00,1,99999,9,00,1,00,1",,"01,9",,,,"99999,9,10132,1","7,1,011,1,-012,1",,"SYN082AAXX  26091 76458 32960 03602 10230 20130 30132 40137 57011 90858 333 30/// 59012;",
"76458099999","2005-10-26T12:00:00","4","23.2","-106.4166666","4.0","COLONIA JUAN CARRASCO MAZATLAN SIN., MX","FM-12","99999","V020","340,1,N,0020,1","22000,1,9,N","010000,1,N,1","+0222,1","+0200,1","10130,1","24,0000,9,1",,,,,"00,1,+99999,9,99,9",,,"00,99,1,00,1,00,1,99999,9,00,1,00,1",,"01,9","999,+0181,1","120,N,+0190,1","240,M,+0300,1","99999,9,10126,1","8,1,006,1,-021,1",,"SYN100AAXX  26121 76458 32960 03402 10222 20200 30126 40130 58006 91140 333 10300 20190 30181 59021 70000;","Q01  00002PRCP24"
"76458099999","2005-10-26T18:00:00","4","23.2","-106.4166666","4.0","COLONIA JUAN CARRASCO MAZATLAN SIN., MX","FM-12","99999","V020","240,1,N,0030,1","22000,1,9,N","020000,1,N,1","+0272,1","+0213,1","10136,1",,,,,,"00,1,+99999,9,99,9",,,"00,99,1,00,1,00,1,99999,9,00,1,00,1",,"01,9",,"120,M,+0292,1","240,N,+0190,1","99999,9,10132,1","5,1,003,1,-030,1",,"SYN094AAXX  26181 76458 32570 02403 10272 20213 30132 40136 55003 91745 333 10292 20190 30/// 59030;",
"76458099999","2005-10-26T21:00:00","4","23.2","-106.4166666","4.0","COLONIA JUAN CARRASCO MAZATLAN SIN., MX","FM-12","99999","V020","240,1,N,0030,1","22000,1,9,N","020000,1,N,1","+0280,1","+0219,1","10111,1",,,,,,"01,1,+00750,1,08,1",,,"01,99,1,01,1,02,1,00800,1,00,1,00,1",,"01,9",,,,"99999,9,10107,1","7,1,026,1,-036,1",,"SYN106AAXX  26211 76458 32570 12403 10280 20219 30107 40111 57026 81200 92050 333 0/8// 30/// 57889 59036 81825;",
"76458099999","2005-10-27T06:00:00","4","23.2","-106.4166666","4.0","COLONIA JUAN CARRASCO MAZATLAN SIN., MX","FM-12","99999","V020","999,9,C,0000,1","22000,1,9,N","010000,1,N,1","+0246,1","+0228,1","10133,1",,,,,,"00,1,+99999,9,99,9",,,"00,99,1,00,1,00,1,99999,9,00,1,00,1","0600,9","01,9",,"240,M,+0300,1","240,N,+0190,1","99999,9,10128,1","2,1,008,1,-015,1",,"SYN100AAXX  27061 76458 32960 00000 10246 20228 30128 40133 52008 90540 333 10300 20190 30/// 55100 59015;",
"76458099999","2005-10-27T09:00:00","4","23.2","-106.4166666","4.0","COLONIA JUAN CARRASCO MAZATLAN SIN., MX","FM-12","99999","V020","999,9,C,0000,1","22000,1,9,N","010000,1,N,1","+0232,1","+0183,1","10130,1",,,,,,"00,1,+99999,9,99,9",,,"00,99,1,00,1,00,1,99999,9,00,1,00,1",,"01,9",,,,"99999,9,10126,1","4,1,000,1,-006,1",,"SYN082AAXX  27091 76458 32960 00000 10232 20183 30126 40130 54001 90858 333 30/// 59006;",
"76458099999","2005-10-27T12:00:00","4","23.2","-106.4166666","4.0","COLONIA JUAN CARRASCO MAZATLAN SIN., MX","FM-12","99999","V020","350,1,N,0020,1","22000,1,9,N","010000,1,N,1","+0224,1","+0210,1","10127,1","24,0000,9,1",,,,,"00,1,+99999,9,99,9",,,"00,99,1,00,1,00,1,99999,9,00,1,00,1",,"01,9","999,+0184,1","120,N,+0191,1","240,M,+0300,1","99999,9,10122,1","7,1,005,1,-003,1",,"SYN100AAXX  27121 76458 32960 03502 10224 20210 30122 40127 57005 91140 333 10300 20191 30184 59003 70000;","Q01  00002PRCP24"
"76458099999","2005-10-27T18:00:00","4","23.2","-106.4166666","4.0","COLONIA JUAN CARRASCO MAZATLAN SIN., MX","FM-12","99999","V020","240,1,N,0020,1","22000,1,9,N","020000,1,N,1","+0282,1","+0201,1","10145,1",,,,,,"01,1,+01020,1,08,1",,,"01,99,1,01,1,01,1,01250,1,00,1,00,1",,"01,9",,"120,M,+0310,1","240,N,+0201,1","99999,9,10141,1","2,1,006,1,+009,1",,"SYN118AAXX  27181 76458 32670 12402 10282 20201 30141 40145 52006 81100 91748 333 0/7// 10310 20201 30/// 57879 58009 81834;",
"76458099999","2005-10-27T21:00:00","4","23.2","-106.4166666","4.0","COLONIA JUAN CARRASCO MAZATLAN SIN., MX","FM-12","99999","V020","210,1,N,0020,1","22000,1,9,N","020000,1,N,1","+0283,1","+0220,1","10125,1",,,,,,"01,1,+00780,1,08,1",,,"01,99,1,01,1,02,1,00800,1,00,1,00,1",,"01,9",,,,"99999,9,10121,1","7,1,020,1,+015,1",,"SYN106AAXX  27211 76458 32570 12102 10283 20220 30121 40125 57020 81200 92050 333 0/1// 30/// 57817 58015 81826;",
"76458099999","2005-10-28T00:00:00","4","23.2","-106.4166666","4.0","COLONIA JUAN CARRASCO MAZATLAN SIN., MX","FM-12","99999","V020","350,1,N,0020,1","22000,1,9,N","020000,1,N,1","+0280,1","+0207,1","10119,1","24,0000,9,1",,,,,,,,"01,99,1,01,1,08,1,01250,1,00,1,00,1","0042,9","01,9",,"120,M,+0310,1","180,N,+0201,1","99999,9,10114,1","7,1,005,1,+011,1",,"SYN130AAXX  28001 76458 32670 13502 10280 20207 30114 40119 57005 81800 92350 333 0/6// 10310 20201 30/// 55007 57800 58011 70000 81834;",
"76458099999","2005-10-28T06:00:00","4","23.2","-106.4166666","4.0","COLONIA JUAN CARRASCO MAZATLAN SIN., MX","FM-12","99999","V020","360,1,N,0010,1","22000,1,9,N","010000,1,N,1","+0246,1","+0209,1","10136,1",,,,,,"00,1,+99999,9,99,9",,,"00,99,1,00,1,00,1,99999,9,00,1,00,1","0570,9","01,9",,"240,M,+0311,1","240,N,+0201,1","99999,9,10132,1","2,1,011,1,+004,1",,"SYN100AAXX  28061 76458 32960 03601 10246 20209 30132 40136 52011 90538 333 10311 20201 30/// 55095 58004;",
"76458099999","2005-10-28T09:00:00","4","23.2","-106.4166666","4.0","COLONIA JUAN CARRASCO MAZATLAN SIN., MX","FM-12","99999","V020","340,1,N,0020,1","22000,1,9,N","010000,1,N,1","+0232,1","+0199,1","10132,1",,,,,,"00,1,+99999,9,99,9",,,"00,99,1,00,1,00,1,99999,9,00,1,00,1",,"01,9",,,,"99999,9,10128,1","7,1,004,1,-001,1",,"SYN082AAXX  28091 76458 32960 03402 10232 20199 30128 40132 57004 90838 333 30/// 59001;",
"76458099999","2005-10-28T12:00:00","4","23.2","-106.4166666","4.0","COLONIA JUAN CARRASCO MAZATLAN SIN., MX","FM-12","99999","V020","360,1,N,0020,1","22000,1,9,N","010000,1,N,1","+0226,1","+0206,1","10133,1","24,0000,9,1",,,,,"00,1,+99999,9,99,9",,,"00,99,1,00,1,00,1,99999,9,00,1,00,1",,"01,9","999,+0190,1","120,N,+0196,1","240,M,+0311,1","99999,9,10129,1","2,1,001,1,+007,1",,"SYN100AAXX  28121 76458 32960 03602 10226 20206 30129 40133 52001 91145 333 10311 20196 30190 58007 70000;","Q01  00002PRCP24"
"76458099999","2005-10-28T15:00:00","4","23.2","-106.4166666","4.0","COLONIA JUAN CARRASCO MAZATLAN SIN., MX","FM-12","99999","V020","360,1,N,0020,1","22000,1,9,N","018000,1,N,1","+0242,1","+0211,1","10146,1",,,,,,"01,1,+00360,1,08,1",,,"01,99,1,01,1,02,1,00450,1,00,1,00,1",,"01,9",,,,"99999,9,10141,1","2,1,012,1,+006,1",,"SYN106AAXX  28151 76458 32468 13602 10242 20211 30141 40146 52012 81200 91445 333 0/5// 30/// 57855 58006 81812;",
"76458099999","2005-10-28T18:00:00","4","23.2","-106.4166666","4.0","COLONIA JUAN CARRASCO MAZATLAN SIN., MX","FM-12","99999","V020","240,1,N,0040,1","22000,1,9,N","020000,1,N,1","+0274,1","+0209,1","10154,1",,,,,,"01,1,+00810,1,08,1",,,"01,99,1,01,1,02,1,00800,1,00,1,00,1",,"01,9",,"120,M,+0300,1","240,N,+0196,1","99999,9,10149,1","2,1,008,1,+009,1",,"SYN118AAXX  28181 76458 32570 12404 10274 20209 30149 40154 52008 81200 91745 333 0/1// 10300 20196 30/// 57814 58009 81827;",
"76458099999","2005-10-28T21:00:00","4","23.2","-106.4166666","4.0","COLONIA JUAN CARRASCO MAZATLAN SIN., MX","FM-12","99999","V020","320,1,N,0030,1","22000,1,9,N","020000,1,N,1","+0280,1","+0219,1","10151,1",,,,,,"01,1,+00750,1,08,1",,,"01,99,1,01,1,02,1,02250,1,00,1,00,1",,"01,9",,,,"99999,9,10146,1","1,1,002,1,+032,1",,"SYN106AAXX  28211 76458 32870 13203 10280 20219 30146 40151 51002 81200 92050 333 0/1// 30/// 57613 58032 81825;",
"76458099999","2005-10-29T00:00:00","4","23.2","-106.4166666","4.0","COLONIA JUAN CARRASCO MAZATLAN SIN., MX","FM-12","99999","V020","270,1,N,0040,1","22000,1,9,N","020000,1,N,1","+0272,1","+0216,1","10124,1","24,0000,9,1",,,,,"00,1,+99999,9,99,9",,,"00,99,1,00,1,00,1,99999,9,00,1,00,1",,"01,9",,"120,M,+0300,1","180,N,+0196,1","99999,9,10120,1","7,1,027,1,+005,1",,"SYN106AAXX  29001 76458 32970 02704 10272 20216 30120 40124 57027 92345 333 10300 20196 30/// 50411 58005 70000;","Q01  00002PRCP24"
"76458099999","2005-10-29T12:00:00","4","23.2","-106.4166666","4.0","COLONIA JUAN CARRASCO MAZATLAN SIN., MX","FM-12","99999","V020","330,1,N,0020,1","22000,1,9,N","008000,1,N,1","+0220,1","+0208,1","10153,1","24,0000,9,1",,,,,"00,1,+99999,9,99,9",,,"00,99,1,00,1,00,1,99999,9,00,1,00,1",,"01,9","999,+0187,1","120,N,+0212,1","240,M,+0300,1","99999,9,10148,1","3,1,006,1,+019,1",,"SYN100AAXX  29121 76458 32958 03302 10220 20208 30148 40153 53006 91140 333 10300 20212 30187 58019 70000;","Q01  00002PRCP24"
"76458099999","2005-10-29T15:00:00","4","23.2","-106.4166666","4.0","COLONIA JUAN CARRASCO MAZATLAN SIN., MX","FM-12","99999","V020","060,1,N,0010,1","22000,1,9,N","020000,1,N,1","+0230,1","+0209,1","10168,1",,,,,,"00,1,+99999,9,99,9",,,"00,99,1,00,1,00,1,99999,9,00,1,00,1",,"01,9",,,,"99999,9,10163,1","2,1,015,1,+034,1",,"SYN082AAXX  29151 76458 32970 00601 10230 20209 30163 40168 52015 91440 333 30/// 58034;",
"76458099999","2005-10-29T21:00:00","4","23.2","-106.4166666","4.0","COLONIA JUAN CARRASCO MAZATLAN SIN., MX","FM-12","99999","V020","270,1,N,0040,1","22000,1,9,N","020000,1,N,1","+0280,1","+9999,9","99999,9",,,,,,"00,1,+99999,9,99,9",,,"00,99,1,00,1,00,1,99999,9,00,1,00,1",,"01,9",,,,,,,"SYN082AAXX  29211 76458 32970 02704 10280 10213 30147 40151 57019 92045 333 30/// 58000;",
"76458099999","2005-10-30T00:00:00","4","23.2","-106.4166666","4.0","COLONIA JUAN CARRASCO MAZATLAN SIN., MX","FM-12","99999","V020","270,1,N,0030,1","22000,1,9,N","020000,1,N,1","+0275,1","+0209,1","10143,1","24,0000,9,1",,,,,"00,1,+99999,9,99,9",,,"00,99,1,00,1,00,1,99999,9,00,1,00,1",,"01,9",,"120,M,+0300,1","180,N,+0206,1","99999,9,10138,1","7,1,006,1,+018,1",,"SYN106AAXX  30001 76458 32970 02703 10275 20209 30138 40143 57006 92345 333 10300 20206 30/// 50461 58018 70000;","Q01  00002PRCP24"
"76458099999","2005-10-30T03:00:00","4","23.2","-106.4166666","4.0","COLONIA JUAN CARRASCO MAZATLAN SIN., MX","FM-12","99999","V020","340,1,N,0020,1","22000,1,9,N","010000,1,N,1","+0254,1","+0213,1","10150,1",,,,,,"00,1,+99999,9,99,9",,,"00,99,1,00,1,00,1,99999,9,00,1,00,1",,"01,9",,,,"99999,9,10146,1","2,1,008,1,+007,1",,"SYN082AAXX  30031 76458 32960 03402 10254 20213 30146 40150 52008 90245 333 30/// 58007;",
"76458099999","2005-10-30T06:00:00","4","23.2","-106.4166666","4.0","COLONIA JUAN CARRASCO MAZATLAN SIN., MX","FM-12","99999","V020","330,1,N,0020,1","22000,1,9,N","010000,1,N,1","+0242,1","+0183,1","10158,1",,,,,,"00,1,+99999,9,99,9",,,"00,99,1,00,1,00,1,99999,9,00,1,00,1","0558,9","01,9",,"240,M,+0299,1","240,N,+0206,1","99999,9,10153,1","2,1,007,1,+999,9",,"SYN106AAXX  30061 76458 32960 03302 10242 20183 30153 40158 52007 90545 333 10299 20206 30/// 55093 2//// 58003;",
"76458099999","2005-10-30T09:00:00","4","23.2","-106.4166666","4.0","COLONIA JUAN CARRASCO MAZATLAN SIN., MX","FM-12","99999","V020","330,1,N,0010,1","22000,1,9,N","010000,1,N,1","+0228,1","+0200,1","10155,1",,,,,,"00,1,+99999,9,99,9",,,"00,99,1,00,1,00,1,99999,9,00,1,00,1",,"01,9",,,,"99999,9,10150,1","8,1,003,1,+009,1",,"SYN082AAXX  30091 76458 32960 03301 10228 20200 30150 40155 58003 90846 333 30/// 58009;",
"76458099999","2005-10-30T18:00:00","4","23.2","-106.4166666","4.0","COLONIA JUAN CARRASCO MAZATLAN SIN., MX","FM-12","99999","V020","180,1,N,0020,1","22000,1,9,N","020000,1,N,1","+0280,1","+0193,1","10169,1",,,,,,"00,1,+99999,9,99,9",,,"00,99,1,00,1,00,1,99999,9,00,1,00,1",,"01,9",,"120,M,+0305,1","240,N,+0200,1","99999,9,10165,1","4,1,000,1,-001,1",,"SYN094AAXX  30181 76458 32970 01802 10280 20193 30165 40169 54000 91740 333 10305 20200 30/// 59001;",
"76458099999","2005-10-30T21:00:00","4","23.2","-106.4166666","4.0","COLONIA JUAN CARRASCO MAZATLAN SIN., MX","FM-12","99999","V020","240,1,N,0040,1","22000,1,9,N","018000,1,N,1","+0281,1","+0218,1","10147,1",,,,,,"00,1,+99999,9,99,9",,,"00,99,1,00,1,00,1,99999,9,00,1,00,1",,"01,9",,,,"99999,9,10142,1","7,1,023,1,-005,1",,"SYN082AAXX  30211 76458 32968 02404 10281 20218 30142 40147 57023 92045 333 30/// 59005;",
"76458099999","2005-10-31T00:00:00","4","23.2","-106.4166666","4.0","COLONIA JUAN CARRASCO MAZATLAN SIN., MX","FM-12","99999","V020","300,1,N,0040,1","22000,1,9,N","018000,1,N,1","+0274,1","+0206,1","10134,1","24,0000,9,1",,,,,"00,1,+99999,9,99,9",,,"00,99,1,00,1,00,1,99999,9,00,1,00,1",,"01,9",,"120,M,+0312,1","180,N,+0200,1","99999,9,10130,1","7,1,012,1,-008,1",,"SYN106AAXX  31001 76458 32968 03004 10274 20206 30130 40134 57012 92345 333 10312 20200 30/// 50361 59008 70000;","Q01  00002PRCP24"
"76458099999","2005-10-31T03:00:00","4","23.2","-106.4166666","4.0","COLONIA JUAN CARRASCO MAZATLAN SIN., MX","FM-12","99999","V020","310,1,N,0040,1","22000,1,9,N","010000,1,N,1","+0258,1","+0119,1","10142,1",,,,,,"00,1,+99999,9,99,9",,,"00,99,1,00,1,00,1,99999,9,00,1,00,1",,"01,9",,,,"99999,9,10137,1","2,1,007,1,-009,1",,"SYN082AAXX  31031 76458 32960 03104 10258 20119 30137 40142 52007 90245 333 30/// 59009;",
"76458099999","2005-10-31T12:00:00","4","23.2","-106.4166666","4.0","COLONIA JUAN CARRASCO MAZATLAN SIN., MX","FM-12","99999","V020","999,9,C,0000,1","22000,1,9,N","010000,1,N,1","+0218,1","+0203,1","10130,1",,,,,,"00,1,+99999,9,99,9",,,"00,99,1,00,1,00,1,99999,9,00,1,00,1",,"01,9","999,+0018,1","120,N,+0200,1","240,M,+0312,1","99999,9,10126,1","7,1,003,1,+003,1",,"SYN094AAXX  31121 76458 32960 00000 10218 20203 30126 40130 57003 91135 333 10312 20200 30018 58003;",
"76458099999","2005-10-31T15:00:00","4","23.2","-106.4166666","4.0","COLONIA JUAN CARRASCO MAZATLAN SIN., MX","FM-12","99999","V020","999,9,C,0000,1","22000,1,9,N","016000,1,N,1","+0237,1","+0201,1","10152,1",,,,,,"00,1,+99999,9,99,9",,,"00,99,1,00,1,00,1,99999,9,00,1,00,1",,"01,9",,,,"99999,9,10147,1","2,1,021,1,-018,1",,"SYN082AAXX  31151 76458 32966 00000 10237 20201 30147 40152 52021 91448 333 30/// 59018;",
"76458099999","2005-10-31T18:00:00","4","23.2","-106.4166666","4.0","COLONIA JUAN CARRASCO MAZATLAN SIN., MX","FM-12","99999","V020","180,1,N,0020,1","22000,1,9,N","020000,1,N,1","+0288,1","+0216,1","10154,1",,,,,,"00,1,+99999,9,99,9",,,"00,99,1,00,1,00,1,99999,9,00,1,00,1",,"01,9",,"120,M,+0310,1","240,N,+0199,1","99999,9,10149,1","2,1,002,1,-018,1",,"SYN094AAXX  31181 76458 32570 01802 10288 20216 30149 40154 52002 91745 333 10310 20199 30/// 59018;",
"76458099999","2005-10-31T21:00:00","4","23.2","-106.4166666","4.0","COLONIA JUAN CARRASCO MAZATLAN SIN., MX","FM-12","99999","V020","240,1,N,0040,1","22000,1,9,N","020000,1,N,1","+0282,1","+0227,1","10129,1",,,,,,"00,1,+99999,9,99,9",,,"00,99,1,00,1,00,1,99999,9,00,1,00,1",,"01,9",,,,"99999,9,10125,1","7,1,024,1,-017,1",,"SYN082AAXX  31211 76458 32570 02404 10282 20227 30125 40129 57024 92045 333 30/// 59017;",
"76458099999","2005-11-01T00:00:00","4","23.2","-106.4166666","4.0","COLONIA JUAN CARRASCO MAZATLAN SIN., MX","FM-12","99999","V020","250,1,N,0030,1","22000,1,9,N","020000,1,N,1","+0278,1","+0216,1","10135,1","24,0000,9,1",,,,,"00,1,+99999,9,99,9",,,"00,99,1,00,1,00,1,99999,9,00,1,00,1",,"01,9",,"120,M,+0319,1","180,N,+9999,9","99999,9,10131,1","2,1,006,1,+001,1",,"SYN100AAXX  01001 76458 32870 02503 10278 20216 30131 40135 52006 92350 333 10319 20299 30/// 58001 70000;","Q01  00002PRCP24Q02 +02992ATMN  "
"76458099999","2005-11-01T06:00:00","4","23.2","-106.4166666","4.0","COLONIA JUAN CARRASCO MAZATLAN SIN., MX","FM-12","99999","V020","360,1,N,0020,1","22000,1,9,N","010000,1,N,1","+0246,1","+0184,1","10141,1",,,,,,"00,1,+99999,9,99,9",,,"00,99,1,00,1,00,1,99999,9,00,1,00,1","0564,9","01,9",,"240,M,+0319,1","240,N,+0199,1","99999,9,10137,1","1,1,004,1,+999,9",,"SYN106AAXX  01061 76458 32960 03602 10246 20184 30137 40141 51004 90535 333 10319 20199 30/// 55094 2//// 58000;",
"76458099999","2005-11-01T09:00:00","4","23.2","-106.4166666","4.0","COLONIA JUAN CARRASCO MAZATLAN SIN., MX","FM-12","99999","V020","999,9,C,0000,1","22000,1,9,N","010000,1,N,1","+0234,1","+0197,1","10126,1",,,,,,"00,1,+99999,9,99,9",,,"00,99,1,00,1,00,1,99999,9,00,1,00,1",,"01,9",,,,"99999,9,10121,1","7,1,007,1,-008,1",,"SYN082AAXX  01091 76458 32960 00000 10234 20197 30121 40126 57007 90835 333 30/// 59008;",
"76458099999","2005-11-01T12:00:00","4","23.2","-106.4166666","4.0","COLONIA JUAN CARRASCO MAZATLAN SIN., MX","FM-12","99999","V020","999,9,C,0000,1","22000,1,9,N","010000,1,N,1","+0224,1","+0201,1","10122,1",,,,,,"00,1,+99999,9,99,9",,,"00,99,1,00,1,00,1,99999,9,00,1,00,1",,"01,9","999,+0019,1","120,N,+0206,1","240,M,+0319,1","99999,9,10117,1","7,1,004,1,-009,1",,"SYN094AAXX  01121 76458 32960 00000 10224 20201 30117 40122 57004 91135 333 10319 20206 30019 59009;",
"76458099999","2005-11-01T18:00:00","4","23.2","-106.4166666","4.0","COLONIA JUAN CARRASCO MAZATLAN SIN., MX","FM-12","99999","V020","150,1,N,0010,1","22000,1,9,N","020000,1,N,1","+0326,1","+0181,1","10143,1",,,,,,"03,1,+06000,1,00,1",,,"03,99,1,00,1,00,1,99999,9,00,1,04,1",,"01,9",,"120,M,+0349,1","240,N,+0191,1","99999,9,10138,1","7,1,008,1,-011,1",,"SYN106AAXX  01181 76458 32770 31501 10326 20181 30138 40143 57008 80004 91740 333 10349 20191 30/// 59011 83070;",
"76458099999","2005-11-01T21:00:00","4","23.2","-106.4166666","4.0","COLONIA JUAN CARRASCO MAZATLAN SIN., MX","FM-12","99999","V020","240,1,N,0020,1","22000,1,9,N","016000,1,N,1","+0319,1","+0230,1","10123,1",,,,,,"04,1,+08700,1,00,1",,,"04,99,1,00,1,00,1,99999,9,00,1,04,1",,"01,9",,,,"99999,9,10119,1","7,1,020,1,-006,1",,"SYN100AAXX  01211 76458 32966 42402 10319 20230 30119 40123 57020 80004 92046 333 0/009 30/// 59006 84079;",
"76458099999","2005-11-02T00:00:00","4","23.2","-106.4166666","4.0","COLONIA JUAN CARRASCO MAZATLAN SIN., MX","FM-12","99999","V020","310,1,N,0030,1","08700,1,9,N","018000,1,N,1","+0285,1","+0240,1","10114,1","24,0000,9,1",,,,,"06,1,+08700,1,00,1",,,"06,99,1,00,1,00,1,99999,9,00,1,04,1",,"01,9",,"120,M,+0364,1","180,N,+0191,1","99999,9,10110,1","6,1,009,1,-021,1",,"SYN124AAXX  02001 76458 32968 63103 10285 20240 30110 40114 56009 80004 92346 333 0/009 10364 20191 30/// 50341 59021 70000 86079;",
"76458099999","2005-11-02T06:00:00","4","23.2","-106.4166666","4.0","COLONIA JUAN CARRASCO MAZATLAN SIN., MX","FM-12","99999","V020","240,1,N,0020,1","22000,1,9,N","004000,1,N,1","+0258,1","+0198,1","10129,1",,,,,,"00,1,+99999,9,99,9",,,"00,99,1,00,1,00,1,99999,9,00,1,00,1",,"01,9",,"240,M,+0364,1","240,N,+0191,1","99999,9,10125,1","2,1,001,1,-011,1",,"SYN100AAXX  02061 76458 32540 02402 10258 20198 30125 40129 52001 90550 333 10364 20191 30/// 54022 59011;",
"76458099999","2005-11-02T12:00:00","4","23.2","-106.4166666","4.0","COLONIA JUAN CARRASCO MAZATLAN SIN., MX","FM-12","99999","V020","090,1,N,0030,1","22000,1,9,N","010000,1,N,1","+0240,1","+0226,1","10132,1",,,,,,"03,1,+06600,1,00,1",,,"03,99,1,00,1,00,1,99999,9,00,1,06,1",,"01,9","999,+0017,1","120,N,+0185,1","240,M,+0319,1","99999,9,10128,1","4,1,000,1,+011,1",,"SYN112AAXX  02121 76458 32960 30903 10240 20226 30128 40132 54001 80006 91145 333 0/009 10319 20185 30017 58011 83072;",
"76458099999","2005-11-02T15:00:00","4","23.2","-106.4166666","4.0","COLONIA JUAN CARRASCO MAZATLAN SIN., MX","FM-12","99999","V020","090,1,N,0030,1","00720,1,9,N","006000,1,N,1","+0256,1","+0240,1","10159,1",,,,,,"06,1,+00720,1,08,1",,,"06,99,1,06,1,02,1,00250,1,00,1,00,1",,"01,9",,,,"99999,9,10154,1","2,1,020,1,+043,1",,"SYN106AAXX  02151 76458 32356 60903 10256 20240 30154 40159 52020 86200 91445 333 0/600 30/// 57865 58043 86824;",
"76458099999","2005-11-02T18:00:00","4","23.2","-106.4166666","4.0","COLONIA JUAN CARRASCO MAZATLAN SIN., MX","FM-12","99999","V020","140,1,N,0030,1","22000,1,9,N","012000,1,N,1","+0294,1","+0243,1","10161,1",,,,"4,1,06,1","4,1,06,1","00,1,+99999,9,99,9",,,"00,99,1,00,1,00,1,99999,9,00,1,00,1",,"01,9",,"120,M,+0310,1","240,N,+0242,1","99999,9,10157,1","0,1,003,1,+019,1","02,1","SYN100AAXX  02181 76458 31962 01403 10294 20243 30157 40161 50003 70244 91745 333 10310 20242 30/// 58019;",
"76458099999","2005-11-02T21:00:00","4","23.2","-106.4166666","4.0","COLONIA JUAN CARRASCO MAZATLAN SIN., MX","FM-12","99999","V020","250,1,N,0020,1","22000,1,9,N","020000,1,N,1","+0305,1","+0242,1","10140,1",,,,,,"03,1,+08700,1,00,1",,,"03,99,1,00,1,00,1,99999,9,00,1,04,1",,"01,9",,,,"99999,9,10136,1","7,1,021,1,-017,1",,"SYN100AAXX  02211 76458 32970 32502 10305 20242 30136 40140 57021 80004 92046 333 0/009 30/// 59017 83079;",
"76458099999","2005-11-03T00:00:00","4","23.2","-106.4166666","4.0","COLONIA JUAN CARRASCO MAZATLAN SIN., MX","FM-12","99999","V020","300,1,N,0020,1","22000,1,9,N","018000,1,N,1","+0286,1","+0248,1","10137,1","24,0000,9,1",,,,,"01,1,+08700,1,00,1",,,"01,99,1,00,1,00,1,99999,9,00,1,02,1",,"01,9",,"120,M,+0335,1","180,N,+0242,1","99999,9,10133,1","6,1,003,1,+023,1",,"SYN124AAXX  03001 76458 32968 13002 10286 20248 30133 40137 56003 80002 92340 333 0/009 10335 20242 30/// 50431 58023 70000 81079;",
"76458099999","2005-11-03T06:00:00","4","23.2","-106.4166666","4.0","COLONIA JUAN CARRASCO MAZATLAN SIN., MX","FM-12","99999","V020","260,1,N,0020,1","22000,1,9,N","010000,1,N,1","+0240,1","+0224,1","10152,1",,,,,,"00,1,+99999,9,99,9",,,"00,99,1,00,1,00,1,99999,9,00,1,00,1",,"01,9",,"240,M,+0332,1","240,N,+0240,1","99999,9,10148,1","1,1,006,1,+019,1",,"SYN100AAXX  03061 76458 32560 02602 10240 20224 30148 40152 51006 90550 333 10332 20240 30/// 54075 58019;",
"76458099999","2005-11-03T09:00:00","4","23.2","-106.4166666","4.0","COLONIA JUAN CARRASCO MAZATLAN SIN., MX","FM-12","99999","V020","090,1,N,0030,1","22000,1,9,N","010000,1,N,1","+0240,1","+0224,1","10156,1",,,,,,"00,1,+99999,9,99,9",,,"00,99,1,00,1,00,1,99999,9,00,1,00,1",,"01,9",,,,"99999,9,10152,1","7,1,004,1,+025,1",,"SYN082AAXX  03091 76458 32960 00903 10240 20224 30152 40156 57004 90840 333 30/// 58025;",
"76458099999","2005-11-03T15:00:00","4","23.2","-106.4166666","4.0","COLONIA JUAN CARRASCO MAZATLAN SIN., MX","FM-12","99999","V020","030,1,N,0010,1","22000,1,9,N","004000,1,N,1","+0244,1","+0227,1","10161,1",,,,"4,1,03,1","4,1,03,1","04,1,+06000,1,00,1",,,"04,99,1,00,1,00,1,99999,9,00,1,06,1",,"01,9",,,,"99999,9,10157,1","3,1,004,1,+003,1","05,1","SYN100AAXX  03151 76458 31940 40301 10244 20227 30157 40161 53004 70544 80006 91445 333 30/// 58003 84070;",
"76458099999","2005-11-03T18:00:00","4","23.2","-106.4166666","4.0","COLONIA JUAN CARRASCO MAZATLAN SIN., MX","FM-12","99999","V020","150,1,N,0030,1","00540,1,9,N","015000,1,N,1","+0274,1","+0230,1","10167,1",,,,,,"06,1,+00540,1,06,1",,,"06,99,1,06,1,04,1,00450,1,00,1,00,1",,"01,9",,"120,M,+0294,1","240,N,+0218,1","99999,9,10162,1","0,1,005,1,+008,1",,"SYN118AAXX  03181 76458 32465 61503 10274 20230 30162 40167 50005 86400 91745 333 0/4// 10294 20218 30/// 57649 58008 86618;",
"76458099999","2005-11-03T21:00:00","4","23.2","-106.4166666","4.0","COLONIA JUAN CARRASCO MAZATLAN SIN., MX","FM-12","99999","V020","240,1,N,0030,1","22000,1,9,N","020000,1,N,1","+0273,1","+0235,1","10148,1",,,,,,"01,1,+00480,1,08,1",,,"01,99,1,01,1,01,1,00450,1,00,1,00,1",,"01,9",,,,"99999,9,10144,1","7,1,018,1,+008,1",,"SYN100AAXX  03211 76458 32470 12403 10273 20235 30144 40148 57018 81100 92040 333 00600 30/// 58008 81816;",
"76458099999","2005-11-04T00:00:00","4","23.2","-106.4166666","4.0","COLONIA JUAN CARRASCO MAZATLAN SIN., MX","FM-12","99999","V020","270,1,N,0020,1","22000,1,9,N","016000,1,N,1","+0268,1","+0235,1","10134,1","24,0000,9,1",,,,,"01,1,+00420,1,08,1",,,"01,99,1,01,1,01,1,00450,1,00,1,00,1",,"01,9",,"120,M,+0295,1","180,N,+0218,1","99999,9,10130,1","6,1,014,1,-003,1",,"SYN124AAXX  04001 76458 32466 12702 10268 20235 30130 40134 56014 81100 92346 333 00600 10295 20218 30/// 50491 59003 70000 81814;",
"76458099999","2005-11-04T06:00:00","4","23.2","-106.4166666","4.0","COLONIA JUAN CARRASCO MAZATLAN SIN., MX","FM-12","99999","V020","999,9,C,0000,1","22000,1,9,N","010000,1,N,1","+0242,1","+0229,1","10140,1",,,,,,"00,1,+99999,9,99,9",,,"00,99,1,00,1,00,1,99999,9,00,1,00,1","1050,9","01,9",,"240,M,+0295,1","240,N,+0218,1","99999,9,10138,1","2,1,001,1,-011,1",,"SYN100AAXX  04061 76458 32560 00000 10242 20229 30138 40140 52001 90550 333 10295 20218 30/// 55175 59011;",
"76458099999","2005-11-04T18:00:00","4","23.2","-106.4166666","4.0","COLONIA JUAN CARRASCO MAZATLAN SIN., MX","FM-12","99999","V020","150,1,N,0020,1","22000,1,9,N","004000,1,N,1","+0274,1","+0225,1","10141,1",,,,"4,1,06,1","4,1,06,1","01,1,+06000,1,00,1",,,"01,99,1,00,1,00,1,99999,9,00,1,01,1",,"01,9",,"120,M,+0295,1","240,N,+0210,1","99999,9,10136,1","2,1,005,1,-026,1","05,1","SYN112AAXX  04181 76458 31540 11502 10274 20225 30136 40141 52005 70544 80001 91745 333 10295 20210 30/// 59026 81070;",
"76458099999","2005-11-04T21:00:00","4","23.2","-106.4166666","4.0","COLONIA JUAN CARRASCO MAZATLAN SIN., MX","FM-12","99999","V020","240,1,N,0030,1","22000,1,9,N","999999,9,N,1","+0272,1","+0228,1","10124,1",,,,"4,1,03,1","4,1,03,1","01,1,+06000,1,00,1",,,"01,99,1,00,1,00,1,99999,9,00,1,01,1",,"01,9",,,,"99999,9,10120,1","7,1,016,1,-025,1","05,1","SYN100AAXX  04211 76458 31454 12403 10272 20228 30120 40124 57016 70544 80001 92045 333 30/// 59025 81070;",
"76458099999","2005-11-05T00:00:00","4","23.2","-106.4166666","4.0","COLONIA JUAN CARRASCO MAZATLAN SIN., MX","FM-12","99999","V020","270,1,N,0030,1","22000,1,9,N","016000,1,N,1","+0268,1","+0232,1","10118,1","24,0000,9,1",,,,,"01,1,+00720,1,08,1",,,"03,99,1,01,1,02,1,00450,1,00,1,05,1",,"01,9",,"120,M,+0310,1","180,N,+0210,1","99999,9,10113,1","6,1,007,1,-017,1",,"SYN136AAXX  05001 76458 32466 32703 10268 20232 30113 40118 56007 81205 92345 333 0/709 10310 20210 30/// 50181 57875 59017 70000 81824 82070;",
"76458099999","2005-11-05T06:00:00","4","23.2","-106.4166666","4.0","COLONIA JUAN CARRASCO MAZATLAN SIN., MX","FM-12","99999","V020","999,9,C,0000,1","22000,1,9,N","010000,1,N,1","+0238,1","+0224,1","10125,1",,,,,,"00,1,+99999,9,99,9",,,"00,99,1,00,1,00,1,99999,9,00,1,00,1","0798,9","01,9",,"240,M,+0309,1","240,N,+0210,1","99999,9,10130,1","1,1,001,1,-011,1",,"SYN100AAXX  05061 76458 32460 00000 10238 20224 30130 40125 51001 90550 333 10309 20210 30/// 55133 59011;",
"76458099999","2005-11-05T09:00:00","4","23.2","-106.4166666","4.0","COLONIA JUAN CARRASCO MAZATLAN SIN., MX","FM-12","99999","V020","999,9,C,0000,1","22000,1,9,N","010000,1,N,1","+0225,1","+0211,1","10118,1",,,,,,"00,1,+99999,9,99,9",,,"00,99,1,00,1,00,1,99999,9,00,1,00,1",,"01,9",,,,"99999,9,10114,1","7,1,002,1,-010,1",,"SYN082AAXX  05091 76458 32960 00000 10225 20211 30114 40118 57002 90840 333 30/// 59010;",
"76458099999","2005-11-05T12:00:00","4","23.2","-106.4166666","4.0","COLONIA JUAN CARRASCO MAZATLAN SIN., MX","FM-12","99999","V020","120,1,N,0010,1","00150,1,9,N","010000,1,N,1","+0220,1","+0209,1","10116,1","24,0000,9,1",,,,,"07,1,+00150,1,07,1",,,"07,99,1,07,1,06,1,00150,1,00,1,00,1",,"01,9","999,+0019,1","120,N,+0205,1","240,M,+0310,1","99999,9,10111,1","7,1,003,1,-005,1",,"SYN118AAXX  05121 76458 32260 71201 10220 20209 30111 40116 57003 87600 91138 333 0/500 10310 20205 30019 59005 70000 87705;",
"76458099999","2005-11-05T15:00:00","4","23.2","-106.4166666","4.0","COLONIA JUAN CARRASCO MAZATLAN SIN., MX","FM-12","99999","V020","999,9,C,0000,1","22000,1,9,N","003000,1,N,1","+0226,1","+0215,1","10124,1",,,,"4,1,03,1","4,1,03,1","00,1,+99999,9,99,9",,,"00,99,1,00,1,00,1,99999,9,00,1,00,1",,"01,9",,,,"99999,9,10120,1","2,1,009,1,-011,1","05,1","SYN088AAXX  05151 76458 31930 00000 10226 20215 30120 40124 52009 70544 91445 333 30/// 59011;",
"76458099999","2005-11-05T18:00:00","4","23.2","-106.4166666","4.0","COLONIA JUAN CARRASCO MAZATLAN SIN., MX","FM-12","99999","V020","220,1,N,0030,1","22000,1,9,N","008000,1,N,1","+0264,1","+0215,1","10128,1",,,,"4,1,06,1","4,1,06,1","01,1,+00600,1,08,1",,,"01,99,1,01,1,01,1,00800,1,00,1,00,1",,"01,9",,"120,M,+0281,1","240,N,+0204,1","99999,9,10124,1","1,1,004,1,-012,1","05,1","SYN124AAXX  05181 76458 31558 12203 10264 20215 30124 40128 51004 70544 81100 91745 333 0/4// 10281 20204 30/// 57849 59012 81820;",
"76458099999","2005-11-05T21:00:00","4","23.2","-106.4166666","4.0","COLONIA JUAN CARRASCO MAZATLAN SIN., MX","FM-12","99999","V020","240,1,N,0030,1","22000,1,9,N","016000,1,N,1","+0282,1","+0221,1","10106,1",,,,,,"00,1,+99999,9,99,9",,,"00,99,1,00,1,00,1,99999,9,00,1,00,1",,"01,9",,,,"99999,9,10102,1","7,1,022,1,-018,1",,"SYN082AAXX  05211 76458 32966 02403 10282 20221 30102 40106 57022 92045 333 30/// 59018;",
"76458099999","2005-11-06T00:00:00","4","23.2","-106.4166666","4.0","COLONIA JUAN CARRASCO MAZATLAN SIN., MX","FM-12","99999","V020","270,1,N,0030,1","22000,1,9,N","016000,1,N,1","+0268,1","+0226,1","10102,1","24,0000,9,1",,,,,,,,"01,99,1,01,1,02,1,00450,1,00,1,00,1",,"01,9",,"120,M,+0300,1","180,N,+0204,1","99999,9,10097,1","1,1,005,1,-016,1",,"SYN130AAXX  06001 76458 32466 12703 10268 20226 30097 40102 51005 81200 92345 333 0/100 10300 20204 30/// 50251 57815 59016 70000 81826;",
"76458099999","2005-11-06T03:00:00","4","23.2","-106.4166666","4.0","COLONIA JUAN CARRASCO MAZATLAN SIN., MX","FM-12","99999","V020","300,1,N,0020,1","22000,1,9,N","016000,1,N,1","+0256,1","+0223,1","10113,1",,,,,,"00,1,+99999,9,99,9",,,"00,99,1,00,1,00,1,99999,9,00,1,00,1",,"01,9",,,,"99999,9,10109,1","2,1,012,1,-011,1",,"SYN082AAXX  06031 76458 32966 03002 10256 20223 30109 40113 52012 90253 333 30/// 59011;",
"76458099999","2005-11-06T15:00:00","4","23.2","-106.4166666","4.0","COLONIA JUAN CARRASCO MAZATLAN SIN., MX","FM-12","99999","V020","360,1,N,0010,1","22000,1,9,N","010000,1,N,1","+0230,1","+0213,1","10128,1",,,,,,"00,1,+99999,9,99,9",,,"00,99,1,00,1,00,1,99999,9,00,1,00,1",,"01,9",,,,"99999,9,10123,1","4,1,000,1,+003,1",,"SYN082AAXX  06151 76458 32960 03601 10230 20213 30123 40128 54000 91445 333 30/// 58003;",
"76458099999","2005-11-06T21:00:00","4","23.2","-106.4166666","4.0","COLONIA JUAN CARRASCO MAZATLAN SIN., MX","FM-12","99999","V020","250,1,N,0040,1","22000,1,9,N","018000,1,N,1","+0272,1","+0219,1","10104,1",,,,,,"00,1,+99999,9,99,9",,,"00,99,1,00,1,00,1,99999,9,00,1,00,1",,"01,9",,,,"99999,9,10100,1","7,1,023,1,-002,1",,"SYN082AAXX  06211 76458 32968 02504 10272 20219 30100 40104 57023 92050 333 30/// 59002;",
"76458099999","2005-11-07T00:00:00","4","23.2","-106.4166666","4.0","COLONIA JUAN CARRASCO MAZATLAN SIN., MX","FM-12","99999","V020","270,1,N,0030,1","22000,1,9,N","018000,1,N,1","+0267,1","+0213,1","10100,1","24,0000,9,1",,,,,"00,1,+99999,9,99,9",,,"00,99,1,00,1,00,1,99999,9,00,1,00,1",,"01,9",,"120,M,+0289,1","180,N,+0198,1","99999,9,10096,1","6,1,004,1,-001,1",,"SYN106AAXX  07001 76458 32968 02703 10267 20213 30096 40100 56004 92545 333 10289 20198 30/// 50451 59001 70000;","Q01  00002PRCP24"
"76458099999","2005-11-07T06:00:00","4","23.2","-106.4166666","4.0","COLONIA JUAN CARRASCO MAZATLAN SIN., MX","FM-12","99999","V020","999,9,C,0000,1","22000,1,9,N","010000,1,N,1","+0231,1","+0205,1","10128,1",,,,,,"00,1,+99999,9,99,9",,,"00,99,1,00,1,00,1,99999,9,00,1,00,1",,"01,9",,"240,M,+0290,1","240,N,+0198,1","99999,9,10119,1","1,1,011,1,+004,1",,"SYN094AAXX  07061 76458 32560 00000 10231 20205 30119 40128 51011 90545 333 10290 20198 30/// 58004;",
"76458099999","2005-11-07T09:00:00","4","23.2","-106.4166666","4.0","COLONIA JUAN CARRASCO MAZATLAN SIN., MX","FM-12","99999","V020","010,1,N,0020,1","22000,1,9,N","010000,1,N,1","+0220,1","+0192,1","10123,1",,,,,,"00,1,+99999,9,99,9",,,"00,99,1,00,1,00,1,99999,9,00,1,00,1",,"01,9",,,,"99999,9,10119,1","7,1,005,1,-005,1",,"SYN082AAXX  07091 76458 32960 00102 10220 20192 30119 40123 58000 90850 333 30/// 59005;",
"76458099999","2005-11-07T18:00:00","4","23.2","-106.4166666","4.0","COLONIA JUAN CARRASCO MAZATLAN SIN., MX","FM-12","99999","V020","270,1,N,0030,1","22000,1,9,N","020000,1,N,1","+0272,1","+0210,1","10135,1",,,,,,"00,1,+99999,9,99,9",,,"00,99,1,00,1,00,1,99999,9,00,1,00,1",,"01,9",,"120,M,+0299,1","240,N,+0200,1","99999,9,10131,1","6,1,003,1,+008,1",,"SYN094AAXX  07181 76458 32570 02703 10272 20210 30131 40135 56003 91745 333 10299 20200 30/// 58008;",
"76458099999","2005-11-07T21:00:00","4","23.2","-106.4166666","4.0","COLONIA JUAN CARRASCO MAZATLAN SIN., MX","FM-12","99999","V020","270,1,N,0030,1","22000,1,9,N","020000,1,N,1","+0282,1","+0213,1","10115,1",,,,,,"00,1,+99999,9,99,9",,,"00,99,1,00,1,00,1,99999,9,00,1,00,1",,"01,9",,,,"99999,9,10110,1","7,1,021,1,+010,1",,"SYN082AAXX  07211 76458 32970 02703 10282 20213 30110 40115 57021 92045 333 30/// 58010;",
"76458099999","2005-11-08T03:00:00","4","23.2","-106.4166666","4.0","COLONIA JUAN CARRASCO MAZATLAN SIN., MX","FM-12","99999","V020","310,1,N,0020,1","22000,1,9,N","010000,1,N,1","+0254,1","+0232,1","10116,1",,,,,,"00,1,+99999,9,99,9",,,"00,99,1,00,1,00,1,99999,9,00,1,00,1",,"01,9",,,,"99999,9,10111,1","1,1,009,1,+003,1",,"SYN082AAXX  08031 76458 32960 03102 10254 20232 30111 40116 51009 90245 333 30/// 58003;",
"76458099999","2005-11-08T06:00:00","4","23.2","-106.4166666","4.0","COLONIA JUAN CARRASCO MAZATLAN SIN., MX","FM-12","99999","V020","999,9,C,0000,1","22000,1,9,N","008000,1,N,1","+0240,1","+0219,1","10136,1",,,,,,"00,1,+99999,9,99,9",,,"00,99,1,00,1,00,1,99999,9,00,1,00,1","0564,9","01,9",,"240,M,+0295,1","240,N,+0200,1","99999,9,10132,1","2,1,021,1,+999,9",,"SYN106AAXX  08061 76458 32958 00000 10240 20219 30132 40136 52021 90535 333 10295 20200 30/// 55094 2//// 58013;",
"76458099999","2005-11-08T12:00:00","4","23.2","-106.4166666","4.0","COLONIA JUAN CARRASCO MAZATLAN SIN., MX","FM-12","99999","V020","330,1,N,0010,1","22000,1,9,N","010000,1,N,1","+0210,1","+0195,1","10131,1","24,0000,9,1",,,,,"00,1,+99999,9,99,9",,,"00,99,1,00,1,00,1,99999,9,00,1,00,1",,"01,9","999,+0176,1","120,N,+0200,1","240,M,+0295,1","99999,9,10127,1","7,1,001,1,+006,1",,"SYN100AAXX  08121 76458 32960 03301 10210 20195 30127 40131 57001 91156 333 10295 20200 30176 58006 70000;","Q01  00002PRCP24"
"76458099999","2005-11-08T15:00:00","4","23.2","-106.4166666","4.0","COLONIA JUAN CARRASCO MAZATLAN SIN., MX","FM-12","99999","V020","090,1,N,0010,1","22000,1,9,N","016000,1,N,1","+0230,1","+0204,1","10144,1",,,,,,"00,1,+99999,9,99,9",,,"00,99,1,00,1,00,1,99999,9,00,1,00,1",,"01,9",,,,"99999,9,10139,1","2,1,012,1,+005,1",,"SYN082AAXX  08151 76458 32966 00901 10230 20204 30139 40144 52012 91445 333 30/// 58005;",
"76458099999","2005-11-08T18:00:00","4","23.2","-106.4166666","4.0","COLONIA JUAN CARRASCO MAZATLAN SIN., MX","FM-12","99999","V020","240,1,N,0040,1","22000,1,9,N","018000,1,N,1","+0260,1","+0209,1","10142,1",,,,,,"00,1,+99999,9,99,9",,,"00,99,1,00,1,00,1,99999,9,00,1,00,1",,"01,9",,"120,M,+0299,1","240,N,+0196,1","99999,9,10137,1","5,1,002,1,+006,1",,"SYN094AAXX  08181 76458 32568 02404 10260 20209 30137 40142 55002 91745 333 10299 20196 30/// 58006;",
"76458099999","2005-11-08T21:00:00","4","23.2","-106.4166666","4.0","COLONIA JUAN CARRASCO MAZATLAN SIN., MX","FM-12","99999","V020","270,1,N,0040,1","22000,1,9,N","020000,1,N,1","+0278,1","+0235,1","10113,1",,,,,,"00,1,+99999,9,99,9",,,"00,99,1,00,1,00,1,99999,9,00,1,00,1",,"01,9",,,,"99999,9,10109,1","7,1,019,1,-001,1",,"SYN082AAXX  08211 76458 32970 02704 10278 20235 30109 40113 57019 92045 333 30/// 59001;",
"76458099999","2005-11-09T00:00:00","4","23.2","-106.4166666","4.0","COLONIA JUAN CARRASCO MAZATLAN SIN., MX","FM-12","99999","V020","300,1,N,0030,1","22000,1,9,N","020000,1,N,1","+0267,1","+0232,1","10112,1","24,0000,9,1",,,,,"01,1,+00450,1,08,1",,,"01,99,1,01,1,01,1,00450,1,00,1,00,1",,"01,9",,"120,M,+0296,1","180,N,+0196,1","99999,9,10108,1","3,1,001,1,+006,1",,"SYN124AAXX  09001 76458 32470 13003 10267 20232 30108 40112 53001 81100 92345 333 0/6// 10296 20196 30/// 50291 58006 70000 81815;",
"76458099999","2005-11-09T03:00:00","4","23.2","-106.4166666","4.0","COLONIA JUAN CARRASCO MAZATLAN SIN., MX","FM-12","99999","V020","330,1,N,0020,1","22000,1,9,N","010000,1,N,1","+0248,1","+0232,1","10126,1",,,,,,"00,1,+99999,9,99,9",,,"00,99,1,00,1,00,1,99999,9,00,1,00,1",,"01,9",,,,"99999,9,10121,1","2,1,013,1,+010,1",,"SYN082AAXX  09031 76458 32960 03302 10248 20232 30121 40126 52013 90245 333 30/// 58010;",
"76458099999","2005-11-09T06:00:00","4","23.2","-106.4166666","4.0","COLONIA JUAN CARRASCO MAZATLAN SIN., MX","FM-12","99999","V020","330,1,N,0020,1","22000,1,9,N","008000,1,N,1","+0234,1","+0207,1","10137,1",,,,,,"00,1,+99999,9,99,9",,,"00,99,1,00,1,00,1,99999,9,00,1,00,1","0564,9","01,9",,"240,M,+0296,1","240,N,+0196,1","99999,9,10133,1","2,1,012,1,+999,9",,"SYN106AAXX  09061 76458 32958 03302 10234 20207 30133 40137 52012 90535 333 10296 20196 30/// 55094 2//// 58001;",
"76458099999","2005-11-09T09:00:00","4","23.2","-106.4166666","4.0","COLONIA JUAN CARRASCO MAZATLAN SIN., MX","FM-12","99999","V020","999,9,C,0000,1","22000,1,9,N","010000,1,N,1","+0224,1","+0202,1","10129,1",,,,,,"00,1,+99999,9,99,9",,,"00,99,1,00,1,00,1,99999,9,00,1,00,1",,"01,9",,,,"99999,9,10124,1","8,1,009,1,-004,1",,"SYN082AAXX  09091 76458 32960 00000 10224 20202 30124 40129 58009 90846 333 30/// 59004;",
"76458099999","2005-11-09T12:00:00","4","23.2","-106.4166666","4.0","COLONIA JUAN CARRASCO MAZATLAN SIN., MX","FM-12","99999","V020","090,1,N,0020,1","22000,1,9,N","010000,1,N,1","+0215,1","+0198,1","10130,1","24,0000,9,1",,,,,"00,1,+99999,9,99,9",,,"00,99,1,00,1,00,1,99999,9,00,1,00,1",,"01,9","999,+0176,1","120,N,+0203,1","240,M,+0296,1","99999,9,10125,1","3,1,001,1,-001,1",,"SYN100AAXX  09121 76458 32960 00902 10215 20198 30125 40130 53001 91150 333 10296 20203 30176 59001 70000;","Q01  00002PRCP24"
"76458099999","2005-11-09T15:00:00","4","23.2","-106.4166666","4.0","COLONIA JUAN CARRASCO MAZATLAN SIN., MX","FM-12","99999","V020","090,1,N,0030,1","22000,1,9,N","012000,1,N,1","+0234,1","+0216,1","10145,1",,,,,,"00,1,+99999,9,99,9",,,"00,99,1,00,1,00,1,99999,9,00,1,00,1",,"01,9",,,,"99999,9,10141,1","2,1,016,1,+002,1",,"SYN082AAXX  09151 76458 32962 00903 10234 20216 30141 40145 52016 91445 333 30/// 58002;",
"76458099999","2005-11-09T18:00:00","4","23.2","-106.4166666","4.0","COLONIA JUAN CARRASCO MAZATLAN SIN., MX","FM-12","99999","V020","180,1,N,0030,1","00510,1,9,N","016000,1,N,1","+0264,1","+0222,1","10151,1",,,,,,"08,1,+00510,1,06,1",,,"08,99,1,08,1,04,1,00450,1,00,1,00,1",,"01,9",,"120,M,+0280,1","240,N,+0202,1","99999,9,10142,1","2,1,001,1,+005,1",,"SYN118AAXX  09181 76458 32466 81803 10264 20222 30142 40151 52001 88400 91745 333 0/3// 10280 20202 30/// 57630 58005 88617;",
"76458099999","2005-11-09T21:00:00","4","23.2","-106.4166666","4.0","COLONIA JUAN CARRASCO MAZATLAN SIN., MX","FM-12","99999","V020","270,1,N,0040,1","22000,1,9,N","020000,1,N,1","+0270,1","+0223,1","10131,1",,,,,,"00,1,+99999,9,99,9",,,"00,99,1,00,1,00,1,99999,9,00,1,00,1",,"01,9",,,,"99999,9,10126,1","7,1,016,1,+017,1",,"SYN082AAXX  09211 76458 32970 02704 10270 20223 30126 40131 57016 92045 333 30/// 58017;",
"76458099999","2005-11-10T06:00:00","4","23.2","-106.4166666","4.0","COLONIA JUAN CARRASCO MAZATLAN SIN., MX","FM-12","99999","V020","160,1,N,0020,1","22000,1,9,N","010000,1,N,1","+0238,1","+0212,1","10151,1",,,,,,"00,1,+99999,9,99,9",,,"00,99,1,00,1,00,1,99999,9,00,1,00,1","0600,9","01,9",,"240,M,+0295,1","240,N,+0202,1","99999,9,10148,1","1,1,004,1,+021,1",,"SYN100AAXX  10061 76458 32560 01602 10238 20212 30148 40151 51004 90550 333 10295 20202 30/// 55100 58021;",
"76458099999","2005-11-10T12:00:00","4","23.2","-106.4166666","4.0","COLONIA JUAN CARRASCO MAZATLAN SIN., MX","FM-12","99999","V020","270,1,N,0010,1","22000,1,9,N","008000,1,N,1","+0215,1","+0199,1","10149,1","24,0000,9,1",,,,,"00,1,+99999,9,99,9",,,"00,99,1,00,1,00,1,99999,9,00,1,00,1",,"01,9","999,+0180,1","120,N,+0204,1","240,M,+0295,1","99999,9,10144,1","6,1,002,1,+019,1",,"SYN100AAXX  10121 76458 32958 02701 10215 20199 30144 40149 56002 91150 333 10295 20204 30180 58019 70000;","Q01  00002PRCP24"
"76458099999","2005-11-10T18:00:00","4","23.2","-106.4166666","4.0","COLONIA JUAN CARRASCO MAZATLAN SIN., MX","FM-12","99999","V020","240,1,N,0030,1","22000,1,9,N","020000,1,N,1","+0278,1","+0222,1","10155,1",,,,"4,1,06,1","4,1,06,1","00,1,+99999,9,99,9",,,"00,99,1,00,1,00,1,99999,9,00,1,00,1",,"01,9",,"120,M,+0297,1","240,N,+0204,1","99999,9,10151,1","7,1,009,1,+005,1","05,1","SYN100AAXX  10181 76458 31970 02403 10278 20222 30151 40155 57009 70544 91750 333 10297 20204 30/// 58005;",
"76458099999","2005-11-11T12:00:00","4","23.2","-106.4166666","4.0","COLONIA JUAN CARRASCO MAZATLAN SIN., MX","FM-12","99999","V020","120,1,N,0020,1","22000,1,9,N","008000,1,N,1","+0230,1","+0210,1","10132,1","24,0000,9,1",,,,,"00,1,+99999,9,99,9",,,"00,99,1,00,1,00,1,99999,9,00,1,00,1",,"01,9","999,+0197,1","120,N,+0220,1","240,M,+0295,1","99999,9,10127,1","5,1,001,1,-017,1",,"SYN100AAXX  11121 76458 32958 01202 10230 20210 30127 40132 55001 91150 333 10295 20220 30197 59017 70000;","Q01  00002PRCP24"
"76458099999","2005-11-11T18:00:00","4","23.2","-106.4166666","4.0","COLONIA JUAN CARRASCO MAZATLAN SIN., MX","FM-12","99999","V020","210,1,N,0040,1","22000,1,9,N","016000,1,N,1","+0294,1","+0219,1","10137,1",,,,"4,1,06,1","4,1,06,1","00,1,+99999,9,99,9",,,"00,99,1,00,1,00,1,99999,9,00,1,00,1",,"01,9",,"120,M,+0315,1","240,N,+0218,1","99999,9,10133,1","7,1,008,1,-017,1","05,1","SYN100AAXX  11181 76458 31966 02104 10294 20219 30133 40137 57008 70544 91745 333 10315 20218 30/// 59017;",
"76458099999","2005-11-11T21:00:00","4","23.2","-106.4166666","4.0","COLONIA JUAN CARRASCO MAZATLAN SIN., MX","FM-12","99999","V020","270,1,N,0040,1","22000,1,9,N","020000,1,N,1","+0278,1","+0231,1","10113,1",,,,,,"02,1,+06000,1,02,1",,,"02,99,1,00,1,00,1,99999,9,00,1,02,1",,"01,9",,,,"99999,9,10108,1","7,1,025,1,-013,1",,"SYN094AAXX  11211 76458 32470 22704 10278 20231 30108 40113 57025 80002 92050 333 30/// 59013 82270;",
"76458099999","2005-11-12T03:00:00","4","23.2","-106.4166666","4.0","COLONIA JUAN CARRASCO MAZATLAN SIN., MX","FM-12","99999","V020","300,1,N,0030,1","22000,1,9,N","010000,1,N,1","+0254,1","+0223,1","10112,1",,,,,,"01,1,+03600,1,03,1",,,"01,99,1,01,1,00,1,02250,1,03,1,00,1",,"01,9",,,,"99999,9,10107,1","2,1,010,1,-016,1",,"SYN106AAXX  12031 76458 32860 13003 10254 20223 30107 40112 52010 81030 90245 333 0/020 30/// 57329 59016 81362;",
"76458099999","2005-11-12T12:00:00","4","23.2","-106.4166666","4.0","COLONIA JUAN CARRASCO MAZATLAN SIN., MX","FM-12","99999","V020","120,1,N,0030,1","22000,1,9,N","010000,1,N,1","+0236,1","+0225,1","10110,1",,,,,,"00,1,+99999,9,99,9",,,"00,99,1,00,1,00,1,99999,9,00,1,00,1",,"01,9",,"120,N,+0218,1","240,M,+0255,1","99999,9,10105,1","1,1,003,1,-021,1",,"SYN094AAXX  12121 76458 32560 01203 10236 20225 30105 40110 51003 91150 333 10255 20218 30/// 59021;",
"76458099999","2005-11-12T15:00:00","4","23.2","-106.4166666","4.0","COLONIA JUAN CARRASCO MAZATLAN SIN., MX","FM-12","99999","V020","120,1,N,0040,1","22000,1,9,N","008000,1,N,1","+0242,1","+0229,1","10120,1",,,,"3,1,03,1","3,1,03,1","00,1,+99999,9,99,9",,,"00,99,1,00,1,00,1,99999,9,00,1,00,1",,"01,9",,,,"99999,9,10116,1","2,1,011,1,-025,1","28,1","SYN088AAXX  12151 76458 31958 01204 10242 20229 30116 40120 52011 72833 91445 333 30/// 59025;",
"76458099999","2005-11-12T18:00:00","4","23.2","-106.4166666","4.0","COLONIA JUAN CARRASCO MAZATLAN SIN., MX","FM-12","99999","V020","160,1,N,0040,1","22000,1,9,N","010000,1,N,1","+0276,1","+0235,1","10129,1",,,,"4,1,06,1","4,1,06,1","00,1,+99999,9,99,9",,,"00,99,1,00,1,00,1,99999,9,00,1,00,1",,"01,9",,"120,M,+0295,1","240,N,+0225,1","99999,9,10124,1","0,1,008,1,-009,1","05,1","SYN100AAXX  12181 76458 31960 01604 10276 20235 30124 40129 50008 70544 91740 333 10295 20225 30/// 59009;",
"76458099999","2005-11-12T21:00:00","4","23.2","-106.4166666","4.0","COLONIA JUAN CARRASCO MAZATLAN SIN., MX","FM-12","99999","V020","240,1,N,0040,1","22000,1,9,N","010000,1,N,1","+0275,1","+0241,1","10100,1",,,,,,"02,1,+00750,1,07,1",,,"02,99,1,02,1,02,1,00450,1,00,1,00,1",,"01,9",,,,"99999,9,10095,1","7,1,029,1,-013,1",,"SYN100AAXX  12211 76458 32460 22404 10275 20241 30095 40100 57029 82200 92045 333 0/300 30/// 59013 82725;",
"76458099999","2005-11-13T00:00:00","4","23.2","-106.4166666","4.0","COLONIA JUAN CARRASCO MAZATLAN SIN., MX","FM-12","99999","V020","330,1,N,0030,1","22000,1,9,N","010000,1,N,1","+0264,1","+0211,1","10096,1","24,0000,9,1",,,,,"00,1,+99999,9,99,9",,,"00,99,1,00,1,00,1,99999,9,00,1,00,1",,"01,9",,"120,M,+0304,1","180,N,+0225,1","99999,9,10091,1","6,1,004,1,-006,1",,"SYN106AAXX  13001 76458 32960 03303 10264 20211 30091 40096 56004 92340 333 10304 20225 30/// 50221 59006 70000;","Q01  00002PRCP24"
"76458099999","2005-11-13T06:00:00","4","23.2","-106.4166666","4.0","COLONIA JUAN CARRASCO MAZATLAN SIN., MX","FM-12","99999","V020","270,1,N,0030,1","22000,1,9,N","010000,1,N,1","+0240,1","+0196,1","10113,1",,,,,,"00,1,+99999,9,99,9",,,"00,99,1,00,1,00,1,99999,9,00,1,00,1","0492,9","01,9",,"240,M,+0304,1","240,N,+0225,1","99999,9,10109,1","0,1,003,1,-004,1",,"SYN100AAXX  13061 76458 32960 02703 10240 20196 30109 40113 50003 90545 333 10304 20225 30/// 55082 59004;",
"76458099999","2005-11-13T12:00:00","4","23.2","-106.4166666","4.0","COLONIA JUAN CARRASCO MAZATLAN SIN., MX","FM-12","99999","V020","999,9,C,0000,1","22000,1,9,N","010000,1,N,1","+0216,1","+0192,1","10114,1","24,0000,9,1",,,,,"00,1,+99999,9,99,9",,,"00,99,1,00,1,00,1,99999,9,00,1,00,1",,"01,9","999,+0175,1","120,N,+0202,1","240,M,+0304,1","99999,9,10110,1","2,1,004,1,+004,1",,"SYN100AAXX  13121 76458 32960 00000 10216 20192 30110 40114 52004 91156 333 10304 20202 30175 58004 70000;","Q01  00002PRCP24"
"76458099999","2005-11-13T15:00:00","4","23.2","-106.4166666","4.0","COLONIA JUAN CARRASCO MAZATLAN SIN., MX","FM-12","99999","V020","060,1,N,0020,1","00060,1,9,N","000600,1,N,1","+0237,1","+0226,1","10132,1",,,,"4,1,03,1","4,1,03,1","09,1,+99999,9,99,9",,,"09,99,1,09,1,99,9,99999,9,99,9,99,9",,"01,9",,,,"99999,9,10127,1","2,1,017,1,+012,1","45,1","SYN094AAXX  13151 76458 31/06 90602 10237 20226 30127 40132 52017 74544 89/// 91440 333 30/// 58012;",
"76458099999","2005-11-14T03:00:00","4","23.2","-106.4166666","4.0","COLONIA JUAN CARRASCO MAZATLAN SIN., MX","FM-12","99999","V020","340,1,N,0020,1","22000,1,9,N","008000,1,N,1","+0238,1","+9999,9","10124,1",,,,,,"00,1,+99999,9,99,9",,,"00,99,1,00,1,00,1,99999,9,00,1,00,1",,"01,9",,,,"99999,9,10120,1","1,1,013,1,+003,1",,"SYN082AAXX  14031 76458 32958 03402 10238 20294 30120 40124 51013 90250 333 30/// 58003;",
"76458099999","2005-11-14T06:00:00","4","23.2","-106.4166666","4.0","COLONIA JUAN CARRASCO MAZATLAN SIN., MX","FM-12","99999","V020","220,1,N,0020,1","22000,1,9,N","010000,1,N,1","+0240,1","+9999,9","10129,1",,,,,,"00,1,+99999,9,99,9",,,"00,99,1,00,1,00,1,99999,9,00,1,00,1",,"01,9",,"240,M,+0299,1","240,N,+0202,1","99999,9,10124,1","1,1,004,1,+015,1",,"SYN094AAXX  14061 76458 32560 02202 10240 20278 30124 40129 51004 90545 333 10299 20202 30/// 58015;",
"76458099999","2005-11-14T12:00:00","4","23.2","-106.4166666","4.0","COLONIA JUAN CARRASCO MAZATLAN SIN., MX","FM-12","99999","V020","999,9,C,0000,1","22000,1,9,N","010000,1,N,1","+0214,1","+0184,1","10119,1","24,0000,9,1",,,,,"02,1,+02400,1,03,1",,,"02,99,1,02,1,00,1,99999,9,03,1,00,1",,"01,9","999,+0180,1","120,N,+0204,1","240,M,+9999,9","99999,9,10115,1","7,1,005,1,+005,1",,"SYN118AAXX  14121 76458 32960 20000 10214 20184 30115 40119 57005 82030 91140 333 0/090 10202 20204 30180 58005 70000 82358;","Q01 +02022ATMX  "
"76458099999","2005-11-14T15:00:00","4","23.2","-106.4166666","4.0","COLONIA JUAN CARRASCO MAZATLAN SIN., MX","FM-12","99999","V020","120,1,N,0020,1","22000,1,9,N","999999,9,N,1","+0232,1","+0219,1","10141,1",,,,"4,1,03,1","4,1,03,1","02,1,+00780,1,07,1",,,"04,99,1,02,1,02,1,00250,1,03,1,00,1",,"01,9",,,,"99999,9,10136,1","2,1,021,1,+009,1","44,1","SYN112AAXX  14151 76458 31355 41202 10232 20219 30136 40141 52021 74544 82230 91439 333 0/590 30/// 58009 82726 82356;",
"76458099999","2005-11-14T18:00:00","4","23.2","-106.4166666","4.0","COLONIA JUAN CARRASCO MAZATLAN SIN., MX","FM-12","99999","V020","180,1,N,0040,1","22000,1,9,N","014000,1,N,1","+0272,1","+0219,1","10144,1",,,,"4,1,06,1","4,1,06,1","01,1,+00660,1,02,1",,,"04,99,1,01,1,02,1,00800,1,00,1,08,1",,"01,9",,"120,M,+0290,1","240,N,+0199,1","99999,9,10140,1","0,1,004,1,+006,1","05,1","SYN130AAXX  14181 76458 31564 41804 10272 20219 30140 40144 50004 70544 81208 91745 333 0/8/9 10290 20199 30/// 57885 58006 81222 83870;",
"76458099999","2005-11-14T21:00:00","4","23.2","-106.4166666","4.0","COLONIA JUAN CARRASCO MAZATLAN SIN., MX","FM-12","99999","V020","230,1,N,0030,1","22000,1,9,N","018000,1,N,1","+0272,1","+0213,1","10120,1",,,,"4,1,03,1","0,1,03,1","02,1,+08700,1,00,1",,,"02,99,1,00,1,00,1,99999,9,00,1,05,1",,"01,9",,,,"99999,9,10116,1","7,1,024,1,+005,1","02,1","SYN106AAXX  14211 76458 31968 22303 10272 20213 30116 40120 57024 70240 80005 92046 333 0/009 30/// 58005 82079;",
"76458099999","2005-11-15T00:00:00","4","23.2","-106.4166666","4.0","COLONIA JUAN CARRASCO MAZATLAN SIN., MX","FM-12","99999","V020","270,1,N,0020,1","22000,1,9,N","020000,1,N,1","+0258,1","+0216,1","10112,1","24,0000,9,1",,,,,"01,1,+08700,1,00,1",,,"01,99,1,00,1,00,1,99999,9,00,1,02,1",,"01,9",,"120,M,+0300,1","180,N,+0199,1","99999,9,10108,1","7,1,008,1,+001,1",,"SYN124AAXX  15001 76458 32970 12702 10258 20216 30108 40112 57008 81002 92346 333 0/009 10300 20199 30/// 50491 58001 70000 81079;",
"76458099999","2005-11-15T18:00:00","4","23.2","-106.4166666","4.0","COLONIA JUAN CARRASCO MAZATLAN SIN., MX","FM-12","99999","V020","240,1,N,0030,1","22000,1,9,N","010000,1,N,1","+0276,1","+0217,1","10139,1",,,,"4,1,06,1","4,1,06,1","01,1,+00720,1,08,1",,,"01,99,1,01,1,02,1,00800,1,00,1,00,1",,"01,9",,"120,M,+0299,1","240,N,+0208,1","99999,9,10135,1","8,1,002,1,-005,1","05,1","SYN124AAXX  15181 76458 31560 12403 10276 20217 30135 40139 58002 70544 81200 91745 333 0/1// 10299 20208 30/// 57216 59005 81824;",
"76458099999","2005-11-16T06:00:00","4","23.2","-106.4166666","4.0","COLONIA JUAN CARRASCO MAZATLAN SIN., MX","FM-12","99999","V020","050,1,N,0020,1","22000,1,9,N","010000,1,N,1","+0242,1","+0183,1","10131,1",,,,,,"00,1,+99999,9,99,9",,,"00,99,1,00,1,00,1,99999,9,00,1,00,1","0570,9","01,9",,"240,M,+0298,1","240,N,+0208,1","99999,9,10126,1","1,1,009,1,-006,1",,"SYN100AAXX  16061 76458 32760 00502 10242 20183 30126 40131 51009 90545 333 10298 20208 30/// 55095 59006;",
"76458099999","2005-11-16T09:00:00","4","23.2","-106.4166666","4.0","COLONIA JUAN CARRASCO MAZATLAN SIN., MX","FM-12","99999","V020","999,9,C,0000,1","22000,1,9,N","010000,1,N,1","+0218,1","+0188,1","10123,1",,,,,,"00,1,+99999,9,99,9",,,"00,99,1,00,1,00,1,99999,9,00,1,00,1",,"01,9",,,,"99999,9,10119,1","7,1,005,1,-003,1",,"SYN082AAXX  16091 76458 32960 00000 10218 20188 30119 40123 57005 90848 333 30/// 59003;",
"76458099999","2005-11-16T12:00:00","4","23.2","-106.4166666","4.0","COLONIA JUAN CARRASCO MAZATLAN SIN., MX","FM-12","99999","V020","330,1,N,0010,1","22000,1,9,N","010000,1,N,1","+0216,1","+0193,1","10121,1","24,0000,9,1",,,,,"00,1,+99999,9,99,9",,,"00,99,1,00,1,00,1,99999,9,00,1,00,1",,"01,9","999,+0169,1","120,N,+0199,1","240,M,+0298,1","99999,9,10116,1","7,1,003,1,-001,1",,"SYN100AAXX  16121 76458 32960 03301 10216 20193 30116 40121 57003 91140 333 10298 20199 30169 59001 70000;","Q01  00002PRCP24"
"76458099999","2005-11-16T18:00:00","4","23.2","-106.4166666","4.0","COLONIA JUAN CARRASCO MAZATLAN SIN., MX","FM-12","99999","V020","240,1,N,0030,1","22000,1,9,N","018000,1,N,1","+0260,1","+0200,1","10131,1",,,,"4,1,06,1","4,1,06,1","01,1,+06000,1,00,1",,,"01,99,1,00,1,00,1,99999,9,00,1,08,1",,"01,9",,"120,M,+0295,1","240,N,+0197,1","99999,9,10127,1","8,1,002,1,-008,1","05,1","SYN112AAXX  16181 76458 31568 12403 10260 20200 30127 40131 58002 70544 80008 91745 333 10295 20197 30/// 59008 81070;",
"76458099999","2005-11-16T21:00:00","4","23.2","-106.4166666","4.0","COLONIA JUAN CARRASCO MAZATLAN SIN., MX","FM-12","99999","V020","270,1,N,0020,1","22000,1,9,N","020000,1,N,1","+0270,1","+0214,1","10118,1",,,,"4,1,03,1","0,1,03,1","01,1,+00690,1,08,1",,,"02,99,1,01,1,02,1,00800,1,00,1,02,1",,"01,9",,,,"99999,9,10113,1","8,1,013,1,-003,1","02,1","SYN118AAXX  16211 76458 31570 22702 10270 20214 30113 40118 58013 70240 81202 92043 333 04109 30/// 57816 59003 81823 81079;",
"76458099999","2005-11-17T00:00:00","4","23.2","-106.4166666","4.0","COLONIA JUAN CARRASCO MAZATLAN SIN., MX","FM-12","99999","V020","320,1,N,0030,1","99999,9,9,N","020000,1,N,1","+0278,1","+0164,1","10112,1","24,0000,9,1",,,,,"03,1,+05700,1,01,1",,,"05,99,1,00,1,00,1,99999,9,00,1,09,1",,"01,9",,"120,M,+0295,1","180,N,+0197,1","99999,9,10108,1","5,1,006,1,-002,1",,"SYN130AAXX  17001 76458 32970 53203 10278 20164 30108 40112 55006 80009 92345 333 0/005 10295 20197 30/// 50381 59002 70000 83169 82079;",
"76458099999","2005-11-17T06:00:00","4","23.2","-106.4166666","4.0","COLONIA JUAN CARRASCO MAZATLAN SIN., MX","FM-12","99999","V020","300,1,N,0020,1","22000,1,9,N","010000,1,N,1","+0244,1","+0159,1","10130,1",,,,,,,,,"04,99,1,04,1,00,1,99999,9,05,1,00,1","0570,9","01,9",,"240,M,+0295,1","240,N,+0197,1","99999,9,10125,1","2,1,008,1,-001,1",,"SYN124AAXX  17061 76458 32960 43002 10244 20159 30125 40130 52008 84050 90540 333 0/090 10295 20197 30/// 55095 2//// 59001 84354;",
"76458099999","2005-11-17T09:00:00","4","23.2","-106.4166666","4.0","COLONIA JUAN CARRASCO MAZATLAN SIN., MX","FM-12","99999","V020","330,1,N,0010,1","22000,1,9,N","010000,1,N,1","+0222,1","+0171,1","10127,1",,,,,,"01,1,+02400,1,03,1",,,"01,99,1,99,9,00,1,99999,9,03,1,00,1",,"01,9",,,,"99999,9,10122,1","7,1,003,1,+003,1",,"SYN100AAXX  17091 76458 23960 13301 10222 20171 30122 40127 57003 80030 90841 333 0/090 30/// 58003 81358;",
"76458099999","2005-11-17T15:00:00","4","23.2","-106.4166666","4.0","COLONIA JUAN CARRASCO MAZATLAN SIN., MX","FM-12","99999","V020","999,9,C,0000,1","22000,1,9,N","001000,1,N,1","+0225,1","+0209,1","10149,1",,,,"4,1,03,1","4,1,03,1","02,1,+05400,1,00,1",,,"02,99,1,00,1,00,1,99999,9,00,1,01,1",,"01,9",,,,"99999,9,10145,1","2,1,020,1,+016,1","10,1","SYN112AAXX  17151 76458 31910 20000 10225 20209 30145 40149 52020 71044 80001 91500 333 0///9 30/// 57099 58016 82068;",
"76458099999","2005-11-17T18:00:00","4","23.2","-106.4166666","4.0","COLONIA JUAN CARRASCO MAZATLAN SIN., MX","FM-12","99999","V020","240,1,N,0030,1","22000,1,9,N","010000,1,N,1","+0266,1","+0209,1","10143,1",,,,"4,1,06,1","4,1,06,1","04,1,+06000,1,00,1",,,"04,99,1,00,1,00,1,99999,9,00,1,04,1",,"01,9",,"120,M,+0290,1","240,N,+0185,1","99999,9,10138,1","7,1,007,1,+012,1","05,1","SYN112AAXX  17181 76458 31960 42403 10266 20209 30138 40143 57007 70544 80004 91745 333 10290 20185 30/// 58012 84070;",
"76458099999","2005-11-17T21:00:00","4","23.2","-106.4166666","4.0","COLONIA JUAN CARRASCO MAZATLAN SIN., MX","FM-12","99999","V020","270,1,N,0040,1","22000,1,9,N","014000,1,N,1","+0262,1","+0197,1","10120,1",,,,"4,1,03,1","4,1,03,1","01,1,+00810,1,09,1",,,"02,99,1,01,1,03,1,00800,1,00,1,02,1",,"01,9",,,,"99999,9,10116,1","8,1,023,1,+002,1","05,1","SYN118AAXX  17211 76458 31564 22704 10262 20197 30116 40120 58023 70544 81302 92046 333 04109 30/// 57915 58002 81927 81079;",
"76458099999","2005-11-18T00:00:00","4","23.2","-106.4166666","4.0","COLONIA JUAN CARRASCO MAZATLAN SIN., MX","FM-12","99999","V020","300,1,N,0030,1","22000,1,9,N","020000,1,N,1","+0260,1","+0164,1","10112,1","24,0000,9,1",,,"4,1,06,1","0,1,06,1","01,1,+01200,1,09,1",,,"02,99,1,01,1,03,1,01250,1,03,1,00,1",,"01,9",,"120,M,+0288,1","180,N,+0185,1","99999,9,10108,1","5,1,008,1,+000,1","02,1","SYN142AAXX  18001 76458 31670 23003 10260 20164 30108 40112 55008 70240 81330 92346 333 04110 10288 20185 30/// 50341 57915 58000 70000 81940 81358;",
"76458099999","2005-11-18T09:00:00","4","23.2","-106.4166666","4.0","COLONIA JUAN CARRASCO MAZATLAN SIN., MX","FM-12","99999","V020","330,1,N,0020,1","22000,1,9,N","010000,1,N,1","+0208,1","+0170,1","10130,1",,,,,,"00,1,+99999,9,99,9",,,"00,99,1,00,1,00,1,99999,9,00,1,00,1",,"01,9",,,,"99999,9,10126,1","2,1,009,1,+004,1",,"SYN082AAXX  18091 76458 32960 03302 10208 20170 30126 40130 52009 90839 333 30/// 58004;",
"76458099999","2005-11-18T12:00:00","4","23.2","-106.4166666","4.0","COLONIA JUAN CARRASCO MAZATLAN SIN., MX","FM-12","99999","V020","070,1,N,0020,1","22000,1,9,N","010000,1,N,1","+0200,1","+0169,1","10130,1","24,0000,9,1",,,,,"00,1,+99999,9,99,9",,,"00,99,1,00,1,00,1,99999,9,00,1,00,1",,"01,9","999,+0159,1","120,N,+0192,1","240,M,+0288,1","99999,9,10126,1","4,1,000,1,+001,1",,"SYN100AAXX  18121 76458 32960 00702 10200 20169 30126 40130 54000 91138 333 10288 20192 30159 58001 70000;","Q01  00002PRCP24"
"76458099999","2005-11-18T15:00:00","4","23.2","-106.4166666","4.0","COLONIA JUAN CARRASCO MAZATLAN SIN., MX","FM-12","99999","V020","020,1,N,0010,1","22000,1,9,N","008000,1,N,1","+0221,1","+0184,1","10142,1",,,,"4,1,03,1","4,1,03,1","00,1,+99999,9,99,9",,,"00,99,1,00,1,00,1,99999,9,00,1,00,1",,"01,9",,,,"99999,9,10138,1","2,1,012,1,-007,1","05,1","SYN088AAXX  18151 76458 31958 00201 10221 20184 30138 40142 52012 70544 91445 333 30/// 59007;",
"76458099999","2005-11-18T18:00:00","4","23.2","-106.4166666","4.0","COLONIA JUAN CARRASCO MAZATLAN SIN., MX","FM-12","99999","V020","210,1,N,0020,1","22000,1,9,N","008000,1,N,1","+0272,1","+0217,1","10136,1",,,,"4,1,06,1","4,1,06,1","00,1,+99999,9,99,9",,,"00,99,1,00,1,00,1,99999,9,00,1,00,1",,"01,9",,"120,M,+0290,1","240,N,+0186,1","99999,9,10132,1","8,1,006,1,-006,1","05,1","SYN100AAXX  18181 76458 31958 02102 10272 20217 30132 40136 58006 70544 91745 333 10290 20186 30/// 59006;",
"76458099999","2005-11-18T21:00:00","4","23.2","-106.4166666","4.0","COLONIA JUAN CARRASCO MAZATLAN SIN., MX","FM-12","99999","V020","240,1,N,0020,1","22000,1,9,N","012000,1,N,1","+0254,1","+0211,1","10112,1",,,,"4,1,03,1","4,1,03,1","01,1,+06000,1,00,1",,,"01,99,1,00,1,00,1,99999,9,00,1,01,1",,"01,9",,,,"99999,9,10108,1","7,1,024,1,-008,1","05,1","SYN100AAXX  18211 76458 31962 12402 10254 20211 30108 40112 57024 70544 80001 92045 333 30/// 59008 81070;",
"76458099999","2005-11-19T00:00:00","4","23.2","-106.4166666","4.0","COLONIA JUAN CARRASCO MAZATLAN SIN., MX","FM-12","99999","V020","310,1,N,0030,1","22000,1,9,N","014000,1,N,1","+0254,1","+0170,1","10103,1",,,,"4,1,06,1","4,1,06,1",,,,"03,99,1,01,1,02,1,00800,1,00,1,08,1",,,,,,"99999,9,10099,1","6,1,009,1,+999,9","05,1","SYN072AAXX  19001 76458 31564 33103 10254 20170 30099 40103 56009 70544 81208;",
"76458099999","2005-11-19T03:00:00","4","23.2","-106.4166666","4.0","COLONIA JUAN CARRASCO MAZATLAN SIN., MX","FM-12","99999","V020","310,1,N,0020,1","22000,1,9,N","010000,1,N,1","+0242,1","+0163,1","10115,1",,,,,,"00,1,+99999,9,99,9",,,"00,99,1,00,1,00,1,99999,9,00,1,00,1",,"01,9",,,,"99999,9,10110,1","1,1,002,1,+002,1",,"SYN082AAXX  19031 76458 32960 03102 10242 20163 30110 40115 51002 90240 333 30/// 58002;",
"76458099999","2005-11-19T21:00:00","4","23.2","-106.4166666","4.0","COLONIA JUAN CARRASCO MAZATLAN SIN., MX","FM-12","99999","V020","270,1,N,0030,1","22000,1,9,N","018000,1,N,1","+0240,1","+0192,1","10112,1",,,,"4,1,03,1","0,1,03,1","01,1,+00600,1,08,1",,,"01,99,1,01,1,01,1,00450,1,00,1,00,1",,"01,9",,,,"99999,9,10107,1","7,1,013,1,-001,1","01,1","SYN112AAXX  19211 76458 31468 12703 10240 20192 30107 40112 57013 70140 81100 92046 333 00100 30/// 57819 59001 81820;",
"76458099999","2005-11-20T00:00:00","4","23.2","-106.4166666","4.0","COLONIA JUAN CARRASCO MAZATLAN SIN., MX","FM-12","99999","V020","320,1,N,0020,1","22000,1,9,N","020000,1,N,1","+0238,1","+0184,1","10111,1","24,0000,9,1",,,,,"00,1,+99999,9,99,9",,,"00,99,1,00,1,00,1,99999,9,00,1,00,1",,"01,9",,"120,M,+0265,1","180,N,+0168,1","99999,9,10107,1","5,1,001,1,+008,1",,"SYN106AAXX  20001 76458 32970 03202 10238 20184 30107 40111 55001 92340 333 10265 20168 30/// 50561 58008 70000;","Q01  00002PRCP24"
"76458099999","2005-11-20T03:00:00","4","23.2","-106.4166666","4.0","COLONIA JUAN CARRASCO MAZATLAN SIN., MX","FM-12","99999","V020","300,1,N,0020,1","22000,1,9,N","010000,1,N,1","+0214,1","+0182,1","10117,1",,,,,,"00,1,+99999,9,99,9",,,"00,99,1,00,1,00,1,99999,9,00,1,00,1",,"01,9",,,,"99999,9,10113,1","5,1,006,1,+002,1",,"SYN082AAXX  20031 76458 32960 03002 10214 20182 30113 40117 55006 90245 333 30/// 58002;",
"76458099999","2005-11-20T06:00:00","4","23.2","-106.4166666","4.0","COLONIA JUAN CARRASCO MAZATLAN SIN., MX","FM-12","99999","V020","320,1,N,0020,1","22000,1,9,N","008000,1,N,1","+0198,1","+0181,1","10128,1",,,,,,"00,1,+99999,9,99,9",,,"00,99,1,00,1,00,1,99999,9,00,1,00,1","0546,9","01,9",,"240,M,+0265,1","240,N,+0168,1","99999,9,10124,1","1,1,001,1,+001,1",,"SYN100AAXX  20061 76458 32958 03202 10198 20181 30124 40128 51001 90545 333 10265 20168 30/// 55091 58001;",
"76458099999","2005-11-20T15:00:00","4","23.2","-106.4166666","4.0","COLONIA JUAN CARRASCO MAZATLAN SIN., MX","FM-12","99999","V020","999,9,C,0000,1","22000,1,9,N","010000,1,N,1","+0192,1","+0169,1","10147,1",,,,"4,1,03,1","4,1,03,1","04,1,+06000,1,00,1",,,"04,99,1,00,1,00,1,99999,9,00,1,08,1",,"01,9",,,,"99999,9,10142,1","2,1,021,1,+031,1","05,1","SYN106AAXX  20151 76458 31960 40000 10192 20169 30142 40147 52021 70544 80008 91440 333 0/009 30/// 58031 84070;",
"76458099999","2005-11-20T18:00:00","4","23.2","-106.4166666","4.0","COLONIA JUAN CARRASCO MAZATLAN SIN., MX","FM-12","99999","V020","240,1,N,0010,1","22000,1,9,N","010000,1,N,1","+0236,1","+9999,9","10144,1",,,,"4,1,06,1","4,1,06,1",,,,"04,99,1,00,1,00,1,99999,9,00,1,08,1",,"01,9","999,+0155,1","120,M,+0275,1",,"99999,9,10139,1","1,1,003,1,+017,1","05,1","SYN112AAXX  20181 76458 31960 42401 10236 30139 40144 51003 70544 80008 91740 333 0/009 10275 30155 30/// 58017 84070;",
"76458099999","2005-11-21T00:00:00","4","23.2","-106.4166666","4.0","COLONIA JUAN CARRASCO MAZATLAN SIN., MX","FM-12","99999","V020","180,1,N,0020,1","22000,1,9,N","020000,1,N,1","+0242,1","+0185,1","10121,1","24,0000,9,1",,,,,"00,1,+99999,9,99,9",,,"00,99,1,00,1,00,1,99999,9,00,1,00,1",,"01,9",,"120,M,+0283,1","180,N,+0155,1","99999,9,10117,1","2,1,017,1,+001,1",,"SYN106AAXX  21001 76458 32870 01802 10242 20185 30117 40121 52017 92350 333 10283 20155 30/// 54012 58001 70000;","Q01  00002PRCP24"
"76458099999","2005-11-21T03:00:00","4","23.2","-106.4166666","4.0","COLONIA JUAN CARRASCO MAZATLAN SIN., MX","FM-12","99999","V020","320,1,N,0020,1","22000,1,9,N","010000,1,N,1","+0210,1","+0186,1","10139,1",,,,,,"00,1,+99999,9,99,9",,,"00,99,1,00,1,00,1,99999,9,00,1,00,1",,"01,9",,,,"99999,9,10135,1","1,1,018,1,+002,1",,"SYN082AAXX  21031 76458 32960 03202 10210 20186 30135 40139 51018 90240 333 30/// 58002;",
"76458099999","2005-11-21T06:00:00","4","23.2","-106.4166666","4.0","COLONIA JUAN CARRASCO MAZATLAN SIN., MX","FM-12","99999","V020","020,1,N,9999,9","22000,1,9,N","010000,1,N,1","+0202,1","+0169,1","10139,1",,,,,,"01,1,+05400,1,00,1",,,"01,99,1,00,1,00,1,99999,9,00,1,05,1","0582,9","01,9",,"240,M,+0283,1","240,N,+0155,1","99999,9,10134,1","4,1,000,1,+001,1",,"SYN112AAXX  21061 76458 32960 10233 10202 20169 30134 40139 54000 81005 90550 333 10283 20155 30/// 55097 58001 81068;",
"76458099999","2005-11-21T09:00:00","4","23.2","-106.4166666","4.0","COLONIA JUAN CARRASCO MAZATLAN SIN., MX","FM-12","99999","V020","999,9,C,0000,1","22000,1,9,N","010000,1,N,1","+0192,1","+0169,1","10133,1",,,,,,"00,1,+99999,9,99,9",,,"00,99,1,00,1,00,1,99999,9,00,1,00,1",,"01,9",,,,"99999,9,10129,1","7,1,005,1,+010,1",,"SYN082AAXX  21091 76458 32960 00000 10192 20169 30129 40133 57005 90843 333 30/// 58010;",
"76458099999","2005-11-21T12:00:00","4","23.2","-106.4166666","4.0","COLONIA JUAN CARRASCO MAZATLAN SIN., MX","FM-12","99999","V020","999,9,C,0000,1","22000,1,9,N","010000,1,N,1","+0180,1","+0167,1","10134,1","24,0000,9,1",,,,,"00,1,+99999,9,99,9",,,"00,99,1,00,1,00,1,99999,9,00,1,00,1",,"01,9","999,+0135,1","120,N,+0165,1","240,M,+0283,1","99999,9,10130,1","5,1,001,1,+008,1",,"SYN100AAXX  21121 76458 32960 00000 10180 20167 30130 40134 55001 91140 333 10283 20165 30135 58008 70000;","Q01  00002PRCP24"
"76458099999","2005-11-21T15:00:00","4","23.2","-106.4166666","4.0","COLONIA JUAN CARRASCO MAZATLAN SIN., MX","FM-12","99999","V020","999,9,C,0000,1","22000,1,9,N","999999,9,N,1","+0196,1","+0173,1","10151,1",,,,"4,1,03,1","4,1,03,1","03,1,+06000,1,00,1",,,"03,99,1,00,1,00,1,99999,9,00,1,04,1",,"01,9",,,,"99999,9,10146,1","2,1,016,1,+004,1","05,1","SYN106AAXX  21151 76458 31151 30000 10196 20173 30146 40151 52016 70544 80004 91440 333 0/009 30/// 58004 83070;",
"76458099999","2005-11-21T18:00:00","4","23.2","-106.4166666","4.0","COLONIA JUAN CARRASCO MAZATLAN SIN., MX","FM-12","99999","V020","180,1,N,0010,1","22000,1,9,N","012000,1,N,1","+0250,1","+0197,1","10151,1",,,,"4,1,06,1","4,1,06,1","04,1,+06000,1,00,1",,,"04,99,1,00,1,00,1,99999,9,00,1,08,1",,"01,9",,"120,M,+0277,1","240,N,+0163,1","99999,9,10146,1","4,1,000,1,+007,1","05,1","SYN118AAXX  21181 76458 31962 41801 10250 20197 30146 40151 54000 70544 80008 91740 333 0/009 10277 20163 30/// 58007 84070;",
"76458099999","2005-11-21T21:00:00","4","23.2","-106.4166666","4.0","COLONIA JUAN CARRASCO MAZATLAN SIN., MX","FM-12","99999","V020","240,1,N,0020,1","22000,1,9,N","018000,1,N,1","+0246,1","+0200,1","10130,1",,,,"4,1,03,1","0,1,03,1","03,1,+08700,1,00,1",,,"03,99,1,00,1,00,1,99999,9,00,1,06,1",,"01,9",,,,"99999,9,10125,1","7,1,020,1,-008,1","02,1","SYN106AAXX  21211 76458 31968 32402 10246 20200 30125 40130 57020 70240 80006 92046 333 0/009 30/// 59008 83079;",
"76458099999","2005-11-22T00:00:00","4","23.2","-106.4166666","4.0","COLONIA JUAN CARRASCO MAZATLAN SIN., MX","FM-12","99999","V020","999,9,C,0000,1","08700,1,9,N","016000,1,N,1","+0245,1","+0172,1","10129,1","24,0000,9,1",,,,,"07,1,+08700,1,00,1",,,"07,99,1,00,1,00,1,99999,9,00,1,04,1",,"01,9",,"120,M,+0293,1","180,N,+0163,1","99999,9,10124,1","5,1,001,1,+008,1",,"SYN124AAXX  22001 76458 32966 70000 10245 20172 30124 40129 55001 80004 92346 333 0/009 10293 20163 30/// 50281 58008 70000 87079;",
"76458099999","2005-11-22T03:00:00","4","23.2","-106.4166666","4.0","COLONIA JUAN CARRASCO MAZATLAN SIN., MX","FM-12","99999","V020","330,1,N,0020,1","22000,1,9,N","010000,1,N,1","+0225,1","+0170,1","10136,1",,,,,,"01,1,+05700,1,00,1",,,"01,99,1,00,1,00,1,99999,9,00,1,04,1",,"01,9",,,,"99999,9,10132,1","3,1,007,1,-003,1",,"SYN100AAXX  22031 76458 32960 13302 10225 20170 30132 40136 53007 80004 90243 333 0/009 30/// 59003 81069;",
"76458099999","2005-11-22T06:00:00","4","23.2","-106.4166666","4.0","COLONIA JUAN CARRASCO MAZATLAN SIN., MX","FM-12","99999","V020","120,1,N,0020,1","22000,1,9,N","010000,1,N,1","+0210,1","+0180,1","10144,1",,,,,,"00,1,+99999,9,99,9",,,"00,99,1,00,1,00,1,99999,9,00,1,00,1","0534,9","01,9",,"240,M,+0293,1","240,N,+0163,1","99999,9,10139,1","2,1,008,1,+005,1",,"SYN100AAXX  22061 76458 32960 01202 10210 20180 30139 40144 52008 90540 333 10293 20163 30/// 55089 58005;",
"76458099999","2005-11-22T12:00:00","4","23.2","-106.4166666","4.0","COLONIA JUAN CARRASCO MAZATLAN SIN., MX","FM-12","99999","V020","150,1,N,0020,1","22000,1,9,N","006000,1,N,1","+0193,1","+0173,1","10140,1","24,0000,9,1",,,,,"00,1,+99999,9,99,9",,,"00,99,1,00,1,00,1,99999,9,00,1,00,1",,"01,9",,"120,N,+0163,1","240,M,+0234,1","99999,9,10133,1","9,9,999,9,+003,1",,"SYN100AAXX  22121 76458 32456 01502 10193 20173 30133 40140 51000 91145 333 10234 20163 30/// 58003 70000;","Q01  00002PRCP24"
"76458099999","2005-11-22T15:00:00","4","23.2","-106.4166666","4.0","COLONIA JUAN CARRASCO MAZATLAN SIN., MX","FM-12","99999","V020","120,1,N,0020,1","22000,1,9,N","001000,1,N,1","+0198,1","+0190,1","10157,1",,,,"4,1,03,1","0,1,03,1","00,1,+99999,9,99,9",,,"00,99,1,00,1,00,1,99999,9,00,1,00,1",,"01,9",,,,"99999,9,10153,1","2,1,020,1,+007,1","10,1","SYN088AAXX  22151 76458 31910 01202 10198 20190 30153 40157 52020 71040 91447 333 30/// 58007;",
"76458099999","2005-11-22T18:00:00","4","23.2","-106.4166666","4.0","COLONIA JUAN CARRASCO MAZATLAN SIN., MX","FM-12","99999","V020","150,1,N,0020,1","22000,1,9,N","002000,1,N,1","+0226,1","+0206,1","10165,1",,,,"4,1,06,1","4,1,06,1","00,1,+99999,9,99,9",,,"00,99,1,00,1,00,1,99999,9,00,1,00,1",,"01,9",,"120,M,+0237,1","240,N,+0169,1","99999,9,10160,1","2,1,007,1,+014,1","10,1","SYN100AAXX  22181 76458 31920 01502 10226 20206 30160 40165 52007 71044 91745 333 10237 20169 30/// 58014;",
"76458099999","2005-11-22T21:00:00","4","23.2","-106.4166666","4.0","COLONIA JUAN CARRASCO MAZATLAN SIN., MX","FM-12","99999","V020","150,1,N,0010,1","22000,1,9,N","016000,1,N,1","+0256,1","+0218,1","99999,9",,,,,,,,,"02,99,1,99,9,99,9,00450,1,99,9,99,9",,,,,,,,,"SYN114AAXX  22211 76458 31466 21501 10256 20218 00109 30/// 30133 40138 57027 57819 58008 70240 81079 81101 81816 92046;",
"76458099999","2005-11-23T00:00:00","4","23.2","-106.4166666","4.0","COLONIA JUAN CARRASCO MAZATLAN SIN., MX","FM-12","99999","V020","270,1,N,0010,1","22000,1,9,N","020000,1,N,1","+0248,1","+0218,1","10134,1","24,0000,9,1",,,,,"01,1,+08700,1,00,1",,,"01,99,1,00,1,00,1,99999,9,00,1,01,1",,"01,9",,"120,M,+0280,1","180,N,+0169,1","99999,9,10129,1","7,1,004,1,+005,1",,"SYN124AAXX  23001 76458 32970 12701 10248 20218 30129 40134 57004 80001 92340 333 0/009 10280 20169 30/// 50181 58005 70000 81079;",
"76458099999","2005-11-23T06:00:00","4","23.2","-106.4166666","4.0","COLONIA JUAN CARRASCO MAZATLAN SIN., MX","FM-12","99999","V020","999,9,C,0000,1","22000,1,9,N","010000,1,N,1","+0200,1","+0185,1","10145,1",,,,,,"00,1,+99999,9,99,9",,,"00,99,1,00,1,00,1,99999,9,00,1,00,1","0384,9","01,9",,"240,M,+0280,1","240,N,+0169,1","99999,9,10141,1","2,1,002,1,+011,1",,"SYN100AAXX  23061 76458 32960 00000 10200 20185 30141 40145 52002 90535 333 10280 20169 30/// 55064 58011;",
"76458099999","2005-11-23T09:00:00","4","23.2","-106.4166666","4.0","COLONIA JUAN CARRASCO MAZATLAN SIN., MX","FM-12","99999","V020","999,9,C,0000,1","22000,1,9,N","008000,1,N,1","+0184,1","+0156,1","10148,1",,,,,,"00,1,+99999,9,99,9",,,"00,99,1,00,1,00,1,99999,9,00,1,00,1",,"01,9",,,,"99999,9,10144,1","1,1,003,1,+011,1",,"SYN082AAXX  23091 76458 32958 00000 10184 20156 30144 40148 51003 90840 333 30/// 58011;",
"76458099999","2005-11-23T12:00:00","4","23.2","-106.4166666","4.0","COLONIA JUAN CARRASCO MAZATLAN SIN., MX","FM-12","99999","V020","999,9,C,0000,1","22000,1,9,N","008000,1,N,1","+0175,1","+0162,1","10144,1","24,0000,9,1",,,,,"00,1,+99999,9,99,9",,,"00,99,1,00,1,00,1,99999,9,00,1,00,1",,"01,9",,"120,N,+0169,1","240,M,+0280,1","99999,9,10139,1","6,1,005,1,+006,1",,"SYN100AAXX  23121 76458 32958 00000 10175 20162 30139 40144 56005 91135 333 10280 20169 30/// 58006 70000;","Q01  00002PRCP24"
"76458099999","2005-11-23T15:00:00","4","23.2","-106.4166666","4.0","COLONIA JUAN CARRASCO MAZATLAN SIN., MX","FM-12","99999","V020","120,1,N,0020,1","22000,1,9,N","010000,1,N,1","+0197,1","+0185,1","10164,1",,,,"4,1,03,1","0,1,03,1","00,1,+99999,9,99,9",,,"00,99,1,00,1,00,1,99999,9,00,1,00,1",,"01,9",,,,"99999,9,10160,1","2,1,021,1,+007,1","10,1","SYN088AAXX  23151 76458 31960 01202 10197 20185 30160 40164 52021 71040 91445 333 30/// 58007;",
"76458099999","2005-11-23T18:00:00","4","23.2","-106.4166666","4.0","COLONIA JUAN CARRASCO MAZATLAN SIN., MX","FM-12","99999","V020","180,1,N,0020,1","22000,1,9,N","016000,1,N,1","+0258,1","+0204,1","10165,1",,,,"0,1,06,1","4,1,06,1","01,1,+00660,1,08,1",,,"01,99,1,01,1,01,1,00800,1,00,1,00,1",,"01,9",,"120,M,+0275,1","240,N,+0154,1","99999,9,10160,1","0,1,000,1,+000,1","02,1","SYN124AAXX  23181 76458 31566 11802 10258 20204 30160 40165 50000 70204 81100 91750 333 0/300 10275 20154 30/// 57839 58000 81822;",
"76458099999","2005-11-23T21:00:00","4","23.2","-106.4166666","4.0","COLONIA JUAN CARRASCO MAZATLAN SIN., MX","FM-12","99999","V020","210,1,N,0020,1","22000,1,9,N","018000,1,N,1","+0254,1","+0209,1","10130,1",,,,,,"00,1,+99999,9,99,9",,,"00,99,1,00,1,00,1,99999,9,00,1,00,1",,"01,9",,,,"99999,9,10125,1","7,1,034,1,-008,1",,"SYN082AAXX  23211 76458 32968 02102 10254 20209 30125 40130 57034 92040 333 30/// 59008;",
"76458099999","2005-11-24T00:00:00","4","23.2","-106.4166666","4.0","COLONIA JUAN CARRASCO MAZATLAN SIN., MX","FM-12","99999","V020","280,1,N,0020,1","99999,9,9,N","020000,1,N,1","+0238,1","+0211,1","10119,1","24,0000,9,1",,,,,"01,1,+00330,1,06,1",,,"07,99,1,99,9,99,9,00450,1,99,9,99,9",,"01,9",,"120,M,+0288,1","180,N,+0154,1","99999,9,10115,1","6,1,010,1,-014,1",,"SYN124AAXX  24001 76458 32470 72802 10238 20211 30115 40119 56010 92348 333 00709 10288 20154 30/// 50281 59014 70000 81611 86079;",
"76458099999","2005-11-24T03:00:00","4","23.2","-106.4166666","4.0","COLONIA JUAN CARRASCO MAZATLAN SIN., MX","FM-12","99999","V020","320,1,N,0010,1","22000,1,9,N","010000,1,N,1","+0224,1","+0210,1","10139,1",,,,,,"03,1,+06000,1,00,1",,,"03,99,1,00,1,00,1,99999,9,00,1,09,1",,"01,9",,,,"99999,9,10134,1","2,1,019,1,-005,1",,"SYN100AAXX  24031 76458 32960 33201 10224 20210 30134 40139 52019 80009 90240 333 0/009 30/// 59005 83070;",
"76458099999","2005-11-24T06:00:00","4","23.2","-106.4166666","4.0","COLONIA JUAN CARRASCO MAZATLAN SIN., MX","FM-12","99999","V020","999,9,C,0000,1","22000,1,9,N","010000,1,N,1","+0210,1","+0195,1","10140,1",,,,,,,,,"01,99,1,00,1,00,1,99999,9,00,1,09,1","0504,9","01,9",,"240,M,+0288,1","240,N,+0154,1","99999,9,10136,1","1,1,002,1,-005,1",,"SYN124AAXX  24061 76458 32960 10000 10210 20195 30136 40140 51002 80009 90540 333 0/009 10288 20154 30/// 55084 2//// 59005 81070;",
"76458099999","2005-11-24T12:00:00","4","23.2","-106.4166666","4.0","COLONIA JUAN CARRASCO MAZATLAN SIN., MX","FM-12","99999","V020","999,9,C,0000,1","22000,1,9,N","010000,1,N,1","+0190,1","+0180,1","10134,1","24,0000,9,1",,,,,"00,1,+99999,9,99,9",,,"00,99,1,00,1,00,1,99999,9,00,1,00,1",,"01,9",,"120,N,+0154,1","240,M,+0287,1","99999,9,10129,1","6,1,001,1,-001,1",,"SYN100AAXX  24121 76458 32760 00000 10190 20180 30129 40134 56001 91145 333 10287 20154 30/// 59001 70000;","Q01  00002PRCP24"
"76458099999","2005-11-24T15:00:00","4","23.2","-106.4166666","4.0","COLONIA JUAN CARRASCO MAZATLAN SIN., MX","FM-12","99999","V020","999,9,C,0000,1","06000,1,9,N","005000,1,N,1","+0187,1","+0174,1","10146,1",,,,"4,1,03,1","0,1,03,1","06,1,+06000,1,00,1",,,"06,99,1,00,1,00,1,99999,9,00,1,08,1",,"01,9",,,,"99999,9,10141,1","2,1,012,1,-019,1","10,1","SYN112AAXX  24151 76458 31950 60000 10187 20174 30141 40146 52012 71040 80008 91445 333 0/009 30/// 57099 59019 86070;",
"76458099999","2005-11-24T18:00:00","4","23.2","-106.4166666","4.0","COLONIA JUAN CARRASCO MAZATLAN SIN., MX","FM-12","99999","V020","240,1,N,0010,1","09000,1,9,N","015000,1,N,1","+0258,1","+0191,1","10149,1",,,,"4,1,06,1","4,1,06,1",,,,"06,99,1,01,1,00,1,02250,1,03,1,07,1",,,,,,"99999,9,10144,1","2,1,003,1,+999,9","02,1","SYN072AAXX  24181 76458 31865 62401 10258 20191 30144 40149 52003 70244 81037;",
"76458099999","2005-11-25T03:00:00","4","23.2","-106.4166666","4.0","COLONIA JUAN CARRASCO MAZATLAN SIN., MX","FM-12","99999","V020","300,1,N,0010,1","22000,1,9,N","010000,1,N,1","+0224,1","+0201,1","10129,1",,,,,,"01,1,+05100,1,00,1",,,"02,99,1,00,1,00,1,99999,9,00,1,07,1",,"01,9",,,,"99999,9,10124,1","1,1,001,1,-001,1",,"SYN100AAXX  25031 76458 32960 23001 10224 20201 30124 40129 51001 80007 90245 333 0/009 30/// 59001 81067;",
"76458099999","2005-11-25T12:00:00","4","23.2","-106.4166666","4.0","COLONIA JUAN CARRASCO MAZATLAN SIN., MX","FM-12","99999","V020","999,9,C,0000,1","22000,1,9,N","010000,1,N,1","+0198,1","+0198,1","10120,1","24,0000,9,1",,,,,"00,1,+99999,9,99,9",,,"00,99,1,00,1,00,1,99999,9,00,1,00,1",,"01,9",,"120,N,+0150,1","240,M,+0252,1","99999,9,10112,1","5,1,011,1,-017,1",,"SYN100AAXX  25121 76458 32760 00000 10198 20198 30112 40120 55011 91150 333 10252 20150 30/// 59017 70000;","Q01  00002PRCP24"
"76458099999","2005-11-25T15:00:00","4","23.2","-106.4166666","4.0","COLONIA JUAN CARRASCO MAZATLAN SIN., MX","FM-12","99999","V020","999,9,C,0000,1","00060,1,C,N","018000,1,N,1","+0202,1","+0194,1","10135,1","02,0340,9,1",,,"6,1,03,1","6,1,03,1","03,1,+00090,1,09,1",,,"07,99,1,07,1,09,1,00075,1,00,1,00,1",,"09,9",,,,"99999,9,10130,1","2,1,018,1,-011,1","17,1","SYN124AAXX  25151 76458 21168 70000 10202 20194 30130 40135 52018 71766 87900 91500 333 066// 31/// 57960 59011 60346 83903 84604;",
"76458099999","2005-11-25T18:00:00","4","23.2","-106.4166666","4.0","COLONIA JUAN CARRASCO MAZATLAN SIN., MX","FM-12","99999","V020","030,1,N,0010,1","22000,1,9,N","020000,1,N,1","+0240,1","+0203,1","10136,1","06,0371,9,1",,,"5,1,06,1","6,1,06,1","02,1,+00450,1,08,1",,,"03,99,1,02,1,02,1,00450,1,03,1,00,1",,"09,9",,"120,M,+0258,1","240,N,+0182,1","99999,9,10131,1","0,1,001,1,-013,1","01,1","SYN136AAXX  25181 76458 01470 30301 10240 20203 30131 40136 50001 60371 70156 82230 91750 333 0/19/ 10258 20182 31/// 57813 59013 82815 81364;",
"76458099999","2005-11-26T03:00:00","4","23.2","-106.4166666","4.0","COLONIA JUAN CARRASCO MAZATLAN SIN., MX","FM-12","99999","V020","300,1,N,0010,1","22000,1,9,N","010000,1,N,1","+0220,1","+0197,1","10130,1",,,,,,"00,1,+99999,9,99,9",,,"00,99,1,00,1,00,1,99999,9,00,1,00,1",,"09,9",,,,"99999,9,10126,1","1,1,014,1,+001,1",,"SYN082AAXX  26031 76458 32960 03001 10220 20197 30126 40130 51014 90245 333 31/// 58001;",
"76458099999","2005-11-26T09:00:00","4","23.2","-106.4166666","4.0","COLONIA JUAN CARRASCO MAZATLAN SIN., MX","FM-12","99999","V020","999,9,C,0000,1","22000,1,9,N","010000,1,N,1","+0180,1","+0163,1","10150,1",,,,,,"00,1,+99999,9,99,9",,,"00,99,1,00,1,00,1,99999,9,00,1,00,1",,"01,9",,,,"99999,9,10140,1","6,1,007,1,+011,1",,"SYN082AAXX  26091 76458 32460 00000 10180 20163 30140 40150 56007 90850 333 30/// 58011;",
"76458099999","2005-11-26T12:00:00","4","23.2","-106.4166666","4.0","COLONIA JUAN CARRASCO MAZATLAN SIN., MX","FM-12","99999","V020","999,9,C,0000,1","22000,1,9,N","010000,1,N,1","+0174,1","+0156,1","10133,1","24,0000,9,1",,,,,"00,1,+99999,9,99,9",,,"00,99,1,00,1,00,1,99999,9,00,1,00,1",,"01,9",,"120,N,+9999,9","240,M,+0280,1","99999,9,10130,1","6,1,014,1,+016,1",,"SYN100AAXX  26121 76458 32560 00000 10174 20156 30130 40133 56014 91150 333 10280 20182 30/// 58016 70000;","Q01  00002PRCP24Q02 +01822ATMN  "
"76458099999","2005-11-26T15:00:00","4","23.2","-106.4166666","4.0","COLONIA JUAN CARRASCO MAZATLAN SIN., MX","FM-12","99999","V020","360,1,N,0010,1","22000,1,9,N","020000,1,N,1","+0188,1","+0152,1","10159,1",,,,,,"00,1,+99999,9,99,9",,,"00,99,1,00,1,00,1,99999,9,00,1,00,1",,"01,9",,,,"99999,9,10155,1","2,1,026,1,+015,1",,"SYN082AAXX  26151 76458 32970 03601 10188 20152 30155 40159 52026 91440 333 30/// 58015;",
"76458099999","2005-11-26T18:00:00","4","23.2","-106.4166666","4.0","COLONIA JUAN CARRASCO MAZATLAN SIN., MX","FM-12","99999","V020","360,1,N,0010,1","22000,1,9,N","020000,1,N,1","+0264,1","+0173,1","10158,1",,,,,,"00,1,+99999,9,99,9",,,"00,99,1,00,1,00,1,99999,9,00,1,00,1",,"01,9",,"120,M,+0277,1","240,N,+0156,1","99999,9,10153,1","6,1,002,1,+022,1",,"SYN094AAXX  26181 76458 32970 03601 10264 20173 30153 40158 56002 91740 333 10277 20156 30/// 58022;",
"76458099999","2005-11-26T21:00:00","4","23.2","-106.4166666","4.0","COLONIA JUAN CARRASCO MAZATLAN SIN., MX","FM-12","99999","V020","270,1,N,0020,1","22000,1,9,N","020000,1,N,1","+0249,1","+0176,1","10125,1",,,,,,"01,1,+00900,1,08,1",,,"01,99,1,01,1,01,1,00800,1,00,1,00,1",,"01,9",,,,"99999,9,10120,1","7,1,033,1,+010,1",,"SYN100AAXX  26211 76458 32570 12702 10249 20176 30120 40125 57033 81100 92053 333 00200 30/// 58010 81830;",
"76458099999","2005-11-27T00:00:00","4","23.2","-106.4166666","4.0","COLONIA JUAN CARRASCO MAZATLAN SIN., MX","FM-12","99999","V020","300,1,N,0010,1","22000,1,9,N","020000,1,N,1","+0246,1","+0169,1","10116,1","24,0000,9,1",,,,,"00,1,+99999,9,99,9",,,"00,99,1,00,1,00,1,99999,9,00,1,00,1",,"01,9",,"120,M,+0290,1","180,N,+0153,1","99999,9,10112,1","7,1,009,1,+000,1",,"SYN106AAXX  27001 76458 32970 03001 10246 20169 30112 40116 57009 92346 333 10290 20153 30/// 50411 59000 70000;","Q01  00002PRCP24"
"76458099999","2005-11-27T03:00:00","4","23.2","-106.4166666","4.0","COLONIA JUAN CARRASCO MAZATLAN SIN., MX","FM-12","99999","V020","300,1,N,0010,1","22000,1,9,N","010000,1,N,1","+0218,1","+0159,1","10121,1",,,,,,"00,1,+99999,9,99,9",,,"00,99,1,00,1,00,1,99999,9,00,1,00,1",,"01,9",,,,"99999,9,10117,1","1,1,005,1,+009,1",,"SYN082AAXX  27031 76458 32960 03001 10218 20159 30117 40121 51005 90245 333 30/// 58009;",
"76458099999","2005-11-27T06:00:00","4","23.2","-106.4166666","4.0","COLONIA JUAN CARRASCO MAZATLAN SIN., MX","FM-12","99999","V020","330,1,N,0020,1","22000,1,9,N","010000,1,N,1","+0190,1","+0156,1","10133,1",,,,,,"00,1,+99999,9,99,9",,,"00,99,1,00,1,00,1,99999,9,00,1,00,1","0594,9","01,9",,"240,M,+0290,1","240,N,+0156,1","99999,9,10129,1","2,1,012,1,+005,1",,"SYN100AAXX  27061 76458 32960 03302 10190 20156 30129 40133 52012 90545 333 10290 20156 30/// 55099 58005;",
"76458099999","2005-11-27T12:00:00","4","23.2","-106.4166666","4.0","COLONIA JUAN CARRASCO MAZATLAN SIN., MX","FM-12","99999","V020","999,9,C,0000,1","22000,1,9,N","008000,1,N,1","+0168,1","+0139,1","10123,1","24,0000,9,1",,,,,"00,1,+99999,9,99,9",,,"00,99,1,00,1,00,1,99999,9,00,1,00,1",,"01,9",,"120,N,+0156,1","240,M,+0229,1","99999,9,10119,1","6,1,003,1,-009,1",,"SYN100AAXX  27121 76458 32458 00000 10168 20139 30119 40123 56003 91250 333 10229 20156 30/// 59009 70000;","Q01  00002PRCP24"
"76458099999","2005-11-27T15:00:00","4","23.2","-106.4166666","4.0","COLONIA JUAN CARRASCO MAZATLAN SIN., MX","FM-12","99999","V020","999,9,C,0000,1","22000,1,9,N","020000,1,N,1","+0186,1","+0144,1","10132,1",,,,,,"00,1,+99999,9,99,9",,,"00,99,1,00,1,00,1,99999,9,00,1,00,1",,"01,9",,,,"99999,9,10127,1","1,1,009,1,-028,1",,"SYN082AAXX  27151 76458 32970 00000 10186 20144 30127 40132 51009 91440 333 30/// 59028;",
"76458099999","2005-11-27T18:00:00","4","23.2","-106.4166666","4.0","COLONIA JUAN CARRASCO MAZATLAN SIN., MX","FM-12","99999","V020","240,1,N,0010,1","22000,1,9,N","020000,1,N,1","+0246,1","+0171,1","10141,1",,,,,,"00,1,+99999,9,99,9",,,"00,99,1,00,1,00,1,99999,9,00,1,00,1",,"01,9",,"120,M,+0270,1","240,N,+0159,1","99999,9,10136,1","1,1,009,1,-015,1",,"SYN094AAXX  27181 76458 32970 02401 10246 20171 30136 40141 51009 91740 333 10270 20159 30/// 59015;",
"76458099999","2005-11-28T03:00:00","4","23.2","-106.4166666","4.0","COLONIA JUAN CARRASCO MAZATLAN SIN., MX","FM-12","99999","V020","330,1,N,0020,1","22000,1,9,N","010000,1,N,1","+0210,1","+0167,1","10116,1",,,,,,"00,1,+99999,9,99,9",,,"00,99,1,00,1,00,1,99999,9,00,1,00,1",,"01,9",,,,"99999,9,10112,1","2,1,007,1,+004,1",,"SYN082AAXX  28031 76458 32960 03302 10210 20167 30112 40116 52007 90245 333 30/// 58004;",
"76458099999","2005-11-28T06:00:00","4","23.2","-106.4166666","4.0","COLONIA JUAN CARRASCO MAZATLAN SIN., MX","FM-12","99999","V020","320,1,N,0020,1","22000,1,9,N","010000,1,N,1","+0196,1","+0145,1","10123,1",,,,,,"00,1,+99999,9,99,9",,,"00,99,1,00,1,00,1,99999,9,00,1,00,1","0588,9","01,9",,"240,M,+0270,1","240,N,+0159,1","99999,9,10119,1","2,1,007,1,+010,1",,"SYN100AAXX  28061 76458 32960 03202 10196 20145 30119 40123 52007 90545 333 10270 20159 30/// 55098 58010;",
"76458099999","2005-11-28T12:00:00","4","23.2","-106.4166666","4.0","COLONIA JUAN CARRASCO MAZATLAN SIN., MX","FM-12","99999","V020","310,1,N,0010,1","22000,1,9,N","010000,1,N,1","+0166,1","+0133,1","10114,1","24,0000,9,1",,,,,"00,1,+99999,9,99,9",,,"00,99,1,00,1,00,1,99999,9,00,1,00,1",,"01,9","999,+0119,1","120,N,+0150,1","240,M,+0270,1","99999,9,10110,1","6,1,002,1,-009,1",,"SYN100AAXX  28121 76458 32960 03101 10166 20133 30110 40114 56002 91146 333 10270 20150 30119 59009 70000;","Q01  00002PRCP24"
"76458099999","2005-11-28T15:00:00","4","23.2","-106.4166666","4.0","COLONIA JUAN CARRASCO MAZATLAN SIN., MX","FM-12","99999","V020","360,1,N,0010,1","22000,1,9,N","020000,1,N,1","+0186,1","+0141,1","10130,1",,,,,,"00,1,+99999,9,99,9",,,"00,99,1,00,1,00,1,99999,9,00,1,00,1",,"01,9",,,,"99999,9,10125,1","2,1,015,1,-002,1",,"SYN082AAXX  28151 76458 32970 03601 10186 20141 30125 40130 52015 91440 333 30/// 59002;",
"76458099999","2005-11-28T21:00:00","4","23.2","-106.4166666","4.0","COLONIA JUAN CARRASCO MAZATLAN SIN., MX","FM-12","99999","V020","270,1,N,0020,1","22000,1,9,N","020000,1,N,1","+0241,1","+0173,1","10108,1",,,,,,"00,1,+99999,9,99,9",,,"00,99,1,00,1,00,1,99999,9,00,1,00,1",,"01,9",,,,"99999,9,10103,1","7,1,023,1,-012,1",,"SYN082AAXX  28211 76458 32970 02702 10241 20173 30103 40108 57023 92050 333 30/// 59012;",
"76458099999","2005-11-29T03:00:00","4","23.2","-106.4166666","4.0","COLONIA JUAN CARRASCO MAZATLAN SIN., MX","FM-12","99999","V020","320,1,N,0020,1","22000,1,9,N","010000,1,N,1","+0204,1","+0168,1","10113,1",,,,,,"00,1,+99999,9,99,9",,,"00,99,1,00,1,00,1,99999,9,00,1,00,1",,"01,9",,,,"99999,9,10109,1","1,1,008,1,+003,1",,"SYN082AAXX  29031 76458 32960 03202 10204 20168 30109 40113 51008 90245 333 30/// 58003;",
"76458099999","2005-11-29T12:00:00","4","23.2","-106.4166666","4.0","COLONIA JUAN CARRASCO MAZATLAN SIN., MX","FM-12","99999","V020","160,1,N,0030,1","22000,1,9,N","008000,1,N,1","+0162,1","+0129,1","10120,1","24,0000,9,1",,,,,"00,1,+99999,9,99,9",,,"00,99,1,00,1,00,1,99999,9,00,1,00,1",,"01,9",,"120,N,+0149,1","240,M,+0211,1","99999,9,10111,1","6,1,004,1,+001,1",,"SYN100AAXX  29121 76458 32458 01603 10162 20129 30111 40120 56004 91150 333 10211 20149 30/// 58001 70000;","Q01  00002PRCP24"
"76458099999","2005-11-29T15:00:00","4","23.2","-106.4166666","4.0","COLONIA JUAN CARRASCO MAZATLAN SIN., MX","FM-12","99999","V020","100,1,N,0010,1","22000,1,9,N","020000,1,N,1","+0176,1","+0141,1","10128,1",,,,,,"00,1,+99999,9,99,9",,,"00,99,1,00,1,00,1,99999,9,00,1,00,1",,"01,9",,,,"99999,9,10123,1","2,1,013,1,-002,1",,"SYN082AAXX  29151 76458 32970 01001 10176 20141 30123 40128 52013 91447 333 30/// 59002;",
"76458099999","2005-11-29T18:00:00","4","23.2","-106.4166666","4.0","COLONIA JUAN CARRASCO MAZATLAN SIN., MX","FM-12","99999","V020","220,1,N,0010,1","22000,1,9,N","018000,1,N,1","+0225,1","+0158,1","10136,1",,,,,,"00,1,+99999,9,99,9",,,"00,99,1,00,1,00,1,99999,9,00,1,00,1",,"01,9",,"120,M,+0247,1","240,N,+0136,1","99999,9,10131,1","0,1,008,1,+005,1",,"SYN094AAXX  29181 76458 32968 02201 10225 20158 30131 40136 50008 91745 333 10247 20136 30/// 58005;",
"76458099999","2005-11-30T00:00:00","4","23.2","-106.4166666","4.0","COLONIA JUAN CARRASCO MAZATLAN SIN., MX","FM-12","99999","V020","280,1,N,0020,1","22000,1,9,N","020000,1,N,1","+0222,1","+0171,1","10121,1","24,0000,9,1",,,,,"01,1,+08700,1,00,1",,,"01,99,1,00,1,00,1,99999,9,00,1,05,1",,"01,9",,"120,M,+0258,1","180,N,+0136,1","99999,9,10117,1","0,1,000,1,+015,1",,"SYN124AAXX  30001 76458 32970 12802 10222 20171 30117 40121 50000 80005 92346 333 0/009 10258 20136 30/// 50141 58015 70000 81079;",
"76458099999","2005-11-30T03:00:00","4","23.2","-106.4166666","4.0","COLONIA JUAN CARRASCO MAZATLAN SIN., MX","FM-12","99999","V020","320,1,N,0020,1","22000,1,9,N","010000,1,N,1","+0198,1","+0165,1","10127,1",,,,,,"00,1,+99999,9,99,9",,,"00,99,1,00,1,00,1,99999,9,00,1,00,1",,"01,9",,,,"99999,9,10122,1","1,1,006,1,+013,1",,"SYN076AAXX  30031 76458 32960 03202 10198 20165 30122 51006 90245 333 30/// 58013;",
"76458099999","2005-11-30T06:00:00","4","23.2","-106.4166666","4.0","COLONIA JUAN CARRASCO MAZATLAN SIN., MX","FM-12","99999","V020","320,1,N,0010,1","22000,1,9,N","010000,1,N,1","+0182,1","+0158,1","10130,1",,,,,,"00,1,+99999,9,99,9",,,"00,99,1,00,1,00,1,99999,9,00,1,00,1","0570,9","01,9",,"240,M,+0258,1","240,N,+0136,1","99999,9,10125,1","2,1,002,1,+004,1",,"SYN100AAXX  30061 76458 32960 03201 10182 20158 30125 40130 52002 90549 333 10258 20136 30/// 55095 58004;",
"76458099999","2005-11-30T12:00:00","4","23.2","-106.4166666","4.0","COLONIA JUAN CARRASCO MAZATLAN SIN., MX","FM-12","99999","V020","330,1,N,0010,1","22000,1,9,N","008000,1,N,1","+0161,1","+0143,1","10132,1","24,0000,9,1",,,,,"00,1,+99999,9,99,9",,,"00,99,1,00,1,00,1,99999,9,00,1,00,1",,"01,9","999,+0112,1","120,N,+0130,1","240,M,+0258,1","99999,9,10127,1","1,1,004,1,+016,1",,"SYN094AAXX  30121 76458 32958 03301 10161 20143 40132 51004 91140 333 10258 20130 30112 58016 70000;","Q01  00002PRCP24"
"76458099999","2005-11-30T15:00:00","4","23.2","-106.4166666","4.0","COLONIA JUAN CARRASCO MAZATLAN SIN., MX","FM-12","99999","V020","330,1,N,0020,1","22000,1,9,N","020000,1,N,1","+0281,2","+0151,1","10147,1",,,,,,"00,1,+99999,9,99,9",,,"00,99,1,00,1,00,1,99999,9,00,1,00,1",,"01,9",,,,"99999,9,10143,1","2,1,016,1,+020,1",,"SYN082AAXX  30151 76458 32970 03302 10281 20151 30143 40147 52016 91445 333 30/// 58020;",
"76458099999","2005-11-30T18:00:00","4","23.2","-106.4166666","4.0","COLONIA JUAN CARRASCO MAZATLAN SIN., MX","FM-12","99999","V020","210,1,N,0010,1","22000,1,9,N","020000,1,N,1","+0256,1","+0165,1","10146,1",,,,,,"00,1,+99999,9,99,9",,,"00,99,1,00,1,00,1,99999,9,00,1,00,1",,"01,9",,"120,M,+0272,1","240,N,+0129,1","99999,9,10141,1","5,1,002,1,+010,1",,"SYN094AAXX  30181 76458 32970 02101 10256 20165 30141 40146 55002 91745 333 10272 20129 30/// 58010;",
"76458099999","2005-11-30T21:00:00","4","23.2","-106.4166666","4.0","COLONIA JUAN CARRASCO MAZATLAN SIN., MX","FM-12","99999","V020","210,1,N,0020,1","22000,1,9,N","020000,1,N,1","+0256,1","+0169,1","10126,1",,,,,,"00,1,+99999,9,99,9",,,"00,99,1,00,1,00,1,99999,9,00,1,00,1",,"01,9",,,,"99999,9,10121,1","7,1,020,1,+005,1",,"SYN082AAXX  30211 76458 32970 02102 10256 20169 30121 40126 57020 92050 333 30/// 58005;",
"76458099999","2005-12-01T12:00:00","4","23.2","-106.4166666","4.0","COLONIA JUAN CARRASCO MAZATLAN SIN., MX","FM-12","99999","V020","999,9,C,0000,1","22000,1,9,N","008000,1,N,1","+0163,1","+0139,1","10136,1","24,0000,9,1",,,,,"00,1,+99999,9,99,9",,,"00,99,1,00,1,00,1,99999,9,00,1,00,1",,"01,9",,"120,N,+0110,1","240,M,+0169,1","99999,9,10131,1","6,1,013,1,+003,1",,"SYN100AAXX  01121 76458 32458 00000 10163 20139 30131 40136 56013 91150 333 10169 20110 30/// 58003 70000;","Q01  00002PRCP24"
"76458099999","2005-12-01T15:00:00","4","23.2","-106.4166666","4.0","COLONIA JUAN CARRASCO MAZATLAN SIN., MX","FM-12","99999","V020","350,1,N,0020,1","22000,1,9,N","020000,1,N,1","+0186,1","+0136,1","10147,1",,,,,,"00,1,+99999,9,99,9",,,"00,99,1,00,1,00,1,99999,9,00,1,00,1",,"01,9",,,,"99999,9,10143,1","2,1,012,1,+000,1",,"SYN082AAXX  01151 76458 32970 03502 10186 20136 30143 40147 52012 91447 333 30/// 58000;",
"76458099999","2005-12-01T18:00:00","4","23.2","-106.4166666","4.0","COLONIA JUAN CARRASCO MAZATLAN SIN., MX","FM-12","99999","V020","210,1,N,0020,1","22000,1,9,N","020000,1,N,1","+0260,1","+0126,1","10149,1",,,,,,"00,1,+99999,9,99,9",,,"00,99,1,00,1,00,1,99999,9,00,1,00,1",,"01,9",,"120,M,+0282,1","240,N,+0128,1","99999,9,10145,1","0,1,002,1,+004,1",,"SYN094AAXX  01181 76458 32970 02102 10260 20126 30145 40149 50002 91745 333 10282 20128 30/// 58004;",
"76458099999","2005-12-02T00:00:00","4","23.2","-106.4166666","4.0","COLONIA JUAN CARRASCO MAZATLAN SIN., MX","FM-12","99999","V020","320,1,N,0020,1","22000,1,9,N","020000,1,N,1","+0242,1","+0173,1","10122,1","24,0000,9,1",,,,,"03,1,+08700,1,00,1",,,"03,99,1,00,1,00,1,99999,9,00,1,04,1",,"01,9",,"120,M,+0283,1","180,N,+0128,1","99999,9,10117,1","5,1,003,1,+999,9",,"SYN118AAXX  02001 76458 32970 33202 10242 20173 30117 40122 55003 80004 92346 333 0/009 10283 20128 30/// 50201 70000 83079;",
"76458099999","2005-12-02T09:00:00","4","23.2","-106.4166666","4.0","COLONIA JUAN CARRASCO MAZATLAN SIN., MX","FM-12","99999","V020","300,1,N,0020,1","22000,1,9,N","008000,1,N,1","+0178,1","+0139,1","10131,1",,,,,,,,,"01,99,1,99,9,99,9,99999,9,99,9,99,9",,"01,9",,,,"99999,9,10127,1","5,1,006,1,+999,9",,"SYN082AAXX  02091 76458 32958 13002 10178 20139 30127 40131 55006 90850 333 30/// 95005;",
"76458099999","2005-12-02T12:00:00","4","23.2","-106.4166666","4.0","COLONIA JUAN CARRASCO MAZATLAN SIN., MX","FM-12","99999","V020","330,1,N,0010,1","22000,1,9,N","008000,1,N,1","+0164,1","+0137,1","10131,1","24,0000,9,1",,,,,"00,1,+99999,9,99,9",,,"00,99,1,00,1,00,1,99999,9,00,1,00,1",,"01,9",,"120,N,+0128,1","240,M,+0283,1","99999,9,10127,1","4,1,000,1,-004,1",,"SYN100AAXX  02121 76458 32958 03301 10164 20137 30127 40131 54000 91150 333 10283 20128 30/// 59004 70000;","Q01  00002PRCP24"
"76458099999","2005-12-02T15:00:00","4","23.2","-106.4166666","4.0","COLONIA JUAN CARRASCO MAZATLAN SIN., MX","FM-12","99999","V020","999,9,C,0000,1","22000,1,9,N","020000,1,N,1","+0165,1","+0141,1","10145,1",,,,,,"01,1,+03600,1,03,1",,,"02,99,1,01,1,00,1,02250,1,03,1,03,1",,"01,9",,,,"99999,9,10140,1","2,1,013,1,+999,9",,"SYN094AAXX  02151 76458 32870 20000 10165 20141 30140 40145 52013 81033 91445 333 30/// 81362 81068;",
"76458099999","2005-12-02T18:00:00","4","23.2","-106.4166666","4.0","COLONIA JUAN CARRASCO MAZATLAN SIN., MX","FM-12","99999","V020","240,1,N,0020,1","22000,1,9,N","018000,1,N,1","+0246,1","+0154,1","10148,1",,,,,,"00,1,+99999,9,99,9",,,"00,99,1,00,1,00,1,99999,9,00,1,00,1",,"01,9",,"120,M,+0270,1","240,N,+0125,1","99999,9,10144,1","0,1,004,1,-001,1",,"SYN094AAXX  02181 76458 32068 02402 10246 20154 30144 40148 50004 91750 333 10270 20125 30/// 59001;",
"76458099999","2005-12-02T21:00:00","4","23.2","-106.4166666","4.0","COLONIA JUAN CARRASCO MAZATLAN SIN., MX","FM-12","99999","V020","270,1,N,0030,1","99999,9,9,N","020000,1,N,1","+0250,1","+0169,1","10121,1",,,,,,"02,1,+04200,1,03,1",,,"05,99,1,02,1,00,1,01250,1,03,1,04,1",,"01,9",,,,"99999,9,10116,1","7,1,028,1,-004,1",,"SYN106AAXX  02211 76458 32670 52703 10250 20169 30116 40121 57028 82034 92045 333 30/// 56/99 59004 82364 83070;",
"76458099999","2005-12-03T03:00:00","4","23.2","-106.4166666","4.0","COLONIA JUAN CARRASCO MAZATLAN SIN., MX","FM-12","99999","V020","300,1,N,0020,1","22000,1,9,N","010000,1,N,1","+0214,1","+0188,1","99999,9",,,,,,"00,1,+99999,9,99,9",,,"00,99,1,00,1,00,1,99999,9,00,1,00,1",,"01,9",,,,,,,"SYN082AAXX  03031 76458 32960 03002 10214 20188 01240 30131 40136 57013 333 30/// 90240;",
"76458099999","2005-12-03T06:00:00","4","23.2","-106.4166666","4.0","COLONIA JUAN CARRASCO MAZATLAN SIN., MX","FM-12","99999","V020","310,1,N,0010,1","22000,1,9,N","010000,1,N,1","+0192,1","+0166,1","10145,1",,,,,,"00,1,+99999,9,99,9",,,"00,99,1,00,1,00,1,99999,9,00,1,00,1","0528,9","01,9",,"240,M,+0272,1","240,N,+0125,1","99999,9,10141,1","2,1,010,1,+999,9",,"SYN106AAXX  03061 76458 32960 03101 10192 20166 30141 40145 52010 90545 333 10272 20125 30/// 55088 2//// 58001;",
"76458099999","2005-12-03T09:00:00","4","23.2","-106.4166666","4.0","COLONIA JUAN CARRASCO MAZATLAN SIN., MX","FM-12","99999","V020","330,1,N,0010,1","22000,1,9,N","008000,1,N,1","+0174,1","+0149,1","10143,1",,,,,,"00,1,+99999,9,99,9",,,"00,99,1,00,1,00,1,99999,9,00,1,00,1",,"01,9",,,,"99999,9,10138,1","7,1,003,1,+011,1",,"SYN082AAXX  03091 76458 32958 03301 10174 20149 30138 40143 57003 90847 333 30/// 58011;",
"76458099999","2005-12-03T12:00:00","4","23.2","-106.4166666","4.0","COLONIA JUAN CARRASCO MAZATLAN SIN., MX","FM-12","99999","V020","310,1,N,0010,1","22000,1,9,N","008000,1,N,1","+0162,1","+0129,1","10141,1","24,0000,9,1",,,,,"00,1,+99999,9,99,9",,,"00,99,1,00,1,00,1,99999,9,00,1,00,1",,"01,9","999,+0114,1","120,N,+0125,1","240,M,+0272,1","99999,9,10136,1","5,1,002,1,+009,1",,"SYN100AAXX  03121 76458 32958 03101 10162 20129 30136 40141 55002 91145 333 10272 20125 30114 58009 70000;","Q01  00002PRCP24"
"76458099999","2005-12-03T15:00:00","4","23.2","-106.4166666","4.0","COLONIA JUAN CARRASCO MAZATLAN SIN., MX","FM-12","99999","V020","330,1,N,0010,1","22000,1,9,N","016000,1,N,1","+0184,1","+0146,1","10151,1",,,,,,"03,1,+06000,1,00,1",,,"03,99,1,00,1,00,1,99999,9,00,1,05,1",,"01,9","999,+0146,1",,,"99999,9,10146,1","2,1,010,1,+006,1",,"SYN100AAXX  03151 76458 32966 33301 10184 20146 30146 40151 52010 80005 91440 333 0/009 30/// 58006 83070;",
"76458099999","2005-12-03T18:00:00","4","23.2","-106.4166666","4.0","COLONIA JUAN CARRASCO MAZATLAN SIN., MX","FM-12","99999","V020","270,1,N,0010,1","22000,1,9,N","020000,1,N,1","+0264,1","+0147,1","10156,1",,,,,,"03,1,+06000,1,00,1",,,"03,99,1,00,1,00,1,99999,9,00,1,05,1",,"01,9",,"120,M,+0280,1","240,N,+0121,1","99999,9,10152,1","1,1,006,1,+008,1",,"SYN112AAXX  03181 76458 32970 32701 10264 20147 30152 40156 51006 80005 91740 333 0/009 10280 20121 30/// 58008 83070;",
"76458099999","2005-12-03T21:00:00","4","23.2","-106.4166666","4.0","COLONIA JUAN CARRASCO MAZATLAN SIN., MX","FM-12","99999","V020","240,1,N,0020,1","22000,1,9,N","018000,1,N,1","+0254,1","+0174,1","10141,1",,,,,,"02,1,+05700,1,01,1",,,"03,99,1,00,1,00,1,99999,9,00,1,09,1",,"01,9",,,,"99999,9,10136,1","7,1,015,1,+020,1",,"SYN106AAXX  03211 76458 32968 32402 10254 20174 30136 40141 57015 80009 92048 333 0/009 30/// 58020 82169 81079;",
"76458099999","2005-12-04T00:00:00","4","23.2","-106.4166666","4.0","COLONIA JUAN CARRASCO MAZATLAN SIN., MX","FM-12","99999","V020","270,1,N,0020,1","22000,1,9,N","020000,1,N,1","+0239,1","+0153,1","10137,1","24,0000,9,1",,,,,"03,1,+02400,1,03,1",,,"04,99,1,03,1,00,1,99999,9,03,1,04,1",,"01,9",,"120,M,+0285,1","180,N,+0121,1","99999,9,10132,1","6,1,004,1,+015,1",,"SYN130AAXX  04001 76458 32970 42702 10239 20153 30132 40137 56004 83034 92340 333 0/059 10285 20121 30/// 50441 58015 70000 83358 81079;",
"76458099999","2005-12-04T03:00:00","4","23.2","-106.4166666","4.0","COLONIA JUAN CARRASCO MAZATLAN SIN., MX","FM-12","99999","V020","180,1,N,0020,1","22000,1,9,N","008000,1,N,1","+0214,1","+0175,1","10150,1",,,,,,"00,1,+99999,9,99,9",,,"00,99,1,00,1,00,1,99999,9,00,1,00,1",,"01,9",,,,"99999,9,10140,1","6,1,005,1,+006,1",,"SYN082AAXX  04031 76458 32658 01802 10214 20175 30140 40150 56005 90250 333 30/// 58006;",
"76458099999","2005-12-04T06:00:00","4","23.2","-106.4166666","4.0","COLONIA JUAN CARRASCO MAZATLAN SIN., MX","FM-12","99999","V020","120,1,N,0020,1","22000,1,9,N","010000,1,N,1","+0194,1","+0149,1","10148,1",,,,,,"00,1,+99999,9,99,9",,,"00,99,1,00,1,00,1,99999,9,00,1,00,1","0522,9","01,9",,"240,M,+0285,1","240,N,+0121,1","99999,9,10150,1","2,1,006,1,+999,9",,"SYN106AAXX  04061 76458 32560 01202 10194 20149 30150 40148 52006 90545 333 10285 20121 30/// 55087 2//// 58002;",
"76458099999","2005-12-04T09:00:00","4","23.2","-106.4166666","4.0","COLONIA JUAN CARRASCO MAZATLAN SIN., MX","FM-12","99999","V020","280,1,N,0010,1","22000,1,9,N","008000,1,N,1","+0184,1","+0129,1","10146,1",,,,,,"00,1,+99999,9,99,9",,,"00,99,1,00,1,00,1,99999,9,00,1,00,1",,"01,9",,,,"99999,9,10141,1","2,1,002,1,-003,1",,"SYN082AAXX  04091 76458 32958 02801 10184 20129 30141 40146 52002 90849 333 30/// 59003;",
"76458099999","2005-12-04T12:00:00","4","23.2","-106.4166666","4.0","COLONIA JUAN CARRASCO MAZATLAN SIN., MX","FM-12","99999","V020","130,1,N,0010,1","22000,1,9,N","008000,1,N,1","+0176,1","+0130,1","10141,1",,,,,,"03,1,+03000,1,03,1",,,"03,99,1,03,1,00,1,99999,9,05,1,00,1",,"01,9","999,+0129,1","120,N,+0121,1","240,M,+0285,1","99999,9,10136,1","7,1,005,1,+001,1",,"SYN106AAXX  04121 76458 32958 31301 10176 20130 30136 40141 57005 83050 91147 333 10285 20121 30129 58001 83360;",
"76458099999","2005-12-04T15:00:00","4","23.2","-106.4166666","4.0","COLONIA JUAN CARRASCO MAZATLAN SIN., MX","FM-12","99999","V020","080,1,N,0010,1","02400,1,9,N","020000,1,N,1","+0200,1","+0143,1","10155,1",,,,,,"07,1,+02400,1,03,1",,,"07,99,1,07,1,00,1,02250,1,05,1,00,1",,"01,9",,,,"99999,9,10150,1","2,1,014,1,+004,1",,"SYN100AAXX  04151 76458 32870 70801 10200 20143 30150 40155 52014 87050 91440 333 0/090 30/// 58004 87358;",
"76458099999","2005-12-04T21:00:00","4","23.2","-106.4166666","4.0","COLONIA JUAN CARRASCO MAZATLAN SIN., MX","FM-12","99999","V020","240,1,N,0020,1","01800,1,9,N","020000,1,N,1","+0244,1","+0145,1","10139,1",,,,,,"07,1,+01800,1,04,1",,,"07,99,1,07,1,00,1,99999,9,02,1,00,1",,"01,9",,,,"99999,9,10134,1","7,1,017,1,-002,1",,"SYN094AAXX  04211 76458 32970 72402 10244 20145 30134 40139 57017 87020 92050 333 30/// 59002 87456;",
"76458099999","2005-12-05T00:00:00","4","23.2","-106.4166666","4.0","COLONIA JUAN CARRASCO MAZATLAN SIN., MX","FM-12","99999","V020","270,1,N,0010,1","99999,9,9,N","020000,1,N,1","+0232,1","+0150,1","10137,1","24,0000,9,1",,,,,,,,"07,99,1,07,1,00,1,99999,9,02,1,00,1",,"01,9",,"120,M,+0266,1","180,N,+0164,1","99999,9,10133,1","5,1,001,1,+003,1",,"SYN124AAXX  05001 76458 32970 72701 10232 20150 30133 40137 55001 87020 91146 333 10266 20164 30/// 50150 56090 58003 70000 87457;",
"76458099999","2005-12-05T03:00:00","4","23.2","-106.4166666","4.0","COLONIA JUAN CARRASCO MAZATLAN SIN., MX","FM-12","99999","V020","120,1,N,0020,1","01050,1,9,N","010000,1,N,1","+0218,1","+0146,1","10150,1",,,,,,"08,1,+01050,1,04,1",,,"99,99,9,06,1,00,1,01250,1,03,1,00,1",,"01,9",,,,"99999,9,10142,1","5,1,009,1,+002,1",,"SYN100AAXX  05031 76458 32660 51202 10218 20146 30142 40150 55009 86030 90250 333 30/// 56090 58002 88435;",
"76458099999","2005-12-05T06:00:00","4","23.2","-106.4166666","4.0","COLONIA JUAN CARRASCO MAZATLAN SIN., MX","FM-12","99999","V020","220,1,N,0020,1","01200,1,9,N","010000,1,N,1","+0208,1","+0126,1","10152,1",,,,,,,,,"06,99,1,06,1,08,1,00800,1,04,1,00,1","0120,9","01,9",,"240,M,+0263,1","240,N,+0164,1","99999,9,10150,1","2,1,005,1,+004,1",,"SYN124AAXX  05061 76458 32560 62202 10208 20126 30150 40152 52005 86840 90550 333 10263 20164 30/// 55020 2//// 56289 58004 86590;",
"76458099999","2005-12-05T09:00:00","4","23.2","-106.4166666","4.0","COLONIA JUAN CARRASCO MAZATLAN SIN., MX","FM-12","99999","V020","300,1,N,0010,1","02400,1,9,N","008000,1,N,1","+0184,1","+0110,1","10141,1",,,,,,"05,1,+02400,1,03,1",,,"05,99,1,05,1,00,1,99999,9,03,1,00,1",,"01,9",,,,"99999,9,10137,1","7,1,011,1,-011,1",,"SYN100AAXX  05091 76458 32958 53001 10184 20110 30137 40141 57011 85030 90859 333 30/// 56090 59011 85358;",
"76458099999","2005-12-05T12:00:00","4","23.2","-106.4166666","4.0","COLONIA JUAN CARRASCO MAZATLAN SIN., MX","FM-12","99999","V020","360,1,N,0010,1","22000,1,9,N","008000,1,N,1","+0172,1","+0130,1","10138,1","24,0000,9,1",,,,,"01,1,+02400,1,03,1",,,"01,99,1,01,1,00,1,99999,9,03,1,00,1",,"01,9","999,+0135,1","120,N,+0160,1","240,M,+0263,1","99999,9,10134,1","7,1,003,1,-002,1",,"SYN118AAXX  05121 76458 32958 13601 10172 20130 30134 40138 57003 81030 91135 333 10263 20160 30135 56090 59002 70000 81358;",
"76458099999","2005-12-05T15:00:00","4","23.2","-106.4166666","4.0","COLONIA JUAN CARRASCO MAZATLAN SIN., MX","FM-12","99999","V020","360,1,N,0010,1","01800,1,9,N","020000,1,N,1","+0182,1","+0136,1","10152,1",,,,,,"05,1,+01800,1,03,1",,,"05,99,1,05,1,00,1,99999,9,03,1,00,1",,"01,9",,,,"99999,9,10147,1","2,1,013,1,-003,1",,"SYN100AAXX  05151 76458 32970 53601 10182 20136 30147 40152 52013 85030 91440 333 0/090 30/// 59003 85356;",
"76458099999","2005-12-05T18:00:00","4","23.2","-106.4166666","4.0","COLONIA JUAN CARRASCO MAZATLAN SIN., MX","FM-12","99999","V020","270,1,N,0020,1","22000,1,9,N","020000,1,N,1","+0228,1","+0161,1","10148,1",,,,,,"00,1,+99999,9,99,9",,,"00,99,1,00,1,00,1,99999,9,00,1,00,1",,"01,9",,"120,M,+0251,1","240,N,+0150,1","99999,9,10142,1","5,1,003,1,-012,1",,"SYN094AAXX  05181 76458 32970 02702 10228 20161 30142 40148 55003 91745 333 10251 20150 30/// 59012;",
"76458099999","2005-12-05T21:00:00","4","23.2","-106.4166666","4.0","COLONIA JUAN CARRASCO MAZATLAN SIN., MX","FM-12","99999","V020","300,1,N,0020,1","05700,1,9,N","020000,1,N,1","+0237,1","+0172,1","10129,1",,,,,,"04,1,+02700,1,03,1","02,1,+05700,1,01,1",,"07,99,1,04,1,00,1,99999,9,03,1,09,1",,"01,9",,,,"99999,9,10125,1","8,1,019,1,-009,1",,"SYN112AAXX  05211 76458 32970 73002 10237 20172 30125 40129 58019 84039 92046 333 30/// 56066 59009 84359 82169 81079;",
"76458099999","2005-12-06T03:00:00","4","23.2","-106.4166666","4.0","COLONIA JUAN CARRASCO MAZATLAN SIN., MX","FM-12","99999","V020","320,1,N,0020,1","22000,1,9,N","010000,1,N,1","+0210,1","+0180,1","10127,1",,,,,,,,,"04,99,1,04,1,00,1,99999,9,05,1,00,1","0348,9","01,9",,,,"99999,9,10122,1","2,1,002,1,-024,1",,"SYN106AAXX  06031 76458 32960 43202 10210 20180 30122 40127 52002 84050 90235 333 30/// 55058 56090 59024 84358;",
"76458099999","2005-12-06T06:00:00","4","23.2","-106.4166666","4.0","COLONIA JUAN CARRASCO MAZATLAN SIN., MX","FM-12","99999","V020","320,1,N,0010,1","22000,1,9,N","010000,1,N,1","+0200,1","+0176,1","10136,1",,,,,,"00,1,+99999,9,99,9",,,"00,99,1,00,1,00,1,99999,9,00,1,00,1","0348,9","01,9",,"240,M,+0250,1","240,N,+0150,1","99999,9,10132,1","7,1,010,1,-016,1",,"SYN100AAXX  06061 76458 32960 03201 10200 20176 30132 40136 57010 90535 333 10250 20150 30/// 55058 59016;",
"76458099999","2005-12-06T09:00:00","4","23.2","-106.4166666","4.0","COLONIA JUAN CARRASCO MAZATLAN SIN., MX","FM-12","99999","V020","330,1,N,0020,1","22000,1,9,N","010000,1,N,1","+0182,1","+0164,1","10127,1",,,,,,"00,1,+99999,9,99,9",,,"00,99,1,00,1,00,1,99999,9,00,1,00,1",,"01,9",,,,"99999,9,10123,1","7,1,007,1,-009,1",,"SYN082AAXX  06091 76458 32960 03302 10182 20164 30123 40127 57007 90845 333 30/// 59009;",
"76458099999","2005-12-06T12:00:00","4","23.2","-106.4166666","4.0","COLONIA JUAN CARRASCO MAZATLAN SIN., MX","FM-12","99999","V020","320,1,N,0010,1","02400,1,9,N","010000,1,N,1","+0188,1","+0169,1","10125,1","24,0000,9,1",,,,,"05,1,+02400,1,03,1",,,"05,99,1,05,1,00,1,99999,9,03,1,00,1",,"01,9","999,+0115,1","120,N,+0150,1","240,M,+0250,1","99999,9,10121,1","4,1,000,1,-012,1",,"SYN118AAXX  06121 76458 32960 53201 10188 20169 30121 40125 54000 85030 91148 333 10250 20150 30115 56090 59012 70000 85358;",
"76458099999","2005-12-06T15:00:00","4","23.2","-106.4166666","4.0","COLONIA JUAN CARRASCO MAZATLAN SIN., MX","FM-12","99999","V020","360,1,N,0010,1","03600,1,9,N","014000,1,N,1","+0190,1","+0150,1","10139,1",,,,,,"01,1,+01200,1,06,1",,,"08,99,1,01,1,02,1,00450,1,01,1,00,1",,"01,9",,,,"99999,9,10134,1","2,1,013,1,-012,1",,"SYN106AAXX  06151 76458 32464 83601 10190 20150 30134 40139 52013 81210 91440 333 0/790 30/// 59012 81640 87454;",
"76458099999","2005-12-06T18:00:00","4","23.2","-106.4166666","4.0","COLONIA JUAN CARRASCO MAZATLAN SIN., MX","FM-12","99999","V020","999,9,C,0000,1","03600,1,9,N","012000,1,N,1","+0224,1","+0162,1","10141,1",,,,"4,1,06,1","4,1,06,1","01,1,+01320,1,06,1",,,"08,99,1,01,1,02,1,00800,1,05,1,00,1",,"01,9",,"120,M,+0237,1","240,N,+0172,1","99999,9,10136,1","1,1,002,1,-008,1","05,1","SYN124AAXX  06181 76458 31562 80000 10224 20162 30136 40141 51002 70544 81250 91740 333 10237 20172 30/// 56/// 59008 81644 87454;",
"76458099999","2005-12-06T21:00:00","4","23.2","-106.4166666","4.0","COLONIA JUAN CARRASCO MAZATLAN SIN., MX","FM-12","99999","V020","300,1,N,0010,1","03000,1,9,N","016000,1,N,1","+0211,1","+0165,1","10128,1",,,,"4,1,03,1","4,1,03,1","08,1,+03000,1,04,1",,,"08,99,1,08,1,00,1,99999,9,02,1,00,1",,"01,9",,,,"99999,9,10124,1","7,1,012,1,-001,1","05,1","SYN106AAXX  06211 76458 31966 83001 10211 20165 30124 40128 57012 70544 88020 92046 333 30/// 56090 59001 88460;",
"76458099999","2005-12-07T00:00:00","4","23.2","-106.4166666","4.0","COLONIA JUAN CARRASCO MAZATLAN SIN., MX","FM-12","99999","V020","999,9,C,0000,1","99999,9,9,N","014000,1,N,1","+0220,1","+0151,1","10124,1","24,0000,9,1",,,"4,1,06,1","4,1,06,1","03,1,+02400,1,03,1",,,"07,99,1,07,1,00,1,99999,9,03,1,00,1",,"01,9",,"120,M,+0240,1","180,N,+0172,1","99999,9,10120,1","7,1,004,1,-001,1","05,1","SYN136AAXX  07001 76458 31964 70000 10220 20151 30120 40124 57004 70544 87030 92346 333 10240 20172 30/// 50201 56050 59001 70000 83358 84461;",
"76458099999","2005-12-07T03:00:00","4","23.2","-106.4166666","4.0","COLONIA JUAN CARRASCO MAZATLAN SIN., MX","FM-12","99999","V020","330,1,N,0010,1","02400,1,9,N","010000,1,N,1","+0200,1","+0169,1","10140,1",,,,,,"06,1,+02400,1,03,1",,,"06,99,1,06,1,00,1,99999,9,02,1,00,1",,"01,9",,,,"99999,9,10135,1","2,1,015,1,+013,1",,"SYN100AAXX  07031 76458 32960 63301 10200 20169 30135 40140 52015 86020 90235 333 30/// 56050 58013 86358;",
"76458099999","2005-12-07T06:00:00","4","23.2","-106.4166666","4.0","COLONIA JUAN CARRASCO MAZATLAN SIN., MX","FM-12","99999","V020","300,1,N,0010,1","22000,1,9,N","010000,1,N,1","+0188,1","+0166,1","10146,1",,,,,,,,,"04,99,1,04,1,00,1,99999,9,02,1,00,1",,"01,9",,"240,M,+0240,1","240,N,+0172,1","99999,9,10141,1","2,1,006,1,+009,1",,"SYN118AAXX  07061 76458 32960 43001 10188 20166 30141 40146 52006 84020 90538 333 10240 20172 30/// 55/// 56090 58009 84358;",
"76458099999","2005-12-07T09:00:00","4","23.2","-106.4166666","4.0","COLONIA JUAN CARRASCO MAZATLAN SIN., MX","FM-12","99999","V020","340,1,N,0010,1","22000,1,9,N","008000,1,N,1","+0174,1","+0156,1","10132,1",,,,,,"03,1,+02400,1,04,1",,,"03,99,1,03,1,00,1,99999,9,02,1,00,1",,"01,9",,,,"99999,9,10127,1","7,1,014,1,-004,1",,"SYN100AAXX  07091 76458 32958 33401 10174 20156 30127 40132 57014 83020 90845 333 30/// 56090 59004 83458;",
"76458099999","2005-12-07T15:00:00","4","23.2","-106.4166666","4.0","COLONIA JUAN CARRASCO MAZATLAN SIN., MX","FM-12","99999","V020","999,9,C,0000,1","22000,1,9,N","020000,1,N,1","+0180,1","+0156,1","10142,1",,,,,,"01,1,+06000,1,00,1",,,"01,99,1,00,1,00,1,99999,9,00,1,09,1",,"01,9",,,,"99999,9,10137,1","2,1,016,1,+003,1",,"SYN100AAXX  07151 76458 32970 10000 10180 20156 30137 40142 52016 80009 91440 333 30/// 56009 58003 81070;",
"76458099999","2005-12-07T18:00:00","4","23.2","-106.4166666","4.0","COLONIA JUAN CARRASCO MAZATLAN SIN., MX","FM-12","99999","V020","240,1,N,0020,1","22000,1,9,N","016000,1,N,1","+0230,1","+0176,1","10149,1",,,,,,"00,1,+99999,9,99,9",,,"00,99,1,00,1,00,1,99999,9,00,1,00,1",,"01,9",,"120,M,+0260,1","240,N,+0146,1","99999,9,10144,1","0,1,007,1,+008,1",,"SYN094AAXX  07181 76458 32966 02402 10230 20176 30144 40149 50007 91745 333 10260 20146 30/// 58008;",
"76458099999","2005-12-07T21:00:00","4","23.2","-106.4166666","4.0","COLONIA JUAN CARRASCO MAZATLAN SIN., MX","FM-12","99999","V020","240,1,N,0020,1","22000,1,9,N","020000,1,N,1","+0228,1","+0174,1","10128,1",,,,,,"00,1,+99999,9,99,9",,,"00,99,1,00,1,00,1,99999,9,00,1,00,1",,"01,9",,,,"99999,9,10128,1","6,1,020,1,-004,1",,"SYN082AAXX  07211 76458 32970 02402 10228 20174 30128 40128 56020 92050 333 30/// 59004;",
"76458099999","2005-12-08T00:00:00","4","23.2","-106.4166666","4.0","COLONIA JUAN CARRASCO MAZATLAN SIN., MX","FM-12","99999","V020","300,1,N,0020,1","22000,1,9,N","020000,1,N,1","+0224,1","+0168,1","10124,1","24,0000,9,1",,,,,"00,1,+99999,9,99,9",,,"00,99,1,00,1,00,1,99999,9,00,1,00,1",,"01,9",,"120,M,+0256,1","180,N,+0146,1","99999,9,10119,1","5,1,004,1,+000,1",,"SYN106AAXX  08001 76458 32970 03002 10224 20168 30119 40124 55004 92350 333 10256 20146 30/// 54013 59000 70000;","Q01  00002PRCP24"
"76458099999","2005-12-08T03:00:00","4","23.2","-106.4166666","4.0","COLONIA JUAN CARRASCO MAZATLAN SIN., MX","FM-12","99999","V020","320,1,N,0020,1","22000,1,9,N","010000,1,N,1","+0204,1","+0168,1","10135,1",,,,,,"00,1,+99999,9,99,9",,,"00,99,1,00,1,00,1,99999,9,00,1,00,1",,"01,9",,,,"99999,9,10131,1","2,1,012,1,-004,1",,"SYN082AAXX  08031 76458 32960 03202 10204 20168 30131 40135 52012 90238 333 30/// 59004;",
"76458099999","2005-12-08T09:00:00","4","23.2","-106.4166666","4.0","COLONIA JUAN CARRASCO MAZATLAN SIN., MX","FM-12","99999","V020","340,1,N,0010,1","03000,1,9,N","010000,1,N,1","+0185,1","+0148,1","10137,1",,,,,,"07,1,+03000,1,04,1",,,"07,99,1,07,1,00,1,99999,9,02,1,00,1",,"01,9",,,,"99999,9,10132,1","7,1,011,1,+005,1",,"SYN100AAXX  08091 76458 32960 73401 10185 20148 30132 40137 57011 87020 90905 333 30/// 56090 58005 87460;",
"76458099999","2005-12-08T12:00:00","4","23.2","-106.4166666","4.0","COLONIA JUAN CARRASCO MAZATLAN SIN., MX","FM-12","99999","V020","330,1,N,0020,1","03000,1,9,N","010000,1,N,1","+0192,1","+0158,1","10144,1","24,0000,9,1",,,,,"08,1,+03000,1,04,1",,,"08,99,1,08,1,00,1,99999,9,02,1,00,1",,"01,9","999,+0164,1","120,N,+0171,1","240,M,+0256,1","99999,9,10139,1","2,1,007,1,+018,1",,"SYN118AAXX  08121 76458 32960 83302 10192 20158 30139 40144 52007 88020 91146 333 10256 20171 30164 56090 58018 70000 88460;",
"76458099999","2005-12-08T15:00:00","4","23.2","-106.4166666","4.0","COLONIA JUAN CARRASCO MAZATLAN SIN., MX","FM-12","99999","V020","220,1,N,0020,1","03000,1,9,N","020000,1,N,1","+0209,1","+0165,1","10170,1","03,0000,2,1",,,"5,1,03,1","5,1,03,1","06,1,+03000,1,04,1",,,"07,99,1,06,1,00,1,02250,1,02,1,02,1",,"01,9",,,,"99999,9,10165,1","2,1,027,1,+028,1","50,1","SYN118AAXX  08151 76458 21870 72202 10209 20165 30165 40170 52027 75055 86022 91446 333 30/// 56049 58028 69907 86460 81079;",
"76458099999","2005-12-08T18:00:00","4","23.2","-106.4166666","4.0","COLONIA JUAN CARRASCO MAZATLAN SIN., MX","FM-12","99999","V020","030,1,N,0020,1","04200,1,9,N","020000,1,N,1","+0256,1","+0147,1","10162,1","03,9999,2,9","06,0000,2,1",,"2,1,06,1","5,1,06,1","05,1,+04200,1,03,1",,,"06,99,1,05,1,00,1,02250,1,03,1,01,1",,"01,9",,"120,M,+0272,1","240,N,+0171,1","99999,9,10157,1","7,1,008,1,+013,1","02,1","SYN136AAXX  08181 76458 01870 60302 10256 20147 30157 40162 57008 69901 70225 85031 91750 333 10272 20171 30/// 56099 58013 69907 85364 81070;",
"76458099999","2005-12-08T21:00:00","4","23.2","-106.4166666","4.0","COLONIA JUAN CARRASCO MAZATLAN SIN., MX","FM-12","99999","V020","210,1,N,0020,1","22000,1,9,N","020000,1,N,1","+0246,1","+0168,1","10148,1",,,,,,"01,1,+04200,1,03,1",,,"01,99,1,01,1,00,1,01250,1,03,1,00,1",,"01,9",,,,"99999,9,10143,1","7,1,014,1,+020,1",,"SYN100AAXX  08211 76458 32670 12102 10246 20168 30143 40148 57014 81030 92045 333 30/// 56090 58020 81364;",
"76458099999","2005-12-09T00:00:00","4","23.2","-106.4166666","4.0","COLONIA JUAN CARRASCO MAZATLAN SIN., MX","FM-12","99999","V020","270,1,N,0020,1","22000,1,9,N","020000,1,N,1","+0242,1","+0174,1","10142,1","24,0000,2,1",,,,,"00,1,+99999,9,99,9",,,"00,99,1,00,1,00,1,99999,9,00,1,00,1",,"01,9",,"120,M,+0300,1","180,N,+0171,1","99999,9,10140,1","6,1,005,1,+018,1",,"SYN106AAXX  09001 76458 32970 02702 10242 20174 30140 40142 56005 92350 333 10300 20171 30/// 54011 58018 70000;",
"76458099999","2005-12-09T03:00:00","4","23.2","-106.4166666","4.0","COLONIA JUAN CARRASCO MAZATLAN SIN., MX","FM-12","99999","V020","320,1,N,0010,1","22000,1,9,N","010000,1,N,1","+0214,1","+0167,1","10152,1",,,,,,"00,1,+99999,9,99,9",,,"00,99,1,00,1,00,1,99999,9,00,1,00,1",,"01,9",,,,"99999,9,10147,1","2,1,010,1,+016,1",,"SYN082AAXX  09031 76458 32960 03201 10214 20167 30147 40152 52010 90238 333 30/// 58016;",
"76458099999","2005-12-09T06:00:00","4","23.2","-106.4166666","4.0","COLONIA JUAN CARRASCO MAZATLAN SIN., MX","FM-12","99999","V020","310,1,N,0010,1","22000,1,9,N","010000,1,N,1","+0196,1","+0159,1","10158,1",,,,,,"00,1,+99999,9,99,9",,,"00,99,1,00,1,00,1,99999,9,00,1,00,1","0402,9","01,9",,"240,M,+0300,1","240,N,+0171,1","99999,9,10153,1","2,1,006,1,+010,1",,"SYN100AAXX  09061 76458 32960 03101 10196 20159 30153 40158 52006 90535 333 10300 20171 30/// 55067 58010;",
"76458099999","2005-12-09T09:00:00","4","23.2","-106.4166666","4.0","COLONIA JUAN CARRASCO MAZATLAN SIN., MX","FM-12","99999","V020","320,1,N,0010,1","22000,1,9,N","008000,1,N,1","+0182,1","+0133,1","10149,1",,,,,,"00,1,+99999,9,99,9",,,"00,99,1,00,1,00,1,99999,9,00,1,00,1",,"01,9",,,,"99999,9,10144,1","7,1,008,1,+012,1",,"SYN082AAXX  09091 76458 32958 03201 10182 20133 30144 40149 57008 90846 333 30/// 58012;",
"76458099999","2005-12-09T12:00:00","4","23.2","-106.4166666","4.0","COLONIA JUAN CARRASCO MAZATLAN SIN., MX","FM-12","99999","V020","330,1,N,0020,1","22000,1,9,N","008000,1,N,1","+0180,1","+0124,1","10143,1","24,0099,9,1",,,,,"00,1,+99999,9,99,9",,,"00,99,1,00,1,00,1,99999,9,00,1,00,1",,"01,9","999,+0142,1","120,N,+0163,1","240,M,+0300,1","99999,9,10139,1","7,1,006,1,+000,1",,"SYN100AAXX  09121 76458 32958 03302 10180 20124 30139 40143 57006 91140 333 10300 20163 30142 58000 70099;",
"76458099999","2005-12-09T15:00:00","4","23.2","-106.4166666","4.0","COLONIA JUAN CARRASCO MAZATLAN SIN., MX","FM-12","99999","V020","290,1,N,0010,1","22000,1,9,N","020000,1,N,1","+0195,1","+0118,1","10147,1",,,,,,"04,1,+06000,1,00,1",,,"04,99,1,00,1,00,1,99999,9,00,1,09,1",,"01,9",,,,"99999,9,10143,1","1,1,004,1,-022,1",,"SYN100AAXX  09151 76458 32970 42901 10195 20118 30143 40147 51004 80009 91440 333 30/// 56009 59022 84070;",
"76458099999","2005-12-09T18:00:00","4","23.2","-106.4166666","4.0","COLONIA JUAN CARRASCO MAZATLAN SIN., MX","FM-12","99999","V020","240,1,N,0020,1","22000,1,9,N","020000,1,N,1","+0254,1","+0153,1","10153,1",,,,,,"01,1,+04200,1,03,1",,,"01,99,1,01,1,00,1,02250,1,03,1,00,1",,"01,9",,"120,M,+0281,1","240,N,+0161,1","99999,9,10149,1","0,1,005,1,-008,1",,"SYN112AAXX  09181 76458 32870 12402 10254 20153 30149 40153 50005 81030 91745 333 10281 20161 30/// 56090 59008 81364;",
"76458099999","2005-12-09T21:00:00","4","23.2","-106.4166666","4.0","COLONIA JUAN CARRASCO MAZATLAN SIN., MX","FM-12","99999","V020","270,1,N,0030,1","22000,1,9,N","020000,1,N,1","+0258,1","+0178,1","10138,1",,,,,,"01,1,+04200,1,03,1",,,"03,99,1,01,1,00,1,99999,9,03,1,04,1",,"01,9",,,,"99999,9,10133,1","7,1,016,1,-010,1",,"SYN106AAXX  09211 76458 32970 32703 10258 20178 30133 40138 57016 81034 92050 333 30/// 56099 59010 81364 82070;",
"76458099999","2005-12-10T00:00:00","4","23.2","-106.4166666","4.0","COLONIA JUAN CARRASCO MAZATLAN SIN., MX","FM-12","99999","V020","999,9,C,0000,1","22000,1,9,N","020000,1,N,1","+0232,1","+0167,1","10144,1","24,0000,9,1",,,,,"00,1,+99999,9,99,9",,,"00,99,1,00,1,00,1,99999,9,00,1,00,1",,"01,9",,"120,M,+0280,1","180,N,+0161,1","99999,9,10140,1","6,1,006,1,+002,1",,"SYN106AAXX  10001 76458 32970 03000 10232 20167 30140 40144 56006 92350 333 10280 20161 30/// 54017 58002 70000;","Q01  00002PRCP24"
"76458099999","2005-12-10T06:00:00","4","23.2","-106.4166666","4.0","COLONIA JUAN CARRASCO MAZATLAN SIN., MX","FM-12","99999","V020","320,1,N,0020,1","22000,1,9,N","010000,1,N,1","+0200,1","+0150,1","10148,1",,,,,,,,,"02,99,1,02,1,00,1,99999,9,02,1,00,1","0546,9","01,9",,"240,M,+0271,1","240,N,+0161,1","99999,9,10144,1","2,1,008,1,-009,1",,"SYN118AAXX  10061 76458 32960 23202 10200 20150 30144 40148 52008 82020 90538 333 10271 20161 30/// 55091 56090 59009 82358;",
"76458099999","2005-12-10T09:00:00","4","23.2","-106.4166666","4.0","COLONIA JUAN CARRASCO MAZATLAN SIN., MX","FM-12","99999","V020","300,1,N,0020,1","22000,1,9,N","008000,1,N,1","+0190,1","+0139,1","10144,1","24,0000,9,1",,,,,"04,1,+01800,1,04,1",,,"04,99,1,04,1,00,1,99999,9,01,1,00,1",,"01,9",,,,"99999,9,10140,1","7,1,004,1,-004,1",,"SYN106AAXX  10091 76458 32958 43002 10190 20139 30140 40144 57004 84010 90840 333 30/// 56090 59004 70000 84456;",
"76458099999","2005-12-10T12:00:00","4","23.2","-106.4166666","4.0","COLONIA JUAN CARRASCO MAZATLAN SIN., MX","FM-12","99999","V020","300,1,N,0010,1","22000,1,9,N","008000,1,N,1","+0180,1","+0121,1","10143,1","24,0000,9,1",,,,,"01,1,+03000,1,03,1",,,"01,99,1,01,1,00,1,99999,9,05,1,00,1",,"01,9","999,+0138,1","120,N,+0168,1","240,M,+0271,1","99999,9,10138,1","7,1,004,1,-001,1",,"SYN112AAXX  10121 76458 32958 13001 10180 20121 30138 40143 57004 81050 91146 333 10271 20168 30138 59001 70000 81360;",
"76458099999","2005-12-10T15:00:00","4","23.2","-106.4166666","4.0","COLONIA JUAN CARRASCO MAZATLAN SIN., MX","FM-12","99999","V020","330,1,N,0010,1","99999,9,9,N","018000,1,N,1","+0178,1","+0122,1","10160,1",,,,,,,,,"07,99,1,07,1,00,1,99999,9,07,1,00,1",,"01,9",,,,"99999,9,10155,1","2,1,019,1,+012,1",,"SYN100AAXX  10151 76458 32968 73301 10178 20122 30155 40160 52019 87070 91440 333 30/// 56090 58012 87454;",
"76458099999","2005-12-10T18:00:00","4","23.2","-106.4166666","4.0","COLONIA JUAN CARRASCO MAZATLAN SIN., MX","FM-12","99999","V020","270,1,N,0020,1","22000,1,9,N","020000,1,N,1","+0236,1","+0156,1","10165,1",,,,,,"01,1,+99999,9,03,1",,,"04,99,1,04,1,00,1,99999,9,03,1,03,1",,"01,9",,"120,M,+0250,1","240,N,+0159,1","99999,9,10165,1","1,1,005,1,+011,1",,"SYN118AAXX  10181 76458 32970 42702 10236 20156 30165 40165 51005 84033 91740 333 10250 20159 30/// 56099 58011 81354 83070;",
"76458099999","2005-12-10T21:00:00","4","23.2","-106.4166666","4.0","COLONIA JUAN CARRASCO MAZATLAN SIN., MX","FM-12","99999","V020","270,1,N,0020,1","22000,1,9,N","020000,1,N,1","+0248,1","+0173,1","10138,1",,,,,,"00,1,+99999,9,99,9",,,"00,99,1,00,1,00,1,99999,9,00,1,00,1",,"01,9",,,,"99999,9,10130,1","5,1,031,1,-004,1",,"SYN082AAXX  10211 76458 32970 02702 10248 20173 30130 40138 55031 92050 333 30/// 59004;",
"76458099999","2005-12-11T00:00:00","4","23.2","-106.4166666","4.0","COLONIA JUAN CARRASCO MAZATLAN SIN., MX","FM-12","99999","V020","300,1,N,0020,1","22000,1,9,N","020000,1,N,1","+0236,1","+0156,1","10134,1","24,0000,9,1",,,,,"00,1,+99999,9,99,9",,,"00,99,1,00,1,00,1,99999,9,00,1,00,1",,"01,9",,"120,M,+0270,1","180,N,+0159,1","99999,9,10123,1","6,1,005,1,+999,9",,"SYN100AAXX  11001 76458 32870 03002 10236 20156 30123 40134 56005 92350 333 10270 20159 30/// 54013 70000;","Q01  00002PRCP24"
"76458099999","2005-12-11T03:00:00","4","23.2","-106.4166666","4.0","COLONIA JUAN CARRASCO MAZATLAN SIN., MX","FM-12","99999","V020","310,1,N,0020,1","22000,1,9,N","016000,1,N,1","+0205,1","+0169,1","10135,1",,,,,,"00,1,+99999,9,99,9",,,"00,99,1,00,1,00,1,99999,9,00,1,00,1",,"01,9",,,,"99999,9,10130,1","2,1,007,1,-006,1",,"SYN082AAXX  11031 76458 32966 03102 10205 20169 30130 40135 52007 90250 333 30/// 59006;",
"76458099999","2005-12-11T06:00:00","4","23.2","-106.4166666","4.0","COLONIA JUAN CARRASCO MAZATLAN SIN., MX","FM-12","99999","V020","330,1,N,0010,1","22000,1,9,N","016000,1,N,1","+0186,1","+0161,1","10139,1",,,,,,"00,1,+99999,9,99,9",,,"00,99,1,00,1,00,1,99999,9,00,1,00,1","0420,9","01,9",,"240,M,+0270,1","240,N,+0159,1","99999,9,10135,1","1,1,004,1,+999,9",,"SYN106AAXX  11061 76458 32966 03301 10186 20161 30135 40139 51004 90546 333 10270 20159 30/// 55070 2//// 59009;",
"76458099999","2005-12-11T09:00:00","4","23.2","-106.4166666","4.0","COLONIA JUAN CARRASCO MAZATLAN SIN., MX","FM-12","99999","V020","340,1,N,0010,1","22000,1,9,N","008000,1,N,1","+0172,1","+0159,1","10133,1",,,,,,"00,1,+99999,9,99,9",,,"00,99,1,00,1,00,1,99999,9,00,1,00,1",,"01,9",,,,"99999,9,10128,1","7,1,006,1,-012,1",,"SYN082AAXX  11091 76458 32958 03401 10172 20159 30128 40133 57006 90845 333 30/// 59012;",
"76458099999","2005-12-11T12:00:00","4","23.2","-106.4166666","4.0","COLONIA JUAN CARRASCO MAZATLAN SIN., MX","FM-12","99999","V020","320,1,N,0010,1","22000,1,9,N","008000,1,N,1","+0160,1","+0141,1","10132,1","24,0000,9,1",,,,,"00,1,+99999,9,99,9",,,"00,99,1,00,1,00,1,99999,9,00,1,00,1",,"01,9","999,+0129,1","120,N,+0150,1","240,M,+0270,1","99999,9,10127,1","5,1,001,1,-011,1",,"SYN100AAXX  11121 76458 32958 03201 10160 20141 30127 40132 55001 91140 333 10270 20150 30129 59011 70000;","Q01  00002PRCP24"
"76458099999","2005-12-11T15:00:00","4","23.2","-106.4166666","4.0","COLONIA JUAN CARRASCO MAZATLAN SIN., MX","FM-12","99999","V020","330,1,N,0020,1","99999,9,9,N","020000,1,N,1","+0171,1","+0140,1","10146,1",,,,,,"01,1,+02700,1,03,1",,,"07,99,1,07,1,00,1,99999,9,03,1,00,1",,"01,9",,,,"99999,9,10142,1","2,1,014,1,-014,1",,"SYN106AAXX  11151 76458 32970 73302 10171 20140 30142 40146 52014 87030 91446 333 30/// 56090 59014 81359 86461;",
"76458099999","2005-12-11T18:00:00","4","23.2","-106.4166666","4.0","COLONIA JUAN CARRASCO MAZATLAN SIN., MX","FM-12","99999","V020","999,9,C,0000,1","99999,9,9,N","020000,1,N,1","+0218,1","+0143,1","10144,1",,,,,,"01,1,+01800,1,03,1",,,"07,99,1,07,1,00,1,99999,9,03,1,00,1",,"01,9",,"120,M,+0230,1","240,N,+0144,1","99999,9,10139,1","6,1,004,1,-210,1",,"SYN118AAXX  11181 76458 32970 70000 10218 20143 30139 40144 56004 87030 91740 333 10230 20144 30/// 56090 59210 81356 86459;",
"76458099999","2005-12-12T00:00:00","4","23.2","-106.4166666","4.0","COLONIA JUAN CARRASCO MAZATLAN SIN., MX","FM-12","99999","V020","030,1,N,0020,1","02100,1,9,N","020000,1,N,1","+0212,1","+0157,1","10100,1","24,0000,9,1",,,,,"02,1,+05100,1,04,1",,,"07,99,1,06,1,00,1,02250,1,02,1,09,1",,"01,9",,"120,M,+0250,1","180,N,+0144,1","99999,9,10105,1","7,1,007,1,-017,1",,"SYN124AAXX  12001 76458 32870 70302 10212 20157 30105 40100 57007 86029 92350 333 10250 20144 30/// 54050 59017 70000 82467 87549;",
"76458099999","2005-12-12T03:00:00","4","23.2","-106.4166666","4.0","COLONIA JUAN CARRASCO MAZATLAN SIN., MX","FM-12","99999","V020","320,1,N,0020,1","22000,1,9,N","010000,1,N,1","+0200,1","+0163,1","10119,1",,,,,,"04,1,+02400,1,03,1",,,"04,99,1,04,1,00,1,99999,9,02,1,00,1",,"01,9",,,,"99999,9,10114,1","2,1,009,1,-016,1",,"SYN100AAXX  12031 76458 32960 43202 10200 20163 30114 40119 52009 84020 90240 333 30/// 56090 59016 84358;",
"76458099999","2005-12-12T06:00:00","4","23.2","-106.4166666","4.0","COLONIA JUAN CARRASCO MAZATLAN SIN., MX","FM-12","99999","V020","320,1,N,0020,1","99999,9,9,N","010000,1,N,1","+0190,1","+0162,1","10122,1",,,,,,"04,1,+02400,1,03,1",,,"06,99,1,99,9,00,1,99999,9,02,1,06,1","0036,9","01,9",,"240,M,+0250,1","240,N,+0144,1","99999,9,10117,1","4,1,000,1,-018,1",,"SYN124AAXX  12061 76458 32960 63202 10190 20162 30117 40122 54000 80026 90535 333 10250 20144 30/// 55006 56099 59018 84358 82072;",
"76458099999","2005-12-12T09:00:00","4","23.2","-106.4166666","4.0","COLONIA JUAN CARRASCO MAZATLAN SIN., MX","FM-12","99999","V020","310,1,N,0010,1","22000,1,9,N","008000,1,N,1","+0176,1","+0151,1","10113,1",,,,,,"04,1,+02400,1,04,1",,,"04,99,1,04,1,00,1,99999,9,01,1,00,1",,"01,9",,,,"99999,9,10109,1","7,1,009,1,+000,1",,"SYN100AAXX  12091 76458 32958 43101 10176 20151 30109 40113 57009 84010 90847 333 30/// 56090 58000 84458;",
"76458099999","2005-12-12T12:00:00","4","23.2","-106.4166666","4.0","COLONIA JUAN CARRASCO MAZATLAN SIN., MX","FM-12","99999","V020","330,1,N,0010,1","22000,1,9,N","008000,1,N,1","+0164,1","+0145,1","10115,1","24,0000,9,1",,,,,"02,1,+01800,1,04,1",,,"02,99,1,02,1,00,1,99999,9,02,1,00,1",,"01,9","999,+0126,1","120,N,+0152,1","240,M,+0250,1","99999,9,10110,1","3,1,002,1,-017,1",,"SYN118AAXX  12121 76458 32958 23301 10164 20145 30110 40115 53002 82020 91140 333 10250 20152 30126 56090 59017 70000 82456;",
"76458099999","2005-12-12T15:00:00","4","23.2","-106.4166666","4.0","COLONIA JUAN CARRASCO MAZATLAN SIN., MX","FM-12","99999","V020","999,9,C,0000,1","06000,1,9,N","020000,1,N,1","+0169,1","+0152,1","10140,1",,,,,,"06,1,+06000,1,02,1",,,"06,99,1,00,1,00,1,99999,9,00,1,08,1",,"01,9",,,,"99999,9,10136,1","2,1,026,1,-006,1",,"SYN100AAXX  12151 76458 32970 60000 10169 20152 30136 40140 52026 80008 91440 333 30/// 56009 59006 86270;",
"76458099999","2005-12-12T18:00:00","4","23.2","-106.4166666","4.0","COLONIA JUAN CARRASCO MAZATLAN SIN., MX","FM-12","99999","V020","270,1,N,0020,1","06000,1,9,N","020000,1,N,1","+0248,1","+0156,1","10146,1",,,,,,"05,1,+06000,1,02,1",,,"05,99,1,00,1,00,1,99999,9,00,1,08,1",,"01,9",,"120,M,+0267,1","240,N,+0139,1","99999,9,10141,1","1,1,005,1,+002,1",,"SYN112AAXX  12181 76458 32970 52702 10248 20156 30141 40146 51005 80008 91740 333 10267 20139 30/// 56009 58002 85270;",
"76458099999","2005-12-12T21:00:00","4","23.2","-106.4166666","4.0","COLONIA JUAN CARRASCO MAZATLAN SIN., MX","FM-12","99999","V020","190,1,N,0020,1","08700,1,9,N","018000,1,N,1","+0260,1","+0141,1","10125,1",,,,,,"05,1,+08700,1,00,1",,,"05,99,1,00,1,00,1,99999,9,00,1,06,1",,"01,9",,,,"99999,9,10120,1","7,1,021,1,+007,1",,"SYN100AAXX  12211 76458 32968 51902 10260 20141 30120 40125 57021 80006 92046 333 30/// 56009 58007 85079;",
"76458099999","2005-12-13T00:00:00","4","23.2","-106.4166666","4.0","COLONIA JUAN CARRASCO MAZATLAN SIN., MX","FM-12","99999","V020","300,1,N,0010,1","99999,9,9,N","020000,1,N,1","+0234,1","+0173,1","10124,1","24,0000,9,1",,,,,,,,"05,99,1,00,1,00,1,99999,9,00,1,04,1",,"01,9",,"120,M,+0275,1","180,N,+0139,1","99999,9,10119,1","5,1,001,1,+014,1",,"SYN124AAXX  13001 76458 32970 53001 10234 20173 30119 40124 55001 80004 92348 333 10275 20139 30/// 50241 56009 58014 70000 85079;",
"76458099999","2005-12-13T06:00:00","4","23.2","-106.4166666","4.0","COLONIA JUAN CARRASCO MAZATLAN SIN., MX","FM-12","99999","V020","330,1,N,0010,1","22000,1,9,N","010000,1,N,1","+0184,1","+0160,1","10142,1",,,,,,,,,"04,99,1,00,1,00,1,99999,9,00,1,04,1","0450,9","01,9",,"240,M,+0275,1","240,N,+0139,1","99999,9,10138,1","2,1,006,1,+021,1",,"SYN118AAXX  13061 76458 32960 43301 10184 20160 30138 40142 52006 80004 90538 333 10275 20139 30/// 55075 56009 58021 84072;",
"76458099999","2005-12-13T09:00:00","4","23.2","-106.4166666","4.0","COLONIA JUAN CARRASCO MAZATLAN SIN., MX","FM-12","99999","V020","330,1,N,0010,1","22000,1,9,N","008000,1,N,1","+0170,1","+0135,1","10131,1",,,,,,"04,1,+06000,1,00,1",,,"99,99,9,00,1,00,1,99999,9,00,1,05,1",,"01,9","999,+0126,1",,,"99999,9,10126,1","7,1,012,1,+017,1",,"SYN100AAXX  13091 76458 32958 33301 10170 20135 30126 40131 57012 80005 90848 333 30/// 56009 58017 84070;",
"76458099999","2005-12-13T12:00:00","4","23.2","-106.4166666","4.0","COLONIA JUAN CARRASCO MAZATLAN SIN., MX","FM-12","99999","V020","360,1,N,0010,1","22000,1,9,N","008000,1,N,1","+0164,1","+0145,1","10122,1","24,0000,9,1",,,,,"00,1,+99999,9,99,9",,,"00,99,1,00,1,00,1,99999,9,00,1,00,1",,"01,9","999,+0115,1","120,N,+0146,1","240,M,+0275,1","99999,9,10117,1","5,1,009,1,+007,1",,"SYN100AAXX  13121 76458 32958 03601 10164 20145 30117 40122 55009 91140 333 10275 20146 30115 58007 70000;","Q01  00002PRCP24"
"76458099999","2005-12-13T15:00:00","4","23.2","-106.4166666","4.0","COLONIA JUAN CARRASCO MAZATLAN SIN., MX","FM-12","99999","V020","330,1,N,0010,1","22000,1,9,N","020000,1,N,1","+0169,1","+0147,1","10127,1",,,,,,"02,1,+06000,1,00,1",,,"02,99,1,00,1,00,1,99999,9,00,1,09,1",,"01,9",,,,"99999,9,10123,1","0,1,005,1,-013,1",,"SYN100AAXX  13151 76458 32970 23301 10169 20147 30123 40127 50106 80009 91440 333 30/// 56009 59013 82070;",
"76458099999","2005-12-13T18:00:00","4","23.2","-106.4166666","4.0","COLONIA JUAN CARRASCO MAZATLAN SIN., MX","FM-12","99999","V020","240,1,N,0010,1","22000,1,9,N","020000,1,N,1","+0237,1","+0159,1","10142,1",,,,,,"01,1,+06000,1,00,1",,,"01,99,1,00,1,00,1,99999,9,00,1,09,1",,"01,9",,"120,M,+0255,1","240,N,+0139,1","99999,9,10137,1","2,1,014,1,-009,1",,"SYN112AAXX  13181 76458 32970 12401 10237 20159 30137 40142 52014 80009 91740 333 10255 20139 30/// 56009 59009 81070;",
"76458099999","2005-12-14T03:00:00","4","23.2","-106.4166666","4.0","COLONIA JUAN CARRASCO MAZATLAN SIN., MX","FM-12","99999","V020","320,1,N,0020,1","22000,1,9,N","010000,1,N,1","+0210,1","+0158,1","10118,1",,,,,,"00,1,+99999,9,99,9",,,"00,99,1,00,1,00,1,99999,9,00,1,00,1",,"01,9",,,,"99999,9,10113,1","2,1,015,1,-019,1",,"SYN082AAXX  14031 76458 32960 03202 10210 20158 30113 40118 52015 90238 333 30/// 59019;",
"76458099999","2005-12-14T06:00:00","4","23.2","-106.4166666","4.0","COLONIA JUAN CARRASCO MAZATLAN SIN., MX","FM-12","99999","V020","140,1,N,0010,1","22000,1,9,N","010000,1,N,1","+0194,1","+0160,1","10135,1",,,,,,"00,1,+99999,9,99,9",,,"00,99,1,00,1,00,1,99999,9,00,1,00,1","0552,9","01,9",,"240,M,+0270,1","240,N,+0139,1","99999,9,10131,1","2,1,018,1,-007,1",,"SYN100AAXX  14061 76458 32960 01401 10194 20160 30131 40135 52018 90538 333 10270 20139 30/// 55092 59007;",
"76458099999","2005-12-14T15:00:00","4","23.2","-106.4166666","4.0","COLONIA JUAN CARRASCO MAZATLAN SIN., MX","FM-12","99999","V020","999,9,C,0000,1","22000,1,9,N","020000,1,N,1","+0185,1","+0166,1","10148,1",,,,,,"01,1,+06000,1,00,1",,,"01,99,1,00,1,00,1,99999,9,00,1,09,1",,"01,9",,,,"99999,9,10143,1","9,9,999,9,+020,1",,"SYN100AAXX  14151 76458 32970 10000 10185 20166 30143 40148 5//// 80009 91440 333 30/// 56009 58020 81070;",
"76458099999","2005-12-14T18:00:00","4","23.2","-106.4166666","4.0","COLONIA JUAN CARRASCO MAZATLAN SIN., MX","FM-12","99999","V020","250,1,N,0020,1","22000,1,9,N","012000,1,N,1","+0236,1","+0186,1","10150,1",,,,"4,1,06,1","4,1,06,1","00,1,+99999,9,99,9",,,"00,99,1,00,1,00,1,99999,9,00,1,00,1",,"01,9",,"120,M,+0270,1","240,N,+0155,1","99999,9,10145,1","1,1,002,1,+008,1","05,1","SYN100AAXX  14181 76458 31962 02502 10236 20186 30145 40150 51002 70544 91740 333 10270 20155 30/// 58008;",
"76458099999","2005-12-14T21:00:00","4","23.2","-106.4166666","4.0","COLONIA JUAN CARRASCO MAZATLAN SIN., MX","FM-12","99999","V020","240,1,N,0020,1","22000,1,9,N","020000,1,N,1","+0240,1","+0174,1","10131,1",,,,,,"00,1,+99999,9,99,9",,,"00,99,1,00,1,00,1,99999,9,00,1,00,1",,"01,9",,,,"99999,9,10130,1","6,1,018,1,+022,1",,"SYN082AAXX  14211 76458 32970 02402 10240 20174 30130 40131 56018 92050 333 30/// 58022;",
"76458099999","2005-12-15T00:00:00","4","23.2","-106.4166666","4.0","COLONIA JUAN CARRASCO MAZATLAN SIN., MX","FM-12","99999","V020","300,1,N,0020,1","22000,1,9,N","020000,1,N,1","+0227,1","+0171,1","10118,1","24,0000,9,1",,,,,"00,1,+99999,9,99,9",,,"00,99,1,00,1,00,1,99999,9,00,1,00,1",,"01,9",,"120,M,+0270,1","180,N,+0155,1","99999,9,10104,1","7,1,017,1,-004,1",,"SYN106AAXX  15001 76458 32970 03002 10227 20171 30104 40118 57017 92350 333 10270 20155 30/// 54024 59004 70000;","Q01  00002PRCP24"
"76458099999","2005-12-15T03:00:00","4","23.2","-106.4166666","4.0","COLONIA JUAN CARRASCO MAZATLAN SIN., MX","FM-12","99999","V020","310,1,N,0020,1","22000,1,9,N","010000,1,N,1","+0202,1","+0162,1","10121,1",,,,,,"00,1,+99999,9,99,9",,,"00,99,1,00,1,00,1,99999,9,00,1,00,1",,"01,9",,,,"99999,9,10117,1","2,1,013,1,+004,1",,"SYN082AAXX  15031 76458 32960 03102 10202 20162 30117 40121 52013 90238 333 30/// 58004;",
"76458099999","2005-12-15T06:00:00","4","23.2","-106.4166666","4.0","COLONIA JUAN CARRASCO MAZATLAN SIN., MX","FM-12","99999","V020","320,1,N,0010,1","22000,1,9,N","010000,1,N,1","+0190,1","+0172,1","10131,1",,,,,,"02,1,+06600,1,00,1",,,"02,99,1,00,1,00,1,99999,9,00,1,04,1","0570,9","01,9",,"240,M,+0270,1","240,N,+0155,1","99999,9,10127,1","2,1,010,1,-004,1",,"SYN112AAXX  15061 76458 32960 23201 10190 20172 30127 40131 52010 80004 90535 333 10270 20155 30/// 55095 59004 82072;",
"76458099999","2005-12-15T09:00:00","4","23.2","-106.4166666","4.0","COLONIA JUAN CARRASCO MAZATLAN SIN., MX","FM-12","99999","V020","330,1,N,0010,1","22000,1,9,N","010000,1,N,1","+0177,1","+0163,1","10121,1",,,,,,"01,1,+08700,1,00,1",,,"01,99,1,00,1,00,1,99999,9,00,1,01,1",,"01,9",,,,"99999,9,10116,1","7,1,011,1,-008,1",,"SYN100AAXX  15091 76458 32960 13301 10177 20163 30116 40121 57011 80001 90846 333 30/// 56009 59008 81079;",
"76458099999","2005-12-15T15:00:00","4","23.2","-106.4166666","4.0","COLONIA JUAN CARRASCO MAZATLAN SIN., MX","FM-12","99999","V020","999,9,C,0000,1","22000,1,9,N","015000,1,N,1","+0174,1","+0156,1","10127,1",,,,,,"03,1,+05400,1,00,1",,,"03,99,1,00,1,00,1,99999,9,00,1,01,1",,"01,9",,,,"99999,9,10122,1","2,1,007,1,-021,1",,"SYN100AAXX  15151 76458 32965 30000 10174 20156 30122 40127 52007 80001 91445 333 30/// 56//9 59021 83068;",
"76458099999","2005-12-15T18:00:00","4","23.2","-106.4166666","4.0","COLONIA JUAN CARRASCO MAZATLAN SIN., MX","FM-12","99999","V020","240,1,N,0020,1","06000,1,9,N","020000,1,N,1","+0214,1","+0168,1","10130,1",,,,,,"05,1,+06000,1,00,1",,,"05,99,1,00,1,00,1,99999,9,00,1,04,1",,"01,9",,"120,M,+0236,1","240,N,+0141,1","99999,9,10125,1","0,1,003,1,-020,1",,"SYN112AAXX  15181 76458 32970 52402 10214 20168 30125 40130 50003 80004 91745 333 10236 20141 30/// 56009 59020 85070;",
"76458099999","2005-12-15T21:00:00","4","23.2","-106.4166666","4.0","COLONIA JUAN CARRASCO MAZATLAN SIN., MX","FM-12","99999","V020","270,1,N,0020,1","08700,1,9,N","020000,1,N,1","+0222,1","+0172,1","10106,1",,,,,,"06,1,+08700,1,00,1",,,"06,99,1,00,1,00,1,99999,9,00,1,06,1",,"01,9",,,,"99999,9,10102,1","7,1,023,1,-018,1",,"SYN100AAXX  15211 76458 32970 62702 10222 20172 30102 40106 57023 80006 92050 333 30/// 56009 59018 86079;",
"76458099999","2005-12-16T00:00:00","4","23.2","-106.4166666","4.0","COLONIA JUAN CARRASCO MAZATLAN SIN., MX","FM-12","99999","V020","280,1,N,0020,1","22000,1,9,N","020000,1,N,1","+0210,1","+0158,1","10104,1","24,0000,9,1",,,,,"01,1,+00660,1,08,1",,,"06,99,1,01,1,02,1,00800,1,00,1,06,1",,"01,9",,"120,M,+0239,1","180,N,+0141,1","99999,9,10099,1","7,1,002,1,-010,1",,"SYN130AAXX  16001 76458 32570 62802 10210 20158 30099 40104 57002 81206 92346 333 10239 20141 30/// 50301 56106 59010 70000 81822 85079;",
"76458099999","2005-12-16T03:00:00","4","23.2","-106.4166666","4.0","COLONIA JUAN CARRASCO MAZATLAN SIN., MX","FM-12","99999","V020","320,1,N,0010,1","22000,1,9,N","010000,1,N,1","+0194,1","+0154,1","10115,1",,,,,,"04,1,+02400,1,03,1",,,"04,99,1,04,1,00,1,99999,9,02,1,00,1",,"01,9",,,,"99999,9,10111,1","2,1,010,1,-006,1",,"SYN100AAXX  16031 76458 32960 43201 10194 20154 30111 40115 52010 84020 90239 333 30/// 56090 59006 84358;",
"76458099999","2005-12-16T06:00:00","4","23.2","-106.4166666","4.0","COLONIA JUAN CARRASCO MAZATLAN SIN., MX","FM-12","99999","V020","340,1,N,0010,1","22000,1,9,N","010000,1,N,1","+0176,1","+0130,1","10120,1",,,,,,,,,"04,99,1,04,1,00,1,99999,9,02,1,00,1","0510,9","01,9",,"240,M,+0239,1","240,N,+0141,1","99999,9,10116,1","2,1,006,1,-011,1",,"SYN118AAXX  16061 76458 32960 43401 10176 20130 30116 40120 52006 84020 90535 333 10239 20141 30/// 55085 56090 59011 84358;",
"76458099999","2005-12-16T09:00:00","4","23.2","-106.4166666","4.0","COLONIA JUAN CARRASCO MAZATLAN SIN., MX","FM-12","99999","V020","030,1,N,0010,1","22000,1,9,N","008000,1,N,1","+0158,1","+0121,1","10113,1",,,,,,"00,1,+99999,9,99,9",,,"00,99,1,00,1,00,1,99999,9,00,1,00,1",,"01,9",,,,"99999,9,10109,1","7,1,007,1,-007,1",,"SYN082AAXX  16091 76458 32958 00301 10158 20121 30109 40113 57007 90845 333 30/// 59007;",
"76458099999","2005-12-16T12:00:00","4","23.2","-106.4166666","4.0","COLONIA JUAN CARRASCO MAZATLAN SIN., MX","FM-12","99999","V020","120,1,N,0010,1","01800,1,9,N","008000,1,N,1","+0156,1","+0132,1","10110,1","24,0000,9,1",,,,,"06,1,+01800,1,04,1",,,"06,99,1,06,1,00,1,99999,9,01,1,00,1",,"01,9","999,+0102,1","120,N,+0133,1","240,M,+0239,1","99999,9,10105,1","6,1,004,1,-001,1",,"SYN118AAXX  16121 76458 32958 61201 10156 20132 30105 40110 56004 86010 91146 333 10239 20133 30102 56090 59001 70000 86456;",
"76458099999","2005-12-16T15:00:00","4","23.2","-106.4166666","4.0","COLONIA JUAN CARRASCO MAZATLAN SIN., MX","FM-12","99999","V020","340,1,N,0010,1","99999,9,9,N","008000,1,N,1","+0160,1","+0141,1","10130,1",,,,"4,1,03,1","3,1,03,1","03,1,+01800,1,03,1",,,"07,99,1,03,1,00,1,99999,9,05,1,08,1",,"01,9",,,,"99999,9,10125,1","2,1,020,1,+003,1","05,1","SYN112AAXX  16151 76458 31958 73401 10160 20141 30125 40130 52020 70543 83058 91440 333 30/// 56099 58003 83356 84270;",
"76458099999","2005-12-16T18:00:00","4","23.2","-106.4166666","4.0","COLONIA JUAN CARRASCO MAZATLAN SIN., MX","FM-12","99999","V020","999,9,C,0000,1","99999,9,9,N","008000,1,N,1","+0204,1","+0172,1","10140,1",,,,"4,1,06,1","3,1,06,1","03,1,+99999,9,03,1",,,"08,99,1,08,1,00,1,99999,9,05,1,00,1",,"01,9",,"120,M,+0215,1","240,N,+0132,1","99999,9,10136,1","2,1,010,1,+008,1","05,1","SYN124AAXX  16181 76458 31958 80000 10204 20172 30136 40140 52010 70543 88050 97140 333 10215 20132 30/// 56090 58008 83354 85459;",
"76458099999","2005-12-16T21:00:00","4","23.2","-106.4166666","4.0","COLONIA JUAN CARRASCO MAZATLAN SIN., MX","FM-12","99999","V020","240,1,N,0020,1","99999,9,9,N","020000,1,N,1","+0218,1","+0149,1","10127,1",,,,,,,,,"06,99,1,99,9,99,9,01750,1,99,9,99,9",,"01,9",,,,"99999,9,10116,1","6,1,019,1,+999,9",,"SYN088AAXX  16211 76458 32770 62402 10218 20149 30116 40127 56019 92050 333 56090 30/// 58014;",
"76458099999","2005-12-17T00:00:00","4","23.2","-106.4166666","4.0","COLONIA JUAN CARRASCO MAZATLAN SIN., MX","FM-12","99999","V020","240,1,N,0020,1","22000,1,9,N","020000,1,N,1","+0221,1","+0125,1","10116,1","24,0000,9,1",,,,,"00,1,+99999,9,99,9",,,"00,99,1,00,1,00,1,99999,9,00,1,00,1",,"01,9",,"120,M,+0239,1","180,N,+0132,1","99999,9,10118,1","6,1,004,1,+012,1",,"SYN106AAXX  17001 76458 32970 02402 10221 20125 30118 40116 56004 92350 333 10239 20132 30/// 54045 58012 70000;","Q01  00002PRCP24"
"76458099999","2005-12-17T06:00:00","4","23.2","-106.4166666","4.0","COLONIA JUAN CARRASCO MAZATLAN SIN., MX","FM-12","99999","V020","340,1,N,0010,1","22000,1,9,N","010000,1,N,1","+0272,1","+0112,1","10137,1",,,,,,"00,1,+99999,9,99,9",,,"00,99,1,00,1,00,1,99999,9,00,1,00,1","0240,9","01,9",,"240,M,+9999,9","240,N,+0132,1","99999,9,10132,1","2,1,005,1,+015,1",,"SYN100AAXX  17061 76458 32960 03401 10272 20112 30132 40137 52005 90535 333 10239 20132 30/// 55040 58015;","Q01 +02392ATMX  "
"76458099999","2005-12-17T09:00:00","4","23.2","-106.4166666","4.0","COLONIA JUAN CARRASCO MAZATLAN SIN., MX","FM-12","99999","V020","330,1,N,0010,1","22000,1,9,N","008000,1,N,1","+0154,2","+0091,1","10144,1",,,,,,"00,1,+99999,9,99,9",,,"00,99,1,00,1,00,1,99999,9,00,1,00,1",,"01,9",,,,"99999,9,10140,1","2,1,007,1,+031,1",,"SYN082AAXX  17091 76458 32958 03301 10154 20091 30140 40144 52007 90844 333 30/// 58031;",
"76458099999","2005-12-17T15:00:00","4","23.2","-106.4166666","4.0","COLONIA JUAN CARRASCO MAZATLAN SIN., MX","FM-12","99999","V020","999,9,C,0000,1","22000,1,9,N","020000,1,N,1","+0170,1","+0109,1","10172,1",,,,,,"00,1,+99999,9,99,9",,,"00,99,1,00,1,00,1,99999,9,00,1,00,1",,"01,9",,,,"99999,9,10167,1","2,1,017,1,+042,1",,"SYN082AAXX  17151 76458 32970 00000 10170 20109 30167 40172 52017 91450 333 30/// 58042;",
"76458099999","2005-12-17T18:00:00","4","23.2","-106.4166666","4.0","COLONIA JUAN CARRASCO MAZATLAN SIN., MX","FM-12","99999","V020","250,1,N,0020,1","22000,1,9,N","020000,1,N,1","+0238,1","+0117,1","10179,1",,,,,,"00,1,+99999,9,99,9",,,"00,99,1,00,1,00,1,99999,9,00,1,00,1",,"01,9",,"120,M,+0263,1","240,N,+0121,1","99999,9,10174,1","0,1,007,1,+038,1",,"SYN094AAXX  17181 76458 32970 02502 10238 20117 30174 40179 50007 91745 333 10263 20121 30/// 58038;",
"76458099999","2005-12-17T21:00:00","4","23.2","-106.4166666","4.0","COLONIA JUAN CARRASCO MAZATLAN SIN., MX","FM-12","99999","V020","240,1,N,0020,1","22000,1,9,N","020000,1,N,1","+0240,1","+0124,1","10158,1",,,,,,"01,1,+00780,1,08,1",,,"01,99,1,01,1,02,1,01250,1,00,1,00,1",,"01,9",,,,"99999,9,10153,1","7,1,021,1,+037,1",,"SYN100AAXX  17211 76458 32670 12402 10240 20124 30153 40158 57021 81200 92140 333 30/// 56100 58037 81826;",
"76458099999","2005-12-18T00:00:00","4","23.2","-106.4166666","4.0","COLONIA JUAN CARRASCO MAZATLAN SIN., MX","FM-12","99999","V020","300,1,N,0010,1","22000,1,9,N","020000,1,N,1","+0228,1","+0129,1","10156,1","24,0000,9,1",,,,,,,,"02,99,1,00,1,00,1,99999,9,00,1,09,1",,"01,9",,"120,M,+0265,1","180,N,+0121,1","99999,9,10151,1","1,1,002,1,+037,1",,"SYN124AAXX  18001 76458 32970 23001 10228 20129 30151 40156 51002 80009 92340 333 10265 20121 30/// 50361 56009 58037 70000 82070;",
"76458099999","2005-12-18T03:00:00","4","23.2","-106.4166666","4.0","COLONIA JUAN CARRASCO MAZATLAN SIN., MX","FM-12","99999","V020","310,1,N,0010,1","22000,1,9,N","016000,1,N,1","+0194,1","+0123,1","10168,1",,,,,,"00,1,+99999,9,99,9",,,"00,99,1,00,1,00,1,99999,9,00,1,00,1",,"01,9",,,,"99999,9,10163,1","2,1,012,1,+037,1",,"SYN082AAXX  18031 76458 32966 03101 10194 20123 30163 40168 52012 90254 333 30/// 58037;",
"76458099999","2005-12-18T06:00:00","4","23.2","-106.4166666","4.0","COLONIA JUAN CARRASCO MAZATLAN SIN., MX","FM-12","99999","V020","310,1,N,0010,1","22000,1,9,N","016000,1,N,1","+0182,1","+0122,1","10176,1",,,,,,"00,1,+99999,9,99,9",,,"00,99,1,00,1,00,1,99999,9,00,1,00,1","0588,9","01,9",,"240,M,+0265,1","240,N,+0121,1","99999,9,10171,1","2,1,038,1,+999,9",,"SYN106AAXX  18061 76458 32966 03101 10182 20122 30171 40176 52038 90556 333 10265 20121 30/// 55098 2//// 58039;",
"76458099999","2005-12-18T15:00:00","4","23.2","-106.4166666","4.0","COLONIA JUAN CARRASCO MAZATLAN SIN., MX","FM-12","99999","V020","330,1,N,0010,1","08700,1,9,N","020000,1,N,1","+0167,1","+0129,1","10197,1",,,,,,"07,1,+08700,1,00,1",,,"07,99,1,00,1,00,1,99999,9,00,1,04,1",,"01,9",,,,"99999,9,10192,1","9,9,999,9,+026,1",,"SYN100AAXX  18151 76458 32970 73301 10167 20129 30192 40197 5//// 80004 91450 333 30/// 56009 58026 87079;",
"76458099999","2005-12-18T18:00:00","4","23.2","-106.4166666","4.0","COLONIA JUAN CARRASCO MAZATLAN SIN., MX","FM-12","99999","V020","160,1,N,0020,1","99999,9,9,N","020000,1,N,1","+0240,1","+0127,1","10206,1",,,,,,"03,1,+02700,1,03,1",,,"07,99,1,03,1,00,1,99999,9,03,1,04,1",,"01,9",,"120,M,+0260,1","240,N,+0142,1","99999,9,10201,1","0,1,008,1,+027,1",,"SYN112AAXX  18181 76458 32970 71602 10240 20127 30201 40206 50008 83034 91748 333 10260 20142 30/// 58027 83359 84079;",
"76458099999","2005-12-18T21:00:00","4","23.2","-106.4166666","4.0","COLONIA JUAN CARRASCO MAZATLAN SIN., MX","FM-12","99999","V020","250,1,N,0020,1","99999,9,9,N","020000,1,N,1","+0235,1","+0164,1","10183,1",,,,,,"03,1,+01800,1,03,1",,,"07,99,1,03,1,00,1,99999,9,06,1,08,1",,"01,9",,,,"99999,9,10178,1","7,1,023,1,+025,1",,"SYN106AAXX  18211 76458 32970 72502 10235 20164 30178 40183 57023 83068 92045 333 30/// 56099 58025 83356 84070;",
"76458099999","2005-12-19T00:00:00","4","23.2","-106.4166666","4.0","COLONIA JUAN CARRASCO MAZATLAN SIN., MX","FM-12","99999","V020","300,1,N,0020,1","99999,9,9,N","020000,1,N,1","+0223,1","+0146,1","10172,1","24,0000,9,1",,,,,"03,1,+99999,9,03,1",,,"05,99,1,03,1,00,1,99999,9,03,1,05,1",,"01,9",,"120,M,+0257,1","180,N,+0142,1","99999,9,10167,1","7,1,009,1,+016,1",,"SYN130AAXX  19001 76458 32970 53002 10223 20146 30167 40172 57009 83035 92340 333 10257 20142 30/// 50141 56099 58016 70000 83354 82070;",
"76458099999","2005-12-19T03:00:00","4","23.2","-106.4166666","4.0","COLONIA JUAN CARRASCO MAZATLAN SIN., MX","FM-12","99999","V020","320,1,N,0020,1","22000,1,9,N","010000,1,N,1","+0194,1","+0154,1","10180,1",,,,,,"00,1,+99999,9,99,9",,,"00,99,1,00,1,00,1,99999,9,00,1,00,1",,"01,9",,,,"99999,9,10176,1","2,1,009,1,+013,1",,"SYN082AAXX  19031 76458 32960 03202 10194 20154 30176 40180 52009 90238 333 30/// 58013;",
"76458099999","2005-12-19T06:00:00","4","23.2","-106.4166666","4.0","COLONIA JUAN CARRASCO MAZATLAN SIN., MX","FM-12","99999","V020","310,1,N,0010,1","22000,1,9,N","010000,1,N,1","+0174,1","+0142,1","10188,1",,,,,,"00,1,+99999,9,99,9",,,"00,99,1,00,1,00,1,99999,9,00,1,00,1","0360,9","01,9",,"240,M,+0257,1","240,N,+0142,1","99999,9,10183,1","2,1,007,1,+012,1",,"SYN100AAXX  19061 76458 32960 03101 10174 20142 30183 40188 52007 90535 333 10257 20142 30/// 55060 58012;",
"76458099999","2005-12-19T12:00:00","4","23.2","-106.4166666","4.0","COLONIA JUAN CARRASCO MAZATLAN SIN., MX","FM-12","99999","V020","340,1,N,0010,1","22000,1,9,N","008000,1,N,1","+0154,1","+0126,1","10184,1","24,0000,9,1",,,,,"00,1,+99999,9,99,9",,,"00,99,1,00,1,00,1,99999,9,00,1,00,1",,"01,9","999,+0105,1","120,N,+0137,1","240,M,+0257,1","99999,9,10180,1","4,1,000,1,+052,1",,"SYN100AAXX  19121 76458 32958 03401 10154 20126 30180 40184 54000 91140 333 10257 20137 30105 58052 70000;","Q01  00002PRCP24"
"76458099999","2005-12-19T15:00:00","4","23.2","-106.4166666","4.0","COLONIA JUAN CARRASCO MAZATLAN SIN., MX","FM-12","99999","V020","090,1,N,0010,1","22000,1,9,N","020000,1,N,1","+0166,1","+0138,1","10192,1",,,,,,"02,1,+08700,1,00,1",,,"02,99,1,00,1,00,1,99999,9,00,1,02,1",,"01,9",,,,"99999,9,10187,1","2,1,008,1,-005,1",,"SYN100AAXX  19151 76458 31970 20901 10166 20138 30187 40192 52008 80002 91440 333 30/// 56009 59005 82079;",
"76458099999","2005-12-19T18:00:00","4","23.2","-106.4166666","4.0","COLONIA JUAN CARRASCO MAZATLAN SIN., MX","FM-12","99999","V020","240,1,N,0020,1","08700,1,9,N","020000,1,N,1","+0224,1","+0170,1","10198,1",,,,,,"06,1,+08700,1,00,1",,,"06,99,1,00,1,00,1,99999,9,00,1,04,1",,"01,9",,"120,M,+0244,1","240,N,+0132,1","99999,9,10193,1","0,1,005,1,-008,1",,"SYN112AAXX  19181 76458 32970 62402 10224 20170 30193 40198 50005 80004 91740 333 10244 20132 30/// 56009 59008 86079;",
"76458099999","2005-12-19T21:00:00","4","23.2","-106.4166666","4.0","COLONIA JUAN CARRASCO MAZATLAN SIN., MX","FM-12","99999","V020","270,1,N,0030,1","22000,1,9,N","020000,1,N,1","+0228,1","+0177,1","10164,1",,,,,,,,,"03,99,1,00,1,00,1,99999,9,00,1,05,1",,"01,9",,,,"99999,9,10160,1","7,1,033,1,-018,1",,"SYN100AAXX  19211 76458 32970 32703 10228 20177 30160 40164 57033 80005 92040 333 30/// 56009 59018 53070;",
"76458099999","2005-12-20T00:00:00","4","23.2","-106.4166666","4.0","COLONIA JUAN CARRASCO MAZATLAN SIN., MX","FM-12","99999","V020","300,1,N,0030,1","22000,1,9,N","020000,1,N,1","+0234,1","+0132,1","10155,1","24,0000,9,1",,,,,,,,"02,99,1,00,1,00,1,99999,9,00,1,05,1",,"01,9",,"120,M,+0247,1","180,N,+0132,1","99999,9,10150,1","7,1,010,1,-017,1",,"SYN124AAXX  20001 76458 32970 23003 10234 20132 30150 40155 57010 80005 92340 333 10247 20132 30/// 50361 56009 59017 70000 82070;",
"76458099999","2005-12-20T03:00:00","4","23.2","-106.4166666","4.0","COLONIA JUAN CARRASCO MAZATLAN SIN., MX","FM-12","99999","V020","999,9,C,0000,1","22000,1,9,N","010000,1,N,1","+9999,9","+9999,9","99999,9",,,,,,"00,1,+99999,9,99,9",,,"00,99,1,00,1,00,1,99999,9,00,1,00,1",,"01,9",,,,,,,"SYN083AAXX  20031 76458 32960 031002 10204 20164 30162 40166 52012 90240 333 30/// 59014;",
"76458099999","2005-12-20T06:00:00","4","23.2","-106.4166666","4.0","COLONIA JUAN CARRASCO MAZATLAN SIN., MX","FM-12","99999","V020","320,1,N,0010,1","22000,1,9,N","010000,1,N,1","+0182,1","+0150,1","10169,1",,,,,,"00,1,+99999,9,99,9",,,"00,99,1,00,1,00,1,99999,9,00,1,00,1","0570,9","01,9",,"240,M,+0247,1","240,N,+0132,1","99999,9,10165,1","2,1,004,1,-018,1",,"SYN100AAXX  20061 76458 32960 03201 10182 20150 30165 40169 52004 90535 333 10247 20132 30/// 55095 59018;",
"76458099999","2005-12-20T09:00:00","4","23.2","-106.4166666","4.0","COLONIA JUAN CARRASCO MAZATLAN SIN., MX","FM-12","99999","V020","040,1,N,0010,1","22000,1,9,N","008000,1,N,1","+0165,1","+0151,1","10169,1",,,,,,"00,1,+99999,9,99,9",,,"00,99,1,00,1,00,1,99999,9,00,1,00,1",,"01,9",,"999,M,+0247,1",,"99999,9,10164,1","0,1,006,1,-015,1",,"SYN088AAXX  20091 76458 32958 00401 10165 20151 30164 40169 50006 90848 333 10247 30/// 59015;",
"76458099999","2005-12-20T12:00:00","4","23.2","-106.4166666","4.0","COLONIA JUAN CARRASCO MAZATLAN SIN., MX","FM-12","99999","V020","340,1,N,0010,1","22000,1,9,N","005000,1,N,1","+0156,1","+0140,1","10168,1","24,0000,9,1",,,,,"00,1,+99999,9,99,9",,,"00,99,1,00,1,00,1,99999,9,00,1,00,1",,"01,9","999,+0110,1","120,N,+0140,1","240,M,+0247,1","99999,9,10163,1","5,1,002,1,-017,1",,"SYN100AAXX  20121 76458 32950 03401 10156 20140 30163 40168 55002 91145 333 10247 20140 30110 59017 70000;","Q01  00002PRCP24"
"76458099999","2005-12-20T15:00:00","4","23.2","-106.4166666","4.0","COLONIA JUAN CARRASCO MAZATLAN SIN., MX","FM-12","99999","V020","330,1,N,0010,1","22000,1,9,N","020000,1,N,1","+0165,1","+0132,1","10179,1",,,,,,"00,1,+99999,9,99,9",,,"00,99,1,00,1,00,1,99999,9,00,1,00,1",,"01,9",,,,"99999,9,10174,1","2,1,011,1,-013,1",,"SYN082AAXX  20151 76458 32970 03301 10165 20132 30174 40179 52011 91446 333 30/// 59013;",
"76458099999","2005-12-20T18:00:00","4","23.2","-106.4166666","4.0","COLONIA JUAN CARRASCO MAZATLAN SIN., MX","FM-12","99999","V020","240,1,N,0020,1","22000,1,9,N","014000,1,N,1","+0226,1","+0156,1","10179,1",,,,,,"00,1,+99999,9,99,9",,,"00,99,1,00,1,00,1,99999,9,00,1,00,1",,"01,9",,"120,M,+0250,1","240,N,+0133,1","99999,9,10175,1","0,1,001,1,-018,1",,"SYN094AAXX  20181 76458 32964 02402 10226 20156 30175 40179 50001 91746 333 10250 20133 30/// 59018;",
"76458099999","2005-12-20T21:00:00","4","23.2","-106.4166666","4.0","COLONIA JUAN CARRASCO MAZATLAN SIN., MX","FM-12","99999","V020","250,1,N,0020,1","22000,1,9,N","020000,1,N,1","+0230,1","+0170,1","10151,1",,,,,,"00,1,+99999,9,99,9",,,"00,99,1,00,1,00,1,99999,9,00,1,00,1",,"01,9",,,,"99999,9,10146,1","7,1,029,1,-014,1",,"SYN082AAXX  20211 76458 32970 02502 10230 20170 30146 40151 57029 92040 333 30/// 59014;",
"76458099999","2005-12-21T00:00:00","4","23.2","-106.4166666","4.0","COLONIA JUAN CARRASCO MAZATLAN SIN., MX","FM-12","99999","V020","270,1,N,0020,1","22000,1,9,N","020000,1,N,1","+0226,1","+0175,1","10151,1","24,0000,9,1",,,,,"00,1,+99999,9,99,9",,,"00,99,1,00,1,00,1,99999,9,00,1,00,1",,"01,9",,"120,M,+0255,1","180,N,+0133,1","99999,9,10146,1","4,1,000,1,-004,1",,"SYN106AAXX  21001 76458 32970 02702 10226 20175 30146 40151 54000 92340 333 10255 20133 30/// 50241 59004 70000;","Q01  00002PRCP24"
"76458099999","2005-12-21T03:00:00","4","23.2","-106.4166666","4.0","COLONIA JUAN CARRASCO MAZATLAN SIN., MX","FM-12","99999","V020","320,1,N,0020,1","22000,1,9,N","010000,1,N,1","+0198,1","+0174,1","10166,1",,,,,,"00,1,+99999,9,99,9",,,"00,99,1,00,1,00,1,99999,9,00,1,00,1",,"01,9",,,,"99999,9,10161,1","2,1,015,1,-001,1",,"SYN082AAXX  21031 76458 32960 03202 10198 20174 30161 40166 52015 90238 333 30/// 59001;",
"76458099999","2005-12-21T06:00:00","4","23.2","-106.4166666","4.0","COLONIA JUAN CARRASCO MAZATLAN SIN., MX","FM-12","99999","V020","320,1,N,0010,1","22000,1,9,N","010000,1,N,1","+0178,1","+0149,1","10167,1",,,,,,"00,1,+99999,9,99,9",,,"00,99,1,00,1,00,1,99999,9,00,1,00,1","0582,9","01,9",,"240,M,+0255,1","240,N,+0133,1","99999,9,10163,1","2,1,002,1,-002,1",,"SYN100AAXX  21061 76458 32960 03201 10178 20149 30163 40167 52002 90535 333 10255 20133 30/// 55097 59002;",
"76458099999","2005-12-21T09:00:00","4","23.2","-106.4166666","4.0","COLONIA JUAN CARRASCO MAZATLAN SIN., MX","FM-12","99999","V020","280,1,N,0010,1","22000,1,9,N","008000,1,N,1","+0160,1","+0124,1","10161,1",,,,,,"00,1,+99999,9,99,9",,,"00,99,1,00,1,00,1,99999,9,00,1,00,1",,"01,9",,"999,M,+0255,1",,"99999,9,10156,1","7,1,006,1,-008,1",,"SYN088AAXX  21091 76458 32958 02801 10160 20124 30156 40161 57006 90848 333 10255 30/// 59008;",
"76458099999","2005-12-21T12:00:00","4","23.2","-106.4166666","4.0","COLONIA JUAN CARRASCO MAZATLAN SIN., MX","FM-12","99999","V020","210,1,N,0010,1","22000,1,9,N","008000,1,N,1","+0150,1","+0127,1","10159,1","24,0000,9,1",,,,,"00,1,+99999,9,99,9",,,"00,99,1,00,1,00,1,99999,9,00,1,00,1",,"01,9","999,+0094,1","120,N,+0132,1","240,M,+0225,1","99999,9,10155,1","6,1,002,1,-008,1",,"SYN100AAXX  21121 76458 32958 02101 10150 20127 30155 40159 56002 91140 333 10225 20132 30094 59008 70000;","Q01  00002PRCP24"
"76458099999","2005-12-21T15:00:00","4","23.2","-106.4166666","4.0","COLONIA JUAN CARRASCO MAZATLAN SIN., MX","FM-12","99999","V020","999,9,C,0000,1","22000,1,9,N","020000,1,N,1","+0161,1","+0140,1","10175,1",,,,,,"00,1,+99999,9,99,9",,,"00,99,1,00,1,00,1,99999,9,00,1,00,1",,"01,9",,,,"99999,9,10170,1","2,1,015,1,-004,1",,"SYN082AAXX  21151 76458 32970 00000 10161 20140 30170 40175 52015 91445 333 30/// 59004;",
"76458099999","2005-12-21T18:00:00","4","23.2","-106.4166666","4.0","COLONIA JUAN CARRASCO MAZATLAN SIN., MX","FM-12","99999","V020","190,1,N,0010,1","22000,1,9,N","016000,1,N,1","+0230,1","+0149,1","10179,1",,,,,,"00,1,+99999,9,99,9",,,"00,99,1,00,1,00,1,99999,9,00,1,00,1",,"01,9",,"120,M,+0253,1","240,N,+0130,1","99999,9,10175,1","0,1,005,1,+000,1",,"SYN094AAXX  21181 76458 32966 01901 10230 20149 30175 40179 50005 91747 333 10253 20130 30/// 58000;",
"76458099999","2005-12-21T21:00:00","4","23.2","-106.4166666","4.0","COLONIA JUAN CARRASCO MAZATLAN SIN., MX","FM-12","99999","V020","240,1,N,0010,1","22000,1,9,N","020000,1,N,1","+0244,1","+0166,1","10149,1",,,,,,"00,1,+99999,9,99,9",,,"00,99,1,00,1,00,1,99999,9,00,1,00,1",,"01,9",,,,"99999,9,10145,1","7,1,030,1,-001,1",,"SYN082AAXX  21211 76458 32970 02401 10244 20166 30145 40149 57030 92040 333 30/// 59001;",
"76458099999","2005-12-22T00:00:00","4","23.2","-106.4166666","4.0","COLONIA JUAN CARRASCO MAZATLAN SIN., MX","FM-12","99999","V020","300,1,N,0020,1","22000,1,9,N","020000,1,N,1","+0238,1","+0162,1","10144,1","24,0000,9,1",,,,,"00,1,+99999,9,99,9",,,"00,99,1,00,1,00,1,99999,9,00,1,00,1",,"01,9",,"120,M,+0283,1","180,N,+0130,1","99999,9,10139,1","7,1,006,1,-007,1",,"SYN106AAXX  22001 76458 32970 03002 10238 20162 30139 40144 57006 92340 333 10283 20130 30/// 50251 59007 70000;","Q01  00002PRCP24"
"76458099999","2005-12-22T03:00:00","4","23.2","-106.4166666","4.0","COLONIA JUAN CARRASCO MAZATLAN SIN., MX","FM-12","99999","V020","320,1,N,0020,1","22000,1,9,N","010000,1,N,1","+0204,1","+0159,1","10160,1",,,,,,"00,1,+99999,9,99,9",,,"00,99,1,00,1,00,1,99999,9,00,1,00,1",,"01,9",,,,"99999,9,10156,1","2,1,017,1,-022,1",,"SYN082AAXX  22031 76458 32960 03202 10204 20159 30156 40160 52017 90241 333 30/// 59022;",
"76458099999","2005-12-22T06:00:00","4","23.2","-106.4166666","4.0","COLONIA JUAN CARRASCO MAZATLAN SIN., MX","FM-12","99999","V020","300,1,N,0010,1","22000,1,9,N","010000,1,N,1","+0184,1","+0139,1","10161,1",,,,,,"00,1,+99999,9,99,9",,,"00,99,1,00,1,00,1,99999,9,00,1,00,1","0570,9","01,9",,"240,M,+0283,1","240,N,+0130,1","99999,9,10156,1","4,1,000,1,-007,1",,"SYN100AAXX  22061 76458 32960 03001 10184 20139 30156 40161 54001 90532 333 10283 20130 30/// 55095 59007;",
"76458099999","2005-12-22T09:00:00","4","23.2","-106.4166666","4.0","COLONIA JUAN CARRASCO MAZATLAN SIN., MX","FM-12","99999","V020","090,1,N,0010,1","22000,1,9,N","010000,1,N,1","+0160,1","+0135,1","10156,1",,,,,,"00,1,+99999,9,99,9",,,"00,99,1,00,1,00,1,99999,9,00,1,00,1",,"01,9",,,,"99999,9,10151,1","5,1,005,1,-005,1",,"SYN082AAXX  22091 76458 32960 00901 10160 20135 30151 40156 55005 90840 333 30/// 59005;",
"76458099999","2005-12-22T12:00:00","4","23.2","-106.4166666","4.0","COLONIA JUAN CARRASCO MAZATLAN SIN., MX","FM-12","99999","V020","330,1,N,0010,1","22000,1,9,N","010000,1,N,1","+0158,1","+0126,1","10161,1","24,0000,9,1",,,,,"00,1,+99999,9,99,9",,,"00,99,1,00,1,00,1,99999,9,00,1,00,1",,"01,9","999,+0105,1","120,N,+0142,1","240,M,+0283,1","99999,9,10156,1","1,1,005,1,+002,1",,"SYN100AAXX  22121 76458 32960 03301 10158 20126 30156 40161 51005 91140 333 10283 20142 30105 58002 70000;","Q01  00002PRCP24"
"76458099999","2005-12-22T15:00:00","4","23.2","-106.4166666","4.0","COLONIA JUAN CARRASCO MAZATLAN SIN., MX","FM-12","99999","V020","999,9,C,0000,1","22000,1,9,N","020000,1,N,1","+0169,1","+0125,1","10168,1",,,,,,"02,1,+05400,1,00,1",,,"02,99,1,00,1,00,1,99999,9,00,1,01,1",,"01,9",,,,"99999,9,10163,1","2,1,007,1,-007,1",,"SYN094AAXX  22151 76458 32970 20000 10169 20125 30163 40168 52007 80001 91447 333 30/// 59007 82068;",
"76458099999","2005-12-22T18:00:00","4","23.2","-106.4166666","4.0","COLONIA JUAN CARRASCO MAZATLAN SIN., MX","FM-12","99999","V020","260,1,N,0020,1","05400,1,9,N","012000,1,N,1","+0224,1","+0160,1","10176,1",,,,,,"05,1,+05400,1,00,1",,,"05,99,1,00,1,00,1,99999,9,00,1,06,1",,"01,9",,"120,M,+0247,1","240,N,+0130,1","99999,9,10172,1","0,1,009,1,-003,1",,"SYN112AAXX  22181 76458 32962 52602 10224 20160 30172 40176 50009 80006 91745 333 10247 20130 30/// 56//9 59003 85068;",
"76458099999","2005-12-22T21:00:00","4","23.2","-106.4166666","4.0","COLONIA JUAN CARRASCO MAZATLAN SIN., MX","FM-12","99999","V020","270,1,N,0020,1","08700,1,9,N","012000,1,N,1","+0230,1","+0174,1","10152,1",,,,,,"07,1,+08700,1,00,1",,,"07,99,1,00,1,99,9,99999,9,00,1,04,1",,"01,9",,,,"99999,9,10147,1","7,1,002,1,+002,1",,"SYN100AAXX  22211 76458 32962 72702 10230 20174 30147 40152 57002 80104 92046 333 30/// 56009 58002 87079;",
"76458099999","2005-12-23T00:00:00","4","23.2","-106.4166666","4.0","COLONIA JUAN CARRASCO MAZATLAN SIN., MX","FM-12","99999","V020","310,1,N,0020,1","99999,9,9,N","018000,1,N,1","+0237,1","+0155,1","10148,1","24,0000,9,1",,,,,,,,"06,99,1,00,1,00,1,99999,9,00,1,04,1",,"01,9",,"120,M,+0252,1","180,N,+0130,1","99999,9,10143,1","6,1,003,1,+005,1",,"SYN124AAXX  23001 76458 32968 63102 10237 20155 30143 40148 56003 80004 92345 333 10252 20130 30/// 50281 56009 58005 70000 86079;",
"76458099999","2005-12-23T03:00:00","4","23.2","-106.4166666","4.0","COLONIA JUAN CARRASCO MAZATLAN SIN., MX","FM-12","99999","V020","320,1,N,0020,1","22000,1,9,N","010000,1,N,1","+0202,1","+0159,1","10151,1",,,,,,"00,1,+99999,9,99,9",,,"00,99,1,00,1,00,1,99999,9,00,1,00,1",,"01,9",,,,"99999,9,10147,1","2,1,004,1,-010,1",,"SYN082AAXX  23031 76458 32960 03202 10202 20159 30147 40151 52004 90235 333 30/// 59010;",
"76458099999","2005-12-23T06:00:00","4","23.2","-106.4166666","4.0","COLONIA JUAN CARRASCO MAZATLAN SIN., MX","FM-12","99999","V020","320,1,N,0010,1","22000,1,9,N","010000,1,N,1","+0184,1","+0138,1","10158,1",,,,,,"00,1,+99999,9,99,9",,,"00,99,1,00,1,00,1,99999,9,00,1,00,1","0570,9","01,9",,"240,M,+0252,1","240,N,+0130,1","99999,9,10153,1","2,1,006,1,-003,1",,"SYN100AAXX  23061 76458 32960 03201 10184 20138 30153 40158 52006 90535 333 10252 20130 30/// 55095 59003;",
"76458099999","2005-12-23T15:00:00","4","23.2","-106.4166666","4.0","COLONIA JUAN CARRASCO MAZATLAN SIN., MX","FM-12","99999","V020","999,9,C,0000,1","22000,1,9,N","012000,1,N,1","+0163,1","+0133,1","10168,1",,,,,,"00,1,+99999,9,99,9",,,"00,99,1,00,1,00,1,99999,9,00,1,00,1",,"01,9",,,,"99999,9,10163,1","2,1,010,1,+000,1",,"SYN082AAXX  23151 76458 32962 00000 10163 20133 30163 40168 52010 91445 333 30/// 58000;",
"76458099999","2005-12-23T18:00:00","4","23.2","-106.4166666","4.0","COLONIA JUAN CARRASCO MAZATLAN SIN., MX","FM-12","99999","V020","999,9,C,0000,1","22000,1,9,N","008000,1,N,1","+0241,1","+0175,1","10174,1",,,,,,"00,1,+99999,9,99,9",,,"00,99,1,00,1,00,1,99999,9,00,1,00,1",,"01,9",,"120,M,+0256,1","240,N,+0133,1","99999,9,10169,1","0,1,006,1,-003,1",,"SYN094AAXX  23181 76458 32958 00000 10241 20175 30169 40174 50006 91745 333 10256 20133 30/// 59003;",
"76458099999","2005-12-24T00:00:00","4","23.2","-106.4166666","4.0","COLONIA JUAN CARRASCO MAZATLAN SIN., MX","FM-12","99999","V020","270,1,N,0020,1","22000,1,9,N","010000,1,N,1","+0230,1","+0189,1","10138,1","24,0000,9,1",,,,,"00,1,+99999,9,99,9",,,"00,99,1,00,1,00,1,99999,9,00,1,00,1",,"01,9",,"120,M,+0282,1","180,N,+0133,1","99999,9,10133,1","6,1,001,1,-010,1",,"SYN106AAXX  24001 76458 32960 02702 10230 20189 30133 40138 56001 92340 333 10282 20133 30/// 50181 59010 70000;","Q01  00002PRCP24"
"76458099999","2005-12-24T03:00:00","4","23.2","-106.4166666","4.0","COLONIA JUAN CARRASCO MAZATLAN SIN., MX","FM-12","99999","V020","280,1,N,0020,1","22000,1,9,N","010000,1,N,1","+0204,1","+0184,1","10158,1",,,,,,"00,1,+99999,9,99,9",,,"00,99,1,00,1,00,1,99999,9,00,1,00,1",,"01,9",,,,"99999,9,10154,1","2,1,021,1,+013,1",,"SYN082AAXX  24031 76458 32960 02802 10204 20184 30154 40158 52021 90245 333 30/// 58013;",
"76458099999","2005-12-24T09:00:00","4","23.2","-106.4166666","4.0","COLONIA JUAN CARRASCO MAZATLAN SIN., MX","FM-12","99999","V020","070,1,N,0010,1","22000,1,9,N","008000,1,N,1","+0164,1","+0142,1","10162,1",,,,,,"00,1,+99999,9,99,9",,,"00,99,1,00,1,00,1,99999,9,00,1,00,1",,"01,9",,"999,M,+0282,1",,"99999,9,10158,1","5,1,005,1,+006,1",,"SYN088AAXX  24091 76458 32958 00701 10164 20142 30158 40162 55005 90840 333 10282 30/// 58006;",
"76458099999","2005-12-24T12:00:00","4","23.2","-106.4166666","4.0","COLONIA JUAN CARRASCO MAZATLAN SIN., MX","FM-12","99999","V020","320,1,N,0010,1","22000,1,9,N","008000,1,N,1","+0154,1","+0145,1","10161,1","24,0000,9,1",,,,,"00,1,+99999,9,99,9",,,"00,99,1,00,1,00,1,99999,9,00,1,00,1",,"01,9","999,+0100,1","120,N,+0139,1","240,M,+0282,1","99999,9,10156,1","5,1,002,1,+004,1",,"SYN100AAXX  24121 76458 32958 03201 10154 20145 30156 40161 55002 91143 333 10282 20139 30100 58004 70000;","Q01  00002PRCP24"
"76458099999","2005-12-24T18:00:00","4","23.2","-106.4166666","4.0","COLONIA JUAN CARRASCO MAZATLAN SIN., MX","FM-12","99999","V020","180,1,N,0020,1","22000,1,9,N","012000,1,N,1","+0251,1","+0147,1","10168,1",,,,,,"00,1,+99999,9,99,9",,,"00,99,1,00,1,00,1,99999,9,00,1,00,1",,"01,9",,"120,M,+0262,1","240,N,+0133,1","99999,9,10163,1","8,1,001,1,-006,1",,"SYN094AAXX  24181 76458 32962 01802 10251 20147 30163 40168 58001 91745 333 10262 20133 30/// 59006;",
"76458099999","2005-12-24T21:00:00","4","23.2","-106.4166666","4.0","COLONIA JUAN CARRASCO MAZATLAN SIN., MX","FM-12","99999","V020","250,1,N,0020,1","22000,1,9,N","012000,1,N,1","+0236,1","+0176,1","10144,1",,,,,,"00,1,+99999,9,99,9",,,"00,99,1,00,1,00,1,99999,9,00,1,00,1",,"01,9",,,,"99999,9,10139,1","7,1,024,1,+005,1",,"SYN082AAXX  24211 76458 32962 02502 10236 20176 30139 40144 57024 92040 333 30/// 58005;",
"76458099999","2005-12-25T00:00:00","4","23.2","-106.4166666","4.0","COLONIA JUAN CARRASCO MAZATLAN SIN., MX","FM-12","99999","V020","300,1,N,0020,1","22000,1,9,N","012000,1,N,1","+0230,1","+0186,1","10134,1","24,0000,9,1",,,,,"00,1,+99999,9,99,9",,,"00,99,1,00,1,00,1,99999,9,00,1,00,1",,"01,9",,"120,M,+0281,1","180,N,+0133,1","99999,9,10130,1","6,1,009,1,-003,1",,"SYN106AAXX  25001 76458 32962 03002 10230 20186 30130 40134 56009 92340 333 10281 20133 30/// 50221 59003 70000;","Q01  00002PRCP24"
"76458099999","2005-12-25T03:00:00","4","23.2","-106.4166666","4.0","COLONIA JUAN CARRASCO MAZATLAN SIN., MX","FM-12","99999","V020","300,1,N,0020,1","22000,1,9,N","010000,1,N,1","+0202,1","+0153,1","10149,1",,,,"4,1,03,1","4,1,03,1","00,1,+99999,9,99,9",,,"00,99,1,00,1,00,1,99999,9,00,1,00,1",,"01,9",,,,"99999,9,10145,1","2,1,015,1,-009,1","00,1","SYN088AAXX  25031 76458 31960 03002 10202 20153 30145 40149 52015 70044 90246 333 30/// 59009;",
"76458099999","2005-12-25T06:00:00","4","23.2","-106.4166666","4.0","COLONIA JUAN CARRASCO MAZATLAN SIN., MX","FM-12","99999","V020","320,1,N,0020,1","22000,1,9,N","010000,1,N,1","+0184,1","+0133,1","10154,1",,,,,,"00,1,+99999,9,99,9",,,"00,99,1,00,1,00,1,99999,9,00,1,00,1","0552,9","01,9",,"240,M,+0281,1","240,N,+0133,1","99999,9,10149,1","0,1,005,1,+999,9",,"SYN106AAXX  25061 76458 32960 03202 10184 20133 30149 40154 50005 90540 333 10281 20133 30/// 55092 2//// 59013;",
"76458099999","2005-12-25T09:00:00","4","23.2","-106.4166666","4.0","COLONIA JUAN CARRASCO MAZATLAN SIN., MX","FM-12","99999","V020","320,1,N,0010,1","22000,1,9,N","008000,1,N,1","+0162,1","+0133,1","10149,1",,,,,,"00,1,+99999,9,99,9",,,"00,99,1,00,1,00,1,99999,9,00,1,00,1",,"01,9",,"999,M,+0281,1",,"99999,9,10145,1","7,1,005,1,-013,1",,"SYN088AAXX  25091 76458 32958 03201 10162 20133 30145 40149 57005 90848 333 10281 30/// 59013;",
"76458099999","2005-12-25T12:00:00","4","23.2","-106.4166666","4.0","COLONIA JUAN CARRASCO MAZATLAN SIN., MX","FM-12","99999","V020","270,1,N,0010,1","22000,1,9,N","008000,1,N,1","+0148,1","+0128,1","10152,1","24,0000,9,1",,,,,"00,1,+99999,9,99,9",,,"00,99,1,00,1,00,1,99999,9,00,1,00,1",,"01,9","999,+0091,1","120,N,+0132,1","240,M,+0281,1","99999,9,10148,1","3,1,003,1,-009,1",,"SYN100AAXX  25121 76458 32958 02701 10148 20128 30148 40152 53003 91145 333 10281 20132 30091 59009 70000;","Q01  00002PRCP24"
"76458099999","2005-12-25T15:00:00","4","23.2","-106.4166666","4.0","COLONIA JUAN CARRASCO MAZATLAN SIN., MX","FM-12","99999","V020","330,1,N,0010,1","22000,1,9,N","016000,1,N,1","+0156,1","+0124,1","10166,1",,,,"4,1,03,1","4,1,03,1","00,1,+99999,9,99,9",,,"00,99,1,00,1,00,1,99999,9,00,1,00,1",,"01,9",,,,"99999,9,10161,1","2,1,013,1,-003,1","05,1","SYN088AAXX  25151 76458 31966 03301 10156 20124 30161 40166 52013 70544 91446 333 30/// 59003;",
"76458099999","2005-12-25T18:00:00","4","23.2","-106.4166666","4.0","COLONIA JUAN CARRASCO MAZATLAN SIN., MX","FM-12","99999","V020","240,1,N,0020,1","22000,1,9,N","010000,1,N,1","+0229,1","+0146,1","10165,1",,,,"4,1,06,1","4,1,06,1","00,1,+99999,9,99,9",,,"00,99,1,00,1,00,1,99999,9,00,1,00,1",,"01,9",,"120,M,+0250,1","240,N,+0130,1","99999,9,10160,1","0,1,001,1,-003,1","05,1","SYN100AAXX  25181 76458 31960 02402 10229 20146 30160 40165 50001 70544 91740 333 10250 20130 30/// 59003;",
"76458099999","2005-12-25T21:00:00","4","23.2","-106.4166666","4.0","COLONIA JUAN CARRASCO MAZATLAN SIN., MX","FM-12","99999","V020","240,1,N,0020,1","22000,1,9,N","016000,1,N,1","+0228,1","+0174,1","10132,1",,,,,,"00,1,+99999,9,99,9",,,"00,99,1,00,1,00,1,99999,9,00,1,00,1",,"01,9",,,,"99999,9,10127,1","7,1,033,1,-012,1",,"SYN082AAXX  25211 76458 32966 02402 10228 20174 30127 40132 57033 92040 333 30/// 59012;",
"76458099999","2005-12-26T00:00:00","4","23.2","-106.4166666","4.0","COLONIA JUAN CARRASCO MAZATLAN SIN., MX","FM-12","99999","V020","300,1,N,0020,1","22000,1,9,N","020000,1,N,1","+0234,1","+0161,1","10127,1","24,0000,9,1",,,,,"00,1,+99999,9,99,9",,,"00,99,1,00,1,00,1,99999,9,00,1,00,1",,"01,9",,"120,M,+0255,1","180,N,+0130,1","99999,9,10122,1","6,1,005,1,-008,1",,"SYN100AAXX  26001 76458 32970 03002 10234 20161 30122 40127 56005 92345 333 10255 20130 30/// 59008 70000;","Q01  00002PRCP24"
"76458099999","2005-12-26T03:00:00","4","23.2","-106.4166666","4.0","COLONIA JUAN CARRASCO MAZATLAN SIN., MX","FM-12","99999","V020","300,1,N,0100,1","22000,1,9,N","010000,1,N,1","+0204,1","+0151,1","99999,9",,,,,,"00,1,+99999,9,99,9",,,"00,99,1,00,1,00,1,99999,9,00,1,00,1",,"01,9",,,,"99999,9,10132,1","2,1,010,1,-010,1",,"SYN082AAXX  26031 76458 32960 03010 10204 20151 30132 40036 52010 90247 333 30/// 59010;",
"76458099999","2005-12-26T06:00:00","4","23.2","-106.4166666","4.0","COLONIA JUAN CARRASCO MAZATLAN SIN., MX","FM-12","99999","V020","310,1,N,0010,1","22000,1,9,N","010000,1,N,1","+0180,1","+0131,1","10148,1",,,,,,"00,1,+99999,9,99,9",,,"00,99,1,00,1,00,1,99999,9,00,1,00,1","0576,9","01,9",,"240,M,+0255,1","240,N,+0130,1","99999,9,10143,1","2,1,012,1,-006,1",,"SYN100AAXX  26061 76458 32960 03101 10180 20131 30143 40148 52012 90545 333 10255 20130 30/// 55096 59006;",
"76458099999","2005-12-26T09:00:00","4","23.2","-106.4166666","4.0","COLONIA JUAN CARRASCO MAZATLAN SIN., MX","FM-12","99999","V020","120,1,N,0010,1","22000,1,9,N","010000,1,N,1","+0170,1","+0133,1","10150,1",,,,,,"00,1,+99999,9,99,9",,,"00,99,1,00,1,00,1,99999,9,00,1,00,1",,"01,9",,,,"99999,9,10146,1","2,1,003,1,+001,1",,"SYN082AAXX  26091 76458 32960 01201 10170 20133 30146 40150 52003 90548 333 30/// 58001;",
"76458099999","2005-12-26T12:00:00","4","23.2","-106.4166666","4.0","COLONIA JUAN CARRASCO MAZATLAN SIN., MX","FM-12","99999","V020","300,1,N,0010,1","22000,1,9,N","010000,1,N,1","+0160,1","+0137,1","10151,1","24,0000,9,1",,,,,"00,1,+99999,9,99,9",,,"00,99,1,00,1,00,1,99999,9,00,1,00,1",,"01,9","999,+0095,1","120,N,+0126,1","240,M,+0255,1","99999,9,10146,1","4,1,000,1,-002,1",,"SYN100AAXX  26121 76458 32960 03001 10160 20137 30146 40151 54000 90838 333 10255 20126 30095 59002 70000;","Q01  00002PRCP24"
"76458099999","2005-12-26T15:00:00","4","23.2","-106.4166666","4.0","COLONIA JUAN CARRASCO MAZATLAN SIN., MX","FM-12","99999","V020","030,1,N,0010,1","22000,1,9,N","008000,1,N,1","+0169,1","+0147,1","10173,1",,,,"4,1,03,1","4,1,03,1","00,1,+99999,9,99,9",,,"00,99,1,00,1,00,1,99999,9,00,1,00,1",,"01,9",,,,"99999,9,10168,1","2,1,022,1,+007,1","05,1","SYN088AAXX  26151 76458 31958 00301 10169 20147 30168 40173 52022 70544 91446 333 30/// 58007;",
"76458099999","2005-12-26T18:00:00","4","23.2","-106.4166666","4.0","COLONIA JUAN CARRASCO MAZATLAN SIN., MX","FM-12","99999","V020","180,1,N,0010,1","22000,1,9,N","007000,1,N,1","+0234,1","+0184,1","10184,1",,,,"4,1,06,1","4,1,06,1","00,1,+99999,9,99,9",,,"00,99,1,00,1,00,1,99999,9,00,1,00,1",,"01,9",,"120,M,+0253,1","240,N,+0123,1","99999,9,10180,1","0,1,011,1,+019,1","05,1","SYN100AAXX  26181 76458 31957 01801 10234 20184 30180 40184 50011 70544 91746 333 10253 20123 30/// 58019;",
"76458099999","2005-12-26T21:00:00","4","23.2","-106.4166666","4.0","COLONIA JUAN CARRASCO MAZATLAN SIN., MX","FM-12","99999","V020","240,1,N,0020,1","22000,1,9,N","016000,1,N,1","+0248,1","+0180,1","10162,1",,,,,,"00,1,+99999,9,99,9",,,"00,99,1,00,1,00,1,99999,9,00,1,00,1",,"01,9",,,,"99999,9,10157,1","7,1,023,1,-030,1",,"SYN082AAXX  26211 76458 32966 02402 10248 20180 30157 40162 57023 92040 333 30/// 59030;",
"76458099999","2005-12-27T00:00:00","4","23.2","-106.4166666","4.0","COLONIA JUAN CARRASCO MAZATLAN SIN., MX","FM-12","99999","V020","270,1,N,0020,1","22000,1,9,N","018000,1,N,1","+0234,1","+0186,1","10156,1","24,0000,9,1",,,,,"00,1,+99999,9,99,9",,,"00,99,1,00,1,00,1,99999,9,00,1,00,1",,"01,9",,"120,M,+0270,1","180,N,+0123,1","99999,9,10151,1","6,1,006,1,+029,1",,"SYN106AAXX  27001 76458 32968 02702 10234 20186 30151 40156 56006 92340 333 10270 20123 30/// 50201 58029 70000;","Q01  00002PRCP24"
"76458099999","2005-12-27T03:00:00","4","23.2","-106.4166666","4.0","COLONIA JUAN CARRASCO MAZATLAN SIN., MX","FM-12","99999","V020","220,1,N,0010,1","22000,1,9,N","010000,1,N,1","+0202,1","+0178,1","10163,1",,,,,,"00,1,+99999,9,99,9",,,"00,99,1,00,1,00,1,99999,9,00,1,00,1",,"01,9",,,,"99999,9,10158,1","2,1,007,1,+027,1",,"SYN082AAXX  27031 76458 32960 02201 10202 20178 30158 40163 52007 90249 333 30/// 58027;",
"76458099999","2005-12-27T06:00:00","4","23.2","-106.4166666","4.0","COLONIA JUAN CARRASCO MAZATLAN SIN., MX","FM-12","99999","V020","080,1,N,0010,1","22000,1,9,N","010000,1,N,1","+0193,1","+0179,1","10174,1",,,,,,"00,1,+99999,9,99,9",,,"00,99,1,00,1,00,1,99999,9,00,1,00,1","0504,9","01,9",,"240,M,+0270,1","240,N,+0123,1","99999,9,10170,1","0,1,011,1,+026,1",,"SYN100AAXX  27061 76458 32960 00801 10193 20179 30170 40174 50011 90538 333 10270 20123 30/// 55084 58026;",
"76458099999","2005-12-27T09:00:00","4","23.2","-106.4166666","4.0","COLONIA JUAN CARRASCO MAZATLAN SIN., MX","FM-12","99999","V020","330,1,N,0010,1","22000,1,9,N","010000,1,N,1","+0174,1","+0158,1","10167,1",,,,,,"00,1,+99999,9,99,9",,,"00,99,1,00,1,00,1,99999,9,00,1,00,1",,"01,9",,,,"99999,9,10163,1","7,1,006,1,+017,1",,"SYN082AAXX  27091 76458 32960 03301 10174 20158 30163 40167 57006 90838 333 30/// 58017;",
"76458099999","2005-12-27T12:00:00","4","23.2","-106.4166666","4.0","COLONIA JUAN CARRASCO MAZATLAN SIN., MX","FM-12","99999","V020","310,1,N,0010,1","22000,1,9,N","010000,1,N,1","+0166,1","+0147,1","10163,1","24,0000,9,1",,,,,"00,1,+99999,9,99,9",,,"00,99,1,00,1,00,1,99999,9,00,1,00,1",,"01,9","999,+0122,1","120,N,+0150,1","240,M,+0270,1","99999,9,10158,1","7,1,005,1,+012,1",,"SYN100AAXX  27121 76458 32960 03101 10166 20147 30158 40163 57005 91135 333 10270 20150 30122 58012 70000;","Q01  00002PRCP24"
"76458099999","2005-12-27T15:00:00","4","23.2","-106.4166666","4.0","COLONIA JUAN CARRASCO MAZATLAN SIN., MX","FM-12","99999","V020","350,1,N,0010,1","08700,1,9,N","006000,1,N,1","+0166,1","+0147,1","10184,1",,,,"4,1,03,1","2,1,03,1","07,1,+08700,1,00,1",,,"07,99,1,00,1,00,1,99999,9,00,1,04,1",,"01,9",,,,"99999,9,10180,1","2,1,021,1,+011,1","02,1","SYN106AAXX  27151 76458 31956 73501 10166 20147 30180 40184 52021 70242 80004 91446 333 30/// 56009 58011 87079;",
"76458099999","2005-12-27T18:00:00","4","23.2","-106.4166666","4.0","COLONIA JUAN CARRASCO MAZATLAN SIN., MX","FM-12","99999","V020","150,1,N,0010,1","08700,1,9,N","016000,1,N,1","+0252,1","+0146,1","10192,1",,,,"4,1,06,1","4,1,06,1","05,1,+08700,1,00,1",,,"05,99,1,00,1,00,1,99999,9,00,1,04,1",,"01,9",,"120,M,+0267,1","240,N,+0139,1","99999,9,10188,1","0,1,008,1,+008,1","05,1","SYN118AAXX  27181 76458 31966 51501 10252 20146 30188 40192 50008 70544 80004 91746 333 10267 20139 30/// 56009 58008 85079;",
"76458099999","2005-12-27T21:00:00","4","23.2","-106.4166666","4.0","COLONIA JUAN CARRASCO MAZATLAN SIN., MX","FM-12","99999","V020","250,1,N,0020,1","06000,1,9,N","016000,1,N,1","+0232,1","+0183,1","10157,1",,,,,,"05,1,+06000,1,00,1",,,"05,99,1,00,1,00,1,99999,9,00,1,09,1",,"01,9",,,,"99999,9,10152,1","7,1,036,1,-005,1",,"SYN100AAXX  27211 76458 32966 52502 10232 20183 30152 40157 57036 80009 92040 333 30/// 56009 59005 85070;",
"76458099999","2005-12-28T00:00:00","4","23.2","-106.4166666","4.0","COLONIA JUAN CARRASCO MAZATLAN SIN., MX","FM-12","99999","V020","270,1,N,0020,1","99999,9,9,N","018000,1,N,1","+0234,1","+0184,1","10148,1","24,0000,9,1",,,,,,,,"05,99,1,00,1,00,1,99999,9,00,1,05,1",,"01,9",,"120,M,+0275,1","180,N,+0139,1","99999,9,10143,1","7,1,009,1,-008,1",,"SYN124AAXX  28001 76458 32968 52702 10234 20184 30143 40148 57009 80005 92340 333 10275 20139 30/// 50191 56009 59008 70000 85070;",
"76458099999","2005-12-28T03:00:00","4","23.2","-106.4166666","4.0","COLONIA JUAN CARRASCO MAZATLAN SIN., MX","FM-12","99999","V020","280,1,N,0010,1","22000,1,9,N","010000,1,N,1","+0204,1","+0177,1","10157,1",,,,,,"02,1,+06000,1,00,1",,,"02,99,1,00,1,00,1,99999,9,00,1,09,1",,"01,9",,,,"99999,9,10153,1","2,1,001,1,-006,1",,"SYN100AAXX  28031 76458 32960 22801 10204 20177 30153 40157 52001 80009 90249 333 30/// 56009 59006 82070;",
"76458099999","2005-12-28T06:00:00","4","23.2","-106.4166666","4.0","COLONIA JUAN CARRASCO MAZATLAN SIN., MX","FM-12","99999","V020","350,1,N,0010,1","22000,1,9,N","010000,1,N,1","+0190,1","+0172,1","10159,1",,,,,,"00,1,+99999,9,99,9",,,"00,99,1,00,1,00,1,99999,9,00,1,00,1","0462,9","01,9",,"240,M,+0275,1","240,N,+0139,1","99999,9,10155,1","1,1,002,1,-015,1",,"SYN100AAXX  28061 76458 32960 03501 10190 20172 30155 40159 51002 90540 333 10275 20139 30/// 55077 59015;",
"76458099999","2005-12-28T09:00:00","4","23.2","-106.4166666","4.0","COLONIA JUAN CARRASCO MAZATLAN SIN., MX","FM-12","99999","V020","999,9,C,0000,1","22000,1,9,N","010000,1,N,1","+0174,1","+0155,1","10154,1",,,,,,"00,1,+99999,9,99,9",,,"00,99,1,00,1,00,1,99999,9,00,1,00,1",,"01,9",,,,"99999,9,10149,1","7,1,005,1,-014,1",,"SYN082AAXX  28091 76458 32960 00000 10174 20155 30149 40154 57005 90840 333 30/// 59014;",
"76458099999","2005-12-28T12:00:00","4","23.2","-106.4166666","4.0","COLONIA JUAN CARRASCO MAZATLAN SIN., MX","FM-12","99999","V020","290,1,N,0010,1","22000,1,9,N","010000,1,N,1","+0160,1","+0147,1","10151,1","24,0000,9,1",,,,,"00,1,+99999,9,99,9",,,"00,99,1,00,1,00,1,99999,9,00,1,00,1",,"01,9","999,+0105,1","120,N,+0132,1","240,M,+0275,1","99999,9,10146,1","7,1,004,1,-002,1",,"SYN100AAXX  28121 76458 32960 02901 10160 20147 30146 40151 57004 91138 333 10275 20132 30105 59002 70000;","Q01  00002PRCP24"
"76458099999","2005-12-28T15:00:00","4","23.2","-106.4166666","4.0","COLONIA JUAN CARRASCO MAZATLAN SIN., MX","FM-12","99999","V020","999,9,C,0000,1","22000,1,9,N","012000,1,N,1","+0162,1","+0145,1","10163,1",,,,"4,1,03,1","4,1,03,1","00,1,+99999,9,99,9",,,"00,99,1,00,1,00,1,99999,9,00,1,00,1",,"01,9",,,,"99999,9,10159,1","2,1,013,1,-021,1","02,1","SYN088AAXX  28151 76458 31962 00000 10162 20145 30159 40163 52013 70244 91445 333 30/// 59021;",
"76458099999","2005-12-28T18:00:00","4","23.2","-106.4166666","4.0","COLONIA JUAN CARRASCO MAZATLAN SIN., MX","FM-12","99999","V020","180,1,N,0020,1","22000,1,9,N","008000,1,N,1","+0233,1","+0183,1","10165,1",,,,,,"00,1,+99999,9,99,9",,,"00,99,1,00,1,00,1,99999,9,00,1,00,1",,"01,9",,"120,M,+0251,1","240,N,+0131,1","99999,9,10161,1","0,1,002,1,-027,1",,"SYN094AAXX  28181 76458 32958 01802 10233 20183 30161 40165 50002 91745 333 10251 20131 30/// 59027;",
"76458099999","2005-12-28T21:00:00","4","23.2","-106.4166666","4.0","COLONIA JUAN CARRASCO MAZATLAN SIN., MX","FM-12","99999","V020","250,1,N,0020,1","22000,1,9,N","012000,1,N,1","+0232,1","+0187,1","10130,1",,,,"4,1,03,1","4,1,03,1","02,1,+06000,1,00,1",,,"02,99,1,00,1,00,1,99999,9,00,1,05,1",,"01,9",,,,"99999,9,10125,1","7,1,036,1,-025,1","02,1","SYN106AAXX  28211 76458 31962 22502 10232 20187 30125 40130 57036 70244 80005 92040 333 30/// 56009 59025 82070;",
"76458099999","2005-12-29T00:00:00","4","23.2","-106.4166666","4.0","COLONIA JUAN CARRASCO MAZATLAN SIN., MX","FM-12","99999","V020","320,1,N,0020,1","22000,1,9,N","018000,1,N,1","+0226,1","+0172,1","10123,1","24,0000,9,1",,,,,,,,"02,99,1,00,1,00,1,99999,9,00,1,05,1",,"01,9",,"120,M,+0260,1","180,N,+0131,1","99999,9,10118,1","6,1,007,1,-025,1",,"SYN124AAXX  29001 76458 32968 23202 10226 20172 30118 40123 56007 80005 92340 333 10260 20131 30/// 50181 56009 59025 70000 82070;",
"76458099999","2005-12-29T03:00:00","4","23.2","-106.4166666","4.0","COLONIA JUAN CARRASCO MAZATLAN SIN., MX","FM-12","99999","V020","310,1,N,0020,1","22000,1,9,N","016000,1,N,1","+0202,1","+0169,1","10129,1",,,,,,"00,1,+99999,9,99,9",,,"00,99,1,00,1,00,1,99999,9,00,1,00,1",,"01,9",,,,"99999,9,10125,1","2,1,007,1,-028,1",,"SYN082AAXX  29031 76458 32966 03102 10202 20169 30125 40129 52007 90248 333 30/// 59028;",
"76458099999","2005-12-29T06:00:00","4","23.2","-106.4166666","4.0","COLONIA JUAN CARRASCO MAZATLAN SIN., MX","FM-12","99999","V020","330,1,N,0010,1","22000,1,9,N","012000,1,N,1","+0176,1","+0154,1","10130,1",,,,,,"00,1,+99999,9,99,9",,,"00,99,1,00,1,00,1,99999,9,00,1,00,1","0492,9","01,9",,"240,M,+0260,1","240,N,+0131,1","99999,9,10126,1","0,1,001,1,+999,9",,"SYN106AAXX  29061 76458 32962 03301 10176 20154 30126 40130 50001 90540 333 10260 20131 30/// 55082 2//// 59029;",
"76458099999","2005-12-29T09:00:00","4","23.2","-106.4166666","4.0","COLONIA JUAN CARRASCO MAZATLAN SIN., MX","FM-12","99999","V020","240,1,N,0010,1","22000,1,9,N","010000,1,N,1","+0162,1","+0146,1","10120,1",,,,,,"00,1,+99999,9,99,9",,,"00,99,1,00,1,00,1,99999,9,00,1,00,1",,"01,9",,,,"99999,9,10116,1","7,1,010,1,-034,1",,"SYN082AAXX  29091 76458 32960 02401 10162 20146 30116 40120 57010 90838 333 30/// 59034;",
"76458099999","2005-12-29T12:00:00","4","23.2","-106.4166666","4.0","COLONIA JUAN CARRASCO MAZATLAN SIN., MX","FM-12","99999","V020","150,1,N,0010,1","22000,1,9,N","010000,1,N,1","+0162,1","+0145,1","10108,1","24,0000,9,1",,,,,"00,1,+99999,9,99,9",,,"00,99,1,00,1,00,1,99999,9,00,1,00,1",,"01,9","999,+0106,1","120,N,+0144,1","240,M,+0260,1","99999,9,10104,1","7,1,011,1,-042,1",,"SYN100AAXX  29121 76458 32960 01501 10162 20145 30104 40108 57011 91138 333 10260 20144 30106 59042 70000;","Q01  00002PRCP24"
"76458099999","2005-12-29T15:00:00","4","23.2","-106.4166666","4.0","COLONIA JUAN CARRASCO MAZATLAN SIN., MX","FM-12","99999","V020","090,1,N,0020,1","22000,1,9,N","000200,1,N,1","+0174,1","+0165,1","10125,1",,,,"4,1,03,1","4,1,03,1","00,1,+99999,9,99,9",,,"00,99,1,00,1,00,1,99999,9,00,1,00,1",,"01,9",,,,"99999,9,10120,1","2,1,016,1,-039,1","05,1","SYN088AAXX  29151 76458 31902 00902 10174 20165 30120 40125 52016 70544 91445 333 30/// 59039;",
"76458099999","2005-12-29T18:00:00","4","23.2","-106.4166666","4.0","COLONIA JUAN CARRASCO MAZATLAN SIN., MX","FM-12","99999","V020","110,1,N,0020,1","00540,1,9,N","006000,1,N,1","+0221,1","+0177,1","10135,1",,,,"4,1,06,1","4,1,06,1","07,1,+00540,1,06,1",,,"07,99,1,07,1,04,1,00450,1,00,1,00,1",,"01,9",,"120,M,+0233,1","240,N,+0145,1","99999,9,10131,1","2,1,011,1,-030,1","05,1","SYN112AAXX  29181 76458 31456 71102 10221 20177 30131 40135 52011 70544 87400 91745 333 10233 20145 30/// 59030 87618;",
"76458099999","2005-12-29T21:00:00","4","23.2","-106.4166666","4.0","COLONIA JUAN CARRASCO MAZATLAN SIN., MX","FM-12","99999","V020","220,1,N,0020,1","08700,1,9,N","006000,1,N,1","+0225,1","+0179,1","10111,1",,,,"4,1,03,1","4,1,03,1","06,1,+08700,1,00,1",,,"06,99,1,00,1,00,1,99999,9,00,1,04,1",,"01,9",,,,"99999,9,10106,1","7,1,025,1,-019,1","05,1","SYN106AAXX  29211 76458 31956 62202 10225 20179 30106 40111 57025 70544 80004 92046 333 30/// 56009 59019 86079;",
"76458099999","2005-12-30T00:00:00","4","23.2","-106.4166666","4.0","COLONIA JUAN CARRASCO MAZATLAN SIN., MX","FM-12","99999","V020","270,1,N,0020,1","99999,9,9,N","999999,9,N,1","+0220,1","+0185,1","10099,1","24,0000,9,1",,,"4,1,06,1","4,1,06,1",,,,"07,99,1,00,1,00,1,99999,9,00,1,04,1",,"01,9",,"120,M,+0252,1","180,N,+0145,1","99999,9,10095,1","7,1,011,1,-024,1","05,1","SYN130AAXX  30001 76458 31954 72702 10220 20185 30095 40099 57011 70544 80004 92346 333 10252 20145 30/// 50291 56009 59024 70000 87079;",
"76458099999","2005-12-30T06:00:00","4","23.2","-106.4166666","4.0","COLONIA JUAN CARRASCO MAZATLAN SIN., MX","FM-12","99999","V020","350,1,N,0010,1","22000,1,9,N","010000,1,N,1","+0182,1","+0157,1","10114,1",,,,,,"00,1,+99999,9,99,9",,,"00,99,1,00,1,00,1,99999,9,00,1,00,1","0390,9","01,9",,"240,M,+0252,1","240,N,+0145,1","99999,9,10110,1","3,1,009,1,-016,1",,"SYN100AAXX  30061 76458 32960 03501 10182 20157 30110 40114 53009 90533 333 10252 20145 30/// 55065 59016;",
"76458099999","2005-12-30T09:00:00","4","23.2","-106.4166666","4.0","COLONIA JUAN CARRASCO MAZATLAN SIN., MX","FM-12","99999","V020","340,1,N,0010,1","22000,1,9,N","010000,1,N,1","+0180,1","+0144,1","10116,1",,,,,,"00,1,+99999,9,99,9",,,"00,99,1,00,1,00,1,99999,9,00,1,00,1",,"01,9",,,,"99999,9,10111,1","4,1,000,1,-004,1",,"SYN082AAXX  30091 76458 32960 03401 10180 20144 30111 40116 54001 90839 333 30/// 59004;",
"76458099999","2005-12-30T12:00:00","4","23.2","-106.4166666","4.0","COLONIA JUAN CARRASCO MAZATLAN SIN., MX","FM-12","99999","V020","130,1,N,0010,1","22000,1,9,N","010000,1,N,1","+0166,1","+0147,1","10111,1","24,0000,9,1",,,,,"00,1,+99999,9,99,9",,,"00,99,1,00,1,00,1,99999,9,00,1,00,1",,"01,9","999,+0105,1","120,N,+0140,1","240,M,+0252,1","99999,9,10106,1","7,1,006,1,+002,1",,"SYN100AAXX  30121 76458 32960 01301 10166 20147 30106 40111 57006 91135 333 10252 20140 30105 58002 70000;","Q01  00002PRCP24"
"76458099999","2005-12-30T15:00:00","4","23.2","-106.4166666","4.0","COLONIA JUAN CARRASCO MAZATLAN SIN., MX","FM-12","99999","V020","999,9,C,0000,1","22000,1,9,N","005000,1,N,1","+0181,1","+0169,1","10117,1",,,,"4,1,03,1","0,1,03,1","01,1,+03600,1,03,1",,,"02,99,1,01,1,00,1,02250,1,03,1,01,1",,"01,9",,,,"99999,9,10112,1","0,1,006,1,-008,1","05,1","SYN112AAXX  30151 76458 31850 20000 10181 20169 30112 40117 50006 70540 81031 91447 333 30/// 56/99 59008 81362 81068;",
"76458099999","2005-12-30T18:00:00","4","23.2","-106.4166666","4.0","COLONIA JUAN CARRASCO MAZATLAN SIN., MX","FM-12","99999","V020","180,1,N,0020,1","22000,1,9,N","008000,1,N,1","+0223,1","+0173,1","10139,1",,,,"4,1,06,1","4,1,06,1","00,1,+99999,9,99,9",,,"00,99,1,00,1,00,1,99999,9,00,1,00,1",,"01,9",,"120,M,+0236,1","240,N,+0136,1","99999,9,10134,1","0,1,022,1,+003,1","05,1","SYN100AAXX  30181 76458 31958 01802 10223 20173 30134 40139 50022 70544 91745 333 10236 20136 30/// 58003;",
"76458099999","2005-12-30T21:00:00","4","23.2","-106.4166666","4.0","COLONIA JUAN CARRASCO MAZATLAN SIN., MX","FM-12","99999","V020","240,1,N,0020,1","22000,1,9,N","010000,1,N,1","+0224,1","+0137,1","10113,1",,,,"4,1,03,1","4,1,03,1","00,1,+99999,9,99,9",,,"00,99,1,00,1,00,1,99999,9,00,1,00,1",,"01,9",,,,"99999,9,10109,1","7,1,025,1,+003,1","02,1","SYN088AAXX  30211 76458 31960 02402 10224 20137 30109 40113 57025 70244 92040 333 30/// 58003;",
"76458099999","2005-12-31T03:00:00","4","23.2","-106.4166666","4.0","COLONIA JUAN CARRASCO MAZATLAN SIN., MX","FM-12","99999","V020","320,1,N,0020,1","22000,1,9,N","010000,1,N,1","+0196,1","+0159,1","10117,1",,,,,,"00,1,+99999,9,99,9",,,"00,99,1,00,1,00,1,99999,9,00,1,00,1",,"01,9",,,,"99999,9,10112,1","2,1,009,1,+011,1",,"SYN082AAXX  31031 76458 32960 03202 10196 20159 30112 40117 52009 90240 333 30/// 58011;",
"76458099999","2005-12-31T06:00:00","4","23.2","-106.4166666","4.0","COLONIA JUAN CARRASCO MAZATLAN SIN., MX","FM-12","99999","V020","330,1,N,0010,1","22000,1,9,N","010000,1,N,1","+0174,1","+0153,1","10124,1",,,,,,"00,1,+99999,9,99,9",,,"00,99,1,00,1,00,1,99999,9,00,1,00,1","0552,9","01,9",,"240,M,+0257,1","240,N,+0136,1","99999,9,10119,1","2,1,007,1,+009,1",,"SYN100AAXX  31061 76458 32960 03301 10174 20153 30119 40124 52007 90533 333 10257 20136 30/// 55092 58009;",
"76458099999","2005-12-31T15:00:00","4","23.2","-106.4166666","4.0","COLONIA JUAN CARRASCO MAZATLAN SIN., MX","FM-12","99999","V020","330,1,N,0010,1","22000,1,9,N","010000,1,N,1","+0158,1","+0145,1","10146,1",,,,"4,1,03,1","4,1,03,1","00,1,+99999,9,99,9",,,"00,99,1,00,1,00,1,99999,9,00,1,00,1",,"01,9",,,,"99999,9,10141,1","2,1,011,1,+029,1","05,1","SYN088AAXX  31151 76458 31960 03301 10158 20145 30141 40146 52011 70544 91445 333 30/// 58029;",
"76458099999","2005-12-31T18:00:00","4","23.2","-106.4166666","4.0","COLONIA JUAN CARRASCO MAZATLAN SIN., MX","FM-12","99999","V020","240,1,N,0020,1","22000,1,9,N","008000,1,N,1","+0219,1","+0166,1","10149,1",,,,"4,1,06,1","4,1,06,1","00,1,+99999,9,99,9",,,"00,99,1,00,1,00,1,99999,9,00,1,00,1",,"01,9",,"120,M,+0239,1","240,N,+0119,1","99999,9,10144,1","0,1,003,1,+010,1","05,1","SYN100AAXX  31181 76458 31958 02402 10219 20166 30144 40149 50003 70544 91745 333 10239 20119 30/// 58010;",
"76458099999","2005-12-31T21:00:00","4","23.2","-106.4166666","4.0","COLONIA JUAN CARRASCO MAZATLAN SIN., MX","FM-12","99999","V020","250,1,N,0020,1","22000,1,9,N","010000,1,N,1","+0234,1","+0185,1","10123,1",,,,"4,1,03,1","4,1,03,1","00,1,+99999,9,99,9",,,"00,99,1,00,1,00,1,99999,9,00,1,00,1",,"01,9",,,,"99999,9,10118,1","7,1,026,1,+008,1","02,1","SYN088AAXX  31211 76458 31960 02502 10234 20185 30118 40123 57026 70244 92040 333 30/// 58008;",
